0215043900999992000010100004+60030-043120FM-12+0019BGPC V0202501N011812200019N9999999N1-00841-00851096591ADDAA106000191AY101061AY201061GA1001+999999999GF100991001001999999001001MA1999999095671MD1210191+9999MW1361OA149902521REMSYN088AAXX  01004 04390 119// 02523 11084 21085 39567 49659 52019 69911 73600 333 91149 91037;
0181043900999992000010103004+60030-043120FM-12+0019BGPC V0202301N009812200019N0150001N1-00771-00801096671ADDAY131031AY231031GA1001+999999999GF100991001001999999001001MA1999999095751MD1210081+9999MW1361REMSYN076AAXX  01034 04390 41965 02319 11077 21080 39575 49667 52008 73633 333 91141;
0215043900999992000010106004+60030-043120FM-12+0019BGPC V0202301N006710150019N0010001N1-00771-00781096691ADDAA112002091GF108991081021017501999999KA1120M-00671KA2120N-00901MA1999999095771MD1210021+9999OA149902111REMSYN100AAXX  01064 04390 12710 82313 11077 21078 39577 49669 52002 60022 882// 333 11067 21090 91141 91229;
0181043900999992000010109004+60030-043120FM-12+0019BGPC V0202701N013912200019N0150001N1-00721-00731096421ADDAY131031AY231031GA1001+999999999GF100991001001999999001001MA1999999095511MD1710261+9999MW1361REMSYN076AAXX  01094 04390 41965 02727 11072 21073 39551 49642 57026 73633 333 91137;
0111043900999992000010112004+60030-043120FM-12+0019BGPC V0202601N010319999999N9999999N1-00451-00501096491ADDMA1999999095591MD1210081+9999REMSYN070AAXX  01124 04390 46/// /2620 11045 21050 39559 49649 52008 333 91137;
0188043900999992000010115004+60030-043120FM-12+0019BGPC V0202701N017510150019N0250001N1-00371-00971097011ADDAY131031AY221031GF107991071001017501021999MA1999999096101MD1210511+9999MW1361OA149902521REMSYN088AAXX  01154 04390 41775 72734 11037 21097 39610 49701 52051 73632 8702/ 333 91149 91046;
0262043900999992000010118004+60030-043120FM-12+0019BGPC V0202601N010810300019N0300001N1-00191-01141097571ADDAA106000091AY131061AY231061GF107991031081008001021999KA1120M-00171KA2120N-00771MA1999999096661MD1210561+9999MW1361OA149902521REMSYN106AAXX  01184 04390 31580 72621 11019 21114 39666 49757 52056 73633 8382/ 333 11017 21077 91149 91032 91239;EQDQ01  00002PRCP06
0143043900999992000010121004+60030-043120FM-12+0019BGPC V0202601N009819999999N0050001N1-00221-01171097991ADDGF108991081001999999041999MA1999999097081MD1210421+9999REMSYN076AAXX  01214 04390 42950 82619 11022 21117 39708 49799 52042 8804/ 333 91140;
0187043900999992000010200004+60030-043120FM-12+0019BGPC V0202501N007712200019N9999999N1-00301-01221098191ADDAA106000791GA1001+999999999GF100991001001999999001001MA1999999097271MD1210191+9999OA149902061REMSYN082AAXX  02004 04390 129// 02515 11030 21122 39727 49819 52019 69901 333 91140 91226;
0170043900999992000010203004+60030-043120FM-12+0019BGPC V0202701N009812200019N9999999N1-00371-01361098251ADDGA1001+999999999GF100991001001999999001001MA1999999097331MD1210061+9999OA149901601REMSYN076AAXX  02034 04390 429// 02719 11037 21136 39733 49825 52006 333 91131 91031;
0149043900999992000010206004+60030-043120FM-12+0019BGPC V0202601N007219999999N9999999N1-00431-01491098371ADDKA1120M-00191KA2120N-00441MA1999999097451MD1210121+9999REMSYN082AAXX  02064 04390 46/// /2614 11043 21149 39745 49837 52012 333 11019 21044 91134;
0188043900999992000010209004+60030-043120FM-12+0019BGPC V0202701N009312200019N0250001N1-00421-01551098371ADDAY131031AY211031GF102991021001017501021999MA1999999097451MD1410001+9999MW1361OA149901901REMSYN088AAXX  02094 04390 41775 22718 11042 21155 39745 49837 54000 73631 8202/ 333 91137 91033;
0190043900999992000010212004+60030-043120FM-12+0019BGPC V0202601N006212200019N0300001N1-00491-01581098521ADDAA106000091GF101991011041012501999999MA1999999097591MD1210141+9999OA149901901REMSYN082AAXX  02124 04390 32680 12612 11049 21158 39759 49852 52014 814// 333 91137 91227;EQDQ01  00002PRCP06
0181043900999992000010215004+60030-043120FM-12+0019BGPC V0202701N014412200019N0250001N1-00481-01661098391ADDAY131031AY201031GA1001+999999999GF100991001001999999001001MA1999999097471MD1710121+9999MW1361REMSYN076AAXX  02154 04390 41975 02728 11048 21166 39747 49839 57012 73630 333 91140;
0228043900999992000010218004+60030-043120FM-12+0019BGPC V0202601N007712200019N0500001N1-00411-02071098431ADDAA106000091GF102991021001017501021999KA1120M-00361KA2120N-00541MA1999999097511MD1210041+9999OA149902111REMSYN094AAXX  02184 04390 32784 22615 11041 21207 39751 49843 52004 8202/ 333 11036 21054 91141 91231;EQDQ01  00002PRCP06
0170043900999992000010221004+60030-043120FM-12+0019BGPC V0202501N004112200019N9999999N1-00551-02101098461ADDGA1001+999999999GF100991001001999999001001MA1999999097531MD1210021+9999OA149901541REMSYN076AAXX  02214 04390 429// 02508 11055 21210 39753 49846 52002 333 91130 91221;
0183043900999992000010300004+60030-043120FM-12+0019BGPC V0202801N006712200019N9999999N1-00531-02221098441ADDAA106000091GA1001+999999999GF100991001001999999001001MA1999999097511MD1710021+9999REMSYN070AAXX  03004 04390 329// 02813 11053 21222 39751 49844 57002 333 91130;EQDQ01  00002PRCP06
0153043900999992000010303004+60030-043120FM-12+0019BGPC V0202801N007712200019N9999999N1-00641-02031098401ADDGA1001+999999999GF100991001001999999001001MA1999999097471MD1710041+9999REMSYN070AAXX  03034 04390 429// 02815 11064 21203 39747 49840 57004 333 91124;
0266043900999992000010306004+60030-043120FM-12+0019BGPC V0202701N010312200019N0150001N1-00751-02131098261ADDAA106000091AY131061AY201061GA1001+999999999GF100991001001999999001001KA1120M-00411KA2120N-00771MA1999999097331MD1710141+9999MW1361OA149901851REMSYN094AAXX  03064 04390 31965 02720 11075 21213 39733 49826 57014 73630 333 11041 21077 91136 91031;EQDQ01  00002PRCP06
0128043900999992000010309004+60030-043120FM-12+0019BGPC V0202701N014919999999N9999999N1-00761-01681098331ADDMA1999999097401MD1210071+9999OA149902521REMSYN076AAXX  03094 04390 46/// /2729 11076 21168 39740 49833 52007 333 91149 91040;
0211043900999992000010312004+60030-043120FM-12+0019BGPC V0202701N013912200019N0500001N1-00781-01661098601ADDAA106000091AY131061AY201061GA1001+999999999GF100991001001999999001001MA1999999097661MD1210261+9999MW1001REMSYN076AAXX  03124 04390 31984 02727 11078 21166 39766 49860 52026 70030 333 91149;EQDQ01  00002PRCP06
0188043900999992000010315004+60030-043120FM-12+0019BGPC V0202801N012312200019N0250001N1-00721-01681098831ADDAY131031AY201031GF101991011001999999041999MA1999999097891MD1210231+9999MW1361OA149902011REMSYN088AAXX  03154 04390 41975 12824 11072 21168 39789 49883 52023 73630 8104/ 333 91139 91037;
0256043900999992000010318004+60030-043120FM-12+0019BGPC V0202701N017512200019N0500001N1-00731-01591098781ADDAA106000091AY131061AY201061GF103991031001022501041999KA1120M-00691KA2120N-00801MA1999999097841MD1710051+9999MW1361OA149903041REMSYN100AAXX  03184 04390 31884 32734 11073 21159 39784 49878 57005 73630 8304/ 333 11069 21080 91159 91049;EQDQ01  00002PRCP06
0198043900999992000010321004+60030-043120FM-12+0019BGPC V0202701N020012200019N0250001N1-00711-01721098911ADDAY131031AY231031GA1001+999999999GF100991001001999999001001MA1999999097971MD1210131+9999MW1361OA149902731REMSYN082AAXX  03214 04390 41975 02739 11071 21172 39797 49891 52013 73633 333 91153 91051;
0228043900999992000010400004+60030-043120FM-12+0019BGPC V0202801N016412200019N0250001N1-00711-01711098991ADDAA106000091AY131061AY231061GA1001+999999999GF100991001001999999001001MA1999999098051MD1210081+9999MW1361OA149902831REMSYN082AAXX  04004 04390 31975 02832 11071 21171 39805 49899 52008 73633 333 91155 91045;EQDQ01  00002PRCP06
0170043900999992000010403004+60030-043120FM-12+0019BGPC V0202801N012912200019N9999999N1-00661-01701098981ADDGA1001+999999999GF100991001001999999001001MA1999999098041MD1710011+9999OA149902471REMSYN076AAXX  04034 04390 429// 02825 11066 21170 39804 49898 57001 333 91148 91037;
0266043900999992000010406004+60030-043120FM-12+0019BGPC V0202801N009812200019N0150001N1-00621-01691098981ADDAA106000091AY131061AY201061GA1001+999999999GF100991001001999999001001KA1120M-00581KA2120N-00761MA1999999098051MD1210011+9999MW1001OA149902471REMSYN094AAXX  04064 04390 31965 02819 11062 21169 39805 49898 52001 70030 333 11058 21076 91148 91234;EQDQ01  00002PRCP06
0170043900999992000010409004+60030-043120FM-12+0019BGPC V0202901N004612200019N9999999N1-00641-01681099061ADDGA1001+999999999GF100991001001999999001001MA1999999098121MD1210071+9999OA149901601REMSYN076AAXX  04094 04390 429// 02909 11064 21168 39812 49906 52007 333 91131 91224;
0190043900999992000010412004+60030-043120FM-12+0019BGPC V0202901N005712200019N0500001N1-00621-01611099231ADDAA106000091GF103991031001999999041999MA1999999098291MD1210171+9999OA149901601REMSYN082AAXX  04124 04390 32984 32911 11062 21161 39829 49923 52017 8304/ 333 91131 91224;EQDQ01  00002PRCP06
0101043900999992000010415004+60030-043120FM-12+0019BGPC V0202501N003619999999N9999999N1-00651-01711099351ADDMA1999999098411MD1210121+9999REMSYN060AAXX  04154 04390 46/// /2507 11065 21171 39841 49935 52012;
0205043900999992000010418004+60030-043120FM-12+0019BGPC V0202401N003619999999N0500001N1-00651-01751099421ADDAA106000091GF105991001001999999001061KA1120M-00561KA2999N-00711MA1999999098481MD1210071+9999REMSYN082AAXX  04184 04390 32984 52407 11065 21175 39848 49942 52007 80006 333 11056 21071;EQDQ01  00002PRCP06
0143043900999992000010421004+60030-043120FM-12+0019BGPC V0202901N006712200019N0250001N1-00551-01651099521ADDGF102991021001999999021999MA1999999098581MD1210101+9999REMSYN076AAXX  04214 04390 42975 22913 11055 21165 39858 49952 52010 8202/ 333 91124;
0183043900999992000010500004+60030-043120FM-12+0019BGPC V0202801N012312200019N0250001N1-00511-01621099581ADDAA106000091GA1001+999999999GF100991001001999999001001MA1999999098641MD1210061+9999REMSYN070AAXX  05004 04390 32975 02824 11051 21162 39864 49958 52006 333 91134;EQDQ01  00002PRCP06
0153043900999992000010503004+60030-043120FM-12+0019BGPC V0202701N010812200019N9999999N1-00561-01671099681ADDGA1001+999999999GF100991001001999999001001MA1999999098741MD1210101+9999REMSYN070AAXX  05034 04390 429// 02721 11056 21167 39874 49968 52010 333 91137;
0238043900999992000010506004+60030-043120FM-12+0019BGPC V0202601N009312200019N0150001N1-00621-01721099651ADDAA106000091GA1001+999999999GF100991001001999999001001KA1120M-00481KA2120N-00651MA1999999098711MD1710031+9999OA149901901REMSYN088AAXX  05064 04390 32965 02618 11062 21172 39871 49965 57003 333 11048 21065 91137 91231;EQDQ01  00002PRCP06
0160043900999992000010509004+60030-043120FM-12+0019BGPC V0202501N010819999999N0400001N1-00721-01731099581ADDGF105991051001999999071999MA1999999098641MD1710071+9999OA149901751REMSYN082AAXX  05094 04390 42982 52521 11072 21173 39864 49958 57007 8507/ 333 91134 91031;
0190043900999992000010512004+60030-043120FM-12+0019BGPC V0202701N010810210019N0350001N1-00681-01751099321ADDAA106000091GF106991061001022501021999MA1999999098381MD1710261+9999OA149901751REMSYN082AAXX  05124 04390 32881 62721 11068 21175 39838 49932 57026 8602/ 333 91134 91032;EQDQ01  00002PRCP06
0160043900999992000010515004+60030-043120FM-12+0019BGPC V0202501N004110210019N0300001N1-00611-01631099151ADDGF108991081001022501021999MA1999999098211MD1710171+9999OA149901901REMSYN082AAXX  05154 04390 42880 82508 11061 21163 39821 49915 57017 8802/ 333 91137 91227;
0228043900999992000010518004+60030-043120FM-12+0019BGPC V0202801N003110120019N0250001N1-00581-01401098791ADDAA106000091GF108991081001012501021999KA1120M-00541KA2120N-00741MA1999999097861MD1710351+9999OA149901901REMSYN094AAXX  05184 04390 32675 82806 11058 21140 39786 49879 57035 8802/ 333 11054 21074 91137 91227;EQDQ01  00002PRCP06
0161043900999992000010521004+60030-043120FM-12+0019BGPC V0200301N006210120019N0005001N1-00681+99999098421ADDAY171031AY221031GF108991081001012501021999MA1999999097491MD1710371+9999MW1711REMSYN072AAXX  05214 04390 41605 80312 11068 21067 39749 49842 57037 77172 8802/;
0207043900999992000010603004+60030-043120FM-12+0019BGPC V0200301N019010120019N0002001N1-00611-00631097101ADDAY171031AY271031GF108991081001012501021999MA1999999096181MD1710742+9999MW1711OA149902781REMSYN088AAXX  06034 04390 41602 80337 11061 21063 39618 49710 57074 77177 8802/ 333 91154 91053;EQDQ01+000742APC3  
0243043900999992000010606004+60030-043120FM-12+0019BGPC V0200101N016410120019N0003001N1-00431-00431096571ADDAA112001091AY171061AY271061GF108991081001012501021999KA1120M-00431KA2120N-00721MA1999999095671MD1710511+9999MW1711OA149903401REMSYN106AAXX  06064 04390 11603 80132 11043 21043 39567 49657 57051 60012 77177 8802/ 333 11043 21072 91166 91051;
0188043900999992000010609004+60030-043120FM-12+0019BGPC V0203201N015410075019N0010001N1-00311-00311096121ADDAY171031AY271031GF108991081021008001999999MA1999999095221MD1710451+9999MW1731OA149902931REMSYN088AAXX  06094 04390 41510 83230 11031 21031 39522 49612 57045 77377 882// 333 91157 91048;
0211043900999992000010612004+60030-043120FM-12+0019BGPC V0203301N013910042019N0003001N1-00251-00251095881ADDAA106007991AY171061AY271061GF108991081071004501999999MA1999999094991MD1710231+9999MW1711OA149902931REMSYN100AAXX  06124 04390 11403 83327 11025 21025 39499 49588 57023 60081 77177 887// 333 91157 91042 91238;
0188043900999992000010615004+60030-043120FM-12+0019BGPC V0203301N013410012019N0001001N1-00201-00201095851ADDAY171031AY271031GF108991081071001501999999MA1999999094961MD1710031+9999MW1731OA149902371REMSYN088AAXX  06154 04390 41201 83326 11020 21020 39496 49585 57003 77377 887// 333 91146 91045;
0190043900999992000010621004+60030-043120FM-12+0019BGPC V0203301N010310042019N0005001N1-00101+99999096551ADDAY171031AY271031GF108991081071004501999999MA1999999095661MD1210522+9999MW1711REMSYN082AAXX  06214 04390 41405 83320 11010 21009 39566 49655 52052 77177 887// 333 91143;EQDQ01+000522APC3  
0205043900999992000010700004+60030-043120FM-12+0019BGPC V0203101N005710120019N0100001N1-00051-00051097201ADDAA106000591AY171061AY221061GF108991081001012501021999MA1999999096301MD1210641+9999MW1001OA149902211REMSYN094AAXX  07004 04390 11660 83111 11005 21005 39630 49720 52064 69961 70072 8802/ 333 91143 91227;
0190043900999992000010703004+60030-043120FM-12+0019BGPC V0203301N007210042019N0010001N1-00261-00261097761ADDAY171031AY271031GF108991081071004501999999MA1999999096851MD1210552+9999MW1711REMSYN082AAXX  07034 04390 41410 83314 11026 21026 39685 49776 52055 77177 887// 333 91124;EQDQ01+000552APC3  
0243043900999992000010706004+60030-043120FM-12+0019BGPC V0203301N011310042019N0003001N1-00491-00491098221ADDAA112003091AY171061AY271061GF108991081071004501999999KA1120M-00031KA2120N-00491MA1999999097301MD1210451+9999MW1711OA149901701REMSYN106AAXX  07064 04390 11403 83322 11049 21049 39730 49822 52045 60032 77177 887// 333 11003 21049 91133 91033;
0188043900999992000010709004+60030-043120FM-12+0019BGPC V0203301N015410075019N0010001N1-00761-00791098551ADDAY171031AY271031GF108991081051008001999999MA1999999097621MD1210321+9999MW1731OA149902471REMSYN088AAXX  07094 04390 41510 83330 11076 21079 39762 49855 52032 77377 885// 333 91148 91045;
0205043900999992000010712004+60030-043120FM-12+0019BGPC V0203301N018512200019N0100001N1-00881-00951098711ADDAA106006191AY121061AY211061GF103991031001017501021999MA1999999097771MD1210151+9999MW1391OA149902831REMSYN094AAXX  07124 04390 11760 33336 11088 21095 39777 49871 52015 60061 73921 8302/ 333 91155 91051;
0198043900999992000010715004+60030-043120FM-12+0019BGPC V0203301N014912200019N0100001N1-00881-01161098861ADDAY111031AY201031GA1001+999999999GF100991001001999999001001MA1999999097921MD1210151+9999MW1391OA149902831REMSYN082AAXX  07154 04390 41960 03329 11088 21116 39792 49886 52015 73910 333 91155 91048;
0249043900999992000010718004+60030-043120FM-12+0019BGPC V0203301N014410210019N0100001N1-00871-01481099081ADDAA112000191AY121061AY201061GF105991051001022501041051KA1120M-00491KA2120N-00981MA1999999098141MD1210221+9999MW1381OA149902831REMSYN112AAXX  07184 04390 11860 53328 11087 21148 39814 49908 52022 69912 73820 85045 333 11049 21098 91155 91041 91239;
0160043900999992000010721004+60030-043120FM-12+0019BGPC V0203301N006712200019N0150001N1-00901-01701099461ADDGF102991021001999999041999MA1999999098511MD1210371+9999OA149902111REMSYN082AAXX  07214 04390 42965 23313 11090 21170 39851 49946 52037 8204/ 333 91141 91228;
0200043900999992000010800004+60030-043120FM-12+0019BGPC V0203301N006212200019N0250001N1-00881-01821099631ADDAA106000091GA1001+999999999GF100991001001999999001001MA1999999098681MD1210171+9999OA149902111REMSYN076AAXX  08004 04390 32975 03312 11088 21182 39868 49963 52017 333 91141 91228;EQDQ01  00002PRCP06
0153043900999992000010803004+60030-043120FM-12+0019BGPC V0203301N005112200019N9999999N1-00811-01761099621ADDGA1001+999999999GF100991001001999999001001MA1999999098671MD1710011+9999REMSYN070AAXX  08034 04390 429// 03310 11081 21176 39867 49962 57001 333 91124;
0221043900999992000010806004+60030-043120FM-12+0019BGPC V0203301N006212200019N0150001N1-00781-01761099581ADDAA106000091GA1001+999999999GF100991001001999999001001KA1120M-00761KA2120N-00991MA1999999098631MD1710041+9999REMSYN082AAXX  08064 04390 32965 03312 11078 21176 39863 49958 57004 333 11076 21099 91124;EQDQ01  00002PRCP06
0111043900999992000010809004+60030-043120FM-12+0019BGPC V0203301N004619999999N9999999N1-00781-01841099611ADDMA1999999098661MD1210031+9999REMSYN070AAXX  08094 04390 46/// /3309 11078 21184 39866 49961 52003 333 91128;
0183043900999992000010812004+60030-043120FM-12+0019BGPC V0203301N005112200019N0250001N1-00701-01771099751ADDAA106000091GA1001+999999999GF100991001001999999001001MA1999999098811MD1210151+9999REMSYN070AAXX  08124 04390 32975 03310 11070 21177 39881 49975 52015 333 91128;EQDQ01  00002PRCP06
0133043900999992000010815004+60030-043120FM-12+0019BGPC V0203301N007712200019N0300001N1-00701-01711099841ADDGF101991011001022501021999MA1999999098901MD1210091+9999REMSYN066AAXX  08154 04390 42880 13315 11070 21171 39890 49984 52009 8102/;
0205043900999992000010818004+60030-043120FM-12+0019BGPC V0203301N005712200019N0500001N1-00761-01771099721ADDAA106000091GF103991001001999999001061KA1120M-00671KA2999N-00831MA1999999098771MD1710131+9999REMSYN082AAXX  08184 04390 32984 33311 11076 21177 39877 49972 57013 80006 333 11067 21083;EQDQ01  00002PRCP06
0143043900999992000010821004+60030-043120FM-12+0019BGPC V0203301N003612200019N0250001N1-00771-01781099651ADDGA1001+999999999GF100991001001999999001001MA1999999098701MD1710071+9999REMSYN060AAXX  08214 04390 42975 03307 11077 21178 39870 49965 57007;
0193043900999992000010900004+60030-043120FM-12+0019BGPC V0203301N002112200019N0250001N1-00801-01721099211ADDAA106000091GA1001+999999999GF100991001001999999001001MA1999999098271MD1710431+9999REMSYN080AAXX  09004 04390 32975 03304 11080 21172 39827 49921 57043 333 91215 555 61025;EQDQ01  00002PRCP06
0162043900999992000010903004+60030-043120FM-12+0019BGPC V0203301N007710150019N0050001N1-00771-01581098671ADDGF108991081001017501021999MA1999999097731MD1710542+9999REMSYN076AAXX  09034 04390 42750 83315 11077 21158 39773 49867 57054 8802/ 333 91121;EQDQ01+000542APC3  
0179043900999992000010909004+60030-043120FM-12+0019BGPC V0203301N014419999999N9999999N1-00791-01261097222ADDMA1999999096302MD1710512+9999OA149902681REMSYN076AAXX  09094 04390 46/// /3328 11079 21126 39630 49722 57051 333 91152 91046;EQDQ01+096303APOSP Q02+097223APOSLPQ03+000512APC3  
0205043900999992000010912004+60030-043120FM-12+0019BGPC V0203301N005710120019N0080001N1-00741-00961097321ADDAA106000191AY171061AY221061GF108991081001012501021999MA1999999096401MD1210101+9999MW1711OA149902681REMSYN094AAXX  09124 04390 11658 83311 11074 21096 39640 49732 52010 69921 77172 8802/ 333 91152 91230;
0161043900999992000010915004+60030-043120FM-12+0019BGPC V0203301N001510150019N0020001N1-00761-00771097501ADDAY171031AY271031GF108991081001017501021999MA1999999096581MD1210181+9999MW1711REMSYN072AAXX  09154 04390 41720 83303 11076 21077 39658 49750 52018 77177 8802/;
0220043900999992000010918004+60030-043120FM-12+0019BGPC V0203301N00411030001CN0300001N1-00581-00601097691ADDAA112003091AY171061AY221061GF106991021061004501021999KA1120M-00581KA2999N-00821MA1999999096771MD1210191+9999MW1001REMSYN094AAXX  09184 04390 11480 63308 11058 21060 39677 49769 52019 60032 70072 8262/ 333 11058 21082;
0188043900999992000010921004+60030-043120FM-12+0019BGPC V0203301N012312200019N0020001N1-00601-01651097981ADDAY131031AY221031GF102991021001012501051999MA1999999097061MD1210291+9999MW1361OA149901801REMSYN088AAXX  09214 04390 41620 23324 11060 21165 39706 49798 52029 73632 8205/ 333 91135 91035;
0218043900999992000011000004+60030-043120FM-12+0019BGPC V0203301N012312200019N0050001N1-00771-01751098221ADDAA106000091AY111061AY201061GF104991041001022501051999MA1999999097291MD1210231+9999MW1371OA149902211REMSYN088AAXX  10004 04390 31850 43324 11077 21175 39729 49822 52023 73710 8405/ 333 91143 91037;EQDQ01  00002PRCP06
0211043900999992000011003004+60030-043120FM-12+0019BGPC V0203301N011812200019N0100001N1-00831-01911098421ADDAA106000091AY111031AY201031GA1001+999999999GF100991001001999999001001MA1999999097481MD1210191+9999MW1361REMSYN076AAXX  10034 04390 31960 03323 11083 21191 39748 49842 52019 73610 333 91148;EQDQ01  00002PRCP06
0214043900999992000011006004+60030-043120FM-12+0019BGPC V0203301N014912200019N9999999N1-00841-01891999999ADDAA106000091GA1001+999999999GF100991001001999999001001KA1120M-00551KA2120N-00871OA149902521REMSYN093AAXX  10064 04390 319// 03329 11084 21189 3974 49841 57001 73600 333 11055 21087 91149 91046;EQDQ01  00002PRCP06
0198043900999992000011009004+60030-043120FM-12+0019BGPC V0203301N015412200019N0100001N1-00821-01871098231ADDAY131031AY231031GA1001+999999999GF100991001001999999001001MA1999999097301MD1710171+9999MW1361OA149903141REMSYN082AAXX  10094 04390 41960 03330 11082 21187 39730 49823 57017 73633 333 91161 91045;
0228043900999992000011012004+60030-043120FM-12+0019BGPC V0203301N019512200019N0100001N1-00921-01971098041ADDAA106000091AY131061AY201061GA1001+999999999GF100991001001999999001001MA1999999097101MD1710201+9999MW1391OA149903141REMSYN082AAXX  10124 04390 31960 03338 11092 21197 39710 49804 57020 73930 333 91161 91055;EQDQ01  00002PRCP06
0188043900999992000011015004+60030-043120FM-12+0019BGPC V0202701N020012200019N0500001N1-00841-01841098011ADDAY131031AY231031GF104991041001999999041999MA1999999097081MD1710021+9999MW1361OA149903241REMSYN088AAXX  10154 04390 41984 42739 11084 21184 39708 49801 57002 73633 8404/ 333 91163 91056;
0256043900999992000011018004+60030-043120FM-12+0019BGPC V0202701N019519999999N0300001N1-00731-01691098341ADDAA106000091AY131061AY231061GF105991051001999999041999KA1120M-00731KA2120N-00971MA1999999097411MD1210331+9999MW1361OA149903241REMSYN100AAXX  10184 04390 31980 52738 11073 21169 39741 49834 52033 73633 8504/ 333 11073 21097 91163 91050;EQDQ01  00002PRCP06
0194043900999992000011021004+60030-043120FM-12+0019BGPC V0202801N015419999999N0080001N1-00661-01621098671ADDAY121031AY221031GF106991061001999999041999MA1999999097741MD1210331+9999MW1361OA149903091REMSYN094AAXX  10214 04390 41958 62830 11066 21162 39774 49867 52033 73622 8604/ 333 91160 91045 91243;
0206043900999992000011103004+60030-043120FM-12+0019BGPC V0202701N013912200019N0250001N1-00571-01771099341ADDAA106000091GA1001+999999999GF100991001001999999001001MA1999999098401MD1210391+9999OA149902631REMSYN082AAXX  11034 04390 32975 02727 11057 21177 39840 49934 52039 333 91151 91037 91238;EQDQ01  00002PRCP06
0266043900999992000011106004+60030-043120FM-12+0019BGPC V0202701N018012200019N9999999N1-00481-01781099591ADDAA106000091AY101061AY201061GA1001+999999999GF100991001001999999001001KA1120M-00471KA2120N-00731MA1999999098661MD1210261+9999MW1361OA149902631REMSYN094AAXX  11064 04390 319// 02735 11048 21178 39866 49959 52026 73600 333 11047 21073 91151 91050;EQDQ01  00002PRCP06
0204043900999992000011109004+60030-043120FM-12+0019BGPC V0202801N014412200019N0100001N1-00431-01671099951ADDAY131031AY231031GA1001+999999999GF100991001001999999001001MA1999999099011MD1210351+9999MW1361OA149902631REMSYN088AAXX  11094 04390 41960 02828 11043 21167 39901 49995 52035 73633 333 91151 91040 91239;
0218043900999992000011112004+60030-043120FM-12+0019BGPC V0202801N018012200019N0300001N1-00221-01741100291ADDAA106000091AY101061AY201061GF101991011001022501021999MA1999999099361MD1210351+9999MW1361OA149902631REMSYN088AAXX  11124 04390 31880 12835 11022 21174 39936 40029 52035 73600 8102/ 333 91151 91046;EQDQ01  00002PRCP06
0166043900999992000011115004+60030-043120FM-12+0019BGPC V0202801N010312200019N0500001N1-00211-01621100881ADDGF101991011001999999041001MA1999999099941MD1210581+9999OA149902371REMSYN088AAXX  11154 04390 42984 12820 11021 21162 39994 40088 52058 81040 333 91146 91031 91236;
0228043900999992000011118004+60030-043120FM-12+0019BGPC V0203001N008219999999N0350001N1-00221-01491101341ADDAA106000091GF105991031001999999041051KA1120M-00141KA2120N-00481MA1999999100401MD1210461+9999OA149902371REMSYN094AAXX  11184 04390 32981 53016 11022 21149 30040 40134 52046 83045 333 11014 21048 91146 91236;EQDQ01  00002PRCP06
0143043900999992000011121004+60030-043120FM-12+0019BGPC V0202901N008212200019N0250001N1-00291-01551101691ADDGF104991041001999999041001MA1999999100741MD1210341+9999REMSYN076AAXX  11214 04390 42975 42916 11029 21155 30074 40169 52034 84040 333 91127;
0200043900999992000011200004+60030-043120FM-12+0019BGPC V0202801N004112200019N0250001N1-00321-01531101811ADDAA106000091GA1001+999999999GF100991001001999999001001MA1999999100861MD1210121+9999OA149901391REMSYN076AAXX  12004 04390 32975 02808 11032 21153 30086 40181 52012 333 91127 91219;EQDQ01  00002PRCP06
0143043900999992000011203004+60030-043120FM-12+0019BGPC V0202501N004612200019N0250001N1-00341-01441101851ADDGA1001+999999999GF100991001001999999001001MA1999999100901MD1210041+9999REMSYN060AAXX  12034 04390 42975 02509 11034 21144 30090 40185 52004;
0215043900999992000011206004+60030-043120FM-12+0019BGPC V0202201N004112200019N9999999N1-00261-01281101921ADDAA106000091GA1001+999999999GF100991001001999999001001KA1120M-00201KA2999N-00431MA1999999100971MD1210071+9999REMSYN076AAXX  12064 04390 329// 02208 11026 21128 30097 40192 52007 333 11020 21043;EQDQ01  00002PRCP06
0143043900999992000011209004+60030-043120FM-12+0019BGPC V0202701N001010075019N0100001N1-00211-00661101981ADDGF108991081051008001999999MA1999999101031MD1210061+9999REMSYN076AAXX  12094 04390 42560 82702 11021 21066 30103 40198 52006 885// 333 91217;
0188043900999992000011212004+60030-043120FM-12+0019BGPC V0201701N001510021019N0010001N1-00081-00191101861ADDAA106000191AY171061AY221061GF108991081071002501999999MA1999999100921MD1710111+9999MW1711REMSYN088AAXX  12124 04390 11310 81703 11008 21019 30092 40186 57011 69911 77172 887// 333 91217;
0161043900999992000011215004+60030-043120FM-12+0019BGPC V0209999C000010042019N0030001N1-00131-00131101761ADDAY171031AY271031GF108991081071004501999999MA1999999100821MD1710101+9999MW1731REMSYN072AAXX  12154 04390 41430 80000 11013 21013 30082 40176 57010 77377 887//;
0220043900999992000011218004+60030-043120FM-12+0019BGPC V0209999C000010042019N0020001N1-00181-00181101651ADDAA112025991AY171061AY271061GF108991081021004501999999KA1120M-00041KA2999N-00261MA1999999100711MD1710111+9999MW1731REMSYN094AAXX  12184 04390 11420 80000 11018 21018 30071 40165 57011 60262 77377 882// 333 11004 21026;
0161043900999992000011221004+60030-043120FM-12+0019BGPC V0200401N002610120019N0010001N1-00231-00231101841ADDAY171031AY271031GF108991081001012501021999MA1999999100891MD1210181+9999MW1711REMSYN072AAXX  12214 04390 41610 80405 11023 21023 30089 40184 52018 77177 8802/;
0178043900999992000011300004+60030-043120FM-12+0019BGPC V0200301N004110042019N0020001N1-00261-00261101991ADDAA106007991AY171061AY221061GF108991081021004501999999MA1999999101041MD1210151+9999MW1701REMSYN078AAXX  13004 04390 11420 80308 11026 21026 30104 40199 52015 60081 77072 882//;
0161043900999992000011303004+60030-043120FM-12+0019BGPC V0200401N002610120019N0050001N1-00281-00281102001ADDAY171031AY271031GF108991081001012501021999MA1999999101051MD1210011+9999MW1711REMSYN072AAXX  13034 04390 41650 80405 11028 21028 30105 40200 52001 77177 8802/;
0220043900999992000011306004+60030-043120FM-12+0019BGPC V0200401N004110120019N0015001N1-00291-00291101911ADDAA112013091AY171061AY271061GF108991081001012501021999KA1120M-00181KA2999N-00331MA1999999100961MD1710091+9999MW1711REMSYN094AAXX  13064 04390 11615 80408 11029 21029 30096 40191 57009 60132 77177 8802/ 333 11018 21033;
0171043900999992000011309004+60030-043120FM-12+0019BGPC V0200301N005710120019N0005001N1-00291-00291101771ADDAY171031AY201031GF108991081001012501021999MA1999999100821MD1710141+9999MW1711REMSYN082AAXX  13094 04390 41605 80311 11029 21029 30082 40177 57014 77170 8802/ 333 91118;
0188043900999992000011312004+60030-043120FM-12+0019BGPC V0200301N010810120019N0005001N1-00201-00201101401ADDAA106008991AY171061AY271061GF108991081001012501021999MA1999999100461MD1710361+9999MW1711REMSYN088AAXX  13124 04390 11605 80321 11020 21020 30046 40140 57036 60091 77177 8802/ 333 91135;
0188043900999992000011315004+60030-043120FM-12+0019BGPC V0200201N009310120019N0004001N1-00121-00121100921ADDAY171031AY271031GF108991081001012501021999MA1999999099991MD1710471+9999MW1711OA149901961REMSYN088AAXX  13154 04390 41604 80218 11012 21012 39999 40092 57047 77177 8802/ 333 91138 91029;
0243043900999992000011318004+60030-043120FM-12+0019BGPC V0200201N006210042019N0020001N1-00101-00101100531ADDAA112013091AY171061AY271061GF108991081021004501999999KA1120M-00061KA2120N-00301MA1999999099601MD1710391+9999MW1731OA149901961REMSYN106AAXX  13184 04390 11420 80212 11010 21010 39960 40053 57039 60132 77377 882// 333 11006 21030 91138 91226;
0164043900999992000011321004+60030-043120FM-12+001999999V0209999C000010120019N0050001N1-00031-00031100631ADDGF108991081051012501999999MA1999999099701MD1210101+9999OA149900931REMSYN086    AAXX  13214 04390 42650 80000 11003 21003 39970 40063 52010 885// 333 91118 91212;
0209043900999992000011400004+60030-043120FM-12+001999999V0209999C000010075019N0050001N1-00131-00131100821ADDAA106003091AY171061AY221061GF108991081051008001999999MA1999999099891MD1210191+9999MW1001OA149900931REMSYN098    AAXX  14004 04390 11550 80000 11013 21013 39989 40082 52019 60031 70072 885// 333 91118 91212;
0137043900999992000011403004+60030-043120FM-12+001999999V0209999C000010075019N0100001N1-00131-00131100781ADDGF108991081051008001999999MA1999999099851MD1710041+9999REMSYN070    AAXX  14034 04390 42560 80000 11013 21013 39985 40078 57004 885//;
0196043900999992000011406004+60030-043120FM-12+001999999V0209999C000010075019N0050001N1-00081-00081100521ADDAA112003091GF108991081051008001999999KA1120M-00011KA2999N-00161MA1999999099591MD1710261+9999REMSYN092    AAXX  14064 04390 12550 80000 11008 21008 39959 40052 57026 60032 885// 333 11001 21016;
0244043900999992000011412004+60030-043120FM-12+001999999V0200301N012910120019N0020001N1-00021-00021099322ADDAA106004191AY171061AY221061GF108991081001012501021999MA1999999098401MD1710742+9999MW1681OA149902111REMSYN098    AAXX  14124 04390 11620 80325 11002 21002 39840 49932 57074 60041 76872 8802/ 333 91141 91036;EQDQ01+099323APOSLPQ02+000742APC3  
0175043900999992000011415004+60030-043120FM-12+001999999V0200301N003610075019N0020001N1-00021-00021099051ADDAY171031AY271031GF108991081001008001021999MA1999999098141MD1710261+9999MW1711REMSYN086    AAXX  14154 04390 41520 80307 11002 21002 39814 49905 57026 77177 8802/ 333 911/5;
0209043900999992000011500004+60030-043120FM-12+001999999V0202101N003110075019N0010001N1-00061-00231100081ADDAA106000791AY171061AY221061GF108991081001008001021999MA1999999099151MD1710011+9999MW1711OA149901601REMSYN098    AAXX  15004 04390 11510 82106 11006 21023 39915 40008 57001 69901 77172 8802/ 333 91131 91222;
0184043900999992000011503004+60030-043120FM-12+001999999V0200701N004110075019N0020001N1-00061-00141099401ADDAY171031AY271031GF108991081001008001021999MA1999999098481MD1710672+9999MW1711REMSYN076    AAXX  15034 04390 41520 80708 11006 21014 39848 49940 57067 77177 8802/;EQDQ01+000672APC3  
0282043900999992000011506004+60030-043120FM-12+001999999V0201901N021110120019N0020001N1+00381+00381098742ADDAA112017091AY161061AY221061GF108991081001012501021999KA1120M+00411KA2120N-00161MA1999999097842MD1710641+9999MW1601OA149903041REMSYN110    AAXX  15064 04390 11620 81941 10038 20038 39784 49874 57064 60172 76062 8802/ 333 10041 21016 91159 91059;EQDQ01+097843APOSP Q02+098743APOSLP
0202043900999992000011509004+60030-043120FM-12+001999999V0202301N018012200019N0100001N1+00471-00481099191ADDAY171031AY201031GA1001+999999999GF100991001001999999001001MA1999999098291MD1210451+9999MW1001OA149903041REMSYN086    AAXX  15094 04390 41960 02335 10047 21048 39829 49919 52045 70070 333 91159 91055;
0244043900999992000011512004+60030-043120FM-12+001999999V0202201N008210021019N0050001N1+00021-00041100562ADDAA106003091AY171061AY271061GF108991081061002501999999MA1999999099632MD1211341+9999MW1771OA149903041REMSYN098    AAXX  15124 04390 11350 82216 10002 21004 39963 40056 52134 60031 77777 886// 333 91159 91241;EQDQ01+099633APOSP Q02+100563APOSLP
0210043900999992000011515004+60030-043120FM-12+001999999V0202001N011310042019N0150001N1+00131-00251101111ADDAY171031AY271031GF107991071021004501021999MA1999999100181MD1410001+9999MW1771REMSYN086    AAXX  15154 04390 41465 72022 10013 21025 30018 40111 52055 77777 8722/ 333 91135;EQDQ01+000022APCTENQ02+000552APC3  
0219043900999992000011518004+60030-043120FM-12+001999999V0202201N007710120019N0150001N1+00081-00211101411ADDAA112003091GF108991081001012501021999KA1120M+00471KA2120N+00001MA1999999100481MD1210301+9999OA149901801REMSYN104    AAXX  15184 04390 12665 82215 10008 21021 30048 40141 52030 60032 8802/ 333 10047 20000 91135 91225;
0175043900999992000011521004+60030-043120FM-12+001999999V0202201N002610075019N0020001N1-00051-00141101491ADDAY171031AY221031GF108991081001008001021999MA1999999100551MD1210071+9999MW1711REMSYN086    AAXX  15214 04390 41520 82205 11005 21014 30055 40149 52007 77172 8802/ 333 91217;
0192043900999992000011600004+60030-043120FM-12+001999999V0201701N001010075019N0020001N1-00091-00101101471ADDAA106000891AY171061AY271061GF108991081001008001021999MA1999999100531MD1710021+9999MW1711REMSYN092    AAXX  16004 04390 11520 81702 11009 21010 30053 40147 57002 69981 77177 8802/ 333 91217;
0105043900999992000011603004+60030-043120FM-12+001999999V0202501N003619999999N9999999N1-00061-00081101431ADDMA1999999100491MD1710041+9999REMSYN064    AAXX  16034 04390 46/// /2507 11006 21008 30049 40143 57004;
0224043900999992000011606004+60030-043120FM-12+001999999V0202401N002119999999N0030001N1-00051-00111101461ADDAA112000891AY171061AY221061GF108991081001999999041999KA1120M+00081KA2999N-00131MA1999999100521MD1210031+9999MW1701REMSYN098    AAXX  16064 04390 11930 82404 11005 21011 30052 40146 52003 69982 77072 8804/ 333 10008 21013;
0165043900999992000011609004+60030-043120FM-12+001999999V0202201N002110120019N0010001N1-00071-00071101581ADDAY171031AY221031GF108991081001012501021999MA1999999100641MD1210121+9999MW1681REMSYN076    AAXX  16094 04390 41610 82204 11007 21007 30064 40158 52012 76872 8802/;
0182043900999992000011612004+60030-043120FM-12+001999999V0202601N002610075019N0100001N1-00101-00151101791ADDAA106000391AY171061AY221061GF108991081001008001021999MA1999999100851MD1210211+9999MW1701REMSYN082    AAXX  16124 04390 11560 82605 11010 21015 30085 40179 52021 69931 77072 8802/;
0165043900999992000011615004+60030-043120FM-12+001999999V0202301N002610210019N0200001N1-00061-00331101901ADDAY171031AY221031GF107991071001022501071999MA1999999100961MD1210111+9999MW1001REMSYN076    AAXX  16154 04390 41870 72305 11006 21033 30096 40190 52011 70072 8707/;
0137043900999992000011621004+60030-043120FM-12+001999999V0202301N003610120019N0200001N1-00031-00471102131ADDGF108991081001012501021999MA1999999101191MD1210151+9999REMSYN070    AAXX  16214 04390 42670 82307 11003 21047 30119 40213 52015 8802/;
0182043900999992000011700004+60030-043120FM-12+001999999V0202201N002610075019N0005001N1-00201+99999102261ADDAA106001091AY171061AY271061GF108991081001008001021999MA1999999101311MD1210121+9999MW1711REMSYN082    AAXX  17004 04390 11505 82205 11020 21019 30131 40226 52012 60011 77177 8802/;
0165043900999992000011703004+60030-043120FM-12+001999999V0202201N001510075019N0005001N1-00201+99999102321ADDAY171031AY271031GF108991081001008001021999MA1999999101371MD1210061+9999MW1711REMSYN076    AAXX  17034 04390 41505 82203 11020 21019 30137 40232 52006 77177 8802/;
0224043900999992000011706004+60030-043120FM-12+001999999V0202201N005710075019N0100001N1-00131-00141102451ADDAA112004191AY171061AY271061GF108991081051008001999999KA1120M+00031KA2999N-00221MA1999999101501MD1210131+9999MW1681REMSYN098    AAXX  17064 04390 11560 82211 11013 21014 30150 40245 52013 60042 76877 885// 333 10003 21022;
0165043900999992000011709004+60030-043120FM-12+001999999V0200201N005110042019N0010001N1-00101-00101102621ADDAY171031AY271031GF108991081051004501999999MA1999999101671MD1210171+9999MW1711REMSYN076    AAXX  17094 04390 41410 80210 11010 21010 30167 40262 52017 77177 885//;
0182043900999992000011712004+60030-043120FM-12+001999999V0200301N003610042019N0020001N1-00151-00151102851ADDAA106004191AY171061AY271061GF108991081051004501999999MA1999999101901MD1210231+9999MW1711REMSYN082    AAXX  17124 04390 11420 80307 11015 21015 30190 40285 52023 60041 77177 885//;
0165043900999992000011715004+60030-043120FM-12+001999999V0200201N005710075019N0010001N1-00171-00171102921ADDAY171031AY271031GF108991081001008001021999MA1999999101961MD1210061+9999MW1711REMSYN076    AAXX  17154 04390 41510 80211 11017 21017 30196 40292 52006 77177 8802/;
0224043900999992000011718004+60030-043120FM-12+001999999V0200501N002610021019N0050001N1-00181-00181102881ADDAA106006191AY171061AY271061GF108991081071002501999999KA1120M-00101KA2999N-00201MA1999999101921MD1710041+9999MW1711REMSYN098    AAXX  17184 04390 11350 80505 11018 21018 30192 40288 57004 60061 77177 887// 333 11010 21020;
0165043900999992000011721004+60030-043120FM-12+001999999V0200401N004610042019N0005001N1-00161-00161102931ADDAY171031AY271031GF108991081051004501999999MA1999999101981MD1210061+9999MW1711REMSYN076    AAXX  17214 04390 41405 80409 11016 21016 30198 40293 52006 77177 885//;
0182043900999992000011800004+60030-043120FM-12+001999999V0200401N005110075019N0030001N1-00161-00161102981ADDAA106003091AY171061AY271061GF108991081021008001999999MA1999999102021MD1210041+9999MW1791REMSYN082    AAXX  18004 04390 11530 80410 11016 21016 30202 40298 52004 60031 77977 882//;
0165043900999992000011803004+60030-043120FM-12+001999999V0200401N004110075019N0050001N1-00161-00171102921ADDAY171031AY271031GF108991081001008001021999MA1999999101971MD1710051+9999MW1711REMSYN076    AAXX  18034 04390 41550 80408 11016 21017 30197 40292 57005 77177 8802/;
0224043900999992000011806004+60030-043120FM-12+001999999V0200301N004610075019N0100001N1-00131-00141102881ADDAA112005191AY171061AY271061GF108991081051008001999999KA1120M-00061KA2999N-00181MA1999999101931MD1710041+9999MW1711REMSYN098    AAXX  18064 04390 11560 80309 11013 21014 30193 40288 57004 60052 77177 885// 333 11006 21018;
0165043900999992000011809004+60030-043120FM-12+001999999V0200301N006210075019N0020001N1-00161-00161102781ADDAY171031AY271031GF108991081051008001999999MA1999999101831MD1710101+9999MW1711REMSYN076    AAXX  18094 04390 41520 80312 11016 21016 30183 40278 57010 77177 885//;
0182043900999992000011812004+60030-043120FM-12+001999999V0200301N006210042019N0020001N1-00191-00191102771ADDAA106003091AY171061AY271061GF108991081071004501999999MA1999999101821MD1710011+9999MW1711REMSYN082    AAXX  18124 04390 11420 80312 11019 21019 30182 40277 57001 60031 77177 887//;
0165043900999992000011815004+60030-043120FM-12+001999999V0200401N005110042019N0070001N1-00081-00091102671ADDAY171031AY221031GF108991081071004501999999MA1999999101721MD1710101+9999MW1001REMSYN076    AAXX  18154 04390 41457 80410 11008 21009 30172 40267 57010 70072 887//;
0224043900999992000011818004+60030-043120FM-12+001999999V0200401N005110042019N0200001N1-00061-00071102441ADDAA112006191AY171061AY271061GF108991081021004501999999KA1120M-00031KA2999N-00211MA1999999101491MD1710231+9999MW1791REMSYN098    AAXX  18184 04390 11470 80410 11006 21007 30149 40244 57023 60062 77977 882// 333 11003 21021;
0175043900999992000011821004+60030-043120FM-12+001999999V0200301N007210075019N0010001N1-00091-00101102431ADDAY171031AY221031GF108991081051008001999999MA1999999101481MD1710011+9999MW1711REMSYN086    AAXX  18214 04390 41510 80314 11009 21010 30148 40243 57001 77172 885// 333 91127;
0209043900999992000011900004+60030-043120FM-12+001999999V0200501N004110075019N0050001N1-00091-00091102351ADDAA106002091AY171061AY271061GF108991081021008001999999MA1999999101401MD1710081+9999MW1561OA149901391REMSYN098    AAXX  19004 04390 11550 80508 11009 21009 30140 40235 57008 60021 75677 882// 333 91127 91219;
0175043900999992000011903004+60030-043120FM-12+001999999V0200101N004610042019N0020001N1-00081-00081102221ADDAY151031AY251031GF108991081061004501999999MA1999999101271MD1710131+9999MW1561REMSYN086    AAXX  19034 04390 41420 80109 11008 21008 30127 40222 57013 75655 886// 333 91116;
0182043900999992000011912004+60030-043120FM-12+001999999V0200301N005710042019N0100001N1+00091+00061101721ADDAA106013091AY171061AY271061GF108991081071004501999999MA1999999100781MD1710151+9999MW1631REMSYN082    AAXX  19124 04390 11460 80311 10009 20006 30078 40172 57015 60131 76377 887//;
0175043900999992000011915004+60030-043120FM-12+001999999V0200201N007710021019N0050001N1+00071+00061101561ADDAY161031AY261031GF108991081071002501999999MA1999999100631MD1710151+9999MW1631REMSYN086    AAXX  19154 04390 41350 80215 10007 20006 30063 40156 57015 76366 887// 333 91122;
0243043900999992000011918004+60030-043120FM-12+0019BGPC V0200301N014410042019N0100001N1+00071+00061101371ADDAA112030091AY171061AY271061GF108991081071004501999999KA1120M+00111KA2120N-00071MA1999999100441MD1710191+9999MW1631OA149902061REMSYN106AAXX  19184 04390 11460 80328 10007 20006 30044 40137 57019 60302 76377 887// 333 10011 21007 91140 91040;
0171043900999992000011921004+60030-043120FM-12+0019BGPC V0200301N011810075019N0050001N1+00111+00111101281ADDAY161031AY261031GF108991081051008001999999MA1999999100351MD1710091+9999MW1611REMSYN082AAXX  19214 04390 41550 80323 10011 20011 30035 40128 57009 76166 885// 333 91144;
0211043900999992000012000004+60030-043120FM-12+0019BGPC V0200201N007210075019N0030001N1+00121+00121101191ADDAA106008991AY171061AY271061GF108991081021008001999999MA1999999100261MD1710091+9999MW1631OA149902261REMSYN100AAXX  20004 04390 11530 80214 10012 20012 30026 40119 57009 60091 76377 882// 333 91144 91024 91231;
0243043900999992000012006004+60030-043120FM-12+0019BGPC V0200801N001510012019N0005001N1+00071+00071101491ADDAA112013091AY161061AY241061GF108991081061001501999999KA1120M+00271KA2120N+00061MA1999999100561MD1210211+9999MW1511OA149901241REMSYN106AAXX  20064 04390 11205 80803 10007 20007 30056 40149 52021 60132 75164 886// 333 10027 20006 91124 91215;
0133043900999992000012009004+60030-043120FM-12+0019BGPC V0202101N004110075019N0100001N1+00161+00041101671ADDGF107991071041008001999999MA1999999100741MD1210181+9999REMSYN066AAXX  20094 04390 42560 72108 10016 20004 30074 40167 52018 874//;
0150043900999992000012012004+60030-043120FM-12+0019BGPC V0202101N006710042019N0100001N1+00161-00221101981ADDAA106000191GF106991061071004501021999MA1999999101041MD1210301+9999REMSYN072AAXX  20124 04390 12460 62113 10016 21022 30104 40198 52030 69921 8672/;
0143043900999992000012015004+60030-043120FM-12+0019BGPC V0202301N007710042019N0150001N1+00131-00251102291ADDGF105991051071004501999999MA1999999101351MD1210311+9999REMSYN076AAXX  20154 04390 42465 52315 10013 21025 30135 40229 52031 857// 333 91123;
0226043900999992000012018004+60030-043120FM-12+0019BGPC V0202101N007210042019N0150001N1+00111-00271102431ADDAA106000191AY171061AY221061GF106991051071004501021051KA1120M+00211KA2120N+00051MA1999999101491MD1210141+9999MW1001REMSYN100AAXX  20184 04390 11465 62114 10011 21027 30149 40243 52014 69921 70072 85725 333 10021 20005 91123;
0133043900999992000012021004+60030-043120FM-12+0019BGPC V0202201N004112200019N0150001N1+00161-00451102731ADDGF104991041021004501999999MA1999999101791MD1210301+9999REMSYN066AAXX  20214 04390 42465 42208 10016 21045 30179 40273 52030 842//;
0163043900999992000012100004+60030-043120FM-12+0019BGPC V0202101N004119999999N0250001N1+00151-00401102791ADDAA199000091GF108991001001999999001071MA1999999101851MD1210061+9999REMSYN066AAXX  21004 04390 32975 82108 10015 21040 30185 40279 52006 80007;EQDQ01  00002PRCP99
0133043900999992000012103004+60030-043120FM-12+0019BGPC V0201701N001519999999N0200001N1+00061-00281102731ADDGF108991001001999999001071MA1999999101781MD1710071+9999REMSYN066AAXX  21034 04390 42970 81703 10006 21028 30178 40273 57007 80007;
0205043900999992000012106004+60030-043120FM-12+0019BGPC V0200301N003619999999N0250001N1-00021-00221102631ADDAA199000091GF106991001001999999001071KA1120M+00201KA2999N-00091MA1999999101681MD1710101+9999REMSYN082AAXX  21064 04390 32975 60307 11002 21022 30168 40263 57010 80007 333 10020 21009;EQDQ01  00002PRCP99
0171043900999992000012109004+60030-043120FM-12+0019BGPC V0200301N011310075019N0020001N1+00021+00011102421ADDAY171031AY221031GF108991081071008001999999MA1999999101481MD1710201+9999MW1681REMSYN082AAXX  21094 04390 41520 80322 10002 20001 30148 40242 57020 76872 887// 333 91132;
0205043900999992000012112004+60030-043120FM-12+0019BGPC V0200201N013410021019N0010001N1-00121-00121101981ADDAA106004191AY171061AY221061GF108991081071002501999999MA1999999101041MD1710441+9999MW1711OA149902631REMSYN094AAXX  21124 04390 11310 80226 11012 21012 30104 40198 57044 60041 77172 887// 333 91151 91039;
0188043900999992000012115004+60030-043120FM-12+0019BGPC V0200301N018010042019N0010001N1-00061-00061101651ADDAY171031AY271031GF108991081061004501999999MA1999999100711MD1710331+9999MW1771OA149902631REMSYN088AAXX  21154 04390 41410 80335 11006 21006 30071 40165 57033 77777 886// 333 91151 91048;
0161043900999992000012203004+60030-043120FM-12+0019BGPC V0201501N001010042019N0050001N1-00071+99999102161ADDAY171031AY271031GF108991081071004501999999MA1999999101221MD1210361+9999MW1711REMSYN072AAXX  22034 04390 41450 81502 11007 21006 30122 40216 52036 77177 887//;
0154043900999992000012212004+60030-043120FM-12+0019BGPC V0209999C000019999999N0350001N1-00151-00151102821ADDAA199000021GF106991061001999999051999MA1999999101871MD1210191+9999REMSYN076AAXX  22124 04390 32981 60000 11015 21015 30187 40282 52019 8605/ 333 91212;
0161043900999992000012214004+60030-043120FM-12+0019BGPC V0200301N008210042019N0005001N1-00081-00081102581ADDAY171999AY221999GF108991081051004501999999MA1999999101631MD1710121+9999MW1711REMSYN072AAXX  22144 04390 41405 80316 11008 21008 30163 40258 57012 77172 885//;
0101043900999992000012215004+60030-043120FM-12+0019BGPC V0203201N001019999999N9999999N1-00081+99999102781ADDMA1999999101831MD1710041+9999REMSYN060AAXX  22154 04390 46/// /3202 11008 21007 30183 40278 57004;
0161043900999992000012221004+60030-043120FM-12+0019BGPC V0200301N008210042019N0005001N1-00081-00081102581ADDAY171031AY221031GF108991081051004501999999MA1999999101631MD1710121+9999MW1711REMSYN072AAXX  22214 04390 41405 80316 11008 21008 30163 40258 57012 77172 885//;
0188043900999992000012300004+60030-043120FM-12+0019BGPC V0200201N009310075019N0050001N1-00061-00061102251ADDAA106002091AY171061AY271061GF108991081021008001999999MA1999999101301MD1710331+9999MW1661REMSYN088AAXX  23004 04390 11550 80218 11006 21006 30130 40225 57033 60021 76677 882// 333 91131;
0161043900999992000012303004+60030-043120FM-12+0019BGPC V0200301N006710042019N0050001N1-00021+99999101751ADDAY161031AY261031GF108991081071004501999999MA1999999100811MD1710491+9999MW1661REMSYN072AAXX  23034 04390 41450 80313 11002 21001 30081 40175 57049 76666 887//;
0243043900999992000012306004+60030-043120FM-12+0019BGPC V0200201N009810042019N0100001N1+00111-00111101221ADDAA112015091AY161061AY261061GF108991081071004501999999KA1120M+00111KA2120N-00121MA1999999100291MD1710521+9999MW1631OA149901541REMSYN106AAXX  23064 04390 11460 80219 10011 21011 30029 40122 57052 60152 76366 887// 333 10011 21012 91130 91030;
0188043900999992000012309004+60030-043120FM-12+0019BGPC V0203201N004610120019N0030001N1+00161+00161101261ADDAY161031AY261031GF108991081001012501021999MA1999999100331MD1210041+9999MW1611OA149902111REMSYN088AAXX  23094 04390 41630 83209 10016 20016 30033 40126 52004 76166 8802/ 333 91141 91228;
0205043900999992000012312004+60030-043120FM-12+0019BGPC V0200401N002610042019N0150001N1+00171+00101101601ADDAA106007191AY161061AY251061GF108991081071004501999999MA1999999100671MD1210341+9999MW1681OA149902111REMSYN094AAXX  23124 04390 11465 80405 10017 20010 30067 40160 52034 60071 76865 887// 333 91141 91228;
0171043900999992000012315004+60030-043120FM-12+0019BGPC V0200901N002110001519N0001001N1+00041+00041101761ADDAY141031AY221031GA1091+999999999GF109991091999999999999999MA1999999100821MD1210151+9999MW1471REMSYN066AAXX  23154 04390 41/01 90904 10004 20004 30082 40176 52015 74742;
0220043900999992000012318004+60030-043120FM-12+0019BGPC V0203401N001010012019N0020001N1+00011+00011101761ADDAA112007191AY151061AY241061GF108991081061001501999999KA1120M+00221KA2999N-00011MA1999999100821MD1410001+9999MW1511REMSYN094AAXX  23184 04390 11220 83402 10001 20001 30082 40176 54000 60072 75154 886// 333 10022 21001;
0133043900999992000012321004+60030-043120FM-12+0019BGPC V0203301N002610021019N0005001N1-00031-00031101721ADDGF108991081071002501999999MA1999999100781MD1710041+9999REMSYN066AAXX  23214 04390 43305 83305 11003 21003 30078 40172 57004 887//;
0178043900999992000012400004+60030-043120FM-12+0019BGPC V0200301N006710042019N0030001N1-00021-00021101491ADDAA106000791AY151061AY221061GF108991081051004501999999MA1999999100551MD1710231+9999MW1511REMSYN078AAXX  24004 04390 11430 80313 11002 21002 30055 40149 57023 69901 75152 885//;
0188043900999992000012403004+60030-043120FM-12+0019BGPC V0200301N013910042019N0010001N1-00071-00081101041ADDAY171031AY271031GF108991081021004501999999MA1999999100111MD1710441+9999MW1731OA149902011REMSYN088AAXX  24034 04390 41410 80327 11007 21008 30011 40104 57044 77377 882// 333 91139 91039;
0243043900999992000012406004+60030-043120FM-12+0019BGPC V0200301N013410075019N0010001N1-00031-00031100641ADDAA112002091AY171061AY271061GF108991081001008001021999KA1120M+00011KA2120N-00091MA1999999099711MD1710401+9999MW1711OA149902681REMSYN106AAXX  24064 04390 11510 80326 11003 21003 39971 40064 57040 60022 77177 8802/ 333 10001 21009 91152 91237;
0188043900999992000012409004+60030-043120FM-12+0019BGPC V0201601N002110042019N0100001N1-00021-00021100781ADDAY171031AY271031GF108991081051004501999999MA1999999099851MD1210141+9999MW1701OA149901851REMSYN088AAXX  24094 04390 41460 81604 11002 21002 39985 40078 52014 77077 885// 333 91136 91226;
0177043900999992000012412004+60030-043120FM-12+0019BGPC V0202201N004610042019N0100001N1+00011-00131100931ADDAA106001091GF105991051021004501021999MA1999999100001MD1210151+9999OA149901851REMSYN088AAXX  24124 04390 12460 52209 10001 21013 30000 40093 52015 60011 8522/ 333 91136 91226;
0171043900999992000012415004+60030-043120FM-12+0019BGPC V0202201N009310075019N0300001N1-00151-00381101141ADDAY171031AY221031GF106991061021008001999999MA1999999100201MD1210201+9999MW1701REMSYN082AAXX  24154 04390 41580 62218 11015 21038 30020 40114 52020 77072 862// 333 91136;
0154043900999992000012500004+60030-043120FM-12+0019BGPC V0202201N004112200019N0100001N1-00281-00801101951ADDAA199000021GF103991031071004501999999MA1999999101001MD1210181+9999REMSYN076AAXX  25004 04390 32460 32208 11028 21080 30100 40195 52018 837// 333 91125;
0143043900999992000012503004+60030-043120FM-12+0019BGPC V0202201N006212200019N0300001N1-00281-00801101961ADDGA1001+999999999GF100991001001999999001001MA1999999101011MD1210011+9999REMSYN060AAXX  25034 04390 42980 02212 11028 21080 30101 40196 52001;
0215043900999992000012506004+60030-043120FM-12+0019BGPC V0202201N005712200019N0250001N1-00221-00921101961ADDAA199000091GA1001+999999999GF100991001001999999001001KA1120M-00201KA2999N-00331MA1999999101011MD1410001+9999REMSYN076AAXX  25064 04390 32975 02211 11022 21092 30101 40196 54000 333 11020 21033;EQDQ01  00002PRCP99
0170043900999992000012509004+60030-043120FM-12+0019BGPC V0202701N005112200019N0250001N1-00191-00971102001ADDGA1001+999999999GF100991001001999999001001MA1999999101051MD1210041+9999OA149901601REMSYN076AAXX  25094 04390 42975 02710 11019 21097 30105 40200 52004 333 91131 91223;
0190043900999992000012512004+60030-043120FM-12+0019BGPC V0202701N006719999999N0200001N1-00171-01071101951ADDAA199000091GF107991071001999999021999MA1999999101001MD1710051+9999OA149901601REMSYN082AAXX  25124 04390 32970 72713 11017 21107 30100 40195 57005 8702/ 333 91131 91226;EQDQ01  00002PRCP99
0171043900999992000012515004+60030-043120FM-12+0019BGPC V0202801N013412200019N0350001N1-00241-01061101921ADDAY101031AY201031GF102991001001999999001041MA1999999100971MD1710031+9999MW1361REMSYN082AAXX  25154 04390 41981 22826 11024 21106 30097 40192 57003 73600 80004 333 91144;
0228043900999992000012518004+60030-043120FM-12+0019BGPC V0202401N007719999999N0250001N1-00251-01011102031ADDAA199000091GF106991061001999999021999KA1120M-00141KA2120N-00331MA1999999101081MD1210111+9999OA149902261REMSYN094AAXX  25184 04390 32975 62415 11025 21101 30108 40203 52011 8602/ 333 11014 21033 91144 91233;EQDQ01  00002PRCP99
0143043900999992000012521004+60030-043120FM-12+0019BGPC V0202501N006219999999N0050001N1-00231-01031102151ADDGF108991001001999999001061MA1999999101201MD1210121+9999REMSYN076AAXX  25214 04390 42950 82512 11023 21103 30120 40215 52012 80006 333 91132;
0190043900999992000012600004+60030-043120FM-12+0019BGPC V0202401N005712200019N0150001N1-00261-00971102321ADDAA199000091GF102991001001999999001061MA1999999101371MD1210171+9999OA149901651REMSYN082AAXX  26004 04390 32965 22411 11026 21097 30137 40232 52017 80006 333 91132 91222;EQDQ01  00002PRCP99
0133043900999992000012603004+60030-043120FM-12+0019BGPC V0202401N005712200019N0150001N1-00221-00871102371ADDGF103991031001999999031001MA1999999101421MD1210051+9999REMSYN066AAXX  26034 04390 42965 32411 11022 21087 30142 40237 52005 83030;
0205043900999992000012606004+60030-043120FM-12+0019BGPC V0202401N003112200019N0150001N1-00281-00811102391ADDAA199000091GF104991041001022501031999KA1120M-00191KA2999N-00351MA1999999101441MD1210021+9999REMSYN082AAXX  26064 04390 32865 42406 11028 21081 30144 40239 52002 8403/ 333 11019 21035;EQDQ01  00002PRCP99
0133043900999992000012609004+60030-043120FM-12+0019BGPC V0202401N002612200019N0250001N1-00191-00661102451ADDGF102991021021008001999999MA1999999101501MD1210061+9999REMSYN066AAXX  26094 04390 42575 22405 11019 21066 30150 40245 52006 822//;
0163043900999992000012612004+60030-043120FM-12+0019BGPC V0202401N003610300019N0200001N1-00111-00781102511ADDAA199000091GF108991021021004501041071MA1999999101561MD1210061+9999REMSYN066AAXX  26124 04390 32470 82407 11011 21078 30156 40251 52006 82247;EQDQ01  00002PRCP99
0133043900999992000012615004+60030-043120FM-12+0019BGPC V0202201N001519999999N0300001N1-00091-00681102411ADDGF108991081001999999021999MA1999999101461MD1710101+9999REMSYN066AAXX  26154 04390 42980 82203 11009 21068 30146 40241 57010 8802/;
0220043900999992000012618004+60030-043120FM-12+0019BGPC V0202101N003110210019N0250001N1-00251-00361102391ADDAA112000791AY171061AY221061GF108991081001022501021999KA1120M-00031KA2999N-00281MA1999999101441MD1710021+9999MW1711REMSYN094AAXX  26184 04390 11875 82106 11025 21036 30144 40239 57002 69902 77172 8802/ 333 11003 21028;
0161043900999992000012621004+60030-043120FM-12+0019BGPC V0202101N000510075019N0020001N1-00291-00391102101ADDAY171031AY221031GF108991081001008001021999MA1999999101151MD1710291+9999MW1711REMSYN072AAXX  26214 04390 41520 82101 11029 21039 30115 40210 57029 77172 8802/;
0178043900999992000012700004+60030-043120FM-12+0019BGPC V0202101N002610012019N0004001N1-00151-00231101761ADDAA106003091AY171061AY271061GF108991081071001501999999MA1999999100821MD1710331+9999MW1711REMSYN078AAXX  27004 04390 11204 82105 11015 21023 30082 40176 57033 60031 77177 887//;
0243043900999992000012706004+60030-043120FM-12+0019BGPC V0200201N010810021019N0003001N1-00361-00391100881ADDAA112010991AY171061AY271061GF108991081071002501999999KA1120M-00121KA2120N-00391MA1999999099941MD1710391+9999MW1731OA149901961REMSYN106AAXX  27064 04390 11303 80221 11036 21039 39994 40088 57039 60112 77377 887// 333 11012 21039 91138 91032;
0171043900999992000012709004+60030-043120FM-12+0019BGPC V0200301N008710021019N0030001N1-00281-00291100581ADDAY171031AY271031GF108991081071002501999999MA1999999099641MD1710301+9999MW1001REMSYN082AAXX  27094 04390 41330 80317 11028 21029 39964 40058 57030 70077 887// 333 91135;
0205043900999992000012712004+60030-043120FM-12+0019BGPC V0200301N002610042019N0020001N1-00251-00261100471ADDAA106002091AY171061AY271061GF108991081071004501999999MA1999999099531MD1710111+9999MW1711OA149901801REMSYN094AAXX  27124 04390 11420 80305 11025 21026 39953 40047 57011 60021 77177 887// 333 91135 91226;
0220043900999992000012718004+60030-043120FM-12+0019BGPC V0200301N003610021019N0050001N1-00301-00311100341ADDAA112003091AY171061AY271061GF108991081071002501999999KA1120M-00231KA2999N-00361MA1999999099401MD1710041+9999MW1711REMSYN094AAXX  27184 04390 11350 80307 11030 21031 39940 40034 57004 60032 77177 887// 333 11023 21036;
0161043900999992000012721004+60030-043120FM-12+0019BGPC V0200501N001010042019N0050001N1-00321-00331100081ADDAY171031AY221031GF108991081071004501999999MA1999999099151MD1710251+9999MW1711REMSYN072AAXX  27214 04390 41450 80502 11032 21033 39915 40008 57025 77172 887//;
0138043900999992000012800004+60030-043120FM-12+0019BGPC V0202501N004112200019N0050001N1-00111-00141099631ADDAA199000021GF104991999999017501999999MA1999999098711MD1710441+9999REMSYN060AAXX  28004 04390 32750 42508 11011 21014 39871 49963 57044;
0143043900999992000012803004+60030-043120FM-12+0019BGPC V0202901N007212200019N0200001N1-00031-00301099321ADDGF103991031001999999041001MA1999999098401MD1710311+9999REMSYN076AAXX  28034 04390 42970 32914 11003 21030 39840 49932 57031 83040 333 91125;
0230043900999992000012806004+60030-043120FM-12+0019BGPC V0202801N011812200019N0250001N1-00421-01011099151ADDAA199000021AY131061AY231061GA1001+999999999GF100991001001999999001001KA1120M+00021KA2120N-00461MA1999999098221MD1710181+9999MW1361REMSYN088AAXX  28064 04390 31975 02823 11042 21101 39822 49915 57018 73633 333 10002 21046 91133;
0143043900999992000012809004+60030-043120FM-12+0019BGPC V0202801N003612200019N0150001N1-00411-01391099341ADDGF103991031001999999071999MA1999999098411MD1210191+9999REMSYN076AAXX  28094 04390 42965 32807 11041 21139 39841 49934 52019 8307/ 333 91227;
0160043900999992000012812004+60030-043120FM-12+0019BGPC V0202801N002612200019N0300001N1-00571-01571099571ADDAA106000791GF104991021001022501061051MA1999999098631MD1210221+9999REMSYN082AAXX  28124 04390 12880 42805 11057 21157 39863 49957 52022 69901 82065 333 91227;
0133043900999992000012815004+60030-043120FM-12+0019BGPC V0202801N005112200019N0350001N1-00541-01441099691ADDGF102991001001999999001011MA1999999098751MD1210121+9999REMSYN066AAXX  28154 04390 42981 22810 11054 21144 39875 49969 52012 80001;
0205043900999992000012818004+60030-043120FM-12+0019BGPC V0202801N004612200019N0350001N1-00521-01441099611ADDAA199000091GF104991001001999999001041KA1120M-00361KA2999N-00621MA1999999098671MD1710081+9999REMSYN082AAXX  28184 04390 32981 42809 11052 21144 39867 49961 57008 80004 333 11036 21062;EQDQ01  00002PRCP99
0133043900999992000012821004+60030-043120FM-12+0019BGPC V0202801N002112200019N0200001N1-00641-01661099681ADDGF104991001001999999001051MA1999999098741MD1210071+9999REMSYN066AAXX  28214 04390 42970 42804 11064 21166 39874 49968 52007 80005;
0173043900999992000012900004+60030-043120FM-12+0019BGPC V0202801N001512200019N0100001N1-00671-01531099621ADDAA199000091GA1001+999999999GF100991001001999999001001MA1999999098681MD1710061+9999REMSYN060AAXX  29004 04390 32960 02803 11067 21153 39868 49962 57006;EQDQ01  00002PRCP99
0143043900999992000012903004+60030-043120FM-12+0019BGPC V0202801N003112200019N0300001N1-00711-01451099471ADDGA1001+999999999GF100991001001999999001001MA1999999098531MD1710151+9999REMSYN060AAXX  29034 04390 42980 02806 11071 21145 39853 49947 57015;
0215043900999992000012906004+60030-043120FM-12+0019BGPC V0202801N002612200019N0250001N1-00841-01461099371ADDAA199000091GA1001+999999999GF100991001001999999001001KA1120M-00521KA2999N-00881MA1999999098421MD1710111+9999REMSYN076AAXX  29064 04390 32975 02805 11084 21146 39842 49937 57011 333 11052 21088;EQDQ01  00002PRCP99
0143043900999992000012909004+60030-043120FM-12+0019BGPC V0202801N001012200019N0100001N1-00761-01371099411ADDGA1001+999999999GF100991001001999999001001MA1999999098471MD1210051+9999REMSYN060AAXX  29094 04390 42960 02802 11076 21137 39847 49941 52005;
0173043900999992000012912004+60030-043120FM-12+0019BGPC V0202801N000512200019N9999999N1-00801-01391099471ADDAA199000091GA1001+999999999GF100991001001999999001001MA1999999098531MD1210061+9999REMSYN060AAXX  29124 04390 329// 02801 11080 21139 39853 49947 52006;EQDQ01  00002PRCP99
0133043900999992000012915004+60030-043120FM-12+0019BGPC V0202801N001012200019N0300001N1-00521-01321099561ADDGF103991001001999999001061MA1999999098621MD1210091+9999REMSYN066AAXX  29154 04390 42980 32802 11052 21132 39862 49956 52009 80006;
0205043900999992000012918004+60030-043120FM-12+0019BGPC V0200201N001012200019N0500001N1-00711-01351099421ADDAA199000091GF103991021001999999041091KA1120M-00401KA2999N-00851MA1999999098481MD1710141+9999REMSYN082AAXX  29184 04390 32984 30202 11071 21135 39848 49942 57014 82049 333 11040 21085;EQDQ01  00002PRCP99
0143043900999992000012921004+60030-043120FM-12+0019BGPC V0200201N001512200019N0100001N1-00891-01401099421ADDGA1001+999999999GF100991001001999999001001MA1999999098471MD1710011+9999REMSYN060AAXX  29214 04390 42960 00203 11089 21140 39847 49942 57001;
0163043900999992000013000004+60030-043120FM-12+0019BGPC V0200201N001512200019N0100001N1-00931-01391099401ADDAA199000091GF102991021001999999021999MA1999999098451MD1710021+9999REMSYN066AAXX  30004 04390 32960 20203 11093 21139 39845 49940 57002 8202/;EQDQ01  00002PRCP99
0101043900999992000013003004+60030-043120FM-12+0019BGPC V0200201N001019999999N9999999N1-00951-01321099321ADDMA1999999098371MD1710081+9999REMSYN060AAXX  30034 04390 42/// /0202 11095 21132 39837 49932 57008;
0205043900999992000013006004+60030-043120FM-12+0019BGPC V0209999C000010150019N0100001N1-00871-01241099271ADDAA199000091GF108991081001017501021999KA1120M-00711KA2999N-01021MA1999999098321MD1710051+9999REMSYN082AAXX  30064 04390 32760 80000 11087 21124 39832 49927 57005 8802/ 333 11071 21102;EQDQ01  00002PRCP99
0161043900999992000013009004+60030-043120FM-12+0019BGPC V0200201N002619999999N0150001N1-00821-01051099151ADDAY171031AY221031GF108991081001999999021999MA1999999098211MD1710111+9999MW1701REMSYN072AAXX  30094 04390 41965 80205 11082 21105 39821 49915 57011 77072 8802/;
0178043900999992000013012004+60030-043120FM-12+0019BGPC V0200201N002110042019N0015001N1-00751-00971099021ADDAA106001091AY171061AY271061GF108991081071004501999999MA1999999098081MD1710131+9999MW1711REMSYN078AAXX  30124 04390 11415 80204 11075 21097 39808 49902 57013 60011 77177 887//;
0161043900999992000013015004+60030-043120FM-12+0019BGPC V0200201N005710042019N0040001N1-00721-00971098801ADDAY171031AY221031GF108991081051004501999999MA1999999097861MD1710221+9999MW1711REMSYN072AAXX  30154 04390 41440 80211 11072 21097 39786 49880 57022 77172 885//;
0226043900999992000013018004+60030-043120FM-12+0019BGPC V0200201N006710042019N0020001N1-00701-00891098601ADDAA112002091AY171061AY271061GF108991081021004501999999KA1120M-00681KA2120N-00871MA1999999097671MD1710191+9999MW1711REMSYN100AAXX  30184 04390 11420 80213 11070 21089 39767 49860 57019 60022 77177 882// 333 11068 21087 91126;
0188043900999992000013021004+60030-043120FM-12+0019BGPC V0203201N006210150019N0020001N1-00641-00851098641ADDAY171031AY271031GF108991081001017501021999MA1999999097711MD1210041+9999MW1711OA149901241REMSYN088AAXX  30214 04390 41720 83212 11064 21085 39771 49864 52004 77177 8802/ 333 91124 91022;
0188043900999992000013100004+60030-043120FM-12+0019BGPC V0200201N007210210019N0005001N1-00581-00851098641ADDAA106000591AY171061AY271061GF108991081001022501021999MA1999999097711MD1410001+9999MW1711REMSYN088AAXX  31004 04390 11805 80214 11058 21085 39771 49864 54000 69951 77177 8802/ 333 91124;
0171043900999992000013103004+60030-043120FM-12+0019BGPC V0200301N004110150019N0004001N1-00681-00811098751ADDAY171031AY271031GF108991081001017501021999MA1999999097821MD1210111+9999MW1711REMSYN082AAXX  31034 04390 41704 80308 11068 21081 39782 49875 52011 77177 8802/ 333 91124;
0226043900999992000013106004+60030-043120FM-12+0019BGPC V0200301N004112200019N0100001N1-00731-00891098801ADDAA112001091AY171061AY211061GF103991031001022501021001KA1120M-00571KA2120N-00731MA1999999097861MD1210041+9999MW1001REMSYN100AAXX  31064 04390 11860 30308 11073 21089 39786 49880 52004 69992 70071 83020 333 11057 21073 91124;
0143043900999992000013109004+60030-043120FM-12+0019BGPC V0203201N000512200019N0150001N1-00871-01011098941ADDGA1001+999999999GF100991001001999999001001MA1999999098001MD1210141+9999REMSYN060AAXX  31094 04390 42965 03201 11087 21101 39800 49894 52014;
0144043900999992000013112004+60030-043120FM-12+0019BGPC V0200301N001010150019N0200001N1-00911-01071099061ADDAA199000021GF108991081001017501021999MA1999999098121MD1210121+9999REMSYN066AAXX  31124 04390 32770 80302 11091 21107 39812 49906 52012 8802/;
0161043900999992000013115004+60030-043120FM-12+0019BGPC V0200301N001510150019N0150001N1-00731-00921099011ADDAY171031AY221031GF106991061001017501021999MA1999999098071MD1710051+9999MW1001REMSYN072AAXX  31154 04390 41765 60303 11073 21092 39807 49901 57005 70072 8602/;
0220043900999992000013118004+60030-043120FM-12+0019BGPC V0202701N008212200019N0200001N1-00541-00911098931ADDAA112000191AY171061AY211061GF104991041001017501021999KA1120M-00541KA2999N-00941MA1999999098001MD1710071+9999MW1001REMSYN094AAXX  31184 04390 11770 42716 11054 21091 39800 49893 57007 69912 70071 8402/ 333 11054 21094;
0143043900999992000013121004+60030-043120FM-12+0019BGPC V0202701N009312200019N0200001N1-00581-01521099091ADDGF104991041071004501999999MA1999999098161MD1210161+9999REMSYN076AAXX  31214 04390 42470 42718 11058 21152 39816 49909 52016 847// 333 91128;
0215043900999992000020100004+60030-043120FM-12+0019BGPC V0202601N012312200019N0020001N1-00801-01471099151ADDAA106000191AY101061AY201061GA1001+999999999GF100991001001999999001001MA1999999098211MD1210051+9999MW1391OA149901901REMSYN088AAXX  01004 04390 11920 02624 11080 21147 39821 49915 52005 69921 73900 333 91137 91036;
0198043900999992000020103004+60030-043120FM-12+0019BGPC V0202601N011312200019N0050001N1-00821-01621099261ADDAY111031AY201031GA1001+999999999GF100991001001999999001001MA1999999098321MD1210111+9999MW1361OA149902111REMSYN082AAXX  01034 04390 41950 02622 11082 21162 39832 49926 52011 73610 333 91141 91038;
0249043900999992000020106004+60030-043120FM-12+0019BGPC V0202701N008712200019N0100001N1-00791-01771099341ADDAA112001091AY171061AY201061GF101991011001022501021001KA1120M-00541KA2120N-00891MA1999999098401MD1210081+9999MW1001OA149902111REMSYN112AAXX  01064 04390 11860 12717 11079 21177 39840 49934 52008 60012 70070 81020 333 11054 21089 91141 91027 91228;
0181043900999992000020109004+60030-043120FM-12+0019BGPC V0202701N009812200019N0150001N1-00771-02001099491ADDAY131031AY231031GA1001+999999999GF100991001001999999001001MA1999999098551MD1210151+9999MW1361REMSYN076AAXX  01094 04390 41965 02719 11077 21200 39855 49949 52015 73633 333 91138;
0221043900999992000020112004+60030-043120FM-12+0019BGPC V0202701N007712200019N9999999N1-00691-01911099611ADDAA106002091AY131061AY201061GA1001+999999999GF100991001001999999001001MA1999999098671MD1210121+9999MW1001OA149901961REMSYN094AAXX  01124 04390 119// 02715 11069 21191 39867 49961 52012 60021 70030 333 91138 91025 91229;
0170043900999992000020115004+60030-043120FM-12+0019BGPC V0202201N005112200019N0500001N1-00471-01811099711ADDGA1001+999999999GF100991001001999999001001MA1999999098771MD1210101+9999OA149901801REMSYN076AAXX  01154 04390 42984 02210 11047 21181 39877 49971 52010 333 91135 91227;
0234043900999992000020118004+60030-043120FM-12+0019BGPC V0202601N007712200019N0500001N1-00521-01751099691ADDAA199000091GF103991001001999999001061KA1120M-00431KA2120N-00791MA1999999098751MD1710021+9999OA149901801REMSYN100AAXX  01184 04390 32984 32615 11052 21175 39875 49969 57002 80006 333 11043 21079 91135 91026 91227;EQDQ01  00002PRCP99
0153043900999992000020121004+60030-043120FM-12+0019BGPC V0202701N007712200019N0250001N1-00531-01801099781ADDGA1001+999999999GF100991001001999999001001MA1999999098841MD1210091+9999REMSYN070AAXX  01214 04390 42975 02715 11053 21180 39884 49978 52009 333 91126;
0190043900999992000020200004+60030-043120FM-12+0019BGPC V0202901N004119999999N0100001N1-00551-01421099941ADDAA199000091GF108991001001999999001051MA1999999099001MD1210161+9999OA149901341REMSYN082AAXX  02004 04390 32960 82908 11055 21142 39900 49994 52016 80005 333 91126 91222;EQDQ01  00002PRCP99
0133043900999992000020203004+60030-043120FM-12+0019BGPC V0200301N005719999999N0050001N1-00521-01371100021ADDGF108991081001999999021999MA1999999099081MD1210081+9999REMSYN066AAXX  02034 04390 42950 80311 11052 21137 39908 40002 52008 8802/;
0205043900999992000020206004+60030-043120FM-12+0019BGPC V0200201N011310210019N0100001N1-00531-01381099881ADDAA199000091GF108991081001022501021999KA1120M-00491KA2999N-00651MA1999999098941MD1710141+9999REMSYN082AAXX  02064 04390 32860 80222 11053 21138 39894 49988 57014 8802/ 333 11049 21065;EQDQ01  00002PRCP99
0171043900999992000020209004+60030-043120FM-12+0019BGPC V0200201N013910120019N0010001N1-00581-00861099801ADDAY171031AY231031GF108991081001012501021999MA1999999098861MD1710081+9999MW1711REMSYN082AAXX  02094 04390 41610 80227 11058 21086 39886 49980 57008 77173 8802/ 333 91142;
0205043900999992000020212004+60030-043120FM-12+0019BGPC V0200201N013919999999N9999999N1-00611-00611099721ADDAA106000191AY171061AY231061GF108991081001999999021999MA1999999098781MD1710081+9999MW1711OA149902371REMSYN094AAXX  02124 04390 11/// 80227 11061 21061 39878 49972 57008 69911 77173 8802/ 333 91146 91039;
0194043900999992000020215004+60030-043120FM-12+0019BGPC V0200101N010810075019N0030001N1-00581-00621099641ADDAY171031AY271031GF108991081001008001021999MA1999999098701MD1710081+9999MW1731OA149902261REMSYN094AAXX  02154 04390 41530 80121 11058 21062 39870 49964 57008 77377 8802/ 333 91144 91033 91232;
0243043900999992000020218004+60030-043120FM-12+0019BGPC V0200301N005710120019N0005001N1-00611-00611099641ADDAA112002091AY171061AY221061GF108991081001012501021999KA1120M-00531KA2120N-00651MA1999999098701MD1410001+9999MW1711OA149902261REMSYN106AAXX  02184 04390 11605 80311 11061 21061 39870 49964 54000 60022 77172 8802/ 333 11053 21065 91144 91232;
0188043900999992000020221004+60030-043120FM-12+0019BGPC V0203601N010310120019N0010001N1-00541-00551099751ADDAY171031AY271031GF108991081001012501021999MA1999999098811MD1210111+9999MW1731OA149901751REMSYN088AAXX  02214 04390 41610 83620 11054 21055 39881 49975 52011 77377 8802/ 333 91134 91033;
0188043900999992000020300004+60030-043120FM-12+0019BGPC V0200101N007210150019N0010001N1-00461-00471099781ADDAA106001091AY171061AY271061GF108991081001017501021999MA1999999098841MD1210031+9999MW1711REMSYN088AAXX  03004 04390 11710 80114 11046 21047 39884 49978 52003 69991 77177 8802/ 333 91134;
0171043900999992000020303004+60030-043120FM-12+0019BGPC V0200401N007210120019N0004001N1-00441-00441099881ADDAY171031AY271031GF108991081001012501021999MA1999999098941MD1210101+9999MW1711REMSYN082AAXX  03034 04390 41604 80414 11044 21044 39894 49988 52010 77177 8802/ 333 91130;
0226043900999992000020306004+60030-043120FM-12+0019BGPC V0200201N008710210019N0010001N1-00431-00431099751ADDAA112002091AY171061AY271061GF108991081001022501021999KA1120M-00401KA2120N-00611MA1999999098821MD1710121+9999MW1711REMSYN100AAXX  03064 04390 11810 80217 11043 21043 39882 49975 57012 60022 77177 8802/ 333 11040 21061 91130;
0188043900999992000020309004+60030-043120FM-12+0019BGPC V0200201N011310120019N0005001N1-00441+99999099761ADDAY171031AY271031GF108991081001012501021999MA1999999098821MD1410001+9999MW1711OA149901751REMSYN088AAXX  03094 04390 41605 80222 11044 21043 39882 49976 54000 77177 8802/ 333 91134 91033;
0205043900999992000020312004+60030-043120FM-12+0019BGPC V0200201N013410120019N0250001N1-00401-00401099601ADDAA106001091AY121061AY221061GF108991081051012501999999MA1999999098671MD1710151+9999MW1361OA149902371REMSYN094AAXX  03124 04390 11675 80226 11040 21040 39867 49960 57015 69991 73622 885// 333 91146 91037;
0188043900999992000020315004+60030-043120FM-12+0019BGPC V0200201N014410150019N0350001N1-00381-00551099271ADDAY171031AY221031GF108991081001017501021999MA1999999098341MD1710331+9999MW1361OA149902321REMSYN088AAXX  03154 04390 41781 80228 11038 21055 39834 49927 57033 73672 8802/ 333 91145 91039;
0243043900999992000020318004+60030-043120FM-12+0019BGPC V0200301N018510075019N0005001N1-00471-00471098921ADDAA112001091AY171061AY231061GF108991081001008001021999KA1120M-00351KA2120N-00491MA1999999097991MD1710351+9999MW1711OA149902881REMSYN106AAXX  03184 04390 11505 80336 11047 21047 39799 49892 57035 60012 77173 8802/ 333 11035 21049 91156 91056;
0188043900999992000020321004+60030-043120FM-12+0019BGPC V0200201N019510120019N0005001N1-00291-00301098551ADDAY131031AY231031GF108991081001012501021999MA1999999097631MD1710361+9999MW1711OA149902881REMSYN088AAXX  03214 04390 41605 80238 11029 21030 39763 49855 57036 77133 8802/ 333 91156 91055;
0205043900999992000020400004+60030-043120FM-12+0019BGPC V0200201N021610120019N0002001N1-00301-00301098371ADDAA106001091AY131061AY231061GF108991081001012501021999MA1999999097451MD1710181+9999MW1391OA149903191REMSYN094AAXX  04004 04390 11602 80242 11030 21030 39745 49837 57018 60011 73933 8802/ 333 91162 91057;
0188043900999992000020403004+60030-043120FM-12+0019BGPC V0200301N020610075019N0004001N1-00251-00261097981ADDAY171031AY231031GF108991081051008001999999MA1999999097071MD1710381+9999MW1371OA149903191REMSYN088AAXX  04034 04390 41504 80340 11025 21026 39707 49798 57038 73773 885// 333 91162 91054;
0243043900999992000020406004+60030-043120FM-12+0019BGPC V0200201N020010120019N0010001N1-00291-00291097401ADDAA112002091AY171061AY271061GF108991081021012501999999KA1120M-00191KA2120N-00471MA1999999096491MD1710581+9999MW1711OA149903191REMSYN106AAXX  04064 04390 11610 80239 11029 21029 39649 49740 57058 60022 77177 882// 333 11019 21047 91162 91059;
0188043900999992000020409004+60030-043120FM-12+0019BGPC V0200201N020010042019N0001001N1-00321+99999097161ADDAY171031AY271031GF108991081071004501999999MA1999999096251MD1710241+9999MW1711OA149903241REMSYN088AAXX  04094 04390 41401 80239 11032 21031 39625 49716 57024 77177 887// 333 91163 91051;
0205043900999992000020412004+60030-043120FM-12+0019BGPC V0203201N002610120019N0003001N1-00251-00251096781ADDAA106002091AY171061AY221061GF108991081001012501021999MA1999999095881MD1710371+9999MW1711OA149903241REMSYN094AAXX  04124 04390 11603 83205 11025 21025 39588 49678 57037 60021 77172 8802/ 333 91163 91241;
0220043900999992000020418004+60030-043120FM-12+0019BGPC V0202601N004610042019N0050001N1-00151-00151096371ADDAA112007191AY171061AY271061GF108991081051004501999999KA1120M-00131KA2999N-00341MA1999999095481MD1710121+9999MW1711REMSYN094AAXX  04184 04390 11450 82609 11015 21015 39548 49637 57012 60072 77177 885// 333 11013 21034;
0171043900999992000020421004+60030-043120FM-12+0019BGPC V0202901N008710120019N0010001N1-00131-00131096481ADDAY171031AY271031GF108991081001012501021999MA1999999095591MD1210111+9999MW1721REMSYN082AAXX  04214 04390 41610 82917 11013 21013 39559 49648 52011 77277 8802/ 333 91123;
0188043900999992000020500004+60030-043120FM-12+0019BGPC V0202601N005110120019N0015001N1-00161-00161096711ADDAA106000591AY171061AY271061GF108991081001012501021999MA1999999095811MD1210221+9999MW1711REMSYN088AAXX  05004 04390 11615 82610 11016 21016 39581 49671 52022 69941 77177 8802/ 333 91123;
0171043900999992000020503004+60030-043120FM-12+0019BGPC V0202701N011319999999N0007001N1-00311-00311097001ADDAY171031AY231031GF108991081001999999071999MA1999999096101MD1210291+9999MW1361REMSYN082AAXX  05034 04390 41907 82722 11031 21031 39610 49700 52029 73673 8807/ 333 91130;
0166043900999992000020506004+60030-043120FM-12+0019BGPC V0202401N007719999999N9999999N1-00401-00401097281ADDKA1120M-00131KA2120N-00431MA1999999096371MD1210271+9999OA149901541REMSYN088AAXX  05064 04390 46/// /2415 11040 21040 39637 49728 52027 333 11013 21043 91130 91227;
0160043900999992000020515004+60030-043120FM-12+0019BGPC V0202701N012312200019N0250001N1-00401-00961097661ADDGF103991021001022501041051MA1999999096751MD1210131+9999OA149902321REMSYN082AAXX  05154 04390 42875 32724 11040 21096 39675 49766 52013 82045 333 91145 91034;
0256043900999992000020518004+60030-043120FM-12+0019BGPC V0202501N008212200019N0350001N1-00351-01211097911ADDAA199000091AY131061AY211061GF104991021021999999999041KA1120M-00331KA2120N-00541MA1999999097001MD1210251+9999MW1001OA149902321REMSYN100AAXX  05184 04390 31981 42516 11035 21121 39700 49791 52025 70031 822/4 333 11033 21054 91145 91231;EQDQ01  00002PRCP99
0160043900999992000020521004+60030-043120FM-12+0019BGPC V0202501N004112200019N0250001N1-00421-01331098061ADDGF103991001001999999001061MA1999999097141MD1210141+9999OA149901341REMSYN082AAXX  05214 04390 42975 32508 11042 21133 39714 49806 52014 80006 333 91126 91219;
0183043900999992000020600004+60030-043120FM-12+0019BGPC V0202401N007212200019N9999999N1-00431-01241098211ADDAA199000091GA1001+999999999GF100991001001999999001001MA1999999097291MD1210151+9999REMSYN070AAXX  06004 04390 329// 02414 11043 21124 39729 49821 52015 333 91133;EQDQ01  00002PRCP99
0111043900999992000020603004+60030-043120FM-12+0019BGPC V0202401N005119999999N9999999N1-00421-01221098291ADDMA1999999097371MD1210081+9999REMSYN070AAXX  06034 04390 46/// /2410 11042 21122 39737 49829 52008 333 91126;
0208043900999992000020606004+60030-043120FM-12+0019BGPC V0202201N004612200019N9999999N1-00421-00861098351ADDAA112000591GA1001+999999999GF100991001001999999001001KA1120M-00351KA2120N-00481MA1999999097431MD1210061+9999REMSYN088AAXX  06064 04390 129// 02209 11042 21086 39743 49835 52006 69942 333 11035 21048 91126;
0133043900999992000020609004+60030-043120FM-12+0019BGPC V0202101N004112200019N0100001N1-00431-00741098281ADDGF103991031051017501999999MA1999999097361MD1710071+9999REMSYN066AAXX  06094 04390 42760 32108 11043 21074 39736 49828 57007 835//;
0163043900999992000020612004+60030-043120FM-12+0019BGPC V0202201N004110300019N0250001N1-00491-00891098321ADDAA199000091GF106991011071004501021051MA1999999097401MD1210041+9999REMSYN066AAXX  06124 04390 32475 62208 11049 21089 39740 49832 52004 81725;EQDQ01  00002PRCP99
0133043900999992000020615004+60030-043120FM-12+0019BGPC V0201901N002619999999N0300001N1-00321-00821098151ADDGF106991001001999999001081MA1999999097231MD1710171+9999REMSYN066AAXX  06154 04390 42980 61905 11032 21082 39723 49815 57017 80008;
0205043900999992000020618004+60030-043120FM-12+0019BGPC V0202401N001010120019N0350001N1-00461-00721097931ADDAA199000091GF108991081001012501021999KA1120M-00281KA2999N-00521MA1999999097011MD1710221+9999REMSYN082AAXX  06184 04390 32681 82402 11046 21072 39701 49793 57022 8802/ 333 11028 21052;EQDQ01  00002PRCP99
0133043900999992000020621004+60030-043120FM-12+0019BGPC V0202501N003112200019N0250001N1-00581-00661097851ADDGF104991041001999999011999MA1999999096931MD1710081+9999REMSYN066AAXX  06214 04390 42975 42506 11058 21066 39693 49785 57008 8401/;
0163043900999992000020700004+60030-043120FM-12+0019BGPC V0202401N003612200019N9999999N1-00701-00791097701ADDAA199000091GF102991021001999999011999MA1999999096781MD1710151+9999REMSYN066AAXX  07004 04390 32/// 22407 11070 21079 39678 49770 57015 8201/;EQDQ01  00002PRCP99
0133043900999992000020703004+60030-043120FM-12+0019BGPC V0202601N002610210019N0250001N1-00651-00841097611ADDGF106991061001022501011999MA1999999096691MD1710091+9999REMSYN066AAXX  07034 04390 42875 62605 11065 21084 39669 49761 57009 8601/;
0215043900999992000020706004+60030-043120FM-12+0019BGPC V0202601N003612200019N0050001N1-00631-00821097541ADDAA199000091GA1001+999999999GF100991001001999999001001KA1120M-00451KA2999N-00711MA1999999096621MD1710071+9999REMSYN076AAXX  07064 04390 32950 02607 11063 21082 39662 49754 57007 333 11045 21071;EQDQ01  00002PRCP99
0133043900999992000020709004+60030-043120FM-12+0019BGPC V0203301N001512200019N0200001N1-00711-00931097481ADDGF101991011001022501021001MA1999999096561MD1710061+9999REMSYN066AAXX  07094 04390 42870 13303 11071 21093 39656 49748 57006 81020;
0163043900999992000020712004+60030-043120FM-12+0019BGPC V0202801N001512200019N0300001N1-00761-01051097551ADDAA199000091GF103991021001017501021081MA1999999096621MD1210061+9999REMSYN066AAXX  07124 04390 32780 32803 11076 21105 39662 49755 52006 82028;EQDQ01  00002PRCP99
0133043900999992000020715004+60030-043120FM-12+0019BGPC V0203001N003610150019N0350001N1-00591-01041097441ADDGF105991051001017501021999MA1999999096521MD1710101+9999REMSYN066AAXX  07154 04390 42781 53007 11059 21104 39652 49744 57010 8502/;
0220043900999992000020718004+60030-043120FM-12+0019BGPC V0203101N001510120019N0050001N1-00671-00801097371ADDAA112000791AY171061AY211061GF108991081001012501021999KA1120M-00501KA2999N-00801MA1999999096451MD1710071+9999MW1711REMSYN094AAXX  07184 04390 11650 83103 11067 21080 39645 49737 57007 69902 77171 8802/ 333 11050 21080;
0161043900999992000020721004+60030-043120FM-12+0019BGPC V0202101N002610120019N0100001N1-00691-00751097371ADDAY171031AY221031GF108991081001012501021999MA1999999096451MD1410001+9999MW1001REMSYN072AAXX  07214 04390 41660 82105 11069 21075 39645 49737 54000 70072 8802/;
0178043900999992000020800004+60030-043120FM-12+0019BGPC V0202501N006219999999N0200001N1-00591-01101097401ADDAA106000791AY171061AY221061GF106991001001999999001061MA1999999096481MD1210031+9999MW1001REMSYN078AAXX  08004 04390 11970 62512 11059 21110 39648 49740 52003 69901 70072 80006;
0143043900999992000020803004+60030-043120FM-12+0019BGPC V0202401N007712200019N9999999N1-00691-01291097431ADDGA1001+999999999GF100991001001999999001001MA1999999096511MD1210031+9999REMSYN060AAXX  08034 04390 429// 02415 11069 21129 39651 49743 52003;
0224043900999992000020806004+60030-043120FM-12+0019BGPC V0202301N011312200019N0050001N1-00821-00981097511ADDAA199000021AY121061AY201061GA1001+999999999GF100991001001999999001001KA1120M-00581KA2999N-00841MA1999999096581MD1210071+9999MW1361REMSYN082AAXX  08064 04390 31950 02322 11082 21098 39658 49751 52007 73620 333 11058 21084;
0153043900999992000020809004+60030-043120FM-12+0019BGPC V0202401N008712200019N0200001N1-00841-01091097661ADDGA1001+999999999GF100991001001999999001001MA1999999096731MD1210151+9999REMSYN070AAXX  08094 04390 42970 02417 11084 21109 39673 49766 52015 333 91131;
0173043900999992000020812004+60030-043120FM-12+0019BGPC V0202301N007712200019N0300001N1-00851-01401097621ADDAA199000091GF102991021001017501021999MA1999999096691MD1710041+9999REMSYN076AAXX  08124 04390 32780 22315 11085 21140 39669 49762 57004 8202/ 333 91131;EQDQ01  00002PRCP99
0133043900999992000020815004+60030-043120FM-12+0019BGPC V0202401N004612200019N0250001N1-00841-01431097401ADDGF102991021001012501021999MA1999999096471MD1710221+9999REMSYN066AAXX  08154 04390 42675 22409 11084 21143 39647 49740 57022 8202/;
0205043900999992000020818004+60030-043120FM-12+0019BGPC V0202401N003612200019N0250001N1-00901-01611097191ADDAA199000091GF103991031001022501021999KA1120M-00731KA2999N-00941MA1999999096261MD1710211+9999REMSYN082AAXX  08184 04390 32875 32407 11090 21161 39626 49719 57021 8302/ 333 11073 21094;EQDQ01  00002PRCP99
0133043900999992000020821004+60030-043120FM-12+0019BGPC V0202301N003112200019N0250001N1-01011-01721097231ADDGF102991001001999999001061MA1999999096301MD1210041+9999REMSYN066AAXX  08214 04390 42975 22306 11101 21172 39630 49723 52004 80006;
0143043900999992000020903004+60030-043120FM-12+0019BGPC V0202501N004612200019N9999999N1-00941-01731097331ADDGA1001+999999999GF100991001001999999001001MA1999999096401MD1210041+9999REMSYN060AAXX  09034 04390 429// 02509 11094 21173 39640 49733 52004;
0221043900999992000020906004+60030-043120FM-12+0019BGPC V0202501N005112200019N0100001N1-00771-01651097351ADDAA199000091GA1001+999999999GF100991001001999999001001KA1120M-00721KA2120N-01081MA1999999096431MD1210031+9999REMSYN082AAXX  09064 04390 32960 02510 11077 21165 39643 49735 52003 333 11072 21108 91220;EQDQ01  00002PRCP99
0171043900999992000020909004+60030-043120FM-12+0019BGPC V0202401N005110120019N0050001N1-00801-00861097421ADDAY171031AY201031GF108991081001012501021999MA1999999096491MD1210061+9999MW1701REMSYN082AAXX  09094 04390 41650 82410 11080 21086 39649 49742 52006 77070 8802/ 333 91123;
0188043900999992000020912004+60030-043120FM-12+0019BGPC V0202101N006212200019N0200001N1-00761-00851097441ADDAA106000591AY171061AY201061GF103991031001012501021999MA1999999096521MD1210031+9999MW1711REMSYN088AAXX  09124 04390 11670 32112 11076 21085 39652 49744 52003 69951 77170 8302/ 333 91124;
0171043900999992000020915004+60030-043120FM-12+0019BGPC V0202201N008712200019N0200001N1-00621-01281097331ADDAY171031AY201031GF103991031031008001999999MA1999999096411MD1710111+9999MW1001REMSYN082AAXX  09154 04390 41570 32217 11062 21128 39641 49733 57011 70070 833// 333 91128;
0243043900999992000020918004+60030-043120FM-12+0019BGPC V0202701N007712200019N0350001N1-00691-01551097411ADDAA112000591AY171061AY201061GF102991021011008001001001KA1120M-00571KA2120N-00821MA1999999096491MD1210081+9999MW1361OA149901751REMSYN106AAXX  09184 04390 11581 22715 11069 21155 39649 49741 52008 69952 73670 82100 333 11057 21082 91134 91026;
0181043900999992000020921004+60030-043120FM-12+0019BGPC V0202601N011312200019N0200001N1-00661-01661097581ADDAY131031AY231031GA1001+999999999GF100991001001999999001001MA1999999096661MD1210171+9999MW1361REMSYN076AAXX  09214 04390 41970 02622 11066 21166 39666 49758 52017 73633 333 91138;
0209043900999992000021000004+60030-043120FM-12+0019BGPC V0202401N005112200019N0250001N1-00681-01541097761ADDAA199000021AY101061AY201061GA1001+999999999GF100991001001999999001001MA1999999096841MD1210181+9999MW1361OA149901961REMSYN082AAXX  10004 04390 31975 02410 11068 21154 39684 49776 52018 73600 333 91138 91225;
0101043900999992000021003004+60030-043120FM-12+0019BGPC V0202401N007219999999N9999999N1-00671-01481097801ADDMA1999999096881MD1210041+9999REMSYN060AAXX  10034 04390 42/// /2414 11067 21148 39688 49780 52004;
0215043900999992000021006004+60030-043120FM-12+0019BGPC V0202501N003612200019N0100001N1-00731-01451097791ADDAA199000091GA1001+999999999GF100991001001999999001001KA1120M-00611KA2999N-00751MA1999999096861MD1710021+9999REMSYN076AAXX  10064 04390 32960 02507 11073 21145 39686 49779 57002 333 11061 21075;EQDQ01  00002PRCP99
0143043900999992000021009004+60030-043120FM-12+0019BGPC V0202601N003612200019N0250001N1-00781-01481097661ADDGA1001+999999999GF100991001001999999001001MA1999999096731MD1710131+9999REMSYN060AAXX  10094 04390 42975 02607 11078 21148 39673 49766 57013;
0178043900999992000021012004+60030-043120FM-12+0019BGPC V0202901N002110021019N0005001N1-00811-00881097331ADDAA106000791AY171061AY201061GF108991081061002501999999MA1999999096411MD1710321+9999MW1731REMSYN078AAXX  10124 04390 11305 82904 11081 21088 39641 49733 57032 69901 77370 886//;
0171043900999992000021015004+60030-043120FM-12+0019BGPC V0202301N010312200019N0100001N1-00761-00891097321ADDAY171031AY221031GF104991041071004501999999MA1999999096401MD1710011+9999MW1361REMSYN082AAXX  10154 04390 41460 42320 11076 21089 39640 49732 57001 73672 847// 333 91122;
0226043900999992000021018004+60030-043120FM-12+0019BGPC V0202301N007212200019N0100001N1-00901-01251097261ADDAA112002091AY171061AY231061GF103991031071004501999999KA1120M-00571KA2120N-00951MA1999999096331MD1710071+9999MW1361REMSYN100AAXX  10184 04390 11460 32314 11090 21125 39633 49726 57007 60022 73673 837// 333 11057 21095 91127;
0133043900999992000021021004+60030-043120FM-12+0019BGPC V0202401N005112200019N0200001N1-00941-01581097401ADDGF103991031031008001999999MA1999999096471MD1210141+9999REMSYN066AAXX  10214 04390 42570 32410 11094 21158 39647 49740 52014 833//;
0188043900999992000021100004+60030-043120FM-12+0019BGPC V0202101N002610042019N0020001N1-00911-00911097371ADDAA106001091AY171061AY271061GF108991081071004501999999MA1999999096441MD1710031+9999MW1711REMSYN088AAXX  11004 04390 11420 82105 11091 21091 39644 49737 57003 60011 77177 887// 333 91216;
0148043900999992000021103004+60030-043120FM-12+0019BGPC V02099999999990042019N0010001N1+99999+99999999999ADDAY171031AY271031GF108991081071004501999999MW1711OA149999999REMSYN058AAXX  11034 04390 41410 8//// 77177 887// 333 91119 91213;EQDQ01  00982WGOSPD
0203043900999992000021106004+60030-043120FM-12+0019BGPC V02099999999990021019N0002001N1+99999+99999999999ADDAA112005191AY171061AY271061GF108991081071002501999999KA1120M-00831KA2120N-01051MW1731OA149999999REMSYN076AAXX  11064 04390 11302 8//// 60052 77377 887// 333 11083 21105 91119 91213;EQDQ01  00982WGOSPD
0129043900999992000021112004+60030-043120FM-12+0019BGPC V02099999999992200019N0350001N1+99999+99999999999ADDAA106002091AY171061AY231061GA1001+999999999GF100991001001999999001001MW1361REMSYN042AAXX  11124 04390 11981 0//// 60021 73673;
0168043900999992000021115004+60030-043120FM-12+0019BGPC V0202801N015912200019N0200001N1-00621-01051098111ADDAY131031AY231031GF101991011021004501999999MA1999999097181MW1361OA149902371REMSYN082AAXX  11154 04390 41470 12831 11062 21105 39718 49811 73633 812// 333 91146 91046;
0249043900999992000021118004+60030-043120FM-12+0019BGPC V0202701N021110210019N0150001N1-00361-01301098401ADDAA112002091AY131061AY231061GF106991061001022501071999KA1120M-00361KA2120N-00691MA1999999097481MD1210301+9999MW1371OA149903451REMSYN112AAXX  11184 04390 11865 62741 11036 21130 39748 49840 52030 60022 73733 8607/ 333 11036 21069 91167 91053 91254;
0188043900999992000021121004+60030-043120FM-12+0019BGPC V0202701N018012200019N0150001N1-00441-01731098971ADDAY131031AY221031GF103991031001022501071999MA1999999098041MD1210561+9999MW1371OA149902931REMSYN088AAXX  11214 04390 41865 32735 11044 21173 39804 49897 52056 73732 8307/ 333 91157 91048;
0228043900999992000021200004+60030-043120FM-12+0019BGPC V0202701N017512200019N0100001N1-00571-01741099301ADDAA199000091AY101061AY201061GA1001+999999999GF100991001001999999001001MA1999999098361MD1210321+9999MW1361OA149902931REMSYN082AAXX  12004 04390 31960 02734 11057 21174 39836 49930 52032 73600 333 91157 91052;EQDQ01  00002PRCP99
0170043900999992000021203004+60030-043120FM-12+0019BGPC V0202701N013912200019N9999999N1-00581-01871099651ADDGA1001+999999999GF100991001001999999001001MA1999999098711MD1210351+9999OA149902681REMSYN076AAXX  12034 04390 429// 02727 11058 21187 39871 49965 52035 333 91152 91042;
0272043900999992000021206004+60030-043120FM-12+0019BGPC V0202701N008712200019N0100001N1-00651-01721099951ADDAA199000091AY131061AY201061GA1001+999999999GF100991001001999999001001KA1120M-00361KA2120N-00681MA1999999099011MD1210301+9999MW1001OA149902681REMSYN100AAXX  12064 04390 31960 02717 11065 21172 39901 49995 52030 70030 333 11036 21068 91152 91031 91234;EQDQ01  00002PRCP99
0153043900999992000021209004+60030-043120FM-12+0019BGPC V0202801N009812200019N0100001N1-00691-01841100171ADDGA1001+999999999GF100991001001999999001001MA1999999099221MD1210211+9999REMSYN070AAXX  12094 04390 42960 02819 11069 21184 39922 40017 52021 333 91138;
0190043900999992000021212004+60030-043120FM-12+0019BGPC V0202701N009312200019N0250001N1-00681-01911100241ADDAA199000091GF102991001001999999001061MA1999999099291MD1210071+9999OA149901961REMSYN082AAXX  12124 04390 32975 22718 11068 21191 39929 40024 52007 80006 333 91138 91228;EQDQ01  00002PRCP99
0133043900999992000021215004+60030-043120FM-12+0019BGPC V0202601N006212200019N0300001N1-00651-01811100351ADDGF103991001001999999001051MA1999999099401MD1210111+9999REMSYN066AAXX  12154 04390 42980 32612 11065 21181 39940 40035 52011 80005;
0149043900999992000021218004+60030-043120FM-12+0019BGPC V0202501N005719999999N9999999N1-00701-01741100291ADDKA1120M-00621KA2120N-00761MA1999999099341MD1710061+9999REMSYN082AAXX  12184 04390 46/// /2511 11070 21174 39934 40029 57006 333 11062 21076 91221;
0133043900999992000021221004+60030-043120FM-12+0019BGPC V0202501N003612200019N0150001N1-00771-01861100311ADDGF103991031001017501021999MA1999999099361MD1210021+9999REMSYN066AAXX  12214 04390 42765 32507 11077 21186 39936 40031 52002 8302/;
0163043900999992000021300004+60030-043120FM-12+0019BGPC V0202601N003612200019N0250001N1-00741-01771100201ADDAA199000091GF104991001001999999001071MA1999999099251MD1710111+9999REMSYN066AAXX  13004 04390 32975 42607 11074 21177 39925 40020 57011 80007;EQDQ01  00002PRCP99
0133043900999992000021303004+60030-043120FM-12+0019BGPC V0202201N002610150019N0200001N1-00651-01591099991ADDGF108991081001017501021999MA1999999099051MD1710201+9999REMSYN066AAXX  13034 04390 42770 82205 11065 21159 39905 49999 57020 8802/;
0205043900999992000021306004+60030-043120FM-12+0019BGPC V0201201N000519999999N0150001N1-00651-01081099581ADDAA199000091GF108991081001999999071999KA1120M-00621KA2999N-00791MA1999999098641MD1710411+9999REMSYN082AAXX  13064 04390 32965 81201 11065 21108 39864 49958 57041 8807/ 333 11062 21079;EQDQ01  00002PRCP99
0133043900999992000021309004+60030-043120FM-12+0019BGPC V0200301N006219999999N0100001N1-00651-00861099191ADDGF108991081001999999071999MA1999999098251MD1710391+9999REMSYN066AAXX  13094 04390 42960 80312 11065 21086 39825 49919 57039 8807/;
0205043900999992000021312004+60030-043120FM-12+0019BGPC V0200301N019510120019N0002001N1-00691-00691098621ADDAA106000791AY171061AY231061GF108991081001012501021999MA1999999097691MD1710561+9999MW1711OA149902831REMSYN094AAXX  13124 04390 11602 80338 11069 21069 39769 49862 57056 69901 77173 8802/ 333 91155 91054;
0188043900999992000021315004+60030-043120FM-12+0019BGPC V0200201N019510120019N0020001N1-00651-00671097851ADDAY171031AY271031GF108991081001012501021999MA1999999096931MD1710761+9999MW1731OA149902931REMSYN088AAXX  13154 04390 41620 80238 11065 21067 39693 49785 57076 77377 8802/ 333 91157 91054;
0249043900999992000021318004+60030-043120FM-12+0019BGPC V0203301N015410120019N0015001N1-00521-00541097401ADDAA112001091AY171061AY231061GF108991081001012501021999KA1120M-00511KA2120N-00731MA1999999096481MD1710451+9999MW1711OA149902931REMSYN112AAXX  13184 04390 11615 83330 11052 21054 39648 49740 57045 60012 77173 8802/ 333 11051 21073 91157 91043 91241;
0171043900999992000021321004+60030-043120FM-12+0019BGPC V0202801N011810120019N0005001N1-00371+99999097961ADDAY171031AY271031GF108991081001012501021999MA1999999097041MD1210561+9999MW1711REMSYN082AAXX  13214 04390 41605 82823 11037 21036 39704 49796 52056 77177 8802/ 333 91146;
0177043900999992000021400004+60030-043120FM-12+0019BGPC V0202701N009319999999N0100001N1-00311-00491098141ADDAA106000591GF106991061001999999071999MA1999999097221MD1210181+9999OA149902371REMSYN088AAXX  14004 04390 12960 62718 11031 21049 39722 49814 52018 69941 8607/ 333 91146 91230;
0160043900999992000021403004+60030-043120FM-12+0019BGPC V0202601N011319999999N0100001N1-00361-00921098241ADDGF108991081001999999071999MA1999999097321MD1210101+9999OA149901851REMSYN082AAXX  14034 04390 42960 82622 11036 21092 39732 49824 52010 8807/ 333 91136 91036;
0243043900999992000021406004+60030-043120FM-12+0019BGPC V0202701N014910150019N0100001N1-00621-01371098301ADDAA112000591AY131061AY231061GF108991081001017501021999KA1120M-00291KA2120N-00631MA1999999097371MD1210051+9999MW1001OA149902321REMSYN106AAXX  14064 04390 11760 82729 11062 21137 39737 49830 52005 69942 70033 8802/ 333 11029 21063 91145 91040;
0218043900999992000021412004+60030-043120FM-12+0019BGPC V0202601N015412200019N0250001N1-00851-01961098301ADDAA199000091AY131061AY231061GF104991001001999999001051MA1999999097361MD1410001+9999MW1361OA149903241REMSYN088AAXX  14124 04390 31975 42630 11085 21196 39736 49830 54000 73633 80005 333 91163 91047;EQDQ01  00002PRCP99
0188043900999992000021415004+60030-043120FM-12+0019BGPC V0202601N016410210019N0300001N1-00981-01771098281ADDAY131031AY211031GF105991051001022501021999MA1999999097341MD1710021+9999MW1361OA149902731REMSYN088AAXX  14154 04390 41880 52632 11098 21177 39734 49828 57002 73631 8502/ 333 91153 91045;
0256043900999992000021418004+60030-043120FM-12+0019BGPC V0202701N023110150019N0250001N1-01011-01841098161ADDAA199000091AY131061AY221061GF108991081001017501021999KA1120M-00601KA2120N-01031MA1999999097221MD1710121+9999MW1371OA149903291REMSYN100AAXX  14184 04390 31775 82745 11101 21184 39722 49816 57012 73732 8802/ 333 11060 21103 91164 91062;EQDQ01  00002PRCP99
0188043900999992000021421004+60030-043120FM-12+0019BGPC V0202701N022612200019N0100001N1-01041-01851098391ADDAY131031AY201031GF103991001001999999001061MA1999999097451MD1210231+9999MW1371OA149903291REMSYN088AAXX  14214 04390 41960 32744 11104 21185 39745 49839 52023 73730 80006 333 91164 91062;
0228043900999992000021500004+60030-043120FM-12+0019BGPC V0202701N023612200019N0150001N1-01001-01971098381ADDAA199000091AY131061AY231061GA1001+999999999GF100991001001999999001001MA1999999097441MD1710011+9999MW1371OA149903451REMSYN082AAXX  15004 04390 31965 02746 11100 21197 39744 49838 57001 73733 333 91167 91066;EQDQ01  00002PRCP99
0149043900999992000021503004+60030-043120FM-12+0019BGPC V0202701N025712200019N0100001N1-00981-01971098581ADDGA1001+999999999GF100991001001999999001001MA1999999097641MD1210201+9999REMSYN066AAXX  15034 04390 41960 02750 11098 21197 39764 49858 52020 73//5;
0202043900999992000021506004+60030-043120FM-12+0019BGPC V0202701N025719999999N9999999N1-00941-01901099181ADDAA199000091KA1120M-00931KA2120N-01061MA1999999098231MD1210591+9999OA149904121REMSYN094AAXX  15064 04390 32/// /2750 11094 21190 39823 49918 52059 333 11093 21106 91180 91066 91263;EQDQ01  00002PRCP99
0176043900999992000021509004+60030-043120FM-12+0019BGPC V0202801N014412200019N0100001N1-00801-01861099921ADDGA1001+999999999GF100991001001999999001001MA1999999098971MD1210741+9999OA149903501REMSYN082AAXX  15094 04390 42960 02828 11080 21186 39897 49992 52074 333 91168 91046 91251;
0196043900999992000021511004+60030-043120FM-12+0019BGPC V0202801N018012200019N0350001N1-00781-01631100211ADDAA199000091GF101991011001999999041999MA1999999099261MD1210291+9999OA149903501REMSYN088AAXX  15114 04390 32981 12835 11078 21163 39926 40021 52029 8104/ 333 91168 91051 91251;EQDQ01  00002PRCP99
0196043900999992000021512004+60030-043120FM-12+0019BGPC V0202801N018012200019N0350001N1-00781-01631100211ADDAA199000091GF101991011001999999041999MA1999999099261MD1210291+9999OA149903501REMSYN088AAXX  15124 04390 32981 12835 11078 21163 39926 40021 52029 8104/ 333 91168 91051 91251;EQDQ01  00002PRCP99
0198043900999992000021515004+60030-043120FM-12+0019BGPC V0202801N018012200019N0300001N1-00741-01671100581ADDAY101031AY201031GA1001+999999999GF100991001001999999001001MA1999999099631MD1210371+9999MW1361OA149902881REMSYN082AAXX  15154 04390 41980 02835 11074 21167 39963 40058 52037 73600 333 91156 91049;
0244043900999992000021518004+60030-043120FM-12+0019BGPC V0202901N014912200019N0300001N1-00661-01681100701ADDAA199000091GA1001+999999999GF100991001001999999001001KA1120M-00641KA2120N-00961MA1999999099751MD1210121+9999OA149902881REMSYN094AAXX  15184 04390 32980 02929 11066 21168 39975 40070 52012 333 11064 21096 91156 91040 91240;EQDQ01  00002PRCP99
0170043900999992000021521004+60030-043120FM-12+0019BGPC V0202901N012312200019N0150001N1-00701-01791100801ADDGA1001+999999999GF100991001001999999001001MA1999999099851MD1210101+9999OA149902111REMSYN076AAXX  15214 04390 42965 02924 11070 21179 39985 40080 52010 333 91141 91037;
0200043900999992000021600004+60030-043120FM-12+0019BGPC V0202901N007212200019N0250001N1-00721-01641100901ADDAA199000091GA1001+999999999GF100991001001999999001001MA1999999099941MD1210091+9999OA149902111REMSYN076AAXX  16004 04390 32975 02914 11072 21164 39994 40090 52009 333 91141 91230;EQDQ01  00002PRCP99
0143043900999992000021603004+60030-043120FM-12+0019BGPC V0202901N004612200019N0100001N1-00761-01521100971ADDGA1001+999999999GF100991001001999999001001MA1999999100011MD1210071+9999REMSYN060AAXX  16034 04390 42960 02909 11076 21152 30001 40097 52007;
0205043900999992000021606004+60030-043120FM-12+0019BGPC V0203301N003610120019N0200001N1-00441-01321100911ADDAA199000091GF105991051001012501021999KA1120M-00431KA2999N-00801MA1999999099961MD1710051+9999REMSYN082AAXX  16064 04390 32670 53307 11044 21132 39996 40091 57005 8502/ 333 11043 21080;EQDQ01  00002PRCP99
0188043900999992000021609004+60030-043120FM-12+0019BGPC V0203601N009810120019N0020001N1-00501-00591100841ADDAY171031AY201031GF108991081001012501021999MA1999999099891MD1710071+9999MW1711OA149901961REMSYN088AAXX  16094 04390 41620 83619 11050 21059 39989 40084 57007 77170 8802/ 333 91138 91033;
0205043900999992000021612004+60030-043120FM-12+0019BGPC V0200301N014910120019N0005001N1-00391-00391100751ADDAA106000191AY171061AY221061GF108991081001012501021999MA1999999099811MD1710081+9999MW1711OA149902211REMSYN094AAXX  16124 04390 11605 80329 11039 21039 39981 40075 57008 69921 77172 8802/ 333 91143 91041;
0188043900999992000021615004+60030-043120FM-12+0019BGPC V0200201N015410120019N0005001N1-00301-00301100601ADDAY171031AY271031GF108991081001012501021999MA1999999099661MD1710151+9999MW1731OA149902211REMSYN088AAXX  16154 04390 41605 80230 11030 21030 39966 40060 57015 77377 8802/ 333 91143 91041;
0243043900999992000021618004+60030-043120FM-12+0019BGPC V0200201N015910120019N0010001N1-00341-00341100251ADDAA112002091AY171061AY271061GF108991081001012501021999KA1120M-00241KA2120N-00551MA1999999099311MD1710351+9999MW1711OA149902521REMSYN106AAXX  16184 04390 11610 80231 11034 21034 39931 40025 57035 60022 77177 8802/ 333 11024 21055 91149 91045;
0188043900999992000021621004+60030-043120FM-12+0019BGPC V0200301N020010012019N0005001N1-00331-00331100051ADDAY171031AY271031GF108991081071001501999999MA1999999099121MD1710191+9999MW1711OA149902881REMSYN088AAXX  16214 04390 41205 80339 11033 21033 39912 40005 57019 77177 887// 333 91156 91055;
0205043900999992000021700004+60030-043120FM-12+0019BGPC V0200201N023610021019N0001001N1-00291-00291099771ADDAA106000791AY171061AY271061GF108991081071002501999999MA1999999098841MD1710281+9999MW1711OA149903761REMSYN094AAXX  17004 04390 11301 80246 11029 21029 39884 49977 57028 69901 77177 887// 333 91173 91066;
0188043900999992000021703004+60030-043120FM-12+0019BGPC V0200201N022110042019N0005001N1-00161-00161099871ADDAY171031AY271031GF108991081071004501999999MA1999999098941MD1210101+9999MW1731OA149903651REMSYN088AAXX  17034 04390 41405 80243 11016 21016 39894 49987 52010 77377 887// 333 91171 91060;
0243043900999992000021706004+60030-043120FM-12+0019BGPC V0200201N016410120019N0020001N1-00181-00181100311ADDAA112003091AY171061AY271061GF108991081001012501021999KA1120M-00141KA2120N-00381MA1999999099381MD1210441+9999MW1711OA149903651REMSYN106AAXX  17064 04390 11620 80232 11018 21018 39938 40031 52044 60032 77177 8802/ 333 11014 21038 91171 91248;
0188043900999992000021709004+60030-043120FM-12+0019BGPC V0200201N013910120019N0100001N1-00151-00151100761ADDAY131031AY221031GF108991081001012501021999MA1999999099831MD1210451+9999MW1001OA149902371REMSYN088AAXX  17094 04390 41660 80227 11015 21015 39983 40076 52045 70032 8802/ 333 91146 91037;
0128043900999992000021712004+60030-043120FM-12+0019BGPC V0200301N014419999999N9999999N1-00221-00231101281ADDMA1999999100341MD1210511+9999OA149902371REMSYN076AAXX  17124 04390 46/// /0328 11022 21023 30034 40128 52051 333 91146 91042;
0160043900999992000021715004+60030-043120FM-12+0019BGPC V0200201N016410150019N0250001N1-00271-00341101661ADDGF108991081001017501021999MA1999999100711MD1210371+9999OA149902571REMSYN082AAXX  17154 04390 42775 80232 11027 21034 30071 40166 52037 8802/ 333 91150 91044;
0192043900999992000021718004+60030-043120FM-12+0019BGPC V0200201N015410210019N0150001N1-00291-00451101781ADDAA199000021GF108991081001022501071999KA1120M-00071KA2120N-00291MA1999999100831MD1210121+9999REMSYN088AAXX  17184 04390 32865 80230 11029 21045 30083 40178 52012 8807/ 333 11007 21029 91150;
0160043900999992000021721004+60030-043120FM-12+0019BGPC V0200201N015410120019N0200001N1-00291-00551101981ADDGF108991081001012501021999MA1999999101031MD1010201+9999OA149902521REMSYN082AAXX  17214 04390 42670 80230 11029 21055 30103 40198 50020 8802/ 333 91149 91045;
0190043900999992000021800004+60030-043120FM-12+0019BGPC V0200301N014410210019N0150001N1-00291-00561102021ADDAA199000091GF108991081001022501071999MA1999999101071MD1210041+9999OA149902521REMSYN082AAXX  18004 04390 32865 80328 11029 21056 30107 40202 52004 8807/ 333 91149 91041;EQDQ01  00002PRCP99
0160043900999992000021803004+60030-043120FM-12+0019BGPC V0200301N014919999999N0100001N1-00251-00511102001ADDGF107991071001999999071999MA1999999101051MD1710021+9999OA149902371REMSYN082AAXX  18034 04390 42960 70329 11025 21051 30105 40200 57002 8707/ 333 91146 91042;
0243043900999992000021806004+60030-043120FM-12+0019BGPC V0200201N016410120019N0010001N1-00361-00381101731ADDAA112000791AY171061AY231061GF108991081001012501021999KA1120M-00241KA2120N-00391MA1999999100781MD1710271+9999MW1711OA149902521REMSYN106AAXX  18064 04390 11610 80232 11036 21038 30078 40173 57027 69902 77173 8802/ 333 11024 21039 91149 91046;
0188043900999992000021809004+60030-043120FM-12+0019BGPC V0200301N020610120019N0010001N1-00391-00441101471ADDAY171031AY231031GF108991081001012501021999MA1999999100521MD1710261+9999MW1711OA149902881REMSYN088AAXX  18094 04390 41610 80340 11039 21044 30052 40147 57026 77173 8802/ 333 91156 91053;
0205043900999992000021812004+60030-043120FM-12+0019BGPC V0200301N018010120019N0004001N1-00321-00321101101ADDAA106003091AY171061AY271061GF108991081001012501021999MA1999999100161MD1710361+9999MW1711OA149903191REMSYN094AAXX  18124 04390 11604 80335 11032 21032 30016 40110 57036 60031 77177 8802/ 333 91162 91052;
0171043900999992000021815004+60030-043120FM-12+0019BGPC V0200301N013410120019N0010001N1-00161-00161100641ADDAY171031AY271031GF108991081001012501021999MA1999999099711MD1710451+9999MW1711REMSYN082AAXX  18154 04390 41610 80326 11016 21016 39971 40064 57045 77177 8802/ 333 91152;
0243043900999992000021818004+60030-043120FM-12+0019BGPC V0200201N019010120019N0002001N1-00231-00231099981ADDAA112010991AY171061AY231061GF108991081001012501021999KA1120M-00031KA2120N-00411MA1999999099051MD1710661+9999MW1711OA149902731REMSYN106AAXX  18184 04390 11602 80237 11023 21023 39905 49998 57066 60112 77173 8802/ 333 11003 21041 91153 91050;
0182043900999992000021821004+60030-043120FM-12+0019BGPC V0200301N023619999999N9999999N1-00281-00281099181ADDAY171031AY271031GF108991999999999999999999MA1999999098261MD1710791+9999MW1751OA149903501REMSYN082AAXX  18214 04390 41/// 80346 11028 21028 39826 49918 57079 77577 333 91168 91060;
0205043900999992000021900004+60030-043120FM-12+0019BGPC V0200301N021610012019N0001001N1-00091+99999098401ADDAA106009991AY171061AY271061GF108991081071001501999999MA1999999097491MD1710771+9999MW1731OA149903761REMSYN094AAXX  19004 04390 11201 80342 11009 21008 39749 49840 57077 60101 77377 887// 333 91173 91056;
0229043900999992000021903004+60030-043120FM-12+0019BGPC V0200501N017010075019N0002001N1-00031-00031097612ADDAY171031AY271031GF108991081001008001021999MA1999999096712MD1710781+9999MW1731OA149903241REMSYN094AAXX  19034 04390 41502 80533 11003 21003 39671 49761 57078 77377 8802/ 333 91163 91048 91244;EQDQ01+096713APOSP Q02+097613APOSLP
0249043900999992000021906004+60030-043120FM-12+0019BGPC V0201101N012310120019N0020001N1-00311-00311097771ADDAA112023191AY181061AY271061GF105991051001012501021999KA1120M-00021KA2120N-00351MA1999999096861MD1210151+9999MW1701OA149903241REMSYN112AAXX  19064 04390 11620 51124 11031 21031 39686 49777 52015 60232 77087 8502/ 333 11002 21035 91163 91039 91244;
0171043900999992000021909004+60030-043120FM-12+0019BGPC V0200801N013410042019N0010001N1-00171-00171097661ADDAY171031AY271031GF108991081051004501999999MA1999999096751MD1710111+9999MW1711REMSYN082AAXX  19094 04390 41410 80826 11017 21017 39675 49766 57011 77177 885// 333 91139;
0205043900999992000021912004+60030-043120FM-12+0019BGPC V0201801N009810042019N0100001N1-00251-00251098021ADDAA106000891AY171061AY221061GF108991081051004501999999MA1999999097111MD1210361+9999MW1001OA149902011REMSYN094AAXX  19124 04390 11460 81819 11025 21025 39711 49802 52036 69981 70072 885// 333 91139 91231;
0171043900999992000021915004+60030-043120FM-12+0019BGPC V0201701N010810042019N0100001N1-00331-00331098241ADDAY171031AY221031GF108991081051004501999999MA1999999097321MD1210211+9999MW1001REMSYN082AAXX  19154 04390 41460 81721 11033 21033 39732 49824 52021 70072 885// 333 91130;
0243043900999992000021918004+60030-043120FM-12+0019BGPC V0201601N008710120019N0150001N1-00411-00411098291ADDAA112000891AY171061AY221061GF106991061001012501021999KA1120M-00101KA2120N-00461MA1999999097371MD1210051+9999MW1701OA149901701REMSYN106AAXX  19184 04390 11665 61617 11041 21041 39737 49829 52005 69982 77072 8602/ 333 11010 21046 91133 91029;
0171043900999992000021921004+60030-043120FM-12+0019BGPC V0202101N007719999999N9999999N1-00161-00161098131ADDAY171031AY271031GF108991081071999999999999MA1999999097221MD1710151+9999MW1071REMSYN082AAXX  19214 04390 41/// 82115 11016 21016 39722 49813 57015 70777 887// 333 91130;
0188043900999992000022000004+60030-043120FM-12+0019BGPC V0202201N008210021019N0001001N1-00371-00371098551ADDAA106002091AY171061AY271061GF108991081071002501999999MA1999999097631MD1210411+9999MW1711REMSYN088AAXX  20004 04390 11301 82216 11037 21037 39763 49855 52041 60021 77177 887// 333 91131;
0161043900999992000022003004+60030-043120FM-12+0019BGPC V0202301N008710210019N0100001N1-00511-00511098931ADDAY171031AY221031GF108991081001022501021999MA1999999098001MD1210371+9999MW1001REMSYN072AAXX  20034 04390 41860 82317 11051 21051 39800 49893 52037 70072 8802/;
0220043900999992000022006004+60030-043120FM-12+0019BGPC V0202501N007719999999N0250001N1-00561-00561099151ADDAA112002091AY131061AY231061GF107991001001999999001071KA1120M-00141KA2999N-00611MA1999999098221MD1210221+9999MW1361REMSYN094AAXX  20064 04390 11975 72515 11056 21056 39822 49915 52022 60022 73633 80007 333 11014 21061;
0161043900999992000022009004+60030-043120FM-12+0019BGPC V0202301N009310042019N0100001N1-00571-00581099361ADDAY171031AY221031GF106991061051004501999999MA1999999098421MD1210201+9999MW1001REMSYN072AAXX  20094 04390 41460 62318 11057 21058 39842 49936 52020 70072 865//;
0150043900999992000022012004+60030-043120FM-12+0019BGPC V0202401N009310300019N0200001N1-00611-00631099541ADDAA106000791GF105991031081017501021999MA1999999098601MD1210181+9999REMSYN072AAXX  20124 04390 12770 52418 11061 21063 39860 49954 52018 69901 8382/;
0161043900999992000022015004+60030-043120FM-12+0019BGPC V0202301N008712200019N0200001N1-00571-00671099621ADDAY131031AY231031GF103991011071004501031999MA1999999098681MD1210081+9999MW1361REMSYN072AAXX  20154 04390 41470 32317 11057 21067 39868 49962 52008 73633 8173/;
0233043900999992000022018004+60030-043120FM-12+0019BGPC V0202401N009312200019N0300001N1-00551-00821099621ADDAA199000091AY131061AY231061GF102991021001022501031999KA1120M-00511KA2999N-00681MA1999999098681MD1410001+9999MW1361REMSYN088AAXX  20184 04390 31880 22418 11055 21082 39868 49962 54000 73633 8203/ 333 11051 21068;EQDQ01  00002PRCP99
0143043900999992000022021004+60030-043120FM-12+0019BGPC V0202401N009312200019N0250001N1-00611-00991099751ADDGF102991021081004501999999MA1999999098811MD1210131+9999REMSYN076AAXX  20214 04390 42475 22418 11061 21099 39881 49975 52013 828// 333 91130;
0183043900999992000022100004+60030-043120FM-12+0019BGPC V0202501N008212200019N0200001N1-00631-01121099871ADDAA199000091GA1001+999999999GF100991001001999999001001MA1999999098931MD1210121+9999REMSYN070AAXX  21004 04390 32970 02516 11063 21112 39893 49987 52012 333 91130;EQDQ01  00002PRCP99
0171043900999992000022103004+60030-043120FM-12+0019BGPC V0202701N010812200019N0250001N1-00681-01241100051ADDAY131031AY201031GF101991011011999999999999MA1999999099101MD1210171+9999MW1001REMSYN082AAXX  21034 04390 41975 12721 11068 21124 39910 40005 52017 70030 811// 333 91137;
0249043900999992000022106004+60030-043120FM-12+0019BGPC V0202601N007712200019N0100001N1-00671-01421100311ADDAA199000091AY101061AY201061GA1001+999999999GF100991001001999999001001KA1120M-00541KA2120N-00711MA1999999099361MD1210261+9999MW1361REMSYN088AAXX  21064 04390 31960 02615 11067 21142 39936 40031 52026 73600 333 11054 21071 91137;EQDQ01  00002PRCP99
0153043900999992000022109004+60030-043120FM-12+0019BGPC V0202501N007712200019N0300001N1-00651-01541100481ADDGA1001+999999999GF100991001001999999001001MA1999999099531MD1210171+9999REMSYN070AAXX  21094 04390 42980 02515 11065 21154 39953 40048 52017 333 91137;
0143043900999992000022115004+60030-043120FM-12+0019BGPC V0202401N004612200019N0400001N1-00571-01591100691ADDGA1001+999999999GF100991001001999999001001MA1999999099741MD1210041+9999REMSYN060AAXX  21154 04390 42982 02409 11057 21159 39974 40069 52004;
0143043900999992000022118004+60030-043120FM-12+0019BGPC V0202401N004619999999N9999999N1-00621-01651100651ADDKA1120M-00491KA2999N-00771MA1999999099701MD1710041+9999REMSYN076AAXX  21184 04390 46/// /2409 11062 21165 39970 40065 57004 333 11049 21077;
0133043900999992000022121004+60030-043120FM-12+0019BGPC V0202501N003612200019N0350001N1-00751-01781100611ADDGF102991001001999999001021MA1999999099661MD1710041+9999REMSYN066AAXX  21214 04390 42981 22507 11075 21178 39966 40061 57004 80002;
0150043900999992000022200004+60030-043120FM-12+0019BGPC V0202501N005712200019N0100001N1-00691-01761100481ADDAA106000791GF102991001001999999001061MA1999999099531MD1710131+9999REMSYN072AAXX  22004 04390 12960 22511 11069 21176 39953 40048 57013 69901 80006;
0133043900999992000022203004+60030-043120FM-12+0019BGPC V0202701N007219999999N0200001N1-00651-01761100211ADDGF108991001001999999001071MA1999999099261MD1710271+9999REMSYN066AAXX  22034 04390 42970 82714 11065 21176 39926 40021 57027 80007;
0211043900999992000022206004+60030-043120FM-12+0019BGPC V0203101N003119999999N0100001N1-00721-01531100141ADDAA199000091GF108991001001999999001071KA1120M-00591KA2120N-00821MA1999999099191MD1710071+9999REMSYN088AAXX  22064 04390 32960 83106 11072 21153 39919 40014 57007 80007 333 11059 21082 91216;EQDQ01  00002PRCP99
0133043900999992000022209004+60030-043120FM-12+0019BGPC V0203201N001512200019N0200001N1-00701-01381100061ADDGF102991001001999999001071MA1999999099111MD1710081+9999REMSYN066AAXX  22094 04390 42970 23203 11070 21138 39911 40006 57008 80007;
0163043900999992000022212004+60030-043120FM-12+0019BGPC V0202701N002110300019N0200001N1-00701-01401099991ADDAA199000091GF108991011071004501021999MA1999999099041MD1710071+9999REMSYN066AAXX  22124 04390 32470 82704 11070 21140 39904 49999 57007 8172/;EQDQ01  00002PRCP99
0133043900999992000022215004+60030-043120FM-12+0019BGPC V0202401N004119999999N0300001N1-00631-01401099831ADDGF106991001001999999001071MA1999999098891MD1710151+9999REMSYN066AAXX  22154 04390 42980 62408 11063 21140 39889 49983 57015 80007;
0205043900999992000022218004+60030-043120FM-12+0019BGPC V0202801N005712200019N0300001N1-00651-01471099611ADDAA199000091GF101991011001012501021999KA1120M-00591KA2999N-00781MA1999999098671MD1710221+9999REMSYN082AAXX  22184 04390 32680 12811 11065 21147 39867 49961 57022 8102/ 333 11059 21078;EQDQ01  00002PRCP99
0133043900999992000022221004+60030-043120FM-12+0019BGPC V0202801N007712200019N0350001N1-00711-01501099571ADDGF102991021001999999041999MA1999999098631MD1710041+9999REMSYN066AAXX  22214 04390 42981 22815 11071 21150 39863 49957 57004 8204/;
0183043900999992000022300004+60030-043120FM-12+0019BGPC V0202701N011812200019N0150001N1-00711-01501099461ADDAA199000091GA1001+999999999GF100991001001999999001001MA1999999098521MD1710111+9999REMSYN070AAXX  23004 04390 32965 02723 11071 21150 39852 49946 57011 333 91128;EQDQ01  00002PRCP99
0198043900999992000022303004+60030-043120FM-12+0019BGPC V0202701N013912200019N0200001N1-00731-01581099451ADDAY131031AY231031GA1001+999999999GF100991001001999999001001MA1999999098511MD1710011+9999MW1361OA149902061REMSYN082AAXX  23034 04390 41970 02727 11073 21158 39851 49945 57001 73633 333 91140 91038;
0249043900999992000022306004+60030-043120FM-12+0019BGPC V0202701N015412200019N0100001N1-00821-01531099391ADDAA199000091AY101061AY201061GA1001+999999999GF100991001001999999001001KA1120M-00651KA2120N-00841MA1999999098451MD1710061+9999MW1361REMSYN088AAXX  23064 04390 31960 02730 11082 21153 39845 49939 57006 73600 333 11065 21084 91145;EQDQ01  00002PRCP99
0181043900999992000022309004+60030-043120FM-12+0019BGPC V0202701N016412200019N9999999N1-00861-01661099311ADDAY101031AY201031GA1001+999999999GF100991001001999999001001MA1999999098361MD1710091+9999MW1371REMSYN076AAXX  23094 04390 419// 02732 11086 21166 39836 49931 57009 73700 333 91148;
0186043900999992000022312004+60030-043120FM-12+0019BGPC V0202801N013919999999N9999999N1-00811-01711099321ADDAA199000091AY101061AY201061MA1999999098381MD1210021+9999MW1371OA149902471REMSYN082AAXX  23124 04390 31/// /2827 11081 21171 39838 49932 52002 73700 333 91148 91040;EQDQ01  00002PRCP99
0204043900999992000022315004+60030-043120FM-12+0019BGPC V0202901N011312200019N0250001N1-00761-01641099351ADDAY131031AY231031GA1001+999999999GF100991001001999999001001MA1999999098411MD1210031+9999MW1361OA149902521REMSYN088AAXX  23154 04390 41975 02922 11076 21164 39841 49935 52003 73633 333 91149 91034 91239;
0224043900999992000022318004+60030-043120FM-12+0019BGPC V0202701N008219999999N9999999N1-00661-01731099471ADDAA199000091AY101061AY201061KA1120M-00651KA2120N-00881MA1999999098531MD1210121+9999MW1361OA149902521REMSYN094AAXX  23184 04390 31/// /2716 11066 21173 39853 49947 52012 73600 333 11065 21088 91149 91239;EQDQ01  00002PRCP99
0215043900999992000022400004+60030-043120FM-12+0019BGPC V0202701N013412200019N9999999N1-00861-01861099121ADDAA106000791AY131061AY201061GA1001+999999999GF100991001001999999001001MA1999999098181MD1710231+9999MW1001OA149902161REMSYN088AAXX  24004 04390 119// 02726 11086 21186 39818 49912 57023 69901 70030 333 91142 91042;
0128043900999992000022403004+60030-043120FM-12+0019BGPC V0202701N018519999999N9999999N1-00761-01831099121ADDMA1999999098181MD1410001+9999OA149902831REMSYN076AAXX  24034 04390 46/// /2736 11076 21183 39818 49912 54000 333 91155 91048;
0238043900999992000022406004+60030-043120FM-12+0019BGPC V0202701N008712200019N0100001N1-00761-01851099351ADDAA199000091GA1001+999999999GF100991001001999999001001KA1120M-00661KA2120N-00871MA1999999098411MD1210231+9999OA149902831REMSYN088AAXX  24064 04390 32960 02717 11076 21185 39841 49935 52023 333 11066 21087 91155 91242;EQDQ01  00002PRCP99
0111043900999992000022409004+60030-043120FM-12+0019BGPC V0202701N010819999999N9999999N1-00761-01771099381ADDMA1999999098441MD1210031+9999REMSYN070AAXX  24094 04390 42/// /2721 11076 21177 39844 49938 52003 333 91132;
0173043900999992000022412004+60030-043120FM-12+0019BGPC V0202801N008212200019N0300001N1-00741-01701099361ADDAA199000091GF102991001001999999001051MA1999999098421MD1710021+9999REMSYN076AAXX  24124 04390 32980 22816 11074 21170 39842 49936 57002 80005 333 91132;EQDQ01  00002PRCP99
0133043900999992000022415004+60030-043120FM-12+0019BGPC V0202801N004119999999N0350001N1-00681-01611099341ADDGF106991001001999999001061MA1999999098401MD1710021+9999REMSYN066AAXX  24154 04390 42981 62808 11068 21161 39840 49934 57002 80006;
0211043900999992000022418004+60030-043120FM-12+0019BGPC V0203101N002619999999N0250001N1-00671-01531099211ADDAA199000091GF108991081001999999011999KA1120M-00651KA2120N-00791MA1999999098271MD1710131+9999REMSYN088AAXX  24184 04390 32975 83105 11067 21153 39827 49921 57013 8801/ 333 11065 21079 91217;EQDQ01  00002PRCP99
0133043900999992000022421004+60030-043120FM-12+0019BGPC V0203301N004610210019N0350001N1-00651-01441099151ADDGF107991071001022501021999MA1999999098211MD1710061+9999REMSYN066AAXX  24214 04390 42881 73309 11065 21144 39821 49915 57006 8702/;
0173043900999992000022500004+60030-043120FM-12+0019BGPC V0202901N005112200019N0100001N1-00661-01451099081ADDAA199000091GA1001+999999999GF100991001001999999001001MA1999999098141MD1710071+9999REMSYN060AAXX  25004 04390 32960 02910 11066 21145 39814 49908 57007;EQDQ01  00002PRCP99
0143043900999992000022503004+60030-043120FM-12+0019BGPC V0202601N004612200019N0150001N1-00871-01631099011ADDGA1001+999999999GF100991001001999999001001MA1999999098071MD1710071+9999REMSYN060AAXX  25034 04390 42965 02609 11087 21163 39807 49901 57007;
0215043900999992000022506004+60030-043120FM-12+0019BGPC V0203101N004112200019N0100001N1-00821-01601098931ADDAA199000091GA1001+999999999GF100991001001999999001001KA1120M-00651KA2999N-00981MA1999999097991MD1710081+9999REMSYN076AAXX  25064 04390 32960 03108 11082 21160 39799 49893 57008 333 11065 21098;EQDQ01  00002PRCP99
0143043900999992000022509004+60030-043120FM-12+0019BGPC V0202601N003112200019N9999999N1-00911-01731098931ADDGA1001+999999999GF100991001001999999001001MA1999999097991MD1410001+9999REMSYN060AAXX  25094 04390 429// 02606 11091 21173 39799 49893 54000;
0101043900999992000022512004+60030-043120FM-12+0019BGPC V0202801N003619999999N9999999N1-00821-01591098971ADDMA1999999098031MD1210041+9999REMSYN060AAXX  25124 04390 46/// /2807 11082 21159 39803 49897 52004;
0133043900999992000022515004+60030-043120FM-12+0019BGPC V0202901N002612200019N0250001N1-00701-01491098931ADDGF102991001001999999001061MA1999999097991MD1710041+9999REMSYN066AAXX  25154 04390 42975 22905 11070 21149 39799 49893 57004 80006;
0205043900999992000022518004+60030-043120FM-12+0019BGPC V0202801N004612200019N0300001N1-00731-01431098821ADDAA199000091GF102991001001999999001051KA1120M-00651KA2999N-00931MA1999999097881MD1710111+9999REMSYN082AAXX  25184 04390 32980 22809 11073 21143 39788 49882 57011 80005 333 11065 21093;EQDQ01  00002PRCP99
0143043900999992000022521004+60030-043120FM-12+0019BGPC V0202901N005712200019N0350001N1-00711-01411098821ADDGA1001+999999999GF100991001001999999001001MA1999999097881MD1410001+9999REMSYN060AAXX  25214 04390 42981 02911 11071 21141 39788 49882 54000;
0173043900999992000022600004+60030-043120FM-12+0019BGPC V0202601N005712200019N9999999N1-00801-01471098731ADDAA199000091GA1001+999999999GF100991001001999999001001MA1999999097791MD1710091+9999REMSYN060AAXX  26004 04390 329// 02611 11080 21147 39779 49873 57009;EQDQ01  00002PRCP99
0143043900999992000022603004+60030-043120FM-12+0019BGPC V0202701N003112200019N0150001N1-00791-01501098541ADDGA1001+999999999GF100991001001999999001001MA1999999097601MD1710191+9999REMSYN060AAXX  26034 04390 42965 02706 11079 21150 39760 49854 57019;
0188043900999992000022609004+60030-043120FM-12+0019BGPC V0203301N011310120019N0100001N1-00201-00361098691ADDAY171031AY221031GF108991081001012501021999MA1999999097771MD1210221+9999MW1711OA149901751REMSYN088AAXX  26094 04390 41660 83322 11020 21036 39777 49869 52022 77172 8802/ 333 91134 91034;
0171043900999992000022612004+60030-043120FM-12+0019BGPC V0200201N002610150019N0350001N1-00291-00331099061ADDAA199000021GF106991061001017501021999MA1999999098141MD1210371+9999OA149902321REMSYN082AAXX  26124 04390 32781 60205 11029 21033 39814 49906 52037 8602/ 333 91145 91232;
0101043900999992000022615004+60030-043120FM-12+0019BGPC V0202201N002119999999N9999999N1-00201-00371099171ADDMA1999999098251MD1210111+9999REMSYN060AAXX  26154 04390 46/// /2204 11020 21037 39825 49917 52011;
0186043900999992000022618004+60030-043120FM-12+0019BGPC V0202601N003612200019N0250001N1-00161-00661099251ADDAA199000021GF104991041031008001999999KA1120M+00011KA2999N-00691MA1999999098331MD1210081+9999REMSYN082AAXX  26184 04390 32575 42607 11016 21066 39833 49925 52008 843// 333 10001 21069;
0143043900999992000022621004+60030-043120FM-12+0019BGPC V0202301N001012200019N0350001N1-00321-00881099421ADDGA1001+999999999GF100991001001999999001001MA1999999098491MD1210161+9999REMSYN060AAXX  26214 04390 42981 02302 11032 21088 39849 49942 52016;
0173043900999992000022700004+60030-043120FM-12+0019BGPC V0203001N002112200019N0100001N1-00361-00901099561ADDAA199000091GA1001+999999999GF100991001001999999001001MA1999999098631MD1210141+9999REMSYN060AAXX  27004 04390 32960 03004 11036 21090 39863 49956 52014;EQDQ01  00002PRCP99
0143043900999992000022703004+60030-043120FM-12+0019BGPC V0203001N003112200019N0250001N1-00401-00921099661ADDGA1001+999999999GF100991001001999999001001MA1999999098731MD1210101+9999REMSYN060AAXX  27034 04390 42975 03006 11040 21092 39873 49966 52010;
0215043900999992000022706004+60030-043120FM-12+0019BGPC V0203001N003112200019N0250001N1-00411-00951099721ADDAA199000091GA1001+999999999GF100991001001999999001001KA1120M-00071KA2999N-00461MA1999999098791MD1210061+9999REMSYN076AAXX  27064 04390 32975 03006 11041 21095 39879 49972 52006 333 11007 21046;EQDQ01  00002PRCP99
0143043900999992000022709004+60030-043120FM-12+0019BGPC V0203001N002612200019N9999999N1-00451-00981099841ADDGA1001+999999999GF100991001001999999001001MA1999999098901MD1210111+9999REMSYN060AAXX  27094 04390 429// 03005 11045 21098 39890 49984 52011;
0163043900999992000022712004+60030-043120FM-12+0019BGPC V0203001N006219999999N0350001N1-00451-00791099831ADDAA199000091GF107991071001999999051999MA1999999098891MD1710011+9999REMSYN066AAXX  27124 04390 32981 73012 11045 21079 39889 49983 57001 8705/;EQDQ01  00002PRCP99
0143043900999992000022715004+60030-043120FM-12+0019BGPC V0203001N001010210019N0250001N1-00381-00771099641ADDGF108991081001022501021999MA1999999098711MD1710181+9999REMSYN076AAXX  27154 04390 42875 83002 11038 21077 39871 49964 57018 8802/ 333 91213;
0205043900999992000022718004+60030-043120FM-12+0019BGPC V0203001N003110120019N0200001N1-00461-00781099401ADDAA199000091GF108991081001012501021999KA1120M-00321KA2999N-00591MA1999999098471MD1710241+9999REMSYN082AAXX  27184 04390 32670 83006 11046 21078 39847 49940 57024 8802/ 333 11032 21059;EQDQ01  00002PRCP99
0161043900999992000022721004+60030-043120FM-12+0019BGPC V0203001N003610120019N0050001N1-00541-00541099251ADDAY171031AY221031GF108991081001012501021999MA1999999098321MD1710151+9999MW1701REMSYN072AAXX  27214 04390 41650 83007 11054 21054 39832 49925 57015 77072 8802/;
0178043900999992000022800004+60030-043120FM-12+0019BGPC V0203001N001510210019N0050001N1-00451-00501099081ADDAA106004191AY171061AY271061GF108991081001022501021999MA1999999098151MD1710171+9999MW1701REMSYN078AAXX  28004 04390 11850 83003 11045 21050 39815 49908 57017 60041 77077 8802/;
0161043900999992000022803004+60030-043120FM-12+0019BGPC V0203001N003619999999N0005001N1-00421-00421098931ADDAY171031AY271031GF108991081001999999021999MA1999999098001MD1710151+9999MW1711REMSYN072AAXX  28034 04390 41905 83007 11042 21042 39800 49893 57015 77177 8802/;
0226043900999992000022806004+60030-043120FM-12+0019BGPC V0203001N004110120019N0020001N1-00391-00431098971ADDAA112005191AY171061AY271061GF108991081001012501021999KA1120M-00361KA2120N-00551MA1999999098041MD1210041+9999MW1711REMSYN100AAXX  28064 04390 11620 83008 11039 21043 39804 49897 52004 60052 77177 8802/ 333 11036 21055 91120;
0133043900999992000022809004+60030-043120FM-12+0019BGPC V0203001N004110120019N0100001N1-00321-00501099221ADDGF107991071001012501021999MA1999999098291MD1210251+9999REMSYN066AAXX  28094 04390 42660 73008 11032 21050 39829 49922 52025 8702/;
0178043900999992000022812004+60030-043120FM-12+0019BGPC V0203001N002119999999N0350001N1-00311-00451099461ADDAA106000791AY171061AY221061GF106991061001999999041999MA1999999098531MD1210241+9999MW1001REMSYN078AAXX  28124 04390 11981 63004 11031 21045 39853 49946 52024 69901 70072 8604/;
0133043900999992000022815004+60030-043120FM-12+0019BGPC V0200301N001519999999N0250001N1-00201-00501099721ADDGF106991031001999999031051MA1999999098791MD1210261+9999REMSYN066AAXX  28154 04390 42975 60303 11020 21050 39879 49972 52026 83035;
0133043900999992000022821004+60030-043120FM-12+0019BGPC V0203401N003110120019N0250001N1-00251-00421100351ADDGF108991081001012501021999MA1999999099421MD1210381+9999REMSYN066AAXX  28214 04390 42675 83406 11025 21042 39942 40035 52038 8802/;
0173043900999992000022900004+60030-043120FM-12+0019BGPC V0203401N001512200019N0100001N1-00411-00551100761ADDAA199000091GA1001+999999999GF100991001001999999001001MA1999999099821MD1210401+9999REMSYN060AAXX  29004 04390 32960 03403 11041 21055 39982 40076 52040;EQDQ01  00002PRCP99
0143043900999992000022903004+60030-043120FM-12+0019BGPC V0203401N002112200019N9999999N1-00411-00591101031ADDGA1001+999999999GF100991001001999999001001MA1999999100081MD1210261+9999REMSYN060AAXX  29034 04390 429// 03404 11041 21059 30008 40103 52026;
0205043900999992000022906004+60030-043120FM-12+0019BGPC V0203401N001019999999N0100001N1-00361-00571101201ADDAA199000091GF108991081001999999011999KA1120M-00251KA2999N-00481MA1999999100251MD1210171+9999REMSYN082AAXX  29064 04390 32960 83402 11036 21057 30025 40120 52017 8801/ 333 11025 21048;EQDQ01  00002PRCP99
0133043900999992000022909004+60030-043120FM-12+0019BGPC V0203401N001019999999N0100001N1-00331-00561101411ADDGF108991081001999999011999MA1999999100461MD1210211+9999REMSYN066AAXX  29094 04390 42960 83402 11033 21056 30046 40141 52021 8801/;
0163043900999992000022912004+60030-043120FM-12+0019BGPC V0203401N002110075019N0250001N1-00271-00471101481ADDAA199000091GF107991051031008001041071MA1999999100531MD1210071+9999REMSYN066AAXX  29124 04390 32575 73404 11027 21047 30053 40148 52007 85347;EQDQ01  00002PRCP99
0133043900999992000022915004+60030-043120FM-12+0019BGPC V0202701N000519999999N0350001N1+00081-00391101451ADDGF106991031001999999031071MA1999999100521MD1710011+9999REMSYN066AAXX  29154 04390 42981 62701 10008 21039 30052 40145 57001 83037;
0205043900999992000022918004+60030-043120FM-12+0019BGPC V0202301N003610075019N0250001N1+00061-00311101391ADDAA199000091GF107991061051008001021999KA1120M+00241KA2999N-00411MA1999999100461MD1710061+9999REMSYN082AAXX  29184 04390 32575 72307 10006 21031 30046 40139 57006 8652/ 333 10024 21041;EQDQ01  00002PRCP99
0133043900999992000022921004+60030-043120FM-12+0019BGPC V0202401N005110300019N0250001N1+00011-00291101351ADDGF108991011071004501021999MA1999999100421MD1710041+9999REMSYN066AAXX  29214 04390 42475 82410 10001 21029 30042 40135 57004 8172/;
0178043900999992000030100004+60030-043120FM-12+0019BGPC V0202401N008210210019N0015001N1-00031-00071101191ADDAA106000791AY171061AY221061GF108991081001022501021999MA1999999100261MD1710161+9999MW1681REMSYN078AAXX  01004 04390 11815 82416 11003 21007 30026 40119 57016 69901 76872 8802/;
0171043900999992000030103004+60030-043120FM-12+0019BGPC V0202601N006210210019N0020001N1+00101-00371100931ADDAY171031AY221031GF108991081001022501021999MA1999999100001MD1710261+9999MW1681REMSYN082AAXX  01034 04390 41820 82612 10010 21037 30000 40093 57026 76872 8802/ 333 91123;
0208043900999992000030106004+60030-043120FM-12+0019BGPC V0202901N008712200019N0150001N1+00051-00301100791ADDAA112000791GA1001+999999999GF100991001001999999001001KA1120M+00161KA2120N-00071MA1999999099861MD1710141+9999REMSYN088AAXX  01064 04390 12965 02917 10005 21030 39986 40079 57014 69902 333 10016 21007 91126;
0170043900999992000030109004+60030-043120FM-12+0019BGPC V0202701N006212200019N0200001N1-00101-00821100761ADDGA1001+999999999GF100991001001999999001001MA1999999099831MD1710031+9999OA149901391REMSYN076AAXX  01094 04390 42970 02712 11010 21082 39983 40076 57003 333 91127 91027;
0181043900999992000030112004+60030-043120FM-12+0019BGPC V0202701N009312200019N9999999N1-00271-01161100971ADDAA199000021GA1001+999999999GF100991001001999999001001MA1999999100031MD1210201+9999OA149901851REMSYN076AAXX  01124 04390 329// 02718 11027 21116 30003 40097 52020 333 91136 91228;
0153043900999992000030115004+60030-043120FM-12+0019BGPC V0202701N010312200019N0400001N1-00301-01271100971ADDGA1001+999999999GF100991001001999999001001MA1999999100031MD1410001+9999REMSYN070AAXX  01154 04390 42982 02720 11030 21127 30003 40097 54000 333 91123;
0149043900999992000030118004+60030-043120FM-12+0019BGPC V0202701N010819999999N9999999N1-00201-01471100951ADDKA1120M+00051KA2120N-00321MA1999999100011MD1710021+9999REMSYN082AAXX  01184 04390 46/// /2721 11020 21147 30001 40095 57002 333 10005 21032 91130;
0153043900999992000030121004+60030-043120FM-12+0019BGPC V0202801N012312200019N0300001N1-00301-01381100951ADDGA1001+999999999GF100991001001999999001001MA1999999100011MD1410001+9999REMSYN070AAXX  01214 04390 42980 02824 11030 21138 30001 40095 54000 333 91133;
0211043900999992000030200004+60030-043120FM-12+0019BGPC V0202801N011812200019N0020001N1-00251-01451101091ADDAA199000091AY111061AY201061GA1001+999999999GF100991001001999999001001MA1999999100151MD1210141+9999MW1361REMSYN076AAXX  02004 04390 31920 02823 11025 21145 30015 40109 52014 73610 333 91138;EQDQ01  00002PRCP99
0170043900999992000030203004+60030-043120FM-12+0019BGPC V0202201N006212200019N9999999N1-00231-01401101231ADDGA1001+999999999GF100991001001999999001001MA1999999100291MD1210141+9999OA149901441REMSYN076AAXX  02034 04390 429// 02212 11023 21140 30029 40123 52014 333 91128 91223;
0238043900999992000030206004+60030-043120FM-12+0019BGPC V0202901N002112200019N0150001N1-00401-01221101441ADDAA199000091GA1001+999999999GF100991001001999999001001KA1120M-00161KA2120N-00431MA1999999100491MD1210201+9999OA149901491REMSYN088AAXX  02064 04390 32965 02904 11040 21122 30049 40144 52020 333 11016 21043 91129 91223;EQDQ01  00002PRCP99
0133043900999992000030209004+60030-043120FM-12+0019BGPC V0203001N003612200019N0200001N1-00421-01121101691ADDGF103991001001999999001051MA1999999100741MD1210251+9999REMSYN066AAXX  02094 04390 42970 33007 11042 21112 30074 40169 52025 80005;
0163043900999992000030212004+60030-043120FM-12+0019BGPC V0200201N002610210019N0300001N1-00291-01091101961ADDAA199000091GF108991081001022501011999MA1999999101011MD1210271+9999REMSYN066AAXX  02124 04390 32880 80205 11029 21109 30101 40196 52027 8801/;EQDQ01  00002PRCP99
0133043900999992000030215004+60030-043120FM-12+0019BGPC V0200401N002612200019N0350001N1-00191-00991102111ADDGF104991001001999999001071MA1999999101161MD1210151+9999REMSYN066AAXX  02154 04390 42981 40405 11019 21099 30116 40211 52015 80007;
0205043900999992000030218004+60030-043120FM-12+0019BGPC V0200301N003119999999N0300001N1-00321-00921102151ADDAA199000091GF107991071001999999051999KA1120M-00121KA2999N-00481MA1999999101201MD1210041+9999REMSYN082AAXX  02184 04390 32980 70306 11032 21092 30120 40215 52004 8705/ 333 11012 21048;EQDQ01  00002PRCP99
0133043900999992000030221004+60030-043120FM-12+0019BGPC V0203001N001010210019N0250001N1-00361-00821102251ADDGF108991081001022501071999MA1999999101291MD1210091+9999REMSYN066AAXX  02214 04390 42875 83002 11036 21082 30129 40225 52009 8807/;
0163043900999992000030300004+60030-043120FM-12+0019BGPC V0202801N001010120019N0040001N1-00361-00771102251ADDAA199000091GF108991081001012501021999MA1999999101291MD1410001+9999REMSYN066AAXX  03004 04390 32640 82802 11036 21077 30129 40225 54000 8802/;EQDQ01  00002PRCP99
0133043900999992000030303004+60030-043120FM-12+0019BGPC V0202901N001510150019N0020001N1-00371-00691102201ADDGF108991081001017501021999MA1999999101241MD1710051+9999REMSYN066AAXX  03034 04390 42720 82903 11037 21069 30124 40220 57005 8802/;
0205043900999992000030306004+60030-043120FM-12+0019BGPC V0201201N002110120019N0100001N1-00391-00581102081ADDAA199000091GF108991081001012501021999KA1120M-00291KA2999N-00391MA1999999101121MD1710121+9999REMSYN082AAXX  03064 04390 32660 81204 11039 21058 30112 40208 57012 8802/ 333 11029 21039;EQDQ01  00002PRCP99
0133043900999992000030309004+60030-043120FM-12+0019BGPC V0201201N001010120019N0100001N1-00361-00481101951ADDGF108991081001012501021999MA1999999101001MD1710121+9999REMSYN066AAXX  03094 04390 42660 81202 11036 21048 30100 40195 57012 8802/;
0161043900999992000030315004+60030-043120FM-12+0019BGPC V0201201N002110042019N0010001N1-00411+99999101581ADDAY171031AY271031GF108991081071004501999999MA1999999100631MD1710201+9999MW1711REMSYN072AAXX  03154 04390 41410 81204 11041 21040 30063 40158 57020 77177 887//;
0220043900999992000030318004+60030-043120FM-12+0019BGPC V0201201N003110042019N0002001N1-00491-00491101281ADDAA112017091AY171061AY271061GF108991081071004501999999KA1120M-00321KA2999N-00531MA1999999100331MD1710301+9999MW1731REMSYN094AAXX  03184 04390 11402 81206 11049 21049 30033 40128 57030 60172 77377 887// 333 11032 21053;
0161043900999992000030321004+60030-043120FM-12+0019BGPC V0201201N003110042019N0005001N1-00421-00421101001ADDAY171031AY271031GF108991081071004501999999MA1999999100051MD1710281+9999MW1711REMSYN072AAXX  03214 04390 41405 81206 11042 21042 30005 40100 57028 77177 887//;
0178043900999992000030400004+60030-043120FM-12+0019BGPC V0201201N002110120019N0010001N1-00471-00471100851ADDAA106007191AY171061AY271061GF108991081001012501021999MA1999999099901MD1710151+9999MW1711REMSYN078AAXX  04004 04390 11610 81204 11047 21047 39990 40085 57015 60071 77177 8802/;
0161043900999992000030403004+60030-043120FM-12+0019BGPC V0201201N003110120019N0010001N1-00501-00501100631ADDAY171031AY271031GF108991081001012501021999MA1999999099681MD1710221+9999MW1711REMSYN072AAXX  04034 04390 41610 81206 11050 21050 39968 40063 57022 77177 8802/;
0220043900999992000030406004+60030-043120FM-12+0019BGPC V0201201N002110120019N0010001N1-00511+99999100361ADDAA112016091AY171061AY271061GF108991081001012501021999KA1120M-00401KA2999N-00541MA1999999099421MD1710261+9999MW1711REMSYN094AAXX  04064 04390 11610 81204 11051 21050 39942 40036 57026 60162 77177 8802/ 333 11040 21054;
0174043900999992000030409004+60030-043120FM-12+0019BGPC V0201201N001510120019N0100001N1-00541-00541100131ADDAY161031AY221031GF108991081001012501021999MA1999999099191MD1710231+9999REMSYN072AAXX  04094 04390 41660 81203 11054 21054 39919 40013 57023 76062 8802/;EQDQ01+000602PRSWM1
0178043900999992000030412004+60030-043120FM-12+0019BGPC V0201201N003610120019N0200001N1-00521-00521099981ADDAA106001091AY171061AY221061GF108991081001012501021999MA1999999099041MD1710151+9999MW1701REMSYN078AAXX  04124 04390 11670 81207 11052 21052 39904 49998 57015 60011 77072 8802/;
0161043900999992000030415004+60030-043120FM-12+0019BGPC V0201201N006710075019N0120001N1-00491-00541099871ADDAY171031AY221031GF108991081051008001999999MA1999999098931MD1710111+9999MW1001REMSYN072AAXX  04154 04390 41562 81213 11049 21054 39893 49987 57011 70072 885//;
0186043900999992000030418004+60030-043120FM-12+0019BGPC V0201201N005710120019N0200001N1-00351-00491099831ADDAA199000021GF108991081001012501021999KA1120M-00311KA2999N-00551MA1999999098901MD1710031+9999REMSYN082AAXX  04184 04390 32670 81211 11035 21049 39890 49983 57003 8802/ 333 11031 21055;
0133043900999992000030421004+60030-043120FM-12+0019BGPC V0201201N003610120019N0200001N1-00391-00441099981ADDGF108991081001012501021999MA1999999099041MD1210141+9999REMSYN066AAXX  04214 04390 42670 81207 11039 21044 39904 49998 52014 8802/;
0178043900999992000030500004+60030-043120FM-12+0019BGPC V0201201N001010042019N0020001N1-00421-00421099991ADDAA106000791AY171061AY221061GF108991081051004501999999MA1999999099051MD1210011+9999MW1711REMSYN078AAXX  05004 04390 11420 81202 11042 21042 39905 49999 52001 69901 77172 885//;
0161043900999992000030503004+60030-043120FM-12+0019BGPC V0201201N002610120019N0007001N1-00421-00421099971ADDAY171031AY221031GF108991081051012501999999MA1999999099031MD1710021+9999MW1701REMSYN072AAXX  05034 04390 41607 81205 11042 21042 39903 49997 57002 77072 885//;
0220043900999992000030506004+60030-043120FM-12+0019BGPC V0201201N002110120019N0050001N1-00421+99999100061ADDAA112000791AY171061AY271061GF108991081001012501021999KA1120M-00301KA2999N-00471MA1999999099121MD1210091+9999MW1711REMSYN094AAXX  05064 04390 11650 81204 11042 21041 39912 40006 52009 69902 77177 8802/ 333 11030 21047;
0133043900999992000030509004+60030-043120FM-12+0019BGPC V0201201N005710120019N0100001N1-00501-00591100201ADDGF108991081001012501021999MA1999999099261MD1210141+9999REMSYN066AAXX  05094 04390 42660 81211 11050 21059 39926 40020 52014 8802/;
0144043900999992000030512004+60030-043120FM-12+0019BGPC V0201201N004610120019N0250001N1-00331-00511100401ADDAA199000021GF108991081001012501021999MA1999999099461MD1210201+9999REMSYN066AAXX  05124 04390 32675 81209 11033 21051 39946 40040 52020 8802/;
0161043900999992000030515004+60030-043120FM-12+0019BGPC V0201201N007210120019N0200001N1-00341-00541100491ADDAY171031AY221031GF108991081001012501021999MA1999999099551MD1210091+9999MW1001REMSYN072AAXX  05154 04390 41670 81214 11034 21054 39955 40049 52009 70072 8802/;
0186043900999992000030518004+60030-043120FM-12+0019BGPC V0200301N007210150019N0250001N1-00261-00601100471ADDAA199000021GF106991061001017501021001KA1120M-00261KA2999N-00621MA1999999099531MD1710021+9999REMSYN082AAXX  05184 04390 32775 60314 11026 21060 39953 40047 57002 86020 333 11026 21062;
0143043900999992000030521004+60030-043120FM-12+0019BGPC V0203401N001012200019N0300001N1-00421-00741100471ADDGF103991031001022501021999MA1999999099531MD1410001+9999REMSYN076AAXX  05214 04390 42880 33402 11042 21074 39953 40047 54000 8302/ 333 91214;
0173043900999992000030600004+60030-043120FM-12+0019BGPC V0203301N002112200019N0050001N1-00411-00821100491ADDAA199000091GA1001+999999999GF100991001001999999001001MA1999999099551MD1210021+9999REMSYN060AAXX  06004 04390 32950 03304 11041 21082 39955 40049 52002;EQDQ01  00002PRCP99
0133043900999992000030603004+60030-043120FM-12+0019BGPC V0200201N007212200019N0050001N1-00261-00781100451ADDGF104991041001012501021001MA1999999099511MD1710041+9999REMSYN066AAXX  06034 04390 42650 40214 11026 21078 39951 40045 57004 84020;
0143043900999992000030606004+60030-043120FM-12+0019BGPC V0200301N010819999999N9999999N1-00281-00831100361ADDKA1120M-00211KA2999N-00461MA1999999099421MD1710091+9999REMSYN076AAXX  06064 04390 46/// /0321 11028 21083 39942 40036 57009 333 11021 21046;
0143043900999992000030609004+60030-043120FM-12+0019BGPC V0200101N012910120019N0100001N1-00261-00891100331ADDGF108991081051012501999999MA1999999099401MD1710021+9999REMSYN076AAXX  06094 04390 42660 80125 11026 21089 39940 40033 57002 885// 333 91135;
0205043900999992000030612004+60030-043120FM-12+0019BGPC V0200301N016410150019N0250001N1-00351-00851100401ADDAA106000791AY121061AY221061GF108991081001017501021999MA1999999099461MD1210061+9999MW1711OA149902321REMSYN094AAXX  06124 04390 11775 80332 11035 21085 39946 40040 52006 69901 77122 8802/ 333 91145 91043;
0188043900999992000030615004+60030-043120FM-12+0019BGPC V0200201N017510150019N0250001N1-00401-00981100361ADDAY131031AY221031GF108991081001017501021999MA1999999099421MD1710041+9999MW1361OA149902681REMSYN088AAXX  06154 04390 41775 80234 11040 21098 39942 40036 57004 73632 8802/ 333 91152 91052;
0243043900999992000030618004+60030-043120FM-12+0019BGPC V0200201N018510120019N0250001N1-00651-00801100401ADDAA112000791AY131061AY221061GF108991081001012501021999KA1120M-00231KA2120N-00651MA1999999099451MD1210031+9999MW1361OA149902781REMSYN106AAXX  06184 04390 11675 80236 11065 21080 39945 40040 52003 69902 73632 8802/ 333 11023 21065 91154 91047;
0194043900999992000030621004+60030-043120FM-12+0019BGPC V0203401N014910150019N0200001N1-00661-01041100391ADDAY171031AY271031GF107991071001017501021999MA1999999099441MD1710011+9999MW1711OA149902881REMSYN094AAXX  06214 04390 41770 73429 11066 21104 39944 40039 57001 77177 8702/ 333 91156 91048 91240;
0199043900999992000030700004+60030-043120FM-12+0019BGPC V0200301N017519999999N0005001N1-00451-00771100361ADDAA199000021AY131061AY231061GF108991081001999999071999MA1999999099421MD1710021+9999MW1361OA149902881REMSYN088AAXX  07004 04390 31905 80334 11045 21077 39942 40036 57002 73633 8807/ 333 91156 91046;
0188043900999992000030703004+60030-043120FM-12+0019BGPC V0200201N014412200019N0040001N1-00751-01161100331ADDAY131031AY231031GF104991001001999999001071MA1999999099381MD1710041+9999MW1361OA149902571REMSYN088AAXX  07034 04390 41940 40228 11075 21116 39938 40033 57004 73633 80007 333 91150 91040;
0209043900999992000030706004+60030-043120FM-12+0019BGPC V0200201N013410120019N0050001N1-00741-01201100181ADDAA199000021GF108991081001012501021999KA1120M-00421KA2120N-00771MA1999999099231MD1710151+9999OA149902571REMSYN094AAXX  07064 04390 32650 80226 11074 21120 39923 40018 57015 8802/ 333 11042 21077 91150 91236;
0160043900999992000030709004+60030-043120FM-12+0019BGPC V0203301N006710120019N0100001N1-00511-01031100051ADDGF108991081001012501021999MA1999999099111MD1710121+9999OA149901751REMSYN082AAXX  07094 04390 42660 83313 11051 21103 39911 40005 57012 8802/ 333 91134 91227;
0205043900999992000030712004+60030-043120FM-12+0019BGPC V0200301N007210120019N0200001N1-00581-00641100091ADDAA106000791AY171061AY221061GF108991081001012501021999MA1999999099151MD1210041+9999MW1711OA149901751REMSYN094AAXX  07124 04390 11670 80314 11058 21064 39915 40009 52004 69901 77172 8802/ 333 91134 91227;
0186043900999992000030718004+60030-043120FM-12+0019BGPC V0200301N008210210019N0300001N1-00541-01001100241ADDAA199000021GF108991081001022501021999KA1120M-00471KA2999N-00761MA1999999099301MD1210101+9999REMSYN082AAXX  07184 04390 32880 80316 11054 21100 39930 40024 52010 8802/ 333 11047 21076;
0133043900999992000030721004+60030-043120FM-12+0019BGPC V0200301N008210150019N0100001N1-00481-00781100301ADDGF108991081001017501021999MA1999999099361MD1210061+9999REMSYN066AAXX  07214 04390 42760 80316 11048 21078 39936 40030 52006 8802/;
0154043900999992000030800004+60030-043120FM-12+0019BGPC V0200301N003610120019N0100001N1-00441-00781100301ADDAA199000021GF108991081001012501021999MA1999999099361MD1410001+9999REMSYN076AAXX  08004 04390 32660 80307 11044 21078 39936 40030 54000 8802/ 333 91221;
0161043900999992000030803004+60030-043120FM-12+0019BGPC V0203301N001510120019N0010001N1-00411-00671100451ADDAY171031AY221031GF108991081001012501021999MA1999999099511MD1210151+9999MW1711REMSYN072AAXX  08034 04390 41610 83303 11041 21067 39951 40045 52015 77172 8802/;
0220043900999992000030806004+60030-043120FM-12+0019BGPC V0200301N001510120019N0050001N1-00481-00501100451ADDAA112000791AY171061AY221061GF108991081001012501021999KA1120M-00381KA2999N-00541MA1999999099511MD1410001+9999MW1701REMSYN094AAXX  08064 04390 11650 80303 11048 21050 39951 40045 54000 69902 77072 8802/ 333 11038 21054;
0133043900999992000030809004+60030-043120FM-12+0019BGPC V0200301N001010120019N0150001N1-00491+99999100461ADDGF108991081001012501021999MA1999999099521MD1210011+9999REMSYN066AAXX  08094 04390 42665 80302 11049 21048 39952 40046 52001 8802/;
0178043900999992000030812004+60030-043120FM-12+0019BGPC V0201601N001010075019N0200001N1-00471-00471100571ADDAA106000191AY171061AY221061GF107991071051008001999999MA1999999099631MD1210111+9999MW1711REMSYN078AAXX  08124 04390 11570 71602 11047 21047 39963 40057 52011 69911 77172 875//;
0133043900999992000030815004+60030-043120FM-12+0019BGPC V0201401N002110120019N0200001N1-00411-00421100651ADDGF108991081001012501021999MA1999999099711MD1210081+9999REMSYN066AAXX  08154 04390 42670 81404 11041 21042 39971 40065 52008 8802/;
0220043900999992000030818004+60030-043120FM-12+0019BGPC V0201501N001510120019N0300001N1-00371-00461100721ADDAA112000791AY151061AY221061GF107991071001012501021999KA1120M-00321KA2999N-00541MA1999999099781MD1210071+9999MW1001REMSYN094AAXX  08184 04390 11680 71503 11037 21046 39978 40072 52007 69902 70052 8702/ 333 11032 21054;
0133043900999992000030821004+60030-043120FM-12+0019BGPC V0202201N002610300019N0200001N1-00401-00571100771ADDGF105991031031008001071999MA1999999099831MD1210051+9999REMSYN066AAXX  08214 04390 42570 52205 11040 21057 39983 40077 52005 8337/;
0154043900999992000030900004+60030-043120FM-12+0019BGPC V0202901N001512200019N9999999N1-00611-00791100881ADDAA199000021GA1001+999999999GF100991001001999999001001MA1999999099931MD1210101+9999REMSYN060AAXX  09004 04390 329// 02903 11061 21079 39993 40088 52010;
0143043900999992000030903004+60030-043120FM-12+0019BGPC V0202801N003112200019N0050001N1-00611-00931100811ADDGA1001+999999999GF100991001001999999001001MA1999999099861MD1710071+9999REMSYN060AAXX  09034 04390 42950 02806 11061 21093 39986 40081 57007;
0215043900999992000030906004+60030-043120FM-12+0019BGPC V0202801N002612200019N9999999N1-00761-00951100811ADDAA199000091GA1001+999999999GF100991001001999999001001KA1120M-00291KA2999N-00781MA1999999099851MD1710011+9999REMSYN076AAXX  09064 04390 329// 02805 11076 21095 39985 40081 57001 333 11029 21078;EQDQ01  00002PRCP99
0133043900999992000030909004+60030-043120FM-12+0019BGPC V0203001N004110150019N0200001N1-00601-00801100871ADDGF106991061001017501021999MA1999999099921MD1210071+9999REMSYN066AAXX  09094 04390 42770 63008 11060 21080 39992 40087 52007 8602/;
0163043900999992000030912004+60030-043120FM-12+0019BGPC V0200301N002610120019N0250001N1-00361-00671100861ADDAA199000091GF107991071001012501021999MA1999999099921MD1410001+9999REMSYN066AAXX  09124 04390 32675 70305 11036 21067 39992 40086 54000 8702/;EQDQ01  00002PRCP99
0133043900999992000030915004+60030-043120FM-12+0019BGPC V0200301N007710300019N0250001N1-00411-00651100831ADDGF106991031031008001021999MA1999999099891MD1710031+9999REMSYN066AAXX  09154 04390 42575 60315 11041 21065 39989 40083 57003 8332/;
0205043900999992000030918004+60030-043120FM-12+0019BGPC V0200301N007710120019N0200001N1-00461-00581100881ADDAA199000091GF108991081001012501021999KA1120M-00321KA2999N-00771MA1999999099931MD1210041+9999REMSYN082AAXX  09184 04390 32670 80315 11046 21058 39993 40088 52004 8802/ 333 11032 21077;EQDQ01  00002PRCP99
0161043900999992000030921004+60030-043120FM-12+0019BGPC V0200301N010310120019N0050001N1-00431-00481100961ADDAY171031AY221031GF108991081001012501021999MA1999999100011MD1210081+9999MW1711REMSYN072AAXX  09214 04390 41650 80320 11043 21048 30001 40096 52008 77172 8802/;
0178043900999992000031000004+60030-043120FM-12+0019BGPC V0200301N008719999999N0020001N1-00421-00501101111ADDAA106000791AY121061AY221061GF108991081001999999071999MA1999999100161MD1210151+9999MW1711REMSYN078AAXX  10004 04390 11920 80317 11042 21050 30016 40111 52015 69901 77122 8807/;
0161043900999992000031003004+60030-043120FM-12+0019BGPC V0200301N008210120019N0007001N1-00481-00481101141ADDAY171031AY271031GF108991081001012501021999MA1999999100191MD1210031+9999MW1711REMSYN072AAXX  10034 04390 41607 80316 11048 21048 30019 40114 52003 77177 8802/;
0243043900999992000031006004+60030-043120FM-12+0019BGPC V0200301N007210075019N0010001N1-00491-00491101021ADDAA112000591AY171061AY221061GF108991081001008001021999KA1120M-00391KA2120N-00511MA1999999100071MD1710121+9999MW1711OA149901241REMSYN106AAXX  10064 04390 11510 80314 11049 21049 30007 40102 57012 69942 77172 8802/ 333 11039 21051 91124 91024;
0188043900999992000031009004+60030-043120FM-12+0019BGPC V0203301N002110120019N0020001N1-00421+99999100991ADDAY171031AY271031GF108991081001012501021999MA1999999100041MD1710031+9999MW1711OA149901241REMSYN088AAXX  10094 04390 41620 83304 11042 21041 30004 40099 57003 77177 8802/ 333 91124 91217;
0205043900999992000031012004+60030-043120FM-12+0019BGPC V0200301N002610042019N0020001N1-00371-00371100971ADDAA106004191AY171061AY271061GF108991081071004501999999MA1999999100031MD1710011+9999MW1731OA149901241REMSYN094AAXX  10124 04390 11420 80305 11037 21037 30003 40097 57001 60041 77377 887// 333 91124 91217;
0102043900999992000031015004+60030-043120FM-12+0019BGPC V02099999999990075019N0020001N1+99999+99999999999ADDAY171031AY271031GF108991081001008001021999MW1711REMSYN042AAXX  10154 04390 41520 8//// 77177 8802/;
0200043900999992000031018004+60030-043120FM-12+0019BGPC V0200101N004110075019N0050001N1-00321-00321100711ADDAA112008991AY171061AY271061GF108991081001008001021999KA1120M-00291KA2999N-00351MA1999999099771MW1731REMSYN088AAXX  10184 04390 11550 80108 11032 21032 39977 40071 60092 77377 8802/ 333 11029 21035;
0188043900999992000031100004+60030-043120FM-12+0019BGPC V0200301N008210075019N0020001N1-00401-00401100451ADDAA106005191AY171061AY271061GF108991081051008001999999MA1999999099511MD1710151+9999MW1711REMSYN088AAXX  11004 04390 11520 80316 11040 21040 39951 40045 57015 60051 77177 885// 333 91126;
0171043900999992000031103004+60030-043120FM-12+0019BGPC V0200301N008710075019N0005001N1-00411-00411100171ADDAY171031AY271031GF108991081051008001999999MA1999999099231MD1710281+9999MW1711REMSYN082AAXX  11034 04390 41505 80317 11041 21041 39923 40017 57028 77177 885// 333 91124;
0243043900999992000031106004+60030-043120FM-12+0019BGPC V0203301N004110042019N0020001N1-00401-00401099871ADDAA112008991AY171061AY271061GF108991081051004501999999KA1120M-00321KA2120N-00431MA1999999098941MD1710291+9999MW1711OA149901751REMSYN106AAXX  11064 04390 11420 83308 11040 21040 39894 49987 57029 60092 77177 885// 333 11032 21043 91134 91224;
0161043900999992000031109004+60030-043120FM-12+0019BGPC V0202301N004110120019N0020001N1-00361+99999099711ADDAY171031AY271031GF108991081001012501021999MA1999999098781MD1710161+9999MW1711REMSYN072AAXX  11094 04390 41620 82308 11036 21035 39878 49971 57016 77177 8802/;
0178043900999992000031112004+60030-043120FM-12+0019BGPC V0202701N007212200019N0300001N1-00481-00621099651ADDAA106002091AY171061AY221061GF102991021031008001999999MA1999999098711MD1710071+9999MW1001REMSYN078AAXX  11124 04390 11580 22714 11048 21062 39871 49965 57007 60021 70072 823//;
0143043900999992000031115004+60030-043120FM-12+0019BGPC V0202601N006212200019N0300001N1-00361-00721099751ADDGF101991011011008001999999MA1999999098821MD1210111+9999REMSYN076AAXX  11154 04390 42580 12612 11036 21072 39882 49975 52011 811// 333 91123;
0226043900999992000031118004+60030-043120FM-12+0019BGPC V0202501N009812200019N0350001N1-00601-01371099901ADDAA112002091AY131061AY201061GF102991021021008001999999KA1120M-00311KA2120N-00621MA1999999098961MD1210141+9999MW1361REMSYN100AAXX  11184 04390 11581 22519 11060 21137 39896 49990 52014 60022 73630 822// 333 11031 21062 91132;
0160043900999992000031121004+60030-043120FM-12+0019BGPC V0202601N009310120019N0100001N1-00811-01441100131ADDGF106991061001012501021999MA1999999099181MD1210221+9999OA149902111REMSYN082AAXX  11214 04390 42660 62618 11081 21144 39918 40013 52022 8602/ 333 91141 91029;
0205043900999992000031200004+60030-043120FM-12+0019BGPC V0202601N008212200019N0150001N1-00811-01531100481ADDAA106000591AY131061AY201061GF101991011041012501999999MA1999999099531MD1210351+9999MW1361OA149902321REMSYN094AAXX  12004 04390 11665 12616 11081 21153 39953 40048 52035 69941 73630 814// 333 91145 91227;
0198043900999992000031203004+60030-043120FM-12+0019BGPC V0202601N012912200019N0040001N1-00781-01501100741ADDAY131031AY231031GA1001+999999999GF100991001001999999001001MA1999999099781MD1210251+9999MW1361OA149902161REMSYN082AAXX  12034 04390 41940 02625 11078 21150 39978 40074 52025 73633 333 91142 91039;
0253043900999992000031206004+60030-043120FM-12+0019BGPC V0202701N011312200019N9999999N1-00761-01481101001ADDAA112000591AY131061AY231061GA1001+999999999GF100991001001999999001001KA1120M-00581KA2120N-00861MA1999999100041MD1210261+9999MW1361OA149902321REMSYN100AAXX  12064 04390 119// 02722 11076 21148 30004 40100 52026 69942 73633 333 11058 21086 91145 91033;
0171043900999992000031209004+60030-043120FM-12+0019BGPC V0202701N011312200019N0100001N1-00711-01641101251ADDAY131031AY231031GF103991031071004501999999MA1999999100291MD1210251+9999MW1361REMSYN082AAXX  12094 04390 41460 32722 11071 21164 30029 40125 52025 73633 837// 333 91141;
0228043900999992000031212004+60030-043120FM-12+0019BGPC V0202701N008712200019N0400001N1-00491-01581101431ADDAA199000091AY101061AY201061GA1001+999999999GF100991001001999999001001MA1999999100481MD1210191+9999MW1361OA149902161REMSYN082AAXX  12124 04390 31982 02717 11049 21158 30048 40143 52019 73600 333 91142 91229;EQDQ01  00002PRCP99
0160043900999992000031215004+60030-043120FM-12+0019BGPC V0202501N004612200019N0250001N1-00321-01311101551ADDGF101991011011012501999999MA1999999100601MD1210121+9999OA149902111REMSYN082AAXX  12154 04390 42675 12509 11032 21131 30060 40155 52012 811// 333 91141 91227;
0228043900999992000031218004+60030-043120FM-12+0019BGPC V0202601N004612200019N0350001N1-00291-01181101541ADDAA199000091GF103991031021008001999999KA1120M-00251KA2120N-00761MA1999999100591MD1710011+9999OA149902111REMSYN094AAXX  12184 04390 32581 32609 11029 21118 30059 40154 57001 832// 333 11025 21076 91141 91227;EQDQ01  00002PRCP99
0143043900999992000031221004+60030-043120FM-12+0019BGPC V0202201N00361030001CN0200001N1-00391-01051101591ADDGF105991021071008001071999MA1999999100641MD1210051+9999REMSYN076AAXX  12214 04390 42570 52207 11039 21105 30064 40159 52005 8277/ 333 91124;
0173043900999992000031300004+60030-043120FM-12+0019BGPC V0202201N004612200019N0200001N1-00441-00521101591ADDAA199000091GF101991011001999999011999MA1999999100641MD1410001+9999REMSYN076AAXX  13004 04390 32970 12209 11044 21052 30064 40159 54000 8101/ 333 91124;EQDQ01  00002PRCP99
0161043900999992000031303004+60030-043120FM-12+0019BGPC V0202401N005110075019N0020001N1-00291-00441101561ADDAY171031AY221031GF108991081001008001021999MA1999999100611MD1710031+9999MW1711REMSYN072AAXX  13034 04390 41520 82410 11029 21044 30061 40156 57003 77172 8802/;
0236043900999992000031306004+60030-043120FM-12+0019BGPC V0202301N004612200019N0040001N1-00281-00771101651ADDAA112000391AY171061AY201061GA1001+999999999GF100991001001999999001001KA1120M-00211KA2120N-00481MA1999999100701MD1210091+9999MW1001REMSYN094AAXX  13064 04390 11940 02309 11028 21077 30070 40165 52009 69932 70070 333 11021 21048 91125;
0133043900999992000031309004+60030-043120FM-12+0019BGPC V0202001N003619999999N0300001N1-00261-00971101781ADDGF108991081001999999031999MA1999999100831MD1210131+9999REMSYN066AAXX  13094 04390 42980 82007 11026 21097 30083 40178 52013 8803/;
0144043900999992000031312004+60030-043120FM-12+0019BGPC V0201901N002110120019N0200001N1-00291-00741101871ADDAA199000021GF108991081001012501021999MA1999999100921MD1210091+9999REMSYN066AAXX  13124 04390 32670 81904 11029 21074 30092 40187 52009 8802/;
0161043900999992000031315004+60030-043120FM-12+0019BGPC V0202201N002110120019N0050001N1-00251-00361101851ADDAY171031AY221031GF108991081001012501021999MA1999999100901MD1710021+9999MW1701REMSYN072AAXX  13154 04390 41650 82204 11025 21036 30090 40185 57002 77072 8802/;
0220043900999992000031318004+60030-043120FM-12+0019BGPC V0203001N002110075019N0030001N1-00361-00361101771ADDAA112000391AY171061AY271061GF108991081001008001021999KA1120M-00211KA2999N-00381MA1999999100821MD1710081+9999MW1711REMSYN094AAXX  13184 04390 11530 83004 11036 21036 30082 40177 57008 69932 77177 8802/ 333 11021 21038;
0161043900999992000031321004+60030-043120FM-12+0019BGPC V0203001N001510120019N0002001N1-00391+99999101701ADDAY171031AY271031GF108991081001012501021999MA1999999100751MD1710071+9999MW1711REMSYN072AAXX  13214 04390 41602 83003 11039 21038 30075 40170 57007 77177 8802/;
0178043900999992000031400004+60030-043120FM-12+0019BGPC V0200101N001510120019N0010001N1-00401-00401101581ADDAA106006191AY171061AY271061GF108991081001012501021999MA1999999100631MD1710121+9999MW1731REMSYN078AAXX  14004 04390 11610 80103 11040 21040 30063 40158 57012 60061 77377 8802/;
0171043900999992000031403004+60030-043120FM-12+0019BGPC V0200301N011810042019N0002001N1-00461-00461101251ADDAY171031AY271031GF108991081001004501021999MA1999999100301MD1710331+9999MW1731REMSYN082AAXX  14034 04390 41402 80323 11046 21046 30030 40125 57033 77377 8802/ 333 91131;
0226043900999992000031406004+60030-043120FM-12+0019BGPC V0200201N011810075019N0004001N1-00521-00521101021ADDAA112015091AY171061AY271061GF108991081051008001999999KA1120M-00361KA2120N-00541MA1999999100071MD1710231+9999MW1361REMSYN100AAXX  14064 04390 11504 80223 11052 21052 30007 40102 57023 60152 73677 885// 333 11036 21054 91141;
0188043900999992000031409004+60030-043120FM-12+0019BGPC V0200401N004110210019N0250001N1-00431-00431100981ADDAY131031AY221031GF108991081001022501021999MA1999999100031MD1710041+9999MW1001OA149901961REMSYN088AAXX  14094 04390 41875 80408 11043 21043 30003 40098 57004 70032 8802/ 333 91138 91226;
0205043900999992000031412004+60030-043120FM-12+0019BGPC V0200501N003110120019N0200001N1-00371-00371101091ADDAA106002091AY171061AY221061GF108991081001012501021999MA1999999100141MD1210111+9999MW1701OA149901961REMSYN094AAXX  14124 04390 11670 80506 11037 21037 30014 40109 52011 60021 77072 8802/ 333 91138 91226;
0161043900999992000031415004+60030-043120FM-12+0019BGPC V0200501N003610120019N0020001N1-00391-00391101021ADDAY171031AY271031GF108991081001012501021999MA1999999100071MD1710071+9999MW1711REMSYN072AAXX  14154 04390 41620 80507 11039 21039 30007 40102 57007 77177 8802/;
0220043900999992000031418004+60030-043120FM-12+0019BGPC V0200501N006210075019N0020001N1-00461-00461100831ADDAA112005191AY171061AY271061GF108991081051008001999999KA1120M-00351KA2999N-00521MA1999999099881MD1710191+9999MW1711REMSYN094AAXX  14184 04390 11520 80512 11046 21046 39988 40083 57019 60052 77177 885// 333 11035 21052;
0161043900999992000031421004+60030-043120FM-12+0019BGPC V0200301N004610120019N0002001N1-00471+99999100691ADDAY171031AY271031GF108991081001012501021999MA1999999099751MD1710131+9999MW1711REMSYN072AAXX  14214 04390 41602 80309 11047 21046 39975 40069 57013 77177 8802/;
0178043900999992000031500004+60030-043120FM-12+0019BGPC V0200201N006210075019N0010001N1-00451-00451100491ADDAA106007191AY171061AY271061GF108991081001008001021999MA1999999099551MD1710201+9999MW1731REMSYN078AAXX  15004 04390 11510 80212 11045 21045 39955 40049 57020 60071 77377 8802/;
0171043900999992000031503004+60030-043120FM-12+0019BGPC V0200201N008710120019N0010001N1-00401-00401100191ADDAY171031AY271031GF108991081001012501021999MA1999999099251MD1710301+9999MW1711REMSYN082AAXX  15034 04390 41610 80217 11040 21040 39925 40019 57030 77177 8802/ 333 91122;
0226043900999992000031506004+60030-043120FM-12+0019BGPC V0200301N005110075019N0020001N1-00321-00331100011ADDAA112010991AY171061AY221061GF108991081051008001999999KA1120M-00291KA2120N-00481MA1999999099081MD1710171+9999MW1001REMSYN100AAXX  15064 04390 11520 80310 11032 21033 39908 40001 57017 60112 70072 885// 333 11029 21048 91122;
0161043900999992000031509004+60030-043120FM-12+0019BGPC V0200301N006210210019N0200001N1-00401-00401100051ADDAY171031AY221031GF108991081001022501021999MA1999999099111MD1210031+9999MW1001REMSYN072AAXX  15094 04390 41870 80312 11040 21040 39911 40005 52003 70072 8802/;
0178043900999992000031512004+60030-043120FM-12+0019BGPC V0200201N001510042019N0100001N1-00341-00341100171ADDAA106000891AY171061AY271061GF108991081051004501999999MA1999999099231MD1210121+9999MW1711REMSYN078AAXX  15124 04390 11460 80203 11034 21034 39923 40017 52012 69971 77177 885//;
0161043900999992000031515004+60030-043120FM-12+0019BGPC V0201301N002110075019N0050001N1-00291-00291100191ADDAY171031AY271031GF108991081051008001999999MA1999999099261MD1210031+9999MW1711REMSYN072AAXX  15154 04390 41550 81304 11029 21029 39926 40019 52003 77177 885//;
0220043900999992000031518004+60030-043120FM-12+0019BGPC V0202501N003110300019N0300001N1-00261-00261100081ADDAA112000891AY171061AY221061GF107991031011022501021999KA1120M-00151KA2999N-00421MA1999999099151MD1710111+9999MW1001REMSYN094AAXX  15184 04390 11880 72506 11026 21026 39915 40008 57011 69972 70072 8312/ 333 11015 21042;
0171043900999992000031521004+60030-043120FM-12+0019BGPC V0202901N010812200019N0200001N1-00401-00621100251ADDAY131031AY211031GF102991021011008001999999MA1999999099311MD1210161+9999MW1361REMSYN082AAXX  15214 04390 41570 22921 11040 21062 39931 40025 52016 73631 821// 333 91130;
0187043900999992000031600004+60030-043120FM-12+0019BGPC V0202601N005712200019N0200001N1-00561-00781100501ADDAA199000021GA1001+999999999GF100991001001999999001001MA1999999099551MD1210241+9999OA149901541REMSYN082AAXX  16004 04390 32970 02611 11056 21078 39955 40050 52024 333 91130 91022 91224;
0153043900999992000031603004+60030-043120FM-12+0019BGPC V0202401N008212200019N9999999N1-00611-01011100631ADDGA1001+999999999GF100991001001999999001001MA1999999099681MD1210131+9999REMSYN070AAXX  16034 04390 429// 02416 11061 21101 39968 40063 52013 333 91127;
0239043900999992000031606004+60030-043120FM-12+0019BGPC V0202501N006212200019N0150001N1-00621-01091100771ADDAA199000091AY131061AY201061GF101991011001999999041999KA1120M-00191KA2120N-00661MA1999999099821MD1210141+9999MW1001REMSYN094AAXX  16064 04390 31965 12512 11062 21109 39982 40077 52014 70030 8104/ 333 11019 21066 91127;EQDQ01  00002PRCP99
0133043900999992000031609004+60030-043120FM-12+0019BGPC V0202401N007210210019N0250001N1-00581-01191100891ADDGF108991081001022501021999MA1999999099941MD1210121+9999REMSYN066AAXX  16094 04390 42875 82414 11058 21119 39994 40089 52012 8802/;
0163043900999992000031612004+60030-043120FM-12+0019BGPC V0202301N004110120019N0250001N1-00421-01011100771ADDAA199000091GF107991071001012501021999MA1999999099831MD1710111+9999REMSYN066AAXX  16124 04390 32675 72308 11042 21101 39983 40077 57011 8702/;EQDQ01  00002PRCP99
0161043900999992000031615004+60030-043120FM-12+0019BGPC V0200301N004110120019N0002001N1-00571-00571100161ADDAY171031AY271031GF108991081001012501021999MA1999999099221MD1710611+9999MW1711REMSYN072AAXX  16154 04390 41602 80308 11057 21057 39922 40016 57061 77177 8802/;
0243043900999992000031618004+60030-043120FM-12+0019BGPC V0201901N010310120019N0010001N1-00281-00311099771ADDAA112006191AY171061AY231061GF108991081001012501021999KA1120M-00251KA2120N-00661MA1999999098841MD1710381+9999MW1711OA149901701REMSYN106AAXX  16184 04390 11610 81920 11028 21031 39884 49977 57038 60062 77173 8802/ 333 11025 21066 91133 91033;
0188043900999992000031621004+60030-043120FM-12+0019BGPC V0202301N013910120019N0002001N1-00371-00381100251ADDAY171031AY271031GF108991081001012501021999MA1999999099311MD1210471+9999MW1711OA149902111REMSYN088AAXX  16214 04390 41602 82327 11037 21038 39931 40025 52047 77177 8802/ 333 91141 91041;
0188043900999992000031700004+60030-043120FM-12+0019BGPC V0202301N009310075019N0020001N1-00541-00541100921ADDAA106002091AY171061AY271061GF108991081001008001021999MA1999999099971MD1210661+9999MW1711REMSYN088AAXX  17004 04390 11520 82318 11054 21054 39997 40092 52066 60021 77177 8802/ 333 91141;
0160043900999992000031703004+60030-043120FM-12+0019BGPC V0202301N004119999999N0150001N1-00481-00671101091ADDGF108991001001999999001071MA1999999100141MD1210171+9999OA149901601REMSYN082AAXX  17034 04390 42965 82308 11048 21067 30014 40109 52017 80007 333 91131 91221;
0237043900999992000031706004+60030-043120FM-12+0019BGPC V0200201N004110075019N0050001N1-00581-00671100461ADDAA199000021AY131061AY221061GF108991081051008001999999KA1120M-00251KA2120N-00591MA1999999099511MD1710631+9999MW1001OA149901601REMSYN100AAXX  17064 04390 31550 80208 11058 21067 39951 40046 57063 70032 885// 333 11025 21059 91131 91221;
0188043900999992000031709004+60030-043120FM-12+0019BGPC V0203301N006210210019N0030001N1-00651-00651099451ADDAY171031AY271031GF108991081001022501021999MA1999999098511MD1711001+9999MW1711OA149901961REMSYN088AAXX  17094 04390 41830 83312 11065 21065 39851 49945 57100 77177 8802/ 333 91138 91227;
0188043900999992000031712004+60030-043120FM-12+0019BGPC V0202801N010810021019N0002001N1-00551-00551099001ADDAA106003091AY171061AY231061GF108991081071002501999999MA1999999098071MD1710441+9999MW1731REMSYN088AAXX  17124 04390 11302 82821 11055 21055 39807 49900 57044 60031 77373 887// 333 91138;
0171043900999992000031715004+60030-043120FM-12+0019BGPC V0202601N009812200019N0150001N1-00511-00521099711ADDAY171031AY231031GF103991031001017501021999MA1999999098771MD1210701+9999MW1361REMSYN082AAXX  17154 04390 41765 32619 11051 21052 39877 49971 52070 73673 8302/ 333 91127;
0171043900999992000031721004+60030-043120FM-12+0019BGPC V0202401N008212200019N0100001N1-00771-01101100621ADDAY131031AY231031GF104991041051012501999999MA1999999099671MD1210341+9999MW1361REMSYN082AAXX  17214 04390 41660 42416 11077 21110 39967 40062 52034 73633 845// 333 91136;
0111043900999992000031800004+60030-043120FM-12+0019BGPC V0202401N008719999999N9999999N1-00841-01231100861ADDMA1999999099901MD1210231+9999REMSYN070AAXX  18004 04390 46/// /2417 11084 21123 39990 40086 52023 333 91136;
0188043900999992000031803004+60030-043120FM-12+0019BGPC V0202501N010810120019N0100001N1-00921-01391100971ADDAY131031AY221031GF105991051001012501021999MA1999999100011MD1210111+9999MW1361OA149901751REMSYN088AAXX  18034 04390 41660 52521 11092 21139 30001 40097 52011 73632 8502/ 333 91134 91033;
0255043900999992000031806004+60030-043120FM-12+0019BGPC V0202501N007212200019N9999999N1-00941-01561101081ADDAA199000091AY131061AY201061GF103991031001017501021999KA1120M-00681KA2120N-00971MA1999999100111MD1210101+9999MW1001REMSYN094AAXX  18064 04390 31750 32514 11094 21156 30011 40108 52010 70030 8302/ 333 11068 21097 91134;EQDQ01+050002VODIS Q02  00002PRCP99
0111043900999992000031809004+60030-043120FM-12+0019BGPC V0202601N006219999999N9999999N1-00971-01761101191ADDMA1999999100221MD1210111+9999REMSYN070AAXX  18094 04390 46/// /2612 11097 21176 30022 40119 52011 333 91125;
0173043900999992000031812004+60030-043120FM-12+0019BGPC V0202601N005112200019N0250001N1-00931-01851101261ADDAA199000091GF103991001001999999001061MA1999999100291MD1210071+9999REMSYN076AAXX  18124 04390 32975 32610 11093 21185 30029 40126 52007 80006 333 91125;EQDQ01  00002PRCP99
0133043900999992000031815004+60030-043120FM-12+0019BGPC V0202401N004612200019N0400001N1-00791-01691101161ADDGF104991001001999999001061MA1999999100201MD1710091+9999REMSYN066AAXX  18154 04390 42982 42409 11079 21169 30020 40116 57009 80006;
0205043900999992000031818004+60030-043120FM-12+0019BGPC V0202701N005112200019N0300001N1-00801-01971101121ADDAA199000091GF104991001001999999001081KA1120M-00711KA2999N-01001MA1999999100161MD1710041+9999REMSYN082AAXX  18184 04390 32980 42710 11080 21197 30016 40112 57004 80008 333 11071 21100;EQDQ01  00002PRCP99
0181043900999992000031821004+60030-043120FM-12+0019BGPC V0202601N007712200019N0250001N1-00841-01941101101ADDAY131031AY201031GA1001+999999999GF100991001001999999001001MA1999999100141MD1710021+9999MW1361REMSYN076AAXX  18214 04390 41975 02615 11084 21194 30014 40110 57002 73630 333 91126;
0183043900999992000031900004+60030-043120FM-12+0019BGPC V0202601N006712200019N0250001N1-00841-01981101221ADDAA199000091GA1001+999999999GF100991001001999999001001MA1999999100261MD1210121+9999REMSYN070AAXX  19004 04390 32975 02613 11084 21198 30026 40122 52012 333 91130;EQDQ01  00002PRCP99
0133043900999992000031903004+60030-043120FM-12+0019BGPC V0202401N007710750019N0150001N1-00671-01741101161ADDGF105991021021008001001071MA1999999100201MD1710061+9999REMSYN066AAXX  19034 04390 42565 52415 11067 21174 30020 40116 57006 82207;
0256043900999992000031906004+60030-043120FM-12+0019BGPC V0202801N010812200019N0150001N1-00631-01291101221ADDAA199000091AY131061AY201061GF103991031021008001999999KA1120M-00621KA2120N-00871MA1999999100261MD1210061+9999MW1361OA149901651REMSYN100AAXX  19064 04390 31565 32821 11063 21129 30026 40122 52006 73630 832// 333 11062 21087 91132 91032;EQDQ01  00002PRCP99
0198043900999992000031909004+60030-043120FM-12+0019BGPC V0202701N016412200019N9999999N1-00751-01431101561ADDAY131031AY201031GA1001+999999999GF100991001001999999001001MA1999999100601MD1210341+9999MW1361OA149902571REMSYN082AAXX  19094 04390 419// 02732 11075 21143 30060 40156 52034 73630 333 91150 91046;
0228043900999992000031912004+60030-043120FM-12+0019BGPC V0202801N010312200019N0250001N1-00571-01721102141ADDAA199000091AY131061AY231061GA1001+999999999GF100991001001999999001001MA1999999101181MD1210581+9999MW1361OA149902571REMSYN082AAXX  19124 04390 31975 02820 11057 21172 30118 40214 52058 73633 333 91150 91237;EQDQ01  00002PRCP99
0153043900999992000031915004+60030-043120FM-12+0019BGPC V0202701N007212200019N0400001N1-00471-01781102511ADDGA1001+999999999GF100991001001999999001001MA1999999101551MD1210371+9999REMSYN070AAXX  19154 04390 42982 02714 11047 21178 30155 40251 52037 333 91128;
0221043900999992000031918004+60030-043120FM-12+0019BGPC V0202701N007712200019N0300001N1-00461-01871102821ADDAA199000091GA1001+999999999GF100991001001999999001001KA1120M-00431KA2120N-00771MA1999999101861MD1210311+9999REMSYN082AAXX  19184 04390 32980 02715 11046 21187 30186 40282 52031 333 11043 21077 91128;EQDQ01  00002PRCP99
0161043900999992000031921004+60030-043120FM-12+0019BGPC V0202801N010812200019N0250001N1-00501-01931102821ADDAY131031AY231031GF104991041001999999041999MA1999999101851MD1710011+9999MW1361REMSYN072AAXX  19214 04390 41975 42821 11050 21193 30185 40282 57001 73633 8404/;
0163043900999992000032000004+60030-043120FM-12+0019BGPC V0202701N010312200019N0200001N1-00541-01871102901ADDAA199000091GF102991021001999999071999MA1999999101931MD1210081+9999REMSYN066AAXX  20004 04390 32970 22720 11054 21187 30193 40290 52008 8207/;EQDQ01  00002PRCP99
0143043900999992000032003004+60030-043120FM-12+0019BGPC V0202801N009819999999N0100001N1-00441-01651102821ADDGF106991061001999999071999MA1999999101861MD1710071+9999REMSYN076AAXX  20034 04390 42960 62819 11044 21165 30186 40282 57007 8607/ 333 91131;
0228043900999992000032006004+60030-043120FM-12+0019BGPC V0202701N005719999999N0100001N1-00361-01461102791ADDAA199000091GF106991061001999999041999KA1120M-00351KA2120N-00551MA1999999101831MD1710031+9999OA149901701REMSYN094AAXX  20064 04390 32960 62711 11036 21146 30183 40279 57003 8604/ 333 11035 21055 91133 91223;EQDQ01  00002PRCP99
0133043900999992000032009004+60030-043120FM-12+0019BGPC V0202501N003112200019N0250001N1-00481-01331102861ADDGF104991041001999999041999MA1999999101891MD1210061+9999REMSYN066AAXX  20094 04390 42975 42506 11048 21133 30189 40286 52006 8404/;
0141043900999992000032012004+60030-043120FM-12+0019BGPC V0202301N001519999999N9999999N1-00211-01041102811ADDAA199000091MA1999999101851MD1710041+9999REMSYN070AAXX  20124 04390 32/// /2303 11021 21104 30185 40281 57004 333 91215;EQDQ01  00002PRCP99
0133043900999992000032015004+60030-043120FM-12+0019BGPC V0202501N005712200019N0250001N1-00231-01001102711ADDGF102991021001999999041999MA1999999101751MD1710101+9999REMSYN066AAXX  20154 04390 42975 22511 11023 21100 30175 40271 57010 8204/;
0211043900999992000032018004+60030-043120FM-12+0019BGPC V0202401N003112200019N0300001N1-00201-00871102511ADDAA199000091GF101991011001022501041999KA1120M-00091KA2120N-00501MA1999999101561MD1710191+9999REMSYN088AAXX  20184 04390 32880 12406 11020 21087 30156 40251 57019 8104/ 333 11009 21050 91217;EQDQ01  00002PRCP99
0163043900999992000032021004+60030-043120FM-12+0019BGPC V0202601N007219999999N0300001N1-00161-00971102361ADDAA199000091GF106991001001999999001031MA1999999101411MD1710151+9999REMSYN066AAXX  20214 04390 32980 62614 11016 21097 30141 40236 57015 80003;EQDQ01  00002PRCP99
0201043900999992000032100004+60030-043120FM-12+0019BGPC V0202701N011319999999N0250001N1-00171-00981102251ADDAA199000091AY131061AY221061GF106991061001999999041999MA1999999101301MD1710111+9999MW1361REMSYN082AAXX  21004 04390 31975 62722 11017 21098 30130 40225 57011 73632 8604/ 333 91128;EQDQ01  00002PRCP99
0133043900999992000032103004+60030-043120FM-12+0019BGPC V0202801N007212200019N0100001N1-00131-00941102141ADDGF104991041001999999041999MA1999999101191MD1710111+9999REMSYN066AAXX  21034 04390 42960 42814 11013 21094 30119 40214 57011 8404/;
0205043900999992000032106004+60030-043120FM-12+0019BGPC V0202301N007219999999N0200001N1-00321-00921102001ADDAA199000091GF106991061001999999041999KA1120M-00081KA2999N-00331MA1999999101051MD1710141+9999REMSYN082AAXX  21064 04390 32970 62314 11032 21092 30105 40200 57014 8604/ 333 11008 21033;EQDQ01  00002PRCP99
0133043900999992000032109004+60030-043120FM-12+0019BGPC V0202601N003610210019N0300001N1-00321-00841101921ADDGF107991071001022501041999MA1999999100971MD1710081+9999REMSYN066AAXX  21094 04390 42880 72607 11032 21084 30097 40192 57008 8704/;
0163043900999992000032112004+60030-043120FM-12+0019BGPC V0200301N005710120019N0300001N1-00361-00491101951ADDAA199000091GF106991061051012501999999MA1999999101001MD1210031+9999REMSYN066AAXX  21124 04390 32680 60311 11036 21049 30100 40195 52003 865//;EQDQ01  00002PRCP99
0143043900999992000032115004+60030-043120FM-12+0019BGPC V0200201N006710042019N0250001N1-00271-00701101961ADDGF107991071051004501021999MA1999999101011MD1210011+9999REMSYN076AAXX  21154 04390 42475 70213 11027 21070 30101 40196 52001 8752/ 333 91123;
0211043900999992000032118004+60030-043120FM-12+0019BGPC V0203301N005710150019N0250001N1-00281-00821101991ADDAA199000091GF108991081001017501021999KA1120M-00211KA2120N-00421MA1999999101041MD1210031+9999REMSYN088AAXX  21184 04390 32775 83311 11028 21082 30104 40199 52003 8802/ 333 11021 21042 91123;EQDQ01  00002PRCP99
0133043900999992000032121004+60030-043120FM-12+0019BGPC V0203301N002612200019N0200001N1-00361-00811102061ADDGF103991011001999999031091MA1999999101111MD1210071+9999REMSYN066AAXX  21214 04390 42970 33305 11036 21081 30111 40206 52007 81039;
0131043900999992000032200004+60030-043120FM-12+0019BGPC V0200201N001519999999N9999999N1-00521-00701102121ADDAA199000091MA1999999101161MD1210051+9999REMSYN060AAXX  22004 04390 32/// /0203 11052 21070 30116 40212 52005;EQDQ01  00002PRCP99
0101043900999992000032203004+60030-043120FM-12+0019BGPC V0200201N005119999999N9999999N1-00511-00521102111ADDMA1999999101151MD1710011+9999REMSYN060AAXX  22034 04390 46/// /0210 11051 21052 30115 40211 57001;
0205043900999992000032206004+60030-043120FM-12+0019BGPC V0200501N001510075019N0100001N1-00551-00561102051ADDAA199000091GF108991081001008001021999KA1120M-00251KA2999N-00581MA1999999101091MD1710061+9999REMSYN082AAXX  22064 04390 32560 80503 11055 21056 30109 40205 57006 8802/ 333 11025 21058;EQDQ01  00002PRCP99
0161043900999992000032209004+60030-043120FM-12+0019BGPC V0200301N002112200019N0050001N1-00651-00651102081ADDAY171031AY201031GF103991031071002501999999MA1999999101121MD1210031+9999MW1711REMSYN072AAXX  22094 04390 41350 30304 11065 21065 30112 40208 52003 77170 837//;
0178043900999992000032212004+60030-043120FM-12+0019BGPC V0200401N004110021019N0100001N1-00651-00771102191ADDAA106001091AY171061AY271061GF106991061071002501999999MA1999999101221MD1210101+9999MW1851REMSYN078AAXX  22124 04390 11360 60408 11065 21077 30122 40219 52010 69991 78577 867//;
0133043900999992000032215004+60030-043120FM-12+0019BGPC V0200201N004612200019N0150001N1-00631-00981102281ADDGF104991041031004501999999MA1999999101311MD1210091+9999REMSYN066AAXX  22154 04390 42465 40209 11063 21098 30131 40228 52009 843//;
0196043900999992000032218004+60030-043120FM-12+0019BGPC V0202701N002612200019N0300001N1-00651-00981102261ADDAA199000021GA1001+999999999GF100991001001999999001001KA1120M-00501KA2999N-00691MA1999999101291MD1710021+9999REMSYN076AAXX  22184 04390 32980 02705 11065 21098 30129 40226 57002 333 11050 21069;
0133043900999992000032221004+60030-043120FM-12+0019BGPC V0202801N001512200019N0500001N1-00581-01451102231ADDGF101991001001999999001051MA1999999101271MD1710021+9999REMSYN066AAXX  22214 04390 42984 12803 11058 21145 30127 40223 57002 80005;
0153043900999992000032300004+60030-043120FM-12+0019BGPC V0203001N006712200019N0100001N1-00541+99999999999ADDAA199000021GF102991021001017501021999MA1999999101261MD1710011+9999ME1308209REMSYN066AAXX  23004 04390 32760 23013 11054 2103/ 30126 4882/ 57001 8202/;
0153043900999992000032303004+60030-043120FM-12+0019BGPC V0202801N001512200019N0100001N1-00601-01111102181ADDGA1001+999999999GF100991001001999999001001MA1999999101221MD1710041+9999REMSYN070AAXX  23034 04390 42960 02803 11060 21111 30122 40218 57004 333 91214;
0205043900999992000032306004+60030-043120FM-12+0019BGPC V0203101N002112200019N0200001N1-00621-00991102081ADDAA199000091GF102991001001999999001071KA1120M-00471KA2999N-00711MA1999999101121MD1710101+9999REMSYN082AAXX  23064 04390 32970 23104 11062 21099 30112 40208 57010 80007 333 11047 21071;EQDQ01  00002PRCP99
0143043900999992000032309004+60030-043120FM-12+0019BGPC V0200201N008212200019N0500001N1-00521-00891102111ADDGF103991001001999999001051MA1999999101151MD1210031+9999REMSYN076AAXX  23094 04390 42984 30216 11052 21089 30115 40211 52003 80005 333 91116;
0173043900999992000032312004+60030-043120FM-12+0019BGPC V0203601N008219999999N0300001N1-00471-00861102011ADDAA199000091GF106991051001999999071051MA1999999101051MD1710101+9999REMSYN076AAXX  23124 04390 32980 63616 11047 21086 30105 40201 57010 85075 333 91128;EQDQ01  00002PRCP99
0143043900999992000032315004+60030-043120FM-12+0019BGPC V0200301N008219999999N0300001N1-00421-01161101881ADDGF106991041001999999071091MA1999999100931MD1710121+9999REMSYN076AAXX  23154 04390 42980 60316 11042 21116 30093 40188 57012 84079 333 91131;
0211043900999992000032318004+60030-043120FM-12+0019BGPC V0200301N006710300019N0200001N1-00511-00901101781ADDAA199000091GF107991031031022501071999KA1120M-00421KA2120N-00621MA1999999100821MD1710111+9999REMSYN088AAXX  23184 04390 32870 70313 11051 21090 30082 40178 57011 8337/ 333 11042 21062 91131;EQDQ01  00002PRCP99
0133043900999992000032321004+60030-043120FM-12+0019BGPC V0200301N007210300019N0200001N1-00611-00851101751ADDGF108991011071004501071999MA1999999100791MD1710031+9999REMSYN066AAXX  23214 04390 42470 80314 11061 21085 30079 40175 57003 8177/;
0173043900999992000032400004+60030-043120FM-12+0019BGPC V0200401N008710120019N0050001N1-00651-00921101771ADDAA199000091GF108991081001012501021999MA1999999100811MD1210021+9999REMSYN076AAXX  24004 04390 32650 80417 11065 21092 30081 40177 52002 8802/ 333 91125;EQDQ01  00002PRCP99
0143043900999992000032403004+60030-043120FM-12+0019BGPC V0200201N008710150019N0100001N1-00691-00851101571ADDGF108991081001017501021999MA1999999100611MD1710201+9999REMSYN076AAXX  24034 04390 42760 80217 11069 21085 30061 40157 57020 8802/ 333 91131;
0211043900999992000032406004+60030-043120FM-12+0019BGPC V0200201N009819999999N0100001N1-00731-00921101451ADDAA199000091GF108991081001999999021999KA1120M-00501KA2120N-00761MA1999999100491MD1710121+9999REMSYN088AAXX  24064 04390 32960 80219 11073 21092 30049 40145 57012 8802/ 333 11050 21076 91131;EQDQ01  00002PRCP99
0143043900999992000032409004+60030-043120FM-12+0019BGPC V0200301N010819999999N0500001N1-00761-01021101411ADDGF107991071001999999021999MA1999999100451MD1710041+9999REMSYN076AAXX  24094 04390 42984 70321 11076 21102 30045 40141 57004 8702/ 333 91131;
0173043900999992000032412004+60030-043120FM-12+0019BGPC V0200201N009310120019N0200001N1-00781-01091101291ADDAA199000091GF108991081001012501021999MA1999999100331MD1710121+9999REMSYN076AAXX  24124 04390 32670 80218 11078 21109 30033 40129 57012 8802/ 333 91131;EQDQ01  00002PRCP99
0143043900999992000032415004+60030-043120FM-12+0019BGPC V0200201N010819999999N0250001N1-00691-01101101151ADDGF108991081001999999021999MA1999999100191MD1710141+9999REMSYN076AAXX  24154 04390 42975 80221 11069 21110 30019 40115 57014 8802/ 333 91127;
0211043900999992000032418004+60030-043120FM-12+0019BGPC V0200301N010319999999N0500001N1-00651-01311101031ADDAA199000091GF108991081001999999021999KA1120M-00621KA2120N-00811MA1999999100081MD1710111+9999REMSYN088AAXX  24184 04390 32984 80320 11065 21131 30008 40103 57011 8802/ 333 11062 21081 91127;EQDQ01  00002PRCP99
0143043900999992000032421004+60030-043120FM-12+0019BGPC V0200301N008219999999N0250001N1-00631-01381101021ADDGF108991061001999999051011MA1999999100071MD1710011+9999REMSYN076AAXX  24214 04390 42975 80316 11063 21138 30007 40102 57001 86051 333 91131;
0173043900999992000032500004+60030-043120FM-12+0019BGPC V0200201N008210210019N0050001N1-00561-01341100951ADDAA199000091GF108991081001022501021999MA1999999100001MD1710071+9999REMSYN076AAXX  25004 04390 32850 80216 11056 21134 30000 40095 57007 8802/ 333 91131;EQDQ01  00002PRCP99
0143043900999992000032503004+60030-043120FM-12+0019BGPC V0200301N009819999999N9999999N1-00421-01731100881ADDGA1091+999999999GF109991091999999999999999MA1999999099941MD1710061+9999REMSYN060AAXX  25034 04390 42/// 90319 11042 21173 39994 40088 57006;
0211043900999992000032506004+60030-043120FM-12+0019BGPC V0203401N005710150019N0150001N1-00311-01281100761ADDAA199000091GF108991081001017501021999KA1120M-00301KA2120N-00681MA1999999099821MD1710121+9999REMSYN088AAXX  25064 04390 32765 83411 11031 21128 39982 40076 57012 8802/ 333 11030 21068 91222;EQDQ01  00002PRCP99
0133043900999992000032509004+60030-043120FM-12+0019BGPC V0203301N004619999999N0600001N1-00261-01181100711ADDGF106991001001999999001071MA1999999099771MD1710051+9999REMSYN066AAXX  25094 04390 42986 63309 11026 21118 39977 40071 57005 80007;
0163043900999992000032512004+60030-043120FM-12+0019BGPC V0203501N003612200019N0500001N1-00171-01101100671ADDAA199000091GF104991021001999999041011MA1999999099741MD1710031+9999REMSYN066AAXX  25124 04390 32984 43507 11017 21110 39974 40067 57003 82041;EQDQ01  00002PRCP99
0143043900999992000032515004+60030-043120FM-12+0019BGPC V0203301N002612200019N9999999N1+00011-00961100591ADDGA1001+999999999GF100991001001999999001001MA1999999099661MD1710081+9999REMSYN060AAXX  25154 04390 429// 03305 10001 21096 39966 40059 57008;
0215043900999992000032518004+60030-043120FM-12+0019BGPC V0202801N001012200019N0500001N1+00041-00931100411ADDAA199000091GA1001+999999999GF100991001001999999001001KA1120M+00301KA2999N-00331MA1999999099491MD1710171+9999REMSYN076AAXX  25184 04390 32984 02802 10004 21093 39949 40041 57017 333 10030 21033;EQDQ01  00002PRCP99
0163043900999992000032521004+60030-043120FM-12+0019BGPC V0202901N002112200019N0500001N1-00061-00951100371ADDAA199000091GF101991011001999999041011MA1999999099441MD1710051+9999REMSYN066AAXX  25214 04390 32984 12904 11006 21095 39944 40037 57005 81041;EQDQ01  00002PRCP99
0163043900999992000032600004+60030-043120FM-12+0019BGPC V0203301N001512200019N0050001N1-00211-00841100331ADDAA199000091GF104991041001017501021999MA1999999099401MD1710041+9999REMSYN066AAXX  26004 04390 32750 43303 11021 21084 39940 40033 57004 8402/;EQDQ01  00002PRCP99
0133043900999992000032603004+60030-043120FM-12+0019BGPC V0203601N003610210019N0100001N1-00101-00821100151ADDGF106991061001022501071999MA1999999099221MD1710181+9999REMSYN066AAXX  26034 04390 42860 63607 11010 21082 39922 40015 57018 8607/;
0211043900999992000032606004+60030-043120FM-12+0019BGPC V0200301N011819999999N0150001N1-00011-00361099851ADDAA199000091GF108991081001999999071999KA1120M+00201KA2120N-00281MA1999999098931MD1710291+9999REMSYN088AAXX  26064 04390 32965 80323 11001 21036 39893 49985 57029 8807/ 333 10020 21028 91137;EQDQ01  00002PRCP99
0188043900999992000032609004+60030-043120FM-12+0019BGPC V0200201N014910210019N0100001N1-00031-00201099701ADDAY131031AY221031GF108991081001022501021999MA1999999098781MD1710151+9999MW1361OA149902521REMSYN088AAXX  26094 04390 41860 80229 11003 21020 39878 49970 57015 73632 8802/ 333 91149 91041;
0171043900999992000032615004+60030-043120FM-12+0019BGPC V0203301N009310120019N0020001N1-00061-00061099321ADDAY171031AY271031GF108991081001012501021999MA1999999098401MD1710191+9999MW1731REMSYN082AAXX  26154 04390 41620 83318 11006 21006 39840 49932 57019 77377 8802/ 333 91138;
0243043900999992000032618004+60030-043120FM-12+0019BGPC V0203301N006710120019N0030001N1-00031-00031099241ADDAA112001091AY171061AY271061GF108991081001012501021999KA1120M+00031KA2120N-00181MA1999999098321MD1710081+9999MW1711OA149901961REMSYN106AAXX  26184 04390 11630 83313 11003 21003 39832 49924 57008 60012 77177 8802/ 333 10003 21018 91138 91224;
0224043900999992000032621004+60030-043120FM-12+0019BGPC V0203401N010819999999N0010001N1+00001+00001099131ADDAA112000191AY171031AY271031GF108991999001022501081001MA1999999098221MD1710101+9999MW1001OA149902111REMSYN094AAXX  26214 04390 11810 83421 10000 20000 39822 49913 57010 69912 70077 82080 333 91141 91036;EQDQ01+000022SCOTLC
0205043900999992000032700004+60030-043120FM-12+0019BGPC V0203301N008210075019N0010001N1-00031-00031099031ADDAA106002091AY171061AY271061GF108991081021008001999999MA1999999098121MD1710101+9999MW1731OA149902321REMSYN094AAXX  27004 04390 11510 83316 11003 21003 39812 49903 57010 60021 77377 882// 333 91145 91227;
0188043900999992000032703004+60030-043120FM-12+0019BGPC V0203301N007710120019N0040001N1+00031+00031098861ADDAY171031AY271031GF108991081021012501999999MA1999999097951MD1710171+9999MW1681OA149901341REMSYN088AAXX  27034 04390 41640 83315 10003 20003 39795 49886 57017 76877 882// 333 91126 91026;
0243043900999992000032706004+60030-043120FM-12+0019BGPC V0203001N002119999999N0100001N1+00111-00041098881ADDAA112002091AY171061AY221061GF105991051001999999071999KA1120M+00141KA2120N-00051MA1999999097971MD1210021+9999MW1001OA149901341REMSYN106AAXX  27064 04390 11960 53004 10011 21004 39797 49888 52002 60022 70072 8507/ 333 10014 21005 91126 91217;
0133043900999992000032709004+60030-043120FM-12+0019BGPC V0202901N003110150019N0200001N1+00151-00061099071ADDGF108991081001017501021999MA1999999098161MD1210191+9999REMSYN066AAXX  27094 04390 42770 82906 10015 21006 39816 49907 52019 8802/;
0144043900999992000032712004+60030-043120FM-12+0019BGPC V0203001N003610150019N0250001N1+00191+00011099241ADDAA199000021GF106991061001017501021999MA1999999098331MD1210171+9999REMSYN066AAXX  27124 04390 32775 63007 10019 20001 39833 49924 52017 8602/;
0143043900999992000032715004+60030-043120FM-12+0019BGPC V0202901N004612200019N9999999N1+00211-00031099421ADDGA1001+999999999GF100991001001999999001001MA1999999098511MD1210181+9999REMSYN060AAXX  27154 04390 429// 02909 10021 21003 39851 49942 52018;
0215043900999992000032718004+60030-043120FM-12+0019BGPC V0202601N005712200019N0400001N1+00281-00161099471ADDAA199000091GA1001+999999999GF100991001001999999001001KA1120M+00581KA2999N+00111MA1999999098561MD1210051+9999REMSYN076AAXX  27184 04390 32982 02611 10028 21016 39856 49947 52005 333 10058 20011;EQDQ01  00002PRCP99
0153043900999992000032721004+60030-043120FM-12+0019BGPC V0202301N002612200019N9999999N1+00231-00301099611ADDGA1001+999999999GF100991001001999999001001MA1999999098701MD1210141+9999REMSYN070AAXX  27214 04390 429// 02305 10023 21030 39870 49961 52014 333 91225;
0215043900999992000032806004+60030-043120FM-12+0019BGPC V0203101N004112200019N0100001N1-00171-00431099921ADDAA199000091GA1001+999999999GF100991001001999999001001KA1120M+00311KA2999N-00191MA1999999098991MD1210111+9999REMSYN076AAXX  28064 04390 32960 03108 11017 21043 39899 49992 52011 333 10031 21019;EQDQ01  00002PRCP99
0133043900999992000032809004+60030-043120FM-12+0019BGPC V0203001N001510120019N0200001N1-00051-00061100111ADDGF108991081001012501021999MA1999999099181MD1210191+9999REMSYN066AAXX  28094 04390 42670 83003 11005 21006 39918 40011 52019 8802/;
0150043900999992000032812004+60030-043120FM-12+0019BGPC V0203001N001510300019N0150001N1-00141-00141100191ADDAA106000791GF107991011011008001021999MA1999999099261MD1210081+9999REMSYN072AAXX  28124 04390 12565 73003 11014 21014 39926 40019 52008 69901 8112/;
0133043900999992000032815004+60030-043120FM-12+0019BGPC V0203001N002110042019N0500001N1-00031-00271100201ADDGF107991071071004501999999MA1999999099271MD1210011+9999REMSYN066AAXX  28154 04390 42484 73004 11003 21027 39927 40020 52001 877//;
0192043900999992000032818004+60030-043120FM-12+0019BGPC V0202401N004112200019N0500001N1+00061-00261100061ADDAA112000791GF103991031041008001999051KA1120M+00291KA2999N-00241MA1999999099141MD1710131+9999REMSYN088AAXX  28184 04390 12584 32408 10006 21026 39914 40006 57013 69902 834/5 333 10029 21024;
0160043900999992000032821004+60030-043120FM-12+0019BGPC V0202601N006712200019N0500001N1+00101-00571100021ADDGF104991021001999999071051MA1999999099101MD1710041+9999OA149901291REMSYN082AAXX  28214 04390 42984 42613 10010 21057 39910 40002 57004 82075 333 91125 91023;
0200043900999992000032900004+60030-043120FM-12+0019BGPC V0202701N004112200019N9999999N1+00131-00721100101ADDAA199000091GA1001+999999999GF100991001001999999001001MA1999999099181MD1210081+9999OA149901341REMSYN076AAXX  29004 04390 329// 02708 10013 21072 39918 40010 52008 333 91126 91219;EQDQ01  00002PRCP99
0238043900999992000032906004+60030-043120FM-12+0019BGPC V0202701N006212200019N0100001N1+00281-00911100411ADDAA199000091GA1001+999999999GF100991001001999999001001KA1120M+00341KA2120N+00031MA1999999099491MD1210191+9999OA149901701REMSYN088AAXX  29064 04390 32960 02712 10028 21091 39949 40041 52019 333 10034 20003 91133 91223;EQDQ01  00002PRCP99
0143043900999992000032909004+60030-043120FM-12+0019BGPC V0202401N007212200019N0300001N1+00461-00991100641ADDGF104991001001999999001081MA1999999099731MD1210241+9999REMSYN076AAXX  29094 04390 42980 42414 10046 21099 39973 40064 52024 80008 333 91123;
0183043900999992000032912004+60030-043120FM-12+0019BGPC V0201601N004112200019N9999999N1+00331-00841100811ADDAA199000091GA1001+999999999GF100991001001999999001001MA1999999099891MD1210161+9999REMSYN070AAXX  29124 04390 329// 01608 10033 21084 39989 40081 52016 333 91126;EQDQ01  00002PRCP99
0133043900999992000032915004+60030-043120FM-12+0019BGPC V0202701N007212200019N0300001N1+00521-00981100901ADDGF101991001001999999001081MA1999999099991MD1210101+9999REMSYN066AAXX  29154 04390 42980 12714 10052 21098 39999 40090 52010 80008;
0221043900999992000032918004+60030-043120FM-12+0019BGPC V0202801N008212200019N9999999N1+00501-00961101041ADDAA199000091GA1001+999999999GF100991001001999999001001KA1120M+00721KA2120N+00191MA1999999100121MD1210131+9999REMSYN082AAXX  29184 04390 329// 02816 10050 21096 30012 40104 52013 333 10072 20019 91128;EQDQ01  00002PRCP99
0153043900999992000032921004+60030-043120FM-12+0019BGPC V0202901N012312200019N9999999N1+00351-01021101251ADDGA1001+999999999GF100991001001999999001001MA1999999100331MD1210211+9999REMSYN070AAXX  29214 04390 429// 02924 10035 21102 30033 40125 52021 333 91141;
0200043900999992000033000004+60030-043120FM-12+0019BGPC V0203101N003112200019N9999999N1+00071-00621101881ADDAA199000091GA1001+999999999GF100991001001999999001001MA1999999100941MD1210611+9999OA149902111REMSYN076AAXX  30004 04390 329// 03106 10007 21062 30094 40188 52061 333 91141 91231;EQDQ01  00002PRCP99
0172043900999992000033003004+60030-043120FM-12+0019BGPC V0200201N004112200019N9999999N1+00011-00231102381ADDGA1001+999999999GF100991001001999999001001MA1999999101441MD1210502+9999REMSYN070AAXX  30034 04390 429// 00208 10001 21023 30144 40238 52050 333 91115;EQDQ01+000502APC3  
0221043900999992000033006004+60030-043120FM-12+0019BGPC V0200301N005112200019N0100001N1-00031-00271102671ADDAA199000091GA1001+999999999GF100991001001999999001001KA1120M+00631KA2120N-00041MA1999999101721MD1210281+9999REMSYN082AAXX  30064 04390 32960 00310 11003 21027 30172 40267 52028 333 10063 21004 91115;EQDQ01  00002PRCP99
0133043900999992000033009004+60030-043120FM-12+0019BGPC V0203401N002110750019N0300001N1-00121-00291102961ADDGF105991031001012501021051MA1999999102011MD1210291+9999REMSYN066AAXX  30094 04390 42680 53404 11012 21029 30201 40296 52029 83025;
0163043900999992000033012004+60030-043120FM-12+0019BGPC V0203001N001512200019N0300001N1+00061-00241103221ADDAA199000091GF104991041001999999021999MA1999999102271MD1210261+9999REMSYN066AAXX  30124 04390 32980 43003 10006 21024 30227 40322 52026 8402/;EQDQ01  00002PRCP99
0133043900999992000033015004+60030-043120FM-12+0019BGPC V0203301N000510120019N0500001N1+00441-00081103351ADDGF107991071021012501999999MA1999999102411MD1210141+9999REMSYN066AAXX  30154 04390 42684 73301 10044 21008 30241 40335 52014 872//;
0205043900999992000033018004+60030-043120FM-12+0019BGPC V0200801N002110150019N0200001N1+00141-00251103451ADDAA199000091GF107991071001017501021999KA1120M+00471KA2999N-00151MA1999999102501MD1210091+9999REMSYN082AAXX  30184 04390 32770 70804 10014 21025 30250 40345 52009 8702/ 333 10047 21015;EQDQ01  00002PRCP99
0133043900999992000033021004+60030-043120FM-12+0019BGPC V0200401N000519999999N0500001N1+00011-00281103541ADDGF107991071001999999051999MA1999999102591MD1210091+9999REMSYN066AAXX  30214 04390 42984 70401 10001 21028 30259 40354 52009 8705/;
0163043900999992000033100004+60030-043120FM-12+0019BGPC V0203401N000510150019N0100001N1+00011-00241103611ADDAA199000091GF108991081001017501021999MA1999999102651MD1210061+9999REMSYN066AAXX  31004 04390 32760 83401 10001 21024 30265 40361 52006 8802/;EQDQ01  00002PRCP99
0161043900999992000033103004+60030-043120FM-12+0019BGPC V0203001N001010075019N0040001N1-00011-00121103551ADDAY171031AY221031GF108991081021008001999999MA1999999102591MD1710061+9999MW1701REMSYN072AAXX  31034 04390 41540 83002 11001 21012 30259 40355 57006 77072 882//;
0186043900999992000033106004+60030-043120FM-12+0019BGPC V0203001N000510120019N0100001N1-00031-00071103511ADDAA199000021GF108991081001012501021999KA1120M+00171KA2999N-00041MA1999999102551MD1710041+9999REMSYN082AAXX  31064 04390 32660 83001 11003 21007 30255 40351 57004 8802/ 333 10017 21004;
0133043900999992000033109004+60030-043120FM-12+0019BGPC V0203201N000510210019N0200001N1-00051-00111103481ADDGF108991081001022501011999MA1999999102521MD1710031+9999REMSYN066AAXX  31094 04390 42870 83201 11005 21011 30252 40348 57003 8801/;
0178043900999992000033112004+60030-043120FM-12+0019BGPC V0202901N001010120019N0020001N1-00071-00071103421ADDAA106000791AY171061AY271061GF108991081001012501021999MA1999999102461MD1710061+9999MW1001REMSYN078AAXX  31124 04390 11620 82902 11007 21007 30246 40342 57006 69901 70077 8802/;
0161043900999992000033115004+60030-043120FM-12+0019BGPC V0200201N000510120019N0050001N1+00271+00091103311ADDAY171031AY271031GF108991081001012501021999MA1999999102371MD1710091+9999MW1711REMSYN072AAXX  31154 04390 41650 80201 10027 20009 30237 40331 57009 77177 8802/;
0220043900999992000033118004+60030-043120FM-12+0019BGPC V0201101N001510120019N0050001N1-00141-00141103251ADDAA112003091AY171061AY271061GF108991081001012501021999KA1120M+00281KA2999N-00141MA1999999102291MD1710081+9999MW1711REMSYN094AAXX  31184 04390 11650 81103 11014 21014 30229 40325 57008 60032 77177 8802/ 333 10028 21014;
0161043900999992000033121004+60030-043120FM-12+0019BGPC V0200201N001519999999N0050001N1-00141-00141103161ADDAY171031AY271031GF108991081001004501071999MA1999999102201MD1710091+9999MW1711REMSYN072AAXX  31214 04390 41450 80203 11014 21014 30220 40316 57009 77177 8807/;
0119043900999992000040100004+60030-043120FM-12+0019BGPC V02099999999990120019N0050001N1+99999+99999999999ADDAA106004191AY171061AY271061GF108991081001012501021999MW1711REMSYN048AAXX  01004 04390 11650 8//// 60041 77177 8802/;
0081043900999992000040103004+60030-043120FM-12+0019BGPC V0200301N002619999999N9999999N1-00091+99999102921ADDMA1999999101971REMSYN054AAXX  01034 04390 46/// /0305 11009 21008 30197 40292;
0220043900999992000040106004+60030-043120FM-12+0019BGPC V0200401N003110120019N0020001N1-00161-00161102741ADDAA112015091AY171061AY271061GF108991081001012501021999KA1120M-00061KA2999N-00171MA1999999101791MD1710181+9999MW1711REMSYN094AAXX  01064 04390 11620 80406 11016 21016 30179 40274 57018 60152 77177 8802/ 333 11006 21017;
0188043900999992000040112004+60030-043120FM-12+0019BGPC V0200301N006210120019N0050001N1-00201-00201102551ADDAA106002091AY121061AY221061GF108991081001012501021999MA1999999101601MD1710111+9999MW1711REMSYN088AAXX  01124 04390 11650 80312 11020 21020 30160 40255 57011 60021 77122 8802/ 333 91119;
0161043900999992000040115004+60030-043120FM-12+0019BGPC V0200301N008710120019N0050001N1-00201-00231102391ADDAY171031AY271031GF108991081001012501021999MA1999999101441MD1710161+9999MW1001REMSYN072AAXX  01154 04390 41650 80317 11020 21023 30144 40239 57016 70077 8802/;
0226043900999992000040118004+60030-043120FM-12+0019BGPC V0200401N007710042019N0150001N1-00191-00221102211ADDAA112002091AY171061AY221061GF108991081021004501999999KA1120M-00141KA2120N-00241MA1999999101261MD1710181+9999MW1021REMSYN100AAXX  01184 04390 11465 80415 11019 21022 30126 40221 57018 60022 70272 882// 333 11014 21024 91132;
0171043900999992000040121004+60030-043120FM-12+0019BGPC V0200301N007710150019N0008001N1-00231-00231102091ADDAY171031AY271031GF108991081001017501021999MA1999999101141MD1710121+9999MW1731REMSYN082AAXX  01214 04390 41708 80315 11023 21023 30114 40209 57012 77377 8802/ 333 91126;
0188043900999992000040200004+60030-043120FM-12+0019BGPC V0200301N009810120019N0010001N1-00251-00251101771ADDAA106002091AY171061AY271061GF108991081001012501021999MA1999999100821MD1710321+9999MW1001REMSYN088AAXX  02004 04390 11610 80319 11025 21025 30082 40177 57032 60021 70077 8802/ 333 91126;
0171043900999992000040203004+60030-043120FM-12+0019BGPC V0200201N014910021019N0010001N1-00171-00171101431ADDAY171031AY271031GF108991081071002501999999MA1999999100491MD1710331+9999MW1731REMSYN082AAXX  02034 04390 41310 80229 11017 21017 30049 40143 57033 77377 887// 333 91144;
0243043900999992000040206004+60030-043120FM-12+0019BGPC V0200201N014910075019N0005001N1-00171-00171101211ADDAA112007991AY171061AY271061GF108991081001008001021999KA1120M-00141KA2120N-00301MA1999999100271MD1710221+9999MW1731OA149902321REMSYN106AAXX  02064 04390 11505 80229 11017 21017 30027 40121 57022 60082 77377 8802/ 333 11014 21030 91145 91043;
0188043900999992000040209004+60030-043120FM-12+0019BGPC V0200301N013410021019N0002001N1-00131-00161100981ADDAY171031AY221031GF108991081071002501999999MA1999999100041MD1710231+9999MW1711OA149902471REMSYN088AAXX  02094 04390 41302 80326 11013 21016 30004 40098 57023 77172 887// 333 91148 91041;
0211043900999992000040212004+60030-043120FM-12+0019BGPC V0200101N008210150019N0005001N1-00121-00121100701ADDAA106003091AY171061AY271061GF108991081001017501021999MA1999999099771MD1710271+9999MW1731OA149902471REMSYN100AAXX  02124 04390 11705 80116 11012 21012 39977 40070 57027 60031 77377 8802/ 333 91148 91031 91233;
0205043900999992000040215004+60030-043120FM-12+0019BGPC V0200201N015910120019N0050001N1-00141-00141100461ADDAA106001091AY171031AY271031GF108991081001012501021999MA1999999099531MD1710241+9999MW1001OA149902321REMSYN094AAXX  02154 04390 11650 80231 11014 21014 39953 40046 57024 60011 70077 8802/ 333 91145 91045;
0243043900999992000040218004+60030-043120FM-12+0019BGPC V0200301N018010021019N0010001N1-00241-00241100201ADDAA112007191AY171061AY271061GF108991071071002501999999KA1120M-00101KA2120N-00241MA1999999099271MD1710261+9999MW1731OA149902681REMSYN106AAXX  02184 04390 11310 80335 11024 21024 39927 40020 57026 60072 77377 877// 333 11010 21024 91152 91049;
0156043900999992000040221004+60030-043120FM-12+0019BGPC V0200201N022619999999N9999999N1-00251-00251099921ADDAY171031AY231031MA1999999098991MD1710281+9999MW1391OA149903191REMSYN082AAXX  02214 04390 41/// /0244 11025 21025 39899 49992 57028 73973 333 91162 91060;
0205043900999992000040300004+60030-043120FM-12+0019BGPC V0200201N020610120019N0010001N1-00181-00181099721ADDAA106007191AY131061AY231061GF108991081001012501021999MA1999999098791MD1710201+9999MW1001OA149903191REMSYN094AAXX  03004 04390 11610 80240 11018 21018 39879 49972 57020 60071 70033 8802/ 333 91162 91056;
0194043900999992000040303004+60030-043120FM-12+0019BGPC V0200201N015410210019N0010001N1-00161-00161099521ADDAY171031AY271031GF108991081001022501021999MA1999999098601MD1710191+9999MW1711OA149902931REMSYN094AAXX  03034 04390 41810 80230 11016 21016 39860 49952 57019 77177 8802/ 333 91157 91041 91242;
0243043900999992000040306004+60030-043120FM-12+0019BGPC V0200301N016410210019N0010001N1-00151-00151099411ADDAA112007991AY171061AY271061GF108991081001022501021999KA1120M-00131KA2120N-00291MA1999999098491MD1710111+9999MW1711OA149902931REMSYN106AAXX  03064 04390 11810 80332 11015 21015 39849 49941 57011 60082 77177 8802/ 333 11013 21029 91157 91042;
0188043900999992000040309004+60030-043120FM-12+0019BGPC V0200301N014910120019N0050001N1-00191-00191099361ADDAY171031AY271031GF108991081001012501021999MA1999999098441MD1710051+9999MW1711OA149902681REMSYN088AAXX  03094 04390 41650 80329 11019 21019 39844 49936 57005 77177 8802/ 333 91152 91039;
0205043900999992000040312004+60030-043120FM-12+0019BGPC V0200301N014919999999N9999999N1-00221-00221099371ADDAA106002091AY171061AY221061GF108991081001999999021999MA1999999098451MD1210011+9999MW1711OA149902681REMSYN094AAXX  03124 04390 11/// 80329 11022 21022 39845 49937 52001 60021 77172 8802/ 333 91152 91041;
0171043900999992000040315004+60030-043120FM-12+0019BGPC V0200201N013410120019N0050001N1-00161-00161099331ADDAY171031AY271031GF108991081001012501021999MA1999999098411MD1710041+9999MW1711REMSYN082AAXX  03154 04390 41650 80226 11016 21016 39841 49933 57004 77177 8802/ 333 91148;
0171043900999992000040321004+60030-043120FM-12+0019BGPC V0200301N006710075019N0040001N1-00131-00131099261ADDAY171031AY221031GF108991081001008001021999MA1999999098341MD1710031+9999MW1701REMSYN082AAXX  03214 04390 41540 80313 11013 21013 39834 49926 57003 77072 8802/ 333 91127;
0188043900999992000040400004+60030-043120FM-12+0019BGPC V0200301N006710120019N0040001N1-00181-00181099301ADDAA106000791AY171061AY271061GF108991081001012501021999MA1999999098381MD1210041+9999MW1711REMSYN088AAXX  04004 04390 11640 80313 11018 21018 39838 49930 52004 69901 77177 8802/ 333 91127;
0226043900999992000040406004+60030-043120FM-12+0019BGPC V0200301N006710150019N0010001N1-00191-00191099221ADDAA112001091AY171061AY271061GF108991081001017501021999KA1120M-00101KA2120N-00211MA1999999098301MD1710031+9999MW1711REMSYN100AAXX  04064 04390 11710 80313 11019 21019 39830 49922 57003 69992 77177 8802/ 333 11010 21021 91122;
0152043900999992000040412004+60030-043120FM-12+0019BGPC V0200401N999999999999N0050001N1-00141-00141099391ADDGF108991081001999999011999MA1999999098471MD1210111+9999REMSYN066AAXX  04124 04390 12950 80470 11014 21014 39847 49939 52011 8801/;EQDQ01+003603WOSPD 
0133043900999992000040415004+60030-043120FM-12+0019BGPC V0200301N006719999999N0100001N1-00031-00031099501ADDGF107991071001999999011999MA1999999098581MD1210111+9999REMSYN066AAXX  04154 04390 42960 70313 11003 21003 39858 49950 52011 8701/;
0226043900999992000040418004+60030-043120FM-12+0019BGPC V0200301N005719999999N0300001N1-00031-00031099601ADDAA112000791AY171061AY221061GF107991071001999999011999KA1120M+00031KA2120N-00231MA1999999098681MD1210101+9999MW1701REMSYN100AAXX  04184 04390 11980 70311 11003 21003 39868 49960 52010 69902 77072 8701/ 333 10003 21023 91124;
0133043900999992000040421004+60030-043120FM-12+0019BGPC V0200601N001510150019N0300001N1-00101-00101099761ADDGF106991061051017501999999MA1999999098841MD1210161+9999REMSYN066AAXX  04214 04390 42780 60603 11010 21010 39884 49976 52016 865//;
0154043900999992000040500004+60030-043120FM-12+0019BGPC V0201801N001012200019N0200001N1-00171-00171099891ADDAA199000021GF104991041001999999071999MA1999999098961MD1210121+9999REMSYN076AAXX  05004 04390 32970 41802 11017 21017 39896 49989 52012 8407/ 333 91213;
0160043900999992000040503004+60030-043120FM-12+0019BGPC V0202301N002612200019N9999999N1-00351-00351099921ADDAA106000791GA1001+999999999GF100991001001999999001001MA1999999098991MD1210031+9999REMSYN066AAXX  05034 04390 129// 02305 11035 21035 39899 49992 52003 69901;
0214043900999992000040506004+60030-043120FM-12+0019BGPC V0201101N000512200019N0005001N1-00411-00411099991ADDAA199000021AY121061AY201061GF102991021001999999071001KA1120M-00011KA2999N-00421MA1999999099051MD1210061+9999MW1461REMSYN088AAXX  05064 04390 31905 21101 11041 21041 39905 49999 52006 74620 82070 333 11001 21042;
0161043900999992000040509004+60030-043120FM-12+0019BGPC V0200801N002612200019N9999999N1-00581-00581100091ADDAY101031AY201031GF102991021001999999011999MA1999999099151MD1210101+9999MW1481REMSYN072AAXX  05094 04390 41/// 20805 11058 21058 39915 40009 52010 74800 8201/;
0159043900999992000040512004+60030-043120FM-12+0019BGPC V0203001N000519999999N0003001N1-00161-00161100221ADDAA199000091AY141061AY241061MA1999999099291MD1210141+9999MW1491REMSYN066AAXX  05124 04390 31/03 /3001 11016 21016 39929 40022 52014 74944;EQDQ01  00002PRCP99
0161043900999992000040515004+60030-043120FM-12+0019BGPC V0203001N001512200019N0400001N1-00031-00031100331ADDAY141031AY201031GF101991011001999999021999MA1999999099401MD1210111+9999MW1001REMSYN072AAXX  05154 04390 41982 13003 11003 21003 39940 40033 52011 70040 8102/;
0215043900999992000040518004+60030-043120FM-12+0019BGPC V0203001N000512200019N9999999N1+00381+00321100401ADDAA199000091GA1001+999999999GF100991001001999999001001KA1120M+00411KA2999N-00621MA1999999099491MD1210091+9999REMSYN076AAXX  05184 04390 329// 03001 10038 20032 39949 40040 52009 333 10041 21062;EQDQ01  00002PRCP99
0143043900999992000040521004+60030-043120FM-12+0019BGPC V0202501N001512200019N0400001N1-00071-00171100551ADDGA1001+999999999GF100991001001999999001001MA1999999099621MD1210131+9999REMSYN060AAXX  05214 04390 42982 02503 11007 21017 39962 40055 52013;
0173043900999992000040600004+60030-043120FM-12+0019BGPC V0203001N001512200019N9999999N1-00371-00371100681ADDAA199000091GA1001+999999999GF100991001001999999001001MA1999999099741MD1210121+9999REMSYN060AAXX  06004 04390 329// 03003 11037 21037 39974 40068 52012;EQDQ01  00002PRCP99
0118043900999992000040603004+60030-043120FM-12+0019BGPC V0202701N001519999999N9999999N1-00321-00401100821ADDAA106000791MA1999999099881MD1210141+9999REMSYN066AAXX  06034 04390 12/// /2703 11032 21040 39988 40082 52014 69901;
0133043900999992000040609004+60030-043120FM-12+0019BGPC V0200101N001510300019N0200001N1-00301-00501100871ADDGF108991011041012501021999MA1999999099931MD1210121+9999REMSYN066AAXX  06094 04390 42670 80103 11030 21050 39993 40087 52012 8142/;
0150043900999992000040612004+60030-043120FM-12+0019BGPC V0200501N005110120019N0200001N1-00101-00331100701ADDAA106000791GF108991081001012501021999MA1999999099771MD1710161+9999REMSYN072AAXX  06124 04390 12670 80510 11010 21033 39977 40070 57016 69901 8802/;
0133043900999992000040615004+60030-043120FM-12+0019BGPC V0200301N009310210019N0300001N1-00091-00391100561ADDGF108991081001022501021999MA1999999099631MD1710141+9999REMSYN066AAXX  06154 04390 42880 80318 11009 21039 39963 40056 57014 8802/;
0243043900999992000040618004+60030-043120FM-12+0019BGPC V0200501N009810210019N0004001N1-00181-00181100261ADDAA112000891AY171061AY221061GF108991081001022501021999KA1120M-00061KA2120N-00571MA1999999099331MD1710301+9999MW1731OA149901601REMSYN106AAXX  06184 04390 11804 80519 11018 21018 39933 40026 57030 69972 77372 8802/ 333 11006 21057 91131 91030;
0171043900999992000040621004+60030-043120FM-12+0019BGPC V0200401N012910120019N0003001N1-00191-00201099921ADDAY171031AY271031GF108991081001012501021999MA1999999098991MD1710341+9999MW1731REMSYN082AAXX  06214 04390 41603 80425 11019 21020 39899 49992 57034 77377 8802/ 333 91137;
0199043900999992000040703004+60030-043120FM-12+0019BGPC V0200301N013919999999N9999999N1-00071-00071099141ADDAA106000791AY171031AY271031GF108991999999999999999999MA1999999098221MD1710441+9999MW1001OA149902111REMSYN088AAXX  07034 04390 11/// 80327 11007 21007 39822 49914 57044 69901 70077 333 91141 91037;
0166043900999992000040706004+60030-043120FM-12+0019BGPC V0200201N015919999999N9999999N1-00051+99999099061ADDKA1120M-00041KA2120N-00221MA1999999098141MD1710081+9999OA149902681REMSYN088AAXX  07064 04390 46/// /0231 11005 21004 39814 49906 57008 333 11004 21022 91152 91042;
0205043900999992000040712004+60030-043120FM-12+0019BGPC V0202201N003110300019N0100001N1+00011+00011099181ADDAA106004191AY171061AY221061GF108991041071004501021999MA1999999098271MD1210121+9999MW1001OA149902321REMSYN094AAXX  07124 04390 11460 82206 10001 20001 39827 49918 52012 60041 70072 8472/ 333 91145 91232;
0133043900999992000040715004+60030-043120FM-12+0019BGPC V0201601N004110210019N0250001N1+00091+00081099351ADDGF107991071001022501011999MA1999999098441MD1210171+9999REMSYN066AAXX  07154 04390 42875 71608 10009 20008 39844 49935 52017 8701/;
0192043900999992000040718004+60030-043120FM-12+0019BGPC V0202101N007219999999N0200001N1+00241+00241099461ADDAA112004191GF105991031071004501999051KA1120M+00241KA2999N-00061MA1999999098551MD1210111+9999REMSYN088AAXX  07184 04390 12470 52114 10024 20024 39855 49946 52011 60042 837/5 333 10024 21006;
0171043900999992000040721004+60030-043120FM-12+0019BGPC V0202101N008210300019N0100001N1+00121-00201099551ADDAY171031AY221031GF106991041071004501031999MA1999999098641MD1210091+9999MW1771REMSYN082AAXX  07214 04390 41460 62116 10012 21020 39864 49955 52009 77772 8473/ 333 91126;
0188043900999992000040800004+60030-043120FM-12+0019BGPC V0202101N009310210019N0050001N1+00091-00221099821ADDAA106000791AY171061AY221061GF108991081001022501021999MA1999999098901MD1210261+9999MW1701REMSYN088AAXX  08004 04390 11850 82118 10009 21022 39890 49982 52026 69901 77072 8802/ 333 91127;
0160043900999992000040803004+60030-043120FM-12+0019BGPC V0202101N007210120019N0020001N1+00051-00311099991ADDAA100000791GF106991061001012501021999MA1999999099071MD1210171+9999REMSYN082AAXX  08034 04390 12620 62114 10005 21031 39907 49999 52017 69900 8602/ 333 91130;
0149043900999992000040806004+60030-043120FM-12+0019BGPC V0202101N007219999999N9999999N1+00051-00171100101ADDKA1120M+00241KA2120N-00031MA1999999099181MD1210111+9999REMSYN082AAXX  08064 04390 46/// /2114 10005 21017 39918 40010 52011 333 10024 21003 91130;
0133043900999992000040809004+60030-043120FM-12+0019BGPC V0202301N00721030001CN0200001N1+00071-00141100221ADDGF106991011011004501021999MA1999999099301MD1210121+9999REMSYN066AAXX  08094 04390 42470 62314 10007 21014 39930 40022 52012 8112/;
0144043900999992000040812004+60030-043120FM-12+0019BGPC V0202501N004110300019N0250001N1+00201-00091100411ADDAA199000021GF107991011071004501041051MA1999999099491MD1210191+9999REMSYN066AAXX  08124 04390 32475 72508 10020 21009 39949 40041 52019 81745;
0133043900999992000040815004+60030-043120FM-12+0019BGPC V0202401N005112200019N0500001N1+00301-00401100771ADDGF103991011071004501041051MA1999999099851MD1210361+9999REMSYN066AAXX  08154 04390 42484 32410 10030 21040 39985 40077 52036 81745;
0192043900999992000040818004+60030-043120FM-12+0019BGPC V0202301N009812200019N0200001N1+00191-00501101011ADDAA112000791GF104991021071004501051999KA1120M+00331KA2999N+00011MA1999999100081MD1210231+9999REMSYN088AAXX  08184 04390 12470 42319 10019 21050 30008 40101 52023 69902 8275/ 333 10033 20001;
0160043900999992000040821004+60030-043120FM-12+0019BGPC V0202501N006212200019N0300001N1+00161-00581101391ADDGF104991011071004501031051MA1999999100461MD1210381+9999OA149901291REMSYN082AAXX  08214 04390 42480 42512 10016 21058 30046 40139 52038 81735 333 91125 91224;
0173043900999992000040900004+60030-043120FM-12+0019BGPC V0202401N007712200019N0100001N1+00071-00471101661ADDAA199000091GF104991011071004501031999MA1999999100721MD1210261+9999REMSYN076AAXX  09004 04390 32460 42415 10007 21047 30072 40166 52026 8173/ 333 91125;EQDQ01  00002PRCP99
0118043900999992000040903004+60030-043120FM-12+0019BGPC V0202401N005119999999N9999999N1+00081-00591101871ADDAA106000791MA1999999100931MD1210211+9999REMSYN066AAXX  09034 04390 12/// /2410 10008 21059 30093 40187 52021 69901;
0205043900999992000040906004+60030-043120FM-12+0019BGPC V0202301N005712200019N0100001N1-00011-00691101991ADDAA199000091GF102991021001999999021999KA1120M+00211KA2999N-00021MA1999999101051MD1210121+9999REMSYN082AAXX  09064 04390 32960 22311 11001 21069 30105 40199 52012 8202/ 333 10021 21002;EQDQ01  00002PRCP99
0133043900999992000040909004+60030-043120FM-12+0019BGPC V0202401N005112200019N0200001N1-00031-00691102201ADDGF103991011071004501021061MA1999999101261MD1210211+9999REMSYN066AAXX  09094 04390 42470 32410 11003 21069 30126 40220 52021 81726;
0163043900999992000040912004+60030-043120FM-12+0019BGPC V0202601N008719999999N0300001N1+00101-00801102321ADDAA199000091GF105991001001999999001061MA1999999101381MD1210121+9999REMSYN066AAXX  09124 04390 32980 52617 10010 21080 30138 40232 52012 80006;EQDQ01  00002PRCP99
0143043900999992000040915004+60030-043120FM-12+0019BGPC V0202801N007212200019N0500001N1+00181-00911102471ADDGF102991011001999999071061MA1999999101531MD1210151+9999REMSYN076AAXX  09154 04390 42984 22814 10018 21091 30153 40247 52015 81076 333 91127;
0198043900999992000040918004+60030-043120FM-12+0019BGPC V0202501N00571030001CN0250001N1+00171-00841102541ADDAA112000791GF106991011021008001071999KA1120M+00281KA2120N-00051MA1999999101601MD1210071+9999REMSYN094AAXX  09184 04390 12575 62511 10017 21084 30160 40254 52007 69902 8127/ 333 10028 21005 91127;
0133043900999992000040921004+60030-043120FM-12+0019BGPC V0202501N006712200019N0400001N1+00091-00831102681ADDGF102991021001999999041999MA1999999101741MD1210141+9999REMSYN066AAXX  09214 04390 42982 22513 10009 21083 30174 40268 52014 8204/;
0163043900999992000041000004+60030-043120FM-12+0019BGPC V0202201N005112200019N0150001N1-00031-00801102821ADDAA199000091GF102991021001999999041999MA1999999101871MD1210131+9999REMSYN066AAXX  10004 04390 32965 22210 11003 21080 30187 40282 52013 8204/;EQDQ01  00002PRCP99
0133043900999992000041003004+60030-043120FM-12+0019BGPC V0202101N004112200019N0150001N1+00111-00651102691ADDGF104991041001022501031999MA1999999101751MD1710121+9999REMSYN066AAXX  10034 04390 42865 42108 10011 21065 30175 40269 57012 8403/;
0192043900999992000041006004+60030-043120FM-12+0019BGPC V0202001N005710210019N0020001N1+00011-00231102621ADDAA112000791GF107991051001022501031999KA1120M+00181KA2999N-00061MA1999999101671MD1710081+9999REMSYN088AAXX  10064 04390 12820 72011 10001 21023 30167 40262 57008 69902 8503/ 333 10018 21006;
0133043900999992000041009004+60030-043120FM-12+0019BGPC V0202201N003612200019N0500001N1+00101-00081102691ADDGF104991041051012501001001MA1999999101751MD1210081+9999REMSYN066AAXX  10094 04390 42684 42207 10010 21008 30175 40269 52008 84500;
0173043900999992000041012004+60030-043120FM-12+0019BGPC V0202701N006212200019N0400001N1+00261+00001102811ADDAA199000091GF102991011001999999031051MA1999999101871MD1210121+9999REMSYN076AAXX  10124 04390 32982 22712 10026 21000 30187 40281 52012 81035 333 91120;EQDQ01  00002PRCP99
0143043900999992000041015004+60030-043120FM-12+0019BGPC V0202601N007712200019N0500001N1+00471+00081102861ADDGF103991031001012501021001MA1999999101931MD1210061+9999REMSYN076AAXX  10154 04390 42684 32615 10047 20008 30193 40286 52006 83020 333 91124;
0228043900999992000041018004+60030-043120FM-12+0019BGPC V0202101N003612200019N0300001N1+00561+00221102981ADDAA199000091GF101991001001999999001061KA1120M+00711KA2120N-00041MA1999999102051MD1210121+9999OA149901241REMSYN094AAXX  10184 04390 32980 12107 10056 20022 30205 40298 52012 80006 333 10071 21004 91124 91220;EQDQ01  00002PRCP99
0143043900999992000041021004+60030-043120FM-12+0019BGPC V0200101N001512200019N0400001N1+00241-00391103271ADDGA1001+999999999GF100991001001999999001001MA1999999102331MD1210281+9999REMSYN060AAXX  10214 04390 42982 00103 10024 21039 30233 40327 52028;
0163043900999992000041100004+60030-043120FM-12+0019BGPC V0200201N002612200019N0200001N1+00031-00151103561ADDAA199000091GF101991001001999999001061MA1999999102611MD1210281+9999REMSYN066AAXX  11004 04390 32970 10205 10003 21015 30261 40356 52028 80006;EQDQ01  00002PRCP99
0133043900999992000041103004+60030-043120FM-12+0019BGPC V0203001N001012200019N0150001N1+00001-00031103721ADDGF101991001001999999001061MA1999999102761MD1210151+9999REMSYN066AAXX  11034 04390 42965 13002 10000 21003 30276 40372 52015 80006;
0192043900999992000041106004+60030-043120FM-12+0019BGPC V0201801N001012200019N0050001N1+00041-00051103721ADDAA112000791GF101991011001022501041999KA1120M+00611KA2999N-00031MA1999999102761MD1410001+9999REMSYN088AAXX  11064 04390 12850 11802 10004 21005 30276 40372 54000 69902 8104/ 333 10061 21003;
0133043900999992000041121004+60030-043120FM-12+0019BGPC V0200901N001010300019N0300001N1+00161+00101104291ADDGF108991041061004501021999MA1999999103331MD1210161+9999REMSYN066AAXX  11214 04390 42480 80902 10016 20010 30333 40429 52016 8462/;
0163043900999992000041200004+60030-043120FM-12+0019BGPC V0200401N002610042019N0150001N1+00091+00091104311ADDAA199000091GF108991081051004501999999MA1999999103351MD1210021+9999REMSYN066AAXX  12004 04390 32465 80405 10009 20009 30335 40431 52002 885//;EQDQ01  00002PRCP99
0161043900999992000041203004+60030-043120FM-12+0019BGPC V0200501N002110042019N0050001N1+00081+00081104241ADDAY161031AY221031GF108991081071004501999999MA1999999103281MD1710071+9999MW1631REMSYN072AAXX  12034 04390 41450 80504 10008 20008 30328 40424 57007 76362 887//;
0220043900999992000041206004+60030-043120FM-12+0019BGPC V0200301N003610042019N0020001N1+00041+00011104191ADDAA112003091AY161061AY261061GF108991081071004501999999KA1120M+00201KA2999N+00041MA1999999103231MD1710051+9999MW1001REMSYN094AAXX  12064 04390 11420 80307 10004 20001 30323 40419 57005 60032 70066 887// 333 10020 20004;
0161043900999992000041209004+60030-043120FM-12+0019BGPC V0200401N001510006019N0050001N1-00021-00021104161ADDAY151031AY221031GF108991081061000751999999MA1999999103201MD1710031+9999MW1001REMSYN072AAXX  12094 04390 41150 80403 11002 21002 30320 40416 57003 70052 886//;
0150043900999992000041215004+60030-043120FM-12+0019BGPC V0201801N002112200019N0200001N1+00441+00171103961ADDAA106000791GF103991011051012501999061MA1999999103021MD1710111+9999REMSYN072AAXX  12154 04390 12670 31804 10044 20017 30302 40396 57011 69901 815/6;
0205043900999992000041218004+60030-043120FM-12+0019BGPC V0202101N006219999999N0300001N1+00371+00111103801ADDAA199000091GF106991001001999999001061KA1120M+00761KA2999N-00031MA1999999102861MD1710161+9999REMSYN082AAXX  12184 04390 32980 62112 10037 20011 30286 40380 57016 80006 333 10076 21003;EQDQ01  00002PRCP99
0143043900999992000041221004+60030-043120FM-12+0019BGPC V0202001N006712200019N0400001N1+00291+00051103731ADDGA1001+999999999GF100991001001999999001001MA1999999102781MD1710081+9999REMSYN060AAXX  12214 04390 42982 02013 10029 20005 30278 40373 57008;
0163043900999992000041300004+60030-043120FM-12+0019BGPC V0202401N009312200019N0200001N1+00241+00011103581ADDAA199000091GF101991011021004501999999MA1999999102631MD1710151+9999REMSYN066AAXX  13004 04390 32470 12418 10024 20001 30263 40358 57015 812//;EQDQ01  00002PRCP99
0133043900999992000041303004+60030-043120FM-12+0019BGPC V0202301N007212200019N0150001N1+00271+00071103391ADDGF101991001001999999001061MA1999999102451MD1710181+9999REMSYN066AAXX  13034 04390 42965 12314 10027 20007 30245 40339 57018 80006;
0215043900999992000041306004+60030-043120FM-12+0019BGPC V0202301N002112200019N0020001N1+00361+00151103321ADDAA112000791GF101991011041012501001999KA1120M+00391KA2120N+00211MA1999999102381MD1710071+9999OA149900881REMSYN100AAXX  13064 04390 12620 12304 10036 20015 30238 40332 57007 69902 8140/ 333 10039 20021 91117 91218;
0133043900999992000041309004+60030-043120FM-12+0019BGPC V0202301N007212200019N0500001N1+00461+00231103281ADDGF102991011001012501021091MA1999999102341MD1710041+9999REMSYN066AAXX  13094 04390 42684 22314 10046 20023 30234 40328 57004 81029;
0163043900999992000041312004+60030-043120FM-12+0019BGPC V0202301N006712200019N0200001N1+00621+00241103131ADDAA199000091GF101991001001999999001061MA1999999102201MD1710141+9999REMSYN066AAXX  13124 04390 32970 12313 10062 20024 30220 40313 57014 80006;EQDQ01  00002PRCP99
0143043900999992000041315004+60030-043120FM-12+0019BGPC V0202401N008212200019N0400001N1+00671+00181102931ADDGA1001+999999999GF100991001001999999001001MA1999999102001MD1710201+9999REMSYN060AAXX  13154 04390 42982 02416 10067 20018 30200 40293 57020;
0211043900999992000041318004+60030-043120FM-12+0019BGPC V0202401N007219999999N0300001N1+00621+00011102721ADDAA199000091GF106991001001999999001061KA1120M+00751KA2120N+00321MA1999999101791MD1710211+9999REMSYN088AAXX  13184 04390 32980 62414 10062 20001 30179 40272 57021 80006 333 10075 20032 91121;EQDQ01  00002PRCP99
0133043900999992000041321004+60030-043120FM-12+0019BGPC V0202501N009812200019N0400001N1+00671-00151102531ADDGF104991021001999999041051MA1999999101611MD1710181+9999REMSYN066AAXX  13214 04390 42982 42519 10067 21015 30161 40253 57018 82045;
0173043900999992000041400004+60030-043120FM-12+0019BGPC V0203101N009812200019N0200001N1+00471-00051102571ADDAA199000091GF103991001001999999001061MA1999999101641MD1210031+9999REMSYN076AAXX  14004 04390 32970 33119 10047 21005 30164 40257 52003 80006 333 91129;EQDQ01  00002PRCP99
0160043900999992000041403004+60030-043120FM-12+0019BGPC V0202801N001512200019N0150001N1+00311+00011102621ADDGF101991001001999999001061MA1999999101681MD1210041+9999OA149901341REMSYN082AAXX  14034 04390 42965 12803 10031 20001 30168 40262 52004 80006 333 91126 91223;
0215043900999992000041406004+60030-043120FM-12+0019BGPC V0202801N001512200019N0020001N1+00261-00071102541ADDAA112000791GF101991001001999999001061KA1120M+00941KA2120N+00231MA1999999101601MD1710081+9999OA149901341REMSYN100AAXX  14064 04390 12920 12803 10026 21007 30160 40254 57008 69902 80006 333 10094 20023 91126 91223;
0133043900999992000041409004+60030-043120FM-12+0019BGPC V0202901N001512200019N0500001N1+00191-00091102441ADDGF104991001001999999001091MA1999999101501MD1710101+9999REMSYN066AAXX  14094 04390 42984 42903 10019 21009 30150 40244 57010 80009;
0133043900999992000041415004+60030-043120FM-12+0019BGPC V0203401N001012200019N0300001N1+00681-00161102271ADDGF103991001001999999001051MA1999999101351MD1710101+9999REMSYN066AAXX  14154 04390 42980 33402 10068 21016 30135 40227 57010 80005;
0205043900999992000041418004+60030-043120FM-12+0019BGPC V0200201N001512200019N0500001N1+00451-00331102191ADDAA199000091GF102991001001999999001041KA1120M+00951KA2999N+00061MA1999999101261MD1710091+9999REMSYN082AAXX  14184 04390 32984 20203 10045 21033 30126 40219 57009 80004 333 10095 20006;EQDQ01  00002PRCP99
0133043900999992000041421004+60030-043120FM-12+0019BGPC V0200301N005112200019N0400001N1+00301-00211102161ADDGF101991001001999999001061MA1999999101231MD1710031+9999REMSYN066AAXX  14214 04390 42982 10310 10030 21021 30123 40216 57003 80006;
0173043900999992000041500004+60030-043120FM-12+0019BGPC V0200201N007712200019N0200001N1+00261-00271102161ADDAA199000091GF102991021001999999041999MA1999999101231MD1410001+9999REMSYN076AAXX  15004 04390 32970 20215 10026 21027 30123 40216 54000 8204/ 333 91124;EQDQ01  00002PRCP99
0143043900999992000041503004+60030-043120FM-12+0019BGPC V0200701N005719999999N0150001N1-00071-00071102171ADDGF106991061001999999051999MA1999999101231MD1410001+9999REMSYN076AAXX  15034 04390 42965 60711 11007 21007 30123 40217 54000 8605/ 333 91124;
0198043900999992000041506004+60030-043120FM-12+0019BGPC V0200401N004619999999N0020001N1+00081-00051102121ADDAA112000791GF106991061001999999051999KA1120M+00451KA2120N-00091MA1999999101181MD1710051+9999REMSYN094AAXX  15064 04390 12920 60409 10008 21005 30118 40212 57005 69902 8605/ 333 10045 21009 91124;
0133043900999992000041509004+60030-043120FM-12+0019BGPC V0200401N005119999999N0200001N1+00121-00261102121ADDGF108991081001999999071999MA1999999101181MD1410001+9999REMSYN066AAXX  15094 04390 42970 80410 10012 21026 30118 40212 54000 8807/;
0190043900999992000041512004+60030-043120FM-12+0019BGPC V0200301N012319999999N0300001N1+00131-00391101991ADDAA199000091GF107991071001999999051999MA1999999101051MD1710131+9999OA149902061REMSYN082AAXX  15124 04390 32980 70324 10013 21039 30105 40199 57013 8705/ 333 91140 91037;EQDQ01  00002PRCP99
0243043900999992000041518004+60030-043120FM-12+0019BGPC V0200501N009810042019N0100001N1+00081+00081101761ADDAA112000191AY171061AY261061GF108991081071004501999999KA1120M+00261KA2120N+00001MA1999999100821MD1710181+9999MW1681OA149902011REMSYN106AAXX  15184 04390 11460 80519 10008 20008 30082 40176 57018 69912 76876 887// 333 10026 20000 91139 91031;
0205043900999992000041600004+60030-043120FM-12+0019BGPC V0200501N002610120019N0020001N1-00011-00011101551ADDAA106002091AY171061AY221061GF108991081001012501021999MA1999999100611MD1710091+9999MW1711OA149901601REMSYN094AAXX  16004 04390 11620 80505 11001 21001 30061 40155 57009 60021 77172 8802/ 333 91131 91219;
0161043900999992000041603004+60030-043120FM-12+0019BGPC V0200301N003110120019N0010001N1-00021-00021101471ADDAY171031AY271031GF108991081001012501021999MA1999999100531MD1710081+9999MW1711REMSYN072AAXX  16034 04390 41610 80306 11002 21002 30053 40147 57008 77177 8802/;
0220043900999992000041606004+60030-043120FM-12+0019BGPC V0200201N005110120019N0020001N1-00031-00031101351ADDAA112004191AY171061AY271061GF108991081001012501021999KA1120M+00091KA2999N-00041MA1999999100411MD1710121+9999MW1681REMSYN094AAXX  16064 04390 11620 80210 11003 21003 30041 40135 57012 60042 76877 8802/ 333 10009 21004;
0161043900999992000041609004+60030-043120FM-12+0019BGPC V0200401N005110042019N0020001N1+00001+00001101271ADDAY171031AY271031GF108991081021004501999999MA1999999100341MD1710071+9999MW1731REMSYN072AAXX  16094 04390 41420 80410 10000 20000 30034 40127 57007 77377 882//;
0205043900999992000041612004+60030-043120FM-12+0019BGPC V0200601N006710120019N0050001N1+00051+00051101231ADDAA106007191AY171061AY271061GF108991081001012501021999MA1999999100301MD1710041+9999MW1731OA149901181REMSYN094AAXX  16124 04390 11650 80613 10005 20005 30030 40123 57004 60071 77377 8802/ 333 91123 91023;
0171043900999992000041615004+60030-043120FM-12+0019BGPC V0200601N007210120019N0020001N1+00031+00031101271ADDAY171031AY271031GF108991081001012501021999MA1999999100341MD1210041+9999MW1731REMSYN082AAXX  16154 04390 41620 80614 10003 20003 30034 40127 52004 77377 8802/ 333 91126;
0226043900999992000041618004+60030-043120FM-12+0019BGPC V0200501N007710120019N0020001N1+00051+00051101241ADDAA112017091AY171061AY271061GF108991081001012501021999KA1120M+00121KA2120N-00031MA1999999100311MD1710031+9999MW1691REMSYN100AAXX  16184 04390 11620 80515 10005 20005 30031 40124 57003 60172 76977 8802/ 333 10012 21003 91128;
0171043900999992000041621004+60030-043120FM-12+0019BGPC V0200601N007210042019N0010001N1-00011-00011101241ADDAY171031AY271031GF108991081071004501999999MA1999999100311MD1410001+9999MW1001REMSYN082AAXX  16214 04390 41410 80614 11001 21001 30031 40124 54000 70077 887// 333 91129;
0188043900999992000041700004+60030-043120FM-12+0019BGPC V0200501N009310075019N0040001N1+00041+00031101231ADDAA106007191AY171061AY271061GF108991081001008001021999MA1999999100301MD1710011+9999MW1681REMSYN088AAXX  17004 04390 11540 80518 10004 20003 30030 40123 57001 60071 76877 8802/ 333 91129;
0205043900999992000041703004+60030-043120FM-12+0019BGPC V0200401N010310120019N0020001N1+00041+00031101131ADDAA106000791AY171031AY271031GF108991081001012501021999MA1999999100201MD1710101+9999MW1681OA149901651REMSYN094AAXX  17034 04390 11620 80420 10004 20003 30020 40113 57010 69901 76877 8802/ 333 91132 91032;
0243043900999992000041706004+60030-043120FM-12+0019BGPC V0200401N011310075019N0050001N1+00041-00021101111ADDAA112007191AY171061AY221061GF108991081001008001021999KA1120M+00091KA2120N-00031MA1999999100181MD1710021+9999MW1701OA149901751REMSYN106AAXX  17064 04390 11550 80422 10004 21002 30018 40111 57002 60072 77072 8802/ 333 10009 21003 91134 91033;
0205043900999992000041709004+60030-043120FM-12+0019BGPC V0200301N011310042019N0010001N1-00021-00021101091ADDAA112000791AY171031AY281031GF108991081071004501999999MA1999999100161MD1710021+9999MW1681OA149901961REMSYN094AAXX  17094 04390 11410 80322 11002 21002 30016 40109 57002 69902 76878 887// 333 91138 91035;
0188043900999992000041712004+60030-043120FM-12+0019BGPC V0200301N011810120019N0020001N1-00011-00011101071ADDAA106002091AY171061AY271061GF108991081001012501021999MA1999999100141MD1710021+9999MW1731REMSYN088AAXX  17124 04390 11620 80323 11001 21001 30014 40107 57002 60021 77377 8802/ 333 91138;
0188043900999992000041715004+60030-043120FM-12+0019BGPC V0200501N009310300019N0010001N1+00031+00031101111ADDAY181031AY271031GF108991041031004501021999MA1999999100181MD1210041+9999MW1881OA149901851REMSYN088AAXX  17154 04390 41410 80518 10003 20003 30018 40111 52004 78887 8432/ 333 91136 91030;
0243043900999992000041718004+60030-043120FM-12+0019BGPC V0200501N011310042019N0100001N1+00141+00111101091ADDAA112003091AY181061AY261061GF108991081071004501999999KA1120M+00151KA2120N-00031MA1999999100161MD1710021+9999MW1611OA149901851REMSYN106AAXX  17184 04390 11460 80522 10014 20011 30016 40109 57002 60032 76186 887// 333 10015 21003 91136 91034;
0171043900999992000041721004+60030-043120FM-12+0019BGPC V0200501N010810042019N0050001N1+00101+00091101181ADDAY171031AY221031GF108991081021004501999999MA1999999100251MD1210091+9999MW1721REMSYN082AAXX  17214 04390 41450 80521 10010 20009 30025 40118 52009 77272 882// 333 91135;
0188043900999992000041800004+60030-043120FM-12+0019BGPC V0200501N009310042019N0050001N1+00061+00051101301ADDAA106002091AY171061AY271061GF108991081071004501999999MA1999999100371MD1210121+9999MW1731REMSYN088AAXX  18004 04390 11450 80518 10006 20005 30037 40130 52012 60021 77377 887// 333 91135;
0188043900999992000041803004+60030-043120FM-12+0019BGPC V0200601N009810042019N0100001N1+00081+00071101371ADDAY161031AY221031GF108991081071004501999999MA1999999100441MD1210071+9999MW1611OA149901541REMSYN088AAXX  18034 04390 41460 80619 10008 20007 30044 40137 52007 76162 887// 333 91130 91030;
0243043900999992000041806004+60030-043120FM-12+0019BGPC V0200401N011810075019N0100001N1+00071+00031101441ADDAA112004191AY171061AY271061GF108991081001008001021999KA1120M+00161KA2120N-00021MA1999999100511MD1210071+9999MW1681OA149901751REMSYN106AAXX  18064 04390 11560 80423 10007 20003 30051 40144 52007 60042 76877 8802/ 333 10016 21002 91134 91034;
0188043900999992000041809004+60030-043120FM-12+0019BGPC V0200401N008210042019N0050001N1+00061+00051101611ADDAA112000791AY171031AY271031GF108991081071004501999999MA1999999100671MD1210161+9999MW1681REMSYN088AAXX  18094 04390 11450 80416 10006 20005 30067 40161 52016 69902 76877 887// 333 91135;
0188043900999992000041812004+60030-043120FM-12+0019BGPC V0200301N009810300019N0200001N1+00011-00061101711ADDAA106000591AY181061AY221061GF108991021071004501021999MA1999999100771MD1210101+9999MW1001REMSYN088AAXX  18124 04390 11470 80319 10001 21006 30077 40171 52010 69951 70082 8272/ 333 91135;
0160043900999992000041815004+60030-043120FM-12+0019BGPC V0200301N009310300019N0100001N1+00031-00071101751ADDAA106000791GF108991041071004501021999MA1999999100811MD1210041+9999REMSYN082AAXX  18154 04390 12460 80318 10003 21007 30081 40175 52004 69901 8472/ 333 91133;
0198043900999992000041818004+60030-043120FM-12+0019BGPC V0200301N009810300019N0100001N1+00041-00101101771ADDAA112000791GF107991031071004501021999KA1120M+00101KA2120N-00031MA1999999100831MD1210021+9999REMSYN094AAXX  18184 04390 12460 70319 10004 21010 30083 40177 52002 69902 8372/ 333 10010 21003 91133;
0190043900999992000041900004+60030-043120FM-12+0019BGPC V0203501N00771030001CN0100001N1-00141-00371102001ADDAA199000091GF106991021071004501021999MA1999999101051MD1210121+9999OA149901701REMSYN082AAXX  19004 04390 32460 63515 11014 21037 30105 40200 52012 8272/ 333 91133 91026;EQDQ01  00002PRCP99
0160043900999992000041903004+60030-043120FM-12+0019BGPC V0200301N004610075019N0150001N1-00091-00341102021ADDGF108991081051008001999999MA1999999101081MD1210031+9999OA149901491REMSYN082AAXX  19034 04390 42565 80309 11009 21034 30108 40202 52003 885// 333 91129 91220;
0228043900999992000041906004+60030-043120FM-12+0019BGPC V0200201N003110120019N0200001N1-00121-00281102091ADDAA199000091GF108991081001012501021999KA1120M+00051KA2120N-00161MA1999999101141MD1210061+9999OA149901491REMSYN094AAXX  19064 04390 32670 80206 11012 21028 30114 40209 52006 8802/ 333 10005 21016 91129 91220;EQDQ01  00002PRCP99
0150043900999992000041909004+60030-043120FM-12+0019BGPC V0203301N004110120019N0100001N1+00041-00301102161ADDAA112000791GF108991081001012501021999MA1999999101221MD1210081+9999REMSYN072AAXX  19094 04390 12660 83308 10004 21030 30122 40216 52008 69902 8802/;
0150043900999992000041912004+60030-043120FM-12+0019BGPC V0200301N005710120019N0500001N1+00191-00321102281ADDAA106000791GF108991081001012501021999MA1999999101341MD1210121+9999REMSYN072AAXX  19124 04390 12684 80311 10019 21032 30134 40228 52012 69901 8802/;
0215043900999992000041918004+60030-043120FM-12+0019BGPC V0200301N002110150019N0400001N1+00241-00291102401ADDAA112000791GF106991061001017501021999KA1120M+00281KA2120N-00131MA1999999101461MD1210051+9999OA149901181REMSYN100AAXX  19184 04390 12782 60304 10024 21029 30146 40240 52005 69902 8602/ 333 10028 21013 91123 91215;
0133043900999992000041921004+60030-043120FM-12+0019BGPC V0200201N002119999999N0500001N1+00241-00231102471ADDGF106991061001999999021999MA1999999101531MD1210071+9999REMSYN066AAXX  19214 04390 42984 60204 10024 21023 30153 40247 52007 8602/;
0163043900999992000042000004+60030-043120FM-12+0019BGPC V0200601N001019999999N0200001N1+00101-00311102551ADDAA199000091GF106991061001999999061999MA1999999101611MD1210081+9999REMSYN066AAXX  20004 04390 32970 60602 10010 21031 30161 40255 52008 8606/;EQDQ01  00002PRCP99
0133043900999992000042003004+60030-043120FM-12+0019BGPC V0202901N002110120019N0150001N1-00041-00231102561ADDGF107991071001012501021999MA1999999101611MD1410001+9999REMSYN066AAXX  20034 04390 42665 72904 11004 21023 30161 40256 54000 8702/;
0205043900999992000042006004+60030-043120FM-12+0019BGPC V0203001N002112200019N0200001N1-00131-00381102521ADDAA199000091GF101991001001999999001061KA1120M+00261KA2999N-00151MA1999999101571MD1710041+9999REMSYN082AAXX  20064 04390 32970 13004 11013 21038 30157 40252 57004 80006 333 10026 21015;EQDQ01  00002PRCP99
0160043900999992000042009004+60030-043120FM-12+0019BGPC V0203001N002112200019N9999999N1-00071-00351102481ADDAA112000791GA1001+999999999GF100991001001999999001001MA1999999101531MD1710041+9999REMSYN066AAXX  20094 04390 129// 03004 11007 21035 30153 40248 57004 69902;
0173043900999992000042012004+60030-043120FM-12+0019BGPC V0203001N000512200019N9999999N1+00471-00181102411ADDAA199000091GA1001+999999999GF100991001001999999001001MA1999999101481MD1710051+9999REMSYN060AAXX  20124 04390 329// 03001 10047 21018 30148 40241 57005;EQDQ01  00002PRCP99
0118043900999992000042015004+60030-043120FM-12+0019BGPC V0200801N000519999999N9999999N1+00491-00111102301ADDAA106000791MA1999999101371MD1710111+9999REMSYN066AAXX  20154 04390 12/// /0801 10049 21011 30137 40230 57011 69901;
0215043900999992000042018004+60030-043120FM-12+0019BGPC V0202601N002612200019N0350001N1+00311-00181102171ADDAA199000091GA1001+999999999GF100991001001999999001001KA1120M+00651KA2999N-00181MA1999999101241MD1710131+9999REMSYN076AAXX  20184 04390 32981 02605 10031 21018 30124 40217 57013 333 10065 21018;EQDQ01  00002PRCP99
0133043900999992000042021004+60030-043120FM-12+0019BGPC V0201001N003112200019N0500001N1-00011-00141102141ADDGF101991011011004501001001MA1999999101201MD1710041+9999REMSYN066AAXX  20214 04390 42484 11006 11001 21014 30120 40214 57004 81100;
0133043900999992000042103004+60030-043120FM-12+0019BGPC V0200301N005110042019N0150001N1-00211-00261102361ADDGF108991081051004501999999MA1999999101411MD1210101+9999REMSYN066AAXX  21034 04390 42465 80310 11021 21026 30141 40236 52010 885//;
0220043900999992000042106004+60030-043120FM-12+0019BGPC V0200301N005710075019N0050001N1-00201-00211102371ADDAA112000791AY171061AY221061GF108991081051008001999999KA1120M+00311KA2999N-00231MA1999999101421MD1210011+9999MW1701REMSYN094AAXX  21064 04390 11550 80311 11020 21021 30142 40237 52001 69902 77072 885// 333 10031 21023;
0133043900999992000042109004+60030-043120FM-12+0019BGPC V0200201N005110120019N0150001N1-00221-00221102431ADDGF108991081001012501021999MA1999999101481MD1210061+9999REMSYN066AAXX  21094 04390 42665 80210 11022 21022 30148 40243 52006 8802/;
0144043900999992000042112004+60030-043120FM-12+0019BGPC V0200301N005710120019N0200001N1-00101-00181102481ADDAA199000021GF108991081001012501021999MA1999999101531MD1210051+9999REMSYN066AAXX  21124 04390 32670 80311 11010 21018 30153 40248 52005 8802/;
0161043900999992000042115004+60030-043120FM-12+0019BGPC V0200301N006210120019N0100001N1-00071-00141102471ADDAY171031AY271031GF108991081001012501021999MA1999999101521MD1710011+9999MW1711REMSYN072AAXX  21154 04390 41660 80312 11007 21014 30152 40247 57001 77177 8802/;
0220043900999992000042118004+60030-043120FM-12+0019BGPC V0200301N007710042019N0200001N1-00121-00161102471ADDAA112000791AY171061AY221061GF108991081061004501999999KA1120M-00051KA2999N-00241MA1999999101521MD1410001+9999MW1711REMSYN094AAXX  21184 04390 11470 80315 11012 21016 30152 40247 54000 69902 77172 886// 333 11005 21024;
0161043900999992000042121004+60030-043120FM-12+0019BGPC V0200201N006210021019N0050001N1-00121-00131102431ADDAY171031AY271031GF108991081021002501999999MA1999999101481MD1710041+9999MW1791REMSYN072AAXX  21214 04390 41350 80212 11012 21013 30148 40243 57004 77977 882//;
0178043900999992000042200004+60030-043120FM-12+0019BGPC V0200301N006210042019N0030001N1-00191-00191102401ADDAA106000191AY171061AY271061GF108991081071004501999999MA1999999101451MD1710031+9999MW1711REMSYN078AAXX  22004 04390 11430 80312 11019 21019 30145 40240 57003 69911 77177 887//;
0161043900999992000042203004+60030-043120FM-12+0019BGPC V0200201N007210075019N0010001N1-00271-00271102321ADDAY171031AY271031GF108991081071008001999999MA1999999101371MD1710081+9999MW1711REMSYN072AAXX  22034 04390 41510 80214 11027 21027 30137 40232 57008 77177 887//;
0226043900999992000042206004+60030-043120FM-12+0019BGPC V0200301N009310042019N0200001N1-00261-00261102241ADDAA112000591AY171061AY271061GF108991081071004501999999KA1120M-00091KA2120N-00291MA1999999101291MD1710081+9999MW1711REMSYN100AAXX  22064 04390 11470 80318 11026 21026 30129 40224 57008 69962 77177 887// 333 11009 21029 91127;
0188043900999992000042209004+60030-043120FM-12+0019BGPC V0200201N008710042019N0020001N1-00291-00291102191ADDAA112000791AY171031AY271031GF108991081071004501999999MA1999999101241MD1710051+9999MW1701REMSYN088AAXX  22094 04390 11420 80217 11029 21029 30124 40219 57005 69902 77077 887// 333 91130;
0171043900999992000042215004+60030-043120FM-12+0019BGPC V0200301N010310120019N0010001N1-00241-00241102171ADDAY171031AY271031GF108991081071012501999999MA1999999101221MD1710021+9999MW1731REMSYN082AAXX  22154 04390 41610 80320 11024 21024 30122 40217 57002 77377 887// 333 91133;
0226043900999992000042218004+60030-043120FM-12+0019BGPC V0200201N010310021019N0010001N1-00181-00181102131ADDAA112003091AY171061AY271061GF108991081071002501999999KA1120M-00171KA2120N-00301MA1999999101181MD1710041+9999MW1711REMSYN100AAXX  22184 04390 11310 80220 11018 21018 30118 40213 57004 60032 77177 887// 333 11017 21030 91133;
0171043900999992000042221004+60030-043120FM-12+0019BGPC V0200201N011810042019N0030001N1-00171-00171102181ADDAY171031AY271031GF108991081021004501999999MA1999999101231MD1210051+9999MW1731REMSYN082AAXX  22214 04390 41430 80223 11017 21017 30123 40218 52005 77377 882// 333 91133;
0188043900999992000042300004+60030-043120FM-12+0019BGPC V0200301N010810120019N0020001N1-00161-00161102241ADDAA106001091AY171061AY271061GF108991081001012501021999MA1999999101291MD1210061+9999MW1731REMSYN088AAXX  23004 04390 11620 80321 11016 21016 30129 40224 52006 60011 77377 8802/ 333 91135;
0111043900999992000042303004+60030-043120FM-12+0019BGPC V0200301N008219999999N9999999N1-00141+99999102281ADDMA1999999101331MD1210041+9999REMSYN070AAXX  23034 04390 46/// /0316 11014 21013 30133 40228 52004 333 91131;
0243043900999992000042306004+60030-043120FM-12+0019BGPC V0200201N009810300019N0020001N1-00141-00141102321ADDAA112002091AY171061AY271061GF108991031071004501021999KA1120M-00121KA2120N-00191MA1999999101371MD1210041+9999MW1711OA149901601REMSYN106AAXX  23064 04390 11420 80219 11014 21014 30137 40232 52004 60022 77177 8372/ 333 11012 21019 91131 91029;
0111043900999992000042309004+60030-043120FM-12+0019BGPC V0200301N008719999999N9999999N1-00111-00111102451ADDMA1999999101501MD1210131+9999REMSYN070AAXX  23094 04390 46/// /0317 11011 21011 30150 40245 52013 333 91129;
0188043900999992000042312004+60030-043120FM-12+0019BGPC V0200301N006710075019N0050001N1-00061-00061102561ADDAA106001091AY171061AY271061GF108991081021008001999999MA1999999101611MD1210111+9999MW1711REMSYN088AAXX  23124 04390 11550 80313 11006 21006 30161 40256 52011 60011 77177 882// 333 91129;
0171043900999992000042315004+60030-043120FM-12+0019BGPC V0200301N007210120019N0100001N1+00001+00001102671ADDAY171031AY271031GF107991071001012501021999MA1999999101721MD1210111+9999MW1731REMSYN082AAXX  23154 04390 41660 70314 10000 20000 30172 40267 52011 77377 8702/ 333 91124;
0226043900999992000042318004+60030-043120FM-12+0019BGPC V0200201N004610075019N0250001N1+00091+00001102721ADDAA112001091AY171061AY221061GF106991061021008001999999KA1120M+00111KA2120N-00161MA1999999101781MD1210061+9999MW1001REMSYN100AAXX  23184 04390 11575 60209 10009 20000 30178 40272 52006 60012 70072 862// 333 10011 21016 91124;
0133043900999992000042321004+60030-043120FM-12+0019BGPC V0203401N001512200019N0500001N1+00171+00151102771ADDGF104991041021012501999999MA1999999101831MD1210051+9999REMSYN066AAXX  23214 04390 42684 43403 10017 20015 30183 40277 52005 842//;
0144043900999992000042400004+60030-043120FM-12+0019BGPC V0200401N001012200019N0400001N1+00081+00081102881ADDAA199000021GF101991011041017501999999MA1999999101931MD1210101+9999REMSYN066AAXX  24004 04390 32782 10402 10008 20008 30193 40288 52010 814//;
0143043900999992000042403004+60030-043120FM-12+0019BGPC V0203001N001512200019N0200001N1-00061-00131102851ADDGA1001+999999999GF100991001001999999001001MA1999999101901MD1710031+9999REMSYN060AAXX  24034 04390 42970 03003 11006 21013 30190 40285 57003;
0205043900999992000042406004+60030-043120FM-12+0019BGPC V0203001N001510075019N0100001N1-00131-00241102841ADDAA199000091GF106991061021008001999999KA1120M+00181KA2999N-00131MA1999999101891MD1710011+9999REMSYN082AAXX  24064 04390 32560 63003 11013 21024 30189 40284 57001 862// 333 10018 21013;EQDQ01  00002PRCP99
0161043900999992000042409004+60030-043120FM-12+0019BGPC V0203001N001510012019N0020001N1-00191-00191102851ADDAY171031AY221031GF108991081061001501999999MA1999999101891MD1410001+9999MW1791REMSYN072AAXX  24094 04390 41220 83003 11019 21019 30189 40285 54000 77972 886//;
0161043900999992000042415004+60030-043120FM-12+0019BGPC V0200901N001010012019N0200001N1+00081-00011102801ADDAY171031AY221031GF108991081071001501999999MA1999999101851MD1710041+9999MW1701REMSYN072AAXX  24154 04390 41270 80902 10008 21001 30185 40280 57004 77072 887//;
0220043900999992000042418004+60030-043120FM-12+0019BGPC V0200901N001010042019N0010001N1-00021-00051102701ADDAA112004191AY171061AY271061GF108991081071004501999999KA1120M+00161KA2999N-00201MA1999999101751MD1710101+9999MW1731REMSYN094AAXX  24184 04390 11410 80902 11002 21005 30175 40270 57010 60042 77377 887// 333 10016 21020;
0178043900999992000042421004+60030-043120FM-12+0019BGPC V0200701N001010042019N0010001N1-00121-00131102651ADDAA112000791AY171031AY271031GF108991081061004501999999MA1999999101701MD1710051+9999MW1771REMSYN078AAXX  24214 04390 11410 80702 11012 21013 30170 40265 57005 69902 77777 886//;
0178043900999992000042500004+60030-043120FM-12+0019BGPC V0209999C000010042019N0020001N1-00161-00161102521ADDAA106008991AY171061AY271061GF108991081071004501999999MA1999999101571MD1710131+9999MW1751REMSYN078AAXX  25004 04390 11420 80000 11016 21016 30157 40252 57013 60091 77577 887//;
0161043900999992000042503004+60030-043120FM-12+0019BGPC V0209999C000010021019N0020001N1-00161-00161102371ADDAY171031AY271031GF108991081061002501999999MA1999999101421MD1710151+9999MW1771REMSYN072AAXX  25034 04390 41320 80000 11016 21016 30142 40237 57015 77777 886//;
0220043900999992000042506004+60030-043120FM-12+0019BGPC V0200301N005710042019N0007001N1-00241-00241102131ADDAA112020191AY171061AY271061GF108991081071004501999999KA1120M-00011KA2999N-00261MA1999999101181MD1710241+9999MW1731REMSYN094AAXX  25064 04390 11407 80311 11024 21024 30118 40213 57024 60202 77377 887// 333 11001 21026;
0171043900999992000042509004+60030-043120FM-12+0019BGPC V0200201N011810042019N0001001N1-00281-00281101931ADDAY171031AY231031GF108991081071004501999999MA1999999100981MD1710201+9999MW1731REMSYN082AAXX  25094 04390 41401 80223 11028 21028 30098 40193 57020 77373 887// 333 91135;
0205043900999992000042512004+60030-043120FM-12+0019BGPC V0200301N013910021019N0002001N1-00281-00291101591ADDAA106008991AY171061AY271061GF108991081071002501999999MA1999999100641MD1710341+9999MW1731OA149902111REMSYN094AAXX  25124 04390 11302 80327 11028 21029 30064 40159 57034 60091 77377 887// 333 91141 91038;
0188043900999992000042515004+60030-043120FM-12+0019BGPC V0203601N011810021019N0001001N1-00211-00211101141ADDAY171031AY231031GF108991081071002501999999MA1999999100201MD1710441+9999MW1731OA149902371REMSYN088AAXX  25154 04390 41301 83623 11021 21021 30020 40114 57044 77373 887// 333 91146 91042;
0249043900999992000042518004+60030-043120FM-12+0019BGPC V0200101N010810042019N0005001N1-00101-00101100701ADDAA112015091AY171061AY271061GF108991081071004501999999KA1120M-00091KA2120N-00301MA1999999099771MD1710431+9999MW1731OA149902421REMSYN112AAXX  25184 04390 11405 80121 11010 21010 39977 40070 57043 60152 77377 887// 333 11009 21030 91147 91035 91234;
0205043900999992000042521004+60030-043120FM-12+0019BGPC V0200301N012910042019N0010001N1-00071-00071100501ADDAA112000791AY171031AY231031GF108991081071004501999999MA1999999099571MD1710201+9999MW1001OA149902521REMSYN094AAXX  25214 04390 11410 80325 11007 21007 39957 40050 57020 69902 70073 887// 333 91149 91037;
0205043900999992000042600004+60030-043120FM-12+0019BGPC V0200301N005110042019N0050001N1-00021-00021100271ADDAA106005191AY171061AY271061GF108991081071004501999999MA1999999099341MD1710231+9999MW1771OA149902521REMSYN094AAXX  26004 04390 11450 80310 11002 21002 39934 40027 57023 60051 77777 887// 333 91149 91230;
0180043900999992000042603004+60030-043120FM-12+0019BGPC V0200101N008210042019N0050001N1+00121-01442100061ADDAY161031AY261031GF108991081071004501999999MA1999999099141MD1710201+9999MW1001REMSYN072AAXX  26034 04390 41450 80116 10012 21144 39914 40006 57020 70066 887//;EQDQ01-001443ATOD  
0166043900999992000042606004+60030-043120FM-12+0019BGPC V0200501N004619999999N9999999N1+00051-00961099821ADDKA1120M+00131KA2120N-00131MA1999999098901MD1710241+9999OA149901491REMSYN088AAXX  26064 04390 46/// /0509 10005 21096 39890 49982 57024 333 10013 21013 91129 91220;
0161043900999992000042609004+60030-043120FM-12+0019BGPC V0200401N005110042019N0020001N1+00021-00481099821ADDAY171031AY271031GF108991081071004501999999MA1999999098901MD1410001+9999MW1731REMSYN072AAXX  26094 04390 41420 80410 10002 21048 39890 49982 54000 77377 887//;
0150043900999992000042612004+60030-043120FM-12+0019BGPC V0200401N005110042019N0150001N1+00141+00071099731ADDAA106005191GF108991081071004501999999MA1999999098811MD1710091+9999REMSYN072AAXX  26124 04390 12465 80410 10014 20007 39881 49973 57009 60051 887//;
0188043900999992000042615004+60030-043120FM-12+0019BGPC V0200301N008710042019N0050001N1+00161-00021099611ADDAY171031AY261031GF108991081071004501999999MA1999999098701MD1710111+9999MW1611OA149901541REMSYN088AAXX  26154 04390 41450 80317 10016 21002 39870 49961 57011 76176 887// 333 91130 91030;
0226043900999992000042618004+60030-043120FM-12+0019BGPC V0200201N008710042019N0100001N1+00111+00071099491ADDAA112005191AY161061AY221061GF108991081071004501999999KA1120M+00221KA2120N-00021MA1999999098581MD1710121+9999MW1611REMSYN100AAXX  26184 04390 11460 80217 10011 20007 39858 49949 57012 60052 76162 887// 333 10022 21002 91133;
0205043900999992000042621004+60030-043120FM-12+0019BGPC V0203201N002610042019N0050001N1+00031+00001099341ADDAA112000791AY171031AY271031GF108991081071004501999999MA1999999098421MD1710161+9999MW1731OA149901341REMSYN094AAXX  26214 04390 11450 83205 10003 20000 39842 49934 57016 69902 77377 887// 333 91126 91217;
0188043900999992000042700004+60030-043120FM-12+0019BGPC V0200201N004110012019N0020001N1+00011+00011099321ADDAA106003091AY171061AY271061GF108991081071001501999999MA1999999098401MD1710021+9999MW1711REMSYN088AAXX  27004 04390 11220 80208 10001 20001 39840 49932 57002 60031 77177 887// 333 91126;
0161043900999992000042703004+60030-043120FM-12+0019BGPC V0203001N002610042019N0010001N1-00031-00031099191ADDAY171031AY271031GF108991081071004501999999MA1999999098271MD1710131+9999MW1711REMSYN072AAXX  27034 04390 41410 83005 11003 21003 39827 49919 57013 77177 887//;
0220043900999992000042706004+60030-043120FM-12+0019BGPC V0203101N004110042019N0070001N1+00111+00071099061ADDAA112005191AY171061AY261061GF108991081071004501999999KA1120M+00151KA2999N-00041MA1999999098151MD1710121+9999MW1681REMSYN094AAXX  27064 04390 11457 83108 10011 20007 39815 49906 57012 60052 76876 887// 333 10015 21004;
0133043900999992000042709004+60030-043120FM-12+0019BGPC V0201201N002119999999N0300001N1+00201+00051099051ADDGF108991081001999999021999MA1999999098141MD1710011+9999REMSYN066AAXX  27094 04390 42980 81204 10020 20005 39814 49905 57001 8802/;
0188043900999992000042712004+60030-043120FM-12+0019BGPC V0202901N003610042019N0150001N1+00091+00051099101ADDAA106000191AY161061AY261061GF108991081061004501999999MA1999999098191MD1210051+9999MW1501REMSYN088AAXX  27124 04390 11465 82907 10009 20005 39819 49910 52005 69911 75066 886// 333 91120;
0161043900999992000042715004+60030-043120FM-12+0019BGPC V0203001N002110042019N0200001N1+00121+00061099171ADDAY161031AY221031GF108991081061004501999999MA1999999098261MD1210071+9999MW1511REMSYN072AAXX  27154 04390 41470 83004 10012 20006 39826 49917 52007 75162 886//;
0220043900999992000042718004+60030-043120FM-12+0019BGPC V0200101N001010042019N0200001N1+00231+00141099331ADDAA112000591AY161061AY261061GF108991081061004501999999KA1120M+00311KA2999N+00061MA1999999098421MD1210161+9999MW1511REMSYN094AAXX  27184 04390 11470 80102 10023 20014 39842 49933 52016 69952 75166 886// 333 10031 20006;
0178043900999992000042721004+60030-043120FM-12+0019BGPC V0202901N002610042019N0100001N1+00111+00101099531ADDAA112000791AY161031AY261031GF108991081071004501999999MA1999999098621MD1210201+9999MW1611REMSYN078AAXX  27214 04390 11460 82905 10011 20010 39862 49953 52020 69902 76166 887//;
0178043900999992000042800004+60030-043120FM-12+0019BGPC V0202901N004610120019N0200001N1+00111+00081099711ADDAA106002091AY161061AY261061GF108991081001012501021999MA1999999098791MD1210171+9999MW1611REMSYN078AAXX  28004 04390 11670 82909 10011 20008 39879 49971 52017 60021 76166 8802/;
0161043900999992000042803004+60030-043120FM-12+0019BGPC V0203001N004110042019N0100001N1+00131+00061099761ADDAY161031AY201031GF108991081051004501999999MA1999999098841MD1210051+9999MW1001REMSYN072AAXX  28034 04390 41460 83008 10013 20006 39884 49976 52005 70060 885//;
0220043900999992000042806004+60030-043120FM-12+0019BGPC V0202901N005110042019N0150001N1+00111+00011099781ADDAA112003091AY161061AY221061GF108991081061004501999999KA1120M+00321KA2999N+00041MA1999999098861MD1210021+9999MW1001REMSYN094AAXX  28064 04390 11465 82910 10011 20001 39886 49978 52002 60032 70062 886// 333 10032 20004;
0133043900999992000042809004+60030-043120FM-12+0019BGPC V0202901N004119999999N0500001N1+00111-00041099741ADDGF108991081001999999021999MA1999999098821MD1710041+9999REMSYN066AAXX  28094 04390 42984 82908 10011 21004 39882 49974 57004 8802/;
0178043900999992000042812004+60030-043120FM-12+0019BGPC V0202901N006710210019N0500001N1+00111-00101099711ADDAA106000191AY171061AY221061GF108991081001022501021999MA1999999098791MD1710031+9999MW1001REMSYN078AAXX  28124 04390 11884 82913 10011 21010 39879 49971 57003 69921 70072 8802/;
0150043900999992000042815004+60030-043120FM-12+0019BGPC V0202701N00721030001CN0400001N1+00291-00151099791ADDAA106000791GF106991011021004501071999MA1999999098881MD1210091+9999REMSYN072AAXX  28154 04390 12482 62714 10029 21015 39888 49979 52009 69901 8127/;
0215043900999992000042818004+60030-043120FM-12+0019BGPC V0202701N002610210019N0300001N1+00241+00111100111ADDAA112000191GF107991071001022501071999KA1120M+00341KA2120N+00061MA1999999099191MD1210311+9999OA149901491REMSYN100AAXX  28184 04390 12880 72705 10024 20011 39919 40011 52031 69922 8707/ 333 10034 20006 91129 91222;
0150043900999992000042821004+60030-043120FM-12+0019BGPC V0202601N005719999999N0400001N1+00251-00131100251ADDAA112000791GF106991061001012501071999MA1999999099331MD1210141+9999REMSYN072AAXX  28214 04390 12682 62611 10025 21013 39933 40025 52014 69902 8607/;
0163043900999992000042900004+60030-043120FM-12+0019BGPC V0202901N009319999999N0200001N1+00131-00211100381ADDAA199000091GF105991051001999999031001MA1999999099461MD1210131+9999REMSYN066AAXX  29004 04390 32970 52918 10013 21021 39946 40038 52013 85030;EQDQ01  00002PRCP99
0143043900999992000042903004+60030-043120FM-12+0019BGPC V0202901N003610042019N0100001N1+00051-00131100431ADDGF105991051051004501999999MA1999999099511MD1210051+9999REMSYN076AAXX  29034 04390 42460 52907 10005 21013 39951 40043 52005 855// 333 91219;
0220043900999992000042906004+60030-043120FM-12+0019BGPC V0203001N006210021019N0050001N1+00011-00031100351ADDAA112000191AY171061AY221061GF108991081071002501999999KA1120M+00291KA2999N-00031MA1999999099421MD1710091+9999MW1711REMSYN094AAXX  29064 04390 11350 83012 10001 21003 39942 40035 57009 69922 77172 887// 333 10029 21003;
0161043900999992000042909004+60030-043120FM-12+0019BGPC V0203001N004610120019N0040001N1-00061-00061100341ADDAY171031AY271031GF108991081001012501021999MA1999999099411MD1710011+9999MW1711REMSYN072AAXX  29094 04390 41640 83009 11006 21006 39941 40034 57001 77177 8802/;
0150043900999992000042912004+60030-043120FM-12+0019BGPC V0202801N004610120019N0200001N1+00161-00051100291ADDAA106001091GF108991081001012501021999MA1999999099371MD1710041+9999REMSYN072AAXX  29124 04390 12670 82809 10016 21005 39937 40029 57004 69991 8802/;
0133043900999992000042915004+60030-043120FM-12+0019BGPC V0203001N004612200019N0500001N1+00181-00061100261ADDGF102991021001999999031001MA1999999099341MD1710031+9999REMSYN066AAXX  29154 04390 42984 23009 10018 21006 39934 40026 57003 82030;
0192043900999992000042918004+60030-043120FM-12+0019BGPC V0202901N003619999999N0400001N1+00191+00001100291ADDAA112001091GF107991071001999999011999KA1120M+00311KA2999N-00081MA1999999099371MD1210031+9999REMSYN088AAXX  29184 04390 12982 72907 10019 21000 39937 40029 52003 69992 8701/ 333 10031 21008;
0150043900999992000042921004+60030-043120FM-12+0019BGPC V0203201N000510120019N0500001N1+00211+00031100411ADDAA112000791GF108991081001012501021999MA1999999099491MD1210121+9999REMSYN072AAXX  29214 04390 12684 83201 10021 20003 39949 40041 52012 69902 8802/;
0178043900999992000043000004+60030-043120FM-12+0019BGPC V0202801N001510120019N0200001N1+00111-00011100591ADDAA106000791AY151061AY221061GF108991081001012501021999MA1999999099671MD1210181+9999MW1501REMSYN078AAXX  30004 04390 11670 82803 10011 21001 39967 40059 52018 69901 75052 8802/;
0161043900999992000043003004+60030-043120FM-12+0019BGPC V0202401N004619999999N0100001N1+00091+00091100711ADDAY171031AY221031GF108991081001999999021999MA1999999099781MD1210111+9999MW1701REMSYN072AAXX  30034 04390 41960 82409 10009 20009 39978 40071 52011 77072 8802/;
0220043900999992000043006004+60030-043120FM-12+0019BGPC V0202801N002110120019N0100001N1+00141-00041100831ADDAA112000391AY171061AY221061GF108991081001012501021999KA1120M+00311KA2999N+00011MA1999999099901MD1210121+9999MW1681REMSYN094AAXX  30064 04390 11660 82804 10014 21004 39990 40083 52012 69932 76872 8802/ 333 10031 20001;
0133043900999992000043009004+60030-043120FM-12+0019BGPC V0201701N001510300019N0500001N1+00051+00021101021ADDGF108991021061004501021999MA1999999100091MD1210191+9999REMSYN066AAXX  30094 04390 42484 81703 10005 20002 30009 40102 52019 8262/;
0150043900999992000043012004+60030-043120FM-12+0019BGPC V0202601N001010300019N0250001N1+00311+00081101191ADDAA106000791GF105991031061002501031999MA1999999100271MD1210181+9999REMSYN072AAXX  30124 04390 12375 52602 10031 20008 30027 40119 52018 69901 8363/;
0133043900999992000043015004+60030-043120FM-12+0019BGPC V0201601N003610150019N0500001N1+00241+00011101341ADDGF106991061001017501021999MA1999999100411MD1210141+9999REMSYN066AAXX  30154 04390 42784 61607 10024 20001 30041 40134 52014 8602/;
0196043900999992000043018004+60030-043120FM-12+0019BGPC V0201801N001012200019N0400001N1+00441+00001101381ADDAA199000021GA1001+999999999GF100991001001999999001001KA1120M+00441KA2999N-00021MA1999999100461MD1210051+9999REMSYN076AAXX  30184 04390 32982 01802 10044 21000 30046 40138 52005 333 10044 21002;
0118043900999992000043021004+60030-043120FM-12+0019BGPC V0202901N002619999999N9999999N1+00241-00021101461ADDAA112000791MA1999999100531MD1210071+9999REMSYN066AAXX  30214 04390 12/// /2905 10024 21002 30053 40146 52007 69902;
0128043900999992000050100004+60030-043120FM-12+0019BGPC V0203001N003119999999N9999999N1+00051-00091101541ADDAA106000791MA1999999100611MD1210081+9999REMSYN076AAXX  01004 04390 12/// /3006 10005 21009 30061 40154 52008 69901 333 91116;
0143043900999992000050103004+60030-043120FM-12+0019BGPC V0202401N003112200019N9999999N1+00001-00161101571ADDGA1001+999999999GF100991001001999999001001MA1999999100631MD1210021+9999REMSYN060AAXX  01034 04390 429// 02406 10000 21016 30063 40157 52002;
0205043900999992000050106004+60030-043120FM-12+0019BGPC V0202601N001019999999N0200001N1-00041-00201101541ADDAA199000091GF108991081001999999011999KA1120M+00581KA2999N-00071MA1999999100601MD1710031+9999REMSYN082AAXX  01064 04390 32970 82602 11004 21020 30060 40154 57003 8801/ 333 10058 21007;EQDQ01  00002PRCP99
0133043900999992000050109004+60030-043120FM-12+0019BGPC V0202001N001019999999N0300001N1-00191-00301101571ADDGF108991081001999999011999MA1999999100631MD1210031+9999REMSYN066AAXX  01094 04390 42980 82002 11019 21030 30063 40157 52003 8801/;
0150043900999992000050112004+60030-043120FM-12+0019BGPC V0203401N001019999999N0250001N1+00101-00081101531ADDAA106000791GF108991081001999999011999MA1999999100601MD1710031+9999REMSYN072AAXX  01124 04390 12975 83402 10010 21008 30060 40153 57003 69901 8801/;
0133043900999992000050115004+60030-043120FM-12+0019BGPC V0201701N004610300019N0250001N1-00031-00111101601ADDGF108991031021004501011999MA1999999100661MD1210061+9999REMSYN066AAXX  01154 04390 42475 81709 11003 21011 30066 40160 52006 8321/;
0220043900999992000050118004+60030-043120FM-12+0019BGPC V0200201N002110210019N0040001N1+00031-00071101381ADDAA112000791AY171061AY221061GF108991081001022501021999KA1120M+00271KA2999N-00311MA1999999100451MD1710211+9999MW1771REMSYN094AAXX  01184 04390 11840 80204 10003 21007 30045 40138 57021 69902 77772 8802/ 333 10027 21031;
0161043900999992000050121004+60030-043120FM-12+0019BGPC V0200301N008710120019N0010001N1-00101-00101101191ADDAY171031AY271031GF108991081001012501021999MA1999999100251MD1710201+9999MW1731REMSYN072AAXX  01214 04390 41610 80317 11010 21010 30025 40119 57020 77377 8802/;
0205043900999992000050200004+60030-043120FM-12+0019BGPC V0200201N014910120019N0005001N1-00061-00061101001ADDAA106002091AY171061AY271061GF108991081001012501021999MA1999999100071MD1710181+9999MW1731OA149902111REMSYN094AAXX  02004 04390 11605 80229 11006 21006 30007 40100 57018 60021 77377 8802/ 333 91141 91041;
0188043900999992000050203004+60030-043120FM-12+0019BGPC V0200201N017010120019N0010001N1-00071-00071100671ADDAY171031AY271031GF108991081001012501021999MA1999999099741MD1710331+9999MW1731OA149902471REMSYN088AAXX  02034 04390 41610 80233 11007 21007 39974 40067 57033 77377 8802/ 333 91148 91047;
0249043900999992000050206004+60030-043120FM-12+0019BGPC V0200301N010310120019N0100001N1-00031-00031100561ADDAA112004191AY171061AY221061GF108991081001012501021999KA1120M+00051KA2120N-00111MA1999999099631MD1710111+9999MW1001OA149902471REMSYN112AAXX  02064 04390 11660 80320 11003 21003 39963 40056 57011 60042 70072 8802/ 333 10005 21011 91148 91030 91234;
0171043900999992000050209004+60030-043120FM-12+0019BGPC V0200201N013910042019N0050001N1+00111+00111100751ADDAY171031AY271031GF108991081071004501999999MA1999999099821MD1210191+9999MW1681REMSYN082AAXX  02094 04390 41450 80227 10011 20011 39982 40075 52019 76877 887// 333 91146;
0205043900999992000050212004+60030-043120FM-12+0019BGPC V0200201N013410120019N0050001N1+00251+00211100811ADDAA106000791AY161061AY261061GF108991081001012501021999MA1999999099891MD1210071+9999MW1581OA149902371REMSYN094AAXX  02124 04390 11650 80226 10025 20021 39989 40081 52007 69901 75866 8802/ 333 91146 91038;
0188043900999992000050215004+60030-043120FM-12+0019BGPC V0200201N014910075019N0050001N1+00121+00111100551ADDAY161031AY261031GF108991081001008001021999MA1999999099631MD1710261+9999MW1611OA149902421REMSYN088AAXX  02154 04390 41550 80229 10012 20011 39963 40055 57026 76166 8802/ 333 91147 91039;
0243043900999992000050218004+60030-043120FM-12+0019BGPC V0200201N014910120019N0020001N1+00071+00061100261ADDAA112002091AY171061AY271061GF108991081001012501021999KA1120M+00271KA2120N-00051MA1999999099341MD1710291+9999MW1691OA149902421REMSYN106AAXX  02184 04390 11620 80229 10007 20006 39934 40026 57029 60022 76977 8802/ 333 10027 21005 91147 91042;
0188043900999992000050221004+60030-043120FM-12+0019BGPC V0200301N018010120019N0020001N1+00091+00091099761ADDAY171031AY271031GF108991081001012501021999MA1999999098841MD1710501+9999MW1691OA149902781REMSYN088AAXX  02214 04390 41620 80335 10009 20009 39884 49976 57050 76977 8802/ 333 91154 91049;
0205043900999992000050300004+60030-043120FM-12+0019BGPC V0203001N004610120019N0050001N1+00031+00031099581ADDAA112005191AY171061AY271061GF108991081001012501021999MA1999999098661MD1710181+9999MW1711OA149902781REMSYN094AAXX  03004 04390 11650 83009 10003 20003 39866 49958 57018 60052 77177 8802/ 333 91154 91237;
0188043900999992000050303004+60030-043120FM-12+0019BGPC V0202701N008210120019N0020001N1+00281+00121099801ADDAY171031AY261031GF108991081001012501021999MA1999999098891MD1210231+9999MW1631OA149901801REMSYN088AAXX  03034 04390 41620 82716 10028 20012 39889 49980 52023 76376 8802/ 333 91135 91227;
0215043900999992000050306004+60030-043120FM-12+0019BGPC V0202301N008219999999N0200001N1+00321-00061099991ADDAA112006191GF106991041001999999041061KA1120M+00401KA2120N-00031MA1999999099081MD1210191+9999OA149901801REMSYN100AAXX  03064 04390 12970 62316 10032 21006 39908 49999 52019 60062 84046 333 10040 21003 91135 91227;
0133043900999992000050309004+60030-043120FM-12+0019BGPC V0202301N009310750019N0200001N1+00371-00151100281ADDGF106991031051012501001081MA1999999099371MD1210291+9999REMSYN066AAXX  03094 04390 42670 62318 10037 21015 39937 40028 52029 83508;
0160043900999992000050312004+60030-043120FM-12+0019BGPC V0202301N008212200019N0250001N1+00261-00311100821ADDAA106000191GF103991031011008001999999MA1999999099901MD1210531+9999REMSYN082AAXX  03124 04390 12575 32316 10026 21031 39990 40082 52053 69911 831// 333 91131;
0143043900999992000050315004+60030-043120FM-12+0019BGPC V0202001N006212200019N0400001N1+00271-00521101171ADDGF101991011001999999041999MA1999999100251MD1210351+9999REMSYN076AAXX  03154 04390 42982 12012 10027 21052 30025 40117 52035 8104/ 333 91130;
0211043900999992000050318004+60030-043120FM-12+0019BGPC V0202301N006212200019N0250001N1+00281-00581101271ADDAA199000091GF102991001001999999001061KA1120M+00421KA2120N+00221MA1999999100351MD1210101+9999REMSYN088AAXX  03184 04390 32975 22312 10028 21058 30035 40127 52010 80006 333 10042 20022 91130;EQDQ01  00002PRCP99
0143043900999992000050321004+60030-043120FM-12+0019BGPC V0202401N006712200019N0500001N1+00181-00631101561ADDGF102991011001999999041061MA1999999100631MD1210281+9999REMSYN076AAXX  03214 04390 42984 22413 10018 21063 30063 40156 52028 81046 333 91123;
0160043900999992000050400004+60030-043120FM-12+0019BGPC V0202301N007212200019N0250001N1+00011-00691101511ADDAA106000791GF101991011001022501041999MA1999999100571MD1710061+9999REMSYN082AAXX  04004 04390 12875 12314 10001 21069 30057 40151 57006 69901 8104/ 333 91123;
0211043900999992000050406004+60030-043120FM-12+0019BGPC V0202201N003110750019N0200001N1-00011-00551101041ADDAA199000091GF106991031001017501021091KA1120M+00341KA2120N-00041MA1999999100111MD1710301+9999REMSYN088AAXX  04064 04390 32770 62206 11001 21055 30011 40104 57030 83029 333 10034 21004 91220;EQDQ01  00002PRCP99
0161043900999992000050409004+60030-043120FM-12+0019BGPC V0203101N001510120019N0020001N1-00101-00141100701ADDAY171031AY221031GF108991081001012501021999MA1999999099771MD1710341+9999MW1711REMSYN072AAXX  04094 04390 41620 83103 11010 21014 39977 40070 57034 77172 8802/;
0205043900999992000050412004+60030-043120FM-12+0019BGPC V0200301N009810042019N0005001N1-00021-00021100191ADDAA106004191AY171061AY271061GF108991081071004501999999MA1999999099271MD1710501+9999MW1731OA149901491REMSYN094AAXX  04124 04390 11405 80319 11002 21002 39927 40019 57050 60041 77377 887// 333 91129 91029;
0188043900999992000050415004+60030-043120FM-12+0019BGPC V0200301N012310042019N0003001N1-00031-00031099711ADDAY171031AY271031GF108991081071004501999999MA1999999098791MD1710481+9999MW1731OA149901851REMSYN088AAXX  04154 04390 41403 80324 11003 21003 39879 49971 57048 77377 887// 333 91136 91036;
0226043900999992000050418004+60030-043120FM-12+0019BGPC V0200201N008710042019N0004001N1+00011+00011099451ADDAA112008991AY171061AY271061GF108991081071004501999999KA1120M+00051KA2120N-00161MA1999999098531MD1710261+9999MW1731REMSYN100AAXX  04184 04390 11404 80217 10001 20001 39853 49945 57026 60092 77377 887// 333 10005 21016 91139;
0171043900999992000050421004+60030-043120FM-12+0019BGPC V0203401N007710042019N0080001N1+00051+00051099231ADDAY171031AY271031GF108991081071004501999999MA1999999098321MD1710211+9999MW1711REMSYN082AAXX  04214 04390 41458 83415 10005 20005 39832 49923 57021 77177 887// 333 91126;
0205043900999992000050500004+60030-043120FM-12+0019BGPC V0202601N002610120019N0200001N1+00111+00111099431ADDAA106004191AY171061AY221061GF108991081001012501021999MA1999999098521MD1210201+9999MW1001OA149901341REMSYN094AAXX  05004 04390 11670 82605 10011 20011 39852 49943 52020 60041 70072 8802/ 333 91126 91217;
0133043900999992000050503004+60030-043120FM-12+0019BGPC V0202801N001012200019N0050001N1+00151+00061099661ADDGF103991001001999999001021MA1999999098751MD1210231+9999REMSYN066AAXX  05034 04390 42950 32802 10015 20006 39875 49966 52023 80002;
0192043900999992000050506004+60030-043120FM-12+0019BGPC V0203001N002110210019N0250001N1+00151-00091099801ADDAA112004191GF108991081001022501021999KA1120M+00261KA2999N-00031MA1999999098881MD1210131+9999REMSYN088AAXX  05064 04390 12875 83004 10015 21009 39888 49980 52013 60042 8802/ 333 10026 21003;
0133043900999992000050509004+60030-043120FM-12+0019BGPC V0202801N008712200019N0250001N1+00041-00261099811ADDGF103991011031008001041999MA1999999098891MD1210011+9999REMSYN066AAXX  05094 04390 42575 32817 10004 21026 39889 49981 52001 8134/;
0173043900999992000050512004+60030-043120FM-12+0019BGPC V0202801N010312200019N0250001N1+00021-00371099821ADDAA199000091GF103991031041012501999999MA1999999098901MD1210011+9999REMSYN076AAXX  05124 04390 32675 32820 10002 21037 39890 49982 52001 834// 333 91128;EQDQ01  00002PRCP99
0176043900999992000050515004+60030-043120FM-12+0019BGPC V0202601N007712200019N0400001N1+00111-00581099851ADDGA1001+999999999GF100991001001999999001001MA1999999098931MD1210031+9999OA149901541REMSYN082AAXX  05154 04390 42982 02615 10011 21058 39893 49985 52003 333 91130 91028 91226;
0228043900999992000050518004+60030-043120FM-12+0019BGPC V0200301N003112200019N0500001N1+00261-00581099771ADDAA199000091GF101991011031008001999999KA1120M+00261KA2120N+00021MA1999999098861MD1710071+9999OA149901961REMSYN094AAXX  05184 04390 32584 10306 10026 21058 39886 49977 57007 813// 333 10026 20002 91138 91228;EQDQ01  00002PRCP99
0176043900999992000050521004+60030-043120FM-12+0019BGPC V0202901N008712200019N0500001N1+00101-00461099851ADDGA1001+999999999GF100991001001999999001001MA1999999098931MD1210071+9999OA149901801REMSYN082AAXX  05214 04390 42984 02917 10010 21046 39893 49985 52007 333 91135 91027 91228;
0141043900999992000050600004+60030-043120FM-12+0019BGPC V0202901N009319999999N9999999N1+00021-00461100041ADDAA199000091MA1999999099121MD1210191+9999REMSYN070AAXX  06004 04390 32/// /2918 10002 21046 39912 40004 52019 333 91135;EQDQ01  00002PRCP99
0111043900999992000050603004+60030-043120FM-12+0019BGPC V0202901N008219999999N9999999N1-00061-00501100121ADDMA1999999099191MD1210071+9999REMSYN070AAXX  06034 04390 46/// /2916 11006 21050 39919 40012 52007 333 91117;
0197043900999992000050606004+60030-043120FM-12+0019BGPC V0203001N004610120019N0500001N1-00121-00421100191ADDAA199000091GF107991071001012501021999KA1120M+00261MA1999999099261MD1210071+9999REMSYN087AAXX  06064 04390 32684 73009 11012 21042 39926 40019 52007 8702/ 333 10026 2101 91117;EQDQ01  00002PRCP99
0133043900999992000050609004+60030-043120FM-12+0019BGPC V0203001N002610075019N0200001N1-00151-00351100271ADDGF108991081051008001999999MA1999999099341MD1210081+9999REMSYN066AAXX  06094 04390 42570 83005 11015 21035 39934 40027 52008 885//;
0163043900999992000050612004+60030-043120FM-12+0019BGPC V0203001N002610120019N0500001N1-00061-00301100331ADDAA199000091GF107991071051012501999999MA1999999099401MD1210061+9999REMSYN066AAXX  06124 04390 32684 73005 11006 21030 39940 40033 52006 875//;EQDQ01  00002PRCP99
0161043900999992000050615004+60030-043120FM-12+0019BGPC V0200901N002110300019N0200001N1+00051-00021100321ADDAY121031AY221031GF108991041061004501021999MA1999999099401MD1410001+9999MW1701REMSYN072AAXX  06154 04390 41470 80904 10005 21002 39940 40032 54000 77022 8462/;
0220043900999992000050618004+60030-043120FM-12+0019BGPC V0200501N004110120019N0050001N1-00021-00021100311ADDAA112000791AY171061AY221061GF108991081001012501021999KA1120M+00301KA2999N-00161MA1999999099381MD1710021+9999MW1701REMSYN094AAXX  06184 04390 11650 80508 11002 21002 39938 40031 57002 69902 77072 8802/ 333 10030 21016;
0161043900999992000050621004+60030-043120FM-12+0019BGPC V0200301N004610120019N0060001N1+00011-00071100171ADDAY181031AY271031GF108991081001012501021999MA1999999099251MD1710131+9999MW1711REMSYN072AAXX  06214 04390 41656 80309 10001 21007 39925 40017 57013 77187 8802/;
0205043900999992000050700004+60030-043120FM-12+0019BGPC V0200301N010310120019N0020001N1-00021-00021099931ADDAA106000191AY171061AY271061GF108991081001012501021999MA1999999099011MD1710241+9999MW1711OA149901701REMSYN094AAXX  07004 04390 11620 80320 11002 21002 39901 49993 57024 69911 77177 8802/ 333 91133 91033;
0188043900999992000050703004+60030-043120FM-12+0019BGPC V0200301N009310120019N0020001N1-00041-00041099761ADDAY171031AY271031GF108991081001012501021999MA1999999098841MD1710171+9999MW1731OA149901961REMSYN088AAXX  07034 04390 41620 80318 11004 21004 39884 49976 57017 77377 8802/ 333 91138 91028;
0243043900999992000050706004+60030-043120FM-12+0019BGPC V0203201N001510042019N0200001N1+00051+00021099651ADDAA112000191AY171061AY221061GF108991081061004501999999KA1120M+00121KA2120N-00071MA1999999098731MD1710111+9999MW1771OA149901961REMSYN106AAXX  07064 04390 11470 83203 10005 20002 39873 49965 57011 69912 77772 886// 333 10012 21007 91138 91227;
0161043900999992000050709004+60030-043120FM-12+0019BGPC V0202601N002610120019N0250001N1+00171-00121099731ADDAY171031AY221031GF108991081001012501021999MA1999999098821MD1210091+9999MW1001REMSYN072AAXX  07094 04390 41675 82605 10017 21012 39882 49973 52009 70072 8802/;
0178043900999992000050712004+60030-043120FM-12+0019BGPC V0201501N002612200019N0500001N1+00181-00011099891ADDAA106000791AY171061AY201061GF104991041001022501021999MA1999999098971MD1210151+9999MW1001REMSYN078AAXX  07124 04390 11884 41505 10018 21001 39897 49989 52015 69901 70070 8402/;
0144043900999992000050715004+60030-043120FM-12+0019BGPC V0201901N001519999999N0400001N1+00291+00091099901ADDAA199000021GF105991051001999999031051MA1999999098991MD1210021+9999REMSYN066AAXX  07154 04390 32982 51903 10029 20009 39899 49990 52002 85035;
0186043900999992000050718004+60030-043120FM-12+0019BGPC V0202801N004112200019N0500001N1+00311-00111099841ADDAA199000021GF101991011001022501061001KA1120M+00621KA2999N+00021MA1999999098931MD1710061+9999REMSYN082AAXX  07184 04390 33884 12808 10031 21011 39893 49984 57006 81060 333 10062 20002;
0133043900999992000050721004+60030-043120FM-12+0019BGPC V0202401N006712200019N0600001N1+00241-00251099801ADDGF101991011001999999041999MA1999999098891MD1710041+9999REMSYN066AAXX  07214 04390 42986 12413 10024 21025 39889 49980 57004 8104/;
0163043900999992000050800004+60030-043120FM-12+0019BGPC V0202301N003612200019N0500001N1+00121-00371099801ADDAA199000091GF101991011031008001041999MA1999999098881MD1710011+9999REMSYN066AAXX  08004 04390 32584 12307 10012 21037 39888 49980 57001 8134/;EQDQ01  00002PRCP99
0173043900999992000050803004+60030-043120FM-12+0019BGPC V0202701N014912200019N0250001N1+00211-00511099751ADDAA199000091GF101991011001022501041999MA1999999098841MD1710041+9999REMSYN076AAXX  08034 04390 32875 12729 10021 21051 39884 49975 57004 8104/ 333 91136;EQDQ01  00002PRCP99
0228043900999992000050806004+60030-043120FM-12+0019BGPC V0202501N004112200019N0500001N1+00071-00571099971ADDAA199000091GF101991011001999999041001KA1120M+00361KA2120N+00041MA1999999099051MD1210211+9999OA149901851REMSYN094AAXX  08064 04390 32984 12508 10007 21057 39905 49997 52021 81040 333 10036 20004 91136 91229;EQDQ01  00002PRCP99
0153043900999992000050809004+60030-043120FM-12+0019BGPC V0202801N012312200019N0400001N1+00151-00801100041ADDGA1001+999999999GF100991001001999999001001MA1999999099121MD1210071+9999REMSYN070AAXX  08094 04390 42982 02824 10015 21080 39912 40004 52007 333 91129;
0200043900999992000050812004+60030-043120FM-12+0019BGPC V0202501N005112200019N0600001N1+00211-00701100331ADDAA199000091GA1001+999999999GF100991001001999999001001MA1999999099411MD1210291+9999OA149901901REMSYN076AAXX  08124 04390 32986 02510 10021 21070 39941 40033 52029 333 91137 91228;EQDQ01  00002PRCP99
0173043900999992000050815004+60030-043120FM-12+0019BGPC V0202701N008712200019N0500001N1+00221-00711100481ADDAA199000091GF104991001001999999001091MA1999999099561MD1210151+9999REMSYN076AAXX  08154 04390 32984 42717 10022 21071 39956 40048 52015 80009 333 91128;EQDQ01  00002PRCP99
0221043900999992000050818004+60030-043120FM-12+0019BGPC V0202301N008212200019N0400001N1+00261-00631100551ADDAA199000091GA1001+999999999GF100991001001999999001001KA1120M+00271KA2120N-00051MA1999999099631MD1210071+9999REMSYN082AAXX  08184 04390 32982 02316 10026 21063 39963 40055 52007 333 10027 21005 91128;EQDQ01  00002PRCP99
0133043900999992000050821004+60030-043120FM-12+0019BGPC V0202401N003612200019N0250001N1+00421-00611100661ADDGF103991001001999999001091MA1999999099751MD1210121+9999REMSYN066AAXX  08214 04390 42975 32407 10042 21061 39975 40066 52012 80009;
0163043900999992000050900004+60030-043120FM-12+0019BGPC V0202101N006712200019N0400001N1+00231-00281100841ADDAA199000091GF103991031001022501041999MA1999999099921MD1210171+9999REMSYN066AAXX  09004 04390 32882 32113 10023 21028 39992 40084 52017 8304/;EQDQ01  00002PRCP99
0133043900999992000050903004+60030-043120FM-12+0019BGPC V0202201N007219999999N0050001N1+00181+99999999999ADDAA199000091GF108991999999022501999999REMSYN065AAXX  09034 04390 32850 82214 10018 2100 39989 40081 57003 83046;EQDQ01  00002PRCP99
0205043900999992000050906004+60030-043120FM-12+0019BGPC V0202301N008710300019N0200001N1+00161+00061100821ADDAA199000091GF108991011021008001021999KA1120M+00441KA2999N+00141MA1999999099901MD1210011+9999REMSYN082AAXX  09064 04390 32570 82317 10016 20006 39990 40082 52001 8122/ 333 10044 20014;EQDQ01  00002PRCP99
0133043900999992000050909004+60030-043120FM-12+0019BGPC V0202401N005119999999N0400001N1+00201+00081100801ADDGF107991051001999999071091MA1999999099881MD1710021+9999REMSYN066AAXX  09094 04390 42982 72410 10020 20008 39988 40080 57002 85079;
0173043900999992000050912004+60030-043120FM-12+0019BGPC V0202201N003119999999N0400001N1+00331+00121100771ADDAA199000091GF106991061001999999011999MA1999999099851MD1710031+9999REMSYN076AAXX  09124 04390 32982 62206 10033 20012 39985 40077 57003 8601/ 333 91217;EQDQ01  00002PRCP99
0163043900999992000050915004+60030-043120FM-12+0019BGPC V0202001N002610210019N0500001N1+00271+00121100691ADDAA199000091GF108991081001022501021999MA1999999099771MD1710081+9999REMSYN066AAXX  09154 04390 32884 82005 10027 20012 39977 40069 57008 8802/;EQDQ01  00002PRCP99
0220043900999992000050918004+60030-043120FM-12+0019BGPC V0200301N004610300019N0100001N1+00201+00071100601ADDAA112000791AY151061AY221061GF108991041061004501021999KA1120M+00421KA2999N+00121MA1999999099681MD1710091+9999MW1501REMSYN094AAXX  09184 04390 11460 80309 10020 20007 39968 40060 57009 69902 75052 8462/ 333 10042 20012;
0188043900999992000050921004+60030-043120FM-12+0019BGPC V0200301N011310042019N9999999N1+00041+00031100361ADDAY171031AY221031GF108991081071004501999999MA1999999099441MD1710241+9999MW1681OA149901961REMSYN088AAXX  09214 04390 414// 80322 10004 20003 39944 40036 57024 76872 887// 333 91138 91033;
0157043900999992000051000004+60030-043120FM-12+0019BGPC V0200201N019019999999N0010001N1+00011-00031999999ADDGF108991999999012501999999MA1999999099341OA149902831REMSYN093AAXX  10004 04390 11610 80237 10001 21003 39934 0026 57010 69951 77177 8802/ 333 91155 91055;
0205043900999992000051003004+60030-043120FM-12+0019BGPC V0200201N020010120019N0005001N1-00021-00021100031ADDAA106000791AY171031AY271031GF108991081001012501021999MA1999999099111MD1710231+9999MW1711OA149903291REMSYN094AAXX  10034 04390 11605 80239 11002 21002 39911 40003 57023 69901 77177 8802/ 333 91164 91057;
0166043900999992000051006004+60030-043120FM-12+0019BGPC V0200301N021619999999N9999999N1+00111+00091100041ADDKA1120M+00211KA2120N-00021MA1999999099121MD1210011+9999OA149903291REMSYN088AAXX  10064 04390 46/// /0342 10011 20009 39912 40004 52001 333 10021 21002 91164 91060;
0205043900999992000051012004+60030-043120FM-12+0019BGPC V0200301N026210120019N0010001N1-00031-00041100101ADDAA106002091AY171061AY271061GF108991081001012501021999MA1999999099181MD1210071+9999MW1711OA149904121REMSYN094AAXX  10124 04390 11610 80351 11003 21004 39918 40010 52007 60021 77177 8802/ 333 91180 91073;
0188043900999992000051015004+60030-043120FM-12+0019BGPC V0200201N024210120019N0050001N1-00031-00041099991ADDAY171031AY271031GF108991081001012501021999MA1999999099071MD1710111+9999MW1681OA149903861REMSYN088AAXX  10154 04390 41650 80247 11003 21004 39907 49999 57011 76877 8802/ 333 91175 91063;
0249043900999992000051018004+60030-043120FM-12+0019BGPC V0200201N021610120019N0005001N1-00051-00051100071ADDAA112004191AY171061AY271061GF108991081001012501021999KA1120M+00111KA2120N-00071MA1999999099151MD1210081+9999MW1711OA149903861REMSYN112AAXX  10184 04390 11605 80242 11005 21005 39915 40007 52008 60042 77177 8802/ 333 10011 21007 91175 91060 91252;
0188043900999992000051021004+60030-043120FM-12+0019BGPC V0200401N017510120019N0004001N1-00051-00051100121ADDAY171031AY271031GF108991081001012501021999MA1999999099191MD1210041+9999MW1731OA149903191REMSYN088AAXX  10214 04390 41604 80434 11005 21005 39919 40012 52004 77377 8802/ 333 91162 91051;
0205043900999992000051100004+60030-043120FM-12+0019BGPC V0200201N018010120019N0005001N1-00061-00061100261ADDAA106002091AY171061AY271061GF108991081001012501021999MA1999999099331MD1210141+9999MW1711OA149903191REMSYN094AAXX  11004 04390 11605 80235 11006 21006 39933 40026 52014 60021 77177 8802/ 333 91162 91051;
0205043900999992000051103004+60030-043120FM-12+0019BGPC V0200201N015410120019N0020001N1+00011+00011100301ADDAA106000791AY171031AY221031GF108991081001012501021999MA1999999099381MD1210051+9999MW1001OA149902731REMSYN094AAXX  11034 04390 11620 80230 10001 20001 39938 40030 52005 69901 70072 8802/ 333 91153 91045;
0243043900999992000051106004+60030-043120FM-12+0019BGPC V0200201N014910021019N0200001N1+00061+00061100411ADDAA112003091AY171061AY221061GF108991081071002501999999KA1120M+00101KA2120N-00081MA1999999099491MD1210111+9999MW1001OA149902731REMSYN106AAXX  11064 04390 11370 80229 10006 20006 39949 40041 52011 60032 70072 887// 333 10010 21008 91153 91041;
0188043900999992000051109004+60030-043120FM-12+0019BGPC V0200301N013410300019N0020001N1+00111+00051100601ADDAY171031AY221031GF108991041071004501021999MA1999999099681MD1210191+9999MW1001OA149902261REMSYN088AAXX  11094 04390 41420 80326 10011 20005 39968 40060 52019 70072 8472/ 333 91144 91038;
0171043900999992000051115004+60030-043120FM-12+0019BGPC V0200201N008710300019N0050001N1+00131+00121100861ADDAY171031AY261031GF108991041071004501021999MA1999999099931MD1210081+9999MW1611REMSYN082AAXX  11154 04390 41450 80217 10013 20012 39993 40086 52008 76176 8472/ 333 91137;
0143043900999992000051121004+60030-043120FM-12+0019BGPC V0200101N000510750019N0250001N1+00301+00101101011ADDGF108991031001017501021071MA1999999100091MD1210061+9999REMSYN076AAXX  11214 04390 42775 80101 10030 20010 30009 40101 52006 83027 333 91215;
0154043900999992000051200004+60030-043120FM-12+0019BGPC V0201401N001519999999N0500001N1+00071+00071101161ADDAA199000021GF108991001001999999001071MA1999999100231MD1210141+9999REMSYN076AAXX  12004 04390 32984 81403 10007 20007 30023 40116 52014 80007 333 91215;
0205043900999992000051206004+60030-043120FM-12+0019BGPC V0203201N001019999999N0500001N1+00251+00091101261ADDAA199000091GF108991001001999999001071KA1120M+00331KA2999N+00051MA1999999100331MD1210071+9999REMSYN082AAXX  12064 04390 32984 83202 10025 20009 30033 40126 52007 80007 333 10033 20005;EQDQ01  00002PRCP99
0133043900999992000051209004+60030-043120FM-12+0019BGPC V0200101N001510120019N0300001N1+00251+00151101371ADDGF108991081001012501021999MA1999999100441MD1210111+9999REMSYN066AAXX  12094 04390 42680 80103 10025 20015 30044 40137 52011 8802/;
0220043900999992000051218004+60030-043120FM-12+0019BGPC V0200301N002610300019N0150001N1+00261+00241101491ADDAA112001091AY171061AY271061GF108991021051004501021999KA1120M+00391KA2999N+00201MA1999999100561MD1710031+9999MW1601REMSYN094AAXX  12184 04390 11465 80305 10026 20024 30056 40149 57003 60012 76077 8252/ 333 10039 20020;
0161043900999992000051221004+60030-043120FM-12+0019BGPC V0200201N002610012019N0150001N1+00221+00221101501ADDAY151031AY251031GF108991081061001501999999MA1999999100571MD1210011+9999MW1511REMSYN072AAXX  12214 04390 41265 80205 10022 20022 30057 40150 52001 75155 886//;
0178043900999992000051300004+60030-043120FM-12+0019BGPC V0200201N001510012019N0150001N1+00201+00201101501ADDAA106000891AY151061AY221061GF108991081061001501999999MA1999999100571MD1410001+9999MW1001REMSYN078AAXX  13004 04390 11265 80203 10020 20020 30057 40150 54000 69971 70052 886//;
0172043900999992000051303004+60030-043120FM-12+0019BGPC V0203101N001010021019N0005001N1+00181+00181101421ADDAA199000021AY121031AY241031GF108991081061002501999999MA1999999100491MD1710081+9999MW1471REMSYN072AAXX  13034 04390 31305 83102 10018 20018 30049 40142 57008 74724 886//;
0220043900999992000051306004+60030-043120FM-12+0019BGPC V0203001N001010012019N0020001N1+00191+00191101301ADDAA112001091AY171061AY271061GF108991081071001501999999KA1120M+00261KA2999N+00161MA1999999100371MD1710121+9999MW1601REMSYN094AAXX  13064 04390 11220 83002 10019 20019 30037 40130 57012 60012 76077 887// 333 10026 20016;
0161043900999992000051309004+60030-043120FM-12+0019BGPC V0203301N001010012019N0050001N1+00191+00191101201ADDAY151031AY251031GF108991081061001501999999MA1999999100271MD1710101+9999MW1511REMSYN072AAXX  13094 04390 41250 83302 10019 20019 30027 40120 57010 75155 886//;
0178043900999992000051312004+60030-043120FM-12+0019BGPC V0202901N001010006019N0001001N1+00261+00261101071ADDAA106000891AY151061AY251061GF108991081061000751999999MA1999999100151MD1710121+9999MW1511REMSYN078AAXX  13124 04390 11101 82902 10026 20026 30015 40107 57012 69981 75155 886//;
0129043900999992000051315004+60030-043120FM-12+0019BGPC V0201901N000519999999N0003001N1+00391+00371100891ADDAY151031AY241031MA1999999099971MD1710181+9999MW1471REMSYN066AAXX  13154 04390 41/03 /1901 10039 20037 39997 40089 57018 74754;
0214043900999992000051318004+60030-043120FM-12+0019BGPC V0202401N002112200019N0500001N1+00431+00311100651ADDAA199000021AY141061AY201061GF102991011071002501061999KA1120M+00431KA2999N+00141MA1999999099741MD1710231+9999MW1001REMSYN088AAXX  13184 04390 31384 22404 10043 20031 39974 40065 57023 70040 8176/ 333 10043 20014;
0143043900999992000051321004+60030-043120FM-12+0019BGPC V0202801N009812200019N0250001N1+00411-00011100481ADDGF101991011021008001999999MA1999999099571MD1710171+9999REMSYN076AAXX  13214 04390 42575 12819 10041 21001 39957 40048 57017 812// 333 91123;
0181043900999992000051400004+60030-043120FM-12+0019BGPC V0202301N006212200019N9999999N1+00271-00201100371ADDAA199000021GA1001+999999999GF100991001001999999001001MA1999999099451MD1710121+9999OA149901601REMSYN076AAXX  14004 04390 329// 02312 10027 21020 39945 40037 57012 333 91131 91223;
0183043900999992000051403004+60030-043120FM-12+0019BGPC V0201401N003112200019N9999999N1+00161-00311100291ADDAA199000091GA1001+999999999GF100991001001999999001001MA1999999099371MD1710081+9999REMSYN070AAXX  14034 04390 329// 01406 10016 21031 39937 40029 57008 333 91220;EQDQ01  00002PRCP99
0221043900999992000051406004+60030-043120FM-12+0019BGPC V0202801N009812200019N9999999N1+00181-00701100061ADDAA199000091GA1001+999999999GF100991001001999999001001KA1120M+00521KA2120N+00151MA1999999099141MD1710231+9999REMSYN082AAXX  14064 04390 329// 02819 10018 21070 39914 40006 57023 333 10052 20015 91117;EQDQ01  00002PRCP99
0170043900999992000051409004+60030-043120FM-12+0019BGPC V0202801N014912200019N0400001N1+00171-01041099701ADDGA1001+999999999GF100991001001999999001001MA1999999098791MD1710351+9999OA149902161REMSYN076AAXX  14094 04390 42982 02829 10017 21104 39879 49970 57035 333 91142 91042;
0190043900999992000051412004+60030-043120FM-12+0019BGPC V0202801N016412200019N0250001N1+00261-00901099651ADDAA199000091GF103991001001999999001071MA1999999098741MD1710051+9999OA149902211REMSYN082AAXX  14124 04390 32975 32832 10026 21090 39874 49965 57005 80007 333 91143 91043;EQDQ01  00002PRCP99
0176043900999992000051415004+60030-043120FM-12+0019BGPC V0202801N011312200019N0600001N1+00261-00781099721ADDGA1001+999999999GF100991001001999999001001MA1999999098811MD1210071+9999OA149902211REMSYN082AAXX  14154 04390 42986 02822 10026 21078 39881 49972 52007 333 91143 91036 91232;
0211043900999992000051418004+60030-043120FM-12+0019BGPC V0202901N011312200019N0500001N1+00231-00761099841ADDAA199000091GF101991011001999999041999KA1120M+00391KA2120N+00161MA1999999098931MD1210121+9999REMSYN088AAXX  14184 04390 32984 12922 10023 21076 39893 49984 52012 8104/ 333 10039 20016 91143;EQDQ01  00002PRCP99
0160043900999992000051421004+60030-043120FM-12+0019BGPC V0203001N007212200019N0250001N1+00321-00681100061ADDGF102991021001999999041999MA1999999099151MD1210221+9999OA149901751REMSYN082AAXX  14214 04390 42975 23014 10032 21068 39915 40006 52022 8204/ 333 91134 91025;
0190043900999992000051500004+60030-043120FM-12+0019BGPC V0202801N004612200019N0500001N1+00251-00561100331ADDAA199000091GF103991031001999999031999MA1999999099411MD1210261+9999OA149901751REMSYN082AAXX  15004 04390 32984 32809 10025 21056 39941 40033 52026 8303/ 333 91134 91223;EQDQ01  00002PRCP99
0173043900999992000051503004+60030-043120FM-12+0019BGPC V0202801N004112200019N0200001N1+00111-00431100551ADDAA199000091GA1001+999999999GF100991001001999999001001MA1999999099631MD1210221+9999REMSYN060AAXX  15034 04390 32970 02808 10011 21043 39963 40055 52022;EQDQ01  00002PRCP99
0173043900999992000051506004+60030-043120FM-12+0019BGPC V0203001N001019999999N9999999N1+00011-00401100701ADDAA199000091KA1120M+00361KA2999N-00011MA1999999099771MD1210141+9999REMSYN076AAXX  15064 04390 32/// /3002 10001 21040 39977 40070 52014 333 10036 21001;EQDQ01  00002PRCP99
0143043900999992000051509004+60030-043120FM-12+0019BGPC V0203101N000512200019N0400001N1+00241-00231100751ADDGA1001+999999999GF100991001001999999001001MA1999999099831MD1210061+9999REMSYN060AAXX  15094 04390 42982 03101 10024 21023 39983 40075 52006;
0163043900999992000051512004+60030-043120FM-12+0019BGPC V0202901N004112200019N0500001N1+00101-00191100711ADDAA199000091GF101991001001999999001061MA1999999099781MD1710051+9999REMSYN066AAXX  15124 04390 32984 12908 10010 21019 39978 40071 57005 80006;EQDQ01  00002PRCP99
0143043900999992000051515004+60030-043120FM-12+0019BGPC V0203001N004112200019N0500001N1+00251-00171100651ADDGA1001+999999999GF100991001001999999001001MA1999999099731MD1710051+9999REMSYN060AAXX  15154 04390 42984 03008 10025 21017 39973 40065 57005;
0221043900999992000051518004+60030-043120FM-12+0019BGPC V0200401N002612200019N0500001N1+00351-00051100601ADDAA199000091GA1001+999999999GF100991001001999999001001KA1120M+00551KA2120N-00011MA1999999099681MD1710051+9999REMSYN082AAXX  15184 04390 32984 00405 10035 21005 39968 40060 57005 333 10055 21001 91116;EQDQ01  00002PRCP99
0153043900999992000051521004+60030-043120FM-12+0019BGPC V0202101N003112200019N0500001N1+00311-00071100591ADDGA1001+999999999GF100991001001999999001001MA1999999099671MD1710011+9999REMSYN070AAXX  15214 04390 42984 02106 10031 21007 39967 40059 57001 333 91124;
0228043900999992000051600004+60030-043120FM-12+0019BGPC V0200601N001512200019N0005001N1-00311-00311100641ADDAA199000091AY141061AY201061GA1001+999999999GF100991001001999999001001MA1999999099701MD1210031+9999MW1461OA149901341REMSYN082AAXX  16004 04390 31905 00603 11031 21031 39970 40064 52003 74640 333 91126 91217;EQDQ01  00002PRCP99
0171043900999992000051603004+60030-043120FM-12+0019BGPC V0200901N001012200019N0009001N1-00231-00231100641ADDAY141031AY241031GA1001+999999999GF100991001001999999001001MA1999999099701MD1410001+9999MW1441REMSYN066AAXX  16034 04390 41909 00902 11023 21023 39970 40064 54000 74444;
0201043900999992000051606004+60030-043120FM-12+0019BGPC V0201201N002119999999N9999999N1-00521-00521100631ADDAA199000091AY141061AY241061KA1120M+00491KA2999N-00531MA1999999099681MD1710021+9999MW1441REMSYN082AAXX  16064 04390 31/// /1204 11052 21052 39968 40063 57002 74444 333 10049 21053;EQDQ01  00002PRCP99
0133043900999992000051609004+60030-043120FM-12+0019BGPC V0200701N001512200019N0500001N1-00371-00371100561ADDGF103991031001999999061999MA1999999099621MD1710061+9999REMSYN066AAXX  16094 04390 42984 30703 11037 21037 39962 40056 57006 8306/;
0183043900999992000051612004+60030-043120FM-12+0019BGPC V0200201N002112200019N0500001N1+00731-00681100521ADDAA199000091GA1001+999999999GF100991001001999999001001MA1999999099621MD1410001+9999REMSYN070AAXX  16124 04390 32984 00204 10073 21068 39962 40052 54000 333 91115;EQDQ01  00002PRCP99
0141043900999992000051615004+60030-043120FM-12+0019BGPC V0202801N008719999999N9999999N1+00761-00811100531ADDAA199000091MA1999999099631MD1210011+9999REMSYN070AAXX  16154 04390 32/// /2817 10076 21081 39963 40053 52001 333 91126;EQDQ01  00002PRCP99
0238043900999992000051618004+60030-043120FM-12+0019BGPC V0202901N006212200019N0250001N1+00881-00741100571ADDAA199000091GA1001+999999999GF100991001001999999001001KA1120M+00931KA2120N-00551MA1999999099671MD1210041+9999OA149901601REMSYN088AAXX  16184 04390 32975 02912 10088 21074 39967 40057 52004 333 10093 21055 91131 91228;EQDQ01  00002PRCP99
0170043900999992000051621004+60030-043120FM-12+0019BGPC V0202601N004112200019N0500001N1+00881-00701100671ADDGA1001+999999999GF100991001001999999001001MA1999999099771MD1210101+9999OA149901441REMSYN076AAXX  16214 04390 42984 02608 10088 21070 39977 40067 52010 333 91128 91218;
0173043900999992000051700004+60030-043120FM-12+0019BGPC V0202401N011312200019N0250001N1+00671-00661100731ADDAA199000091GF102991001001999999001071MA1999999099821MD1210051+9999REMSYN076AAXX  17004 04390 32975 22422 10067 21066 39982 40073 52005 80007 333 91131;EQDQ01  00002PRCP99
0211043900999992000051706004+60030-043120FM-12+0019BGPC V0202701N008212200019N0400001N1+00701-00601100851ADDAA199000091GF104991041001999999031999KA1120M+00901KA2120N+00571MA1999999099941MD1710021+9999REMSYN088AAXX  17064 04390 32982 42716 10070 21060 39994 40085 57002 8403/ 333 10090 20057 91128;EQDQ01  00002PRCP99
0143043900999992000051709004+60030-043120FM-12+0019BGPC V0202401N010312200019N0500001N1+00761-00581100911ADDGF104991041001999999031011MA1999999100001MD1210061+9999REMSYN076AAXX  17094 04390 42984 42420 10076 21058 30000 40091 52006 84031 333 91129;
0111043900999992000051712004+60030-043120FM-12+0019BGPC V0202401N008719999999N9999999N1+00661-00501101091ADDMA1999999100181MD1210181+9999REMSYN070AAXX  17124 04390 46/// /2417 10066 21050 30018 40109 52018 333 91129;
0133043900999992000051715004+60030-043120FM-12+0019BGPC V0202801N006212200019N0500001N1+00821-00401101171ADDGF101991001001999999001061MA1999999100261MD1210081+9999REMSYN066AAXX  17154 04390 42984 12812 10082 21040 30026 40117 52008 80006;
0205043900999992000051718004+60030-043120FM-12+0019BGPC V0202801N005112200019N0500001N1+00501-00151101171ADDAA199000091GF104991011001999999051091KA1120M+00991KA2999N+00491MA1999999100251MD1710011+9999REMSYN082AAXX  17184 04390 32984 42810 10050 21015 30025 40117 57001 81059 333 10099 20049;EQDQ01  00002PRCP99
0133043900999992000051721004+60030-043120FM-12+0019BGPC V0202901N002619999999N0400001N1+00811-00171101111ADDGF106991061001999999031999MA1999999100201MD1710051+9999REMSYN066AAXX  17214 04390 42982 62905 10081 21017 30020 40111 57005 8603/;
0173043900999992000051800004+60030-043120FM-12+0019BGPC V0200301N000519999999N0400001N1+00341+00111101191ADDAA199000091GF108991081001999999021999MA1999999100271MD1210071+9999REMSYN076AAXX  18004 04390 32982 80301 10034 20011 30027 40119 52007 8802/ 333 91211;EQDQ01  00002PRCP99
0149043900999992000051806004+60030-043120FM-12+0019BGPC V0200201N007719999999N9999999N1+00311-00101101221ADDKA1120M+00971KA2120N+00151MA1999999100301MD1710101+9999REMSYN082AAXX  18064 04390 46/// /0215 10031 21010 30030 40122 57010 333 10097 20015 91122;
0188043900999992000051809004+60030-043120FM-12+0019BGPC V0200201N010810210019N0200001N1+00281+00081101151ADDAY161031AY221031GF108991081001022501021999MA1999999100231MD1710071+9999MW1001OA149901751REMSYN088AAXX  18094 04390 41870 80221 10028 20008 30023 40115 57007 70062 8802/ 333 91134 91034;
0190043900999992000051812004+60030-043120FM-12+0019BGPC V0200201N017010300019N0400001N1+00321+00171101001ADDAA199000091GF108991011071004501021999MA1999999100081MD1710151+9999OA149902521REMSYN082AAXX  18124 04390 32482 80233 10032 20017 30008 40100 57015 8172/ 333 91149 91048;EQDQ01  00002PRCP99
0188043900999992000051815004+60030-043120FM-12+0019BGPC V0200301N020010120019N0030001N1+00161+00141100931ADDAY171031AY271031GF108991081001012501021999MA1999999100001MD1710081+9999MW1691OA149903091REMSYN088AAXX  18154 04390 41630 80339 10016 20014 30000 40093 57008 76977 8802/ 333 91160 91055;
0243043900999992000051818004+60030-043120FM-12+0019BGPC V0200301N020010120019N0030001N1+00101+00091100751ADDAA112005191AY171061AY271061GF108991081001012501021999KA1120M+00401KA2120N+00041MA1999999099821MD1710181+9999MW1691OA149903291REMSYN106AAXX  18184 04390 11630 80339 10010 20009 39982 40075 57018 60052 76977 8802/ 333 10040 20004 91164 91055;
0188043900999992000051821004+60030-043120FM-12+0019BGPC V0200301N019510120019N0020001N1+00021+00021100521ADDAY171031AY271031GF108991081001012501021999MA1999999099591MD1710231+9999MW1681OA149903091REMSYN088AAXX  18214 04390 41620 80338 10002 20002 39959 40052 57023 76877 8802/ 333 91160 91060;
0205043900999992000051900004+60030-043120FM-12+0019BGPC V0203601N018010042019N0030001N1+00071+00071100431ADDAA106000391AY171061AY271061GF108991081071004501999999MA1999999099511MD1710081+9999MW1681OA149903091REMSYN094AAXX  19004 04390 11430 83635 10007 20007 39951 40043 57008 69931 76877 887// 333 91160 91052;
0194043900999992000051903004+60030-043120FM-12+0019BGPC V0203601N007710120019N0015001N1+00051+00051100451ADDAY171031AY271031GF108991081001012501021999MA1999999099531MD1210021+9999MW1681OA149902931REMSYN094AAXX  19034 04390 41615 83615 10005 20005 39953 40045 52002 76877 8802/ 333 91157 91026 91239;
0166043900999992000051906004+60030-043120FM-12+0019BGPC V0202501N001019999999N9999999N1+00271-00081100741ADDKA1120M+00341KA2120N+00001MA1999999099821MD1210291+9999OA149902931REMSYN088AAXX  19064 04390 46/// /2502 10027 21008 39982 40074 52029 333 10034 20000 91157 91239;
0161043900999992000051909004+60030-043120FM-12+0019BGPC V0202701N003112200019N0500001N1+00441-00101100951ADDAY161031AY201031GF102991021001999999061001MA1999999100031MD1210211+9999MW1001REMSYN072AAXX  19094 04390 41984 22706 10044 21010 30003 40095 52021 70060 82060;
0150043900999992000051912004+60030-043120FM-12+0019BGPC V0202001N002119999999N0300001N1+00451+00021101061ADDAA106002091GF105991051001999999031999MA1999999100141MD1210111+9999REMSYN072AAXX  19124 04390 12980 52004 10045 20002 30014 40106 52011 60021 8503/;
0161043900999992000051915004+60030-043120FM-12+0019BGPC V0203101N001510300019N0150001N1+00121+00121101021ADDAY161031AY221031GF108991041061002501021999MA1999999100091MD1710051+9999MW1511REMSYN072AAXX  19154 04390 41365 83103 10012 20012 30009 40102 57005 75162 8462/;
0220043900999992000051918004+60030-043120FM-12+0019BGPC V0200801N003610012019N0050001N1+00161+00121100821ADDAA112002091AY171061AY221061GF108991081061001501999999KA1120M+00811KA2999N+00061MA1999999099901MD1710191+9999MW1681REMSYN094AAXX  19184 04390 11250 80807 10016 20012 39990 40082 57019 60022 76872 886// 333 10081 20006;
0161043900999992000051921004+60030-043120FM-12+0019BGPC V0200301N003610120019N0010001N1-00011-00011100311ADDAY171031AY271031GF108991081001012501021999MA1999999099381MD1710521+9999MW1751REMSYN072AAXX  19214 04390 41610 80307 11001 21001 39938 40031 57052 77577 8802/;
0178043900999992000052000004+60030-043120FM-12+0019BGPC V0200301N008210021019N0010001N1-00031-00031099671ADDAA106008991AY171061AY271061GF108991081071002501999999MA1999999098751MD1710631+9999MW1711REMSYN078AAXX  20004 04390 11310 80316 11003 21003 39875 49967 57063 60091 77177 887//;
0163043900999992000052003004+60030-043120FM-12+0019BGPC V0209999C000019999999N9999999N1-00031-00031098872ADDMA1999999097962MD1710791+9999OA149901391REMSYN076AAXX  20034 04390 46/// /0000 11003 21003 39796 49887 57079 333 91127 91217;EQDQ01+097963APOSP Q02+098873APOSLP
0243043900999992000052006004+60030-043120FM-12+0019BGPC V0209999C000010042019N0010001N1+00011+00011098431ADDAA112022191AY171061AY271061GF108991081071004501999999KA1120M+00161KA2120N-00051MA1999999097521MD1710441+9999MW1001OA149901391REMSYN106AAXX  20064 04390 11410 80000 10001 20001 39752 49843 57044 60222 70077 887// 333 10016 21005 91127 91217;
0163043900999992000052009004+60030-043120FM-12+0019BGPC V0202601N003610042019N0150001N1+00051+00051098621ADDAY171031GF108991081051004501999999MA1999999097711MD1210191+9999MW1001REMSYN082AAXX  20094 04390 41465 82607 10005 20005 39771 49862 52019 7007/ 885// 333 91112;
0188043900999992000052012004+60030-043120FM-12+0019BGPC V0202401N011810120019N0050001N1+00281-00291098721ADDAA106003091AY171061AY221061GF108991081001012501021999MA1999999097821MD1210111+9999MW1001REMSYN088AAXX  20124 04390 11650 82423 10028 21029 39782 49872 52011 60031 70072 8802/ 333 91133;
0128043900999992000052015004+60030-043120FM-12+0019BGPC V0202701N012919999999N9999999N1+00321-00481098871ADDMA1999999097971MD1210151+9999OA149902161REMSYN076AAXX  20154 04390 46/// /2725 10032 21048 39797 49887 52015 333 91142 91038;
0215043900999992000052018004+60030-043120FM-12+0019BGPC V0202501N007210021019N0500001N1+00321-00471099061ADDAA112003091GF107991071001002501021999KA1120M+00391KA2120N-00031MA1999999098161MD1210191+9999OA149902161REMSYN100AAXX  20184 04390 12384 72514 10032 21047 39816 49906 52019 60032 8702/ 333 10039 21003 91142 91227;
0111043900999992000052021004+60030-043120FM-12+0019BGPC V0202701N010819999999N9999999N1+00301-00581099151ADDMA1999999098251MD1210091+9999REMSYN070AAXX  20214 04390 46/// /2721 10030 21058 39825 49915 52009 333 91131;
0160043900999992000052103004+60030-043120FM-12+0019BGPC V0202701N008712200019N0200001N1+00201-00611099431ADDGF102991021001022501021999MA1999999098521MD1210101+9999OA149901491REMSYN082AAXX  21034 04390 42870 22717 10020 21061 39852 49943 52010 8202/ 333 91129 91029;
0211043900999992000052106004+60030-043120FM-12+0019BGPC V0202701N010312200019N0400001N1+00111-00601099361ADDAA199000091GF102991011001012501021091KA1120M+00351KA2120N+00101MA1999999098451MD1710071+9999REMSYN088AAXX  21064 04390 32682 22720 10011 21060 39845 49936 57007 81029 333 10035 20010 91129;EQDQ01  00002PRCP99
0143043900999992000052109004+60030-043120FM-12+0019BGPC V0202801N009312200019N0500001N1+00191-00571099431ADDGF103991001001999999001041MA1999999098521MD1210071+9999REMSYN076AAXX  21094 04390 42984 32818 10019 21057 39852 49943 52007 80004 333 91135;
0173043900999992000052112004+60030-043120FM-12+0019BGPC V0202801N007712200019N0400001N1+00261-00481099501ADDAA199000091GF103991001001999999001051MA1999999098591MD1210071+9999REMSYN076AAXX  21124 04390 32982 32815 10026 21048 39859 49950 52007 80005 333 91135;EQDQ01  00002PRCP99
0133043900999992000052115004+60030-043120FM-12+0019BGPC V0202801N008212200019N0250001N1+00341-00361099491ADDGF102991011021004501001041MA1999999098581MD1710011+9999REMSYN066AAXX  21154 04390 42475 22816 10034 21036 39858 49949 57001 81204;
0205043900999992000052118004+60030-043120FM-12+0019BGPC V0202901N004119999999N0500001N1+00381-00301099491ADDAA199000091GF105991001001999999001041KA1120M+00421KA2999N+00111MA1999999098581MD1410001+9999REMSYN082AAXX  21184 04390 32984 52908 10038 21030 39858 49949 54000 80004 333 10042 20011;EQDQ01  00002PRCP99
0133043900999992000052121004+60030-043120FM-12+0019BGPC V0202901N004619999999N0400001N1+00331-00251099551ADDGF105991001001999999001061MA1999999098641MD1210061+9999REMSYN066AAXX  21214 04390 42982 52909 10033 21025 39864 49955 52006 80006;
0173043900999992000052200004+60030-043120FM-12+0019BGPC V0200101N003112200019N0250001N1+00121-00041099691ADDAA199000091GF103991031001999999031999MA1999999098771MD1210131+9999REMSYN076AAXX  22004 04390 32975 30106 10012 21004 39877 49969 52013 8303/ 333 91118;EQDQ01  00002PRCP99
0133043900999992000052203004+60030-043120FM-12+0019BGPC V0201701N001012200019N0150001N1+00111+00021099741ADDGF104991041001999999031999MA1999999098821MD1210051+9999REMSYN066AAXX  22034 04390 42965 41702 10011 20002 39882 49974 52005 8403/;
0205043900999992000052206004+60030-043120FM-12+0019BGPC V0202601N002119999999N0500001N1+00051-00251099781ADDAA199000091GF106991061001999999031999KA1120M+00421KA2999N+00011MA1999999098861MD1210041+9999REMSYN082AAXX  22064 04390 32984 62604 10005 21025 39886 49978 52004 8603/ 333 10042 20001;EQDQ01  00002PRCP99
0163043900999992000052209004+60030-043120FM-12+0019BGPC V0202601N000512200019N0400001N1+00051-00161099811ADDAA199000091GF103991021001999999031091MA1999999098891MD1210031+9999REMSYN066AAXX  22094 04390 32982 32601 10005 21016 39889 49981 52003 82039;EQDQ01  00002PRCP99
0133043900999992000052215004+60030-043120FM-12+0019BGPC V0200701N001019999999N0400001N1+00371+00021099851ADDGF105991001001999999001051MA1999999098941MD1410001+9999REMSYN066AAXX  22154 04390 42982 50702 10037 20002 39894 49985 54000 80005;
0205043900999992000052218004+60030-043120FM-12+0019BGPC V0201101N001512200019N0400001N1+00261+00031099811ADDAA199000091GF103991001001999999001061KA1120M+00541KA2999N+00001MA1999999098901MD1710041+9999REMSYN082AAXX  22184 04390 32982 31103 10026 20003 39890 49981 57004 80006 333 10054 20000;EQDQ01  00002PRCP99
0173043900999992000052300004+60030-043120FM-12+0019BGPC V0202901N001012200019N0300001N1-00051-00061099741ADDAA199000091GA1001+999999999GF100991001001999999001001MA1999999098821MD1710031+9999REMSYN060AAXX  23004 04390 32980 02902 11005 21006 39882 49974 57003;EQDQ01  00002PRCP99
0143043900999992000052303004+60030-043120FM-12+0019BGPC V0203001N001012200019N0150001N1-00031-00071099701ADDGA1001+999999999GF100991001001999999001001MA1999999098781MD1710041+9999REMSYN060AAXX  23034 04390 42965 03002 11003 21007 39878 49970 57004;
0243043900999992000052306004+60030-043120FM-12+0019BGPC V0201901N000512200019N0005001N1-00361-00361099751ADDAA199000091AY101061AY201061GA1001+999999999GF100991001001999999001001KA1120M+00271KA2999N-00361MA1999999098821MD1210041+9999MW1481REMSYN082AAXX  23064 04390 31905 01901 11036 21036 39882 49975 52004 74800 333 10027 21036;EQDQ01  00002PRCP99
0131043900999992000052309004+60030-043120FM-12+0019BGPC V0201001N001019999999N9999999N1-00291-00291099851ADDAA199000091MA1999999098921MD1210101+9999REMSYN060AAXX  23094 04390 32/// /1002 11029 21029 39892 49985 52010;EQDQ01  00002PRCP99
0163043900999992000052312004+60030-043120FM-12+0019BGPC V0200801N001012200019N0500001N1-00061-00201099991ADDAA199000091GF101991001001999999001051MA1999999099071MD1210151+9999REMSYN066AAXX  23124 04390 32984 10802 11006 21020 39907 49999 52015 80005;EQDQ01  00002PRCP99
0143043900999992000052315004+60030-043120FM-12+0019BGPC V0200801N000512200019N0500001N1+00231-00101100151ADDGA1001+999999999GF100991001001999999001001MA1999999099231MD1210161+9999REMSYN060AAXX  23154 04390 42984 00801 10023 21010 39923 40015 52016;
0243043900999992000052318004+60030-043120FM-12+0019BGPC V0203201N002112200019N0200001N1+00251-00131100321ADDAA199000091AY101061AY201061GA1001+999999999GF100991001001999999001001KA1120M+00611KA2999N-00361MA1999999099401MD1210171+9999MW1401REMSYN082AAXX  23184 04390 31970 03204 10025 21013 39940 40032 52017 74000 333 10061 21036;EQDQ01  00002PRCP99
0133043900999992000052321004+60030-043120FM-12+0019BGPC V0200501N002112200019N0350001N1+00261+00031100441ADDGF104991041001999999041001MA1999999099521MD1210121+9999REMSYN066AAXX  23214 04390 42981 40504 10026 20003 39952 40044 52012 84040;
0163043900999992000052400004+60030-043120FM-12+0019BGPC V0201801N001012200019N0400001N1+00111+00041100511ADDAA199000091GF101991011001999999031999MA1999999099591MD1210071+9999REMSYN066AAXX  24004 04390 32982 11802 10011 20004 39959 40051 52007 8103/;EQDQ01  00002PRCP99
0133043900999992000052403004+60030-043120FM-12+0019BGPC V0202501N003112200019N0150001N1+00041-00061100591ADDGF101991011001999999041999MA1999999099661MD1210071+9999REMSYN066AAXX  24034 04390 42965 12506 10004 21006 39966 40059 52007 8104/;
0205043900999992000052406004+60030-043120FM-12+0019BGPC V0202301N003112200019N0500001N1-00011-00141100671ADDAA199000091GF101991001001999999001061KA1120M+00301KA2999N-00031MA1999999099741MD1210081+9999REMSYN082AAXX  24064 04390 32984 12306 11001 21014 39974 40067 52008 80006 333 10030 21003;EQDQ01  00002PRCP99
0163043900999992000052409004+60030-043120FM-12+0019BGPC V0203001N001019999999N0400001N1+00141-00051100771ADDAA199000091GF107991071001999999031999MA1999999099851MD1210111+9999REMSYN066AAXX  24094 04390 32982 73002 10014 21005 39985 40077 52011 8703/;EQDQ01  00002PRCP99
0163043900999992000052412004+60030-043120FM-12+0019BGPC V0203401N000512200019N0400001N1+00351+00021100931ADDAA199000091GF103991001001999999001061MA1999999100011MD1210161+9999REMSYN066AAXX  24124 04390 32982 33401 10035 20002 30001 40093 52016 80006;EQDQ01  00002PRCP99
0171043900999992000052415004+60030-043120FM-12+0019BGPC V0209999C000012200019N0200001N1+00591+00141101051ADDAY101031AY201031GA1001+999999999GF100991001001999999001001MA1999999100141MD1210131+9999MW1401REMSYN066AAXX  24154 04390 41970 00000 10059 20014 30014 40105 52013 74000;
0205043900999992000052418004+60030-043120FM-12+0019BGPC V0202301N000512200019N0500001N1+00661+00151101141ADDAA199000091GF101991001001999999001061KA1120M+00751KA2999N-00031MA1999999100231MD1210091+9999REMSYN082AAXX  24184 04390 32984 12301 10066 20015 30023 40114 52009 80006 333 10075 21003;EQDQ01  00002PRCP99
0143043900999992000052421004+60030-043120FM-12+0019BGPC V0202501N001012200019N9999999N1+00781-00071101241ADDGA1001+999999999GF100991001001999999001001MA1999999100331MD1210101+9999REMSYN060AAXX  24214 04390 429// 02502 10078 21007 30033 40124 52010;
0173043900999992000052500004+60030-043120FM-12+0019BGPC V0202401N004112200019N0400001N1+00351-00071101251ADDAA199000091GA1001+999999999GF100991001001999999001001MA1999999100331MD1410001+9999REMSYN060AAXX  25004 04390 32982 02408 10035 21007 30033 40125 54000;EQDQ01  00002PRCP99
0101043900999992000052503004+60030-043120FM-12+0019BGPC V0202701N004619999999N9999999N1+00411-00061101171ADDMA1999999100251MD1710081+9999REMSYN060AAXX  25034 04390 46/// /2709 10041 21006 30025 40117 57008;
0215043900999992000052506004+60030-043120FM-12+0019BGPC V0202601N004612200019N0500001N1+00381-00121101121ADDAA199000091GA1001+999999999GF100991001001999999001001KA1120M+00941KA2999N+00311MA1999999100201MD1710051+9999REMSYN076AAXX  25064 04390 32984 02609 10038 21012 30020 40112 57005 333 10094 20031;EQDQ01  00002PRCP99
0191043900999992000052509004+60030-043120FM-12+0019BGPC V0202701N001512200019N0500001N1+00281-00011101341ADDAA199000091AY101031AY201031GF101991011001999999031999MA1999999100411MD1210211+9999MW1401REMSYN072AAXX  25094 04390 31984 12703 10028 21001 30041 40134 52021 74000 8103/;EQDQ01  00002PRCP99
0173043900999992000052512004+60030-043120FM-12+0019BGPC V0200301N004612200019N0300001N1+00431-00321101621ADDAA199000091GF102991001001999999001061MA1999999100701MD1210291+9999REMSYN076AAXX  25124 04390 32980 20309 10043 21032 30070 40162 52029 80006 333 91122;EQDQ01  00002PRCP99
0133043900999992000052515004+60030-043120FM-12+0019BGPC V0200201N006712200019N0400001N1+00461-00371101841ADDGF103991001001999999001061MA1999999100921MD1210221+9999REMSYN066AAXX  25154 04390 42982 30213 10046 21037 30092 40184 52022 80006;
0215043900999992000052518004+60030-043120FM-12+0019BGPC V0200301N007212200019N0400001N1+00461-00421102011ADDAA199000091GA1001+999999999GF100991001001999999001001KA1120M+00751KA2999N+00151MA1999999101081MD1210161+9999REMSYN076AAXX  25184 04390 32982 00314 10046 21042 30108 40201 52016 333 10075 20015;EQDQ01  00002PRCP99
0143043900999992000052521004+60030-043120FM-12+0019BGPC V0200101N002612200019N9999999N1+00541-00391102081ADDGA1001+999999999GF100991001001999999001001MA1999999101161MD1210081+9999REMSYN060AAXX  25214 04390 429// 00105 10054 21039 30116 40208 52008;
0183043900999992000052600004+60030-043120FM-12+0019BGPC V0209999C000012200019N0400001N1+00341-00451102161ADDAA199000091GA1001+999999999GF100991001001999999001001MA1999999101231MD1210071+9999REMSYN070AAXX  26004 04390 32982 00000 10034 21045 30123 40216 52007 333 91214;EQDQ01  00002PRCP99
0143043900999992000052603004+60030-043120FM-12+0019BGPC V0202201N000512200019N0150001N1+00171-00321102171ADDGA1001+999999999GF100991001001999999001001MA1999999101231MD1410001+9999REMSYN060AAXX  26034 04390 42965 02201 10017 21032 30123 40217 54000;
0215043900999992000052606004+60030-043120FM-12+0019BGPC V0202901N002112200019N0500001N1+00061-00261102171ADDAA199000091GA1001+999999999GF100991001001999999001001KA1120M+00611KA2999N+00031MA1999999101231MD1410001+9999REMSYN076AAXX  26064 04390 32984 02904 10006 21026 30123 40217 54000 333 10061 20003;EQDQ01  00002PRCP99
0201043900999992000052609004+60030-043120FM-12+0019BGPC V0203001N001512200019N9999999N1+00271-00111102201ADDAA199000091AY101031AY201031GA1001+999999999GF100991001001999999001001MA1999999101271MD1210041+9999MW1401REMSYN066AAXX  26094 04390 319// 03003 10027 21011 30127 40220 52004 74000;EQDQ01  00002PRCP99
0201043900999992000052612004+60030-043120FM-12+0019BGPC V0203001N001512200019N0400001N1+00461-00041102191ADDAA199000091AY101061AY201061GA1001+999999999GF100991001001999999001001MA1999999101261MD1710011+9999MW1401REMSYN066AAXX  26124 04390 31982 03003 10046 21004 30126 40219 57001 74000;EQDQ01  00002PRCP99
0133043900999992000052615004+60030-043120FM-12+0019BGPC V0202301N004612200019N0300001N1+00551-00041102121ADDGF101991001001999999001061MA1999999101201MD1710061+9999REMSYN066AAXX  26154 04390 42980 12309 10055 21004 30120 40212 57006 80006;
0205043900999992000052618004+60030-043120FM-12+0019BGPC V0202401N005112200019N0400001N1+00651-00051102041ADDAA199000091GF102991001001999999001051KA1120M+00761KA2999N+00061MA1999999101121MD1710081+9999REMSYN082AAXX  26184 04390 32982 22410 10065 21005 30112 40204 57008 80005 333 10076 20006;EQDQ01  00002PRCP99
0133043900999992000052621004+60030-043120FM-12+0019BGPC V0202301N004612200019N0500001N1+00641-00041102071ADDGF102991001001999999001061MA1999999101151MD1210031+9999REMSYN066AAXX  26214 04390 42984 22309 10064 21004 30115 40207 52003 80006;
0173043900999992000052700004+60030-043120FM-12+0019BGPC V0200201N003112200019N0400001N1+00401-00311102301ADDAA199000091GA1001+999999999GF100991001001999999001001MA1999999101371MD1210221+9999REMSYN060AAXX  27004 04390 32982 00206 10040 21031 30137 40230 52022;EQDQ01  00002PRCP99
0153043900999992000052703004+60030-043120FM-12+0019BGPC V0200301N003612200019N0200001N1+00391-00561102381ADDGA1001+999999999GF100991001001999999001001MA1999999101451MD1210081+9999REMSYN070AAXX  27034 04390 42970 00307 10039 21056 30145 40238 52008 333 91121;
0228043900999992000052706004+60030-043120FM-12+0019BGPC V0203201N001012200019N0600001N1+00341-00531102341ADDAA199000091GF101991001001999999001061KA1120M+00761KA2120N+00221MA1999999101411MD1710041+9999OA149901081REMSYN094AAXX  27064 04390 32986 13202 10034 21053 30141 40234 57004 80006 333 10076 20022 91121 91213;EQDQ01  00002PRCP99
0101043900999992000052709004+60030-043120FM-12+0019BGPC V0200301N004119999999N9999999N1+00261-00351102391ADDMA1999999101451MD1210041+9999REMSYN060AAXX  27094 04390 46/// /0308 10026 21035 30145 40239 52004;
0200043900999992000052712004+60030-043120FM-12+0019BGPC V0200401N004112200019N0400001N1+00551-00311102371ADDAA199000091GA1001+999999999GF100991001001999999001001MA1999999101441MD1710011+9999OA149901181REMSYN076AAXX  27124 04390 32982 00408 10055 21031 30144 40237 57001 333 91123 91218;EQDQ01  00002PRCP99
0131043900999992000052715004+60030-043120FM-12+0019BGPC V0203101N000519999999N9999999N1+00891-00341102251ADDAA199000091MA1999999101341MD1710101+9999REMSYN060AAXX  27154 04390 32/// /3101 10089 21034 30134 40225 57010;EQDQ01  00002PRCP99
0215043900999992000052718004+60030-043120FM-12+0019BGPC V0201701N002612200019N0300001N1+00791-00191102121ADDAA199000091GA1001+999999999GF100991001001999999001001KA1120M+01111KA2999N+00221MA1999999101201MD1710141+9999REMSYN076AAXX  27184 04390 32980 01705 10079 21019 30120 40212 57014 333 10111 20022;EQDQ01  00002PRCP99
0143043900999992000052721004+60030-043120FM-12+0019BGPC V0202301N004112200019N9999999N1+00741-00181101951ADDGA1001+999999999GF100991001001999999001001MA1999999101031MD1710171+9999REMSYN060AAXX  27214 04390 429// 02308 10074 21018 30103 40195 57017;
0163043900999992000052800004+60030-043120FM-12+0019BGPC V0202501N004112200019N0400001N1+00581-00381101801ADDAA199000091GF102991001001999999001041MA1999999100881MD1710151+9999REMSYN066AAXX  28004 04390 32982 22508 10058 21038 30088 40180 57015 80004;EQDQ01  00002PRCP99
0132043900999992000052803004+60030-043120FM-12+0019BGPC V0202501N003612200019N0150001N1+00581-00231101621ADDGF103991001001999999001041MA1999999100701MD1710181+9999REMSYN065AAXX  28034 04390 42965 32507 10058 21023 3007040162 57018 80004;
0205043900999992000052806004+60030-043120FM-12+0019BGPC V0202601N002612200019N0500001N1+00391-00171101491ADDAA199000091GF103991001001999999001041KA1120M+00791KA2999N+00261MA1999999100571MD1710131+9999REMSYN082AAXX  28064 04390 32984 32605 10039 21017 30057 40149 57013 80004 333 10079 20026;EQDQ01  00002PRCP99
0163043900999992000052809004+60030-043120FM-12+0019BGPC V0200401N000512200019N0500001N1+00461-00041101411ADDAA199000091GF103991001001999999001061MA1999999100491MD1710081+9999REMSYN066AAXX  28094 04390 32984 30401 10046 21004 30049 40141 57008 80006;EQDQ01  00002PRCP99
0163043900999992000052812004+60030-043120FM-12+0019BGPC V0200301N000519999999N0500001N1+00631+00121101421ADDAA199000091GF107991001001999999001061MA1999999100511MD1210021+9999REMSYN066AAXX  28124 04390 32984 70301 10063 20012 30051 40142 52002 80006;EQDQ01  00002PRCP99
0133043900999992000052815004+60030-043120FM-12+0019BGPC V0201501N001012200019N0400001N1+00811+00271101401ADDGF104991001001999999001061MA1999999100491MD1710021+9999REMSYN066AAXX  28154 04390 42982 41502 10081 20027 30049 40140 57002 80006;
0205043900999992000052818004+60030-043120FM-12+0019BGPC V0202701N002112200019N0300001N1+00691+00171101391ADDAA199000091GF103991001001999999001061KA1120M+00851KA2999N+00311MA1999999100481MD1710011+9999REMSYN082AAXX  28184 04390 32980 32704 10069 20017 30048 40139 57001 80006 333 10085 20031;EQDQ01  00002PRCP99
0133043900999992000052821004+60030-043120FM-12+0019BGPC V0203201N000512200019N0500001N1+00661+00131101351ADDGF102991001001999999001061MA1999999100441MD1710041+9999REMSYN066AAXX  28214 04390 42984 23201 10066 20013 30044 40135 57004 80006;
0163043900999992000052900004+60030-043120FM-12+0019BGPC V0203201N000512200019N0400001N1+00271+00041101421ADDAA199000091GF102991001001999999001041MA1999999100491MD1210051+9999REMSYN066AAXX  29004 04390 32982 23201 10027 20004 30049 40142 52005 80004;EQDQ01  00002PRCP99
0143043900999992000052903004+60030-043120FM-12+0019BGPC V0202501N001012200019N0300001N1+00001+00001101451ADDGA1001+999999999GF100991001001999999001001MA1999999100511MD1210021+9999REMSYN060AAXX  29034 04390 42980 02502 10000 20000 30051 40145 52002;
0205043900999992000052906004+60030-043120FM-12+0019BGPC V0202801N002112200019N0250001N1+00071+00011101421ADDAA199000091GF102991001001999999001061KA1120M+00731KA2999N-00051MA1999999100491MD1710021+9999REMSYN082AAXX  29064 04390 32975 22804 10007 20001 30049 40142 57002 80006 333 10073 21005;EQDQ01  00002PRCP99
0143043900999992000052909004+60030-043120FM-12+0019BGPC V0202901N006712200019N0500001N1+00091+00051101461ADDGA1001+999999999GF100991001001999999001001MA1999999100531MD1210041+9999REMSYN060AAXX  29094 04390 42984 02913 10009 20005 30053 40146 52004;
0173043900999992000052912004+60030-043120FM-12+0019BGPC V0203001N003112200019N0400001N1+00161+00121101541ADDAA199000091GA1001+999999999GF100991001001999999001001MA1999999100611MD1210081+9999REMSYN060AAXX  29124 04390 32982 03006 10016 20012 30061 40154 52008;EQDQ01  00002PRCP99
0133043900999992000052915004+60030-043120FM-12+0019BGPC V0203201N002112200019N0350001N1+00351+00171101631ADDGF102991001001999999001061MA1999999100701MD1210091+9999REMSYN066AAXX  29154 04390 42981 23204 10035 20017 30070 40163 52009 80006;
0205043900999992000052918004+60030-043120FM-12+0019BGPC V0200201N001012200019N0500001N1+00461+00051101641ADDAA199000091GF102991001001999999001061KA1120M+00601KA2999N+00071MA1999999100721MD1210021+9999REMSYN082AAXX  29184 04390 32984 20202 10046 20005 30072 40164 52002 80006 333 10060 20007;EQDQ01  00002PRCP99
0159043900999992000052921004+60030-043120FM-12+0019BGPC V0200801N001519999999N9999999N1+00381-00011101681ADDAA199000091AY101031AY201031MA1999999100751MD1210031+9999MW1401REMSYN066AAXX  29214 04390 31/// /0803 10038 21001 30075 40168 52003 74000;EQDQ01  00002PRCP99
0163043900999992000053000004+60030-043120FM-12+0019BGPC V0209999C000012200019N0500001N1+00081-00011101761ADDAA199000091GF102991001001999999001041MA1999999100821MD1210071+9999REMSYN066AAXX  30004 04390 32984 20000 10008 21001 30082 40176 52007 80004;EQDQ01  00002PRCP99
0133043900999992000053003004+60030-043120FM-12+0019BGPC V0202901N002112200019N0300001N1-00031-00031101771ADDGF102991001001999999001061MA1999999100831MD1210011+9999REMSYN066AAXX  30034 04390 42980 22904 11003 21003 30083 40177 52001 80006;
0205043900999992000053006004+60030-043120FM-12+0019BGPC V0202801N001012200019N0300001N1-00241-00241101781ADDAA199000091GF102991001001999999001061KA1120M+00471KA2999N-00331MA1999999100831MD1410001+9999REMSYN082AAXX  30064 04390 32980 22802 11024 21024 30083 40178 54000 80006 333 10047 21033;EQDQ01  00002PRCP99
0133043900999992000053009004+60030-043120FM-12+0019BGPC V0203001N002112200019N0500001N1+00111+00071101751ADDGF101991001001999999001061MA1999999100821MD1710011+9999REMSYN066AAXX  30094 04390 42984 13004 10011 20007 30082 40175 57001 80006;
0131043900999992000053012004+60030-043120FM-12+0019BGPC V0203101N001519999999N9999999N1+00311+00161101741ADDAA199000091MA1999999100811MD1710011+9999REMSYN060AAXX  30124 04390 32/// /3103 10031 20016 30081 40174 57001;EQDQ01  00002PRCP99
0171043900999992000053015004+60030-043120FM-12+0019BGPC V0203201N001012200019N0500001N1+00491+00141101711ADDAY101031AY201031GA1001+999999999GF100991001001999999001001MA1999999100791MD1710021+9999MW1401REMSYN066AAXX  30154 04390 41984 03202 10049 20014 30079 40171 57002 74000;
0205043900999992000053018004+60030-043120FM-12+0019BGPC V0202301N004612200019N0350001N1+00431+00131101561ADDAA199000091GF101991001001999999001041KA1120M+00581KA2999N-00241MA1999999100641MD1710151+9999REMSYN082AAXX  30184 04390 32981 12309 10043 20013 30064 40156 57015 80004 333 10058 21024;EQDQ01  00002PRCP99
0163043900999992000053021004+60030-043120FM-12+0019BGPC V0202601N001512200019N0500001N1+00531+00171101411ADDAA199000091GF101991001001999999001041MA1999999100491MD1710151+9999REMSYN066AAXX  30214 04390 32984 12603 10053 20017 30049 40141 57015 80004;EQDQ01  00002PRCP99
0163043900999992000053100004+60030-043120FM-12+0019BGPC V0202801N003112200019N0500001N1+00201+00041101371ADDAA199000091GF102991021001999999041001MA1999999100441MD1710051+9999REMSYN066AAXX  31004 04390 32984 22806 10020 20004 30044 40137 57005 82040;EQDQ01  00002PRCP99
0129043900999992000053103004+60030-043120FM-12+0019BGPC V0201001N003119999999N9999999N1-00261-00261101391ADDAY141031AY201031MA1999999100451MD1210011+9999MW1471REMSYN066AAXX  31034 04390 41/// /1006 11026 21026 30045 40139 52001 74740;
0227043900999992000053106004+60030-043120FM-12+0019BGPC V0201001N002119999999N9999999N1-00241-00241101351ADDAA199000091AY141061AY201061GF108991999999999999999999KA1120M+00611KA2999N-00281MA1999999100411MD1710041+9999MW1451REMSYN082AAXX  31064 04390 31/// 81004 11024 21024 30041 40135 57004 74540 333 10061 21028;EQDQ01  00002PRCP99
0129043900999992000053109004+60030-043120FM-12+0019BGPC V0209999C000019999999N0003001N1-00171-00171101291ADDAY141031AY241031MA1999999100351MD1710061+9999MW1451REMSYN066AAXX  31094 04390 41/03 /0000 11017 21017 30035 40129 57006 74544;
0191043900999992000053112004+60030-043120FM-12+0019BGPC V0200201N001012200019N0200001N1+00221+00121101231ADDAA199000091AY141061AY201061GF101991001001999999001061MA1999999100301MD1710051+9999MW1401REMSYN072AAXX  31124 04390 31970 10202 10022 20012 30030 40123 57005 74040 80006;EQDQ01  00002PRCP99
0159043900999992000053115004+60030-043120FM-12+0019BGPC V0200701N001019999999N9999999N1+00191+00001101191ADDAA199000091AY101031AY201031MA1999999100261MD1710041+9999MW1401REMSYN066AAXX  31154 04390 31/// /0702 10019 21000 30026 40119 57004 74000;EQDQ01  00002PRCP99
0215043900999992000053118004+60030-043120FM-12+0019BGPC V0202901N000512200019N0500001N1+00481+00021101011ADDAA199000091GA1001+999999999GF100991001001999999001001KA1120M+00691KA2999N-00291MA1999999100091MD1710171+9999REMSYN076AAXX  31184 04390 32984 02901 10048 20002 30009 40101 57017 333 10069 21029;EQDQ01  00002PRCP99
0159043900999992000053121004+60030-043120FM-12+0019BGPC V0202301N002119999999N9999999N1+00651+00081100871ADDAA199000091AY101031AY201031MA1999999099961MD1710131+9999MW1401REMSYN066AAXX  31214 04390 31/// /2304 10065 20008 39996 40087 57013 74000;EQDQ01  00002PRCP99
0163043900999992000060100004+60030-043120FM-12+0019BGPC V0202601N001512200019N0300001N1+00351-00051100801ADDAA199000091GF102991001001999999001061MA1999999099881MD1710081+9999REMSYN066AAXX  01004 04390 32980 22603 10035 21005 39988 40080 57008 80006;EQDQ01  00002PRCP99
0171043900999992000060103004+60030-043120FM-12+0019BGPC V0201001N002612200019N0002001N1-00251-00251100761ADDAY141031AY241031GA1001+999999999GF100991001001999999001001MA1999999099821MD1710061+9999MW1441REMSYN066AAXX  01034 04390 41902 01005 11025 21025 39982 40076 57006 74444;
0227043900999992000060106004+60030-043120FM-12+0019BGPC V0201001N002119999999N0001001N1-00361-00361100731ADDAA199000091AY141061AY241061GF108991999999999999999999KA1120M+00841KA2999N-00371MA1999999099791MD1710031+9999MW1451REMSYN082AAXX  01064 04390 31/01 81004 11036 21036 39979 40073 57003 74544 333 10084 21037;EQDQ01  00002PRCP99
0171043900999992000060109004+60030-043120FM-12+0019BGPC V0209999C000019999999N9999999N1-00241-00241100751ADDAY141031AY241031GA1091+999999999GF109991091999999999999999MA1999999099811MD1210021+9999MW1451REMSYN066AAXX  01094 04390 41/// 90000 11024 21024 39981 40075 52002 74544;
0191043900999992000060112004+60030-043120FM-12+0019BGPC V0203301N001019999999N0500001N1+00261+00031100741ADDAA199000091AY101061AY221061GF106991001001999999001041MA1999999099821MD1210011+9999MW1401REMSYN072AAXX  01124 04390 31984 63302 10026 20003 39982 40074 52001 74002 80004;EQDQ01  00002PRCP99
0133043900999992000060115004+60030-043120FM-12+0019BGPC V0200901N002619999999N0300001N1+00001-00101100891ADDGF107991001001999999001071MA1999999099961MD1210141+9999REMSYN066AAXX  01154 04390 42980 70905 10000 21010 39996 40089 52014 80007;
0205043900999992000060118004+60030-043120FM-12+0019BGPC V0200801N003619999999N0300001N1-00051-00121100931ADDAA199000091GF107991071001999999071999KA1120M+00411KA2999N-00361MA1999999100001MD1210041+9999REMSYN082AAXX  01184 04390 32980 70807 11005 21012 30000 40093 52004 8707/ 333 10041 21036;EQDQ01  00002PRCP99
0191043900999992000060121004+60030-043120FM-12+0019BGPC V0200901N003119999999N0300001N1-00101-00111100971ADDAA199000091AY121031AY221031GF107991001001999999001051MA1999999100041MD1210041+9999MW1401REMSYN072AAXX  01214 04390 31980 70906 11010 21011 30004 40097 52004 74022 80005;EQDQ01  00002PRCP99
0163043900999992000060200004+60030-043120FM-12+0019BGPC V0200501N001510750019N0200001N1-00111-00121101021ADDAA199000091GF107991021021004501001051MA1999999100081MD1210041+9999REMSYN066AAXX  02004 04390 32470 70503 11011 21012 30008 40102 52004 82205;EQDQ01  00002PRCP99
0161043900999992000060203004+60030-043120FM-12+0019BGPC V0200201N003110042019N0200001N1-00031-00031101041ADDAY171031AY221031GF108991081061004501999999MA1999999100111MD1210031+9999MW1771REMSYN072AAXX  02034 04390 41470 80206 11003 21003 30011 40104 52003 77772 886//;
0214043900999992000060206004+60030-043120FM-12+0019BGPC V0200301N008219999999N0020001N1+00001+00001100961ADDAA199000021AY141061AY241061GF108991999999999999999999KA1120M+00051KA2120N-00151MA1999999100031MD1710081+9999MW1041REMSYN088AAXX  02064 04390 31920 80316 10000 20000 30003 40096 57008 70444 333 10005 21015 91120;
0171043900999992000060209004+60030-043120FM-12+0019BGPC V0200301N011810042019N0020001N1-00031-00031100981ADDAY171031AY221031GF108991081071004501999999MA1999999100051MD1210021+9999MW1711REMSYN082AAXX  02094 04390 41420 80323 11003 21003 30005 40098 52002 77172 887// 333 91135;
0205043900999992000060212004+60030-043120FM-12+0019BGPC V0200301N013410042019N0020001N1+00021+00021101011ADDAA106002091AY171061AY271061GF108991081071004501999999MA1999999100081MD1210031+9999MW1711OA149902161REMSYN094AAXX  02124 04390 11420 80326 10002 20002 30008 40101 52003 60021 77177 887// 333 91142 91040;
0188043900999992000060215004+60030-043120FM-12+0019BGPC V0200301N013410120019N0020001N1+00021+00011101001ADDAY171031AY271031GF108991081001012501021999MA1999999100071MD1710011+9999MW1681OA149902471REMSYN088AAXX  02154 04390 41620 80326 10002 20001 30007 40100 57001 76877 8802/ 333 91148 91039;
0243043900999992000060218004+60030-043120FM-12+0019BGPC V0200201N015410042019N0060001N1+00041+00041101011ADDAA112003091AY171061AY271061GF108991081071004501999999KA1120M+00091KA2120N-00061MA1999999100081MD1210011+9999MW1681OA149902571REMSYN106AAXX  02184 04390 11456 80230 10004 20004 30008 40101 52001 60032 76877 887// 333 10009 21006 91150 91046;
0205043900999992000060221004+60030-043120FM-12+0019BGPC V0200201N015410120019N0010001N1+00031+00031101041ADDAA112003091AY171031AY271031GF108991081001012501021999MA1999999100111MD1210031+9999MW1691OA149902681REMSYN094AAXX  02214 04390 11610 80230 10003 20003 30011 40104 52003 60032 76977 8802/ 333 91152 91045;
0205043900999992000060300004+60030-043120FM-12+0019BGPC V0200201N017010042019N0100001N1+00091+00091100971ADDAA106001091AY171061AY271061GF108991081071004501999999MA1999999100041MD1710071+9999MW1711OA149902681REMSYN094AAXX  03004 04390 11460 80233 10009 20009 30004 40097 57007 69991 77177 887// 333 91152 91044;
0188043900999992000060303004+60030-043120FM-12+0019BGPC V0200201N015410120019N0030001N1+00061+00051100961ADDAY171031AY271031GF108991081001012501021999MA1999999100031MD1710011+9999MW1681OA149902681REMSYN088AAXX  03034 04390 41630 80230 10006 20005 30003 40096 57001 76877 8802/ 333 91152 91044;
0243043900999992000060306004+60030-043120FM-12+0019BGPC V0200201N014410042019N0030001N1+00051+00051100871ADDAA112002091AY171061AY271061GF108991081071004501999999KA1120M+00111KA2120N-00021MA1999999099941MD1710091+9999MW1681OA149902681REMSYN106AAXX  03064 04390 11430 80228 10005 20005 39994 40087 57009 60022 76877 887// 333 10011 21002 91152 91039;
0188043900999992000060309004+60030-043120FM-12+0019BGPC V0200301N018510120019N0050001N1+00161+00161100701ADDAY171031AY271031GF108991081001012501021999MA1999999099781MD1710161+9999MW1681OA149903041REMSYN088AAXX  03094 04390 41650 80336 10016 20016 39978 40070 57016 76877 8802/ 333 91159 91059;
0205043900999992000060312004+60030-043120FM-12+0019BGPC V0200301N017010120019N0020001N1+00141+00141100591ADDAA106001091AY161061AY261061GF108991081001012501021999MA1999999099671MD1710111+9999MW1631OA149903091REMSYN094AAXX  03124 04390 11620 80333 10014 20014 39967 40059 57011 60011 76366 8802/ 333 91160 91053;
0188043900999992000060315004+60030-043120FM-12+0019BGPC V0200301N017010150019N0100001N1+00161+00161100521ADDAY171031AY271031GF108991081001017501021999MA1999999099601MD1710071+9999MW1681OA149902931REMSYN088AAXX  03154 04390 41760 80333 10016 20016 39960 40052 57007 76877 8802/ 333 91157 91050;
0243043900999992000060318004+60030-043120FM-12+0019BGPC V0200101N015410120019N0030001N1+00211+00181100361ADDAA112006191AY171061AY261061GF108991081001012501021999KA1120M+00271KA2120N+00051MA1999999099441MD1710161+9999MW1611OA149902931REMSYN106AAXX  03184 04390 11630 80130 10021 20018 39944 40036 57016 60062 76176 8802/ 333 10027 20005 91157 91050;
0205043900999992000060321004+60030-043120FM-12+0019BGPC V0200201N019010120019N0050001N1+00341+00341100141ADDAA112006191AY161031AY261031GF108991081001012501021999MA1999999099231MD1710211+9999MW1631OA149903041REMSYN094AAXX  03214 04390 11650 80237 10034 20034 39923 40014 57021 60062 76366 8802/ 333 91159 91056;
0128043900999992000060400004+60030-043120FM-12+0019BGPC V0200201N019019999999N9999999N1+00401+00371099951ADDMA1999999099041MD1710191+9999OA149903291REMSYN076AAXX  04004 04390 46/// /0237 10040 20037 39904 49995 57019 333 91164 91058;
0160043900999992000060403004+60030-043120FM-12+0019BGPC V0200301N019010120019N0050001N1+00361+00361099871ADDGF108991081001012501021999MA1999999098961MD1710081+9999OA149903401REMSYN082AAXX  04034 04390 42650 80337 10036 20036 39896 49987 57008 8802/ 333 91166 91051;
0172043900999992000060406004+60030-043120FM-12+0019BGPC V0200201N014919999999N9999999N1+00321+00321099661ADDKA1120M+00461KA2120N+00211MA1999999098751MD1710211+9999OA149903401REMSYN094AAXX  04064 04390 46/// /0229 10032 20032 39875 49966 57021 333 10046 20021 91166 91039 91242;
0168043900999992000060409004+60030-043120FM-12+0019BGPC V0200301N013910120019N0050001N1+00351+00301099641ADDAY161031AY261031GF108991081001012501021999MA1999999098731MW1611OA149902261REMSYN082AAXX  04094 04390 41650 80327 10035 20030 39873 49964 76166 8802/ 333 91144 91038;
0188043900999992000060412004+60030-043120FM-12+0019BGPC V0200201N012310120019N0020001N1+00261+00241099651ADDAA106011991AY161061AY261061GF108991081001012501021999MA1999999098741MD1210011+9999MW1631REMSYN088AAXX  04124 04390 11620 80224 10026 20024 39874 49965 52001 60121 76366 8802/ 333 91144;
0171043900999992000060415004+60030-043120FM-12+0019BGPC V0200201N013910120019N0100001N1+00241+00221099551ADDAY171031AY271031GF108991081001012501021999MA1999999098641MD1710101+9999MW1681REMSYN082AAXX  04154 04390 41660 80227 10024 20022 39864 49955 57010 76877 8802/ 333 91137;
0243043900999992000060418004+60030-043120FM-12+0019BGPC V0200301N010810120019N0100001N1+00281+00191099551ADDAA112021191AY161061AY261061GF108991081001012501021999KA1120M+00351KA2120N+00191MA1999999098641MD1410001+9999MW1611OA149902161REMSYN106AAXX  04184 04390 11660 80321 10028 20019 39864 49955 54000 60212 76166 8802/ 333 10035 20019 91142 91032;
0188043900999992000060421004+60030-043120FM-12+0019BGPC V0200201N011310120019N0050001N1+00291+00291099661ADDAA112000791AY161031AY261031GF108991081001012501021999MA1999999098751MD1210111+9999MW1631REMSYN088AAXX  04214 04390 11650 80222 10029 20029 39875 49966 52011 69902 76366 8802/ 333 91137;
0188043900999992000060500004+60030-043120FM-12+0019BGPC V0200201N011810150019N0050001N1+00241+00241099831ADDAA106007991AY161061AY261061GF108991081001017501021999MA1999999098921MD1210171+9999MW1631REMSYN088AAXX  05004 04390 11750 80223 10024 20024 39892 49983 52017 60081 76366 8802/ 333 91137;
0188043900999992000060503004+60030-043120FM-12+0019BGPC V0200201N008210150019N0100001N1+00261+00221099801ADDAY161031AY261031GF108991081001017501021999MA1999999098891MD1710031+9999MW1631OA149901651REMSYN088AAXX  05034 04390 41760 80216 10026 20022 39889 49980 57003 76366 8802/ 333 91132 91027;
0243043900999992000060506004+60030-043120FM-12+0019BGPC V0200101N005110120019N0050001N1+00251+00191099791ADDAA112011991AY161061AY261061GF108991081001012501021999KA1120M+00321KA2120N+00201MA1999999098881MD1710011+9999MW1611OA149901651REMSYN106AAXX  05064 04390 11650 80110 10025 20019 39888 49979 57001 60122 76166 8802/ 333 10032 20020 91132 91224;
0171043900999992000060509004+60030-043120FM-12+0019BGPC V0203001N002110150019N0100001N1+00251+00231099771ADDAY161031AY261031GF108991081001017501021999MA1999999098861MD1710021+9999MW1631REMSYN082AAXX  05094 04390 41760 83004 10025 20023 39886 49977 57002 76366 8802/ 333 91121;
0205043900999992000060512004+60030-043120FM-12+0019BGPC V0202801N001510120019N0150001N1+00471+00291099571ADDAA106003091AY161061AY261061GF108991081001012501021999MA1999999098671MD1710191+9999MW1611OA149901081REMSYN094AAXX  05124 04390 11665 82803 10047 20029 39867 49957 57019 60031 76166 8802/ 333 91121 91213;
0161043900999992000060515004+60030-043120FM-12+0019BGPC V0202601N002610120019N0250001N1+00561+00341099601ADDAY161031AY261031GF108991081001012501021999MA1999999098701MD1210031+9999MW1611REMSYN072AAXX  05154 04390 41675 82605 10056 20034 39870 49960 52003 76166 8802/;
0220043900999992000060518004+60030-043120FM-12+0019BGPC V0203101N002110120019N0150001N1+00491+00411099601ADDAA112007191AY161061AY261061GF108991081001012501021999KA1120M+00651KA2999N+00191MA1999999098701MD1410001+9999MW1631REMSYN094AAXX  05184 04390 11665 83104 10049 20041 39870 49960 54000 60072 76366 8802/ 333 10065 20019;
0161043900999992000060521004+60030-043120FM-12+0019BGPC V0202801N001010120019N0150001N1+00411+00381099571ADDAY161031AY261031GF108991081001012501021999MA1999999098671MD1710031+9999MW1631REMSYN072AAXX  05214 04390 41665 82802 10041 20038 39867 49957 57003 76366 8802/;
0178043900999992000060600004+60030-043120FM-12+0019BGPC V0202801N001510120019N0100001N1+00381+00381099691ADDAA106005191AY161061AY261061GF108991081001012501021999MA1999999098781MD1210111+9999MW1631REMSYN078AAXX  06004 04390 11660 82803 10038 20038 39878 49969 52011 60051 76366 8802/;
0161043900999992000060603004+60030-043120FM-12+0019BGPC V0202801N001510210019N0100001N1+00231+00231099531ADDAY161031AY261031GF108991081001022501021999MA1999999098621MD1710161+9999MW1611REMSYN072AAXX  06034 04390 41860 82803 10023 20023 39862 49953 57016 76166 8802/;
0161043900999992000060609004+60030-043120FM-12+0019BGPC V0203101N003119999999N0500001N1+00201+00201099641ADDAY161031AY221031GF108991081001999999011999MA1999999098731MD1210091+9999MW1001REMSYN072AAXX  06094 04390 41984 83106 10020 20020 39873 49964 52009 70062 8801/;
0178043900999992000060612004+60030-043120FM-12+0019BGPC V0203101N003110120019N0150001N1+00141+00111099841ADDAA106000591AY161061AY261061GF108991081001012501021999MA1999999098921MD1210191+9999MW1611REMSYN078AAXX  06124 04390 11665 83106 10014 20011 39892 49984 52019 69961 76166 8802/;
0161043900999992000060615004+60030-043120FM-12+0019BGPC V0202901N000510300019N0150001N1+00541+00521100051ADDAY161031AY261031GF108991021071004501021999MA1999999099141MD1210221+9999MW1611REMSYN072AAXX  06154 04390 41465 82901 10054 20052 39914 40005 52022 76166 8272/;
0220043900999992000060618004+60030-043120FM-12+0019BGPC V0202801N000510012019N0050001N1+00411+00411100181ADDAA112003091AY161061AY261061GF108991081071001501999999KA1120M+00661KA2999N+00111MA1999999099271MD1210131+9999MW1511REMSYN094AAXX  06184 04390 11250 82801 10041 20041 39927 40018 52013 60032 75166 887// 333 10066 20011;
0161043900999992000060621004+60030-043120FM-12+0019BGPC V0203101N001510300019N0050001N1+00351+00351100391ADDAY151031AY251031GF108991011071002501021999MA1999999099481MD1210211+9999MW1511REMSYN072AAXX  06214 04390 41350 83103 10035 20035 39948 40039 52021 75155 8172/;
0178043900999992000060700004+60030-043120FM-12+0019BGPC V0202401N000510120019N0150001N1+00401+00401100671ADDAA106003091AY151061AY251061GF108991081001012501021999MA1999999099751MD1210271+9999MW1511REMSYN078AAXX  07004 04390 11665 82401 10040 20040 39975 40067 52027 60031 75155 8802/;
0161043900999992000060703004+60030-043120FM-12+0019BGPC V0202701N001010150019N0100001N1+00381+00331100861ADDAY161031AY261031GF108991081001017501021999MA1999999099941MD1210191+9999MW1511REMSYN072AAXX  07034 04390 41760 82702 10038 20033 39994 40086 52019 75166 8802/;
0220043900999992000060706004+60030-043120FM-12+0019BGPC V0201901N001019999999N0300001N1+00341+00271101001ADDAA112004191AY161061AY221061GF108991081001999999071999KA1120M+00521KA2999N+00271MA1999999100081MD1210141+9999MW1001REMSYN094AAXX  07064 04390 11980 81902 10034 20027 30008 40100 52014 60042 70062 8807/ 333 10052 20027;
0133043900999992000060709004+60030-043120FM-12+0019BGPC V0200801N002119999999N0600001N1+00261+00261101181ADDGF107991071001999999021999MA1999999100261MD1210181+9999REMSYN066AAXX  07094 04390 42986 70804 10026 20026 30026 40118 52018 8702/;
0178043900999992000060712004+60030-043120FM-12+0019BGPC V0201701N001010300019N0200001N1+00461+00351101441ADDAA106000791AY151061AY221061GF107991011071002501021999MA1999999100521MD1210261+9999MW1001REMSYN078AAXX  07124 04390 11370 71702 10046 20035 30052 40144 52026 69901 70052 8172/;
0133043900999992000060715004+60030-043120FM-12+0019BGPC V0200501N002119999999N0400001N1+00721+00381101691ADDGF107991071001999999051999MA1999999100781MD1210261+9999REMSYN066AAXX  07154 04390 42982 70504 10072 20038 30078 40169 52026 8705/;
0205043900999992000060718004+60030-043120FM-12+0019BGPC V0203101N003112200019N0500001N1+00841+00341101851ADDAA199000091GF103991031001999999071001KA1120M+00851KA2999N+00191MA1999999100941MD1210161+9999REMSYN082AAXX  07184 04390 32984 33106 10084 20034 30094 40185 52016 83070 333 10085 20019;EQDQ01  00002PRCP99
0133043900999992000060721004+60030-043120FM-12+0019BGPC V0201001N002612200019N0500001N1+00671+00291101961ADDGF101991011001999999051999MA1999999101041MD1210101+9999REMSYN066AAXX  07214 04390 42984 11005 10067 20029 30104 40196 52010 8105/;
0173043900999992000060800004+60030-043120FM-12+0019BGPC V0201501N001012200019N9999999N1+00571+00251102061ADDAA199000091GA1001+999999999GF100991001001999999001001MA1999999101141MD1210101+9999REMSYN060AAXX  08004 04390 329// 01502 10057 20025 30114 40206 52010;EQDQ01  00002PRCP99
0133043900999992000060803004+60030-043120FM-12+0019BGPC V0201701N002112200019N0200001N1+00341+00251102081ADDGF102991001001999999001061MA1999999101151MD1210011+9999REMSYN066AAXX  08034 04390 42970 21704 10034 20025 30115 40208 52001 80006;
0205043900999992000060806004+60030-043120FM-12+0019BGPC V0201801N001012200019N0300001N1+00261+00261101971ADDAA199000091GF102991001001999999001051KA1120M+00921KA2999N+00231MA1999999101041MD1710111+9999REMSYN082AAXX  08064 04390 32980 21802 10026 20026 30104 40197 57011 80005 333 10092 20023;EQDQ01  00002PRCP99
0161043900999992000060809004+60030-043120FM-12+0019BGPC V0201601N002112200019N0009001N1+00091+00091101881ADDAY141031AY201031GF102991001001999999001051MA1999999100941MD1710101+9999MW1461REMSYN072AAXX  08094 04390 41909 21604 10009 20009 30094 40188 57010 74640 80005;
0201043900999992000060812004+60030-043120FM-12+0019BGPC V0200701N002610001519N0001001N1+00201+00201101741ADDAA199000091AY141061AY241061GA1091+999999999GF109991091999999999999999MA1999999100811MD1710131+9999MW1471REMSYN066AAXX  08124 04390 31/01 90705 10020 20020 30081 40174 57013 74744;EQDQ01  00002PRCP99
0161043900999992000060815004+60030-043120FM-12+0019BGPC V0200701N002610042019N0100001N1+00231+00231101501ADDAY141031AY221031GF108991081061004501999999MA1999999100571MD1710241+9999MW1001REMSYN072AAXX  08154 04390 41460 80705 10023 20023 30057 40150 57024 70042 886//;
0243043900999992000060818004+60030-043120FM-12+0019BGPC V0200501N004619999999N9999999N1+00171+00171101221ADDAA199000091AY141061AY211061GA1091+999999999GF109991091999999999999999KA1120M+00501KA2999N-00031MA1999999100291MD1710281+9999MW1471REMSYN082AAXX  08184 04390 31/// 90509 10017 20017 30029 40122 57028 74741 333 10050 21003;EQDQ01  00002PRCP99
0199043900999992000060821004+60030-043120FM-12+0019BGPC V0200301N009819999999N9999999N1+00211+00181100701ADDAA112000791AY141031AY241031GF108991999999999999999999MA1999999099781MD1710511+9999MW1451OA149901701REMSYN088AAXX  08214 04390 11/// 80319 10021 20018 39978 40070 57051 69902 74544 333 91133 91033;
0205043900999992000060900004+60030-043120FM-12+0019BGPC V0200501N009310006019N0080001N1+00181+00181100381ADDAA106002091AY151061AY241061GF108991081061000751999999MA1999999099461MD1710321+9999MW1531OA149901851REMSYN094AAXX  09004 04390 11158 80518 10018 20018 39946 40038 57032 60021 75354 886// 333 91136 91029;
0188043900999992000060903004+60030-043120FM-12+0019BGPC V0200601N009810042019N0050001N1+00251+00251100111ADDAY161031AY261031GF108991081071004501999999MA1999999099191MD1710271+9999MW1631OA149901701REMSYN088AAXX  09034 04390 41450 80619 10025 20025 39919 40011 57027 76366 887// 333 91133 91030;
0243043900999992000060906004+60030-043120FM-12+0019BGPC V0200401N012910300019N0100001N1+00271+00271099921ADDAA112013091AY161061AY261061GF108991041071004501021999KA1120M+00311KA2120N+00141MA1999999099011MD1710181+9999MW1631OA149902161REMSYN106AAXX  09064 04390 11460 80425 10027 20027 39901 49992 57018 60132 76366 8472/ 333 10031 20014 91142 91039;
0188043900999992000060909004+60030-043120FM-12+0019BGPC V0200301N017510042019N0100001N1+00311+00281100091ADDAY161031AY261031GF108991071071004501021999MA1999999099181MD1210171+9999MW1631OA149902681REMSYN088AAXX  09094 04390 41460 80334 10031 20028 39918 40009 52017 76366 8772/ 333 91152 91046;
0205043900999992000060912004+60030-043120FM-12+0019BGPC V0200301N015910042019N0100001N1+00271+00271100541ADDAA106004191AY161061AY261061GF108991081071004501999999MA1999999099621MD1210441+9999MW1611OA149902831REMSYN094AAXX  09124 04390 11460 80331 10027 20027 39962 40054 52044 60041 76166 887// 333 91155 91047;
0194043900999992000060915004+60030-043120FM-12+0019BGPC V0200301N012310300019N0300001N1+00391-00051100781ADDAY161031AY221031GF107991021021012501011999MA1999999099861MD1210241+9999MW1001OA149902421REMSYN094AAXX  09154 04390 41680 70324 10039 21005 39986 40078 52024 70062 8221/ 333 91147 91039 91234;
0215043900999992000060918004+60030-043120FM-12+0019BGPC V0203601N007210300019N0400001N1+00391+00061100971ADDAA112004191GF106991041021012501051051KA1120M+00491KA2120N+00241MA1999999100051MD1210191+9999OA149902421REMSYN100AAXX  09184 04390 12682 63614 10039 20006 30005 40097 52019 60042 84255 333 10049 20024 91147 91234;
0154043900999992000060921004+60030-043120FM-12+0019BGPC V0203301N005112200019N0500001N1+00381+00051101251ADDAA199000021GF105991011001022501041091MA1999999100331MD1210281+9999REMSYN076AAXX  09214 04390 32884 53310 10038 20005 30033 40125 52028 81049 333 91124;
0171043900999992000061000004+60030-043120FM-12+0019BGPC V0203501N003112200019N0400001N1+00341+00091101301ADDAA199000021GF104991031001999999071041MA1999999100381MD1210051+9999OA149901241REMSYN082AAXX  10004 04390 32982 43506 10034 20009 30038 40130 52005 83074 333 91124 91219;
0133043900999992000061003004+60030-043120FM-12+0019BGPC V0200201N001012200019N0500001N1+00291+00171101321ADDGF104991021001999999041061MA1999999100401MD1210021+9999REMSYN066AAXX  10034 04390 42984 40202 10029 20017 30040 40132 52002 82046;
0205043900999992000061006004+60030-043120FM-12+0019BGPC V0200101N001512200019N0500001N1+00311+00141101251ADDAA199000091GF102991011001999999041071KA1120M+00491KA2999N+00261MA1999999100331MD1710071+9999REMSYN082AAXX  10064 04390 32984 20103 10031 20014 30033 40125 57007 81047 333 10049 20026;EQDQ01  00002PRCP99
0133043900999992000061009004+60030-043120FM-12+0019BGPC V0203301N001512200019N0500001N1+00421+00201101171ADDGF102991011001999999041061MA1999999100251MD1710081+9999REMSYN066AAXX  10094 04390 42984 23303 10042 20020 30025 40117 57008 81046;
0163043900999992000061012004+60030-043120FM-12+0019BGPC V0200401N001510300019N0300001N1+00501+00181101111ADDAA199000091GF107991011021008001021999MA1999999100191MD1710061+9999REMSYN066AAXX  10124 04390 32580 70403 10050 20018 30019 40111 57006 8122/;EQDQ01  00002PRCP99
0133043900999992000061015004+60030-043120FM-12+0019BGPC V0203201N004112200019N0500001N1+00521+00201100941ADDGF103991031001999999031999MA1999999100031MD1710161+9999REMSYN066AAXX  10154 04390 42984 33208 10052 20020 30003 40094 57016 8303/;
0205043900999992000061018004+60030-043120FM-12+0019BGPC V0200301N004610120019N0500001N1+00541+00111100811ADDAA199000091GF108991071051012501041999KA1120M+00591KA2999N+00251MA1999999099901MD1710131+9999REMSYN082AAXX  10184 04390 32684 80309 10054 20011 39990 40081 57013 8754/ 333 10059 20025;EQDQ01  00002PRCP99
0163043900999992000061021004+60030-043120FM-12+0019BGPC V0200201N003610042019N0400001N1+00371+00161100731ADDAA199000091GF107991061071004501041999MA1999999099811MD1710091+9999REMSYN066AAXX  10214 04390 32482 70207 10037 20016 39981 40073 57009 8674/;EQDQ01  00002PRCP99
0163043900999992000061100004+60030-043120FM-12+0019BGPC V0200201N006210075019N0400001N1+00331+00211100631ADDAA199000091GF106991061031008001999999MA1999999099711MD1710101+9999REMSYN066AAXX  11004 04390 32582 60212 10033 20021 39971 40063 57010 863//;EQDQ01  00002PRCP99
0171043900999992000061103004+60030-043120FM-12+0019BGPC V0200301N008710075019N0050001N1+00251+00151100561ADDAY161031AY261031GF107991071031008001999999MA1999999099641MD1710071+9999MW1601REMSYN082AAXX  11034 04390 41550 70317 10025 20015 39964 40056 57007 76066 873// 333 91123;
0198043900999992000061106004+60030-043120FM-12+0019BGPC V0200301N009810300019N0300001N1+00211+00141100481ADDAA112000791GF107991031041012501021999KA1120M+00581KA2120N+00191MA1999999099561MD1710081+9999REMSYN094AAXX  11064 04390 12680 70319 10021 20014 39956 40048 57008 69902 8342/ 333 10058 20019 91131;
0143043900999992000061109004+60030-043120FM-12+0019BGPC V0200301N012310042019N0400001N1+00281+00131100491ADDGF108991071071004501011999MA1999999099571MD1210011+9999REMSYN076AAXX  11094 04390 42482 80324 10028 20013 39957 40049 52001 8771/ 333 91141;
0154043900999992000061112004+60030-043120FM-12+0019BGPC V0200201N009810300019N0300001N1+00261+00051100511ADDAA199000021GF107991021041012501021999MA1999999099591MD1210021+9999REMSYN076AAXX  11124 04390 32680 70219 10026 20005 39959 40051 52002 8242/ 333 91141;
0143043900999992000061115004+60030-043120FM-12+0019BGPC V0200201N009319999999N0400001N1+00281+00071100441ADDGF107991071001999999051999MA1999999099521MD1710071+9999REMSYN076AAXX  11154 04390 42982 70218 10028 20007 39952 40044 57007 8705/ 333 91136;
0234043900999992000061118004+60030-043120FM-12+0019BGPC V0200201N008710150019N0500001N1+00291+00051100401ADDAA199000091GF107991061051017501041999KA1120M+00391KA2120N+00161MA1999999099481MD1710041+9999OA149901851REMSYN100AAXX  11184 04390 32784 70217 10029 20005 39948 40040 57004 8654/ 333 10039 20016 91136 91028 91228;EQDQ01  00002PRCP99
0173043900999992000061121004+60030-043120FM-12+0019BGPC V0200301N010310300019N0400001N1+00271+00011100431ADDAA199000091GF107991021041012501051999MA1999999099511MD1210031+9999REMSYN076AAXX  11214 04390 32682 70320 10027 20001 39951 40043 52003 8245/ 333 91131;EQDQ01  00002PRCP99
0190043900999992000061200004+60030-043120FM-12+0019BGPC V0203301N004612200019N0400001N1+00271-00011100431ADDAA199000091GF104991011041008001051051MA1999999099511MD1410001+9999OA149901601REMSYN082AAXX  12004 04390 32582 43309 10027 21001 39951 40043 54000 81455 333 91131 91222;EQDQ01  00002PRCP99
0173043900999992000061203004+60030-043120FM-12+0019BGPC V0200301N004112200019N0250001N1+00191+00001100371ADDAA199000091GF101991011001999999041999MA1999999099451MD1710061+9999REMSYN076AAXX  12034 04390 32975 10308 10019 21000 39945 40037 57006 8104/ 333 91124;EQDQ01  00002PRCP99
0228043900999992000061206004+60030-043120FM-12+0019BGPC V0203601N001012200019N0500001N1+00031+00001100421ADDAA199000091GF102991021021012501041999KA1120M+00311KA2120N-00051MA1999999099491MD1210041+9999OA149901241REMSYN094AAXX  12064 04390 32684 23602 10003 20000 39949 40042 52004 8224/ 333 10031 21005 91124 91216;EQDQ01  00002PRCP99
0133043900999992000061209004+60030-043120FM-12+0019BGPC V0202901N000512200019N0400001N1+00251+00121100481ADDGF104991001001999999001061MA1999999099561MD1210071+9999REMSYN066AAXX  12094 04390 42982 42901 10025 20012 39956 40048 52007 80006;
0163043900999992000061212004+60030-043120FM-12+0019BGPC V0202901N004612200019N0500001N1+00271+00061100481ADDAA199000091GF101991011001999999041999MA1999999099561MD1410001+9999REMSYN066AAXX  12124 04390 32984 12909 10027 20006 39956 40048 54000 8104/;EQDQ01  00002PRCP99
0133043900999992000061215004+60030-043120FM-12+0019BGPC V0202901N004112200019N0500001N1+00401+00081100541ADDGF101991001001999999001041MA1999999099631MD1210071+9999REMSYN066AAXX  12154 04390 42984 12908 10040 20008 39963 40054 52007 80004;
0143043900999992000061218004+60030-043120FM-12+0019BGPC V0203001N003619999999N9999999N1+00571+00081100581ADDKA1120M+00651KA2999N-00021MA1999999099671MD1210041+9999REMSYN076AAXX  12184 04390 46/// /3007 10057 20008 39967 40058 52004 333 10065 21002;
0143043900999992000061221004+60030-043120FM-12+0019BGPC V0202601N003112200019N0500001N1+00761+00121100581ADDGA1001+999999999GF100991001001999999001001MA1999999099681MD1210011+9999REMSYN060AAXX  12214 04390 42984 02606 10076 20012 39968 40058 52001;
0173043900999992000061300004+60030-043120FM-12+0019BGPC V0202301N004112200019N9999999N1+00471-00011100531ADDAA199000091GA1001+999999999GF100991001001999999001001MA1999999099621MD1710061+9999REMSYN060AAXX  13004 04390 329// 02308 10047 21001 39962 40053 57006;EQDQ01  00002PRCP99
0131043900999992000061303004+60030-043120FM-12+0019BGPC V0202201N002119999999N0250001N1+00351+00021100391ADDAA199000091MA1999999099481MD1710141+9999REMSYN060AAXX  13034 04390 32/75 /2204 10035 20002 39948 40039 57014;EQDQ01  00002PRCP99
0215043900999992000061306004+60030-043120FM-12+0019BGPC V0202301N005112200019N9999999N1+00191+00001100211ADDAA199000091GA1001+999999999GF100991001001999999001001KA1120M+00801KA2999N+00181MA1999999099291MD1710191+9999REMSYN076AAXX  13064 04390 329// 02310 10019 21000 39929 40021 57019 333 10080 20018;EQDQ01  00002PRCP99
0143043900999992000061309004+60030-043120FM-12+0019BGPC V0203001N005712200019N0500001N1+00281+00001100131ADDGA1001+999999999GF100991001001999999001001MA1999999099221MD1710071+9999REMSYN060AAXX  13094 04390 42984 03011 10028 20000 39922 40013 57007;
0173043900999992000061312004+60030-043120FM-12+0019BGPC V0203001N005112200019N9999999N1+00231+00081100211ADDAA199000091GA1001+999999999GF100991001001999999001001MA1999999099291MD1210071+9999REMSYN060AAXX  13124 04390 329// 03010 10023 20008 39929 40021 52007;EQDQ01  00002PRCP99
0131043900999992000061315004+60030-043120FM-12+0019BGPC V0202801N002619999999N9999999N1+00561+00221100271ADDAA199000091MA1999999099361MD1210071+9999REMSYN060AAXX  13154 04390 32/// /2805 10056 20022 39936 40027 52007;EQDQ01  00002PRCP99
0243043900999992000061318004+60030-043120FM-12+0019BGPC V0200801N002112200019N9999999N1+00271+00071100301ADDAA199000091AY101061AY201061GA1001+999999999GF100991001001999999001001KA1120M+00711KA2999N+00181MA1999999099381MD1210021+9999MW1401REMSYN082AAXX  13184 04390 319// 00804 10027 20007 39938 40030 52002 74000 333 10071 20018;EQDQ01  00002PRCP99
0171043900999992000061321004+60300-043110FM-12+0019BGPC V0201001N001512200019N0050001N1+00051+00021100341ADDAY101031AY201031GA1001+999999999GF100991001001999999001001MA1999999099421MD1210041+9999MW1401REMSYN066AAXX  13214 04390 41950 01003 10005 20002 39942 40034 52004 74000;
0191043900999992000061400004+60300-043110FM-12+0019BGPC V0201201N001012200019N0008001N1-00201-00201100411ADDAA199000091AY101061AY201061GF101991001001999999001061MA1999999099481MD1210061+9999MW1461REMSYN072AAXX  14004 04390 31/08 11202 11020 21020 39948 40041 52006 74600 80006;EQDQ01  00002PRCP99
0191043900999992000061403004+60300-043110FM-12+0019BGPC V0201401N001512200019N0005001N1-00411-00431100531ADDAA199000091AY141031AY241031GF101991011001999999041999MA1999999099591MD1210111+9999MW1481REMSYN072AAXX  14034 04390 31905 11403 11041 21043 39959 40053 52011 74844 8104/;EQDQ01  00002PRCP99
0233043900999992000061406004+60300-043110FM-12+0019BGPC V0200901N001012200019N0009001N1-00451-00451100621ADDAA199000091AY101061AY201061GF102991001001999999001061KA1120M+00241KA2999N-00501MA1999999099681MD1210091+9999MW1441REMSYN088AAXX  14064 04390 31909 20902 11045 21045 39968 40062 52009 74400 80006 333 10024 21050;EQDQ01  00002PRCP99
0171043900999992000061409004+60300-043110FM-12+0019BGPC V0201001N000512200019N0100001N1-00271-00271100771ADDAY101031AY201031GA1001+999999999GF100991001001999999001001MA1999999099831MD1210151+9999MW1401REMSYN066AAXX  14094 04390 41960 01001 11027 21027 39983 40077 52015 74000;
0191043900999992000061412004+60300-043110FM-12+0019BGPC V0200901N002612200019N0400001N1-00181-00251100971ADDAA199000091AY101061AY201061GF101991001001999999001051MA1999999100031MD1210201+9999MW1401REMSYN072AAXX  14124 04390 31982 10905 11018 21025 30003 40097 52020 74000 80005;EQDQ01  00002PRCP99
0161043900999992000061415004+60300-043110FM-12+0019BGPC V0200801N003612200019N0400001N1-00141-00171101161ADDAY101031AY201031GF101991001001999999001051MA1999999100221MD1210191+9999MW1401REMSYN072AAXX  14154 04390 41982 10807 11014 21017 30022 40116 52019 74000 80005;
0205043900999992000061418004+60300-043110FM-12+0019BGPC V0200101N003110042019N0400001N1+00241+00081101371ADDAA199000091GF107991071061004501999999KA1120M+00261KA2999N-00481MA1999999100441MD1210221+9999REMSYN082AAXX  14184 04390 32482 70106 10024 20008 30044 40137 52022 876// 333 10026 21048;EQDQ01  00002PRCP99
0133043900999992000061421004+60300-043110FM-12+0019BGPC V0200401N005710042019N0500001N1+00311+00101101491ADDGF108991081051004501999999MA1999999100561MD1210121+9999REMSYN066AAXX  14214 04390 42484 80411 10031 20010 30056 40149 52012 885//;
0163043900999992000061500004+60300-043110FM-12+0019BGPC V0200201N006210075019N0400001N1+00261+00051101631ADDAA199000091GF108991081051008001999999MA1999999100701MD1210141+9999REMSYN066AAXX  15004 04390 32582 80212 10026 20005 30070 40163 52014 885//;EQDQ01  00002PRCP99
0163043900999992000061503004+60300-043110FM-12+0019BGPC V0200301N004610120019N0200001N1+00311+00081101711ADDAA199000091GF107991071001012501021999MA1999999100781MD1210081+9999REMSYN066AAXX  15034 04390 32670 70309 10031 20008 30078 40171 52008 8702/;EQDQ01  00002PRCP99
0220043900999992000061506004+60300-043110FM-12+0019BGPC V0200201N003619999999N0200001N1+00241+00181101701ADDAA112000791AY161061AY221061GF107991071001999999021999KA1120M+00351KA2999N+00191MA1999999100771MD1710011+9999MW1611REMSYN094AAXX  15064 04390 11970 70207 10024 20018 30077 40170 57001 69902 76162 8702/ 333 10035 20019;
0133043900999992000061509004+60300-043110FM-12+0019BGPC V0200201N004610300019N0300001N1+00281+00161101721ADDGF108991041051004501021999MA1999999100791MD1210021+9999REMSYN066AAXX  15094 04390 42480 80209 10028 20016 30079 40172 52002 8452/;
0144043900999992000061512004+60300-043110FM-12+0019BGPC V0203501N006710075019N0400001N1+00311+00061101761ADDAA199000021GF107991071051008001999999MA1999999100831MD1210041+9999REMSYN066AAXX  15124 04390 32582 73513 10031 20006 30083 40176 52004 875//;
0143043900999992000061515004+60300-043110FM-12+0019BGPC V0200301N006210120019N0500001N1+00401+00031101711ADDGF107991071021012501999999MA1999999100791MD1710041+9999REMSYN076AAXX  15154 04390 42684 70312 10040 20003 30079 40171 57004 872// 333 91125;
0202043900999992000061518004+60300-043110FM-12+0019BGPC V0200301N005112200019N9999999N1+00491-00091101601ADDAA199000021GA1001+999999999GF100991001001999999001001KA1120M+00541KA2120N+00221MA1999999100681MD1710111+9999REMSYN082AAXX  15184 04390 329// 00310 10049 21009 30068 40160 57011 333 10054 20022 91125;
0143043900999992000061521004+60300-043110FM-12+0019BGPC V0200201N008212200019N0500001N1+00511-00201101521ADDGA1001+999999999GF100991001001999999001001MA1999999100601MD1710081+9999REMSYN060AAXX  15214 04390 42984 00216 10051 21020 30060 40152 57008;
0190043900999992000061600004+60300-043110FM-12+0019BGPC V0200201N008712200019N0500001N1+00331-00021101561ADDAA199000091GF102991021001999999071999MA1999999100631MD1210031+9999OA149901441REMSYN082AAXX  16004 04390 32984 20217 10033 21002 30063 40156 52003 8207/ 333 91128 91028;EQDQ01  00002PRCP99
0190043900999992000061603004+60300-043110FM-12+0019BGPC V0203601N006212200019N0300001N1+00351+00051101451ADDAA199000091GF102991011031008001071999MA1999999100531MD1710101+9999OA149901441REMSYN082AAXX  16034 04390 32580 23612 10035 20005 30053 40145 57010 8137/ 333 91128 91022;EQDQ01  00002PRCP99
0228043900999992000061606004+60300-043110FM-12+0019BGPC V0200201N006712200019N0500001N1+00321-00061101401ADDAA199000091GF103991031001999999081041KA1120M+00651KA2120N+00251MA1999999100481MD1710051+9999OA149901441REMSYN094AAXX  16064 04390 32984 30213 10032 21006 30048 40140 57005 83084 333 10065 20025 91128 91025;EQDQ01  00002PRCP99
0143043900999992000061609004+60300-043110FM-12+0019BGPC V0200201N008212200019N0500001N1+00341-00081101381ADDGF101991001001999999001061MA1999999100461MD1710021+9999REMSYN076AAXX  16094 04390 42984 10216 10034 21008 30046 40138 57002 80006 333 91129;
0111043900999992000061612004+60300-043110FM-12+0019BGPC V0203401N006219999999N9999999N1+00471+00001101331ADDMA1999999100411MD1710051+9999REMSYN070AAXX  16124 04390 46/// /3412 10047 20000 30041 40133 57005 333 91129;
0153043900999992000061615004+60300-043110FM-12+0019BGPC V0200101N007712200019N0500001N1+00511-00141101291ADDGA1001+999999999GF100991001001999999001001MA1999999100371MD1710041+9999REMSYN070AAXX  16154 04390 42984 00115 10051 21014 30037 40129 57004 333 91129;
0211043900999992000061618004+60300-043110FM-12+0019BGPC V0200301N008212200019N0500001N1+00571-00341101211ADDAA199000091GF101991001001999999001011KA1120M+00621KA2120N+00291MA1999999100301MD1710071+9999REMSYN088AAXX  16184 04390 32984 10316 10057 21034 30030 40121 57007 80001 333 10062 20029 91130;EQDQ01  00002PRCP99
0160043900999992000061621004+60300-043110FM-12+0019BGPC V0200401N008712200019N0500001N1+00641-00181101171ADDGF101991001001999999001011MA1999999100261MD1710041+9999OA149901961REMSYN082AAXX  16214 04390 42984 10417 10064 21018 30026 40117 57004 80001 333 91138 91033;
0190043900999992000061700004+60300-043110FM-12+0019BGPC V0200201N009812200019N0500001N1+00651-00241101111ADDAA199000091GF102991011001999999071011MA1999999100201MD1710061+9999OA149901961REMSYN082AAXX  17004 04390 32984 20219 10065 21024 30020 40111 57006 81071 333 91138 91032;EQDQ01  00002PRCP99
0173043900999992000061703004+60300-043110FM-12+0019BGPC V0203501N006212200019N0300001N1+00661-00261101061ADDAA199000091GF103991031001999999071999MA1999999100151MD1710051+9999REMSYN076AAXX  17034 04390 32980 33512 10066 21026 30015 40106 57005 8307/ 333 91133;EQDQ01  00002PRCP99
0211043900999992000061706004+60300-043110FM-12+0019BGPC V0200301N007210150019N0500001N1+00641-00201101051ADDAA199000091GF106991061001017501051999KA1120M+00761KA2120N+00571MA1999999100141MD1710011+9999REMSYN088AAXX  17064 04390 32784 60314 10064 21020 30014 40105 57001 8605/ 333 10076 20057 91133;EQDQ01  00002PRCP99
0143043900999992000061709004+60300-043110FM-12+0019BGPC V0200201N008219999999N0500001N1+00581-00261101061ADDGF107991071001999999071999MA1999999100151MD1210011+9999REMSYN076AAXX  17094 04390 42984 70216 10058 21026 30015 40106 52001 8707/ 333 91127;
0173043900999992000061712004+60300-043110FM-12+0019BGPC V0200201N010819999999N0500001N1+00701-00331101061ADDAA199000091GF107991071001999999071999MA1999999100151MD1410001+9999REMSYN076AAXX  17124 04390 32984 70221 10070 21033 30015 40106 54000 8707/ 333 91139;EQDQ01  00002PRCP99
0190043900999992000061715004+60300-043110FM-12+0019BGPC V0200301N014410210019N0400001N1+00751-00401101061ADDAA199000091GF107991071001022501051999MA1999999100151MD1410001+9999OA149902161REMSYN082AAXX  17154 04390 32882 70328 10075 21040 30015 40106 54000 8705/ 333 91142 91041;EQDQ01  00002PRCP99
0228043900999992000061718004+60300-043110FM-12+0019BGPC V0200301N012319999999N0500001N1+00741-00321100981ADDAA199000091GF105991021001999999031071KA1120M+00801KA2120N+00571MA1999999100071MD1710081+9999OA149902161REMSYN094AAXX  17184 04390 32984 50324 10074 21032 30007 40098 57008 82037 333 10080 20057 91142 91038;EQDQ01  00002PRCP99
0160043900999992000061721004+60300-043110FM-12+0019BGPC V0200201N010319999999N0500001N1+00731-00361100951ADDGF107991071001999999071999MA1999999100041MD1710031+9999OA149902161REMSYN082AAXX  17214 04390 42984 70220 10073 21036 30004 40095 57003 8707/ 333 91142 91031;
0190043900999992000061800004+60300-043110FM-12+0019BGPC V0203501N006719999999N0500001N1+00531-00141100881ADDAA199000091GF107991071001999999071999MA1999999099971MD1710071+9999OA149902161REMSYN082AAXX  18004 04390 32984 73513 10053 21014 39997 40088 57007 8707/ 333 91142 91228;EQDQ01  00002PRCP99
0190043900999992000061803004+60300-043110FM-12+0019BGPC V0200201N010310210019N0250001N1+00521-00091100801ADDAA199000091GF107991071001022501071999MA1999999099891MD1710081+9999OA149901751REMSYN082AAXX  18034 04390 32875 70220 10052 21009 39989 40080 57008 8707/ 333 91134 91031;EQDQ01  00002PRCP99
0228043900999992000061806004+60300-043110FM-12+0019BGPC V0200401N010319999999N0300001N1+00481-00081100661ADDAA199000091GF108991081001999999071999KA1120M+00801KA2120N+00411MA1999999099751MD1710141+9999OA149901961REMSYN094AAXX  18064 04390 32980 80420 10048 21008 39975 40066 57014 8807/ 333 10080 20041 91138 91031;EQDQ01  00002PRCP99
0160043900999992000061809004+60300-043110FM-12+0019BGPC V0200301N008219999999N0500001N1+00441-00181100591ADDGF108991081001999999021999MA1999999099681MD1710071+9999OA149901651REMSYN082AAXX  18094 04390 42984 80316 10044 21018 39968 40059 57007 8802/ 333 91132 91027;
0188043900999992000061812004+60300-043110FM-12+0019BGPC V0200201N008210120019N0100001N1+00351+00171100521ADDAA106000791AY161061AY221061GF108991081001012501021999MA1999999099601MD1710081+9999MW1611REMSYN088AAXX  18124 04390 11660 80216 10035 20017 39960 40052 57008 69901 76162 8802/ 333 91132;
0188043900999992000061815004+60300-043110FM-12+0019BGPC V0203401N008210150019N0050001N1+00151+00151100411ADDAY171031AY271031GF108991081001017501021999MA1999999099491MD1710111+9999MW1071OA149902111REMSYN088AAXX  18154 04390 41750 83416 10015 20015 39949 40041 57011 70777 8802/ 333 91141 91227;
0243043900999992000061818004+60300-043110FM-12+0019BGPC V0200201N014410042019N0150001N1+00351+00101100271ADDAA112006191AY161061AY261061GF108991081071004501999999KA1120M+00541KA2120N+00121MA1999999099361MD1710131+9999MW1611OA149902111REMSYN106AAXX  18184 04390 11465 80228 10035 20010 39936 40027 57013 60062 76166 887// 333 10054 20012 91141 91040;
0188043900999992000061821004+60300-043110FM-12+0019BGPC V0200201N017010042019N0100001N1+00301+00091100141ADDAY161031AY261031GF108991081071004501999999MA1999999099231MD1710131+9999MW1611OA149902631REMSYN088AAXX  18214 04390 41460 80233 10030 20009 39923 40014 57013 76166 887// 333 91151 91045;
0205043900999992000061900004+60300-043110FM-12+0019BGPC V0200301N014910042019N0100001N1+00241+00091100221ADDAA106000191AY161061AY261061GF108991081071004501999999MA1999999099301MD1210071+9999MW1611OA149902631REMSYN094AAXX  19004 04390 11460 80329 10024 20009 39930 40022 52007 69921 76166 887// 333 91151 91042;
0188043900999992000061903004+60300-043110FM-12+0019BGPC V0203301N009310042019N0050001N1+00231+00231100331ADDAY161031AY261031GF108991081071004501999999MA1999999099411MD1210111+9999MW1631OA149902421REMSYN088AAXX  19034 04390 41450 83318 10023 20023 39941 40033 52011 76366 887// 333 91147 91231;
0243043900999992000061906004+60300-043110FM-12+0019BGPC V0203301N006710042019N0050001N1+00331+00261100521ADDAA112010991AY161061AY261061GF108991081071004501999999KA1120M+00461KA2120N+00091MA1999999099601MD1210191+9999MW1631OA149902421REMSYN106AAXX  19064 04390 11450 83313 10033 20026 39960 40052 52019 60112 76366 887// 333 10046 20009 91147 91231;
0171043900999992000061909004+60300-043110FM-12+0019BGPC V0200301N008210150019N0200001N1+00421+00151100821ADDAY161031AY221031GF108991081001017501021999MA1999999099901MD1210301+9999MW1001REMSYN082AAXX  19094 04390 41770 80316 10042 20015 39990 40082 52030 70062 8802/ 333 91123;
0205043900999992000061912004+60300-043110FM-12+0019BGPC V0203401N004610120019N0150001N1+00441+00241101081ADDAA106002091AY161061AY261061GF108991081001012501021999MA1999999100161MD1210261+9999MW1611OA149901341REMSYN094AAXX  19124 04390 11665 83409 10044 20024 30016 40108 52026 60021 76166 8802/ 333 91126 91220;
0154043900999992000061915004+60300-043110FM-12+0019BGPC V0203301N007210210019N0300001N1+00591+00061101211ADDAA199000021GF107991071001022501051999MA1999999100301MD1210141+9999REMSYN076AAXX  19154 04390 32880 73314 10059 20006 30030 40121 52014 8705/ 333 91121;
0215043900999992000061918004+60300-043110FM-12+0019BGPC V0200201N002119999999N0400001N1+00741+00031101331ADDAA112002091GF106991061001999999031999KA1120M+00761KA2120N+00311MA1999999100421MD1210121+9999OA149901081REMSYN100AAXX  19184 04390 12982 60204 10074 20003 30042 40133 52012 60022 8603/ 333 10076 20031 91121 91217;
0133043900999992000061921004+60300-043110FM-12+0019BGPC V0200901N003119999999N0500001N1+00471+00041101371ADDGF107991071001999999071999MA1999999100451MD1210031+9999REMSYN066AAXX  19214 04390 42984 70906 10047 20004 30045 40137 52003 8707/;
0144043900999992000062000004+60300-043110FM-12+0019BGPC V0201601N002112200019N0500001N1+00421+00121101341ADDAA199000021GF104991021001999999071091MA1999999100421MD1710031+9999REMSYN066AAXX  20004 04390 32984 41604 10042 20012 30042 40134 57003 82079;
0133043900999992000062003004+60300-043110FM-12+0019BGPC V0201801N001019999999N0100001N1+00381+00121101261ADDGF106991041001999999071091MA1999999100341MD1710081+9999REMSYN066AAXX  20034 04390 42960 61802 10038 20012 30034 40126 57008 84079;
0205043900999992000062006004+60300-043110FM-12+0019BGPC V0203001N001019999999N0250001N1+00351+00181101191ADDAA199000091GF107991071001999999071999KA1120M+00991KA2999N+00281MA1999999100271MD1710071+9999REMSYN082AAXX  20064 04390 32975 73002 10035 20018 30027 40119 57007 8707/ 333 10099 20028;EQDQ01  00002PRCP99
0133043900999992000062009004+60300-043110FM-12+0019BGPC V0203001N001019999999N0500001N1+00481+00251101191ADDGF106991061001999999091999MA1999999100271MD1410001+9999REMSYN066AAXX  20094 04390 42984 63002 10048 20025 30027 40119 54000 8609/;
0163043900999992000062012004+60300-043110FM-12+0019BGPC V0200701N001012200019N0500001N1+00771+00081101241ADDAA199000091GF104991001001999999001071MA1999999100331MD1210061+9999REMSYN066AAXX  20124 04390 32984 40702 10077 20008 30033 40124 52006 80007;EQDQ01  00002PRCP99
0133043900999992000062015004+60300-043110FM-12+0019BGPC V0200901N002619999999N0500001N1+00641-00061101311ADDGF106991061001999999011999MA1999999100401MD1210071+9999REMSYN066AAXX  20154 04390 42984 60905 10064 21006 30040 40131 52007 8601/;
0205043900999992000062018004+60300-043110FM-12+0019BGPC V0200501N002119999999N0400001N1+00761-00091101421ADDAA199000091GF106991061001999999071999KA1120M+00961KA2999N+00341MA1999999100511MD1210111+9999REMSYN082AAXX  20184 04390 32982 60504 10076 21009 30051 40142 52011 8607/ 333 10096 20034;EQDQ01  00002PRCP99
0133043900999992000062021004+60300-043110FM-12+0019BGPC V0200701N001519999999N0500001N1+00771-00181101581ADDGF105991001001999999001061MA1999999100671MD1210161+9999REMSYN066AAXX  20214 04390 42984 50703 10077 21018 30067 40158 52016 80006;
0163043900999992000062100004+60300-043110FM-12+0019BGPC V0200101N002112200019N0500001N1+00771-00291101691ADDAA199000091GF104991001001999999001061MA1999999100781MD1210111+9999REMSYN066AAXX  21004 04390 32984 40104 10077 21029 30078 40169 52011 80006;EQDQ01  00002PRCP99
0133043900999992000062103004+60300-043110FM-12+0019BGPC V0203301N000512200019N0160001N1+00551-00361101841ADDGF101991001001999999001061MA1999999100921MD1210141+9999REMSYN066AAXX  21034 04390 42966 13301 10055 21036 30092 40184 52014 80006;
0233043900999992000062106004+60300-043110FM-12+0019BGPC V0203201N001012200019N0400001N1+00511-00271101951ADDAA199000091AY101061AY201061GF102991001001999999001061KA1120M+00921KA2999N+00471MA1999999101031MD1210111+9999MW1401REMSYN088AAXX  21064 04390 31982 23202 10051 21027 30103 40195 52011 74000 80006 333 10092 20047;EQDQ01  00002PRCP99
0133043900999992000062109004+60300-043110FM-12+0019BGPC V0203401N001512200019N0500001N1+00701-00171102081ADDGF101991001001999999001061MA1999999101161MD1210131+9999REMSYN066AAXX  21094 04390 42984 13403 10070 21017 30116 40208 52013 80006;
0163043900999992000062112004+60300-043110FM-12+0019BGPC V0203301N001512200019N0600001N1+00831-00081102221ADDAA199000091GF101991001001999999001061MA1999999101301MD1210141+9999REMSYN066AAXX  21124 04390 32986 13303 10083 21008 30130 40222 52014 80006;EQDQ01  00002PRCP99
0163043900999992000062115004+60300-043110FM-12+0019BGPC V0200401N004612200019N0500001N1+00861-00181102291ADDAA199000091GF101991001001999999001061MA1999999101381MD1210081+9999REMSYN066AAXX  21154 04390 32984 10409 10086 21018 30138 40229 52008 80006;EQDQ01  00002PRCP99
0205043900999992000062118004+60300-043110FM-12+0019BGPC V0200601N002112200019N0500001N1+00901-00171102351ADDAA199000091GF102991001001999999001061KA1120M+01001KA2999N+00431MA1999999101441MD1210061+9999REMSYN082AAXX  21184 04390 32984 20604 10090 21017 30144 40235 52006 80006 333 10100 20043;EQDQ01  00002PRCP99
0133043900999992000062121004+60300-043110FM-12+0019BGPC V0200901N002112200019N0500001N1+00801-00211102411ADDGF101991001001999999001091MA1999999101491MD1210051+9999REMSYN066AAXX  21214 04390 42984 10904 10080 21021 30149 40241 52005 80009;
0163043900999992000062200004+60300-043110FM-12+0019BGPC V0200601N000512200019N0500001N1+00881-00191102421ADDAA199000091GF101991001001999999001091MA1999999101501MD1210011+9999REMSYN066AAXX  22004 04390 32984 10601 10088 21019 30150 40242 52001 80009;EQDQ01  00002PRCP99
0133043900999992000062203004+60300-043110FM-12+0019BGPC V0201601N001512200019N0200001N1+00511-00251102531ADDGF101991001001999999001061MA1999999101601MD1210101+9999REMSYN066AAXX  22034 04390 42970 11603 10051 21025 30160 40253 52010 80006;
0205043900999992000062206004+60300-043110FM-12+0019BGPC V0209999C000012200019N0250001N1+00261-00161102501ADDAA199000091GF101991011001999999041999KA1120M+01061KA2999N+00261MA1999999101561MD1710041+9999REMSYN082AAXX  22064 04390 32975 10000 10026 21016 30156 40250 57004 8104/ 333 10106 20026;EQDQ01  00002PRCP99
0133043900999992000062209004+60300-043110FM-12+0019BGPC V0200401N000512200019N0500001N1+00701+00261102481ADDGF101991001001999999001091MA1999999101561MD1410001+9999REMSYN066AAXX  22094 04390 42984 10401 10070 20026 30156 40248 54000 80009;
0173043900999992000062212004+60300-043110FM-12+0019BGPC V0200801N000512200019N0600001N1+00911+00411102461ADDAA199000091GA1001+999999999GF100991001001999999001001MA1999999101551MD1710011+9999REMSYN060AAXX  22124 04390 32986 00801 10091 20041 30155 40246 57001;EQDQ01  00002PRCP99
0143043900999992000062215004+60300-043110FM-12+0019BGPC V0200301N001012200019N0500001N1+01021+00361102431ADDGA1001+999999999GF100991001001999999001001MA1999999101521MD1710031+9999REMSYN060AAXX  22154 04390 42984 00302 10102 20036 30152 40243 57003;
0243043900999992000062218004+60300-043110FM-12+0019BGPC V0200901N001512200019N0150001N1+00611+00291102401ADDAA199000091AY101061AY201061GA1001+999999999GF100991001001999999001001KA1120M+01071KA2999N+00261MA1999999101481MD1710041+9999MW1401REMSYN082AAXX  22184 04390 31965 00903 10061 20029 30148 40240 57004 74000 333 10107 20026;EQDQ01  00002PRCP99
0171043900999992000062221004+60300-043110FM-12+0019BGPC V0200901N001012200019N0050001N1+00591+00471102381ADDAY101031AY201031GA1001+999999999GF100991001001999999001001MA1999999101461MD1710021+9999MW1401REMSYN066AAXX  22214 04390 41950 00902 10059 20047 30146 40238 57002 74000;
0191043900999992000062300004+60300-043110FM-12+0019BGPC V0201601N001012200019N0050001N1+00311+00311102431ADDAA199000091AY101061AY201061GF101991001001999999001061MA1999999101501MD1210041+9999MW1401REMSYN072AAXX  23004 04390 31950 11602 10031 20031 30150 40243 52004 74000 80006;EQDQ01  00002PRCP99
0171043900999992000062303004+60300-043110FM-12+0019BGPC V0201101N001512200019N0010001N1+00001+00001102391ADDAY101031AY201031GA1001+999999999GF100991001001999999001001MA1999999101451MD1710051+9999MW1401REMSYN066AAXX  23034 04390 41910 01103 10000 20000 30145 40239 57005 74000;
0205043900999992000062306004+60300-043110FM-12+0019BGPC V0201101N000510750019N0300001N1+00361+00291102301ADDAA199000091GF106991041001022501051091KA1120M+00691KA2999N+00001MA1999999101371MD1710081+9999REMSYN082AAXX  23064 04390 32880 61101 10036 20029 30137 40230 57008 84059 333 10069 20000;EQDQ01  00002PRCP99
0133043900999992000062309004+60300-043110FM-12+0019BGPC V0201201N001019999999N0500001N1+00521+00301102271ADDGF106991011001999999031061MA1999999101341MD1710031+9999REMSYN066AAXX  23094 04390 42984 61202 10052 20030 30134 40227 57003 81036;
0163043900999992000062312004+60300-043110FM-12+0019BGPC V0200801N002619999999N0500001N1+00391+00331102331ADDAA199000091GF105991031001999999031061MA1999999101401MD1210061+9999REMSYN066AAXX  23124 04390 32984 50805 10039 20033 30140 40233 52006 83036;EQDQ01  00002PRCP99
0133043900999992000062315004+60300-043110FM-12+0019BGPC V0200901N002119999999N0500001N1+00551+00251102211ADDGF106991001001999999001071MA1999999101291MD1710111+9999REMSYN066AAXX  23154 04390 42984 60904 10055 20025 30129 40221 57011 80007;
0205043900999992000062318004+60300-043110FM-12+0019BGPC V0201001N003619999999N0300001N1+00421+00371102231ADDAA199000091GF107991011001999999041071KA1120M+00761KA2999N+00211MA1999999101301MD1210011+9999REMSYN082AAXX  23184 04390 32980 71007 10042 20037 30130 40223 52001 81047 333 10076 20021;EQDQ01  00002PRCP99
0133043900999992000062321004+60300-043110FM-12+0019BGPC V0200401N004619999999N0400001N1+00471+00391102231ADDGF106991021001999999031061MA1999999101301MD1410001+9999REMSYN066AAXX  23214 04390 42982 60409 10047 20039 30130 40223 54000 82036;
0163043900999992000062400004+60300-043110FM-12+0019BGPC V0200401N006210012019N0100001N1+00331+00331102271ADDAA199000091GF108991081061001501999999MA1999999101341MD1210041+9999REMSYN066AAXX  24004 04390 32260 80412 10033 20033 30134 40227 52004 886//;EQDQ01  00002PRCP99
0143043900999992000062403004+60300-043110FM-12+0019BGPC V0200301N008210042019N0150001N1+00401+00371102221ADDGF108991081051004501999999MA1999999101291MD1710051+9999REMSYN076AAXX  24034 04390 42465 80316 10040 20037 30129 40222 57005 885// 333 91124;
0211043900999992000062406004+60300-043110FM-12+0019BGPC V0200301N008710042019N0200001N1+00521+00431102261ADDAA199000091GF108991081061004501999999KA1120M+00541KA2120N+00261MA1999999101331MD1210041+9999REMSYN088AAXX  24064 04390 32470 80317 10052 20043 30133 40226 52004 886// 333 10054 20026 91128;EQDQ01  00002PRCP99
0111043900999992000062409004+60300-043110FM-12+0019BGPC V0200301N011319999999N9999999N1+00521+00381102281ADDMA1999999101351MD1210021+9999REMSYN070AAXX  24094 04390 46/// /0322 10052 20038 30135 40228 52002 333 91133;
0190043900999992000062412004+60300-043110FM-12+0019BGPC V0200301N012910042019N0400001N1+00591+00391102331ADDAA199000091GF108991081071004501999999MA1999999101411MD1210061+9999OA149902061REMSYN082AAXX  24124 04390 32482 80325 10059 20039 30141 40233 52006 887// 333 91140 91040;EQDQ01  00002PRCP99
0190043900999992000062415004+60300-043110FM-12+0019BGPC V0200201N013910300019N0250001N1+00531-00041102281ADDAA199000091GF108991041071004501011999MA1999999101351MD1710061+9999OA149902321REMSYN082AAXX  24154 04390 32475 80227 10053 21004 30135 40228 57006 8471/ 333 91145 91038;EQDQ01  00002PRCP99
0228043900999992000062418004+60300-043110FM-12+0019BGPC V0200201N011810150019N0300001N1+00431-00011102411ADDAA199000091GF108991051051017501041061KA1120M+00611KA2120N+00411MA1999999101481MD1210131+9999OA149902321REMSYN094AAXX  24184 04390 32780 80223 10043 21001 30148 40241 52013 85546 333 10061 20041 91145 91035;EQDQ01  00002PRCP99
0160043900999992000062421004+60300-043110FM-12+0019BGPC V0200201N012310150019N0500001N1+00401+00221102331ADDGF108991081051017501999999MA1999999101401MD1710081+9999OA149902521REMSYN082AAXX  24214 04390 42784 80224 10040 20022 30140 40233 57008 885// 333 91149 91038;
0190043900999992000062500004+60300-043110FM-12+0019BGPC V0200301N013410120019N0400001N1+00411+00041102311ADDAA199000091GF108991081051012501999999MA1999999101381MD1710021+9999OA149902521REMSYN082AAXX  25004 04390 32682 80326 10041 20004 30138 40231 57002 885// 333 91149 91039;EQDQ01  00002PRCP99
0160043900999992000062503004+60300-043110FM-12+0019BGPC V0200201N015910042019N0150001N1+00381+00071102331ADDGF108991081071004501999999MA1999999101401MD1210021+9999OA149902371REMSYN082AAXX  25034 04390 42465 80231 10038 20007 30140 40233 52002 887// 333 91146 91044;
0166043900999992000062506004+60300-043110FM-12+0019BGPC V0200201N015919999999N9999999N1+00391-00011102241ADDKA1120M+00501KA2120N+00341MA1999999101311MD1710091+9999OA149902731REMSYN088AAXX  25064 04390 46/// /0231 10039 21001 30131 40224 57009 333 10050 20034 91153 91047;
0160043900999992000062509004+60300-043110FM-12+0019BGPC V0200201N014419999999N0300001N1+00411-00091102301ADDGF108991021001999999041061MA1999999101371MD1210061+9999OA149902831REMSYN082AAXX  25094 04390 42980 80228 10041 21009 30137 40230 52006 82046 333 91155 91039;
0190043900999992000062512004+60300-043110FM-12+0019BGPC V0200201N013419999999N0500001N1+00471-00181102261ADDAA199000091GF107991061001999999031091MA1999999101331MD1710041+9999OA149902831REMSYN082AAXX  25124 04390 32984 70226 10047 21018 30133 40226 57004 86039 333 91155 91039;EQDQ01  00002PRCP99
0196043900999992000062515004+60300-043110FM-12+0019BGPC V0203401N010319999999N0400001N1+00471+00041102261ADDAA199000091GF105991041001999999031091MA1999999101331MD1410001+9999OA149902371REMSYN088AAXX  25154 04390 32982 53420 10047 20004 30133 40226 54000 84039 333 91146 91035 91233;EQDQ01  00002PRCP99
0228043900999992000062518004+60300-043110FM-12+0019BGPC V0200301N015910300019N0200001N1+00541+00151102231ADDAA199000091GF105991031021012501031061KA1120M+00581KA2120N+00371MA1999999101311MD1710021+9999OA149902371REMSYN094AAXX  25184 04390 32670 50331 10054 20015 30131 40223 57002 83236 333 10058 20037 91146 91045;EQDQ01  00002PRCP99
0166043900999992000062521004+60300-043110FM-12+0019BGPC V0200201N009312200019N0500001N1+00451-00031102261ADDGF104991021001999999031061MA1999999101331MD1210021+9999OA149902321REMSYN088AAXX  25214 04390 42984 40218 10045 21003 30133 40226 52002 82036 333 91145 91031 91232;
0173043900999992000062600004+60300-043110FM-12+0019BGPC V0200201N011319999999N0500001N1+00411-00051102311ADDAA199000091GF105991041001999999071061MA1999999101381MD1210051+9999REMSYN076AAXX  26004 04390 32984 50222 10041 21005 30138 40231 52005 84076 333 91145;EQDQ01  00002PRCP99
0160043900999992000062603004+60300-043110FM-12+0019BGPC V0200201N009812200019N0300001N1+00381+00011102261ADDGF103991031001999999071999MA1999999101331MD1710051+9999OA149901801REMSYN082AAXX  26034 04390 42980 30219 10038 20001 30133 40226 57005 8307/ 333 91135 91030;
0228043900999992000062606004+60300-043110FM-12+0019BGPC V0200301N009812200019N0500001N1+00411+00231102231ADDAA199000091GF103991021001999999031011KA1120M+00591KA2120N+00371MA1999999101301MD1710031+9999OA149901801REMSYN094AAXX  26064 04390 32984 30319 10041 20023 30130 40223 57003 82031 333 10059 20037 91135 91031;EQDQ01  00002PRCP99
0173043900999992000062609004+60300-043110FM-12+0019BGPC V0200301N012910042019N0250001N1+00281+00281102461ADDAA199000091GF107991051071004501001061MA1999999101521MD1210221+9999REMSYN076AAXX  26094 04390 32475 70325 10028 20028 30152 40246 52022 85706 333 91137;EQDQ01  00002PRCP99
0190043900999992000062612004+60300-043110FM-12+0019BGPC V0200301N012312200019N0500001N1+00581+00381102421ADDAA199000091GF102991011011012501031999MA1999999101491MD1710031+9999OA149902011REMSYN082AAXX  26124 04390 32684 20324 10058 20038 30149 40242 57003 8113/ 333 91139 91037;EQDQ01  00002PRCP99
0190043900999992000062615004+60300-043110FM-12+0019BGPC V0203301N008712200019N0400001N1+00671+00221102401ADDAA199000091GF101991011031008001999999MA1999999101481MD1710011+9999OA149901901REMSYN082AAXX  26154 04390 32582 13317 10067 20022 30148 40240 57001 813// 333 91137 91029;EQDQ01  00002PRCP99
0238043900999992000062618004+60300-043110FM-12+0019BGPC V0200301N010812200019N0500001N1+00521+00241102311ADDAA199000091GA1001+999999999GF100991001001999999001001KA1120M+00781KA2120N+00271MA1999999101381MD1710101+9999OA149902011REMSYN088AAXX  26184 04390 32984 00321 10052 20024 30138 40231 57010 333 10078 20027 91139 91034;EQDQ01  00002PRCP99
0143043900999992000062621004+60300-043110FM-12+0019BGPC V0200201N009812200019N0500001N1+00371+00201102301ADDGF101991011001999999081001MA1999999101371MD1710011+9999REMSYN076AAXX  26214 04390 42984 10219 10037 20020 30137 40230 57001 81080 333 91134;
0128043900999992000062700004+60300-043110FM-12+0019BGPC V0200101N006219999999N9999999N1+00221+00131102321ADDMA1999999101381MD1210011+9999OA149901751REMSYN076AAXX  27004 04390 46/// /0112 10022 20013 30138 40232 52001 333 91134 91223;
0181043900999992000062703004+60300-043110FM-12+0019BGPC V0200201N010812200019N0100001N1+00321+00091102241ADDAY101031AY201031GA1001+999999999GF100991001001999999001001MA1999999101311MD1710071+9999MW1401REMSYN076AAXX  27034 04390 41960 00221 10032 20009 30131 40224 57007 74000 333 91132;
0249043900999992000062706004+60300-043110FM-12+0019BGPC V0200201N008712200019N0500001N1+00271+00061102161ADDAA199000091AY101061AY201061GA1001+999999999GF100991001001999999001001KA1120M+00681KA2120N+00191MA1999999101231MD1710081+9999MW1401REMSYN088AAXX  27064 04390 31984 00217 10027 20006 30123 40216 57008 74000 333 10068 20019 91133;EQDQ01  00002PRCP99
0201043900999992000062709004+60300-043110FM-12+0019BGPC V0200101N007712200019N0400001N1+00261+00191102201ADDAA199000091AY101031AY201031GF101991011001022501041999MA1999999101271MD1210041+9999MW1401REMSYN082AAXX  27094 04390 31882 10115 10026 20019 30127 40220 52004 74000 8104/ 333 91132;EQDQ01  00002PRCP99
0239043900999992000062718004+60300-043110FM-12+0019BGPC V0200201N006212200019N0200001N1+00501+00251102241ADDAA199000091AY101061AY201061GF101991011001999999061001KA1120M+00731KA2120N+00171MA1999999101311MD1210051+9999MW1401REMSYN094AAXX  27184 04390 31970 10212 10050 20025 30131 40224 52005 74000 81060 333 10073 20017 91128;EQDQ01  00002PRCP99
0143043900999992000062721004+60300-043110FM-12+0019BGPC V0200301N006712200019N0200001N1+00461+00311102301ADDGF101991011061001501001001MA1999999101371MD1210061+9999REMSYN076AAXX  27214 04390 42270 10313 10046 20031 30137 40230 52006 81600 333 91125;
0173043900999992000062800004+60300-043110FM-12+0019BGPC V0200501N003612200019N0200001N1+00231+00191102341ADDAA199000091GF101991011061000751061999MA1999999101401MD1210031+9999REMSYN076AAXX  28004 04390 32170 10507 10023 20019 30140 40234 52003 8166/ 333 91125;EQDQ01  00002PRCP99
0171043900999992000062803004+60300-043110FM-12+0019BGPC V0203101N002612200019N0150001N1+00321+00201102311ADDAY101031AY201031GA1001+999999999GF100991001001999999001001MA1999999101381MD1710021+9999MW1401REMSYN066AAXX  28034 04390 41965 03105 10032 20020 30138 40231 57002 74000;
0215043900999992000062806004+60300-043110FM-12+0019BGPC V0203001N002112200019N0600001N1+00561-00011102261ADDAA199000091GA1001+999999999GF100991001001999999001001KA1120M+00671KA2999N+00141MA1999999101341MD1710041+9999REMSYN076AAXX  28064 04390 32986 03004 10056 21001 30134 40226 57004 333 10067 20014;EQDQ01  00002PRCP99
0163043900999992000062809004+60300-043110FM-12+0019BGPC V0203001N002612200019N0400001N1+00681+00061102261ADDAA199000091GF101991011091008001999999MA1999999101341MD1410001+9999REMSYN066AAXX  28094 04390 32582 13005 10068 20006 30134 40226 54000 819//;EQDQ01  00002PRCP99
0173043900999992000062812004+60300-043110FM-12+0019BGPC V0200101N004112200019N0500001N1+01141+00241102261ADDAA199000091GA1001+999999999GF100991001001999999001001MA1999999101351MD1210011+9999REMSYN060AAXX  28124 04390 32984 00108 10114 20024 30135 40226 52001;EQDQ01  00002PRCP99
0163043900999992000062815004+60300-043110FM-12+0019BGPC V0200301N005112200019N0400001N1+01101+00091102261ADDAA199000091GF101991001001999999001061MA1999999101351MD1410001+9999REMSYN066AAXX  28154 04390 32982 10310 10110 20009 30135 40226 54000 80006;EQDQ01  00002PRCP99
0215043900999992000062818004+60300-043110FM-12+0019BGPC V0200501N003112200019N0600001N1+01101+00011102061ADDAA199000091GA1001+999999999GF100991001001999999001001KA1120M+01221KA2999N+00541MA1999999101151MD1710201+9999REMSYN076AAXX  28184 04390 32986 00506 10110 20001 30115 40206 57020 333 10122 20054;EQDQ01  00002PRCP99
0133043900999992000062821004+60300-043110FM-12+0019BGPC V0200801N001512200019N0500001N1+01071+00121102091ADDGF101991001001999999001061MA1999999101181MD1210031+9999REMSYN066AAXX  28214 04390 42984 10803 10107 20012 30118 40209 52003 80006;
0163043900999992000062900004+60300-043110FM-12+0019BGPC V0201901N001512200019N0500001N1+00991+00201102061ADDAA199000091GF101991001001999999001061MA1999999101151MD1710031+9999REMSYN066AAXX  29004 04390 32984 11903 10099 20020 30115 40206 57003 80006;EQDQ01  00002PRCP99
0143043900999992000062903004+60300-043110FM-12+0019BGPC V0202301N003612200019N0500001N1+00831+00101101981ADDGA1001+999999999GF100991001001999999001001MA1999999101071MD1710081+9999REMSYN060AAXX  29034 04390 42984 02307 10083 20010 30107 40198 57008;
0205043900999992000062906004+60300-043110FM-12+0019BGPC V0202401N002119999999N0600001N1+00671+00081101921ADDAA199000091GF105991001001999999001081KA1120M+01281KA2999N+00631MA1999999101001MD1710071+9999REMSYN082AAXX  29064 04390 32986 52404 10067 20008 30100 40192 57007 80008 333 10128 20063;EQDQ01  00002PRCP99
0163043900999992000062909004+60300-043110FM-12+0019BGPC V0202301N003119999999N0400001N1+00921+00201101851ADDAA199000091GF106991021001999999031041MA1999999100941MD1710061+9999REMSYN066AAXX  29094 04390 32982 62306 10092 20020 30094 40185 57006 82034;EQDQ01  00002PRCP99
0163043900999992000062912004+60300-043110FM-12+0019BGPC V0202801N001519999999N0500001N1+01041+00191101831ADDAA199000091GF108991081001999999071999MA1999999100921MD1710021+9999REMSYN066AAXX  29124 04390 32984 82803 10104 20019 30092 40183 57002 8807/;EQDQ01  00002PRCP99
0133043900999992000062915004+60300-043110FM-12+0019BGPC V0202501N004119999999N0500001N1+01221+00231101841ADDGF106991031001999999071071MA1999999100941MD1210021+9999REMSYN066AAXX  29154 04390 42984 62508 10122 20023 30094 40184 52002 83077;
0205043900999992000062918004+60300-043110FM-12+0019BGPC V0202601N002119999999N0400001N1+01381+00351101941ADDAA199000091GF107991061001999999071091KA1120M+01431KA2999N+00671MA1999999101041MD1210101+9999REMSYN082AAXX  29184 04390 32982 72604 10138 20035 30104 40194 52010 86079 333 10143 20067;EQDQ01  00002PRCP99
0133043900999992000062921004+60300-043110FM-12+0019BGPC V0200601N000519999999N0500001N1+01101+00221102141ADDGF107991041001999999031061MA1999999101231MD1210191+9999REMSYN066AAXX  29214 04390 42984 70601 10110 20022 30123 40214 52019 84036;
0163043900999992000063000004+60300-043110FM-12+0019BGPC V0203301N001019999999N0500001N1+00761+00031102341ADDAA199000091GF106991051001999999031061MA1999999101421MD1210191+9999REMSYN066AAXX  30004 04390 32984 63302 10076 20003 30142 40234 52019 85036;EQDQ01  00002PRCP99
0133043900999992000063003004+60300-043110FM-12+0019BGPC V0200301N003619999999N0400001N1+00601-00011102451ADDGF106991061001999999071999MA1999999101531MD1210111+9999REMSYN066AAXX  30034 04390 42982 60307 10060 21001 30153 40245 52011 8607/;
0205043900999992000063006004+60300-043110FM-12+0019BGPC V0200101N002119999999N0500001N1+00551+00191102571ADDAA199000091GF108991081001999999071999KA1120M+01381KA2999N+00511MA1999999101641MD1210111+9999REMSYN082AAXX  30064 04390 32984 80104 10055 20019 30164 40257 52011 8807/ 333 10138 20051;EQDQ01  00002PRCP99
0191043900999992000063009004+60300-043110FM-12+0019BGPC V0200601N000519999999N0400001N1+00701+00321102671ADDAA199000091AY121031AY221031GF107991071001999999071999MA1999999101751MD1210111+9999MW1401REMSYN072AAXX  30094 04390 31982 70601 10070 20032 30175 40267 52011 74022 8707/;EQDQ01  00002PRCP99
0191043900999992000063012004+60300-043110FM-12+0019BGPC V0200201N006212200019N0300001N1+00641+00581102791ADDAA199000091AY121061AY201061GF103991011021004501031091MA1999999101861MD1210111+9999MW1401REMSYN072AAXX  30124 04390 31480 30212 10064 20058 30186 40279 52011 74020 81239;EQDQ01  00002PRCP99
0133043900999992000063015004+60300-043110FM-12+0019BGPC V0200201N004610120019N0400001N1+00681+00571102911ADDGF105991051021012501999999MA1999999101981MD1210121+9999REMSYN066AAXX  30154 04390 42682 50209 10068 20057 30198 40291 52012 852//;
0205043900999992000063018004+60300-043110FM-12+0019BGPC V0200401N005710300019N0500001N1+00751+00651102931ADDAA199000091GF106991041051012501071999KA1120M+00841KA2999N+00511MA1999999102011MD1210031+9999REMSYN082AAXX  30184 04390 32684 60411 10075 20065 30201 40293 52003 8457/ 333 10084 20051;EQDQ01  00002PRCP99
0133043900999992000063021004+60300-043110FM-12+0019BGPC V0203601N002619999999N0500001N1+00841+00731102901ADDGF107991061001999999051061MA1999999101981MD1710031+9999REMSYN066AAXX  30214 04390 42984 73605 10084 20073 30198 40290 57003 86056;
0163043900999992000070100004+60300-043110FM-12+0019BGPC V0203401N001510750019N0500001N1+00871+00541102851ADDAA199000091GF105991021011017501031061MA1999999101931MD1710051+9999REMSYN066AAXX  01004 04390 32784 53403 10087 20054 30193 40285 57005 82136;EQDQ01  00002PRCP99
0133043900999992000070103004+60300-043110FM-12+0019BGPC V0203101N001519999999N0300001N1+00831+00541102781ADDGF105991031001999999071091MA1999999101861MD1710071+9999REMSYN066AAXX  01034 04390 42980 53103 10083 20054 30186 40278 57007 83079;
0205043900999992000070106004+60300-043110FM-12+0019BGPC V0203001N001512200019N0500001N1+00881+00531102701ADDAA199000091GF102991011001999999071041KA1120M+00921KA2999N+00721MA1999999101781MD1710081+9999REMSYN082AAXX  01064 04390 32984 23003 10088 20053 30178 40270 57008 81074 333 10092 20072;EQDQ01  00002PRCP99
0101043900999992000070109004+60300-043110FM-12+0019BGPC V0200501N000519999999N9999999N1+00941+00481102671ADDMA1999999101751MD1710031+9999REMSYN060AAXX  01094 04390 46/// /0501 10094 20048 30175 40267 57003;
0163043900999992000070112004+60300-043110FM-12+0019BGPC V0200601N002112200019N0500001N1+00921+00361102621ADDAA199000091GF103991001001999999001071MA1999999101701MD1710051+9999REMSYN066AAXX  01124 04390 32984 30604 10092 20036 30170 40262 57005 80007;EQDQ01  00002PRCP99
0133043900999992000070115004+60300-043110FM-12+0019BGPC V0200801N002119999999N0500001N1+01001+00301102581ADDGF105991021001999999031061MA1999999101671MD1710031+9999REMSYN066AAXX  01154 04390 42984 50804 10100 20030 30167 40258 57003 82036;
0205043900999992000070118004+60300-043110FM-12+0019BGPC V0200801N004110210019N0400001N1+00671+00671102561ADDAA199000091GF107991071001022501031999KA1120M+01261KA2999N+00591MA1999999101641MD1710031+9999REMSYN082AAXX  01184 04390 32882 70808 10067 20067 30164 40256 57003 8703/ 333 10126 20059;EQDQ01  00002PRCP99
0161043900999992000070121004+60300-043110FM-12+0019BGPC V0200501N003619999999N0100001N1+00671+00621102521ADDAY121031AY221031GF107991071001999999071999MA1999999101601MD1710041+9999MW1401REMSYN072AAXX  01214 04390 41960 70507 10067 20062 30160 40252 57004 74022 8707/;
0178043900999992000070200004+60300-043110FM-12+0019BGPC V0200301N005119999999N0200001N1+00611+00611102531ADDAA106000791AY151061AY221061GF108991051001999999021071MA1999999101601MD1410001+9999MW1601REMSYN078AAXX  02004 04390 11970 80310 10061 20061 30160 40253 54000 69901 76052 85027;
0133043900999992000070203004+60300-043110FM-12+0019BGPC V0200501N005710300019N0300001N1+00621+00621102491ADDGF108991041051008001071999MA1999999101571MD1710031+9999REMSYN066AAXX  02034 04390 42580 80511 10062 20062 30157 40249 57003 8457/;
0220043900999992000070206004+60300-043110FM-12+0019BGPC V0200301N007210021019N0150001N1+00541+00541102531ADDAA112001091AY151061AY251061GF108991081061002501999999KA1120M+00751KA2999N+00501MA1999999101601MD1210031+9999MW1511REMSYN094AAXX  02064 04390 11365 80314 10054 20054 30160 40253 52003 60012 75155 886// 333 10075 20050;
0188043900999992000070209004+60300-043110FM-12+0019BGPC V0200201N011310042019N0160001N1+00601+00601102521ADDAY151031AY251031GF108991071061004501021999MA1999999101591MD1710011+9999MW1511OA149901751REMSYN088AAXX  02094 04390 41466 80222 10060 20060 30159 40252 57001 75155 8762/ 333 91134 91033;
0188043900999992000070212004+60300-043110FM-12+0019BGPC V0200201N011310300019N0100001N1+00591+00571102611ADDAA106003091AY161061AY261061GF108991041071004501021999MA1999999101681MD1210091+9999MW1611REMSYN088AAXX  02124 04390 11460 80222 10059 20057 30168 40261 52009 60031 76166 8472/ 333 91137;
0188043900999992000070215004+60300-043110FM-12+0019BGPC V0200201N011810042019N0100001N1+00581+00581102681ADDAY161031AY261031GF108991051071004501021999MA1999999101751MD1210071+9999MW1631OA149902211REMSYN088AAXX  02154 04390 41460 80223 10058 20058 30175 40268 52007 76366 8572/ 333 91143 91033;
0243043900999992000070218004+60300-043110FM-12+0019BGPC V0200301N011810042019N0150001N1+00501+00351102481ADDAA112007191AY161061AY261061GF108991081071004501999999KA1120M+00691KA2120N+00471MA1999999101551MD1710201+9999MW1631OA149902211REMSYN106AAXX  02184 04390 11465 80323 10050 20035 30155 40248 57020 60072 76366 887// 333 10069 20047 91143 91036;
0143043900999992000070409004+60300-043110FM-12+0019BGPC V0200201N004610210019N0400001N1+00631+00581102071ADDGF108991061001022501061021MA1999999101151MD1210041+9999REMSYN076AAXX  04094 04390 42882 80209 10063 20058 30115 40207 52004 86062 333 91122;
0205043900999992000070418004+60300-043110FM-12+0019BGPC V0200301N004110210019N0400001N1+00691+00611102121ADDAA199000091GF108991081001022501071999KA1120M+00781KA2999N+00541MA1999999101201MD1210011+9999REMSYN082AAXX  04184 04390 32882 80308 10069 20061 30120 40212 52001 8807/ 333 10078 20054;EQDQ01  00002PRCP99
0163043900999992000070500004+60300-043110FM-12+0019BGPC V0200301N001510300019N0250001N1+00691+00601102181ADDAA199000091GF108991021061004501071999MA1999999101261MD1210021+9999REMSYN066AAXX  05004 04390 32475 80303 10069 20060 30126 40218 52002 8267/;EQDQ01  00002PRCP99
0161043900999992000070503004+60300-043110FM-12+0019BGPC V0200201N000510042019N0100001N1+00681+00591102191ADDAY151031AY221031GF108991071071004501021999MA1999999101271MD1210011+9999MW1601REMSYN072AAXX  05034 04390 41460 80201 10068 20059 30127 40219 52001 76052 8772/;
0186043900999992000070506004+60300-043110FM-12+0019BGPC V0203101N000519999999N0400001N1+00571+00521102121ADDAA199000021GF107991071001999999071999KA1120M+00731KA2999N+00571MA1999999101201MD1710071+9999REMSYN082AAXX  05064 04390 32982 73101 10057 20052 30120 40212 57007 8707/ 333 10073 20057;
0144043900999992000070509004+60300-043110FM-12+0019BGPC V0201701N002112200019N0500001N1+00671+00651102121ADDAA199000021GF103991021001022501051091MA1999999101201MD1410001+9999REMSYN066AAXX  05094 04390 32884 31704 10067 20065 30120 40212 54000 82059;
0172043900999992000070512004+60300-043110FM-12+0019BGPC V0202201N004619999999N0400001N1+00911+00681102071ADDAA199000021AY121061AY201061GF105991041001999999031061MA1999999101161MD1710041+9999MW1401REMSYN072AAXX  05124 04390 31982 52209 10091 20068 30116 40207 57004 74020 84036;
0133043900999992000070515004+60300-043110FM-12+0019BGPC V0202501N005712200019N0500001N1+01221+00701101991ADDGF103991011001999999071061MA1999999101091MD1710071+9999REMSYN066AAXX  05154 04390 42984 32511 10122 20070 30109 40199 57007 81076;
0205043900999992000070518004+60300-043110FM-12+0019BGPC V0202401N004112200019N0500001N1+01221+00741101931ADDAA199000091GF101991011001999999071061KA1120M+01301KA2999N+00491MA1999999101031MD1710061+9999REMSYN082AAXX  05184 04390 32984 12408 10122 20074 30103 40193 57006 81076 333 10130 20049;EQDQ01  00002PRCP99
0163043900999992000070521004+60300-043110FM-12+0019BGPC V0202401N004119999999N0400001N1+01061+00671101921ADDAA199000091GF106991001001999999001061MA1999999101011MD1710021+9999REMSYN066AAXX  05214 04390 32982 62408 10106 20067 30101 40192 57002 80006;EQDQ01  00002PRCP99
0163043900999992000070600004+60300-043110FM-12+0019BGPC V0202601N003110210019N0400001N1+00861+00651101851ADDAA199000091GF108991081001022501071999MA1999999100941MD1710071+9999REMSYN066AAXX  06004 04390 32882 82606 10086 20065 30094 40185 57007 8807/;EQDQ01  00002PRCP99
0133043900999992000070603004+60300-043110FM-12+0019BGPC V0202101N004119999999N0200001N1+00701+00511101771ADDGF107991071001999999071999MA1999999100851MD1710091+9999REMSYN066AAXX  06034 04390 42970 72108 10070 20051 30085 40177 57009 8707/;
0205043900999992000070606004+60300-043110FM-12+0019BGPC V0202501N003612200019N0500001N1+00661+00391101711ADDAA199000091GF103991021001999999031061KA1120M+01301KA2999N+00641MA1999999100791MD1710061+9999REMSYN082AAXX  06064 04390 32984 32507 10066 20039 30079 40171 57006 82036 333 10130 20064;EQDQ01  00002PRCP99
0163043900999992000070609004+60300-043110FM-12+0019BGPC V0202501N003110210019N0400001N1+00841+00421101691ADDAA199000091GF107991071001022501031999MA1999999100781MD1710011+9999REMSYN066AAXX  06094 04390 32882 72506 10084 20042 30078 40169 57001 8703/;EQDQ01  00002PRCP99
0163043900999992000070612004+60300-043110FM-12+0019BGPC V0202301N003619999999N0500001N1+01031+00311101641ADDAA199000091GF107991021001999999031071MA1999999100741MD1710041+9999REMSYN066AAXX  06124 04390 32984 72307 10103 20031 30074 40164 57004 82037;EQDQ01  00002PRCP99
0163043900999992000070615004+60300-043110FM-12+0019BGPC V0202401N005112200019N0400001N1+01251+00391101651ADDAA199000091GF104991041001999999031999MA1999999100751MD1210011+9999REMSYN066AAXX  06154 04390 32982 42410 10125 20039 30075 40165 52001 8403/;EQDQ01  00002PRCP99
0205043900999992000070618004+60300-043110FM-12+0019BGPC V0202301N006212200019N0400001N1+01291+00371101641ADDAA199000091GF102991001001999999001091KA1120M+01381KA2999N+00571MA1999999100741MD1710011+9999REMSYN082AAXX  06184 04390 32982 22312 10129 20037 30074 40164 57001 80009 333 10138 20057;EQDQ01  00002PRCP99
0191043900999992000070621004+60300-043110FM-12+0019BGPC V0202601N007219999999N0150001N1+01041+00571101601ADDAA199000091AY121031AY211031GF107991001001999999001071MA1999999100701MD1710041+9999MW1401REMSYN072AAXX  06214 04390 31965 72614 10104 20057 30070 40160 57004 74021 80007;EQDQ01  00002PRCP99
0201043900999992000070700004+60300-043110FM-12+0019BGPC V0202101N004619999999N0150001N1+00811+00681101511ADDAA199000091AY121061AY221061GF107991021001999999031061MA1999999100601MD1710101+9999MW1401REMSYN082AAXX  07004 04390 31965 72109 10081 20068 30060 40151 57010 74022 82036 333 91116;EQDQ01  00002PRCP99
0161043900999992000070703004+60300-043110FM-12+0019BGPC V0201701N002610120019N0200001N1+00571+00571101441ADDAY151031AY221031GF108991061051012501061999MA1999999100521MD1710081+9999MW1601REMSYN072AAXX  07034 04390 41670 81705 10057 20057 30052 40144 57008 76052 8656/;
0220043900999992000070706004+60300-043110FM-12+0019BGPC V0200601N002110300019N0100001N1+00341+00341101181ADDAA112006191AY161061AY261061GF108991011071004501021999KA1120M+01381KA2999N+00281MA1999999100261MD1710261+9999MW1631REMSYN094AAXX  07064 04390 11460 80604 10034 20034 30026 40118 57026 60062 76366 8172/ 333 10138 20028;
0188043900999992000070709004+60300-043110FM-12+0019BGPC V0200201N002110021019N0150001N1+00431+00401101221ADDAY121031AY221031GF108991081071002501999999MA1999999100301MD1210041+9999MW1401OA149901441REMSYN088AAXX  07094 04390 41365 80204 10043 20040 30030 40122 52004 74022 887// 333 91128 91219;
0177043900999992000070712004+60300-043110FM-12+0019BGPC V0201001N001512200019N0500001N1+00641+00621101201ADDAA106002091GF104991011061002501031999MA1999999100291MD1710011+9999OA149901441REMSYN088AAXX  07124 04390 12384 41003 10064 20062 30029 40120 57001 60021 8163/ 333 91128 91219;
0161043900999992000070715004+60300-043110FM-12+0019BGPC V0200701N004110300019N0200001N1+00601+00571101281ADDAY161031AY221031GF108991021061002501051999MA1999999100371MD1210081+9999MW1001REMSYN072AAXX  07154 04390 41370 80708 10060 20057 30037 40128 52008 70062 8265/;
0192043900999992000070718004+60300-043110FM-12+0019BGPC V0200301N004610300019N0400001N1+00621+00421101371ADDAA112002091GF108991021061004501071999KA1120M+00861KA2999N+00341MA1999999100461MD1210091+9999REMSYN088AAXX  07184 04390 12482 80309 10062 20042 30046 40137 52009 60022 8267/ 333 10086 20034;
0163043900999992000070721004+60300-043110FM-12+0019BGPC V0200801N001010300019N0300001N1+00751+00441101371ADDAA199000091GF108991011061002501021999MA1999999100461MD1410001+9999REMSYN066AAXX  07214 04390 32380 80802 10075 20044 30046 40137 54000 8162/;EQDQ01  00002PRCP99
0163043900999992000070800004+60300-043110FM-12+0019BGPC V0202101N000510300019N0400001N1+00801+00561101281ADDAA199000091GF108991011061004501021999MA1999999100371MD1710091+9999REMSYN066AAXX  08004 04390 32482 82101 10080 20056 30037 40128 57009 8162/;EQDQ01  00002PRCP99
0133043900999992000070803004+60300-043110FM-12+0019BGPC V0201901N001010120019N0200001N1+00671+00451101171ADDGF108991081051012501999999MA1999999100261MD1710111+9999REMSYN066AAXX  08034 04390 42670 81902 10067 20045 30026 40117 57011 885//;
0205043900999992000070806004+60300-043110FM-12+0019BGPC V0202501N004112200019N0500001N1+00631+00461100961ADDAA199000091GF103991021001999999071041KA1120M+00821KA2999N+00511MA1999999100051MD1710211+9999REMSYN082AAXX  08064 04390 32984 32508 10063 20046 30005 40096 57021 82074 333 10082 20051;EQDQ01  00002PRCP99
0131043900999992000070809004+60300-043110FM-12+0019BGPC V0202401N005119999999N9999999N1+00841+00631100871ADDAA199000091MA1999999099971MD1710081+9999REMSYN060AAXX  08094 04390 32/// /2410 10084 20063 39997 40087 57008;EQDQ01  00002PRCP99
0183043900999992000070812004+60300-043110FM-12+0019BGPC V0202501N007212200019N0600001N1+01191+00591100831ADDAA199000091GA1001+999999999GF100991001001999999001001MA1999999099941MD1710031+9999REMSYN070AAXX  08124 04390 32986 02514 10119 20059 39994 40083 57003 333 91124;EQDQ01  00002PRCP99
0153043900999992000070815004+60300-043110FM-12+0019BGPC V0202601N008212200019N0600001N1+01601+00551100851ADDGA1001+999999999GF100991001001999999001001MA1999999099971MD1210031+9999REMSYN070AAXX  08154 04390 42986 02616 10160 20055 39997 40085 52003 333 91130;
0228043900999992000070818004+60300-043110FM-12+0019BGPC V0203001N005712200019N0400001N1+01571+00491100971ADDAA199000091GF101991001001999999001061KA1120M+01691KA2120N+00631MA1999999100091MD1210121+9999OA149901751REMSYN094AAXX  08184 04390 32982 13011 10157 20049 30009 40097 52012 80006 333 10169 20063 91134 91226;EQDQ01  00002PRCP99
0190043900999992000070821004+60300-043110FM-12+0019BGPC V0202901N003619999999N0400001N1+01561+00481101071ADDAA199000091GF106991001001999999001061MA1999999100191MD1210101+9999OA149901131REMSYN082AAXX  08214 04390 32982 62907 10156 20048 30019 40107 52010 80006 333 91122 91219;EQDQ01  00002PRCP99
0190043900999992000070900004+60300-043110FM-12+0019BGPC V0203001N002612200019N0400001N1+00981+00511101301ADDAA199000091GF105991011001022501071041MA1999999100401MD1210211+9999OA149901131REMSYN082AAXX  09004 04390 32882 53005 10098 20051 30040 40130 52021 81074 333 91122 91219;EQDQ01  00002PRCP99
0133043900999992000070903004+60300-043110FM-12+0019BGPC V0202901N003619999999N0200001N1+00681+00461101321ADDGF106991001001999999001061MA1999999100411MD1210011+9999REMSYN066AAXX  09034 04390 42970 62907 10068 20046 30041 40132 52001 80006;
0163043900999992000070909004+60300-043110FM-12+0019BGPC V0203001N002619999999N0400001N1+00651+00511101161ADDAA199000091GF105991041001999999051011MA1999999100251MD1710051+9999REMSYN066AAXX  09094 04390 32982 53005 10065 20051 30025 40116 57005 84051;EQDQ01  00002PRCP99
0163043900999992000070912004+60300-043110FM-12+0019BGPC V0202901N001512200019N0500001N1+01331+00511100971ADDAA199000091GF102991021001999999031001MA1999999100081MD1710171+9999REMSYN066AAXX  09124 04390 32984 22903 10133 20051 30008 40097 57017 82030;EQDQ01  00002PRCP99
0133043900999992000070915004+60300-043110FM-12+0019BGPC V0202401N004619999999N0600001N1+01751+00431100881ADDGF105991031001999999031061MA1999999100011MD1710071+9999REMSYN066AAXX  09154 04390 42986 52409 10175 20043 30001 40088 57007 83036;
0239043900999992000070918004+60300-043110FM-12+0019BGPC V0202401N006210210019N0300001N1+01441+00321100851ADDAA199000091AY121061AY221061GF107991071001022501021999KA1120M+01841KA2120N+00501MA1999999099971MD1710041+9999MW1401REMSYN094AAXX  09184 04390 31880 72412 10144 20032 39997 40085 57004 74022 8702/ 333 10184 20050 91121;EQDQ01  00002PRCP99
0173043900999992000070921004+60300-043110FM-12+0019BGPC V0202601N005110210019N0400001N1+01451+00351100851ADDAA199000091GF107991071001022501021999MA1999999099971MD1410001+9999REMSYN076AAXX  09214 04390 32882 72610 10145 20035 39997 40085 54000 8702/ 333 91118;EQDQ01  00002PRCP99
0173043900999992000071000004+60300-043110FM-12+0019BGPC V0202701N007210210019N0400001N1+01331+00241100881ADDAA199000091GF107991061001022501071011MA1999999099991MD1210021+9999REMSYN076AAXX  10004 04390 32882 72714 10133 20024 39999 40088 52002 86071 333 91118;EQDQ01  00002PRCP99
0163043900999992000071003004+60300-043110FM-12+0019BGPC V0202701N003610210019N0400001N1+01281+00261100881ADDAA199000091GF107991071001022501031999MA1999999099991MD1410001+9999REMSYN066AAXX  10034 04390 32882 72707 10128 20026 39999 40088 54000 8703/;EQDQ01  00002PRCP99
0133043900999992000071009004+60300-043110FM-12+0019BGPC V0201701N003610075019N0500001N1+00801+00671101071ADDGF107991051051008001071999MA1999999100161MD1210151+9999REMSYN066AAXX  10094 04390 42584 71707 10080 20067 30016 40107 52015 8557/;
0163043900999992000071012004+60300-043110FM-12+0019BGPC V0201201N001510120019N0500001N1+00991+00621101081ADDAA199000091GF108991081051012501999999MA1999999100181MD1210021+9999REMSYN066AAXX  10124 04390 32684 81203 10099 20062 30018 40108 52002 885//;EQDQ01  00002PRCP99
0163043900999992000071015004+60300-043110FM-12+0019BGPC V0201001N000510210019N0400001N1+01181+00961101001ADDAA199000091GF106991061001022501051999MA1999999100111MD1710071+9999REMSYN066AAXX  10154 04390 32882 61001 10118 20096 30011 40100 57007 8605/;EQDQ01  00002PRCP99
0205043900999992000071018004+60300-043110FM-12+0019BGPC V0201901N003112200019N0400001N1+01351+00671100881ADDAA199000091GF104991031031008001041021KA1120M+01391KA2999N+00741MA1999999099991MD1710121+9999REMSYN082AAXX  10184 04390 32582 41906 10135 20067 39999 40088 57012 83342 333 10139 20074;EQDQ01  00002PRCP99
0133043900999992000071021004+60300-043110FM-12+0019BGPC V0202501N005712200019N0300001N1+00941+00861100791ADDGF102991021021008001999999MA1999999099891MD1710101+9999REMSYN066AAXX  10214 04390 42580 22511 10094 20086 39989 40079 57010 822//;
0173043900999992000071100004+60300-043110FM-12+0019BGPC V0202301N006210042019N0300001N1+00821+00711100721ADDAA199000091GF105991051071004501999999MA1999999099821MD1710071+9999REMSYN076AAXX  11004 04390 32480 52312 10082 20071 39982 40072 57007 857// 333 91125;EQDQ01  00002PRCP99
0163043900999992000071103004+60300-043110FM-12+0019BGPC V0202201N004612200019N0200001N1+00741+00531100641ADDAA199000091GF104991041071004501999999MA1999999099741MD1710081+9999REMSYN066AAXX  11034 04390 32470 42209 10074 20053 39974 40064 57008 847//;EQDQ01  00002PRCP99
0205043900999992000071106004+60300-043110FM-12+0019BGPC V0202301N005110075019N0300001N1+00791+00601100471ADDAA199000091GF105991051051008001001001KA1120M+01391KA2999N+00721MA1999999099571MD1710171+9999REMSYN082AAXX  11064 04390 32580 52310 10079 20060 39957 40047 57017 85500 333 10139 20072;EQDQ01  00002PRCP99
0133043900999992000071109004+60300-043110FM-12+0019BGPC V0202301N004110075019N0400001N1+00841+00661100361ADDGF105991051021008001999999MA1999999099461MD1710111+9999REMSYN066AAXX  11094 04390 42582 52308 10084 20066 39946 40036 57011 852//;
0173043900999992000071112004+60300-043110FM-12+0019BGPC V0202101N004110120019N0500001N1+00781+00611100271ADDAA199000091GF106991061051012501001001MA1999999099371MD1710091+9999REMSYN076AAXX  11124 04390 32684 62108 10078 20061 39937 40027 57009 86500 333 91120;EQDQ01  00002PRCP99
0163043900999992000071115004+60300-043110FM-12+0019BGPC V0203001N009312200019N0400001N1+00751+00421100271ADDAA199000091GF104991021071004501041031MA1999999099371MD1410001+9999REMSYN066AAXX  11154 04390 32482 43018 10075 20042 39937 40027 54000 82743;EQDQ01  00002PRCP99
0205043900999992000071118004+60300-043110FM-12+0019BGPC V0202201N005712200019N0500001N1+01111+00581100311ADDAA199000091GF102991021071008001041999KA1120M+01151KA2999N+00701MA1999999099421MD1210051+9999REMSYN082AAXX  11184 04390 32584 22211 10111 20058 39942 40031 52005 8274/ 333 10115 20070;EQDQ01  00002PRCP99
0143043900999992000071121004+60300-043110FM-12+0019BGPC V0202601N008712200019N0500001N1+01061+00571100271ADDGA1001+999999999GF100991001001999999001001MA1999999099381MD1710041+9999REMSYN060AAXX  11214 04390 42984 02617 10106 20057 39938 40027 57004;
0228043900999992000071200004+60300-043110FM-12+0019BGPC V0201401N003112200019N0008001N1+00131+00131100441ADDAA199000091AY101061AY201061GA1001+999999999GF100991001001999999001001MA1999999099521MD1210141+9999MW1461OA149901341REMSYN082AAXX  12004 04390 31908 01406 10013 20013 39952 40044 52014 74600 333 91126 91222;EQDQ01  00002PRCP99
0163043900999992000071203004+60300-043110FM-12+0019BGPC V0200701N001510042019N0150001N1+00161+00131100561ADDAA199000091GF107991071071004501999999MA1999999099641MD1210121+9999REMSYN066AAXX  12034 04390 32465 70703 10016 20013 39964 40056 52012 877//;EQDQ01  00002PRCP99
0201043900999992000071206004+60300-043110FM-12+0019BGPC V0203201N001019999999N0005001N1+00231+00231100671ADDAA199000091AY141061AY241061KA1120M+01201KA2999N-00031MA1999999099751MD1210111+9999MW1451REMSYN082AAXX  12064 04390 31/05 /3202 10023 20023 39975 40067 52011 74544 333 10120 21003;EQDQ01  00002PRCP99
0161043900999992000071209004+60300-043110FM-12+0019BGPC V0201501N002110006019N0020001N1+00231+00231100771ADDAY141031AY221031GF108991081061000751999999MA1999999099851MD1210101+9999MW1001REMSYN072AAXX  12094 04390 41120 81504 10023 20023 39985 40077 52010 70042 886//;
0163043900999992000071212004+60300-043110FM-12+0019BGPC V0200601N001010021019N0400001N1+00421+00361100771ADDAA199000091GF108991081061002501999999MA1999999099851MD1410001+9999REMSYN066AAXX  12124 04390 32382 80602 10042 20036 39985 40077 54000 886//;EQDQ01  00002PRCP99
0163043900999992000071215004+60300-043110FM-12+0019BGPC V0200801N003112200019N0150001N1+00381+00271100851ADDAA199000091GF101991001001999999001041MA1999999099931MD1210081+9999REMSYN066AAXX  12154 04390 32965 10806 10038 20027 39993 40085 52008 80004;EQDQ01  00002PRCP99
0233043900999992000071218004+60300-043110FM-12+0019BGPC V0200901N002112200019N0200001N1+00391+00301100841ADDAA199000091AY101061AY201061GF102991011001999999031041KA1120M+00601KA2999N+00201MA1999999099921MD1710011+9999MW1401REMSYN088AAXX  12184 04390 31970 20904 10039 20030 39992 40084 57001 74000 81034 333 10060 20020;EQDQ01  00002PRCP99
0161043900999992000071221004+60300-043110FM-12+0019BGPC V0209999C000012200019N0500001N1+00831+00431100831ADDAY191031AY291031GF102991011001999999031041MA1999999099931MD1210011+9999MW1401REMSYN072AAXX  12214 04390 41984 20000 10083 20043 39993 40083 52001 74099 81034;
0163043900999992000071300004+60300-043110FM-12+0019BGPC V0201101N000512200019N0500001N1+00601+00361100901ADDAA199000091GF103991001001999999001061MA1999999099991MD1210061+9999REMSYN066AAXX  13004 04390 32984 31101 10060 20036 39999 40090 52006 80006;EQDQ01  00002PRCP99
0163043900999992000071303004+60300-043110FM-12+0019BGPC V0202101N000519999999N0250001N1+00491+00351100911ADDAA199000091GF107991071001999999051999MA1999999100001MD1210011+9999REMSYN066AAXX  13034 04390 32975 72101 10049 20035 30000 40091 52001 8705/;EQDQ01  00002PRCP99
0205043900999992000071306004+60300-043110FM-12+0019BGPC V0201501N001512200019N0500001N1+00361+00271100841ADDAA199000091GF103991031001999999031001KA1120M+00961KA2999N+00171MA1999999099921MD1710081+9999REMSYN082AAXX  13064 04390 32984 31503 10036 20027 39992 40084 57008 83030 333 10096 20017;EQDQ01  00002PRCP99
0161043900999992000071309004+60300-043110FM-12+0019BGPC V0200501N001010210019N0500001N1+00451+00301100801ADDAY171031AY221031GF107991061001022501021061MA1999999099891MD1710031+9999MW1611REMSYN072AAXX  13094 04390 41884 70502 10045 20030 39989 40080 57003 76172 86026;
0178043900999992000071312004+60300-043110FM-12+0019BGPC V0200901N001510150019N0500001N1+00461+00461100801ADDAA106003091AY151061AY251061GF107991071001017501021999MA1999999099891MD1410001+9999MW1601REMSYN078AAXX  13124 04390 11784 70903 10046 20046 39989 40080 54000 60031 76055 8702/;
0161043900999992000071315004+60300-043110FM-12+0019BGPC V0200901N002110210019N0500001N1+00581+00581100791ADDAY171031AY221031GF108991081001022501021999MA1999999099881MD1710011+9999MW1601REMSYN072AAXX  13154 04390 41884 80904 10058 20058 39988 40079 57001 76072 8802/;
0220043900999992000071318004+60300-043110FM-12+0019BGPC V0200701N002610075019N0300001N1+00611+00611100761ADDAA112004191AY151061AY251061GF108991081051008001999999KA1120M+00731KA2999N+00151MA1999999099851MD1710031+9999MW1501REMSYN094AAXX  13184 04390 11580 80705 10061 20061 39985 40076 57003 60042 75055 885// 333 10073 20015;
0161043900999992000071321004+60300-043110FM-12+0019BGPC V0200801N003119999999N0500001N1+00591+00591100831ADDAY121031AY221031GF108991071001999999071061MA1999999099921MD1210071+9999MW1401REMSYN072AAXX  13214 04390 41984 80806 10059 20059 39992 40083 52007 74022 87076;
0178043900999992000071400004+60300-043110FM-12+0019BGPC V0200401N005110300019N0100001N1+00581+00581100961ADDAA106000191AY121061AY221061GF108991011061002501071999MA1999999100051MD1210131+9999MW1401REMSYN078AAXX  14004 04390 11360 80410 10058 20058 30005 40096 52013 69911 74022 8167/;
0133043900999992000071403004+60300-043110FM-12+0019BGPC V0200301N007710210019N0250001N1+00571+00551101051ADDGF108991081001022501071999MA1999999100141MD1210091+9999REMSYN066AAXX  14034 04390 42875 80315 10057 20055 30014 40105 52009 8807/;
0243043900999992000071406004+60300-043110FM-12+0019BGPC V0200301N008710042019N0200001N1+00461+00461101191ADDAA112000191AY151061AY251061GF108991061061004501041091KA1120M+00671KA2120N+00451MA1999999100271MD1210131+9999MW1601OA149901541REMSYN106AAXX  14064 04390 11470 80317 10046 20046 30027 40119 52013 69912 76055 86649 333 10067 20045 91130 91027;
0171043900999992000071409004+60300-043110FM-12+0019BGPC V0200301N009310042019N0400001N1+00491+00401101211ADDAY161031AY221031GF108991051071004501021999MA1999999100291MD1210021+9999MW1501REMSYN082AAXX  14094 04390 41482 80318 10049 20040 30029 40121 52002 75062 8572/ 333 91129;
0188043900999992000071412004+60300-043110FM-12+0019BGPC V0200301N008210750019N0400001N1+00421+00361101271ADDAA106000791AY161061AY221061GF108991031001017501021061MA1999999100351MD1210061+9999MW1001REMSYN088AAXX  14124 04390 11782 80316 10042 20036 30035 40127 52006 69901 70062 83026 333 91129;
0143043900999992000071415004+60300-043110FM-12+0019BGPC V0200301N010810150019N0100001N1+00391+00371101271ADDGF108991081001017501021999MA1999999100351MD1410001+9999REMSYN076AAXX  14154 04390 42760 80321 10039 20037 30035 40127 54000 8802/ 333 91128;
0192043900999992000071418004+60300-043110FM-12+0019BGPC V0200301N007210150019N0500001N1+00501+00331101151ADDAA199000021GF108991081001017501021999KA1120M+00551KA2120N+00341MA1999999100231MD1710121+9999REMSYN088AAXX  14184 04390 32784 80314 10050 20033 30023 40115 57012 8802/ 333 10055 20034 91130;
0143043900999992000071421004+60300-043110FM-12+0019BGPC V0200301N008210210019N0500001N1+00461+00311101121ADDGF108991081001022501021999MA1999999100201MD1710031+9999REMSYN076AAXX  14214 04390 42884 80316 10046 20031 30020 40112 57003 8802/ 333 91126;
0173043900999992000071500004+60300-043110FM-12+0019BGPC V0200301N008210300019N0500001N1+00491+00291101041ADDAA199000091GF108991031051012501071999MA1999999100121MD1710081+9999REMSYN076AAXX  15004 04390 32684 80316 10049 20029 30012 40104 57008 8357/ 333 91128;EQDQ01  00002PRCP99
0173043900999992000071503004+60300-043110FM-12+0019BGPC V0200201N007212200019N0400001N1+00491+00241100851ADDAA199000091GF102991021001999999051999MA1999999099941MD1710181+9999REMSYN076AAXX  15034 04390 32982 20214 10049 20024 39994 40085 57018 8205/ 333 91127;EQDQ01  00002PRCP99
0227043900999992000071506004+60300-043110FM-12+0019BGPC V0200501N007212200019N0500001N1+00601+00211100691ADDAA199000091GA1001+999999999GF100991001001999999001001KA1120M+00691KA2120N+00441MA1999999099781MD1710161+9999REMSYN088AAXX  15064 04390 32984 00514 10060 20021 39978 40069 57016 90000 333 10069 20044 91127;EQDQ01  00002PRCP99
0133043900999992000071509004+60300-043110FM-12+0019BGPC V0200201N006710150019N0500001N1+00551+00281100621ADDGF106991051051017501001061MA1999999099711MD1710071+9999REMSYN066AAXX  15094 04390 42784 60213 10055 20028 39971 40062 57007 85506;
0173043900999992000071512004+60300-043110FM-12+0019BGPC V0200301N005119999999N0400001N1+00691+00291100641ADDAA199000091GF107991071001999999031999MA1999999099731MD1210021+9999REMSYN076AAXX  15124 04390 32982 70310 10069 20029 39973 40064 52002 8703/ 333 91123;EQDQ01  00002PRCP99
0133043900999992000071515004+60300-043110FM-12+0019BGPC V0200801N004612200019N0500001N1+00651+00241100571ADDGF103991031001999999031001MA1999999099661MD1710071+9999REMSYN066AAXX  15154 04390 42984 30809 10065 20024 39966 40057 57007 83030;
0205043900999992000071518004+60300-043110FM-12+0019BGPC V0201101N002612200019N0600001N1+00861+00421100451ADDAA199000091GF103991031001999999031999KA1120M+00921KA2999N+00531MA1999999099551MD1710111+9999REMSYN082AAXX  15184 04390 32986 31105 10086 20042 39955 40045 57011 8303/ 333 10092 20053;EQDQ01  00002PRCP99
0163043900999992000071600004+60300-043110FM-12+0019BGPC V0203201N000512200019N0500001N1+00601+00331100331ADDAA199000091GF102991011001999999041041MA1999999099421MD1710041+9999REMSYN066AAXX  16004 04390 32984 23201 10060 20033 39942 40033 57004 81044;EQDQ01  00002PRCP99
0101043900999992000071603004+60300-043110FM-12+0019BGPC V0202801N001519999999N9999999N1+00581+00451100311ADDMA1999999099401MD1710021+9999REMSYN060AAXX  16034 04390 46/// /2803 10058 20045 39940 40031 57002;
0143043900999992000071606004+60300-043110FM-12+0019BGPC V0203001N002619999999N9999999N1+00471+00391100401ADDKA1120M+01081KA2999N+00441MA1999999099491MD1210091+9999REMSYN076AAXX  16064 04390 46/// /3005 10047 20039 39949 40040 52009 333 10108 20044;
0143043900999992000071609004+60300-043110FM-12+0019BGPC V0203001N002112200019N0600001N1+00541+00481100611ADDGA1001+999999999GF100991001001999999001001MA1999999099701MD1210211+9999REMSYN060AAXX  16094 04390 42986 03004 10054 20048 39970 40061 52021;
0163043900999992000071612004+60300-043110FM-12+0019BGPC V0203401N001012200019N0400001N1+00711+00401100791ADDAA199000091GF101991001001999999001061MA1999999099881MD1210181+9999REMSYN066AAXX  16124 04390 32982 13402 10071 20040 39988 40079 52018 80006;EQDQ01  00002PRCP99
0133043900999992000071615004+60300-043110FM-12+0019BGPC V0200101N000512200019N0500001N1+00851+00371100861ADDGF102991001001999999001061MA1999999099961MD1210081+9999REMSYN066AAXX  16154 04390 42984 20101 10085 20037 39996 40086 52008 80006;
0205043900999992000071618004+60300-043110FM-12+0019BGPC V0200501N001512200019N0500001N1+01151+00511100831ADDAA199000091GF103991001001999999001051KA1120M+01201KA2999N+00411MA1999999099941MD1710021+9999REMSYN082AAXX  16184 04390 32984 30503 10115 20051 39994 40083 57002 80005 333 10120 20041;EQDQ01  00002PRCP99
0133043900999992000071621004+60300-043110FM-12+0019BGPC V0202801N002619999999N0500001N1+01081+00551100791ADDGF105991001001999999001061MA1999999099901MD1710041+9999REMSYN066AAXX  16214 04390 42984 52805 10108 20055 39990 40079 57004 80006;
0163043900999992000071700004+60300-043110FM-12+0019BGPC V0202901N001012200019N0500001N1+01041+00401100831ADDAA199000091GF104991001001999999001061MA1999999099931MD1210031+9999REMSYN066AAXX  17004 04390 32984 42902 10104 20040 39993 40083 52003 80006;EQDQ01  00002PRCP99
0133043900999992000071703004+60300-043110FM-12+0019BGPC V0202001N002612200019N0100001N1+01421+00141100811ADDGF102991011001999999041061MA1999999099931MD1410001+9999REMSYN066AAXX  17034 04390 42960 22005 10142 20014 39993 40081 54000 81046;
0211043900999992000071706004+60300-043110FM-12+0019BGPC V0202701N006719999999N0400001N1+01601+00011100841ADDAA199000091GF105991041001999999041091KA1120M+01631KA2120N+00801MA1999999099961MD1210031+9999REMSYN088AAXX  17064 04390 32982 52713 10160 20001 39996 40084 52003 84049 333 10163 20080 91126;EQDQ01  00002PRCP99
0160043900999992000071709004+60300-043110FM-12+0019BGPC V0202901N004619999999N0500001N1+01141-00181100971ADDGF106991051001999999071061MA1999999100081MD1210121+9999OA149901491REMSYN082AAXX  17094 04390 42984 62909 10114 21018 30008 40097 52012 85076 333 91129 91223;
0173043900999992000071712004+60300-043110FM-12+0019BGPC V0202901N006719999999N0500001N1+00881+00161101041ADDAA199000091GF107991071001999999071999MA1999999100141MD1210061+9999REMSYN076AAXX  17124 04390 32984 72913 10088 20016 30014 40104 52006 8707/ 333 91129;EQDQ01  00002PRCP99
0133043900999992000071715004+60300-043110FM-12+0019BGPC V0203001N004619999999N0500001N1+00911+00321101041ADDGF105991051001999999071999MA1999999100141MD1410001+9999REMSYN066AAXX  17154 04390 42984 53009 10091 20032 30014 40104 54000 8507/;
0205043900999992000071718004+60300-043110FM-12+0019BGPC V0202901N004112200019N0400001N1+01471+00571100921ADDAA199000091GF104991001001999999001091KA1120M+01681KA2999N+00791MA1999999100041MD1710101+9999REMSYN082AAXX  17184 04390 32982 42908 10147 20057 30004 40092 57010 80009 333 10168 20079;EQDQ01  00002PRCP99
0171043900999992000071721004+60030-043110FM-12+0019BGPC V0200601N002612200019N0200001N1+00771+00531101131ADDAY111031AY201031GF102991001001999999001061MA1999999100221MD1210181+9999MW1401REMSYN082AAXX  17214 04390 41970 20605 10077 20053 30022 40113 52018 74010 80006 333 91119;
0190043900999992000071800004+60030-043110FM-12+0019BGPC V0200601N000512200019N0500001N1+00691+00601101251ADDAA199000091GF102991021001999999071061MA1999999100341MD1210121+9999OA149900981REMSYN082AAXX  18004 04390 32984 20601 10069 20060 30034 40125 52012 82076 333 91119 91213;EQDQ01  00002PRCP99
0133043900999992000071803004+60030-043110FM-12+0019BGPC V0200301N000512200019N0150001N1+00741+00411101211ADDGF101991011001999999071999MA1999999100301MD1710041+9999REMSYN066AAXX  18034 04390 42965 10301 10074 20041 30030 40121 57004 8107/;
0191043900999992000071806004+60030-043110FM-12+0019BGPC V0203001N000512200019N0400001N1+00601+00411101201ADDAA199000091GF101991999999999999999999KA1120M+01791MA1999999100291MD1710011+9999REMSYN081AAXX  18064 04390 32982 13001 10060 20041 30029 40120 57001 817/ 333 10179 20059;EQDQ01  00002PRCP99
0133043900999992000071809004+60030-043110FM-12+0019BGPC V0200901N000519999999N0500001N1+00431+00341101291ADDGF108991081001999999071999MA1999999100371MD1210081+9999REMSYN066AAXX  18094 04390 42984 80901 10043 20034 30037 40129 52008 8807/;
0163043900999992000071812004+60030-043110FM-12+0019BGPC V0200801N002112200019N0600001N1+00731+00571101371ADDAA199000091GF101991011001999999031999MA1999999100461MD1210091+9999REMSYN066AAXX  18124 04390 32986 10804 10073 20057 30046 40137 52009 8103/;EQDQ01  00002PRCP99
0191043900999992000071815004+60030-043110FM-12+0019BGPC V0200901N003612200019N0400001N1+00721+00611101361ADDAA199000091AY111031AY201031GF104991031001999999031091MA1999999100451MD1710011+9999MW1401REMSYN072AAXX  18154 04390 31982 40907 10072 20061 30045 40136 57001 74010 83039;EQDQ01  00002PRCP99
0233043900999992000071818004+60030-043110FM-12+0019BGPC V0201301N002612200019N0400001N1+00931+00781101201ADDAA199000091AY101061AY201061GF104991031001999999031041KA1120M+00991KA2999N+00411MA1999999100301MD1710151+9999MW1401REMSYN088AAXX  18184 04390 31982 41305 10093 20078 30030 40120 57015 74000 83034 333 10099 20041;EQDQ01  00002PRCP99
0161043900999992000071821004+60030-043110FM-12+0019BGPC V0202201N000519999999N0300001N1+00821+00751101011ADDAY121031AY221031GF107991071001999999071999MA1999999100111MD1710191+9999MW1401REMSYN072AAXX  18214 04390 41980 72201 10082 20075 30011 40101 57019 74022 8707/;
0178043900999992000071900004+60030-043110FM-12+0019BGPC V0202901N002119999999N0300001N1+00791+00551100831ADDAA106000791AY161061AY221061GF108991061001999999051061MA1999999099931MD1710181+9999MW1601REMSYN078AAXX  19004 04390 11980 82904 10079 20055 39993 40083 57018 69901 76062 86056;
0161043900999992000071903004+60030-043110FM-12+0019BGPC V0202901N004119999999N0100001N1+00761+00571100601ADDAY161031AY261031GF108991081001999999021999MA1999999099701MD1710231+9999MW1611REMSYN072AAXX  19034 04390 41960 82908 10076 20057 39970 40060 57023 76166 8802/;
0192043900999992000071906004+60030-043110FM-12+0019BGPC V0202901N002110210019N0400001N1+00951+00631100411ADDAA112000791GF108991081001022501021999KA1120M+01151KA2999N+00641MA1999999099511MD1710191+9999REMSYN088AAXX  19064 04390 12882 82904 10095 20063 39951 40041 57019 69902 8802/ 333 10115 20064;
0161043900999992000071909004+60030-043110FM-12+0019BGPC V0202901N002110210019N0500001N1+00981+00721100231ADDAY161031AY221031GF107991071001022501021999MA1999999099341MD1710171+9999MW1001REMSYN072AAXX  19094 04390 41884 72904 10098 20072 39934 40023 57017 70062 8702/;
0178043900999992000071912004+60030-043110FM-12+0019BGPC V0203401N002119999999N0600001N1+01101+00801100081ADDAA106000391AY161061AY221061GF106991061001999999031999MA1999999099191MD1710151+9999MW1001REMSYN078AAXX  19124 04390 11986 63404 10110 20080 39919 40008 57015 69931 70062 8603/;
0144043900999992000071915004+60030-043110FM-12+0019BGPC V0201001N002110210019N0400001N1+00981+00301100041ADDAA199000021GF106991061001022501031999MA1999999099151MD1710041+9999REMSYN066AAXX  19154 04390 32882 61004 10098 20030 39915 40004 57004 8603/;
0205043900999992000071918004+60030-043110FM-12+0019BGPC V0201001N003119999999N0400001N1+00971+00031099921ADDAA199000091GF107991071001999999051999KA1120M+01411KA2999N+00731MA1999999099031MD1710121+9999REMSYN082AAXX  19184 04390 32982 71006 10097 20003 39903 49992 57012 8705/ 333 10141 20073;EQDQ01  00002PRCP99
0133043900999992000071921004+60030-043110FM-12+0019BGPC V0200301N001010150019N0500001N1+00921-00101099891ADDGF108991071001017501021061MA1999999099001MD1710031+9999REMSYN066AAXX  19214 04390 42784 80302 10092 21010 39900 49989 57003 87026;
0178043900999992000072000004+60030-043110FM-12+0019BGPC V0200301N001519999999N0500001N1+00751+00151099841ADDAA106000791AY151061AY221061GF107991071001999999021999MA1999999098941MD1710061+9999MW1601REMSYN078AAXX  20004 04390 11984 70303 10075 20015 39894 49984 57006 69901 76052 8702/;
0133043900999992000072003004+60030-043110FM-12+0019BGPC V0202901N000510210019N0150001N1+00811+00171099901ADDGF108991081001022501021999MA1999999099001MD1210061+9999REMSYN066AAXX  20034 04390 42865 82901 10081 20017 39900 49990 52006 8802/;
0133043900999992000072009004+60030-043110FM-12+0019BGPC V0202801N001510150019N0500001N1+00621+00331099841ADDGF108991081001017501021999MA1999999098941MD1210011+9999REMSYN066AAXX  20094 04390 42784 82803 10062 20033 39894 49984 52001 8802/;
0144043900999992000072012004+60030-043110FM-12+0019BGPC V0200701N003110150019N0500001N1+00801+00401099911ADDAA199000021GF107991071001017501021999MA1999999099011MD1210071+9999REMSYN066AAXX  20124 04390 32784 70706 10080 20040 39901 49991 52007 8702/;
0163043900999992000072015004+60030-043110FM-12+0019BGPC V0200901N003612200019N0400001N1+00941+00421099901ADDAA199000091GF102991021001999999031999MA1999999099011MD1410001+9999REMSYN066AAXX  20154 04390 32982 20907 10094 20042 39901 49990 54000 8203/;EQDQ01  00002PRCP99
0205043900999992000072018004+60030-043110FM-12+0019BGPC V0200901N004610150019N0500001N1+00841+00821099901ADDAA199000091GF105991051051017501999999KA1120M+01031KA2999N+00531MA1999999099011MD1410001+9999REMSYN082AAXX  20184 04390 32784 50909 10084 20082 39901 49990 54000 855// 333 10103 20053;EQDQ01  00002PRCP99
0133043900999992000072021004+60030-043110FM-12+0019BGPC V0200801N003610150019N0500001N1+00811+00811099981ADDGF105991051051017501999999MA1999999099081MD1210071+9999REMSYN066AAXX  20214 04390 42784 50807 10081 20081 39908 49998 52007 855//;
0163043900999992000072100004+60030-043110FM-12+0019BGPC V0200701N002112200019N0500001N1+00751+00751100051ADDAA199000091GF102991011021008001021041MA1999999099151MD1210071+9999REMSYN066AAXX  21004 04390 32584 20704 10075 20075 39915 40005 52007 81224;EQDQ01  00002PRCP99
0133043900999992000072103004+60030-043110FM-12+0019BGPC V0200401N002610042019N0150001N1+00751+00751100051ADDGF105991051071004501999999MA1999999099151MD1410001+9999REMSYN066AAXX  21034 04390 42465 50405 10075 20075 39915 40005 54000 857//;
0205043900999992000072106004+60030-043110FM-12+0019BGPC V0200301N001512200019N0400001N1+00721+00701100051ADDAA199000091GF101991011001999999071999KA1120M+00931KA2999N+00681MA1999999099151MD1410001+9999REMSYN082AAXX  21064 04390 32982 10303 10072 20070 39915 40005 54000 8107/ 333 10093 20068;EQDQ01  00002PRCP99
0133043900999992000072109004+60030-043110FM-12+0019BGPC V0200301N001512200019N0500001N1+00881+00531100171ADDGF102991021001999999071001MA1999999099271MD1210121+9999REMSYN066AAXX  21094 04390 42984 20303 10088 20053 39927 40017 52012 82070;
0163043900999992000072112004+60030-043110FM-12+0019BGPC V0200901N001512200019N0600001N1+01081+00551100261ADDAA199000091GF101991001001999999001091MA1999999099371MD1210101+9999REMSYN066AAXX  21124 04390 32986 10903 10108 20055 39937 40026 52010 80009;EQDQ01  00002PRCP99
0133043900999992000072115004+60030-043110FM-12+0019BGPC V0200801N002612200019N0500001N1+01031+00311100341ADDGF102991011001999999031041MA1999999099451MD1210081+9999REMSYN066AAXX  21154 04390 42984 20805 10103 20031 39945 40034 52008 81034;
0205043900999992000072118004+60030-043110FM-12+0019BGPC V0200801N004112200019N0500001N1+00831+00591100421ADDAA199000091GF103991001001999999001061KA1120M+01181KA2999N+00691MA1999999099521MD1210071+9999REMSYN082AAXX  21184 04390 32984 30808 10083 20059 39952 40042 52007 80006 333 10118 20069;EQDQ01  00002PRCP99
0133043900999992000072121004+60030-043110FM-12+0019BGPC V0200901N002112200019N0500001N1+00971+00501100541ADDGF102991001001999999001061MA1999999099641MD1210121+9999REMSYN066AAXX  21214 04390 42984 20904 10097 20050 39964 40054 52012 80006;
0163043900999992000072200004+60030-043110FM-12+0019BGPC V0201001N001012200019N0500001N1+00771+00561100631ADDAA199000091GF102991001001999999001061MA1999999099731MD1210091+9999REMSYN066AAXX  22004 04390 32984 21002 10077 20056 39973 40063 52009 80006;EQDQ01  00002PRCP99
0133043900999992000072203004+60030-043110FM-12+0019BGPC V0201001N000512200019N0150001N1+00691+00381100701ADDGF101991001001999999001061MA1999999099791MD1210061+9999REMSYN066AAXX  22034 04390 42965 11001 10069 20038 39979 40070 52006 80006;
0211043900999992000072206004+60030-043110FM-12+0019BGPC V0200501N001512200019N0500001N1+00511+00451100771ADDAA199000091GF101991001001999999001091KA1120M+01001KA2999N+00491MA1999999099861MD1210071+9999REMSYN088AAXX  22064 04390 32984 10503 10051 20045 39986 40077 52007 80009 90000 333 10100 20049;EQDQ01  00002PRCP99
0101043900999992000072209004+60030-043110FM-12+0019BGPC V0200201N001519999999N9999999N1+00751+00651100911ADDMA1999999100001MD1210141+9999REMSYN060AAXX  22094 04390 46/// /0203 10075 20065 30000 40091 52014;
0163043900999992000072212004+60030-043110FM-12+0019BGPC V0200501N002119999999N0600001N1+00911+00671100981ADDAA199000091GF105991051001999999031999MA1999999100081MD1210081+9999REMSYN066AAXX  22124 04390 32986 50504 10091 20067 30008 40098 52008 8503/;EQDQ01  00002PRCP99
0133043900999992000072215004+60030-043110FM-12+0019BGPC V0200901N003612200019N0500001N1+00761+00521101001ADDGF102991021051017501001001MA1999999100091MD1210011+9999REMSYN066AAXX  22154 04390 42784 20907 10076 20052 30009 40100 52001 82500;
0205043900999992000072218004+60030-043110FM-12+0019BGPC V0200901N003112200019N0400001N1+00751+00441101021ADDAA199000091GF101991011001999999031999KA1120M+00981KA2999N+00481MA1999999100111MD1210021+9999REMSYN082AAXX  22184 04390 32982 10906 10075 20044 30011 40102 52002 8103/ 333 10098 20048;EQDQ01  00002PRCP99
0133043900999992000072221004+60030-043110FM-12+0019BGPC V0200901N003112200019N0500001N1+00731+00601101101ADDGF104991021001999999071091MA1999999100191MD1210081+9999REMSYN066AAXX  22214 04390 42984 40906 10073 20060 30019 40110 52008 82079;
0163043900999992000072300004+60030-043110FM-12+0019BGPC V0200601N001512200019N0500001N1+00701+00301101111ADDAA199000091GF101991001001999999001091MA1999999100201MD1210011+9999REMSYN066AAXX  23004 04390 32984 10603 10070 20030 30020 40111 52001 80009;EQDQ01  00002PRCP99
0133043900999992000072303004+60030-043110FM-12+0019BGPC V0203301N002112200019N0150001N1+00611+00341101141ADDGF101991011001999999071999MA1999999100231MD1210031+9999REMSYN066AAXX  23034 04390 42965 13304 10061 20034 30023 40114 52003 8107/;
0205043900999992000072306004+60030-043110FM-12+0019BGPC V0200301N001512200019N0400001N1+00571+00351101111ADDAA199000091GF102991011001999999051091KA1120M+00881KA2999N+00541MA1999999100201MD1710031+9999REMSYN082AAXX  23064 04390 32982 20303 10057 20035 30020 40111 57003 81059 333 10088 20054;EQDQ01  00002PRCP99
0133043900999992000072309004+60030-043110FM-12+0019BGPC V0203001N002112200019N0500001N1+00491+00321101151ADDGF104991041001999999051001MA1999999100231MD1210031+9999REMSYN066AAXX  23094 04390 42984 43004 10049 20032 30023 40115 52003 84050;
0163043900999992000072312004+60030-043110FM-12+0019BGPC V0203001N001519999999N0500001N1+00881+00461101171ADDAA199000091GF107991071001999999031999MA1999999100271MD1210041+9999REMSYN066AAXX  23124 04390 32984 73003 10088 20046 30027 40117 52004 8703/;EQDQ01  00002PRCP99
0173043900999992000072315004+60030-043110FM-12+0019BGPC V0200401N003619999999N0400001N1+01001-00171101191ADDAA199000091GF106991061001999999031999MA1999999100291MD1210021+9999REMSYN076AAXX  23154 04390 32982 60407 10100 21017 30029 40119 52002 8603/ 333 91120;EQDQ01  00002PRCP99
0211043900999992000072318004+60030-043110FM-12+0019BGPC V0201301N004112200019N0500001N1+00751+00311101161ADDAA199000091GF103991031051017501001001KA1120M+01111KA2120N+00471MA1999999100251MD1710041+9999REMSYN088AAXX  23184 04390 32784 31308 10075 20031 30025 40116 57004 83500 333 10111 20047 91120;EQDQ01  00002PRCP99
0133043900999992000072321004+60030-043110FM-12+0019BGPC V0202101N004112200019N0500001N1+00941+00311100841ADDGF101991011001999999071001MA1999999099941MD1710311+9999REMSYN066AAXX  23214 04390 42984 12108 10094 20031 39994 40084 57031 81070;
0163043900999992000072400004+60030-043110FM-12+0019BGPC V0202501N004112200019N0500001N1+00831+00271100671ADDAA199000091GF102991021001999999061999MA1999999099771MD1710171+9999REMSYN066AAXX  24004 04390 32984 22508 10083 20027 39977 40067 57017 8206/;EQDQ01  00002PRCP99
0133043900999992000072403004+60030-043110FM-12+0019BGPC V0202501N005112200019N0300001N1+00681+00281100571ADDGF101991011001999999061001MA1999999099661MD1710111+9999REMSYN066AAXX  24034 04390 42980 12510 10068 20028 39966 40057 57011 81060;
0228043900999992000072406004+60030-043110FM-12+0019BGPC V0202601N007212200019N0400001N1+00751+00311100541ADDAA199000091GF103991031001999999021999KA1120M+01071KA2120N+00571MA1999999099641MD1710021+9999OA149901241REMSYN094AAXX  24064 04390 32982 32614 10075 20031 39964 40054 57002 8302/ 333 10107 20057 91124 91024;EQDQ01  00002PRCP99
0196043900999992000072409004+60030-043110FM-12+0019BGPC V0202801N006710150019N0400001N1+00601+00221100771ADDAA199000091GF108991081001017501021999MA1999999099861MD1210221+9999OA149901851REMSYN088AAXX  24094 04390 32782 82813 10060 20022 39986 40077 52022 8802/ 333 91136 91026 91226;EQDQ01  00002PRCP99
0173043900999992000072412004+60030-043110FM-12+0019BGPC V0202801N008710300019N0400001N1+00691+00271101171ADDAA199000091GF108991011071004501021071MA1999999100261MD1210401+9999REMSYN076AAXX  24124 04390 32482 82817 10069 20027 30026 40117 52040 81727 333 91136;EQDQ01  00002PRCP99
0173043900999992000072415004+60030-043110FM-12+0019BGPC V0202801N007710210019N0400001N1+00901+00361101511ADDAA199000091GF107991071001022501021999MA1999999100601MD1210341+9999REMSYN076AAXX  24154 04390 32882 72815 10090 20036 30060 40151 52034 8702/ 333 91124;EQDQ01  00002PRCP99
0228043900999992000072418004+60030-043110FM-12+0019BGPC V0200301N003612200019N0500001N1+00751+00491101961ADDAA199000091GF103991011001012501021061KA1120M+00991KA2120N+00491MA1999999101041MD1210441+9999OA149901241REMSYN094AAXX  24184 04390 32684 30307 10075 20049 30104 40196 52044 81026 333 10099 20049 91124 91219;EQDQ01  00002PRCP99
0191043900999992000072421004+60030-043110FM-12+0019BGPC V0200401N003610300019N0250001N1+00751+00561102321ADDAA199000091AY121031AY221031GF106991031021008001061999MA1999999101401MD1210361+9999MW1401REMSYN072AAXX  24214 04390 31575 60407 10075 20056 30140 40232 52036 74022 8326/;EQDQ01  00002PRCP99
0163043900999992000072500004+60030-043110FM-12+0019BGPC V0200901N001012200019N0400001N1+00571+00571102611ADDAA199000091GF104991021071004501051999MA1999999101681MD1210281+9999REMSYN066AAXX  25004 04390 32482 40902 10057 20057 30168 40261 52028 8275/;EQDQ01  00002PRCP99
0133043900999992000072503004+60030-043110FM-12+0019BGPC V0200701N001012200019N0200001N1+00541+00541102761ADDGF101991011001999999071001MA1999999101831MD1210151+9999REMSYN066AAXX  25034 04390 42970 10702 10054 20054 30183 40276 52015 81070;
0205043900999992000072506004+60030-043110FM-12+0019BGPC V0201701N001012200019N0500001N1+00521+00521102831ADDAA199000091GF103991001001999999001051KA1120M+00921KA2999N+00451MA1999999101901MD1210071+9999REMSYN082AAXX  25064 04390 32984 31702 10052 20052 30190 40283 52007 80005 333 10092 20045;EQDQ01  00002PRCP99
0163043900999992000072509004+60030-043110FM-12+0019BGPC V0202401N000519999999N0400001N1+00661+00601102971ADDAA199000091GF108991081001999999051999MA1999999102041MD1210141+9999REMSYN066AAXX  25094 04390 32982 82401 10066 20060 30204 40297 52014 8805/;EQDQ01  00002PRCP99
0163043900999992000072512004+60030-043110FM-12+0019BGPC V0200901N002110150019N0400001N1+00671+00591103081ADDAA199000091GF107991071051017501999999MA1999999102151MD1210111+9999REMSYN066AAXX  25124 04390 32782 70904 10067 20059 30215 40308 52011 875//;EQDQ01  00002PRCP99
0163043900999992000072515004+60030-043110FM-12+0019BGPC V0200901N003112200019N0400001N1+00621+00591103131ADDAA199000091GF104991011071004501031999MA1999999102201MD1210051+9999REMSYN066AAXX  25154 04390 32482 40906 10062 20059 30220 40313 52005 8173/;EQDQ01  00002PRCP99
0205043900999992000072518004+60030-043110FM-12+0019BGPC V0201301N003112200019N0500001N1+00771+00551103131ADDAA199000091GF103991031001999999051001KA1120M+00881KA2999N+00481MA1999999102201MD1410001+9999REMSYN082AAXX  25184 04390 32984 31306 10077 20055 30220 40313 54000 83050 333 10088 20048;EQDQ01  00002PRCP99
0191043900999992000072521004+60030-043110FM-12+0019BGPC V0201701N003610210019N0100001N1+00611+00531103091ADDAA199000091AY121031AY211031GF106991061001022501051999MA1999999102161MD1710041+9999MW1401REMSYN072AAXX  25214 04390 31860 61707 10061 20053 30216 40309 57004 74021 8605/;EQDQ01  00002PRCP99
0163043900999992000072600004+60030-043110FM-12+0019BGPC V0202301N00721030001CN0400001N1+00721+00591102981ADDAA199000091GF106991011041012501031999MA1999999102051MD1710111+9999REMSYN066AAXX  26004 04390 32682 62314 10072 20059 30205 40298 57011 8143/;EQDQ01  00002PRCP99
0133043900999992000072603004+60030-043110FM-12+0019BGPC V0202301N006712200019N0300001N1+00761+00601102781ADDGF103991011001999999031061MA1999999101861MD1710191+9999REMSYN066AAXX  26034 04390 42980 32313 10076 20060 30186 40278 57019 81036;
0205043900999992000072606004+60030-043110FM-12+0019BGPC V0202201N004612200019N0500001N1+00731+00641102561ADDAA199000091GF101991011001999999071999KA1120M+00811KA2999N+00601MA1999999101641MD1710221+9999REMSYN082AAXX  26064 04390 32984 12209 10073 20064 30164 40256 57022 8107/ 333 10081 20060;EQDQ01  00002PRCP99
0173043900999992000072609004+60030-043110FM-12+0019BGPC V0200901N001512200019N0400001N1+00681+00571102531ADDAA199000091GF104991011041022501001091MA1999999101611MD1710031+9999REMSYN076AAXX  26094 04390 32882 40903 10068 20057 30161 40253 57003 81409 333 91214;EQDQ01  00002PRCP99
0101043900999992000072612004+60030-043110FM-12+0019BGPC V0200801N002119999999N9999999N1+00811+00551102491ADDMA1999999101571MD1710041+9999REMSYN060AAXX  26124 04390 46/// /0804 10081 20055 30157 40249 57004;
0191043900999992000072615004+60030-043110FM-12+0019BGPC V0201001N002612200019N0400001N1+00751+00531102451ADDAA199000091AY101031AY201031GF101991001001999999001041MA1999999101531MD1710041+9999MW1401REMSYN072AAXX  26154 04390 31982 11005 10075 20053 30153 40245 57004 74000 80004;EQDQ01  00002PRCP99
0205043900999992000072618004+60030-043110FM-12+0019BGPC V0201501N002112200019N0500001N1+01021+00591102321ADDAA199000091GF102991011001999999041091KA1120M+01071KA2999N+00571MA1999999101411MD1710121+9999REMSYN082AAXX  26184 04390 32984 21504 10102 20059 30141 40232 57012 81049 333 10107 20057;EQDQ01  00002PRCP99
0163043900999992000072621004+60030-043110FM-12+0019BGPC V0201001N001019999999N0400001N1+01141+00631102171ADDAA199000091GF105991031001999999031091MA1999999101271MD1710141+9999REMSYN066AAXX  26214 04390 32982 51002 10114 20063 30127 40217 57014 83039;EQDQ01  00002PRCP99
0163043900999992000072700004+60030-043110FM-12+0019BGPC V0201101N000512200019N0400001N1+00911+00481102071ADDAA199000091GF103991021001999999041091MA1999999101161MD1710111+9999REMSYN066AAXX  27004 04390 32982 31101 10091 20048 30116 40207 57011 82049;EQDQ01  00002PRCP99
0133043900999992000072703004+60030-043110FM-12+0019BGPC V0202701N001512200019N0300001N1+00891+00541101951ADDGF102991001001999999001061MA1999999101041MD1710121+9999REMSYN066AAXX  27034 04390 42980 22703 10089 20054 30104 40195 57012 80006;
0205043900999992000072706004+60030-043110FM-12+0019BGPC V0203001N002112200019N0500001N1+00801+00541101871ADDAA199000091GF101991001001999999001061KA1120M+01401KA2999N+00751MA1999999100961MD1710081+9999REMSYN082AAXX  27064 04390 32984 13004 10080 20054 30096 40187 57008 80006 333 10140 20075;EQDQ01  00002PRCP99
0163043900999992000072709004+60030-043110FM-12+0019BGPC V0203001N001512200019N0400001N1+00841+00581101891ADDAA199000091GF102991001001999999001061MA1999999100981MD1210021+9999REMSYN066AAXX  27094 04390 32982 23003 10084 20058 30098 40189 52002 80006;EQDQ01  00002PRCP99
0163043900999992000072712004+60030-043110FM-12+0019BGPC V0200901N001519999999N0600001N1+00871+00731101951ADDAA199000091GF105991001001999999001061MA1999999101041MD1210061+9999REMSYN066AAXX  27124 04390 32986 50903 10087 20073 30104 40195 52006 80006;EQDQ01  00002PRCP99
0163043900999992000072715004+60030-043110FM-12+0019BGPC V0201001N001512200019N0400001N1+01071+00681101991ADDAA199000091GF102991001001999999001041MA1999999101081MD1210041+9999REMSYN066AAXX  27154 04390 32982 21003 10107 20068 30108 40199 52004 80004;EQDQ01  00002PRCP99
0205043900999992000072718004+60030-043110FM-12+0019BGPC V0201201N001019999999N0400001N1+00951+00651101981ADDAA199000091GF107991001001999999001061KA1120M+01171KA2999N+00661MA1999999101071MD1710011+9999REMSYN082AAXX  27184 04390 32982 71202 10095 20065 30107 40198 57001 80006 333 10117 20066;EQDQ01  00002PRCP99
0133043900999992000072721004+60030-043110FM-12+0019BGPC V0209999C000019999999N0500001N1+01061+00701101981ADDGF106991041001999999031061MA1999999101071MD1410001+9999REMSYN066AAXX  27214 04390 42984 60000 10106 20070 30107 40198 54000 84036;
0163043900999992000072800004+60030-043110FM-12+0019BGPC V0202901N002619999999N0500001N1+00841+00551102031ADDAA199000091GF108991041001999999031061MA1999999101121MD1210051+9999REMSYN066AAXX  28004 04390 32984 82905 10084 20055 30112 40203 52005 84036;EQDQ01  00002PRCP99
0133043900999992000072803004+60030-043110FM-12+0019BGPC V0203101N003119999999N0300001N1+00751+00591102061ADDGF108991061001999999071061MA1999999101141MD1210021+9999REMSYN066AAXX  28034 04390 42980 83106 10075 20059 30114 40206 52002 86076;
0205043900999992000072806004+60030-043110FM-12+0019BGPC V0200201N001019999999N0400001N1+00591+00531102151ADDAA199000091GF108991071001999999071061KA1120M+01151KA2999N+00591MA1999999101231MD1210091+9999REMSYN082AAXX  28064 04390 32982 80202 10059 20053 30123 40215 52009 87076 333 10115 20059;EQDQ01  00002PRCP99
0101043900999992000072809004+60030-043110FM-12+0019BGPC V0200401N003119999999N9999999N1+00781+00561102331ADDMA1999999101411MD1210181+9999REMSYN060AAXX  28094 04390 46/// /0406 10078 20056 30141 40233 52018;
0163043900999992000072812004+60030-043110FM-12+0019BGPC V0200301N005119999999N0500001N1+00721+00591102411ADDAA199000091GF107991051001999999031071MA1999999101491MD1210081+9999REMSYN066AAXX  28124 04390 32984 70310 10072 20059 30149 40241 52008 85037;EQDQ01  00002PRCP99
0163043900999992000072815004+60030-043110FM-12+0019BGPC V0200701N003612200019N0400001N1+00751+00611102421ADDAA199000091GF104991041001999999031999MA1999999101501MD1210011+9999REMSYN066AAXX  28154 04390 32982 40707 10075 20061 30150 40242 52001 8403/;EQDQ01  00002PRCP99
0233043900999992000072818004+60030-043110FM-12+0019BGPC V0200701N004610075019N0200001N1+00611+00561102411ADDAA199000091AY121061AY221061GF106991051051008001071061KA1120M+00881KA2999N+00541MA1999999101491MD1710011+9999MW1401REMSYN088AAXX  28184 04390 31570 60709 10061 20056 30149 40241 57001 74022 85576 333 10088 20054;EQDQ01  00002PRCP99
0191043900999992000072821004+60030-043110FM-12+0019BGPC V0200701N002610300019N0200001N1+00541+00541102411ADDAA199000091AY121031AY221031GF108991011011004501051999MA1999999101481MD1710011+9999MW1401REMSYN072AAXX  28214 04390 31470 80705 10054 20054 30148 40241 57001 74022 8115/;EQDQ01  00002PRCP99
0101043900999992000072900004+60030-043110FM-12+0019BGPC V0200401N002619999999N9999999N1+00551+00551102381ADDMA1999999101451MD1710031+9999REMSYN060AAXX  29004 04390 46/// /0405 10055 20055 30145 40238 57003;
0133043900999992000072903004+60030-043110FM-12+0019BGPC V0200601N001510021019N0200001N1+00491+00491102271ADDGF108991081071002501999999MA1999999101341MD1710111+9999REMSYN066AAXX  29034 04390 42370 80603 10049 20049 30134 40227 57011 887//;
0205043900999992000072906004+60030-043110FM-12+0019BGPC V0200901N001010042019N0150001N1+00501+00501102101ADDAA199000091GF108991081071004501999999KA1120M+00611KA2999N+00401MA1999999101181MD1710161+9999REMSYN082AAXX  29064 04390 32465 80902 10050 20050 30118 40210 57016 887// 333 10061 20040;EQDQ01  00002PRCP99
0161043900999992000072909004+60030-043110FM-12+0019BGPC V0200401N001510012019N0010001N1+00471+00451102021ADDAY161031AY221031GF108991081071001501999999MA1999999101091MD1710091+9999MW1001REMSYN072AAXX  29094 04390 41210 80403 10047 20045 30109 40202 57009 70062 887//;
0178043900999992000072912004+60030-043110FM-12+0019BGPC V0200601N000510042019N0100001N1+00601+00601101931ADDAA106003091AY161061AY221061GF108991081021004501999999MA1999999101011MD1710081+9999MW1401REMSYN078AAXX  29124 04390 11460 80601 10060 20060 30101 40193 57008 60031 74062 882//;
0133043900999992000072915004+60030-043110FM-12+0019BGPC V0200901N002110021019N0200001N1+00601+00601101901ADDGF108991081071002501999999MA1999999100981MD1710031+9999REMSYN066AAXX  29154 04390 42370 80904 10060 20060 30098 40190 57003 887//;
0192043900999992000072918004+60030-043110FM-12+0019BGPC V0201101N002110012019N0150001N1+00711+00711101811ADDAA112000191GF107991051071001501081999KA1120M+00751KA2999N+00431MA1999999100891MD1710091+9999REMSYN088AAXX  29184 04390 12265 71104 10071 20071 30089 40181 57009 69912 8578/ 333 10075 20043;
0133043900999992000072921004+60030-043110FM-12+0019BGPC V0200301N000510300019N0500001N1+00771+00711101731ADDGF107991011061004501071999MA1999999100821MD1710071+9999REMSYN066AAXX  29214 04390 42484 70301 10077 20071 30082 40173 57007 8167/;
0163043900999992000073000004+60030-043110FM-12+0019BGPC V0203101N003110042019N0200001N1+00691+00691101751ADDAA199000091GF107991051061004501071999MA1999999100831MD1210011+9999REMSYN066AAXX  30004 04390 32470 73106 10069 20069 30083 40175 52001 8567/;EQDQ01  00002PRCP99
0155043900999992000073003004+60030-043110FM-12+0019BGPC V0201001N001019999999N0005001N1+00511+00511101801ADDAY141031AY241031GF108991999999000751999999MA1999999100881MD1210051+9999MW1471REMSYN066AAXX  30034 04390 41105 81002 10051 20051 30088 40180 52005 74744;
0243043900999992000073006004+60030-043110FM-12+0019BGPC V0201201N002110001519N0001001N1+00301+00301101891ADDAA199000091AY141061AY241061GA1091+999999999GF109991091999999999999999KA1120M+00841KA2999N+00291MA1999999100961MD1210081+9999MW1451REMSYN082AAXX  30064 04390 31/01 91204 10030 20030 30096 40189 52008 74544 333 10084 20029;EQDQ01  00002PRCP99
0101043900999992000073009004+60030-043110FM-12+0019BGPC V0203001N000519999999N9999999N1+00591+00541101971ADDMA1999999101051MD1210091+9999REMSYN060AAXX  30094 04390 46/// /3001 10059 20054 30105 40197 52009;
0163043900999992000073012004+60030-043110FM-12+0019BGPC V0203001N001510021019N0500001N1+00761+00541102011ADDAA199000091GF105991051071002501071061MA1999999101091MD1210041+9999REMSYN066AAXX  30124 04390 32384 53003 10076 20054 30109 40201 52004 85776;EQDQ01  00002PRCP99
0133043900999992000073015004+60030-043110FM-12+0019BGPC V0203001N002112200019N0500001N1+00901+00591102001ADDGF102991011011017501001061MA1999999101091MD1410001+9999REMSYN066AAXX  30154 04390 42784 23004 10090 20059 30109 40200 54000 81106;
0205043900999992000073018004+60030-043110FM-12+0019BGPC V0203201N002112200019N0500001N1+01031+00621102001ADDAA199000091GF101991001001999999001061KA1120M+01041KA2999N+00291MA1999999101091MD1410001+9999REMSYN082AAXX  30184 04390 32984 13204 10103 20062 30109 40200 54000 80006 333 10104 20029;EQDQ01  00002PRCP99
0143043900999992000073021004+60030-043110FM-12+0019BGPC V0203101N001012200019N0500001N1+01081+00591102001ADDGA1001+999999999GF100991001001999999001001MA1999999101091MD1410001+9999REMSYN060AAXX  30214 04390 42984 03102 10108 20059 30109 40200 54000;
0163043900999992000073100004+60030-043110FM-12+0019BGPC V0201301N001512200019N0400001N1+00611+00471102101ADDAA199000091GF101991001001999999001011MA1999999101181MD1210091+9999REMSYN066AAXX  31004 04390 32982 11303 10061 20047 30118 40210 52009 80001;EQDQ01  00002PRCP99
0131043900999992000073103004+60030-043110FM-12+0019BGPC V0200701N000519999999N9999999N1+00611+00521102081ADDAA199000091MA1999999101161MD1710021+9999REMSYN060AAXX  31034 04390 32/// /0701 10061 20052 30116 40208 57002;EQDQ01  00002PRCP99
0205043900999992000073106004+60030-043110FM-12+0019BGPC V0209999C000012200019N0500001N1+00601+00461102011ADDAA199000091GF101991001001999999001061KA1120M+01241KA2999N+00571MA1999999101091MD1710071+9999REMSYN082AAXX  31064 04390 32984 10000 10060 20046 30109 40201 57007 80006 333 10124 20057;EQDQ01  00002PRCP99
0133043900999992000073109004+60030-043110FM-12+0019BGPC V0202901N001012200019N0400001N1+00691+00561102031ADDGF103991001001999999001011MA1999999101111MD1210021+9999REMSYN066AAXX  31094 04390 42982 32902 10069 20056 30111 40203 52002 80001;
0101043900999992000073112004+60030-043110FM-12+0019BGPC V0200301N001519999999N9999999N1+00841+00621102001ADDMA1999999101091MD1710021+9999REMSYN060AAXX  31124 04390 46/// /0303 10084 20062 30109 40200 57002;
0133043900999992000073115004+60030-043110FM-12+0019BGPC V0200501N001019999999N0500001N1+00951+00561101981ADDGF106991001001999999001041MA1999999101071MD1710021+9999REMSYN066AAXX  31154 04390 42984 60502 10095 20056 30107 40198 57002 80004;
0205043900999992000073118004+60030-043110FM-12+0019BGPC V0200901N000512200019N0500001N1+01131+00641101861ADDAA199000091GF104991031001999999031061KA1120M+01151KA2999N+00571MA1999999100961MD1710111+9999REMSYN082AAXX  31184 04390 32984 40901 10113 20064 30096 40186 57011 83036 333 10115 20057;EQDQ01  00002PRCP99
0163043900999992000073121004+60030-043110FM-12+0019BGPC V0200801N000512200019N0400001N1+01441+00761101811ADDAA199000091GF104991031001022501071091MA1999999100921MD1710041+9999REMSYN066AAXX  31214 04390 32882 40801 10144 20076 30092 40181 57004 83079;EQDQ01  00002PRCP99
0163043900999992000080100004+60030-043110FM-12+0019BGPC V0202701N002619999999N0500001N1+01561+00801101781ADDAA199000091GF108991051001999999071061MA1999999100891MD1710031+9999REMSYN066AAXX  01004 04390 32984 82705 10156 20080 30089 40178 57003 85076;EQDQ01  00002PRCP99
0190043900999992000080103004+60030-043110FM-12+0019BGPC V0203001N002110210019N0250001N1+01451+00751101681ADDAA199000091GF107991071001022501071999MA1999999100791MD1710101+9999OA149901131REMSYN082AAXX  01034 04390 32875 73004 10145 20075 30079 40168 57010 8707/ 333 91122 91215;EQDQ01  00002PRCP99
0149043900999992000080106004+60030-043110FM-12+0019BGPC V0202701N005119999999N9999999N1+01641+00741101551ADDKA1120M+01841KA2120N+00961MA1999999100671MD1710121+9999REMSYN082AAXX  01064 04390 46/// /2710 10164 20074 30067 40155 57012 333 10184 20096 91128;
0160043900999992000080109004+60030-043110FM-12+0019BGPC V0202101N001512200019N0500001N1+01651+00811101491ADDGF104991011051017501041999MA1999999100611MD1710061+9999OA149901391REMSYN082AAXX  01094 04390 42784 42103 10165 20081 30061 40149 57006 8154/ 333 91127 91217;
0190043900999992000080112004+60030-043110FM-12+0019BGPC V0202501N005712200019N0600001N1+01621+00811101411ADDAA199000091GF102991011001999999041061MA1999999100531MD1710081+9999OA149901541REMSYN082AAXX  01124 04390 32986 22511 10162 20081 30053 40141 57008 81046 333 91130 91222;EQDQ01  00002PRCP99
0173043900999992000080115004+60030-043110FM-12+0019BGPC V0202901N006212200019N0400001N1+01471+00741101371ADDAA199000091GF102991001001999999001091MA1999999100481MD1710051+9999REMSYN076AAXX  01154 04390 32982 22912 10147 20074 30048 40137 57005 80009 333 91123;EQDQ01  00002PRCP99
0228043900999992000080118004+60030-043110FM-12+0019BGPC V0202101N004112200019N0400001N1+01961+00791101251ADDAA199000091GF104991031001022501041091KA1120M+02031KA2120N+00991MA1999999100381MD1710101+9999OA149901181REMSYN094AAXX  01184 04390 32882 42108 10196 20079 30038 40125 57010 83049 333 10203 20099 91123 91219;EQDQ01  00002PRCP99
0133043900999992000080121004+60030-043110FM-12+0019BGPC V0202301N004612200019N0600001N1+01911+00711101181ADDGF104991011001999999041061MA1999999100311MD1710071+9999REMSYN066AAXX  01214 04390 42986 42309 10191 20071 30031 40118 57007 81046;
0163043900999992000080203004+60030-043110FM-12+0019BGPC V0202701N006212200019N0250001N1+01291+00871101051ADDAA199000091GF102991021001999999041999MA1999999100161MD1710061+9999REMSYN066AAXX  02034 04390 32975 22712 10129 20087 30016 40105 57006 8204/;EQDQ01  00002PRCP99
0211043900999992000080206004+60030-043110FM-12+0019BGPC V0202801N006210021019N0500001N1+00961+00851100971ADDAA199000091GF108991061071002501041061KA1120M+02111KA2120N+00861MA1999999100071MD1710091+9999REMSYN088AAXX  02064 04390 32384 82812 10096 20085 30007 40097 57009 86746 333 10211 20086 91126;EQDQ01  00002PRCP99
0133043900999992000080209004+60030-043110FM-12+0019BGPC V0202401N006219999999N0200001N1+01091+00931100941ADDGF106991061001999999071999MA1999999100041MD1710031+9999REMSYN066AAXX  02094 04390 42970 62412 10109 20093 30004 40094 57003 8607/;
0133043900999992000080215004+60030-043110FM-12+0019BGPC V0202901N005119999999N0150001N1+01051+00691100901ADDGF107991071001999999031999MA1999999100001MD1410001+9999REMSYN066AAXX  02154 04390 42965 72910 10105 20069 30000 40090 54000 8703/;
0211043900999992000080218004+60030-043110FM-12+0019BGPC V0202601N006212200019N0400001N1+01681+00911100851ADDAA199000091GF104991001001999999001091KA1120M+01761KA2120N+00911MA1999999099971MD1710031+9999REMSYN088AAXX  02184 04390 32982 42612 10168 20091 39997 40085 57003 80009 333 10176 20091 91124;EQDQ01  00002PRCP99
0133043900999992000080221004+60030-043110FM-12+0019BGPC V0202701N005719999999N0150001N1+01621+01021100911ADDGF106991061001999999071999MA1999999100031MD1210061+9999REMSYN066AAXX  02214 04390 42965 62711 10162 20102 30003 40091 52006 8607/;
0201043900999992000080300004+60030-043110FM-12+0019BGPC V0202301N007719999999N0150001N1+01531+01041100851ADDAA199000091AY121061AY221061GF108991071001999999041061MA1999999099971MD1710061+9999MW1051REMSYN082AAXX  03004 04390 31965 82315 10153 20104 39997 40085 57006 70522 87046 333 91124;EQDQ01  00002PRCP99
0163043900999992000080303004+60030-043110FM-12+0019BGPC V0202501N007712200019N0250001N1+01231+01081100891ADDAA199000091GF104991041001999999041999MA1999999100001MD1210031+9999REMSYN066AAXX  03034 04390 32975 42515 10123 20108 30000 40089 52003 8404/;EQDQ01  00002PRCP99
0233043900999992000080306004+60030-043110FM-12+0019BGPC V0202401N007719999999N0100001N1+01231+01131100831ADDAA199000091AY121061AY221061GF106991051001999999071071KA1120M+01921KA2999N+01141MA1999999099941MD1710061+9999MW1051REMSYN088AAXX  03064 04390 31960 62415 10123 20113 39994 40083 57006 70522 85077 333 10192 20114;EQDQ01  00002PRCP99
0143043900999992000080309004+60030-043110FM-12+0019BGPC V0202501N008719999999N0500001N1+01211+01061100791ADDGF108991061001999999071071MA1999999099901MD1710041+9999REMSYN076AAXX  03094 04390 42984 82517 10121 20106 39990 40079 57004 86077 333 91124;
0173043900999992000080312004+60030-043110FM-12+0019BGPC V0202601N007719999999N0250001N1+01131+00981100811ADDAA199000091GF108991061001999999071061MA1999999099921MD1210021+9999REMSYN076AAXX  03124 04390 32975 82615 10113 20098 39992 40081 52002 86076 333 91127;EQDQ01  00002PRCP99
0163043900999992000080315004+60030-043110FM-12+0019BGPC V0202401N005710300019N0400001N1+01181+01051100781ADDAA199000091GF108991011061012501071999MA1999999099891MD1710031+9999REMSYN066AAXX  03154 04390 32682 82411 10118 20105 39989 40078 57003 8167/;EQDQ01  00002PRCP99
0226043900999992000080318004+60030-043110FM-12+0019BGPC V0202601N004610300019N0300001N1+01101+01001100661ADDAA112000791AY151061AY221061GF108991011061001501071071KA1120M+01301KA2120N+00991MA1999999099771MD1710121+9999MW1001REMSYN100AAXX  03184 04390 11280 82609 10110 20100 39977 40066 57012 69902 70052 81677 333 10130 20099 91122;
0160043900999992000080321004+60030-043110FM-12+0019BGPC V0202601N004110300019N0400001N1+01101+00971100571ADDGF107991011061012501041091MA1999999099681MD1710091+9999OA149901241REMSYN082AAXX  03214 04390 42682 72608 10110 20097 39968 40057 57009 81649 333 91124 91218;
0190043900999992000080400004+60030-043110FM-12+0019BGPC V0202301N003612200019N0400001N1+01071+00921100551ADDAA199000091GF103991031001999999031999MA1999999099661MD1710021+9999OA149901241REMSYN082AAXX  04004 04390 32982 32307 10107 20092 39966 40055 57002 8303/ 333 91124 91218;EQDQ01  00002PRCP99
0141043900999992000080403004+60030-043110FM-12+0019BGPC V0202701N005119999999N9999999N1+00751+00751100561ADDAA199000091MA1999999099661MD1410001+9999REMSYN070AAXX  04034 04390 32/// /2710 10075 20075 39966 40056 54000 333 91122;EQDQ01  00002PRCP99
0221043900999992000080406004+60030-043110FM-12+0019BGPC V0203001N004112200019N9999999N1+00691+00691100531ADDAA199000091GA1001+999999999GF100991001001999999001001KA1120M+01221KA2120N+00581MA1999999099631MD1710031+9999REMSYN082AAXX  04064 04390 329// 03008 10069 20069 39963 40053 57003 333 10122 20058 91122;EQDQ01  00002PRCP99
0143043900999992000080409004+60030-043110FM-12+0019BGPC V0203001N001512200019N0600001N1+00801+00731100631ADDGA1001+999999999GF100991001001999999001001MA1999999099731MD1210101+9999REMSYN060AAXX  04094 04390 42986 03003 10080 20073 39973 40063 52010;
0101043900999992000080412004+60030-043110FM-12+0019BGPC V0200901N003119999999N9999999N1+00991+00631100751ADDMA1999999099851MD1210121+9999REMSYN060AAXX  04124 04390 46/// /0906 10099 20063 39985 40075 52012;
0159043900999992000080415004+60030-043110FM-12+0019BGPC V0201001N004619999999N9999999N1+00581+00531100871ADDAA199000091AY101031AY201031MA1999999099961MD1210111+9999MW1401REMSYN066AAXX  04154 04390 31/// /1009 10058 20053 39996 40087 52011 74000;EQDQ01  00002PRCP99
0205043900999992000080418004+60030-043110FM-12+0019BGPC V0201001N002612200019N0500001N1+00841+00611100941ADDAA199000091GF102991001001999999001041KA1120M+01211KA2999N+00571MA1999999100041MD1210081+9999REMSYN082AAXX  04184 04390 32984 21005 10084 20061 30004 40094 52008 80004 333 10121 20057;EQDQ01  00002PRCP99
0163043900999992000080421004+60030-043110FM-12+0019BGPC V0200901N002112200019N0400001N1+00841+00581101011ADDAA199000091GF104991021001999999051041MA1999999100111MD1210071+9999REMSYN066AAXX  04214 04390 32982 40904 10084 20058 30011 40101 52007 82054;EQDQ01  00002PRCP99
0163043900999992000080500004+60030-043110FM-12+0019BGPC V0209999C000012200019N0400001N1+00791+00351101111ADDAA199000091GF101991001001999999001011MA1999999100201MD1210091+9999REMSYN066AAXX  05004 04390 32982 10000 10079 20035 30020 40111 52009 80001;EQDQ01  00002PRCP99
0163043900999992000080503004+60030-043110FM-12+0019BGPC V0203201N001012200019N0400001N1+00631+00491101131ADDAA199000091GF101991011001999999041999MA1999999100221MD1210021+9999REMSYN066AAXX  05034 04390 32982 13202 10063 20049 30022 40113 52002 8104/;EQDQ01  00002PRCP99
0143043900999992000080506004+60030-043110FM-12+0019BGPC V0202901N000519999999N9999999N1+00411+00391101111ADDKA1120M+01011KA2999N+00401MA1999999100191MD1710031+9999REMSYN076AAXX  05064 04390 46/// /2901 10041 20039 30019 40111 57003 333 10101 20040;
0161043900999992000080509004+60030-043110FM-12+0019BGPC V0200601N000519999999N0008001N1+00391+00391101191ADDAY141031AY201031GF106991001001999999001061MA1999999100271MD1210081+9999MW1461REMSYN072AAXX  05094 04390 41908 60601 10039 20039 30027 40119 52008 74640 80006;
0163043900999992000080512004+60030-043110FM-12+0019BGPC V0200701N001010150019N0400001N1+00401+00401101291ADDAA199000091GF107991071051017501999999MA1999999100371MD1210101+9999REMSYN066AAXX  05124 04390 32782 70702 10040 20040 30037 40129 52010 875//;EQDQ01  00002PRCP99
0161043900999992000080515004+60030-043110FM-12+0019BGPC V0200901N002119999999N0200001N1+00631+00461101311ADDAY121031AY221031GF107991071001999999051999MA1999999100401MD1210031+9999MW1401REMSYN072AAXX  05154 04390 41970 70904 10063 20046 30040 40131 52003 74022 8705/;
0205043900999992000080518004+60030-043110FM-12+0019BGPC V0200901N003119999999N0500001N1+00501+00481101371ADDAA199000091GF108991081001999999071999KA1120M+00691KA2999N+00231MA1999999100451MD1210051+9999REMSYN082AAXX  05184 04390 32984 80906 10050 20048 30045 40137 52005 8807/ 333 10069 20023;EQDQ01  00002PRCP99
0143043900999992000080521004+60030-043110FM-12+0019BGPC V0200301N004610300019N0300001N1+00691+00641101431ADDGF108991041061004501071999MA1999999100521MD1210071+9999REMSYN076AAXX  05214 04390 42480 80309 10069 20064 30052 40143 52007 8467/ 333 90000;
0190043900999992000080600004+60030-043110FM-12+0019BGPC V0200301N006710300019N0150001N1+00651+00651101461ADDAA199000091GF108991041051008001071999MA1999999100551MD1210031+9999OA149901291REMSYN082AAXX  06004 04390 32565 80313 10065 20065 30055 40146 52003 8457/ 333 91125 91023;EQDQ01  00002PRCP99
0167043900999992000080603004+60030-043110FM-12+0019BGPC V0200301N007719999999N0200001N1+00691+00531101391ADDAA199000091GF106991999999999999999999MA1999999100481MD1710071+9999REMSYN070AAXX  06034 04390 32970 60315 10069 20053 30048 40139 57007 333 91127;EQDQ01  00002PRCP99
0228043900999992000080606004+60030-043110FM-12+0019BGPC V0200301N010810042019N0200001N1+00641+00621101311ADDAA199000091GF108991081071004501999999KA1120M+00731KA2120N+00461MA1999999100401MD1710081+9999OA149901701REMSYN094AAXX  06064 04390 32470 80321 10064 20062 30040 40131 57008 887// 333 10073 20046 91133 91031;EQDQ01  00002PRCP99
0188043900999992000080609004+60030-043110FM-12+0019BGPC V0200301N010310042019N0100001N1+00681+00471101161ADDAY161031AY261031GF108991061071004501021999MA1999999100251MD1710151+9999MW1611OA149902011REMSYN088AAXX  06094 04390 41460 80320 10068 20047 30025 40116 57015 76166 8672/ 333 91139 91031;
0205043900999992000080612004+60030-043110FM-12+0019BGPC V0200201N011310042019N0150001N1+00711+00651101131ADDAA106005191AY161061AY261061GF108991081071004501999999MA1999999100221MD1710031+9999MW1631OA149902011REMSYN094AAXX  06124 04390 11465 80222 10071 20065 30022 40113 57003 60051 76366 887// 333 91139 91036;
0188043900999992000080615004+60030-043110FM-12+0019BGPC V0200301N009310012019N0100001N1+00701+00701101111ADDAY161031AY251031GF108991081071001501999999MA1999999100201MD1710021+9999MW1611OA149901851REMSYN088AAXX  06154 04390 41260 80318 10070 20070 30020 40111 57002 76165 887// 333 91136 91030;
0226043900999992000080618004+60030-043110FM-12+0019BGPC V0200201N008710021019N0040001N1+00691+00691101101ADDAA112005191AY151061AY251061GF108991081061002501999999KA1120M+00801KA2120N+00581MA1999999100191MD1710011+9999MW1501REMSYN100AAXX  06184 04390 11340 80217 10069 20069 30019 40110 57001 60052 75055 886// 333 10080 20058 91136;
0188043900999992000080700004+60030-043110FM-12+0019BGPC V0200301N010310006019N0050001N1+00501+00501101251ADDAA106000391AY161061AY261061GF108991081071000751999999MA1999999100331MD1210131+9999MW1611REMSYN088AAXX  07004 04390 11150 80320 10050 20050 30033 40125 52013 69931 76166 887// 333 91136;
0188043900999992000080703004+60030-043110FM-12+0019BGPC V0200201N004110075019N0100001N1+00501+00501101301ADDAY151031AY251031GF108991081051008001999999MA1999999100381MD1210051+9999MW1511OA149901341REMSYN088AAXX  07034 04390 41560 80208 10050 20050 30038 40130 52005 75155 885// 333 91126 91220;
0166043900999992000080706004+60030-043110FM-12+0019BGPC V0200101N004119999999N9999999N1+00471+99999101321ADDKA1120M+00731KA2120N+00451MA1999999100401MD1210021+9999OA149901341REMSYN088AAXX  07064 04390 46/// /0108 10047 20048 30040 40132 52002 333 10073 20045 91126 91220;
0161043900999992000080709004+60030-043110FM-12+0019BGPC V0203301N003110021019N0300001N1+00591+00541101341ADDAY151031AY221031GF107991071051002501999999MA1999999100421MD1210021+9999MW1601REMSYN072AAXX  07094 04390 41380 73306 10059 20054 30042 40134 52002 76052 875//;
0144043900999992000080712004+60030-043110FM-12+0019BGPC V0203201N004110300019N0500001N1+00661+00551101391ADDAA199000021GF107991031061002501031999MA1999999100481MD1210061+9999REMSYN066AAXX  07124 04390 32384 73208 10066 20055 30048 40139 52006 8363/;
0133043900999992000080715004+60030-043110FM-12+0019BGPC V0200301N00461030001CN0500001N1+00801+00491101291ADDGF106991021051004501071999MA1999999100381MD1710101+9999REMSYN066AAXX  07154 04390 42484 60309 10080 20049 30038 40129 57010 8257/;
0220043900999992000080718004+60030-043110FM-12+0019BGPC V0200801N001510300019N0200001N1+00691+00521101171ADDAA112000791AY161061AY221061GF108991021061002501021999KA1120M+00841KA2999N+00441MA1999999100261MD1710121+9999MW1001REMSYN094AAXX  07184 04390 11370 80803 10069 20052 30026 40117 57012 69902 70062 8262/ 333 10084 20044;
0161043900999992000080721004+60030-043110FM-12+0019BGPC V0201001N001010042019N0150001N1+00591+00561101071ADDAY161031AY221031GF108991071061004501021999MA1999999100161MD1710101+9999MW1501REMSYN072AAXX  07214 04390 41465 81002 10059 20056 30016 40107 57010 75062 8762/;
0178043900999992000080800004+60030-043110FM-12+0019BGPC V0200801N001510006019N0030001N1+00471+00471100921ADDAA106000891AY151061AY221061GF108991081061000751999999MA1999999100001MD1710161+9999MW1531REMSYN078AAXX  08004 04390 11130 80803 10047 20047 30000 40092 57016 69971 75352 886//;
0161043900999992000080803004+60030-043110FM-12+0019BGPC V0200201N001010006019N0020001N1+00501+00501100651ADDAY151031AY251031GF108991081061000751999999MA1999999099741MD1710261+9999MW1551REMSYN072AAXX  08034 04390 41120 80202 10050 20050 39974 40065 57026 75555 886//;
0220043900999992000080806004+60030-043110FM-12+0019BGPC V0201501N001510300019N0005001N1+00511+00511100471ADDAA112003091AY151061AY241061GF107991041061004501031999KA1120M+00751KA2999N+00441MA1999999099561MD1710181+9999MW1441REMSYN094AAXX  08064 04390 11405 71503 10051 20051 39956 40047 57018 60032 74454 8463/ 333 10075 20044;
0161043900999992000080809004+60030-043110FM-12+0019BGPC V0203101N002619999999N0100001N1+00461+00461100331ADDAY151031AY221031GF107991061061999999071999MA1999999099421MD1710141+9999MW1411REMSYN072AAXX  08094 04390 41/60 73105 10046 20046 39942 40033 57014 74152 8667/;
0144043900999992000080812004+60030-043110FM-12+0019BGPC V0202501N004610300019N0300001N1+00741+00531100241ADDAA199000021GF107991031061002501071999MA1999999099341MD1710081+9999REMSYN066AAXX  08124 04390 32380 72509 10074 20053 39934 40024 57008 8367/;
0144043900999992000080815004+60030-043110FM-12+0019BGPC V0202301N004610300019N0400001N1+00881+00481100211ADDAA199000021GF107991021061002501071091MA1999999099311MD1710031+9999REMSYN066AAXX  08154 04390 32382 72309 10088 20048 39931 40021 57003 82679;
0205043900999992000080818004+60030-043110FM-12+0019BGPC V0200601N002612200019N0400001N1+00931+00561100201ADDAA199000091GF104991001001999999001091KA1120M+01111KA2999N+00451MA1999999099311MD1410001+9999REMSYN082AAXX  08184 04390 32982 40605 10093 20056 39931 40020 54000 80009 333 10111 20045;EQDQ01  00002PRCP99
0133043900999992000080821004+60030-043110FM-12+0019BGPC V0201001N003112200019N0500001N1+00801+00591100341ADDGF104991011001999999041011MA1999999099441MD1210131+9999REMSYN066AAXX  08214 04390 42984 41006 10080 20059 39944 40034 52013 81041;
0163043900999992000080900004+60030-043110FM-12+0019BGPC V0202801N001512200019N0200001N1+00741+00521100451ADDAA199000091GF101991011001999999041999MA1999999099551MD1210111+9999REMSYN066AAXX  09004 04390 32970 12803 10074 20052 39955 40045 52011 8104/;EQDQ01  00002PRCP99
0143043900999992000080903004+60030-043110FM-12+0019BGPC V0202501N002612200019N0100001N1+00691+00451100471ADDGA1001+999999999GF100991001001999999001001MA1999999099571MD1210021+9999REMSYN060AAXX  09034 04390 42960 02505 10069 20045 39957 40047 52002;
0173043900999992000080906004+60030-043110FM-12+0019BGPC V0203101N003119999999N9999999N1+00501+00421100511ADDAA199000091KA1120M+00991KA2999N+00461MA1999999099601MD1210031+9999REMSYN076AAXX  09064 04390 32/// /3106 10050 20042 39960 40051 52003 333 10099 20046;EQDQ01  00002PRCP99
0133043900999992000080909004+60030-043110FM-12+0019BGPC V0202201N001010003019N0050001N1+00391+00391100631ADDGF108991081061000251999999MA1999999099711MD1210111+9999REMSYN066AAXX  09094 04390 42050 82202 10039 20039 39971 40063 52011 886//;
0163043900999992000080912004+60030-043110FM-12+0019BGPC V0202801N001010042019N0250001N1+00541+00541100651ADDAA199000091GF108991081061004501999999MA1999999099741MD1210031+9999REMSYN066AAXX  09124 04390 32475 82802 10054 20054 39974 40065 52003 886//;EQDQ01  00002PRCP99
0133043900999992000080915004+60030-043110FM-12+0019BGPC V0200701N001510042019N0400001N1+00611+00521100661ADDGF108991071061004501021999MA1999999099751MD1210011+9999REMSYN066AAXX  09154 04390 42482 80703 10061 20052 39975 40066 52001 8762/;
0205043900999992000080918004+60030-043110FM-12+0019BGPC V0200901N003110300019N0400001N1+00651+00541100691ADDAA199000091GF108991031061004501021999KA1120M+00761KA2999N+00311MA1999999099781MD1210031+9999REMSYN082AAXX  09184 04390 32482 80906 10065 20054 39978 40069 52003 8362/ 333 10076 20031;EQDQ01  00002PRCP99
0133043900999992000080921004+60030-043110FM-12+0019BGPC V0200901N002110042019N0400001N1+00591+00541100691ADDGF108991081061004501999999MA1999999099781MD1410001+9999REMSYN066AAXX  09214 04390 42482 80904 10059 20054 39978 40069 54000 886//;
0163043900999992000081000004+60030-043110FM-12+0019BGPC V0203101N000510042019N0200001N1+00641+00501100721ADDAA199000091GF108991081061004501999999MA1999999099811MD1210031+9999REMSYN066AAXX  10004 04390 32470 83101 10064 20050 39981 40072 52003 886//;EQDQ01  00002PRCP99
0133043900999992000081003004+60030-043110FM-12+0019BGPC V0200301N003110042019N0100001N1+00671+00461100651ADDGF108991081061004501999999MA1999999099741MD1710071+9999REMSYN066AAXX  10034 04390 42460 80306 10067 20046 39974 40065 57007 886//;
0205043900999992000081006004+60030-043110FM-12+0019BGPC V0203201N002110021019N0400001N1+00491+00461100571ADDAA199000091GF108991051061002501031999KA1120M+00691KA2999N+00491MA1999999099661MD1710081+9999REMSYN082AAXX  10064 04390 32382 83204 10049 20046 39966 40057 57008 8563/ 333 10069 20049;EQDQ01  00002PRCP99
0133043900999992000081009004+60030-043110FM-12+0019BGPC V0200201N003610150019N0500001N1+00571+00551100621ADDGF107991071051017501999999MA1999999099711MD1210051+9999REMSYN066AAXX  10094 04390 42784 70207 10057 20055 39971 40062 52005 875//;
0188043900999992000081012004+60030-043110FM-12+0019BGPC V0200101N004110021019N0150001N1+00591+00591100621ADDAA106000791AY151061AY221061GF108991081061002501999999MA1999999099711MD1410001+9999MW1501REMSYN088AAXX  10124 04390 11365 80108 10059 20059 39971 40062 54000 69901 75052 886// 333 91121;
0144043900999992000081015004+60030-043110FM-12+0019BGPC V0200301N007710021019N0400001N1+00641+00451100611ADDAA199000021GF108991081061002501999999MA1999999099701MD1710011+9999REMSYN066AAXX  10154 04390 32382 80315 10064 20045 39970 40061 57001 886//;
0198043900999992000081018004+60030-043110FM-12+0019BGPC V0200301N006210210019N0500001N1+00611+00451100511ADDAA112000791GF108991081001022501021999KA1120M+00831KA2120N+00461MA1999999099601MD1710101+9999REMSYN094AAXX  10184 04390 12884 80312 10061 20045 39960 40051 57010 69902 8802/ 333 10083 20046 91128;
0143043900999992000081021004+60030-043110FM-12+0019BGPC V0203301N004110150019N0400001N1+00731+00441100501ADDGF108991071001017501021061MA1999999099601MD1410001+9999REMSYN076AAXX  10214 04390 42782 83308 10073 20044 39960 40050 54000 87026 333 91120;
0133043900999992000081103004+60030-043110FM-12+0019BGPC V0200101N001512200019N0200001N1+00751+00491100391ADDGF104991041001999999071999MA1999999099491MD1710061+9999REMSYN066AAXX  11034 04390 42970 40103 10075 20049 39949 40039 57006 8407/;
0143043900999992000081106004+60030-043110FM-12+0019BGPC V0203601N001519999999N9999999N1+00781+00421100361ADDKA1120M+00781KA2999N+00531MA1999999099461MD1710031+9999REMSYN076AAXX  11064 04390 46/// /3603 10078 20042 39946 40036 57003 333 10078 20053;
0133043900999992000081109004+60030-043110FM-12+0019BGPC V0203301N001519999999N0500001N1+00841+00461100381ADDGF105991031001999999071041MA1999999099481MD1210021+9999REMSYN066AAXX  11094 04390 42984 53303 10084 20046 39948 40038 52002 83074;
0163043900999992000081112004+60030-043110FM-12+0019BGPC V0203601N003112200019N0500001N1+00991+00421100371ADDAA199000091GF103991031001999999031999MA1999999099481MD1410001+9999REMSYN066AAXX  11124 04390 32984 33606 10099 20042 39948 40037 54000 8303/;EQDQ01  00002PRCP99
0143043900999992000081115004+60030-043110FM-12+0019BGPC V0200601N006212200019N0500001N1+01021+00301100311ADDGF101991001001999999001091MA1999999099421MD1710061+9999REMSYN076AAXX  11154 04390 42984 10612 10102 20030 39942 40031 57006 80009 333 91121;
0211043900999992000081118004+60030-043110FM-12+0019BGPC V0202001N002112200019N0400001N1+01191+00311100221ADDAA199000091GF101991001001999999001061KA1120M+01201KA2120N+00611MA1999999099331MD1710091+9999REMSYN088AAXX  11184 04390 32982 12004 10119 20031 39933 40022 57009 80006 333 10120 20061 91121;EQDQ01  00002PRCP99
0101043900999992000081200004+60030-043110FM-12+0019BGPC V0203301N000519999999N9999999N1+00881+00251100271ADDMA1999999099371MD1210011+9999REMSYN060AAXX  12004 04390 46/// /3301 10088 20025 39937 40027 52001;
0101043900999992000081203004+60030-043110FM-12+0019BGPC V0202801N003119999999N9999999N1+00711+00321100191ADDMA1999999099291MD1710081+9999REMSYN060AAXX  12034 04390 46/// /2806 10071 20032 39929 40019 57008;
0173043900999992000081206004+60030-043110FM-12+0019BGPC V0203001N003119999999N9999999N1+00521+00371100161ADDAA199000091KA1120M+01261KA2999N+00511MA1999999099251MD1710041+9999REMSYN076AAXX  12064 04390 32/// /3006 10052 20037 39925 40016 57004 333 10126 20051;EQDQ01  00002PRCP99
0133043900999992000081209004+60030-043110FM-12+0019BGPC V0203101N002112200019N0500001N1+00591+00471100081ADDGF102991001001999999001091MA1999999099181MD1710071+9999REMSYN066AAXX  12094 04390 42984 23104 10059 20047 39918 40008 57007 80009;
0163043900999992000081212004+60030-043110FM-12+0019BGPC V0203001N000512200019N0500001N1+00821+00531100041ADDAA199000091GF103991011011008001001061MA1999999099141MD1710041+9999REMSYN066AAXX  12124 04390 32584 33001 10082 20053 39914 40004 57004 81106;EQDQ01  00002PRCP99
0163043900999992000081215004+60030-043110FM-12+0019BGPC V0203301N001010750019N0400001N1+00931+00521099971ADDAA199000091GF105991011011008001071041MA1999999099081MD1710061+9999REMSYN066AAXX  12154 04390 32582 53302 10093 20052 39908 49997 57006 81174;EQDQ01  00002PRCP99
0205043900999992000081218004+60030-043110FM-12+0019BGPC V0200801N003619999999N0500001N1+01011+00441099891ADDAA199000091GF106991011001999999061041KA1120M+01151KA2999N+00461MA1999999099001MD1710081+9999REMSYN082AAXX  12184 04390 32984 60807 10101 20044 39900 49989 57008 81064 333 10115 20046;EQDQ01  00002PRCP99
0163043900999992000081221004+60030-043110FM-12+0019BGPC V0201701N002119999999N0500001N1+01051+00441099891ADDAA199000091GF106991021001999999071041MA1999999099001MD1410001+9999REMSYN066AAXX  12214 04390 32984 61704 10105 20044 39900 49989 54000 82074;EQDQ01  00002PRCP99
0163043900999992000081300004+60030-043110FM-12+0019BGPC V0203001N001512200019N0150001N1+00691+00351099901ADDAA199000091GF103991021001999999071041MA1999999099001MD1410001+9999REMSYN066AAXX  13004 04390 32965 33003 10069 20035 39900 49990 54000 82074;EQDQ01  00002PRCP99
0133043900999992000081303004+60030-043110FM-12+0019BGPC V0202901N004612200019N0250001N1+00531+00441099891ADDGF102991021001999999071999MA1999999098991MD1710011+9999REMSYN066AAXX  13034 04390 42975 22909 10053 20044 39899 49989 57001 8207/;
0143043900999992000081306004+60030-043110FM-12+0019BGPC V0203101N002619999999N9999999N1+00511+00431099941ADDKA1120M+01111KA2999N+00481MA1999999099031MD1210041+9999REMSYN076AAXX  13064 04390 46/// /3105 10051 20043 39903 49994 52004 333 10111 20048;
0133043900999992000081309004+60030-043110FM-12+0019BGPC V0203001N002619999999N0500001N1+00541+00451100001ADDGF108991081001999999071999MA1999999099101MD1210071+9999REMSYN066AAXX  13094 04390 42984 83005 10054 20045 39910 40000 52007 8807/;
0178043900999992000081312004+60030-043110FM-12+0019BGPC V0203201N002610210019N0300001N1+00631+00461100131ADDAA106000791AY181061AY221061GF108991081001022501021999MA1999999099231MD1210131+9999MW1601REMSYN078AAXX  13124 04390 11880 83205 10063 20046 39923 40013 52013 69901 76082 8802/;
0143043900999992000081315004+60030-043110FM-12+0019BGPC V0202801N001510150019N0400001N1+00831+00761100281ADDGF108991081001017501021999MA1999999099381MD1210151+9999REMSYN076AAXX  13154 04390 42782 82803 10083 20076 39938 40028 52015 8802/ 333 91119;
0226043900999992000081318004+60030-043110FM-12+0019BGPC V0202901N002110210019N0500001N1+00871+00731100381ADDAA112000791AY161061AY221061GF108991081001022501021999KA1120M+01071KA2120N+00461MA1999999099481MD1210101+9999MW1601REMSYN100AAXX  13184 04390 11884 82904 10087 20073 39948 40038 52010 69902 76062 8802/ 333 10107 20046 91119;
0133043900999992000081321004+60030-043110FM-12+0019BGPC V0203101N001019999999N0500001N1+00881+00601100471ADDGF107991071001999999071999MA1999999099571MD1210091+9999REMSYN066AAXX  13214 04390 42984 73102 10088 20060 39957 40047 52009 8707/;
0144043900999992000081400004+60030-043110FM-12+0019BGPC V0203501N002110042019N0200001N1+00801+00671100791ADDAA199000021GF108991071071004501021999MA1999999099891MD1210321+9999REMSYN066AAXX  14004 04390 32470 83504 10080 20067 39989 40079 52032 8772/;
0133043900999992000081403004+60030-043110FM-12+0019BGPC V0202301N002612200019N0150001N1+00871+00691100731ADDGF101991011001999999021999MA1999999099831MD1710061+9999REMSYN066AAXX  14034 04390 42965 12305 10087 20069 39983 40073 57006 8102/;
0202043900999992000081406004+60030-043110FM-12+0019BGPC V0203001N001012200019N0400001N1+00611+00531100771ADDAA112000791GA1001+999999999GF100991001001999999001001KA1120M+01211KA2999N+00581MA1999999099861MD1210031+9999REMSYN082AAXX  14064 04390 12982 03002 10061 20053 39986 40077 52003 69902 333 10121 20058;
0133043900999992000081409004+60030-043110FM-12+0019BGPC V0200101N002112200019N0400001N1+00761+00631101001ADDGF102991011001022501071091MA1999999100091MD1210231+9999REMSYN066AAXX  14094 04390 42882 20104 10076 20063 30009 40100 52023 81079;
0163043900999992000081412004+60030-043110FM-12+0019BGPC V0203001N003612200019N0400001N1+00761+00541101161ADDAA199000091GF102991021001999999031999MA1999999100251MD1210161+9999REMSYN066AAXX  14124 04390 32982 23007 10076 20054 30025 40116 52016 8203/;EQDQ01  00002PRCP99
0133043900999992000081415004+60030-043110FM-12+0019BGPC V0200301N007212200019N0500001N1+01181+00561101381ADDGF102991021001999999031999MA1999999100481MD1210231+9999REMSYN066AAXX  14154 04390 42984 20314 10118 20056 30048 40138 52023 8203/;
0153043900999992000081421004+60030-043110FM-12+0019BGPC V0200201N006212200019N9999999N1+01081+00401101681ADDGA1001+999999999GF100991001001999999001001MA1999999100781MD1210191+9999REMSYN070AAXX  14214 04390 429// 00212 10108 20040 30078 40168 52019 333 91124;
0178043900999992000081500004+60030-043110FM-12+0019BGPC V0202801N001512200019N0500001N1+01031+00401101751ADDAA199000091GF101991001001999999001061MA1999999100851MD1210071+9999REMSYN081AAXX  15004 04390 32984 12803 10103 20040 30085 40175 52007 80006 333 9112 91216;EQDQ01  00002PRCP99
0143043900999992000081503004+60030-043110FM-12+0019BGPC V0203101N001012200019N0150001N1+00701+00431101751ADDGA1001+999999999GF100991001001999999001001MA1999999100831MD1710021+9999REMSYN060AAXX  15034 04390 42965 03102 10070 20043 30083 40175 57002;
0205043900999992000081506004+60030-043110FM-12+0019BGPC V0202901N003612200019N0300001N1+00721+00461101721ADDAA199000091GF102991001001999999001091KA1120M+01231KA2999N+00611MA1999999100811MD1710021+9999REMSYN082AAXX  15064 04390 32980 22907 10072 20046 30081 40172 57002 80009 333 10123 20061;EQDQ01  00002PRCP99
0101043900999992000081509004+60030-043110FM-12+0019BGPC V0203001N002619999999N9999999N1+00801+00561101741ADDMA1999999100831MD1210021+9999REMSYN060AAXX  15094 04390 46/// /3005 10080 20056 30083 40174 52002;
0163043900999992000081512004+60030-043110FM-12+0019BGPC V0200901N003112200019N0500001N1+00951+00541101801ADDAA199000091GF104991021001999999071051MA1999999100891MD1210061+9999REMSYN066AAXX  15124 04390 32984 40906 10095 20054 30089 40180 52006 82075;EQDQ01  00002PRCP99
0233043900999992000081518004+60030-043110FM-12+0019BGPC V0200901N003110210019N0150001N1+00661+00661101901ADDAA199000091AY121061AY221061GF107991071001022501071999KA1120M+01261KA2999N+00591MA1999999100981MD1210051+9999MW1401REMSYN088AAXX  15184 04390 31865 70906 10066 20066 30098 40190 52005 74022 8707/ 333 10126 20059;EQDQ01  00002PRCP99
0171043900999992000081521004+60030-043110FM-12+0019BGPC V0200801N002610300019N0250001N1+00511+00511102071ADDAY121031AY221031GF107991011021004501071999MA1999999101151MD1210171+9999MW1401REMSYN082AAXX  15214 04390 41475 70805 10051 20051 30115 40207 52017 74022 8127/ 333 90000;
0163043900999992000081600004+60030-043110FM-12+0019BGPC V0200701N001510300019N0200001N1+00551+00521102211ADDAA199000091GF108991011021004501071999MA1999999101291MD1210141+9999REMSYN066AAXX  16004 04390 32470 80703 10055 20052 30129 40221 52014 8127/;EQDQ01  00002PRCP99
0133043900999992000081603004+60030-043110FM-12+0019BGPC V0200301N003110300019N0150001N1+00581+00561102321ADDGF108991021071004501071999MA1999999101401MD1210111+9999REMSYN066AAXX  16034 04390 42465 80306 10058 20056 30140 40232 52011 8277/;
0205043900999992000081606004+60030-043110FM-12+0019BGPC V0200301N001519999999N0200001N1+00601+00601102331ADDAA199000091GF108991081001999999071999KA1120M+00801KA2999N+00501MA1999999101411MD1210011+9999REMSYN082AAXX  16064 04390 32970 80303 10060 20060 30141 40233 52001 8807/ 333 10080 20050;EQDQ01  00002PRCP99
0133043900999992000081609004+60030-043110FM-12+0019BGPC V0200501N001012200019N0400001N1+00551+00551102431ADDGF101991011001999999071999MA1999999101501MD1210091+9999REMSYN066AAXX  16094 04390 42982 10502 10055 20055 30150 40243 52009 8107/;
0163043900999992000081612004+60030-043110FM-12+0019BGPC V0200801N003112200019N0500001N1+00681+00661102521ADDAA199000091GF101991011021004501999999MA1999999101601MD1210101+9999REMSYN066AAXX  16124 04390 32484 10806 10068 20066 30160 40252 52010 812//;EQDQ01  00002PRCP99
0133043900999992000081615004+60030-043110FM-12+0019BGPC V0200801N002612200019N0500001N1+00751+00651102631ADDGF102991001001999999001051MA1999999101711MD1210111+9999REMSYN066AAXX  16154 04390 42984 20805 10075 20065 30171 40263 52011 80005;
0211043900999992000081618004+60030-043110FM-12+0019BGPC V0201501N003612200019N0400001N1+01021+00701102621ADDAA199000091GF102991001001999999001091KA1120M+01021KA2120N+00511MA1999999101711MD1410001+9999REMSYN088AAXX  16184 04390 32982 21507 10102 20070 30171 40262 54000 80009 333 10102 20051 90000;EQDQ01  00002PRCP99
0133043900999992000081621004+60030-043110FM-12+0019BGPC V0201701N001519999999N0500001N1+01011+00601102611ADDGF105991001001999999001061MA1999999101701MD1710011+9999REMSYN066AAXX  16214 04390 42984 51703 10101 20060 30170 40261 57001 80006;
0143043900999992000081703004+60030-043110FM-12+0019BGPC V0202501N004612200019N0150001N1+00841+00581102511ADDGA1001+999999999GF100991001001999999001001MA1999999101591MD1710111+9999REMSYN060AAXX  17034 04390 42965 02509 10084 20058 30159 40251 57011;
0133043900999992000081709004+60030-043110FM-12+0019BGPC V0202301N001512200019N0400001N1+00801+00641102381ADDGF101991011001999999041999MA1999999101461MD1710031+9999REMSYN066AAXX  17094 04390 42982 12303 10080 20064 30146 40238 57003 8104/;
0163043900999992000081712004+60030-043110FM-12+0019BGPC V0203001N004112200019N0500001N1+00721+00561102371ADDAA199000091GF102991001001999999001051MA1999999101451MD1710011+9999REMSYN066AAXX  17124 04390 32984 23008 10072 20056 30145 40237 57001 80005;EQDQ01  00002PRCP99
0133043900999992000081715004+60030-043110FM-12+0019BGPC V0203301N001512200019N0400001N1+01041+00651102351ADDGF101991001001999999001091MA1999999101441MD1710011+9999REMSYN066AAXX  17154 04390 42982 13303 10104 20065 30144 40235 57001 80009;
0205043900999992000081718004+60030-043110FM-12+0019BGPC V0203101N001512200019N0500001N1+01131+00601102261ADDAA199000091GF103991001001999999001041KA1120M+01321KA2999N+00581MA1999999101351MD1710091+9999REMSYN082AAXX  17184 04390 32984 33103 10113 20060 30135 40226 57009 80004 333 10132 20058;EQDQ01  00002PRCP99
0149043900999992000081721004+60030-043110FM-12+0019BGPC V0203001N005112200019N0500001N1+01071+00661102221ADDGF102991001001999999001061MA1999999101311MD1710041+9999REMSYN082AAXX  17214 04390 42984 23010 10107 20066 30131 40222 57004 80006 333 90000 90000;
0163043900999992000081800004+60030-043110FM-12+0019BGPC V0202901N005712200019N0300001N1+00841+00611102221ADDAA199000091GF102991001001999999001061MA1999999101311MD1410001+9999REMSYN066AAXX  18004 04390 32980 22911 10084 20061 30131 40222 54000 80006;EQDQ01  00002PRCP99
0143043900999992000081803004+60030-043110FM-12+0019BGPC V0203001N005712200019N0150001N1+00761+00621102221ADDGA1001+999999999GF100991001001999999001001MA1999999101301MD1710011+9999REMSYN060AAXX  18034 04390 42965 03011 10076 20062 30130 40222 57001;
0215043900999992000081806004+60030-043110FM-12+0019BGPC V0203001N005112200019N0250001N1+00611+00581102211ADDAA199000091GA1001+999999999GF100991001001999999001001KA1120M+01191KA2999N+00581MA1999999101291MD1710011+9999REMSYN076AAXX  18064 04390 32975 03010 10061 20058 30129 40221 57001 333 10119 20058;EQDQ01  00002PRCP99
0133043900999992000081809004+60030-043110FM-12+0019BGPC V0203101N004112200019N0400001N1+00651+00571102261ADDGF104991021001999999051061MA1999999101341MD1210051+9999REMSYN066AAXX  18094 04390 42982 43108 10065 20057 30134 40226 52005 82056;
0163043900999992000081812004+60030-043110FM-12+0019BGPC V0203201N001512200019N0500001N1+00971+00621102331ADDAA199000091GF103991021001999999031091MA1999999101421MD1210081+9999REMSYN066AAXX  18124 04390 32984 33203 10097 20062 30142 40233 52008 82039;EQDQ01  00002PRCP99
0133043900999992000081815004+60030-043110FM-12+0019BGPC V0200801N002112200019N0600001N1+01261+00591102401ADDGF104991021001999999031061MA1999999101501MD1210081+9999REMSYN066AAXX  18154 04390 42986 40804 10126 20059 30150 40240 52008 82036;
0205043900999992000081818004+60030-043110FM-12+0019BGPC V0200901N003119999999N0500001N1+01161+00381102391ADDAA199000091GF107991071001999999071999KA1120M+01401KA2999N+00561MA1999999101481MD1710021+9999REMSYN082AAXX  18184 04390 32984 70906 10116 20038 30148 40239 57002 8707/ 333 10140 20056;EQDQ01  00002PRCP99
0133043900999992000081821004+60030-043110FM-12+0019BGPC V0201201N001510210019N0500001N1+01131+00381102311ADDGF107991071001022501071999MA1999999101401MD1710081+9999REMSYN066AAXX  18214 04390 42884 71203 10113 20038 30140 40231 57008 8707/;
0163043900999992000081900004+60030-043110FM-12+0019BGPC V0202701N002110210019N0200001N1+01031+00581102221ADDAA199000091GF107991071001022501071999MA1999999101311MD1710091+9999REMSYN066AAXX  19004 04390 32870 72704 10103 20058 30131 40222 57009 8707/;EQDQ01  00002PRCP99
0133043900999992000081903004+60030-043110FM-12+0019BGPC V0202501N002619999999N0250001N1+01161+01161102101ADDGF107991071001999999051999MA1999999101201MD1710111+9999REMSYN066AAXX  19034 04390 42975 72505 10116 20116 30120 40210 57011 8705/;
0205043900999992000081906004+60030-043110FM-12+0019BGPC V0202401N002110075019N0200001N1+01061+01061101981ADDAA199000091GF107991061071008001031999KA1120M+01261KA2999N+00941MA1999999101071MD1710131+9999REMSYN082AAXX  19064 04390 32570 72404 10106 20106 30107 40198 57013 8673/ 333 10126 20094;EQDQ01  00002PRCP99
0161043900999992000081909004+60030-043110FM-12+0019BGPC V0203301N000510012019N0150001N1+00851+00851101921ADDAY151031AY221031GF108991081061001501999999MA1999999101011MD1710061+9999MW1401REMSYN072AAXX  19094 04390 41265 83301 10085 20085 30101 40192 57006 74052 886//;
0101043900999992000081912004+60030-043110FM-12+0019BGPC V0201901N002119999999N9999999N1+01031+01031101871ADDMA1999999100961MD1710051+9999REMSYN060AAXX  19124 04390 46/// /1904 10103 20103 30096 40187 57005;
0171043900999992000081915004+60030-043110FM-12+0019BGPC V0200301N001010300019N0100001N1+01151+01081101791ADDAY161031AY221031GF108991031061004501071999MA1999999100891MD1710071+9999MW1601REMSYN082AAXX  19154 04390 41460 80302 10115 20108 30089 40179 57007 76062 8367/ 333 90000;
0198043900999992000081918004+60030-043110FM-12+0019BGPC V0202901N005112200019N0400001N1+01201+01201101721ADDAA112001091GF105991011071001501031091KA1120M+01411KA2120N+00851MA1999999100821MD1710071+9999REMSYN094AAXX  19184 04390 12282 52910 10120 20120 30082 40172 57007 60012 81739 333 10141 20085 90000;
0143043900999992000081921004+60030-043110FM-12+0019BGPC V0202901N002612200019N0500001N1+01411+01291101711ADDGF101991001001999999001041MA1999999100821MD1410001+9999REMSYN076AAXX  19214 04390 42984 12905 10141 20129 30082 40171 54000 80004 333 90000;
0122043900999992000082000004+60030-043110FM-12+0019BGPC V0202701N008719999999N0500001N1+01521+01361101721ADDAA199000021MA1999999100831MD1210011+9999REMSYN070AAXX  20004 04390 32/84 /2717 10152 20136 30083 40172 52001 333 91124;
0153043900999992000082003004+60030-043110FM-12+0019BGPC V0200201N001512200019N9999999N1+01111+00541101911ADDGA1001+999999999GF100991001001999999001001MA1999999101011MD1210181+9999REMSYN070AAXX  20034 04390 429// 00203 10111 20054 30101 40191 52018 333 91219;
0221043900999992000082006004+60030-043110FM-12+0019BGPC V0201101N001512200019N0250001N1+01031+00371101921ADDAA199000091GA1001+999999999GF100991001001999999001001KA1120M+01571KA2120N+00961MA1999999101011MD1410001+9999REMSYN082AAXX  20064 04390 32975 01103 10103 20037 30101 40192 54000 333 10157 20096 91219;EQDQ01  00002PRCP99
0143043900999992000082009004+60030-043110FM-12+0019BGPC V0201301N000512200019N0400001N1+00811+00391101891ADDGF104991021001022501051091MA1999999100981MD1710031+9999REMSYN076AAXX  20094 04390 42882 41301 10081 20039 30098 40189 57003 82059 333 90000;
0163043900999992000082012004+60030-043110FM-12+0019BGPC V0203001N001519999999N0500001N1+00861+00511101891ADDAA199000091GF108991081001999999051999MA1999999100981MD1410001+9999REMSYN066AAXX  20124 04390 32984 83003 10086 20051 30098 40189 54000 8805/;EQDQ01  00002PRCP99
0133043900999992000082021004+60030-043110FM-12+0019BGPC V0203001N006212200019N0500001N1+01201+00981101351ADDGF102991001001999999001051MA1999999100451MD1710191+9999REMSYN066AAXX  20214 04390 42984 23012 10120 20098 30045 40135 57019 80005;
0173043900999992000082100004+60030-043110FM-12+0019BGPC V0202401N004612200019N0200001N1+01431+00881101231ADDAA199000091GF101991001001999999001061MA1999999100341MD1710111+9999REMSYN076AAXX  21004 04390 32970 12409 10143 20088 30034 40123 57011 80006 333 91116;EQDQ01  00002PRCP99
0153043900999992000082103004+60030-043110FM-12+0019BGPC V0202901N008712200019N9999999N1+00981+00681101161ADDGA1001+999999999GF100991001001999999001001MA1999999100261MD1710081+9999REMSYN070AAXX  21034 04390 429// 02917 10098 20068 30026 40116 57008 333 91124;
0238043900999992000082106004+60030-043110FM-12+0019BGPC V0202401N005112200019N0200001N1+01351+00721101091ADDAA199000091GA1001+999999999GF100991001001999999001001KA1120M+01551KA2120N+00981MA1999999100201MD1710061+9999OA149901241REMSYN088AAXX  21064 04390 32970 02410 10135 20072 30020 40109 57006 333 10155 20098 91124 91221;EQDQ01  00002PRCP99
0153043900999992000082109004+60030-043110FM-12+0019BGPC V0202901N006212200019N0500001N1+01191+00631101081ADDGA1001+999999999GF100991001001999999001001MA1999999100191MD1710011+9999REMSYN070AAXX  21094 04390 42984 02912 10119 20063 30019 40108 57001 333 91120;
0173043900999992000082112004+60030-043110FM-12+0019BGPC V0202901N007212200019N0500001N1+01331+00541101071ADDAA199000091GF101991011001999999041999MA1999999100181MD1710011+9999REMSYN076AAXX  21124 04390 32984 12914 10133 20054 30018 40107 57001 8104/ 333 91121;EQDQ01  00002PRCP99
0143043900999992000082115004+60030-043110FM-12+0019BGPC V0202301N004112200019N0400001N1+01711+00651101111ADDGF101991001001999999001091MA1999999100231MD1210051+9999REMSYN076AAXX  21154 04390 42982 12308 10171 20065 30023 40111 52005 80009 333 91122;
0211043900999992000082118004+60030-043110FM-12+0019BGPC V0202401N006212200019N0600001N1+01671+00641101061ADDAA199000091GF103991001001999999001091KA1120M+01771KA2120N+01081MA1999999100181MD1710051+9999REMSYN088AAXX  21184 04390 32986 32412 10167 20064 30018 40106 57005 80009 333 10177 20108 91122;EQDQ01  00002PRCP99
0133043900999992000082121004+60030-043110FM-12+0019BGPC V0202201N005712200019N0400001N1+01561+00681100991ADDGF104991011021008001041091MA1999999100111MD1710071+9999REMSYN066AAXX  21214 04390 42582 42211 10156 20068 30011 40099 57007 81249;
0173043900999992000082200004+60030-043110FM-12+0019BGPC V0202001N002619999999N0400001N1+01291+00771101011ADDAA199000091GF105991011001999999041061MA1999999100121MD1210011+9999REMSYN076AAXX  22004 04390 32982 52005 10129 20077 30012 40101 52001 81046 333 91216;EQDQ01  00002PRCP99
0133043900999992000082203004+60030-043110FM-12+0019BGPC V0203001N002112200019N0200001N1+00961+00851100891ADDGF103991021001999999031071MA1999999099991MD1710131+9999REMSYN066AAXX  22034 04390 42970 33004 10096 20085 39999 40089 57013 82037;
0205043900999992000082206004+60030-043110FM-12+0019BGPC V0202701N003619999999N0150001N1+01031+00931100631ADDAA199000091GF106991051001999999031091KA1120M+01761KA2999N+00811MA1999999099741MD1710251+9999REMSYN082AAXX  22064 04390 32965 62707 10103 20093 39974 40063 57025 85039 333 10176 20081;EQDQ01  00002PRCP99
0133043900999992000082209004+60030-043110FM-12+0019BGPC V0202601N003119999999N0500001N1+01071+00911100481ADDGF106991061001999999071999MA1999999099591MD1710151+9999REMSYN066AAXX  22094 04390 42984 62606 10107 20091 39959 40048 57015 8607/;
0163043900999992000082212004+60030-043110FM-12+0019BGPC V0200301N002619999999N0500001N1+00951+00701100651ADDAA199000091GF107991071001999999071999MA1999999099751MD1210161+9999REMSYN066AAXX  22124 04390 32984 70305 10095 20070 39975 40065 52016 8707/;EQDQ01  00002PRCP99
0133043900999992000082215004+60030-043110FM-12+0019BGPC V0203601N004119999999N0400001N1+00901+00441100831ADDGF108991081001999999021999MA1999999099931MD1210181+9999REMSYN066AAXX  22154 04390 42982 83608 10090 20044 39993 40083 52018 8802/;
0211043900999992000082218004+60030-043110FM-12+0019BGPC V0200301N005110210019N0500001N1+00681+00571100951ADDAA199000091GF107991071001022501021999KA1120M+01131KA2120N+00651MA1999999100041MD1210111+9999REMSYN088AAXX  22184 04390 32884 70310 10068 20057 30004 40095 52011 8702/ 333 10113 20065 91117;EQDQ01  00002PRCP99
0133043900999992000082221004+60030-043110FM-12+0019BGPC V0200301N004619999999N0400001N1+00601+00491100991ADDGF108991081001999999021999MA1999999100081MD1210041+9999REMSYN066AAXX  22214 04390 42982 80309 10060 20049 30008 40099 52004 8802/;
0173043900999992000082300004+60030-043110FM-12+0019BGPC V0200201N006219999999N0400001N1+00541+00511101101ADDAA199000091GF108991081001999999021999MA1999999100191MD1210111+9999REMSYN076AAXX  23004 04390 32982 80212 10054 20051 30019 40110 52011 8802/ 333 91117;EQDQ01  00002PRCP99
0160043900999992000082303004+60030-043110FM-12+0019BGPC V0200301N007219999999N0100001N1+00571+00421101141ADDGF108991081001999999071999MA1999999100231MD1210041+9999OA149901391REMSYN082AAXX  23034 04390 42960 80314 10057 20042 30023 40114 52004 8807/ 333 91127 91025;
0226043900999992000082306004+60030-043110FM-12+0019BGPC V0200301N008710075019N0100001N1+00461+00461101061ADDAA112000591AY161061AY221061GF108991081071008001999999KA1120M+00751KA2120N+00451MA1999999100141MD1710091+9999MW1611REMSYN100AAXX  23064 04390 11560 80317 10046 20046 30014 40106 57009 69942 76162 887// 333 10075 20045 91127;
0171043900999992000082309004+60030-043110FM-12+0019BGPC V0200201N007210300019N0100001N1+00511+00511101001ADDAY161031AY261031GF108991031071004501021999MA1999999100091MD1710051+9999MW1611REMSYN082AAXX  23094 04390 41460 80214 10051 20051 30009 40100 57005 76166 8372/ 333 91128;
0188043900999992000082312004+60030-043110FM-12+0019BGPC V0200301N007210042019N0050001N1+00571+00571100881ADDAA106002091AY161061AY261061GF108991081071004501999999MA1999999099971MD1710121+9999MW1611REMSYN088AAXX  23124 04390 11450 80314 10057 20057 39997 40088 57012 60021 76166 887// 333 91130;
0226043900999992000082318004+60030-043110FM-12+0019BGPC V0200401N006710012019N0100001N1+00541+00541100471ADDAA112008991AY161061AY251061GF108991071071001501021999KA1120M+00671KA2120N+00461MA1999999099561MD1710211+9999MW1611REMSYN100AAXX  23184 04390 11260 80413 10054 20054 39956 40047 57021 60092 76165 8772/ 333 10067 20046 91128;
0188043900999992000082321004+60030-043110FM-12+0019BGPC V0200501N002110300019N0150001N1+00541+00521100351ADDAY151031AY251031GF108991041061001501021999MA1999999099441MD1710121+9999MW1611OA149901341REMSYN088AAXX  23214 04390 41265 80504 10054 20052 39944 40035 57012 76155 8462/ 333 91126 91215;
0205043900999992000082400004+60030-043110FM-12+0019BGPC V0202701N001510300019N0150001N1+00511+00481100291ADDAA106001091AY151061AY221061GF108991021061004501071999MA1999999099381MD1710061+9999MW1001OA149901341REMSYN094AAXX  24004 04390 11465 82703 10051 20048 39938 40029 57006 60011 70052 8267/ 333 91126 91215;
0161043900999992000082403004+60030-043110FM-12+0019BGPC V0202501N002110012019N0040001N1+00681+00651100081ADDAY151031AY221031GF108991051061001501071999MA1999999099181MD1710201+9999MW1001REMSYN072AAXX  24034 04390 41240 82504 10068 20065 39918 40008 57020 70052 8567/;
0204043900999992000082406004+60030-043110FM-12+0019BGPC V0202501N007212200019N0200001N1+00921+00591099751ADDAA112001091GF104991041001999999071999KA1120M+00931KA2120N+00471MA1999999098861MD1710321+9999REMSYN100AAXX  24064 04390 12970 42514 10092 20059 39886 49975 57032 60012 8407/ 333 10093 20047 90000 90000;
0143043900999992000082409004+60030-043110FM-12+0019BGPC V0202801N005719999999N0500001N1+00871+00451099621ADDGF105991051001999999071999MA1999999098731MD1710131+9999REMSYN076AAXX  24094 04390 42984 52811 10087 20045 39873 49962 57013 8507/ 333 91126;
0173043900999992000082412004+60030-043110FM-12+0019BGPC V0203001N00821030001CN0500001N1+00891+00431099551ADDAA199000091GF106991021021008001071999MA1999999098661MD1710071+9999REMSYN076AAXX  24124 04390 32584 63016 10089 20043 39866 49955 57007 8227/ 333 91130;EQDQ01  00002PRCP99
0143043900999992000082415004+60030-043110FM-12+0019BGPC V0203001N009810075019N0400001N1+00881+00401099551ADDGF108991071051008001071999MA1999999098661MD1410001+9999REMSYN076AAXX  24154 04390 42582 83019 10088 20040 39866 49955 54000 8757/ 333 91126;
0211043900999992000082418004+60030-043110FM-12+0019BGPC V0202901N005110300019N0500001N1+01221+00441099361ADDAA199000091GF105991041051008001071061KA1120M+01241KA2120N+00791MA1999999098481MD1710181+9999REMSYN088AAXX  24184 04390 32584 52910 10122 20044 39848 49936 57018 84576 333 10124 20079 91126;EQDQ01  00002PRCP99
0143043900999992000082421004+60030-043110FM-12+0019BGPC V0202801N010812200019N0400001N1+00931+00341099251ADDGF104991011001999999041061MA1999999098361MD1710121+9999REMSYN076AAXX  24214 04390 42982 42821 10093 20034 39836 49925 57012 81046 333 91134;
0190043900999992000082500004+60030-043110FM-12+0019BGPC V0203001N004612200019N0400001N1+00641+00351099491ADDAA199000091GF104991041001999999041999MA1999999098591MD1210231+9999OA149901851REMSYN082AAXX  25004 04390 32982 43009 10064 20035 39859 49949 52023 8404/ 333 91136 91227;EQDQ01  00002PRCP99
0133043900999992000082503004+60030-043110FM-12+0019BGPC V0202701N003612200019N0100001N1+00661+00411099601ADDGF102991021001999999041001MA1999999098701MD1210111+9999REMSYN066AAXX  25034 04390 42960 22707 10066 20041 39870 49960 52011 82040;
0215043900999992000082506004+60030-043110FM-12+0019BGPC V0202501N003112200019N0200001N1+00661+00411099671ADDAA199000091GA1001+999999999GF100991001001999999001001KA1120M+01221KA2999N+00511MA1999999098771MD1210071+9999REMSYN076AAXX  25064 04390 32970 02506 10066 20041 39877 49967 52007 333 10122 20051;EQDQ01  00002PRCP99
0143043900999992000082509004+60030-043110FM-12+0019BGPC V0202901N003612200019N0500001N1+00501+00391099801ADDGA1001+999999999GF100991001001999999001001MA1999999098901MD1210131+9999REMSYN060AAXX  25094 04390 42984 02907 10050 20039 39890 49980 52013;
0173043900999992000082512004+60030-043110FM-12+0019BGPC V0202901N003112200019N0500001N1+00711+00491099901ADDAA199000091GA1001+999999999GF100991001001999999001001MA1999999099001MD1210101+9999REMSYN060AAXX  25124 04390 32984 02906 10071 20049 39900 49990 52010;EQDQ01  00002PRCP99
0133043900999992000082515004+60030-043110FM-12+0019BGPC V0200601N001512200019N0500001N1+01021+00571099971ADDGF103991001001999999001071MA1999999099081MD1210081+9999REMSYN066AAXX  25154 04390 42984 30603 10102 20057 39908 49997 52008 80007;
0211043900999992000082518004+60030-043110FM-12+0019BGPC V0203101N001512200019N0500001N1+00981+00471099991ADDAA199000091GF103991001001999999001071KA1120M+01181KA2120N+00451MA1999999099101MD1210021+9999REMSYN088AAXX  25184 04390 32984 33103 10098 20047 39910 49999 52002 80007 333 10118 20045 90000;EQDQ01  00002PRCP99
0101043900999992000082521004+60030-043110FM-12+0019BGPC V0203101N002619999999N9999999N1+00921+00531100031ADDMA1999999099141MD1210041+9999REMSYN060AAXX  25214 04390 42/// /3105 10092 20053 39914 40003 52004;
0131043900999992000082600004+60030-043110FM-12+0019BGPC V0203001N002619999999N9999999N1+00611+00471100151ADDAA199000091MA1999999099251MD1210111+9999REMSYN060AAXX  26004 04390 32/// /3005 10061 20047 39925 40015 52011;EQDQ01  00002PRCP99
0101043900999992000082603004+60030-043110FM-12+0019BGPC V0203001N002119999999N9999999N1+00531+00471100221ADDMA1999999099311MD1210061+9999REMSYN060AAXX  26034 04390 42/// /3004 10053 20047 39931 40022 52006;
0243043900999992000082606004+60030-043110FM-12+0019BGPC V0201301N001012200019N0003001N1+00201+00201100291ADDAA199000091AY141061AY201061GA1001+999999999GF100991001001999999001001KA1120M+01091KA2999N+00171MA1999999099371MD1210061+9999MW1461REMSYN082AAXX  26064 04390 31903 01302 10020 20020 39937 40029 52006 74640 333 10109 20017;EQDQ01  00002PRCP99
0129043900999992000082609004+60030-043110FM-12+0019BGPC V0201701N002619999999N9999999N1+00151+00151100321ADDAY141031AY201031MA1999999099401MD1210031+9999MW1451REMSYN066AAXX  26094 04390 41/// /1705 10015 20015 39940 40032 52003 74540;
0201043900999992000082612004+60030-043110FM-12+0019BGPC V0203101N002119999999N9999999N1+00291+00291100321ADDAA199000091AY141061AY241061GA1091+999999999GF109991091999999999999999MA1999999099401MD1410001+9999MW1451REMSYN066AAXX  26124 04390 31/// 93104 10029 20029 39940 40032 54000 74544;EQDQ01  00002PRCP99
0129043900999992000082615004+60030-043110FM-12+0019BGPC V0200901N003119999999N9999999N1+00311+00311100381ADDAY141031AY241031MA1999999099461MD1210061+9999MW1401REMSYN066AAXX  26154 04390 41/// /0906 10031 20031 39946 40038 52006 74044;
0201043900999992000082618004+60030-043110FM-12+0019BGPC V0201001N003619999999N9999999N1+00231+00231100471ADDAA199000091AY141061AY241061KA1120M+00511KA2999N+00131MA1999999099551MD1210091+9999MW1441REMSYN082AAXX  26184 04390 31/// /1007 10023 20023 39955 40047 52009 74444 333 10051 20013;EQDQ01  00002PRCP99
0133043900999992000082621004+60030-043110FM-12+0019BGPC V0203601N004612200019N0400001N1+00661+00461100581ADDGF103991011071001501001091MA1999999099671MD1210121+9999REMSYN066AAXX  26214 04390 42282 33609 10066 20046 39967 40058 52012 81709;
0173043900999992000082700004+60030-043110FM-12+0019BGPC V0200301N007210300019N0400001N1+00711+00381100731ADDAA199000091GF107991011061004501071999MA1999999099821MD1210151+9999REMSYN076AAXX  27004 04390 32482 70314 10071 20038 39982 40073 52015 8167/ 333 91125;EQDQ01  00002PRCP99
0128043900999992000082703004+60030-043110FM-12+0019BGPC V0200101N008219999999N9999999N1+00791+00261100791ADDMA1999999099891MD1210071+9999OA149901541REMSYN076AAXX  27034 04390 46/// /0116 10079 20026 39989 40079 52007 333 91130 91026;
0228043900999992000082706004+60030-043110FM-12+0019BGPC V0200301N009819999999N0100001N1+00731-00021100831ADDAA199000091GF108991081001999999021999KA1120M+00921KA2120N+00231MA1999999099921MD1210031+9999OA149901601REMSYN094AAXX  27064 04390 32960 80319 10073 21002 39992 40083 52003 8802/ 333 10092 20023 91131 91029;EQDQ01  00002PRCP99
0160043900999992000082709004+60030-043110FM-12+0019BGPC V0200301N012910210019N0500001N1+00711+00221101021ADDGF108991081001022501021999MA1999999100111MD1210191+9999OA149902161REMSYN082AAXX  27094 04390 42884 80325 10071 20022 30011 40102 52019 8802/ 333 91142 91038;
0190043900999992000082712004+60030-043110FM-12+0019BGPC V0200301N010810075019N0300001N1+00731+00371101201ADDAA199000091GF108991061051008001021999MA1999999100291MD1210181+9999OA149902161REMSYN082AAXX  27124 04390 32580 80321 10073 20037 30029 40120 52018 8652/ 333 91142 91034;EQDQ01  00002PRCP99
0171043900999992000082715004+60030-043110FM-12+0019BGPC V0200301N009810150019N0200001N1+00601+00431101311ADDAY161031AY221031GF108991081001017501021999MA1999999100401MD1210111+9999MW1611REMSYN082AAXX  27154 04390 41770 80319 10060 20043 30040 40131 52011 76162 8802/ 333 91135;
0243043900999992000082718004+60030-043110FM-12+0019BGPC V0200301N008710300019N0400001N1+00601+00401101331ADDAA112000191AY161061AY221061GF108991021071004501021999KA1120M+00801KA2120N+00571MA1999999100421MD1210021+9999MW1001OA149901801REMSYN106AAXX  27184 04390 11482 80317 10060 20040 30042 40133 52002 69922 70062 8272/ 333 10080 20057 91135 91028;
0171043900999992000082721004+60030-043110FM-12+0019BGPC V0200201N008710300019N0250001N1+00561+00391101431ADDAY151031AY221031GF108991011071008001021999MA1999999100511MD1210091+9999MW1001REMSYN082AAXX  27214 04390 41575 80217 10056 20039 30051 40143 52009 70052 8172/ 333 91130;
0188043900999992000082800004+60030-043110FM-12+0019BGPC V0200301N008210150019N0150001N1+00491+00401101481ADDAA106000191AY161061AY251061GF108991081001017501021999MA1999999100561MD1210051+9999MW1611REMSYN088AAXX  28004 04390 11765 80316 10049 20040 30056 40148 52005 69921 76165 8802/ 333 91130;
0171043900999992000082803004+60030-043110FM-12+0019BGPC V0200201N008210042019N0100001N1+00491+00351101431ADDAY161031AY251031GF108991081071004501999999MA1999999100511MD1710051+9999MW1001REMSYN082AAXX  28034 04390 41460 80216 10049 20035 30051 40143 57005 70065 887// 333 91128;
0226043900999992000082806004+60030-043110FM-12+0019BGPC V0200101N008710075019N0020001N1+00441+00411101361ADDAA112002091AY161061AY261061GF108991081021008001999999KA1120M+00651KA2120N+00431MA1999999100441MD1710071+9999MW1611REMSYN100AAXX  28064 04390 11520 80117 10044 20041 30044 40136 57007 60022 76166 882// 333 10065 20043 91128;
0171043900999992000082809004+60030-043110FM-12+0019BGPC V0203401N006210300019N0400001N1+00501+00421101411ADDAY161031AY261031GF108991011071004501021999MA1999999100491MD1210051+9999MW1611REMSYN082AAXX  28094 04390 41482 83412 10050 20042 30049 40141 52005 76166 8172/ 333 91126;
0188043900999992000082812004+60030-043110FM-12+0019BGPC V0200201N004110300019N0400001N1+00521+00491101401ADDAA106006191AY161061AY221061GF108991011071008001021999MA1999999100481MD1710011+9999MW1001REMSYN088AAXX  28124 04390 11582 80208 10052 20049 30048 40140 57001 60061 70062 8172/ 333 91126;
0161043900999992000082815004+60030-043110FM-12+0019BGPC V0200201N004110300019N0400001N1+00541+00511101431ADDAY161031AY221031GF108991021071004501021999MA1999999100511MD1210031+9999MW1601REMSYN072AAXX  28154 04390 41482 80208 10054 20051 30051 40143 52003 76062 8272/;
0220043900999992000082818004+60030-043110FM-12+0019BGPC V0200401N002610300019N0500001N1+00571+00511101401ADDAA112006191AY161061AY221061GF108991011051004501021999KA1120M+00611KA2999N+00391MA1999999100481MD1710031+9999MW1001REMSYN094AAXX  28184 04390 11484 80405 10057 20051 30048 40140 57003 60062 70062 8152/ 333 10061 20039;
0133043900999992000082821004+60030-043110FM-12+0019BGPC V0200201N005110300019N0300001N1+00521+00371101441ADDGF107991031021017501021999MA1999999100521MD1210041+9999REMSYN066AAXX  28214 04390 42780 70210 10052 20037 30052 40144 52004 8322/;
0144043900999992000082900004+60030-043110FM-12+0019BGPC V0200201N004110120019N0200001N1+00541+00431101521ADDAA199000021GF107991071001012501021999MA1999999100601MD1210081+9999REMSYN066AAXX  29004 04390 32670 70208 10054 20043 30060 40152 52008 8702/;
0133043900999992000082903004+60030-043110FM-12+0019BGPC V0203201N001512200019N0250001N1+00501+00421101471ADDGF104991041001999999051999MA1999999100551MD1710051+9999REMSYN066AAXX  29034 04390 42975 43203 10050 20042 30055 40147 57005 8405/;
0205043900999992000082906004+60030-043110FM-12+0019BGPC V0200101N000510150019N0200001N1+00471+00441101481ADDAA199000091GF106991061001017501021999KA1120M+00581KA2999N+00421MA1999999100561MD1210011+9999REMSYN082AAXX  29064 04390 32770 60101 10047 20044 30056 40148 52001 8602/ 333 10058 20042;EQDQ01  00002PRCP99
0143043900999992000082909004+60030-043110FM-12+0019BGPC V0203001N001012200019N0600001N1+00561+00511101601ADDGA1001+999999999GF100991001001999999001001MA1999999100681MD1210121+9999REMSYN060AAXX  29094 04390 42986 03002 10056 20051 30068 40160 52012;
0173043900999992000082912004+60030-043110FM-12+0019BGPC V0203101N000512200019N0500001N1+00841+00601101661ADDAA199000091GA1001+999999999GF100991001001999999001001MA1999999100751MD1210071+9999REMSYN060AAXX  29124 04390 32984 03101 10084 20060 30075 40166 52007;EQDQ01  00002PRCP99
0133043900999992000082915004+60030-043110FM-12+0019BGPC V0201301N002612200019N0050001N1+00841+00531101691ADDGF101991011051004501999999MA1999999100781MD1210031+9999REMSYN066AAXX  29154 04390 42450 11305 10084 20053 30078 40169 52003 815//;
0205043900999992000082918004+60030-043110FM-12+0019BGPC V0203601N000512200019N0500001N1+00911+00561101651ADDAA199000091GF101991001001999999001071KA1120M+01101KA2999N+00411MA1999999100741MD1710041+9999REMSYN082AAXX  29184 04390 32984 13601 10091 20056 30074 40165 57004 80007 333 10110 20041;EQDQ01  00002PRCP99
0133043900999992000082921004+60030-043110FM-12+0019BGPC V0203001N000512200019N0500001N1+00981+00571101651ADDGF103991001001999999001071MA1999999100741MD1410001+9999REMSYN066AAXX  29214 04390 42984 33001 10098 20057 30074 40165 54000 80007;
0163043900999992000083000004+60030-043110FM-12+0019BGPC V0203101N001012200019N0300001N1+00581+00461101691ADDAA199000091GF102991021001999999041999MA1999999100771MD1210031+9999REMSYN066AAXX  30004 04390 32980 23102 10058 20046 30077 40169 52003 8204/;EQDQ01  00002PRCP99
0133043900999992000083003004+60030-043110FM-12+0019BGPC V0202901N002119999999N0250001N1+00521+00521101671ADDGF108991081001999999021999MA1999999100751MD1710021+9999REMSYN066AAXX  30034 04390 42975 82904 10052 20052 30075 40167 57002 8802/;
0163043900999992000083012004+60030-043110FM-12+0019BGPC V0200901N000519999999N0500001N1+00941+00731101891ADDAA199000091GF107991051001999999031051MA1999999100981MD1210101+9999REMSYN066AAXX  30124 04390 32984 70901 10094 20073 30098 40189 52010 85035;EQDQ01  00002PRCP99
0133043900999992000083015004+60030-043110FM-12+0019BGPC V0201301N001519999999N0500001N1+00941+00571101921ADDGF106991001001999999001051MA1999999101011MD1210031+9999REMSYN066AAXX  30154 04390 42984 61303 10094 20057 30101 40192 52003 80005;
0205043900999992000083018004+60030-043110FM-12+0019BGPC V0201201N002112200019N0500001N1+00941+00571101911ADDAA199000091GF104991001001999999001051KA1120M+01151KA2999N+00421MA1999999101001MD1710011+9999REMSYN082AAXX  30184 04390 32984 41204 10094 20057 30100 40191 57001 80005 333 10115 20042;EQDQ01  00002PRCP99
0133043900999992000083021004+60030-043110FM-12+0019BGPC V0201801N001512200019N0500001N1+00621+00501101901ADDGF104991001001999999001071MA1999999100981MD1710021+9999REMSYN066AAXX  30214 04390 42984 41803 10062 20050 30098 40190 57002 80007;
0163043900999992000083100004+60030-043110FM-12+0019BGPC V0201701N003112200019N0200001N1+00321+00321101941ADDAA199000091GF102991001001999999001071MA1999999101011MD1210031+9999REMSYN066AAXX  31004 04390 32970 21706 10032 20032 30101 40194 52003 80007;EQDQ01  00002PRCP99
0161043900999992000083103004+60030-043110FM-12+0019BGPC V0202201N001012200019N0150001N1+00361+00361101931ADDAY101031AY201031GF101991001001999999001061MA1999999101001MD1710011+9999MW1401REMSYN072AAXX  31034 04390 41965 12202 10036 20036 30100 40193 57001 74000 80006;
0201043900999992000083106004+60030-043110FM-12+0019BGPC V0202901N000519999999N9999999N1+00261+00261101781ADDAA199000091AY141061AY241061KA1120M+01001KA2999N+00261MA1999999100851MD1710151+9999MW1471REMSYN082AAXX  31064 04390 31/// /2901 10026 20026 30085 40178 57015 74744 333 10100 20026;EQDQ01  00002PRCP99
0133043900999992000083109004+60030-043110FM-12+0019BGPC V0202101N003110300019N0200001N1+00421+00421101671ADDGF106991021061004501071091MA1999999100751MD1710101+9999REMSYN066AAXX  31094 04390 42470 62106 10042 20042 30075 40167 57010 82679;
0191043900999992000083112004+60030-043110FM-12+0019BGPC V0202301N003612200019N0400001N1+00691+00501101611ADDAA199000091AY101061AY201061GF102991011071002501001091MA1999999100701MD1710051+9999MW1401REMSYN072AAXX  31124 04390 31382 22307 10069 20050 30070 40161 57005 74000 81709;EQDQ01  00002PRCP99
0133043900999992000083115004+60030-043110FM-12+0019BGPC V0201901N002619999999N0500001N1+00911+00561101521ADDGF105991001001999999001061MA1999999100611MD1710091+9999REMSYN066AAXX  31154 04390 42984 51905 10091 20056 30061 40152 57009 80006;
0233043900999992000083118004+60030-043110FM-12+0019BGPC V0201701N005119999999N0300001N1+00831+00521101431ADDAA199000091AY121061AY201061GF106991001001999999001091KA1120M+00991KA2999N+00231MA1999999100521MD1710091+9999MW1401REMSYN088AAXX  31184 04390 31980 61710 10083 20052 30052 40143 57009 74020 80009 333 10099 20023;EQDQ01  00002PRCP99
0133043900999992000083121004+60030-043110FM-12+0019BGPC V0201701N004110750019N0500001N1+00761+00541101401ADDGF106991021021008001001051MA1999999100491MD1710031+9999REMSYN066AAXX  31214 04390 42584 61708 10076 20054 30049 40140 57003 82205;
0163043900999992000090100004+60030-043110FM-12+0019BGPC V0201901N002610075019N0100001N1+00691+00601101391ADDAA199000091GF108991081051008001999999MA1999999100481MD1710011+9999REMSYN066AAXX  01004 04390 32560 81905 10069 20060 30048 40139 57001 885//;EQDQ01  00002PRCP99
0133043900999992000090103004+60030-043110FM-12+0019BGPC V0201901N002110042019N0250001N1+00761+00471101321ADDGF108991081051004501999999MA1999999100411MD1710071+9999REMSYN066AAXX  01034 04390 42475 81904 10076 20047 30041 40132 57007 885//;
0211043900999992000090106004+60030-043110FM-12+0019BGPC V0201101N001010042019N0100001N1+00691+00501101281ADDAA199000091GF108991081051004501999999KA1120M+00921KA2120N+00581MA1999999100371MD1710041+9999REMSYN088AAXX  01064 04390 32460 81102 10069 20050 30037 40128 57004 885// 333 10092 20058 90000;EQDQ01  00002PRCP99
0133043900999992000090109004+60030-043110FM-12+0019BGPC V0203301N001010075019N0250001N1+00631+00441101261ADDGF108991081051008001999999MA1999999100351MD1710021+9999REMSYN066AAXX  01094 04390 42575 83302 10063 20044 30035 40126 57002 885//;
0163043900999992000090112004+60030-043110FM-12+0019BGPC V0200201N005110300019N0300001N1+00611+00491101281ADDAA199000091GF108991041051008001021999MA1999999100371MD1210021+9999REMSYN066AAXX  01124 04390 32580 80210 10061 20049 30037 40128 52002 8452/;EQDQ01  00002PRCP99
0161043900999992000090115004+60030-043110FM-12+0019BGPC V0200201N006710042019N0020001N1+00561+00561101341ADDAY151031AY221031GF108991061061004501021999MA1999999100421MD1210051+9999MW1501REMSYN072AAXX  01154 04390 41420 80213 10056 20056 30042 40134 52005 75052 8662/;
0243043900999992000090118004+60030-043110FM-12+0019BGPC V0200301N009310042019N0050001N1+00541+00511101191ADDAA112000191AY151061AY251061GF108991081061004501999999KA1120M+00701KA2120N+00471MA1999999100271MD1710151+9999MW1501OA149901651REMSYN106AAXX  01184 04390 11450 80318 10054 20051 30027 40119 57015 69922 75055 886// 333 10070 20047 91132 91028;
0188043900999992000090121004+60030-043110FM-12+0019BGPC V0200301N010810042019N0050001N1+00541+00461101101ADDAY151031AY251031GF108991081061004501999999MA1999999100191MD1710081+9999MW1511OA149901961REMSYN088AAXX  01214 04390 41450 80321 10054 20046 30019 40110 57008 75155 886// 333 91138 91038;
0205043900999992000090200004+60030-043110FM-12+0019BGPC V0200201N011810042019N0050001N1+00541+00481100951ADDAA106000391AY151061AY221061GF108991081071004501999999MA1999999100041MD1710151+9999MW1001OA149901961REMSYN094AAXX  02004 04390 11450 80223 10054 20048 30004 40095 57015 69931 70052 887// 333 91138 91035;
0143043900999992000090203004+60030-043110FM-12+0019BGPC V0200201N011810042019N0200001N1+00581+00381100731ADDGF108991081061004501999999MA1999999099821MD1710221+9999REMSYN076AAXX  02034 04390 42470 80223 10058 20038 39982 40073 57022 886// 333 91139;
0243043900999992000090206004+60030-043110FM-12+0019BGPC V0200301N013410042019N0050001N1+00551+00301100511ADDAA112000391AY151061AY221061GF108991081051004501999999KA1120M+00611KA2120N+00491MA1999999099601MD1710221+9999MW1001OA149902261REMSYN106AAXX  02064 04390 11450 80326 10055 20030 39960 40051 57022 69932 70052 885// 333 10061 20049 91144 91038;
0188043900999992000090209004+60030-043110FM-12+0019BGPC V0200201N011810120019N0100001N1+00451+00311100351ADDAY161031AY261031GF108991081001012501021999MA1999999099441MD1710161+9999MW1631OA149902631REMSYN088AAXX  02094 04390 41660 80223 10045 20031 39944 40035 57016 76366 8802/ 333 91151 91039;
0205043900999992000090212004+60030-043110FM-12+0019BGPC V0200301N010310042019N0150001N1+00491+00371100181ADDAA106003091AY151061AY221061GF108991081061004501999999MA1999999099271MD1710171+9999MW1001OA149902631REMSYN094AAXX  02124 04390 11465 80320 10049 20037 39927 40018 57017 60031 70052 886// 333 91151 91232;
0143043900999992000090215004+60030-043110FM-12+0019BGPC V0200201N010310300019N0500001N1+00581+00331100001ADDGF107991041051017501031999MA1999999099101MD1710171+9999REMSYN076AAXX  02154 04390 42784 70220 10058 20033 39910 40000 57017 8453/ 333 91137;
0215043900999992000090218004+60030-043110FM-12+0019BGPC V0200201N010810075019N0600001N1+00581+00331099791ADDAA112003091GF107991051051008001031999KA1120M+00651KA2120N+00411MA1999999098891MD1710211+9999OA149901901REMSYN100AAXX  02184 04390 12586 70221 10058 20033 39889 49979 57021 60032 8553/ 333 10065 20041 91137 91034;
0128043900999992000090221004+60030-043110FM-12+0019BGPC V0200101N005119999999N9999999N1+00621+00501099741ADDMA1999999098841MD1710051+9999OA149901701REMSYN076AAXX  02214 04390 46/// /0110 10062 20050 39884 49974 57005 333 91133 91222;
0205043900999992000090300004+60030-043110FM-12+0019BGPC V0200101N007710042019N0050001N1+00601+00461099641ADDAA106000391AY151061AY221061GF108991081061004501999999MA1999999098741MD1710101+9999MW1501OA149901701REMSYN094AAXX  03004 04390 11450 80115 10060 20046 39874 49964 57010 69931 75052 886// 333 91133 91026;
0171043900999992000090303004+60030-043110FM-12+0019BGPC V0200201N008210042019N0150001N1+00661+00491099421ADDAY151031AY201031GF108991081061004501999999MA1999999098521MD1710221+9999MW1001REMSYN082AAXX  03034 04390 41465 80216 10066 20049 39852 49942 57022 70050 886// 333 91129;
0166043900999992000090306004+60030-043110FM-12+0019BGPC V0203201N001519999999N9999999N1+00531+00531099161ADDKA1120M+00731KA2120N+00471MA1999999098261MD1710261+9999OA149901491REMSYN088AAXX  03064 04390 46/// /3203 10053 20053 39826 49916 57026 333 10073 20047 91129 91219;
0171043900999992000090309004+60030-043110FM-12+0019BGPC V0202901N001510210019N0500001N1+00631+00541098931ADDAY151031AY221031GF108991081001022501021999MA1999999098041MD1710221+9999MW1001REMSYN082AAXX  03094 04390 41884 82903 10063 20054 39804 49893 57022 70052 8802/ 333 90000;
0188043900999992000090312004+60030-043110FM-12+0019BGPC V0203001N002110042019N0400001N1+00621+00531098681ADDAA106001091AY151061AY221061GF108991071061004501021999MA1999999097791MD1710251+9999MW1001REMSYN088AAXX  03124 04390 11482 83004 10062 20053 39779 49868 57025 69991 70052 8762/ 333 90000;
0161043900999992000090315004+60030-043110FM-12+0019BGPC V0203001N003110021019N0100001N1+00641+00581098441ADDAY161031AY261031GF108991081061002501999999MA1999999097551MD1710241+9999MW1631REMSYN072AAXX  03154 04390 41360 83006 10064 20058 39755 49844 57024 76366 886//;
0226043900999992000090318004+60030-043110FM-12+0019BGPC V0202801N002610210019N0500001N1+00641+00611098301ADDAA112004191AY161061AY221061GF108991081001022501021999KA1120M+00881KA2120N+00531MA1999999097411MD1710141+9999MW1001REMSYN100AAXX  03184 04390 11884 82805 10064 20061 39741 49830 57014 60042 70062 8802/ 333 10088 20053 90000;
0171043900999992000090321004+60030-043110FM-12+0019BGPC V0203001N002610210019N0300001N1+00591+00501098291ADDAY161031AY261031GF108991081001022501021999MA1999999097401MD1710011+9999MW1611REMSYN082AAXX  03214 04390 41880 83005 10059 20050 39740 49829 57001 76166 8802/ 333 90000;
0188043900999992000090400004+60030-043110FM-12+0019BGPC V0202701N005110210019N0100001N1+00721+00511098311ADDAA106000591AY161061AY261061GF108991081001022501021999MA1999999097431MD1210031+9999MW1601REMSYN088AAXX  04004 04390 11860 82710 10072 20051 39743 49831 52003 69941 76066 8802/ 333 90000;
0171043900999992000090403004+60030-043110FM-12+0019BGPC V0202801N010319999999N0100001N1+00681+00281098251ADDAY161031AY221031GF108991081001999999021999MA1999999097371MD1710061+9999MW1001REMSYN082AAXX  04034 04390 41960 82820 10068 20028 39737 49825 57006 70062 8802/ 333 91135;
0226043900999992000090406004+60030-043110FM-12+0019BGPC V0202701N008710150019N0250001N1+00661+00171098371ADDAA112000191AY161061AY251061GF108991081001017501021999KA1120M+00781KA2120N+00551MA1999999097481MD1210111+9999MW1621REMSYN100AAXX  04064 04390 11775 82717 10066 20017 39748 49837 52011 69922 76265 8802/ 333 10078 20055 91135;
0143043900999992000090409004+60030-043110FM-12+0019BGPC V0202801N010310021019N0750001N1+00661+00071098531ADDGF108991061061002501021999MA1999999097641MD1210161+9999REMSYN076AAXX  04094 04390 42389 82820 10066 20007 39764 49853 52016 8662/ 333 91129;
0171043900999992000090412004+60030-043110FM-12+0019BGPC V0202401N007710120019N0400001N1+00761+00141098641ADDAA199000021GF108991081001012501021999MA1999999097751MD1210111+9999OA149901491REMSYN082AAXX  04124 04390 32682 82415 10076 20014 39775 49864 52011 8802/ 333 91129 91227;
0143043900999992000090415004+60030-043110FM-12+0019BGPC V0202501N006210300019N0400001N1+00841+00151098611ADDGF108991021021004501021999MA1999999097731MD1710021+9999REMSYN076AAXX  04154 04390 42482 82512 10084 20015 39773 49861 57002 8222/ 333 91126;
0192043900999992000090418004+60030-043110FM-12+0019BGPC V0202801N008710300019N0500001N1+00841+00171098621ADDAA199000021GF107991011021008001021091KA1120M+00921KA2120N+00591MA1999999097741MD1210011+9999REMSYN088AAXX  04184 04390 32584 72817 10084 20017 39774 49862 52001 81229 333 10092 20059 91126;
0133043900999992000090421004+60030-043110FM-12+0019BGPC V0202701N009319999999N0500001N1+00771+00151098731ADDGF107991051001999999041071MA1999999097841MD1210101+9999REMSYN066AAXX  04214 04390 42984 72718 10077 20015 39784 49873 52010 85047;
0190043900999992000090500004+60030-043110FM-12+0019BGPC V0202701N005719999999N0200001N1+00731+00171098901ADDAA199000091GF105991051001999999071999MA1999999098011MD1210171+9999OA149901181REMSYN082AAXX  05004 04390 32970 52711 10073 20017 39801 49890 52017 8507/ 333 91123 91222;EQDQ01  00002PRCP99
0143043900999992000090503004+60030-043110FM-12+0019BGPC V0202901N008219999999N0100001N1+00731+00151099031ADDGF108991081001999999071999MA1999999098141MD1210131+9999REMSYN076AAXX  05034 04390 42960 82916 10073 20015 39814 49903 52013 8807/ 333 91126;
0228043900999992000090506004+60030-043110FM-12+0019BGPC V0200501N000510300019N0150001N1+00531+00441099411ADDAA199000091GF108991031071004501071999KA1120M+00841KA2120N+00531MA1999999098511MD1210371+9999OA149901341REMSYN094AAXX  05064 04390 32465 80501 10053 20044 39851 49941 52037 8377/ 333 10084 20053 91126 91219;EQDQ01  00002PRCP99
0161043900999992000090509004+60030-043110FM-12+0019BGPC V0202501N003110075019N0500001N1+00581+00491099571ADDAY151031AY221031GF108991061051008001021999MA1999999098671MD1210161+9999MW1001REMSYN072AAXX  05094 04390 41584 82506 10058 20049 39867 49957 52016 70052 8652/;
0115043900999992000090512004+60030-043110FM-12+0019BGPC V0202801N005119999999N0150001N1+99999+99999999999ADDGF108991999999022501999999REMSYN077AAXX  05124 04390 11865 82810 1061 20045 39881 49971 52014 69901 76062 8802/;
0161043900999992000090515004+60030-043110FM-12+0019BGPC V0202901N003110300019N0400001N1+00541+00511099931ADDAY151031AY221031GF108991021061004501021999MA1999999099031MD1210221+9999MW1501REMSYN072AAXX  05154 04390 41482 82906 10054 20051 39903 49993 52022 75052 8262/;
0226043900999992000090518004+60030-043110FM-12+0019BGPC V0202801N003110042019N0200001N1+00511+00511100091ADDAA112000591AY161061AY261061GF108991071061004501021999KA1120M+00651KA2120N+00451MA1999999099181MD1210151+9999MW1601REMSYN100AAXX  05184 04390 11470 82806 10051 20051 39918 40009 52015 69962 76066 8762/ 333 10065 20045 90000;
0161043900999992000090521004+60030-043110FM-12+0019BGPC V0203001N002110300019N0100001N1+00421+00421100161ADDAY161031AY261031GF108991041071004501021999MA1999999099251MD1210071+9999MW1611REMSYN072AAXX  05214 04390 41460 83004 10042 20042 39925 40016 52007 76166 8472/;
0188043900999992000090600004+60030-043110FM-12+0019BGPC V0203101N001510042019N0050001N1+00361+00361100131ADDAA106002091AY161061AY261061GF108991081071004501999999MA1999999099221MD1710031+9999MW1611REMSYN088AAXX  06004 04390 11450 83103 10036 20036 39922 40013 57003 60021 76166 887// 333 90000;
0171043900999992000090603004+60030-043110FM-12+0019BGPC V0203601N002110042019N0100001N1+00401+00401099991ADDAY161031AY261031GF108991081071004501999999MA1999999099081MD1710141+9999MW1611REMSYN082AAXX  06034 04390 41460 83604 10040 20040 39908 49999 57014 76166 887// 333 90000;
0226043900999992000090606004+60030-043110FM-12+0019BGPC V0200201N004110042019N0150001N1+00391+00391099761ADDAA112002091AY151061AY251061GF108991081071004501999999KA1120M+00571KA2120N+00341MA1999999098851MD1710231+9999MW1501REMSYN100AAXX  06064 04390 11465 80208 10039 20039 39885 49976 57023 60022 75055 887// 333 10057 20034 91124;
0161043900999992000090609004+60030-043110FM-12+0019BGPC V0200801N002610300019N0500001N1+00381+00381099621ADDAY161031AY221031GF107991021061002501051061MA1999999098711MD1710141+9999MW1001REMSYN072AAXX  06094 04390 41384 70805 10038 20038 39871 49962 57014 70062 82656;
0150043900999992000090612004+60030-043110FM-12+0019BGPC V0203001N000519999999N0500001N1+00631+00541099491ADDAA106000591GF106991041001999999071091MA1999999098591MD1710121+9999REMSYN072AAXX  06124 04390 12984 63001 10063 20054 39859 49949 57012 69951 84079;
0133043900999992000090615004+60030-043110FM-12+0019BGPC V0203501N000519999999N0500001N1+00741+00581099341ADDGF105991051001999999031999MA1999999098451MD1710141+9999REMSYN066AAXX  06154 04390 42984 53501 10074 20058 39845 49934 57014 8503/;
0186043900999992000090618004+60030-043110FM-12+0019BGPC V0202301N002612200019N0500001N1+01041+00361099201ADDAA199000021GF102991011051012501999061KA1120M+01041KA2999N+00371MA1999999098321MD1710131+9999REMSYN082AAXX  06184 04390 32684 22305 10104 20036 39832 49920 57013 815/6 333 10104 20037;
0143043900999992000090621004+60030-043110FM-12+0019BGPC V0202801N004119999999N0400001N1+00991+00291099151ADDGF107991071001999999031999MA1999999098271MD1710051+9999REMSYN076AAXX  06214 04390 42982 72808 10099 20029 39827 49915 57005 8703/ 333 90000;
0183043900999992000090700004+60030-043110FM-12+0019BGPC V0200201N001012200019N0150001N1+00461+00351099301ADDAA199000091GA1001+999999999GF100991001001999999001001MA1999999098401MD1210131+9999REMSYN070AAXX  07004 04390 32965 00202 10046 20035 39840 49930 52013 333 90000;EQDQ01  00002PRCP99
0153043900999992000090703004+60030-043110FM-12+0019BGPC V0203401N003112200019N0250001N1+00401+00251099421ADDGA1001+999999999GF100991001001999999001001MA1999999098521MD1210121+9999REMSYN070AAXX  07034 04390 42975 03406 10040 20025 39852 49942 52012 333 91123;
0196043900999992000090706004+60030-043110FM-12+0019BGPC V0202601N001019999999N9999999N1+00321+00221099501ADDAA199000091KA1120M+01111KA2120N+00321MA1999999098591MD1210071+9999OA149901181REMSYN088AAXX  07064 04390 32/// /2602 10032 20022 39859 49950 52007 333 10111 20032 91123 91214;EQDQ01  00002PRCP99
0133043900999992000090709004+60030-043110FM-12+0019BGPC V0202401N004112200019N0500001N1+00391+00251099531ADDGF103991001001999999001041MA1999999098621MD1210031+9999REMSYN066AAXX  07094 04390 42984 32408 10039 20025 39862 49953 52003 80004;
0173043900999992000090712004+60030-043110FM-12+0019BGPC V0203001N002612200019N0500001N1+00451+00361099581ADDAA199000091GA1001+999999999GF100991001001999999001001MA1999999098681MD1210061+9999REMSYN060AAXX  07124 04390 32984 03005 10045 20036 39868 49958 52006;EQDQ01  00002PRCP99
0133043900999992000090715004+60030-043110FM-12+0019BGPC V0203201N002112200019N0600001N1+00601+00401099611ADDGF103991001001999999001041MA1999999098711MD1210031+9999REMSYN066AAXX  07154 04390 42986 33204 10060 20040 39871 49961 52003 80004;
0205043900999992000090718004+60030-043110FM-12+0019BGPC V0203101N001019999999N0500001N1+00771+00311099681ADDAA199000091GF105991021001999999031081KA1120M+00941KA2999N+00311MA1999999098791MD1210081+9999REMSYN082AAXX  07184 04390 32984 53102 10077 20031 39879 49968 52008 82038 333 10094 20031;EQDQ01  00002PRCP99
0133043900999992000090721004+60030-043110FM-12+0019BGPC V0201201N001012200019N0600001N1+00501+00421099861ADDGF101991011001999999031999MA1999999098961MD1210171+9999REMSYN066AAXX  07214 04390 42986 11202 10050 20042 39896 49986 52017 8103/;
0183043900999992000090800004+60030-043110FM-12+0019BGPC V0203001N001012200019N0200001N1+00411+00351099981ADDAA199000091GA1001+999999999GF100991001001999999001001MA1999999099071MD1210111+9999REMSYN070AAXX  08004 04390 32970 03002 10041 20035 39907 49998 52011 333 90000;EQDQ01  00002PRCP99
0143043900999992000090803004+60030-043110FM-12+0019BGPC V0202901N001512200019N0100001N1+00301+00301099991ADDGA1001+999999999GF100991001001999999001001MA1999999099081MD1210011+9999REMSYN060AAXX  08034 04390 42960 02903 10030 20030 39908 49999 52001;
0173043900999992000090806004+60030-043110FM-12+0019BGPC V0203201N000519999999N9999999N1+00261+00261099951ADDAA199000091KA1120M+00791KA2999N+00251MA1999999099041MD1710041+9999REMSYN076AAXX  08064 04390 32/// /3201 10026 20026 39904 49995 57004 333 10079 20025;EQDQ01  00002PRCP99
0133043900999992000090809004+60030-043110FM-12+0019BGPC V0203001N003112200019N0500001N1+00351+00291099911ADDGF101991001001999999001061MA1999999099001MD1710041+9999REMSYN066AAXX  08094 04390 42984 13006 10035 20029 39900 49991 57004 80006;
0173043900999992000090812004+60030-043110FM-12+0019BGPC V0203001N007712200019N0500001N1+00331+00281099951ADDAA199000091GA1001+999999999GF100991001001999999001001MA1999999099041MD1210041+9999REMSYN060AAXX  08124 04390 32984 03015 10033 20028 39904 49995 52004;EQDQ01  00002PRCP99
0101043900999992000090815004+60030-043110FM-12+0019BGPC V0203001N003119999999N9999999N1+00461+00311100021ADDMA1999999099111MD1210071+9999REMSYN060AAXX  08154 04390 42/// /3006 10046 20031 39911 40002 52007;
0211043900999992000090818004+60030-043110FM-12+0019BGPC V0200901N002112200019N0600001N1+00441+00301100051ADDAA199000091GF101991001001999999001041KA1120M+00581KA2120N+00251MA1999999099141MD1210031+9999REMSYN088AAXX  08184 04390 32986 10904 10044 20030 39914 40005 52003 80004 333 10058 20025 91216;EQDQ01  00002PRCP99
0133043900999992000090821004+60030-043110FM-12+0019BGPC V0209999C000019999999N0500001N1+00691+00361100091ADDGF106991001001999999001071MA1999999099191MD1210051+9999REMSYN066AAXX  08214 04390 42984 60000 10069 20036 39919 40009 52005 80007;
0173043900999992000090900004+60030-043110FM-12+0019BGPC V0202101N001012200019N0200001N1+00421+00331100181ADDAA199000091GF101991001001999999001071MA1999999099271MD1210081+9999REMSYN076AAXX  09004 04390 32970 12102 10042 20033 39927 40018 52008 80007 333 91213;EQDQ01  00002PRCP99
0143043900999992000090903004+60030-043110FM-12+0019BGPC V0201601N001512200019N0200001N1+00191+00191100281ADDGF103991001001999999001071MA1999999099361MD1210091+9999REMSYN076AAXX  09034 04390 42970 31603 10019 20019 39936 40028 52009 80007 333 91117;
0196043900999992000090906004+60030-043110FM-12+0019BGPC V0202201N001019999999N9999999N1+00131+00101100381ADDAA199000091KA1120M+00731KA2120N+00111MA1999999099461MD1210101+9999OA149900881REMSYN088AAXX  09064 04390 32/// /2202 10013 20010 39946 40038 52010 333 10073 20011 91117 91212;EQDQ01  00002PRCP99
0123043900999992000090909004+60030-043110FM-12+0019BGPC V0201501N001519999999N9999999N1+00011+00011100571ADDMA1999999099641MD1210181+9999MW1471REMSYN076AAXX  09094 04390 41/// /1503 10001 20001 39964 40057 52018 747// 333 90000;
0159043900999992000090912004+60030-043110FM-12+0019BGPC V0200801N001519999999N9999999N1+00091+00091100711ADDAA199000091AY141061AY241061MA1999999099781MD1210141+9999MW1471REMSYN066AAXX  09124 04390 31/// /0803 10009 20009 39978 40071 52014 74744;EQDQ01  00002PRCP99
0161043900999992000090915004+60030-043110FM-12+0019BGPC V0201001N002610300019N0400001N1+00191+00191100821ADDAY141031AY221031GF106991011051008001031091MA1999999099901MD1210121+9999MW1401REMSYN072AAXX  09154 04390 41582 61005 10019 20019 39990 40082 52012 74042 81539;
0205043900999992000090918004+60030-043110FM-12+0019BGPC V0200801N003610150019N0400001N1+00481+00201100831ADDAA199000091GF107991071001017501021999KA1120M+00481KA2999N-00021MA1999999099921MD1210021+9999REMSYN082AAXX  09184 04390 32782 70807 10048 20020 39992 40083 52002 8702/ 333 10048 21002;EQDQ01  00002PRCP99
0133043900999992000090921004+60030-043110FM-12+0019BGPC V0200501N003119999999N0500001N1+00491+00211100871ADDGF108991081001999999071999MA1999999099961MD1210041+9999REMSYN066AAXX  09214 04390 42984 80506 10049 20021 39996 40087 52004 8807/;
0178043900999992000091000004+60030-043110FM-12+0019BGPC V0200101N004610210019N0100001N1+00461+00211100911ADDAA106000791AY161061AY221061GF108991081001022501021999MA1999999099991MD1210031+9999MW1601REMSYN078AAXX  10004 04390 11860 80109 10046 20021 39999 40091 52003 69901 76062 8802/;
0171043900999992000091003004+60030-043110FM-12+0019BGPC V0200201N006710150019N0050001N1+00451+00271100841ADDAY161031AY221031GF108991081001017501021999MA1999999099921MD1710071+9999MW1601REMSYN082AAXX  10034 04390 41750 80213 10045 20027 39992 40084 57007 76062 8802/ 333 90000;
0226043900999992000091006004+60030-043110FM-12+0019BGPC V0200301N007210150019N0150001N1+00491+00261100741ADDAA112001091AY161061AY221061GF108991081001017501021999KA1120M+00541KA2120N+00401MA1999999099831MD1710091+9999MW1601REMSYN100AAXX  10064 04390 11765 80314 10049 20026 39983 40074 57009 60012 76062 8802/ 333 10054 20040 91124;
0171043900999992000091009004+60030-043110FM-12+0019BGPC V0200301N008710042019N0150001N1+00461+00191100771ADDAY161031AY261031GF108991061051004501021999MA1999999099861MD1210031+9999MW1611REMSYN082AAXX  10094 04390 41465 80317 10046 20019 39986 40077 52003 76166 8652/ 333 91130;
0188043900999992000091012004+60030-043110FM-12+0019BGPC V0200301N008710300019N0100001N1+00461+00211100841ADDAA106001091AY161061AY261061GF108991021051012501021999MA1999999099931MD1210071+9999MW1601REMSYN088AAXX  10124 04390 11660 80317 10046 20021 39993 40084 52007 60011 76066 8252/ 333 91133;
0143043900999992000091015004+60030-043110FM-12+0019BGPC V0200301N007219999999N0400001N1+00501+00251100841ADDGF107991071001999999071999MA1999999099931MD1410001+9999REMSYN076AAXX  10154 04390 42982 70314 10050 20025 39993 40084 54000 8707/ 333 91127;
0198043900999992000091018004+60030-043110FM-12+0019BGPC V0200301N005719999999N0500001N1+00531+00191100831ADDAA112001091GF106991051001004501071061KA1120M+00581KA2120N+00381MA1999999099921MD1710011+9999REMSYN094AAXX  10184 04390 12484 60311 10053 20019 39992 40083 57001 60012 85076 333 10058 20038 91128;
0143043900999992000091021004+60030-043110FM-12+0019BGPC V0200101N004612200019N0600001N1+00461+00051100921ADDGF101991011001999999031999MA1999999100001MD1210081+9999REMSYN076AAXX  10214 04390 42986 10109 10046 20005 30000 40092 52008 8103/ 333 91122;
0164043900999992000091100004+60030-043110FM-12+0019BGPC V0200301N002612200019N0100001N1+00341-00121100951ADDAA199000021GA1001+999999999GF100991001001999999001001MA1999999100031MD1210031+9999REMSYN070AAXX  11004 04390 32960 00305 10034 21012 30003 40095 52003 333 91122;
0143043900999992000091103004+60030-043110FM-12+0019BGPC V0209999C000012200019N0100001N1+00271-00111100931ADDGA1001+999999999GF100991001001999999001001MA1999999100011MD1710021+9999REMSYN060AAXX  11034 04390 42960 00000 10027 21011 30001 40093 57002;
0215043900999992000091106004+60030-043110FM-12+0019BGPC V0201701N001512200019N0200001N1+00301-00051100861ADDAA199000091GA1001+999999999GF100991001001999999001001KA1120M+00581KA2999N+00221MA1999999099941MD1710071+9999REMSYN076AAXX  11064 04390 32970 01703 10030 21005 39994 40086 57007 333 10058 20022;EQDQ01  00002PRCP99
0133043900999992000091109004+60030-043110FM-12+0019BGPC V0201201N001012200019N0400001N1+00281+00261100781ADDGF104991001001999999001061MA1999999099861MD1710081+9999REMSYN066AAXX  11094 04390 42982 41202 10028 20026 39986 40078 57008 80006;
0163043900999992000091112004+60030-043110FM-12+0019BGPC V0202701N000510300019N0200001N1+00421+00421100611ADDAA199000091GF107991031061002501071999MA1999999099701MD1710161+9999REMSYN066AAXX  11124 04390 32370 72701 10042 20042 39970 40061 57016 8367/;EQDQ01  00002PRCP99
0133043900999992000091115004+60030-043110FM-12+0019BGPC V0202301N002119999999N0400001N1+00581+00441100371ADDGF107991071001999999011999MA1999999099461MD1710241+9999REMSYN066AAXX  11154 04390 42982 72304 10058 20044 39946 40037 57024 8701/;
0205043900999992000091118004+60030-043110FM-12+0019BGPC V0202501N007219999999N0400001N1+00881+00161100191ADDAA199000091GF108991081001999999011999KA1120M+00931KA2999N+00161MA1999999099291MD1710171+9999REMSYN082AAXX  11184 04390 32982 82514 10088 20016 39929 40019 57017 8801/ 333 10093 20016;EQDQ01  00002PRCP99
0143043900999992000091121004+60030-043110FM-12+0019BGPC V0202301N008219999999N0500001N1+00791+00101100051ADDGF107991071001999999071999MA1999999099151MD1710141+9999REMSYN076AAXX  11214 04390 42984 72316 10079 20010 39915 40005 57014 8707/ 333 91121;
0173043900999992000091200004+60030-043110FM-12+0019BGPC V0202801N011819999999N0100001N1+00841+00101099861ADDAA199000091GF108991061001999999071061MA1999999098971MD1710181+9999REMSYN076AAXX  12004 04390 32960 82823 10084 20010 39897 49986 57018 86076 333 91121;EQDQ01  00002PRCP99
0160043900999992000091203004+60030-043110FM-12+0019BGPC V0202501N005110210019N0100001N1+00751+00151099781ADDGF108991081001022501021999MA1999999098881MD1710091+9999OA149900721REMSYN082AAXX  12034 04390 42860 82510 10075 20015 39888 49978 57009 8802/ 333 91114 91223;
0228043900999992000091206004+60030-043110FM-12+0019BGPC V0202401N003119999999N0100001N1+00741+00321099561ADDAA199000091GF108991081001999999011999KA1120M+00881KA2120N+00651MA1999999098671MD1710211+9999OA149900721REMSYN094AAXX  12064 04390 32960 82406 10074 20032 39867 49956 57021 8801/ 333 10088 20065 91114 91223;EQDQ01  00002PRCP99
0133043900999992000091209004+60030-043110FM-12+0019BGPC V0202701N001019999999N0400001N1+00451+00331099371ADDGF107991071001999999031999MA1999999098471MD1710201+9999REMSYN066AAXX  12094 04390 42982 72702 10045 20033 39847 49937 57020 8703/;
0173043900999992000091212004+60030-043110FM-12+0019BGPC V0203601N000512200019N0400001N1+00951+00691099211ADDAA199000091GF103991011021012501041091MA1999999098331MD1710141+9999REMSYN076AAXX  12124 04390 32682 33601 10095 20069 39833 49921 57014 81249 333 90000;EQDQ01  00002PRCP99
0143043900999992000091215004+60030-043110FM-12+0019BGPC V0200901N002612200019N0500001N1+00691+00431099271ADDGA1001+999999999GF100991001001999999001001MA1999999098381MD1210051+9999REMSYN060AAXX  12154 04390 42984 00905 10069 20043 39838 49927 52005;
0205043900999992000091218004+60030-043110FM-12+0019BGPC V0201301N002112200019N0500001N1+00681+00261099421ADDAA199000091GF103991001001999999001041KA1120M+01131KA2999N+00421MA1999999098531MD1210151+9999REMSYN082AAXX  12184 04390 32984 31304 10068 20026 39853 49942 52015 80004 333 10113 20042;EQDQ01  00002PRCP99
0143043900999992000091221004+60030-043110FM-12+0019BGPC V0201001N001512200019N9999999N1+00661+00211099601ADDGA1001+999999999GF100991001001999999001001MA1999999098701MD1210171+9999REMSYN060AAXX  12214 04390 429// 01003 10066 20021 39870 49960 52017;
0173043900999992000091300004+60030-043110FM-12+0019BGPC V0202901N001512200019N9999999N1+00671+00351099861ADDAA199000091GA1001+999999999GF100991001001999999001001MA1999999098961MD1210261+9999REMSYN060AAXX  13004 04390 329// 02903 10067 20035 39896 49986 52026;EQDQ01  00002PRCP99
0133043900999992000091303004+60030-043110FM-12+0019BGPC V0201301N001019999999N0200001N1+00591+00301100101ADDGF105991051001999999031999MA1999999099201MD1210241+9999REMSYN066AAXX  13034 04390 42970 51302 10059 20030 39920 40010 52024 8503/;
0205043900999992000091306004+60030-043110FM-12+0019BGPC V0200101N001512200019N0200001N1+00571+00451100311ADDAA199000091GF104991041001999999011999KA1120M+00771KA2999N+00431MA1999999099401MD1210201+9999REMSYN082AAXX  13064 04390 32970 40103 10057 20045 39940 40031 52020 8401/ 333 10077 20043;EQDQ01  00002PRCP99
0111043900999992000091309004+60030-043110FM-12+0019BGPC V0200301N002119999999N9999999N1+00491+00201100481ADDMA1999999099571MD1210171+9999REMSYN070AAXX  13094 04390 46/// /0304 10049 20020 39957 40048 52017 333 90000;
0179043900999992000091312004+60030-043110FM-12+0019BGPC V0200201N003119999999N0500001N1+00511+00511100531ADDAA199000091GF108991081001999999031999MA1999999099621MD1210051+9999REMSYN082AAXX  13124 04390 32984 80206 10051 20051 39962 40053 52005 8803/ 333 90000 90000;EQDQ01  00002PRCP99
0133043900999992000091315004+60030-043110FM-12+0019BGPC V0200301N004610210019N0400001N1+00571+00491100511ADDGF108991081001022501051999MA1999999099601MD1710021+9999REMSYN066AAXX  13154 04390 42882 80309 10057 20049 39960 40051 57002 8805/;
0232043900999992000091318004+60030-043110FM-12+0019BGPC V0200301N005710012019N0050001N1+00391+00391100311ADDAA112000791AY151061AY251061GF108991081061001501999999KA1120M+00651KA2120N+00351MA1999999099401MD1710201+9999MW1531REMSYN106AAXX  13184 04390 11250 80311 10039 20039 39940 40031 57020 69902 75355 886// 333 10065 20035 90000 90000;
0171043900999992000091321004+60030-043110FM-12+0019BGPC V0200401N002110012019N0050001N1+00441+00441100171ADDAY151031AY251031GF108991081061001501999999MA1999999099261MD1710141+9999MW1531REMSYN082AAXX  13214 04390 41250 80404 10044 20044 39926 40017 57014 75355 886// 333 91119;
0188043900999992000091400004+60030-043110FM-12+0019BGPC V0200901N001010003019N0020001N1+00371+00371099911ADDAA106001091AY151061AY251061GF108991081061000251999999MA1999999099001MD1710261+9999MW1511REMSYN088AAXX  14004 04390 11020 80902 10037 20037 39900 49991 57026 60011 75155 886// 333 91119;
0161043900999992000091403004+60030-043110FM-12+0019BGPC V0200901N002110003019N0003001N1+00341+00341099901ADDAY151031AY251031GF108991081061000251999999MA1999999098991MD1710011+9999MW1511REMSYN072AAXX  14034 04390 41003 80904 10034 20034 39899 49990 57001 75155 886//;
0220043900999992000091406004+60030-043110FM-12+0019BGPC V0201801N001010042019N0050001N1+00391+00391099901ADDAA112003091AY151061AY221061GF108991081061004501999999KA1120M+00461KA2999N+00281MA1999999098991MD1410001+9999MW1001REMSYN094AAXX  14064 04390 11450 81802 10039 20039 39899 49990 54000 60032 70052 886// 333 10046 20028;
0161043900999992000091409004+60030-043110FM-12+0019BGPC V0201701N004610012019N0400001N1+00411+00411099991ADDAY151031AY221031GF108991081061001501999999MA1999999099081MD1210091+9999MW1001REMSYN072AAXX  14094 04390 41282 81709 10041 20041 39908 49999 52009 70052 886//;
0160043900999992000091412004+60030-043110FM-12+0019BGPC V0200601N001010006019N0020001N1+00381+00381100141ADDAA199000021GF108991081061000751999999MA1999999099231MD1210151+9999REMSYN082AAXX  14124 04390 32120 80602 10038 20038 39923 40014 52015 886// 333 90000 90000;
0149043900999992000091415004+60030-043110FM-12+0019BGPC V0200901N003110006019N0020001N1+00381+00381100331ADDGF108991081061000751999999MA1999999099421MD1210191+9999REMSYN082AAXX  14154 04390 42120 80906 10038 20038 39942 40033 52019 886// 333 90000 90000;
0217043900999992000091418004+60030-043110FM-12+0019BGPC V0200801N001510012019N0400001N1+00471+00471100401ADDAA199000091GF107991071061001501999999KA1120M+00471KA2120N+00291MA1999999099491MD1210071+9999REMSYN094AAXX  14184 04390 32282 70803 10047 20047 39949 40040 52007 876// 333 10047 20029 90000 90000;EQDQ01  00002PRCP99
0129043900999992000091421004+60030-043110FM-12+0019BGPC V0201601N002119999999N9999999N1+00391+00391100361ADDAY141031AY241031MA1999999099451MD1710041+9999MW1411REMSYN066AAXX  14214 04390 41/// /1604 10039 20039 39945 40036 57004 74144;
0183043900999992000091500004+60030-043110FM-12+0019BGPC V0202501N004612200019N9999999N1+01041+00241100231ADDAA199000091GA1001+999999999GF100991001001999999001001MA1999999099341MD1710111+9999REMSYN070AAXX  15004 04390 329// 02509 10104 20024 39934 40023 57011 333 90000;EQDQ01  00002PRCP99
0143043900999992000091503004+60030-043110FM-12+0019BGPC V0202801N006212200019N0200001N1+01101+00251100151ADDGF101991011001999999031999MA1999999099261MD1710081+9999REMSYN076AAXX  15034 04390 42970 12812 10110 20025 39926 40015 57008 8103/ 333 91125;
0221043900999992000091506004+60030-043110FM-12+0019BGPC V0202701N007712200019N0250001N1+01181+00301100111ADDAA199000091GA1001+999999999GF100991001001999999001001KA1120M+01241KA2120N+00281MA1999999099221MD1710041+9999REMSYN082AAXX  15064 04390 32975 02715 10118 20030 39922 40011 57004 333 10124 20028 91131;EQDQ01  00002PRCP99
0160043900999992000091509004+60030-043110FM-12+0019BGPC V0202701N009819999999N0400001N1+01301+00221100071ADDGF105991031001999999041091MA1999999099191MD1710031+9999OA149901541REMSYN082AAXX  15094 04390 42982 52719 10130 20022 39919 40007 57003 83049 333 91130 91030;
0143043900999992000091512004+60030-043110FM-12+0019BGPC V0202801N005112200019N0600001N1+01381+00401999999ADDAA199000091GF102991999999999999999999REMSYN075AAXX  15124 04390 32986 22810 10138 20040 3992 40014 52007 8204/ 333 91130;EQDQ01  00002PRCP99
0143043900999992000091515004+60030-043110FM-12+0019BGPC V0202101N004612200019N0500001N1+01341+00421100141ADDGF102991011001012501021091MA1999999099261MD1410001+9999REMSYN076AAXX  15154 04390 42684 22109 10134 20042 39926 40014 54000 81029 333 91123;
0211043900999992000091518004+60030-043110FM-12+0019BGPC V0202501N008212200019N0500001N1+01381+00261100131ADDAA199000091GF104991021021017501071999KA1120M+01451KA2120N+00991MA1999999099251MD1710011+9999REMSYN088AAXX  15184 04390 32784 42516 10138 20026 39925 40013 57001 8227/ 333 10145 20099 91128;EQDQ01  00002PRCP99
0133043900999992000091521004+60030-043110FM-12+0019BGPC V0202701N005112200019N0500001N1+01131+00091100261ADDGF102991011021017501071999MA1999999099371MD1210121+9999REMSYN066AAXX  15214 04390 42784 22710 10113 20009 39937 40026 52012 8127/;
0173043900999992000091600004+60030-043110FM-12+0019BGPC V0202701N007712200019N0200001N1+01051+00071100191ADDAA199000091GF101991011001012501021001MA1999999099301MD1710071+9999REMSYN076AAXX  16004 04390 32670 12715 10105 20007 39930 40019 57007 81020 333 91128;EQDQ01  00002PRCP99
0128043900999992000091603004+60030-043110FM-12+0019BGPC V0202801N012919999999N9999999N1+01051+00051100271ADDMA1999999099381MD1210081+9999OA149901851REMSYN076AAXX  16034 04390 42/// /2825 10105 20005 39938 40027 52008 333 91136 91035;
0149043900999992000091606004+60030-043110FM-12+0019BGPC V0202801N013419999999N9999999N1+01081+00011100441ADDKA1120M+01411KA2120N+00831MA1999999099551MD1210171+9999REMSYN082AAXX  16064 04390 46/// /2826 10108 20001 39955 40044 52017 333 10141 20083 91140;
0128043900999992000091609004+60030-043110FM-12+0019BGPC V0202801N015419999999N9999999N1+00941-00031100631ADDMA1999999099731MD1210181+9999OA149902111REMSYN076AAXX  16094 04390 46/// /2830 10094 21003 39973 40063 52018 333 91141 91041;
0091043900999992000091615004+60030-043110FM-12+0019BGPC V0202801N012919999999N9999999N1+01091-00051100811ADDMA1999999099921REMSYN064AAXX  16154 04390 46/// /2825 10109 21005 39992 40081 333 91133;
0179043900999992000091618004+60030-043110FM-12+0019BGPC V0202801N010819999999N9999999N1+01151-00041100881ADDAA199000091KA1120M+01261KA2120N+00981MA1999999099991MD1210071+9999REMSYN082AAXX  16184 04390 32/// /2821 10115 21004 39999 40088 52007 333 10126 20098 91133;EQDQ01  00002PRCP99
0153043900999992000091621004+60030-043110FM-12+0019BGPC V0202801N010312200019N9999999N1+01171-00331101071ADDGA1001+999999999GF100991001001999999001001MA1999999100181MD1210191+9999REMSYN070AAXX  16214 04390 429// 02820 10117 21033 30018 40107 52019 333 91131;
0158043900999992000091700004+60030-043110FM-12+0019BGPC V0203201N003119999999N9999999N1+01021-00391101361ADDAA199000091MA1999999100461MD1210281+9999OA149901601REMSYN076AAXX  17004 04390 32/// /3206 10102 21039 30046 40136 52028 333 91131 91225;EQDQ01  00002PRCP99
0158043900999992000091703004+60030-043110FM-12+0019BGPC V0201701N000519999999N9999999N1+00581-00231101551ADDAA199000091MA1999999100631MD1210171+9999OA149901131REMSYN076AAXX  17034 04390 32/// /1701 10058 21023 30063 40155 52017 333 91122 91214;EQDQ01  00002PRCP99
0221043900999992000091706004+60030-043110FM-12+0019BGPC V0203001N002612200019N9999999N1+00571-00221101801ADDAA199000091GA1001+999999999GF100991001001999999001001KA1120M+01261KA2120N+00561MA1999999100881MD1210251+9999REMSYN082AAXX  17064 04390 329// 03005 10057 21022 30088 40180 52025 333 10126 20056 91122;EQDQ01  00002PRCP99
0159043900999992000091709004+60030-043110FM-12+0019BGPC V0201001N001519999999N9999999N1+00211+00191102011ADDAA199000091AY101031AY201031MA1999999101081MD1210201+9999MW1401REMSYN066AAXX  17094 04390 31/// /1003 10021 20019 30108 40201 52020 74000;EQDQ01  00002PRCP99
0201043900999992000091712004+60030-043110FM-12+0019BGPC V0200401N002612200019N0100001N1+00691+00601102271ADDAA199000091AY101061AY201061GA1001+999999999GF100991001001999999001001MA1999999101351MD1210271+9999MW1401REMSYN066AAXX  17124 04390 31960 00405 10069 20060 30135 40227 52027 74000;EQDQ01  00002PRCP99
0143043900999992000091715004+60030-043110FM-12+0019BGPC V0200801N003110075019N0500001N1+00651+00511102491ADDGF106991061051008001999999MA1999999101571MD1210221+9999REMSYN076AAXX  17154 04390 42584 60806 10065 20051 30157 40249 52022 865// 333 90000;
0211043900999992000091718004+60030-043110FM-12+0019BGPC V0200801N002610150019N0400001N1+00611+00361102671ADDAA199000091GF108991081001017501021999KA1120M+00731KA2120N+00201MA1999999101741MD1210171+9999REMSYN088AAXX  17184 04390 32782 80805 10061 20036 30174 40267 52017 8802/ 333 10073 20020 90000;EQDQ01  00002PRCP99
0133043900999992000091721004+60030-043110FM-12+0019BGPC V0200701N001510075019N0300001N1+00611+00201102891ADDGF108991081051008001999999MA1999999101961MD1210221+9999REMSYN066AAXX  17214 04390 42580 80703 10061 20020 30196 40289 52022 885//;
0163043900999992000091800004+60030-043110FM-12+0019BGPC V0200601N002610150019N0100001N1+00521+00131102981ADDAA199000091GF106991061051017501999999MA1999999102051MD1210091+9999REMSYN066AAXX  18004 04390 32760 60605 10052 20013 30205 40298 52009 865//;EQDQ01  00002PRCP99
0143043900999992000091803004+60030-043110FM-12+0019BGPC V0200601N005719999999N0100001N1+00501+00071103011ADDGF107991071001999999071999MA1999999102081MD1210031+9999REMSYN076AAXX  18034 04390 42960 70611 10050 20007 30208 40301 52003 8707/ 333 91120;
0226043900999992000091806004+60030-043110FM-12+0019BGPC V0200401N006710300019N0150001N1+00491+00221103081ADDAA112000791AY161061AY221061GF108991021071004501021999KA1120M+00691KA2120N+00451MA1999999102151MD1210071+9999MW1601REMSYN100AAXX  18064 04390 11465 80413 10049 20022 30215 40308 52007 69902 76062 8272/ 333 10069 20045 91120;
0111043900999992000091809004+60030-043110FM-12+0019BGPC V0200401N007219999999N9999999N1+00411+00331103021ADDMA1999999102081MD1710071+9999REMSYN070AAXX  18094 04390 46/// /0414 10041 20033 30208 40302 57007 333 91124;
0188043900999992000091812004+60030-043110FM-12+0019BGPC V0200401N006710021019N0200001N1+00451+00391102931ADDAA106000191AY161061AY221061GF108991061071002501021999MA1999999102001MD1710081+9999MW1001REMSYN088AAXX  18124 04390 11370 80413 10045 20039 30200 40293 57008 69911 70062 8672/ 333 91126;
0143043900999992000091815004+60030-043110FM-12+0019BGPC V0200301N008710021019N0300001N1+00381+00261102791ADDGF108991071071002501021999MA1999999101851MD1710151+9999REMSYN076AAXX  18154 04390 42380 80317 10038 20026 30185 40279 57015 8772/ 333 91128;
0243043900999992000091818004+60030-043110FM-12+0019BGPC V0200301N009310012019N0100001N1+00271+00271102681ADDAA112001091AY161061AY261061GF108991081071001501999999KA1120M+00561KA2120N+00261MA1999999101741MD1710111+9999MW1631OA149901651REMSYN106AAXX  18184 04390 11260 80318 10027 20027 30174 40268 57011 60012 76366 887// 333 10056 20026 91132 91030;
0188043900999992000091821004+60030-043110FM-12+0019BGPC V0200401N011310042019N0050001N1+00151+00151102401ADDAY161031AY261031GF108991081071004501999999MA1999999101461MD1710281+9999MW1631OA149901751REMSYN088AAXX  18214 04390 41450 80422 10015 20015 30146 40240 57028 76366 887// 333 91134 91034;
0205043900999992000091900004+60030-043110FM-12+0019BGPC V0200301N009810042019N0050001N1+00161+00141102201ADDAA106010991AY161061AY261061GF108991081071004501999999MA1999999101261MD1710201+9999MW1631OA149901851REMSYN094AAXX  19004 04390 11450 80319 10016 20014 30126 40220 57020 60111 76366 887// 333 91136 91029;
0188043900999992000091903004+60030-043110FM-12+0019BGPC V0200301N009810021019N0020001N1+00161+00161101811ADDAY161031AY261031GF108991081071002501999999MA1999999100881MD1710381+9999MW1631OA149901751REMSYN088AAXX  19034 04390 41320 80319 10016 20016 30088 40181 57038 76366 887// 333 91134 91032;
0226043900999992000091906004+60030-043110FM-12+0019BGPC V0200201N011810021019N0020001N1+00161+00161101421ADDAY161061AY261061GF108991081071002501999999KA1120M+00311KA2120N+00081MA1999999100491MD1710391+9999MW1651OA149902011REMSYN100AAXX  19064 04390 11320 80223 10016 20016 30049 40142 57039 76566 887// 333 10031 20008 91139 91038;
0188043900999992000091909004+60030-043110FM-12+0019BGPC V0200301N012310042019N0030001N1+00181+00181100981ADDAY161031AY261031GF108991081071004501999999MA1999999100051MD1710441+9999MW1631OA149902261REMSYN088AAXX  19094 04390 41430 80324 10018 20018 30005 40098 57044 76366 887// 333 91144 91036;
0205043900999992000091912004+60030-043110FM-12+0019BGPC V0203501N010810042019N0030001N1+00351+00351100701ADDAA106021191AY161061AY261061GF108991081071004501999999MA1999999099781MD1710271+9999MW1631OA149902631REMSYN094AAXX  19124 04390 11430 83521 10035 20035 39978 40070 57027 60211 76366 887// 333 91151 91037;
0188043900999992000091915004+60030-043110FM-12+0019BGPC V0200201N009310042019N0150001N1+00391+00341100531ADDAY161031AY261031GF108991081071004501999999MA1999999099621MD1710161+9999MW1611OA149902011REMSYN088AAXX  19154 04390 41465 80218 10039 20034 39962 40053 57016 76166 887// 333 91139 91031;
0243043900999992000091918004+60030-043110FM-12+0019BGPC V0200301N010310042019N0150001N1+00471+00361100361ADDAA112005191AY161061AY261061GF108991081071004501999999KA1120M+00481KA2120N+00141MA1999999099451MD1710171+9999MW1611OA149902011REMSYN106AAXX  19184 04390 11465 80320 10047 20036 39945 40036 57017 60052 76166 887// 333 10048 20014 91139 91031;
0171043900999992000091921004+60030-043110FM-12+0019BGPC V0200301N008210042019N0200001N1+00421+00371100331ADDAY161031AY221031GF107991051071004501071999MA1999999099421MD1710031+9999MW1001REMSYN082AAXX  19214 04390 41470 70316 10042 20037 39942 40033 57003 70062 8577/ 333 91131;
0205043900999992000092000004+60030-043110FM-12+0019BGPC V0200701N002610042019N0150001N1+00391+00391100361ADDAA106001091AY161061AY221061GF108991081071004501999999MA1999999099451MD1210031+9999MW1601OA149901601REMSYN094AAXX  20004 04390 11465 80705 10039 20039 39945 40036 52003 60011 76062 887// 333 91131 91220;
0177043900999992000092003004+60030-043110FM-12+0019BGPC V0200701N001010012019N0020001N1+00281+00281100321ADDAY151031AY251031GF108991081071001501999999MA1999999099401MD1710051+9999MW1531REMSYN088AAXX  20034 04390 41220 80702 10028 20028 39940 40032 57005 75355 887// 333 90000 90000;
0232043900999992000092006004+60030-043110FM-12+0019BGPC V0200901N001010042019N0010001N1+00301+00301100271ADDAA112001091AY141061AY221061GF108991081071004501999999KA1120M+00501KA2120N+00261MA1999999099361MD1710041+9999MW1461REMSYN106AAXX  20064 04390 11410 80902 10030 20030 39936 40027 57004 60012 74642 887// 333 10050 20026 90000 90000;
0161043900999992000092009004+60030-043110FM-12+0019BGPC V0201201N002610006019N0005001N1+00241+00241100331ADDAY151031AY251031GF108991081061000751999999MA1999999099411MD1210051+9999MW1501REMSYN072AAXX  20094 04390 41105 81205 10024 20024 39941 40033 52005 75055 886//;
0188043900999992000092012004+60030-043110FM-12+0019BGPC V0200901N002110012019N0030001N1+00301+00301100381ADDAA106000791AY151061AY221061GF108991081061001501999999MA1999999099461MD1210051+9999MW1501REMSYN088AAXX  20124 04390 11230 80904 10030 20030 39946 40038 52005 69901 75052 886// 333 90000;
0161043900999992000092015004+60030-043110FM-12+0019BGPC V0200301N001510012019N0050001N1+00341+00341100331ADDAY151031AY251031GF108991081061001501999999MA1999999099421MD1710041+9999MW1501REMSYN072AAXX  20154 04390 41250 80303 10034 20034 39942 40033 57004 75055 886//;
0220043900999992000092018004+60030-043110FM-12+0019BGPC V0200701N000510042019N0200001N1+00431+00431100271ADDAA112000191AY151061AY221061GF108991081061004501999999KA1120M+00441KA2999N+00211MA1999999099361MD1710061+9999MW1001REMSYN094AAXX  20184 04390 11470 80701 10043 20043 39936 40027 57006 69922 70052 886// 333 10044 20021;
0161043900999992000092021004+60030-043110FM-12+0019BGPC V0203301N001010012019N0080001N1+00381+00361100321ADDAY151031AY221031GF108991081061001501999999MA1999999099411MD1210051+9999MW1501REMSYN072AAXX  20214 04390 41258 83302 10038 20036 39941 40032 52005 75052 886//;
0188043900999992000092100004+60030-043110FM-12+0019BGPC V0200301N009310042019N0100001N1+00561+00421100371ADDAA106000591AY151061AY221061GF108991081061004501999999MA1999999099461MD1210051+9999MW1001REMSYN088AAXX  21004 04390 11460 80318 10056 20042 39946 40037 52005 69951 70052 886// 333 91127;
0171043900999992000092103004+60030-043110FM-12+0019BGPC V0203401N004610042019N0050001N1+00541+00481100401ADDAY151031AY221031GF108991081051004501999999MA1999999099491MD1210031+9999MW1001REMSYN082AAXX  21034 04390 41450 83409 10054 20048 39949 40040 52003 70052 885// 333 91126;
0243043900999992000092106004+60030-043110FM-12+0019BGPC V0200201N002610210019N0100001N1+00431+00431100421ADDAA112000591AY151061AY221061GF106991061001022501021999KA1120M+00581KA2120N+00351MA1999999099511MD1210021+9999MW1001OA149901341REMSYN106AAXX  21064 04390 11860 60205 10043 20043 39951 40042 52002 69962 70052 8602/ 333 10058 20035 91126 91217;
0133043900999992000092109004+60030-043110FM-12+0019BGPC V0202801N001012200019N0500001N1+00461+00381100421ADDGF101991011001999999031999MA1999999099511MD1410001+9999REMSYN066AAXX  21094 04390 42984 12802 10046 20038 39951 40042 54000 8103/;
0173043900999992000092112004+60030-043110FM-12+0019BGPC V0202401N003612200019N0600001N1+00751+00481100351ADDAA199000091GA1001+999999999GF100991001001999999001001MA1999999099451MD1710061+9999REMSYN060AAXX  21124 04390 32986 02407 10075 20048 39945 40035 57006;EQDQ01  00002PRCP99
0143043900999992000092115004+60030-043110FM-12+0019BGPC V0202701N005712200019N0600001N1+01001+00251100151ADDGA1001+999999999GF100991001001999999001001MA1999999099261MD1710191+9999REMSYN060AAXX  21154 04390 42986 02711 10100 20025 39926 40015 57019;
0205043900999992000092118004+60030-043110FM-12+0019BGPC V0202501N004112200019N0500001N1+01181+00171100041ADDAA199000091GF101991001001999999001041KA1120M+01201KA2999N+00401MA1999999099161MD1710101+9999REMSYN082AAXX  21184 04390 32984 12508 10118 20017 39916 40004 57010 80004 333 10120 20040;EQDQ01  00002PRCP99
0160043900999992000092121004+60030-043110FM-12+0019BGPC V0202901N003112200019N0600001N1+00891+00101100051ADDGF101991001001999999001061MA1999999099161MD1410001+9999OA149900981REMSYN082AAXX  21214 04390 42986 12906 10089 20010 39916 40005 54000 80006 333 91119 91019;
0190043900999992000092200004+60030-043110FM-12+0019BGPC V0202901N001512200019N0400001N1+00691+00121100151ADDAA199000091GF101991001001999999001061MA1999999099251MD1210091+9999OA149900981REMSYN082AAXX  22004 04390 32982 12903 10069 20012 39925 40015 52009 80006 333 91119 91214;EQDQ01  00002PRCP99
0133043900999992000092203004+60030-043110FM-12+0019BGPC V0201801N001012200019N0200001N1+00441+00211100241ADDGF101991001001999999001061MA1999999099331MD1210081+9999REMSYN066AAXX  22034 04390 42970 11802 10044 20021 39933 40024 52008 80006;
0215043900999992000092206004+60030-043110FM-12+0019BGPC V0202601N001512200019N0150001N1+00421+00241100291ADDAA199000091GA1001+999999999GF100991001001999999001001KA1120M+01281KA2999N+00361MA1999999099381MD1210051+9999REMSYN076AAXX  22064 04390 32965 02603 10042 20024 39938 40029 52005 333 10128 20036;EQDQ01  00002PRCP99
0133043900999992000092209004+60030-043110FM-12+0019BGPC V0203001N001512200019N0500001N1+00361+00241100521ADDGF102991001001999999001091MA1999999099601MD1210221+9999REMSYN066AAXX  22094 04390 42984 23003 10036 20024 39960 40052 52022 80009;
0163043900999992000092212004+60030-043110FM-12+0019BGPC V0200201N000512200019N0500001N1+00761+00521100711ADDAA199000091GF101991001001999999001091MA1999999099811MD1210211+9999REMSYN066AAXX  22124 04390 32984 10201 10076 20052 39981 40071 52021 80009;EQDQ01  00002PRCP99
0133043900999992000092215004+60030-043110FM-12+0019BGPC V0200801N003112200019N0500001N1+00561+00421100741ADDGF104991011001999999031061MA1999999099831MD1210021+9999REMSYN066AAXX  22154 04390 42984 40806 10056 20042 39983 40074 52002 81036;
0211043900999992000092218004+60030-043110FM-12+0019BGPC V0200901N005119999999N0500001N1+00331+00231100841ADDAA199000091GF107991061001999999071061KA1120M+00811KA2120N+00311MA1999999099921MD1210091+9999REMSYN088AAXX  22184 04390 32984 70910 10033 20023 39992 40084 52009 86076 333 10081 20031 90000;EQDQ01  00002PRCP99
0177043900999992000092221004+60030-043110FM-12+0019BGPC V0200801N004619999999N0020001N1+00341+00321100931ADDAY121031AY221031GF107991071001999999071999MA1999999100011MD1210091+9999MW1401REMSYN088AAXX  22214 04390 41920 70809 10034 20032 30001 40093 52009 74022 8707/ 333 90000 90000;
0173043900999992000092300004+60030-043110FM-12+0019BGPC V0201901N000510210019N0150001N1+00391+00391100921ADDAA199000091GF108991081001022501071999MA1999999100001MD1710011+9999REMSYN076AAXX  23004 04390 32865 81901 10039 20039 30000 40092 57001 8807/ 333 90000;EQDQ01  00002PRCP99
0177043900999992000092303004+60030-043110FM-12+0019BGPC V0200301N003110012019N0010001N1+00391+00391100821ADDAY161031AY251031GF108991081061001501999999MA1999999099901MD1710101+9999MW1531REMSYN088AAXX  23034 04390 41210 80306 10039 20039 39990 40082 57010 75365 886// 333 90000 90000;
0232043900999992000092306004+60030-043110FM-12+0019BGPC V0200301N003610042019N0150001N1+00421+00421100741ADDAA112003091AY161061AY221061GF108991081071004501999999KA1120M+00461KA2120N+00301MA1999999099821MD1710081+9999MW1001REMSYN106AAXX  23064 04390 11465 80307 10042 20042 39982 40074 57008 60032 70062 887// 333 10046 20030 90000 90000;
0171043900999992000092309004+60030-043110FM-12+0019BGPC V0200301N007710042019N0050001N1+00411+00411100741ADDAY161031AY261031GF108991081071004501999999MA1999999099821MD1410001+9999MW1631REMSYN082AAXX  23094 04390 41450 80315 10041 20041 39982 40074 54000 76366 887// 333 91123;
0205043900999992000092312004+60030-043110FM-12+0019BGPC V0200201N011810042019N0040001N1+00441+00441100641ADDAA106023991AY161061AY261061GF108991061071004501021999MA1999999099731MD1710091+9999MW1651OA149901701REMSYN094AAXX  23124 04390 11440 80223 10044 20044 39973 40064 57009 60241 76566 8672/ 333 91133 91033;
0188043900999992000092315004+60030-043110FM-12+0019BGPC V0200301N010310042019N0060001N1+00471+00471100581ADDAY161031AY261031GF108991071071004501021999MA1999999099671MD1710061+9999MW1651OA149901701REMSYN088AAXX  23154 04390 41456 80320 10047 20047 39967 40058 57006 76566 8772/ 333 91133 91031;
0243043900999992000092318004+60030-043110FM-12+0019BGPC V0200301N010810042019N0030001N1+00501+00501100501ADDAA112064091AY161061AY261061GF108991081071004501999999KA1120M+00541KA2120N+00401MA1999999099591MD1710081+9999MW1651OA149901701REMSYN106AAXX  23184 04390 11430 80321 10050 20050 39959 40050 57008 60642 76566 887// 333 10054 20040 91133 91031;
0188043900999992000092321004+60030-043110FM-12+0019BGPC V0200301N009810021019N0050001N1+00461+00461100621ADDAY161031AY261031GF108991081071002501999999MA1999999099711MD1210121+9999MW1651OA149901751REMSYN088AAXX  23214 04390 41350 80319 10046 20046 39971 40062 52012 76566 887// 333 91134 91030;
0188043900999992000092400004+60030-043110FM-12+0019BGPC V0200301N011810021019N0100001N1+00431+00411100591ADDAA106043991AY161061AY261061GF108991081071002501999999MA1999999099681MD1710031+9999MW1651REMSYN088AAXX  24004 04390 11360 80323 10043 20041 39968 40059 57003 60441 76566 887// 333 91138;
0188043900999992000092403004+60030-043110FM-12+0019BGPC V0200401N011310012019N0020001N1+00441+00441100461ADDAY161031AY261031GF108991081071001501999999MA1999999099551MD1710131+9999MW1621OA149901901REMSYN088AAXX  24034 04390 41220 80422 10044 20044 39955 40046 57013 76266 887// 333 91137 91037;
0243043900999992000092406004+60030-043110FM-12+0019BGPC V0200301N012310021019N0050001N1+00391+00391100501ADDAA112054191AY161061AY221061GF108991081071002501999999KA1120M+00541KA2120N+00361MA1999999099591MD1210041+9999MW1001OA149901901REMSYN106AAXX  24064 04390 11350 80324 10039 20039 39959 40050 52004 60542 70062 887// 333 10054 20036 91137 91036;
0188043900999992000092409004+60030-043110FM-12+0019BGPC V0200201N012310021019N0050001N1+00391+00391100551ADDAY161031AY251031GF108991081061002501999999MA1999999099641MD1210051+9999MW1511OA149901901REMSYN088AAXX  24094 04390 41350 80224 10039 20039 39964 40055 52005 75165 886// 333 91137 91035;
0205043900999992000092412004+60030-043110FM-12+0019BGPC V0200201N014410006019N0100001N1+00441+00421100581ADDAA106000191AY161061AY221061GF108991081061000751999999MA1999999099671MD1210031+9999MW1601OA149902321REMSYN094AAXX  24124 04390 11160 80228 10044 20042 39967 40058 52003 69921 76062 886// 333 91145 91042;
0160043900999992000092415004+60030-043110FM-12+0019BGPC V0200401N016410300019N0150001N1+00541+00371100591ADDGF108991041061002501021999MA1999999099681MD1210011+9999OA149902521REMSYN082AAXX  24154 04390 42365 80432 10054 20037 39968 40059 52001 8462/ 333 91149 91048;
0215043900999992000092418004+60030-043110FM-12+0019BGPC V0200301N015410150019N0100001N1+00581+00151100461ADDAA112000191GF107991071001017501021999KA1120M+00591KA2120N+00381MA1999999099551MD1710131+9999OA149902521REMSYN100AAXX  24184 04390 12760 70330 10058 20015 39955 40046 57013 69922 8702/ 333 10059 20038 91149 91046;
0160043900999992000092421004+60030-043110FM-12+0019BGPC V0200201N013910300019N0150001N1+00541+00391100481ADDGF108991021071004501021999MA1999999099571MD1210021+9999OA149902371REMSYN082AAXX  24214 04390 42465 80227 10054 20039 39957 40048 52002 8272/ 333 91146 91040;
0205043900999992000092500004+60030-043110FM-12+0019BGPC V0200201N010810042019N0100001N1+00491+00471100431ADDAA106000891AY161061AY221061GF108991081071004501999999MA1999999099521MD1710051+9999MW1601OA149902371REMSYN094AAXX  25004 04390 11460 80221 10049 20047 39952 40043 57005 69971 76062 887// 333 91146 91034;
0171043900999992000092503004+60030-043110FM-12+0019BGPC V0200201N007710042019N0150001N1+00491+00471100351ADDAY161031AY261031GF108991081071004501999999MA1999999099441MD1710081+9999MW1611REMSYN082AAXX  25034 04390 41465 80215 10049 20047 39944 40035 57008 76166 887// 333 91134;
0243043900999992000092506004+60030-043110FM-12+0019BGPC V0203601N002610042019N0020001N1+00461+00461100101ADDAA112002091AY161061AY261061GF108991081071004501999999KA1120M+00591KA2120N+00431MA1999999099191MD1710251+9999MW1611OA149901751REMSYN106AAXX  25064 04390 11420 83605 10046 20046 39919 40010 57025 60022 76166 887// 333 10059 20043 91134 91222;
0143043900999992000092509004+60030-043110FM-12+0019BGPC V0200201N004110300019N0400001N1+00461+00121100091ADDGF108991011061004501071999MA1999999099181MD1710011+9999REMSYN076AAXX  25094 04390 42482 80208 10046 20012 39918 40009 57001 8167/ 333 91119;
0171043900999992000092512004+60030-043110FM-12+0019BGPC V0203501N000510210019N0500001N1+00461+00311100011ADDAA199000021GF108991081001022501071999MA1999999099101MD1710081+9999OA149901031REMSYN082AAXX  25124 04390 32884 83501 10046 20031 39910 40001 57008 8807/ 333 91120 91215;
0133043900999992000092515004+60030-043110FM-12+0019BGPC V0203201N00261030001CN0500001N1+00591+00431099791ADDGF105991021021012501051999MA1999999098891MD1710211+9999REMSYN066AAXX  25154 04390 42684 53205 10059 20043 39889 49979 57021 8225/;
0198043900999992000092518004+60030-043110FM-12+0019BGPC V0200801N002610300019N0500001N1+00581+00441099711ADDAA199000021GF108991031071004501021999KA1120M+00681KA2120N+00381MA1999999098811MD1710081+9999REMSYN094AAXX  25184 04390 32484 80805 10058 20044 39881 49971 57008 8372/ 333 10068 20038 90000 90000;
0143043900999992000092521004+60030-043110FM-12+0019BGPC V0200201N003110042019N0500001N1+00491+00461099631ADDGF107991051061004501021999MA1999999098731MD1710081+9999REMSYN076AAXX  25214 04390 42484 70206 10049 20046 39873 49963 57008 8562/ 333 90000;
0188043900999992000092600004+60030-043110FM-12+0019BGPC V0200301N007210042019N0100001N1+00411+00411099521ADDAA106002091AY161061AY221061GF108991081071004501999999MA1999999098621MD1710111+9999MW1631REMSYN088AAXX  26004 04390 11460 80314 10041 20041 39862 49952 57011 60021 76362 887// 333 90000;
0188043900999992000092603004+60030-043110FM-12+0019BGPC V0200401N008210042019N0050001N1+00411+00371099351ADDAY161031AY261031GF108991081071004501999999MA1999999098451MD1710171+9999MW1631OA149901441REMSYN088AAXX  26034 04390 41450 80416 10041 20037 39845 49935 57017 76366 887// 333 91128 91028;
0243043900999992000092606004+60030-043110FM-12+0019BGPC V0200401N011810042019N0020001N1+00461+00431099221ADDAA112017091AY161061AY261061GF108991081071004501999999KA1120M+00581KA2120N+00391MA1999999098321MD1710131+9999MW1631OA149901961REMSYN106AAXX  26064 04390 11420 80423 10046 20043 39832 49922 57013 60172 76366 887// 333 10058 20039 91138 91038;
0188043900999992000092609004+60030-043110FM-12+0019BGPC V0200301N013410042019N0050001N1+00501+00451099041ADDAY161031AY261031GF108991081071004501999999MA1999999098141MD1710181+9999MW1631OA149902011REMSYN088AAXX  26094 04390 41450 80326 10050 20045 39814 49904 57018 76366 887// 333 91139 91038;
0205043900999992000092612004+60030-043110FM-12+0019BGPC V0200301N016410042019N0020001N1+00481+00431098941ADDAA106018091AY161061AY261061GF108991081071004501999999MA1999999098041MD1710101+9999MW1631OA149902731REMSYN094AAXX  26124 04390 11420 80332 10048 20043 39804 49894 57010 60181 76366 887// 333 91153 91048;
0168043900999992000092615004+60030-043110FM-12+0019BGPC V0200301N018510042019N0050001N1+00441+00361098821ADDAY161031AY261031GF108991081071004501999999MA1999999097921MW1611OA149902881REMSYN082AAXX  26154 04390 41450 80336 10044 20036 39792 49882 76166 887// 333 91156 91053;
0223043900999992000092618004+60030-043110FM-12+0019BGPC V0200301N018510042019N0050001N1+00461+00371098751ADDAA112006191AY161061AY261061GF108991081071004501999999KA1120M+00461KA2120N+00361MA1999999097851MW1631OA149903041REMSYN100AAXX  26184 04390 11450 80336 10046 20037 39785 49875 60062 76366 887// 333 10046 20036 91159 91055;
0188043900999992000092621004+60030-043110FM-12+0019BGPC V0203201N008210042019N0050001N1+00511+00341098881ADDAY161031AY261031GF108991081071004501999999MA1999999097981MD1210131+9999MW1631OA149902881REMSYN088AAXX  26214 04390 41450 83216 10051 20034 39798 49888 52013 76366 887// 333 91156 91236;
0205043900999992000092700004+60030-043110FM-12+0019BGPC V0203201N007210042019N0030001N1+00581+00341099051ADDAA106007991AY161061AY261061GF108991081071004501999999MA1999999098161MD1210181+9999MW1631OA149902881REMSYN094AAXX  27004 04390 11430 83214 10058 20034 39816 49905 52018 60081 76366 887// 333 91156 91236;
0171043900999992000092703004+60030-043110FM-12+0019BGPC V0203101N004610042019N0050001N1+00411+00371099331ADDAY161031AY261031GF108991081071004501999999MA1999999098431MD1210271+9999MW1631REMSYN082AAXX  27034 04390 41450 83109 10041 20037 39843 49933 52027 76366 887// 333 91126;
0226043900999992000092706004+60030-043110FM-12+0019BGPC V0203001N005710075019N0020001N1+00551+00401099651ADDAA112025991AY161061AY261061GF108991081051008001999999KA1120M+00591KA2120N+00361MA1999999098751MD1210321+9999MW1611REMSYN100AAXX  27064 04390 11520 83011 10055 20040 39875 49965 52032 60262 76166 885// 333 10059 20036 91126;
0171043900999992000092709004+60030-043110FM-12+0019BGPC V0200101N001010150019N0500001N1+00551+00401100051ADDAY161031AY221031GF108991081001017501021999MA1999999099151MD1210401+9999MW1001REMSYN082AAXX  27094 04390 41784 80102 10055 20040 39915 40005 52040 70062 8802/ 333 91214;
0160043900999992000092712004+60030-043110FM-12+0019BGPC V0202201N002119999999N0500001N1+00641+00561100331ADDAA106000791GF108991081001999999051999MA1999999099431MD1210281+9999REMSYN082AAXX  27124 04390 12984 82204 10064 20056 39943 40033 52028 69901 8805/ 333 91214;
0133043900999992000092715004+60030-043110FM-12+0019BGPC V0202501N002612200019N0500001N1+00711+00571100481ADDGF105991041001022501031061MA1999999099581MD1210151+9999REMSYN066AAXX  27154 04390 42884 52505 10071 20057 39958 40048 52015 84036;
0202043900999992000092718004+60030-043110FM-12+0019BGPC V0202901N003612200019N0250001N1+00841+00221100501ADDAA112000791GA1001+999999999GF100991001001999999001001KA1120M+00951KA2999N+00501MA1999999099601MD1210021+9999REMSYN082AAXX  27184 04390 12975 02907 10084 20022 39960 40050 52002 69902 333 10095 20050;
0153043900999992000092721004+60030-043110FM-12+0019BGPC V0202801N010812200019N0500001N1+00931-00361100621ADDGA1001+999999999GF100991001001999999001001MA1999999099721MD1210121+9999REMSYN070AAXX  27214 04390 42984 02821 10093 21036 39972 40062 52012 333 91134;
0200043900999992000092800004+60030-043110FM-12+0019BGPC V0202501N006712200019N0250001N1+00811-00501100731ADDAA199000091GA1001+999999999GF100991001001999999001001MA1999999099831MD1210111+9999OA149901751REMSYN076AAXX  28004 04390 32975 02513 10081 21050 39983 40073 52011 333 91134 91228;EQDQ01  00002PRCP99
0153043900999992000092803004+60030-043110FM-12+0019BGPC V0202501N006212200019N0250001N1+00841-00481100781ADDGA1001+999999999GF100991001001999999001001MA1999999099881MD1210051+9999REMSYN070AAXX  28034 04390 42975 02512 10084 21048 39988 40078 52005 333 91123;
0238043900999992000092806004+60030-043110FM-12+0019BGPC V0202801N005712200019N9999999N1+00761-00391100781ADDAA199000091GA1001+999999999GF100991001001999999001001KA1120M+00971KA2120N+00611MA1999999099881MD1410001+9999OA149901181REMSYN088AAXX  28064 04390 329// 02811 10076 21039 39988 40078 54000 333 10097 20061 91123 91022;EQDQ01  00002PRCP99
0143043900999992000092809004+60030-043110FM-12+0019BGPC V0202401N005112200019N0500001N1+00681-00371100811ADDGF103991031001999999071999MA1999999099901MD1210021+9999REMSYN076AAXX  28094 04390 42984 32410 10068 21037 39990 40081 52002 8307/ 333 91122;
0173043900999992000092812004+60030-043110FM-12+0019BGPC V0202301N005719999999N0250001N1+00761-00271100851ADDAA199000091GF105991031001999999071091MA1999999099941MD1210041+9999REMSYN076AAXX  28124 04390 32975 52311 10076 21027 39994 40085 52004 83079 333 91122;EQDQ01  00002PRCP99
0133043900999992000092815004+60030-043110FM-12+0019BGPC V0203001N004110210019N0300001N1+00581-00071100901ADDGF107991071001022501071999MA1999999099991MD1210051+9999REMSYN066AAXX  28154 04390 42880 73008 10058 21007 39999 40090 52005 8707/;
0217043900999992000092818004+60030-043110FM-12+0019BGPC V0201401N001519999999N0500001N1+00541+00241100821ADDAA199000091GF106991051001999999071061KA1120M+00881KA2120N+00461MA1999999099911MD1710081+9999REMSYN094AAXX  28184 04390 32984 61403 10054 20024 39991 40082 57008 85076 333 10088 20046 90000 90000;EQDQ01  00002PRCP99
0161043900999992000092821004+60030-043110FM-12+0019BGPC V0201601N001010300019N0050001N1+00421+00301100701ADDAY161031AY221031GF108991041071004501021999MA1999999099791MD1710121+9999MW1601REMSYN072AAXX  28214 04390 41450 81602 10042 20030 39979 40070 57012 76062 8472/;
0178043900999992000092900004+60030-043110FM-12+0019BGPC V0200801N001510012019N0005001N1+00281+00221100411ADDAA106005191AY161061AY241061GF108991081071001501999999MA1999999099491MD1710301+9999MW1611REMSYN078AAXX  29004 04390 11205 80803 10028 20022 39949 40041 57030 60051 76164 887//;
0129043900999992000092903004+60030-043110FM-12+0019BGPC V0203001N003119999999N0005001N1+00301+00241099971ADDAY161031AY241031MA1999999099061MD1710431+9999MW1631REMSYN066AAXX  29034 04390 41/05 /3006 10030 20024 39906 49997 57043 76364;
0226043900999992000092906004+60030-043110FM-12+0019BGPC V0202601N003112200019N0100001N1+00491-00221099841ADDAA112010991AY161061AY201061GF102991021001999999071001KA1120M+00581KA2120N+00271MA1999999098941MD1710121+9999MW1001REMSYN100AAXX  29064 04390 11960 22606 10049 21022 39894 49984 57012 60112 70060 82070 333 10058 20027 91216;
0143043900999992000092909004+60030-043110FM-12+0019BGPC V0202901N012912200019N0500001N1+00311-00581100031ADDGF102991021021008001999999MA1999999099121MD1210181+9999REMSYN076AAXX  29094 04390 42584 22925 10031 21058 39912 40003 52018 822// 333 91141;
0177043900999992000092912004+60030-043110FM-12+0019BGPC V0202701N008712200019N0250001N1+00391-00971100141ADDAA199000021GF102991021011012501999999MA1999999099231MD1210111+9999OA149902111REMSYN088AAXX  29124 04390 32675 22717 10039 21097 39923 40014 52011 821// 333 91141 91027 91228;
0160043900999992000092915004+60030-043110FM-12+0019BGPC V0202601N009812200019N0150001N1+00451-00931100111ADDGF103991031071004501999999MA1999999099201MD1710031+9999OA149901901REMSYN082AAXX  29154 04390 42465 32619 10045 21093 39920 40011 57003 837// 333 91137 91031;
0228043900999992000092918004+60030-043110FM-12+0019BGPC V0202601N009312200019N0200001N1+00451-00891100071ADDAA199000091GF102991021061004501999999KA1120M+00521KA2120N+00261MA1999999099161MD1710041+9999OA149901901REMSYN094AAXX  29184 04390 32470 22618 10045 21089 39916 40007 57004 826// 333 10052 20026 91137 91030;EQDQ01  00002PRCP99
0160043900999992000092921004+60030-043110FM-12+0019BGPC V0202601N009312200019N0200001N1+00371-00931100081ADDGF101991011061002501001001MA1999999099171MD1210011+9999OA149901701REMSYN082AAXX  29214 04390 42370 12618 10037 21093 39917 40008 52001 81600 333 91133 91028;
0200043900999992000093000004+60030-043110FM-12+0019BGPC V0202501N006212200019N0500001N1+00371-00931100041ADDAA199000091GA1001+999999999GF100991001001999999001001MA1999999099131MD1710041+9999OA149901961REMSYN076AAXX  30004 04390 32984 02512 10037 21093 39913 40004 57004 333 91138 91225;EQDQ01  00002PRCP99
0180043900999992000093003004+60030-043110FM-12+0019BGPC V0202701N003612200019N0250001N1+00301-00761099921ADDAA199000091GA1001+999999999GF100991001001999999001001MA1999999099011OA149901491REMSYN070AAXX  30034 04390 32975 02707 10030 21076 39901 49992 333 91129 91218;EQDQ01  00002PRCP99
0221043900999992000093006004+60030-043110FM-12+0019BGPC V0202501N004612200019N0100001N1+00361-00841099801ADDAA199000091GA1001+999999999GF100991001001999999001001KA1120M+00471KA2120N+00181MA1999999098891MD1710121+9999REMSYN082AAXX  30064 04390 32960 02509 10036 21084 39889 49980 57012 333 10047 20018 91137;EQDQ01  00002PRCP99
0170043900999992000093009004+60030-043110FM-12+0019BGPC V0202501N006712200019N0500001N1+00341-00831099771ADDGA1001+999999999GF100991001001999999001001MA1999999098861MD1710031+9999OA149901391REMSYN076AAXX  30094 04390 42984 02513 10034 21083 39886 49977 57003 333 91127 91024;
0173043900999992000093012004+60030-043110FM-12+0019BGPC V0202601N005712200019N0250001N1+00411-00851099731ADDAA199000091GF102991001001999999001061MA1999999098821MD1710041+9999REMSYN076AAXX  30124 04390 32975 22611 10041 21085 39882 49973 57004 80006 333 91129;EQDQ01  00002PRCP99
0133043900999992000093015004+60030-043110FM-12+0019BGPC V0202801N005112200019N0500001N1+00511-00711099701ADDGF103991021011008001001061MA1999999098801MD1710021+9999REMSYN066AAXX  30154 04390 42584 32810 10051 21071 39880 49970 57002 82106;
0205043900999992000093018004+60030-043110FM-12+0019BGPC V0202701N005712200019N0500001N1+00501-00781099641ADDAA199000091GF103991011011012501001061KA1120M+00551KA2999N+00321MA1999999098741MD1710061+9999REMSYN082AAXX  30184 04390 32684 32711 10050 21078 39874 49964 57006 81106 333 10055 20032;EQDQ01  00002PRCP99
0143043900999992000093021004+60030-043110FM-12+0019BGPC V0202801N006212200019N0500001N1+00261-00651099691ADDGF102991021021012501999999MA1999999098781MD1210041+9999REMSYN076AAXX  30214 04390 42684 22812 10026 21065 39878 49969 52004 822// 333 91122;
0183043900999992000100100004+60030-043110FM-12+0019BGPC V0202401N003612200019N0250001N1+00271-00781099701ADDAA199000091GA1001+999999999GF100991001001999999001001MA1999999098791MD1210011+9999REMSYN070AAXX  01004 04390 32975 02407 10027 21078 39879 49970 52001 333 91122;EQDQ01  00002PRCP99
0143043900999992000100103004+60030-043110FM-12+0019BGPC V0202401N004612200019N0250001N1+00261-00821099671ADDGA1001+999999999GF100991001001999999001001MA1999999098761MD1710031+9999REMSYN060AAXX  01034 04390 42975 02409 10026 21082 39876 49967 57003;
0215043900999992000100106004+60030-043110FM-12+0019BGPC V0202401N005112200019N9999999N1+00231-00841099561ADDAA199000091GA1001+999999999GF100991001001999999001001KA1120M+00541KA2999N+00221MA1999999098651MD1710111+9999REMSYN076AAXX  01064 04390 329// 02410 10023 21084 39865 49956 57011 333 10054 20022;EQDQ01  00002PRCP99
0153043900999992000100109004+60030-043110FM-12+0019BGPC V0202701N004612200019N0500001N1+00201-00761099511ADDGA1001+999999999GF100991001001999999001001MA1999999098601MD1710051+9999REMSYN070AAXX  01094 04390 42984 02709 10020 21076 39860 49951 57005 333 90000;
0173043900999992000100112004+60030-043110FM-12+0019BGPC V0202901N008712200019N0250001N1+00231-00811099411ADDAA199000091GF102991001001999999001061MA1999999098501MD1710101+9999REMSYN076AAXX  01124 04390 32975 22917 10023 21081 39850 49941 57010 80006 333 90000;EQDQ01  00002PRCP99
0153043900999992000100115004+60030-043110FM-12+0019BGPC V0202801N007212200019N9999999N1+00411-01191099351ADDGA1001+999999999GF100991001001999999001001MA1999999098451MD1710051+9999REMSYN070AAXX  01154 04390 429// 02814 10041 21119 39845 49935 57005 333 91130;
0221043900999992000100118004+60030-043110FM-12+0019BGPC V0202801N008212200019N0500001N1+00391-01251099351ADDAA199000091GA1001+999999999GF100991001001999999001001KA1120M+00421KA2120N+00131MA1999999098451MD1410001+9999REMSYN082AAXX  01184 04390 32984 02816 10039 21125 39845 49935 54000 333 10042 20013 91130;EQDQ01  00002PRCP99
0153043900999992000100121004+60030-043110FM-12+0019BGPC V0202801N011812200019N0500001N1+00261-01061099451ADDGA1001+999999999GF100991001001999999001001MA1999999098541MD1210091+9999REMSYN070AAXX  01214 04390 42984 02823 10026 21106 39854 49945 52009 333 91128;
0183043900999992000100200004+60030-043110FM-12+0019BGPC V0202801N009312200019N0250001N1+00251-01101099521ADDAA199000091GA1001+999999999GF100991001001999999001001MA1999999098611MD1210071+9999REMSYN070AAXX  02004 04390 32975 02818 10025 21110 39861 49952 52007 333 91128;EQDQ01  00002PRCP99
0153043900999992000100203004+60030-043110FM-12+0019BGPC V0202901N009312200019N0250001N1+00221-01101099441ADDGA1001+999999999GF100991001001999999001001MA1999999098531MD1710081+9999REMSYN070AAXX  02034 04390 42975 02918 10022 21110 39853 49944 57008 333 91131;
0221043900999992000100206004+60030-043110FM-12+0019BGPC V0202801N006712200019N0250001N1+00171-01121099471ADDAA199000091GA1001+999999999GF100991001001999999001001KA1120M+00431KA2120N+00151MA1999999098561MD1210031+9999REMSYN082AAXX  02064 04390 32975 02813 10017 21112 39856 49947 52003 333 10043 20015 91131;EQDQ01  00002PRCP99
0133043900999992000100209004+60030-043110FM-12+0019BGPC V0202801N008712200019N0500001N1+00111-01131099401ADDGF102991001001999999001091MA1999999098491MD1710071+9999REMSYN066AAXX  02094 04390 42984 22817 10011 21113 39849 49940 57007 80009;
0183043900999992000100212004+60030-043110FM-12+0019BGPC V0202801N010312200019N0500001N1+00181-01201099331ADDAA199000091GA1001+999999999GF100991001001999999001001MA1999999098421MD1710071+9999REMSYN070AAXX  02124 04390 32984 02820 10018 21120 39842 49933 57007 333 91124;EQDQ01  00002PRCP99
0143043900999992000100215004+60030-043110FM-12+0019BGPC V0202701N007212200019N0250001N1+00311-01161099321ADDGA1001+999999999GF100991001001999999001001MA1999999098411MD1710011+9999REMSYN060AAXX  02154 04390 42975 02714 10031 21116 39841 49932 57001;
0215043900999992000100218004+60030-043110FM-12+0019BGPC V0202901N006212200019N9999999N1+00291-01101099211ADDAA199000091GA1001+999999999GF100991001001999999001001KA1120M+00391KA2999N+00081MA1999999098301MD1710111+9999REMSYN076AAXX  02184 04390 329// 02912 10029 21110 39830 49921 57011 333 10039 20008;EQDQ01  00002PRCP99
0183043900999992000100221004+60030-043110FM-12+0019BGPC V0202801N010312200019N9999999N1+00261-01061098921ADDAA199000091GA1001+999999999GF100991001001999999001001MA1999999098021MD1710281+9999REMSYN070AAXX  02214 04390 329// 02820 10026 21106 39802 49892 57028 333 91128;EQDQ01  00002PRCP99
0183043900999992000100300004+60030-043110FM-12+0019BGPC V0202801N013412200019N9999999N1+00261-01101098601ADDAA199000091GA1001+999999999GF100991001001999999001001MA1999999097701MD1710321+9999REMSYN070AAXX  03004 04390 329// 02826 10026 21110 39770 49860 57032 333 91134;EQDQ01  00002PRCP99
0153043900999992000100303004+60030-043110FM-12+0019BGPC V0202801N009312200019N0250001N1+00271-01121098511ADDGA1001+999999999GF100991001001999999001001MA1999999097611MD1710091+9999REMSYN070AAXX  03034 04390 42975 02818 10027 21112 39761 49851 57009 333 91135;
0221043900999992000100306004+60030-043110FM-12+0019BGPC V0202801N009812200019N0250001N1+00261-01191098511ADDAA199000091GA1001+999999999GF100991001001999999001001KA1120M+00351KA2120N+00201MA1999999097611MD1410001+9999REMSYN082AAXX  03064 04390 32975 02819 10026 21119 39761 49851 54000 333 10035 20020 91135;EQDQ01  00002PRCP99
0153043900999992000100309004+60030-043110FM-12+0019BGPC V0202701N004112200019N9999999N1+00251-01181098661ADDGA1001+999999999GF100991001001999999001001MA1999999097761MD1210151+9999REMSYN070AAXX  03094 04390 429// 02708 10025 21118 39776 49866 52015 333 91219;
0143043900999992000100315004+60030-043110FM-12+0019BGPC V0203001N001512200019N0500001N1+00481-00831099141ADDGF101991001001999999001061MA1999999098241MD1210281+9999REMSYN076AAXX  03154 04390 42984 13003 10048 21083 39824 49914 52028 80006 333 91216;
0221043900999992000100318004+60030-043110FM-12+0019BGPC V0201201N002612200019N0500001N1+00411-00801099331ADDAA199000091GA1001+999999999GF100991001001999999001001KA1120M+00691KA2120N+00191MA1999999098431MD1210191+9999REMSYN082AAXX  03184 04390 32984 01205 10041 21080 39843 49933 52019 333 10069 20019 91216;EQDQ01  00002PRCP99
0165043900999992000100321004+60030-043110FM-12+0019BGPC V0201901N001012200019N9999999N1+00351-01121099541ADDGA1001+999999999GF100991001001999999001001MA1999999098631MD1210201+9999REMSYN082AAXX  03214 04390 429// 01902 10035 21112 39863 49954 52020 333 90000 90000 90000;
0195043900999992000100400004+60030-043110FM-12+0019BGPC V0202901N002112200019N9999999N1+00151-00911099671ADDAA199000091GA1001+999999999GF100991001001999999001001MA1999999098761MD1210131+9999REMSYN082AAXX  04004 04390 329// 02904 10015 21091 39876 49967 52013 333 90000 90000 90000;EQDQ01  00002PRCP99
0159043900999992000100403004+60030-043110FM-12+0019BGPC V0203101N001512200019N0250001N1+00081-00791099811ADDGA1001+999999999GF100991001001999999001001MA1999999098891MD1210131+9999REMSYN076AAXX  04034 04390 42975 03103 10008 21079 39889 49981 52013 333 90000 90000;
0227043900999992000100406004+60030-043110FM-12+0019BGPC V0201701N000512200019N0250001N1-00011-00761099871ADDAA199000091GA1001+999999999GF100991001001999999001001KA1120M+00461KA2120N-00031MA1999999098951MD1210061+9999REMSYN088AAXX  04064 04390 32975 01701 11001 21076 39895 49987 52006 333 10046 21003 90000 90000;EQDQ01  00002PRCP99
0143043900999992000100409004+60030-043110FM-12+0019BGPC V0202801N001019999999N0300001N1-00031-00381099911ADDGF106991051001999999031061MA1999999098991MD1210041+9999REMSYN076AAXX  04094 04390 42980 62802 11003 21038 39899 49991 52004 85036 333 90000;
0163043900999992000100412004+60030-043110FM-12+0019BGPC V0203101N000519999999N0250001N1+00341-00211099961ADDAA199000091GF106991061001999999051999MA1999999099051MD1210061+9999REMSYN066AAXX  04124 04390 32975 63101 10034 21021 39905 49996 52006 8605/;EQDQ01  00002PRCP99
0133043900999992000100415004+60030-043110FM-12+0019BGPC V0203101N000510042019N0300001N1+00161-00131099961ADDGF108991051061004501021999MA1999999099041MD1710011+9999REMSYN066AAXX  04154 04390 42480 83101 10016 21013 39904 49996 57001 8562/;
0220043900999992000100418004+60030-043110FM-12+0019BGPC V0200601N001010042019N0150001N1+00021-00081099891ADDAA112000791AY171061AY221061GF108991081061004501999999KA1120M+00371KA2999N-00091MA1999999098971MD1710071+9999MW1771REMSYN094AAXX  04184 04390 11465 80602 10002 21008 39897 49989 57007 69902 77772 886// 333 10037 21009;
0161043900999992000100421004+60030-043110FM-12+0019BGPC V0200301N002110042019N0100001N1+00091+00031099871ADDAY171031AY261031GF108991081071004501999999MA1999999098951MD1710021+9999MW1611REMSYN072AAXX  04214 04390 41460 80304 10009 20003 39895 49987 57002 76176 887//;
0178043900999992000100500004+60030-043110FM-12+0019BGPC V0200301N004110120019N0020001N1+00141+00101099791ADDAA106000591AY161061AY261061GF108991081051012501999999MA1999999098871MD1710081+9999MW1611REMSYN078AAXX  05004 04390 11620 80308 10014 20010 39887 49979 57008 69941 76166 885//;
0161043900999992000100503004+60030-043110FM-12+0019BGPC V0200301N006710042019N0100001N1+00051-00011099591ADDAY161031AY261031GF108991081071004501999999MA1999999098671MD1710201+9999MW1611REMSYN072AAXX  05034 04390 41460 80313 10005 21001 39867 49959 57020 76166 887//;
0243043900999992000100506004+60030-043110FM-12+0019BGPC V0200301N014410042019N0020001N1+00131-00041099221ADDAA112011991AY171061AY261061GF108991081071004501999999KA1120M+00201KA2120N-00011MA1999999098311MD1710361+9999MW1681OA149902211REMSYN106AAXX  05064 04390 11420 80328 10013 21004 39831 49922 57036 60122 76876 887// 333 10020 21001 91143 91043;
0188043900999992000100509004+60030-043110FM-12+0019BGPC V0200301N017510021019N0020001N1+00071+00061098611ADDAY171031AY271031GF108991081071002501999999MA1999999097701MD1710611+9999MW1691OA149903041REMSYN088AAXX  05094 04390 41320 80334 10007 20006 39770 49861 57061 76977 887// 333 91159 91056;
0205043900999992000100512004+60030-043110FM-12+0019BGPC V0200401N024710042019N0030001N1+00151+00121097951ADDAA106008991AY171061AY271061GF108991081071004501999999MA1999999097051MD1710651+9999MW1691OA149904121REMSYN094AAXX  05124 04390 11430 80448 10015 20012 39705 49795 57065 60091 76977 887// 333 91180 91071;
0188043900999992000100515004+60030-043110FM-12+0019BGPC V0200301N025710042019N0050001N1+00141+00141097191ADDAY171031AY271031GF108991081071004501999999MA1999999096301MD1710751+9999MW1691OA149904221REMSYN088AAXX  05154 04390 41450 80350 10014 20014 39630 49719 57075 76977 887// 333 91182 91081;
0249043900999992000100518004+60030-043110FM-12+0019BGPC V0203401N016410021019N0020001N1+00421+00301096741ADDAA112014091AY171061AY271061GF108991081071002501999999KA1120M+00451KA2120N+00021MA1999999095861MD1710441+9999MW1691OA149904221REMSYN112AAXX  05184 04390 11320 83432 10042 20030 39586 49674 57044 60142 76977 887// 333 10045 20002 91182 91052 91254;
0188043900999992000100521004+60030-043110FM-12+0019BGPC V0202701N007710021019N0020001N1+00401+00341097261ADDAY171031AY271031GF108991081071002501999999MA1999999096381MD1210521+9999MW1691OA149902681REMSYN088AAXX  05214 04390 41320 82715 10040 20034 39638 49726 52052 76977 887// 333 91152 91232;
0205043900999992000100600004+60030-043110FM-12+0019BGPC V0202601N007210075019N0050001N1+00441+00021097471ADDAA106011991AY171061AY221061GF108991081051008001999999MA1999999096591MD1210211+9999MW1001OA149902681REMSYN094AAXX  06004 04390 11550 82614 10044 20002 39659 49747 52021 60121 70072 885// 333 91152 91232;
0171043900999992000100603004+60030-043110FM-12+0019BGPC V0202201N007710042019N0050001N1+00351+00201097531ADDAY161031AY261031GF108991081071004501999999MA1999999096641MD1210051+9999MW1611REMSYN082AAXX  06034 04390 41450 82215 10035 20020 39664 49753 52005 76166 887// 333 91127;
0243043900999992000100606004+60030-043110FM-12+0019BGPC V0202101N011310042019N0020001N1+00341+00201097641ADDAA112013091AY161061AY221061GF108991081071004501999999KA1120M+00501KA2120N+00261MA1999999096751MD1210111+9999MW1611OA149901851REMSYN106AAXX  06064 04390 11420 82122 10034 20020 39675 49764 52011 60132 76162 887// 333 10050 20026 91136 91035;
0171043900999992000100609004+60030-043110FM-12+0019BGPC V0202101N008210042019N0150001N1+00401+00251097551ADDAY151031AY251031GF107991071071004501999999MA1999999096661MD1710091+9999MW1521REMSYN082AAXX  06094 04390 41465 72116 10040 20025 39666 49755 57009 75255 877// 333 91139;
0211043900999992000100612004+60030-043110FM-12+0019BGPC V0202201N006210300019N0100001N1+00451+00201097621ADDAA106002091AY181061AY281061GF106991041061004501031999MA1999999096731MD1210071+9999MW1801OA149902011REMSYN100AAXX  06124 04390 11460 62212 10045 20020 39673 49762 52007 60021 78088 8463/ 333 91139 91023 91224;
0143043900999992000100615004+60030-043110FM-12+0019BGPC V0202001N007712200019N0200001N1+00481-00021097891ADDGF105991031061004501001041MA1999999097001MD1210271+9999REMSYN076AAXX  06154 04390 42470 52015 10048 21002 39700 49789 52027 83604 333 91126;
0226043900999992000100618004+60030-043110FM-12+0019BGPC V0202201N006210042019N0150001N1+00331+00071098111ADDAA112002091AY171061AY271061GF107991051071004501031999KA1120M+00521KA2120N+00301MA1999999097221MD1210221+9999MW1831REMSYN100AAXX  06184 04390 11465 72212 10033 20007 39722 49811 52022 60022 78377 8573/ 333 10052 20030 91126;
0171043900999992000100621004+60030-043110FM-12+0019BGPC V0202101N005710012019N0050001N1+00261+00141098281ADDAY161031AY261031GF108991081071001501999999MA1999999097381MD1210161+9999MW1611REMSYN082AAXX  06214 04390 41250 82111 10026 20014 39738 49828 52016 76166 887// 333 91120;
0205043900999992000100700004+60030-043110FM-12+0019BGPC V0202601N001010042019N0050001N1+00241+00221098311ADDAA106001091AY151061AY251061GF108991081071004501999999MA1999999097411MD1210031+9999MW1511OA149901181REMSYN094AAXX  07004 04390 11450 82602 10024 20022 39741 49831 52003 69991 75155 887// 333 91123 91215;
0187043900999992000100703004+60030-043110FM-12+0019BGPC V0202701N004112200019N0100001N1+00261+00031098391ADDAY181031AY201031GA1001+999999999GF100991001001999999001001MA1999999097491MD1210081+9999MW1001REMSYN082AAXX  07034 04390 41960 02708 10026 20003 39749 49839 52008 70080 333 90000 90000;
0208043900999992000100706004+60030-043110FM-12+0019BGPC V0202801N009812200019N0250001N1+00411-00131098641ADDAA112001091GA1001+999999999GF100991001001999999001001KA1120M+00421KA2120N+00101MA1999999097741MD1210251+9999REMSYN088AAXX  07064 04390 12975 02819 10041 21013 39774 49864 52025 69992 333 10042 20010 91128;
0143043900999992000100709004+60030-043110FM-12+0019BGPC V0202701N005712200019N0500001N1+00471-00261099021ADDGF103991021001999999041041MA1999999098121MD1210381+9999REMSYN076AAXX  07094 04390 42984 32711 10047 21026 39812 49902 52038 82044 333 91132;
0154043900999992000100712004+60030-043110FM-12+0019BGPC V0202901N008212200019N0500001N1+00471-00291099271ADDAA199000021GF103991011001999999041061MA1999999098371MD1210251+9999REMSYN076AAXX  07124 04390 32984 32916 10047 21029 39837 49927 52025 81046 333 91133;
0244043900999992000100715004+60030-043110FM-12+0019BGPC V0202901N007712200019N0250001N1+00571-00331099511ADDAJ199999999999999GF102991021001999999041999IA1309MA1999999098611MD1210241+9999OA149901601REMSYN124AAXX  07154 04390 42975 22915 10057 21033 39861 49951 52024 8204/ 333 91131 91030 16059 42975 01003 10191 39805 40141 56008;EQDQ01  09752SNDP  
0211043900999992000100718004+60030-043110FM-12+0019BGPC V0202801N008712200019N0500001N1+00421-00431099701ADDAA199000091GF103991011001008001041091KA1120M+00581KA2120N+00391MA1999999098791MD1210181+9999REMSYN088AAXX  07184 04390 32584 32817 10042 21043 39879 49970 52018 81049 333 10058 20039 91137;EQDQ01  00002PRCP99
0160043900999992000100721004+60030-043110FM-12+0019BGPC V0202901N007712200019N0300001N1+00311-00711099741ADDGF101991011001999999041001MA1999999098831MD1210041+9999OA149901601REMSYN082AAXX  07214 04390 42980 12915 10031 21071 39883 49974 52004 81040 333 91131 91027;
0200043900999992000100800004+60030-043110FM-12+0019BGPC V0202801N007712200019N0250001N1+00241-00781099731ADDAA199000091GA1001+999999999GF100991001001999999001001MA1999999098821MD1710011+9999OA149901851REMSYN076AAXX  08004 04390 32975 02815 10024 21078 39882 49973 57001 333 91136 91028;EQDQ01  00002PRCP99
0170043900999992000100803004+60030-043110FM-12+0019BGPC V0202701N010312200019N0250001N1+00251-00881099651ADDGA1001+999999999GF100991001001999999001001MA1999999098741MD1710081+9999OA149902261REMSYN076AAXX  08034 04390 42975 02720 10025 21088 39874 49965 57008 333 91144 91037;
0238043900999992000100806004+60030-043110FM-12+0019BGPC V0202901N007212200019N0250001N1+00221-00831099771ADDAA199000091GA1001+999999999GF100991001001999999001001KA1120M+00441KA2120N+00171MA1999999098861MD1210121+9999OA149902261REMSYN088AAXX  08064 04390 32975 02914 10022 21083 39886 49977 52012 333 10044 20017 91144 91231;EQDQ01  00002PRCP99
0160043900999992000100809004+60030-043110FM-12+0019BGPC V0202701N010812200019N0500001N1+00181-00891099711ADDGF102991001001999999001061MA1999999098801MD1710061+9999OA149901801REMSYN082AAXX  08094 04390 42984 22721 10018 21089 39880 49971 57006 80006 333 91135 91033;
0183043900999992000100812004+60030-043110FM-12+0019BGPC V0202801N007712200019N0500001N1+00241-00921099741ADDAA199000091GA1001+999999999GF100991001001999999001001MA1999999098831MD1210031+9999REMSYN070AAXX  08124 04390 32984 02815 10024 21092 39883 49974 52003 333 91135;EQDQ01  00002PRCP99
0170043900999992000100815004+60030-043110FM-12+0019BGPC V0202901N008712200019N0250001N1+00351-00981099821ADDGA1001+999999999GF100991001001999999001001MA1999999098911MD1210081+9999OA149901601REMSYN076AAXX  08154 04390 42975 02917 10035 21098 39891 49982 52008 333 91131 91031;
0244043900999992000100818004+60030-043110FM-12+0019BGPC V0202701N006212200019N9999999N1+00421-01101100001ADDAA199000091GA1001+999999999GF100991001001999999001001KA1120M+00421KA2120N+00151MA1999999099091MD1210181+9999OA149901651REMSYN094AAXX  08184 04390 329// 02712 10042 21110 39909 40000 52018 333 10042 20015 91132 91023 91223;EQDQ01  00002PRCP99
0170043900999992000100821004+60030-043110FM-12+0019BGPC V0202601N002612200019N9999999N1+00291-01031100261ADDGA1001+999999999GF100991001001999999001001MA1999999099341MD1210251+9999OA149901181REMSYN076AAXX  08214 04390 429// 02605 10029 21103 39934 40026 52025 333 91123 91216;
0183043900999992000100900004+60030-043110FM-12+0019BGPC V0203001N007212200019N9999999N1+00271-00891100451ADDAA199000091GA1001+999999999GF100991001001999999001001MA1999999099531MD1210191+9999REMSYN070AAXX  09004 04390 329// 03014 10027 21089 39953 40045 52019 333 91127;EQDQ01  00002PRCP99
0153043900999992000100903004+60030-043110FM-12+0019BGPC V0202701N001012200019N9999999N1+00121-00811100581ADDGA1001+999999999GF100991001001999999001001MA1999999099661MD1210131+9999REMSYN070AAXX  09034 04390 429// 02702 10012 21081 39966 40058 52013 333 91215;
0221043900999992000100906004+60030-043110FM-12+0019BGPC V0202801N001512200019N0250001N1+00061-00601100571ADDAA199000091GA1001+999999999GF100991001001999999001001KA1120M+00431KA2120N+00031MA1999999099641MD1710021+9999REMSYN082AAXX  09064 04390 32975 02803 10006 21060 39964 40057 57002 333 10043 20003 91215;EQDQ01  00002PRCP99
0143043900999992000100909004+60030-043110FM-12+0019BGPC V0203001N002119999999N0250001N1+00031-00501100641ADDGF106991061001999999031999MA1999999099711MD1210071+9999REMSYN076AAXX  09094 04390 42975 63004 10003 21050 39971 40064 52007 8603/ 333 90000;
0179043900999992000100912004+60030-043110FM-12+0019BGPC V0200101N001519999999N0250001N1+00161-00591100641ADDAA199000091GF105991001001999999001061MA1999999099721MD1210011+9999REMSYN082AAXX  09124 04390 32975 50103 10016 21059 39972 40064 52001 80006 333 90000 90000;EQDQ01  00002PRCP99
0133043900999992000100915004+60030-043110FM-12+0019BGPC V0203601N001510300019N0500001N1+00161-00411100561ADDGF108991031031012501021999MA1999999099641MD1710081+9999REMSYN066AAXX  09154 04390 42684 83603 10016 21041 39964 40056 57008 8332/;
0205043900999992000100918004+60030-043110FM-12+0019BGPC V0202901N000510300019N0250001N1+00221-00461100531ADDAA199000091GF107991041051017501021999KA1120M+00241KA2999N+00021MA1999999099611MD1710031+9999REMSYN082AAXX  09184 04390 32775 72901 10022 21046 39961 40053 57003 8452/ 333 10024 20002;EQDQ01  00002PRCP99
0133043900999992000100921004+60030-043110FM-12+0019BGPC V0202501N003112200019N0250001N1+00171-00381100581ADDGF104991041001999999041999MA1999999099661MD1210051+9999REMSYN066AAXX  09214 04390 42975 42506 10017 21038 39966 40058 52005 8404/;
0173043900999992000101000004+60030-043110FM-12+0019BGPC V0202501N002112200019N0250001N1+00081-00471100681ADDAA199000091GA1001+999999999GF100991001001999999001001MA1999999099751MD1210091+9999REMSYN060AAXX  10004 04390 32975 02504 10008 21047 39975 40068 52009;EQDQ01  00002PRCP99
0133043900999992000101003004+60030-043110FM-12+0019BGPC V0202401N001019999999N0100001N1+00021-00441100701ADDGF105991021001999999041061MA1999999099771MD1210021+9999REMSYN066AAXX  10034 04390 42960 52402 10002 21044 39977 40070 52002 82046;
0215043900999992000101006004+60030-043110FM-12+0019BGPC V0200701N001512200019N0250001N1+00041-00231100721ADDAA199000091GA1001+999999999GF100991001001999999001001KA1120M+00251KA2999N-00021MA1999999099791MD1210021+9999REMSYN076AAXX  10064 04390 32975 00703 10004 21023 39979 40072 52002 333 10025 21002;EQDQ01  00002PRCP99
0143043900999992000101009004+60030-043110FM-12+0019BGPC V0200901N002112200019N0250001N1-00061-00121100831ADDGA1001+999999999GF100991001001999999001001MA1999999099901MD1210111+9999REMSYN060AAXX  10094 04390 42975 00904 11006 21012 39990 40083 52011;
0173043900999992000101012004+60030-043110FM-12+0019BGPC V0202801N000512200019N0500001N1+00261-00051100971ADDAA199000091GA1001+999999999GF100991001001999999001001MA1999999100051MD1210151+9999REMSYN060AAXX  10124 04390 32984 02801 10026 21005 30005 40097 52015;EQDQ01  00002PRCP99
0143043900999992000101015004+60030-043110FM-12+0019BGPC V0200401N000512200019N9999999N1+00431-00051101251ADDGA1001+999999999GF100991001001999999001001MA1999999100331MD1210281+9999REMSYN060AAXX  10154 04390 429// 00401 10043 21005 30033 40125 52028;
0188043900999992000101018004+60030-043110FM-12+0019BGPC V0202301N001512200019N0250001N1+00351-00121101471ADDAA199000091GA1001+999999999GF100991001001999999001001MA1999999100551MD1210221+9999REMSYN075AAXX  10184 04390 32975 02303 10035 21012 30055 40147 52022 33 10058 21013;EQDQ01  00002PRCP99
0143043900999992000101021004+60030-043110FM-12+0019BGPC V0202401N004112200019N0250001N1+00261-00331101721ADDGA1001+999999999GF100991001001999999001001MA1999999100791MD1210241+9999REMSYN060AAXX  10214 04390 42975 02408 10026 21033 30079 40172 52024;
0173043900999992000101100004+60030-043110FM-12+0019BGPC V0202801N002612200019N0250001N1+00201-00391101761ADDAA199000091GA1001+999999999GF100991001001999999001001MA1999999100831MD1210041+9999REMSYN060AAXX  11004 04390 32975 02805 10020 21039 30083 40176 52004;EQDQ01  00002PRCP99
0221043900999992000101106004+60030-043110FM-12+0019BGPC V0202401N002612200019N0250001N1+00161-00581101811ADDAA199000091GA1001+999999999GF100991001001999999001001KA1120M+00421KA2120N+00071MA1999999100881MD1710041+9999REMSYN082AAXX  11064 04390 32975 02405 10016 21058 30088 40181 57004 333 10042 20007 90000;EQDQ01  00002PRCP99
0143043900999992000101109004+60030-043110FM-12+0019BGPC V0202301N003112200019N0250001N1+00111-00471101661ADDGF104991001001999999001061MA1999999100731MD1710151+9999REMSYN076AAXX  11094 04390 42975 42306 10011 21047 30073 40166 57015 80006 333 90000;
0173043900999992000101112004+60030-043110FM-12+0019BGPC V0201401N000519999999N0500001N1+00121-00311101691ADDAA199000091GF108991081001999999011999MA1999999100761MD1210031+9999REMSYN076AAXX  11124 04390 32984 81401 10012 21031 30076 40169 52003 8801/ 333 90000;EQDQ01  00002PRCP99
0143043900999992000101115004+60030-043110FM-12+0019BGPC V0203401N002119999999N0250001N1+00091-00121101691ADDGF107991071001999999011999MA1999999100761MD1410001+9999REMSYN076AAXX  11154 04390 42975 73404 10009 21012 30076 40169 54000 8701/ 333 90000;
0217043900999992000101118004+60030-043110FM-12+0019BGPC V0200301N002610150019N0300001N1+00091-00381101521ADDAA199000091GF108991081001017501021999KA1120M+00241KA2120N+00001MA1999999100591MD1710171+9999REMSYN094AAXX  11184 04390 32780 80305 10009 21038 30059 40152 57017 8802/ 333 10024 20000 90000 90000;EQDQ01  00002PRCP99
0177043900999992000101121004+60030-043110FM-12+0019BGPC V0200301N006210042019N0010001N1-00091-00091101261ADDAY171031AY221031GF108991081071004501999999MA1999999100321MD1710271+9999MW1711REMSYN088AAXX  11214 04390 41410 80312 11009 21009 30032 40126 57027 77172 887// 333 90000 90000;
0188043900999992000101200004+60030-043110FM-12+0019BGPC V0200301N008210042019N0010001N1-00131-00131101061ADDAA106001091AY171061AY271061GF108991081071004501999999MA1999999100121MD1710201+9999MW1711REMSYN088AAXX  12004 04390 11410 80316 11013 21013 30012 40106 57020 60011 77177 887// 333 91128;
0188043900999992000101203004+60030-043110FM-12+0019BGPC V0200301N011810021019N0010001N1-00121-00121100801ADDAY171031AY271031GF108991081071002501999999MA1999999099871MD1710251+9999MW1731OA149901851REMSYN088AAXX  12034 04390 41310 80323 11012 21012 39987 40080 57025 77377 887// 333 91136 91034;
0243043900999992000101206004+60030-043110FM-12+0019BGPC V0200301N013910042019N0020001N1-00061-00061100531ADDAA112004191AY171061AY271061GF108991081071004501999999KA1120M+00121KA2120N-00161MA1999999099601MD1710271+9999MW1711OA149902161REMSYN106AAXX  12064 04390 11420 80327 11006 21006 39960 40053 57027 60042 77177 887// 333 10012 21016 91142 91039;
0188043900999992000101209004+60030-043110FM-12+0019BGPC V0200301N017510042019N0010001N1-00101-00101100401ADDAY171031AY271031GF108991081071004501999999MA1999999099471MD1710131+9999MW1711OA149902631REMSYN088AAXX  12094 04390 41410 80334 11010 21010 39947 40040 57013 77177 887// 333 91151 91051;
0205043900999992000101212004+60030-043110FM-12+0019BGPC V0200201N016410042019N0020001N1-00131-00171100321ADDAA106000391AY171061AY271061GF108991081071004501999999MA1999999099391MD1710081+9999MW1711OA149903141REMSYN094AAXX  12124 04390 11420 80232 11013 21017 39939 40032 57008 69931 77177 887// 333 91161 91053;
0188043900999992000101215004+60030-043110FM-12+0019BGPC V0200101N017510120019N0050001N1-00011-00161099931ADDAY171031AY231031GF108991081001012501021999MA1999999099011MD1710381+9999MW1361OA149903041REMSYN088AAXX  12154 04390 41650 80134 11001 21016 39901 49993 57038 73673 8802/ 333 91159 91053;
0243043900999992000101218004+60030-043110FM-12+0019BGPC V0200301N021110120019N0050001N1-00031-00201099481ADDAA112000391AY131061AY231061GF108991081001012501021999KA1120M+00051KA2120N-00191MA1999999098561MD1710451+9999MW1361OA149903401REMSYN106AAXX  12184 04390 11650 80341 11003 21020 39856 49948 57045 69932 73633 8802/ 333 10005 21019 91166 91060;
0188043900999992000101221004+60030-043110FM-12+0019BGPC V0200401N022110120019N0020001N1-00101-00101098921ADDAY171031AY231031GF108991081001012501021999MA1999999098001MD1710561+9999MW1711OA149903601REMSYN088AAXX  12214 04390 41620 80443 11010 21010 39800 49892 57056 77173 8802/ 333 91170 91070;
0205043900999992000101300004+60030-043110FM-12+0019BGPC V0200201N023610120019N0010001N1-00091+99999098441ADDAA112003091AY171061AY271061GF108991081001012501021999MA1999999097531MD1710471+9999MW1711OA149903911REMSYN094AAXX  13004 04390 11610 80246 11009 21008 39753 49844 57047 60032 77177 8802/ 333 91176 91068;
0188043900999992000101303004+60030-043110FM-12+0019BGPC V0200301N021610150019N0010001N1-00061-00061098051ADDAY171031AY271031GF108991081001017501021999MA1999999097141MD1710391+9999MW1711OA149903961REMSYN088AAXX  13034 04390 41710 80342 11006 21006 39714 49805 57039 77177 8802/ 333 91177 91063;
0249043900999992000101306004+60030-043110FM-12+0019BGPC V0200201N019010120019N0020001N1-00041-00041097691ADDAA112009991AY171061AY271061GF108991081001012501021999KA1120M+00091KA2120N-00111MA1999999096791MD1710351+9999MW1731OA149903961REMSYN112AAXX  13064 04390 11620 80237 11004 21004 39679 49769 57035 60102 77377 8802/ 333 10009 21011 91177 91068 91251;
0194043900999992000101309004+60030-043110FM-12+0019BGPC V0203601N012310120019N0005001N1-00031-00031097721ADDAY171031AY271031GF108991081001012501021999MA1999999096821MD1210031+9999MW1711OA149903501REMSYN094AAXX  13094 04390 41605 83624 11003 21003 39682 49772 52003 77177 8802/ 333 91168 91046 91240;
0205043900999992000101312004+60030-043110FM-12+0019BGPC V0203201N007710042019N0020001N1+00011-00011097971ADDAA106000791AY171061AY271061GF108991081071004501999999MA1999999097071MD1210251+9999MW1711OA149903501REMSYN094AAXX  13124 04390 11420 83215 10001 21001 39707 49797 52025 69901 77177 887// 333 91168 91240;
0171043900999992000101315004+60030-043110FM-12+0019BGPC V0203201N004610042019N0030001N1-00011-00031098251ADDAY171031AY271031GF108991081071004501999999MA1999999097341MD1210271+9999MW1681REMSYN082AAXX  13154 04390 41430 83209 11001 21003 39734 49825 52027 76877 887// 333 91128;
0226043900999992000101318004+60030-043110FM-12+0019BGPC V0202801N005110120019N0200001N1+00121+00091098401ADDAA112002091AY181061AY221061GF108991081001012501021999KA1120M+00261KA2120N-00041MA1999999097501MD1210161+9999MW1001REMSYN100AAXX  13184 04390 11670 82810 10012 20009 39750 49840 52016 60022 70082 8802/ 333 10026 21004 91128;
0171043900999992000101321004+60030-043110FM-12+0019BGPC V0202601N001010042019N0050001N1+00181+00071098621ADDAY171031AY271031GF108991081071004501999999MA1999999097721MD1210221+9999MW1681REMSYN082AAXX  13214 04390 41450 82602 10018 20007 39772 49862 52022 76877 887// 333 90000;
0154043900999992000101400004+60030-043110FM-12+0019BGPC V0202301N003610120019N0100001N1+00251+00111098711ADDAA199000021GF108991081001012501021999MA1999999097811MD1210091+9999REMSYN076AAXX  14004 04390 32660 82307 10025 20011 39781 49871 52009 8802/ 333 90000;
0171043900999992000101403004+60030-043110FM-12+0019BGPC V0200301N003610075019N0010001N1-00021-00021098951ADDAY171031AY271031GF108991081071008001999999MA1999999098041MD1210231+9999MW1711REMSYN082AAXX  14034 04390 41510 80307 11002 21002 39804 49895 52023 77177 887// 333 91117;
0149043900999992000101406004+60030-043110FM-12+0019BGPC V0200401N002619999999N9999999N1-00051-00051099031ADDKA1120M+00271KA2120N-00061MA1999999098111MD1210071+9999REMSYN082AAXX  14064 04390 46/// /0405 11005 21005 39811 49903 52007 333 10027 21006 91117;
0161043900999992000101409004+60030-043110FM-12+0019BGPC V0202801N001510120019N0100001N1-00041-00041099071ADDAY171031AY271031GF108991081051012501999999MA1999999098151MD1210041+9999MW1701REMSYN072AAXX  14094 04390 41660 82803 11004 21004 39815 49907 52004 77077 885//;
0188043900999992000101412004+60030-043110FM-12+0019BGPC V0202901N001510075019N0200001N1+00091-00031099151ADDAA106002091AY181061AY221061GF107991071051008001999999MA1999999098241MD1210091+9999MW1701REMSYN088AAXX  14124 04390 11570 72903 10009 21003 39824 49915 52009 60021 77082 875// 333 90000;
0143043900999992000101415004+60030-043110FM-12+0019BGPC V0203001N004619999999N0300001N1+00131+00031099171ADDGF108991081001999999011999MA1999999098261MD1210021+9999REMSYN076AAXX  14154 04390 42980 83009 10013 20003 39826 49917 52002 8801/ 333 90000;
0192043900999992000101418004+60030-043110FM-12+0019BGPC V0202901N004110075019N0150001N1+00201+00001099151ADDAA199000021GF108991081051008001999999KA1120M+00261KA2120N-00061MA1999999098241MD1710021+9999REMSYN088AAXX  14184 04390 32565 82908 10020 20000 39824 49915 57002 885// 333 10026 21006 90000;
0133043900999992000101421004+60030-043110FM-12+0019BGPC V0203001N004110120019N0150001N1+00161+00061099241ADDGF108991081051012501999999MA1999999098331MD1210091+9999REMSYN066AAXX  14214 04390 42665 83008 10016 20006 39833 49924 52009 885//;
0144043900999992000101500004+60030-043110FM-12+0019BGPC V0202801N005110150019N0150001N1+00241-00041099251ADDAA199000021GF108991081001017501021999MA1999999098341MD1210011+9999REMSYN066AAXX  15004 04390 32765 82810 10024 21004 39834 49925 52001 8802/;
0133043900999992000101503004+60030-043110FM-12+0019BGPC V0202801N009810120019N0200001N1+00261-00071099211ADDGF108991081001012501021999MA1999999098301MD1710041+9999REMSYN066AAXX  15034 04390 42670 82819 10026 21007 39830 49921 57004 8802/;
0228043900999992000101506004+60030-043110FM-12+0019BGPC V0203401N000510120019N0050001N1+00051+00051099321ADDAA199000091GF108991081001012501021999KA1120M+00331KA2120N+00041MA1999999098411MD1210111+9999OA149900981REMSYN094AAXX  15064 04390 32650 83401 10005 20005 39841 49932 52011 8802/ 333 10033 20004 91119 91221;EQDQ01  00002PRCP99
0161043900999992000101509004+60030-043110FM-12+0019BGPC V0203501N000510042019N0050001N1+00041+00031099441ADDAY171031AY271031GF108991081071004501999999MA1999999098521MD1210111+9999MW1681REMSYN072AAXX  15094 04390 41450 83501 10004 20003 39852 49944 52011 76877 887//;
0178043900999992000101512004+60030-043110FM-12+0019BGPC V0200101N003110012019N0100001N1+00091+00001099551ADDAA106000791AY171061AY271061GF108991081071001501999999MA1999999098631MD1210111+9999MW1701REMSYN078AAXX  15124 04390 11260 80106 10009 20000 39863 49955 52011 69901 77077 887//;
0161043900999992000101515004+60030-043110FM-12+0019BGPC V0202801N003110120019N0200001N1+00111+00071099631ADDAY121031AY221031GF108991081001012501021999MA1999999098711MD1210081+9999MW1701REMSYN072AAXX  15154 04390 41670 82806 10011 20007 39871 49963 52008 77022 8802/;
0220043900999992000101518004+60030-043110FM-12+0019BGPC V0202901N004610150019N0250001N1+00241-00041099541ADDAA112001091AY181061AY221061GF108991081001017501021999KA1120M+00301KA2999N+00031MA1999999098631MD1710081+9999MW1001REMSYN094AAXX  15184 04390 11775 82909 10024 21004 39863 49954 57008 60012 70082 8802/ 333 10030 20003;
0133043900999992000101521004+60030-043110FM-12+0019BGPC V0202901N003610150019N0150001N1+00111+00041099581ADDGF108991081001017501021999MA1999999098671MD1210041+9999REMSYN066AAXX  15214 04390 42765 82907 10011 20004 39867 49958 52004 8802/;
0144043900999992000101600004+60030-043110FM-12+0019BGPC V0203001N004610150019N0150001N1+00121+00011099521ADDAA199000021GF108991081001017501021999MA1999999098611MD1710061+9999REMSYN066AAXX  16004 04390 32765 83009 10012 20001 39861 49952 57006 8802/;
0133043900999992000101603004+60030-043110FM-12+0019BGPC V0203301N003610150019N0150001N1+00161-00061099441ADDGF108991081001017501021999MA1999999098531MD1710081+9999REMSYN066AAXX  16034 04390 42765 83307 10016 21006 39853 49944 57008 8802/;
0205043900999992000101606004+60030-043110FM-12+0019BGPC V0200201N004110750019N0100001N1+00221-00431099241ADDAA199000091GF108991021001017501021071KA1120M+00271KA2999N+00081MA1999999098331MD1710201+9999REMSYN082AAXX  16064 04390 32760 80208 10022 21043 39833 49924 57020 82027 333 10027 20008;EQDQ01  00002PRCP99
0160043900999992000101609004+60030-043110FM-12+0019BGPC V0200301N007710042019N0050001N1+00261-00441099111ADDGF108991081071004501999999MA1999999098201MD1710131+9999OA149901391REMSYN082AAXX  16094 04390 42450 80315 10026 21044 39820 49911 57013 887// 333 91127 91027;
0205043900999992000101612004+60030-043110FM-12+0019BGPC V0203401N007710042019N0050001N1+00111-00081098991ADDAA106000791AY171061AY221061GF108991081071004501999999MA1999999098081MD1710121+9999MW1711OA149901851REMSYN094AAXX  16124 04390 11450 83415 10011 21008 39808 49899 57012 69901 77172 887// 333 91136 91225;
0171043900999992000101615004+60030-043110FM-12+0019BGPC V0203301N008210042019N0020001N1+00051+00051098801ADDAY171031AY271031GF108991081071004501999999MA1999999097891MD1710191+9999MW1731REMSYN082AAXX  16154 04390 41420 83316 10005 20005 39789 49880 57019 77377 887// 333 91127;
0226043900999992000101618004+60030-043110FM-12+0019BGPC V0203301N009810021019N0050001N1+00111+00081098741ADDAA112002091AY171061AY271061GF108991081071002501999999KA1120M+00291KA2120N+00001MA1999999097831MD1710061+9999MW1691REMSYN100AAXX  16184 04390 11350 83319 10011 20008 39783 49874 57006 60022 76977 887// 333 10029 20000 91130;
0188043900999992000101621004+60030-043110FM-12+0019BGPC V0203401N011310042019N0050001N1+00241-00121098861ADDAY161031AY261031GF108991081071004501999999MA1999999097961MD1210131+9999MW1611OA149902061REMSYN088AAXX  16214 04390 41450 83422 10024 21012 39796 49886 52013 76166 887// 333 91140 91037;
0205043900999992000101700004+60030-043110FM-12+0019BGPC V0203401N007210150019N0100001N1+00331-00371098901ADDAA106000791AY161061AY221061GF107991071001017501021999MA1999999098001MD1210041+9999MW1001OA149902111REMSYN094AAXX  17004 04390 11760 73414 10033 21037 39800 49890 52004 69901 70062 8702/ 333 91141 91225;
0143043900999992000101703004+60030-043110FM-12+0019BGPC V0203101N006712200019N0250001N1+00341-00501098871ADDGF101991011011017501999999MA1999999097971MD1710031+9999REMSYN076AAXX  17034 04390 42775 13113 10034 21050 39797 49887 57003 811// 333 91131;
0209043900999992000101706004+60030-043110FM-12+0019BGPC V0203001N003612200019N0300001N1+00171-00501098921ADDAA199000021GF102991021001999999071001KA1120M+00411KA2120N+00111MA1999999098011MD1210041+9999OA149901601REMSYN094AAXX  17064 04390 32980 23007 10017 21050 39801 49892 52004 82070 333 10041 20011 91131 91220;
0133043900999992000101709004+60030-043110FM-12+0019BGPC V0202901N004612200019N0500001N1+00271-00671098901ADDGF102991001001999999001061MA1999999098001MD1710011+9999REMSYN066AAXX  17094 04390 42984 22909 10027 21067 39800 49890 57001 80006;
0163043900999992000101712004+60030-043110FM-12+0019BGPC V0202401N003612200019N0500001N1+00301-00611098951ADDAA199000091GF102991001001999999001061MA1999999098051MD1210051+9999REMSYN066AAXX  17124 04390 32984 22407 10030 21061 39805 49895 52005 80006;EQDQ01  00002PRCP99
0133043900999992000101715004+60030-043110FM-12+0019BGPC V0202601N002612200019N0500001N1+00441-00571098951ADDGF102991001001999999001061MA1999999098051MD1410001+9999REMSYN066AAXX  17154 04390 42984 22605 10044 21057 39805 49895 54000 80006;
0205043900999992000101718004+60030-043110FM-12+0019BGPC V0209999C000012200019N0250001N1+00381-00591099061ADDAA199000091GF104991001001999999001061KA1120M+00501KA2999N+00121MA1999999098161MD1210111+9999REMSYN082AAXX  17184 04390 32975 40000 10038 21059 39816 49906 52011 80006 333 10050 20012;EQDQ01  00002PRCP99
0143043900999992000101721004+60030-043110FM-12+0019BGPC V0202401N004612200019N0600001N1+00141-00371099211ADDGA1001+999999999GF100991001001999999001001MA1999999098301MD1210141+9999REMSYN060AAXX  17214 04390 42986 02409 10014 21037 39830 49921 52014;
0163043900999992000101800004+60030-043110FM-12+0019BGPC V0203001N006212200019N0200001N1+00111-00391099331ADDAA199000091GF102991021001999999071999MA1999999098421MD1210121+9999REMSYN066AAXX  18004 04390 32970 23012 10011 21039 39842 49933 52012 8207/;EQDQ01  00002PRCP99
0133043900999992000101803004+60030-043110FM-12+0019BGPC V0202901N002112200019N0250001N1-00081-00111099441ADDGF103991031001022501071999MA1999999098521MD1210101+9999REMSYN066AAXX  18034 04390 42875 32904 11008 21011 39852 49944 52010 8307/;
0215043900999992000101806004+60030-043110FM-12+0019BGPC V0202501N003112200019N0150001N1-00031-00491099441ADDAA199000091GA1001+999999999GF100991001001999999001001KA1120M+00441KA2999N-00111MA1999999098521MD1410001+9999REMSYN076AAXX  18064 04390 32965 02506 11003 21049 39852 49944 54000 333 10044 21011;EQDQ01  00002PRCP99
0173043900999992000101809004+60030-043110FM-12+0019BGPC V0202701N004612200019N0500001N1-00021-00541099461ADDAA199000091GA1001+999999999GF100991001001999999001001MA1999999098541MD1210021+9999REMSYN060AAXX  18094 04390 32984 02709 11002 21054 39854 49946 52002;EQDQ01  00002PRCP99
0183043900999992000101812004+60030-043110FM-12+0019BGPC V0202901N007712200019N0500001N1+00051-00531099421ADDAA199000091GA1001+999999999GF100991001001999999001001MA1999999098501MD1710041+9999REMSYN070AAXX  18124 04390 32984 02915 10005 21053 39850 49942 57004 333 91125;EQDQ01  00002PRCP99
0153043900999992000101815004+60030-043110FM-12+0019BGPC V0203001N005112200019N0500001N1+00171-00541099331ADDGA1001+999999999GF100991001001999999001001MA1999999098421MD1710081+9999REMSYN070AAXX  18154 04390 42984 03010 10017 21054 39842 49933 57008 333 90000;
0221043900999992000101818004+60030-043110FM-12+0019BGPC V0202801N006712200019N0250001N1+00241-00631099241ADDAA199000091GA1001+999999999GF100991001001999999001001KA1120M+00271KA2120N-00071MA1999999098331MD1710091+9999REMSYN082AAXX  18184 04390 32975 02813 10024 21063 39833 49924 57009 333 10027 21007 90000;EQDQ01  00002PRCP99
0153043900999992000101821004+60030-043110FM-12+0019BGPC V0202901N010312200019N0500001N1+00171-00681099141ADDGA1001+999999999GF100991001001999999001001MA1999999098231MD1710101+9999REMSYN070AAXX  18214 04390 42984 02920 10017 21068 39823 49914 57010 333 91131;
0200043900999992000101900004+60030-043110FM-12+0019BGPC V0202901N010312200019N0200001N1+00151-00701099111ADDAA199000091GA1001+999999999GF100991001001999999001001MA1999999098201MD1710031+9999OA149901751REMSYN076AAXX  19004 04390 32970 02920 10015 21070 39820 49911 57003 333 91134 91033;EQDQ01  00002PRCP99
0153043900999992000101903004+60030-043110FM-12+0019BGPC V0202901N009812200019N0250001N1+00171-00791099111ADDGA1001+999999999GF100991001001999999001001MA1999999098201MD1410001+9999REMSYN070AAXX  19034 04390 42975 02919 10017 21079 39820 49911 54000 333 91135;
0238043900999992000101906004+60030-043110FM-12+0019BGPC V0200401N001012200019N9999999N1-00041-00211099401ADDAA199000091GA1001+999999999GF100991001001999999001001KA1120M+00271KA2120N-00071MA1999999098481MD1210281+9999OA149901801REMSYN088AAXX  19064 04390 329// 00402 11004 21021 39848 49940 52028 333 10027 21007 91135 91225;EQDQ01  00002PRCP99
0153043900999992000101909004+60030-043110FM-12+0019BGPC V0202501N003612200019N0500001N1+00041-00711099631ADDGA1001+999999999GF100991001001999999001001MA1999999098711MD1210231+9999REMSYN070AAXX  19094 04390 42984 02507 10004 21071 39871 49963 52023 333 90000;
0189043900999992000101912004+60030-043110FM-12+0019BGPC V0202901N004112200019N0500001N1+00111-00671099751ADDAA199000091GA1001+999999999GF100991001001999999001001MA1999999098831MD1210121+9999REMSYN076AAXX  19124 04390 32984 02908 10011 21067 39883 49975 52012 333 90000 90000;EQDQ01  00002PRCP99
0153043900999992000101915004+60030-043110FM-12+0019BGPC V0202901N003112200019N0250001N1+00171-00611099871ADDGA1001+999999999GF100991001001999999001001MA1999999098951MD1210121+9999REMSYN070AAXX  19154 04390 42975 02906 10017 21061 39895 49987 52012 333 90000;
0221043900999992000101918004+60030-043110FM-12+0019BGPC V0202601N003612200019N9999999N1+00201-00711099971ADDAA199000091GA1001+999999999GF100991001001999999001001KA1120M+00271KA2120N-00131MA1999999099051MD1210101+9999REMSYN082AAXX  19184 04390 329// 02607 10020 21071 39905 49997 52010 333 10027 21013 90000;EQDQ01  00002PRCP99
0153043900999992000101921004+60030-043110FM-12+0019BGPC V0202801N005112200019N0500001N1+00101-00651100091ADDGA1001+999999999GF100991001001999999001001MA1999999099171MD1210121+9999REMSYN070AAXX  19214 04390 42984 02810 10010 21065 39917 40009 52012 333 90000;
0183043900999992000102000004+60030-043110FM-12+0019BGPC V0203001N004112200019N0200001N1+00091-00661100261ADDAA199000091GA1001+999999999GF100991001001999999001001MA1999999099341MD1210171+9999REMSYN070AAXX  20004 04390 32970 03008 10009 21066 39934 40026 52017 333 90000;EQDQ01  00002PRCP99
0143043900999992000102003004+60030-043110FM-12+0019BGPC V0203001N002112200019N0250001N1-00061-00631100321ADDGA1001+999999999GF100991001001999999001001MA1999999099391MD1210051+9999REMSYN060AAXX  20034 04390 42975 03004 11006 21063 39939 40032 52005;
0215043900999992000102006004+60030-043110FM-12+0019BGPC V0202901N001512200019N9999999N1-00101-00611100361ADDAA199000091GA1001+999999999GF100991001001999999001001KA1120M+00241KA2999N-00151MA1999999099431MD1210041+9999REMSYN076AAXX  20064 04390 329// 02903 11010 21061 39943 40036 52004 333 10024 21015;EQDQ01  00002PRCP99
0143043900999992000102009004+60030-043110FM-12+0019BGPC V0202801N001512200019N0500001N1-00111-00621100421ADDGA1001+999999999GF100991001001999999001001MA1999999099491MD1210061+9999REMSYN060AAXX  20094 04390 42984 02803 11011 21062 39949 40042 52006;
0163043900999992000102012004+60030-043110FM-12+0019BGPC V0202901N000512200019N0500001N1-00011-00551100441ADDAA199000091GF103991001001999999001051MA1999999099511MD1210021+9999REMSYN066AAXX  20124 04390 32984 32901 11001 21055 39951 40044 52002 80005;EQDQ01  00002PRCP99
0205043900999992000102018004+60030-043110FM-12+0019BGPC V0200101N005110075019N0200001N1+00091-00271100331ADDAA199000091GF108991061051008001001071KA1120M+00311KA2999N-00161MA1999999099411MD1710091+9999REMSYN082AAXX  20184 04390 32570 80110 10009 21027 39941 40033 57009 86507 333 10031 21016;EQDQ01  00002PRCP99
0143043900999992000102021004+60030-043110FM-12+0019BGPC V0200301N009319999999N0250001N1+00121-00201100261ADDGF107991071001999999071999MA1999999099341MD1710071+9999REMSYN076AAXX  20214 04390 42975 70318 10012 21020 39934 40026 57007 8707/ 333 91125;
0190043900999992000102100004+60030-043110FM-12+0019BGPC V0200301N012310075019N0100001N1+00141-00241100081ADDAA199000091GF108991081051008001999999MA1999999099161MD1710181+9999OA149901851REMSYN082AAXX  21004 04390 32560 80324 10014 21024 39916 40008 57018 885// 333 91136 91035;EQDQ01  00002PRCP99
0188043900999992000102103004+60030-043110FM-12+0019BGPC V0200301N014910042019N0010001N1+00181+00001099891ADDAY171031AY221031GF108991081071004501999999MA1999999098971MD1710191+9999MW1711OA149902371REMSYN088AAXX  21034 04390 41410 80329 10018 20000 39897 49989 57019 77172 887// 333 91146 91044;
0243043900999992000102106004+60030-043110FM-12+0019BGPC V0200301N015910042019N0050001N1+00171-00021099731ADDAA112000791AY171061AY221061GF108991081071004501999999KA1120M+00241KA2120N+00081MA1999999098821MD1710151+9999MW1001OA149902831REMSYN106AAXX  21064 04390 11450 80331 10017 21002 39882 49973 57015 69902 70072 887// 333 10024 20008 91155 91046;
0166043900999992000102109004+60030-043110FM-12+0019BGPC V0203501N014419999999N0500001N1+00221-00501099771ADDGF106991061001999999071999MA1999999098861MD1210041+9999OA149902931REMSYN088AAXX  21094 04390 42984 63528 10022 21050 39886 49977 52004 8607/ 333 91157 91046 91239;
0177043900999992000102112004+60030-043110FM-12+0019BGPC V0200301N012910210019N0250001N1+00311-00271099881ADDAA199000021GF107991071001022501071999MA1999999098971MD1210111+9999OA149902931REMSYN088AAXX  21124 04390 32875 70325 10031 21027 39897 49988 52011 8707/ 333 91157 91042 91239;
0160043900999992000102115004+60030-043110FM-12+0019BGPC V0200101N010810210019N0500001N1+00261-00331099991ADDGF106991061001022501051999MA1999999099081MD1210111+9999OA149902161REMSYN082AAXX  21154 04390 42884 60121 10026 21033 39908 49999 52011 8605/ 333 91142 91034;
0228043900999992000102118004+60030-043110FM-12+0019BGPC V0200301N008712200019N0500001N1+00261-00421100161ADDAA199000091GF104991041001999999031999KA1120M+00351KA2120N+00141MA1999999099241MD1210161+9999OA149902161REMSYN094AAXX  21184 04390 32984 40317 10026 21042 39924 40016 52016 8403/ 333 10035 20014 91142 91229;EQDQ01  00002PRCP99
0143043900999992000102121004+60030-043110FM-12+0019BGPC V0200301N011312200019N0500001N1+00271-00431100381ADDGF102991021001999999041999MA1999999099461MD1210221+9999REMSYN076AAXX  21214 04390 42984 20322 10027 21043 39946 40038 52022 8204/ 333 91134;
0200043900999992000102200004+60030-043110FM-12+0019BGPC V0200401N007212200019N0250001N1+00271-00431100541ADDAA199000091GA1001+999999999GF100991001001999999001001MA1999999099621MD1210161+9999OA149901801REMSYN076AAXX  22004 04390 32975 00414 10027 21043 39962 40054 52016 333 91135 91024;EQDQ01  00002PRCP99
0170043900999992000102203004+60030-043110FM-12+0019BGPC V0203201N001512200019N0250001N1+00061-00421100681ADDGA1001+999999999GF100991001001999999001001MA1999999099751MD1210131+9999OA149901391REMSYN076AAXX  22034 04390 42975 03203 10006 21042 39975 40068 52013 333 91127 91215;
0228043900999992000102206004+60030-043110FM-12+0019BGPC V0203201N001519999999N0050001N1+00151-00401100721ADDAA199000091GF106991001001999999001071KA1120M+00321KA2120N+00021MA1999999099801MD1210051+9999OA149901391REMSYN094AAXX  22064 04390 32950 63203 10015 21040 39980 40072 52005 80007 333 10032 20002 91127 91215;EQDQ01  00002PRCP99
0133043900999992000102209004+60030-043110FM-12+0019BGPC V0203001N001510150019N0500001N1+00121-00371100801ADDGF108991081001017501021999MA1999999099871MD1210071+9999REMSYN066AAXX  22094 04390 42784 83003 10012 21037 39987 40080 52007 8802/;
0173043900999992000102212004+60030-043110FM-12+0019BGPC V0203601N002610210019N0250001N1+00221-00481100891ADDAA199000091GF108991081001022501021999MA1999999099971MD1210101+9999REMSYN076AAXX  22124 04390 32875 83605 10022 21048 39997 40089 52010 8802/ 333 90000;EQDQ01  00002PRCP99
0143043900999992000102215004+60030-043110FM-12+0019BGPC V0203201N001010210019N0300001N1+00191-00341100931ADDGF108991081001022501021999MA1999999100011MD1210041+9999REMSYN076AAXX  22154 04390 42880 83202 10019 21034 30001 40093 52004 8802/ 333 90000;
0211043900999992000102218004+60030-043110FM-12+0019BGPC V0200201N001510210019N0250001N1+00311-00471100931ADDAA199000091GF108991081001022501021999KA1120M+00351KA2120N+00081MA1999999100011MD1410001+9999REMSYN088AAXX  22184 04390 32875 80203 10031 21047 30001 40093 54000 8802/ 333 10035 20008 90000;EQDQ01  00002PRCP99
0133043900999992000102221004+60030-043110FM-12+0019BGPC V0203501N000510150019N0200001N1+00241-00481101021ADDGF108991081001017501021999MA1999999100101MD1210091+9999REMSYN066AAXX  22214 04390 42770 83501 10024 21048 30010 40102 52009 8802/;
0173043900999992000102300004+60030-043110FM-12+0019BGPC V0200501N001510075019N0200001N1+00191-00551101021ADDAA199000091GF108991081051008001999999MA1999999100091MD1710011+9999REMSYN076AAXX  23004 04390 32570 80503 10019 21055 30009 40102 57001 885// 333 90000;EQDQ01  00002PRCP99
0133043900999992000102303004+60030-043110FM-12+0019BGPC V0203501N002110042019N0100001N1+00131-00521100921ADDGF108991081051004501999999MA1999999099991MD1710101+9999REMSYN066AAXX  23034 04390 42460 83504 10013 21052 39999 40092 57010 885//;
0226043900999992000102306004+60030-043110FM-12+0019BGPC V0200101N003110042019N0020001N1-00021-00121100831ADDAA112000791AY171061AY221061GF108991081071004501999999KA1120M+00311KA2120N-00041MA1999999099901MD1710091+9999MW1711REMSYN100AAXX  23064 04390 11420 80106 11002 21012 39990 40083 57009 69902 77172 887// 333 10031 21004 90000;
0161043900999992000102309004+60030-043110FM-12+0019BGPC V0200301N006210021019N0010001N1-00131-00131100651ADDAY171031AY271031GF108991081071002501999999MA1999999099721MD1710181+9999MW1731REMSYN072AAXX  23094 04390 41310 80312 11013 21013 39972 40065 57018 77377 887//;
0171043900999992000102315004+60030-043110FM-12+0019BGPC V0200201N008710021019N0010001N1-00041-00041100311ADDAY171031AY271031GF108991081071002501999999MA1999999099381MD1710181+9999MW1731REMSYN082AAXX  23154 04390 41310 80217 11004 21004 39938 40031 57018 77377 887// 333 91127;
0226043900999992000102318004+60030-043110FM-12+0019BGPC V0203101N004110021019N0020001N1-00031-00031100231ADDAA112006191AY171061AY271061GF108991081071002501999999KA1120M+00051KA2120N-00161MA1999999099301MD1710081+9999MW1711REMSYN100AAXX  23184 04390 11320 83108 11003 21003 39930 40023 57008 60062 77177 887// 333 10005 21016 91128;
0161043900999992000102321004+60030-043110FM-12+0019BGPC V0202801N002610075019N0020001N1-00021-00021100291ADDAY171031AY271031GF108991081051008001999999MA1999999099361MD1210061+9999MW1701REMSYN072AAXX  23214 04390 41520 82805 11002 21002 39936 40029 52006 77077 885//;
0188043900999992000102400004+60030-043110FM-12+0019BGPC V0202901N002610075019N0020001N1-00031-00031100341ADDAA106000591AY171061AY271061GF108991081051008001999999MA1999999099411MD1210051+9999MW1701REMSYN088AAXX  24004 04390 11520 82905 11003 21003 39941 40034 52005 69951 77077 885// 333 90000;
0161043900999992000102403004+60030-043110FM-12+0019BGPC V0202601N002610120019N0100001N1-00031-00061100281ADDAY171031AY221031GF108991081001012501021999MA1999999099351MD1710061+9999MW1001REMSYN072AAXX  24034 04390 41660 82605 11003 21006 39935 40028 57006 70072 8802/;
0220043900999992000102406004+60030-043110FM-12+0019BGPC V0203001N001010150019N0020001N1-00061-00071100201ADDAA112000591AY171061AY271061GF108991081001017501021999KA1120M+00011KA2999N-00071MA1999999099271MD1710081+9999MW1711REMSYN094AAXX  24064 04390 11720 83002 11006 21007 39927 40020 57008 69952 77177 8802/ 333 10001 21007;
0161043900999992000102409004+60030-043110FM-12+0019BGPC V0202801N001010120019N0020001N1-00111-00111100141ADDAY171031AY271031GF108991081001012501021999MA1999999099211MD1710061+9999MW1711REMSYN072AAXX  24094 04390 41620 82802 11011 21011 39921 40014 57006 77177 8802/;
0178043900999992000102412004+60030-043110FM-12+0019BGPC V0202201N002110042019N0050001N1-00121-00131100031ADDAA106000891AY171061AY271061GF108991081071004501999999MA1999999099101MD1710111+9999MW1711REMSYN078AAXX  24124 04390 11450 82204 11012 21013 39910 40003 57011 69971 77177 887//;
0133043900999992000102415004+60030-043110FM-12+0019BGPC V0202401N003110012019N0100001N1-00101-00151099861ADDGF107991071061001501999999MA1999999098941MD1710161+9999REMSYN066AAXX  24154 04390 42260 72406 11010 21015 39894 49986 57016 876//;
0226043900999992000102418004+60030-043110FM-12+0019BGPC V0203001N002610012019N0100001N1-00111-00161099751ADDAA112000791AY171061AY271061GF108991081061001501999999KA1120M-00031KA2120N-00141MA1999999098831MD1710111+9999MW1701REMSYN100AAXX  24184 04390 11260 83005 11011 21016 39883 49975 57011 69902 77077 886// 333 11003 21014 90000;
0161043900999992000102421004+60030-043110FM-12+0019BGPC V0203401N001010042019N0020001N1-00101-00101099761ADDAY171031AY271031GF108991081051004501999999MA1999999098841MD1210011+9999MW1711REMSYN072AAXX  24214 04390 41420 83402 11010 21010 39884 49976 52001 77177 885//;
0188043900999992000102500004+60030-043110FM-12+0019BGPC V0200201N002110021019N0010001N1-00101-00101099811ADDAA106003091AY171061AY271061GF108991081071002501999999MA1999999098891MD1210051+9999MW1731REMSYN088AAXX  25004 04390 11310 80204 11010 21010 39889 49981 52005 60031 77377 887// 333 90000;
0161043900999992000102503004+60030-043110FM-12+0019BGPC V0203201N001010042019N0100001N1-00081-00081099851ADDAY171031AY271031GF108991081071004501999999MA1999999098931MD1210041+9999MW1711REMSYN072AAXX  25034 04390 41460 83202 11008 21008 39893 49985 52004 77177 887//;
0220043900999992000102506004+60030-043110FM-12+0019BGPC V0200101N001010120019N0020001N1-00081-00081099811ADDAA112004191AY171061AY271061GF108991081051012501999999KA1120M-00061KA2999N-00121MA1999999098891MD1710041+9999MW1711REMSYN094AAXX  25064 04390 11620 80102 11008 21008 39889 49981 57004 60042 77177 885// 333 11006 21012;
0161043900999992000102509004+60030-043110FM-12+0019BGPC V0200201N001010042019N0050001N1-00071-00071099831ADDAY171031AY271031GF108991081051004501999999MA1999999098911MD1210021+9999MW1711REMSYN072AAXX  25094 04390 41450 80202 11007 21007 39891 49983 52002 77177 885//;
0178043900999992000102512004+60030-043110FM-12+0019BGPC V0200301N006710042019N0020001N1-00091-00091099861ADDAA106001091AY171061AY271061GF108991081071004501999999MA1999999098941MD1210031+9999MW1711REMSYN078AAXX  25124 04390 11420 80313 11009 21009 39894 49986 52003 60011 77177 887//;
0188043900999992000102515004+60030-043110FM-12+0019BGPC V0200201N007710042019N0030001N1-00091-00131099761ADDAY171031AY271031GF108991081071004501999999MA1999999098841MD1710101+9999MW1711OA149901291REMSYN088AAXX  25154 04390 41430 80215 11009 21013 39884 49976 57010 77177 887// 333 91125 91025;
0226043900999992000102518004+60030-043110FM-12+0019BGPC V0200301N007710120019N0050001N1-00071-00111099591ADDAA112001091AY171061AY271061GF108991081071012501999999KA1120M-00031KA2120N-00131MA1999999098671MD1710171+9999MW1711REMSYN100AAXX  25184 04390 11650 80315 11007 21011 39867 49959 57017 60012 77177 887// 333 11003 21013 91125;
0171043900999992000102521004+60030-043110FM-12+0019BGPC V0200301N010310042019N0010001N1-00081-00091099411ADDAY171031AY271031GF108991081071004501999999MA1999999098491MD1710181+9999MW1731REMSYN082AAXX  25214 04390 41410 80320 11008 21009 39849 49941 57018 77377 887// 333 91133;
0205043900999992000102600004+60030-043110FM-12+0019BGPC V0200201N010310021019N0010001N1-00031-00041099201ADDAA106001091AY171061AY271061GF108991081071002501999999MA1999999098281MD1710211+9999MW1731OA149901751REMSYN094AAXX  26004 04390 11310 80220 11003 21004 39828 49920 57021 69991 77377 887// 333 91134 91031;
0171043900999992000102603004+60030-043110FM-12+0019BGPC V0203401N007710042019N0020001N1-00031-00031098891ADDAY171031AY271031GF108991081071004501999999MA1999999097981MD1710301+9999MW1711REMSYN082AAXX  26034 04390 41420 83415 11003 21003 39798 49889 57030 77177 887// 333 91131;
0243043900999992000102606004+60030-043110FM-12+0019BGPC V0200101N009810042019N0010001N1+00051+00051098871ADDAA112002091AY171061AY271061GF108991081071004501999999KA1120M+00091KA2120N-00101MA1999999097961MD1710021+9999MW1681OA149901851REMSYN106AAXX  26064 04390 11410 80119 10005 20005 39796 49887 57002 60022 76877 887// 333 10009 21010 91136 91036;
0160043900999992000102609004+60030-043110FM-12+0019BGPC V0203301N010310021019N0050001N1+00121-00101098871ADDGF108991081071002501999999MA1999999097961MD1410001+9999OA149902161REMSYN082AAXX  26094 04390 42350 83320 10012 21010 39796 49887 54000 887// 333 91142 91034;
0177043900999992000102612004+60030-043110FM-12+0019BGPC V0203601N00511030001CN0400001N1+00131-00251098841ADDAA106000191GF106991021071004501071999MA1999999097931MD1710031+9999OA149902161REMSYN088AAXX  26124 04390 12482 63610 10013 21025 39793 49884 57003 69921 8277/ 333 91142 91228;
0133043900999992000102615004+60030-043110FM-12+0019BGPC V0200301N001012200019N0500001N1+00291-00171098731ADDGF104991021001999999021051MA1999999097831MD1710101+9999REMSYN066AAXX  26154 04390 42984 40302 10029 21017 39783 49873 57010 82025;
0198043900999992000102618004+60030-043110FM-12+0019BGPC V0202101N001012200019N0250001N1+00171-00431098661ADDAA112000191GF104991021001999999071051KA1120M+00391KA2120N+00001MA1999999097761MD1710071+9999REMSYN094AAXX  26184 04390 12975 42102 10017 21043 39776 49866 57007 69922 82075 333 10039 20000 91212;
0133043900999992000102621004+60030-043110FM-12+0019BGPC V0200901N001012200019N0100001N1-00051-00181098661ADDGF102991021001022501071999MA1999999097751MD1710011+9999REMSYN066AAXX  26214 04390 42860 20902 11005 21018 39775 49866 57001 8207/;
0163043900999992000102700004+60030-043110FM-12+0019BGPC V0202901N006212200019N0100001N1+00171-00661098491ADDAA199000091GF102991021001999999071001MA1999999097591MD1710161+9999REMSYN066AAXX  27004 04390 32960 22912 10017 21066 39759 49849 57016 82070;EQDQ01  00002PRCP99
0133043900999992000102703004+60030-043110FM-12+0019BGPC V0202901N007719999999N0200001N1+00231-00681098431ADDGF108991001001999999001071MA1999999097531MD1710061+9999REMSYN066AAXX  27034 04390 42970 82915 10023 21068 39753 49843 57006 80007;
0101043900999992000102709004+60030-043110FM-12+0019BGPC V0202801N006719999999N9999999N1+00231-00031098601ADDMA1999999097701MD1210041+9999REMSYN060AAXX  27094 04390 46/// /2813 10023 21003 39770 49860 52004;
0173043900999992000102712004+60030-043110FM-12+0019BGPC V0202701N007710210019N0250001N1+00321-00221098431ADDAA199000091GF106991061001022501021999MA1999999097531MD1710171+9999REMSYN076AAXX  27124 04390 32875 62715 10032 21022 39753 49843 57017 8602/ 333 91124;EQDQ01  00002PRCP99
0160043900999992000102715004+60030-043110FM-12+0019BGPC V0202801N013412200019N0500001N1+00371-00381098121ADDGF103991021001999999041061MA1999999097231MD1710301+9999OA149901901REMSYN082AAXX  27154 04390 42984 32826 10037 21038 39723 49812 57030 82046 333 91137 91037;
0211043900999992000102718004+60030-043110FM-12+0019BGPC V0202801N011312200019N0500001N1+00351-00591098301ADDAA199000091GF102991001001999999001061KA1120M+00481KA2120N+00091MA1999999097401MD1210171+9999REMSYN088AAXX  27184 04390 32984 22822 10035 21059 39740 49830 52017 80006 333 10048 20009 91144;EQDQ01  00002PRCP99
0153043900999992000102721004+60030-043110FM-12+0019BGPC V0202901N012312200019N9999999N1+00201-00611098301ADDGA1001+999999999GF100991001001999999001001MA1999999097401MD1410001+9999REMSYN070AAXX  27214 04390 429// 02924 10020 21061 39740 49830 54000 333 91136;
0200043900999992000102800004+60030-043110FM-12+0019BGPC V0202901N013412200019N9999999N1+00121-00661098591ADDAA199000091GA1001+999999999GF100991001001999999001001MA1999999097681MD1210281+9999OA149901961REMSYN076AAXX  28004 04390 329// 02926 10012 21066 39768 49859 52028 333 91138 91036;EQDQ01  00002PRCP99
0160043900999992000102803004+60030-043110FM-12+0019BGPC V0202901N007210210019N0100001N1+00101-00591098851ADDGF108991081001022501021999MA1999999097941MD1210261+9999OA149901851REMSYN082AAXX  28034 04390 42860 82914 10010 21059 39794 49885 52026 8802/ 333 91136 91226;
0221043900999992000102806004+60030-043110FM-12+0019BGPC V0202701N008712200019N0100001N1+00011-00741098951ADDAA199000091GA1001+999999999GF100991001001999999001001KA1120M+00371KA2120N-00021MA1999999098041MD1210101+9999REMSYN082AAXX  28064 04390 32960 02717 10001 21074 39804 49895 52010 333 10037 21002 91136;EQDQ01  00002PRCP99
0111043900999992000102809004+60030-043110FM-12+0019BGPC V0202901N008219999999N9999999N1-00041-00731099091ADDMA1999999098171MD1210131+9999REMSYN070AAXX  28094 04390 46/// /2916 11004 21073 39817 49909 52013 333 91129;
0173043900999992000102812004+60030-043110FM-12+0019BGPC V0202901N009810150019N0250001N1-00031-00711099261ADDAA199000091GF108991081001017501021999MA1999999098341MD1210171+9999REMSYN076AAXX  28124 04390 32775 82919 11003 21071 39834 49926 52017 8802/ 333 91133;EQDQ01  00002PRCP99
0171043900999992000102815004+60030-043110FM-12+0019BGPC V0202901N006710120019N0040001N1-00101-00181099381ADDAY171031AY221031GF108991081001012501021999MA1999999098461MD1210121+9999MW1711REMSYN082AAXX  28154 04390 41640 82913 11010 21018 39846 49938 52012 77172 8802/ 333 91128;
0226043900999992000102818004+60030-043110FM-12+0019BGPC V0202901N009310012019N0050001N1-00161-00191099491ADDAA112000791AY171061AY271061GF108991081001001501021999KA1120M+00051KA2120N-00201MA1999999098571MD1210111+9999MW1711REMSYN100AAXX  28184 04390 11250 82918 11016 21019 39857 49949 52011 69902 77177 8802/ 333 10005 21020 91128;
0171043900999992000102821004+60030-043110FM-12+0019BGPC V0202901N009810120019N0020001N1-00111-00181099671ADDAY171031AY271031GF108991081001012501021999MA1999999098751MD1210181+9999MW1711REMSYN082AAXX  28214 04390 41620 82919 11011 21018 39875 49967 52018 77177 8802/ 333 91128;
0205043900999992000102900004+60030-043110FM-12+0019BGPC V0203201N003110120019N0100001N1+00061+00051099891ADDAA106000591AY171061AY271061GF108991081001012501021999MA1999999098971MD1210221+9999MW1711OA149901601REMSYN094AAXX  29004 04390 11660 83206 10006 20005 39897 49989 52022 69941 77177 8802/ 333 91131 91221;
0171043900999992000102903004+60030-043110FM-12+0019BGPC V0203101N006710120019N0050001N1-00021-00021100051ADDAY171031AY271031GF108991081001012501021999MA1999999099131MD1210161+9999MW1711REMSYN082AAXX  29034 04390 41650 83113 11002 21002 39913 40005 52016 77177 8802/ 333 91123;
0215043900999992000102906004+60030-043110FM-12+0019BGPC V0203301N003612200019N0100001N1+00151-00041100391ADDAA112000591GF104991041001022501021999KA1120M+00441KA2120N-00181MA1999999099471MD1210341+9999OA149901491REMSYN100AAXX  29064 04390 12860 43307 10015 21004 39947 40039 52034 69942 8402/ 333 10044 21018 91129 91220;
0160043900999992000102909004+60030-043110FM-12+0019BGPC V0202801N001512200019N0200001N1+00311-00171100741ADDGF102991021001999999071001MA1999999099821MD1210351+9999OA149901601REMSYN082AAXX  29094 04390 42970 22803 10031 21017 39982 40074 52035 82070 333 91131 91219;
0181043900999992000102912004+60030-043110FM-12+0019BGPC V0202801N003112200019N0500001N1+00201-00091100801ADDAA199000021GA1001+999999999GF100991001001999999001001MA1999999099881MD1210061+9999OA149901601REMSYN076AAXX  29124 04390 32984 02806 10020 21009 39988 40080 52006 333 91131 91219;
0153043900999992000102915004+60030-043110FM-12+0019BGPC V0202901N004112200019N0250001N1+00361-00211100861ADDGA1001+999999999GF100991001001999999001001MA1999999099941MD1210061+9999REMSYN070AAXX  29154 04390 42975 02908 10036 21021 39994 40086 52006 333 91123;
0228043900999992000102918004+60030-043110FM-12+0019BGPC V0203501N003112200019N0500001N1+00391-00321101251ADDAA199000091GF102991001001999999001061KA1120M+00581KA2120N+00121MA1999999100331MD1210391+9999OA149901181REMSYN094AAXX  29184 04390 32984 23506 10039 21032 30033 40125 52039 80006 333 10058 20012 91123 91217;EQDQ01  00002PRCP99
0170043900999992000102921004+60030-043110FM-12+0019BGPC V0203101N000512200019N9999999N1+00241+00111101631ADDGA1001+999999999GF100991001001999999001001MA1999999100701MD1210371+9999OA149901131REMSYN076AAXX  29214 04390 429// 03101 10024 20011 30070 40163 52037 333 91122 91213;
0183043900999992000103000004+60030-043110FM-12+0019BGPC V0202101N001512200019N0100001N1+00101-00141101841ADDAA199000091GA1001+999999999GF100991001001999999001001MA1999999100901MD1210201+9999REMSYN070AAXX  30004 04390 32960 02103 10010 21014 30090 40184 52020 333 91122;EQDQ01  00002PRCP99
0143043900999992000103003004+60030-043110FM-12+0019BGPC V0202401N004112200019N9999999N1+00051-00221101701ADDGA1001+999999999GF100991001001999999001001MA1999999100761MD1710141+9999REMSYN060AAXX  30034 04390 429// 02408 10005 21022 30076 40170 57014;
0238043900999992000103006004+60030-043110FM-12+0019BGPC V0202301N004612200019N0100001N1+00121-00291101431ADDAA199000091GA1001+999999999GF100991001001999999001001KA1120M+00391KA2120N-00061MA1999999100501MD1710261+9999OA149901031REMSYN088AAXX  30064 04390 32960 02309 10012 21029 30050 40143 57026 333 10039 21006 91120 91020;EQDQ01  00002PRCP99
0143043900999992000103009004+60030-043110FM-12+0019BGPC V0202601N011312200019N0250001N1+00191-00591101211ADDGF102991021001999999041999MA1999999100281MD1710221+9999REMSYN076AAXX  30094 04390 42975 22622 10019 21059 30028 40121 57022 8204/ 333 91131;
0190043900999992000103012004+60030-043110FM-12+0019BGPC V0202701N014912200019N0250001N1+00161-00531101181ADDAA199000091GF103991031001999999041999MA1999999100251MD1710031+9999OA149902211REMSYN082AAXX  30124 04390 32975 32729 10016 21053 30025 40118 57003 8304/ 333 91143 91043;EQDQ01  00002PRCP99
0143043900999992000103015004+60030-043110FM-12+0019BGPC V0202801N014912200019N0500001N1+00241-00621101241ADDGF103991011001999999041061MA1999999100311MD1210061+9999REMSYN076AAXX  30154 04390 42984 32829 10024 21062 30031 40124 52006 81046 333 91146;
0228043900999992000103018004+60030-043110FM-12+0019BGPC V0202701N011312200019N0500001N1+00281-00711101241ADDAA199000091GF101991001001999999001041KA1120M+00351KA2120N+00111MA1999999100321MD1210011+9999OA149902371REMSYN094AAXX  30184 04390 32984 12722 10028 21071 30032 40124 52001 80004 333 10035 20011 91146 91236;EQDQ01  00002PRCP99
0153043900999992000103021004+60030-043110FM-12+0019BGPC V0202701N010312200019N0250001N1+00201-00611101261ADDGA1001+999999999GF100991001001999999001001MA1999999100331MD1210011+9999REMSYN070AAXX  30214 04390 42975 02720 10020 21061 30033 40126 52001 333 91136;
0183043900999992000103100004+60030-043110FM-12+0019BGPC V0202901N012912200019N0250001N1+00141-00671101141ADDAA199000091GA1001+999999999GF100991001001999999001001MA1999999100211MD1710121+9999REMSYN070AAXX  31004 04390 32975 02925 10014 21067 30021 40114 57012 333 91137;EQDQ01  00002PRCP99
0153043900999992000103103004+60030-043110FM-12+0019BGPC V0202901N009812200019N9999999N1+00151-00731101241ADDGA1001+999999999GF100991001001999999001001MA1999999100311MD1210101+9999REMSYN070AAXX  31034 04390 429// 02919 10015 21073 30031 40124 52010 333 91137;
0238043900999992000103106004+60030-043110FM-12+0019BGPC V0202601N002112200019N0200001N1+00031-00841101311ADDAA199000091GA1001+999999999GF100991001001999999001001KA1120M+00321KA2120N-00031MA1999999100381MD1210071+9999OA149901901REMSYN088AAXX  31064 04390 32970 02604 10003 21084 30038 40131 52007 333 10032 21003 91137 91226;EQDQ01  00002PRCP99
0143043900999992000103109004+60030-043110FM-12+0019BGPC V0202801N002612200019N0250001N1-00101-00851101221ADDGA1001+999999999GF100991001001999999001001MA1999999100281MD1710101+9999REMSYN060AAXX  31094 04390 42975 02805 11010 21085 30028 40122 57010;
0173043900999992000103112004+60030-043110FM-12+0019BGPC V0203001N004612200019N0250001N1-00131-00721101071ADDAA199000091GA1001+999999999GF100991001001999999001001MA1999999100131MD1710151+9999REMSYN060AAXX  31124 04390 32975 03009 11013 21072 30013 40107 57015;EQDQ01  00002PRCP99
0143043900999992000103115004+60030-043110FM-12+0019BGPC V0203201N001512200019N0500001N1+00051-00681101111ADDGA1001+999999999GF100991001001999999001001MA1999999100181MD1210051+9999REMSYN060AAXX  31154 04390 42984 03203 10005 21068 30018 40111 52005;
0215043900999992000103118004+60030-043110FM-12+0019BGPC V0202901N001512200019N9999999N1-00041-00931101271ADDAA199000091GA1001+999999999GF100991001001999999001001KA1120M+00231KA2999N-00201MA1999999100331MD1210151+9999REMSYN076AAXX  31184 04390 329// 02903 11004 21093 30033 40127 52015 333 10023 21020;EQDQ01  00002PRCP99
0143043900999992000103121004+60030-043110FM-12+0019BGPC V0202901N003112200019N0250001N1-00161-00981101381ADDGA1001+999999999GF100991001001999999001001MA1999999100441MD1210111+9999REMSYN060AAXX  31214 04390 42975 02906 11016 21098 30044 40138 52011;
0183043900999992000110100004+60030-043110FM-12+0019BGPC V0202901N002612200019N0200001N1-00171-01201101441ADDAA199000091GA1001+999999999GF100991001001999999001001MA1999999100501MD1210061+9999REMSYN070AAXX  01004 04390 32970 02905 11017 21120 30050 40144 52006 333 90000;EQDQ01  00002PRCP99
0153043900999992000110103004+60030-043110FM-12+0019BGPC V0202901N004112200019N9999999N1-00131-01221101481ADDGA1001+999999999GF100991001001999999001001MA1999999100541MD1210041+9999REMSYN070AAXX  01034 04390 429// 02908 11013 21122 30054 40148 52004 333 90000;
0221043900999992000110106004+60030-043110FM-12+0019BGPC V0202601N003112200019N0100001N1-00231-01231101481ADDAA199000091GA1001+999999999GF100991001001999999001001KA1120M-00031KA2120N-00291MA1999999100541MD1410001+9999REMSYN082AAXX  01064 04390 32960 02606 11023 21123 30054 40148 54000 333 11003 21029 90000;EQDQ01  00002PRCP99
0143043900999992000110109004+60030-043110FM-12+0019BGPC V0202601N001012200019N0250001N1-00291-01231101531ADDGA1001+999999999GF100991001001999999001001MA1999999100581MD1210041+9999REMSYN060AAXX  01094 04390 42975 02602 11029 21123 30058 40153 52004;
0163043900999992000110112004+60030-043110FM-12+0019BGPC V0202801N000512200019N0500001N1-00101-01061101591ADDAA199000091GF102991001001999999001091MA1999999100651MD1210071+9999REMSYN066AAXX  01124 04390 32984 22801 11010 21106 30065 40159 52007 80009;EQDQ01  00002PRCP99
0143043900999992000110115004+60030-043110FM-12+0019BGPC V0203101N001512200019N9999999N1-00071-00981101711ADDGA1001+999999999GF100991001001999999001001MA1999999100771MD1210121+9999REMSYN060AAXX  01154 04390 429// 03103 11007 21098 30077 40171 52012;
0205043900999992000110118004+60030-043110FM-12+0019BGPC V0202901N001012200019N0500001N1-00141-01041101821ADDAA199000091GF102991001001999999001061KA1120M+00101KA2999N-00341MA1999999100881MD1210111+9999REMSYN082AAXX  01184 04390 32984 22902 11014 21104 30088 40182 52011 80006 333 10010 21034;EQDQ01  00002PRCP99
0133043900999992000110121004+60030-043110FM-12+0019BGPC V0203001N001512200019N0250001N1-00301-00961102001ADDGF103991001001999999001061MA1999999101051MD1210171+9999REMSYN066AAXX  01214 04390 42975 33003 11030 21096 30105 40200 52017 80006;
0173043900999992000110200004+60030-043110FM-12+0019BGPC V0202901N002112200019N0200001N1-00321-00961102081ADDAA199000091GA1001+999999999GF100991001001999999001001MA1999999101131MD1210081+9999REMSYN060AAXX  02004 04390 32970 02904 11032 21096 30113 40208 52008;EQDQ01  00002PRCP99
0133043900999992000110203004+60030-043110FM-12+0019BGPC V0203101N001519999999N0100001N1-00251-00961102101ADDGF108991081001999999021999MA1999999101151MD1210021+9999REMSYN066AAXX  02034 04390 42960 83103 11025 21096 30115 40210 52002 8802/;
0149043900999992000110206004+60030-043110FM-12+0019BGPC V0202701N000519999999N9999999N1-00251-00871102021ADDKA1120M-00141KA2120N-00361MA1999999101071MD1710081+9999REMSYN082AAXX  02064 04390 46/// /2701 11025 21087 30107 40202 57008 333 11014 21036 90000;
0133043900999992000110209004+60030-043110FM-12+0019BGPC V0202401N003110150019N0150001N1-00151-00791101881ADDGF108991081051017501999999MA1999999100941MD1710131+9999REMSYN066AAXX  02094 04390 42765 82406 11015 21079 30094 40188 57013 885//;
0163043900999992000110212004+60030-043110FM-12+0019BGPC V0202401N004619999999N0500001N1-00071-00551101741ADDAA199000091GF108991081001999999011999MA1999999100801MD1710141+9999REMSYN066AAXX  02124 04390 32984 82409 11007 21055 30080 40174 57014 8801/;EQDQ01  00002PRCP99
0143043900999992000110215004+60030-043110FM-12+0019BGPC V0201801N002119999999N0500001N1+00081-00291101571ADDGF108991081001999999011999MA1999999100641MD1710161+9999REMSYN076AAXX  02154 04390 42984 81804 10008 21029 30064 40157 57016 8801/ 333 90000;
0205043900999992000110218004+60030-043110FM-12+0019BGPC V0201901N002610750019N0300001N1+00141-00101101431ADDAA199000091GF108991021001022501041071KA1120M+00211KA2999N-00281MA1999999100501MD1710141+9999REMSYN082AAXX  02184 04390 32880 81905 10014 21010 30050 40143 57014 82047 333 10021 21028;EQDQ01  00002PRCP99
0133043900999992000110221004+60030-043110FM-12+0019BGPC V0201001N004110150019N0150001N1-00101-00151101341ADDGF108991081001017501021999MA1999999100401MD1710101+9999REMSYN066AAXX  02214 04390 42765 81008 11010 21015 30040 40134 57010 8802/;
0178043900999992000110300004+60030-043110FM-12+0019BGPC V0200301N002110150019N0010001N1-00211-00211101261ADDAA106000791AY171061AY221061GF108991081001017501021999MA1999999100321MD1710081+9999MW1711REMSYN078AAXX  03004 04390 11710 80304 11021 21021 30032 40126 57008 69901 77172 8802/;
0177043900999992000110303004+60030-043110FM-12+0019BGPC V0200301N002110120019N0050001N1-00251-00251101061ADDAY171031AY271031GF108991081001012501021999MA1999999100121MD1710201+9999MW1711REMSYN088AAXX  03034 04390 41650 80304 11025 21025 30012 40106 57020 77177 8802/ 333 90000 90000;
0192043900999992000110306004+60030-043110FM-12+0019BGPC V0200301N002110120019N0100001N1-00251-00321100851ADDAA112000791GF108991081001012501021999KA1120M+00241KA2999N-00291MA1999999099911MD1710211+9999REMSYN088AAXX  03064 04390 12660 80304 11025 21032 39991 40085 57021 69902 8802/ 333 10024 21029;
0161043900999992000110309004+60030-043110FM-12+0019BGPC V0202501N000510150019N0020001N1-00281-00281100661ADDAY171031AY271031GF108991081001017501021999MA1999999099721MD1710191+9999MW1711REMSYN072AAXX  03094 04390 41720 82501 11028 21028 39972 40066 57019 77177 8802/;
0150043900999992000110312004+60030-043110FM-12+0019BGPC V0209999C000010075019N0400001N1-00241-00291100521ADDAA106000591GF107991071051008001999999MA1999999099581MD1710141+9999REMSYN072AAXX  03124 04390 12582 70000 11024 21029 39958 40052 57014 69961 875//;
0133043900999992000110315004+60030-043110FM-12+0019BGPC V0203001N001510150019N0300001N1-00201-00311100421ADDGF107991071001017501021999MA1999999099491MD1710091+9999REMSYN066AAXX  03154 04390 42780 73003 11020 21031 39949 40042 57009 8702/;
0192043900999992000110318004+60030-043110FM-12+0019BGPC V0202601N00361030001CN0150001N1-00131-00241100321ADDAA112000591GF106991021051004501021999KA1120M-00061KA2999N-00331MA1999999099391MD1710101+9999REMSYN088AAXX  03184 04390 12465 62607 11013 21024 39939 40032 57010 69962 8252/ 333 11006 21033;
0133043900999992000110321004+60030-043110FM-12+0019BGPC V0202701N003610120019N0050001N1-00051-00301100291ADDGF108991081001012501021999MA1999999099361MD1710031+9999REMSYN066AAXX  03214 04390 42650 82707 11005 21030 39936 40029 57003 8802/;
0188043900999992000110400004+60030-043110FM-12+0019BGPC V0203101N004110120019N0010001N1-00101-00101100421ADDAA106000791AY171061AY221061GF108991081001012501021999MA1999999099491MD1210131+9999MW1711REMSYN088AAXX  04004 04390 11610 83108 11010 21010 39949 40042 52013 69901 77172 8802/ 333 91120;
0170043900999992000110403004+60030-043110FM-12+0019BGPC V0203301N006212200019N9999999N1+00191-00421100521ADDGA1001+999999999GF100991001001999999001001MA1999999099601MD1210111+9999OA149901131REMSYN076AAXX  04034 04390 429// 03312 10019 21042 39960 40052 52011 333 91122 91022;
0149043900999992000110406004+60030-043110FM-12+0019BGPC V0200301N009819999999N9999999N1+00281-00541100911ADDKA1120M+00351KA2120N-00171MA1999999099991MD1210391+9999REMSYN082AAXX  04064 04390 46/// /0319 10028 21054 39999 40091 52039 333 10035 21017 91131;
0170043900999992000110409004+60030-043110FM-12+0019BGPC V0200201N004612200019N0250001N1+00081-00421101211ADDGA1001+999999999GF100991001001999999001001MA1999999100281MD1210291+9999OA149901751REMSYN076AAXX  04094 04390 42975 00209 10008 21042 30028 40121 52029 333 91134 91220;
0181043900999992000110412004+60030-043110FM-12+0019BGPC V0202901N001512200019N9999999N1+00091-00391101471ADDAA199000021GA1001+999999999GF100991001001999999001001MA1999999100541MD1210261+9999OA149901751REMSYN076AAXX  04124 04390 329// 02903 10009 21039 30054 40147 52026 333 91134 91220;
0133043900999992000110415004+60030-043110FM-12+0019BGPC V0200301N004612200019N0500001N1+00111-00541101671ADDGF101991001001999999001061MA1999999100741MD1210201+9999REMSYN066AAXX  04154 04390 42984 10309 10011 21054 30074 40167 52020 80006;
0215043900999992000110418004+60030-043110FM-12+0019BGPC V0203001N001012200019N0250001N1+00041-00661101841ADDAA199000091GA1001+999999999GF100991001001999999001001KA1120M+00351KA2999N-00021MA1999999100901MD1210161+9999REMSYN076AAXX  04184 04390 32975 03002 10004 21066 30090 40184 52016 333 10035 21002;EQDQ01  00002PRCP99
0143043900999992000110421004+60030-043110FM-12+0019BGPC V0203001N002112200019N0250001N1-00131-00631102131ADDGA1001+999999999GF100991001001999999001001MA1999999101181MD1210281+9999REMSYN060AAXX  04214 04390 42975 03004 11013 21063 30118 40213 52028;
0173043900999992000110500004+60030-043110FM-12+0019BGPC V0203101N002112200019N0250001N1-00161-00551102351ADDAA199000091GA1001+999999999GF100991001001999999001001MA1999999101401MD1210221+9999REMSYN060AAXX  05004 04390 32975 03104 11016 21055 30140 40235 52022;EQDQ01  00002PRCP99
0101043900999992000110503004+60030-043110FM-12+0019BGPC V0203001N002119999999N9999999N1-00151-00681102561ADDMA1999999101611MD1210211+9999REMSYN060AAXX  05034 04390 46/// /3004 11015 21068 30161 40256 52021;
0215043900999992000110506004+60030-043110FM-12+0019BGPC V0202801N002612200019N0200001N1-00161-00671102681ADDAA199000091GA1001+999999999GF100991001001999999001001KA1120M+00041KA2999N-00181MA1999999101731MD1210121+9999REMSYN076AAXX  05064 04390 32970 02805 11016 21067 30173 40268 52012 333 10004 21018;EQDQ01  00002PRCP99
0143043900999992000110509004+60030-043110FM-12+0019BGPC V0202601N003112200019N0250001N1-00041-00621102761ADDGA1001+999999999GF100991001001999999001001MA1999999101811MD1210081+9999REMSYN060AAXX  05094 04390 42975 02606 11004 21062 30181 40276 52008;
0173043900999992000110512004+60030-043110FM-12+0019BGPC V0203001N002112200019N0500001N1+00071-00551102881ADDAA199000091GF103991001001999999001061MA1999999101931MD1210121+9999REMSYN076AAXX  05124 04390 32984 33004 10007 21055 30193 40288 52012 80006 333 90000;EQDQ01  00002PRCP99
0133043900999992000110515004+60030-043110FM-12+0019BGPC V0202301N003112200019N0500001N1+00231-00491102911ADDGF103991001001999999001061MA1999999101971MD1210041+9999REMSYN066AAXX  05154 04390 42984 32306 10023 21049 30197 40291 52004 80006;
0211043900999992000110518004+60030-043110FM-12+0019BGPC V0202801N005712200019N0250001N1+00301-00661102871ADDAA199000091GF103991001001999999001061KA1120M+00401KA2120N-00171MA1999999101931MD1710041+9999REMSYN088AAXX  05184 04390 32975 32811 10030 21066 30193 40287 57004 80006 333 10040 21017 91127;EQDQ01  00002PRCP99
0153043900999992000110521004+60030-043110FM-12+0019BGPC V0202601N004112200019N0250001N1+00251-00661103021ADDGA1001+999999999GF100991001001999999001001MA1999999102081MD1210151+9999REMSYN070AAXX  05214 04390 42975 02608 10025 21066 30208 40302 52015 333 91120;
0183043900999992000110600004+60030-043110FM-12+0019BGPC V0202901N006712200019N0250001N1+00141-00571103101ADDAA199000091GA1001+999999999GF100991001001999999001001MA1999999102151MD1210071+9999REMSYN070AAXX  06004 04390 32975 02913 10014 21057 30215 40310 52007 333 91123;EQDQ01  00002PRCP99
0153043900999992000110603004+60030-043110FM-12+0019BGPC V0201401N001512200019N0250001N1+00041-00521103161ADDGA1001+999999999GF100991001001999999001001MA1999999102211MD1210061+9999REMSYN070AAXX  06034 04390 42975 01403 10004 21052 30221 40316 52006 333 91214;
0221043900999992000110606004+60030-043110FM-12+0019BGPC V0202601N000512200019N9999999N1-00031-00551103081ADDAA199000091GA1001+999999999GF100991001001999999001001KA1120M+00391KA2120N-00041MA1999999102131MD1710081+9999REMSYN082AAXX  06064 04390 329// 02601 11003 21055 30213 40308 57008 333 10039 21004 91214;EQDQ01  00002PRCP99
0143043900999992000110609004+60030-043110FM-12+0019BGPC V0202801N002612200019N0200001N1+00021-00601102951ADDGA1001+999999999GF100991001001999999001001MA1999999102001MD1710131+9999REMSYN060AAXX  06094 04390 42970 02805 10002 21060 30200 40295 57013;
0163043900999992000110612004+60030-043110FM-12+0019BGPC V0202501N003112200019N0500001N1+00051-00611102801ADDAA199000091GF103991031001999999071999MA1999999101851MD1710151+9999REMSYN066AAXX  06124 04390 32984 32506 10005 21061 30185 40280 57015 8307/;EQDQ01  00002PRCP99
0211043900999992000110618004+60030-043110FM-12+0019BGPC V0202801N001012200019N0500001N1-00041-00341102611ADDAA199000091GF102991001001999999001091KA1120M+00391KA2120N-00101MA1999999101661MD1710071+9999REMSYN088AAXX  06184 04390 32984 22802 11004 21034 30166 40261 57007 80009 333 10039 21010 91215;EQDQ01  00002PRCP99
0143043900999992000110621004+60030-043110FM-12+0019BGPC V0201901N001012200019N0200001N1+00121-00511102531ADDGA1001+999999999GF100991001001999999001001MA1999999101591MD1710071+9999REMSYN060AAXX  06214 04390 42970 01902 10012 21051 30159 40253 57007;
0183043900999992000110700004+60030-043110FM-12+0019BGPC V0200201N001012200019N0200001N1+00151-00381102421ADDAA199000091GA1001+999999999GF100991001001999999001001MA1999999101481MD1710111+9999REMSYN070AAXX  07004 04390 32970 00202 10015 21038 30148 40242 57011 333 91213;EQDQ01  00002PRCP99
0143043900999992000110703004+60030-043110FM-12+0019BGPC V0203101N002612200019N0250001N1+00071-00271102411ADDGF102991001001999999001071MA1999999101471MD1710011+9999REMSYN076AAXX  07034 04390 42975 23105 10007 21027 30147 40241 57001 80007 333 90000;
0221043900999992000110706004+60030-043110FM-12+0019BGPC V0203101N004612200019N9999999N1-00011-00221102381ADDAA199000091GA1001+999999999GF100991001001999999001001KA1120M+00241KA2120N-00121MA1999999101441MD1710031+9999REMSYN082AAXX  07064 04390 329// 03109 11001 21022 30144 40238 57003 333 10024 21012 90000;EQDQ01  00002PRCP99
0153043900999992000110709004+60030-043110FM-12+0019BGPC V0203101N003112200019N0200001N1-00031-00171102381ADDGA1001+999999999GF100991001001999999001001MA1999999101431MD1710011+9999REMSYN070AAXX  07094 04390 42970 03106 11003 21017 30143 40238 57001 333 90000;
0173043900999992000110712004+60030-043110FM-12+0019BGPC V0203201N001012200019N0500001N1+00021-00251102301ADDAA199000091GF102991021001999999031999MA1999999101361MD1710071+9999REMSYN076AAXX  07124 04390 32984 23202 10002 21025 30136 40230 57007 8203/ 333 91213;EQDQ01  00002PRCP99
0143043900999992000110715004+60030-043110FM-12+0019BGPC V0201301N000512200019N0500001N1+00391-00251102211ADDGF102991001001999999001091MA1999999101281MD1710081+9999REMSYN076AAXX  07154 04390 42984 21301 10039 21025 30128 40221 57008 80009 333 90000;
0215043900999992000110718004+60030-043110FM-12+0019BGPC V0202601N000512200019N9999999N1+00131-00361102041ADDAA199000091GA1001+999999999GF100991001001999999001001KA1120M+00511KA2999N-00051MA1999999101101MD1710181+9999REMSYN076AAXX  07184 04390 329// 02601 10013 21036 30110 40204 57018 333 10051 21005;EQDQ01  00002PRCP99
0143043900999992000110721004+60030-043110FM-12+0019BGPC V0202901N001512200019N0200001N1+00071-00301101941ADDGA1001+999999999GF100991001001999999001001MA1999999101001MD1710101+9999REMSYN060AAXX  07214 04390 42970 02903 10007 21030 30100 40194 57010;
0143043900999992000110806004+60030-043110FM-12+0019BGPC V0202501N002119999999N9999999N1+00111-00351101211ADDKA1120M+00411KA2999N-00021MA1999999100281MD1710251+9999REMSYN076AAXX  08064 04390 46/// /2504 10011 21035 30028 40121 57025 333 10041 21002;
0143043900999992000110809004+60030-043110FM-12+0019BGPC V0202701N003112200019N0200001N1+00271-00361100991ADDGA1001+999999999GF100991001001999999001001MA1999999100071MD1710211+9999REMSYN060AAXX  08094 04390 42970 02706 10027 21036 30007 40099 57021;
0183043900999992000110812004+60030-043110FM-12+0019BGPC V0203001N007212200019N0250001N1+00801-00581100731ADDAA199000091GA1001+999999999GF100991001001999999001001MA1999999099831MD1710241+9999REMSYN070AAXX  08124 04390 32975 03014 10080 21058 39983 40073 57024 333 91125;EQDQ01  00002PRCP99
0143043900999992000110815004+60030-043110FM-12+0019BGPC V0203001N009312200019N0500001N1+00711-00381100511ADDGF101991001001999999001011MA1999999099611MD1710221+9999REMSYN076AAXX  08154 04390 42984 13018 10071 21038 39961 40051 57022 80001 333 91122;
0228043900999992000110818004+60030-043110FM-12+0019BGPC V0203201N005112200019N0250001N1+00681-00311100431ADDAA199000091GF104991021001999999051061KA1120M+01031KA2120N+00111MA1999999099531MD1710081+9999OA149901341REMSYN094AAXX  08184 04390 32975 43210 10068 21031 39953 40043 57008 82056 333 10103 20011 91126 91222;EQDQ01  00002PRCP99
0160043900999992000110821004+60030-043110FM-12+0019BGPC V0202801N005119999999N0200001N1+00721-00261100291ADDGF105991011001999999041061MA1999999099391MD1710141+9999OA149901601REMSYN082AAXX  08214 04390 42970 52810 10072 21026 39939 40029 57014 81046 333 91131 91225;
0183043900999992000110900004+60030-043110FM-12+0019BGPC V0202701N008212200019N0200001N1+00761-00071100111ADDAA199000091GA1001+999999999GF100991001001999999001001MA1999999099211MD1710181+9999REMSYN070AAXX  09004 04390 32970 02716 10076 21007 39921 40011 57018 333 91131;EQDQ01  00002PRCP99
0170043900999992000110903004+60030-043110FM-12+0019BGPC V0200101N001512200019N0250001N1+00091-00191100231ADDGA1001+999999999GF100991001001999999001001MA1999999099311MD1210101+9999OA149901391REMSYN076AAXX  09034 04390 42975 00103 10009 21019 39931 40023 52010 333 91127 91219;
0166043900999992000110906004+60030-043110FM-12+0019BGPC V0201601N003619999999N9999999N1+00051-00181100451ADDKA1120M+01051KA2120N-00031MA1999999099531MD1210221+9999OA149901391REMSYN088AAXX  09064 04390 46/// /1607 10005 21018 39953 40045 52022 333 10105 21003 91127 91219;
0153043900999992000110909004+60030-043110FM-12+0019BGPC V0209999C000012200019N0200001N1-00031-00201100701ADDGA1001+999999999GF100991001001999999001001MA1999999099771MD1210241+9999REMSYN070AAXX  09094 04390 42970 00000 11003 21020 39977 40070 52024 333 91212;
0173043900999992000110912004+60030-043110FM-12+0019BGPC V0202201N004612200019N0250001N1+00111-00321100831ADDAA199000091GA1001+999999999GF100991001001999999001001MA1999999099901MD1210131+9999REMSYN060AAXX  09124 04390 32975 02209 10011 21032 39990 40083 52013;EQDQ01  00002PRCP99
0215043900999992000110918004+60030-043110FM-12+0019BGPC V0202701N005712200019N0250001N1+00241-00891100761ADDAA199000091GA1001+999999999GF100991001001999999001001KA1120M+00291KA2999N-00081MA1999999099841MD1710081+9999REMSYN076AAXX  09184 04390 32975 02711 10024 21089 39984 40076 57008 333 10029 21008;EQDQ01  00002PRCP99
0153043900999992000110921004+60030-043110FM-12+0019BGPC V0203101N002612200019N0200001N1+00011-00671100951ADDGA1001+999999999GF100991001001999999001001MA1999999100021MD1210181+9999REMSYN070AAXX  09214 04390 42970 03105 10001 21067 30002 40095 52018 333 90000;
0183043900999992000111000004+60030-043110FM-12+0019BGPC V0203001N002112200019N0200001N1-00081-00851101071ADDAA199000091GA1001+999999999GF100991001001999999001001MA1999999100141MD1210121+9999REMSYN070AAXX  10004 04390 32970 03004 11008 21085 30014 40107 52012 333 90000;EQDQ01  00002PRCP99
0143043900999992000111003004+60030-043110FM-12+0019BGPC V0202801N001012200019N0250001N1-00171-00851101181ADDGA1001+999999999GF100991001001999999001001MA1999999100241MD1210101+9999REMSYN060AAXX  10034 04390 42975 02802 11017 21085 30024 40118 52010;
0215043900999992000111006004+60030-043110FM-12+0019BGPC V0202901N001512200019N9999999N1-00161-00831101521ADDAA199000091GA1001+999999999GF100991001001999999001001KA1120M+00241KA2999N-00221MA1999999100581MD1210341+9999REMSYN076AAXX  10064 04390 329// 02903 11016 21083 30058 40152 52034 333 10024 21022;EQDQ01  00002PRCP99
0143043900999992000111009004+60030-043110FM-12+0019BGPC V0203001N001512200019N0200001N1-00101-00961101861ADDGA1001+999999999GF100991001001999999001001MA1999999100921MD1210341+9999REMSYN060AAXX  10094 04390 42970 03003 11010 21096 30092 40186 52034;
0173043900999992000111012004+60030-043110FM-12+0019BGPC V0200101N002112200019N0250001N1+00051-01091102201ADDAA199000091GA1001+999999999GF100991001001999999001001MA1999999101261MD1210341+9999REMSYN060AAXX  10124 04390 32975 00104 10005 21109 30126 40220 52034;EQDQ01  00002PRCP99
0143043900999992000111015004+60030-043110FM-12+0019BGPC V0200201N005712200019N0500001N1+00241-00891102401ADDGA1001+999999999GF100991001001999999001001MA1999999101461MD1210201+9999REMSYN060AAXX  10154 04390 42984 00211 10024 21089 30146 40240 52020;
0215043900999992000111018004+60030-043110FM-12+0019BGPC V0200301N005112200019N0500001N1+00121-00681102641ADDAA199000091GA1001+999999999GF100991001001999999001001KA1120M+00271KA2999N-00221MA1999999101701MD1210241+9999REMSYN076AAXX  10184 04390 32984 00310 10012 21068 30170 40264 52024 333 10027 21022;EQDQ01  00002PRCP99
0153043900999992000111021004+60030-043110FM-12+0019BGPC V0200201N005712200019N0200001N1+00081-00651102841ADDGA1001+999999999GF100991001001999999001001MA1999999101891MD1210191+9999REMSYN070AAXX  10214 04390 42970 00211 10008 21065 30189 40284 52019 333 91127;
0183043900999992000111100004+60030-043110FM-12+0019BGPC V0200201N006712200019N0200001N1+00131-00521103021ADDAA199000091GA1001+999999999GF100991001001999999001001MA1999999102071MD1210181+9999REMSYN070AAXX  11004 04390 32970 00213 10013 21052 30207 40302 52018 333 91127;EQDQ01  00002PRCP99
0143043900999992000111103004+60030-043110FM-12+0019BGPC V0200201N007212200019N0250001N1+00011-00521103101ADDGA1001+999999999GF100991001001999999001001MA1999999102151MD1210081+9999REMSYN060AAXX  11034 04390 42975 00214 10001 21052 30215 40310 52008;
0166043900999992000111106004+60030-043110FM-12+0019BGPC V0203501N005719999999N9999999N1+00091-00541103211ADDKA1120M+00171KA2120N+00001MA1999999102261MD1210111+9999OA149901241REMSYN088AAXX  11064 04390 46/// /3511 10009 21054 30226 40321 52011 333 10017 20000 91124 91024;
0160043900999992000111109004+60030-043110FM-12+0019BGPC V0200101N007710150019N0200001N1+00121-00441103381ADDGF107991071001017501021999MA1999999102431MD1210171+9999OA149901391REMSYN082AAXX  11094 04390 42770 70115 10012 21044 30243 40338 52017 8702/ 333 91127 91025;
0173043900999992000111112004+60030-043110FM-12+0019BGPC V0200301N005710150019N0250001N1+00081-00391103541ADDAA199000091GF107991071001017501021999MA1999999102591MD1210161+9999REMSYN076AAXX  11124 04390 33775 70311 10008 21039 30259 40354 52016 8702/ 333 91127;EQDQ01  00002PRCP99
0143043900999992000111115004+60030-043110FM-12+0019BGPC V0200401N002110075019N0300001N1-00021-00101103661ADDGF107991071051008001999999MA1999999102701MD1210111+9999REMSYN076AAXX  11154 04390 42580 70404 11002 21010 30270 40366 52011 875// 333 91214;
0211043900999992000111118004+60030-043110FM-12+0019BGPC V0200201N001010300019N0300001N1-00021-00091103661ADDAA199000091GF108991041051012501021999KA1120M+00161KA2120N-00051MA1999999102701MD1410001+9999REMSYN088AAXX  11184 04390 32680 80202 11002 21009 30270 40366 54000 8452/ 333 10016 21005 91214;EQDQ01  00002PRCP99
0149043900999992000111121004+60030-043110FM-12+0019BGPC V0202801N002119999999N0300001N1-00071-00131103691ADDGF107991071001999999071999MA1999999102731MD1210031+9999REMSYN082AAXX  11214 04390 42980 72804 11007 21013 30273 40369 52003 8707/ 333 90000 90000;
0173043900999992000111200004+60030-043110FM-12+0019BGPC V0202401N001510150019N0300001N1+00051-00011103591ADDAA199000091GF108991081001017501021999MA1999999102641MD1710091+9999REMSYN076AAXX  12004 04390 32780 82403 10005 21001 30264 40359 57009 8802/ 333 90000;EQDQ01  00002PRCP99
0149043900999992000111203004+60030-043110FM-12+0019BGPC V0202201N003619999999N0250001N1+00201+00021103421ADDGF107991001001999999001071MA1999999102471MD1710171+9999REMSYN082AAXX  12034 04390 42975 72207 10020 20002 30247 40342 57017 80007 333 90000 90000;
0211043900999992000111206004+60030-043110FM-12+0019BGPC V0202101N002119999999N0200001N1+00261+00001103191ADDAA199000091GF108991081001999999071999KA1120M+00271KA2120N-00111MA1999999102251MD1710221+9999REMSYN088AAXX  12064 04390 32970 82104 10026 20000 30225 40319 57022 8807/ 333 10027 21011 90000;EQDQ01  00002PRCP99
0143043900999992000111209004+60030-043110FM-12+0019BGPC V0202301N008719999999N0300001N1+00311+00011102871ADDGF108991081001999999071999MA1999999101931MD1710321+9999REMSYN076AAXX  12094 04390 42980 82317 10031 20001 30193 40287 57032 8807/ 333 91123;
0173043900999992000111212004+60030-043110FM-12+0019BGPC V0202701N006210210019N0250001N1+00361-00011102761ADDAA199000091GF106991061001022501021999MA1999999101821MD1710111+9999REMSYN076AAXX  12124 04390 32875 62712 10036 21001 30182 40276 57011 8602/ 333 91126;EQDQ01  00002PRCP99
0160043900999992000111215004+60030-043110FM-12+0019BGPC V0201501N003112200019N0500001N1+00011+00011102601ADDGF104991001001999999001091MA1999999101651MD1710171+9999OA149901491REMSYN082AAXX  12154 04390 42984 41506 10001 20001 30165 40260 57017 80009 333 91129 91219;
0228043900999992000111218004+60030-043110FM-12+0019BGPC V0202501N003112200019N0400001N1+00311-00021102281ADDAA199000091GF104991031001022501021091KA1120M+00421KA2120N-00061MA1999999101351MD1710301+9999OA149901491REMSYN094AAXX  12184 04390 32882 42506 10031 21002 30135 40228 57030 83029 333 10042 21006 91129 91219;EQDQ01  00002PRCP99
0143043900999992000111221004+60030-043110FM-12+0019BGPC V0202301N009812200019N0200001N1+00411-00171102061ADDGF102991001001999999001091MA1999999101131MD1710221+9999REMSYN076AAXX  12214 04390 42970 22319 10041 21017 30113 40206 57022 80009 333 91127;
0173043900999992000111300004+60030-043110FM-12+0019BGPC V0202601N007219999999N0200001N1+00271-00091101871ADDAA199000091GF106991061001999999011999MA1999999100941MD1710191+9999REMSYN076AAXX  13004 04390 32970 62614 10027 21009 30094 40187 57019 8601/ 333 91128;EQDQ01  00002PRCP99
0160043900999992000111303004+60030-043110FM-12+0019BGPC V0202601N005119999999N0200001N1+00241+00011101721ADDGF108991081001999999011999MA1999999100791MD1710151+9999OA149901291REMSYN082AAXX  13034 04390 42970 82610 10024 20001 30079 40172 57015 8801/ 333 91125 91222;
0243043900999992000111306004+60030-043110FM-12+0019BGPC V0202501N005710150019N0050001N1+00311+00251101401ADDAA112000791AY161061AY261061GF108991081001017501021999KA1120M+00461KA2120N+00211MA1999999100481MD1710311+9999MW1611OA149901291REMSYN106AAXX  13064 04390 11750 82511 10031 20025 30048 40140 57031 69902 76166 8802/ 333 10046 20021 91125 91222;
0177043900999992000111309004+60030-043110FM-12+0019BGPC V0202001N002610120019N0100001N1+00261+00261101161ADDAY161031AY261031GF108991081001012501021999MA1999999100241MD1710241+9999MW1611REMSYN088AAXX  13094 04390 41660 82005 10026 20026 30024 40116 57024 76166 8802/ 333 90000 90000;
0188043900999992000111312004+60030-043110FM-12+0019BGPC V0202901N002110042019N0050001N1+00071+00071100761ADDAA106008991AY171061AY261061GF108991081071004501999999MA1999999099831MD1710411+9999MW1681REMSYN088AAXX  13124 04390 11450 82904 10007 20007 39983 40076 57041 60091 76876 887// 333 90000;
0233043900999992000111318004+60030-043110FM-12+0019BGPC V0203001N001512200019N0500001N1+00171+00071099822ADDAA112017091GF103991031001022501021999KA1120M+00351KA2120N-00011MA1999999098902MD1710341+9999REMSYN094AAXX  13184 04390 12884 33003 10017 20007 39890 49982 57034 60172 8302/ 333 10035 21001 90000;EQDQ01+098903APOSP Q02+099823APOSLP
0159043900999992000111321004+60030-043110FM-12+0019BGPC V0209999C000012200019N9999999N1+00081+00011099851ADDGA1001+999999999GF100991001001999999001001MA1999999098931MD1210031+9999REMSYN076AAXX  13214 04390 429// 00000 10008 20001 39893 49985 52003 333 90000 90000;
0198043900999992000111400004+60030-043110FM-12+0019BGPC V0201601N004112200019N0005001N1-00101-00101099751ADDAA199000021AY101061AY201061GA1001+999999999GF100991001001999999001001MA1999999098831MD1710101+9999MW1461REMSYN082AAXX  14004 04390 31905 01608 11010 21010 39883 49975 57010 74600 333 90000 90000;
0153043900999992000111403004+60030-043110FM-12+0019BGPC V0202701N008212200019N0200001N1+00391-00361099691ADDGA1001+999999999GF100991001001999999001001MA1999999098781MD1710051+9999REMSYN070AAXX  14034 04390 42970 02716 10039 21036 39878 49969 57005 333 91120;
0221043900999992000111406004+60030-043110FM-12+0019BGPC V0202701N009812200019N0250001N1+00421-00711099711ADDAA199000091GA1001+999999999GF100991001001999999001001KA1120M+00461KA2120N-00161MA1999999098801MD1210021+9999REMSYN082AAXX  14064 04390 32975 02719 10042 21071 39880 49971 52002 333 10046 21016 91120;EQDQ01  00002PRCP99
0153043900999992000111409004+60030-043110FM-12+0019BGPC V0202601N004612200019N9999999N1+00281-00821099821ADDGA1001+999999999GF100991001001999999001001MA1999999098911MD1210111+9999REMSYN070AAXX  14094 04390 429// 02609 10028 21082 39891 49982 52011 333 91222;
0189043900999992000111412004+60030-043110FM-12+0019BGPC V0202801N011812200019N0250001N1+00291-01001099801ADDAA199000091GA1001+999999999GF100991001001999999001001MA1999999098891MD1710021+9999REMSYN076AAXX  14124 04390 32975 02823 10029 21100 39889 49980 57002 333 90000 90000;EQDQ01  00002PRCP99
0143043900999992000111415004+60030-043110FM-12+0019BGPC V0202801N013912200019N0500001N1+00271-01091099901ADDGA1001+999999999GF100991001001999999001001MA1999999098991MD1210101+9999REMSYN060AAXX  14154 04390 42984 02827 10027 21109 39899 49990 52010;
0238043900999992000111418004+60030-043110FM-12+0019BGPC V0202801N008712200019N0500001N1+00261-01171100101ADDAA199000091GA1001+999999999GF100991001001999999001001KA1120M+00471KA2120N+00231MA1999999099191MD1210201+9999OA149901601REMSYN088AAXX  14184 04390 32984 02817 10026 21117 39919 40010 52020 333 10047 20023 91131 91229;EQDQ01  00002PRCP99
0153043900999992000111421004+60030-043110FM-12+0019BGPC V0202801N015912200019N9999999N1+00281-01221100231ADDGA1001+999999999GF100991001001999999001001MA1999999099311MD1210121+9999REMSYN070AAXX  14214 04390 429// 02831 10028 21122 39931 40023 52012 333 91138;
0183043900999992000111500004+60030-043110FM-12+0019BGPC V0202801N014912200019N9999999N1+00301-01171100451ADDAA199000091GA1001+999999999GF100991001001999999001001MA1999999099531MD1210221+9999REMSYN070AAXX  15004 04390 329// 02829 10030 21117 39953 40045 52022 333 91143;EQDQ01  00002PRCP99
0153043900999992000111503004+60030-043110FM-12+0019BGPC V0202801N012312200019N0200001N1+00401-01281100651ADDGA1001+999999999GF100991001001999999001001MA1999999099731MD1210201+9999REMSYN070AAXX  15034 04390 42970 02824 10040 21128 39973 40065 52020 333 91144;
0238043900999992000111506004+60030-043110FM-12+0019BGPC V0202601N007712200019N0250001N1+00311-01271100831ADDAA199000091GA1001+999999999GF100991001001999999001001KA1120M+00501KA2120N+00211MA1999999099911MD1210181+9999OA149902261REMSYN088AAXX  15064 04390 32975 02615 10031 21127 39991 40083 52018 333 10050 20021 91144 91231;EQDQ01  00002PRCP99
0143043900999992000111509004+60030-043110FM-12+0019BGPC V0202701N004612200019N0200001N1+00251-01211100931ADDGF102991001001999999001081MA1999999100011MD1210101+9999REMSYN076AAXX  15094 04390 42970 22709 10025 21121 30001 40093 52010 80008 333 91124;
0173043900999992000111512004+60030-043110FM-12+0019BGPC V0202801N010312200019N0500001N1+00271-01051100981ADDAA199000091GF104991021001999999041091MA1999999100061MD1210051+9999REMSYN076AAXX  15124 04390 32984 42820 10027 21105 30006 40098 52005 82049 333 91124;EQDQ01  00002PRCP99
0143043900999992000111515004+60030-043110FM-12+0019BGPC V0202701N007212200019N0250001N1+00281-00981101091ADDGF103991031001999999041999MA1999999100171MD1210111+9999REMSYN076AAXX  15154 04390 42975 32714 10028 21098 30017 40109 52011 8304/ 333 91128;
0143043900999992000111521004+60030-043110FM-12+0019BGPC V0202801N004612200019N0250001N1+00201-00761101171ADDGF104991001001999999001061MA1999999100241MD1710011+9999REMSYN076AAXX  15214 04390 42975 42809 10020 21076 30024 40117 57001 80006 333 90000;
0173043900999992000111600004+60030-043110FM-12+0019BGPC V0202701N011312200019N0250001N1+00351-00591100981ADDAA199000091GF103991031001999999051999MA1999999100061MD1710181+9999REMSYN076AAXX  16004 04390 32975 32722 10035 21059 30006 40098 57018 8305/ 333 91129;EQDQ01  00002PRCP99
0160043900999992000111603004+60030-043110FM-12+0019BGPC V0202301N005719999999N0200001N1+00251-00431100981ADDGF105991051001999999031999MA1999999100061MD1410001+9999OA149901851REMSYN082AAXX  16034 04390 42970 52311 10025 21043 30006 40098 54000 8503/ 333 91136 91230;
0228043900999992000111606004+60030-043110FM-12+0019BGPC V0202601N006212200019N0250001N1+00261-00331100871ADDAA199000091GF104991041001999999031999KA1120M+00411KA2120N+00131MA1999999099951MD1710111+9999OA149901851REMSYN094AAXX  16064 04390 32975 42612 10026 21033 39995 40087 57011 8403/ 333 10041 20013 91136 91230;EQDQ01  00002PRCP99
0153043900999992000111609004+60030-043110FM-12+0019BGPC V0202701N005712200019N0200001N1+00381-00281100781ADDGA1001+999999999GF100991001001999999001001MA1999999099861MD1710091+9999REMSYN070AAXX  16094 04390 42970 02711 10038 21028 39986 40078 57009 333 91126;
0190043900999992000111612004+60030-043110FM-12+0019BGPC V0202401N002612200019N0250001N1+00141-00271100791ADDAA199000091GF103991001001999999001061MA1999999099871MD1210011+9999OA149901341REMSYN082AAXX  16124 04390 32975 32405 10014 21027 39987 40079 52001 80006 333 91126 91218;EQDQ01  00002PRCP99
0171043900999992000111615004+60030-043110FM-12+0019BGPC V0201101N002612200019N0100001N1-00051-00061100731ADDAY101031AY201031GF102991021061004501001001MA1999999099801MD1710071+9999MW1101REMSYN082AAXX  16154 04390 41460 21105 11005 21006 39980 40073 57007 71000 82600 333 90000;
0205043900999992000111618004+60030-043110FM-12+0019BGPC V0201601N001510042019N0150001N1-00131-00131100571ADDAA199000091GF107991071041004501001001KA1120M+00411KA2999N-00131MA1999999099641MD1710161+9999REMSYN082AAXX  16184 04390 33465 71603 11013 21013 39964 40057 57016 87400 333 10041 21013;EQDQ01  00002PRCP99
0153043900999992000111621004+60030-043110FM-12+0019BGPC V0201501N002112200019N0250001N1-00211-00211100441ADDGA1001+999999999GF100991001001999999001001MA1999999099511MD1710131+9999REMSYN070AAXX  16214 04390 42975 01504 11021 21021 39951 40044 57013 333 90000;
0211043900999992000111700004+60030-043110FM-12+0019BGPC V0200801N001010006019N0008001N1-00251-00251100401ADDAA199000091AY141061AY201061GA1091+999999999GF109991091999999999999999MA1999999099471MD1710041+9999MW1491REMSYN076AAXX  17004 04390 31/08 90802 11025 21025 39947 40040 57004 74940 333 90000;EQDQ01  00002PRCP99
0139043900999992000111703004+60030-043110FM-12+0019BGPC V0202901N000519999999N0005001N1-00211-00211100231ADDAY141031AY241031MA1999999099301MD1710171+9999MW1471REMSYN076AAXX  17034 04390 41/05 /2901 11021 21021 39930 40023 57017 74744 333 90000;
0226043900999992000111706004+60030-043110FM-12+0019BGPC V0200201N001510042019N0050001N1-00221-00221100161ADDAA112000791AY161061AY221061GF108991081061004501999999KA1120M-00111KA2120N-00281MA1999999099231MD1710071+9999MW1511REMSYN100AAXX  17064 04390 11450 80203 11022 21022 39923 40016 57007 69902 75162 886// 333 11011 21028 90000;
0143043900999992000111709004+60030-043110FM-12+0019BGPC V0203401N002110150019N0250001N1-00131-00131100061ADDGF108991081001017501021999MA1999999099131MD1710101+9999REMSYN076AAXX  17094 04390 42775 83404 11013 21013 39913 40006 57010 8802/ 333 90000;
0188043900999992000111712004+60030-043110FM-12+0019BGPC V0200301N008210042019N0050001N1-00141-00141100011ADDAA106000791AY151061AY221061GF108991081061004501999999MA1999999099081MD1710051+9999MW1501REMSYN088AAXX  17124 04390 11450 80316 11014 21014 39908 40001 57005 69901 75052 886// 333 91124;
0171043900999992000111715004+60030-043110FM-12+0019BGPC V0200301N009310042019N0030001N1-00101-00131099781ADDAY151031AY251031GF108991081061004501999999MA1999999098861MD1710221+9999MW1571REMSYN082AAXX  17154 04390 41430 80318 11010 21013 39886 49978 57022 75755 886// 333 91130;
0226043900999992000111718004+60030-043110FM-12+0019BGPC V0200301N006210042019N0010001N1-00041-00041099551ADDAA112003091AY171061AY261061GF108991081071004501999999KA1120M-00031KA2120N-00221MA1999999098631MD1710231+9999MW1731REMSYN100AAXX  17184 04390 11410 80312 11004 21004 39863 49955 57023 60032 77376 887// 333 11003 21022 91130;
0171043900999992000111721004+60030-043110FM-12+0019BGPC V0200201N007210042019N0010001N1+00041+00041099551ADDAY171031AY271031GF108991081071004501999999MA1999999098631MD1410001+9999MW1571REMSYN082AAXX  17214 04390 41410 80214 10004 20004 39863 49955 54000 75777 887// 333 91126;
0188043900999992000111800004+60030-043110FM-12+0019BGPC V0203401N005110042019N0025001N1+00031+00031099561ADDAA106007991AY171061AY271061GF108991081071004501999999MA1999999098641MD1210011+9999MW1731REMSYN088AAXX  18004 04390 11425 83410 10003 20003 39864 49956 52001 60081 77377 887// 333 91126;
0171043900999992000111803004+60030-043110FM-12+0019BGPC V0203301N002610042019N0020001N1+00051+00051099821ADDAY171031AY271031GF108991081071004501999999MA1999999098901MD1210261+9999MW1731REMSYN082AAXX  18034 04390 41420 83305 10005 20005 39890 49982 52026 77377 887// 333 90000;
0232043900999992000111806004+60030-043110FM-12+0019BGPC V0209999C000010120019N0020001N1-00021-00021100051ADDAA112007991AY171061AY271061GF108991081001012501021999KA1120M+00091KA2120N-00071MA1999999099131MD1210231+9999MW1711REMSYN106AAXX  18064 04390 11620 80000 11002 21002 39913 40005 52023 60082 77177 8802/ 333 10009 21007 90000 90000;
0117043900999992000111809004+60030-043110FM-12+0019BGPC V0209999C000019999999N9999999N1+00141-00171100381ADDMA1999999099461MD1210331+9999REMSYN076AAXX  18094 04390 46/// /0000 10014 21017 39946 40038 52033 333 90000 90000;
0160043900999992000111812004+60030-043110FM-12+0019BGPC V0202901N000510150019N0250001N1+00051-00091100661ADDAA106003091GF107991071001017501021999MA1999999099731MD1210271+9999REMSYN082AAXX  18124 04390 13775 72901 10005 21009 39973 40066 52027 60031 8702/ 333 90000;
0149043900999992000111815004+60030-043110FM-12+0019BGPC V0201501N001010150019N0250001N1+00111-00111100841ADDGF107991071001017501021999MA1999999099911MD1210181+9999REMSYN082AAXX  18154 04390 42775 71502 10011 21011 39991 40084 52018 8702/ 333 90000 90000;
0204043900999992000111818004+60030-043110FM-12+0019BGPC V0200401N001510300019N0400001N1+00001-00061100961ADDAA112003091GF108991031071004501021999KA1120M+00201KA2120N-00031MA1999999100031MD1210121+9999REMSYN100AAXX  18184 04390 12482 80403 10000 21006 30003 40096 52012 60032 8372/ 333 10020 21003 90000 90000;
0143043900999992000111821004+60030-043110FM-12+0019BGPC V0200501N006710120019N0150001N1+00011-00031100961ADDGF108991081001012501021999MA1999999100031MD1410001+9999REMSYN076AAXX  18214 04390 42665 80513 10001 21003 30003 40096 54000 8802/ 333 91124;
0205043900999992000111900004+60030-043110FM-12+0019BGPC V0200301N011810120019N0003001N1-00131-00131100751ADDAA106002091AY171061AY271061GF108991081001012501021999MA1999999099821MD1710211+9999MW1731OA149901901REMSYN094AAXX  19004 04390 11603 80323 11013 21013 39982 40075 57021 60021 77377 8802/ 333 91137 91035;
0188043900999992000111903004+60030-043110FM-12+0019BGPC V0200301N013410120019N0003001N1-00151-00151100341ADDAY171031AY271031GF108991081001012501021999MA1999999099411MD1710411+9999MW1731OA149902111REMSYN088AAXX  19034 04390 41603 80326 11015 21015 39941 40034 57041 77377 8802/ 333 91141 91041;
0243043900999992000111906004+60030-043110FM-12+0019BGPC V0203401N013410120019N0001001N1-00031-00031099721ADDAA112010991AY171061AY271061GF108991081001012501021999KA1120M+00051KA2120N-00161MA1999999098801MD1710611+9999MW1731OA149902631REMSYN106AAXX  19064 04390 11601 83426 11003 21003 39880 49972 57061 60112 77377 8802/ 333 10005 21016 91151 91051;
0194043900999992000111909004+60030-043110FM-12+0019BGPC V0200201N010810120019N0030001N1-00011-00011099461ADDAY171031AY271031GF108991081001012501021999MA1999999098541MD1710261+9999MW1711OA149902631REMSYN094AAXX  19094 04390 41630 80221 11001 21001 39854 49946 57026 77177 8802/ 333 91151 91034 91235;
0171043900999992000111912004+60030-043110FM-12+0019BGPC V0200301N012319999999N0150001N1+00171+00171099391ADDAA199000021GF108991999999008001999999MA1999999098481MD1710061+9999OA149902631REMSYN082AAXX  19124 04390 32565 80324 10017 20017 39848 49939 57006 333 91151 91039 91235;
0194043900999992000111915004+60030-043110FM-12+0019BGPC V0200101N006710300019N0100001N1+00141+00071099401ADDAY171031AY261031GF108991041071004501021999MA1999999098491MD1210011+9999MW1611OA149902011REMSYN094AAXX  19154 04390 41460 80113 10014 20007 39849 49940 52001 76176 8472/ 333 91139 91026 91228;
0243043900999992000111918004+60030-043110FM-12+0019BGPC V0200401N003110075019N0200001N1+00291+00081099401ADDAA112007991AY161061AY221061GF108991071071008001021999KA1120M+00361KA2120N-00031MA1999999098491MD1410001+9999MW1001OA149902011REMSYN106AAXX  19184 04390 11570 80406 10029 20008 39849 49940 54000 60082 70062 8772/ 333 10036 21003 91139 91228;
0171043900999992000111921004+60030-043110FM-12+0019BGPC V0201101N002610075019N0100001N1+00131+00091099481ADDAY161031AY221031GF108991081071008001999999MA1999999098571MD1210081+9999MW1001REMSYN082AAXX  19214 04390 41560 81105 10013 20009 39857 49948 52008 70062 887// 333 90000;
0188043900999992000112000004+60030-043110FM-12+0019BGPC V0200301N004110075019N0250001N1+00161+00101099471ADDAA106000791AY101061AY201061GF108991081061008001999999MA1999999098561MD1710011+9999MW1501REMSYN088AAXX  20004 04390 11575 80308 10016 20010 39856 49947 57001 69901 75000 886// 333 90000;
0171043900999992000112003004+60030-043110FM-12+0019BGPC V0203301N002610075019N0020001N1+00081+00081099371ADDAY161031AY251031GF108991081061008001999999MA1999999098461MD1710101+9999MW1631REMSYN082AAXX  20034 04390 41520 83305 10008 20008 39846 49937 57010 76365 886// 333 90000;
0226043900999992000112006004+60030-043110FM-12+0019BGPC V0202901N006710042019N0030001N1+00131+00131099261ADDAA112003091AY161061AY261061GF108991081071004501999999KA1120M+00321KA2120N+00061MA1999999098351MD1710111+9999MW1611REMSYN100AAXX  20064 04390 11430 82913 10013 20013 39835 49926 57011 60032 76166 887// 333 10032 20006 91119;
0171043900999992000112009004+60030-043110FM-12+0019BGPC V0202701N008710150019N0200001N1+00261-00121099211ADDAY161031AY221031GF108991081001017501021999MA1999999098301MD1710051+9999MW1001REMSYN082AAXX  20094 04390 41770 82717 10026 21012 39830 49921 57005 70062 8802/ 333 91127;
0160043900999992000112012004+60030-043110FM-12+0019BGPC V0202801N008212200019N0250001N1+00231-00361099281ADDAA106001091GF103991011001017501061011MA1999999098371MD1210071+9999REMSYN082AAXX  20124 04390 12775 32816 10023 21036 39837 49928 52007 60011 81061 333 91127;
0160043900999992000112015004+60030-043110FM-12+0019BGPC V0202901N011312200019N0500001N1+00151-00441099251ADDGF102991021001999999071999MA1999999098341MD1710031+9999OA149901851REMSYN082AAXX  20154 04390 42984 22922 10015 21044 39834 49925 57003 8207/ 333 91136 91036;
0215043900999992000112018004+60030-043110FM-12+0019BGPC V0202701N012312200019N0250001N1+00131-00651099281ADDAA112001091GF102991021001017501021001KA1120M+00311KA2120N+00081MA1999999098371MD1210031+9999OA149901901REMSYN100AAXX  20184 04390 12775 22724 10013 21065 39837 49928 52003 60012 82020 333 10031 20008 91137 91035;
0153043900999992000112021004+60030-043110FM-12+0019BGPC V0202801N011312200019N0250001N1+00091-00731099411ADDGA1001+999999999GF100991001001999999001001MA1999999098501MD1210131+9999REMSYN070AAXX  20214 04390 42975 02822 10009 21073 39850 49941 52013 333 91137;
0183043900999992000112100004+60030-043110FM-12+0019BGPC V0202701N011312200019N0250001N1+00051-00721099461ADDAA199000091GA1001+999999999GF100991001001999999001001MA1999999098541MD1210041+9999REMSYN070AAXX  21004 04390 32975 02722 10005 21072 39854 49946 52004 333 91137;EQDQ01  00002PRCP99
0153043900999992000112103004+60030-043110FM-12+0019BGPC V0202701N011812200019N0250001N1-00031-00921099551ADDGA1001+999999999GF100991001001999999001001MA1999999098631MD1210091+9999REMSYN070AAXX  21034 04390 42975 02723 11003 21092 39863 49955 52009 333 91140;
0238043900999992000112106004+60030-043110FM-12+0019BGPC V0202801N010312200019N0200001N1-00041-00951099681ADDAA199000091GA1001+999999999GF100991001001999999001001KA1120M+00141KA2120N-00081MA1999999098761MD1210131+9999OA149902061REMSYN088AAXX  21064 04390 32970 02820 11004 21095 39876 49968 52013 333 10014 21008 91140 91036;EQDQ01  00002PRCP99
0170043900999992000112109004+60030-043110FM-12+0019BGPC V0202901N010312200019N0250001N1-00111-00951099811ADDGA1001+999999999GF100991001001999999001001MA1999999098891MD1210131+9999OA149901851REMSYN076AAXX  21094 04390 42975 02920 11011 21095 39889 49981 52013 333 91136 91032;
0183043900999992000112112004+60030-043110FM-12+0019BGPC V0202901N009812200019N0250001N1-00121-00951099941ADDAA199000091GA1001+999999999GF100991001001999999001001MA1999999099011MD1210121+9999REMSYN070AAXX  21124 04390 32975 02919 11012 21095 39901 49994 52012 333 91136;EQDQ01  00002PRCP99
0143043900999992000112115004+60030-043110FM-12+0019BGPC V0202901N007212200019N0500001N1-00041-00831099961ADDGF103991031041012501999999MA1999999099041MD1210031+9999REMSYN076AAXX  21154 04390 42684 32914 11004 21083 39904 49996 52003 834// 333 91130;
0211043900999992000112118004+60030-043110FM-12+0019BGPC V0202801N006710150019N0250001N1-00061-00831099931ADDAA199000091GF106991061001017501021999KA1120M+00011KA2120N-00151MA1999999099011MD1710031+9999REMSYN088AAXX  21184 04390 32775 62813 11006 21083 39901 49993 57003 8602/ 333 10001 21015 91130;EQDQ01  00002PRCP99
0143043900999992000112121004+60030-043110FM-12+0019BGPC V0202901N005710150019N0250001N1-00051-00641099981ADDGF106991061001017501021999MA1999999099061MD1210051+9999REMSYN076AAXX  21214 04390 42775 62911 11005 21064 39906 49998 52005 8602/ 333 91124;
0188043900999992000112200004+60030-043110FM-12+0019BGPC V0202801N005112200019N0150001N1-00131-00411100051ADDAA106000791AY111061AY201061GF104991041071004501999999MA1999999099121MD1210061+9999MW1701REMSYN088AAXX  22004 04390 11465 42810 11013 21041 39912 40005 52006 69901 77010 847// 333 91124;
0143043900999992000112203004+60030-043110FM-12+0019BGPC V0203001N004112200019N0250001N1-00161-00531100051ADDGF102991021001999999061999MA1999999099121MD1410001+9999REMSYN076AAXX  22034 04390 42975 23008 11016 21053 39912 40005 54000 8206/ 333 91117;
0208043900999992000112206004+60030-043110FM-12+0019BGPC V0202901N007212200019N0200001N1-00191-00551100031ADDAA112000791GA1001+999999999GF100991001001999999001001KA1120M-00031KA2120N-00201MA1999999099101MD1710021+9999REMSYN088AAXX  22064 04390 12970 02914 11019 21055 39910 40003 57002 69902 333 11003 21020 91117;
0133043900999992000112209004+60030-043110FM-12+0019BGPC V0202901N007710150019N0200001N1-00191-00561100091ADDGF107991071001017501021999MA1999999099161MD1210061+9999REMSYN066AAXX  22094 04390 42770 72915 11019 21056 39916 40009 52006 8702/;
0144043900999992000112212004+60030-043110FM-12+0019BGPC V0203001N004610120019N0060001N1-00201-00461100091ADDAA199000021GF107991071001012501021999MA1999999099161MD1410001+9999REMSYN066AAXX  22124 04390 32656 73009 11020 21046 39916 40009 54000 8702/;
0161043900999992000112215004+60030-043110FM-12+0019BGPC V0203001N004610120019N0200001N1-00181-00451100121ADDAY171031AY221031GF107991071031012501999999MA1999999099191MD1210031+9999MW1851REMSYN072AAXX  22154 04390 41670 73009 11018 21045 39919 40012 52003 78572 873//;
0220043900999992000112218004+60030-043110FM-12+0019BGPC V0203001N005110300019N0200001N1-00171-00431100101ADDAA112000791AY181061AY221061GF106991041031012501021999KA1120M-00141KA2999N-00311MA1999999099171MD1710021+9999MW1851REMSYN094AAXX  22184 04390 11670 63010 11017 21043 39917 40010 57002 69902 78582 8432/ 333 11014 21031;
0161043900999992000112221004+60030-043110FM-12+0019BGPC V0203001N004110210019N0200001N1-00201-00371100141ADDAY181031AY221031GF107991071021022501999999MA1999999099211MD1210041+9999MW1851REMSYN072AAXX  22214 04390 41870 73008 11020 21037 39921 40014 52004 78582 872//;
0144043900999992000112300004+60030-043110FM-12+0019BGPC V0203001N004110120019N0200001N1-00201-00311100101ADDAA199000021GF108991081001012501021999MA1999999099171MD1710041+9999REMSYN066AAXX  23004 04390 32670 83008 11020 21031 39917 40010 57004 8802/;
0133043900999992000112303004+60030-043110FM-12+0019BGPC V0203101N003610120019N0200001N1-00211-00251100051ADDGF108991081041012501999999MA1999999099121MD1710051+9999REMSYN066AAXX  23034 04390 42670 83107 11021 21025 39912 40005 57005 884//;
0192043900999992000112306004+60030-043110FM-12+0019BGPC V0203101N002610150019N0200001N1-00171-00171099951ADDAA112000791GF108991081001017501021999KA1120M-00121KA2999N-00251MA1999999099021MD1710101+9999REMSYN088AAXX  23064 04390 12770 83105 11017 21017 39902 49995 57010 69902 8802/ 333 11012 21025;
0171043900999992000112309004+60030-043110FM-12+0019BGPC V0200301N006710120019N0100001N1+00011-00171099851ADDAY171031AY221031GF108991081001012501021999MA1999999098931MD1710091+9999MW1701REMSYN082AAXX  23094 04390 41660 80313 10001 21017 39893 49985 57009 77072 8802/ 333 91120;
0205043900999992000112312004+60030-043110FM-12+0019BGPC V0200301N009310120019N0150001N1+00011-00041099761ADDAA106000591AY181061AY221061GF106991061031012501999999MA1999999098841MD1710091+9999MW1851OA149901441REMSYN094AAXX  23124 04390 11665 60318 10001 21004 39884 49976 57009 69941 78582 863// 333 91128 91028;
0171043900999992000112315004+60030-043110FM-12+0019BGPC V0200301N009310120019N0010001N1-00071-00071099601ADDAY171031AY271031GF108991081001012501021999MA1999999098681MD1710161+9999MW1731REMSYN082AAXX  23154 04390 41610 80318 11007 21007 39868 49960 57016 77377 8802/ 333 91128;
0226043900999992000112318004+60030-043110FM-12+0019BGPC V0200301N008710042019N0150001N1-00031-00051099461ADDAA112002091AY171061AY221061GF108991081071004501999999KA1120M+00051KA2120N-00201MA1999999098541MD1710141+9999MW1001REMSYN100AAXX  23184 04390 11465 80317 11003 21005 39854 49946 57014 60022 70072 887// 333 10005 21020 91129;
0188043900999992000112321004+60030-043110FM-12+0019BGPC V0200201N008210075019N0150001N1+00021-00151099421ADDAY131031AY221031GF107991071071008001999999MA1999999098501MD1710041+9999MW1361OA149901541REMSYN088AAXX  23214 04390 41565 70216 10002 21015 39850 49942 57004 73632 877// 333 91130 91028;
0188043900999992000112400004+60030-043110FM-12+0019BGPC V0200301N008210120019N0005001N1-00011-00011099351ADDAA106000191AY171061AY221061GF108991081001012501021999MA1999999098431MD1710071+9999MW1711REMSYN088AAXX  24004 04390 11605 80316 11001 21001 39843 49935 57007 69921 77172 8802/ 333 91131;
0198043900999992000112403004+60030-043110FM-12+0019BGPC V0200301N011312200019N9999999N1+00061-00131099291ADDAY181031AY211031GA1001+999999999GF100991001001999999001001MA1999999098381MD1710051+9999MW1001OA149902521REMSYN082AAXX  24034 04390 419// 00322 10006 21013 39838 49929 57005 70081 333 91149 91035;
0215043900999992000112406004+60030-043110FM-12+0019BGPC V0200201N012910075019N0200001N1+00121+00051099221ADDAA112000191GF108991081051008001999999KA1120M+00171KA2120N-00071MA1999999098311MD1710071+9999OA149902521REMSYN100AAXX  24064 04390 12570 80225 10012 20005 39831 49922 57007 69922 885// 333 10017 21007 91149 91037;
0160043900999992000112409004+60030-043110FM-12+0019BGPC V0200201N015910150019N0150001N1+00141+00091099251ADDGF108991081001017501021999MA1999999098341MD1210031+9999OA149902571REMSYN082AAXX  24094 04390 42765 80231 10014 20009 39834 49925 52003 8802/ 333 91150 91047;
0205043900999992000112412004+60030-043110FM-12+0019BGPC V0200101N015910120019N0030001N1+00101+00071099331ADDAA106000791AY171061AY271061GF108991081001012501021999MA1999999098421MD1210081+9999MW1701OA149902991REMSYN094AAXX  24124 04390 11630 80131 10010 20007 39842 49933 52008 69901 77077 8802/ 333 91158 91050;
0188043900999992000112415004+60030-043110FM-12+0019BGPC V0200301N018010042019N0010001N1+00111+00111099321ADDAY171031AY271031GF108991081071004501999999MA1999999098411MD1710011+9999MW1691OA149903191REMSYN088AAXX  24154 04390 41410 80335 10011 20011 39841 49932 57001 76977 887// 333 91162 91049;
0243043900999992000112418004+60030-043110FM-12+0019BGPC V0200201N018010300019N0030001N1+00091+00021099661ADDAA112000791AY171061AY271061GF108991041071012501021999KA1120M+00201KA2120N-00021MA1999999098741MD1210331+9999MW1701OA149903241REMSYN106AAXX  24184 04390 11630 80235 10009 20002 39874 49966 52033 69902 77077 8472/ 333 10020 21002 91163 91055;
0194043900999992000112421004+60030-043110FM-12+0019BGPC V0203301N011810150019N0050001N1+00211-00191099811ADDAY171031AY271031GF106991061001017501021999MA1999999098901MD1210161+9999MW1701OA149902931REMSYN094AAXX  24214 04390 41750 63323 10021 21019 39890 49981 52016 77077 8602/ 333 91157 91041 91240;
0211043900999992000112500004+60030-043110FM-12+0019BGPC V0200201N012912200019N0150001N1+00261-00231099841ADDAA106000791AY171061AY211061GF104991041051017501999999MA1999999098931MD1210031+9999MW1001OA149902931REMSYN100AAXX  25004 04390 11765 40225 10026 21023 39893 49984 52003 69901 70071 845// 333 91157 91040 91240;
0166043900999992000112503004+60030-043110FM-12+0019BGPC V0200301N010310210019N0200001N1+00141-00121099861ADDGF108991081001022501021999MA1999999098941MD1210011+9999OA149902631REMSYN088AAXX  25034 04390 42870 80320 10014 21012 39894 49986 52001 8802/ 333 91151 91031 91234;
0166043900999992000112506004+60030-043110FM-12+0019BGPC V0200101N009319999999N9999999N1+00091+00011099971ADDKA1120M+00351KA2120N+00071MA1999999099051MD1210111+9999OA149902631REMSYN088AAXX  25064 04390 46/// /0118 10009 20001 39905 49997 52011 333 10035 20007 91151 91234;
0170043900999992000112509004+60030-043110FM-12+0019BGPC V0203501N008212200019N0150001N1+00101-00181100091ADDGA1001+999999999GF100991001001999999001001MA1999999099171MD1210121+9999OA149901851REMSYN076AAXX  25094 04390 42965 03516 10010 21018 39917 40009 52012 333 91136 91028;
0173043900999992000112512004+60030-043110FM-12+0019BGPC V0200301N009310210019N0250001N1+00131-00341100261ADDAA199000091GF108991061001022501021061MA1999999099341MD1210171+9999REMSYN076AAXX  25124 04390 32875 80318 10013 21034 39934 40026 52017 86026 333 91136;EQDQ01  00002PRCP99
0143043900999992000112515004+60030-043110FM-12+0019BGPC V0200201N010810210019N0500001N1+00171-00361100331ADDGF107991071001022501021999MA1999999099411MD1210071+9999REMSYN076AAXX  25154 04390 42884 70221 10017 21036 39941 40033 52007 8702/ 333 91138;
0228043900999992000112518004+60030-043110FM-12+0019BGPC V0203301N004110120019N0250001N1+00101-00361100421ADDAA199000091GF108991081001012501021999KA1120M+00221KA2120N+00021MA1999999099501MD1210091+9999OA149901961REMSYN094AAXX  25184 04390 32675 83308 10010 21036 39950 40042 52009 8802/ 333 10022 20002 91138 91225;EQDQ01  00002PRCP99
0143043900999992000112521004+60030-043110FM-12+0019BGPC V0203501N004110150019N0150001N1+00091-00271100561ADDGF108991081001017501021999MA1999999099641MD1210141+9999REMSYN076AAXX  25214 04390 42765 83508 10009 21027 39964 40056 52014 8802/ 333 91124;
0184043900999992000112600004+60030-043110FM-12+0019BGPC V0203001N002612200019N0250001N1-00081-00221100611ADDAA199000091GF104991999999999999999999MA1999999099681MD1210041+9999OA149901241REMSYN076AAXX  26004 04390 32975 43005 11008 21022 39968 40061 52004 333 91124 91216;EQDQ01  00002PRCP99
0133043900999992000112603004+60030-043110FM-12+0019BGPC V0200201N004110150019N0200001N1+00001-00301100681ADDGF108991081001017501021999MA1999999099751MD1210071+9999REMSYN066AAXX  26034 04390 42770 80208 10000 21030 39975 40068 52007 8802/;
0215043900999992000112606004+60030-043110FM-12+0019BGPC V0203101N002112200019N0200001N1-00061-00141100701ADDAA199000091GA1001+999999999GF100991001001999999001001KA1120M+00161KA2999N-00151MA1999999099771MD1210021+9999REMSYN076AAXX  26064 04390 32970 03104 11006 21014 39977 40070 52002 333 10016 21015;EQDQ01  00002PRCP99
0133043900999992000112609004+60030-043110FM-12+0019BGPC V0203001N003112200019N0200001N1-00111-00271100801ADDGF103991031051017501999999MA1999999099871MD1210101+9999REMSYN066AAXX  26094 04390 42770 33006 11011 21027 39987 40080 52010 835//;
0163043900999992000112612004+60030-043110FM-12+0019BGPC V0203401N002619999999N0250001N1-00081-00331100951ADDAA199000091GF107991071001999999021071MA1999999100021MD1210151+9999REMSYN066AAXX  26124 04390 32975 73405 11008 21033 30002 40095 52015 87027;EQDQ01  00002PRCP99
0133043900999992000112615004+60030-043110FM-12+0019BGPC V0203201N001512200019N0500001N1-00101-00371100961ADDGF104991021001999999071061MA1999999100031MD1210011+9999REMSYN066AAXX  26154 04390 42984 43203 11010 21037 30003 40096 52001 82076;
0205043900999992000112618004+60030-043110FM-12+0019BGPC V0203001N001512200019N0250001N1-00171-00431100851ADDAA199000091GF103991031001017501021999KA1120M-00031KA2999N-00201MA1999999099911MD1710121+9999REMSYN082AAXX  26184 04390 32775 33003 11017 21043 39991 40085 57012 8302/ 333 11003 21020;EQDQ01  00002PRCP99
0133043900999992000112621004+60030-043110FM-12+0019BGPC V0203001N003112200019N0200001N1-00221-00481100911ADDGF103991031001999999021999MA1999999099971MD1210061+9999REMSYN066AAXX  26214 04390 42970 33006 11022 21048 39997 40091 52006 8302/;
0163043900999992000112700004+60030-043110FM-12+0019BGPC V0203001N002612200019N0200001N1-00171-00471100911ADDAA199000091GF103991031001999999021999MA1999999099971MD1410001+9999REMSYN066AAXX  27004 04390 32970 33005 11017 21047 39997 40091 54000 8302/;EQDQ01  00002PRCP99
0133043900999992000112703004+60030-043110FM-12+0019BGPC V0203101N002112200019N0150001N1-00211-00541100881ADDGF103991031031017501001999MA1999999099941MD1710031+9999REMSYN066AAXX  27034 04390 42765 33104 11021 21054 39994 40088 57003 8330/;
0123043900999992000112709004+60030-043110FM-12+0019BGPC V0202701N002612200019N0200001N1-00181-00431100881ADDGA1001+999999999GF100991001001999999001001MA1999999099941REMSYN054AAXX  27094 04390 42970 02705 11018 21043 39994 40088;
0163043900999992000112712004+60030-043110FM-12+0019BGPC V0202901N003612200019N0500001N1-00141-00611100881ADDAA199000091GF103991031001999999031999MA1999999099941MD1410001+9999REMSYN066AAXX  27124 04390 32984 32907 11014 21061 39994 40088 54000 8303/;EQDQ01  00002PRCP99
0133043900999992000112715004+60030-043110FM-12+0019BGPC V0202701N003112200019N0250001N1-00071-00581100831ADDGF102991021001999999021999MA1999999099901MD1710041+9999REMSYN066AAXX  27154 04390 42975 22706 11007 21058 39990 40083 57004 8202/;
0205043900999992000112718004+60030-043110FM-12+0019BGPC V0202801N002612200019N0250001N1-00131-00721100791ADDAA199000091GF103991031001017501021999KA1120M-00031KA2999N-00251MA1999999099861MD1710041+9999REMSYN082AAXX  27184 04390 32775 32805 11013 21072 39986 40079 57004 8302/ 333 11003 21025;EQDQ01  00002PRCP99
0133043900999992000112721004+60030-043110FM-12+0019BGPC V0202801N002612200019N0250001N1-00151-00751100811ADDGF102991021001017501021999MA1999999099881MD1210021+9999REMSYN066AAXX  27214 04390 42775 22805 11015 21075 39988 40081 52002 8202/;
0163043900999992000112800004+60030-043110FM-12+0019BGPC V0203001N004112200019N0250001N1-00121-00681100761ADDAA199000091GF102991021001017501021999MA1999999099831MD1710051+9999REMSYN066AAXX  28004 04390 32775 23008 11012 21068 39983 40076 57005 8202/;EQDQ01  00002PRCP99
0161043900999992000112803004+60030-043110FM-12+0019BGPC V0202901N004112200019N0100001N1-00161-00581100721ADDAY111031AY201031GF102991011001012501011999MA1999999099791MD1710041+9999MW1701REMSYN072AAXX  28034 04390 41660 22908 11016 21058 39979 40072 57004 77010 8101/;
0220043900999992000112806004+60030-043110FM-12+0019BGPC V0203001N005110300019N0250001N1-00251-00251100661ADDAA112000591AY171061AY271061GF108991031051004501021999KA1120M-00091KA2999N-00271MA1999999099721MD1710071+9999MW1001REMSYN094AAXX  28064 04390 11475 83010 11025 21025 39972 40066 57007 69942 70077 8352/ 333 11009 21027;
0133043900999992000112809004+60030-043110FM-12+0019BGPC V0202901N005710120019N0200001N1-00161-00391100611ADDGF108991081001012501021999MA1999999099681MD1710041+9999REMSYN066AAXX  28094 04390 42670 82911 11016 21039 39968 40061 57004 8802/;
0144043900999992000112812004+60030-043110FM-12+0019BGPC V0203101N002110150019N0200001N1-00131-00241100591ADDAA199000021GF107991071001017501021999MA1999999099661MD1710021+9999REMSYN066AAXX  28124 04390 32770 73104 11013 21024 39966 40059 57002 8702/;
0133043900999992000112815004+60030-043110FM-12+0019BGPC V0202801N001512200019N0200001N1-00131-00181100541ADDGF103991031021017501021999MA1999999099611MD1710051+9999REMSYN066AAXX  28154 04390 42770 32803 11013 21018 39961 40054 57005 8322/;
0205043900999992000112818004+60030-043110FM-12+0019BGPC V0203001N002612200019N0250001N1-00171-00241100471ADDAA199000091GF102991021001022501021999KA1120M-00091KA2999N-00251MA1999999099541MD1710071+9999REMSYN082AAXX  28184 04390 32875 23005 11017 21024 39954 40047 57007 8202/ 333 11009 21025;EQDQ01  00002PRCP99
0133043900999992000112821004+60030-043110FM-12+0019BGPC V0203001N001512200019N0250001N1-00241-00471100431ADDGF102991001001999999001061MA1999999099501MD1710041+9999REMSYN066AAXX  28214 04390 42975 23003 11024 21047 39950 40043 57004 80006;
0163043900999992000112900004+60030-043110FM-12+0019BGPC V0202901N003612200019N0200001N1-00101-00561100541ADDAA199000091GF103991031051017501999999MA1999999099611MD1210111+9999REMSYN066AAXX  29004 04390 32770 32907 11010 21056 39961 40054 52011 835//;EQDQ01  00002PRCP99
0163043900999992000112903004+60030-043110FM-12+0019BGPC V0202701N002612200019N0200001N1-00141-00611100391ADDAA199000091GF101991011001999999011999MA1999999099461MD1710151+9999REMSYN066AAXX  29034 04390 32970 12705 11014 21061 39946 40039 57015 8101/;EQDQ01  00002PRCP99
0205043900999992000112906004+60030-043110FM-12+0019BGPC V0203001N005110120019N0250001N1-00171-00401100401ADDAA199000091GF107991071001012501021001KA1120M-00061KA2999N-00291MA1999999099471MD1210011+9999REMSYN082AAXX  29064 04390 32675 73010 11017 21040 39947 40040 52001 87020 333 11006 21029;EQDQ01  00002PRCP99
0133043900999992000112909004+60030-043110FM-12+0019BGPC V0203001N004612200019N0100001N1-00211-00541100391ADDGF103991031001999999031999MA1999999099461MD1710011+9999REMSYN066AAXX  29094 04390 42960 33009 11021 21054 39946 40039 57001 8303/;
0163043900999992000112912004+60030-043110FM-12+0019BGPC V0203001N003112200019N0400001N1-00181-00441100401ADDAA199000091GF105991041001022501031091MA1999999099471MD1210011+9999REMSYN066AAXX  29124 04390 32882 53006 11018 21044 39947 40040 52001 84039;EQDQ01  00002PRCP99
0133043900999992000112915004+60030-043110FM-12+0019BGPC V0203001N006219999999N0500001N1-00071-00571100351ADDGF106991061001999999051999MA1999999099421MD1710051+9999REMSYN066AAXX  29154 04390 42984 63012 11007 21057 39942 40035 57005 8605/;
0211043900999992000112918004+60030-043110FM-12+0019BGPC V0203101N001510150019N0250001N1-00081-00451100421ADDAA199000091GF106991061051017501999999KA1120M+00011KA2120N-00231MA1999999099491MD1210071+9999REMSYN088AAXX  29184 04390 32775 63103 11008 21045 39949 40042 52007 865// 333 10001 21023 91213;EQDQ01  00002PRCP99
0160043900999992000112921004+60030-043110FM-12+0019BGPC V0203501N002110150019N0200001N1-00031-00241100531ADDGF108991081051017501999999MA1999999099601MD1210111+9999OA149900771REMSYN082AAXX  29214 04390 42770 83504 11003 21024 39960 40053 52011 885// 333 91115 91215;
0173043900999992000113000004+60030-043110FM-12+0019BGPC V0203301N002610150019N0250001N1-00061-00321100571ADDAA199000091GF108991081001017501021999MA1999999099641MD1210041+9999REMSYN076AAXX  30004 04390 32775 83305 11006 21032 39964 40057 52004 8802/ 333 91123;EQDQ01  00002PRCP99
0133043900999992000113003004+60030-043110FM-12+0019BGPC V0203101N004612200019N0200001N1-00181-00351100581ADDGF101991001001999999001011MA1999999099651MD1210011+9999REMSYN066AAXX  30034 04390 42970 13109 11018 21035 39965 40058 52001 80001;
0205043900999992000113006004+60030-043110FM-12+0019BGPC V0202901N002619999999N0250001N1-00111-00361100591ADDAA199000091GF108991081001999999011999KA1120M+00051KA2999N-00221MA1999999099661MD1210011+9999REMSYN082AAXX  30064 04390 32975 82905 11011 21036 39966 40059 52001 8801/ 333 10005 21022;EQDQ01  00002PRCP99
0133043900999992000113009004+60030-043110FM-12+0019BGPC V0203001N001519999999N0200001N1-00141-00361100641ADDGF108991001001999999001071MA1999999099711MD1210051+9999REMSYN066AAXX  30094 04390 42970 83003 11014 21036 39971 40064 52005 80007;
0163043900999992000113012004+60030-043110FM-12+0019BGPC V0202801N001010150019N0250001N1-00081-00541100661ADDAA199000091GF107991071051017501999999MA1999999099731MD1210021+9999REMSYN066AAXX  30124 04390 32775 72802 11008 21054 39973 40066 52002 875//;EQDQ01  00002PRCP99
0133043900999992000113015004+60030-043110FM-12+0019BGPC V0203001N004610210019N0500001N1-00131-00361100591ADDGF105991051001022501031999MA1999999099661MD1710071+9999REMSYN066AAXX  30154 04390 42884 53009 11013 21036 39966 40059 57007 8503/;
0215043900999992000113018004+60030-043110FM-12+0019BGPC V0203001N002112200019N0250001N1-00251-00561100551ADDAA199000091GA1001+999999999GF100991001001999999001001KA1120M-00031KA2999N-00261MA1999999099611MD1710051+9999REMSYN076AAXX  30184 04390 32975 03004 11025 21056 39961 40055 57005 333 11003 21026;EQDQ01  00002PRCP99
0133043900999992000113021004+60030-043110FM-12+0019BGPC V0203101N004610150019N0250001N1-00241-00541100521ADDGF107991071001017501021999MA1999999099581MD1710031+9999REMSYN066AAXX  30214 04390 42775 73109 11024 21054 39958 40052 57003 8702/;
0173043900999992000120100004+60030-043110FM-12+0019BGPC V0203101N003612200019N0250001N1-00261-00681100501ADDAA199000091GA1001+999999999GF100991001001999999001001MA1999999099561MD1710021+9999REMSYN060AAXX  01004 04390 32975 03107 11026 21068 39956 40050 57002;EQDQ01  00002PRCP99
0143043900999992000120103004+60030-043110FM-12+0019BGPC V0203001N004612200019N0200001N1-00171-00801100421ADDGA1001+999999999GF100991001001999999001001MA1999999099491MD1710071+9999REMSYN060AAXX  01034 04390 42970 03009 11017 21080 39949 40042 57007;
0215043900999992000120106004+60030-043110FM-12+0019BGPC V0203101N004112200019N0250001N1-00101-00961100391ADDAA199000091GA1001+999999999GF100991001001999999001001KA1120M-00091KA2999N-00311MA1999999099461MD1710031+9999REMSYN076AAXX  01064 04390 32975 03108 11010 21096 39946 40039 57003 333 11009 21031;EQDQ01  00002PRCP99
0163043900999992000120112004+60030-043110FM-12+0019BGPC V0203001N004619999999N0500001N1-00141-00611100381ADDAA199000091GF108991081001999999051999MA1999999099451MD1410001+9999REMSYN066AAXX  01124 04390 32984 83009 11014 21061 39945 40038 54000 8805/;EQDQ01  00002PRCP99
0133043900999992000120115004+60030-043110FM-12+0019BGPC V0203101N003119999999N0500001N1-00101-00481100291ADDGF107991071001999999011999MA1999999099361MD1710091+9999REMSYN066AAXX  01154 04390 42984 73106 11010 21048 39936 40029 57009 8701/;
0205043900999992000120118004+60030-043110FM-12+0019BGPC V0203001N001519999999N0150001N1-00071-00471100271ADDAA199000091GF108991021001017501021999KA1120M-00041KA2999N-00211MA1999999099341MD1710021+9999REMSYN082AAXX  01184 04390 32765 83003 11007 21047 39934 40027 57002 8202/ 333 11004 21021;EQDQ01  00002PRCP99
0133043900999992000120121004+60030-043110FM-12+0019BGPC V0202701N001510150019N0250001N1-00101-00481100281ADDGF108991081001017501021999MA1999999099351MD1210011+9999REMSYN066AAXX  01214 04390 42775 82703 11010 21048 39935 40028 52001 8802/;
0163043900999992000120200004+60030-043110FM-12+0019BGPC V0203001N002610150019N0250001N1-00141-00441100211ADDAA199000091GF108991081001017501021999MA1999999099281MD1710071+9999REMSYN066AAXX  02004 04390 32775 83005 11014 21044 39928 40021 57007 8802/;EQDQ01  00002PRCP99
0133043900999992000120203004+60030-043110FM-12+0019BGPC V0203001N001512200019N0150001N1-00231-00411100091ADDGF102991021001017501021999MA1999999099161MD1710121+9999REMSYN066AAXX  02034 04390 42765 23003 11023 21041 39916 40009 57012 8202/;
0205043900999992000120206004+60030-043110FM-12+0019BGPC V0202601N002612200019N0250001N1-00241-00471099971ADDAA199000091GF101991011001999999021999KA1120M-00061KA2999N-00321MA1999999099041MD1710121+9999REMSYN082AAXX  02064 04390 32975 12605 11024 21047 39904 49997 57012 8102/ 333 11006 21032;EQDQ01  00002PRCP99
0101043900999992000120209004+60030-043110FM-12+0019BGPC V0202401N005119999999N9999999N1-00291-00491099831ADDMA1999999098901MD1710141+9999REMSYN060AAXX  02094 04390 46/// /2410 11029 21049 39890 49983 57014;
0101043900999992000120212004+60030-043110FM-12+0019BGPC V0202501N003119999999N9999999N1-00221-00541099751ADDMA1999999098821MD1710081+9999REMSYN060AAXX  02124 04390 46/// /2506 11022 21054 39882 49975 57008;
0143043900999992000120215004+60030-043110FM-12+0019BGPC V0203101N006712200019N9999999N1-00141-00631099671ADDGA1001+999999999GF100991001001999999001001MA1999999098751MD1710071+9999REMSYN060AAXX  02154 04390 429// 03113 11014 21063 39875 49967 57007;
0205043900999992000120218004+60030-043110FM-12+0019BGPC V0202801N006212200019N0500001N1-00161-00771099641ADDAA199000091GF101991001001999999001041KA1120M-00101KA2999N-00321MA1999999098721MD1710031+9999REMSYN082AAXX  02184 04390 32984 12812 11016 21077 39872 49964 57003 80004 333 11010 21032;EQDQ01  00002PRCP99
0153043900999992000120221004+60030-043110FM-12+0019BGPC V0202801N006712200019N0250001N1-00211-00891099691ADDGA1001+999999999GF100991001001999999001001MA1999999098761MD1210041+9999REMSYN070AAXX  02214 04390 42975 02813 11021 21089 39876 49969 52004 333 91124;
0183043900999992000120300004+60030-043110FM-12+0019BGPC V0202401N004112200019N0250001N1-00321-01021099681ADDAA199000091GA1001+999999999GF100991001001999999001001MA1999999098751MD1710011+9999REMSYN070AAXX  03004 04390 32975 02408 11032 21102 39875 49968 57001 333 91124;EQDQ01  00002PRCP99
0133043900999992000120303004+60030-043110FM-12+0019BGPC V0202501N005112200019N0200001N1-00271-01091099601ADDGF102991021001022501021999MA1999999098671MD1710081+9999REMSYN066AAXX  03034 04390 42870 22510 11027 21109 39867 49960 57008 8202/;
0215043900999992000120306004+60030-043110FM-12+0019BGPC V0202901N003112200019N9999999N1-00321-01071099651ADDAA199000091GA1001+999999999GF100991001001999999001001KA1120M-00161KA2999N-00481MA1999999098721MD1210051+9999REMSYN076AAXX  03064 04390 329// 02906 11032 21107 39872 49965 52005 333 11016 21048;EQDQ01  00002PRCP99
0143043900999992000120309004+60030-043110FM-12+0019BGPC V0202901N004112200019N0200001N1-00371-00871099761ADDGA1001+999999999GF100991001001999999001001MA1999999098831MD1210111+9999REMSYN060AAXX  03094 04390 42970 02908 11037 21087 39883 49976 52011;
0101043900999992000120312004+60030-043110FM-12+0019BGPC V0203101N002619999999N9999999N1-00411-00811099921ADDMA1999999098981MD1210151+9999REMSYN060AAXX  03124 04390 46/// /3105 11041 21081 39898 49992 52015;
0133043900999992000120315004+60030-043110FM-12+0019BGPC V0203001N002119999999N0250001N1-00291-00851099871ADDGF107991001001999999001061MA1999999098941MD1710041+9999REMSYN066AAXX  03154 04390 42975 73004 11029 21085 39894 49987 57004 80006;
0205043900999992000120318004+60030-043110FM-12+0019BGPC V0203001N003119999999N0500001N1-00261-00731099861ADDAA199000091GF108991081001999999011999KA1120M-00171KA2999N-00441MA1999999098931MD1710011+9999REMSYN082AAXX  03184 04390 32984 83006 11026 21073 39893 49986 57001 8801/ 333 11017 21044;EQDQ01  00002PRCP99
0133043900999992000120321004+60030-043110FM-12+0019BGPC V0203001N005719999999N0200001N1-00211-00851099831ADDGF108991081001999999011999MA1999999098901MD1710031+9999REMSYN066AAXX  03214 04390 42970 83011 11021 21085 39890 49983 57003 8801/;
0173043900999992000120400004+60030-043110FM-12+0019BGPC V0203201N004119999999N0200001N1-00161-00711099771ADDAA199000091GF107991071001999999011999MA1999999098841MD1710061+9999REMSYN076AAXX  04004 04390 32970 73208 11016 21071 39884 49977 57006 8701/ 333 91119;EQDQ01  00002PRCP99
0211043900999992000120406004+60030-043110FM-12+0019BGPC V0200201N007219999999N0150001N1+00151-00561099581ADDAA199000091GF108991021021017501001999KA1120M+00241KA2120N-00271MA1999999098671MD1710071+9999REMSYN088AAXX  04064 04390 32765 80214 10015 21056 39867 49958 57007 8220/ 333 10024 21027 91126;EQDQ01  00002PRCP99
0160043900999992000120409004+60030-043110FM-12+0019BGPC V0200101N007210150019N0250001N1+00151-00261099541ADDGF105991051001017501021999MA1999999098631MD1710041+9999OA149901541REMSYN082AAXX  04094 04390 42775 50114 10015 21026 39863 49954 57004 8502/ 333 91130 91026;
0190043900999992000120412004+60030-043110FM-12+0019BGPC V0203501N008210210019N0500001N1+00261-00181099551ADDAA199000091GF108991081001022501021999MA1999999098641MD1210011+9999OA149901801REMSYN082AAXX  04124 04390 32884 83516 10026 21018 39864 49955 52001 8802/ 333 91135 91030;EQDQ01  00002PRCP99
0188043900999992000120415004+60030-043110FM-12+0019BGPC V0200201N007710150019N0150001N1+00201-00031099581ADDAY181031AY221031GF108991081001017501021999MA1999999098671MD1210031+9999MW1701OA149901961REMSYN088AAXX  04154 04390 41765 80215 10020 21003 39867 49958 52003 77082 8802/ 333 91138 91225;
0209043900999992000120418004+60030-043110FM-12+0019BGPC V0200101N008719999999N9999999N1+00151+00001099551ADDAA199000021GF108991081021999999999999KA1120M+00271KA2120N+00101MA1999999098641MD1710031+9999OA149902011REMSYN094AAXX  04184 04390 32/// 80117 10015 20000 39864 49955 57003 882// 333 10027 20010 91139 91032;
0171043900999992000120421004+60030-043110FM-12+0019BGPC V0200201N008710042019N0050001N1+00101+00101099611ADDAY171031AY271031GF108991081071004501999999MA1999999098691MD1210051+9999MW1701REMSYN082AAXX  04214 04390 41450 80217 10010 20010 39869 49961 52005 77077 887// 333 91132;
0188043900999992000120500004+60030-043110FM-12+0019BGPC V0200301N009310042019N0050001N1+00061+00061099681ADDAA106001091AY171061AY271061GF108991081071004501999999MA1999999098761MD1210071+9999MW1711REMSYN088AAXX  05004 04390 11450 80318 10006 20006 39876 49968 52007 60011 77177 887// 333 91132;
0188043900999992000120503004+60030-043110FM-12+0019BGPC V0200301N012910042019N0050001N1+00221+00121099701ADDAY181031AY271031GF108991081071004501999999MA1999999098791MD1210031+9999MW1681OA149902321REMSYN088AAXX  05034 04390 41450 80325 10022 20012 39879 49970 52003 76887 887// 333 91145 91045;
0243043900999992000120506004+60030-043110FM-12+0019BGPC V0200301N015410120019N0100001N1+00211-00071099851ADDAA112021191AY121061AY211061GF108991081041012501999999KA1120M+00261KA2120N+00011MA1999999098941MD1210151+9999MW1601OA149902881REMSYN106AAXX  05064 04390 11660 80330 10021 21007 39894 49985 52015 60212 76021 884// 333 10026 20001 91156 91046;
0166043900999992000120509004+60030-043110FM-12+0019BGPC V0200301N009310120019N0200001N1+00251-00081100031ADDGF106991061001012501021999MA1999999099121MD1210181+9999OA149902521REMSYN088AAXX  05094 04390 42670 60318 10025 21008 39912 40003 52018 8602/ 333 91149 91028 91232;
0205043900999992000120512004+60030-043110FM-12+0019BGPC V0200201N008210300019N0300001N1+00251-00191100171ADDAA106002091AY171061AY271061GF106991031071004501021999MA1999999099251MD1210131+9999MW1001OA149902521REMSYN094AAXX  05124 04390 11480 60216 10025 21019 39925 40017 52013 60021 70077 8372/ 333 91149 91232;
0143043900999992000120515004+60030-043110FM-12+0019BGPC V0200301N006710150019N0250001N1+00281-00231100191ADDGF106991061051017501999999MA1999999099281MD1210031+9999REMSYN076AAXX  05154 04390 42775 60313 10028 21023 39928 40019 52003 865// 333 91133;
0198043900999992000120518004+60030-043110FM-12+0019BGPC V0200301N006210075019N0500001N1+00261-00191100281ADDAA112002091GF105991051051008001999999KA1120M+00311KA2120N+00191MA1999999099361MD1210081+9999REMSYN094AAXX  05184 04390 12584 50312 10026 21019 39936 40028 52008 60022 855// 333 10031 20019 91133;
0133043900999992000120521004+60030-043110FM-12+0019BGPC V0203601N004110210019N0250001N1+00201-00131100431ADDGF106991061001022501021001MA1999999099511MD1210151+9999REMSYN066AAXX  05214 04390 42875 63608 10020 21013 39951 40043 52015 86020;
0173043900999992000120600004+60030-043110FM-12+0019BGPC V0203201N001512200019N0200001N1+00111-00101100521ADDAA199000091GF101991011001999999031999MA1999999099601MD1210091+9999REMSYN076AAXX  06004 04390 32970 13203 10011 21010 39960 40052 52009 8103/ 333 91215;EQDQ01  00002PRCP99
0133043900999992000120603004+60030-043110FM-12+0019BGPC V0202901N001512200019N0250001N1+00041-00191100551ADDGF104991041001999999031999MA1999999099621MD1210021+9999REMSYN066AAXX  06034 04390 42975 42903 10004 21019 39962 40055 52002 8403/;
0205043900999992000120606004+60030-043110FM-12+0019BGPC V0203101N001512200019N0200001N1-00041-00201100591ADDAA199000091GF102991021001999999021999KA1120M+00261KA2999N-00061MA1999999099661MD1210041+9999REMSYN082AAXX  06064 04390 32970 23103 11004 21020 39966 40059 52004 8202/ 333 10026 21006;EQDQ01  00002PRCP99
0133043900999992000120609004+60030-043110FM-12+0019BGPC V0203001N001519999999N0250001N1-00141-00251100681ADDGF105991051001999999011999MA1999999099751MD1210091+9999REMSYN066AAXX  06094 04390 42975 53003 11014 21025 39975 40068 52009 8501/;
0163043900999992000120612004+60030-043110FM-12+0019BGPC V0203001N001519999999N0500001N1-00031-00201100801ADDAA199000091GF106991031001999999071071MA1999999099871MD1210121+9999REMSYN066AAXX  06124 04390 32984 63003 11003 21020 39987 40080 52012 83077;EQDQ01  00002PRCP99
0133043900999992000120615004+60030-043110FM-12+0019BGPC V0202901N001510150019N0250001N1-00031-00211100871ADDGF107991071001017501021999MA1999999099941MD1210071+9999REMSYN066AAXX  06154 04390 42775 72903 11003 21021 39994 40087 52007 8702/;
0205043900999992000120618004+60030-043110FM-12+0019BGPC V0203301N001010210019N0500001N1-00041-00181100941ADDAA199000091GF107991071001022501021999KA1120M+00051KA2999N-00161MA1999999100011MD1210071+9999REMSYN082AAXX  06184 04390 32884 73302 11004 21018 30001 40094 52007 8702/ 333 10005 21016;EQDQ01  00002PRCP99
0133043900999992000120621004+60030-043110FM-12+0019BGPC V0200201N003110150019N0250001N1-00031-00151101071ADDGF108991081001017501021999MA1999999100141MD1210131+9999REMSYN066AAXX  06214 04390 42775 80206 11003 21015 30014 40107 52013 8802/;
0163043900999992000120700004+60030-043110FM-12+0019BGPC V0200201N004610210019N0200001N1+00021-00151101131ADDAA199000091GF108991081001022501021999MA1999999100201MD1210061+9999REMSYN066AAXX  07004 04390 32870 80209 10002 21015 30020 40113 52006 8802/;EQDQ01  00002PRCP99
0133043900999992000120703004+60030-043110FM-12+0019BGPC V0200301N008710150019N0200001N1+00011-00181101101ADDGF108991081001017501021999MA1999999100171MD1710031+9999REMSYN066AAXX  07034 04390 42770 80317 10001 21018 30017 40110 57003 8802/;
0211043900999992000120706004+60030-043110FM-12+0019BGPC V0200201N008710120019N0150001N1-00071-00241101091ADDAA199000091GF108991081041012501999999KA1120M+00091KA2120N-00091MA1999999100161MD1710011+9999REMSYN088AAXX  07064 04390 32665 80217 11007 21024 30016 40109 57001 884// 333 10009 21009 91129;EQDQ01  00002PRCP99
0143043900999992000120709004+60030-043110FM-12+0019BGPC V0200401N007710075019N0120001N1-00131-00351101071ADDGF108991081051008001999999MA1999999100131MD1710031+9999REMSYN076AAXX  07094 04390 42562 80415 11013 21035 30013 40107 57003 885// 333 91126;
0205043900999992000120712004+60030-043110FM-12+0019BGPC V0200401N009810075019N0100001N1-00141-00451101061ADDAA106000791AY151061AY221061GF108991081051008001999999MA1999999100121MD1710011+9999MW1501OA149901601REMSYN094AAXX  07124 04390 11560 80419 11014 21045 30012 40106 57001 69901 75052 885// 333 91131 91031;
0143043900999992000120715004+60030-043110FM-12+0019BGPC V0203501N006210075019N0120001N1-00171-00301100991ADDGF108991081051008001999999MA1999999100051MD1710071+9999REMSYN076AAXX  07154 04390 42562 83512 11017 21030 30005 40099 57007 885// 333 91131;
0243043900999992000120718004+60030-043110FM-12+0019BGPC V0203601N009310042019N0050001N1-00171-00361101041ADDAA112000791AY151061AY221061GF108991081061004501999999KA1120M-00061KA2120N-00221MA1999999100101MD1210051+9999MW1681OA149901601REMSYN106AAXX  07184 04390 11450 83618 11017 21036 30010 40104 52005 69902 76852 886// 333 11006 21022 91131 91030;
0188043900999992000120721004+60030-043110FM-12+0019BGPC V0200301N009310042019N0050001N1-00201-00401101141ADDAY181031AY251031GF108991081071004501999999MA1999999100201MD1210101+9999MW1001OA149901701REMSYN088AAXX  07214 04390 41450 80318 11020 21040 30020 40114 52010 70085 887// 333 91133 91031;
0205043900999992000120800004+60030-043110FM-12+0019BGPC V0200301N014410042019N0050001N1-00201-00601101121ADDAA106000791AY181061AY281061GF108991081071004501999999MA1999999100181MD1710021+9999MW1701OA149902261REMSYN094AAXX  08004 04390 11450 80328 11020 21060 30018 40112 57002 69901 77088 887// 333 91144 91039;
0160043900999992000120803004+60030-043110FM-12+0019BGPC V0200201N009310150019N0200001N1-00161-00601101111ADDGF108991081051017501999999MA1999999100171MD1710011+9999OA149902161REMSYN082AAXX  08034 04390 42770 80218 11016 21060 30017 40111 57001 885// 333 91142 91229;
0168043900999992000120809004+60030-043110FM-12+0019BGPC V0200301N011310120019N0030001N1-00231-00281101001ADDAY171031AY221031GF108991081051012501999999MA1999999100061MW1851OA149901961REMSYN082AAXX  08094 04390 41630 80322 11023 21028 30006 40100 78572 885// 333 91138 91035;
0205043900999992000120812004+60030-043110FM-12+0019BGPC V0200201N011810042019N0050001N1-00131-00291100921ADDAA106000791AY181061AY221061GF108991081071004501999999MA1999999099981MD1710081+9999MW1601OA149902161REMSYN094AAXX  08124 04390 11450 80223 11013 21029 39998 40092 57008 69901 76082 887// 333 91142 91037;
0188043900999992000120815004+60030-043110FM-12+0019BGPC V0200101N013910003019N0025001N1-00131-00201100761ADDAY131031AY221031GF108991081031000251999999MA1999999099831MD1710151+9999MW1861OA149902371REMSYN088AAXX  08154 04390 41025 80127 11013 21020 39983 40076 57015 78632 883// 333 91146 91046;
0243043900999992000120818004+60030-043110FM-12+0019BGPC V0200401N018510042019N0050001N1-00031-00301100701ADDAA112000791AY171061AY271061GF108991081071004501999999KA1120M-00011KA2120N-00271MA1999999099771MD1710061+9999MW1711OA149903041REMSYN106AAXX  08184 04390 11450 80436 11003 21030 39977 40070 57006 69902 77177 887// 333 11001 21027 91159 91054;
0188043900999992000120821004+60030-043110FM-12+0019BGPC V0203501N020010075019N0050001N1-00101-00431100551ADDAY171031AY221031GF108991081001008001021999MA1999999099621MD1710151+9999MW1001OA149903401REMSYN088AAXX  08214 04390 41550 83539 11010 21043 39962 40055 57015 70072 8802/ 333 91166 91059;
0171043900999992000120900004+60030-043110FM-12+0019BGPC V0200201N020619999999N0200001N1-00101-00341100501ADDAA199000021GF107991071001999999011999MA1999999099571MD1710051+9999OA149903551REMSYN082AAXX  09004 04390 32970 70240 11010 21034 39957 40050 57005 8701/ 333 91169 91063;
0171043900999992000120903004+60030-043110FM-12+0019BGPC V0200201N020610075019N0050001N1-00071-00241100431ADDAA199000021GF108991081001008001021999MA1999999099501MD1710071+9999OA149903651REMSYN082AAXX  09034 04390 32550 80240 11007 21024 39950 40043 57007 8802/ 333 91171 91066;
0209043900999992000120906004+60030-043110FM-12+0019BGPC V0200201N019519999999N0080001N1-00101-00211100351ADDAA112000791GF108991999999004501999999KA1120M-00031KA2120N-00121MA1999999099421MD1710081+9999OA149903651REMSYN094AAXX  09064 04390 12458 80238 11010 21021 39942 40035 57008 69902 333 11003 21012 91171 91055;
0188043900999992000120909004+60030-043110FM-12+0019BGPC V0200201N018010075019N0080001N1-00181-00311100271ADDAY151031AY221031GF108991081041008001999999MA1999999099341MD1710081+9999MW1891OA149903141REMSYN088AAXX  09094 04390 41558 80235 11018 21031 39934 40027 57008 78952 884// 333 91161 91059;
0128043900999992000120912004+60030-043110FM-12+0019BGPC V0200301N023119999999N9999999N1-00181-00641100171ADDMA1999999099241MD1710101+9999OA149903401REMSYN076AAXX  09124 04390 46/// /0345 11018 21064 39924 40017 57010 333 91166 91064;
0171043900999992000120915004+60030-043110FM-12+0019BGPC V0200201N020010042019N0150001N1-00151-00911100101ADDAA199000021GF108991081071004501999999MA1999999099171MD1710071+9999OA149903551REMSYN082AAXX  09154 04390 32465 80239 11015 21091 39917 40010 57007 887// 333 91169 91065;
0209043900999992000120918004+60030-043110FM-12+0019BGPC V0200301N019010075019N0150001N1-00161-00811099901ADDAA199000021GF108991081051008001999999KA1120M-00101KA2120N-00221MA1999999098971MD1710201+9999OA149903551REMSYN094AAXX  09184 04390 32565 80337 11016 21081 39897 49990 57020 885// 333 11010 21022 91169 91061;
0160043900999992000120921004+60030-043110FM-12+0019BGPC V0200201N020610075019N0050001N1-00291-00321099911ADDGF108991081001008001021999MA1999999098981MD1210011+9999OA149903141REMSYN082AAXX  09214 04390 42550 80240 11029 21032 39898 49991 52001 8802/ 333 91161 91056;
0128043900999992000121000004+60030-043110FM-12+0019BGPC V0200201N020019999999N9999999N1-00181-00421099751ADDMA1999999098821MD1710161+9999OA149903141REMSYN076AAXX  10004 04390 46/// /0239 11018 21042 39882 49975 57016 333 91161 91059;
0160043900999992000121003004+60030-043110FM-12+0019BGPC V0200301N019510210019N0150001N1-00101-00401099721ADDGF108991081001022501011999MA1999999098801MD1710021+9999OA149903291REMSYN082AAXX  10034 04390 42865 80338 11010 21040 39880 49972 57002 8801/ 333 91164 91063;
0215043900999992000121006004+60030-043110FM-12+0019BGPC V0203601N018519999999N0100001N1-00101-00321099601ADDAA112000791GF108991021021004501999999KA1120M-00051KA2120N-00331MA1999999098681MD1710121+9999OA149903501REMSYN100AAXX  10064 04390 12460 83636 11010 21032 39868 49960 57012 69902 822// 333 11005 21033 91168 91061;
0188043900999992000121009004+60030-043110FM-12+0019BGPC V0200201N024710042019N0015001N1-00061-00141099831ADDAY171031AY211031GF108991081051004501999999MA1999999098911MD1210231+9999MW1861OA149903861REMSYN088AAXX  10094 04390 41415 80248 11006 21014 39891 49983 52023 78671 885// 333 91175 91074;
0205043900999992000121012004+60030-043110FM-12+0019BGPC V0200301N024710042019N0050001N1-00031-00091100131ADDAA106000791AY171061AY221061GF108991081071004501999999MA1999999099211MD1210301+9999MW1711OA149904171REMSYN094AAXX  10124 04390 11450 80348 11003 21009 39921 40013 52030 69901 77172 887// 333 91181 91069;
0160043900999992000121015004+60030-043110FM-12+0019BGPC V0200201N023610042019N0100001N1+00091-00091100161ADDGF108991081071004501999999MA1999999099241MD1210031+9999OA149903761REMSYN082AAXX  10154 04390 42460 80246 10009 21009 39924 40016 52003 887// 333 91173 91067;
0243043900999992000121018004+60030-043110FM-12+0019BGPC V0200201N023110042019N0050001N1+00071-00111100311ADDAA112000791AY181061AY221061GF108991081051004501999999KA1120M+00101KA2120N-00141MA1999999099391MD1210151+9999MW1851OA149903761REMSYN106AAXX  10184 04390 11450 80245 10007 21011 39939 40031 52015 69902 78582 885// 333 10010 21014 91173 91071;
0166043900999992000121021004+60030-043110FM-12+0019BGPC V0200201N019510120019N0050001N1+00051-00291100501ADDGF108991081001012501021999MA1999999099571MD1210181+9999OA149903861REMSYN088AAXX  10214 04390 42650 80238 10005 21029 39957 40050 52018 8802/ 333 91175 91060 91250;
0177043900999992000121100004+60030-043110FM-12+0019BGPC V0200101N019519999999N0100001N1+00111-00411100641ADDAA199000021GF106991061001999999031999MA1999999099721MD1210151+9999OA149903861REMSYN088AAXX  11004 04390 32960 60138 10011 21041 39972 40064 52015 8603/ 333 91175 91063 91250;
0160043900999992000121103004+60030-043110FM-12+0019BGPC V0200201N016419999999N0100001N1+00081-00391100791ADDGF105991051001999999031999MA1999999099861MD1210141+9999OA149903291REMSYN082AAXX  11034 04390 42960 50232 10008 21039 39986 40079 52014 8503/ 333 91164 91057;
0209043900999992000121106004+60030-043110FM-12+0019BGPC V0200201N018010150019N0200001N1-00021-00341100941ADDAA199000021GF106991061011017501999999KA1120M+00121KA2120N-00071MA1999999100011MD1210151+9999OA149903291REMSYN094AAXX  11064 04390 32770 60235 11002 21034 30001 40094 52015 861// 333 10012 21007 91164 91053;
0190043900999992000121112004+60030-043110FM-12+0019BGPC V0200301N012910075019N0100001N1-00161-00401101041ADDAA199000091GF106991061051008001999999MA1999999100101MD1210081+9999OA149902831REMSYN082AAXX  11124 04390 32560 60325 11016 21040 30010 40104 52008 865// 333 91155 91039;EQDQ01  00002PRCP99
0128043900999992000121115004+60030-043110FM-12+0019BGPC V0200201N008219999999N9999999N1-00181-00551101061ADDMA1999999100121MD1210021+9999OA149902261REMSYN076AAXX  11154 04390 46/// /0216 11018 21055 30012 40106 52002 333 91144 91227;
0211043900999992000121118004+60030-043110FM-12+0019BGPC V0200201N009310300019N0300001N1-00241-00591101061ADDAA199000091GF107991021051008001071001KA1120M-00021KA2120N-00281MA1999999100121MD1410001+9999REMSYN088AAXX  11184 04390 32580 70218 11024 21059 30012 40106 54000 82570 333 11002 21028 91144;EQDQ01  00002PRCP99
0160043900999992000121121004+60030-043110FM-12+0019BGPC V0200101N008210120019N0200001N1-00271-00671101101ADDGF105991051051012501999999MA1999999100161MD1210041+9999OA149901541REMSYN082AAXX  11214 04390 42670 50116 11027 21067 30016 40110 52004 855// 333 91130 91027;
0173043900999992000121200004+60030-043110FM-12+0019BGPC V0203301N005710300019N0200001N1-00331-00711101111ADDAA199000091GF105991031051012501021999MA1999999100171MD1210011+9999REMSYN076AAXX  12004 04390 32670 53311 11033 21071 30017 40111 52001 8352/ 333 91130;EQDQ01  00002PRCP99
0143043900999992000121203004+60030-043110FM-12+0019BGPC V0203201N003612200019N0500001N1-00371-00731101161ADDGA1001+999999999GF100991001001999999001001MA1999999100211MD1210041+9999REMSYN060AAXX  12034 04390 42984 03207 11037 21073 30021 40116 52004;
0215043900999992000121206004+60030-043110FM-12+0019BGPC V0203201N003112200019N0250001N1-00421-00731101191ADDAA199000091GA1001+999999999GF100991001001999999001001KA1120M-00241KA2999N-00481MA1999999100241MD1210031+9999REMSYN076AAXX  12064 04390 32975 03206 11042 21073 30024 40119 52003 333 11024 21048;EQDQ01  00002PRCP99
0143043900999992000121209004+60030-043110FM-12+0019BGPC V0202901N001512200019N0200001N1-00521-00771101341ADDGA1001+999999999GF100991001001999999001001MA1999999100391MD1210151+9999REMSYN060AAXX  12094 04390 42970 02903 11052 21077 30039 40134 52015;
0173043900999992000121212004+60030-043110FM-12+0019BGPC V0202901N004112200019N0500001N1-00481-00691101431ADDAA199000091GA1001+999999999GF100991001001999999001001MA1999999100481MD1210091+9999REMSYN060AAXX  12124 04390 32984 02908 11048 21069 30048 40143 52009;EQDQ01  00002PRCP99
0143043900999992000121215004+60030-043110FM-12+0019BGPC V0203101N002612200019N0250001N1-00431-00711101481ADDGA1001+999999999GF100991001001999999001001MA1999999100531MD1210051+9999REMSYN060AAXX  12154 04390 42975 03105 11043 21071 30053 40148 52005;
0205043900999992000121218004+60030-043110FM-12+0019BGPC V0202201N000512200019N0500001N1-00571-00751101601ADDAA199000091GF101991011001022501061001KA1120M-00361KA2999N-00591MA1999999100641MD1210111+9999REMSYN082AAXX  12184 04390 32884 12201 11057 21075 30064 40160 52011 81060 333 11036 21059;EQDQ01  00002PRCP99
0133043900999992000121221004+60030-043110FM-12+0019BGPC V0202401N004112200019N0100001N1-00391-00561101691ADDGF102991021001022501061999MA1999999100741MD1210101+9999REMSYN066AAXX  12214 04390 42860 22408 11039 21056 30074 40169 52010 8206/;
0178043900999992000121300004+60030-043110FM-12+0019BGPC V0202801N001012200019N0200001N1-00341-00341101761ADDAA106000791AY171061AY211061GF102991011051004501031011MA1999999100811MD1210071+9999MW1011REMSYN078AAXX  13004 04390 11470 22802 11034 21034 30081 40176 52007 69901 70171 81531;
0133043900999992000121303004+60030-043110FM-12+0019BGPC V0202801N002112200019N0050001N1-00341-00341101851ADDGF103991031001022501031999MA1999999100901MD1210091+9999REMSYN066AAXX  13034 04390 42850 32804 11034 21034 30090 40185 52009 8303/;
0220043900999992000121306004+60030-043110FM-12+0019BGPC V0203301N000519999999N0250001N1-00291-00291101801ADDAA112000791AY171061AY221061GF108991001001999999001071KA1120M-00251KA2999N-00571MA1999999100851MD1710051+9999MW1001REMSYN094AAXX  13064 04390 11975 83301 11029 21029 30085 40180 57005 69902 70072 80007 333 11025 21057;
0133043900999992000121309004+60030-043110FM-12+0019BGPC V0200301N004110012019N0100001N1-00351-00351101941ADDGF108991081061001501999999MA1999999100991MD1210141+9999REMSYN066AAXX  13094 04390 42260 80308 11035 21035 30099 40194 52014 886//;
0178043900999992000121312004+60030-043110FM-12+0019BGPC V0200101N002610120019N0010001N1-00341-00341101801ADDAA106000791AY171061AY221061GF108991081001012501021999MA1999999100851MD1710141+9999MW1711REMSYN078AAXX  13124 04390 11610 80105 11034 21034 30085 40180 57014 69901 77172 8802/;
0171043900999992000121315004+60030-043110FM-12+0019BGPC V0200301N007710120019N0030001N1-00241-00241101441ADDAY171031AY271031GF108991081001012501021999MA1999999100501MD1710351+9999MW1711REMSYN082AAXX  13154 04390 41630 80315 11024 21024 30050 40144 57035 77177 8802/ 333 91127;
0226043900999992000121318004+60030-043110FM-12+0019BGPC V0200801N009810120019N0003001N1-00031-00031100881ADDAA112004191AY171061AY271061GF108991081001012501021999KA1120M+00011KA2120N-00411MA1999999099951MD1710551+9999MW1731REMSYN100AAXX  13184 04390 11603 80819 11003 21003 39995 40088 57055 60042 77377 8802/ 333 10001 21041 91127;
0188043900999992000121321004+60030-043110FM-12+0019BGPC V0200701N010310120019N0002001N1-00031-00031100291ADDAY171031AY271031GF108991081001012501021999MA1999999099361MD1710591+9999MW1751OA149901601REMSYN088AAXX  13214 04390 41602 80720 11003 21003 39936 40029 57059 77577 8802/ 333 91131 91031;
0205043900999992000121400004+60030-043110FM-12+0019BGPC V0200901N007710120019N0050001N1+00011+00011099531ADDAA106024991AY171061AY271061GF108991081001012501021999MA1999999098611MD1710751+9999MW1711OA149901601REMSYN094AAXX  14004 04390 11650 80915 10001 20001 39861 49953 57075 60251 77177 8802/ 333 91131 91027;
0188043900999992000121403004+60030-043110FM-12+0019BGPC V0202001N006210120019N0050001N1+00091+00081099131ADDAY171031AY271031GF108991081001012501021999MA1999999098221MD1710391+9999MW1711OA149902111REMSYN088AAXX  14034 04390 41650 82012 10009 20008 39822 49913 57039 77177 8802/ 333 91141 91228;
0243043900999992000121406004+60030-043110FM-12+0019BGPC V0201701N005110150019N0020001N1-00161-00221099121ADDAA112024991AY171061AY271061GF108991081001017501021999KA1120M+00271KA2120N-00171MA1999999098201MD1710021+9999MW1791OA149902111REMSYN106AAXX  14064 04390 11720 81710 11016 21022 39820 49912 57002 60252 77977 8802/ 333 10027 21017 91141 91228;
0143043900999992000121409004+60030-043110FM-12+0019BGPC V0201701N006210120019N0200001N1-00191-00231099031ADDGF106991061001012501021999MA1999999098111MD1710091+9999REMSYN076AAXX  14094 04390 42670 61712 11019 21023 39811 49903 57009 8602/ 333 91128;
0205043900999992000121412004+60030-043110FM-12+0019BGPC V0201801N005110120019N0050001N1-00111-00111098861ADDAA106002091AY171061AY271061GF108991081001012501021999MA1999999097941MD1710171+9999MW1711OA149901651REMSYN094AAXX  14124 04390 11650 81810 11011 21011 39794 49886 57017 60021 77177 8802/ 333 91132 91221;
0171043900999992000121415004+60030-043110FM-12+0019BGPC V0202301N006710300019N0050001N1-00081-00181098931ADDAY171031AY271031GF108991031051004501021999MA1999999098011MD1210071+9999MW1711REMSYN082AAXX  14154 04390 41450 82313 11008 21018 39801 49893 52007 77177 8352/ 333 91130;
0198043900999992000121418004+60030-043110FM-12+0019BGPC V0202501N009812200019N0300001N1-00171-00531099051ADDAA112003091GF105991041001017501021061KA1120M-00031KA2120N-00211MA1999999098131MD1210121+9999REMSYN094AAXX  14184 04390 12780 52519 11017 21053 39813 49905 52012 60032 84026 333 11003 21021 91131;
0188043900999992000121421004+60030-043110FM-12+0019BGPC V0202401N008219999999N0100001N1-00211-00741099271ADDAY181031AY221031GF106991061001999999071999MA1999999098351MD1210221+9999MW1001OA149901851REMSYN088AAXX  14214 04390 41960 62416 11021 21074 39835 49927 52022 70082 8607/ 333 91136 91227;
0171043900999992000121500004+60030-043110FM-12+0019BGPC V0202601N008212200019N0200001N1-00411-00991099311ADDAA199000021GF102991021001999999071001MA1999999098381MD1210031+9999OA149901851REMSYN082AAXX  15004 04390 32970 22616 11041 21099 39838 49931 52003 82070 333 91136 91227;
0143043900999992000121503004+60030-043110FM-12+0019BGPC V0202401N010812200019N0100001N1-00501-01031099201ADDGF104991041001999999071999MA1999999098271MD1710111+9999REMSYN076AAXX  15034 04390 42960 42421 11050 21103 39827 49920 57011 8407/ 333 91128;
0239043900999992000121506004+60030-043110FM-12+0019BGPC V0202401N010312200019N0200001N1-00611-00941099121ADDAA199000091AY131061AY201061GF103991031001999999031999KA1120M-00171KA2120N-00611MA1999999098191MD1710081+9999MW1361REMSYN094AAXX  15064 04390 31970 32420 11061 21094 39819 49912 57008 73630 8303/ 333 11017 21061 91132;EQDQ01  00002PRCP99
0170043900999992000121509004+60030-043110FM-12+0019BGPC V0202701N012312200019N9999999N1-00541-01131099081ADDGA1001+999999999GF100991001001999999001001MA1999999098151MD1710041+9999OA149901961REMSYN076AAXX  15094 04390 429// 02724 11054 21113 39815 49908 57004 333 91138 91038;
0190043900999992000121512004+60030-043110FM-12+0019BGPC V0202701N010312200019N0500001N1-00531-01481099121ADDAA199000091GF103991031001999999071999MA1999999098191MD1210041+9999OA149902011REMSYN082AAXX  15124 04390 32984 32720 11053 21148 39819 49912 52004 8307/ 333 91139 91233;EQDQ01  00002PRCP99
0143043900999992000121515004+60030-043110FM-12+0019BGPC V0202601N009310750019N0100001N1-00431-00951099131ADDGF106991011051004501041061MA1999999098201MD1210011+9999REMSYN076AAXX  15154 04390 42460 62618 11043 21095 39820 49913 52001 81546 333 91132;
0211043900999992000121518004+60030-043110FM-12+0019BGPC V0202401N008712200019N0200001N1-00381-00701099211ADDAA199000091GF103991021051002501021061KA1120M-00381KA2120N-00611MA1999999098281MD1210081+9999REMSYN088AAXX  15184 04390 32370 32417 11038 21070 39828 49921 52008 82526 333 11038 21061 91132;EQDQ01  00002PRCP99
0170043900999992000121521004+60030-043110FM-12+0019BGPC V0201801N002612200019N9999999N1-00441-00641099351ADDGA1001+999999999GF100991001001999999001001MA1999999098421MD1210141+9999OA149901181REMSYN076AAXX  15214 04390 429// 01805 11044 21064 39842 49935 52014 333 91123 91219;
0200043900999992000121600004+60030-043110FM-12+0019BGPC V0202301N004612200019N0200001N1-00351-00641099381ADDAA199000091GA1001+999999999GF100991001001999999001001MA1999999098451MD1210031+9999OA149901181REMSYN076AAXX  16004 04390 32970 02309 11035 21064 39845 49938 52003 333 91123 91219;EQDQ01  00002PRCP99
0143043900999992000121603004+60030-043110FM-12+0019BGPC V0202601N004112200019N0200001N1-00331-00711099411ADDGA1001+999999999GF100991001001999999001001MA1999999098481MD1210031+9999REMSYN060AAXX  16034 04390 42970 02608 11033 21071 39848 49941 52003;
0205043900999992000121606004+60030-043110FM-12+0019BGPC V0203101N004119999999N0200001N1-00331-00711099511ADDAA199000091GF106991001001999999001071KA1120M-00271KA2999N-00451MA1999999098581MD1210101+9999REMSYN082AAXX  16064 04390 32970 63108 11033 21071 39858 49951 52010 80007 333 11027 21045;EQDQ01  00002PRCP99
0101043900999992000121609004+60030-043110FM-12+0019BGPC V0203001N004119999999N9999999N1-00421-00881099621ADDMA1999999098691MD1210111+9999REMSYN060AAXX  16094 04390 46/// /3008 11042 21088 39869 49962 52011;
0163043900999992000121612004+60030-043110FM-12+0019BGPC V0203001N006712200019N0500001N1-00461-00881099721ADDAA199000091GF102991011041012501001061MA1999999098781MD1210091+9999REMSYN066AAXX  16124 04390 32684 23013 11046 21088 39878 49972 52009 81406;EQDQ01  00002PRCP99
0133043900999992000121615004+60030-043110FM-12+0019BGPC V0202901N004612200019N0250001N1-00421-00971099681ADDGF106991021001017501021061MA1999999098751MD1710031+9999REMSYN066AAXX  16154 04390 42775 62909 11042 21097 39875 49968 57003 82026;
0205043900999992000121618004+60030-043110FM-12+0019BGPC V0202901N005110210019N0500001N1-00431-01041099731ADDAA199000091GF106991051001022501021061KA1120M-00331KA2999N-00491MA1999999098801MD1210051+9999REMSYN082AAXX  16184 04390 32884 62910 11043 21104 39880 49973 52005 85026 333 11033 21049;EQDQ01  00002PRCP99
0143043900999992000121621004+60030-043110FM-12+0019BGPC V0202901N006712200019N0200001N1-00471-00971099911ADDGA1001+999999999GF100991001001999999001001MA1999999098971MD1210171+9999REMSYN060AAXX  16214 04390 43970 02913 11047 21097 39897 49991 52017;
0173043900999992000121700004+60030-043110FM-12+0019BGPC V0202901N004112200019N0200001N1-00481-01071100041ADDAA199000091GA1001+999999999GF100991001001999999001001MA1999999099101MD1210131+9999REMSYN060AAXX  17004 04390 32970 02908 11048 21107 39910 40004 52013;EQDQ01  00002PRCP99
0143043900999992000121703004+60030-043110FM-12+0019BGPC V0202901N005112200019N0100001N1-00421-01181100091ADDGA1001+999999999GF100991001001999999001001MA1999999099151MD1210051+9999REMSYN060AAXX  17034 04390 42960 02910 11042 21118 39915 40009 52005;
0215043900999992000121706004+60030-043110FM-12+0019BGPC V0202501N002612200019N0250001N1-00521-01391100211ADDAA199000091GA1001+999999999GF100991001001999999001001KA1120M-00391KA2999N-00561MA1999999099271MD1210121+9999REMSYN076AAXX  17064 04390 32975 02505 11052 21139 39927 40021 52012 333 11039 21056;EQDQ01  00002PRCP99
0143043900999992000121709004+60030-043110FM-12+0019BGPC V0202901N004612200019N0500001N1-00431-01291100281ADDGA1001+999999999GF100991001001999999001001MA1999999099341MD1210071+9999REMSYN060AAXX  17094 04390 42984 02909 11043 21129 39934 40028 52007;
0163043900999992000121712004+60030-043110FM-12+0019BGPC V0202601N002612200019N0500001N1-00431-01311100391ADDAA199000091GF101991001001999999001061MA1999999099451MD1210111+9999REMSYN066AAXX  17124 04390 32984 12605 11043 21131 39945 40039 52011 80006;EQDQ01  00002PRCP99
0133043900999992000121715004+60030-043110FM-12+0019BGPC V0202901N003112200019N0250001N1-00431-01411100331ADDGF102991001001999999001061MA1999999099391MD1710061+9999REMSYN066AAXX  17154 04390 42975 22906 11043 21141 39939 40033 57006 80006;
0205043900999992000121718004+60030-043110FM-12+0019BGPC V0202901N004612200019N0500001N1-00441-01451100301ADDAA199000091GF102991001001999999001061KA1120M-00361KA2999N-00521MA1999999099361MD1710031+9999REMSYN082AAXX  17184 04390 32984 22909 11044 21145 39936 40030 57003 80006 333 11036 21052;EQDQ01  00002PRCP99
0133043900999992000121721004+60030-043110FM-12+0019BGPC V0202601N002112200019N0020001N1-00431-01521100391ADDGF101991001001999999001011MA1999999099451MD1210091+9999REMSYN066AAXX  17214 04390 42920 12604 11043 21152 39945 40039 52009 80001;
0173043900999992000121800004+60030-043110FM-12+0019BGPC V0202701N004112200019N0200001N1-00431-01611100351ADDAA199000091GA1001+999999999GF100991001001999999001001MA1999999099411MD1710041+9999REMSYN060AAXX  18004 04390 32970 02708 11043 21161 39941 40035 57004;EQDQ01  00002PRCP99
0133043900999992000121803004+60030-043110FM-12+0019BGPC V0202501N005112200019N0200001N1-00311-01631100081ADDGF102991021051008001001001MA1999999099151MD1710261+9999REMSYN066AAXX  18034 04390 42570 22510 11031 21163 39915 40008 57026 82500;
0215043900999992000121806004+60030-043110FM-12+0019BGPC V0203001N004612200019N0200001N1-00261-01561100121ADDAA199000091GA1001+999999999GF100991001001999999001001KA1120M-00231KA2999N-00481MA1999999099191MD1210041+9999REMSYN076AAXX  18064 04390 32970 03009 11026 21156 39919 40012 52004 333 11023 21048;EQDQ01  00002PRCP99
0143043900999992000121809004+60030-043110FM-12+0019BGPC V0203001N004612200019N0250001N1-00291-01571100201ADDGA1001+999999999GF100991001001999999001001MA1999999099271MD1210081+9999REMSYN060AAXX  18094 04390 42975 03009 11029 21157 39927 40020 52008;
0173043900999992000121812004+60030-043110FM-12+0019BGPC V0203001N006212200019N0500001N1-00331-01221100351ADDAA199000091GA1001+999999999GF100991001001999999001001MA1999999099411MD1210141+9999REMSYN060AAXX  18124 04390 32984 03012 11033 21122 39941 40035 52014;EQDQ01  00002PRCP99
0133043900999992000121815004+60030-043110FM-12+0019BGPC V0203001N003619999999N0500001N1-00301-01051100371ADDGF105991021001999999071061MA1999999099431MD1210021+9999REMSYN066AAXX  18154 04390 42984 53007 11030 21105 39943 40037 52002 82076;
0205043900999992000121818004+60030-043110FM-12+0019BGPC V0203001N005719999999N0200001N1-00301-00901100521ADDAA199000091GF105991021001999999071041KA1120M-00151KA2999N-00411MA1999999099581MD1210151+9999REMSYN082AAXX  18184 04390 32970 53011 11030 21090 39958 40052 52015 82074 333 11015 21041;EQDQ01  00002PRCP99
0133043900999992000121821004+60030-043110FM-12+0019BGPC V0203101N003610120019N0200001N1-00251-00531100601ADDGF108991081001012501021999MA1999999099661MD1210081+9999REMSYN066AAXX  18214 04390 42670 83107 11025 21053 39966 40060 52008 8802/;
0173043900999992000121900004+60030-043110FM-12+0019BGPC V0200101N006710075019N0100001N1+00061-00031100661ADDAA199000091GF108991081071008001999999MA1999999099731MD1210071+9999REMSYN076AAXX  19004 04390 32560 80113 10006 21003 39973 40066 52007 887// 333 91128;EQDQ01  00002PRCP99
0188043900999992000121903004+60030-043110FM-12+0019BGPC V0200301N018510042019N0050001N1-00041-00041100681ADDAY121031AY221031GF108991081071004501999999MA1999999099751MD1210021+9999MW1681OA149902831REMSYN088AAXX  19034 04390 41450 80336 11004 21004 39975 40068 52002 76822 887// 333 91155 91053;
0160043900999992000121909004+60030-043110FM-12+0019BGPC V0200201N017010150019N0150001N1+00021-00161100621ADDGF108991081001017501021999MA1999999099691MD1210011+9999OA149903041REMSYN082AAXX  19094 04390 42765 80233 10002 21016 39969 40062 52001 8802/ 333 91159 91051;
0205043900999992000121912004+60030-043110FM-12+0019BGPC V0200201N019510075019N0050001N1+00041-00171100661ADDAA106000791AY121061AY221061GF108991081051008001999999MA1999999099731MD1210041+9999MW1681OA149903141REMSYN094AAXX  19124 04390 11550 80238 10004 21017 39973 40066 52004 69901 76822 885// 333 91161 91056;
0188043900999992000121915004+60030-043110FM-12+0019BGPC V0200301N018510042019N0150001N1+00071-00141100531ADDAY131031AY221031GF107991071071004501999999MA1999999099611MD1710121+9999MW1681OA149903451REMSYN088AAXX  19154 04390 41465 70336 10007 21014 39961 40053 57012 76832 877// 333 91167 91062;
0237043900999992000121918004+60030-043110FM-12+0019BGPC V0200201N019510120019N0150001N1+00081-00291100521ADDAA199000021AY131061AY221061GF107991071051012501999999KA1120M+00101KA2120N-00031MA1999999099601MD1710011+9999MW1361OA149903601REMSYN100AAXX  19184 04390 31665 70238 10008 21029 39960 40052 57001 73632 875// 333 10010 21003 91170 91063;
0160043900999992000121921004+60030-043110FM-12+0019BGPC V0200201N017510210019N0050001N1+00161-00251100501ADDGF107991071001022501071999MA1999999099581MD1710021+9999OA149903241REMSYN082AAXX  19214 04390 42850 70234 10016 21025 39958 40050 57002 8707/ 333 91163 91055;
0211043900999992000122000004+60030-043110FM-12+0019BGPC V0200401N014410150019N0020001N1+00191-00381100501ADDAA106000791AY121061AY221061GF108991081001017501021999MA1999999099581MD1410001+9999MW1081OA149903241REMSYN100AAXX  20004 04390 11720 80428 10019 21038 39958 40050 54000 69901 70822 8802/ 333 91163 91048 91242;
0166043900999992000122003004+60030-043110FM-12+0019BGPC V0200201N013410150019N0150001N1+00171-00381100721ADDGF108991081001017501021999MA1999999099801MD1210221+9999OA149902781REMSYN088AAXX  20034 04390 43765 80226 10017 21038 39980 40072 52022 8802/ 333 91154 91038 91239;
0244043900999992000122006004+60030-043110FM-12+0019BGPC V0200201N010312200019N0100001N1+00271-00361100611ADDAA199000091GA1001+999999999GF100991001001999999001001KA1120M+00271KA2120N+00081MA1999999099691MD1710111+9999OA149902781REMSYN094AAXX  20064 04390 32960 00220 10027 21036 39969 40061 57011 333 10027 20008 91154 91031 91239;EQDQ01  00002PRCP99
0200043900999992000122012004+60030-043110FM-12+0019BGPC V0203201N002612200019N0200001N1+00111-00411100761ADDAA199000091GA1001+999999999GF100991001001999999001001MA1999999099831MD1210071+9999OA149902061REMSYN076AAXX  20124 04390 32970 03205 10011 21041 39983 40076 52007 333 91140 91227;EQDQ01  00002PRCP99
0143043900999992000122015004+60030-043110FM-12+0019BGPC V0202801N002112200019N9999999N1+00121-00311100801ADDGA1001+999999999GF100991001001999999001001MA1999999099871MD1210041+9999REMSYN060AAXX  20154 04390 429// 02804 10012 21031 39987 40080 52004;
0215043900999992000122018004+60030-043110FM-12+0019BGPC V0202801N002112200019N0200001N1+00001-00391100961ADDAA199000091GA1001+999999999GF100991001001999999001001KA1120M+00331KA2999N-00051MA1999999100031MD1210161+9999REMSYN076AAXX  20184 04390 32970 02804 10000 21039 30003 40096 52016 333 10033 21005;EQDQ01  00002PRCP99
0143043900999992000122021004+60030-043110FM-12+0019BGPC V0203101N003612200019N9999999N1-00061-00381101181ADDGA1001+999999999GF100991001001999999001001MA1999999100241MD1210211+9999REMSYN060AAXX  20214 04390 429// 03107 11006 21038 30024 40118 52021;
0163043900999992000122100004+60030-043110FM-12+0019BGPC V0203001N003112200019N0050001N1-00071-00531101331ADDAA199000091GF102991001001999999001011MA1999999100391MD1210151+9999REMSYN066AAXX  21004 04390 32950 23006 11007 21053 30039 40133 52015 80001;EQDQ01  00002PRCP99
0133043900999992000122103004+60030-043110FM-12+0019BGPC V0203001N001512200019N0200001N1-00121-00581101401ADDGF101991001001999999001011MA1999999100461MD1210071+9999REMSYN066AAXX  21034 04390 42970 13003 11012 21058 30046 40140 52007 80001;
0215043900999992000122106004+60030-043110FM-12+0019BGPC V0203401N001512200019N0100001N1+00011-00611101581ADDAA199000091GA1001+999999999GF100991001001999999001001KA1120M+00111KA2999N-00201MA1999999100641MD1210181+9999REMSYN076AAXX  21064 04390 32960 03403 10001 21061 30064 40158 52018 333 10011 21020;EQDQ01  00002PRCP99
0133043900999992000122109004+60030-043110FM-12+0019BGPC V0200201N007712200019N0150001N1+00141-00221101691ADDGF104991041051008001999999MA1999999100761MD1210121+9999REMSYN066AAXX  21094 04390 42565 40215 10014 21022 30076 40169 52012 845//;
0205043900999992000122112004+60030-043110FM-12+0019BGPC V0200301N014910150019N0150001N1+00141-00041101671ADDAA106000791AY171061AY221061GF108991081001017501021999MA1999999100741MD1710021+9999MW1701OA149902161REMSYN094AAXX  21124 04390 11765 80329 10014 21004 30074 40167 57002 69901 77072 8802/ 333 91142 91041;
0188043900999992000122115004+60030-043110FM-12+0019BGPC V0200301N017010150019N0080001N1+00051-00091101701ADDAY171031AY221031GF108991081001017501021999MA1999999100761MD1210021+9999MW1701OA149902681REMSYN088AAXX  21154 04390 41758 80333 10005 21009 30076 40170 52002 77072 8802/ 333 91152 91052;
0243043900999992000122118004+60030-043110FM-12+0019BGPC V0200301N019510120019N0100001N1+00071+00001101731ADDAA112000791AY181061AY281061GF108991081001012501021999KA1120M+00201KA2120N-00011MA1999999100791MD1210031+9999MW1701OA149903191REMSYN106AAXX  21184 04390 11660 80338 10007 20000 30079 40173 52003 69902 77088 8802/ 333 10020 21001 91162 91059;
0160043900999992000122121004+60030-043110FM-12+0019BGPC V0200301N020610150019N0050001N1+00011+00001101901ADDGF108991081001017501021999MA1999999100961MD1210171+9999OA149903451REMSYN082AAXX  21214 04390 42750 80340 10001 20000 30096 40190 52017 8802/ 333 91167 91059;
0177043900999992000122200004+60030-043110FM-12+0019BGPC V0200301N020010075019N0100001N1-00061-00071102191ADDAA112000791GF108991081051008001999999MA1999999101251MD1210291+9999OA149903651REMSYN088AAXX  22004 04390 12560 80339 11006 21007 30125 40219 52029 69902 885// 333 91171 91061;
0160043900999992000122203004+60030-043110FM-12+0019BGPC V0200301N021610075019N0080001N1+00051-00171101961ADDGF108991081051008001999999MA1999999101021MD1710231+9999OA149903961REMSYN082AAXX  22034 04390 42558 80342 10005 21017 30102 40196 57023 885// 333 91177 91064;
0209043900999992000122206004+60030-043110FM-12+0019BGPC V0200301N020610075019N0050001N1+00041-00021101941ADDAA199000021GF108991081051008001999999KA1120M+00091KA2120N-00081MA1999999101001MD1710021+9999OA149903961REMSYN094AAXX  22064 04390 32550 80340 10004 21002 30100 40194 57002 885// 333 10009 21008 91177 91058;
0190043900999992000122212004+60030-043110FM-12+0019BGPC V0200201N017010042019N0100001N1+00051+00011101811ADDAA199000091GF108991081071004501999999MA1999999100871MD1710041+9999OA149903451REMSYN082AAXX  22124 04390 32460 80233 10005 20001 30087 40181 57004 887// 333 91167 91052;EQDQ01  00002PRCP99
0160043900999992000122215004+60030-043110FM-12+0019BGPC V0200301N018510300019N0070001N1+00091+00021101751ADDGF108991031051008001071999MA1999999100811MD1710061+9999OA149903291REMSYN082AAXX  22154 04390 42557 80336 10009 20002 30081 40175 57006 8357/ 333 91164 91055;
0243043900999992000122218004+60030-043110FM-12+0019BGPC V0200301N019010075019N0050001N1+00091+00091101741ADDAA112000791AY181061AY281061GF108991081051008001999999KA1120M+00161KA2120N+00041MA1999999100801MD1710011+9999MW1681OA149903291REMSYN106AAXX  22184 04390 11550 80337 10009 20009 30080 40174 57001 69902 76888 885// 333 10016 20004 91164 91061;
0188043900999992000122221004+60030-043110FM-12+0019BGPC V0200301N018510042019N0020001N1-00031-00031101861ADDAY171031AY271031GF108991081051004501999999MA1999999100921MD1210121+9999MW1731OA149903241REMSYN088AAXX  22214 04390 41420 80336 11003 21003 30092 40186 52012 77377 885// 333 91163 91059;
0205043900999992000122300004+60030-043110FM-12+0019BGPC V0200301N021110042019N0010001N1+00091+00091101901ADDAA106000391AY171061AY221061GF108991081071004501999999MA1999999100961MD1210041+9999MW1681OA149903351REMSYN094AAXX  23004 04390 11410 80341 10009 20009 30096 40190 52004 69931 76872 887// 333 91165 91062;
0188043900999992000122303004+60030-043110FM-12+0019BGPC V0200201N018510042019N0030001N1+00081+00081101961ADDAY171031AY221031GF108991081071004501999999MA1999999101021MD1210061+9999MW1681OA149903601REMSYN088AAXX  23034 04390 41430 80236 10008 20008 30102 40196 52006 76872 887// 333 91170 91056;
0166043900999992000122306004+60030-043110FM-12+0019BGPC V0200201N021119999999N9999999N1+00071+00071102081ADDKA1120M+00121KA2120N-00031MA1999999101141MD1210121+9999OA149903601REMSYN088AAXX  23064 04390 46/// /0241 10007 20007 30114 40208 52012 333 10012 21003 91170 91066;
0188043900999992000122309004+60030-043110FM-12+0019BGPC V0200201N023110042019N0010001N1+00051+00031102191ADDAY171031AY271031GF108991081071004501999999MA1999999101251MD1210111+9999MW1681OA149903601REMSYN088AAXX  23094 04390 41410 80245 10005 20003 30125 40219 52011 76877 887// 333 91170 91062;
0205043900999992000122312004+60030-043110FM-12+0019BGPC V0200101N021610042019N0040001N1-00091-00101102341ADDAA106000791AY171061AY221061GF108991081071004501999999MA1999999101391MD1210141+9999MW1021OA149903761REMSYN094AAXX  23124 04390 11440 80142 11009 21010 30139 40234 52014 69901 70272 887// 333 91173 91070;
0188043900999992000122315004+60030-043110FM-12+0019BGPC V0200301N021110042019N0020001N1-00101-00101102231ADDAY181031AY281031GF108991081071004501999999MA1999999101281MD1710111+9999MW1701OA149903601REMSYN088AAXX  23154 04390 41420 80341 11010 21010 30128 40223 57011 77088 887// 333 91170 91067;
0243043900999992000122318004+60030-043110FM-12+0019BGPC V0200301N020010042019N0010001N1-00081-00081102301ADDAA112000791AY171061AY271061GF108991081071004501999999KA1120M+00071KA2120N-00161MA1999999101351MD1210071+9999MW1681OA149903811REMSYN106AAXX  23184 04390 11410 80339 11008 21008 30135 40230 52007 69902 76877 887// 333 10007 21016 91174 91064;
0188043900999992000122321004+60030-043110FM-12+0019BGPC V0200201N019010042019N0020001N1-00011-00011102181ADDAY171031AY271031GF108991081071004501999999MA1999999101241MD1710111+9999MW1711OA149903401REMSYN088AAXX  23214 04390 41420 80237 11001 21001 30124 40218 57011 77177 887// 333 91166 91053;
0205043900999992000122400004+60030-043110FM-12+0019BGPC V0200101N018010042019N0010001N1+00051+00051102191ADDAA106000791AY171061AY221061GF108991081051004501999999MA1999999101251MD1210011+9999MW1681OA149903401REMSYN094AAXX  24004 04390 11410 80135 10005 20005 30125 40219 52001 69901 76872 885// 333 91166 91056;
0188043900999992000122403004+60030-043110FM-12+0019BGPC V0200201N018510075019N0015001N1-00041-00041102011ADDAY171031AY271031GF108991081051008001999999MA1999999101071MD1710181+9999MW1681OA149903191REMSYN088AAXX  24034 04390 41515 80236 11004 21004 30107 40201 57018 76877 885// 333 91162 91057;
0243043900999992000122406004+60030-043110FM-12+0019BGPC V0200201N019510120019N0100001N1+00051-00011101921ADDAA112000791AY181061AY221061GF108991081001012501021999KA1120M+00071KA2120N-00081MA1999999100981MD1710091+9999MW1001OA149903191REMSYN106AAXX  24064 04390 11660 80238 10005 21001 30098 40192 57009 69902 70082 8802/ 333 10007 21008 91162 91058;
0160043900999992000122409004+60030-043110FM-12+0019BGPC V0200201N015910150019N0050001N1+00091+00021101881ADDGF108991081001017501021999MA1999999100941MD1710041+9999OA149903191REMSYN082AAXX  24094 04390 42750 80231 10009 20002 30094 40188 57004 8802/ 333 91162 91047;
0171043900999992000122412004+60030-043110FM-12+0019BGPC V0200301N017510120019N0050001N1+00121-00061101901ADDAA199000021GF108991081001012501021999MA1999999100961MD1210021+9999OA149903191REMSYN082AAXX  24124 04390 32650 80334 10012 21006 30096 40190 52002 8802/ 333 91162 91048;
0160043900999992000122415004+60030-043110FM-12+0019BGPC V0200201N017510120019N0100001N1+00141-00051101831ADDGF108991081001012501021999MA1999999100901MD1710061+9999OA149903041REMSYN082AAXX  24154 04390 42660 80234 10014 21005 30090 40183 57006 8802/ 333 91159 91050;
0228043900999992000122418004+60030-043110FM-12+0019BGPC V0200201N015910300019N0200001N1+00141-00031101841ADDAA199000091GF108991041051017501021999KA1120M+00181KA2120N+00051MA1999999100911MD1210011+9999OA149903041REMSYN094AAXX  24184 04390 32770 80231 10014 21003 30091 40184 52001 8452/ 333 10018 20005 91159 91048;EQDQ01  00002PRCP99
0160043900999992000122421004+60030-043110FM-12+0019BGPC V0200101N012310150019N0150001N1+00181+00031101811ADDGF105991051051017501999999MA1999999100881MD1710031+9999OA149902521REMSYN082AAXX  24214 04390 42765 50124 10018 20003 30088 40181 57003 855// 333 91149 91040;
0205043900999992000122500004+60030-043110FM-12+0019BGPC V0200201N014410120019N0020001N1+00161+00101102051ADDAA106000791AY171061AY271061GF108991081051012501999999MA1999999101111MD1210231+9999MW1081OA149902521REMSYN094AAXX  25004 04390 11620 80228 10016 20010 30111 40205 52023 69901 70877 885// 333 91149 91038;
0160043900999992000122503004+60030-043110FM-12+0019BGPC V0200201N014412200019N0100001N1+00121+00121102121ADDGF103991011051008001071001MA1999999101181MD1210071+9999OA149902321REMSYN082AAXX  25034 04390 42560 30228 10012 20012 30118 40212 52007 81570 333 91145 91041;
0228043900999992000122506004+60030-043110FM-12+0019BGPC V0200201N016410300019N0120001N1+00071+00011102261ADDAA199000091GF108991011051008001071999KA1120M+00201KA2120N+00011MA1999999101321MD1210141+9999OA149902681REMSYN094AAXX  25064 04390 32562 80232 10007 20001 30132 40226 52014 8157/ 333 10020 20001 91152 91052;EQDQ01  00002PRCP99
0160043900999992000122509004+60030-043110FM-12+0019BGPC V0200301N014910210019N0100001N1+00111+00011102181ADDGF107991071001022501071999MA1999999101241MD1710081+9999OA149902731REMSYN082AAXX  25094 04390 42860 70329 10011 20001 30124 40218 57008 8707/ 333 91153 91047;
0128043900999992000122512004+60030-043110FM-12+0019BGPC V0200201N015919999999N9999999N1+00051-00131102191ADDMA1999999101251MD1210011+9999OA149903041REMSYN076AAXX  25124 04390 46/// /0231 10005 21013 30125 40219 52001 333 91159 91051;
0166043900999992000122515004+60030-043110FM-12+0019BGPC V0200301N013410300019N0080001N1+00081-00241102231ADDGF108991031051012501071071MA1999999101291MD1210041+9999OA149902881REMSYN088AAXX  25154 04390 42658 80326 10008 21024 30129 40223 52004 83577 333 91156 91044 91238;
0228043900999992000122518004+60030-043110FM-12+0019BGPC V0200301N014910120019N0100001N1+00071-00171102221ADDAA199000091GF107991071001012501021999KA1120M+00121KA2120N+00011MA1999999101281MD1710011+9999OA149902881REMSYN094AAXX  25184 04390 32660 70329 10007 21017 30128 40222 57001 8702/ 333 10012 20001 91156 91049;EQDQ01  00002PRCP99
0160043900999992000122521004+60030-043110FM-12+0019BGPC V0200201N015910150019N0150001N1+00051-00151102221ADDGF108991081001017501021999MA1999999101281MD1410001+9999OA149902571REMSYN082AAXX  25214 04390 42765 80231 10005 21015 30128 40222 54000 8802/ 333 91150 91045;
0128043900999992000122600004+60030-043110FM-12+0019BGPC V0200101N014419999999N9999999N1+00041-00441102221ADDMA1999999101281MD1410001+9999OA149902681REMSYN076AAXX  26004 04390 46/// /0128 10004 21044 30128 40222 54000 333 91152 91044;
0177043900999992000122603004+60030-043110FM-12+0019BGPC V0200301N012319999999N0150001N1-00031-00531102261ADDAA106000791GF108991081001999999071999MA1999999101321MD1210041+9999OA149902521REMSYN088AAXX  26034 04390 12965 80324 11003 21053 30132 40226 52004 69901 8807/ 333 91149 91036;
0228043900999992000122606004+60030-043110FM-12+0019BGPC V0203601N011310300019N0150001N1+00031-00291102161ADDAA199000091GF108991031051012501071071KA1120M+00101KA2120N-00051MA1999999101221MD1710101+9999OA149902521REMSYN094AAXX  26064 04390 32665 83622 10003 21029 30122 40216 57010 83577 333 10010 21005 91149 91037;EQDQ01  00002PRCP99
0160043900999992000122609004+60030-043110FM-12+0019BGPC V0200201N010810210019N0100001N1+00051-00191102181ADDGF108991081001022501071999MA1999999101241MD1210021+9999OA149901901REMSYN082AAXX  26094 04390 42860 80221 10005 21019 30124 40218 52002 8807/ 333 91137 91033;
0190043900999992000122612004+60030-043110FM-12+0019BGPC V0200201N011819999999N0200001N1+00061-00241102191ADDAA199000091GF108991081001999999021999MA1999999101251MD1210011+9999OA149901901REMSYN082AAXX  26124 04390 32970 80223 10006 21024 30125 40219 52001 8802/ 333 91137 91035;EQDQ01  00002PRCP99
0160043900999992000122615004+60030-043110FM-12+0019BGPC V0200201N009310120019N0080001N1+00101+00041102181ADDGF108991081001012501021999MA1999999101241MD1710011+9999OA149901851REMSYN082AAXX  26154 04390 42658 80218 10010 20004 30124 40218 57001 8802/ 333 91136 91033;
0226043900999992000122618004+60030-043110FM-12+0019BGPC V0200301N009810120019N0100001N1-00011-00041102111ADDAA112000791AY171061AY221061GF108991081001012501021999KA1120M+00121KA2120N-00131MA1999999101171MD1710071+9999MW1701REMSYN100AAXX  26184 04390 11660 80319 11001 21004 30117 40211 57007 69902 77072 8802/ 333 10012 21013 91136;
0188043900999992000122621004+60030-043110FM-12+0019BGPC V0200301N008710150019N0050001N1-00081-00081102071ADDAY171031AY271031GF108991081001017501021999MA1999999101131MD1710041+9999MW1711OA149901701REMSYN088AAXX  26214 04390 41750 80317 11008 21008 30113 40207 57004 77177 8802/ 333 91133 91030;
0154043900999992000122700004+60030-043110FM-12+0019BGPC V0200101N008210120019N0050001N1+00021-00171101991ADDAA199000021GF108991081001012501021999MA1999999101051MD1710081+9999REMSYN076AAXX  27004 04390 32650 80116 10002 21017 30105 40199 57008 8802/ 333 91133;
0160043900999992000122703004+60030-043110FM-12+0019BGPC V0200301N008210042019N0020001N1-00051-00051101891ADDAA106000791GF108991081051004501999999MA1999999100951MD1710101+9999REMSYN082AAXX  27034 04390 12420 80316 11005 21005 30095 40189 57010 69901 885// 333 91128;
0226043900999992000122706004+60030-043110FM-12+0019BGPC V0200301N008210042019N0050001N1-00071-00071101701ADDAA112000191AY171061AY221061GF108991081051004501999999KA1120M+00051KA2120N-00121MA1999999100761MD1710191+9999MW1711REMSYN100AAXX  27064 04390 11450 80316 11007 21007 30076 40170 57019 69922 77172 885// 333 10005 21012 91128;
0143043900999992000122709004+60030-043110FM-12+0019BGPC V0203201N006710120019N0100001N1+00071+00061101541ADDGF108991081001012501021999MA1999999100611MD1710151+9999REMSYN076AAXX  27094 04390 42660 83213 10007 20006 30061 40154 57015 8802/ 333 91127;
0154043900999992000122712004+60030-043110FM-12+0019BGPC V0200301N007210075019N0300001N1+00101+00041101521ADDAA199000021GF106991061051008001999999MA1999999100591MD1710021+9999REMSYN076AAXX  27124 04390 32580 60314 10010 20004 30059 40152 57002 865// 333 91127;
0161043900999992000122715004+60030-043110FM-12+0019BGPC V0200301N007210075019N0300001N1+00121-00011101391ADDAY181031AY221031GF105991051051008001999999MA1999999100461MD1710131+9999MW1851REMSYN072AAXX  27154 04390 41580 50314 10012 21001 30046 40139 57013 78582 855//;
0220043900999992000122718004+60030-043110FM-12+0019BGPC V0200201N006210300019N0200001N1+00111-00011101311ADDAA112000791AY171061AY221061GF107991031051008001071001KA1120M+00121KA2999N-00071MA1999999100381MD1710081+9999MW1851REMSYN094AAXX  27184 04390 11570 70212 10011 21001 30038 40131 57008 69902 78572 83570 333 10012 21007;
0161043900999992000122721004+60030-043110FM-12+0019BGPC V0200201N005710120019N0100001N1+00101+00061101291ADDAY171031AY221031GF108991081001012501021999MA1999999100361MD1710021+9999MW1001REMSYN072AAXX  27214 04390 41660 80211 10010 20006 30036 40129 57002 70072 8802/;
0150043900999992000122800004+60030-043110FM-12+0019BGPC V0200201N006210150019N0100001N1+00081+00071101291ADDAA106000791GF106991061001017501021999MA1999999100361MD1410001+9999REMSYN072AAXX  28004 04390 12760 60212 10008 20007 30036 40129 54000 69901 8602/;
0144043900999992000122803004+60030-043110FM-12+0019BGPC V0200201N004110042019N0010001N1+00011+00011101281ADDAA199000021GF108991081051004501999999MA1999999100351MD1710011+9999REMSYN066AAXX  28034 04390 32410 80208 10001 20001 30035 40128 57001 885//;
0220043900999992000122806004+60030-043110FM-12+0019BGPC V0200201N004110300019N0150001N1-00011-00011101241ADDAA112000791AY171061AY221061GF106991041051008001071001KA1120M+00111KA2999N-00071MA1999999100311MD1710041+9999MW1011REMSYN094AAXX  28064 04390 11565 60208 11001 21001 30031 40124 57004 69902 70172 84570 333 10011 21007;
0133043900999992000122809004+60030-043110FM-12+0019BGPC V0200301N004612200019N0100001N1-00061-00061101271ADDGF104991041001022501071999MA1999999100331MD1210021+9999REMSYN066AAXX  28094 04390 42860 40309 11006 21006 30033 40127 52002 8407/;
0163043900999992000122812004+60030-043110FM-12+0019BGPC V0203101N001010300019N0150001N1-00131-00131101291ADDAA199000091GF106991041051012501021999MA1999999100351MD1210021+9999REMSYN066AAXX  28124 04390 32665 63102 11013 21013 30035 40129 52002 8452/;EQDQ01  00002PRCP99
0161043900999992000122815004+60030-043110FM-12+0019BGPC V0203301N001010300019N0150001N1+00041+00001101251ADDAY171031AY221031GF107991031051004501021061MA1999999100321MD1710031+9999MW1711REMSYN072AAXX  28154 04390 41465 73302 10004 20000 30032 40125 57003 77172 83526;
0186043900999992000122818004+60030-043110FM-12+0019BGPC V0202801N002110075019N0300001N1-00061-00061101211ADDAA199000021GF106991061051008001021999KA1120M+00091KA2999N-00151MA1999999100271MD1710051+9999REMSYN082AAXX  28184 04390 32580 62804 11006 21006 30027 40121 57005 8652/ 333 10009 21015;
0133043900999992000122821004+60030-043110FM-12+0019BGPC V0202901N002612200019N0150001N1-00081-00101101251ADDGF103991031051017501999999MA1999999100311MD1210041+9999REMSYN066AAXX  28214 04390 42765 32905 11008 21010 30031 40125 52004 835//;
0144043900999992000122900004+60030-043110FM-12+0019BGPC V0203001N004110150019N0050001N1-00131-00141101261ADDAA199000021GF108991081001017501021999MA1999999100321MD1210011+9999REMSYN066AAXX  29004 04390 32750 83008 11013 21014 30032 40126 52001 8802/;
0144043900999992000122903004+60030-043110FM-12+0019BGPC V0203001N004110150019N0020001N1-00041-00121101261ADDAA199000021GF108991081001017501051999MA1999999100321MD1410001+9999REMSYN066AAXX  29034 04390 32720 83008 11004 21012 30032 40126 54000 8805/;
0205043900999992000122906004+60030-043110FM-12+0019BGPC V0200501N004610210019N0200001N1-00141-00191101361ADDAA199000091GF108991081001022501071999KA1120M+00071KA2999N-00151MA1999999100421MD1210101+9999REMSYN082AAXX  29064 04390 32870 80509 11014 21019 30042 40136 52010 8807/ 333 10007 21015;EQDQ01  00002PRCP99
0160043900999992000122909004+60030-043110FM-12+0019BGPC V0200101N009819999999N0100001N1-00211-00221101491ADDGF108991081001999999071999MA1999999100551MD1210131+9999OA149901751REMSYN082AAXX  29094 04390 42960 80119 11021 21022 30055 40149 52013 8807/ 333 91134 91030;
0205043900999992000122912004+60030-043110FM-12+0019BGPC V0200301N012310120019N0020001N1-00291-00291101631ADDAA106000791AY171061AY221061GF108991081001012501021999MA1999999100681MD1210131+9999MW1711OA149901961REMSYN094AAXX  29124 04390 11620 80324 11029 21029 30068 40163 52013 69901 77172 8802/ 333 91138 91036;
0188043900999992000122915004+60030-043110FM-12+0019BGPC V0200301N012310300019N0050001N1-00241-00241101671ADDAY171031AY271031GF107991031021008001021999MA1999999100721MD1210041+9999MW1711OA149901901REMSYN088AAXX  29154 04390 41550 70324 11024 21024 30072 40167 52004 77177 8322/ 333 91137 91037;
0243043900999992000122918004+60030-043110FM-12+0019BGPC V0200201N013410150019N0200001N1-00261-00261101681ADDAA112000891AY171061AY221061GF108991081001017501021999KA1120M-00141KA2120N-00331MA1999999100731MD1210011+9999MW1001OA149902161REMSYN106AAXX  29184 04390 11770 80226 11026 21026 30073 40168 52001 69972 70072 8802/ 333 11014 21033 91142 91040;
0188043900999992000122921004+60030-043110FM-12+0019BGPC V0200301N017510300019N0050001N1-00251-00311101741ADDAY171031AY221031GF108991041051012501021999MA1999999100791MD1210061+9999MW1711OA149902521REMSYN088AAXX  29214 04390 41650 80334 11025 21031 30079 40174 52006 77172 8452/ 333 91149 91045;
0205043900999992000123000004+60030-043110FM-12+0019BGPC V0200201N013910300019N0050001N1-00161-00381101661ADDAA106000791AY171061AY271061GF108991041051001501021999MA1999999100721MD1710071+9999MW1071OA149902521REMSYN094AAXX  30004 04390 11250 80227 11016 21038 30072 40166 57007 69901 70777 8452/ 333 91149 91042;
0171043900999992000123003004+60030-043110FM-12+0019BGPC V0200301N012912200019N0100001N1-00161-00421101471ADDAA199000021GF102991011041012501001011MA1999999100531MD1710191+9999OA149902161REMSYN082AAXX  30034 04390 32660 20325 11016 21042 30053 40147 57019 81401 333 91142 91037;
0243043900999992000123006004+60030-043110FM-12+0019BGPC V0200301N012910042019N0100001N1-00261-00411101331ADDAA112000791AY171061AY211061GF108991051051004501021999KA1120M-00121KA2120N-00291MA1999999100391MD1710141+9999MW1701OA149902161REMSYN106AAXX  30064 04390 11460 80325 11026 21041 30039 40133 57014 69902 77071 8552/ 333 11012 21029 91142 91037;
0188043900999992000123009004+60030-043110FM-12+0019BGPC V0200201N011310120019N0100001N1-00341-00351101171ADDAY171031AY221031GF108991081001012501021999MA1999999100231MD1710161+9999MW1701OA149902111REMSYN088AAXX  30094 04390 41660 80222 11034 21035 30023 40117 57016 77072 8802/ 333 91141 91035;
0171043900999992000123012004+60030-043110FM-12+0019BGPC V0200201N010810120019N0100001N1-00291-00631101041ADDAA199000021GF106991061051012501999999MA1999999100101MD1710131+9999OA149902111REMSYN082AAXX  30124 04390 32660 60221 11029 21063 30010 40104 57013 865// 333 91141 91034;
0160043900999992000123015004+60030-043110FM-12+0019BGPC V0203301N007210300019N0200001N1-00171-00681100781ADDGF106991041051008001071001MA1999999099841MD1710261+9999OA149902011REMSYN082AAXX  30154 04390 42570 63314 11017 21068 39984 40078 57026 84570 333 91139 91224;
0209043900999992000123018004+60030-043110FM-12+0019BGPC V0200201N012910300019N0250001N1-00161-00561100701ADDAA199000021GF106991031031008001071999KA1120M-00101KA2120N-00391MA1999999099771MD1710071+9999OA149902161REMSYN094AAXX  30184 04390 32575 60225 11016 21056 39977 40070 57007 8337/ 333 11010 21039 91142 91038;
0160043900999992000123021004+60030-043110FM-12+0019BGPC V0200201N017012200019N0150001N1-00291-00291100921ADDGF104991041001022501071999MA1999999099981MD1210211+9999OA149902631REMSYN082AAXX  30214 04390 42865 40233 11029 21029 39998 40092 52021 8407/ 333 91151 91047;
0205043900999992000123100004+60030-043110FM-12+0019BGPC V0200201N019012200019N0050001N1-00461-00611101161ADDAA106000791AY171061AY201061GF102991021001022501041001MA1999999100211MD1210231+9999MW1001OA149903091REMSYN094AAXX  31004 04390 11850 20237 11046 21061 30021 40116 52023 69901 70070 82040 333 91160 91055;
0196043900999992000123103004+60030-043110FM-12+0019BGPC V0200301N012912200019N0100001N1-00431-00791101241ADDAA199000091GF102991021051012501001999MA1999999100291MD1210081+9999OA149902831REMSYN088AAXX  31034 04390 32660 20325 11043 21079 30029 40124 52008 8250/ 333 91155 91040 91237;EQDQ01  00002PRCP99
0153043900999992000123109004+60030-043110FM-12+0019BGPC V0203501N007712200019N0200001N1-00261-00621101481ADDGA1001+999999999GF100991001001999999001001MA1999999100541MD1210121+9999REMSYN070AAXX  31094 04390 42970 03515 11026 21062 30054 40148 52012 333 91139;
0173043900999992000123112004+60030-043110FM-12+0019BGPC V0200301N010319999999N0200001N1-00211-00521101581ADDAA199000091GF106991041051008001999021MA1999999100641MD1210101+9999REMSYN076AAXX  31124 04390 32570 60320 11021 21052 30064 40158 52010 845/2 333 91139;EQDQ01  00002PRCP99
0160043900999992000123115004+60030-043110FM-12+0019BGPC V0203301N004612200019N0200001N1-00231-00531101641ADDGF102991011051004501031001MA1999999100691MD1210051+9999OA149901541REMSYN082AAXX  31154 04390 42470 23309 11023 21053 30069 40164 52005 81530 333 91130 91221;
0228043900999992000123118004+60030-043110FM-12+0019BGPC V0200201N004112200019N0500001N1-00361-00431101601ADDAA199000091GF102991021001022501051999KA1120M-00191KA2120N-00401MA1999999100651MD1710041+9999OA149901541REMSYN094AAXX  31184 04390 32884 20208 11036 21043 30065 40160 57004 8205/ 333 11019 21040 91130 91221;EQDQ01  00002PRCP99
0143043900999992000123121004+60030-043110FM-12+0019BGPC V0203301N001512200019N0250001N1-00491+99999101611ADDGA1001+999999999GF100991001001999999001001MA1999999100661MD1210011+9999REMSYN060AAXX  31214 04390 42975 03303 11049 21048 30066 40161 52001;
