0235082130999992000010106004+40950-004120FM-12+100599999V0200901N001512200019N0200001N1+00001-00551999999ADDAA106000091GA1001+999999999GF100991001001999999001001IA1149IA2999-00809KA1120N-00041MA1999999091101MD1610031+9999ME1315569REMSYN082AAXX  01064 08213 32970 00903 10000 21055 39110 48556 56003 333 21004 34108 55067;EQDQ01  00002PRCP06
0152082130999992000010109004+40950-004120FM-12+100599999V0200801N001512200019N0200001N1+00141-00591999999ADDGA1001+999999999GF100991001001999999001001MA1999999091141MD1210041+9999ME1315639REMSYN060AAXX  01094 08213 42970 00803 10014 21059 39114 48563 52004;
0182082130999992000010112004+40950-004120FM-12+100599999V0202801N001512200019N0200001N1+00681-00161999999ADDAA106000091GF102991011001017501041011MA1999999091111MD1810031+9999ME1315719REMSYN076AAXX  01124 08213 32770 22803 10068 21016 39111 48571 58003 81041 333 5///0;EQDQ01  00002PRCP06
0142082130999992000010115004+40950-004120FM-12+100599999V0203201N002112200019N0200001N1+00881-00161999999ADDGF102991011001017501041091MA1999999091071MD1710041+9999ME1315729REMSYN066AAXX  01154 08213 42770 23204 10088 21016 39107 48572 57004 81049;
0195082130999992000010118004+40950-004120FM-12+100599999V0202801N000512200019N0200001N1+00561-00101999999ADDAA106000091GF102991011001017501041081KA1999M+00901MA1999999091061MD1810011+9999ME1315659REMSYN076AAXX  01184 08213 32770 22801 10056 21010 39106 48565 58001 81048 333 10090;EQDQ01  00002PRCP06
0235082130999992000010206004+40950-004120FM-12+100599999V0200901N001012200019N0200001N1-00121-00621999999ADDAA106000091GA1001+999999999GF100991001001999999001001IA1149IA2999-00909KA1120N-00161MA1999999091071MD1810021+9999ME1315519REMSYN082AAXX  02064 08213 32970 00902 11012 21062 39107 48551 58002 333 21016 34109 55079;EQDQ01  00002PRCP06
0152082130999992000010209004+40950-004120FM-12+100599999V0201101N001512200019N0200001N1+00021-00761999999ADDGA1001+999999999GF100991001001999999001001MA1999999091071MD1410001+9999ME1315549REMSYN060AAXX  02094 08213 42970 01103 10002 21076 39107 48554 54000;
0192082130999992000010212004+40950-004120FM-12+100599999V0202901N001512200019N0200001N1+00601-00301999999ADDAA106000091GA1001+999999999GF100991001001999999001001MA1999999091071MD1010001+9999ME1315669REMSYN070AAXX  02124 08213 32970 02903 10060 21030 39107 48566 50000 333 5///1;EQDQ01  00002PRCP06
0142082130999992000010215004+40950-004120FM-12+100599999V0203201N001512200019N0200001N1+00801-00151999999ADDGF102991001001999999001081MA1999999090991MD1610081+9999ME1315639REMSYN066AAXX  02154 08213 42970 23203 10080 21015 39099 48563 56008 80008;
0205082130999992000010218004+40950-004120FM-12+100599999V0209999C000012200019N0200001N1+00461-00131999999ADDAA106000091GA1001+999999999GF100991001001999999001001KA1999M+00901MA1999999090991MD1410001+9999ME1315569REMSYN070AAXX  02184 08213 32970 00000 10046 21013 39099 48556 54000 333 10090;EQDQ01  00002PRCP06
0235082130999992000010306004+40950-004120FM-12+100599999V0200801N001512200019N0300001N1-00181-00631999999ADDAA106000091GA1001+999999999GF100991001001999999001001IA1149IA2999-00909KA1120N-00181MA1999999091021MD1410001+9999ME1315469REMSYN082AAXX  03064 08213 32980 00803 11018 21063 39102 48546 54000 333 21018 34109 55079;EQDQ01  00002PRCP06
0152082130999992000010309004+40950-004120FM-12+100599999V0200801N001012200019N0300001N1-00061-00611999999ADDGA1001+999999999GF100991001001999999001001MA1999999091111MD1210091+9999ME1315569REMSYN060AAXX  03094 08213 42980 00802 11006 21061 39111 48556 52009;
0182082130999992000010312004+40950-004120FM-12+100599999V0202901N001512200019N0300001N1+00561-00291999999ADDAA106000091GF101991001001999999001011MA1999999091181MD1010071+9999ME1315759REMSYN076AAXX  03124 08213 32980 12903 10056 21029 39118 48575 50007 80001 333 5///0;EQDQ01  00002PRCP06
0142082130999992000010315004+40950-004120FM-12+100599999V0202801N001512200019N0300001N1+00641+00061999999ADDGF101991001001999999001041MA1999999091071MD1610111+9999ME1315679REMSYN066AAXX  03154 08213 42980 12803 10064 20006 39107 48567 56011 80004;
0195082130999992000010318004+40950-004120FM-12+100599999V0209999C000012200019N0300001N1+00421+00021999999ADDAA106000091GF103991001001999999001041KA1999M+00701MA1999999091111MD1210041+9999ME1315669REMSYN076AAXX  03184 08213 32980 30000 10042 20002 39111 48566 52004 80004 333 10070;EQDQ01  00002PRCP06
0225082130999992000010406004+40950-004120FM-12+100599999V0200901N001512200019N0300001N1-00101-00661999999ADDAA106000091GF102991001001999999001041IA1149IA2999-00809KA1120N-00201MA1999999091151MD1410001+9999ME1315599REMSYN088AAXX  04064 08213 32980 20903 11010 21066 39115 48559 54000 80004 333 21020 34108 55080;EQDQ01  00002PRCP06
0142082130999992000010409004+40950-004120FM-12+100599999V0200801N000512200019N0300001N1-00041-00511999999ADDGF101991001001999999001011MA1999999091341MD1210191+9999ME1315769REMSYN066AAXX  04094 08213 42980 10801 11004 21051 39134 48576 52019 80001;
0182082130999992000010412004+40950-004120FM-12+100599999V0202801N002112200019N0300001N1+00501-00181999999ADDAA106000091GF101991001001999999001011MA1999999091311MD1810031+9999ME1315859REMSYN076AAXX  04124 08213 32980 12804 10050 21018 39131 48585 58003 80001 333 5///0;EQDQ01  00002PRCP06
0142082130999992000010415004+40950-004120FM-12+100599999V0203301N002112200019N0300001N1+00781-00241999999ADDGF102991011001017501041011MA1999999091181MD1710131+9999ME1315809REMSYN066AAXX  04154 08213 42780 23304 10078 21024 39118 48580 57013 81041;
0195082130999992000010418004+40950-004120FM-12+100599999V0200301N000512200019N0300001N1+00501-00181999999ADDAA106000091GF102991011001017501041011KA1999M+00801MA1999999091181MD1410001+9999ME1315749REMSYN076AAXX  04184 08213 32780 20301 10050 21018 39118 48574 54000 81041 333 10080;EQDQ01  00002PRCP06
0225082130999992000010506004+40950-004120FM-12+100599999V0200701N000512200019N0300001N1-00161-00541999999ADDAA106000091GF101991001001999999001011IA1149IA2999-00809KA1120N-00161MA1999999090831MD1710161+9999ME1315309REMSYN088AAXX  05064 08213 32980 10701 11016 21054 39083 48530 57016 80001 333 21016 34108 55085;EQDQ01  00002PRCP06
0142082130999992000010509004+40950-004120FM-12+100599999V0209999C000012200019N0300001N1-00041-00511999999ADDGF104991001001999999001041MA1999999090741MD1710091+9999ME1315249REMSYN066AAXX  05094 08213 42980 40000 11004 21051 39074 48524 57009 80004;
0182082130999992000010512004+40950-004120FM-12+100599999V0203001N001519999999N0300001N1+00361-00231999999ADDAA106000091GF106991001001999999001041MA1999999090791MD1010051+9999ME1315379REMSYN076AAXX  05124 08213 32980 63003 10036 21023 39079 48537 50005 80004 333 5///0;EQDQ01  00002PRCP06
0195082130999992000010518004+40950-004120FM-12+100599999V0203201N001512200019N0300001N1+00361-00051999999ADDAA106000091GF104991011001017501041051KA1999M+00641MA1999999090591MD1610031+9999ME1315199REMSYN076AAXX  05184 08213 32780 43203 10036 21005 39059 48519 56003 81045 333 10064;EQDQ01  00002PRCP06
0235082130999992000010606004+40950-004120FM-12+100599999V0201101N001512200019N0300001N1+00041-00281999999ADDAA106000091GA1001+999999999GF100991001001999999001001IA1149IA2999-00909KA1120N-00151MA1999999090541MD1410001+9999ME1315099REMSYN082AAXX  06064 08213 32980 01103 10004 21028 39054 48509 54000 333 21015 34109 55084;EQDQ01  00002PRCP06
0142082130999992000010609004+40950-004120FM-12+100599999V0201001N001512200019N0250001N1+00271-00181999999ADDGF103991021001017501051011MA1999999090671MD1210131+9999ME1315249REMSYN066AAXX  06094 08213 42775 31003 10027 21018 39067 48524 52013 82051;
0176082130999992000010612004+40950-004120FM-12+100599999V0202601N001012200019N0300001N1+00921-00011999999ADDAA106000091GF103991011011008001031011MA1999999090791MD1110121+9999ME1315489REMSYN070AAXX  06124 08213 32580 32602 10092 21001 39079 48548 51012 81131 333;EQDQ01  00002PRCP06
0142082130999992000010615004+40950-004120FM-12+100599999V0200101N001012200019N0250001N1+01031+00031999999ADDGF102991011051008001001011MA1999999090781MD1810011+9999ME1315499REMSYN066AAXX  06154 08213 42575 20102 10103 20003 39078 48549 58001 81501;
0225082130999992000010706004+40950-004120FM-12+100599999V0200801N001012200019N0150001N1-00121-00361999999ADDAA106000091GF102991001001999999001081IA1149IA2999-00709KA1120N-00121MA1999999091071MD1510001+9999ME1315529REMSYN088AAXX  07064 08213 32965 20802 11012 21036 39107 48552 55000 80008 333 21012 34107 55083;EQDQ01  00002PRCP06
0142082130999992000010709004+40950-004120FM-12+100599999V0200501N001012200019N0150001N1+00021-00331999999ADDGF102991001001999999001081MA1999999091071MD1410001+9999ME1315549REMSYN066AAXX  07094 08213 42965 20502 10002 21033 39107 48554 54000 80008;
0176082130999992000010712004+40950-004120FM-12+100599999V0202901N001012200019N0150001N1+00621+00091999999ADDAA106000091GF102991001001999999001081MA1999999091101MD1010031+9999ME1315709REMSYN070AAXX  07124 08213 32965 22902 10062 20009 39110 48570 50003 80008 333;EQDQ01  00002PRCP06
0142082130999992000010715004+40950-004120FM-12+100599999V0203001N001512200019N0150001N1+00901+00171999999ADDGF102991001001999999001081MA1999999090951MD1710151+9999ME1315629REMSYN066AAXX  07154 08213 42965 23003 10090 20017 39095 48562 57015 80008;
0195082130999992000010718004+40950-004120FM-12+100599999V0209999C000012200019N0150001N1+00581+00151999999ADDAA106000091GF102991001001999999001081KA1999M+00901MA1999999090951MD1410001+9999ME1315559REMSYN076AAXX  07184 08213 32965 20000 10058 20015 39095 48555 54000 80008 333 10090;EQDQ01  00002PRCP06
0225082130999992000010806004+40950-004120FM-12+100599999V0200901N001012200019N0150001N1-00101-00331999999ADDAA106000091GF102991001001999999001081IA1149IA2999-00809KA1120N-00101MA1999999090871MD1610021+9999ME1315359REMSYN088AAXX  08064 08213 32965 20902 11010 21033 39087 48535 56002 80008 333 21010 34108 55082;EQDQ01  00002PRCP06
0142082130999992000010809004+40950-004120FM-12+100599999V0209999C000012200019N0150001N1-00061-00291999999ADDGF102991001001999999001081MA1999999090951MD1310081+9999ME1315429REMSYN066AAXX  08094 08213 42965 20000 11006 21029 39095 48542 53008 80008;
0182082130999992000010812004+40950-004120FM-12+100599999V0202701N001512200019N0120001N1+00461+00011999999ADDAA106000091GF103991011041008001001081MA1999999090981MD1010031+9999ME1315569REMSYN076AAXX  08124 08213 32562 32703 10046 20001 39098 48556 50003 81408 333 5///1;EQDQ01  00002PRCP06
0142082130999992000010815004+40950-004120FM-12+100599999V0203001N001512200019N0120001N1+00661+00191999999ADDGF104991021041008001001081MA1999999090831MD1710151+9999ME1315469REMSYN066AAXX  08154 08213 42562 43003 10066 20019 39083 48546 57015 82408;
0233082130999992000010818004+40950-004120FM-12+100599999V0202701N002110001519N0001001N1+00121+00121999999ADDAA106000091AY111061AY211061GA1091+999999999GF109991091999999999999999KA1999M+00701MA1999999090901MD1110071+9999ME1315429MW1451REMSYN076AAXX  08184 08213 31/01 92704 10012 20012 39090 48542 51007 74511 333 10070;EQDQ01  00002PRCP06
0240082130999992000010906004+40950-004120FM-12+100599999V0201801N001510075019N0120001N1+00211+00081999999ADDAA112000591AY161061AY261061GF108991081051008001999999IA1099IA2999-00309KA1120N-00141MA1999999090791MD1610051+9999ME1315349MW1601REMSYN100AAXX  09064 08213 11562 81803 10021 20008 39079 48534 56005 69962 76066 885// 333 21014 31103 55077;
0170082130999992000010909004+40950-004120FM-12+100599999V0209999C000010075019N0020001N1+00231+00131999999ADDAY161031AY251031GF108991081051008001999999MA1999999090911MD1210121+9999ME1315459MW1511REMSYN072AAXX  09094 08213 41520 80000 10023 20013 39091 48545 52012 75165 885//;
0197082130999992000010912004+40950-004120FM-12+100599999V0200401N003610075019N0200001N1+00351+00161999999ADDAA106001091AY171061AY251061GF108991081051008001999999MA1999999091021MD1110111+9999ME1315579MW1601REMSYN088AAXX  09124 08213 11570 80407 10035 20016 39102 48557 51011 60011 76075 885// 333 5///0;
0170082130999992000010915004+40950-004120FM-12+100599999V0200401N003110075019N0200001N1+00341+00071999999ADDAY171031AY261031GF108991081061008001999999MA1999999090901MD1810121+9999ME1315469MW1021REMSYN072AAXX  09154 08213 41570 80406 10034 20007 39090 48546 58012 70276 886//;
0210082130999992000010918004+40950-004120FM-12+100599999V0200401N002110075019N0150001N1+00321+00071999999ADDAA112002091AY161061AY221061GF107991051051008001071999KA1999M+00401MA1999999090981MD1310081+9999ME1315539MW1021REMSYN088AAXX  09184 08213 11565 70404 10032 20007 39098 48553 53008 60022 70262 8557/ 333 10040;
0241082130999992000011006004+40950-004120FM-12+100599999V0200801N001510075019N0150001N1-00061-00231999999ADDAA106000091GF108991051051008001071999IA1099IA2999-00209KA1120N-00091MA1999999999999MD1210041+9999ME1315569REMSYN088AAXX  10064 08213 32565 80803 11006 21023 39911 48556 52004 8557/ 333 21009 31102 55002;EQDQ01  00002PRCP06Q02 099113APOSP 
0189082130999992000011009004+40950-004120FM-12+100599999V0200501N002110075019N0080001N1-00141-00261999999ADDAY121031AY221031GF108991081061008001999999MA1999999091272MD1210161+9999ME1315689MW1101REMSYN072AAXX  10094 08213 41558 80504 11014 21026 39127 48568 52016 71022 886//;EQDQ01+091273APOSP 
0182082130999992000011012004+40950-004120FM-12+100599999V0202901N001510075019N0200001N1+00041-00241999999ADDAA106000091GF107991071051008001999999MA1999999091271MD1010001+9999ME1315729REMSYN076AAXX  10124 08213 32570 72903 10004 21024 39127 48572 50000 875// 333 5///0;EQDQ01  00002PRCP06
0142082130999992000011015004+40950-004120FM-12+100599999V0202501N001012200019N0180001N1+00341-00131999999ADDGF104991041051008001001001MA1999999091181MD1710091+9999ME1315719REMSYN066AAXX  10154 08213 42568 42502 10034 21013 39118 48571 57009 84500;
0195082130999992000011018004+40950-004120FM-12+100599999V0202501N001012200019N0200001N1+00071-00241999999ADDAA106000091GF103991021051008001031001KA1999M+00381MA1999999091221MD1310041+9999ME1315699REMSYN076AAXX  10184 08213 32570 32502 10007 21024 39122 48569 53004 82530 333 10038;EQDQ01  00002PRCP06
0225082130999992000011106004+40950-004120FM-12+100599999V0200701N000512200019N0150001N1-00171-00261999999ADDAA106000091GF104991041061008001001001IA1149IA2999-00709KA1120N-00311MA1999999091271MD1010001+9999ME1315689REMSYN088AAXX  11064 08213 32565 40701 11017 21026 39127 48568 50000 84600 333 21031 34107 55034;EQDQ01  00002PRCP06
0170082130999992000011109004+40950-004120FM-12+100599999V0200701N001010075019N0080001N1-00121-00251999999ADDAY171031AY211031GF105991051061008001001001MA1999999091391MD1210121+9999ME1315799MW1101REMSYN072AAXX  11094 08213 41558 50702 11012 21025 39139 48579 52012 71071 85600;
0197082130999992000011112004+40950-004120FM-12+100599999V0203201N001512200019N0180001N1+00491-00041999999ADDAA106000791AY171061AY211061GF104991041051008001001001MA1999999091471MD1110081+9999ME1315999MW1021REMSYN088AAXX  11124 08213 11568 43203 10049 21004 39147 48599 51008 69901 70271 84500 333 5///0;
0142082130999992000011115004+40950-004120FM-12+100599999V0202401N002112200019N0250001N1+00581+00131999999ADDGF101991011051008001001001MA1999999091351MD1710121+9999ME1315919REMSYN066AAXX  11154 08213 42575 12404 10058 20013 39135 48591 57012 81500;
0192082130999992000011118004+40950-004120FM-12+100599999V0201801N001512200019N0300001N1+00271-00041999999ADDAA112000791GA1001+999999999GF100991001001999999001001KA1999M+00601MA1999999091351MD1510001+9999ME1315849REMSYN076AAXX  11184 08213 12980 01803 10027 21004 39135 48584 55000 69902 333 10060;
0225082130999992000011206004+40950-004120FM-12+100599999V0200801N001512200019N0150001N1-00101-00541999999ADDAA106000091GF102991001001999999001081IA1149IA2999-00709KA1120N-00121MA1999999091311MD1610041+9999ME1315739REMSYN088AAXX  12064 08213 32965 20803 11010 21054 39131 48573 56004 80008 333 21012 34107 55075;EQDQ01  00002PRCP06
0142082130999992000011209004+40950-004120FM-12+100599999V0200801N001512200019N0150001N1+00021-00391999999ADDGF102991001001999999001081MA1999999091351MD1310041+9999ME1315799REMSYN066AAXX  12094 08213 42965 20803 10002 21039 39135 48579 53004 80008;
0182082130999992000011212004+40950-004120FM-12+100599999V0202701N001512200019N0150001N1+00601-00241999999ADDAA106000091GF102991001001999999001081MA1999999091311MD1810041+9999ME1315879REMSYN076AAXX  12124 08213 32965 22703 10060 21024 39131 48587 58004 80008 333 5///1;EQDQ01  00002PRCP06
0142082130999992000011215004+40950-004120FM-12+100599999V0202801N002612200019N0200001N1+00781-00051999999ADDGF102991011011008001001011MA1999999091141MD1710171+9999ME1315769REMSYN066AAXX  12154 08213 42570 22805 10078 21005 39114 48576 57017 81101;
0195082130999992000011218004+40950-004120FM-12+100599999V0202201N001012200019N0200001N1+00381-00141999999ADDAA106000091GF102991011011008001001011KA1999M+00801MA1999999091101MD1810041+9999ME1315649REMSYN076AAXX  12184 08213 32570 22202 10038 21014 39110 48564 58004 81101 333 10080;EQDQ01  00002PRCP06
0142082130999992000011309004+40950-004120FM-12+100599999V0201301N002612200019N0200001N1+00121-00471999999ADDGF105991021001017501021081MA1999999090461MD1810081+9999ME1315039REMSYN066AAXX  13094 08213 42770 51305 10012 21047 39046 48503 58008 82028;
0176082130999992000011312004+40950-004120FM-12+100599999V0202201N002610900019N0200001N1+00861-00401999999ADDAA106000091GF105991011011008001021081MA1999999090231MD1810231+9999ME1314969REMSYN070AAXX  13124 08213 32570 52205 10086 21040 39023 48496 58023 81128 333;EQDQ01  00002PRCP06
0142082130999992000011315004+40950-004120FM-12+100599999V0202201N005110360019N0200001N1+00581-00251999999ADDGF106991031041008001021081MA1999999089951MD1710281+9999ME1314669REMSYN066AAXX  13154 08213 42570 62210 10058 21025 38995 48466 57028 83428;
0195082130999992000011318004+40950-004120FM-12+100599999V0201501N003610360019N0120001N1+00341-00251999999ADDAA106000091GF107991021041008001021081KA1999M+00861MA1999999089861MD1810091+9999ME1314549REMSYN076AAXX  13184 08213 32562 71507 10034 21025 38986 48454 58009 82428 333 10086;EQDQ01  00002PRCP06
0229082130999992000011406004+40950-004120FM-12+100599999V0202601N002110120019N0160001N1+00221-00211999999ADDAA199000091GF106991061081008001001001IA1019IA2999-00609KA1120N+00221MA1999999089221MD1710131+9999ME1313959REMSYN092    AAXX  14064 08213 32566 62604 10022 21021 38922 48395 57013 86800 333 20022 30106 55034;EQDQ01  00002PRCP99
0174082130999992000011409004+40950-004120FM-12+100599999V0203101N001010360019N0004001N1+00081-00021999999ADDAY171031AY221031GF108991041051008001021999MA1999999089231MD1210011+9999ME1313949MW1711REMSYN076    AAXX  14094 08213 41504 83102 10008 21002 38923 48394 52001 77172 8452/;
0201082130999992000011412004+40950-004120FM-12+100599999V0202701N001510120019N0180001N1+00381-00021999999ADDAA106000591AY171061AY221061GF107991071081008001001001MA1999999089191MD1810041+9999ME1313949MW1011REMSYN092    AAXX  14124 08213 11568 72703 10038 21002 38919 48394 58004 69951 70172 87800 333 5///0;
0146082130999992000011415004+40950-004120FM-12+100599999V0201301N002610120019N0140001N1+00321-00341999999ADDGF107991071081008001001001MA1999999089071MD1610121+9999ME1313829REMSYN070    AAXX  14154 08213 42564 71305 10032 21034 38907 48382 56012 87800;
0186082130999992000011418004+40950-004120FM-12+100599999V0201201N001510075019N0200001N1+00161-00221999999ADDAA112000591GF107991051051008001021001KA1999M+00501MA1999999089101MD1210031+9999ME1313839REMSYN086    AAXX  14184 08213 12570 71203 10016 21022 38910 48383 52003 69952 85520 333 10050;
0229082130999992000011506004+40950-004120FM-12+100599999V0200701N003112200019N0200001N1+00101-00491999999ADDAA199000091GF104991041021008001001001IA1019IA2999-00509KA1120N+00101MA1999999089661MD1310101+9999ME1314329REMSYN092    AAXX  15064 08213 32570 40706 10010 21049 38966 48432 53010 84200 333 20010 30105 55025;EQDQ01  00002PRCP99
0146082130999992000011509004+40950-004120FM-12+100599999V0200901N003110075019N0200001N1+00201-00431999999ADDGF105991051021008001001001MA1999999089991MD1210331+9999ME1314639REMSYN070    AAXX  15094 08213 42570 50906 10020 21043 38999 48463 52033 85200;
0186082130999992000011512004+40950-004120FM-12+100599999V0200901N003612200019N0200001N1+00541-00611999999ADDAA199000091GF103991031021008001001001MA1999999090111MD1110121+9999ME1314799REMSYN080    AAXX  15124 08213 32570 30907 10054 21061 39011 48479 51012 83200 333 5///0;EQDQ01  00002PRCP99
0146082130999992000011515004+40950-004120FM-12+100599999V0201101N002612200019N0200001N1+00621-00561999999ADDGF101991011021008001001001MA1999999090101MD1710011+9999ME1314809REMSYN070    AAXX  15154 08213 42570 11105 10062 21056 39010 48480 57001 81200;
0199082130999992000011518004+40950-004120FM-12+100599999V0201501N002112200019N0300001N1+00301-00591999999ADDAA199000091GF101991011021008001001001KA1999M+00641MA1999999090231MD1110131+9999ME1314869REMSYN080    AAXX  15184 08213 32580 11504 10030 21059 39023 48486 51013 81200 333 10064;EQDQ01  00002PRCP99
0229082130999992000011606004+40950-004120FM-12+100599999V0209999C000012200019N0200001N1-00101-00401999999ADDAA199000091GF103991031021008001001001IA1149IA2999-00709KA1120N-00221MA1999999090581MD1010021+9999ME1315099REMSYN092    AAXX  16064 08213 32570 30000 11010 21040 39058 48509 50002 83200 333 21022 34107 55065;EQDQ01  00002PRCP99
0146082130999992000011609004+40950-004120FM-12+100599999V0202601N002612200019N0200001N1-00021-00421999999ADDGF102991021021008001001001MA1999999090751MD1210171+9999ME1315269REMSYN070    AAXX  16094 08213 42570 22605 11002 21042 39075 48526 52017 82200;
0146082130999992000011615004+40950-004120FM-12+100599999V0202401N002612200019N0200001N1+00721-00131999999ADDGF101991011021008001001001MA1999999090701MD1710121+9999ME1315369REMSYN070    AAXX  16154 08213 42570 12405 10072 21013 39070 48536 57012 81200;
0199082130999992000011618004+40950-004120FM-12+100599999V0202201N001512200019N0200001N1+00361-00231999999ADDAA199000091GF101991011021008001001001KA1999M+00801MA1999999090741MD1210041+9999ME1315329REMSYN080    AAXX  16184 08213 32570 12203 10036 21023 39074 48532 52004 81200 333 10080;EQDQ01  00002PRCP99
0239082130999992000011706004+40950-004120FM-12+100599999V0201301N001512200019N0300001N1-00161-00471999999ADDAA199000091GA1001+999999999GF100991001001999999001001IA1149IA2999-00909KA1120N-00161MA1999999091031MD1410001+9999ME1315479REMSYN086    AAXX  17064 08213 32980 01303 11016 21047 39103 48547 54000 333 21016 34109 55084;EQDQ01  00002PRCP99
0156082130999992000011709004+40950-004120FM-12+100599999V0209999C000012200019N0150001N1+00081-00351999999ADDGA1001+999999999GF100991001001999999001001MA1999999091151MD1310121+9999ME1315639REMSYN064    AAXX  17094 08213 42965 00000 10008 21035 39115 48563 53012;
0190082130999992000011712004+40950-004120FM-12+100599999V0203301N001012200019N0250001N1+00661-00181999999ADDAA199000091GA1001+999999999GF100991001001999999001001MA1999999091221MD1110071+9999ME1315819REMSYN068    AAXX  17124 08213 32975 03302 10066 21018 39122 48581 51007 333;EQDQ01  00002PRCP99
0156082130999992000011715004+40950-004120FM-12+100599999V0202701N001512200019N0250001N1+00881-00071999999ADDGA1001+999999999GF100991001001999999001001MA1999999091071MD1810151+9999ME1315729REMSYN064    AAXX  17154 08213 42975 02703 10088 21007 39107 48572 58015;
0209082130999992000011718004+40950-004120FM-12+100599999V0200401N001512200019N0250001N1+00581-00071999999ADDAA199000091GA1001+999999999GF100991001001999999001001KA1999M+00891MA1999999091111MD1310041+9999ME1315699REMSYN074    AAXX  17184 08213 32975 00403 10058 21007 39111 48569 53004 333 10089;EQDQ01  00002PRCP99
0239082130999992000011806004+40950-004120FM-12+100599999V0209999C000012200019N0300001N1-00221-00541999999ADDAA199000091GA1001+999999999GF100991001001999999001001IA1149IA2999-01109KA1120N-00281MA1999999090861MD1710151+9999ME1315319REMSYN086    AAXX  18064 08213 32980 00000 11022 21054 39086 48531 57015 333 21028 34111 55089;EQDQ01  00002PRCP99
0174082130999992000011809004+40950-004120FM-12+100599999V0201301N001012200019N0080001N1+00001-00451999999ADDAY101031AY201031GF101991001001999999001011MA1999999090831MD1610031+9999ME1315339MW1401REMSYN076    AAXX  18094 08213 41958 11302 10000 21045 39083 48533 56003 74000 80001;
0180082130999992000011812004+40950-004120FM-12+100599999V0202901N001512200019N0200001N1+00551-00141999999ADDAA199000091GF102991011001017501031011MA1999999090831MD1010001+9999ME1315449REMSYN074    AAXX  18124 08213 32770 22903 10055 21014 39083 48544 50000 81031 333;EQDQ01  00002PRCP99
0146082130999992000011815004+40950-004120FM-12+100599999V0203001N001512200019N0150001N1+00801-00281999999ADDGF101991001001999999001011MA1999999090711MD1710121+9999ME1315389REMSYN070    AAXX  18154 08213 42965 13003 10080 21028 39071 48538 57012 80001;
0199082130999992000011818004+40950-004120FM-12+100599999V0202601N001512200019N0150001N1+00301+00001999999ADDAA199000091GF101991011001017501031011KA1999M+00811MA1999999090711MD1010001+9999ME1315299REMSYN080    AAXX  18184 08213 32765 12603 10030 20000 39071 48529 50000 81031 333 10081;EQDQ01  00002PRCP99
0265082130999992000011906004+40950-004120FM-12+100599999V0202401N001010003019N0002001N1-00321-00391999999ADDAA199000091GA1091+000309999GF109991091999999999999999GJ105409IA1149IA2999-01209KA1120N-00451MA1999999090621MD1510001+9999ME1315099MW1491REMSYN098    AAXX  19064 08213 31/02 92402 11032 21039 39062 48509 55000 749// 333 21045 34112 55090 89/01;EQDQ01  00002PRCP99
0200082130999992000011909004+40950-004120FM-12+100599999V0202401N001010001519N0001001N1-00301-00341999999ADDAY141031AY241031GA1091+000159999GF109991091999999999999999MA1999999090701MD1110081+9999ME1315169MW1491REMSYN086    AAXX  19094 08213 41/01 92402 11030 21034 39070 48516 51008 74944 333 89/00 96049;
0224082130999992000011912004+40950-004120FM-12+100599999V0202201N001510001519N0008001N1-00201-00251999999ADDAA199000091AY141061AY241061GA1091+000159999GF109991091999999999999999MA1999999090711MD1010011+9999ME1315199MW1491REMSYN080    AAXX  19124 08213 31/08 92203 11020 21025 39071 48519 50001 74944 333 89/00;EQDQ01  00002PRCP99
0190082130999992000011915004+40950-004120FM-12+100599999V0201501N001510003019N0009001N1-00021-00101999999ADDAY141031AY241031GA1091+000309999GF109991091999999999999999MA1999999090671MD1710041+9999ME1315199MW1491REMSYN076AAXX  19154 08213 41/09 91503 11002 21010 39067 48519 57004 74944 333 89/01;
0210082130999992000011918004+40950-004120FM-12+100599999V02099999999992200019N9999999N1+00071-00121999999ADDAA112000191AY141061AY241061GF101991011001017501031001KA1999M+00171MA1999999090671MD1510001+9999ME1315219MW1101REMSYN088AAXX  19184 08213 117// 1//// 10007 21012 39067 48521 55000 69912 71044 81030 333 10017;
0247082130999992000012006004+40950-004120FM-12+100599999V0200501N001512200019N0020001N1-00501-00561999999ADDAA199000091GA1001+999999999GF100991001001999999001001IA1149IA2999-01109KA1120N-00541MA1999999090871MD1410001+9999ME1315279MW1401REMSYN088AAXX  20064 08213 31920 00503 11050 21056 39087 48527 54000 740// 333 21054 34111 55012;EQDQ01  00002PRCP99
0190082130999992000012009004+40950-004120FM-12+100599999V0201001N001010001519N0001001N1-00461-00521999999ADDAY141031AY201031GA1091+000159999GF109991091999999999999999MA1999999091031MD1210161+9999ME1315419MW1491REMSYN076AAXX  20094 08213 41/01 91002 11046 21052 39103 48541 52016 74940 333 89/00;
0226082130999992000012012004+40950-004120FM-12+100599999V0202801N001510001519N0001001N1-00061-00071999999ADDAA199000091AY141061AY241061GA1091+000159999GF109991091999999999999999MA1999999091071MD1110041+9999ME1315539MW1491REMSYN082AAXX  20124 08213 31/01 92803 11006 21007 39107 48553 51004 74944 333 5///0 89/00;EQDQ01  00002PRCP99
0152082130999992000012015004+40950-004120FM-12+100599999V0203001N001512200019N0110001N1+00621-00141999999ADDGA1001+999999999GF100991001001999999001001MA1999999091021MD1610051+9999ME1315629REMSYN060AAXX  20154 08213 42961 03003 10062 21014 39102 48562 56005;
0205082130999992000012018004+40950-004120FM-12+100599999V0200401N001012200019N0120001N1+00461-00361999999ADDAA199000091GA1001+999999999GF100991001001999999001001KA1999M+00661MA1999999091111MD1210091+9999ME1315679REMSYN070AAXX  20184 08213 32962 00402 10046 21036 39111 48567 52009 333 10066;EQDQ01  00002PRCP99
0235082130999992000012106004+40950-004120FM-12+100599999V0209999C000012200019N0150001N1-00221-00371999999ADDAA199000091GA1001+999999999GF100991001001999999001001IA1149IA2999-00909KA1120N-00221MA1999999091111MD1610021+9999ME1315539REMSYN082AAXX  21064 08213 32965 00000 11022 21037 39111 48553 56002 333 21022 34109 55056;EQDQ01  00002PRCP99
0152082130999992000012109004+40950-004120FM-12+100599999V0201001N000512200019N0100001N1-00141-00581999999ADDGA1001+999999999GF100991001001999999001001MA1999999091151MD1110041+9999ME1315589REMSYN060AAXX  21094 08213 42960 01001 11014 21058 39115 48558 51004;
0192082130999992000012112004+40950-004120FM-12+100599999V0202901N001012200019N0120001N1+00361-00301999999ADDAA199000091GA1001+999999999GF100991001001999999001001MA1999999091181MD1110031+9999ME1315719REMSYN070AAXX  21124 08213 32962 02902 10036 21030 39118 48571 51003 333 5///1;EQDQ01  00002PRCP99
0205082130999992000012118004+40950-004120FM-12+100599999V0202601N000512200019N0100001N1-00041-00271999999ADDAA199000091GA1001+999999999GF100991001001999999001001KA1999M+00601MA1999999090991MD1410001+9999ME1315469REMSYN070AAXX  21184 08213 32960 02601 11004 21027 39099 48546 54000 333 10060;EQDQ01  00002PRCP99
0180082130999992000012209004+40950-004120FM-12+100599999V0209999C000010001519N0001001N1-00821-00921999999ADDAY141031AY241031GA1091+999999999GF109991091999999999999999MA1999999090591MD1410001+9999ME1314979MW1491REMSYN066AAXX  22094 08213 41/01 90000 11082 21092 39059 48497 54000 74944;
0220082130999992000012212004+40950-004120FM-12+100599999V0203101N001010003019N0005001N1-00381-00431999999ADDAA199000091AY141061AY241061GA1091+999999999GF109991091999999999999999MA1999999090591MD1410001+9999ME1315059MW1491REMSYN076AAXX  22124 08213 31/05 93102 11038 21043 39059 48505 54000 74944 333 5///1;EQDQ01  00002PRCP99
0170082130999992000012215004+40950-004120FM-12+100599999V0202101N001510075019N0050001N1-00301-00401999999ADDAY141031AY241031GF106991061061008001001001MA1999999090541MD1610051+9999ME1315029MW1101REMSYN072AAXX  22154 08213 41550 62103 11030 21040 39054 48502 56005 71044 86600;
0223082130999992000012218004+40950-004120FM-12+100599999V0201401N001012200019N0080001N1-00301-00401999999ADDAA199000091AY141061AY221061GF104991041061008001001001KA1999M-00181MA1999999090511MD1710031+9999ME1315009MW1101REMSYN082AAXX  22184 08213 31558 41402 11030 21040 39051 48500 57003 71042 84600 333 11018;EQDQ01  00002PRCP99
0225082130999992000012306004+40950-004120FM-12+100599999V0200801N001510075019N0100001N1-00161-00291999999ADDAA199000091GF107991071071008001001001IA1149IA2999-01109KA1120N-00421MA1999999090471MD1810061+9999ME1314999REMSYN088AAXX  23064 08213 32560 70803 11016 21029 39047 48499 58006 87700 333 21042 34111 55008;EQDQ01  00002PRCP99
0142082130999992000012309004+40950-004120FM-12+100599999V0200801N000510075019N0200001N1-00021-00151999999ADDGF106991061051008001001001MA1999999090541MD1310071+9999ME1315089REMSYN066AAXX  23094 08213 42570 60801 11002 21015 39054 48508 53007 86500;
0182082130999992000012312004+40950-004120FM-12+100599999V0200401N003110120019N0200001N1+00301-00181999999ADDAA199000091GF106991061081008001001001MA1999999090541MD1010001+9999ME1315139REMSYN076AAXX  23124 08213 32570 60406 10030 21018 39054 48513 50000 86800 333 5///0;EQDQ01  00002PRCP99
0142082130999992000012315004+40950-004120FM-12+100599999V0200301N003110075019N0200001N1+00281-00331999999ADDGF106991061041008001001001MA1999999090431MD1610111+9999ME1315039REMSYN066AAXX  23154 08213 42570 60306 10028 21033 39043 48503 56011 86400;
0195082130999992000012318004+40950-004120FM-12+100599999V0200301N002112200019N0200001N1+00181-00461999999ADDAA199000091GF104991041041008001001001KA1999M+00361MA1999999090461MD1310031+9999ME1315049REMSYN076AAXX  23184 08213 32570 40304 10018 21046 39046 48504 53003 84400 333 10036;EQDQ01  00002PRCP99
0225082130999992000012406004+40950-004120FM-12+100599999V0200601N001012200019N0200001N1-00301-00521999999ADDAA199000091GF102991021021008001001001IA1149IA2999-01009KA1120N-00441MA1999999090391MD1810061+9999ME1314899REMSYN088AAXX  24064 08213 32570 20602 11030 21052 39039 48489 58006 82200 333 21044 34110 55015;EQDQ01  00002PRCP99
0142082130999992000012409004+40950-004120FM-12+100599999V0200701N001010075019N0180001N1-00201-00341999999ADDGF107991051051008001021001MA1999999090381MD1710011+9999ME1314909REMSYN066AAXX  24094 08213 42568 70702 11020 21034 39038 48490 57001 85520;
0182082130999992000012412004+40950-004120FM-12+100599999V0200401N001510075019N0180001N1+00121-00551999999ADDAA199000091GF107991051051008001021001MA1999999090381MD1010001+9999ME1314969REMSYN076AAXX  24124 08213 32568 70403 10012 21055 39038 48496 50000 85520 333 5///0;EQDQ01  00002PRCP99
0142082130999992000012415004+40950-004120FM-12+100599999V0202701N001510075019N0180001N1+00201-00641999999ADDGF107991051051008001021001MA1999999090191MD1710191+9999ME1314809REMSYN066AAXX  24154 08213 42568 72703 10020 21064 39019 48480 57019 85520;
0195082130999992000012418004+40950-004120FM-12+100599999V0203301N001010075019N0180001N1+00101-00731999999ADDAA199000091GF107991051051008001021001KA1999M+00241MA1999999090181MD1710011+9999ME1314789REMSYN076AAXX  24184 08213 32568 73302 10010 21073 39018 48478 57001 85520 333 10024;EQDQ01  00002PRCP99
0225082130999992000012506004+40950-004120FM-12+100599999V0209999C000012200019N0200001N1-00561-00841999999ADDAA199000091GF102991021021008001001001IA1149IA2999-01109KA1120N-00601MA1999999090031MD1710031+9999ME1314539REMSYN088AAXX  25064 08213 32570 20000 11056 21084 39003 48453 57003 82200 333 21060 34111 55032;EQDQ01  00002PRCP99
0142082130999992000012509004+40950-004120FM-12+100599999V0201001N002612200019N0300001N1-00381-00751999999ADDGF101991001001999999001011MA1999999090101MD1210071+9999ME1314639REMSYN066AAXX  25094 08213 42980 11005 11038 21075 39010 48463 52007 80001;
0182082130999992000012512004+40950-004120FM-12+100599999V0202801N001512200019N0300001N1+00181-00671999999ADDAA199000091GF101991011001017501041001MA1999999090061MD1810041+9999ME1314699REMSYN076AAXX  25124 08213 32780 12803 10018 21067 39006 48469 58004 81040 333 5///0;EQDQ01  00002PRCP99
0142082130999992000012515004+40950-004120FM-12+100599999V0200401N001012200019N0200001N1+00281-00661999999ADDGF103991031021008001001001MA1999999089951MD1710111+9999ME1314609REMSYN066AAXX  25154 08213 42570 30402 10028 21066 38995 48460 57011 83200;
0195082130999992000012518004+40950-004120FM-12+100599999V0200401N001510075019N0180001N1+00181-00671999999ADDAA199000091GF107991051051008001021001KA1999M+00321MA1999999089991MD1310041+9999ME1314629REMSYN076AAXX  25184 08213 32568 70403 10018 21067 38999 48462 53004 85520 333 10032;EQDQ01  00002PRCP99
0225082130999992000012606004+40950-004120FM-12+100599999V0201701N000512200019N0180001N1-00341-00851999999ADDAA199000091GF103991031021008001001001IA1149IA2999-01009KA1120N-00421MA1999999090221MD1310061+9999ME1314749REMSYN088AAXX  26064 08213 32568 31701 11034 21085 39022 48474 53006 83200 333 21042 34110 55067;EQDQ01  00002PRCP99
0182082130999992000012612004+40950-004120FM-12+100599999V0202801N001510360019N0180001N1+00241-00441999999ADDAA199000091GF106991041021008001041011MA1999999090511MD1110131+9999ME1315109REMSYN076AAXX  26124 08213 32568 62803 10024 21044 39051 48510 51013 84241 333 5///0;EQDQ01  00002PRCP99
0142082130999992000012615004+40950-004120FM-12+100599999V0201401N007210075019N0180001N1+00521-00341999999ADDGF106991051021008001001011MA1999999090391MD1510121+9999ME1315049REMSYN066AAXX  26154 08213 42568 61414 10052 21034 39039 48504 55012 85201;
0195082130999992000012618004+40950-004120FM-12+100599999V0201401N001510120019N0180001N1+00481-00271999999ADDAA199000091GF107991071081008001001001KA1999M+00541MA1999999090551MD1210161+9999ME1315189REMSYN076AAXX  26184 08213 32568 71403 10048 21027 39055 48518 52016 87800 333 10054;EQDQ01  00002PRCP99
0225082130999992000012706004+40950-004120FM-12+100599999V0201501N006210075019N0160001N1+00421-00151999999ADDAA199000091GF107991051051008001021001IA1019IA2999-00109KA1120N+00301MA1999999090861MD1810021+9999ME1315449REMSYN088AAXX  27064 08213 32566 71512 10042 21015 39086 48544 58002 85520 333 20030 30101 55039;EQDQ01  00002PRCP99
0170082130999992000012709004+40950-004120FM-12+100599999V0201401N003610075019N0160001N1+00421-00091999999ADDAY161031AY221031GF108991051051008001021999MA1999999091031MD1310171+9999ME1315599MW1021REMSYN072AAXX  27094 08213 41566 81407 10042 21009 39103 48559 53017 70262 8552/;
0197082130999992000012712004+40950-004120FM-12+100599999V0203001N001010120019N0180001N1+00701+00241999999ADDAA106000591AY161061AY221061GF107991071081008001001001MA1999999091061MD1110031+9999ME1315689MW1021REMSYN088AAXX  27124 08213 11568 73002 10070 20024 39106 48568 51003 69951 70262 87800 333 5///0;
0142082130999992000012715004+40950-004120FM-12+100599999V0203501N001010120019N0180001N1+00841+00311999999ADDGF107991071081008001001001MA1999999090951MD1710111+9999ME1315619REMSYN066AAXX  27154 08213 42568 73502 10084 20031 39095 48561 57011 87800;
0210082130999992000012718004+40950-004120FM-12+100599999V0200501N001512200019N0180001N1+00641+00121999999ADDAA112000591AY161061AY221061GF103991011021008001041041KA1999M+00861MA1999999090981MD1210031+9999ME1315599MW1011REMSYN088AAXX  27184 08213 11568 30503 10064 20012 39098 48559 52003 69952 70162 81244 333 10086;
0225082130999992000012806004+40950-004120FM-12+100599999V0201001N001012200019N0120001N1+00001-00161999999ADDAA199000091GF103991001001999999001081IA1149IA2999-00709KA1120N-00101MA1999999090991MD1010031+9999ME1315479REMSYN088AAXX  28064 08213 32962 31002 10000 21016 39099 48547 50003 80008 333 21010 34107 55035;EQDQ01  00002PRCP99
0142082130999992000012809004+40950-004120FM-12+100599999V0200901N002112200019N0100001N1+00161-00161999999ADDGF102991001001999999001081MA1999999091061MD1110071+9999ME1315569REMSYN066AAXX  28094 08213 42960 20904 10016 21016 39106 48556 51007 80008;
0176082130999992000012812004+40950-004120FM-12+100599999V0202901N002112200019N0100001N1+00741+00291999999ADDAA199000091GF103991011011008001041081MA1999999091031MD1810031+9999ME1315669REMSYN070AAXX  28124 08213 32560 32904 10074 20029 39103 48566 58003 81148 333;EQDQ01  00002PRCP99
0195082130999992000012818004+40950-004120FM-12+100599999V0209999C000010900019N0100001N1+00601+00281999999ADDAA199000091GF105991021041008001041081KA1999M+00861MA1999999090991MD1110041+9999ME1315609REMSYN076AAXX  28184 08213 32560 50000 10060 20028 39099 48560 51004 82448 333 10086;EQDQ01  00002PRCP99
0225082130999992000012906004+40950-004120FM-12+100599999V0200701N001512200019N0100001N1-00041-00271999999ADDAA199000091GF103991001001999999001081IA1149IA2999-00709KA1120N-00041MA1999999091111MD1110021+9999ME1315579REMSYN088AAXX  29064 08213 32960 30703 11004 21027 39111 48557 51002 80008 333 21004 34107 55054;EQDQ01  00002PRCP99
0170082130999992000012909004+40950-004120FM-12+100599999V0200601N000512200019N0080001N1+00161-00141999999ADDAY101031AY201031GF102991001001999999001081MA1999999091231MD1210121+9999ME1315719MW1101REMSYN072AAXX  29094 08213 41958 20601 10016 21014 39123 48571 52012 71000 80008;
0176082130999992000012912004+40950-004120FM-12+100599999V0202801N001012200019N0100001N1+00601+00121999999ADDAA199000091GF102991011011008001001081MA1999999091391MD1210161+9999ME1315959REMSYN070AAXX  29124 08213 32560 22802 10060 20012 39139 48595 52016 81108 333;EQDQ01  00002PRCP99
0142082130999992000012915004+40950-004120FM-12+100599999V0202901N002612200019N0150001N1+00901+00111999999ADDGF102991001001999999001081MA1999999091311MD1510081+9999ME1315949REMSYN066AAXX  29154 08213 42965 22905 10090 20011 39131 48594 55008 80008;
0195082130999992000012918004+40950-004120FM-12+100599999V0203201N001012200019N0120001N1+00681+00051999999ADDAA199000091GF103991021001017501041081KA1999M+00941MA1999999091391MD1110081+9999ME1315969REMSYN076AAXX  29184 08213 32762 33202 10068 20005 39139 48596 51008 82048 333 10094;EQDQ01  00002PRCP99
0235082130999992000013006004+40950-004120FM-12+100599999V0200901N001512200019N0300001N1+00061-00411999999ADDAA199000091GA1001+999999999GF100991001001999999001001IA1149IA2999-00709KA1120N-00031MA1999999091701MD1210031+9999ME1316109REMSYN082AAXX  30064 08213 32980 00903 10006 21041 39170 48610 52003 333 21003 34107 55089;EQDQ01  00002PRCP99
0174082130999992000013009004+40950-004120FM-12+100599999V0209999C000012200019N0090001N1+00081-00141999999ADDAY101031AY201031GF102991011001022501041041MD1110131+9999ME1316229MW1101REMSYN072AAXX  30094 08213 41859 20000 10008 21014 39095 48622 51013 71000 81044;EQDQ01+090953APOSP 
0186082130999992000013012004+40950-004120FM-12+100599999V0202801N002112200019N0300001N1+00931-00061999999ADDAA199000091GA1001+999999999GF100991001001999999001001MA1999999091821MD1010031+9999ME1316409REMSYN064AAXX  30124 08213 32980 02804 10093 21006 39182 48640 50003 333;EQDQ01  00002PRCP99
0152082130999992000013015004+40950-004120FM-12+100599999V0203401N000512200019N0300001N1+01371+00221999999ADDGA1001+999999999GF100991001001999999001001MA1999999091631MD1710191+9999ME1316339REMSYN060AAXX  30154 08213 42980 03401 10137 20022 39163 48633 57019;
0195082130999992000013018004+40950-004120FM-12+100599999V0209999C000012200019N0300001N1+01211+00481999999ADDAA199000091GF102991001001999999001011KA1999M+01461MA1999999091551MD1610081+9999ME1316239REMSYN076AAXX  30184 08213 32980 20000 10121 20048 39155 48623 56008 80001 333 10146;EQDQ01  00002PRCP99
0235082130999992000013106004+40950-004120FM-12+100599999V0201301N000512200019N0300001N1+00481-00171999999ADDAA199000091GA1001+999999999GF100991001001999999001001IA1019IA2999-00309KA1120N+00381MA1999999091421MD1610031+9999ME1315959REMSYN082AAXX  31064 08213 32980 01301 10048 21017 39142 48595 56003 333 20038 30103 55089;EQDQ01  00002PRCP99
0142082130999992000013109004+40950-004120FM-12+100599999V0209999C000012200019N0300001N1+00591-00061999999ADDGF103991011001017501031011MA1999999091471MD1310051+9999ME1316019REMSYN066AAXX  31094 08213 42780 30000 10059 21006 39147 48601 53005 81031;
0182082130999992000013112004+40950-004120FM-12+100599999V0203401N001512200019N0300001N1+01471-00031999999ADDAA199000091GF103991001001999999001021MA1999999091421MD1810051+9999ME1316169REMSYN076AAXX  31124 08213 32980 33403 10147 21003 39142 48616 58005 80002 333 50590;EQDQ01  00002PRCP99
0142082130999992000013115004+40950-004120FM-12+100599999V0202301N004112200019N0300001N1+01861-01362999999ADDGF103991011001017501031021MA1999999091191MD1710231+9999ME1316029REMSYN066AAXX  31154 08213 42780 32308 10186 21136 39119 48602 57023 81032;
0195082130999992000013118004+40950-004120FM-12+100599999V0202001N005112200019N0300001N1+01281-00711999999ADDAA199000091GF104991021001017501051021KA1999M+01931MA1999999091231MD1310041+9999ME1315949REMSYN076AAXX  31184 08213 32780 42010 10128 21071 39123 48594 53004 82052 333 10193;EQDQ01  00002PRCP99
0235082130999992000020106004+40950-004120FM-12+100599999V0202301N003112200019N0300001N1+01051+00171999999ADDAA199000091GA1001+999999999GF100991001001999999001001IA1019IA2999-00109KA1120N+00701MA1999999091141MD1710101+9999ME1315829REMSYN082AAXX  01064 08213 32980 02306 10105 20017 39114 48582 57010 333 20070 30101 55068;EQDQ01  00002PRCP99
0170082130999992000020109004+40950-004120FM-12+100599999V0201901N007210360019N0250001N1+01191+00361999999ADDAY121031AY201031GF108991031051008001071021MA1999999091151MD1310011+9999ME1315869MW1211REMSYN072AAXX  01094 08213 41575 81914 10119 20036 39115 48586 53001 72120 83572;
0197082130999992000020112004+40950-004120FM-12+100599999V0202001N005710360019N0300001N1+01221+00371999999ADDAA106000791AY161061AY221061GF107991041051008001041021MA1999999091151MD1410001+9999ME1315879MW1021REMSYN088AAXX  01124 08213 11580 72011 10122 20037 39115 48587 54000 69901 70262 84542 333 50260;
0142082130999992000020115004+40950-004120FM-12+100599999V0202201N005710360019N0300001N1+01201+00401999999ADDGF107991041051008001041999MA1999999091021MD1810131+9999ME1315749REMSYN066AAXX  01154 08213 42580 72211 10120 20040 39102 48574 58013 8454/;
0240082130999992000020206004+40950-004120FM-12+100599999V0202701N003610075019N0100001N1+00781+00661999999ADDAA112000191AY161061AY221061GF108991081071008001001001IA1099IA2999+00609KA1120N+00751MA1999999091271MD1110021+9999ME1315899MW1211REMSYN100AAXX  02064 08213 11560 82707 10078 20066 39127 48589 51002 69912 72162 88700 333 20075 31006 55009;
0170082130999992000020209004+40950-004120FM-12+100599999V0202801N004610075019N0060001N1+00721+00681999999ADDAY161031AY251031GF108991081071008001001001MA1999999091461MD1210191+9999ME1316049MW1501REMSYN072AAXX  02094 08213 41556 82809 10072 20068 39146 48604 52019 75065 88700;
0197082130999992000020212004+40950-004120FM-12+100599999V0202901N005110075019N0080001N1+00851+00691999999ADDAA106000191AY161061AY221061GF108991071071008001071001MA1999999091551MD1110091+9999ME1316159MW1101REMSYN088AAXX  02124 08213 11558 82910 10085 20069 39155 48615 51009 69921 71062 87770 333 50100;
0142082130999992000020215004+40950-004120FM-12+100599999V0202901N005710120019N0120001N1+01001+00631999999ADDGF107991071081008001001001MA1999999091461MD1610091+9999ME1316109REMSYN066AAXX  02154 08213 42562 72911 10100 20063 39146 48610 56009 87800;
0181082130999992000020218004+40950-004120FM-12+100599999V0202901N002610360019N0150001N1+00941+00561999999ADDAA112000191GF106991021081008001031001KA1999M+01101MA1999999091511MD1310051+9999ME1316139REMSYN081AAXX  02184 08213 12565 62905 10094 20056 3915148613 53005 69922 82830 333 10110;
0263082130999992000020306004+40950-004120FM-12+100599999V0201901N001010001519N0001001N1+00321+00271999999ADDAA199000091AY141061AY221061GA1091+999999999GF109991091999999999999999IA1099IA2999-00309KA1120N+00121MA1999999091711MD1610021+9999ME1316179MW1451REMSYN088AAXX  03064 08213 31/01 91902 10032 20027 39171 48617 56002 74542 333 20012 31103 55015;EQDQ01  00002PRCP99
0190082130999992000020309004+40950-004120FM-12+100599999V0201301N000510001519N0001001N1+00321+00321999999ADDAY141031AY221031GA1091+000159999GF109991091999999999999999MA1999999091901MD1210191+9999ME1316349MW1451REMSYN076AAXX  03094 08213 41/01 91301 10032 20032 39190 48634 52019 74542 333 89/00;
0182082130999992000020312004+40950-004120FM-12+100599999V0202701N001512200019N0120001N1+00751+00511999999ADDAA199000091GF104991021071008001001081MA1999999091951MD1110051+9999ME1316489REMSYN076AAXX  03124 08213 32562 42703 10075 20051 39195 48648 51005 82708 333 50030;EQDQ01  00002PRCP99
0142082130999992000020315004+40950-004120FM-12+100599999V0203301N001512200019N0150001N1+01221+00261999999ADDGF103991011001017501041081MA1999999091791MD1810161+9999ME1316449REMSYN066AAXX  03154 08213 42765 33303 10122 20026 39179 48644 58016 81048;
0195082130999992000020318004+40950-004120FM-12+100599999V0203501N001012200019N0200001N1+00961+00131999999ADDAA199000091GF103991011001017501041081KA1999M+01241MA1999999091791MD1510001+9999ME1316389REMSYN076AAXX  03184 08213 32770 33502 10096 20013 39179 48638 55000 81048 333 10124;EQDQ01  00002PRCP99
0225082130999992000020406004+40950-004120FM-12+100599999V0200801N000512200019N0200001N1+00261-00431999999ADDAA199000091GF102991011001017501041081IA1099IA2999-00509KA1120N+00181MA1999999091781MD1510041+9999ME1316219REMSYN088AAXX  04064 08213 32770 20801 10026 21043 39178 48621 55004 81048 333 20018 31105 55070;EQDQ01  00002PRCP99
0142082130999992000020409004+40950-004120FM-12+100599999V0200901N001012200019N0300001N1+00481-00341999999ADDGF101991001001999999001011MA1999999091831MD1010051+9999ME1316309REMSYN066AAXX  04094 08213 42980 10902 10048 21034 39183 48630 50005 80001;
0182082130999992000020412004+40950-004120FM-12+100599999V0202801N001019999999N0300001N1+01361-00641999999ADDAA199000091GF105991001001999999001041MA1999999091831MD1410001+9999ME1316509REMSYN076AAXX  04124 08213 32980 52802 10136 21064 39183 48650 54000 80004 333 50100;EQDQ01  00002PRCP99
0142082130999992000020415004+40950-004120FM-12+100599999V0203001N001019999999N0300001N1+01761-00301999999ADDGF106991001001999999001041MA1999999091631MD1710201+9999ME1316419REMSYN066AAXX  04154 08213 42980 63002 10176 21030 39163 48641 57020 80004;
0195082130999992000020418004+40950-004120FM-12+100599999V0200601N000510900019N0300001N1+01461-00431999999ADDAA199000091GF106991021001017501041051KA1999M+01761MA1999999091631MD1410001+9999ME1316349REMSYN076AAXX  04184 08213 32780 60601 10146 21043 39163 48634 54000 82045 333 10176;EQDQ01  00002PRCP99
0225082130999992000020506004+40950-004120FM-12+100599999V0202101N002612200019N0300001N1+00601-00981999999ADDAA199000091GF102991001001999999001041IA1019IA2999-00309KA1120N+00601MA1999999091551MD1610051+9999ME1316089REMSYN088AAXX  05064 08213 32980 22105 10060 21098 39155 48608 56005 80004 333 20060 30103 55088;EQDQ01  00002PRCP99
0142082130999992000020509004+40950-004120FM-12+100599999V0209999C000010360019N0200001N1+00641-00541999999ADDGF107991021021008001041081MA1999999091671MD1110121+9999ME1316209REMSYN066AAXX  05094 08213 42570 70000 10064 21054 39167 48620 51012 82248;
0182082130999992000020512004+40950-004120FM-12+100599999V0201001N001010360019N0200001N1+01241-00211999999ADDAA199000091GF107991011021008001041081MA1999999091701MD1310031+9999ME1316369REMSYN076AAXX  05124 08213 32570 71002 10124 21021 39170 48636 53003 81248 333 50300;EQDQ01  00002PRCP99
0142082130999992000020515004+40950-004120FM-12+100599999V0202701N000510360019N0200001N1+01561-00081999999ADDGF107991011021008001041081MA1999999091511MD1710191+9999ME1316269REMSYN066AAXX  05154 08213 42570 72701 10156 21008 39151 48626 57019 81248;
0195082130999992000020518004+40950-004120FM-12+100599999V0200701N001510360019N0200001N1+01241-00141999999ADDAA199000091GF107991011021008001041081KA1999M+01581MA1999999091501MD1710011+9999ME1316189REMSYN076AAXX  05184 08213 32570 70703 10124 21014 39150 48618 57001 81248 333 10158;EQDQ01  00002PRCP99
0224082130999992000020606004+40950-004120FM-12+100599999V0200901N001512200019N0200001N1+00301-00451999999ADDAA199000091GF105991021001017501041041IA1019IA2999-00409KA1999N+00301MA1999999091421MD1610031+9999ME1315919REMSYN087AAXX  06064 08213 32770 50903 10030 21045 39142 48591 56003 82044333 20030 30104 55028;EQDQ01  00002PRCP99
0142082130999992000020609004+40950-004120FM-12+100599999V0200901N000510900019N0200001N1+00661-00291999999ADDGF107991031001017501041081MA1999999091501MD1110081+9999ME1316059REMSYN066AAXX  06094 08213 42770 70901 10066 21029 39150 48605 51008 83048;
0182082130999992000020612004+40950-004120FM-12+100599999V0202901N002110900019N0200001N1+01201-00071999999ADDAA199000091GF107991031001017501041071MA1999999091511MD1210011+9999ME1316189REMSYN076AAXX  06124 08213 32770 72904 10120 21007 39151 48618 52001 83047 333 50100;EQDQ01  00002PRCP99
0142082130999992000020615004+40950-004120FM-12+100599999V0202901N002110900019N0200001N1+01281-00211999999ADDGF107991031001017501051051MA1999999091431MD1710081+9999ME1316129REMSYN066AAXX  06154 08213 42770 72904 10128 21021 39143 48612 57008 83055;
0195082130999992000020618004+40950-004120FM-12+100599999V0202801N001512200019N0300001N1+00961-00051999999ADDAA199000091GF103991021001017501051041KA1999M+01301MA1999999091461MD1310031+9999ME1316099REMSYN076AAXX  06184 08213 32780 32803 10096 21005 39146 48609 53003 82054 333 10130;EQDQ01  00002PRCP99
0253082130999992000020706004+40950-004120FM-12+100599999V0202501N002110042019N0050001N1+00551+00481999999ADDAA199000091AY121061AY221061GF108991081061004501999999IA1019IA2999-00209KA1120N+00541MA1999999091581MD1410001+9999ME1316119MW1401REMSYN094AAXX  07064 08213 31450 82504 10055 20048 39158 48611 54000 74022 886// 333 20054 30102 55057;EQDQ01  00002PRCP99
0174082130999992000020709004+40950-004120FM-12+100599999V0202001N001510042019N0015001N1+99999+99999999999ADDAY141031AY221031GF108991081061004501999999MA1999999091791MD1210211+9999ME1316299MW1501REMSYN076AAXX  07094 08213 41415 82003 20043 39179 48629 52021 75042 886// 333 96040;
0197082130999992000020712004+40950-004120FM-12+100599999V0202501N003610075019N0120001N1+00681+00461999999ADDAA106000791AY151061AY241061GF108991081061008001999999MA1999999091821MD1010031+9999ME1316359MW1021REMSYN088AAXX  07124 08213 11562 82507 10068 20046 39182 48635 50003 69901 70254 886// 333 50160;
0142082130999992000020715004+40950-004120FM-12+100599999V0202001N002110075019N0200001N1+00851+00491999999ADDGF108991081061008001999999MA1999999091661MD1710161+9999ME1316259REMSYN066AAXX  07154 08213 42570 82004 10085 20049 39166 48625 57016 886//;
0182082130999992000020718004+40950-004120FM-12+100599999V0201501N001510075019N0200001N1+00891+00481999999ADDAA112000791GF107991061051008001031999KA1999M+01031MA1999999091671MD1310011+9999ME1316269REMSYN082AAXX  07184 08213 12570 71503 10089 20048 39167 48626 53001 69902 8653/ 333 10103;
0235082130999992000020806004+40950-004120FM-12+100599999V0201601N002112200019N0250001N1+00521+00341999999ADDAA199000091GA1001+999999999GF100991001001999999001001IA1019IA2999+00109KA1120N+00521MA1999999091571MD1710101+9999ME1316079REMSYN082AAXX  08064 08213 32975 01604 10052 20034 39157 48607 57010 333 20052 30001 55003;EQDQ01  00002PRCP99
0170082130999992000020809004+40950-004120FM-12+100599999V0203201N001012200019N0015001N1+00441+00351999999ADDAY101031AY201031GF101991011001017501041001MA1999999091671MD1310131+9999ME1316169MW1101REMSYN072AAXX  08094 08213 41715 13202 10044 20035 39167 48616 53013 71000 81040;
0210082130999992000020812004+40950-004120FM-12+100599999V0202501N002110042019N0009001N1+00541+00411999999ADDAA199000091AY141061AY201061GF108991081061004501999999MA1999999091751MD1210081+9999ME1316269MW1441REMSYN082AAXX  08124 08213 31409 82504 10054 20041 39175 48626 52008 74440 886// 333 50030;EQDQ01  00002PRCP99
0170082130999992000020815004+40950-004120FM-12+100599999V0202701N002610360019N0200001N1+00781+00281999999ADDAY141031AY221031GF106991021061008001041011MA1999999091591MD1610161+9999ME1316179MW1021REMSYN072AAXX  08154 08213 41570 62705 10078 20028 39159 48617 56016 70242 82641;
0195082130999992000020818004+40950-004120FM-12+100599999V0209999C000010075019N0180001N1+00841+00331999999ADDAA199000091GF107991061051008001031999KA1999M+00871MA1999999091621MD1310031+9999ME1316219REMSYN076AAXX  08184 08213 32568 70000 10084 20033 39162 48621 53003 8653/ 333 10087;EQDQ01  00002PRCP99
0254082130999992000020906004+40950-004120FM-12+100599999V0203201N000510075019N0009001N1+00701+00661999999ADDAA112002091AY161061AY221061GF108991081061008001999999GJ101029IA1099IA2999+00309KA1120N+00631MA1999999091591MD1610041+9999ME1316159MW1601REMSYN106AAXX  09064 08213 11509 83201 10070 20066 39159 48615 56004 60022 76062 886// 333 20063 31003 55017 96041;
0170082130999992000020909004+40950-004120FM-12+100599999V0203301N001510042019N0002001N1+00701+00681999999ADDAY161031AY241031GF108991081061004501999999MA1999999091711MD1210121+9999ME1316249MW1501REMSYN072AAXX  09094 08213 41402 83303 10070 20068 39171 48624 52012 75064 886//;
0201082130999992000020912004+40950-004120FM-12+100599999V0202901N001010120019N0120001N1+00841+00541999999ADDAA106000891AY161061AY251061GF107991071081008001999999MD1210071+9999ME1316359MW1021REMSYN088AAXX  09124 08213 11562 72902 10084 20054 39478 48635 52007 69981 70265 878// 333 50170;EQDQ01+094783APOSP 
0142082130999992000020915004+40950-004120FM-12+100599999V0203301N001012200019N0180001N1+01001+00241999999ADDGF102991021051008001001001MA1999999091621MD1810161+9999ME1316249REMSYN066AAXX  09154 08213 42568 23302 10100 20024 39162 48624 58016 82500;
0182082130999992000020918004+40950-004120FM-12+100599999V0202601N001512200019N0200001N1+00921+00161999999ADDAA112000891GF102991011001017501031011KA1999M+01201MA1999999091591MD1710031+9999ME1316209REMSYN082AAXX  09184 08213 12770 22603 10092 20016 39159 48620 57003 69982 81031 333 10120;
0225082130999992000021006004+40950-004120FM-12+100599999V0200901N001012200019N0200001N1+00371-00011999999ADDAA199000091GF104991041051008001001001IA1099IA2999-00409KA1120N+00291MA1999999091431MD1610041+9999ME1315939REMSYN088AAXX  10064 08213 32570 40902 10037 21001 39143 48593 56004 84500 333 20029 31104 55044;EQDQ01  00002PRCP99
0142082130999992000021009004+40950-004120FM-12+100599999V0209999C000010150019N0200001N1+00761+00261999999ADDGF107991061001017501071011MA1999999091421MD1610011+9999ME1316019REMSYN066AAXX  10094 08213 42770 70000 10076 20026 39142 48601 56001 86071;
0182082130999992000021012004+40950-004120FM-12+100599999V0202401N001510360019N0300001N1+01161+00491999999ADDAA199000091GF108991041051008001071999MA1999999091471MD1110051+9999ME1316149REMSYN076AAXX  10124 08213 32580 82403 10116 20049 39147 48614 51005 8457/ 333 50030;EQDQ01  00002PRCP99
0142082130999992000021015004+40950-004120FM-12+100599999V0202301N001510075019N0300001N1+01321+00571999999ADDGF107991051051008001071999MA1999999091261MD1710211+9999ME1315999REMSYN066AAXX  10154 08213 42580 72303 10132 20057 39126 48599 57021 8557/;
0195082130999992000021018004+40950-004120FM-12+100599999V0201601N001512200019N0300001N1+01201+00541999999ADDAA199000091GF104991031051008001001011KA1999M+01431MA1999999091191MD1710071+9999ME1315909REMSYN076AAXX  10184 08213 32580 41603 10120 20054 39119 48590 57007 83501 333 10143;EQDQ01  00002PRCP99
0225082130999992000021106004+40950-004120FM-12+100599999V0209999C000012200019N0100001N1+00681+00551999999ADDAA199000091GF105991031001017501031081IA1099IA2999+00209KA1120N+00681MA1999999091071MD1610071+9999ME1315699REMSYN088AAXX  11064 08213 32760 50000 10068 20055 39107 48569 56007 83038 333 20068 31002 55026;EQDQ01  00002PRCP99
0170082130999992000021109004+40950-004120FM-12+100599999V0201801N001510900019N0080001N1+00661+00531999999ADDAY121031AY221031GF106991041001017501031081MA1999999091111MD1310041+9999ME1315729MW1101REMSYN072AAXX  11094 08213 41758 61803 10066 20053 39111 48572 53004 71022 84038;
0142082130999992000021115004+40950-004120FM-12+100599999V0200301N000510900019N0120001N1+01261+00371999999ADDGF105991021041008001041081MA1999999090901MD1710211+9999ME1315659REMSYN066AAXX  11154 08213 42562 50301 10126 20037 39090 48565 57021 82448;
0195082130999992000021118004+40950-004120FM-12+100599999V0203501N000510900019N0120001N1+01101+00271999999ADDAA199000091GF105991021041008001041081KA1999M+01341MA1999999090901MD1410001+9999ME1315619REMSYN076AAXX  11184 08213 32562 53501 10110 20027 39090 48561 54000 82448 333 10134;EQDQ01  00002PRCP99
0240082130999992000021206004+40950-004120FM-12+100599999V0200601N001010075019N0080001N1+00561+00471999999ADDAA112000191AY161061AY221061GF108991061071008001071081IA1099IA2999+00009KA1120N+00501MA1999999091111MD1110071+9999ME1315709MW1101REMSYN100AAXX  12064 08213 11558 80602 10056 20047 39111 48570 51007 69922 71062 86778 333 20050 31000 55061;
0170082130999992000021209004+40950-004120FM-12+100599999V0200601N002610075019N0060001N1+00381+00291999999ADDAY121031AY221031GF107991071071008001001001MA1999999091311MD1110201+9999ME1315839MW1101REMSYN072AAXX  12094 08213 41556 70605 10038 20029 39131 48583 51020 71022 87700;
0182082130999992000021212004+40950-004120FM-12+100599999V0200101N002112200019N0120001N1+00821-00121999999ADDAA199000091GF103991021011008001001081MA1999999091461MD1110151+9999ME1316059REMSYN076AAXX  12124 08213 32562 30104 10082 21012 39146 48605 51015 82108 333 50120;EQDQ01  00002PRCP99
0142082130999992000021215004+40950-004120FM-12+100599999V0203501N001512200019N0200001N1+00981-00081999999ADDGF102991001001999999001081MA1999999091381MD1810081+9999ME1316029REMSYN066AAXX  12154 08213 42970 23503 10098 21008 39138 48602 58008 80008;
0205082130999992000021218004+40950-004120FM-12+100599999V0203501N001512200019N0200001N1+00881-00301999999ADDAA199000091GA1001+999999999GF100991001001999999001001KA1999M+01041MA1999999091381MD1510001+9999ME1315999REMSYN070AAXX  12184 08213 32970 03503 10088 21030 39138 48599 55000 333 10104;EQDQ01  00002PRCP99
0225082130999992000021306004+40950-004120FM-12+100599999V0200901N001512200019N0200001N1+00121-00621999999ADDAA199000091GF104991031001017501041091IA1019IA2999-00709KA1120N+00121MA1999999091461MD1610091+9999ME1315909REMSYN088AAXX  13064 08213 32770 40903 10012 21062 39146 48590 56009 83049 333 20012 30107 55083;EQDQ01  00002PRCP99
0142082130999992000021309004+40950-004120FM-12+100599999V0201001N001012200019N0200001N1+00461-00591999999ADDGF104991021001017501041091MA1999999091461MD1410001+9999ME1315979REMSYN066AAXX  13094 08213 42770 41002 10046 21059 39146 48597 54000 82049;
0182082130999992000021312004+40950-004120FM-12+100599999V0202401N001510900019N0200001N1+01101-00731999999ADDAA199000091GF105991021001017501041021MA1999999091551MD1110091+9999ME1316199REMSYN076AAXX  13124 08213 32770 52403 10110 21073 39155 48619 51009 82042 333 50160;EQDQ01  00002PRCP99
0142082130999992000021315004+40950-004120FM-12+100599999V0202801N003112200019N0200001N1+01341-00501999999ADDGF103991021001017501041091MA1999999091351MD1710201+9999ME1316069REMSYN066AAXX  13154 08213 42770 32806 10134 21050 39135 48606 57020 82049;
0195082130999992000021318004+40950-004120FM-12+100599999V0202301N002612200019N0200001N1+01301-00251999999ADDAA199000091GF104991021001017501041011KA1999M+01461MA1999999091351MD1410001+9999ME1316069REMSYN076AAXX  13184 08213 32770 42305 10130 21025 39135 48606 54000 82041 333 10146;EQDQ01  00002PRCP99
0225082130999992000021406004+40950-004120FM-12+100599999V0209999C000012200019N0200001N1+00321-00221999999ADDAA199000091GF104991021001017501041011IA1019IA2999-00409KA1120N+00301MA1999999091381MD1710051+9999ME1315889REMSYN088AAXX  14064 08213 32770 40000 10032 21022 39138 48588 57005 82041 333 20030 30104 55069;EQDQ01  00002PRCP99
0142082130999992000021409004+40950-004120FM-12+100599999V0201301N001012200019N0200001N1+00661+00031999999ADDGF101991011041008001001001MA1999999091431MD1210051+9999ME1316009REMSYN066AAXX  14094 08213 42570 11302 10066 20003 39143 48600 52005 81400;
0182082130999992000021412004+40950-004120FM-12+100599999V0203201N001512200019N0200001N1+01181+00371999999ADDAA199000091GF101991011021008001001001MA1999999091431MD1410001+9999ME1316119REMSYN076AAXX  14124 08213 32570 13203 10118 20037 39143 48611 54000 81200 333 50100;EQDQ01  00002PRCP99
0195082130999992000021418004+40950-004120FM-12+100599999V0200201N001510900019N0200001N1+01281+00501999999ADDAA199000091GF106991011021008001041041KA1999M+01501MA1999999091271MD1410001+9999ME1315999REMSYN076AAXX  14184 08213 32570 60203 10128 20050 39127 48599 54000 81244 333 10150;EQDQ01  00002PRCP99
0225082130999992000021506004+40950-004120FM-12+100599999V0200801N001012200019N0200001N1+00381+00191999999ADDAA199000091GF102991011041008001001011IA1019IA2999-00409KA1120N+00381MA1999999091351MD1710031+9999ME1315879REMSYN088AAXX  15064 08213 32570 20802 10038 20019 39135 48587 57003 81401 333 20038 30104 55094;EQDQ01  00002PRCP99
0152082130999992000021509004+40950-004120FM-12+100599999V0200601N001512200019N0300001N1+00741+00291999999ADDGA1001+999999999GF100991001001999999001001MA1999999091381MD1110031+9999ME1315979REMSYN060AAXX  15094 08213 42980 00603 10074 20029 39138 48597 51003;
0182082130999992000021512004+40950-004120FM-12+100599999V0202701N002112200019N0300001N1+01241+00541999999ADDAA199000091GF101991011011008001001001MA1999999091431MD1110051+9999ME1316139REMSYN076AAXX  15124 08213 32580 12704 10124 20054 39143 48613 51005 81100 333 50140;EQDQ01  00002PRCP99
0152082130999992000021515004+40950-004120FM-12+100599999V0202701N002112200019N0300001N1+01461+00431999999ADDGA1001+999999999GF100991001001999999001001MA1999999091231MD1710201+9999ME1315999REMSYN060AAXX  15154 08213 42980 02704 10146 20043 39123 48599 57020;
0205082130999992000021518004+40950-004120FM-12+100599999V0202801N002612200019N0300001N1+01201+00401999999ADDAA199000091GA1001+999999999GF100991001001999999001001KA1999M+01481MA1999999091151MD1710081+9999ME1315869REMSYN070AAXX  15184 08213 32980 02805 10120 20040 39115 48586 57008 333 10148;EQDQ01  00002PRCP99
0225082130999992000021606004+40950-004120FM-12+100599999V0202101N001510360019N0180001N1+00401+00311999999ADDAA199000091GF106991011021008001021001IA1019IA2999-00309KA1120N+00301MA1999999091071MD1610081+9999ME1315639REMSYN088AAXX  16064 08213 32568 62103 10040 20031 39107 48563 56008 81220 333 20030 30103 55097;EQDQ01  00002PRCP99
0170082130999992000021609004+40950-004120FM-12+100599999V0202401N002610360019N0040001N1+00381+00291999999ADDAY121031AY221031GF108991021051008001021999MA1999999091111MD1110041+9999ME1315669MW1101REMSYN072AAXX  16094 08213 41540 82405 10038 20029 39111 48566 51004 71022 8252/;
0182082130999992000021612004+40950-004120FM-12+100599999V0202801N004610075019N0120001N1+00601+00231999999ADDAA199000091GF108991051051008001021999MA1999999091111MD1010001+9999ME1315709REMSYN076AAXX  16124 08213 32562 82809 10060 20023 39111 48570 50000 8552/ 333 50180;EQDQ01  00002PRCP99
0142082130999992000021615004+40950-004120FM-12+100599999V0203001N005710120019N0180001N1+01001+00131999999ADDGF107991071081008001001001MA1999999090911MD1810201+9999ME1315609REMSYN066AAXX  16154 08213 42568 73011 10100 20013 39091 48560 58020 87800;
0195082130999992000021618004+40950-004120FM-12+100599999V0203101N005112200019N0170001N1+00761-00021999999ADDAA199000091GF106991041081008001001011KA1999M+01001MA1999999090951MD1110041+9999ME1315599REMSYN076AAXX  16184 08213 32567 63110 10076 21002 39095 48559 51004 84801 333 10100;EQDQ01  00002PRCP99
0225082130999992000021706004+40950-004120FM-12+100599999V0202401N003112200019N0160001N1+00161+00001999999ADDAA199000091GF106991041081008001001011IA1019IA2999-00509KA1120N-00061MA1999999091231MD1010001+9999ME1315719REMSYN088AAXX  17064 08213 32566 62406 10016 20000 39123 48571 50000 84801 333 21006 30105 55014;EQDQ01  00002PRCP99
0142082130999992000021709004+40950-004120FM-12+100599999V0202401N002110360019N0160001N1+00301+00051999999ADDGF107991041051008001021001MA1999999091191MD1810041+9999ME1315719REMSYN066AAXX  17094 08213 42566 72404 10030 20005 39119 48571 58004 84520;
0182082130999992000021712004+40950-004120FM-12+100599999V0202901N004610075019N0160001N1+00861+00331999999ADDAA199000091GF107991051051008001021001MA1999999091231MD1210041+9999ME1315869REMSYN076AAXX  17124 08213 32566 72909 10086 20033 39123 48586 52004 85520 333 50080;EQDQ01  00002PRCP99
0142082130999992000021715004+40950-004120FM-12+100599999V0202801N005710075019N0160001N1+00981+00371999999ADDGF108991051051008001021999MA1999999091141MD1810091+9999ME1315819REMSYN066AAXX  17154 08213 42566 82811 10098 20037 39114 48581 58009 8552/;
0195082130999992000021718004+40950-004120FM-12+100599999V0203001N004610120019N0160001N1+01101+00421999999ADDAA199000091GF106991061081008001001001KA1999M+01121MA1999999091101MD1610041+9999ME1315809REMSYN076AAXX  17184 08213 32566 63009 10110 20042 39110 48580 56004 86800 333 10112;EQDQ01  00002PRCP99
0225082130999992000021806004+40950-004120FM-12+100599999V0200901N001512200019N0100001N1+00281+00081999999ADDAA199000091GF102991001001999999001081IA1099IA2999-00309KA1120N+00281MA1999999091151MD1810021+9999ME1315679REMSYN088AAXX  18064 08213 32960 20903 10028 20008 39115 48567 58002 80008 333 20028 31103 55017;EQDQ01  00002PRCP99
0142082130999992000021809004+40950-004120FM-12+100599999V0209999C000012200019N0100001N1+00681+00221999999ADDGF102991001001999999001081MA1999999091151MD1510001+9999ME1315759REMSYN066AAXX  18094 08213 42960 20000 10068 20022 39115 48575 55000 80008;
0182082130999992000021812004+40950-004120FM-12+100599999V0202801N001512200019N0120001N1+01361+00291999999ADDAA199000091GF102991001001999999001081MA1999999091151MD1410001+9999ME1315899REMSYN076AAXX  18124 08213 32962 22803 10136 20029 39115 48589 54000 80008 333 50040;EQDQ01  00002PRCP99
0205082130999992000021818004+40950-004120FM-12+100599999V0202701N002112200019N0200001N1+01351+00191999999ADDAA199000091GA1001+999999999GF100991001001999999001001KA1999M+01661MA1999999090981MD1410001+9999ME1315739REMSYN070AAXX  18184 08213 32970 02704 10135 20019 39098 48573 54000 333 10166;EQDQ01  00002PRCP99
0225082130999992000021906004+40950-004120FM-12+100599999V0209999C000012200019N0120001N1+00451+00031999999ADDAA199000091GF102991001001999999001081IA1099IA2999-00309KA1120N+00421MA1999999090941MD1410001+9999ME1315529REMSYN088AAXX  19064 08213 32962 20000 10045 20003 39094 48552 54000 80008 333 20042 31103 55096;EQDQ01  00002PRCP99
0142082130999992000021909004+40950-004120FM-12+100599999V0201001N001012200019N0100001N1+00761+00211999999ADDGF102991001001999999001081MA1999999090911MD1810031+9999ME1315569REMSYN066AAXX  19094 08213 42960 21002 10076 20021 39091 48556 58003 80008;
0182082130999992000021912004+40950-004120FM-12+100599999V0202901N002112200019N0150001N1+01321+00401999999ADDAA199000091GF102991001001999999001081MA1999999090951MD1110041+9999ME1315709REMSYN076AAXX  19124 08213 32965 22904 10132 20040 39095 48570 51004 80008 333 50100;EQDQ01  00002PRCP99
0142082130999992000021915004+40950-004120FM-12+100599999V0203401N001012200019N0200001N1+01501+00211999999ADDGF102991001001999999001081MA1999999090831MD1710121+9999ME1315639REMSYN066AAXX  19154 08213 42970 23402 10150 20021 39083 48563 57012 80008;
0195082130999992000021918004+40950-004120FM-12+100599999V0200201N001012200019N0200001N1+01301+00031999999ADDAA199000091GF102991001001999999001081KA1999M+01541MA1999999090791MD1610041+9999ME1315559REMSYN076AAXX  19184 08213 32970 20202 10130 20003 39079 48555 56004 80008 333 10154;EQDQ01  00002PRCP99
0225082130999992000022006004+40950-004120FM-12+100599999V0200701N001012200019N0100001N1+00221-00101999999ADDAA199000091GF102991001001999999001081IA1099IA2999-00509KA1120N+00221MA1999999090831MD1710041+9999ME1315389REMSYN088AAXX  20064 08213 32960 20702 10022 21010 39083 48538 57004 80008 333 20022 31105 55097;EQDQ01  00002PRCP99
0152082130999992000022009004+40950-004120FM-12+100599999V0209999C000012200019N0100001N1+00621+00091999999ADDGA1001+999999999GF100991001001999999001001MA1999999090871MD1310041+9999ME1315499REMSYN060AAXX  20094 08213 42960 00000 10062 20009 39087 48549 53004;
0182082130999992000022012004+40950-004120FM-12+100599999V0203301N002112200019N0120001N1+01201+00351999999ADDAA199000091GF102991001001999999001081MA1999999090871MD1010001+9999ME1315619REMSYN076AAXX  20124 08213 32962 23304 10120 20035 39087 48561 50000 80008 333 50130;EQDQ01  00002PRCP99
0142082130999992000022015004+40950-004120FM-12+100599999V0203501N002112200019N0200001N1+01421+00121999999ADDGF102991001001999999001081MA1999999090751MD1610121+9999ME1315549REMSYN066AAXX  20154 08213 42970 23504 10142 20012 39075 48554 56012 80008;
0195082130999992000022018004+40950-004120FM-12+100599999V0203601N001512200019N0200001N1+01281+00241999999ADDAA199000091GF102991001001999999001081KA1999M+01461MA1999999090751MD1410001+9999ME1315519REMSYN076AAXX  20184 08213 32970 23603 10128 20024 39075 48551 54000 80008 333 10146;EQDQ01  00002PRCP99
0225082130999992000022106004+40950-004120FM-12+100599999V0200901N001512200019N0200001N1+00181-00651999999ADDAA199000091GF103991001001999999001011IA1019IA2999-00609KA1120N+00141MA1999999090831MD1110061+9999ME1315369REMSYN088AAXX  21064 08213 32970 30903 10018 21065 39083 48536 51006 80001 333 20014 30106 55101;EQDQ01  00002PRCP99
0142082130999992000022109004+40950-004120FM-12+100599999V0200801N001012200019N0250001N1+00621-00571999999ADDGF102991001001999999001011MA1999999090871MD1210041+9999ME1315489REMSYN066AAXX  21094 08213 42975 20802 10062 21057 39087 48548 52004 80001;
0142082130999992000022115004+40950-004120FM-12+100599999V0202801N001512200019N0300001N1+01561-00221999999ADDGF102991001001999999001041MA1999999090831MD1810081+9999ME1315639REMSYN066AAXX  21154 08213 42980 22803 10156 21022 39083 48563 58008 80004;
0195082130999992000022118004+40950-004120FM-12+100599999V0203001N001512200019N0300001N1+01321-00401999999ADDAA199000091GF101991011001017501031001KA1999M+01591MA1999999090821MD1710011+9999ME1315589REMSYN076AAXX  21184 08213 32780 13003 10132 21040 39082 48558 57001 81030 333 10159;EQDQ01  00002PRCP99
0225082130999992000022206004+40950-004120FM-12+100599999V0202501N002612200019N0150001N1+00601+00071999999ADDAA199000091GF103991031001017501051001IA1019IA2999-00309KA1120N+00451MA1999999090831MD1510001+9999ME1315459REMSYN088AAXX  22064 08213 32765 32505 10060 20007 39083 48545 55000 83050 333 20045 30103 55102;EQDQ01  00002PRCP99
0170082130999992000022209004+40950-004120FM-12+100599999V0202301N003112200019N0080001N1+00581+00261999999ADDAY101031AY201031GF101991011061008001001001MA1999999090911MD1210081+9999ME1315529MW1101REMSYN072AAXX  22094 08213 41558 12306 10058 20026 39091 48552 52008 71000 81600;
0210082130999992000022212004+40950-004120FM-12+100599999V0202801N003612200019N0080001N1+01001+00191999999ADDAA199000091AY101061AY201061GF102991011001017501041011MA1999999090951MD1110041+9999ME1315649MW1051REMSYN082AAXX  22124 08213 31758 22807 10100 20019 39095 48564 51004 70500 81041 333 50230;EQDQ01  00002PRCP99
0142082130999992000022215004+40950-004120FM-12+100599999V0203001N005110150019N0180001N1+01011-00541999999ADDGF107991071001017501071999MA1999999090831MD1710121+9999ME1315529REMSYN066AAXX  22154 08213 42768 73010 10101 21054 39083 48552 57012 8707/;
0210082130999992000022218004+40950-004120FM-12+100599999V0201101N001510360019N0060001N1+00441+00301999999ADDAA112001091AY161061AY221061GF108991011061008001071999KA1999M+01131MA1999999090901MD1110071+9999ME1315489MW1611REMSYN088AAXX  22184 08213 11556 81103 10044 20030 39090 48548 51007 60012 76162 8167/ 333 10113;
0240082130999992000022306004+40950-004120FM-12+100599999V0209999C000010360019N0080001N1+00941+00861999999ADDAA112000191AY161061AY221061GF106991031071008001031081IA1119IA2999+00209KA1120N+00901MA1999999091111MD1310041+9999ME1315789MW1101REMSYN100AAXX  23064 08213 11558 60000 10094 20086 39111 48578 53004 69922 71062 83738 333 20090 32002 55045;
0170082130999992000022309004+40950-004120FM-12+100599999V0202901N001510075019N0060001N1+00621+00531999999ADDAY121031AY221031GF107991051061008001031081MA1999999091221MD1310111+9999ME1315819MW1101REMSYN072AAXX  23094 08213 41556 72903 10062 20053 39122 48581 53011 71022 85638;
0210082130999992000022312004+40950-004120FM-12+100599999V0202401N001010075019N0050001N1+00771+00651999999ADDAA199000091AY121061AY221061GF108991061061008001071081MA1999999091301MD1110081+9999ME1315919MW1101REMSYN082AAXX  23124 08213 31550 82402 10077 20065 39130 48591 51008 71022 86678 333 50090;EQDQ01  00002PRCP99
0170082130999992000022315004+40950-004120FM-12+100599999V0200301N002110120019N0060001N1+01161+00591999999ADDAY121031AY221031GF106991061081008001001001MA1999999091261MD1610041+9999ME1315969MW1051REMSYN072AAXX  23154 08213 41556 60304 10116 20059 39126 48596 56004 70522 86800;
0195082130999992000022318004+40950-004120FM-12+100599999V0203301N001012200019N0100001N1+01101+00521999999ADDAA199000091GF104991021081008001041081KA1999M+01241MA1999999091261MD1410001+9999ME1315949REMSYN076AAXX  23184 08213 32560 43302 10110 20052 39126 48594 54000 82848 333 10124;EQDQ01  00002PRCP99
0235082130999992000022406004+40950-004120FM-12+100599999V0200901N001012200019N0300001N1+00261+00031999999ADDAA199000091GA1001+999999999GF100991001001999999001001IA1099IA2999-00409KA1120N+00221MA1999999091381MD1410001+9999ME1315879REMSYN082AAXX  24064 08213 32980 00902 10026 20003 39138 48587 54000 333 20022 31104 55036;EQDQ01  00002PRCP99
0152082130999992000022409004+40950-004120FM-12+100599999V0209999C000012200019N0120001N1+00641+00221999999ADDGA1001+999999999GF100991001001999999001001MA1999999091471MD1210091+9999ME1316039REMSYN060AAXX  24094 08213 42962 00000 10064 20022 39147 48603 52009;
0192082130999992000022412004+40950-004120FM-12+100599999V0202901N001012200019N0250001N1+01201+00441999999ADDAA199000091GA1001+999999999GF100991001001999999001001MA1999999091501MD1010031+9999ME1316189REMSYN070AAXX  24124 08213 32975 02902 10120 20044 39150 48618 50003 333 50090;EQDQ01  00002PRCP99
0122082130999992000022415004+40950-004120FM-12+100599999V0203001N002112200019N0300001N1+01621+00441999999ADDGF101991011011008001001001MA1999999091311ME1316099REMSYN060AAXX  24154 08213 42580 13004 10162 20044 39131 48609 81100;
0205082130999992000022418004+40950-004120FM-12+100599999V0203301N001012200019N0250001N1+01431+00441999999ADDAA199000091GA1001+999999999GF100991001001999999001001KA1999M+01651MA1999999091341MD1010031+9999ME1316089REMSYN070AAXX  24184 08213 32975 03302 10143 20044 39134 48608 50003 333 10165;EQDQ01  00002PRCP99
0235082130999992000022506004+40950-004120FM-12+100599999V0200901N001012200019N0300001N1+00481+00091999999ADDAA199000091GA1001+999999999GF100991001001999999001001IA1019IA2999-00209KA1120N+00481MA1999999091351MD1610051+9999ME1315899REMSYN082AAXX  25064 08213 32980 00902 10048 20009 39135 48589 56005 333 20048 30102 55102;EQDQ01  00002PRCP99
0152082130999992000022509004+40950-004120FM-12+100599999V0209999C000012200019N0300001N1+00901+00271999999ADDGA1001+999999999GF100991001001999999001001MA1999999091471MD1210121+9999ME1316099REMSYN060AAXX  25094 08213 42980 00000 10090 20027 39147 48609 52012;
0192082130999992000022512004+40950-004120FM-12+100599999V0202901N001512200019N0300001N1+01401+00351999999ADDAA199000091GA1001+999999999GF100991001001999999001001MA1999999091471MD1010001+9999ME1316199REMSYN070AAXX  25124 08213 32980 02903 10140 20035 39147 48619 50000 333 50100;EQDQ01  00002PRCP99
0142082130999992000022515004+40950-004120FM-12+100599999V0202301N001012200019N0300001N1+01741+00461999999ADDGF101991011011008001001001MA1999999091311MD1710161+9999ME1316129REMSYN066AAXX  25154 08213 42580 12302 10174 20046 39131 48612 57016 81100;
0205082130999992000022518004+40950-004120FM-12+100599999V0203001N002112200019N0300001N1+01621+00391999999ADDAA199000091GA1001+999999999GF100991001001999999001001KA1999M+01801MA1999999091231MD1610081+9999ME1316029REMSYN070AAXX  25184 08213 32980 03004 10162 20039 39123 48602 56008 333 10180;EQDQ01  00002PRCP99
0235082130999992000022606004+40950-004120FM-12+100599999V0200801N002112200019N0300001N1+00601-00171999999ADDAA199000091GA1001+999999999GF100991001001999999001001IA1019IA2999-00209KA1120N+00581MA1999999091181MD1710021+9999ME1315769REMSYN082AAXX  26064 08213 32980 00804 10060 21017 39118 48576 57002 333 20058 30102 55102;EQDQ01  00002PRCP99
0152082130999992000022609004+40950-004120FM-12+100599999V0201601N000512200019N0300001N1+01061+00041999999ADDGA1001+999999999GF100991001001999999001001MA1999999091301MD1210121+9999ME1315969REMSYN060AAXX  26094 08213 42980 01601 10106 20004 39130 48596 52012;
0182082130999992000022612004+40950-004120FM-12+100599999V0202701N001512200019N0300001N1+01261+00151999999ADDAA199000091GF106991021001017501041041MA1999999091301MD1410001+9999ME1316019REMSYN076AAXX  26124 08213 32780 62703 10126 20015 39130 48601 54000 82044 333 50200;EQDQ01  00002PRCP99
0142082130999992000022615004+40950-004120FM-12+100599999V0203501N000510360019N0300001N1+01701-00031999999ADDGF107991011021008001041051MA1999999091151MD1710151+9999ME1315969REMSYN066AAXX  26154 08213 42580 73501 10170 21003 39115 48596 57015 81245;
0195082130999992000022618004+40950-004120FM-12+100599999V0200101N001010360019N0300001N1+01521+00121999999ADDAA199000091GF107991011021008001041071KA1999M+01721MA1999999091141MD1610011+9999ME1315919REMSYN076AAXX  26184 08213 32580 70102 10152 20012 39114 48591 56001 81247 333 10172;EQDQ01  00002PRCP99
0225082130999992000022706004+40950-004120FM-12+100599999V0200901N003112200019N0300001N1+00561-00591999999ADDAA199000091GF102991001001999999001041IA1019IA2999-00209KA1120N+00501MA1999999091071MD1610031+9999ME1315659REMSYN088AAXX  27064 08213 32980 20906 10056 21059 39107 48565 56003 80004 333 20050 30102 55073;EQDQ01  00002PRCP99
0152082130999992000022709004+40950-004120FM-12+100599999V0200901N001512200019N0300001N1+00981-00281999999ADDGA1001+999999999GF100991001001999999001001MA1999999091191MD1210121+9999ME1315859REMSYN060AAXX  27094 08213 42980 00903 10098 21028 39119 48585 52012;
0192082130999992000022712004+40950-004120FM-12+100599999V0202701N002112200019N0300001N1+01561+00121999999ADDAA199000091GA1001+999999999GF100991001001999999001001MA1999999091191MD1010001+9999ME1315979REMSYN070AAXX  27124 08213 32980 02704 10156 20012 39119 48597 50000 333 50220;EQDQ01  00002PRCP99
0205082130999992000022718004+40950-004120FM-12+100599999V0203301N001012200019N0300001N1+01741+00041999999ADDAA199000091GA1001+999999999GF100991001001999999001001KA1999M+01901MA1999999090981MD1710011+9999ME1315819REMSYN070AAXX  27184 08213 32980 03302 10174 20004 39098 48581 57001 333 10190;EQDQ01  00002PRCP99
0235082130999992000022806004+40950-004120FM-12+100599999V0200901N001512200019N0300001N1+00481-00111999999ADDAA199000091GA1001+999999999GF100991001001999999001001IA1019IA2999+00009KA1120N+00431MA1999999090951MD1310041+9999ME1315539REMSYN082AAXX  28064 08213 32980 00903 10048 21011 39095 48553 53004 333 20043 30000 55103;EQDQ01  00002PRCP99
0142082130999992000022809004+40950-004120FM-12+100599999V0200801N001012200019N0120001N1+00981+00191999999ADDGF103991001001999999001021MA1999999091071MD1210121+9999ME1315749REMSYN066AAXX  28094 08213 42962 30802 10098 20019 39107 48574 52012 80002;
0182082130999992000022812004+40950-004120FM-12+100599999V0203001N003112200019N0200001N1+00931+00441999999ADDAA199000091GF105991031001017501071011MA1999999091111MD1210041+9999ME1315779REMSYN076AAXX  28124 08213 32770 53006 10093 20044 39111 48577 52004 83071 333 50230;EQDQ01  00002PRCP99
0170082130999992000022815004+40950-004120FM-12+100599999V0203201N002110900019N0080001N1+01061+00401999999ADDAY121031AY221031GF107991041001017501071051MA1999999091061MD1710051+9999ME1315759MW1051REMSYN072AAXX  28154 08213 41758 73204 10106 20040 39106 48575 57005 70522 84075;
0223082130999992000022818004+40950-004120FM-12+100599999V0209999C000010360019N0050001N1+01001+00541999999ADDAA199000091AY121061AY221061GF108991011051008001071061KA1999M+01201MA1999999091061MD1510001+9999ME1315749MW1051REMSYN082AAXX  28184 08213 31550 80000 10100 20054 39106 48574 55000 70522 81576 333 10120;EQDQ01  00002PRCP99
0225082130999992000022906004+40950-004120FM-12+100599999V0201401N003112200019N0120001N1+00501+00301999999ADDAA199000091GF102991011051008001001011IA1019IA2999+00009KA1120N+00441MA1999999091031MD1610051+9999ME1315619REMSYN088AAXX  29064 08213 32562 21406 10050 20030 39103 48561 56005 81501 333 20044 30000 55040;EQDQ01  00002PRCP99
0190082130999992000022909004+40950-004120FM-12+100599999V0202701N001010001519N0005001N1+00451+00381999999ADDAY111031AY201031GA1091+000159999GF109991091999999999999999MA1999999091151MD1310121+9999ME1315719MW1471REMSYN076AAXX  29094 08213 41/05 92702 10045 20038 39115 48571 53012 74710 333 89/00;
0210082130999992000022912004+40950-004120FM-12+100599999V0202401N002612200019N0300001N1+01161+00291999999ADDAA199000091AY141061AY211061GF103991001001999999001041MA1999999091071MD1810081+9999ME1315789MW1021REMSYN082AAXX  29124 08213 31980 32405 10116 20029 39107 48578 58008 70241 80004 333 50150;EQDQ01  00002PRCP99
0142082130999992000022915004+40950-004120FM-12+100599999V0202901N003110900019N0300001N1+01341-00181999999ADDGF105991011001017501031021MA1999999090941MD1710131+9999ME1315699REMSYN066AAXX  29154 08213 42780 52906 10134 21018 39094 48569 57013 81032;
0195082130999992000022918004+40950-004120FM-12+100599999V0202701N004112200019N0200001N1+01221-00601999999ADDAA199000091GF104991021001017501031021KA1999M+01431MA1999999090871MD1610071+9999ME1315609REMSYN076AAXX  29184 08213 32770 42708 10122 21060 39087 48560 56007 82032 333 10143;EQDQ01  00002PRCP99
0225082130999992000030106004+40950-004120FM-12+100599999V0202301N004110075019N0200001N1+00401+00111999999ADDAA199000091GF107991061051008001071999IA1019IA2999+00009KA1120N+00351MA1999999090911MD1610031+9999ME1315489REMSYN088AAXX  01064 08213 32570 72308 10040 20011 39091 48548 56003 8657/ 333 20035 30000 55061;EQDQ01  00002PRCP99
0142082130999992000030109004+40950-004120FM-12+100599999V0202601N004110075019N0180001N1+00541+00161999999ADDGF107991071051008001999999MA1999999090981MD1310071+9999ME1315579REMSYN066AAXX  01094 08213 42568 72608 10054 20016 39098 48557 53007 875//;
0182082130999992000030112004+40950-004120FM-12+100599999V0202801N005710075019N0250001N1+01001+00191999999ADDAA199000091GF106991061051008001001001MA1999999090871MD1810111+9999ME1315579REMSYN076AAXX  01124 08213 32575 62811 10100 20019 39087 48557 58011 86500 333 50390;EQDQ01  00002PRCP99
0195082130999992000030118004+40950-004120FM-12+100599999V0202901N004610075019N0300001N1+01041+00241999999ADDAA199000091GF106991051051008001001011KA1999M+01241MA1999999090821MD1310071+9999ME1315539REMSYN076AAXX  01184 08213 32580 62909 10104 20024 39082 48553 53007 85501 333 10124;EQDQ01  00002PRCP99
0235082130999992000030206004+40950-004120FM-12+100599999V0209999C000012200019N0300001N1-00061-00491999999ADDAA199000091GA1001+999999999GF100991001001999999001001IA1019IA2999-00709KA1120N-00121MA1999999091221MD1210071+9999ME1315669REMSYN082AAXX  02064 08213 32980 00000 11006 21049 39122 48566 52007 333 21012 30107 55043;EQDQ01  00002PRCP99
0176082130999992000030212004+40950-004120FM-12+100599999V0203101N001512200019N0300001N1+01001-00361999999ADDAA199000091GF102991001001999999001011MA1999999091351MD1010001+9999ME1315999REMSYN070AAXX  02124 08213 32980 23103 10100 21036 39135 48599 50000 80001 333;EQDQ01  00002PRCP99
0195082130999992000030218004+40950-004120FM-12+100599999V0203301N001512200019N0300001N1+01151-00331999999ADDAA199000091GF101991011001017501031001KA1999M+01361MA1999999091071MD1710111+9999ME1315779REMSYN076AAXX  02184 08213 32780 13303 10115 21033 39107 48577 57011 81030 333 10136;EQDQ01  00002PRCP99
0235082130999992000030306004+40950-004120FM-12+100599999V0201001N001512200019N0150001N1+00121-00621999999ADDAA199000091GA1001+999999999GF100991001001999999001001IA1019IA2999-00509KA1120N+00121MA1999999090941MD1310041+9999ME1315459REMSYN082AAXX  03064 08213 32965 01003 10012 21062 39094 48545 53004 333 20012 30105 55104;EQDQ01  00002PRCP99
0182082130999992000030312004+40950-004120FM-12+100599999V0202701N001512200019N0150001N1+01361-00291999999ADDAA199000091GF103991001001999999001081MA1999999091031MD1210041+9999ME1315789REMSYN076AAXX  03124 08213 32965 32703 10136 21029 39103 48578 52004 80008 333 5///0;EQDQ01  00002PRCP99
0195082130999992000030318004+40950-004120FM-12+100599999V0202701N000510900019N0200001N1+01381-00041999999ADDAA199000091GF106991021001017501041081KA1999M+01621MA1999999090791MD1610041+9999ME1315569REMSYN076AAXX  03184 08213 32770 62701 10138 21004 39079 48556 56004 82048 333 10162;EQDQ01  00002PRCP99
0225082130999992000030406004+40950-004120FM-12+100599999V0200801N001512200019N0150001N1+00361-00171999999ADDAA199000091GF102991001001999999001011IA1019IA2999-00509KA1120N+00321MA1999999090871MD1310021+9999ME1315449REMSYN088AAXX  04064 08213 32965 20803 10036 21017 39087 48544 53002 80001 333 20032 30105 55086;EQDQ01  00002PRCP99
0182082130999992000030412004+40950-004120FM-12+100599999V0203001N001019999999N0100001N1+01321+00321999999ADDAA199000091GF106991001001999999001081MA1999999090981MD1110071+9999ME1315739REMSYN076AAXX  04124 08213 32960 63002 10132 20032 39098 48573 51007 80008 333 50190;EQDQ01  00002PRCP99
0195082130999992000030418004+40950-004120FM-12+100599999V0203501N000510900019N0150001N1+01421+00151999999ADDAA199000091GF106991021001017501041081KA1999M+01621MA1999999090871MD1310011+9999ME1315659REMSYN076AAXX  04184 08213 32765 63501 10142 20015 39087 48565 53001 82048 333 10162;EQDQ01  00002PRCP99
0235082130999992000030506004+40950-004120FM-12+100599999V0200801N001512200019N0120001N1+00361+00011999999ADDAA199000091GA1001+999999999GF100991001001999999001001IA1099IA2999-00409KA1120N+00321MA1999999091071MD1110031+9999ME1315629REMSYN082AAXX  05064 08213 32962 00803 10036 20001 39107 48562 51003 333 20032 31104 55090;EQDQ01  00002PRCP99
0182082130999992000030512004+40950-004120FM-12+100599999V0203001N001519999999N0100001N1+01481+00181999999ADDAA199000091GF106991001001999999001081MA1999999091151MD1110011+9999ME1315929REMSYN076AAXX  05124 08213 32960 63003 10148 20018 39115 48592 51001 80008 333 50210;EQDQ01  00002PRCP99
0195082130999992000030518004+40950-004120FM-12+100599999V0203601N000510900019N0120001N1+01641+00471999999ADDAA199000091GF106991011011008001001081KA1999M+01801MA1999999091021MD1610011+9999ME1315839REMSYN076AAXX  05184 08213 32562 63601 10164 20047 39102 48583 56001 81108 333 10180;EQDQ01  00002PRCP99
0225082130999992000030606004+40950-004120FM-12+100599999V0201001N001012200019N0200001N1+00661-00031999999ADDAA199000091GF102991001001999999001081IA1019IA2999-00209KA1120N+00601MA1999999091151MD1610021+9999ME1315759REMSYN088AAXX  06064 08213 32970 21002 10066 21003 39115 48575 56002 80008 333 20060 30102 55095;EQDQ01  00002PRCP99
0182082130999992000030612004+40950-004120FM-12+100599999V0202401N002612200019N0300001N1+01721+00071999999ADDAA199000091GF101991001001999999001041MA1999999091301MD1110071+9999ME1316109REMSYN076AAXX  06124 08213 32980 12405 10172 20007 39130 48610 51007 80004 333 50210;EQDQ01  00002PRCP99
0195082130999992000030618004+40950-004120FM-12+100599999V0203201N002110360019N0200001N1+01541+00151999999ADDAA199000091GF107991011021008001051081KA1999M+01901MA1999999091141MD1510001+9999ME1315929REMSYN076AAXX  06184 08213 32570 73204 10154 20015 39114 48592 55000 81258 333 10190;EQDQ01  00002PRCP99
0225082130999992000030706004+40950-004120FM-12+100599999V0200801N002110900019N0200001N1+00881+00081999999ADDAA199000091GF105991011021008001051081IA1019IA2999+00009KA1120N+00801MA1999999091231MD1610041+9999ME1315869REMSYN088AAXX  07064 08213 32570 50804 10088 20008 39123 48586 56004 81258 333 20080 30000 55080;EQDQ01  00002PRCP99
0182082130999992000030712004+40950-004120FM-12+100599999V0202701N001512200019N0300001N1+01601+00411999999ADDAA199000091GF102991001001999999001081MA1999999091351MD1410001+9999ME1316139REMSYN076AAXX  07124 08213 32980 22703 10160 20041 39135 48613 54000 80008 333 50240;EQDQ01  00002PRCP99
0195082130999992000030718004+40950-004120FM-12+100599999V0202801N001510360019N0200001N1+01641+00131999999ADDAA199000091GF105991011021008001031001KA1999M+01821MA1999999091271MD1410001+9999ME1316069REMSYN076AAXX  07184 08213 32570 52803 10164 20013 39127 48606 54000 81230 333 10182;EQDQ01  00002PRCP99
0225082130999992000030806004+40950-004120FM-12+100599999V0200801N001512200019N0200001N1+00641-00061999999ADDAA199000091GF103991011021008001031001IA1019IA2999+00009KA1120N+00641MA1999999091501MD1310031+9999ME1316059REMSYN088AAXX  08064 08213 32570 30803 10064 21006 39150 48605 53003 81230 333 20064 30000 55058;EQDQ01  00002PRCP99
0192082130999992000030812004+40950-004120FM-12+100599999V0200401N001512200019N0300001N1+01781-00181999999ADDAA199000091GA1001+999999999GF100991001001999999001001MA1999999091591MD1110051+9999ME1316389REMSYN070AAXX  08124 08213 32980 00403 10178 21018 39159 48638 51005 333 50220;EQDQ01  00002PRCP99
0205082130999992000030818004+40950-004120FM-12+100599999V0203301N002112200019N0300001N1+01841-00211999999ADDAA199000091GA1001+999999999GF100991001001999999001001KA1999M+02001MA1999999091471MD1410001+9999ME1316289REMSYN070AAXX  08184 08213 32980 03304 10184 21021 39147 48628 54000 333 10200;EQDQ01  00002PRCP99
0235082130999992000030906004+40950-004120FM-12+100599999V0200901N001512200019N0300001N1+00801-00361999999ADDAA199000091GA1001+999999999GF100991001001999999001001IA1019IA2999-00109KA1120N+00801MA1999999091581MD1510001+9999ME1316159REMSYN082AAXX  09064 08213 32980 00903 10080 21036 39158 48615 55000 333 20080 30101 55103;EQDQ01  00002PRCP99
0192082130999992000030912004+40950-004120FM-12+100599999V0200501N002112200019N0300001N1+01921-00131999999ADDAA199000091GA1001+999999999GF100991001001999999001001MA1999999091671MD1410001+9999ME1316489REMSYN070AAXX  09124 08213 32980 00504 10192 21013 39167 48648 54000 333 50320;EQDQ01  00002PRCP99
0195082130999992000030918004+40950-004120FM-12+100599999V0203301N002112200019N0300001N1+01921-00131999999ADDAA199000091GF101991001001999999001041KA1999M+02081MA1999999091381MD1610051+9999ME1316229REMSYN076AAXX  09184 08213 32980 13304 10192 21013 39138 48622 56005 80004 333 10208;EQDQ01  00002PRCP99
0225082130999992000031006004+40950-004120FM-12+100599999V0200901N001512200019N0150001N1+00721-00271999999ADDAA199000091GF104991021001017501031081IA1019IA2999-00209KA1120N+00621MA1999999091271MD1810031+9999ME1315869REMSYN088AAXX  10064 08213 32765 40903 10072 21027 39127 48586 58003 82038 333 20062 30102 55105;EQDQ01  00002PRCP99
0182082130999992000031012004+40950-004120FM-12+100599999V0203101N001510900019N0120001N1+01781-00071999999ADDAA199000091GF106991041001017501041081MA1999999091271MD1410001+9999ME1316089REMSYN076AAXX  10124 08213 32762 63103 10178 21007 39127 48608 54000 84048 333 50341;EQDQ01  00002PRCP99
0195082130999992000031018004+40950-004120FM-12+100599999V0201101N002119999999N0300001N1+01741+00181999999ADDAA199000091GF105991001001999999001051KA1999M+02141MA1999999090251MD1610051+9999ME1315909REMSYN076AAXX  10184 08213 32980 51104 10174 20018 39025 48590 56005 80005 333 10214;EQDQ01  00002PRCP99
0225082130999992000031106004+40950-004120FM-12+100599999V0201101N002112200019N0150001N1+00921-00381999999ADDAA199000091GF103991001001999999001081IA1019IA2999+00109KA1120N+00801MA1999999090781MD1610071+9999ME1315469REMSYN088AAXX  11064 08213 32965 31104 10092 21038 39078 48546 56007 80008 333 20080 30001 55070;EQDQ01  00002PRCP99
0182082130999992000031112004+40950-004120FM-12+100599999V0202801N001512200019N0150001N1+02041+00111999999ADDAA199000091GF102991001001999999001081MA1999999090661MD1810091+9999ME1315579REMSYN076AAXX  11124 08213 32965 22803 10204 20011 39066 48557 58009 80008 333 50320;EQDQ01  00002PRCP99
0195082130999992000031118004+40950-004120FM-12+100599999V0201401N002110900019N0150001N1+01841+00021999999ADDAA199000091GF106991021001017501041081KA1999M+02301MA1999999090391MD1610071+9999ME1315289REMSYN076AAXX  11184 08213 32765 61404 10184 20002 39039 48528 56007 82048 333 10230;EQDQ01  00002PRCP99
0225082130999992000031206004+40950-004120FM-12+100599999V0203201N001512200019N0200001N1+01181+00101999999ADDAA199000091GF101991011001017501031001IA1019IA2999+00009KA1120N+01151MA1999999090221MD1410001+9999ME1315019REMSYN088AAXX  12064 08213 32770 13203 10118 20010 39022 48501 54000 81030 333 20115 30000 55092;EQDQ01  00002PRCP99
0182082130999992000031212004+40950-004120FM-12+100599999V0201501N005112200019N0150001N1+01761-00451999999ADDAA199000091GF101991011021008001001001MA1999999090311MD1010011+9999ME1315199REMSYN076AAXX  12124 08213 32565 11510 10176 21045 39031 48519 50001 81200 333 50390;EQDQ01  00002PRCP99
0205082130999992000031218004+40950-004120FM-12+100599999V0201401N004612200019N0120001N1+01481-00061999999ADDAA199000091GA1001+999999999GF100991001001999999001001KA1999M+01851MA1999999090191MD1510001+9999ME1315039REMSYN070AAXX  12184 08213 32962 01409 10148 21006 39019 48503 55000 333 10185;EQDQ01  00002PRCP99
0225082130999992000031306004+40950-004120FM-12+100599999V0200801N001510360019N0120001N1+00641+00121999999ADDAA199000091GF108991041051008001071999IA1019IA2999-00209KA1120N+00481MA1999999090541MD1310031+9999ME1315209REMSYN088AAXX  13064 08213 32562 80803 10064 20012 39054 48520 53003 8457/ 333 20048 30102 55102;EQDQ01  00002PRCP99
0210082130999992000031312004+40950-004120FM-12+100599999V0203601N000512200019N0080001N1+01381+00431999999ADDAA199000091AY101061AY201061GF101991011081008001001001MA1999999090671MD1110041+9999ME1315469MW1051REMSYN082AAXX  13124 08213 31558 13601 10138 20043 39067 48546 51004 70500 81800 333 50320;EQDQ01  00002PRCP99
0217082130999992000031318004+40950-004120FM-12+100599999V0200101N002112200019N0150001N1+01521-00211999999ADDAA199000091GA1011+008009099GF103991021091008001061021KA1120M+01791MA1999999090621MD1310071+9999ME1315439REMSYN082AAXX  13184 08213 32565 30104 10152 21021 39062 48543 53007 82962 333 10179 81995;EQDQ01  00002PRCP99
0235082130999992000031406004+40950-004120FM-12+100599999V0209999C000012200019N0300001N1+00201-00181999999ADDAA199000091GA1001+999999999GF100991001001999999001001IA1019IA2999-00509KA1120N+00091MA1999999090991MD1210051+9999ME1315519REMSYN082AAXX  14064 08213 32980 00000 10020 21018 39099 48551 52005 333 20009 30105 55095;EQDQ01  00002PRCP99
0192082130999992000031412004+40950-004120FM-12+100599999V0203101N001012200019N0120001N1+01041-00021999999ADDAA199000091GA1001+999999999GF100991001001999999001001MA1999999091221MD1110111+9999ME1315899REMSYN070AAXX  14124 08213 32962 03102 10104 21002 39122 48589 51011 333 50320;EQDQ01  00002PRCP99
0195082130999992000031418004+40950-004120FM-12+100599999V0203501N000512200019N0150001N1+01561-00301999999ADDAA199000091GF103991011001017501031021KA1999M+01691MA1999999091031MD1510001+9999ME1315829REMSYN076AAXX  14184 08213 32765 33501 10156 21030 39103 48582 55000 81032 333 10169;EQDQ01  00002PRCP99
0225082130999992000031506004+40950-004120FM-12+100599999V0209999C000012200019N0150001N1+00201-00121999999ADDAA199000091GF102991001001999999001081IA1099IA2999-00509KA1120N+00161MA1999999091311MD1310041+9999ME1315799REMSYN088AAXX  15064 08213 32965 20000 10020 21012 39131 48579 53004 80008 333 20016 31105 55098;EQDQ01  00002PRCP99
0176082130999992000031512004+40950-004120FM-12+100599999V0200401N004112200019N0120001N1+01361+00501999999ADDAA199000091GF103991011011008001001081MA1999999091351MD1410001+9999ME1316089REMSYN070AAXX  15124 08213 32562 30408 10136 20050 39135 48608 54000 81108 333;EQDQ01  00002PRCP99
0205082130999992000031518004+40950-004120FM-12+100599999V0203601N002612200019N0200001N1+01281+00341999999ADDAA199000091GA1001+999999999GF100991001001999999001001KA1999M+01481MA1999999091111MD1610071+9999ME1315849REMSYN070AAXX  15184 08213 32970 03605 10128 20034 39111 48584 56007 333 10148;EQDQ01  00002PRCP99
0235082130999992000031606004+40950-004120FM-12+100599999V0201501N001512200019N0150001N1-00041-00271999999ADDAA199000091GA1001+999999999GF100991001001999999001001IA1149IA2999-00709KA1120N-00101MA1999999091101MD1410001+9999ME1315569REMSYN082AAXX  16064 08213 32965 01503 11004 21027 39110 48556 54000 333 21010 34107 55104;EQDQ01  00002PRCP99
0182082130999992000031612004+40950-004120FM-12+100599999V0202301N002612200019N0150001N1+01081+00071999999ADDAA199000091GF102991001001999999001081MA1999999091061MD1810041+9999ME1315759REMSYN076AAXX  16124 08213 32965 22305 10108 20007 39106 48575 58004 80008 333 50220;EQDQ01  00002PRCP99
0195082130999992000031618004+40950-004120FM-12+100599999V0200301N001512200019N0200001N1+01661-00601999999ADDAA199000091GF102991001001999999001081KA1999M+01841MA1999999090821MD1610041+9999ME1315649REMSYN076AAXX  16184 08213 32970 20303 10166 21060 39082 48564 56004 80008 333 10184;EQDQ01  00002PRCP99
0235082130999992000031706004+40950-004120FM-12+100599999V0201401N001512200019N0300001N1+00101-00431999999ADDAA199000091GA1001+999999999GF100991001001999999001001IA1149IA2999-00509KA1120N+00081MA1999999090941MD1410001+9999ME1315459REMSYN082AAXX  17064 08213 32980 01403 10010 21043 39094 48545 54000 333 20008 34105 55104;EQDQ01  00002PRCP99
0192082130999992000031712004+40950-004120FM-12+100599999V0203001N002112200019N0300001N1+01321-00141999999ADDAA199000091GA1001+999999999GF100991001001999999001001MA1999999091021MD1010031+9999ME1315769REMSYN070AAXX  17124 08213 32980 03004 10132 21014 39102 48576 50003 333 50230;EQDQ01  00002PRCP99
0235082130999992000031806004+40950-004120FM-12+100599999V0202301N002112200019N0300001N1-00101-00401999999ADDAA199000091GA1001+999999999GF100991001001999999001001IA1149IA2999-00609KA1120N-00101MA1999999090791MD1710031+9999ME1315289REMSYN082AAXX  18064 08213 32980 02304 11010 21040 39079 48528 57003 333 21010 34106 55104;EQDQ01  00002PRCP99
0192082130999992000031812004+40950-004120FM-12+100599999V0200501N001012200019N0300001N1+01101-00031999999ADDAA199000091GA1001+999999999GF100991001001999999001001MA1999999090831MD1410001+9999ME1315559REMSYN070AAXX  18124 08213 32980 00502 10110 21003 39083 48555 54000 333 50280;EQDQ01  00002PRCP99
0205082130999992000031818004+40950-004120FM-12+100599999V0200201N003612200019N0300001N1+01501-00041999999ADDAA199000091GA1001+999999999GF100991001001999999001001KA1999M+01821MA1999999090621MD1510051+9999ME1315439REMSYN070AAXX  18184 08213 32980 00207 10150 21004 39062 48543 55005 333 10182;EQDQ01  00002PRCP99
0263082130999992000031906004+40950-004120FM-12+100599999V0202301N001012200019N0040001N1+00081-00021999999ADDAA199000091AY101061AY201061GA1001+999999999GF100991001001999999001001IA1149IA2999-00509KA1120N-00141MA1999999090711MD1610031+9999ME1315249MW1101REMSYN088AAXX  19064 08213 31940 02302 10008 21002 39071 48524 56003 71000 333 21014 34105 55095;EQDQ01  00002PRCP99
0220082130999992000031912004+40950-004120FM-12+100599999V0202901N001512200019N0040001N1+00721-00011999999ADDAA199000091AY101061AY201061GA1001+999999999GF100991001001999999001001MA1999999090631MD1810081+9999ME1315299MW1051REMSYN076AAXX  19124 08213 31940 02903 10072 21001 39063 48529 58008 70500 333 50260;EQDQ01  00002PRCP99
0195082130999992000031918004+40950-004120FM-12+100599999V0200201N002112200019N0200001N1+00901-00411999999ADDAA199000091GF103991011021008001001011KA1999M+01341MA1999999090351MD1610031+9999ME1315079REMSYN076AAXX  19184 08213 32570 30204 10090 21041 39035 48507 56003 81201 333 10134;EQDQ01  00002PRCP99
0225082130999992000032006004+40950-004120FM-12+100599999V0209999C000012200019N0200001N1-00101-00271999999ADDAA199000091GF103991011061008001001011IA1019IA2999-00909KA1120N-00191MA1999999089911MD1710081+9999ME1314519REMSYN088AAXX  20064 08213 32570 30000 11010 21027 38991 48451 57008 81601 333 21019 30109 55078;EQDQ01  00002PRCP99
0182082130999992000032012004+40950-004120FM-12+100599999V0202701N001512200019N0150001N1+01241+00101999999ADDAA199000091GF103991021051008001001011MA1999999089901MD1410001+9999ME1314729REMSYN076AAXX  20124 08213 32565 32703 10124 20010 38990 48472 54000 82501 333 50260;EQDQ01  00002PRCP99
0226082130999992000032018004+40950-004120FM-12+100599999V0201601N003110360019N0120001N1+01081-00051999999ADDAA199000021AY121061AY221061GA1021+008009099GF106991041091008001061011KA1120M+01671MA1999999089741MD1010001+9999ME1314559MW1951REMSYN088AAXX  20184 08213 31562 61606 10108 21005 38974 48455 50000 79522 84961 333 10167 82995;
0240082130999992000032106004+40950-004120FM-12+100599999V0201301N005110360019N0120001N1+00661+00251999999ADDAA112008991AY181061AY281061GF108991041051008001031001IA1099IA2999+00309KA1120N+00451MA1999999089711MD1710071+9999ME1314469MW1251REMSYN100AAXX  21064 08213 11562 81310 10066 20025 38971 48446 57007 60092 72588 84530 333 20045 31003 55059;
0185082130999992000032112004+40950-004120FM-12+100599999V0201201N006712200019N0200001N1+01041+00401999999ADDAA199000021GA1011+008009099GF104991021031008001061011MA1999999089831MD1010011+9999ME1314639REMSYN082AAXX  21124 08213 32570 41213 10104 20040 38983 48463 50001 82361 333 50280 81995;
0176082130999992000032118004+40950-004120FM-12+100599999V0201001N006212200019N0200001N1+00961+00331999999ADDAA199000021GF106991041081008001001061KA1999M+01131MA1999999089711MD1610081+9999ME1314519REMSYN076AAXX  21184 08213 32570 61012 10096 20033 38971 48451 56008 84806 333 10113;
0225082130999992000032206004+40950-004120FM-12+100599999V0201201N005710075019N0150001N1+00801+00261999999ADDAA199000091GF107991051051008001071011IA1099IA2999+00109KA1120N+00711MA1999999089601MD1010001+9999ME1314439REMSYN088AAXX  22064 08213 32565 71211 10080 20026 38960 48443 50000 85571 333 20071 31001 55061;EQDQ01  00002PRCP99
0204082130999992000032212004+40950-004120FM-12+100599999V0201301N004110075019N0150001N1+00921+00501999999ADDAA199000091GA1011+008009099GF108991081031008001999999MA1999999089821MD1110071+9999ME1314609REMSYN082AAXX  22124 08213 32565 81308 10092 20050 38982 48460 51007 883// 333 50190 81995;EQDQ01  00002PRCP99
0210082130999992000032218004+40950-004120FM-12+100599999V0201501N001510360019N0250001N1+00801+00261999999ADDAA112002091AY161061AY261061GF108991041061008001041999KA1999M+01121MA1999999089621MD1710051+9999ME1314409MW1021REMSYN088AAXX  22184 08213 11575 81503 10080 20026 38962 48440 57005 60022 70266 8464/ 333 10112;
0240082130999992000032306004+40950-004120FM-12+100599999V0201601N000512200019N0250001N1+00501+00271999999ADDAA112000591AY161061AY221061GF106991041051008001001011IA1099IA2999+00209KA1120N+00481MA1999999089551MD1410001+9999ME1314299MW1021REMSYN100AAXX  23064 08213 11575 61601 10050 20027 38955 48429 54000 69952 70262 84501 333 20048 31002 55003;
0197082130999992000032312004+40950-004120FM-12+100599999V0202401N005712200019N0200001N1+00881+00261999999ADDAA106001091AY161061AY221061GF106991031051008001001011MA1999999089711MD1110011+9999ME1314499MW1021REMSYN088AAXX  23124 08213 11570 62411 10088 20026 38971 48449 51001 60011 70262 83501 333 50100;
0232082130999992000032318004+40950-004120FM-12+100599999V0209999C000010360019N0250001N1+00771+00521999999ADDAA112004191AY181061AY221061GA1021+008009099GF106991041091008001061011KA1120M+01141MA1999999089711MD1210041+9999ME1314489MW1021REMSYN094AAXX  23184 08213 11575 60000 10077 20052 38971 48448 52004 60042 70282 84961 333 10114 82995;
0240082130999992000032406004+40950-004120FM-12+100599999V0202901N002110021019N0070001N1+00481+00441999999ADDAA112006191AY161061AY221061GF108991051061002501071081IA1119IA2999+00409KA1120N+00481MA1999999090061MD1110051+9999ME1314759MW1101REMSYN100AAXX  24064 08213 11357 82904 10048 20044 39006 48475 51005 60062 71062 85678 333 20048 32004 55035;
0210082130999992000032412004+40950-004120FM-12+100599999V0203201N002110075019N0100001N1+00861+00381999999ADDAA199000091AY121061AY221061GF106991051021008001031001MA1999999090191MD1110011+9999ME1314939MW1151REMSYN082AAXX  24124 08213 31560 63204 10086 20038 39019 48493 51001 71522 85230 333 50110;EQDQ01  00002PRCP99
0195082130999992000032418004+40950-004120FM-12+100599999V0202901N002110075019N0120001N1+00941+00171999999ADDAA199000091GF106991051021008001031081KA1999M+01181MA1999999090151MD1310011+9999ME1314909REMSYN076AAXX  24184 08213 32562 62904 10094 20017 39015 48490 53001 85238 333 10118;EQDQ01  00002PRCP99
0225082130999992000032506004+40950-004120FM-12+100599999V0209999C000010360019N0100001N1+00401+00111999999ADDAA199000091GF107991041041008001031081IA1019IA2999-00209KA1120N+00351MA1999999090221MD1410001+9999ME1314879REMSYN088AAXX  25064 08213 32560 70000 10040 20011 39022 48487 54000 84438 333 20035 30102 55041;EQDQ01  00002PRCP99
0197082130999992000032512004+40950-004120FM-12+100599999V0202501N004110075019N0120001N1+00801+00311999999ADDAA106000391AY161061AY221061GF106991051021008001031001MA1999999090391MD1110081+9999ME1315109MW1211REMSYN088AAXX  25124 08213 11562 62508 10080 20031 39039 48510 51008 69931 72162 85230 333 50150;
0182082130999992000032518004+40950-004120FM-12+100599999V0203001N002610360019N0200001N1+00821+00121999999ADDAA112000391GF107991041041008001031081KA1999M+00961MA1999999090341MD1410001+9999ME1315059REMSYN082AAXX  25184 08213 12570 73005 10082 20012 39034 48505 54000 69932 84438 333 10096;
0240082130999992000032606004+40950-004120FM-12+100599999V0202601N001510075019N0050001N1+00241+00091999999ADDAA112000791AY151061AY221061GF108991061061008001021081IA1099IA2999-00109KA1120N+00151MA1999999090511MD1410001+9999ME1315109MW1101REMSYN100AAXX  26064 08213 11550 82603 10024 20009 39051 48510 54000 69902 71052 86628 333 20015 31101 55021;
0182082130999992000032612004+40950-004120FM-12+100599999V0202601N001512200019N0100001N1+00621+00151999999ADDAA199000091GF105991041021008001001081MA1999999090701MD1110031+9999ME1315349REMSYN076AAXX  26124 08213 32560 52603 10062 20015 39070 48534 51003 84208 333 50130;EQDQ01  00002PRCP99
0195082130999992000032618004+40950-004120FM-12+100599999V0202801N001010360019N0150001N1+00821+00121999999ADDAA199000091GF106991031041008001071081KA1999M+00901MA1999999090501MD1610051+9999ME1315209REMSYN076AAXX  26184 08213 32565 62802 10082 20012 39050 48520 56005 83478 333 10090;EQDQ01  00002PRCP99
0225082130999992000032706004+40950-004120FM-12+100599999V0201801N001512200019N0180001N1+00301+00001999999ADDAA199000091GF104991011021008001041011IA1019IA2999-00209KA1120N+00281MA1999999090301MD1710101+9999ME1314929REMSYN088AAXX  27064 08213 32568 41803 10030 20000 39030 48492 57010 81241 333 20028 30102 55042;EQDQ01  00002PRCP99
0182082130999992000032712004+40950-004120FM-12+100599999V0202801N003610075019N0180001N1+00821+00181999999ADDAA199000091GF107991061021008001001011MA1999999090151MD1810121+9999ME1314889REMSYN076AAXX  27124 08213 32568 72807 10082 20018 39015 48488 58012 86201 333 50180;EQDQ01  00002PRCP99
0195082130999992000032718004+40950-004120FM-12+100599999V0203001N007210120019N0180001N1+00841+00041999999ADDAA199000091GF107991071081008001001001KA1999M+01001MA1999999089751MD1610231+9999ME1314529REMSYN076AAXX  27184 08213 32568 73014 10084 20004 38975 48452 56023 87800 333 10100;EQDQ01  00002PRCP99
0240082130999992000032806004+40950-004120FM-12+100599999V0202901N000510120019N0180001N1-00101-00171999999ADDAA112000891AY161061AY221061GF107991071081008001001001IA1149IA2999-00209KA1120N-00101MA1999999089671MD1710031+9999ME1314309MW1021REMSYN100AAXX  28064 08213 11568 72901 11010 21017 38967 48430 57003 69982 70262 87800 333 21010 34102 55065;
0182082130999992000032812004+40950-004120FM-12+100599999V0203001N004610120019N0140001N1+00441-00381999999ADDAA199000091GF106991061081008001001001MA1999999089581MD1810091+9999ME1314309REMSYN076AAXX  28124 08213 32564 63009 10044 21038 38958 48430 58009 86800 333 50180;EQDQ01  00002PRCP99
0210082130999992000032818004+40950-004120FM-12+100599999V0200801N001510075019N0160001N1+00201-00171999999ADDAA112000391AY171061AY221061GF106991051021008001001091KA1999M+00761MA1999999089591MD1110081+9999ME1314279MW1021REMSYN088AAXX  28184 08213 11566 60803 10020 21017 38959 48427 51008 69932 70272 85209 333 10076;
0225082130999992000032906004+40950-004120FM-12+100599999V0200801N001512200019N0300001N1-00201-00521999999ADDAA199000091GF102991021041008001001001IA1149IA2999-00609KA1120N-00301MA1999999089711MD1410001+9999ME1314329REMSYN088AAXX  29064 08213 32580 20803 11020 21052 38971 48432 54000 82400 333 21030 34106 55040;EQDQ01  00002PRCP99
0182082130999992000032912004+40950-004120FM-12+100599999V0202601N004610360019N0200001N1+00681-00701999999ADDAA199000091GF107991021021008001021001MA1999999089831MD1010081+9999ME1314569REMSYN076AAXX  29124 08213 32570 72609 10068 21070 38983 48456 50008 82220 333 50130;EQDQ01  00002PRCP99
0195082130999992000032918004+40950-004120FM-12+100599999V0202301N006210360019N0200001N1+00581-00391999999ADDAA199000091GF108991041051008001021999KA1999M+00901MA1999999089751MD1310041+9999ME1314489REMSYN076AAXX  29184 08213 32570 82312 10058 21039 38975 48448 53004 8452/ 333 10090;EQDQ01  00002PRCP99
0225082130999992000033006004+40950-004120FM-12+100599999V0200701N002610075019N0180001N1+00381-00261999999ADDAA199000091GF107991051051008001021001IA1019IA2999+00209KA1120N+00361MA1999999089711MD1610051+9999ME1314419REMSYN088AAXX  30064 08213 32568 70705 10038 21026 38971 48441 56005 85520 333 20036 30002 55077;EQDQ01  00002PRCP99
0182082130999992000033012004+40950-004120FM-12+100599999V0202701N002610120019N0180001N1+00861-00051999999ADDAA199000091GF107991071081008001001001MA1999999089781MD1110111+9999ME1314559REMSYN076AAXX  30124 08213 32568 72705 10086 21005 38978 48455 51011 87800 333 50220;EQDQ01  00002PRCP99
0195082130999992000033018004+40950-004120FM-12+100599999V0202701N004610120019N0180001N1+00781+00081999999ADDAA199000091GF107991071081008001001001KA1999M+01121MA1999999089631MD1510081+9999ME1314409REMSYN076AAXX  30184 08213 32568 72709 10078 20008 38963 48440 55008 87800 333 10112;EQDQ01  00002PRCP99
0240082130999992000033106004+40950-004120FM-12+100599999V0202501N004110075019N0040001N1+00381+00331999999ADDAA112007191AY161061AY221061GF108991061071008001071081IA1119IA2999+00209KA1120N+00321MA1999999089581MD1510001+9999ME1314309MW1631REMSYN100AAXX  31064 08213 11540 82508 10038 20033 38958 48430 55000 60072 76362 86778 333 20032 32002 55030;
0197082130999992000033112004+40950-004120FM-12+100599999V0202801N003610075019N0100001N1+00781+00341999999ADDAA106000391AY161061AY221061GF106991061021008001001001MA1999999089791MD1010081+9999ME1314559MW1021REMSYN088AAXX  31124 08213 11560 62807 10078 20034 38979 48455 50008 69931 70262 86200 333 50110;
0182082130999992000033118004+40950-004120FM-12+100599999V0202901N004612200019N0150001N1+00941-00061999999ADDAA112000391GF105991021021008001001081KA1999M+01061MA1999999089741MD1610011+9999ME1314539REMSYN082AAXX  31184 08213 12565 52909 10094 21006 38974 48453 56001 69932 82208 333 10106;
0225082130999992000040106004+40950-004120FM-12+100599999V0200801N001019999999N0100001N1+00161-00051999999ADDAA199000091GF105991001001999999001081IA1099IA2999-00409KA1120N+00121MA1999999089431MD1610131+9999ME1314139REMSYN088AAXX  01064 08213 32960 50802 10016 21005 38943 48413 56013 80008 333 20012 31104 55070;EQDQ01  00002PRCP99
0182082130999992000040112004+40950-004120FM-12+100599999V0202901N001512200019N0150001N1+01121-00041999999ADDAA199000091GF105991031001017501041081MA1999999089231MD1810201+9999ME1314089REMSYN076AAXX  01124 08213 32765 52903 10112 21004 38923 48408 58020 83048 333 50180;EQDQ01  00002PRCP99
0195082130999992000040118004+40950-004120FM-12+100599999V02099999999992200019N0200001N1+01161-00171999999ADDAA199000091GF105991041001017501041081KA1999M+01461MA1999999088861MD1610161+9999ME1313749REMSYN076AAXX  01184 08213 32770 54707 10116 21017 38886 48374 56016 84048 333 10146;EQDQ01  00002PRCP99
0253082130999992000040206004+40950-004120FM-12+100599999V0201301N006210075019N0150001N1+00801+00161999999ADDAA199000091AY121061AY221061GF108991061061008001071999IA1019IA2999-00609KA1120N+00731MA1999999087831MD1710201+9999ME1312749MW1151REMSYN094AAXX  02064 08213 31565 81312 10080 20016 38783 48274 57020 71522 8667/ 333 20073 30106 55067;EQDQ01  00002PRCP99
0197082130999992000040212004+40950-004120FM-12+100599999V0201501N010310075019N0150001N1+01131+00351999999ADDAA106000791AY161061AY221061GF108991071061008001071021MA1999999087661MD1710051+9999ME1312629MW1601REMSYN088AAXX  02124 08213 11565 81520 10113 20035 38766 48262 57005 69901 76062 87672 333 50300;
0232082130999992000040218004+40950-004120FM-12+100599999V0201801N008210360019N0200001N1+00931+00351999999ADDAA112000791AY161061AY221061GA1011+008009099GF106991041091008001061011KA1120M+01221MA1999999087261MD1710131+9999ME1312229MW1031REMSYN094AAXX  02184 08213 11570 61816 10093 20035 38726 48222 57013 69902 70362 84961 333 10122 81995;
0212082130999992000040306004+40950-004120FM-12+100599999V0202301N003612200019N0300001N1+00241+00071999999ADDAA112001091GF102991011061008001031001IA1099IA2999+00109KA1120N+00221MA1999999087781MD1210041+9999ME1312649REMSYN094AAXX  03064 08213 12580 22307 10024 20007 38778 48264 52004 60012 81630 333 20022 31001 55032;
0182082130999992000040312004+40950-004120FM-12+100599999V0202101N008212200019N0300001N1+00861-00071999999ADDAA199000091GF103991031051008001001001MA1999999087871MD1110051+9999ME1312799REMSYN076AAXX  03124 08213 32580 32116 10086 21007 38787 48279 51005 83500 333 50250;EQDQ01  00002PRCP99
0195082130999992000040318004+40950-004120FM-12+100599999V0202101N007710120019N0300001N1+00721+00011999999ADDAA199000091GF108991081081008001999999KA1999M+01001MA1999999087781MD1310031+9999ME1312729REMSYN076AAXX  03184 08213 32580 82115 10072 20001 38778 48272 53003 888// 333 10100;EQDQ01  00002PRCP99
0225082130999992000040406004+40950-004120FM-12+100599999V0202701N006710075019N0120001N1+00261+00091999999ADDAA199000091GF108991081051008001999999IA1019IA2999+00309KA1120N+00251MA1999999088351MD1210131+9999ME1313179REMSYN088AAXX  04064 08213 32562 82713 10026 20009 38835 48317 52013 885// 333 20025 30003 55095;EQDQ01  00002PRCP99
0219082130999992000040412004+40950-004120FM-12+100599999V0202801N005110075019N0120001N1+00591+00171999999ADDAA106000791AY121061AY221061GA1011+008009099GF107991051091008001061999MA1999999088751MD1210161+9999ME1313579MW1891REMSYN094AAXX  04124 08213 11562 72810 10059 20017 38875 48357 52016 69901 78922 8596/ 333 50360 81995;
0232082130999992000040418004+40950-004120FM-12+100599999V0202101N003610075019N0150001N1+00381+00111999999ADDAA112000591AY181061AY281061GA1011+008009099GF108991061091008001061999KA1120M+00931MA1999999089071MD1210201+9999ME1313849MW1151REMSYN094AAXX  04184 08213 11565 82107 10038 20011 38907 48384 52020 69962 71588 8696/ 333 10093 81995;
0240082130999992000040506004+40950-004120FM-12+100599999V0209999C000010360019N0080001N1-00021-00051999999ADDAA112003091AY121061AY221061GF106991031061008001051001IA1099IA2999+00009KA1120N-00051MA1999999089791MD1210101+9999ME1314429MW1101REMSYN100AAXX  05064 08213 11558 60000 11002 21005 38979 48442 52010 60032 71022 83650 333 21005 31100 55020;
0197082130999992000040512004+40950-004120FM-12+100599999V0201901N001512200019N0200001N1+00481-00021999999ADDAA106000791AY171061AY221061GF104991041051008001001001MA1999999090101MD1210121+9999ME1314789MW1021REMSYN088AAXX  05124 08213 11570 41903 10048 21002 39010 48478 52012 69901 70272 84500 333 50060;
0182082130999992000040518004+40950-004120FM-12+100599999V0203001N004610075019N0250001N1+00661-00491999999ADDAA112000791GF107991051051008001031001KA1999M+00801MA1999999090071MD1310041+9999ME1314789REMSYN082AAXX  05184 08213 12575 73009 10066 21049 39007 48478 53004 69902 85530 333 10080;
0225082130999992000040606004+40950-004120FM-12+100599999V0201201N001512200019N0200001N1-00081-00371999999ADDAA199000091GF102991001001999999001081IA1149IA2999-00609KA1120N-00081MA1999999090271MD1610031+9999ME1314839REMSYN088AAXX  06064 08213 32970 21203 11008 21037 39027 48483 56003 80008 333 21008 34106 55033;EQDQ01  00002PRCP99
0182082130999992000040612004+40950-004120FM-12+100599999V0202001N001512200019N0200001N1+01031-00151999999ADDAA199000091GF104991001001999999001081MA1999999090341MD1810011+9999ME1315099REMSYN076AAXX  06124 08213 32970 42003 10103 21015 39034 48509 58001 80008 333 50150;EQDQ01  00002PRCP99
0195082130999992000040618004+40950-004120FM-12+100599999V0203101N002112200019N0200001N1+01341+00101999999ADDAA199000091GF105991011001017501041081KA1999M+01441MA1999999090191MD1610041+9999ME1315019REMSYN076AAXX  06184 08213 32770 53104 10134 20010 39019 48501 56004 81048 333 10144;EQDQ01  00002PRCP99
0225082130999992000040706004+40950-004120FM-12+100599999V0200801N001510900019N0200001N1+00561-00031999999ADDAA199000091GF106991021001017501041081IA1019IA2999-00209KA1120N+00501MA1999999090231MD1610031+9999ME1314919REMSYN088AAXX  07064 08213 32770 60803 10056 21003 39023 48491 56003 82048 333 20050 30102 55117;EQDQ01  00002PRCP99
0182082130999992000040712004+40950-004120FM-12+100599999V0202601N001512200019N0300001N1+01621+00111999999ADDAA199000091GF106991021001017501041041MA1999999090191MD1810071+9999ME1315069REMSYN076AAXX  07124 08213 32780 62603 10162 20011 39019 48506 58007 82044 333 50250;EQDQ01  00002PRCP99
0195082130999992000040718004+40950-004120FM-12+100599999V0201401N005710900019N0300001N1+01521-00061999999ADDAA199000091GF107991031001017501041081KA1999M+01921MA1999999089951MD1610081+9999ME1314819REMSYN076AAXX  07184 08213 32780 71411 10152 21006 38995 48481 56008 83048 333 10192;EQDQ01  00002PRCP99
0240082130999992000040806004+40950-004120FM-12+100599999V0201501N006710075019N0160001N1+00601+00231999999ADDAA112000391AY121061AY221061GF108991051051008001021999IA1019IA2999+00109KA1120N+00601MA1999999089741MD1010001+9999ME1314479MW1601REMSYN100AAXX  08064 08213 11566 81513 10060 20023 38974 48447 50000 69932 76022 8552/ 333 20060 30001 55090;
0197082130999992000040812004+40950-004120FM-12+100599999V0201501N006710360019N0180001N1+01001+00251999999ADDAA106001091AY161061AY221061GF107991041051008001021001MA1999999089671MD1810121+9999ME1314479MW1021REMSYN088AAXX  08124 08213 11568 71513 10100 20025 38967 48447 58012 60011 70262 84520 333 50240;
0182082130999992000040818004+40950-004120FM-12+100599999V0201501N003110120019N0180001N1+01061+00221999999ADDAA112001091GF106991061081008001001001KA1999M+01141MA1999999089511MD1710081+9999ME1314349REMSYN082AAXX  08184 08213 12568 61506 10106 20022 38951 48434 57008 60012 86800 333 10114;
0240082130999992000040906004+40950-004120FM-12+100599999V0200501N001010120019N0180001N1+00621+00401999999ADDAA112002091AY171061AY221061GF107991071081008001001001IA1119IA2999+00309KA1120N+00601MA1999999089271MD1710101+9999ME1314059MW1021REMSYN100AAXX  09064 08213 11568 70502 10062 20040 38927 48405 57010 60022 70272 87800 333 20060 32003 55030;
0182082130999992000040912004+40950-004120FM-12+100599999V0202901N003610120019N0180001N1+01141+00531999999ADDAA199000091GF107991071081008001001001MA1999999089191MD1810111+9999ME1314059REMSYN076AAXX  09124 08213 32568 72907 10114 20053 38919 48405 58011 87800 333 50170;EQDQ01  00002PRCP99
0210082130999992000040918004+40950-004120FM-12+100599999V0202801N005110120019N0180001N1+01101+00481999999ADDAA112000791AY121061AY221061GF107991071081008001001001KA1999M+01401MA1999999088901MD1610161+9999ME1313789MW1601REMSYN088AAXX  09184 08213 11568 72810 10110 20048 38890 48378 56016 69902 76022 87800 333 10140;
0240082130999992000041006004+40950-004120FM-12+100599999V0202701N006210075019N0080001N1+00581+00451999999ADDAA112002091AY121061AY221061GF108991081051008001999999IA1099IA2999+00409KA1120N+00561MA1999999088831MD1510001+9999ME1313659MW1601REMSYN100AAXX  10064 08213 11558 82712 10058 20045 38883 48365 55000 60022 76022 885// 333 20056 31004 55046;
0197082130999992000041012004+40950-004120FM-12+100599999V0202601N005110120019N0120001N1+00621+00261999999ADDAA106000391AY161061AY261061GF106991061081008001001001MA1999999089111MD1110041+9999ME1313919MW1211REMSYN088AAXX  10124 08213 11562 62610 10062 20026 38911 48391 51004 69931 72166 86800 333 50250;
0232082130999992000041018004+40950-004120FM-12+100599999V0203401N002610075019N0030001N1+00451+00171999999ADDAA112002091AY181061AY261061GA1031+008009099GF108991061091008001061021KA1120M+00771MA1999999089181MD1310081+9999ME1313959MW1801REMSYN094AAXX  10184 08213 11530 83405 10045 20017 38918 48395 53008 60022 78086 86962 333 10077 83995;
0240082130999992000041106004+40950-004120FM-12+100599999V0203001N003610360019N0080001N1+00381+00241999999ADDAA112008991AY181061AY261061GF108991031061008001071999IA1119IA2999+00009KA1120N+00041MA1999999089461MD1210081+9999ME1314199MW1101REMSYN100AAXX  11064 08213 11558 83007 10038 20024 38946 48419 52008 60092 71086 8367/ 333 20004 32000 55000;
0182082130999992000041112004+40950-004120FM-12+100599999V0202501N005110075019N0100001N1+00661+00201999999ADDAA199000091GF108991061061008001071999MA1999999089701MD1210071+9999ME1314459REMSYN076AAXX  11124 08213 32560 82510 10066 20020 38970 48445 52007 8667/ 333 50110;EQDQ01  00002PRCP99
0195082130999992000041118004+40950-004120FM-12+100599999V0202801N007212200019N0200001N1+01001-00041999999ADDAA199000091GF104991021051008001001021KA1999M+01111MA1999999089511MD1710041+9999ME1314329REMSYN076AAXX  11184 08213 32570 42814 10100 21004 38951 48432 57004 82502 333 10111;EQDQ01  00002PRCP99
0225082130999992000041206004+40950-004120FM-12+100599999V0202501N006210075019N0150001N1+00481+00151999999ADDAA199000091GF107991051051008001041081IA1019IA2999+00409KA1120N+00481MA1999999089271MD1610051+9999ME1314039REMSYN088AAXX  12064 08213 32565 72512 10048 20015 38927 48403 56005 85548 333 20048 30004 55025;EQDQ01  00002PRCP99
0197082130999992000041212004+40950-004120FM-12+100599999V0202701N008210075019N0200001N1+00901+00181999999ADDAA106000791AY161061AY221061GF107991051051008001041081MA1999999089191MD1810081+9999ME1314029MW1021REMSYN088AAXX  12124 08213 11570 72716 10090 20018 38919 48402 58008 69901 70262 85548 333 50180;
0182082130999992000041218004+40950-004120FM-12+100599999V0202901N007210075019N0200001N1+00921+00501999999ADDAA112000791GF106991061051008001001001KA1999M+01161MA1999999088991MD1510041+9999ME1313849REMSYN082AAXX  12184 08213 12570 62914 10092 20050 38899 48384 55004 69902 86500 333 10116;
0225082130999992000041306004+40950-004120FM-12+100599999V0209999C000010075019N0180001N1+00381+00141999999ADDAA199000091GF108991051051008001021999IA1019IA2999+00009KA1120N+00381MA1999999089101MD1710021+9999ME1313869REMSYN088AAXX  13064 08213 32568 80000 10038 20014 38910 48386 57002 8552/ 333 20038 30000 55008;EQDQ01  00002PRCP99
0182082130999992000041312004+40950-004120FM-12+100599999V0202301N005110120019N0180001N1+01161+00141999999ADDAA199000091GF107991071081008001001001MA1999999089151MD1810041+9999ME1314029REMSYN076AAXX  13124 08213 32568 72310 10116 20014 38915 48402 58004 87800 333 50180;EQDQ01  00002PRCP99
0195082130999992000041318004+40950-004120FM-12+100599999V0202101N00671036001CN0180001N1+01001+00091999999ADDAA199000091GF105991021021008001031999KA1999M+01321MA1999999089051MD1610041+9999ME1313889REMSYN076AAXX  13184 08213 32568 52113 10100 20009 38905 48388 56004 8223/ 333 10132;EQDQ01  00002PRCP99
0219082130999992000041406004+40950-004120FM-12+100599999V0202001N005719999999N0200001N1+00921+00311999999ADDAA199000091GF105991999999008001999999IA1019IA2999+00709KA1120N+00821MA1999999088581MD1610051+9999ME1313469REMSYN082AAXX  14064 08213 32570 52011 10092 20031 38858 48346 56005 333 20082 30007 55059;EQDQ01  00002PRCP99
0232082130999992000041418004+40950-004120FM-12+100599999V0202701N008210075019N0150001N1+00781+00021999999ADDAA112005191AY181061AY221061GA1021+008009099GF105991051031008001001001KA1120M+01301MA1999999088951MD1110161+9999ME1313789MW1151REMSYN094AAXX  14184 08213 11565 52716 10078 20002 38895 48378 51016 60052 71582 85300 333 10130 82995;
0225082130999992000041506004+40950-004120FM-12+100599999V0201201N001510900019N0200001N1+00141-00121999999ADDAA199000091GF106991041001017501041091IA1019IA2999-00409KA1120N+00141MA1999999089231MD1710041+9999ME1313949REMSYN088AAXX  15064 08213 32770 61203 10014 21012 38923 48394 57004 84049 333 20014 30104 55060;EQDQ01  00002PRCP99
0182082130999992000041512004+40950-004120FM-12+100599999V0202201N004110900019N0150001N1+00901+00071999999ADDAA199000091GF108991041001017501071081MA1999999089111MD1810081+9999ME1313949REMSYN076AAXX  15124 08213 32765 82208 10090 20007 38911 48394 58008 84078 333 50220;EQDQ01  00002PRCP99
0210082130999992000041518004+40950-004120FM-12+100599999V0202001N001010360019N0150001N1+00761+00371999999ADDAA112002091AY161061AY221061GF108991041071008001071081KA1999M+00981MA1999999088671MD1710231+9999ME1313529MW1021REMSYN088AAXX  15184 08213 11565 82002 10076 20037 38867 48352 57023 60022 70262 84778 333 10098;
0240082130999992000041606004+40950-004120FM-12+100599999V0203001N002610075019N0100001N1+00581+00491999999ADDAA112003091AY161061AY221061GF108991061071008001071081IA1119IA2999+00509KA1120N+00581MA1999999088341MD1510011+9999ME1313209MW1611REMSYN100AAXX  16064 08213 11560 83005 10058 20049 38834 48320 55001 60032 76162 86778 333 20058 32005 55018;
0197082130999992000041612004+40950-004120FM-12+100599999V0202501N002610120019N0150001N1+01081+00251999999ADDAA106002091AY161061AY221061GF106991061081008001001001MA1999999088421MD1010041+9999ME1313339MW1021REMSYN088AAXX  16124 08213 11565 62505 10108 20025 38842 48333 50004 60021 70262 86800 333 50120;
0240082130999992000041706004+40950-004120FM-12+100599999V0202501N005110075019N0180001N1+00401+00161999999ADDAA112000591AY161061AY221061GF108991051051008001021999IA1119IA2999+00109KA1120N+00321MA1999999089831MD1210181+9999ME1314529MW1021REMSYN100AAXX  17064 08213 11568 82510 10040 20016 38983 48452 52018 69952 70262 8552/ 333 20032 32001 55035;
0182082130999992000041712004+40950-004120FM-12+100599999V0202801N007710120019N0180001N1+00901+00231999999ADDAA199000091GF107991071081008001001001MA1999999090071MD1110081+9999ME1314829REMSYN076AAXX  17124 08213 32568 72815 10090 20023 39007 48482 51008 87800 333 50140;EQDQ01  00002PRCP99
0195082130999992000041718004+40950-004120FM-12+100599999V0202701N005110120019N0180001N1+00941+00331999999ADDAA199000091GF107991071081008001001001KA1999M+01121MA1999999090101MD1610011+9999ME1314869REMSYN076AAXX  17184 08213 32568 72710 10094 20033 39010 48486 56001 87800 333 10112;EQDQ01  00002PRCP99
0240082130999992000041806004+40950-004120FM-12+100599999V0202101N003610075019N0180001N1+00621-00081999999ADDAA112002091AY161061AY221061GF108991051051008001021999IA1099IA2999+00209KA1120N+00501MA1999999090071MD1710031+9999ME1314779MW1021REMSYN100AAXX  18064 08213 11568 82107 10062 21008 39007 48477 57003 60022 70262 8552/ 333 20050 31002 55032;
0197082130999992000041812004+40950-004120FM-12+100599999V0202201N006710360019N0120001N1+00801+00461999999ADDAA106001091AY161061AY221061GF108991021051008001021001MA1999999089941MD1610081+9999ME1314699MW1611REMSYN088AAXX  18124 08213 11562 82213 10080 20046 38994 48469 56008 60011 76162 82520 333 50250;
0210082130999992000041818004+40950-004120FM-12+100599999V0202801N006210360019N0120001N1+00881+00841999999ADDAA112009991AY161061AY261061GF108991041051008001021999KA1999M+01081MA1999999089991MD1510001+9999ME1314759MW1631REMSYN088AAXX  18184 08213 11562 82812 10088 20084 38999 48475 55000 60102 76366 8452/ 333 10108;
0240082130999992000041906004+40950-004120FM-12+100599999V0202701N005110360019N0120001N1+00941+00861999999ADDAA112005191AY161061AY221061GF108991041051008001021001IA1119IA2999+00609KA1120N+00901MA1999999090231MD1310031+9999ME1314989MW1021REMSYN100AAXX  19064 08213 11562 82710 10094 20086 39023 48498 53003 60052 70262 84520 333 20090 32006 55017;
0197082130999992000041912004+40950-004120FM-12+100599999V0202901N005110075019N0160001N1+01181+00831999999ADDAA106000591AY161061AY221061GF108991051051008001021999MA1999999090381MD1110071+9999ME1315169MW1021REMSYN088AAXX  19124 08213 11566 82910 10118 20083 39038 48516 51007 69941 70262 8552/ 333 50060;
0210082130999992000041918004+40950-004120FM-12+100599999V0202701N004110075019N0180001N1+01281+00641999999ADDAA112000591AY161061AY221061GF107991071071008001001001KA1999M+01381MA1999999090381MD1410001+9999ME1315189MW1021REMSYN088AAXX  19184 08213 11568 72708 10128 20064 39038 48518 54000 69952 70262 87700 333 10138;
0225082130999992000042006004+40950-004120FM-12+100599999V0201301N003110360019N0180001N1+00641+00371999999ADDAA199000091GF106991011021008001041001IA1099IA2999+00209KA1120N+00641MA1999999090231MD1010001+9999ME1314929REMSYN088AAXX  20064 08213 32568 61306 10064 20037 39023 48492 50000 81240 333 20064 31002 55011;EQDQ01  00002PRCP99
0182082130999992000042012004+40950-004120FM-12+100599999V0202901N001512200019N0300001N1+01621+00601999999ADDAA199000091GF104991011021000751041041MA1999999090271MD1710031+9999ME1315149REMSYN076AAXX  20124 08213 32180 42903 10162 20060 39027 48514 57003 81244 333 50150;EQDQ01  00002PRCP99
0195082130999992000042018004+40950-004120FM-12+100599999V0203201N001510120019N0200001N1+01461+00681999999ADDAA199000091GF107991071081008001001001KA1999M+01701MA1999999090231MD1410001+9999ME1315079REMSYN076AAXX  20184 08213 32570 73203 10146 20068 39023 48507 54000 87800 333 10170;EQDQ01  00002PRCP99
0253082130999992000042106004+40950-004120FM-12+100599999V0200701N001510042019N0040001N1+00841+00761999999ADDAA199000091AY121061AY221061GF108991081061004501001001IA1019IA2999+00609KA1120N+00801MA1999999090261MD1210041+9999ME1314999MW1101REMSYN094AAXX  21064 08213 31440 80703 10084 20076 39026 48499 52004 71022 88600 333 20080 30006 55080;EQDQ01  00002PRCP99
0182082130999992000042112004+40950-004120FM-12+100599999V0201901N006710360019N0200001N1+01461+00771999999ADDAA199000091GF106991041081008001071081MA1999999090191MD1810041+9999ME1315049REMSYN076AAXX  21124 08213 32570 61913 10146 20077 39019 48504 58004 84878 333 50320;EQDQ01  00002PRCP99
0210082130999992000042118004+40950-004120FM-12+100599999V0202101N005710360019N0150001N1+01601+00421999999ADDAA112000791AY161061AY221061GF106991041081008001041091KA1999M+01801MA1999999089981MD1610091+9999ME1314869MW1151REMSYN088AAXX  21184 08213 11565 62111 10160 20042 38998 48486 56009 69902 71562 84849 333 10180;
0212082130999992000042206004+40950-004120FM-12+100599999V0201801N006210075019N0120001N1+01081+00591999999ADDAA112000191GF108991061051008001071081IA1019IA2999+01009KA1120N+01081MA1999999089791MD1610121+9999ME1314609REMSYN094AAXX  22064 08213 12562 81812 10108 20059 38979 48460 56012 69922 86578 333 20108 30010 55080;
0210082130999992000042218004+40950-004120FM-12+100599999V0202901N001510120019N0120001N1+00741+00341999999ADDAA112007991AY161061AY221061GF107991051081008001071001KA1999M+01281MA1999999089911MD1110011+9999ME1314659MW1151REMSYN088AAXX  22184 08213 11562 72903 10074 20034 38991 48465 51001 60082 71562 85870 333 10128;
0240082130999992000042306004+40950-004120FM-12+100599999V0202501N002610360019N0080001N1+00341+00201999999ADDAA112001091AY121061AY221061GF108991041051008001071081IA1119IA2999+00309KA1120N+00381MA1999999090501MD1210111+9999ME1315119MW1101REMSYN100AAXX  23064 08213 11558 82505 10034 20020 39050 48511 52011 60012 71022 84578 333 20038 32003 55003;
0197082130999992000042312004+40950-004120FM-12+100599999V0202601N004110120019N0150001N1+00721+00161999999ADDAA106000791AY121061AY221061GF107991051081008001071001MA1999999090631MD1110011+9999ME1315309MW1601REMSYN088AAXX  23124 08213 11565 72608 10072 20016 39063 48530 51001 69901 76022 85870 333 50200;
0210082130999992000042318004+40950-004120FM-12+100599999V0202801N006212200019N0200001N1+01001+00131999999ADDAA112000391AY181061AY221061GF104991031021008001001081KA1999M+01161MA1999999090581MD1410001+9999ME1315309MW1021REMSYN088AAXX  23184 08213 11570 42812 10100 20013 39058 48530 54000 69932 70282 83208 333 10116;
0225082130999992000042406004+40950-004120FM-12+100599999V0209999C000012200019N0300001N1+00501+00191999999ADDAA199000091GF104991021001017501051021IA1099IA2999+00009KA1120N+00501MA1999999090311MD1710121+9999ME1314979REMSYN088AAXX  24064 08213 32780 40000 10050 20019 39031 48497 57012 82052 333 20050 31000 55054;EQDQ01  00002PRCP99
0195082130999992000042418004+40950-004120FM-12+100599999V0209999C000010360019N0300001N1+01381+00791999999ADDAA199000091GF106991041051008001031001KA1999M+01671MA1999999090061MD1710041+9999ME1314909REMSYN076AAXX  24184 08213 32580 60000 10138 20079 39006 48490 57004 84530 333 10167;EQDQ01  00002PRCP99
0225082130999992000042506004+40950-004120FM-12+100599999V0201601N002112200019N0300001N1+00851+00321999999ADDAA199000091GF103991031001017501041001IA1099IA2999+00109KA1120N+00641MA1999999089711MD1710051+9999ME1314499REMSYN088AAXX  25064 08213 32780 31604 10085 20032 38971 48449 57005 83040 333 20064 31001 55056;EQDQ01  00002PRCP99
0182082130999992000042512004+40950-004120FM-12+100599999V0201901N008712200019N0300001N1+01531+00511999999ADDAA199000091GF102991021051008001001001MA1999999089661MD1810051+9999ME1314559REMSYN076AAXX  25124 08213 32580 21917 10153 20051 38966 48455 58005 82500 333 50290;EQDQ01  00002PRCP99
0195082130999992000042518004+40950-004120FM-12+100599999V0201801N004112200019N0250001N1+01521+00311999999ADDAA199000091GF104991021051008001031021KA1999M+01801MA1999999089431MD1710121+9999ME1314339REMSYN076AAXX  25184 08213 32575 41808 10152 20031 38943 48433 57012 82532 333 10180;EQDQ01  00002PRCP99
0240082130999992000042606004+40950-004120FM-12+100599999V0203201N000510120019N0080001N1+00501+00321999999ADDAA112004191AY161061AY221061GF106991061081008001001001IA1119IA2999+00409KA1120N+00501MA1999999089671MD1410001+9999ME1314409MW1101REMSYN100AAXX  26064 08213 11558 63201 10050 20032 38967 48440 54000 60042 71062 86800 333 20050 32004 55082;
0182082130999992000042612004+40950-004120FM-12+100599999V0202701N002112200019N0150001N1+01021+00281999999ADDAA199000091GF104991041081008001001001MA1999999089671MD1610031+9999ME1314489REMSYN076AAXX  26124 08213 32565 42704 10102 20028 38967 48448 56003 84800 333 50380;EQDQ01  00002PRCP99
0210082130999992000042618004+40950-004120FM-12+100599999V0200101N001510120019N0100001N1+00801+00461999999ADDAA112000791AY161061AY221061GF107991071081008001001001KA1999M+01341MA1999999089501MD1510001+9999ME1314299MW1151REMSYN088AAXX  26184 08213 11560 70103 10080 20046 38950 48429 55000 69902 71562 87800 333 10134;
0240082130999992000042706004+40950-004120FM-12+100599999V0200201N001510042019N0030001N1+00401+00351999999ADDAA112007191AY161061AY221061GF108991061071004501071081IA1119IA2999+00309KA1120N+00401MA1999999089831MD1510021+9999ME1314529MW1631REMSYN100AAXX  27064 08213 11430 80203 10040 20035 38983 48452 55002 60072 76362 86778 333 20040 32003 55018;
0197082130999992000042712004+40950-004120FM-12+100599999V0202801N005110120019N0050001N1+00581+00361999999ADDAA106003091AY161061AY221061GF107991051081008001041081MA1999999089391MD1110011+9999ME1314169MW1151REMSYN088AAXX  27124 08213 11550 72810 10058 20036 38939 48416 51001 60031 71562 85848 333 50240;
0210082130999992000042718004+40950-004120FM-12+100599999V0209999C000010120019N0060001N1+00441+00301999999ADDAA112007191AY181061AY221061GF107991061081008001041081KA1999M+00941MA1999999089511MD1110121+9999ME1314249MW1601REMSYN088AAXX  27184 08213 11556 70000 10044 20030 38951 48424 51012 60072 76082 86848 333 10094;
0256082130999992000042806004+40950-004120FM-12+100599999V0203101N000510024019N0100001N1+00321+00271999999ADDAA112003091AY161061AY221061GA1091+999999999GF109991091999999999999999IA1119IA2999+00109KA1120N+00241MA1999999089821MD1410001+9999ME1314509MW1021REMSYN100AAXX  28064 08213 11560 93101 10032 20027 38982 48450 54000 60032 70262 85520 333 20024 32001 55011;
0182082130999992000042812004+40950-004120FM-12+100599999V0202401N001010120019N0160001N1+00621+00201999999ADDAA199000091GF107991071081008001001001MA1999999089951MD1010001+9999ME1314679REMSYN076AAXX  28124 08213 32566 72402 10062 20020 38995 48467 50000 87800 333 50100;EQDQ01  00002PRCP99
0195082130999992000042818004+40950-004120FM-12+100599999V0202801N002110120019N0180001N1+00921-00031999999ADDAA199000091GF107991071081008001001001KA1999M+01061MA1999999089861MD1710051+9999ME1314639REMSYN076AAXX  28184 08213 32568 72804 10092 21003 38986 48463 57005 87800 333 10106;EQDQ01  00002PRCP99
0240082130999992000042906004+40950-004120FM-12+100599999V0209999C000010360019N0100001N1+00561+00381999999ADDAA112000591AY161061AY221061GF108991031051008001021999IA1119IA2999+00209KA1120N+00501MA1999999089871MD1610031+9999ME1314599MW1611REMSYN100AAXX  29064 08213 11560 80000 10056 20038 38987 48459 56003 69952 76162 8352/ 333 20050 32002 55039;
0163082130999992000042912004+40950-004120FM-12+100599999V0201501N004110360019N0180001N1+01201+00301999999ADDAA199000021GF106991031021008001041041MA1999999089871MD1410001+9999ME1314699REMSYN076AAXX  29124 08213 32568 61508 10120 20030 38987 48469 54000 83244 333 50200;
0210082130999992000042918004+40950-004120FM-12+100599999V0201301N006210360019N0120001N1+00941+00331999999ADDAA112000791AY121061AY221061GF108991031051008001021999KA1999M+01301MA1999999089831MD1410001+9999ME1314619MW1601REMSYN088AAXX  29184 08213 11562 81312 10094 20033 38983 48461 54000 69902 76022 8352/ 333 10130;
0212082130999992000043006004+40950-004120FM-12+100599999V0201601N002110120019N0180001N1+00901+00431999999ADDAA112002091GF107991071081008001001001IA1119IA2999+00709KA1120N+00841MA1999999089911MD1510001+9999ME1314689REMSYN094AAXX  30064 08213 12568 71604 10090 20043 38991 48468 55000 60022 87800 333 20084 32007 55062;
0182082130999992000043012004+40950-004120FM-12+100599999V0201201N005110120019N0180001N1+01321+00351999999ADDAA199000091GF107991071081008001001001MA1999999090021MD1110041+9999ME1314859REMSYN076AAXX  30124 08213 32568 71210 10132 20035 39002 48485 51004 87800 333 50360;EQDQ01  00002PRCP99
0210082130999992000043018004+40950-004120FM-12+100599999V0200901N002610120019N0180001N1+01221+00381999999ADDAA112000891AY161061AY221061GF107991071081008001001001KA1999M+01421MA1999999089911MD1710041+9999ME1314739MW1021REMSYN088AAXX  30184 08213 11568 70905 10122 20038 38991 48473 57004 69972 70262 87800 333 10142;
0225082130999992000050106004+40950-004120FM-12+100599999V0200201N001010900019N0150001N1+01081-00011999999ADDAA199000091GF108991041001017501071051IA1099IA2999+00709KA1120N+00971MA1999999089741MD1510001+9999ME1314559REMSYN088AAXX  01064 08213 32765 80202 10108 21001 38974 48455 55000 84075 333 20097 31007 55033;EQDQ01  00002PRCP99
0197082130999992000050112004+40950-004120FM-12+100599999V0201101N004610900019N0300001N1+01401-00201999999ADDAA106000791AY161061AY221061GF108991041001017501071061MA1999999089871MD1210041+9999ME1314729MW1021REMSYN088AAXX  01124 08213 11780 81109 10140 21020 38987 48472 52004 69901 70262 84076 333 50270;
0210082130999992000050118004+40950-004120FM-12+100599999V0201101N006210360019N0200001N1+01101+00481999999ADDAA112000791AY121061AY221061GF108991031051008001071061KA1999M+01531MA1999999089831MD1410001+9999ME1314649MW1601REMSYN088AAXX  01184 08213 11570 81112 10110 20048 38983 48464 54000 69902 76022 83576 333 10153;
0240082130999992000050206004+40950-004120FM-12+100599999V0209999C000012200019N0300001N1+00581+00491999999ADDAA112001091AY161061AY221061GF103991011061008001031011IA1099IA2999+00209KA1120N+00421MA1999999090071MD1210061+9999ME1314779MW1021REMSYN100AAXX  02064 08213 11580 30000 10058 20049 39007 48477 52006 60012 70262 81631 333 20042 31002 55007;
0182082130999992000050212004+40950-004120FM-12+100599999V0203201N002112200019N0300001N1+01431+00601999999ADDAA199000091GF103991031051008001001001MA1999999090071MD1810041+9999ME1314929REMSYN076AAXX  02124 08213 32580 33204 10143 20060 39007 48492 58004 83500 333 50100;EQDQ01  00002PRCP99
0195082130999992000050218004+40950-004120FM-12+100599999V0201501N003612200019N0300001N1+01601+00141999999ADDAA199000091GF102991021051008001001001KA1999M+01821MA1999999089981MD1810011+9999ME1314869REMSYN076AAXX  02184 08213 32580 21507 10160 20014 38998 48486 58001 82500 333 10182;EQDQ01  00002PRCP99
0225082130999992000050306004+40950-004120FM-12+100599999V0209999C000012200019N0120001N1+01321+00461999999ADDAA199000091GF103991021001017501041081IA1019IA2999+00209KA1120N+01001MA1999999089871MD1410001+9999ME1314719REMSYN088AAXX  03064 08213 32762 30000 10132 20046 38987 48471 54000 82048 333 20100 30002 55123;EQDQ01  00002PRCP99
0182082130999992000050312004+40950-004120FM-12+100599999V0201801N003110360019N0150001N1+01681+00541999999ADDAA199000091GF108991041071008001071081MA1999999089901MD1510001+9999ME1314809REMSYN076AAXX  03124 08213 32565 81806 10168 20054 38990 48480 55000 84778 333 50440;EQDQ01  00002PRCP99
0195082130999992000050318004+40950-004120FM-12+100599999V0201101N002612200019N0200001N1+01941+00681999999ADDAA199000091GF104991011041008001031081KA1999M+02101MA1999999089661MD1710201+9999ME1314629REMSYN076AAXX  03184 08213 32570 41105 10194 20068 38966 48462 57020 81438 333 10210;EQDQ01  00002PRCP99
0240082130999992000050406004+40950-004120FM-12+100599999V0201301N006710075019N0050001N1+01081+00721999999ADDAA112002091AY181061AY221061GF108991071071008001071081IA1119IA2999+00609KA1120N+01051MA1999999089841MD1510001+9999ME1314569MW1811REMSYN100AAXX  04064 08213 11550 81313 10108 20072 38984 48456 55000 60022 78182 87778 333 20105 32006 55058;
0197082130999992000050412004+40950-004120FM-12+100599999V0201001N001010360019N0200001N1+01341+00721999999ADDAA106013091AY181061AY261061GF107991041071008001071081MA1999999089711MD1610281+9999ME1314579MW1011REMSYN088AAXX  04124 08213 11570 71002 10134 20072 38971 48457 56028 60131 70186 84778 333 50460;
0182082130999992000050418004+40950-004120FM-12+100599999V0202201N004610360019N0200001N1+01441+00561999999ADDAA112013091GF105991031081008001031081KA1999M+01701MA1999999089671MD1310011+9999ME1314559REMSYN082AAXX  04184 08213 12570 52209 10144 20056 38967 48455 53001 60132 83838 333 10170;
0212082130999992000050506004+40950-004120FM-12+100599999V0201801N001012200019N0300001N1+00981+00591999999ADDAA112000191GF103991011061008001091011IA1119IA2999+00309KA1120N+00901MA1999999089591MD1710051+9999ME1314409REMSYN094AAXX  05064 08213 12580 31802 10098 20059 38959 48440 57005 69922 81691 333 20090 32003 55030;
0197082130999992000050512004+40950-004120FM-12+100599999V0202201N003110120019N0300001N1+01401+00701999999ADDAA106003091AY181061AY221061GF107991051081008001061011MA1999999089671MD1810071+9999ME1314549MW1021REMSYN088AAXX  05124 08213 11580 72206 10140 20070 38967 48454 58007 60031 70282 85861 333 50320;
0182082130999992000050518004+40950-004120FM-12+100599999V0202001N004110360019N0300001N1+01401+00541999999ADDAA112003091GF105991031051008001041021KA1999M+01641MA1999999089551MD1610071+9999ME1314439REMSYN082AAXX  05184 08213 12580 52008 10140 20054 38955 48443 56007 60032 83542 333 10164;
0240082130999992000050606004+40950-004120FM-12+100599999V0200901N001512200019N0150001N1+00841+00681999999ADDAA112002091AY161061AY221061GF103991011061008001051001IA1119IA2999+00509KA1120N+00791MA1999999089711MD1710031+9999ME1314499MW1021REMSYN100AAXX  06064 08213 11565 30903 10084 20068 38971 48449 57003 60022 70262 81650 333 20079 32005 55069;
0232082130999992000050612004+40950-004120FM-12+100599999V0202401N002610075019N0150001N1+01371+00761999999ADDAA199000091AY121061AY221061GA1021+008009099GF108991061091008001061999MA1999999089671MD1710031+9999ME1314549MW1151REMSYN088AAXX  06124 08213 31565 82405 10137 20076 38967 48454 57003 71522 8696/ 333 50280 82995;EQDQ01  00002PRCP99
0232082130999992000050618004+40950-004120FM-12+100599999V0203301N001510360019N0300001N1+01401+00791999999ADDAA112002091AY181061AY221061GA1011+008009099GF107991041091008001091011KA1120M+01701MA1999999089551MD1410001+9999ME1314439MW1021REMSYN094AAXX  06184 08213 11580 73303 10140 20079 38955 48443 54000 60022 70282 84991 333 10170 81995;
0240082130999992000050706004+40950-004120FM-12+100599999V0209999C000010360019N0200001N1+00811+00621999999ADDAA112000391AY181061AY221061GF107991031061008001091011IA1119IA2999+00409KA1120N+00751MA1999999089671MD1110031+9999ME1314459MW1601REMSYN100AAXX  07064 08213 11570 70000 10081 20062 38967 48445 51003 69932 76082 83691 333 20075 32004 55071;
0219082130999992000050712004+40950-004120FM-12+100599999V0203001N005710360019N0120001N1+01301+00601999999ADDAA106000791AY151061AY221061GA1011+008009099GF107991041031008001031011MA1999999089831MD1210041+9999ME1314679MW1151REMSYN094AAXX  07124 08213 11562 73011 10130 20060 38983 48467 52004 69901 71552 84331 333 50300 81995;
0232082130999992000050718004+40950-004120FM-12+100599999V0202101N004110360019N0200001N1+01401+00561999999ADDAA112001091AY181061AY221061GA1011+008009099GF106991031091008001061021KA1120M+01531MA1999999089751MD1610041+9999ME1314619MW1021REMSYN094AAXX  07184 08213 11570 62108 10140 20056 38975 48461 56004 69992 70282 83962 333 10153 81995;
0225082130999992000050806004+40950-004120FM-12+100599999V0201501N001510360019N0180001N1+00801+00501999999ADDAA199000091GF106991031021008001041041IA1119IA2999+00209KA1120N+00721MA1999999089991MD1110051+9999ME1314749REMSYN088AAXX  08064 08213 32568 61503 10080 20050 38999 48474 51005 83244 333 20072 32002 55043;EQDQ01  00002PRCP99
0197082130999992000050812004+40950-004120FM-12+100599999V0201701N003610120019N0180001N1+01441+00461999999ADDAA106000191AY161061AY221061GF107991051081008001001041MA1999999090071MD1410001+9999ME1314929MW1021REMSYN088AAXX  08124 08213 11568 71707 10144 20046 39007 48492 54000 69911 70262 85804 333 50160;
0210082130999992000050818004+40950-004120FM-12+100599999V0201401N004110120019N0180001N1+01361+00511999999ADDAA112000891AY181061AY221061GF107991051081008001001041KA1999M+01561MA1999999089951MD1710031+9999ME1314799MW1021REMSYN088AAXX  08184 08213 11568 71408 10136 20051 38995 48479 57003 69972 70282 85804 333 10156;
0212082130999992000050906004+40950-004120FM-12+100599999V0200801N001510120019N0180001N1+00841+00721999999ADDAA112000191GF107991071081008001001001IA1099IA2999+00509KA1120N+00801MA1999999089991MD1710031+9999ME1314759REMSYN094AAXX  09064 08213 12568 70803 10084 20072 38999 48475 57003 69912 87800 333 20080 31005 55072;
0197082130999992000050912004+40950-004120FM-12+100599999V0201201N002610075019N0180001N1+01461+00491999999ADDAA106000191AY161061AY221061GF106991051021008001001041MA1999999089991MD1010001+9999ME1314859MW1021REMSYN088AAXX  09124 08213 11568 61205 10146 20049 38999 48485 50000 69911 70262 85204 333 50240;
0210082130999992000050918004+40950-004120FM-12+100599999V0202701N002110120019N0180001N1+01281+00821999999ADDAA112000391AY161061AY221061GF107991071081008001001001KA1999M+01581MA1999999089861MD1510001+9999ME1314709MW1021REMSYN088AAXX  09184 08213 11568 72704 10128 20082 38986 48470 55000 69932 70262 87800 333 10158;
0225082130999992000051006004+40950-004120FM-12+100599999V0202001N001010900019N0180001N1+00561+00431999999ADDAA199000091GF106991011041008001041041IA1099IA2999+00209KA1120N+00561MA1999999089871MD1710031+9999ME1314599REMSYN088AAXX  10064 08213 32568 62002 10056 20043 38987 48459 57003 81444 333 20056 31002 55029;EQDQ01  00002PRCP99
0169082130999992000051012004+40950-004120FM-12+100599999V0201301N003610075019N0180001N1+01241+00641999999ADDAA106000191GF108991051051008001021999MA1999999089941MD1010001+9999ME1314779REMSYN082AAXX  10124 08213 11568 81307 10124 20064 38994 48477 50000 69911 8552/ 333 50190;
0210082130999992000051018004+40950-004120FM-12+100599999V0201801N002110120019N0180001N1+01281+00601999999ADDAA112000891AY161061AY221061GF107991071081008001001001KA1999M+01541MA1999999089831MD1010001+9999ME1314679MW1021REMSYN088AAXX  10184 08213 11568 71804 10128 20060 38983 48467 50000 69972 70262 87800 333 10154;
0240082130999992000051106004+40950-004120FM-12+100599999V0209999C000010120019N0180001N1+00901+00781999999ADDAA112000591AY161061AY221061GF107991071081008001001001IA1119IA2999+00509KA1120N+00841MA1999999090071MD1210031+9999ME1314839MW1021REMSYN100AAXX  11064 08213 11568 70000 10090 20078 39007 48483 52003 69942 70262 87800 333 20084 32005 55040;
0182082130999992000051112004+40950-004120FM-12+100599999V0202801N002110120019N0180001N1+01341+00671999999ADDAA199000091GF107991071081008001001001MA1999999090151MD1010001+9999ME1314989REMSYN076AAXX  11124 08213 32568 72804 10134 20067 39015 48498 50000 87800 333 50420;EQDQ01  00002PRCP99
0210082130999992000051118004+40950-004120FM-12+100599999V0203101N002110075019N0180001N1+01221+00801999999ADDAA112000791AY161061AY221061GF107991071021008001001001KA1999M+01681MA1999999090231MD1110081+9999ME1315039MW1021REMSYN088AAXX  11184 08213 11568 73104 10122 20080 39023 48503 51008 69902 70262 87200 333 10168;
0225082130999992000051206004+40950-004120FM-12+100599999V0201001N001510360019N0120001N1+00781+00481999999ADDAA199000091GF106991021081008001041091IA1099IA2999+00209KA1120N+00781MA1999999090301MD1410001+9999ME1315019REMSYN088AAXX  12064 08213 32562 61003 10078 20048 39030 48501 54000 82849 333 20078 31002 55046;EQDQ01  00002PRCP99
0182082130999992000051212004+40950-004120FM-12+100599999V0201701N001010360019N0150001N1+01681+00911999999ADDAA199000091GF106991031081008001031081MA1999999090351MD1010001+9999ME1315239REMSYN076AAXX  12124 08213 32565 61702 10168 20091 39035 48523 50000 83838 333 50210;EQDQ01  00002PRCP99
0195082130999992000051218004+40950-004120FM-12+100599999V0202001N004112200019N0200001N1+01851+00331999999ADDAA199000091GF102991021041008001001001KA1999M+02041MA1999999090271MD1610031+9999ME1315179REMSYN076AAXX  12184 08213 32570 22008 10185 20033 39027 48517 56003 82400 333 10204;EQDQ01  00002PRCP99
0225082130999992000051306004+40950-004120FM-12+100599999V0200801N001012200019N0100001N1+01081+00771999999ADDAA199000091GF102991001001999999001081IA1099IA2999+00209KA1120N+00921MA1999999090551MD1310041+9999ME1315309REMSYN088AAXX  13064 08213 32960 20802 10108 20077 39055 48530 53004 80008 333 20092 31002 55085;EQDQ01  00002PRCP99
0182082130999992000051312004+40950-004120FM-12+100599999V0200501N001512200019N0120001N1+02121+00991999999ADDAA199000091GF104991021011008001001081MA1999999090591MD1810041+9999ME1315539REMSYN076AAXX  13124 08213 32562 40503 10212 20099 39059 48553 58004 82108 333 50400;EQDQ01  00002PRCP99
0195082130999992000051318004+40950-004120FM-12+100599999V0202801N002612200019N0200001N1+02201+00821999999ADDAA199000091GF104991021021008001001081KA1999M+02321MA1999999090511MD1610041+9999ME1315479REMSYN076AAXX  13184 08213 32570 42805 10220 20082 39051 48547 56004 82208 333 10232;EQDQ01  00002PRCP99
0225082130999992000051406004+40950-004120FM-12+100599999V0200801N001512200019N0250001N1+01291+00871999999ADDAA199000091GF102991001001999999001011IA1099IA2999+00509KA1120N+01171MA1999999090541MD1710031+9999ME1314339REMSYN088AAXX  14064 08213 32975 20803 10129 20087 39054 48433 57003 80001 333 20117 31005 55137;EQDQ01  00002PRCP99
0182082130999992000051412004+40950-004120FM-12+100599999V0202301N004112200019N0250001N1+02421+00881999999ADDAA199000091GF103991011051008001001011MA1999999090551MD1810041+9999ME1315559REMSYN076AAXX  14124 08213 32575 32308 10242 20088 39055 48555 58004 81501 333 50530;EQDQ01  00002PRCP99
0195082130999992000051418004+40950-004120FM-12+100599999V0202201N003112200019N0200001N1+02361+00821999999ADDAA199000091GF102991011051008001001011KA1999M+02561MA1999999090391MD1710081+9999ME1315389REMSYN076AAXX  14184 08213 32570 22206 10236 20082 39039 48538 57008 81501 333 10256;EQDQ01  00002PRCP99
0225082130999992000051506004+40950-004120FM-12+100599999V0201401N003112200019N0200001N1+01741+00761999999ADDAA199000091GF101991001001999999001011IA1019IA2999+00709KA1120N+01481MA1999999090381MD1410001+9999ME1315269REMSYN088AAXX  15064 08213 32970 11406 10174 20076 39038 48526 54000 80001 333 20148 30007 55135;EQDQ01  00002PRCP99
0182082130999992000051512004+40950-004120FM-12+100599999V0202101N001512200019N0250001N1+02641+00791999999ADDAA199000091GF102991011051008001001011MA1999999090431MD1810041+9999ME1315479REMSYN076AAXX  15124 08213 32575 22103 10264 20079 39043 48547 58004 81501 333 50500;EQDQ01  00002PRCP99
0217082130999992000051518004+40950-004120FM-12+100599999V0201501N003612200019N0180001N1+02361+00941999999ADDAA199000091GA1011+008009099GF102991011031008001001021KA1120M+02771MA1999999090311MD1710041+9999ME1315319REMSYN082AAXX  15184 08213 32568 21507 10236 20094 39031 48531 57004 81302 333 10277 81995;EQDQ01  00002PRCP99
0253082130999992000051606004+40950-004120FM-12+100599999V0201201N007212200019N0150001N1+02021-00061999999ADDAA199000091AY111061AY211061GF104991021051008001081011IA1019IA2999+01009KA1120N+01761MA1999999090191MD1710061+9999ME1315129MW1151REMSYN094AAXX  16064 08213 31565 41214 10202 21006 39019 48512 57006 71511 82581 333 20176 30010 55121;EQDQ01  00002PRCP99
0191082130999992000051612004+40950-004120FM-12+100599999V0200801N001510360019N0200001N1+02461+00871999999ADDAA106000791GA1011+008009099GF105991031091008001081021MA1999999090271MD1710231+9999ME1315299REMSYN088AAXX  16124 08213 12570 50803 10246 20087 39027 48529 57023 69901 83982 333 50710 81995;
0232082130999992000051618004+40950-004120FM-12+100599999V0202201N003610360019N0150001N1+02281+00851999999ADDAA112000791AY121061AY221061GA1021+008009099GF105991041091008001061021KA1120M+02551MA1999999090191MD1610071+9999ME1315189MW1151REMSYN094AAXX  16184 08213 11565 52207 10228 20085 39019 48518 56007 69902 71522 84962 333 10255 82995;
0212082130999992000051706004+40950-004120FM-12+100599999V0200701N002612200019N0120001N1+01261+00941999999ADDAA112000791GF104991031051008001061001IA1019IA2999+00709KA1120N+01121MA1999999090271MD1310041+9999ME1315089REMSYN094AAXX  17064 08213 12562 40705 10126 20094 39027 48508 53004 69902 83560 333 20112 30007 55062;
0204082130999992000051712004+40950-004120FM-12+100599999V0203001N003112200019N0120001N1+02081+01331999999ADDAA199000091GA1011+008009099GF102991021031008001001001MA1999999090311MD1810041+9999ME1315279REMSYN082AAXX  17124 08213 32562 23006 10208 20133 39031 48527 58004 82300 333 50420 81995;EQDQ01  00002PRCP99
0232082130999992000051718004+40950-004120FM-12+100599999V0203201N003612200019N0180001N1+02051+01141999999ADDAA112000191AY181061AY221061GA1011+008009099GF104991031031008001061001KA1120M+02271MA1999999090271MD1410001+9999ME1315229MW1031REMSYN094AAXX  17184 08213 11568 43207 10205 20114 39027 48522 54000 69912 70382 83360 333 10227 81995;
0182082130999992000051812004+40950-004120FM-12+100599999V0202701N001512200019N0120001N1+02121+00831999999ADDAA199000091GF103991021011008001001081MA1999999090271MD1810031+9999ME1315239REMSYN076AAXX  18124 08213 32562 32703 10212 20083 39027 48523 58003 82108 333 50150;EQDQ01  00002PRCP99
0195082130999992000051818004+40950-004120FM-12+100599999V0203101N002112200019N0200001N1+02281+00651999999ADDAA199000091GF103991011021008001001021KA1999M+02361MA1999999090111MD1810071+9999ME1315109REMSYN076AAXX  18184 08213 32570 33104 10228 20065 39011 48510 58007 81202 333 10236;EQDQ01  00002PRCP99
0225082130999992000051906004+40950-004120FM-12+100599999V0209999C000012200019N0300001N1+01141+00751999999ADDAA199000091GF103991011001017501041081IA1019IA2999+00409KA1120N+01081MA1999999090111MD1410001+9999ME1314919REMSYN088AAXX  19064 08213 32780 30000 10114 20075 39011 48491 54000 81048 333 20108 30004 55127;EQDQ01  00002PRCP99
0182082130999992000051912004+40950-004120FM-12+100599999V0203101N002112200019N0300001N1+01961+01051999999ADDAA199000091GF101991011021008001001001MA1999999090231MD1410001+9999ME1315169REMSYN076AAXX  19124 08213 32580 13104 10196 20105 39023 48516 54000 81200 333 50530;EQDQ01  00002PRCP99
0195082130999992000051918004+40950-004120FM-12+100599999V0203601N001512200019N0300001N1+02181+00701999999ADDAA199000091GF101991011021008001001001KA1999M+02301MA1999999090021MD1810081+9999ME1315009REMSYN076AAXX  19184 08213 32580 13603 10218 20070 39002 48500 58008 81200 333 10230;EQDQ01  00002PRCP99
0225082130999992000052006004+40950-004120FM-12+100599999V0209999C000012200019N0120001N1+01121+00891999999ADDAA199000091GF104991021041008001031081IA1099IA2999+00309KA1120N+00981MA1999999089871MD1410001+9999ME1314689REMSYN088AAXX  20064 08213 32562 40000 10112 20089 38987 48468 54000 82438 333 20098 31003 55120;EQDQ01  00002PRCP99
0198082130999992000052012004+40950-004120FM-12+100599999V0203501N001510075019N0120001N1+02081+99999999999ADDAA199000091GA1021+008009099GF106991051031008001001081MA1999999089781MD1810081+9999ME1314769REMSYN076AAXX  20124 08213 32562 63503 10208 38978 48476 58008 85308 333 50460 82995;EQDQ01  00002PRCP99
0232082130999992000052018004+40950-004120FM-12+100599999V0200301N001510360019N0100001N1+01831+01151999999ADDAA112003091AY191061AY281061GA1021+008009099GF105991031091008001031081KA1120M+02401MA1999999089661MD1810011+9999ME1314619MW1151REMSYN094AAXX  20184 08213 11560 50303 10183 20115 38966 48461 58001 60032 71598 83938 333 10240 82995;
0255082130999992000052106004+40950-004120FM-12+100599999V0201901N002112200019N0120001N1+01201+01091999999ADDAA199000091GA1021+008009099GF103991031091008001001001GJ104149IA1099IA2999+00809KA1120N+01191MA1999999089791MD1110021+9999ME1314639REMSYN094AAXX  21064 08213 32562 31904 10120 20109 38979 48463 51002 83900 333 20119 31008 55069 82995;EQDQ01  00002PRCP99
0197082130999992000052112004+40950-004120FM-12+100599999V0202401N005110075019N0160001N1+01641+01231999999ADDAA106000391AY161061AY221061GF108991051071008001021999MA1999999089941MD1110081+9999ME1314849MW1021REMSYN088AAXX  21124 08213 11566 82410 10164 20123 38994 48484 51008 69931 70262 8572/ 333 50300;
0210082130999992000052118004+40950-004120FM-12+100599999V0201501N002110360019N0060001N1+01321+01101999999ADDAA112004191AY161061AY261061GF108991031071008001021999KA1999M+01801MA1999999090101MD1210081+9999ME1314939MW1611REMSYN088AAXX  21184 08213 11556 81504 10132 20110 39010 48493 52008 60042 76166 8372/ 333 10180;
0240082130999992000052206004+40950-004120FM-12+100599999V0209999C000010075019N0080001N1+01021+00981999999ADDAA112007191AY121061AY221061GF108991081061008001999999IA1119IA2999+00709KA1120N+00961MA1999999090351MD1210071+9999ME1315119MW1101REMSYN100AAXX  22064 08213 11558 80000 10102 20098 39035 48511 52007 60072 71022 886// 333 20096 32007 55008;
0182082130999992000052212004+40950-004120FM-12+100599999V0203401N001012200019N0200001N1+01721+00871999999ADDAA199000091GF102991011051008001031001MA1999999090511MD1110041+9999ME1315389REMSYN076AAXX  22124 08213 32570 23402 10172 20087 39051 48538 51004 81530 333 50200;EQDQ01  00002PRCP99
0245082130999992000052218004+40950-004120FM-12+100599999V0203201N003112200019N0250001N1+01631+00961999999ADDAA199000091AY111061AY211061GA1011+008009099GF104991031091008001061021KA1120M+01961MA1999999090431MD1510001+9999ME1315299MW1151REMSYN088AAXX  22184 08213 31575 43206 10163 20096 39043 48529 55000 71511 83962 333 10196 81995;EQDQ01  00002PRCP99
0204082130999992000052312004+40950-004120FM-12+100599999V0203001N002612200019N0250001N1+02001+00921999999ADDAA199000091GA1011+008009099GF102991011031008001001021MA1999999090591MD1810041+9999ME1315519REMSYN082AAXX  23124 08213 32575 23005 10200 20092 39059 48551 58004 81302 333 50450 81995;EQDQ01  00002PRCP99
0195082130999992000052318004+40950-004120FM-12+100599999V0202501N001510900019N0250001N1+02011+00871999999ADDAA199000091GF105991021021008001061021KA1999M+02221MA1999999090471MD1810121+9999ME1315409REMSYN076AAXX  23184 08213 32575 52503 10201 20087 39047 48540 58012 82262 333 10222;EQDQ01  00002PRCP99
0235082130999992000052406004+40950-004120FM-12+100599999V0200801N001512200019N0200001N1+01191+00781999999ADDAA199000091GA1001+999999999GF100991001001999999001001IA1099IA2999+00409KA1120N+01001MA1999999090541MD1310031+9999ME1315319REMSYN082AAXX  24064 08213 32970 00803 10119 20078 39054 48531 53003 333 20100 31004 55118;EQDQ01  00002PRCP99
0232082130999992000052412004+40950-004120FM-12+100599999V0202901N002112200019N0200001N1+02071+01011999999ADDAA199000091AY101061AY201061GA1011+008009099GF103991031031008001001011MA1999999090541MD1810041+9999ME1315489MW1151REMSYN088AAXX  24124 08213 31570 32904 10207 20101 39054 48548 58004 71500 83301 333 50390 81995;EQDQ01  00002PRCP99
0217082130999992000052418004+40950-004120FM-12+100599999V0202901N004112200019N0250001N1+02031+00941999999ADDAA199000091GA1011+008009099GF104991021031008001061021KA1120M+02281MA1999999090421MD1610011+9999ME1315359REMSYN082AAXX  24184 08213 32575 42908 10203 20094 39042 48535 56001 82362 333 10228 81995;EQDQ01  00002PRCP99
0253082130999992000052506004+40950-004120FM-12+100599999V0202301N001512200019N0080001N1+01041+00851999999ADDAA199000091AY101061AY201061GF103991011061008001071001IA1019IA2999+00709KA1120N+01031MA1999999090661MD1410001+9999ME1315399MW1101REMSYN094AAXX  25064 08213 31558 32303 10104 20085 39066 48539 54000 71000 81670 333 20103 30007 55119;EQDQ01  00002PRCP99
0182082130999992000052512004+40950-004120FM-12+100599999V0203001N001010360019N0160001N1+01821+01081999999ADDAA199000091GF106991031051008001051001MA1999999090671MD1810041+9999ME1315559REMSYN076AAXX  25124 08213 32566 63002 10182 20108 39067 48555 58004 83550 333 50380;EQDQ01  00002PRCP99
0217082130999992000052518004+40950-004120FM-12+100599999V0203201N001512200019N0300001N1+02001+01241999999ADDAA199000091GA1011+008009099GF104991031031008001041011KA1120M+02121MA1999999090541MD1710051+9999ME1315479REMSYN082AAXX  25184 08213 32580 43203 10200 20124 39054 48547 57005 83341 333 10212 81995;EQDQ01  00002PRCP99
0253082130999992000052606004+40950-004120FM-12+100599999V0209999C000010360019N0060001N1+01241+01131999999ADDAA199000091AY121061AY221061GF108991041061008001071081IA1099IA2999+00609KA1120N+01141MA1999999090501MD1610031+9999ME1315299MW1101REMSYN094AAXX  26064 08213 31556 80000 10124 20113 39050 48529 56003 71022 84678 333 20114 31006 55054;EQDQ01  00002PRCP99
0182082130999992000052612004+40950-004120FM-12+100599999V0202601N003610075019N0200001N1+01981+01151999999ADDAA199000091GF105991051041008001001001MA1999999090471MD1810041+9999ME1315409REMSYN076AAXX  26124 08213 32570 52607 10198 20115 39047 48540 58004 85400 333 50360;EQDQ01  00002PRCP99
0210082130999992000052618004+40950-004120FM-12+100599999V0202601N002610075019N0070001N1+01421+01251999999ADDAA112002091AY161061AY221061GF108991061071008001071081KA1999M+01981MA1999999090391MD1510041+9999ME1315229MW1811REMSYN088AAXX  26184 08213 11557 82605 10142 20125 39039 48522 55004 60022 78162 86778 333 10198;
0240082130999992000052706004+40950-004120FM-12+100599999V0202801N001510360019N0060001N1+00961+00921999999ADDAA112003091AY161061AY221061GF106991041071004501031091IA1099IA2999+00609KA1120N+00961MA1999999090661MD1310131+9999ME1315389MW1101REMSYN100AAXX  27064 08213 11456 62803 10096 20092 39066 48538 53013 60032 71062 84739 333 20096 31006 55028;
0182082130999992000052712004+40950-004120FM-12+100599999V0202601N002112200019N0200001N1+01681+00581999999ADDAA199000091GF104991011011008001041081MA1999999090511MD1810121+9999ME1315379REMSYN076AAXX  27124 08213 32570 42604 10168 20058 39051 48537 58012 81148 333 50240;EQDQ01  00002PRCP99
0195082130999992000052718004+40950-004120FM-12+100599999V0202701N004610900019N0200001N1+01901-00151999999ADDAA199000091GF107991031001017501041081KA1999M+02141MA1999999090351MD1610081+9999ME1315259REMSYN076AAXX  27184 08213 32770 72709 10190 21015 39035 48525 56008 83048 333 10214;EQDQ01  00002PRCP99
0225082130999992000052806004+40950-004120FM-12+100599999V0202101N002110360019N0150001N1+01221+00661999999ADDAA199000091GF107991041051008001041091IA1019IA2999+00909KA1120N+01051MA1999999090511MD1310051+9999ME1315299REMSYN088AAXX  28064 08213 32565 72104 10122 20066 39051 48529 53005 84549 333 20105 30009 55076;EQDQ01  00002PRCP99
0182082130999992000052812004+40950-004120FM-12+100599999V0202601N003610075019N0200001N1+01501+01111999999ADDAA199000091GF108991051051008001071081MA1999999090631MD1110051+9999ME1315469REMSYN076AAXX  28124 08213 32570 82607 10150 20111 39063 48546 51005 85578 333 50460;EQDQ01  00002PRCP99
0225082130999992000052906004+40950-004120FM-12+100599999V0202301N002610360019N0120001N1+01301+01121999999ADDAA199000091GF108991031071008001021999IA1019IA2999+01109KA1120N+01291MA1999999090871MD1210031+9999ME1315649REMSYN088AAXX  29064 08213 32562 82305 10130 20112 39087 48564 52003 8372/ 333 20129 30011 55000;EQDQ01  00002PRCP99
0182082130999992000052912004+40950-004120FM-12+100599999V0202601N001510075019N0180001N1+01861+01281999999ADDAA199000091GF107991071021008001001001MA1999999090991MD1010001+9999ME1315869REMSYN076AAXX  29124 08213 32568 72603 10186 20128 39099 48586 50000 87200 333 50100;EQDQ01  00002PRCP99
0195082130999992000052918004+40950-004120FM-12+100599999V0203101N002612200019N0300001N1+02341+01191999999ADDAA199000091GF101991011021008001001001KA1999M+02381MA1999999090831MD1710041+9999ME1315819REMSYN076AAXX  29184 08213 32580 13105 10234 20119 39083 48581 57004 81200 333 10238;EQDQ01  00002PRCP99
0235082130999992000053006004+40950-004120FM-12+100599999V0200801N000512200019N0300001N1+01341+01091999999ADDAA199000091GA1001+999999999GF100991001001999999001001IA1019IA2999+00609KA1120N+01201MA1999999090871MD1710031+9999ME1315659REMSYN082AAXX  30064 08213 32980 00801 10134 20109 39087 48565 57003 333 20120 30006 55084;EQDQ01  00002PRCP99
0182082130999992000053012004+40950-004120FM-12+100599999V0202901N002612200019N0300001N1+02461+01051999999ADDAA199000091GF101991011021008001001001MA1999999090871MD1810041+9999ME1315869REMSYN076AAXX  30124 08213 32580 12905 10246 20105 39087 48586 58004 81200 333 50440;EQDQ01  00002PRCP99
0195082130999992000053018004+40950-004120FM-12+100599999V0203401N002112200019N0300001N1+02681+00751999999ADDAA199000091GF101991011021008001001001KA1999M+02791MA1999999090671MD1710081+9999ME1315719REMSYN076AAXX  30184 08213 32580 13404 10268 20075 39067 48571 57008 81200 333 10279;EQDQ01  00002PRCP99
0225082130999992000053106004+40950-004120FM-12+100599999V0200901N002119999999N0300001N1+01441+00831999999ADDAA199000091GF106991001001999999001041IA1019IA2999+00609KA1120N+01301MA1999999090831MD1610051+9999ME1315629REMSYN088AAXX  31064 08213 32980 60904 10144 20083 39083 48562 56005 80004 333 20130 30006 55144;EQDQ01  00002PRCP99
0182082130999992000053112004+40950-004120FM-12+100599999V0202601N001512200019N0200001N1+02661+00871999999ADDAA199000091GF102991011021008001001041MA1999999090861MD1810011+9999ME1315899REMSYN076AAXX  31124 08213 32570 22603 10266 20087 39086 48589 58001 81204 333 50640;EQDQ01  00002PRCP99
0195082130999992000053118004+40950-004120FM-12+100599999V0203401N001012200019N0200001N1+02921+00481999999ADDAA199000091GF103991011021008001001041KA1999M+02941MA1999999090711MD1610081+9999ME1315799REMSYN076AAXX  31184 08213 32570 33402 10292 20048 39071 48579 56008 81204 333 10294;EQDQ01  00002PRCP99
0235082130999992000060106004+40950-004120FM-12+100599999V0201001N001012200019N0300001N1+01861+01211999999ADDAA199000091GA1001+999999999GF100991001001999999001001IA1019IA2999+01009KA1120N+01721MA1999999090701MD1610041+9999ME1315599REMSYN082AAXX  01064 08213 32980 01002 10186 20121 39070 48559 56004 333 20172 30010 55137;EQDQ01  00002PRCP99
0219082130999992000060112004+40950-004120FM-12+100599999V0201501N004610900019N0200001N1+01881+01191999999ADDAA106002091AY191061AY261061GA1021+008009099GF106991041091008001001021MA1999999090791MD1310081+9999ME1315689MW1031REMSYN094AAXX  01124 08213 11570 61509 10188 20119 39079 48568 53008 60021 70396 84902 333 50720 82995;
0204082130999992000060118004+40950-004120FM-12+100599999V0200401N002612200019N0200001N1+02401+01151999999ADDAA112002091GA1011+008009099GF103991021091008001041001KA1120M+02941MA1999999090661MD1710011+9999ME1315659REMSYN088AAXX  01184 08213 12570 30405 10240 20115 39066 48565 57001 60022 82940 333 10294 81995;
0240082130999992000060206004+40950-004120FM-12+100599999V0201401N007212200019N0150001N1+02061+00861999999ADDAA112003091AY191061AY261061GF103991021011008001001011IA1019IA2999+01109KA1120N+01501MA1999999090591MD1510001+9999ME1315529MW1021REMSYN100AAXX  02064 08213 11565 31414 10206 20086 39059 48552 55000 60032 70296 82101 333 20150 30011 55122;
0182082130999992000060212004+40950-004120FM-12+100599999V0202201N004112200019N0150001N1+02701+00731999999ADDAA199000091GF103991021021008001001011MA1999999090631MD1110011+9999ME1315679REMSYN076AAXX  02124 08213 32565 32208 10270 20073 39063 48567 51001 82201 333 50520;EQDQ01  00002PRCP99
0195082130999992000060218004+40950-004120FM-12+100599999V0202301N004112200019N0200001N1+02661+00771999999ADDAA199000091GF102991011011008001001011KA1999M+02841MA1999999090471MD1810081+9999ME1315519REMSYN076AAXX  02184 08213 32570 22308 10266 20077 39047 48551 58008 81101 333 10284;EQDQ01  00002PRCP99
0225082130999992000060306004+40950-004120FM-12+100599999V0200801N001512200019N0150001N1+01741+00901999999ADDAA199000091GF105991011001017501041091IA1019IA2999+00809KA1120N+01481MA1999999090341MD1610031+9999ME1315239REMSYN088AAXX  03064 08213 32765 50803 10174 20090 39034 48523 56003 81049 333 20148 30008 55137;EQDQ01  00002PRCP99
0182082130999992000060312004+40950-004120FM-12+100599999V0202201N002110900019N0150001N1+02761+00721999999ADDAA199000091GF105991011011008001041081MA1999999090341MD1810011+9999ME1315419REMSYN076AAXX  03124 08213 32565 52204 10276 20072 39034 48541 58001 81148 333 50780;EQDQ01  00002PRCP99
0195082130999992000060318004+40950-004120FM-12+100599999V0202101N003110360019N0150001N1+02481+00801999999ADDAA199000091GF106991021021008001041081KA1999M+02861MA1999999090261MD1610011+9999ME1315289REMSYN076AAXX  03184 08213 32565 62106 10248 20080 39026 48528 56001 82248 333 10286;EQDQ01  00002PRCP99
0283082130999992000060406004+40950-004120FM-12+100599999V0202301N004110360019N0120001N1+01571+01011999999ADDAA199000091AY121061AY221061GA1021+008009099GF106991041091008001061011GJ105889IA1019IA2999+00709KA1120N+01371MA1999999090301MD1310071+9999ME1315169MW1151REMSYN100AAXX  04064 08213 31562 62308 10157 20101 39030 48516 53007 71522 84961 333 20137 30007 55098 82995;EQDQ01  00002PRCP99
0219082130999992000060412004+40950-004120FM-12+100599999V0203101N003112200019N0200001N1+01761+01321999999ADDAA106007191AY191061AY261061GA1011+008009099GF104991021031008001061001MA1999999090151MD1810201+9999ME1315069MW1031REMSYN094AAXX  04124 08213 11570 43106 10176 20132 39015 48506 58020 60071 70396 82360 333 50650 81995;
0210082130999992000060418004+40950-004120FM-12+100599999V0201101N001512200019N0250001N1+01861+01051999999ADDAA112013091AY181061AY261061GF104991011021008001051011KA1999M+01971MA1999999090231MD1010001+9999ME1315159MW1031REMSYN088AAXX  04184 08213 11575 41103 10186 20105 39023 48515 50000 60132 70386 81251 333 10197;
0277082130999992000060506004+40950-004120FM-12+100599999V0202801N003110009019N0008001N1+01201+01161999999ADDAA199000091AY121061AY221061GA1091+000909999GF109991091999999999999999GJ102889IA1099IA2999+00809KA1120N+01191MA1999999090351MD1510031+9999ME1315149MW1431REMSYN094AAXX  05064 08213 31/08 92806 10120 20116 39035 48514 55003 74322 333 20119 31008 55048 89/03;EQDQ01  00002PRCP99
0204082130999992000060518004+40950-004120FM-12+100599999V0200101N003112200019N0150001N1+01691+00741999999ADDAA112000791GA1011+008009099GF102991011091008001061001KA1120M+01961MA1999999090511MD1310081+9999ME1315379REMSYN088AAXX  05184 08213 12565 20106 10169 20074 39051 48537 53008 69902 81960 333 10196 81995;
0253082130999992000060606004+40950-004120FM-12+100599999V0201601N000510075019N0030001N1+00721+00551999999ADDAA199000091AY121061AY221061GF105991051061008001001001IA1099IA2999+00309KA1120N+00601MA1999999090951MD1210101+9999ME1315599MW1401REMSYN094AAXX  06064 08213 31530 51601 10072 20055 39095 48559 52010 74022 85600 333 20060 31003 55090;EQDQ01  00002PRCP99
0182082130999992000060612004+40950-004120FM-12+100599999V0203601N001512200019N0300001N1+01651+00321999999ADDAA199000091GF101991011011008001001011MA1999999091071MD1110011+9999ME1315889REMSYN076AAXX  06124 08213 32580 13603 10165 20032 39107 48588 51001 81101 333 50210;EQDQ01  00002PRCP99
0205082130999992000060618004+40950-004120FM-12+100599999V0200201N002112200019N0300001N1+01941-00011999999ADDAA199000091GA1001+999999999GF100991001001999999001001KA1999M+02071MA1999999090951MD1710081+9999ME1315829REMSYN070AAXX  06184 08213 32980 00204 10194 21001 39095 48582 57008 333 10207;EQDQ01  00002PRCP99
0235082130999992000060706004+40950-004120FM-12+100599999V0200801N001012200019N0150001N1+01061+00521999999ADDAA199000091GA1001+999999999GF100991001001999999001001IA1099IA2999+00109KA1120N+00761MA1999999090901MD1610111+9999ME1315619REMSYN082AAXX  07064 08213 32965 00802 10106 20052 39090 48561 56011 333 20076 31001 55128;EQDQ01  00002PRCP99
0192082130999992000060712004+40950-004120FM-12+100599999V0200401N002112200019N0150001N1+02081+00601999999ADDAA199000091GA1001+999999999GF100991001001999999001001MA1999999090781MD1810091+9999ME1315709REMSYN070AAXX  07124 08213 32965 00404 10208 20060 39078 48570 58009 333 50630;EQDQ01  00002PRCP99
0205082130999992000060718004+40950-004120FM-12+100599999V0203601N001012200019N0250001N1+02441+00401999999ADDAA199000091GA1001+999999999GF100991001001999999001001KA1999M+02501MA1999999090501MD1710091+9999ME1315509REMSYN070AAXX  07184 08213 32975 03602 10244 20040 39050 48550 57009 333 10250;EQDQ01  00002PRCP99
0235082130999992000060806004+40950-004120FM-12+100599999V0200901N001012200019N0150001N1+01421+00581999999ADDAA199000091GA1001+999999999GF100991001001999999001001IA1099IA2999+00409KA1120N+01141MA1999999090151MD1610081+9999ME1314999REMSYN082AAXX  08064 08213 32965 00902 10142 20058 39015 48499 56008 333 20114 31004 55144;EQDQ01  00002PRCP99
0182082130999992000060812004+40950-004120FM-12+100599999V0202101N005112200019N0150001N1+02661+00171999999ADDAA199000091GF101991011011008001001001MA1999999090071MD1710081+9999ME1315129REMSYN076AAXX  08124 08213 32565 12110 10266 20017 39007 48512 57008 81100 333 50620;EQDQ01  00002PRCP99
0195082130999992000060818004+40950-004120FM-12+100599999V0202001N003610900019N0150001N1+02501+00511999999ADDAA199000091GF105991021021008001081021KA1999M+02801MA1999999089741MD1710161+9999ME1314789REMSYN076AAXX  08184 08213 32565 52007 10250 20051 38974 48478 57016 82282 333 10280;EQDQ01  00002PRCP99
0225082130999992000060906004+40950-004120FM-12+100599999V0202401N002610360019N0160001N1+00941+00431999999ADDAA199000091GF107991021041008001071071IA1019IA2999+00809KA1120N+00941MA1999999089951MD1310131+9999ME1314729REMSYN088AAXX  09064 08213 32566 72405 10094 20043 38995 48472 53013 82477 333 20094 30008 55126;EQDQ01  00002PRCP99
0182082130999992000060912004+40950-004120FM-12+100599999V0203001N003110075019N0160001N1+01221+00571999999ADDAA199000091GF107991051051008001021001MA1999999090021MD1210031+9999ME1314849REMSYN076AAXX  09124 08213 32566 73006 10122 20057 39002 48484 52003 85520 333 50620;EQDQ01  00002PRCP99
0210082130999992000060918004+40950-004120FM-12+100599999V0201301N005110075019N0160001N1+00781+00611999999ADDAA112003091AY191061AY261061GF108991051051008001021999KA1999M+01401MA1999999090021MD1010081+9999ME1314769MW1611REMSYN088AAXX  09184 08213 11566 81310 10078 20061 39002 48476 50008 60032 76196 8552/ 333 10140;
0212082130999992000061006004+40950-004120FM-12+100599999V0202901N003110075019N0160001N1+00541+00451999999ADDAA112006191GF108991051071008001021999IA1119IA2999+00509KA1120N+00521MA1999999090701MD1210131+9999ME1315339REMSYN094AAXX  10064 08213 12566 82906 10054 20045 39070 48533 52013 60062 8572/ 333 20052 32005 55000;
0182082130999992000061012004+40950-004120FM-12+100599999V0203301N003610075019N0180001N1+01101+00161999999ADDAA199000091GF107991071021008001001001MA1999999090831MD1410001+9999ME1315559REMSYN076AAXX  10124 08213 32568 73307 10110 20016 39083 48555 54000 87200 333 50200;EQDQ01  00002PRCP99
0195082130999992000061018004+40950-004120FM-12+100599999V0203101N004112200019N0180001N1+01601-00291999999ADDAA199000091GF101991011011008001001001KA1999M+01601MA1999999090741MD1810011+9999ME1315569REMSYN076AAXX  10184 08213 32568 13108 10160 21029 39074 48556 58001 81100 333 10160;EQDQ01  00002PRCP99
0225082130999992000061106004+40950-004120FM-12+100599999V0202401N002610075019N0160001N1+00721+00591999999ADDAA199000091GF108991051071008001021999IA1119IA2999+00209KA1120N+00481MA1999999091061MD1210081+9999ME1315699REMSYN088AAXX  11064 08213 32566 82405 10072 20059 39106 48569 52008 8572/ 333 20048 32002 55094;EQDQ01  00002PRCP99
0182082130999992000061112004+40950-004120FM-12+100599999V0203401N001510075019N0180001N1+01581+00591999999ADDAA199000091GF106991061021008001001001MA1999999091151MD1010011+9999ME1315949REMSYN076AAXX  11124 08213 32568 63403 10158 20059 39115 48594 50001 86200 333 50320;EQDQ01  00002PRCP99
0195082130999992000061118004+40950-004120FM-12+100599999V0200101N002110360019N0200001N1+01821+00471999999ADDAA199000091GF107991011021008001041051KA1999M+01961MA1999999091061MD1710011+9999ME1315919REMSYN076AAXX  11184 08213 32570 70104 10182 20047 39106 48591 57001 81245 333 10196;EQDQ01  00002PRCP99
0235082130999992000061206004+40950-004120FM-12+100599999V0200801N001512200019N0300001N1+00821+00121999999ADDAA199000091GA1001+999999999GF100991001001999999001001IA1019IA2999-00109KA1120N+00561MA1999999091231MD1410001+9999ME1315859REMSYN082AAXX  12064 08213 32980 00803 10082 20012 39123 48585 54000 333 20056 30101 55102;EQDQ01  00002PRCP99
0182082130999992000061212004+40950-004120FM-12+100599999V0200601N002112200019N0300001N1+02031-00021999999ADDAA199000091GF101991001001999999001011MA1999999091271MD1810031+9999ME1316149REMSYN076AAXX  12124 08213 32980 10604 10203 21002 39127 48614 58003 80001 333 50360;EQDQ01  00002PRCP99
0195082130999992000061218004+40950-004120FM-12+100599999V0200501N002612200019N0250001N1+02261+00251999999ADDAA199000091GF102991001001999999001021KA1999M+02321MA1999999091031MD1710111+9999ME1315969REMSYN076AAXX  12184 08213 32975 20505 10226 20025 39103 48596 57011 80002 333 10232;EQDQ01  00002PRCP99
0225082130999992000061306004+40950-004120FM-12+100599999V0200701N001012200019N0200001N1+01031+00481999999ADDAA199000091GF101991001001999999001011IA1019IA2999+00109KA1120N+00721MA1999999091031MD1610021+9999ME1315729REMSYN088AAXX  13064 08213 32970 10702 10103 20048 39103 48572 56002 80001 333 20072 30001 55143;EQDQ01  00002PRCP99
0192082130999992000061312004+40950-004120FM-12+100599999V0203401N001012200019N0200001N1+02261+00631999999ADDAA199000091GA1001+999999999GF100991001001999999001001MA1999999091031MD1310011+9999ME1315979REMSYN070AAXX  13124 08213 32970 03402 10226 20063 39103 48597 53001 333 50500;EQDQ01  00002PRCP99
0195082130999992000061318004+40950-004120FM-12+100599999V0200501N003112200019N0250001N1+02551+00771999999ADDAA199000091GF101991011051008001001001KA1999M+02731MA1999999090871MD1710031+9999ME1315889REMSYN076AAXX  13184 08213 32575 10506 10255 20077 39087 48588 57003 81500 333 10273;EQDQ01  00002PRCP99
0263082130999992000061406004+40940-004120FM-12+100599999V0200801N001012200019N0050001N1+01401+00951999999ADDAA199000091AY101061AY201061GA1001+999999999GF100991001001999999001001IA1019IA2999+00509KA1120N+01151MA1999999091031MD1410001+9999ME1315809MW1051REMSYN088AAXX  14064 08213 31950 00802 10140 20095 39103 48580 54000 70500 333 20115 30005 55141;EQDQ01  00002PRCP99
0182082130999992000061412004+40940-004120FM-12+100599999V0200801N000512200019N0180001N1+02631+01151999999ADDAA199000091GF101991011051008001001001MA1999999091111MD1010011+9999ME1316139REMSYN076AAXX  14124 08213 32568 10801 10263 20115 39111 48613 50001 81500 333 50510;EQDQ01  00002PRCP99
0217082130999992000061418004+40940-004120FM-12+100599999V0200501N003612200019N0200001N1+02701+00801999999ADDAA199000091GA1011+008009099GF101991011031008001001001KA1120M+02871MA1999999090951MD1610081+9999ME1315989REMSYN082AAXX  14184 08213 32570 10507 10270 20080 39095 48598 56008 81300 333 10287 81995;EQDQ01  00002PRCP99
0235082130999992000061506004+40940-004120FM-12+100599999V0200801N001012200019N0120001N1+01641+01051999999ADDAA199000091GA1001+999999999GF100991001001999999001001IA1019IA2999+00709KA1120N+01421MA1999999091061MD1410001+9999ME1315889REMSYN082AAXX  15064 08213 32962 00802 10164 20105 39106 48588 54000 333 20142 30007 55144;EQDQ01  00002PRCP99
0192082130999992000061512004+40940-004120FM-12+100599999V0203401N001012200019N0250001N1+02721+00731999999ADDAA199000091GA1001+999999999GF100991001001999999001001MA1999999091061MD1810051+9999ME1316099REMSYN070AAXX  15124 08213 32975 03402 10272 20073 39106 48609 58005 333 50650;EQDQ01  00002PRCP99
0195082130999992000061518004+40940-004120FM-12+100599999V0201101N003612200019N0250001N1+02811+00931999999ADDAA199000091GF101991011051008001001001KA1999M+03001MA1999999090861MD1710041+9999ME1315929REMSYN076AAXX  15184 08213 32575 11107 10281 20093 39086 48592 57004 81500 333 10300;EQDQ01  00002PRCP99
0235082130999992000061606004+40940-004120FM-12+100599999V0201201N005112200019N0150001N1+02221+00311999999ADDAA199000091GA1001+999999999GF100991001001999999001001IA1019IA2999+00909KA1120N+01921MA1999999090981MD1810021+9999ME1315919REMSYN082AAXX  16064 08213 32965 01210 10222 20031 39098 48591 58002 333 20192 30009 55138;EQDQ01  00002PRCP99
0192082130999992000061612004+40940-004120FM-12+100599999V0201101N002112200019N0200001N1+02881+00261999999ADDAA199000091GA1001+999999999GF100991001001999999001001MA1999999090991MD1810031+9999ME1316059REMSYN070AAXX  16124 08213 32970 01104 10288 20026 39099 48605 58003 333 50820;EQDQ01  00002PRCP99
0195082130999992000061618004+40940-004120FM-12+100599999V0201001N003612200019N0250001N1+02861+00491999999ADDAA199000091GF102991001001999999001081KA1999M+03161MA1999999090741MD1610091+9999ME1315819REMSYN076AAXX  16184 08213 32975 21007 10286 20049 39074 48581 56009 80008 333 10316;EQDQ01  00002PRCP99
0235082130999992000061706004+40940-004120FM-12+100599999V0201001N002612200019N0150001N1+02141+00531999999ADDAA199000091GA1001+999999999GF100991001001999999001001IA1019IA2999+01109KA1120N+01941MA1999999090821MD1010021+9999ME1315759REMSYN082AAXX  17064 08213 32965 01005 10214 20053 39082 48575 50002 333 20194 30011 55137;EQDQ01  00002PRCP99
0192082130999992000061712004+40940-004120FM-12+100599999V0201001N006212200019N0200001N1+02901+00341999999ADDAA199000091GA1001+999999999GF100991001001999999001001MA1999999090751MD1810071+9999ME1315829REMSYN070AAXX  17124 08213 32970 01012 10290 20034 39075 48582 58007 333 50950;EQDQ01  00002PRCP99
0205082130999992000061718004+40940-004120FM-12+100599999V0201701N004112200019N0200001N1+03021-00281999999ADDAA199000091GA1001+999999999GF100991001001999999001001KA1999M+03121MA1999999090501MD1610081+9999ME1315609REMSYN070AAXX  17184 08213 32970 01708 10302 21028 39050 48560 56008 333 10312;EQDQ01  00002PRCP99
0235082130999992000061806004+40940-004120FM-12+100599999V0201301N005112200019N0150001N1+02341-00251999999ADDAA199000091GA1001+999999999GF100991001001999999001001IA1019IA2999+01809KA1120N+02201MA1999999090591MD1110111+9999ME1315569REMSYN082AAXX  18064 08213 32965 01310 10234 21025 39059 48556 51011 333 20220 30018 55136;EQDQ01  00002PRCP99
0192082130999992000061812004+40940-004120FM-12+100599999V0201301N004612200019N0200001N1+02921+00291999999ADDAA199000091GA1001+999999999GF100991001001999999001001MA1999999090671MD1410001+9999ME1315759REMSYN070AAXX  18124 08213 32970 01309 10292 20029 39067 48575 54000 333 51200;EQDQ01  00002PRCP99
0195082130999992000061818004+40940-004120FM-12+100599999V0202001N005712200019N0200001N1+02921+00251999999ADDAA199000091GF102991001001999999001081KA1999M+03041MA1999999090511MD1810081+9999ME1315599REMSYN076AAXX  18184 08213 32970 22011 10292 20025 39051 48559 58008 80008 333 10304;EQDQ01  00002PRCP99
0235082130999992000061906004+40940-004120FM-12+100599999V0209999C000012200019N0300001N1+01821+00631999999ADDAA199000091GA1001+999999999GF100991001001999999001001IA1019IA2999+01109KA1120N+01801MA1999999090631MD1610051+9999ME1315519REMSYN082AAXX  19064 08213 32980 00000 10182 20063 39063 48551 56005 333 20180 30011 55136;EQDQ01  00002PRCP99
0182082130999992000061912004+40940-004120FM-12+100599999V0201801N004612200019N0300001N1+02781+00701999999ADDAA199000091GF101991011021008001001001MA1999999090661MD1710011+9999ME1315729REMSYN076AAXX  19124 08213 32580 11809 10278 20070 39066 48572 57001 81200 333 50850;EQDQ01  00002PRCP99
0189082130999992000061918004+40940-004120FM-12+100599999V0201801N005112200019N0200001N1+02801+99999999999ADDAA199000091GF104991041021008001001001KA1999M+02861MA1999999090391MD1710161+9999ME1315469REMSYN070AAXX  19184 08213 32570 41810 10280 39039 48546 57016 84200 333 10286;EQDQ01  00002PRCP99
0225082130999992000062006004+40940-004120FM-12+100599999V0200601N000512200019N0200001N1+01521+00931999999ADDAA199000091GF102991011041008001001091IA1019IA2999+00709KA1120N+01381MA1999999090431MD1010001+9999ME1315279REMSYN088AAXX  20064 08213 32570 20601 10152 20093 39043 48527 50000 81409 333 20138 30007 55133;EQDQ01  00002PRCP99
0182082130999992000062012004+40940-004120FM-12+100599999V0202201N005712200019N0200001N1+02421+00751999999ADDAA199000091GF103991031021008001001001MA1999999090471MD1010001+9999ME1315479REMSYN076AAXX  20124 08213 32570 32211 10242 20075 39047 48547 50000 83200 333 50880;EQDQ01  00002PRCP99
0195082130999992000062018004+40940-004120FM-12+100599999V0202301N003610360019N0200001N1+02401+00671999999ADDAA199000091GF106991041021008001041041KA1999M+02601MA1999999090381MD1610011+9999ME1315389REMSYN076AAXX  20184 08213 32570 62307 10240 20067 39038 48538 56001 84244 333 10260;EQDQ01  00002PRCP99
0225082130999992000062106004+40940-004120FM-12+100599999V0200701N001012200019N0300001N1+01321+00551999999ADDAA199000091GF102991011001017501041041IA1019IA2999+00509KA1120N+01101MA1999999090701MD1810031+9999ME1315489REMSYN088AAXX  21064 08213 32780 20702 10132 20055 39070 48548 58003 81044 333 20110 30005 55127;EQDQ01  00002PRCP99
0182082130999992000062112004+40940-004120FM-12+100599999V0202601N002112200019N0300001N1+02381+00691999999ADDAA199000091GF102991021021008001001001MA1999999090701MD1810091+9999ME1315689REMSYN076AAXX  21124 08213 32580 22604 10238 20069 39070 48568 58009 82200 333 50640;EQDQ01  00002PRCP99
0195082130999992000062118004+40940-004120FM-12+100599999V0202801N002612200019N0200001N1+02721+00961999999ADDAA199000091GF104991041021008001001001KA1999M+02741MA1999999090581MD1710051+9999ME1315639REMSYN076AAXX  21184 08213 32570 42805 10272 20096 39058 48563 57005 84200 333 10274;EQDQ01  00002PRCP99
0235082130999992000062206004+40940-004120FM-12+100599999V0201301N001512200019N0160001N1+01381+00891999999ADDAA199000091GA1001+999999999GF100991001001999999001001IA1019IA2999+00609KA1120N+01301MA1999999090821MD1510001+9999ME1315609REMSYN082AAXX  22064 08213 32966 01303 10138 20089 39082 48560 55000 333 20130 30006 55134;EQDQ01  00002PRCP99
0182082130999992000062212004+40940-004120FM-12+100599999V0203401N001512200019N0200001N1+02621+01101999999ADDAA199000091GF101991011021008001001001MA1999999090791MD1610071+9999ME1315829REMSYN076AAXX  22124 08213 32570 13403 10262 20110 39079 48582 56007 81200 333 50600;EQDQ01  00002PRCP99
0195082130999992000062218004+40940-004120FM-12+100599999V0202801N003612200019N0200001N1+02821+00711999999ADDAA199000091GF101991011021008001001001KA1999M+02921MA1999999090671MD1710031+9999ME1315749REMSYN076AAXX  22184 08213 32570 12807 10282 20071 39067 48574 57003 81200 333 10292;EQDQ01  00002PRCP99
0225082130999992000062306004+40940-004120FM-12+100599999V0201901N001512200019N0150001N1+01361+00401999999ADDAA199000091GF102991001001999999001081IA1019IA2999+00809KA1120N+01221MA1999999090791MD1110041+9999ME1315579REMSYN088AAXX  23064 08213 32965 21903 10136 20040 39079 48557 51004 80008 333 20122 30008 55134;EQDQ01  00002PRCP99
0182082130999992000062312004+40940-004120FM-12+100599999V0200401N001012200019N0150001N1+02581+00741999999ADDAA199000091GF102991001001999999001081MA1999999090781MD1810051+9999ME1315809REMSYN076AAXX  23124 08213 32965 20402 10258 20074 39078 48580 58005 80008 333 50740;EQDQ01  00002PRCP99
0205082130999992000062318004+40940-004120FM-12+100599999V0203501N002112200019N0200001N1+02821+00711999999ADDAA199000091GA1001+999999999GF100991001001999999001001KA1999M+02941MA1999999090591MD1610081+9999ME1315669REMSYN070AAXX  23184 08213 32970 03504 10282 20071 39059 48566 56008 333 10294;EQDQ01  00002PRCP99
0235082130999992000062406004+40940-004120FM-12+100599999V0200801N001012200019N0150001N1+01321+00821999999ADDAA199000091GA1001+999999999GF100991001001999999001001IA1099IA2999+00309KA1120N+00901MA1999999090751MD1810031+9999ME1315539REMSYN082AAXX  24064 08213 32965 00802 10132 20082 39075 48553 58003 333 20090 31003 55137;EQDQ01  00002PRCP99
0182082130999992000062412004+40940-004120FM-12+100599999V0203601N001512200019N0120001N1+02621+00651999999ADDAA199000091GF101991011011008001001001MA1999999090711MD1810051+9999ME1552439REMSYN076AAXX  24124 08213 32562 13603 10262 20065 39071 45243 58005 81100 333 50670;EQDQ01  00002PRCP99
0205082130999992000062418004+40940-004120FM-12+100599999V0203501N001512200019N0200001N1+02781+00341999999ADDAA199000091GA1001+999999999GF100991001001999999001001KA1999M+02921MA1999999090511MD1610081+9999ME1315579REMSYN070AAXX  24184 08213 32970 03503 10278 20034 39051 48557 56008 333 10292;EQDQ01  00002PRCP99
0225082130999992000062506004+40940-004120FM-12+100599999V0209999C000012200019N0200001N1+01371+00591999999ADDAA199000091GF101991001001999999001011IA1019IA2999+00309KA1120N+01151MA1999999090471MD1410001+9999ME1315289REMSYN088AAXX  25064 08213 32970 10000 10137 20059 39047 48528 54000 80001 333 20115 30003 55140;EQDQ01  00002PRCP99
0182082130999992000062512004+40940-004120FM-12+100599999V0200501N001012200019N0200001N1+02931+00661999999ADDAA199000091GF104991001001999999001051MA1999999090391MD1710081+9999ME1315489REMSYN076AAXX  25124 08213 32970 40502 10293 20066 39039 48548 57008 80005 333 50600;EQDQ01  00002PRCP99
0195082130999992000062518004+40940-004120FM-12+100599999V0201101N002112200019N0200001N1+03061+00751999999ADDAA199000091GF104991011011008001001051KA1999M+03221MA1999999090271MD1810081+9999ME1315399REMSYN076AAXX  25184 08213 32570 41104 10306 20075 39027 48539 58008 81105 333 10322;EQDQ01  00002PRCP99
0225082130999992000062606004+40940-004120FM-12+100599999V0203001N002112200019N0200001N1+02521+01181999999ADDAA199000091GF104991011051008001051021IA1019IA2999+01409KA1120N+02241MA1999999090261MD1510001+9999ME1315299REMSYN088AAXX  26064 08213 32570 43004 10252 20118 39026 48529 55000 81552 333 20224 30014 55088;EQDQ01  00002PRCP99
0182082130999992000062612004+40940-004120FM-12+100599999V0202301N005112200019N0170001N1+03271+00701999999ADDAA199000091GF102991021001017501031001MA1999999090311MD1810041+9999ME1315479REMSYN076AAXX  26124 08213 32767 22310 10327 20070 39031 48547 58004 82030 333 50770;EQDQ01  00002PRCP99
0217082130999992000062618004+40940-004120FM-12+100599999V0202101N006212200019N0120001N1+03191+00841999999ADDAA199000091GA1011+008009099GF102991011091008001061001KA1120M+03431MA1999999090181MD1710121+9999ME1315339REMSYN082AAXX  26184 08213 32562 22112 10319 20084 39018 48533 57012 81960 333 10343 81995;EQDQ01  00002PRCP99
0225082130999992000062706004+40940-004120FM-12+100599999V0209999C000012200019N0200001N1+01741+01221999999ADDAA199000091GF101991011001017501031011IA1019IA2999+01009KA1120N+01451MA1999999090511MD1210051+9999ME1315399REMSYN088AAXX  27064 08213 32770 10000 10174 20122 39051 48539 52005 81031 333 20145 30010 55107;EQDQ01  00002PRCP99
0182082130999992000062712004+40940-004120FM-12+100599999V0202401N005112200019N0250001N1+02721+00351999999ADDAA199000091GF101991011011008001001001MA1999999090551MD1010001+9999ME1315609REMSYN076AAXX  27124 08213 32575 12410 10272 20035 39055 48560 50000 81100 333 50860;EQDQ01  00002PRCP99
0195082130999992000062718004+40940-004120FM-12+100599999V0202901N004612200019N0200001N1+02701+00841999999ADDAA199000091GF101991011011008001001001KA1999M+02951MA1999999090511MD1310041+9999ME1315569REMSYN076AAXX  27184 08213 32570 12909 10270 20084 39051 48556 53004 81100 333 10295;EQDQ01  00002PRCP99
0225082130999992000062806004+40940-004120FM-12+100599999V0200801N001012200019N0100001N1+01461+01021999999ADDAA199000091GF102991001001999999001081IA1099IA2999+00709KA1120N+01321MA1999999090671MD1410001+9999ME1315489REMSYN088AAXX  28064 08213 32960 20802 10146 20102 39067 48548 54000 80008 333 20132 31007 55134;EQDQ01  00002PRCP99
0192082130999992000062812004+40940-004120FM-12+100599999V0203001N001512200019N0120001N1+02621+01011999999ADDAA199000091GA1001+999999999GF100991001001999999001001MA1999999090671MD1810031+9999ME1315709REMSYN070AAXX  28124 08213 32962 03003 10262 20101 39067 48570 58003 333 50770;EQDQ01  00002PRCP99
0195082130999992000062818004+40940-004120FM-12+100599999V0201101N002112200019N0200001N1+03061+00751999999ADDAA199000091GF104991011011008001001051KA1999M+03221MA1999999090271MD1810081+9999ME1315399REMSYN076AAXX  28184 08213 32570 41104 10306 20075 39027 48539 58008 81105 333 10322;EQDQ01  00002PRCP99
0225082130999992000062906004+40940-004120FM-12+100599999V0201501N001512200019N0100001N1+01581+01041999999ADDAA199000091GF102991001001999999001081IA1019IA2999+00909KA1120N+01441MA1999999090671MD1110041+9999ME1315519REMSYN088AAXX  29064 08213 32960 21503 10158 20104 39067 48551 51004 80008 333 20144 30009 55135;EQDQ01  00002PRCP99
0182082130999992000062912004+40940-004120FM-12+100599999V0202701N002112200019N0100001N1+02621+01231999999ADDAA199000091GF102991011021008001001081MA1999999090621MD1810051+9999ME1315669REMSYN076AAXX  29124 08213 32560 22704 10262 20123 39062 48566 58005 81208 333 50700;EQDQ01  00002PRCP99
0195082130999992000062918004+40940-004120FM-12+100599999V0203001N005112200019N0150001N1+02901+00571999999ADDAA199000091GF104991021001017501031081KA1999M+03061MA1999999090381MD1610041+9999ME1315479REMSYN076AAXX  29184 08213 32765 43010 10290 20057 39038 48547 56004 82038 333 10306;EQDQ01  00002PRCP99
0235082130999992000063006004+40940-004120FM-12+100599999V0200801N001012200019N0200001N1+01561+00471999999ADDAA199000091GA1001+999999999GF100991001001999999001001IA1019IA2999+00609KA1120N+01461MA1999999090391MD1710061+9999ME1315239REMSYN082AAXX  30064 08213 32970 00802 10156 20047 39039 48523 57006 333 20146 30006 55136;EQDQ01  00002PRCP99
0192082130999992000063012004+40940-004120FM-12+100599999V0203001N003112200019N0300001N1+02821+00361999999ADDAA199000091GA1001+999999999GF100991001001999999001001MA1999999090311MD1810111+9999ME1315389REMSYN070AAXX  30124 08213 32980 03006 10282 20036 39031 48538 58011 333 50780;EQDQ01  00002PRCP99
0195082130999992000063018004+40940-004120FM-12+100599999V0202701N006712200019N0300001N1+03001+00331999999ADDAA199000091GF101991011011008001001001KA1999M+03121MA1999999090031MD1810121+9999ME1315149REMSYN076AAXX  30184 08213 32580 12713 10300 20033 39003 48514 58012 81100 333 10312;EQDQ01  00002PRCP99
0225082130999992000070106004+40940-004120FM-12+100599999V0200701N001012200019N0300001N1+01601+00631999999ADDAA199000091GF102991001001999999001091IA1019IA2999+00909KA1120N+01491MA1999999090111MD1710031+9999ME1314989REMSYN088AAXX  01064 08213 32980 20702 10160 20063 39011 48498 57003 80009 333 20149 30009 55137;EQDQ01  00002PRCP99
0182082130999992000070112004+40940-004120FM-12+100599999V0202401N007210360019N0300001N1+02661+00781999999ADDAA199000091GF106991011021008001051091MA1999999090031MD1710081+9999ME1315099REMSYN076AAXX  01124 08213 32580 62414 10266 20078 39003 48509 57008 81259 333 50820;EQDQ01  00002PRCP99
0195082130999992000070118004+40940-004120FM-12+100599999V0202201N007212200019N0300001N1+02781+00481999999ADDAA199000091GF101991001001999999001091KA1999M+02901MA1999999089941MD1710051+9999ME1315029REMSYN076AAXX  01184 08213 32980 12214 10278 20048 38994 48502 57005 80009 333 10290;EQDQ01  00002PRCP99
0182082130999992000070212004+40940-004120FM-12+100599999V0203301N002110360019N0200001N1+02141+00981999999ADDAA199000091GF107991011021008001041051MA1999999090141MD1410001+9999ME1315119REMSYN076AAXX  02124 08213 32570 73304 10214 20098 39014 48511 54000 81245 333 50820;EQDQ01  00002PRCP99
0195082130999992000070218004+40940-004120FM-12+100599999V0203001N004110120019N0200001N1+02201+00461999999ADDAA199000091GF107991071081008001001001KA1999M+02441MA1999999090031MD1710071+9999ME1315019REMSYN076AAXX  02184 08213 32570 73008 10220 20046 39003 48501 57007 87800 333 10244;EQDQ01  00002PRCP99
0225082130999992000070306004+40940-004120FM-12+100599999V0202201N001012200019N0100001N1+01421+00921999999ADDAA199000091GF103991011051008001031011IA1019IA2999+00709KA1120N+01281MA1999999090061MD1410001+9999ME1314919REMSYN088AAXX  03064 08213 32560 32202 10142 20092 39006 48491 54000 81531 333 20128 30007 55070;EQDQ01  00002PRCP99
0182082130999992000070312004+40940-004120FM-12+100599999V0203001N003112200019N0200001N1+02281+00571999999ADDAA199000091GF105991041041008001001011MA1999999089951MD1810081+9999ME1314959REMSYN076AAXX  03124 08213 32570 53006 10228 20057 38995 48495 58008 84401 333 50560;EQDQ01  00002PRCP99
0210082130999992000070318004+40940-004120FM-12+100599999V0202601N002110120019N0050001N1+01361+01181999999ADDAA112002091AY181061AY261061GF108991061081008001071011KA1999M+02461MA1999999090031MD1110211+9999ME1314889MW1801REMSYN088AAXX  03184 08213 11550 82604 10136 20118 39003 48488 51021 60022 78086 86871 333 10246;
0212082130999992000070406004+40940-004120FM-12+100599999V0202701N002110150019N0100001N1+01021+00831999999ADDAA112000591GF105991051001017501031001IA1099IA2999+00609KA1120N+00961MA1999999090311MD1310041+9999ME1315079REMSYN094AAXX  04064 08213 12760 52704 10102 20083 39031 48507 53004 69962 85030 333 20096 31006 55078;
0182082130999992000070412004+40940-004120FM-12+100599999V0202601N003112200019N0150001N1+01821+00731999999ADDAA199000091GF103991011011008001001081MA1999999090381MD1110031+9999ME1315289REMSYN076AAXX  04124 08213 32565 32606 10182 20073 39038 48528 51003 81108 333 50330;EQDQ01  00002PRCP99
0195082130999992000070418004+40940-004120FM-12+100599999V0202901N002112200019N0200001N1+02281+00591999999ADDAA199000091GF102991011001017501041081KA1999M+02341MA1999999090191MD1610081+9999ME1315189REMSYN076AAXX  04184 08213 32770 22904 10228 20059 39019 48518 56008 81048 333 10234;EQDQ01  00002PRCP99
0225082130999992000070506004+40940-004120FM-12+100599999V0200701N001512200019N0200001N1+01181+00471999999ADDAA199000091GF101991011001017501041001IA1019IA2999+00409KA1120N+01001MA1999999090311MD1810041+9999ME1315099REMSYN088AAXX  05064 08213 32770 10703 10118 20047 39031 48509 58004 81040 333 20100 30004 55116;EQDQ01  00002PRCP99
0182082130999992000070512004+40940-004120FM-12+100599999V0202401N004610900019N0200001N1+02601+00181999999ADDAA199000091GF107991031001017501051091MA1999999090391MD1110051+9999ME1315429REMSYN076AAXX  05124 08213 32770 72409 10260 20018 39039 48542 51005 83059 333 50560;EQDQ01  00002PRCP99
0195082130999992000070518004+40940-004120FM-12+100599999V0209999C000012200019N0200001N1+02621+00541999999ADDAA199000091GF105991021001017501041091KA1999M+02841MA1999999090221MD1810061+9999ME1315269REMSYN076AAXX  05184 08213 32770 50000 10262 20054 39022 48526 58006 82049 333 10284;EQDQ01  00002PRCP99
0235082130999992000070606004+40940-004120FM-12+100599999V0202601N002112200019N0200001N1+01901+00201999999ADDAA199000091GA1001+999999999GF100991001001999999001001IA1019IA2999+00809KA1120N+01481MA1999999090181MD1610021+9999ME1315109REMSYN082AAXX  06064 08213 32970 02604 10190 20020 39018 48510 56002 333 20148 30008 55077;EQDQ01  00002PRCP99
0182082130999992000070612004+40940-004120FM-12+100599999V0202401N009812200019N0200001N1+02961+00681999999ADDAA199000091GF101991011001017501041001MA1999999090231MD1410001+9999ME1315339REMSYN076AAXX  06124 08213 32770 12419 10296 20068 39023 48533 54000 81040 333 50660;EQDQ01  00002PRCP99
0205082130999992000070618004+40940-004120FM-12+100599999V0202301N009312200019N0200001N1+02881-00021999999ADDAA199000091GA1001+999999999GF100991001001999999001001KA1999M+03161MA1999999090191MD1710031+9999ME1315279REMSYN070AAXX  06184 08213 32970 02318 10288 21002 39019 48527 57003 333 10316;EQDQ01  00002PRCP99
0225082130999992000070706004+40940-004120FM-12+100599999V0202801N002110120019N0140001N1+01281+01061999999ADDAA199000091GF107991071081008001001001IA1019IA2999+01109KA1120N+01221MA1999999090541MD1210021+9999ME1315339REMSYN088AAXX  07064 08213 32564 72804 10128 20106 39054 48533 52002 87800 333 20122 30011 55133;EQDQ01  00002PRCP99
0192082130999992000070712004+40940-004120FM-12+100599999V0202801N002112200019N0300001N1+02101+00631999999ADDAA199000091GA1001+999999999GF100991001001999999001001MA1999999090621MD1410001+9999ME1315559REMSYN070AAXX  07124 08213 32980 02804 10210 20063 39062 48555 54000 333 50900;EQDQ01  00002PRCP99
0205082130999992000070718004+40940-004120FM-12+100599999V0202901N002112200019N0300001N1+02541+00331999999ADDAA199000091GA1001+999999999GF100991001001999999001001KA1999M+02561MA1999999090501MD1710081+9999ME1315519REMSYN070AAXX  07184 08213 32980 02904 10254 20033 39050 48551 57008 333 10256;EQDQ01  00002PRCP99
0235082130999992000070806004+40940-004120FM-12+100599999V0201801N001012200019N0100001N1+01001+00721999999ADDAA199000091GA1001+999999999GF100991001001999999001001IA1099IA2999+00509KA1120N+00841MA1999999090631MD1210031+9999ME1315369REMSYN082AAXX  08064 08213 32960 01802 10100 20072 39063 48536 52003 333 20084 31005 55113;EQDQ01  00002PRCP99
0182082130999992000070812004+40940-004120FM-12+100599999V0200401N002612200019N0150001N1+02321+00651999999ADDAA199000091GF102991011011008001001081MA1999999090701MD1610011+9999ME1315679REMSYN076AAXX  08124 08213 32565 20405 10232 20065 39070 48567 56001 81108 333 50680;EQDQ01  00002PRCP99
0195082130999992000070818004+40940-004120FM-12+100599999V0203401N002612200019N0200001N1+02461+00431999999ADDAA199000091GF101991011011008001001001KA1999M+02561MA1999999090591MD1810041+9999ME1315599REMSYN076AAXX  08184 08213 32570 13405 10246 20043 39059 48559 58004 81100 333 10256;EQDQ01  00002PRCP99
0235082130999992000070906004+40940-004120FM-12+100599999V0209999C000012200019N0150001N1+01021+00611999999ADDAA199000091GA1001+999999999GF100991001001999999001001IA1099IA2999+00209KA1120N+00841MA1999999090671MD1610021+9999ME1315399REMSYN082AAXX  09064 08213 32965 00000 10102 20061 39067 48539 56002 333 20084 31002 55137;EQDQ01  00002PRCP99
0192082130999992000070912004+40940-004120FM-12+100599999V0202001N001012200019N0150001N1+02521+00231999999ADDAA199000091GA1001+999999999GF100991001001999999001001MA1999999090511MD1810121+9999ME1315529REMSYN070AAXX  09124 08213 32965 02002 10252 20023 39051 48552 58012 333 50620;EQDQ01  00002PRCP99
0205082130999992000070918004+40940-004120FM-12+100599999V0202901N004112200019N0200001N1+02801+00511999999ADDAA199000091GA1001+999999999GF100991001001999999001001KA1999M+02861MA1999999090111MD1710191+9999ME1315199REMSYN070AAXX  09184 08213 32970 02908 10280 20051 39011 48519 57019 333 10286;EQDQ01  00002PRCP99
0225082130999992000071006004+40940-004120FM-12+100599999V0202201N000510360019N0160001N1+01401+00751999999ADDAA199000091GF107991021041008001051001IA1019IA2999+00809KA1120N+01401MA1999999089871MD1710071+9999ME1314739REMSYN088AAXX  10064 08213 32566 72201 10140 20075 38987 48473 57007 82450 333 20140 30008 55132;EQDQ01  00002PRCP99
0197082130999992000071012004+40940-004120FM-12+100599999V0203001N002610075019N0160001N1+01601+01021999999ADDAA106003091AY161061AY221061GF107991061021008001051001MA1999999089861MD1810041+9999ME1314769MW1021REMSYN088AAXX  10124 08213 11566 73005 10160 20102 38986 48476 58004 60031 70262 86250 333 50570;
0210082130999992000071018004+40940-004120FM-12+100599999V0203101N005110075019N0180001N1+01861+00491999999ADDAA112004191AY161061AY221061GF105991051021008001001001KA1999M+01941MA1999999089661MD1810091+9999ME1314609MW1021REMSYN088AAXX  10184 08213 11568 53110 10186 20049 38966 48460 58009 60042 70262 85200 333 10194;
0225082130999992000071106004+40940-004120FM-12+100599999V0202801N002110120019N0160001N1+00941+00781999999ADDAA199000091GF107991071081008001001001IA1019IA2999+00409KA1120N+00901MA1999999090101MD1310051+9999ME1314869REMSYN088AAXX  11064 08213 32566 72804 10094 20078 39010 48486 53005 87800 333 20090 30004 55058;EQDQ01  00002PRCP99
0182082130999992000071112004+40940-004120FM-12+100599999V0203101N001010075019N0180001N1+01681+00381999999ADDAA199000091GF105991051021008001001001MA1999999090271MD1110121+9999ME1315149REMSYN076AAXX  11124 08213 32568 53102 10168 20038 39027 48514 51012 85200 333 50310;EQDQ01  00002PRCP99
0195082130999992000071118004+40940-004120FM-12+100599999V0203201N002112200019N0300001N1+01961+00041999999ADDAA199000091GF101991011011008001001001KA1999M+01981MA1999999090191MD1710041+9999ME1315119REMSYN076AAXX  11184 08213 32580 13204 10196 20004 39019 48511 57004 81100 333 10198;EQDQ01  00002PRCP99
0235082130999992000071206004+40940-004120FM-12+100599999V0200701N002612200019N0150001N1+00961+00191999999ADDAA199000091GA1001+999999999GF100991001001999999001001IA1019IA2999+00209KA1120N+00801MA1999999090551MD1110071+9999ME1315279REMSYN082AAXX  12064 08213 32965 00705 10096 20019 39055 48527 51007 333 20080 30002 55125;EQDQ01  00002PRCP99
0182082130999992000071212004+40940-004120FM-12+100599999V0200301N001512200019N0200001N1+01901+00091999999ADDAA199000091GF102991001001999999001011MA1999999090781MD1110031+9999ME1315669REMSYN076AAXX  12124 08213 32970 20303 10190 20009 39078 48566 51003 80001 333 50540;EQDQ01  00002PRCP99
0205082130999992000071218004+40940-004120FM-12+100599999V0203201N002612200019N0250001N1+02321-00041999999ADDAA199000091GA1001+999999999GF100991001001999999001001KA1999M+02461MA1999999090671MD1810031+9999ME1315639REMSYN070AAXX  12184 08213 32975 03205 10232 21004 39067 48563 58003 333 10246;EQDQ01  00002PRCP99
0235082130999992000071306004+40940-004120FM-12+100599999V0200801N001512200019N0150001N1+01561+00191999999ADDAA199000091GA1001+999999999GF100991001001999999001001IA1019IA2999+00409KA1120N+01151MA1999999090791MD1310011+9999ME1315609REMSYN082AAXX  13064 08213 32965 00803 10156 20019 39079 48560 53001 333 20115 30004 55139;EQDQ01  00002PRCP99
0192082130999992000071312004+40940-004120FM-12+100599999V0203101N001012200019N0200001N1+02581+00741999999ADDAA199000091GA1001+999999999GF100991001001999999001001MA1999999090861MD1810011+9999ME1315879REMSYN070AAXX  13124 08213 32970 03102 10258 20074 39086 48587 58001 333 50600;EQDQ01  00002PRCP99
0205082130999992000071318004+40940-004120FM-12+100599999V0200201N002112200019N0250001N1+02701+00501999999ADDAA199000091GA1001+999999999GF100991001001999999001001KA1999M+02881MA1999999090741MD1610011+9999ME1315789REMSYN070AAXX  13184 08213 32975 00204 10270 20050 39074 48578 56001 333 10288;EQDQ01  00002PRCP99
0225082130999992000071406004+40940-004120FM-12+100599999V0201701N000512200019N0150001N1+01401+00741999999ADDAA199000091GF102991011001017501041011IA1099IA2999+00509KA1120N+01301MA1999999090941MD1310021+9999ME1315729REMSYN088AAXX  14064 08213 32765 21701 10140 20074 39094 48572 53002 81041 333 20130 31005 55138;EQDQ01  00002PRCP99
0182082130999992000071412004+40940-004120FM-12+100599999V0203401N002112200019N0200001N1+02421+00671999999ADDAA199000091GF103991011001017501041011MA1999999090911MD1810041+9999ME1315899REMSYN076AAXX  14124 08213 32770 33404 10242 20067 39091 48589 58004 81041 333 50720;EQDQ01  00002PRCP99
0195082130999992000071418004+40940-004120FM-12+100599999V0203201N004612200019N0250001N1+02741+00741999999ADDAA199000091GF102991011011008001001011KA1999M+02841MA1999999090631MD1710121+9999ME1315689REMSYN076AAXX  14184 08213 32575 23209 10274 20074 39063 48568 57012 81101 333 10284;EQDQ01  00002PRCP99
0225082130999992000071506004+40940-004120FM-12+100599999V0200701N002112200019N0300001N1+01381+01011999999ADDAA199000091GF101991011011008001001001IA1019IA2999+00809KA1120N+01281MA1999999090821MD1010001+9999ME1315619REMSYN088AAXX  15064 08213 32580 10704 10138 20101 39082 48561 50000 81100 333 20128 30008 55138;EQDQ01  00002PRCP99
0192082130999992000071512004+40940-004120FM-12+100599999V0200401N001512200019N0300001N1+02381+00891999999ADDAA199000091GA1001+999999999GF100991001001999999001001MA1999999090591MD1710121+9999ME1315589REMSYN070AAXX  15124 08213 32980 00403 10238 20089 39059 48558 57012 333 50700;EQDQ01  00002PRCP99
0195082130999992000071518004+40940-004120FM-12+100599999V0203301N002612200019N0300001N1+02721+00821999999ADDAA199000091GF101991011011008001001001KA1999M+02761MA1999999090271MD1710151+9999ME1315339REMSYN076AAXX  15184 08213 32580 13305 10272 20082 39027 48533 57015 81100 333 10276;EQDQ01  00002PRCP99
0235082130999992000071606004+40940-004120FM-12+100599999V0201601N001512200019N0300001N1+01221+00881999999ADDAA199000091GA1001+999999999GF100991001001999999001001IA1019IA2999+00609KA1120N+01221MA1999999090271MD1610031+9999ME1315079REMSYN082AAXX  16064 08213 32980 01603 10122 20088 39027 48507 56003 333 20122 30006 55140;EQDQ01  00002PRCP99
0182082130999992000071612004+40940-004120FM-12+100599999V0200201N001012200019N0300001N1+02541+00991999999ADDAA199000091GF101991011011008001001001MA1999999090151MD1810121+9999ME1315199REMSYN076AAXX  16124 08213 32580 10202 10254 20099 39015 48519 58012 81100 333 50680;EQDQ01  00002PRCP99
0195082130999992000071618004+40940-004120FM-12+100599999V0203401N001012200019N0300001N1+02921+00781999999ADDAA199000091GF102991011011008001001041KA1999M+02921MA1999999089911MD1710121+9999ME1315029REMSYN076AAXX  16184 08213 32580 23402 10292 20078 38991 48502 57012 81104 333 10292;EQDQ01  00002PRCP99
0270082130999992000071706004+40940-004120FM-12+100599999V0201701N003110360019N0030001N1+01701+01251999999ADDAA112001091AY191061AY281061GA1021+008009099GF106991041091008001091021GJ108289IA1099IA2999+01009KA1120N+01671MA1999999089901MD1110051+9999ME1314819MW1951REMSYN106AAXX  17064 08213 11530 61706 10170 20125 38990 48481 51005 60012 79598 84992 333 20167 31010 55138 82995;
0185082130999992000071712004+40940-004120FM-12+100599999V0201301N002112200019N0300001N1+02821+01191999999ADDAA199000021GA1011+008009099GF103991011031008001081001MA1999999089991MD1210051+9999ME1315089REMSYN082AAXX  17124 08213 32580 31304 10282 20119 38999 48508 52005 81380 333 50610 81995;
0198082130999992000071718004+40940-004120FM-12+100599999V0200501N000510360019N0300001N1+02601+01161999999ADDAA199000021GA1011+008009099GF106991031091008001081021KA1120M+03051MA1999999090071MD1310081+9999ME1315129REMSYN082AAXX  17184 08213 32580 60501 10260 20116 39007 48512 53008 83982 333 10305 81995;
0225082130999992000071806004+40940-004120FM-12+100599999V0200801N001512200019N0200001N1+01821+01201999999ADDAA199000091GF102991011021008001081011IA1019IA2999+01109KA1120N+01671MA1999999090261MD1110031+9999ME1315179REMSYN088AAXX  18064 08213 32570 20803 10182 20120 39026 48517 51003 81281 333 20167 30011 55094;EQDQ01  00002PRCP99
0204082130999992000071812004+40940-004120FM-12+100599999V0202501N004112200019N0200001N1+02901+00951999999ADDAA199000091GA1011+008009099GF102991021031008001001001MA1999999090301MD1810041+9999ME1315409REMSYN082AAXX  18124 08213 32570 22508 10290 20095 39030 48540 58004 82300 333 50790 81995;EQDQ01  00002PRCP99
0195082130999992000071818004+40940-004120FM-12+100599999V0202901N004612200019N0200001N1+02931+00771999999ADDAA199000091GF101991011051008001001001KA1999M+03091MA1999999090271MD1410001+9999ME1315379REMSYN076AAXX  18184 08213 32570 12909 10293 20077 39027 48537 54000 81500 333 10309;EQDQ01  00002PRCP99
0235082130999992000071906004+40940-004120FM-12+100599999V0200901N001012200019N0120001N1+01761+01151999999ADDAA199000091GA1001+999999999GF100991001001999999001001IA1019IA2999+00909KA1120N+01631MA1999999090391MD1710041+9999ME1315289REMSYN082AAXX  19064 08213 32962 00902 10176 20115 39039 48528 57004 333 20163 30009 55139;EQDQ01  00002PRCP99
0182082130999992000071912004+40940-004120FM-12+100599999V0203001N001512200019N0200001N1+02931+00901999999ADDAA199000091GF101991011011008001001001MA1999999090351MD1710081+9999ME1315459REMSYN076AAXX  19124 08213 32570 13003 10293 20090 39035 48545 57008 81100 333 50630;EQDQ01  00002PRCP99
0205082130999992000071918004+40940-004120FM-12+100599999V0202701N002612200019N0200001N1+03121+00511999999ADDAA199000091GA1001+999999999GF100991001001999999001001KA1999M+03261MA1999999090181MD1710051+9999ME1315319REMSYN070AAXX  19184 08213 32970 02705 10312 20051 39018 48531 57005 333 10326;EQDQ01  00002PRCP99
0235082130999992000072006004+40940-004120FM-12+100599999V0200801N001512200019N0200001N1+01721+00441999999ADDAA199000091GA1001+999999999GF100991001001999999001001IA1019IA2999+00809KA1120N+01701MA1999999090271MD1410001+9999ME1315159REMSYN082AAXX  20064 08213 32970 00803 10172 20044 39027 48515 54000 333 20170 30008 55135;EQDQ01  00002PRCP99
0192082130999992000072012004+40940-004120FM-12+100599999V0202101N002612200019N0200001N1+03221+00571999999ADDAA199000091GA1001+999999999GF100991001001999999001001MA1999999090351MD1710031+9999ME1315509REMSYN070AAXX  20124 08213 32970 02105 10322 20057 39035 48550 57003 333 50800;EQDQ01  00002PRCP99
0205082130999992000072018004+40940-004120FM-12+100599999V0203101N002112200019N0200001N1+03241+00291999999ADDAA199000091GA1001+999999999GF100991001001999999001001KA1999M+03401MA1999999090141MD1710091+9999ME1315299REMSYN070AAXX  20184 08213 32970 03104 10324 20029 39014 48529 57009 333 10340;EQDQ01  00002PRCP99
0235082130999992000072106004+40940-004120FM-12+100599999V0200801N001512200019N0200001N1+01961+00301999999ADDAA199000091GA1001+999999999GF100991001001999999001001IA1019IA2999+01009KA1120N+01901MA1999999090301MD1410001+9999ME1315229REMSYN082AAXX  21064 08213 32970 00803 10196 20030 39030 48522 54000 333 20190 30010 55137;EQDQ01  00002PRCP99
0182082130999992000072112004+40940-004120FM-12+100599999V0202001N004612200019N0200001N1+03341+00691999999ADDAA199000091GF101991011001017501041001MA1999999090231MD1810081+9999ME1315409REMSYN076AAXX  21124 08213 32770 12009 10334 20069 39023 48540 58008 81040 333 50840;EQDQ01  00002PRCP99
0205082130999992000072118004+40940-004120FM-12+100599999V0201601N005112200019N0200001N1+03201+00601999999ADDAA199000091GA1001+999999999GF100991001001999999001001KA1999M+03421MA1999999090071MD1710121+9999ME1315229REMSYN070AAXX  21184 08213 32970 01610 10320 20060 39007 48522 57012 333 10342;EQDQ01  00002PRCP99
0253082130999992000072206004+40940-004120FM-12+100599999V0203401N001012200019N0200001N1+01861+00741999999ADDAA199000091GA1001+999999999GF100991001001999999001001IA1019IA2999+01209KA1120N+01861MA1999999090071ME1314999REMSYN082AAXX  22064 08213 32970 03402 10186 20074 39007 48499 53605 333 20186 30012 55130;EQDQ01+000037APCTENQ02+006057APC3  Q03  00002PRCP99
0192082130999992000072212004+40940-004120FM-12+100599999V0202901N002112200019N0200001N1+02581+00411999999ADDAA199000091GA1001+999999999GF100991001001999999001001MA1999999090111MD1010001+9999ME1315159REMSYN070AAXX  22124 08213 32970 02904 10258 20041 39011 48515 50000 333 50960;EQDQ01  00002PRCP99
0195082130999992000072218004+40940-004120FM-12+100599999V0202201N005712200019N0250001N1+02781-00181999999ADDAA199000091GF101991001001999999001011KA1999M+02981MA1999999089981MD1710051+9999ME1315059REMSYN076AAXX  22184 08213 32975 12211 10278 21018 38998 48505 57005 80001 333 10298;EQDQ01  00002PRCP99
0225082130999992000072306004+40940-004120FM-12+100599999V0201901N002110900019N0200001N1+01341+00701999999ADDAA199000091GF105991011051008001071021IA1019IA2999+00709KA1120N+01301MA1999999089871MD1410001+9999ME1314729REMSYN088AAXX  23064 08213 32570 51904 10134 20070 38987 48472 54000 81572 333 20130 30007 55134;EQDQ01  00002PRCP99
0182082130999992000072312004+40940-004120FM-12+100599999V0202801N004612200019N0300001N1+02171+00791999999ADDAA199000091GF104991021051008001031041MA1999999089871MD1310041+9999ME1314859REMSYN076AAXX  23124 08213 32580 42809 10217 20079 38987 48485 53004 82534 333 50960;EQDQ01  00002PRCP99
0210082130999992000072318004+40940-004120FM-12+100599999V0202701N005710360019N0250001N1+01901+00651999999ADDAA112000791AY161061AY221061GF106991041081008001031001KA1999M+02471MA1999999089951MD1110131+9999ME1314889MW1601REMSYN088AAXX  23184 08213 11575 62711 10190 20065 38995 48488 51013 69902 76062 84830 333 10247;
0206082130999992000072406004+40940-004120FM-12+100599999V0202401N001012200019N0250001N1+01341+00971999999ADDAA199000021GF104991031051008001091021IA1019IA2999+00709KA1120N+01251MA1999999090111MD1710031+9999ME1314949REMSYN088AAXX  24064 08213 32575 42402 10134 20097 39011 48494 57003 83592 333 20125 30007 55063;
0182082130999992000072412004+40940-004120FM-12+100599999V0202501N002610360019N0250001N1+02141+00791999999ADDAA199000091GF106991041051008001041001MA1999999090031MD1810081+9999ME1315009REMSYN076AAXX  24124 08213 32575 62505 10214 20079 39003 48500 58008 84540 333 50680;EQDQ01  00002PRCP99
0210082130999992000072418004+40940-004120FM-12+100599999V0200901N001010360019N0200001N1+01921+01431999999ADDAA112000391AY181061AY221061GF106991041051008001031001KA1999M+02351MA1999999089951MD1810031+9999ME1314909MW1021REMSYN088AAXX  24184 08213 11570 60902 10192 20143 38995 48490 58003 69932 70282 84530 333 10235;
0240082130999992000072506004+40940-004120FM-12+100599999V0202501N002610075019N0180001N1+01561+01391999999ADDAA112003091AY161061AY221061GF106991061021008001001001IA1119IA2999+01209KA1120N+01501MA1999999089831MD1710031+9999ME1314739MW1021REMSYN100AAXX  25064 08213 11568 62505 10156 20139 38983 48473 57003 60032 70262 86200 333 20150 32012 55051;
0197082130999992000072512004+40940-004120FM-12+100599999V0202901N003610120019N0180001N1+01901+01101999999ADDAA106000591AY161061AY221061GF106991061081008001001001MA1999999089901MD1210041+9999ME1314849MW1021REMSYN088AAXX  25124 08213 11568 62907 10190 20110 38990 48484 52004 69941 70262 86800 333 50280;
0182082130999992000072518004+40940-004120FM-12+100599999V0202901N006212200019N0200001N1+02281+00751999999ADDAA112000591GF102991021021008001001001KA1999M+02441MA1999999089871MD1210081+9999ME1314879REMSYN082AAXX  25184 08213 12570 22912 10228 20075 38987 48487 52008 69942 82200 333 10244;
0225082130999992000072606004+40940-004120FM-12+100599999V0202101N001012200019N0180001N1+01041+00721999999ADDAA199000091GF101991011041008001001001IA1099IA2999+00409KA1120N+00991MA1999999090231MD1310071+9999ME1315009REMSYN088AAXX  26064 08213 32568 12102 10104 20072 39023 48500 53007 81400 333 20099 31004 55101;EQDQ01  00002PRCP99
0182082130999992000072612004+40940-004120FM-12+100599999V0203301N002112200019N0300001N1+02041+00641999999ADDAA199000091GF101991011011008001001001MA1999999090351MD1310041+9999ME1315299REMSYN076AAXX  26124 08213 32580 13304 10204 20064 39035 48529 53004 81100 333 50540;EQDQ01  00002PRCP99
0205082130999992000072618004+40940-004120FM-12+100599999V0202901N002612200019N0300001N1+02561+00611999999ADDAA199000091GA1001+999999999GF100991001001999999001001KA1999M+02581MA1999999090221MD1710051+9999ME1315259REMSYN070AAXX  26184 08213 32980 02905 10256 20061 39022 48525 57005 333 10258;EQDQ01  00002PRCP99
0225082130999992000072706004+40940-004120FM-12+100599999V0209999C000012200019N0300001N1+01361+00651999999ADDAA199000091GF101991011001017501041001IA1019IA2999+00509KA1120N+01281MA1999999090311MD1310041+9999ME1315139REMSYN088AAXX  27064 08213 32780 10000 10136 20065 39031 48513 53004 81040 333 20128 30005 55132;EQDQ01  00002PRCP99
0192082130999992000072712004+40940-004120FM-12+100599999V0203301N001012200019N0300001N1+02661+00551999999ADDAA199000091GA1001+999999999GF100991001001999999001001MA1999999090421MD1710081+9999ME1315469REMSYN070AAXX  27124 08213 32980 03302 10266 20055 39042 48546 57008 333 50580;EQDQ01  00002PRCP99
0195082130999992000072718004+40940-004120FM-12+100599999V0203001N004112200019N0300001N1+02801+00571999999ADDAA199000091GF101991011001017501041001KA1999M+03041MA1999999090421MD1210031+9999ME1315499REMSYN076AAXX  27184 08213 32780 13008 10280 20057 39042 48549 52003 81040 333 10304;EQDQ01  00002PRCP99
0235082130999992000072806004+40940-004120FM-12+100599999V0201701N002112200019N0200001N1+01361+00811999999ADDAA199000091GA1001+999999999GF100991001001999999001001IA1019IA2999+00709KA1120N+01261MA1999999090671MD1210051+9999ME1315469REMSYN082AAXX  28064 08213 32970 01704 10136 20081 39067 48546 52005 333 20126 30007 55137;EQDQ01  00002PRCP99
0182082130999992000072812004+40940-004120FM-12+100599999V0203101N001512200019N0300001N1+02401+00771999999ADDAA199000091GF101991011051008001001001MA1999999090751MD1810041+9999ME1315739REMSYN076AAXX  28124 08213 32580 13103 10240 20077 39075 48573 58004 81500 333 50760;EQDQ01  00002PRCP99
0205082130999992000072818004+40940-004120FM-12+100599999V0203001N002612200019N0300001N1+02751+00311999999ADDAA199000091GA1001+999999999GF100991001001999999001001KA1999M+02861MA1999999090661MD1710041+9999ME1315719REMSYN070AAXX  28184 08213 32980 03005 10275 20031 39066 48571 57004 333 10286;EQDQ01  00002PRCP99
0235082130999992000072906004+40940-004120FM-12+100599999V0209999C000012200019N0150001N1+01541+00591999999ADDAA199000091GA1001+999999999GF100991001001999999001001IA1019IA2999+00609KA1120N+01491MA1999999090701MD1710041+9999ME1315529REMSYN082AAXX  29064 08213 32965 00000 10154 20059 39070 48552 57004 333 20149 30006 55139;EQDQ01  00002PRCP99
0182082130999992000072912004+40940-004120FM-12+100599999V0209999C000012200019N0300001N1+02811+00491999999ADDAA199000091GF101991011011008001001001MA1999999090751MD1810041+9999ME1315819REMSYN076AAXX  29124 08213 32580 10000 10281 20049 39075 48581 58004 81100 333 50760;EQDQ01  00002PRCP99
0195082130999992000072918004+40940-004120FM-12+100599999V0203401N001512200019N0300001N1+03101+00361999999ADDAA199000091GF101991011051008001001001KA1999M+03191MA1999999090581MD1710121+9999ME1315709REMSYN076AAXX  29184 08213 32580 13403 10310 20036 39058 48570 57012 81500 333 10319;EQDQ01  00002PRCP99
0235082130999992000073006004+40940-004120FM-12+100599999V0209999C000012200019N0180001N1+01701+00751999999ADDAA199000091GA1001+999999999GF100991001001999999001001IA1019IA2999+00809KA1120N+01591MA1999999090711MD1510001+9999ME1315569REMSYN082AAXX  30064 08213 32968 00000 10170 20075 39071 48556 55000 333 20159 30008 55136;EQDQ01  00002PRCP99
0217082130999992000073018004+40940-004120FM-12+100599999V0203001N003612200019N0250001N1+03211+00761999999ADDAA199000091GA1011+008009099GF102991021031008001001001KA1120M+03571MA1999999090591MD1710041+9999ME1315739REMSYN082AAXX  30184 08213 32575 23007 10321 20076 39059 48573 57004 82300 333 10357 81995;EQDQ01  00002PRCP99
0235082130999992000073106004+40940-004120FM-12+100599999V0201001N001012200019N0180001N1+02001+00851999999ADDAA199000091GA1001+999999999GF100991001001999999001001IA1019IA2999+01109KA1120N+01931MA1999999090751MD1510001+9999ME1315669REMSYN082AAXX  31064 08213 32968 01002 10200 20085 39075 48566 55000 333 20193 30011 55133;EQDQ01  00002PRCP99
0182082130999992000073112004+40940-004120FM-12+100599999V0203001N003112200019N0300001N1+03361+00331999999ADDAA199000091GF101991011051008001001001MA1999999090791MD1810031+9999ME1315959REMSYN076AAXX  31124 08213 32580 13006 10336 20033 39079 48595 58003 81500 333 50800;EQDQ01  00002PRCP99
0195082130999992000073118004+40940-004120FM-12+100599999V0203001N003612200019N0250001N1+03441+00511999999ADDAA199000091GF101991011051008001001001KA1999M+03581MA1999999090631MD1710081+9999ME1315819REMSYN076AAXX  31184 08213 32575 13007 10344 20051 39063 48581 57008 81500 333 10358;EQDQ01  00002PRCP99
0225082130999992000080106004+40940-004120FM-12+100599999V0200401N000512200019N0100001N1+02281+00411999999ADDAA199000091GF105991031001017501091011IA1019IA2999+01309KA1120N+02161MA1999999090701MD1310021+9999ME1315669REMSYN088AAXX  01064 08213 32760 50401 10228 20041 39070 48566 53002 83091 333 20216 30013 55125;EQDQ01  00002PRCP99
0219082130999992000080112004+40940-004120FM-12+100599999V0202701N001010360019N0100001N1+03221+00961999999ADDAA106000791AY121061AY211061GA1021+008009099GF107991031091008001071081MA1999999090751MD1310011+9999ME1315899MW1951REMSYN094AAXX  01124 08213 11560 72702 10322 20096 39075 48589 53001 69901 79521 83978 333 50790 82995;
0232082130999992000080118004+40940-004120FM-12+100599999V0202301N008210360019N0150001N1+03221+00371999999ADDAA112001091AY191061AY221061GA1011+008009099GF106991021091008001071021KA1120M+03421MA1999999090581MD1810081+9999ME1315729MW1021REMSYN094AAXX  01184 08213 11565 62316 10322 20037 39058 48572 58008 60012 70292 82972 333 10342 81995;
0225082130999992000080206004+40940-004120FM-12+100599999V0202501N000512200019N0120001N1+01701+00851999999ADDAA199000091GF102991001001999999001081IA1019IA2999+00909KA1120N+01701MA1999999090781MD1510001+9999ME1315639REMSYN088AAXX  02064 08213 32962 22501 10170 20085 39078 48563 55000 80008 333 20170 30009 55078;EQDQ01  00002PRCP99
0182082130999992000080212004+40940-004120FM-12+100599999V0203001N002112200019N0100001N1+02521+01181999999ADDAA199000091GF102991001001999999001081MA1999999090871MD1010041+9999ME1315889REMSYN076AAXX  02124 08213 32960 23004 10252 20118 39087 48588 50004 80008 333 50760;EQDQ01  00002PRCP99
0205082130999992000080218004+40940-004120FM-12+100599999V0203001N002612200019N0250001N1+02901-00061999999ADDAA199000091GA1001+999999999GF100991001001999999001001KA1999M+03141MA1999999090631MD1610041+9999ME1315709REMSYN070AAXX  02184 08213 32975 03005 10290 21006 39063 48570 56004 333 10314;EQDQ01  00002PRCP99
0253082130999992000080306004+40940-004120FM-12+100599999V0202501N002110075019N0080001N1+01061+00741999999ADDAA199000091AY121061AY211061GF108991061061008001071081IA1019IA2999+00409KA1120N+01061MA1999999090751MD1210051+9999ME1315489MW1101REMSYN094AAXX  03064 08213 31558 82504 10106 20074 39075 48548 52005 71021 86678 333 20106 30004 55129;EQDQ01  00002PRCP99
0195082130999992000080318004+40940-004120FM-12+100599999V0200401N003612200019N0250001N1+02101+00351999999ADDAA199000091GF102991021041008001001001KA1999M+02421MA1999999090751MD1310011+9999ME1315679REMSYN076AAXX  03184 08213 32575 20407 10210 20035 39075 48567 53001 82400 333 10242;EQDQ01  00002PRCP99
0235082130999992000080406004+40940-004120FM-12+100599999V0202701N001012200019N0200001N1+00751+00471999999ADDAA199000091GA1001+999999999GF100991001001999999001001IA1019IA2999+00209KA1120N+00711MA1999999091031MD1210071+9999ME1315669REMSYN082AAXX  04064 08213 32970 02702 10075 20047 39103 48566 52007 333 20071 30002 55085;EQDQ01  00002PRCP99
0182082130999992000080412004+40940-004120FM-12+100599999V0200501N003612200019N0300001N1+01911+00331999999ADDAA199000091GF102991011051008001001011MA1999999091031MD1810041+9999ME1315899REMSYN076AAXX  04124 08213 32580 20507 10191 20033 39103 48589 58004 81501 333 50510;EQDQ01  00002PRCP99
0195082130999992000080418004+40940-004120FM-12+100599999V0200201N003112200019N0300001N1+02061+00341999999ADDAA199000091GF101991011001017501031001KA1999M+02241MA1999999090901MD1610041+9999ME1315809REMSYN076AAXX  04184 08213 32780 10206 10206 20034 39090 48580 56004 81030 333 10224;EQDQ01  00002PRCP99
0225082130999992000080506004+40940-004120FM-12+100599999V0202101N001012200019N0300001N1+00671+00361999999ADDAA199000091GF103991011001017501031041IA1019IA2999+00009KA1120N+00621MA1999999090991MD1410001+9999ME1315619REMSYN088AAXX  05064 08213 32780 32102 10067 20036 39099 48561 54000 81034 333 20062 30100 55131;EQDQ01  00002PRCP99
0182082130999992000080512004+40940-004120FM-12+100599999V0200501N002112200019N0300001N1+02041+00481999999ADDAA199000091GF102991011051008001031011MA1999999090911MD1710111+9999ME1315819REMSYN076AAXX  05124 08213 32580 20504 10204 20048 39091 48581 57011 81531 333 50440;EQDQ01  00002PRCP99
0195082130999992000080518004+40940-004120FM-12+100599999V0200201N003112200019N0300001N1+02081+00601999999ADDAA199000091GF102991011051008001041001KA1999M+02451MA1999999090781MD1710011+9999ME1315709REMSYN076AAXX  05184 08213 32580 20206 10208 20060 39078 48570 57001 81540 333 10245;EQDQ01  00002PRCP99
0235082130999992000080606004+40940-004120FM-12+100599999V0202101N001012200019N0200001N1+00741+00531999999ADDAA199000091GA1001+999999999GF100991001001999999001001IA1019IA2999+00209KA1120N+00741MA1999999090981MD1410001+9999ME1315629REMSYN082AAXX  06064 08213 32970 02102 10074 20053 39098 48562 54000 333 20074 30002 55126;EQDQ01  00002PRCP99
0182082130999992000080612004+40940-004120FM-12+100599999V0202501N001512200019N0300001N1+02201+00331999999ADDAA199000091GF101991011011008001001001MA1999999090911MD1810081+9999ME1315849REMSYN076AAXX  06124 08213 32580 12503 10220 20033 39091 48584 58008 81100 333 50660;EQDQ01  00002PRCP99
0195082130999992000080618004+40940-004120FM-12+100599999V0203601N001512200019N0250001N1+02481+00341999999ADDAA199000091GF101991011011008001001001KA1999M+02611MA1999999090711MD1710081+9999ME1315709REMSYN076AAXX  06184 08213 32575 13603 10248 20034 39071 48570 57008 81100 333 10261;EQDQ01  00002PRCP99
0235082130999992000080706004+40940-004120FM-12+100599999V0209999C000012200019N0200001N1+01201+00591999999ADDAA199000091GA1001+999999999GF100991001001999999001001IA1099IA2999+00309KA1120N+01041MA1999999090861MD1410001+9999ME1315609REMSYN082AAXX  07064 08213 32970 00000 10120 20059 39086 48560 54000 333 20104 31003 55133;EQDQ01  00002PRCP99
0182082130999992000080712004+40940-004120FM-12+100599999V0203001N002612200019N0200001N1+02581+00521999999ADDAA199000091GF102991011011008001001081MA1999999090831MD1810071+9999ME1315849REMSYN076AAXX  07124 08213 32570 23005 10258 20052 39083 48584 58007 81108 333 50570;EQDQ01  00002PRCP99
0195082130999992000080718004+40940-004120FM-12+100599999V0200401N000512200019N0250001N1+02781+00471999999ADDAA199000091GF102991001001999999001081KA1999M+02941MA1999999090591MD1810111+9999ME1315659REMSYN076AAXX  07184 08213 32975 20401 10278 20047 39059 48565 58011 80008 333 10294;EQDQ01  00002PRCP99
0235082130999992000080806004+40940-004120FM-12+100599999V0209999C000012200019N0150001N1+01721+00431999999ADDAA199000091GA1001+999999999GF100991001001999999001001IA1019IA2999+00709KA1120N+01601MA1999999090751MD1510001+9999ME1315609REMSYN082AAXX  08064 08213 32965 00000 10172 20043 39075 48560 55000 333 20160 30007 55132;EQDQ01  00002PRCP99
0192082130999992000080812004+40940-004120FM-12+100599999V0203101N001012200019N0200001N1+02921+00721999999ADDAA199000091GA1001+999999999GF100991001001999999001001MA1999999090741MD1810041+9999ME1315829REMSYN070AAXX  08124 08213 32970 03102 10292 20072 39074 48582 58004 333 50600;EQDQ01  00002PRCP99
0195082130999992000080818004+40940-004120FM-12+100599999V0202501N003112200019N0250001N1+03021+00291999999ADDAA199000091GF102991001001999999001021KA1999M+03161MA1999999090551MD1610041+9999ME1315659REMSYN076AAXX  08184 08213 32975 22506 10302 20029 39055 48565 56004 80002 333 10316;EQDQ01  00002PRCP99
0235082130999992000080906004+40940-004120FM-12+100599999V0202601N001012200019N0300001N1+01821+00301999999ADDAA199000091GA1001+999999999GF100991001001999999001001IA1019IA2999+00809KA1120N+01751MA1999999090861MD1510001+9999ME1315729REMSYN082AAXX  09064 08213 32980 02602 10182 20030 39086 48572 55000 333 20175 30008 55131;EQDQ01  00002PRCP99
0192082130999992000080912004+40940-004120FM-12+100599999V0202501N002112200019N0250001N1+03071+00221999999ADDAA199000091GA1001+999999999GF100991001001999999001001MA1999999090741MD1810041+9999ME1315849REMSYN070AAXX  09124 08213 32975 02504 10307 20022 39074 48584 58004 333 50600;EQDQ01  00002PRCP99
0205082130999992000080918004+40940-004120FM-12+100599999V0203301N001512200019N0200001N1+03241+00201999999ADDAA199000091GA1001+999999999GF100991001001999999001001KA1999M+03341MA1999999090621MD1710011+9999ME1315769REMSYN070AAXX  09184 08213 32970 03303 10324 20020 39062 48576 57001 333 10334;EQDQ01  00002PRCP99
0235082130999992000081006004+40940-004120FM-12+100599999V0200901N002112200019N0300001N1+02081+00371999999ADDAA199000091GA1001+999999999GF100991001001999999001001IA1019IA2999+00909KA1120N+01851MA1999999090541MD1410001+9999ME1315479REMSYN082AAXX  10064 08213 32980 00904 10208 20037 39054 48547 54000 333 20185 30009 55132;EQDQ01  00002PRCP99
0182082130999992000081012004+40940-004120FM-12+100599999V0202801N003612200019N0250001N1+03311+00181999999ADDAA199000091GF101991011011008001001001MA1999999090501MD1810081+9999ME1315659REMSYN076AAXX  10124 08213 32575 12807 10331 20018 39050 48565 58008 81100 333 50710;EQDQ01  00002PRCP99
0225082130999992000081106004+40940-004120FM-12+100599999V0200801N001512200019N0120001N1+02001+00831999999ADDAA199000091GF102991001001999999001081IA1019IA2999+01109KA1120N+01901MA1999999090191MD1410001+9999ME1315139REMSYN088AAXX  11064 08213 32962 20803 10200 20083 39019 48513 54000 80008 333 20190 30011 55125;EQDQ01  00002PRCP99
0204082130999992000081112004+40940-004120FM-12+100599999V0201901N005112200019N0120001N1+02941+00681999999ADDAA199000091GA1031+008009099GF105991041031008001001081MA1999999089981MD1810201+9999ME1315099REMSYN082AAXX  11124 08213 32562 51910 10294 20068 38998 48509 58020 84308 333 50910 83995;EQDQ01  00002PRCP99
0232082130999992000081118004+40940-004120FM-12+100599999V0201801N001010900019N0150001N1+02201+00731999999ADDAA112008991AY191061AY281061GA1011+008009099GF105991021031008001071021KA1120M+03021MA1999999090111MD1610201+9999ME1315099MW1021REMSYN094AAXX  11184 08213 11565 51802 10220 20073 39011 48509 56020 60092 70298 82372 333 10302 81995;
0253082130999992000081206004+40940-004120FM-12+100599999V0202601N003110075019N0080001N1+01361+01151999999ADDAA199000091AY121061AY221061GF106991061071008001001001IA1099IA2999+00809KA1120N+01221MA1999999090431MD1310121+9999ME1315259MW1101REMSYN094AAXX  12064 08213 31558 62606 10136 20115 39043 48525 53012 71022 86700 333 20122 31008 55080;EQDQ01  00002PRCP99
0195082130999992000081218004+40940-004120FM-12+100599999V0202801N002612200019N0150001N1+02541+01081999999ADDAA199000091GF102991011021008001001081KA1999M+02641MA1999999090341MD1510001+9999ME1315379REMSYN076AAXX  12184 08213 32565 22805 10254 20108 39034 48537 55000 81208 333 10264;EQDQ01  00002PRCP99
0225082130999992000081306004+40940-004120FM-12+100599999V0200901N000512200019N0200001N1+01581+01041999999ADDAA199000091GF101991011001017501081001IA1019IA2999+00809KA1120N+01561MA1999999090551MD1310031+9999ME1315409REMSYN088AAXX  13064 08213 32770 10901 10158 20104 39055 48540 53003 81080 333 20156 30008 55121;EQDQ01  00002PRCP99
0182082130999992000081312004+40940-004120FM-12+100599999V0203101N002612200019N0180001N1+02711+00881999999ADDAA199000091GF101991011021008001001001MA1999999090591MD1810031+9999ME1315649REMSYN076AAXX  13124 08213 32568 13105 10271 20088 39059 48564 58003 81200 333 50500;EQDQ01  00002PRCP99
0195082130999992000081318004+40940-004120FM-12+100599999V0203001N004112200019N0180001N1+02871+00691999999ADDAA199000091GF102991011051008001001011KA1999M+03081MA1999999090591MD1310051+9999ME1315679REMSYN076AAXX  13184 08213 32568 23008 10287 20069 39059 48567 53005 81501 333 10308;EQDQ01  00002PRCP99
0235082130999992000081406004+40940-004120FM-12+100599999V0200901N001012200019N0250001N1+01591+01211999999ADDAA199000091GA1001+999999999GF100991001001999999001001IA1019IA2999+00909KA1120N+01551MA1999999090951MD1310031+9999ME1315779REMSYN082AAXX  14064 08213 32975 00902 10159 20121 39095 48577 53003 333 20155 30009 55127;EQDQ01  00002PRCP99
0198082130999992000081412004+40940-004120FM-12+100599999V0203201N001512200019N0300001N1+02761+01201999999ADDAA199000091GF101991999051008001001001MA1999999090991MD1810031+9999ME1316049REMSYN076AAXX  14124 08213 32580 13203 10276 20120 39099 48604 58003 84500 333 50530;EQDQ01+000042SCOTLCQ02  00002PRCP99
0195082130999992000081418004+40940-004120FM-12+100599999V0202801N003612200019N0250001N1+03031+01031999999ADDAA199000091GF101991011051008001001001KA1999M+03151MA1999999090831MD1710071+9999ME1315949REMSYN076AAXX  14184 08213 32575 12807 10303 20103 39083 48594 57007 81500 333 10315;EQDQ01  00002PRCP99
0235082130999992000081506004+40940-004120FM-12+100599999V0200801N001012200019N0150001N1+01841+01101999999ADDAA199000091GA1001+999999999GF100991001001999999001001IA1099IA2999+01009KA1120N+01841MA1999999090981MD1410001+9999ME1315859REMSYN082AAXX  15064 08213 32965 00802 10184 20110 39098 48585 54000 333 20184 31010 55131;EQDQ01  00002PRCP99
0182082130999992000081512004+40940-004120FM-12+100599999V0203001N001012200019N0150001N1+03141+00981999999ADDAA199000091GF101991011011008001001001MA1999999090901MD1810091+9999ME1316029REMSYN076AAXX  15124 08213 32565 13002 10314 20098 39090 48602 58009 81100 333 50650;EQDQ01  00002PRCP99
0195082130999992000081518004+40940-004120FM-12+100599999V0203201N000512200019N0250001N1+03361+01101999999ADDAA199000091GF102991021021008001001001KA1999M+03481MA1999999090591MD1810121+9999ME1315779REMSYN076AAXX  15184 08213 32575 23201 10336 20110 39059 48577 58012 82200 333 10348;EQDQ01  00002PRCP99
0225082130999992000081606004+40940-004120FM-12+100599999V0200901N001512200019N0150001N1+02101+01051999999ADDAA199000091GF102991011011008001001081IA1019IA2999+01209KA1120N+02001MA1999999090551MD1410001+9999ME1315499REMSYN088AAXX  16064 08213 32565 20903 10210 20105 39055 48549 54000 81108 333 20200 30012 55127;EQDQ01  00002PRCP99
0182082130999992000081612004+40940-004120FM-12+100599999V0202701N003612200019N0200001N1+03401+00801999999ADDAA199000091GF102991011011008001001081MA1999999090461MD1810091+9999ME1315649REMSYN076AAXX  16124 08213 32570 22707 10340 20080 39046 48564 58009 81108 333 50650;EQDQ01  00002PRCP99
0217082130999992000081618004+40940-004120FM-12+100599999V0203201N004112200019N0200001N1+03241+01051999999ADDAA199000091GA1011+008009099GF104991021031008001071021KA1120M+03501MA1999999090271MD1810071+9999ME1315439REMSYN082AAXX  16184 08213 32570 43208 10324 20105 39027 48543 58007 82372 333 10350 81995;EQDQ01  00002PRCP99
0235082130999992000081706004+40940-004120FM-12+100599999V0209999C000012200019N0250001N1+01781+00241999999ADDAA199000091GA1001+999999999GF100991001001999999001001IA1019IA2999+00909KA1120N+01741MA1999999090271MD1510001+9999ME1315169REMSYN082AAXX  17064 08213 32975 00000 10178 20024 39027 48516 55000 333 20174 30009 55124;EQDQ01  00002PRCP99
0182082130999992000081712004+40940-004120FM-12+100599999V0202701N001512200019N0180001N1+03081+01181999999ADDAA199000091GF101991011051008001001001MA1999999090221MD1810051+9999ME1315359REMSYN076AAXX  17124 08213 32568 12703 10308 20118 39022 48535 58005 81500 333 50700;EQDQ01  00002PRCP99
0225082130999992000081806004+40940-004120FM-12+100599999V0202301N001512200019N0200001N1+01771+00611999999ADDAA199000091GF101991011001017501031001IA1019IA2999+00909KA1120N+01701MA1999999090031MD1510001+9999ME1314949REMSYN088AAXX  18064 08213 32770 12303 10177 20061 39003 48494 55000 81030 333 20170 30009 55104;EQDQ01  00002PRCP99
0182082130999992000081812004+40940-004120FM-12+100599999V0202701N001512200019N0180001N1+02851+00851999999ADDAA199000091GF102991011051008001001011MA1999999090071MD1010001+9999ME1315169REMSYN076AAXX  18124 08213 32568 22703 10285 20085 39007 48516 50000 81501 333 50630;EQDQ01  00002PRCP99
0195082130999992000081818004+40940-004120FM-12+100599999V0203001N002612200019N0250001N1+02771+00521999999ADDAA199000091GF105991041051008001001011KA1999M+03111MA1999999089991MD1510001+9999ME1315079REMSYN076AAXX  18184 08213 32575 53005 10277 20052 38999 48507 55000 84501 333 10311;EQDQ01  00002PRCP99
0225082130999992000081906004+40940-004120FM-12+100599999V0201001N001012200019N0200001N1+01721+00211999999ADDAA199000091GF101991011001017501041001IA1019IA2999+00809KA1120N+01691MA1999999090101MD1610021+9999ME1314999REMSYN088AAXX  19064 08213 32770 11002 10172 20021 39010 48499 56002 81040 333 20169 30008 55096;EQDQ01  00002PRCP99
0182082130999992000081912004+40940-004120FM-12+100599999V0202201N006712200019N0200001N1+02981+00601999999ADDAA199000091GF101991011021008001001001MA1999999090151MD1710031+9999ME1315269REMSYN076AAXX  19124 08213 32570 12213 10298 20060 39015 48526 57003 81200 333 50610;EQDQ01  00002PRCP99
0195082130999992000081918004+40940-004120FM-12+100599999V0202301N008212200019N0200001N1+02861+00441999999ADDAA199000091GF101991011021008001001001KA1999M+03141MA1999999090071MD1410001+9999ME1315169REMSYN076AAXX  19184 08213 32570 12316 10286 20044 39007 48516 54000 81200 333 10314;EQDQ01  00002PRCP99
0225082130999992000082006004+40940-004120FM-12+100599999V0209999C000012200019N0200001N1+01681+00261999999ADDAA199000091GF105991041001017501051041IA1019IA2999+01209KA1120N+01661MA1999999090231MD1310061+9999ME1315109REMSYN088AAXX  20064 08213 32770 50000 10168 20026 39023 48510 53006 84054 333 20166 30012 55123;EQDQ01  00002PRCP99
0182082130999992000082012004+40940-004120FM-12+100599999V0203001N002110900019N0200001N1+02381+00891999999ADDAA199000091GF105991011021008001041041MA1999999090381MD1010001+9999ME1315389REMSYN076AAXX  20124 08213 32570 53004 10238 20089 39038 48538 50000 81244 333 50840;EQDQ01  00002PRCP99
0195082130999992000082018004+40940-004120FM-12+100599999V0203101N002110360019N0200001N1+02301+00671999999ADDAA199000091GF106991031021008001041041KA1999M+02621MA1999999090311MD1410001+9999ME1315299REMSYN076AAXX  20184 08213 32570 63104 10230 20067 39031 48529 54000 83244 333 10262;EQDQ01  00002PRCP99
0225082130999992000082106004+40940-004120FM-12+100599999V0202101N001012200019N0120001N1+01171+00741999999ADDAA199000091GF103991031051008001001001IA1019IA2999+00709KA1120N+01101MA1999999090431MD1310021+9999ME1315219REMSYN088AAXX  21064 08213 32562 32102 10117 20074 39043 48521 53002 83500 333 20110 30007 55117;EQDQ01  00002PRCP99
0182082130999992000082112004+40940-004120FM-12+100599999V0202701N004112200019N0200001N1+02001+00531999999ADDAA199000091GF103991031011008001001001MA1999999090541MD1110031+9999ME1315469REMSYN076AAXX  21124 08213 32570 32708 10200 20053 39054 48546 51003 83100 333 50550;EQDQ01  00002PRCP99
0195082130999992000082118004+40940-004120FM-12+100599999V0203001N002612200019N0250001N1+02221+00251999999ADDAA199000091GF102991011041008001041001KA1999M+02341MA1999999090391MD1610071+9999ME1315359REMSYN076AAXX  21184 08213 32575 23005 10222 20025 39039 48535 56007 81440 333 10234;EQDQ01  00002PRCP99
0225082130999992000082206004+40940-004120FM-12+100599999V0200901N001012200019N0150001N1+00941+00431999999ADDAA199000091GF103991001001999999001081IA1099IA2999+00109KA1120N+00941MA1999999090311MD1810081+9999ME1315059REMSYN088AAXX  22064 08213 32965 30902 10094 20043 39031 48505 58008 80008 333 20094 31001 55122;EQDQ01  00002PRCP99
0182082130999992000082212004+40940-004120FM-12+100599999V0202201N005112200019N0200001N1+02321-00041999999ADDAA199000091GF101991001001999999001081MA1999999090231MD1610071+9999ME1315219REMSYN076AAXX  22124 08213 32970 12210 10232 21004 39023 48521 56007 80008 333 50600;EQDQ01  00002PRCP99
0205082130999992000082218004+40940-004120FM-12+100599999V0202101N005112200019N0250001N1+02371-00381999999ADDAA199000091GA1001+999999999GF100991001001999999001001KA1999M+02601MA1999999090071MD1610031+9999ME1315079REMSYN070AAXX  22184 08213 32975 02110 10237 21038 39007 48507 56003 333 10260;EQDQ01  00002PRCP99
0225082130999992000082306004+40940-004120FM-12+100599999V0202201N006212200019N0200001N1+01701+00111999999ADDAA199000091GF101991011001017501041001IA1019IA2999+00509KA1120N+01401MA1999999090151MD1810031+9999ME1315039REMSYN088AAXX  23064 08213 32770 12212 10170 20011 39015 48503 58003 81040 333 20140 30005 55127;EQDQ01  00002PRCP99
0182082130999992000082312004+40940-004120FM-12+100599999V0202201N005110900019N0200001N1+02261+00441999999ADDAA199000091GF105991011021008001041041MA1999999090351MD1210121+9999ME1315329REMSYN076AAXX  23124 08213 32570 52210 10226 20044 39035 48532 52012 81244 333 50760;EQDQ01  00002PRCP99
0195082130999992000082318004+40940-004120FM-12+100599999V0202101N004110360019N0200001N1+02301+00451999999ADDAA199000091GF105991041021008001041001KA1999M+02621MA1999999090351MD1410001+9999ME1315339REMSYN076AAXX  23184 08213 32570 52108 10230 20045 39035 48533 54000 84240 333 10262;EQDQ01  00002PRCP99
0225082130999992000082406004+40940-004120FM-12+100599999V0202401N001012200019N0200001N1+01501+00691999999ADDAA199000091GF101991011001017501041001IA1019IA2999+00509KA1120N+01261MA1999999090431MD1710051+9999ME1315269REMSYN088AAXX  24064 08213 32770 12402 10150 20069 39043 48526 57005 81040 333 20126 30005 55099;EQDQ01  00002PRCP99
0182082130999992000082412004+40940-004120FM-12+100599999V0201901N007712200019N0300001N1+02741+00121999999ADDAA199000091GF101991011001017501041001MA1999999090501MD1410001+9999ME1315559REMSYN076AAXX  24124 08213 32780 11915 10274 20012 39050 48555 54000 81040 333 50560;EQDQ01  00002PRCP99
0195082130999992000082418004+40940-004120FM-12+100599999V0201801N005712200019N0300001N1+02761+00011999999ADDAA199000091GF101991011001017501041001KA1999M+02901MA1999999090311MD1710081+9999ME1315379REMSYN076AAXX  24184 08213 32780 11811 10276 20001 39031 48537 57008 81040 333 10290;EQDQ01  00002PRCP99
0225082130999992000082506004+40940-004120FM-12+100599999V0201301N001510360019N0200001N1+01881+00571999999ADDAA199000091GF107991031021008001041041IA1019IA2999+00809KA1120N+01601MA1999999090141MD1610051+9999ME1315069REMSYN088AAXX  25064 08213 32570 71303 10188 20057 39014 48506 56005 83244 333 20160 30008 55122;EQDQ01  00002PRCP99
0182082130999992000082512004+40940-004120FM-12+100599999V0202401N008710120019N0200001N1+02581+00591999999ADDAA199000091GF107991071081008001001001MA1999999090141MD1810041+9999ME1315189REMSYN076AAXX  25124 08213 32570 72417 10258 20059 39014 48518 58004 87800 333 50720;EQDQ01  00002PRCP99
0195082130999992000082518004+40940-004120FM-12+100599999V0202401N006210120019N0200001N1+02361+00261999999ADDAA199000091GF107991051081008001051001KA1999M+02801MA1999999090031MD1610041+9999ME1315039REMSYN076AAXX  25184 08213 32570 72412 10236 20026 39003 48503 56004 85850 333 10280;EQDQ01  00002PRCP99
0225082130999992000082606004+40940-004120FM-12+100599999V0201301N001512200019N0300001N1+01101+00611999999ADDAA199000091GF101991011001017501031001IA1019IA2999+00309KA1120N+01051MA1999999090191MD1210031+9999ME1314979REMSYN088AAXX  26064 08213 32780 11303 10110 20061 39019 48497 52003 81030 333 20105 30003 55061;EQDQ01  00002PRCP99
0182082130999992000082612004+40940-004120FM-12+100599999V0202701N002112200019N0250001N1+02161+00691999999ADDAA199000091GF104991041051008001001001MA1999999090311MD1010001+9999ME1315279REMSYN076AAXX  26124 08213 32575 42704 10216 20069 39031 48527 50000 84500 333 50440;EQDQ01  00002PRCP99
0195082130999992000082618004+40940-004120FM-12+100599999V0203201N001512200019N0250001N1+02261+00561999999ADDAA199000091GF102991011051008001031001KA1999M+02441MA1999999090311MD1410001+9999ME1315299REMSYN076AAXX  26184 08213 32575 23203 10226 20056 39031 48529 54000 81530 333 10244;EQDQ01  00002PRCP99
0225082130999992000082706004+40940-004120FM-12+100599999V0209999C000012200019N0200001N1+01081+00791999999ADDAA199000091GF101991011051008001001011IA1019IA2999+00309KA1120N+00961MA1999999090671MD1210101+9999ME1315419REMSYN088AAXX  27064 08213 32570 10000 10108 20079 39067 48541 52010 81501 333 20096 30003 55118;EQDQ01  00002PRCP99
0182082130999992000082712004+40940-004120FM-12+100599999V0203601N001512200019N0250001N1+02261+00691999999ADDAA199000091GF102991011051008001001011MA1999999090711MD1810081+9999ME1315679REMSYN076AAXX  27124 08213 32575 23603 10226 20069 39071 48567 58008 81501 333 50420;EQDQ01  00002PRCP99
0195082130999992000082718004+40940-004120FM-12+100599999V0202801N002112200019N0200001N1+02441+00461999999ADDAA199000091GF101991011051008001001011KA1999M+02541MA1999999090631MD1710041+9999ME1315629REMSYN076AAXX  27184 08213 32570 12804 10244 20046 39063 48562 57004 81501 333 10254;EQDQ01  00002PRCP99
0225082130999992000082806004+40940-004120FM-12+100599999V0209999C000012200019N0200001N1+01421+00481999999ADDAA199000091GF102991011061008001001011IA1019IA2999+00409KA1120N+01271MA1999999090631MD1710041+9999ME1315439REMSYN088AAXX  28064 08213 32570 20000 10142 20048 39063 48543 57004 81601 333 20127 30004 55125;EQDQ01  00002PRCP99
0182082130999992000082812004+40940-004120FM-12+100599999V0202401N001512200019N0250001N1+02661+00821999999ADDAA199000091GF102991011051008001001011MA1999999090631MD1810081+9999ME1315679REMSYN076AAXX  28124 08213 32575 22403 10266 20082 39063 48567 58008 81501 333 50420;EQDQ01  00002PRCP99
0195082130999992000082818004+40940-004120FM-12+100599999V0203201N002112200019N0180001N1+02771+00711999999ADDAA199000091GF102991011051008001001011KA1999M+02981MA1999999090461MD1610081+9999ME1315529REMSYN076AAXX  28184 08213 32568 23204 10277 20071 39046 48552 56008 81501 333 10298;EQDQ01  00002PRCP99
0235082130999992000082906004+40940-004120FM-12+100599999V0201401N002612200019N0150001N1+01921+00651999999ADDAA199000091GA1001+999999999GF100991001001999999001001IA1019IA2999+00709KA1120N+01601MA1999999090391MD1610041+9999ME1315309REMSYN082AAXX  29064 08213 32965 01405 10192 20065 39039 48530 56004 333 20160 30007 55122;EQDQ01  00002PRCP99
0182082130999992000082912004+40940-004120FM-12+100599999V0202501N005112200019N0150001N1+02921+00431999999ADDAA199000091GF102991011011008001001081MA1999999090351MD1810081+9999ME1315449REMSYN076AAXX  29124 08213 32565 22510 10292 20043 39035 48544 58008 81108 333 50600;EQDQ01  00002PRCP99
0217082130999992000082918004+40940-004120FM-12+100599999V0201901N005712200019N0150001N1+02821+00291999999ADDAA199000091GA1011+008009099GF105991021031008001081091KA1120M+03101MA1999999090151MD1610081+9999ME1315239REMSYN082AAXX  29184 08213 32565 51911 10282 20029 39015 48523 56008 82389 333 10310 81995;EQDQ01  00002PRCP99
0225082130999992000083006004+40940-004120FM-12+100599999V0202301N000512200019N0120001N1+01301+00481999999ADDAA199000091GF102991001001999999001081IA1019IA2999+00409KA1120N+01251MA1999999090111MD1610051+9999ME1314939REMSYN088AAXX  30064 08213 32962 22301 10130 20048 39011 48493 56005 80008 333 20125 30004 55112;EQDQ01  00002PRCP99
0182082130999992000083012004+40940-004120FM-12+100599999V0202901N001512200019N0000001N1+02201+00731999999ADDAA199000091GF103991011001017501041081MA1999999090071MD1810071+9999ME1315059REMSYN076AAXX  30124 08213 32790 32903 10220 20073 39007 48505 58007 81048 333 50600;EQDQ01  00002PRCP99
0195082130999992000083018004+40940-004120FM-12+100599999V0203101N003112200019N0200001N1+02381+00451999999ADDAA199000091GF102991011001017501041081KA1999M+02561MA1999999089941MD1610011+9999ME1314959REMSYN076AAXX  30184 08213 32770 23106 10238 20045 38994 48495 56001 81048 333 10256;EQDQ01  00002PRCP99
0225082130999992000083106004+40940-004120FM-12+100599999V0200901N001012200019N0150001N1+01041+00501999999ADDAA199000091GF101991001001999999001011IA1099IA2999+00109KA1120N+00951MA1999999090101MD1310011+9999ME1314889REMSYN088AAXX  31064 08213 32965 10902 10104 20050 39010 48488 53001 80001 333 20095 31001 55112;EQDQ01  00002PRCP99
0182082130999992000083112004+40940-004120FM-12+100599999V0203001N001512200019N0150001N1+02281+00591999999ADDAA199000091GF102991001001999999001081MA1999999090181MD1810011+9999ME1315179REMSYN076AAXX  31124 08213 32965 23003 10228 20059 39018 48517 58001 80008 333 50500;EQDQ01  00002PRCP99
0205082130999992000083118004+40940-004120FM-12+100599999V0203501N001012200019N0200001N1+02621+00431999999ADDAA199000091GA1001+999999999GF100991001001999999001001KA1999M+02701MA1999999089991MD1710081+9999ME1315049REMSYN070AAXX  31184 08213 32970 03502 10262 20043 38999 48504 57008 333 10270;EQDQ01  00002PRCP99
0235082130999992000090106004+40940-004120FM-12+100599999V0200801N001512200019N0200001N1+01381+00221999999ADDAA199000091GA1001+999999999GF100991001001999999001001IA1019IA2999+00509KA1120N+01381MA1999999090071MD1610031+9999ME1314909REMSYN082AAXX  01064 08213 32970 00803 10138 20022 39007 48490 56003 333 20138 30005 55122;EQDQ01  00002PRCP99
0192082130999992000090112004+40940-004120FM-12+100599999V0202901N002612200019N0200001N1+02641+00401999999ADDAA199000091GA1001+999999999GF100991001001999999001001MA1999999090181MD1110041+9999ME1315239REMSYN070AAXX  01124 08213 32970 02905 10264 20040 39018 48523 51004 333 50480;EQDQ01  00002PRCP99
0205082130999992000090118004+40940-004120FM-12+100599999V0202901N003612200019N0200001N1+02741+00271999999ADDAA199000091GA1001+999999999GF100991001001999999001001KA1999M+02901MA1999999090071MD1610071+9999ME1315139REMSYN070AAXX  01184 08213 32970 02907 10274 20027 39007 48513 56007 333 10290;EQDQ01  00002PRCP99
0235082130999992000090206004+40940-004120FM-12+100599999V0202601N001012200019N0200001N1+01241+00071999999ADDAA199000091GA1001+999999999GF100991001001999999001001IA1019IA2999+00609KA1120N+01241MA1999999090341MD1310051+9999ME1315139REMSYN082AAXX  02064 08213 32970 02602 10124 20007 39034 48513 53005 333 20124 30006 55121;EQDQ01  00002PRCP99
0192082130999992000090212004+40940-004120FM-12+100599999V0202301N002112200019N0200001N1+02381+00891999999ADDAA199000091GA1001+999999999GF100991001001999999001001MA1999999090471MD1410001+9999ME1315469REMSYN070AAXX  02124 08213 32970 02304 10238 20089 39047 48546 54000 333 50500;EQDQ01  00002PRCP99
0195082130999992000090218004+40940-004120FM-12+100599999V0203201N003612200019N0200001N1+02541+00461999999ADDAA199000091GF101991001001999999001011KA1999M+02701MA1999999090351MD1410001+9999ME1315379REMSYN076AAXX  02184 08213 32970 13207 10254 20046 39035 48537 54000 80001 333 10270;EQDQ01  00002PRCP99
0182082130999992000090312004+40940-004120FM-12+100599999V0202801N001512200019N0200001N1+02241+00931999999ADDAA199000091GF101991001001999999001011MA1999999090511MD1410001+9999ME1315489REMSYN076AAXX  03124 08213 32970 12803 10224 20093 39051 48548 54000 80001 333 50520;EQDQ01  00002PRCP99
0195082130999992000090318004+40940-004120FM-12+100599999V0203501N002112200019N0200001N1+02381+00471999999ADDAA199000091GF101991011001017501041001KA1999M+02601MA1999999090271MD1610081+9999ME1315279REMSYN076AAXX  03184 08213 32770 13504 10238 20047 39027 48527 56008 81040 333 10260;EQDQ01  00002PRCP99
0225082130999992000090406004+40940-004120FM-12+100599999V0202301N001012200019N0200001N1+01011+00711999999ADDAA199000091GF101991011011008001041001IA1019IA2999+00509KA1120N+00991MA1999999090541MD1210041+9999ME1315269REMSYN088AAXX  04064 08213 32570 12302 10101 20071 39054 48526 52004 81140 333 20099 30005 55119;EQDQ01  00002PRCP99
0192082130999992000090412004+40940-004120FM-12+100599999V0200101N002112200019N0180001N1+02061+00511999999ADDAA199000091GA1001+999999999GF100991001001999999001001MA1999999090711MD1410001+9999ME1315639REMSYN070AAXX  04124 08213 32968 00104 10206 20051 39071 48563 54000 333 50470;EQDQ01  00002PRCP99
0195082130999992000090418004+40940-004120FM-12+100599999V0203601N002112200019N0250001N1+02221+00121999999ADDAA199000091GF101991001001999999001011KA1999M+02371MA1999999090581MD1610011+9999ME1315539REMSYN076AAXX  04184 08213 32975 13604 10222 20012 39058 48553 56001 80001 333 10237;EQDQ01  00002PRCP99
0225082130999992000090506004+40940-004120FM-12+100599999V0200801N001512200019N0250001N1+00881+00171999999ADDAA199000091GF101991001001999999001011IA1019IA2999-00109KA1120N+00851MA1999999090831MD1410001+9999ME1315519REMSYN088AAXX  05064 08213 32975 10803 10088 20017 39083 48551 54000 80001 333 20085 30101 55122;EQDQ01  00002PRCP99
0182082130999992000090512004+40940-004120FM-12+100599999V0202801N002112200019N0300001N1+02101+00461999999ADDAA199000091GF101991001001999999001011MA1999999090871MD1810041+9999ME1315789REMSYN076AAXX  05124 08213 32980 12804 10210 20046 39087 48578 58004 80001 333 50380;EQDQ01  00002PRCP99
0205082130999992000090518004+40940-004120FM-12+100599999V0202801N002612200019N0250001N1+02461+00031999999ADDAA199000091GA1001+999999999GF100991001001999999001001KA1999M+02571MA1999999090751MD1610041+9999ME1315739REMSYN070AAXX  05184 08213 32975 02805 10246 20003 39075 48573 56004 333 10257;EQDQ01  00002PRCP99
0225082130999992000090606004+40940-004120FM-12+100599999V0200901N001012200019N0250001N1+01161+00001999999ADDAA199000091GF102991001001999999001021IA1019IA2999+00209KA1120N+01131MA1999999090791MD1410001+9999ME1315529REMSYN088AAXX  06064 08213 32975 20902 10116 20000 39079 48552 54000 80002 333 20113 30002 55120;EQDQ01  00002PRCP99
0182082130999992000090612004+40940-004120FM-12+100599999V0202901N002612200019N0250001N1+02601-00131999999ADDAA199000091GF101991001001999999001011MA1999999090831MD1010001+9999ME1315849REMSYN076AAXX  06124 08213 32975 12905 10260 21013 39083 48584 50000 80001 333 50420;EQDQ01  00002PRCP99
0195082130999992000090618004+40940-004120FM-12+100599999V0203101N001512200019N0300001N1+02721-00221999999ADDAA199000091GF103991001001999999001021KA1999M+02871MA1999999090631MD1610071+9999ME1315679REMSYN076AAXX  06184 08213 32980 33103 10272 21022 39063 48567 56007 80002 333 10287;EQDQ01  00002PRCP99
0225082130999992000090706004+40940-004120FM-12+100599999V0200801N000512200019N0120001N1+01481+00241999999ADDAA199000091GF101991001001999999001021IA1019IA2999+00509KA1120N+00941MA1999999090631MD1510001+9999ME1315449REMSYN088AAXX  07064 08213 32962 10801 10148 20024 39063 48544 55000 80002 333 20094 30005 55115;EQDQ01  00002PRCP99
0210082130999992000090712004+40940-004120FM-12+100599999V0202801N002112200019N0040001N1+02641+00451999999ADDAA199000091AY101061AY201061GF101991001001999999001021MA1999999090661MD1810051+9999ME1315699MW1051REMSYN082AAXX  07124 08213 31940 12804 10264 20045 39066 48569 58005 70500 80002 333 50650;EQDQ01  00002PRCP99
0195082130999992000090718004+40940-004120FM-12+100599999V0200401N002612200019N0250001N1+02771+00681999999ADDAA199000091GF102991001001999999001041KA1999M+02991MA1999999090471MD1710071+9999ME1315539REMSYN076AAXX  07184 08213 32975 20405 10277 20068 39047 48553 57007 80004 333 10299;EQDQ01  00002PRCP99
0235082130999992000090806004+40940-004120FM-12+100599999V0201501N001012200019N0200001N1+01521+00841999999ADDAA199000091GA1001+999999999GF100991001001999999001001IA1019IA2999+00709KA1120N+01501MA1999999090501MD1610031+9999ME1315339REMSYN082AAXX  08064 08213 32970 01502 10152 20084 39050 48533 56003 333 20150 30007 55118;EQDQ01  00002PRCP99
0192082130999992000090812004+40940-004120FM-12+100599999V0203201N001512200019N0200001N1+02961+00901999999ADDAA199000091GA1001+999999999GF100991001001999999001001MA1999999090471MD1810081+9999ME1315579REMSYN070AAXX  08124 08213 32970 03203 10296 20090 39047 48557 58008 333 50460;EQDQ01  00002PRCP99
0195082130999992000090818004+40940-004120FM-12+100599999V0202301N002612200019N0250001N1+03121+00851999999ADDAA199000091GF101991011041008001001001KA1999M+03321MA1999999090351MD1410001+9999ME1315489REMSYN076AAXX  08184 08213 32575 12305 10312 20085 39035 48548 54000 81400 333 10332;EQDQ01  00002PRCP99
0225082130999992000090906004+40940-004120FM-12+100599999V0201101N002112200019N0150001N1+02061+00911999999ADDAA199000091GF102991001001999999001081IA1019IA2999+01209KA1120N+02041MA1999999090591MD1310031+9999ME1315529REMSYN088AAXX  09064 08213 32965 21104 10206 20091 39059 48552 53003 80008 333 20204 30012 55118;EQDQ01  00002PRCP99
0182082130999992000090912004+40940-004120FM-12+100599999V0202401N002612200019N0200001N1+03141+00931999999ADDAA199000091GF103991011011008001001081MA1999999090701MD1010031+9999ME1315839REMSYN076AAXX  09124 08213 32570 32405 10314 20093 39070 48583 50003 81108 333 50620;EQDQ01  00002PRCP99
0217082130999992000090918004+40940-004120FM-12+100599999V0202401N003610360019N0200001N1+03021+00991999999ADDAA199000091GA1011+008009099GF105991031031008001041081KA1120M+03321MA1999999090581MD1410001+9999ME1315699REMSYN082AAXX  09184 08213 32570 52407 10302 20099 39058 48569 54000 83348 333 10332 81995;EQDQ01  00002PRCP99
0225082130999992000091006004+40940-004120FM-12+100599999V0201001N001512200019N0160001N1+01901+00921999999ADDAA199000091GF102991001001999999001081IA1019IA2999+01109KA1120N+01901MA1999999090791MD1710041+9999ME1315689REMSYN088AAXX  10064 08213 32966 21003 10190 20092 39079 48568 57004 80008 333 20190 30011 55107;EQDQ01  00002PRCP99
0204082130999992000091012004+40940-004120FM-12+100599999V0203001N001512200019N0200001N1+03081+01311999999ADDAA199000091GA1011+008009099GF102991021031008001001001MA1999999090711MD1010001+9999ME1315849REMSYN082AAXX  10124 08213 32570 23003 10308 20131 39071 48584 50000 82300 333 50520 81995;EQDQ01  00002PRCP99
0217082130999992000091018004+40940-004120FM-12+100599999V0201701N002110075019N0200001N1+02881+01201999999ADDAA199000091GA1021+008009099GF107991051031008001001081KA1120M+03321MA1999999090471MD1710041+9999ME1315569REMSYN082AAXX  10184 08213 32570 71704 10288 20120 39047 48556 57004 85308 333 10332 82995;EQDQ01  00002PRCP99
0255082130999992000091106004+40940-004120FM-12+100599999V0200901N000510360019N0200001N1+02041+00981999999ADDAA199000091GA1011+008009099GF107991031031008001051081GJ105409IA1019IA2999+01309KA1120N+02001MA1999999090261MD1710061+9999ME1315219REMSYN094AAXX  11064 08213 32570 70901 10204 20098 39026 48521 57006 83358 333 20200 30013 55090 81995;EQDQ01  00002PRCP99
0182082130999992000091112004+40940-004120FM-12+100599999V0203101N008710120019N0140001N1+01841+01061999999ADDAA199000091GF108991081081008001999999MA1999999090671MD1210321+9999ME1315569REMSYN076AAXX  11124 08213 32564 83117 10184 20106 39067 48556 52032 888// 333 50550;EQDQ01  00002PRCP99
0232082130999992000091118004+40940-004120FM-12+100599999V0202701N000510360019N0200001N1+02301+00831999999ADDAA112004191AY191061AY261061GA1011+008009099GF107991031031008001051081KA1120M+02581MA1999999090301MD1610241+9999ME1315299MW1021REMSYN094AAXX  11184 08213 11570 72701 10230 20083 39030 48529 56024 60042 70296 83358 333 10258 81995;
0225082130999992000091206004+40940-004120FM-12+100599999V0200901N001512200019N0200001N1+01381+00531999999ADDAA199000091GF102991021001017501041001IA1099IA2999+00609KA1120N+01371MA1999999090301MD1610071+9999ME1315129REMSYN088AAXX  12064 08213 32770 20903 10138 20053 39030 48512 56007 82040 333 20137 31006 55050;EQDQ01  00002PRCP99
0182082130999992000091212004+40940-004120FM-12+100599999V0202801N001512200019N0160001N1+02701+00781999999ADDAA199000091GF102991021021008001001001MA1999999090391MD1010001+9999ME1315449REMSYN076AAXX  12124 08213 32566 22803 10270 20078 39039 48544 50000 82200 333 50320;EQDQ01  00002PRCP99
0195082130999992000091218004+40940-004120FM-12+100599999V0202901N002110120019N0180001N1+02621+00761999999ADDAA199000091GF107991071081008001001001KA1999M+02921MA1999999090151MD1610041+9999ME1315209REMSYN076AAXX  12184 08213 32568 72904 10262 20076 39015 48520 56004 87800 333 10292;EQDQ01  00002PRCP99
0241082130999992000091306004+40940-004120FM-12+100599999V0200901N001512200019N0200001N1+01501+00441999999ADDAA199000091GF102991999001017501041001IA1019IA2999+00609KA1120N+01501MA1999999090261MD1610051+9999ME1315109REMSYN088AAXX  13064 08213 32770 20903 10150 20044 39026 48510 56005 81040 333 20150 30006 55088;EQDQ01+000012SCOTLCQ02  00002PRCP99
0192082130999992000091312004+40940-004120FM-12+100599999V0202401N006712200019N0200001N1+02921+00781999999ADDAA199000091GA1001+999999999GF100991001001999999001001MA1999999090311MD1010011+9999ME1315419REMSYN070AAXX  13124 08213 32970 02413 10292 20078 39031 48541 50001 333 50460;EQDQ01  00002PRCP99
0205082130999992000091318004+40940-004120FM-12+100599999V0202901N003612200019N0200001N1+02781+00651999999ADDAA199000091GA1001+999999999GF100991001001999999001001KA1999M+03001MA1999999090221MD1610011+9999ME1315299REMSYN070AAXX  13184 08213 32970 02907 10278 20065 39022 48529 56001 333 10300;EQDQ01  00002PRCP99
0225082130999992000091406004+40940-004120FM-12+100599999V0201401N003112200019N0100001N1+01721+00321999999ADDAA199000091GF103991011001017501041011IA1019IA2999+00809KA1120N+01601MA1999999090351MD1410001+9999ME1315229REMSYN088AAXX  14064 08213 32760 31406 10172 20032 39035 48522 54000 81041 333 20160 30008 55111;EQDQ01  00002PRCP99
0182082130999992000091412004+40940-004120FM-12+100599999V0202201N003612200019N0150001N1+02861+00301999999ADDAA199000091GF102991011001017501041081MA1999999090431MD1010001+9999ME1315509REMSYN076AAXX  14124 08213 32765 22207 10286 20030 39043 48550 50000 81048 333 50600;EQDQ01  00002PRCP99
0195082130999992000091418004+40940-004120FM-12+100599999V0202901N004112200019N0200001N1+02781+00651999999ADDAA199000091GF102991001001999999001081KA1999M+03081MA1999999090351MD1610041+9999ME1315429REMSYN076AAXX  14184 08213 32970 22908 10278 20065 39035 48542 56004 80008 333 10308;EQDQ01  00002PRCP99
0225082130999992000091506004+40940-004120FM-12+100599999V0200901N001012200019N0120001N1+01621+00601999999ADDAA199000091GF102991001001999999001081IA1019IA2999+00609KA1120N+01501MA1999999090431MD1610031+9999ME1315299REMSYN088AAXX  15064 08213 32962 20902 10162 20060 39043 48529 56003 80008 333 20150 30006 55111;EQDQ01  00002PRCP99
0182082130999992000091512004+40940-004120FM-12+100599999V0202301N005112200019N0150001N1+03001+00451999999ADDAA199000091GF102991001001999999001081MA1999999090431MD1810041+9999ME1315539REMSYN076AAXX  15124 08213 32965 22310 10300 20045 39043 48553 58004 80008 333 50590;EQDQ01  00002PRCP99
0195082130999992000091518004+40940-004120FM-12+100599999V0202001N004112200019N0200001N1+02901+00321999999ADDAA199000091GF102991001001999999001081KA1999M+03181MA1999999090341MD1410001+9999ME1315429REMSYN076AAXX  15184 08213 32970 22008 10290 20032 39034 48542 54000 80008 333 10318;EQDQ01  00002PRCP99
0225082130999992000091606004+40940-004120FM-12+100599999V0201001N000512200019N0100001N1+01461+00631999999ADDAA199000091GF103991011001017501041091IA1019IA2999+00609KA1120N+01361MA1999999090511MD1610031+9999ME1315339REMSYN088AAXX  16064 08213 32760 31001 10146 20063 39051 48533 56003 81049 333 20136 30006 55111;EQDQ01  00002PRCP99
0182082130999992000091612004+40940-004120FM-12+100599999V0202801N001512200019N0120001N1+02601+01021999999ADDAA199000091GF102991011011008001001081MA1999999090431MD1810071+9999ME1315479REMSYN076AAXX  16124 08213 32562 22803 10260 20102 39043 48547 58007 81108 333 50620;EQDQ01  00002PRCP99
0195082130999992000091618004+40940-004120FM-12+100599999V0203101N002612200019N0200001N1+02601+00831999999ADDAA199000091GF102991011041008001001081KA1999M+02861MA1999999090191MD1610041+9999ME1315239REMSYN076AAXX  16184 08213 32570 23105 10260 20083 39019 48523 56004 81408 333 10286;EQDQ01  00002PRCP99
0225082130999992000091706004+40940-004120FM-12+100599999V0209999C000012200019N0250001N1+01301+00841999999ADDAA199000091GF101991001001999999001021IA1019IA2999+00409KA1120N+01201MA1999999090141MD1710091+9999ME1314969REMSYN088AAXX  17064 08213 32975 10000 10130 20084 39014 48496 57009 80002 333 20120 30004 55112;EQDQ01  00002PRCP99
0210082130999992000091712004+40940-004120FM-12+100599999V0202801N002612200019N0030001N1+02151+01101999999ADDAA199000091AY101061AY201061GF102991011021008001001011MA1999999090111MD1810081+9999ME1315089MW1051REMSYN082AAXX  17124 08213 31530 22805 10215 20110 39011 48508 58008 70500 81201 333 50640;EQDQ01  00002PRCP99
0217082130999992000091718004+40940-004120FM-12+100599999V0202901N003112200019N0150001N1+02151+00851999999ADDAA199000091GA1011+008009099GF103991021091008001061021KA1120M+02431MA1999999089901MD1610041+9999ME1314889REMSYN082AAXX  17184 08213 32565 32906 10215 20085 38990 48488 56004 82962 333 10243 81995;EQDQ01  00002PRCP99
0253082130999992000091806004+40940-004120FM-12+100599999V0201701N002612200019N0080001N1+01181+00841999999ADDAA199000091AY101061AY201061GF101991011001017501031001IA1019IA2999+00609KA1120N+01021MA1999999089911MD1710031+9999ME1314739MW1051REMSYN094AAXX  18064 08213 31758 11705 10118 20084 38991 48473 57003 70500 81030 333 20102 30006 55108;EQDQ01  00002PRCP99
0182082130999992000091812004+40940-004120FM-12+100599999V0202901N002112200019N0120001N1+02191+01001999999ADDAA199000091GF102991021081008001001001MA1999999089791MD1810151+9999ME1314789REMSYN076AAXX  18124 08213 32562 22904 10219 20100 38979 48478 58015 82800 333 50360;EQDQ01  00002PRCP99
0195082130999992000091818004+40940-004120FM-12+100599999V0203001N003610075019N0180001N1+02181+00851999999ADDAA199000091GF106991051051008001031011KA1999M+02511MA1999999089461MD1710091+9999ME1314469REMSYN076AAXX  18184 08213 32568 63007 10218 20085 38946 48446 57009 85531 333 10251;EQDQ01  00002PRCP99
0212082130999992000091906004+40940-004120FM-12+100599999V0202401N002110360019N0200001N1+01021+00851999999ADDAA112004191GF106991021061008001071001IA1099IA2999+00509KA1120N+00941MA1999999089071MD1510031+9999ME1313939REMSYN094AAXX  19064 08213 12570 62404 10102 20085 38907 48393 55003 60042 82670 333 20094 31005 55106;
0197082130999992000091912004+40940-004120FM-12+100599999V0202701N006210075019N0250001N1+01221+00651999999ADDAA106006191AY181061AY261061GF107991071051008001999999MA1999999089271MD1810041+9999ME1314149MW1021REMSYN088AAXX  19124 08213 11575 72712 10122 20065 38927 48414 58004 60061 70286 875// 333 50430;
0210082130999992000091918004+40940-004120FM-12+100599999V0202701N005712200019N0300001N1+01331+00181999999ADDAA112006191AY181061AY221061GF104991031051008001061021KA1999M+01571MA1999999089141MD1710041+9999ME1314039MW1211REMSYN088AAXX  19184 08213 11580 42711 10133 20018 38914 48403 57004 60062 72182 83562 333 10157;
0195082130999992000092218004+40940-004120FM-12+100599999V0202801N003612200019N0300001N1+02301-00161999999ADDAA199000091GF101991001001999999001011KA1999M+02601MA1999999090391MD1610081+9999ME1315369REMSYN076AAXX  22184 08213 32980 12807 10230 21016 39039 48536 56008 80001 333 10260;EQDQ01  00002PRCP99
0225082130999992000092306004+40940-004120FM-12+100599999V0201001N001012200019N0300001N1+01201+00071999999ADDAA199000091GF101991001001999999001011IA1019IA2999+00509KA1120N+01201MA1999999090341MD1710101+9999ME1315129REMSYN088AAXX  23064 08213 32980 11002 10120 20007 39034 48512 57010 80001 333 20120 30005 55106;EQDQ01  00002PRCP99
0182082130999992000092312004+40940-004120FM-12+100599999V0202001N003112200019N0300001N1+02521+00361999999ADDAA199000091GF105991021021008001001011MA1999999090381MD1810011+9999ME1315409REMSYN076AAXX  23124 08213 32580 52006 10252 20036 39038 48540 58001 82201 333 50400;EQDQ01  00002PRCP99
0195082130999992000092318004+40940-004120FM-12+100599999V0202001N003612200019N0200001N1+02381+00231999999ADDAA199000091GF105991031021008001001041KA1999M+02761MA1999999090111MD1610071+9999ME1315119REMSYN076AAXX  23184 08213 32570 52007 10238 20023 39011 48511 56007 83204 333 10276;EQDQ01  00002PRCP99
0225082130999992000092406004+40940-004120FM-12+100599999V0209999C000012200019N0300001N1+01161+00351999999ADDAA199000091GF103991011021008001041041IA1019IA2999+00509KA1120N+01161MA1999999090431MD1110031+9999ME1315209REMSYN088AAXX  24064 08213 32580 30000 10116 20035 39043 48520 51003 81244 333 20116 30005 55103;EQDQ01  00002PRCP99
0182082130999992000092412004+40940-004120FM-12+100599999V0203201N002610900019N0200001N1+02141+00641999999ADDAA199000091GF106991011021008001041041MA1999999090551MD1110051+9999ME1315499REMSYN076AAXX  24124 08213 32570 63205 10214 20064 39055 48549 51005 81244 333 50400;EQDQ01  00002PRCP99
0195082130999992000092418004+40940-004120FM-12+100599999V0203101N001512200019N0200001N1+02201+00671999999ADDAA199000091GF103991011021008001001041KA1999M+02461MA1999999090551MD1310091+9999ME1315509REMSYN076AAXX  24184 08213 32570 33103 10220 20067 39055 48550 53009 81204 333 10246;EQDQ01  00002PRCP99
0235082130999992000092506004+40940-004120FM-12+100599999V0200801N001012200019N0200001N1+01221+00751999999ADDAA199000091GA1001+999999999GF100991001001999999001001IA1019IA2999+00409KA1120N+01131MA1999999090741MD1210041+9999ME1315509REMSYN082AAXX  25064 08213 32970 00802 10122 20075 39074 48550 52004 333 20113 30004 55102;EQDQ01  00002PRCP99
0182082130999992000092512004+40940-004120FM-12+100599999V0202101N003612200019N0230001N1+02631+00641999999ADDAA199000091GF101991011051004501001001MA1999999090751MD1010001+9999ME1315779REMSYN076AAXX  25124 08213 32473 12107 10263 20064 39075 48577 50000 81500 333 50310;EQDQ01  00002PRCP99
0195082130999992000092518004+40940-004120FM-12+100599999V0202001N003612200019N0200001N1+02381+00531999999ADDAA199000091GF102991021051008001001001KA1999M+02781MA1999999090621MD1410001+9999ME1315609REMSYN076AAXX  25184 08213 32570 22007 10238 20053 39062 48560 54000 82500 333 10278;EQDQ01  00002PRCP99
0225082130999992000092606004+40940-004120FM-12+100599999V0200601N001512200019N0220001N1+01401+00871999999ADDAA199000091GF103991011051008001031011IA1019IA2999+00709KA1120N+01361MA1999999090661MD1610031+9999ME1315469REMSYN088AAXX  26064 08213 32572 30603 10140 20087 39066 48546 56003 81531 333 20136 30007 55107;EQDQ01  00002PRCP99
0219082130999992000092612004+40940-004120FM-12+100599999V0202901N001012200019N0200001N1+01961+00871999999ADDAA106000191AY191061AY281061GA1011+008009099GF104991021091008001081021MA1999999090751MD1810031+9999ME1315659MW1031REMSYN094AAXX  26124 08213 11570 42902 10196 20087 39075 48565 58003 69921 70398 82982 333 50400 81995;
0232082130999992000092618004+40940-004120FM-12+100599999V0202901N001512200019N0180001N1+02141+00971999999ADDAA112000191AY181061AY211061GA1011+008009099GF103991021031008001041011KA1120M+02431MA1999999090551MD1610041+9999ME1315509MW1031REMSYN094AAXX  26184 08213 11568 32903 10214 20097 39055 48550 56004 69922 70381 82341 333 10243 81995;
0225082130999992000092706004+40940-004120FM-12+100599999V0201001N001512200019N0200001N1+01081+00971999999ADDAA199000091GF101991001001999999001011IA1019IA2999+00509KA1120N+01041MA1999999090631MD1610041+9999ME1315379REMSYN088AAXX  27064 08213 32970 11003 10108 20097 39063 48537 56004 80001 333 20104 30005 55060;EQDQ01  00002PRCP99
0182082130999992000092712004+40940-004120FM-12+100599999V0202901N002612200019N0300001N1+02271+00851999999ADDAA199000091GF104991021081008001001021MA1999999090551MD1810161+9999ME1315529REMSYN076AAXX  27124 08213 32580 42905 10227 20085 39055 48552 58016 82802 333 50190;EQDQ01  00002PRCP99
0195082130999992000092718004+40940-004120FM-12+100599999V0203001N003112200019N0300001N1+02141+00741999999ADDAA199000091GF104991011051008001001051KA1999M+02581MA1999999090391MD1610041+9999ME1315349REMSYN076AAXX  27184 08213 32580 43006 10214 20074 39039 48534 56004 81505 333 10258;EQDQ01  00002PRCP99
0225082130999992000092806004+40940-004120FM-12+100599999V0200601N001512200019N0220001N1+01401+00871999999ADDAA199000091GF103991011051008001031011IA1019IA2999+00709KA1120N+01361MA1999999090661MD1610031+9999ME1315469REMSYN088AAXX  28064 08213 32572 30603 10140 20087 39066 48546 56003 81531 333 20136 30007 55107;EQDQ01  00002PRCP99
0197082130999992000092812004+40940-004120FM-12+100599999V0203101N002110360019N0030001N1+01141+00831999999ADDAA106000391AY121061AY221061GF107991041061008001071999MA1999999089991MD1010001+9999ME1314809MW1611REMSYN088AAXX  28124 08213 11530 73104 10114 20083 38999 48480 50000 69931 76122 8467/ 333 50220;
0210082130999992000092818004+40940-004120FM-12+100599999V0202201N003610360019N0300001N1+01291+00831999999ADDAA112004191AY161061AY261061GF107991041051008001071999KA1999M+01611MA1999999089551MD1710321+9999ME1314419MW1021REMSYN088AAXX  28184 08213 11580 72207 10129 20083 38955 48441 57032 60042 70266 8457/ 333 10161;
0240082130999992000092906004+40940-004120FM-12+100599999V0202501N003110075019N0080001N1+00821+00701999999ADDAA112000891AY161061AY221061GF108991061071008001071081IA1119IA2999+00509KA1120N+00761MA1999999089391MD1610031+9999ME1314199MW1101REMSYN100AAXX  29064 08213 11558 82506 10082 20070 38939 48419 56003 69982 71062 86778 333 20076 32005 55000;
0240082130999992000093006004+40940-004120FM-12+100599999V0202801N001510075019N0050001N1+00721+00681999999ADDAA112001091AY161061AY221061GF108991061061008001021001IA1119IA2999+00709KA1120N+00721MA1999999089751MD1310091+9999ME1314519MW1101REMSYN100AAXX  30064 08213 11550 82803 10072 20068 38975 48451 53009 69992 71062 86620 333 20072 32007 55020;
0182082130999992000093012004+40940-004120FM-12+100599999V0203001N004110120019N0150001N1+01301+00531999999ADDAA199000091GF106991061081008001001001MA1999999089951MD1110041+9999ME1314789REMSYN076AAXX  30124 08213 32565 63008 10130 20053 38995 48478 51004 86800 333 50130;EQDQ01  00002PRCP99
0195082130999992000093018004+40940-004120FM-12+100599999V0202901N004610360019N0200001N1+01301+00381999999ADDAA199000091GF105991041041008001031001KA1999M+01581MA1999999089861MD1510001+9999ME1314709REMSYN076AAXX  30184 08213 32570 52909 10130 20038 38986 48470 55000 84430 333 10158;EQDQ01  00002PRCP99
0253082130999992000100106004+40940-004120FM-12+100599999V0202701N003610075019N0070001N1+00701+00601999999ADDAA199000091AY121061AY221061GF108991061061008001021081IA1019IA2999+00509KA1120N+00701MA1999999090021MD1310031+9999ME1314759MW1101REMSYN094AAXX  01064 08213 31557 82707 10070 20060 39002 48475 53003 71022 86628 333 20070 30005 55053;EQDQ01  00002PRCP99
0182082130999992000100112004+40940-004120FM-12+100599999V0202801N005710075019N0120001N1+01281+00451999999ADDAA199000091GF107991071071008001001001MA1999999090151MD1110041+9999ME1314969REMSYN076AAXX  01124 08213 32562 72811 10128 20045 39015 48496 51004 87700 333 50180;EQDQ01  00002PRCP99
0195082130999992000100118004+40940-004120FM-12+100599999V0202901N005110075019N0150001N1+01301+00931999999ADDAA199000091GF108991061041008001071081KA1999M+01441MA1999999090151MD1410001+9999ME1314979REMSYN076AAXX  01184 08213 32565 82910 10130 20093 39015 48497 54000 86478 333 10144;EQDQ01  00002PRCP99
0225082130999992000100206004+40940-004120FM-12+100599999V0203101N003110120019N0160001N1+01081+00931999999ADDAA199000091GF107991071081008001001001IA1019IA2999+00809KA1120N+01001MA1999999090711MD1110071+9999ME1315459REMSYN088AAXX  02064 08213 32566 73106 10108 20093 39071 48545 51007 87800 333 20100 30008 55024;EQDQ01  00002PRCP99
0182082130999992000100212004+40940-004120FM-12+100599999V0202801N001512200019N0200001N1+01461+00431999999ADDAA199000091GF104991021021008001001041MA1999999090991MD1110121+9999ME1315779REMSYN076AAXX  02124 08213 32570 42803 10146 20043 39099 48577 51012 82204 333 50130;EQDQ01  00002PRCP99
0195082130999992000100218004+40940-004120FM-12+100599999V0203001N001512200019N0300001N1+01781-00031999999ADDAA199000091GF101991001001999999001011KA1999M+01861MA1999999090941MD1510011+9999ME1315789REMSYN076AAXX  02184 08213 32980 13003 10178 21003 39094 48578 55001 80001 333 10186;EQDQ01  00002PRCP99
0225082130999992000100306004+40940-004120FM-12+100599999V0201101N000512200019N0300001N1+00881-00301999999ADDAA199000091GF101991011001017501041001IA1019IA2999+00109KA1120N+00881MA1999999090941MD1610051+9999ME1315609REMSYN088AAXX  03064 08213 32780 11101 10088 21030 39094 48560 56005 81040 333 20088 30001 55091;EQDQ01  00002PRCP99
0182082130999992000100312004+40940-004120FM-12+100599999V0203101N001012200019N0300001N1+02161-00161999999ADDAA199000091GF101991011001017501041001MA1999999090871MD1810041+9999ME1315799REMSYN076AAXX  03124 08213 32780 13102 10216 21016 39087 48579 58004 81040 333 50280;EQDQ01  00002PRCP99
0195082130999992000100318004+40940-004120FM-12+100599999V0203001N002112200019N0300001N1+02081-00521999999ADDAA199000091GF102991011001017501041041KA1999M+02381MA1999999090751MD1510001+9999ME1315669REMSYN076AAXX  03184 08213 32780 23004 10208 21052 39075 48566 55000 81044 333 10238;EQDQ01  00002PRCP99
0225082130999992000100406004+40940-004120FM-12+100599999V0200901N001512200019N0300001N1+00941-00271999999ADDAA199000091GF101991011001017501041001IA1019IA2999+00209KA1120N+00941MA1999999090671MD1710031+9999ME1315379REMSYN088AAXX  04064 08213 32780 10903 10094 21027 39067 48537 57003 81040 333 20094 30002 55114;EQDQ01  00002PRCP99
0182082130999992000100412004+40940-004120FM-12+100599999V0200401N001012200019N0200001N1+02361-00031999999ADDAA199000091GF106991011001017501041041MA1999999090631MD1810041+9999ME1315609REMSYN076AAXX  04124 08213 32770 60402 10236 21003 39063 48560 58004 81044 333 50420;EQDQ01  00002PRCP99
0195082130999992000100418004+40940-004120FM-12+100599999V0203001N002110900019N0200001N1+02121-00241999999ADDAA199000091GF107991041001017501051071KA1999M+02561MA1999999090461MD1610011+9999ME1315399REMSYN076AAXX  04184 08213 32770 73004 10212 21024 39046 48539 56001 84057 333 10256;EQDQ01  00002PRCP99
0253082130999992000100506004+40940-004120FM-12+100599999V0209999C000010900019N0050001N1+01141-00091999999ADDAA199000091AY111061AY211061GF106991031001017501051071IA1019IA2999+00409KA1120N+01141MA1999999090511MD1610041+9999ME1315269MW1051REMSYN094AAXX  05064 08213 31750 60000 10114 21009 39051 48526 56004 70511 83057 333 20114 30004 55086;EQDQ01  00002PRCP99
0210082130999992000100512004+40940-004120FM-12+100599999V0203001N001512200019N0050001N1+01941+00261999999ADDAA199000091AY111061AY211061GF104991021001017501041071MA1999999090701MD1110081+9999ME1315599MW1051REMSYN082AAXX  05124 08213 31750 43003 10194 20026 39070 48559 51008 70511 82047 333 50280;EQDQ01  00002PRCP99
0223082130999992000100518004+40940-004120FM-12+100599999V0200201N003112200019N0040001N1+01901+00371999999ADDAA199000091AY111061AY211061GF102991011001017501041071KA1999M+02241MA1999999090541MD1810011+9999ME1315449MW1051REMSYN082AAXX  05184 08213 31740 20206 10190 20037 39054 48544 58001 70511 81047 333 10224;EQDQ01  00002PRCP99
0253082130999992000100606004+40940-004120FM-12+100599999V0209999C000010042019N0020001N1+00841+00721999999ADDAA199000091AY121061AY221061GF106991061061004501001001IA1099IA2999+00209KA1120N+00681MA1999999090861MD1510001+9999ME1315539MW1101REMSYN094AAXX  06064 08213 31420 60000 10084 20072 39086 48553 55000 71022 86600 333 20068 31002 55094;EQDQ01  00002PRCP99
0182082130999992000100612004+40940-004120FM-12+100599999V0200301N001512200019N0150001N1+01621+00551999999ADDAA199000091GF103991011001017501041081MA1999999090911MD1810031+9999ME1315739REMSYN076AAXX  06124 08213 32765 30303 10162 20055 39091 48573 58003 81048 333 50250;EQDQ01  00002PRCP99
0195082130999992000100618004+40940-004120FM-12+100599999V0200101N002110360019N0120001N1+01541+00251999999ADDAA199000091GF106991021041008001041081KA1999M+01961MA1999999090831MD1310041+9999ME1315639REMSYN076AAXX  06184 08213 32562 60104 10154 20025 39083 48563 53004 82448 333 10196;EQDQ01  00002PRCP99
0235082130999992000100706004+40940-004120FM-12+100599999V0209999C000012200019N0120001N1+00381+00191999999ADDAA199000091GA1001+999999999GF100991001001999999001001IA1149IA2999-00409KA1120N+00301MA1999999090941MD1310041+9999ME1315519REMSYN082AAXX  07064 08213 32962 00000 10038 20019 39094 48551 53004 333 20030 34104 55055;EQDQ01  00002PRCP99
0210082130999992000100712004+40940-004120FM-12+100599999V0202601N001512200019N0090001N1+01541+00331999999ADDAA199000091AY101061AY201061GF104991011001017501041081MA1999999090991MD1010001+9999ME1315789MW1051REMSYN082AAXX  07124 08213 31759 42603 10154 20033 39099 48578 50000 70500 81048 333 50250;EQDQ01  00002PRCP99
0195082130999992000100718004+40940-004120FM-12+100599999V0203401N000512200019N0250001N1+01841-00201999999ADDAA199000091GF102991011001017501041081KA1999M+02041MA1999999090831MD1410001+9999ME1315699REMSYN076AAXX  07184 08213 32775 23401 10184 21020 39083 48569 54000 81048 333 10204;EQDQ01  00002PRCP99
0235082130999992000100806004+40940-004120FM-12+100599999V0200801N001512200019N0300001N1+00761-00111999999ADDAA199000091GA1001+999999999GF100991001001999999001001IA1019IA2999-00109KA1120N+00741MA1999999090861MD1210021+9999ME1315519REMSYN082AAXX  08064 08213 32980 00803 10076 21011 39086 48551 52002 333 20074 30101 55109;EQDQ01  00002PRCP99
0192082130999992000100812004+40940-004120FM-12+100599999V0200201N001012200019N0300001N1+02001-00191999999ADDAA199000091GA1001+999999999GF100991001001999999001001MA1999999090901MD1010001+9999ME1315789REMSYN070AAXX  08124 08213 32980 00202 10200 21019 39090 48578 50000 333 50230;EQDQ01  00002PRCP99
0195082130999992000100818004+40940-004120FM-12+100599999V0203401N001012200019N0250001N1+01931+00011999999ADDAA199000091GF101991001001999999001011KA1999M+02251MA1999999090711MD1410001+9999ME1315609REMSYN076AAXX  08184 08213 32975 13402 10193 20001 39071 48560 54000 80001 333 10225;EQDQ01  00002PRCP99
0225082130999992000100906004+40940-004120FM-12+100599999V0200801N001012200019N0300001N1+00871-00011999999ADDAA199000091GF101991011001017501031001IA1019IA2999-00109KA1120N+00841MA1999999090431MD1710101+9999ME1315149REMSYN088AAXX  09064 08213 32780 10802 10087 21001 39043 48514 57010 81030 333 20084 30101 55107;EQDQ01  00002PRCP99
0182082130999992000100912004+40940-004120FM-12+100599999V0202701N003112200019N0250001N1+02031+00031999999ADDAA199000091GF102991001001999999001011MA1999999090301MD1810171+9999ME1315239REMSYN076AAXX  09124 08213 32975 22706 10203 20003 39030 48523 58017 80001 333 50280;EQDQ01  00002PRCP99
0195082130999992000100918004+40940-004120FM-12+100599999V0202901N002110900019N0200001N1+01741+00471999999ADDAA199000091GF106991041001017501041021KA1999M+02181MA1999999090071MD1710041+9999ME1314979REMSYN076AAXX  09184 08213 32770 62904 10174 20047 39007 48497 57004 84042 333 10218;EQDQ01  00002PRCP99
0225082130999992000101006004+40940-004120FM-12+100599999V0202901N005710075019N0180001N1+01101+00891999999ADDAA199000091GF106991061051008001001001IA1019IA2999+01009KA1120N+01081MA1999999089791MD1710051+9999ME1314619REMSYN088AAXX  10064 08213 32568 62911 10110 20089 38979 48461 57005 86500 333 20108 30010 55099;EQDQ01  00002PRCP99
0182082130999992000101012004+40940-004120FM-12+100599999V0202901N004112200019N0200001N1+01211+00341999999ADDAA199000091GF103991031051008001001001MA1999999089951MD1010001+9999ME1314779REMSYN076AAXX  10124 08213 32570 32908 10121 20034 38995 48477 50000 83500 333 50360;EQDQ01  00002PRCP99
0195082130999992000101018004+40940-004120FM-12+100599999V0202901N007710075019N0250001N1+01491+00531999999ADDAA199000091GF107991051051008001041011KA1999M+01731MA1999999089751MD1610031+9999ME1314639REMSYN076AAXX  10184 08213 32575 72915 10149 20053 38975 48463 56003 85541 333 10173;EQDQ01  00002PRCP99
0225082130999992000101106004+40940-004120FM-12+100599999V0202401N010310075019N0120001N1+01401+00611999999ADDAA199000091GF107991061071008001071081IA1019IA2999+00909KA1120N+01161MA1999999090271MD1710301+9999ME1315109REMSYN088AAXX  11064 08213 32562 72420 10140 20061 39027 48510 57030 86778 333 20116 30009 55048;EQDQ01  00002PRCP99
0216082130999992000101112004+40940-004120FM-12+100599999V0203001N006210075019N0030001N1+01041+00971999999ADDAA106005191AY181061AY261061GF107991061071008001071081MA1999999088782MD1510011+9999ME1313669MW1811REMSYN088AAXX  11124 08213 11530 73012 10104 20097 38878 48366 55001 60051 78186 86778 333 50350;EQDQ01+088783APOSP 
0210082130999992000101118004+40940-004120FM-12+100599999V0202701N006210075019N0080001N1+00981+00781999999ADDAA112011991AY181061AY261061GF107991061071008001071081KA1999M+01561MA1999999088751MD1810041+9999ME1313639MW1611REMSYN088AAXX  11184 08213 11558 72712 10098 20078 38875 48363 58004 60122 76186 86778 333 10156;
0240082130999992000101206004+40940-004120FM-12+100599999V0202801N003110120019N0080001N1+00441+00351999999ADDAA112000191AY161061AY221061GF107991051081008001031001IA1099IA2999+00209KA1120N+00441MA1999999088821MD1210121+9999ME1313629MW1101REMSYN100AAXX  12064 08213 11558 72806 10044 20035 38882 48362 52012 69922 71062 85830 333 20044 31002 55000;
0210082130999992000101218004+40940-004120FM-12+100599999V0202801N002110075019N0120001N1+00761+00411999999ADDAA112000191AY161061AY221061GF107991051051008001031001KA1999M+00821MA1999999089151MD1210091+9999ME1313969MW1021REMSYN088AAXX  12184 08213 11562 72804 10076 20041 38915 48396 52009 69912 70262 85530 333 10082;
0240082130999992000101306004+40940-004120FM-12+100599999V0202401N001510075019N0160001N1+00341+00201999999ADDAA112005191AY161061AY221061GF107991051051008001021001IA1119IA2999+00209KA1120N+00341MA1999999089821MD1110081+9999ME1314509MW1021REMSYN100AAXX  13064 08213 11566 72403 10034 20020 38982 48450 51008 60052 70262 85520 333 20034 32002 55011;
0182082130999992000101312004+40940-004120FM-12+100599999V0209999C000010075019N0140001N1+00681+00221999999ADDAA199000091GF108991051051008001021001MA1999999090111MD1110131+9999ME1314829REMSYN076AAXX  13124 08213 32564 80000 10068 20022 39011 48482 51013 85520 333 50100;EQDQ01  00002PRCP99
0195082130999992000101318004+40940-004120FM-12+100599999V0209999C000010120019N0140001N1+00901+00231999999ADDAA199000091GF107991071081008001001001KA1999M+00981MA1999999090031MD1310041+9999ME1314799REMSYN076AAXX  13184 08213 32564 70000 10090 20023 39003 48479 53004 87800 333 10098;EQDQ01  00002PRCP99
0212082130999992000101406004+40940-004120FM-12+100599999V0202401N001010360019N0140001N1+00401+00261999999ADDAA112002091GF107991031021008001051001IA1119IA2999+00209KA1120N+00341MA1999999090381MD1310031+9999ME1315029REMSYN094AAXX  14064 08213 12564 72402 10040 20026 39038 48502 53003 60022 83250 333 20034 32002 55016;
0182082130999992000101412004+40940-004120FM-12+100599999V0200301N002610075019N0180001N1+01021+00221999999ADDAA199000091GF106991051021008001001011MA1999999090351MD1810041+9999ME1315109REMSYN076AAXX  14124 08213 32568 60305 10102 20022 39035 48510 58004 85201 333 50070;EQDQ01  00002PRCP99
0195082130999992000101418004+40940-004120FM-12+100599999V0200501N001510120019N0180001N1+00901+00061999999ADDAA199000091GF106991061081008001001001KA1999M+01121MA1999999090181MD1710051+9999ME1314929REMSYN076AAXX  14184 08213 32568 60503 10090 20006 39018 48492 57005 86800 333 10112;EQDQ01  00002PRCP99
0225082130999992000101506004+40940-004120FM-12+100599999V0201601N001010120019N0140001N1+00301+00191999999ADDAA199000091GF106991061081008001001001IA1099IA2999-00309KA1120N+00191MA1999999089911MD1610051+9999ME1314599REMSYN088AAXX  15064 08213 32564 61602 10030 20019 38991 48459 56005 86800 333 20019 31103 55045;EQDQ01  00002PRCP99
0182082130999992000101512004+40940-004120FM-12+100599999V0202701N002110120019N0140001N1+00861+00281999999ADDAA199000091GF107991071081008001001001MA1999999089991MD1010091+9999ME1314749REMSYN076AAXX  15124 08213 32564 72704 10086 20028 38999 48474 50009 87800 333 50100;EQDQ01  00002PRCP99
0210082130999992000101518004+40940-004120FM-12+100599999V0201301N002610120019N0140001N1+00901+00481999999ADDAA112000891AY161061AY221061GF107991071081008001001001KA1999M+01001MA1999999089831MD1410001+9999ME1314619MW1021REMSYN088AAXX  15184 08213 11564 71305 10090 20048 38983 48461 54000 69982 70262 87800 333 10100;
0225082130999992000101606004+40940-004120FM-12+100599999V0202701N003110075019N0120001N1+00711+00541999999ADDAA199000091GF108991081051008001999999IA1099IA2999+00509KA1120N+00681MA1999999090071MD1210081+9999ME1314799REMSYN088AAXX  16064 08213 32562 82706 10071 20054 39007 48479 52008 885// 333 20068 31005 55019;EQDQ01  00002PRCP99
0182082130999992000101612004+40940-004120FM-12+100599999V0202201N001510075019N0120001N1+01061+00421999999ADDAA199000091GF105991051051008001001001MA1999999090391MD1210121+9999ME1315149REMSYN076AAXX  16124 08213 32562 52203 10106 20042 39039 48514 52012 85500 333 50080;EQDQ01  00002PRCP99
0195082130999992000101618004+40940-004120FM-12+100599999V0209999C000012200019N0180001N1+01141+00371999999ADDAA199000091GF102991011001017501031011KA1999M+01311MA1999999090701MD1210191+9999ME1315449REMSYN076AAXX  16184 08213 32768 20000 10114 20037 39070 48544 52019 81031 333 10131;EQDQ01  00002PRCP99
0225082130999992000101706004+40940-004120FM-12+100599999V0200701N001012200019N0150001N1+00641+00221999999ADDAA199000091GF103991031051008001001001IA1099IA2999-00109KA1120N+00501MA1999999091031MD1210061+9999ME1315649REMSYN088AAXX  17064 08213 32565 30702 10064 20022 39103 48564 52006 83500 333 20050 31101 55055;EQDQ01  00002PRCP99
0182082130999992000101712004+40940-004120FM-12+100599999V0202801N002112200019N0300001N1+01651+00231999999ADDAA199000091GF101991001001999999001011MA1999999091221MD1110041+9999ME1316029REMSYN076AAXX  17124 08213 32980 12804 10165 20023 39122 48602 51004 80001 333 50140;EQDQ01  00002PRCP99
0195082130999992000101718004+40940-004120FM-12+100599999V0209999C000012200019N0250001N1+01681+00451999999ADDAA199000091GF102991001001999999001011KA1999M+01941MA1999999091151MD1310011+9999ME1315969REMSYN076AAXX  17184 08213 32975 20000 10168 20045 39115 48596 53001 80001 333 10194;EQDQ01  00002PRCP99
0225082130999992000101806004+40940-004120FM-12+100599999V0201101N001012200019N0300001N1+00801+00261999999ADDAA199000091GF101991001001999999001011IA1099IA2999-00109KA1120N+00721MA1999999091231MD1610011+9999ME1425759REMSYN088AAXX  18064 08213 32980 11102 10080 20026 39123 47575 56001 80001 333 20072 31101 55100;EQDQ01  00002PRCP99
0182082130999992000101812004+40940-004120FM-12+100599999V0202201N002112200019N0250001N1+01921+00401999999ADDAA199000091GF102991001001999999001011MA1999999091151MD1810151+9999ME1316019REMSYN076AAXX  18124 08213 32975 22204 10192 20040 39115 48601 58015 80001 333 50110;EQDQ01  00002PRCP99
0195082130999992000101818004+40940-004120FM-12+100599999V0203001N001012200019N0200001N1+01751+00391999999ADDAA199000091GF104991021001017501051011KA1999M+02141MA1999999090981MD1510001+9999ME1315829REMSYN076AAXX  18184 08213 32770 43002 10175 20039 39098 48582 55000 82051 333 10214;EQDQ01  00002PRCP99
0225082130999992000101906004+40940-004120FM-12+100599999V0200701N001012200019N0150001N1+00641+00221999999ADDAA199000091GF103991031051008001001001IA1099IA2999-00109KA1120N+00501MA1999999091031MD1210061+9999ME1315649REMSYN088AAXX  19064 08213 32565 30702 10064 20022 39103 48564 52006 83500 333 20050 31101 55055;EQDQ01  00002PRCP99
0182082130999992000101912004+40940-004120FM-12+100599999V0202601N002112200019N0300001N1+01921+00691999999ADDAA199000091GF103991011051008001041021MA1999999090711MD1810161+9999ME1315609REMSYN076AAXX  19124 08213 32580 32604 10192 20069 39071 48560 58016 81542 333 50310;EQDQ01  00002PRCP99
0195082130999992000101918004+40940-004120FM-12+100599999V0203001N002110360019N0200001N1+01751+00701999999ADDAA199000091GF106991031051008001091011KA1999M+02141MA1999999090501MD1610011+9999ME1315379REMSYN076AAXX  19184 08213 32570 63004 10175 20070 39050 48537 56001 83591 333 10214;EQDQ01  00002PRCP99
0225082130999992000102006004+40940-004120FM-12+100599999V0201901N004610075019N0100001N1+01521+01381999999ADDAA199000091GF108991061071008001071081IA1019IA2999+00609KA1120N+01341MA1999999089991MD1810141+9999ME1314879REMSYN088AAXX  20064 08213 32560 81909 10152 20138 38999 48487 58014 86778 333 20134 30006 55061;EQDQ01  00002PRCP99
0197082130999992000102012004+40940-004120FM-12+100599999V0202101N004110075019N0100001N1+01401+00461999999ADDAA106000791AY161061AY221061GF108991051071008001071081MA1999999089941MD1810121+9999ME1314799MW1601REMSYN088AAXX  20124 08213 11560 82108 10140 20046 38994 48479 58012 69901 76062 85778 333 50180;
0210082130999992000102018004+40940-004120FM-12+100599999V0201701N005710120019N0120001N1+01301+00581999999ADDAA112000591AY161061AY221061GF108991051081008001041081KA1999M+01521MA1999999089711MD1610081+9999ME1314569MW1021REMSYN088AAXX  20184 08213 11562 81711 10130 20058 38971 48456 56008 69952 70262 85848 333 10152;
0240082130999992000102106004+40940-004120FM-12+100599999V0202601N003610042019N0020001N1+00681+00681999999ADDAA112015091AY161061AY221061GF108991061071004501071081IA1119IA2999+00709KA1120N+00681MA1999999089911MD1310151+9999ME1314659MW1611REMSYN100AAXX  21064 08213 11420 82607 10068 20068 38991 48465 53015 60152 76162 86778 333 20068 32007 55000;
0197082130999992000102112004+40940-004120FM-12+100599999V0203501N001010075019N0050001N1+00701+00661999999ADDAA106006191AY161061AY221061GF108991061071008001071081MA1999999090111MD1110081+9999ME1314839MW1201REMSYN088AAXX  21124 08213 11550 83502 10070 20066 39011 48483 51008 60061 72062 86778 333 50210;
0212082130999992000102206004+40940-004120FM-12+100599999V0201501N006212200019N0100001N1+01221+00661999999ADDAA112000191GF104991031081008001031011IA1119IA2999+00609KA1120N+00761MA1999999090591MD1310041+9999ME1315369REMSYN094AAXX  22064 08213 12560 41512 10122 20066 39059 48536 53004 69912 83831 333 20076 32006 55000;
0182082130999992000102212004+40940-004120FM-12+100599999V0201001N001010075019N0120001N1+01501+00731999999ADDAA199000091GF107991061041008001001081MA1999999090791MD1010001+9999ME1315609REMSYN076AAXX  22124 08213 32562 71002 10150 20073 39079 48560 50000 86408 333 50040;EQDQ01  00002PRCP99
0195082130999992000102218004+40940-004120FM-12+100599999V0200701N003110360019N0150001N1+01541+00911999999ADDAA199000091GF105991031041008001031011KA1999M+01701MA1999999090671MD1410001+9999ME1315509REMSYN076AAXX  22184 08213 32565 50706 10154 20091 39067 48550 54000 83431 333 10170;EQDQ01  00002PRCP99
0225082130999992000102306004+40940-004120FM-12+100599999V0201201N001512200019N0160001N1+00821+00611999999ADDAA199000091GF102991021001017501041001IA1019IA2999+00309KA1120N+00801MA1999999090631MD1510001+9999ME1315329REMSYN088AAXX  23064 08213 32766 21203 10082 20061 39063 48532 55000 82040 333 20080 30003 55048;EQDQ01  00002PRCP99
0182082130999992000102312004+40940-004120FM-12+100599999V0203301N001012200019N0180001N1+01681+00871999999ADDAA199000091GF105991031021008001001041MA1999999090671MD1810031+9999ME1315529REMSYN076AAXX  23124 08213 32568 53302 10168 20087 39067 48552 58003 83204 333 50080;EQDQ01  00002PRCP99
0195082130999992000102318004+40940-004120FM-12+100599999V0201801N002110120019N0180001N1+01501+00991999999ADDAA199000091GF106991061081008001001001KA1999M+01821MA1999999090501MD1710051+9999ME1315339REMSYN076AAXX  23184 08213 32568 61804 10150 20099 39050 48533 57005 86800 333 10182;EQDQ01  00002PRCP99
0225082130999992000102406004+40940-004120FM-12+100599999V0200501N001512200019N0160001N1+01101+00791999999ADDAA199000091GF102991011021008001041001IA1019IA2999+00509KA1120N+01101MA1999999090511MD1710031+9999ME1315279REMSYN088AAXX  24064 08213 32566 20503 10110 20079 39051 48527 57003 81240 333 20110 30005 55053;EQDQ01  00002PRCP99
0182082130999992000102412004+40940-004120FM-12+100599999V0200801N004110075019N0180001N1+01761+00831999999ADDAA199000091GF106991061021008001001001MA1999999090621MD1010001+9999ME1315499REMSYN076AAXX  24124 08213 32568 60808 10176 20083 39062 48549 50000 86200 333 50120;EQDQ01  00002PRCP99
0195082130999992000102418004+40940-004120FM-12+100599999V0200701N003612200019N0180001N1+01501+00821999999ADDAA199000091GF102991021021008001001001KA1999M+01801MA1999999090541MD1210081+9999ME1315379REMSYN076AAXX  24184 08213 32568 20707 10150 20082 39054 48537 52008 82200 333 10180;EQDQ01  00002PRCP99
0225082130999992000102506004+40940-004120FM-12+100599999V0201501N001012200019N0200001N1+00841+00591999999ADDAA199000091GF101991011001017501041001IA1019IA2999+00409KA1120N+00841MA1999999090511MD1610031+9999ME1315229REMSYN088AAXX  25064 08213 32770 11502 10084 20059 39051 48522 56003 81040 333 20084 30004 55054;EQDQ01  00002PRCP99
0182082130999992000102512004+40940-004120FM-12+100599999V0201501N001012200019N0200001N1+01621+00651999999ADDAA199000091GF101991011021008001001001MA1999999090581MD1810011+9999ME1315429REMSYN076AAXX  25124 08213 32570 11502 10162 20065 39058 48542 58001 81200 333 50160;EQDQ01  00002PRCP99
0195082130999992000102518004+40940-004120FM-12+100599999V0209999C000010075019N0180001N1+01721+00781999999ADDAA199000091GF107991051051008001021001KA1999M+01841MA1999999090461MD1710011+9999ME1315339REMSYN076AAXX  25184 08213 32568 70000 10172 20078 39046 48533 57001 85520 333 10184;EQDQ01  00002PRCP99
0225082130999992000102606004+40940-004120FM-12+100599999V0202301N000510075019N0120001N1+01201+00901999999ADDAA199000091GF106991061021008001001001IA1019IA2999+00609KA1120N+01101MA1999999090501MD1410001+9999ME1315289REMSYN088AAXX  26064 08213 32562 62301 10120 20090 39050 48528 54000 86200 333 20110 30006 55084;EQDQ01  00002PRCP99
0182082130999992000102612004+40940-004120FM-12+100599999V0202401N001510075019N0140001N1+01761+01011999999ADDAA199000091GF106991051021008001001011MA1999999090671MD1410001+9999ME1315549REMSYN076AAXX  26124 08213 32564 62403 10176 20101 39067 48554 54000 85201 333 50140;EQDQ01  00002PRCP99
0223082130999992000102618004+40940-004120FM-12+100599999V0209999C000012200019N0080001N1+01521+00971999999ADDAA199000091AY121061AY221061GF103991011021008001041001KA1999M+01841MA1999999090671MD1310041+9999ME1315499MW1051REMSYN082AAXX  26184 08213 31558 30000 10152 20097 39067 48549 53004 70522 81240 333 10184;EQDQ01  00002PRCP99
0225082130999992000102706004+40940-004120FM-12+100599999V0200701N001512200019N0150001N1+00881+00541999999ADDAA199000091GF102991001001999999001081IA1099IA2999+00209KA1120N+00851MA1999999090871MD1110031+9999ME1315559REMSYN088AAXX  27064 08213 32965 20703 10088 20054 39087 48555 51003 80008 333 20085 31002 55054;EQDQ01  00002PRCP99
0182082130999992000102712004+40940-004120FM-12+100599999V0202801N001512200019N0120001N1+01861+00631999999ADDAA199000091GF104991001001999999001081MA1999999090951MD1810031+9999ME1315819REMSYN076AAXX  27124 08213 32962 42803 10186 20063 39095 48581 58003 80008 333 50150;EQDQ01  00002PRCP99
0195082130999992000102718004+40940-004120FM-12+100599999V0209999C000012200019N0150001N1+01761+00961999999ADDAA199000091GF103991011041008001001081KA1999M+02021MA1999999090821MD1610041+9999ME1315689REMSYN076AAXX  27184 08213 32565 30000 10176 20096 39082 48568 56004 81408 333 10202;EQDQ01  00002PRCP99
0235082130999992000102806004+40940-004120FM-12+100599999V0209999C000012200019N0150001N1+00921+00541999999ADDAA199000091GA1001+999999999GF100991001001999999001001IA1099IA2999+00209KA1120N+00881MA1999999090741MD1610031+9999ME1315449REMSYN082AAXX  28064 08213 32965 00000 10092 20054 39074 48544 56003 333 20088 31002 55093;EQDQ01  00002PRCP99
0182082130999992000102812004+40940-004120FM-12+100599999V0202801N004612200019N0150001N1+01841+00551999999ADDAA199000091GF102991011011008001001081MA1999999090751MD1810071+9999ME1315629REMSYN076AAXX  28124 08213 32565 22809 10184 20055 39075 48562 58007 81108 333 50180;EQDQ01  00002PRCP99
0195082130999992000102818004+40940-004120FM-12+100599999V0202301N002112200019N0150001N1+01441+00791999999ADDAA199000091GF105991031001017501041081KA1999M+02151MA1999999090671MD1310041+9999ME1315489REMSYN076AAXX  28184 08213 32765 52304 10144 20079 39067 48548 53004 83048 333 10215;EQDQ01  00002PRCP99
0240082130999992000102906004+40940-004120FM-12+100599999V0202401N002110075019N0150001N1+01021+00941999999ADDAA112002091AY161061AY261061GF105991051061008001001001IA1099IA2999+00509KA1120N+01021MA1999999090751MD1610021+9999ME1315479MW1021REMSYN100AAXX  29064 08213 11565 52404 10102 20094 39075 48547 56002 60022 70266 85600 333 20102 31005 55082;
0182082130999992000102912004+40940-004120FM-12+100599999V0202901N001010075019N0120001N1+01141+00791999999ADDAA199000091GF107991061051008001001011MA1999999090831MD1810041+9999ME1315579REMSYN076AAXX  29124 08213 32562 72902 10114 20079 39083 48557 58004 86501 333 50120;EQDQ01  00002PRCP99
0223082130999992000102918004+40940-004120FM-12+100599999V0202901N001510900019N0080001N1+01021+00611999999ADDAA199000091AY121061AY221061GF105991031051008001001051KA1999M+01401MA1999999090631MD1710041+9999ME1315369MW1051REMSYN082AAXX  29184 08213 31558 52903 10102 20061 39063 48536 57004 70522 83505 333 10140;EQDQ01  00002PRCP99
0225082130999992000103006004+40940-004120FM-12+100599999V0201701N002612200019N0250001N1+00441+00151999999ADDAA199000091GF101991011001017501031001IA1099IA2999+00009KA1120N+00381MA1999999090421MD1710051+9999ME1315069REMSYN088AAXX  30064 08213 32775 11705 10044 20015 39042 48506 57005 81030 333 20038 31000 55028;EQDQ01  00002PRCP99
0182082130999992000103012004+40940-004120FM-12+100599999V0202401N004112200019N0300001N1+01241+00271999999ADDAA199000091GF103991011051008001041021MA1999999090191MD1710201+9999ME1314999REMSYN076AAXX  30124 08213 32580 32408 10124 20027 39019 48499 57020 81542 333 50160;EQDQ01  00002PRCP99
0195082130999992000103018004+40940-004120FM-12+100599999V0202201N003610360019N0300001N1+01101+00331999999ADDAA199000091GF107991041051008001041999KA1999M+01401MA1999999089711MD1710201+9999ME1314539REMSYN076AAXX  30184 08213 32580 72207 10110 20033 38971 48453 57020 8454/ 333 10140;EQDQ01  00002PRCP99
0240082130999992000103106004+40940-004120FM-12+100599999V0202501N002612200019N0120001N1+00331+00191999999ADDAA112006191AY161061AY221061GF104991031051008001031011IA1099IA2999+00109KA1120N+00271MA1999999089831MD1310031+9999ME1314519MW1021REMSYN100AAXX  31064 08213 11562 42505 10033 20019 38983 48451 53003 60062 70262 83531 333 20027 31001 55064;
0182082130999992000103112004+40940-004120FM-12+100599999V0202901N003110075019N0250001N1+00781+00311999999ADDAA199000091GF107991071051008001999999MA1999999090151MD1110091+9999ME1314889REMSYN076AAXX  31124 08213 32575 72906 10078 20031 39015 48488 51009 875// 333 50150;EQDQ01  00002PRCP99
0195082130999992000103118004+40940-004120FM-12+100599999V0202701N002110900019N0200001N1+00721+00341999999ADDAA199000091GF106991041051008001001051KA1999M+00991MA1999999090181MD1210071+9999ME1314899REMSYN076AAXX  31184 08213 32570 62704 10072 20034 39018 48489 52007 84505 333 10099;EQDQ01  00002PRCP99
0225082130999992000110106004+40940-004120FM-12+100599999V0202401N002110360019N0100001N1+00481+00301999999ADDAA199000091GF106991041071008001071081IA1019IA2999+00209KA1120N+00481MA1999999090311MD1410001+9999ME1314979REMSYN088AAXX  01064 08213 32560 62404 10048 20030 39031 48497 54000 84778 333 20048 30002 55029;EQDQ01  00002PRCP99
0182082130999992000110112004+40940-004120FM-12+100599999V0202401N004110120019N0200001N1+00861+00091999999ADDAA199000091GF108991061071012501071081MA1999999090311MD1810031+9999ME1315039REMSYN076AAXX  01124 08213 32670 82408 10086 20009 39031 48503 58003 86778 333 50110;EQDQ01  00002PRCP99
0195082130999992000110118004+40940-004120FM-12+100599999V0202801N001510075019N0200001N1+00861+00361999999ADDAA199000091GF108991061041008001071081KA1999M+01021MA1999999090141MD1610041+9999ME1314889REMSYN076AAXX  01184 08213 32570 82803 10086 20036 39014 48488 56004 86478 333 10102;EQDQ01  00002PRCP99
0240082130999992000110206004+40940-004120FM-12+100599999V0202201N005710075019N0100001N1+01201+00641999999ADDAA112002091AY161061AY221061GF108991061071008001071081IA1019IA2999+00609KA1120N+00801MA1999999089391MD1810171+9999ME1314259MW1021REMSYN100AAXX  02064 08213 11560 82211 10120 20064 38939 48425 58017 60022 70262 86778 333 20080 30006 55033;
0197082130999992000110212004+40940-004120FM-12+100599999V0202401N005710075019N0060001N1+01081+01041999999ADDAA106011991AY181061AY261061GF108991061071008001071081MA1999999089471MD1110051+9999ME1314319MW1501REMSYN088AAXX  02124 08213 11556 82411 10108 20104 38947 48431 51005 60121 75086 86778 333 50210;
0210082130999992000110218004+40940-004120FM-12+100599999V0202101N001510075019N0080001N1+01001+00921999999ADDAA112023191AY181061AY261061GF107991051041008001071081KA1999M+01201MA1999999089351MD1610031+9999ME1314199MW1211REMSYN088AAXX  02184 08213 11558 72103 10100 20092 38935 48419 56003 60232 72186 85478 333 10120;
0240082130999992000110306004+40940-004120FM-12+100599999V0203001N004610075019N0100001N1+00361+00221999999ADDAA112003091AY161061AY221061GF108991061071008001071081IA1119IA2999+00309KA1120N+00361MA1999999089461MD1210071+9999ME1314199MW1621REMSYN100AAXX  03064 08213 11560 83009 10036 20022 38946 48419 52007 60032 76262 86778 333 20036 32003 55000;
0163082130999992000110312004+40940-004120FM-12+100599999V0202701N007710075019N0140001N1+00521-00081999999ADDAA199000021GF106991061021008001001001MA1999999089831MD1110131+9999ME1314549REMSYN076AAXX  03124 08213 32564 62715 10052 21008 38983 48454 51013 86200 333 50270;
0176082130999992000110318004+40940-004120FM-12+100599999V0202701N002612200019N0180001N1+00501+00011999999ADDAA199000021GF102991021021008001001001KA1999M+00721MA1999999090021MD1210121+9999ME1314719REMSYN076AAXX  03184 08213 32568 22705 10050 20001 39002 48471 52012 82200 333 10072;
0225082130999992000110406004+40940-004120FM-12+100599999V0202301N001510120019N0100001N1+00301+00101999999ADDAA199000091GF107991071081008001001001IA1099IA2999+00109KA1120N+00261MA1999999090431MD1110041+9999ME1315049REMSYN088AAXX  04064 08213 32560 72303 10030 20010 39043 48504 51004 87800 333 20026 31001 55049;EQDQ01  00002PRCP99
0182082130999992000110412004+40940-004120FM-12+100599999V0202701N002610120019N0140001N1+00741+00081999999ADDAA199000091GF107991071081008001001001MA1999999090591MD1110051+9999ME1315269REMSYN076AAXX  04124 08213 32564 72705 10074 20008 39059 48526 51005 87800 333 50100;EQDQ01  00002PRCP99
0195082130999992000110418004+40940-004120FM-12+100599999V0202701N001510360019N0160001N1+00561+00131999999ADDAA199000091GF107991041021008001051001KA1999M+00901MA1999999090501MD1410001+9999ME1315159REMSYN076AAXX  04184 08213 32566 72703 10056 20013 39050 48515 54000 84250 333 10090;EQDQ01  00002PRCP99
0240082130999992000110506004+40940-004120FM-12+100599999V0202301N003110360019N0060001N1+00801+00721999999ADDAA112008991AY161061AY221061GF108991021051008001021999IA1119IA2999+00309KA1120N+00491MA1999999090071MD1710131+9999ME1314819MW1631REMSYN100AAXX  05064 08213 11556 82306 10080 20072 39007 48481 57013 60092 76362 8252/ 333 20049 32003 55030;
0197082130999992000110512004+40940-004120FM-12+100599999V0202201N006210075019N0100001N1+01061+00911999999ADDAA106007191AY161061AY221061GF108991051051008001021999MA1999999089821MD1810161+9999ME1314639MW1631REMSYN088AAXX  05124 08213 11560 82212 10106 20091 38982 48463 58016 60071 76362 8552/ 333 50080;
0210082130999992000110518004+40940-004120FM-12+100599999V0202201N004610075019N0120001N1+01221+00921999999ADDAA112011991AY161061AY221061GF107991051051008001021001KA1999M+01311MA1999999089431MD1710191+9999ME1314299MW1021REMSYN088AAXX  05184 08213 11562 72209 10122 20092 38943 48429 57019 60122 70262 85520 333 10131;
0240082130999992000110606004+40940-004120FM-12+100599999V0202501N009812200019N0120001N1+00501+00121999999ADDAA112011991AY161061AY221061GF103991031051008001001001IA1119IA2999+00309KA1120N+00461MA1999999088861MD1010001+9999ME1313669MW1021REMSYN100AAXX  06064 08213 11562 32519 10050 20012 38886 48366 50000 60122 70262 83500 333 20046 32003 55009;
0182082130999992000110612004+40940-004120FM-12+100599999V0202701N010810075019N0250001N1+00781+00191999999ADDAA199000091GF107991071051008001999999MA1999999088911MD1010001+9999ME1313749REMSYN076AAXX  06124 08213 32575 72721 10078 20019 38891 48374 50000 875// 333 50270;EQDQ01  00002PRCP99
0210082130999992000110618004+40940-004120FM-12+100599999V0202701N008712200019N0250001N1+00321+00101999999ADDAA112000591AY161061AY221061GF104991031051008001031001KA1999M+00851MA1999999089031MD1210161+9999ME1313799MW1021REMSYN088AAXX  06184 08213 11575 42717 10032 20010 38903 48379 52016 69962 70262 83530 333 10085;
0225082130999992000110706004+40940-004120FM-12+100599999V0202701N007710075019N0200001N1+00291-00011999999ADDAA199000091GF108991081061008001999999IA1099IA2999+00109KA1120N+00231MA1999999089141MD1710061+9999ME1313899REMSYN088AAXX  07064 08213 32570 82715 10029 21001 38914 48389 57006 886// 333 20023 31001 55040;EQDQ01  00002PRCP99
0182082130999992000110712004+40940-004120FM-12+100599999V0202701N005710075019N0250001N1+00421-00151999999ADDAA199000091GF108991081051008001999999MA1999999089341MD1110031+9999ME1314089REMSYN076AAXX  07124 08213 32575 82711 10042 21015 38934 48408 51003 885// 333 50140;EQDQ01  00002PRCP99
0195082130999992000110718004+40940-004120FM-12+100599999V0202601N004612200019N0250001N1+00341-00191999999ADDAA199000091GF103991021051008001031001KA1999M+00531MA1999999089351MD1310041+9999ME1314089REMSYN076AAXX  07184 08213 32575 32609 10034 21019 38935 48408 53004 82530 333 10053;EQDQ01  00002PRCP99
0225082130999992000110806004+40940-004120FM-12+100599999V0202601N004112200019N0200001N1+00201+00001999999ADDAA199000091GF104991021001017501071021IA1099IA2999+00009KA1120N+00151MA1999999089391MD1510001+9999ME1314109REMSYN088AAXX  08064 08213 32770 42608 10020 20000 38939 48410 55000 82072 333 20015 31000 55011;EQDQ01  00002PRCP99
0182082130999992000110812004+40940-004120FM-12+100599999V0202801N004610075019N0250001N1+00451-00081999999ADDAA199000091GF108991081051008001999999MA1999999089541MD1110031+9999ME1314279REMSYN076AAXX  08124 08213 32575 82809 10045 21008 38954 48427 51003 885// 333 50070;EQDQ01  00002PRCP99
0210082130999992000110818004+40940-004120FM-12+100599999V0202501N004112200019N0200001N1+00381-00081999999ADDAA112000791AY171061AY221061GF103991021051008001031001KA1999M+00681MA1999999089661MD1210151+9999ME1314379MW1021REMSYN088AAXX  08184 08213 11570 32508 10038 21008 38966 48437 52015 69902 70272 82530 333 10068;
0225082130999992000110906004+40940-004120FM-12+100599999V0202201N002610075019N0200001N1+00281+00001999999ADDAA199000091GF107991071051008001999999IA1099IA2999+00109KA1120N+00241MA1999999090061MD1210061+9999ME1314719REMSYN088AAXX  09064 08213 32570 72205 10028 20000 39006 48471 52006 875// 333 20024 31001 55018;EQDQ01  00002PRCP99
0182082130999992000110912004+40940-004120FM-12+100599999V0202501N002612200019N0300001N1+00681-00121999999ADDAA199000091GF101991011051008001001001MA1999999090261MD1110041+9999ME1434959REMSYN076AAXX  09124 08213 32580 12505 10068 21012 39026 47495 51004 81500 333 50160;EQDQ01  00002PRCP99
0195082130999992000110918004+40940-004120FM-12+100599999V0203501N001012200019N0250001N1+00581-00011999999ADDAA199000091GF102991011051008001031001KA1999M+00911MA1999999090301MD1210081+9999ME1314979REMSYN076AAXX  09184 08213 32575 23502 10058 21001 39030 48497 52008 81530 333 10091;EQDQ01  00002PRCP99
0235082130999992000111006004+40940-004120FM-12+100599999V0200901N000512200019N0150001N1-00021-00371999999ADDAA199000091GA1001+999999999GF100991001001999999001001IA1149IA2999-00609KA1120N-00021MA1999999090541MD1410001+9999ME1315079REMSYN082AAXX  10064 08213 32965 00901 11002 21037 39054 48507 54000 333 21002 34106 55087;EQDQ01  00002PRCP99
0176082130999992000111012004+40940-004120FM-12+100599999V0202801N000512200019N0200001N1+00781-00241999999ADDAA199000091GF104991011001017501041081MA1999999090621MD1010001+9999ME1315299REMSYN070AAXX  10124 08213 32770 42801 10078 21024 39062 48529 50000 81048 333;EQDQ01  00002PRCP99
0195082130999992000111018004+40940-004120FM-12+100599999V0203401N000510900019N0200001N1+00761-00011999999ADDAA199000091GF107991031001017501041081KA1999M+00971MA1999999090511MD1410001+9999ME1315199REMSYN076AAXX  10184 08213 32770 73401 10076 21001 39051 48519 54000 83048 333 10097;EQDQ01  00002PRCP99
0225082130999992000111106004+40940-004120FM-12+100599999V0209999C000012200019N0150001N1+00381-00201999999ADDAA199000091GF104991021001017501031091IA1019IA2999-00409KA1120N+00201MA1999999090501MD1410001+9999ME1315119REMSYN088AAXX  11064 08213 32765 40000 10038 21020 39050 48511 54000 82039 333 20020 30104 55067;EQDQ01  00002PRCP99
0182082130999992000111112004+40940-004120FM-12+100599999V0203501N000512200019N0150001N1+01061+00041999999ADDAA199000091GF103991011011008001041091MA1999999090581MD1010041+9999ME1315319REMSYN076AAXX  11124 08213 32565 33501 10106 20004 39058 48531 50004 81149 333 50090;EQDQ01  00002PRCP99
0195082130999992000111118004+40940-004120FM-12+100599999V0201501N003112200019N0200001N1+00841+00261999999ADDAA199000091GF102991011001017501041081KA1999M+01321MA1999999090391MD1410001+9999ME1315109REMSYN076AAXX  11184 08213 32770 21506 10084 20026 39039 48510 54000 81048 333 10132;EQDQ01  00002PRCP99
0225082130999992000111206004+40940-004120FM-12+100599999V0202001N001512200019N0150001N1+00901+00331999999ADDAA199000091GF104991021001017501071081IA1019IA2999-00109KA1120N+00601MA1999999090031MD1810201+9999ME1314799REMSYN088AAXX  12064 08213 32765 42003 10090 20033 39003 48479 58020 82078 333 20060 30101 55083;EQDQ01  00002PRCP99
0182082130999992000111212004+40940-004120FM-12+100599999V0202301N008710360019N0150001N1+01381+00381999999ADDAA199000091GF106991021081008001041081MA1999999089831MD1810111+9999ME1314689REMSYN076AAXX  12124 08213 32565 62317 10138 20038 38983 48468 58011 82848 333 50250;EQDQ01  00002PRCP99
0195082130999992000111218004+40940-004120FM-12+100599999V0202101N007710360019N0150001N1+01181+00481999999ADDAA199000091GF108991041071008001071081KA1999M+01521MA1999999089461MD1610131+9999ME1314319REMSYN076AAXX  12184 08213 32565 82115 10118 20048 38946 48431 56013 84778 333 10152;EQDQ01  00002PRCP99
0240082130999992000111306004+40940-004120FM-12+100599999V0202401N003110120019N0140001N1+00581+00491999999ADDAA112005191AY161061AY221061GF107991071081008001001001IA1119IA2999+00509KA1120N+00581MA1999999089221MD1310051+9999ME1314009MW1021REMSYN100AAXX  13064 08213 11564 72406 10058 20049 38922 48400 53005 60052 70262 87800 333 20058 32005 55043;
0197082130999992000111312004+40940-004120FM-12+100599999V0202701N002110075019N0160001N1+00661+00201999999ADDAA106000591AY161061AY221061GF107991051051008001021001MA1999999089391MD1410001+9999ME1314179MW1021REMSYN088AAXX  13124 08213 11566 72704 10066 20020 38939 48417 54000 69961 70262 85520 333 50130;
0182082130999992000111318004+40940-004120FM-12+100599999V0209999C000010120019N0160001N1+00501+00271999999ADDAA112001091GF107991071081008001001001KA1999M+01021MA1999999089311MD1310041+9999ME1314079REMSYN082AAXX  13184 08213 12566 70000 10050 20027 38931 48407 53004 60012 87800 333 10102;
0212082130999992000111406004+40940-004120FM-12+100599999V0202401N001010120019N0140001N1+00241+00141999999ADDAA112000591GF107991071081008001001001IA1099IA2999+00009KA1120N+00221MA1999999089391MD1310031+9999ME1314109REMSYN094AAXX  14064 08213 12564 72402 10024 20014 38939 48410 53003 69952 87800 333 20022 31000 55034;
0182082130999992000111412004+40940-004120FM-12+100599999V0202701N002610075019N0160001N1+00621-00011999999ADDAA199000091GF108991051051008001021999MA1999999089591MD1110041+9999ME1314349REMSYN076AAXX  14124 08213 32566 82705 10062 21001 38959 48434 51004 8552/ 333 50070;EQDQ01  00002PRCP99
0210082130999992000111418004+40940-004120FM-12+100599999V0200701N002110120019N0160001N1+00281+00131999999ADDAA112004191AY161061AY221061GF107991071081008001001001KA1999M+00641MA1999999089711MD1110201+9999ME1314409MW1021REMSYN088AAXX  14184 08213 11566 70704 10028 20013 38971 48440 51020 60042 70262 87800 333 10064;
0240082130999992000111506004+40940-004120FM-12+100599999V0209999C000010360019N0000001N1+00001-00051999999ADDAA112005191AY161061AY221061GF108991021071008001021001IA1149IA2999-00309KA1120N-00121MA1999999089981MD1310051+9999ME1314599MW1441REMSYN100AAXX  15064 08213 11500 80000 10000 21005 38998 48459 53005 60052 74462 82720 333 21012 34103 55018;
0197082130999992000111512004+40940-004120FM-12+100599999V0203101N001010360019N0001001N1+00141+00041999999ADDAA106000191AY161061AY221061GF108991021071008001021999MA1999999090231MD1110161+9999ME1314839MW1441REMSYN088AAXX  15124 08213 11501 83102 10014 20004 39023 48483 51016 69921 74462 8272/ 333 50040;
0210082130999992000111518004+40940-004120FM-12+100599999V0203301N001012200019N0180001N1+00201-00121999999ADDAA112000191AY141061AY221061GF101991011041008001001001KA1999M+00261MA1999999090271MD1210041+9999ME1314889MW1011REMSYN088AAXX  15184 08213 11568 13302 10020 21012 39027 48488 52004 69922 70142 81400 333 10026;
0225082130999992000111606004+40940-004120FM-12+100599999V0209999C000010360019N0180001N1+00001-00391999999ADDAA199000091GF105991021021008001051001IA1149IA2999-00509KA1120N-00111MA1999999090301MD1510001+9999ME1314879REMSYN088AAXX  16064 08213 32568 50000 10000 21039 39030 48487 55000 82250 333 21011 34105 55000;EQDQ01  00002PRCP99
0196082130999992000111612004+40940-004120FM-12+100599999V0202401N002610075019N0040001N1+00341+00091999999ADDAA106000891AY121061AY221061GF108991051051008001021999MA1999999090271MD1010001+9999ME1314909MW1611REMSYN087AAXX  16124 08213 11540 82405 10034 20009 3902748490 50000 69981 76122 8552/ 333 50040;
0210082130999992000111618004+40940-004120FM-12+100599999V0209999C000010360019N0080001N1+00501+00361999999ADDAA112004191AY161061AY221061GF108991041071008001021999KA1999M+00501MA1999999090191MD1410001+9999ME1314869MW1611REMSYN088AAXX  16184 08213 11558 80000 10050 20036 39019 48486 54000 60042 76162 8472/ 333 10050;
0250082130999992000111706004+40940-004120FM-12+100599999V0202901N003110001519N0001001N1+00241+00241999999ADDAA112002091AY161061AY241061GA1091+999999999GF109991091999999999999999IA1099IA2999-00309KA1120N+00241MA1999999090471MD1310091+9999ME1315079MW1451REMSYN094AAXX  17064 08213 11/01 92906 10024 20024 39047 48507 53009 60022 74564 333 20024 31103 55000;
0210082130999992000111712004+40940-004120FM-12+100599999V0209999C000010042019N0040001N1+00321+00121999999ADDAA199000091AY141061AY221061GF107991071071004501001001MA1999999090751MD1110091+9999ME1315339MW1101REMSYN082AAXX  17124 08213 31440 70000 10032 20012 39075 48533 51009 71042 87700 333 50010;EQDQ01  00002PRCP99
0195082130999992000111718004+40940-004120FM-12+100599999V0209999C000012200019N0120001N1+00441+00041999999ADDAA199000091GF103991031001017501041001KA1999M+00651MA1999999090831MD1310081+9999ME1315429REMSYN076AAXX  17184 08213 32762 30000 10044 20004 39083 48542 53008 83040 333 10065;EQDQ01  00002PRCP99
0241082130999992000111806004+40940-004120FM-12+100599999V02099999999992200019N0100001N1+00041-00181999999ADDAA199000091GF101991999001017501041091IA1149IA2999-00409KA1120N+00001MA1999999090831MD1610021+9999ME1315349REMSYN088AAXX  18064 08213 32760 14504 10004 21018 39083 48534 56002 82049 333 20000 34104 55028;EQDQ01+000022SCOTLCQ02  00002PRCP99
0176082130999992000111812004+40940-004120FM-12+100599999V0202901N001012200019N0120001N1+00641+00171999999ADDAA199000091GF103991021081008001001081MA1999999090741MD1810081+9999ME1315389REMSYN070AAXX  18124 08213 32562 32902 10064 20017 39074 48538 58008 82808 333;EQDQ01  00002PRCP99
0195082130999992000111818004+40940-004120FM-12+100599999V0209999C000012200019N0150001N1+00561+00131999999ADDAA199000091GF103991021001008001041081KA1999M+00881MA1999999090541MD1610041+9999ME1315199REMSYN076AAXX  18184 08213 32565 30000 10056 20013 39054 48519 56004 82048 333 10088;EQDQ01  00002PRCP99
0225082130999992000111906004+40940-004120FM-12+100599999V0202101N001510075019N0200001N1+00491+00281999999ADDAA199000091GF108991081051008001999999IA1099IA2999-00209KA1120N+00361MA1999999090351MD1810051+9999ME1315009REMSYN088AAXX  19064 08213 32570 82103 10049 20028 39035 48500 58005 885// 333 20036 31102 55088;EQDQ01  00002PRCP99
0210082130999992000111918004+40940-004120FM-12+100599999V0202301N003110075019N0030001N1+00801+00761999999ADDAA112001091AY161061AY261061GF108991081061008001999999KA1999M+00811MA1999999090031MD1710081+9999ME1314789MW1511REMSYN088AAXX  19184 08213 11530 82306 10080 20076 39003 48478 57008 60012 75166 886// 333 10081;
0212082130999992000112006004+40940-004120FM-12+100599999V0202501N003610075019N0120001N1+00501+00321999999ADDAA112000591GF108991081021008001999999IA1099IA2999+00409KA1120N+00481MA1999999089781MD1710051+9999ME1314509REMSYN094AAXX  20064 08213 12562 82507 10050 20032 38978 48450 57005 69962 882// 333 20048 31004 55000;
0182082130999992000112012004+40940-004120FM-12+100599999V0202801N005710075019N0200001N1+00551+00251999999ADDAA199000091GF108991081051008001999999MA1999999089751MD1810071+9999ME1314489REMSYN076AAXX  20124 08213 32570 82811 10055 20025 38975 48448 58007 885// 333 50060;EQDQ01  00002PRCP99
0195082130999992000112018004+40940-004120FM-12+100599999V0202801N005110075019N0200001N1+00601+00331999999ADDAA199000091GF107991071051008001999999KA1999M+00691MA1999999089791MD1210091+9999ME1314529REMSYN076AAXX  20184 08213 32570 72810 10060 20033 38979 48452 52009 875// 333 10069;EQDQ01  00002PRCP99
0225082130999992000112106004+40940-004120FM-12+100599999V0201801N001510075019N0120001N1+00431+00221999999ADDAA199000091GF107991071051008001999999IA1099IA2999+00309KA1120N+00381MA1999999090031MD1410001+9999ME1314719REMSYN088AAXX  21064 08213 32562 71803 10043 20022 39003 48471 54000 875// 333 20038 31003 55001;EQDQ01  00002PRCP99
0182082130999992000112112004+40940-004120FM-12+100599999V0202601N003110075019N0300001N1+00811+00301999999ADDAA199000091GF107991071051008001999999MA1999999090181MD1310031+9999ME1314919REMSYN076AAXX  21124 08213 32580 72606 10081 20030 39018 48491 53003 875// 333 50020;EQDQ01  00002PRCP99
0195082130999992000112118004+40940-004120FM-12+100599999V0209999C000010075019N0300001N1+00761+00391999999ADDAA199000091GF108991081051008001999999KA1999M+00841MA1999999090111MD1510001+9999ME1314849REMSYN076AAXX  21184 08213 32580 80000 10076 20039 39011 48484 55000 885// 333 10084;EQDQ01  00002PRCP99
0240082130999992000112206004+40940-004120FM-12+100599999V0201001N000510075019N0100001N1+00801+00551999999ADDAA112000391AY161061AY221061GF108991061071008001071081IA1119IA2999+00209KA1120N+00641MA1999999089791MD1610121+9999ME1314569MW1211REMSYN100AAXX  22064 08213 12560 81001 10080 20055 38979 48456 56012 69932 72162 86778 333 20064 32002 55000;
0163082130999992000112212004+40940-004120FM-12+100599999V0201901N006210360019N0200001N1+01241+00431999999ADDAA199000021GF106991021041008001071091MA1999999089751MD1810041+9999ME1314599REMSYN076AAXX  22124 08213 32570 61912 10124 20043 38975 48459 58004 82479 333 50000;
0210082130999992000112218004+40940-004120FM-12+100599999V0202101N003110075019N0100001N1+00981+00661999999ADDAA112002091AY161061AY221061GF108991061071008001071081KA1999M+01261MA1999999089591MD1810041+9999ME1314409MW1611REMSYN088AAXX  22184 08213 11560 82106 10098 20066 38959 48440 58004 60022 76162 86778 333 10126;
0240082130999992000112306004+40940-004120FM-12+100599999V0202701N009310120019N0050001N1+00901+00741999999ADDAA112011991AY181061AY261061GF108991061081008001071081IA1119IA2999+00509KA1120N+00901MA1999999089151MD1510111+9999ME1313999MW1631REMSYN100AAXX  23064 08213 11550 82718 10090 20074 38915 48399 55011 60122 76386 86878 333 20090 32005 55000;
0197082130999992000112312004+40940-004120FM-12+100599999V0202801N008210120019N0120001N1+00661+00251999999ADDAA106004191AY181061AY261061GF106991061081008001001001MA1999999089671MD1110121+9999ME1314429MW1021REMSYN088AAXX  23124 08213 11562 62816 10066 20025 38967 48442 51012 60041 70286 86800 333 50280;
0210082130999992000112318004+40940-004120FM-12+100599999V0202801N005110120019N0100001N1+00481+00151999999ADDAA112000791AY121061AY221061GF106991061081008001001001KA1999M+01121MA1999999089951MD1210241+9999ME1314649MW1801REMSYN088AAXX  23184 08213 11560 62810 10048 20015 38995 48464 52024 69902 78022 86800 333 10112;
0206082130999992000112406004+40940-004120FM-12+100599999V0201701N002110120019N0120001N1+00221+00071999999ADDAA199000021GF108991081081008001999999IA1119IA2999+00009KA1120N+00091MA1999999090391MD1010001+9999ME1314999REMSYN088AAXX  24064 08213 32562 81704 10022 20007 39039 48499 50000 888// 333 20009 32000 55033;
0182082130999992000112412004+40940-004120FM-12+100599999V0202201N003110075019N0180001N1+00561-00091999999ADDAA199000091GF108991051051008001021999MA1999999090301MD1810091+9999ME1314979REMSYN076AAXX  24124 08213 32568 82206 10056 21009 39030 48497 58009 8552/ 333 50020;EQDQ01  00002PRCP99
0210082130999992000112418004+40940-004120FM-12+100599999V0202401N002610360019N0060001N1+00661+00621999999ADDAA112009991AY161061AY221061GF108991031071008001021999KA1999M+00661MA1999999089981MD1310031+9999ME1314719MW1511REMSYN088AAXX  24184 08213 11556 82405 10066 20062 38998 48471 53003 60102 75162 8372/ 333 10066;
0220082130999992000112506004+40940-004120FM-12+100599999V0202501N003110120019N0120001N1+00961+00881999999ADDAA112006191AY161061AY221061GF107991071081008001001001IA1119IA2999+00309KA1120N+00861MA1999999090301ME1315059MW1021REMSYN094AAXX  25064 08213 11562 72506 10096 20088 39030 48505 60062 70262 87800 333 20086 32003 55000;
0182082130999992000112512004+40940-004120FM-12+100599999V0202501N004610075019N0180001N1+01201+00941999999ADDAA199000091GF108991051051008001021999MA1999999090501MD1010071+9999ME1315289REMSYN076AAXX  25124 08213 32568 82509 10120 20094 39050 48528 50007 8552/ 333 50060;EQDQ01  00002PRCP99
0210082130999992000112518004+40940-004120FM-12+100599999V0202501N005710120019N0180001N1+01181+00831999999ADDAA112000191AY161061AY221061GF107991071081008001001001KA1999M+01281MA1999999090431MD1210081+9999ME1315219MW1021REMSYN088AAXX  25184 08213 11568 72511 10118 20083 39043 48521 52008 69912 70262 87800 333 10128;
0212082130999992000112606004+40940-004120FM-12+100599999V0202401N004110120019N0120001N1+00961+00681999999ADDAA112000591GF107991071081008001001001IA1119IA2999+00709KA1120N+00961MA1999999090631MD1410001+9999ME1315359REMSYN094AAXX  26064 08213 12562 72408 10096 20068 39063 48535 54000 69962 87800 333 20096 32007 55001;
0182082130999992000112612004+40940-004120FM-12+100599999V0202701N005710120019N0180001N1+01181+00751999999ADDAA199000091GF107991071081008001001001MA1999999090861MD1110071+9999ME1315609REMSYN076AAXX  26124 08213 32568 72711 10118 20075 39086 48560 51007 87800 333 50090;EQDQ01  00002PRCP99
0210082130999992000112618004+40940-004120FM-12+100599999V0202201N003610120019N0180001N1+01341+00761999999ADDAA112000191AY161061AY221061GF107991071081008001001001KA1999M+01341MA1999999090551MD1610111+9999ME1315359MW1021REMSYN088AAXX  26184 08213 11568 72207 10134 20076 39055 48535 56011 69912 70262 87800 333 10134;
0225082130999992000112706004+40940-004120FM-12+100599999V0202401N003110075019N0200001N1+01081+00701999999ADDAA199000091GF108991081051008001999999IA1099IA2999+00909KA1120N+01061MA1999999090831MD1210071+9999ME1315559REMSYN088AAXX  27064 08213 32570 82406 10108 20070 39083 48555 52007 885// 333 20106 31009 55006;EQDQ01  00002PRCP99
0167082130999992000112712004+40940-004120FM-12+100599999V0202201N001510360019N0300001N1+01411+00621999999ADDAA199000091GF105991011061008001031051MA1999999090941MD1810051+9999REMSYN070AAXX  27124 08213 32580 52203 10141 20062 39094 58005 81635 333 50090;EQDQ01  00002PRCP99
0195082130999992000112718004+40940-004120FM-12+100599999V0209999C000012200019N0300001N1+01121+00711999999ADDAA199000091GF102991001001999999001041KA1999M+01471MA1999999090751MD1710041+9999ME1315499REMSYN076AAXX  27184 08213 32980 20000 10112 20071 39075 48549 57004 80004 333 10147;EQDQ01  00002PRCP99
0225082130999992000112806004+40940-004120FM-12+100599999V0201501N004110075019N0200001N1+01661-00321999999ADDAA199000091GF107991071051008001999999IA1099IA2999+00109KA1120N+00641MA1999999090311MD1710131+9999ME1315179REMSYN088AAXX  28064 08213 32570 71508 10166 21032 39031 48517 57013 875// 333 20064 31001 55048;EQDQ01  00002PRCP99
0182082130999992000112812004+40940-004120FM-12+100599999V0202001N005712200019N0300001N1+01801+00211999999ADDAA199000091GF104991021001017501041021MA1999999090301MD1810081+9999ME1315199REMSYN076AAXX  28124 08213 32780 42011 10180 20021 39030 48519 58008 82042 333 50210;EQDQ01  00002PRCP99
0142082130999992000112815004+40940-004120FM-12+100599999V0201901N006712200019N0300001N1+01721+00081999999ADDGF103991011051008001071021MA1999999090111MD1710191+9999ME1315009REMSYN066AAXX  28154 08213 42580 31913 10172 20008 39011 48500 57019 81572;
0240082130999992000112906004+40940-004120FM-12+100599999V0201901N008210075019N0120001N1+01011+00461999999ADDAA112002091AY161061AY221061GF108991081051008001999999IA1099IA2999+00809KA1120N+00901MA1999999089531MD1810071+9999ME1314409MW1021REMSYN100AAXX  29064 08213 11562 81916 10101 20046 38953 48440 58007 60022 70262 885// 333 20090 31008 55054;
0142082130999992000112909004+40940-004120FM-12+100599999V0201901N005110075019N0180001N1+01071+00511999999ADDGF108991061061008001071999MA1999999089661MD1310071+9999ME1314489REMSYN066AAXX  29094 08213 42568 81910 10107 20051 38966 48448 53007 8667/;
0197082130999992000112912004+40940-004120FM-12+100599999V0202701N004610075019N0030001N1+00621+00581999999ADDAA106006191AY161061AY221061GF108991081061008001999999MA1999999089941MD1210281+9999ME1314669MW1611REMSYN088AAXX  29124 08213 11530 82709 10062 20058 38994 48466 52028 60061 76162 886// 333 50320;
0170082130999992000112915004+40940-004120FM-12+100599999V0202501N004110075019N0080001N1+00751+00581999999ADDAY161031AY221031GF108991061071008001071999MA1999999089951MD1110011+9999ME1314699MW1151REMSYN072AAXX  29154 08213 42558 82508 10075 20058 38995 48469 51001 71562 8677/;
0210082130999992000112918004+40940-004120FM-12+100599999V0202301N004110075019N0120001N1+00641+00471999999ADDAA112009991AY161061AY261061GF106991051051008001031001KA1999M+01071MA1999999090191MD1210241+9999ME1314899MW1211REMSYN088AAXX  29184 08213 11562 62308 10064 20047 39019 48489 52024 60102 72166 85530 333 10107;
0206082130999992000113006004+40940-004120FM-12+100599999V0209999C000010042019N0100001N1+00461+00281999999ADDAA199000021GF106991061071004501001001IA1099IA2999+00109KA1120N+00321MA1999999089291MD1610031+9999ME1314829REMSYN088AAXX  30064 08213 32460 60000 10046 20028 38929 48482 56003 86700 333 20032 31001 55000;
0142082130999992000113009004+40940-004120FM-12+100599999V0209999C000010150019N0250001N1+00501+00221999999ADDGF107991071001017501071999MA1999999090192MD1210041+9999ME1314869REMSYN066AAXX  30094 08213 42775 70000 10050 20022 39019 48486 52004 8707/;
0197082130999992000113012004+40940-004120FM-12+100599999V0201701N002110150019N0250001N1+00981+00221999999ADDAA106000791AY161061AY221061GF106991051001017501071021MA1999999090191MD1010001+9999ME1314959MW1021REMSYN088AAXX  30124 08213 11775 61704 10098 20022 39019 48495 50000 69901 70262 85072 333 50070;
0170082130999992000113015004+40940-004120FM-12+100599999V0209999C000010360019N0300001N1+01031+00341999999ADDAY161031AY261031GF108991011061008001071999MA1999999090021MD1610171+9999ME1314809MW1021REMSYN072AAXX  30154 08213 41580 80000 10103 20034 39002 48480 56017 70266 8167/;
0170082130999992000113018004+40940-004120FM-12+100599999V0209999C000010360019N0300001N1+01031+00341999999ADDAY161061AY261061GF108991011061008001071999MA1999999090021MD1610171+9999ME1314809MW1021REMSYN072AAXX  30184 08213 41580 80000 10103 20034 39002 48480 56017 70266 8167/;
0225082130999992000120106004+40940-004120FM-12+100599999V0201001N002610360019N0120001N1+01141+00181999999ADDAA199000091GF105991031071008001071081IA1019IA2999+00009KA1120N+00801MA1999999089671MD1510051+9999ME1314509REMSYN088AAXX  01064 08213 32562 51005 10114 20018 38967 48450 55005 83778 333 20080 30000 55///;EQDQ01  00002PRCP99
0170082130999992000120109004+40940-004120FM-12+100599999V0202101N006210075019N0100001N1+01041+00641999999ADDAY161031AY221031GF108991061071008001071081MA1999999089951MD1310281+9999ME1314749MW1621REMSYN072AAXX  01094 08213 41560 82112 10104 20064 38995 48474 53028 76262 86778;
0197082130999992000120112004+40940-004120FM-12+100599999V0202401N006710120019N0150001N1+01361+00701999999ADDAA106001091AY161061AY221061GF105991051081008001001001MA1999999090061MD1310111+9999ME1314909MW1011REMSYN088AAXX  01124 08213 11565 52413 10136 20070 39006 48490 53011 60011 70162 85800 333 50060;
0142082130999992000120115004+40940-004120FM-12+100599999V0202501N006210120019N0150001N1+01201+00691999999ADDGF105991051081008001001001MA1999999090031MD1510031+9999ME1314849REMSYN066AAXX  01154 08213 42565 52512 10120 20069 39003 48484 55003 85800;
0182082130999992000120118004+40940-004120FM-12+100599999V0201601N001512200019N0150001N1+00901+00381999999ADDAA112001091GF104991041041008001001001KA1999M+01521MA1999999090191MD1110161+9999ME1314939REMSYN082AAXX  01184 08213 12565 41603 10090 20038 39019 48493 51016 60012 84400 333 10152;
0240082130999992000120206004+40940-004120FM-12+100599999V0202301N002610075019N0150001N1+00701+00341999999ADDAA112001091AY161061AY221061GF108991061071008001071081IA1119IA2999+00209KA1120N+00701MA1999999090101MD1310051+9999ME1314829MW1021REMSYN100AAXX  02064 08213 11565 82305 10070 20034 39010 48482 53005 60012 70262 86778 333 20070 32002 55///;
0170082130999992000120209004+40940-004120FM-12+100599999V0202201N004110075019N0050001N1+00381+00241999999ADDAY161031AY221031GF108991061071008001071081MA1999999090341MD1110241+9999ME1314989MW1631REMSYN072AAXX  02094 08213 41550 82208 10038 20024 39034 48498 51024 76362 86778;
0197082130999992000120212004+40940-004120FM-12+100599999V0202601N006210120019N0100001N1+00581+00311999999ADDAA106003091AY161061AY221061GF107991071081008001001001MA1999999090421MD1110081+9999ME1315089MW1011REMSYN088AAXX  02124 08213 11560 72612 10058 20031 39042 48508 51008 60031 70162 87800 333 50140;
0142082130999992000120215004+40940-004120FM-12+100599999V0202901N003610120019N0120001N1+00661+00301999999ADDGF106991061081008001001001MA1999999090471MD1310051+9999ME1315149REMSYN066AAXX  02154 08213 42562 62907 10066 20030 39047 48514 53005 86800;
0212082130999992000120306004+40940-004120FM-12+100599999V0201601N002112200019N0150001N1+00241+00091999999ADDAA112000591GF103991011001017501041081IA1119IA2999+00009KA1120N+00241MA1999999090781MD1610021+9999ME1315349REMSYN094AAXX  03064 08213 12765 31604 10024 20009 39078 48534 56002 69952 81048 333 20024 32000 55///;
0142082130999992000120309004+40940-004120FM-12+100599999V0201401N002112200019N0150001N1+00461+00011999999ADDGF103991011001017501041081MA1999999090861MD1310081+9999ME1315459REMSYN066AAXX  03094 08213 42765 31404 10046 20001 39086 48545 53008 81048;
0182082130999992000120312004+40940-004120FM-12+100599999V0202201N002610150019N0150001N1+00881+00031999999ADDAA199000091GF107991051001017501071081MA1999999090831MD1810031+9999ME1315509REMSYN076AAXX  03124 08213 32765 72205 10088 20003 39083 48550 58003 85078 333 50050;EQDQ01  00002PRCP99
0170082130999992000120315004+40940-004120FM-12+100599999V0202501N004110075019N0120001N1+00841+00261999999ADDAY121031AY221031GF108991061071008001071081MA1999999090581MD1610251+9999ME1315279MW1601REMSYN072AAXX  03154 08213 41562 82508 10084 20026 39058 48527 56025 76022 86778;
0210082130999992000120318004+40940-004120FM-12+100599999V0201801N001010075019N0120001N1+00801+00461999999ADDAA112000791AY161061AY221061GF108991061071008001071081KA1999M+01001MA1999999090631MD1610081+9999ME1315319MW1021REMSYN088AAXX  03184 08213 11562 81802 10080 20046 39063 48531 56008 69902 70262 86778 333 10100;
0240082130999992000120406004+40940-004120FM-12+100599999V0209999C000010075019N0160001N1+00921+00451999999ADDAA112000191AY161061AY221061GF108991051051008001021999IA1119IA2999+00509KA1120N+00761MA1999999090341MD1610141+9999ME1315079MW1021REMSYN100AAXX  04064 08213 11566 80000 10092 20045 39034 48507 56014 69912 70262 8552/ 333 20076 32005 55///;
0142082130999992000120409004+40940-004120FM-12+100599999V0200801N001510120019N0200001N1+00941+00661999999ADDGF107991071081008001001001MA1999999090391MD1110051+9999ME1315139REMSYN066AAXX  04094 08213 42570 70803 10094 20066 39039 48513 51005 87800;
0182082130999992000120412004+40940-004120FM-12+100599999V0202401N001510075019N0200001N1+01381+00631999999ADDAA199000091GF106991051051008001021001MA1999999090431MD1010041+9999ME1315249REMSYN076AAXX  04124 08213 32570 62403 10138 20063 39043 48524 50004 85520 333 50010;EQDQ01  00002PRCP99
0142082130999992000120415004+40940-004120FM-12+100599999V0202401N006210120019N0200001N1+01341+00761999999ADDGF107991071081008001001001MA1999999090381MD1510051+9999ME1315199REMSYN066AAXX  04154 08213 42570 72412 10134 20076 39038 48519 55005 87800;
0195082130999992000120418004+40940-004120FM-12+100599999V0202601N001010360019N0200001N1+01101+00701999999ADDAA199000091GF106991031021008001051001KA1999M+01401MA1999999090381MD1410001+9999ME1315159REMSYN076AAXX  04184 08213 32570 62602 10110 20070 39038 48515 54000 83250 333 10140;EQDQ01  00002PRCP99
0225082130999992000120506004+40940-004120FM-12+100599999V0201801N008210360019N0160001N1+01241+00641999999ADDAA199000091GF106991031021008001051001IA1099IA2999+00809KA1120N+00981MA1999999089871MD1610161+9999ME1314709REMSYN088AAXX  05064 08213 32566 61816 10124 20064 38987 48470 56016 83250 333 20098 31008 55///;EQDQ01  00002PRCP99
0170082130999992000120509004+40940-004120FM-12+100599999V0201901N005710075019N0180001N1+00941+00281999999ADDAY161031AY221031GF108991051051008001021999MA1999999090111MD1110241+9999ME1314879MW1031REMSYN072AAXX  05094 08213 41568 81911 10094 20028 39011 48487 51024 70362 8552/;
0197082130999992000120512004+40940-004120FM-12+100599999V0201901N008210120019N0180001N1+01141+00791999999ADDAA106000591AY161061AY221061GF107991071081008001001001MA1999999089991MD1610121+9999ME1314809MW1601REMSYN088AAXX  05124 08213 11568 71916 10114 20079 38999 48480 56012 69961 76062 87800 333 50120;
0170082130999992000120515004+40940-004120FM-12+100599999V0202001N008710120019N0180001N1+01221+00671999999ADDAY161031AY221031GF107991071081008001001001MA1999999089861MD1510131+9999ME1314699MW1021REMSYN072AAXX  05154 08213 41568 72017 10122 20067 38986 48469 55013 70262 87800;
0210082130999992000120518004+40940-004120FM-12+100599999V0201801N007210120019N0180001N1+01181+00751999999ADDAA112000591AY161061AY221061GF107991071081008001001001KA1999M+01281MA1999999089821MD1610041+9999ME1314659MW1021REMSYN088AAXX  05184 08213 11568 71814 10118 20075 38982 48465 56004 69962 70262 87800 333 10128;
0240082130999992000120606004+40940-004120FM-12+100599999V0203101N001519999999N0100001N1+00601+00511999999ADDAA112003091AY161061AY221061GF108991081999022501999999IA1119IA2999+00509KA1120N+00601MA1999999089941MD1010101+9999ME1314669MW1631REMSYN100AAXX  06064 08213 11860 83103 10060 20051 38994 48466 50010 60032 76362 88/// 333 20060 32005 55///;
0170082130999992000120609004+40940-004120FM-12+100599999V0201401N002110120019N0180001N1+00741+00661999999ADDAY161031AY221031GF107991071081008001001001MA1999999090021MD1110081+9999ME1314769MW1021REMSYN072AAXX  06094 08213 42568 71404 10074 20066 39002 48476 51008 70262 87800;
0197082130999992000120612004+40940-004120FM-12+100599999V0201701N000510360019N0180001N1+01061+00571999999ADDAA106002091AY161061AY221061GF107991041081008001051001MA1999999090031MD1110011+9999ME1314829MW1021REMSYN088AAXX  06124 08213 11568 71701 10106 20057 39003 48482 51001 60021 70262 84850 333 50110;
0142082130999992000120615004+40940-004120FM-12+100599999V0202201N006210360019N0180001N1+01161+00401999999ADDGF107991031021008001051001MA1999999089871MD1710161+9999ME1314689REMSYN066AAXX  06154 08213 42568 72212 10116 20040 38987 48468 57016 83250;
0182082130999992000120618004+40940-004120FM-12+100599999V0201801N005110360019N0180001N1+01061+00481999999ADDAA112002091GF106991031021008001051001KA1999M+01201MA1999999089821MD1610051+9999ME1314629REMSYN082AAXX  06184 08213 12568 61810 10106 20048 38982 48462 56005 60022 83250 333 10120;
0240082130999992000120706004+40940-004120FM-12+100599999V0201701N010810360019N0160001N1+01141+00481999999ADDAA112000191AY161061AY221061GF106991031021008001051001IA1099IA2999+00809KA1120N+01001MA1999999088911MD1610101+9999ME1313799MW1021REMSYN100AAXX  07064 08213 11566 61721 10114 20048 38891 48379 56010 69912 70262 83250 333 20100 31008 55///;
0142082130999992000120709004+40940-004120FM-12+100599999V0201801N010310120019N0160001N1+01181+00331999999ADDGF107991071081008001001001MA1999999088781MD1510131+9999ME1313689REMSYN066AAXX  07094 08213 42566 71820 10118 20033 38878 48368 55013 87800;
0182082130999992000120712004+40940-004120FM-12+100599999V0202001N018010360019N0180001N1+01401+00611999999ADDAA199000091GF106991031021008001041011MA1999999088741MD1810041+9999ME1313679REMSYN076AAXX  07124 08213 32568 62035 10140 20061 38874 48367 58004 83241 333 50210;EQDQ01  00002PRCP99
0142082130999992000120715004+40940-004120FM-12+100599999V0202001N011310120019N0180001N1+01321+00951999999ADDGF107991071081008001001001MA1999999088701MD1510041+9999ME1313629REMSYN066AAXX  07154 08213 42568 72022 10132 20095 38870 48362 55004 87800;
0195082130999992000120718004+40940-004120FM-12+100599999V0201901N005110360019N0180001N1+01081+00931999999ADDAA199000091GF105991031021008001041001KA1999M+01441MA1999999088911MD1310211+9999ME1313799REMSYN076AAXX  07184 08213 32568 51910 10108 20093 38891 48379 53021 83240 333 10144;EQDQ01  00002PRCP99
0225082130999992000120806004+40940-004120FM-12+100599999V0201801N003612200019N0150001N1+00501+00061999999ADDAA199000091GF103991011011008001041081IA1099IA2999-00109KA1120N+00401MA1999999089701MD1110071+9999ME1314429REMSYN088AAXX  08064 08213 32565 31807 10050 20006 38970 48442 51007 81148 333 20040 31101 55///;EQDQ01  00002PRCP99
0142082130999992000120809004+40940-004120FM-12+100599999V0202201N003612200019N0150001N1+00741+00141999999ADDGF104991021081008001041091MA1999999089831MD1310131+9999ME1314589REMSYN066AAXX  08094 08213 42565 42207 10074 20014 38983 48458 53013 82849;
0182082130999992000120812004+40940-004120FM-12+100599999V0202201N006212200019N0150001N1+01021+00111999999ADDAA199000091GF103991021081008001041001MA1999999089911MD1110081+9999ME1314709REMSYN076AAXX  08124 08213 32565 32212 10102 20011 38991 48470 51008 82840 333 50220;EQDQ01  00002PRCP99
0170082130999992000120815004+40940-004120FM-12+100599999V0202801N002610075019N0120001N1+00681+00461999999ADDAY161031AY221031GF107991061071008001071001MA1999999089901MD1510011+9999ME1314639MW1211REMSYN072AAXX  08154 08213 42562 72805 10068 20046 38990 48463 55001 72162 86770;
0210082130999992000120818004+40940-004120FM-12+100599999V0202201N001510120019N0100001N1+00651+00451999999ADDAA112000891AY161061AY221061GF105991051081008001001001KA1999M+01141MA1999999090031MD1210131+9999ME1314759MW1151REMSYN088AAXX  08184 08213 11560 52203 10065 20045 39003 48475 52013 69972 71562 85800 333 10114;
0240082130999992000120906004+40940-004120FM-12+100599999V0202401N004610360019N0120001N1+00541+00111999999ADDAA112000391AY161061AY221061GF107991041071008001071081IA1099IA2999+00009KA1120N+00401MA1999999090471MD1310101+9999ME1315129MW1021REMSYN100AAXX  09064 08213 11562 72409 10054 20011 39047 48512 53010 69932 70262 84778 333 20040 31000 55///;
0142082130999992000120909004+40940-004120FM-12+100599999V0202401N002610360019N0150001N1+00561+00131999999ADDGF106991041041008001031001MA1999999090671MD1210201+9999ME1315309REMSYN066AAXX  09094 08213 42565 62405 10056 20013 39067 48530 52020 84430;
0182082130999992000120912004+40940-004120FM-12+100599999V0202501N004610360019N0150001N1+00781+00071999999ADDAA199000091GF105991041081008001031091MA1999999090781MD1110111+9999ME1315449REMSYN076AAXX  09124 08213 32565 52509 10078 20007 39078 48544 51011 84839 333 50110;EQDQ01  00002PRCP99
0142082130999992000120915004+40940-004120FM-12+100599999V0202701N004610075019N0150001N1+00841+00031999999ADDGF107991061041008001071081MA1999999090711MD1610071+9999ME1315399REMSYN066AAXX  09154 08213 42565 72709 10084 20003 39071 48539 56007 86478;
0182082130999992000120918004+40940-004120FM-12+100599999V0202301N002610075019N0150001N1+00761+00211999999ADDAA112000791GF107991061041008001071001KA1999M+00941MA1999999090791MD1310081+9999ME1315459REMSYN082AAXX  09184 08213 12565 72305 10076 20021 39079 48545 53008 69902 86470 333 10094;
0225082130999992000121006004+40940-004120FM-12+100599999V0200701N001510150019N0150001N1+00701+00141999999ADDAA199000091GF107991071001017501071001IA1019IA2999+00109KA1120N+00561MA1999999090951MD1510031+9999ME1315589REMSYN088AAXX  10064 08213 32765 70703 10070 20014 39095 48558 55003 87070 333 20056 30001 55///;EQDQ01  00002PRCP99
0142082130999992000121009004+40940-004120FM-12+100599999V0202101N001510360019N0150001N1+00881+00301999999ADDGF108991021051008001071081MA1999999091181MD1210231+9999ME1315829REMSYN066AAXX  10094 08213 42565 82103 10088 20030 39118 48582 52023 82578;
0197082130999992000121012004+40940-004120FM-12+100599999V0201301N002110360019N0150001N1+01101+00741999999ADDAA106001091AY161061AY221061GF108991021051008001071081MA1999999091271MD1110091+9999ME1315959MW1211REMSYN088AAXX  10124 08213 11565 81304 10110 20074 39127 48595 51009 60011 72162 82578 333 50070;
0142082130999992000121015004+40940-004120FM-12+100599999V0202901N001510360019N0150001N1+01241+00641999999ADDGF107991021041008001071081MA1999999091271MD1410001+9999ME1315989REMSYN066AAXX  10154 08213 42565 72903 10124 20064 39127 48598 54000 82478;
0182082130999992000121018004+40940-004120FM-12+100599999V0200801N001010360019N0120001N1+01021+00701999999ADDAA112001091GF107991021041008001071081KA1999M+01261MA1999999091311MD1310041+9999ME1315949REMSYN082AAXX  10184 08213 12562 70802 10102 20070 39131 48594 53004 60012 82478 333 10126;
0225082130999992000121106004+40940-004120FM-12+100599999V0209999C000012200019N0200001N1+00551+00251999999ADDAA199000091GF104991021001017501051021IA1099IA2999-00109KA1120N+00541MA1999999091381MD1610031+9999ME1315939REMSYN088AAXX  11064 08213 32770 40000 10055 20025 39138 48593 56003 82052 333 20054 31101 55///;EQDQ01  00002PRCP99
0142082130999992000121109004+40940-004120FM-12+100599999V0200701N001010900019N0250001N1+00641+00171999999ADDGF106991031001017501071021MA1999999091461MD1210081+9999ME1316029REMSYN066AAXX  11094 08213 42775 60702 10064 20017 39146 48602 52008 83072;
0182082130999992000121112004+40940-004120FM-12+100599999V0202201N001012200019N0300001N1+01431-00201999999ADDAA199000091GF103991021001017501041021MA1999999091431MD1810031+9999ME1316169REMSYN076AAXX  11124 08213 32780 32202 10143 21020 39143 48616 58003 82042 333 50100;EQDQ01  00002PRCP99
0142082130999992000121115004+40940-004120FM-12+100599999V0202601N005112200019N0300001N1+01501-00511999999ADDGF102991011001017501041021MA1999999091351MD1610081+9999ME1316109REMSYN066AAXX  11154 08213 42780 22610 10150 21051 39135 48610 56008 81042;
0195082130999992000121118004+40940-004120FM-12+100599999V0209999C000012200019N0250001N1+01001+00241999999ADDAA199000091GF101991011001017501041011KA1999M+01571MA1999999091421MD1210071+9999ME1316069REMSYN076AAXX  11184 08213 32775 10000 10100 20024 39142 48606 52007 81041 333 10157;EQDQ01  00002PRCP99
0225082130999992000121206004+40940-004120FM-12+100599999V0201001N002112200019N0200001N1+00671-00241999999ADDAA199000091GF103991001001999999001051IA1099IA2999-00209KA1120N+00511MA1999999091381MD1710051+9999ME1315959REMSYN088AAXX  12064 08213 32970 31004 10067 21024 39138 48595 57005 80005 333 20051 31102 55///;EQDQ01  00002PRCP99
0142082130999992000121209004+40940-004120FM-12+100599999V0200801N002110900019N0300001N1+00961-00431999999ADDGF105991031001017501071021MA1999999091391MD1310011+9999ME1316029REMSYN066AAXX  12094 08213 42780 50804 10096 21043 39139 48602 53001 83072;
0182082130999992000121212004+40940-004120FM-12+100599999V0209999C000012200019N0300001N1+01571-00131999999ADDAA199000091GF104991021001017501031021MA1999999091351MD1810041+9999ME1316119REMSYN076AAXX  12124 08213 32780 40000 10157 21013 39135 48611 58004 82032 333 50070;EQDQ01  00002PRCP99
0142082130999992000121215004+40940-004120FM-12+100599999V0202301N007212200019N0300001N1+01741-00761999999ADDGF103991011001017501031021MA1999999091231MD1610121+9999ME1316039REMSYN066AAXX  12154 08213 42780 32314 10174 21076 39123 48603 56012 81032;
0195082130999992000121218004+40940-004120FM-12+100599999V0209999C000012200019N0250001N1+01001+00241999999ADDAA199000091GF101991011001017501041011KA1999M+01571MA1999999091421MD1210071+9999ME1316069REMSYN076AAXX  12184 08213 32775 10000 10100 20024 39142 48606 52007 81041 333 10157;EQDQ01  00002PRCP99
0225082130999992000121306004+40940-004120FM-12+100599999V0201501N003112200019N0250001N1+00741+00291999999ADDAA199000091GF103991001001999999001011IA1099IA2999+00309KA1120N+00691MA1999999091351MD1710031+9999ME1315949REMSYN088AAXX  13064 08213 32975 31506 10074 20029 39135 48594 57003 80001 333 20069 31003 55///;EQDQ01  00002PRCP99
0142082130999992000121309004+40940-004120FM-12+100599999V0209999C000010150019N0300001N1+00821+00651999999ADDGF107991071001017501071999MA1999999091431MD1310081+9999ME1316049REMSYN066AAXX  13094 08213 42780 70000 10082 20065 39143 48604 53008 8707/;
0197082130999992000121312004+40940-004120FM-12+100599999V0203001N000510150019N0200001N1+01141+00951999999ADDAA106000791AY161061AY221061GF107991071001017501071999MA1999999091421MD1810011+9999ME1316109MW1021REMSYN088AAXX  13124 08213 11770 73001 10114 20095 39142 48610 58001 69901 70262 8707/ 333 50250;
0142082130999992000121315004+40940-004120FM-12+100599999V0203001N002110150019N0250001N1+01131+00671999999ADDGF107991071001017501071999MA1999999091231MD1710191+9999ME1315929REMSYN066AAXX  13154 08213 42775 73004 10113 20067 39123 48592 57019 8707/;
0182082130999992000121318004+40940-004120FM-12+100599999V0201401N002110900019N0250001N1+01001+00681999999ADDAA112000791GF105991031001017501031021KA1999M+01191MA1999999091191MD1710041+9999ME1315869REMSYN082AAXX  13184 08213 12775 51404 10100 20068 39119 48586 57004 69902 83032 333 10119;
0225082130999992000121406004+40940-004120FM-12+100599999V0201101N000510150019N0120001N1+00621+00251999999ADDAA199000091GF107991051001017501071081IA1099IA2999-00109KA1120N+00621MA1999999090591MD1810081+9999ME1315249REMSYN088AAXX  14064 08213 32762 71101 10062 20025 39059 48524 58008 85078 333 20062 31101 55003;EQDQ01  00002PRCP99
0142082130999992000121409004+40940-004120FM-12+100599999V0202001N002610150019N0150001N1+01021-00081999999ADDGF107991051001017501071081MA1999999090511MD1510081+9999ME1315249REMSYN066AAXX  14094 08213 42765 72005 10102 21008 39051 48524 55008 85078;
0182082130999992000121412004+40940-004120FM-12+100599999V0202401N005110150019N0150001N1+01361+00001999999ADDAA199000091GF107991061001017501071081MA1999999090471MD1810041+9999ME1315279REMSYN076AAXX  14124 08213 32765 72410 10136 20000 39047 48527 58004 86078 333 50170;EQDQ01  00002PRCP99
0170082130999992000121415004+40940-004120FM-12+100599999V0203101N001010042019N0040001N1+00721+00721999999ADDAY161031AY221031GF108991061061004501071081MA1999999090431MD1510041+9999ME1315129MW1631REMSYN072AAXX  14154 08213 41440 83102 10072 20072 39043 48512 55004 76362 86678;
0210082130999992000121418004+40940-004120FM-12+100599999V0202301N002610042019N0040001N1+00661+00661999999ADDAA112009991AY161061AY221061GF108991061061004501071081KA1999M+01401MA1999999090501MD1110071+9999ME1315179MW1631REMSYN088AAXX  14184 08213 11440 82305 10066 20066 39050 48517 51007 60102 76362 86678 333 10140;
0240082130999992000121506004+40940-004120FM-12+100599999V0202701N003610075019N0100001N1+00161+00011999999ADDAA112004191AY161061AY221061GF106991061021008001001001IA1099IA2999+00009KA1120N+00161MA1999999090511MD1210031+9999ME1315089MW1021REMSYN100AAXX  15064 08213 11560 62707 10016 20001 39051 48508 52003 60042 70262 86200 333 20016 31000 55///;
0142082130999992000121509004+40940-004120FM-12+100599999V0202601N002110075019N0120001N1+00141-00021999999ADDGF108991051051008001021999MA1999999090631MD1310121+9999ME1315199REMSYN066AAXX  15094 08213 42562 82604 10014 21002 39063 48519 53012 8552/;
0182082130999992000121512004+40940-004120FM-12+100599999V0202701N002610075019N0120001N1+00241-00021999999ADDAA199000091GF108991051051008001021001MA1999999090671MD1010041+9999ME1315249REMSYN076AAXX  15124 08213 32562 82705 10024 21002 39067 48524 50004 85520 333 50200;EQDQ01  00002PRCP99
0142082130999992000121515004+40940-004120FM-12+100599999V0202901N003110075019N0180001N1+00501-00171999999ADDGF106991061021008001001001MA1999999090591MD1710081+9999ME1315229REMSYN066AAXX  15154 08213 42568 62906 10050 21017 39059 48522 57008 86200;
0195082130999992000121518004+40940-004120FM-12+100599999V0203301N001012200019N0180001N1+00301-00121999999ADDAA199000091GF102991021021008001001001KA1999M+00561MA1999999090661MD1310071+9999ME1315249REMSYN076AAXX  15184 08213 32568 23302 10030 21012 39066 48524 53007 82200 333 10056;EQDQ01  00002PRCP99
0225082130999992000121606004+40940-004120FM-12+100599999V0201101N001012200019N0120001N1-00181-00321999999ADDAA199000091GF102991021021008001001001IA1149IA2999-00509KA1120N-00181MA1999999090711MD1310031+9999ME1315199REMSYN088AAXX  16064 08213 32562 21102 11018 21032 39071 48519 53003 82200 333 21018 34105 55///;EQDQ01  00002PRCP99
0142082130999992000121609004+40940-004120FM-12+100599999V0209999C000012200019N0300001N1-00101-00341999999ADDGF102991001001999999001011MA1999999090781MD1210071+9999ME1315279REMSYN066AAXX  16094 08213 42980 20000 11010 21034 39078 48527 52007 80001;
0182082130999992000121612004+40940-004120FM-12+100599999V0202601N001512200019N0300001N1+00301-00181999999ADDAA199000091GF101991001001999999001011MA1999999090711MD1810071+9999ME1315289REMSYN076AAXX  16124 08213 32980 12603 10030 21018 39071 48528 58007 80001 333 5///1;EQDQ01  00002PRCP99
0142082130999992000121615004+40940-004120FM-12+100599999V0203301N001012200019N0300001N1+00541-00251999999ADDGF102991001001999999001011MA1999999090591MD1710121+9999ME1315229REMSYN066AAXX  16154 08213 42980 23302 10054 21025 39059 48522 57012 80001;
0195082130999992000121618004+40940-004120FM-12+100599999V0200301N000512200019N0200001N1+00361-00231999999ADDAA199000091GF101991001001999999001011KA1999M+00601MA1999999090591MD1410001+9999ME1315199REMSYN076AAXX  16184 08213 32970 10301 10036 21023 39059 48519 54000 80001 333 10060;EQDQ01  00002PRCP99
0225082130999992000121706004+40940-004120FM-12+100599999V0201201N001012200019N0200001N1-00121-00301999999ADDAA199000091GF101991001001999999001011IA1149IA2999-00609KA1120N-00121MA1999999090471MD1810051+9999ME1315009REMSYN088AAXX  17064 08213 32970 11202 11012 21030 39047 48500 58005 80001 333 21012 34106 55082;EQDQ01  00002PRCP99
0142082130999992000121709004+40940-004120FM-12+100599999V0201001N001012200019N0200001N1-00021-00361999999ADDGF103991011041008001001041MA1999999090631MD1310161+9999ME1315159REMSYN066AAXX  17094 08213 42570 31002 11002 21036 39063 48515 53016 81404;
0182082130999992000121712004+40940-004120FM-12+100599999V0202001N001512200019N0200001N1+00541+00051999999ADDAA199000091GF105991011041008001001011MA1999999090631MD1010001+9999ME1315269REMSYN076AAXX  17124 08213 32570 52003 10054 20005 39063 48526 50000 81401 333 5///1;EQDQ01  00002PRCP99
0142082130999992000121715004+40940-004120FM-12+100599999V0202901N002110900019N0200001N1+00721+00051999999ADDGF107991011041008001001071MA1999999090461MD1710171+9999ME1315149REMSYN066AAXX  17154 08213 42570 72904 10072 20005 39046 48514 57017 81407;
0210082130999992000121718004+40940-004120FM-12+100599999V0201701N001010075019N0160001N1+00681+00271999999ADDAA112000791AY161061AY221061GF108991051051008001021999KA1999M+00801MA1999999090511MD1210051+9999ME1315189MW1031REMSYN088AAXX  17184 08213 11566 81702 10068 20027 39051 48518 52005 69902 70362 8552/ 333 10080;
0212082130999992000121806004+40940-004120FM-12+100599999V0200901N001512200019N0200001N1+00751+00471999999ADDAA112000891GF104991041051008001001001IA1099IA2999+00209KA1120N+00541MA1999999090421MD1710081+9999ME1315129REMSYN094AAXX  18064 08213 12570 40903 10075 20047 39042 48512 57008 69972 84500 333 20054 31002 55065;
0142082130999992000121809004+40940-004120FM-12+100599999V0202001N000510075019N0300001N1+00771+00471999999ADDGF106991051051008001031011MA1999999090471MD1310051+9999ME1315169REMSYN066AAXX  18094 08213 42580 62001 10077 20047 39047 48516 53005 85531;
0182082130999992000121812004+40940-004120FM-12+100599999V0202401N000512200019N0300001N1+01231+00581999999ADDAA199000091GF103991011051008001051011MA1999999090511MD1110041+9999ME1315299REMSYN076AAXX  18124 08213 32580 32401 10123 20058 39051 48529 51004 81551 333 50040;EQDQ01  00002PRCP99
0142082130999992000121815004+40940-004120FM-12+100599999V0202301N005112200019N0300001N1+01341+00381999999ADDGF103991011051008001041011MA1999999090431MD1710081+9999ME1315239REMSYN066AAXX  18154 08213 42580 32310 10134 20038 39043 48523 57008 81541;
0195082130999992000121818004+40940-004120FM-12+100599999V0209999C000012200019N0300001N1+00901+00481999999ADDAA199000091GF102991011001017501031021KA1999M+01361MA1999999090511MD1310081+9999ME1315229REMSYN076AAXX  18184 08213 32780 20000 10090 20048 39051 48522 53008 81032 333 10136;EQDQ01  00002PRCP99
0225082130999992000121906004+40940-004120FM-12+100599999V0202101N001010075019N0200001N1+00991-00791999999ADDAA199000091GF108991081051008001999999IA1099IA2999+00109KA1120N+00681MA1999999090061MD1510001+9999ME1314829REMSYN088AAXX  19064 08213 32570 82102 10099 21079 39006 48482 55000 885// 333 20068 31001 55053;EQDQ01  00002PRCP99
0142082130999992000121909004+40940-004120FM-12+100599999V0201901N003110150019N0250001N1+00791-00221999999ADDGF107991061001017501071011MA1999999090261MD1210201+9999ME1314979REMSYN066AAXX  19094 08213 42775 71906 10079 21022 39026 48497 52020 86071;
0197082130999992000121912004+40940-004120FM-12+100599999V0202201N006210150019N0250001N1+01071-00231999999ADDAA106000791AY161061AY221061GF108991051001017501071021MA1999999090151MD1810111+9999ME1314929MW1021REMSYN088AAXX  19124 08213 11775 82212 10107 21023 39015 48492 58011 69901 70262 85072 333 50190;
0142082130999992000121915004+40940-004120FM-12+100599999V0202101N004110900019N0250001N1+01221-00301999999ADDGF105991021001017501091021MA1999999090021MD1710131+9999ME1314839REMSYN066AAXX  19154 08213 42775 52108 10122 21030 39002 48483 57013 82092;
0182082130999992000121918004+40940-004120FM-12+100599999V0201401N003610900019N0300001N1+00861-00281999999ADDAA112000791GF105991031001017501071021KA1999M+01341MA1999999089981MD1710041+9999ME1314739REMSYN082AAXX  19184 08213 12780 51407 10086 21028 38998 48473 57004 69902 83072 333 10134;
0225082130999992000122006004+40940-004120FM-12+100599999V0201201N005112200019N0200001N1+00841-00751999999ADDAA199000091GF102991001001999999001011IA1099IA2999+00409KA1120N+00651MA1999999089541MD1710121+9999ME1314329REMSYN088AAXX  20064 08213 32970 21210 10084 21075 38954 48432 57012 80001 333 20065 31004 55024;EQDQ01  00002PRCP99
0142082130999992000122009004+40940-004120FM-12+100599999V0201201N003619999999N0300001N1+00781-00601999999ADDGF106991001001999999001061MA1999999089551MD1310011+9999ME1314329REMSYN066AAXX  20094 08213 42980 61207 10078 21060 38955 48432 53001 80006;
0182082130999992000122012004+40940-004120FM-12+100599999V0209999C000019999999N0250001N1+00841-00051999999ADDAA199000091GF106991001001999999001061MA1999999089471MD1810081+9999ME1314269REMSYN076AAXX  20124 08213 32975 60000 10084 21005 38947 48426 58008 80006 333 50220;EQDQ01  00002PRCP99
0142082130999992000122015004+40940-004120FM-12+100599999V0209999C000012200019N0250001N1+00921-00151999999ADDGF106991011001017501031061MA1999999089391MD1710081+9999ME1314209REMSYN066AAXX  20154 08213 42775 60000 10092 21015 38939 48420 57008 81036;
0195082130999992000122018004+40940-004120FM-12+100599999V0201301N003612200019N0200001N1+00661-00341999999ADDAA199000091GF106991011001017501031061KA1999M+00981MA1999999089391MD1410001+9999ME1314169REMSYN076AAXX  20184 08213 32770 61307 10066 21034 38939 48416 54000 81036 333 10098;EQDQ01  00002PRCP99
0225082130999992000122106004+40940-004120FM-12+100599999V0201201N005112200019N0200001N1+00521+00171999999ADDAA199000091GF103991031051008001001001IA1019IA2999+00309KA1120N+00411MA1999999089381MD1410001+9999ME1314149REMSYN088AAXX  21064 08213 32570 31210 10052 20017 38938 48414 54000 83500 333 20041 30003 55030;EQDQ01  00002PRCP99
0142082130999992000122109004+40940-004120FM-12+100599999V0201101N005712200019N0170001N1+00651-00151999999ADDGF103991011051008001031011MA1999999089341MD1710041+9999ME1314129REMSYN066AAXX  21094 08213 42567 31111 10065 21015 38934 48412 57004 81531;
0182082130999992000122112004+40940-004120FM-12+100599999V0201301N007212200019N0180001N1+00751-00051999999ADDAA199000091GF103991021051008001001011MA1999999089301MD1810041+9999ME1314109REMSYN076AAXX  21124 08213 32568 31314 10075 21005 38930 48410 58004 82501 333 50120;EQDQ01  00002PRCP99
0195082130999992000122118004+40940-004120FM-12+100599999V0201201N008210900019N0180001N1+00701-00491999999ADDAA199000091GF105991021051008001071011KA1999M+00841MA1999999088951MD1610201+9999ME1313779REMSYN076AAXX  21184 08213 32568 51216 10070 21049 38895 48377 56020 82571 333 10084;EQDQ01  00002PRCP99
0240082130999992000122206004+40940-004120FM-12+100599999V0201401N013410075019N0080001N1+00601+00081999999ADDAA112002091AY161061AY221061GF108991061071008001071081IA1119IA2999+00309KA1120N+00521MA1999999088431MD1610201+9999ME1313289MW1611REMSYN100AAXX  22064 08213 11558 81426 10060 20008 38843 48328 56020 60022 76162 86778 333 20052 32003 55061;
0170082130999992000122209004+40940-004120FM-12+100599999V0201301N015910075019N0080001N1+00581+00051999999ADDAY161031AY221031GF108991061071008001071081MA1999999088381MD1610051+9999ME1313239MW1611REMSYN072AAXX  22094 08213 41558 81331 10058 20005 38838 48323 56005 76162 86778;
0197082130999992000122212004+40940-004120FM-12+100599999V0201301N010310075019N0080001N1+00541+00111999999ADDAA106005191AY161061AY221061GF108991061071008001071081MA1999999088551MD1010171+9999ME1313389MW1631REMSYN088AAXX  22124 08213 11558 81320 10054 20011 38855 48338 50017 60051 76362 86778 333 50360;
0170082130999992000122215004+40940-004120FM-12+100599999V0201401N013910075019N0060001N1+00481+00201999999ADDAY161031AY221031GF108991061071008001071081MA1999999088381MD1610171+9999ME1313229MW1631REMSYN072AAXX  22154 08213 41556 81427 10048 20020 38838 48322 56017 76362 86778;
0210082130999992000122218004+40940-004120FM-12+100599999V0201401N013910075019N0060001N1+00561+00191999999ADDAA112016091AY161061AY221061GF108991061071008001071081KA1999M+00621MA1999999088351MD1510031+9999ME1313209MW1611REMSYN088AAXX  22184 08213 11556 81427 10056 20019 38835 48320 55003 60162 76162 86778 333 10062;
0240082130999992000122306004+40940-004120FM-12+100599999V0201801N002110075019N0100001N1+00381+00291999999ADDAA112004191AY161061AY221061GF108991061071008001071081IA1119IA2999+00309KA1120N+00381MA1999999088981MD1210091+9999ME1313769MW1611REMSYN100AAXX  23064 08213 11560 81804 10038 20029 38898 48376 52009 60042 76162 86778 333 20038 32003 55000;
0170082130999992000122309004+40940-004120FM-12+100599999V0201301N001512200019N0150001N1+00441+00251999999ADDAY161031AY221031GF103991011011008001041081MA1999999089061MD1110081+9999ME1313849MW1011REMSYN072AAXX  23094 08213 41565 31303 10044 20025 38906 48384 51008 70162 81148;
0197082130999992000122312004+40940-004120FM-12+100599999V0201401N001512200019N0200001N1+00821+00131999999ADDAA106000191AY161061AY211061GF103991011011008001041081MA1999999089031MD1810031+9999ME1313869MW1021REMSYN088AAXX  23124 08213 11570 31403 10082 20013 38903 48386 58003 69911 70261 81148 333 50380;
0182082130999992000122318004+40940-004120FM-12+100599999V0201701N004110120019N0150001N1+00661+00041999999ADDAA112000191GF108991051081008001071081KA1999M+00941MA1999999088701MD1610161+9999ME1313539REMSYN082AAXX  23184 08213 12565 81708 10066 20004 38870 48353 56016 69912 85878 333 10094;
0212082130999992000122406004+40940-004120FM-12+100599999V0201901N002610075019N0100001N1+00761+00171999999ADDAA112002091GF108991051071008001071081IA1119IA2999+00409KA1120N+00501MA1999999088311MD1710101+9999ME1313199REMSYN094AAXX  24064 08213 12560 81905 10076 20017 38831 48319 57010 60022 85778 333 20050 32004 55038;
0142082130999992000122409004+40940-004120FM-12+100599999V0201501N006710120019N0120001N1+00721+00221999999ADDGF107991051081008001071081MA1999999088231MD1610081+9999ME1313119REMSYN066AAXX  24094 08213 42562 71513 10072 20022 38823 48311 56008 85878;
0182082130999992000122412004+40940-004120FM-12+100599999V0201801N005110120019N0150001N1+00761+00171999999ADDAA199000091GF107991051081008001071071MA1999999088301MD1110071+9999ME1313189REMSYN076AAXX  24124 08213 32565 71810 10076 20017 38830 48318 51007 85877 333 50170;EQDQ01  00002PRCP99
0142082130999992000122415004+40940-004120FM-12+100599999V0202201N006710360019N0150001N1+00881+00211999999ADDGF105991031081008001041011MA1999999088261MD1610041+9999ME1313159REMSYN066AAXX  24154 08213 42565 52213 10088 20021 38826 48315 56004 83841;
0195082130999992000122418004+40940-004120FM-12+100599999V0202401N002110120019N0150001N1+00601+00181999999ADDAA199000091GF107991051081008001071081KA1999M+00941MA1999999088271MD1310011+9999ME1313139REMSYN076AAXX  24184 08213 32565 72404 10060 20018 38827 48313 53001 85878 333 10094;EQDQ01  00002PRCP99
0240082130999992000122506004+40940-004120FM-12+100599999V0202101N002110120019N0120001N1+00441+00211999999ADDAA112001091AY161061AY221061GF107991071081008001001001IA1119IA2999+00109KA1120N+00401MA1999999088541MD1110051+9999ME1313369MW1021REMSYN100AAXX  25064 08213 11562 72104 10044 20021 38854 48336 51005 60012 70262 87800 333 20040 32001 55031;
0142082130999992000122509004+40940-004120FM-12+100599999V0202001N001010120019N0160001N1+00441+00161999999ADDGF107991071081008001001001MA1999999088591MD1110051+9999ME1313419REMSYN066AAXX  25094 08213 42566 72002 10044 20016 38859 48341 51005 87800;
0182082130999992000122512004+40940-004120FM-12+100599999V0202301N003610120019N0160001N1+00781+00141999999ADDAA199000091GF107991071081008001001001MA1999999088591MD1010001+9999ME1313459REMSYN076AAXX  25124 08213 32566 72307 10078 20014 38859 48345 50000 87800 333 50040;EQDQ01  00002PRCP99
0170082130999992000122515004+40940-004120FM-12+100599999V0202201N004610075019N0160001N1+00761+00171999999ADDAY161031AY221031GF108991051051008001021999MA1999999088351MD1710241+9999ME1313229MW1021REMSYN072AAXX  25154 08213 41566 82209 10076 20017 38835 48322 57024 70262 8552/;
0210082130999992000122518004+40940-004120FM-12+100599999V0202201N003610120019N0160001N1+00661+00251999999ADDAA112000191AY161061AY221061GF107991071081008001001001KA1999M+00821MA1999999088151MD1710201+9999ME1313039MW1021REMSYN088AAXX  25184 08213 11566 72207 10066 20025 38815 48303 57020 69922 70262 87800 333 10082;
0212082130999992000122606004+40940-004120FM-12+100599999V0202301N006710120019N0120001N1+00501+00011999999ADDAA112000191GF107991071081008001001001IA1099IA2999+00209KA1120N+00441MA1999999088271MD1610051+9999ME1313129REMSYN094AAXX  26064 08213 12562 72313 10050 20001 38827 48312 56005 69912 87800 333 20044 31002 55017;
0142082130999992000122609004+40940-004120FM-12+100599999V0202201N003112200019N0180001N1+00441+00001999999ADDGF104991031021008001041001MA1999999088231MD1710041+9999ME1313089REMSYN066AAXX  26094 08213 42568 42206 10044 20000 38823 48308 57004 83240;
0182082130999992000122612004+40940-004120FM-12+100599999V0202401N005710120019N0180001N1+00821+00081999999ADDAA199000091GF107991071081008001001001MA1999999088181MD1810051+9999ME1313079REMSYN076AAXX  26124 08213 32568 72411 10082 20008 38818 48307 58005 87800 333 50090;EQDQ01  00002PRCP99
0142082130999992000122615004+40940-004120FM-12+100599999V0202201N006210075019N0180001N1+00701-00201999999ADDGF108991051051008001021999MA1999999087991MD1710191+9999ME1312889REMSYN066AAXX  26154 08213 42568 82212 10070 21020 38799 48288 57019 8552/;
0210082130999992000122618004+40940-004120FM-12+100599999V0201401N002110075019N0180001N1+00381+00191999999ADDAA112001091AY161061AY221061GF108991051051008001021999KA1999M+00821MA1999999087991MD1010001+9999ME1312859MW1021REMSYN088AAXX  26184 08213 11568 81404 10038 20019 38799 48285 50000 60012 70262 8552/ 333 10082;
0212082130999992000122706004+40940-004120FM-12+100599999V0202401N004110120019N0120001N1+00321+00081999999ADDAA112000591GF107991071081008001001001IA1099IA2999+00209KA1120N+00291MA1999999088101MD1310031+9999ME1312959REMSYN094AAXX  27064 08213 12562 72408 10032 20008 38810 48295 53003 69952 87800 333 20029 31002 55017;
0170082130999992000122709004+40940-004120FM-12+100599999V0202601N007210075019N0120001N1+00301+00211999999ADDAY161031AY221031GF108991051051008001021999MA1999999088311MD1310211+9999ME1313149MW1021REMSYN072AAXX  27094 08213 41562 82614 10030 20021 38831 48314 53021 70262 8552/;
0197082130999992000122712004+40940-004120FM-12+100599999V0202701N008210120019N0140001N1+00401+00111999999ADDAA106000191AY161061AY221061GF107991071081008001001001MA1999999088501MD1110191+9999ME1313329MW1021REMSYN088AAXX  27124 08213 11564 72716 10040 20011 38850 48332 51019 69921 70262 87800 333 50070;
0170082130999992000122715004+40940-004120FM-12+100599999V0202701N010310075019N0140001N1+00381+00191999999ADDAY161031AY221031GF108991051051008001021999MA1999999088541MD1010041+9999ME1313359MW1021REMSYN072AAXX  27154 08213 41564 82720 10038 20019 38854 48335 50004 70262 8552/;
0210082130999992000122718004+40940-004120FM-12+100599999V0202801N008710120019N0140001N1+00421+00181999999ADDAA112000591AY161061AY221061GF107991071081008001001001KA1999M+00421MA1999999088831MD1210291+9999ME1313629MW1021REMSYN088AAXX  27184 08213 11564 72817 10042 20018 38883 48362 52029 69952 70262 87800 333 10042;
0225082130999992000122806004+40940-004120FM-12+100599999V0202201N003610120019N0120001N1+00061-00041999999ADDAA199000091GF107991071081008001001001IA1149IA2999-00309KA1120N-00041MA1999999089591MD1810031+9999ME1314259REMSYN088AAXX  28064 08213 32562 72207 10006 21004 38959 48425 58003 87800 333 21004 34103 55003;EQDQ01  00002PRCP99
0170082130999992000122809004+40940-004120FM-12+100599999V0202001N003610360019N0020001N1+00161-00101999999ADDAY171031AY221031GF108991031071008001021999MA1999999089461MD1710131+9999ME1314159MW1711REMSYN072AAXX  28094 08213 41520 82007 10016 21010 38946 48415 57013 77172 8372/;
0232082130999992000122812004+40940-004120FM-12+100599999V0202301N009810075019N0120001N1+00581+00211999999ADDAA106003091AY171061AY221061GF108991051051008001021999MA1999999088951MD1410001+9999ME1313759MW1601REMSYN088AAXX  28124 08213 11562 82319 10058 20021 38895 48375 57051 60031 76072 8552/ 333 50040;EQDQ01+000072APCTENQ02+000512APC3  
0170082130999992000122815004+40940-004120FM-12+100599999V0202401N011310120019N0160001N1+00821+00341999999ADDAY161031AY221031GF107991071081008001001001MA1999999088751MD1610201+9999ME1313609MW1021REMSYN072AAXX  28154 08213 41566 72422 10082 20034 38875 48360 56020 70262 87800;
0210082130999992000122818004+40940-004120FM-12+100599999V0202701N010310120019N0160001N1+00681+00421999999ADDAA112000891AY161061AY221061GF107991071081008001001001KA1999M+00901MA1999999088941MD1310191+9999ME1313769MW1021REMSYN088AAXX  28184 08213 11566 72720 10068 20042 38894 48376 53019 69982 70262 87800 333 10090;
0225082130999992000122906004+40940-004120FM-12+100599999V0202901N009310075019N0100001N1+00541+00361999999ADDAA199000091GF108991061071008001071081IA1019IA2999+00409KA1120N+00501MA1999999089551MD1210201+9999ME1314299REMSYN088AAXX  29064 08213 32560 82918 10054 20036 38955 48429 52020 86778 333 20050 30004 55014;EQDQ01  00002PRCP99
0142082130999992000122909004+40940-004120FM-12+100599999V0202901N006710042019N0100001N1+00521+00341999999ADDGF107991051071004501071001MA1999999089821MD1210271+9999ME1314549REMSYN066AAXX  29094 08213 42460 72913 10052 20034 38982 48454 52027 85770;
0197082130999992000123012004+40940-004120FM-12+100599999V0203001N009810120019N0150001N1+00521+00031999999ADDAA106000591AY181061AY261061GF107991051081008001071001MA1999999089621MD1210441+9999ME1314359MW1021REMSYN088AAXX  30124 08213 11565 73019 10052 20003 38962 48435 52044 69941 70286 85870 333 50350;
0170082130999992000123015004+40940-004120FM-12+100599999V0203001N006710360019N0150001N1+00621-00201999999ADDAY121031AY221031GF106991041081008001071081MA1999999089741MD1310121+9999ME1314479MW1151REMSYN072AAXX  30154 08213 41565 63013 10062 21020 38974 48447 53012 71522 84878;
0182082130999992000123018004+40940-004120FM-12+100599999V0200401N002110120019N0150001N1+00281-00031999999ADDAA112000591GF106991051081008001071081KA1999M+00641MA1999999090071MD1210331+9999ME1314729REMSYN082AAXX  30184 08213 12565 60404 10028 21003 39007 48472 52033 69942 85878 333 10064;
0225082130999992000123106004+40940-004120FM-12+100599999V0201601N002112200019N0120001N1+00161-00161999999ADDAA199000091GF104991041061008001001001IA1019IA2999-00609KA1120N+00101MA1999999090301MD1610061+9999ME1314909REMSYN088AAXX  31064 08213 32562 41604 10016 21016 39030 48490 56006 84600 333 20010 30106 55016;EQDQ01  00002PRCP99
0170082130999992000123109004+40940-004120FM-12+100599999V0201201N002110360019N0250001N1+00371-00041999999ADDAY161031AY221031GF108991011061008001071999MA1999999090261MD1810041+9999ME1314909MW1021REMSYN072AAXX  31094 08213 41575 81204 10037 21004 39026 48490 58004 70262 8167/;
0197082130999992000123112004+40940-004120FM-12+100599999V0201901N001510360019N0200001N1+00781+00411999999ADDAA106000191AY161061AY261061GF108991011061008001071999MA1999999090221MD1810041+9999ME1314949MW1021REMSYN088AAXX  31124 08213 11570 81903 10078 20041 39022 48494 58004 69921 70266 8167/ 333 50020;
0142082130999992000123115004+40940-004120FM-12+100599999V0209999C000010360019N0250001N1+01021+00661999999ADDGF107991011061008001071999MA1999999089991MD1710231+9999ME1314789REMSYN066AAXX  31154 08213 41575 70000 10102 20066 38999 48478 57023 8167/;
0182082130999992000123118004+40940-004120FM-12+100599999V0202301N002610360019N0250001N1+00941+00381999999ADDAA112000191GF107991011061008001071999KA1999M+01051MA1999999089911MD1710081+9999ME1314699REMSYN082AAXX  31184 08213 12575 72305 10094 20038 38991 48469 57008 69922 8167/ 333 10105;
