0281106400999992000010106004+50120+008730FM-12+011299999V0202001N002110012019N0030001N1+00291+00261102611ADDAA124999999AY121061AY221061GA1051+001209079GF108991081051001501999999GJ100009KA1120M+00301KA2120N+00141MA1999999101401MD1210031+9999MW1101REMSYN112AAXX  01064 10640 41230 82004 10029 20026 30140 40261 52003 71022 885// 333 10030 20014 55000 79999 85704 87615;EQDQ01  99992PRCP24
0193106400999992000010109004+50120+008730FM-12+011299999V0202101N00261001201CN0020001N1+00261+00261102681ADDAY161031AY221031GA1041+001209079GF108991081051001501999999MA1999999101471MD1210071+9999MW1581REMSYN088AAXX  01094 10640 41220 82105 10026 20026 30147 40268 52007 75862 885// 333 84704 87610;
0193106400999992000010112004+50120+008730FM-12+011299999V0202101N00311001201CN0040001N1+00371+00371102611ADDAY161061AY221061GA1041+001209079GF108991081051001501999999MA1999999101411MD1710061+9999MW1201REMSYN088AAXX  01124 10640 41240 82106 10037 20037 30141 40261 57006 72062 885// 333 84704 87616;
0193106400999992000010115004+50120+008730FM-12+011299999V0202301N00261001201CN0050001N1+00441+00441102581ADDAY161031AY221031GA1041+000909079GF108991081061001501999999MA1999999101381MD1710031+9999MW1201REMSYN088AAXX  01154 10640 41250 82305 10044 20044 30138 40258 57003 72062 886// 333 84703 87709;
0231106400999992000010118004+50120+008730FM-12+011299999V0202301N00261001201CN0050001N1+00491+00491102671ADDAY121061AY221061GA1041+000909079GF108991081061001501999999KA1120M+00491KA2120N+00491MA1999999101471MD1210071+9999MW1611REMSYN100AAXX  01184 10640 41250 82305 10049 20049 30147 40267 52007 76122 886// 333 10049 20049 84703 87709;
0244106400999992000010206004+50120+008730FM-12+011299999V0202401N000512200019N0030001N1+00181+00051103161ADDAA124000591AY111061AY211061GA1001+999999999GF100991001001999999001001GJ100009KA1120M+00491KA2120N+00171MA1999999101941MD1410001+9999MW1101REMSYN094AAXX  02064 10640 41930 02401 10018 20005 30194 40316 54000 71011 333 10049 20017 55000 70005;
0181106400999992000010209004+50120+008730FM-12+011299999V0201901N000510001519N0005001N1+00241+00241103301ADDAY141031AY211031GA1091+000159999GF109991091999999999999999MA1999999102081MD1210131+9999MW1451REMSYN076AAXX  02094 10640 41905 91901 10024 20024 30208 40330 52013 74541 333 89/00;
0187106400999992000010212004+50120+008730FM-12+011299999V0202101N001019999999N0035001N1+00391+00391103291ADDAY121061AY221061GA1041+000909079GF108991999999001501999999MA1999999102081MD1410001+9999MW1281REMSYN082AAXX  02124 10640 41235 82102 10039 20039 30208 40329 54000 72822 333 84703 87709;
0193106400999992000010215004+50120+008730FM-12+011299999V0202001N001010012019N0040001N1+00401+00401103191ADDAY121031AY221031GA1031+000609079GF107991071071001501999999MA1999999101981MD1710071+9999MW1101REMSYN088AAXX  02154 10640 41240 72002 10040 20040 30198 40319 57007 71022 877// 333 83702 86704;
0225106400999992000010218004+50120+008730FM-12+011299999V0202101N000510006019N0009001N1+00271+00271103241ADDAY121061AY221061GA1081+000609069GF108991081061000751999999KA1120M+00421KA2120N+00111MA1999999102021MD1310061+9999MW1461REMSYN094AAXX  02184 10640 41109 82101 10027 20027 30202 40324 53006 74622 886// 333 10042 20011 88702;
0256106400999992000010306004+50120+008730FM-12+011299999V0202401N001510060019N0010001N1+00161+00161103121ADDAA124000091AY141061AY221061GA1081+006009059GF108991081051004501001001GJ100069KA1120M+00291KA2120N+00141MA1999999101901MD1710011+9999MW1411REMSYN106AAXX  03064 10640 41410 82403 10016 20016 30190 40312 57001 74142 88500 333 10029 20014 55001 70000 88620;
0193106400999992000010309004+50120+008730FM-12+011299999V0202201N00311000601CN0060001N1+00211+00211103121ADDAY121031AY221031GA1041+000909079GF108991081061000751999999MA1999999101901MD1410001+9999MW1101REMSYN088AAXX  03094 10640 41156 82206 10021 20021 30190 40312 54000 71022 886// 333 84703 87706;
0193106400999992000010312004+50120+008730FM-12+011299999V0202201N00361000601CN0070001N1+00351+00291103021ADDAY121061AY221061GA1021+000909079GF108991081051000751999999MA1999999101811MD1710091+9999MW1101REMSYN088AAXX  03124 10640 41157 82207 10035 20029 30181 40302 57009 71022 885// 333 82703 87615;
0165106400999992000010315004+50120+008730FM-12+011299999V0202101N00411004201CN0150001N1+00431+00311102831ADDGA1041+003609069GF108991081051004501999999MA1999999101631MD1710181+9999REMSYN082AAXX  03154 10640 42465 82108 10043 20031 30163 40283 57018 885// 333 84612 87640;
0203106400999992000010318004+50120+008730FM-12+011299999V0202001N00361002101CN0150001N1+00441+00261102771ADDGA1031+003009069GF108991081051002501999999KA1120M+00441KA2120N+00261MA1999999101571MD1710111+9999REMSYN094AAXX  03184 10640 42365 82007 10044 20026 30157 40277 57011 885// 333 10044 20026 83610 87615;
0247106400999992000010406004+50120+008730FM-12+011299999V0201801N002110099019N0120001N1+00531+00231102311ADDAA124999999GA1081+009909059GF108991081051008001999999GJ100009KA1120M+00531KA2120N+00441MA1999999101121MD1710091+9999REMSYN100AAXX  04064 10640 42562 81804 10053 20023 30112 40231 57009 885// 333 10053 20044 55000 79999 88633;EQDQ01  99992PRCP24
0165106400999992000010409004+50120+008730FM-12+011299999V0202001N00261001201CN0120001N1+00511+00361102281ADDGA1011+001209079GF108991081051001501999999MA1999999101091MD1710011+9999REMSYN082AAXX  04094 10640 42262 82005 10051 20036 30109 40228 57001 885// 333 81704 88630;
0192106400999992000010412004+50120+008730FM-12+011299999V0202001N00411002101CN0120001N1+00591+00371102141ADDAY161061AY221061GA1031+003009069GF108991081051002501999999MA1999999100951MD1710141+9999MW1211REMSYN087AAXX  04124 10640 41362 82008 10059 2003730095 40214 57014 72162 885// 333 83610 87620;
0187106400999992000010415004+50120+008730FM-12+011299999V0201901N003110060019N0060001N1+00651+00551101931ADDAY161031AY221031GA1071+006009059GF108991081051008001999999MA1999999100751MD1710201+9999MW1611REMSYN082AAXX  04154 10640 41556 81906 10065 20055 30075 40193 57020 76162 885// 333 87620;
0225106400999992000010418004+50120+008730FM-12+011299999V0202101N005110069019N0070001N1+00701+00591101861ADDAY161061AY221061GA1071+006909059GF108991081051008001999999KA1120M+00701KA2120N+00491MA1999999100681MD1610071+9999MW1601REMSYN094AAXX  04184 10640 41557 82110 10070 20059 30068 40186 56007 76062 885// 333 10070 20049 87623;
0256106400999992000010506004+50120+008730FM-12+011299999V0202401N002112200019N0230001N1+00661+00351102331ADDAA124001891AY181061AY211061GA1011+006009029GF102991011011008001031001GJ100009KA1120M+00851KA2120N+00661MA1999999101141MD1210231+9999MW1011REMSYN106AAXX  05064 10640 41573 22404 10066 20035 30114 40233 52023 70181 81130 333 10085 20066 55000 70018 81820;
0165106400999992000010509004+50120+008730FM-12+011299999V0202201N001012200019N0250001N1+00551+00311102531ADDGA1011+007509089GF103991011011008001001011MA1999999101341MD1210201+9999REMSYN082AAXX  05094 10640 42575 32202 10055 20031 30134 40253 52020 81101 333 81825 83075;
0187106400999992000010515004+50120+008730FM-12+011299999V0202001N00211030001CN0350001N1+00811+00141102481ADDGA1011+009009089GA2031+030009039GF106991011021008001031011MA1999999101301MD1710051+9999REMSYN088AAXX  05154 10640 42581 62004 10081 20014 30130 40248 57005 81231 333 81830 83360 86079;
0203106400999992000010518004+50120+008730FM-12+011299999V0201201N00151220001CN0250001N1+00531+00171102421ADDGA1021+015009069GF105991021051017501001011KA1120M+00851KA2120N+00531MA1999999101231MD1710071+9999REMSYN094AAXX  05184 10640 42775 51203 10053 20017 30123 40242 57007 82501 333 10085 20053 82650 85078;
0228106400999992000010606004+50120+008730FM-12+011299999V0200101N000510036019N0080001N1+00101+00071102251ADDAA124000091GA1071+003609059GF107991071051004501999999GJ104389KA1120M+00531KA2120N+00001MA1999999101041MD1710081+9999REMSYN100AAXX  06064 10640 42458 70101 10010 20007 30104 40225 57008 875// 333 10053 20000 55073 70000 87612;
0193106400999992000010609004+50120+008730FM-12+011299999V0201301N00151000601CN0020001N1+00131+00101102371ADDAY141031AY221031GA1031+000909079GF108991081051000751999999MA1999999101161MD1210121+9999MW1281REMSYN088AAXX  06094 10640 42120 81303 10013 20010 30116 40237 52012 72842 885// 333 83703 87610;
0193106400999992000010612004+50120+008730FM-12+011299999V0201501N001010006019N0011001N1+00281+00271102361ADDAY141061AY221061GA1051+000609079GF108991081061000751999999MA1999999101161MD1410001+9999MW1101REMSYN088AAXX  06124 10640 41111 81502 10028 20027 30116 40236 54000 71042 886// 333 85702 87703;
0193106400999992000010615004+50120+008730FM-12+011299999V0202001N00211000601CN0025001N1+00411+00381102391ADDAY121031AY221031GA1041+000609079GF108991081061000751999999MA1999999101091MD1710141+9999MW1101REMSYN088AAXX  06154 10640 41125 82004 10041 20038 30109 40239 57014 71022 886// 333 84702 88703;
0193106400999992000010709004+50120+008730FM-12+011299999V0202201N00151002101CN0020001N1+00601+00571102731ADDAY111031AY211031GA1021+003009079GF106991061051002501031001MA1999999101541MD1210171+9999MW1101REMSYN088AAXX  07094 10640 41320 62203 10060 20057 30154 40273 52017 71011 86530 333 82710 86630;
0165106400999992000010712004+50120+008730FM-12+011299999V0202401N00151009001CN0100001N1+00761+00541102671ADDGA1011+004509089GF106991061081004501031001MA1999999101481MD1710061+9999REMSYN082AAXX  07124 10640 42460 62403 10076 20054 30148 40267 57006 86830 333 81815 86640;
0165106400999992000010715004+50120+008730FM-12+011299999V0202201N001510090019N0100001N1+00801+00451102551ADDGA1011+003609089GF106991061081004501031001MA1999999101371MD1710091+9999REMSYN082AAXX  07154 10640 42460 62203 10080 20045 30137 40255 57009 86830 333 81812 85630;
0216106400999992000010718004+50120+008730FM-12+011299999V0201801N002112200019N0100001N1+00691+00471102501ADDGA1031+015009059GF103991031051004501999001KA1120M+00841KA2120N+00541MA1999999101311MD1710061+9999REMSYN088AAXX  07184 10640 42460 31804 10069 20047 30131 40250 57006 83500 333 10084 20054 83650;EQDQ01    003SCOMCG
0282106400999992000010806004+50120+008730FM-12+011299999V0202101N003110090019N0200001N1+00591+00131102331ADDAA106000091AA224000091GA1071+009009059GF107991071051008001999999GJ101089IA1099IA2999+00509KA1120M+00721KA2120N+00581MA1999999101141MD1710011+9999REMSYN106AAXX  08064 10640 32570 72106 10059 20013 30114 40233 57001 875// 333 10072 20058 31005 55018 70000 87630;EQDQ01  00002PRCP06
0159106400999992000010809004+50120+008730FM-12+011299999V0202101N002110099019N0200001N1+00591+00141102421ADDGA1071+009909059GF107991071051008001999999MA1999999101231MD1210091+9999REMSYN076AAXX  08094 10640 42570 72104 10059 20014 30123 40242 52009 875// 333 87633;
0165106400999992000010812004+50120+008730FM-12+011299999V0202101N00311007501CN0200001N1+00661+00291102331ADDGA1011+006309069GF107991071051008001999999MA1999999101141MD1710081+9999REMSYN082AAXX  08124 10640 42570 72106 10066 20029 30114 40233 57008 875// 333 81621 86536;
0165106400999992000010815004+50120+008730FM-12+011299999V0202001N00211007501CN0150001N1+00701+00361102321ADDGA1031+007509069GF107991071051008001999999MA1999999101131MD1710011+9999REMSYN082AAXX  08154 10640 42565 72004 10070 20036 30113 40232 57001 875// 333 83625 87640;
0197106400999992000010818004+50120+008730FM-12+011299999V0202101N001510075019N0150001N1+00661+00441102351ADDGA1071+007509059GF107991071051008001999999KA1120M+00711KA2120N+00571MA1999999101161MD1310071+9999REMSYN088AAXX  08184 10640 42565 72103 10066 20044 30116 40235 53007 875// 333 10071 20057 87625;
0193106400999992000010909004+50120+008730FM-12+011299999V0203501N00261001201CN0020001N1+00601+00581102431ADDAY151031AY251031GA1031+000909079GF108991081051001501999999MA1999999101241MD1710151+9999MW1511REMSYN088AAXX  09094 10640 41220 83505 10060 20058 30124 40243 57015 75155 885// 333 83703 88615;
0193106400999992000010912004+50120+008730FM-12+011299999V0203401N00211009001CN0180001N1+00601+00571102481ADDAY161061AY251061GA1011+003609089GF108991071081004501999999MA1999999101291MD1210061+9999MW1601REMSYN088AAXX  09124 10640 41468 83404 10060 20057 30129 40248 52006 76065 878// 333 81812 87633;
0159106400999992000010915004+50120+008730FM-12+011299999V0200101N002110138019N0250001N1+00671+00521102541ADDGA1071+013809059GF107991071051012501999999MA1999999101351MD1110061+9999REMSYN076AAXX  09154 10640 42675 70104 10067 20052 30135 40254 51006 875// 333 87646;
0225106400999992000010918004+50120+008730FM-12+011299999V0203601N002610150019N0250001N1+00651+00431102751ADDAY161061AY221061GA1071+015009059GF107991071051017501999999KA1120M+00681KA2120N+00561MA1999999101561MD1010211+9999MW1211REMSYN094AAXX  09184 10640 41775 73605 10065 20043 30156 40275 50021 72162 875// 333 10068 20056 87650;
0262106400999992000011006004+50120+008730FM-12+011299999V0203501N00261030001CN0140001N1+00361+00081103421ADDAA124003791AY161061AY221061GA1041+010509069GF108991041051012501071999GJ100009KA1120M+00651KA2120N+00351MA1999999102211MD1210111+9999MW1211REMSYN112AAXX  10064 10640 41664 83505 10036 20008 30221 40342 52011 72162 8457/ 333 10065 20035 55000 70037 84635 88361;
0187106400999992000011009004+50120+008730FM-12+011299999V0203601N002610099019N0200001N1+00341+00091103601ADDAY161031AY221031GA1071+009909059GF107991071051012501999999MA1999999102381MD1210171+9999MW1011REMSYN082AAXX  10094 10640 41670 73605 10034 20009 30238 40360 52017 70162 875// 333 87633;
0187106400999992000011012004+50120+008730FM-12+011299999V0203601N003110120019N0180001N1+00381+00091103701ADDAY161061AY221061GA1071+012009059GF107991071051012501999999MA1999999102481MD1110101+9999MW1031REMSYN082AAXX  10124 10640 41668 73606 10038 20009 30248 40370 51010 70362 875// 333 87640;
0178106400999992000011015004+50120+008730FM-12+011299999V0203601N001510180019N0150001N1+00431+00121103701ADDGA1061+018009059GF106991061051017501999011MA1999999102491MD1410001+9999REMSYN076AAXX  10154 10640 42765 63603 10043 20012 30249 40370 54000 86501 333 86656;EQDQ01+000002SCOMCG
0216106400999992000011018004+50120+008730FM-12+011299999V0203601N002612200019N0180001N1+00281-00011103821ADDGA1041+018009059GF104991041051017501999001KA1120M+00471KA2120N+00291MA1999999102601MD1210121+9999REMSYN088AAXX  10184 10640 42768 43605 10028 21001 30260 40382 52012 84500 333 10047 20029 84656;EQDQ01+000002SCOMCG
0262106400999992000011106004+50120+008730FM-12+011299999V0200501N00051004201CN0035001N1+00191-00051103951ADDAA124999929AY121061AY221061GA1041+003909079GF108991081061004501999999GJ100069KA1120M+00291KA2120N+00191MA1999999102721MD1110021+9999MW1101REMSYN112AAXX  11064 10640 41435 80501 10019 21005 30272 40395 51002 71022 886// 333 10029 20019 55001 79999 84713 88719;
0165106400999992000011112004+50120+008730FM-12+011299999V0200501N000510030019N0100001N1+00271+00031104051ADDGA1051+003009079GF108991081051004501999999MA1999999102821MD1810021+9999REMSYN082AAXX  11124 10640 42460 80501 10027 20003 30282 40405 58002 885// 333 85710 88626;
0165106400999992000011115004+50120+008730FM-12+011299999V0201101N00101004201CN0100001N1+00341+00111103981ADDGA1041+003009079GF108991081051004501999999MA1999999102761MD1710021+9999REMSYN082AAXX  11154 10640 42460 81102 10034 20011 30276 40398 57002 885// 333 84710 88626;
0197106400999992000011118004+50120+008730FM-12+011299999V0202601N000510051019N0100001N1+00371+00111103991ADDGA1081+005109059GF108991081051004501999999KA1120M+00371KA2120N+00181MA1999999102771MD1510031+9999REMSYN088AAXX  11184 10640 42460 82601 10037 20011 30277 40399 55003 885// 333 10037 20018 88617;
0228106400999992000011206004+50120+008730FM-12+011299999V0201601N001510039019N0100001N1+00181-00041103621ADDAA124000091GA1081+003909069GF108991081061004501999999GJ100009KA1120M+00381KA2120N+00181MA1999999102401MD1810081+9999REMSYN100AAXX  12064 10640 42460 81603 10018 21004 30240 40362 58008 886// 333 10038 20018 55000 70000 88713;
0159106400999992000011209004+50120+008730FM-12+011299999V0201501N002110039019N0100001N1+00131-00101103641ADDGA1081+003909069GF108991081061004501999999MA1999999102411MD1210011+9999REMSYN076AAXX  12094 10640 42460 81504 10013 21010 30241 40364 52001 886// 333 88713;
0159106400999992000011212004+50120+008730FM-12+011299999V0201501N001510039019N0090001N1+00141-00081103461ADDGA1081+003909069GF108991081061004501999999MA1999999102241MD1810171+9999REMSYN076AAXX  12124 10640 42459 81503 10014 21008 30224 40346 58017 886// 333 88713;
0159106400999992000011215004+50120+008730FM-12+011299999V0201601N001510030019N0080001N1+00131-00111103291ADDGA1081+003009069GF108991081061002501999999MA1999999102071MD1710171+9999REMSYN076AAXX  12154 10640 42358 81603 10013 21011 30207 40329 57017 886// 333 88710;
0197106400999992000011218004+50120+008730FM-12+011299999V0201401N001510045019N0080001N1+00101-00151103211ADDGA1081+004509059GF108991081061004501999999KA1120M+00181KA2120N+00091MA1999999101991MD1710081+9999REMSYN088AAXX  12184 10640 42458 81403 10010 21015 30199 40321 57008 886// 333 10018 20009 88615;
0207106400999992000011306004+50120+008730FM-12+011299999V0201401N001010042019N0120001N1-00051-00341102561ADDAA124000091GA1081+004209069GF108991081061004501999999GJ100009KA1120M+00111KA2120N-00071MD1610121+9999REMSYN094AAXX  13064 10640 42462 81402 11005 21034 40256 56012 886// 333 10011 21007 55000 70000 88714;
0159106400999992000011309004+50120+008730FM-12+011299999V0201401N001510039019N0100001N1+00011-00301102511ADDGA1081+003909069GF108991081061004501999999MA1999999101291MD1610051+9999REMSYN076AAXX  13094 10640 42460 81403 10001 21030 30129 40251 56005 886// 333 88713;
0159106400999992000011312004+50120+008730FM-12+011299999V0201101N002110048019N0120001N1+00081-00301102281ADDGA1071+004809059GF108991071051004501999999MA1999999101071MD1810221+9999REMSYN076AAXX  13124 10640 42462 81104 10008 21030 30107 40228 58022 875// 333 87616;
0159106400999992000011315004+50120+008730FM-12+011299999V0201401N002110075019N0120001N1+00201-00211102091ADDGA1051+007509059GF105991051051008001001001MA1999999100881MD1710181+9999REMSYN076AAXX  13154 10640 42562 51404 10020 21021 30088 40209 57018 85500 333 85625;
0197106400999992000011318004+50120+008730FM-12+011299999V0201401N002610090019N0120001N1+00101-00171102081ADDGA1061+009009059GF106991061051008001001001KA1120M+00221KA2120N-00061MA1999999100871MD1710081+9999REMSYN088AAXX  13184 10640 42562 61405 10010 21017 30087 40208 57008 86500 333 10022 21006 86630;
0238106400999992000011406004+50120+008730FM-12+011299999V0201301N00051007501CN0080001N1+00091-00081102221ADDAA124000091GA1031+007209069GF108991081051008001999999GJ100489KA1120M+00101KA2120N-00031MA1999999101001MD1110081+9999REMSYN110    AAXX  14064 10640 42558 81301 10009 21008 30100 40222 51008 885// 333 10010 21003 55008 70000 83624 87630;
0163106400999992000011409004+50120+008730FM-12+011299999V0201401N001010060019N0080001N1+00131-00061102341ADDGA1071+006009059GF107991071051008001999999MA1999999101131MD1110131+9999REMSYN080    AAXX  14094 10640 42558 71402 10013 21006 30113 40234 51013 875// 333 87620;
0191106400999992000011412004+50120+008730FM-12+011299999V0201401N001010060019N0070001N1+00251-00031102411ADDAY121061AY221061GA1071+006009059GF108991071051008001999999MA1999999101201MD1110071+9999MW1101REMSYN086    AAXX  14124 10640 41557 81402 10025 21003 30120 40241 51007 71022 875// 333 87620;
0163106400999992000011415004+50120+008730FM-12+011299999V0201201N001510180019N0080001N1+00301-00041102451ADDGA1071+018009059GF107991071051022501999999MA1999999101251MD1110051+9999REMSYN080    AAXX  14154 10640 42858 71203 10030 21004 30125 40245 51005 875// 333 87656;
0201106400999992000011418004+50120+008730FM-12+011299999V0200901N001010180019N0080001N1+00241-00031102631ADDGA1071+018009059GF107991071051022501999999KA1120M+00321KA2120N+00091MA1999999101421MD1210171+9999REMSYN092    AAXX  14184 10640 42858 70902 10024 21003 30142 40263 52017 875// 333 10032 20009 87656;
0251106400999992000011506004+50120+008730FM-12+011299999V0201301N000510180019N0070001N1-00121-00231103171ADDAA124000091GA1051+018009059GF105991051051017501999001GJ100009KA1120M+00241KA2120N-00121MA1999999101941MD1210111+9999REMSYN104    AAXX  15064 10640 42757 51301 11012 21023 30194 40317 52011 85500 333 10024 21012 55000 70000 85656;EQDQ01+000002SCOMCG
0191106400999992000011509004+50120+008730FM-12+011299999V0209999C000010180019N0070001N1-00011-00171103341ADDAY121031AY221031GA1071+018009059GF107991071051017501999999MA1999999102111MD1210171+9999MW1101REMSYN086    AAXX  15094 10640 42757 70000 11001 21017 30211 40334 52017 71022 875// 333 87656;
0191106400999992000011512004+50120+008730FM-12+011299999V0203601N000510180019N0060001N1+00231-00021103391ADDAY121061AY221061GA1071+018009059GF108991071051017501999999MA1999999102171MD1010061+9999MW1101REMSYN086    AAXX  15124 10640 41756 83601 10023 21002 30217 40339 50006 71022 875// 333 87656;
0197106400999992000011515004+50120+008730FM-12+011299999V0200201N00101007501CN0060001N1+00351+00081103391ADDAY121031AY221031GA1031+005409069GF108991071051008001999999MA1999999102181MD1010011+9999MW1101REMSYN092    AAXX  15154 10640 41556 80202 10035 20008 30218 40339 50001 71022 875// 333 83618 87650;
0232106400999992000011606004+50120+008730FM-12+011299999V0203301N001010099019N0140001N1+00091-00421103701ADDAA124000091GA1071+009909059GF108991071051012501999999GJ100009KA1120M+00331KA2120N+00081MA1999999102471MD1610041+9999REMSYN104    AAXX  16064 10640 42664 83302 10009 21042 30247 40370 56004 875// 333 10033 20008 55000 70000 87633;
0169106400999992000011609004+50120+008730FM-12+011299999V0202101N00051030001CN0300001N1+00111-00311103761ADDGA1021+009909069GF105991021051012501031001MA1999999102531MD1110061+9999REMSYN086    AAXX  16094 10640 42680 52101 10011 21031 30253 40376 51006 82530 333 82633 85359;
0169106400999992000011612004+50120+008730FM-12+011299999V0202301N000510300019N0250001N1+00341-00371103711ADDGA1021+010809069GF107991021051012501031001MA1999999102491MD1710061+9999REMSYN086    AAXX  16124 10640 42675 72301 10034 21037 30249 40371 57006 82530 333 82636 86360;
0169106400999992000011615004+50120+008730FM-12+011299999V0202201N002110060019N0200001N1+00341-00201103581ADDGA1051+006009069GF107991051051004501071999MA1999999102361MD1710141+9999REMSYN086    AAXX  16154 10640 42470 72204 10034 21020 30236 40358 57014 8557/ 333 85620 86360;
0207106400999992000011618004+50120+008730FM-12+011299999V0202301N00151030001CN0200001N1+00311-00011103561ADDGA1041+009009069GF107991041051008001071999KA1120M+00411KA2120N-00031MA1999999102341MD1410001+9999REMSYN098    AAXX  16184 10640 42570 72303 10031 21001 30234 40356 54000 8457/ 333 10041 21003 84630 87359;
0214106400999992000011812004+50120+008730FM-12+011299999V0203201N004610060019N0150001N1+00831+00391101981ADDAY151061AY221061GA1071+006009069GF107991071051008001999999MA1999999100801MD1710061+9999MW1201OA149900981REMSYN098    AAXX  18124 10640 41565 73209 10083 20039 30080 40198 57006 72052 875// 333 87620 91119 91212;
0219106400999992000011815004+50120+008730FM-12+011299999V0203201N004110099019N0200001N1+00811+00171102081ADDAY161031AY221031GA1021+006009089GA2061+009909069GF106991061081008001001021MA1999999100901MD1210101+9999MW1021REMSYN098    AAXX  18154 10640 41570 63208 10081 20017 30090 40208 52010 70262 86802 333 82820 86633 91118;
0257106400999992000011818004+50120+008730FM-12+011299999V0203201N004110150019N0200001N1+00611-00111102321ADDAY161061AY221061GA1021+006909089GA2061+015009069GF106991061081008001001001KA1120M+00891KA2120N+00621MA1999999101131MD1210261+9999MW1021REMSYN110    AAXX  18184 10640 41570 63208 10061 21011 30113 40232 52026 70262 86800 333 10089 20062 82823 86650 91117;
0232106400999992000011906004+50120+008730FM-12+011299999V0202301N001510105019N0180001N1+00201-00331102861ADDAA124001291GA1051+010509059GF105991051051012501001001GJ100429KA1120M+00611KA2120N+00191MA1999999101651MD1310121+9999REMSYN104    AAXX  19064 10640 42668 52303 10020 21033 30165 40286 53012 85500 333 10061 20019 55007 70012 85635;
0163106400999992000011909004+50120+008730FM-12+011299999V0202801N001510120019N0250001N1+00401-00171102961ADDGA1051+012009059GF105991051051012501001001MA1999999101751MD1210101+9999REMSYN080    AAXX  19094 10640 42675 52803 10040 21017 30175 40296 52010 85500 333 85640;
0163106400999992000011912004+50120+008730FM-12+011299999V0203101N002112200019N0250001N1+00521-00331103011ADDGA1041+009909029GF104991041011012501001001MA1999999101811MD1010061+9999REMSYN080    AAXX  19124 10640 42675 43104 10052 21033 30181 40301 50006 84100 333 84833;
0169106400999992000011915004+50120+008730FM-12+011299999V0203401N003110120019N0250001N1+00551-00331103051ADDGA1031+009009089GF107991071081008001999999MA1999999101851MD1210041+9999REMSYN086    AAXX  19154 10640 42575 73406 10055 21033 30185 40305 52004 878// 333 83830 87640;
0197106400999992000011918004+50120+008730FM-12+011299999V0203101N002610120019N0250001N1+00461-00281103191ADDGA1071+012009059GF107991071051012501999999KA1120M+00561KA2120N+00201MA1999999101981MD1210131+9999REMSYN088AAXX  19184 10640 42675 73105 10046 21028 30198 40319 52013 875// 333 10056 20020 87640;
0247106400999992000012006004+50120+008730FM-12+011299999V0202201N001510750019N0180001N1+00111-00121103241ADDAA124999999GA1051+075009019GF105991001001999999001011GJ102769KA1120M+00471KA2120N+00051MA1999999102021MD1610061+9999REMSYN100AAXX  20064 10640 42968 52203 10011 21012 30202 40324 56006 80001 333 10047 20005 55046 79999 85075;EQDQ01  99992PRCP24
0159106400999992000012009004+50120+008730FM-12+011299999V0202201N002110300019N0180001N1+00221-00091103251ADDGA1041+012009059GF106991041051012501031021MA1999999102031MD1010011+9999REMSYN076AAXX  20094 10640 42668 62204 10022 21009 30203 40325 50001 84532 333 84640;
0187106400999992000012012004+50120+008730FM-12+011299999V0202201N002610120019N0180001N1+00451+00091103111ADDGA1011+007809089GA2051+012009069GF107991051081008001031011MA1999999101901MD1810131+9999REMSYN088AAXX  20124 10640 42568 72205 10045 20009 30190 40311 58013 85831 333 81826 85640 87360;
0215106400999992000012015004+50120+008730FM-12+011299999V0202201N003619999999N0200001N1+00281+00081102931ADDAY161031AY221031GA1011+003609079GA2031+005709069GF108991071999004501999999MA1999999101721MD1710151+9999MW1601REMSYN094AAXX  20154 10640 41470 82207 10028 20008 30172 40293 57015 76062 87/// 333 81712 83619 87625;
0231106400999992000012018004+50120+008730FM-12+011299999V0202401N00311012001CN0200001N1+00431+00001102781ADDAY161061AY221061GA1031+012009069GF108991071051012501999999KA1120M+00471KA2120N+00091MA1999999101581MD1710151+9999MW1021REMSYN100AAXX  20184 10640 41670 82406 10043 20000 30158 40278 57015 70262 875// 333 10047 20009 83640 87650;
0276106400999992000012106004+50120+008730FM-12+011299999V0202401N003610060019N0100001N1+00401+00171102331ADDAA124000491AY161061GA1031+003909079GA2051+006009069GF108991051051004501071999GJ100549KA1120M+00441KA2120N+00361MA1999999101131MD1710081+9999MW1581REMSYN118AAXX  21064 10640 41460 82407 10040 20017 30113 40233 57008 7586/ 8557/ 333 10044 20036 55009 70004 83713 85620 87360;
0193106400999992000012109004+50120+008730FM-12+011299999V0202701N00361004201CN0160001N1+00571+00131102271ADDAY161031AY221031GA1021+004509069GF107991071051004501999999MA1999999101081MD1610051+9999MW1021REMSYN088AAXX  21094 10640 41466 72707 10057 20013 30108 40227 56005 70262 875// 333 82615 87620;
0237106400999992000012112004+50120+008730FM-12+011299999V0202801N004110060019N0150001N1+00611+00261102301ADDAY161061AY221061GA1021+003009069GA2031+006009069GA3071+009009069GF107991071051004501999999MA1999999101111MD1010031+9999MW1211REMSYN100AAXX  21124 10640 41465 72808 10061 20026 30111 40230 50003 72162 875// 333 82610 83620 87630 91115;
0215106400999992000012115004+50120+008730FM-12+011299999V0203501N002110090019N0250001N1+00561+00081102431ADDAY181031AY261031GA1031+004509089GA2071+009009069GF107991071081004501999999MA1999999101241MD1210131+9999MW1251REMSYN094AAXX  21154 10640 41475 73504 10056 20008 30124 40243 52013 72586 878// 333 83815 87630 91114;
0253106400999992000012118004+50120+008730FM-12+011299999V0203001N002610138019N0150001N1+00471-00121102561ADDAY181061AY261061GA1011+004509089GA2071+013809069GF107991071081004501999999KA1120M+00621KA2120N+00361MA1999999101361MD1210121+9999MW1021REMSYN106AAXX  21184 10640 41465 73005 10047 21012 30136 40256 52012 70286 878// 333 10062 20036 81815 87646 91114;
0193106400999992000012209004+50120+008730FM-12+011299999V0202001N00311004201CN0070001N1+00171+00011101331ADDAY161031AY221031GA1031+003009079GF108991081051004501999999MA1999999100131MD1710351+9999MW1681REMSYN088AAXX  22094 10640 41457 82006 10017 20001 30013 40133 57035 76862 885// 333 83710 87626;
0193106400999992000012212004+50120+008730FM-12+011299999V0202201N00411002101CN0150001N1+00371+00081100861ADDAY171061AY261061GA1031+003009079GF108991081051002501999999MA1999999099681MD1710391+9999MW1601REMSYN088AAXX  22124 10640 41365 82208 10037 20008 39968 40086 57039 76076 885// 333 83710 87627;
0251106400999992000012218004+50120+008730FM-12+011299999V0202401N003110042019N0200001N1+00431+00101100851ADDAJ199999999999999AY121061AY261061GF108991081051004501999999IA1239KA1120M+00451KA2120N+00171MA1999999099671MD1210051+9999MW1021REMSYN094AAXX  22184 10640 41470 82406 10043 20010 39967 40085 52005 70226 885// 333 10045 20017 47620;EQDQ01  06202SNDP  
0234106400999992000012306004+50120+008730FM-12+011299999V0200601N00051004201CN0200001N1+00361+00021101261ADDAA124002391GA1021+005109069GF108991071051004501999999GJ100069KA1120M+00441KA2120N+00361MA1999999100071MD1110091+9999REMSYN106AAXX  23064 10640 42470 80601 10036 20002 30007 40126 51009 875// 333 10044 20036 55001 70023 82617 87627;
0215106400999992000012315004+50120+008730FM-12+011299999V0200201N00311009001CN0060001N1+00111-00331101741ADDAY171031AY261031GA1011+003609089GA2031+006309059GF107991071081004501999999MA1999999100571MD1210221+9999MW1221REMSYN094AAXX  23154 10640 41456 70206 10011 21033 30057 40174 52022 72276 878// 333 81812 83521 87636;
0231106400999992000012318004+50120+008730FM-12+011299999V0200201N003610300019N0060001N1-00151-00691102041ADDAY171061AY261061GA1021+006309069GF106991041051012501031011KA1120M+00371KA2120N-00151MA1999999100821MD1210361+9999MW1101REMSYN100AAXX  23184 10640 41656 60207 11015 21069 30082 40204 52036 71076 84531 333 10037 21015 82621 83660;
0216106400999992000012406004+50120+008730FM-12+011299999V0200401N002112200019N0300001N1-00631-01021102581ADDAA124001891GA1001+999999999GF100991001001999999001001GJ100009KA1120M-00141KA2120N-00651MA1999999101331MD1210081+9999REMSYN088AAXX  24064 10640 42980 00404 11063 21102 30133 40258 52008 333 11014 21065 55000 70017;
0143106400999992000012409004+50120+008730FM-12+011299999V0200301N001512200019N0300001N1-00491-01011102731ADDGA1001+999999999GF100991001001999999001001MA1999999101481MD1110151+9999REMSYN060AAXX  24094 10640 42980 00303 11049 21101 30148 40273 51015;
0143106400999992000012412004+50120+008730FM-12+011299999V0203601N001012200019N0300001N1-00251-01071102731ADDGA1001+999999999GF100991001001999999001001MA1999999101501MD1010021+9999REMSYN060AAXX  24124 10640 42980 03602 11025 21107 30150 40273 50002;
0159106400999992000012415004+50120+008730FM-12+011299999V0200101N001512200019N0350001N1-00121-01161102681ADDGA1011+087009019GF101991001001999999001011MA1999999101451MD1710051+9999REMSYN076AAXX  24154 10640 42981 10103 11012 21116 30145 40268 57005 80001 333 81079;
0197106400999992000012418004+50120+008730FM-12+011299999V0203501N000512200019N0300001N1-00271-01141102761ADDGA1011+087009019GF101991001001999999001011KA1120M-00061KA2120N-00681MA1999999101531MD1210081+9999REMSYN088AAXX  24184 10640 42980 13501 11027 21114 30153 40276 52008 80001 333 11006 21068 81079;
0228106400999992000012506004+50120+008730FM-12+011299999V0200801N000512200019N0180001N1-00791-01001103001ADDAA124000091GA1021+072009019GF102991001001999999001011GJ105049KA1120M-00261KA2120N-00801MA1999999101741MD1110071+9999REMSYN100AAXX  25064 10640 42968 20801 11079 21100 30174 40300 51007 80001 333 11026 21080 55084 70000 82074;
0159106400999992000012509004+50120+008730FM-12+011299999V0200701N001012200019N0200001N1-00611-00961103191ADDGA1011+072009019GF101991001001999999001011MA1999999101931MD1110171+9999REMSYN076AAXX  25094 10640 42970 10702 11061 21096 30193 40319 51017 80001 333 81074;
0143106400999992000012512004+50120+008730FM-12+011299999V0203301N000512200019N0150001N1-00291-00861103251ADDGA1001+999999999GF100991001001999999001001MA1999999102011MD1210041+9999REMSYN060AAXX  25124 10640 42965 03301 11029 21086 30201 40325 52004;
0159106400999992000012515004+50120+008730FM-12+011299999V0201401N000512200019N0200001N1-00111-01121103201ADDGA1011+075009019GF101991001001999999001011MA1999999101971MD1810041+9999REMSYN076AAXX  25154 10640 42970 11401 11011 21112 30197 40320 58004 80001 333 81075;
0197106400999992000012518004+50120+008730FM-12+011299999V0202101N001012200019N0200001N1-00251-01001103321ADDGA1011+075009019GF101991001001999999001011KA1120M-00031KA2120N-00791MA1999999102081MD1210111+9999REMSYN088AAXX  25184 10640 42970 12102 11025 21100 30208 40332 52011 80001 333 11003 21079 81075;
0235106400999992000012606004+50120+008730FM-12+011299999V0202101N001012200019N0080001N1-00931-01141103501ADDAA124000091GA1001+999999999GF100991001001999999001001GJ103849KA1120M-00251KA2120N-00951MA1999999102221MD1210021+9999REMSYN088AAXX  26064 10640 42958 02102 11093 21114 30222 40350 52002 333 11025 21095 55064 70000;EQDQ01  00002PRCP24
0159106400999992000012609004+50120+008730FM-12+011299999V0202101N001012200019N0180001N1-00631-00931103591ADDGA1011+012009059GF103991011051012501001011MA1999999102331MD1210111+9999REMSYN076AAXX  26094 10640 42668 32102 11063 21093 30233 40359 52011 81501 333 81640;
0159106400999992000012612004+50120+008730FM-12+011299999V0202001N001512200019N0180001N1-00261-00941103561ADDGA1011+012009059GF103991011051012501001011MA1999999102321MD1810011+9999REMSYN076AAXX  26124 10640 42668 32003 11026 21094 30232 40356 58001 81501 333 81640;
0159106400999992000012615004+50120+008730FM-12+011299999V0202101N002112200019N0180001N1-00051-00861103491ADDGA1011+027009079GF102991011001999999031011MA1999999102261MD1710061+9999REMSYN076AAXX  26154 10640 42968 22104 11005 21086 30226 40349 57006 81031 333 81359;
0228106400999992000012706004+50120+008730FM-12+011299999V0202201N002612200019N0100001N1-00521-00871103461ADDAA124000091GA1021+009009059GF102991021051008001001001GJ103609KA1120M-00141KA2120N-00521MA1999999102201MD1410001+9999REMSYN100AAXX  27064 10640 42560 22205 11052 21087 30220 40346 54000 82500 333 11014 21052 55060 70000 82630;
0159106400999992000012709004+50120+008730FM-12+011299999V0202201N002110120019N0100001N1-00431-00811103441ADDGA1071+012009059GF108991071051012501999999MA1999999102191MD1710011+9999REMSYN076AAXX  27094 10640 42660 82204 11043 21081 30219 40344 57001 875// 333 87640;
0187106400999992000012712004+50120+008730FM-12+011299999V0202101N002110099019N0060001N1-00231-00681103321ADDAY111061AY211061GA1071+009909059GF107991071051012501999999MA1999999102081MD1810111+9999MW1051REMSYN082AAXX  27124 10640 41656 72104 11023 21068 30208 40332 58011 70511 875// 333 87633;
0159106400999992000012715004+50120+008730FM-12+011299999V0202101N002112200019N0080001N1+00071-00511103091ADDGA1041+012009059GF104991041051012501001001MA1999999101871MD1710261+9999REMSYN076AAXX  27154 10640 42658 42104 10007 21051 30187 40309 57026 84500 333 84640;
0185106400999992000012718004+50120+008730FM-12+011299999V0202201N001512200019N0080001N1-00051-00571102981ADDGA1001+999999999GF100991001001999999001001KA1120M+00101KA2999N-00521MA1999999101751MD1710151+9999REMSYN076AAXX  27184 10640 42958 02203 11005 21057 30175 40298 57015 333 10010 21052;
0263106400999992000012806004+50120+008730FM-12+011299999V0202201N002112200019N0070001N1-00361-00651102571ADDAA124000091AY101061AY201061GA1001+999999999GF100991001001999999001001GJ100729KA1120M-00051KA2120N-00361MA1999999101331MD1810081+9999MW1101REMSYN094AAXX  28064 10640 41957 02204 11036 21065 30133 40257 58008 71000 333 11005 21036 55012 70000;EQDQ01  00002PRCP24
0187106400999992000012809004+50120+008730FM-12+011299999V0202101N003612200019N0070001N1-00271-00611102511ADDAY101031AY201031GA1011+072009019GF101991001001999999001011MA1999999101281MD1610051+9999MW1051REMSYN082AAXX  28094 10640 41957 12107 11027 21061 30128 40251 56005 70500 80001 333 81074;
0193106400999992000012812004+50120+008730FM-12+011299999V0202201N004119999999N0070001N1+00131-00561102261ADDAY111061AY211061GA1011+030009039GF105991011001999999031011MA1999999101051MD1810231+9999MW1051REMSYN088AAXX  28124 10640 41957 52208 10013 21056 30105 40226 58023 70511 81031 333 81360 84074;
0159106400999992000012815004+50120+008730FM-12+011299999V0202201N002610180019N0100001N1+00291-00431102041ADDGA1071+018009059GF108991071051017501999999MA1999999100841MD1710201+9999REMSYN076AAXX  28154 10640 41760 82205 10029 21043 30084 40204 57020 875// 333 87656;
0279106400999992000012906004+50120+008730FM-12+011299999V0202001N006210069019N0120001N1+00561+00171100881ADDAA124000591AY161061AY221061GA1071+006909069GF108991071051008001999999GJ102649KA1120M+00581KA2120N+00361MA1999999099701MD1710371+9999MW1611OA149900931REMSYN118AAXX  29064 10640 41562 82012 10056 20017 39970 40088 57037 76162 875// 333 10058 20036 55044 70005 87623 91118 91212;
0232106400999992000012909004+50120+008730FM-12+011299999V0202101N007210060019N0060001N1+00501+00231100521ADDAY161031AY261031GA1031+003909079GA2081+006009069GF108991081051004501999999MA1999999099351MD1710351+9999MW1631OA149901081REMSYN100AAXX  29094 10640 41456 82114 10050 20023 39935 40052 57035 76366 885// 333 83713 88620 91121 91216;
0210106400999992000012912004+50120+008730FM-12+011299999V0202201N005710051019N0100001N1+00621+00261100421ADDAY161061AY261061GA1081+005109069GF108991081051004501999999MA1999999099251MD1710121+9999MW1211OA149900671REMSYN094AAXX  29124 10640 41460 82211 10062 20026 39925 40042 57012 72166 885// 333 88617 91113 91217;
0232106400999992000012915004+50120+008730FM-12+011299999V0202101N005710042019N0070001N1+00661+00481100291ADDAY161031AY261031GA1061+004209069GA2081+006009069GF108991081051004501999999MA1999999099131MD1710131+9999MW1211OA149900931REMSYN100AAXX  29154 10640 41457 82111 10066 20048 39913 40029 57013 72166 885// 333 86614 88620 91118 91211;
0270106400999992000012918004+50120+008730FM-12+011299999V0202201N006210030019N0080001N1+00871+00641100361ADDAY161061AY221061GA1061+003009069GA2071+006009069GF108991071051002501999999KA1120M+00891KA2120N+00481MA1999999099191MD1410001+9999MW1211OA149900671REMSYN112AAXX  29184 10640 41358 82212 10087 20064 39919 40036 54006 72162 875// 333 10089 20048 86610 87620 91113 91212;
0276106400999992000013006004+50120+008730FM-12+011299999V0202901N003610120019N0250001N1+00871+00391100981ADDAA124013791AY161061GA1021+006309069GA2061+012009069GF106991061051008001999999GJ100009KA1120M+01011KA2120N+00781MA1999999099821MD1210401+9999MW1211REMSYN118AAXX  30064 10640 42575 62907 10087 20039 39982 40098 52040 7216/ 865// 333 10101 20078 55000 70137 82621 86640 91211;
0215106400999992000013009004+50120+008730FM-12+011299999V0202201N002610141019N0250001N1+00821+00381101411ADDAY161031AY221031GA1011+006009089GA2071+014109069GF107991071081008001999999MA1999999100241MD1710421+9999MW1211REMSYN094AAXX  30094 10640 41575 72205 10082 20038 30024 40141 57042 72162 878// 333 81820 87647 91111;
0215106400999992000013012004+50120+008730FM-12+011299999V0202301N00311012001CN0150001N1+00881+00451101631ADDAY121061AY221061GA1011+004509089GA2031+009009069GF107991071081008001999999MA1999999100471MD1210261+9999MW1211REMSYN094AAXX  30124 10640 41565 72306 10088 20045 30047 40163 52026 72122 878// 333 81815 83630 87650;
0215106400999992000013015004+50120+008730FM-12+011299999V0202001N002610060019N0040001N1+00821+00661101711ADDAY161031AY221031GA1031+002709079GA2061+006009069GF108991071051002501071999MA1999999100541MD1210081+9999MW1581REMSYN094AAXX  30154 10640 41340 82005 10082 20066 30054 40171 52008 75862 8757/ 333 83709 86620 88359;
0231106400999992000013018004+50120+008730FM-12+011299999V0202101N004610015019N0080001N1+01001+00821101731ADDAY161061AY221061GA1051+001509079GF108991081051001501999999KA1120M+01011KA2120N+00791MA1999999100551MD1210031+9999MW1611REMSYN100AAXX  30184 10640 41258 82109 10100 20082 30055 40173 52003 76162 885// 333 10101 20079 85705 88615;
0273106400999992000013106004+50120+008730FM-12+011299999V0202301N005110060019N0300001N1+01091+00351101991ADDAA124002291GA1051+006009069GA2071+010509069GF108991081051008001999999GJ100009KA1120M+01131KA2120N+00991MA1999999100831MD1210121+9999OA149900821REMSYN118AAXX  31064 10640 42580 82310 10109 20035 30083 40199 52012 885// 333 10113 20099 55000 70022 85620 87635 91116 91211;
0210106400999992000013109004+50120+008730FM-12+011299999V0202201N006710078019N0150001N1+00981+00471102251ADDAY161031AY221031GA1071+007809069GF107991071051008001999999MA1999999101081MD1210251+9999MW1151OA149900931REMSYN094AAXX  31094 10640 41565 72213 10098 20047 30108 40225 52025 71562 875// 333 87626 91118 91214;
0232106400999992000013112004+50120+008730FM-12+011299999V0202401N006210099019N0250001N1+01161+00531102421ADDAY161061AY221061GA1011+006009069GA2051+009909069GF107991051051008001031011MA1999999101251MD1010171+9999MW1011OA149900981REMSYN100AAXX  31124 10640 41575 72412 10116 20053 30125 40242 50017 70162 85531 333 81620 85633 91119 91214;
0165106400999992000013115004+50120+008730FM-12+011299999V0202301N00461007501CN0200001N1+01121+00571102571ADDGA1031+006309069GF107991071051008001999999MA1999999101401MD1210141+9999REMSYN082AAXX  31154 10640 42570 72309 10112 20057 30140 40257 52014 875// 333 83621 86627;
0225106400999992000013118004+50120+008730FM-12+011299999V0202301N005110072019N0150001N1+01051+00601102691ADDGA1031+005409059GA2061+007209059GF107991071051008001999999KA1120M+01181KA2120N+00941MA1999999101521MD1210191+9999REMSYN100AAXX  31184 10640 42565 72310 10105 20060 30152 40269 52019 875// 333 10118 20094 83518 86524 91113;
0247106400999992000020106004+50120+008730FM-12+011299999V0202001N002610060019N0250001N1+00851+00381102491ADDAA124999999GA1071+006009059GF107991071051008001999999GJ100969KA1120M+01041KA2120N+00841MA1999999101311MD1710101+9999REMSYN100AAXX  01064 10640 42575 72005 10085 20038 30131 40249 57010 875// 333 10104 20084 55016 79999 87620;EQDQ01  99992PRCP24
0159106400999992000020109004+50120+008730FM-12+011299999V0201801N002610078019N0150001N1+00791+00451102461ADDGA1071+007809059GF107991071051008001999999MA1999999101281MD1810031+9999REMSYN076AAXX  01094 10640 42565 71805 10079 20045 30128 40246 58003 875// 333 87626;
0159106400999992000020115004+50120+008730FM-12+011299999V0202001N003110075019N0200001N1+00931+00441102041ADDGA1061+007509059GF106991061051008001001011MA1999999100871MD1710251+9999REMSYN076AAXX  01154 10640 42570 62006 10093 20044 30087 40204 57025 86501 333 86625;
0203106400999992000020118004+50120+008730FM-12+011299999V0202401N00311220001CN0200001N1+00801+00431101961ADDGA1031+007509069GF107991031051008001001011KA1120M+00961KA2120N+00791MA1999999100781MD1710091+9999REMSYN094AAXX  01184 10640 42570 72406 10080 20043 30078 40196 57009 83501 333 10096 20079 83625 86075;
0247106400999992000020206004+50120+008730FM-12+011299999V0202101N002112200019N0200001N1+00691+00421101711ADDAA124999999GA1021+009009059GF102991021051008001001001GJ100609KA1120M+00811KA2120N+00651MA1999999100531MD1710091+9999REMSYN100AAXX  02064 10640 42570 22104 10069 20042 30053 40171 57009 82500 333 10081 20065 55010 79999 82630;EQDQ01  99992PRCP24
0165106400999992000020209004+50120+008730FM-12+011299999V0202201N00311030001CN0100001N1+00691+00281101731ADDGA1011+007809069GF107991011051008001071011MA1999999100551MD1010201+9999REMSYN082AAXX  02094 10640 42560 72206 10069 20028 30055 40173 5002/ 81571 333 81626 87074;
0193106400999992000020212004+50120+008730FM-12+011299999V0202201N00311007501CN0090001N1+00821+00451101761ADDAY111061AY211061GA1011+007809069GF108991081051008001999999MA1999999100591MD1210041+9999MW1611REMSYN088AAXX  02124 10640 41559 82206 10082 20045 30059 40176 52004 76111 885// 333 81626 88640;
0231106400999992000020218004+50120+008730FM-12+011299999V0202901N00211004201CN0080001N1+00861+00361102151ADDAY121061AY221061GA1041+004509069GF107991071051004501999999KA1120M+00861KA2120N+00611MA1999999100971MD1210321+9999MW1211REMSYN100AAXX  02184 10640 41458 72904 10086 20036 30097 40215 52032 72122 875// 333 10086 20061 84615 87624;
0206106400999992000020312004+50120+008730FM-12+011299999V0202301N003110078019N0100001N1+00591+00361103371ADDAY161061AY221061GA1071+007809059GF108991071051012501999999MA1999999102171MD1011702+9999MW1611REMSYN082AAXX  03124 10640 41660 82306 10059 20036 30217 40337 5017/ 76162 875// 333 87626;EQDQ01+001702APC3  
0225106400999992000020318004+50120+008730FM-12+011299999V0202301N002110090019N0150001N1+00581+00351103651ADDAY121061AY261061GA1071+009009059GF107991071051008001999999KA1120M+00631KA2120N+00381MA1999999102441MD1210131+9999MW1221REMSYN094AAXX  03184 10640 41565 72304 10058 20035 30244 40365 52013 72226 875// 333 10063 20038 87630;
0159106400999992000020409004+50120+008730FM-12+011299999V0202101N002110120019N0100001N1+00431+00191103861ADDGA1071+012009059GF107991051999012501999999MA1999999102641MD1310021+9999REMSYN076AAXX  04094 10640 42660 72104 10043 20019 30264 40386 53002 85/// 333 87640;
0165106400999992000020412004+50120+008730FM-12+011299999V0202101N003610120019N0150001N1+00711+00261103731ADDGA1011+007809089GF107991071081008001999999MA1999999102531MD1810111+9999REMSYN082AAXX  04124 10640 42565 72107 10071 20026 30253 40373 58011 878// 333 81826 87640;
0165106400999992000020415004+50120+008730FM-12+011299999V0202201N00311007501CN0200001N1+00841+00291103511ADDGA1021+009009069GF108991071051008001031999MA1999999102321MD1710201+9999REMSYN082AAXX  04154 10640 42570 82206 10084 20029 30232 40351 57020 8753/ 333 82630 86640;
0203106400999992000020418004+50120+008730FM-12+011299999V0202101N00361007501CN0200001N1+00801+00311103541ADDGA1031+008109069GF108991071051008001999999KA1120M+00851KA2120N+00311MA1999999102341MD1710061+9999REMSYN094AAXX  04184 10640 42570 82107 10080 20031 30234 40354 57006 875// 333 10085 20031 83627 87640;
0262106400999992000020506004+50120+008730FM-12+011299999V0202001N002110300019N0100001N1+00641+00311103461ADDAA124001591AY121061AY221061GA1021+015009069GF107991021051017501031999GJ100189KA1120M+00801KA2120N+00611MA1999999102251MD1210021+9999MW1211REMSYN112AAXX  05064 10640 /1760 72004 10064 20031 30225 40346 52002 72122 8253/ 333 10080 20061 55003 70015 82650 87360;
0159106400999992000020509004+50120+008730FM-12+011299999V0202001N003110300019N0100001N1+00741+00261103491ADDGA1061+030009079GF106991061001022501031999MA1999999102801MD1210021+9999REMSYN076AAXX  05094 10640 42860 62006 10074 20026 3028/ 40349 52002 8603/ 333 86360;
0159106400999992000020512004+50120+008730FM-12+011299999V0202001N003110300019N0250001N1+00991+00201103411ADDGA1061+030009079GF106991061001022501031001MA1999999102221MD1610061+9999REMSYN076AAXX  05124 10640 42875 62006 10099 20020 30222 40341 56006 86030 333 86360;
0143106400999992000020515004+50120+008730FM-12+011299999V0202101N003112200019N0200001N1+00181+99999103231ADDGA1001+999999999GF100991001001999999001001MA1999999102061MD1710161+9999REMSYN060AAXX  05154 10640 42970 02106 10018 20028 30206 40323 57016;
0216106400999992000020606004+50120+008730FM-12+011299999V0202201N001012200019N0150001N1+00241+00061102661ADDAA124000021GA1001+999999999GF100991001001999999001001GJ102469KA1120M+01001KA2120N+00241MA1999999101451MD1710131+9999REMSYN088AAXX  06064 10640 42965 02202 10024 20006 30145 40266 57013 333 10100 20024 55041 70000;
0165106400999992000020609004+50120+008730FM-12+011299999V0202101N000519999999N0100001N1+00581+00221102671ADDGA1031+030009039GF105991031001999999071011MA1999999101481MD1210031+9999REMSYN082AAXX  06094 10640 42960 52101 10058 20022 30148 40267 52003 83071 333 83360 83075;
0165106400999992000020612004+50120+008730FM-12+011299999V0202001N003119999999N0100001N1+01061+00241102501ADDGA1021+030009039GF105991021001999999031011MA1999999101331MD1710151+9999REMSYN082AAXX  06124 10640 42960 52006 10106 20024 30133 40250 57015 82031 333 82360 85078;
0165106400999992000020615004+50120+008730FM-12+011299999V0202201N002119999999N0120001N1+01201+00411102311ADDGA1031+027009039GF106991031001999999031011MA1999999101151MD1710181+9999REMSYN082AAXX  06154 10640 42962 62204 10120 20041 30115 40231 57018 83031 333 83359 84078;
0203106400999992000020618004+50120+008730FM-12+011299999V0202001N002619999999N0120001N1+01071+00451102281ADDGA1041+027009039GF107991041001999999031011KA1120M+01191KA2120N+00621MA1999999101111MD1710081+9999REMSYN094AAXX  06184 10640 42962 72005 10107 20045 30111 40228 57008 84031 333 10119 20062 84359 84078;
0228106400999992000020706004+50120+008730FM-12+011299999V0202001N004110090019N0120001N1+00991+00551101751ADDAA124000191GA1071+009009059GF108991071051008001999999GJ103609KA1120M+01071KA2120N+00891MA1999999100581MD1610161+9999REMSYN100AAXX  07064 10640 42562 82008 10099 20055 30058 40175 56016 875// 333 10107 20089 55060 70001 87630;
0193106400999992000020709004+50120+008730FM-12+011299999V0202101N004610078019N0150001N1+00961+00631101871ADDAY161031AY221031GA1071+007809069GF108991071051008001999999MA1999999100701MD1310121+9999MW1611REMSYN088AAXX  07094 10640 41565 82109 10096 20063 30070 40187 53012 76162 875// 333 87626 91115;
0215106400999992000020712004+50120+008730FM-12+011299999V0202301N004612200019N0350001N1+01031+00191102021ADDAY111061AY251061GA1011+007809089GA2031+012009069GF104991041081008001031011MA1999999100851MD1210151+9999MW1011REMSYN094AAXX  07124 10640 41581 42309 10103 20019 30085 40202 52015 70115 84831 333 81826 83640 91116;
0204106400999992000020715004+50120+008730FM-12+011299999V0202301N004610300019N0400001N1+01021+00021101971ADDGA1041+012009069GA2031+030009039GF106991041051012501031011MA1999999100801MD1510051+9999OA149900881REMSYN094AAXX  07154 10640 42682 62309 10102 20002 30080 40197 55005 84531 333 84640 83360 91117 91212;
0248106400999992000020718004+50120+008730FM-12+011299999V0202001N004110129019N0250001N1+00921+00191101861ADDAY121061AY221061GA1071+012909069GF108991071051012501999999KA1120M+01161KA2120N+00901MA1999999100691MD1710111+9999MW1601OA149900881REMSYN106AAXX  07184 10640 41675 82008 10092 20019 30069 40186 57011 76022 875// 333 10116 20090 87643 91117 91212;
0262106400999992000020806004+50120+008730FM-12+011299999V0202001N004110090019N0200001N1+00981+00581100131ADDAA124001291AY161061AY221061GA1051+009009069GF108991081051008001999999GJ101449KA1120M+00981KA2120N+00741MA1999999101291MD1710071+9999MW1611REMSYN112AAXX  08064 10640 41570 82008 10098 20058 30129 40013 57007 76162 885// 333 10098 20074 55024 70012 85630 87640;
0245106400999992000020812004+50120+008730FM-12+011299999V0202001N004610060019N0150001N1+01021+00631100992ADDAY161061AY221061GA1081+006009069GF108991081051008001999999MA1999999099832MD1810271+9999MW1611OA149900981REMSYN094AAXX  08124 10640 41565 82009 10102 20063 39983 40099 58027 76162 885// 333 88620 91119 91214;EQDQ01+099833APOSP Q02+100993APOSLP
0228106400999992000020815004+50120+008730FM-12+011299999V0202001N004110060019N0050001N1+01031+00931100421ADDAY161031AY221031GA1081+006009069GF108991081051004501999999MA1999999099271MD1410001+9999MW1591REMSYN088AAXX  08154 10640 41450 82008 10103 20093 39927 40042 57052 75962 885// 333 88620 91115;EQDQ01+000072APCTENQ02+000522APC3  
0292106400999992000020818004+50120+008730FM-12+011299999V0202201N005710060019N0150001N1+01241+01081100511ADDAY161061AY221061GA1021+004509089GA2041+006009069GA3071+007509069GF108991081081004501999999KA1120M+01231KA2120N+00971MA1999999099371MD1210171+9999MW1631OA149900881REMSYN118AAXX  08184 10640 41465 82211 10124 20108 39937 40051 52017 76362 888// 333 10123 20097 82815 84620 87625 91117 91211;
0262106400999992000020906004+50120+008730FM-12+011299999V0202301N005710300019N0200001N1+00541-00021101681ADDAA124012191AY181061AY211061GA1031+013509069GF105991031051012501031001GJ100009KA1120M+01281KA2120N+00461MA1999999100491MD1110211+9999MW1021REMSYN112AAXX  09064 10640 11670 52311 10054 21002 30049 40168 51021 70281 83530 333 10128 20046 55000 70121 83645 84360;
0249106400999992000020909004+50120+008730FM-12+011299999V0202201N002610078019N0200001N1+00321+00101102041ADDAY181031AY261031GA1021+006009099GA2041+007809069GF106991061031008001001001MA1999999100841MD1210351+9999MW1261OA149900981OA259900671REMSYN106AAXX  09094 10640 41570 62205 10032 20010 30084 40204 52035 72686 86300 333 82920 84626 91119 91213 96486;
0232106400999992000020912004+50120+008730FM-12+011299999V0202401N003110120019N0250001N1+00641+00051102261ADDAY181061AY261061GA1041+007809089GA2031+012009069GF106991051081008001001011MA1999999101071MD1210231+9999MW1151OA149900981REMSYN100AAXX  09124 10640 41575 62406 10064 20005 30107 40226 52023 71586 85801 333 84826 83640 91119 91213;
0144106400999992000020915004+50120+008730FM-12+011299999V0202401N004610120019N0200001N1+00691+00041102421ADDGA1031+008409089GF107991071081008001999999MD1210141+9999REMSYN076AAXX  09154 10640 41570 72409 10069 20004 40242 52014 878// 333 83828 85640;
0203106400999992000020918004+50120+008730FM-12+011299999V0202501N00361012001CN0200001N1+00691+00111102641ADDGA1031+008109089GF107991071081008001999999KA1120M+00731KA2120N+00691MA1999999101451MD1210261+9999REMSYN094AAXX  09184 10640 42570 72507 10069 20011 30145 40264 52026 878// 333 10073 20069 83827 85636;
0228106400999992000021006004+50120+008730FM-12+011299999V0201901N002110120019N0200001N1+00471+00111102821ADDAA124000991GA1071+012009059GF107991071051012501999999GJ101689KA1120M+00691KA2120N+00411MA1999999101621MD1810091+9999REMSYN100AAXX  10064 10640 42670 71904 10047 20011 30162 40282 58009 875// 333 10069 20041 55028 70009 87640;
0159106400999992000021012004+50120+008730FM-12+011299999V0202101N005110078019N0180001N1+00801+00181102411ADDGA1051+007809029GF105991051081008001001011MA1999999101231MD1810291+9999REMSYN076AAXX  10124 10640 42568 52110 10080 20018 30123 40241 58029 85801 333 85826;
0165106400999992000021015004+50120+008730FM-12+011299999V0201901N00361220001CN0150001N1+00981+00011101961ADDGA1011+009909089GF106991011081012501001011MA1999999100991MD1710421+9999REMSYN082AAXX  10154 10640 42665 61907 10098 20001 30099 40196 57042 81801 333 81833 86075;
0231106400999992000021018004+50120+008730FM-12+011299999V0202101N002610072019N0100001N1+00761+00251101861ADDAY121061AY221061GA1051+007209069GF107991051061008001031999KA1120M+01011KA2120N+00401MA1999999100681MD1710131+9999MW1601REMSYN100AAXX  10184 10640 41560 72105 10076 20025 30068 40186 57013 76022 8563/ 333 10101 20040 85624 87360;
0273106400999992000021106004+50120+008730FM-12+011299999V0202201N001510120019N0150001N1+00411+00111102851ADDAA112007992AA224007892AY161061AY221061GA1071+012009059GF107991071051012501999999GJ102949KA1120M+00791KA2120N+00291MA1999999101651MD1210341+9999MW1021REMSYN112AAXX  11064 10640 12665 72203 10041 20011 30165 40285 52034 60082 70262 875// 333 10079 20029 55049 70078 87640;
0165106400999992000021109004+50120+008730FM-12+011299999V0202801N001512200019N0200001N1+00521+00001103071ADDGA1011+007809089GF103991031081008001001001MA1999999101871MD1210261+9999REMSYN082AAXX  11094 10640 42570 32803 10052 21000 30187 40307 52026 83800 333 81826 83640;
0138106400999992000021115004+50120+008730FM-12+011299999V0202901N000512200019N0250001N1+00671-00161103151ADDGA1021+012009029GF103991031081012501001001MD1810021+9999REMSYN070AAXX  11154 10640 42675 32901 10067 21016 40315 58002 83800 333 82840;
0216106400999992000021118004+50120+008730FM-12+011299999V0201901N001512200019N0300001N1+00571-00151103191ADDGA1011+015009059GF101991011051017501999001KA1120M+00701KA2120N+00381MA1999999101991MD1110041+9999REMSYN088AAXX  11184 10640 42780 11903 10057 21015 30199 40319 51004 81500 333 10070 20038 81650;EQDQ01    003SCOMCG
0258106400999992000021206004+50120+008730FM-12+011299999V0202301N001012200019N0100001N1-00211-00341102951ADDAA124000091GA1011+001509079GF104991021061001501001011GJ103429IA1149IA2999-00209KA1120M+00571KA2120N-00211MA1999999101721MD1710061+9999REMSYN112AAXX  12064 10640 42260 42302 11021 21034 30172 40295 57006 82601 333 10057 21021 34102 55057 70000 81705 84075;
0159106400999992000021209004+50120+008730FM-12+011299999V0202101N001510108019N0120001N1-00031-00181102741ADDGA1051+010809059GF105991051051012501001011MA1999999101711MD1610021+9999REMSYN076AAXX  12094 10640 42662 52103 11003 21018 30171 40274 56002 85501 333 85636;
0187106400999992000021212004+50120+008730FM-12+011299999V0202101N002110108019N0150001N1+00321-00091102751ADDGA1011+005409089GA2051+010809069GF106991051081008001031011MA1999999101541MD1710171+9999REMSYN088AAXX  12124 10640 42565 62104 10032 21009 30154 40275 57017 85831 333 81818 85636 85075;
0165106400999992000021215004+50120+008730FM-12+011299999V0202101N004112200019N0350001N1+00621-00231102421ADDGA1011+006009089GF103991031081008001031011MA1999999101231MD1710311+9999REMSYN082AAXX  12154 10640 42581 32108 10062 21023 30123 40242 57031 83831 333 81820 91114;
0193106400999992000021218004+50120+008730FM-12+011299999V0202101N005710120019N0200001N1+00511-00011102361ADDAY181061AY221061GA1011+009009089GF107991071081008001999999MA1999999101171MD1710061+9999MW1611REMSYN088AAXX  12184 10640 41570 72111 10051 21001 30117 40236 57006 76182 878// 333 81830 87640;
0301106400999992000021306004+50120+008730FM-12+011299999V0202001N003610045019N0100001N1+00501+00251101971ADDAA124000291AY161061AY221061GA1021+002709089GA2081+004509069GF108991081081002501999999GJ102289KA1120M+00551KA2120N+00441MA1999999100781MD1710191+9999MW1601OA149900671REMSYN124AAXX  13064 10640 11360 82007 10050 20025 30078 40197 57019 76062 888// 333 10055 20044 55038 70002 82809 88615 91113 91111;
0187106400999992000021309004+50120+008730FM-12+011299999V0201901N003110045019N0280001N1+00481+00321101851ADDAY161031AY221031GA1061+004509029GF108991081051004501999999MA1999999100671MD1610111+9999MW1611REMSYN082AAXX  13094 10640 41478 81906 10048 20032 30067 40185 56011 76162 885// 333 86815;
0215106400999992000021312004+50120+008730FM-12+011299999V0202101N004110045019N0150001N1+00581+00391101771ADDAY161061AY261061GA1071+004509069GA2071+006009069GF108991081051004501999999MA1999999100591MD1710081+9999MW1611REMSYN094AAXX  13124 10640 41465 82108 10058 20039 30059 40177 57008 76166 885// 333 87615 87620 91113;
0193106400999992000021315004+50120+008730FM-12+011299999V0202301N00211012001CN0250001N1+00601+00301101861ADDAY161031AY221031GA1021+009009089GF105991051081008001001001MA1999999100691MD1310091+9999MW1011REMSYN088AAXX  13154 10640 41575 52304 10060 20030 30069 40186 53009 70162 85800 333 82830 85645;
0225106400999992000021318004+50120+008730FM-12+011299999V0202201N002612200019N0300001N1+00541+00231102121ADDAY161061AY221061GA1021+009009059GF102991021051008001001011KA1120M+00661KA2120N+00471MA1999999100931MD1210141+9999MW1011REMSYN094AAXX  13184 10640 41580 22205 10054 20023 30093 40212 52014 70162 82501 333 10066 20047 82630;
0253106400999992000021406004+50120+008730FM-12+011299999V0202201N002112200019N0180001N1+00171-00141102631ADDAA124004591GA1021+009009069GF199999011051008001031001GJ100669KA1120M+00541KA2120N+00181MA1999999101421MD1210011+9999REMSYN106AAXX  14064 10640 42568 12204 10017 21014 30142 40263 52001 81530 333 10054 20018 55011 70045 82630 91130;EQDQ01+000012SCOTCV
0159106400999992000021409004+50120+008730FM-12+011299999V0202301N002110120019N0250001N1+00171-00141102731ADDGA1061+012009059GF106991061051012501001001MA1999999101521MD1210101+9999REMSYN076AAXX  14094 10640 42675 62304 10017 21014 30152 40273 52010 86500 333 86640;
0165106400999992000021412004+50120+008730FM-12+011299999V0202301N002610300019N0300001N1+00621-00051102651ADDGA1021+012009089GF105991041081012501031011MA1999999101451MD1710071+9999REMSYN082AAXX  14124 10640 42680 52305 10062 21005 30145 40265 57007 84831 333 82840 83647;
0153106400999992000021415004+50120+008730FM-12+011299999V0202201N002612200019N0300001N1+99999+99999102441ADDGA1011+012009029GF102991011011012501031011MA1999999101251MD1710181+9999REMSYN070AAXX  14154 10640 42680 22205 21018 30125 40244 57018 81131 333 81840;
0197106400999992000021418004+50120+008730FM-12+011299999V0201901N002610270019N0300001N1+00481+00041102321ADDGA1051+027009079GF105991051001999999051011KA1120M+00761KA2120N+00131MA1999999101121MD1710141+9999REMSYN088AAXX  14184 10640 42980 51905 10048 20004 30112 40232 57014 85051 333 10076 20013 85359;
0284106400999992000021506004+50120+008730FM-12+011299999V0202401N002610051019N0140001N1+00751+00581101711ADDAA124004891AY161061AY221061GA1021+003609079GA2041+005109069GF107991071051004501999999GJ104149KA1120M+00751KA2120N+00581MA1999999100531MD1110111+9999MW1211REMSYN118AAXX  15064 10640 11464 72405 10075 20058 30053 40171 51011 72162 875// 333 10075 20058 55069 70048 82712 84617 87635;
0187106400999992000021509004+50120+008730FM-12+011299999V0202201N002110300019N0180001N1+00841+00581101801ADDAY161031AY211031GA1041+009909059GF105991041051012501031001MA1999999100631MD1110101+9999MW1031REMSYN082AAXX  15094 10640 41668 52204 10084 20058 30063 40180 51010 70361 84530 333 84633;
0215106400999992000021512004+50120+008730FM-12+011299999V0202401N004610120019N0300001N1+01101+00461101751ADDAY161061AY211061GA1031+007809089GA2041+012009069GF106991061081008001001001MA1999999100601MD1810031+9999MW1031REMSYN094AAXX  15124 10640 41580 62409 10110 20046 30060 40175 58003 70361 86800 333 83826 84640 91113;
0187106400999992000021515004+50120+008730FM-12+011299999V0202301N004610138019N0400001N1+01151+00471101511ADDGA1021+007509089GA2051+013809069GF106991051081008001001011MA1999999100351MD1710251+9999REMSYN088AAXX  15154 10640 42582 62309 10115 20047 30035 40151 57025 85801 333 82825 85646 91114;
0270106400999992000021518004+50120+008730FM-12+011299999V0202501N003610150019N0350001N1+00921+00411101471ADDAY121061AY221061GA1031+007509089GA2051+015009069GF106991051081008001001011KA1120M+01261KA2120N+00691MA1999999100301MD1510051+9999MW1801OA149900721REMSYN112AAXX  15184 10640 41581 62507 10092 20041 30030 40147 55005 78022 85801 333 10126 20069 83825 85650 91114 91211;
0262106400999992000021606004+50120+008730FM-12+011299999V0202201N00361004201CN0150001N1+00531+00441100091ADDAA124007391AY161061AY221061GA1031+003609069GF108991081051004501999999GJ102469KA1120M+00921KA2120N+00491MA1999999098921MD1710411+9999MW1631REMSYN112AAXX  16064 10640 41465 82207 10053 20044 39892 40009 57041 76362 885// 333 10092 20049 55041 70073 83612 87635;
0237106400999992000021609004+50120+008730FM-12+011299999V0202501N004110120019N0400001N1+00451+00121100421ADDAY181031AY261031GA1011+006009099GA2031+007809089GA3051+012009069GF106991061031008001001001MA1999999099251MD1210331+9999MW1251REMSYN100AAXX  16094 10640 41582 62508 10045 20012 39925 40042 52033 72586 86300 333 81920 83826 85640 91114;
0210106400999992000021612004+50120+008730FM-12+011299999V0202501N005712200019N0400001N1+00571-00471100651ADDAY181061AY261061GA1041+007809089GF104991041021008001001001MA1999999099481MD1010231+9999MW1011OA149900881REMSYN094AAXX  16124 10640 41582 42511 10057 21047 39948 40065 50023 70186 84200 333 84826 91117 91212;
0215106400999992000021615004+50120+008730FM-12+011299999V0202401N00461030001CN0100001N1+00551+00551100561ADDAY181031AY221031GA1031+001809079GA2011+002709089GF108991041081001501051999MA1999999099391MD1710101+9999MW1021REMSYN094AAXX  16154 10640 41260 82409 10055 20055 39939 40056 57010 70282 8485/ 333 83706 81809 87615;
0231106400999992000021618004+50120+008730FM-12+011299999V0202901N00211006001CN0100001N1+00201-00081100621ADDAY181061AY271061GA1031+001809089GF106991061081001501031999KA1120M+00691KA2120N+00131MA1999999099431MD1210061+9999MW1231REMSYN100AAXX  16184 10640 41260 62904 10020 21008 39943 40062 52006 72387 8683/ 333 10069 20013 83806 85615;
0276106400999992000021706004+50120+008730FM-12+011299999V0202301N003610048019N0100001N1+00161+00031100401ADDAA124002691AY171061GA1021+002409079GA2071+004809069GF107991071051004501999999GJ101989KA1120M+00211KA2120N+00041MA1999999099211MD1110051+9999MW1221REMSYN118AAXX  17064 10640 41460 72307 10016 20003 39921 40040 51005 7227/ 875// 333 10021 20004 55033 70026 82708 87616 91213;
0187106400999992000021709004+50120+008730FM-12+011299999V0202401N002610078019N0180001N1+00231-00111100541ADDAY171031AY211031GA1071+007809029GF107991071021008001011011MA1999999099351MD1310141+9999MW1151REMSYN082AAXX  17094 10640 41568 72405 10023 21011 39935 40054 53014 71571 87211 333 87826;
0193106400999992000021712004+50120+008730FM-12+011299999V0202701N003110120019N0300001N1+00351-00091100781ADDAY171061AY211061GA1041+007809089GF106991051081008001031001MA1999999099601MD1210251+9999MW1021REMSYN088AAXX  17124 10640 41580 62706 10035 21009 39960 40078 52025 70271 85830 333 84826 83640;
0193106400999992000021715004+50120+008730FM-12+011299999V0202601N002610075019N0300001N1+00371-00021100971ADDAY121031AY221031GA1011+006009099GF106991051091008001031011MA1999999099791MD1210251+9999MW1151REMSYN088AAXX  17154 10640 41580 62605 10037 21002 39979 40097 52025 71522 85931 333 81920 85825;
0203106400999992000021718004+50120+008730FM-12+011299999V0202801N00261007501CN0300001N1+00361-00101101331ADDGA1031+006009069GF106991061051008001999999KA1120M+00471KA2120N+00131MA1999999100141MD1210271+9999REMSYN094AAXX  17184 10640 42580 62805 10036 21010 30014 40133 52027 865// 333 10047 20013 83620 86630;
0228106400999992000021806004+50120+008730FM-12+011299999V0201901N002610300019N0150001N1+00171-00201101371ADDAA124999929GA1081+030009079GF108991081001999999071999GJ100309KA1120M+00371KA2120N+00071MA1999999100171MD1710191+9999REMSYN100AAXX  18064 10640 42965 81905 10017 21020 30017 40137 57019 8807/ 333 10037 20007 55005 79999 88360;
0171106400999992000021809004+50120+008730FM-12+011299999V0201801N004110006019N0009001N1+00061-00031101151ADDAY171031AY241031GA1091+999999999GF109991091999999999999999MA1999999099951MD1810221+9999MW1751REMSYN066AAXX  18094 10640 41109 91808 10006 21003 39995 40115 58022 77574;
0187106400999992000021815004+50120+008730FM-12+011299999V0202001N003610027019N0040001N1+00191+00081100491ADDAY171031AY261031GA1081+002709059GF108991081051002501999999MA1999999099301MD1710291+9999MW1681REMSYN082AAXX  18154 10640 41340 82007 10019 20008 39930 40049 57029 76876 885// 333 88609;
0231106400999992000021818004+50120+008730FM-12+011299999V0202301N001010027019N0050001N1+00311+00221100491ADDAY161061AY271061GA1051+002709079GF108991081051002501999999KA1120M+00311KA2120N+00051MA1999999099311MD1410001+9999MW1231REMSYN100AAXX  18184 10640 41350 82302 10031 20022 39931 40049 54000 72367 885// 333 10031 20005 85709 87615;
0284106400999992000021906004+50120+008730FM-12+011299999V0202201N002610120019N0200001N1+00521+00261100391ADDAA124006091AY161061AY221061GA1031+006009069GA2051+012009069GF107991061051008001071999GJ100009KA1120M+00541KA2120N+00301MA1999999099221MD1210031+9999MW1601REMSYN118AAXX  19064 10640 41570 72205 10052 20026 39922 40039 52003 76062 8657/ 333 10054 20030 55000 70060 83620 85640 87360;
0187106400999992000021912004+50120+008730FM-12+011299999V0202701N002610060019N0250001N1+00691+00231100771ADDGA1021+004509089GA2041+006009069GF106991061081004501031999MA1999999099601MD1210241+9999REMSYN088AAXX  19124 10640 42475 62705 10069 20023 39960 40077 52024 8683/ 333 82815 84620 85359;
0165106400999992000021915004+50120+008730FM-12+011299999V0202801N00311012001CN0250001N1+00671+00141100961ADDGA1031+006009089GF107991071081008001999999MA1999999099791MD1210191+9999REMSYN082AAXX  19154 10640 42575 72806 10067 20014 39979 40096 52019 878// 333 83820 86635;
0203106400999992000021918004+50120+008730FM-12+011299999V0202801N00311012001CN0200001N1+00541+00001101121ADDGA1021+009009089GF106991061081008001001001KA1120M+00721KA2120N+00481MA1999999099941MD1210141+9999REMSYN094AAXX  19184 10640 42570 62806 10054 21000 39994 40112 52014 86800 333 10072 20048 82830 86645;
0262106400999992000022006004+50120+008730FM-12+011299999V0203201N00261012001CN0200001N1+00361-00101102141ADDAA124000791AY161061AY221061GA1011+006009089GF108991071081008001999999GJ100549KA1120M+00541KA2120N+00361MA1999999100941MD1210361+9999MW1211REMSYN112AAXX  20064 10640 11570 83205 10036 21010 30094 40214 52036 72162 878// 333 10054 20036 55009 70007 81820 87624;
0193106400999992000022009004+50120+008730FM-12+011299999V0203401N00261007501CN0100001N1+00341-00141102441ADDAY161031AY221031GA1031+007209069GF107991071051008001999999MA1999999101241MD1210361+9999MW1211REMSYN088AAXX  20094 10640 41560 73405 10034 21014 30124 40244 52036 72162 875// 333 83624 87640;
0215106400999992000022012004+50120+008730FM-12+011299999V0203401N004110120019N0200001N1+00451-00451102711ADDAY161061AY221061GA1021+009009069GA2061+012009069GF106991061051008001031999MA1999999101511MD1210281+9999MW1011REMSYN094AAXX  20124 10640 41570 63408 10045 21045 30151 40271 52028 70162 8653/ 333 82630 86640 91114;
0159106400999992000022015004+50120+008730FM-12+011299999V0203401N003110126019N0200001N1+00501-00471102831ADDGA1051+012609059GF106991051051012501001011MA1999999101631MD1210111+9999REMSYN076AAXX  20154 10640 41670 63406 10050 21047 30163 40283 52011 85501 333 85642;
0197106400999992000022018004+50120+008730FM-12+011299999V0203301N001012200019N0200001N1+00361-00501102991ADDGA1031+012609059GF103991031051012501001011KA1120M+00551KA2120N+00271MA1999999101781MD1210171+9999REMSYN088AAXX  20184 10640 41670 33302 10036 21050 30178 40299 52017 83501 333 10055 20027 83642;
0228106400999992000022106004+50120+008730FM-12+011299999V0201501N000512200019N0200001N1-00131-00301103131ADDAA124999929GA1031+012009059GF103991031051012501001001GJ101089KA1120M+00381KA2120N-00131MA1999999101901MD1710021+9999REMSYN100AAXX  21064 10640 42670 31501 11013 21030 30190 40313 57002 83500 333 10038 21013 55018 79999 83640;
0159106400999992000022109004+50120+008730FM-12+011299999V0209999C000010078019N0150001N1-00011-00201103271ADDGA1071+007809059GF108991071051008001999999MA1999999102041MD1210141+9999REMSYN076AAXX  21094 10640 42565 80000 11001 21020 30204 40327 52014 875// 333 87626;
0187106400999992000022115004+50120+008730FM-12+011299999V0201801N00051030001CN0170001N1+00491-00301103041ADDGA1011+007509089GA2031+030009039GF106991031081008001031011MA1999999101841MD1710161+9999REMSYN088AAXX  21154 10640 42567 61801 10049 21030 30184 40304 57016 83831 333 81825 83360 85074;
0203106400999992000022118004+50120+008730FM-12+011299999V0202001N001510300019N0170001N1+00391-00211103041ADDGA1021+012009069GF106991021051012501031011KA1120M+00511KA2120N-00141MA1999999101831MD1510011+9999REMSYN094AAXX  21184 10640 42667 62003 10039 21021 30183 40304 55001 82531 333 10051 21014 82640 84360;
0262106400999992000022206004+50120+008730FM-12+011299999V0202101N00151030001CN0120001N1+00191-00071102771ADDAA124999929AY171061AY251061GA1041+010509069GF107991041051012501071999GJ102049KA1120M+00411KA2120N+00131MA1999999101561MD1810041+9999MW1501REMSYN112AAXX  22064 10640 11662 72103 10019 21007 30156 40277 58004 75075 8457/ 333 10041 20013 55034 79999 84635 87359;
0193106400999992000022209004+50120+008730FM-12+011299999V0202101N001010300019N0100001N1+00241-00041102771ADDAY171031AY251031GA1041+007809069GF107991041051008001071999MA1999999101561MD1510001+9999MW1221REMSYN088AAXX  22094 10640 41560 72102 10024 21004 30156 40277 55000 72275 8457/ 333 84626 87360;
0193106400999992000022212004+50120+008730FM-12+011299999V0202301N002110300019N0100001N1+00511-00011102701ADDAY171061AY251061GA1031+007809069GF107991031051008001071999MA1999999101501MD1810061+9999MW1021REMSYN088AAXX  22124 10640 41560 72304 10051 21001 30150 40270 58006 70275 8357/ 333 83626 87360;
0165106400999992000022215004+50120+008730FM-12+011299999V0202201N001510078019N0100001N1+00581+00101102621ADDGA1051+007809069GF107991051051008001071999MA1999999101431MD1710071+9999REMSYN082AAXX  22154 10640 42560 72203 10058 20010 30143 40262 57007 8557/ 333 85626 87459;
0203106400999992000022218004+50120+008730FM-12+011299999V0202101N00151007501CN0100001N1+00531+00091102671ADDGA1041+007809069GF107991071051008001999999KA1120M+00581KA2120N+00181MA1999999101461MD1510011+9999REMSYN094AAXX  22184 10640 42560 72103 10053 20009 30146 40267 55001 875// 333 10058 20018 84626 87650;
0262106400999992000022306004+50120+008730FM-12+011299999V0209999C00001007501CN0120001N1+00121-00011102761ADDAA124000191AY161061AY221061GA1041+006909069GF107991071051008001999999GJ100489KA1120M+00531KA2120N+00081MA1999999101541MD1210031+9999MW1021REMSYN112AAXX  23064 10640 41562 70000 10012 21001 30154 40276 52003 70262 875// 333 10053 20008 55008 70001 84623 87650;
0187106400999992000022309004+50120+008730FM-12+011299999V0200801N000510120019N0040001N1+00231+00071102851ADDAY121031AY221031GA1071+012009059GF108991071051012501999999MA1999999101641MD1210101+9999MW1101REMSYN082AAXX  23094 10640 41640 80801 10023 20007 30164 40285 52010 71022 875// 333 87640;
0195106400999992000022312004+50120+008730FM-12+011299999V0202201N002110300019N0100001N1+00671+00091102801ADDAA199000091GA1031+013809069GF106991031051012501031001MA1999999101611MD1810031+9999REMSYN082AAXX  23124 10640 32660 62204 10067 20009 30161 40280 58003 83530 333 83646 83360;EQDQ01  00002PRCP99
0165106400999992000022315004+50120+008730FM-12+011299999V0202001N001510300019N0200001N1+00771+00161102701ADDGA1021+006009089GF106991021081004501031001MA1999999101511MD1710091+9999REMSYN082AAXX  23154 10640 42470 62003 10077 20016 30151 40270 57009 82830 333 82820 86360;
0197106400999992000022318004+50120+008730FM-12+011299999V0201801N001510093019N0120001N1+00691+00131102761ADDGA1061+009309059GF106991061051008001999999KA1120M+00821KA2120N+00111MA1999999101571MD1310051+9999REMSYN088AAXX  23184 10640 42562 61803 10069 20013 30157 40276 53005 865// 333 10082 20011 86631;
0248106400999992000022406004+50120+008730FM-12+011299999V0201901N002610120019N0100001N1+00641-00041102611ADDAA124999929AY121061GA1071+012009059GF107991071051012501999999GJ102229KA1120M+00691KA2120N+00581MA1999999101411MD1610091+9999MW1201REMSYN106AAXX  24064 10640 41660 71905 10064 21004 30141 40261 56009 7202/ 875// 333 10069 20058 55037 79999 87640;
0193106400999992000022409004+50120+008730FM-12+011299999V0202001N00411004201CN0090001N1+00501+00261102611ADDAY161031AY221031GA1041+003009079GF108991081051004501999999MA1999999101411MD1010001+9999MW1611REMSYN088AAXX  24094 10640 41459 82008 10050 20026 30141 40261 50000 76162 885// 333 84710 88620;
0215106400999992000022412004+50120+008730FM-12+011299999V0202101N004110060019N0020001N1+00541+00401102581ADDAY161061AY221061GA1041+003009079GA2081+006009069GF108991081051004501999999MA1999999101381MD1810031+9999MW1611REMSYN094AAXX  24124 10640 41420 82108 10054 20040 30138 40258 58003 76162 885// 333 84710 88620 91114;
0193106400999992000022415004+50120+008730FM-12+011299999V0202001N003110054019N0090001N1+00631+00491102541ADDAY161031AY221031GA1071+005409069GF108991081051004501999999MA1999999101351MD1510031+9999MW1021REMSYN088AAXX  24154 10640 41459 82006 10063 20049 30135 40254 55003 70262 885// 333 87618 91113;
0253106400999992000022418004+50120+008730FM-12+011299999V0202101N002110045019N0050001N1+00701+00541102581ADDAY151061AY221061GA1031+001809079GA2081+004509079GF108991081071001501999999KA1120M+00701KA2120N+00491MA1999999101391MD1310041+9999MW1201REMSYN106AAXX  24184 10640 41250 82104 10070 20054 30139 40258 53004 72052 887// 333 10070 20049 83706 88715 91113;
0301106400999992000022506004+50120+008730FM-12+011299999V0202101N006210090019N0130001N1+01001+00751101811ADDAA124001791AY161061AY221061GA1031+004509089GA2071+009009069GF107991071081004501999999GJ100009KA1120M+01011KA2120N+00681MA1999999100641MD1710221+9999MW1211OA149900931REMSYN124AAXX  25064 10640 41463 72112 10100 20075 30064 40181 57022 72162 878// 333 10101 20068 55000 70017 83815 87630 91118 91212;
0232106400999992000022509004+50120+008730FM-12+011299999V0202401N004610030019N0090001N1+00991+00821102031ADDAY161031AY221031GA1051+003009079GA2081+006009069GF108991081051004501999999MA1999999100841MD1310201+9999MW1631OA149900981REMSYN100AAXX  25094 10640 41459 82409 10099 20082 30084 40203 53020 76362 885// 333 85710 88620 91119 91214;
0232106400999992000022512004+50120+008730FM-12+011299999V0203101N005110300019N0300001N1+00781+00221102571ADDAY161061AY221061GA1031+006009089GA2041+012009069GF106991041081008001031001MA1999999101381MD1210521+9999MW1021OA149900981REMSYN100AAXX  25124 10640 41580 63110 10078 20022 30138 40257 52052 70262 84830 333 83820 84640 91119 91214;
0203106400999992000022518004+50120+008730FM-12+011299999V0202401N002612200019N0250001N1+00651+00121103181ADDGA1011+010509069GF101991011051012501001001KA1120M+01041KA2120N+00641MA1999999101981MD1210481+9999REMSYN094AAXX  25184 10640 42675 12405 10065 20012 30198 40318 52048 81500 333 10104 20064 81635 91119;
0216106400999992000022606004+50120+008730FM-12+011299999V0200301N001012200019N0120001N1-00031-00161103471ADDAA124002591GA1001+999999999GF100991001001999999001001GJ101749KA1120M+00691KA2120N-00071MA1999999102251MD1110031+9999REMSYN088AAXX  26064 10640 42962 00302 11003 21016 30225 40347 51003 333 10069 21007 55029 70026;
0159106400999992000022609004+50120+008730FM-12+011299999V0209999V000510750019N0100001N1+00291-00061103531ADDGA1061+075009019GF106991001001999999001021MA1999999102311MD1210061+9999REMSYN076AAXX  26094 10640 42960 69901 10029 21006 30231 40353 52006 80002 333 86075;
0159106400999992000022612004+50120+008730FM-12+011299999V0201301N000512200019N0300001N1+00781-00091103391ADDGA1021+007509029GF102991021011999999001021MA1999999102201MD1710081+9999REMSYN076AAXX  26124 10640 42980 21301 10078 21009 30220 40339 57008 82102 333 82825;
0159106400999992000022615004+50120+008730FM-12+011299999V0203601N001010750019N0250001N1+00911-00231103271ADDGA1051+075009019GF105991001001999999001021MA1999999102081MD1810121+9999REMSYN076AAXX  26154 10640 42975 53602 10091 21023 30208 40327 58012 80002 333 85075;
0197106400999992000022618004+50120+008730FM-12+011299999V0200301N001010750019N0210001N1+00701-00241103281ADDGA1051+075009019GF105991001001999999001021KA1120M+00941KA2120N-00121MA1999999102081MD1510001+9999REMSYN088AAXX  26184 10640 42971 50302 10070 21024 30208 40328 55000 80002 333 10094 21012 85075;
0235106400999992000022706004+50120+008730FM-12+011299999V0200701N001012200019N0150001N1-00021-00201103171ADDAA124000091GA1001+999999999GF100991001001999999001001GJ104989KA1120M+00701KA2120N-00041MA1999999101941MD1610041+9999REMSYN088AAXX  27064 10640 42965 00702 11002 21020 30194 40317 56004 333 10070 21004 55083 70000;EQDQ01  00002PRCP24
0159106400999992000022709004+50120+008730FM-12+011299999V0200901N000512200019N0150001N1+00301-00051103151ADDGA1011+012009059GF101991011051012501001011MA1999999101941MD1410001+9999REMSYN076AAXX  27094 10640 42665 10901 10030 21005 30194 40315 54000 81501 333 81640;
0165106400999992000022712004+50120+008730FM-12+011299999V0201901N002612200019N0250001N1+00971+00271102961ADDGA1011+009009089GF103991011011008001001011MA1999999101781MD1710161+9999REMSYN082AAXX  27124 10640 42575 31905 10097 20027 30178 40296 57016 81101 333 81830 84075;
0159106400999992000022715004+50120+008730FM-12+011299999V0201801N002612200019N0250001N1+01201+00311102741ADDGA1041+075009019GF104991001001999999001011MA1999999101571MD1710211+9999REMSYN076AAXX  27154 10640 42975 41805 10120 20031 30157 40274 57021 80001 333 84075;
0133106400999992000022718004+50120+008730FM-12+011299999V0201901N002112200019N0200001N1+01111+00371102631ADDGF103991021001999999031011MA1999999101461MD1110111+9999REMSYN066AAXX  27184 10640 42970 31904 10111 20037 30146 40263 51011 82031;
0252106400999992000022806004+50120+008730FM-12+011299999V0202201N001012200019N0200001N1+00231+00091102011ADDAA124000091GA1021+030009079GF102991021001999999031011GJ105049IA1099IA2999+00209KA1120M+01111KA2120N+00231MA1999999100811MD1710141+9999REMSYN106AAXX  28064 10640 42970 22202 10023 20009 30081 40201 57014 82031 333 10111 20023 31002 55084 70000 82360;
0163106400999992000022809004+50120+008730FM-12+011299999V0202101N002112200019N0180001N1+00981+00381101871ADDGA1011+030009079GF102991011001999999031011MD1810111+9999REMSYN076AAXX  28094 10640 42968 22104 10098 20038 31007 40187 58011 81031 333 81360;EQDQ01+010071APOSP 
0159106400999992000022815004+50120+008730FM-12+011299999V0202101N005110120019N0200001N1+01601+00561101521ADDGA1061+012009059GF106991061051012501999999MA1999999100381MD1710151+9999REMSYN076AAXX  28154 10640 42670 62110 10160 20056 30038 40152 57015 865// 333 86640;
0231106400999992000022818004+50120+008730FM-12+011299999V0202301N006710120019N0150001N1+01301+00601101731ADDAY121061AY211061GA1051+012009069GF107991051051012501071999KA1120M+01631KA2120N+00231MA1999999100581MD1210051+9999MW1611REMSYN100AAXX  28184 10640 41665 72313 10130 20060 30058 40173 52005 76121 8557/ 333 10163 20023 85640 87360;
0262106400999992000022906004+50120+008730FM-12+011299999V0201801N002110750019N0280001N1+00581+00341102151ADDAA124000891AY181061AY211061GA1021+012009069GF105991021051012501001021GJ103369KA1120M+01291KA2120N+00561MA1999999100961MD1810091+9999MW1921REMSYN112AAXX  29064 10640 41678 51804 10058 20034 30096 40215 58009 79281 82502 333 10129 20056 55056 70008 82640 85075;
0159106400999992000022909004+50120+008730FM-12+011299999V0202001N003110099019N0150001N1+00791+00451101951ADDGA1071+009909059GF107991071051012501999999MA1999999100771MD1710191+9999REMSYN076AAXX  29094 10640 42665 72006 10079 20045 30077 40195 57019 875// 333 87633;
0198106400999992000022912004+50120+008730FM-12+011299999V0201901N004610300019N0250001N1+00891+00411101601ADDAA199000021GA1031+007809089GA2081+030009049GF108991031021008001011999MA1999999100431MD1810341+9999REMSYN088AAXX  29124 10640 32575 81909 10089 20041 30043 40160 58034 8321/ 333 83826 88460 91113;
0237106400999992000022915004+50120+008730FM-12+011299999V0201901N004610120019N0250001N1+00791+00201101181ADDAY121031AY221031GA1021+007809089GA2041+012009069GA3081+030009049GF108991081071008001999999MA1999999100011MD1710111+9999MW1251REMSYN100AAXX  29154 10640 41575 81909 10079 20020 30001 40118 57011 72522 887// 333 82826 84640 88460 91113;
0253106400999992000022918004+50120+008730FM-12+011299999V0201801N003110099019N0200001N1+00731+00441100731ADDAY161061AY221061GA1041+007209069GA2081+009909069GF108991071051008001999999KA1120M+00961KA2120N+00581MA1999999099561MD1710461+9999MW1601REMSYN106AAXX  29184 10640 41570 81806 10073 20044 39956 40073 57046 76062 875// 333 10096 20058 84624 88633 91113;
0301106400999992000030106004+50120+008730FM-12+011299999V0202101N004110135019N0250001N1+00761+00321100251ADDAA124004091AY161061AY221061GA1021+009009069GA2071+013509069GF107991071051008001999999GJ100369KA1120M+00801KA2120N+00701MA1999999099091MD1310021+9999MW1021OA149900671REMSYN124AAXX  01064 10640 41575 72108 10076 20032 39909 40025 53002 70262 875// 333 10080 20070 55006 70040 82630 87645 91113 91211;
0215106400999992000030109004+50120+008730FM-12+011299999V0202301N00311030001CN0350001N1+00801+00171100441ADDAY161031AY221031GA1011+007809089GA2031+030009039GF108991031081008001031021MA1999999099291MD1210201+9999MW1031REMSYN094AAXX  01094 10640 41581 82306 10080 20017 39929 40044 52020 70362 83832 333 81826 83360 88074;
0237106400999992000030115004+50120+008730FM-12+011299999V0202401N001510078019N0250001N1+00571+00251100431ADDAY161031AY221031GA1011+003909089GA2051+007809089GA3071+027009039GF107991051081004501031999MA1999999099261MD1310041+9999MW1251REMSYN100AAXX  01154 10640 41475 72403 10057 20025 39926 40043 53004 72562 8583/ 333 81813 85826 87359 91116;
0272106400999992000030118004+50120+008730FM-12+011299999V0203101N002610084019N0250001N1+00581+00061100821ADDAY181061AY261061GA1021+004809089GA2071+008409069GF107991071081004501999999KA1120M+00861KA2120N+99999MA1999999099651MD1210391+9999MW1601REMSYN106AAXX  01184 10640 41475 73105 10058 20006 39965 40082 52039 76086 878// 333 10086 20070 82816 87628 91116;EQDQ01 +00702ATMN  
0315106400999992000030206004+50120+008730FM-12+011299999V0202501N002610099019N0250001N1+00361-00041102221ADDAA124000591AY151061AY221061GA1021+009009089GA2041+009909069GA3061+012909069GF106991061081008001001001KA1120M+00591KA2120N+00361MA1999999101021MD1210321+9999MW1021OA149900881REMSYN130AAXX  02064 10640 41575 62505 10036 21004 30102 40222 52032 70252 86800 333 10059 20036 50002 70005 82830 84633 86643 91117 91211;
0159106400999992000030209004+50120+008730FM-12+011299999V0202801N003112200019N0350001N1+00451-00171102511ADDGA1031+006909029GF103991031021008001001011MA1999999101311MD1210291+9999REMSYN076AAXX  02094 10640 42581 32806 10045 21017 30131 40251 52029 83201 333 83823;
0193106400999992000030212004+50120+008730FM-12+011299999V0202401N00361007501CN0250001N1+00571-00201102491ADDAY181061AY211061GA1021+006009099GF106991061031008001001001MA1999999101301MD1810011+9999MW1251REMSYN088AAXX  02124 10640 41575 62407 10057 21020 30130 40249 58001 72581 86300 333 82920 84826;
0187106400999992000030215004+50120+008730FM-12+011299999V0202301N002610750019N0500001N1+00691-00301102371ADDGA1021+009009089GA2041+012009089GF106991041021008001001021MA1999999101181MD1710111+9999REMSYN088AAXX  02154 10640 42584 62305 10069 21030 30118 40237 57011 84202 333 82830 84840 91113;
0225106400999992000030218004+50120+008730FM-12+011299999V0202101N00411013501CN0300001N1+00581-00011102231ADDGA1021+012009089GA2031+013509069GF107991041041012501001011KA1120M+00721KA2120N+00361MA1999999101041MD1710131+9999REMSYN100AAXX  02184 10640 42680 72108 10058 21001 30104 40223 57013 84401 333 10072 20036 82840 83645 91113;
0262106400999992000030306004+50120+008730FM-12+011299999V0202101N005710060019N0300001N1+00651+00201101171ADDAA124000391AY161061AY221061GA1071+006009069GF108991071051004501999999GJ102709KA1120M+00651KA2120N+00521MA1999999100001MD1710201+9999MW1211REMSYN112AAXX  03064 10640 41480 82111 10065 20020 30000 40117 57020 72162 875// 333 10065 20052 55045 70003 87620 91115;
0210106400999992000030309004+50120+008730FM-12+011299999V0202101N007210060019N0160001N1+00731+00341100871ADDAY161031AY221031GA1081+006009069GF108991081051008001999999MA1999999099701MD1810301+9999MW1211OA149901181REMSYN094AAXX  03094 10640 41566 82114 10073 20034 39970 40087 58030 72162 885// 333 88620 91123 91216;
0210106400999992000030312004+50120+008730FM-12+011299999V0202101N007710078019N0180001N1+00781+00341100721ADDAY161061AY221061GA1071+007809069GF108991071051008001999999MA1999999099561MD1810141+9999MW1211OA149901291REMSYN094AAXX  03124 10640 41568 82115 10078 20034 39956 40072 58014 72162 875// 333 87626 91125 91218;
0232106400999992000030315004+50120+008730FM-12+011299999V0202001N006210060019N0300001N1+00831+00511100701ADDAY161031AY221031GA1041+005109069GA2081+006009069GF108991081051004501999999MA1999999099541MD1710171+9999MW1211OA149901291REMSYN100AAXX  03154 10640 41480 82012 10083 20051 39954 40070 57017 72162 885// 333 84617 88620 91125 91217;
0292106400999992000030318004+50120+008730FM-12+011299999V0203601N001510039019N0050001N1+00451+00281100951ADDAY161061AY221061GA1041+003309079GA2061+003909069GA3081+005109069GF108991081051004501999999KA1120M+00871KA2120N+00451MA1999999099781MD1310241+9999MW1631OA149901291REMSYN118AAXX  03184 10640 11450 83603 10045 20028 39978 40095 53024 76362 885// 333 10087 20045 84711 86613 88617 91125 91218;
0262106400999992000030406004+50120+008730FM-12+011299999V0202701N00261009001CN0300001N1+00311+00011101511ADDAA124018691AY161061AY221061GA1011+003909089GF106991061081004501001001GJ100009KA1120M+00471KA2120N+00311MA1999999100321MD1210411+9999MW1211REMSYN112AAXX  04064 10640 41480 62705 10031 20001 30032 40151 52041 72162 86800 333 10047 20031 55000 70186 81813 86625;
0159106400999992000030409004+50120+008730FM-12+011299999V0202901N00361009001CN0300001N1+00391-00271102001ADDGA1041+004809029GF106991051081004501031001MA1999999100801MD1210481+9999REMSYN076AAXX  04094 10640 42480 62907 10039 21027 30080 40200 52048 85830 333 84816;
0253106400999992000030418004+50120+008730FM-12+011299999V0202901N003610300019N0300001N1+00191-00341102561ADDAY181061AY211061GA1011+003009089GA2031+007509069GF105991031081004501031011KA1120M+00521KA2120N+00091MA1999999101351MD1210221+9999MW1011REMSYN106AAXX  04184 10640 41480 52907 10019 21034 30135 40256 52022 70181 83831 333 10052 20009 81810 83625 85360;
0256106400999992000030506004+50120+008730FM-12+011299999V0202301N003119999999N0300001N1+00041-00291103291ADDAA124000691AY181061AY211061GA1011+007509089GF105991999999008001999999GJ103909KA1120M+00221KA2120N+00011MA1999999102061MD1210121+9999MW1261REMSYN106AAXX  05064 10640 11580 52306 10004 21029 30206 40329 52012 72681 333 10022 20001 55065 70006 81825 83650;
0165106400999992000030509004+50120+008730FM-12+011299999V0202601N002610300019N0300001N1+00291-00291103421ADDGA1031+007509089GF105991041081012501031011MA1999999102201MD1210201+9999REMSYN082AAXX  05094 10640 42680 52605 10029 21029 30220 40342 52020 84831 333 83825 83625;
0169106400999992000030512004+50120+008730FM-12+011299999V0202401N002610750019N0400001N1+00561-00271103471ADDGA1031+007509089GF105991031021008001001021MD1110061+9999REMSYN082AAXX  05124 10640 42582 52405 10056 21027 30026 40347 51006 83202 333 83825 85075;EQDQ01+100263APOSP 
0187106400999992000030515004+50120+008730FM-12+011299999V0202701N00311030001CN0300001N1+00581-00431103351ADDGA1031+009009089GA2041+012009069GF107991041081008001031011MA1999999102151MD1710091+9999REMSYN088AAXX  05154 10640 42580 72706 10058 21043 30215 40335 57009 84831 333 83830 84640 86075;
0225106400999992000030518004+50120+008730FM-12+011299999V0202701N002110150019N0300001N1+00511-00241103451ADDGA1031+012009089GA2041+015009069GF107991061081012501031011KA1120M+00631KA2120N+00031MA1999999102241MD1210091+9999REMSYN100AAXX  05184 10640 42680 72704 10051 21024 30224 40345 52009 86831 333 10063 20003 83840 84650 86075;
0228106400999992000030606004+50120+008730FM-12+011299999V0202101N003110150019N0210001N1+00261-00281103371ADDAA124999929GA1061+015009059GF106991061051017501999011GJ103069KA1120M+00561KA2120N+00241MA1999999102151MD1610041+9999REMSYN100AAXX  06064 10640 42771 62106 10026 21028 30215 40337 56004 865/1 333 10056 20024 55051 79999 86650;
0159106400999992000030609004+50120+008730FM-12+011299999V0202101N003112200019N0230001N1+00451-00271103361ADDGA1011+072009019GF101991001001999999001011MA1999999102151MD1010001+9999REMSYN076AAXX  06094 10640 42973 12106 10045 21027 30215 40336 50000 80001 333 81074;
0165106400999992000030612004+50120+008730FM-12+011299999V0202101N002112200019N0200001N1+00881-00091103141ADDGA1011+015009089GF104991011041999999001011MA1999999101941MD1710191+9999REMSYN082AAXX  06124 10640 41970 42104 10088 21009 30194 40314 57019 81401 333 81850 84075;
0165106400999992000030615004+50120+008730FM-12+011299999V0202301N00411075001CN0250001N1+01011-00261102951ADDGA1011+015009089GF105991011011017501031011MA1999999101771MD1710171+9999REMSYN082AAXX  06154 10640 41775 52308 10101 21026 30177 40295 57017 81131 333 81850 85074;
0197106400999992000030618004+50120+008730FM-12+011299999V0202101N002112200019N0250001N1+00851-00211102891ADDGA1031+027009079GF103991031001999999041011KA1120M+01041KA2120N+00211MA1999999101701MD1710081+9999REMSYN088AAXX  06184 10640 42975 32104 10085 21021 30170 40289 57008 83041 333 10104 20021 83359;
0234106400999992000030706004+50120+008730FM-12+011299999V0202001N00311007501CN0250001N1+00481-00151102711ADDAA124000091GA1021+008109069GF107991071051008001999999GJ106069KA1120M+00881KA2120N+00411MA1999999101511MD1710041+9999REMSYN106AAXX  07064 10640 42575 72006 10048 21015 30151 40271 57004 875// 333 10088 20041 55101 70000 82627 86633;
0159106400999992000030709004+50120+008730FM-12+011299999V0202101N004110099019N0180001N1+00661-00021102761ADDGA1051+009909059GF107991051051012501031001MA1999999101571MD1310061+9999REMSYN076AAXX  07094 10640 42668 72108 10066 21002 30157 40276 53006 85530 333 85633;
0165106400999992000030712004+50120+008730FM-12+011299999V0202101N005110300019N0180001N1+00851+00231102691ADDGA1041+007209069GF105991041051008001041001MA1999999101511MD1810061+9999REMSYN082AAXX  07124 10640 42568 52110 10085 20023 30151 40269 58006 84540 333 84624 83336;
0187106400999992000030715004+50120+008730FM-12+011299999V0202001N005110270019N0250001N1+01121+00441102471ADDGA1041+007509069GA2071+027009039GF107991041051008001031999MA1999999101301MD1710211+9999REMSYN088AAXX  07154 10640 42575 72010 10112 20044 30130 40247 57021 8453/ 333 84625 87359 91113;
0281106400999992000030806004+50120+008730FM-12+011299999V0202201N00461004201CN0210001N1+01001+00591102381ADDAA124999999AY151061AY221061GA1011+004509079GF108991081051004501999999GJ101689KA1120M+01131KA2120N+00991MA1999999101201MD1810031+9999MW1021REMSYN112AAXX  08064 10640 41471 82209 10100 20059 30120 40238 58003 70252 885// 333 10113 20099 55028 79999 81715 88625;EQDQ01  99992PRCP24
0215106400999992000030809004+50120+008730FM-12+011299999V0202101N004610078019N0170001N1+00981+00661102371ADDAY161031AY221031GA1031+003909079GA2081+007809069GF108991081051004501999999MA1999999101201MD1010001+9999MW1211REMSYN094AAXX  08094 10640 41467 82109 10098 20066 30120 40237 50000 72162 885// 333 83713 88626 91113;
0232106400999992000030812004+50120+008730FM-12+011299999V0202101N005710099019N0170001N1+01171+00621102261ADDAY161061AY221061GA1051+009909069GA2081+030009049GF108991051051012501071999MA1999999101101MD1710101+9999MW1021OA149900931REMSYN100AAXX  08124 10640 41667 82111 10117 20062 30110 40226 57010 70262 8557/ 333 85633 88460 91118 91212;
0232106400999992000030815004+50120+008730FM-12+011299999V0202201N005110078019N0180001N1+01141+00821102151ADDAY161031AY221031GA1051+007809069GA2071+030009039GF107991051051008001071999MA1999999100991MD1810111+9999MW1211OA149900881REMSYN100AAXX  08154 10640 41568 72210 10114 20082 30099 40215 58011 72162 8557/ 333 85626 87360 91117 91212;
0270106400999992000030818004+50120+008730FM-12+011299999V0202201N004110060019N0080001N1+01061+00911102221ADDAY161061AY221061GA1031+003009079GA2071+006009069GF108991071051004501999999KA1120M+01181KA2120N+00941MA1999999101051MD1310061+9999MW1581OA149900881REMSYN112AAXX  08184 10640 41458 82208 10106 20091 30105 40222 53006 75862 875// 333 10118 20094 83710 87620 91117 91212;
0323106400999992000030906004+50120+008730FM-12+011299999V0202101N005110057019N0180001N1+01181+00851102031ADDAA124002691AY161061AY221061GA1021+004209079GA2051+005709069GA3081+007509069GF108991081051004501999999GJ100009KA1120M+01241KA2120N+01051MA1999999100871MD1810051+9999MW1601OA149900821REMSYN130AAXX  09064 10640 11468 82110 10118 20085 30087 40203 58005 76062 885// 333 10124 20105 55000 70026 82714 85619 88625 91116 91212;
0215106400999992000030909004+50120+008730FM-12+011299999V0202101N003610078019N0150001N1+01191+00821102031ADDAY161031AY221031GA1031+003909079GA2081+007809069GF108991081051004501999999MA1999999100871MD1510001+9999MW1021REMSYN094AAXX  09094 10640 41465 82107 10119 20082 30087 40203 55000 70262 885// 333 83713 88626 91115;
0232106400999992000030912004+50120+008730FM-12+011299999V0202301N005110090019N0250001N1+01381+00841102121ADDAY161061AY251061GA1021+003909089GA2041+009009069GF107991071081004501999999MA1999999100971MD1110101+9999MW1021OA149900881REMSYN100AAXX  09124 10640 41475 72310 10138 20084 30097 40212 51010 70265 878// 333 82813 84630 91117 91211;
0209106400999992000030915004+50120+008730FM-12+011299999V0202301N005110102019N0400001N1+01391+00711102171ADDGA1021+006009089GA2041+010209089GA3061+012009069GF107991071081004501999999MA1999999101021MD1210031+9999REMSYN094AAXX  09154 10640 42482 72310 10139 20071 30102 40217 52003 878// 333 82820 84834 86640 91115;
0247106400999992000030918004+50120+008730FM-12+011299999V0202801N003610102019N0250001N1+01371+00581102241ADDGA1021+006009089GA2041+010209069GA3071+013209069GF107991071081004501999999KA1120M+01441KA2120N+01171MA1999999101081MD1210041+9999REMSYN106AAXX  09184 10640 42475 72807 10137 20058 30108 40224 52004 878// 333 10144 20117 82820 84634 87644 91115;
0262106400999992000031006004+50120+008730FM-12+011299999V0203201N00151007501CN0180001N1+00891+00501102681ADDAA124000391AY161061AY221061GA1021+007509069GF107991071051008001999999GJ100489KA1120M+01381KA2120N+00881MA1999999101501MD1210171+9999MW1211REMSYN112AAXX  10064 10640 41568 73203 10089 20050 30150 40268 52017 72162 875// 333 10138 20088 55008 70003 82625 87650;
0193106400999992000031009004+50120+008730FM-12+011299999V0200101N002110078019N0200001N1+00691+00151102911ADDAY161031AY221031GA1071+007809069GF107991071051008001999999MA1999999101721MD1310221+9999MW1031REMSYN088AAXX  10094 10640 41570 70104 10069 20015 30172 40291 53022 70362 875// 333 87626 91113;
0215106400999992000031012004+50120+008730FM-12+011299999V0203001N002110300019N0200001N1+00831+00091102951ADDAY161061AY221061GA1021+007809089GA2061+030009039GF106991021011008001031001MA1999999101761MD1010041+9999MW1011REMSYN094AAXX  10124 10640 41570 63004 10083 20009 30176 40295 50004 70162 82130 333 82826 86360 91113;
0187106400999992000031015004+50120+008730FM-12+011299999V0202901N00151030001CN0250001N1+01021+00381102741ADDGA1011+009009089GA2031+012009069GF106991031081008001031011MA1999999101561MD1710221+9999REMSYN088AAXX  10154 10640 42575 62903 10102 20038 30156 40274 57022 83831 333 81830 83640 85075;
0203106400999992000031018004+50120+008730FM-12+011299999V0202301N00101012001CN0200001N1+01051+00491102551ADDGA1031+010509069GF107991071051012501999999KA1120M+01091KA2120N+00651MA1999999101381MD1710161+9999REMSYN094AAXX  10184 10640 42670 72302 10105 20049 30138 40255 57016 875// 333 10109 20065 83635 87642;
0232106400999992000031112004+50120+008730FM-12+011299999V0202301N004110060019N0250001N1+01061+00691101701ADDAY151061AY221061GA1051+006009069GA2071+009609069GF108991071051008001999999MA1999999100541MD1310041+9999MW1201OA149900721REMSYN100AAXX  11124 10640 41575 82308 10106 20069 30054 40170 53004 72052 875// 333 85620 87632 91114 91211;
0204106400999992000031115004+50120+008730FM-12+011299999V0202901N003610150019N0200001N1+01131+00471101771ADDGA1031+009009089GA2061+015009069GF106991061081008001031001MA1999999100611MD1210071+9999OA149900721REMSYN094AAXX  11154 10640 42570 62907 10113 20047 30061 40177 52007 86830 333 83830 86650 91114 91211;
0242106400999992000031118004+50120+008730FM-12+011299999V0202801N004110180019N0200001N1+01071+00241102011ADDGA1041+012009069GA2061+018009069GF106991061051012501001011KA1120M+01161KA2120N+00901MA1999999100841MD1210231+9999OA149900721REMSYN106AAXX  11184 10640 42670 62808 10107 20024 30084 40201 52023 86501 333 10116 20090 84640 86656 91114 91210;
0234106400999992000031206004+50120+008730FM-12+011299999V0203001N00151007501CN0250001N1+00791+00381102641ADDAA124999929GA1011+007509069GF107991071051008001999999GJ100129KA1120M+01071KA2120N+00791MA1999999101451MD1210111+9999REMSYN106AAXX  12064 10640 42575 73003 10079 20038 30145 40264 52011 875// 333 10107 20079 55002 79999 81625 87640;
0159106400999992000031209004+50120+008730FM-12+011299999V0203601N001010120019N0200001N1+00821+00311102791ADDGA1071+012009059GF107991071051012501999999MA1999999101601MD1210151+9999REMSYN076AAXX  12094 10640 42670 73602 10082 20031 30160 40279 52015 875// 333 87640;
0165106400999992000031212004+50120+008730FM-12+011299999V0203401N001510120019N0200001N1+00931+00321102791ADDGA1021+007809089GF107991071081008001999999MA1999999101611MD1110071+9999REMSYN082AAXX  12124 10640 42570 73403 10093 20032 30161 40279 51007 878// 333 82826 86640;
0197106400999992000031218004+50120+008730FM-12+011299999V0203301N001010120019N0030001N1+00961+00171102691ADDGA1071+012009059GF107991071061012501999999KA1120M+01001KA2120N+00781MA1999999101511MD1210011+9999REMSYN088AAXX  12184 10640 42630 73302 10096 20017 30151 40269 52001 876// 333 10100 20078 87640;
0247106400999992000031306004+50120+008730FM-12+011299999V0209999C000010120019N0200001N1+00721+00231102771ADDAA124999999GA1071+012009059GF107991071051008001999999GJ100009KA1120M+00971KA2120N+00681MA1999999101581MD1210031+9999REMSYN100AAXX  13064 10640 42570 70000 10072 20023 30158 40277 52003 875// 333 10097 20068 55000 79999 87640;EQDQ01  99992PRCP24
0165106400999992000031309004+50120+008730FM-12+011299999V0201701N000510300019N0300001N1+00851+00091102781ADDGA1011+012009069GF105991011051012501031001MA1999999101601MD1010041+9999REMSYN082AAXX  13094 10640 42680 51701 10085 20009 30160 40278 50004 81530 333 81640 85360;
0203106400999992000031318004+50120+008730FM-12+011299999V0201801N001519999999N0250001N1+01161+00171102521ADDGA1041+030009039GF105991051001999999071011KA1120M+01381KA2120N+00701MA1999999101351MD1610021+9999REMSYN094AAXX  13184 10640 42975 51803 10116 20017 30135 40252 56002 85071 333 10138 20070 84360 84460;
0284106400999992000031406004+50120+008730FM-12+011299999V0202201N002110090019N0110001N1+00951+00791102321ADDAA124000391AY161061AY221061GA1021+004509079GA2061+009009069GF108991061051004501071999GJ104629KA1120M+01161KA2120N+00951MA1999999101151MD1610131+9999MW1581REMSYN118AAXX  14064 10640 11461 82204 10095 20079 30115 40232 56013 75862 8657/ 333 10116 20095 55077 70003 82715 86630 88360;
0215106400999992000031409004+50120+008730FM-12+011299999V0202101N003110060019N0090001N1+00941+00851102131ADDAY161031AY221031GA1021+004509079GA2051+006009069GF108991051051004501021999MA1999999101061MD1710091+9999MW1611REMSYN094AAXX  14094 10640 41459 82106 10094 20085 30106 40213 57009 76162 8552/ 333 82715 85620 88460;
0193106400999992000031412004+50120+008730FM-12+011299999V0201901N00361004201CN0100001N1+01051+00931102021ADDAY161061AY221061GA1021+004509079GF108991081051004501999999MA1999999100851MD1710211+9999MW1211REMSYN088AAXX  14124 10640 41460 81907 10105 20093 30085 40202 57021 72162 885// 333 82715 88620;
0215106400999992000031415004+50120+008730FM-12+011299999V0202201N005110090019N0100001N1+01271+00881101651ADDAY161031AY221031GA1011+006009089GA2061+009009069GF108991061081008001031999MA1999999100501MD1710351+9999MW1211REMSYN094AAXX  14154 10640 41560 82210 10127 20088 30050 40165 57035 72162 8683/ 333 81820 86630 86360;
0253106400999992000031418004+50120+008730FM-12+011299999V0202801N004610078019N0100001N1+01071+00861101641ADDAY161061AY221061GA1021+005709089GA2061+007809069GF108991061081004501041999KA1120M+01371KA2120N+00891MA1999999100481MD1610051+9999MW1611REMSYN106AAXX  14184 10640 41460 82809 10107 20086 30048 40164 56005 76162 8684/ 333 10137 20089 82819 86626 88460;
0226106400999992000031506004+50120+008730FM-12+011299999V0203101N00261012001CN0300001N1+00391-00251102731ADDAA124003791GA1021+009009089GF106991061081008001031001KA1120M+01371KA2120N+00391MA1999999101531MD1210301+9999REMSYN106AAXX  15064 10640 42580 63105 10039 21025 30153 40273 52030 86830 333 10137 20039 5004/ 70037 82830 86656;
0159106400999992000031509004+50120+008730FM-12+011299999V0203001N003610750019N0250001N1+00511-00231102991ADDGA1041+007809029GF105991041021008001001021MA1999999101791MD1310261+9999REMSYN076AAXX  15094 10640 42575 53007 10051 21023 30179 40299 53026 84202 333 84826;
0210106400999992000031512004+50120+008730FM-12+011299999V0203001N003610078019N0200001N1+00641-00341103051ADDAY181061AY211061GA1061+007809089GF106991061021008001001001MA1999999101851MD1110061+9999MW1261OA149900721REMSYN094AAXX  15124 10640 41570 63007 10064 21034 30185 40305 51006 72681 86200 333 86826 91114 96285;
0187106400999992000031515004+50120+008730FM-12+011299999V0202801N004610150019N0300001N1+00741-00361103041ADDGA1031+007509089GA2061+015009069GF106991061081008001001001MA1999999101851MD1510001+9999REMSYN088AAXX  15154 10640 42580 62809 10074 21036 30185 40304 55000 86800 333 83825 86650 91113;
0247106400999992000031518004+50120+008730FM-12+011299999V0202701N001510150019N0300001N1+00681-00071103071ADDGA1021+006909089GA2051+015009069GA3071+027009039GF108991051081008001071999KA1120M+00771KA2120N+00371MA1999999101871MD1110021+9999REMSYN106AAXX  15184 10640 42580 82703 10068 21007 30187 40307 51002 8587/ 333 10077 20037 82823 85650 87359 91113;
0301106400999992000031606004+50120+008730FM-12+011299999V0202801N003610060019N0120001N1+00741+00511102611ADDAA124999929AY161061AY221061GA1041+004509069GA2071+006009069GF107991071051004501999999GJ103309KA1120M+00751KA2120N+00571MA1999999101421MD1410001+9999MW1601OA149900881REMSYN124AAXX  16064 10640 41462 72807 10074 20051 30142 40261 54000 76062 875// 333 10075 20057 55055 79999 84615 87620 91117 91211;
0187106400999992000031609004+50120+008730FM-12+011299999V0203001N003610078019N0300001N1+00901+00441102751ADDAY161031AY221031GA1051+007809059GF106991051051008001001011MA1999999101571MD1210151+9999MW1211REMSYN082AAXX  16094 10640 41580 63007 10090 20044 30157 40275 52015 72162 85501 333 85626;
0193106400999992000031612004+50120+008730FM-12+011299999V0203101N003110090019N0250001N1+00971+00371102801ADDAY161061AY221061GA1071+009009069GF107991071051008001999999MA1999999101621MD1110051+9999MW1021REMSYN088AAXX  16124 10640 41575 73106 10097 20037 30162 40280 51005 70262 875// 333 87630 91114;
0187106400999992000031615004+50120+008730FM-12+011299999V0203101N002610078019N0250001N1+00991+00561102841ADDAY161031AY221031GA1071+007809059GF108991071051008001999999MA1999999101661MD1310041+9999MW1601REMSYN082AAXX  16154 10640 41575 83105 10099 20056 30166 40284 53004 76062 875// 333 87626;
0225106400999992000031618004+50120+008730FM-12+011299999V0203201N002610075019N0250001N1+00981+00631102881ADDAY161061AY221061GA1071+007509059GF108991071051008001999999KA1120M+01021KA2120N+00741MA1999999101701MD1010041+9999MW1601REMSYN094AAXX  16184 10640 41575 83205 10098 20063 30170 40288 50004 76062 875// 333 10102 20074 87625;
0234106400999992000031706004+50120+008730FM-12+011299999V0203101N00411007501CN0180001N1+00961+00471102641ADDAA124000091GA1031+006009069GF108991081051008001999999GJ100309KA1120M+01011KA2120N+00881MA1999999101461MD1710081+9999REMSYN106AAXX  17064 10640 42568 83108 10096 20047 30146 40264 57008 885// 333 10101 20088 55005 70000 83620 87630;
0193106400999992000031712004+50120+008730FM-12+011299999V0203101N004610090019N0200001N1+01091+00541102571ADDAY161061AY221061GA1051+009009069GF107991051051008001031999MA1999999101391MD1710041+9999MW1031REMSYN088AAXX  17124 10640 41570 73109 10109 20054 30139 40257 57004 70362 8553/ 333 85630 87360;
0232106400999992000031715004+50120+008730FM-12+011299999V0203201N003110075019N0200001N1+01051+00601102531ADDAY161031AY221031GA1031+005409069GA2071+007509069GF107991071051004501999999MA1999999101361MD1710051+9999MW1021OA149900881REMSYN100AAXX  17154 10640 41470 73206 10105 20060 30136 40253 57005 70262 875// 333 83618 87625 91117 91211;
0242106400999992000031718004+50120+008730FM-12+011299999V0203101N003610066019N0150001N1+00951+00701102621ADDGA1041+004509069GA2071+006609069GF107991071051004501999999KA1120M+01121KA2120N+00931MA1999999101441MD1310091+9999OA149900881REMSYN106AAXX  17184 10640 42465 73107 10095 20070 30144 40262 53009 875// 333 10112 20093 84615 87622 91117 91211;
0253106400999992000031806004+50120+008730FM-12+011299999V0203301N004119999999N0250001N1+00821+00461102651ADDAA124999999GA1021+008109019GF108991081999008001999999GJ100309KA1120M+00991KA2120N+00821MA1999999101461MD1410001+9999REMSYN106AAXX  18064 10640 42575 83308 10082 20046 30146 40265 54000 88/// 333 10099 20082 55005 79999 82127 87637;EQDQ01  99992PRCP24
0165106400999992000031809004+50120+008730FM-12+011299999V0203301N00261030001CN0400001N1+00861+00441102701ADDGA1041+005409069GF107991041051004501071999MA1999999101521MD1210061+9999REMSYN082AAXX  18094 10640 42482 73305 10086 20044 30152 40270 52006 8457/ 333 84618 87359;
0165106400999992000031812004+50120+008730FM-12+011299999V0203201N00151007501CN0350001N1+01001+00431102691ADDGA1041+006009069GF107991071051008001999999MA1999999101511MD1710011+9999REMSYN082AAXX  18124 10640 42581 73203 10100 20043 30151 40269 57001 875// 333 84620 86640;
0187106400999992000031815004+50120+008730FM-12+011299999V0203001N002110045019N0300001N1+00941+00601102601ADDGA1021+003609089GA2041+004509069GF107991071081004501999999MA1999999101421MD1710081+9999REMSYN088AAXX  18154 10640 42480 73004 10094 20060 30142 40260 57008 878// 333 82812 84615 87636;
0253106400999992000031818004+50120+008730FM-12+011299999V0203301N002610045019N0200001N1+00841+00581102691ADDAY121061AY221061GA1021+002709089GA2031+004509069GF107991071081004501999999KA1120M+01041KA2120N+00811MA1999999101511MD1210071+9999MW1211REMSYN106AAXX  18184 10640 42470 73305 10084 20058 30151 40269 52007 72122 878// 333 10104 20081 82809 83615 87630;
0234106400999992000031906004+50120+008730FM-12+011299999V0203601N00211004201CN0250001N1+00601+00281103151ADDAA124000391GA1031+004809069GF108991071051004501999999GJ100009KA1120M+00861KA2120N+00571MA1999999101951MD1310121+9999REMSYN106AAXX  19064 10640 42475 83604 10060 20028 30195 40315 53012 875// 333 10086 20057 55000 70003 83616 87650;
0159106400999992000031909004+50120+008730FM-12+011299999V0203401N002610075019N0230001N1+00611+00341103261ADDGA1071+007509059GF107991071051008001999999MA1999999102061MD1110111+9999REMSYN076AAXX  19094 10640 42573 73405 10061 20034 30206 40326 51011 875// 333 87625;
0165106400999992000031912004+50120+008730FM-12+011299999V0203501N00361012001CN0250001N1+00801+00191103301ADDGA1041+006309089GF107991071081008001031999MA1999999102111MD1210031+9999REMSYN082AAXX  19124 10640 42575 73507 10080 20019 30211 40330 52003 8783/ 333 84821 86630;
0165106400999992000031915004+50120+008730FM-12+011299999V0200101N003112200019N0350001N1+00961-00101103101ADDGA1031+012009089GF104991031011012501001011MA1999999102011MD1710081+9999REMSYN082AAXX  19154 10640 42681 40106 10096 21010 30201 40310 57008 83101 333 83840 83075;
0203106400999992000031918004+50120+008730FM-12+011299999V0200101N002119999999N0400001N1+00891-00091103181ADDGA1011+030009039GF106991011001999999031011KA1120M+01041KA2120N+00591MA1999999101991MD1710011+9999REMSYN094AAXX  19184 10640 42982 60104 10089 21009 30199 40318 57001 81031 333 10104 20059 81360 86075;
0234106400999992000032006004+50120+008730FM-12+011299999V0200401N001012200019N0250001N1+00381+00041103151ADDAA124000291GA1011+030009039GF104991011001999999031011GJ102529KA1120M+00891KA2120N+00321MA1999999101941MD1710081+9999REMSYN106AAXX  20064 10640 42975 40402 10038 20004 30194 40315 57008 81031 333 10089 20032 55042 70002 81360 83075;
0165106400999992000032009004+50120+008730FM-12+011299999V0200601N000519999999N0250001N1+00631+00091103161ADDGA1031+030009039GF107991031001999999031021MA1999999101961MD1210021+9999REMSYN082AAXX  20094 10640 42975 70601 10063 20009 30196 40316 52002 83032 333 83360 87074;
0165106400999992000032012004+50120+008730FM-12+011299999V0200501N00051030001CN0250001N1+00981-00081103021ADDGA1011+006009089GF106991011011008001031021MA1999999101841MD1810121+9999REMSYN082AAXX  20124 10640 42575 60501 10098 21008 30184 40302 58012 81132 333 81820 86074;
0165106400999992000032015004+50120+008730FM-12+011299999V0200201N001519999999N0300001N1+01131+00011102801ADDGA1041+027009039GF107991071001999999071021MA1999999101631MD1710201+9999REMSYN082AAXX  20154 10640 42980 70203 10113 20001 30163 40280 57020 87072 333 84359 86361;
0203106400999992000032018004+50120+008730FM-12+011299999V0201901N001019999999N0250001N1+01061-00041102711ADDGA1041+027009039GF106991061001999999031999KA1120M+01171KA2120N+00371MA1999999101541MD1710101+9999REMSYN094AAXX  20184 10640 42975 61902 10106 21004 30154 40271 57010 8603/ 333 10117 20037 84359 85461;
0234106400999992000032106004+50120+008730FM-12+011299999V0200601N001012200019N0120001N1+00251+00121102591ADDAA124000091GA1021+030009039GF104991021001999999031011GJ102049KA1120M+01071KA2120N+00161MA1999999101981MD1610041+9999REMSYN106AAXX  21064 10640 42962 40602 10025 20012 30198 40259 56004 82031 333 10107 20016 55034 70000 82360 84075;
0159106400999992000032109004+50120+008730FM-12+011299999V0200201N001010720019N0120001N1+99999+99999102621ADDGA1071+072009019GF107991001001999999001021MA1999999101441MD1110061+9999REMSYN076AAXX  21094 10640 42962 70202 1072/ 20033 30144 40262 51006 80002 333 87074;
0159106400999992000032112004+50120+008730FM-12+011299999V0203501N001010720019N0140001N1+01171+00131102461ADDGA1051+072009019GF105991001001999999001011MA1999999101301MD1710141+9999REMSYN076AAXX  21124 10640 42964 53502 10117 20013 30130 40246 57014 80001 333 85074;
0159106400999992000032115004+50120+008730FM-12+011299999V0200201N001012200019N0180001N1+01541-00201102211ADDGA1021+075009019GF102991001001999999001011MA1999999101061MD1710231+9999REMSYN076AAXX  21154 10640 42968 20202 10154 21020 30106 40221 57023 80001 333 82075;
0197106400999992000032118004+50120+008730FM-12+011299999V0200301N001012200019N0180001N1+01351-00221102151ADDGA1021+075009019GF102991001001999999001011KA1120M+01581KA2120N+00231MA1999999100991MD1710081+9999REMSYN088AAXX  21184 10640 42968 20302 10135 21022 30099 40215 57008 80001 333 10158 20023 82075;
0228106400999992000032206004+50120+008730FM-12+011299999V0200601N001012200019N0120001N1+00281+00111102081ADDAA124000091GA1011+075009019GF101991001001999999001011GJ105769KA1120M+01361KA2120N+00261MA1999999100881MD1710031+9999REMSYN100AAXX  22064 10640 42962 10602 10028 20011 30088 40208 57003 80001 333 10136 20026 55096 70000 81075;
0143106400999992000032209004+50120+008730FM-12+011299999V0201601N000512200019N0150001N1+00751+00251102111ADDGA1001+999999999GF100991001001999999001001MA1999999100931MD1110051+9999REMSYN060AAXX  22094 10640 42965 01601 10075 20025 30093 40211 51005;
0159106400999992000032212004+50120+008730FM-12+011299999V0202201N001512200019N0150001N1+01451+00271101971ADDGA1041+072009019GF104991001001999999001021MA1999999100821MD1710111+9999REMSYN076AAXX  22124 10640 42965 42203 10145 20027 30082 40197 57011 80002 333 84074;
0159106400999992000032215004+50120+008730FM-12+011299999V0202401N002612200019N0200001N1+01711+00031101741ADDGA1031+075009019GF103991001001999999001011MA1999999100601MD1710221+9999REMSYN076AAXX  22154 10640 42970 32405 10171 20003 30060 40174 57022 80001 333 83075;
0197106400999992000032218004+50120+008730FM-12+011299999V0201801N002112200019N0120001N1+01641+00191101671ADDGA1041+075009019GF104991001001999999001011KA1120M+01741KA2120N+00241MA1999999100531MD1610131+9999REMSYN088AAXX  22184 10640 42962 41804 10164 20019 30053 40167 56013 80001 333 10174 20024 84075;
0228106400999992000032306004+50120+008730FM-12+011299999V0200401N000512200019N0150001N1+00471+00301101731ADDAA124000091GA1021+075009019GF102991001001999999001011GJ106249KA1120M+01641KA2120N+00421MA1999999100541MD1410001+9999REMSYN100AAXX  23064 10640 42965 20401 10047 20030 30054 40173 54000 80001 333 10164 20042 55104 70000 82075;
0159106400999992000032309004+50120+008730FM-12+011299999V0201101N000512200019N0150001N1+01041+00461101781ADDGA1031+072009019GF103991001001999999001011MA1999999100621MD1110081+9999REMSYN076AAXX  23094 10640 42965 31101 10104 20046 30062 40178 51008 80001 333 83074;
0189106400999992000032312004+50120+008730FM-12+011299999V0200501N000510720019N0150001N1+01581+00251101671ADDAA199000091GA1061+072009019GF106991001001999999001021MA1999999100531MD1210091+9999REMSYN076AAXX  23124 10640 32965 60501 10158 20025 30053 40167 52009 80002 333 86074;EQDQ01  00002PRCP99
0178106400999992000032315004+50120+008730FM-12+011299999V0202001N001510720019N0150001N1+01701-00061101451ADDGA1081+072009089GF108991999001999999001071MA1999999100321MD1710211+9999REMSYN076AAXX  23154 10640 42965 82003 10170 21006 30032 40145 57021 80007 333 88274;EQDQ01+000002SCOTLC
0203106400999992000032318004+50120+008730FM-12+011299999V0200801N001519999999N0150001N1+01651+00391101281ADDGA1041+027009039GF108991041001999999031071KA1120M+01781KA2120N+00441MA1999999100151MD1710171+9999REMSYN094AAXX  23184 10640 42965 80803 10165 20039 30015 40128 57017 84037 333 10178 20044 84359 88274;
0234106400999992000032406004+50120+008730FM-12+011299999V0201701N00151015001CN0180001N1+01061+00891101131ADDAA124000391GA1031+015009069GF106991061051017501031999GJ104269KA1120M+01671KA2120N+01041MA1999999099971MD1110011+9999REMSYN106AAXX  24064 10640 42768 61703 10106 20089 39997 40113 51001 8653/ 333 10167 20104 55071 70003 83650 86657;
0165106400999992000032409004+50120+008730FM-12+011299999V0202001N00261012001CN0200001N1+01221+00781101151ADDGA1021+009909069GF106991061051012501031011MA1999999100001MD1010031+9999REMSYN082AAXX  24094 10640 42670 62005 10122 20078 30000 40115 50003 86531 333 82633 84657;
0215106400999992000032412004+50120+008730FM-12+011299999V0202201N004110120019N0250001N1+01581+00661101101ADDAY161061AY221061GA1031+007809089GA2071+012009069GF107991071081008001999999MA1999999099971MD1810031+9999MW1021REMSYN094AAXX  24124 10640 41575 72208 10158 20066 39997 40110 58003 70262 878// 333 83826 87640 91113;
0204106400999992000032415004+50120+008730FM-12+011299999V0202201N004610135019N0250001N1+01351+00761101191ADDGA1021+009009089GA2071+013509069GF107991071081008001999999MA1999999100051MD1310081+9999OA149900721REMSYN094AAXX  24154 10640 42575 72209 10135 20076 30005 40119 53008 878// 333 82830 87645 91114 91211;
0270106400999992000032418004+50120+008730FM-12+011299999V0202201N003110135019N0250001N1+01271+00751101281ADDAY181061AY221061GA1031+009009069GA2071+013509069GF107991071051008001999999KA1120M+01661KA2120N+01041MA1999999100131MD1210081+9999MW1021OA149900721REMSYN112AAXX  24184 10640 41575 72206 10127 20075 30013 40128 52008 70282 875// 333 10166 20104 83630 87645 91114 91211;
0262106400999992000032506004+50120+008730FM-12+011299999V0202101N002110129019N0100001N1+00831+00751101681ADDAA124003691AY161061AY221061GA1061+012909069GF108991061051012501071999GJ101389KA1120M+01271KA2120N+00811MA1999999100511MD1310051+9999MW1021REMSYN112AAXX  25064 10640 41660 82104 10083 20075 30051 40168 53005 70262 8657/ 333 10127 20081 55023 70036 86643 88359;
0193106400999992000032509004+50120+008730FM-12+011299999V0202101N00211030001CN0150001N1+01061+00761101751ADDAY161031AY221031GA1011+006009089GF107991011011008001031999MA1999999100591MD1210081+9999MW1021REMSYN088AAXX  25094 10640 41565 72104 10106 20076 30059 40175 52008 70262 8113/ 333 81820 87359;
0165106400999992000032512004+50120+008730FM-12+011299999V0201901N00311030001CN0200001N1+01341+00771101651ADDGA1031+006309089GF106991041081008001031001MA1999999100501MD1710081+9999REMSYN082AAXX  25124 10640 42570 61906 10134 20077 30050 40165 57008 84830 333 83821 85075;
0165106400999992000032515004+50120+008730FM-12+011299999V0202201N00361012001CN0250001N1+01501+00811101481ADDGA1031+006909089GF106991051081008001001011MA1999999100301MD1710161+9999REMSYN082AAXX  25154 10640 42575 62207 10150 20081 30030 40148 57016 85801 333 83823 88363;
0276106400999992000032606004+50120+008730FM-12+011299999V0202001N001510099019N0200001N1+00611+00551101371ADDAA124003291AY161061GA1021+007509069GA2061+009909069GF108991061051008001021999GJ101989KA1120M+01411KA2120N+00611MA1999999100191MD1210191+9999MW1211REMSYN118AAXX  26064 10640 41570 82003 10061 20055 30019 40137 52019 7216/ 8652/ 333 10141 20061 55033 70032 82625 86633 87460;
0165106400999992000032609004+50120+008730FM-12+011299999V0202001N00311007501CN0200001N1+00721+00541101391ADDGA1031+009009069GF107991051051008001031999MA1999999100211MD1210071+9999REMSYN082AAXX  26094 10640 42570 72006 10072 20054 30021 40139 52007 8553/ 333 83630 83633;
0191106400999992000032612004+50120+008730FM-12+011299999V0202101N003110120019N0250001N1+00971+00471101271ADDAY161061GA1061+012009059GF107991071081008001999999IA1229MA1999999100111MD1710041+9999MW1021REMSYN088AAXX  26124 10640 /2575 72106 10097 20047 30011 40127 57004 7026/ 878// 333 4630/ 86640;
0215106400999992000032615004+50120+008730FM-12+011299999V0203301N00101004201CN0300001N1+00991+00521101031ADDAY181031AY261031GA1011+003609099GA2031+003609089GF106991061091004501031001MA1999999099871MD1710221+9999MW1251REMSYN094AAXX  26154 10640 41480 63302 10099 20052 39987 40103 57022 72586 86930 333 83812 81912 85360;
0231106400999992000032618004+50120+008730FM-12+011299999V0202801N00051030001CN0350001N1+00831+00461101021ADDAY181061AY261061GA1031+009009089GF106991031021008001031021KA1120M+01071KA2120N+00611MA1999999099861MD1610011+9999MW1251REMSYN100AAXX  26184 10640 41581 62801 10083 20046 39986 40102 56001 72586 83232 333 10107 20061 83830 86075;
0262106400999992000032706004+50120+008730FM-12+011299999V0202101N001010300019N0150001N1+00471+00371100871ADDAA124002091AY161061AY221061GA1031+012009069GF107991031051012501071999GJ101689KA1120M+00851KA2120N+00471MA1999999099691MD1310021+9999MW1031REMSYN112AAXX  27064 10640 41665 72102 10047 20037 39969 40087 53002 70362 8357/ 333 10085 20047 55028 70020 83640 87460;
0165106400999992000032709004+50120+008730FM-12+011299999V0200101N00051012001CN0150001N1+00691+00491100921ADDGA1031+006009089GF107991071081008001999999MA1999999099751MD1210061+9999REMSYN082AAXX  27094 10640 42565 70101 10069 20049 39975 40092 52006 878// 333 83820 87633;
0165106400999992000032712004+50120+008730FM-12+011299999V0203501N00051012001CN0180001N1+00941+00411100911ADDGA1041+006009089GF107991071081008001999999MA1999999099751MD1010001+9999REMSYN082AAXX  27124 10640 42568 73501 10094 20041 39975 40091 50000 878// 333 84820 87633;
0165106400999992000032715004+50120+008730FM-12+011299999V0201901N00051012001CN0200001N1+01061+00281100831ADDGA1041+007209089GF106991051081008001031011MA1999999099681MD1710051+9999REMSYN082AAXX  27154 10640 42570 61901 10106 20028 39968 40083 57005 85831 333 84824 84360;
0231106400999992000032718004+50120+008730FM-12+011299999V0201601N000510120019N0150001N1+00711+00541101061ADDAY181061AY221061GA1041+007509089GF107991071081008001999999KA1120M+01121KA2120N+00471MA1999999099891MD1310211+9999MW1251REMSYN100AAXX  27184 10640 41565 71601 10071 20054 39989 40106 53021 72582 878// 333 10112 20047 84825 87640;
0226106400999992000032806004+50120+008730FM-12+011299999V0203501N002110300019N0150001N1+00501+00211101361ADDAA124000891GA1041+015009069GF107991041051017501071999KA1120M+00731KA2120N+00501MA1999999100181MD1310151+9999REMSYN106AAXX  28064 10640 42765 73504 10050 20021 30018 40136 53015 8457/ 333 10073 20050 50000 70008 84650 87460;
0215106400999992000032809004+50120+008730FM-12+011299999V0203501N002610090019N0160001N1+00531+00211101491ADDAY121031AY221031GA1021+006009089GA2051+009009069GF108991051081008001071999MA1999999100311MD1310131+9999MW1211REMSYN094AAXX  28094 10640 41566 83505 10053 20021 30031 40149 53013 72122 8587/ 333 82820 85630 88460;
0193106400999992000032812004+50120+008730FM-12+011299999V0203601N00361012001CN0250001N1+00531+00111101531ADDAY161061AY221061GA1031+006009089GF107991071081008001999999MA1999999100351MD1310041+9999MW1021REMSYN088AAXX  28124 10640 41575 73607 10053 20011 30035 40153 53004 70262 878// 333 83820 87630;
0159106400999992000032815004+50120+008730FM-12+011299999V0203601N003110099019N0250001N1+00601+00151101501ADDGA1071+009909059GF108991071051012501999999MA1999999100321MD1610031+9999REMSYN076AAXX  28154 10640 42675 83606 10060 20015 30032 40150 56003 875// 333 87633;
0182106400999992000032818004+50120+008730FM-12+011299999V0203601N003112200019N0150001N1+00511+00151101561ADDGA1021+006909089GF104991041081008001001011KA1120M+00621KA2120N+00461MD1210011+9999REMSYN088AAXX  28184 10640 42565 43606 10051 20015 40156 52001 84801 333 10062 20046 82823 83640;
0165106400999992000032909004+50120+008730FM-12+011299999V0200201N003610078019N0170001N1+00721+00321101151ADDGA1071+007809069GF107991071051008001999999MA1999999099981MD1810141+9999REMSYN082AAXX  29094 10640 42567 70207 10072 20032 39998 40115 58014 875// 333 87626 91113;
0165106400999992000032912004+50120+008730FM-12+011299999V0200601N00461220001CN0200001N1+01321+00351100951ADDGA1041+006009089GF106991041021008001001011MA1999999099811MD1710171+9999REMSYN082AAXX  29124 10640 42570 60609 10132 20035 39981 40095 57017 84201 333 84820 83074;
0165106400999992000032915004+50120+008730FM-12+011299999V0200301N00461007501CN0250001N1+01191+00441100781ADDGA1041+009009069GF107991071051008001999999MA1999999099631MD1710171+9999REMSYN082AAXX  29154 10640 42575 70309 10119 20044 39963 40078 57017 875// 333 84630 86640;
0262106400999992000033006004+50120+008730FM-12+011299999V0203601N00311004201CN0100001N1+00801+00781100571ADDAA124008391AY161061AY261061GA1041+004509079GF108991081051004501999999GJ102589KA1120M+00921KA2120N+00771MA1999999099411MD1510001+9999MW1631REMSYN112AAXX  30064 10640 41460 83606 10080 20078 39941 40057 55000 76366 885// 333 10092 20077 55043 70083 84715 88620;
0193106400999992000033009004+50120+008730FM-12+011299999V0203501N002610045019N0080001N1+00811+00761100651ADDAY161031AY261031GA1051+004509079GF108991081051004501999999MA1999999099491MD1310081+9999MW1611REMSYN088AAXX  30094 10640 41458 83505 10081 20076 39949 40065 53008 76166 885// 333 85715 88620;
0193106400999992000033012004+50120+008730FM-12+011299999V0203401N00211004201CN0040001N1+00811+00771100731ADDAY161061AY261061GA1041+003009079GF108991081051004501999999MA1999999099571MD1310081+9999MW1631REMSYN088AAXX  30124 10640 41440 83404 10081 20077 39957 40073 53008 76366 885// 333 84710 88620;
0193106400999992000033015004+50120+008730FM-12+011299999V0203401N00211001201CN0045001N1+00761+00751100861ADDAY161031AY261031GA1041+001509079GF108991081051001501999999MA1999999099691MD1310121+9999MW1611REMSYN088AAXX  30154 10640 41245 83404 10076 20075 39969 40086 53012 76166 885// 333 84705 88612;
0231106400999992000033018004+50120+008730FM-12+011299999V0202101N00211001201CN0040001N1+00711+00711100941ADDAY161061AY261061GA1031+001509079GF108991071051001501999999KA1120M+00841KA2120N+00711MA1999999099771MD1210081+9999MW1601REMSYN100AAXX  30184 10640 41240 82104 10071 20071 39977 40094 52008 76066 875// 333 10084 20071 83705 87613;
0262106400999992000033106004+50120+008730FM-12+011299999V0202001N002610030019N0025001N1+00581+00581101001ADDAA124008891AY161061AY221061GA1051+003009079GF108991081051004501999999GJ100009KA1120M+00711KA2120N+00581MA1999999099821MD1610011+9999MW1611REMSYN112AAXX  31064 10640 41425 82005 10058 20058 39982 40100 56001 76162 885// 333 10071 20058 55000 70088 85710 88620;
0193106400999992000033109004+50120+008730FM-12+011299999V0202001N00311004201CN0050001N1+00591+00561100961ADDAY161031AY251031GA1041+003009079GF108991081051004501999999MA1999999099791MD1510031+9999MW1201REMSYN088AAXX  31094 10640 41450 82006 10059 20056 39979 40096 55003 72065 885// 333 84710 88620;
0193106400999992000033112004+50120+008730FM-12+011299999V0202101N00311004201CN0080001N1+00691+00541100931ADDAY161061AY251061GA1041+003009079GF108991081041004501999999MA1999999099761MD1710031+9999MW1201REMSYN088AAXX  31124 10640 41458 82106 10069 20054 39976 40093 57003 72065 884// 333 84710 88620;
0231106400999992000033118004+50120+008730FM-12+011299999V0202201N00211075001CN0230001N1+00811+00451100751ADDAY161061AY221061GA1011+004509089GF105991011081004501041011KA1120M+00851KA2120N+00571MA1999999099591MD1510051+9999MW1211REMSYN100AAXX  31184 10640 41473 52204 10081 20045 39959 40075 55005 72162 81841 333 10085 20057 81815 84359;
0242106400999992000040106004+50120+008730FM-12+011299999V0200401N001510003019N0006001N1+00111+00111100691ADDAA124000991AY141061GA1091+000309999GF109991091999999999999999GJ100009KA1120M+00811KA2120N+00101MA1999999099501MD1610031+9999MW1451REMSYN100AAXX  01064 10640 41/06 90403 10011 20011 39950 40069 56003 7454/ 333 10081 20010 55000 70009 89/01;
0193106400999992000040109004+50120+008730FM-12+011299999V0201801N00051007501CN0050001N1+00341+00341100751ADDAY161031AY241031GA1031+006909069GF108991071051008001999999MA1999999099571MD1210071+9999MW1101REMSYN088AAXX  01094 10640 41550 81801 10034 20034 39957 40075 52007 71064 875// 333 83623 87630;
0193106400999992000040112004+50120+008730FM-12+011299999V0202001N00261004201CN0070001N1+00511+00491100801ADDAY161061AY241061GA1041+003009079GF108991071051004501999999MA1999999099621MD1210051+9999MW1101REMSYN088AAXX  01124 10640 41457 82005 10051 20049 39962 40080 52005 71064 875// 333 84710 87623;
0193106400999992000040115004+50120+008730FM-12+011299999V0201901N001512200019N0150001N1+00891+00531100711ADDAY161031AY221031GA1021+004509089GF106991041081004501001011MA1999999099551MD1710071+9999MW1011REMSYN088AAXX  01154 10640 41465 61903 10089 20053 39955 40071 57007 70162 84801 333 82815 83625;
0225106400999992000040118004+50120+008730FM-12+011299999V0201601N003112200019N0200001N1+00661+00611100771ADDAY161061AY221061GA1021+006009029GF103991021021008001031011KA1120M+00931KA2120N+00101MA1999999099601MD1610021+9999MW1251REMSYN094AAXX  01184 10640 41570 31606 10066 20061 39960 40077 56002 72562 82231 333 10093 20010 82820;
0262106400999992000040206004+50120+008730FM-12+011299999V0201001N000512200019N0070001N1+00341+00331100831ADDAA124002991AY111061AY211061GA1011+018009069GF103991011051999999041011GJ101029KA1120M+00671KA2120N+00321MA1999999099651MD1210011+9999MW1101REMSYN112AAXX  02064 10640 41957 31001 10034 20033 39965 40083 52001 71011 81541 333 10067 20032 55017 70029 81656 83361;
0165106400999992000040209004+50120+008730FM-12+011299999V0201301N00101030001CN0150001N1+01101+00551100811ADDGA1011+015009069GF107991011051017501041011MA1999999099651MD1710021+9999REMSYN082AAXX  02094 10640 42765 71302 10110 20055 39965 40081 57002 81541 333 81650 87075;
0165106400999992000040212004+50120+008730FM-12+011299999V0201501N00151030001CN0200001N1+01221+00441100651ADDGA1031+009009089GF106991041081012501031011MA1999999099511MD1710091+9999REMSYN082AAXX  02124 10640 42670 61503 10122 20044 39951 40065 57009 84831 333 83830 85075;
0165106400999992000040215004+50120+008730FM-12+011299999V0201101N00261220001CN0350001N1+01431+00221100381ADDGA1011+015009089GF106991011011017501001011MA1999999099251MD1710251+9999REMSYN082AAXX  02154 10640 42781 61105 10143 20022 39925 40038 57025 81101 333 81850 86075;
0203106400999992000040218004+50120+008730FM-12+011299999V0201001N002112200019N0350001N1+01411+00251100221ADDGA1021+030009039GF104991021001999999031011KA1120M+01511KA2120N+00341MA1999999099091MD1610161+9999REMSYN094AAXX  02184 10640 42981 41004 10141 20025 39909 40022 56016 82031 333 10151 20034 82360 84075;
0234106400999992000040306004+50120+008730FM-12+011299999V0200401N001512200019N0250001N1+00611+00261099721ADDAA124000091GA1011+030009039GF104991011001999999041011GJ105769KA1120M+01441KA2120N+00501MA1999999098561MD1610171+9999REMSYN106AAXX  03064 10640 42975 40403 10061 20026 39856 49972 56017 81041 333 10144 20050 55096 70000 81360 84075;
0159106400999992000040309004+50120+008730FM-12+011299999V0200901N002110300019N0250001N1+01131+00271099601ADDGA1051+030009079GF106991051001999999031011MA1999999098471MD1810091+9999REMSYN076AAXX  03094 10640 42975 60904 10113 20027 39847 49960 58009 85031 333 85360;
0165106400999992000040312004+50120+008730FM-12+011299999V0201301N002119999999N0250001N1+01581+00231099411ADDGA1031+030009039GF106991031001999999081021MA1999999098301MD1710171+9999REMSYN082AAXX  03124 10640 42975 61304 10158 20023 39830 49941 57017 83082 333 83360 85075;
0145106400999992000040315004+50120+008730FM-12+011299999V0201101N00261075001CN0250001N1+01921+00131099191ADDGA1021+018009069GF105991021051017501031011MA1999999098091REMSYN076AAXX  03154 10640 42775 51105 10192 20013 39809 49919 82531 333 82656 83360;
0203106400999992000040318004+50120+008730FM-12+011299999V0200801N001519999999N0200001N1+01841+00131099061ADDGA1041+036009039GF107991041001999999031011KA1120M+01941KA2120N+00601MA1999999097961MD1710131+9999REMSYN094AAXX  03184 10640 /2970 70803 10184 20013 39796 49906 57013 84031 333 10194 20060 84362 87075;
0234106400999992000040406004+50120+008730FM-12+011299999V0201401N000512200019N0250001N1+01041+00891099391ADDAA124000391GA1021+012009089GF104991021021012501031011GJ105169KA1120M+01861KA2120N+01021MA1999999098251MD1210021+9999REMSYN106AAXX  04064 10640 42675 41401 10104 20089 39825 49939 52002 82231 333 10186 20102 55086 70003 82840 83360;
0193106400999992000040415004+50120+008730FM-12+011299999V0201601N001510750019N0400001N1+01531+00501099461ADDAY181031AY221031GA1011+009309089GF105991021081008001031011MA1999999098341MD1810081+9999MW1011REMSYN088AAXX  04154 10640 41582 51603 10153 20050 39834 49946 58008 70182 82831 333 81831 84075;
0254106400999992000040506004+50120+008730FM-12+011299999V0202101N000510105019N0180001N1+00921+00891100121ADDAA124000891AY161061GA1051+010509069GF107991051051012501021999GJ104149KA1120M+01521KA2120N+00911MA1999999098971MD1210241+9999MW1611REMSYN112AAXX  05064 10640 41668 72101 10092 20089 39897 40012 52024 7616/ 8552/ 333 10152 20091 55069 70008 85635 86461;
0193106400999992000040509004+50120+008730FM-12+011299999V0203601N00411012001CN0200001N1+01101+00721100401ADDAY161031AY221031GA1031+006009089GF107991071081008001999999MA1999999099251MD1210281+9999MW1021REMSYN088AAXX  05094 10640 41570 73608 10110 20072 39925 40040 52028 70262 878// 333 83820 86656;
0193106400999992000040512004+50120+008730FM-12+011299999V0203401N00511004201CN0200001N1+00791+00491100731ADDAY161061AY221061GA1031+004809069GF108991081051004501999999MA1999999099571MD1210341+9999MW1021REMSYN088AAXX  05124 10640 41470 83410 10079 20049 39957 40073 52034 70262 885// 333 83616 88630;
0182106400999992000040515004+50120+008730FM-12+011299999V0203401N004610138019N0250001N1+00821+00211101021ADDGA1071+013809069GF107991071051012501999999MA1999999099851MD1210281+9999OA149900771REMSYN088AAXX  05154 10640 42675 73409 10082 20021 39985 40102 52028 875// 333 87646 91115 91211;
0220106400999992000040518004+50120+008730FM-12+011299999V0200101N002612200019N0350001N1+00691+00051101331ADDGA1021+015009069GF103991021051017501031011KA1120M+01141KA2120N+00681MA1999999100161MD1210311+9999OA149900821REMSYN100AAXX  05184 10640 42781 30105 10069 20005 30016 40133 52031 82531 333 10114 20068 82650 91116 91211;
0228106400999992000040606004+50120+008730FM-12+011299999V0203501N003112200019N0400001N1+00151-00471102531ADDAA124000091GA1011+060009019GF101991001001999999001011GJ101089KA1120M+00691KA2120N+00121MA1999999101321MD1210241+9999REMSYN100AAXX  06064 10640 42982 13506 10015 21047 30132 40253 52024 80001 333 10069 20012 55018 70000 81070;
0159106400999992000040609004+50120+008730FM-12+011299999V0200201N002612200019N0400001N1+00581-00671102811ADDGA1011+060009019GF101991001001999999001011MA1999999101611MD1210321+9999REMSYN076AAXX  06094 10640 42982 10205 10058 21067 30161 40281 52032 80001 333 81070;
0143106400999992000040612004+50120+008730FM-12+011299999V0200401N004112200019N0400001N1+00941-00881102821ADDGA1001+999999999GF100991001001999999001001MA1999999101641MD1210111+9999REMSYN060AAXX  06124 10640 42982 00408 10094 21088 30164 40282 52011;
0143106400999992000040615004+50120+008730FM-12+011299999V0200201N003112200019N0400001N1+01121-00931102811ADDGA1001+999999999GF100991001001999999001001MA1999999101641MD1410001+9999REMSYN060AAXX  06154 10640 42982 00206 10112 21093 30164 40281 54000;
0185106400999992000040618004+50120+008730FM-12+011299999V0203601N003612200019N0400001N1+01001-00741102941ADDGA1001+999999999GF100991001001999999001001KA1120M+01161KA2999N+00151MA1999999101761MD1210121+9999REMSYN076AAXX  06184 10640 42982 03607 10100 21074 30176 40294 52012 333 10116 20015;
0165106400999992000040712004+50120+008730FM-12+011299999V0200101N00211220001CN0300001N1+01221-00361103241ADDGA1011+015009089GF106991011011017501001061MA1999999102061MD1710151+9999REMSYN082AAXX  07124 10640 42780 60104 10122 21036 30206 40324 57015 81106 333 81850 86075;
0159106400999992000040715004+50120+008730FM-12+011299999V0203501N001512200019N0350001N1+01301-00451103021ADDGA1011+075009019GF101991001001999999001011MA1999999101851MD1710201+9999REMSYN076AAXX  07154 10640 42981 13503 10130 21045 30185 40302 57020 80001 333 81075;
0228106400999992000040806004+50120+008730FM-12+011299999V0200601N001512200019N0200001N1+00331+00001102921ADDAA124000091GA1011+075009019GF101991001001999999001011GJ107029KA1120M+01271KA2120N+00241MA1999999101711MD1710061+9999REMSYN100AAXX  08064 10640 22970 10603 10033 21000 30171 40292 57006 80001 333 10127 20024 55117 70000 81075;
0159106400999992000040809004+50120+008730FM-12+011299999V0203501N000512200019N0250001N1+00911+00131102811ADDGA1021+078009019GF102991001001999999001011MA1999999101631MD1810081+9999REMSYN076AAXX  08094 10640 42975 23501 10091 20013 30163 40281 58008 80001 333 82076;
0165106400999992000040812004+50120+008730FM-12+011299999V0203401N001010750019N0250001N1+01261-00041102541ADDGA1011+015009089GF107991011011017501001021MA1999999101381MD1710241+9999REMSYN082AAXX  08124 10640 42775 73402 10126 21004 30138 40254 57024 81102 333 81850 87075;
0187106400999992000040815004+50120+008730FM-12+011299999V0203601N001010270019N0200001N1+01401-00011102281ADDGA1011+015009089GA2041+027009039GF107991011011017501071081MA1999999101121MD1710271+9999REMSYN088AAXX  08154 10640 42770 73602 10140 21001 30112 40228 57027 81178 333 81850 84359 87270;
0197106400999992000040818004+50120+008730FM-12+011299999V0203601N001010720019N0250001N1+01271+00061102051ADDGA1071+072009019GF107991001001999999001011KA1120M+01431KA2120N+00281MA1999999100891MD1710211+9999REMSYN088AAXX  08184 10640 42975 73602 10127 20006 30089 40205 57021 80001 333 10143 20028 87074;
0234106400999992000040906004+50120+008730FM-12+011299999V0200401N001519999999N0240001N1+00791+00221101621ADDAA124000091GA1021+030009039GF108991021001999999031071GJ104389KA1120M+01281KA2120N+00771MA1999999100451MD1610111+9999REMSYN106AAXX  09064 10640 42974 80403 10079 20022 30045 40162 56011 82037 333 10128 20077 55073 70000 82360 88275;
0159106400999992000040909004+50120+008730FM-12+011299999V0200501N002110750019N0250001N1+01191+00041101521ADDGA1061+075009019GF106991001001999999001011MA1999999100371MD1710061+9999REMSYN076AAXX  09094 10640 42975 60504 10119 20004 30037 40152 57006 80001 333 86075;
0165106400999992000040912004+50120+008730FM-12+011299999V0200801N00211075001CN0300001N1+01421-00041101411ADDGA1011+012009089GF106991011011012501001021MA1999999100271MD1710061+9999REMSYN082AAXX  09124 10640 42680 60804 10142 21004 30027 40141 57006 81102 333 81840 86070;
0165106400999992000040915004+50120+008730FM-12+011299999V0200401N003112200019N0600001N1+01551-00051101171ADDGA1031+012009089GF104991031011012501031011MA1999999100031MD1710231+9999REMSYN082AAXX  09154 10640 42686 40406 10155 21005 30003 40117 57023 83131 333 83840 86075;
0203106400999992000040918004+50120+008730FM-12+011299999V0200501N00261030001CN0300001N1+01361-00151101181ADDGA1011+018009069GF106991011051017501031011KA1120M+01611KA2120N+00771MA1999999100041MD1110011+9999REMSYN094AAXX  09184 10640 42780 60505 10136 21015 30004 40118 51001 81531 333 10161 20077 81656 86075;
0228106400999992000041006004+50120+008730FM-12+011299999V0203601N003112200019N0130001N1+00451+00111101271ADDAA124000091GA1041+078009019GF104991001001999999001011GJ105589KA1120M+01391KA2120N+00431MA1999999100091MD1510051+9999REMSYN100AAXX  10064 10640 42963 43606 10045 20011 30009 40127 55005 80001 333 10139 20043 55093 70000 84076;
0159106400999992000041009004+50120+008730FM-12+011299999V0203601N003612200019N0120001N1+00831+00121101251ADDGA1041+078009019GF104991001001999999001021MA1999999100081MD1710011+9999REMSYN076AAXX  10094 10640 42962 43607 10083 20012 30008 40125 57001 80002 333 84076;
0165106400999992000041012004+50120+008730FM-12+011299999V0200401N002112200019N0180001N1+01461-00121101041ADDGA1011+009909089GF103991011011012501001011MA1999999099901MD1710181+9999REMSYN082AAXX  10124 10640 42668 30404 10146 21012 39990 40104 57018 81101 333 81833 83076;
0165106400999992000041015004+50120+008730FM-12+011299999V0200101N00361220001CN0250001N1+01471-00201100841ADDGA1011+012009089GF105991031081012501001011MA1999999099701MD1710201+9999REMSYN082AAXX  10154 10640 42675 50107 10147 21020 39970 40084 57020 83801 333 81840 84076;
0203106400999992000041018004+50120+008730FM-12+011299999V0203601N00311220001CN0300001N1+01351-00171100731ADDGA1031+015009069GF106991031051017501001011KA1120M+01611KA2120N+00441MA1999999099591MD1710131+9999REMSYN094AAXX  10184 10640 42780 63606 10135 21017 39959 40073 57013 83501 333 10161 20044 83650 85070;
0234106400999992000041106004+50120+008730FM-12+011299999V0200401N001012200019N0150001N1+00421+00061100251ADDAA124000091GA1011+018009069GF104991011051017501031011GJ106009KA1120M+01251KA2120N+00421MA1999999099081MD1610121+9999REMSYN106AAXX  11064 10640 42765 40402 10042 20006 39908 40025 56012 81531 333 10125 20042 55100 70000 81656 83360;
0165106400999992000041109004+50120+008730FM-12+011299999V0201401N000510750019N0150001N1+00961+00081100071ADDGA1011+021009069GF105991011051022501031011MA1999999098921MD1710181+9999REMSYN082AAXX  11094 10640 42865 51401 10096 20008 39892 40007 57018 81531 333 81657 83360;
0159106400999992000041112004+50120+008730FM-12+011299999V0201701N001012200019N0200001N1+01421-00071099811ADDGA1021+012009029GF103991021011012501031001MA1999999098691MD1710231+9999REMSYN076AAXX  11124 10640 42670 31702 10142 21007 39869 49981 57023 82130 333 82840;
0165106400999992000041115004+50120+008730FM-12+011299999V0201901N002610150019N0200001N1+01461-00231099581ADDGA1041+012009089GF106991051081012501001011MA1999999098461MD1710231+9999REMSYN082AAXX  11154 10640 42670 61905 10146 21023 39846 49958 57023 85801 333 84840 83650;
0203106400999992000041118004+50120+008730FM-12+011299999V0202001N00211012001CN0200001N1+01371+00271099481ADDGA1031+009909089GF105991051081008001001001KA1120M+01521KA2120N+00411MA1999999098361MD1710111+9999REMSYN094AAXX  11184 10640 42570 52004 10137 20027 39836 49948 57011 85800 333 10152 20041 83833 83650;
0262106400999992000041206004+50120+008730FM-12+011299999V0201601N002110078019N0100001N1+00681+00641099101ADDAA124005091AY161061AY221061GA1061+007809069GF108991061051008001071999GJ104089KA1120M+01381KA2120N+00661MA1999999097951MD1510071+9999MW1611REMSYN112AAXX  12064 10640 41560 81604 10068 20064 39795 49910 55007 76162 8657/ 333 10138 20066 55068 70050 86626 88359;
0193106400999992000041209004+50120+008730FM-12+011299999V0202201N005110300019N0300001N1+00751+00491099381ADDAY161031AY221031GA1011+003909089GF106991041081004501031011MA1999999098231MD1210081+9999MW1211REMSYN088AAXX  12094 10640 41480 62210 10075 20049 39823 49938 52008 72162 84831 333 81813 84625;
0210106400999992000041212004+50120+008730FM-12+011299999V0202201N005110108019N0350001N1+00921-00091099551ADDAY161061AY221061GA1051+010809089GF105991051021012501001011MA1999999098411MD1210181+9999MW1021OA149900771REMSYN094AAXX  12124 10640 41681 52210 10092 21009 39841 49955 52018 70262 85201 333 85836 91115 91212;
0187106400999992000041215004+50120+008730FM-12+011299999V0202201N005110108019N0350001N1+00981-00081099671ADDAY181031AY261031GA1051+010809029GF106991051021012501031011MA1999999098531MD1210111+9999MW1021REMSYN082AAXX  12154 10640 41681 62210 10098 21008 39853 49967 52011 70286 85231 333 85836;
0270106400999992000041218004+50120+008730FM-12+011299999V0202201N003110120019N0400001N1+00841+00051099831ADDAY181061AY211061GA1011+003909089GA2051+012009089GF106991051021004501031011KA1120M+01121KA2120N+00661MA1999999098681MD1210151+9999MW1251OA149900981REMSYN112AAXX  12184 10640 41482 62206 10084 20005 39868 49983 52015 72581 85231 333 10112 20066 81813 85840 91119 91212;
0256106400999992000041306004+50120+008730FM-12+011299999V0201901N004610090019N0300001N1+00761+00351099831ADDAA124005691AY181061AY221061GA1051+009009059GF105991051051008001001001GJ103429KA1120M+00841KA2120N+00531MA1999999098731MD1210081+9999MW1031REMSYN106AAXX  13064 10640 41580 51909 10076 20035 39873 49983 52008 70382 85500 333 10084 20053 55057 70056 85630;
0182106400999992000041309004+50120+008730FM-12+011299999V0202101N005712200019N0600001N1+00911-00101100011ADDGA1041+012009089GF104991041021012501001001MA1999999098911MD1210171+9999OA149900771REMSYN088AAXX  13094 10640 42686 42111 10091 21010 39891 40001 52017 84200 333 84840 91115 91212;
0182106400999992000041312004+50120+008730FM-12+011299999V0202101N005112200019N0500001N1+01181-00131099991ADDGA1041+012009089GF104991041021012501001011MA1999999098851MD1710061+9999OA149900931REMSYN088AAXX  13124 10640 42684 42110 10118 21013 39885 49999 57006 84201 333 84840 91118 91213;
0204106400999992000041315004+50120+008730FM-12+011299999V0202001N004110780019N0450001N1+01321-00221099811ADDGA1041+012009089GA2031+078009009GF106991041021012501001011MA1999999098681MD1710171+9999OA149900931REMSYN094AAXX  13154 10640 42683 62008 10132 21022 39868 49981 57017 84201 333 84840 83076 91118 91212;
0231106400999992000041318004+50120+008730FM-12+011299999V0202101N00311007501CN0050001N1+00861+00641100031ADDAY181061AY221061GA1021+009009089GF106991061091008001999999KA1120M+01371KA2120N+00601MA1999999098881MD1110161+9999MW1801REMSYN100AAXX  13184 10640 41550 62106 10086 20064 39888 40003 51016 78082 869// 333 10137 20060 82830 86946;
0284106400999992000041406004+50120+008730FM-12+011299999V0201801N003110090019N0300001N1+00801+00511100341ADDAA124001191AY181061AY221061GA1011+007509089GA2061+009009069GF108991061081008001071071GJ104869KA1120M+00901KA2120N+00761MA1999999099181MD1210021+9999MW1031REMSYN118AAXX  14064 10640 41580 81806 10080 20051 39918 40034 52002 70382 86877 333 10090 20076 55081 70011 81825 86630 88363;
0193106400999992000041409004+50120+008730FM-12+011299999V0201801N00261009001CN0150001N1+00741+00701100441ADDAY161031AY221031GA1011+003009079GF108991071081004501999999MA1999999099281MD1210091+9999MW1631REMSYN088AAXX  14094 10640 41465 81805 10074 20070 39928 40044 52009 76362 878// 333 81710 87625;
0215106400999992000041415004+50120+008730FM-12+011299999V0202301N000510300019N0250001N1+00911+00561100331ADDAY161031AY221031GA1011+003309089GA2031+010809069GF108991031081004501071999MA1999999099181MD1810081+9999MW1601REMSYN094AAXX  14154 10640 41475 82301 10091 20056 39918 40033 58008 76062 8387/ 333 81811 83636 88460;
0209106400999992000041418004+50120+008730FM-12+011299999V0200601N001510300019N0250001N1+00911+99999100261ADDAY161061AY221061GA1011+003009089GA2031+012009069GF108991031081002501071999MA1999999099161MD1110021+9999MW1211REMSYN088AAXX  14184 10640 41375 80603 10091 39916 40026 51002 72162 8387/ 333 81810 83640 87460;
0193106400999992000041509004+50120+008730FM-12+011299999V0202101N003610045019N0120001N1+00951+00801100081ADDAY161031AY221031GA1051+004509069GF108991071051004501999999MA1999999098931MD1210181+9999MW1601REMSYN088AAXX  15094 10640 41462 82107 10095 20080 39893 40008 52018 76062 875// 333 85615 87630;
0215106400999992000041512004+50120+008730FM-12+011299999V0202001N003110090019N0150001N1+00981+00671100251ADDAY161061AY221061GA1031+002709089GA2051+009009069GF108991061081002501071999MA1999999099101MD1210151+9999MW1211REMSYN094AAXX  15124 10640 41365 82006 10098 20067 39910 40025 52015 72162 8687/ 333 83809 85630 86357;
0187106400999992000041515004+50120+008730FM-12+011299999V0201801N00311030001CN0300001N1+01101+00581100171ADDGA1011+006009089GA2041+012009069GF107991041081008001031011MA1999999099031MD1710061+9999REMSYN088AAXX  15154 10640 42580 71806 10110 20058 39903 40017 57006 84831 333 81820 84640 85361;
0231106400999992000041518004+50120+008730FM-12+011299999V0202401N007210075019N0030001N1+01171+00521100281ADDAY121061AY221061GA1071+007509099GF107991071091008001999999KA1120M+01211KA2120N+00741MA1999999099131MD1310101+9999MW1801REMSYN100AAXX  15184 10640 41530 72414 10117 20052 39913 40028 53010 78022 879// 333 10121 20074 87925 91113;
0256106400999992000041606004+50120+008730FM-12+011299999V0202201N002612200019N0250001N1+00721+00291100571ADDAA124002091AY181061AY211061GA1011+009009059GF101991011051008001001001GJ100789KA1120M+01191KA2120N+00621MA1999999099411MD1210081+9999MW1011REMSYN106AAXX  16064 10640 41575 12205 10072 20029 39941 40057 52008 70181 81500 333 10119 20062 55013 70020 81630;
0159106400999992000041609004+50120+008730FM-12+011299999V0202101N002112200019N0250001N1+01011+00221100551ADDGA1021+006909029GF102991021011008001001001MA1999999099401MD1610011+9999REMSYN076AAXX  16094 10640 42575 22104 10101 20022 39940 40055 56001 82100 333 82823;
0165106400999992000041612004+50120+008730FM-12+011299999V0201801N002112200019N0300001N1+01431+00031100371ADDGA1011+013509089GF103991011011012501001011MA1999999099241MD1710151+9999REMSYN082AAXX  16124 10640 42680 31804 10143 20003 39924 40037 57015 81101 333 81845 83075;
0165106400999992000041615004+50120+008730FM-12+011299999V0201701N00211030001CN0300001N1+01621+00181100211ADDGA1011+012909089GF107991011011012501031021MA1999999099091MD1710141+9999REMSYN082AAXX  16154 10640 42680 71704 10162 20018 39909 40021 57014 81132 333 81843 87275;
0203106400999992000041618004+50120+008730FM-12+011299999V0201901N003110300019N0400001N1+01461+00421100221ADDGA1031+015009069GF107991041051017501071999KA1120M+01671KA2120N+00211MA1999999099081MD1710081+9999REMSYN094AAXX  16184 10640 42782 71906 10146 20042 39908 40022 57008 8457/ 333 10167 20021 83650 86360;
0284106400999992000041706004+50120+008730FM-12+011299999V0201701N001010105019N0210001N1+00951+00851100101ADDAA124000291AY161061AY221061GA1021+005109069GA2051+010509069GF107991051051004501031999GJ105109KA1120M+01461KA2120N+00921MA1999999098951MD1110111+9999MW1021REMSYN118AAXX  17064 10640 41471 71702 10095 20085 39895 40010 51011 70262 8553/ 333 10146 20092 55085 70002 82617 85635 87360;
0173106400999992000041709004+50120+008730FM-12+011299999V0202101N003110075019N0300001N1+01221+00761100431ADDGA1021+006009089GA2041+007509069GF107991051081008001031011MA1999999099291REMSYN088AAXX  17094 10640 42580 72106 10122 20076 39929 40043 5//// 85831 333 82820 84625 86360;
0187106400999992000041712004+50120+008730FM-12+011299999V0202101N003610090019N0250001N1+01291+00671100621ADDGA1041+006609089GA2051+009009069GF107991061081008001031999MA1999999099481MD1110191+9999REMSYN088AAXX  17124 10640 42575 72107 10129 20067 39948 40062 51019 8683/ 333 84822 85630 87360;
0209106400999992000041715004+50120+008730FM-12+011299999V0202101N003610090019N0600001N1+01311+00491100771ADDGA1031+006609089GA2051+009009069GA3071+030009049GF108991061081008001071999MA1999999099631MD1210151+9999REMSYN094AAXX  17154 10640 42586 82107 10131 20049 39963 40077 52015 8687/ 333 83822 85630 87460 91112;
0228106400999992000041806004+50120+008730FM-12+011299999V0202101N002110330019N0200001N1+01001+00591101311ADDAA124000091GA1081+033009019GF108991081001999999071999GJ100189KA1120M+01281KA2120N+00951MA1999999100141MD1210131+9999REMSYN100AAXX  18064 10640 42970 82104 10100 20059 30014 40131 52013 8807/ 333 10128 20095 55003 70000 88461;
0165106400999992000041809004+50120+008730FM-12+011299999V0202201N00211030001CN0170001N1+01101+00641101361ADDGA1011+010809069GF108991011051012501071999MA1999999100201MD1110061+9999REMSYN082AAXX  18094 10640 42667 82204 10110 20064 30020 40136 51006 8157/ 333 81636 88461;
0187106400999992000041812004+50120+008730FM-12+011299999V0202001N00211030001CN0200001N1+01291+00591101281ADDGA1021+006009089GA2041+007509069GF108991041081008001071999MA1999999100131MD1710071+9999REMSYN088AAXX  18124 10640 42570 82004 10129 20059 30013 40128 57007 8487/ 333 82820 84625 87463;
0165106400999992000041815004+50120+008730FM-12+011299999V0201501N00051030001CN0250001N1+01411+00531101111ADDGA1031+009309089GF108991041081008001071999MA1999999099971MD1710161+9999REMSYN082AAXX  18154 10640 42575 81501 10141 20053 39997 40111 57016 8487/ 333 83831 88463;
0203106400999992000041818004+50120+008730FM-12+011299999V0200701N00101030001CN0400001N1+01381+00471101061ADDGA1041+015009069GF108991041051017501071999KA1120M+01461KA2120N+01001MA1999999099921MD1710081+9999REMSYN094AAXX  18184 10640 42782 80702 10138 20047 39992 40106 57008 8457/ 333 10146 20100 84650 87363;
0262106400999992000041906004+50120+008730FM-12+011299999V0203101N00101007501CN0180001N1+01001+00951101061ADDAA124003091AY161061AY221061GA1031+006009069GF108991071051008001999999GJ100009KA1120M+01381KA2120N+00931MA1999999099901MD1710011+9999MW1021REMSYN112AAXX  19064 10640 41568 83102 10100 20095 39990 40106 57001 70262 875// 333 10138 20093 55000 70030 83620 87645;
0187106400999992000041909004+50120+008730FM-12+011299999V0202101N002110075019N0230001N1+01181+00901101151ADDGA1011+004509089GA2051+007509069GF107991051081004501001021MA1999999100001MD1210101+9999REMSYN088AAXX  19094 10640 42473 72104 10118 20090 30000 40115 52010 85802 333 81815 85625 87076;
0165106400999992000041912004+50120+008730FM-12+011299999V0202101N00051030001CN0250001N1+01551+00771101221ADDGA1021+005409089GF107991021081004501031081MA1999999100081MD1210081+9999REMSYN082AAXX  19124 10640 42475 72101 10155 20077 30008 40122 52008 82838 333 82818 87275;
0187106400999992000041915004+50120+008730FM-12+011299999V0202201N002110120019N0400001N1+01691+00691101331ADDGA1031+005409089GA2031+012009069GF107991051081004501031021MA1999999100201MD1210121+9999REMSYN088AAXX  19154 10640 42482 72204 10169 20069 30020 40133 52012 85832 333 83818 83640 86075;
0197106400999992000041918004+50120+008730FM-12+011299999V0202101N002112200019N0350001N1+01651+00781101431ADDGA1041+078009019GF104991001001999999001011KA1120M+01701KA2120N+00981MA1999999100301MD1110101+9999REMSYN088AAXX  19184 10640 42981 42104 10165 20078 30030 40143 51010 80001 333 10170 20098 84076;
0235106400999992000042006004+50120+008730FM-12+011299999V0200501N000512200019N0200001N1+00691+00641101841ADDAA124000091GA1001+999999999GF100991001001999999001001GJ104209KA1120M+01651KA2120N+00621MA1999999100661MD1210041+9999REMSYN088AAXX  20064 10640 42970 00501 10069 20064 30066 40184 52004 333 10165 20062 55070 70000;EQDQ01  00002PRCP24
0143106400999992000042009004+50120+008730FM-12+011299999V0203601N001012200019N0200001N1+01401+00841101811ADDGA1001+999999999GF100991001001999999001001MA1999999100661MD1410001+9999REMSYN060AAXX  20094 10640 42970 03602 10140 20084 30066 40181 54000;
0159106400999992000042012004+50120+008730FM-12+011299999V0201701N001012200019N0250001N1+01861+00611101691ADDGA1021+013509029GF102991021011012501001011MA1999999100561MD1710101+9999REMSYN076AAXX  20124 10640 42675 21702 10186 20061 30056 40169 57010 82101 333 82845;
0159106400999992000042015004+50120+008730FM-12+011299999V0201601N001512200019N0400001N1+02031+00501101501ADDGA1021+013209029GF103991021081012501001011MA1999999100381MD1710171+9999REMSYN076AAXX  20154 10640 42682 31603 10203 20050 30038 40150 57017 82801 333 82844;
0197106400999992000042018004+50120+008730FM-12+011299999V0201801N001512200019N0400001N1+02021+00401101461ADDGA1041+078009019GF104991001001999999001021KA1120M+02131KA2120N+00691MA1999999100341MD1510041+9999REMSYN088AAXX  20184 10640 42982 41803 10202 20040 30034 40146 55004 80002 333 10213 20069 84076;
0234106400999992000042106004+50120+008730FM-12+011299999V0209999C000012200019N0200001N1+01101+00811101601ADDAA124000091GA1011+009909089GF104991031081012501031011GJ106489KA1120M+02031KA2120N+01091MA1999999100441MD1210101+9999REMSYN106AAXX  21064 10640 42670 40000 10110 20081 30044 40160 52010 83831 333 10203 20109 55108 70000 81833 84360;
0159106400999992000042109004+50120+008730FM-12+011299999V0202001N001512200019N0180001N1+01871+00891101651ADDGA1031+033009079GF103991031001999999031001MA1999999100521MD1210081+9999REMSYN076AAXX  21094 10640 42968 32003 10187 20089 30052 40165 52008 83030 333 83361;
0165106400999992000042115004+50120+008730FM-12+011299999V0202601N002110150019N0200001N1+02091+00821101771ADDGA1011+012009089GF107991071081012501999999MA1999999100651MD1210081+9999REMSYN082AAXX  21154 10640 42670 72604 10209 20082 30065 40177 52008 878// 333 81840 87650;
0225106400999992000042118004+50120+008730FM-12+011299999V0202301N00211015001CN0300001N1+02011+00711101791ADDGA1011+010509089GA2041+015009069GF107991041081012501031081KA1120M+02291KA2120N+01071MA1999999100671MD1310021+9999REMSYN100AAXX  21184 10640 42680 72304 10201 20071 30067 40179 53002 84838 333 10229 20107 81835 84650 85360;
0234106400999992000042206004+50120+008730FM-12+011299999V0200401N001519999999N0300001N1+01281+00971101571ADDAA124000091GA1011+030009039GF105991011001999999031011GJ103909KA1120M+02021KA2120N+01161MA1999999100421MD1710111+9999REMSYN106AAXX  22064 10640 42980 50403 10128 20097 30042 40157 57011 81031 333 10202 20116 55065 70000 81360 85070;
0165106400999992000042209004+50120+008730FM-12+011299999V0200301N001019999999N0250001N1+01991+01151101441ADDGA1011+030009039GF105991011001999999081011MA1999999100321MD1710121+9999REMSYN082AAXX  22094 10640 42975 50302 10199 20115 30032 40144 57012 81081 333 81360 85074;
0225106400999992000042218004+50120+008730FM-12+011299999V0202401N00101030001CN0350001N1+02521+00821100991ADDGA1011+018009089GA2031+030009039GF107991011021017501041061KA1120M+02761KA2120N+01281MA1999999099881MD1710061+9999REMSYN100AAXX  22184 10640 42781 72402 10252 20082 39988 40099 57006 81246 333 10276 20128 81856 83360 87475;
0256106400999992000042306004+50120+008730FM-12+011299999V0202001N00311030001CN0350001N1+01841+00951101041ADDAA124000091GA1011+009009089GA2031+015009069GF107991031081008001031999GJ105289KA1120M+01841KA2120N+01551MA1999999099921MD1010091+9999REMSYN112AAXX  23064 10640 42581 72006 10184 20095 39992 40104 50009 8383/ 333 10184 20155 55088 70000 81830 83650 87361;
0187106400999992000042309004+50120+008730FM-12+011299999V0202101N003610300019N0350001N1+02011+01011101081ADDGA1011+009009089GA2041+030009039GF107991021081008001031021MA1999999099961MD1210061+9999REMSYN088AAXX  23094 10640 42581 72107 10201 20101 39996 40108 52006 82832 333 81830 84360 87275;
0187106400999992000042312004+50120+008730FM-12+011299999V0202101N002610300019N0350001N1+02251+00931101011ADDGA1011+012009089GA2041+030009039GF107991011011008001071021MA1999999099901MD1710051+9999REMSYN088AAXX  23124 10640 42581 72105 10225 20093 39990 40101 57005 81172 333 81840 84360 87070;
0165106400999992000042315004+50120+008730FM-12+011299999V0202401N005110300019N0400001N1+02181+00901100971ADDGA1021+012009089GF108991021011008001071999MA1999999099861MD1710041+9999REMSYN082AAXX  23154 10640 42582 82410 10218 20090 39986 40097 57004 8217/ 333 82840 88360;
0203106400999992000042318004+50120+008730FM-12+011299999V0202301N00361030001CN0300001N1+01821+00741100971ADDGA1041+018009069GF108991041051017501071999KA1120M+02291KA2120N+01701MA1999999099851MD1510051+9999REMSYN094AAXX  23184 10640 42780 82307 10182 20074 39985 40097 55005 8457/ 333 10229 20170 84656 86459;
0262106400999992000042406004+50120+008730FM-12+011299999V0202201N002610015019N0080001N1+01191+01161101151ADDAA124001591AY161061AY221061GA1051+001509079GF108991081051001501999999GJ102229KA1120M+01821KA2120N+01191MA1999999100001MD1110031+9999MW1611REMSYN112AAXX  24064 10640 11258 82205 10119 20116 30000 40115 51003 76162 885// 333 10182 20119 55037 70015 85705 88519;
0215106400999992000042409004+50120+008730FM-12+011299999V0203201N002110099019N0150001N1+01141+00891101371ADDAY161031AY221031GA1011+007509089GA2051+009909069GF108991051081008001031999MA1999999100211MD1210231+9999MW1211REMSYN094AAXX  24094 10640 41565 83204 10114 20089 30021 40137 52023 72162 8583/ 333 81825 85633 87360;
0159106400999992000042415004+50120+008730FM-12+011299999V0203001N003110099019N0400001N1+01331+00671101501ADDGA1071+009909059GF108991071051012501999999MA1999999100351MD1110021+9999REMSYN076AAXX  24154 10640 42682 83006 10133 20067 30035 40150 51002 875// 333 87633;
0225106400999992000042418004+50120+008730FM-12+011299999V0203301N00151220001CN0400001N1+01421+00651101551ADDGA1011+007809089GA2041+009909059GF106991041081008001001011KA1120M+01461KA2120N+01071MA1999999100401MD1210021+9999REMSYN100AAXX  24184 10640 42582 63303 10142 20065 30040 40155 52002 84801 333 10146 20107 81826 84533 85075;
0228106400999992000042506004+50120+008730FM-12+011299999V0200301N001012200019N0110001N1+00711+00681101741ADDAA124001991GA1021+078009019GF102991001001999999001011GJ100909KA1120M+01421KA2120N+00661MA1999999100561MD1110021+9999REMSYN100AAXX  25064 10640 42961 20302 10071 20068 30056 40174 51002 80001 333 10142 20066 55015 70019 82076;
0159106400999992000042509004+50120+008730FM-12+011299999V0200601N001012200019N0140001N1+01401+00861101741ADDGA1021+078009019GF102991001001999999001011MA1999999100591MD1110031+9999REMSYN076AAXX  25094 10640 42964 20602 10140 20086 30059 40174 51003 80001 333 82076;
0165106400999992000042512004+50120+008730FM-12+011299999V0201001N001012200019N0200001N1+01761+00561101571ADDGA1011+010809089GF103991011011012501001011MA1999999100441MD1710151+9999REMSYN082AAXX  25124 10640 42670 31002 10176 20056 30044 40157 57015 81101 333 81836 83076;
0159106400999992000042515004+50120+008730FM-12+011299999V0201001N001512200019N0250001N1+01991+00451101381ADDGA1031+078009019GF103991001001999999001011MA1999999100261MD1710171+9999REMSYN076AAXX  25154 10640 42975 31003 10199 20045 30026 40138 57017 80001 333 83076;
0228106400999992000042606004+50120+008730FM-12+011299999V0200701N001512200019N0150001N1+01121+00931101291ADDAA124000091GA1021+060009019GF102991001001999999001011GJ107269KA1120M+01971KA2120N+01111MA1999999100131MD1210011+9999REMSYN100AAXX  26064 10640 42965 20703 10112 20093 30013 40129 52001 80001 333 10197 20111 55121 70000 82070;
0159106400999992000042609004+50120+008730FM-12+011299999V0200801N001512200019N0150001N1+01711+01061101221ADDGA1011+060009019GF101991001001999999001011MA1999999100091MD1810041+9999REMSYN076AAXX  26094 10640 42965 10803 10171 20106 30009 40122 58004 80001 333 81070;
0159106400999992000042612004+50120+008730FM-12+011299999V0201701N001012200019N0250001N1+02291+00981101121ADDGA1011+012009029GF102991011011012501031011MA1999999100011MD1710081+9999REMSYN076AAXX  26124 10640 42675 21702 10229 20098 30001 40112 57008 81131 333 81840;
0163106400999992000042615004+50120+008730FM-12+011299999V0202001N002612200019N0250001N1+02511+00501101001ADDGA1011+015009089GF102991011011017501031001MA1999999099901MD1710101+9999REMSYN080AAXX  26154 10640 42775 22005 10251 20050 39990 40100 57010 81130 333 81850 444;
0216106400999992000042618004+50120+008730FM-12+011299999V0202101N002112200019N0250001N1+02431+00751101031ADDGA1011+018009059GF102991011041017501999011KA1120M+02581KA2120N+01121MA1999999099931MD1110031+9999REMSYN088AAXX  26184 10640 42775 22104 10243 20075 39993 40103 51003 81401 333 10258 20112 81656;EQDQ01+000002SCOMCG
0234106400999992000042706004+50120+008730FM-12+011299999V0200401N001019999999N0250001N1+01521+01111101321ADDAA124000091GA1011+030009039GF106991011001999999031011GJ107629KA1120M+02461KA2120N+01381MA1999999100181MD1210041+9999REMSYN106AAXX  27064 10640 42975 60402 10152 20111 30018 40132 52004 81031 333 10246 20138 55127 70000 81360 85075;
0165106400999992000042709004+50120+008730FM-12+011299999V0200601N002119999999N0250001N1+02071+01151101231ADDGA1021+030009039GF106991011001999999031011MA1999999100111MD1610041+9999REMSYN082AAXX  27094 10640 42975 60604 10207 20115 30011 40123 56004 81031 333 82360 85075;
0159106400999992000042712004+50120+008730FM-12+011299999V0200801N003110750019N0400001N1+02471+01061100991ADDGA1071+075009019GF107991001001999999001061MA1999999099891MD1710201+9999REMSYN076AAXX  27124 10640 42982 70806 10247 20106 39989 40099 57020 80006 333 87075;
0165106400999992000042715004+50120+008730FM-12+011299999V0200901N002110300019N0350001N1+02401+01061100891ADDGA1021+015009069GF107991021051012501071999MA1999999099791MD1710161+9999REMSYN082AAXX  27154 10640 42681 70904 10240 20106 39979 40089 57016 8257/ 333 82650 87360;
0203106400999992000042718004+50120+008730FM-12+011299999V0200701N001519999999N0350001N1+02311+01001100811ADDGA1041+033009039GF107991041001999999031021KA1120M+02481KA2120N+01481MA1999999099711MD1710081+9999REMSYN094AAXX  27184 10640 42981 70703 10231 20100 39971 40081 57008 84032 333 10248 20148 84361 86076;
0228106400999992000042806004+50120+008730FM-12+011299999V0200401N001010750019N0300001N1+01521+01221100601ADDAA124000091GA1051+075009019GF105991001001999999001021GJ103369KA1120M+02311KA2120N+01411MA1999999099481MD1210041+9999REMSYN100AAXX  28064 10640 42980 50402 10152 20122 39948 40060 52004 80002 333 10231 20141 55056 70000 85075;
0172106400999992000042809004+50120+008730FM-12+011299999V0201401N001010750019N0200001N1+01811+99999100631ADDGA1061+075009089GF106991999001999999001061MA1999999099511MD1210041+9999REMSYN070AAXX  28094 10640 42970 61402 10181 39951 40063 52004 80006 333 86275;EQDQ01+000002SCOTLC
0178106400999992000042812004+50120+008730FM-12+011299999V0201301N001510750019N0200001N1+02101+01181100591ADDGA1071+075009089GF107991999001999999001061MA1999999099481MD1710041+9999REMSYN076AAXX  28124 10640 42970 71303 10210 20118 39948 40059 57004 80006 333 87275;EQDQ01+000002SCOTLC
0165106400999992000042815004+50120+008730FM-12+011299999V0200701N003119999999N0200001N1+02411+01211100591ADDGA1031+033009039GF107991031001999999041061MA1999999099491MD1210011+9999REMSYN082AAXX  28154 10640 42970 70706 10241 20121 39949 40059 52001 83046 333 83361 87275;
0203106400999992000042818004+50120+008730FM-12+011299999V0200601N001019999999N0250001N1+02341+01151100691ADDGA1021+033009039GF107991021001999999031081KA1120M+02431KA2120N+01451MA1999999099591MD1210071+9999REMSYN094AAXX  28184 10640 42975 70602 10234 20115 39959 40069 52007 82038 333 10243 20145 82361 87275;
0262106400999992000042906004+50120+008730FM-12+011299999V0202201N001510300019N0120001N1+01431+01401101331ADDAA124000291AY161061AY221061GA1031+010809069GF107991031051012501031999GJ100669KA1120M+02361KA2120N+01431MA1999999100191MD1210211+9999MW1211REMSYN112AAXX  29064 10640 41662 72203 10143 20140 30019 40133 52021 72162 8353/ 333 10236 20143 55011 70002 83636 87360;
0193106400999992000042909004+50120+008730FM-12+011299999V0202101N00211007501CN0150001N1+01511+01341101491ADDAY161031AY221031GA1041+009009069GF108991081051008001999999MA1999999100351MD1210161+9999MW1021REMSYN088AAXX  29094 10640 41565 82104 10151 20134 30035 40149 52016 70262 885// 333 84630 88640;
0187106400999992000042912004+50120+008730FM-12+011299999V0201801N001510078019N0150001N1+01611+01431101571ADDGA1011+006009089GA2041+007809069GF108991081081008001999999MA1999999100431MD1210091+9999REMSYN088AAXX  29124 10640 42565 81803 10161 20143 30043 40157 52009 888// 333 81820 84626 87633;
0165106400999992000042915004+50120+008730FM-12+011299999V0202001N002110036019N0120001N1+01591+01431101701ADDGA1051+003609069GF108991051051004501071999MA1999999100561MD1210131+9999REMSYN082AAXX  29154 10640 42462 82004 10159 20143 30056 40170 52013 8557/ 333 85612 88360;
0203106400999992000042918004+50120+008730FM-12+011299999V0202001N00101002101CN0100001N1+01681+01511101821ADDGA1011+002409079GF108991071051002501999999KA1120M+01731KA2120N+01421MA1999999100681MD1210121+9999REMSYN094AAXX  29184 10640 42360 82002 10168 20151 30068 40182 52012 875// 333 10173 20142 81708 87615;
0254106400999992000043006004+50120+008730FM-12+011299999V0202301N00101004201CN0040001N1+01461+01411102071ADDAA124000191AY121061AY221061GA1031+003009079GF108991081051004501999999KA1120M+01681KA2120N+01421MA1999999100921MD1310031+9999MW1101REMSYN112AAXX  30064 10640 41440 82302 10146 20141 30092 40207 53003 71022 885// 333 10168 20142 50000 70001 83710 88620;
0193106400999992000043009004+50120+008730FM-12+011299999V0200301N001010042019N0040001N1+01681+01461102181ADDAY121031AY221031GA1051+004209069GF108991081051004501999999MA1999999101041MD1210101+9999MW1101REMSYN088AAXX  30094 10640 41440 80302 10168 20146 30104 40218 52010 71022 885// 333 85614 86630;
0193106400999992000043012004+50120+008730FM-12+011299999V0203301N001010060019N0070001N1+01811+01471102181ADDAY121061AY221061GA1051+006009069GF108991051051008001021999MA1999999101041MD1410001+9999MW1101REMSYN088AAXX  30124 10640 41557 83302 10181 20147 30104 40218 54000 71022 8552/ 333 85620 87460;
0165106400999992000043015004+50120+008730FM-12+011299999V0200401N001010300019N0100001N1+02121+01491102031ADDGA1031+007809069GF107991031051008001021999MA1999999100911MD1710111+9999REMSYN082AAXX  30154 10640 42560 70402 10212 20149 30091 40203 57011 8352/ 333 83626 87360;
0203106400999992000043018004+50120+008730FM-12+011299999V0200201N002110300019N0100001N1+02001+01461102001ADDGA1011+010809069GF107991011051012501031999KA1120M+02151KA2120N+01461MA1999999100811MD1710071+9999REMSYN094AAXX  30184 10640 42660 70204 10200 20146 30081 40200 57007 8153/ 333 10215 20146 81636 87360;
0262106400999992000050106004+50120+008730FM-12+011299999V0203401N00211030001CN0060001N1+01451+01411102051ADDAA124000091AY121061AY221061GA1011+009009069GF106991011051008001031011GJ100489KA1120M+02001KA2120N+01441MA1999999100901MD1210031+9999MW1101REMSYN112AAXX  01064 10640 41556 63404 10145 20141 30090 40205 52003 71022 81531 333 10200 20144 55008 70000 81630 85070;
0159106400999992000050109004+50120+008730FM-12+011299999V0203401N003610084019N0120001N1+01731+01421102061ADDGA1061+008409029GF106991061021008001001011MA1999999100921MD1110021+9999REMSYN076AAXX  01094 10640 42562 63407 10173 20142 30092 40206 51002 86201 333 86828;
0165106400999992000050112004+50120+008730FM-12+011299999V0203501N00361030001CN0180001N1+01941+01441101971ADDGA1021+009009089GF106991021021008001031021MA1999999100841MD1710051+9999REMSYN082AAXX  01124 10640 42568 63507 10194 20144 30084 40197 57005 82232 333 82830 86075;
0187106400999992000050115004+50120+008730FM-12+011299999V0203601N004110750019N0200001N1+02301+01391101941ADDGA1021+009009089GA2041+075009009GF105991021021008001031011MA1999999100631MD1710201+9999REMSYN088AAXX  01154 10640 42570 53608 10230 20139 30063 40194 57020 82231 333 82830 84075 91113;
0225106400999992000050118004+50120+008730FM-12+011299999V0200801N003110090019N0120001N1+01921+01361101791ADDAY121061AY221061GA1061+009009099GF107991061091008001031011KA1120M+02341KA2120N+01451MA1999999100661MD1110051+9999MW1171REMSYN094AAXX  01184 10640 41562 70806 10192 20136 30066 40179 51005 71722 86931 333 10234 20145 86930;
0246106400999992000050206004+50120+008730FM-12+011299999V0203601N003110300019N0060001N1+01461+01401101951ADDAA124016191GA1031+015009069GF106991031051017501031011GJ103069KA1120M+02121KA2120N+01421MA1999999100801MD1210021+9999MW1101REMSYN112AAXX  02064 10640 41756 63606 10146 20140 30080 40195 52002 710// 83531 333 10212 20142 55051 70161 83650 83360;
0187106400999992000050209004+50120+008730FM-12+011299999V0200101N002610270019N0110001N1+01711+01461102011ADDGA1021+008409089GA2041+027009039GF107991021011008001071999MA1999999100871MD1210071+9999REMSYN088AAXX  02094 10640 42561 70105 10171 20146 30087 40201 52007 8217/ 333 82828 84359 87361;
0187106400999992000050212004+50120+008730FM-12+011299999V0203501N002110270019N0140001N1+01971+01511101951ADDGA1021+008409089GA2041+027009039GF106991021021008001071011MA1999999100821MD1810051+9999REMSYN088AAXX  02124 10640 42564 63504 10197 20151 30082 40195 58005 82271 333 82828 84359 86362;
0165106400999992000050215004+50120+008730FM-12+011299999V0200201N00211030001CN0180001N1+02281+01511101791ADDGA1011+008409089GF106991011011008001031011MA1999999100681MD1710121+9999REMSYN082AAXX  02154 10640 42568 60204 10228 20151 30068 40179 57012 81131 333 81828 84359;
0234106400999992000050306004+50120+008730FM-12+011299999V0200101N001519999999N0180001N1+01611+01441101831ADDAA124000291GA1041+030009039GF107991041001999999031021GJ103309KA1120M+01961KA2120N+01501MA1999999100691MD1210021+9999REMSYN106AAXX  03064 10640 42968 70103 10161 20144 30069 40183 52002 84032 333 10196 20150 55055 70002 84360 85075;
0165106400999992000050309004+50120+008730FM-12+011299999V0200401N001012200019N0200001N1+01981+00991101871ADDGA1021+030009039GF104991021001999999031021MA1999999100741MD1110041+9999REMSYN082AAXX  03094 10640 42970 40402 10198 20099 30074 40187 51004 82032 333 82360 84075;
0165106400999992000050312004+50120+008730FM-12+011299999V0200801N00211015001CN0300001N1+02261+01091101761ADDGA1021+015009069GF106991051081012501031001MA1999999100651MD1710051+9999REMSYN082AAXX  03124 10640 42680 60804 10226 20109 30065 40176 57005 85830 333 82650 86360;
0144106400999992000050315004+50120+008730FM-12+011299999V0201101N00151030001CN0250001N1+02521+00351101631ADDGA1021+010509089GF105991031081012501031011MD1710121+9999REMSYN076AAXX  03154 10640 42675 51103 10252 20035 40163 57012 83831 333 82835 84361;
0137106400999992000050318004+50120+008730FM-12+011299999V0201301N001510300019N0250001N1+02351+00311101621ADDGF106991041081012501031011MA1999999100511MD1610021+9999REMSYN070AAXX  03184 10640 42675 61303 10235 20031 30051 40162 56002 84831 333;
0262106400999992000050406004+50120+008730FM-12+011299999V0200301N00051030001CN0150001N1+01591+01471101881ADDAA124000691AY191061AY281061GA1021+009009069GF107991021051008001031999GJ104869KA1120M+01961KA2120N+01501MA1999999100741MD1210081+9999MW1101REMSYN112AAXX  04064 10640 41565 70301 10159 20147 30074 40188 52008 71098 8253/ 333 10196 20150 55081 70006 82630 85359;
0165106400999992000050409004+50120+008730FM-12+011299999V0200501N00101009001CN0100001N1+01861+01431101911ADDGA1011+003009089GF106991051081004501031999MA1999999100781MD1110051+9999REMSYN082AAXX  04094 10640 42460 60502 10186 20143 30078 40191 51005 8583/ 333 81810 85650;
0165106400999992000050412004+50120+008730FM-12+011299999V0202301N000510300019N0150001N1+02121+01371101861ADDGA1011+002709089GF106991041081004501031011MA1999999100741MD1710031+9999REMSYN082AAXX  04124 10640 42465 62301 10212 20137 30074 40186 57003 84831 333 81809 83827;
0165106400999992000050415004+50120+008730FM-12+011299999V0200201N001510300019N0200001N1+02311+01391101721ADDGA1041+010809089GF106991041021012501031011MA1999999100611MD1710141+9999REMSYN082AAXX  04154 10640 42670 60203 10231 20139 30061 40172 57014 84231 333 84836 83360;
0203106400999992000050418004+50120+008730FM-12+011299999V0201401N00151007501CN0200001N1+02101+01211101731ADDGA1011+006009099GF107991061091008001031999KA1120M+02381KA2120N+01561MA1999999100611MD1410001+9999REMSYN094AAXX  04184 10640 42570 71403 10210 20121 30061 40173 54000 8693/ 333 10238 20156 81920 86630;
0234106400999992000050506004+50120+008730FM-12+011299999V0200501N001012200019N0300001N1+01481+01121101821ADDAA124000091GA1021+030009039GF104991021001001501031011GJ102469KA1120M+02101KA2120N+01311MA1999999100651MD1710021+9999REMSYN106AAXX  05064 10640 42280 40502 10148 20112 30065 40182 57002 82031 333 10210 20131 55041 70000 82360 84072;
0165106400999992000050512004+50120+008730FM-12+011299999V0201301N002119999999N0300001N1+02461+01051101581ADDGA1031+015009089GF106991051081999999031011MA1999999100481MD1710141+9999REMSYN082AAXX  05124 10640 42980 61304 10246 20105 30048 40158 57014 85831 333 83850 83656;
0215106400999992000050515004+50120+008730FM-12+011299999V0201501N00101030001CN0250001N1+02361+01121101471ADDAY121031AY221031GA1031+010809089GA2011+015009099GF107991041091012501031011MA1999999100361MD1710151+9999MW1171REMSYN094AAXX  05154 10640 41675 71502 10236 20112 30036 40147 57015 71722 84931 333 83836 81950 86362;
0231106400999992000050518004+50120+008730FM-12+011299999V0201201N001012200019N0350001N1+02391+01011101391ADDAY191061AY221061GA1011+012009099GF104991011091012501031021KA1120M+02551KA2120N+01471MA1999999100281MD1710081+9999MW1021REMSYN100AAXX  05184 10640 41681 41202 10239 20101 30028 40139 57008 70292 81932 333 10255 20147 81940 83360;
0228106400999992000050606004+50120+008730FM-12+011299999V0200201N001012200019N0250001N1+01551+01171101601ADDAA124000091GA1011+027009079GF101991011001999999031001GJ106009KA1120M+02391KA2120N+01301MA1999999100461MD1110041+9999REMSYN100AAXX  06064 10640 42975 10202 10155 20117 30046 40160 51004 81030 333 10239 20130 55100 70000 81359;
0194106400999992000050609004+50120+008730FM-12+011299999V0200401N001012200019N0250001N1+02201+01301101571ADDGA1011+036009079GF101991011001999999031001MA1999999100461MD1710031+9999REMSYN076AAXX  06094 10640 42975 10402 10220 20130 30046 40157 57000 81030 333 81362;EQDQ01+000072APCTENQ02+000002APC3  
0159106400999992000050612004+50120+008730FM-12+011299999V0200901N002112200019N0300001N1+02491+00651101431ADDGA1011+015009029GF101991011011999999001001MA1999999100331MD1710111+9999REMSYN076AAXX  06124 10640 42980 10904 10249 20065 30033 40143 57011 81100 333 81850;
0197106400999992000050618004+50120+008730FM-12+011299999V0201001N001512200019N0400001N1+02461+00771101291ADDGA1031+075009019GF103991001001999999001021KA1120M+02691KA2120N+01501MA1999999100191MD1710051+9999REMSYN088AAXX  06184 10640 42982 31003 10246 20077 30019 40129 57005 80002 333 10269 20150 83075;
0234106400999992000050706004+50120+008730FM-12+011299999V0200201N000512200019N0150001N1+01591+01291101551ADDAA124000091GA1011+012009069GF103991011051012501031011GJ107989KA1120M+02491KA2120N+01551MA1999999100411MD1210031+9999REMSYN106AAXX  07064 10640 42665 30201 10159 20129 30041 40155 52003 81531 333 10249 20155 55133 70000 81640 83070;
0165106400999992000050709004+50120+008730FM-12+011299999V0201601N000519999999N0200001N1+02111+01171101631ADDGA1011+036009039GF106991011001999999031011MA1999999100511MD1210101+9999REMSYN082AAXX  07094 10640 42970 61601 10211 20117 30051 40163 52010 81031 333 81362 85075;
0165106400999992000050712004+50120+008730FM-12+011299999V0203001N00101220001CN0300001N1+02491+01201101591ADDGA1011+009009089GF106991011021008001001011MA1999999100491MD1710011+9999REMSYN082AAXX  07124 10640 42580 63002 10249 20120 30049 40159 57001 81201 333 81830 86075;
0253106400999992000050718004+50120+008730FM-12+011299999V0200201N000510750019N0300001N1+02301+01291101551ADDAY191061AY221061GA1011+009909089GA2031+027009039GF106991011011008001031061KA1120M+02701KA2120N+01591MA1999999100441MD1510031+9999MW1021REMSYN106AAXX  07184 10640 41580 60201 10230 20129 30044 40155 55003 70292 81136 333 10270 20159 81833 83359 85075;
0228106400999992000050806004+50120+008730FM-12+011299999V0200201N001010600019N0250001N1+01551+01331101811ADDAA124000091GA1061+060009019GF106991001001999999001011GJ105709KA1120M+02341KA2120N+01431MA1999999100681MD1210091+9999REMSYN100AAXX  08064 10640 42975 60202 10155 20133 30068 40181 52009 80001 333 10234 20143 55095 70000 86070;
0159106400999992000050809004+50120+008730FM-12+011299999V0203601N001010720019N0250001N1+02151+01321101831ADDGA1061+072009019GF106991001001999999001011MA1999999100711MD1110021+9999REMSYN076AAXX  08094 10640 42975 63602 10215 20132 30071 40183 51002 80001 333 86074;
0165106400999992000050812004+50120+008730FM-12+011299999V0200501N00211220001CN0250001N1+02701+00981101731ADDGA1021+009009099GF106991021091008001001011MA1999999100631MD1710021+9999REMSYN082AAXX  08124 10640 42575 60504 10270 20098 30063 40173 57002 82901 333 82930 85070;
0237106400999992000050815004+50120+008730FM-12+011299999V0203201N004110750019N0250001N1+02281+01001101711ADDAY121031AY221031GA1031+009009099GA2041+009009089GA3061+075009009GF107991041091008001001011MA1999999100601MD1710051+9999MW1171REMSYN100AAXX  08154 10640 41575 73208 10228 20100 30060 40171 57005 71722 84901 333 84830 83930 86075 91113;
0316106400999992000050818004+50120+008730FM-12+011299999V0202501N001010300019N0250001N1+01991+01591101771ADDAY191061AY221061GA1021+004509089GA2021+010809099GA3031+030009039GA4061+075009009GF107991041091004501031011KA1120M+02801KA2120N+99999MA1999999100641MD1210071+9999MW1291REMSYN118AAXX  08184 10640 41475 72502 10199 20159 30064 40177 52007 72992 84931 333 10280 20234 82815 82936 83360 86075 91113;EQDQ01 +02342ATMN  
0228106400999992000050906004+50120+008730FM-12+011299999V0200501N001012200019N0120001N1+01501+01421101991ADDAA124000691GA1021+060009019GF102991001001999999001011GJ105229KA1120M+02021KA2120N+01341MA1999999100841MD1210061+9999REMSYN100AAXX  09064 10640 42962 20502 10150 20142 30084 40199 52006 80001 333 10202 20134 55087 70006 82070;
0159106400999992000050909004+50120+008730FM-12+011299999V0203601N001012200019N0120001N1+02101+01481101981ADDGA1031+060009019GF103991001001999999001011MA1999999100861MD1210011+9999REMSYN076AAXX  09094 10640 42962 33602 10210 20148 30086 40198 52001 80001 333 83070;
0165106400999992000050912004+50120+008730FM-12+011299999V0202401N000512200019N0150001N1+02491+01301101861ADDGA1011+007509099GF105991031091008001001011MA1999999100751MD1710111+9999REMSYN082AAXX  09124 10640 42565 52401 10249 20130 30075 40186 57011 83901 333 81925 83830;
0159106400999992000050915004+50120+008730FM-12+011299999V0203601N002612200019N0300001N1+02661+01161101791ADDGA1021+015009029GF102991021021012501061011MA1999999100691MD1710051+9999REMSYN076AAXX  09154 10640 42680 23605 10266 20116 30069 40179 57005 82261 333 82850;
0203106400999992000050918004+50120+008730FM-12+011299999V0200201N002612200019N0250001N1+02411+01171101711ADDGA1011+018009069GF103991011041017501041011KA1120M+02721KA2120N+01491MA1999999100601MD1710101+9999REMSYN094AAXX  09184 10640 42775 30205 10241 20117 30060 40171 57010 81441 333 10272 20149 81656 83080;
0234106400999992000051006004+50120+008730FM-12+011299999V0200301N001012200019N0080001N1+01661+01501101811ADDAA124000091GA1011+030009039GF104991011001999999041011GJ107569KA1120M+02461KA2120N+01591MA1999999100691MD1210011+9999REMSYN106AAXX  10064 10640 42958 40302 10166 20150 30069 40181 52001 81041 333 10246 20159 55126 70000 81360 84075;
0159106400999992000051009004+50120+008730FM-12+011299999V0200201N000512200019N0150001N1+02331+01561101791ADDGA1031+075009019GF103991001001999999001011MA1999999100681MD1110031+9999REMSYN076AAXX  10094 10640 42965 30201 10233 20156 30068 40179 51003 80001 333 83075;
0159106400999992000051012004+50120+008730FM-12+011299999V0200401N001012200019N0200001N1+02801+01151101661ADDGA1011+012009099GF103991011091012501031011MA1999999100571MD1710061+9999REMSYN076AAXX  10124 10640 42670 30402 10280 20115 30057 40166 57006 81931 333 81940;
0159106400999992000051015004+50120+008730FM-12+011299999V0200101N001512200019N0250001N1+02871+00991101501ADDGA1011+018009029GF102991011011017501001011MA1999999100411MD1710161+9999REMSYN076AAXX  10154 10640 42775 20103 10287 20099 30041 40150 57016 81101 333 81856;
0225106400999992000051018004+50120+008730FM-12+011299999V0200101N002110300019N0300001N1+02731+01081101501ADDGA1021+012009089GA2031+030009039GF106991021011017501031011KA1120M+02961KA2120N+01651MA1999999100411MD1410001+9999REMSYN100AAXX  10184 10640 42780 60104 10273 20108 30041 40150 54000 82131 333 10296 20165 82840 83360 85070;
0159106400999992000051109004+50120+008730FM-12+011299999V0200201N002610720019N0180001N1+02401+01571101691ADDGA1071+072009019GF107991001001999999001021MA1999999100581MD1810021+9999REMSYN076AAXX  11094 10640 42968 70205 10240 20157 30058 40169 58002 80002 333 87074;
0165106400999992000051112004+50120+008730FM-12+011299999V0200201N00211220001CN0180001N1+02841+01491101591ADDGA1011+014409089GF107991011011012501001011MA1999999100501MD1710071+9999REMSYN082AAXX  11124 10640 42668 70204 10284 20149 30050 40159 57007 81101 333 81848 87075;
0165106400999992000051115004+50120+008730FM-12+011299999V0209999V003619999999N0200001N1+02861+01301101501ADDGA1021+015009089GF106991021021999999001011MA1999999100411MD1710101+9999REMSYN082AAXX  11154 10640 42970 69907 10286 20130 30041 40150 57010 82201 333 82850 85075;
0225106400999992000051118004+50120+008730FM-12+011299999V0200601N00311030001CN0250001N1+02621+01301101501ADDGA1011+015009099GA2031+036009039GF107991011091017501031021KA1120M+02941KA2120N+01791MA1999999100401MD1710011+9999REMSYN100AAXX  11184 10640 42775 70606 10262 20130 30040 40150 57001 81932 333 10294 20179 81950 83362 87075;
0284106400999992000051206004+50120+008730FM-12+011299999V0203501N001510300019N0250001N1+01881+01151101911ADDAA124000091AY191061AY221061GA1011+012009099GA2041+030009039GF107991011091012501071021GJ106369KA1120M+02681KA2120N+01821MA1999999100781MD1210111+9999MW1291REMSYN118AAXX  12064 10640 41675 73503 10188 20115 30078 40191 52011 72992 81972 333 10268 20182 55106 70000 81940 84360 86075;
0165106400999992000051209004+50120+008730FM-12+011299999V0200701N00101030001CN0200001N1+02061+01161101981ADDGA1021+003909089GF107991021021004501081021MA1999999100861MD1210061+9999REMSYN082AAXX  12094 10640 42470 70702 10206 20116 30086 40198 52006 82282 333 82813 86075;
0165106400999992000051212004+50120+008730FM-12+011299999V02099999999990120019N0200001N1+02081+01561102001ADDGA1051+012009069GF107991051051999999071999MA1999999100881MD1210021+9999REMSYN082AAXX  12124 10640 42970 7//// 10208 20156 30088 40200 52002 8557/ 333 85640 87360;
0184106400999992000051215004+50120+008730FM-12+011299999V02099999999999999999N0200001N1+02111+01491101991ADDGA1041+030009049GF107991041001999999071021MA1999999100871MD1710011+9999REMSYN082AAXX  12154 10640 42970 7//// 10211 20149 30087 40199 57072 84072 333 84460 86074;EQDQ01+000722APC3  
0193106400999992000051218004+50120+008730FM-12+011299999V02099999999990300019N0180001N1+02101+01581102011ADDAY181061AY221061GA1031+018009069GF107991031061017501031999MA1999999100891MD1310011+9999MW1021REMSYN088AAXX  12184 10640 41768 7//// 10210 20158 30089 40201 53001 70282 8363/ 333 83656 87360;
0228106400999992000051306004+50120+008730FM-12+011299999V02099999999992200019N0400001N1+01391+00531102381ADDAA124000091GA1031+075009019GF103991001001999999001011GJ101749KA1120M+02141KA2120N+01291MA1999999101221MD1210091+9999REMSYN100AAXX  13064 10640 42982 3//// 10139 20053 30122 40238 52009 80001 333 10214 20129 55029 70000 83075;
0159106400999992000051309004+50120+008730FM-12+011299999V02099999999992200019N0400001N1+01901+00551102411ADDGA1021+075009019GF102991001001999999001011MA1999999101271MD1210111+9999REMSYN076AAXX  13094 10640 42982 2//// 10190 20055 30127 40241 52011 80001 333 82075;
0159106400999992000051312004+50120+008730FM-12+011299999V02099999999992200019N0450001N1+02321+00721102331ADDGA1011+075009019GF101991001001999999001011MA1999999101211MD1710051+9999REMSYN076AAXX  13124 10640 42983 1//// 10232 20072 30121 40233 57005 80001 333 81075;
0159106400999992000051315004+50120+008730FM-12+011299999V02099999999992200019N0450001N1+02511+00791102231ADDGA1011+012009029GF102991011011012501001011MA1999999101121MD1710101+9999REMSYN076AAXX  13154 10640 42683 2//// 10251 20079 30112 40223 57010 81101 333 81840;
0197106400999992000051318004+50120+008730FM-12+011299999V02099999999992200019N0300001N1+02321+00731102231ADDGA1011+018009029GF101991011011017501001011KA1120M+02581KA2120N+01361MA1999999101111MD1410001+9999REMSYN088AAXX  13184 10640 42780 1//// 10232 20073 30111 40223 54000 81101 333 10258 20136 81856;
0228106400999992000051406004+50120+008730FM-12+011299999V02099999999992200019N0300001N1+01431+00771102581ADDAA124000091GA1021+060009019GF102991001001999999001011GJ108409KA1120M+02411KA2120N+01391MA1999999101421MD1210051+9999REMSYN100AAXX  14064 10640 42980 2//// 10143 20077 30142 40258 52005 80001 333 10241 20139 55140 70000 82070;
0143106400999992000051409004+50120+008730FM-12+011299999V02099999999992200019N0500001N1+02141+00591102611ADDGA1001+999999999GF100991001001999999001001MA1999999101481MD1210051+9999REMSYN060AAXX  14094 10640 42984 0//// 10214 20059 30148 40261 52005;
0143106400999992000051412004+50120+008730FM-12+011299999V02099999999992200019N0500001N1+02531+00421102471ADDGA1001+999999999GF100991001001999999001001MA1999999101361MD1710111+9999REMSYN060AAXX  14124 10640 42984 0//// 10253 20042 30136 40247 57011;
0143106400999992000051415004+50120+008730FM-12+011299999V02099999999992200019N0450001N1+02781+00621102331ADDGA1001+999999999GF100991001001999999001001MA1999999101231MD1710131+9999REMSYN060AAXX  14154 10640 42983 0//// 10278 20062 30123 40233 57013;
0185106400999992000051418004+50120+008730FM-12+011299999V02099999999992200019N0500001N1+02591+00591102291ADDGA1001+999999999GF100991001001999999001001KA1120M+02791KA2999N+01421MA1999999101181MD1710051+9999REMSYN076AAXX  14184 10640 42984 0//// 10259 20059 30118 40229 57005 333 10279 20142;
0228106400999992000051506004+50120+008730FM-12+011299999V02099999999992200019N0300001N1+01551+01001102351ADDAA124000091GA1011+060009019GF101991001001999999001011GJ108409KA1120M+02591KA2120N+01451MA1999999101201MD1210021+9999REMSYN100AAXX  15064 10640 42980 1//// 10155 20100 30120 40235 52002 80001 333 10259 20145 55140 70000 81070;
0159106400999992000051509004+50120+008730FM-12+011299999V02099999999992200019N0400001N1+02381+00901102301ADDGA1011+075009019GF101991001001999999001011MA1999999101181MD1710031+9999REMSYN076AAXX  15094 10640 42982 1//// 10238 20090 30118 40230 57003 80001 333 81075;
0159106400999992000051512004+50120+008730FM-12+011299999V02099999999992200019N0400001N1+02701+00441102141ADDGA1011+012009029GF101991011011012501001011MA1999999101041MD1710121+9999REMSYN076AAXX  15124 10640 42682 1//// 10270 20044 30104 40214 57012 81101 333 81840;
0159106400999992000051515004+50120+008730FM-12+011299999V0202001N002612200019N0400001N1+02821-00171101981ADDGA1011+012009029GF101991011011012501001011MA1999999100881MD1710161+9999REMSYN076AAXX  15154 10640 42682 12005 10282 21017 30088 40198 57016 81101 333 81840;
0159106400999992000051518004+50120+008730FM-12+011299999V0202301N002112200019N0400001N1+02721+00351101901ADDGA1021+075009019GF102991001001999999001011MA1999999100801MD1710121+9999REMSYN076AAXX  15184 10640 42982 22304 10272 20035 30080 40190 57012 80001 333 82075;
0228106400999992000051606004+50120+008730FM-12+011299999V0200601N001012200019N0250001N1+01581+00991101911ADDAA124000091GA1031+060009019GF103991001001999999001011GJ108409KA1120M+02721KA2120N+01431MA1999999100771MD1710011+9999REMSYN100AAXX  16064 10640 42975 30602 10158 20099 30077 40191 57001 80001 333 10272 20143 55140 70000 83070;
0165106400999992000051609004+50120+008730FM-12+011299999V0203401N000512200019N0200001N1+02351+01081101851ADDGA1011+012009089GF103991011021012501001011MA1999999100741MD1710031+9999REMSYN082AAXX  16094 10640 42670 33401 10235 20108 30074 40185 57003 81201 333 81840 83070;
0165106400999992000051612004+50120+008730FM-12+011299999V0201901N00151220001CN0250001N1+02701+01141101681ADDGA1031+021009089GF105991031021022501001011MA1999999100581MD1710161+9999REMSYN082AAXX  16124 10640 42875 51903 10270 20114 30058 40168 57016 83201 333 83857 85075;
0165106400999992000051615004+50120+008730FM-12+011299999V0202601N00211220001CN0300001N1+02801+01091101521ADDGA1021+018009089GF105991021021017501001011MA1999999100431MD1710151+9999REMSYN082AAXX  16154 10640 42780 52604 10280 20109 30043 40152 57015 82201 333 82856 85075;
0203106400999992000051618004+50120+008730FM-12+011299999V0201701N001012200019N0300001N1+02701+01311101391ADDGA1011+018009089GF104991011021017501001011KA1120M+02871KA2120N+01581MA1999999100301MD1710131+9999REMSYN094AAXX  16184 10640 42780 41702 10270 20131 30030 40139 57013 81201 333 10287 20158 81856 84075;
0234106400999992000051706004+50120+008730FM-12+011299999V0202101N003619999999N0200001N1+01981+01281101241ADDAA124000091GA1021+030009039GF106991021001999999031011GJ107989KA1120M+02761KA2120N+01581MA1999999100121MD1710041+9999REMSYN106AAXX  17064 10640 42970 62107 10198 20128 30012 40124 57004 82031 333 10276 20158 55133 70000 82360 86075;
0187106400999992000051709004+50120+008730FM-12+011299999V0202301N003610300019N0200001N1+02241+01411101311ADDGA1011+009609089GA2031+013509069GF107991031081008001031011MA1999999100201MD1210081+9999REMSYN088AAXX  17094 10640 42570 72307 10224 20141 30020 40131 52008 83831 333 81832 83645 85360;
0215106400999992000051712004+50120+008730FM-12+011299999V0202101N003610300019N0200001N1+01931+01491101441ADDAY181061AY221061GA1021+009609089GA2041+013509069GF108991041081008001071999MA1999999100321MD1210101+9999MW1251REMSYN094AAXX  17124 10640 42570 82107 10193 20149 30032 40144 52010 72582 8487/ 333 82832 84645 87360;
0193106400999992000051715004+50120+008730FM-12+011299999V0202401N004110300019N0250001N1+02061+01171101371ADDAY181031AY221031GA1031+010809089GF105991031021012501031011MA1999999100251MD1610071+9999MW1011REMSYN088AAXX  17154 10640 41675 52408 10206 20117 30025 40137 56007 70182 83231 333 83836 84360;
0165106400999992000051718004+50120+008730FM-12+011299999V0202301N003110300019N0250001N1+01971+01201101331ADDGA1011+009009089GF106991031081012501031011MA1999999100211MD1710031+9999REMSYN082AAXX  17184 10640 42675 62306 10197 20120 30021 40133 57003 83831 333 81830 83640;
0187106400999992000051809004+50120+008730FM-12+011299999V0202201N00151013801CN0250001N1+01531+00661101111ADDGA1021+007509089GA2031+013809069GF107991041081008001071999MA1999999099971MD1710081+9999REMSYN088AAXX  18094 10640 42575 72203 10153 20066 39997 40111 57008 8487/ 333 82825 83646 87360;
0193106400999992000051815004+50120+008730FM-12+011299999V0202201N004612200019N0400001N1+01671+00641100921ADDAY181031AY261031GA1021+007509089GF103991021081008001041999MA1999999099791MD1710091+9999MW1011REMSYN088AAXX  18154 10640 41582 32209 10167 20064 39979 40092 57009 70186 8284/ 333 82825 91118;
0292106400999992000051818004+50120+008730FM-12+011299999V0202401N002610150019N0350001N1+01451+00691100991ADDAY181061AY261061GA1011+007509099GA2031+010509089GA3051+015009069GF106991051091008001031011KA1120M+01711KA2120N+01231MA1999999099881MD1210071+9999MW1031OA149900931REMSYN118AAXX  18184 10640 41581 62405 10145 20069 39988 40099 52007 70386 85931 333 10171 20123 81925 83835 85650 91118 91212;
0234106400999992000051906004+50120+008730FM-12+011299999V0202101N00261012001CN0200001N1+00971+00831101191ADDAA124003191GA1011+007509089GF107991071081008001999999GJ102529KA1120M+01491KA2120N+00921MA1999999100031MD1210061+9999REMSYN106AAXX  19064 10640 42570 72105 10097 20083 30003 40119 52006 878// 333 10149 20092 55042 70031 81825 87656;
0187106400999992000051909004+50120+008730FM-12+011299999V0202201N003610075019N0250001N1+01251+00791101221ADDGA1011+004509089GA2051+007509069GF107991071081004501999999MA1999999100071MD1010041+9999REMSYN088AAXX  19094 10640 42475 72207 10125 20079 30007 40122 50004 878// 333 81815 85625 87656;
0193106400999992000051912004+50120+008730FM-12+011299999V0202401N00151004201CN0250001N1+01381+00791101121ADDAY181061AY221061GA1021+004809099GF107991071091004501999999MA1999999099981MD1710091+9999MW1251REMSYN088AAXX  19124 10640 41475 72403 10138 20079 39998 40112 57009 72582 879// 333 82916 85825;
0215106400999992000051915004+50120+008730FM-12+011299999V0202701N003610090019N0250001N1+01391+00641101001ADDAY121031AY221031GA1031+005409089GA2031+009009069GF106991051081008001031011MA1999999099861MD1710121+9999MW1251REMSYN094AAXX  19154 10640 41575 62707 10139 20064 39986 40100 57012 72522 85831 333 83818 83630 85360;
0253106400999992000051918004+50120+008730FM-12+011299999V0202101N002110090019N0300001N1+01371+00671100931ADDAY181061AY221061GA1031+007509089GA2031+009009069GF106991051081008001031001KA1120M+01531KA2120N+00971MA1999999099791MD1710071+9999MW1251REMSYN106AAXX  19184 10640 41580 62104 10137 20067 39979 40093 57007 72582 85830 333 10153 20097 83825 83630 91113;
0284106400999992000052006004+50120+008730FM-12+011299999V0202101N002110300019N0100001N1+00811+00761101251ADDAA124002491AY181061AY221061GA1021+003009089GA2041+011409069GF107991041081002501071999GJ102709KA1120M+01401KA2120N+00741MA1999999100081MD1210101+9999MW1601REMSYN118AAXX  20064 10640 41360 72104 10081 20076 30008 40125 52010 76082 8487/ 333 10140 20074 55045 70024 82810 84638 87360;
0215106400999992000052009004+50120+008730FM-12+011299999V0202301N003610300019N0200001N1+01091+00631101331ADDAY161031AY221031GA1011+006909089GA2041+012009069GF107991041081008001071999MA1999999100171MD1110101+9999MW1021REMSYN094AAXX  20094 10640 41570 72307 10109 20063 30017 40133 51010 70262 8487/ 333 81823 84640 86360;
0215106400999992000052012004+50120+008730FM-12+011299999V0202501N002110090019N0200001N1+01301+00601101371ADDAY121061AY221061GA1021+005409089GA2041+009009069GF106991051081008001071999MA1999999100221MD1210021+9999MW1251REMSYN094AAXX  20124 10640 41570 62504 10130 20060 30022 40137 52002 72522 8587/ 333 82818 84630 85360;
0193106400999992000052015004+50120+008730FM-12+011299999V0202301N00211009001CN0400001N1+01521+00531101331ADDAY121031AY221031GA1021+006009089GF105991051081004501031999MA1999999100191MD1710011+9999MW1251REMSYN088AAXX  20154 10640 41482 52304 10152 20053 30019 40133 57001 72522 8583/ 333 82820 84635;
0231106400999992000052018004+50120+008730FM-12+011299999V0203001N00311007501CN0300001N1+01431+00491101401ADDAY181061AY221061GA1021+007509099GF107991071091008001999999KA1120M+01561KA2120N+00801MA1999999100261MD1310071+9999MW1251REMSYN100AAXX  20184 10640 41580 73006 10143 20049 30026 40140 53007 72582 879// 333 10156 20080 82925 87650;
0228106400999992000052106004+50120+008730FM-12+011299999V0201001N000512200019N0150001N1+00831+00771101331ADDAA124000391GA1031+030009079GF103991031001999999031011GJ103369KA1120M+01531KA2120N+00741MA1999999100161MD1710041+9999REMSYN100AAXX  21064 10640 42965 31001 10083 20077 30016 40133 57004 83031 333 10153 20074 55056 70003 83360;
0165106400999992000052109004+50120+008730FM-12+011299999V0201501N001510300019N0200001N1+01441+00731101171ADDGA1021+007509089GF106991021011008001031011MA1999999100031MD1710131+9999REMSYN082AAXX  21094 10640 42570 61503 10144 20073 30003 40117 57013 82131 333 82825 85360;
0187106400999992000052112004+50120+008730FM-12+011299999V0201501N00211030001CN0250001N1+01591+00431101011ADDGA1021+009009089GA2041+013509069GF107991041081008001071999MA1999999099881MD1710171+9999REMSYN088AAXX  21124 10640 42575 71504 10159 20043 39988 40101 57017 8487/ 333 82830 84645 88464;
0215106400999992000052115004+50120+008730FM-12+011299999V0202301N00151030001CN0200001N1+01441+00701100901ADDAY161031AY221031GA1011+007509089GA2031+013509069GF107991031081008001071999MA1999999099761MD1710091+9999MW1601REMSYN094AAXX  21154 10640 41570 72303 10144 20070 39976 40090 57009 76062 8387/ 333 81825 83645 87459;
0253106400999992000052118004+50120+008730FM-12+011299999V0201701N002610090019N0200001N1+01221+01121100821ADDAY121061AY221061GA1011+006309089GA2051+009009069GF107991061081008001071999KA1120M+01641KA2120N+00681MA1999999099671MD1710101+9999MW1601REMSYN106AAXX  21184 10640 41570 71705 10122 20112 39967 40082 57010 76022 8687/ 333 10164 20068 81821 85630 86360;
0262106400999992000052206004+50120+008730FM-12+011299999V0202001N002610090019N0150001N1+00921+00851101291ADDAA124002491AY161061AY221061GA1061+009009069GF108991061051008001071999GJ102589KA1120M+01241KA2120N+00901MA1999999100131MD1210111+9999MW1211REMSYN112AAXX  22064 10640 41565 82005 10092 20085 30013 40129 52011 72162 8657/ 333 10124 20090 55043 70024 86630 87360;
0165106400999992000052209004+50120+008730FM-12+011299999V0202201N002110120019N0150001N1+01121+01021101501ADDGA1011+006009089GF107991061081008001071999MA1999999100341MD1210221+9999REMSYN082AAXX  22094 10640 42565 72204 10112 20102 30034 40150 52022 8687/ 333 81820 86640;
0215106400999992000052212004+50120+008730FM-12+011299999V0202801N002110120019N0250001N1+01261+00931101651ADDAY121061AY221061GA1011+006609089GA2051+012009069GF107991051081008001071999MA1999999100501MD1210131+9999MW1251REMSYN094AAXX  22124 10640 41575 72804 10126 20093 30050 40165 52013 72522 8587/ 333 81822 85640 87359;
0215106400999992000052215004+50120+008730FM-12+011299999V0202201N001510120019N0300001N1+01271+01081101841ADDAY181031AY221031GA1011+006309089GA2051+012009069GF107991051081008001071999MA1999999100681MD1210191+9999MW1251REMSYN094AAXX  22154 10640 41580 72203 10127 20108 30068 40184 52019 72582 8587/ 333 81821 85640 87359;
0262106400999992000052306004+50120+008730FM-12+011299999V0202001N00101030001CN0050001N1+01081+01051102341ADDAA124005991AY121061AY221061GA1011+018009069GF107991011051017501031999GJ100309KA1120M+01301KA2120N+00991MA1999999101171MD1210111+9999MW1101REMSYN112AAXX  23064 10640 41750 72002 10108 20105 30117 40234 52011 71022 8153/ 333 10130 20099 55005 70059 81656 87359;
0165106400999992000052309004+50120+008730FM-12+011299999V0201701N001510750019N0100001N1+01491+01131102311ADDGA1031+006009089GF106991031021008001001081MA1999999101161MD1710011+9999REMSYN082AAXX  23094 10640 42560 61703 10149 20113 30116 40231 57001 83208 333 83820 86275;
0187106400999992000052312004+50120+008730FM-12+011299999V0202201N002110270019N0200001N1+01801+00701102171ADDGA1031+007509089GA2031+027009039GF107991031021008001031021MA1999999101031MD1710131+9999REMSYN088AAXX  23124 10640 42570 72204 10180 20070 30103 40217 57013 83232 333 83825 83359 86075;
0187106400999992000052315004+50120+008730FM-12+011299999V0202101N001510180019N0250001N1+01841+00591102051ADDGA1021+007809089GA2031+018009069GF107991051081008001031021MA1999999100921MD1710111+9999REMSYN088AAXX  23154 10640 42575 72103 10184 20059 30092 40205 57011 85832 333 82826 83656 85361;
0203106400999992000052318004+50120+008730FM-12+011299999V0202001N001519999999N0300001N1+01821+00751101981ADDGA1011+030009039GF107991011001999999031021KA1120M+01891KA2120N+01051MA1999999100851MD1710091+9999REMSYN094AAXX  23184 10640 42980 72003 10182 20075 30085 40198 57009 81032 333 10189 20105 81360 87070;
0228106400999992000052406004+50120+008730FM-12+011299999V0202001N000510330019N0180001N1+01101+00911101871ADDAA124000091GA1061+033009079GF106991061001999999031011GJ103609KA1120M+01821KA2120N+00961MA1999999100711MD1310021+9999REMSYN100AAXX  24064 10640 42968 62001 10110 20091 30071 40187 53002 86031 333 10182 20096 55060 70000 86361;
0165106400999992000052409004+50120+008730FM-12+011299999V0202101N00261030001CN0150001N1+01611+01041101831ADDGA1011+009009089GF107991021081008001031999MA1999999100691MD1710021+9999REMSYN082AAXX  24094 10640 42565 72105 10161 20104 30069 40183 57002 8283/ 333 81830 87361;
0187106400999992000052412004+50120+008730FM-12+011299999V0202201N003610150019N0180001N1+01981+01131101711ADDGA1031+009009089GA2061+015009069GF107991061081008001031999MA1999999100591MD1710101+9999REMSYN088AAXX  24124 10640 42568 72207 10198 20113 30059 40171 57010 8683/ 333 83830 86650 87361;
0187106400999992000052415004+50120+008730FM-12+011299999V0202101N003110300019N0250001N1+02111+01161101621ADDGA1021+010509089GA2041+030009039GF107991021011012501031011MA1999999100501MD1710091+9999REMSYN088AAXX  24154 10640 42675 72106 10211 20116 30050 40162 57009 82131 333 82835 84360 87075;
0225106400999992000052418004+50120+008730FM-12+011299999V0202001N001510300019N0200001N1+02091+01231101541ADDGA1011+009309089GA2041+030009039GF107991011081008001031011KA1120M+02161KA2120N+01111MA1999999100421MD1710091+9999REMSYN100AAXX  24184 10640 42570 72003 10209 20123 30042 40154 57009 81831 333 10216 20111 81831 84360 86075;
0262106400999992000052506004+50120+008730FM-12+011299999V0201901N00261030001CN0100001N1+01521+01461101311ADDAA124003291AY161061AY221061GA1011+004809089GF108991021081004501021999GJ101209KA1120M+02101KA2120N+01511MA1999999100171MD1510041+9999MW1611REMSYN112AAXX  25064 10640 41460 81905 10152 20146 30017 40131 55004 76162 8282/ 333 10210 20151 55020 70032 81816 88459;
0193106400999992000052509004+50120+008730FM-12+011299999V0201701N002610300019N0150001N1+01621+01451101271ADDAY161031AY221031GA1011+008409069GF107991011051008001031999MA1999999100141MD1710031+9999MW1211REMSYN088AAXX  25094 10640 41565 71705 10162 20145 30014 40127 57003 72162 8153/ 333 81628 87360;
0187106400999992000052512004+50120+008730FM-12+011299999V0202201N004610084019N0250001N1+01771+01311101281ADDAY161061AY221061GA1071+008409059GF107991071051008001999999MA1999999100151MD1210011+9999MW1021REMSYN082AAXX  25124 10640 41575 72209 10177 20131 30015 40128 52001 70262 875// 333 87628;
0209106400999992000052515004+50120+008730FM-12+011299999V0202001N004610063019N0250001N1+01821+01421101321ADDGA1031+004509089GA2031+006309069GA3071+030009039GF107991061081004501031999MA1999999100191MD1210051+9999REMSYN094AAXX  25154 10640 41475 72009 10182 20142 30019 40132 52005 8683/ 333 83815 83621 87360 91115;
0292106400999992000052518004+50120+008730FM-12+011299999V0202401N00311072001CN0350001N1+01721+00941101621ADDAY181061AY221061GA1021+006009089GA2031+030009039GA3071+072009009GF107991021081008001031011KA1120M+01851KA2120N+01521MA1999999100491MD1210291+9999MW1021OA149900771REMSYN118AAXX  25184 10640 41581 72406 10172 20094 30049 40162 52029 70282 82831 333 10185 20152 82820 83360 87074 91115 91211;
0234106400999992000052606004+50120+008730FM-12+011299999V0202501N000519999999N0200001N1+01141+00931102141ADDAA124001391GA1011+030009039GF105991011001999999031011GJ100369KA1120M+01731KA2120N+00861MA1999999100981MD1210081+9999REMSYN106AAXX  26064 10640 42970 52501 10114 20093 30098 40214 52008 81031 333 10173 20086 55006 70013 81360 85075;
0165106400999992000052609004+50120+008730FM-12+011299999V0201001N001519999999N0200001N1+01661+00441102001ADDGA1021+030009039GF106991021001999999031011MA1999999100861MD1710071+9999REMSYN082AAXX  26094 10640 42970 61003 10166 20044 30086 40200 57007 82031 333 82360 85075;
0165106400999992000052612004+50120+008730FM-12+011299999V0201301N00211220001CN0400001N1+01831+00441101741ADDGA1011+012009089GF106991011021012501001011MA1999999100611MD1710271+9999REMSYN082AAXX  26124 10640 42682 61304 10183 20044 30061 40174 57027 81201 333 81840 85075;
0203106400999992000052618004+50120+008730FM-12+011299999V0201301N00151030001CN0300001N1+02201+00851101171ADDGA1041+018009069GF107991041051017501031021KA1120M+02251KA2120N+01091MA1999999100061MD1710251+9999REMSYN094AAXX  26184 10640 42780 71303 10220 20085 30006 40117 57025 84532 333 10225 20109 84656 87076;
0281106400999992000052706004+50120+008730FM-12+011299999V0202101N00361030001CN0250001N1+01661+01231101151ADDAA124999999AY181061AY221061GA1011+007509089GF107991021081008001071999GJ106189KA1120M+02221KA2120N+01631MA1999999100021MD1210101+9999MW1021REMSYN112AAXX  27064 10640 41575 72107 10166 20123 30002 40115 52010 70282 8287/ 333 10222 20163 55103 79999 81825 87358;EQDQ01  99992PRCP24
0215106400999992000052712004+50120+008730FM-12+011299999V0202201N005110090019N0300001N1+01561+00571101651ADDAY161061AY221061GA1021+007209069GA2031+009009069GF107991051081008001031011MA1999999100511MD1210121+9999MW1251REMSYN094AAXX  27124 10640 42580 72210 10156 20057 30051 40165 52012 72562 85831 333 82624 83630 86360;
0187106400999992000052715004+50120+008730FM-12+011299999V0202101N004110108019N0400001N1+01671+00521101641ADDGA1031+007809089GA2041+010809069GF106991051081008001031011MA1999999100501MD1710011+9999REMSYN088AAXX  27154 10640 42582 62108 10167 20052 30050 40164 57001 85831 333 83826 84636 86360;
0220106400999992000052718004+50120+008730FM-12+011299999V0202101N004112200019N0450001N1+01651+00081101601ADDGA1021+010509089GF102991021021012501001011KA1120M+01751KA2120N+01241MA1999999100461MD1810041+9999OA149900771REMSYN100AAXX  27184 10640 42683 22108 10165 20008 30046 40160 58004 82201 333 10175 20124 82835 91115 91211;
0256106400999992000052806004+50120+008730FM-12+011299999V0201301N002610300019N0300001N1+01211+00821100911ADDAA124000191GA1021+015009069GA2051+030009039GF107991021051017501071011GJ104149KA1120M+01671KA2120N+01031MA1999999099761MD1710241+9999REMSYN112AAXX  28064 10640 42780 71305 10121 20082 39976 40091 57024 82571 333 10167 20103 55069 70001 82650 85360 86363;
0193106400999992000052809004+50120+008730FM-12+011299999V0201801N00411007501CN0300001N1+01551+00751100691ADDAY161031AY221031GA1031+009009069GF107991071051008001999999MA1999999099561MD1710201+9999MW1211REMSYN088AAXX  28094 10640 41580 71808 10155 20075 39956 40069 57020 72162 875// 333 83630 87640;
0226106400999992000052812004+50120+008730FM-12+011299999V0202101N006210090019N0500001N1+01651+00881100721ADDGA1021+006009089GA2051+009009069GA3061+030009039GF108991051081004501031999MA1999999099591MD1710061+9999OA149900881REMSYN100AAXX  28124 10640 42484 82112 10165 20088 39959 40072 57006 8583/ 333 82820 85630 86360 91117 91220;
0209106400999992000052815004+50120+008730FM-12+011299999V0202101N004610090019N0400001N1+01621+00571100811ADDGA1021+007209089GA2031+009009069GA3071+030009039GF107991051081008001071999MA1999999099681MD1210071+9999REMSYN094AAXX  28154 10640 42582 72109 10162 20057 39968 40081 52007 8587/ 333 82824 83630 87360 91117;
0197106400999992000052818004+50120+008730FM-12+011299999V0202501N003612200019N0400001N1+01711+00031100921ADDGA1011+009009029GF102991011011008001031011KA1120M+01821KA2120N+01161MA1999999099791MD1210091+9999REMSYN088AAXX  28184 10640 42582 22507 10171 20003 39979 40092 52009 81131 333 10182 20116 81830;
0234106400999992000052906004+50120+008730FM-12+011299999V0202101N00311007501CN0250001N1+00961+00571101401ADDAA124999929GA1031+006009069GF107991071051008001999999GJ101989KA1120M+01721KA2120N+00771MA1999999100241MD1210171+9999REMSYN106AAXX  29064 10640 42575 72106 10096 20057 30024 40140 52017 875// 333 10172 20077 55033 79999 83620 87640;
0165106400999992000052909004+50120+008730FM-12+011299999V0202201N004112200019N0500001N1+01461+00311101441ADDGA1031+009009089GF104991031081008001041021MA1999999100291MD1210071+9999REMSYN082AAXX  29094 10640 42584 42208 10146 20031 30029 40144 52007 83842 333 83830 84075;
0193106400999992000052915004+50120+008730FM-12+011299999V0202701N005710108019N0050001N1+01051+00611101681ADDAY181031AY221031GA1051+010809099GF106991051091012501999999MA1999999100521MD1210101+9999MW1951REMSYN088AAXX  29154 10640 41650 62711 10105 20061 30052 40168 52010 79582 859// 333 85936 91113;
0253106400999992000052918004+50120+008730FM-12+011299999V0203101N001010111019N0250001N1+01121+00641101771ADDAY181061AY221061GA1041+008109089GA2051+011109069GF107991061091008001031011KA1120M+01481KA2120N+00941MA1999999100611MD1210111+9999MW1291REMSYN106AAXX  29184 10640 41575 73102 10112 20064 30061 40177 52011 72982 86931 333 10148 20094 84827 85637 91119;
0234106400999992000053006004+50120+008730FM-12+011299999V0202101N001010300019N0180001N1+00821+00741102001ADDAA124004291GA1031+015009069GF106991031051017501031011GJ103729KA1120M+01161KA2120N+00721MA1999999100821MD1210071+9999REMSYN106AAXX  30064 10640 42768 62102 10082 20074 30082 40200 52007 83531 333 10116 20072 55062 70042 83650 85360;
0215106400999992000053009004+50120+008730FM-12+011299999V0202301N001510180019N0150001N1+01031+00861101951ADDAY181031AY221031GA1021+003009089GA2041+018009069GF107991051081004501031011MA1999999100781MD1710041+9999MW1251REMSYN094AAXX  30094 10640 41465 72303 10103 20086 30078 40195 57004 72582 85831 333 82810 84656 85359;
0193106400999992000053012004+50120+008730FM-12+011299999V0200601N00151030001CN0250001N1+01341+00761101721ADDAY181061AY221061GA1011+004809089GF108991011011004501011999MA1999999100571MD1710211+9999MW1251REMSYN088AAXX  30124 10640 41475 80603 10134 20076 30057 40172 57021 72582 8111/ 333 81816 88459;
0193106400999992000053015004+50120+008730FM-12+011299999V0201401N00101030001CN0200001N1+01261+00851101501ADDAY161031AY221031GA1011+004809089GF108991011011004501021999MA1999999100351MD1210221+9999MW1601REMSYN088AAXX  30154 10640 41470 81402 10126 20085 30035 40150 52022 76062 8112/ 333 81816 88459;
0253106400999992000053018004+50120+008730FM-12+011299999V0200801N001510090019N0120001N1+01161+00991101341ADDAY161061AY221061GA1011+004509089GA2051+009009069GF108991051081004501021999KA1120M+01401KA2120N+00801MA1999999100191MD1710161+9999MW1611REMSYN106AAXX  30184 10640 41462 80803 10116 20099 30019 40134 57016 76162 8582/ 333 10140 20080 81815 85630 88550;
0253106400999992000053106004+50120+008730FM-12+011299999V0203201N00211004201CN0150001N1+01081+01001101601ADDAA124008391GA1031+004509069GF107991071051004501999999GJ100009KA1120M+01161KA2120N+00801MA1999999100441MD1210532+9999REMSYN106AAXX  31064 10640 42465 73204 10108 20100 30044 40160 52053 875// 333 10116 20080 55000 70083 83615 87630;EQDQ01+000532APC3  
0159106400999992000053109004+50120+008730FM-12+011299999V0203601N002110120019N0200001N1+01481+00831101881ADDGA1061+012009029GF106991061021012501001011MA1999999100731MD1210291+9999REMSYN076AAXX  31094 10640 42670 63604 10148 20083 30073 40188 52029 86201 333 86840;
0159106400999992000053115004+50120+008730FM-12+011299999V0202701N00051015001CN0400001N1+01731+00631102171ADDGA1041+012009029GF106991061081012501031011MA1999999101031MD1210111+9999REMSYN076AAXX  31154 10640 42682 62701 10173 20063 30103 40217 52011 86831 333 84840;
0203106400999992000053118004+50120+008730FM-12+011299999V0201801N00101030001CN0400001N1+01711+00721102271ADDGA1031+007809089GF105991041081008001031011KA1120M+01861KA2120N+01041MA1999999101131MD1210101+9999REMSYN094AAXX  31184 10640 42582 51802 10171 20072 30113 40227 52010 84831 333 10186 20104 83826 84075;
0234106400999992000060106004+50120+008730FM-12+011299999V0201101N000510300019N0200001N1+01061+00971102461ADDAA124000091GA1011+015009069GF106991011061017501031001GJ103609KA1120M+01191KA2120N+00971MA1999999101291MD1710051+9999REMSYN106AAXX  01064 10640 42770 61101 10106 20097 30129 40246 57005 81630 333 10119 20097 55060 70000 81650 85360;
0206106400999992000060109004+50120+008730FM-12+011299999V0202001N999990300019N0200001N1+01661+01111102441ADDGA1011+009009089GA2041+012009069GF106991041081008001031001MA1999999101291MD1410001+9999REMSYN088AAXX  01094 10640 42570 67003 10166 20111 30129 40244 54000 84830 333 81830 84640 86360;EQDQ01+005293WOSPD 
0159106400999992000060112004+50120+008730FM-12+011299999V0201901N003110090019N0250001N1+02001+01151102341ADDGA1051+009009029GF106991051081008001031011MA1999999101211MD1710081+9999REMSYN076AAXX  01124 10640 42575 61906 10200 20115 30121 40234 57008 85831 333 85830;
0165106400999992000060115004+50120+008730FM-12+011299999V0202001N004110090019N0250001N1+02151+01091102271ADDGA1051+009009089GF107991051081008001031011MA1999999101151MD1710101+9999REMSYN082AAXX  01154 10640 42575 72008 10215 20109 30115 40227 57010 85831 333 85830 83360;
0197106400999992000060118004+50120+008730FM-12+011299999V0202001N002112200019N0300001N1+02241+01131102171ADDGA1021+010509029GF104991021021012501031011KA1120M+02251KA2120N+01061MA1999999101051MD1610101+9999REMSYN088AAXX  01184 10640 42680 42004 10224 20113 30105 40217 56010 82231 333 10225 20106 82835;
0234106400999992000060206004+50120+008730FM-12+011299999V0209999C000012200019N0150001N1+01551+01371102211ADDAA124000091GA1011+030009039GF103991011001999999031011GJ105109KA1120M+02251KA2120N+01261MA1999999101061MD1210101+9999REMSYN106AAXX  02064 10640 42965 30000 10155 20137 30106 40221 52010 81031 333 10225 20126 55085 70000 81360 83078;
0165106400999992000060209004+50120+008730FM-12+011299999V0202101N001519999999N0200001N1+02221+01451102141ADDGA1021+030009039GF106991021001999999031011MA1999999101021MD1710051+9999REMSYN082AAXX  02094 10640 42970 62103 10222 20145 30102 40214 57005 82031 333 82360 86070;
0165106400999992000060212004+50120+008730FM-12+011299999V0201701N001512200019N0300001N1+02531+01261102001ADDGA1011+030009039GF103991011001999999031011MA1999999100891MD1710131+9999REMSYN082AAXX  02124 10640 42980 31703 10253 20126 30089 40200 57013 81031 333 81360 83080;
0165106400999992000060215004+50120+008730FM-12+011299999V0202201N002119999999N0300001N1+02761+01221101911ADDGA1021+030009039GF105991021001999999031011MA1999999100811MD1710081+9999REMSYN082AAXX  02154 10640 42980 52204 10276 20122 30081 40191 57008 82031 333 82360 85080;
0225106400999992000060218004+50120+008730FM-12+011299999V0201701N001019999999N0300001N1+02681+01521101861ADDGA1011+015009089GA2041+030009039GF106991011011999999071021KA1120M+02791KA2120N+01481MA1999999100761MD1710051+9999REMSYN100AAXX  02184 10640 42980 61702 10268 20152 30076 40186 57005 81172 333 10279 20148 81850 84360 85075;
0211106400999992000060306004+50120+008730FM-12+011299999V0200201N001512200019N0300001N1+01871+01611102041ADDGA1031+030009079GF103991031001999999081001GJ106189KA1120M+02691KA2120N+01871MA1999999100911MD1210081+9999REMSYN094AAXX  03064 10640 42980 30203 10187 20161 30091 40204 52008 83080 333 10269 20187 55103 83360;
0159106400999992000060309004+50120+008730FM-12+011299999V0200101N001012200019N0500001N1+02541+01551101981ADDGA1021+030009079GF102991021001999999081011MA1999999100871MD1710031+9999REMSYN076AAXX  03094 10640 42984 20102 10254 20155 30087 40198 57003 82081 333 82360;
0159106400999992000060312004+50120+008730FM-12+011299999V0200801N001012200019N0500001N1+02971+01431101851ADDGA1021+012009089GF102991021021012501031011MA1999999100761MD1710111+9999REMSYN076AAXX  03124 10640 42684 20802 10297 20143 30076 40185 57011 82231 333 82240;
0165106400999992000060315004+50120+008730FM-12+011299999V0201601N00051075001CN0500001N1+03061+01271101641ADDGA1031+012009089GF105991031021012501001021MA1999999100561MD1710201+9999REMSYN082AAXX  03154 10640 42684 51601 10306 20127 30056 40164 57020 83202 333 83840 83076;
0203106400999992000060318004+50120+008730FM-12+011299999V0203601N00511220001CN0400001N1+02581+01661101621ADDGA1021+012009089GF105991021021008001001011KA1120M+03131KA2120N+01851MA1999999100521MD1710131+9999REMSYN094AAXX  03184 10640 42582 53610 10258 20166 30052 40162 57013 82201 333 10313 20185 82840 83070;
0293106400999992000060406004+50120+008730FM-12+011299999V0201601N001010120019N0150001N1+01731+01701999999ADDAA124009091AY161061AY221061GA1031+006009069GA2051+012009069GF108991051051008001071999GJ107869KA1120M+02581KA2120N+01691MA1999999100621MD1310111+9999ME1100769MW1601REMSYN118AAXX  04064 10640 41565 81602 10173 20170 30062 41076 53011 76062 8557/ 333 10258 20169 55131 70090 83620 85640 87360;
0215106400999992000060409004+50120+008730FM-12+011299999V0202001N00151015001CN0300001N1+02161+01811101841ADDAY161031AY221031GA1021+005109089GA2031+015009069GF107991031081004501031999MA1999999100721MD1210111+9999MW1021REMSYN094AAXX  04094 10640 42480 72003 10216 20181 30072 40184 52011 70262 8383/ 333 82817 83650 87360;
0159106400999992000060412004+50120+008730FM-12+011299999V0202001N001510150019N0300001N1+02501+01781101841ADDGA1051+015009029GF106991051021017501031011MA1999999100731MD1010011+9999REMSYN076AAXX  04124 10640 42780 62003 10250 20178 30073 40184 50001 85231 333 85850;
0159106400999992000060415004+50120+008730FM-12+011299999V0202201N001512200019N0300001N1+02671+01731101711ADDGA1021+012009099GF102991021091012501001011MA1999999100611MD1710101+9999REMSYN076AAXX  04154 10640 42680 22203 10267 20173 30061 40171 57010 82901 333 82940;
0203106400999992000060418004+50120+008730FM-12+011299999V0201901N002112200019N0350001N1+02651+01731101681ADDGA1021+012009099GF103991021091012501001011KA1120M+03131KA2120N+01691MA1999999100581MD1710081+9999REMSYN094AAXX  04184 10640 42681 31904 10265 20173 30058 40168 57008 82901 333 10313 20169 82940 83075;
0306106400999992000060506004+50120+008730FM-12+011299999V0201301N001510300019N0050001N1+01691+01661101791ADDAA124021091AY191061AY281061GA1021+001809079GA2041+004809069GA3071+030009039GF107991041051001501071999GJ104509KA1120M+02621KA2120N+01631MA1999999100651MD1510071+9999MW1251REMSYN124AAXX  05064 10640 41250 71303 10169 20166 30065 40179 55007 72598 8457/ 333 10262 20163 55075 70210 82706 84616 87360 91114;
0165106400999992000060509004+50120+008730FM-12+011299999V0200701N00101030001CN0100001N1+02061+01951101701ADDGA1031+001809089GF106991031011001501081011MA1999999100581MD1710071+9999REMSYN082AAXX  05094 10640 42260 60702 10206 20195 30058 40170 57007 83181 333 83806 84361;
0187106400999992000060512004+50120+008730FM-12+011299999V0201201N00051013501CN0180001N1+02341+01811101591ADDGA1021+006009089GA2031+013509069GF107991031081008001071011MA1999999100481MD1710071+9999REMSYN088AAXX  05124 10640 42568 71201 10234 20181 30048 40159 57007 83871 333 82820 83645 86361;
0225106400999992000060518004+50120+008730FM-12+011299999V0201801N001510120019N0200001N1+02471+01701101281ADDGA1031+009009099GA2051+012009069GF107991051091008001031999KA1120M+02491KA2120N+01691MA1999999100181MD1710061+9999REMSYN100AAXX  05184 10640 42570 71803 10247 20170 30018 40128 57006 8593/ 333 10249 20169 83930 85640 87360;
0234106400999992000060606004+50120+008730FM-12+011299999V0203301N00211004201CN0200001N1+01401+01111101861ADDAA124004291GA1011+004509069GF107991071051004501999999GJ102289KA1120M+02471KA2120N+01381MA1999999100711MD1210141+9999REMSYN106AAXX  06064 10640 42470 73304 10140 20111 30071 40186 52014 875// 333 10247 20138 55038 70042 81615 87630;
0165106400999992000060609004+50120+008730FM-12+011299999V0202801N00261009001CN0250001N1+01521+00921102001ADDGA1011+004509089GF107991071081004501999999MA1999999100851MD1210141+9999REMSYN082AAXX  06094 10640 42475 72805 10152 20092 30085 40200 52014 878// 333 81815 87628;
0159106400999992000060612004+50120+008730FM-12+011299999V0202901N003610138019N0250001N1+01651+00761102051ADDGA1071+013809059GF107991071051012501999999MA1999999100911MD1010061+9999REMSYN076AAXX  06124 10640 42675 72907 10165 20076 30091 40205 50006 875// 333 87646;
0165106400999992000060615004+50120+008730FM-12+011299999V0202701N00211012001CN0250001N1+01811+00761102021ADDGA1021+007209089GF107991071081008001999999MA1999999100891MD1110021+9999REMSYN082AAXX  06154 10640 42575 72704 10181 20076 30089 40202 51002 878// 333 82824 86650;
0203106400999992000060618004+50120+008730FM-12+011299999V0202401N002112200019N0200001N1+01841+00661102021ADDGA1011+012009089GF103991011021012501031001KA1120M+01881KA2120N+01381MA1999999100891MD1410001+9999REMSYN094AAXX  06184 10640 42670 32404 10184 20066 30089 40202 54000 81230 333 10188 20138 81840 83362;
0234106400999992000060706004+50120+008730FM-12+011299999V0202201N001510120019N0300001N1+01251+01061102261ADDAA124000391GA1021+007509089GF106991061081008001001011GJ103669KA1120M+01841KA2120N+01201MA1999999101101MD1310111+9999REMSYN106AAXX  07064 10640 42580 62203 10125 20106 30110 40226 53011 86801 333 10184 20120 55061 70003 82825 85640;
0165106400999992000060709004+50120+008730FM-12+011299999V0203101N003610120019N0300001N1+01531+00711102331ADDGA1041+007509089GF106991061081008001001011MA1999999101181MD1210081+9999REMSYN082AAXX  07094 10640 42580 63107 10153 20071 30118 40233 52008 86801 333 84825 84640;
0165106400999992000060712004+50120+008730FM-12+011299999V0203001N002610150019N0350001N1+01691+00651102381ADDGA1031+009009089GF106991061081012501001011MA1999999101241MD1210071+9999REMSYN082AAXX  07124 10640 42681 63005 10169 20065 30124 40238 52007 86801 333 83830 84650;
0159106400999992000060715004+50120+008730FM-12+011299999V0203001N002112200019N0500001N1+01881+00601102381ADDGA1041+010209029GF104991041011008001001011MA1999999101241MD1210011+9999REMSYN076AAXX  07154 10640 42584 43004 10188 20060 30124 40238 52001 84101 333 84834;
0197106400999992000060718004+50120+008730FM-12+011299999V0203201N002612200019N0500001N1+01881+00541102401ADDGA1021+012009029GF103991021011012501031011KA1120M+01951KA2120N+01231MA1999999101261MD1310021+9999REMSYN088AAXX  07184 10640 42684 33205 10188 20054 30126 40240 53002 82131 333 10195 20123 82840;
0228106400999992000060806004+50120+008730FM-12+011299999V0203401N000512200019N0150001N1+01161+00941102481ADDAA124000091GA1011+060009019GF101991001001999999001011GJ104989KA1120M+01901KA2120N+01051MA1999999101311MD1710041+9999REMSYN100AAXX  08064 10640 42965 13401 10116 20094 30131 40248 57004 80001 333 10190 20105 55083 70000 81070;
0153106400999992000060809004+50120+008730FM-12+011299999V0201001N001012200019N0200001N1+99999+99999102341ADDGA1011+009009029GF101991011011008001001011MA1999999101201MD1710071+9999REMSYN070AAXX  08094 10640 42570 11002 20082 30120 40234 57007 81101 333 81830;
0159106400999992000060812004+50120+008730FM-12+011299999V0201001N001512200019N0250001N1+02101+00621102201ADDGA1011+012009029GF102991011011012501001011MA1999999101071MD1710151+9999REMSYN076AAXX  08124 10640 42675 21003 10210 20062 30107 40220 57015 81101 333 81840;
0159106400999992000060815004+50120+008730FM-12+011299999V0201001N002112200019N0400001N1+02341+00751101991ADDGA1011+012009029GF101991011011012501001001MA1999999100871MD1710171+9999REMSYN076AAXX  08154 10640 42682 11004 10234 20075 30087 40199 57017 81100 333 81840;
0179106400999992000060818004+50120+008730FM-12+011299999V0201001N002612200019N0400001N1+99999+99999101841ADDGA1001+999999999GF100991001001999999001001KA1120M+02371KA2999N+01151MA1999999100731MD1710171+9999REMSYN070AAXX  08184 10640 42982 01005 20064 30073 40184 57017 333 10237 20115;
0235106400999992000060906004+50120+008730FM-12+011299999V0200901N001512200019N0150001N1+01711+00921101741ADDAA124000091GA1001+999999999GF100991001001999999001001GJ108889KA1120M+02341KA2120N+01551MA1999999100601MD1710011+9999REMSYN088AAXX  09064 10640 42965 00903 10171 20092 30060 40174 57001 333 10234 20155 55148 70000;EQDQ01  00002PRCP24
0159106400999992000060909004+50120+008730FM-12+011299999V0201201N001512200019N0300001N1+02261+01111101691ADDGA1011+060009019GF101991001001999999001011MA1999999100581MD1710011+9999REMSYN076AAXX  09094 10640 42980 11203 10226 20111 30058 40169 57001 80001 333 81070;
0143106400999992000060912004+50120+008730FM-12+011299999V0201301N001512200019N0300001N1+02821+01251101531ADDGA1001+999999999GF100991001001999999001001MA1999999100441MD1710131+9999REMSYN060AAXX  09124 10640 42980 01303 10282 20125 30044 40153 57013;
0197106400999992000060918004+50120+008730FM-12+011299999V0201101N002112200019N0350001N1+02931+01321101331ADDGA1011+078009019GF101991001001999999001011KA1120M+03101KA2120N+01681MA1999999100251MD1810061+9999REMSYN088AAXX  09184 10640 42981 11104 10293 20132 30025 40133 58006 80001 333 10310 20168 81076;
0228106400999992000061006004+50120+008730FM-12+011299999V0200301N001512200019N0300001N1+02041+01501101431ADDAA124000091GA1011+015009029GF102991011021017501031091GJ108829KA1120M+02951KA2120N+01731MA1999999100321MD1210061+9999REMSYN100AAXX  10064 10640 42780 20303 10204 20150 30032 40143 52006 81239 333 10295 20173 55147 70000 81850;
0159106400999992000061009004+50120+008730FM-12+011299999V0203201N000512200019N0400001N1+02351+01551101471ADDGA1021+015009029GF102991021081012501001001MA1999999100361MD1210081+9999REMSYN076AAXX  10094 10640 42682 23201 10235 20155 30036 40147 52008 82800 333 82850;
0165106400999992000061012004+50120+008730FM-12+011299999V0202701N000512200019N0200001N1+03021+01441101411ADDGA1011+015009089GF103991011021017501031011MA1999999100331MD1710031+9999REMSYN082AAXX  10124 10640 42770 32701 10302 20144 30033 40141 57003 81231 333 81850 83080;
0165106400999992000061015004+50120+008730FM-12+011299999V0202701N00051075001CN0250001N1+02961+01361101321ADDGA1011+015009089GF105991011021017501081011MA1999999100241MD1710071+9999REMSYN082AAXX  10154 10640 42775 52701 10296 20136 30024 40132 57007 81281 333 81850 84360;
0197106400999992000061018004+50120+008730FM-12+011299999V0203301N003612200019N0300001N1+02991+01291101301ADDGA1011+012009029GF101991011011008001001011KA1120M+03081KA2120N+02031MA1999999100211MD1710071+9999REMSYN088AAXX  10184 10640 42580 13307 10299 20129 30021 40130 57007 81101 333 10308 20203 81840;
0201106400999992000061106004+50120+008730FM-12+011299999V0203401N004110300019N0080001N1+02001+01721101451ADDGF106991021081008001031011GJ107209KA1120M+03021KA2120N+01931MA1999999100331MD1210011+9999REMSYN100AAXX  11064 10640 42558 63408 10200 20172 30033 40145 52001 82831 83360 333 10302 20193 55120 81820;
0165106400999992000061109004+50120+008730FM-12+011299999V0203401N00411007501CN0120001N1+02061+01671101521ADDGA1021+006009069GF108991081051008001999999MA1999999100401MD1210071+9999REMSYN082AAXX  11094 10640 42562 83408 10206 20167 30040 40152 52007 885// 333 82620 87640;
0254106400999992000061112004+50120+008730FM-12+011299999V0203401N003610060019N0035001N1+01931+01741101671ADDAY181061AY221061GA1021+006009099GA2041+006009089GA3071+009009069GF108991081091004501999999MA1999999100541MD1210111+9999MW1271OA149900621REMSYN106AAXX  11124 10640 41435 83407 10193 20174 30054 40167 52011 72782 889// 333 84820 82920 87630 91112 91212;
0193106400999992000061115004+50120+008730FM-12+011299999V0203201N003110078019N0070001N1+01991+01631101731ADDAY121031AY221031GA1071+007809069GF107991071051008001999999MA1999999100611MD1210071+9999MW1101REMSYN088AAXX  11154 10640 41557 73206 10199 20163 30061 40173 52007 71022 875// 333 87626 91113;
0203106400999992000061118004+50120+008730FM-12+011299999V0203101N00361030001CN0120001N1+02021+01521101821ADDGA1041+009009069GF107991041051008001031999KA1120M+02111KA2120N+01831MA1999999100701MD1210121+9999REMSYN094AAXX  11184 10640 42562 73107 10202 20152 30070 40182 52012 8453/ 333 10211 20183 84630 87361;
0216106400999992000061206004+50120+008730FM-12+011299999V0200701N001012200019N0300001N1+01611+01261102591ADDAA124006691GA1001+999999999GF100991001001999999001001GJ101449KA1120M+02021KA2120N+01371MA1999999101441MD1210151+9999REMSYN088AAXX  12064 10640 42980 00702 10161 20126 30144 40259 52015 333 10202 20137 55024 70067;
0159106400999992000061209004+50120+008730FM-12+011299999V0202101N002112200019N0250001N1+01871+01121102751ADDGA1031+008409029GF103991031011008001001011MA1999999101611MD1210171+9999REMSYN076AAXX  12094 10640 42575 32104 10187 20112 30161 40275 52017 83101 333 83828;
0159106400999992000061212004+50120+008730FM-12+011299999V0202201N002112200019N0300001N1+02111+01071102761ADDGA1021+010809029GF103991021011012501001011MA1999999101631MD1010021+9999REMSYN076AAXX  12124 10640 42680 32204 10211 20107 30163 40276 50002 82101 333 82836;
0197106400999992000061218004+50120+008730FM-12+011299999V0201801N001012200019N0300001N1+02391+01041102681ADDGA1031+090009019GF103991001001999999001011KA1120M+02521KA2120N+01581MA1999999101561MD1710031+9999REMSYN088AAXX  12184 10640 42980 31802 10239 20104 30156 40268 57003 80001 333 10252 20158 83080;
0228106400999992000061306004+50120+008730FM-12+011299999V0200301N001012200019N0300001N1+01621+01321102741ADDAA124000091GA1011+075009019GF101991001001999999001011GJ108769KA1120M+02421KA2120N+01481MA1999999101591MD1710061+9999REMSYN100AAXX  13064 10640 42980 10302 10162 20132 30159 40274 57006 80001 333 10242 20148 55146 70000 81075;
0178106400999992000061309004+50120+008730FM-12+011299999V0202001N000512200019N0300001N1+02411+01081102641ADDGA1999+000159999GF101991001001999999001011MA1999999101521MD1710061+9999REMSYN076AAXX  13094 10640 42980 12001 10241 20108 30152 40264 57006 80001 333 80175;EQDQ01    003SCCGA1
0159106400999992000061312004+50120+008730FM-12+011299999V0202701N001012200019N0300001N1+02591+00921102491ADDGA1011+078009019GF101991001001999999001011MA1999999101381MD1710141+9999REMSYN076AAXX  13124 10640 42980 12702 10259 20092 30138 40249 57014 80001 333 81076;
0159106400999992000061315004+50120+008730FM-12+011299999V0200501N000512200019N0300001N1+03021+01121102311ADDGA1021+075009019GF102991001001999999001011MA1999999101221MD1710161+9999REMSYN076AAXX  13154 10640 42980 20501 10302 20112 30122 40231 57016 80001 333 82075;
0197106400999992000061318004+50120+008730FM-12+011299999V0203401N001512200019N0350001N1+02851+01261102231ADDGA1021+084009019GF102991001001999999001011KA1120M+03041KA2120N+01621MA1999999101131MD1610091+9999REMSYN088AAXX  13184 10640 42981 23403 10285 20126 30113 40223 56009 80001 333 10304 20162 82078;
0228106400999992000061406004+50110+008730FM-12+011299999V0203401N002612200019N0150001N1+01951+01621102481ADDAA124000091GA1041+075009019GF104991001001999999001011GJ109069KA1120M+02871KA2120N+01861MA1999999101351MD1410001+9999REMSYN100AAXX  14064 10640 42965 43405 10195 20162 30135 40248 54000 80001 333 10287 20186 55151 70000 84075;
0159106400999992000061409004+50110+008730FM-12+011299999V0201501N000512200019N0080001N1+02431+01531102461ADDGA1011+012009029GF102991011011012501001011MA1999999101341MD1810011+9999REMSYN076AAXX  14094 10640 42658 21501 10243 20153 30134 40246 58001 81101 333 81840;
0159106400999992000061412004+50110+008730FM-12+011299999V0202801N002612200019N0250001N1+02631+01231102361ADDGA1031+012009029GF103991031011012501001011MA1999999101251MD1710091+9999REMSYN076AAXX  14124 10640 42675 32805 10263 20123 30125 40236 57009 83101 333 83840;
0165106400999992000061415004+50110+008730FM-12+011299999V0203101N003119999999N0250001N1+02701+01241102211ADDGA1021+015009089GF105991051081999999001011MA1999999101111MD1710131+9999REMSYN082AAXX  14154 10640 42975 53106 10270 20124 30111 40221 57013 85801 333 82850 83656;
0197106400999992000061418004+50110+008730FM-12+011299999V0203201N002112200019N0350001N1+02571+01481102181ADDGA1021+015009029GF103991021021017501031011KA1120M+02791KA2120N+01921MA1999999101071MD1710041+9999REMSYN088AAXX  14184 10640 42781 33204 10257 20148 30107 40218 57004 82231 333 10279 20192 82850;
0234106400999992000061506004+50110+008730FM-12+011299999V0202401N00361012001CN0250001N1+01981+01441102231ADDAA124000091GA1021+008409089GF106991061081008001001001GJ107689KA1120M+02571KA2120N+01891MA1999999101101MD1710011+9999REMSYN106AAXX  15064 10640 42575 62407 10198 20144 30110 40223 57001 86800 333 10257 20189 55128 70000 82828 85630;
0187106400999992000061509004+50110+008730FM-12+011299999V0202801N003610108019N0300001N1+02111+01271102271ADDGA1021+009009089GA2041+010809069GF106991051081008001071001MA1999999101141MD1110041+9999REMSYN088AAXX  15094 10640 42580 62807 10211 20127 30114 40227 51004 85870 333 82830 84636 84459;
0165106400999992000061512004+50110+008730FM-12+011299999V0202901N00361030001CN0300001N1+02121+01061102321ADDGA1021+009009089GF106991031081008001031001MA1999999101191MD1210051+9999REMSYN082AAXX  15124 10640 42580 62907 10212 20106 30119 40232 52005 83830 333 82830 86359;
0187106400999992000061515004+50110+008730FM-12+011299999V0203201N004110150019N0300001N1+01801+01171102451ADDGA1011+007509089GA2061+015009069GF107991061081008001031999MA1999999101311MD1210121+9999REMSYN088AAXX  15154 10640 42580 73208 10180 20117 30131 40245 52012 8683/ 333 81825 86650 91114;
0247106400999992000061518004+50110+008730FM-12+011299999V0203401N002610108019N0300001N1+01861+01201102461ADDGA1011+004809089GA2051+010809069GA3051+027009039GF107991051081004501031999KA1120M+02171KA2120N+01731MA1999999101321MD1310011+9999REMSYN106AAXX  15184 10640 42480 73405 10186 20120 30132 40246 53001 8583/ 333 10217 20173 81816 85636 85359 91114;
0234106400999992000061606004+50110+008730FM-12+011299999V0203401N001512200019N0250001N1+01301+00751102821ADDAA124000091GA1011+015009069GF103991011051017501001011GJ101689KA1120M+01881KA2120N+01231MA1999999101661MD1210101+9999REMSYN106AAXX  16064 10640 42775 33403 10130 20075 30166 40282 52010 81501 333 10188 20123 55028 70000 81650 83075;
0145106400999992000061609004+50110+008730FM-12+011299999V0203401N00211220001CN0300001N1+01551+00371102891ADDGA1031+013209089GF105991031011012501001041MA1999999101741REMSYN076AAXX  16094 10640 42680 53404 10155 20037 30174 40289 83104 333 83844 85075;
0165106400999992000061612004+50110+008730FM-12+011299999V0203101N002112200019N0350001N1+01731+00171102821ADDGA1031+015009089GF104991031011017501001011MA1999999101671MD1810061+9999REMSYN082AAXX  16124 10640 42781 43104 10173 20017 30167 40282 58006 83101 333 83850 83075;
0165106400999992000061615004+50110+008730FM-12+011299999V0203301N002112200019N0400001N1+01911+00241102731ADDGA1021+018009089GF104991021011017501001011MA1999999101591MD1710131+9999REMSYN082AAXX  16154 10640 42782 43304 10191 20024 30159 40273 57013 82101 333 82856 83075;
0197106400999992000061618004+50110+008730FM-12+011299999V0203301N003112200019N0400001N1+01811+00291102761ADDGA1031+018009029GF103991031011017501001011KA1120M+02091KA2120N+01281MA1999999101621MD1410001+9999REMSYN088AAXX  16184 10640 42782 33306 10181 20029 30162 40276 54000 83101 333 10209 20128 83856;
0235106400999992000061706004+50110+008730FM-12+011299999V0203601N002112200019N0300001N1+01111+00581103201ADDAA124000091GA1001+999999999GF100991001001999999001001GJ107809KA1120M+01851KA2120N+01011MA1999999102021MD1210141+9999REMSYN088AAXX  17064 10640 42980 03604 10111 20058 30202 40320 52014 333 10185 20101 55130 70000;EQDQ01  00002PRCP24
0159106400999992000061709004+50110+008730FM-12+011299999V0200301N000512200019N0400001N1+01561+00351103241ADDGA1011+014409029GF101991011011012501001001MA1999999102081MD1210071+9999REMSYN076AAXX  17094 10640 42682 10301 10156 20035 30208 40324 52007 81100 333 81848;
0159106400999992000061712004+50110+008730FM-12+011299999V0203401N001012200019N0600001N1+01911-00031103171ADDGA1011+014409029GF101991011011012501001001MA1999999102031MD1710011+9999REMSYN076AAXX  17124 10640 42686 13402 10191 21003 30203 40317 57001 81100 333 81848;
0143106400999992000061715004+50110+008730FM-12+011299999V0200501N001512200019N0600001N1+02211+00061103051ADDGA1001+999999999GF100991001001999999001001MA1999999101921MD1710121+9999REMSYN060AAXX  17154 10640 42986 00503 10221 20006 30192 40305 57012;
0185106400999992000061718004+50110+008730FM-12+011299999V0200401N001012200019N0600001N1+02081+00261102991ADDGA1001+999999999GF100991001001999999001001KA1120M+02231KA2999N+01101MA1999999101861MD1710061+9999REMSYN076AAXX  17184 10640 42986 00402 10208 20026 30186 40299 57006 333 10223 20110;
0228106400999992000061806004+50110+008730FM-12+011299999V0200301N001012200019N0500001N1+01361+00661103021ADDAA124000091GA1011+075009019GF101991001001999999001011GJ109189KA1120M+02121KA2120N+01161MA1999999101861MD1210051+9999REMSYN100AAXX  18064 10640 42984 10302 10136 20066 30186 40302 52005 80001 333 10212 20116 55153 70000 81075;
0159106400999992000061809004+50110+008730FM-12+011299999V0203401N000512200019N0400001N1+02091+00551102981ADDGA1011+075009019GF101991001001999999001011MA1999999101851MD1710011+9999REMSYN076AAXX  18094 10640 42982 13401 10209 20055 30185 40298 57001 80001 333 81075;
0143106400999992000061812004+50110+008730FM-12+011299999V0209999V001012200019N0500001N1+02551+00491102831ADDGA1001+999999999GF100991001001999999001001MA1999999101721MD1710081+9999REMSYN060AAXX  18124 10640 42984 09902 10255 20049 30172 40283 57008;
0159106400999992000061815004+50110+008730FM-12+011299999V0202901N000512200019N0500001N1+02741+00421102661ADDGA1011+075009019GF101991001001999999001011MA1999999101551MD1710171+9999REMSYN076AAXX  18154 10640 42984 12901 10274 20042 30155 40266 57017 80001 333 81075;
0197106400999992000061818004+50110+008730FM-12+011299999V0201801N001012200019N0600001N1+02781+00431102541ADDGA1011+084009019GF101991001001999999001011KA1120M+02901KA2120N+01361MA1999999101441MD1610111+9999REMSYN088AAXX  18184 10640 42986 11802 10278 20043 30144 40254 56011 80001 333 10290 20136 81078;
0235106400999992000061906004+50110+008730FM-12+011299999V0200301N001012200019N0350001N1+01851+01091102491ADDAA124000091GA1001+999999999GF100991001001999999001001GJ108889KA1120M+02801KA2120N+01671MA1999999101351MD1410001+9999REMSYN088AAXX  19064 10640 42981 00302 10185 20109 30135 40249 54000 333 10280 20167 55148 70000;EQDQ01  00002PRCP24
0143106400999992000061909004+50110+008730FM-12+011299999V0203401N001012200019N0400001N1+02641+01101102371ADDGA1001+999999999GF100991001001999999001001MA1999999101261MD1710061+9999REMSYN060AAXX  19094 10640 42982 03402 10264 20110 30126 40237 57006;
0143106400999992000061912004+50110+008730FM-12+011299999V0202201N002112200019N0400001N1+03061+00831102261ADDGA1001+999999999GF100991001001999999001001MA1999999101111MD1710161+9999REMSYN060AAXX  19124 10640 42982 02204 10306 20083 30111 40226 57016;
0143106400999992000061915004+50110+008730FM-12+011299999V0202201N002112200019N0400001N1+03271+00621102031ADDGA1001+999999999GF100991001001999999001001MA1999999100951MD1710161+9999REMSYN060AAXX  19154 10640 42982 02204 10327 20062 30095 40203 57016;
0185106400999992000061918004+50110+008730FM-12+011299999V0202201N002112200019N0400001N1+03201+00511101911ADDGA1001+999999999GF100991001001999999001001KA1120M+03321KA2999N+01791MA1999999100831MD1710141+9999REMSYN076AAXX  19184 10640 42982 02204 10320 20051 30083 40191 57014 333 10332 20179;
0235106400999992000062006004+50110+008730FM-12+011299999V0200301N000512200019N0250001N1+01991+01401101901ADDAA124000091GA1001+999999999GF100991001001999999001001GJ108949KA1120M+03221KA2120N+01871MA1999999100771MD1510001+9999REMSYN088AAXX  20064 10640 42975 00301 10199 20140 30077 40190 55000 333 10322 20187 55149 70000;EQDQ01  00002PRCP24
0143106400999992000062009004+50110+008730FM-12+011299999V0202701N000512200019N0250001N1+02611+01341101841ADDGA1001+999999999GF100991001001999999001001MA1999999100741MD1710031+9999REMSYN060AAXX  20094 10640 42975 02701 10261 20134 30074 40184 57003;
0127106400999992000062012004+50110+008730FM-12+011299999V0209999C000019999999N0250001N1+03191+01001101661ADDGF107991999999999999999999MA1999999100581MD1710161+9999REMSYN060AAXX  20124 10640 42975 70200 10319 20100 30058 40166 57016;
0143106400999992000062015004+50110+008730FM-12+011299999V0201801N002112200019N0250001N1+03301+00871101501ADDGA1001+999999999GF100991001001999999001001MA1999999100431MD1710151+9999REMSYN060AAXX  20154 10640 42975 01804 10330 20087 30043 40150 57015;
0197106400999992000062018004+50110+008730FM-12+011299999V0202001N001512200019N0300001N1+03251+01131101431ADDGA1011+084009019GF101991001001999999001011KA1120M+03381KA2120N+01961MA1999999100361MD1610071+9999REMSYN088AAXX  20184 10640 42980 12003 10325 20113 30036 40143 56007 80001 333 10338 20196 81078;
0228106400999992000062106004+50110+008730FM-12+011299999V0202201N001512200019N0400001N1+02231+01141101671ADDAA124000091GA1011+012009029GF101991011011012501001001GJ108949KA1120M+03261KA2120N+01961MA1999999100561MD1210071+9999REMSYN100AAXX  21064 10640 42682 12203 10223 20114 30056 40167 52007 81100 333 10326 20196 55149 70000 81840;
0159106400999992000062109004+50110+008730FM-12+011299999V0202001N002112200019N0300001N1+02511+01131101691ADDGA1011+012009029GF102991021081012501081001MA1999999100591MD1010031+9999REMSYN076AAXX  21094 10640 42680 22004 10251 20113 30059 40169 50003 82880 333 81840;
0159106400999992000062112004+50110+008730FM-12+011299999V0202201N003112200019N0300001N1+02981+01081101581ADDGA1011+012909029GF102991011021012501081001MA1999999100491MD1710101+9999REMSYN076AAXX  21124 10640 42680 22206 10298 20108 30049 40158 57010 81280 333 81843;
0159106400999992000062115004+50110+008730FM-12+011299999V0202001N002612200019N0300001N1+03161+00951101421ADDGA1011+012909029GF101991011021012501001001MA1999999100341MD1310161+9999REMSYN076AAXX  21154 10640 42680 12005 10316 20095 30034 40142 53016 81200 333 81843;
0197106400999992000062118004+50110+008730FM-12+011299999V0202101N002612200019N0300001N1+03081+00901101341ADDGA1021+075009019GF102991001001999999001011KA1120M+03221KA2120N+02211MA1999999100261MD1710081+9999REMSYN088AAXX  21184 10640 42980 22105 10308 20090 30026 40134 57008 80001 333 10322 20221 82075;
0234106400999992000062206004+50110+008730FM-12+011299999V0201801N00211030001CN0170001N1+02071+01441101671ADDAA124000091GA1031+013809069GF106991031051012501081999GJ108469KA1120M+03091KA2120N+02061MA1999999100551MD1310061+9999REMSYN106AAXX  22064 10640 42667 61804 10207 20144 30055 40167 53006 8358/ 333 10309 20206 55141 70000 83646 85359;
0215106400999992000062209004+50110+008730FM-12+011299999V0202201N00461030001CN0200001N1+02131+01251101761ADDAY181031AY221031GA1031+006909089GA2041+013809069GF107991041081008001071001MA1999999100641MD1110111+9999MW1021REMSYN094AAXX  22094 10640 41570 72209 10213 20125 30064 40176 51011 70282 84870 333 83823 84646 86361;
0215106400999992000062212004+50110+008730FM-12+011299999V0202101N005110330019N0300001N1+02341+00951101741ADDAY181061AY221061GA1031+012009089GA2051+033009039GF106991031021012501031011MA1999999100631MD1710111+9999MW1021REMSYN094AAXX  22124 10640 41680 62110 10234 20095 30063 40174 57011 70282 83231 333 83840 85361 91115;
0204106400999992000062215004+50110+008730FM-12+011299999V0202301N004110300019N0300001N1+02351+00911101791ADDGA1031+015009089GA2031+030009039GF105991031011017501031011MA1999999100681MD1310041+9999OA149900771REMSYN094AAXX  22154 10640 42780 52308 10235 20091 30068 40179 53004 83131 333 83850 83360 91115 91211;
0203106400999992000062218004+50110+008730FM-12+011299999V0202301N003112200019N0400001N1+02301+00811101761ADDGA1021+018009089GF103991021081017501031001KA1120M+02431KA2120N+02001MA1999999100651MD1710051+9999REMSYN094AAXX  22184 10640 42782 32306 10230 20081 30065 40176 57005 82830 333 10243 20200 82856 91115;
0281106400999992000062306004+50110+008730FM-12+011299999V0202001N00261012001CN0200001N1+01731+01371101931ADDAA124999999AY181061AY221061GA1011+006009089GF106991061081008001001011GJ104809KA1120M+02361KA2120N+01631MA1999999100791MD1210021+9999MW1021REMSYN112AAXX  23064 10640 41570 62005 10173 20137 30079 40193 52002 70282 86801 333 10236 20163 55080 79999 81820 86656;EQDQ01  99992PRCP24
0165106400999992000062309004+50110+008730FM-12+011299999V0202401N00361012001CN0300001N1+01981+00921101911ADDGA1011+009309089GF105991051021012501031011MA1999999100781MD1110011+9999REMSYN082AAXX  23094 10640 42680 52407 10198 20092 30078 40191 51001 85231 333 81831 85835;
0210106400999992000062312004+50110+008730FM-12+011299999V0202101N004610300019N0300001N1+02051+00881101921ADDAY181061AY211061GA1041+009909089GF105991041021008001031011MA1999999100791MD1310011+9999MW1021OA149900881REMSYN094AAXX  23124 10640 41580 52109 10205 20088 30079 40192 53001 70281 84231 333 84833 91117 91212;
0187106400999992000062315004+50110+008730FM-12+011299999V0202501N004610180019N0350001N1+02051+00791101931ADDGA1041+012009089GA2041+018009069GF106991061081012501001011MA1999999100811MD1110021+9999REMSYN088AAXX  23154 10640 42681 62509 10205 20079 30081 40193 51002 86801 333 84840 84656 91116;
0264106400999992000062318004+50110+008730FM-12+011299999V0202501N004110180019N0500001N1+02041+00731101931ADDGA1011+012009089GA2031+015009069GA3051+018009069GF106991051081012501031001KA1120M+02141KA2120N+01701MA1999999100811MD1410001+9999OA149900821REMSYN112AAXX  23184 10640 42684 62508 10204 20073 30081 40193 54000 85830 333 10214 20170 81840 83650 85656 91116 91211;
0262106400999992000062406004+50110+008730FM-12+011299999V0201801N002610060019N0090001N1+01361+01331101611ADDAA124000691AY161061AY221061GA1061+006009069GF108991061051008001031999GJ103909KA1120M+02061KA2120N+01331MA1999999100461MD1710111+9999MW1611REMSYN112AAXX  24064 10640 41559 81805 10136 20133 30046 40161 57011 76162 8653/ 333 10206 20133 55065 70006 86620 88359;
0193106400999992000062409004+50110+008730FM-12+011299999V0202301N003110090019N0150001N1+01541+01251101661ADDAY161031AY221031GA1041+004509089GF107991071081004501999999MA1999999100521MD1210061+9999MW1021REMSYN088AAXX  24094 10640 41465 72306 10154 20125 30052 40166 52006 70262 878// 333 84815 86630;
0215106400999992000062412004+50110+008730FM-12+011299999V0202401N00261015001CN0300001N1+01721+00881101621ADDAY181061AY221061GA1031+006009089GA2031+015009069GF106991041081008001031011MA1999999100491MD1710031+9999MW1021REMSYN094AAXX  24124 10640 41580 62405 10172 20088 30049 40162 57003 70282 84831 333 83820 83650 85075;
0187106400999992000062415004+50110+008730FM-12+011299999V0202901N002610150019N0300001N1+01601+00751101621ADDGA1021+007209089GA2031+015009069GF107991051081008001031011MA1999999100481MD1710011+9999REMSYN088AAXX  24154 10640 42580 72905 10160 20075 30048 40162 57001 85831 333 82824 83650 87075;
0222106400999992000062418004+50110+008730FM-12+011299999V0202901N00311012001CN0300001N1+01581+00851101621ADDGA1011+006009089GF107991061081008001031999KA1120M+01871KA2120N+01311MA1999999100481MD1410001+9999REMSYN094AAXX  24184 10640 42580 72906 10158 20085 30048 40162 51000 8683/ 333 10187 20131 81820 86656;EQDQ01+000012APCTEN
0284106400999992000062506004+50110+008730FM-12+011299999V0202101N001510075019N0140001N1+01171+01131101861ADDAA124007091AY161061AY221061GA1021+004509069GA2061+007509069GF108991061051004501071999GJ102049KA1120M+01631KA2120N+01161MA1999999100701MD1310081+9999MW1601REMSYN118AAXX  25064 10640 11464 82103 10117 20113 30070 40186 53008 76062 8657/ 333 10163 20116 55034 70070 82615 86625 88360;
0193106400999992000062509004+50110+008730FM-12+011299999V0202601N00151012001CN0200001N1+01451+00981101921ADDAY121031AY221031GA1031+006309089GF106991051081008001031001MA1999999100771MD1310081+9999MW1211REMSYN088AAXX  25094 10640 41570 62603 10145 20098 30077 40192 53008 72122 85830 333 83821 85360;
0171106400999992000062512004+50110+008730FM-12+011299999V0203001N003110120019N0250001N1+01641+00881101991ADDGA1031+012009059GF106991051081008001031001IA1079MA1999999100761MD1410001+9999REMSYN082AAXX  25124 10640 42575 63006 10164 20088 30076 40199 54000 85830 333 3827/ 83640;
0165106400999992000062515004+50110+008730FM-12+011299999V0202401N002610300019N0300001N1+01811+00771101851ADDGA1021+009009089GF106991041081008001031001MA1999999100721MD1710041+9999REMSYN082AAXX  25154 10640 42580 62405 10181 20077 30072 40185 57004 84830 333 82830 83640;
0297106400999992000062518004+50110+008730FM-12+011299999V0202901N004610135019N0180001N1+01491+01061101991ADDAY121061AY221061GA1011+004509089GA2021+009009099GA3061+013509069GA4071+030009039GF107991061091004501031999KA1120M+01851KA2120N+01161MA1999999100841MD1310101+9999MW1801REMSYN118AAXX  25184 10640 41468 72909 10149 20106 30084 40199 53010 78022 8693/ 333 10185 20116 81815 82930 86645 87360 91113;
0234106400999992000062606004+50110+008730FM-12+011299999V0203101N00311009001CN0250001N1+01231+00741102271ADDAA124001691GA1011+004209089GF105991051081004501001011GJ101869KA1120M+01491KA2120N+01131MA1999999101111MD1210071+9999REMSYN106AAXX  26064 10640 42475 53106 10123 20074 30111 40227 52007 85801 333 10149 20113 55031 70016 81814 85650;
0165106400999992000062609004+50110+008730FM-12+011299999V0202801N00261012001CN0250001N1+01331+00661102361ADDGA1041+007509089GF107991071081008001999999MA1999999101201MD1310091+9999REMSYN082AAXX  26094 10640 42575 72805 10133 20066 30120 40236 53009 878// 333 84825 86656;
0165106400999992000062612004+50110+008730FM-12+011299999V0202501N001010120019N0300001N1+01491+00721102371ADDGA1031+009009089GF106991061081008001999999MA1999999101221MD1210031+9999REMSYN082AAXX  26124 10640 42580 62502 10149 20072 30122 40237 52003 868// 333 83830 84640;
0165106400999992000062615004+50110+008730FM-12+011299999V0202901N002610150019N0300001N1+01681+00311102341ADDGA1021+012009089GF105991051081012501999999MA1999999101201MD1710051+9999REMSYN082AAXX  26154 10640 42680 52905 10168 20031 30120 40234 57005 858// 333 82840 84650;
0222106400999992000062618004+50110+008730FM-12+011299999V0202901N003112200019N0400001N1+01661+00341102391ADDGA1011+015009089GF104991999081017501001001KA1120M+01731KA2120N+01131MA1999999101241MD1310031+9999REMSYN094AAXX  26184 10640 42782 42906 10166 20034 30124 40239 53003 85800 333 10173 20113 81850 84657;EQDQ01+000052SCOTLC
0228106400999992000062706004+50110+008730FM-12+011299999V0203201N001512200019N0400001N1+01151+00611102611ADDAA124000491GA1011+004509029GF101991011011004501001001GJ103729KA1120M+01661KA2120N+00841MA1999999101441MD1110081+9999REMSYN100AAXX  27064 10640 42482 13203 10115 20061 30144 40261 51008 81100 333 10166 20084 55062 70004 81815;
0159106400999992000062709004+50110+008730FM-12+011299999V0203101N001512200019N0400001N1+01321+00411102521ADDGA1021+009909029GF102991021011012501001001MA1999999101361MD1610081+9999REMSYN076AAXX  27094 10640 42682 23103 10132 20041 30136 40252 56008 82100 333 82833;
0159106400999992000062712004+50110+008730FM-12+011299999V0203001N001012200019N0400001N1+01791+00331102331ADDGA1031+015009029GF103991031011017501001001MA1999999101191MD1710161+9999REMSYN076AAXX  27124 10640 42782 33002 10179 20033 30119 40233 57016 83100 333 83850;
0165106400999992000062715004+50110+008730FM-12+011299999V0203301N001512200019N0400001N1+01921+00281102151ADDGA1021+012909089GF104991021021012501001011MA1999999101021MD1710241+9999REMSYN082AAXX  27154 10640 42682 43303 10192 20028 30102 40215 57024 82201 333 82843 83074;
0203106400999992000062718004+50110+008730FM-12+011299999V0203401N003112200019N0400001N1+01891+00301102041ADDGA1011+012009089GF104991021081012501001011KA1120M+01991KA2120N+01111MA1999999100911MD1710111+9999REMSYN094AAXX  27184 10640 42682 43406 10189 20030 30091 40204 57011 82801 333 10199 20111 81840 84070;
0245106400999992000062806004+50110+008730FM-12+011299999V0200501N001012200019N0350001N1+01141+00691101921ADDAA112999999AA224000091GA1031+075009019GF103991001001999999001011GJ108769KA1120M+01891KA2120N+01031MA1999999100761MD1510061+9999REMSYN106AAXX  28064 10640 42981 30502 10114 20069 30076 40192 55006 6///2 80001 333 10189 20103 55146 70000 83075;
0165106400999992000062809004+50110+008730FM-12+011299999V0203401N001512200019N0350001N1+01621+00521101931ADDGA1011+012009089GF104991011011012501001011MA1999999100791MD1110031+9999REMSYN082AAXX  28094 10640 42681 43403 10162 20052 30079 40193 51003 81101 333 81840 84075;
0165106400999992000062812004+50110+008730FM-12+011299999V0203201N001510750019N0400001N1+01781+00431101841ADDGA1041+015009089GF105991041021017501001021MA1999999100711MD1710051+9999REMSYN082AAXX  28124 10640 42782 53203 10178 20043 30071 40184 57005 84202 333 84850 83075;
0159106400999992000062815004+50110+008730FM-12+011299999V0203501N003112200019N0400001N1+01981+00261101781ADDGA1021+015009029GF102991021011012501001001MA1999999100651MD1610071+9999REMSYN076AAXX  28154 10640 42682 23506 10198 20026 30065 40178 56007 82100 333 82850;
0216106400999992000062818004+50110+008730FM-12+011299999V0203101N002612200019N0400001N1+01941+00341101851ADDGA1021+015009029GF103991999081017501001001KA1120M+02101KA2120N+01131MA1999999100721MD1210071+9999REMSYN088AAXX  28184 10640 42782 33105 10194 20034 30072 40185 52007 82800 333 10210 20113 82850;EQDQ01+000022SCOTLC
0245106400999992000062906004+50110+008730FM-12+011299999V0200401N001010150019N0230001N1+01151+00751102081ADDAA112999999AA224000091GA1071+015009059GF107991071051017501999999GJ108649KA1120M+01941KA2120N+00911MA1999999100921MD1110041+9999REMSYN106AAXX  29064 10640 42773 70402 10115 20075 30092 40208 51004 6///2 875// 333 10194 20091 55144 70000 87650;
0165106400999992000062909004+50110+008730FM-12+011299999V0202901N00211015001CN0300001N1+01521+00331102081ADDGA1021+012909089GF105991051081012501001001MA1999999100931MD1010041+9999REMSYN082AAXX  29094 10640 42680 52904 10152 20033 30093 40208 50004 85800 333 82843 84656;
0159106400999992000062912004+50110+008730FM-12+011299999V0202901N002112200019N0350001N1+01631+00271102051ADDGA1031+015009029GF103991031011017501001001MA1999999100911MD1610011+9999REMSYN076AAXX  29124 10640 42781 32904 10163 20027 30091 40205 56001 83100 333 83850;
0159106400999992000062915004+50110+008730FM-12+011299999V0202801N003112200019N0350001N1+01911+00271101921ADDGA1011+018009029GF101991011011017501001001MA1999999100791MD1710101+9999REMSYN076AAXX  29154 10640 42781 12806 10191 20027 30079 40192 57010 81100 333 81856;
0197106400999992000062918004+50110+008730FM-12+011299999V0203401N003612200019N0400001N1+01911+00281101881ADDGA1011+018009029GF101991011011017501001011KA1120M+02011KA2120N+01141MA1999999100751MD1710041+9999REMSYN088AAXX  29184 10640 42782 13407 10191 20028 30075 40188 57004 81101 333 10201 20114 81856;
0249106400999992000063006004+50110+008730FM-12+011299999V0202001N000510129019N0300001N1+01401+00941101861ADDAA124000091GA1071+012909059GF107991071051012501999999GJ107689KA1120M+01951KA2120N+01361MA1999999100711REMSYN100AAXX  30064 10640 42680 72001 10140 20094 30071 40186 56000 875// 333 10195 20136 55128 70000 87643;EQDQ01+000062APCTENQ02+000002APC3  
0165106400999992000063009004+50110+008730FM-12+011299999V0202601N00101007501CN0350001N1+01621+01011101821ADDGA1011+007509069GF107991071051008001999999MA1999999100681MD1610041+9999REMSYN082AAXX  30094 10640 42581 72602 10162 20101 30068 40182 56004 875// 333 81625 87633;
0165106400999992000063012004+50110+008730FM-12+011299999V0202901N001010120019N0250001N1+01801+01031101741ADDGA1021+009009089GF108991071081008001999999MA1999999100611MD1710041+9999REMSYN082AAXX  30124 10640 42575 82902 10180 20103 30061 40174 57004 878// 333 82830 87540;
0197106400999992000063018004+50110+008730FM-12+011299999V0203501N001010300019N0250001N1+02061+01121101491ADDGA1051+030009079GF106991051001999999031001KA1120M+02081KA2120N+01401MA1999999100371MD1710111+9999REMSYN088AAXX  30184 10640 /2975 63502 10206 20112 30037 40149 57011 85030 333 10208 20140 85360;
0234106400999992000070106004+50110+008730FM-12+011299999V0200701N000510210019N0080001N1+01531+01261101311ADDAA124000091GA1051+021009069GF108991051051022501031999GJ101269KA1120M+02081KA2120N+01471MA1999999100161MD1410001+9999REMSYN106AAXX  01064 10640 42858 80701 10153 20126 30016 40131 54000 8553/ 333 10208 20147 55021 70000 85657 88359;
0165106400999992000070109004+50110+008730FM-12+011299999V0201201N000510300019N0120001N1+01921+01291101281ADDGA1041+009009069GF106991041051008001031001MA1999999100161MD1110031+9999REMSYN082AAXX  01094 10640 42562 61201 10192 20129 30016 40128 51003 84530 333 84630 86360;
0157106400999992000070112004+50110+008730FM-12+011299999V0202901N001010750019N0200001N1+02461+01091999999ADDGA1011+014409029GF105991011011012501031011MD1710101+9999REMSYN070AAXX  01124 10640 42670 52902 10246 20109 30114 57010 81131 333 81848;EQDQ01+101143APOSP 
0165106400999992000070115004+50110+008730FM-12+011299999V0201701N00261030001CN0250001N1+02711+01001100901ADDGA1021+012009089GF105991041081012501031011MA1999999099811MD1210231+9999REMSYN082AAXX  01154 10640 42675 51705 10271 20100 39981 40090 52023 84831 333 82840 84650;
0253106400999992000070118004+50110+008730FM-12+011299999V0203601N003110150019N0250001N1+02011+01651101201ADDAY191061AY281061GA1011+012009089GA2041+015009069GF106991041081012501031011KA1120M+02811KA2120N+01521MA1999999100081MD1210271+9999MW1011REMSYN106AAXX  01184 10640 41675 63606 10201 20165 30008 40120 52027 70198 84831 333 10281 20152 81840 84650 91114;
0206106400999992000070206004+50110+008730FM-12+011299999V0201901N001010300019N0150001N1+01811+01761101391ADDAA124000891GF107991021061004501031011GJ104089KA1120M+02011KA2120N+01521MA1999999100261MD1210081+9999REMSYN094AAXX  02064 10640 42465 71902 10181 20176 30026 40139 52008 82631 333 10201 20152 55068 70007;
0165106400999992000070209004+50110+008730FM-12+011299999V0202601N001010750019N0250001N1+02171+01621101421ADDGA1021+005109089GF107991021011004501001021MA1999999100311MD1110041+9999REMSYN082AAXX  02094 10640 42475 72602 10217 20162 30031 40142 51004 82102 333 82817 87075;
0165106400999992000070212004+50110+008730FM-12+011299999V0201701N00211075001CN0250001N1+02551+01541101321ADDGA1041+009909089GF107991041011012501001021MA1999999100221MD1810091+9999REMSYN082AAXX  02124 10640 42675 71704 10255 20154 30022 40132 58009 84102 333 84833 87076;
0165106400999992000070215004+50110+008730FM-12+011299999V0201901N00101030001CN0250001N1+02741+01411101141ADDGA1021+009909089GF107991021011012501071021MA1999999100051MD1710171+9999REMSYN082AAXX  02154 10640 42675 71902 10274 20141 30005 40114 57017 82172 333 82833 85362;
0203106400999992000070218004+50110+008730FM-12+011299999V0201301N001010750019N0250001N1+02751+01361100961ADDGA1011+018009089GF107991011011017501001081KA1120M+02791KA2120N+01801MA1999999099801MD1710251+9999REMSYN094AAXX  02184 10640 42775 71302 10275 20136 39980 40096 57025 81108 333 10279 20180 81856 87075;
0256106400999992000070306004+50110+008730FM-12+011299999V0202301N001010090019N0150001N1+01691+01661101151ADDAA124017791GA1011+001209079GA2061+009009069GF108991061051001501071999GJ106189KA1120M+02751KA2120N+01621MA1999999100021MD1210311+9999REMSYN112AAXX  03064 10640 42265 82302 10169 20166 30002 40115 52031 8657/ 333 10275 20162 55103 70177 81704 86630 87360;
0187106400999992000070309004+50110+008730FM-12+011299999V0203201N001010090019N0150001N1+02021+01681101081ADDGA1031+006009089GA2041+009009069GF107991051081008001031011MA1999999099961MD1710071+9999REMSYN088AAXX  03094 10640 42565 73202 10202 20168 39996 40108 57007 85831 333 83820 84630 86360;
0165106400999992000070312004+50110+008730FM-12+011299999V0202001N002610300019N0250001N1+02231+01591101101ADDGA1031+009009089GF108991031021008001071999MA1999999099991MD1710011+9999REMSYN082AAXX  03124 10640 42575 82005 10223 20159 39999 40110 57001 8327/ 333 83830 88360;
0165106400999992000070315004+50110+008730FM-12+011299999V0201901N001510120019N0200001N1+02321+01611101021ADDGA1021+009009089GF105991051081008001001001MA1999999099911MD1710131+9999REMSYN082AAXX  03154 10640 42570 51903 10232 20161 39991 40102 57013 85800 333 82830 84640;
0203106400999992000070318004+50110+008730FM-12+011299999V0202001N002112200019N0230001N1+02391+01551100871ADDGA1011+009009089GF104991031081008001001011KA1120M+02461KA2120N+01681MA1999999099771MD1710151+9999REMSYN094AAXX  03184 10640 42573 42004 10239 20155 39977 40087 57015 83801 333 10246 20168 81830 83640;
0247106400999992000070406004+50110+008730FM-12+011299999V0200101N001510006019N0008001N1+01591+01561100821ADDAA124000091GA1091+999999999GF109991091999999999999999GJ103489KA1120M+02401KA2120N+01531MA1999999099691MD1710121+9999MW1451REMSYN094AAXX  04064 10640 41/08 90103 10159 20156 39969 40082 57012 745// 333 10240 20153 55058 70000;EQDQ01  00002PRCP24
0215106400999992000070409004+50110+008730FM-12+011299999V0200701N001510150019N0080001N1+01941+01681100721ADDAY141031AY221031GA1031+009009069GA2051+015009069GF108991061051008001071999MA1999999099601MD1710091+9999MW1021REMSYN094AAXX  04094 10640 41558 80703 10194 20168 39960 40072 57009 70242 8657/ 333 83630 85650 87360;
0215106400999992000070412004+50110+008730FM-12+011299999V0201301N002110150019N0080001N1+01911+01811100641ADDAY181061AY221061GA1021+007509089GA2051+015009069GF108991061081008001071999MA1999999099521MD1710161+9999MW1021REMSYN094AAXX  04124 10640 41558 81304 10191 20181 39952 40064 57016 70282 8687/ 333 82825 85650 87360;
0237106400999992000070415004+50110+008730FM-12+011299999V0202301N004610090019N0200001N1+02101+01651100611ADDAY161031AY221031GA1021+004509089GA2051+009009069GA3051+030009039GF107991061081004501071999MA1999999099501MD1710021+9999MW1211REMSYN100AAXX  04154 10640 41470 72309 10210 20165 39950 40061 57002 72162 8687/ 333 82815 85630 85360 91118;
0275106400999992000070418004+50110+008730FM-12+011299999V0202201N004110090019N0250001N1+01981+01451100701ADDAY161061AY221061GA1031+006009089GA2051+009009069GA3071+030009039GF107991051081008001031011KA1120M+02141KA2120N+01591MA1999999099591MD1210091+9999MW1021REMSYN112AAXX  04184 10640 41575 72208 10198 20145 39959 40070 52009 70262 85831 333 10214 20159 83820 85630 87360 91118;
0234106400999992000070506004+50110+008730FM-12+011299999V0202101N00151004201CN0200001N1+01551+01491101351ADDAA124021191GA1011+003009079GF106991061051004501001001GJ101989KA1120M+01991KA2120N+01481MA1999999100211MD1210141+9999REMSYN106AAXX  05064 10640 42470 62103 10155 20149 30021 40135 52014 86500 333 10199 20148 55033 70211 81710 86640;
0187106400999992000070509004+50110+008730FM-12+011299999V0202601N00261009001CN0250001N1+01851+01331101481ADDGA1011+003909089GA2031+006909089GF106991061081004501001001MA1999999100351MD1210141+9999REMSYN088AAXX  05094 10640 42475 62605 10185 20133 30035 40148 52014 86800 333 81813 83823 86640;
0165106400999992000070512004+50110+008730FM-12+011299999V0202201N004610120019N0300001N1+02011+01281101601ADDGA1021+006009089GF105991051081008001001001MA1999999100481MD1210131+9999REMSYN082AAXX  05124 10640 42580 52209 10201 20128 30048 40160 52013 85800 333 82820 84640;
0165106400999992000070515004+50110+008730FM-12+011299999V0202301N004110120019N0300001N1+02011+01311101661ADDGA1021+006009089GF107991071081008001031999MA1999999100541MD1110061+9999REMSYN082AAXX  05154 10640 42580 72308 10201 20131 30054 40166 51006 8783/ 333 82820 86640;
0247106400999992000070518004+50110+008730FM-12+011299999V0202001N002610090019N0250001N1+01881+01421101721ADDGA1031+005409089GA2041+009009069GA3051+030009039GF106991051081008001031011KA1120M+02241KA2120N+01541MA1999999100591MD1210101+9999REMSYN106AAXX  05184 10640 42575 62005 10188 20142 30059 40172 52010 85831 333 10224 20154 83818 84630 85360 91114;
0234106400999992000070606004+50110+008730FM-12+011299999V0202301N002112200019N0150001N1+01591+01521102071ADDAA124007791GA1011+004809089GF104991011011004501031011GJ103909KA1120M+01821KA2120N+01461MA1999999100931MD1210111+9999REMSYN106AAXX  06064 10640 42465 42304 10159 20152 30093 40207 52011 81131 333 10182 20146 55065 70077 81816 84075;
0159106400999992000070609004+50110+008730FM-12+011299999V0202401N001510069019N0200001N1+01961+01291102131ADDGA1051+006909029GF105991051021008001001001MA1999999101001MD1110071+9999REMSYN076AAXX  06094 10640 42570 52403 10196 20129 30100 40213 51007 85200 333 85823;
0159106400999992000070612004+50110+008730FM-12+011299999V0201801N001010120019N0400001N1+02081+01281102111ADDGA1051+012009029GF106991061081012501001001MA1999999100981MD1810021+9999REMSYN076AAXX  06124 10640 42682 61802 10208 20128 30098 40211 58002 86800 333 85840;
0187106400999992000070615004+50110+008730FM-12+011299999V0200101N00151220001CN0350001N1+02361+01281101981ADDGA1011+012009089GA2031+018009069GF107991031081012501001011MA1999999100871MD1710081+9999REMSYN088AAXX  06154 10640 42681 70103 10236 20128 30087 40198 57008 83801 333 81840 83656 87075;
0268106400999992000070706004+50110+008730FM-12+011299999V0200301N002110150019N0200001N1+01611+01361101481ADDAA124999929GA1011+006009069GA2051+015009069GF108991051051008001031999GJ105889KA1120M+02301KA2120N+01611MA1999999100341MD1810051+9999MW1601REMSYN118AAXX  07064 10640 41570 80304 10161 20136 30034 40148 58005 760// 8553/ 333 10230 20161 55098 79999 81620 85650 84359;
0193106400999992000070709004+50110+008730FM-12+011299999V0200101N002110150019N0150001N1+01721+01401101401ADDAY161031AY221031GA1061+015009069GF108991061051017501071999MA1999999100271MD1810081+9999MW1601REMSYN088AAXX  07094 10640 41765 80104 10172 20140 30027 40140 58008 76062 8657/ 333 86650 88360;
0215106400999992000070712004+50110+008730FM-12+011299999V0200101N002610090019N0250001N1+01961+01481101181ADDAY161061AY221061GA1021+006009089GA2051+009009069GF107991061081008001071999MA1999999100061MD1710211+9999MW1021REMSYN094AAXX  07124 10640 41575 70105 10196 20148 30006 40118 57021 70262 8687/ 333 82820 85630 87360;
0215106400999992000070715004+50110+008730FM-12+011299999V0203501N002110300019N0150001N1+01931+01771101071ADDAY121031AY221031GA1011+006009089GA2041+010509069GF107991041081008001071999MA1999999099951MD1810171+9999MW1251REMSYN094AAXX  07154 10640 41565 73504 10193 20177 39995 40107 58017 72522 8487/ 333 81820 84635 87360;
0225106400999992000070718004+50110+008730FM-12+011299999V0200101N003110300019N0150001N1+01741+01581100931ADDGA1011+004509089GA2031+009009069GF108991041081004501071999KA1120M+02001KA2120N+01611MA1999999099801MD1710151+9999REMSYN100AAXX  07184 10640 42465 80106 10174 20158 39980 40093 57015 8487/ 333 10200 20161 81815 83630 88360;
0315106400999992000070806004+50110+008730FM-12+011299999V0203401N004110075019N0060001N1+01061+01031101421ADDAA124008891AY161061GA1031+002109079GA2061+007509069GA3081+012009059GF108991061051002501021999GJ100129KA1120M+01741KA2120N+01061MA1999999100261MD1210261+9999MW1631OA149900821REMSYN130AAXX  08064 10640 41356 83408 10106 20103 30026 40142 52026 7636/ 8652/ 333 10174 20106 55002 70088 83707 86625 88540 91116 91211;
0161106400999992000070809004+50110+008730FM-12+011299999V0203301N003110300019N0200001N1+01211+00971101651ADDAY161031AY221031GF107991041081004501031999MA1999999100491MD1210231+9999MW1211REMSYN072AAXX  08094 10640 41470 73306 10121 20097 30049 40165 52023 72162 8483/;
0193106400999992000070812004+50110+008730FM-12+011299999V0203201N00101012001CN0400001N1+01471+00841101711ADDAY161061AY221061GA1031+008409089GF107991071081008001999999MA1999999100571MD1210061+9999MW1021REMSYN088AAXX  08124 10640 41582 73202 10147 20084 30057 40171 52006 70262 878// 333 83828 86635;
0165106400999992000070815004+50110+008730FM-12+011299999V0202401N002110120019N0300001N1+01561+00921101741ADDGA1041+009009089GF107991071081008001999999MA1999999100601MD1210031+9999REMSYN082AAXX  08154 10640 42580 72404 10156 20092 30060 40174 52003 878// 333 84830 87640;
0203106400999992000070818004+50110+008730FM-12+011299999V0202901N00261012001CN0300001N1+01631+00781101681ADDGA1031+010509069GF107991071051012501999999KA1120M+01651KA2120N+01041MA1999999100541MD1710051+9999REMSYN094AAXX  08184 10640 42680 72905 10163 20078 30054 40168 57005 875// 333 10165 20104 83635 87650;
0234106400999992000070906004+50110+008730FM-12+011299999V0202001N003110045019N0150001N1+01321+01151101221ADDAA124002791GA1051+004509069GF108991081051004501999999GJ100729KA1120M+01631KA2120N+01281MA1999999100071MD1710221+9999REMSYN106AAXX  09064 10640 42465 82006 10132 20115 30007 40122 57022 885// 333 10163 20128 55012 70027 85615 87630;
0193106400999992000070909004+50110+008730FM-12+011299999V0202001N002110042019N0200001N1+01421+01181101111ADDAY121031AY221031GA1051+004209089GF107991071081004501999999MA1999999099971MD1710111+9999MW1251REMSYN088AAXX  09094 10640 41470 72004 10142 20118 39997 40111 57011 72522 878// 333 85814 87630;
0193106400999992000070915004+50110+008730FM-12+011299999V0202101N002610072019N0150001N1+01401+01311100671ADDAY181031AY261031GA1051+007209069GF108991051051008001021999MA1999999099531MD1710181+9999MW1621REMSYN088AAXX  09154 10640 41565 82105 10140 20131 39953 40067 57018 76286 8552/ 333 85624 88359;
0253106400999992000070918004+50110+008730FM-12+011299999V0201701N003610042019N0080001N1+01371+01341100311ADDAY181061AY261061GA1031+001809079GA2061+004209069GF108991081051001501999999KA1120M+01651KA2120N+01321MA1999999099181MD1710351+9999MW1631REMSYN106AAXX  09184 10640 41258 81707 10137 20134 39918 40031 57035 76386 885// 333 10165 20132 83706 86614 88630;
0306106400999992000071006004+50110+008730FM-12+011299999V0202001N003110051019N0100001N1+01431+01401099531ADDAA124019591AY181061AY261061GA1031+003009089GA2051+005109069GA3071+027009039GF108991061081012501071999GJ100009KA1120M+01491KA2120N+01341MA1999999098401MD1510011+9999MW1211REMSYN124AAXX  10064 10640 41660 82006 10143 20140 39840 49953 55001 72186 8687/ 333 10149 20134 55000 70195 83810 85617 87359 91114;
0187106400999992000071009004+50110+008730FM-12+011299999V0202001N003610075019N0200001N1+01471+01371099701ADDGA1011+003909089GA2051+007509069GF107991051081004501031999MA1999999098581MD1210151+9999REMSYN088AAXX  10094 10640 42470 72007 10147 20137 39858 49970 52015 8583/ 333 81813 85625 86360;
0235106400999992000071012004+50110+008730FM-12+011299999V0202101N003610120019N0200001N1+01631+01241999999ADDAY181061AY221061GA1031+006009089GA2041+012009069GF107991051081004501031999MD1210081+9999MW1801REMSYN094AAXX  10124 10640 41470 72107 10163 20124 39981 49869 52008 78082 8583/ 333 83820 84640 91113;EQDQ01+099813APOSP Q02+098693APOSLP
0165106400999992000071015004+50110+008730FM-12+011299999V0202001N003610120019N0200001N1+02021+01121099771ADDGA1031+008109089GF105991051081008001031001MA1999999098671MD1410001+9999REMSYN082AAXX  10154 10640 42570 52007 10202 20112 39867 49977 54000 85830 333 83827 83640;
0203106400999992000071018004+50110+008730FM-12+011299999V0201901N00411015001CN0500001N1+01851+01141099771ADDGA1031+009909089GF106991051081012501031011KA1120M+02091KA2120N+01411MA1999999098671MD1410001+9999REMSYN094AAXX  10184 10640 42684 61908 10185 20114 39867 49977 54000 85831 333 10209 20141 83833 84640;
0256106400999992000071106004+50110+008730FM-12+011299999V0202001N004110120019N0300001N1+01361+01031099931ADDAA124000091GA1011+006009089GA2041+012009069GF105991051081004501031001GJ103489KA1120M+01881KA2120N+01231MA1999999098801MD1710041+9999REMSYN112AAXX  11064 10640 42480 52008 10136 20103 39880 49993 57004 85830 333 10188 20123 55058 70000 81820 84640 91113;
0209106400999992000071109004+50110+008730FM-12+011299999V0202001N004110075019N0300001N1+01421+01111100031ADDGA1021+006009089GA2031+007509069GA3071+010209069GF107991071081004501999999MA1999999098901MD1510101+9999REMSYN094AAXX  11094 10640 42480 72008 10142 20111 39890 40003 55010 878// 333 82820 83625 87634 91113;
0173106400999992000071115004+50110+008730FM-12+011299999V0202201N003610090019N0250001N1+01621+01271100171ADDAY181031AY221031GA1031+006009089GF107991061081004501071999MA1999999099051MW1021REMSYN082AAXX  11154 10640 41475 72207 10162 20127 39905 40017 70282 8687/ 333 83820 86630;
0231106400999992000071118004+50110+008730FM-12+011299999V0202801N00361007501CN0300001N1+01511+01171100401ADDAY181061AY221061GA1041+007509099GF107991071091008001031999KA1120M+01751KA2120N+01361MA1999999099271MD1210161+9999MW1251REMSYN100AAXX  11184 10640 41580 72807 10151 20117 39927 40040 52016 72582 8793/ 333 10175 20136 84925 87645;
0234106400999992000071206004+50110+008730FM-12+011299999V0202801N00211009001CN0200001N1+01291+00921101221ADDAA124001991GA1011+003909089GF107991071081004501031011GJ101029KA1120M+01291KA2120N+00921MA1999999100071MD1210231+9999REMSYN106AAXX  12064 10640 42470 72804 10129 20092 30007 40122 52023 87831 333 10129 20092 55017 70019 81813 87656;
0187106400999992000071209004+50110+008730FM-12+011299999V0202901N003110090019N0250001N1+01351+00691101481ADDGA1011+007509089GA2041+009009069GF106991061081004501999999MA1999999100331MD1210291+9999REMSYN088AAXX  12094 10640 42475 62906 10135 20069 30033 40148 52029 868// 333 81825 84630 85650;
0186106400999992000071212004+50110+008730FM-12+011299999V0202801N003610180019N0400001N1+01581+00611101571ADDGA1021+012009029GA2061+018009059GF106991021081012501031001MA1999999100431MD1210131+9999REMSYN087AAXX  12124 10640 42682 62807 10158 20061 30043 40157 52013 82830 33382840 86656 91113;
0165106400999992000071215004+50110+008730FM-12+011299999V0202901N00361030001CN0350001N1+01721+00511101611ADDGA1021+010509089GF105991031081012501031011MA1999999100481MD1210051+9999REMSYN082AAXX  12154 10640 42681 52907 10172 20051 30048 40161 52005 83831 333 82835 84656;
0203106400999992000071218004+50110+008730FM-12+011299999V0202701N00211030001CN0300001N1+01501+00591101731ADDGA1011+009009089GF105991031081012501031011KA1120M+01741KA2120N+01271MA1999999100591MD1210121+9999REMSYN094AAXX  12184 10640 42680 52704 10150 20059 30059 40173 52012 83831 333 10174 20127 81830 83650;
0256106400999992000071306004+50110+008730FM-12+011299999V0202001N00311030001CN0200001N1+01071+00991101721ADDAA124000091GA1011+004509089GA2031+012009069GF106991031081004501031011GJ104029KA1120M+01501KA2120N+00961MA1999999100561MD1710051+9999REMSYN112AAXX  13064 10640 42470 62006 10107 20099 30056 40172 57005 83831 333 10150 20096 55067 70000 81815 83640 86359;
0187106400999992000071309004+50110+008730FM-12+011299999V0202101N003610120019N0200001N1+01421+01031101651ADDGA1031+006009089GA2041+012009069GF107991051081008001031011MA1999999100501MD1710061+9999REMSYN088AAXX  13094 10640 42570 72107 10142 20103 30050 40165 57006 85831 333 83820 84640 87360;
0187106400999992000071312004+50110+008730FM-12+011299999V0202001N003610120019N0150001N1+01381+01151101541ADDGA1041+004509089GA2061+012009069GF107991061081004501031999MA1999999100391MD1710111+9999REMSYN088AAXX  13124 10640 42465 72007 10138 20115 30039 40154 57011 8683/ 333 84815 86640 87360;
0212106400999992000071315004+50110+008730FM-12+011299999V0202001N003110090019N0120001N1+01371+01291101441ADDAY161031AY221031GA1071+009009069GF108991999051008001071999MA1999999100291MD1710111+9999MW1611REMSYN088AAXX  13154 10640 41562 82006 10137 20129 30029 40144 57011 76162 8857/ 333 87630 87459;EQDQ01+000082SCOTLC
0253106400999992000071318004+50110+008730FM-12+011299999V0201901N003110075019N0090001N1+01411+01381101251ADDAY161061AY221061GA1011+003609069GA2051+007509069GF108991051051004501071999KA1120M+01481KA2120N+01071MA1999999100101MD1710181+9999MW1601REMSYN106AAXX  13184 10640 41459 81906 10141 20138 30010 40125 57018 76062 8557/ 333 10148 20107 81612 85625 88459;
0284106400999992000071406004+50110+008730FM-12+011299999V0202201N002110075019N0100001N1+01431+01401100751ADDAA124001991AY161061AY221061GA1021+003309089GA2061+007509069GF108991061081004501071999GJ100969KA1120M+01431KA2120N+01381MA1999999099611MD1610091+9999MW1211REMSYN118AAXX  14064 10640 41460 82204 10143 20140 39961 40075 56009 72162 8687/ 333 10143 20138 55016 70019 82811 86625 88358;
0193106400999992000071409004+50110+008730FM-12+011299999V0202501N00211002101CN0080001N1+01391+01361100731ADDAY161031AY221031GA1041+002409079GF108991081051002501999999MA1999999099591MD1810021+9999MW1631REMSYN088AAXX  14094 10640 41358 82504 10139 20136 39959 40073 58002 76362 885// 333 84708 88615;
0215106400999992000071412004+50110+008730FM-12+011299999V0203501N001510060019N0060001N1+01301+01271100701ADDAY181061AY221061GA1031+003009089GA2031+006009099GF108991081091004501999999MA1999999099561MD1710031+9999MW1821REMSYN094AAXX  14124 10640 41456 83503 10130 20127 39956 40070 57003 78282 889// 333 83810 83920 88640;
0231106400999992000071418004+50110+008730FM-12+011299999V0202601N00151009001CN0300001N1+01521+01021100711ADDAY181061AY221061GA1011+003009089GF107991061081004501071999KA1120M+01681KA2120N+01291MA1999999099581MD1710011+9999MW1021REMSYN100AAXX  14184 10640 41480 72603 10152 20102 39958 40071 57001 70282 8687/ 333 10168 20129 81810 86650;
0276106400999992000071506004+50110+008730FM-12+011299999V0202801N002110105019N0150001N1+01201+01061100981ADDAA124020291AY161061GA1021+005109089GA2041+010509069GF107991071081004501999999GJ100849KA1120M+01521KA2120N+01141MA1999999099831MD1110041+9999MW1601REMSYN118AAXX  15064 10640 41465 72804 10120 20106 39983 40098 51004 7606/ 878// 333 10152 20114 55014 70202 82817 84635 87650;
0215106400999992000071512004+50110+008730FM-12+011299999V0202701N002610300019N0250001N1+01481+00931101001ADDAY101061AY281061GA1011+006009089GA2031+007509089GF106991031021008001031011MA1999999099861MD1210011+9999MW1021REMSYN094AAXX  15124 10640 41575 62705 10148 20093 39986 40100 52001 70208 83231 333 81820 83825 85360;
0219106400999992000071515004+50110+008730FM-12+011299999V0203201N000510090019N0250001N1+01581+01131100971ADDAY181031AY221031GA1031+005409089GA2031+009009069GF106991051081008001031011MD1410001+9999MW1251REMSYN094AAXX  15154 10640 41575 63201 10158 20113 39884 40097 54000 72582 85831 333 83818 83630 85360;EQDQ01+098843APOSP 
0253106400999992000071518004+50110+008730FM-12+011299999V0203301N002610300019N0400001N1+01631+00891101031ADDAY181061AY221061GA1031+012009099GA2031+030009039GF106991041091012501031081KA1120M+01721KA2120N+01191MA1999999099901MD1210061+9999MW1161REMSYN106AAXX  15184 10640 41682 63305 10163 20089 39990 40103 52006 71682 84938 333 10172 20119 83940 83360 86275;
0284106400999992000071606004+50110+008730FM-12+011299999V0209999C000010090019N0150001N1+01261+01171101391ADDAA124004591AY161061AY221061GA1041+006009069GA2051+009009069GF107991061051008001031999GJ102829KA1120M+01631KA2120N+01191MA1999999100241MD1210091+9999MW1021REMSYN118AAXX  16064 10640 41565 70000 10126 20117 30024 40139 52009 70262 8653/ 333 10163 20119 55047 70045 84620 85630 87360;
0159106400999992000071609004+50110+008730FM-12+011299999V0202601N001010060019N0250001N1+01491+00781101471ADDGA1051+006009029GF105991051021004501001001MA1999999100331MD1210081+9999REMSYN076AAXX  16094 10640 42475 52602 10149 20078 30033 40147 52008 85200 333 85820;
0231106400999992000071618004+50110+008730FM-12+011299999V0201301N00261012001CN0350001N1+01631+01201101551ADDAY181061AY221061GA1031+009009089GF106991061081008001999011KA1120M+01891KA2120N+01251MA1999999100411MD1310061+9999MW1251REMSYN100AAXX  16184 10640 41581 61305 10163 20120 30041 40155 53006 72582 868/1 333 10189 20125 83830 85650;
0262106400999992000071706004+50110+008730FM-12+011299999V0202101N000510120019N0150001N1+01211+01181101931ADDAA124000591AY161061AY221061GA1011+006009089GF107991061081008001031999GJ103309KA1120M+01661KA2120N+01071MA1999999100771MD1210081+9999MW1021REMSYN112AAXX  17064 10640 41565 72101 10121 20118 30077 40193 52008 70262 8683/ 333 10166 20107 55055 70005 81820 86640;
0165106400999992000071709004+50110+008730FM-12+011299999V0202001N001510120019N0150001N1+01421+01321101991ADDGA1011+007809089GF107991071081008001999999MA1999999100841MD1210071+9999REMSYN082AAXX  17094 10640 42565 72003 10142 20132 30084 40199 52007 878// 333 81826 87640;
0187106400999992000071712004+50110+008730FM-12+011299999V0202001N002110120019N0150001N1+01571+01221102011ADDGA1031+006009089GA2051+012009069GF107991061081008001031999MA1999999100871MD1210031+9999REMSYN088AAXX  17124 10640 42565 72004 10157 20122 30087 40201 52003 8683/ 333 83820 85640 87360;
0187106400999992000071715004+50110+008730FM-12+011299999V0202401N00151006001CN0200001N1+01851+01031101961ADDGA1011+001809079GA2021+007509089GF106991061081001501999999MA1999999100831MD1710021+9999REMSYN088AAXX  17154 10640 42270 62403 10185 20103 30083 40196 57002 868// 333 81706 82825 85640;
0203106400999992000071718004+50110+008730FM-12+011299999V0202901N00101030001CN0350001N1+01851+00931101961ADDGA1021+012009089GF107991031081012501031011KA1120M+01971KA2120N+01201MA1999999100831MD1410001+9999REMSYN094AAXX  17184 10640 42681 72902 10185 20093 30083 40196 54000 83831 333 10197 20120 82840 84359;
0228106400999992000071806004+50110+008730FM-12+011299999V0203201N000510120019N0120001N1+01401+01241102061ADDAA124000091GA1071+012009059GF107991071051012501999999GJ102049KA1120M+01851KA2120N+01331MA1999999100911MD1210031+9999REMSYN100AAXX  18064 10640 42662 73201 10140 20124 30091 40206 52003 875// 333 10185 20133 55034 70000 87640;
0165106400999992000071809004+50110+008730FM-12+011299999V0202301N00051012001CN0150001N1+01641+01131102031ADDGA1031+006009089GF107991071081008001999999MA1999999100891MD1710021+9999REMSYN082AAXX  18094 10640 42565 72301 10164 20113 30089 40203 57002 878// 333 83820 8640/;
0165106400999992000071812004+50110+008730FM-12+011299999V0203001N002610120019N0250001N1+01731+00961102021ADDGA1031+007509089GF107991071081008001999999MA1999999100881MD1710021+9999REMSYN082AAXX  18124 10640 42575 73005 10173 20096 30088 40202 57002 878// 333 83825 87640;
0187106400999992000071815004+50110+008730FM-12+011299999V0202801N00311012001CN0400001N1+01841+01021101931ADDGA1011+007509089GA2031+009909069GF106991061081008001001001MA1999999100801MD1610051+9999REMSYN088AAXX  18154 10640 42582 62806 10184 20102 30080 40193 56005 86800 333 81825 83633 85646;
0197106400999992000071818004+50110+008730FM-12+011299999V0203001N002612200019N0400001N1+01941+00891101851ADDGA1011+012009029GF104991031081012501031011KA1120M+01971KA2120N+01371MA1999999100721MD1710081+9999REMSYN088AAXX  18184 10640 42682 43005 10194 20089 30072 40185 57008 83831 333 10197 20137 81840;
0273106400999992000071906004+50110+008730FM-12+011299999V0202401N00211012001CN0200001N1+01351+01021101961ADDAA124999999AY161061GA1011+006009089GF106991051081008001001011GJ103609KA1120M+01951KA2120N+01311MA1999999100831MD1210031+9999MW1011REMSYN112AAXX  19064 10640 11570 62404 10135 20102 30083 40196 52003 7016/ 85801 333 10195 20131 55060 79999 81820 85635;EQDQ01  99992PRCP24
0159106400999992000071909004+50110+008730FM-12+011299999V0202301N002610051019N0200001N1+01481+01081102011ADDGA1071+005109059GF108991071051008001999999MA1999999100851MD1210031+9999REMSYN076AAXX  19094 10640 42570 82305 10148 20108 30085 40201 52003 875// 333 87617;
0165106400999992000071912004+50110+008730FM-12+011299999V0202601N00211009001CN0250001N1+01571+01171102031ADDGA1011+003009089GF108991071081004501071999MA1999999100891MD1210041+9999REMSYN082AAXX  19124 10640 42475 82604 10157 20117 30089 40203 52004 8787/ 333 81810 86625;
0165106400999992000071915004+50110+008730FM-12+011299999V0202601N002610090019N0250001N1+01691+01211102081ADDGA1051+009009089GF107991071081008001031999MA1999999100931MD1210051+9999REMSYN082AAXX  19154 10640 42575 72605 10169 20121 30093 40208 52005 8783/ 333 85830 87640;
0231106400999992000071918004+50110+008730FM-12+011299999V0202901N00361012001CN0250001N1+01781+01171102081ADDAY121061AY221061GA1031+006309089GF106991061081008001031999KA1120M+01821KA2120N+01351MA1999999100941MD1410001+9999MW1211REMSYN100AAXX  19184 10640 42575 62907 10178 20117 30094 40208 54000 72122 8683/ 333 10182 20135 83821 85650;
0234106400999992000072006004+50110+008730FM-12+011299999V0202001N001010150019N0250001N1+01441+01281102201ADDAA124999929GA1051+015009069GF107991051051017501031999GJ101089KA1120M+01781KA2120N+01401MA1999999101051MD1210061+9999REMSYN106AAXX  20064 10640 42775 72002 10144 20128 30105 40220 52006 8553/ 333 10178 20140 55018 79999 85650 87360;
0165106400999992000072009004+50110+008730FM-12+011299999V0202201N002110300019N0250001N1+01681+01291102221ADDGA1011+018009069GF107991011051017501071999MA1999999101081MD1210031+9999REMSYN082AAXX  20094 10640 42775 72204 10168 20129 30108 40222 52003 8157/ 333 81656 87360;
0165106400999992000072012004+50110+008730FM-12+011299999V0202801N00051030001CN0300001N1+01931+01271102161ADDGA1031+009909089GF106991041081012501031999MA1999999101031MD1710041+9999REMSYN082AAXX  20124 10640 42680 62801 10193 20127 30103 40216 57004 8483/ 333 83833 84650;
0165106400999992000072015004+50110+008730FM-12+011299999V0201801N001010150019N0300001N1+02141+01281102101ADDGA1031+009909089GF106991051081012501031999MA1999999100981MD1610061+9999REMSYN082AAXX  20154 10640 42680 61802 10214 20128 30098 40210 56006 8583/ 333 83833 84650;
0197106400999992000072018004+50110+008730FM-12+011299999V0203201N002612200019N0300001N1+02221+01041102061ADDGA1031+010809029GF103991031081012501031001KA1120M+02231KA2120N+01441MA1999999100941MD1610041+9999REMSYN088AAXX  20184 10640 42680 33205 10222 20104 30094 40206 56004 83830 333 10223 20144 83836;
0228106400999992000072106004+50110+008730FM-12+011299999V0203201N002610120019N0300001N1+01601+01041102301ADDAA124000091GA1061+012009059GF106991061051012501001001GJ102589KA1120M+02221KA2120N+01481MA1999999101151MD1110041+9999REMSYN100AAXX  21064 10640 42680 63205 10160 20104 30115 40230 51004 86500 333 10222 20148 55043 70000 86640;
0165106400999992000072109004+50110+008730FM-12+011299999V0203201N002610120019N0300001N1+01621+00951102331ADDGA1041+009009089GF107991071081008001999999MA1999999101181MD1010051+9999REMSYN082AAXX  21094 10640 42580 73205 10162 20095 30118 40233 50005 878// 333 84830 85640;
0159106400999992000072112004+50110+008730FM-12+011299999V0203101N001012200019N0250001N1+02331+00901102261ADDGA1031+012009029GF103991031021002501001021MA1999999101131MD1510021+9999REMSYN076AAXX  21124 10640 42375 33102 10233 20090 30113 40226 55002 83202 333 83840;
0197106400999992000072118004+50110+008730FM-12+011299999V0203101N002612200019N0250001N1+02241+00721102111ADDGA1011+015009029GF102991011011017501001011KA1120M+02301KA2120N+01571MA1999999100991MD1710031+9999REMSYN088AAXX  21184 10640 42775 23105 10224 20072 30099 40211 57003 81101 333 10230 20157 81850;
0234106400999992000072206004+50110+008730FM-12+011299999V0200101N000510150019N0200001N1+01411+01171102111ADDAA124000091GA1011+012009089GF105991051081012501031011GJ105829KA1120M+02251KA2120N+01351MA1999999100961MD1210011+9999REMSYN106AAXX  22064 10640 42670 50101 10141 20117 30096 40211 52001 85831 333 10225 20135 55097 70000 81840 85650;
0165106400999992000072209004+50110+008730FM-12+011299999V0203501N002110120019N0200001N1+01681+01071102041ADDGA1031+007509089GF107991071081008001999999MA1999999100901MD1810061+9999REMSYN082AAXX  22094 10640 42570 73504 10168 20107 30090 40204 58006 878// 333 83825 84640;
0165106400999992000072212004+50110+008730FM-12+011299999V0203401N00211012001CN0200001N1+02001+01191101971ADDGA1021+006909089GF105991051081008001001001MA1999999100841MD1710061+9999REMSYN082AAXX  22124 10640 42570 53404 10200 20119 30084 40197 57006 85800 333 82823 85630;
0159106400999992000072215004+50110+008730FM-12+011299999V0203401N002612200019N0250001N1+02121+01231101871ADDGA1041+010809029GF104991041011008001001001MA1999999100751MD1710091+9999REMSYN076AAXX  22154 10640 42575 43405 10212 20123 30075 40187 57009 84100 333 84836;
0197106400999992000072218004+50110+008730FM-12+011299999V0200401N001512200019N0300001N1+02101+01291101791ADDGA1031+010809029GF103991031011008001001001KA1120M+02221KA2120N+01401MA1999999100661MD1710091+9999REMSYN088AAXX  22184 10640 42580 30403 10210 20129 30066 40179 57009 83100 333 10222 20140 83836;
0228106400999992000072306004+50110+008730FM-12+011299999V0200201N001010690019N0100001N1+01461+01351101741ADDAA124000091GA1051+069009019GF105991001001999999001011GJ105049KA1120M+02121KA2120N+01311MA1999999100591MD1810021+9999REMSYN100AAXX  23064 10640 42960 50202 10146 20135 30059 40174 58002 80001 333 10212 20131 55084 70000 85073;
0165106400999992000072309004+50110+008730FM-12+011299999V0200201N00151220001CN0300001N1+01931+01411101631ADDGA1021+009909089GF106991021011012501001011MA1999999100511MD1710071+9999REMSYN082AAXX  23094 10640 42680 60203 10193 20141 30051 40163 57007 82101 333 82833 86075;
0165106400999992000072312004+50110+008730FM-12+011299999V0200301N00151075001CN0300001N1+02411+01211101481ADDGA1021+009909089GF105991021011012501001021MA1999999100381MD1710131+9999REMSYN082AAXX  23124 10640 42680 50303 10241 20121 30038 40148 57013 82102 333 82833 85076;
0165106400999992000072315004+50110+008730FM-12+011299999V0201601N00101030001CN0250001N1+02531+01251101371ADDGA1021+015009089GF106991021011017501031021MA1999999100271MD1710101+9999REMSYN082AAXX  23154 10640 42775 61602 10253 20125 30027 40137 57010 82132 333 82850 85075;
0203106400999992000072318004+50110+008730FM-12+011299999V0200401N001512200019N0250001N1+02491+01191101231ADDGA1021+015009089GF104991021021017501001011KA1120M+02641KA2120N+01431MA1999999100131MD1710111+9999REMSYN094AAXX  23184 10640 42775 40403 10249 20119 30013 40123 57011 82201 333 10264 20143 82850 83075;
0262106400999992000072406004+50110+008730FM-12+011299999V0202801N00211030001CN0030001N1+01591+01561101101ADDAA124007191AY161061AY221061GA1021+001809079GF108991021071001501071999GJ106909KA1120M+02491KA2120N+01591MA1999999099971MD1310081+9999MW1651REMSYN112AAXX  24064 10640 41230 82804 10159 20156 39997 40110 53008 76562 8277/ 333 10249 20159 55115 70071 82706 88459;
0193106400999992000072409004+50110+008730FM-12+011299999V0201501N001010300019N0070001N1+01861+01751100831ADDAY161031AY221031GA1021+001809079GF108991031051001501031999MA1999999099711MD1710261+9999MW1101REMSYN088AAXX  24094 10640 41257 81502 10186 20175 39971 40083 57026 71062 8353/ 333 82706 87360;
0165106400999992000072412004+50110+008730FM-12+011299999V0201401N00151009001CN0100001N1+02131+01911100711ADDGA1031+004509089GF107991071081004501999999MA1999999099601MD1710111+9999REMSYN082AAXX  24124 10640 42460 71403 10213 20191 39960 40071 57011 878// 333 83815 86620;
0165106400999992000072415004+50110+008730FM-12+011299999V0201901N001510300019N0150001N1+02301+01751100581ADDGA1021+004509089GF106991031081004501031011MA1999999099481MD1710151+9999REMSYN082AAXX  24154 10640 42465 61903 10230 20175 39948 40058 57015 83831 333 82815 85360;
0231106400999992000072418004+50110+008730FM-12+011299999V0202201N003112200019N0300001N1+02191+01431100501ADDAY181061AY211061GA1021+012009089GF103991021021012501031011KA1120M+02451KA2120N+01591MA1999999099401MD1710081+9999MW1251REMSYN100AAXX  24184 10640 41680 32206 10219 20143 39940 40050 57008 72581 82231 333 10245 20159 82840 83360;
0325106400999992000072506004+50110+008730FM-12+011299999V0202001N005110090019N0150001N1+01661+01561100481ADDAA124003891GA1031+003009079GA2061+009009069GA3081+027009039GF108991061051004501071999GJ103369KA1120M+99999KA2120N+99999MA1999999099361MD1510091+9999MW1601REMSYN124AAXX  25064 10640 41465 82010 10166 20156 39936 40048 55009 760// 8657/ 333 10166 20219 55056 70038 83710 86630 88359 91114;EQDQ01 +01663ATMM  Q02 +02193ATMM  
0193106400999992000072509004+50110+008730FM-12+011299999V0201901N004110030019N0100001N1+01641+01631100591ADDAY161031AY221031GA1051+003009079GF108991051071004501071999MA1999999099471MD1210101+9999MW1611REMSYN088AAXX  25094 10640 41460 81908 10164 20163 39947 40059 52010 76162 8577/ 333 85710 88459;
0215106400999992000072512004+50110+008730FM-12+011299999V0202401N002110051019N0150001N1+01871+01611100721ADDAY161061AY221061GA1021+003309089GA2051+005109069GF107991061081004501031999MA1999999099611MD1210141+9999MW1211REMSYN094AAXX  25124 10640 41465 72404 10187 20161 39961 40072 52014 72162 8683/ 333 82811 85617 86359;
0165106400999992000072515004+50110+008730FM-12+011299999V0203101N002610300019N0200001N1+02061+01511100821ADDGA1031+006909089GF107991031081004501031999MA1999999099711MD1210121+9999REMSYN082AAXX  25154 10640 42470 73105 10206 20151 39971 40082 52012 8383/ 333 83823 85623;
0225106400999992000072518004+50110+008730FM-12+011299999V0202601N003112200019N0230001N1+02061+01391100941ADDGA1011+033009039GA2041+078009009GF104991011001999999031021KA1120M+02101KA2120N+01631MA1999999099831MD1210121+9999REMSYN100AAXX  25184 10640 42973 42606 10206 20139 39983 40094 52012 81032 333 10210 20163 81361 84076 91113;
0234106400999992000072606004+50110+008730FM-12+011299999V0200201N002110120019N0100001N1+01521+01381100941ADDAA124001591GA1051+012009069GF108991051051012501071999GJ101749KA1120M+02091KA2120N+01431MA1999999099811MD1210041+9999REMSYN106AAXX  26064 10640 42660 80204 10152 20138 39981 40094 52004 8557/ 333 10209 20143 55029 70015 85640 87360;
0193106400999992000072609004+50110+008730FM-12+011299999V0200301N001510045019N0080001N1+01501+01471100971ADDAY161031AY221031GA1061+004509069GF108991061051004501071999MA1999999099831MD1210081+9999MW1631REMSYN088AAXX  26094 10640 41458 80303 10150 20147 39983 40097 52008 76362 8657/ 333 86615 88358;
0193106400999992000072612004+50110+008730FM-12+011299999V0203601N000510078019N0050001N1+01681+01641101031ADDAY161061AY261061GA1061+007809069GF108991061051004501021999MA1999999099901MD1210021+9999MW1211REMSYN088AAXX  26124 10640 41450 83601 10168 20164 39990 40103 52002 72166 8652/ 333 86626 88458;
0215106400999992000072615004+50110+008730FM-12+011299999V0202601N000510030019N0050001N1+01691+01651101141ADDAY161031AY261031GA1021+001809079GA2041+003009079GF108991081051001501999999MA1999999100011MD1210121+9999MW1601REMSYN094AAXX  26154 10640 41250 82601 10169 20165 30001 40114 52012 76066 885// 333 82706 84710 87614;
0253106400999992000072618004+50110+008730FM-12+011299999V0202201N002110045019N0100001N1+01691+01661101341ADDAY161061AY221061GA1011+002109079GA2051+004509069GF107991051051002501031999KA1120M+01721KA2120N+01491MA1999999100211MD1210221+9999MW1211REMSYN106AAXX  26184 10640 41360 72204 10169 20166 30021 40134 52022 72162 8553/ 333 10172 20149 81707 85615 86360;
0262106400999992000072706004+50110+008730FM-12+011299999V0202201N00211001201CN0050001N1+01591+01561101771ADDAA124011991AY121061AY221061GA1041+001509079GF106991061051001501999999GJ100009KA1120M+01701KA2120N+01571MA1999999100631MD1210081+9999MW1101REMSYN112AAXX  27064 10640 41250 62204 10159 20156 30063 40177 52008 71022 865// 333 10170 20157 55000 70119 84705 86615;
0187106400999992000072709004+50110+008730FM-12+011299999V0202101N001510018019N0035001N1+01641+01611101861ADDAY121031AY221031GA1071+001809069GF108991071061001501999999MA1999999100721MD1110091+9999MW1101REMSYN082AAXX  27094 10640 41235 82103 10164 20161 30072 40186 51009 71022 876// 333 87706;
0165106400999992000072715004+50110+008730FM-12+011299999V0202001N00101012001CN0150001N1+02201+01771101581ADDGA1031+007509089GF107991061081008001071999MA1999999100471MD1710141+9999REMSYN082AAXX  27154 10640 42565 72002 10220 20177 30047 40158 57014 8687/ 333 83825 86650;
0272106400999992000072718004+50110+008730FM-12+011299999V0203201N000510150019N0200001N1+01801+01751101551ADDAY191061AY281061GA1021+006009089GA2061+015009069GF108991999081004501071999KA1120M+02221KA2120N+01561MA1999999100421MD1710011+9999MW1211REMSYN106AAXX  27184 10640 41470 83201 10180 20175 30042 40155 57001 72198 8887/ 333 10222 20156 82820 86650 87360;EQDQ01+000082SCOTLC
0239106400999992000072806004+50110+008730FM-12+011299999V0201901N000510300019N0180001N1+01571+01541101451ADDGA1011+003309079GA2031+012909069GF106991031051002501031999GJ101149KA1120M+01821KA2120N+01521MA1999999100311MD1710021+9999REMSYN106AAXX  28064 10640 42368 61901 10157 20154 30031 40145 57002 8353/ 333 10182 20152 55019 81711 83643 86360;
0193106400999992000072812004+50110+008730FM-12+011299999V02099999999990420019N0150001N1+01781+01471101401ADDAY121061AY221061GA1051+042009059GF107991051051002501031999MA1999999100271MD1710021+9999MW1811REMSYN088AAXX  28124 10640 41365 7//// 10178 20147 30027 40140 57002 78122 8553/ 333 85564 86360;
0203106400999992000072818004+50110+008730FM-12+011299999V02099999999990120019N0200001N1+01971+01291101521ADDGA1051+012009069GF108991051051012501071999KA1120M+02031KA2120N+01521MA1999999100401MD1210061+9999REMSYN094AAXX  28184 10640 42670 8//// 10197 20129 30040 40152 52006 8557/ 333 10203 20152 85640 88360;
0234106400999992000072906004+50110+008730FM-12+011299999V0202301N00211030001CN0100001N1+01451+01421101731ADDAA124001491GA1011+000909079GF106991021051001501031001GJ103069KA1120M+01981KA2120N+01341MA1999999100581MD1210021+9999REMSYN106AAXX  29064 10640 41260 62304 10145 20142 30058 40173 52002 82530 333 10198 20134 55051 70014 81703 86359;
0165106400999992000072909004+50110+008730FM-12+011299999V0202901N001010300019N0150001N1+01701+01511101751ADDGA1011+000909079GF107991031081000751031999MA1999999100611MD1210031+9999REMSYN082AAXX  29094 10640 42165 72902 10170 20151 30061 40175 52003 8383/ 333 81703 86360;
0165106400999992000072912004+50110+008730FM-12+011299999V0202201N00211007501CN0200001N1+01941+01311101661ADDGA1021+009009099GF107991051091008001031999MA1999999100531MD1710041+9999REMSYN082AAXX  29124 10640 42570 72204 10194 20131 30053 40166 57004 8593/ 333 82930 85640;
0187106400999992000072915004+50110+008730FM-12+011299999V0202301N00311030001CN0300001N1+02031+01461101671ADDGA1011+007509099GA2041+009009089GF107991041041008001031999MA1999999100551MD1310021+9999REMSYN088AAXX  29154 10640 42580 72306 10203 20146 30055 40167 53002 8443/ 333 81925 84830 87359;
0234106400999992000073006004+50110+008730FM-12+011299999V0202401N001010060019N0150001N1+01501+01471102211ADDAA124001391GA1051+006009069GF107991071051008001999999GJ103129KA1120M+01921KA2120N+01481MA1999999101061MD1210151+9999REMSYN106AAXX  30064 10640 42565 72402 10150 20147 30106 40221 52015 875// 333 10192 20148 55052 70013 85620 87630;
0159106400999992000073009004+50110+008730FM-12+011299999V0202401N002110060019N0120001N1+01771+01401102331ADDGA1071+006009029GF107991071021008001999999MA1999999101191MD1210121+9999REMSYN076AAXX  30094 10640 42562 72404 10177 20140 30119 40233 52012 872// 333 87820;
0165106400999992000073012004+50110+008730FM-12+011299999V0202401N002110120019N0250001N1+02051+01321102311ADDGA1031+009009089GF106991061081008001031011MA1999999101181MD1810011+9999REMSYN082AAXX  30124 10640 42575 62404 10205 20132 30118 40231 58001 86831 333 83830 84640;
0165106400999992000073015004+50110+008730FM-12+011299999V0202301N001510090019N0250001N1+02201+01241102301ADDGA1051+009009089GF107991051021008001031011MA1999999101181MD1410001+9999REMSYN082AAXX  30154 10640 42575 72303 10220 20124 30118 40230 54000 85231 333 85830 86360;
0231106400999992000073018004+50110+008730FM-12+011299999V0202801N00101030001CN0400001N1+02061+01191102391ADDAY181061AY221061GA1011+010509099GF106991021091012501031011KA1120M+02261KA2120N+01501MA1999999101261MD1210081+9999MW1031REMSYN100AAXX  30184 10640 41682 62802 10206 20119 30126 40239 52008 70382 82931 333 10226 20150 81935 86361;
0256106400999992000073106004+50110+008730FM-12+011299999V0200701N001010003019N0015001N1+01421+01391102601ADDAA124000091AY111061AY211061GA1061+000309069GF106991061061000751001001GJ102829KA1120M+02081KA2120N+01341MA1999999101441MD1210071+9999MW1101REMSYN106AAXX  31064 10640 41115 60702 10142 20139 30144 40260 52007 71011 86600 333 10208 20134 55047 70000 86701;
0159106400999992000073109004+50110+008730FM-12+011299999V0209999C000012200019N0080001N1+01971+01581102621ADDGA1041+006009029GF104991041011008001001001MA1999999101481MD1210041+9999REMSYN076AAXX  31094 10640 42558 40000 10197 20158 30148 40262 52004 84100 333 84820;
0159106400999992000073112004+50110+008730FM-12+011299999V0203301N000510090019N0200001N1+02181+01391102551ADDGA1051+009009029GF105991051011008001001001MA1999999101421MD1210061+9999REMSYN076AAXX  31124 10640 42570 53301 10218 20139 30142 40255 52006 85100 333 85830;
0159106400999992000073115004+50110+008730FM-12+011299999V0203201N001012200019N0300001N1+02311+01321102471ADDGA1041+012009029GF104991041021008001001001MA1999999101351MD1710081+9999REMSYN076AAXX  31154 10640 42580 43202 10231 20132 30135 40247 57008 84200 333 84840;
0165106400999992000080109004+50110+008730FM-12+011299999V0203201N000512200019N0150001N1+01991+01521102341ADDGA1021+006009089GF104991021011008001031011MA1999999101211MD1710051+9999REMSYN082AAXX  01094 10640 42565 43201 10199 20152 30121 40234 57005 82131 333 82820 84360;
0154106400999992000080112004+50110+008730FM-12+011299999V0201701N001012200019N0250001N1+02581+01301102141ADDAA124284091GF102991021021012501001001MA1999999101031MD1110181+9999REMSYN076AAXX  01124 10640 42675 21702 10258 20130 30103 40214 51018 82200 333 72840;
0159106400999992000080115004+50110+008730FM-12+011299999V0202101N002112200019N0300001N1+02811+01341101941ADDGA1021+015009029GF102991021011017501001011MA1999999100841MD1710191+9999REMSYN076AAXX  01154 10640 42780 22104 10281 20134 30084 40194 57019 82101 333 82850;
0185106400999992000080118004+50110+008730FM-12+011299999V0201801N001012200019N0300001N1+02761+01221101811ADDGA1001+999999999GF100991001001999999001001KA1120M+02831KA2999N+01541MA1999999100711MD1710131+9999REMSYN076AAXX  01184 10640 42980 01802 10276 20122 30071 40181 57013 333 10283 20154;
0284106400999992000080206004+50110+008730FM-12+011299999V0202201N003610090019N0120001N1+01761+01731101701ADDAA124006591AY181061AY291061GA1021+006009089GA2051+009009069GF107991061081008001071999GJ107149KA1120M+02761KA2120N+01611MA1999999100571MD1710071+9999MW1611REMSYN118AAXX  02064 10640 41562 72207 10176 20173 30057 40170 57007 76189 8687/ 333 10276 20161 55119 70065 82820 85630 87360;
0193106400999992000080209004+50110+008730FM-12+011299999V0201601N00261012001CN0120001N1+01781+01731101591ADDAY191031AY281031GA1031+006009089GF107991071081008001999999MA1999999100471MD1710101+9999MW1801REMSYN088AAXX  02094 10640 41562 71605 10178 20173 30047 40159 57010 78098 878// 333 83820 86630;
0215106400999992000080212004+50110+008730FM-12+011299999V0202101N003110060019N0150001N1+01931+01841101811ADDAY191061AY281061GA1041+004509089GA2051+006009069GF107991051081004501071999MA1999999100681MD1210211+9999MW1251REMSYN094AAXX  02124 10640 41465 72106 10193 20184 30068 40181 52021 72598 8587/ 333 84815 85620 87360;
0187106400999992000080215004+50110+008730FM-12+011299999V0201901N003110075019N0200001N1+02061+01811101811ADDGA1031+006009089GA2031+007509069GF107991051081008001031999MA1999999100691MD1710011+9999REMSYN088AAXX  02154 10640 42570 71906 10206 20181 30069 40181 57001 8583/ 333 83820 83625 86359;
0197106400999992000080218004+50110+008730FM-12+011299999V0202401N003112200019N0300001N1+02261+01061101851ADDGA1021+013509029GF102991021021012501001001KA1120M+02341KA2120N+01711MA1999999100731MD1310031+9999REMSYN088AAXX  02184 10640 42680 22406 10226 20106 30073 40185 53003 82200 333 10234 20171 82845;
0228106400999992000080306004+50110+008730FM-12+011299999V0201801N001010030019N0120001N1+01411+01341102081ADDAA124004591GA1081+003009069GF108991081061004501999999GJ102709KA1120M+02261KA2120N+01311MA1999999100931MD1610031+9999REMSYN100AAXX  03064 10640 42462 81802 10141 20134 30093 40208 56003 886// 333 10226 20131 55045 70045 88710;
0165106400999992000080312004+50110+008730FM-12+011299999V0201901N003610300019N0200001N1+02321+01311101871ADDGA1041+007809089GF106991041081008001031999MA1999999100751MD1810101+9999REMSYN082AAXX  03124 10640 41570 61907 10232 20131 30075 40187 58010 8483/ 333 84826 83360;
0184106400999992000080315004+50110+008730FM-12+011299999V0201701N002610300019N0200001N1+02211+01151999999ADDGA1031+007809089GF106991041081008001071001MA1999999100651MD1710121+9999REMSYN082AAXX  03154 10640 42570 61705 10221 20115 30065 40117 57012 84870 333 83826 84640;EQDQ01+101173APOSLP
0225106400999992000080318004+50110+008730FM-12+011299999V0203501N001010300019N0300001N1+02011+01251101841ADDGA1011+012009089GA2021+015009099GF107991031091012501071999KA1120M+02331KA2120N+01411MA1999999100721MD1210071+9999REMSYN100AAXX  03184 10640 42680 73502 10201 20125 30072 40184 52007 8397/ 333 10233 20141 81840 82950 87360;
0228106400999992000080406004+50110+008730FM-12+011299999V0202301N001012200019N0150001N1+01431+01401102131ADDAA124000791GA1021+003009069GF103991021061004501031011GJ105289KA1120M+02041KA2120N+01381MA1999999100981MD1210061+9999REMSYN100AAXX  04064 10640 42465 32302 10143 20140 30098 40213 52006 82631 333 10204 20138 55088 70007 82710;
0159106400999992000080409004+50110+008730FM-12+011299999V0202201N001012200019N0250001N1+01841+01441102191ADDGA1011+004509029GF102991011011004501031001MA1999999101061MD1210121+9999REMSYN076AAXX  04094 10640 42475 22202 10184 20144 30106 40219 52012 81130 333 81815;
0165106400999992000080412004+50110+008730FM-12+011299999V0203201N002612200019N0300001N1+01981+01131102171ADDGA1011+009009099GF104991031091008001031001MA1999999101041MD1810011+9999REMSYN082AAXX  04124 10640 42580 43205 10198 20113 30104 40217 58001 83930 333 81930 83836;
0165106400999992000080415004+50110+008730FM-12+011299999V0203501N001512200019N0300001N1+02281+01031102111ADDGA1041+010809089GF104991041021012501031001MA1999999100991MD1710061+9999REMSYN082AAXX  04154 10640 42680 43503 10228 20103 30099 40211 57006 84230 333 84836 81360;
0203106400999992000080418004+50110+008730FM-12+011299999V0203601N00151075001CN0400001N1+02241+01171102131ADDGA1011+015009089GF105991011021017501031011KA1120M+02391KA2120N+01431MA1999999101011MD1210021+9999REMSYN094AAXX  04184 10640 42782 53603 10224 20117 30101 40213 52002 81231 333 10239 20143 81850 84360;
0228106400999992000080506004+50110+008730FM-12+011299999V0203601N002112200019N0200001N1+01541+01311102331ADDAA124000091GA1011+060009019GF101991001001999999001011GJ106189KA1120M+02271KA2120N+01431MA1999999101181MD1210061+9999REMSYN100AAXX  05064 10640 42970 13604 10154 20131 30118 40233 52006 80001 333 10227 20143 55103 70000 81070;
0159106400999992000080509004+50110+008730FM-12+011299999V0200101N002612200019N0250001N1+02101+01461102331ADDGA1021+075009019GF102991001001999999001011MA1999999101201MD1210021+9999REMSYN076AAXX  05094 10640 42975 20105 10210 20146 30120 40233 52002 80001 333 82075;
0153106400999992000080512004+50110+008730FM-12+011299999V0203401N003112200019N0250001N1+01121+99999102261ADDGA1031+015009029GF103991031021017501001011MA1999999101141MD1710031+9999REMSYN070AAXX  05124 10640 42775 33406 10112 30114 40226 57003 83201 333 83850;
0159106400999992000080515004+50110+008730FM-12+011299999V0203601N003112200019N0300001N1+02522+01141102151ADDGA1041+012909029GF104991041021012501001011MA1999999101041MD1710101+9999REMSYN076AAXX  05154 10640 42680 43606 10252 20114 30104 40215 57010 84201 333 84843;
0225106400999992000080518004+50110+008730FM-12+011299999V0200101N00361075001CN0300001N1+02431+01101102131ADDGA1011+013509099GA2021+015009089GF105991021091012501031011KA1120M+02551KA2120N+01541MA1999999101021MD1710021+9999REMSYN100AAXX  05184 10640 42680 50107 10243 20110 30102 40213 57002 82931 333 10255 20154 81945 82850 83360;
0228106400999992000080606004+50110+008730FM-12+011299999V0203401N003112200019N0230001N1+01631+01321102231ADDAA124000091GA1011+030009079GF102991011001999999031011GJ107029KA1120M+02461KA2120N+01601MA1999999101091MD1110031+9999REMSYN100AAXX  06064 10640 42973 23406 10163 20132 30109 40223 51003 81031 333 10246 20160 55117 70000 81360;
0165106400999992000080609004+50110+008730FM-12+011299999V0203301N005112200019N0250001N1+02101+01381102251ADDGA1011+007209089GF104991011011008001031011MA1999999101121MD1110031+9999REMSYN082AAXX  06094 10640 42575 43310 10210 20138 30112 40225 51003 81131 333 81824 83075;
0165106400999992000080612004+50110+008730FM-12+011299999V0203501N00151220001CN0300001N1+02381+01131102171ADDGA1031+012009089GF106991031011012501001011MA1999999101061MD1710061+9999REMSYN082AAXX  06124 10640 42680 63503 10238 20113 30106 40217 57006 83101 333 83840 86076;
0216106400999992000080618004+50110+008730FM-12+011299999V0203101N003112200019N0250001N1+02291+01201102111ADDGA1021+015009059GF102991021051017501999001KA1120M+02461KA2120N+01631MA1999999100991MD1410001+9999REMSYN088AAXX  06184 10640 42775 23106 10229 20120 30099 40211 54000 82500 333 10246 20163 82650;EQDQ01    003SCOMCG
0256106400999992000080706004+50110+008730FM-12+011299999V0203401N001010240019N0150001N1+01901+01551102241ADDAA124000091GA1021+009009089GA2031+024009039GF107991021081008001031999GJ106549KA1120M+02281KA2120N+01721MA1999999101111MD1210051+9999REMSYN112AAXX  07064 10640 42565 73402 10190 20155 30111 40224 52005 8283/ 333 10228 20172 55109 70000 82830 83358 85360;
0187106400999992000080709004+50110+008730FM-12+011299999V0203401N003110120019N0200001N1+01891+01351102291ADDGA1031+007209089GA2031+012009069GF107991051081008001031011MA1999999101161MD1210021+9999REMSYN088AAXX  07094 10640 42570 73406 10189 20135 30116 40229 52002 85831 333 83824 83640 85356;
0187106400999992000080712004+50110+008730FM-12+011299999V0203201N001010108019N0400001N1+02101+01331102291ADDGA1031+007809089GA2041+010809069GF106991051081008001031001MA1999999101161MD1010001+9999REMSYN088AAXX  07124 10640 42582 63202 10210 20133 30116 40229 50000 85830 333 83826 84636 91113;
0203106400999992000080718004+50110+008730FM-12+011299999V0203601N00311030001CN0350001N1+02271+01101102161ADDGA1011+013809089GF106991011011012501031001KA1120M+02431KA2120N+01701MA1999999101041MD1610011+9999REMSYN094AAXX  07184 10640 42681 63606 10227 20110 30104 40216 56001 81130 333 10243 20170 81846 86359;
0262106400999992000080806004+50110+008730FM-12+011299999V0200601N00051001201CN0050001N1+01721+01691102161ADDAA124010291AY161061AY221061GA1011+001509079GF108991071051001501999999GJ102529KA1120M+02231KA2120N+01651MA1999999101021MD1510041+9999MW1611REMSYN112AAXX  08064 10640 41250 80601 10172 20169 30102 40216 55004 76162 875// 333 10223 20165 55042 70102 81705 87636;
0187106400999992000080809004+50110+008730FM-12+011299999V0203601N002110033019N0050001N1+01701+01671102181ADDAY161031AY221031GA1071+003309059GF108991071051004501999999MA1999999101041MD1210021+9999MW1601REMSYN082AAXX  08094 10640 41450 83604 10170 20167 30104 40218 52002 76062 875// 333 87611;
0193106400999992000080812004+50110+008730FM-12+011299999V0203501N001010300019N0150001N1+01991+01771102161ADDAY161061AY261061GA1041+006009089GF106991041021008001031999MA1999999101031MD1710011+9999MW1021REMSYN088AAXX  08124 10640 41565 63502 10199 20177 30103 40216 57001 70266 8423/ 333 84820 84360;
0159106400999992000080815004+50110+008730FM-12+011299999V0200301N001010750019N0200001N1+02061+00941102061ADDGA1021+006009029GF105991021011008001031011MA1999999100941MD1710091+9999REMSYN076AAXX  08154 10640 42570 50302 10206 20094 30094 40206 57009 82131 333 82820;
0203106400999992000080818004+50110+008730FM-12+011299999V0201401N00101030001CN0300001N1+02151+01561102051ADDGA1011+011409089GF106991021081012501031011KA1120M+02271KA2120N+01681MA1999999100931MD1710031+9999REMSYN094AAXX  08184 10640 42680 61402 10215 20156 30093 40205 57003 82831 333 10227 20168 81838 83358;
0248106400999992000080906004+50110+008730FM-12+011299999V0200601N000512200019N0070001N1+01471+01441102291ADDAA124000591AY121061GA1021+027009079GF102991021001999999031001GJ103069KA1120M+02201KA2120N+01421MA1999999101141MD1210071+9999MW1101REMSYN106AAXX  09064 10640 41957 20601 10147 20144 30114 40229 52007 7102/ 82030 333 10220 20142 55051 70005 82359;
0193106400999992000080909004+50110+008730FM-12+011299999V0203501N00051030001CN0070001N1+01901+01661102331ADDAY121031AY221031GA1041+003609089GF106991041021004501031999MA1999999101201MD1210061+9999MW1101REMSYN088AAXX  09094 10640 41457 63501 10190 20166 30120 40233 52006 71022 8423/ 333 84812 86359;
0159106400999992000080912004+50110+008730FM-12+011299999V0200701N000512200019N0120001N1+02441+01621102221ADDGA1031+008409029GF103991031021008001001011MA1999999101111MD1610091+9999REMSYN076AAXX  09124 10640 42562 30701 10244 20162 30111 40222 56009 83201 333 83828;
0187106400999992000080915004+50110+008730FM-12+011299999V0201801N001010300019N0250001N1+02471+01421102101ADDGA1021+012009089GA2031+030009039GF106991021021012501031021MA1999999100991MD1710121+9999REMSYN088AAXX  09154 10640 42675 61802 10247 20142 30099 40210 57012 82232 333 82840 83360 85075;
0225106400999992000080918004+50110+008730FM-12+011299999V0202001N000510300019N0250001N1+02411+01601102031ADDGA1021+012009089GA2051+030009039GF106991021021012501031021KA1120M+02551KA2120N+01461MA1999999100921MD1710071+9999REMSYN100AAXX  09184 10640 42675 62001 10241 20160 30092 40203 57007 82232 333 10255 20146 82840 85360 85078;
0246106400999992000081006004+50110+008730FM-12+011299999V0202201N001512200019N0070001N1+01751+01671101921ADDAA124000091GA1011+006909089GF104991011011008001031001GJ104449KA1120M+02411KA2120N+01551MA1999999100781MD1510071+9999MW1101REMSYN112AAXX  10064 10640 41557 42203 10175 20167 30078 40192 55007 710// 81130 333 10241 20155 55074 70000 81823 84360;
0165106400999992000081009004+50110+008730FM-12+011299999V0202001N000512200019N0120001N1+02121+01751101881ADDGA1021+021009069GF104991021051022501031011MA1999999100761MD1810021+9999REMSYN082AAXX  10094 10640 42862 42001 10212 20175 30076 40188 58002 82531 333 82657 84360;
0159106400999992000081012004+50110+008730FM-12+011299999V0202001N002612200019N0150001N1+02601+01751101701ADDGA1021+010809029GF102991021011012501001011MA1999999100601MD1710161+9999REMSYN076AAXX  10124 10640 42665 22005 10260 20175 30060 40170 57016 82101 333 82836;
0165106400999992000081015004+50110+008730FM-12+011299999V0202201N004110300019N0200001N1+02751+01381101541ADDGA1021+015009089GF105991021021017501031001MA1999999100451MD1710151+9999REMSYN082AAXX  10154 10640 42770 52208 10275 20138 30045 40154 57015 82230 333 82850 84360;
0191106400999992000081018004+50110+008730FM-12+011299999V0203301N003112200019N0200001N1+02511+01631999999ADDGA1011+009009029GF101991011021008001001001KA1120M+02791KA2120N+01751MA1999999100491MD1210031+9999REMSYN082AAXX  10184 10640 42570 13306 10251 20163 30049 52003 81200 333 10279 20175 81830;
0228106400999992000081106004+50110+008730FM-12+011299999V0202601N000512200019N0120001N1+01681+01531101791ADDAA124000091GA1021+010509059GF102991021051012501001001GJ104809KA1120M+02511KA2120N+01571MA1999999100651MD1110031+9999REMSYN100AAXX  11064 10640 42662 22601 10168 20153 30065 40179 51003 82500 333 10251 20157 55080 70000 82635;
0159106400999992000081109004+50110+008730FM-12+011299999V0202101N002112200019N0150001N1+02091+01421101791ADDGA1041+006009029GF104991041021008001001001MA1999999100671MD1410001+9999REMSYN076AAXX  11094 10640 42565 42104 10209 20142 30067 40179 54000 84200 333 84820;
0165106400999992000081112004+50110+008730FM-12+011299999V0202001N001012200019N0200001N1+02471+01251101701ADDGA1031+013509089GF104991031021012501001011MA1999999100591MD1710071+9999REMSYN082AAXX  11124 10640 42670 42002 10247 20125 30059 40170 57007 83201 333 83845 83078;
0165106400999992000081115004+50110+008730FM-12+011299999V0202001N000512200019N0250001N1+02541+01101101581ADDGA1031+000159089GF104991031021017501001011MA1999999100481MD1710131+9999REMSYN082AAXX  11154 10640 42775 42001 10254 20110 30048 40158 57013 83201 333 83800 83078;
0197106400999992000081118004+50110+008730FM-12+011299999V0200401N002112200019N0400001N1+02481+01201101491ADDGA1011+015009029GF102991011011017501031011KA1120M+02631KA2120N+01661MA1999999100391MD1710091+9999REMSYN088AAXX  11184 10640 42782 20404 10248 20120 30039 40149 57009 81131 333 10263 20166 81850;
0228106400999992000081206004+50110+008730FM-12+011299999V0200201N001012200019N0250001N1+01611+01391101611ADDAA124000091GA1011+030009079GF101991011001999999031011GJ106189KA1120M+02481KA2120N+01531MA1999999100471MD1210061+9999REMSYN100AAXX  12064 10640 42975 10202 10161 20139 30047 40161 52006 81031 333 10248 20153 55103 70000 81360;
0159106400999992000081209004+50110+008730FM-12+011299999V0200701N000512200019N0250001N1+02161+01461101611ADDGA1021+030009079GF102991021001999999031001MA1999999100491MD1110021+9999REMSYN076AAXX  12094 10640 42975 20701 10216 20146 30049 40161 51002 82030 333 82360;
0159106400999992000081212004+50110+008730FM-12+011299999V0209999C000012200019N0250001N1+02661+01381101541ADDGA1011+012009029GF101991011011012501001001MA1999999100441MD1810051+9999REMSYN076AAXX  12124 10640 42675 10000 10266 20138 30044 40154 58005 81100 333 81840;
0159106400999992000081215004+50110+008730FM-12+011299999V0201801N001012200019N0250001N1+02841+01241101451ADDGA1011+013809029GF103991011011012501081011MA1999999100361MD1710081+9999REMSYN076AAXX  12154 10640 42675 31802 10284 20124 30036 40145 57008 81181 333 81846;
0197106400999992000081218004+50110+008730FM-12+011299999V0203401N001012200019N0300001N1+02781+01191101451ADDGA1011+012009029GF103991011011017501081011KA1120M+02931KA2120N+01581MA1999999100361MD1410001+9999REMSYN088AAXX  12184 10640 42780 33402 10278 20119 30036 40145 54000 81181 333 10293 20158 81840;
0228106400999992000081306004+50110+008730FM-12+011299999V0200601N001012200019N0150001N1+01751+01531101901ADDAA124000091GA1011+030009079GF101991011001999999031011GJ107869KA1120M+02781KA2120N+01581MA1999999100761MD1210111+9999REMSYN100AAXX  13064 10640 42965 10602 10175 20153 30076 40190 52011 81031 333 10278 20158 55131 70000 81360;
0159106400999992000081309004+50110+008730FM-12+011299999V0200101N001012200019N0200001N1+02461+01611101931ADDGA1011+030009079GF101991011001999999031011MA1999999100821MD1210071+9999REMSYN076AAXX  13094 10640 42970 10102 10246 20161 30082 40193 52007 81031 333 81360;
0159106400999992000081312004+50110+008730FM-12+011299999V0201901N001012200019N0250001N1+02831+01381101891ADDGA1011+015009029GF102991011011012501001011MA1999999100801MD1810021+9999REMSYN076AAXX  13124 10640 42675 21902 10283 20138 30080 40189 58002 81101 333 81850;
0159106400999992000081315004+50110+008730FM-12+011299999V0201501N001012200019N0300001N1+02971+01211101851ADDGA1011+030009079GF102991011001999999031011MA1999999100751MD1710061+9999REMSYN076AAXX  13154 10640 42980 21502 10297 20121 30075 40185 57006 81031 333 81360;
0228106400999992000081406004+50110+008730FM-12+011299999V0200401N001012200019N0300001N1+01841+01571102081ADDAA124000091GA1011+030009079GF101991011001999999031001GJ107569KA1120M+02901KA2120N+01761MA1999999100951MD1210071+9999REMSYN100AAXX  14064 10640 42980 10402 10184 20157 30095 40208 52007 81030 333 10290 20176 55126 70000 81360;
0159106400999992000081409004+50110+008730FM-12+011299999V0209999V000512200019N0200001N1+02411+01661102101ADDGA1011+030009079GF101991011001999999031001MA1999999100991MD1210041+9999REMSYN076AAXX  14094 10640 42970 19901 10241 20166 30099 40210 52004 81030 333 81360;
0159106400999992000081412004+50110+008730FM-12+011299999V0201901N001012200019N0200001N1+02961+01451102041ADDGA1011+015009029GF101991011011017501031001MA1999999100951MD1710031+9999REMSYN076AAXX  14124 10640 42770 11902 10296 20145 30095 40204 57003 81130 333 81850;
0165106400999992000081415004+50110+008730FM-12+011299999V0202001N002112200019N0220001N1+03051+01331101931ADDGA1011+018009089GF103991011011017501001011MA1999999100841MD1710111+9999REMSYN082AAXX  14154 10640 42772 32004 10305 20133 30084 40193 57011 81101 333 81856 83078;
0195106400999992000081418004+50110+008730FM-12+011299999V0201901N001512200019N0200001N1+02941+01261101891ADDGA1011+018009089GF104991011011017501031001IA1099IA2999+03109MA1999999100801MD1710041+9999REMSYN094AAXX  14184 10640 42770 41903 10294 20126 30080 40189 57004 81130 333 31031 52018 81856 83076;
0234106400999992000081506004+50110+008730FM-12+011299999V0202301N00101030001CN0110001N1+02111+01921102131ADDAA124000091GA1041+018009069GF107991041051017501031011GJ106789KA1120M+02951KA2120N+02061MA1999999101011MD1210031+9999REMSYN106AAXX  15064 10640 42761 72302 10211 20192 30101 40213 52003 84531 333 10295 20206 55113 70000 84656 86359;
0165106400999992000081509004+50110+008730FM-12+011299999V0201901N00151075001CN0140001N1+02441+01941102151ADDGA1011+010509089GF105991011011012501081011MA1999999101041MD1310031+9999REMSYN082AAXX  15094 10640 42664 51903 10244 20194 30104 40215 53003 81181 333 81835 85361;
0165106400999992000081512004+50110+008730FM-12+011299999V0201801N002610300019N0180001N1+02691+01791101981ADDGA1011+009009099GF105991041091008001031011MA1999999100881MD1710121+9999REMSYN082AAXX  15124 10640 42568 51805 10269 20179 30088 40198 57012 84931 333 81930 84835;
0197106400999992000081518004+50110+008730FM-12+011299999V0202501N001010300019N0250001N1+02541+01731101891ADDGA1031+012009029GF105991041081012501031001KA1120M+02811KA2120N+02081MA1999999100781MD1510041+9999REMSYN088AAXX  15184 10640 42675 52502 10254 20173 30078 40189 55004 84830 333 10281 20208 83840;
0228106400999992000081606004+50110+008730FM-12+011299999V0202201N001510135019N0150001N1+01751+01701102031ADDAA124000091GA1061+013509059GF106991061051012501001011GJ104509KA1120M+02551KA2120N+01711MA1999999100891MD1210011+9999REMSYN100AAXX  16064 10640 42665 62203 10175 20170 30089 40203 52001 86501 333 10255 20171 55075 70000 86645;
0165106400999992000081609004+50110+008730FM-12+011299999V0202001N002110300019N0200001N1+02101+01621102001ADDGA1021+004509089GF105991031081004501031011MA1999999100881MD1110021+9999REMSYN082AAXX  16094 10640 42470 52004 10210 20162 30088 40200 51002 83831 333 82815 84360;
0159106400999992000081612004+50110+008730FM-12+011299999V0202101N002612200019N0200001N1+02531+01571101811ADDGA1041+012009029GF104991041021012501031011MA1999999100711MD1710161+9999REMSYN076AAXX  16124 10640 42670 42105 10253 20157 30071 40181 57016 84231 333 84840;
0159106400999992000081615004+50110+008730FM-12+011299999V0201901N002112200019N0400001N1+02681+01431101631ADDGA1021+012009029GF102991021021012501031011MA1999999100531MD1710181+9999REMSYN076AAXX  16154 10640 42682 21904 10268 20143 30053 40163 57018 82231 333 82840;
0228106400999992000081706004+50110+008730FM-12+011299999V0201801N000510300019N0250001N1+01841+01681101381ADDAA124000091GA1011+006009029GF105991011081004501031001GJ106369KA1120M+02641KA2120N+01771MA1999999100251MD1710031+9999REMSYN100AAXX  17064 10640 42475 51801 10184 20168 30025 40138 57003 81830 333 10264 20177 55106 70000 81820;
0159106400999992000081709004+50110+008730FM-12+011299999V0202301N002112200019N0300001N1+02411+01731101401ADDGA1011+009009029GF101991011081008001041011MA1999999100301MD1210071+9999REMSYN076AAXX  17094 10640 42580 12304 10241 20173 30030 40140 52007 81841 333 81830;
0159106400999992000081712004+50110+008730FM-12+011299999V0202501N002112200019N0400001N1+02721+01511101381ADDGA1041+012609029GF104991041021012501001011MA1999999100291MD1710011+9999REMSYN076AAXX  17124 10640 42682 42504 10272 20151 30029 40138 57001 84201 333 84842;
0159106400999992000081715004+50110+008730FM-12+011299999V0202501N003112200019N0400001N1+02771+01321101351ADDGA1031+012009029GF104991031021012501001011MA1999999100261MD1710011+9999REMSYN076AAXX  17154 10640 42682 42506 10277 20132 30026 40135 57001 83201 333 83840;
0203106400999992000081718004+50110+008730FM-12+011299999V0202801N00311220001CN0400001N1+02651+01391101411ADDGA1031+012009089GF105991031081012501001011KA1120M+02901KA2120N+01821MA1999999100311MD1210051+9999REMSYN094AAXX  17184 10640 42682 52806 10265 20139 30031 40141 52005 83801 333 10290 20182 83840 83075;
0234106400999992000081806004+50110+008730FM-12+011299999V0200201N001019999999N0200001N1+01841+01531101651ADDAA124000091GA1031+030009039GF106991031001999999031011GJ106429KA1120M+02671KA2120N+01731MA1999999100521MD1710031+9999REMSYN106AAXX  18064 10640 42970 60202 10184 20153 30052 40165 57003 83031 333 10267 20173 55107 70000 83360 86070;
0165106400999992000081809004+50110+008730FM-12+011299999V0200501N002119999999N0150001N1+02231+01631101681ADDGA1021+030009039GF106991021001999999031011MA1999999100571MD1210051+9999REMSYN082AAXX  18094 10640 42965 60504 10223 20163 30057 40168 52005 82031 333 82360 86070;
0206106400999992000081812004+50110+008730FM-12+011299999V0200901N000510750019N0060001N1+02521+01371101611ADDGA1011+009909089GA2031+030009039GF106991011011012501999031MA1999999100511MD1710061+9999REMSYN088AAXX  18124 10640 42656 60901 10252 20137 30051 40161 57006 81103 333 81833 83360 85075;EQDQ01+000002SCOMCG
0187106400999992000081815004+50110+008730FM-12+011299999V0201801N001010300019N0300001N1+02561+01631101491ADDGA1031+009909089GA2041+030009039GF106991031021012501071011MA1999999100391MD1710111+9999REMSYN088AAXX  18154 10640 42680 61802 10256 20163 30039 40149 57011 83271 333 83833 84360 85075;
0225106400999992000081818004+50110+008730FM-12+011299999V0201801N001510300019N0250001N1+02501+01841101421ADDGA1021+009909089GA2031+030009039GF106991021021012501081081KA1120M+02641KA2120N+01781MA1999999100321MD1710071+9999REMSYN100AAXX  18184 10640 42675 61803 10250 20184 30032 40142 57007 82288 333 10264 20178 82833 83360 85275;
0262106400999992000081906004+50110+008730FM-12+011299999V0202201N001010120019N0120001N1+01941+01911101461ADDAA124001091AY191061AY261061GA1011+007809069GF107991061081008001031999GJ103849KA1120M+02501KA2120N+01941MA1999999100341MD1210091+9999MW1601REMSYN112AAXX  19064 10640 41562 72202 10194 20191 30034 40146 52009 76096 8683/ 333 10250 20194 55064 70010 81626 85640;
0215106400999992000081909004+50110+008730FM-12+011299999V0202101N00211030001CN0180001N1+02011+01981101561ADDAY191031AY281031GA1011+007809089GA2031+027009039GF107991011011008001071999MA1999999100441MD1110131+9999MW1251REMSYN094AAXX  19094 10640 41568 72104 10201 20198 30044 40156 51013 72598 8117/ 333 81826 83359 87461;
0193106400999992000081912004+50110+008730FM-12+011299999V0202001N00311030001CN0180001N1+02291+02031101581ADDAY191061AY261061GA1011+007809089GF107991011011008001071999MA1999999100471MD1210031+9999MW1251REMSYN088AAXX  19124 10640 41568 72006 10229 20203 30047 40158 52003 72596 8117/ 333 81826 87359;
0187106400999992000081915004+50110+008730FM-12+011299999V0202101N00261030001CN0250001N1+02561+01801101521ADDGA1011+010509089GA2031+030009039GF106991011021012501031011MA1999999100421MD1710051+9999REMSYN088AAXX  19154 10640 42675 62105 10256 20180 30042 40152 57005 81231 333 81835 83360 85075;
0203106400999992000081918004+50110+008730FM-12+011299999V0201701N00311030001CN0150001N1+02511+01881101431ADDGA1041+015009069GF106991041051017501031011KA1120M+02611KA2120N+01941MA1999999100331MD1710041+9999REMSYN094AAXX  19184 10640 42765 61706 10251 20188 30033 40143 57004 84531 333 10261 20194 84650 84362;
0262106400999992000082006004+50110+008730FM-12+011299999V0201301N001012200019N0180001N1+01901+01871101451ADDAA124008491AY191061AY281061GA1021+033009039GF104991021001999999031021GJ101989KA1120M+02511KA2120N+01861MA1999999100331MD1610011+9999MW1011REMSYN112AAXX  20064 10640 41968 41302 10190 20187 30033 40145 56001 70198 82032 333 10251 20186 55033 70084 82361 84075;
0165106400999992000082009004+50110+008730FM-12+011299999V0203301N00051075001CN0180001N1+02251+01911101511ADDGA1011+003609089GF105991011021004501031021MA1999999100401MD1210051+9999REMSYN082AAXX  20094 10640 42468 53301 10225 20191 30040 40151 52005 81232 333 81812 84361;
0187106400999992000082012004+50110+008730FM-12+011299999V0202001N00051030001CN0200001N1+02601+01871101401ADDGA1011+008409089GA2031+027009039GF106991011021008001071011MA1999999100301MD1810081+9999REMSYN088AAXX  20124 10640 42570 62001 10260 20187 30030 40140 58008 81271 333 81828 83359 85361;
0187106400999992000082015004+50110+008730FM-12+011299999V0200101N003110300019N0200001N1+02461+01931101321ADDGA1011+008709089GA2031+024009039GF107991011021008001071011MA1999999100221MD1710031+9999REMSYN088AAXX  20154 10640 42570 70106 10246 20193 30022 40132 57003 81271 333 81829 83358 85360;
0253106400999992000082018004+50110+008730FM-12+011299999V0203201N001010300019N0200001N1+02361+01791101301ADDAY191061AY281061GA1011+003909089GA2011+007809099GF107991011091004501071999KA1120M+02671KA2120N+01891MA1999999100191MD1710191+9999MW1951REMSYN106AAXX  20184 10640 41470 73202 10236 20179 30019 40130 57019 79598 8197/ 333 10267 20189 81813 81926 86360;
0262106400999992000082106004+50110+008730FM-12+011299999V0202001N001510060019N0120001N1+01801+01771101471ADDAA124006891AY181061AY221061GA1051+006009069GF107991071051008001999999GJ104029KA1120M+02361KA2120N+01721MA1999999100341MD1210171+9999MW1021REMSYN112AAXX  21064 10640 41562 72003 10180 20177 30034 40147 52017 70282 875// 333 10236 20172 55067 70068 85620 87630;
0165106400999992000082109004+50110+008730FM-12+011299999V0202601N001512200019N0300001N1+02021+01471101641ADDGA1021+009009089GF104991021021008001031011MA1999999100181MD1210181+9999REMSYN082AAXX  21094 10640 42580 42603 10202 20147 30018 40164 52018 82231 333 82830 84359;
0165106400999992000082112004+50110+008730FM-12+011299999V0202501N001010300019N0200001N1+02141+01321101611ADDGA1031+012009089GF106991031021012501031011MA1999999100491MD1710031+9999REMSYN082AAXX  21124 10640 42670 62502 10214 20132 30049 40161 57003 83231 333 83840 85360;
0159106400999992000082115004+50110+008730FM-12+011299999V0201601N00101030001CN0250001N1+02091+01361999999ADDGA1041+021009069GF107991041051022501071999MA1999999100401MD1710091+9999REMSYN076AAXX  21154 10640 42875 71602 10209 20136 30040 57009 8457/ 333 84657 87361;
0203106400999992000082118004+50110+008730FM-12+011299999V0201601N001010108019N0200001N1+02031+01461101471ADDGA1051+010809069GF107991051051017501071999KA1120M+02191KA2120N+01801MA1999999100351MD1710111+9999REMSYN094AAXX  21184 10640 42770 71602 10203 20146 30035 40147 57011 8557/ 333 10219 20180 85636 87360;
0256106400999992000082206004+50110+008730FM-12+011299999V0201901N000510018019N0022001N1+01481+01451102071ADDAA124012991AY141061AY221061GA1061+001809069GF106991061061001501031011GJ102709KA1120M+02361KA2120N+01481MA1999999100921MD1310151+9999MW1281REMSYN106AAXX  22064 10640 41222 61901 10148 20145 30092 40207 53015 72842 86631 333 10236 20148 55045 70129 86706;
0159106400999992000082209004+50110+008730FM-12+011299999V0200101N001010045019N0120001N1+01901+01461102171ADDGA1051+004509029GF105991051021004501001011MA1999999101041MD1210121+9999REMSYN076AAXX  22094 10640 42462 50102 10190 20146 30104 40217 52012 85201 333 85815;
0165106400999992000082212004+50110+008730FM-12+011299999V0203301N00211220001CN0150001N1+02131+01441102231ADDGA1031+007509089GF106991031021008001001011MA1999999101101MD1210051+9999REMSYN082AAXX  22124 10640 42565 63304 10213 20144 30110 40223 52005 83201 333 83825 85075;
0165106400999992000082215004+50110+008730FM-12+011299999V0200301N001010150019N0200001N1+02171+01191102141ADDGA1031+012009089GF106991051081012501001011MA1999999101021MD1710071+9999REMSYN082AAXX  22154 10640 42670 60302 10217 20119 30102 40214 57007 85801 333 83840 83650;
0203106400999992000082218004+50110+008730FM-12+011299999V0200601N001010120019N0250001N1+02091+01171102151ADDGA1031+009009089GF106991051081008001001011KA1120M+02281KA2120N+01471MA1999999101021MD1210011+9999REMSYN094AAXX  22184 10640 42575 60602 10209 20117 30102 40215 52001 85801 333 10228 20147 83830 83640;
0228106400999992000082306004+50110+008730FM-12+011299999V0200301N001012200019N0080001N1+01411+01271102371ADDAA124000091GA1011+030009079GF101991011001999999031011GJ105229KA1120M+02091KA2120N+01391MA1999999101211MD1210041+9999REMSYN100AAXX  23064 10640 42958 10302 10141 20127 30121 40237 52004 81031 333 10209 20139 55087 70000 81360;
0165106400999992000082309004+50110+008730FM-12+011299999V0200401N001512200019N0100001N1+02001+01341102381ADDGA1011+008409089GF104991011021999999001011MA1999999101251MD1210061+9999REMSYN082AAXX  23094 10640 42960 40403 10200 20134 30125 40238 52006 81201 333 81828 83075;
0159106400999992000082312004+50110+008730FM-12+011299999V0200501N002112200019N0250001N1+02411+01291102341ADDGA1011+012009029GF101991011021012501001011MA1999999101231MD1710031+9999REMSYN076AAXX  23124 10640 42675 10504 10241 20129 30123 40234 57003 81201 333 81840;
0165106400999992000082315004+50110+008730FM-12+011299999V0200501N00101030001CN0250001N1+02491+01001102311ADDGA1031+012009089GF105991031011012501031011MA1999999101201MD1610031+9999REMSYN082AAXX  23154 10640 42675 50502 10249 20100 30120 40231 56003 83131 333 83840 85076;
0203106400999992000082318004+50110+008730FM-12+011299999V0200201N002112200019N0280001N1+02321+01051102311ADDGA1021+036009039GF104991021001999999031011KA1120M+02531KA2120N+01411MA1999999101191MD1510011+9999REMSYN094AAXX  23184 10640 42978 40204 10232 20105 30119 40231 55001 82031 333 10253 20141 82362 84078;
0228106400999992000082406004+50110+008730FM-12+011299999V0200101N001512200019N0230001N1+01441+01161102481ADDAA124000091GA1011+078009019GF101991001001999999001011GJ107089KA1120M+02331KA2120N+01431MA1999999101321MD1310031+9999REMSYN100AAXX  24064 10640 42973 10103 10144 20116 30132 40248 53003 80001 333 10233 20143 55118 70000 81076;
0143106400999992000082409004+50110+008730FM-12+011299999V0200201N001012200019N0250001N1+02111+01311102461ADDGA1001+999999999GF100991001001999999001001MA1999999101331MD1410001+9999REMSYN060AAXX  24094 10640 42975 00202 10211 20131 30133 40246 54000;
0159106400999992000082412004+50110+008730FM-12+011299999V0200301N001012200019N0250001N1+02481+01191102351ADDGA1011+012009029GF101991011011012501001011MA1999999101241MD1710091+9999REMSYN076AAXX  24124 10640 42675 10302 10248 20119 30124 40235 57009 81101 333 81840;
0159106400999992000082415004+50110+008730FM-12+011299999V0202801N002612200019N0300001N1+02591+00921102251ADDGA1011+018009029GF101991011011022501001001MA1999999101141MD1710111+9999REMSYN076AAXX  24154 10640 42880 12805 10259 20092 30114 40225 57011 81100 333 81856;
0197106400999992000082418004+50110+008730FM-12+011299999V0203001N001512200019N0300001N1+02501+00951102251ADDGA1011+075009019GF101991001001999999001011KA1120M+02621KA2120N+01431MA1999999101141MD1410001+9999REMSYN088AAXX  24184 10640 42980 13003 10250 20095 30114 40225 54000 80001 333 10262 20143 81075;
0228106400999992000082506004+50110+008730FM-12+011299999V0200501N000512200019N0180001N1+01421+01311102421ADDAA124000091GA1011+033009079GF101991011001999999031011GJ107329KA1120M+02501KA2120N+01361MA1999999101261MD1610011+9999REMSYN100AAXX  25064 10640 42968 10501 10142 20131 30126 40242 56001 81031 333 10250 20136 55122 70000 81361;
0159106400999992000082509004+50110+008730FM-12+011299999V0200201N001512200019N0230001N1+02071+01081102441ADDGA1011+033009079GF102991011001999999031011MA1999999101311MD1210051+9999REMSYN076AAXX  25094 10640 42973 20203 10207 20108 30131 40244 52005 81031 333 81361;
0165106400999992000082512004+50110+008730FM-12+011299999V0200401N00211220001CN0250001N1+02341+00931102361ADDGA1011+013809069GF105991011051017501001011MA1999999101241MD1710071+9999REMSYN082AAXX  25124 10640 42775 50404 10234 20093 30124 40236 57007 81501 333 81646 85076;
0197106400999992000082518004+50110+008730FM-12+011299999V0200101N002612200019N0400001N1+02241+01361102131ADDGA1041+075009019GF104991001001999999001011KA1120M+02491KA2120N+01421MA1999999101011MD1710101+9999REMSYN088AAXX  25184 10640 42982 40105 10224 20136 30101 40213 57010 80001 333 10249 20142 84075;
0228106400999992000082606004+50110+008730FM-12+011299999V0200501N002612200019N0300001N1+01531+01151101781ADDAA124000091GA1021+084009019GF102991001001999999001011GJ107749KA1120M+02241KA2120N+01481MA1999999100731MD1810101+9999REMSYN100AAXX  26064 10640 42980 20505 10153 20115 30073 40178 58010 80001 333 10224 20148 55129 70000 82078;
0133106400999992000082609004+50110+008730FM-12+011299999V0201101N002112200019N0400001N1+02051+01091101711ADDGF102991001001999999001011MA1999999100591MD1710141+9999REMSYN066AAXX  26094 10640 42982 21104 10205 20109 30059 40171 57014 80001;
0159106400999992000082612004+50110+008730FM-12+011299999V0200901N004110840019N0400001N1+02441+01021101521ADDGA1061+084009019GF106991001001999999001011MA1999999100411MD1710181+9999REMSYN076AAXX  26124 10640 42982 60908 10244 20102 30041 40152 57018 80001 333 86078;
0159106400999992000082615004+50110+008730FM-12+011299999V0200801N002612200019N0400001N1+02721+01001101331ADDGA1021+075009019GF102991001001999999001011MA1999999100241MD1710221+9999REMSYN076AAXX  26154 10640 42982 20805 10272 20100 30024 40133 57022 80001 333 82075;
0197106400999992000082618004+50110+008730FM-12+011299999V0200801N002112200019N0400001N1+02531+00921101251ADDGA1041+084009019GF104991001001999999001011KA1120M+02721KA2120N+01531MA1999999100151MD1710091+9999REMSYN088AAXX  26184 10640 42982 40804 10253 20092 30015 40125 57009 80001 333 10272 20153 84078;
0234106400999992000082706004+50110+008730FM-12+011299999V0200601N003110300019N0200001N1+01731+01051101341ADDAA124000091GA1031+012009069GF107991031051012501071999GJ107149KA1120M+02551KA2120N+01691MA1999999100211MD1710061+9999REMSYN106AAXX  27064 10640 42670 70606 10173 20105 30021 40134 57006 8357/ 333 10255 20169 55119 70000 83640 86360;
0165106400999992000082709004+50110+008730FM-12+011299999V0201501N001510300019N0350001N1+01861+01441101671ADDGA1031+012009069GF107991031051012501071999MA1999999100541MD1210321+9999REMSYN082AAXX  27094 10640 41681 71503 10186 20144 30054 40167 52032 8357/ 333 83640 86360;
0193106400999992000082712004+50110+008730FM-12+011299999V0202001N00261009001CN0300001N1+01831+01701101711ADDAY161061AY221061GA1031+004509089GF107991071081004501999999MA1999999100581MD1210041+9999MW1601REMSYN088AAXX  27124 10640 41480 72005 10183 20170 30058 40171 52004 76062 878// 333 83815 86620;
0215106400999992000082715004+50110+008730FM-12+011299999V0202001N00261012001CN0300001N1+02131+01671101691ADDAY161031AY221031GA1021+007509089GA2031+012009069GF106991041081008001031011MA1999999100571MD1710011+9999MW1021REMSYN094AAXX  27154 10640 42580 62005 10213 20167 30057 40169 57001 70262 84831 333 82825 83640 86075;
0253106400999992000082718004+50110+008730FM-12+011299999V0202801N001510300019N0250001N1+01891+01711101791ADDAY181061AY261061GA1011+003309089GA2031+018009069GF107991041081004501031999KA1120M+02111KA2120N+01721MA1999999100661MD1210091+9999MW1251REMSYN106AAXX  27184 10640 41475 72803 10189 20171 30066 40179 52009 72586 8483/ 333 10211 20172 81811 83656 86360;
0206106400999992000082723004+50110+008730FM-12+011299999V0202901N001510300019N0150001N1+01201+01111101991ADDGA1031+004509069GF105991031051004501031011MA1999999999999MD1210071+9999REMSYN088AAXX  27234 10640 42465 52903 10120 20111 39609 40199 52007 83531 333 553// 83615 83360;EQDQ01+096093APOSP Q02 096093APOSP 
0262106400999992000082806004+50110+008730FM-12+011299999V0202101N00151030001CN0050001N1+01451+01421102141ADDAA124002591AY121061AY221061GA1011+002109079GF105991011061002501031001GJ100969KA1120M+01901KA2120N+01421MA1999999100991MD1210131+9999MW1101REMSYN112AAXX  28064 10640 41350 52103 10145 20142 30099 40214 52013 71022 81630 333 10190 20142 55016 70025 81707 85359;
0165106400999992000082809004+50110+008730FM-12+011299999V0202501N00101030001CN0120001N1+01841+01461102241ADDGA1021+004209089GF105991021021004501031001MA1999999101101MD1210101+9999REMSYN082AAXX  28094 10640 42462 52502 10184 20146 30110 40224 52010 82230 333 82814 84359;
0159106400999992000082815004+50110+008730FM-12+011299999V0202301N001512200019N0200001N1+02191+00991102191ADDGA1031+015009029GF103991031021017501001001MA1999999102191MD1710031+9999REMSYN076AAXX  28154 10640 42770 32303 10219 20099 30219 40219 57003 83200 333 83850;
0222106400999992000082818004+50110+008730FM-12+011299999V0201901N001512200019N0300001N1+02061+01081102111ADDGA1011+009909089GF104991041081012501031001KA1120M+02311KA2120N+01421MA1999999100982MD1610031+9999REMSYN094AAXX  28184 10640 42680 41903 10206 20108 30098 40211 56003 84830 333 10231 20142 81833 83650;EQDQ01+100983APOSP 
0234106400999992000082906004+50110+008730FM-12+011299999V0203101N000510300019N0200001N1+01321+01281102251ADDAA124000091GA1011+006009069GF106991011051008001031011GJ104929KA1120M+02081KA2120N+01251MA1999999101101MD1210061+9999REMSYN106AAXX  29064 10640 42570 63101 10132 20128 30110 40225 52006 81531 333 10208 20125 55082 70000 81620 85360;
0159106400999992000082909004+50110+008730FM-12+011299999V0202201N000510300019N0200001N1+01781+01331102311ADDGA1061+030009079GF106991061001999999031999MA1999999101171MD1210071+9999REMSYN076AAXX  29094 10640 42970 62201 10178 20133 30117 40231 52007 8603/ 333 86360;
0165106400999992000082915004+50110+008730FM-12+011299999V0202301N001512200019N0200001N1+02271+00791102091ADDGA1021+009009089GF104991021021012501001011MA1999999100971MD1710111+9999REMSYN082AAXX  29154 10640 42670 42303 10227 20079 30097 40209 57011 82201 333 82830 83075;
0203106400999992000082918004+50110+008730FM-12+011299999V0201801N001019999999N0300001N1+02171+00971102011ADDGA1021+012009069GF105991021051999999031011KA1120M+02341KA2120N+01291MA1999999100891MD1710101+9999REMSYN094AAXX  29184 10640 42980 51802 10217 20097 30089 40201 57010 82531 333 10234 20129 82640 83360;
0234106400999992000083006004+50110+008730FM-12+011299999V0200101N001512200019N0200001N1+01561+01321101891ADDAA124000091GA1021+030009039GF104991021001999999031011GJ105349KA1120M+02181KA2120N+01541MA1999999100751MD1710111+9999REMSYN106AAXX  30064 10640 42970 40103 10156 20132 30075 40189 57011 82031 333 10218 20154 55089 70000 82360 83075;
0159106400999992000083009004+50110+008730FM-12+011299999V0203601N002112200019N0300001N1+01961+01281101871ADDGA1011+012009029GF102991011021012501001011MA1999999100711MD1710011+9999REMSYN076AAXX  30094 10640 42680 23604 10196 20128 30071 40187 57001 81201 333 81840;
0187106400999992000083012004+50110+008730FM-12+011299999V0203401N002110300019N0300001N1+02291+01181101721ADDGA1021+012009089GA2041+030009039GF106991021021012501031011MA1999999100611MD1710101+9999REMSYN088AAXX  30124 10640 42680 63404 10229 20118 30061 40172 57010 82231 333 82840 84360 86080;
0165106400999992000083015004+50110+008730FM-12+011299999V0203301N00211030001CN0300001N1+02351+00941101561ADDGA1031+012009089GF106991031011012501031011MA1999999100451MD1710161+9999REMSYN082AAXX  30154 10640 42680 63304 10235 20094 30045 40156 57016 83131 333 83840 86076;
0203106400999992000083018004+50110+008730FM-12+011299999V0203301N002119999999N0250001N1+02171+01191101481ADDGA1041+033009039GF107991041001999999031061KA1120M+02461KA2120N+01561MA1999999100371MD1810081+9999REMSYN094AAXX  30184 10640 42975 73304 10217 20119 30037 40148 58008 84036 333 10246 20156 84361 87278;
0234106400999992000083106004+50110+008730FM-12+011299999V0200101N002119999999N0230001N1+01481+01091101271ADDAA124000091GA1021+030009039GF107991021001999999031021GJ104929KA1120M+02181KA2120N+01461MA1999999100131MD1710101+9999REMSYN106AAXX  31064 10640 42973 70104 10148 20109 30013 40127 57010 82032 333 10218 20146 55082 70000 82360 87076;
0165106400999992000083109004+50110+008730FM-12+011299999V0203601N001519999999N0250001N1+01801+01211101281ADDGA1031+033009039GF107991031001999999031021MA1999999100151MD1210021+9999REMSYN082AAXX  31094 10640 42975 73603 10180 20121 30015 40128 52002 83032 333 83361 86076;
0165106400999992000083112004+50110+008730FM-12+011299999V0203601N00051075001CN0250001N1+02251+01321101161ADDGA1011+009009089GF105991011021008001031021MA1999999100051MD1710101+9999REMSYN082AAXX  31124 10640 42575 53601 10225 20132 30005 40116 57010 81232 333 81830 85076;
0165106400999992000083115004+50110+008730FM-12+011299999V0203301N000512200019N0300001N1+02291+01201100991ADDGA1011+000309029GF103991011021008001001011MA1999999099861MD1710171+9999REMSYN082AAXX  31154 10640 42580 33301 10229 20120 39986 40099 57017 81201 333 81830 85075;
0203106400999992000083118004+50110+008730FM-12+011299999V0203401N001012200019N0300001N1+02231+01291100941ADDGA1011+009009089GF105991041081008001001011KA1120M+02441KA2120N+01471MA1999999099831MD1710111+9999REMSYN094AAXX  31184 10640 42580 53402 10223 20129 39983 40094 57011 84801 333 10244 20147 81830 84640;
0263106400999992000090106004+50110+008730FM-12+011299999V0202001N001510003019N0005001N1+01441+01421101021ADDAA124000091AY141061AY211061GA1091+999999999GF109991091999999999999999GJ104869KA1120M+02261KA2120N+01401MA1999999099931MD1310051+9999MW1451REMSYN094AAXX  01064 10640 41/05 92003 10144 20142 39993 40102 53005 74541 333 10226 20140 55081 70000;EQDQ01  00002PRCP24
0253106400999992000090118004+50110+008730FM-12+011299999V0201901N001510090019N0150001N1+01571+01541100671ADDAY181061AY261061GA1031+005409089GA2031+009009069GF107991051081008001031999KA1120M+02261KA2120N+01431MA1999999099541MD1110011+9999MW1291REMSYN106AAXX  01184 10640 41565 71903 10157 20154 39954 40067 51001 72986 8583/ 333 10226 20143 83818 83630 86360;
0256106400999992000090206004+50110+008730FM-12+011299999V0201901N002610300019N0200001N1+01351+01321100071ADDAA124008291GA1011+008109089GA2031+012009069GF106991031081008001031001GJ101029KA1120M+02261KA2120N+01401MA1999999099581MD1710051+9999REMSYN112AAXX  02064 10640 42570 61905 10135 20132 39958 40007 57005 83830 333 10226 20140 55017 70082 81827 83640 85360;
0238106400999992000090209004+50110+008730FM-12+011299999V0202001N002610120019N0300001N1+01521+01411100692ADDGA1021+008109089GA2041+012009069GF107991051081008001071999MA1999999099561MD1710021+9999REMSYN088AAXX  02094 10640 42580 72005 10152 20141 39956 40069 56000 8587/ 333 82827 84640 87360;EQDQ01+100693APOSLPQ02+000062APCTENQ03+000002APC3  
0193106400999992000090212004+50110+008730FM-12+011299999V0201801N00461012001CN0250001N1+01411+01381100591ADDAY181061AY261061GA1021+007809089GF108991071081008001999999MA1999999099461MD1710111+9999MW1251REMSYN088AAXX  02124 10640 41575 81809 10141 20138 39946 40059 57011 72586 878// 333 82826 87633;
0237106400999992000090215004+50110+008730FM-12+011299999V0202101N003110075019N0200001N1+01631+01531100591ADDAY181031AY221031GA1011+003009089GA2011+004509099GA3051+007509089GF106991051091004501031001MA1999999099461MD1310011+9999MW1021REMSYN100AAXX  02154 10640 41470 62106 10163 20153 39946 40059 53001 70282 85930 333 81810 81915 85825 91115;
0275106400999992000090218004+50110+008730FM-12+011299999V0202301N002610300019N0400001N1+01461+01271100741ADDAY181061AY221061GA1011+004809089GA2011+007509099GA3061+030009039GF107991021091004501071999KA1120M+01681KA2120N+01351MA1999999099611MD1210151+9999MW1021REMSYN112AAXX  02184 10640 41482 72305 10146 20127 39961 40074 52015 70282 8297/ 333 10168 20135 81816 81925 86360 91115;
0284106400999992000090306004+50110+008730FM-12+011299999V0202301N003610090019N0150001N1+01321+01281101001ADDAA124003091AY181061AY221061GA1011+006009089GA2061+009009069GF108991061081008001031999GJ100849KA1120M+01501KA2120N+01291MA1999999099861MD1710071+9999MW1601REMSYN118AAXX  03064 10640 41565 82307 10132 20128 39986 40100 57007 76082 8683/ 333 10150 20129 55014 70030 81820 86630 88360;
0206106400999992000090309004+50110+008730FM-12+011299999V0202801N003110090019N0200001N1+01511+01191999999ADDGA1031+006009089GA2051+009009069GF106991051081008001031001MA1999999100131MD1210271+9999REMSYN088AAXX  03094 10640 42570 62806 10151 20119 30013 40217 52027 85830 333 83820 85630 86360;EQDQ01+102173APOSLP
0187106400999992000090312004+50110+008730FM-12+011299999V0202801N001510090019N0200001N1+01601+00971101431ADDGA1021+006009089GA2061+009009069GF107991071081008001071999MA1999999100291MD1210181+9999REMSYN088AAXX  03124 10640 42570 72803 10160 20097 30029 40143 52018 8787/ 333 82820 86630 91115;
0165106400999992000090315004+50110+008730FM-12+011299999V0202701N003110300019N0300001N1+01721+00891101421ADDGA1011+007509089GF105991041081008001031001MA1999999100291MD1210011+9999REMSYN082AAXX  03154 10640 42580 52706 10172 20089 30029 40142 52001 84830 333 81825 84635;
0203106400999992000090318004+50110+008730FM-12+011299999V0202801N002112200019N0300001N1+01611+00811101521ADDGA1011+007509089GF104991031081008001031001KA1120M+01781KA2120N+01341MA1999999100381MD1210061+9999REMSYN094AAXX  03184 10640 42580 42804 10161 20081 30038 40152 52006 83830 333 10178 20134 81825 83535;
0234106400999992000090406004+50110+008730FM-12+011299999V0202301N00101007501CN0015001N1+01231+01201101931ADDAA124001591GA1021+006009069GF107991071051008001999999GJ102769KA1120M+01631KA2120N+01181MA1999999100771MD1710101+9999REMSYN106AAXX  04064 10640 42515 72302 10123 20120 30077 40193 57010 875// 333 10163 20118 55046 70015 82620 86640;
0165106400999992000090409004+50110+008730FM-12+011299999V0203301N002110300019N0300001N1+01491+00921102061ADDGA1041+006009089GF106991041081008001031001MA1999999100911MD1210181+9999REMSYN082AAXX  04094 10640 42580 63304 10149 20092 30091 40206 52018 84830 333 84820 83360;
0215106400999992000090412004+50110+008730FM-12+011299999V0203301N001510120019N0200001N1+01531+00921102141ADDAY121061AY221061GA1011+006009089GA2061+012009069GF108991061081008001071999MA1999999100991MD1210091+9999MW1211REMSYN094AAXX  04124 10640 41570 83303 10153 20092 30099 40214 52009 72122 8687/ 333 81820 86640 87360;
0187106400999992000090415004+50110+008730FM-12+011299999V0202501N00211015001CN0250001N1+01541+00921102131ADDGA1021+009009089GA2041+015009069GF106991041081008001031999MA1999999100991MD1710011+9999REMSYN088AAXX  04154 10640 42575 62504 10154 20092 30099 40213 57001 8483/ 333 82830 84650 86360;
0253106400999992000090418004+50110+008730FM-12+011299999V0202501N001010150019N0200001N1+01471+01101102231ADDAY121061AY221061GA1011+006009089GA2061+015009069GF108991061081008001031999KA1120M+01631KA2120N+01231MA1999999101081MD1310071+9999MW1251REMSYN106AAXX  04184 10640 41570 82502 10147 20110 30108 40223 53007 72522 8683/ 333 10163 20123 81820 86650 86359;
0234106400999992000090506004+50110+008730FM-12+011299999V0202801N00151012001CN0150001N1+01331+01031102501ADDAA124000091GA1041+003609069GF106991061051012501001001GJ101449KA1120M+01481KA2120N+01231MA1999999101341MD1210061+9999REMSYN106AAXX  05064 10640 42665 62803 10133 20103 30134 40250 52006 86500 333 10148 20123 55024 70000 84612 84657;
0165106400999992000090509004+50110+008730FM-12+011299999V0202201N00151012001CN0150001N1+01371+01031102561ADDGA1011+007509089GF107991071081008001999999MA1999999101401MD1210081+9999REMSYN082AAXX  05094 10640 42565 72203 10137 20103 30140 40256 52008 878// 333 81825 87656;
0165106400999992000090512004+50110+008730FM-12+011299999V0202201N002110120019N0200001N1+01431+01181102531ADDGA1031+009009089GF107991071081008001999999MA1999999101381MD1710041+9999REMSYN082AAXX  05124 10640 42570 72204 10143 20118 30138 40253 57004 878// 333 83830 87640;
0165106400999992000090515004+50110+008730FM-12+011299999V0201901N00151012001CN0300001N1+01571+01111102451ADDGA1021+009009089GF106991061081008001999999MA1999999101301MD1710051+9999REMSYN082AAXX  05154 10640 42580 61903 10157 20111 30130 40245 57005 868// 333 82830 86650;
0203106400999992000090518004+50110+008730FM-12+011299999V0201701N001010180019N0400001N1+01521+01181102391ADDGA1061+018009059GF106991061051017501031011KA1120M+01601KA2120N+01321MA1999999101241MD1710061+9999REMSYN094AAXX  05184 10640 42782 61702 10152 20118 30124 40239 57006 86531 333 10160 20132 86556 86075;
0275106400999992000090606004+50110+008730FM-12+011299999V0201401N00101075001CN0150001N1+00951+00921102051ADDAA124999999GA1021+015009069GA2031+033009039GF105991021051017501031011GJ100369KA1120M+01521KA2120N+00921MA1999999100881MD1610151+9999REMSYN112AAXX  06064 10640 42765 51402 10095 20092 30088 40205 56015 82531 333 10152 20092 55006 79999 82650 83361 85075;EQDQ01  99992PRCP24
0187106400999992000090609004+50110+008730FM-12+011299999V0201801N001510300019N0180001N1+01441+01101101891ADDGA1031+012009069GA2051+030009039GF106991031051012501031021MA1999999100741MD1710141+9999REMSYN088AAXX  06094 10640 42668 61803 10144 20110 30074 40189 57014 83532 333 83640 85360 86275;
0187106400999992000090612004+50110+008730FM-12+011299999V0202001N002110051019N0150001N1+01521+01281101741ADDGA1031+002409089GA2031+005109069GF107991051081002501031999MA1999999100601MD1710151+9999REMSYN088AAXX  06124 10640 42365 72004 10152 20128 30060 40174 57015 8583/ 333 83808 83617 87360;
0215106400999992000090615004+50110+008730FM-12+011299999V0201701N003110051019N0100001N1+01451+01391101481ADDAY161031AY221031GA1021+002409089GA2041+005109069GF107991051081002501071999MA1999999100341MD1710241+9999MW1601REMSYN094AAXX  06154 10640 41360 71706 10145 20139 30034 40148 57024 76062 8587/ 333 82808 84617 87360;
0231106400999992000090618004+50110+008730FM-12+011299999V0201901N00361001201CN0060001N1+01381+01351101161ADDAY161061AY221061GA1021+001509079GF108991081051001501999999KA1120M+01561KA2120N+00951MA1999999100021MD1710291+9999MW1631REMSYN100AAXX  06184 10640 41256 81907 10138 20135 30002 40116 57029 76362 885// 333 10156 20095 82705 88612;
0234106400999992000090706004+50110+008730FM-12+011299999V0202201N00411004201CN0200001N1+01331+01161101141ADDAA124006391GA1011+004809069GF107991061051004501041999GJ100489KA1120M+01441KA2120N+01241MA1999999099991MD1010071+9999REMSYN106AAXX  07064 10640 42470 72208 10133 20116 39999 40114 50007 8654/ 333 10144 20124 55008 70063 81616 86640;
0187106400999992000090709004+50110+008730FM-12+011299999V0202701N003110069019N0200001N1+01421+01181101381ADDAY121031AY221031GA1071+006909059GF107991071051008001999999MA1999999100241MD1210251+9999MW1251REMSYN082AAXX  07094 10640 41570 72706 10142 20118 30024 40138 52025 72522 875// 333 87623;
0187106400999992000090712004+50110+008730FM-12+011299999V0202701N002610069019N0150001N1+01501+01211101611ADDAY181061AY261061GA1071+006909059GF107991071051008001999999MA1999999100471MD1210231+9999MW1211REMSYN082AAXX  07124 10640 41565 72705 10150 20121 30047 40161 52023 72186 875// 333 87623;
0203106400999992000090718004+50110+008730FM-12+011299999V0202501N001510150019N0300001N1+01671+01201101921ADDGA1051+015009069GF107991051051017501031011KA1120M+01701KA2120N+01271MA1999999100781MD1210151+9999REMSYN094AAXX  07184 10640 42780 72503 10167 20120 30078 40192 52015 85531 333 10170 20127 85650 85360;
0234106400999992000090806004+50110+008730FM-12+011299999V0202001N006219999999N0120001N1+01241+01211102341ADDAA124000091GA1031+027009039GF106991061001999999031001GJ100249KA1120M+01671KA2120N+01141MA1999999101181MD1210071+9999REMSYN106AAXX  08064 10640 42962 62012 10124 20121 30118 40234 52007 86030 333 10167 20114 55004 70000 83359 84361;
0165106400999992000090809004+50110+008730FM-12+011299999V0202001N002119999999N0200001N1+01601+01231102441ADDGA1021+030009039GF105991051001999999031001MA1999999101291MD1210121+9999REMSYN082AAXX  08094 10640 42970 52004 10160 20123 30129 40244 52012 85030 333 82360 84362;
0187106400999992000090812004+50110+008730FM-12+011299999V0202201N002110300019N0200001N1+01931+01171102391ADDGA1011+008109089GA2031+015009069GF106991041081008001031001MA1999999101261MD1710031+9999REMSYN088AAXX  08124 10640 42570 62204 10193 20117 30126 40239 57003 84830 333 81827 83650 85360;
0159106400999992000090815004+50110+008730FM-12+011299999V0201601N002619999999N0300001N1+02081+99999102231ADDGA1021+027009039GF105991051001999999071001MA1999999101201MD1310061+9999REMSYN076AAXX  08154 10640 42980 51605 10208 30120 40223 53006 85070 333 82359 84460;
0203106400999992000090818004+50110+008730FM-12+011299999V0201701N001012200019N0280001N1+02061+01251102341ADDGA1021+018009069GF104991021051017501071011KA1120M+02131KA2120N+01231MA1999999101211MD1110011+9999REMSYN094AAXX  08184 10640 42778 41702 10206 20125 30121 40234 51001 82571 333 10213 20123 82656 83360;
0228106400999992000090906004+50110+008730FM-12+011299999V0200901N000512200019N0120001N1+01201+01171102541ADDAA124000091GA1021+075009019GF102991001001999999001011GJ102829KA1120M+01671KA2120N+01141MA1999999101371MD1310031+9999REMSYN100AAXX  09064 10640 42962 20901 10120 20117 30137 40254 53003 80001 333 10167 20114 55047 70000 82075;
0159106400999992000090909004+50110+008730FM-12+011299999V0203301N000512200019N0200001N1+01861+01431102631ADDGA1011+006009029GF103991011011008001041011MA1999999101491MD1210121+9999REMSYN076AAXX  09094 10640 42570 33301 10186 20143 30149 40263 52012 81141 333 81820;
0159106400999992000090912004+50110+008730FM-12+011299999V0203101N000512200019N0250001N1+02251+01241102561ADDGA1011+007509029GF102991011011008001001011MA1999999101441MD1010051+9999REMSYN076AAXX  09124 10640 42575 23101 10225 20124 30144 40256 50005 81101 333 81825;
0203106400999992000090918004+50110+008730FM-12+011299999V0203401N001512200019N0300001N1+02181+01591102541ADDGA1021+030009039GF104991021001999999031011KA1120M+02561KA2120N+01251MA1999999101411MD1110051+9999REMSYN094AAXX  09184 10640 42980 43403 10218 20159 30141 40254 51005 82031 333 10256 20125 82360 83075;
0228106400999992000091006004+50110+008730FM-12+011299999V0200701N001012200019N0150001N1+01401+01371102541ADDAA124000091GA1021+075009019GF102991001001999999001011GJ106729KA1120M+02191KA2120N+01391MA1999999101381MD1710021+9999REMSYN100AAXX  10064 10640 42965 20702 10140 20137 30138 40254 57002 80001 333 10219 20139 55112 70000 82075;
0143106400999992000091009004+50110+008730FM-12+011299999V0200201N000512200019N0200001N1+01991+01611102541ADDGA1001+999999999GF100991001001999999001001MA1999999101411MD1310031+9999REMSYN060AAXX  10094 10640 42970 00201 10199 20161 30141 40254 53003;
0159106400999992000091012004+50110+008730FM-12+011299999V0203501N001012200019N0250001N1+02451+01471102411ADDGA1011+013509029GF102991011011017501001011MA1999999101301MD1710111+9999REMSYN076AAXX  10124 10640 42775 23502 10245 20147 30130 40241 57011 81101 333 81845;
0143106400999992000091015004+50110+008730FM-12+011299999V0200301N001012200019N0400001N1+02581+01451102231ADDGA1001+999999999GF100991001001999999001001MA1999999101121MD1710171+9999REMSYN060AAXX  10154 10640 42982 00302 10258 20145 30112 40223 57017;
0197106400999992000091018004+50110+008730FM-12+011299999V0203601N002112200019N0300001N1+02371+01601102171ADDGA1011+075009019GF101991001001999999001011KA1120M+02671KA2120N+01381MA1999999101061MD1710071+9999REMSYN088AAXX  10184 10640 42980 13604 10237 20160 30106 40217 57007 80001 333 10267 20138 81075;
0228106400999992000091106004+50110+008730FM-12+011299999V0203601N002112200019N0180001N1+01691+01551102071ADDAA124000091GA1031+012009059GF103991031051012501001011GJ106669KA1120M+02371KA2120N+01681MA1999999100931MD1610061+9999REMSYN100AAXX  11064 10640 42668 33604 10169 20155 30093 40207 56006 83501 333 10237 20168 55111 70000 83640;
0159106400999992000091109004+50110+008730FM-12+011299999V0203601N001512200019N0200001N1+02041+01581102071ADDGA1011+078009019GF101991001001999999001011MA1999999100941MD1110011+9999REMSYN076AAXX  11094 10640 42970 13603 10204 20158 30094 40207 51001 80001 333 81076;
0159106400999992000091112004+50110+008730FM-12+011299999V0200301N001512200019N0220001N1+02631+01541101871ADDGA1021+012009029GF102991021011012501001001MA1999999100771MD1710171+9999REMSYN076AAXX  11124 10640 42672 20303 10263 20154 30077 40187 57017 82100 333 82840;
0159106400999992000091115004+50110+008730FM-12+011299999V0200801N001012200019N0250001N1+02731+01531101701ADDGA1021+012909029GF102991021011012501001001MA1999999100601MD1710171+9999REMSYN076AAXX  11154 10640 42675 20802 10273 20153 30060 40170 57017 82100 333 82843;
0197106400999992000091118004+50110+008730FM-12+011299999V0201001N001012200019N0250001N1+02451+01611101651ADDGA1021+072009019GF102991001001999999001011KA1120M+02761KA2120N+01691MA1999999100541MD1610061+9999REMSYN088AAXX  11184 10640 42975 21002 10245 20161 30054 40165 56006 80001 333 10276 20169 82074;
0228106400999992000091206004+50110+008730FM-12+011299999V0200601N001010780019N0100001N1+01611+01511101571ADDAA124000091GA1061+078009019GF106991001001999999001011GJ106669KA1120M+02551KA2120N+01601MA1999999100431MD1710051+9999REMSYN100AAXX  12064 10640 42960 60602 10161 20151 30043 40157 57005 80001 333 10255 20160 55111 70000 86076;
0159106400999992000091209004+50110+008730FM-12+011299999V0201501N000510780019N0150001N1+01971+01581101561ADDGA1061+078009019GF106991001001999999001011MA1999999100441MD1010011+9999REMSYN076AAXX  12094 10640 42965 61501 10197 20158 30044 40156 50001 80001 333 86076;
0159106400999992000091212004+50110+008730FM-12+011299999V0202001N000510780019N0150001N1+02581+01631101401ADDGA1071+078009019GF107991001001999999001021MA1999999100301MD1710141+9999REMSYN076AAXX  12124 10640 42965 72001 10258 20163 30030 40140 57014 80002 333 87076;
0159106400999992000091215004+50110+008730FM-12+011299999V0201801N001010900019N0180001N1+02651+01601101261ADDGA1071+090009089GF107991001001999999001061MA1999999100171MD1710151+9999REMSYN076AAXX  12154 10640 42968 71802 10265 20160 30017 40126 57015 80006 333 87280;
0219106400999992000091218004+50110+008730FM-12+011299999V0201601N001510450019N0200001N1+02131+01481999999ADDGA1011+009009089GA2051+045009049GF107991011011008001071021KA1120M+02651KA2120N+01601MA1999999100101MD1710081+9999REMSYN094AAXX  12184 10640 42570 71603 10213 20148 30010 57008 81172 333 10265 20160 81830 85465 87080;
0262106400999992000091306004+50110+008730FM-12+011299999V0202301N00151009001CN0180001N1+01731+01701101301ADDAA124005091AY191061AY281061GA1021+003909089GF107991051081004501011999GJ104209KA1120M+02131KA2120N+01681MA1999999100171MD1810131+9999MW1211REMSYN112AAXX  13064 10640 41468 72303 10173 20170 30017 40130 58013 72198 8581/ 333 10213 20168 55070 70050 82813 85650;
0215106400999992000091309004+50110+008730FM-12+011299999V0202001N002610060019N0140001N1+01741+01711101421ADDAY161031AY221031GA1011+003309079GA2041+006009069GF108991071081004501999999MA1999999100291MD1110121+9999MW1021REMSYN094AAXX  13094 10640 42464 82005 10174 20171 30029 40142 51012 70262 878// 333 81711 84620 87630;
0187106400999992000091312004+50110+008730FM-12+011299999V0202101N002610099019N0150001N1+01951+01721101441ADDGA1011+006009089GA2051+009909069GF108991051081004501021999MA1999999100321MD1210051+9999REMSYN088AAXX  13124 10640 42465 82105 10195 20172 30032 40144 52005 8582/ 333 81820 85633 87461;
0165106400999992000091315004+50110+008730FM-12+011299999V0202201N002110300019N0180001N1+02121+01501101441ADDGA1011+006009089GF106991031081004501031001MA1999999100321MD1410001+9999REMSYN082AAXX  13154 10640 42468 62204 10212 20150 30032 40144 54000 83830 333 81820 83622;
0225106400999992000091318004+50110+008730FM-12+011299999V0202201N00211030001CN0240001N1+01941+01431101511ADDGA1011+007509089GA2041+010509069GF106991041081008001031081KA1120M+02171KA2120N+01721MA1999999100391MD1310071+9999REMSYN100AAXX  13184 10640 42574 62204 10194 20143 30039 40151 53007 84838 333 10217 20172 81825 84635 86276;
0234106400999992000091406004+50110+008730FM-12+011299999V0202001N000510120019N0080001N1+01331+01301101761ADDAA124999929GA1051+012009069GF105991051051012501031011GJ101389KA1120M+01971KA2120N+01321MA1999999100611MD1210021+9999REMSYN106AAXX  14064 10640 42658 52001 10133 20130 30061 40176 52002 85531 333 10197 20132 55023 79999 85640 85077;
0187106400999992000091409004+50110+008730FM-12+011299999V0202301N001010138019N0110001N1+01661+01471101851ADDAY121031AY221031GA1071+013809059GF107991071051012501999999MA1999999100711MD1210101+9999MW1211REMSYN082AAXX  14094 10640 41661 72302 10166 20147 30071 40185 52010 72122 875// 333 87646;
0193106400999992000091412004+50110+008730FM-12+011299999V0202001N002610300019N0180001N1+02031+01391101771ADDAY161061AY221061GA1031+013809089GF107991031021012501031999MA1999999100651MD1810061+9999MW1021REMSYN088AAXX  14124 10640 41668 72005 10203 20139 30065 40177 58006 70262 8323/ 333 83846 87360;
0165106400999992000091415004+50110+008730FM-12+011299999V0202201N001510150019N0150001N1+02011+01381101761ADDGA1051+015009069GF107991051051017501031999MA1999999100641MD1810021+9999REMSYN082AAXX  14154 10640 42765 72203 10201 20138 30064 40176 58002 8553/ 333 85650 87360;
0197106400999992000091418004+50110+008730FM-12+011299999V0201401N001012200019N0200001N1+01921+01421101721ADDGA1031+030009079GF103991031001999999031011KA1120M+02081KA2120N+01331MA1999999100621MD1710021+9999REMSYN088AAXX  14184 10640 42970 31402 10192 20142 30062 40172 57002 83031 333 10208 20133 83360;
0291106400999992000091506004+50110+008730FM-12+011299999V0200601N00311030001CN0100001N1+01471+01421101751ADDAA124999929GA1011+015009069GA2031+030009039GF106991011051017501031011GJ101869KA1120M+99999KA2120N+99999MA1999999100621MD1810021+9999REMSYN112AAXX  15064 10640 42760 60606 10147 20142 30062 40175 58002 81531 333 10142 20194 55031 79999 81650 83360 85075;EQDQ01 +01423ATMM  Q02 +01943ATMM  
0159106400999992000091512004+50110+008730FM-12+011299999V0202101N001010750019N0120001N1+02241+01551101551ADDGA1051+075009019GF105991001001999999001011MA1999999100451MD1710161+9999REMSYN076AAXX  15124 10640 42962 52102 10224 20155 30045 40155 57016 80001 333 85075;
0165106400999992000091515004+50110+008730FM-12+011299999V0201201N00211220001CN0150001N1+02371+01661101341ADDGA1021+008109089GF106991021011008001001011MA1999999100231MD1710211+9999REMSYN082AAXX  15154 10640 42565 61204 10237 20166 30023 40134 57021 82101 333 82827 85075;
0203106400999992000091518004+50110+008730FM-12+011299999V0201001N00151030001CN0180001N1+02261+01791101201ADDGA1021+009609089GF106991031081008001081081KA1120M+02441KA2120N+01471MA1999999100091MD1710141+9999REMSYN094AAXX  15184 10640 42568 61003 10226 20179 30009 40120 57014 83888 333 10244 20147 82832 85275;
0301106400999992000091606004+50110+008730FM-12+011299999V0202201N00361001201CN0250001N1+01371+01311100961ADDAA124007191AY191061AY281061GA1031+001209089GA2011+001509099GF105991051091001501001001GJ103189KA1120M+02251KA2120N+01381MA1999999099821MD1210181+9999MW1251OA149901031REMSYN124AAXX  16064 10640 41275 52207 10137 20131 39982 40096 52018 72598 85900 333 10225 20138 55053 70071 83804 81905 91120 91212;
0187106400999992000091609004+50110+008730FM-12+011299999V0201901N003610090019N0250001N1+01451+01201101101ADDAY191031AY281031GA1081+009009059GF108991081051008001999999MA1999999099601MD1210161+9999MW1021REMSYN082AAXX  16094 10640 41575 81907 10145 20120 3996/ 40110 52016 70298 885// 333 88630;
0209106400999992000091612004+50110+008730FM-12+011299999V0202001N00461030001CN0300001N1+01591+01221101021ADDGA1011+006009089GA2041+010509089GA3061+030009039GF107991061081008001031999MA1999999099891MD1710101+9999REMSYN094AAXX  16124 10640 42580 72009 10159 20122 39989 40102 57010 8683/ 333 81820 84835 86360 91114;
0232106400999992000091615004+50110+008730FM-12+011299999V0202101N004610120019N0200001N1+01591+01251100931ADDAY181031AY221031GA1031+007509089GA2071+012009069GF107991071081008001999999MA1999999099801MD1710081+9999MW1801OA149900821REMSYN100AAXX  16154 10640 41570 72109 10159 20125 39980 40093 57008 78082 878// 333 83825 87640 91116 91211;
0292106400999992000091618004+50110+008730FM-12+011299999V0201901N004110069019N0150001N1+01381+01351100871ADDAY181061AY261061GA1021+003909089GA2041+006909069GA3081+009909069GF108991081081004501999999KA1120M+01721KA2120N+01331MA1999999099731MD1610071+9999MW1601OA149900821REMSYN118AAXX  16184 10640 41465 81908 10138 20135 39973 40087 56007 76086 888// 333 10172 20133 82813 84623 88633 91116 91211;
0234106400999992000091706004+50110+008730FM-12+011299999V0202001N00051030001CN0250001N1+01311+01281101031ADDAA124004991GA1041+015009069GF105991041051017501031011GJ100009KA1120M+01431KA2120N+01261MA1999999099891MD1110061+9999REMSYN106AAXX  17064 10640 42775 52001 10131 20128 39989 40103 51006 84531 333 10143 20126 55000 70049 84650 83074;
0165106400999992000091709004+50110+008730FM-12+011299999V0203001N00051012001CN0200001N1+01591+01201101151ADDGA1031+006009089GF106991051081008001031011MA1999999100021MD1210111+9999REMSYN082AAXX  17094 10640 42570 63001 10159 20120 30002 40115 52011 85831 333 83820 84635;
0187106400999992000091712004+50110+008730FM-12+011299999V0203401N00151030001CN0200001N1+01741+01141101211ADDGA1011+007509089GA2041+011409069GF107991041081008001031999MA1999999100081MD1210051+9999REMSYN088AAXX  17124 10640 42570 73403 10174 20114 30008 40121 52005 8483/ 333 81825 84638 86359;
0165106400999992000091715004+50110+008730FM-12+011299999V0201701N00051030001CN0300001N1+01861+01121101181ADDGA1031+007509089GF107991031011008001031999MA1999999100061MD1710021+9999REMSYN082AAXX  17154 10640 42580 71701 10186 20112 30006 40118 57002 8313/ 333 83825 87359;
0225106400999992000091718004+50110+008730FM-12+011299999V0202101N00151030001CN0250001N1+01761+01481101251ADDGA1011+009009089GA2031+015009069GF107991031081012501031999KA1120M+01951KA2120N+01291MA1999999100121MD1310031+9999REMSYN100AAXX  17184 10640 42675 72103 10176 20148 30012 40125 53003 8383/ 333 10195 20129 81830 83650 87359;
0268106400999992000091806004+50110+008730FM-12+011299999V0202201N000510069019N0050001N1+01461+01431101171ADDAA124000191GA1021+003309079GA2041+006909069GF107991071051004501999999GJ103189KA1120M+01711KA2120N+01461MA1999999100031MD1610061+9999MW1101REMSYN118AAXX  18064 10640 41450 72201 10146 20143 30003 40117 56006 710// 875// 333 10171 20146 55053 70001 82711 84623 87656;
0193106400999992000091809004+50110+008730FM-12+011299999V0201401N00151004201CN0070001N1+01591+01471101221ADDAY121031AY221031GA1031+004509069GF108991071051004501999999MA1999999100081MD1310041+9999MW1101REMSYN088AAXX  18094 10640 41457 81403 10159 20147 30008 40122 53004 71022 875// 333 83615 87630;
0165106400999992000091812004+50110+008730FM-12+011299999V0201101N00101004201CN0090001N1+01711+01451101101ADDGA1021+004509069GF107991071051004501999999MA1999999099971MD1610121+9999REMSYN082AAXX  18124 10640 42459 71102 10171 20145 39997 40110 56012 875// 333 82615 87630;
0165106400999992000091815004+50110+008730FM-12+011299999V0201301N00151012001CN0120001N1+01771+01321101001ADDGA1031+004509069GF107991071051012501999999MA1999999099871MD1610091+9999REMSYN082AAXX  18154 10640 42662 71303 10177 20132 39987 40100 56009 875// 333 83615 87633;
0225106400999992000091818004+50110+008730FM-12+011299999V0200901N00051030001CN0200001N1+01741+01241100951ADDGA1011+005109089GA2031+015009069GF106991031081004501031011KA1120M+01831KA2120N+01461MA1999999099821MD1710061+9999REMSYN100AAXX  18184 10640 42470 60901 10174 20124 39982 40095 57006 83831 333 10183 20146 81817 83650 85075;
0228106400999992000091906004+50110+008730FM-12+011299999V0200801N001512200019N0080001N1+01201+01131100951ADDAA124000091GA1011+030009079GF102991011001999999041011GJ100069KA1120M+01781KA2120N+01191MA1999999099801MD1510011+9999REMSYN100AAXX  19064 10640 42958 20803 10120 20113 39980 40095 55001 81041 333 10178 20119 55001 70000 81360;
0159106400999992000091909004+50110+008730FM-12+011299999V0201101N001512200019N0100001N1+01631+01221100871ADDGA1011+010809029GF101991011011012501001001MA1999999099741MD1710061+9999REMSYN076AAXX  19094 10640 42660 11103 10163 20122 39974 40087 57006 81100 333 81836;
0159106400999992000091912004+50110+008730FM-12+011299999V0200901N003612200019N0150001N1+01951+01311100751ADDGA1011+012009029GF101991011011012501001001MA1999999099631MD1710111+9999REMSYN076AAXX  19124 10640 42665 10907 10195 20131 39963 40075 57011 81100 333 81840;
0159106400999992000091915004+50110+008730FM-12+011299999V0200801N003112200019N0200001N1+01951+01271100641ADDGA1011+008709029GF101991011011008001001001MA1999999099521MD1710101+9999REMSYN076AAXX  19154 10640 42570 10806 10195 20127 39952 40064 57010 81100 333 81829;
0197106400999992000091918004+50110+008730FM-12+011299999V0200701N002112200019N0100001N1+01651+01251100621ADDGA1011+030009079GF101991011001999999031011KA1120M+02031KA2120N+01201MA1999999099491MD1710041+9999REMSYN088AAXX  19184 10640 42960 10704 10165 20125 39949 40062 57004 81031 333 10203 20120 81360;
0228106400999992000092006004+50110+008730FM-12+011299999V0200501N001510270019N0100001N1+01311+01111100721ADDAA124000091GA1071+027009079GF107991071001999999031999GJ106309KA1120M+01681KA2120N+01301MA1999999099581MD1210071+9999REMSYN100AAXX  20064 10640 42960 70503 10131 20111 39958 40072 52007 8703/ 333 10168 20130 55105 70000 87359;
0165106400999992000092009004+50110+008730FM-12+011299999V0200701N002119999999N0120001N1+01471+01071100811ADDGA1041+027009039GF107991071001999999021999MA1999999099671MD1210091+9999REMSYN082AAXX  20094 10640 42962 70704 10147 20107 39967 40081 52009 8702/ 333 84359 85460;
0165106400999992000092012004+50110+008730FM-12+011299999V0201401N001010150019N0150001N1+01711+01081100891ADDGA1061+015009069GF107991061051017501071999MA1999999099761MD1210091+9999REMSYN082AAXX  20124 10640 42765 71402 10171 20108 39976 40089 52009 8657/ 333 86650 87360;
0187106400999992000092015004+50110+008730FM-12+011299999V0200301N00101012001CN0150001N1+01801+01211100871ADDGA1011+006009089GA2031+010209069GF107991061081008001071999MA1999999099751MD1810011+9999REMSYN088AAXX  20154 10640 42565 70302 10180 20121 39975 40087 58001 8687/ 333 81820 83634 86650;
0225106400999992000092018004+50110+008730FM-12+011299999V0200301N003110105019N0140001N1+01701+01301100881ADDGA1021+007509069GA2051+010509069GF107991061051008001071999KA1120M+01861KA2120N+01301MA1999999099751MD1410001+9999REMSYN100AAXX  20184 10640 42564 70306 10170 20130 39975 40088 54000 8657/ 333 10186 20130 82625 85635 87360;
0284106400999992000092106004+50110+008730FM-12+011299999V0203401N00151030001CN0035001N1+01171+01141101191ADDAA124007791AY161061AY221061GA1011+001809079GA2041+004809069GF108991041051001501021999GJ101509KA1120M+01711KA2120N+01141MA1999999100041MD1210121+9999MW1631REMSYN118AAXX  21064 10640 41235 83403 10117 20114 30004 40119 52012 76362 8452/ 333 10171 20114 55025 70077 81706 84616 88458;
0193106400999992000092109004+50110+008730FM-12+011299999V0203401N00151030001CN0050001N1+01141+01111101441ADDAY161031AY261031GA1021+002409089GF108991021011002501021999MA1999999100281MD1210241+9999MW1611REMSYN088AAXX  21094 10640 41350 83403 10114 20111 30028 40144 52024 76166 8212/ 333 82808 88458;
0193106400999992000092112004+50110+008730FM-12+011299999V0203001N00101002101CN0100001N1+01251+01181101621ADDAY161061AY261061GA1021+002109079GF108991071051002501999999MA1999999100471MD1210191+9999MW1611REMSYN088AAXX  21124 10640 41360 83002 10125 20118 30047 40162 52019 76166 875// 333 82707 87620;
0193106400999992000092115004+50110+008730FM-12+011299999V0203501N00211002101CN0070001N1+01221+01191101831ADDAY161031AY261031GA1031+002109079GF108991081051002501999999MA1999999100671MD1210191+9999MW1611REMSYN088AAXX  21154 10640 41357 83504 10122 20119 30067 40183 52019 76166 885// 333 83707 87621;
0231106400999992000092118004+50110+008730FM-12+011299999V0203501N00151002101CN0070001N1+01151+01121102071ADDAY161061AY221061GA1041+002409079GF108991081051002501999999KA1120M+01281KA2120N+01111MA1999999100911MD1210251+9999MW1211REMSYN100AAXX  21184 10640 41357 83503 10115 20112 30091 40207 52025 72162 885// 333 10128 20111 84708 88617;
0256106400999992000092206004+50110+008730FM-12+011299999V0202001N00101009001CN0150001N1+01091+01061102471ADDAA124005691GA1021+003309079GA2031+009009069GF106991041051004501031001GJ100009KA1120M+01151KA2120N+01091MA1999999101301MD1310081+9999REMSYN112AAXX  22064 10640 42465 62002 10109 20106 30130 40247 53008 84530 333 10115 20109 55000 70056 82711 83630 86360;
0165106400999992000092212004+50110+008730FM-12+011299999V0200801N001012200019N0150001N1+01681+01171102611ADDGA1011+003009089GF104991041081001501001011MA1999999101461MD1210021+9999REMSYN082AAXX  22124 10640 44265 40802 10168 20117 30146 40261 52002 84801 333 81810 83630;
0159106400999992000092215004+50110+008730FM-12+011299999V0200601N001012200019N0300001N1+01751+01191102581ADDGA1031+004209029GF104991031011004501001011MA1999999101441MD1710011+9999REMSYN076AAXX  22154 10640 42480 40602 10175 20119 30144 40258 57001 83101 333 83814;
0203106400999992000092218004+50110+008730FM-12+011299999V0200601N001012200019N0180001N1+01571+01271102661ADDGA1011+007509089GF104991031081008001031011KA1120M+01871KA2120N+01091MA1999999101511MD1210071+9999REMSYN094AAXX  22184 10640 42568 40602 10157 20127 30151 40266 52007 83831 333 10187 20109 81825 83628;
0228106400999992000092306004+50110+008730FM-12+011299999V0200301N001012200019N0120001N1+01061+01041102741ADDAA124000091GA1021+075009019GF102991001001999999001011GJ103129KA1120M+01571KA2120N+01061MA1999999101571MD1510001+9999REMSYN100AAXX  23064 10640 42962 20302 10106 20104 30157 40274 55000 80001 333 10157 20106 55052 70000 82075;
0165106400999992000092309004+50110+008730FM-12+011299999V0201001N002610099019N0120001N1+01301+01111102801ADDGA1051+009909069GF107991051051012501031001MA1999999101641MD1210071+9999REMSYN082AAXX  23094 10640 42662 71005 10130 20111 30164 40280 52007 85530 333 85633 85360;
0165106400999992000092312004+50110+008730FM-12+011299999V0200601N002612200019N0150001N1+01781+01001102651ADDGA1011+009609089GF105991041081008001001011MA1999999101511MD1510131+9999REMSYN082AAXX  23124 10640 42565 50605 10178 20100 30151 40265 55013 84801 333 81832 83650;
0216106400999992000092318004+50110+008730FM-12+011299999V0200801N001512200019N0150001N1+01591+00841102431ADDGA1031+015009059GF103991031051017501999001KA1120M+01941KA2120N+01051MA1999999101281MD1710071+9999REMSYN088AAXX  23184 10640 42765 30803 10159 20084 30128 40243 57007 83500 333 10194 20105 83650;EQDQ01    003SCOMCG
0228106400999992000092406004+50110+008730FM-12+011299999V0200801N002112200019N0180001N1+00961+00841102261ADDAA124000091GA1011+066009019GF101991001001999999001011GJ104389KA1120M+01591KA2120N+00961MA1999999101091MD1410001+9999REMSYN100AAXX  24064 10640 42968 10804 10096 20084 30109 40226 54000 80001 333 10159 20096 55073 70000 81072;
0159106400999992000092412004+50110+008730FM-12+011299999V0201101N002112200019N0250001N1+01811+00851102131ADDGA1011+075009019GF101991001001999999001011MA1999999100991MD1710121+9999REMSYN076AAXX  24124 10640 42975 11104 10181 20085 30099 40213 57012 80001 333 81075;
0159106400999992000092415004+50110+008730FM-12+011299999V0200901N002112200019N0200001N1+01461+00821102271ADDGA1011+075009019GF101991001001999999001011MA1999999101121MD1210031+9999REMSYN076AAXX  24154 10640 42970 10904 10146 20082 30112 40227 52003 80001 333 81075;
0197106400999992000092418004+50110+008730FM-12+011299999V0200901N001512200019N0200001N1+01821+01141102051ADDGA1031+075009019GF103991001001999999001011KA1120M+02031KA2120N+00951MA1999999100921MD1110051+9999REMSYN088AAXX  24184 10640 42970 30903 10182 20114 30092 40205 51005 80001 333 10203 20095 83075;
0234106400999992000092506004+50110+008730FM-12+011299999V0201601N00101012001CN0150001N1+01241+01201102231ADDAA124000091GA1011+006009089GF107991071081008001999999GJ106249KA1120M+01841KA2120N+01171MA1999999101071MD1210051+9999REMSYN106AAXX  25064 10640 32565 71602 10124 20120 30107 40223 52005 878// 333 10184 20117 55104 70000 81820 87625;
0193106400999992000092509004+50110+008730FM-12+011299999V0201301N00051030001CN0048001N1+01281+01251102401ADDAY161031AY221031GA1031+010809069GF108991031051012501071999MA1999999101241MD1210171+9999MW1211REMSYN088AAXX  25094 10640 41648 81301 10128 20125 30124 40240 52017 72162 8357/ 333 83636 87359;
0215106400999992000092512004+50110+008730FM-12+011299999V0202201N000510060019N0070001N1+01601+01501102471ADDAY161061AY221061GA1021+003009089GA2041+006009069GF108991071051004501999999MA1999999101321MD1210091+9999MW1031REMSYN094AAXX  25124 10640 41457 82201 10160 20150 30132 40247 52009 70362 875// 333 82810 84620 87656;
0165106400999992000092515004+50110+008730FM-12+011299999V0200601N001512200019N0180001N1+01861+01381102391ADDGA1021+007209089GF104991021021008001031011MA1999999101251MD1810061+9999REMSYN082AAXX  25154 10640 41568 40603 10186 20138 30125 40239 58006 82231 333 82824 83359;
0225106400999992000092518004+50110+008730FM-12+011299999V0201501N00151030001CN0150001N1+01621+01471102421ADDGA1011+007509089GA2031+027009039GF106991011021008001031011KA1120M+01961KA2120N+01221MA1999999101271MD1710021+9999REMSYN100AAXX  25184 10640 42565 61503 10162 20147 30127 40242 57002 81231 333 10196 20122 81825 83359 84072;
0256106400999992000092606004+50110+008730FM-12+011299999V0201201N001010018019N0009001N1+01221+01201102421ADDAA124005091AY141061AY221061GA1081+001809069GF108991081061001501999999GJ101869KA1120M+01641KA2120N+01171MA1999999101261MD1610011+9999MW1441REMSYN106AAXX  26064 10640 41209 81202 10122 20120 30126 40242 56001 74442 886// 333 10164 20117 55031 70050 88706;
0187106400999992000092609004+50110+008730FM-12+011299999V0201401N002110018019N0050001N1+01331+01301102431ADDAY141031AY221031GA1071+001809069GF108991071061001501999999MA1999999101271MD1310011+9999MW1101REMSYN082AAXX  26094 10640 41250 81404 10133 20130 30127 40243 53001 71042 876// 333 87706;
0165106400999992000092612004+50110+008730FM-12+011299999V0201401N00051002101CN0090001N1+01541+01441102351ADDGA1041+002409079GF108991071051002501999999MA1999999101201MD1810051+9999REMSYN082AAXX  26124 10640 42359 81401 10154 20144 30120 40235 58005 875// 333 84708 87614;
0159106400999992000092615004+50110+008730FM-12+011299999V0203501N000512200019N0150001N1+01921+01571102171ADDGA1031+005409059GF103991031051004501001011MA1999999101041MD1710151+9999REMSYN076AAXX  26154 10640 42465 33501 10192 20157 30104 40217 57015 83501 333 83618;
0197106400999992000092618004+50110+008730FM-12+011299999V0200401N001012200019N0150001N1+01781+01581102131ADDGA1011+075009019GF101991001001999999001011KA1120M+01921KA2120N+01201MA1999999100991MD1710071+9999REMSYN088AAXX  26184 10640 42965 10402 10178 20158 30099 40213 57007 80001 333 10192 20120 81075;
0248106400999992000092706004+50110+008730FM-12+011299999V0202401N002110012019N0010001N1+01281+01251102081ADDAA124001091AY121061AY221061GA1071+001209069GF108991071061001501999999KA1120M+01791KA2120N+01191MA1999999100921MD1310051+9999MW1801REMSYN106AAXX  27064 10640 41210 82404 10128 20125 30092 40208 53005 78022 876// 333 10179 20119 5017/ 70010 87704;
0193106400999992000092709004+50110+008730FM-12+011299999V0201401N000510018019N0020001N1+01441+01421102061ADDAY191031AY281031GA1051+001809079GF107991071051001501999999MA1999999100911MD1710011+9999MW1251REMSYN088AAXX  27094 10640 41220 71401 10144 20142 30091 40206 57001 72598 875// 333 85706 87650;
0193106400999992000092712004+50110+008730FM-12+011299999V0202101N001510012019N0030001N1+01631+01601102011ADDAY191061AY281061GA1051+001209079GF107991071051001501999999MA1999999100871MD1710041+9999MW1101REMSYN088AAXX  27124 10640 41230 72103 10163 20160 30087 40201 57004 71098 875// 333 85704 87650;
0187106400999992000092715004+50110+008730FM-12+011299999V0202101N001510300019N0100001N1+01851+01761101851ADDGA1011+012009089GA2031+015009069GF106991041081001501031001MA1999999100721MD1710151+9999REMSYN088AAXX  27154 10640 42260 62103 10185 20176 30072 40185 57015 84830 333 81840 83650 85360;
0225106400999992000092718004+50110+008730FM-12+011299999V0201801N002610300019N0100001N1+01761+01731101771ADDGA1011+009009069GA2031+015009069GF106991041061012501031001KA1120M+01871KA2120N+01241MA1999999100641MD1710091+9999REMSYN100AAXX  27184 10640 42660 61805 10176 20173 30064 40177 57009 84630 333 10187 20124 81630 83650 85360;
0254106400999992000092806004+50110+008730FM-12+011299999V0203001N00101001201CN0040001N1+01501+01471101321ADDAA124006991AY121061GA1021+001509079GF108991061051001501071999GJ100249KA1120M+01781KA2120N+01481MA1999999100181MD1710161+9999MW1611REMSYN112AAXX  28064 10640 41240 83002 10150 20147 30018 40132 57016 7612/ 8657/ 333 10178 20148 55004 70069 82705 86650;
0193106400999992000092809004+50110+008730FM-12+011299999V0201601N000510120019N0080001N1+01661+01631101281ADDAY161031AY221031GA1011+008109089GF108991061081008001031011MA1999999100151MD1710031+9999MW1211REMSYN088AAXX  28094 10640 41558 81601 10166 20163 30015 40128 57003 72162 86831 333 81827 86640;
0193106400999992000092812004+50110+008730FM-12+011299999V0201901N002112200019N0200001N1+02181+01671101071ADDAY161061AY221061GA1011+006009089GF106991031081008001001011MA1999999099961MD1710181+9999MW1011REMSYN088AAXX  28124 10640 41570 61904 10218 20167 39996 40107 57018 70162 83801 333 81820 83650;
0187106400999992000092815004+50110+008730FM-12+011299999V0201701N002110300019N0200001N1+02271+01621100931ADDGA1031+009009069GA2031+030009039GF106991031051008001031011MA1999999099831MD1710141+9999REMSYN088AAXX  28154 10640 42570 61704 10227 20162 39983 40093 57014 83531 333 83630 83360 85075;
0197106400999992000092818004+50110+008730FM-12+011299999V0201101N001512200019N0250001N1+02051+01841100831ADDGA1021+030009079GF104991021001999999031011KA1120M+02321KA2120N+01501MA1999999099721MD1510111+9999REMSYN088AAXX  28184 10640 42975 41103 10205 20184 39972 40083 55011 82031 333 10232 20150 82360;
0228106400999992000092906004+50110+008730FM-12+011299999V0200401N002112200019N0180001N1+01481+01451100751ADDAA124000291GA1031+030009079GF103991031001999999031011GJ103729KA1120M+02051KA2120N+01461MA1999999099621MD1510011+9999REMSYN100AAXX  29064 10640 42968 30404 10148 20145 39962 40075 55001 83031 333 10205 20146 55062 70002 83360;
0165106400999992000092909004+50110+008730FM-12+011299999V0200601N002112200019N0120001N1+01901+01541100681ADDGA1011+004509089GF103991011011999999001011MA1999999099561MD1710061+9999REMSYN082AAXX  29094 10640 42962 30604 10190 20154 39956 40068 57006 81101 333 81815 83075;
0159106400999992000092912004+50110+008730FM-12+011299999V0200401N002112200019N0150001N1+02311+01581100481ADDGA1021+075009019GF102991001001999999001011MA1999999099381MD1710181+9999REMSYN076AAXX  29124 10640 42965 20404 10231 20158 39938 40048 57018 80001 333 82075;
0143106400999992000092915004+50110+008730FM-12+011299999V0200801N002112200019N0100001N1+02361+01581100301ADDGA1001+999999999GF100991001001999999001001MA1999999099211MD1710171+9999REMSYN060AAXX  29154 10640 42960 00804 10236 20158 39921 40030 57017;
0185106400999992000092918004+50110+008730FM-12+011299999V0200301N001512200019N0100001N1+02101+01591100341ADDGA1001+999999999GF100991001001999999001001KA1120M+02461KA2999N+01471MA1999999099241MD1110031+9999REMSYN076AAXX  29184 10640 42960 00303 10210 20159 39924 40034 51003 333 10246 20147;
0248106400999992000093006004+50110+008730FM-12+011299999V0200101N000510024019N0050001N1+01421+01391100581ADDAA124000091AY131061GA1071+002409069GF107991071061002501999999GJ105889KA1120M+02121KA2120N+01341MA1999999099451MD1210081+9999MW1101REMSYN106AAXX  30064 10640 41350 70101 10142 20139 39945 40058 52008 7103/ 876// 333 10212 20134 55098 70000 87708;
0187106400999992000093009004+50110+008730FM-12+011299999V0201301N001010024019N0050001N1+01561+01521100651ADDAY121031AY221031GA1071+002409069GF107991071051002501999999MA1999999099521MD1210121+9999MW1101REMSYN082AAXX  30094 10640 41350 71302 10156 20152 39952 40065 52012 71022 875// 333 87708;
0193106400999992000093012004+50110+008730FM-12+011299999V0202201N00101002101CN0050001N1+01751+01581100671ADDAY121061AY221061GA1031+002409079GF107991071051002501999999MA1999999099551MD1210031+9999MW1101REMSYN088AAXX  30124 10640 41350 72202 10175 20158 39955 40067 52003 71022 875// 333 83708 87613;
0193106400999992000093015004+50110+008730FM-12+011299999V0202101N00051004201CN0050001N1+01801+01601100681ADDAY121031AY221031GA1021+004209069GF108991081051004501999999MA1999999099561MD1210011+9999MW1101REMSYN088AAXX  30154 10640 41450 82101 10180 20160 39956 40068 52001 71022 885// 333 82614 87620;
0231106400999992000093018004+50110+008730FM-12+011299999V0202301N00151004201CN0060001N1+01751+01641100711ADDAY121061AY221061GA1041+004509069GF108991081051004501999999KA1120M+01811KA2120N+01421MA1999999099601MD1310041+9999MW1101REMSYN100AAXX  30184 10640 41456 82303 10175 20164 39960 40071 53004 71022 885// 333 10181 20142 84615 88623;
0215106400999992000100109004+50110+008730FM-12+011299999V0202101N002610021019N0050001N1+01431+01401100721ADDAY161031AY261031GA1021+000909079GA2051+002109079GF108991081051000751999999MA1999999099581MD1210161+9999MW1211REMSYN094AAXX  01094 10640 41150 82105 10143 20140 39958 40072 52016 72166 885// 333 82703 85707 87616;
0193106400999992000100112004+50110+008730FM-12+011299999V0202201N00211002101CN0250001N1+01521+01491100811ADDAY161061AY221061GA1021+002409079GF108991071051002501999999MA1999999099681MD1210101+9999MW1021REMSYN088AAXX  01124 10640 41375 82204 10152 20149 39968 40081 52010 70262 875// 333 82708 87618;
0187106400999992000100115004+50110+008730FM-12+011299999V0202401N001510090019N0250001N1+01611+01421100831ADDGA1021+003909089GA2041+009009069GF107991071081004501999999MA1999999099701MD1210021+9999REMSYN088AAXX  01154 10640 42475 72403 10161 20142 39970 40083 52002 878// 333 82813 84630 86640;
0253106400999992000100118004+50110+008730FM-12+011299999V0201901N001010090019N0200001N1+01551+01461100801ADDAY161061AY221061GA1011+003609089GA2051+009009069GF107991051081004501031999KA1120M+01621KA2120N+01411MA1999999099671MD1710021+9999MW1021REMSYN106AAXX  01184 10640 42470 71902 10155 20146 39967 40080 57002 70262 8583/ 333 10162 20141 81812 85630 86360;
0228106400999992000100206004+50110+008730FM-12+011299999V0202201N001510150019N0150001N1+01151+01121100741ADDAA124000591GA1051+015009059GF105991051051017501031011GJ100009KA1120M+01621KA2120N+01151MA1999999099591MD1710031+9999REMSYN100AAXX  02064 10640 42765 52203 10115 20112 39959 40074 57003 85531 333 10162 20115 55000 70005 85650;
0159106400999992000100209004+50110+008730FM-12+011299999V0202201N001512200019N0250001N1+01561+01341100831ADDGA1031+012009029GF103991031021012501031011MA1999999099701MD1210091+9999REMSYN076AAXX  02094 10640 42675 32203 10156 20134 39970 40083 52009 83231 333 83840;
0165106400999992000100212004+50110+008730FM-12+011299999V0201901N00261012001CN0300001N1+01761+01211100981ADDGA1031+009009089GF106991061081008001031011MA1999999099851MD1210151+9999REMSYN082AAXX  02124 10640 42580 61905 10176 20121 39985 40098 52015 86831 333 83830 85650;
0193106400999992000100215004+50110+008730FM-12+011299999V0201901N00211030001CN0350001N1+01791+01311101071ADDAY181031AY221031GA1021+009009089GF106991041081008001031011MA1999999099941MD1210041+9999MW1021REMSYN088AAXX  02154 10640 41581 61904 10179 20131 39994 40107 52004 70282 84831 333 82830 83650;
0231106400999992000100218004+50110+008730FM-12+011299999V0202001N002112200019N0300001N1+01381+01191101461ADDAY181061AY211061GA1011+008109089GF103991031081008001031011KA1120M+01821KA2120N+01151MA1999999100311MD1210271+9999MW1011REMSYN100AAXX  02184 10640 41580 32004 10138 20119 30031 40146 52027 70181 83831 333 10182 20115 81827 83657;
0254106400999992000100306004+50110+008730FM-12+011299999V0203601N000510300019N0090001N1+01031+01001102291ADDAA124002991AY121061GA1021+002109079GF105991041051002501031011GJ104029KA1120M+01481KA2120N+01021MA1999999101121MD1210171+9999MW1101REMSYN112AAXX  03064 10640 41359 53601 10103 20100 30112 40229 52017 7102/ 84531 333 10148 20102 55067 70029 82707 84613;
0187106400999992000100309004+50110+008730FM-12+011299999V0203301N00101009001CN0090001N1+01231+01161102471ADDAY121031AY221031GA1041+004809029GF106991051081004501031001MA1999999101321MD1210191+9999MW1101REMSYN082AAXX  03094 10640 41459 63302 10123 20116 30132 40247 52019 71022 85830 333 84816;
0159106400999992000100312004+50110+008730FM-12+011299999V0203601N000510060019N0250001N1+01711+01091102441ADDGA1051+006009029GF105991051021012501001001MA1999999101301MD1710021+9999REMSYN076AAXX  03124 10640 42675 53601 10171 20109 30130 40244 57002 85200 333 85820;
0165106400999992000100315004+50110+008730FM-12+011299999V0201701N00051012001CN0250001N1+01691+01081102381ADDGA1011+006009089GF105991051081008001001011MA1999999101241MD1710091+9999REMSYN082AAXX  03154 10640 42575 51701 10169 20108 30124 40238 57009 85801 333 81820 84630;
0197106400999992000100318004+50110+008730FM-12+011299999V0200101N001012200019N0300001N1+01491+01181102321ADDGA1011+030009079GF102991011001999999031011KA1120M+01771KA2120N+00981MA1999999101171MD1610071+9999REMSYN088AAXX  03184 10640 42980 20102 10149 20118 30117 40232 56007 81031 333 10177 20098 81360;
0234106400999992000100406004+50110+008730FM-12+011299999V0200701N001010120019N0150001N1+01221+01131102281ADDAA124000091GA1051+012009069GF107991051051012501071999GJ103549KA1120M+01771KA2120N+01111MA1999999101121MD1710021+9999REMSYN106AAXX  04064 10640 42665 70702 10122 20113 30112 40228 57002 8557/ 333 10177 20111 55059 70000 85640 87360;
0159106400999992000100409004+50110+008730FM-12+011299999V0203201N000510120019N0200001N1+01361+01191102391ADDGA1071+012009059GF108991071051012501071999MA1999999101231MD1210011+9999REMSYN076AAXX  04094 10640 42670 83201 10136 20119 30123 40239 52001 8757/ 333 87640;
0165106400999992000100412004+50110+008730FM-12+011299999V0201501N00051012001CN0200001N1+01511+01221102321ADDGA1011+007509089GF107991071081008001031999MA1999999101171MD1710061+9999REMSYN082AAXX  04124 10640 42570 71501 10151 20122 30117 40232 57006 8783/ 333 81825 87650;
0165106400999992000100415004+50110+008730FM-12+011299999V0200401N000510300019N0200001N1+01691+01341102231ADDGA1041+015009069GF107991041061017501071999MA1999999101091MD1610061+9999REMSYN082AAXX  04154 10640 42770 70401 10169 20134 30109 40223 56006 8467/ 333 84650 87360;
0216106400999992000100418004+50110+008730FM-12+011299999V0200701N000510120019N0200001N1+01611+01331102241ADDGA1071+012009059GF107991071051012501999999KA1120M+01691KA2120N+01221MA1999999101091MD1110011+9999REMSYN088AAXX  04184 10640 42670 70701 10161 20133 30109 40224 51000 875// 333 10169 20122 87640;EQDQ01+000002APC3  
0234106400999992000100506004+50110+008730FM-12+011299999V0200401N00051000601CN0080001N1+01251+01221101981ADDAA124000091GA1021+000909079GF107991071051000751999999GJ100009KA1120M+01611KA2120N+01221MA1999999100821MD1710101+9999REMSYN106AAXX  05064 10640 42158 70401 10125 20122 30082 40198 57010 875// 333 10161 20122 55000 70000 82703 87650;
0165106400999992000100509004+50110+008730FM-12+011299999V02099999999990150019N0100001N1+01391+01361101961ADDGA1011+006009089GF107991071081012501999999MA1999999100811MD1710011+9999REMSYN082AAXX  05094 10640 42660 7000/ 10139 20136 30081 40196 57001 878// 333 81820 87650;
0165106400999992000100512004+50110+008730FM-12+011299999V0202201N00101012001CN0120001N1+01521+01421101911ADDGA1011+009009089GF107991071081008001999999MA1999999100761MD1710051+9999REMSYN082AAXX  05124 10640 42562 72202 10152 20142 30076 40191 57005 878// 333 81830 87650;
0165106400999992000100515004+50110+008730FM-12+011299999V0201901N001010300019N0120001N1+01631+01401101771ADDGA1011+006009089GF107991011021004501071999MA1999999100631MD1110121+9999REMSYN082AAXX  05154 10640 42462 71902 10163 20140 30063 40177 51012 8127/ 333 81820 84360;
0231106400999992000100518004+50110+008730FM-12+011299999V0201801N001010150019N0050001N1+01471+01441101791ADDAY121061AY221061GA1051+015009069GF107991051051017501071999KA1120M+01661KA2120N+01231MA1999999100641MD1710031+9999MW1211REMSYN100AAXX  05184 10640 41750 71802 10147 20144 30064 40179 57003 72122 8557/ 333 10166 20123 85650 87359;
0256106400999992000100606004+50110+008730FM-12+011299999V0202301N002110300019N0300001N1+00941+00871102141ADDAA124006991AY181061AY221061GA1041+007509059GF105991041051008001031011GJ100069KA1120M+01481KA2120N+00931MA1999999100971MD1210121+9999MW1021REMSYN106AAXX  06064 10640 41580 52304 10094 20087 30097 40214 52012 70282 84531 333 10148 20093 55001 70069 84625;
0165106400999992000100612004+50110+008730FM-12+011299999V0203101N00211012001CN0300001N1+01211+00631102371ADDGA1021+008409089GF107991061081008001001081MA1999999101211MD1210091+9999REMSYN082AAXX  06124 10640 42580 73104 10121 20063 30121 40237 52009 86808 333 82828 85650;
0237106400999992000100615004+50110+008730FM-12+011299999V0202801N002110150019N0200001N1+01261+00701102381ADDAY181031AY221031GA1031+008709089GA2011+010209099GA3031+015009069GF107991061091008001031999MA1999999101221MD1410001+9999MW1251REMSYN100AAXX  06154 10640 41570 72804 10126 20070 30122 40238 54000 72582 8693/ 333 83829 81934 83650 85360;
0231106400999992000100618004+50110+008730FM-12+011299999V0203201N001010120019N0200001N1+01221+00781102521ADDAY151061AY221061GA1021+009009089GF107991071081008001999999KA1120M+01361KA2120N+00931MA1999999101351MD1210101+9999MW1021REMSYN100AAXX  06184 10640 41570 73202 10122 20078 30135 40252 52010 70252 878// 333 10136 20093 82830 87640;
0234106400999992000100706004+50110+008730FM-12+011299999V0203501N00051030001CN0180001N1+00591+00561102641ADDAA124000191GA1031+010509069GF105991031051012501031011GJ103249KA1120M+01221KA2120N+00581MA1999999101451MD1310031+9999REMSYN106AAXX  07064 10640 42668 53501 10059 20056 30145 40264 53003 83531 333 10122 20058 55054 70001 83635 84075;
0165106400999992000100709004+50110+008730FM-12+011299999V0203201N000512200019N0200001N1+00901+00631102701ADDGA1011+009909089GF103991011011012501031011MA1999999101521MD1110071+9999REMSYN082AAXX  07094 10640 42670 33201 10090 20063 30152 40270 51007 81131 333 81833 83361;
0165106400999992000100712004+50110+008730FM-12+011299999V0203101N000510300019N0200001N1+01141+00551102591ADDGA1011+007209089GF106991041081008001031011MA1999999101421MD1710101+9999REMSYN082AAXX  07124 10640 42570 63101 10114 20055 30142 40259 57010 84831 333 81824 83636;
0187106400999992000100715004+50110+008730FM-12+011299999V0203601N001010300019N0350001N1+01221+00671102491ADDGA1011+009009089GA2031+013509069GF106991031081008001031011MA1999999101331MD1710081+9999REMSYN088AAXX  07154 10640 42581 63602 10122 20067 30133 40249 57008 83831 333 81830 83645 85360;
0197106400999992000100718004+50110+008730FM-12+011299999V0201301N000512200019N0300001N1+01091+00811102551ADDGA1011+010509029GF103991011081012501031011KA1120M+01391KA2120N+00561MA1999999101381MD1210041+9999REMSYN088AAXX  07184 10640 42680 31301 10109 20081 30138 40255 52004 81831 333 10139 20056 81835;
0250106400999992000100806004+50110+008730FM-12+011299999V0201201N000510001519N0001001N1+00421+00391102461ADDAA124000091AY141061AY241061GA1091+000159999GF109991091999999999999999GJ103249KA1120M+01091KA2120N+00361MA1999999101261MD1710041+9999MW1471REMSYN100AAXX  08064 10640 41/01 91201 10042 20039 30126 40246 57004 74744 333 10109 20036 55054 70000 89/00;
0187106400999992000100809004+50110+008730FM-12+011299999V0201101N000510015019N0012001N1+00431+00401102431ADDAY141031AY221031GA1081+001509069GF108991081071001501999999MA1999999101231MD1710031+9999MW1401REMSYN082AAXX  08094 10640 41212 81101 10043 20040 30123 40243 57003 74042 887// 333 88705;
0193106400999992000100812004+50110+008730FM-12+011299999V0201201N00101220001CN0180001N1+01201+00801102131ADDAY141061AY221061GA1011+006009089GF106991011011008001001011MA1999999100971MD1710141+9999MW1011REMSYN088AAXX  08124 10640 41568 61202 10120 20080 30097 40213 57014 70142 81101 333 81820 86075;
0165106400999992000100815004+50110+008730FM-12+011299999V0201801N001510120019N0200001N1+01311+00431101911ADDGA1061+012009069GF108991061051012501071999MA1999999100761MD1710311+9999REMSYN082AAXX  08154 10640 42670 81803 10131 20043 30076 40191 57031 8657/ 333 86640 87360;
0203106400999992000100818004+50110+008730FM-12+011299999V0201801N001510105019N0180001N1+01211+00561101791ADDGA1061+010509069GF108991061051012501071999KA1120M+01371KA2120N+00341MA1999999100631MD1710131+9999REMSYN094AAXX  08184 10640 42668 81803 10121 20056 30063 40179 57013 8657/ 333 10137 20034 86635 88360;
0256106400999992000100906004+50110+008730FM-12+011299999V0202201N001010015019N0030001N1+00921+00891101311ADDAA124006891AY161061AY221061GA1081+001509069GF108991081061001501999999GJ101509KA1120M+01221KA2120N+00891MA1999999100151MD1710121+9999MW1631REMSYN106AAXX  09064 10640 41230 82202 10092 20089 30015 40131 57012 76362 886// 333 10122 20089 55025 70068 88705;
0187106400999992000100909004+50110+008730FM-12+011299999V0202201N001510021019N0030001N1+01031+01001101391ADDAY161031AY261031GA1081+002109069GF108991081051001501999999MA1999999100231MD1310061+9999MW1611REMSYN082AAXX  09094 10640 41230 82203 10103 20100 30023 40139 53006 76166 885// 333 88707;
0193106400999992000100912004+50110+008730FM-12+011299999V0203101N00051009001CN0200001N1+01181+00961101331ADDAY161061AY221061GA1031+004509089GF107991071081004501999999MA1999999100181MD1710021+9999MW1211REMSYN088AAXX  09124 10640 41470 73101 10118 20096 30018 40133 57002 72162 878// 333 83815 86625;
0165106400999992000100915004+50110+008730FM-12+011299999V0202001N00261012001CN0300001N1+01271+00761101131ADDGA1021+007509089GF106991051081008001001011MA1999999099981MD1710191+9999REMSYN082AAXX  09154 10640 42580 62005 10127 20076 39998 40113 57019 85801 333 82825 85650;
0203106400999992000100918004+50110+008730FM-12+011299999V0201601N00261012001CN0300001N1+01111+01091100991ADDGA1011+006009089GF106991061081008001001001KA1120M+01381KA2120N+00921MA1999999099841MD1710141+9999REMSYN094AAXX  09184 10640 42580 61605 10111 20109 39984 40099 57014 86800 333 10138 20092 81820 86650;
0256106400999992000101006004+50110+008730FM-12+011299999V0201301N004110045019N0100001N1+00941+00911099381ADDAA124006491AY161061AY261061GA1061+004509059GF108991061051004501071999GJ101509KA1120M+01111KA2120N+00711MA1999999098241MD1710431+9999MW1631REMSYN106AAXX  10064 10640 41460 81308 10094 20091 39824 49938 57043 76366 8657/ 333 10111 20071 55025 70064 86615;
0193106400999992000101009004+50110+008730FM-12+011299999V0202201N005110300019N0300001N1+01211+00891099551ADDAY161031AY221031GA1031+006009089GF105991041081008001031011MA1999999098421MD1210181+9999MW1021REMSYN088AAXX  10094 10640 41580 52210 10121 20089 39842 49955 52018 70262 84831 333 83820 83360;
0187106400999992000101012004+50110+008730FM-12+011299999V0202101N004110060019N0300001N1+01171+00561099791ADDAY161061AY221061GA1061+006009029GF106991061021008001999999MA1999999098651MD1210311+9999MW1021REMSYN082AAXX  10124 10640 41580 62108 10117 20056 39865 49979 52031 70262 862// 333 86820;
0212106400999992000101015004+50110+008730FM-12+011299999V0202301N00311012001CN0250001N1+00961+00671099841ADDAY161031AY221031GA1041+006009089GF106991061081008001999999MA1999999098691MD1110051+9999MW1251REMSYN088AAXX  10154 10640 42575 62306 10096 20067 39869 49984 51000 72562 868// 333 84820 83633;EQDQ01+000002APC3  
0231106400999992000101018004+50110+008730FM-12+011299999V0202001N003610300019N0100001N1+00831+00581099951ADDAY181061AY261061GA1011+004509089GF105991031081004501031001KA1120M+01281KA2120N+00831MA1999999098801MD1210111+9999MW1251REMSYN100AAXX  10184 10640 41460 52007 10083 20058 39880 49995 52011 72586 83830 333 10128 20083 81815 83630;
0262106400999992000101106004+50110+008730FM-12+011299999V0201701N004610120019N0150001N1+00821+00741098731ADDAA124003791AY161061AY221061GA1061+012009069GF108991061051012501071999GJ102169KA1120M+00931KA2120N+00661MA1999999097591MD1710201+9999MW1631REMSYN112AAXX  11064 10640 41665 81709 10082 20074 39759 49873 57020 76362 8657/ 333 10093 20066 55036 70037 86640 88359;
0237106400999992000101109004+50110+008730FM-12+011299999V0201601N003610120019N0200001N1+00941+00911098771ADDAY161031AY261031GA1011+007509089GA2051+012009069GA3081+027009039GF108991051081004501071999MA1999999097641MD1210091+9999MW1601REMSYN100AAXX  11094 10640 41470 81607 10094 20091 39764 49877 52009 76066 8587/ 333 81825 85640 88359 91112;
0237106400999992000101112004+50110+008730FM-12+011299999V0201801N005110300019N0300001N1+01331+01081098861ADDAY161061AY261061GA1011+007509089GA2041+012009069GA3081+030009039GF108991041081004501071999MA1999999097741MD1210131+9999MW1211REMSYN100AAXX  11124 10640 41480 81810 10133 20108 39774 49886 52013 72166 8487/ 333 81825 84640 88360 91113;
0226106400999992000101115004+50110+008730FM-12+011299999V0201801N005110105019N0300001N1+01401+00941098971ADDGA1031+006009069GA2051+010509069GA3071+033009039GF108991051051008001071999MA1999999097851MD1210111+9999OA149900931REMSYN100AAXX  11154 10640 42580 81810 10140 20094 39785 49897 52011 8557/ 333 83620 85635 87361 91118 91211;
0292106400999992000101118004+50110+008730FM-12+011299999V0201801N002610090019N0210001N1+01051+01011099321ADDAY181061AY221061GA1031+004509089GA2061+009009069GA3071+030009039GF108991061081004501071999KA1120M+01411KA2120N+00811MA1999999098181MD1110331+9999MW1251OA149901291REMSYN118AAXX  11184 10640 41471 81805 10105 20101 39818 49932 51033 72582 8687/ 333 10141 20081 83815 86630 87360 91125 91213;
0256106400999992000101206004+50110+008730FM-12+011299999V0201501N002112200019N0350001N1+00971+00941100021ADDAA124007191AY181061AY221061GA1021+006309059GF103991021051022501031011GJ100009KA1120M+01111KA2120N+00961MA1999999098871MD1210171+9999MW1021REMSYN106AAXX  12064 10640 41881 31504 10097 20094 39887 40002 52017 70282 82531 333 10111 20096 55000 70071 82621;
0165106400999992000101209004+50110+008730FM-12+011299999V0201601N00261009001CN0300001N1+01181+01091100221ADDGA1011+005409089GF106991051081004501031011MA1999999099081MD1210201+9999REMSYN082AAXX  12094 10640 42480 61605 10118 20109 39908 40022 52020 85831 333 81818 85656;
0187106400999992000101212004+50110+008730FM-12+011299999V0201701N00211030001CN0350001N1+01531+01011100261ADDGA1011+006009089GA2031+030009039GF106991021081008001031011MA1999999099131MD1210081+9999REMSYN088AAXX  12124 10640 42581 61704 10153 20101 39913 40026 52008 82831 333 81820 83360 84075;
0165106400999992000101215004+50110+008730FM-12+011299999V0201601N001010300019N0300001N1+01501+01081100361ADDGA1051+030009039GF107991051001999999031011MA1999999099231MD1210071+9999REMSYN082AAXX  12154 10640 42980 71602 10150 20108 39923 40036 52007 85031 333 85360 86075;
0306106400999992000101306004+50110+008730FM-12+011299999V0202201N001010450019N0300001N1+01101+01071101161ADDAA124000391AY161061AY221061GA1011+001809079GA2061+045009039GF107991011061001501071071GG1009031009019999GJ101929KA1120M+01441KA2120N+01101MA1999999100011MD1210181+9999MW1031REMSYN122AAXX  13064 10640 41280 72202 10110 20107 30001 40116 52018 70362 81677 333 10144 20110 55032 70003 81706 86365 444 20131;
0165106400999992000101309004+50110+008730FM-12+011299999V0202201N00151030001CN0200001N1+01201+01161101341ADDGA1031+007509069GF107991031051001501071999MA1999999100201MD1210221+9999REMSYN082AAXX  13094 10640 42270 72203 10120 20116 30020 40134 52022 8357/ 333 83625 87361;
0187106400999992000101312004+50110+008730FM-12+011299999V0202001N000510180019N0200001N1+01371+01121101361ADDGA1011+007509089GA2061+018009069GF107991061081008001071999MA1999999100211MD1210041+9999REMSYN088AAXX  13124 10640 42570 72001 10137 20112 30021 40136 52004 8687/ 333 81825 86656 87461;
0187106400999992000101315004+50110+008730FM-12+011299999V0202201N00101015001CN0200001N1+01391+01111101451ADDGA1011+007509089GA2041+015009069GF107991041081008001071999MA1999999100301MD1210071+9999REMSYN088AAXX  13154 10640 42570 72202 10139 20111 30030 40145 52007 8487/ 333 81825 84650 87460;
0203106400999992000101318004+50110+008730FM-12+011299999V0202401N00101030001CN0200001N1+01321+01191101581ADDGA1011+006009089GF107991011011008001071999KA1120M+01431KA2120N+01091MA1999999100431MD1210131+9999REMSYN094AAXX  13184 10640 42570 72402 10132 20119 30043 40158 52013 8117/ 333 10143 20109 81820 87359;
0244106400999992000101406004+50110+008730FM-12+011299999V0200301N001010003019N0002001N1+00861+00841101781ADDAA124000791AY141061AY241061GA1091+999999999GF109991091999999999999999GJ100369KA1120M+01321KA2120N+00841MA1999999100611MD1210021+9999MW1441REMSYN094AAXX  14064 10640 41/02 90302 10086 20084 30061 40178 52002 74444 333 10132 20084 55006 79999;
0193106400999992000101409004+50110+008730FM-12+011299999V0200401N001512200019N0030001N1+01081+01051101831ADDAY141031AY211031GA1021+002109079GF104991021061002501001011MA1999999100671MD1110061+9999MW1101REMSYN088AAXX  14094 10640 41330 40403 10108 20105 30067 40183 51006 71041 82601 333 82707 84075;
0193106400999992000101412004+50110+008730FM-12+011299999V0200201N001019999999N0200001N1+01571+01251101771ADDAY141061AY211061GA1011+033009039GF107991011001999999031011MA1999999100631MD1210051+9999MW1021REMSYN088AAXX  14124 10640 41970 70202 10157 20125 30063 40177 52005 70241 81031 333 81361 87075;
0165106400999992000101415004+50110+008730FM-12+011299999V0202401N00211220001CN0150001N1+01611+01301101601ADDGA1031+030009039GF107991031001017501031011MA1999999100461MD1710211+9999REMSYN082AAXX  14154 10640 42765 72404 10161 20130 30046 40160 57021 83031 333 83360 87075;
0203106400999992000101418004+50110+008730FM-12+011299999V0200101N00261220001CN0180001N1+01461+01331101561ADDGA1021+030009039GF107991021001017501031011KA1120M+01681KA2120N+00861MA1999999100421MD1710011+9999REMSYN094AAXX  14184 10640 42768 70105 10146 20133 30042 40156 57001 82031 333 10168 20086 82360 87075;
0240106400999992000101506004+50110+008730FM-12+011299999V0200101N003610018019N0021001N1+01261+01231101291ADDAA124000091GA1071+001809069GF107991071061001501999999GJ102049KA1120M+01461KA2120N+01221MA1999999100141MD1810111+9999MW1101REMSYN106AAXX  15064 10640 41221 70107 10126 20123 30014 40129 58011 710// 876// 333 10146 20122 55034 70000 87706;
0215106400999992000101509004+50110+008730FM-12+011299999V0203501N002110300019N0060001N1+01401+01371101171ADDAY121031AY221031GA1031+003909079GA2051+030009039GF107991031061004501071011MA1999999100031MD1710121+9999MW1101REMSYN094AAXX  15094 10640 41456 73504 10140 20137 30003 40117 57012 71022 83671 333 83713 85360 87075;
0165106400999992000101512004+50110+008730FM-12+011299999V0200201N002619999999N0100001N1+01921+01521100851ADDGA1011+030009039GF105991011001999999031011MA1999999099731MD1710301+9999REMSYN082AAXX  15124 10640 42960 50205 10192 20152 39973 40085 57030 81031 333 81360 84075;
0159106400999992000101515004+50110+008730FM-12+011299999V0209999C000010870019N0200001N1+02211+01521100601ADDGA1051+087009019GF105991001001999999001011MA1999999099501MD1710231+9999REMSYN076AAXX  15154 10640 42970 50300 10221 20152 39950 40060 57023 80001 333 85079;
0203106400999992000101518004+50110+008730FM-12+011299999V0203601N002619999999N0200001N1+01651+01431100611ADDGA1021+036009039GF107991021001999999031011KA1120M+02271KA2120N+01241MA1999999099481MD1710031+9999REMSYN094AAXX  15184 10640 42970 73605 10165 20143 39948 40061 57003 82031 333 10227 20124 82362 87075;
0234106400999992000101606004+50110+008730FM-12+011299999V0201901N003110300019N0100001N1+01421+01351100911ADDAA124000091GA1031+015009069GF105991031051017501031011GJ103309KA1120M+01731KA2120N+01251MA1999999099771MD1310211+9999REMSYN106AAXX  16064 10640 42760 51906 10142 20135 39977 40091 53021 83531 333 10173 20125 55055 70000 83650 83360;
0145106400999992000101609004+50110+008730FM-12+011299999V0201801N003112200019N0250001N1+01581+01191101121ADDGA1011+006009089GF103991011011008001001011MA1999999099991REMSYN076AAXX  16094 10640 42575 31806 10158 20119 39999 40112 81101 333 81820 83079;
0159106400999992000101612004+50110+008730FM-12+011299999V0201901N004112200019N0250001N1+01831+99999101111ADDGA1011+007209089GF103991011011012501001011MA1999999099991MD1210021+9999REMSYN076AAXX  16124 10640 42675 31908 10183 39999 40111 52002 81101 333 81824 83075;
0165106400999992000101615004+50110+008730FM-12+011299999V0201801N003119999999N0300001N1+01921+00911101241ADDGA1021+027009039GF106991021001999999031011MA1999999100121MD1210131+9999REMSYN082AAXX  16154 10640 42980 61806 10192 20091 30012 40124 52013 82031 333 82359 86075;
0204106400999992000101618004+50110+008730FM-12+011299999V0201901N002110300019N0250001N1+01641+01051101481ADDGA1021+018009069GA2031+030009039GF106991021051017501031011KA1120M+01961KA2120N+01361MD1210221+9999REMSYN094AAXX  16184 10640 42775 61904 10164 20105 40148 52022 82531 333 10196 20136 82656 83360 86075;
0253106400999992000101706004+50110+008730FM-12+011299999V0202101N00261007501CN0300001N1+01201+01091102221ADDAA124999999GA1021+006009069GF106991061051008001031001GJ105349KA1120M+01641KA2120N+01161MA1999999101061MD1210161+9999REMSYN106AAXX  17064 10640 42580 62105 10120 20109 30106 40222 52016 86530 333 10164 20116 55089 79999 82620 86550;EQDQ01  99992PRCP24
0165106400999992000101709004+50110+008730FM-12+011299999V0202101N00261009001CN0250001N1+01271+01071102431ADDGA1011+004509089GF107991061081004501031999MA1999999101271MD1210211+9999REMSYN082AAXX  17094 10640 42475 72105 10127 20107 30127 40243 52021 8683/ 333 81815 86640;
0165106400999992000101712004+50110+008730FM-12+011299999V0202301N001510060019N0300001N1+01411+01011102541ADDGA1051+006009089GF107991071081008001999999MA1999999101381MD1210111+9999REMSYN082AAXX  17124 10640 42580 72303 10141 20101 30138 40254 52011 878// 333 85820 87650;
0187106400999992000101715004+50110+008730FM-12+011299999V0202201N00101015001CN0300001N1+01441+00911102591ADDGA1021+006009089GA2041+015009069GF106991041081008001031999MA1999999101431MD1110051+9999REMSYN088AAXX  17154 10640 42580 62202 10144 20091 30143 40259 51005 8483/ 333 82820 84650 84360;
0197106400999992000101718004+50110+008730FM-12+011299999V0202101N001012200019N0300001N1+01231+01051102711ADDGA1021+012009059GF102991021051012501001001KA1120M+01491KA2120N+01191MA1999999101541MD1210081+9999REMSYN088AAXX  17184 10640 42680 22102 10123 20105 30154 40271 52008 82500 333 10149 20119 82640;
0267106400999992000101806004+50110+008730FM-12+011299999V0203101N000510009019N0010001N1+00701+00681102801ADDAA124999999AY141061GA1081+000909069GF108991081061000751999999GJ100849KA1120M+01241KA2120N+00631MA1999999101611MD1410001+9999MW1281REMSYN106AAXX  18064 10640 41110 83101 10070 20068 30161 40280 54000 7284/ 886// 333 10124 20063 55014 79999 88703;EQDQ01  99992PRCP24
0181106400999992000101809004+50110+008730FM-12+011299999V0200801N000510006019N0009001N1+00691+99999102891ADDAY141031AY221031GA1091+000609999GF109991091999999999999999MA1999999101701MD1210091+9999MW1451REMSYN076AAXX  18094 10640 41/09 90801 10069 20076 30170 40289 52009 74542 333 89/02;
0187106400999992000101812004+50110+008730FM-12+011299999V0200801N000519999999N0060001N1+00841+00801102761ADDAY141061AY221061GA1031+000909079GF107991999999002501999999MA1999999101581MD1710121+9999MW1101REMSYN082AAXX  18124 10640 41356 70801 10084 20080 30158 40276 57012 71042 333 83703 87620;
0165106400999992000101815004+50110+008730FM-12+011299999V0200701N00101030001CN0080001N1+01041+00921102621ADDGA1031+006009069GF108991031051008001031999MA1999999101451MD1710171+9999REMSYN082AAXX  18154 10640 42558 80702 10104 20092 30145 40262 57017 8353/ 333 83620 87356;
0203106400999992000101818004+50110+008730FM-12+011299999V0200601N001510300019N0070001N1+01041+00941102531ADDGA1021+006009069GF107991021051008001031999KA1120M+01051KA2120N+00621MA1999999101361MD1710121+9999REMSYN094AAXX  18184 10640 42557 70603 10104 20094 30136 40253 57012 8253/ 333 10105 20062 82620 87360;
0276106400999992000101906004+50110+008730FM-12+011299999V0201601N001010075019N0060001N1+00961+00931102111ADDAA124001091AY161061GA1021+002709079GA2051+007509069GF108991081051002501999999GJ100009KA1120M+01041KA2120N+00961MA1999999100941MD1610101+9999MW1611REMSYN118AAXX  19064 10640 11356 81602 10096 20093 30094 40211 56010 7616/ 885// 333 10104 20096 55000 70010 82709 85625 88636;
0193106400999992000101909004+50110+008730FM-12+011299999V0201401N00151030001CN0030001N1+01031+01001102151ADDAY161031AY221031GA1021+003009079GF108991021061002501021999MA1999999100981MD1110051+9999MW1611REMSYN088AAXX  19094 10640 41330 81403 10103 20100 30098 40215 51005 76162 8262/ 333 82710 88520;
0193106400999992000101912004+50110+008730FM-12+011299999V0201401N00151002101CN0050001N1+01131+01101102141ADDAY161061AY261061GA1031+003009079GF108991081061002501999999MA1999999101001MD1410001+9999MW1511REMSYN088AAXX  19124 10640 41350 81403 10113 20110 30100 40214 54000 75166 886// 333 83710 87720;
0193106400999992000101915004+50110+008730FM-12+011299999V0201901N00101001201CN0025001N1+01191+01161102211ADDAY161031AY251031GA1031+001809079GF108991081071001501999999MA1999999101051MD1210051+9999MW1511REMSYN088AAXX  19154 10640 41225 81902 10119 20116 30105 40221 52005 75165 887// 333 83706 88710;
0225106400999992000101918004+50110+008730FM-12+011299999V0202101N001010018019N0025001N1+01211+01191102371ADDAY151061AY221061GA1081+001809069GF108991081071001501999999KA1120M+01211KA2120N+00951MA1999999101211MD1210161+9999MW1201REMSYN094AAXX  19184 10640 41225 82102 10121 20119 30121 40237 52016 72052 887// 333 10121 20095 88706;
0254106400999992000102006004+50110+008730FM-12+011299999V0200601N00101007501CN0150001N1+01211+01191102431ADDAA124003391AY121061GA1011+003909079GF108991081051008001999999GJ100009KA1120M+01221KA2120N+01101MA1999999101271MD1710041+9999MW1021REMSYN112AAXX  20064 10640 41565 80602 10121 20119 30127 40243 57004 7022/ 885// 333 10122 20110 55000 70033 81713 88626;
0165106400999992000102009004+50110+008730FM-12+011299999V0201001N00211004201CN0140001N1+01231+01201102431ADDGA1031+003009079GF108991081061004501999999MA1999999101271MD1410001+9999REMSYN082AAXX  20094 10640 42464 81004 10123 20120 30127 40243 54000 886// 333 83710 88716;
0165106400999992000102012004+50110+008730FM-12+011299999V0201001N00151004201CN0150001N1+01371+01261102321ADDGA1031+003009079GF108991081051004501999999MA1999999101161MD1710061+9999REMSYN082AAXX  20124 10640 42465 81003 10137 20126 30116 40232 57006 885// 333 83710 87630;
0197106400999992000102018004+50110+008730FM-12+011299999V0200801N001510048019N0180001N1+01341+01191102191ADDGA1081+004809059GF108991081051004501999999KA1120M+01461KA2120N+01191MA1999999101031MD1710021+9999REMSYN088AAXX  20184 10640 42468 80803 10134 20119 30103 40219 57002 885// 333 10146 20119 88616;
0262106400999992000102106004+50110+008730FM-12+011299999V0201001N001519999999N0070001N1+00981+00951102381ADDAA124000191AY121061AY221061GA1031+030009039GF105991031001999999031011GJ100249KA1120M+01351KA2120N+00931MA1999999101211MD1210111+9999MW1101REMSYN112AAXX  21064 10640 41957 51003 10098 20095 30121 40238 52011 71022 83031 333 10135 20093 55004 70001 83360 83074;
0193106400999992000102109004+50110+008730FM-12+011299999V0201601N00101075001CN0060001N1+01171+01141102581ADDAY121031AY221031GA1021+002409079GF105991021061002501031011MA1999999101411MD1210201+9999MW1101REMSYN088AAXX  21094 10640 41356 51602 10117 20114 30141 40258 52020 71022 82631 333 82708 85074;
0165106400999992000102112004+50110+008730FM-12+011299999V0201601N00101220001CN0150001N1+01581+01211102601ADDGA1021+002409079GF105991021061002501001011MA1999999101451MD1210041+9999REMSYN082AAXX  21124 10640 42365 51602 10158 20121 30145 40260 52004 82601 333 82708 85074;
0159106400999992000102115004+50110+008730FM-12+011299999V0202401N001010300019N0200001N1+01641+01351102661ADDGA1051+030009079GF105991051001999999071011MA1999999101511MD1210061+9999REMSYN076AAXX  21154 10640 42970 52402 10164 20135 30151 40266 52006 85071 333 85360;
0197106400999992000102118004+50110+008730FM-12+011299999V0201501N001010600019N0080001N1+01361+01251102821ADDGA1061+060009019GF106991001001999999001021KA1120M+01801KA2120N+00961MA1999999101661MD1210131+9999REMSYN088AAXX  21184 10640 42958 61502 10136 20125 30166 40282 52013 80002 333 10180 20096 86070;
0285106400999992000102206004+50110+008730FM-12+011299999V0200501N000510003019N0001001N1+00781+00761103131ADDAA124000091AY141061AY241061GA1091+000309999GF109991091999999999999999GJ102589KA1120M+99999KA2120N+99999MA1999999101941MD1310071+9999MW1451REMSYN100AAXX  22064 10640 41/01 90501 10078 20076 30194 40313 53007 74544 333 10078 20136 55043 70000 89/01;EQDQ01 +00783ATMM  Q02 +01363ATMM  
0181106400999992000102209004+50110+008730FM-12+011299999V0201301N001010003019N0004001N1+00891+00871103251ADDAY141031AY241031GA1091+000309999GF109991091999999999999999MA1999999102061MD1210121+9999MW1451REMSYN076AAXX  22094 10640 41/04 91302 10089 20087 30206 40325 52012 74544 333 89/01;
0187106400999992000102212004+50110+008730FM-12+011299999V0202301N000510015019N0030001N1+01231+01201103161ADDAY141061AY241061GA1071+001509059GF107991071071001501999999MA1999999101991MD1710021+9999MW1101REMSYN082AAXX  22124 10640 41230 72301 10123 20120 30199 40316 57002 71044 877// 333 87605;
0187106400999992000102215004+50110+008730FM-12+011299999V0203201N001012200019N0080001N1+01471+01281102971ADDAY111031AY201031GA1021+000309069GF102991021061000251001011MA1999999101811MD1710181+9999MW1101REMSYN082AAXX  22154 10640 41058 23202 10147 20128 30181 40297 57018 71010 82601 333 82701;
0213106400999992000102218004+50110+008730FM-12+011299999V0202201N001010003019N0002001N1+00991+00961102971ADDAY141061AY241061GA1091+999999999GF109991091999999999999999KA1120M+01501KA2999N+00711MA1999999101791MD1710021+9999MW1451REMSYN082AAXX  22184 10640 41/02 92202 10099 20096 30179 40297 57002 74544 333 10150 20071;
0250106400999992000102306004+50110+008730FM-12+011299999V0201301N001010001519N0005001N1+00791+00771102841ADDAA124000091AY141061AY241061GA1091+000159999GF109991091999999999999999GJ102589KA1120M+00991KA2120N+00671MA1999999101651MD1710021+9999MW1451REMSYN100AAXX  23064 10640 41/05 91302 10079 20077 30165 40284 57002 74544 333 10099 20067 55043 70000 89/00;
0193106400999992000102315004+50110+008730FM-12+011299999V0202301N00101000601CN0050001N1+01171+01141102501ADDAY141031AY221031GA1031+000909079GF108991081071000751999999MA1999999101331MD1710211+9999MW1101REMSYN088AAXX  23154 10640 41150 82302 10117 20114 30133 40250 57021 71042 887// 333 83703 87704;
0181106400999992000102318004+50110+008730FM-12+011299999V0201401N001010015019N0040001N1+00961+99999102741ADDAY141061AY241061GA1081+001509059GF108991081071001501999999MA1999999101561MD1710061+9999MW1101REMSYN076AAXX  23184 10640 41240 81402 10096 30156 40274 57006 71044 887// 333 88605;
0248106400999992000102406004+50110+008730FM-12+011299999V0202501N001510003019N0015001N1+01211+01191102131ADDAA124003191AY141061GA1051+000309069GF105991051061000251001001GJ100189KA1120M+01221KA2120N+01051MA1999999100971MD1210011+9999MW1401REMSYN106AAXX  24064 10640 41015 52503 10121 20119 30097 40213 52001 7404/ 85600 333 10122 20105 55003 70031 85701;
0161106400999992000102409004+50110+008730FM-12+011299999V0202401N001519999999N0300001N1+01471+01231102321ADDAY141031AY261031GA1011+027009079MA1999999101171MD1210191+9999MW1011REMSYN082AAXX  24094 10640 41980 /2403 10147 20123 30117 40232 52019 70146 81031 333 81359;
0165106400999992000102412004+50110+008730FM-12+011299999V0202301N00361012001CN0300001N1+01541+00851102281ADDGA1031+005409069GF105991051081008001001011MA1999999101131MD1710031+9999REMSYN082AAXX  24124 10640 42580 52307 10154 20085 30113 40228 57003 85801 333 83618 83824;
0187106400999992000102415004+50110+008730FM-12+011299999V0202301N002110150019N0300001N1+01511+00791102241ADDGA1011+010509089GA2051+015009069GF106991051081012501001011MA1999999101091MD1710011+9999REMSYN088AAXX  24154 10640 42680 62304 10151 20079 30109 40224 57001 85801 333 81835 85650 85075;
0197106400999992000102418004+50110+008730FM-12+011299999V0202101N002110150019N0300001N1+01331+00831102231ADDGA1061+015009059GF107991061051017501071999KA1120M+01631KA2120N+01191MA1999999101071MD1710071+9999REMSYN088AAXX  24184 10640 42780 72104 10133 20083 30107 40223 57007 8657/ 333 10163 20119 86650;
0228106400999992000102506004+50110+008730FM-12+011299999V0202001N004110090019N0100001N1+01131+00971101641ADDAA124000091GA1071+009009059GF107991071051012501999999GJ103909KA1120M+01341KA2120N+01041MA1999999100481MD1710231+9999REMSYN100AAXX  25064 10640 42660 72008 10113 20097 30048 40164 57023 875// 333 10134 20104 55065 70000 87630;
0187106400999992000102509004+50110+008730FM-12+011299999V0202101N003610750019N0180001N1+01301+01121101551ADDGA1031+009009069GA2071+075009009GF107991031051008001031011MA1999999100401MD1710091+9999REMSYN088AAXX  25094 10640 42568 72107 10130 20112 30040 40155 57009 83531 333 83630 87075 91113;
0187106400999992000102512004+50110+008730FM-12+011299999V0202101N004110300019N0120001N1+01521+01351101381ADDGA1041+007209069GA2071+030009039GF107991041051008001031999MA1999999100241MD1710121+9999REMSYN088AAXX  25124 10640 42562 72108 10152 20135 30024 40138 57012 8453/ 333 84624 87360 91113;
0174106400999992000102515004+50110+008730FM-12+011299999V0202101N00411004201CN0200001N1+01601+01471999999ADDGA1021+004509069GF108991081051004501999999MA1999999100071MD1710171+9999ME1100209REMSYN082AAXX  25154 10640 42470 82108 10160 20147 30007 41020 57017 885// 333 82615 87630;
0231106400999992000102518004+50110+008730FM-12+011299999V0202101N00361004201CN0150001N1+01531+01431101251ADDAY161061AY221061GA1041+005109069GF108991081051004501999999KA1120M+01621KA2120N+01111MA1999999100111MD1110041+9999MW1601REMSYN100AAXX  25184 10640 41465 82107 10153 20143 30011 40125 51004 76062 885// 333 10162 20111 84617 88630;
0262106400999992000102606004+50110+008730FM-12+011299999V0202101N00211001201CN0200001N1+01181+01151101191ADDAA124001691AY161061AY261061GA1011+001809079GF106991061051001501031011GJ100009KA1120M+01531KA2120N+01171MA1999999100141MD1210051+9999MW1211REMSYN112AAXX  26064 10640 41270 62104 10118 20115 30014 40119 52005 72166 86531 333 10153 20117 55000 70016 81706 86630;
0165106400999992000102609004+50110+008730FM-12+011299999V0202801N00311007501CN0250001N1+01171+00741101461ADDGA1041+009009069GF107991071051008001999999MA1999999100301MD1210161+9999REMSYN082AAXX  26094 10640 42575 72806 10117 20074 30030 40146 52016 875// 333 84630 85640;
0165106400999992000102612004+50110+008730FM-12+011299999V0202301N00311220001CN0350001N1+01331+00591101561ADDGA1031+010509089GF105991041081008001001011MA1999999100411MD1210121+9999REMSYN082AAXX  26124 10640 42581 52306 10133 20059 30041 40156 52012 84801 333 83835 83075;
0187106400999992000102615004+50110+008730FM-12+011299999V0202401N00311013501CN0350001N1+01361+00661101551ADDGA1021+010509089GA2031+013509069GF105991031081008001001011MA1999999100401MD1810011+9999REMSYN088AAXX  26154 10640 42581 52406 10136 20066 30040 40155 58001 83801 333 82835 83645 91113;
0197106400999992000102618004+50110+008730FM-12+011299999V0202201N003112200019N0300001N1+01131+00711101721ADDGA1031+012009029GF103991031051012501031001KA1120M+01441KA2120N+01131MA1999999100561MD1210151+9999REMSYN088AAXX  26184 10640 42680 32206 10113 20071 30056 40172 52015 83530 333 10144 20113 83840;
0228106400999992000102706004+50110+008730FM-12+011299999V0202201N002110150019N0250001N1+00821+00721102021ADDAA124999929GA1061+015009059GF106991061051017501031011GJ102349KA1120M+01131KA2120N+00821MA1999999100841MD1210131+9999REMSYN100AAXX  27064 10640 42775 62204 10082 20072 30084 40202 52013 86531 333 10113 20082 55039 79999 86650;
0165106400999992000102709004+50110+008730FM-12+011299999V0202101N002610138019N0250001N1+01041+00931102111ADDGA1061+013809069GF106991061051012501031011MA1999999100941MD1210111+9999REMSYN082AAXX  27094 10640 42675 62105 10104 20093 30094 40211 52011 86531 333 86646 85360;
0266106400999992000102718004+50110+008730FM-12+011299999V0202001N004110081019N0150001N1+01191+00951101981ADDAY161061AY221061GA1061+008109069GF108991061051008001021999KA1120M+99999KA2120N+99999MA1999999100821MD1710031+9999MW1601REMSYN100AAXX  27184 10640 42565 82008 10119 20095 30082 40198 57003 76062 8652/ 333 10095 20119 86627 87360;EQDQ01 +00953ATMM  Q02 +01193ATMM  
0256106400999992000102806004+50110+008730FM-12+011299999V0202101N002610060019N0120001N1+01071+01041102051ADDAA124001691AY161061AY221061GA1071+006009059GF107991071051008001999999GJ100009KA1120M+01221KA2120N+01031MA1999999100881MD1710021+9999MW1021REMSYN106AAXX  28064 10640 41562 72105 10107 20104 30088 40205 57002 70262 875// 333 10122 20103 55000 70016 87620;
0159106400999992000102809004+50110+008730FM-12+011299999V0202001N002610060019N0150001N1+01121+01061102111ADDGA1071+006009059GF107991071051004501999999MA1999999100951MD1210031+9999REMSYN076AAXX  28094 10640 42465 72005 10112 20106 30095 40211 52003 875// 333 87620;
0153106400999992000102812004+50110+008730FM-12+011299999V0201801N003110045019N0200001N1+01321+01131999999ADDGA1071+004509059GF107991071051004501999999MA1999999100751MD1710171+9999REMSYN070AAXX  28124 10640 42470 71806 10132 20113 30075 57017 875// 333 87615;
0159106400999992000102815004+50110+008730FM-12+011299999V0201601N001510600019N0200001N1+01421+01111101651ADDGA1061+060009019GF106991001001999999001011MA1999999100501MD1710241+9999REMSYN076AAXX  28154 10640 42970 61603 10142 20111 30050 40165 57024 80001 333 86070;
0203106400999992000102818004+50110+008730FM-12+011299999V0201501N00211030001CN0200001N1+01271+00991101451ADDGA1011+009009069GF106991011051008001031011KA1120M+01441KA2120N+01071MA1999999100301MD1710201+9999REMSYN094AAXX  28184 10640 42570 61504 10127 20099 30030 40145 57020 81531 333 10144 20107 81630 86077;
0247106400999992000102906004+50110+008730FM-12+011299999V0202101N003610300019N0150001N1+01251+00961101501ADDAA124999999GA1021+008409059GF107991021051008001031999GJ100609KA1120M+01221KA2120N+01031MA1999999100351MD1210161+9999REMSYN100AAXX  29064 10640 42565 72107 10125 20096 30035 40150 52016 8253/ 333 10122 20103 55010 79999 82628;EQDQ01  99992PRCP24
0187106400999992000102912004+50110+008730FM-12+011299999V0202101N005710750019N0300001N1+01341+00521101651ADDGA1011+006009089GA2031+030009039GF105991021081008001081011MA1999999100501MD1710081+9999REMSYN088AAXX  29124 10640 42580 52111 10134 20052 30050 40165 57008 82881 333 81820 83360 91118;
0187106400999992000102915004+50110+008730FM-12+011299999V0202401N003610300019N0250001N1+01231+00781101541ADDGA1011+004509089GA2031+006309069GF105991031081008001031011MA1999999100391MD1710011+9999REMSYN088AAXX  29154 10640 42575 52407 10123 20078 30039 40154 57001 83831 333 81815 83621 91118;
0273106400999992000103006004+50110+008730FM-12+011299999V0201901N004110105019N0300001N1+01131+00651100771ADDAA124000291GA1051+010509069GA2031+030009039GF106991051051012501031011GJ102469KA1120M+01261KA2120N+01101MA1999999099621MD1610221+9999OA149900771REMSYN118AAXX  30064 10640 42680 61908 10113 20065 39962 40077 56022 85531 333 10126 20110 55041 70002 85635 83360 91115 91213;
0226106400999992000103009004+50110+008730FM-12+011299999V0201901N006210300019N0300001N1+01251+00651100391ADDGA1021+010509069GA2041+030009039GA3071+036009049GF107991021051012501071999MA1999999099251MD1710371+9999OA149900881REMSYN100AAXX  30094 10640 42680 71912 10125 20065 30925 40039 57037 8257/ 333 82635 84360 87462 91117 91212;
0226106400999992000103012004+50110+008730FM-12+011299999V0201801N00461036001CN0300001N1+01431+00611099951ADDGA1011+010509069GA2041+030009039GA3081+036009049GF108991011051012501071999MA1999999098821MD1710431+9999OA149900881REMSYN100AAXX  30124 10640 42680 81809 10143 20061 39882 49995 57043 8157/ 333 81635 84360 88462 91117 91212;
0187106400999992000103015004+50110+008730FM-12+011299999V0201801N00411030001CN0300001N1+01621+00621099581ADDGA1011+009009089GA2031+010809069GF108991031081008001071999MA1999999098461MD1710361+9999REMSYN088AAXX  30154 10640 42580 81808 10162 20062 39846 49958 57036 8387/ 333 81830 83636 84461;
0270106400999992000103018004+50110+008730FM-12+011299999V0202001N007710099019N0250001N1+01581+00951099571ADDAY161061AY221061GA1051+009909069GA2071+033009049GF108991051051012501071999KA1120M+01751KA2120N+00951MA1999999098441MD1710041+9999MW1601OA149901491REMSYN112AAXX  30184 10640 42675 82015 10158 20095 39844 49957 57004 76062 8557/ 333 10175 20095 85633 87461 91129 91220;
0262106400999992000103106004+50110+008730FM-12+011299999V0202001N00311030001CN0200001N1+00801+00651100101ADDAA124004591AY161061AY221061GA1021+007509069GF108991021051008001041999GJ100249KA1120M+01611KA2120N+00791MA1999999098941MD1210091+9999MW1021REMSYN112AAXX  31064 10640 41570 82006 10080 20065 39894 40010 52009 70262 8254/ 333 10161 20079 55004 70045 82625 87461;
0165106400999992000103109004+50110+008730FM-12+011299999V0201901N00311030001CN0250001N1+00911+00721100151ADDGA1041+009009069GF108991041051008001021999MA1999999099001MD1310061+9999REMSYN082AAXX  31094 10640 42575 81906 10091 20072 39900 40015 53006 8452/ 333 84630 88462;
0187106400999992000103112004+50110+008730FM-12+011299999V0201901N004610105019N0350001N1+01041+00771100161ADDGA1031+007509089GA2071+010509069GF107991071081008001999999MA1999999099011MD1210041+9999REMSYN088AAXX  31124 10640 42581 71909 10104 20077 39901 40016 52004 878// 333 83825 87635 91115;
0187106400999992000103115004+50110+008730FM-12+011299999V0201901N003110063019N0300001N1+01091+00761100221ADDGA1051+006309069GA2071+030009039GF107991051051008001031999MA1999999099081MD1210091+9999REMSYN088AAXX  31154 10640 42580 71906 10109 20076 39908 40022 52009 8553/ 333 85621 87360 91115;
0231106400999992000103118004+50110+008730FM-12+011299999V0201901N002610078019N0150001N1+00961+00931100461ADDAY161061AY221061GA1081+007809069GF108991081051008001999999KA1120M+01121KA2120N+00791MA1999999099311MD1210221+9999MW1611REMSYN100AAXX  31184 10640 41565 81905 10096 20093 39931 40046 52022 76162 885// 333 10112 20079 88626 91115;
0262106400999992000110106004+50110+008730FM-12+011299999V0201901N00361009001CN0250001N1+00931+00851100701ADDAA124003391AY161061AY221061GA1021+005109089GF106991061081004501031011GJ100009KA1120M+01021KA2120N+00881MA1999999099541MD1510021+9999MW1211REMSYN112AAXX  01064 10640 41475 61907 10093 20085 39954 40070 55002 72162 86831 333 10102 20088 55000 70033 82817 85640;
0165106400999992000110109004+50110+008730FM-12+011299999V0202001N005110120019N0250001N1+01021+00741100721ADDGA1021+007509089GF107991051081008001031011MA1999999099571MD1210031+9999REMSYN082AAXX  01094 10640 42575 72010 10102 20074 39957 40072 52003 85831 333 82825 85640;
0209106400999992000110112004+50110+008730FM-12+011299999V0201901N003610120019N0250001N1+01071+00711100661ADDGA1021+007509089GA2051+012009069GA3071+030009039GF107991061081008001071999MA1999999099511MD1810061+9999REMSYN094AAXX  01124 10640 42575 71907 10107 20071 39951 40066 58006 8687/ 333 82825 85640 87360 91115;
0226106400999992000110115004+50110+008730FM-12+011299999V0202001N005110300019N0300001N1+01181+00751100491ADDGA1011+007509089GA2031+013509069GA3051+030009039GF106991031081008001031011MA1999999099351MD1710151+9999OA149900771REMSYN100AAXX  01154 10640 42580 62010 10118 20075 39935 40049 57015 83831 333 81825 83645 85360 91115 91211;
0242106400999992000110118004+50110+008730FM-12+011299999V0202001N004110300019N0250001N1+01161+00741100521ADDGA1031+013509069GA2051+030009039GF106991031051012501031001KA1120M+01231KA2120N+00881MA1999999099381MD1310031+9999OA149900771REMSYN106AAXX  01184 10640 42675 62008 10116 20074 39938 40052 53003 83530 333 10123 20088 83645 85360 91115 91211;
0276106400999992000110206004+50110+008730FM-12+011299999V0201201N001010051019N0220001N1+00741+00711100731ADDAA124004991AY161061GA1021+003909079GA2041+005109069GF107991071051004501999999GJ101269KA1120M+01161KA2120N+00701MA1999999099561MD1810061+9999MW1211REMSYN118AAXX  02064 10640 41472 71202 10074 20071 39956 40073 58006 7216/ 875// 333 10116 20070 55021 70049 82713 84617 87625;
0165106400999992000110209004+50110+008730FM-12+011299999V0201601N002112200019N0280001N1+01071+01021100641ADDGA1021+007509069GF104991021051008001031011MA1999999099491MD1710071+9999REMSYN082AAXX  02094 10640 42578 41604 10107 20102 39949 40064 57007 82531 333 82625 83361;
0165106400999992000110212004+50110+008730FM-12+011299999V0201501N003110300019N0350001N1+01351+00841100401ADDGA1031+009009089GF105991031021008001031011MA1999999099261MD1710231+9999REMSYN082AAXX  02124 10640 42581 51506 10135 20084 39926 40040 57023 83231 333 83830 85360;
0159106400999992000110215004+50110+008730FM-12+011299999V0201401N003110120019N0400001N1+01461+01431100121ADDGA1061+012009059GF106991061051012501999999MA1999999098991MD1710321+9999REMSYN076AAXX  02154 10640 42682 61406 10146 20143 39899 40012 57032 865// 333 86640;
0197106400999992000110218004+50110+008730FM-12+011299999V0201501N002610105019N0300001N1+01421+00691099961ADDGA1071+010509059GF107991071051012501999999KA1120M+01491KA2120N+00731MA1999999098831MD1710211+9999REMSYN088AAXX  02184 10640 42680 71505 10142 20069 39883 49996 57021 875// 333 10149 20073 87635;
0234106400999992000110306004+50110+008730FM-12+011299999V0201501N002110150019N0300001N1+01031+00931100071ADDAA124000191GA1061+015009059GF107991061051017501071999GJ102469KA1120M+01481KA2120N+01031MA1999999098931MD1710091+9999REMSYN106AAXX  03064 10640 42780 71504 10103 20093 39893 40007 57009 8657/ 333 10148 20103 55041 70001 86550 87460;
0187106400999992000110309004+50110+008730FM-12+011299999V0202001N001510060019N0150001N1+00991+00961100201ADDAY161031AY221031GA1081+006009059GF108991081051008001999999MA1999999099051MD1210111+9999MW1611REMSYN082AAXX  03094 10640 41565 82003 10099 20096 30905 40020 52011 76162 885// 333 88620;
0215106400999992000110312004+50110+008730FM-12+011299999V0202001N001510105019N0200001N1+00971+00941100121ADDAY161061AY221061GA1021+003009089GA2041+010509069GF106991051081004501071011MA1999999098971MD1810061+9999MW1011REMSYN094AAXX  03124 10640 41470 62003 10097 20094 39897 40012 58006 70162 85871 333 82810 84635 86460;
0253106400999992000110318004+50110+008730FM-12+011299999V0201901N002110096019N0400001N1+00921+00871100401ADDAY161061AY221061GA1021+006009069GA2051+009609069GF107991061051008001999999KA1120M+01071KA2120N+00931MA1999999099251MD1210211+9999MW1031REMSYN106AAXX  03184 10640 41582 71904 10092 20087 39925 40040 52021 70362 865// 333 10107 20093 82620 85632 86650;
0228106400999992000110406004+50110+008730FM-12+011299999V0202001N002610060019N0200001N1+00771+00701100901ADDAA124005791GA1071+006009059GF107991071051008001999999GJ100009KA1120M+00921KA2120N+00761MA1999999099731MD1210131+9999REMSYN100AAXX  04064 10640 42570 72005 10077 20070 39973 40090 52013 875// 333 10092 20076 55000 70057 87620;
0159106400999992000110412004+50110+008730FM-12+011299999V0202101N003112200019N0400001N1+01041+00571101181ADDGA1031+007509029GF103991031021004501001001MA1999999100021MD1210091+9999REMSYN076AAXX  04124 10640 42482 32106 10104 20057 30002 40118 52009 83200 333 83825;
0165106400999992000110415004+50110+008730FM-12+011299999V0201801N002119999999N0400001N1+00981+00551101291ADDGA1011+004809089GF107991071999004501999999MA1999999100131MD1210111+9999REMSYN082AAXX  04154 10640 42482 71804 10098 20055 30013 40129 52011 87/// 333 81816 87643;
0197106400999992000110418004+50110+008730FM-12+011299999V0202001N002110129019N0300001N1+00901+00601101431ADDGA1071+012909059GF107991051999012501999999KA1120M+01051KA2120N+00711MA1999999100241MD1210151+9999REMSYN088AAXX  04184 10640 42680 72004 10090 20060 30024 40143 52015 85/// 333 10105 20071 87643;
0253106400999992000110506004+50110+008730FM-12+011299999V0202101N002110060019N0200001N1+00651+00621101691ADDAA124999999GA1051+006009069GF108991081051008001999999GJ102709KA1120M+00901KA2120N+00631MA1999999100511MD1210041+9999REMSYN106AAXX  05064 10640 42570 82104 10065 20062 30051 40169 52004 885// 333 10090 20063 55045 79999 85620 87640;EQDQ01  99992PRCP24
0165106400999992000110512004+50110+008730FM-12+011299999V0202101N00261009001CN0300001N1+00921+00411101531ADDGA1021+003909089GF106991061081004501001001MA1999999100361MD1710181+9999REMSYN082AAXX  05124 10640 42480 62105 10092 20041 30036 40153 57018 86800 333 82813 85640;
0187106400999992000110515004+50110+008730FM-12+011299999V0201501N00151220001CN0300001N1+00971+00481101241ADDGA1011+006009089GA2031+015009069GF106991041081008001001011MA1999999100081MD1710291+9999REMSYN088AAXX  05154 10640 42580 61503 10097 20048 30008 40124 57029 84801 333 81820 83650 85075;
0203106400999992000110518004+50110+008730FM-12+011299999V0201101N001512200019N0300001N1+00791+00471100931ADDGA1011+015009069GF104991011051008001001011KA1120M+01021KA2120N+00591MA1999999099761MD1710311+9999REMSYN094AAXX  05184 10640 42580 41103 10079 20047 39976 40093 57031 81501 333 10102 20059 81650 84075;
0234106400999992000110606004+50110+008730FM-12+011299999V0201701N011310129019N0250001N1+00641+00311099321ADDAA124000091GA1061+012909069GF108991061051012501999999GJ102589KA1120M+00751KA2120N+00531MA1999999098171MD1710331+9999REMSYN106AAXX  06064 10640 42675 81722 10064 20031 39817 49932 57033 865// 333 10075 20053 55043 70000 86643 84360;
0215106400999992000110612004+50110+008730FM-12+011299999V0200901N00211015001CN0250001N1+00781+00561098911ADDAY161061AY221061GA1011+008409069GA2041+015009069GF108991041051008001021999MA1999999097771MD1710171+9999MW1601REMSYN094AAXX  06124 10640 41575 80904 10078 20056 39777 49891 57017 76062 8452/ 333 81628 84650 88464;
0165106400999992000110615004+50110+008730FM-12+011299999V0201201N00261030001CN0250001N1+00911+00621098681ADDGA1011+006309089GF107991021081008001021999MA1999999097551MD1710201+9999REMSYN082AAXX  06154 10640 42575 71205 10091 20062 39755 49868 57020 8282/ 333 81821 87361;
0238106400999992000110618004+50110+008730FM-12+011299999V0201301N00311030001CN0250001N1+00871+00561098581ADDGA1031+015009069GF107991031051017501021999KA1120M+00931KA2120N+00641MA1999999999999MD1710121+9999REMSYN094AAXX  06184 10640 42775 71306 10087 20056 3745/ 49858 57012 8352/ 333 10093 20064 83650 87362;EQDQ01+074503APOSP Q02 074503APOSP 
0234106400999992000110706004+50110+008730FM-12+011299999V0201401N002610120019N0250001N1+00871+00661098481ADDAA124000291GA1051+012009069GF108991051051012501041999GJ100129KA1120M+00981KA2120N+00791MA1999999097351MD1710041+9999REMSYN106AAXX  07064 10640 42675 81405 10087 20066 39735 49848 57004 8554/ 333 10098 20079 55002 70002 85640 84360;
0215106400999992000110709004+50110+008730FM-12+011299999V0201801N00261030001CN0300001N1+01011+00741098621ADDAY181031AY221031GA1011+006009089GA2041+012009069GF106991041081008001071001MA1999999097491MD1110121+9999MW1021REMSYN094AAXX  07094 10640 41580 61805 10101 20074 39749 49862 51012 70282 84870 333 81820 84640 84361;
0187106400999992000110712004+50110+008730FM-12+011299999V0201801N003619999999N0300001N1+01181+00571098681ADDAY181061AY221061GA1041+009009069GF107991999999008001999999MA1999999097561MD1210071+9999MW1021REMSYN082AAXX  07124 10640 41580 71807 10118 20057 39756 49868 52007 70282 333 84630 87640;
0254106400999992000110715004+50110+008730FM-12+011299999V0201901N003110270019N0400001N1+01051+00801098811ADDAY181031AY221031GA1011+005409089GA2041+010809069GA3051+027009039GF106991041081004501031011MA1999999097681MD1210131+9999MW1251OA149901081REMSYN106AAXX  07154 10640 41482 61906 10105 20080 39768 49881 52013 72582 84831 333 81818 84636 85359 91121 91214;
0248106400999992000110718004+50110+008730FM-12+011299999V0201901N003110108019N0400001N1+01071+00591099011ADDAY181061AY221061GA1051+010809069GF106991051051012501031011KA1120M+01191KA2120N+00851MA1999999097881MD1110201+9999MW1251OA149901081REMSYN106AAXX  07184 10640 41682 61906 10107 20059 39788 49901 51020 72582 85531 333 10119 20085 85636 91121 91214;
0228106400999992000110806004+50110+008730FM-12+011299999V0201901N004610090019N0300001N1+00961+00551099401ADDAA124001591GA1061+009009059GF106991061051008001999999GJ100609KA1120M+01121KA2120N+00951MA1999999098261MD1210151+9999REMSYN100AAXX  08064 10640 42580 61909 10096 20055 39826 49940 52015 865// 333 10112 20095 55010 70015 86630;
0215106400999992000110809004+50110+008730FM-12+011299999V0202001N004110090019N0350001N1+00961+00591099621ADDAY161031AY221031GA1021+005109089GA2071+009009069GF107991071081008001999999MA1999999098481MD1210221+9999MW1211REMSYN094AAXX  08094 10640 41581 72008 10096 20059 39848 49962 52022 72162 878// 333 82817 87630 91112;
0193106400999992000110812004+50110+008730FM-12+011299999V0201801N003610090019N0500001N1+01101+00511099701ADDAY161061AY221061GA1071+009009069GF107991071051008001999999MA1999999098561MD1210081+9999MW1021REMSYN088AAXX  08124 10640 41584 71807 10110 20051 39856 49970 52008 70262 875// 333 87630 91114;
0165106400999992000110815004+50110+008730FM-12+011299999V0201901N00261012001CN0450001N1+01191+00471099751ADDGA1011+006309089GF106991051081008001031001MA1999999098621MD1210051+9999REMSYN082AAXX  08154 10640 42583 61905 10119 20047 39862 49975 52005 85830 333 81821 84636;
0231106400999992000110818004+50110+008730FM-12+011299999V0202201N003610105019N0300001N1+00921+00571099991ADDAY161061AY221061GA1051+010509069GF105991031061017501031001KA1120M+01211KA2120N+00891MA1999999098841MD1210231+9999MW1601REMSYN100AAXX  08184 10640 42780 52207 10092 20057 39884 49999 52023 76062 83630 333 10121 20089 85635 87360;
0254106400999992000110906004+50110+008730FM-12+011299999V0201901N00311004201CN0200001N1+00881+00661100581ADDAA124003491AY161061GA1021+005409069GF107991071051004501999999GJ100549KA1120M+00921KA2120N+00771MA1999999099421MD1210151+9999MW1021REMSYN112AAXX  09064 10640 41470 71906 10088 20066 39942 40058 52015 7026/ 875// 333 10092 20077 55009 70034 82618 87625;
0237106400999992000110909004+50110+008730FM-12+011299999V0202001N004110075019N0250001N1+00911+00681100801ADDAY161031AY221031GA1011+004209089GA2051+007509069GA3081+027009039GF108991051081004501071999MA1999999099641MD1210221+9999MW1211REMSYN100AAXX  09094 10640 41475 82008 10091 20068 39964 40080 52022 72162 8587/ 333 81814 85625 88359 91113;
0237106400999992000110912004+50110+008730FM-12+011299999V0202001N003610084019N0300001N1+01011+00701100991ADDAY181061AY261061GA1031+004509089GA2051+008409069GA3071+027009039GF107991061081004501071999MA1999999099831MD1210191+9999MW1251REMSYN100AAXX  09124 10640 41480 72007 10101 20070 39983 40099 52019 72586 8687/ 333 83815 85628 87359 91114;
0237106400999992000110915004+50110+008730FM-12+011299999V0202201N003110090019N0350001N1+00961+00701101031ADDAY181031AY221031GA1021+006009089GA2031+009009069GA3071+015009069GF107991071081004501999999MA1999999099871MD1210041+9999MW1251REMSYN100AAXX  09154 10640 41481 72206 10096 20070 39987 40103 52004 72582 878// 333 82820 83630 87650 91114;
0253106400999992000110918004+50110+008730FM-12+011299999V0202101N003112200019N0350001N1+00881+00621101301ADDAY181061AY211061GA1011+015009069GA2031+030009039GF103991011061017501031001KA1120M+01081KA2120N+00881MA1999999100131MD1210261+9999MW1251REMSYN106AAXX  09184 10640 41781 32106 10088 20062 30013 40130 52026 72581 81630 333 10108 20088 81650 83360 91114;
0234106400999992000111006004+50110+008730FM-12+011299999V0202101N002112200019N0100001N1+00451+00421101901ADDAA124000791GA1011+030009039GF104991011001999999031011GJ100729KA1120M+00881KA2120N+00441MA1999999100711MD1210251+9999REMSYN106AAXX  10064 10640 42960 42104 10045 20042 30071 40190 52025 81031 333 10088 20044 55012 70007 81360 83075;
0187106400999992000111009004+50110+008730FM-12+011299999V0201801N001012200019N0200001N1+00471+00431102061ADDGA1011+003009079GA2031+012009069GF104991031051002501031011MA1999999100871MD1210161+9999REMSYN088AAXX  10094 10640 42370 41802 10047 20043 30087 40206 52016 83531 333 81710 83640 84360;
0193106400999992000111012004+50110+008730FM-12+011299999V0202101N00311009001CN0250001N1+00701+00531102051ADDAY161061AY221061GA1011+006009089GF107991071081004501999999MA1999999100871MD1410001+9999MW1211REMSYN088AAXX  10124 10640 41475 72106 10070 20053 30087 40205 54000 72162 878// 333 81820 87640;
0187106400999992000111015004+50110+008730FM-12+011299999V0202001N00261075001CN0250001N1+00751+00671102071ADDGA1041+012009069GA2011+999999029GF107991051081008001031999MA1999999100891MD1310021+9999REMSYN088AAXX  10154 10640 42575 72005 10075 20067 30089 40207 53002 8583/ 333 8125/ 84640 87359;
0203106400999992000111018004+50110+008730FM-12+011299999V0202101N001510300019N0250001N1+00701+00611102221ADDGA1011+009909069GF106991011051012501031001KA1120M+00771KA2120N+00401MA1999999101041MD1210151+9999REMSYN094AAXX  10184 10640 42675 62103 10070 20061 30104 40222 52015 81530 333 10077 20040 81633 86360;
0234106400999992000111106004+50110+008730FM-12+011299999V0202001N004112200019N0150001N1+00461+00431102521ADDAA124000191GA1011+006009069GF103991011051008001031011GJ100609KA1120M+00701KA2120N+00451MA1999999101321MD1210011+9999REMSYN106AAXX  11064 10640 42565 32008 10046 20043 30132 40252 52001 81531 333 10070 20045 55010 70001 81620 83360;
0187106400999992000111109004+50110+008730FM-12+011299999V0202001N001510300019N0200001N1+00571+00501102591ADDGA1011+006009089GA2031+012009069GF105991031081008001031011MA1999999101401MD1210081+9999REMSYN088AAXX  11094 10640 42570 52003 10057 20050 30140 40259 52008 83831 333 81820 83640 85360;
0215106400999992000111112004+50110+008730FM-12+011299999V0201901N003110075019N0250001N1+00851+00551102431ADDAY151061AY221061GA1011+003009089GA2041+007509069GF106991051081004501031011MA1999999101251MD1710141+9999MW1021REMSYN094AAXX  11124 10640 42475 61906 10085 20055 30125 40243 57014 70252 85831 333 81810 84625 85360;
0159106400999992000111115004+50110+008730FM-12+011299999V0202001N002612200019N0200001N1+00991+00561102281ADDGA1011+006009029GF104991021081008001031011MA1999999101111MD1710181+9999REMSYN076AAXX  11154 10640 42570 42005 10099 20056 30111 40228 57018 82831 333 81820;
0197106400999992000111118004+50110+008730FM-12+011299999V0201501N003112200019N0200001N1+00811+00541102161ADDGA1021+006009059GF106991021051008001001011KA1120M+01001KA2120N+00451MA1999999100981MD1710151+9999REMSYN088AAXX  11184 10640 42570 61506 10081 20054 30098 40216 57015 82501 333 10100 20045 82620;
0228106400999992000111206004+50110+008730FM-12+011299999V0201201N001010300019N0200001N1+00421+00231101541ADDAA124000091GA1071+030009079GF107991071001999999031999GJ101089KA1120M+00791KA2120N+00331MA1999999100351MD1710211+9999REMSYN100AAXX  12064 10640 42970 71202 10042 20023 30035 40154 57021 8703/ 333 10079 20033 55018 70000 87360;
0144106400999992000111209004+50110+008730FM-12+011299999V0200101N000510360019N0150001N1+00681+00371101351ADDGA1051+036009039GF106991051001999999071011MD1710181+9999REMSYN076AAXX  12094 10640 42965 60101 10068 20037 40135 57018 85071 333 85362 86075;
0165106400999992000111212004+50110+008730FM-12+011299999V0202001N003110360019N0200001N1+01281+00241101051ADDGA1051+036009039GF107991051001999999031011MA1999999099941MD1710221+9999REMSYN082AAXX  12124 10640 42970 72006 10128 20024 39994 40105 57022 85031 333 85362 87075;
0165106400999992000111215004+50110+008730FM-12+011299999V0201401N002110150019N0250001N1+01271+00471100731ADDGA1051+015009069GF107991051051017501031999MA1999999099591MD1710321+9999REMSYN082AAXX  12154 10640 42775 71404 10127 20047 39959 40073 57032 8553/ 333 85650 85362;
0203106400999992000111218004+50110+008730FM-12+011299999V0201601N003110150019N0200001N1+01131+00911100601ADDGA1051+015009069GF108991051051017501031999KA1120M+01271KA2120N+00451MA1999999099451MD1710241+9999REMSYN094AAXX  12184 10640 42770 81606 10113 20091 39945 40060 57024 8553/ 333 10127 20045 85650 85361;
0262106400999992000111306004+50110+008730FM-12+011299999V0202001N00311004201CN0100001N1+01161+01131100311ADDAA124003091AY161061AY261061GA1031+003009079GF108991081051004501999999GJ101089KA1120M+01161KA2120N+00941MA1999999099171MD1710041+9999MW1631REMSYN112AAXX  13064 10640 41460 82006 10116 20113 39917 40031 57004 76366 885// 333 10116 20094 55018 70030 83710 87625;
0193106400999992000111309004+50110+008730FM-12+011299999V0201901N00211001201CN0100001N1+01091+01061100411ADDAY161031AY261031GA1031+001509079GF108991071051001501999999MA1999999099261MD1210071+9999MW1631REMSYN088AAXX  13094 10640 41260 81904 10109 20106 39926 40041 52007 76366 875// 333 83705 87620;
0253106400999992000111318004+50110+008730FM-12+011299999V0201901N002110036019N0070001N1+01151+01121100321ADDAY161061AY261061GA1031+001809079GA2051+003609079GF108991081071002501999999KA1120M+01211KA2120N+01081MA1999999099181MD1310011+9999MW1611REMSYN106AAXX  13184 10640 41357 81904 10115 20112 39918 40032 53001 76166 887// 333 10121 20108 83706 85712 87624;
0284106400999992000111406004+50110+008730FM-12+011299999V0201901N002610300019N0080001N1+00961+00931100701ADDAA124013591AY161061AY221061GA1011+000609079GA2041+009909069GF108991041051000751031999GJ100009KA1120M+01151KA2120N+00951MA1999999099541MD1210131+9999MW1211REMSYN118AAXX  14064 10640 41158 81905 10096 20093 39954 40070 52013 72162 8453/ 333 10115 20095 55000 70135 81702 84633 85360;
0193106400999992000111409004+50110+008730FM-12+011299999V0201901N00261001201CN0080001N1+00951+00921100851ADDAY161031AY261031GA1021+001509079GF108991081051001501999999MA1999999099691MD1210151+9999MW1211REMSYN088AAXX  14094 10640 41258 81905 10095 20092 30969 40085 52015 72166 885// 333 82705 87630;
0193106400999992000111412004+50110+008730FM-12+011299999V0201801N00211001201CN0070001N1+00991+00961100851ADDAY161061AY221061GA1041+001509079GF108991081051001501999999MA1999999099691MD1210021+9999MW1211REMSYN088AAXX  14124 10640 41257 81804 10099 20096 30969 40085 52002 72162 885// 333 84705 88630;
0193106400999992000111415004+50110+008730FM-12+011299999V0202001N00151001201CN0070001N1+00941+00911100931ADDAY161031AY221031GA1041+001509079GF108991081051001501999999MA1999999099771MD1210071+9999MW1021REMSYN088AAXX  14154 10640 41257 82003 10094 20091 39977 40093 52007 70262 885// 333 84705 88630;
0212106400999992000111418004+50110+008730FM-12+011299999V0202101N001510300019N0100001N1+00851+00821101131ADDAY161061AY221061GA1031+009009069GF108991031051008001071999KA1120M+01001MA1999999099961MD1210191+9999MW1211REMSYN094AAXX  14184 10640 41560 82103 10085 20082 39996 40113 52019 72162 8357/ 333 10100 83630 87460;
0245106400999992000111506004+50110+008730FM-12+011299999V0201801N002119999999N0120001N1+00751+00701101591ADDAY161061AY221061GA1021+000909079GF108991021051000751999999GJ100009KA1120M+00851KA2120N+00751MA1999999100421MD1210081+9999MW1211REMSYN106AAXX  15064 10640 41162 81804 10075 20070 30042 40159 52008 72162 825// 333 10085 20075 55000 82703 87636;
0165106400999992000111509004+50110+008730FM-12+011299999V0202001N00261007501CN0180001N1+00831+00661101721ADDGA1011+007509069GF107991071051008001999999MA1999999100551MD1210111+9999REMSYN082AAXX  15094 10640 42568 72005 10083 20066 30055 40172 52011 875// 333 81625 87638;
0187106400999992000111512004+50110+008730FM-12+011299999V0202001N003110072019N0200001N1+01051+00661101661ADDGA1021+006009089GA2031+007209069GF106991051081008001001011MA1999999100501MD1210021+9999REMSYN088AAXX  15124 10640 42570 62006 10105 20066 30050 40166 52002 85801 333 82820 83624 85075;
0193106400999992000111515004+50110+008730FM-12+011299999V0202001N002110300019N0250001N1+00961+00681101621ADDAY181031AY221031GA1031+007509089GF106991031021008001031011MA1999999100451MD1710051+9999MW1251REMSYN088AAXX  15154 10640 41575 62004 10096 20068 30045 40162 57005 72582 83231 333 83825 85360;
0247106400999992000111606004+50110+008730FM-12+011299999V0201601N000512200019N0150001N1+00511+00481101701ADDAA124000091GA1031+015009059GF103991031051017501999011GJ101929KA1120M+00891KA2120N+00541MA1999999100511MD1410001+9999REMSYN100AAXX  16064 10640 42765 31601 10051 20048 30051 40170 54000 83501 333 10089 20054 55032 70000 83650;EQDQ01    003SCOMCG
0165106400999992000111609004+50110+008730FM-12+011299999V0201401N00101220001CN0200001N1+00641+00501101671ADDGA1041+015009069GF105991041051017501001011MA1999999100491MD1710011+9999REMSYN082AAXX  16094 10640 42770 51402 10064 20050 30049 40167 57001 84501 333 84650 83075;
0165106400999992000111612004+50110+008730FM-12+011299999V0202101N00361220001CN0200001N1+00981+00451101471ADDGA1021+009009089GF105991041081012501001011MA1999999100311MD1710201+9999REMSYN082AAXX  16124 10640 42670 52107 10098 20045 30031 40147 57020 84801 333 82830 83075;
0159106400999992000111615004+50110+008730FM-12+011299999V0201901N003112200019N0230001N1+01051+00311101311ADDGA1011+009909029GF103991011081012501031011MA1999999100151MD1710161+9999REMSYN076AAXX  16154 10640 42673 31906 10105 20031 30015 40131 57016 81831 333 81833;
0216106400999992000111618004+50110+008730FM-12+011299999V0201501N002612200019N0300001N1+00791+00361101341ADDGA1011+015009059GF102991011051017501999011KA1120M+01111KA2120N+00441MA1999999100171MD1510021+9999REMSYN088AAXX  16184 10640 42780 21505 10079 20036 30017 40134 55002 81501 333 10111 20044 81650;EQDQ01    003SCOMCG
0228106400999992000111706004+50110+008730FM-12+011299999V0201301N001010075019N0150001N1+00341+00301101321ADDAA124000091GA1071+007509059GF107991071051008001999999GJ104689KA1120M+00801KA2120N+00201MA1999999100131MD1210021+9999REMSYN100AAXX  17064 10640 42565 71302 10034 20030 30013 40132 52002 875// 333 10080 20020 55078 70000 87625;
0193106400999992000111709004+50110+008730FM-12+011299999V0202201N00101007501CN0045001N1+00471+00441101361ADDAY161031AY221031GA1031+007509069GF108991071051008001999999MA1999999100181MD1310041+9999MW1631REMSYN088AAXX  17094 10640 41545 82202 10047 20044 30018 40136 53004 76362 875// 333 83625 87630;
0193106400999992000111712004+50110+008730FM-12+011299999V0202201N00151030001CN0050001N1+00631+00601101361ADDAY161061AY221061GA1021+007509069GF107991021051008001011999MA1999999100181MD1510001+9999MW1211REMSYN088AAXX  17124 10640 41550 72203 10063 20060 30018 40136 55000 72162 8251/ 333 82625 87461;
0187106400999992000111715004+50110+008730FM-12+011299999V0202101N00101030001CN0120001N1+00761+00661101381ADDGA1011+007509089GA2031+030009039GF107991011021008001071999MA1999999100211MD1210011+9999REMSYN088AAXX  17154 10640 42562 72102 10076 20066 30021 40138 52001 8127/ 333 81825 83360 86361;
0203106400999992000111718004+50110+008730FM-12+011299999V0202401N001512200019N0150001N1+00641+00341101471ADDGA1011+006009089GF104991041081008001031999KA1120M+00771KA2120N+00341MA1999999100291MD1210091+9999REMSYN094AAXX  17184 10640 42565 42403 10064 20034 30029 40147 52009 8483/ 333 10077 20034 81820 83630;
0228106400999992000111806004+50110+008730FM-12+011299999V0202101N002612200019N0250001N1+00451+00351101661ADDAA124001191GA1041+007509059GF104991041051008001001001GJ100009KA1120M+00641KA2120N+00331MA1999999100471MD1110021+9999REMSYN100AAXX  18064 10640 42575 42105 10045 20035 30047 40166 51002 84500 333 10064 20033 55000 70011 84625;
0165106400999992000111809004+50110+008730FM-12+011299999V0202101N00361007501CN0200001N1+00551+00381101721ADDGA1031+006009069GF107991071051008001999999MA1999999100531MD1110061+9999REMSYN082AAXX  18094 10640 42570 72107 10055 20038 30053 40172 51006 875// 333 83620 86630;
0159106400999992000111812004+50110+008730FM-12+011299999V0202201N003110090019N0250001N1+00671+00441101661ADDGA1061+009009059GF106991061051008001001001MA1999999100481MD1710051+9999REMSYN076AAXX  18124 10640 42575 62206 10067 20044 30048 40166 57005 86500 333 86630;
0165106400999992000111815004+50110+008730FM-12+011299999V0202001N00311012001CN0180001N1+00701+00461101621ADDGA1021+006609089GF107991071081008001999999MA1999999100441MD1710041+9999REMSYN082AAXX  18154 10640 42568 72006 10070 20046 30044 40162 57004 878// 333 82822 87630;
0203106400999992000111818004+50110+008730FM-12+011299999V0201901N00261012001CN0200001N1+00691+00481101621ADDGA1011+006009089GF107991071081008001999999KA1120M+00721KA2120N+00441MA1999999100441MD1410001+9999REMSYN094AAXX  18184 10640 42570 71905 10069 20048 30044 40162 54000 878// 333 10072 20044 81820 87630;
0228106400999992000111906004+50110+008730FM-12+011299999V0201801N002610270019N0250001N1+00551+00261101011ADDAA124000091GA1051+027009079GF105991051001999999031001GJ100609KA1120M+00691KA2120N+00411MA1999999099831MD1710151+9999REMSYN100AAXX  19064 10640 42975 51805 10055 20026 39983 40101 57015 85030 333 10069 20041 55010 70000 85359;
0159106400999992000111909004+50110+008730FM-12+011299999V0201501N002110120019N0300001N1+00501+00241100861ADDGA1071+012009059GF107991071051012501999999MA1999999099681MD1710151+9999REMSYN076AAXX  19094 10640 42680 71504 10050 20024 39968 40086 57015 875// 333 87640;
0193106400999992000111912004+50110+008730FM-12+011299999V0201401N002110090019N0300001N1+00621+00291100581ADDAY161061AY221061GA1051+009009069GF108991051051008001071999MA1999999099411MD1710271+9999MW1021REMSYN088AAXX  19124 10640 41580 81404 10062 20029 39941 40058 57027 70262 8557/ 333 85630 87360;
0193106400999992000111915004+50110+008730FM-12+011299999V0201401N001510045019N0100001N1+00621+00581100341ADDAY161031AY221031GA1051+004509069GF108991071051004501999999MA1999999099171MD1710231+9999MW1601REMSYN088AAXX  19154 10640 41460 81403 10062 20058 39917 40034 57023 76062 875// 333 85615 87621;
0231106400999992000111918004+50110+008730FM-12+011299999V0201301N00151001201CN0060001N1+00601+00571100201ADDAY161061AY261061GA1041+001209079GF108991071051001501999999KA1120M+00761KA2120N+00411MA1999999099031MD1710131+9999MW1611REMSYN100AAXX  19184 10640 41256 81303 10060 20057 39903 40020 57013 76166 875// 333 10076 20041 84704 88611;
0234106400999992000112006004+50110+008730FM-12+011299999V0202101N003612200019N0300001N1+00661+00461100381ADDAA124004691GA1021+009009089GF104991041081008001001001GJ100009KA1120M+00801KA2120N+00581MA1999999099221MD1210141+9999REMSYN106AAXX  20064 10640 42580 42107 10066 20046 39922 40038 52014 84800 333 10080 20058 55000 70046 82830 84656;
0132106400999992000112009004+50110+008730FM-12+011299999V0201901N003110105019N0300001N1+00661+00591999999ADDGA1061+010509059GF106991061051012501001011MD1210211+9999REMSYN064AAXX  20094 10640 42680 61906 10066 20059 52021 86501 333 86635;
0165106400999992000112012004+50110+008730FM-12+011299999V0201901N002610090019N0300001N1+00741+00351100631ADDGA1051+009009069GF107991051051008001031999MA1999999099471MD1210051+9999REMSYN082AAXX  20124 10640 42580 71905 10074 20035 39947 40063 52005 8553/ 333 85630 87360;
0165106400999992000112015004+50110+008730FM-12+011299999V0201901N00261009001CN0300001N1+00771+00321100731ADDGA1021+006009089GF107991061081004501031999MA1999999099571MD1210111+9999REMSYN082AAXX  20154 10640 42480 71905 10077 20032 39957 40073 52011 8683/ 333 82820 85640;
0203106400999992000112018004+50110+008730FM-12+011299999V0201601N00211030001CN0300001N1+00601+00341100801ADDGA1041+012009069GF107991041051012501031011KA1120M+00781KA2120N+00601MA1999999099631MD1210051+9999REMSYN094AAXX  20184 10640 42680 71604 10060 20034 39963 40080 52005 84531 333 10078 20060 84640 87073;
0228106400999992000112106004+50110+008730FM-12+011299999V0200401N000512200019N0300001N1+00121+00091100891ADDAA124000091GA1021+060009019GF102991001001999999001011GJ100009KA1120M+00611KA2120N+00121MA1999999099701MD1210051+9999REMSYN100AAXX  21064 10640 42980 20401 10012 20009 30970 40089 52005 80001 333 10061 20012 55000 70000 82070;
0165106400999992000112109004+50110+008730FM-12+011299999V0201501N000512200019N0300001N1+00301+00271101031ADDGA1021+010509069GF104991021051012501031011MA1999999099841MD1210141+9999REMSYN082AAXX  21094 10640 42680 41501 10030 20027 39984 40103 52014 82531 333 82635 84359;
0187106400999992000112112004+50110+008730FM-12+011299999V0201801N00151030001CN0300001N1+00641+00491101011ADDGA1011+007509089GA2041+010509069GF106991041081008001031999MA1999999099841MD1410001+9999REMSYN088AAXX  21124 10640 42580 61803 10064 20049 39984 40101 54000 8483/ 333 81825 84635 86359;
0165106400999992000112115004+50110+008730FM-12+011299999V0201701N002112200019N0200001N1+00741+00451101001ADDGA1011+007509089GF104991021081008001001011MA1999999099831MD1410001+9999REMSYN082AAXX  21154 10640 42570 41704 10074 20045 39983 40100 54000 82801 333 81825 83075;
0197106400999992000112118004+50110+008730FM-12+011299999V0201501N003110135019N0180001N1+00621+00451100931ADDGA1051+013509059GF105991051051012501001011KA1120M+00811KA2120N+00121MA1999999099761MD1710061+9999REMSYN088AAXX  21184 10640 42668 51506 10062 20045 39976 40093 57006 85501 333 10081 20012 85645;
0228106400999992000112206004+50110+008730FM-12+011299999V0201901N003612200019N0200001N1+00861+00731101021ADDAA124002491GA1021+009009059GF102991021051008001031001GJ101449KA1120M+00861KA2120N+00511MA1999999099861MD1210141+9999REMSYN100AAXX  22064 10640 42570 21907 10086 20073 39986 40102 52014 82530 333 10086 20051 55024 70024 82630;
0187106400999992000112209004+50110+008730FM-12+011299999V0202001N00261075001CN0300001N1+00971+00751101101ADDGA1021+006009069GA2031+030009039GF105991021051008001031011MA1999999099941MD1210081+9999REMSYN088AAXX  22094 10640 42580 52005 10097 20075 39994 40110 52008 82531 333 82620 83360 85078;
0187106400999992000112212004+50110+008730FM-12+011299999V0201901N002610090019N0300001N1+01141+00771101101ADDGA1011+004509089GA2031+006009069GF107991071081004501031999MA1999999099951MD1410001+9999REMSYN088AAXX  22124 10640 42480 71905 10114 20077 39995 40110 54000 8783/ 333 81815 83620 87630;
0193106400999992000112215004+50110+008730FM-12+011299999V0201501N00311012001CN0250001N1+01031+00931101021ADDAY161031AY221031GA1021+010509069GF107991071051012501999999MA1999999099861MD1710081+9999MW1211REMSYN088AAXX  22154 10640 41675 71506 10103 20093 39986 40102 57008 72162 875// 333 82635 87645;
0253106400999992000112218004+50110+008730FM-12+011299999V0202301N003610075019N0100001N1+00911+00821101191ADDAY161061AY221061GA1041+004509069GA2071+007509069GF108991071051004501999999KA1120M+01201KA2120N+00841MA1999999100031MD1310171+9999MW1631REMSYN106AAXX  22184 10640 41460 82307 10091 20082 30003 40119 53017 76362 875// 333 10120 20084 84615 87625 91114;
0262106400999992000112306004+50110+008730FM-12+011299999V0201101N002610120019N0200001N1+00871+00841101021ADDAA124003591AY161061AY221061GA1051+012009069GF108991051051012501071999GJ100189KA1120M+00941KA2120N+00831MA1999999099861MD1710171+9999MW1611REMSYN112AAXX  23064 10640 41670 81105 10087 20084 39986 40102 57017 76162 8557/ 333 10094 20083 55003 70035 85640 87360;
0193106400999992000112312004+50110+008730FM-12+011299999V0201201N001010120019N0080001N1+00971+00941100731ADDAY161061AY261061GA1061+012009069GF108991061081012501021999MA1999999099571MD1710171+9999MW1631REMSYN088AAXX  23124 10640 41658 81202 10097 20094 39957 40073 57017 76366 8682/ 333 86640 88460;
0193106400999992000112315004+50110+008730FM-12+011299999V0201001N001010120019N0200001N1+00991+00861100531ADDAY161031AY221031GA1061+012009069GF108991061051012501071999MA1999999099381MD1710191+9999MW1021REMSYN088AAXX  23154 10640 41670 81002 10099 20086 39938 40053 57019 70262 8657/ 333 86640 87360;
0225106400999992000112318004+50110+008730FM-12+011299999V0200901N001510150019N0150001N1+00971+00811100411ADDAY161061AY221061GA1071+015009059GF107991071051017501999999KA1120M+01001KA2120N+00871MA1999999099261MD1710121+9999MW1011REMSYN094AAXX  23184 10640 41765 70903 10097 20081 39926 40041 57012 70162 875// 333 10100 20087 87650;
0242106400999992000112406004+50110+008730FM-12+011299999V0202201N003110075019N0200001N1+00821+00791100871ADDAA124001891AY161061AY221061GA1061+007509059GF107991071051004501031999KA1120M+00961KA2120N+00721MA1999999099711MD1210221+9999MW1031REMSYN100AAXX  24064 10640 11470 72206 10082 20079 39971 40087 52022 70362 8753/ 333 10096 20072 70018 86625;
0165106400999992000112409004+50110+008730FM-12+011299999V0202201N00311030001CN0200001N1+00821+00731101121ADDGA1021+010509069GF107991021051012501071011MA1999999099951MD1210251+9999REMSYN082AAXX  24094 10640 42670 72206 10082 20073 39995 40112 52025 82571 333 82635 86359;
0187106400999992000112412004+50110+008730FM-12+011299999V0202201N003110300019N0200001N1+00911+00631101191ADDGA1011+006009089GA2041+010509069GF107991041081008001071999MA1999999100031MD1210091+9999REMSYN088AAXX  24124 10640 42570 72206 10091 20063 30003 40119 52009 8487/ 333 81820 84635 86360;
0165106400999992000112415004+50110+008730FM-12+011299999V0202201N002112200019N0250001N1+00911+00591101251ADDGA1021+015009069GF104991021051017501001011MA1999999100091MD1210061+9999REMSYN082AAXX  24154 10640 42775 42204 10091 20059 30009 40125 52006 82501 333 82650 83075;
0216106400999992000112418004+50110+008730FM-12+011299999V0201801N001512200019N0200001N1+00761+00581101331ADDGA1041+015009059GF104991041051017501999011KA1120M+00921KA2120N+00761MA1999999100161MD1210071+9999REMSYN088AAXX  24184 10640 42770 41803 10076 20058 30016 40133 52007 84501 333 10092 20076 84650;EQDQ01    003SCOMCG
0257106400999992000112506004+50110+008730FM-12+011299999V0209999C000010006019N0030001N1+00161+00131101431ADDAA124000091GF105991051051000751001001GJ100249KA1120M+99999KA2120N+99999MA1999999100231MD1210051+9999REMSYN094AAXX  25064 10640 42130 50000 10016 20013 30023 40143 52005 85500 333 10016 20077 55004 70000;EQDQ01  00002PRCP24Q02 +00163ATMM  Q03 +00773ATMM  
0185106400999992000112509004+50110+008730FM-12+011299999V0201401N000510012019N0015001N1+00201+00171101451ADDAY121031GA1051+001209079GF108991071051001501999999MA1999999100251MD1210031+9999MW1101REMSYN088AAXX  25094 10640 41215 81401 10020 20017 30025 40145 52003 7102/ 875// 333 85704 87640;
0181106400999992000112512004+50110+008730FM-12+011299999V0202001N001510006019N0010001N1+00311+00281101391ADDAY141061AY221061GA1091+000609999GF109991091999999999999999MA1999999100201MD1710041+9999MW1451REMSYN076AAXX  25124 10640 41/10 92003 10031 20028 30020 40139 57004 74542 333 89/02;
0231106400999992000112518004+50110+008730FM-12+011299999V0201201N00101000301CN0015001N1+00321+00291100951ADDAY141061AY221061GA1041+000309079GF108991081061000251999999KA1120M+00401KA2120N+00131MA1999999099761MD1710281+9999MW1101REMSYN100AAXX  25184 10640 41015 81202 10032 20029 39976 40095 57028 71042 886// 333 10040 20013 84701 88703;
0262106400999992000112606004+50110+008730FM-12+011299999V0202601N000510021019N0050001N1+00491+00471100221ADDAA124003291AY161061AY251061GA1051+002109079GF108991081051002501999999GJ100009KA1120M+00491KA2120N+00281MA1999999099051MD1710061+9999MW1211REMSYN112AAXX  26064 10640 41350 82601 10049 20047 39905 40022 57006 72165 885// 333 10049 20028 55000 70032 85707 88717;
0193106400999992000112609004+50110+008730FM-12+011299999V0209999C000010021019N0040001N1+00551+00521100291ADDAY161031AY221031GA1051+002109079GF108991081051002501999999MA1999999099121MD1210081+9999MW1611REMSYN088AAXX  26094 10640 41340 80000 10055 20052 39912 40029 52008 76162 885// 333 85707 88616;
0193106400999992000112612004+50110+008730FM-12+011299999V0202101N00311002101CN0150001N1+00721+00691100411ADDAY161061AY221061GA1041+002109079GF108991071051002501999999MA1999999099251MD1210131+9999MW1611REMSYN088AAXX  26124 10640 41365 82106 10072 20069 39925 40041 52013 76162 875// 333 84707 87630;
0193106400999992000112615004+50110+008730FM-12+011299999V0202001N003610105019N0180001N1+00791+00751100691ADDAY161031AY221031GA1061+010509069GF107991061051012501071999MA1999999099531MD1210261+9999MW1021REMSYN088AAXX  26154 10640 41668 72007 10079 20075 39953 40069 52026 70262 8657/ 333 86635 86461;
0231106400999992000112618004+50110+008730FM-12+011299999V0202101N00361007501CN0180001N1+00751+00631100941ADDAY161061AY221061GA1031+009009069GF107991071051008001999999KA1120M+00801KA2120N+00481MA1999999099771MD1210261+9999MW1021REMSYN100AAXX  26184 10640 41568 72107 10075 20063 39977 40094 52026 70262 875// 333 10080 20048 83630 87640;
0228106400999992000112706004+50110+008730FM-12+011299999V0202101N003612200019N0045001N1+00661+00591101691ADDAA124005091GA1031+030009079GF103991031001999999031001GJ100009KA1120M+00761KA2120N+00641MA1999999100511MD1210221+9999REMSYN100AAXX  27064 10640 42945 32107 10066 20059 30051 40169 52022 83030 333 10076 20064 55000 70050 83360;
0159106400999992000112709004+50110+008730FM-12+011299999V0202201N003112200019N0200001N1+00711+00541101871ADDGA1031+030009079GF103991031001999999031001MA1999999100691MD1210191+9999REMSYN076AAXX  27094 10640 42970 32206 10071 20054 30069 40187 52019 83030 333 83360;
0165106400999992000112712004+50110+008730FM-12+011299999V0202101N003119999999N0150001N1+00801+00541102011ADDGA1021+004509069GF105991021051999999031001MA1999999100831MD1210171+9999REMSYN082AAXX  27124 10640 42965 52106 10080 20054 30083 40201 52017 82530 333 82615 84360;
0159106400999992000112715004+50110+008730FM-12+011299999V0202001N002110099019N0300001N1+00771+00491102071ADDGA1071+009909059GF107991071051012501999999MA1999999100891MD1310061+9999REMSYN076AAXX  27154 10640 42680 72004 10077 20049 30089 40207 53006 875// 333 87633;
0216106400999992000112718004+50110+008730FM-12+011299999V0201501N002112200019N0250001N1+00681+00491102161ADDGA1041+015009059GF104991041051017501999001KA1120M+00841KA2120N+00601MA1999999100981MD1110091+9999REMSYN088AAXX  27184 10640 42775 41504 10068 20049 30098 40216 51009 84500 333 10084 20060 84650;EQDQ01    003SCOMCG
0262106400999992000112806004+50110+008730FM-12+011299999V0201501N00101004201CN0060001N1+00601+00571101811ADDAA124000891AY161061AY221061GA1021+004209079GF108991071051004501999999GJ101629KA1120M+00681KA2120N+00541MA1999999100631MD1610081+9999MW1611REMSYN112AAXX  28064 10640 11456 81502 10060 20057 30063 40181 56008 76162 875// 333 10068 20054 55027 70008 82714 87623;
0193106400999992000112809004+50110+008730FM-12+011299999V0202201N002110030019N0040001N1+00751+00721101851ADDAY161031AY261031GA1051+003009079GF108991081051004501999999MA1999999100671MD1310051+9999MW1601REMSYN088AAXX  28094 10640 41440 82204 10075 20072 30067 40185 53005 76066 885// 333 85710 88614;
0187106400999992000112812004+50110+008730FM-12+011299999V0202301N001510030019N0038001N1+00941+00921101821ADDAY161061AY251061GA1081+003009069GF108991081061004501999999MA1999999100651MD1610021+9999MW1201REMSYN082AAXX  28124 10640 41438 82303 10094 20092 30065 40182 56002 72065 886// 333 88710;
0193106400999992000112815004+50110+008730FM-12+011299999V0202301N002610015019N0050001N1+01111+01081101771ADDAY161031AY251031GA1051+001509079GF108991081051001501999999MA1999999100611MD1710041+9999MW1021REMSYN088AAXX  28154 10640 41250 82305 10111 20108 30061 40177 57004 70265 885// 333 85705 87620;
0231106400999992000112818004+50110+008730FM-12+011299999V0202201N002610060019N0100001N1+01211+01181101851ADDAY161061AY251061GA1051+006009069GF107991071051008001999999KA1120M+01221KA2120N+00601MA1999999100691MD1210081+9999MW1011REMSYN100AAXX  28184 10640 41560 72205 10121 20118 30069 40185 52008 70165 875// 333 10122 20060 85620 87650;
0240106400999992000112906004+50110+008730FM-12+011299999V0201101N000512200019N0023001N1+00621+00601101591ADDAA124000791GA1021+002109069GF102991021061002501001001GJ100009KA1120M+01211KA2120N+00521MA1999999100411MD1610101+9999MW1101REMSYN106AAXX  29064 10640 41323 21101 10062 20060 30041 40159 56010 710// 82600 333 10121 20052 55000 70007 82707;
0165106400999992000112909004+50110+008730FM-12+011299999V0201501N001519999999N0090001N1+00841+00811101641ADDGA1031+030009039GF106991031001999999031011MA1999999100471MD1110061+9999REMSYN082AAXX  29094 10640 42959 61503 10084 20081 30047 40164 51006 83031 333 83360 86074;
0165106400999992000112912004+50110+008730FM-12+011299999V0201301N001019999999N0120001N1+01241+00981101481ADDGA1011+030009039GF106991011001999999031011MA1999999100331MD1810141+9999REMSYN082AAXX  29124 10640 42962 61302 10124 20098 30033 40148 58014 81031 333 81360 86074;
0165106400999992000112915004+50110+008730FM-12+011299999V0201401N002119999999N0180001N1+01171+00961101401ADDGA1041+033009039GF106991041001999999031011MA1999999100251MD1710091+9999REMSYN082AAXX  29154 10640 42968 61404 10117 20096 30025 40140 57009 84031 333 84361 86074;
0203106400999992000112918004+50110+008730FM-12+011299999V0201301N001019999999N0180001N1+01021+00931101441ADDGA1031+033009039GF107991031001999999031011KA1120M+01321KA2120N+00501MA1999999100281MD1310031+9999REMSYN094AAXX  29184 10640 42968 71302 10102 20093 30028 40144 53003 83031 333 10132 20050 83361 87074;
0273106400999992000113006004+50110+008730FM-12+011299999V0209999C000019999999N0150001N1+00741+00711101901ADDAA124999999AY161061GA1041+027009039GF108991081001999999071999GJ102649KA1120M+01021KA2120N+00721MA1999999100721MD1210131+9999MW1021REMSYN112AAXX  30064 10640 41965 80000 10074 20071 30072 40190 52013 7026/ 8807/ 333 10102 20072 55044 79999 84359 88461;EQDQ01  99992PRCP24
0187106400999992000113009004+50110+008730FM-12+011299999V0201301N001010270019N0150001N1+00841+00821102071ADDGA1011+018009069GA2051+027009039GF107991011051017501031061MA1999999100891MD1210171+9999REMSYN088AAXX  30094 10640 42765 71302 10084 20082 30089 40207 52017 81536 333 81656 85359 87274;
0159106400999992000113015004+50110+008730FM-12+011299999V0200401N001012200019N0160001N1+01161+00911101991ADDGA1011+018009059GF103991011051017501031011MA1999999100831MD1710011+9999REMSYN076AAXX  30154 10640 42766 30402 10116 20091 30083 40199 57001 81531 333 81656;
0216106400999992000113018004+50110+008730FM-12+011299999V0200701N001012200019N0160001N1+00871+00831102001ADDGA1011+015009059GF101991011051012501999001KA1120M+01271KA2120N+00731MA1999999100831MD1410001+9999REMSYN088AAXX  30184 10640 41666 10702 10087 20083 30083 40200 54000 81500 333 10127 20073 81650;EQDQ01    003SCOMCG
0228106400999992000120106004+50110+008730FM-12+011299999V0200801N001012200019N0100001N1+00531+00501101911ADDAA124000091GA1031+075009019GF103991001001999999001011GJ101209KA1120M+00901KA2120N+00521MA1999999100721MD1710051+9999REMSYN100AAXX  01064 10640 42960 30802 10053 20050 30072 40191 57005 80001 333 10090 20052 55020 70000 83075;
0159106400999992000120109004+50110+008730FM-12+011299999V0201101N001512200019N0100001N1+00641+00591101961ADDGA1031+075009019GF103991001001999999001011MA1999999100781MD1210071+9999REMSYN076AAXX  01094 10640 42960 31103 10064 20059 30078 40196 52007 80001 333 83075;
0159106400999992000120112004+50110+008730FM-12+011299999V0201601N002110090019N0150001N1+00701+00661101881ADDGA1061+009009059GF107991061051008001001011MA1999999100701MD1710021+9999REMSYN076AAXX  01124 10640 42565 71604 10070 20066 30070 40188 57002 86501 333 86630;
0187106400999992000120115004+50110+008730FM-12+011299999V0201001N002110300019N0150001N1+00741+00651101751ADDGA1031+012009069GA2041+030009039GF106991031051012501031011MA1999999100571MD1710131+9999REMSYN088AAXX  01154 10640 42665 61004 10074 20065 30057 40175 57013 83531 333 83640 84360 86075;
0225106400999992000120118004+50110+008730FM-12+011299999V0201401N002110300019N0120001N1+00571+00541101841ADDGA1031+012009069GA2031+030009039GF106991031051012501031011KA1120M+00771KA2120N+00521MA1999999100651MD1310081+9999REMSYN100AAXX  01184 10640 42662 61404 10057 20054 30065 40184 53008 83531 333 10077 20052 83640 83360 86075;
0254106400999992000120206004+50110+008730FM-12+011299999V0209999C00001002101CN0090001N1+00761+00731102001ADDAA124001591AY161061GA1031+002109079GF108991081051002501999999GJ100669KA1120M+00771KA2120N+00571MA1999999100821MD1210061+9999MW1021REMSYN112AAXX  02064 10640 41359 80000 10076 20073 30082 40200 52006 7026/ 885// 333 10077 20057 55011 70015 83707 88615;
0165106400999992000120209004+50110+008730FM-12+011299999V0200601N00051007501CN0150001N1+00901+00871102011ADDGA1041+006009069GF106991061051008001031001MA1999999100841MD1210021+9999REMSYN082AAXX  02094 10640 42565 60601 10090 20087 30084 40201 52002 86530 333 84620 86630;
0165106400999992000120212004+50110+008730FM-12+011299999V0200201N001010069019N0180001N1+01101+01051101951ADDGA1061+006909069GF107991061051008001031001MA1999999100791MD1710051+9999REMSYN082AAXX  02124 10640 42568 70202 10110 20105 30079 40195 57005 86530 333 86623 87360;
0225106400999992000120218004+50110+008730FM-12+011299999V0201001N001510075019N0100001N1+00981+00971101791ADDAY161061AY221061GA1071+007509059GF107991071051008001999999KA1120M+01181KA2120N+00751MA1999999100621MD1710051+9999MW1211REMSYN094AAXX  02184 10640 41560 71003 10098 20097 30062 40179 57005 72162 875// 333 10118 20075 87625;
0234106400999992000120306004+50110+008730FM-12+011299999V0200101N00051030001CN0100001N1+00641+00611101871ADDAA124000791GA1041+009009069GF108991041051008001031999GJ100249KA1120M+00981KA2120N+00631MA1999999100691MD1210121+9999REMSYN106AAXX  03064 10640 42560 80101 10064 20061 30069 40187 52012 8453/ 333 10098 20063 55004 70007 84630 86359;
0165106400999992000120309004+50110+008730FM-12+011299999V0202001N00261012001CN0150001N1+00951+00871102031ADDGA1011+007809089GF107991071081008001999999MA1999999100861MD1210141+9999REMSYN082AAXX  03094 10640 42565 72005 10095 20087 30086 40203 52014 878// 333 81826 87630;
0165106400999992000120312004+50110+008730FM-12+011299999V0202101N002110090019N0400001N1+00981+00771102151ADDGA1011+004509089GF107991071081004501999999MA1999999100981MD1210121+9999REMSYN082AAXX  03124 10640 42482 72104 10098 20077 30098 40215 52012 878// 333 81815 87630;
0197106400999992000120318004+50110+008730FM-12+011299999V0202001N002610150019N0300001N1+00951+00831102301ADDGA1071+015009059GF107991071051017501999999KA1120M+01001KA2120N+00611MA1999999101131MD1210061+9999REMSYN088AAXX  03184 10640 42780 72005 10095 20083 30113 40230 52006 875// 333 10100 20061 87650;
0228106400999992000120406004+50110+008730FM-12+011299999V0203601N000510120019N0120001N1+00541+00511102091ADDAA124000091GA1071+012009059GF107991071051012501999999GJ100009KA1120M+00951KA2120N+00421MA1999999100901MD1710121+9999REMSYN100AAXX  04064 10640 42662 73601 10054 20051 30090 40209 57012 875// 333 10095 20042 55000 70000 87640;
0165106400999992000120409004+50110+008730FM-12+011299999V0201301N00151220001CN0150001N1+00711+00631102051ADDGA1011+012009069GF106991011051012501001011MA1999999100861MD1210021+9999REMSYN082AAXX  04094 10640 42665 61303 10071 20063 30086 40205 52002 81501 333 81640 86075;
0187106400999992000120412004+50110+008730FM-12+011299999V0201601N00211075001CN0150001N1+01051+00671101901ADDGA1011+006009089GA2031+030009039GF105991011011008001031011MA1999999100731MD1710131+9999REMSYN088AAXX  04124 10640 42565 51604 10105 20067 30073 40190 57013 81131 333 81820 83360 85079;
0225106400999992000120418004+50110+008730FM-12+011299999V0201601N001019999999N0200001N1+00921+00721101941ADDAY121061AY221061GA1021+005409069GF108991999999004501999999KA1120M+01081KA2120N+00531MA1999999100771MD1210061+9999MW1611REMSYN094AAXX  04184 10640 41470 81602 10092 20072 30077 40194 52006 76122 333 10108 20053 82618 87650;
0256106400999992000120506004+50110+008730FM-12+011299999V0201101N001012200019N0050001N1+00611+00591102101ADDAA124001891AY101061AY201061GA1011+000159069GF101991011061000251001001GJ101869KA1120M+00921KA2120N+00581MA1999999100911MD1210051+9999MW1101REMSYN106AAXX  05064 10640 41050 11102 10061 20059 30091 40210 52005 71000 81600 333 10092 20058 55031 70018 81700;
0193106400999992000120509004+50110+008730FM-12+011299999V0201201N001512200019N0060001N1+00701+00671102131ADDAY101031AY201031GA1011+030009039GF104991011001999999031011MA1999999100951MD1210041+9999MW1101REMSYN088AAXX  05094 10640 41956 41203 10070 20067 30095 40213 52004 71000 81031 333 81360 84079;
0165106400999992000120512004+50110+008730FM-12+011299999V0201301N00151220001CN0200001N1+01081+00911101971ADDGA1011+004509089GF105991011011004501001011MA1999999100811MD1710141+9999REMSYN082AAXX  05124 10640 42470 51303 10108 20091 30081 40197 57014 81101 333 81815 85079;
0165106400999992000120515004+50110+008730FM-12+011299999V0201201N003119999999N0300001N1+01031+00871101841ADDGA1021+030009039GF107991021001999999031011MA1999999100671MD1710141+9999REMSYN082AAXX  05154 10640 42980 71206 10103 20087 30067 40184 57014 82031 333 82360 86075;
0197106400999992000120518004+50110+008730FM-12+011299999V0201001N001010750019N0150001N1+00861+00831101851ADDGA1071+075009019GF107991001001999999001011KA1120M+01201KA2120N+00601MA1999999100681MD1710051+9999REMSYN088AAXX  05184 10640 42965 71002 10086 20083 30068 40185 57005 80001 333 10120 20060 87075;
0228106400999992000120606004+50110+008730FM-12+011299999V0201101N001012200019N0100001N1+00521+00481101831ADDAA124000091GA1041+075009019GF104991001001999999001011GJ103129KA1120M+00871KA2120N+00521MA1999999100641MD1110021+9999REMSYN100AAXX  06064 10640 42960 41102 10052 20048 30064 40183 51002 80001 333 10087 20052 55052 70000 84075;
0159106400999992000120609004+50110+008730FM-12+011299999V0201301N002110270019N0100001N1+00501+00471101841ADDGA1051+027009019GF106991061001999999071011MA1999999100651MD1210031+9999REMSYN076AAXX  06094 10640 42960 61304 10050 20047 30065 40184 52003 86071 333 85459;
0159106400999992000120615004+50110+008730FM-12+011299999V0201101N002610075019N0200001N1+00611+00521101721ADDGA1071+007509059GF108991071051008001071999MA1999999100541MD1710061+9999REMSYN076AAXX  06154 10640 42570 81105 10061 20052 30054 40172 57006 8757/ 333 87625;
0228106400999992000120706004+50110+008730FM-12+011299999V0201301N001512200019N0200001N1+00671+00641101651ADDAA124000191GA1021+003609059GF102991021051002501001001GJ100009KA1120M+00781KA2120N+00601MA1999999100471MD1710031+9999REMSYN100AAXX  07064 10640 42370 21303 10067 20064 30047 40165 57003 82500 333 10078 20060 55000 70001 82612;
0159106400999992000120709004+50110+008730FM-12+011299999V0201201N002110120019N0180001N1+00791+00661101491ADDGA1051+012009059GF106991051051012501031011MA1999999100321MD1610111+9999REMSYN076AAXX  07094 10640 42668 61204 10079 20066 30032 40149 56011 85531 333 85640;
0165106400999992000120712004+50110+008730FM-12+011299999V0200701N002110150019N0200001N1+00831+00661101301ADDGA1051+015009069GF107991051051017501071999MA1999999100131MD1710161+9999REMSYN082AAXX  07124 10640 42770 70704 10083 20066 30013 40130 57016 8557/ 333 85650 87360;
0165106400999992000120715004+50110+008730FM-12+011299999V0201101N001010300019N0150001N1+00791+00591101111ADDGA1031+015009069GF108991031051012501051999MA1999999099941MD1710261+9999REMSYN082AAXX  07154 10640 41665 81102 10079 20059 39994 40111 57026 8355/ 333 83650 87360;
0225106400999992000120718004+50110+008730FM-12+011299999V0201201N002110150019N0150001N1+00771+00741100941ADDAY161061AY261061GA1081+015009059GF108991081051012501999999KA1120M+00861KA2120N+00671MA1999999099771MD1710081+9999MW1611REMSYN094AAXX  07184 10640 41665 81204 10077 20074 39977 40094 57008 76166 885// 333 10086 20067 88650;
0254106400999992000120806004+50110+008730FM-12+011299999V0201701N00051012001CN0150001N1+00831+00791100681ADDAA124000691AY161061GA1031+012009069GF107991071051012501999999GJ100009KA1120M+00941KA2120N+00771MA1999999099521MD1510061+9999MW1211REMSYN112AAXX  08064 10640 41665 71701 10083 20079 39952 40068 55006 7216/ 875// 333 10094 20077 55000 70006 83640 85650;
0215106400999992000120809004+50110+008730FM-12+011299999V0203501N00051030001CN0150001N1+00961+00931100771ADDAY161031AY221031GA1011+009009069GA2031+009009069GF107991031051008001071999MA1999999099611MD1310091+9999MW1021REMSYN094AAXX  08094 10640 41565 73501 10096 20093 39961 40077 53009 70262 8357/ 333 81630 83630 84461;
0215106400999992000120812004+50110+008730FM-12+011299999V0202001N005110150019N0200001N1+01331+01171100821ADDAY161061AY221061GA1011+004509089GA2071+015009069GF107991071081004501999999MA1999999099681MD1210071+9999MW1021REMSYN094AAXX  08124 10640 41470 72010 10133 20117 39968 40082 52007 70262 878// 333 81815 87650 91115;
0193106400999992000120815004+50110+008730FM-12+011299999V0201901N003619999999N0150001N1+01271+01191101021ADDAY161031AY221031GA1011+004209089GF108991081999004501999999MA1999999099871MD1210111+9999MW1201REMSYN088AAXX  08154 10640 41465 81907 10127 20119 39987 40102 52011 72062 88/// 333 81814 88640;
0203106400999992000120818004+50110+008730FM-12+011299999V0201801N00311009001CN0200001N1+01211+01151101141ADDGA1011+004809089GF107991071081004501999999KA1120M+01331KA2120N+00651MA1999999099991MD1210181+9999REMSYN094AAXX  08184 10640 42470 71806 10121 20115 39999 40114 52018 878// 333 10133 20065 81816 87640;
0226106400999992000120906004+50110+008730FM-12+011299999V0202201N00051012001CN0150001N1+00791+00761101601ADDAA124000791GA1011+008109089GF107991071081008001999999KA1120M+01211KA2120N+00791MA1999999100431MD1210081+9999REMSYN106AAXX  09064 10640 42565 72201 10079 20076 30043 40160 52008 878// 333 10121 20079 50000 70007 81827 87646;
0159106400999992000120909004+50110+008730FM-12+011299999V0202001N001012200019N0120001N1+00841+00751101711ADDGA1031+009009059GF104991031051008001081011MA1999999100541MD1210111+9999REMSYN076AAXX  09094 10640 42562 42002 10084 20075 30054 40171 52011 83581 333 83630;
0165106400999992000120912004+50110+008730FM-12+011299999V0202101N00211012001CN0200001N1+01061+00861101711ADDGA1041+006009089GF107991071081008001031999MA1999999100541MD1410001+9999REMSYN082AAXX  09124 10640 42570 72104 10106 20086 30054 40171 54000 8783/ 333 84820 86630;
0187106400999992000120915004+50110+008730FM-12+011299999V0202001N002110090019N0300001N1+01111+00811101761ADDGA1031+007509069GA2071+009009069GF107991071051008001001011MA1999999100601MD1210041+9999REMSYN088AAXX  09154 10640 42580 72004 10111 20081 30060 40176 52004 87501 333 83625 87630 87075;
0203106400999992000120918004+50110+008730FM-12+011299999V0201901N00311220001CN0300001N1+00971+00811101791ADDGA1041+007509069GF107991041051008001001011KA1120M+01141KA2120N+00781MA1999999100621MD1210061+9999REMSYN094AAXX  09184 10640 42580 71906 10097 20081 30062 40179 52006 84501 333 10114 20078 84625 86075;
0234106400999992000121006004+50110+008730FM-12+011299999V0201901N00211007501CN0150001N1+00851+00651101751ADDAA124000091GA1031+006009069GF106991061051008001001011GJ100909KA1120M+01001KA2120N+00751MA1999999100581MD1710091+9999REMSYN106AAXX  10064 10640 42565 61904 10085 20065 30058 40175 57009 86501 333 10100 20075 55015 70000 83620 85650;
0215106400999992000121009004+50110+008730FM-12+011299999V0201901N004110120019N0200001N1+00941+00641101651ADDAY161031AY221031GA1021+006009069GA2051+012009069GF108991061051004501021999MA1999999100481MD1710091+9999MW1611REMSYN094AAXX  10094 10640 41470 81908 10094 20064 30048 40165 57009 76162 8652/ 333 82620 85640 88460;
0237106400999992000121012004+50110+008730FM-12+011299999V0202001N004110060019N0200001N1+00881+00781101571ADDAY161061AY221061GA1021+003009079GA2041+006009069GA3071+007509069GF108991071051004501999999MA1999999100341MD1710161+9999MW1211REMSYN100AAXX  10124 10640 41470 82008 10088 20078 30034 40157 57016 72162 875// 333 82710 84620 87625 91116;
0187106400999992000121015004+50110+008730FM-12+011299999V0202001N002610060019N0400001N1+01001+00851101531ADDGA1051+006009069GA2061+009009069GF108991061051008001071999MA1999999100371MD1210031+9999REMSYN088AAXX  10154 10640 42582 82005 10100 20085 30037 40153 52003 8657/ 333 85620 86630 87360;
0253106400999992000121018004+50110+008730FM-12+011299999V0202301N007710060019N0100001N1+00961+00851101671ADDAY161061AY221061GA1021+003009079GA2031+006009089GF108991081081002501999999KA1120M+01001KA2120N+00851MA1999999100501MD1210131+9999MW1811REMSYN106AAXX  10184 10640 41360 82315 10096 20085 30050 40167 52013 78162 888// 333 10100 20085 82710 83820 87630;
0256106400999992000121106004+50110+008730FM-12+011299999V0202101N005110090019N0150001N1+01141+00941102361ADDAA124004391GA1031+006009069GA2061+009009069GF106991061051008001001001GJ100009KA1120M+01141KA2120N+00881MA1999999101191MD1210081+9999REMSYN112AAXX  11064 10640 42565 62110 10114 20094 30119 40236 52008 86500 333 10114 20088 55000 70043 83620 86630 91113;
0191106400999992000121109004+50110+008730FM-12+011299999V0202001N00461030001CN0400001N1+01041+00841102511ADDGA1011+009009069GA2031+030009039GF106991011051008001011001MD1210151+9999REMSYN088AAXX  11094 10640 42582 62009 10104 20084 31034 40251 52015 81510 333 81630 83360 86079;EQDQ01+010341APOSP 
0165106400999992000121112004+50110+008730FM-12+011299999V0202101N004612200019N0400001N1+01231+00781102471ADDGA1011+030009039GF104991011001999999031011MA1999999101311MD1710031+9999REMSYN082AAXX  11124 10640 42982 42109 10123 20078 30131 40247 57003 81031 333 81360 84079;
0165106400999992000121115004+50110+008730FM-12+011299999V0202001N002119999999N0300001N1+01211+00771102511ADDGA1031+030009039GF107991031001999999071021MA1999999101341MD1410001+9999REMSYN082AAXX  11154 10640 42980 72004 10121 20077 30134 40251 54000 83072 333 83360 87075;
0256106400999992000121206004+50110+008730FM-12+011299999V0202101N004610090019N0150001N1+01351+01071102311ADDAA124000091GA1031+006009069GA2071+009009069GF107991071051008001999999GJ101929KA1120M+01361KA2120N+01181MA1999999101151MD1210021+9999REMSYN112AAXX  12064 10640 42565 72109 10135 20107 30115 40231 52002 875// 333 10136 20118 55032 70000 83620 87630 91113;
0165106400999992000121209004+50110+008730FM-12+011299999V0202001N003610150019N0400001N1+01351+01071102301ADDGA1051+015009069GF107991051051017501071999MA1999999101201MD1210051+9999REMSYN082AAXX  12094 10640 42782 72007 10135 20107 30120 40230 52005 8557/ 333 85650 87360;
0215106400999992000121212004+50110+008730FM-12+011299999V0202101N002610270019N0250001N1+01341+01061102261ADDAY121061AY221061GA1021+015009069GA2071+027009039GF107991021051017501071999MA1999999101101MD1810101+9999MW1601REMSYN094AAXX  12124 10640 41775 72105 10134 20106 30110 40226 58010 76022 8257/ 333 82650 87359 91113;
0193106400999992000121215004+50110+008730FM-12+011299999V0201901N00311030001CN0300001N1+01391+00901102121ADDAY161031AY221031GA1041+015009069GF107991041051017501071999MA1999999100971MD1710141+9999MW1211REMSYN088AAXX  12154 10640 41780 71906 10139 20090 30097 40212 57014 72162 8457/ 333 84650 87359;
0231106400999992000121218004+50110+008730FM-12+011299999V0201901N00211012001CN0250001N1+01341+00891102031ADDAY161061AY221061GA1031+012009069GF107991071051012501999999KA1120M+01421KA2120N+00891MA1999999100891MD1710091+9999MW1211REMSYN100AAXX  12184 10640 41675 71904 10134 20089 30089 40203 57009 72162 875// 333 10142 20089 83640 86650;
0259106400999992000121306004+50110+008730FM-12+011299999V0202101N006710240019N0300001N1+01361+00811101481ADDAA124000291GA1041+008409069GA2071+024009039GF107991041051008001071999GJ100009KA1120M+01411KA2120N+01151MA1999999100331OA149901181REMSYN118AAXX  13064 10640 42580 72113 10136 20081 30033 40148 5//// 8457/ 333 10141 20115 55000 70002 84628 87358 91123 91217;
0204106400999992000121309004+50110+008730FM-12+011299999V0202201N006712200019N0400001N1+01311+00731101761ADDGA1021+004509089GA2041+087009009GF104991021011004501031011MA1999999100611MD1210281+9999OA149901181REMSYN094AAXX  13094 10640 42482 42213 10131 20073 30061 40176 52028 82131 333 82815 84079 91123 91217;
0176106400999992000121312004+50110+008730FM-12+011299999V0202201N008712200019N0400001N1+99999+99999101831ADDGA1041+009009089GF104991041021008001031011MA1999999100671MD1210061+9999OA149901081REMSYN082AAXX  13124 10640 42582 42217 20037 30067 40183 52006 84231 333 84830 91121 91215;
0187106400999992000121315004+50110+008730FM-12+011299999V0202101N004610300019N0300001N1+01251+00421101791ADDGA1011+009009089GA2031+012009069GF106991031081008001031001MA1999999100641MD1710031+9999REMSYN088AAXX  13154 10640 42580 62109 10125 20042 30064 40179 57003 83830 333 81830 83640 85360;
0203106400999992000121318004+50110+008730FM-12+011299999V0202001N003610300019N0300001N1+01151+00621101661ADDGA1041+010809069GF107991041051012501031999KA1120M+01361KA2120N+01071MA1999999100501MD1710141+9999REMSYN094AAXX  13184 10640 42680 72007 10115 20062 30050 40166 57014 8453/ 333 10136 20107 84636 85360;
0284106400999992000121406004+50110+008730FM-12+011299999V0202101N003610084019N0200001N1+00801+00731101291ADDAA124005091AY161061AY221061GA1021+005109089GA2051+008409069GF107991051081004501031011GJ102229KA1120M+01211KA2120N+00771MA1999999100121MD1810141+9999MW1021REMSYN118AAXX  14064 10640 41470 72107 10080 20073 30012 40129 58014 70262 85831 333 10121 20077 55037 70050 82817 85628 86074;
0237106400999992000121412004+50110+008730FM-12+011299999V0202001N006210090019N0100001N1+00891+00801100941ADDAY121061AY221061GA1031+006009089GA2061+009009069GA3081+030009039GF108991071081004501031999MA1999999099781MD1710181+9999MW1801REMSYN100AAXX  14124 10640 41460 82012 10089 20080 39978 40094 57018 78022 8783/ 333 83820 86630 88360 91112;
0193106400999992000121415004+50110+008730FM-12+011299999V0201701N003110060019N0100001N1+00851+00831100681ADDAY181031AY261031GA1051+006009069GF108991081051008001999999MA1999999099521MD1710261+9999MW1611REMSYN088AAXX  14154 10640 41560 81706 10085 20083 39952 40068 57026 76186 885// 333 85620 87630;
0253106400999992000121418004+50110+008730FM-12+011299999V0202001N004110090019N0150001N1+00841+00801100501ADDAY161061AY261061GA1041+006009069GA2071+009009069GF108991081051008001999999KA1120M+01011KA2120N+00771MA1999999099341MD1710181+9999MW1611REMSYN106AAXX  14184 10640 41565 82008 10084 20080 39934 40050 57018 76166 885// 333 10101 20077 84620 87630 91113;
0256106400999992000121506004+50110+008730FM-12+011299999V0202201N004110060019N0100001N1+00571+00521100371ADDAA124010091AY161061AY221061GA1071+006009059GF108991071051008001999999GJ100009KA1120M+00881KA2120N+00571MA1999999099201MD1710071+9999MW1611REMSYN106AAXX  15064 10640 11560 82208 10057 20052 39920 40037 57007 76162 875// 333 10088 20057 55000 70100 87620;
0165106400999992000121509004+50110+008730FM-12+011299999V0202201N00461007501CN0200001N1+00611+00391100491ADDGA1031+006009069GF106991061051008001999999MA1999999099321MD1310111+9999REMSYN082AAXX  15094 10640 42570 62209 10061 20039 39932 40049 53011 865// 333 83620 84633;
0193106400999992000121512004+50110+008730FM-12+011299999V0202201N005110090019N0300001N1+00681+00351100491ADDAY121061AY221061GA1021+006009089GF107991071081004501999999MA1999999099321MD1410001+9999MW1211REMSYN088AAXX  15124 10640 42480 72210 10068 20035 39932 40049 54000 72122 878// 333 82820 87630;
0215106400999992000121515004+50110+008730FM-12+011299999V0202401N003610090019N0200001N1+00701+00431100661ADDAY161031AY221031GA1021+006009089GA2071+009009069GF107991071081004501999999MA1999999099491MD1210131+9999MW1611REMSYN094AAXX  15154 10640 41470 72407 10070 20043 39949 40066 52013 76162 878// 333 82820 87630 91114;
0275106400999992000121518004+50110+008730FM-12+011299999V0202401N004110300019N0250001N1+00661+00381100751ADDAY161061AY221061GA1011+006009089GA2041+009009069GA3081+030009049GF108991041081004501021999KA1120M+00701KA2120N+00531MA1999999099581MD1210161+9999MW1211REMSYN112AAXX  15184 10640 41475 82408 10066 20038 39958 40075 52016 72162 8482/ 333 10070 20053 81820 84630 88460 91114;
0234106400999992000121606004+50110+008730FM-12+011299999V0202401N003112200019N0280001N1+00381-00051101071ADDAA124000391GA1031+010509069GF103991031051012501001001GJ100609KA1120M+00661KA2120N+00371MA1999999099881MD1110021+9999REMSYN106AAXX  16064 10640 42678 32406 10038 21005 39988 40107 51002 83500 333 10066 20037 55010 70003 83635 91114;
0165106400999992000121609004+50110+008730FM-12+011299999V0202401N003112200019N0300001N1+00441+00011101241ADDGA1011+006009089GF104991041081004501031011MA1999999100061MD1210111+9999REMSYN082AAXX  16094 10640 42480 42406 10044 20001 30006 40124 52011 84831 333 81820 83640;
0165106400999992000121612004+50110+008730FM-12+011299999V0202501N00261012001CN0300001N1+00591-00101101301ADDGA1021+006009089GF105991051081008001001011MA1999999100121MD1210071+9999REMSYN082AAXX  16124 10640 42580 52505 10059 21010 30012 40130 52007 85801 333 82820 84656;
0187106400999992000121615004+50110+008730FM-12+011299999V0202301N00411030001CN0300001N1+00491-00031101351ADDGA1031+009009089GA2031+012009069GF105991041081008001031011MA1999999100171MD1210051+9999REMSYN088AAXX  16154 10640 42580 52308 10049 21003 30017 40135 52005 84831 333 83830 83640 85079;
0203106400999992000121618004+50110+008730FM-12+011299999V0202301N004112200019N0200001N1+00331+00141101431ADDGA1011+006009089GF103991031081008001001011KA1120M+00641KA2120N+00321MA1999999100241MD1210071+9999REMSYN094AAXX  16184 10640 42570 32308 10033 20014 30024 40143 52007 83801 333 10064 20032 81820 83630;
0262106400999992000121706004+50110+008730FM-12+011299999V0201601N00101001201CN0100001N1+00181+00151101471ADDAA124000491AY171061AY221061GA1031+001509079GF108991081051001501999999GJ103669KA1120M+00331KA2120N+00171MA1999999100271MD1710021+9999MW1611REMSYN112AAXX  17064 10640 41260 81602 10018 20015 30027 40147 57002 76172 885// 333 10033 20017 55061 70004 83705 87620;
0215106400999992000121709004+50110+008730FM-12+011299999V0201901N00101000601CN0150001N1+00181+00151101611ADDAY171031AY261031GA1011+000909079GA2031+006009069GF107991071051000751999999MA1999999100411MD1210141+9999MW1011REMSYN094AAXX  17094 10640 41165 71902 10018 20015 30041 40161 52014 70176 875// 333 81703 83620 87640;
0187106400999992000121712004+50110+008730FM-12+011299999V0202201N000510210019N0250001N1+00361+00271101671ADDGA1011+006009089GA2041+021009069GF106991041081008001031011MA1999999100481MD1210061+9999REMSYN088AAXX  17124 10640 42575 62201 10036 20027 30048 40167 52006 84831 333 81820 84657 85360;
0165106400999992000121715004+50110+008730FM-12+011299999V0202001N001019999999N0200001N1+00371+00181101741ADDGA1021+027009039GF107991021001999999031011MA1999999100551MD1210041+9999REMSYN082AAXX  17154 10640 42970 72002 10037 20018 30055 40174 52004 82031 333 82359 87075;
0203106400999992000121718004+50110+008730FM-12+011299999V0202201N00101220001CN0180001N1+00291+00151101861ADDGA1041+024009039GF106991041001022501031011KA1120M+00481KA2120N+00151MA1999999100661MD1210141+9999REMSYN094AAXX  17184 10640 42868 62202 10029 20015 30066 40186 52014 84031 333 10048 20015 84358 85075;
0256106400999992000121806004+50110+008730FM-12+011299999V0200701N000510012019N0020001N1-00071-00101102231ADDAA124000091AY121061AY221061GA1071+001209069GF107991071061001501999999GJ101149KA1120M+00301KA2120N-00171MA1999999101081MD1210041+9999MW1101REMSYN106AAXX  18064 10640 41220 70701 11007 21010 30108 40223 52004 71022 876// 333 10030 21017 55019 70000 87704;
0206106400999992000121809004+50110+008730FM-12+011299999V0201501N000510009019N0005001N1-00061-00091102311ADDAY121031AY221031GA1081+000909069GF108991081061000751999999MA1999999101091MD1110081+9999MW1441REMSYN082AAXX  18094 10640 41105 81501 11006 21009 30109 40231 51008 74522 886// 333 88703;EQDQ01+000452PRSWM1
0193106400999992000121812004+50110+008730FM-12+011299999V0201501N00051001201CN0050001N1+00101+00071102231ADDAY141061AY221061GA1041+001809079GF108991081061001501999999MA1999999101021MD1810061+9999MW1771REMSYN088AAXX  18124 10640 41250 81501 10010 20007 30102 40223 58006 77742 886// 333 84706 88710;
0187106400999992000121815004+50110+008730FM-12+011299999V0200801N001010009019N0030001N1+00261+00231102121ADDAY171031AY221031GA1081+000909069GF108991081061002501999999MA1999999100921MD1710081+9999MW1101REMSYN082AAXX  18154 10640 41330 80802 10026 20023 30092 40212 57008 71072 886// 333 88703;
0225106400999992000121818004+50110+008730FM-12+011299999V0201301N001010009019N0030001N1+00261+00241102131ADDAY171061AY241061GA1081+000909069GF108991081061002501999999KA1120M+00481KA2120N+00151MA1999999100931MD1710011+9999MW1511REMSYN094AAXX  18184 10640 41330 81302 10026 20024 30093 40213 57001 75174 886// 333 10048 20015 88703;
0256106400999992000121906004+50110+008730FM-12+011299999V0203601N00101001201CN0060001N1+00301+00211999999ADDAA124006191AY161061AY261061GA1041+001509079GF108991081071001501999999GJ100009KA1120M+00321KA2120N+00211MA1999999101011MD1210061+9999MW1631REMSYN106AAXX  19064 10640 41256 83602 10030 20021 30101 52006 76366 887// 333 10032 20021 55000 70061 84705 87708;
0193106400999992000121909004+50110+008730FM-12+011299999V0203601N00211001201CN0060001N1+00341+00311102351ADDAY161031AY261031GA1031+001509079GF108991081071001501999999MA1999999101151MD1210151+9999MW1611REMSYN088AAXX  19094 10640 41256 83604 10034 20031 30115 40235 52015 76166 887// 333 83705 88708;
0193106400999992000121912004+50110+008730FM-12+011299999V0200401N00211002101CN0060001N1+00441+00411102431ADDAY161061AY221061GA1031+002409079GF108991071051002501999999MA1999999101231MD1210091+9999MW1021REMSYN088AAXX  19124 10640 41356 80404 10044 20041 30123 40243 52009 70262 875// 333 83708 87618;
0193106400999992000121915004+50110+008730FM-12+011299999V0200301N00211002101CN0060001N1+00481+00431102531ADDAY161031AY221031GA1031+002409079GF108991071051002501999999MA1999999101331MD1210031+9999MW1211REMSYN088AAXX  19154 10640 41356 80304 10048 20043 30133 40253 52003 72162 875// 333 83708 87618;
0203106400999992000121918004+50110+008730FM-12+011299999V0200501N00211002101CN0100001N1+00431+00371102601ADDGA1031+003009079GF108991081051002501999999KA1120M+00501KA2120N+00301MA1999999101401MD1110111+9999REMSYN094AAXX  19184 10640 42360 80504 10043 20037 30140 40260 51011 885// 333 10050 20030 83710 87623;
0228106400999992000122006004+50110+008730FM-12+011299999V0200501N002110060019N0200001N1+00101-00041102651ADDAA124000691GA1081+006009059GF108991081051008001999999GJ100009KA1120M+00441KA2120N+00071MA1999999101431MD1710051+9999REMSYN100AAXX  20064 10640 42570 80504 10010 21004 30143 40265 57005 885// 333 10044 20007 55000 70006 88620;
0148106400999992000122009004+50110+008730FM-12+011299999V0200701N002110069019N0200001N1+00131+99999999999ADDGA1061+006909059GF106991061051008001001001MA1999999101521ME1210099REMSYN070AAXX  20094 10640 42570 60704 10013 20152 30152 42009 86500 333 86623;
0159106400999992000122012004+50110+008730FM-12+011299999V0200901N003112200019N0250001N1+00481-00171102601ADDGA1031+084009019GF103991001001999999001011MA1999999101401MD1710121+9999REMSYN076AAXX  20124 10640 42975 30906 10048 21017 30140 40260 57012 80001 333 83078;
0159106400999992000122015004+50110+008730FM-12+011299999V0201001N002110750019N0350001N1+00391-00301102541ADDGA1051+075009019GF105991001001999999001011MA1999999101341MD1710071+9999REMSYN076AAXX  20154 10640 42981 51004 10039 21030 30134 40254 57007 80001 333 85075;
0197106400999992000122018004+50110+008730FM-12+011299999V0200601N002610750019N0350001N1+00221-00341102561ADDGA1051+075009019GF105991001001999999001011KA1120M+00521KA2120N+00081MA1999999101351MD1510021+9999REMSYN088AAXX  20184 10640 42981 50605 10022 21034 30135 40256 55002 80001 333 10052 20008 85075;
0235106400999992000122106004+50110+008730FM-12+011299999V0200501N001512200019N0200001N1-00091-00551102671ADDAA124000091GA1001+999999999GF100991001001999999001001GJ103249KA1120M+00221KA2120N-00111MA1999999101441MD1110021+9999REMSYN088AAXX  21064 10640 42970 00503 11009 21055 30144 40267 51002 333 10022 21011 55054 70000;EQDQ01  00002PRCP24
0159106400999992000122109004+50110+008730FM-12+011299999V0200501N001512200019N0250001N1-00031-00531102751ADDGA1031+072009019GF103991001001999999001011MA1999999101531MD1210091+9999REMSYN076AAXX  21094 10640 42975 30503 11003 21053 30153 40275 52009 80001 333 83074;
0159106400999992000122112004+50110+008730FM-12+011299999V0200701N002112200019N0300001N1+00331-00591102691ADDGA1031+072009019GF103991001001999999001011MA1999999101481MD1810051+9999REMSYN076AAXX  21124 10640 42980 30704 10033 21059 30148 40269 58005 80001 333 83074;
0228106400999992000122206004+50110+008730FM-12+011299999V0200201N001010063019N0150001N1-00441-00621102661ADDAA124000091GA1051+006309059GF105991051051008001001011GJ104449KA1120M+00041KA2120N-00441MA1999999101421MD1610071+9999REMSYN100AAXX  22064 10640 42565 50202 11044 21062 30142 40266 56007 85501 333 10004 21044 55074 70000 85621;
0159106400999992000122209004+50110+008730FM-12+011299999V0200301N001512200019N0150001N1-00341-00571102651ADDGA1041+006009059GF104991041051004501001011MA1999999101411MD1410001+9999REMSYN076AAXX  22094 10640 42465 40303 11034 21057 30141 40265 54000 84501 333 84620;
0133106400999992000122212004+50110+008730FM-12+011299999V0200501N002112200019N0150001N1-00061-00501102481ADDGF101991001001999999001011MA1999999101261MD1210141+9999REMSYN066AAXX  22124 10640 42965 10504 11006 21050 30126 40248 52014 80001;
0197106400999992000122218004+50110+008730FM-12+011299999V0200801N001512200019N0100001N1-00181-00511102241ADDGA1011+075009019GF101991001001999999001011KA1120M+00051KA2120N-00441MA1999999101021MD1710081+9999REMSYN088AAXX  22184 10640 42960 10803 11018 21051 30102 40224 57008 80001 333 10005 21044 81075;
0159106400999992000122309004+50110+008730FM-12+011299999V0201301N001012200019N0080001N1-00561-00651101931ADDGA1011+060009019GF101991001001999999001011MA1999999100691MD1210021+9999REMSYN076AAXX  23094 10640 42958 11302 11056 21065 30069 40193 52002 80001 333 81070;
0187106400999992000122312004+50110+008730FM-12+011299999V0202101N001510012019N0030001N1-00241-00431101811ADDAY111061AY211061GA1051+001209069GF105991051061001501001001MA1999999100591MD1710101+9999MW1101REMSYN082AAXX  23124 10640 41230 52103 11024 21043 30059 40181 57010 71011 85600 333 85704;
0193106400999992000122315004+50110+008730FM-12+011299999V0202201N00151001201CN0030001N1-00321-00361101611ADDAY171031AY221031GA1041+000909079GF107991071061001501999999MA1999999100401MD1710211+9999MW1221REMSYN088AAXX  23154 10640 41230 72203 11032 21036 30040 40161 57021 72272 876// 333 84703 87705;
0231106400999992000122318004+50110+008730FM-12+011299999V0202301N001510009019N0030001N1-00351-00381101521ADDAY171061AY221061GA1051+000909079GF108991081061001501999999KA1120M-00221KA2120N-00651MA1999999100301MD1710121+9999MW1771REMSYN100AAXX  23184 10640 41230 82303 11035 21038 30030 40152 57012 77772 886// 333 11022 21065 85703 87705;
0250106400999992000122406004+50110+008730FM-12+011299999V0201601N000510003019N0004001N1-00401-00431101031ADDAA124000091AY141061AY241061GA1091+000309999GF109991091999999999999999GJ102949KA1120M-00351KA2120N-00431MA1999999099811MD1710111+9999MW1491REMSYN100AAXX  24064 10640 41/04 91601 11040 21043 39981 40103 57011 74944 333 11035 21043 55049 70000 89/01;
0181106400999992000122409004+50110+008730FM-12+011299999V0201301N001010003019N0003001N1-00401-00431100931ADDAY141031AY241031GA1091+000309999GF109991091999999999999999MA1999999099711MD1710091+9999MW1491REMSYN076AAXX  24094 10640 41/03 91302 11040 21043 39971 40093 57009 74944 333 89/01;
0187106400999992000122412004+50110+008730FM-12+011299999V0201901N000510018019N0030001N1-00281-00311100751ADDAY141061AY221061GA1071+001809069GF107991071061001501999999MA1999999099541MD1710181+9999MW1101REMSYN082AAXX  24124 10640 41230 71901 11028 21031 39954 40075 57018 71042 876// 333 87706;
0187106400999992000122415004+50110+008730FM-12+011299999V0203501N00051001201CN0060001N1-00151-00181999999ADDAY121031AY221031GA1041+001509079GF107991071051001501999999MA1999999099311MD1710201+9999MW1101REMSYN082AAXX  24154 10640 41256 73501 11015 21018 39931 57020 71022 875// 333 84705 87630;
0225106400999992000122418004+50110+008730FM-12+011299999V0201701N000510030019N0060001N1-00071-00101100391ADDAY161061AY221061GA1081+003009069GF108991081071004501999999KA1120M-00041KA2120N-00431MA1999999099191MD1710181+9999MW1101REMSYN094AAXX  24184 10640 41456 81701 11007 21010 39919 40039 57018 71062 887// 333 11004 21043 88710;
0262106400999992000122506004+50110+008730FM-12+011299999V0203501N00101000601CN0060001N1+00081+00051099751ADDAA124000991AY161061AY221061GA1041+000909079GF108991081051000751999999GJ100009KA1120M+00081KA2120N-00081MA1999999098571MD1710141+9999MW1611REMSYN112AAXX  25064 10640 41156 83502 10008 20005 39857 49975 57014 76162 885// 333 10008 21008 55000 70009 84703 87620;
0197106400999992000122509004+50110+008730FM-12+011299999V0200601N00101000601CN0020001N1+00081+00051099861ADDAY161031AY221031GA1041+000909079GF108991081051000751999999MD1710011+9999MW1211REMSYN088AAXX  25094 10640 41120 80602 10008 20005 39976 49986 57001 72162 885// 333 84703 87620;EQDQ01+099763APOSP 
0193106400999992000122512004+50110+008730FM-12+011299999V0200201N00151000601CN0020001N1+00131+00101099731ADDAY161061AY251061GA1041+000909079GF108991081051000751999999MA1999999098551MD1710041+9999MW1511REMSYN088AAXX  25124 10640 41120 80203 10013 20010 39855 49973 57004 75165 885// 333 84703 87620;
0212106400999992000122515004+50110+008730FM-12+011299999V0200101N00151000601CN0020001N1+00131+00101099791ADDAY171031AY261031GA1041+000609079GF108991999051000751071999MA1999999098611MD1210031+9999MW1681REMSYN088AAXX  25154 10640 41120 80103 10013 20010 39861 49979 52003 76876 8857/ 333 84702 87620;EQDQ01+000082SCOTLC
0231106400999992000122518004+50110+008730FM-12+011299999V0200101N001510006019N0030001N1+00121+00091099861ADDAY171061AY261061GA1051+000609079GF108991081051000751999999KA1120M+00141KA2120N+00081MA1999999098681MD1210111+9999MW1271REMSYN100AAXX  25184 10640 41130 80103 10012 20009 39868 49986 52011 72776 885// 333 10014 20008 85702 87616;
0291106400999992000122606004+50110+008730FM-12+011299999V0200201N001510009019N0030001N1+00051+00021099561ADDAA124005591AJ100019199999999AY171061AY251061GA1051+000909079GF108991081061000751999999GJ100009IA1309KA1120M+00131KA2120N+00021MA1999999098381MD1710161+9999MW1531REMSYN118AAXX  26064 10640 41130 80203 10005 20002 39838 49956 57016 75375 886// 333 10013 20002 42001 55000 70055 85703 88706;
0193106400999992000122609004+50110+008730FM-12+011299999V0203401N00151000601CN0030001N1+00071+00041099501ADDAY161031AY251031GA1031+000609079GF108991081051000751999999MA1999999098321MD1710061+9999MW1611REMSYN088AAXX  26094 10640 41130 83403 10007 20004 39832 49950 57006 76165 885// 333 83702 87515;
0193106400999992000122612004+50110+008730FM-12+011299999V0203401N00101000601CN0040001N1+00121+00091099251ADDAY161061AY251061GA1031+000609079GF108991081071000751999999MA1999999098101MD1710211+9999MW1631REMSYN088AAXX  26124 10640 41140 83402 10012 20009 39810 49925 57021 76365 887// 333 83702 87706;
0193106400999992000122615004+50110+008730FM-12+011299999V0200401N00051001201CN0030001N1+00181+00151099171ADDAY161031AY261031GA1041+001209079GF108991081071001501999999MA1999999098001MD1710121+9999MW1211REMSYN088AAXX  26154 10640 41230 80401 10018 20015 39800 49917 57012 72166 887// 333 84704 88708;
0231106400999992000122618004+50110+008730FM-12+011299999V0203601N00051001201CN0040001N1+00191+00161099181ADDAY151061AY221061GA1031+001209079GF108991081071001501999999KA1120M+00201KA2120N+00051MA1999999098011MD1310021+9999MW1101REMSYN100AAXX  26184 10640 41240 83601 10019 20016 39801 49918 53002 71052 887// 333 10020 20005 83704 88707;
0262106400999992000122706004+50110+008730FM-12+011299999V0200701N001019999999N0050001N1+00311+00281099171ADDAA124018791AY161061AY221061GA1041+000909079GF108991051999000751999999GJ100009KA1120M+00321KA2120N+00171MA1999999098001MD1710041+9999MW1021REMSYN112AAXX  27064 10640 41150 80702 10031 20028 39800 49917 57004 70262 85/// 333 10032 20017 55000 70187 84703 85620;
0234106400999992000122709004+50110+008730FM-12+011299999V0200801N001010051019N0050001N1+00351+00321099181ADDAY161031AY221031GA1041+001209079GA2071+005109069GF108991999061001501071999MA1999999098021MD1210011+9999MW1611REMSYN094AAXX  27094 10640 41250 80802 10035 20032 39802 49918 52001 76162 8867/ 333 84704 87617 88460;EQDQ01+000082SCOTLC
0215106400999992000122712004+50110+008730FM-12+011299999V0201301N00151001201CN0045001N1+00421+00391099191ADDAY161061AY261061GA1011+001509079GA2031+003609069GF108991081051001501999999MA1999999098031MD1410001+9999MW1631REMSYN094AAXX  27124 10640 41245 81303 10042 20039 39803 49919 54000 76366 885// 333 81705 83612 88620;
0225106400999992000122718004+50110+008730FM-12+011299999V0200901N001010090019N0090001N1+00481+00451099241ADDAY161061AY221061GA1071+009009059GF107991071051008001999999KA1120M+00501KA2120N+00291MA1999999098081MD1110041+9999MW1021REMSYN094AAXX  27184 10640 41559 70902 10048 20045 39808 49924 51004 70262 875// 333 10050 20029 87630;
0284106400999992000122806004+50110+008730FM-12+011299999V0202101N002610060019N0070001N1+00461+00431099491ADDAA124007091AY161061AY221061GA1011+000909079GA2041+006009069GF108991081051000751999999GJ100009KA1120M+00501KA2120N+00291MA1999999098331MD1210051+9999MW1101REMSYN118AAXX  28064 10640 41157 82105 10046 20043 39833 49949 52005 71062 885// 333 10050 20029 55000 70070 81703 84620 87630;
0187106400999992000122809004+50110+008730FM-12+011299999V0202501N003110300019N0200001N1+00361+00261099731ADDGA1011+004809089GA2041+009009069GF107991041081004501071999MA1999999098561MD1210231+9999REMSYN088AAXX  28094 10640 42470 72506 10036 20026 39856 49973 52023 8487/ 333 81816 84630 86360;
0165106400999992000122812004+50110+008730FM-12+011299999V0202101N00261009001CN0180001N1+00321+00241099941ADDGA1011+004509089GF107991071081004501999999MA1999999098771MD1210201+9999REMSYN082AAXX  28124 10640 42468 72105 10032 20024 39877 49994 52020 878// 333 81815 87622;
0159106400999992000122815004+50110+008730FM-12+011299999V0202201N003610078019N0180001N1+00321-00101100001ADDGA1051+007809059GF105991051051008001001001MA1999999098821MD1210051+9999REMSYN076AAXX  28154 10640 42568 52207 10032 21010 39882 40000 52005 85500 333 85626;
0225106400999992000122818004+50110+008730FM-12+011299999V0202001N003610072019N0150001N1+00331-00021100001ADDAY171061AY221061GA1071+007209059GF107991071051008001001001KA1120M+00461KA2120N+00281MA1999999098831MD1710021+9999MW1021REMSYN094AAXX  28184 10640 41565 72007 10033 21002 39883 40000 57002 70272 87500 333 10046 20028 87624;
0253106400999992000122906004+50110+008730FM-12+011299999V0201901N001010054019N0140001N1+00091+00061099991ADDAA124999999GA1061+005409069GF107991061051004501071999GJ100609KA1120M+00331KA2120N+00011MA1999999099801MD1610011+9999REMSYN106AAXX  29064 10640 42464 71902 10009 20006 39980 49999 56001 8657/ 333 10033 20001 55010 79999 86618 87359;EQDQ01  99992PRCP24
0193106400999992000122909004+50110+008730FM-12+011299999V0202201N00051000601CN0030001N1+00121+00091100151ADDAY171031AY271031GA1031+000609079GF108991081051000751999999MA1999999098962MD1210061+9999MW1711REMSYN088AAXX  29094 10640 41130 82201 10012 20009 39896 40015 52006 77177 885// 333 83702 87615;
0193106400999992000122912004+50110+008730FM-12+011299999V0202001N00211000601CN0050001N1+00181+00151100141ADDAY171061AY221061GA1041+000609079GF108991081051000751999999MA1999999098961MD1410001+9999MW1221REMSYN088AAXX  29124 10640 41150 82004 10018 20015 39896 40014 54000 72272 885// 333 84702 87608;
0184106400999992000122915004+50110+008730FM-12+011299999V0202001N002119999999N0050001N1+00181+00151100211ADDGA1041+000609079GF105991999051000751999999MA1999999099031MD1210071+9999REMSYN082AAXX  29154 10640 42150 52004 10018 20015 39903 40021 52007 885// 333 84702 87611;EQDQ01+000082SCOTLC
0231106400999992000122918004+50110+008730FM-12+011299999V0202201N00151000601CN0050001N1+00121+00091100281ADDAY121061AY221061GA1031+000609079GF108991081061000751999999KA1120M+00211KA2120N+00091MA1999999099091MD1210031+9999MW1101REMSYN100AAXX  29184 10640 41150 82203 10012 20009 39909 40028 52003 71022 886// 333 10021 20009 83702 86703;
0228106400999992000123006004+50110+008730FM-12+011299999V0202401N001010069019N0120001N1+00121+00091100001ADDAA124000391GA1071+006909059GF107991071051008001999999GJ100009KA1120M+00131KA2120N+00071MA1999999098821MD1610021+9999REMSYN100AAXX  30064 10640 42562 72402 10012 20009 39882 40000 56002 875// 333 10013 20007 55000 70003 87623;
0159106400999992000123009004+50110+008730FM-12+011299999V0202301N002110030019N0080001N1+00051+00021100121ADDGA1071+003009059GF107991071051004501999999MA1999999098931MD1210061+9999REMSYN076AAXX  30094 10640 42458 72304 10005 20002 39893 40012 52006 875// 333 87610;
0178106400999992000123012004+50110+008730FM-12+011299999V0202201N002612200019N0150001N1+00221+00001999999ADDGA1021+004509029GF102991021011004501001001MA1999999099071MD1210141+9999REMSYN076AAXX  30124 10640 42465 22205 10022 21000 39907 40225 52014 82100 333 82815;EQDQ01+102253APOSLP
0193106400999992000123015004+50110+008730FM-12+011299999V0202301N00311012001CN0100001N1+00281-00041100441ADDAY121031AY221031GA1031+006009089GF108991071081008001999999MA1999999099261MD1110181+9999MW1851REMSYN088AAXX  30154 10640 41560 82306 10028 21004 39926 40044 51018 78522 878// 333 83820 87645;
0231106400999992000123018004+50110+008730FM-12+011299999V0202101N00361004201CN0060001N1+00091+00061100721ADDAY181061AY221061GA1041+004509069GF108991071051004501999999KA1120M+00331KA2120N+00021MA1999999099531MD1210271+9999MW1231REMSYN100AAXX  30184 10640 41456 82107 10009 20006 39953 40072 52027 72382 875// 333 10033 20002 84615 87625;
0234106400999992000123106004+50110+008730FM-12+011299999V0202601N00311007501CN0200001N1+00231+00101101751ADDAA124000791GA1031+009009069GF106991061051008001999999GJ102109KA1120M+00321KA2120N+00081MA1999999100551MD1210271+9999REMSYN106AAXX  31064 10640 42570 62606 10023 20010 30055 40175 52027 865// 333 10032 20008 55035 70007 83630 85650;
0165106400999992000123109004+50110+008730FM-12+011299999V0202201N002110120019N0200001N1+00141+00061101931ADDGA1021+006009089GF106991061081008001031001MA1999999100721MD1210171+9999REMSYN082AAXX  31094 10640 42570 62204 10014 20006 30072 40193 52017 86830 333 82820 86640;
0193106400999992000123112004+50110+008730FM-12+011299999V0202201N001510300019N0150001N1+00281+00241102001ADDAY181061AY221061GA1021+004509089GF105991031081004501031001MA1999999100801MD1210081+9999MW1011REMSYN088AAXX  31124 10640 41465 52203 10028 20024 30080 40200 52008 70182 83830 333 82815 83360;
0187106400999992000123115004+50110+008730FM-12+011299999V0201801N001512200019N0150001N1+00281+00121101971ADDAY181031AY221031GA1011+003909029GF103991021081004501001011MA1999999100731MD1710071+9999MW1021REMSYN082AAXX  31154 10640 41465 31803 10028 20012 30073 40197 57007 70282 82801 333 81813;
