0223170670999992000010106004+40720+029820FM-12+001899999V0202501N009312200019N0200001N1+01121+00501101491ADDAA106000091GA1031+012009089GF103991031021012501001001IA1099IA2999+00709KA1120N+00861MD1210171+9999REMSYN094AAXX  01064 17067 32670 32518 10112 20050 40149 52017 83200 333 20086 31007 83840 91029 92448;EQDQ01  00002PRCP06
0150170670999992000010109004+40720+029820FM-12+001899999V0202701N009310120019N0200001N1+01001+00601101771ADDGA1051+012009089GF105991051021012501001001MD1210281+9999REMSYN082AAXX  01094 17067 42670 52718 10100 20060 40177 52028 85200 333 85840 91030 92448;
0174170670999992000010112004+40720+029820FM-12+001899999V0202601N004110120019N0200001N1+00821+00361101951ADDAA106000091GA1051+012009089GF105991051021012501001001MD1210181+9999REMSYN076AAXX  01124 17067 32670 52608 10082 20036 40195 52018 85200 333 85840 92428;EQDQ01  00002PRCP06
0144170670999992000010115004+40720+029820FM-12+001899999V0203401N002610120019N0200001N1+00581+00091102171ADDGA1071+012009089GF107991071021012501001001MD1210221+9999REMSYN076AAXX  01154 17067 42670 73405 10058 20009 40217 52022 87200 333 87840 92418;
0232170670999992000010206004+40720+029820FM-12+001899999V0201501N001510108019N0100001N1+00301+00081102321ADDAA112000591AY181061AY221061GA1071+010809089GF107991071021012501001001IA1119IA2999+00209KA1120N+00341MD1410001+9999MW1801REMSYN100AAXX  02064 17067 11660 71503 10030 20008 40232 54000 69952 78082 87200 333 20034 32002 87836 92407;
0194170670999992000010209004+40720+029820FM-12+001899999V0201401N001510090019N0100001N1+00301+00081102361ADDAY181031AY281031GA1051+009009069GA2081+024009049GF108991051051008001021999MD1310031+9999MW1611REMSYN088AAXX  02094 17067 41560 81403 10030 20008 40236 53003 76188 8552/ 333 85630 88458 92407;
0211170670999992000010212004+40720+029820FM-12+001899999V0201401N001510090019N0100001N1+00321+00211102371ADDAA106001091AY161061AY261061GA1051+009009069GA2081+024009049GF108991051051008001021999MD1110011+9999MW1611REMSYN094AAXX  02124 17067 11560 81403 10032 20021 40237 51001 60011 76166 8552/ 333 85630 88458 92407;
0194170670999992000010215004+40720+029820FM-12+001899999V0201701N002110090019N0100001N1+00271+00201102381ADDAY161031AY261031GA1051+009009069GA2081+024009049GF108991051051008001021999MD1110011+9999MW1601REMSYN088AAXX  02154 17067 41560 81704 10027 20020 40238 51001 76066 8552/ 333 85630 88458 92407;
0238170670999992000010306004+40720+029820FM-12+001899999V0201601N001010090019N0060001N1+00121+00101102231ADDAA112005191AY121061AY221061GA1071+009009089GF107991071021008001001001IA1119IA2999+00109KA1120N+00121MD1410001+9999MW1831REMSYN106AAXX  03064 17067 11556 71602 10012 20010 40223 54000 60052 78322 87200 333 20012 32001 70050 87830 92406;
0172170670999992000010309004+40720+029820FM-12+001899999V0201601N002110090019N0060001N1+00221+00191102491ADDAY181031AY281031GA1071+009009089GF107991071021008001001001MD1210061+9999MW1831REMSYN082AAXX  03094 17067 41556 71604 10022 20019 40249 52006 78388 87200 333 87830 92406;
0218170670999992000010312004+40720+029820FM-12+001899999V0201501N002610090019N0100001N1+00241+00161102471ADDAA106001091AL10600091AY181061AY281061GA1061+009009089GF106991061021008001001001MD1810021+9999MW1831UA1M999999019REMSYN094AAXX  03124 17067 11560 61505 10024 20016 40247 58002 60011 78388 86200 333 86830 92417 93100;
0172170670999992000010315004+40720+029820FM-12+001899999V0201601N002110090019N0100001N1+00241+00161102431ADDAY181031AY281031GA1071+009009089GF107991071021008001001001MD1810031+9999MW1831REMSYN082AAXX  03154 17067 41560 71604 10024 20016 40243 58003 78388 87200 333 87830 92417;
0223170670999992000010406004+40720+029820FM-12+001899999V0203601N002110120019N0200001N1+00261+00081102071ADDAA106000091GA1071+012009089GF107991071021012501001001IA1119IA2999+00209KA1120N+00261MD1610011+9999REMSYN094AAXX  04064 17067 32670 73604 10026 20008 40207 56001 87200 333 20026 32002 70015 87840 92418;EQDQ01  00002PRCP06
0172170670999992000010409004+40720+029820FM-12+001899999V0200201N001510108019N0200001N1+00261-00021102071ADDAY181031AY221031GA1071+010809089GF107991071021012501001001MD1410001+9999MW1261REMSYN082AAXX  04094 17067 41670 70203 10026 21002 40207 54000 72682 87200 333 87836 92408;
0240170670999992000010412004+40720+029820FM-12+001899999V0200401N001010090019N0040001N1+00181-00011102011ADDAA106002091AL10600091AY181061AY221061GA1051+009009069GA2081+027009049GF108991051051008001021999MD1710061+9999MW1701UA1M999999009REMSYN100AAXX  04124 17067 11540 80402 10018 21001 40201 57006 60021 77082 8552/ 333 85630 88459 92406 93100;
0172170670999992000010415004+40720+029820FM-12+001899999V0200701N001010108019N0200001N1+00281+00011101991ADDAY171031AY221031GA1061+010809089GF106991061021012501001001MD1610021+9999MW1031REMSYN082AAXX  04154 17067 41670 60702 10028 20001 40199 56002 70372 86200 333 86836 92408;
0210170670999992000010506004+40720+029820FM-12+001899999V0201701N001010108019N0200001N1+00281+00051101951ADDAA112004191GA1071+010809089GF107991071021012501001001IA1119IA2999-00109KA1120N+00141MD1610031+9999REMSYN100AAXX  05064 17067 12670 71702 10028 20005 40195 56003 60042 87200 333 20014 32101 70036 87836 92408;
0172170670999992000010509004+40720+029820FM-12+001899999V0201601N001510108019N0100001N1+00321+00101101981ADDAY121031AY221031GA1071+010809089GF107991071021012501001001MD1710031+9999MW1801REMSYN082AAXX  05094 17067 41660 71603 10032 20010 40198 57003 78022 87200 333 87836 92407;
0189170670999992000010512004+40720+029820FM-12+001899999V0201501N002610108019N0100001N1+00381+00221101981ADDAA106001091AY181061AY281061GA1071+010809089GF107991071021012501001001MD1410001+9999MW1801REMSYN088AAXX  05124 17067 11660 71505 10038 20022 40198 54000 60011 78088 87200 333 87836 92417;
0172170670999992000010515004+40720+029820FM-12+001899999V0201601N001510120019N0100001N1+00341+00221101981ADDAY181031AY221031GA1071+012009089GF107991071021012501001001MD1410001+9999MW1101REMSYN082AAXX  05154 17067 41660 71603 10034 20022 40198 54000 71082 87200 333 87840 92407;
0223170670999992000010606004+40720+029820FM-12+001899999V0200701N000510108019N0200001N1+00301+00131102071ADDAA106000091GA1051+010809089GF107991051021012501031001IA1099IA2999+00009KA1120N+00121MD1410001+9999REMSYN094AAXX  06064 17067 32670 70701 10030 20013 40207 54000 85230 333 20012 31000 70012 85836 92408;EQDQ01  00002PRCP06
0166170670999992000010609004+40720+029820FM-12+001899999V0200701N001010108019N0200001N1+00421+00141102071ADDGA1051+010809089GA2061+030009039GF107991051021012501031001MD1410001+9999REMSYN082AAXX  06094 17067 42670 70702 10042 20014 40207 54000 85230 333 85836 86360 92408;
0238170670999992000010706004+40720+029820FM-12+001899999V0201401N001010090019N0080001N1+00261+00191102131ADDAA112001091AY181061AY281061GA1071+009009089GF107991071021008001001001IA1119IA2999+00109KA1120N+00251MD1310151+9999MW1801REMSYN106AAXX  07064 17067 11558 71402 10026 20019 40213 53015 60012 78088 87200 333 20025 32001 70012 87830 92406;
0189170670999992000010712004+40720+029820FM-12+001899999V0202701N001510090019N0100001N1+00501+00291102181ADDAA106001091AY181061AY221061GA1071+009009089GF107991071021008001001001MD1410001+9999MW1101REMSYN088AAXX  07124 17067 11560 72703 10050 20029 40218 54000 60011 71082 87200 333 87830 92407;
0172170670999992000010715004+40720+029820FM-12+001899999V0201301N001010090019N0100001N1+00461+00261102181ADDAY121031AY221031GA1071+009009089GF107991071021008001001001MD1410001+9999MW1101REMSYN082AAXX  07154 17067 41560 71302 10046 20026 40218 54000 71022 87200 333 87830 92407;
0238170670999992000010806004+40720+029820FM-12+001899999V0203601N003110090019N0080001N1+00561+00451102131ADDAA112023991AY181061AY281061GA1071+009009089GF107991071021008001001001IA1119IA2999+00209KA1120N+00301MD1410001+9999MW1801REMSYN106AAXX  08064 17067 11558 73606 10056 20045 40213 54000 60242 78088 87200 333 20030 32002 70246 87830 92416;
0172170670999992000010809004+40720+029820FM-12+001899999V0200201N003110090019N0080001N1+00561+00451102131ADDAY181031AY281031GA1071+009009089GF107991071021008001001001MD1410001+9999MW1801REMSYN082AAXX  08094 17067 41558 70206 10056 20045 40213 54000 78088 87200 333 87830 92416;
0189170670999992000010812004+40720+029820FM-12+001899999V0202701N001010090019N0060001N1+00551+00461102131ADDAA106003091AY181061AY281061GA1071+009009089GF107991071021008001001001MD1410001+9999MW1811REMSYN088AAXX  08124 17067 11556 72702 10055 20046 40213 54000 60031 78188 87200 333 87830 92406;
0172170670999992000010815004+40720+029820FM-12+001899999V0201801N002110090019N0060001N1+00521+00441999999ADDAY181031AY281031GA1071+009009089GF107991071021008001001001MD1410001+9999MW1811REMSYN082AAXX  08154 17067 41556 71804 10052 20044 4//// 54000 78188 87200 333 87830 92406;
0211170670999992000010912004+40720+029820FM-12+001899999V0202401N002610090019N0100001N1+00521+00381102311ADDAA106007991AY161061AY261061GA1051+009009069GA2081+027009049GF108991051051008001021999MD1110021+9999MW1611REMSYN094AAXX  09124 17067 11560 82405 10052 20038 40231 51002 60081 76166 8552/ 333 85630 88459 92427;
0194170670999992000010915004+40720+029820FM-12+001899999V0202701N001010090019N0060001N1+00461+00401102331ADDAY161031AY261031GA1051+009009069GA2081+027009049GF108991051051008001021999MD1310021+9999MW1631REMSYN088AAXX  09154 17067 41556 82702 10046 20040 40233 53002 76366 8552/ 333 85630 88459 92416;
0260170670999992000011006004+40720+029820FM-12+001899999V0202101N001010270019N0100001N1+00461+00401102731ADDAA112013091AY121061AY221061GA1041+009009069GA2081+027009049GF108991041051008001021999IA1119IA2999+00209KA1120N+00281MD1210101+9999MW1601REMSYN112AAXX  10064 17067 11560 82102 10046 20040 40273 52010 60132 76022 8452/ 333 20028 32002 70252 84630 88459 92407;
0194170670999992000011009004+40720+029820FM-12+001899999V0202901N001510270019N0100001N1+00561+00391102811ADDAY161031AY221031GA1041+009009069GA2081+027009049GF108991041051008001021999MD1210081+9999MW1101REMSYN088AAXX  10094 17067 41560 82903 10056 20039 40281 52008 71062 8452/ 333 84630 88459 92407;
0211170670999992000011012004+40720+029820FM-12+001899999V0202501N001510090019N0100001N1+00581+00381102831ADDAA106000791AY121061AY221061GA1051+009009069GA2081+024009049GF108991051051008001021999MD1110021+9999MW1101REMSYN094AAXX  10124 17067 11560 82503 10058 20038 40283 51002 69901 71022 8552/ 333 85630 88458 92407;
0210170670999992000011106004+40720+029820FM-12+001899999V0201501N001510108019N0060001N1+00421+00331103031ADDAA112001091GA1071+010809089GF107991071021012501001001IA1119IA2999+00309KA1120N+00421MD1210081+9999REMSYN100AAXX  11064 17067 12656 71503 10042 20033 40303 52008 69992 87200 333 20042 32003 70002 87836 92406;
0172170670999992000011109004+40720+029820FM-12+001899999V0203601N001510108019N0030001N1+00501+00401103111ADDAY121031AY221031GA1071+010809089GF107991071021012501001001MD1110081+9999MW1101REMSYN082AAXX  11094 17067 41630 73603 10050 20040 40311 51008 71022 87200 333 87836 92405;
0189170670999992000011112004+40720+029820FM-12+001899999V0200901N001010090019N0060001N1+00501+00401103111ADDAA106000191AY121061AY221061GA1071+009009089GF107991071021008001001001MD1410001+9999MW1801REMSYN088AAXX  11124 17067 11556 70902 10050 20040 40311 54000 69921 78022 87200 333 87830 92406;
0172170670999992000011115004+40720+029820FM-12+001899999V0203601N002110090019N0060001N1+00421+00331103111ADDAY181031AY281031GA1071+009009089GF107991071021008001001001MD1410001+9999MW1801REMSYN082AAXX  11154 17067 41556 73604 10042 20033 40311 54000 78088 87200 333 87830 92406;
0282170670999992000011206004+40720+029820FM-12+001899999V0201601N000510090019N0100001N1+00301+00221103191ADDAA112002091AY161061AY261061GA1031+006009079GA2051+009009069GA3081+024009049GF108991061051004501021999IA1119IA2999+00109KA1120N+00201MD1410001+9999MW1501REMSYN118AAXX  12064 17067 11460 81601 10030 20022 40319 54000 60022 75066 8652/ 333 20020 32001 70027 83720 85630 88458 92407;
0194170670999992000011209004+40720+029820FM-12+001899999V0203601N001010090019N0100001N1+00381+00261103191ADDAY151031AY251031GA1051+009009069GA2071+027009049GF107991051051008001071001MD1410001+9999MW1601REMSYN088AAXX  12094 17067 41560 73602 10038 20026 40319 54000 76055 85570 333 85630 87459 92407;
0194170670999992000011215004+40720+029820FM-12+001899999V0203601N001010300019N0100001N1+00421+00341103251ADDAY181031AY281031GA1031+009009089GA2061+030009039GF107991031021008001031001MD1210021+9999MW1801REMSYN088AAXX  12154 17067 41560 73602 10042 20034 40325 52002 78088 83230 333 83830 86360 92407;
0260170670999992000011306004+40720+029820FM-12+001899999V0201201N001010090019N0060001N1+00331+00241103231ADDAA112000191AY121061AY221061GA1051+009009069GA2081+024009049GF108991051051008001021999IA1119IA2999+00209KA1120N+00301MD1410001+9999MW1101REMSYN112AAXX  13064 17067 11556 81202 10033 20024 40323 54000 69922 71022 8552/ 333 20030 32002 70020 85630 88458 92406;
0194170670999992000011309004+40720+029820FM-12+001899999V0201301N001510300019N0100001N1+00641+00541103231ADDAY121031AY221031GA1031+010809089GA2051+030009039GF105991031021012501031001MD1410001+9999MW1101REMSYN088AAXX  13094 17067 41660 51303 10064 20054 40323 54000 71022 83230 333 83836 85360 92407;
0196170670999992000011312004+40720+029820FM-12+001899999V0200801N001010300019N0200001N1+00801+00141103231ADDAA106000091GA1031+010809089GA2051+030009039GF105991031021012501031001MD1410001+9999REMSYN082AAXX  13124 17067 32670 50802 10080 20014 40323 54000 83230 333 83836 85360 92408;EQDQ01  00002PRCP06
0166170670999992000011315004+40720+029820FM-12+001899999V0200601N001010300019N0200001N1+00501+00051103231ADDGA1031+010809089GA2051+030009039GF105991031021012501031001MD1410001+9999REMSYN082AAXX  13154 17067 42670 50602 10050 20005 40323 54000 83230 333 83836 85360 92408;
0221170670999992000011406004+40720+029820FM-12+001899999V0201301N001012200019N0200001N1-00021+99999103181ADDAA199000091GA1021+012009089GF102991021011012501001001IA1149IA2999-00509KA1120N-00021MD1410001+9999REMSYN092    AAXX  14064 17067 32670 21302 11002 21001 40318 54000 82100 333 21002 34105 82840 92408;EQDQ01  00002PRCP99
0136170670999992000011409004+40720+029820FM-12+001899999V0201401N002112200019N0200001N1+00501+00161103181ADDGA1001+999999999GF100991001001999999001001MD1410001+9999REMSYN068    AAXX  14094 17067 42970 01404 10050 20016 40318 54000 333 92418;
0166170670999992000011412004+40720+029820FM-12+001899999V0201401N001512200019N0200001N1+00881+00101103041ADDAA199000091GA1001+999999999GF100991001001999999001001MD1610141+9999REMSYN068    AAXX  14124 17067 32970 01403 10088 20010 40304 56014 333 92408;EQDQ01  00002PRCP99
0136170670999992000011415004+40720+029820FM-12+001899999V0201601N001012200019N0200001N1+00601+00041103041ADDGA1001+999999999GF100991001001999999001001MD1410001+9999REMSYN068    AAXX  14154 17067 42970 01602 10060 20004 40304 54000 333 92408;
0209170670999992000011506004+40720+029820FM-12+001899999V0201101N001012200019N0200001N1-00061-00141102931ADDAA199000091GA1001+999999999GF100991001001999999001001IA1149IA2999-00809KA1120N-00121MD1710101+9999REMSYN080    AAXX  15064 17067 32970 01102 11006 21014 40293 57010 333 21012 34108 92408;EQDQ01  00002PRCP99
0136170670999992000011509004+40720+029820FM-12+001899999V0201601N001512200019N0200001N1+00681+00051102891ADDGA1001+999999999GF100991001001999999001001MD1710041+9999REMSYN068    AAXX  15094 17067 42970 01603 10068 20005 40289 57004 333 92408;
0166170670999992000011512004+40720+029820FM-12+001899999V0201001N001512200019N0200001N1+00981+00681102641ADDAA199000091GA1001+999999999GF100991001001999999001001MD1710241+9999REMSYN068    AAXX  15124 17067 32970 01003 10098 20068 40264 57024 333 92408;EQDQ01  00002PRCP99
0136170670999992000011515004+40720+029820FM-12+001899999V0201101N001512200019N0200001N1+00721+00051102611ADDGA1001+999999999GF100991001001999999001001MD1810041+9999REMSYN068    AAXX  15154 17067 42970 01103 10072 20005 40261 58004 333 92408;
0209170670999992000011606004+40720+029820FM-12+001899999V0201401N000512200019N0200001N1+00041-00121102491ADDAA199000091GA1001+999999999GF100991001001999999001001IA1149IA2999-00409KA1120N-00241MD1410001+9999REMSYN080    AAXX  16064 17067 32970 01401 10004 21012 40249 54000 333 21024 34104 92408;EQDQ01  00002PRCP99
0142170670999992000011609004+40720+029820FM-12+001899999V0201401N002112200019N0100001N1+00511-00171102421ADDGA1011+060009019GF101991001001999999001011MD1110031+9999REMSYN074    AAXX  16094 17067 42960 11404 10051 21017 40242 51003 80001 333 81070;
0166170670999992000011612004+40720+029820FM-12+001899999V0201301N001512200019N0200001N1+00701+00181102431ADDAA199000091GA1001+999999999GF100991001001999999001001MD1710061+9999REMSYN068    AAXX  16124 17067 32970 01303 10070 20018 40243 57006 333 92408;EQDQ01  00002PRCP99
0148170670999992000011615004+40720+029820FM-12+001899999V0200901N003112200019N0200001N1+00681-00081102371ADDGA1041+060009009GF104991001001999999001011MD1710061+9999REMSYN080    AAXX  16154 17067 42970 40906 10068 21008 40237 57006 80001 333 84070 92418;
0221170670999992000011706004+40720+029820FM-12+001899999V0201501N001512200019N0200001N1+00001-00031102081ADDAA199000091GA1021+030009039GF102991021001999999031001IA1149IA2999-00309KA1120N-00061MD1710051+9999REMSYN092    AAXX  17064 17067 32970 21503 10000 21003 40208 57005 82030 333 21006 34103 82360 92408;EQDQ01  00002PRCP99
0170170670999992000011709004+40720+029820FM-12+001899999V0202801N001010300019N0200001N1+00391-00051101911ADDGA1021+012009089GA2061+030009039GF106991021021012501031001MD1710071+9999REMSYN086    AAXX  17094 17067 42670 62802 10039 21005 40191 57007 82230 333 82840 86360 92408;
0200170670999992000011712004+40720+029820FM-12+001899999V0202901N002610300019N0200001N1+00471+00091101481ADDAA199000091GA1041+012009089GA2061+030009039GF107991041021012501031001MD1710431+9999REMSYN086    AAXX  17124 17067 32670 72905 10047 20009 40148 57043 84230 333 84840 86360 92418;EQDQ01  00002PRCP99
0148170670999992000011715004+40720+029820FM-12+001899999V0201901N001012200019N0200001N1+00391-00291101201ADDGA1031+012009089GF103991031021012501001001MD1710281+9999REMSYN080    AAXX  17154 17067 42670 31902 10039 21029 40120 57028 83200 333 83840 92408;
0264170670999992000011806004+40720+029820FM-12+001899999V0201801N003110108019N0200001N1+00501+00211099691ADDAA112001091AY161061AY221061GA1051+010809069GA2071+030009049GF107991051051012501071001IA1119IA2999-00109KA1120N-00081MD1710301+9999MW1021REMSYN116    AAXX  18064 17067 11670 71806 10050 20021 49969 57030 60012 70262 85570 333 21008 32101 70008 85636 87460 92428;
0148170670999992000011809004+40720+029820FM-12+001899999V0202701N002610108019N0200001N1+00701+00301099711ADDGA1071+010809089GF107991071021012501001001MD1110021+9999REMSYN080    AAXX  18094 17067 41670 72705 10070 20030 49971 51002 87200 333 87836 92428;
0193170670999992000011812004+40720+029820FM-12+001899999V0202701N003610090019N0100001N1+00601+00221099571ADDAA106000191AY121061AY221061GA1071+009009089GF107991071021008001001001MD1710141+9999MW1801REMSYN092    AAXX  18124 17067 11560 72707 10060 20022 49957 57014 69921 78022 87200 333 87830 92427;
0176170670999992000011815004+40720+029820FM-12+001899999V0202701N004610090019N0100001N1+00341+00261099581ADDAY181031AY281031GA1071+009009089GF107991071021008001001001MD1310011+9999MW1811REMSYN086    AAXX  18154 17067 41560 72709 10034 20026 49958 53001 78188 87200 333 87830 92427;
0293170670999992000011906004+40720+029820FM-12+001899999V0202201N001010090019N0060001N1+00181+00121100491ADDAA112000791AL10600091AY121061AY221061GA1051+009009069GA2081+021009049GF108991051051008001021999IA1119IA2999-00209KA1120N+00011MD1610071+9999MW1701UA1M999999009REMSYN122    AAXX  19064 17067 11556 82202 10018 20012 40049 56007 69902 77022 8552/ 333 20001 32102 70052 85630 88457 92406 93100;
0198170670999992000011909004+40720+029820FM-12+001899999V0201201N001010090019N0050001N1+00221+00171100491ADDAY171031AY271031GA1051+009009069GA2081+021009049GF108991051051008001021999MD1410001+9999MW1681REMSYN092    AAXX  19094 17067 41550 81202 10022 20017 40049 54000 76877 8552/ 333 85630 88457 92406;
0244170670999992000011912004+40720+029820FM-12+001899999V0200201N001010090019N0100001N1+00331+00281100531ADDAA106002091AL10600091AY171061AY271061GA1051+009009069GA2081+021009049GF108991051051008001021999MD1210041+9999MW1681UA1M999999009REMSYN104    AAXX  19124 17067 11560 80202 10033 20028 40053 52004 60021 76877 8552/ 333 85630 88457 92407 93100;
0176170670999992000011915004+40720+029820FM-12+001899999V0202401N002110108019N0200001N1+00351+00131100731ADDAY171031AY221031GA1071+010809089GF107991071021012501001001MD1210201+9999MW1031REMSYN086    AAXX  19154 17067 41670 72404 10035 20013 40073 52020 70372 87200 333 87836 92418;
0289170670999992000012006004+40720+029820FM-12+001899999V0202901N003110090019N0100001N1+00181+00001101281ADDAA112000791AL10600091AY121061AY221061GA1051+009009069GA2081+024009049GF108991051051008001021999IA1149IA2999-00109KA1120N+00161MD1210101+9999MW1701UA1M999999029REMSYN118AAXX  20064 17067 11560 82906 10018 20000 40128 52010 69902 77022 8552/ 333 20016 34101 70023 85630 88458 92427 93100;
0194170670999992000012009004+40720+029820FM-12+001899999V0203601N005710081019N0010001N1+00021-00011101541ADDAY171031AY271031GA1021+003009099GA2051+008109089GF107991071091004501001001MD1210261+9999MW1861REMSYN088AAXX  20094 17067 41410 73611 10002 21001 40154 52026 78677 87900 333 82910 85827 92434;
0240170670999992000012012004+40720+029820FM-12+001899999V0203001N002110081019N0020001N1+00041+00021101641ADDAA106000591AL10600291AY171061AY271061GA1021+006009099GA2051+008109089GF107991071091008001001001MD1110101+9999MW1851UA1M999999039REMSYN100AAXX  20124 17067 11520 73004 10004 20002 40164 51010 69941 78577 87900 333 82920 85827 92435 93102;
0194170670999992000012015004+40720+029820FM-12+001899999V0203401N003610081019N0020001N1+00041+00021101921ADDAY181031AY281031GA1021+006009099GA2051+008109089GF107991071091008001001001MD1210281+9999MW1851REMSYN088AAXX  20154 17067 41520 73407 10004 20002 40192 52028 78588 87900 333 82920 85827 92435;
0204170670999992000012106004+40720+029820FM-12+001899999V0201801N006212200019N0200001N1-00101-00601101911ADDAA124000891GA1021+030009039GF102991021001999999031001IA1149IA2999-00409KA1120N-00221MD1710221+9999REMSYN094AAXX  21064 17067 32970 21812 11010 21060 40191 57022 82030 333 21022 34104 70007 82360 92438;
0144170670999992000012109004+40720+029820FM-12+001899999V0201801N004612200019N0200001N1+00321-00561101791ADDGA1021+030009039GF102991021001999999031001MD1710121+9999REMSYN076AAXX  21094 17067 42970 21809 10032 21056 40179 57012 82030 333 82360 92428;
0196170670999992000012112004+40720+029820FM-12+001899999V0201801N004612200019N0200001N1+00621-00491101451ADDAA199000091GA1031+010809069GA2041+030009039GF104991031051012501031001MD1710341+9999REMSYN082AAXX  21124 17067 32670 41809 10062 21049 40145 57034 83530 333 83636 84360 92428;EQDQ01  00002PRCP99
0166170670999992000012115004+40720+029820FM-12+001899999V0201801N004610300019N0200001N1+00401-00181101251ADDGA1021+010809089GA2061+030009039GF107991021021012501031001MD1710101+9999REMSYN082AAXX  21154 17067 42670 71809 10040 21018 40125 57010 82230 333 82836 86360 92428;
0289170670999992000012206004+40720+029820FM-12+001899999V0202301N004610090019N0100001N1+00181+00131101131ADDAA112002091AL10600091AY121061AY221061GA1051+009009069GA2081+021009049GF108991051051008001021999IA1119IA2999+00009KA1120N+00151MD1210281+9999MW1681UA1M999999029REMSYN118AAXX  22064 17067 11560 82309 10018 20013 40113 52028 60022 76822 8552/ 333 20015 32000 70020 85630 88457 92427 93100;
0194170670999992000012209004+40720+029820FM-12+001899999V0202401N004110090019N0020001N1+00081+00021101431ADDAY171031AY271031GA1051+009009069GA2081+021009049GF108991051051008001021999MD1210301+9999MW1701REMSYN088AAXX  22094 17067 41520 82408 10008 20002 40143 52030 77077 8552/ 333 85630 88457 92425;
0240170670999992000012212004+40720+029820FM-12+001899999V0202701N001010090019N0100001N1+00061+00021101831ADDAA106005191AL10600591AY171061AY271061GA1051+009009069GA2081+021009049GF108991051051008001021999MD1210301+9999MW1711UA1M999999009REMSYN100AAXX  22124 17067 11560 82702 10006 20002 40183 52030 60051 77177 8552/ 333 85630 88457 92407 93105;
0194170670999992000012215004+40720+029820FM-12+001899999V0201501N001510300019N0200001N1+00061+00021101951ADDAY171031AY221031GA1041+010809069GA2061+030009039GF106991041051012501051001MD1210221+9999MW1021REMSYN088AAXX  22154 17067 41670 61503 10006 20002 40195 52022 70272 84550 333 84636 86360 92408;
0227170670999992000012306004+40720+029820FM-12+001899999V0201301N002110300019N0200001N1-00421-00741102111ADDAA124005691AJ100039199999999GA1051+030009039GF105991051001999999031001IA1309IA2999-00809KA1120N-00521MD1410001+9999REMSYN100AAXX  23064 17067 32970 51304 11042 21074 40211 54000 85030 333 21052 3/108 42003 70055 85360 92418;
0138170670999992000012309004+40720+029820FM-12+001899999V0201101N001010300019N0200001N1+99999+99999102111ADDGA1061+030009039GF106991061001999999031001MD1410001+9999REMSYN070AAXX  23094 17067 42970 61102 21018 40211 54000 86030 333 86360 92408;
0174170670999992000012312004+40720+029820FM-12+001899999V0201301N001010300019N0200001N1+00421-00081101741ADDAA199000091GA1051+030009039GF105991051001999999031001MD1710371+9999REMSYN076AAXX  23124 17067 32970 51302 10042 21008 40174 57037 85030 333 85360 92408;EQDQ01  00002PRCP99
0144170670999992000012315004+40720+029820FM-12+001899999V0201701N001512200019N0200001N1+00301-00061101651ADDGA1031+030009039GF103991031001999999031001MD1710101+9999REMSYN076AAXX  23154 17067 42970 31703 10030 21006 40165 57010 83030 333 83360 92408;
0239170670999992000012406004+40720+029820FM-12+001899999V0201601N005110300019N0200001N1+00981+00161100731ADDAA199000091GA1041+010809069GA2061+030009039GF106991041051012501031001IA1099IA2999-00709KA1120N-00521MD1710301+9999REMSYN094AAXX  24064 17067 32670 61610 10098 20016 40073 57030 84530 333 21052 31107 84636 86360 92428;EQDQ01  00002PRCP99
0172170670999992000012409004+40720+029820FM-12+001899999V0201801N009810300019N0200001N1+01341+00241100521ADDGA1041+010809069GA2061+030009039GF106991041051012501031001MD1710201+9999REMSYN088AAXX  24094 17067 42670 61819 10134 20024 40052 57020 84530 333 84636 86360 91030 92438;
0211170670999992000012412004+40720+029820FM-12+001899999V0201801N006210300019N0100001N1+01301+00521100531ADDAA106000791AY121061AY221061GA1041+009009089GA2061+030009039GF107991041021008001031001MD1410001+9999MW1801REMSYN094AAXX  24124 17067 11560 71812 10130 20052 40053 54000 69901 78022 84230 333 84830 86360 92427;
0194170670999992000012415004+40720+029820FM-12+001899999V0201801N005710300019N0100001N1+01141+00641100431ADDAY181031AY281031GA1041+009009089GA2061+030009039GF107991041021008001031001MD1610101+9999MW1801REMSYN088AAXX  24154 17067 41560 71811 10114 20064 40043 56010 78088 84230 333 84830 86360 92427;
0312170670999992000012506004+40720+029820FM-12+001899999V0201801N001010090019N0100001N1+00031-00031101531ADDAA112006191AJ100049199999999AL10600491AY121061AY221061GA1051+009009069GA2081+021009049GF108991051051008001021999IA1279IA2999-00109KA1120N+00001MD1210211+9999MW1701UA1M999999009REMSYN124AAXX  25064 17067 11560 81802 10003 21003 40153 52021 60062 77022 8552/ 333 20000 3/101 43004 70068 85630 88457 92407 93104;
0194170670999992000012509004+40720+029820FM-12+001899999V0202001N001010090019N0060001N1+00091+00011101731ADDAY171031AY271031GA1051+009009069GA2081+021009049GF108991051051008001021999MD1210201+9999MW1711REMSYN088AAXX  25094 17067 41556 82002 10009 20001 40173 52020 77177 8552/ 333 85630 88457 92406;
0240170670999992000012512004+40720+029820FM-12+001899999V0202801N001510090019N0060001N1+00061-00021101831ADDAA106000891AL10600091AY171061AY271061GA1051+009009069GA2081+021009049GF108991051051008001021999MD1210101+9999MW1711UA1M999999009REMSYN100AAXX  25124 17067 11556 82803 10006 21002 40183 52010 69971 77177 8552/ 333 85630 88457 92406 93100;
0194170670999992000012515004+40720+029820FM-12+001899999V0203401N002610090019N0100001N1+00041+00011102081ADDAY171031AY271031GA1051+009009069GA2081+021009049GF108991051051008001021999MD1210251+9999MW1701REMSYN088AAXX  25154 17067 41560 83405 10004 20001 40208 52025 77077 8552/ 333 85630 88457 92417;
0312170670999992000012606004+40720+029820FM-12+001899999V0202701N001510090019N0050001N1-00141-00291102431ADDAA112003091AJ100069199999999AL10600691AY121061AY221061GA1051+009009069GA2081+021009049GF108991051051008001021999IA1279IA2999-00309KA1120N-00141MD1410001+9999MW1701UA1M999999009REMSYN124AAXX  26064 17067 11550 82703 11014 21029 40243 54000 60032 77022 8552/ 333 21014 3/103 43006 70027 85630 88457 92406 93106;
0249170670999992000012706004+40720+029820FM-12+001899999V0201201N000510300019N0200001N1-00461-00561102501ADDAA124002891AJ100029199999999GA1021+010809089GA2051+030009039GF106991021021012501031001IA1279IA2999-00909KA1120N-00521MD1410001+9999REMSYN106AAXX  27064 17067 32670 61201 11046 21056 40250 54000 82230 333 21052 3/109 43002 70029 82836 85360 92408;
0144170670999992000012709004+40720+029820FM-12+001899999V0202501N003112200019N0200001N1+00021-00631102571ADDGA1011+010809089GF101991011011012501001001MD1210071+9999REMSYN076AAXX  27094 17067 41670 12506 10002 21063 40257 52007 81100 333 81836 92418;
0196170670999992000012712004+40720+029820FM-12+001899999V0202701N003112200019N0200001N1+00101-00531102571ADDAA199000091GA1021+010809089GA2031+030009039GF104991021021012501031001MD1410001+9999REMSYN082AAXX  27124 17067 32670 42706 10010 21053 40257 54000 82230 333 82836 83360 92428;EQDQ01  00002PRCP99
0166170670999992000012715004+40720+029820FM-12+001899999V0202501N002610300019N0200001N1+00021-00561102571ADDGA1021+010809089GA2051+030009039GF106991021021012501031001MD1410001+9999REMSYN082AAXX  27154 17067 42670 62505 10002 21056 40257 54000 82230 333 82836 85360 92428;
0244170670999992000012806004+40720+029820FM-12+001899999V0201201N001512200019N0200001N1-00461-00561102631ADDAA199000091AJ199993999999999GA1001+999999999GF100991001001999999001001IA1259IA2999-00709KA1120N-00541MD1410001+9999REMSYN082AAXX  28064 17067 32970 01203 11046 21056 40263 54000 333 21054 3/107 41997 92408;EQDQ01  00002PRCP99Q02  09982SNDP  
0160170670999992000012809004+40720+029820FM-12+001899999V0200601N001012200019N0100001N1+00161+00041102631ADDAY101031AY201031GA1001+999999999GF100991001001999999001001MD1410001+9999MW1101REMSYN070AAXX  28094 17067 41960 00602 10016 20004 40263 54000 71000 333 92407;
0162170670999992000012812004+40720+029820FM-12+001899999V0201301N001512200019N0200001N1+00461+00011102531ADDAA199000091GA1001+999999999GF100991001001999999001001MD1710101+9999REMSYN064AAXX  28124 17067 32970 01303 10046 20001 40253 57010 333 92408;EQDQ01  00002PRCP99
0132170670999992000012815004+40720+029820FM-12+001899999V0201501N001012200019N0200001N1+00461+00011102401ADDGA1001+999999999GF100991001001999999001001MD1710131+9999REMSYN064AAXX  28154 17067 42970 01502 10046 20001 40240 57013 333 92408;
0256170670999992000012906004+40720+029820FM-12+001899999V0201301N001512200019N0200001N1-00171-00231102331ADDAA199000091AJ199993999999999GA1041+030009039GF104991041001999999031001IA1259IA2999-00409KA1120N-00201MD1410001+9999REMSYN094AAXX  29064 17067 32970 41303 11017 21023 40233 54000 84030 333 21020 3/104 41997 84360 92408;EQDQ01  00002PRCP99Q02  09982SNDP  
0144170670999992000012909004+40720+029820FM-12+001899999V0200201N001010300019N0200001N1+00401+00021102331ADDGA1051+030009039GF105991051001999999031001MD1410001+9999REMSYN076AAXX  29094 17067 42970 50202 10040 20002 40233 54000 85030 333 85360 92408;
0238170670999992000013106004+40720+029820FM-12+001899999V0202301N003110090019N0100001N1+00721+00531102231ADDAA112002091AY121061AY221061GA1071+009009089GF107991071021008001001001IA1119IA2999+00509KA1120N+00611MD1210251+9999MW1801REMSYN106AAXX  31064 17067 11560 72306 10072 20053 40223 52025 60022 78022 87200 333 20061 32005 70016 87830 92417;
0172170670999992000013109004+40720+029820FM-12+001899999V0202901N001010108019N0200001N1+00901+00321102431ADDAY181031AY221031GA1051+010809089GF105991051021012501001001MD1210201+9999MW1011REMSYN082AAXX  31094 17067 41670 52902 10090 20032 40243 52020 70182 85200 333 85836 92408;
0189170670999992000013112004+40720+029820FM-12+001899999V0202501N001512200019N0200001N1+01181+00261102421ADDAA106000591AY181061AY221061GA1031+012009089GF103991031021012501001001MD1410001+9999MW1011REMSYN088AAXX  31124 17067 11670 32503 10118 20026 40242 54000 69941 70182 83200 333 83840 92408;
0132170670999992000013115004+40720+029820FM-12+001899999V0202901N002112200019N0200001N1+00821+00461102391ADDGA1001+999999999GF100991001001999999001001MD1810031+9999REMSYN064AAXX  31154 17067 42970 02904 10082 20046 40239 58003 333 92418;
0238170670999992000020106004+40720+029820FM-12+001899999V0202701N006210090019N0100001N1+00961+00661102351ADDAA112000791AY121061AY221061GA1071+009009089GF107991071021008001001001IA1119IA2999+00209KA1120N+00421MD1310141+9999MW1801REMSYN106AAXX  01064 17067 11560 72712 10096 20066 40235 53014 69902 78022 87200 333 20042 32002 70004 87830 92437;
0172170670999992000020109004+40720+029820FM-12+001899999V0202601N004610120019N0200001N1+01001+00721102501ADDAY181031AY221031GA1051+012009089GF105991051021012501001001MD1210151+9999MW1251REMSYN082AAXX  01094 17067 41670 52609 10100 20072 40250 52015 72582 85200 333 85840 92428;
0189170670999992000020112004+40720+029820FM-12+001899999V0202501N004610120019N0200001N1+01201+00621102521ADDAA106000191AY181061AY221061GA1051+012009089GF105991051021012501001001MD1110021+9999MW1021REMSYN088AAXX  01124 17067 11670 52509 10120 20062 40252 51002 69911 70282 85200 333 85840 92428;
0232170670999992000020206004+40720+029820FM-12+001899999V0201101N001012200019N0020001N1+00221+00181102691ADDAA124000191AY101061AY201061GA1011+060009009GF101991001001999999001011IA1099IA2999+00009KA1120N+00201MD1810041+9999MW1101REMSYN100AAXX  02064 17067 31920 11102 10022 20018 40269 58004 71000 80001 333 20020 31000 70001 81070 92405;
0160170670999992000020209004+40720+029820FM-12+001899999V0200701N001512200019N0200001N1+00821+00361102581ADDAY101031AY201031GA1001+999999999GF100991001001999999001001MD1710111+9999MW1101REMSYN070AAXX  02094 17067 41970 00703 10082 20036 40258 57011 71000 333 92428;
0162170670999992000020212004+40720+029820FM-12+001899999V0203401N001012200019N0200001N1+01341+00651102371ADDAA199000091GA1001+999999999GF100991001001999999001001MD1710211+9999REMSYN064AAXX  02124 17067 32970 03402 10134 20065 40237 57021 333 92408;EQDQ01  00002PRCP99
0132170670999992000020215004+40720+029820FM-12+001899999V0202701N000512200019N0200001N1+01321+00541102121ADDGA1001+999999999GF100991001001999999001001MD1710241+9999REMSYN064AAXX  02154 17067 42970 02701 10132 20054 40212 57024 333 92408;
0233170670999992000020306004+40720+029820FM-12+001899999V0201201N001012200019N0100001N1+00321+00161101951ADDAA199000091AY101061AY201061GA1001+999999999GF100991001001999999001001IA1099IA2999+00009KA1120N+00201MD1410001+9999MW1101REMSYN082AAXX  03064 17067 31960 01202 10032 20016 40195 54000 71000 333 20020 31000 92407;EQDQ01  00002PRCP99
0160170670999992000020309004+40720+029820FM-12+001899999V0209999C000012200019N0100001N1+01101+00281101871ADDAY101031AY201031GA1001+999999999GF100991001001999999001001MD1210031+9999MW1051REMSYN070AAXX  03094 17067 41960 00000 10110 20028 40187 52003 70500 333 92407;
0174170670999992000020312004+40720+029820FM-12+001899999V0202701N001510120019N0200001N1+01361+00581101851ADDAA199000091GA1051+012009089GF105991051021012501001001MD1810021+9999REMSYN076AAXX  03124 17067 32670 52703 10136 20058 40185 58002 85200 333 85840 92408;EQDQ01  00002PRCP99
0144170670999992000020315004+40720+029820FM-12+001899999V0202601N001010120019N0200001N1+01241+00541101851ADDGA1071+012009089GF107991071021012501001001MD1410001+9999REMSYN076AAXX  03154 17067 42670 72602 10124 20054 40185 54000 87200 333 87840 92408;
0279170670999992000020406004+40720+029820FM-12+001899999V0200501N004110090019N0100001N1+00561+00451102371ADDAA112008991AY161061AY261061GA1051+009009069GA2081+027009049GF199999051051008001021999IA1119IA2999+00409KA1120N+00501MD1210251+9999MW1611REMSYN112AAXX  04064 17067 11560 70508 10056 20045 40237 52025 60092 76166 8552/ 333 20050 32004 70009 85630 88459 92427;EQDQ01+000072SCOTCV
0194170670999992000020409004+40720+029820FM-12+001899999V0201401N003610090019N0100001N1+00341+00271102661ADDAY161031AY261031GA1051+009009069GA2081+027009049GF108991051051008001021999MD1210281+9999MW1611REMSYN088AAXX  04094 17067 11560 81407 10034 20027 40266 52028 76166 8552/ 333 85630 88459 92427;
0211170670999992000020412004+40720+029820FM-12+001899999V0201501N002610090019N0100001N1+00421+00341102701ADDAA112007191AY161061AY261061GA1051+009009069GA2081+027009049GF108991051051008001021999MD1210041+9999MW1611REMSYN094AAXX  04124 17067 11560 81505 10042 20034 40270 52004 60072 76166 8552/ 333 85630 88459 92417;
0194170670999992000020415004+40720+029820FM-12+001899999V0200401N004110090019N0100001N1+00441+00361102831ADDAY161031AY261031GA1051+009009069GA2081+027009049GF108991051051008001021999MD1210131+9999MW1611REMSYN088AAXX  04154 17067 41560 80408 10044 20036 40283 52013 76166 8552/ 333 85630 88459 92427;
0210170670999992000020506004+40720+029820FM-12+001899999V0201601N001512200019N0200001N1+00081-00011103201ADDAA112003091GA1021+012009089GF102991021021012501001001IA1119IA2999+00009KA1120N+00041MD1410001+9999REMSYN100AAXX  05064 17067 12670 21603 10008 21001 40320 54000 60032 82200 333 20004 32000 70011 82840 92408;
0144170670999992000020509004+40720+029820FM-12+001899999V0200701N001012200019N0200001N1+00541-00321103171ADDGA1041+012009089GF104991041021012501001001MD1710031+9999REMSYN076AAXX  05094 17067 42670 40702 10054 21032 40317 57003 84200 333 84840 92408;
0174170670999992000020512004+40720+029820FM-12+001899999V0203101N001512200019N0200001N1+00581-00291102851ADDAA199000091GA1021+012009089GF102991021021012501001001MD1710321+9999REMSYN076AAXX  05124 17067 32670 23103 10058 21029 40285 57032 82200 333 82840 92408;EQDQ01  00002PRCP99
0144170670999992000020515004+40720+029820FM-12+001899999V0202701N003112200019N0200001N1+00441-00451102611ADDGA1011+060009009GF101991001001999999001011MD1710241+9999REMSYN076AAXX  05154 17067 42970 12706 10044 21045 40261 57024 80001 333 81070 92418;
0239170670999992000020606004+40720+029820FM-12+001899999V0202701N003110300019N0200001N1+00621+00141102451ADDAA199000091GA1041+012009089GA2051+030009039GF106991041021012501051001IA1099IA2999+00209KA1120N+00351MD1310031+9999REMSYN094AAXX  06064 17067 32670 62706 10062 20014 40245 53003 84250 333 20035 31002 84840 85360 92418;EQDQ01  00002PRCP99
0166170670999992000020609004+40720+029820FM-12+001899999V0202701N004110300019N0200001N1+00761+00321102541ADDGA1041+012009089GA2051+030009039GF106991041021012501051001MD1210091+9999REMSYN082AAXX  06094 17067 42670 62708 10076 20032 40254 52009 84250 333 84840 85360 92408;
0196170670999992000020612004+40720+029820FM-12+001899999V0202801N005110120019N0200001N1+00861+00421102561ADDAA199000091GA1051+012009089GA2071+030009039GF107991051021012501051001MD1110021+9999REMSYN082AAXX  06124 17067 32670 72810 10086 20042 40256 51002 85250 333 85840 87360 92428;EQDQ01  00002PRCP99
0166170670999992000020615004+40720+029820FM-12+001899999V0202501N002110300019N0200001N1+00741+00391102391ADDGA1041+012009089GA2061+030009039GF106991041021012501051001MD1210031+9999REMSYN082AAXX  06154 17067 42670 62504 10074 20039 40239 52003 84250 333 84840 86360 92418;
0267170670999992000020706004+40720+029820FM-12+001899999V0201401N001510300019N0100001N1+00581+00431102691ADDAA199000091AY121061AY221061GA1031+012009089GA2051+030009039GF107991031021012501031001IA1099IA2999+00309KA1120N+00501MD1610021+9999MW1101REMSYN100AAXX  07064 17067 31660 71403 10058 20043 40269 56002 71022 83230 333 20050 31003 83840 85360 92407;EQDQ01  00002PRCP99
0194170670999992000020709004+40720+029820FM-12+001899999V0200401N000510300019N0100001N1+00891+00501102681ADDAY121031AY221031GA1031+012009089GA2041+030009039GF106991031021012501031001MD1410001+9999MW1101REMSYN088AAXX  07094 17067 41660 60401 10089 20050 40268 54000 71022 83230 333 83840 84360 92407;
0196170670999992000020712004+40720+029820FM-12+001899999V0202901N001010300019N0200001N1+01061+00611102571ADDAA199000091GA1031+012009089GA2041+030009039GF106991031021012501031001MD1710111+9999REMSYN082AAXX  07124 17067 32670 62902 10106 20061 40257 57011 83230 333 83840 84360 92408;EQDQ01  00002PRCP99
0144170670999992000020715004+40720+029820FM-12+001899999V0202601N001012200019N0200001N1+01001+00401102471ADDGA1021+030009039GF102991021001999999031001MD1710101+9999REMSYN076AAXX  07154 17067 42970 22602 10100 20040 40247 57010 82030 333 82360 92408;
0205170670999992000020806004+40720+029820FM-12+001899999V0201101N001012200019N0200001N1+00181+00141102271ADDAA199000091GA1001+999999999GF100991001001999999001001IA1099IA2999+00009KA1120N+00161MD1710061+9999REMSYN076AAXX  08064 17067 32970 01102 10018 20014 40227 57006 333 20016 31000 92408;EQDQ01  00002PRCP99
0160170670999992000020809004+40720+029820FM-12+001899999V0202901N002612200019N0200001N1+00721+00431102271ADDAY101031AY201031GA1001+999999999GF100991001001999999001001MD1410001+9999MW1101REMSYN070AAXX  08094 17067 41970 02905 10072 20043 40227 54000 71000 333 92407;
0162170670999992000020812004+40720+029820FM-12+001899999V0202901N003112200019N0200001N1+01161+00191102081ADDAA199000091GA1001+999999999GF100991001001999999001001MD1710181+9999REMSYN064AAXX  08124 17067 32970 02906 10116 20019 40208 57018 333 92408;EQDQ01  00002PRCP99
0144170670999992000020815004+40720+029820FM-12+001899999V0202701N001512200019N0200001N1+01081+00391101971ADDGA1011+060009009GF101991001001999999001011MD1710121+9999REMSYN076AAXX  08154 17067 42970 12703 10108 20039 40197 57012 80001 333 81070 92408;
0233170670999992000020906004+40720+029820FM-12+001899999V0201401N001012200019N0100001N1+00341+00131101851ADDAA199000091AY101061AY201061GA1001+999999999GF100991001001999999001001IA1099IA2999-00109KA1120N+00201MD1410001+9999MW1101REMSYN082AAXX  09064 17067 31960 01402 10034 20013 40185 54000 71000 333 20020 31101 92407;EQDQ01  00002PRCP99
0172170670999992000020909004+40720+029820FM-12+001899999V0201201N001012200019N0100001N1+00961+00341101851ADDAY101031AY201031GA1031+060009009GF103991001001999999001011MD1410001+9999MW1051REMSYN082AAXX  09094 17067 41960 31202 10096 20034 40185 54000 70500 80001 333 83070 92407;
0174170670999992000020912004+40720+029820FM-12+001899999V0201701N004112200019N0200001N1+01741+00391101701ADDAA199000091GA1031+060009009GF103991001001999999001011MD1710141+9999REMSYN076AAXX  09124 17067 32970 31708 10174 20039 40170 57014 80001 333 83070 92408;EQDQ01  00002PRCP99
0144170670999992000020915004+40720+029820FM-12+001899999V0200401N000512200019N0200001N1+01441+00601101601ADDGA1031+060009009GF103991001001999999001011MD1710101+9999REMSYN076AAXX  09154 17067 42970 30401 10144 20060 40160 57010 80001 333 83070 92408;
0239170670999992000021006004+40720+029820FM-12+001899999V0201201N001510300019N0200001N1+00901+00611101871ADDAA199000091GA1031+012009089GA2051+030009039GF107991031021012501031001IA1019IA2999+00509KA1120N+00701MD1210101+9999REMSYN094AAXX  10064 17067 32670 71203 10090 20061 40187 52010 83230 333 20070 30005 83840 85360 92408;EQDQ01  00002PRCP99
0166170670999992000021009004+40720+029820FM-12+001899999V0202701N001010300019N0200001N1+01181+00531101991ADDGA1021+012009089GA2041+030009039GF106991021021012501031001MD1210121+9999REMSYN082AAXX  10094 17067 42670 62702 10118 20053 40199 52012 82230 333 82840 84360 92408;
0174170670999992000021012004+40720+029820FM-12+001899999V0202901N002110300019N0200001N1+01501+00771102011ADDAA199000091GA1061+030009039GF106991061001999999031001MD1110021+9999REMSYN076AAXX  10124 17067 32970 62904 10150 20077 40201 51002 86030 333 86360 92408;EQDQ01  00002PRCP99
0172170670999992000021015004+40720+029820FM-12+001899999V0202701N002110300019N0100001N1+01241+00681102031ADDAY121031AY221031GA1061+030009039GF106991061001999999031001MD1310021+9999MW1051REMSYN082AAXX  10154 17067 41960 62704 10124 20068 40203 53002 70522 86030 333 86360 92407;
0267170670999992000021106004+40720+029820FM-12+001899999V0201301N001510300019N0100001N1+00801+00121102401ADDAA199000091AY121061AY221061GA1041+010809089GA2061+030009039GF107991041021012501031001IA1019IA2999+00509KA1120N+00601MD1310061+9999MW1101REMSYN100AAXX  11064 17067 31660 71303 10080 20012 40240 53006 71022 84230 333 20060 30005 84836 86360 92407;EQDQ01  00002PRCP99
0194170670999992000021109004+40720+029820FM-12+001899999V0200901N001010300019N0100001N1+01001+00701102481ADDAY121031AY221031GA1041+010809089GA2061+030009039GF107991041021012501031001MD1210081+9999MW1101REMSYN088AAXX  11094 17067 41660 70902 10100 20070 40248 52008 71022 84230 333 84836 86360 92407;
0224170670999992000021112004+40720+029820FM-12+001899999V0200901N001510300019N0100001N1+01301+00741102461ADDAA199000091AY121061AY221061GA1021+010809089GA2041+030009039GF105991021021012501031001MD1810021+9999MW1101REMSYN088AAXX  11124 17067 31660 50903 10130 20074 40246 58002 71022 82230 333 82836 84360 92407;EQDQ01  00002PRCP99
0194170670999992000021115004+40720+029820FM-12+001899999V0200901N001010300019N0100001N1+01241+00781102501ADDAY121031AY221031GA1021+010809089GA2041+030009039GF105991021021012501031001MD1210041+9999MW1101REMSYN088AAXX  11154 17067 41660 50902 10124 20078 40250 52004 71022 82230 333 82836 84360 92407;
0301170670999992000021206004+40720+029820FM-12+001899999V0201201N001510090019N0015001N1+00761+00671102521ADDAA112000791AY121061AY221061GA1041+002409079GA2041+009009069GA3081+021009049GF108991061071002501021999IA1019IA2999+00609KA1120N+00651MD1410001+9999MW1501UA1M999999009REMSYN124AAXX  12064 17067 11315 81203 10076 20067 40252 54000 69902 75022 8672/ 333 20065 30006 79999 84708 84630 88457 92404 96040;
0216170670999992000021209004+40720+029820FM-12+001899999V0201201N001010090019N0030001N1+00821+00721102491ADDAY151031AY221031GA1031+003009079GA2051+009009069GA3081+021009049GF108991061051004501021999MD1710031+9999MW1101REMSYN094AAXX  12094 17067 41430 81202 10082 20072 40249 57003 71052 8652/ 333 83710 85630 88457 92405;
0211170670999992000021212004+40720+029820FM-12+001899999V0200401N002110090019N0050001N1+00821+00721102341ADDAA106000791AY151061AY221061GA1051+009009069GA2081+024009049GF108991051051008001021999MD1710151+9999MW1101REMSYN094AAXX  12124 17067 11550 80404 10082 20072 40234 57015 69901 71052 8552/ 333 85630 88458 92406;
0194170670999992000021215004+40720+029820FM-12+001899999V0200601N001510090019N0050001N1+00801+00711102281ADDAY121031AY221031GA1051+009009069GA2081+024009049GF108991051051008001021999MD1710061+9999MW1101REMSYN088AAXX  12154 17067 41550 80603 10080 20071 40228 57006 71022 8552/ 333 85630 88458 92406;
0226170670999992000021306004+40720+029820FM-12+001899999V0201101N001510300019N0200001N1+00641+00441102171ADDAA124000791GA1031+012009089GA2051+030009039GF107991031021012501031001IA1099IA2999+00409KA1120N+00641MD1410001+9999REMSYN100AAXX  13064 17067 32670 71103 10064 20044 40217 54000 83230 333 20064 31004 79999 83840 85360 92408;
0144170670999992000021309004+40720+029820FM-12+001899999V0200901N001510120019N0200001N1+01021+00651102171ADDGA1071+012009089GF107991071021012501001001MD1410001+9999REMSYN076AAXX  13094 17067 42670 70903 10102 20065 40217 54000 87200 333 87840 92408;
0174170670999992000021312004+40720+029820FM-12+001899999V0200901N001010120019N0200001N1+01261+00471102061ADDAA199000091GA1051+012009089GF105991051021012501001001MD1810111+9999REMSYN076AAXX  13124 17067 32670 50902 10126 20047 40206 58011 85200 333 85840 92408;EQDQ01  00002PRCP99
0144170670999992000021315004+40720+029820FM-12+001899999V0200201N004610120019N0200001N1+00871+00161102021ADDGA1051+012009089GF105991051021012501001001MD1610041+9999REMSYN076AAXX  13154 17067 42670 50209 10087 20016 40202 56004 85200 333 85840 92428;
0245170670999992000021406004+40720+029820FM-12+001899999V0201101N001512200019N0100001N1+00161+00121102051ADDAA199000091AY101061AY201061GA1021+030009039GF102991021001999999031001IA1149IA2999-00209KA1120N+00141MD1710041+9999MW1101REMSYN094AAXX  14064 17067 31960 21103 10016 20012 40205 57004 71000 82030 333 20014 34102 82360 92407;EQDQ01  00002PRCP99
0174170670999992000021412004+40720+029820FM-12+001899999V0202701N003112200019N0200001N1+00961+00041101871ADDAA199000091GA1021+012009089GF102991021021012501001001MD1710061+9999REMSYN076AAXX  14124 17067 32670 22706 10096 20004 40187 57006 82200 333 82840 92418;EQDQ01  00002PRCP99
0144170670999992000021415004+40720+029820FM-12+001899999V0202701N004610120019N0200001N1+00801+00251101791ADDGA1051+012009089GF105991051021012501001001MD1810081+9999REMSYN076AAXX  14154 17067 42670 52709 10080 20025 40179 58008 85200 333 85840 92428;
0267170670999992000021506004+40720+029820FM-12+001899999V0201201N001010600019N0005001N1+00201+00011101681ADDAA199000091AY121061AY221061GA1031+030009039GA2031+060009009GF105991031001999999031011IA1149IA2999-00209KA1120N+00121MD1410001+9999MW1461REMSYN100AAXX  15064 17067 31905 51202 10020 20001 40168 54000 74622 83031 333 20012 34102 83360 83070 92403;EQDQ01  00002PRCP99
0194170670999992000021509004+40720+029820FM-12+001899999V0201201N001512200019N0030001N1+00921+00481101621ADDAY141031AY221031GA1021+012009089GA2041+030009039GF104991021011012501031001MD1710051+9999MW1101REMSYN088AAXX  15094 17067 41630 41203 10092 20048 40162 57005 71042 82130 333 82840 84360 92405;
0208170670999992000021512004+40720+029820FM-12+001899999V0200101N002110108019N0030001N1+00761+00481101491ADDAA106000791AY141061AY211061GA1071+010809089GF107991071021012501001001MD1710131+9999MW1801UA1M999999009REMSYN094AAXX  15124 17067 11630 70104 10076 20048 40149 57013 69901 78041 87200 333 87836 92405 96010;
0191170670999992000021515004+40720+029820FM-12+001899999V0202501N003110108019N0030001N1+00321+00261101531ADDAY181031AY281031GA1071+010809089GF107991071021012501001001MD1110031+9999MW1801UA1M999999019REMSYN088AAXX  15154 17067 41630 72506 10032 20026 40153 51003 78088 87200 333 87836 92415 96010;
0260170670999992000021606004+40720+029820FM-12+001899999V0203301N002110090019N0100001N1+00421+00271101811ADDAA112008991AY121061AY221061GA1051+009009069GA2081+024009049GF108991051051008001021999IA1119IA2999+00009KA1120N+00121MD1310081+9999MW1601REMSYN112AAXX  16064 17067 11560 83304 10042 20027 40181 53008 60092 76022 8552/ 333 20012 32000 70128 85630 88458 92407;
0194170670999992000021609004+40720+029820FM-12+001899999V0203301N001010090019N0100001N1+00521+00481101901ADDAY161031AY261031GA1051+009009069GA2081+024009049GF108991051051008001021999MD1210091+9999MW1601REMSYN088AAXX  16094 17067 41560 83302 10052 20048 40190 52009 76066 8552/ 333 85630 88458 92407;
0211170670999992000021612004+40720+029820FM-12+001899999V0203001N001510090019N0100001N1+00641+00401101911ADDAA106001091AY161061AY261061GA1051+009009069GA2081+024009049GF108991051051008001021999MD1110011+9999MW1601REMSYN094AAXX  16124 17067 11560 83003 10064 20040 40191 51001 60011 76066 8552/ 333 85630 88458 92407;
0194170670999992000021615004+40720+029820FM-12+001899999V0202501N003110090019N0100001N1+00641+00401101911ADDAY161031AY261031GA1051+009009069GA2081+024009049GF108991051051008001021999MD1410001+9999MW1601REMSYN088AAXX  16154 17067 41560 82506 10064 20040 40191 54000 76066 8552/ 333 85630 88458 92407;
0226170670999992000021706004+40720+029820FM-12+001899999V0201101N001512200019N0002001N1+00061-00041101731ADDAA112000791AY141061AY241061GA1001+999999999GF100991001001999999001001IA1149IA2999-00909KA1120N-00681MD1710101+9999MW1461REMSYN094AAXX  17064 17067 11902 01103 10006 21004 40173 57010 69902 74644 333 21068 34109 70011 92402;
0160170670999992000021709004+40720+029820FM-12+001899999V0203401N001012200019N0060001N1+00581+00241101591ADDAY141031AY241031GA1001+999999999GF100991001001999999001001MD1710141+9999MW1101REMSYN070AAXX  17094 17067 41956 03402 10058 20024 40159 57014 71044 333 92406;
0174170670999992000021712004+40720+029820FM-12+001899999V0203601N001012200019N0200001N1+01161+00181101391ADDAA199000091GA1021+060009009GF102991001001999999001011MD1710201+9999REMSYN076AAXX  17124 17067 32970 23602 10116 20018 40139 57020 80001 333 82070 92408;EQDQ01  00002PRCP99
0144170670999992000021715004+40720+029820FM-12+001899999V0201301N003110300019N0200001N1+01361+00221101161ADDGA1051+030009039GF105991051001999999031001MD1810221+9999REMSYN076AAXX  17154 17067 42970 51306 10136 20022 40116 58022 85030 333 85360 92418;
0239170670999992000021806004+40720+029820FM-12+001899999V0200901N002110108019N0200001N1+01331+00921100641ADDAA199000091GA1051+010809089GA2041+030009039GF107991051021012501051001IA1019IA2999+01009KA1120N+01201MD1710101+9999REMSYN094AAXX  18064 17067 32670 70904 10133 20092 40064 57010 85250 333 20120 30010 85836 84360 92418;EQDQ01  00002PRCP99
0166170670999992000021809004+40720+029820FM-12+001899999V0201601N009310108019N0200001N1+01661+00831100621ADDGA1051+010809089GA2041+030009039GF107991051021012501051001MD1610021+9999REMSYN082AAXX  18094 17067 42670 71618 10166 20083 40062 56002 85250 333 85836 84360 92428;
0191170670999992000021812004+40720+029820FM-12+001899999V0203101N001510108019N0200001N1+01521+01001100581ADDAA106000791AY181061AY221061GA1051+010809089GA2071+030009039GF107991051021012501051001MW1021REMSYN088AAXX  18124 17067 11670 73103 10152 20100 40058 69901 70282 85250 333 85836 87360 92408;
0166170670999992000021815004+40720+029820FM-12+001899999V0201501N002110300019N0200001N1+01521+01001100581ADDGA1031+012009089GA2051+030009039GF105991031021012501031001MD1410001+9999REMSYN082AAXX  18154 17067 42670 51504 10152 20100 40058 54000 83230 333 83840 85360 92408;
0238170670999992000021906004+40720+029820FM-12+001899999V0202701N007210090019N0100001N1+00421+00341101151ADDAA112002091AY121061AY221061GA1071+009009089GF107991071021008001001001IA1119IA2999+00209KA1120N+00361MD1210401+9999MW1801REMSYN106AAXX  19064 17067 11560 72714 10042 20034 40115 52040 60022 78022 87200 333 20036 32002 70022 87830 92437;
0172170670999992000021909004+40720+029820FM-12+001899999V0202401N002110090019N0100001N1+00401+00301101221ADDAY181031AY281031GA1071+009009089GF107991071021008001001001MD1210071+9999MW1801REMSYN082AAXX  19094 17067 41560 72404 10040 20030 40122 52007 78088 87200 333 87830 92417;
0211170670999992000021912004+40720+029820FM-12+001899999V0202401N001010300019N0200001N1+00521+00281101521ADDAA106000391AY181061AY221061GA1031+010509089GA2041+030009039GF105991031021012501031001MD1210301+9999MW1011REMSYN094AAXX  19124 17067 11670 52402 10052 20028 40152 52030 69931 70182 83230 333 83835 84360 92408;
0166170670999992000021915004+40720+029820FM-12+001899999V0202701N001510300019N0200001N1+00541+00271101551ADDGA1031+010509089GA2041+030009039GF105991031021012501031001MD1310031+9999REMSYN082AAXX  19154 17067 42670 52703 10054 20027 40155 53003 83230 333 83835 84360 92408;
0204170670999992000022006004+40720+029820FM-12+001899999V0201301N001510300019N0200001N1+00421+00161101751ADDAA124000391GA1061+030009039GF106991061001999999031001IA1119IA2999-00109KA1120N+00141MD1810021+9999REMSYN094AAXX  20064 17067 32970 61303 10042 20016 40175 58002 86030 333 20014 32101 70003 86360 92408;
0144170670999992000022009004+40720+029820FM-12+001899999V0200501N001510300019N0200001N1+00801+00341101641ADDGA1061+030009039GF106991061001999999031001MD1410001+9999REMSYN076AAXX  20094 17067 42970 60503 10080 20034 40164 54000 86030 333 86360 92408;
0211170670999992000022012004+40720+029820FM-12+001899999V0200701N002610300019N0100001N1+00881+00531101461ADDAA106000391AY121061AY221061GA1031+010809089GA2061+030009039GF107991031021012501031001MD1710181+9999MW1801REMSYN094AAXX  20124 17067 11660 70705 10088 20053 40146 57018 69931 78022 83230 333 83836 86360 92417;
0172170670999992000022015004+40720+029820FM-12+001899999V0201101N001510108019N0200001N1+01121+00501101261ADDAY181031AY221031GA1071+010809089GF107991071021012501001001MD1810201+9999MW1031REMSYN082AAXX  20154 17067 41670 71103 10112 20050 40126 58020 70382 87200 333 87836 92408;
0238170670999992000022106004+40720+029820FM-12+001899999V0202501N003110108019N0200001N1+00721+00481100821ADDAA112014091AY181061AY221061GA1071+010809089GF107991071021012501001001IA1119IA2999+00509KA1120N+00601MD1710201+9999MW1021REMSYN106AAXX  21064 17067 11670 72506 10072 20048 40082 57020 60142 70282 87200 333 20060 32005 70143 87836 92418;
0172170670999992000022109004+40720+029820FM-12+001899999V0202501N003110108019N0100001N1+00661+00551100971ADDAY181031AY221031GA1071+010809089GF107991071021012501001001MD1210151+9999MW1801REMSYN082AAXX  21094 17067 41660 72506 10066 20055 40097 52015 78082 87200 333 87836 92417;
0210170670999992000022112004+40720+029820FM-12+001899999V0202401N003110105019N0100001N1+00541+00111101091ADDAA106008991AY161061AY261061GA1051+010509069GF107991051051012501021999MA1999999090401MD1510001+9999MW1611REMSYN094AAXX  21124 17067 11660 72406 10054 20011 39040 40109 55000 60091 76166 8552/ 333 85635 88459;
0172170670999992000022115004+40720+029820FM-12+001899999V0202501N002610108019N0100001N1+00541+00421101221ADDAY181031AY281031GA1071+010809089GF107991071021012501001001MD1310021+9999MW1801REMSYN082AAXX  21154 17067 41660 72505 10054 20042 40122 53002 78088 87200 333 87836 92417;
0166170670999992000022200004+40720+029820FM-12+001899999V0203601N004610300019N0200001N1+00401-00251102261ADDGA1041+010809089GA2061+030009039GF107991041021012501031001MD1410001+9999REMSYN082AAXX  23154 17067 42670 73609 10040 21025 40226 54000 84230 333 84836 86360 92428;
0238170670999992000022206004+40720+029820FM-12+001899999V0203601N001010108019N0200001N1+00401+00341101631ADDAA112001091AY181061AY221061GA1071+010809089GF107991071021012501001001IA1119IA2999+00209KA1120N+00361MD1310031+9999MW1021REMSYN106AAXX  22064 17067 11670 73602 10040 20034 40163 53003 60012 70282 87200 333 20036 32002 70060 87836 92408;
0144170670999992000022209004+40720+029820FM-12+001899999V0203601N002610108019N0200001N1+00401-00021101731ADDGA1071+010809089GF107991071021012501001001MD1210101+9999REMSYN076AAXX  22094 17067 42670 73605 10040 21002 40173 52010 87200 333 87836 92418;
0174170670999992000022212004+40720+029820FM-12+001899999V0203601N005710108019N0200001N1+00361+00001101731ADDAA199000091GA1071+010809089GF107991071021012501001001MD1410001+9999REMSYN076AAXX  22124 17067 32670 73611 10036 20000 40173 54000 87200 333 87836 92438;EQDQ01  00002PRCP99
0144170670999992000022215004+40720+029820FM-12+001899999V0201401N001010108019N0200001N1+00301-00061101811ADDGA1071+010809089GF107991071021012501001001MD1210081+9999REMSYN076AAXX  22154 17067 42670 71402 10030 21006 40181 52008 87200 333 87836 92408;
0239170670999992000022306004+40720+029820FM-12+001899999V0201301N001510300019N0200001N1+00181-00071102071ADDAA199000091GA1041+010809089GA2051+030009039GF106991041021012501031001IA1099IA2999+00009KA1120N+00101MD1310041+9999REMSYN094AAXX  23064 17067 32670 61303 10018 21007 40207 53004 84230 333 20010 31000 84836 85360 92408;EQDQ01  00002PRCP99
0194170670999992000022309004+40720+029820FM-12+001899999V0200501N001010300019N0100001N1+00281+00101102231ADDAY121031AY221031GA1041+009009089GA2061+030009039GF107991041021008001031001MD1210161+9999MW1851REMSYN088AAXX  23094 17067 41560 70502 10028 20010 40223 52016 78522 84230 333 84830 86360 92407;
0223170670999992000022312004+40720+029820FM-12+001899999V0203601N003610300019N0200001N1+00401-00251102261ADDAL10600091AY181061AY221061GA1041+010809089GA2061+030009039GF107991041021012501031001MD1210031+9999MW1021UA1M999999009REMSYN094AAXX  23124 17067 11670 73607 10040 21025 40226 52003 70282 84230 333 84836 86360 92408 93100;
0183170670999992000022315004+40720+029820FM-12+001899999V0203601N004610300019N0200001N1+00401-00251102261ADDAA106000191GA1041+010809089GA2061+030009039GF107991041021012501031001MD1410001+9999REMSYN088AAXX  23154 17067 42670 73609 10040 21025 40226 54000 69921 84230 333 84836 86360 92428;
0226170670999992000022406004+40720+029820FM-12+001899999V0200901N001010300019N0200001N1+00081-00041102331ADDAA124000391GA1031+012009089GA2041+030009039GF106991031021012501031001IA1099IA2999-00209KA1120N+00001MD1110021+9999REMSYN100AAXX  24064 17067 32670 60902 10008 21004 40233 51002 83230 333 20000 31102 70002 83840 84360 92408;
0166170670999992000022409004+40720+029820FM-12+001899999V0201201N001010300019N0200001N1+00441+00081102331ADDGA1031+012009089GA2051+030009039GF106991031021012501031001MD1410001+9999REMSYN082AAXX  24094 17067 42670 61202 10044 20008 40233 54000 83230 333 83840 85360 92408;
0196170670999992000022412004+40720+029820FM-12+001899999V0200901N001010300019N0200001N1+00581+00021102331ADDAA199000091GA1031+012009089GA2051+030009039GF106991031021012501031001MD1410001+9999REMSYN082AAXX  24124 17067 32670 60902 10058 20002 40233 54000 83230 333 83840 85360 92408;EQDQ01  00002PRCP99
0144170670999992000022415004+40720+029820FM-12+001899999V0201401N002610120019N0200001N1+00401+00181102351ADDGA1071+012009089GF107991071021012501001001MD1110021+9999REMSYN076AAXX  24154 17067 42670 71405 10040 20018 40235 51002 87200 333 87840 92418;
0217170670999992000022506004+40720+029820FM-12+001899999V0209999C000010108019N0200001N1+00281+00111101591ADDAA199000091GA1061+010809089GF106991061021012501001001IA1099IA2999+00209KA1120N+00221MD1310041+9999REMSYN088AAXX  25064 17067 32670 60000 10028 20011 40159 53004 86200 333 20022 31002 86836 92408;EQDQ01  00002PRCP99
0194170670999992000022509004+40720+029820FM-12+001899999V0200901N001010108019N0100001N1+00301+00181101631ADDAY121031AY221031GA1021+009009099GA2051+010809089GF107991071091008001001001MD1110041+9999MW1831REMSYN088AAXX  25094 17067 41560 70902 10030 20018 40163 51004 78322 87900 333 82930 85836 92407;
0189170670999992000022512004+40720+029820FM-12+001899999V0203601N001010108019N0200001N1+00701+00241101631ADDAA106000191AY181061AY221061GA1061+010809089GF106991061021012501001001MD1410001+9999MW1021REMSYN088AAXX  25124 17067 11670 63602 10070 20024 40163 54000 69921 70282 86200 333 86836 92408;
0163170670999992000022515004+40720+029820FM-12+001899999V0202001N001510108019N0200001N1+00601+00151102632ADDGA1061+010809089GF106991061021012501001001MD1410001+9999REMSYN076AAXX  25154 17067 42670 62003 10060 20015 40263 54000 86200 333 86836 92408;EQDQ01+102633APOSLP
0254170670999992000022606004+40720+029820FM-12+001899999V0201401N001510300019N0100001N1+00021-00071102291ADDAA124000391AY121061AY221061GA1041+010809089GA2061+030009039GF107991041021012501031001IA1149IA2999-00109KA1120N+00021MD1710041+9999MW1101REMSYN106AAXX  26064 17067 31660 71403 10002 21007 40229 57004 71022 84230 333 20002 34101 70002 84836 86360 92407;
0172170670999992000022609004+40720+029820FM-12+001899999V0202701N005110090019N0100001N1+00481+00181102311ADDAY121031AY221031GA1071+009009089GF107991071021008001001001MD1310021+9999MW1801REMSYN082AAXX  26094 17067 41560 72710 10048 20018 40231 53002 78022 87200 333 87830 92427;
0189170670999992000022612004+40720+029820FM-12+001899999V0202801N004110090019N0100001N1+00581+00141102251ADDAA106000391AY121061AY221061GA1071+009009089GF107991071021008001001001MD1710061+9999MW1801REMSYN088AAXX  26124 17067 11560 72808 10058 20014 40225 57006 69931 78022 87200 333 87830 92427;
0172170670999992000022615004+40720+029820FM-12+001899999V0202701N004610090019N0100001N1+00581+00291102331ADDAY181031AY281031GA1071+009009089GF107991071021008001001001MD1210081+9999MW1801REMSYN082AAXX  26154 17067 41560 72709 10058 20029 40233 52008 78088 87200 333 87830 92427;
0257170670999992000022706004+40720+029820FM-12+001899999V0201401N001010108019N0100001N1+00261+00201102931ADDAA112000191AY181061AY221061GA1071+010809089GF107991071021012501001001IA1099IA2999-00209KA1120N+00011MD1210101+9999MW1261UA1M999999009REMSYN112AAXX  27064 17067 11660 71402 10026 20020 40293 52010 69912 72682 87200 333 20001 31102 70005 87836 92407 96010;
0144170670999992000022709004+40720+029820FM-12+001899999V0202701N002610108019N0200001N1+00521+00281102971ADDGA1071+010809089GF107991071021012501001001MD1110041+9999REMSYN076AAXX  27094 17067 42670 72705 10052 20028 40297 51004 87200 333 87836 92408;
0189170670999992000022712004+40720+029820FM-12+001899999V0202901N001510108019N0100001N1+00661+00461102971ADDAA106001091AY121061AY221061GA1071+010809089GF107991071021012501001001MD1410001+9999MW1801REMSYN088AAXX  27124 17067 11660 72903 10066 20046 40297 54000 60011 78022 87200 333 87836 92407;
0172170670999992000022715004+40720+029820FM-12+001899999V0200401N001010090019N0100001N1+00601+00401102971ADDAY181031AY281031GA1071+009009089GF107991071021008001001001MD1410001+9999MW1801REMSYN082AAXX  27154 17067 41560 70402 10060 20040 40297 54000 78088 87200 333 87830 92407;
0238170670999992000022806004+40720+029820FM-12+001899999V0202001N001010108019N0200001N1+00181+00061103291ADDAA112000391AY181061AY221061GA1071+010809089GF107991071021012501001001IA1119IA2999+00109KA1120N+00141MD1210061+9999MW1021REMSYN106AAXX  28064 17067 11670 72002 10018 20006 40329 52006 69932 70282 87200 333 20014 32001 70003 87836 92408;
0172170670999992000022809004+40720+029820FM-12+001899999V0203601N00101000151CN0100001N1+00501+00201103331ADDAY121031AY221031GA1071+000159029GF107991071021012501001001MD1110041+9999MW1101REMSYN082AAXX  28094 17067 41660 73602 10050 20020 40333 51004 71022 87200 333 87836 92408;
0174170670999992000022812004+40720+029820FM-12+001899999V0200901N00151000151CN0200001N1+00881+00341103331ADDAA199000091GA1061+000159029GF106991061021012501001001MD1410001+9999REMSYN076AAXX  28124 17067 32670 60903 10088 20034 40333 54000 86200 333 86836 92408;EQDQ01  00002PRCP99
0144170670999992000022815004+40720+029820FM-12+001899999V0200201N001512200019N0200001N1+00541+00251103331ADDGA1041+000159029GF104991041021012501001001MD1410001+9999REMSYN076AAXX  28154 17067 42670 40203 10054 20025 40333 54000 84200 333 84836 92408;
0205170670999992000022906004+40720+029820FM-12+001899999V0201301N001512200019N0200001N1+00101-00031103241ADDAA199000091GA1001+999999999GF100991001001999999001001IA1149IA2999-00309KA1120N+00081MD1810011+9999REMSYN076AAXX  29064 17067 32970 01303 10010 21003 40324 58001 333 20008 34103 92408;EQDQ01  00002PRCP99
0132170670999992000022909004+40720+029820FM-12+001899999V0201101N002112200019N0200001N1+00781+00121103171ADDGA1001+999999999GF100991001001999999001001MD1810071+9999REMSYN064AAXX  29094 17067 42970 01104 10078 20012 40317 58007 333 92408;
0174170670999992000022912004+40720+029820FM-12+001899999V0200901N002612200019N0200001N1+01021-00131102891ADDAA199000091GA1021+012009089GF102991021011012501001001MD1710281+9999REMSYN076AAXX  29124 17067 32670 20905 10102 21013 40289 57028 82100 333 82840 92418;EQDQ01  00002PRCP99
0144170670999992000022915004+40720+029820FM-12+001899999V0203601N003112200019N0200001N1+00821-00061102691ADDGA1021+012009089GF102991021021012501001001MD1710201+9999REMSYN076AAXX  29154 17067 42670 23606 10082 21006 40269 57020 82200 333 82840 92428;
0245170670999992000030106004+40720+029820FM-12+001899999V0200401N001010120019N0100001N1+00121-00011102501ADDAA199000091AY121061AY221061GA1061+012009089GF106991061021012501001001IA1099IA2999-00409KA1120N-00141MD1610011+9999MW1101REMSYN094AAXX  01064 17067 31660 60402 10012 21001 40250 56001 71022 86200 333 21014 31104 86840 92407;EQDQ01  00002PRCP99
0144170670999992000030109004+40720+029820FM-12+001899999V0201401N000512200019N0200001N1+00761-00011102381ADDGA1021+012009089GF102991021011012501001001MD1710121+9999REMSYN076AAXX  01094 17067 42670 21401 10076 21001 40238 57012 82100 333 82840 92408;
0174170670999992000030112004+40720+029820FM-12+001899999V0202901N003112200019N0200001N1+00861+00221102181ADDAA199000091GA1021+012009089GF102991021011012501001001MD1710201+9999REMSYN076AAXX  01124 17067 32670 22906 10086 20022 40218 57020 82100 333 82840 92418;EQDQ01  00002PRCP99
0144170670999992000030115004+40720+029820FM-12+001899999V0202401N001512200019N0200001N1+00821+00131102031ADDGA1021+012009089GF102991021011012501001001MD1710141+9999REMSYN076AAXX  01154 17067 42670 22403 10082 20013 40203 57014 82100 333 82840 92408;
0217170670999992000030206004+40720+029820FM-12+001899999V0201101N001012200019N0200001N1+00261+00001101931ADDAA199000091GA1031+060009009GF103991001001999999001011IA1019IA2999+00209KA1120N+00081MD1410001+9999REMSYN088AAXX  02064 17067 32970 31102 10026 20000 40193 54000 80001 333 20008 30002 83070 92408;EQDQ01  00002PRCP99
0144170670999992000030209004+40720+029820FM-12+001899999V0202701N004610600019N0200001N1+00781+00041101871ADDGA1051+060009009GF105991001001999999001011MD1810061+9999REMSYN076AAXX  02094 17067 42970 52709 10078 20004 40187 58006 80001 333 85070 92428;
0174170670999992000030212004+40720+029820FM-12+001899999V0203401N001010600019N0200001N1+01381-00121101671ADDAA199000091GA1051+060009009GF105991001001999999001011MD1710191+9999REMSYN076AAXX  02124 17067 32970 53402 10138 21012 40167 57019 80001 333 85070 92408;EQDQ01  00002PRCP99
0144170670999992000030215004+40720+029820FM-12+001899999V0202401N000510600019N0200001N1+01421-00061101521ADDGA1061+060009009GF106991001001999999001011MD1710151+9999REMSYN076AAXX  02154 17067 42970 62401 10142 21006 40152 57015 80001 333 86070 92408;
0217170670999992000030306004+40720+029820FM-12+001899999V0201301N001510300019N0200001N1+01061+00471101321ADDAA199000091GA1061+030009039GF106991061001999999031001IA1019IA2999+00909KA1120N+01001MD1710061+9999REMSYN088AAXX  03064 17067 32970 61303 10106 20047 40132 57006 86030 333 20100 30009 86360 92408;EQDQ01  00002PRCP99
0166170670999992000030309004+40720+029820FM-12+001899999V0200901N001510300019N0200001N1+01461+00591101251ADDGA1031+012009089GA2051+030009039GF107991031021012501031001MD1610071+9999REMSYN082AAXX  03094 17067 42670 70903 10146 20059 40125 56007 83230 333 83840 85360 92418;
0211170670999992000030312004+40720+029820FM-12+001899999V0202701N006210300019N0100001N1+00901+00801101421ADDAA106000191AY121061AY221061GA1031+009009089GA2061+030009039GF107991031021008001031001MD1210171+9999MW1801REMSYN094AAXX  03124 17067 11560 72712 10090 20080 40142 52017 69911 78022 83230 333 83830 86360 92437;
0194170670999992000030315004+40720+029820FM-12+001899999V0200201N003110300019N0200001N1+01121+00581101361ADDAY181031AY221031GA1031+010809089GA2061+030009039GF107991031021012501031001MD1710061+9999MW1021REMSYN088AAXX  03154 17067 41670 70206 10112 20058 40136 57006 70282 83230 333 83836 86360 92418;
0238170670999992000030406004+40720+029820FM-12+001899999V0200101N001010090019N0060001N1+00761+00551101921ADDAA112000191AY181061AY221061GA1071+009009089GF107991071021008001001001IA1099IA2999+00509KA1120N+00601MD1210101+9999MW1101REMSYN106AAXX  04064 17067 11556 70102 10076 20055 40192 52010 69912 71082 87200 333 20060 31005 70002 87830 92406;
0172170670999992000030409004+40720+029820FM-12+001899999V0202401N001510090019N0060001N1+00921+00701101971ADDAY121031AY221031GA1071+009009089GF107991071021008001001001MD1210051+9999MW1101REMSYN082AAXX  04094 17067 41556 72403 10092 20070 40197 52005 71022 87200 333 87830 92406;
0174170670999992000030412004+40720+029820FM-12+001899999V0202401N004112200019N0200001N1+01141+00761101921ADDAA199000091GA1041+010809089GF104991041021012501001001MD1710051+9999REMSYN076AAXX  04124 17067 32670 42408 10114 20076 40192 57005 84200 333 84836 92418;EQDQ01  00002PRCP99
0144170670999992000030415004+40720+029820FM-12+001899999V0202701N004112200019N0200001N1+01001+00651101811ADDGA1041+010809089GF104991041021012501001001MD1710111+9999REMSYN076AAXX  04154 17067 42670 42708 10100 20065 40181 57011 84200 333 84836 92418;
0217170670999992000030506004+40720+029820FM-12+001899999V0201001N001512200019N0200001N1+00601+00281101811ADDAA199000091GA1031+009009009GF103991031001999999031001IA1019IA2999+00109KA1120N+00321MD1310011+9999REMSYN088AAXX  05064 17067 32970 31003 10060 20028 40181 53001 83030 333 20032 30001 83030 92408;EQDQ01  00002PRCP99
0144170670999992000030509004+40720+029820FM-12+001899999V0201001N001010300019N0200001N1+01221+00601101801ADDGA1051+030009039GF105991051001999999031001MD1410001+9999REMSYN076AAXX  05094 17067 42970 51002 10122 20060 40180 54000 85030 333 85360 92408;
0174170670999992000030512004+40720+029820FM-12+001899999V0202701N003110300019N0200001N1+01501+00521101721ADDAA199000091GA1061+030009039GF106991061001999999031001MD1810081+9999REMSYN076AAXX  05124 17067 32970 62706 10150 20052 40172 58008 86030 333 86360 92428;EQDQ01  00002PRCP99
0144170670999992000030515004+40720+029820FM-12+001899999V0203101N002110300019N0200001N1+01401+00641101621ADDGA1061+030009039GF106991061001999999031001MD1710101+9999REMSYN076AAXX  05154 17067 42970 63104 10140 20064 40162 57010 86030 333 86360 92418;
0260170670999992000030606004+40720+029820FM-12+001899999V0202701N004610090019N0100001N1+00321+00241102011ADDAA112010991AY181061AY281061GA1051+009009089GA2071+030009039GF107991051021008001031001IA1119IA2999+00209KA1120N+00301MD1210081+9999MW1811REMSYN112AAXX  06064 17067 11560 72709 10032 20024 40201 52008 60112 78188 85230 333 20030 32002 70120 85830 87360 92437;
0194170670999992000030609004+40720+029820FM-12+001899999V0202501N003110090019N0100001N1+00241+00201102331ADDAY181031AY281031GA1051+009009089GA2071+030009039GF107991051021008001031001MD1210321+9999MW1831REMSYN088AAXX  06094 17067 41560 72506 10024 20020 40233 52032 78388 85230 333 85830 87360 92427;
0211170670999992000030612004+40720+029820FM-12+001899999V0203101N003110090019N0100001N1+00261+00231102471ADDAA106009991AY181061AY281061GA1051+009009089GA2071+030009039GF107991051021008001031001MD1210141+9999MW1831REMSYN094AAXX  06124 17067 11560 73106 10026 20023 40247 52014 60101 78388 85230 333 85830 87360 92417;
0194170670999992000030615004+40720+029820FM-12+001899999V0203601N001510090019N0100001N1+00221+00101102661ADDAY181031AY281031GA1051+009009089GA2071+030009039GF107991051021008001031001MD1210191+9999MW1831REMSYN088AAXX  06154 17067 41560 73603 10022 20010 40266 52019 78388 85230 333 85830 87360 92417;
0290170670999992000030706004+40720+029820FM-12+001899999V0209999C000012200019N0080001N1+00241-00011102951ADDAA112000391AJ100019199999999AL10600191AY121061AY221061GA1031+012009089GF103991031021012501001001IA1279IA2999-00409KA1120N-00101MD1410001+9999MW1101UA1M999999009REMSYN118AAXX  07064 17067 11658 30000 10024 21001 40295 54000 69932 71022 83200 333 21010 3/104 43001 70125 83840 92406 93101;
0144170670999992000030709004+40720+029820FM-12+001899999V0202401N002612200019N0200001N1+00341-00041102951ADDGA1031+012009089GF103991031021012501001001MD1410001+9999REMSYN076AAXX  07094 17067 42670 32405 10034 21004 40295 54000 83200 333 83840 92408;
0218170670999992000030712004+40720+029820FM-12+001899999V0202101N001512200019N0200001N1+00461+00091102891ADDAA106000791AL10600091AY181061AY211061GA1041+010809089GF104991041021012501001001MD1710061+9999MW1261UA1M999999009REMSYN094AAXX  07124 17067 11670 42103 10046 20009 40289 57006 69901 72681 84200 333 84836 92408 93100;
0144170670999992000030715004+40720+029820FM-12+001899999V0202401N001512200019N0200001N1+00561+00121102771ADDGA1021+012009089GF102991021011012501001001MD1710121+9999REMSYN076AAXX  07154 17067 42670 22403 10056 20012 40277 57012 82100 333 82840 92408;
0192170670999992000030806004+40720+029820FM-12+001899999V0200901N001012200019N0200001N1+00121-00041102521ADDAA124000791GA1001+999999999GF100991001001999999001001IA1149IA2999-00409KA1120N-00101MD1410001+9999REMSYN082AAXX  08064 17067 32970 00902 10012 21004 40252 54000 333 21010 34104 79999 92408;
0132170670999992000030809004+40720+029820FM-12+001899999V0202501N001012200019N0200001N1+00801-00081102521ADDGA1001+999999999GF100991001001999999001001MD1410001+9999REMSYN064AAXX  08094 17067 42970 02502 10080 21008 40252 54000 333 92408;
0162170670999992000030812004+40720+029820FM-12+001899999V0203301N004112200019N0200001N1+01001+00191102391ADDAA199000091GA1001+999999999GF100991001001999999001001MD1810121+9999REMSYN064AAXX  08124 17067 32970 03308 10100 20019 40239 58012 333 92428;EQDQ01  00002PRCP99
0132170670999992000030815004+40720+029820FM-12+001899999V0202901N005112200019N0200001N1+01021+00191102261ADDGA1001+999999999GF100991001001999999001001MD1710131+9999REMSYN064AAXX  08154 17067 42970 02910 10102 20019 40226 57013 333 92428;
0245170670999992000030906004+40720+029820FM-12+001899999V0201301N001012200019N0100001N1+00361+00241102091ADDAA199000091AY101061AY201061GA1041+060009009GF104991001001999999001011IA1019IA2999+00209KA1120N+00321MD1710041+9999MW1101REMSYN094AAXX  09064 17067 31960 41302 10036 20024 40209 57004 71000 80001 333 20032 30002 84070 92407;EQDQ01  00002PRCP99
0144170670999992000030909004+40720+029820FM-12+001899999V0202501N002610300019N0200001N1+01161+00341102021ADDGA1051+030009039GF105991051001999999041001MD1710061+9999REMSYN076AAXX  09094 17067 42970 52505 10116 20034 40202 57006 85040 333 85360 92418;
0144170670999992000030912004+40720+029820FM-12+001899999V0202701N004612200019N0200001N1+01441+00461101781ADDGA1041+030009039GF104991041001999999031001MD1710241+9999REMSYN076AAXX  09124 17067 42970 42709 10144 20046 40178 57024 84030 333 84360 92428;
0144170670999992000030915004+40720+029820FM-12+001899999V0202701N004612200019N0200001N1+01461+00851101521ADDGA1021+030009039GF102991021001999999031001MD1710261+9999REMSYN076AAXX  09154 17067 42970 22709 10146 20085 40152 57026 82030 333 82360 92428;
0204170670999992000031005004+40720+029820FM-12+001899999V0202801N010812200019N9999999N1+01321+00741101221ADDAA112000791AY181999AY211999GF103991031021012501001001IA1099IA2999+00809KA1120N+01021MD1610031+9999MW1021REMSYN088AAXX  10054 17067 1167/ 32821 10132 20074 40122 56003 69902 70281 83200 333 20102 31008;
0238170670999992000031006004+40720+029820FM-12+001899999V0202801N005712200019N0200001N1+01321+00741101221ADDAA112000791AY181061AY211061GA1031+012009089GF103991031021012501001001IA1099IA2999+00809KA1120N+01021MD1610031+9999MW1021REMSYN106AAXX  10064 17067 11670 32811 10132 20074 40122 56003 69902 70281 83200 333 20102 31008 79999 83840 92428;
0144170670999992000031009004+40720+029820FM-12+001899999V0202901N003612200019N0200001N1+01561+00721101221ADDGA1031+012009089GF103991031021012501001001MD1410001+9999REMSYN076AAXX  10094 17067 42670 32907 10156 20072 40122 54000 83200 333 83840 92418;
0189170670999992000031012004+40720+029820FM-12+001899999V0202501N005710090019N0100001N1+01441+01201101251ADDAA106000791AY111061AY211061GA1071+009009089GF107991071021008001001001MD1110031+9999MW1801REMSYN088AAXX  10124 17067 11560 72511 10144 20120 40125 51003 69901 78011 87200 333 87830 92427;
0172170670999992000031015004+40720+029820FM-12+001899999V0202101N001010090019N0050001N1+01201+01041101351ADDAY181031AY281031GA1071+009009089GF107991071021008001001001MD1210101+9999MW1801REMSYN082AAXX  10154 17067 11550 72102 10120 20104 40135 52010 78088 87200 333 87830 92406;
0210170670999992000031106004+40720+029820FM-12+001899999V0202701N001510090019N0200001N1+00541+00451102121ADDAA112036191GA1071+009009089GF107991071021008001001001IA1119IA2999+00309KA1120N+00521MD1210201+9999REMSYN100AAXX  11064 17067 12570 72703 10054 20045 40212 52020 60362 87200 333 20052 32003 70382 87830 92408;
0144170670999992000031109004+40720+029820FM-12+001899999V0200701N001510108019N0200001N1+00641+00351102241ADDGA1071+010809089GF107991071021012501001001MD1210121+9999REMSYN076AAXX  11094 17067 42670 70703 10064 20035 40224 52012 87200 333 87836 92408;
0174170670999992000031112004+40720+029820FM-12+001899999V0203601N002110108019N0200001N1+00901+00481102241ADDAA199000091GA1071+010809089GF107991071021012501001001MD1410001+9999REMSYN076AAXX  11124 17067 32670 73604 10090 20048 40224 54000 87200 333 87836 92418;EQDQ01  00002PRCP99
0144170670999992000031115004+40720+029820FM-12+001899999V0202701N001510108019N0200001N1+00901+00481102241ADDGA1051+010809089GF105991051021012501001001MD1410001+9999REMSYN076AAXX  11154 17067 42670 52703 10090 20048 40224 54000 85200 333 85836 92408;
0205170670999992000031206004+40720+029820FM-12+001899999V0200901N001012200019N0200001N1+00301+00181101731ADDAA199000091GA1001+999999999GF100991001001999999001001IA1119IA2999+00109KA1120N+00281MD1610061+9999REMSYN076AAXX  12064 17067 32970 00902 10030 20018 40173 56006 333 20028 32001 92408;EQDQ01  00002PRCP99
0144170670999992000031209004+40720+029820FM-12+001899999V0202901N004610600019N0200001N1+01181+00221101641ADDGA1051+060009009GF105991001001999999001011MD1710081+9999REMSYN076AAXX  12094 17067 42970 52909 10118 20022 40164 57008 80001 333 85070 92428;
0211170670999992000031212004+40720+029820FM-12+001899999V0202701N003610300019N0100001N1+01221+00421101641ADDAA106000791AY111061AY211061GA1041+009009089GA2071+030009039GF107991041021008001031001MD1410001+9999MW1801REMSYN094AAXX  12124 17067 11560 72707 10122 20042 40164 54000 69901 78011 84230 333 84830 87360 92427;
0194170670999992000031215004+40720+029820FM-12+001899999V0202601N003110300019N0200001N1+01381+00681101661ADDAY181031AY221031GA1021+010809089GA2041+030009039GF105991021021012501031001MD1110021+9999MW1011REMSYN088AAXX  12154 17067 41670 52606 10138 20068 40166 51002 70182 82230 333 82836 84360 92428;
0204170670999992000031306004+40720+029820FM-12+001899999V0201201N002610120019N0200001N1+00661+00461102641ADDAA124000791GA1061+012009089GF106991061021012501001001IA1119IA2999+00509KA1120N+00601MD1410001+9999REMSYN094AAXX  13064 17067 32670 61205 10066 20046 40264 54000 86200 333 20060 32005 79999 86840 92408;
0144170670999992000031309004+40720+029820FM-12+001899999V0200901N002610120019N0200001N1+00721+00431102691ADDGA1061+012009089GF106991061021012501001001MD1210051+9999REMSYN076AAXX  13094 17067 42670 60905 10072 20043 40269 52005 86200 333 86840 92408;
0174170670999992000031312004+40720+029820FM-12+001899999V0201201N002110120019N0200001N1+00981+00411102721ADDAA199000091GA1061+012009089GF106991061021012501001001MD1210031+9999REMSYN076AAXX  13124 17067 32670 61204 10098 20041 40272 52003 86200 333 86840 92408;EQDQ01  00002PRCP99
0144170670999992000031315004+40720+029820FM-12+001899999V0200901N002110120019N0200001N1+00981+00411102721ADDGA1061+012009089GF106991061021012501001001MD1410001+9999REMSYN076AAXX  13154 17067 42670 60904 10098 20041 40272 54000 86200 333 86840 92408;
0217170670999992000031406004+40720+029820FM-12+001899999V0201001N001012200019N0200001N1+00301+00081102851ADDAA199000091GA1011+012009089GF101991011011012501001001IA1019IA2999+00109KA1120N+00181MD1410001+9999REMSYN088AAXX  14064 17067 32670 11002 10030 20008 40285 54000 81100 333 20018 30001 81840 92408;EQDQ01  00002PRCP99
0144170670999992000031409004+40720+029820FM-12+001899999V0201001N001512200019N0200001N1+00941+00021102841ADDGA1011+012009089GF101991011011012501001001MD1410001+9999REMSYN076AAXX  14094 17067 42670 11003 10094 20002 40284 54000 81100 333 81840 92408;
0162170670999992000031412004+40720+029820FM-12+001899999V0201401N001512200019N0200001N1+01221+00471102641ADDAA199000091GA1001+999999999GF100991001001999999001001MD1710201+9999REMSYN064AAXX  14124 17067 32970 01403 10122 20047 40264 57020 333 92408;EQDQ01  00002PRCP99
0132170670999992000031415004+40720+029820FM-12+001899999V0200801N003112200019N0200001N1+01081+00221102451ADDGA1001+999999999GF100991001001999999001001MD1710191+9999REMSYN064AAXX  14154 17067 42970 00806 10108 20022 40245 57019 333 92418;
0217170670999992000031506004+40720+029820FM-12+001899999V0200901N001512200019N0200001N1+00281-00051102131ADDAA199000091GA1031+060009009GF103991001001999999001011IA1019IA2999+00209KA1120N+00241MD1710061+9999REMSYN088AAXX  15064 17067 32970 30903 10028 21005 40213 57006 80001 333 20024 30002 83070 92408;EQDQ01  00002PRCP99
0144170670999992000031509004+40720+029820FM-12+001899999V0203401N001512200019N0200001N1+00781+00171102031ADDGA1021+060009009GF102991001001999999001011MD1710101+9999REMSYN076AAXX  15094 17067 42970 23403 10078 20017 40203 57010 80001 333 82070 92408;
0162170670999992000031512004+40720+029820FM-12+001899999V0202901N004612200019N0200001N1+01061+00591101821ADDAA199000091GA1001+999999999GF100991001001999999001001MD1710201+9999REMSYN064AAXX  15124 17067 32970 02909 10106 20059 40182 57020 333 92428;EQDQ01  00002PRCP99
0132170670999992000031515004+40720+029820FM-12+001899999V0202701N005112200019N0200001N1+01141+00481101721ADDGA1001+999999999GF100991001001999999001001MD1710101+9999REMSYN064AAXX  15154 17067 42970 02710 10114 20048 40172 57010 333 92428;
0267170670999992000031606004+40720+029820FM-12+001899999V0201201N001010300019N0100001N1+00681+00441101501ADDAA199000091AY121061AY221061GA1031+012009089GA2051+030009039GF105991031021012501031001IA1019IA2999+00309KA1120N+00511MD1710041+9999MW1101REMSYN100AAXX  16064 17067 31660 51202 10068 20044 40150 57004 71022 83230 333 20051 30003 83840 85360 92407;EQDQ01  00002PRCP99
0191170670999992000031609004+40720+029820FM-12+001899999V0203101N001010108019N0100001N1+01001+00741101431ADDAY121031AY221031GA1071+010809089GF107991071021012501001001MD1710071+9999MW1801UA1M999999009REMSYN088AAXX  16094 17067 41660 73102 10100 20074 40143 57007 78022 87200 333 87836 92407 96010;
0189170670999992000031612004+40720+029820FM-12+001899999V0203201N003610108019N0200001N1+00801+00651101411ADDAA106000791AY181061AY221061GA1071+010809089GF107991071021012501001001MD1810021+9999MW1251REMSYN088AAXX  16124 17067 11670 73207 10080 20065 40141 58002 69901 72582 87200 333 87836 92418;
0144170670999992000031615004+40720+029820FM-12+001899999V0203101N002610108019N0200001N1+00601+00401101371ADDGA1071+010809089GF107991071021012501001001MD1610041+9999REMSYN076AAXX  16154 17067 42670 73105 10060 20040 40137 56004 87200 333 87836 92418;
0289170670999992000031706004+40720+029820FM-12+001899999V0201401N001510090019N0050001N1+00161-00121101281ADDAA112013091AL10600091AY121061AY221061GA1051+009009069GA2081+021009049GF108991051051008001021999IA1119IA2999-00809KA1120N+00101MD1610071+9999MW1681UA1M999999009REMSYN118AAXX  17064 17067 11550 81403 10016 21012 40128 56007 60132 76822 8552/ 333 20010 32108 70130 85630 88457 92406 93100;
0174170670999992000031709004+40720+029820FM-12+001899999V0201301N002110090019N0050001N1+00361+00081101241ADDAY171031AY271031GA1051+009009069GA2081+021009049GF108991051051008001021999MW1681REMSYN082AAXX  17094 17067 41550 81304 10036 20008 40124 76877 8552/ 333 85630 88457 92416;
0240170670999992000031712004+40720+029820FM-12+001899999V0201101N001010090019N0050001N1+00381+00161101031ADDAA106002091AL10600091AY171061AY271061GA1051+009009069GA2081+021009049GF108991051051008001021999MD1710211+9999MW1681UA1M999999009REMSYN100AAXX  17124 17067 11550 81102 10038 20016 40103 57021 60021 76877 8552/ 333 85630 88457 92406 93100;
0194170670999992000031715004+40720+029820FM-12+001899999V0201101N001510090019N0050001N1+00381+00161100881ADDAY171031AY271031GA1051+009009069GA2081+024009049GF108991051051008001021999MD1710151+9999MW1611REMSYN088AAXX  17154 17067 41550 81103 10038 20016 40088 57015 76177 8552/ 333 85630 88458 92406;
0260170670999992000031806004+40720+029820FM-12+001899999V0202701N003110090019N0060001N1+00321+00241100881ADDAA112005191AY161061AY261061GA1051+009009069GA2081+024009049GF108991051051008001021999IA1119IA2999+00209KA1120N+00301MD1110021+9999MW1631REMSYN112AAXX  18064 17067 11556 82706 10032 20024 40088 51002 60052 76366 8552/ 333 20030 32002 70126 85630 88458 92426;
0172170670999992000031809004+40720+029820FM-12+001899999V0202901N003110108019N0200001N1+00381+00261101011ADDAY171031AY261031GA1071+010809089GF107991071021012501001001MD1210121+9999MW1021REMSYN082AAXX  18094 17067 41670 72906 10038 20026 40101 52012 70276 87200 333 87836 92428;
0218170670999992000031812004+40720+029820FM-12+001899999V0202501N002610108019N0200001N1+00621+00231101241ADDAA106005191AL10600091AY171061AY261061GA1061+010809089GF106991061021012501001001MD1210131+9999MW1021UA1M999999029REMSYN094AAXX  18124 17067 11670 62505 10062 20023 40124 52013 60051 70276 86200 333 86836 92428 93100;
0172170670999992000031815004+40720+029820FM-12+001899999V0203101N003610108019N0200001N1+00361+00241101231ADDAY181031AY221031GA1061+010809089GF106991061021012501001001MD1210091+9999MW1021REMSYN082AAXX  18154 17067 41670 63107 10036 20024 40123 52009 70282 86200 333 86836 92428;
0232170670999992000031906004+40720+029820FM-12+001899999V0201401N002610108019N0100001N1+00141+00001101431ADDAA124006691AY121061AY221061GA1071+010809089GF107991071021012501001001IA1099IA2999-00209KA1120N-00061MD1410001+9999MW1101REMSYN100AAXX  19064 17067 31660 71405 10014 20000 40143 54000 71022 87200 333 21006 31102 70066 87836 92417;
0191170670999992000031909004+40720+029820FM-12+001899999V0201401N002110090019N0050001N1+00181+00101101431ADDAY121031AY221031GA1071+009009089GF107991071021008001001001MD1410001+9999MW1851UA1M999999009REMSYN088AAXX  19094 17067 41550 71404 10018 20010 40143 54000 78522 87200 333 87830 92406 96010;
0218170670999992000031912004+40720+029820FM-12+001899999V0200601N001010090019N0050001N1+00261+00211101431ADDAA106002091AL10600091AY181061AY221061GA1071+009009089GF107991071021008001001001MD1410001+9999MW1831UA1M999999009REMSYN094AAXX  19124 17067 11550 70602 10026 20021 40143 54000 60021 78382 87200 333 87830 92406 93100;
0172170670999992000031915004+40720+029820FM-12+001899999V0202901N000510090019N0050001N1+00301+00251101451ADDAY181031AY281031GA1071+009009089GF107991071021008001001001MD1310021+9999MW1831REMSYN082AAXX  19154 17067 41550 72901 10030 20025 40145 53002 78388 87200 333 87830 92406;
0220170670999992000032006004+40720+029820FM-12+001899999V0200401N001012200019N0080001N1+00221+00051102131ADDAA124008491AY111061AY211061GA1001+999999999GF100991001001999999001001IA1099IA2999-00109KA1120N+00021MD1210061+9999MW1101REMSYN088AAXX  20064 17067 31958 00402 10022 20005 40213 52006 71011 333 20002 31101 70084 92406;
0144170670999992000032009004+40720+029820FM-12+001899999V0202901N001512200019N0200001N1+00601+00201102191ADDGA1031+010809089GF103991031021012501001001MD1210061+9999REMSYN076AAXX  20094 17067 42670 32903 10060 20020 40219 52006 83200 333 83836 92408;
0174170670999992000032012004+40720+029820FM-12+001899999V0202701N004612200019N0200001N1+00721+00311102191ADDAA199000091GA1041+010809089GF104991041021012501001001MD1410001+9999REMSYN076AAXX  20124 17067 32670 42709 10072 20031 40219 54000 84200 333 84836 92408;EQDQ01  00002PRCP99
0172170670999992000032015004+40720+029820FM-12+001899999V0202701N002110108019N0200001N1+00681+00301102191ADDAY111031AY211031GA1051+010809089GF105991051021012501001001MD1410001+9999MW1251REMSYN082AAXX  20154 17067 41670 52704 10068 20030 40219 54000 72511 85200 333 85836 92408;
0267170670999992000032106004+40720+029820FM-12+001899999V0202901N001510090019N0060001N1+00181+00141101991ADDAA112002091AL10600091AY181061AY281061GA1071+009009089GF107991071021008001001001IA1119IA2999+00109KA1120N+00181MD1610021+9999MW1831UA1M999999029REMSYN112AAXX  21064 17067 11556 72903 10018 20014 40199 56002 60022 78388 87200 333 20018 32001 70026 87830 92426 93100;
0172170670999992000032109004+40720+029820FM-12+001899999V0203401N001510090019N0050001N1+00301+00271102011ADDAY181031AY281031GA1071+009009089GF107991071021008001001001MD1210021+9999MW1801REMSYN082AAXX  21094 17067 41550 73403 10030 20027 40201 52002 78088 87200 333 87830 92406;
0189170670999992000032112004+40720+029820FM-12+001899999V0203601N001010090019N0100001N1+00581+00371102011ADDAA106001091AY181061AY281061GA1071+009009089GF107991071021008001001001MD1410001+9999MW1801REMSYN088AAXX  21124 17067 11560 73602 10058 20037 40201 54000 60011 78088 87200 333 87830 92407;
0172170670999992000032115004+40720+029820FM-12+001899999V0202701N001510090019N0100001N1+00581+00181101931ADDAY181031AY281031GA1071+009009089GF107991071021008001001001MD1710081+9999MW1801REMSYN082AAXX  21154 17067 41560 72703 10058 20018 40193 57008 78088 87200 333 87830 92407;
0273170670999992000032206004+40720+029820FM-12+001899999V0201401N002610090019N0060001N1+00231+00091101981ADDAA112003091AL19900091AY121061AY221061GA1071+009009089GF107991071021008001001001IA1119IA2999+00009KA1120N+00161MD1410001+9999MW1831UA1M999999009REMSYN118AAXX  22064 17067 11556 71405 10023 20009 40198 54000 60032 78322 87200 333 20016 32000 70044 87830 92406 93100 96010;
0172170670999992000032209004+40720+029820FM-12+001899999V0201201N001510090019N0100001N1+00501+00241101981ADDAY181031AY221031GA1071+009009089GF107991071021008001001001MD1410001+9999MW1101REMSYN082AAXX  22094 17067 41560 71203 10050 20024 40198 54000 71082 87200 333 87830 92407;
0189170670999992000032212004+40720+029820FM-12+001899999V0200601N002610090019N0200001N1+00581+00181101981ADDAA106000791AY181061AY221061GA1071+009009089GF107991071021008001001001MD1410001+9999MW1021REMSYN088AAXX  22124 17067 11570 70605 10058 20018 40198 54000 69901 70282 87200 333 87830 92408;
0144170670999992000032215004+40720+029820FM-12+001899999V0200501N002110108019N0200001N1+00581+00141101961ADDGA1051+010809089GF105991051021012501001001MD1610021+9999REMSYN076AAXX  22154 17067 42670 50504 10058 20014 40196 56002 85200 333 85836 92408;
0204170670999992000032306004+40720+029820FM-12+001899999V0201401N001512200019N0200001N1+00321+00151100991ADDAA124000791GA1041+030009039GF104991041001999999031001IA1119IA2999+00009KA1120N+00121MD1410001+9999REMSYN094AAXX  23064 17067 32970 41403 10032 20015 40099 54000 84030 333 20012 32000 79999 84360 92408;
0163170670999992000032309004+40720+029820FM-12+001899999V0200901N001510108019N0200001N1+00801+00211102002ADDGA1051+010809089GF105991051021012501001001MD1110011+9999REMSYN076AAXX  23094 17067 42670 50903 10080 20021 40200 51001 85200 333 85836 92408;EQDQ01+102003APOSLP
0174170670999992000032312004+40720+029820FM-12+001899999V0200901N002610108019N0200001N1+01021+00211101981ADDAA199000091GA1051+010809089GF105991051021012501001001MD1810011+9999REMSYN076AAXX  23124 17067 32670 50905 10102 20021 40198 58001 85200 333 85836 92408;EQDQ01  00002PRCP99
0144170670999992000032315004+40720+029820FM-12+001899999V0201101N001512200019N0200001N1+00921+00041101911ADDGA1031+010809089GF103991031021012501001001MD1710081+9999REMSYN076AAXX  23154 17067 42670 31103 10092 20004 40191 57008 83200 333 83836 92408;
0245170670999992000032406004+40720+029820FM-12+001899999V0201101N001512200019N0100001N1+00281-00051101891ADDAA199000091AY101061AY201061GA1021+060009009GF102991001001999999001011IA1099IA2999+00209KA1120N+00241MD1410001+9999MW1101REMSYN094AAXX  24064 17067 31960 21103 10028 21005 40189 54000 71000 80001 333 20024 31002 82070 92407;EQDQ01  00002PRCP99
0132170670999992000032409004+40720+029820FM-12+001899999V0203101N001512200019N0200001N1+00901+00101101901ADDGA1001+999999999GF100991001001999999001001MD1310021+9999REMSYN064AAXX  24094 17067 42970 03103 10090 20010 40190 53002 333 92408;
0162170670999992000032412004+40720+029820FM-12+001899999V0202901N003112200019N0200001N1+01161-00171101901ADDAA199000091GA1001+999999999GF100991001001999999001001MD1410001+9999REMSYN064AAXX  24124 17067 32970 02906 10116 21017 40190 54000 333 92418;EQDQ01  00002PRCP99
0132170670999992000032415004+40720+029820FM-12+001899999V0202701N003112200019N0200001N1+01181-00121101781ADDGA1001+999999999GF100991001001999999001001MD1710121+9999REMSYN064AAXX  24154 17067 42970 02706 10118 21012 40178 57012 333 92418;
0267170670999992000032506004+40720+029820FM-12+001899999V0201301N001010300019N0100001N1+00601+00341101981ADDAA199000091AY121061AY221061GA1031+012009089GA2041+030009039GF105991031021012501031001IA1099IA2999+00009KA1120N+00201MD1210101+9999MW1101REMSYN100AAXX  25064 17067 31660 51302 10060 20034 40198 52010 71022 83230 333 20020 31000 83840 84360 92407;EQDQ01  00002PRCP99
0194170670999992000032509004+40720+029820FM-12+001899999V0200601N001510300019N0100001N1+01261+00691102041ADDAY121031AY221031GA1031+012009089GA2041+030009039GF105991031021012501031001MD1210071+9999MW1051REMSYN088AAXX  25094 17067 41660 50603 10126 20069 40204 52007 70522 83230 333 83840 84360 92407;
0196170670999992000032512004+40720+029820FM-12+001899999V0202901N002610300019N0200001N1+01541+00721102061ADDAA199000091GA1031+012009089GA2041+030009039GF105991031021012501031001MD1110021+9999REMSYN082AAXX  25124 17067 32670 52905 10154 20072 40206 51002 83230 333 83840 84360 92408;EQDQ01  00002PRCP99
0166170670999992000032515004+40720+029820FM-12+001899999V0202501N002110600019N0200001N1+01481+00521102061ADDGA1021+030009039GA2041+060009009GF105991021001999999031011MD1410001+9999REMSYN082AAXX  25154 17067 42970 52504 10148 20052 40206 54000 82031 333 82360 84070 92408;
0239170670999992000032606004+40720+029820FM-12+001899999V0201101N001010600019N0200001N1+00821+00501102221ADDAA199000091GA1031+030009039GA2051+060009009GF106991031001999999031011IA1019IA2999+00409KA1120N+00581MD1410001+9999REMSYN094AAXX  26064 17067 32970 61102 10082 20050 40222 54000 83031 333 20058 30004 83360 85070 92408;EQDQ01  00002PRCP99
0132170670999992000032609004+40720+029820FM-12+001899999V0200701N001012200019N0200001N1+01361+00831102221ADDGA1001+999999999GF100991001001999999001001MD1410001+9999REMSYN064AAXX  26094 17067 42970 00702 10136 20083 40222 54000 333 92408;
0162170670999992000032612004+40720+029820FM-12+001899999V0200701N002612200019N0200001N1+01461+00581102101ADDAA199000091GA1001+999999999GF100991001001999999001001MD1710121+9999REMSYN064AAXX  26124 17067 32970 00705 10146 20058 40210 57012 333 92418;EQDQ01  00002PRCP99
0160170670999992000032615004+40720+029820FM-12+001899999V0200701N002612200019N0080001N1+01401+00851101981ADDAY101031AY201031GA1001+999999999GF100991001001999999001001MD1710121+9999MW1101REMSYN070AAXX  26154 17067 41958 00705 10140 20085 40198 57012 71000 333 92416;
0245170670999992000032706004+40720+029820FM-12+001899999V0201101N001510600019N0060001N1+01041+00661102021ADDAA199000091AY121061AY221061GA1051+060009009GF105991001001999999001011IA1019IA2999+01009KA1120N+01021MD1410001+9999MW1101REMSYN094AAXX  27064 17067 31956 51103 10104 20066 40202 54000 71022 80001 333 20102 30010 85070 92406;EQDQ01  00002PRCP99
0172170670999992000032709004+40720+029820FM-12+001899999V0203401N000510600019N0100001N1+01641+00781101941ADDAY121031AY221031GA1051+060009009GF105991001001999999001011MD1710081+9999MW1051REMSYN082AAXX  27094 17067 41960 53401 10164 20078 40194 57008 70522 80001 333 85070 92407;
0202170670999992000032712004+40720+029820FM-12+001899999V0202701N003110600019N0100001N1+02021+01141101761ADDAA199000091AY121061AY221061GA1061+060009009GF106991001001999999001011MD1710181+9999MW1051REMSYN082AAXX  27124 17067 31960 62706 10202 20114 40176 57018 70522 80001 333 86070 92417;EQDQ01  00002PRCP99
0144170670999992000032715004+40720+029820FM-12+001899999V0202701N004610300019N0200001N1+01461+00801101621ADDGA1071+030009039GF107991071001999999031001MD1710141+9999REMSYN076AAXX  27154 17067 42970 72709 10146 20080 40162 57014 87030 333 87360 92428;
0205170670999992000032806004+40720+029820FM-12+001899999V0200601N001012200019N0200001N1+01201+00841101721ADDAA199000091GA1001+999999999GF100991001001999999001001IA1019IA2999+00809KA1120N+00981MD1210081+9999REMSYN076AAXX  28064 17067 32970 00602 10120 20084 40172 52008 333 20098 30008 92408;EQDQ01  00002PRCP99
0144170670999992000032809004+40720+029820FM-12+001899999V0202701N001512200019N0200001N1+01701+00881101761ADDGA1021+012009089GF102991021011012501001001MD1210041+9999REMSYN076AAXX  28094 17067 42670 22703 10170 20088 40176 52004 82100 333 82840 92408;
0174170670999992000032812004+40720+029820FM-12+001899999V0202601N004112200019N0200001N1+02021+01201101761ADDAA199000091GA1021+012009089GF102991021011012501001001MD1410001+9999REMSYN076AAXX  28124 17067 32670 22608 10202 20120 40176 54000 82100 333 82840 92428;EQDQ01  00002PRCP99
0144170670999992000032815004+40720+029820FM-12+001899999V0202701N004612200019N0200001N1+02021+01201101741ADDGA1021+060009009GF102991001001999999001011MD1610021+9999REMSYN076AAXX  28154 17067 42970 22709 10202 20120 40174 56002 80001 333 82070 92428;
0205170670999992000032906004+40720+029820FM-12+001899999V0200501N001512200019N0200001N1+01161+00801101991ADDAA199000091GA1001+999999999GF100991001001999999001001IA1019IA2999+00709KA1120N+00781MD1310021+9999REMSYN076AAXX  29064 17067 32970 00503 10116 20080 40199 53002 333 20078 30007 94208;EQDQ01  00002PRCP99
0132170670999992000032909004+40720+029820FM-12+001899999V0202701N002112200019N0200001N1+01781+00931102021ADDGA1001+999999999GF100991001001999999001001MD1110031+9999REMSYN064AAXX  29094 17067 42970 02704 10178 20093 40202 51003 333 92408;
0174170670999992000032912004+40720+029820FM-12+001899999V0202701N002612200019N0200001N1+01841+00901102021ADDAA199000091GA1011+012009089GF101991011011012501001001MD1410001+9999REMSYN076AAXX  29124 17067 32670 12705 10184 20090 40202 54000 81100 333 81840 92418;EQDQ01  00002PRCP99
0217170670999992000033006004+40720+029820FM-12+001899999V0201301N001010600019N0200001N1+01261+00901101941ADDAA199000091GA1051+060009009GF105991001001999999001011IA1019IA2999+01109KA1120N+01241MD1410001+9999REMSYN088AAXX  30064 17067 32970 51302 10126 20090 40194 54000 80001 333 20124 30011 85070 92408;EQDQ01  00002PRCP99
0144170670999992000033009004+40720+029820FM-12+001899999V0201101N001012200019N0200001N1+02141+01141101861ADDGA1031+060009009GF103991001001999999001011MD1710081+9999REMSYN076AAXX  30094 17067 42970 31102 10214 20114 40186 57008 80001 333 83070 92408;
0174170670999992000033012004+40720+029820FM-12+001899999V0203601N000510600019N0200001N1+02681+01431101531ADDAA199000091GA1061+060009009GF106991001001999999001011MD1710321+9999REMSYN076AAXX  30124 17067 32970 63601 10268 20143 40153 57032 80001 333 86070 92408;EQDQ01  00002PRCP99
0144170670999992000033015004+40720+029820FM-12+001899999V0201701N000510300019N0200001N1+02461+01341101371ADDGA1071+030009039GF107991071001999999031001MD1710161+9999REMSYN076AAXX  30154 17067 42970 71701 10246 20134 40137 57016 87030 333 87360 92408;
0267170670999992000033106004+40720+029820FM-12+001899999V0201201N001012200019N0100001N1+01381+01071101421ADDAA199000091AY111061AY211061GA1011+012009089GA2031+060009009GF104991011011012501001011IA1019IA2999+01009KA1120N+01201MD1310101+9999MW1101REMSYN100AAXX  31064 17067 31660 41202 10138 20107 40142 53010 71011 81101 333 20120 30010 81840 83070 92407;EQDQ01  00002PRCP99
0166170670999992000033109004+40720+029820FM-12+001899999V0202701N004110600019N0200001N1+01841+00911101461ADDGA1031+012009089GA2051+060009009GF105991031021012501001011MD1210041+9999REMSYN082AAXX  31094 17067 42670 52708 10184 20091 40146 52004 83201 333 83840 85070 92428;
0196170670999992000033112004+40720+029820FM-12+001899999V0202801N002610600019N0200001N1+01921+01031101421ADDAA199000091GA1021+030009039GA2041+060009009GF105991021001999999031011MD1810041+9999REMSYN082AAXX  31124 17067 32970 52805 10192 20103 40142 58004 82031 333 82360 84070 92418;EQDQ01  00002PRCP99
0144170670999992000033115004+40720+029820FM-12+001899999V0202401N002612200019N0200001N1+02001+00971101321ADDGA1041+060009009GF104991001001999999001011MD1810101+9999REMSYN076AAXX  31154 17067 42970 42405 10200 20097 40132 58010 80001 333 84070 92418;
0233170670999992000040106004+40720+029820FM-12+001899999V0201101N001012200019N0080001N1+01201+00881101311ADDAA199000091AY101061AY201061GA1001+999999999GF100991001001999999001001IA1019IA2999+00809KA1120N+01081MD1410001+9999MW1101REMSYN082AAXX  01064 17067 31958 01102 10120 20088 40131 54000 71000 333 20108 30008 92406;EQDQ01  00002PRCP99
0144170670999992000040109004+40720+029820FM-12+001899999V0201101N001512200019N0080001N1+01881+01101101341ADDGA1041+010809089GF104991041021012501001001MD1310031+9999REMSYN076AAXX  01094 17067 41658 41103 10188 20110 40134 53003 84200 333 84836 92406;
0202170670999992000040112004+40720+029820FM-12+001899999V0202901N001512200019N0100001N1+02421+01371101141ADDAA199000091AY101061AY201061GA1041+010809089GF104991041021012501001001MD1210201+9999MW1101REMSYN082AAXX  01124 17067 31660 42903 10242 20137 40114 52020 71000 84200 333 84836 92407;EQDQ01  00002PRCP99
0172170670999992000040115004+40720+029820FM-12+001899999V0202401N001510108019N0100001N1+02271+01111100991ADDAY101031AY201031GA1071+010809089GF107991071021012501001001MD1710151+9999MW1051REMSYN082AAXX  01154 17067 41660 72403 10227 20111 40099 57015 70500 87200 333 87836 92407;
0239170670999992000040206004+40720+029820FM-12+001899999V0201301N003110120019N0200001N1+01661+01081101001ADDAA199000091GA1051+012009089GA2071+030009039GF107991051021012501031001IA1019IA2999+01509KA1120N+01641MD1710121+9999REMSYN094AAXX  02064 17067 32670 71306 10166 20108 40100 57012 85230 333 20164 30015 85840 87360 92418;EQDQ01  00002PRCP99
0144170670999992000040209004+40720+029820FM-12+001899999V0202701N003110600019N0200001N1+02201+01101100991ADDGA1051+060009009GF105991001001999999001011MD1410001+9999REMSYN076AAXX  02094 17067 42970 52706 10220 20110 40099 54000 80001 333 85070 92418;
0174170670999992000040212004+40720+029820FM-12+001899999V0202701N004612200019N0200001N1+02241+00941100941ADDAA199000091GA1031+060009009GF103991001001999999001011MD1810061+9999REMSYN076AAXX  02124 17067 32970 32709 10224 20094 40094 58006 80001 333 83070 92428;EQDQ01  00002PRCP99
0144170670999992000040215004+40720+029820FM-12+001899999V0202701N003612200019N0200001N1+02021+01261100921ADDGA1031+030009039GF103991031001999999031001MD1610021+9999REMSYN076AAXX  02154 17067 42970 32707 10202 20126 40092 56002 83030 333 83360 92418;
0205170670999992000040306004+40720+029820FM-12+001899999V0201401N001012200019N0200001N1+01461+01001101641ADDAA199000091GA1001+999999999GF100991001001999999001001IA1019IA2999+00709KA1120N+00951MD1210121+9999REMSYN076AAXX  03064 17067 32970 01402 10146 20100 40164 52012 333 20095 30007 92408;EQDQ01  00002PRCP99
0144170670999992000040309004+40720+029820FM-12+001899999V0202801N001012200019N0200001N1+02061+01131101641ADDGA1031+060009009GF103991001001999999001011MD1410001+9999REMSYN076AAXX  03094 17067 42970 32802 10206 20113 40164 54000 80001 333 83070 92408;
0174170670999992000040312004+40720+029820FM-12+001899999V0202901N002112200019N0200001N1+02181+01071101621ADDAA199000091GA1031+060009009GF103991001001999999001011MD1610021+9999REMSYN076AAXX  03124 17067 32970 32904 10218 20107 40162 56002 80001 333 83070 92408;EQDQ01  00002PRCP99
0144170670999992000040315004+40720+029820FM-12+001899999V0202901N003112200019N0200001N1+01751+01261101501ADDGA1041+060009009GF104991001001999999001011MD1610121+9999REMSYN076AAXX  03154 17067 42970 42906 10175 20126 40150 56012 80001 333 84070 92418;
0217170670999992000040406004+40720+029820FM-12+001899999V0201401N001010300019N0200001N1+01341+00991101361ADDAA199000091GA1051+030009039GF105991051001999999031001IA1019IA2999+01009KA1120N+00181MD1610011+9999REMSYN088AAXX  04064 17067 32970 51402 10134 20099 40136 56001 85030 333 20018 30010 85360 92408;EQDQ01  00002PRCP99
0144170670999992000040409004+40720+029820FM-12+001899999V0200701N001012200019N0200001N1+02301+01371101321ADDGA1021+030009039GF102991021001999999031001MD1810041+9999REMSYN076AAXX  04094 17067 42970 20702 10230 20137 40132 58004 82030 333 82360 92408;
0196170670999992000040412004+40720+029820FM-12+001899999V0202901N004110300019N0200001N1+02601+01181101181ADDAA199000091GA1021+012009089GA2051+030009039GF105991021021012501031001MD1710131+9999REMSYN082AAXX  04124 17067 32670 52908 10260 20118 40118 57013 82230 333 82840 85360 92418;EQDQ01  00002PRCP99
0144170670999992000040415004+40720+029820FM-12+001899999V0203101N004112200019N0200001N1+02241+01281101131ADDGA1011+030009039GF101991011001999999031001MD1710061+9999REMSYN076AAXX  04154 17067 42970 13108 10224 20128 40113 57006 81030 333 81360 92418;
0239170670999992000040506004+40720+029820FM-12+001899999V0201301N001510300019N0200001N1+01581+01181100981ADDAA199000091GA1031+012009089GA2051+030009039GF106991031021012501031001IA1019IA2999+01409KA1120N+01481MD1810141+9999REMSYN094AAXX  05064 17067 32670 61303 10158 20118 40098 58014 83230 333 20148 30014 83840 85360 92408;EQDQ01  00002PRCP99
0144170670999992000040509004+40720+029820FM-12+001899999V0201701N001512200019N0200001N1+02961+01381100611ADDGA1031+030009039GF103991031001999999031001MD1710361+9999REMSYN076AAXX  05094 17067 42970 31703 10296 20138 40061 57036 83030 333 83360 92408;
0180170670999992000040512004+40720+029820FM-12+001899999V0201801N005112200019N0200001N1+03441+00801100211ADDAA199000091GA1021+030009039GF102991021001999999031001MD1710401+9999REMSYN082AAXX  05124 17067 32970 21810 10344 20080 40021 57040 82030 333 82360 91028 92428;EQDQ01  00002PRCP99
0150170670999992000040515004+40720+029820FM-12+001899999V0202701N006210120019N0200001N1+02381+01041100211ADDGA1051+012009089GF105991051021012501001001MD1510001+9999REMSYN082AAXX  05154 17067 42670 52712 10238 20104 40021 55000 85200 333 85840 91026 92438;
0217170670999992000040606004+40720+029820FM-12+001899999V0202701N002612200019N0200001N1+01821+01471101001ADDAA199000091GA1021+012009089GF102991021011012501001001IA1019IA2999+01309KA1120N+01661MD1210081+9999REMSYN088AAXX  06064 17067 32670 22705 10182 20147 40100 52008 82100 333 20166 30013 82840 92418;EQDQ01  00002PRCP99
0144170670999992000040609004+40720+029820FM-12+001899999V0202801N006212200019N0200001N1+01941+01461101021ADDGA1031+012009089GF103991031021012501001001MD1110021+9999REMSYN076AAXX  06094 17067 42670 32812 10194 20146 40102 51002 83200 333 83840 92428;
0174170670999992000040612004+40720+029820FM-12+001899999V0202501N005712200019N0200001N1+02241+00981100911ADDAA199000091GA1031+012009089GF103991031021012501001001MD1710101+9999REMSYN076AAXX  06124 17067 32670 32511 10224 20098 40091 57010 83200 333 83840 92428;EQDQ01  00002PRCP99
0144170670999992000040615004+40720+029820FM-12+001899999V0202501N003612200019N0200001N1+02221+01201100811ADDGA1041+012009089GF104991041021012501001001MD1710101+9999REMSYN076AAXX  06154 17067 42670 42507 10222 20120 40081 57010 84200 333 84840 92418;
0238170670999992000040706004+40720+029820FM-12+001899999V0203401N002610108019N0200001N1+01141+00771101351ADDAA109003091AY181061AY221061GA1061+010809089GF106991061021012501001001IA1119IA2999+00909KA1120N+01131MD1210201+9999MW1021REMSYN106AAXX  07064 17067 11670 63405 10114 20077 40135 52020 60038 70282 86200 333 20113 32009 70038 86836 92418;
0166170670999992000040709004+40720+029820FM-12+001899999V0203401N002110270019N0200001N1+01401+00691101481ADDGA1031+010809089GA2051+027009039GF107991031021012501031001MD1210131+9999REMSYN082AAXX  07094 17067 42670 73404 10140 20069 40148 52013 83230 333 83836 85359 92418;
0196170670999992000040712004+40720+029820FM-12+001899999V0200901N001510300019N0200001N1+01561+00841101481ADDAA199000091GA1031+010809089GA2051+030009039GF107991031021012501031001MD1410001+9999REMSYN082AAXX  07124 17067 32670 70903 10156 20084 40148 54000 83230 333 83836 85360 92408;EQDQ01  00002PRCP99
0166170670999992000040715004+40720+029820FM-12+001899999V0200301N003110300019N0200001N1+01341+00741101421ADDGA1031+010809089GA2041+030009039GF106991031021012501031001MD1710061+9999REMSYN082AAXX  07154 17067 42670 60306 10134 20074 40142 57006 83230 333 83836 84360 92418;
0260170670999992000040806004+40720+029820FM-12+001899999V0201301N001010108019N0200001N1+00761+00571101651ADDAA112004191AY181061AY221061GA1051+010809089GA2071+030009039GF107991051021012501031001IA1119IA2999+00709KA1120N+00741MD1310021+9999MW1021REMSYN112AAXX  08064 17067 11670 71302 10076 20057 40165 53002 60042 70282 85230 333 20074 32007 70045 85836 87360 92408;
0194170670999992000040809004+40720+029820FM-12+001899999V0200401N001510108019N0200001N1+00941+00541101701ADDAY181031AY221031GA1051+010809089GA2071+030009039GF107991051021012501031001MD1110051+9999MW1021REMSYN088AAXX  08094 17067 41670 70403 10094 20054 40170 51005 70282 85230 333 85836 87360 92408;
0211170670999992000040812004+40720+029820FM-12+001899999V0200901N001510108019N0200001N1+01001+00441101721ADDAA106000191AY181061AY221061GA1051+010809089GA2071+030009039GF107991051021012501031001MD1110021+9999MW1021REMSYN094AAXX  08124 17067 11670 70903 10100 20044 40172 51002 69921 70282 85230 333 85836 87360 92408;
0144170670999992000040815004+40720+029820FM-12+001899999V0200901N001510108019N0200001N1+01001+00441101721ADDGA1061+010809089GF106991061021012501001001MD1410001+9999REMSYN076AAXX  08154 17067 42670 60903 10100 20044 40172 54000 86200 333 86836 92408;
0204170670999992000040906004+40720+029820FM-12+001899999V0201201N001512200019N0200001N1+00581+00221101811ADDAA124000391GA1031+030009039GF103991031001999999031001IA1099IA2999+00009KA1120N+00241MD1210091+9999REMSYN094AAXX  09064 17067 32970 31203 10058 20022 40181 52009 83030 333 20024 31100 70002 83360 92408;
0144170670999992000040909004+40720+029820FM-12+001899999V0200401N001012200019N0200001N1+01221+00431101871ADDGA1041+012009089GF104991041021012501001001MD1110061+9999REMSYN076AAXX  09094 17067 42670 40402 10122 20043 40187 51006 84200 333 84840 92408;
0174170670999992000040912004+40720+029820FM-12+001899999V0202801N002610120019N0200001N1+01341+00461101871ADDAA199000091GA1061+012009089GF106991061021012501001001MD1410001+9999REMSYN076AAXX  09124 17067 32670 62805 10134 20046 40187 54000 86200 333 86840 92418;EQDQ01  00002PRCP99
0144170670999992000040915004+40720+029820FM-12+001899999V0200701N002610090019N0200001N1+01121+00761101971ADDGA1061+009009089GF106991061021008001001001MD1210101+9999REMSYN076AAXX  09154 17067 42570 60705 10112 20076 40197 52010 86200 333 86830 92418;
0217170670999992000041006004+40720+029820FM-12+001899999V0201301N001512200019N0200001N1+00701+00501102151ADDAA199000091GA1011+030009039GF101991011001999999031001IA1099IA2999+00009KA1120N+00281MD1210081+9999REMSYN088AAXX  10064 17067 32970 11303 10070 20050 40215 52008 81030 333 20028 31100 81360 92408;EQDQ01  00002PRCP99
0166170670999992000041009004+40720+029820FM-12+001899999V0200901N001512200019N0200001N1+01501+00591102161ADDGA1011+012009089GA2041+060009009GF104991011011012501001011MD1110011+9999REMSYN082AAXX  10094 17067 42670 40903 10150 20059 40216 51001 81101 333 81840 84070 92408;
0174170670999992000041012004+40720+029820FM-12+001899999V0203101N002612200019N0200001N1+01721+00821102021ADDAA199000091GA1011+012009089GF101991011011012501001001MD1710141+9999REMSYN076AAXX  10124 17067 32670 13105 10172 20082 40202 57014 81100 333 81840 92408;EQDQ01  00002PRCP99
0132170670999992000041015004+40720+029820FM-12+001899999V0202901N001012200019N0200001N1+01851+00881101761ADDGA1001+999999999GF100991001001999999001001MD1710261+9999REMSYN064AAXX  10154 17067 42970 02902 10185 20088 40176 57026 333 92408;
0260170670999992000041106004+40720+029820FM-12+001899999V0201101N001510090019N0100001N1+00881+00731101221ADDAA112000791AY121061AY221061GA1051+009009089GA2071+030009039GF107991051021008001031001IA1099IA2999+00709KA1120N+00861MD1710201+9999MW1801REMSYN112AAXX  11064 17067 11560 71103 10088 20073 40122 57020 69902 78022 85230 333 20086 31007 79999 85830 87360 92407;
0194170670999992000041109004+40720+029820FM-12+001899999V0201101N001010108019N0100001N1+01321+00551101121ADDAY181031AY221031GA1051+010809089GA2071+030009039GF107991051021012501031001MD1710101+9999MW1051REMSYN088AAXX  11094 17067 41660 71102 10132 20055 40112 57010 70582 85230 333 85836 87360 92407;
0211170670999992000041112004+40720+029820FM-12+001899999V0202901N001510108019N0100001N1+01441+00821101021ADDAA106000791AY181061AY221061GA1051+010809089GA2071+030009039GF107991051021012501031001MD1710101+9999MW1051REMSYN094AAXX  11124 17067 11660 72903 10144 20082 40102 57010 69901 70582 85230 333 85836 87360 92407;
0194170670999992000041115004+40720+029820FM-12+001899999V0202701N003110090019N0100001N1+01201+00881101081ADDAY121031AY221031GA1051+009009089GA2071+030009039GF107991051021008001031001MD1110061+9999MW1801REMSYN088AAXX  11154 17067 41560 72706 10120 20088 40108 51006 78022 85230 333 85830 87360 92427;
0198170670999992000041206004+40720+029820FM-12+001899999V0201401N001512200019N0200001N1+01351+01001101041ADDAA106001091GA1001+999999999GF100991001001999999001001IA1119IA2999+01009KA1120N+01201MD1610041+9999REMSYN088AAXX  12064 17067 12970 01403 10135 20100 40104 56004 60011 333 20120 32010 70014 92408;
0144170670999992000041209004+40720+029820FM-12+001899999V0203101N001512200019N0200001N1+01801+01301101021ADDGA1031+012009089GF103991031011012501001001MD1610021+9999REMSYN076AAXX  12094 17067 42670 33103 10180 20130 40102 56002 83100 333 83840 92408;
0224170670999992000041212004+40720+029820FM-12+001899999V0202701N003612200019N0080001N1+01801+01281100871ADDAA199000091AY101061AY201061GA1021+012009089GA2031+060009009GF104991021011012501001011MD1710151+9999MW1101REMSYN088AAXX  12124 17067 31658 42707 10180 20128 40087 57015 71000 82101 333 82840 83070 92416;EQDQ01  00002PRCP99
0144170670999992000041215004+40720+029820FM-12+001899999V0200901N001012200019N0200001N1+01901+01121100801ADDGA1031+012009089GF103991031021012501001001MD1610071+9999REMSYN076AAXX  12154 17067 42670 30902 10190 20112 40080 56007 83200 333 83840 92408;
0245170670999992000041306004+40720+029820FM-12+001899999V0200901N001010108019N0100001N1+01181+00901100801ADDAA199000091AY121061AY221061GA1061+010809089GF106991061021012501001001IA1019IA2999+00809KA1120N+01121MD1210061+9999MW1101REMSYN094AAXX  13064 17067 31660 60902 10118 20090 40080 52006 71022 86200 333 20112 30008 86836 92407;EQDQ01  00002PRCP99
0144170670999992000041309004+40720+029820FM-12+001899999V0202701N004610108019N0200001N1+01261+00991100911ADDGA1071+010809089GF107991071021012501001001MD1210111+9999REMSYN076AAXX  13094 17067 42670 72709 10126 20099 40091 52011 87200 333 87836 92428;
0189170670999992000041312004+40720+029820FM-12+001899999V0202701N002610108019N0100001N1+01181+00901100931ADDAA106002091AY121061AY221061GA1071+010809089GF107991071021012501001001MD1210021+9999MW1801REMSYN088AAXX  13124 17067 11660 72705 10118 20090 40093 52002 60021 78022 87200 333 87836 92417;
0172170670999992000041315004+40720+029820FM-12+001899999V0202701N004110090019N0100001N1+01181+00901100931ADDAY181031AY281031GA1071+009009089GF107991071021008001001001MD1410001+9999MW1801REMSYN082AAXX  13154 17067 41560 72708 10118 20090 40093 54000 78088 87200 333 87830 92427;
0220170670999992000041406004+40720+029820FM-12+001899999V0201101N001012200019N0005001N1+00941+00911101421ADDAA124002591AY101061AY201061GA1001+999999999GF100991001001999999001001IA1099IA2999+00909KA1120N+00921MD1210101+9999MW1441REMSYN088AAXX  14064 17067 31905 01102 10094 20091 40142 52010 74400 333 20092 31009 70026 92403;
0160170670999992000041409004+40720+029820FM-12+001899999V0200901N001012200019N0100001N1+01701+01001101461ADDAY141031AY241031GA1001+999999999GF100991001001999999001001MD1110041+9999MW1051REMSYN070AAXX  14094 17067 41960 00902 10170 20100 40146 51004 70544 333 92407;
0144170670999992000041415004+40720+029820FM-12+001899999V0202701N003112200019N0200001N1+01801+01161101321ADDGA1011+012009089GF101991011011012501001001MD1710101+9999REMSYN076AAXX  14154 17067 42670 12706 10180 20116 40132 57010 81100 333 81840 92428;
0205170670999992000041506004+40720+029820FM-12+001899999V0201201N001012200019N0200001N1+01481+00791101281ADDAA199000091GA1001+999999999GF100991001001999999001001IA1019IA2999+00609KA1120N+00871MD1110041+9999REMSYN076AAXX  15064 17067 32970 01202 10148 20079 40128 51004 333 20087 30006 92408;EQDQ01  00002PRCP99
0132170670999992000041509004+40720+029820FM-12+001899999V0200901N001512200019N0200001N1+02221+01201101381ADDGA1001+999999999GF100991001001999999001001MD1210101+9999REMSYN064AAXX  15094 17067 42970 00903 10222 20120 40138 52010 333 92408;
0174170670999992000041512004+40720+029820FM-12+001899999V0202901N001012200019N0200001N1+02621+01321101321ADDAA199000091GA1011+012009089GF101991011011012501001001MD1710061+9999REMSYN076AAXX  15124 17067 32670 12902 10262 20132 40132 57006 81100 333 81840 92408;EQDQ01  00002PRCP99
0132170670999992000041515004+40720+029820FM-12+001899999V0202401N001012200019N0200001N1+02231+01001101261ADDGA1001+999999999GF100991001001999999001001MD1610061+9999REMSYN064AAXX  15154 17067 42970 02402 10223 20100 40126 56006 333 92408;
0217170670999992000041606004+40720+029820FM-12+001899999V0200901N001512200019N0200001N1+01481+00951101301ADDAA199000091GA1041+030009039GF104991041001999999031001IA1019IA2999+00809KA1120N+01121MD1410001+9999REMSYN088AAXX  16064 17067 32970 40903 10148 20095 40130 54000 84030 333 20112 30008 84360 92408;EQDQ01  00002PRCP99
0144170670999992000041609004+40720+029820FM-12+001899999V0200201N001010300019N0200001N1+02321+99999101301ADDGA1051+030009039GF105991051001999999031001MD1410001+9999REMSYN076AAXX  16094 17067 42970 50202 10232 20250 40130 54000 85030 333 85360 92408;
0174170670999992000041612004+40720+029820FM-12+001899999V0202701N005710300019N0200001N1+01881+01261101271ADDAA199000091GA1061+030009039GF106991061001999999031001MD1810031+9999REMSYN076AAXX  16124 17067 32970 62711 10188 20126 40127 58003 86030 333 86360 92428;EQDQ01  00002PRCP99
0144170670999992000041615004+40720+029820FM-12+001899999V0202501N002610300019N0200001N1+01821+01291101241ADDGA1061+030009039GF106991061001999999031001MD1710031+9999REMSYN076AAXX  16154 17067 42970 62505 10182 20129 40124 57003 86030 333 86360 92418;
0245170670999992000041706004+40720+029820FM-12+001899999V0201301N000510120019N0100001N1+01481+01261101221ADDAA199000091AY121061AY221061GA1061+012009089GF106991061021012501001001IA1019IA2999+01409KA1120N+01461MD1410001+9999MW1101REMSYN094AAXX  17064 17067 31660 61301 10148 20126 40122 54000 71022 86200 333 20146 30014 86840 92407;EQDQ01  00002PRCP99
0172170670999992000041709004+40720+029820FM-12+001899999V0203401N001010600019N0100001N1+02141+01151101221ADDAY121031AY221031GA1051+060009009GF105991001001999999001011MD1410001+9999MW1051REMSYN082AAXX  17094 17067 41960 53402 10214 20115 40122 54000 70522 80001 333 85070 92407;
0224170670999992000041712004+40720+029820FM-12+001899999V0202701N003110600019N0100001N1+02421+01461100951ADDAA199000091AY121061AY221061GA1021+012009089GA2051+060009009GF106991021011012501001011MD1710261+9999MW1051REMSYN088AAXX  17124 17067 31660 62706 10242 20146 40095 57026 70522 82101 333 82840 85070 92407;EQDQ01  00002PRCP99
0194170670999992000041715004+40720+029820FM-12+001899999V0203601N000510600019N0100001N1+02261+01521100791ADDAY121031AY221031GA1021+012009089GA2051+060009009GF106991021011012501001011MD1610121+9999MW1051REMSYN088AAXX  17154 17067 41660 63601 10226 20152 40079 56012 70522 82101 333 82840 85070 92407;
0245170670999992000041806004+40720+029820FM-12+001899999V0203101N001012200019N0100001N1+01541+01101100601ADDAA199000091AY101061AY201061GA1021+012009089GF102991021011012501001001IA1019IA2999+01009KA1120N+01241MD1110041+9999MW1101REMSYN094AAXX  18064 17067 31660 23102 10154 20110 40060 51004 71000 82100 333 20124 30010 82840 92407;EQDQ01  00002PRCP99
0172170670999992000041809004+40720+029820FM-12+001899999V0202401N002612200019N0100001N1+01861+01261100621ADDAY101031AY201031GA1031+012009089GF103991031011012501001001MD1110021+9999MW1051REMSYN082AAXX  18094 17067 41660 32405 10186 20126 40062 51002 70500 83100 333 83840 92417;
0224170670999992000041812004+40720+029820FM-12+001899999V0202801N004112200019N0100001N1+01931+01231100421ADDAA199000091AY101061AY201061GA1021+012009089GA2041+060009009GF104991021011012501001011MD1710201+9999MW1031REMSYN088AAXX  18124 17067 31660 42808 10193 20123 40042 57020 70300 82101 333 82840 84070 92417;EQDQ01  00002PRCP99
0194170670999992000041815004+40720+029820FM-12+001899999V0203001N001510300019N0100001N1+01751+01361100421ADDAY101031AY201031GA1031+012009089GA2051+030009039GF106991031021012501031001MD1410001+9999MW1101REMSYN088AAXX  18154 17067 41660 63003 10175 20136 40042 54000 71000 83230 333 83840 85360 92407;
0238170670999992000041906004+40720+029820FM-12+001899999V0202701N001510108019N0100001N1+01321+00981100201ADDAA112000191AY181061AY221061GA1071+010809089GF107991071021012501001001IA1099IA2999+01109KA1120N+01241MD1810031+9999MW1101REMSYN106AAXX  19064 17067 11660 72703 10132 20098 40020 58003 69912 71082 87200 333 20124 31011 70001 87836 92407;
0172170670999992000041909004+40720+029820FM-12+001899999V0202701N004610108019N0100001N1+01601+01191100171ADDAY121031AY221031GA1061+010809089GF106991061021012501001001MD1810031+9999MW1101REMSYN082AAXX  19094 17067 41660 62709 10160 20119 40017 58003 71022 86200 333 86836 92427;
0202170670999992000041912004+40720+029820FM-12+001899999V0203201N004610108019N0100001N1+01601+01191100101ADDAA199000091AY121061AY221061GA1061+010809089GF106991061021012501001001MD1710071+9999MW1101REMSYN082AAXX  19124 17067 31660 63209 10160 20119 40010 57007 71022 86200 333 86836 92427;EQDQ01  00002PRCP99
0172170670999992000041915004+40720+029820FM-12+001899999V0202701N004110108019N0100001N1+01541+01211100041ADDAY121031AY221031GA1071+010809089GF107991071021012501001001MD1610061+9999MW1101REMSYN082AAXX  19154 17067 41660 72708 10154 20121 40004 56006 71022 87200 333 87836 92427;
0260170670999992000042006004+40720+029820FM-12+001899999V0202701N003610090019N0060001N1+01221+01181100081ADDAA112032091AY181061AY281061GA1051+009009089GA2071+030009039GF107991051021008001031001IA1119IA2999+01109KA1120N+01161MD1410001+9999MW1811REMSYN112AAXX  20064 17067 11556 72707 10122 20118 40008 54000 60322 78188 85230 333 20116 32011 70320 85830 87360 92426;
0216170670999992000042009004+40720+029820FM-12+001899999V0200901N003110090019N0060001N1+01301+01281100141ADDAY181031AY281031GA1011+008109099GA2051+009009089GA3071+030009039GF107991061091008001031001MD1210061+9999MW1811REMSYN094AAXX  20094 17067 41556 70906 10130 20128 40014 52006 78188 86930 333 81927 85830 87360 92426;
0233170670999992000042012004+40720+029820FM-12+001899999V0202801N003610090019N0060001N1+01521+01281100221ADDAA106010991AY181061AY281061GA1011+008109099GA2051+009009089GA3071+030009039GF107991061091008001031001MD1110081+9999MW1811REMSYN100AAXX  20124 17067 11556 72807 10152 20128 40022 51008 60111 78188 86930 333 81927 85830 87360 92427;
0194170670999992000042015004+40720+029820FM-12+001899999V0202701N003110090019N0060001N1+01381+01341100261ADDAY181031AY281031GA1051+009009089GA2071+030009039GF107991051021008001031001MD1210041+9999MW1801REMSYN088AAXX  20154 17067 41556 72706 10138 20134 40026 52004 78088 85230 333 85830 87360 92426;
0238170670999992000042106004+40720+029820FM-12+001899999V0203101N003610090019N0200001N1+01241+01191100721ADDAA112006191AY181061AY221061GA1071+009009089GF107991071021008001001001IA1119IA2999+01109KA1120N+01201MD1210101+9999MW1021REMSYN106AAXX  21064 17067 11570 73107 10124 20119 40072 52010 60062 70282 87200 333 20120 32011 70181 87830 92428;
0172170670999992000042109004+40720+029820FM-12+001899999V0202701N004110090019N0100001N1+01381+01341100851ADDAY121031AY221031GA1071+009009089GF107991071021008001001001MD1210131+9999MW1801REMSYN082AAXX  21094 17067 41560 72708 10138 20134 40085 52013 78022 87200 333 87830 92417;
0189170670999992000042112004+40720+029820FM-12+001899999V0202701N003610090019N0200001N1+01501+01321100881ADDAA106000191AY181061AY221061GA1071+009009089GF107991071021008001001001MD1110031+9999MW1021REMSYN088AAXX  21124 17067 11570 72707 10150 20132 40088 51003 69921 70282 87200 333 87830 92428;
0172170670999992000042115004+40720+029820FM-12+001899999V0202701N002610090019N0080001N1+01521+01181100961ADDAY121031AY221031GA1061+009009089GF106991061021008001001001MD1110081+9999MW1101REMSYN082AAXX  21154 17067 41558 62705 10152 20118 40096 51008 71022 86200 333 86830 92416;
0238170670999992000042206004+40720+029820FM-12+001899999V0202601N001510090019N0100001N1+01381+01221101181ADDAA112004191AY181061AY221061GA1071+009009089GF107991071021008001001001IA1119IA2999+01109KA1120N+01221MD1210081+9999MW1801REMSYN106AAXX  22064 17067 11560 72603 10138 20122 40118 52008 60042 78082 87200 333 20122 32011 70041 87830 92407;
0172170670999992000042209004+40720+029820FM-12+001899999V0202701N001510108019N0200001N1+01581+01321101261ADDAY181031AY221031GA1071+010809089GF107991071021012501001001MD1210081+9999MW1021REMSYN082AAXX  22094 17067 41670 72703 10158 20132 40126 52008 70282 87200 333 87836 92408;
0144170670999992000042215004+40720+029820FM-12+001899999V0202701N003110108019N0200001N1+01841+01521101181ADDGA1051+010809089GF105991051021012501001001MD1710081+9999REMSYN076AAXX  22154 17067 42670 52706 10184 20152 40118 57008 85200 333 85836 92418;
0254170670999992000042306004+40720+029820FM-12+001899999V0200401N000510300019N0100001N1+01461+01291101301ADDAA124000191AY121061AY221061GA1021+010809089GA2051+030009039GF106991021021012501031001IA1099IA2999+01009KA1120N+01151MD1310021+9999MW1101REMSYN106AAXX  23064 17067 31660 60401 10146 20129 40130 53002 71022 82230 333 20115 31010 70001 82836 85360 92407;
0194170670999992000042309004+40720+029820FM-12+001899999V0202901N004610090019N0100001N1+01561+01101101341ADDAY121031AY221031GA1051+009009089GA2071+030009039GF107991051021008001031001MD1210041+9999MW1801REMSYN088AAXX  23094 17067 41560 72909 10156 20110 40134 52004 78022 85230 333 85830 87360 92427;
0189170670999992000042312004+40720+029820FM-12+001899999V0202801N004610120019N0200001N1+01701+01421101351ADDAA106000191AY181061AY221061GA1051+012009089GF105991051021012501001001MD1110011+9999MW1031REMSYN088AAXX  23124 17067 11670 52809 10170 20142 40135 51001 69921 70382 85200 333 85840 92428;
0144170670999992000042315004+40720+029820FM-12+001899999V0202701N004610120019N0200001N1+01741+01351101301ADDGA1061+012009089GF106991061021012501001001MD1610051+9999REMSYN076AAXX  23154 17067 42670 62709 10174 20135 40130 56005 86200 333 86840 92428;
0238170670999992000042406004+40720+029820FM-12+001899999V0202701N003610090019N0200001N1+01421+01301101221ADDAA112016091AY181061AY221061GA1071+009009089GF107991071021008001001001IA1119IA2999+01209KA1120N+01251MD1410001+9999MW1011REMSYN106AAXX  24064 17067 11570 72707 10142 20130 40122 54000 60162 70182 87200 333 20125 32012 70160 87830 92418;
0144170670999992000042409004+40720+029820FM-12+001899999V0202701N002610090019N0200001N1+01641+01381101271ADDGA1071+009009089GF107991071021008001001001MD1210051+9999REMSYN076AAXX  24094 17067 42570 72705 10164 20138 40127 52005 87200 333 87830 92408;
0166170670999992000042415004+40720+029820FM-12+001899999V0202901N001010300019N0200001N1+01771+01361101321ADDGA1031+010809089GA2041+030009039GF106991031021012501031001MD1110011+9999REMSYN082AAXX  24154 17067 42670 62902 10177 20136 40132 51001 83230 333 83836 84360 92408;
0238170670999992000042506004+40720+029820FM-12+001899999V0201401N001010108019N0200001N1+01561+01341101301ADDAA112000191AY181061AY221061GA1061+010809089GF106991061021012501001001IA1119IA2999+01109KA1120N+01251MD1410001+9999MW1021REMSYN106AAXX  25064 17067 11670 61402 10156 20134 40130 54000 69912 70282 86200 333 20125 32011 70001 86836 92408;
0144170670999992000042509004+40720+029820FM-12+001899999V0201401N001512200019N0200001N1+02301+01701101321ADDGA1021+010809089GF102991021011012501001001MD1110021+9999REMSYN076AAXX  25094 17067 42670 21403 10230 20170 40132 51002 82100 333 82836 92408;
0174170670999992000042512004+40720+029820FM-12+001899999V0200701N001512200019N0200001N1+02601+01801101171ADDAA199000091GA1031+010809089GF103991031021012501001001MD1710151+9999REMSYN076AAXX  25124 17067 32670 30703 10260 20180 40117 57015 83200 333 83836 92408;EQDQ01  00002PRCP99
0144170670999992000042515004+40720+029820FM-12+001899999V0201401N001510108019N0200001N1+02301+01701101091ADDGA1061+010809089GF106991061021012501001001MD1710081+9999REMSYN076AAXX  25154 17067 42670 61403 10230 20170 40109 57008 86200 333 86836 92408;
0260170670999992000042606004+40720+029820FM-12+001899999V0201801N000510108019N0100001N1+01521+01431101251ADDAA112000591AY121061AY221061GA1051+010809089GA2071+030009039GF107991051021012501031001IA1099IA2999+01109KA1120N+01401MD1310111+9999MW1101REMSYN112AAXX  26064 17067 11660 71801 10152 20143 40125 53011 69962 71022 85230 333 20140 31011 70006 85836 87360 92407;
0194170670999992000042609004+40720+029820FM-12+001899999V0202701N003110090019N0100001N1+01521+01221101351ADDAY121031AY221031GA1051+009009089GA2071+030009039GF107991051021008001031001MD1210101+9999MW1801REMSYN088AAXX  26094 17067 41560 72706 10152 20122 40135 52010 78022 85230 333 85830 87360 92427;
0205170670999992000042612004+40720+029820FM-12+001899999V0200901N001010090019N0100001N1+01601+01421999999ADDAA106002091AY121061AY221061GA1051+009009089GA2071+030009039GF107991051021008001031001MD1110071+9999MW1801REMSYN088AAXX  26124 17067 11560 70902 10160 20142 51007 60021 78022 85230 333 85830 87360 92407;
0194170670999992000042615004+40720+029820FM-12+001899999V0200901N000510108019N0200001N1+01601+01421101421ADDAY181031AY221031GA1051+010809089GA2071+030009039GF107991051021012501031001MD1410001+9999MW1021REMSYN088AAXX  26154 17067 41670 70901 10160 20142 40142 54000 70282 85230 333 85836 87360 92408;
0238170670999992000042706004+40720+029820FM-12+001899999V0201201N001010090019N0200001N1+01381+01221101521ADDAA112008991AY181061AY221061GA1071+009009089GF107991071021008001001001IA1119IA2999+01109KA1120N+01161MD1410001+9999MW1021REMSYN106AAXX  27064 17067 11570 71202 10138 20122 40152 54000 60092 70282 87200 333 20116 32011 70117 87830 92408;
0144170670999992000042709004+40720+029820FM-12+001899999V0201101N001010108019N0200001N1+01741+01341101541ADDGA1071+010809089GF107991071021012501001001MD1110021+9999REMSYN076AAXX  27094 17067 42670 71102 10174 20134 40154 51002 87200 333 87836 92408;
0196170670999992000042712004+40720+029820FM-12+001899999V0201101N001010090019N0200001N1+01641+01381101541ADDAA199000091GA1011+007509099GA2061+009009089GF107991071031008001001001MD1410001+9999REMSYN082AAXX  27124 17067 32570 71102 10164 20138 40154 54000 87300 333 81925 86830 92408;EQDQ01  00002PRCP99
0194170670999992000042715004+40720+029820FM-12+001899999V0201601N001010075019N0080001N1+01501+01351101541ADDAY121031AY221031GA1021+006009099GA2051+007509089GF107991071091008001001001MD1410001+9999MW1951REMSYN088AAXX  27154 17067 41558 71602 10150 20135 40154 54000 79522 87900 333 82920 85825 92406;
0238170670999992000042806004+40720+029820FM-12+001899999V0209999C000010108019N0200001N1+01361+01251101481ADDAA112007991AY181061AY221061GA1071+010809089GF107991071021012501001001IA1119IA2999+01109KA1120N+01161MD1410001+9999MW1021REMSYN106AAXX  28064 17067 11670 70000 10136 20125 40148 54000 60082 70282 87200 333 20116 32011 70091 87836 92408;
0144170670999992000042809004+40720+029820FM-12+001899999V0202701N001510108019N0200001N1+01441+01241101481ADDGA1071+010809089GF107991071021012501001001MD1410001+9999REMSYN076AAXX  28094 17067 42670 72703 10144 20124 40148 54000 87200 333 87836 92408;
0189170670999992000042812004+40720+029820FM-12+001899999V0200901N001010108019N0200001N1+01441+01241101481ADDAA106000791AY181061AY221061GA1071+010809089GF107991071021012501001001MD1410001+9999MW1021REMSYN088AAXX  28124 17067 11670 70902 10144 20124 40148 54000 69901 70282 87200 333 87836 92408;
0144170670999992000042815004+40720+029820FM-12+001899999V0201401N001010108019N0200001N1+01541+01231101391ADDGA1071+010809089GF107991071021012501001001MD1710091+9999REMSYN076AAXX  28154 17067 42670 71402 10154 20123 40139 57009 87200 333 87836 92408;
0254170670999992000042906004+40720+029820FM-12+001899999V0202701N003110090019N0100001N1+01361+01261101401ADDAA124000791AY121061AY221061GA1051+009009089GA2071+030009039GF107991051021008001031001IA1119IA2999+01209KA1120N+01301MD1410001+9999MW1101REMSYN106AAXX  29064 17067 31560 72706 10136 20126 40140 54000 71022 85230 333 20130 32012 79999 85830 87360 92427;
0194170670999992000042909004+40720+029820FM-12+001899999V0202701N004110090019N0100001N1+01521+01321101441ADDAY121031AY221031GA1051+009009089GA2071+030009039GF107991051021008001031001MD1110041+9999MW1101REMSYN088AAXX  29094 17067 41560 72708 10152 20132 40144 51004 71022 85230 333 85830 87360 92427;
0224170670999992000042912004+40720+029820FM-12+001899999V0202701N003610090019N0100001N1+01521+01351101481ADDAA199000091AY121061AY221061GA1051+009009089GA2071+030009039GF107991051021008001031001MD1210041+9999MW1101REMSYN088AAXX  29124 17067 31560 72707 10152 20135 40148 52004 71022 85230 333 85830 87360 92427;EQDQ01  00002PRCP99
0194170670999992000042915004+40720+029820FM-12+001899999V0202701N004610090019N0100001N1+01461+01181101521ADDAY121031AY221031GA1051+009009089GA2071+030009039GF107991051021008001031001MD1110041+9999MW1801REMSYN088AAXX  29154 17067 41560 72709 10146 20118 40152 51004 78022 85230 333 85830 87360 92427;
0257170670999992000043006004+40720+029820FM-12+001899999V0202701N001010090019N0080001N1+01501+01321101851ADDAA112001091AY121061AY221061GA1071+009009089GF199999071021008001001001IA1119IA2999+01209KA1120N+01321MD1210131+9999MW1101REMSYN106AAXX  30064 17067 11558 52702 10150 20132 40185 52013 60012 71022 87200 333 20132 32012 70012 87830 92407;EQDQ01+000052SCOTCV
0172170670999992000043009004+40720+029820FM-12+001899999V0201101N001512200019N0100001N1+01981+01551101851ADDAY111031AY211031GA1041+012009089GF104991041021012501001001MD1410001+9999MW1101REMSYN082AAXX  30094 17067 41660 41103 10198 20155 40185 54000 71011 84200 333 84840 92407;
0202170670999992000043012004+40720+029820FM-12+001899999V0201201N002112200019N0100001N1+02401+01721101851ADDAA199000091AY101061AY201061GA1031+012009089GF103991031021012501001001MD1410001+9999MW1101REMSYN082AAXX  30124 17067 31660 31204 10240 20172 40185 54000 71000 83200 333 83840 92417;EQDQ01  00002PRCP99
0144170670999992000043015004+40720+029820FM-12+001899999V0200701N001512200019N0200001N1+02201+01591101781ADDGA1031+012009089GF103991031021012501001001MD1710071+9999REMSYN076AAXX  30154 17067 42670 30703 10220 20159 40178 57007 83200 333 83840 92408;
0233170670999992000050106004+40720+029820FM-12+001899999V0201401N001512200019N0080001N1+01361+01161101681ADDAA199000091AY101061AY201061GA1001+999999999GF100991001001999999001001IA1099IA2999+01109KA1120N+01251MD1410001+9999MW1101REMSYN082AAXX  01064 17067 31958 01403 10136 20116 40168 54000 71000 333 20125 31011 92406;EQDQ01  00002PRCP99
0172170670999992000050109004+40720+029820FM-12+001899999V0201101N002610120019N0080001N1+01701+01461101681ADDAY111031AY211031GA1051+012009089GF105991051021012501001001MD1410001+9999MW1101REMSYN082AAXX  01094 17067 41658 51105 10170 20146 40168 54000 71011 85200 333 85840 92416;
0202170670999992000050112004+40720+029820FM-12+001899999V0201401N001512200019N0100001N1+02221+01601101591ADDAA199000091AY111061AY211061GA1021+060009009GF102991001001999999001011MD1710091+9999MW1051REMSYN082AAXX  01124 17067 31960 21403 10222 20160 40159 57009 70511 80001 333 82070 92407;EQDQ01  00002PRCP99
0172170670999992000050115004+40720+029820FM-12+001899999V0201101N001012200019N0100001N1+02281+01561101471ADDAY101031AY201031GA1021+060009009GF102991001001999999001011MD1710121+9999MW1051REMSYN082AAXX  01154 17067 41960 21102 10228 20156 40147 57012 70500 80001 333 82070 92407;
0194170670999992000050209004+40720+029820FM-12+001899999V0200501N001012200019N0030001N1+02001+01701101361ADDAY101031AY201031GA1021+010809089GA2031+060009009GF104991021021012501001011MD1410001+9999MW1101REMSYN088AAXX  02094 17067 41630 40502 10200 20170 40136 54000 71000 82201 333 82836 83070 92405;
0224170670999992000050212004+40720+029820FM-12+001899999V0202701N003110600019N0060001N1+02181+01751101261ADDAA199000091AY101061AY201061GA1031+007809089GA2041+060009009GF105991031021012501001011MD1710101+9999MW1101REMSYN088AAXX  02124 17067 31656 52706 10218 20175 40126 57010 71000 83201 333 83826 84070 92426;EQDQ01  00002PRCP99
0194170670999992000050215004+40720+029820FM-12+001899999V0202701N001510600019N0100001N1+02101+01541101181ADDAY121031AY221031GA1031+010809089GA2051+060009009GF106991031021012501001011MD1610081+9999MW1101REMSYN088AAXX  02154 17067 41660 62703 10210 20154 40118 56008 71022 83201 333 83836 85070 92407;
0238170670999992000050306004+40720+029820FM-12+001899999V0201501N001510090019N0100001N1+01041+00961101901ADDAA112014091AY181061AY281061GA1071+009009089GF107991071021008001001001IA1119IA2999+00909KA1120N+01001MD1210101+9999MW1801REMSYN106AAXX  03064 17067 11560 71503 10104 20096 40190 52010 60142 78088 87200 333 20100 32009 70142 87830 92407;
0172170670999992000050309004+40720+029820FM-12+001899999V0201001N001510108019N0200001N1+01141+01031102031ADDAY181031AY281031GA1071+010809089GF107991071021012501001001MD1210131+9999MW1251REMSYN082AAXX  03094 17067 41670 71003 10114 20103 40203 52013 72588 87200 333 87836 92408;
0189170670999992000050312004+40720+029820FM-12+001899999V0200901N003110108019N0200001N1+01261+00891102071ADDAA106000891AY181061AY221061GA1071+010809089GF107991071021012501001001MD1210041+9999MW1021REMSYN088AAXX  03124 17067 11670 70906 10126 20089 40207 52004 69981 70282 87200 333 87836 92408;
0166170670999992000050315004+40720+029820FM-12+001899999V0200401N005110108019N0200001N1+01241+00801102121ADDGA1011+009009099GA2051+010809089GF106991061031008001001001MD1110051+9999REMSYN082AAXX  03154 17067 42570 60410 10124 20080 40212 51005 86300 333 81930 85836 92428;
0217170670999992000050406004+40720+029820FM-12+001899999V0201401N001512200019N0200001N1+01241+01001101251ADDAA199000091GA1011+010809089GF101991011011012501001001IA1099IA2999+00909KA1120N+00951MD1410001+9999REMSYN088AAXX  04064 17067 32670 11403 10124 20100 40125 54000 81100 333 20095 31009 81836 92408;EQDQ01  00002PRCP99
0163170670999992000050409004+40720+029820FM-12+001899999V0200301N003112200019N0200001N1+01601+00781102002ADDGA1031+012009089GF103991031021012501001001MD1710051+9999REMSYN076AAXX  04094 17067 42670 30306 10160 20078 40200 57005 83200 333 83840 92428;EQDQ01+102003APOSLP
0174170670999992000050412004+40720+029820FM-12+001899999V0200501N004112200019N0200001N1+01651+00841101941ADDAA199000091GA1021+012009089GF102991021011012501001001MD1710061+9999REMSYN076AAXX  04124 17067 32670 20508 10165 20084 40194 57006 82100 333 82840 92408;EQDQ01  00002PRCP99
0144170670999992000050415004+40720+029820FM-12+001899999V0200401N004612200019N0200001N1+01501+00781101901ADDGA1041+012009089GF104991041021012501001001MD1710041+9999REMSYN076AAXX  04154 17067 42670 40409 10150 20078 40190 57004 84200 333 84840 92428;
0217170670999992000050506004+40720+029820FM-12+001899999V0201301N001010108019N0200001N1+01121+00901101821ADDAA199000091GA1061+010809089GF106991061021012501001001IA1099IA2999+01009KA1120N+01051MD1410001+9999REMSYN088AAXX  05064 17067 32670 61302 10112 20090 40182 54000 86200 333 20105 31010 86836 92408;EQDQ01  00002PRCP99
0144170670999992000050509004+40720+029820FM-12+001899999V0203601N003610108019N0200001N1+01421+00841101821ADDGA1061+010809089GF106991061021012501001001MD1410001+9999REMSYN076AAXX  05094 17067 42670 63607 10142 20084 40182 54000 86200 333 86836 92428;
0174170670999992000050512004+40720+029820FM-12+001899999V0203601N003610108019N0200001N1+01501+00851101821ADDAA199000091GA1061+010809089GF106991061021012501001001MD1410001+9999REMSYN076AAXX  05124 17067 32670 63607 10150 20085 40182 54000 86200 333 86836 92428;EQDQ01  00002PRCP99
0166170670999992000050515004+40720+029820FM-12+001899999V0203601N003110300019N0200001N1+01421+00781101821ADDGA1031+010809089GA2051+030009039GF105991031021012501031001MD1410001+9999REMSYN082AAXX  05154 17067 42670 53606 10142 20078 40182 54000 83230 333 83836 85360 92428;
0217170670999992000050606004+40720+029820FM-12+001899999V0203401N001012200019N0200001N1+01221+01041101921ADDAA199000091GA1031+012009089GF103991031021012501001001IA1099IA2999+00609KA1120N+00651MD1310131+9999REMSYN088AAXX  06064 17067 32670 33402 10122 20104 40192 53013 83200 333 20065 31006 83840 92408;EQDQ01  00002PRCP99
0144170670999992000050609004+40720+029820FM-12+001899999V0201401N001012200019N0200001N1+01641+00721101991ADDGA1041+012009089GF104991041021012501001001MD1110021+9999REMSYN076AAXX  06094 17067 42670 41402 10164 20072 40199 51002 84200 333 84840 92408;
0174170670999992000050612004+40720+029820FM-12+001899999V0201201N001012200019N0200001N1+01701+00781101991ADDAA199000091GA1041+012009089GF104991041021012501001001MD1410001+9999REMSYN076AAXX  06124 17067 32670 41202 10170 20078 40199 54000 84200 333 84840 92408;EQDQ01  00002PRCP99
0144170670999992000050615004+40720+029820FM-12+001899999V0201401N001012200019N0200001N1+01681+00841101941ADDGA1041+012009089GF104991041021012501001001MD1710051+9999REMSYN076AAXX  06154 17067 42670 41402 10168 20084 40194 57005 84200 333 84840 92408;
0217170670999992000050706004+40720+029820FM-12+001899999V0200501N001512200019N0200001N1+01181+00841102151ADDAA199000091GA1031+012009089GF103991031011012501001001IA1099IA2999+00309KA1120N+00451MD1210101+9999REMSYN088AAXX  07064 17067 32670 30503 10118 20084 40215 52010 83100 333 20045 31003 83840 92408;EQDQ01  00002PRCP99
0144170670999992000050709004+40720+029820FM-12+001899999V0202801N002612200019N0200001N1+01581+01061102231ADDGA1021+012009089GF102991021011012501001001MD1210071+9999REMSYN076AAXX  07094 17067 42670 22805 10158 20106 40223 52007 82100 333 82840 92418;
0174170670999992000050712004+40720+029820FM-12+001899999V0202801N002612200019N0200001N1+01841+00961102141ADDAA199000091GA1021+012009089GF102991021011012501001001MD1710081+9999REMSYN076AAXX  07124 17067 32670 22805 10184 20096 40214 57008 82100 333 82840 91418;EQDQ01  00002PRCP99
0144170670999992000050715004+40720+029820FM-12+001899999V0202701N002612200019N0200001N1+01761+00961102091ADDGA1021+012009089GF102991021011012501001001MD1710051+9999REMSYN076AAXX  07154 17067 42670 22705 10176 20096 40209 57005 82100 333 82840 92418;
0237170670999992000050806004+40720+029820FM-12+001899999V0200501N000510300019N0100001N1+01201+00911102221ADDAY101061AY201061GA1021+010809089GA2041+030009039GF105991021021012501031001IA1019IA2999+00609KA1120N+00701MD1110101+9999MW1101REMSYN100AAXX  08064 17067 41660 50501 10120 20091 40222 51010 71000 82230 333 20070 30006 82836 84360 92407;
0172170670999992000050809004+40720+029820FM-12+001899999V0202701N003112200019N0100001N1+01701+01041102251ADDAY121031AY221031GA1041+010809089GF104991041021012501001001MD1210031+9999MW1051REMSYN082AAXX  08094 17067 41660 42706 10170 20104 40225 52003 70522 84200 333 84836 92407;
0174170670999992000050812004+40720+029820FM-12+001899999V0203601N003612200019N0200001N1+02161+01161102431ADDAA199000091GA1011+012009089GF101991011011012501001001MD1110171+9999REMSYN076AAXX  08124 17067 32670 13607 10216 20116 40243 51017 81100 333 81840 92428;EQDQ01  00002PRCP99
0132170670999992000050815004+40720+029820FM-12+001899999V0200901N001012200019N0200001N1+01941+01051102421ADDGA1001+999999999GF100991001001999999001001MD1410001+9999REMSYN064AAXX  08154 17067 42970 00902 10194 20105 40242 54000 333 92408;
0205170670999992000050906004+40720+029820FM-12+001899999V0201101N000512200019N0200001N1+01141+00901102481ADDAA199000091GA1001+999999999GF100991001001999999001001IA1019IA2999+00509KA1120N+00561MD1410001+9999REMSYN076AAXX  09064 17067 32970 01101 10114 20090 40248 54000 333 20056 30005 92408;EQDQ01  00002PRCP99
0132170670999992000050909004+40720+029820FM-12+001899999V0200901N001512200019N0200001N1+01881+00841102481ADDGA1001+999999999GF100991001001999999001001MD1410001+9999REMSYN064AAXX  09094 17067 42970 00903 10188 20084 40248 54000 333 92408;
0162170670999992000050912004+40720+029820FM-12+001899999V0200401N001012200019N0200001N1+02301+01041102421ADDAA199000091GA1001+999999999GF100991001001999999001001MD1810061+9999REMSYN064AAXX  09124 17067 32970 00402 10230 20104 40242 58006 333 92408;EQDQ01  00002PRCP99
0132170670999992000050915004+40720+029820FM-12+001899999V0202801N002612200019N0200001N1+02061+01121102321ADDGA1001+999999999GF100991001001999999001001MD1710101+9999REMSYN064AAXX  09154 17067 42970 02805 10206 20112 40232 57010 333 92418;
0205170670999992000051006004+40720+029820FM-12+001899999V0201101N001012200019N0200001N1+01241+00761102341ADDAA199000091GA1001+999999999GF100991001001999999001001IA1019IA2999+00409KA1120N+00621MD1410001+9999REMSYN076AAXX  10064 17067 32970 01102 10124 20076 40234 54000 333 20062 30004 92408;EQDQ01  00002PRCP99
0132170670999992000051009004+40720+029820FM-12+001899999V0203101N001012200019N0200001N1+01981+01251102321ADDGA1001+999999999GF100991001001999999001001MD1810021+9999REMSYN064AAXX  10094 17067 42970 03102 10198 20125 40232 58002 333 92418;
0162170670999992000051012004+40720+029820FM-12+001899999V0203001N002612200019N0200001N1+02201+01301102181ADDAA199000091GA1001+999999999GF100991001001999999001001MD1710141+9999REMSYN064AAXX  10124 17067 32970 03005 10220 20130 40218 57014 333 92418;EQDQ01  00002PRCP99
0132170670999992000051015004+40720+029820FM-12+001899999V0202801N002612200019N0200001N1+01961+01231102081ADDGA1001+999999999GF100991001001999999001001MD1710101+9999REMSYN064AAXX  10154 17067 42970 02805 10196 20123 40208 57010 333 92418;
0205170670999992000051106004+40720+029820FM-12+001899999V0201001N000512200019N0200001N1+01581+00901101961ADDAA199000091GA1001+999999999GF100991001001999999001001IA1019IA2999+00709KA1120N+00841MD1610041+9999REMSYN076AAXX  11064 17067 32970 01001 10158 20090 40196 56004 333 20084 30007 92408;EQDQ01  00002PRCP99
0132170670999992000051109004+40720+029820FM-12+001899999V0203601N000512200019N0200001N1+02241+01031101941ADDGA1001+999999999GF100991001001999999001001MD1810021+9999REMSYN064AAXX  11094 17067 42970 03601 10224 20103 40194 58002 333 92408;
0162170670999992000051112004+40720+029820FM-12+001899999V0202801N001512200019N0200001N1+02561+02041101711ADDAA199000091GA1001+999999999GF100991001001999999001001MD1710221+9999REMSYN064AAXX  11124 17067 32970 02803 10256 20204 40171 57022 333 92408;EQDQ01  00002PRCP99
0245170670999992000051206004+40720+029820FM-12+001899999V0200601N000512200019N0100001N1+01761+01141101541ADDAA199000091AY101061AY201061GA1031+030009039GF103991031001999999031001IA1019IA2999+01409KA1120N+01481MD1110021+9999MW1051REMSYN094AAXX  12064 17067 31960 30601 10176 20114 40154 51002 70500 83030 333 20148 30014 83360 92407;EQDQ01  00002PRCP99
0144170670999992000051209004+40720+029820FM-12+001899999V0202701N005712200019N0200001N1+02351+01501101541ADDGA1011+012009089GF101991011011012501001001MD1410001+9999REMSYN076AAXX  12094 17067 42670 12711 10235 20150 40154 54000 81100 333 81840 92428;
0174170670999992000051212004+40720+029820FM-12+001899999V0203001N003112200019N0200001N1+02401+01321101541ADDAA199000091GA1011+012009089GF101991011011012501001001MD1410001+9999REMSYN076AAXX  12124 17067 32670 13006 10240 20132 40154 54000 81100 333 81840 92418;EQDQ01  00002PRCP99
0166170670999992000051215004+40720+029820FM-12+001899999V0202701N003112200019N0200001N1+02401+01641101441ADDGA1011+012009089GA2041+060009009GF104991011011012501001011MD1710101+9999REMSYN082AAXX  12154 17067 42670 42706 10240 20164 40144 57010 81101 333 81840 84070 92418;
0233170670999992000051306004+40720+029820FM-12+001899999V0203201N001012200019N0100001N1+01901+01191101541ADDAA199000091AY101061AY201061GA1001+999999999GF100991001001999999001001IA1019IA2999+01409KA1120N+01581MD1310021+9999MW1101REMSYN082AAXX  13064 17067 31960 03202 10190 20119 40154 53002 71000 333 20158 30014 92407;EQDQ01  00002PRCP99
0172170670999992000051309004+40720+029820FM-12+001899999V0203101N001512200019N0150001N1+02631+01901101601ADDAY101031AY201031GA1041+012009089GF104991041021012501001001MD1210071+9999MW1051REMSYN082AAXX  13094 17067 41665 43103 10263 20190 40160 52007 70500 84200 333 84840 92407;
0202170670999992000051312004+40720+029820FM-12+001899999V0201301N001512200019N0150001N1+02581+01841101661ADDAA199000091AY101061AY201061GA1041+012009089GF104991041021012501001001MD1210061+9999MW1051REMSYN082AAXX  13124 17067 31665 41303 10258 20184 40166 52006 70500 84200 333 84840 92407;EQDQ01  00002PRCP99
0172170670999992000051315004+40720+029820FM-12+001899999V0200701N002610120019N0150001N1+02021+01441101861ADDAY111031AY211031GA1061+012009089GF106991061021012501001001MD1210201+9999MW1051REMSYN082AAXX  13154 17067 41665 60705 10202 20144 40186 52020 70511 86200 333 86840 92417;
0239170670999992000051406004+40720+029820FM-12+001899999V0201101N001010300019N0200001N1+01481+01171102161ADDAA199000091GA1031+012009089GA2051+030009039GF106991031021012501031001IA1019IA2999+01209KA1120N+01301MD1310101+9999REMSYN094AAXX  14064 17067 32670 61102 10148 20117 40216 53010 83230 333 20130 30012 83840 85360 92408;EQDQ01  00002PRCP99
0166170670999992000051409004+40720+029820FM-12+001899999V0201301N002110300019N0200001N1+01721+01101102201ADDGA1031+012009089GA2051+030009039GF106991031021012501031001MD1210041+9999REMSYN082AAXX  14094 17067 42670 61304 10172 20110 40220 52004 83230 333 83840 85360 92408;
0196170670999992000051412004+40720+029820FM-12+001899999V0200901N002612200019N0200001N1+02121+01351102201ADDAA199000091GA1011+012009089GA2031+030009039GF103991011011012501031001MD1410001+9999REMSYN082AAXX  14124 17067 32670 30905 10212 20135 40220 54000 81130 333 81840 83360 92418;EQDQ01  00002PRCP99
0144170670999992000051415004+40720+029820FM-12+001899999V0200901N002112200019N0200001N1+01941+01011102081ADDGA1021+060009009GF102991001001999999001011MD1710121+9999REMSYN076AAXX  14154 17067 42970 20904 10194 20101 40208 57012 80001 333 82070 92418;
0217170670999992000051506004+40720+029820FM-12+001899999V0201401N001512200019N0200001N1+01521+00951102051ADDAA199000091GA1031+060009009GF103991001001999999001011IA1019IA2999+00709KA1120N+00911MD1410001+9999REMSYN088AAXX  15064 17067 32970 31403 10152 20095 40205 54000 80001 333 20091 30007 83070 92408;EQDQ01  00002PRCP99
0144170670999992000051509004+40720+029820FM-12+001899999V0201201N001512200019N0200001N1+02121+01071102051ADDGA1031+060009009GF103991001001999999001011MD1410001+9999REMSYN076AAXX  15094 17067 42970 31203 10212 20107 40205 54000 80001 333 83070 92408;
0162170670999992000051512004+40720+029820FM-12+001899999V0201201N001512200019N0200001N1+02461+01401102021ADDAA199000091GA1001+999999999GF100991001001999999001001MD1810031+9999REMSYN064AAXX  15124 17067 32970 01203 10246 20140 40202 58003 333 92408;EQDQ01  00002PRCP99
0144170670999992000051515004+40720+029820FM-12+001899999V0200701N001012200019N0200001N1+02281+01161101961ADDGA1031+060009009GF103991001001999999001011MD1610061+9999REMSYN076AAXX  15154 17067 42970 30702 10228 20116 40196 56006 80001 333 83070 92408;
0217170670999992000051606004+40720+029820FM-12+001899999V0201101N001012200019N0200001N1+01621+01281101891ADDAA199000091GA1041+060009009GF104991001001999999001011IA1019IA2999+00809KA1120N+00981MD1610021+9999REMSYN088AAXX  16064 17067 32970 41102 10162 20128 40189 56002 80001 333 20098 30008 84070 92408;EQDQ01  00002PRCP99
0144170670999992000051609004+40720+029820FM-12+001899999V0201301N002112200019N0200001N1+02251+01861101891ADDGA1041+060009009GF104991001001999999001011MD1410001+9999REMSYN076AAXX  16094 17067 42970 41304 10225 20186 40189 54000 80001 333 84070 92418;
0174170670999992000051612004+40720+029820FM-12+001899999V0200901N003112200019N0200001N1+02401+01801101801ADDAA199000091GA1041+060009009GF104991001001999999001011MD1710091+9999REMSYN076AAXX  16124 17067 32970 40906 10240 20180 40180 57009 80001 333 84070 92418;EQDQ01  00002PRCP99
0144170670999992000051615004+40720+029820FM-12+001899999V0200901N003610600019N0200001N1+02101+01651101701ADDGA1051+060009009GF105991001001999999001011MD1710101+9999REMSYN076AAXX  16154 17067 42970 50907 10210 20165 40170 57010 80001 333 85070 92418;
0217170670999992000051706004+40720+029820FM-12+001899999V0201301N001512200019N0200001N1+01681+00891101621ADDAA199000091GA1021+060009009GF102991001001999999001011IA1019IA2999+00909KA1120N+01001MD1110041+9999REMSYN088AAXX  17064 17067 32970 21303 10168 20089 40162 51004 80001 333 20100 30009 82070 92408;EQDQ01  00002PRCP99
0132170670999992000051709004+40720+029820FM-12+001899999V0201101N001512200019N0200001N1+02301+01061101621ADDGA1001+999999999GF100991001001999999001001MD1410001+9999REMSYN064AAXX  17094 17067 42970 01103 10230 20106 40162 54000 333 92408;
0162170670999992000051712004+40720+029820FM-12+001899999V0201301N001512200019N0200001N1+02661+00831101541ADDAA199000091GA1001+999999999GF100991001001999999001001MD1710081+9999REMSYN064AAXX  17124 17067 32970 01303 10266 20083 40154 57008 333 92408;EQDQ01  00002PRCP99
0132170670999992000051715004+40720+029820FM-12+001899999V0201201N001012200019N0200001N1+02441+01211101421ADDGA1001+999999999GF100991001001999999001001MD1710121+9999REMSYN064AAXX  17154 17067 42970 01202 10244 20121 40142 57012 333 92408;
0144170670999992000051809004+40720+029820FM-12+001899999V0202701N003112200019N0200001N1+02001+01171101421ADDGA1011+012009089GF101991011011012501001001MD1410001+9999REMSYN076AAXX  18094 17067 42670 12706 10200 20117 40142 54000 81100 333 81840 92418;
0174170670999992000051812004+40720+029820FM-12+001899999V0202701N004112200019N0200001N1+02161+01441101321ADDAA199000091GA1021+012009089GF102991021011012501001001MD1810101+9999REMSYN076AAXX  18124 17067 32670 22708 10216 20144 40132 58010 82100 333 82840 92428;EQDQ01  00002PRCP99
0144170670999992000051815004+40720+029820FM-12+001899999V0200501N000512200019N0200001N1+02381+01301101271ADDGA1011+012009089GF101991011011012501001001MD1710051+9999REMSYN076AAXX  18154 17067 42670 10501 10238 20130 40127 57005 81100 333 81840 92408;
0245170670999992000051906004+40720+029820FM-12+001899999V0201101N001012200019N0100001N1+01621+01251101301ADDAA199000091AY101061AY201061GA1031+010809089GF103991031021012501001001IA1019IA2999+01109KA1120N+01351MD1410001+9999MW1101REMSYN094AAXX  19064 17067 31660 31102 10162 20125 40130 54000 71000 83200 333 20135 30011 83836 92407;EQDQ01  00002PRCP99
0172170670999992000051909004+40720+029820FM-12+001899999V0203601N001012200019N0100001N1+02101+01391101321ADDAY101031AY201031GA1021+010809089GF102991021011012501001001MD1110021+9999MW1101REMSYN082AAXX  19094 17067 41660 23602 10210 20139 40132 51002 71000 82100 333 82836 92407;
0202170670999992000051912004+40720+029820FM-12+001899999V0202701N001512200019N0100001N1+02161+01241101251ADDAA199000091AY101061AY201061GA1021+010809089GF102991021011012501001001MD1810061+9999MW1051REMSYN082AAXX  19124 17067 31660 22703 10216 20124 40125 58006 70500 82100 333 82836 92407;EQDQ01  00002PRCP99
0144170670999992000051915004+40720+029820FM-12+001899999V0202801N002612200019N0200001N1+02101+01461101151ADDGA1021+010809089GF102991021011012501001001MD1710091+9999REMSYN076AAXX  19154 17067 42670 22805 10210 20146 40115 57009 82100 333 82836 92418;
0205170670999992000052006004+40720+029820FM-12+001899999V0200401N000512200019N0200001N1+01721+01201101121ADDAA199000091GA1001+999999999GF100991001001999999001001IA1019IA2999+00909KA1120N+01051MD1410001+9999REMSYN076AAXX  20064 17067 32970 00401 10172 20120 40112 54000 333 20105 30009 92408;EQDQ01  00002PRCP99
0132170670999992000052009004+40720+029820FM-12+001899999V0203401N001012200019N0200001N1+02421+01301101121ADDGA1001+999999999GF100991001001999999001001MD1410001+9999REMSYN064AAXX  20094 17067 42970 03402 10242 20130 40112 54000 333 92408;
0174170670999992000052012004+40720+029820FM-12+001899999V0202801N002612200019N0200001N1+02641+01321101061ADDAA199000091GA1021+012009089GF102991021011012501001001MD1810061+9999REMSYN076AAXX  20124 17067 32670 22805 10264 20132 40106 58006 82100 333 82840 92418;EQDQ01  00002PRCP99
0132170670999992000052015004+40720+029820FM-12+001899999V0202701N003112200019N0200001N1+02501+01511100991ADDGA1001+999999999GF100991001001999999001001MD1710061+9999REMSYN064AAXX  20154 17067 42970 02706 10250 20151 40099 57006 333 92418;
0205170670999992000052106004+40720+029820FM-12+001899999V0200501N000512200019N0200001N1+02141+01621101121ADDAA199000091GA1001+999999999GF100991001001999999001001IA1019IA2999+01209KA1120N+01321MD1310051+9999REMSYN076AAXX  21064 17067 32970 00501 10214 20162 40112 53005 333 20132 30012 92408;EQDQ01  00002PRCP99
0132170670999992000052109004+40720+029820FM-12+001899999V0202801N002112200019N0200001N1+02761+01601101181ADDGA1001+999999999GF100991001001999999001001MD1210061+9999REMSYN064AAXX  21094 17067 42970 02804 10276 20160 40118 52006 333 92418;
0174170670999992000052112004+40720+029820FM-12+001899999V0202801N003112200019N0200001N1+02961+01301101171ADDAA199000091GA1011+012009089GF101991011011012501001001MD1410001+9999REMSYN076AAXX  21124 17067 32670 12806 10296 20130 40117 54000 81100 333 81840 92418;EQDQ01  00002PRCP99
0132170670999992000052115004+40720+029820FM-12+001899999V0202501N002612200019N0200001N1+02931+01511101151ADDGA1001+999999999GF100991001001999999001001MD1810021+9999REMSYN064AAXX  21154 17067 42970 02505 10293 20151 40115 58002 333 92418;
0205170670999992000052206004+40720+029820FM-12+001899999V0209999C000012200019N0200001N1+02061+01591101511ADDAA199000091GA1001+999999999GF100991001001999999001001IA1019IA2999+01309KA1120N+01461MD1110011+9999REMSYN076AAXX  22064 17067 32970 00000 10206 20159 40151 51001 333 20146 30013 92408;EQDQ01  00002PRCP99
0144170670999992000052209004+40720+029820FM-12+001899999V0202801N001012200019N0200001N1+02501+01671101511ADDGA1021+012009089GF102991021011012501001001MD1410001+9999REMSYN076AAXX  22094 17067 42670 22802 10250 20167 40151 54000 82100 333 82840 92408;
0174170670999992000052212004+40720+029820FM-12+001899999V0203101N004112200019N0200001N1+02621+01871101491ADDAA199000091GA1021+012009089GF102991021011012501001001MD1810021+9999REMSYN076AAXX  22124 17067 32670 23108 10262 20187 40149 58002 82100 333 82840 92428;EQDQ01  00002PRCP99
0144170670999992000052215004+40720+029820FM-12+001899999V0202701N002612200019N0200001N1+02601+01621101411ADDGA1011+012009089GF101991011011012501001001MD1710081+9999REMSYN076AAXX  22154 17067 42670 12705 10260 20162 40141 57008 81100 333 81840 92418;
0233170670999992000052306004+40720+029820FM-12+001899999V0203401N001012200019N0100001N1+02001+01641101421ADDAA199000091AY101061AY201061GA1001+999999999GF100991001001999999001001IA1019IA2999+01209KA1120N+01401MD1410001+9999MW1101REMSYN082AAXX  23064 17067 31960 03402 10200 20164 40142 54000 71000 333 20140 30012 92407;EQDQ01  00002PRCP99
0166170670999992000052309004+40720+029820FM-12+001899999V0202701N003112200019N0200001N1+02301+01601101441ADDGA1021+012009089GA2031+030009039GF104991021021012501031001MD1310021+9999REMSYN082AAXX  23094 17067 42670 42706 10230 20160 40144 53002 82230 333 82840 83360 92418;
0174170670999992000052312004+40720+029820FM-12+001899999V0202801N003112200019N0200001N1+02561+01581101431ADDAA199000091GA1021+012009089GF102991021021012501001001MD1410001+9999REMSYN076AAXX  23124 17067 32670 22806 10256 20158 40143 54000 82200 333 82840 92418;EQDQ01  00002PRCP99
0132170670999992000052315004+40720+029820FM-12+001899999V0203601N003112200019N0200001N1+02701+01851101311ADDGA1001+999999999GF100991001001999999001001MD1710121+9999REMSYN064AAXX  23154 17067 42970 03606 10270 20185 40131 57012 333 92418;
0239170670999992000052406004+40720+029820FM-12+001899999V0201101N001010300019N0200001N1+01701+01181101371ADDAA199000091GA1041+012009089GA2061+030009039GF107991041021012501051001IA1019IA2999+01309KA1120N+01501MD1410001+9999REMSYN094AAXX  24064 17067 32670 71102 10170 20118 40137 54000 84250 333 20150 30013 84840 86360 92408;EQDQ01  00002PRCP99
0172170670999992000052409004+40720+029820FM-12+001899999V0202701N001010090019N0060001N1+01461+01321101431ADDAY121031AY221031GA1071+009009089GF107991071021008001001001MD1210061+9999MW1811REMSYN082AAXX  24094 17067 11556 72702 10146 20132 40143 52006 78122 87200 333 87830 92406;
0189170670999992000052412004+40720+029820FM-12+001899999V0202701N002610090019N0080001N1+01461+01321101441ADDAA106011991AY121061AY221061GA1071+009009089GF107991071021008001001001MD1110011+9999MW1801REMSYN088AAXX  24124 17067 11558 72705 10146 20132 40144 51001 60121 78022 87200 333 87830 92417;
0172170670999992000052415004+40720+029820FM-12+001899999V0202601N003610090019N0080001N1+01501+01341101441ADDAY181031AY281031GA1071+009009089GF107991071021008001001001MD1410001+9999MW1801REMSYN082AAXX  24154 17067 41558 72607 10150 20134 40144 54000 78088 87200 333 87830 92426;
0238170670999992000052506004+40720+029820FM-12+001899999V0202401N005110090019N0100001N1+01441+01201101391ADDAA112020191AY181061AY281061GA1071+009009089GF107991071021008001001001IA1119IA2999+01209KA1120N+01251MD1410001+9999MW1801REMSYN106AAXX  25064 17067 11560 72410 10144 20120 40139 54000 60202 78088 87200 333 20125 32012 70336 87830 92427;
0172170670999992000052509004+40720+029820FM-12+001899999V0202701N003610108019N0200001N1+01621+01331101391ADDAY181031AY221031GA1071+010809089GF107991071021012501001001MD1410001+9999MW1021REMSYN082AAXX  25094 17067 41670 72707 10162 20133 40139 54000 70282 87200 333 87836 92428;
0189170670999992000052512004+40720+029820FM-12+001899999V0202601N003610090019N0100001N1+01721+01431101411ADDAA106000791AY181061AY221061GA1071+009009089GF107991071021008001001001MD1310021+9999MW1801REMSYN088AAXX  25124 17067 11560 72607 10172 20143 40141 53002 69901 78082 87200 333 87830 92427;
0172170670999992000052515004+40720+029820FM-12+001899999V0202701N004110090019N0100001N1+01461+00871101411ADDAY181031AY281031GA1071+009009089GF107991071021008001001001MD1410001+9999MW1801REMSYN082AAXX  25154 17067 41560 72708 10146 20087 40141 54000 78088 87200 333 87830 92427;
0238170670999992000052606004+40720+029820FM-12+001899999V0202701N003110090019N0100001N1+01741+01601101481ADDAA112004191AY181061AY221061GA1071+009009089GF107991071021008001001001IA1119IA2999+01409KA1120N+01421MD1310021+9999MW1801REMSYN106AAXX  26064 17067 11560 72706 10174 20160 40148 53002 60042 78082 87200 333 20142 32014 70040 87830 92427;
0172170670999992000052609004+40720+029820FM-12+001899999V0202801N004110120019N0200001N1+02061+01791101511ADDAY181031AY221031GA1051+012009089GF105991051021012501001001MD1210031+9999MW1011REMSYN082AAXX  26094 17067 41670 52808 10206 20179 40151 52003 70182 85200 333 85840 92428;
0189170670999992000052612004+40720+029820FM-12+001899999V0202701N004610120019N0200001N1+02221+01741101581ADDAA106000791AY181061AY221061GA1051+012009089GF105991051021012501001001MD1210071+9999MW1021REMSYN088AAXX  26124 17067 11670 52709 10222 20174 40158 52007 69901 70282 85200 333 85840 92428;
0144170670999992000052615004+40720+029820FM-12+001899999V0202701N003610105019N0200001N1+02161+01691101601ADDGA1061+010509089GF106991061021012501001001MD1310021+9999REMSYN076AAXX  26154 17067 42670 62707 10216 20169 40160 53002 86200 333 86835 92428;
0245170670999992000052706004+40720+029820FM-12+001899999V0209999C000012200019N0060001N1+01901+01491101871ADDAA199000091AY101061AY201061GA1011+012009089GF101991011011012501001001IA1099IA2999+01209KA1120N+01351MD1410001+9999MW1101REMSYN094AAXX  27064 17067 31656 10000 10190 20149 40187 54000 71000 81100 333 20135 31012 81840 92406;EQDQ01  00002PRCP99
0172170670999992000052709004+40720+029820FM-12+001899999V0202901N002112200019N0060001N1+02201+01461101901ADDAY101031AY201031GA1011+012009089GF101991011011012501001001MD1110031+9999MW1051REMSYN082AAXX  27094 17067 41656 12904 10220 20146 40190 51003 70500 81100 333 81840 92416;
0202170670999992000052712004+40720+029820FM-12+001899999V0202901N002612200019N0060001N1+02501+01821101761ADDAA199000091AY101061AY201061GA1021+012009089GF102991021011012501001001MD1810131+9999MW1051REMSYN082AAXX  27124 17067 31656 22905 10250 20182 40176 58013 70500 82100 333 82840 92416;EQDQ01  00002PRCP99
0144170670999992000052715004+40720+029820FM-12+001899999V0202901N001512200019N0200001N1+02541+01801101731ADDGA1011+012009089GF101991011011012501001001MD1710031+9999REMSYN076AAXX  27154 17067 42670 12903 10254 20180 40173 57003 81100 333 81840 92408;
0245170670999992000052806004+40720+029820FM-12+001899999V0201201N002112200019N0100001N1+01941+01571101731ADDAA199000091AY101061AY201061GA1011+012009089GF101991011011012501001001IA1019IA2999+01209KA1120N+01371MD1310021+9999MW1101REMSYN094AAXX  28064 17067 31660 11204 10194 20157 40173 53002 71000 81100 333 20137 30012 81840 92407;EQDQ01  00002PRCP99
0144170670999992000052809004+40720+029820FM-12+001899999V0201301N001012200019N0200001N1+02501+01801101731ADDGA1011+012009089GF101991011011012501001001MD1410001+9999REMSYN076AAXX  28094 17067 42670 11302 10250 20180 40173 54000 81100 333 81840 92408;
0174170670999992000052812004+40720+029820FM-12+001899999V0201101N001512200019N0200001N1+02701+01951101591ADDAA199000091GA1011+012009089GF101991011011012501001001MD1710141+9999REMSYN076AAXX  28124 17067 32670 11103 10270 20195 40159 57014 81100 333 81840 92408;EQDQ01  00002PRCP99
0144170670999992000052815004+40720+029820FM-12+001899999V0200701N001512200019N0200001N1+02581+01941101481ADDGA1011+012009089GF101991011011012501001001MD1710111+9999REMSYN076AAXX  28154 17067 42670 10703 10258 20194 40148 57011 81100 333 81840 92408;
0245170670999992000052906004+40720+029820FM-12+001899999V0202901N001510120019N0100001N1+01861+01711101331ADDAA199000091AY121061AY221061GA1061+012009089GF106991061021012501001001IA1019IA2999+01409KA1120N+01531MD1610031+9999MW1101REMSYN094AAXX  29064 17067 31660 62903 10186 20171 40133 56003 71022 86200 333 20153 30014 86840 92407;EQDQ01  00002PRCP99
0194170670999992000052909004+40720+029820FM-12+001899999V0203101N003110300019N0100001N1+02041+01741101351ADDAY121031AY221031GA1021+012009089GA2041+030009039GF105991021021012501031001MD1110021+9999MW1101REMSYN088AAXX  29094 17067 41660 53106 10204 20174 40135 51002 71022 82230 333 82840 84360 92417;
0224170670999992000052912004+40720+029820FM-12+001899999V0202901N003112200019N0100001N1+02401+01811101231ADDAA199000091AY121061AY221061GA1021+012009089GA2031+030009039GF104991021021012501031001MD1710121+9999MW1051REMSYN088AAXX  29124 17067 31660 42906 10240 20181 40123 57012 70522 82230 333 82840 83360 92427;EQDQ01  00002PRCP99
0213170670999992000052915004+40720+029820FM-12+001899999V0202701N003110300019N0100001N1+02201+01821102162ADDAY111031AY211031GA1021+012009089GA2051+030009039GF106991021021012501031001MD1710081+9999MW1101REMSYN088AAXX  29154 17067 41660 62706 10220 20182 40216 57008 71011 82230 333 82840 85360 92427;EQDQ01+102163APOSLP
0245170670999992000053006004+40720+029820FM-12+001899999V0202901N002612200019N0100001N1+02021+01681101181ADDAA199000091AY101061AY201061GA1041+012009089GF104991041021012501001001IA1019IA2999+01709KA1120N+01801MD1210051+9999MW1101REMSYN094AAXX  30064 17067 31660 42905 10202 20168 40118 52005 71000 84200 333 20180 30017 84840 92417;EQDQ01  00002PRCP99
0144170670999992000053009004+40720+029820FM-12+001899999V0202701N002612200019N0200001N1+02471+01841101221ADDGA1031+012009089GF103991031021012501001001MD1210041+9999REMSYN076AAXX  30094 17067 42670 32705 10247 20184 40122 52004 83200 333 83840 92418;
0174170670999992000053012004+40720+029820FM-12+001899999V0202701N003612200019N0200001N1+02501+01751101211ADDAA199000091GA1031+012009089GF103991031021012501001001MD1610011+9999REMSYN076AAXX  30124 17067 32670 32707 10250 20175 40121 56001 83200 333 83840 92428;EQDQ01  00002PRCP99
0194170670999992000053015004+40720+029820FM-12+001899999V0202801N004610099019N0200001N1+02371+01821101151ADDAY191031AY211031GA1011+009009099GA2051+009909089GF106991061031008001001001MD1610041+9999MW1031REMSYN088AAXX  30154 17067 41570 62809 10237 20182 40115 56004 70391 86300 333 81930 85833 92428;
0217170670999992000053106004+40720+029820FM-12+001899999V0202801N001510108019N0200001N1+02001+01721101511ADDAA199000091GA1061+010809089GF106991061021012501001001IA1019IA2999+01509KA1120N+01721MD1210091+9999REMSYN088AAXX  31064 17067 32670 62803 10200 20172 40151 52009 86200 333 20172 30015 86836 92418;EQDQ01  00002PRCP99
0172170670999992000053109004+40720+029820FM-12+001899999V0202801N003110108019N0100001N1+02421+01801101571ADDAY121031AY221031GA1061+010809089GF106991061021012501001001MD1210061+9999MW1051REMSYN082AAXX  31094 17067 41660 62806 10242 20180 40157 52006 70522 86200 333 86836 92417;
0202170670999992000053112004+40720+029820FM-12+001899999V0202701N004112200019N0100001N1+02521+01791101571ADDAA199000091AY111061AY211061GA1041+010809089GF104991041021012501001001MD1410001+9999MW1051REMSYN082AAXX  31124 17067 31660 42708 10252 20179 40157 54000 70511 84200 333 84836 92417;EQDQ01  00002PRCP99
0172170670999992000053115004+40720+029820FM-12+001899999V0202501N001510108019N0100001N1+02521+01791101541ADDAY111031AY211031GA1061+010809089GF106991061021012501001001MD1810031+9999MW1051REMSYN082AAXX  31154 17067 41660 62503 10252 20179 40154 58003 70511 86200 333 86836 92407;
0245170670999992000060106004+40720+029820FM-12+001899999V0201301N002110001519N0100001N1+01841+01701101511ADDAA199000091AY121061AY221061GA1061+000159029GF106991061021012501001001IA1019IA2999+01409KA1120N+01581MD1410001+9999MW1101REMSYN094AAXX  01064 17067 31660 61304 10184 20170 40151 54000 71022 86200 333 20158 30014 86200 92417;EQDQ01  00002PRCP99
0144170670999992000060109004+40720+029820FM-12+001899999V0201301N001512200019N0200001N1+02461+01771101451ADDGA1021+012009089GF102991021021012501001001MD1710061+9999REMSYN076AAXX  01094 17067 42670 21303 10246 20177 40145 57006 82200 333 82840 92408;
0196170670999992000060112004+40720+029820FM-12+001899999V0201301N001510300019N0200001N1+01821+01781101331ADDAA199000091GA1021+012009089GA2051+030009039GF106991021021012501031001MD1710121+9999REMSYN082AAXX  01124 17067 32670 61303 10182 20178 40133 57012 82230 333 82840 85360 92408;EQDQ01  00002PRCP99
0194170670999992000060115004+40720+029820FM-12+001899999V0200701N001510108019N0100001N1+02121+01821101461ADDAY121031AY221031GA1011+009009099GA2061+010809089GF107991071091008001001001MD1310121+9999MW1951REMSYN088AAXX  01154 17067 41560 70703 10212 20182 40146 53012 79522 87900 333 81930 86836 92407;
0238170670999992000060206004+40720+029820FM-12+001899999V0201401N000510105019N0200001N1+01681+01521101741ADDAA112008991AY181061AY221061GA1071+010509089GF107991071021012501001001IA1119IA2999+01409KA1120N+01421MD1210061+9999MW1021REMSYN106AAXX  02064 17067 11670 71401 10168 20152 40174 52006 60092 70282 87200 333 20142 32014 70090 87835 92408;
0172170670999992000060209004+40720+029820FM-12+001899999V0203401N001510090019N0060001N1+01841+01621101741ADDAY121031AY221031GA1071+009009089GF107991071021008001001001MD1410001+9999MW1801REMSYN082AAXX  02094 17067 41556 73403 10184 20162 40174 54000 78022 87200 333 87830 92406;
0189170670999992000060212004+40720+029820FM-12+001899999V0202401N001010090019N0100001N1+01731+01601101821ADDAA106006191AY121061AY221061GA1071+009009089GF107991071021008001001001MD1110081+9999MW1801REMSYN088AAXX  02124 17067 11560 72402 10173 20160 40182 51008 60061 78022 87200 333 87830 92407;
0172170670999992000060215004+40720+029820FM-12+001899999V0201601N002610090019N0100001N1+01641+01541101821ADDAY181031AY281031GA1071+009009089GF107991071021008001001001MD1410001+9999MW1801REMSYN082AAXX  02154 17067 41560 71605 10164 20154 40182 54000 78088 87200 333 87830 92417;
0238170670999992000060306004+40720+029820FM-12+001899999V0202701N001510108019N0200001N1+01821+01501101701ADDAA112001091AY181061AY221061GA1061+010809089GF106991061021012501001001IA1119IA2999+01309KA1120N+01401MD1610041+9999MW1021REMSYN106AAXX  03064 17067 11670 62703 10182 20150 40170 56004 60012 70282 86200 333 20140 32013 70080 86836 92408;
0172170670999992000060309004+40720+029820FM-12+001899999V0203601N001510108019N0200001N1+01861+01481101691ADDAY181031AY221031GA1061+010809089GF106991061021012501001001MD1810011+9999MW1251REMSYN082AAXX  03094 17067 41670 63603 10186 20148 40169 58001 72582 86200 333 86836 92408;
0189170670999992000060312004+40720+029820FM-12+001899999V0202801N002110108019N0200001N1+01861+01481101691ADDAA106000591AY181061AY221061GA1061+010809089GF106991061021012501001001MD1410001+9999MW1021REMSYN088AAXX  03124 17067 11670 62804 10186 20148 40169 54000 69941 70282 86200 333 86836 92408;
0172170670999992000060315004+40720+029820FM-12+001899999V0203301N003610090019N0100001N1+01741+01521101711ADDAY121031AY221031GA1071+009009089GF107991071021008001001001MD1310021+9999MW1801REMSYN082AAXX  03154 17067 41560 73307 10174 20152 40171 53002 78022 87200 333 87830 92417;
0260170670999992000060406004+40720+029820FM-12+001899999V0202701N004610300019N0200001N1+01801+01491101641ADDAA112000591AY181061AY221061GA1031+012009089GA2051+030009039GF106991031021012501031001IA1119IA2999+01409KA1120N+01541MD1610081+9999MW1021REMSYN112AAXX  04064 17067 11670 62709 10180 20149 40164 56008 69952 70282 83230 333 20154 32014 70029 83840 85360 92428;
0166170670999992000060409004+40720+029820FM-12+001899999V0202801N003610300019N0200001N1+02021+01631101721ADDGA1041+012009089GA2051+030009039GF106991041021012501031001MD1210081+9999REMSYN082AAXX  04094 17067 42670 62807 10202 20163 40172 52008 84230 333 84840 85360 92428;
0196170670999992000060412004+40720+029820FM-12+001899999V0202701N002610300019N0200001N1+02101+01681101761ADDAA199000091GA1041+012009089GA2061+030009039GF107991041021012501031001MD1110041+9999REMSYN082AAXX  04124 17067 32670 72705 10210 20168 40176 51004 84230 333 84840 86360 92418;EQDQ01  00002PRCP99
0166170670999992000060415004+40720+029820FM-12+001899999V0202701N003110300019N0200001N1+02161+01711101821ADDGA1041+012009089GA2061+030009039GF107991041021012501031001MD1110061+9999REMSYN082AAXX  04154 17067 42670 72706 10216 20171 40182 51006 84230 333 84840 86360 92428;
0267170670999992000060506004+40720+029820FM-12+001899999V0200101N001012200019N0100001N1+01841+01461101901ADDAA199000091AY101061AY201061GA1011+012009089GA2031+030009039GF103991011011012501031001IA1099IA2999+01209KA1120N+01361MD1110021+9999MW1101REMSYN100AAXX  05064 17067 31660 30102 10184 20146 40190 51002 71000 81130 333 20136 31012 81840 83360 92407;EQDQ01  00002PRCP99
0144170670999992000060509004+40720+029820FM-12+001899999V0202701N002612200019N0200001N1+02141+01511101851ADDGA1021+030009039GF102991021001999999031001MD1710051+9999REMSYN076AAXX  05094 17067 42970 22705 10214 20151 40185 57005 82030 333 82360 92418;
0162170670999992000060512004+40720+029820FM-12+001899999V0202901N003612200019N0200001N1+02441+01661101791ADDAA199000091GA1001+999999999GF100991001001999999001001MD1710061+9999REMSYN064AAXX  05124 17067 32970 02907 10244 20166 40179 57006 333 92418;EQDQ01  00002PRCP99
0132170670999992000060515004+40720+029820FM-12+001899999V0202701N003612200019N0200001N1+02441+01661101711ADDGA1001+999999999GF100991001001999999001001MD1710081+9999REMSYN064AAXX  05154 17067 42970 02707 10244 20166 40171 57008 333 92408;
0205170670999992000060606004+40720+029820FM-12+001899999V0201401N001012200019N0200001N1+02081+01651101441ADDAA199000091GA1001+999999999GF100991001001999999001001IA1019IA2999+01309KA1120N+01461MD1710051+9999REMSYN076AAXX  06064 17067 32970 01402 10208 20165 40144 57005 333 20146 30013 92408;EQDQ01  00002PRCP99
0132170670999992000060609004+40720+029820FM-12+001899999V0203101N002112200019N0200001N1+02581+01821101401ADDGA1001+999999999GF100991001001999999001001MD1810041+9999REMSYN064AAXX  06094 17067 42970 03104 10258 20182 40140 58004 333 92408;
0162170670999992000060612004+40720+029820FM-12+001899999V0202701N003612200019N0200001N1+02681+01991101251ADDAA199000091GA1001+999999999GF100991001001999999001001MD1710151+9999REMSYN064AAXX  06124 17067 32970 02707 10268 20199 40125 57015 333 92418;EQDQ01  00002PRCP99
0132170670999992000060615004+40720+029820FM-12+001899999V0202701N002612200019N0200001N1+02721+02031101131ADDGA1001+999999999GF100991001001999999001001MD1710121+9999REMSYN064AAXX  06154 17067 42970 02705 10272 20203 40113 57012 333 92418;
0267170670999992000060706004+40720+029820FM-12+001899999V0202701N001510300019N0100001N1+01941+01801101121ADDAA199000091AY121061AY221061GA1041+012009089GA2061+030009039GF107991041021012501031001IA1019IA2999+01609KA1120N+01701MD1210101+9999MW1101REMSYN100AAXX  07064 17067 31660 72703 10194 20180 40112 52010 71022 84230 333 20170 30016 84840 86360 92407;EQDQ01  00002PRCP99
0194170670999992000060709004+40720+029820FM-12+001899999V0202701N003110300019N0100001N1+02261+01851101171ADDAY121031AY221031GA1031+012009089GA2051+030009039GF106991031021012501031001MD1210061+9999MW1101REMSYN088AAXX  07094 17067 41660 62706 10226 20185 40117 52006 71022 83230 333 83840 85360 92417;
0224170670999992000060712004+40720+029820FM-12+001899999V0202801N003110300019N0100001N1+02561+01991101171ADDAA199000091AY121061AY221061GA1021+012009089GA2041+030009039GF105991021021012501031001MD1410001+9999MW1101REMSYN088AAXX  07124 17067 31660 52806 10256 20199 40117 54000 71022 82230 333 82840 84360 92427;EQDQ01  00002PRCP99
0172170670999992000060715004+40720+029820FM-12+001899999V0202801N002612200019N0100001N1+02621+02031101171ADDAY111031AY211031GA1021+012009089GF102991021021012501001001MD1410001+9999MW1101REMSYN082AAXX  07154 17067 41660 22805 10262 20203 40117 54000 71011 82200 333 82840 92417;
0233170670999992000060806004+40720+029820FM-12+001899999V0202901N002112200019N0100001N1+02101+01781101511ADDAA199000091AY101061AY201061GA1001+999999999GF100991001001999999001001IA1019IA2999+01509KA1120N+01611MD1210101+9999MW1101REMSYN082AAXX  08064 17067 31960 02904 10210 20178 40151 52010 71000 333 20161 30015 92407;EQDQ01  00002PRCP99
0172170670999992000060809004+40720+029820FM-12+001899999V0202701N002112200019N0100001N1+02501+01981101621ADDAY101031AY201031GA1011+012009089GF101991011011012501001001MD1210111+9999MW1101REMSYN082AAXX  08094 17067 41660 12704 10250 20198 40162 52011 71000 81100 333 81840 92407;
0202170670999992000060812004+40720+029820FM-12+001899999V0202701N004112200019N0100001N1+02621+01881101621ADDAA199000091AY101061AY201061GA1031+012009089GF103991031021012501001001MD1410001+9999MW1051REMSYN082AAXX  08124 17067 31660 32708 10262 20188 40162 54000 70500 83200 333 83840 92427;EQDQ01  00002PRCP99
0172170670999992000060815004+40720+029820FM-12+001899999V0203101N003112200019N0100001N1+02641+01841101641ADDAY101031AY201031GA1031+012009089GF103991031021012501001001MD1110021+9999MW1051REMSYN082AAXX  08154 17067 41660 33106 10264 20184 40164 51002 70500 83200 333 83840 92417;
0245170670999992000060906004+40720+029820FM-12+001899999V0201201N001510108019N0100001N1+02081+01751102111ADDAA199000091AY121061AY221061GA1051+010809089GF105991051021012501001001IA1019IA2999+01709KA1120N+01871MD1210081+9999MW1101REMSYN094AAXX  09064 17067 31660 51203 10208 20175 40211 52008 71022 85200 333 20187 30017 85836 92407;EQDQ01  00002PRCP99
0144170670999992000060909004+40720+029820FM-12+001899999V0201301N001512200019N0200001N1+02681+02001102111ADDGA1031+010809089GF103991031021012501001001MD1410001+9999REMSYN076AAXX  09094 17067 42670 31303 10268 20200 40211 54000 83200 333 83836 92408;
0196170670999992000060912004+40720+029820FM-12+001899999V0201101N001512200019N0200001N1+02901+02221102091ADDAA199000091GA1011+012009089GA2031+060009009GF103991011011012501001011MD1810021+9999REMSYN082AAXX  09124 17067 32670 31103 10290 20222 40209 58002 81101 333 81840 83070 92408;EQDQ01  00002PRCP99
0144170670999992000060915004+40720+029820FM-12+001899999V0200801N001512200019N0200001N1+02721+02351102031ADDGA1021+060009009GF102991001001999999001011MD1710061+9999REMSYN076AAXX  09154 17067 42970 20803 10272 20235 40203 57006 80001 333 82070 92408;
0205170670999992000061006004+40720+029820FM-12+001899999V0201701N001512200019N0200001N1+02181+01601101981ADDAA199000091GA1001+999999999GF100991001001999999001001IA1019IA2999+01509KA1120N+01701MD1410001+9999REMSYN076AAXX  10064 17067 32970 01703 10218 20160 40198 54000 333 20170 30015 92408;EQDQ01  00002PRCP99
0132170670999992000061009004+40720+029820FM-12+001899999V0201201N001512200019N0200001N1+02641+01451101991ADDGA1001+999999999GF100991001001999999001001MD1110011+9999REMSYN064AAXX  10094 17067 42970 01203 10264 20145 40199 51001 333 92408;
0162170670999992000061012004+40720+029820FM-12+001899999V0200201N001512200019N0200001N1+02721+01361101991ADDAA199000091GA1001+999999999GF100991001001999999001001MD1410001+9999REMSYN064AAXX  10124 17067 32970 00203 10272 20136 40199 54000 333 92408;EQDQ01  00002PRCP99
0132170670999992000061015004+40720+029820FM-12+001899999V0200501N001512200019N0200001N1+02501+01391101931ADDGA1001+999999999GF100991001001999999001001MD1810061+9999REMSYN064AAXX  10154 17067 42970 00503 10250 20139 40193 58006 333 92408;
0217170670999992000061106004+40720+029820FM-12+001899999V0200101N001012200019N0200001N1+02081+01751101911ADDAA199000091GA1021+012009089GF102991021011012501001001IA1019IA2999+01509KA1120N+01631MD1410001+9999REMSYN088AAXX  11064 17067 32670 20102 10208 20175 40191 54000 82100 333 20163 30015 82840 92408;EQDQ01  00002PRCP99
0144170670999992000061109004+40720+029820FM-12+001899999V0200401N001012200019N0200001N1+02501+01581101911ADDGA1021+012009089GF102991021011012501001001MD1410001+9999REMSYN076AAXX  11094 17067 42670 20402 10250 20158 40191 54000 82100 333 82840 92408;
0174170670999992000061112004+40720+029820FM-12+001899999V0200101N003112200019N0200001N1+02801+01581101911ADDAA199000091GA1011+012009089GF101991011011012501001001MD1410001+9999REMSYN076AAXX  11124 17067 32670 10106 10280 20158 40191 54000 81100 333 81840 92418;EQDQ01  00002PRCP99
0144170670999992000061115004+40720+029820FM-12+001899999V0200401N001512200019N0200001N1+02501+01391101911ADDGA1011+012009089GF101991011011012501001001MD1410001+9999REMSYN076AAXX  11154 17067 42670 10403 10250 20139 40191 54000 81100 333 81840 92408;
0217170670999992000061206004+40720+029820FM-12+001899999V0202901N001012200019N0200001N1+02001+01631102041ADDAA199000091GA1021+012009089GF102991021011012501001001IA1019IA2999+01309KA1120N+01481MD1210101+9999REMSYN088AAXX  12064 17067 32670 22902 10200 20163 40204 52010 82100 333 20148 30013 82840 92408;EQDQ01  00002PRCP99
0144170670999992000061209004+40720+029820FM-12+001899999V0203301N001012200019N0200001N1+02541+01741102301ADDGA1011+012009089GF101991011011012501001001MD1210051+9999REMSYN076AAXX  12094 17067 42670 13302 10254 20174 40230 52005 81100 333 81840 92408;
0174170670999992000061212004+40720+029820FM-12+001899999V0203401N001012200019N0200001N1+02831+02101102301ADDAA199000091GA1021+012009089GF102991021011012501001001MD1410001+9999REMSYN076AAXX  12124 17067 32670 23402 10283 20210 40230 54000 82100 333 82840 92408;EQDQ01  00002PRCP99
0132170670999992000061215004+40720+029820FM-12+001899999V0203601N001512200019N0200001N1+02901+02041102311ADDGA1001+999999999GF100991001001999999001001MD1110011+9999REMSYN064AAXX  12154 17067 42970 03603 10290 20204 40231 51001 333 92408;
0217170670999992000061306004+40720+029820FM-12+001899999V0200501N001012200019N0200001N1+01981+01441102441ADDAA199000091GA1011+012009089GF101991011011012501001001IA1019IA2999+01209KA1120N+01401MD1410001+9999REMSYN088AAXX  13064 17067 32670 10502 10198 20144 40244 54000 81100 333 20140 30012 81840 92408;EQDQ01  00002PRCP99
0132170670999992000061309004+40720+029820FM-12+001899999V0201101N001012200019N0200001N1+02521+01641102441ADDGA1001+999999999GF100991001001999999001001MD1410001+9999REMSYN064AAXX  13094 17067 42970 01102 10252 20164 40244 54000 333 92408;
0162170670999992000061312004+40720+029820FM-12+001899999V0201101N001512200019N0200001N1+02821+01741102411ADDAA199000091GA1001+999999999GF100991001001999999001001MD1610031+9999REMSYN064AAXX  13124 17067 32970 01103 10282 20174 40241 56003 333 92408;EQDQ01  00002PRCP99
0132170670999992000061315004+40720+029820FM-12+001899999V0200901N001512200019N9999999N1+02621+01441102351ADDGA1001+999999999GF100991001001999999001001MD1710061+9999REMSYN064AAXX  13154 17067 4297/ 00903 10262 20144 40235 57006 333 92408;
0205170670999992000061406004+40710+029810FM-12+001899999V0201301N001012200019N0200001N1+01901+01571102271ADDAA199000091GA1001+999999999GF100991001001999999001001IA1019IA2999+01409KA1120N+01411MD1110041+9999REMSYN076AAXX  14064 17067 32970 01302 10190 20157 40227 51004 333 20141 30014 92408;EQDQ01  00002PRCP99
0132170670999992000061409004+40710+029810FM-12+001899999V0201101N001512200019N0200001N1+02701+01821102211ADDGA1001+999999999GF100991001001999999001001MD1710061+9999REMSYN064AAXX  14094 17067 42970 01103 10270 20182 40221 57006 333 92408;
0162170670999992000061412004+40710+029810FM-12+001899999V0201301N001012200019N0200001N1+03121+02121102131ADDAA199000091GA1001+999999999GF100991001001999999001001MD1710081+9999REMSYN064AAXX  14124 17067 32970 01302 10312 20212 40213 57008 333 92408;EQDQ01  00002PRCP99
0132170670999992000061415004+40710+029810FM-12+001899999V0201201N001012200019N0200001N1+03001+01951102031ADDGA1001+999999999GF100991001001999999001001MD1710101+9999REMSYN064AAXX  14154 17067 42970 01202 10300 20195 40203 57010 333 92408;
0205170670999992000061506004+40710+029810FM-12+001899999V0201401N001012200019N0200001N1+02051+01531101891ADDAA199000091GA1001+999999999GF100991001001999999001001IA1019IA2999+01309KA1120N+01461MD1410001+9999REMSYN076AAXX  15064 17067 32970 01402 10205 20153 40189 54000 333 20146 30013 92408;EQDQ01  00002PRCP99
0132170670999992000061509004+40710+029810FM-12+001899999V0201101N001012200019N0200001N1+02801+01591101811ADDGA1001+999999999GF100991001001999999001001MD1710081+9999REMSYN064AAXX  15094 17067 42970 01102 10280 20159 40181 57008 333 92408;
0162170670999992000061512004+40710+029810FM-12+001899999V0200901N001012200019N0200001N1+03141+01941101691ADDAA199000091GA1001+999999999GF100991001001999999001001MD1710121+9999REMSYN064AAXX  15124 17067 32970 00902 10314 20194 40169 57012 333 92408;EQDQ01  00002PRCP99
0132170670999992000061515004+40710+029810FM-12+001899999V0201201N001512200019N0200001N1+02901+01711101541ADDGA1001+999999999GF100991001001999999001001MD1710151+9999REMSYN064AAXX  15154 17067 42970 01203 10290 20171 40154 57015 333 92408;
0205170670999992000061606004+40710+029810FM-12+001899999V0200901N000512200019N0200001N1+02101+01611101351ADDAA199000091GA1001+999999999GF100991001001999999001001IA1019IA2999+01409KA1120N+01501MD1710061+9999REMSYN076AAXX  16064 17067 32970 00901 10210 20161 40135 57006 333 20150 30014 92408;EQDQ01  00002PRCP99
0132170670999992000061609004+40710+029810FM-12+001899999V0202701N002612200019N0200001N1+02641+01481101311ADDGA1001+999999999GF100991001001999999001001MD1610041+9999REMSYN064AAXX  16094 17067 42970 02705 10264 20148 40131 56004 333 92418;
0162170670999992000061612004+40710+029810FM-12+001899999V0201901N001512200019N0200001N1+03061+01981101211ADDAA199000091GA1001+999999999GF100991001001999999001001MD1710101+9999REMSYN064AAXX  16124 17067 32970 01903 10306 20198 40121 57010 333 92408;EQDQ01  00002PRCP99
0144170670999992000061615004+40710+029810FM-12+001899999V0200801N001012200019N0200001N1+03201+02251100941ADDGA1021+060009009GF102991001001999999001011MD1710171+9999REMSYN076AAXX  16154 17067 42970 20802 10320 20225 40094 57017 80001 333 82070 92408;
0217170670999992000061706004+40710+029810FM-12+001899999V0201301N001010120019N0200001N1+02301+01961101351ADDAA199000091GA1071+012009089GF107991071021012501001001IA1019IA2999+01609KA1120N+01681MD1110051+9999REMSYN088AAXX  17064 17067 32670 71302 10230 20196 40135 51005 87200 333 20168 30016 87840 92408;EQDQ01  00002PRCP99
0144170670999992000061709004+40710+029810FM-12+001899999V0200301N001010120019N0200001N1+02621+02021101351ADDGA1071+012009089GF107991071021012501001001MD1410001+9999REMSYN076AAXX  17094 17067 42670 70302 10262 20202 40135 54000 87200 333 87840 92408;
0189170670999992000061712004+40710+029810FM-12+001899999V0203501N005710090019N0100001N1+02181+01881101471ADDAA106000191AY121061AY221061GA1071+009009089GF107991071021008001001001MD1210121+9999MW1801REMSYN088AAXX  17124 17067 11560 73511 10218 20188 40147 52012 69921 78022 87200 333 87830 92427;
0172170670999992000061715004+40710+029810FM-12+001899999V0201301N001510090019N0080001N1+01941+01721101521ADDAY181031AY281031GA1071+009009089GF107991071021008001001001MD1210041+9999MW1801REMSYN082AAXX  17154 17067 41558 71303 10194 20172 40152 52004 78088 87200 333 87830 92406;
0238170670999992000061806004+40710+029810FM-12+001899999V0201801N001010090019N0100001N1+01441+01301102001ADDAA112015091AY181061AY281061GA1071+009009089GF107991071021008001001001IA1119IA2999+01309KA1120N+01281MD1210101+9999MW1801REMSYN106AAXX  18064 17067 11560 71802 10144 20130 40200 52010 60152 78088 87200 333 20128 32013 70151 87830 92407;
0172170670999992000061809004+40710+029810FM-12+001899999V0202801N002610090019N0100001N1+01511+01331102081ADDAY181031AY281031GA1071+009009089GF107991071021008001001001MD1210081+9999MW1801REMSYN082AAXX  18094 17067 41560 72805 10151 20133 40208 52008 78088 87200 333 87830 92417;
0189170670999992000061812004+40710+029810FM-12+001899999V0201601N001510090019N0100001N1+01681+01401102181ADDAA106000891AY181061AY281061GA1071+009009089GF107991071021008001001001MD1210101+9999MW1801REMSYN088AAXX  18124 17067 11560 71603 10168 20140 40218 52010 69981 78088 87200 333 87830 92407;
0172170670999992000061815004+40710+029810FM-12+001899999V0200301N005110108019N0200001N1+02001+01541102201ADDAY181031AY221031GA1061+010809089GF106991061021012501001001MD1210021+9999MW1021REMSYN082AAXX  18154 17067 41670 60310 10200 20154 40220 52002 70282 86200 333 86836 92428;
0260170670999992000061906004+40710+029810FM-12+001899999V0201701N001510300019N0100001N1+01321+01271102161ADDAA112000891AY181061AY221061GA1041+009009089GA2061+030009039GF107991041021008001031001IA1119IA2999+00809KA1120N+00951MD1410001+9999MW1801REMSYN112AAXX  19064 17067 11560 71703 10132 20127 40216 54000 69972 78082 84230 333 20095 32008 70015 84830 86360 92407;
0172170670999992000061909004+40710+029810FM-12+001899999V0203401N003110108019N0200001N1+01761+01071102221ADDAY181031AY221031GA1051+010809089GF105991051021012501001001MD1110061+9999MW1011REMSYN082AAXX  19094 17067 41670 53406 10176 20107 40222 51006 70182 85200 333 85836 92428;
0189170670999992000061912004+40710+029810FM-12+001899999V0203601N006210108019N0200001N1+01941+01051102221ADDAA106000791AY181061AY221061GA1051+010809089GF105991051021012501001001MD1410001+9999MW1021REMSYN088AAXX  19124 17067 11670 53612 10194 20105 40222 54000 69901 70282 85200 333 85836 92428;
0172170670999992000061915004+40710+029810FM-12+001899999V0203601N006210090019N0100001N1+01821+00901102221ADDAY121031AY221031GA1051+009009089GF105991051021008001001001MD1410001+9999MW1801REMSYN082AAXX  19154 17067 41560 53612 10182 20090 40222 54000 78022 85200 333 85830 92427;
0204170670999992000062006004+40710+029810FM-12+001899999V0203101N001012200019N0200001N1+01621+01421102251ADDAA124000791GA1021+012009089GF102991021011012501001001IA1099IA2999+00809KA1120N+00921MD1410001+9999REMSYN094AAXX  20064 17067 32670 23102 10162 20142 40225 54000 82100 333 20092 31008 79999 82840 92408;
0172170670999992000062009004+40710+029810FM-12+001899999V0201001N001510090019N0100001N1+01621+01161102271ADDAY111031AY211031GA1071+009009089GF107991071021008001001001MD1310021+9999MW1801REMSYN082AAXX  20094 17067 41560 71003 10162 20116 40227 53002 78011 87200 333 87830 92407;
0189170670999992000062012004+40710+029810FM-12+001899999V0200901N001512200019N0200001N1+02061+01321102271ADDAA106000891AY181061AY211061GA1041+010809089GF104991041021012501001001MD1410001+9999MW1011REMSYN088AAXX  20124 17067 11670 40903 10206 20132 40227 54000 69981 70181 84200 333 84836 92408;
0144170670999992000062015004+40710+029810FM-12+001899999V0201101N001512200019N0200001N1+02161+01051102221ADDGA1041+012009089GF104991041021012501001001MD1610051+9999REMSYN076AAXX  20154 17067 42670 41103 10216 20105 40222 56005 84200 333 84840 92408;
0192170670999992000062106004+40710+029810FM-12+001899999V0200901N001012200019N0200001N1+01681+01481102051ADDAA124000891GA1001+999999999GF100991001001999999001001IA1019IA2999+00809KA1120N+01031MD1610021+9999REMSYN082AAXX  21064 17067 32970 00902 10168 20148 40205 56002 333 20103 30008 70008 92408;
0144170670999992000062109004+40710+029810FM-12+001899999V0202701N003112200019N0200001N1+02101+01271102021ADDGA1011+060009009GF101991001001999999001011MD1810031+9999REMSYN076AAXX  21094 17067 42970 12706 10210 20127 40202 58003 80001 333 81070 92418;
0162170670999992000062112004+40710+029810FM-12+001899999V0202701N004612200019N0200001N1+02301+01691101901ADDAA199000091GA1001+999999999GF100991001001999999001001MD1710121+9999REMSYN064AAXX  21124 17067 32970 02709 10230 20169 40190 57012 333 92428;EQDQ01  00002PRCP99
0132170670999992000062115004+40710+029810FM-12+001899999V0202701N004112200019N0200001N1+02301+01691101801ADDGA1001+999999999GF100991001001999999001001MD1710101+9999REMSYN064AAXX  21154 17067 42970 02708 10230 20169 40180 57010 333 92428;
0205170670999992000062206004+40710+029810FM-12+001899999V0200501N000512200019N0200001N1+02001+01541101711ADDAA199000091GA1001+999999999GF100991001001999999001001IA1019IA2999+01209KA1120N+01301MD1410001+9999REMSYN076AAXX  22064 17067 32970 00501 10200 20154 40171 54000 333 20130 30012 92408;EQDQ01  00002PRCP99
0132170670999992000062209004+40710+029810FM-12+001899999V0202701N004612200019N0200001N1+02501+01321101731ADDGA1001+999999999GF100991001001999999001001MD1110021+9999REMSYN064AAXX  22094 17067 42970 02709 10250 20132 40173 51002 333 92428;
0162170670999992000062212004+40710+029810FM-12+001899999V0202701N002612200019N0200001N1+02921+01521101731ADDAA199000091GA1001+999999999GF100991001001999999001001MD1410001+9999REMSYN064AAXX  22124 17067 32970 02705 10292 20152 40173 54000 333 92418;EQDQ01  00002PRCP99
0132170670999992000062215004+40710+029810FM-12+001899999V0202701N002612200019N0200001N1+02741+01691101731ADDGA1001+999999999GF100991001001999999001001MD1410001+9999REMSYN064AAXX  22154 17067 42970 02705 10274 20169 40173 54000 333 92418;
0205170670999992000062306004+40710+029810FM-12+001899999V0200601N001012200019N0200001N1+02301+01861101611ADDAA199000091GA1001+999999999GF100991001001999999001001IA1019IA2999+01409KA1120N+01551MD1410001+9999REMSYN076AAXX  23064 17067 32970 00602 10230 20186 40161 54000 333 20155 30014 92408;EQDQ01  00002PRCP99
0132170670999992000062309004+40710+029810FM-12+001899999V0202701N002612200019N0200001N1+02641+01841101591ADDGA1001+999999999GF100991001001999999001001MD1810021+9999REMSYN064AAXX  23094 17067 42970 02705 10264 20184 40159 58002 333 92418;
0162170670999992000062312004+40710+029810FM-12+001899999V0202701N003612200019N0200001N1+02901+01881101581ADDAA199000091GA1001+999999999GF100991001001999999001001MD1610011+9999REMSYN064AAXX  23124 17067 32970 02707 10290 20188 40158 56001 333 92418;EQDQ01  00002PRCP99
0132170670999992000062315004+40710+029810FM-12+001899999V0202601N003112200019N0200001N1+02831+01751101531ADDGA1001+999999999GF100991001001999999001001MD1610051+9999REMSYN064AAXX  23154 17067 42970 02606 10283 20175 40153 56005 333 92418;
0233170670999992000062406004+40710+029810FM-12+001899999V0200301N001012200019N0100001N1+02341+01981101551ADDAA199000091AY101061AY201061GA1001+999999999GF100991001001999999001001IA1019IA2999+01609KA1120N+01721MD1410001+9999MW1101REMSYN082AAXX  24064 17067 31960 00302 10234 20198 40155 54000 71000 333 20172 30016 92407;EQDQ01  00002PRCP99
0132170670999992000062409004+40710+029810FM-12+001899999V0200301N001012200019N0200001N1+02001+99999101551ADDGA1001+999999999GF100991001001999999001001MD1410001+9999REMSYN064AAXX  24094 17067 42970 00302 10200 20206 40155 54000 333 92408;
0162170670999992000062412004+40710+029810FM-12+001899999V0200901N001012200019N0200001N1+03142+01861101411ADDAA199000091GA1001+999999999GF100991001001999999001001MD1710141+9999REMSYN064AAXX  24124 17067 32970 00902 10314 20186 40141 57014 333 92408;EQDQ01  00002PRCP99
0132170670999992000062415004+40710+029810FM-12+001899999V0201101N001012200019N0200001N1+03141+02131101371ADDGA1001+999999999GF100991001001999999001001MD1810041+9999REMSYN064AAXX  24154 17067 42970 01102 10314 20213 40137 58004 333 92408;
0205170670999992000062506004+40710+029810FM-12+001899999V0201101N001012200019N0200001N1+02441+01821101231ADDAA199000091GA1001+999999999GF100991001001999999001001IA1019IA2999+01609KA1120N+01851MD1410001+9999REMSYN076AAXX  25064 17067 32970 01102 10244 20182 40123 54000 333 20185 30016 92408;EQDQ01  00002PRCP99
0132170670999992000062509004+40710+029810FM-12+001899999V0201501N001012200019N0200001N1+03021+01741101211ADDGA1001+999999999GF100991001001999999001001MD1610021+9999REMSYN064AAXX  25094 17067 42970 01502 10302 20174 40121 56002 333 92408;
0162170670999992000062512004+40710+029810FM-12+001899999V0203501N001012200019N0200001N1+03561+01861101131ADDAA199000091GA1001+999999999GF100991001001999999001001MD1710081+9999REMSYN064AAXX  25124 17067 32970 03502 10356 20186 40113 57008 333 92408;EQDQ01  00002PRCP99
0132170670999992000062515004+40710+029810FM-12+001899999V0202801N002612200019N0200001N1+03001+01941101091ADDGA1001+999999999GF100991001001999999001001MD1710041+9999REMSYN064AAXX  25154 17067 42970 02805 10300 20194 40109 57004 333 92418;
0205170670999992000062606004+40710+029810FM-12+001899999V0200501N000512200019N0200001N1+02601+01901101111ADDAA199000091GA1001+999999999GF100991001001999999001001IA1019IA2999+01709KA1120N+01911MD1110021+9999REMSYN076AAXX  26064 17067 32970 00501 10260 20190 40111 51002 333 20191 30017 92408;EQDQ01  00002PRCP99
0144170670999992000062609004+40710+029810FM-12+001899999V0200401N000512200019N0200001N1+03231+01771101111ADDGA1011+012009089GF101991011011012501001001MD1410001+9999REMSYN076AAXX  26094 17067 42670 10401 10323 20177 40111 54000 81100 333 81840 92408;
0174170670999992000062612004+40710+029810FM-12+001899999V0202901N003612200019N0200001N1+03281+01681101021ADDAA199000091GA1021+012009089GF102991021011012501001001MD1710091+9999REMSYN076AAXX  26124 17067 32670 22907 10328 20168 40102 57009 82100 333 82840 92418;EQDQ01  00002PRCP99
0132170670999992000062615004+40710+029810FM-12+001899999V0202301N000512200019N0200001N1+03301+02031100921ADDGA1001+999999999GF100991001001999999001001MD1710101+9999REMSYN064AAXX  26154 17067 42970 02301 10330 20203 40092 57010 333 92408;
0217170670999992000062706004+40710+029810FM-12+001899999V0200901N000512200019N0200001N1+02561+02121101161ADDAA199000091GA1031+012009089GF103991031021012501001001IA1019IA2999+01909KA1120N+02081MD1110051+9999REMSYN088AAXX  27064 17067 32670 30901 10256 20212 40116 51005 83200 333 20208 30019 83840 92408;EQDQ01  00002PRCP99
0144170670999992000062709004+40710+029810FM-12+001899999V0202701N002112200019N0200001N1+02861+02241101161ADDGA1031+012009089GF103991031021012501001001MD1410001+9999REMSYN076AAXX  27094 17067 42670 32704 10286 20224 40116 54000 83200 333 83840 92408;
0174170670999992000062712004+40710+029810FM-12+001899999V0203601N003610120019N0200001N1+02621+01881101161ADDAA199000091GA1061+012009089GF106991061021012501001001MD1410001+9999REMSYN076AAXX  27124 17067 32670 63607 10262 20188 40116 54000 86200 333 86840 92418;EQDQ01  00002PRCP99
0144170670999992000062715004+40710+029810FM-12+001899999V0203601N003610120019N0200001N1+02501+01841101181ADDGA1061+012009089GF106991061021012501001001MD1310021+9999REMSYN076AAXX  27154 17067 42670 63607 10250 20184 40118 53002 86200 333 86840 92418;
0217170670999992000062806004+40710+029810FM-12+001899999V0203601N001510120019N0200001N1+02161+01711101511ADDAA199000091GA1051+012009089GF105991051021012501001001IA1019IA2999+01809KA1120N+01921MD1110051+9999REMSYN088AAXX  28064 17067 32670 53603 10216 20171 40151 51005 85200 333 20192 30018 85840 92408;EQDQ01  00002PRCP99
0144170670999992000062809004+40710+029810FM-12+001899999V0201301N001510120019N0200001N1+02541+01581101601ADDGA1061+012009089GF106991061021999999001001MD1110091+9999REMSYN076AAXX  28094 17067 42970 61303 10254 20158 40160 51009 86200 333 86840 92408;
0174170670999992000062812004+40710+029810FM-12+001899999V0200701N001510120019N0200001N1+02381+01761101601ADDAA199000091GA1061+012009089GF106991061021012501001001MD1410001+9999REMSYN076AAXX  28124 17067 32670 60703 10238 20176 40160 54000 86200 333 86840 92408;EQDQ01  00002PRCP99
0144170670999992000062815004+40710+029810FM-12+001899999V0200301N003112200019N0200001N1+02401+01481101551ADDGA1041+012009089GF104991041021012501001001MD1710051+9999REMSYN076AAXX  28154 17067 42670 40306 10240 20148 40155 57005 84200 333 84840 92418;
0238170670999992000062906004+40710+029810FM-12+001899999V0201401N001010090019N0100001N1+01851+01461101521ADDAA112000191AY121061AY221061GA1071+009009089GF107991071021008001001001IA1099IA2999+01509KA1120N+01641MD1610041+9999MW1801REMSYN106AAXX  29064 17067 11560 71402 10185 20146 40152 56004 69922 78022 87200 333 20164 31015 70002 87830 92407;
0172170670999992000062909004+40710+029810FM-12+001899999V0201401N001010090019N0080001N1+01901+01741101521ADDAY181031AY281031GA1071+009009089GF107991071021008001001001MD1410001+9999MW1801REMSYN082AAXX  29094 17067 41558 71402 10190 20174 40152 54000 78088 87200 333 87830 92406;
0189170670999992000062912004+40710+029810FM-12+001899999V0201201N001010108019N0200001N1+02181+01601101461ADDAA106000191AY181061AY221061GA1061+010809089GF106991061021012501001001MD1810051+9999MW1011REMSYN088AAXX  29124 17067 11670 61202 10218 20160 40146 58005 69911 70182 86200 333 86836 92408;
0144170670999992000062915004+40710+029810FM-12+001899999V0200401N001510108019N0200001N1+02201+01621101411ADDGA1061+010809089GF106991061021012501001001MD1610051+9999REMSYN076AAXX  29154 17067 42670 60403 10220 20162 40141 56005 86200 333 86836 92408;
0232170670999992000063006004+40710+029810FM-12+001899999V0203601N002110300019N0200001N1+02161+01761101411ADDAA112000191GA1041+012009089GA2061+030009039GF107991041021012501031001IA1019IA2999+01509KA1120N+01721MD1410001+9999REMSYN106AAXX  30064 17067 12670 73604 10216 20176 40141 54000 69912 84230 333 20172 30015 70001 84840 86360 92408;
0166170670999992000063009004+40710+029810FM-12+001899999V0200601N000510300019N0200001N1+02241+01731101441ADDGA1041+010809089GA2061+030009039GF107991041021012501031001MD1310031+9999REMSYN082AAXX  30094 17067 42670 70601 10224 20173 40144 53003 84230 333 84836 86360 92408;
0174170670999992000063012004+40710+029810FM-12+001899999V0203301N000510108019N0200001N1+02381+01811101441ADDAA199000091GA1071+010809089GF107991071021012501001001MD1410001+9999REMSYN076AAXX  30124 17067 32670 73301 10238 20181 40144 54000 87200 333 87836 92408;EQDQ01  00002PRCP99
0144170670999992000063015004+40710+029810FM-12+001899999V0200301N002610108019N0200001N1+02241+01731101441ADDGA1071+010809089GF107991071021012501001001MD1410001+9999REMSYN076AAXX  30154 17067 42670 70305 10224 20173 40144 54000 87200 333 87836 92408;
0217170670999992000070106004+40710+029810FM-12+001899999V0200901N000512200019N0200001N1+02281+01761101711ADDAA199000091GA1031+012009089GF103991031021012501001001IA1019IA2999+01509KA1120N+01701MD1110101+9999REMSYN088AAXX  01064 17067 32670 30901 10228 20176 40171 51010 83200 333 20170 30015 83840 92408;EQDQ01  00002PRCP99
0144170670999992000070109004+40710+029810FM-12+001899999V0200401N001012200019N0200001N1+02621+01621101781ADDGA1021+012009089GF102991021011012501001001MD1210071+9999REMSYN076AAXX  01094 17067 42670 20402 10262 20162 40178 52007 82100 333 82840 92408;
0174170670999992000070112004+40710+029810FM-12+001899999V0201101N001012200019N0200001N1+02741+01621101801ADDAA199000091GA1021+012009089GF102991021011012501001001MD1110021+9999REMSYN076AAXX  01124 17067 32670 21102 10274 20162 40180 51002 82100 333 82840 92408;EQDQ01  00002PRCP99
0132170670999992000070115004+40710+029810FM-12+001899999V0201101N001012200019N0200001N1+02721+01461101801ADDGA1001+999999999GF100991001001999999001001MD1410001+9999REMSYN064AAXX  01154 17067 42970 01102 10272 20146 40180 54000 333 92408;
0199170670999992000070206004+40710+029810FM-12+001899999V0201201N001012200019N0200001N1+02101+01601101981ADDAA199000091GA1001+999999999GF100991001001999999001001IA1019IA2999+01209KA1120N+01401MD1810031+9999REMSYN070AAXX  02064 17067 32970 01202 10210 20160 40198 58003 333 20140 30012;EQDQ01  00002PRCP99
0132170670999992000070209004+40710+029810FM-12+001899999V0201201N001512200019N0200001N1+02681+01311101991ADDGA1001+999999999GF100991001001999999001001MD1110021+9999REMSYN064AAXX  02094 17067 42970 01203 10268 20131 40199 51002 333 92408;
0162170670999992000070212004+40710+029810FM-12+001899999V0201301N001012200019N0200001N1+03021+01561101851ADDAA199000091GA1001+999999999GF100991001001999999001001MD1710141+9999REMSYN064AAXX  02124 17067 32970 01302 10302 20156 40185 57014 333 92408;EQDQ01  00002PRCP99
0132170670999992000070215004+40710+029810FM-12+001899999V0200901N001512200019N0200001N1+02721+01591101811ADDGA1001+999999999GF100991001001999999001001MD1710041+9999REMSYN064AAXX  02154 17067 42970 00903 10272 20159 40181 57004 333 92408;
0205170670999992000070306004+40710+029810FM-12+001899999V0201401N001012200019N0200001N1+02141+01451101781ADDAA199000091GA1001+999999999GF100991001001999999001001IA1019IA2999+01309KA1120N+01551MD1410001+9999REMSYN076AAXX  03064 17067 32970 01402 10214 20145 40178 54000 333 20155 30013 92408;EQDQ01  00002PRCP99
0132170670999992000070309004+40710+029810FM-12+001899999V0201301N001012200019N0200001N1+02941+01721101731ADDGA1001+999999999GF100991001001999999001001MD1710051+9999REMSYN064AAXX  03094 17067 42970 01302 10294 20172 40173 57005 333 92408;
0162170670999992000070312004+40710+029810FM-12+001899999V0201401N002112200019N0200001N1+03201+01531101641ADDAA199000091GA1001+999999999GF100991001001999999001001MD1710091+9999REMSYN064AAXX  03124 17067 32970 01404 10320 20153 40164 57009 333 92408;EQDQ01  00002PRCP99
0132170670999992000070315004+40710+029810FM-12+001899999V0201201N001512200019N0200001N1+03201+01531101611ADDGA1001+999999999GF100991001001999999001001MD1810031+9999REMSYN064AAXX  03154 17067 42970 01203 10320 20153 40161 58003 333 92408;
0205170670999992000070406004+40710+029810FM-12+001899999V0203601N001012200019N0200001N1+02081+01641101781ADDAA199000091GA1001+999999999GF100991001001999999001001IA1019IA2999+01409KA1120N+01561MD1810021+9999REMSYN076AAXX  04064 17067 32970 03602 10208 20164 40178 58002 333 20156 30014 92408;EQDQ01  00002PRCP99
0132170670999992000070409004+40710+029810FM-12+001899999V0203501N001012200019N0200001N1+02881+01361101541ADDGA1001+999999999GF100991001001999999001001MD1710041+9999REMSYN064AAXX  04094 17067 42970 03502 10288 20136 40154 57004 333 92408;
0162170670999992000070412004+40710+029810FM-12+001899999V0202901N003112200019N0200001N1+02901+01981101511ADDAA199000091GA1001+999999999GF100991001001999999001001MD1710031+9999REMSYN064AAXX  04124 17067 32970 02906 10290 20198 40151 57003 333 92418;EQDQ01  00002PRCP99
0205170670999992000070506004+40710+029810FM-12+001899999V0200301N001012200019N0200001N1+02581+01801101411ADDAA199000091GA1001+999999999GF100991001001999999001001IA1019IA2999+01709KA1120N+01921MD1110021+9999REMSYN076AAXX  05064 17067 32970 00302 10258 20180 40141 51002 333 20192 30017 92408;EQDQ01  00002PRCP99
0132170670999992000070509004+40710+029810FM-12+001899999V0203401N001012200019N0200001N1+03301+01861101411ADDGA1001+999999999GF100991001001999999001001MD1410001+9999REMSYN064AAXX  05094 17067 42970 03402 10330 20186 40141 54000 333 92408;
0162170670999992000070512004+40710+029810FM-12+001899999V0203001N001012200019N0200001N1+03701+02091101341ADDAA199000091GA1001+999999999GF100991001001999999001001MD1810071+9999REMSYN064AAXX  05124 17067 32970 03002 10370 20209 40134 58007 333 92408;EQDQ01  00002PRCP99
0132170670999992000070515004+40710+029810FM-12+001899999V0202501N000512200019N0200001N1+03461+02121101221ADDGA1001+999999999GF100991001001999999001001MD1710121+9999REMSYN064AAXX  05154 17067 42970 02501 10346 20212 40122 57012 333 92408;
0205170670999992000070606004+40710+029810FM-12+001899999V0203501N001012200019N0200001N1+02721+01991101201ADDAA199000091GA1001+999999999GF100991001001999999001001IA1019IA2999+01909KA1120N+02121MD1210041+9999REMSYN076AAXX  06064 17067 32970 03502 10272 20199 40120 52004 333 20212 30019 92408;EQDQ01  00002PRCP99
0132170670999992000070609004+40710+029810FM-12+001899999V0203301N005712200019N0200001N1+03061+02021101211ADDGA1001+999999999GF100991001001999999001001MD1110011+9999REMSYN064AAXX  06094 17067 42970 03311 10306 20202 40121 51001 333 92428;
0162170670999992000070612004+40710+029810FM-12+001899999V0202801N004112200019N0200001N1+03101+02241101211ADDAA199000091GA1001+999999999GF100991001001999999001001MD1410001+9999REMSYN064AAXX  06124 17067 32970 02808 10310 20224 40121 54000 333 92418;EQDQ01  00002PRCP99
0132170670999992000070615004+40710+029810FM-12+001899999V0203601N000512200019N0200001N1+03421+02171101211ADDGA1001+999999999GF100991001001999999001001MD1410001+9999REMSYN064AAXX  06154 17067 42970 03601 10342 20217 40121 54000 333 92408;
0233170670999992000070706004+40710+029810FM-12+001899999V0203601N001512200019N0060001N1+02481+02141101301ADDAA199000091AY101061AY201061GA1001+999999999GF100991001001999999001001IA1019IA2999+01809KA1120N+02101MD1310081+9999MW1101REMSYN082AAXX  07064 17067 31956 03603 10248 20214 40130 53008 71000 333 20210 30018 92406;EQDQ01  00002PRCP99
0172170670999992000070709004+40710+029810FM-12+001899999V0201101N001012200019N0100001N1+03061+02141101391ADDAY101031AY201031GA1021+012009089GF102991021021012501001001MD1110091+9999MW1051REMSYN082AAXX  07094 17067 41660 21102 10306 20214 40139 51009 70500 82200 333 82840 92407;
0202170670999992000070712004+40710+029810FM-12+001899999V0200901N001012200019N0100001N1+03341+02181101351ADDAA199000091AY101061AY201061GA1041+012009089GF104991041021012501001001MD1710041+9999MW1051REMSYN082AAXX  07124 17067 31660 40902 10334 20218 40135 57004 70500 84200 333 84840 92407;EQDQ01  00002PRCP99
0132170670999992000070715004+40710+029810FM-12+001899999V0203601N003112200019N9999999N1+03101+01641101351ADDGA1001+999999999GF100991001001999999001001MD1510001+9999REMSYN064AAXX  07154 17067 ///// 03606 10310 20164 40135 55000 333 92418;
0205170670999992000070806004+40710+029810FM-12+001899999V0201201N001012200019N0200001N1+02501+01861101341ADDAA199000091GA1001+999999999GF100991001001999999001001IA1019IA2999+01609KA1120N+01851MD1410001+9999REMSYN076AAXX  08064 17067 32970 01202 10250 20186 40134 54000 333 20185 30016 92408;EQDQ01  00002PRCP99
0132170670999992000070809004+40710+029810FM-12+001899999V0201201N001512200019N0200001N1+03041+01641101291ADDGA1001+999999999GF100991001001999999001001MD1810051+9999REMSYN064AAXX  08094 17067 42970 01203 10304 20164 40129 58005 333 92408;
0162170670999992000070812004+40710+029810FM-12+001899999V0201101N001012200019N0200001N1+03501+01561101111ADDAA199000091GA1001+999999999GF100991001001999999001001MD1710181+9999REMSYN064AAXX  08124 17067 32970 01102 10350 20156 40111 57018 333 92408;EQDQ01  00002PRCP99
0132170670999992000070815004+40710+029810FM-12+001899999V0201101N001012200019N0200001N1+03461+01581100941ADDGA1001+999999999GF100991001001999999001001MD1710171+9999REMSYN064AAXX  08154 17067 42970 01102 10346 20158 40094 57017 333 92408;
0205170670999992000070906004+40710+029810FM-12+001899999V0201101N000512200019N0200001N1+02581+01901100671ADDAA199000091GA1001+999999999GF100991001001999999001001IA1019IA2999+01709KA1120N+01931MD1710061+9999REMSYN076AAXX  09064 17067 32970 01101 10258 20190 40067 57006 333 20193 30017 92408;EQDQ01  00002PRCP99
0132170670999992000070909004+40710+029810FM-12+001899999V0203101N000512200019N0200001N1+03481+01781100571ADDGA1001+999999999GF100991001001999999001001MD1710101+9999REMSYN064AAXX  09094 17067 42970 03101 10348 20178 40057 57010 333 92408;
0174170670999992000070912004+40710+029810FM-12+001899999V0202801N004112200019N0200001N1+03991+01961100381ADDAA199000091GA1011+012009089GF101991011011012501001001MD1710191+9999REMSYN076AAXX  09124 17067 32670 12808 10399 20196 40038 57019 81100 333 81840 92418;EQDQ01  00002PRCP99
0132170670999992000070915004+40710+029810FM-12+001899999V0202701N001512200019N0200001N1+03881+01841100251ADDGA1001+999999999GF100991001001999999001001MD1710131+9999REMSYN064AAXX  09154 17067 42970 02703 10388 20184 40025 57013 333 92408;
0217170670999992000071006004+40710+029810FM-12+001899999V0203601N002610120019N0200001N1+02421+01951100811ADDAA199000091GA1061+012009089GF106991061021012501001001IA1019IA2999+02009KA1120N+02251MD1110101+9999REMSYN088AAXX  10064 17067 32670 63605 10242 20195 40081 51010 86200 333 20225 30020 86840 92418;EQDQ01  00002PRCP99
0144170670999992000071009004+40710+029810FM-12+001899999V0203601N002110120019N0200001N1+02561+01561100911ADDGA1061+012009089GF106991061021012501001001MD1210101+9999REMSYN076AAXX  10094 17067 42670 63604 10256 20156 40091 52010 86200 333 86840 92418;
0196170670999992000071012004+40710+029810FM-12+001899999V0201301N001512200019N0200001N1+02801+01581100951ADDAA199000091GA1021+012009089GA2031+060009009GF104991021021012501001011MD1110041+9999REMSYN082AAXX  10124 17067 32670 41303 10280 20158 40095 51004 82201 333 82840 83070 92408;EQDQ01  00002PRCP99
0132170670999992000071015004+40710+029810FM-12+001899999V0201101N001512200019N0200001N1+02841+01541100911ADDGA1001+999999999GF100991001001999999001001MD1710041+9999REMSYN064AAXX  10154 17067 42970 01103 10284 20154 40091 57004 333 92408;
0205170670999992000071106004+40710+029810FM-12+001899999V0201201N001012200019N0200001N1+02331+01681101211ADDAA199000091GA1001+999999999GF100991001001999999001001IA1019IA2999+01709KA1120N+01861MD1310061+9999REMSYN076AAXX  11064 17067 32970 01202 10233 20168 40121 53006 333 20186 30017 92408;EQDQ01  00002PRCP99
0132170670999992000071109004+40710+029810FM-12+001899999V0201301N001512200019N0200001N1+02741+01721101211ADDGA1001+999999999GF100991001001999999001001MD1410001+9999REMSYN064AAXX  11094 17067 42970 01303 10274 20172 40121 54000 333 92408;
0162170670999992000071112004+40710+029810FM-12+001899999V0201301N001012200019N0200001N1+03161+01781101141ADDAA199000091GA1001+999999999GF100991001001999999001001MD1810071+9999REMSYN064AAXX  11124 17067 32970 01302 10316 20178 40114 58007 333 92408;EQDQ01  00002PRCP99
0132170670999992000071115004+40710+029810FM-12+001899999V0200901N001012200019N0200001N1+03001+01911101141ADDGA1001+999999999GF100991001001999999001001MD1410001+9999REMSYN064AAXX  11154 17067 42970 00902 10300 20191 40114 54000 333 92408;
0205170670999992000071206004+40710+029810FM-12+001899999V0201401N001512200019N0200001N1+02261+01981101321ADDAA199000091GA1001+999999999GF100991001001999999001001IA1019IA2999+01509KA1120N+01731MD1210051+9999REMSYN076AAXX  12064 17067 32970 01403 10226 20198 40132 52005 333 20173 30015 92408;EQDQ01  00002PRCP99
0132170670999992000071209004+40710+029810FM-12+001899999V0200901N001512200019N0200001N1+03141+01761101321ADDGA1001+999999999GF100991001001999999001001MD1410001+9999REMSYN064AAXX  12094 17067 42970 00903 10314 20176 40132 54000 333 92408;
0162170670999992000071212004+40710+029810FM-12+001899999V0200101N001012200019N0200001N1+03691+02081101221ADDAA199000091GA1001+999999999GF100991001001999999001001MD1710101+9999REMSYN064AAXX  12124 17067 32970 00102 10369 20208 40122 57010 333 92408;EQDQ01  00002PRCP99
0132170670999992000071215004+40710+029810FM-12+001899999V0202301N001012200019N0200001N1+03421+01721101141ADDGA1001+999999999GF100991001001999999001001MD1710081+9999REMSYN064AAXX  12154 17067 42970 02302 10342 20172 40114 57008 333 52408;
0205170670999992000071306004+40710+029810FM-12+001899999V0200701N001012200019N0200001N1+02781+01921100631ADDAA199000091GA1001+999999999GF100991001001999999001001IA1019IA2999+01509KA1120N+01701MD1710081+9999REMSYN076AAXX  13064 17067 32970 00702 10278 20192 40063 57008 333 20170 30015 92408;EQDQ01  00002PRCP99
0126170670999992000071309004+40710+029810FM-12+001899999V0201201N001012200019N0200001N1+03881+00412999999ADDGA1001+999999999GF100991001001999999001001MD1710221+9999REMSYN058AAXX  13094 17067 42970 01202 10388 20041 57022 333 92408;
0162170670999992000071312004+40710+029810FM-12+001899999V0201801N001512200019N0200001N1+04501+01141100131ADDAA199000091GA1001+999999999GF100991001001999999001001MD1710281+9999REMSYN064AAXX  13124 17067 32970 01803 10450 20114 40013 57028 333 92408;EQDQ01  00002PRCP99
0144170670999992000071315004+40710+029810FM-12+001899999V0202701N008212200019N0200001N1+03441+01391100131ADDGA1041+060009009GF104991001001999999001011MD1410001+9999REMSYN076AAXX  13154 17067 42970 42716 10344 20139 40013 54000 80001 333 84070 92438;
0217170670999992000071406004+40710+029810FM-12+001899999V0200801N000512200019N0200001N1+02541+01901101011ADDAA199000091GA1021+012009089GF102991021011012501001001IA1019IA2999+01709KA1120N+01961MD1410001+9999REMSYN088AAXX  14064 17067 32670 20801 10254 20190 40101 54000 82100 333 20196 30017 82840 92408;EQDQ01  00002PRCP99
0163170670999992000071409004+40710+029810FM-12+001899999V0200201N000512200019N0200001N1+02861+01561101011ADDGA1021+012009089GF102991999011012501001001MD1410001+9999REMSYN076AAXX  14094 17067 42670 20201 10286 20156 40101 54000 83100 333 82840 92408;EQDQ01+000032SCOTLC
0174170670999992000071412004+40710+029810FM-12+001899999V0202801N005112200019N0200001N1+02841+01531100961ADDAA199000091GA1021+012009089GF102991021011012501001001MD1810051+9999REMSYN076AAXX  14124 17067 32670 22810 10284 20153 40096 58005 82100 333 82840 92428;EQDQ01  00002PRCP99
0144170670999992000071415004+40710+029810FM-12+001899999V0200401N002112200019N0200001N1+02681+01461100961ADDGA1031+012009089GF103991031011012501001001MD1410001+9999REMSYN076AAXX  14154 17067 42670 30404 10268 20146 40096 54000 83100 333 83840 92418;
0205170670999992000071506004+40710+029810FM-12+001899999V0201401N001012200019N0200001N1+02221+01481100981ADDAA199000091GA1001+999999999GF100991001001999999001001IA1019IA2999+01309KA1120N+01601MD1410001+9999REMSYN076AAXX  15064 17067 32970 01402 10222 20148 40098 54000 333 20160 30013 92408;EQDQ01  00002PRCP99
0132170670999992000071509004+40710+029810FM-12+001899999V0201301N001012200019N0200001N1+02821+01921100961ADDGA1001+999999999GF100991001001999999001001MD1810021+9999REMSYN064AAXX  15094 17067 42970 01302 10282 20192 40096 58002 333 92408;
0162170670999992000071512004+40710+029810FM-12+001899999V0200901N001012200019N0200001N1+03141+01951100861ADDAA199000091GA1001+999999999GF100991001001999999001001MD1710101+9999REMSYN064AAXX  15124 17067 32970 00902 10314 20195 40086 57010 333 92408;EQDQ01  00002PRCP99
0132170670999992000071515004+40710+029810FM-12+001899999V0202701N002612200019N0200001N1+02881+01901100791ADDGA1001+999999999GF100991001001999999001001MD1710071+9999REMSYN064AAXX  15154 17067 42970 02705 10288 20190 40079 57007 333 92418;
0205170670999992000071606004+40710+029810FM-12+001899999V0200901N001012200019N0200001N1+02341+01841100851ADDAA199000091GA1001+999999999GF100991001001999999001001IA1019IA2999+01509KA1120N+01701MD1110061+9999REMSYN076AAXX  16064 17067 32970 00902 10234 20184 40085 51006 333 20170 30015 92408;EQDQ01  00002PRCP99
0132170670999992000071609004+40710+029810FM-12+001899999V0202701N003112200019N0200001N1+02941+01501100701ADDGA1001+999999999GF100991001001999999001001MD1210051+9999REMSYN064AAXX  16094 17067 42970 02706 10294 20150 40070 52005 333 92418;
0162170670999992000071612004+40710+029810FM-12+001899999V0202901N004112200019N0200001N1+03101+01601100951ADDAA199000091GA1001+999999999GF100991001001999999001001MD1110051+9999REMSYN064AAXX  16124 17067 32970 02908 10310 20160 40095 51005 333 92428;EQDQ01  00002PRCP99
0132170670999992000071615004+40710+029810FM-12+001899999V0202701N003112200019N0200001N1+03181+01701100951ADDGA1001+999999999GF100991001001999999001001MD1410001+9999REMSYN064AAXX  16154 17067 42970 02706 10318 20170 40095 54000 333 92418;
0205170670999992000071706004+40710+029810FM-12+001899999V0200401N001012200019N0200001N1+02581+01881101331ADDAA199000091GA1001+999999999GF100991001001999999001001IA1019IA2999+01709KA1120N+01931MD1210051+9999REMSYN076AAXX  17064 17067 32970 00402 10258 20188 40133 52005 333 20193 30017 92408;EQDQ01  00002PRCP99
0144170670999992000071709004+40710+029810FM-12+001899999V0202701N003112200019N0200001N1+03181+01741101361ADDGA1011+012009089GF101991011011012501001001MD1110031+9999REMSYN076AAXX  17094 17067 42670 12706 10318 20174 40136 51003 81100 333 81840 92418;
0174170670999992000071712004+40710+029810FM-12+001899999V0202801N004112200019N0200001N1+03171+02001101361ADDAA199000091GA1021+012009089GF102991021011012501001001MD1410001+9999REMSYN076AAXX  17124 17067 32670 22808 10317 20200 40136 54000 82100 333 82840 92418;EQDQ01  00002PRCP99
0144170670999992000071715004+40710+029810FM-12+001899999V0200901N001512200019N0200001N1+02981+01661101411ADDGA1021+012009089GF102991021011012501001001MD1310051+9999REMSYN076AAXX  17154 17067 42670 20903 10298 20166 40141 53005 82100 333 82840 92408;
0205170670999992000071806004+40710+029810FM-12+001899999V0201301N001012200019N0200001N1+02501+02091101641ADDAA199000091GA1001+999999999GF100991001001999999001001IA1019IA2999+01909KA1120N+02081MD1210021+9999REMSYN076AAXX  18064 17067 32970 01302 10250 20209 40164 52002 333 20208 30019 92408;EQDQ01  00002PRCP99
0144170670999992000071809004+40710+029810FM-12+001899999V0201401N002612200019N0200001N1+03011+01921101641ADDGA1021+012009089GF102991021011012501001001MD1410001+9999REMSYN076AAXX  18094 17067 42670 21405 10301 20192 40164 54000 82100 333 82840 92408;
0162170670999992000071812004+40710+029810FM-12+001899999V0201301N003612200019N0200001N1+03241+01881101511ADDAA199000091GA1001+999999999GF100991001001999999001001MD1410001+9999REMSYN064AAXX  18124 17067 32970 01307 10324 20188 40151 54000 333 92418;EQDQ01  00002PRCP99
0132170670999992000071815004+40710+029810FM-12+001899999V0200701N003612200019N0200001N1+02901+01891101501ADDGA1001+999999999GF100991001001999999001001MD1810011+9999REMSYN064AAXX  18154 17067 42970 00707 10290 20189 40150 58001 333 92418;
0233170670999992000071906004+40710+029810FM-12+001899999V0201101N001012200019N0200001N1+02301+01451101311ADDAA199000091GA1021+012009089GF199999021021012501001001IA1019IA2999+01409KA1120N+01651MD1410001+9999REMSYN088AAXX  19064 17067 32670 11102 10230 20145 40131 54000 82200 333 20165 30014 82840 92408;EQDQ01+000012SCOTCVQ02  00002PRCP99
0144170670999992000071909004+40710+029810FM-12+001899999V0201301N001512200019N0200001N1+02761+01481101211ADDGA1021+012009089GF102991021011012501001001MD1710101+9999REMSYN076AAXX  19094 17067 42670 21303 10276 20148 40121 57010 82100 333 82840 92408;
0174170670999992000071912004+40710+029810FM-12+001899999V0200501N003110120019N0200001N1+02801+01691101111ADDAA199000091GA1051+012009089GF105991051021012501001001MD1710101+9999REMSYN076AAXX  19124 17067 32670 50506 10280 20169 40111 57010 85200 333 85840 92418;EQDQ01  00002PRCP99
0166170670999992000071915004+40710+029810FM-12+001899999V0200201N002112200019N0200001N1+02821+01581101091ADDGA1011+012009089GA2031+030009039GF103991011011012501031001MD1810021+9999REMSYN082AAXX  19154 17067 42670 30204 10282 20158 40109 58002 81130 333 81840 83360 92408;
0217170670999992000072006004+40710+029810FM-12+001899999V0201501N001012200019N0200001N1+02181+01411101171ADDAA199000091GA1041+012009089GF104991041021012501001001IA1019IA2999+01709KA1120N+01881MD1310041+9999REMSYN088AAXX  20064 17067 32670 41502 10218 20141 40117 53004 84200 333 20188 30017 84840 92408;EQDQ01  00002PRCP99
0144170670999992000072009004+40710+029810FM-12+001899999V0201201N001010099019N0200001N1+02421+01721101211ADDGA1051+009909089GF105991051021012501001001MD1310041+9999REMSYN076AAXX  20094 17067 42670 51202 10242 20172 40121 53004 85200 333 85833 92408;
0196170670999992000072012004+40710+029810FM-12+001899999V0201201N001510099019N0200001N1+02401+01641101211ADDAA199000091GA1011+009009099GA2051+009909089GF106991061031008001001001MD1410001+9999REMSYN082AAXX  20124 17067 32570 61203 10240 20164 40121 54000 86300 333 81930 85833 92408;EQDQ01  00002PRCP99
0166170670999992000072015004+40710+029810FM-12+001899999V0200901N001510099019N0200001N1+02481+01681101231ADDGA1011+009009099GA2051+009909089GF106991061031008001001001MD1310021+9999REMSYN082AAXX  20154 17067 42570 60903 10248 20168 40123 53002 86300 333 81930 85833 92408;
0239170670999992000072106004+40710+029810FM-12+001899999V0201301N001510300019N0200001N1+02141+01671101421ADDAA199000091GA1031+012009089GA2051+030009039GF106991031021012501031001IA1019IA2999+01509KA1120N+01731MD1410001+9999REMSYN094AAXX  21064 17067 32670 61303 10214 20167 40142 54000 83230 333 20173 30015 83840 85360 92408;EQDQ01  00002PRCP99
0166170670999992000072109004+40710+029810FM-12+001899999V0200901N002110300019N0200001N1+02721+01661101421ADDGA1031+012009089GA2051+030009039GF106991031021012501031001MD1410001+9999REMSYN082AAXX  21094 17067 42670 60904 10272 20166 40142 54000 83230 333 83840 85360 92408;
0196170670999992000072112004+40710+029810FM-12+001899999V0200501N004110300019N0200001N1+02421+01631101421ADDAA199000091GA1031+012009089GA2051+030009039GF107991031021012501031001MD1410001+9999REMSYN082AAXX  21124 17067 32670 70508 10242 20163 40142 54000 83230 333 83840 85360 92418;EQDQ01  00002PRCP99
0194170670999992000072115004+40710+029810FM-12+001899999V0200601N004110108019N0200001N1+02421+01631101421ADDAY191031AY221031GA1021+009009099GA2051+010809089GF107991071091008001001001MD1410001+9999MW1291REMSYN088AAXX  21154 17067 41570 70608 10242 20163 40142 54000 72992 87900 333 82930 85836 92418;
0260170670999992000072206004+40710+029810FM-12+001899999V0201501N001010090019N0100001N1+02001+01901101421ADDAA112013091AY181061AY221061GA1051+009009089GA2071+030009039GF107991051021008001031001IA1119IA2999+01809KA1120N+01851MD1410001+9999MW1801REMSYN112AAXX  22064 17067 11560 71502 10200 20190 40142 54000 60132 78082 85230 333 20185 32018 70138 85830 87360 92407;
0194170670999992000072209004+40710+029810FM-12+001899999V0200701N000510108019N0200001N1+02281+02101101421ADDAY181031AY221031GA1051+010809089GA2071+030009039GF107991051021012501031001MD1410001+9999MW1021REMSYN088AAXX  22094 17067 41670 70701 10228 20210 40142 54000 70282 85230 333 85836 87360 92408;
0211170670999992000072212004+40710+029810FM-12+001899999V0203401N002610108019N0200001N1+02311+02011101161ADDAA106000591AY181061AY221061GA1051+010809089GA2071+030009039GF107991051021012501031001MD1810261+9999MW1021REMSYN094AAXX  22124 17067 11670 73405 10231 20201 40116 58026 69941 70282 85230 333 85836 87360 92418;
0194170670999992000072215004+40710+029810FM-12+001899999V0201601N001510090019N0100001N1+02061+02021101311ADDAY191031AY281031GA1051+009009089GA2071+030009039GF107991051021008001031001MD1110151+9999MW1801REMSYN088AAXX  22154 17067 41560 71603 10206 20202 40131 51015 78098 85230 333 85830 87360 92407;
0210170670999992000072306004+40710+029810FM-12+001899999V0202701N003110099019N0200001N1+02081+01461101411ADDAA112017091GA1051+009909089GF105991051021012501001001IA1099IA2999+01609KA1120N+01751MD1310041+9999REMSYN100AAXX  23064 17067 12670 52706 10208 20146 40141 53004 60172 85200 333 20175 31016 70172 85833 92408;
0172170670999992000072309004+40710+029810FM-12+001899999V0202601N002110090019N0100001N1+02161+02031101521ADDAY121031AY221031GA1061+009009089GF106991061021008001001001MD1210111+9999MW1801REMSYN082AAXX  23094 17067 41560 62604 10216 20203 40152 52011 78022 86200 333 86830 92417;
0189170670999992000072312004+40710+029810FM-12+001899999V0202701N001510108019N0200001N1+02221+01921101611ADDAA106003091AY181061AY221061GA1061+010809089GF106991061021012501001001MD1210091+9999MW1251REMSYN088AAXX  23124 17067 11670 62703 10222 20192 40161 52009 60031 72582 86200 333 86836 92408;
0144170670999992000072315004+40710+029810FM-12+001899999V0200901N000512200019N0200001N1+02541+01801101611ADDGA1031+012009089GF103991031021012501001001MD1410001+9999REMSYN076AAXX  23154 17067 42670 30901 10254 20180 40161 54000 83200 333 83840 92408;
0192170670999992000072406004+40710+029810FM-12+001899999V0200901N000512200019N0200001N1+02161+01681101641ADDAA124003391GA1001+999999999GF100991001001999999001001IA1099IA2999+01309KA1120N+01451MD1310021+9999REMSYN082AAXX  24064 17067 32970 00901 10216 20168 40164 53002 333 20145 31013 70034 92408;
0132170670999992000072409004+40710+029810FM-12+001899999V0200401N000512200019N0200001N1+02601+01761101641ADDGA1001+999999999GF100991001001999999001001MD1410001+9999REMSYN064AAXX  24094 17067 42970 00401 10260 20176 40164 54000 333 92408;
0174170670999992000072412004+40710+029810FM-12+001899999V0201001N001512200019N0200001N1+03041+01841101611ADDAA199000091GA1021+012009089GF102991021011012501001001MD1810031+9999REMSYN076AAXX  24124 17067 32670 21003 10304 20184 40161 58003 82100 333 82840 92408;EQDQ01  00002PRCP99
0132170670999992000072415004+40710+029810FM-12+001899999V0200901N002612200019N0200001N1+02901+01701101511ADDGA1001+999999999GF100991001001999999001001MD1710101+9999REMSYN064AAXX  24154 17067 42970 00905 10290 20170 40151 57010 333 92418;
0205170670999992000072506004+40710+029810FM-12+001899999V0201101N001012200019N0200001N1+02181+01621101511ADDAA199000091GA1001+999999999GF100991001001999999001001IA1099IA2999+01509KA1120N+01701MD1410001+9999REMSYN076AAXX  25064 17067 32970 01102 10218 20162 40151 54000 333 20170 31015 92408;EQDQ01  00002PRCP99
0132170670999992000072509004+40710+029810FM-12+001899999V0201001N001012200019N0200001N1+02921+01741101531ADDGA1001+999999999GF100991001001999999001001MD1110021+9999REMSYN064AAXX  25094 17067 42970 01002 10292 20174 40153 51002 333 92408;
0162170670999992000072512004+40710+029810FM-12+001899999V0201101N000512200019N0200001N1+03381+01711101431ADDAA199000091GA1001+999999999GF100991001001999999001001MD1710101+9999REMSYN064AAXX  25124 17067 32970 01101 10338 20171 40143 57010 333 92408;EQDQ01  00002PRCP99
0132170670999992000072515004+40710+029810FM-12+001899999V0201101N001512200019N0200001N1+03361+01581101331ADDGA1001+999999999GF100991001001999999001001MD1710101+9999REMSYN064AAXX  25154 17067 42970 01103 10336 20158 40133 57010 333 92408;
0205170670999992000072606004+40710+029810FM-12+001899999V0201301N001012200019N0200001N1+02401+01941101341ADDAA199000091GA1001+999999999GF100991001001999999001001IA1019IA2999+01709KA1120N+01901MD1110031+9999REMSYN076AAXX  26064 17067 32970 01302 10240 20194 40134 51003 333 20190 30017 92408;EQDQ01  00002PRCP99
0132170670999992000072609004+40710+029810FM-12+001899999V0201201N001012200019N0200001N1+03201+01801101311ADDGA1001+999999999GF100991001001999999001001MD1810031+9999REMSYN064AAXX  26094 17067 42970 01202 10320 20180 40131 58003 333 92408;
0162170670999992000072612004+40710+029810FM-12+001899999V0201201N001512200019N0200001N1+03721+02011101211ADDAA199000091GA1001+999999999GF100991001001999999001001MD1710101+9999REMSYN064AAXX  26124 17067 32970 01203 10372 20201 40121 57010 333 92408;EQDQ01  00002PRCP99
0132170670999992000072615004+40710+029810FM-12+001899999V0200201N001012200019N0200001N1+03441+02001101091ADDGA1001+999999999GF100991001001999999001001MD1710121+9999REMSYN064AAXX  26154 17067 42970 00202 10344 20200 40109 57012 333 92408;
0205170670999992000072706004+40710+029810FM-12+001899999V0200401N000512200019N0200001N1+02501+01921101981ADDAA199000091GA1001+999999999GF100991001001999999001001IA1019IA2999+01709KA1120N+01951MD1110021+9999REMSYN076AAXX  27064 17067 32970 00401 10250 20192 40198 51002 333 20195 30017 92408;EQDQ01  00002PRCP99
0132170670999992000072709004+40710+029810FM-12+001899999V0202801N001012200019N0200001N1+03241+01801100981ADDGA1001+999999999GF100991001001999999001001MD1410001+9999REMSYN064AAXX  27094 17067 42970 02802 10324 20180 40098 54000 333 92408;
0162170670999992000072712004+40710+029810FM-12+001899999V0202701N005112200019N0200001N1+03241+01801100911ADDAA199000091GA1001+999999999GF100991001001999999001001MD1710071+9999REMSYN064AAXX  27124 17067 32970 02710 10324 20180 40091 57007 333 92428;EQDQ01  00002PRCP99
0132170670999992000072715004+40710+029810FM-12+001899999V0202701N002612200019N0200001N1+03481+02141100811ADDGA1001+999999999GF100991001001999999001001MD1710101+9999REMSYN064AAXX  27154 17067 42970 02705 10348 20214 40081 57010 333 92408;
0205170670999992000072806004+40710+029810FM-12+001899999V0201101N001012200019N0200001N1+02661+01781101051ADDAA199000091GA1001+999999999GF100991001001999999001001IA1019IA2999+02009KA1120N+02201MD1110141+9999REMSYN076AAXX  28064 17067 32970 01102 10266 20178 40105 51014 333 20220 30020 92408;EQDQ01  00002PRCP99
0132170670999992000072809004+40710+029810FM-12+001899999V0201101N001012200019N0200001N1+03321+02051101091ADDGA1001+999999999GF100991001001999999001001MD1110041+9999REMSYN064AAXX  28094 17067 42970 01102 10332 20205 40109 51004 333 92408;
0162170670999992000072812004+40710+029810FM-12+001899999V0200901N001512200019N0200001N1+03441+02261101051ADDAA199000091GA1001+999999999GF100991001001999999001001MD1710041+9999REMSYN064AAXX  28124 17067 32970 00903 10344 20226 40105 57004 333 92408;EQDQ01  00002PRCP99
0132170670999992000072815004+40710+029810FM-12+001899999V0200701N001512200019N0200001N1+03081+02201101031ADDGA1001+999999999GF100991001001999999001001MD1810021+9999REMSYN064AAXX  28154 17067 42970 00703 10308 20220 40103 58002 333 92408;
0205170670999992000072906004+40710+029810FM-12+001899999V0201001N001012200019N0200001N1+02561+01721100851ADDAA199000091GA1001+999999999GF100991001001999999001001IA1019IA2999+01909KA1120N+02051MD1810051+9999REMSYN076AAXX  29064 17067 32970 01002 10256 20172 40085 58005 333 20205 30019 92408;EQDQ01  00002PRCP99
0132170670999992000072909004+40710+029810FM-12+001899999V0201101N001512200019N0200001N1+03241+02121100811ADDGA1001+999999999GF100991001001999999001001MD1710051+9999REMSYN064AAXX  29094 17067 42970 01103 10324 20212 40081 57005 333 92408;
0162170670999992000072912004+40710+029810FM-12+001899999V0200701N001012200019N0200001N1+03661+01861100691ADDAA199000091GA1001+999999999GF100991001001999999001001MD1710121+9999REMSYN064AAXX  29124 17067 32970 00702 10366 20186 40069 57012 333 92408;EQDQ01  00002PRCP99
0132170670999992000072915004+40710+029810FM-12+001899999V0202901N001512200019N0200001N1+03541+02251100631ADDGA1001+999999999GF100991001001999999001001MD1710061+9999REMSYN064AAXX  29154 17067 42970 02903 10354 20225 40063 57006 333 92408;
0217170670999992000073006004+40710+029810FM-12+001899999V0201101N001010120019N0200001N1+02801+02241101081ADDAA199000091GA1051+012009089GF105991051021012501001001IA1019IA2999+02009KA1120N+02251MD1710071+9999REMSYN088AAXX  30064 17067 32670 51102 10280 20224 40108 57007 85200 333 20225 30020 85840 92408;EQDQ01  00002PRCP99
0144170670999992000073009004+40710+029810FM-12+001899999V0203301N001512200019N0200001N1+03101+01351101081ADDGA1011+012009089GF101991011011012501001001MD1410001+9999REMSYN076AAXX  30094 17067 42670 13303 10310 20135 40108 54000 81100 333 81840 92408;
0174170670999992000073012004+40710+029810FM-12+001899999V0202901N004612200019N0200001N1+03021+02141101041ADDAA199000091GA1011+012009089GF101991011011012501001001MD1710041+9999REMSYN076AAXX  30124 17067 32670 12909 10302 20214 40104 57004 81100 333 81840 92428;EQDQ01  00002PRCP99
0144170670999992000073015004+40710+029810FM-12+001899999V0202701N002612200019N0200001N1+03021+02141101011ADDGA1031+012009089GF103991031011012501001001MD1710031+9999REMSYN076AAXX  30154 17067 42670 32705 10302 20214 40101 57003 83100 333 83840 92418;
0239170670999992000073106004+40710+029810FM-12+001899999V0200401N000510300019N0200001N1+02541+02241101211ADDAA199000091GA1041+012009089GA2061+030009039GF106991041021012501031001IA1019IA2999+02109KA1120N+02301MD1110031+9999REMSYN094AAXX  31064 17067 32670 60401 10254 20224 40121 51003 84230 333 20230 30021 84840 86360 92408;EQDQ01  00002PRCP99
0166170670999992000073109004+40710+029810FM-12+001899999V0201101N001010300019N0200001N1+02701+02021101241ADDGA1041+012009089GA2061+030009039GF106991041021012501031001MD1110031+9999REMSYN082AAXX  31094 17067 42670 61102 10270 20202 40124 51003 84230 333 84840 86360 92408;
0196170670999992000073112004+40710+029810FM-12+001899999V0203601N004610120019N0200001N1+02721+01901101241ADDAA199000091GA1051+012009089GA2071+030009039GF107991051021012501031001MD1410001+9999REMSYN082AAXX  31124 17067 32670 73609 10272 20190 40124 54000 85230 333 85840 87360 92408;EQDQ01  00002PRCP99
0166170670999992000073115004+40710+029810FM-12+001899999V0203601N002610300019N0200001N1+02841+01741101241ADDGA1031+012009089GA2051+030009039GF106991031021012501031001MD1410001+9999REMSYN082AAXX  31154 17067 42670 63605 10284 20174 40124 54000 83230 333 83840 85360 92418;
0232170670999992000080106004+40710+029810FM-12+001899999V0203101N004110090019N0100001N1+02201+01901101491ADDAA112000791AY121061AY221061GA1071+009009089GF107991071021008001001001IA1019IA2999+01809KA1120N+01981MD1410001+9999MW1801REMSYN100AAXX  01064 17067 11560 73108 10220 20190 40149 54000 69902 78022 87200 333 20198 30018 87830 92417;
0172170670999992000080109004+40710+029810FM-12+001899999V0200301N001510090019N0100001N1+02021+01871101601ADDAY181031AY281031GA1071+009009089GF107991071021008001001001MD1210111+9999MW1801REMSYN082AAXX  01094 17067 41560 70303 10202 20187 40160 52011 78088 87200 333 87830 92407;
0189170670999992000080112004+40710+029810FM-12+001899999V0201301N001010090019N0060001N1+01921+01801101751ADDAA106008991AY181061AY221061GA1071+009009089GF107991071021008001001001MD1210151+9999MW1801REMSYN088AAXX  01124 17067 11556 71302 10192 20180 40175 52015 60091 78082 87200 333 87830 92406;
0172170670999992000080115004+40710+029810FM-12+001899999V0200301N001010108019N0200001N1+01861+01601101751ADDAY181031AY221031GA1071+010809089GF107991071021012501001001MD1410001+9999MW1021REMSYN082AAXX  01154 17067 41670 70302 10186 20160 40175 54000 70282 87200 333 87836 92408;
0204170670999992000080206004+40710+029810FM-12+001899999V0202701N005710108019N0200001N1+02081+01821101721ADDAA124011791GA1061+010809089GF106991061021012501001001IA1099IA2999+01409KA1120N+01551MD1410001+9999REMSYN094AAXX  02064 17067 32670 62711 10208 20182 40172 54000 86200 333 20155 31014 70118 86836 92428;
0144170670999992000080209004+40710+029810FM-12+001899999V0203301N005710108019N0200001N1+02471+01941101741ADDGA1051+010809089GF105991051021012501001001MD1210031+9999REMSYN076AAXX  02094 17067 42670 53311 10247 20194 40174 52003 85200 333 85836 92428;
0174170670999992000080212004+40710+029810FM-12+001899999V0203601N006210108019N0200001N1+02581+01951101761ADDAA199000091GA1051+010809089GF105991051021012501001001MD1210021+9999REMSYN076AAXX  02124 17067 32670 53612 10258 20195 40176 52002 85200 333 85836 92428;EQDQ01  00002PRCP99
0144170670999992000080215004+40710+029810FM-12+001899999V0203601N004610108019N0200001N1+02481+01771101831ADDGA1051+010809089GF105991051021012501001001MD1210071+9999REMSYN076AAXX  02154 17067 42670 53609 10248 20177 40183 52007 85200 333 85836 92428;
0205170670999992000080306004+40710+029810FM-12+001899999V0200501N000512200019N0200001N1+02061+01591102011ADDAA199000091GA1001+999999999GF100991001001999999001001IA1019IA2999+01409KA1120N+01501MD1410001+9999REMSYN076AAXX  03064 17067 32970 00501 10206 20159 40201 54000 333 20150 30014 92408;EQDQ01  00002PRCP99
0144170670999992000080309004+40710+029810FM-12+001899999V0202701N001512200019N0200001N1+02581+01701102031ADDGA1041+012009089GF104991041021012501001001MD1110021+9999REMSYN076AAXX  03094 17067 42670 42703 10258 20170 40203 51002 84200 333 84840 92408;
0174170670999992000080312004+40710+029810FM-12+001899999V0203201N001512200019N0200001N1+02961+01921101991ADDAA199000091GA1041+012009089GF104991041021012501001001MD1810041+9999REMSYN076AAXX  03124 17067 32670 43203 10296 20192 40199 58004 84200 333 84840 92408;EQDQ01  00002PRCP99
0144170670999992000080315004+40710+029810FM-12+001899999V0203601N003112200019N0200001N1+02841+01921101911ADDGA1031+012009089GF103991031021012501001001MD1710081+9999REMSYN076AAXX  03154 17067 42670 33606 10284 20192 40191 57008 83200 333 83840 92428;
0205170670999992000080406004+40710+029810FM-12+001899999V0201301N001512200019N0200001N1+02181+01751101891ADDAA199000091GA1001+999999999GF100991001001999999001001IA1019IA2999+01509KA1120N+01711MD1410001+9999REMSYN076AAXX  04064 17067 32970 01303 10218 20175 40189 54000 333 20171 30015 92408;EQDQ01  00002PRCP99
0132170670999992000080409004+40710+029810FM-12+001899999V0200901N001512200019N0200001N1+02701+01981101891ADDGA1001+999999999GF100991001001999999001001MD1410001+9999REMSYN064AAXX  04094 17067 42970 00903 10270 20198 40189 54000 333 92408;
0162170670999992000080412004+40710+029810FM-12+001899999V0200901N003112200019N0200001N1+02981+01831101761ADDAA199000091GA1001+999999999GF100991001001999999001001MD1710131+9999REMSYN064AAXX  04124 17067 32970 00906 10298 20183 40176 57013 333 92418;EQDQ01  00002PRCP99
0132170670999992000080415004+40710+029810FM-12+001899999V0200901N002612200019N0200001N1+02861+01721101681ADDGA1001+999999999GF100991001001999999001001MD1710081+9999REMSYN064AAXX  04154 17067 42970 00905 10286 20172 40168 57008 333 92418;
0217170670999992000080506004+40710+029810FM-12+001899999V0200901N001012200019N0200001N1+02231+01981101531ADDAA199000091GA1031+012009089GF103991031021012501001001IA1019IA2999+02009KA1120N+02151MD1410001+9999REMSYN088AAXX  05064 17067 32670 30902 10223 20198 40153 54000 83200 333 20215 30020 83840 92408;EQDQ01  00002PRCP99
0132170670999992000080509004+40710+029810FM-12+001899999V0201001N001012200019N0200001N1+02821+01931101531ADDGA1001+999999999GF100991001001999999001001MD1410001+9999REMSYN064AAXX  05094 17067 42970 01002 10282 20193 40153 54000 333 92408;
0162170670999992000080512004+40710+029810FM-12+001899999V0200501N002612200019N0200001N1+03021+02231101471ADDAA199000091GA1001+999999999GF100991001001999999001001MD1710061+9999REMSYN064AAXX  05124 17067 32970 00505 10302 20223 40147 57006 333 92418;EQDQ01  00002PRCP99
0144170670999992000080515004+40710+029810FM-12+001899999V0200601N003112200019N0200001N1+02821+01931101631ADDGA1011+012009089GF101991011011012501001001MD1710041+9999REMSYN076AAXX  05154 17067 42670 10606 10282 20193 40163 57004 81100 333 81840 92418;
0132170670999992000080609004+40710+029810FM-12+001899999V0201101N001012200019N0200001N1+02861+01901101361ADDGA1001+999999999GF100991001001999999001001MD1410001+9999REMSYN064AAXX  06094 17067 42970 01102 10286 20190 40136 54000 333 92408;
0162170670999992000080612004+40710+029810FM-12+001899999V0201101N001012200019N0200001N1+03221+01981101281ADDAA199000091GA1001+999999999GF100991001001999999001001MD1710081+9999REMSYN064AAXX  06124 17067 32970 01102 10322 20198 40128 57008 333 92408;EQDQ01  00002PRCP99
0132170670999992000080615004+40710+029810FM-12+001899999V0200701N001512200019N0200001N1+02981+02181101251ADDGA1001+999999999GF100991001001999999001001MD1710031+9999REMSYN064AAXX  06154 17067 42970 00703 10298 20218 40125 57003 333 92408;
0217170670999992000080706004+40710+029810FM-12+001899999V0201301N001010120019N0200001N1+02441+02111101231ADDAA199000091GA1061+012009089GF106991061021012501001001IA1019IA2999+02209KA1120N+02321MD1410001+9999REMSYN088AAXX  07064 17067 32670 61302 10244 20211 40123 54000 86200 333 20232 30022 86840 92408;EQDQ01  00002PRCP99
0144170670999992000080709004+40710+029810FM-12+001899999V0200901N001512200019N0200001N1+02901+02201101231ADDGA1021+012009089GF102991021011012501001001MD1410001+9999REMSYN076AAXX  07094 17067 42670 20903 10290 20220 40123 54000 82100 333 82840 92408;
0162170670999992000080712004+40710+029810FM-12+001899999V0202901N003112200019N0200001N1+03081+02241101151ADDAA199000091GA1001+999999999GF100991001001999999001001MD1710081+9999REMSYN064AAXX  07124 17067 32970 02906 10308 20224 40115 57008 333 92418;EQDQ01  00002PRCP99
0132170670999992000080715004+40710+029810FM-12+001899999V0202701N003112200019N0200001N1+03001+02251101011ADDGA1001+999999999GF100991001001999999001001MD1710141+9999REMSYN064AAXX  07154 17067 42970 02706 10300 20225 40101 57014 333 92418;
0245170670999992000080806004+40710+029810FM-12+001899999V0201301N001010120019N0100001N1+02341+02001101111ADDAA199000091AY121061AY221061GA1061+012009089GF106991061021012501001001IA1019IA2999+02109KA1120N+02271MD1210071+9999MW1101REMSYN094AAXX  08064 17067 31660 61302 10234 20200 40111 52007 71022 86200 333 20227 30021 86840 92407;EQDQ01  00002PRCP99
0160170670999992000080809004+40710+029810FM-12+001899999V0202701N002612200019N0100001N1+02841+02141101111ADDAY111031AY211031GA1001+999999999GF100991001001999999001001MD1410001+9999MW1051REMSYN070AAXX  08094 17067 41960 02705 10284 20214 40111 54000 70511 333 92417;
0190170670999992000080812004+40710+029810FM-12+001899999V0203001N004112200019N0100001N1+02991+02301101081ADDAA199000091AY111061AY211061GA1001+999999999GF100991001001999999001001MD1810031+9999MW1051REMSYN070AAXX  08124 17067 31960 03008 10299 20230 40108 58003 70511 333 92427;EQDQ01  00002PRCP99
0160170670999992000080815004+40710+029810FM-12+001899999V0202901N003612200019N0100001N1+02941+02221101041ADDAY101031AY201031GA1001+999999999GF100991001001999999001001MD1710041+9999MW1051REMSYN070AAXX  08154 17067 41960 02907 10294 20222 40104 57004 70500 333 92417;
0217170670999992000080906004+40710+029810FM-12+001899999V0200901N000510120019N0200001N1+02441+02171101411ADDAA199000091GA1061+012009089GF106991061021012501001001IA1019IA2999+01909KA1120N+02151MD1110021+9999REMSYN088AAXX  09064 17067 32670 60901 10244 20217 40141 51002 86200 333 20215 30019 86840 92408;EQDQ01  00002PRCP99
0144170670999992000080909004+40710+029810FM-12+001899999V0200901N000512200019N0200001N1+03041+02161101431ADDGA1031+012009089GF103991031021012501001001MD1110021+9999REMSYN076AAXX  09094 17067 42670 30901 10304 20216 40143 51002 83200 333 83840 92408;
0174170670999992000080912004+40710+029810FM-12+001899999V0203401N001512200019N0200001N1+03201+02441101421ADDAA199000091GA1041+012009089GF104991041021012501001001MD1810011+9999REMSYN076AAXX  09124 17067 32670 43403 10320 20244 40142 58001 84200 333 84840 92408;EQDQ01  00002PRCP99
0144170670999992000080915004+40710+029810FM-12+001899999V0203601N003612200019N0200001N1+03001+02041101421ADDGA1041+012009089GF104991041021012501001001MD1410001+9999REMSYN076AAXX  09154 17067 42670 43607 10300 20204 40142 54000 84200 333 84840 92428;
0217170670999992000081006004+40710+029810FM-12+001899999V0200901N001510120019N0200001N1+02401+02111101461ADDAA199000091GA1061+012009089GF106991061021012501001001IA1019IA2999+02209KA1120N+02261MD1410001+9999REMSYN088AAXX  10064 17067 32670 60903 10240 20211 40146 54000 86200 333 20226 30022 86840 92408;EQDQ01  00002PRCP99
0144170670999992000081009004+40710+029810FM-12+001899999V0200901N002112200019N0200001N1+02941+02181101461ADDGA1031+012009089GF103991031021012501001001MD1410001+9999REMSYN076AAXX  10094 17067 42670 30904 10294 20218 40146 54000 83200 333 83840 92408;
0174170670999992000081012004+40710+029810FM-12+001899999V0200401N002612200019N0200001N1+03041+02161101361ADDAA199000091GA1031+012009089GF103991031021012501001001MD1710101+9999REMSYN076AAXX  10124 17067 32670 30405 10304 20216 40136 57010 83200 333 83840 92408;EQDQ01  00002PRCP99
0144170670999992000081015004+40710+029810FM-12+001899999V0200301N004110120019N0200001N1+02941+02221101331ADDGA1051+012009089GF105991051021012501001001MD1610031+9999REMSYN076AAXX  10154 17067 42670 50308 10294 20222 40133 56003 85200 333 85840 92418;
0217170670999992000081106004+40710+029810FM-12+001899999V0201101N001510105019N0200001N1+02461+02261101211ADDAA199000091GA1071+010509089GF107991071021012501001001IA1019IA2999+02209KA1120N+02401MD1410001+9999REMSYN088AAXX  11064 17067 32670 71103 10246 20226 40121 54000 87200 333 20240 30022 87835 92418;EQDQ01  00002PRCP99
0144170670999992000081109004+40710+029810FM-12+001899999V0200901N001010105019N0200001N1+02761+02161101211ADDGA1071+010509089GF107991071021012501001001MD1410001+9999REMSYN076AAXX  11094 17067 42670 70902 10276 20216 40121 54000 87200 333 87835 92408;
0174170670999992000081112004+40710+029810FM-12+001899999V0200901N002610105019N0200001N1+02881+02161101091ADDAA199000091GA1071+010509089GF107991071021012501001001MD1710121+9999REMSYN076AAXX  11124 17067 32670 70905 10288 20216 40109 57012 87200 333 87835 92418;EQDQ01  00002PRCP99
0260170670999992000081206004+40710+029810FM-12+001899999V0209999C000010300019N0200001N1+02681+02151101031ADDAA112000591AY181061AY221061GA1031+012009089GA2051+030009039GF105991031021012501031001IA1099IA2999+02109KA1120N+02251MD1210061+9999MW1021REMSYN112AAXX  12064 17067 11670 50000 10268 20215 40103 52006 69962 70282 83230 333 20225 31021 70006 83840 85360 92408;
0196170670999992000081209004+40710+029810FM-12+001899999V0203601N001510120019N0200001N1+02601+02151101111ADDAA199000091GA1051+012009089GA2071+030009039GF107991051021012501031001MD1110081+9999REMSYN082AAXX  12094 17067 32670 73603 10260 20215 40111 51008 85230 333 85840 87360 92408;EQDQ01  00002PRCP99
0174170670999992000081212004+40710+029810FM-12+001899999V0200501N003110120019N0200001N1+02841+01981101131ADDAA199000091GA1051+012009089GF105991051021012501001001MD1110021+9999REMSYN076AAXX  12124 17067 32670 50506 10284 20198 40113 51002 85200 333 85840 92428;EQDQ01  00002PRCP99
0144170670999992000081215004+40710+029810FM-12+001899999V0200501N002612200019N0200001N1+02781+01881101131ADDGA1041+012009089GF104991041021012501001001MD1410001+9999REMSYN076AAXX  12154 17067 42670 40505 10278 20188 40113 54000 84200 333 84840 92418;
0217170670999992000081306004+40710+029810FM-12+001899999V0201101N001012200019N0200001N1+02501+02161101351ADDAA199000091GA1041+010809089GF104991041021012501001001IA1019IA2999+02009KA1120N+02201MD1410001+9999REMSYN088AAXX  13064 17067 32670 41102 10250 20216 40135 54000 84200 333 20220 30020 84836 92408;EQDQ01  00002PRCP99
0144170670999992000081309004+40710+029810FM-12+001899999V0201201N001012200019N0200001N1+02641+02061101421ADDGA1041+010809089GF104991041021012501001001MD1210071+9999REMSYN076AAXX  13094 17067 42670 41202 10264 20206 40142 52007 84200 333 84836 92408;
0144170670999992000081315004+40710+029810FM-12+001899999V0200101N003612200019N0200001N1+02841+01981101441ADDGA1031+012009089GF103991031021012501001001MD1410001+9999REMSYN076AAXX  13154 17067 42670 30107 10284 20198 40144 54000 83200 333 83840 92418;
0217170670999992000081406004+40710+029810FM-12+001899999V0201001N001012200019N0200001N1+02461+02101101611ADDAA199000091GA1011+012009089GF101991011011012501001001IA1019IA2999+01809KA1120N+02041MD1410001+9999REMSYN088AAXX  14064 17067 32670 11002 10246 20210 40161 54000 81100 333 20204 30018 81840 92408;EQDQ01  00002PRCP99
0144170670999992000081409004+40710+029810FM-12+001899999V0200901N002112200019N0200001N1+02981+02011101631ADDGA1011+012009089GF101991011011012501001001MD1110021+9999REMSYN076AAXX  14094 17067 42670 10904 10298 20201 40163 51002 81100 333 81840 92408;
0174170670999992000081412004+40710+029810FM-12+001899999V0200701N002112200019N0200001N1+03241+02221101591ADDAA199000091GA1021+012009089GF102991021011012501001001MD1810041+9999REMSYN076AAXX  14124 17067 32670 20704 10324 20222 40159 58004 82100 333 82840 92418;EQDQ01  00002PRCP99
0132170670999992000081415004+40710+029810FM-12+001899999V0200401N003612200019N0200001N1+02921+01951101541ADDGA1001+999999999GF100991001001999999001001MD1710051+9999REMSYN064AAXX  14154 17067 42970 00407 10292 20195 40154 57005 333 92428;
0217170670999992000081506004+40710+029810FM-12+001899999V0201301N002112200019N0200001N1+02441+02141101571ADDAA199000091GA1021+012009089GF102991021021012501001001IA1019IA2999+02009KA1120N+02301MD1310021+9999REMSYN088AAXX  15064 17067 32670 21304 10244 20214 40157 53002 82200 333 20230 30020 82840 92418;EQDQ01  00002PRCP99
0162170670999992000081512004+40710+029810FM-12+001899999V0200901N002612200019N0200001N1+03161+02231101411ADDAA199000091GA1001+999999999GF100991001001999999001001MD1710181+9999REMSYN064AAXX  15124 17067 32970 00905 10316 20223 40141 57018 333 92418;EQDQ01  00002PRCP99
0132170670999992000081515004+40710+029810FM-12+001899999V0200901N003112200019N0200001N1+02981+01981101411ADDGA1001+999999999GF100991001001999999001001MD1410001+9999REMSYN064AAXX  15154 17067 42970 00906 10298 20198 40141 54000 333 92428;
0239170670999992000081606004+40710+029810FM-12+001899999V0201301N002612200019N0200001N1+02441+02121101551ADDAA199000091GA1021+012009089GA2041+030009039GF104991021011012501031001IA1019IA2999+02009KA1120N+02201MD1310021+9999REMSYN094AAXX  16064 17067 32670 41305 10244 20212 40155 53002 82130 333 20220 30020 82840 84360 92408;EQDQ01  00002PRCP99
0144170670999992000081609004+40710+029810FM-12+001899999V0201201N001512200019N0200001N1+03041+02041101551ADDGA1021+012009089GF102991021011012501001001MD1410001+9999REMSYN076AAXX  16094 17067 42670 21203 10304 20204 40155 54000 82100 333 82840 92408;
0144170670999992000081615004+40710+029810FM-12+001899999V0200601N002112200019N0200001N1+02981+01981101311ADDGA1021+030009039GF102991021001999999031001MD1710041+9999REMSYN076AAXX  16154 17067 42970 20604 10298 20198 40131 57004 82030 333 82360 92408;
0217170670999992000081706004+40710+029810FM-12+001899999V0201001N001012200019N0200001N1+02461+02111101341ADDAA199000091GA1021+012009089GF102991021011012501001001IA1019IA2999+01909KA1120N+02151MD1410001+9999REMSYN088AAXX  17064 17067 32670 21002 10246 20211 40134 54000 82100 333 20215 30019 82840 92408;EQDQ01  00002PRCP99
0144170670999992000081709004+40710+029810FM-12+001899999V0201101N002112200019N0200001N1+03001+02001101371ADDGA1041+012009089GF104991041021012501001001MD1310031+9999REMSYN076AAXX  17094 17067 42670 41104 10300 20200 40137 53003 84200 333 84840 92418;
0174170670999992000081712004+40710+029810FM-12+001899999V0200801N001510120019N0200001N1+02971+01941101341ADDAA199000091GA1061+012009089GF106991061021012501001001MD1710031+9999REMSYN076AAXX  17124 17067 32670 60803 10297 20194 40134 57003 86200 333 86840 92408;EQDQ01  00002PRCP99
0144170670999992000081715004+40710+029810FM-12+001899999V0200401N003612200019N0200001N1+02821+01981101311ADDGA1021+012009089GF102991021011012501001001MD1610031+9999REMSYN076AAXX  17154 17067 42670 20407 10282 20198 40131 56003 82100 333 82840 92418;
0239170670999992000081806004+40710+029810FM-12+001899999V0201301N001012200019N0200001N1+02441+02101101411ADDAA199000091GA1021+012009089GA2031+030009039GF104991021021012501031001IA1019IA2999+02009KA1120N+02201MD1410001+9999REMSYN094AAXX  18064 17067 32670 41302 10244 20210 40141 54000 82230 333 20220 30020 82840 83360 92408;EQDQ01  00002PRCP99
0144170670999992000081809004+40710+029810FM-12+001899999V0200901N001512200019N0200001N1+02861+01901101471ADDGA1041+012009089GF104991041021012501001001MD1110051+9999REMSYN076AAXX  18094 17067 42670 40903 10286 20190 40147 51005 84200 333 84840 92408;
0174170670999992000081812004+40710+029810FM-12+001899999V0201301N002612200019N0200001N1+02981+01741101471ADDAA199000091GA1041+012009089GF104991041021012501001001MD1410001+9999REMSYN076AAXX  18124 17067 32670 41305 10298 20174 40147 54000 84200 333 84840 92418;EQDQ01  00002PRCP99
0144170670999992000081815004+40710+029810FM-12+001899999V0200801N003112200019N0200001N1+02821+01611101471ADDGA1011+012009089GF101991011011012501001001MD1410001+9999REMSYN076AAXX  18154 17067 42670 10806 10282 20161 40147 54000 81100 333 81840 92428;
0217170670999992000081906004+40710+029810FM-12+001899999V0201201N001012200019N0200001N1+02421+02091101711ADDAA199000091GA1021+012009089GF102991021011012501001001IA1019IA2999+01909KA1120N+02111MD1210071+9999REMSYN088AAXX  19064 17067 32670 21202 10242 20209 40171 52007 82100 333 20211 30019 82840 92408;EQDQ01  00002PRCP99
0144170670999992000081909004+40710+029810FM-12+001899999V0201201N001512200019N0200001N1+03021+02011101741ADDGA1021+012009089GF102991021011012501001001MD1210031+9999REMSYN076AAXX  19094 17067 42670 21203 10302 20201 40174 52003 82100 333 82840 92408;
0174170670999992000081912004+40710+029810FM-12+001899999V0200401N001512200019N0200001N1+03101+02011101741ADDAA199000091GA1021+012009089GF102991021011012501001001MD1410001+9999REMSYN076AAXX  19124 17067 32670 20403 10310 20201 40174 54000 82100 333 82840 92408;EQDQ01  00002PRCP99
0132170670999992000081915004+40710+029810FM-12+001899999V0200301N003612200019N0200001N1+03101+02011101691ADDGA1001+999999999GF100991001001999999001001MD1710051+9999REMSYN064AAXX  19154 17067 42970 00307 10310 20201 40169 57005 333 92418;
0233170670999992000082006004+40710+029810FM-12+001899999V0200901N001012200019N0100001N1+02401+02161101701ADDAA199000091AY101061AY201061GA1001+999999999GF100991001001999999001001IA1019IA2999+01809KA1120N+02101MD1310011+9999MW1101REMSYN082AAXX  20064 17067 31960 00902 10240 20216 40170 53001 71000 333 20210 30018 92408;EQDQ01  00002PRCP99
0144170670999992000082009004+40710+029810FM-12+001899999V0201301N001012200019N0200001N1+03021+02011101701ADDGA1011+012009089GF101991011011012501001001MD1410001+9999REMSYN076AAXX  20094 17067 42670 11302 10302 20201 40170 54000 81100 333 81840 92408;
0174170670999992000082012004+40710+029810FM-12+001899999V0200901N002112200019N0200001N1+03341+02041101491ADDAA199000091GA1011+012009089GF101991011011012501001001MD1710211+9999REMSYN076AAXX  20124 17067 32670 10904 10334 20204 40149 57021 81100 333 81840 92418;EQDQ01  00002PRCP99
0132170670999992000082015004+40710+029810FM-12+001899999V0200501N003112200019N0200001N1+03101+02041101441ADDGA1001+999999999GF100991001001999999001001MD1710051+9999REMSYN064AAXX  20154 17067 42970 00506 10310 20204 40144 57005 333 92418;
0217170670999992000082106004+40710+029810FM-12+001899999V0201101N001512200019N0200001N1+02441+02141101611ADDAA199000091GA1021+012009089GF102991021021012501001001IA1019IA2999+01909KA1120N+02201MD1410001+9999REMSYN088AAXX  21064 17067 32670 21103 10244 20214 40161 54000 82200 333 20220 30019 82840 92408;EQDQ01  00002PRCP99
0132170670999992000082109004+40710+029810FM-12+001899999V0201201N001512200019N0200001N1+03201+01821101511ADDGA1001+999999999GF100991001001999999001001MD1410001+9999REMSYN064AAXX  21094 17067 42970 01203 10320 20182 40151 54000 333 92408;
0162170670999992000082112004+40710+029810FM-12+001899999V0200901N003112200019N0200001N1+03281+01821101411ADDAA199000091GA1001+999999999GF100991001001999999001001MD1810101+9999REMSYN064AAXX  21124 17067 32970 00906 10328 20182 40141 58010 333 92428;EQDQ01  00002PRCP99
0132170670999992000082115004+40710+029810FM-12+001899999V0203601N004112200019N0200001N1+03041+01591101411ADDGA1001+999999999GF100991001001999999001001MD1410001+9999REMSYN064AAXX  21154 17067 42970 03608 10304 20159 40141 54000 333 92438;
0245170670999992000082206004+40710+029810FM-12+001899999V0201201N001512200019N0100001N1+02441+02141101411ADDAA199000091AY101061AY201061GA1041+012009089GF104991041021012501001001IA1019IA2999+02009KA1120N+02281MD1410001+9999MW1101REMSYN094AAXX  22064 17067 31660 41203 10244 20214 40141 54000 71000 84200 333 20228 30020 84840 92407;EQDQ01  00002PRCP99
0162170670999992000082212004+40710+029810FM-12+001899999V0201201N001512200019N0200001N1+03461+02291101311ADDAA199000091GA1001+999999999GF100991001001999999001001MD1810121+9999REMSYN064AAXX  22124 17067 32970 01203 10346 20229 40131 58012 333 92408;EQDQ01  00002PRCP99
0132170670999992000082215004+40710+029810FM-12+001899999V0200701N002612200019N0200001N1+03061+01841101311ADDGA1001+999999999GF100991001001999999001001MD1410001+9999REMSYN064AAXX  22154 17067 42970 00705 10306 20184 40131 54000 333 92418;
0233170670999992000082306004+40710+029810FM-12+001899999V0200901N001012200019N0100001N1+02721+02271101441ADDAA199000091AY101061AY201061GA1001+999999999GF100991001001999999001001IA1019IA2999+02109KA1120N+02381MD1710081+9999MW1101REMSYN082AAXX  23064 17067 31960 00902 10272 20227 40144 57008 71000 333 20238 30021 92407;EQDQ01  00002PRCP99
0132170670999992000082309004+40710+029810FM-12+001899999V0201301N001512200019N0200001N1+03301+02191101471ADDGA1001+999999999GF100991001001999999001001MD1210031+9999REMSYN064AAXX  23094 17067 42970 01303 10330 20219 40147 52003 333 92408;
0162170670999992000082312004+40710+029810FM-12+001899999V0200701N003112200019N0200001N1+03301+02191101431ADDAA199000091GA1001+999999999GF100991001001999999001001MD1710041+9999REMSYN064AAXX  23124 17067 32970 00706 10330 20219 40143 57004 333 92408;EQDQ01  00002PRCP99
0132170670999992000082315004+40710+029810FM-12+001899999V0203601N002112200019N0200001N1+03181+01931101411ADDGA1001+999999999GF100991001001999999001001MD1610021+9999REMSYN064AAXX  23154 17067 42970 03604 10318 20193 40141 56002 333 92408;
0205170670999992000082406004+40710+029810FM-12+001899999V0201101N001012200019N0200001N1+02401+01971101431ADDAA199000091GA1001+999999999GF100991001001999999001001IA1019IA2999+01809KA1120N+02001MD1310021+9999REMSYN076AAXX  24064 17067 32970 01102 10240 20197 40143 53002 333 20200 30018 92408;EQDQ01  00002PRCP99
0132170670999992000082409004+40710+029810FM-12+001899999V0200901N001012200019N0200001N1+03101+02101101451ADDGA1001+999999999GF100991001001999999001001MD1110021+9999REMSYN064AAXX  24094 17067 42970 00902 10310 20210 40145 51002 333 92408;
0162170670999992000082412004+40710+029810FM-12+001899999V0201101N001012200019N0200001N1+03561+01911101311ADDAA199000091GA1001+999999999GF100991001001999999001001MD1710141+9999REMSYN064AAXX  24124 17067 32970 01102 10356 20191 40131 57014 333 92408;EQDQ01  00002PRCP99
0132170670999992000082415004+40710+029810FM-12+001899999V0203601N005112200019N0200001N1+03201+02111101311ADDGA1001+999999999GF100991001001999999001001MD1410001+9999REMSYN064AAXX  24154 17067 42970 03610 10320 20211 40131 54000 333 92428;
0217170670999992000082506004+40710+029810FM-12+001899999V0201201N001010120019N0200001N1+02541+02201101411ADDAA199000091GA1061+012009089GF106991061021012501001001IA1019IA2999+02009KA1120N+02361MD1410001+9999REMSYN088AAXX  25064 17067 32670 61202 10254 20220 40141 54000 86200 333 20236 30020 86840 92408;EQDQ01  00002PRCP99
0144170670999992000082509004+40710+029810FM-12+001899999V0201201N001510120019N0200001N1+03021+02021101361ADDGA1051+012009089GF105991051021012501001001MD1810051+9999REMSYN076AAXX  25094 17067 42670 51203 10302 20202 40136 58005 85200 333 85840 92408;
0174170670999992000082512004+40710+029810FM-12+001899999V0201201N002112200019N0200001N1+03101+01781101211ADDAA199000091GA1021+012009089GF102991021011012501001001MD1710151+9999REMSYN076AAXX  25124 17067 32670 21204 10310 20178 40121 57015 82100 333 82840 92418;EQDQ01  00002PRCP99
0166170670999992000082515004+40710+029810FM-12+001899999V0201201N002610300019N0200001N1+02821+01751101151ADDGA1031+012009089GA2041+030009039GF105991031021012501031001MD1510061+9999REMSYN082AAXX  25154 17067 42670 51205 10282 20175 40115 55006 83230 333 83840 84360 92418;
0205170670999992000082606004+40710+029810FM-12+001899999V0200701N001012200019N0200001N1+02181+01621101011ADDAA199000091GA1001+999999999GF100991001001999999001001IA1019IA2999+01609KA1120N+01821MD1610021+9999REMSYN076AAXX  26064 17067 32970 00702 10218 20162 40101 56002 333 20182 30016 92408;EQDQ01  00002PRCP99
0144170670999992000082609004+40710+029810FM-12+001899999V0202701N002612200019N0200001N1+02721+01911100971ADDGA1031+012009089GF103991031021012501001001MD1810041+9999REMSYN076AAXX  26094 17067 42670 32705 10272 20191 40097 58004 83200 333 83840 92418;
0174170670999992000082612004+40710+029810FM-12+001899999V0203601N001512200019N0200001N1+02861+01861100961ADDAA199000091GA1041+012009089GF104991041021012501001001MD1610011+9999REMSYN076AAXX  26124 17067 32670 43603 10286 20186 40096 56001 84200 333 84840 92408;EQDQ01  00002PRCP99
0144170670999992000082615004+40710+029810FM-12+001899999V0200701N001510108019N0200001N1+02401+01551101061ADDGA1061+010809089GF106991061021012501001001MD1210101+9999REMSYN076AAXX  26154 17067 42670 60703 10240 20155 40106 52010 86200 333 86836 92408;
0260170670999992000082706004+40710+029810FM-12+001899999V0201901N001010108019N0200001N1+01621+01541101421ADDAA112007191AY181061AY221061GA1051+010809089GA2071+030009039GF107991051021012501031001IA1119IA2999+01409KA1120N+01501MD1110181+9999MW1021REMSYN112AAXX  27064 17067 11670 71902 10162 20154 40142 51018 60072 70282 85230 333 20150 32014 70070 85836 87360 92408;
0144170670999992000082709004+40710+029810FM-12+001899999V0202901N003112200019N0200001N1+02281+01501101461ADDGA1041+010809089GF104991041021012501001001MD1110051+9999REMSYN076AAXX  27094 17067 42670 42906 10228 20150 40146 51005 84200 333 84836 92428;
0174170670999992000082712004+40710+029810FM-12+001899999V0203601N001512200019N0200001N1+02141+01101101561ADDAA199000091GA1041+010809089GF104991041021012501001001MD1210111+9999REMSYN076AAXX  27124 17067 32670 43603 10214 20110 40156 52011 84200 333 84836 92408;EQDQ01  00002PRCP99
0172170670999992000082715004+40710+029810FM-12+001899999V0201601N001510108019N0200001N1+01861+01461101571ADDAY191031AY211031GA1051+010809089GF105991051021012501001001MD1310021+9999MW1021REMSYN082AAXX  27154 17067 41670 51603 10186 20146 40157 53002 70291 85200 333 85836 92408;
0204170670999992000082806004+40710+029810FM-12+001899999V0202701N004112200019N0200001N1+02021+01741101641ADDAA124003391GA1041+012009089GF104991041021012501001001IA1119IA2999+01209KA1120N+01421MD1310041+9999REMSYN094AAXX  28064 17067 32670 42708 10202 20174 40164 53004 84200 333 20142 32012 70033 84840 92428;
0144170670999992000082809004+40710+029810FM-12+001899999V0202701N004112200019N0200001N1+02441+01941101701ADDGA1041+012009089GF104991041021012501001001MD1210061+9999REMSYN076AAXX  28094 17067 42670 42708 10244 20194 40170 52006 84200 333 84840 92428;
0174170670999992000082812004+40710+029810FM-12+001899999V0202701N004612200019N0200001N1+02541+01701101691ADDAA199000091GA1031+012009089GF103991031021012501001001MD1410001+9999REMSYN076AAXX  28124 17067 32670 32709 10254 20170 40169 54000 83200 333 83840 92428;EQDQ01  00002PRCP99
0144170670999992000082815004+40710+029810FM-12+001899999V0202501N003112200019N0200001N1+02441+01681101681ADDGA1031+012009089GF103991031021012501001001MD1410001+9999REMSYN076AAXX  28154 17067 42670 32506 10244 20168 40168 54000 83200 333 83840 92418;
0217170670999992000082906004+40710+029810FM-12+001899999V0200401N000512200019N0200001N1+02181+01601101711ADDAA199000091GA1031+010809089GF103991031021012501001001IA1019IA2999+01409KA1120N+01631MD1410001+9999REMSYN088AAXX  29064 17067 32670 30401 10218 20160 40171 54000 83200 333 20163 30014 83836 92408;EQDQ01  00002PRCP99
0144170670999992000082909004+40710+029810FM-12+001899999V0202901N001010108019N0200001N1+02621+01781101711ADDGA1061+010809089GF106991061021012501001001MD1410001+9999REMSYN076AAXX  29094 17067 42670 62902 10262 20178 40171 54000 86200 333 86836 92408;
0174170670999992000082912004+40710+029810FM-12+001899999V0201501N001510108019N0200001N1+02421+01641101711ADDAA199000091GA1061+010809089GF106991061021012501001001MD1410001+9999REMSYN076AAXX  29124 17067 32670 61503 10242 20164 40171 54000 86200 333 86836 92408;EQDQ01  00002PRCP99
0172170670999992000082915004+40710+029810FM-12+001899999V0203601N004110108019N0200001N1+02381+01561101671ADDAY181031AY221031GA1061+010809089GF106991061021012501001001MD1810041+9999MW1251REMSYN082AAXX  29154 17067 41670 63608 10238 20156 40167 58004 72582 86200 333 86836 92418;
0260170670999992000083006004+40710+029810FM-12+001899999V0201901N001510090019N0100001N1+01821+01701101571ADDAA112004191AY181061AY221061GA1051+009009089GA2061+030009039GF107991051021008001031001IA1119IA2999+01409KA1120N+01651MD1610041+9999MW1801REMSYN112AAXX  30064 17067 11560 71903 10182 20170 40157 56004 60042 78082 85230 333 20165 32014 70043 85830 86360 92407;
0172170670999992000083009004+40710+029810FM-12+001899999V0203401N001010108019N0200001N1+02181+01791101591ADDAY181031AY221031GA1051+010809089GF105991051021012501001001MD1110021+9999MW1021REMSYN082AAXX  30094 17067 41670 53402 10218 20179 40159 51002 70282 85200 333 85836 92408;
0189170670999992000083012004+40710+029810FM-12+001899999V0201601N001010108019N0200001N1+02241+01841101591ADDAA106009991AY181061AY221061GA1051+010809089GF105991051021012501001001MD1410001+9999MW1021REMSYN088AAXX  30124 17067 11670 51602 10224 20184 40159 54000 60101 70282 85200 333 85836 92408;
0144170670999992000083015004+40710+029810FM-12+001899999V0203601N003112200019N0200001N1+02341+01441101591ADDGA1041+010809089GF104991041021012501001001MD1410001+9999REMSYN076AAXX  30154 17067 42670 43606 10234 20144 40159 54000 84200 333 84836 92428;
0204170670999992000083106004+40710+029810FM-12+001899999V0200901N001012200019N0200001N1+01961+01711101761ADDAA124010291GA1031+012009089GF103991031021012501001001IA1119IA2999+01209KA1120N+01401MD1110041+9999REMSYN094AAXX  31064 17067 32670 30902 10196 20171 40176 51004 83200 333 20140 32012 70102 83840 92408;
0144170670999992000083109004+40710+029810FM-12+001899999V0200501N001012200019N0200001N1+02461+01431101691ADDGA1031+012009089GF103991031021012501001001MD1610061+9999REMSYN076AAXX  31094 17067 42670 30502 10246 20143 40169 56006 83200 333 83840 92408;
0174170670999992000083112004+40710+029810FM-12+001899999V0201001N001012200019N0200001N1+02721+01391101691ADDAA199000091GA1021+012009089GF102991021011012501001001MD1410001+9999REMSYN076AAXX  31124 17067 32670 21002 10272 20139 40169 54000 82100 333 82840 92408;EQDQ01  00002PRCP99
0144170670999992000083115004+40710+029810FM-12+001899999V0200601N001012200019N0200001N1+02721+01631101591ADDGA1011+012009089GF101991011011012501001001MD1810101+9999REMSYN076AAXX  31154 17067 42670 10602 10272 20163 40159 58010 81100 333 81840 92408;
0217170670999992000090106004+40710+029810FM-12+001899999V0200701N002112200019N0200001N1+02001+01601101381ADDAA199000091GA1011+012009089GF101991011011012501001001IA1019IA2999+01409KA1120N+01661MD1810021+9999REMSYN088AAXX  01064 17067 32670 10704 10200 20160 40138 58002 81100 333 20166 30014 81840 92418;EQDQ01  00002PRCP99
0132170670999992000090109004+40710+029810FM-12+001899999V0200901N001012200019N0200001N1+02691+01691101321ADDGA1001+999999999GF100991001001999999001001MD1710061+9999REMSYN064AAXX  01094 17067 42970 00902 10269 20169 40132 57006 333 92408;
0162170670999992000090112004+40710+029810FM-12+001899999V0203601N000512200019N0200001N1+03191+01561101141ADDAA199000091GA1001+999999999GF100991001001999999001001MD1710081+9999REMSYN064AAXX  01124 17067 32970 03601 10319 20156 40114 57008 333 92408;EQDQ01  00002PRCP99
0132170670999992000090115004+40710+029810FM-12+001899999V0201301N000512200019N0200001N1+03191+01561100921ADDGA1001+999999999GF100991001001999999001001MD1710221+9999REMSYN064AAXX  01154 17067 42970 01301 10319 20156 40092 57022 333 92408;
0217170670999992000090206004+40710+029810FM-12+001899999V0201001N000512200019N0200001N1+02181+01881100771ADDAA199000091GA1031+012009089GF103991031021012501001001IA1019IA2999+01609KA1120N+01951MD1110061+9999REMSYN088AAXX  02064 17067 32670 31001 10218 20188 40077 51006 83200 333 20195 30016 83840 92408;EQDQ01  00002PRCP99
0166170670999992000090209004+40710+029810FM-12+001899999V0202901N003112200019N0200001N1+02621+02021100811ADDGA1021+012009089GA2031+030009039GF104991021021012501031001MD1210041+9999REMSYN082AAXX  02094 17067 42670 42906 10262 20202 40081 52004 82230 333 82840 83360 92428;
0174170670999992000090212004+40710+029810FM-12+001899999V0202701N003112200019N0200001N1+02841+01831100811ADDAA199000091GA1011+012009089GF101991011011012501001001MD1410001+9999REMSYN076AAXX  02124 17067 32670 12706 10284 20183 40081 54000 81100 333 81840 92428;EQDQ01  00002PRCP99
0132170670999992000090215004+40710+029810FM-12+001899999V0202701N004112200019N0200001N1+02701+01721100811ADDGA1001+999999999GF100991001001999999001001MD1410001+9999REMSYN064AAXX  02154 17067 42970 02708 10270 20172 40081 54000 333 92428;
0205170670999992000090306004+40710+029810FM-12+001899999V0201201N001012200019N0200001N1+02201+01741100911ADDAA199000091GA1001+999999999GF100991001001999999001001IA1019IA2999+01509KA1120N+01821MD1410001+9999REMSYN076AAXX  03064 17067 32970 01202 10220 20174 40091 54000 333 20182 30015 92408;EQDQ01  00002PRCP99
0144170670999992000090309004+40710+029810FM-12+001899999V0200901N001012200019N0200001N1+02901+01981100931ADDGA1011+012009089GF101991011011012501001001MD1110021+9999REMSYN076AAXX  03094 17067 42670 10902 10290 20198 40093 51002 81100 333 81840 92408;
0174170670999992000090312004+40710+029810FM-12+001899999V0200801N001012200019N0200001N1+03251+01521100881ADDAA199000091GA1021+012009089GF102991021011012501001001MD1810051+9999REMSYN076AAXX  03124 17067 32670 20802 10325 20152 40088 58005 82100 333 82840 92408;EQDQ01  00002PRCP99
0144170670999992000090315004+40710+029810FM-12+001899999V0202701N004612200019N0200001N1+02781+01901100861ADDGA1011+012009089GF101991011011012501001001MD1610021+9999REMSYN076AAXX  03154 17067 42670 12709 10278 20190 40086 56002 81100 333 81840 92418;
0205170670999992000090406004+40710+029810FM-12+001899999V0201301N001512200019N0200001N1+02221+01731101051ADDAA199000091GA1001+999999999GF100991001001999999001001IA1019IA2999+01609KA1120N+01851MD1210121+9999REMSYN076AAXX  04064 17067 32970 01303 10222 20173 40105 52012 333 20185 30016 92408;EQDQ01  00002PRCP99
0132170670999992000090409004+40710+029810FM-12+001899999V0200501N001512200019N0200001N1+02881+01631101091ADDGA1001+999999999GF100991001001999999001001MD1210041+9999REMSYN064AAXX  04094 17067 42970 00503 10288 20163 40109 52004 333 92408;
0174170670999992000090412004+40710+029810FM-12+001899999V0200401N001012200019N0200001N1+03441+02451101031ADDAA199000091GA1011+012009089GF101991011011012501001001MD1710061+9999REMSYN076AAXX  04124 17067 32670 10402 10344 20245 40103 57006 81100 333 81840 92408;EQDQ01  00002PRCP99
0132170670999992000090415004+40710+029810FM-12+001899999V0200901N001012200019N0200001N1+03101+01781100991ADDGA1001+999999999GF100991001001999999001001MD1710041+9999REMSYN064AAXX  04154 17067 42970 00902 10310 20178 40099 57004 333 92408;
0205170670999992000090506004+40710+029810FM-12+001899999V0200901N000512200019N0200001N1+02401+01681101031ADDAA199000091GA1001+999999999GF100991001001999999001001IA1019IA2999+01609KA1120N+02001MD1310021+9999REMSYN076AAXX  05064 17067 32970 00901 10240 20168 40103 53002 333 20200 30016 92408;EQDQ01  00002PRCP99
0132170670999992000090509004+40710+029810FM-12+001899999V0203601N001512200019N0200001N1+02941+01861100941ADDGA1001+999999999GF100991001001999999001001MD1710091+9999REMSYN064AAXX  05094 17067 42970 03603 10294 20186 40094 57009 333 92408;
0162170670999992000090512004+40710+029810FM-12+001899999V0203601N003612200019N0200001N1+02941+02161100751ADDAA199000091GA1001+999999999GF100991001001999999001001MD1710191+9999REMSYN064AAXX  05124 17067 32970 03607 10294 20216 40075 57019 333 92428;EQDQ01  00002PRCP99
0144170670999992000090515004+40710+029810FM-12+001899999V0202901N003612200019N0200001N1+02801+01941100611ADDGA1021+060009009GF102991001001999999001011MD1710141+9999REMSYN076AAXX  05154 17067 42970 22907 10280 20194 40061 57014 80001 333 82070 92428;
0260170670999992000090606004+40710+029810FM-12+001899999V0201301N001510090019N0060001N1+01841+01781100721ADDAA112022191AY121061AY221061GA1021+006009099GA2051+009009089GF107991071091008001001001IA1119IA2999+01709KA1120N+01801MD1410001+9999MW1951REMSYN112AAXX  06064 17067 11556 71303 10184 20178 40072 54000 60222 79522 87900 333 20180 32017 70221 82920 85830 92406;
0194170670999992000090609004+40710+029810FM-12+001899999V0202401N001010090019N0200001N1+01781+01721100831ADDAY191031AY291031GA1021+007509099GA2051+009009089GF107991071031008001001001MD1210111+9999MW1291REMSYN088AAXX  06094 17067 41570 72402 10178 20172 40083 52011 72999 87300 333 82925 85830 92408;
0211170670999992000090612004+40710+029810FM-12+001899999V0202901N003610090019N0050001N1+01781+01721100871ADDAA106022191AY191061AY281061GA1021+006009099GA2051+009009089GF107991071091008001001001MD1110041+9999MW1951REMSYN094AAXX  06124 17067 11550 72907 10178 20172 40087 51004 60221 79598 87900 333 82920 85830 92416;
0172170670999992000090615004+40710+029810FM-12+001899999V0202501N003610090019N0200001N1+01901+01491100871ADDAY191031AY221031GA1051+009009089GF105991051021008001001001MD1410001+9999MW1011REMSYN082AAXX  06154 17067 41570 52507 10190 20149 40087 54000 70192 85200 333 85830 92418;
0238170670999992000090706004+40710+029810FM-12+001899999V0202501N002112200019N0200001N1+01701+01421101101ADDAA112002091AY181061AY281061GA1041+010809089GF104991041021008001001001IA1119IA2999+01409KA1120N+01541MD1210061+9999MW1021REMSYN106AAXX  07064 17067 11570 42504 10170 20142 40110 52006 60022 70288 84200 333 20154 32014 70277 84836 92418;
0144170670999992000090709004+40710+029810FM-12+001899999V0202501N003112200019N0200001N1+01961+01281101221ADDGA1041+010809089GF104991041021012501001001MD1310021+9999REMSYN076AAXX  07094 17067 42670 42506 10196 20128 40122 53002 84200 333 84836 92418;
0174170670999992000090712004+40710+029810FM-12+001899999V0202401N002110108019N0200001N1+02101+01231101221ADDAA199000091GA1051+010809089GF105991051021012501001001MD1410001+9999REMSYN076AAXX  07124 17067 32670 52404 10210 20123 40122 54000 85200 333 85836 92408;EQDQ01  00002PRCP99
0144170670999992000090715004+40710+029810FM-12+001899999V0201201N001012200019N0200001N1+02141+01261101211ADDGA1021+010809089GF102991021011012501001001MD1410001+9999REMSYN076AAXX  07154 17067 42670 21202 10214 20126 40121 54000 82100 333 82836 92408;
0217170670999992000090806004+40710+029810FM-12+001899999V0201301N001012200019N0200001N1+01661+01201101621ADDAA199000091GA1011+060009009GF101991001001999999001011IA1099IA2999+01009KA1120N+01321MD1210121+9999REMSYN088AAXX  08064 17067 32970 11302 10166 20120 40162 52012 80001 333 20132 31010 81070 92408;EQDQ01  00002PRCP99
0144170670999992000090809004+40710+029810FM-12+001899999V0200901N001512200019N0200001N1+02281+01311101821ADDGA1011+060009009GF101991001001999999001011MD1110201+9999REMSYN076AAXX  08094 17067 42970 10903 10228 20131 40182 51020 80001 333 81070 92408;
0196170670999992000090812004+40710+029810FM-12+001899999V0201301N002612200019N0200001N1+02541+01301101741ADDAA199000091GA1011+012009089GA2031+060009009GF103991011011012501001011MD1210021+9999REMSYN082AAXX  08124 17067 32670 31305 10254 20130 40174 52002 81101 333 81840 83070 92408;EQDQ01  00002PRCP99
0166170670999992000090815004+40710+029810FM-12+001899999V0203601N003112200019N0200001N1+02381+01361101701ADDGA1011+012009089GA2031+060009009GF103991011011012501001011MD1610041+9999REMSYN082AAXX  08154 17067 42670 33606 10238 20136 40170 56004 81101 333 81840 83070 92428;
0217170670999992000090906004+40710+029810FM-12+001899999V0201201N001512200019N0200001N1+02141+01921102211ADDAA199000091GA1011+012009089GF101991011011012501001001IA1019IA2999+01409KA1120N+01641MD1210101+9999REMSYN088AAXX  09064 17067 32670 11203 10214 20192 40221 52010 81100 333 20164 30014 81840 92408;EQDQ01  00002PRCP99
0144170670999992000090909004+40710+029810FM-12+001899999V0200901N001512200019N0200001N1+02501+02001102291ADDGA1031+012009089GF103991031021012501001001MD1210081+9999REMSYN076AAXX  09094 17067 42670 30903 10250 20200 40229 52008 83200 333 83840 92408;
0174170670999992000090912004+40710+029810FM-12+001899999V0200501N003610120019N0200001N1+02301+01521102311ADDAA199000091GA1051+012009089GF105991051021012501001001MD1110021+9999REMSYN076AAXX  09124 17067 32670 50507 10230 20152 40231 51002 85200 333 85840 92418;EQDQ01  00002PRCP99
0144170670999992000090915004+40710+029810FM-12+001899999V0200401N004110120019N0200001N1+02301+01521102311ADDGA1051+012009089GF105991051021012501001001MD1410001+9999REMSYN076AAXX  09154 17067 42670 50408 10230 20152 40231 54000 85200 333 85840 92418;
0205170670999992000091006004+40710+029810FM-12+001899999V0201001N001512200019N0200001N1+01961+01611102321ADDAA199000091GA1001+999999999GF100991001001999999001001IA1099IA2999+01209KA1120N+01501MD1710061+9999REMSYN076AAXX  10064 17067 32970 01003 10196 20161 40232 57006 333 20150 31012 92408;EQDQ01  00002PRCP99
0144170670999992000091009004+40710+029810FM-12+001899999V0200901N002612200019N0200001N1+02461+01341102281ADDGA1011+012009089GF101991011011012501001001MD1710031+9999REMSYN076AAXX  10094 17067 42670 10905 10246 20134 40228 57003 81100 333 81840 92418;
0174170670999992000091012004+40710+029810FM-12+001899999V0201201N001512200019N0200001N1+02641+01661102151ADDAA199000091GA1011+012009089GF101991011011012501001001MD1710131+9999REMSYN076AAXX  10124 17067 32670 11203 10264 20166 40215 57013 81100 333 81840 92418;EQDQ01  00002PRCP99
0144170670999992000091015004+40710+029810FM-12+001899999V0200701N002612200019N0200001N1+02441+01641102041ADDGA1021+012009089GF102991021011012501001001MD1710111+9999REMSYN076AAXX  10154 17067 42670 20705 10244 20164 40204 57011 82100 333 82840 92418;
0205170670999992000091106004+40710+029810FM-12+001899999V0201101N001012200019N0200001N1+01901+01601101521ADDAA199000091GA1001+999999999GF100991001001999999001001IA1019IA2999+01409KA1120N+01501MD1710101+9999REMSYN076AAXX  11064 17067 32970 01102 10190 20160 40152 57010 333 20150 30014 92408;EQDQ01  00002PRCP99
0144170670999992000091109004+40710+029810FM-12+001899999V0200901N001512200019N0200001N1+02481+01901101411ADDGA1011+012009089GF101991011011012501001001MD1810101+9999REMSYN076AAXX  11094 17067 42670 10903 10248 20190 40141 58010 81100 333 81840 92408;
0196170670999992000091112004+40710+029810FM-12+001899999V0200901N001012200019N0200001N1+02801+02061101251ADDAA199000091GA1011+012009089GA2031+060009009GF103991011011012501001011MD1710161+9999REMSYN082AAXX  11124 17067 32670 30902 10280 20206 40125 57016 81101 333 81840 83070 92408;EQDQ01  00002PRCP99
0144170670999992000091115004+40710+029810FM-12+001899999V0203101N000512200019N0200001N1+02701+02081101151ADDGA1021+012009089GF102991021011012501001001MD1710101+9999REMSYN076AAXX  11154 17067 42670 23101 10270 20208 40115 57010 82100 333 82840 92408;
0245170670999992000091206004+40710+029810FM-12+001899999V0201201N001010108019N0100001N1+02081+01781101011ADDAA199000091AY121061AY221061GA1061+010809089GF106991061021012501001001IA1019IA2999+01809KA1120N+01981MD1410001+9999MW1101REMSYN094AAXX  12064 17067 31660 61202 10208 20178 40101 54000 71022 86200 333 20198 30018 86836 92407;EQDQ01  00002PRCP99
0172170670999992000091209004+40710+029810FM-12+001899999V0202601N001010090019N0100001N1+02221+02021101011ADDAY121031AY221031GA1071+009009089GF107991071021008001001001MD1410001+9999MW1801REMSYN082AAXX  12094 17067 41560 72602 10222 20202 40101 54000 78022 87200 333 87830 92407;
0189170670999992000091212004+40710+029810FM-12+001899999V0203001N001510090019N0100001N1+02161+01931101031ADDAA106000591AY121061AY221061GA1071+009009089GF107991071021008001001001MD1310021+9999MW1801REMSYN088AAXX  12124 17067 11560 73003 10216 20193 40103 53002 69951 78022 87200 333 87830 92407;
0172170670999992000091215004+40710+029810FM-12+001899999V0200901N001010108019N0200001N1+02021+01801101031ADDAY181031AY221031GA1071+010809089GF107991071021012501001001MD1410001+9999MW1021REMSYN082AAXX  12154 17067 41670 70902 10202 20180 40103 54000 70282 87200 333 87836 92408;
0238170670999992000091306004+40710+029810FM-12+001899999V0201401N000510090019N0200001N1+01941+01851101321ADDAA112000891AY181061AY281061GA1071+009009089GF107991071021008001001001IA1119IA2999+01709KA1120N+01851MD1210081+9999MW1021REMSYN106AAXX  13064 17067 11570 71401 10194 20185 40132 52008 69982 70288 87200 333 20185 32017 70018 87830 92408;
0172170670999992000091309004+40710+029810FM-12+001899999V0201501N001510090019N0100001N1+01961+01721101401ADDAY121031AY221031GA1071+009009089GF107991071021008001001001MD1210091+9999MW1811REMSYN082AAXX  13094 17067 41560 71503 10196 20172 40140 52009 78122 87200 333 87830 92407;
0189170670999992000091312004+40710+029810FM-12+001899999V0201901N001010108019N0200001N1+02321+01881101411ADDAA106002091AY181061AY221061GA1051+010809089GF105991051021012501001001MD1110011+9999MW1251REMSYN088AAXX  13124 17067 11670 51902 10232 20188 40141 51001 60021 72582 85200 333 85836 92408;
0144170670999992000091315004+40710+029810FM-12+001899999V0200501N002610108019N0200001N1+02321+01881101411ADDGA1051+010809089GF105991051021012501001001MD1410001+9999REMSYN076AAXX  13154 17067 42670 50505 10232 20188 40141 54000 85200 333 85836 92418;
0204170670999992000091406004+40710+029810FM-12+001899999V0201301N000510120019N0200001N1+02001+01821101471ADDAA124002391GA1051+012009089GF105991051021012501001001IA1019IA2999+01609KA1120N+01901MD1410001+9999REMSYN094AAXX  14064 17067 32670 51301 10200 20182 40147 54000 85200 333 20190 30016 70022 85840 92408;
0144170670999992000091409004+40710+029810FM-12+001899999V0200701N001012200019N0200001N1+02581+01861101471ADDGA1021+012009089GF102991021011012501001001MD1410001+9999REMSYN076AAXX  14094 17067 42670 20702 10258 20186 40147 54000 82100 333 82840 92408;
0174170670999992000091412004+40710+029810FM-12+001899999V0200901N001012200019N0200001N1+02861+01871101401ADDAA199000091GA1021+012009089GF102991021011012501001001MD1710071+9999REMSYN076AAXX  14124 17067 32670 20902 10286 20187 40140 57007 82100 333 82840 92408;EQDQ01  00002PRCP99
0144170670999992000091415004+40710+029810FM-12+001899999V0203601N001012200019N0200001N1+02561+01861101331ADDGA1021+012009089GF102991021021012501001001MD1710071+9999REMSYN076AAXX  14154 17067 42670 23602 10256 20186 40133 57007 82200 333 82840 92408;
0205170670999992000091506004+40710+029810FM-12+001899999V0200601N000512200019N0200001N1+01881+01641101361ADDAA199000091GA1001+999999999GF100991001001999999001001IA1019IA2999+01409KA1120N+01631MD1410001+9999REMSYN076AAXX  15064 17067 32970 00601 10188 20164 40136 54000 333 20163 30014 92408;EQDQ01  00002PRCP99
0132170670999992000091509004+40710+029810FM-12+001899999V0203401N001012200019N0200001N1+02401+01801101381ADDGA1001+999999999GF100991001001999999001001MD1110031+9999REMSYN064AAXX  15094 17067 42970 03402 10240 20180 40138 51003 333 92408;
0162170670999992000091512004+40710+029810FM-12+001899999V0202901N001512200019N0200001N1+02661+01931101331ADDAA199000091GA1001+999999999GF100991001001999999001001MD1710081+9999REMSYN064AAXX  15124 17067 32970 02903 10266 20193 40133 57008 333 92408;EQDQ01  00002PRCP99
0144170670999992000091515004+40710+029810FM-12+001899999V0202901N001512200019N0200001N1+02601+01871101231ADDGA1011+012009089GF101991011011012501001001MD1610101+9999REMSYN076AAXX  15154 17067 42670 12903 10260 20187 40123 56010 81100 333 81840 92408;
0217170670999992000091606004+40710+029810FM-12+001899999V0201001N001012200019N0200001N1+01881+01611101511ADDAA199000091GA1021+012009089GF102991011011012501001001IA1019IA2999+01309KA1120N+01601MD1210061+9999REMSYN088AAXX  16064 17067 32670 21002 10188 20161 40151 52006 81100 333 20160 30013 82840 92408;EQDQ01  00002PRCP99
0144170670999992000091609004+40710+029810FM-12+001899999V0200701N001512200019N0200001N1+02561+01891101561ADDGA1021+012009089GF102991021011012501001001MD1110061+9999REMSYN076AAXX  16094 17067 42670 20703 10256 20189 40156 51006 82100 333 82840 92408;
0189170670999992000091612004+40710+029810FM-12+001899999V0203601N003110090019N0100001N1+02751+01721101541ADDAA106000191AY101061AY201061GA1071+009009089GF107991071021008001001001MD1810021+9999MW1801REMSYN088AAXX  16124 17067 11560 73606 10275 20172 40154 58002 69921 78000 87200 333 87830 92417;
0172170670999992000091615004+40710+029810FM-12+001899999V0200401N002610120019N0200001N1+02301+01761101491ADDAY181031AY221031GA1051+012009089GF105991051021012501001001MD1710051+9999MW1011REMSYN082AAXX  16154 17067 41670 50405 10230 20176 40149 57005 70182 85200 333 85840 92418;
0208170670999992000091706004+40710+029810FM-12+001899999V0201301N000512200019N0200001N1+99999+99999999999ADDAA199000091GA1011+012009089GF101991999999012501999999IA1099IA2999+01409KA1120N+01771REMSYN093AAXX  17064 17067 32670 11301 1019 20172 40147 54000 81100 333 20177 31014 70017 81840 92408;EQDQ01  00002PRCP99
0144170670999992000091709004+40710+029810FM-12+001899999V0201101N001012200019N0200001N1+02501+01761101471ADDGA1021+012009089GF102991021021012501001001MD1410001+9999REMSYN076AAXX  17094 17067 42670 21102 10250 20176 40147 54000 82200 333 82840 92408;
0174170670999992000091712004+40710+029810FM-12+001899999V0200901N000512200019N0200001N1+02741+01901101371ADDAA199000091GA1021+012009089GF102991021021012501001001MD1710101+9999REMSYN076AAXX  17124 17067 32670 20901 10274 20190 40137 57010 82200 333 82840 92408;EQDQ01  00002PRCP99
0144170670999992000091715004+40710+029810FM-12+001899999V0200901N000512200019N0200001N1+02781+01951101211ADDGA1021+012009089GF102991021021012501001001MD1710161+9999REMSYN076AAXX  17154 17067 42670 20901 10278 20195 40121 57016 82200 333 82840 92408;
0205170670999992000091806004+40710+029810FM-12+001899999V0201201N001012200019N0200001N1+01881+01601101311ADDAA199000091GA1001+999999999GF100991001001999999001001IA1019IA2999+01509KA1120N+01661MD1410001+9999REMSYN076AAXX  18064 17067 32970 01202 10188 20160 40131 54000 333 20166 30015 92408;EQDQ01  00002PRCP99
0132170670999992000091809004+40710+029810FM-12+001899999V0201301N001012200019N0200001N1+02521+01741101351ADDGA1001+999999999GF100991001001999999001001MD1210041+9999REMSYN064AAXX  18094 17067 42970 01302 10252 20174 40135 52004 333 92408;
0162170670999992000091812004+40710+029810FM-12+001899999V0202901N002112200019N0200001N1+02981+01831101271ADDAA199000091GA1001+999999999GF100991001001999999001001MD1710081+9999REMSYN064AAXX  18124 17067 32970 02904 10298 20183 40127 57008 333 92408;EQDQ01  00002PRCP99
0132170670999992000091815004+40710+029810FM-12+001899999V0202901N003112200019N0200001N1+02781+01741101241ADDGA1001+999999999GF100991001001999999001001MD1610031+9999REMSYN064AAXX  18154 17067 42970 02906 10278 20174 40124 56003 333 92418;
0205170670999992000091906004+40710+029810FM-12+001899999V0201201N001512200019N0200001N1+02041+01701101441ADDAA199000091GA1001+999999999GF100991001001999999001001IA1019IA2999+01509KA1120N+01751MD1410001+9999REMSYN076AAXX  19064 17067 32970 01203 10204 20170 40144 54000 333 20175 30015 92408;EQDQ01  00002PRCP99
0132170670999992000091909004+40710+029810FM-12+001899999V0200701N001012200019N0200001N1+02781+01911101391ADDGA1001+999999999GF100991001001999999001001MD1610051+9999REMSYN064AAXX  19094 17067 42970 00702 10278 20191 40139 56005 333 92408;
0162170670999992000091912004+40710+029810FM-12+001899999V0202701N003112200019N0200001N1+03181+01781101291ADDAA199000091GA1001+999999999GF100991001001999999001001MD1710101+9999REMSYN064AAXX  19124 17067 32970 02706 10318 20178 40129 57010 333 92418;EQDQ01  00002PRCP99
0144170670999992000091915004+40710+029810FM-12+001899999V0203101N002612200019N0200001N1+03101+01641101231ADDGA1021+030009039GF102991021001999999031001MD1710061+9999REMSYN076AAXX  19154 17067 42970 23105 10310 20164 40123 57006 82030 333 82360 92418;
0239170670999992000092006004+40710+029810FM-12+001899999V0201301N001512200019N0200001N1+02081+01791101431ADDAA199000091GA1021+012009089GA2031+030009039GF104991021021012501031001IA1019IA2999+01709KA1120N+02001MD1110021+9999REMSYN094AAXX  20064 17067 32670 41303 10208 20179 40143 51002 82230 333 20200 30017 82840 83360 92408;EQDQ01  00002PRCP99
0144170670999992000092009004+40710+029810FM-12+001899999V0201101N001012200019N0200001N1+02841+01881101511ADDGA1011+030009039GF101991011001999999031001MD1210081+9999REMSYN076AAXX  20094 17067 42970 11102 10284 20188 40151 52008 81030 333 81360 92408;
0162170670999992000092012004+40710+029810FM-12+001899999V0202901N001512200019N0200001N1+03041+01781101501ADDAA199000091GA1001+999999999GF100991001001999999001001MD1810011+9999REMSYN064AAXX  20124 17067 32970 02903 10304 20178 40150 58001 333 92408;EQDQ01  00002PRCP99
0132170670999992000092015004+40710+029810FM-12+001899999V0202901N002612200019N0200001N1+02721+02021101501ADDGA1001+999999999GF100991001001999999001001MD1410001+9999REMSYN064AAXX  20154 17067 42970 02905 10272 20202 40150 54000 333 92418;
0205170670999992000092106004+40710+029810FM-12+001899999V0201201N001012200019N0200001N1+02101+01701101501ADDAA199000091GA1001+999999999GF100991001001999999001001IA1019IA2999+01609KA1120N+01801MD1410001+9999REMSYN076AAXX  21064 17067 32970 01202 10210 20170 40150 54000 333 20180 30016 92408;EQDQ01  00002PRCP99
0132170670999992000092109004+40710+029810FM-12+001899999V0200901N000512200019N0200001N1+02841+01881101501ADDGA1001+999999999GF100991001001999999001001MD1410001+9999REMSYN064AAXX  21094 17067 42970 00901 10284 20188 40150 54000 333 92408;
0162170670999992000092112004+40710+029810FM-12+001899999V0202801N004612200019N0200001N1+03141+01661101361ADDAA199000091GA1001+999999999GF100991001001999999001001MD1710141+9999REMSYN064AAXX  21124 17067 32970 02809 10314 20166 40136 57014 333 92428;EQDQ01  00002PRCP99
0132170670999992000092115004+40710+029810FM-12+001899999V0203001N003112200019N0200001N1+03041+01801101251ADDGA1001+999999999GF100991001001999999001001MD1710111+9999REMSYN064AAXX  21154 17067 42970 03006 10304 20180 40125 57011 333 92418;
0217170670999992000092206004+40710+029810FM-12+001899999V0200701N001012200019N0200001N1+02201+01761101271ADDAA199000091GA1021+012009089GF102991021011012501001001IA1019IA2999+01609KA1120N+01951MD1110031+9999REMSYN088AAXX  22064 17067 32670 20702 10220 20176 40127 51003 82100 333 20195 30016 82840 92408;EQDQ01  00002PRCP99
0132170670999992000092209004+40710+029810FM-12+001899999V0201001N001512200019N0200001N1+02921+02301101291ADDGA1001+999999999GF100991001001999999001001MD1110021+9999REMSYN064AAXX  22094 17067 42970 01003 10292 20230 40129 51002 333 92408;
0162170670999992000092212004+40710+029810FM-12+001899999V0200701N001012200019N0200001N1+03301+02131101131ADDAA199000091GA1001+999999999GF100991001001999999001001MD1710161+9999REMSYN064AAXX  22124 17067 32970 00702 10330 20213 40113 57016 333 92408;EQDQ01  00002PRCP99
0132170670999992000092215004+40710+029810FM-12+001899999V0202501N001512200019N0200001N1+03001+02341101091ADDGA1001+999999999GF100991001001999999001001MD1810041+9999REMSYN064AAXX  22154 17067 42970 02503 10300 20234 40109 58004 333 92408;
0239170670999992000092306004+40710+029810FM-12+001899999V0201101N000510300019N0200001N1+02221+01941101231ADDAA199000091GA1021+012009089GA2051+030009039GF106991021021012501031001IA1019IA2999+02009KA1120N+02201MD1410001+9999REMSYN094AAXX  23064 17067 32670 61101 10222 20194 40123 54000 82230 333 20220 30020 82840 85360 92408;EQDQ01  00002PRCP99
0166170670999992000092309004+40710+029810FM-12+001899999V0200901N001010300019N0200001N1+02821+02061101211ADDGA1021+012009089GA2041+030009039GF105991021021012501031001MD1610021+9999REMSYN082AAXX  23094 17067 42670 50902 10282 20206 40121 56002 82230 333 82840 84360 92408;
0196170670999992000092312004+40710+029810FM-12+001899999V0203601N004110300019N0200001N1+02861+01941101091ADDAA199000091GA1031+010809089GA2041+030009039GF106991031021012501031001MD1810021+9999REMSYN082AAXX  23124 17067 32670 63608 10286 20194 40109 58002 83230 333 83836 84360 92428;EQDQ01  00002PRCP99
0166170670999992000092315004+40710+029810FM-12+001899999V0200701N001010300019N0200001N1+02481+01981101131ADDGA1031+010809089GA2041+030009039GF106991031021012501031001MD1310041+9999REMSYN082AAXX  23154 17067 42670 60702 10248 20198 40113 53004 83230 333 83836 84360 92408;
0238170670999992000092406004+40710+029810FM-12+001899999V0201201N001010120019N0200001N1+01901+01781101511ADDAA112005191AY181061AY221061GA1071+012009089GF107991071021012501001001IA1119IA2999+01709KA1120N+01861MD1210071+9999MW1021REMSYN106AAXX  24064 17067 11670 71202 10190 20178 40151 52007 60052 70282 87200 333 20186 32017 70050 87840 92408;
0172170670999992000092409004+40710+029810FM-12+001899999V0202901N003110090019N0100001N1+01861+01751101711ADDAY121031AY221031GA1071+009009089GF107991071021008001001001MD1210201+9999MW1801REMSYN082AAXX  24094 17067 41560 72906 10186 20175 40171 52020 78022 87200 333 87830 92417;
0189170670999992000092412004+40710+029810FM-12+001899999V0202701N002110090019N0100001N1+01821+01721101761ADDAA106003091AY121061AY221061GA1071+009009089GF107991071021008001001001MD1210051+9999MW1801REMSYN088AAXX  24124 17067 11560 72704 10182 20172 40176 52005 60031 78022 87200 333 87830 92407;
0172170670999992000092415004+40710+029810FM-12+001899999V0202701N001510108019N0200001N1+01821+01721101711ADDAY181031AY221031GA1071+010809089GF107991071021012501001001MD1210041+9999MW1021REMSYN082AAXX  24154 17067 41670 72703 10182 20172 40171 52004 70282 87200 333 87836 92408;
0238170670999992000092506004+40710+029810FM-12+001899999V0202701N001510090019N0050001N1+01561+01441101961ADDAA112011991AY181061AY281061GA1071+009009089GF107991071021008001001001IA1119IA2999+01509KA1120N+01461MD1310041+9999MW1811REMSYN106AAXX  25064 17067 11550 72703 10156 20144 40196 53004 60122 78188 87200 333 20146 32015 70156 87830 92406;
0172170670999992000092509004+40710+029810FM-12+001899999V0203401N003610090019N0100001N1+01621+01401102021ADDAY181031AY281031GA1071+009009089GF107991071021008001001001MD1210061+9999MW1801REMSYN082AAXX  25094 17067 41560 73407 10162 20140 40202 52006 78088 87200 333 87830 92428;
0189170670999992000092512004+40710+029810FM-12+001899999V0203301N003110090019N0200001N1+01661+01421102021ADDAA106000191AY181061AY221061GA1061+009009089GF106991061021008001001001MD1410001+9999MW1021REMSYN088AAXX  25124 17067 11570 63306 10166 20142 40202 54000 69921 70282 86200 333 86830 92428;
0144170670999992000092515004+40710+029810FM-12+001899999V0203301N003110090019N0200001N1+01661+01321102021ADDGA1071+009009089GF107991071021008001001001MD1410001+9999REMSYN076AAXX  25154 17067 42570 73306 10166 20132 40202 54000 87200 333 87830 92428;
0204170670999992000092606004+40710+029810FM-12+001899999V0202001N002610108019N0200001N1+01501+01081102121ADDAA124001591GA1071+010809089GF107991071021012501001001IA1119IA2999+01109KA1120N+01301MD1410001+9999REMSYN094AAXX  26064 17067 32670 72005 10150 20108 40212 54000 87200 333 20130 32011 70015 87836 92428;
0172170670999992000092609004+40710+029810FM-12+001899999V0203601N003110108019N0200001N1+01541+01101102121ADDAY181031AY221031GA1071+010809089GF107991071021012501001001MD1410001+9999MW1021REMSYN082AAXX  26094 17067 41670 73606 10154 20110 40212 54000 70282 87200 333 87836 92428;
0189170670999992000092612004+40710+029810FM-12+001899999V0203601N006210108019N0200001N1+01621+01111102121ADDAA106000791AY181061AY221061GA1071+010809089GF107991071021012501001001MD1410001+9999MW1021REMSYN088AAXX  26124 17067 11670 73612 10162 20111 40212 54000 69901 70282 87200 333 87836 92428;
0144170670999992000092615004+40710+029810FM-12+001899999V0203601N004610108019N0200001N1+01641+00941102091ADDGA1071+010809089GF107991071021012501001001MD1810031+9999REMSYN076AAXX  26154 17067 42670 73609 10164 20094 40209 58003 87200 333 87836 92428;
0238170670999992000092706004+40710+029810FM-12+001899999V0201201N001010108019N0200001N1+01361+01191102031ADDAA112006191AY181061AY221061GA1071+010809089GF107991071021012501001001IA1119IA2999+01109KA1120N+01261MD1410001+9999MW1021REMSYN106AAXX  27064 17067 11670 71202 10136 20119 40203 54000 60062 70282 87200 333 20126 32011 70060 87836 92408;
0144170670999992000092709004+40710+029810FM-12+001899999V0200301N001012200019N0200001N1+01621+01241102031ADDGA1041+012009089GF104991041021012501001001MD1410001+9999REMSYN076AAXX  27094 17067 42670 40302 10162 20124 40203 54000 84200 333 84840 92408;
0189170670999992000092712004+40710+029810FM-12+001899999V0203201N002110108019N0100001N1+01681+01241102031ADDAA106000791AY111061AY211061GA1071+010809089GF107991071021012501001001MD1410001+9999MW1801REMSYN088AAXX  27124 17067 11660 73204 10168 20124 40203 54000 69901 78011 87200 333 87836 92407;
0172170670999992000092715004+40710+029810FM-12+001899999V0201501N001510120019N0200001N1+01601+01071102021ADDAY181031AY221031GA1061+012009089GF106991061021012501001001MD1810011+9999MW1011REMSYN082AAXX  27154 17067 41670 61503 10160 20107 40202 58001 70182 86200 333 86840 92408;
0238170670999992000092806004+40710+029810FM-12+001899999V0200801N001010108019N0200001N1+01501+01381101941ADDAA112002091AY181061AY221061GA1061+010809089GF106991061021012501001001IA1119IA2999+01109KA1120N+01301MD1310021+9999MW1021REMSYN106AAXX  28064 17067 11670 60802 10150 20138 40194 53002 60022 70282 86200 333 20130 32011 70028 86836 92408;
0144170670999992000092809004+40710+029810FM-12+001899999V0200901N001510108019N0200001N1+01881+01441101941ADDGA1071+010809089GF107991071021012501001001MD1410001+9999REMSYN076AAXX  28094 17067 42670 70903 10188 20144 40194 54000 87200 333 87836 92408;
0189170670999992000092812004+40710+029810FM-12+001899999V0203301N001510108019N0200001N1+01921+01611101841ADDAA106000591AY181061AY221061GA1071+010809089GF107991071021012501001001MD1710101+9999MW1021REMSYN088AAXX  28124 17067 11670 73303 10192 20161 40184 57010 69951 70282 87200 333 87836 92408;
0144170670999992000092815004+40710+029810FM-12+001899999V0200401N003610108019N0200001N1+01881+01441101741ADDGA1071+010809089GF107991071021012501001001MD1710101+9999REMSYN076AAXX  28154 17067 42670 70407 10188 20144 40174 57010 87200 333 87836 92428;
0239170670999992000092906004+40710+029810FM-12+001899999V0200701N000512200019N0200001N1+01441+01201101721ADDAA199000091GA1021+012009089GA2031+030009039GF104991021021012501031001IA1099IA2999+01009KA1120N+01251MD1410001+9999REMSYN094AAXX  29064 17067 32670 40701 10144 20120 40172 54000 82230 333 20125 31010 82840 83360 92408;EQDQ01  00002PRCP99
0144170670999992000092909004+40710+029810FM-12+001899999V0203601N001012200019N0200001N1+01961+01381101721ADDGA1041+012009089GF104991041021012501001001MD1410001+9999REMSYN076AAXX  29094 17067 42670 43602 10196 20138 40172 54000 84200 333 84840 92408;
0174170670999992000092912004+40710+029810FM-12+001899999V0200501N001010120019N0200001N1+02121+01341101721ADDAA199000091GA1061+012009089GF106991061021012501001001MD1410001+9999REMSYN076AAXX  29124 17067 32670 60502 10212 20134 40172 54000 86200 333 86840 92408;EQDQ01  00002PRCP99
0144170670999992000092915004+40710+029810FM-12+001899999V0203601N001510120019N0200001N1+01821+01301101721ADDGA1061+012009089GF106991061021012501001001MD1410001+9999REMSYN076AAXX  29154 17067 42670 63603 10182 20130 40172 54000 86200 333 86840 92408;
0217170670999992000093006004+40710+029810FM-12+001899999V0201201N001012200019N0200001N1+01401+01181101891ADDAA199000091GA1041+060009009GF104991001001999999001011IA1099IA2999+00909KA1120N+01151MD1210071+9999REMSYN088AAXX  30064 17067 32970 41202 10140 20118 40189 52007 80001 333 20115 31009 84070 92408;EQDQ01  00002PRCP99
0144170670999992000093009004+40710+029810FM-12+001899999V0201401N001012200019N0200001N1+02101+01641101991ADDGA1011+012009089GF101991011011012501001001MD1210101+9999REMSYN076AAXX  30094 17067 42670 11402 10210 20164 40199 52010 81100 333 81840 92408;
0174170670999992000093012004+40710+029810FM-12+001899999V0201301N001010120019N0200001N1+02321+01711101991ADDAA199000091GA1051+012009089GF105991051021012501001001MD1410001+9999REMSYN076AAXX  30124 17067 32670 51302 10232 20171 40199 54000 85200 333 85840 92408;EQDQ01  00002PRCP99
0144170670999992000093015004+40710+029810FM-12+001899999V0200401N003110120019N0200001N1+02051+01321101991ADDGA1071+012009089GF107991071021012501001001MD1410001+9999REMSYN076AAXX  30154 17067 42670 70406 10205 20132 40199 54000 87200 333 87840 92418;
0217170670999992000100106004+40710+029810FM-12+001899999V0200801N002112200019N0200001N1+01541+01401102171ADDAA199000091GA1011+012009089GF101991011011012501001001IA1019IA2999+01009KA1120N+01321MD1310041+9999REMSYN088AAXX  01064 17067 32670 10804 10154 20140 40217 53004 81100 333 20132 30010 81840 92408;EQDQ01  00002PRCP99
0144170670999992000100109004+40710+029810FM-12+001899999V0201201N001012200019N0200001N1+02221+01821102241ADDGA1021+012009089GF102991021011012501001001MD1210071+9999REMSYN076AAXX  01094 17067 42670 21202 10222 20182 40224 52007 82100 333 82840 92408;
0196170670999992000100112004+40710+029810FM-12+001899999V0201301N001510600019N0200001N1+02421+01961102241ADDAA199000091GA1021+012009089GA2061+060009009GF106991021011012501001011MD1110011+9999REMSYN082AAXX  01124 17067 32670 61303 10242 20196 40224 51001 82101 333 82840 86070 92408;EQDQ01  00002PRCP99
0166170670999992000100115004+40710+029810FM-12+001899999V0200301N002610300019N0200001N1+02221+01741102241ADDGA1021+012009089GA2041+030009039GF105991021011012501031001MD1410001+9999REMSYN082AAXX  01154 17067 42670 50305 10222 20174 40224 54000 82130 333 82840 84360 92418;
0267170670999992000100206004+40710+029810FM-12+001899999V0200701N001512200019N0100001N1+01421+01181102221ADDAA199000091AY101061AY201061GA1011+012009089GA2031+060009009GF104991011021012501001011IA1019IA2999+01009KA1120N+01251MD1410001+9999MW1101REMSYN100AAXX  02064 17067 31660 40703 10142 20118 40222 54000 71000 81201 333 20125 30010 81840 83070 92407;EQDQ01  00002PRCP99
0144170670999992000100209004+40710+029810FM-12+001899999V0201101N001512200019N0200001N1+02101+01461102121ADDGA1011+060009009GF101991001001999999001011MD1710101+9999REMSYN076AAXX  02094 17067 42970 11103 10210 20146 40212 57010 80001 333 81070 92408;
0174170670999992000100212004+40710+029810FM-12+001899999V0201401N001512200019N0200001N1+02501+01121102081ADDAA199000091GA1031+030009039GF103991031001999999031001MD1810031+9999REMSYN076AAXX  02124 17067 32970 31403 10250 20112 40208 58003 83030 333 83360 92408;EQDQ01  00002PRCP99
0144170670999992000100215004+40710+029810FM-12+001899999V0200701N001512200019N0200001N1+02501+01351101991ADDGA1041+030009039GF104991041001999999031001MD1710091+9999REMSYN076AAXX  02154 17067 42970 40703 10250 20135 40199 57009 84030 333 84360 92408;
0193170670999992000100218004+40710+029810FM-12+001899999V0201701N001512200019N0200001N1+01801+01461102001ADDAA199000091GA1021+030009039GF102991021001999999031001KA1120M+02521MD1410001+9999REMSYN082AAXX  02184 17067 32970 21703 10180 20146 40200 54000 82030 333 10252 82360 92408;EQDQ01  00002PRCP99
0132170670999992000100221004+40710+029810FM-12+001899999V0201101N001012200019N0200001N1+01661+01261101991ADDGA1001+999999999GF100991001001999999001001MD1410001+9999REMSYN064AAXX  02214 17067 42970 01102 10166 20126 40199 54000 333 92408;
0162170670999992000100300004+40710+029810FM-12+001899999V0201101N001012200019N0200001N1+01441+01031101981ADDAA199000091GA1001+999999999GF100991001001999999001001MD1610011+9999REMSYN064AAXX  03004 17067 32970 01102 10144 20103 40198 56001 333 92408;EQDQ01  00002PRCP99
0245170670999992000100306004+40710+029810FM-12+001899999V0201201N001512200019N0100001N1+01401+01011101971ADDAA199000091AY101061AY201061GA1021+030009039GF102991021001999999031001IA1019IA2999+00909KA1120N+01141MD1410001+9999MW1101REMSYN094AAXX  03064 17067 31960 21203 10140 20101 40197 54000 71000 82030 333 20114 30009 82360 92407;EQDQ01  00002PRCP99
0144170670999992000100309004+40710+029810FM-12+001899999V0200601N001012200019N0200001N1+02041+01391101971ADDGA1001+999999999GF100991001001999999001001MD1410001+9999UA1M999999089REMSYN063AAXX  03094 17067 42970 00602 10204 20139 40197 54000 333 9248;
0162170670999992000100312004+40710+029810FM-12+001899999V0201201N001512200019N0200001N1+02641+01841101861ADDAA199000091GA1001+999999999GF100991001001999999001001MD1710111+9999REMSYN064AAXX  03124 17067 32970 01203 10264 20184 40186 57011 333 92408;EQDQ01  00002PRCP99
0132170670999992000100315004+40710+029810FM-12+001899999V0200401N001512200019N0200001N1+02421+01781101771ADDGA1001+999999999GF100991001001999999001001MD1710091+9999REMSYN064AAXX  03154 17067 42970 00403 10242 20178 40177 57009 333 92408;
0181170670999992000100318004+40710+029810FM-12+001899999V0201201N001012200019N0200001N1+01901+01431101771ADDAA199000091GA1001+999999999GF100991001001999999001001KA1120M+02661MD1410001+9999REMSYN070AAXX  03184 17067 32970 01202 10190 20143 40177 54000 333 10266 92408;EQDQ01  00002PRCP99
0144170670999992000100321004+40710+029810FM-12+001899999V0201201N001012200019N0200001N1+01701+01261101801ADDGA1031+012009089GF103991031021012501001001MD1110031+9999REMSYN076AAXX  03214 17067 42670 31202 10170 20126 40180 51003 83200 333 83840 92408;
0174170670999992000100400004+40710+029810FM-12+001899999V0201101N001512200019N0200001N1+01701+01261101801ADDAA199000091GA1031+012009089GF103991031021012501001001MD1410001+9999REMSYN076AAXX  04004 17067 32670 31103 10170 20126 40180 54000 83200 333 83840 92408;EQDQ01  00002PRCP99
0245170670999992000100406004+40710+029810FM-12+001899999V0201301N001010120019N0040001N1+01661+01511101761ADDAA199000091AY101061AY201061GA1071+012009089GF107991071021012501001001IA1019IA2999+01209KA1120N+01561MD1410001+9999MW1101REMSYN094AAXX  04064 17067 31640 71302 10166 20151 40176 54000 71000 87200 333 20156 30012 87840 92405;EQDQ01  00002PRCP99
0132170670999992000100409004+40710+029810FM-12+001899999V0201401N001012200019N0200001N1+02281+01881101751ADDGA1001+999999999GF100991001001999999001001MD1410001+9999REMSYN064AAXX  04094 17067 42970 01402 10228 20188 40175 54000 333 92408;
0162170670999992000100412004+40710+029810FM-12+001899999V0201001N001012200019N0200001N1+02641+01931101671ADDAA199000091GA1001+999999999GF100991001001999999001001MD1710081+9999REMSYN064AAXX  04124 17067 32970 01002 10264 20193 40167 57008 333 92408;EQDQ01  00002PRCP99
0144170670999992000100415004+40710+029810FM-12+001899999V0200901N002112200019N0200001N1+02461+01931101631ADDGA1041+030009039GF104991041001999999031001MD1710041+9999REMSYN076AAXX  04154 17067 42970 40904 10246 20193 40163 57004 84030 333 84360 92408;
0193170670999992000100418004+40710+029810FM-12+001899999V0201201N001512200019N0200001N1+01941+01801101681ADDAA199000091GA1021+012009089GF102991021011012501001001KA1120M+02661MD1110041+9999REMSYN082AAXX  04184 17067 32670 21203 10194 20180 40168 51004 82100 333 10266 82840 92408;EQDQ01  00002PRCP99
0132170670999992000100421004+40710+029810FM-12+001899999V0200901N000512200019N0200001N1+01801+01711101681ADDGA1001+999999999GF100991001001999999001001MD1410001+9999REMSYN064AAXX  04214 17067 42970 00901 10180 20171 40168 54000 333 92408;
0174170670999992000100500004+40710+029810FM-12+001899999V0201301N001012200019N0200001N1+01821+01681101711ADDAA199000091GA1041+030009039GF104991041001999999031001MD1110031+9999REMSYN076AAXX  05004 17067 32970 41302 10182 20168 40171 51003 84030 333 84360 92408;EQDQ01  00002PRCP99
0217170670999992000100506004+40710+029810FM-12+001899999V0200901N000510300019N0200001N1+01841+01581101711ADDAA199000091GA1061+030009039GF106991061001999999031001IA1019IA2999+01509KA1120N+01801MD1410001+9999REMSYN088AAXX  05064 17067 32970 60901 10184 20158 40171 54000 86030 333 20180 30015 86360 92408;EQDQ01  00002PRCP99
0144170670999992000100509004+40710+029810FM-12+001899999V0201601N001512200019N0200001N1+02121+01621101711ADDGA1011+030009039GF101991011001999999031001MD1410001+9999REMSYN076AAXX  05094 17067 42970 11603 10212 20162 40171 54000 81030 333 81360 92408;
0174170670999992000100512004+40710+029810FM-12+001899999V0200701N001012200019N0200001N1+02421+01741101671ADDAA199000091GA1011+060009009GF101991001001999999001011MD1710041+9999REMSYN076AAXX  05124 17067 32970 10702 10242 20174 40167 57004 80001 333 81070 92408;EQDQ01  00002PRCP99
0144170670999992000100515004+40710+029810FM-12+001899999V0202701N001512200019N0200001N1+02401+01741101651ADDGA1021+030009039GF102991021001999999031001MD1710021+9999REMSYN076AAXX  05154 17067 42970 22703 10240 20174 40165 57002 82030 333 82360 92408;
0193170670999992000100518004+40710+029810FM-12+001899999V0201401N001510300019N0200001N1+02061+01701101671ADDAA199000091GA1061+030009039GF106991061001999999031001KA1120M+02581MD1310021+9999REMSYN082AAXX  05184 17067 32970 61403 10206 20170 40167 53002 86030 333 10258 86360 92408;EQDQ01  00002PRCP99
0174170670999992000100600004+40710+029810FM-12+001899999V0201301N001010300019N0200001N1+01921+01681101671ADDAA199000091GA1061+030009039GF106991061001999999031001MD1410001+9999REMSYN076AAXX  06004 17067 32970 61302 10192 20168 40167 54000 86030 333 86360 92408;EQDQ01  00002PRCP99
0245170670999992000100606004+40710+029810FM-12+001899999V0201101N001010108019N0100001N1+01921+01681101591ADDAA199000091AY121061AY221061GA1061+010809089GF106991061021012501001001IA1019IA2999+01709KA1120N+01681MD1610041+9999MW1101REMSYN094AAXX  06064 17067 31660 61102 10192 20168 40159 56004 71022 86200 333 20168 30017 86836 92407;EQDQ01  00002PRCP99
0166170670999992000100609004+40710+029810FM-12+001899999V0201501N001012200019N0200001N1+02301+01801101591ADDGA1011+012009089GA2031+060009009GF103991011011012501001011MD1410001+9999REMSYN082AAXX  06094 17067 42670 31502 10230 20180 40159 54000 81101 333 81840 83070 92408;
0196170670999992000100612004+40710+029810FM-12+001899999V0200901N001010300019N0200001N1+02361+01751101511ADDAA199000091GA1031+012009089GA2051+030009039GF105991031021012501051001MD1710081+9999REMSYN082AAXX  06124 17067 32670 50902 10236 20175 40151 57008 83250 333 83840 85360 92408;EQDQ01  00002PRCP99
0166170670999992000100615004+40710+029810FM-12+001899999V0200901N001010300019N0200001N1+02301+01801101411ADDGA1031+012009089GA2051+030009039GF105991031021012501051001MD1710101+9999REMSYN082AAXX  06154 17067 42670 50902 10230 20180 40141 57010 83250 333 83840 85360 92408;
0215170670999992000100618004+40710+029810FM-12+001899999V0200901N001010300019N0200001N1+02021+01581101411ADDAA199000091GA1031+012009089GA2051+030009039GF105991031021012501051001KA1120M+02421MD1410001+9999REMSYN088AAXX  06184 17067 32670 50902 10202 20158 40141 54000 83250 333 10242 83840 85360 92408;EQDQ01  00002PRCP99
0144170670999992000100621004+40710+029810FM-12+001899999V0202101N001010120019N0200001N1+01981+01611101451ADDGA1051+012009089GF105991051021012501001001MD1310041+9999REMSYN076AAXX  06214 17067 42670 52102 10198 20161 40145 53004 85200 333 85840 92408;
0174170670999992000100700004+40710+029810FM-12+001899999V0201501N001010120019N0200001N1+01941+01641101451ADDAA199000091GA1051+012009089GF105991051021012501001001MD1410001+9999REMSYN076AAXX  07004 17067 32670 51502 10194 20164 40145 54000 85200 333 85840 92408;EQDQ01  00002PRCP99
0245170670999992000100706004+40710+029810FM-12+001899999V0201401N000510120019N0100001N1+01941+01741101451ADDAA199000091AY121061AY221061GA1061+012009089GF106991061021012501001001IA1019IA2999+01609KA1120N+01871MD1410001+9999MW1101REMSYN094AAXX  07064 17067 31660 61401 10194 20174 40145 54000 71022 86200 333 20187 30016 86840 92407;EQDQ01  00002PRCP99
0172170670999992000100709004+40710+029810FM-12+001899999V0202901N002110120019N0100001N1+02141+01791101481ADDAY121031AY221031GA1061+012009089GF106991061021012501001001MD1210031+9999MW1101REMSYN082AAXX  07094 17067 41660 62904 10214 20179 40148 52003 71022 86200 333 86840 92417;
0174170670999992000100712004+40710+029810FM-12+001899999V0202801N001510120019N0200001N1+02481+02061101461ADDAA199000091GA1061+012009089GF106991061021012501001001MD1110021+9999REMSYN076AAXX  07124 17067 32670 62803 10248 20206 40146 51002 86200 333 86840 92418;EQDQ01  00002PRCP99
0144170670999992000100715004+40710+029810FM-12+001899999V0200501N001010120019N0200001N1+02141+01791101441ADDGA1061+012009089GF106991061021012501001001MD1710021+9999REMSYN076AAXX  07154 17067 42670 60502 10214 20179 40144 57002 86200 333 86840 92408;
0193170670999992000100718004+40710+029810FM-12+001899999V0201101N001010120019N0200001N1+02081+01731101441ADDAA199000091GA1061+012009089GF106991061021012501001001KA1120M+02501MD1410001+9999REMSYN082AAXX  07184 17067 32670 61102 10208 20173 40144 54000 86200 333 10250 86840 92408;EQDQ01  00002PRCP99
0144170670999992000100721004+40710+029810FM-12+001899999V0201301N001010120019N0200001N1+01901+01681101441ADDGA1061+012009089GF106991061021012501001001MD1410001+9999REMSYN076AAXX  07214 17067 42670 61302 10190 20168 40144 54000 86200 333 86840 92408;
0174170670999992000100800004+40710+029810FM-12+001899999V0201301N001012200019N0200001N1+01901+01591101411ADDAA199000091GA1041+012009089GF104991041021012501001001MD1710031+9999REMSYN076AAXX  08004 17067 32670 41302 10190 20159 40141 57003 84200 333 84840 92408;EQDQ01  00002PRCP99
0260170670999992000100806004+40710+029810FM-12+001899999V0201301N001510108019N0200001N1+01801+01721101311ADDAA112000391AY181061AY221061GA1051+010809089GA2071+030009039GF107991051021012501031001IA1099IA2999+01509KA1120N+01751MD1610051+9999MW1021REMSYN112AAXX  08064 17067 11670 71303 10180 20172 40131 56005 69932 70282 85230 333 20175 31015 70003 85836 87360 92408;
0194170670999992000100809004+40710+029810FM-12+001899999V0200201N001010108019N0200001N1+02041+01741101341ADDAY181031AY221031GA1051+010809089GA2071+030009039GF107991051021012501031001MD1310031+9999MW1251REMSYN088AAXX  08094 17067 41670 70202 10204 20174 40134 53003 72582 85230 333 85836 87360 92408;
0211170670999992000100812004+40710+029810FM-12+001899999V0200901N001010300019N0200001N1+02241+01771101341ADDAA106000791AY181061AY221061GA1031+010809089GA2051+030009039GF106991031021012501031001MD1410001+9999MW1011REMSYN094AAXX  08124 17067 11670 60902 10224 20177 40134 54000 69901 70182 83230 333 83836 85360 92408;
0194170670999992000100815004+40710+029810FM-12+001899999V0201301N000510300019N0200001N1+01981+01741101251ADDAY181031AY221031GA1021+010809089GA2041+030009039GF105991021021012501031001MD1610091+9999MW1011REMSYN088AAXX  08154 17067 41670 51301 10198 20174 40125 56009 70182 82230 333 82836 84360 92408;
0230170670999992000100818004+40710+029810FM-12+001899999V0202001N001010300019N0200001N1+01841+01621101291ADDAA112002091AY181061AY221061GA1021+010809089GA2041+030009039GF105991021021012501031001KA1120M+02271MD1110031+9999MW1021REMSYN100AAXX  08184 17067 11670 52002 10184 20162 40129 51003 60022 70282 82230 333 10227 82836 84360 92408;
0166170670999992000100821004+40710+029810FM-12+001899999V0201801N001010300019N0200001N1+01741+01561101291ADDGA1031+010809089GA2051+030009039GF106991031021012501031001MD1410001+9999REMSYN082AAXX  08214 17067 42670 61802 10174 20156 40129 54000 83230 333 83836 85360 92408;
0174170670999992000100900004+40710+029810FM-12+001899999V0202001N000512200019N0200001N1+01661+01461101281ADDAA199000091GA1031+012009089GF103991031021012501001001MD1410001+9999REMSYN076AAXX  09004 17067 32670 32001 10166 20146 40128 54000 83200 333 83840 92408;EQDQ01  00002PRCP99
0204170670999992000100906004+40710+029810FM-12+001899999V0200301N001012200019N0200001N1+01621+01301101201ADDAA124001891GA1031+012009089GF103991031021012501001001IA1119IA2999+01309KA1120N+01521MD1610041+9999REMSYN094AAXX  09064 17067 32670 30302 10162 20130 40120 56004 83200 333 20152 32013 70018 83840 92408;
0144170670999992000100909004+40710+029810FM-12+001899999V0202701N003612200019N0200001N1+02021+01391101201ADDGA1031+012009089GF103991031021012501001001MD1410001+9999REMSYN076AAXX  09094 17067 42670 32707 10202 20139 40120 54000 83200 333 83840 92428;
0174170670999992000100912004+40710+029810FM-12+001899999V0202701N003612200019N0200001N1+02161+01431101171ADDAA199000091GA1031+012009089GF103991031021012501001001MD1810021+9999REMSYN076AAXX  09124 17067 32670 32707 10216 20143 40117 58002 83200 333 83840 92428;EQDQ01  00002PRCP99
0144170670999992000100915004+40710+029810FM-12+001899999V0203501N003610120019N0200001N1+02001+01361101101ADDGA1061+012009089GF106991061021012501001001MD1710081+9999REMSYN076AAXX  09154 17067 42670 63507 10200 20136 40110 57008 86200 333 86840 92428;
0230170670999992000100918004+40710+029810FM-12+001899999V0201101N001010108019N0100001N1+01801+01441101121ADDAA112002091AY111061AY211061GA1021+007509099GA2051+010809089GF107991071091008001001001KA1120M+02191MD1310021+9999MW1951REMSYN100AAXX  09184 17067 11560 71102 10180 20144 40112 53002 60022 79511 87900 333 10219 82925 85836 92407;
0172170670999992000100921004+40710+029810FM-12+001899999V0201501N001510108019N0200001N1+01741+01431101091ADDAY191031AY221031GA1071+010809089GF107991071021012501001001MD1810021+9999MW1021REMSYN082AAXX  09214 17067 41670 71503 10174 20143 40109 58002 70292 87200 333 87836 92408;
0189170670999992000101000004+40710+029810FM-12+001899999V0201301N001010108019N0200001N1+01661+01421100971ADDAA106001091AY191061AY281061GA1051+010809089GF105991051021012501001001MD1710121+9999MW1011REMSYN088AAXX  10004 17067 11670 51302 10166 20142 40097 57012 60011 70198 85200 333 85836 92408;
0232170670999992000101006004+40710+029810FM-12+001899999V0201501N001510108019N0100001N1+01681+01561100821ADDAA124003391AY121061AY221061GA1071+010809089GF107991071021012501001001IA1119IA2999+01409KA1120N+01651MD1710051+9999MW1101REMSYN100AAXX  10064 17067 31660 71503 10168 20156 40082 57005 71022 87200 333 20165 32014 70034 87836 92407;
0172170670999992000101009004+40710+029810FM-12+001899999V0201401N001010108019N0200001N1+01781+01501100821ADDAY181031AY221031GA1071+010809089GF107991071021012501001001MD1410001+9999MW1021REMSYN082AAXX  10094 17067 41670 71402 10178 20150 40082 54000 70282 87200 333 87836 92408;
0189170670999992000101012004+40710+029810FM-12+001899999V0201301N001510090019N0100001N1+01981+01861100721ADDAA106001091AY181061AY221061GA1071+009009089GF107991071021008001001001MD1710101+9999MW1801REMSYN088AAXX  10124 17067 11560 71303 10198 20186 40072 57010 60011 78082 87200 333 87830 92407;
0172170670999992000101015004+40710+029810FM-12+001899999V0202701N004610090019N0100001N1+01781+01661100781ADDAY181031AY281031GA1071+009009089GF107991071021008001001001MD1210061+9999MW1801REMSYN082AAXX  10154 17067 41560 72709 10178 20166 40078 52006 78088 87200 333 87830 92427;
0208170670999992000101018004+40710+029810FM-12+001899999V0203101N002110090019N0100001N1+01661+01581101021ADDAA112017091AY181061AY281061GA1071+009009089GF107991071021008001001001KA1120M+02001MD1210241+9999MW1801REMSYN094AAXX  10184 17067 11560 73104 10166 20158 40102 52024 60172 78088 87200 333 10200 87830 92417;
0172170670999992000101021004+40710+029810FM-12+001899999V0202501N002110090019N0100001N1+01601+01521101221ADDAY181031AY281031GA1071+009009089GF107991071021008001001001MD1210201+9999MW1801REMSYN082AAXX  10214 17067 41560 72504 10160 20152 40122 52020 78088 87200 333 87830 92417;
0189170670999992000101100004+40710+029810FM-12+001899999V0202501N002110090019N0100001N1+01561+01481101381ADDAA106007191AY181061AY281061GA1071+009009089GF107991071021008001001001MD1210161+9999MW1801REMSYN088AAXX  11004 17067 11560 72504 10156 20148 40138 52016 60071 78088 87200 333 87830 92417;
0238170670999992000101106004+40710+029810FM-12+001899999V0201701N000512200019N0200001N1+01521+01361101541ADDAA112007191AY181061AY211061GA1041+010809089GF104991041021012501001001IA1119IA2999+01309KA1120N+01521MD1210061+9999MW1021REMSYN106AAXX  11064 17067 11670 41701 10152 20136 40154 52006 60072 70281 84200 333 20152 32013 70239 84836 92408;
0144170670999992000101109004+40710+029810FM-12+001899999V0200901N000512200019N0200001N1+02001+01531101591ADDGA1021+012009089GF102991021021012501001001MD1110061+9999REMSYN076AAXX  11094 17067 42670 20901 10200 20153 40159 51006 82200 333 82840 92408;
0144170670999992000101115004+40710+029810FM-12+001899999V0202801N003112200019N0200001N1+02101+01611101601ADDGA1021+060009009GF102991001001999999001011MD1410001+9999REMSYN076AAXX  11154 17067 42970 22806 10210 20161 40160 54000 80001 333 82070 92428;
0181170670999992000101118004+40710+029810FM-12+001899999V0201701N000512200019N0200001N1+01721+01481101621ADDAA199000091GA1001+999999999GF100991001001999999001001KA1120M+02281MD1110021+9999REMSYN070AAXX  11184 17067 32970 01701 10172 20148 40162 51002 333 10228 92408;EQDQ01  00002PRCP99
0132170670999992000101121004+40710+029810FM-12+001899999V0201101N001012200019N0200001N1+01621+01461101691ADDGA1001+999999999GF100991001001999999001001MD1210071+9999REMSYN064AAXX  11214 17067 42970 01102 10162 20146 40169 52007 333 92408;
0162170670999992000101200004+40710+029810FM-12+001899999V0201401N001012200019N0200001N1+01501+01341101711ADDAA199000091GA1001+999999999GF100991001001999999001001MD1110021+9999REMSYN064AAXX  12004 17067 32970 01402 10150 20134 40171 51002 333 92408;EQDQ01  00002PRCP99
0205170670999992000101206004+40710+029810FM-12+001899999V0201101N001012200019N0200001N1+01521+01361101811ADDAA199000091GA1001+999999999GF100991001001999999001001IA1099IA2999+01309KA1120N+01501MD1210051+9999REMSYN076AAXX  12064 17067 32970 01102 10152 20136 40181 52005 333 20150 31013 92408;EQDQ01  00002PRCP99
0144170670999992000101209004+40710+029810FM-12+001899999V0203601N001012200019N0200001N1+02151+01701101871ADDGA1011+012009089GF101991011011012501001001MD1210061+9999REMSYN076AAXX  12094 17067 42670 13602 10215 20170 40187 52006 81100 333 81840 92408;
0174170670999992000101212004+40710+029810FM-12+001899999V0202701N001512200019N0200001N1+02501+01741101861ADDAA199000091GA1011+012009089GF101991011011012501001001MD1410001+9999REMSYN076AAXX  12124 17067 32670 12703 10250 20174 40186 54000 81100 333 81840 92408;EQDQ01  00002PRCP99
0132170670999992000101215004+40710+029810FM-12+001899999V0202701N002112200019N0200001N1+02151+01701101861ADDGA1001+999999999GF100991001001999999001001MD1410001+9999REMSYN064AAXX  12154 17067 42970 02704 10215 20170 40186 54000 333 92418;
0181170670999992000101218004+40710+029810FM-12+001899999V0203601N000512200019N0200001N1+01801+01621101911ADDAA199000091GA1001+999999999GF100991001001999999001001KA1120M+02551MD1210041+9999REMSYN070AAXX  12184 17067 32970 03601 10180 20162 40191 52004 333 10255 92408;EQDQ01  00002PRCP99
0132170670999992000101221004+40710+029810FM-12+001899999V0201401N001012200019N0200001N1+01601+01451101951ADDGA1001+999999999GF100991001001999999001001MD1210041+9999REMSYN064AAXX  12214 17067 42970 01402 10160 20145 40195 52004 333 92408;
0162170670999992000101300004+40710+029810FM-12+001899999V0201301N001012200019N0200001N1+01561+01401101961ADDAA199000091GA1001+999999999GF100991001001999999001001MD1310021+9999REMSYN064AAXX  13004 17067 32970 01302 10156 20140 40196 53002 333 92408;EQDQ01  00002PRCP99
0245170670999992000101306004+40710+029810FM-12+001899999V0201301N001012200019N0100001N1+01581+01471101051ADDAA199000091AY101061AY201061GA1031+060009009GF103991001001999999001011IA1099IA2999+01109KA1120N+01401MD1210061+9999MW1101REMSYN094AAXX  13064 17067 31960 31302 10158 20147 40105 52006 71000 80001 333 20140 31011 83070 92407;EQDQ01  00002PRCP99
0144170670999992000101309004+40710+029810FM-12+001899999V0201301N001512200019N0200001N1+02321+01821101061ADDGA1021+060009009GF102991001001999999001011MD1210021+9999REMSYN076AAXX  13094 17067 42970 21303 10232 20182 40106 52002 80001 333 82070 92408;
0190170670999992000101312004+40710+029810FM-12+001899999V0200501N003612200019N0200001N1+02441+01941102062ADDAA199000091GA1041+012009089GF104991041021012501001001MD1410001+9999REMSYN076AAXX  13124 17067 32670 40507 10244 20194 40206 54000 84200 333 84840 92418;EQDQ01+102063APOSLPQ02  00002PRCP99
0144170670999992000101315004+40710+029810FM-12+001899999V0200401N004612200019N0200001N1+02141+01511102051ADDGA1041+012009089GF104991041021012501001001MD1810021+9999REMSYN076AAXX  13154 17067 42670 40409 10214 20151 40205 58002 84200 333 84840 92428;
0193170670999992000101318004+40710+029810FM-12+001899999V0201301N001510120019N0200001N1+01881+01601102091ADDAA199000091GA1061+012009089GF106991061021012501001001KA1120M+02501MD1310041+9999REMSYN082AAXX  13184 17067 32670 61303 10188 20160 40209 53004 86200 333 10250 86840 92408;EQDQ01  00002PRCP99
0166170670999992000101321004+40710+029810FM-12+001899999V0201501N001012200019N0200001N1+01741+01521102111ADDGA1011+012009089GA2021+030009039GF103991011011012501031001MD1210031+9999REMSYN082AAXX  13214 17067 42670 31502 10174 20152 40211 52003 81130 333 81840 82360 92408;
0174170670999992000101400004+40710+029810FM-12+001899999V0200901N001010120019N0200001N1+01741+01521102111ADDAA199000091GA1061+012009089GF106991061021012501001001MD1410001+9999REMSYN076AAXX  14004 17067 32670 60902 10174 20152 40211 54000 86200 333 86840 92408;EQDQ01  00002PRCP99
0239170670999992000101406004+40710+029810FM-12+001899999V0201501N001510300019N0200001N1+01701+01491102121ADDAA199000091GA1031+012009089GA2051+030009039GF107991031021012501031001IA1099IA2999+01409KA1120N+01651MD1410001+9999REMSYN094AAXX  14064 17067 32670 71503 10170 20149 40212 54000 83230 333 20165 31014 83840 85360 92408;EQDQ01  00002PRCP99
0166170670999992000101409004+40710+029810FM-12+001899999V0201101N001010300019N0200001N1+01861+01621102171ADDGA1031+012009089GA2051+030009039GF107991031021012501031001MD1210061+9999REMSYN082AAXX  14094 17067 42670 71102 10186 20162 40217 52006 83230 333 83840 85360 92408;
0212170670999992000101412004+40710+029810FM-12+001899999V0201401N002610300019N0200001N1+02001+01631102161ADDAA199000091GA1021+012009089GA2051+030009029GF106991021021012501031999MD1810011+9999REMSYN082AAXX  14124 17067 32670 61405 10200 20163 40216 58001 82230 333 82840 85260 92418;EQDQ01+000002SCOHCGQ02  00002PRCP99
0166170670999992000101415004+40710+029810FM-12+001899999V0200501N002610300019N0200001N1+01861+01621102121ADDGA1021+012009089GA2051+030009039GF106991021021012501031001MD1710051+9999REMSYN082AAXX  14154 17067 42670 60505 10186 20162 40212 57005 82230 333 82840 85360 92418;
0215170670999992000101418004+40710+029810FM-12+001899999V0201101N001510300019N0200001N1+01701+01511102121ADDAA199000091GA1021+012009089GA2051+030009039GF106991021021012501031001KA1120M+02241MD1410001+9999REMSYN088AAXX  14184 17067 32670 61103 10170 20151 40212 54000 82230 333 10224 82840 85360 92408;EQDQ01  00002PRCP99
0166170670999992000101421004+40710+029810FM-12+001899999V0201301N001510300019N0200001N1+01681+01521102121ADDGA1021+012009089GA2051+030009039GF106991021021012501031001MD1410001+9999REMSYN082AAXX  14214 17067 42670 61303 10168 20152 40212 54000 82230 333 82840 85360 92408;
0196170670999992000101500004+40710+029810FM-12+001899999V0201101N001010300019N0200001N1+01561+01401102121ADDAA199000091GA1021+012009089GA2051+030009039GF106991021021012501031001MD1410001+9999REMSYN082AAXX  15004 17067 32670 61102 10156 20140 40212 54000 82230 333 82840 85360 92408;EQDQ01  00002PRCP99
0239170670999992000101506004+40710+029810FM-12+001899999V0201301N001010300019N0200001N1+01541+01381102121ADDAA199000091GA1031+012009089GA2061+030009039GF107991031021012501031001IA1019IA2999+01309KA1120N+01501MD1410001+9999REMSYN094AAXX  15064 17067 32670 71302 10154 20138 40212 54000 83230 333 20150 30013 83840 86360 92408;EQDQ01  00002PRCP99
0144170670999992000101509004+40710+029810FM-12+001899999V0200901N001510120019N0200001N1+01821+01531102161ADDGA1051+012009089GF105991051021012501001001MD1310041+9999REMSYN076AAXX  15094 17067 42670 50903 10182 20153 40216 53004 85200 333 85840 92418;
0174170670999992000101512004+40710+029810FM-12+001899999V0201401N002112200019N0200001N1+02121+01701102081ADDAA199000091GA1011+012009089GF101991011011012501001001MD1710081+9999REMSYN076AAXX  15124 17067 32670 11404 10212 20170 40208 57008 81100 333 81840 92418;EQDQ01  00002PRCP99
0144170670999992000101515004+40710+029810FM-12+001899999V0200401N002610120019N0200001N1+01901+01421102041ADDGA1051+012009089GF105991051021012501001001MD1710041+9999REMSYN076AAXX  15154 17067 42670 50405 10190 20142 40204 57004 85200 333 85840 92418;
0193170670999992000101518004+40710+029810FM-12+001899999V0201101N001012200019N0200001N1+01621+01181102041ADDAA199000091GA1031+012009089GF103991031021012501001001KA1120M+02141MD1410001+9999REMSYN082AAXX  15184 17067 32670 31102 10162 20118 40204 54000 83200 333 10214 83840 92408;EQDQ01  00002PRCP99
0132170670999992000101521004+40710+029810FM-12+001899999V0201201N001012200019N0200001N1+01521+01141102061ADDGA1001+999999999GF100991001001999999001001MD1310021+9999REMSYN064AAXX  15214 17067 42970 01202 10152 20114 40206 53002 333 92408;
0162170670999992000101600004+40710+029810FM-12+001899999V0201301N001012200019N0200001N1+01321+00961102061ADDAA199000091GA1001+999999999GF100991001001999999001001MD1410001+9999REMSYN064AAXX  16004 17067 32970 01302 10132 20096 40206 54000 333 92408;EQDQ01  00002PRCP99
0205170670999992000101606004+40710+029810FM-12+001899999V0201301N001512200019N0200001N1+01381+01171102201ADDAA199000091GA1001+999999999GF100991001001999999001001IA1099IA2999+00909KA1120N+01201MD1210081+9999REMSYN076AAXX  16064 17067 32970 01303 10138 20117 40220 52008 333 20120 31009 92408;EQDQ01  00002PRCP99
0144170670999992000101609004+40710+029810FM-12+001899999V0200901N001012200019N0200001N1+02061+01421102221ADDGA1021+012009089GF102991021011012501001001MD1110021+9999REMSYN076AAXX  16094 17067 42670 20902 10206 20142 40222 51002 82100 333 82840 92408;
0174170670999992000101612004+40710+029810FM-12+001899999V0201301N001512200019N0200001N1+02421+01961102211ADDAA199000091GA1031+012009089GF103991031021012501001001MD1410001+9999REMSYN076AAXX  16124 17067 32670 31303 10242 20196 40221 54000 83200 333 83840 92418;EQDQ01  00002PRCP99
0144170670999992000101615004+40710+029810FM-12+001899999V0200401N001512200019N0200001N1+02121+01621102191ADDGA1011+012009089GF101991011011012501001001MD1810031+9999REMSYN076AAXX  16154 17067 42670 10403 10212 20162 40219 58003 81100 333 81840 92408;
0217170670999992000101706004+40710+029810FM-12+001899999V0201201N001010120019N0200001N1+01581+01361102241ADDAA199000091GA1061+012009089GF106991061021012501001001IA1019IA2999+01209KA1120N+01481MD1410001+9999REMSYN088AAXX  17064 17067 32670 61202 10158 20136 40224 54000 86200 333 20148 30012 86840 92408;EQDQ01  00002PRCP99
0144170670999992000101709004+40710+029810FM-12+001899999V0200901N001010120019N0200001N1+02101+01701102261ADDGA1051+012009089GF105991051021012501001001MD1310021+9999REMSYN076AAXX  17094 17067 42670 50902 10210 20170 40226 53002 85200 333 85840 92408;
0174170670999992000101712004+40710+029810FM-12+001899999V0200901N001510120019N0200001N1+02241+01721102241ADDAA199000091GA1061+012009089GF106991061021012501001001MD1810021+9999REMSYN076AAXX  17124 17067 32670 60903 10224 20172 40224 58002 86200 333 86840 92408;EQDQ01  00002PRCP99
0144170670999992000101715004+40710+029810FM-12+001899999V0200401N004610120019N0200001N1+01941+01641102211ADDGA1061+012009089GF106991061021012501001001MD1810031+9999REMSYN076AAXX  17154 17067 42670 60409 10194 20164 40221 58003 86200 333 86840 92428;
0217170670999992000101806004+40710+029810FM-12+001899999V0201301N001510300019N0200001N1+01521+01321102191ADDAA199000091GA1061+030009039GF106991061001999999031001IA1019IA2999+01309KA1120N+01501MD1410001+9999REMSYN088AAXX  18064 17067 32970 61303 10152 20132 40219 54000 86030 333 20150 30013 86360 92408;EQDQ01  00002PRCP99
0166170670999992000101809004+40710+029810FM-12+001899999V0201201N002110300019N0200001N1+01911+01481102191ADDGA1041+012009089GA2061+030009039GF106991041021012501031001MD1410001+9999REMSYN082AAXX  18094 17067 42670 61204 10191 20148 40219 54000 84230 333 84840 86360 92418;
0196170670999992000101812004+40710+029810FM-12+001899999V0200901N002110300019N0200001N1+01901+01391102171ADDAA199000091GA1041+012009089GA2061+030009039GF106991041021012501031001MD1810021+9999REMSYN082AAXX  18124 17067 32670 60904 10190 20139 40217 58002 84230 333 84840 86360 92418;EQDQ01  00002PRCP99
0166170670999992000101815004+40710+029810FM-12+001899999V0200501N003610300019N0200001N1+01751+01341102121ADDGA1021+012009089GA2041+030009039GF106991021021012501031001MD1710051+9999REMSYN082AAXX  18154 17067 42670 60507 10175 20134 40212 57005 82230 333 82840 84360 92418;
0239170670999992000101906004+40710+029810FM-12+001899999V0201401N001010300019N0200001N1+01521+01291102121ADDAA199000091GA1031+012009089GA2051+030009039GF106991031021012501031001IA1019IA2999+01209KA1120N+01441MD1410001+9999REMSYN094AAXX  19064 17067 32670 61402 10152 20129 40212 54000 83230 333 20144 30012 83840 85360 92408;EQDQ01  00002PRCP99
0144170670999992000101909004+40710+029810FM-12+001899999V0201101N002110108019N0200001N1+01761+01081102121ADDGA1061+010809089GF106991061021012501001001MD1410001+9999REMSYN076AAXX  19094 17067 42670 61104 10176 20108 40212 54000 86200 333 86836 92418;
0144170670999992000101915004+40710+029810FM-12+001899999V0200301N004610108019N0200001N1+01541+01201102121ADDGA1061+010809089GF106991061021012501001001MD1410001+9999REMSYN076AAXX  19154 17067 42670 60309 10154 20120 40212 54000 86200 333 86836 92438;
0238170670999992000102006004+40710+029810FM-12+001899999V0201101N001010090019N0200001N1+01281+01181102291ADDAA112000191AY181061AY221061GA1071+009009089GF107991071021008001001001IA1099IA2999+01009KA1120N+01261MD1310041+9999MW1021REMSYN106AAXX  20064 17067 11570 71102 10128 20118 40229 53004 69922 70282 87200 333 20126 31010 70002 87830 92408;
0144170670999992000102009004+40710+029810FM-12+001899999V0200501N003610090019N0200001N1+01521+01191102291ADDGA1051+009009089GF105991051021008001001001MD1410001+9999REMSYN076AAXX  20094 17067 42570 50507 10152 20119 40229 54000 85200 333 85830 92428;
0211170670999992000102012004+40710+029810FM-12+001899999V0203601N004110090019N0100001N1+01571+01111102291ADDAA106000791AY121061AY221061GA1021+008109099GA2051+009009089GF107991071091008001001001MD1410001+9999MW1801REMSYN094AAXX  20124 17067 11560 73608 10157 20111 40229 54000 69901 78022 87900 333 82927 85830 92427;
0194170670999992000102015004+40710+029810FM-12+001899999V0200301N006210090019N0100001N1+01341+01101102291ADDAY181031AY281031GA1011+008109099GA2061+009009089GF107991071091008001001001MD1410001+9999MW1801REMSYN088AAXX  20154 17067 41560 70312 10134 20110 40229 54000 78088 87900 333 81927 86830 92427;
0260170670999992000102106004+40710+029810FM-12+001899999V0201501N002110300019N0100001N1+01071+00951102521ADDAA112005191AY121061AY221061GA1041+009009089GA2061+030009039GF107991041021008001031001IA1119IA2999+00909KA1120N+01051MD1210081+9999MW1801REMSYN112AAXX  21064 17067 11560 71504 10107 20095 40252 52008 60052 78022 84230 333 20105 32009 70048 84830 86360 92407;
0194170670999992000102109004+40710+029810FM-12+001899999V0201301N001510300019N0100001N1+01121+01041102601ADDAY181031AY281031GA1041+009009089GA2061+030009039GF107991041021008001031001MD1210081+9999MW1801REMSYN088AAXX  21094 17067 41560 71303 10112 20104 40260 52008 78088 84230 333 84830 86360 92417;
0211170670999992000102112004+40710+029810FM-12+001899999V0201101N001010300019N0100001N1+01141+01051102611ADDAA106004191AY181061AY281061GA1041+009009089GA2061+030009039GF107991041021008001031001MD1110011+9999MW1801REMSYN094AAXX  21124 17067 11560 71102 10114 20105 40261 51001 60041 78088 84230 333 84830 86360 92407;
0194170670999992000102115004+40710+029810FM-12+001899999V0200701N001510300019N0100001N1+01121+00981102611ADDAY181031AY281031GA1041+009009089GA2061+030009039GF107991041021008001031001MD1410001+9999MW1801REMSYN088AAXX  21154 17067 41560 70703 10112 20098 40261 54000 78088 84230 333 84830 86360 92417;
0260170670999992000102206004+40710+029810FM-12+001899999V0200901N002610300019N0100001N1+00981+00841102671ADDAA112007991AY181061AY281061GA1041+009009089GA2061+030009039GF107991041021008001031001IA1119IA2999+00809KA1120N+00951MD1810021+9999MW1801REMSYN112AAXX  22064 17067 11560 70905 10098 20084 40267 58002 60082 78088 84230 333 20095 32008 70080 84830 86360 92417;
0172170670999992000102209004+40710+029810FM-12+001899999V0200901N001010090019N0100001N1+01061+00881102671ADDAY181031AY281031GA1071+009009089GF107991071021008001001001MD1410001+9999MW1801REMSYN082AAXX  22094 17067 41560 70902 10106 20088 40267 54000 78088 87200 333 87830 92407;
0189170670999992000102212004+40710+029810FM-12+001899999V0201801N001010090019N0100001N1+01101+00921102651ADDAA106000591AY181061AY281061GA1071+009009089GF107991071021008001001001MD1810021+9999MW1801REMSYN088AAXX  22124 17067 11560 71802 10110 20092 40265 58002 69941 78088 87200 333 87830 92407;
0172170670999992000102215004+40710+029810FM-12+001899999V0203001N001010090019N0100001N1+01041+00951102671ADDAY181031AY281031GA1071+009009089GF107991071021008001001001MD1110021+9999MW1801REMSYN082AAXX  22154 17067 41560 73002 10104 20095 40267 51002 78088 87200 333 87830 92407;
0260170670999992000102306004+40710+029810FM-12+001899999V0201301N000510090019N0060001N1+01151+01071102481ADDAA112024991AY181061AY281061GA1051+009009089GA2071+030009039GF107991051021008001031001IA1119IA2999+00909KA1120N+01101MD1610031+9999MW1811REMSYN112AAXX  23064 17067 11556 71301 10115 20107 40248 56003 60252 78188 85230 333 20110 32009 70270 85830 87360 92406;
0194170670999992000102309004+40710+029810FM-12+001899999V0200701N001510090019N0100001N1+01151+01071102481ADDAY181031AY281031GA1051+009009089GA2061+030009039GF107991051021008001031001MD1410001+9999MW1801REMSYN088AAXX  23094 17067 41560 70703 10115 20107 40248 54000 78088 85230 333 85830 86360 92407;
0211170670999992000102312004+40710+029810FM-12+001899999V0203301N004110090019N0100001N1+01151+01071102481ADDAA106006191AY181061AY281061GA1051+009009089GA2061+030009039GF107991051021008001031001MD1410001+9999MW1801REMSYN094AAXX  23124 17067 11560 73308 10115 20107 40248 54000 60061 78088 85230 333 85830 86360 92427;
0194170670999992000102315004+40710+029810FM-12+001899999V0203401N002110090019N0100001N1+01141+01061102461ADDAY181031AY281031GA1051+009009089GA2061+030009039GF107991051021008001031001MD1610021+9999MW1801REMSYN088AAXX  23154 17067 41560 73404 10114 20106 40246 56002 78088 85230 333 85830 86360 92417;
0238170670999992000102406004+40710+029810FM-12+001899999V0203501N004610090019N0100001N1+01201+01041102151ADDAA112004191AY181061AY281061GA1061+009009089GF106991061021008001001001IA1119IA2999+00909KA1120N+01051MD1410001+9999MW1801REMSYN106AAXX  24064 17067 11560 63509 10120 20104 40215 54000 60042 78088 86200 333 20105 32009 70103 86830 92427;
0172170670999992000102409004+40710+029810FM-12+001899999V0203601N004110090019N0200001N1+01261+01101102191ADDAY181031AY281031GA1061+009009089GF106991061021008001001001MD1210041+9999MW1251REMSYN082AAXX  24094 17067 41570 63608 10126 20110 40219 52004 72588 86200 333 86830 92428;
0189170670999992000102412004+40710+029810FM-12+001899999V0203601N004110090019N0200001N1+01241+01051102231ADDAA106000191AY181061AY221061GA1061+009009089GF106991061021008001001001MD1210041+9999MW1021REMSYN088AAXX  24124 17067 11570 63608 10124 20105 40223 52004 69921 70282 86200 333 86830 92428;
0144170670999992000102415004+40710+029810FM-12+001899999V0203601N002610090019N0200001N1+01221+01081102251ADDGA1071+009009089GF107991071021008001001001MD1310021+9999REMSYN076AAXX  24154 17067 42570 73605 10122 20108 40225 53002 87200 333 87830 92418;
0260170670999992000102506004+40710+029810FM-12+001899999V0200401N001010300019N0200001N1+01151+01001102301ADDAA112000191AY181061AY221061GA1031+010809089GA2051+030009039GF106991031021012501031001IA1119IA2999+00909KA1120N+01001MD1410001+9999MW1021REMSYN112AAXX  25064 17067 11670 60402 10115 20100 40230 54000 69912 70282 83230 333 20100 32009 70003 83836 85360 92408;
0166170670999992000102509004+40710+029810FM-12+001899999V0200201N001010300019N0200001N1+01581+00981102321ADDGA1031+010809089GA2041+030009039GF105991031021012501031001MD1110021+9999REMSYN082AAXX  25094 17067 42670 50202 10158 20098 40232 51002 83230 333 83836 84360 92408;
0196170670999992000102512004+40710+029810FM-12+001899999V0202701N002110300019N0200001N1+01591+00901102321ADDAA199000091GA1031+010809089GA2041+030009039GF105991031021012501031001MD1410001+9999REMSYN082AAXX  25124 17067 32670 52704 10159 20090 40232 54000 83230 333 83836 84360 92418;EQDQ01  00002PRCP99
0194170670999992000102515004+40710+029810FM-12+001899999V0202501N001012200019N0100001N1+01541+00931102321ADDAY121031AY221031GA1021+012009089GA2031+030009039GF104991021011012501031001MD1410001+9999MW1101REMSYN088AAXX  25154 17067 41660 42502 10154 20093 40232 54000 71022 82130 333 82840 83360 92407;
0245170670999992000102606004+40710+029810FM-12+001899999V0201201N001012200019N0100001N1+00771+00681102321ADDAA199000091AY101061AY201061GA1011+012009089GF101991011011012501001001IA1099IA2999+00409KA1120N+00661MD1410001+9999MW1101REMSYN094AAXX  26064 17067 31660 11202 10077 20068 40232 54000 71000 81100 333 20066 31004 81840 92407;EQDQ01  00002PRCP99
0132170670999992000102609004+40710+029810FM-12+001899999V0200201N001012200019N0200001N1+01361+00971102321ADDGA1001+999999999GF100991001001999999001001MD1410001+9999REMSYN064AAXX  26094 17067 42970 00202 10136 20097 40232 54000 333 92408;
0162170670999992000102612004+40710+029810FM-12+001899999V0203101N001012200019N0200001N1+01851+01451102301ADDAA199000091GA1001+999999999GF100991001001999999001001MD1810021+9999REMSYN064AAXX  26124 17067 32970 03102 10185 20145 40230 58002 333 92408;EQDQ01  00002PRCP99
0132170670999992000102615004+40710+029810FM-12+001899999V0202001N001012200019N0200001N1+01521+01331102301ADDGA1001+999999999GF100991001001999999001001MD1410001+9999REMSYN064AAXX  26154 17067 42970 02002 10152 20133 40230 54000 333 92408;
0205170670999992000102706004+40710+029810FM-12+001899999V0201401N001012200019N0200001N1+00881+00771102321ADDAA199000091GA1001+999999999GF100991001001999999001001IA1019IA2999+06009KA1120N+00721MD1410001+9999REMSYN076AAXX  27064 17067 32970 01402 10088 20077 40232 54000 333 20072 30060 92408;EQDQ01  00002PRCP99
0132170670999992000102709004+40710+029810FM-12+001899999V0202801N001012200019N0200001N1+01601+01271102221ADDGA1001+999999999GF100991001001999999001001MD1810101+9999REMSYN064AAXX  27094 17067 42970 02802 10160 20127 40222 58010 333 92408;
0162170670999992000102712004+40710+029810FM-12+001899999V0202901N001012200019N0200001N1+02061+01341101921ADDAA199000091GA1001+999999999GF100991001001999999001001MD1710251+9999REMSYN064AAXX  27124 17067 32970 02902 10206 20134 40192 57025 333 92408;EQDQ01  00002PRCP99
0144170670999992000102715004+40710+029810FM-12+001899999V0202501N002112200019N0200001N1+01781+01351101731ADDGA1021+060009009GF102991001001999999001011MD1710191+9999REMSYN076AAXX  27154 17067 42970 22504 10178 20135 40173 57019 80001 333 82070 92418;
0260170670999992000102806004+40710+029810FM-12+001899999V0201501N001010300019N0200001N1+01261+01071101871ADDAA112000191AY181061AY221061GA1041+010809089GA2061+030009039GF107991041021012501031001IA1119IA2999+00709KA1120N+01071MD1310051+9999MW1021REMSYN112AAXX  28064 17067 11670 71502 10126 20107 40187 53005 69922 70282 84230 333 20107 32007 70002 84836 86360 92408;
0172170670999992000102809004+40710+029810FM-12+001899999V0202401N002110108019N0100001N1+01441+01221102001ADDAY121031AY221031GA1071+010809089GF107991071021000251001001MD1210131+9999MW1801REMSYN082AAXX  28094 17067 41060 72404 10144 20122 40200 52013 78022 87200 333 87836 92417;
0189170670999992000102812004+40710+029810FM-12+001899999V0203401N001010090019N0100001N1+01341+01161102121ADDAA106000591AY121061AY221061GA1071+009009089GF107991071021008001001001MD1210121+9999MW1801REMSYN088AAXX  28124 17067 11560 73402 10134 20116 40212 52012 69941 78022 87200 333 87830 92407;
0172170670999992000102815004+40710+029810FM-12+001899999V0203101N002110090019N0100001N1+01301+01181102221ADDAY181031AY281031GA1071+009009089GF107991071021008001001001MD1210101+9999MW1801REMSYN082AAXX  28154 17067 41560 73104 10130 20118 40222 52010 78088 87200 333 87830 92417;
0204170670999992000102906004+40710+029810FM-12+001899999V0201801N000510120019N0200001N1+00861+00631102561ADDAA124000591GA1061+012009089GF106991061021012501001001IA1099IA2999+00509KA1120N+00751MD1310041+9999REMSYN094AAXX  29064 17067 32670 61801 10086 20063 40256 53004 86200 333 20075 31005 70006 86840 92408;
0144170670999992000102909004+40710+029810FM-12+001899999V0200401N001510120019N0200001N1+01401+01141102701ADDGA1051+012009089GF105991051021012501001001MD1210141+9999REMSYN076AAXX  29094 17067 42670 50403 10140 20114 40270 52014 85200 333 85840 92408;
0174170670999992000102912004+40710+029810FM-12+001899999V0200701N001512200019N0200001N1+01631+01221102591ADDAA199000091GA1031+010809089GF103991031021012501001001MD1710111+9999REMSYN076AAXX  29124 17067 32670 30703 10163 20122 40259 57011 83200 333 83836 92408;EQDQ01  00002PRCP99
0144170670999992000102915004+40710+029810FM-12+001899999V0200701N001512200019N0200001N1+01421+01031102581ADDGA1031+012009089GF103991031021012501001001MD1810011+9999REMSYN076AAXX  29154 17067 42670 30703 10142 20103 40258 58001 83200 333 83840 92408;
0233170670999992000103006004+40710+029810FM-12+001899999V0201001N001512200019N0040001N1+00801+00721102541ADDAA199000091AY101061AY201061GA1001+999999999GF100991001001999999001001IA1099IA2999+00409KA1120N+00651MD1410001+9999MW1101REMSYN082AAXX  30064 17067 31940 01003 10080 20072 40254 54000 71000 333 20065 31004 92405;EQDQ01  00002PRCP99
0160170670999992000103009004+40710+029810FM-12+001899999V0200501N001512200019N0100001N1+01201+00911102501ADDAY101031AY201031GA1001+999999999GF100991001001999999001001MD1710041+9999MW1101REMSYN070AAXX  30094 17067 41960 00503 10120 20091 40250 57004 71000 333 92407;
0202170670999992000103012004+40710+029810FM-12+001899999V0202701N002112200019N0100001N1+01581+01131102351ADDAA199000091AY101061AY201061GA1011+012009089GF101991011011012501001001MD1710151+9999MW1101REMSYN082AAXX  30124 17067 31660 12704 10158 20113 40235 57015 71000 81100 333 81840 92407;EQDQ01  00002PRCP99
0172170670999992000103015004+40710+029810FM-12+001899999V0202701N001512200019N0100001N1+01401+01041102301ADDAY101031AY201031GA1011+012009089GF101991011011012501001001MD1810051+9999MW1101REMSYN082AAXX  30154 17067 41660 12703 10140 20104 40230 58005 71000 81100 333 81840 92407;
0160170670999992000103109004+40710+029810FM-12+001899999V0200701N001012200019N0060001N1+01321+00981102261ADDAY141031AY201031GA1001+999999999GF100991001001999999001001MD1410001+9999MW1101REMSYN070AAXX  31094 17067 41956 00702 10132 20098 40226 54000 71040 333 92406;
0190170670999992000103112004+40710+029810FM-12+001899999V0200401N000512200019N0200001N1+01801+01461102121ADDAA199000091AY141061AY201061GA1001+999999999GF100991001001999999001001MD1810141+9999MW1021REMSYN070AAXX  31124 17067 31970 00401 10180 20146 40212 58014 70240 333 92408;EQDQ01  00002PRCP99
0160170670999992000103115004+40710+029810FM-12+001899999V0202701N001512200019N0080001N1+01541+01161102011ADDAY101031AY201031GA1001+999999999GF100991001001999999001001MD1710111+9999MW1101REMSYN070AAXX  31154 17067 41958 02703 10154 20116 40201 57011 71000 333 92406;
0233170670999992000110106004+40710+029810FM-12+001899999V0201201N001012200019N0100001N1+00781+00641102001ADDAA199000091AY101061AY201061GA1001+999999999GF100991001001999999001001IA1099IA2999+00509KA1120N+00751MD1410001+9999MW1101REMSYN082AAXX  01064 17067 31960 01202 10078 20064 40200 54000 71000 333 20075 31005 92407;EQDQ01  00002PRCP99
0172170670999992000110109004+40710+029810FM-12+001899999V0200901N000512200019N0100001N1+01421+01021102001ADDAY101031AY201031GA1011+030009039GF101991011001999999031001MD1410001+9999MW1101REMSYN082AAXX  01094 17067 41960 10901 10142 20102 40200 54000 71000 81030 333 81360 92407;
0162170670999992000110112004+40710+029810FM-12+001899999V0202701N002612200019N0200001N1+01821+01281101871ADDAA199000091GA1001+999999999GF100991001001999999001001MD1810131+9999REMSYN064AAXX  01124 17067 32970 02705 10182 20128 40187 58013 333 92408;EQDQ01  00002PRCP99
0132170670999992000110115004+40710+029810FM-12+001899999V0202401N001012200019N0200001N1+01621+01391101841ADDGA1001+999999999GF100991001001999999001001MD1710031+9999REMSYN064AAXX  01154 17067 42970 02402 10162 20139 40184 57003 333 92408;
0227170670999992000110206004+40710+029810FM-12+001899999V0201201N001012200019N0100001N1+01021+00781999999ADDAA199000091AY101061AY201061GA1001+999999999GF100991001001999999001001IA1019IA2999+00709KA1120N+00901MD1610021+9999MW1101REMSYN076AAXX  02064 17067 31960 01202 10102 20078 56002 71000 333 20090 30007 92407;EQDQ01  00002PRCP99
0132170670999992000110209004+40710+029810FM-12+001899999V0200401N001012200019N0200001N1+01621+00861101771ADDGA1001+999999999GF100991001001999999001001MD1810031+9999REMSYN064AAXX  02094 17067 42970 00402 10162 20086 40177 58003 333 92408;
0162170670999992000110212004+40710+029810FM-12+001899999V0202901N001512200019N0200001N1+02121+01111101631ADDAA199000091GA1001+999999999GF100991001001999999001001MD1710141+9999REMSYN064AAXX  02124 17067 32970 02903 10212 20111 40163 57014 333 92408;EQDQ01  00002PRCP99
0144170670999992000110215004+40710+029810FM-12+001899999V0202701N001512200019N0200001N1+01781+01151101621ADDGA1021+030009039GF102991021001999999031001MD1610011+9999REMSYN076AAXX  02154 17067 42970 22703 10178 20115 40162 56001 82030 333 82360 92408;
0238170670999992000110306004+40710+029810FM-12+001899999V0201301N001012200019N0100001N1+01301+01201101761ADDAA112001091AY181061AY221061GA1041+010809089GF104991041021012501001001IA1119IA2999+00909KA1120N+01261MD1310051+9999MW1101REMSYN106AAXX  03064 17067 11660 41302 10130 20120 40176 53005 60012 71082 84200 333 20126 32009 70012 84836 92407;
0172170670999992000110309004+40710+029810FM-12+001899999V0200401N000512200019N0100001N1+01821+01521101821ADDAY101031AY201031GA1041+010809089GF104991041021012501001001MD1210061+9999MW1101REMSYN082AAXX  03094 17067 41660 40401 10182 20152 40182 52006 71000 84200 333 84836 92407;
0174170670999992000110312004+40710+029810FM-12+001899999V0202701N001512200019N0200001N1+01921+01741101851ADDAA199000091GA1031+010809089GF103991031021012501001001MD1310031+9999REMSYN076AAXX  03124 17067 32670 32703 10192 20174 40185 53003 83200 333 83836 92408;EQDQ01  00002PRCP99
0132170670999992000110315004+40710+029810FM-12+001899999V0202301N001012200019N0200001N1+01751+01551101821ADDGA1001+999999999GF100991001001999999001001MD1610031+9999REMSYN064AAXX  03154 17067 42970 02302 10175 20155 40182 56003 333 92408;
0233170670999992000110406004+40710+029810FM-12+001899999V0201301N000512200019N0100001N1+01221+01111101941ADDAA199000091AY101061AY201061GA1001+999999999GF100991001001999999001001IA1099IA2999+00909KA1120N+01151MD1310041+9999MW1101REMSYN082AAXX  04064 17067 31960 01301 10122 20111 40194 53004 71000 333 20115 31009 92407;EQDQ01  00002PRCP99
0160170670999992000110409004+40710+029810FM-12+001899999V0200501N001012200019N0100001N1+01801+01301102021ADDAY101031AY201031GA1001+999999999GF100991001001999999001001MD1210081+9999MW1101REMSYN070AAXX  04094 17067 41960 00502 10180 20130 40202 52008 71000 333 92407;
0174170670999992000110412004+40710+029810FM-12+001899999V0202701N001512200019N0200001N1+02001+01431102021ADDAA199000091GA1011+012009089GF101991011011012501001001MD1410001+9999REMSYN076AAXX  04124 17067 32670 12703 10200 20143 40202 54000 81100 333 81840 92408;EQDQ01  00002PRCP99
0144170670999992000110415004+40710+029810FM-12+001899999V0202701N002112200019N0200001N1+01661+01381102021ADDGA1011+012009089GF101991011011012501001001MD1410001+9999REMSYN076AAXX  04154 17067 42670 12704 10166 20138 40202 54000 81100 333 81840 92418;
0233170670999992000110506004+40710+029810FM-12+001899999V0201401N001012200019N0060001N1+01221+01061102071ADDAA199000091AY101061AY201061GA1001+999999999GF100991001001999999001001IA1019IA2999+00909KA1120N+01101MD1310021+9999MW1101REMSYN082AAXX  05064 17067 31956 01402 10122 20106 40207 53002 71000 333 20110 30009 92406;EQDQ01  00002PRCP99
0172170670999992000110509004+40710+029810FM-12+001899999V0203101N001510600019N0100001N1+01621+01421102201ADDAY101031AY201031GA1051+060009009GF105991001001999999001011MD1210131+9999MW1101REMSYN082AAXX  05094 17067 41960 53103 10162 20142 40220 52013 71000 80001 333 85070 92407;
0190170670999992000110512004+40710+029810FM-12+001899999V0202701N004612200019N0100001N1+01841+01471102121ADDAA199000091AY101061AY201061GA1001+999999999GF100991001001999999001001MD1710081+9999MW1101REMSYN070AAXX  05124 17067 31960 02709 10184 20147 40212 57008 71000 333 92407;EQDQ01  00002PRCP99
0172170670999992000110515004+40710+029810FM-12+001899999V0202701N004612200019N0080001N1+01701+01511102121ADDAY101031AY201031GA1031+060009009GF103991001001999999001011MD1410001+9999MW1101REMSYN082AAXX  05154 17067 41958 32709 10170 20151 40212 54000 71000 80001 333 83070 92416;
0245170670999992000110606004+40710+029810FM-12+001899999V0200901N000512200019N0040001N1+01231+01151101841ADDAA199000091AY101061AY201061GA1041+030009039GF104991041001999999031001IA1099IA2999+01009KA1120N+01221MD1810031+9999MW1101REMSYN094AAXX  06064 17067 31940 40901 10123 20115 40184 58003 71000 84030 333 20122 31010 84360 92406;EQDQ01  00002PRCP99
0172170670999992000110609004+40710+029810FM-12+001899999V0200901N001012200019N0100001N1+01761+01331101751ADDAY101031AY201031GA1041+030009039GF104991041001999999031001MD1710091+9999MW1101REMSYN082AAXX  06094 17067 41960 40902 10176 20133 40175 57009 71000 84030 333 84360 92407;
0224170670999992000110612004+40710+029810FM-12+001899999V0200701N001010600019N0100001N1+02041+01401101481ADDAA199000091AY101061AY201061GA1031+030009039GA2051+060009009GF106991031001999999031011MD1710271+9999MW1101REMSYN088AAXX  06124 17067 31960 60702 10204 20140 40148 57027 71000 83031 333 83360 85070 92407;EQDQ01  00002PRCP99
0194170670999992000110615004+40710+029810FM-12+001899999V0202501N002110600019N0100001N1+01761+01431101481ADDAY121031AY221031GA1031+030009039GA2051+060009009GF106991031001999999031011MD1410001+9999MW1101REMSYN088AAXX  06154 17067 41960 62504 10176 20143 40148 54000 71022 83031 333 83360 85070 92417;
0233170670999992000110706004+40710+029810FM-12+001899999V0201301N001012200019N0100001N1+01241+01071101421ADDAA199000091AY101061AY201061GA1001+999999999GF100991001001999999001001IA1099IA2999+00809KA1120N+01101MD1310041+9999MW1101REMSYN082AAXX  07064 17067 31960 01302 10124 20107 40142 53004 71000 333 20110 31008 92407;EQDQ01  00002PRCP99
0144170670999992000110709004+40710+029810FM-12+001899999V0201301N001512200019N0200001N1+01801+01501101401ADDGA1031+060009009GF103991001001999999001011MD1810021+9999REMSYN076AAXX  07094 17067 42970 31303 10180 20150 40140 58002 80001 333 83070 92408;
0174170670999992000110712004+40710+029810FM-12+001899999V0202801N001012200019N0200001N1+02241+01901101221ADDAA199000091GA1031+060009009GF103991001001999999001011MD1710181+9999REMSYN076AAXX  07124 17067 32970 32802 10224 20190 40122 57018 80001 333 83070 92408;EQDQ01  00002PRCP99
0172170670999992000110715004+40710+029810FM-12+001899999V0202401N002112200019N0100001N1+01881+01621101191ADDAY101031AY201031GA1031+060009009GF103991001001999999001011MD1610031+9999MW1101REMSYN082AAXX  07154 17067 41960 32404 10188 20162 40119 56003 71000 80001 333 83070 92407;
0217170670999992000110806004+40710+029810FM-12+001899999V0200901N001012200019N0200001N1+01121+00891101521ADDAA199000091GA1021+030009039GF102991021001999999031001IA1099IA2999+00809KA1120N+01001MD1210081+9999REMSYN088AAXX  08064 17067 32970 20902 10112 20089 40152 52008 82030 333 20100 31008 82360 92408;EQDQ01  00002PRCP99
0096170670999992000110809004+40710+029810FM-12+001899999V0200701N001012200019N0200001N1+01931+01581999999ADDGA1001+999999999GF100991001001999999001001REMSYN042AAXX  08094 17067 42970 00702 10193 20158;
0162170670999992000110812004+40710+029810FM-12+001899999V0202701N001512200019N0200001N1+02531+01891101591ADDAA199000091GA1001+999999999GF100991001001999999001001MD1110011+9999REMSYN064AAXX  08124 17067 32970 02703 10253 20189 40159 51001 333 92408;EQDQ01  00002PRCP99
0132170670999992000110815004+40710+029810FM-12+001899999V0201401N001012200019N0200001N1+02181+01651101591ADDGA1001+999999999GF100991001001999999001001MD1410001+9999REMSYN064AAXX  08154 17067 42970 01402 10218 20165 40159 54000 333 92408;
0217170670999992000110906004+40710+029810FM-12+001899999V0201301N001010300019N0200001N1+01281+01151101981ADDAA199000091GA1061+030009039GF106991061001999999031001IA1019IA2999+01009KA1120N+01241MD1310041+9999REMSYN088AAXX  09064 17067 32970 61302 10128 20115 40198 53004 86030 333 20124 30010 86360 92408;EQDQ01  00002PRCP99
0144170670999992000110909004+40710+029810FM-12+001899999V0200901N001012200019N0200001N1+01861+01631102031ADDGA1041+060009009GF104991001001999999001011MD1210051+9999REMSYN076AAXX  09094 17067 42970 40902 10186 20163 40203 52005 80001 333 84070 92408;
0174170670999992000110912004+40710+029810FM-12+001899999V0202301N002112200019N0200001N1+02401+01801102031ADDAA199000091GA1041+060009009GF104991001001999999001011MD1410001+9999REMSYN076AAXX  09124 17067 32970 42304 10240 20180 40203 54000 80001 333 84070 92418;EQDQ01  00002PRCP99
0144170670999992000110915004+40710+029810FM-12+001899999V0202301N001010600019N0200001N1+02001+01701102031ADDGA1051+060009009GF105991001001999999001011MD1410001+9999REMSYN076AAXX  09154 17067 42970 52302 10200 20170 40203 54000 80001 333 85070 92408;
0217170670999992000111006004+40710+029810FM-12+001899999V0201401N001512200019N0200001N1+01141+00881102141ADDAA199000091GA1011+030009039GF101991011001999999031001IA1019IA2999+00809KA1120N+01101MD1310071+9999REMSYN088AAXX  10064 17067 32970 11403 10114 20088 40214 53007 81030 333 20110 30008 81360 92408;EQDQ01  00002PRCP99
0144170670999992000111009004+40710+029810FM-12+001899999V0200901N001012200019N0200001N1+01841+01461102141ADDGA1011+030009039GF101991011001999999031001MD1410001+9999REMSYN076AAXX  10094 17067 42970 10902 10184 20146 40214 54000 81030 333 81360 92408;
0190170670999992000111012004+40710+029810FM-12+001899999V0202701N001512200019N0200001N1+02281+01561102081ADDAA199000091GA1071+030009039GF199999011001999999031001MD1710061+9999REMSYN076AAXX  10124 17067 32970 12703 10228 20156 40208 57006 81030 333 87360 92408;EQDQ01+000012SCOTCVQ02  00002PRCP99
0166170670999992000111015004+40710+029810FM-12+001899999V0202701N001512200019N0200001N1+01981+01531102051ADDGA1011+030009039GA2041+060009009GF104991011001999999031011MD1810031+9999REMSYN082AAXX  10154 17067 42970 42703 10198 20153 40205 58003 81031 333 81360 84070 92408;
0217170670999992000111106004+40710+029810FM-12+001899999V0201201N001010600019N0200001N1+01241+01041102091ADDAA199000091GA1051+060009009GF105991001001999999001011IA1019IA2999+00909KA1120N+01161MD1410001+9999REMSYN088AAXX  11064 17067 32970 51202 10124 20104 40209 54000 80001 333 20116 30009 85070 92408;EQDQ01  00002PRCP99
0166170670999992000111109004+40710+029810FM-12+001899999V0201801N001010600019N0200001N1+01801+01501102241ADDGA1031+030009039GA2061+060009009GF106991031001999999031011MD1210151+9999REMSYN082AAXX  11094 17067 42970 61802 10180 20150 40224 52015 83031 333 83360 86070 92408;
0196170670999992000111112004+40710+029810FM-12+001899999V0203001N004110600019N0200001N1+01941+01601102241ADDAA199000091GA1031+030009039GA2061+060009009GF106991031001999999031011MD1410001+9999REMSYN082AAXX  11124 17067 32970 63008 10194 20160 40224 54000 83031 333 83360 86070 92418;EQDQ01  00002PRCP99
0144170670999992000111115004+40710+029810FM-12+001899999V0201301N001010300019N0200001N1+01721+01541102321ADDGA1051+030009039GF105991051001999999031001MD1210081+9999REMSYN076AAXX  11154 17067 42970 51302 10172 20154 40232 52008 85030 333 85360 92408;
0217170670999992000111206004+40710+029810FM-12+001899999V0201101N001010120019N0200001N1+01441+01241102721ADDAA199000091GA1061+012009089GF106991061021012501001001IA1019IA2999+01209KA1120N+01161MD1210051+9999REMSYN088AAXX  12064 17067 32670 61102 10144 20124 40272 52005 86200 333 20116 30012 86840 92408;EQDQ01  00002PRCP99
0144170670999992000111209004+40710+029810FM-12+001899999V0200701N001510120019N0200001N1+01651+01401102791ADDGA1061+012009089GF106991061021999999001001MD1210071+9999REMSYN076AAXX  12094 17067 42970 60703 10165 20140 40279 52007 86200 333 86840 92408;
0174170670999992000111212004+40710+029810FM-12+001899999V0200901N002110120019N0200001N1+01641+01281102791ADDAA199000091GA1061+012009089GF106991061021012501001001MD1410001+9999REMSYN076AAXX  12124 17067 32670 60904 10164 20128 40279 54000 86200 333 86840 92408;EQDQ01  00002PRCP99
0144170670999992000111215004+40710+029810FM-12+001899999V0200401N004110120019N0200001N1+01421+01101102791ADDGA1061+012009089GF106991061021012501001001MD1410001+9999REMSYN076AAXX  12154 17067 42670 60408 10142 20110 40279 54000 86200 333 86840 92418;
0205170670999992000111306004+40710+029810FM-12+001899999V0201801N001512200019N0200001N1+00781+00681102661ADDAA199000091GA1001+999999999GF100991001001999999001001IA1099IA2999+00409KA1120N+00741MD1110021+9999REMSYN076AAXX  13064 17067 32970 01803 10078 20068 40266 51002 333 20074 31004 92408;EQDQ01  00002PRCP99
0132170670999992000111309004+40710+029810FM-12+001899999V0201101N001512200019N0200001N1+01421+01151102651ADDGA1001+999999999GF100991001001999999001001MD1810011+9999REMSYN064AAXX  13094 17067 42970 01103 10142 20115 40265 58001 333 92408;
0181170670999992000111315004+40710+029810FM-12+001899999V0201301N001512200019N0200001N1+01421+01101102191ADDGA1001+999999999GF100991001001999999001001IA1099IA2999+00309KA1120N+00551MD1410001+9999REMSYN082AAXX  13154 17067 42970 01303 10142 2011/ 3/051 40219 54000 333 20055 31003 92408;
0205170670999992000111406004+40710+029810FM-12+001899999V0201301N001012200019N0200001N1+00681+00511102191ADDAA199000091GA1001+999999999GF100991001001999999001001IA1099IA2999+00309KA1120N+00551MD1410001+9999REMSYN076AAXX  14064 17067 32970 01302 10068 20051 40219 54000 333 20055 31003 92408;EQDQ01  00002PRCP99
0132170670999992000111409004+40710+029810FM-12+001899999V0200701N001012200019N0200001N1+01341+00791102191ADDGA1001+999999999GF100991001001999999001001MD1410001+9999REMSYN064AAXX  14094 17067 42970 00702 10134 20079 40219 54000 333 92408;
0162170670999992000111412004+40710+029810FM-12+001899999V0200201N000512200019N0200001N1+01861+01271102121ADDAA199000091GA1001+999999999GF100991001001999999001001MD1710071+9999REMSYN064AAXX  14124 17067 32970 00201 10186 20127 40212 57007 333 92408;EQDQ01  00002PRCP99
0132170670999992000111415004+40710+029810FM-12+001899999V0201801N001012200019N0200001N1+01561+01041102081ADDGA1001+999999999GF100991001001999999001001MD1810041+9999REMSYN064AAXX  14154 17067 42970 01802 10156 20104 40208 58004 333 92408;
0205170670999992000111506004+40710+029810FM-12+001899999V0200901N001512200019N0200001N1+00741+00631102141ADDAA199000091GA1001+999999999GF100991001001999999001001IA1019IA2999+00209KA1120N+00681MD1410001+9999REMSYN076AAXX  15064 17067 32970 00903 10074 20063 40214 54000 333 20068 30002 92408;EQDQ01  00002PRCP99
0132170670999992000111509004+40710+029810FM-12+001899999V0200501N001012200019N0200001N1+01361+01081102141ADDGA1001+999999999GF100991001001999999001001MD1410001+9999REMSYN064AAXX  15094 17067 42970 00502 10136 20108 40214 54000 333 92408;
0162170670999992000111512004+40710+029810FM-12+001899999V0203601N001512200019N0200001N1+01961+01521102141ADDAA199000091GA1001+999999999GF100991001001999999001001MD1410001+9999REMSYN064AAXX  15124 17067 32970 03603 10196 20152 40214 54000 333 92408;EQDQ01  00002PRCP99
0160170670999992000111515004+40710+029810FM-12+001899999V0202501N001512200019N0100001N1+01561+01331102121ADDAY101031AY201031GA1001+999999999GF100991001001999999001001MD1610021+9999MW1101REMSYN070AAXX  15154 17067 41960 02503 10156 20133 40212 56002 71000 333 92407;
0205170670999992000111606004+40710+029810FM-12+001899999V0201001N001012200019N0200001N1+00681+00451102171ADDAA199000091GA1001+999999999GF100991001001999999001001IA1099IA2999+00409KA1120N+00631MD1310051+9999REMSYN076AAXX  16064 17067 32970 01002 10068 20045 40217 53005 333 20063 31004 92408;EQDQ01  00002PRCP99
0132170670999992000111609004+40710+029810FM-12+001899999V0200701N001012200019N0200001N1+01421+00871102201ADDGA1001+999999999GF100991001001999999001001MD1110031+9999REMSYN064AAXX  16094 17067 42970 00702 10142 20087 40220 51003 333 92408;
0162170670999992000111612004+40710+029810FM-12+001899999V0202901N001012200019N0200001N1+01821+01281102131ADDAA199000091GA1001+999999999GF100991001001999999001001MD1710071+9999REMSYN064AAXX  16124 17067 32970 02902 10182 20128 40213 57007 333 92408;EQDQ01  00002PRCP99
0132170670999992000111615004+40710+029810FM-12+001899999V0202701N001012200019N0200001N1+01941+01401102061ADDGA1001+999999999GF100991001001999999001001MD1710061+9999REMSYN064AAXX  16154 17067 42970 02702 10194 20140 40206 57006 333 92408;
0205170670999992000111706004+40710+029810FM-12+001899999V0200701N000512200019N0200001N1+00601+00481102091ADDAA199000091GA1001+999999999GF100991001001999999001001IA1099IA2999+00309KA1120N+00601MD1410001+9999REMSYN076AAXX  17064 17067 32970 00701 10060 20048 40209 54000 333 20060 31003 92408;EQDQ01  00002PRCP99
0132170670999992000111709004+40710+029810FM-12+001899999V0200401N000512200019N0200001N1+01281+00841102121ADDGA1001+999999999GF100991001001999999001001MD1110031+9999REMSYN064AAXX  17094 17067 42970 00401 10128 20084 40212 51003 333 92408;
0162170670999992000111712004+40710+029810FM-12+001899999V0202701N002612200019N0200001N1+01661+01001102061ADDAA199000091GA1001+999999999GF100991001001999999001001MD1710061+9999REMSYN064AAXX  17124 17067 32970 02705 10166 20100 40206 57006 333 92418;EQDQ01  00002PRCP99
0160170670999992000111715004+40710+029810FM-12+001899999V0202001N000512200019N0100001N1+01501+01171102021ADDAY101031AY201031GA1001+999999999GF100991001001999999001001MD1610041+9999MW1101REMSYN070AAXX  17154 17067 41960 02001 10150 20117 40202 56004 71000 333 92407;
0205170670999992000111806004+40710+029810FM-12+001899999V0201301N001012200019N0200001N1+00821+00361102021ADDAA199000091GA1001+999999999GF100991001001999999001001IA1099IA2999+00309KA1120N+00551MD1410001+9999REMSYN076AAXX  18064 17067 32970 01302 10082 20036 40202 54000 333 20055 31003 92408;EQDQ01  00002PRCP99
0132170670999992000111809004+40710+029810FM-12+001899999V0200901N001012200019N0200001N1+01301+00941102021ADDGA1001+999999999GF100991001001999999001001MD1410001+9999REMSYN064AAXX  18094 17067 42970 00902 10130 20094 40202 54000 333 92408;
0162170670999992000111812004+40710+029810FM-12+001899999V0202701N001512200019N0200001N1+01661+01041101951ADDAA199000091GA1001+999999999GF100991001001999999001001MD1710071+9999REMSYN064AAXX  18124 17067 32970 02703 10166 20104 40195 57007 333 92408;EQDQ01  00002PRCP99
0132170670999992000111815004+40710+029810FM-12+001899999V0202501N001012200019N0200001N1+01421+01001101921ADDGA1001+999999999GF100991001001999999001001MD1610031+9999REMSYN064AAXX  18154 17067 42970 02502 10142 20100 40192 56003 333 92408;
0205170670999992000111906004+40710+029810FM-12+001899999V0201101N001012200019N0200001N1+00541+00371101941ADDAA199000091GA1001+999999999GF100991001001999999001001IA1019IA2999+00209KA1120N+00521MD1610021+9999REMSYN076AAXX  19064 17067 32970 01102 10054 20037 40194 56002 333 20052 30002 92408;EQDQ01  00002PRCP99
0132170670999992000111909004+40710+029810FM-12+001899999V0200501N000512200019N0200001N1+01301+00561101961ADDGA1001+999999999GF100991001001999999001001MD1110021+9999REMSYN064AAXX  19094 17067 42970 00501 10130 20056 40196 51002 333 92408;
0162170670999992000111912004+40710+029810FM-12+001899999V0202701N002612200019N0200001N1+01621+00861101921ADDAA199000091GA1001+999999999GF100991001001999999001001MD1710041+9999REMSYN064AAXX  19124 17067 32970 02705 10162 20086 40192 57004 333 92418;EQDQ01  00002PRCP99
0144170670999992000111915004+40710+029810FM-12+001899999V0209999C000012200019N0200001N1+01421+01181101921ADDGA1021+060009009GF102991001001999999001011MD1410001+9999REMSYN076AAXX  19154 17067 42970 20000 10142 20118 40192 54000 80001 333 82070 92408;
0263170670999992000112006004+40710+029810FM-12+001899999V0201101N000510300019N0100001N1+00701+00401102051ADDAA199000091AY101061AY201061GA1051+030009039GF105991051001999999031001IA1019IA2999+00309KA1120N+00561MW1101REMSYN094AAXX  20064 17067 31960 51101 10070 20040 40205 5300/ 71000 85030 333 20056 30003 85360 92407;EQDQ01+000032APCTENQ02+000002APC3  Q03  00002PRCP99
0144170670999992000112009004+40710+029810FM-12+001899999V0200901N001012200019N0200001N1+01421+00671102071ADDGA1031+030009039GF103991031001999999031001MD1110021+9999REMSYN076AAXX  20094 17067 42970 30902 10142 20067 40207 51002 83030 333 83360 92408;
0174170670999992000112012004+40710+029810FM-12+001899999V0200601N001010300019N0200001N1+01821+01291102041ADDAA199000091GA1051+030009039GF105991051001999999031001MD1810031+9999REMSYN076AAXX  20124 17067 32970 50602 10182 20129 40204 58003 85030 333 85360 92408;EQDQ01  00002PRCP99
0194170670999992000112015004+40710+029810FM-12+001899999V0202601N001510300019N0100001N1+01601+01081102001ADDAY121031AY221031GA1031+012009089GA2051+030009039GF106991031021012501031001MD1710041+9999MW1101REMSYN088AAXX  20154 17067 41660 62603 10160 20108 40200 57004 71022 83230 333 83840 85360 92407;
0217170670999992000112106004+40710+029810FM-12+001899999V0201101N001012200019N0200001N1+00961+00841102021ADDAA199000091GA1011+012009089GF101991011011012501001001IA1019IA2999+00709KA1120N+00951MD1410001+9999REMSYN088AAXX  21064 17067 32670 11102 10096 20084 40202 54000 81100 333 20095 30007 81840 92408;EQDQ01  00002PRCP99
0144170670999992000112109004+40710+029810FM-12+001899999V0200701N001012200019N0200001N1+01541+01041102021ADDGA1011+012009089GF101991011011012501001001MD1410001+9999REMSYN076AAXX  21094 17067 42670 10702 10154 20104 40202 54000 81100 333 81840 92408;
0174170670999992000112112004+40710+029810FM-12+001899999V0202701N003112200019N0200001N1+01661+01101102001ADDAA199000091GA1031+012009089GF103991031021012501001001MD1810021+9999REMSYN076AAXX  21124 17067 32670 32706 10166 20110 40200 58002 83200 333 83840 92418;EQDQ01  00002PRCP99
0144170670999992000112115004+40710+029810FM-12+001899999V0202501N002612200019N0200001N1+01621+01001102001ADDGA1021+012009089GF102991021021012501001001MD1410001+9999REMSYN076AAXX  21154 17067 42670 22505 10162 20100 40200 54000 82200 333 82840 92418;
0217170670999992000112206004+40710+029810FM-12+001899999V0201101N001012200019N0200001N1+00941+00771102021ADDAA199000091GA1011+012009089GF101991011011012501001001IA1099IA2999+00609KA1120N+00871MD1310021+9999REMSYN088AAXX  22064 17067 32670 11102 10094 20077 40202 53002 81100 333 20087 31006 81840 92408;EQDQ01  00002PRCP99
0144170670999992000112209004+40710+029810FM-12+001899999V0200501N001012200019N0200001N1+01461+01041102091ADDGA1021+012009089GF102991021011012501001001MD1210071+9999REMSYN076AAXX  22094 17067 42670 20502 10146 20104 40209 52007 82100 333 82840 92408;
0174170670999992000112212004+40710+029810FM-12+001899999V0202801N001012200019N0200001N1+01881+01251102091ADDAA199000091GA1041+012009089GF104991041021012501001001MD1410001+9999REMSYN076AAXX  22124 17067 32670 42802 10188 20125 40209 54000 84200 333 84840 92408;EQDQ01  00002PRCP99
0144170670999992000112215004+40710+029810FM-12+001899999V0200901N001010108019N0200001N1+01541+01231102091ADDGA1051+010809089GF105991051021012501001001MD1410001+9999REMSYN076AAXX  22154 17067 42670 50902 10154 20123 40209 54000 85200 333 85836 92408;
0267170670999992000112306004+40710+029810FM-12+001899999V0201301N001010300019N0100001N1+01241+01101102221ADDAA199000091AY121061AY221061GA1041+012009089GA2051+030009039GF107991041021012501031001IA1019IA2999+01009KA1120N+01221MD1410001+9999MW1101REMSYN100AAXX  23064 17067 31660 71302 10124 20110 40222 54000 71022 84230 333 20122 30010 84840 85360 92407;EQDQ01  00002PRCP99
0194170670999992000112309004+40710+029810FM-12+001899999V0201101N001010300019N0100001N1+01401+01081102271ADDAY121031AY221031GA1031+012009089GA2051+030009039GF106991031021012501031001MD1210051+9999MW1101REMSYN088AAXX  23094 17067 41660 61102 10140 20108 40227 52005 71022 83230 333 83840 85360 92407;
0196170670999992000112312004+40710+029810FM-12+001899999V0201301N001010300019N0200001N1+01581+01141102271ADDAA199000091GA1021+012009089GA2041+030009039GF105991021021012501031001MD1410001+9999REMSYN082AAXX  23124 17067 32670 51302 10158 20114 40227 54000 82230 333 82840 84360 92408;EQDQ01  00002PRCP99
0144170670999992000112315004+40710+029810FM-12+001899999V0200901N001510120019N0200001N1+01421+01181102201ADDGA1051+012009089GF105991051021012501001001MD1710071+9999REMSYN076AAXX  23154 17067 42670 50903 10142 20118 40220 57007 85200 333 85840 92418;
0245170670999992000112406004+40710+029810FM-12+001899999V0201301N001510108019N0100001N1+00781+00681102271ADDAA199000091AY121061AY221061GA1051+010809089GF105991051021012501001001IA1019IA2999+00409KA1120N+00741MD1410001+9999MW1101REMSYN094AAXX  24064 17067 31660 51303 10078 20068 40227 54000 71022 85200 333 20074 30004 85836 92407;EQDQ01  00002PRCP99
0194170670999992000112409004+40710+029810FM-12+001899999V0201101N001510600019N0100001N1+01121+00861102311ADDAY121031AY221031GA1031+010809089GA2051+060009009GF106991031021012501001011MD1210041+9999MW1101REMSYN088AAXX  24094 17067 41660 61103 10112 20086 40231 52004 71022 83201 333 83836 85070 92407;
0224170670999992000112412004+40710+029810FM-12+001899999V0201401N001510600019N0100001N1+01601+00761102111ADDAA199000091AY121061AY221061GA1011+010809089GA2051+060009009GF105991011011012501001011MD1710201+9999MW1101REMSYN088AAXX  24124 17067 31660 51403 10160 20076 40211 57020 71022 81101 333 81836 85070 92407;EQDQ01  00002PRCP99
0194170670999992000112415004+40710+029810FM-12+001899999V0201301N001510600019N0100001N1+01381+00961102061ADDAY121031AY221031GA1011+010809089GA2051+060009009GF105991011011012501001011MD1710051+9999MW1101REMSYN088AAXX  24154 17067 41660 51303 10138 20096 40206 57005 71022 81101 333 81836 85070 92407;
0233170670999992000112506004+40710+029810FM-12+001899999V0201301N001012200019N0003001N1+00621+00551102071ADDAA199000091AY101061AY201061GA1001+999999999GF100991001001999999001001IA1019IA2999+00309KA1120N+00601MD1410001+9999MW1441REMSYN082AAXX  25064 17067 31903 01302 10062 20055 40207 54000 74400 333 20060 30003 92402;EQDQ01  00002PRCP99
0160170670999992000112509004+40710+029810FM-12+001899999V0200901N001012200019N0008001N1+01061+00841102091ADDAY141031AY241031GA1001+999999999GF100991001001999999001001MD1310021+9999MW1421REMSYN070AAXX  25094 17067 41908 00902 10106 20084 40209 53002 74244 333 92403;
0190170670999992000112512004+40710+029810FM-12+001899999V0203601N000512200019N0200001N1+01541+00991102031ADDAA199000091AY141061AY201061GA1001+999999999GF100991001001999999001001MD1710061+9999MW1021REMSYN070AAXX  25124 17067 31970 03601 10154 20099 40203 57006 70240 333 92408;EQDQ01  00002PRCP99
0132170670999992000112515004+40710+029810FM-12+001899999V0201301N001512200019N0200001N1+01321+01101102001ADDGA1001+999999999GF100991001001999999001001MD1610031+9999REMSYN064AAXX  25154 17067 42970 01303 10132 20110 40200 56003 333 92408;
0239170670999992000112606004+40710+029810FM-12+001899999V0201101N001010300019N0200001N1+01081+00781101831ADDAA199000091GA1031+010809089GA2051+030009039GF106991031021012501031001IA1019IA2999+00509KA1120N+00641MD1610031+9999REMSYN094AAXX  26064 17067 32670 61102 10108 20078 40183 56003 83230 333 20064 30005 83836 85360 92408;EQDQ01  00002PRCP99
0166170670999992000112609004+40710+029810FM-12+001899999V0201101N001010300019N0200001N1+01601+01121101791ADDGA1031+010809089GA2051+030009039GF106991031021012501031001MD1610041+9999REMSYN082AAXX  26094 17067 42670 61102 10160 20112 40179 56004 83230 333 83836 85360 92408;
0196170670999992000112612004+40710+029810FM-12+001899999V0200701N001010300019N0200001N1+01881+01381101601ADDAA199000091GA1031+010809089GA2051+030009039GF106991031021012501031001MD1710191+9999REMSYN082AAXX  26124 17067 32670 60702 10188 20138 40160 57019 83230 333 83836 85360 92408;EQDQ01  00002PRCP99
0166170670999992000112615004+40710+029810FM-12+001899999V0200901N001010300019N0200001N1+01781+01321101441ADDGA1031+010809089GA2051+030009039GF106991031021012501031001MD1710161+9999REMSYN082AAXX  26154 17067 42670 60902 10178 20132 40144 57016 83230 333 83836 85360 92408;
0260170670999992000112706004+40710+029810FM-12+001899999V0201801N001510090019N0100001N1+01361+01121100961ADDAA112000791AY121061AY221061GA1051+009009089GA2071+030009039GF107991051021008001031001IA1099IA2999+01009KA1120N+01301MD1710061+9999MW1801REMSYN112AAXX  27064 17067 11560 71803 10136 20112 40096 57006 69902 78022 85230 333 20130 31010 79999 85830 87360 92407;
0194170670999992000112709004+40710+029810FM-12+001899999V0202701N000510090019N0100001N1+01441+01201100921ADDAY181031AY281031GA1051+009009089GA2071+030009039GF107991051021008001031001MD1710041+9999MW1801REMSYN088AAXX  27094 17067 41560 72701 10144 20120 40092 57004 78088 85230 333 85830 87360 92407;
0211170670999992000112712004+40710+029810FM-12+001899999V0209999C000010300019N0200001N1+01581+01331100761ADDAA106000591AY181061AY281061GA1041+009009089GA2071+030009039GF107991041021008001031001MD1710161+9999MW1251REMSYN094AAXX  27124 17067 11570 70000 10158 20133 40076 57016 69951 72588 84230 333 84830 87360 92408;
0166170670999992000112715004+40710+029810FM-12+001899999V0201001N001510600019N0200001N1+01541+01301100561ADDGA1031+030009039GA2061+060009009GF107991031001012501031011MD1710201+9999REMSYN082AAXX  27154 17067 42670 71003 10154 20130 40056 57020 83031 333 83360 86070 92408;
0238170670999992000112806004+40710+029810FM-12+001899999V0201801N001010108019N0200001N1+01251+01081100601ADDAA112000891AY181061AY221061GA1071+010809089GF107991071021012501001001IA1119IA2999+01009KA1120N+01251MD1210111+9999MW1021REMSYN106AAXX  28064 17067 11670 71802 10125 20108 40060 52011 69972 70282 87200 333 20125 32010 70012 87836 92408;
0194170670999992000112809004+40710+029810FM-12+001899999V0201301N001010300019N0200001N1+01641+01141100671ADDAY181031AY221031GA1031+010809089GA2051+030009039GF106991031021012501031001MD1210071+9999MW1021REMSYN088AAXX  28094 17067 41670 61302 10164 20114 40067 52007 70282 83230 333 83836 85360 92408;
0211170670999992000112812004+40710+029810FM-12+001899999V0200901N001010300019N0200001N1+01821+01471100671ADDAA106000191AY181061AY221061GA1031+010809089GA2051+030009039GF106991031021012501031001MD1410001+9999MW1021REMSYN094AAXX  28124 17067 11670 60902 10182 20147 40067 54000 69911 70282 83230 333 83836 85360 92408;
0166170670999992000112815004+40710+029810FM-12+001899999V0200701N001510300019N0200001N1+01521+01191100841ADDGA1031+010809089GA2051+030009039GF106991031021012501031001MD1210171+9999REMSYN082AAXX  28154 17067 42670 60703 10152 20119 40084 52017 83230 333 83836 85360 92408;
0260170670999992000112906004+40710+029810FM-12+001899999V0200901N002610090019N0100001N1+01221+01151101421ADDAA112014091AY161061AY261061GA1051+009009069GA2071+030009049GF107991051051008001071001IA1119IA2999+01009KA1120N+01201MD1210141+9999MW1611REMSYN112AAXX  29064 17067 11560 70905 10122 20115 40142 52014 60142 76166 85570 333 20120 32010 70161 85630 87460 92407;
0194170670999992000112909004+40710+029810FM-12+001899999V0201601N001010090019N0080001N1+01241+01161101521ADDAY161031AY261031GA1051+009009089GA2071+030009049GF107991051021008001071001MD1210101+9999MW1811REMSYN088AAXX  29094 17067 41558 71602 10124 20116 40152 52010 78166 85270 333 85830 87460 92406;
0211170670999992000112912004+40710+029810FM-12+001899999V0201101N001010090019N0100001N1+01281+01191101541ADDAA106013091AY161061AY261061GA1051+009009089GA2071+030009049GF107991051021008001071001MD1110021+9999MW1801REMSYN094AAXX  29124 17067 11560 71102 10128 20119 40154 51002 60131 78066 85270 333 85830 87460 92407;
0172170670999992000112915004+40710+029810FM-12+001899999V0200901N001010090019N0100001N1+01241+01141101661ADDAY181031AY281031GA1071+009009089GF107991071021008001001001MD1210121+9999MW1801REMSYN082AAXX  29154 17067 41560 70902 10124 20114 40166 52012 78088 87200 333 87830 92407;
0260170670999992000113006004+40710+029810FM-12+001899999V0200501N001010090019N0100001N1+01101+00921102141ADDAA112002091AY181061AY281061GA1051+009009089GA2071+030009039GF107991051021008001031001IA1119IA2999+00909KA1120N+01101MD1210121+9999MW1801REMSYN112AAXX  30064 17067 11560 70502 10110 20092 40214 52012 60022 78088 85230 333 20110 32009 70154 85830 87360 92407;
0194170670999992000113009004+40710+029810FM-12+001899999V0201501N001010090019N0100001N1+01121+00901102221ADDAY181031AY281031GA1051+009009089GA2071+030009039GF107991051021008001031001MD1210081+9999MW1801REMSYN088AAXX  30094 17067 41560 71502 10112 20090 40222 52008 78088 85230 333 85830 87360 92407;
0211170670999992000113012004+40710+029810FM-12+001899999V0202201N001010090019N0100001N1+01141+00961102221ADDAA106000791AY181061AY281061GA1051+009009089GA2071+030009039GF107991051021008001071001MD1410001+9999MW1801REMSYN094AAXX  30124 17067 11560 72202 10114 20096 40222 54000 69901 78088 85270 333 85830 87360 92407;
0194170670999992000113015004+40710+029810FM-12+001899999V0202901N001010090019N0100001N1+01101+00921102221ADDAY181031AY281031GA1051+009009089GA2071+030009039GF107991051021008001071001MD1410001+9999MW1801REMSYN088AAXX  30154 17067 41560 72902 10110 20092 40222 54000 78088 85270 333 85830 87360 92407;
0254170670999992000120106004+40710+029810FM-12+001899999V0200901N002110108019N0100001N1+01061+00921102521ADDAA124000391AY121061AY221061GA1051+010809089GA2071+030009039GF107991051021012501031001IA1099IA2999+00909KA1120N+01041MD1110101+9999MW1101REMSYN106AAXX  01064 17067 31660 70904 10106 20092 40252 51010 71022 85230 333 20104 31009 70003 85836 87360 92407;
0144170670999992000120109004+40710+029810FM-12+001899999V0201501N001510108019N0200001N1+01221+01121102541ADDGA1061+010809089GF106991061021012501001001MD1310021+9999REMSYN076AAXX  01094 17067 42670 61503 10122 20112 40254 53002 86200 333 86836 92408;
0174170670999992000120112004+40710+029810FM-12+001899999V0201401N001010108019N0200001N1+01361+01121102571ADDAA199000091GA1051+010809089GF105991051021012501001001MD1310031+9999REMSYN076AAXX  01124 17067 32670 51402 10136 20112 40257 53003 85200 333 85836 92408;EQDQ01  00002PRCP99
0144170670999992000120115004+40710+029810FM-12+001899999V0201201N001510108019N0200001N1+01301+01181102501ADDGA1071+010809089GF107991071021012501001001MD1710071+9999REMSYN076AAXX  01154 17067 42670 71203 10130 20118 40250 57007 87200 333 87836 92408;
0233170670999992000120206004+40710+029810FM-12+001899999V0201201N001012200019N0003001N1+00601+00381102451ADDAA199000091AY101061AY201061GA1001+999999999GF100991001001999999001001IA1099IA2999+00409KA1120N+00601MD1410001+9999MW1441REMSYN082AAXX  02064 17067 31903 01202 10060 20038 40245 54000 74400 333 20060 31004 92402;EQDQ01  00002PRCP99
0160170670999992000120209004+40710+029810FM-12+001899999V0200901N001012200019N0003001N1+00841+00681102451ADDAY141031AY241031GA1001+999999999GF100991001001999999001001MD1410001+9999MW1441REMSYN070AAXX  02094 17067 41903 00902 10084 20068 40245 54000 74444 333 92402;
0190170670999992000120212004+40710+029810FM-12+001899999V0209999C000012200019N0008001N1+01101+00891102401ADDAA199000091AY141061AY241061GA1001+999999999GF100991001001999999001001MD1710051+9999MW1421REMSYN070AAXX  02124 17067 31908 00000 10110 20089 40240 57005 74244 333 92403;EQDQ01  00002PRCP99
0172170670999992000120215004+40710+029810FM-12+001899999V0202701N001512200019N0100001N1+01161+00921102391ADDAY141031AY201031GA1031+030009039GF103991031001999999031001MD1810011+9999MW1101REMSYN082AAXX  02154 17067 41960 32703 10116 20092 40239 58001 71040 83030 333 83360 92407;
0267170670999992000120306004+40710+029810FM-12+001899999V0201101N001010108019N0100001N1+00941+00841102421ADDAA199000091AY121061AY221061GA1051+010809089GA2071+030009039GF107991051021012501031001IA1099IA2999+00609KA1120N+00901MD1410001+9999MW1101REMSYN100AAXX  03064 17067 31660 71102 10094 20084 40242 54000 71022 85230 333 20090 31006 85836 87360 92407;EQDQ01  00002PRCP99
0194170670999992000120309004+40710+029810FM-12+001899999V0200901N001010108019N0100001N1+01061+00901102481ADDAY121031AY221031GA1051+010809069GA2071+030009039GF107991051041012501031001MD1110061+9999MW1101REMSYN088AAXX  03094 17067 41660 70902 10106 20090 40248 51006 71022 85430 333 85636 87360 92407;
0202170670999992000120312004+40710+029810FM-12+001899999V0201201N001510300019N0100001N1+01221+00981102521ADDAA199000091AY121061AY221061GA1051+030009039GF105991051001999999031001MD1110041+9999MW1101REMSYN082AAXX  03124 17067 31960 51203 10122 20098 40252 51004 71022 85030 333 85360 92407;EQDQ01  00002PRCP99
0172170670999992000120315004+40710+029810FM-12+001899999V0201001N001012200019N0080001N1+01141+01051102521ADDAY111031AY211031GA1031+030009039GF103991031001999999031001MD1410001+9999MW1101REMSYN082AAXX  03154 17067 41958 31002 10114 20105 40252 54000 71011 83030 333 83360 92406;
0233170670999992000120406004+40710+029810FM-12+001899999V0202201N001012200019N0100001N1+00921+00741102481ADDAA199000091AY141061AY201061GA1001+999999999GF100991001001999999001001IA1019IA2999+00709KA1120N+00821MD1410001+9999MW1101REMSYN082AAXX  04064 17067 31960 02202 10092 20074 40248 54000 71040 333 20082 30007 92407;EQDQ01  00002PRCP99
0194170670999992000120409004+40710+029810FM-12+001899999V0201401N001010108019N0060001N1+00981+00691102501ADDAY101031AY201031GA1031+003009079GA2071+010809069GF107991071051004501001001MD1210021+9999MW1101REMSYN088AAXX  04094 17067 41456 71402 10098 20069 40250 52002 71000 87500 333 83710 87636 92406;
0196170670999992000120412004+40710+029810FM-12+001899999V0203301N000512200019N0060001N1+01261+00781102471ADDAA199000091AY111061AY211061GA1031+010809089GF103991999999012501999999MD1710031+9999MW1101REMSYN076AAXX  04124 17067 31656 33301 10126 20078 40247 57003 71011 333 83836 92406;EQDQ01  00002PRCP99
0160170670999992000120415004+40710+029810FM-12+001899999V0200901N001012200019N0060001N1+01141+00991102441ADDAY101031AY201031GA1001+999999999GF100991001001999999001001MD1610031+9999MW1101REMSYN070AAXX  04154 17067 41956 00902 10114 20099 40244 56003 71000 333 92406;
0267170670999992000120506004+40710+029810FM-12+001899999V0200901N000510300019N0040001N1+00741+00681102441ADDAA199000091AY121061AY221061GA1031+010809089GA2061+030009039GF107991031021012501031001IA1099IA2999+00509KA1120N+00721MD1410001+9999MW1101REMSYN100AAXX  05064 17067 31640 70901 10074 20068 40244 54000 71022 83230 333 20072 31005 83836 86360 92406;EQDQ01  00002PRCP99
0172170670999992000120509004+40710+029810FM-12+001899999V0201301N001510108019N0030001N1+00941+00771102491ADDAY121031AY221031GA1051+010809089GF105991031021012501001001MD1210051+9999MW1101REMSYN082AAXX  05094 17067 41630 51303 10094 20077 40249 52005 71022 83200 333 85836 92405;
0202170670999992000120512004+40710+029810FM-12+001899999V0200901N001510600019N0100001N1+01201+00911102541ADDAA199000091AY121061AY221061GA1051+060009009GF105991001001999999001011MD1110051+9999MW1101REMSYN082AAXX  05124 17067 31960 50903 10120 20091 40254 51005 71022 80001 333 85070 92407;EQDQ01  00002PRCP99
0172170670999992000120515004+40710+029810FM-12+001899999V0201601N001510600019N0080001N1+01021+00871102561ADDAY121031AY221031GA1061+060009009GF106991001001999999001011MD1110021+9999MW1101REMSYN082AAXX  05154 17067 41958 61603 10102 20087 40256 51002 71022 80001 333 86070 92406;
0267170670999992000120606004+40710+029810FM-12+001899999V0201301N001010300019N0040001N1+00861+00681102591ADDAA199000091AY121061AY221061GA1031+012009089GA2051+030009039GF107991031021012501031001IA1099IA2999+00409KA1120N+00681MD1410001+9999MW1101REMSYN100AAXX  06064 17067 31640 71302 10086 20068 40259 54000 71022 83230 333 20068 31004 83840 85360 92406;EQDQ01  00002PRCP99
0194170670999992000120609004+40710+029810FM-12+001899999V0201301N001010300019N0100001N1+01201+00961102371ADDAY121031AY221031GA1031+012009089GA2051+030009039GF107991031021012501031001MD1410001+9999MW1101REMSYN088AAXX  06094 17067 41660 71302 10120 20096 40237 54000 71022 83230 333 83840 85360 92407;
0224170670999992000120612004+40710+029810FM-12+001899999V0201101N001010300019N0100001N1+01461+01001102541ADDAA199000091AY121061AY221061GA1031+012009089GA2051+030009039GF107991031021012501031001MD1810041+9999MW1101REMSYN088AAXX  06124 17067 31660 71102 10146 20100 40254 58004 71022 83230 333 83840 85360 92407;EQDQ01  00002PRCP99
0166170670999992000120615004+40710+029810FM-12+001899999V0201101N001010300019N0200001N1+01261+01011102541ADDGA1031+012009089GA2051+030009039GF107991031021012501031001MD1410001+9999REMSYN082AAXX  06154 17067 42670 71102 10126 20101 40254 54000 83230 333 83840 85360 92408;
0239170670999992000120706004+40710+029810FM-12+001899999V0201101N001510300019N0200001N1+01081+00941102481ADDAA199000091GA1031+010809089GA2051+030009039GF106991031021012501031001IA1019IA2999+00909KA1120N+01051MD1410001+9999REMSYN094AAXX  07064 17067 32670 61103 10108 20094 40248 54000 83230 333 20105 30009 83836 85360 92408;EQDQ01  00002PRCP99
0166170670999992000120709004+40710+029810FM-12+001899999V0200901N001510300019N0200001N1+01161+00941102501ADDGA1041+010809089GA2061+030009039GF107991041021012501031001MD1210021+9999REMSYN082AAXX  07094 17067 42670 70903 10116 20094 40250 52002 84230 333 84836 86360 92408;
0196170670999992000120712004+40710+029810FM-12+001899999V0201101N001510300019N0200001N1+01201+00801102501ADDAA199000091GA1041+010809089GA2061+030009039GF107991041021012501031001MD1410001+9999REMSYN082AAXX  07124 17067 32670 71103 10120 20080 40250 54000 84230 333 84836 86360 92418;EQDQ01  00002PRCP99
0172170670999992000120715004+40710+029810FM-12+001899999V0201401N001010090019N0100001N1+01121+00941102481ADDAY121031AY221031GA1071+009009089GF107991071021008001001001MD1610021+9999MW1801REMSYN082AAXX  07154 17067 41560 71402 10112 20094 40248 56002 78022 87200 333 87830 92407;
0238170670999992000120806004+40710+029810FM-12+001899999V0201401N001010108019N0060001N1+00681+00531102491ADDAA112000591AY121061AY221061GA1071+010809089GF107991071021012501001001IA1119IA2999+00209KA1120N+00501MD1410001+9999MW1801REMSYN106AAXX  08064 17067 11656 71402 10068 20053 40249 54000 69942 78022 87200 333 20050 32002 70004 87836 92406;
0172170670999992000120809004+40710+029810FM-12+001899999V0201301N000510108019N0100001N1+00841+00561102531ADDAY181031AY281031GA1071+010809089GF107991071021012501001001MD1210041+9999MW1801REMSYN082AAXX  08094 17067 41660 71301 10084 20056 40253 52004 78088 87200 333 87836 92407;
0189170670999992000120812004+40710+029810FM-12+001899999V0200701N001010108019N0100001N1+01021+00841102531ADDAA106000591AY181061AY281061GA1071+010809089GF107991071021012501001001MD1410001+9999MW1801REMSYN088AAXX  08124 17067 11660 70702 10102 20084 40253 54000 69951 78088 87200 333 87836 92407;
0172170670999992000120815004+40710+029810FM-12+001899999V0200901N001510108019N0100001N1+00901+00721102531ADDAY181031AY281031GA1071+010809089GF107991071021012501001001MD1410001+9999MW1801REMSYN082AAXX  08154 17067 41660 70903 10090 20072 40253 54000 78088 87200 333 87836 92407;
0210170670999992000120906004+40710+029810FM-12+001899999V0201501N001510108019N0200001N1+00521+00401102661ADDAA112000191GA1061+010809089GF106991061021012501001001IA1119IA2999+00209KA1120N+00501MD1310041+9999REMSYN100AAXX  09064 17067 12670 61503 10052 20040 40266 53004 69922 86200 333 20050 32002 70011 86836 92408;
0144170670999992000120909004+40710+029810FM-12+001899999V0201301N001510120019N0200001N1+00941+00761102741ADDGA1051+012009089GF105991051021012501001001MD1210081+9999REMSYN076AAXX  09094 17067 42670 51303 10094 20076 40274 52008 85200 333 85840 92408;
0174170670999992000120912004+40710+029810FM-12+001899999V0200901N001512200019N0200001N1+01121+00871102741ADDAA199000091GA1041+012009089GF104991041021012501001001MD1410001+9999REMSYN076AAXX  09124 17067 32670 40903 10112 20087 40274 54000 84200 333 84840 92408;EQDQ01  00002PRCP99
0144170670999992000120915004+40710+029810FM-12+001899999V0200201N002112200019N0200001N1+00921+00701102711ADDGA1041+012009089GF104991041021012501001001MD1610031+9999REMSYN076AAXX  09154 17067 42670 40204 10092 20070 40271 56003 84200 333 84840 92408;
0217170670999992000121006004+40710+029810FM-12+001899999V0201301N001010600019N0200001N1+00221+00181102721ADDAA199000091GA1051+060009009GF105991001001999999001011IA1099IA2999-00109KA1120N+00201MD1410001+9999REMSYN088AAXX  10064 17067 32970 51302 10022 20018 40272 54000 80001 333 20020 31101 85070 92408;EQDQ01  00002PRCP99
0144170670999992000121009004+40710+029810FM-12+001899999V0201301N001510600019N0200001N1+01001+00391102641ADDGA1051+060009009GF105991001001999999001011MD1710081+9999REMSYN076AAXX  10094 17067 42970 51303 10100 20039 40264 57008 80001 333 85070 92408;
0174170670999992000121012004+40710+029810FM-12+001899999V0202701N001510600019N0200001N1+01161+00341102401ADDAA199000091GA1051+060009009GF105991001001999999001011MD1710241+9999REMSYN076AAXX  10124 17067 32970 52703 10116 20034 40240 57024 80001 333 85070 92408;EQDQ01  00002PRCP99
0144170670999992000121015004+40710+029810FM-12+001899999V0203401N001010600019N0200001N1+01031+00581102241ADDGA1051+060009009GF105991001001999999001011MD1710161+9999REMSYN076AAXX  10154 17067 42970 53402 10103 20058 40224 57016 80001 333 85070 92408;
0239170670999992000121106004+40710+029810FM-12+001899999V0201301N001510300019N0200001N1+00721+00491102141ADDAA199000091GA1031+010809089GA2051+030009039GF107991031021012501031001IA1099IA2999+00309KA1120N+00641MD1410001+9999REMSYN094AAXX  11064 17067 32670 71303 10072 20049 40214 54000 83230 333 20064 31003 83836 85360 92408;EQDQ01  00002PRCP99
0166170670999992000121109004+40710+029810FM-12+001899999V0202701N005110300019N0200001N1+01041+00911102191ADDGA1041+010809089GA2061+030009039GF107991041021012501031001MD1210051+9999REMSYN082AAXX  11094 17067 42670 72710 10104 20091 40219 52005 84230 333 84836 86360 92428;
0196170670999992000121112004+40710+029810FM-12+001899999V0202701N004110300019N0200001N1+01161+00871102191ADDAA199000091GA1041+010809089GA2061+030009039GF107991041021012501031001MD1410001+9999REMSYN082AAXX  11124 17067 32670 72708 10116 20087 40219 54000 84230 333 84836 86360 92428;EQDQ01  00002PRCP99
0194170670999992000121115004+40710+029810FM-12+001899999V0202701N004610300019N0060001N1+01161+00871102191ADDAY121031AY221031GA1041+010809089GA2061+030009039GF107991041021012501031001MD1410001+9999MW1101REMSYN088AAXX  11154 17067 41656 72709 10116 20087 40219 54000 71022 84230 333 84836 86360 92426;
0260170670999992000121206004+40710+029810FM-12+001899999V0202901N004110300019N0100001N1+00961+00861102221ADDAA112008991AY161061AY261061GA1041+010509069GA2071+030009039GF107991041041008001051001IA1119IA2999+00809KA1120N+00951MD1410001+9999MW1611REMSYN112AAXX  12064 17067 11560 72908 10096 20086 40222 54000 60092 76166 84450 333 20095 32008 70086 84635 87360 92427;
0194170670999992000121209004+40710+029810FM-12+001899999V0203101N001510090019N0200001N1+01001+00821102421ADDAY161031AY221031GA1051+009009089GA2071+030009039GF107991051021008001031001MD1210201+9999MW1021REMSYN088AAXX  12094 17067 41570 73103 10100 20082 40242 52020 70262 85230 333 85830 87360 92407;
0211170670999992000121212004+40710+029810FM-12+001899999V0202701N001510090019N0100001N1+00981+00821102421ADDAA106003091AY161061AY221061GA1051+009009089GA2071+030009039GF107991051021008001031001MD1410001+9999MW1801REMSYN094AAXX  12124 17067 11560 72703 10098 20082 40242 54000 60031 78062 85230 333 85830 87360 92407;
0194170670999992000121215004+40710+029810FM-12+001899999V0201101N001010090019N0100001N1+00951+00791102501ADDAY181031AY281031GA1051+009009089GA2071+030009039GF107991051021008001071001MD1210081+9999MW1801REMSYN088AAXX  12154 17067 41560 71102 10095 20079 40250 52008 78088 85270 333 85830 87360 92407;
0232170670999992000121306004+40710+029810FM-12+001899999V0201301N001512200019N0200001N1+00581+00501102501ADDAA112000891GA1021+012009089GA2041+060009009GF104991021011012501001011IA1119IA2999+00409KA1120N+00541MD1810021+9999REMSYN106AAXX  13064 17067 12670 41303 10058 20050 40250 58002 69982 82101 333 20054 32004 70050 82840 84070 92408;
0166170670999992000121309004+40710+029810FM-12+001899999V0200701N001012200019N0200001N1+00981+00841102461ADDGA1011+012009089GA2031+060009009GF103991011011012501001011MD1710041+9999REMSYN082AAXX  13094 17067 42670 30702 10098 20084 40246 57004 81101 333 81840 83070 92408;
0196170670999992000121312004+40710+029810FM-12+001899999V0202701N001512200019N0200001N1+01281+00761102251ADDAA199000091GA1011+012009089GA2031+060009009GF103991011011012501001011MD1410001+9999REMSYN082AAXX  13124 17067 32670 32703 10128 20076 40225 54000 81101 333 81840 83070 92408;EQDQ01  00002PRCP99
0144170670999992000121315004+40710+029810FM-12+001899999V0202601N001510120019N0200001N1+01041+00781102261ADDGA1061+012009089GF106991061021012501001001MD1410001+9999REMSYN076AAXX  13154 17067 42670 62603 10104 20078 40226 54000 86200 333 86840 92408;
0245170670999992000121406004+40710+029810FM-12+001899999V0201501N001512200019N0060001N1+00421+00341102171ADDAA199000091AY101061AY201061GA1041+060009009GF104991001001999999001011IA1099IA2999+00209KA1120N+00401MD1610081+9999MW1101REMSYN094AAXX  14064 17067 31956 41503 10042 20034 40217 56008 71000 80001 333 20040 31002 84070 92406;EQDQ01  00002PRCP99
0174170670999992000121412004+40710+029810FM-12+001899999V0202701N001512200019N0200001N1+01181+00511101961ADDAA199000091GA1041+060009009GF104991001001999999001011MD1710211+9999REMSYN076AAXX  14124 17067 32970 42703 10118 20051 40196 57021 80001 333 84070 92408;EQDQ01  00002PRCP99
0144170670999992000121415004+40710+029810FM-12+001899999V0200901N001010300019N0200001N1+01161+00671101941ADDGA1051+030009039GF105991051001999999031001MD1610021+9999REMSYN076AAXX  14154 17067 42970 50902 10116 20067 40194 56002 85030 333 85360 92408;
0245170670999992000121506004+40710+029810FM-12+001899999V0201401N001010600019N0060001N1+00761+00661101721ADDAA199000091AY101061AY201061GA1061+060009009GF106991001001999999001011IA1099IA2999+00509KA1120N+00731MD1710071+9999MW1101REMSYN094AAXX  15064 17067 31956 61402 10076 20066 40172 57007 71000 80001 333 20073 31005 86070 92406;EQDQ01  00002PRCP99
0194170670999992000121509004+40710+029810FM-12+001899999V0200701N001010600019N0100001N1+01061+00811101721ADDAY121031AY221031GA1031+030009039GA2061+060009009GF106991031001999999031011MD1410001+9999MW1101REMSYN088AAXX  15094 17067 41960 60702 10106 20081 40172 54000 71022 83031 333 83360 86070 92407;
0196170670999992000121512004+40710+029810FM-12+001899999V0203301N002110600019N0200001N1+01341+01011101571ADDAA199000091GA1031+030009039GA2061+060009009GF106991031001999999031011MD1710151+9999REMSYN082AAXX  15124 17067 32970 63304 10134 20101 40157 57015 83031 333 83360 86070 92408;EQDQ01  00002PRCP99
0144170670999992000121515004+40710+029810FM-12+001899999V0202601N001512200019N0200001N1+01361+01081101551ADDGA1041+060009009GF104991001001999999001011MD1610021+9999REMSYN076AAXX  15154 17067 42970 42603 10136 20108 40155 56002 80001 333 84070 92408;
0217170670999992000121606004+40710+029810FM-12+001899999V0201801N001010600019N0200001N1+00901+00681101251ADDAA199000091GA1051+060009009GF105991001001999999001011IA1099IA2999+00409KA1120N+00621MD1610071+9999REMSYN088AAXX  16064 17067 32970 51802 10090 20068 40125 56007 80001 333 20062 31004 85070 92408;EQDQ01  00002PRCP99
0144170670999992000121609004+40710+029810FM-12+001899999V0202701N003110600019N0200001N1+01561+00921101221ADDGA1051+060009009GF105991001001999999001011MD1710031+9999REMSYN076AAXX  16094 17067 42970 52706 10156 20092 40122 57003 80001 333 85070 92418;
0196170670999992000121612004+40710+029810FM-12+001899999V0202701N002610600019N0200001N1+01161+00681101071ADDAA199000091GA1031+030009039GA2051+060009009GF106991031001999999031011MD1710151+9999REMSYN082AAXX  16124 17067 32970 62705 10116 20068 40107 57015 83031 333 83360 85070 92418;EQDQ01  00002PRCP99
0166170670999992000121615004+40710+029810FM-12+001899999V0203401N001510600019N0200001N1+01641+01101101021ADDGA1031+030009039GA2051+060009009GF106991031001999999031011MD1610051+9999REMSYN082AAXX  16154 17067 42970 63403 10164 20110 40102 56005 83031 333 83360 85070 92408;
0210170670999992000121706004+40710+029810FM-12+001899999V0202601N003112200019N0200001N1+00981+00801102071ADDAA112013091GA1041+012009089GF104991041021012501001001IA1119IA2999+00609KA1120N+00961MD1210151+9999REMSYN100AAXX  17064 17067 12670 42606 10098 20080 40207 52015 60132 84200 333 20096 32006 70134 84840 92418;
0144170670999992000121709004+40710+029810FM-12+001899999V0202501N003112200019N0200001N1+01181+00841102271ADDGA1021+012009089GF102991021011012501001001MD1210201+9999REMSYN076AAXX  17094 17067 42670 22506 10118 20084 40227 52020 82100 333 82840 92418;
0174170670999992000121712004+40710+029810FM-12+001899999V0203001N004612200019N0200001N1+01241+00841102271ADDAA199000091GA1021+012009089GF102991021011012501001001MD1410001+9999REMSYN076AAXX  17124 17067 32670 23009 10124 20084 40227 54000 82100 333 82840 92428;EQDQ01  00002PRCP99
0174170670999992000121812004+40710+029810FM-12+001899999V0202701N003112200019N0200001N1+01101+00801102061ADDAA199000091GA1031+012009089GF103991031021012501001001MD1710161+9999REMSYN076AAXX  18124 17067 32670 32706 10110 20080 40206 57016 83200 333 83840 92428;EQDQ01  00002PRCP99
0144170670999992000121815004+40710+029810FM-12+001899999V0202501N001512200019N0200001N1+00981+00751102021ADDGA1031+012009089GF103991031021012501001001MD1610021+9999REMSYN076AAXX  18154 17067 42670 32503 10098 20075 40202 56002 83200 333 83840 92408;
0260170670999992000121906004+40710+029810FM-12+001899999V0202701N002610300019N0060001N1+00821+00701102051ADDAA112000591AY121061AY221061GA1041+009009089GA2061+030009039GF107991041021008001031001IA1119IA2999+00309KA1120N+00781MD1410001+9999MW1801REMSYN112AAXX  19064 17067 11556 72705 10082 20070 40205 54000 69942 78022 84230 333 20078 32003 70004 84830 86360 92416;
0194170670999992000121909004+40710+029810FM-12+001899999V0202301N002110090019N0060001N1+00801+00701102071ADDAY181031AY281031GA1051+009009089GA2071+030009039GF107991051021008001031001MD1310021+9999MW1811REMSYN088AAXX  19094 17067 41556 72304 10080 20070 40207 53002 78188 85230 333 85830 87360 92416;
0211170670999992000121912004+40710+029810FM-12+001899999V0203401N003110090019N0100001N1+00771+00671102071ADDAA106005191AY181061AY281061GA1051+009009089GA2071+030009039GF107991051021008001031001MD1410001+9999MW1811REMSYN094AAXX  19124 17067 11560 73406 10077 20067 40207 54000 60051 78188 85230 333 85830 87360 92427;
0194170670999992000121915004+40710+029810FM-12+001899999V0203501N003110090019N0100001N1+00771+00671102071ADDAY181031AY281031GA1051+009009089GA2071+030009039GF107991051021008001031001MD1410001+9999MW1811REMSYN088AAXX  19154 17067 41560 73506 10077 20067 40207 54000 78188 85230 333 85830 87360 92427;
0260170670999992000122006004+40710+029810FM-12+001899999V0200901N000510300019N0100001N1+00341+00261102141ADDAA112002091AY121061AY221061GA1031+010809089GA2051+030009039GF106991031021012501031001IA1119IA2999+00109KA1120N+00301MD1410001+9999MW1101REMSYN112AAXX  20064 17067 11660 60901 10034 20026 40214 54000 60022 71022 83230 333 20030 32001 70071 83836 85360 92407;
0194170670999992000122009004+40710+029810FM-12+001899999V0202701N002110108019N0100001N1+00681+00511102101ADDAY121031AY221031GA1051+010809089GA2071+030009039GF107991051021012501071001MD1610041+9999MW1101REMSYN088AAXX  20094 17067 41660 72704 10068 20051 40210 56004 71022 85270 333 85836 87360 92417;
0196170670999992000122012004+40710+029810FM-12+001899999V0202701N003110108019N0200001N1+00621+00461102101ADDAA199000091GA1051+010809089GA2071+030009039GF107991051021012501071001MD1410001+9999REMSYN082AAXX  20124 17067 32670 72706 10062 20046 40210 54000 85270 333 85836 87360 92428;EQDQ01  00002PRCP99
0194170670999992000122015004+40710+029810FM-12+001899999V0200201N001010108019N0100001N1+00401+00281102151ADDAY121031AY221031GA1051+010809089GA2071+030009039GF107991051021012501071001MD1310041+9999MW1801REMSYN088AAXX  20154 17067 41660 70202 10040 20028 40215 53004 78022 85270 333 85836 87360 92407;
0260170670999992000122106004+40710+029810FM-12+001899999V0202401N003610090019N0100001N1+00321+00191102721ADDAA112004191AY181061AY281061GA1051+009009089GA2071+027009039GF107991051021008001071001IA1119IA2999+00009KA1120N+00271MD1210101+9999MW1801REMSYN112AAXX  21064 17067 11560 72407 10032 20019 40272 52010 60042 78088 85270 333 20027 32000 70066 85830 87359 92427;
0194170670999992000122109004+40710+029810FM-12+001899999V0203301N003110090019N0100001N1+00281+00061102901ADDAY181031AY281031GA1051+009009089GA2071+027009039GF107991051021008001071001MD1210181+9999MW1801REMSYN088AAXX  21094 17067 41560 73306 10028 20006 40290 52018 78088 85270 333 85830 87359 92417;
0211170670999992000122112004+40710+029810FM-12+001899999V0202501N001510090019N0200001N1+00301-00101102941ADDAA106001091AY181061AY221061GA1051+009009089GA2071+030009039GF107991051021008001031001MD1110041+9999MW1251REMSYN094AAXX  21124 17067 11570 72503 10030 21010 40294 51004 60011 72582 85230 333 85830 87360 92418;
0166170670999992000122115004+40710+029810FM-12+001899999V0203401N001510090019N0200001N1+00321+00101102921ADDGA1051+009009089GA2071+030009039GF107991051021008001031001MD1810021+9999REMSYN082AAXX  21154 17067 42570 73403 10032 20010 40292 58002 85230 333 85830 87360 92418;
0226170670999992000122206004+40710+029810FM-12+001899999V0201301N001510300019N0200001N1+00061-00021102811ADDAA124001391GA1031+010809089GA2051+030009039GF106991031021012501031001IA1149IA2999-00209KA1120N+00021MD1710081+9999REMSYN100AAXX  22064 17067 32670 61303 10006 21002 40281 57008 83230 333 20002 34102 70012 83836 85360 92408;
0166170670999992000122209004+40710+029810FM-12+001899999V0201101N001512200019N0200001N1+00381+00161102791ADDGA1021+010809089GA2031+060009009GF104991021021012501001011MD1610021+9999REMSYN082AAXX  22094 17067 42670 41103 10038 20016 40279 56002 82201 333 82836 83070 92408;
0196170670999992000122212004+40710+029810FM-12+001899999V0201101N002612200019N0200001N1+00721+00341102551ADDAA199000091GA1021+010809089GA2031+060009009GF104991021021012501001011MD1710161+9999REMSYN082AAXX  22124 17067 32670 41105 10072 20034 40255 57016 82201 333 82836 83070 92418;EQDQ01  00002PRCP99
0144170670999992000122215004+40710+029810FM-12+001899999V0200701N001510108019N0200001N1+00481+00261102511ADDGA1051+010809089GF105991051021012501001001MD1610041+9999REMSYN076AAXX  22154 17067 42670 50703 10048 20026 40251 56004 85200 333 85836 92408;
0217170670999992000122306004+40710+029810FM-12+001899999V0201301N001510120019N0200001N1+00201+00101102181ADDAA199000091GA1061+012009089GF106991061021012501001001IA1099IA2999-00209KA1120N+00181MD1710101+9999REMSYN088AAXX  23064 17067 32670 61303 10020 20010 40218 57010 86200 333 20018 31102 86840 92408;EQDQ01  00002PRCP99
0166170670999992000122309004+40710+029810FM-12+001899999V0201101N001510300019N0200001N1+00341+00151102091ADDGA1041+012009089GA2061+030009039GF107991041021012501031001MD1710091+9999REMSYN082AAXX  23094 17067 42670 71103 10034 20015 40209 57009 84230 333 84840 86360 92408;
0196170670999992000122312004+40710+029810FM-12+001899999V0201301N001510300019N0200001N1+00521+00321101801ADDAA199000091GA1041+012009089GA2061+030009039GF107991041021012501031001MD1710291+9999REMSYN082AAXX  23124 17067 32670 71303 10052 20032 40180 57029 84230 333 84840 86360 92408;EQDQ01  00002PRCP99
0166170670999992000122315004+40710+029810FM-12+001899999V0201301N001010300019N0200001N1+00461+00101101771ADDGA1041+012009089GA2061+030009039GF107991041021012501031001MD1810031+9999REMSYN082AAXX  23154 17067 42670 71302 10046 20010 40177 58003 84230 333 84840 86360 92408;
0254170670999992000122406004+40710+029810FM-12+001899999V0201801N001010090019N0100001N1+00501+00381101511ADDAA112003091AY181061AY281061GA1051+009009089GA2071+030009039GF107991051021008001031001IA1119IA2999+00109KA1120N+00301MD1410001+9999MW1801REMSYN106AAXX  24064 17067 11560 71802 10050 20038 40151 54000 60032 78088 85230 333 20030 32001 85830 87360 92407;
0194170670999992000122409004+40710+029810FM-12+001899999V0203401N003110090019N0200001N1+00601+00441101671ADDAY181031AY221031GA1051+009009089GA2071+030009039GF107991051021008001031001MD1110161+9999MW1021REMSYN088AAXX  24094 17067 41570 73406 10060 20044 40167 51016 70282 85230 333 85830 87360 92428;
0189170670999992000122412004+40710+029810FM-12+001899999V0202701N002110108019N0200001N1+00711+00261101691ADDAA106003091AY181061AY221061GA1051+010809089GF105991051021012501001001MD1110031+9999MW1011REMSYN088AAXX  24124 17067 11670 52704 10071 20026 40169 51003 60031 70182 85200 333 85836 92418;
0144170670999992000122415004+40710+029810FM-12+001899999V0202501N002110108019N0200001N1+00621+00381101771ADDGA1051+010809089GF105991051021012501001001MD1210081+9999REMSYN076AAXX  24154 17067 42670 52504 10062 20038 40177 52008 85200 333 85836 92418;
0232170670999992000122506004+40710+029810FM-12+001899999V0201301N001512200019N0100001N1-00041-00181101881ADDAA124000391AY101061AY201061GA1011+060009009GF101991001001999999001011IA1149IA2999-00409KA1120N-00151MD1410001+9999MW1101REMSYN100AAXX  25064 17067 11960 11303 11004 21018 40188 54000 71000 80001 333 21015 34104 70003 81070 92407;
0132170670999992000122509004+40710+029810FM-12+001899999V0200901N001512200019N0200001N1+00521+00321101881ADDGA1001+999999999GF100991001001999999001001MD1410001+9999REMSYN064AAXX  25094 17067 42970 00903 10052 20032 40188 54000 333 92408;
0174170670999992000122512004+40710+029810FM-12+001899999V0203001N001012200019N0200001N1+01001+00601101791ADDAA199000091GA1011+060009009GF101991001001999999001011MD1710091+9999REMSYN076AAXX  25124 17067 32970 13002 10100 20060 40179 57009 80001 333 81070 92408;EQDQ01  00002PRCP99
0166170670999992000122515004+40710+029810FM-12+001899999V0201401N002112200019N0100001N1+00761+00501101721ADDAY101031AY201031GA1031+060009009GF103991999999999999999999MD1610071+9999MW1101REMSYN076AAXX  25154 17067 41960 31404 10076 20050 40172 56007 71000 333 83070 92407;
0217170670999992000122606004+40710+029810FM-12+001899999V0201601N004610600019N0200001N1+01101+00521101721ADDAA199000091GA1051+060009009GF105991001001999999001011IA1099IA2999+00109KA1120N+00351MD1410001+9999REMSYN088AAXX  26064 17067 32970 51609 10110 20052 40172 54000 80001 333 20035 31001 85070 92438;EQDQ01  00002PRCP99
0144170670999992000122609004+40710+029810FM-12+001899999V0201801N003110300019N0200001N1+01321+00721101631ADDGA1051+030009039GF105991051001999999031001MD1610091+9999REMSYN076AAXX  26094 17067 42970 51806 10132 20072 40163 56009 85030 333 85360 92428;
0196170670999992000122612004+40710+029810FM-12+001899999V0201801N003110300019N0200001N1+01541+00711101581ADDAA199000091GA1031+012009089GA2051+030009039GF106991031021012501031001MD1710051+9999REMSYN082AAXX  26124 17067 32670 61806 10154 20071 40158 57005 83230 333 83840 85360 92428;EQDQ01  00002PRCP99
0166170670999992000122615004+40710+029810FM-12+001899999V0202001N002610300019N0200001N1+01361+00721101521ADDGA1031+012009089GA2051+030009039GF106991031021012501031001MD1610061+9999REMSYN082AAXX  26154 17067 42670 62005 10136 20072 40152 56006 83230 333 83840 85360 92418;
0217170670999992000122706004+40710+029810FM-12+001899999V0201801N003110120019N0200001N1+01521+00951101371ADDAA199000091GA1051+012009089GF105991051021012501001001IA1019IA2999+00809KA1120N+01201MD1310021+9999REMSYN088AAXX  27064 17067 32670 51806 10152 20095 40137 53002 85200 333 20120 30008 85840 92408;EQDQ01  00002PRCP99
0166170670999992000122709004+40710+029810FM-12+001899999V0202701N001010600019N0200001N1+01901+01241101421ADDGA1021+012009089GA2051+060009009GF106991021011012501001011MD1110051+9999REMSYN082AAXX  27094 17067 42670 62702 10190 20124 40142 51005 82101 333 82840 85070 92408;
0196170670999992000122712004+40710+029810FM-12+001899999V0201801N002110300019N0200001N1+01941+01281101381ADDAA199000091GA1021+012009089GA2061+030009039GF107991021011012501031001MD1610041+9999REMSYN082AAXX  27124 17067 32670 71804 10194 20128 40138 56004 82130 333 82840 86360 92418;EQDQ01  00002PRCP99
0138170670999992000122715004+40710+029810FM-12+001899999V0201801N002612200019N0200001N1+01801+01281101381ADDGA1011+012009029GF103991011011012501031001MD1410001+9999REMSYN070AAXX  27154 17067 42670 31805 10180 20128 40138 54000 81130 333 81840;
0239170670999992000122806004+40710+029810FM-12+001899999V0201601N001510600019N0200001N1+01361+00781101351ADDAA199000091GA1031+030009039GA2051+060009009GF106991031001999999031011IA1019IA2999+01009KA1120N+01301MD1610071+9999REMSYN094AAXX  28064 17067 32970 61603 10136 20078 40135 56007 83031 333 20130 30010 83360 85070 92408;EQDQ01  00002PRCP99
0166170670999992000122809004+40710+029810FM-12+001899999V0201601N004610600019N0200001N1+01801+01081101321ADDGA1031+030009039GA2041+060009009GF105991031001999999031011MD1710031+9999REMSYN082AAXX  28094 17067 42970 51609 10180 20108 40132 57003 83031 333 83360 84070 92428;
0202170670999992000122812004+40710+029810FM-12+001899999V0201601N005710600019N0200001N1+01801+00921101081ADDAA199000091GA1031+030009039GA2041+060009009GF105991031001999999031011MD1710241+9999REMSYN088AAXX  28124 17067 32970 51611 10180 20092 40108 57024 83031 333 83360 84070 91022 92428;EQDQ01  00002PRCP99
0166170670999992000122815004+40710+029810FM-12+001899999V0201601N000510600019N0200001N1+01801+00921101021ADDGA1031+030009039GA2041+060009009GF105991031001999999031011MD1610061+9999REMSYN082AAXX  28154 17067 42970 51601 10180 20092 40102 56006 83031 333 83360 84070 92428;
0239170670999992000122906004+40710+029810FM-12+001899999V0202701N001510300019N0200001N1+01281+00771100991ADDAA199000091GA1041+012009089GA2061+030009039GF107991041021012501031001IA1019IA2999+00909KA1120N+01201MD1610031+9999REMSYN094AAXX  29064 17067 32670 72703 10128 20077 40099 56003 84230 333 20120 30009 84840 86360 92408;EQDQ01  00002PRCP99
0166170670999992000122909004+40710+029810FM-12+001899999V0202701N001510300019N0200001N1+01321+00831100991ADDGA1021+012009089GA2071+030009039GF107991021021012501031001MD1410001+9999REMSYN082AAXX  29094 17067 42670 72703 10132 20083 40099 54000 82230 333 82840 87360 92408;
0196170670999992000122912004+40710+029810FM-12+001899999V0202801N001510600019N0200001N1+01741+01181100701ADDAA199000091GA1021+012009089GA2051+060009009GF106991021011012501001011MD1710291+9999REMSYN082AAXX  29124 17067 32670 62803 10174 20118 40070 57029 82101 333 82840 85070 92408;EQDQ01  00002PRCP99
0166170670999992000122915004+40710+029810FM-12+001899999V0201501N001510600019N0200001N1+01601+01101100581ADDGA1021+012009089GA2051+060009009GF106991021011012501001011MD1610121+9999REMSYN082AAXX  29154 17067 42670 61503 10160 20110 40058 56012 82101 333 82840 85070 92408;
0239170670999992000123006004+40710+029810FM-12+001899999V0201601N001010600019N0200001N1+01401+00901100521ADDAA199000091GA1031+030009039GA2051+060009009GF106991031001999999031011IA1019IA2999+00909KA1120N+01301MD1110051+9999REMSYN094AAXX  30064 17067 32970 61602 10140 20090 40052 51005 83031 333 20130 30009 83360 85070 92408;EQDQ01  00002PRCP99
0144170670999992000123009004+40710+029810FM-12+001899999V0201301N003112200019N0200001N1+01781+01141100531ADDGA1031+030009039GF103991031001999999031001MD1110011+9999REMSYN076AAXX  30094 17067 42970 31306 10178 20114 40053 51001 83030 333 83360 92418;
0196170670999992000123012004+40710+029810FM-12+001899999V0201401N001510300019N0200001N1+01921+01301100441ADDAA199000091GA1031+012009089GA2041+030009039GF105991031021012501031001MD1710071+9999REMSYN082AAXX  30124 17067 32670 51403 10192 20130 40044 57007 83230 333 83840 84360 92408;EQDQ01  00002PRCP99
0185170670999992000123015004+40710+029810FM-12+001899999V0201601N002110300019N0200001N1+01661+01101100421ADDGA1031+012009089GA2051+030009039GF106991031999012501031001MD1610041+9999REMSYN082AAXX  30154 17067 42670 61604 10166 20110 40042 56004 83030 333 83840 85360 92418;EQDQ01+000002SCOLCG
0238170670999992000123106004+40710+029810FM-12+001899999V0201301N001510120019N0200001N1+01061+00901101021ADDAA112002091AY181061AY221061GA1061+012009089GF106991061021012501001001IA1119IA2999+00909KA1120N+01001MD1210101+9999MW1021REMSYN106AAXX  31064 17067 11670 61303 10106 20090 40102 52010 60022 70282 86200 333 20100 32009 70024 86840 92408;
0166170670999992000123109004+40710+029810FM-12+001899999V0200701N001010600019N0200001N1+01421+01141101191ADDGA1031+012009089GA2051+060009009GF105991031021012501001011MD1210171+9999REMSYN082AAXX  31094 17067 42670 50702 10142 20114 40119 52017 83201 333 83840 85070 92408;
0196170670999992000123112004+40710+029810FM-12+001899999V0200701N000510600019N0200001N1+01581+01281101211ADDAA199000091GA1031+012009089GA2051+060009009GF106991031021012501001011MD1110021+9999REMSYN082AAXX  31124 17067 32670 60701 10158 20128 40121 51002 83201 333 83840 85070 92408;EQDQ01  00002PRCP99
0166170670999992000123115004+40710+029810FM-12+001899999V0200701N001010300019N0200001N1+01441+01281101271ADDGA1031+012009089GA2061+030009039GF107991031021012501031001MD1210061+9999REMSYN082AAXX  31154 17067 42670 70702 10144 20128 40127 52006 83230 333 83840 86360 92408;
