0192172030999992000010100004+38870+040500FM-12+117799999V0209999C000012200019N0200001N1+00221-00321999999ADDAA106000091GA1001+999999999GF100991001001999999001001MA1999999089101MD1610031+9999ME1315659REMSYN070AAXX  01004 17203 32970 00000 10022 21032 38910 48565 56003 333 10265;EQDQ01  00002PRCP06
0235172030999992000010106004+38870+040500FM-12+117799999V0209999C000012200019N0200001N1+00121-00391999999ADDAA106000091GA1001+999999999GF100991001001999999001001IA1099IA2999-00209KA1120N+00051MA1999999089081MD1310081+9999ME1315589REMSYN082AAXX  01064 17203 32970 00000 10012 21039 38908 48558 53008 333 20005 31102 55055;EQDQ01  00002PRCP06
0182172030999992000010112004+38870+040500FM-12+117799999V0209999C000012200019N0200001N1+01321+00111999999ADDAA106000091GF103991001001999999001011MA1999999088921MD1710181+9999ME1315519REMSYN076AAXX  01124 17203 32970 30000 10132 20011 38892 48551 57018 80001 333 10233;EQDQ01  00002PRCP06
0217172030999992000010118004+38870+040500FM-12+117799999V0209999C000012200019N0200001N1+00481-00111999999ADDAA106000091GA1011+060009019GF101991001001999999001011KA1120M+01341MA1999999089001MD1210081+9999ME1315519REMSYN082AAXX  01184 17203 32970 10000 10048 21011 38900 48551 52008 80001 333 10134 81070;EQDQ01  00002PRCP06
0192172030999992000010200004+38870+040500FM-12+117799999V0209999C000012200019N0200001N1+00101-00141999999ADDAA106000091GA1001+999999999GF100991001001999999001001MA1999999088991MD1810021+9999ME1315569REMSYN070AAXX  02004 17203 32970 00000 10010 21014 38899 48556 58002 333 10247;EQDQ01  00002PRCP06
0253172030999992000010206004+38870+040500FM-12+117799999V0209999C00001036001CN0200001N1+00001-00301999999ADDAA106000091GA1021+012009069GF107991021051012501071001IA1169IA2999-00509KA1120N-00081MA1999999089041MD1310061+9999ME1315559REMSYN100AAXX  02064 17203 32670 70000 10000 21030 38904 48555 53006 82570 333 21008 35105 55051 82640 87360;EQDQ01  00002PRCP06
0204172030999992000010212004+38870+040500FM-12+117799999V0209999C00001036001CN0200001N1+01041+00031999999ADDAA106000091GA1031+012009069GF106991031051012501071001MA1999999088841MD1710181+9999ME1315419REMSYN082AAXX  02124 17203 32670 60000 10104 20003 38884 48541 57018 83570 333 83640 86360;EQDQ01  00002PRCP06
0205172030999992000010218004+38870+040500FM-12+117799999V0209999C000012200019N0200001N1+00501+00021999999ADDAA106000091GA1001+999999999GF100991001001999999001001KA1999M+02521MA1999999088801MD1510001+9999ME1315329REMSYN070AAXX  02184 17203 32970 00000 10050 20002 38880 48532 55000 333 10252;EQDQ01  00002PRCP06
0204172030999992000010300004+38870+040500FM-12+117799999V0209999C00001036001CN0200001N1+00281-00091999999ADDAA106000091GA1031+012009089GF105991031011012501051001MA1999999088701MD1610081+9999ME1315299REMSYN082AAXX  03004 17203 32670 50000 10028 21009 38870 48529 56008 83150 333 83840 85360;EQDQ01  00002PRCP06
0253172030999992000010306004+38870+040500FM-12+117799999V0209999C00001036001CN0200001N1+00381+00071999999ADDAA106000091GA1041+012009069GF108991041051012501021999IA1099IA2999-00109KA1120N+00261MA1999999088501MD1610021+9999ME1315089REMSYN100AAXX  03064 17203 32670 80000 10038 20007 38850 48508 56002 8452/ 333 20026 31101 55023 84640 88460;EQDQ01  00002PRCP06
0232172030999992000010312004+38870+040500FM-12+117799999V0209999C000010111019N0150001N1+00561+00441999999ADDAA106002091AY121061AY221061GA1051+011109069GF108991051051012501021999MA1999999088331MD1710171+9999ME1314919REMSYN094AAXX  03124 17203 11665 80000 10056 20044 38833 48491 57017 60021 76622 8552/ 333 85637 88458;EQDQ01+000662PRSWM1
0238172030999992000010318004+38870+040500FM-12+117799999V0201601N003610108019N0080001N1+00521+00401999999ADDAA112006191AY161061AY221061GA1051+010809069GF108991051051012501021999KA1120M+00621MA1999999088151MD1710101+9999ME1314769MW1611REMSYN100AAXX  03184 17203 11658 81607 10052 20040 38815 48476 57010 60062 76162 8552/ 333 10062 85636 88457;
0219172030999992000010400004+38870+040500FM-12+117799999V0201301N001510108019N0080001N1+00301+00261999999ADDAA106010991AY161061AY261061GA1051+010809069GF108991051051012501021999MA1999999088081MD1810041+9999ME1314699MW1611REMSYN094AAXX  04004 17203 11658 81303 10030 20026 38808 48469 58004 60111 76166 8552/ 333 85636 88457;
0274172030999992000010406004+38870+040500FM-12+117799999V0201001N002110108019N0080001N1+00461+00341999999ADDAA112020191AY161061AY221061GA1051+010809069GF108991051051012501021999IA1119IA2999+00109KA1120N+00171MA1999999087881MD1710061+9999ME1314509MW1611REMSYN118AAXX  04064 17203 11658 81004 10046 20034 38788 48450 57006 60202 76162 8552/ 333 20017 32001 55000 70259 85636 88457;
0219172030999992000010412004+38870+040500FM-12+117799999V0203601N001510105019N0080001N1+00401+00361999999ADDAA106007191AY161061AY261061GA1051+010509069GF108991051051012501021999MA1999999087721MD1710101+9999ME1314349MW1611REMSYN094AAXX  04124 17203 11658 83603 10040 20036 38772 48434 57010 60071 76166 8552/ 333 85635 88457;
0238172030999992000010418004+38870+040500FM-12+117799999V0209999C000010105019N0100001N1+00201+00161999999ADDAA112016091AY161061AY261061GA1051+010509069GF108991051051012501021999KA1120M+00541MA1999999087721MD1410001+9999ME1314349MW1611REMSYN100AAXX  04184 17203 11660 80000 10020 20016 38772 48434 54000 60162 76166 8552/ 333 10054 85635 88457;
0219172030999992000010500004+38870+040500FM-12+117799999V0209999C000010105019N0080001N1+00201+00161999999ADDAA106006191AY161061AY261061GA1051+010509069GF108991051051012501021999MA1999999087621MD1610081+9999ME1314259MW1611REMSYN094AAXX  05004 17203 11658 80000 10020 20016 38762 48425 56008 60061 76166 8552/ 333 85635 88457;
0274172030999992000010506004+38870+040500FM-12+117799999V0209999C00001036001CN0200001N1+00151+00081999999ADDAA112008991AY161061AY221061GA1041+012009069GF107991041051012501021999IA1119IA2999+00009KA1120N+00101MA1999999087821MD1210181+9999ME1314429MW1011REMSYN118AAXX  05064 17203 11670 70000 10015 20008 38782 48442 52018 60092 70162 8452/ 333 20010 32000 55000 70244 84640 87460;
0204172030999992000010512004+38870+040500FM-12+117799999V0209999C00001036001CN0200001N1+00601+00181999999ADDAA106000091GA1031+012009089GF105991031011012501051001MA1999999087901MD1610101+9999ME1314519REMSYN082AAXX  05124 17203 32670 50000 10060 20018 38790 48451 56010 83150 333 83840 85360;EQDQ01  00002PRCP06
0223172030999992000010518004+38870+040500FM-12+117799999V0209999C00001036001CN0200001N1+00281-00091999999ADDAA106000091GA1031+012009089GF105991031011012501051001KA1120M+00621MA1999999088001MD1110101+9999ME1314589REMSYN088AAXX  05184 17203 32670 50000 10028 21009 38800 48458 51010 83150 333 10062 83840 85360;EQDQ01  00002PRCP06
0329172030999992000010606004+38870+040500FM-12+117799999V0209999C000010099019N0020001N1+00021-00031999999ADDAA112010991AJ100059199999999AL10600391AY171061AY271061GA1051+009909099GA2081+021009049GF108991051051008001021999IA1279IA2999-00109KA1120N-00021MA1999999087941MD1410001+9999ME1314539MW1711REMSYN130AAXX  06064 17203 11520 80000 10002 21003 38794 48453 54000 60112 77177 8552/ 333 21002 3/101 43005 55010 70106 85933 88457 93103;
0251172030999992000010612004+38870+040500FM-12+117799999V0209999C000010270019N0200001N1+00161+00091999999ADDAA106003091AL10600291AY171061AY211061GA1041+010809069GA2081+027009049GF108991041051012501021999MA1999999088041MD1810021+9999ME1314619MW1021REMSYN100AAXX  06124 17203 11670 80000 10016 20009 38804 48461 58002 60031 70271 8452/ 333 84636 88459 93102;
0204172030999992000010700004+38870+040500FM-12+117799999V0209999C00001036001CN0200001N1+00101+00031999999ADDAA106000091GA1041+012009069GF108991041051012501021999MA1999999088501MD1110081+9999ME1315039REMSYN082AAXX  07004 17203 32670 80000 10010 20003 38850 48503 51008 8452/ 333 84640 88460;EQDQ01  00002PRCP06
0282172030999992000010706004+38870+040500FM-12+117799999V0209999C00001036001CN0200001N1+00081+00031999999ADDAA106000091AJ100049199999999GA1041+012009069GF108991041051012501021999IA1279IA2999+00009KA1120N+00061MA1999999088721MD1210121+9999ME1315239REMSYN112AAXX  07064 17203 32670 80000 10008 20003 38872 48523 52012 8452/ 333 20006 3/000 43004 55000 70026 84640 88460;EQDQ01  00002PRCP06
0204172030999992000010712004+38870+040500FM-12+117799999V0203501N00151036001CN0200001N1+00401+00091999999ADDAA106000091GA1021+010509069GF108991021051012501021999MA1999999088831MD1610041+9999ME1315359REMSYN082AAXX  07124 17203 32670 83503 10040 20009 38883 48535 56004 8252/ 333 82635 88459;EQDQ01  00002PRCP06
0223172030999992000010718004+38870+040500FM-12+117799999V0209999C00001036001CN0200001N1+00181-00051999999ADDAA106000091GA1031+012009069GF108991031051012501021999KA1120M+00421MA1999999088981MD1210061+9999ME1315479REMSYN088AAXX  07184 17203 32670 80000 10018 21005 38898 48547 52006 8352/ 333 10042 83640 88460;EQDQ01  00002PRCP06
0204172030999992000010800004+38870+040500FM-12+117799999V0209999C00001036001CN0200001N1+00021-00171999999ADDAA106000091GA1031+012009069GF105991031051012501011001MA1999999089021MD1410001+9999ME1315529REMSYN082AAXX  08004 17203 32670 50000 10002 21017 38902 48552 54000 83510 333 83640 85460;EQDQ01  00002PRCP06
0192172030999992000010812004+38870+040500FM-12+117799999V0209999C000012200019N0200001N1+00601-00351999999ADDAA106000091GA1001+999999999GF100991001001999999001001MA1999999088921MD1710161+9999ME1315449REMSYN070AAXX  08124 17203 32970 00000 10060 21035 38892 48544 57016 333 10260;EQDQ01  00002PRCP06
0205172030999992000010818004+38870+040500FM-12+117799999V0202601N001512200019N0200001N1-00121-00351999999ADDAA106000091GA1001+999999999GF100991001001999999001001KA1999M+02921MA1999999088991MD1210081+9999ME1315459REMSYN070AAXX  08184 17203 32970 02603 11012 21035 38899 48545 52008 333 10292;EQDQ01  00002PRCP06
0192172030999992000010900004+38870+040500FM-12+117799999V0202801N001512200019N0200001N1-00381-00781999999ADDAA106000091GA1001+999999999GF100991001001999999001001MA1999999088921MD1610061+9999ME1315429REMSYN070AAXX  09004 17203 32970 02803 11038 21078 38892 48542 56006 333 10271;EQDQ01  00002PRCP06
0192172030999992000011000004+38870+040500FM-12+117799999V0209999C000012200019N0200001N1-00641-01121999999ADDAA106000091GA1001+999999999GF100991001001999999001001MA1999999088881MD1410001+9999ME1315329REMSYN070AAXX  10004 17203 32970 00000 11064 21112 38888 48532 54000 333 10289;EQDQ01  00002PRCP06
0162172030999992000011003004+38870+040500FM-12+117799999V0209999C000012200019N0200001N1-00641-01121999999ADDGA1001+999999999GF100991001001999999001001MA1999999088881MD1410001+9999ME1315329REMSYN070AAXX  10034 17203 42970 00000 11064 21112 38888 48532 54000 333 10289;
0235172030999992000011006004+38870+040500FM-12+117799999V0209999C000012200019N0200001N1-00521-01081999999ADDAA106000091GA1001+999999999GF100991001001999999001001IA1149IA2999-00809KA1120N-00721MA1999999088921MD1310041+9999ME1315359REMSYN082AAXX  10064 17203 32970 00000 11052 21108 38892 48535 53004 333 21072 34108 55061;EQDQ01  00002PRCP06
0162172030999992000011009004+38870+040500FM-12+117799999V0209999C000012200019N0200001N1+00301-00921999999ADDGA1001+999999999GF100991001001999999001001MA1999999088921MD1810021+9999ME1315419REMSYN070AAXX  10094 17203 42970 00000 10030 21092 38892 48541 58002 333 10280;
0204172030999992000011012004+38870+040500FM-12+117799999V0209999C00001036001CN0200001N1+00301-00621999999ADDAA106000091GA1031+012009089GF105991031011012501051001MA1999999088781MD1710121+9999ME1315249REMSYN082AAXX  10124 17203 32670 50000 10030 21062 38878 48524 57012 83150 333 83840 85360;EQDQ01  00002PRCP06
0152172030999992000011015004+38870+040500FM-12+117799999V0209999C000012200019N0200001N1+00001-00881999999ADDGF103991031001999999031001MA1999999088771MD1610011+9999ME1315229REMSYN076AAXX  10154 17203 42970 30000 10000 21088 38877 48522 56001 83030 333 10276;
0205172030999992000011018004+38870+040500FM-12+117799999V0209999C000012200019N0200001N1-00301-00851999999ADDAA106000091GA1001+999999999GF100991001001999999001001KA1999M+02831MA1999999088781MD1110011+9999ME1315229REMSYN070AAXX  10184 17203 32970 00000 11030 21085 38878 48522 51001 333 10283;EQDQ01  00002PRCP06
0162172030999992000011021004+38870+040500FM-12+117799999V0202501N002112200019N0200001N1-00401-00871999999ADDGA1001+999999999GF100991001001999999001001MA1999999088781MD1410001+9999ME1315279REMSYN070AAXX  10214 17203 42970 02504 11040 21087 38878 48527 54000 333 10261;
0192172030999992000011100004+38870+040500FM-12+117799999V0209999C000012200019N0200001N1-00571-01031999999ADDAA106000091GA1001+999999999GF100991001001999999001001MA1999999088771MD1610011+9999ME1315259REMSYN070AAXX  11004 17203 32970 00000 11057 21103 38877 48525 56001 333 10265;EQDQ01  00002PRCP06
0162172030999992000011103004+38870+040500FM-12+117799999V0202501N001512200019N0200001N1-00531-01091999999ADDGA1001+999999999GF100991001001999999001001MA1999999088761MD1610011+9999ME1315229REMSYN070AAXX  11034 17203 42970 02503 11053 21109 38876 48522 56001 333 10275;
0247172030999992000011106004+38870+040500FM-12+117799999V0209999C000012200019N0200001N1-00461-01071999999ADDAA106000091GA1021+030009079GF102991021001999999031001IA1149IA2999-00709KA1120N-00601MA1999999088841MD1210081+9999ME1315289REMSYN094AAXX  11064 17203 32970 20000 11046 21107 38884 48528 52008 82030 333 21060 34107 55043 82360;EQDQ01  00002PRCP06
0174172030999992000011109004+38870+040500FM-12+117799999V0201901N00151036001CN0200001N1+00281-00761999999ADDGA1031+012009089GF105991031011012501051001MA1999999088821MD1810021+9999ME1315309REMSYN082AAXX  11094 17203 42670 51903 10028 21076 38882 48530 58002 83150 333 83840 85360;
0182172030999992000011112004+38870+040500FM-12+117799999V0202501N001512200019N0200001N1+00501-00781999999ADDAA106000091GF102991021011012501001001MA1999999088721MD1710101+9999ME1315219REMSYN076AAXX  11124 17203 32670 22503 10050 21078 38872 48521 57010 82100 333 10254;EQDQ01  00002PRCP06
0152172030999992000011115004+38870+040500FM-12+117799999V0209999C000012200019N0200001N1+00101-00731999999ADDGF103991031011012501001001MA1999999088761MD1310041+9999ME1315239REMSYN076AAXX  11154 17203 42670 30000 10010 21073 38876 48523 53004 83100 333 10270;
0205172030999992000011118004+38870+040500FM-12+117799999V0202701N001512200019N0200001N1-00171-00931999999ADDAA106000091GA1001+999999999GF100991001001999999001001KA1999M+02871MA1999999088861MD1210101+9999ME1315309REMSYN070AAXX  11184 17203 32970 02703 11017 21093 38886 48530 52010 333 10287;EQDQ01  00002PRCP06
0162172030999992000011121004+38870+040500FM-12+117799999V0202701N001512200019N0200001N1-00301-01001999999ADDGA1001+999999999GF100991001001999999001001MA1999999088901MD1210041+9999ME1315389REMSYN070AAXX  11214 17203 42970 02703 11030 21100 38890 48538 52004 333 10275;
0192172030999992000011200004+38870+040500FM-12+117799999V0202501N002112200019N0200001N1-00321-00951999999ADDAA106000091GA1001+999999999GF100991001001999999001001MA1999999088901MD1410001+9999ME1315409REMSYN070AAXX  12004 17203 32970 02504 11032 21095 38890 48540 54000 333 10269;EQDQ01  00002PRCP06
0162172030999992000011203004+38870+040500FM-12+117799999V0202701N002112200019N0200001N1-00401-00951999999ADDGA1001+999999999GF100991001001999999001001MA1999999088881MD1810021+9999ME1315359REMSYN070AAXX  12034 17203 42970 02704 11040 21095 38888 48535 58002 333 10284;
0235172030999992000011206004+38870+040500FM-12+117799999V0202501N002612200019N0200001N1-00341-00901999999ADDAA106000091GA1001+999999999GF100991001001999999001001IA1149IA2999-00609KA1120N-00451MA1999999088901MD1310021+9999ME1315359REMSYN082AAXX  12064 17203 32970 02505 11034 21090 38890 48535 53002 333 21045 34106 55047;EQDQ01  00002PRCP06
0162172030999992000011209004+38870+040500FM-12+117799999V0203601N002112200019N0200001N1+00301-00461999999ADDGA1001+999999999GF100991001001999999001001MA1999999088901MD1010001+9999ME1315439REMSYN070AAXX  12094 17203 42970 03604 10030 21046 38890 48543 50000 333 10275;
0204172030999992000011212004+38870+040500FM-12+117799999V0203601N00261036001CN0200001N1+00361-00671999999ADDAA106000091GA1031+012009089GF105991031011012501051001MA1999999088801MD1710101+9999ME1315309REMSYN082AAXX  12124 17203 32670 53605 10036 21067 38880 48530 57010 83150 333 83840 85360;EQDQ01  00002PRCP06
0174172030999992000011215004+38870+040500FM-12+117799999V0209999C00001036001CN0200001N1+00101-00601999999ADDGA1031+012009089GF106991031011012501051001MA1999999088881MD1310081+9999ME1315359REMSYN082AAXX  12154 17203 42670 60000 10010 21060 38888 48535 53008 83150 333 83840 86360;
0223172030999992000011218004+38870+040500FM-12+117799999V0209999C00001036001CN0200001N1-00101-00861999999ADDAA106000091GA1031+012009089GF106991031011012501051001KA1120M+00401MA1999999088941MD1210061+9999ME1315399REMSYN088AAXX  12184 17203 32670 60000 11010 21086 38894 48539 52006 83150 333 10040 83840 86360;EQDQ01  00002PRCP06
0174172030999992000011221004+38870+040500FM-12+117799999V0209999C00001036001CN0200001N1-00181-00751999999ADDGA1041+012009069GF107991041051012501021001MA1999999088941MD1410001+9999ME1315419REMSYN082AAXX  12214 17203 42670 70000 11018 21075 38894 48541 54000 84520 333 84640 87460;
0204172030999992000011300004+38870+040500FM-12+117799999V0202501N00151036001CN0200001N1-00201-00781999999ADDAA106000091GA1041+012009069GF108991041051012501021999MA1999999088941MD1410001+9999ME1315439REMSYN082AAXX  13004 17203 32670 82503 11020 21078 38894 48543 54000 8452/ 333 84640 88460;EQDQ01  00002PRCP06
0174172030999992000011303004+38870+040500FM-12+117799999V0209999C00001036001CN0200001N1-00141-00701999999ADDGA1041+012009069GF108991041051012501021999MA1999999088981MD1110041+9999ME1315459REMSYN082AAXX  13034 17203 42670 80000 11014 21070 38898 48545 51004 8452/ 333 84640 88460;
0152172030999992000011309004+38870+040500FM-12+117799999V0202801N001512200019N0200001N1+00241-00681999999ADDGF102991001001999999001011MA1999999089101MD1010041+9999ME1315579REMSYN076AAXX  13094 17203 42970 22803 10024 21068 38910 48557 50004 80001 333 10298;
0152172030999992000011315004+38870+040500FM-12+117799999V0203301N001512200019N0200001N1-00101-00781999999ADDGF102991021001999999031001MA1999999088981MD1310031+9999ME1315449REMSYN076AAXX  13154 17203 42970 23303 11010 21078 38898 48544 53003 82030 333 10284;
0191172030999992000011318004+38870+040500FM-12+117799999V0209999C000012200019N0200001N1-00301-01091999999ADDAA106000091GA1001+999999999GF100991001001999999001001MA1999999089041MD1210061+9999ME1315469REMSYN069AAXX  13184 17203 32970 00000 11030 21109 38904 48546 52006 33 10308;EQDQ01  00002PRCP06
0166172030999992000011321004+38870+040500FM-12+117799999V0209999C000012200019N0200001N1-00481-00941999999ADDGA1001+999999999GF100991001001999999001001MA1999999089181MD1110141+9999ME1315629REMSYN074    AAXX  13214 17203 42970 00000 11048 21094 38918 48562 51014 333 10313;
0196172030999992000011400004+38870+040500FM-12+117799999V0202501N001512200019N0200001N1-00521-01001999999ADDAA199000091GA1001+999999999GF100991001001999999001001MA1999999089181MD1410001+9999ME1315619REMSYN074    AAXX  14004 17203 32970 02503 11052 21100 38918 48561 54000 333 10313;EQDQ01  00002PRCP99
0166172030999992000011403004+38870+040500FM-12+117799999V0209999C000012200019N0200001N1-00641-01161999999ADDGA1001+999999999GF100991001001999999001001MA1999999089181MD1410001+9999ME1315589REMSYN074    AAXX  14034 17203 42970 00000 11064 21116 38918 48558 54000 333 10330;
0178172030999992000011409004+38870+040500FM-12+117799999V0202601N00151036001CN0200001N1+00001-01041999999ADDGA1031+012009089GF107991031011012501061001MA1999999089221MD1010021+9999ME1315649REMSYN086    AAXX  14094 17203 42670 72603 10000 21104 38922 48564 50002 83160 333 83840 87360;
0186172030999992000011412004+38870+040500FM-12+117799999V0203301N002119999999N0200001N1+00181-00841999999ADDAA199000091GF106991001001999999001091MA1999999089061MD1710161+9999ME1315509REMSYN080    AAXX  14124 17203 32970 63304 10018 21084 38906 48550 57016 80009 333 10304;EQDQ01  00002PRCP99
0156172030999992000011415004+38870+040500FM-12+117799999V0203401N002119999999N0200001N1-00101-00861999999ADDGF107991001001999999001091MA1999999089101MD1110041+9999ME1315519REMSYN080    AAXX  14154 17203 42970 73404 11010 21086 38910 48551 51004 80009 333 10320;
0221172030999992000011418004+38870+040500FM-12+117799999V0209999C000010600019N0200001N1-00121-00971999999ADDAA199000091GA1051+060009019GF105991001001999999001011KA1120M+00241MA1999999089101MD1410001+9999ME1315519REMSYN086    AAXX  14184 17203 32970 50000 11012 21097 38910 48551 54000 80001 333 10024 85070;EQDQ01  00002PRCP99
0166172030999992000011421004+38870+040500FM-12+117799999V0209999C000012200019N0200001N1-00321-00951999999ADDGA1001+999999999GF100991001001999999001001MA1999999089101MD1010001+9999ME1315549REMSYN074    AAXX  14214 17203 42970 00000 11032 21095 38910 48554 50000 333 10309;
0196172030999992000011500004+38870+040500FM-12+117799999V0209999C000012200019N0200001N1-00401-01071999999ADDAA199000091GA1001+999999999GF100991001001999999001001MA1999999089101MD1410001+9999ME1315559REMSYN074    AAXX  15004 17203 32970 00000 11040 21107 38910 48555 54000 333 10303;EQDQ01  00002PRCP99
0166172030999992000011503004+38870+040500FM-12+117799999V0209999C000012200019N0200001N1-00501-01131999999ADDGA1001+999999999GF100991001001999999001001MA1999999089021MD1610081+9999ME1315459REMSYN074    AAXX  15034 17203 42970 00000 11050 21113 38902 48545 56008 333 10305;
0251172030999992000011506004+38870+040500FM-12+117799999V0209999C000012200019N0200001N1-00481-01191999999ADDAA199000091GA1031+030009079GF103991031001999999031001IA1149IA2999+00709KA1120N-00541MA1999999089001MD1810021+9999ME1315439REMSYN098    AAXX  15064 17203 32970 30000 11048 21119 38900 48543 58002 83030 333 21054 34007 55025 83360;EQDQ01  00002PRCP99
0156172030999992000011509004+38870+040500FM-12+117799999V0209999C000012200019N0200001N1+00101-01001999999ADDGF102991021001999999031001MA1999999088861MD1710141+9999ME1315339REMSYN080    AAXX  15094 17203 42970 20000 10010 21100 38886 48533 57014 82030 333 10276;
0186172030999992000011512004+38870+040500FM-12+117799999V0203401N003612200019N0200001N1+00241-01071999999ADDAA199000091GF103991031001999999031001MA1999999088661MD1710201+9999ME1315169REMSYN080    AAXX  15124 17203 32970 33407 10024 21107 38866 48516 57020 83030 333 10252;EQDQ01  00002PRCP99
0156172030999992000011515004+38870+040500FM-12+117799999V0203401N003112200019N0200001N1-00101-01301999999ADDGF102991021011012501001001MA1999999088631MD1710031+9999ME1315109REMSYN080    AAXX  15154 17203 42670 23406 11010 21130 38863 48510 57003 82100 333 10260;
0204172030999992000011518004+38870+040500FM-12+117799999V0202601N001512200019N0200001N1-00341-01241999999ADDAA199000091GF103991999999999999999999KA1120M+00261MA1999999088681MD1210051+9999ME1315139REMSYN085    AAXX  15184 17203 32970 32603 11034 21124 38868 48513 52005 8330 333 10026 83360;EQDQ01  00002PRCP99
0156172030999992000011521004+38870+040500FM-12+117799999V0202501N002619999999N0200001N1-00501-01131999999ADDGF106991061001999999031001MA1999999088701MD1110021+9999ME1315189REMSYN080    AAXX  15214 17203 42970 62505 11050 21113 38870 48518 51002 86030 333 10263;
0196172030999992000011600004+38870+040500FM-12+117799999V0202501N001512200019N0200001N1-00621-01051999999ADDAA199000091GA1001+999999999GF100991001001999999001001MA1999999088651MD1610051+9999ME1315139REMSYN074    AAXX  16004 17203 32970 02503 11062 21105 38865 48513 56005 333 10257;EQDQ01  00002PRCP99
0166172030999992000011603004+38870+040500FM-12+117799999V0209999C000012200019N0200001N1-00701-01121999999ADDGA1001+999999999GF100991001001999999001001MA1999999088621MD1810031+9999ME1315089REMSYN074    AAXX  16034 17203 42970 00000 11070 21112 38862 48508 58003 333 10265;
0239172030999992000011606004+38870+040500FM-12+117799999V0202601N001012200019N0200001N1-00601-01031999999ADDAA199000091GA1001+999999999GF100991001001999999001001IA1149IA2999-01009KA1120N-00801MA1999999088701MD1310081+9999ME1315149REMSYN086    AAXX  16064 17203 32970 02602 11060 21103 38870 48514 53008 333 21080 34110 55045;EQDQ01  00002PRCP99
0166172030999992000011609004+38870+040500FM-12+117799999V0209999C000012200019N0200001N1+00141-00821999999ADDGA1001+999999999GF100991001001999999001001MA1999999088701MD1410001+9999ME1315189REMSYN074    AAXX  16094 17203 42970 00000 10014 21082 38870 48518 54000 333 10263;
0186172030999992000011612004+38870+040500FM-12+117799999V0203401N002112200019N0200001N1+00321-00841999999ADDAA199000091GF102991021011012501001001MA1999999088541MD1710161+9999ME1315049REMSYN080    AAXX  16124 17203 32670 23404 10032 21084 38854 48504 57016 82100 333 10239;EQDQ01  00002PRCP99
0166172030999992000011615004+38870+040500FM-12+117799999V0209999C000012200019N0200001N1-00121-01051999999ADDGA1001+999999999GF100991001001999999001001MA1999999088621MD1110081+9999ME1315089REMSYN074    AAXX  16154 17203 42970 00000 11012 21105 38862 48508 51008 333 10265;
0209172030999992000011618004+38870+040500FM-12+117799999V0209999C000012200019N0200001N1-00441-01051999999ADDAA199000091GA1001+999999999GF100991001001999999001001KA1999M+02801MA1999999088701MD1210081+9999ME1315149REMSYN074    AAXX  16184 17203 32970 00000 11044 21105 38870 48514 52008 333 10280;EQDQ01  00002PRCP99
0166172030999992000011621004+38870+040500FM-12+117799999V0209999C000012200019N0200001N1-00601-01111999999ADDGA1001+999999999GF100991001001999999001001MA1999999088731MD1110031+9999ME1315209REMSYN074    AAXX  16214 17203 42970 00000 11060 21111 38873 48520 51003 333 10266;
0196172030999992000011700004+38870+040500FM-12+117799999V0209999C000012200019N0200001N1-00681-01171999999ADDAA199000091GA1001+999999999GF100991001001999999001001MA1999999088701MD1610031+9999ME1315189REMSYN074    AAXX  17004 17203 32970 00000 11068 21117 38870 48518 56003 333 10263;EQDQ01  00002PRCP99
0166172030999992000011703004+38870+040500FM-12+117799999V0209999C000012200019N0200001N1-00901-01291999999ADDGA1001+999999999GF100991001001999999001001MA1999999088661MD1810041+9999ME1315109REMSYN074    AAXX  17034 17203 42970 00000 11090 21129 38866 48510 58004 333 10275;
0221172030999992000011718004+38870+040500FM-12+117799999V0209999C000012200019N0200001N1-00521-01161999999ADDAA199000091GA1021+060009019GF102991001001999999001011KA1120M+00201MA1999999088201MD1410001+9999ME1314679REMSYN086    AAXX  17184 17203 32970 20000 11052 21116 38820 48467 54000 80001 333 10020 82070;EQDQ01  00002PRCP99
0178172030999992000011721004+38870+040500FM-12+117799999V0209999C00001036001CN0200001N1-00581-01001999999ADDGA1031+012009069GF106991031051012501051001MA1999999088321MD1210121+9999ME1314829REMSYN086    AAXX  17214 17203 42670 60000 11058 21100 38832 48482 52012 83550 333 83640 86360;
0208172030999992000011800004+38870+040500FM-12+117799999V0209999C00001036001CN0200001N1-00561-00971999999ADDAA199000091GA1041+012009069GF106991041051012501051001MA1999999088241MD1710081+9999ME1314759REMSYN086    AAXX  18004 17203 32670 60000 11056 21097 38824 48475 57008 84550 333 84640 86360;EQDQ01  00002PRCP99
0178172030999992000011803004+38870+040500FM-12+117799999V0209999C00001036001CN0200001N1-00601-00991999999ADDGA1041+012009069GF106991041051012501051001MA1999999088101MD1710141+9999ME1314629REMSYN086    AAXX  18034 17203 42670 60000 11060 21099 38810 48462 57014 84550 333 84640 86360;
0257172030999992000011806004+38870+040500FM-12+117799999V0209999C00001036001CN0200001N1-00521-00851999999ADDAA199000091GA1041+012009069GF108991041051012501011999IA1149IA2999-00909KA1120N-00621MA1999999088021MD1610081+9999ME1314539REMSYN104    AAXX  18064 17203 32670 80000 11052 21085 38802 48453 56008 8451/ 333 21062 34109 55064 84640 88460;EQDQ01  00002PRCP99
0178172030999992000011809004+38870+040500FM-12+117799999V0201601N00311036001CN0200001N1-00231-00821999999ADDGA1041+012009069GF108991041051012501021999MA1999999088011MD1810011+9999ME1314539REMSYN086    AAXX  18094 17203 42670 81606 11023 21082 38801 48453 58001 8452/ 333 84640 88460;
0255172030999992000011812004+38870+040500FM-12+117799999V0202701N003110099019N0020001N1-00461-00461999999ADDAA106002091AL10600491AY121061AY221061GA1051+009909069GA2081+021009049GF108991051051008001021999MA1999999087841MD1710171+9999ME1314369MW1711REMSYN104    AAXX  18124 17203 11520 82706 11046 21046 38784 48436 57017 60021 77122 8552/ 333 85633 88457 93104;
0206172030999992000011815004+38870+040500FM-12+117799999V0201901N001510099019N0020001N1-00501-00561999999ADDAY171031AY271031GA1051+009909069GF108991051051008001021999MA1999999087641MD1710201+9999ME1314189MW1711REMSYN092    AAXX  18154 17203 41520 81903 11050 21056 38764 48418 57020 77177 8552/ 333 85633 88457;
0274172030999992000011818004+38870+040500FM-12+117799999V0203401N002110099019N0020001N1-00701+99999999999ADDAA112014091AL10602291AY171061AY271061GA1051+009909069GA2081+021009049GF108991051051008001021999KA1120M-00221MA1999999087581MD1710061+9999ME1314149MW1711REMSYN110    AAXX  18184 17203 11520 83404 11070 21045 38758 48414 57006 60142 77177 8552/ 333 11022 85633 88457 93122;
0206172030999992000011821004+38870+040500FM-12+117799999V0203401N002110099019N0030001N1-00381-00431999999ADDAY171031AY271031GA1051+009909069GF108991051051008001021999MA1999999087501MD1610051+9999ME1314109MW1711REMSYN092    AAXX  18214 17203 41530 83404 11038 21043 38750 48410 56005 77177 8552/ 333 85633 88457;
0290172030999992000011900004+38870+040500FM-12+117799999V0203401N003110090019N0005001N1-00301-00341999999ADDAA106016091AL10602691AY171061AY271061GA1051+009009069GA2081+021009049GF108991051051008001021999MA1999999087001MD1410001+9999ME1313629MW1731REMSYN104    AAXX  19004 17203 11505 83406 11030 21034 38700 48362 57050 60161 77377 8552/ 333 85630 88457 93126;EQDQ01+000072APCTENQ02+000502APC3  
0206172030999992000011903004+38870+040500FM-12+117799999V0203401N002610090019N0005001N1-00201-00231999999ADDAY171031AY271031GA1051+009009069GF108991051051008001021999MA1999999086851MD1810151+9999ME1313589MW1731REMSYN092    AAXX  19034 17203 41505 83405 11020 21023 38685 48358 58015 77377 8552/ 333 85630 88457;
0333172030999992000011906004+38870+040500FM-12+117799999V0203401N003110090019N0005001N1-00241-00271999999ADDAA112033091AJ100609199999999AL10601291AY171061AY271061GA1051+009009069GA2081+021009049GF108991051051008001021999IA1279IA2999-00509KA1120N-00421MA1999999086851MD1410001+9999ME1313489MW1711REMSYN134    AAXX  19064 17203 11505 83406 11024 21027 38685 48348 54000 60332 77177 8552/ 333 21042 3/105 43060 55000 70465 85630 88457 93112;
0206172030999992000011909004+38870+040500FM-12+117799999V0209999C000010099019N0020001N1-00101-00161999999ADDAY171031AY271031GA1051+009909069GF108991051051008001021999MA1999999087081MD1310231+9999ME1313709MW1731REMSYN092    AAXX  19094 17203 41520 80000 11010 21016 38708 48370 53023 77377 8552/ 333 85633 88457;
0166172030999992000011915004+38870+040500FM-12+117799999V0209999C000012200019N0200001N1-00301-00511999999ADDGA1001+999999999GF100991001001999999001001MA1999999087701MD1210271+9999ME1314279REMSYN074    AAXX  19154 17203 42970 00000 11030 21051 38770 48427 52027 333 10147;
0204172030999992000011918004+38870+040500FM-12+117799999V0201901N001512200019N0200001N1-00401-00761999999ADDAA112007191GA1021+030009079GF102991021001999999031001KA1120M+00331MA1999999088001MD1210301+9999ME1314529REMSYN088AAXX  19184 17203 12970 21903 11040 21076 38800 48452 52030 60072 82030 333 10033 82360;
0223172030999992000012000004+38870+040500FM-12+117799999V0203401N003610099019N0020001N1-00121-00241999999ADDAA106002091AL10600391GA1051+009909069GA2081+021009049GF108991051051008001021999MA1999999087741MD1610281+9999ME1314349REMSYN094AAXX  20004 17203 11520 83407 11012 21024 38774 48434 56028 60021 8552/ 333 85633 88457 93103;
0202172030999992000012003004+38870+040500FM-12+117799999V0203401N005710090019N0006001N1-00121-00191999999ADDAY171031AY271031GA1051+009009069GF108991051051008001021999MA1999999087401MD1710341+9999ME1314009MW1731REMSYN088AAXX  20034 17203 41506 83411 11012 21019 38740 48400 57034 77377 8552/ 333 85630 88457;
0202172030999992000012009004+38870+040500FM-12+117799999V0203401N005110090019N0006001N1-00101-00161999999ADDAY171031AY271031GA1051+009009069GF108991051051008001021999MA1999999087321MD1710061+9999ME1313939MW1731REMSYN088AAXX  20094 17203 41506 83410 11010 21016 38732 48393 57006 77377 8552/ 333 85630 88457;
0251172030999992000012012004+38870+040500FM-12+117799999V0203401N003110099019N0040001N1+00101+00031999999ADDAA106011991AL10601491AY171061AY271061GA1051+009909069GA2081+021009049GF108991051051008001021999MA1999999087001MD1710331+9999ME1313639MW1711REMSYN100AAXX  20124 17203 11540 83406 10010 20003 38700 48363 57033 60121 77177 8552/ 333 85633 88457 93114;
0202172030999992000012015004+38870+040500FM-12+117799999V0203601N001510090019N0010001N1+00061+00021999999ADDAY171031AY271031GA1051+009009069GF108991051051008001021999MA1999999086841MD1710161+9999ME1313509MW1731REMSYN088AAXX  20154 17203 41510 83603 10006 20002 38684 48350 57016 77377 8552/ 333 85630 88457;
0270172030999992000012018004+38870+040500FM-12+117799999V0203401N002110210019N0080001N1-00101-00271999999ADDAA112023191AL10600691AY171061AY271061GA1041+009909069GA2081+021009049GF108991041051008001021999KA1120M+00131MA1999999086821MD1610021+9999ME1313479MW1711REMSYN106AAXX  20184 17203 11558 83404 11010 21027 38682 48347 56002 60232 77177 8452/ 333 10013 84633 88457 93106;
0202172030999992000012021004+38870+040500FM-12+117799999V0201201N00261036001CN0200001N1-00321-00801999999ADDAY171031AY221031GA1041+012009069GF107991041051012501011001MA1999999087001MD1110181+9999ME1313639MW1011REMSYN088AAXX  20214 17203 41670 71205 11032 21080 38700 48363 51018 70172 84510 333 84640 87460;
0251172030999992000012100004+38870+040500FM-12+117799999V0201201N004110120019N0200001N1-00481-00941999999ADDAA106000891AL10600191AY171061AY221061GA1051+012009069GA2081+030009049GF108991051051012501021999MA1999999087141MD1310141+9999ME1313779MW1021REMSYN100AAXX  21004 17203 11670 81208 11048 21094 38714 48377 53014 69971 70272 8552/ 333 85640 88460 93101;
0174172030999992000012103004+38870+040500FM-12+117799999V0201201N00261036001CN0200001N1-00541-01141999999ADDGA1041+012009069GF108991041051012501021999MA1999999087301MD1210161+9999ME1313909REMSYN082AAXX  21034 17203 42670 81205 11054 21114 38730 48390 52016 8452/ 333 84640 88460;
0263172030999992000012106004+38870+040500FM-12+117799999V0201301N002112200019N0200001N1-00631-01371999999ADDAA112000891AJ100779199999999GA1031+030009079GF103991031001999999031001IA1279IA2999-00809KA1120N-00661MA1999999087641MD1210341+9999ME1314209REMSYN112AAXX  21064 17203 12970 31304 11063 21137 38764 48420 52034 69972 83030 333 21066 3/108 43077 55000 70241 83360;
0162172030999992000012109004+38870+040500FM-12+117799999V0200101N001512200019N0200001N1-00201-01381999999ADDGA1001+999999999GF100991001001999999001001MA1999999087931MD1210241+9999ME1314479REMSYN070AAXX  21094 17203 42970 00103 11020 21138 38793 48447 52024 333 10179;
0192172030999992000012112004+38870+040500FM-12+117799999V0200101N002112200019N0200001N1-00181-01341999999ADDAA199000091GA1001+999999999GF100991001001999999001001MA1999999088001MD1210071+9999ME1314539REMSYN070AAXX  21124 17203 32970 00104 11018 21134 38800 48453 52007 333 10187;EQDQ01  00002PRCP99
0153172030999992000012115004+38870+040500FM-12+117799999V0203601N001512200019N0200001N1-00261-01191999999ADDGA1001+999999999GF100991001001999999001001MA1999999088171MD1210171+9999REMSYN070AAXX  21154 17203 42970 03603 11026 21119 38817 468// 52017 333 10213;
0205172030999992000012118004+38870+040500FM-12+117799999V0209999C000012200019N0200001N1-00501-01221999999ADDAA199000091GA1001+999999999GF100991001001999999001001KA1999M+02381MA1999999088291MD1310021+9999ME1314779REMSYN070AAXX  21184 17203 32970 00000 11050 21122 38829 48477 53002 333 10238;EQDQ01  00002PRCP99
0162172030999992000012121004+38870+040500FM-12+117799999V0209999C000012200019N0200001N1-01481-02071999999ADDGA1001+999999999GF100991001001999999001001MA1999999088481MD1210191+9999ME1314909REMSYN070AAXX  21214 17203 42970 00000 11148 21207 38848 48490 52019 333 10272;
0152172030999992000012203004+38870+040500FM-12+117799999V0209999C000012200019N0200001N1-01541-02011999999ADDGF103991031001999999031001MA1999999088501MD1610021+9999ME1314919REMSYN076AAXX  22034 17203 42970 30000 11154 21201 38850 48491 56002 83030 333 10280;
0329172030999992000012206004+38870+040500FM-12+117799999V0203601N001510108019N0080001N1-01541-01831999999ADDAA112000191AJ100689199999999AL10600291AY111061AY211061GA1051+010809069GA2081+024009059GF108991051051012501021999IA1279IA2999-01909KA1120N-01731MA1999999088561MD1310061+9999ME1314949MW1711REMSYN130AAXX  22064 17203 11658 83603 11154 21183 38856 48494 53006 69922 77111 8552/ 333 21173 3/119 43068 55064 70002 85636 88558 93102;
0202172030999992000012209004+38870+040500FM-12+117799999V0209999C00001036001CN0070001N1-01081-01291999999ADDAY171031AY271031GA1041+010209069GF108991041051012501021999MA1999999088621MD1110061+9999ME1314979MW1701REMSYN088AAXX  22094 17203 41657 80000 11108 21129 38862 48497 51006 77077 8452/ 333 84634 88458;
0251172030999992000012212004+38870+040500FM-12+117799999V0209999C000010090019N0030001N1-00681-00901999999ADDAA106003091AL10600691AY171061AY271061GA1051+009009069GA2081+021009049GF108991051051008001021999MA1999999088501MD1610121+9999ME1314899MW1711REMSYN100AAXX  22124 17203 11530 80000 11068 21090 38850 48489 56012 60031 77177 8552/ 333 85630 88457 93106;
0202172030999992000012215004+38870+040500FM-12+117799999V0209999C000010090019N0040001N1-00861-01001999999ADDAY171031AY271031GA1051+009009069GF108991051051008001021999MA1999999088501MD1410001+9999ME1314889MW1711REMSYN088AAXX  22154 17203 41540 80000 11086 21100 38850 48488 54000 77177 8552/ 333 85630 88457;
0270172030999992000012218004+38870+040500FM-12+117799999V0203201N001510081019N0020001N1-00621-00701999999ADDAA112007191AL10600791AY171061AY271061GA1051+008109069GA2081+021009049GF108991051051008001021999KA1120M-00621MA1999999088391MD1710111+9999ME1314799MW1711REMSYN106AAXX  22184 17203 11520 83203 11062 21070 38839 48479 57011 60072 77177 8552/ 333 11062 85627 88457 93107;
0202172030999992000012221004+38870+040500FM-12+117799999V0200701N001510081019N0030001N1-00361-00551999999ADDAY171031AY271031GA1051+008109069GF108991051051008001021999MA1999999088361MD1710031+9999ME1314819MW1711REMSYN088AAXX  22214 17203 41530 80703 11036 21055 38836 48481 57003 77177 8552/ 333 85627 88457;
0251172030999992000012300004+38870+040500FM-12+117799999V0201701N001510081019N0020001N1-00441-00591999999ADDAA106003091AL10600791AY171061AY271061GA1051+008109069GA2081+021009049GF108991051051008001021999MA1999999088481MD1310021+9999ME1314939MW1711REMSYN100AAXX  23004 17203 11520 81703 11044 21059 38848 48493 53002 60031 77177 8552/ 333 85627 88457 93107;
0202172030999992000012303004+38870+040500FM-12+117799999V0209999C000010081019N0020001N1-00441-00591999999ADDAY171031AY271031GA1051+008109069GF108991051051008001021999MA1999999088441MD1610041+9999ME1314899MW1711REMSYN088AAXX  23034 17203 41520 80000 11044 21059 38844 48489 56004 77177 8552/ 333 85627 88457;
0329172030999992000012306004+38870+040500FM-12+117799999V0209999C000010081019N0020001N1-00421-00591999999ADDAA112005191AJ100809199999999AL10600591AY171061AY271061GA1051+008109069GA2081+021009049GF108991051051008001021999IA1279IA2999-01009KA1120N-00621MA1999999088531MD1310091+9999ME1314989MW1711REMSYN130AAXX  23064 17203 11520 80000 11042 21059 38853 48498 53009 60052 77177 8552/ 333 21062 3/110 43080 55000 70113 85627 88457 93105;
0202172030999992000012309004+38870+040500FM-12+117799999V0200401N001510108019N0080001N1+00101-00301999999ADDAY121031AY221031GA1051+010809069GF108991051051012501021999MA1999999088661MD1210131+9999ME1315159MW1711REMSYN088AAXX  23094 17203 41658 80403 10010 21030 38866 48515 52013 77122 8552/ 333 85636 88458;
0251172030999992000012312004+38870+040500FM-12+117799999V0200601N004610099019N0080001N1-00021-00341999999ADDAA106000191AL10600091AY121061AY221061GA1051+009909069GA2081+021009049GF108991051051008001021999MA1999999088621MD1610041+9999ME1315109MW1711REMSYN100AAXX  23124 17203 11558 80609 11002 21034 38862 48510 56004 69921 77122 8552/ 333 85633 88457 93100;
0202172030999992000012315004+38870+040500FM-12+117799999V0209999C00001036001CN0200001N1-00101-00391999999ADDAY171031AY221031GA1031+012009069GF107991031051012501051001MA1999999088821MD1210201+9999ME1315289MW1031REMSYN088AAXX  23154 17203 41670 70000 11010 21039 38882 48528 52020 70372 83550 333 83640 87360;
0248172030999992000012318004+38870+040500FM-12+117799999V0209999C000012200019N0200001N1-00371-00571999999ADDAA112000191AL10600091AY171061AY211061GA1031+030009039GF103991031001999999031001KA1120M+00161MA1999999089001MD1210181+9999ME1315429MW1011REMSYN100AAXX  23184 17203 11970 30000 11037 21057 38900 48542 52018 69922 70171 83030 333 10016 83360 93100;
0174172030999992000012321004+38870+040500FM-12+117799999V0209999C00001036001CN0200001N1-00501-00661999999ADDGA1031+012009069GF105991031051012501051001MA1999999089161MD1210161+9999ME1315599REMSYN082AAXX  23214 17203 42670 50000 11050 21066 38916 48559 52016 83550 333 83640 85360;
0185172030999992000012400004+38870+040500FM-12+117799999V0209999C00001036001CN0200001N1-00371-00501999999ADDAA199000021GA1041+012009069GF107991041051012501011001MA1999999089241MD1210081+9999ME1315669REMSYN082AAXX  24004 17203 32670 70000 11037 21050 38924 48566 52008 84510 333 84640 87460;
0174172030999992000012403004+38870+040500FM-12+117799999V0209999C00001036001CN0200001N1-00381-00491999999ADDGA1041+012009069GF107991041051012501011001MA1999999089281MD1110041+9999ME1315699REMSYN082AAXX  24034 17203 42670 70000 11038 21049 38928 48569 51004 84510 333 84640 87460;
0263172030999992000012406004+38870+040500FM-12+117799999V0209999C00001036001CN0200001N1-00421-00531999999ADDAA124000391AJ100759199999999GA1041+012009069GF107991041051012501011001IA1279IA2999-00809KA1120N-00521MA1999999089441MD1210161+9999ME1315819REMSYN112AAXX  24064 17203 32670 70000 11042 21053 38944 48581 52016 84510 333 21052 3/108 43075 55001 70002 84640 87460;
0202172030999992000012409004+38870+040500FM-12+117799999V0209999C000010111019N0080001N1-00101-00391999999ADDAY121031AY221031GA1051+011109069GF108991051051012501021999MA1999999089481MD1310041+9999ME1315869MW1701REMSYN088AAXX  24094 17203 41658 80000 11010 21039 38948 48586 53004 77022 8552/ 333 85637 88458;
0251172030999992000012412004+38870+040500FM-12+117799999V0209999C000010111019N0080001N1-00031-00221999999ADDAA106000891AL10600291AY121061AY221061GA1051+011109069GA2081+021009049GF108991051051012501021999MA1999999089321MD1710161+9999ME1315739MW1701REMSYN100AAXX  24124 17203 11658 80000 11003 21022 38932 48573 57016 69981 77022 8552/ 333 85637 88457 93102;
0202172030999992000012415004+38870+040500FM-12+117799999V0209999C000010111019N0080001N1-00101-00161999999ADDAY171031AY271031GA1051+011109069GF108991051051012501021999MA1999999089271MD1710051+9999ME1315689MW1711REMSYN088AAXX  24154 17203 41658 80000 11010 21016 38927 48568 57005 77177 8552/ 333 85637 88457;
0270172030999992000012418004+38870+040500FM-12+117799999V0209999C000010099019N0040001N1-00101-00161999999ADDAA112003091AL10600391AY171061AY271061GA1051+009909069GA2081+021009049GF108991051051008001021999KA1120M+00001MA1999999089201MD1810071+9999ME1315639MW1711REMSYN106AAXX  24184 17203 11540 80000 11010 21016 38920 48563 58007 60032 77177 8552/ 333 10000 85633 88457 93103;
0202172030999992000012421004+38870+040500FM-12+117799999V0209999C000010099019N0040001N1-00101-00141999999ADDAY171031AY271031GA1051+009909069GF108991051051008001021999MA1999999089081MD1710121+9999ME1315539MW1711REMSYN088AAXX  24214 17203 41540 80000 11010 21014 38908 48553 57012 77177 8552/ 333 85633 88457;
0251172030999992000012500004+38870+040500FM-12+117799999V0209999C000010099019N0040001N1+00001-00051999999ADDAA106008991AL10600991AY171061AY271061GA1051+009909069GA2081+021009049GF108991051051008001021999MA1999999088941MD1710141+9999ME1315439MW1711REMSYN100AAXX  25004 17203 11540 80000 10000 21005 38894 48543 57014 60091 77177 8552/ 333 85633 88457 93109;
0202172030999992000012503004+38870+040500FM-12+117799999V0209999C000010099019N0040001N1+00081+00031999999ADDAY171031AY271031GA1051+009909069GF108991051051008001021999MA1999999088841MD1710101+9999ME1315339MW1711REMSYN088AAXX  25034 17203 41540 80000 10008 20003 38884 48533 57010 77177 8552/ 333 85633 88457;
0329172030999992000012506004+38870+040500FM-12+117799999V0200601N002610111019N0100001N1+00271+00121999999ADDAA112015091AJ100869199999999AL10600791AY171061AY261061GA1051+011109069GA2081+024009049GF108991051051012501021999IA1279IA2999-00209KA1120N-00141MA1999999088781MD1710061+9999ME1315299MW1681REMSYN130AAXX  25064 17203 11660 80605 10027 20012 38878 48529 57006 60152 76876 8552/ 333 21014 3/102 43086 55000 70181 85637 88458 93107;
0202172030999992000012509004+38870+040500FM-12+117799999V0200601N002110105019N0080001N1+00281+00151999999ADDAY171031AY271031GA1051+010509069GF108991051051012501021999MA1999999088721MD1810061+9999ME1315239MW1681REMSYN088AAXX  25094 17203 41658 80604 10028 20015 38872 48523 58006 76877 8552/ 333 85635 88457;
0251172030999992000012512004+38870+040500FM-12+117799999V0200401N002110099019N0080001N1+00341+00171999999ADDAA106005191AL10600091AY171061AY271061GA1051+009909069GA2081+021009049GF108991051051008001021999MA1999999088481MD1710241+9999ME1315039MW1681REMSYN100AAXX  25124 17203 11558 80404 10034 20017 38848 48503 57024 60051 76877 8552/ 333 85633 88457 93100;
0202172030999992000012515004+38870+040500FM-12+117799999V0200401N00151036001CN0100001N1+00281+00151999999ADDAY171031AY271031GA1041+011109069GF108991041051012501021999MA1999999088441MD1510041+9999ME1314999MW1611REMSYN088AAXX  25154 17203 41660 80403 10028 20015 38844 48499 55004 76177 8452/ 333 84637 88458;
0238172030999992000012518004+38870+040500FM-12+117799999V0200701N00311036001CN0100001N1+00301+00131999999ADDAA112008991AY171061AY221061GA1041+010809069GF108991041051012501021999KA1120M+00361MA1999999088331MD1810111+9999ME1314909MW1611REMSYN100AAXX  25184 17203 11660 80706 10030 20013 38833 48490 58011 60092 76172 8452/ 333 10036 84636 88457;
0202172030999992000012521004+38870+040500FM-12+117799999V0200701N00511036001CN0100001N1+00301+00131999999ADDAY161031AY261031GA1041+010809069GF108991041051012501021999MA1999999088141MD1710191+9999ME1314739MW1611REMSYN088AAXX  25214 17203 41660 80710 10030 20013 38814 48473 57019 76166 8452/ 333 84636 88457;
0219172030999992000012600004+38870+040500FM-12+117799999V0200701N00361036001CN0080001N1+00301+00131999999ADDAA106006191AY161061AY261061GA1041+010509069GF108991041051012501021999MA1999999087901MD1710241+9999ME1314519MW1611REMSYN094AAXX  26004 17203 11658 80707 10030 20013 38790 48451 57024 60061 76166 8452/ 333 84635 88457;
0202172030999992000012603004+38870+040500FM-12+117799999V0200701N00151036001CN0200001N1+00201+00021999999ADDAY161031AY261031GA1041+012009069GF108991041051000251021999MA1999999087851MD1610051+9999ME1314449MW1211REMSYN088AAXX  26034 17203 41070 80703 10020 20002 38785 48444 56005 72166 8452/ 333 84640 88460;
0297172030999992000012606004+38870+040500FM-12+117799999V0209999C00001036001CN0200001N1+00121-00021999999ADDAA112010991AJ100689199999999AY161061AY221061GA1041+012009069GF108991041051012501021999IA1279IA2999+00009KA1120N+00101MA1999999087901MD1310051+9999ME1314509MW1021REMSYN124AAXX  26064 17203 11670 80000 10012 21002 38790 48450 53005 60112 70262 8452/ 333 20010 3/000 43068 55000 70193 84640 88460;
0185172030999992000012609004+38870+040500FM-12+117799999V0209999C00001036001CN0200001N1+00231-00071999999ADDAA199000021GA1031+012009069GF107991031051012501071001MA1999999087901MD1610101+9999ME1314509REMSYN082AAXX  26094 17203 32670 70000 10023 21007 38790 48450 56010 83570 333 83640 87360;
0202172030999992000012615004+38870+040500FM-12+117799999V0209999C000010120019N0200001N1+00101-00141999999ADDAY171031AY221031GA1051+012009069GF108991051051012501021999MA1999999087901MD1410001+9999ME1314499MW1221REMSYN088AAXX  26154 17203 41670 80000 10010 21014 38790 48449 54000 72272 8552/ 333 85640 88460;
0270172030999992000012618004+38870+040500FM-12+117799999V0209999C000010105019N0060001N1-00021-00121999999ADDAA112000391AL10600191AY171061AY221061GA1051+010509069GA2081+021009049GF108991051051012501021999KA1120M+00251MA1999999087901MD1410001+9999ME1314489MW1711REMSYN106AAXX  26184 17203 11656 80000 11002 21012 38790 48448 54000 69932 77172 8552/ 333 10025 85635 88457 93101;
0202172030999992000012621004+38870+040500FM-12+117799999V0209999C000010090019N0030001N1-00081-00141999999ADDAY171031AY271031GA1051+009009069GF108991051051008001021999MA1999999087881MD1810021+9999ME1314469MW1711REMSYN088AAXX  26214 17203 41530 80000 11008 21014 38788 48446 58002 77177 8552/ 333 85630 88457;
0251172030999992000012700004+38870+040500FM-12+117799999V0209999C000010300019N0200001N1-00121-00241999999ADDAA106003091AL10600591AY171061AY271061GA1041+012009069GA2071+030009049GF107991041051012501011001MA1999999087781MD1710101+9999ME1314379MW1221REMSYN100AAXX  27004 17203 11670 70000 11012 21024 38778 48437 57010 60031 72277 84510 333 84640 87460 93105;
0202172030999992000012703004+38870+040500FM-12+117799999V0209999C000010090019N0006001N1-00201-00281999999ADDAY121031AY221031GA1051+009009069GF108991051051008001021999MA1999999087801MD1310021+9999ME1314389MW1731REMSYN088AAXX  27034 17203 41506 80000 11020 21028 38780 48438 53002 77322 8552/ 333 85630 88457;
0329172030999992000012706004+38870+040500FM-12+117799999V0209999C000010300019N0200001N1-00261-00521999999ADDAA112005191AJ100659199999999AL10600491AY171061AY221061GA1041+012009089GA2061+030009039GF106991041021012501051001IA1279IA2999-00409KA1120N-00301MA1999999087901MD1210101+9999ME1314469MW1021REMSYN130AAXX  27064 17203 11670 60000 11026 21052 38790 48446 52010 60052 70272 84250 333 21030 3/104 43065 55004 70052 84840 86360 93104;
0202172030999992000012709004+38870+040500FM-12+117799999V0209999C000010105019N0100001N1+00021-00501999999ADDAY121031AY221031GA1051+010509069GF108991051051012501021999MA1999999088021MD1210121+9999ME1314589MW1701REMSYN088AAXX  27094 17203 41660 80000 10002 21050 38802 48458 52012 77022 8552/ 333 85635 88458;
0251172030999992000012712004+38870+040500FM-12+117799999V0209999C000010099019N0060001N1-00031-00381999999ADDAA106000891AL10600091AY121061AY221061GA1051+009909069GA2081+021009049GF108991051051008001021999MA1999999087881MD1610141+9999ME1314459MW1711REMSYN100AAXX  27124 17203 11556 80000 11003 21038 38788 48445 56014 69981 77122 8552/ 333 85633 88457 93100;
0270172030999992000012718004+38870+040500FM-12+117799999V0201601N002110300019N0200001N1-00301-01001999999ADDAA112001091AL10600191AY171061AY221061GA1041+012009069GA2081+030009049GF108991041051012501021999KA1120M+00061MA1999999088201MD1210181+9999ME1314719MW1021REMSYN106AAXX  27184 17203 11670 81604 11030 21100 38820 48471 52018 60012 70272 8452/ 333 10006 84640 88460 93101;
0174172030999992000012721004+38870+040500FM-12+117799999V0201501N00211036001CN0200001N1-00361-00971999999ADDGA1041+012009069GF108991041051012501021999MA1999999088201MD1410001+9999ME1314739REMSYN082AAXX  27214 17203 42670 81504 11036 21097 38820 48473 54000 8452/ 333 84640 88460;
0185172030999992000012800004+38870+040500FM-12+117799999V0201601N00261036001CN0200001N1-00361-00931999999ADDAA199000021GA1031+012009069GF108991031051012501021999MA1999999088201MD1410001+9999ME1314729REMSYN082AAXX  28004 17203 32670 81605 11036 21093 38820 48472 54000 8352/ 333 83640 88460;
0174172030999992000012803004+38870+040500FM-12+117799999V0201601N00261036001CN0200001N1-00421-01011999999ADDGA1031+012009069GF108991031031000251051999MA1999999088201MD1410001+9999ME1314729REMSYN082AAXX  28034 17203 42070 81605 11042 21101 38820 48472 54000 8335/ 333 83640 88460;
0257172030999992000012806004+38870+040500FM-12+117799999V0201601N002612200019N0200001N1-00401-01151999999ADDAA124001391AJ100609199999999GA1021+030009079GF102991021001999999031001IA1279IA2999-00809KA1120N-00521MA1999999088281MD1310081+9999ME1314789REMSYN106AAXX  28064 17203 32970 21605 11040 21115 38828 48478 53008 82030 333 21052 3/108 43060 55005 70012 82360;
0152172030999992000012809004+38870+040500FM-12+117799999V0201601N001512200019N0200001N1+00041-01241999999ADDGF101991001001999999001011MA1999999088401MD1110121+9999ME1314919REMSYN076AAXX  28094 17203 42970 11603 10004 21124 38840 48491 51012 80001 333 10228;
0143172030999992000012812004+38870+040500FM-12+117799999V0201601N002119999999N0200001N1+00041+99999999999ADDAA199000091GF107991999999999999999999REMSYN075AAXX  28124 17203 32970 71604 10004 2101 38835 48487 56005 80008 333 10222;EQDQ01  00002PRCP99
0162172030999992000012815004+38870+040500FM-12+117799999V0201701N001512200019N0200001N1-00361-01271999999ADDGA1001+999999999GF100991001001999999001001MA1999999088481MD1210131+9999ME1314969REMSYN070AAXX  28154 17203 42970 01703 11036 21127 38848 48496 52013 333 10249;
0205172030999992000012818004+38870+040500FM-12+117799999V0201701N001512200019N0200001N1-00581-01251999999ADDAA199000091GA1001+999999999GF100991001001999999001001KA1999M+02741MA1999999088651MD1210171+9999ME1315099REMSYN070AAXX  28184 17203 32970 01703 11058 21125 38865 48509 52017 333 10274;EQDQ01  00002PRCP99
0162172030999992000012821004+38870+040500FM-12+117799999V0201601N002112200019N0200001N1-00701-01431999999ADDGA1001+999999999GF100991001001999999001001MA1999999088681MD1110031+9999ME1315149REMSYN070AAXX  28214 17203 42970 01604 11070 21143 38868 48514 51003 333 10266;
0192172030999992000012900004+38870+040500FM-12+117799999V0201801N001512200019N0200001N1-00821-01571999999ADDAA199000091GA1001+999999999GF100991001001999999001001MA1999999088681MD1410001+9999ME1315149REMSYN070AAXX  29004 17203 32970 01803 11082 21157 38868 48514 54000 333 10274;EQDQ01  00002PRCP99
0162172030999992000012903004+38870+040500FM-12+117799999V0209999C000012200019N0200001N1-00881-01661999999ADDGA1001+999999999GF100991001001999999001001MA1999999088701MD1310021+9999ME1315129REMSYN070AAXX  29034 17203 42970 00000 11088 21166 38870 48512 53002 333 10286;
0258172030999992000012906004+38870+040500FM-12+117799999V0201601N002112200019N0200001N1-00801-01541999999ADDAA199000091AJ100609199999999GA1001+999999999GF100991001001999999001001IA1279IA2999-01309KA1120N-01031MA1999999088861MD1210161+9999ME1315279REMSYN088AAXX  29064 17203 32970 01604 11080 21154 38886 48527 52016 333 21103 3/113 43060 55031;EQDQ01  00002PRCP99
0162172030999992000012909004+38870+040500FM-12+117799999V0201601N001512200019N0200001N1-00141-01181999999ADDGA1001+999999999GF100991001001999999001001MA1999999088941MD1010081+9999ME1315369REMSYN070AAXX  29094 17203 42970 01603 11014 21118 38894 48536 50008 333 10302;
0192172030999992000012912004+38870+040500FM-12+117799999V0209999C000012200019N0200001N1-00171-01141999999ADDAA199000091GA1001+999999999GF100991001001999999001001MA1999999088921MD1610021+9999ME1315349REMSYN070AAXX  29124 17203 32970 00000 11017 21114 38892 48534 56002 333 10305;EQDQ01  00002PRCP99
0162172030999992000012915004+38870+040500FM-12+117799999V0209999C000012200019N0200001N1-00501-01131999999ADDGA1001+999999999GF100991001001999999001001MA1999999089121MD1210201+9999ME1315489REMSYN070AAXX  29154 17203 42970 00000 11050 21113 38912 48548 52020 333 10340;
0221172030999992000012918004+38870+040500FM-12+117799999V0209999C000012200019N0200001N1-00981-01441999999ADDAA199000091GA1001+999999999GF100991001001999999001001KA1999M+99999MA1999999089491MD1210371+9999ME1315789REMSYN070AAXX  29184 17203 32970 00000 11098 21144 38949 48578 52037 333 10378;EQDQ01  00002PRCP99Q02 +03782ATMX  
0162172030999992000012921004+38870+040500FM-12+117799999V0209999C000012200019N0200001N1-01021-01501999999ADDGA1001+999999999GF100991001001999999001001MA1999999089581MD1310091+9999ME1315919REMSYN070AAXX  29214 17203 42970 00000 11102 21150 38958 48591 53009 333 10388;
0192172030999992000013000004+38870+040500FM-12+117799999V0209999C000012200019N0200001N1-01161-01481999999ADDAA199000091GA1001+999999999GF100991001001999999001001MA1999999089701MD1210121+9999ME1315969REMSYN070AAXX  30004 17203 32970 00000 11116 21148 38970 48596 52012 333 10419;EQDQ01  00002PRCP99
0162172030999992000013003004+38870+040500FM-12+117799999V0209999C000012200019N0200001N1-01321-01791999999ADDGA1001+999999999GF100991001001999999001001MA1999999089781MD1210081+9999ME1316169REMSYN070AAXX  30034 17203 42970 00000 11132 21179 38978 48616 52008 333 10429;
0318172030999992000013006004+38870+040500FM-12+117799999V0209999C000010240019N0200001N1-01141-01551999999ADDAA199000091AJ100559199999999GA1071+024009079GF107991071999022501031001IA1279IA2999-01809KA1120N-01351MA1999999089921MD1410001+9999ME1316129REMSYN100AAXX  30064 17203 32870 70000 11114 21155 38992 48612 52101 87030 333 21135 3/118 43055 55071 87358;EQDQ01+000022APCTENQ02+001012APC3  Q03  00002PRCP99Q04    003SCOLCG
0174172030999992000013009004+38870+040500FM-12+117799999V0209999C00001036001CN0200001N1-00501-01141999999ADDGA1031+012009089GF105991031011012501051001MA1999999090001MD1110081+9999ME1316249REMSYN082AAXX  30094 17203 42670 50000 11050 21114 39000 48624 51008 83150 333 83840 85360;
0182172030999992000013012004+38870+040500FM-12+117799999V0209999C000012200019N0200001N1-00281-00981999999ADDAA199000091GF103991031011012501001001MA1999999089921MD1710081+9999ME1316189REMSYN076AAXX  30124 17203 32670 30000 11028 21098 38992 48618 57008 83100 333 10433;EQDQ01  00002PRCP99
0174172030999992000013015004+38870+040500FM-12+117799999V0209999C00001036001CN0200001N1-00541-01031999999ADDGA1031+012009089GF106991031011012501051001MA1999999089861MD1710061+9999ME1316099REMSYN082AAXX  30154 17203 42670 60000 11054 21103 38986 48609 57006 83150 333 83840 86360;
0223172030999992000013018004+38870+040500FM-12+117799999V0209999C00001036001CN0200001N1-00781-01181999999ADDAA199000091GA1031+012009069GF106991031051012501051001KA1120M-00261MA1999999089921MD1210061+9999ME1316159REMSYN088AAXX  30184 17203 32670 60000 11078 21118 38992 48615 52006 83550 333 11026 83640 86360;EQDQ01  00002PRCP99
0152172030999992000013021004+38870+040500FM-12+117799999V0209999C000012200019N0200001N1-00901-01251999999ADDGF102991021001999999031001MA1999999089941MD1110021+9999ME1316209REMSYN076AAXX  30214 17203 42970 20000 11090 21125 38994 48620 51002 82030 333 10435;
0204172030999992000013100004+38870+040500FM-12+117799999V0209999C00001036001CN0200001N1-00861-01041999999ADDAA199000091GA1041+012009069GF107991041051012501011001MA1999999089901MD1610041+9999ME1316209REMSYN082AAXX  31004 17203 32670 70000 11086 21104 38990 48620 56004 84510 333 84640 87460;EQDQ01  00002PRCP99
0276172030999992000013106004+38870+040500FM-12+117799999V0209999C00001036001CN0200001N1-00861-01041999999ADDAA199000091AJ100529199999999GA1021+012009089GF105991021011012501051001IA1279IA2999-01509KA1120N-01061MA1999999089861MD1310061+9999ME1316119REMSYN106AAXX  31064 17203 32670 50000 11086 21104 38986 48611 53006 82150 333 21106 3/115 43052 55056 82840 85360;EQDQ01  00002PRCP99
0174172030999992000013109004+38870+040500FM-12+117799999V0209999C00001036001CN0200001N1-00301-00891999999ADDGA1031+012009089GF106991031011012501051001MA1999999089861MD1010001+9999ME1316229REMSYN082AAXX  31094 17203 42670 60000 11030 21089 38986 48622 50000 83150 333 83840 86360;
0204172030999992000013112004+38870+040500FM-12+117799999V0209999C00001036001CN0200001N1-00041-00731999999ADDAA199000091GA1031+012009089GF106991031011012501051001MA1999999089661MD1710201+9999ME1315999REMSYN082AAXX  31124 17203 32670 60000 11004 21073 38966 48599 57020 83150 333 83840 86360;EQDQ01  00002PRCP99
0174172030999992000013115004+38870+040500FM-12+117799999V0209999C00001036001CN0200001N1-00301-00891999999ADDGA1031+012009069GF107991031051012501011001MA1999999089501MD1710161+9999ME1315909REMSYN082AAXX  31154 17203 42670 70000 11030 21089 38950 48590 57016 83510 333 83640 87460;
0223172030999992000013118004+38870+040500FM-12+117799999V0209999C00001036001CN0200001N1-00461-00771999999ADDAA199000091GA1031+012009069GF107991031051012501011001KA1120M+00001MA1999999089501MD1410001+9999ME1315829REMSYN088AAXX  31184 17203 32670 70000 11046 21077 38950 48582 54000 83510 333 10000 83640 87460;EQDQ01  00002PRCP99
0202172030999992000013121004+38870+040500FM-12+117799999V0209999C000010108019N0080001N1-00501-00621999999ADDAY121031AY221031GA1051+010809069GF108991051051012501021999MA1999999089321MD1710181+9999ME1315709MW1711REMSYN088AAXX  31214 17203 41658 80000 11050 21062 38932 48570 57018 77122 8552/ 333 85636 88457;
0251172030999992000020100004+38870+040500FM-12+117799999V0209999C000010108019N0060001N1-00561-00661999999ADDAA106000591AL10600291AY121061AY221061GA1051+010809069GA2081+021009049GF108991051051012501021999MA1999999089241MD1810081+9999ME1315659MW1711REMSYN100AAXX  01004 17203 11656 80000 11056 21066 38924 48565 58008 69961 77122 8552/ 333 85636 88457 93102;
0202172030999992000020103004+38870+040500FM-12+117799999V0209999C000010108019N0060001N1-00561-00661999999ADDAY171031AY271031GA1051+010809069GF108991051051012501021999MA1999999089141MD1710101+9999ME1315549MW1711REMSYN088AAXX  01034 17203 41656 80000 11056 21066 38914 48554 57010 77177 8552/ 333 85636 88457;
0329172030999992000020106004+38870+040500FM-12+117799999V0209999C000010108019N0060001N1-00501-00591999999ADDAA112002091AJ100529199999999AL10600291AY171061AY271061GA1051+010809069GA2081+021009049GF108991051051012501021999IA1279IA2999-00709KA1120N-00601MA1999999089081MD1610061+9999ME1315499MW1711REMSYN130AAXX  01064 17203 11656 80000 11050 21059 38908 48549 56006 60022 77177 8552/ 333 21060 3/107 43052 55030 70018 85636 88457 93102;
0202172030999992000020109004+38870+040500FM-12+117799999V0209999C00001036001CN0200001N1-00241-00501999999ADDAY171031AY271031GA1041+012009069GF107991041051012501011001MA1999999089081MD1010001+9999ME1315499MW1221REMSYN088AAXX  01094 17203 41670 70000 11024 21050 38908 48549 50000 72277 84510 333 84640 87460;
0251172030999992000020112004+38870+040500FM-12+117799999V0209999C000010300019N0200001N1+00041-00421999999ADDAA106000591AL10600091AY171061AY221061GA1041+012009069GA2071+030009049GF107991041051012501011001MA1999999088901MD1710181+9999ME1315359MW1031REMSYN100AAXX  01124 17203 11670 70000 10004 21042 38890 48535 57018 69961 70372 84510 333 84640 87460 93100;
0174172030999992000020115004+38870+040500FM-12+117799999V0209999C00001036001CN0200001N1-00301-00571999999ADDGA1041+012009069GF107991041051012501071001MA1999999088921MD1310021+9999ME1315349REMSYN082AAXX  01154 17203 42670 70000 11030 21057 38892 48534 53002 84570 333 84640 87460;
0211172030999992000020118004+38870+040500FM-12+117799999V0209999C000012200019N0200001N1-00571-00801999999ADDAA112000591GA1001+999999999GF100991001001999999001001KA1999M+99999MA1999999089001MD1110081+9999ME1315409REMSYN076AAXX  01184 17203 12970 00000 11057 21080 38900 48540 51008 69962 333 10315;EQDQ01 +03152ATMX  
0162172030999992000020121004+38870+040500FM-12+117799999V0209999C000012200019N0200001N1-00801-01011999999ADDGA1001+999999999GF100991001001999999001001MA1999999089021MD1310021+9999ME1315429REMSYN070AAXX  01214 17203 42970 00000 11080 21101 38902 48542 53002 333 10317;
0192172030999992000020200004+38870+040500FM-12+117799999V0209999C000012200019N0200001N1-00901-01051999999ADDAA199000091GA1001+999999999GF100991001001999999001001MA1999999089011MD1010021+9999ME1315429REMSYN070AAXX  02004 17203 32970 00000 11090 21105 38901 48542 50002 333 10309;EQDQ01  00002PRCP99
0162172030999992000020203004+38870+040500FM-12+117799999V0209999C000012200019N0200001N1-01101-01271999999ADDGA1001+999999999GF100991001001999999001001MA1999999088941MD1810061+9999ME1315329REMSYN070AAXX  02034 17203 42970 00000 11110 21127 38894 48532 58006 333 10319;
0257172030999992000020206004+38870+040500FM-12+117799999V0209999C000012200019N0200001N1-01021-01181999999ADDAA124000591AJ100539199999999GA1031+030009079GF103991031001999999031001IA1279IA2999-01509KA1120N-01201MA1999999089001MD1310061+9999ME1315379REMSYN106AAXX  02064 17203 32970 30000 11102 21118 38900 48537 53006 83030 333 21120 3/115 43053 55002 70006 83360;
0162172030999992000020209004+38870+040500FM-12+117799999V0209999C000012200019N0200001N1-00401-00731999999ADDGA1001+999999999GF100991001001999999001001MA1999999089101MD1210101+9999ME1315489REMSYN070AAXX  02094 17203 42970 00000 11040 21073 38910 48548 52010 333 10332;
0192172030999992000020212004+38870+040500FM-12+117799999V0203601N002112200019N0200001N1+00361-00861999999ADDAA199000091GA1001+999999999GF100991001001999999001001MA1999999088981MD1610121+9999ME1315429REMSYN070AAXX  02124 17203 32970 03604 10036 21086 38898 48542 56012 333 10301;EQDQ01  00002PRCP99
0123172030999992000020215004+38870+040500FM-12+117799999V0201601N001512200019N0200001N1-00201-01061999999ADDGA1001+999999999GF100991001001999999001001REMSYN069AAXX  02154 17203 42970 01603 11020 21106 3898 48537 54000 333 10318;
0221172030999992000020218004+38870+040500FM-12+117799999V0201601N001512200019N0200001N1-00501-01221999999ADDAA199000091GA1001+999999999GF100991001001999999001001KA1999M+99999MA1999999089161MD1210181+9999ME1315519REMSYN070AAXX  02184 17203 32970 01603 11050 21122 38916 48551 52018 333 10351;EQDQ01  00002PRCP99Q02 +03512ATMX  
0162172030999992000020221004+38870+040500FM-12+117799999V0201601N002112200019N0200001N1-00701-01391999999ADDGA1001+999999999GF100991001001999999001001MA1999999089261MD1210101+9999ME1315639REMSYN070AAXX  02214 17203 42970 01604 11070 21139 38926 48563 52010 333 10351;
0192172030999992000020300004+38870+040500FM-12+117799999V0209999C000012200019N0200001N1-00961-01461999999ADDAA199000091GA1001+999999999GF100991001001999999001001MA1999999089301MD1110041+9999ME1315719REMSYN070AAXX  03004 17203 32970 00000 11096 21146 38930 48571 51004 333 10338;EQDQ01  00002PRCP99
0162172030999992000020303004+38870+040500FM-12+117799999V0209999C000012200019N0200001N1-01101-01501999999ADDGA1001+999999999GF100991001001999999001001MA1999999089331MD1310031+9999ME1315679REMSYN070AAXX  03034 17203 42970 00000 11110 21150 38933 48567 53003 333 10359;
0258172030999992000020306004+38870+040500FM-12+117799999V0209999C000012200019N0200001N1-01001-01331999999ADDAA199000091AJ100519199999999GA1001+999999999GF100991001001999999001001IA1279IA2999-01609KA1120N-01261MA1999999089461MD1210131+9999ME1315789REMSYN088AAXX  03064 17203 32970 00000 11100 21133 38946 48578 52013 333 21126 3/116 43051 55048;EQDQ01  00002PRCP99
0162172030999992000020309004+38870+040500FM-12+117799999V0200401N001512200019N0200001N1-00401-01071999999ADDGA1001+999999999GF100991001001999999001001MA1999999089501MD1110041+9999ME1315849REMSYN070AAXX  03094 17203 42970 00403 11040 21107 38950 48584 51004 333 10378;
0192172030999992000020312004+38870+040500FM-12+117799999V0203601N002112200019N0200001N1-00201-01021999999ADDAA199000091GA1001+999999999GF100991001001999999001001MA1999999089351MD1710151+9999ME1315719REMSYN070AAXX  03124 17203 32970 03604 11020 21102 38935 48571 57015 333 10361;EQDQ01  00002PRCP99
0162172030999992000020315004+38870+040500FM-12+117799999V0209999C000012200019N0200001N1-00541-01191999999ADDGA1001+999999999GF100991001001999999001001MA1999999089331MD1610021+9999ME1315659REMSYN070AAXX  03154 17203 42970 00000 11054 21119 38933 48565 56002 333 10370;
0221172030999992000020318004+38870+040500FM-12+117799999V0209999C000012200019N0200001N1-00831-01201999999ADDAA199000091GA1001+999999999GF100991001001999999001001KA1999M+99999MA1999999089401MD1110071+9999ME1315709REMSYN070AAXX  03184 17203 32970 00000 11083 21120 38940 48570 51007 333 10384;EQDQ01  00002PRCP99Q02 +03842ATMX  
0192172030999992000020400004+38870+040500FM-12+117799999V0209999C000012200019N0200001N1-01241-01481999999ADDAA199000091GA1001+999999999GF100991001001999999001001MA1999999089381MD1810021+9999ME1315719REMSYN070AAXX  04004 17203 32970 00000 11124 21148 38938 48571 58002 333 10370;EQDQ01  00002PRCP99
0162172030999992000020403004+38870+040500FM-12+117799999V0209999C000012200019N0200001N1-01321-01521999999ADDGA1001+999999999GF100991001001999999001001MA1999999089321MD1710061+9999ME1315629REMSYN070AAXX  04034 17203 42970 00000 11132 21152 38932 48562 57006 333 10375;
0258172030999992000020406004+38870+040500FM-12+117799999V0209999C000012200019N0200001N1-01181-01411999999ADDAA199000091AJ100489199999999GA1001+999999999GF100991001001999999001001IA1279IA2999-02009KA1120N-01431MA1999999089341MD1310021+9999ME1315639REMSYN088AAXX  04064 17203 32970 00000 11118 21141 38934 48563 53002 333 21143 3/120 43048 55078;EQDQ01  00002PRCP99
0162172030999992000020409004+38870+040500FM-12+117799999V0200201N002112200019N0200001N1-00701-01291999999ADDGA1001+999999999GF100991001001999999001001MA1999999089331MD1810011+9999ME1315649REMSYN070AAXX  04094 17203 42970 00204 11070 21129 38933 48564 58001 333 10376;
0192172030999992000020412004+38870+040500FM-12+117799999V0200301N001512200019N0200001N1-00341-01111999999ADDAA199000091GA1001+999999999GF100991001001999999001001MA1999999089201MD1710131+9999ME1315549REMSYN070AAXX  04124 17203 32970 00303 11034 21111 38920 48554 57013 333 10355;EQDQ01  00002PRCP99
0162172030999992000020415004+38870+040500FM-12+117799999V0209999C000012200019N0200001N1-00761-01241999999ADDGA1001+999999999GF100991001001999999001001MA1999999089141MD1710061+9999ME1315459REMSYN070AAXX  04154 17203 42970 00000 11076 21124 38914 48545 57006 333 10360;
0221172030999992000020418004+38870+040500FM-12+117799999V0209999C000012200019N0200001N1-00961-01241999999ADDAA199000091GA1001+999999999GF100991001001999999001001KA1999M+99999MA1999999089221MD1210081+9999ME1315519REMSYN070AAXX  04184 17203 32970 00000 11096 21124 38922 48551 52008 333 10375;EQDQ01  00002PRCP99Q02 +03752ATMX  
0162172030999992000020421004+38870+040500FM-12+117799999V0209999C000012200019N0200001N1-01021-01261999999ADDGA1001+999999999GF100991001001999999001001MA1999999089201MD1810021+9999ME1315539REMSYN070AAXX  04214 17203 42970 00000 11102 21126 38920 48553 58002 333 10361;
0204172030999992000020500004+38870+040500FM-12+117799999V0209999C00001036001CN0200001N1-01001-01241999999ADDAA199000091GA1031+012009089GF105991031011012501051001MA1999999089121MD1710081+9999ME1315499REMSYN082AAXX  05004 17203 32670 50000 11100 21124 38912 48549 57008 83150 333 83840 85360;EQDQ01  00002PRCP99
0174172030999992000020503004+38870+040500FM-12+117799999V0209999C00001036001CN0200001N1-01001-01241999999ADDGA1041+012009069GF108991041051012501021999MA1999999089001MD1710121+9999ME1315359REMSYN082AAXX  05034 17203 42670 80000 11100 21124 38900 48535 57012 8452/ 333 84640 88460;
0276172030999992000020506004+38870+040500FM-12+117799999V0209999C000010120019N0200001N1-00901-01161999999ADDAA199000091AJ100469199999999GA1051+012009069GF108991051051012501021999IA1279IA2999-01609KA1120N-01121MA1999999089041MD1310041+9999ME1315389REMSYN106AAXX  05064 17203 32670 80000 11090 21116 38904 48538 53004 8552/ 333 21112 3/116 43046 55068 85640 88460;EQDQ01  00002PRCP99
0202172030999992000020509004+38870+040500FM-12+117799999V0209999C000010111019N0080001N1-00501-00751999999ADDAY121031AY221031GA1051+011109069GF108991051051012501021999MA1999999088961MD1710081+9999ME1315339MW1701REMSYN088AAXX  05094 17203 41658 80000 11050 21075 38896 48533 57008 77022 8552/ 333 85637 88458;
0251172030999992000020512004+38870+040500FM-12+117799999V0209999C000010099019N0040001N1-00481-00601999999ADDAA106002091AL10600391AY121061AY221061GA1051+009909069GA2081+021009049GF108991051051008001021999MA1999999088821MD1510141+9999ME1315229MW1711REMSYN100AAXX  05124 17203 11540 80000 11048 21060 38882 48522 55014 60021 77122 8552/ 333 85633 88457 93103;
0202172030999992000020515004+38870+040500FM-12+117799999V0209999C000010099019N0040001N1-00581-00681999999ADDAY171031AY271031GA1051+009909069GF108991051051008001021999MA1999999088761MD1710061+9999ME1315159MW1711REMSYN088AAXX  05154 17203 41540 80000 11058 21068 38876 48515 57006 77177 8552/ 333 85633 88457;
0270172030999992000020518004+38870+040500FM-12+117799999V0209999C000010081019N0030001N1-00561-00631999999ADDAA112007191AL10601091AY171061AY271061GA1051+008109069GA2081+021009049GF108991051051008001021999KA1120M-00381MA1999999088701MD1710061+9999ME1315119MW1711REMSYN106AAXX  05184 17203 11530 80000 11056 21063 38870 48511 57006 60072 77177 8552/ 333 11038 85627 88457 93110;
0202172030999992000020521004+38870+040500FM-12+117799999V0209999C000010081019N0020001N1-00641-00721999999ADDAY171031AY271031GA1051+008109069GF108991051051008001021999MA1999999088541MD1710161+9999ME1314999MW1711REMSYN088AAXX  05214 17203 41520 80000 11064 21072 38854 48499 57016 77177 8552/ 333 85627 88457;
0137172030999992000020600004+38870+040500FM-12+117799999V0209999C000019999999N0020001N1-00601-00671999999ADDGF108991999999008001999999REMSYN099AAXX  06004 17203 11520 80000 11060 21067 3836 48483 57018 60041 77177 8552/ 333 85627 88457 93105;
0202172030999992000020603004+38870+040500FM-12+117799999V0209999C000010081019N0020001N1-00621-00701999999ADDAY171031AY271031GA1051+008109069GF108991051051008001021999MA1999999088151MD1710211+9999ME1314649MW1711REMSYN088AAXX  06034 17203 41520 80000 11062 21070 38815 48464 57021 77177 8552/ 333 85627 88457;
0323172030999992000020606004+38870+040500FM-12+117799999V0209999C000010078019N0020001N1-00541-00611999999ADDAA124014791AJ100709199999999AL10600891AY171061AY271061GA1051+007809069GA2081+021009049GF108991051051008001021999IA1279IA2999-00709KA1120N-00681MA1999999088041MD1710111+9999ME1314549MW1711REMSYN124AAXX  06064 17203 11520 80000 11054 21061 38804 48454 57011 77177 8552/ 333 21068 3/107 43070 55000 70147 85626 88457 93108;
0202172030999992000020609004+38870+040500FM-12+117799999V0209999C000010078019N0020001N1-00201-00391999999ADDAY171031AY271031GA1051+007809069GF108991051051008001021999MA1999999088041MD1010001+9999ME1314569MW1711REMSYN088AAXX  06094 17203 41520 80000 11020 21039 38804 48456 50000 77177 8552/ 333 85626 88456;
0251172030999992000020612004+38870+040500FM-12+117799999V0201601N003110300019N0200001N1+00001-00471999999ADDAA106002091AL10600491AY171061AY221061GA1041+012009069GA2071+030009049GF107991041051012501011001MA1999999087961MD1710081+9999ME1314499MW1021REMSYN100AAXX  06124 17203 11670 71606 10000 21047 38796 48449 57008 60021 70272 84510 333 84640 87460 93104;
0174172030999992000020615004+38870+040500FM-12+117799999V0201501N00211036001CN0200001N1-00061-00871999999ADDGA1041+012009089GF106991041021012501051001MA1999999088041MD1210081+9999ME1314579REMSYN082AAXX  06154 17203 42670 61504 11006 21087 38804 48457 52008 84250 333 84840 86360;
0192172030999992000020618004+38870+040500FM-12+117799999V0201601N002612200019N0200001N1-00201-00931999999ADDAA112002091GA1001+999999999GF100991001001999999001001KA1999M+02091MA1999999088141MD1210101+9999ME1314659REMSYN076AAXX  06184 17203 12970 01605 11020 21093 38814 48465 52010 60022 333 10209;
0162172030999992000020621004+38870+040500FM-12+117799999V0201801N002112200019N0200001N1-00281-01141999999ADDGA1001+999999999GF100991001001999999001001MA1999999088221MD1310081+9999ME1314749REMSYN070AAXX  06214 17203 42970 01804 11028 21114 38822 48474 53008 333 10207;
0192172030999992000020700004+38870+040500FM-12+117799999V0201601N002612200019N0200001N1-00361-01181999999ADDAA199000091GA1001+999999999GF100991001001999999001001MA1999999088401MD1310181+9999ME1314909REMSYN070AAXX  07004 17203 32970 01605 11036 21118 38840 48490 53018 333 10228;EQDQ01  00002PRCP99
0152172030999992000020703004+38870+040500FM-12+117799999V0200901N001512200019N0200001N1-00541-01281999999ADDGF102991021001999999031001MA1999999088501MD1310101+9999ME1314989REMSYN076AAXX  07034 17203 42970 20903 11054 21128 38850 48498 53010 82030 333 10245;
0257172030999992000020706004+38870+040500FM-12+117799999V0202701N003112200019N0200001N1-00261-01111999999ADDAA124002391AJ100739199999999GA1021+030009079GF102991021001999999031001IA1279IA2999-01009KA1120N-00601MA1999999088661MD1310161+9999ME1315159REMSYN106AAXX  07064 17203 32970 22706 11026 21111 38866 48515 53016 82030 333 21060 3/110 43073 55003 70024 82360;
0162172030999992000020709004+38870+040500FM-12+117799999V0202701N002112200019N0200001N1+00201-00961999999ADDGA1001+999999999GF100991001001999999001001MA1999999088801MD1210141+9999ME1315319REMSYN070AAXX  07094 17203 42970 02704 10020 21096 38880 48531 52014 333 10263;
0192172030999992000020712004+38870+040500FM-12+117799999V0201801N003612200019N0200001N1+00101-01001999999ADDAA199000091GA1001+999999999GF100991001001999999001001MA1999999088721MD1710081+9999ME1315219REMSYN070AAXX  07124 17203 32970 01807 10010 21100 38872 48521 57008 333 10259;EQDQ01  00002PRCP99
0162172030999992000020715004+38870+040500FM-12+117799999V0209999C000012200019N0200001N1-00201-01291999999ADDGA1001+999999999GF100991001001999999001001MA1999999088881MD1210161+9999ME1315359REMSYN070AAXX  07154 17203 42970 00000 11020 21129 38888 48535 52016 333 10295;
0221172030999992000020718004+38870+040500FM-12+117799999V0209999C000012200019N0200001N1-00601-01281999999ADDAA199000091GA1001+999999999GF100991001001999999001001KA1999M+99999MA1999999089021MD1210141+9999ME1315449REMSYN070AAXX  07184 17203 32970 00000 11060 21128 38902 48544 52014 333 10311;EQDQ01  00002PRCP99Q02 +03112ATMX  
0162172030999992000020721004+38870+040500FM-12+117799999V0209999C000012200019N0200001N1-00801-01391999999ADDGA1001+999999999GF100991001001999999001001MA1999999089071MD1110051+9999ME1315509REMSYN070AAXX  07214 17203 42970 00000 11080 21139 38907 48550 51005 333 10311;
0192172030999992000020800004+38870+040500FM-12+117799999V0201601N002112200019N0200001N1-00821-01421999999ADDAA199000091GA1001+999999999GF100991001001999999001001MA1999999089121MD1110051+9999ME1315539REMSYN070AAXX  08004 17203 32970 01604 11082 21142 38912 48553 51005 333 10323;EQDQ01  00002PRCP99
0162172030999992000020803004+38870+040500FM-12+117799999V0201601N003112200019N0200001N1-00901-01531999999ADDGA1001+999999999GF100991001001999999001001MA1999999089061MD1210061+9999ME1315459REMSYN070AAXX  08034 17203 42970 01606 11090 21153 38906 48545 52006 333 10327;
0258172030999992000020806004+38870+040500FM-12+117799999V0209999C000012200019N0200001N1-00741-01401999999ADDAA199000091AJ100709199999999GA1001+999999999GF100991001001999999001001IA1279IA2999-01209KA1120N-01021MA1999999089101MD1110041+9999ME1315479REMSYN088AAXX  08064 17203 32970 00000 11074 21140 38910 48547 51004 333 21102 3/112 43070 55081;EQDQ01  00002PRCP99
0162172030999992000020809004+38870+040500FM-12+117799999V0209999C000012200019N0200001N1-00041-01091999999ADDGA1001+999999999GF100991001001999999001001MA1999999089121MD1010021+9999ME1315529REMSYN070AAXX  08094 17203 42970 00000 11004 21109 38912 48552 50002 333 10323;
0192172030999992000020812004+38870+040500FM-12+117799999V0209999C000012200019N0200001N1+00361-00791999999ADDAA199000091GA1001+999999999GF100991001001999999001001MA1999999089041MD1710081+9999ME1315489REMSYN070AAXX  08124 17203 32970 00000 10036 21079 38904 48548 57008 333 10302;EQDQ01  00002PRCP99
0162172030999992000020815004+38870+040500FM-12+117799999V0209999C000012200019N0200001N1-00281-01141999999ADDGA1001+999999999GF100991001001999999001001MA1999999089001MD1610041+9999ME1315399REMSYN070AAXX  08154 17203 42970 00000 11028 21114 38900 48539 56004 333 10320;
0221172030999992000020818004+38870+040500FM-12+117799999V0209999C000012200019N0200001N1-00621-01271999999ADDAA199000091GA1001+999999999GF100991001001999999001001KA1999M+99999MA1999999089051MD1310051+9999ME1315439REMSYN070AAXX  08184 17203 32970 00000 11062 21127 38905 48543 53005 333 10332;EQDQ01  00002PRCP99Q02 +03322ATMX  
0162172030999992000020821004+38870+040500FM-12+117799999V0209999C000012200019N0200001N1-00851-01461999999ADDGA1001+999999999GF100991001001999999001001MA1999999089101MD1210051+9999ME1315509REMSYN070AAXX  08214 17203 42970 00000 11085 21146 38910 48550 52005 333 10320;
0192172030999992000020900004+38870+040500FM-12+117799999V0209999C000012200019N0200001N1-01031-01561999999ADDAA199000091GA1001+999999999GF100991001001999999001001MA1999999089101MD1410001+9999ME1315539REMSYN070AAXX  09004 17203 32970 00000 11103 21156 38910 48553 54000 333 10315;EQDQ01  00002PRCP99
0162172030999992000020903004+38870+040500FM-12+117799999V0209999C000012200019N0200001N1-01201-01741999999ADDGA1001+999999999GF100991001001999999001001MA1999999089101MD1410001+9999ME1315469REMSYN070AAXX  09034 17203 42970 00000 11120 21174 38910 48546 54000 333 10338;
0258172030999992000020906004+38870+040500FM-12+117799999V0209999C000012200019N0200001N1-01001-01571999999ADDAA199000091AJ100639199999999GA1001+999999999GF100991001001999999001001IA1279IA2999-01509KA1120N-01331MA1999999089101MD1410001+9999ME1315469REMSYN088AAXX  09064 17203 32970 00000 11100 21157 38910 48546 54000 333 21133 3/115 43063 55081;EQDQ01  00002PRCP99
0162172030999992000020909004+38870+040500FM-12+117799999V0209999C000012200019N0200001N1-00701-01341999999ADDGA1001+999999999GF100991001001999999001001MA1999999089181MD1110081+9999ME1315529REMSYN070AAXX  09094 17203 42970 00000 11070 21134 38918 48552 51008 333 10353;
0192172030999992000020912004+38870+040500FM-12+117799999V0209999C000012200019N0200001N1-00201-01101999999ADDAA199000091GA1001+999999999GF100991001001999999001001MA1999999089141MD1610041+9999ME1315529REMSYN070AAXX  09124 17203 32970 00000 11020 21110 38914 48552 56004 333 10337;EQDQ01  00002PRCP99
0162172030999992000020915004+38870+040500FM-12+117799999V0209999C000012200019N0200001N1-00401-01161999999ADDGA1001+999999999GF100991001001999999001001MA1999999089201MD1110061+9999ME1315539REMSYN070AAXX  09154 17203 42970 00000 11040 21116 38920 48553 51006 333 10355;
0221172030999992000020918004+38870+040500FM-12+117799999V0209999C000012200019N0200001N1-00801-01211999999ADDAA199000091GA1001+999999999GF100991001001999999001001KA1999M+99999MA1999999089301MD1310101+9999ME1315619REMSYN070AAXX  09184 17203 32970 00000 11080 21121 38930 48561 53010 333 10373;EQDQ01  00002PRCP99Q02 +03732ATMX  
0162172030999992000020921004+38870+040500FM-12+117799999V0209999C000012200019N0200001N1-01001-01281999999ADDGA1001+999999999GF100991001001999999001001MA1999999089481MD1210181+9999ME1315789REMSYN070AAXX  09214 17203 42970 00000 11100 21128 38948 48578 52018 333 10388;
0192172030999992000021000004+38870+040500FM-12+117799999V0209999C000012200019N0200001N1-01101-01311999999ADDAA199000091GA1001+999999999GF100991001001999999001001MA1999999089501MD1110021+9999ME1315839REMSYN070AAXX  10004 17203 32970 00000 11110 21131 38950 48583 51002 333 10378;EQDQ01  00002PRCP99
0162172030999992000021003004+38870+040500FM-12+117799999V0209999C000012200019N0200001N1-01201-01381999999ADDGA1001+999999999GF100991001001999999001001MA1999999089501MD1410001+9999ME1315809REMSYN070AAXX  10034 17203 42970 00000 11120 21138 38950 48580 54000 333 10390;
0258172030999992000021006004+38870+040500FM-12+117799999V0209999C000012200019N0200001N1-01021-01221999999ADDAA199000091AJ100559199999999GA1001+999999999GF100991001001999999001001IA1279IA2999-01609KA1120N-01321MA1999999089601MD1210101+9999ME1315889REMSYN088AAXX  10064 17203 32970 00000 11102 21122 38960 48588 52010 333 21132 3/116 43055 55081;EQDQ01  00002PRCP99
0162172030999992000021009004+38870+040500FM-12+117799999V0209999C000012200019N0200001N1-00301-01011999999ADDGA1001+999999999GF100991001001999999001001MA1999999089701MD1210101+9999ME1316009REMSYN070AAXX  10094 17203 42970 00000 11030 21101 38970 48600 52010 333 10402;
0192172030999992000021012004+38870+040500FM-12+117799999V0209999C000012200019N0200001N1-00041-00851999999ADDAA199000091GA1001+999999999GF100991001001999999001001MA1999999089611MD1810091+9999ME1315939REMSYN070AAXX  10124 17203 32970 00000 11004 21085 38961 48593 58009 333 10391;EQDQ01  00002PRCP99
0162172030999992000021015004+38870+040500FM-12+117799999V0209999C000012200019N0200001N1-00381-01091999999ADDGA1001+999999999GF100991001001999999001001MA1999999089571MD1610041+9999ME1315869REMSYN070AAXX  10154 17203 42970 00000 11038 21109 38957 48586 56004 333 10398;
0221172030999992000021018004+38870+040500FM-12+117799999V0209999C000012200019N0200001N1-00601-00951999999ADDAA199000091GA1001+999999999GF100991001001999999001001KA1999M+99999MA1999999089701MD1110131+9999ME1315979REMSYN070AAXX  10184 17203 32970 00000 11060 21095 38970 48597 51013 333 10413;EQDQ01  00002PRCP99Q02 +04132ATMX  
0162172030999992000021021004+38870+040500FM-12+117799999V0209999C000012200019N0200001N1-00761-01071999999ADDGA1001+999999999GF100991001001999999001001MA1999999089701MD1410001+9999ME1316029REMSYN070AAXX  10214 17203 42970 00000 11076 21107 38970 48602 54000 333 10396;
0192172030999992000021100004+38870+040500FM-12+117799999V0209999C000012200019N0200001N1-00881-01101999999ADDAA199000091GA1001+999999999GF100991001001999999001001MA1999999089601MD1810101+9999ME1315949REMSYN070AAXX  11004 17203 32970 00000 11088 21110 38960 48594 58010 333 10384;EQDQ01  00002PRCP99
0162172030999992000021103004+38870+040500FM-12+117799999V0209999C000012200019N0200001N1-01041-01251999999ADDGA1001+999999999GF100991001001999999001001MA1999999089601MD1410001+9999ME1315909REMSYN070AAXX  11034 17203 42970 00000 11104 21125 38960 48590 54000 333 10396;
0270172030999992000021106004+38870+040500FM-12+117799999V0209999C000012200019N0200001N1-00701-00931999999ADDAA199000091AJ100529199999999GA1031+030009079GF103991031001999999031001IA1279IA2999-01409KA1120N-01071MA1999999089501MD1610101+9999ME1315839REMSYN100AAXX  11064 17203 32970 30000 11070 21093 38950 48583 56010 83030 333 21107 3/114 43052 55076 83360;EQDQ01  00002PRCP99
0152172030999992000021109004+38870+040500FM-12+117799999V0209999C000019999999N0200001N1-00301-00641999999ADDGF106991001001999999001081MA1999999089501MD1410001+9999ME1315909REMSYN076AAXX  11094 17203 42970 60000 11030 21064 38950 48590 54000 80008 333 10373;
0182172030999992000021112004+38870+040500FM-12+117799999V0209999C000012200019N0200001N1+00051-00701999999ADDAA199000091GF102991001001999999001011MA1999999089361MD1710141+9999ME1315739REMSYN076AAXX  11124 17203 32970 20000 10005 21070 38936 48573 57014 80001 333 10350;EQDQ01  00002PRCP99
0162172030999992000021115004+38870+040500FM-12+117799999V0209999C000012200019N0200001N1-00381-00781999999ADDGA1001+999999999GF100991001001999999001001MA1999999089381MD1110021+9999ME1315719REMSYN070AAXX  11154 17203 42970 00000 11038 21078 38938 48571 51002 333 10370;
0221172030999992000021118004+38870+040500FM-12+117799999V0209999C000012200019N0200001N1-00601-00911999999ADDAA199000091GA1001+999999999GF100991001001999999001001KA1999M+99999MA1999999089461MD1210081+9999ME1315799REMSYN070AAXX  11184 17203 32970 00000 11060 21091 38946 48579 52008 333 10374;EQDQ01  00002PRCP99Q02 +03742ATMX  
0162172030999992000021121004+38870+040500FM-12+117799999V0209999C000012200019N0200001N1-00861-01201999999ADDGA1001+999999999GF100991001001999999001001MA1999999089501MD1110041+9999ME1315839REMSYN070AAXX  11214 17203 42970 00000 11086 21120 38950 48583 51004 333 10378;
0192172030999992000021200004+38870+040500FM-12+117799999V0209999C000012200019N0200001N1-01061-01311999999ADDAA199000091GA1001+999999999GF100991001001999999001001MA1999999089501MD1410001+9999ME1315859REMSYN070AAXX  12004 17203 32970 00000 11106 21131 38950 48585 54000 333 10375;EQDQ01  00002PRCP99
0162172030999992000021203004+38870+040500FM-12+117799999V0209999C000012200019N0200001N1-01201-01381999999ADDGA1001+999999999GF100991001001999999001001MA1999999089411MD1810091+9999ME1315729REMSYN070AAXX  12034 17203 42970 00000 11120 21138 38941 48572 58009 333 10380;
0258172030999992000021206004+38870+040500FM-12+117799999V0209999C000012200019N0200001N1-01001-01201999999ADDAA199000091AJ100509199999999GA1001+999999999GF100991001001999999001001IA1279IA2999-01509KA1120N-01321MA1999999089401MD1810011+9999ME1315719REMSYN088AAXX  12064 17203 32970 00000 11100 21120 38940 48571 58001 333 21132 3/115 43050 55049;EQDQ01  00002PRCP99
0162172030999992000021209004+38870+040500FM-12+117799999V0209999C000012200019N0200001N1-00401-00881999999ADDGA1001+999999999GF100991001001999999001001MA1999999089341MD1810061+9999ME1315699REMSYN070AAXX  12094 17203 42970 00000 11040 21088 38934 48569 58006 333 10360;
0192172030999992000021212004+38870+040500FM-12+117799999V0202501N001512200019N0200001N1+00001-00661999999ADDAA199000091GA1001+999999999GF100991001001999999001001MA1999999089141MD1710201+9999ME1315539REMSYN070AAXX  12124 17203 32970 02503 10000 21066 38914 48553 57020 333 10331;EQDQ01  00002PRCP99
0152172030999992000021215004+38870+040500FM-12+117799999V0209999C000012200019N0200001N1-00401-00841999999ADDGF101991001001999999001011MA1999999088961MD1710181+9999ME1315339REMSYN076AAXX  12154 17203 42970 10000 11040 21084 38896 48533 57018 80001 333 10327;
0221172030999992000021218004+38870+040500FM-12+117799999V0209999C000012200019N0200001N1-00501-00821999999ADDAA199000091GA1001+999999999GF100991001001999999001001KA1999M+99999MA1999999088941MD1810021+9999ME1315329REMSYN070AAXX  12184 17203 32970 00000 11050 21082 38894 48532 58002 333 10325;EQDQ01  00002PRCP99Q02 +03252ATMX  
0152172030999992000021221004+38870+040500FM-12+117799999V0209999C000019999999N0200001N1-00521-00851999999ADDGF106991001001999999001051MA1999999088831MD1810111+9999ME1315269REMSYN076AAXX  12214 17203 42970 60000 11052 21085 38883 48526 58011 80005 333 10295;
0182172030999992000021300004+38870+040500FM-12+117799999V0209999C000010210019N0200001N1-00541-00641999999ADDAA199000091GF108991081001022501011999MA1999999088691MD1710141+9999ME1315169REMSYN076AAXX  13004 17203 32870 80000 11054 21064 38869 48516 57014 8801/ 333 10267;EQDQ01  00002PRCP99
0180172030999992000021303004+38870+040500FM-12+117799999V0209999C000010210019N0200001N1-00541-00911999999ADDAY171031AY221031GF106991061001022501071001MA1999999088581MD1710111+9999ME1315049MW1011REMSYN082AAXX  13034 17203 41870 60000 11054 21091 38858 48504 57011 70172 86070 333 10266;
0329172030999992000021306004+38870+040500FM-12+117799999V0209999C000010081019N0020001N1-00441-00501999999ADDAA112000891AJ100469199999999AL10600191AY171061AY221061GA1051+008109069GA2081+021009049GF108991051051008001021999IA1279IA2999-00909KA1120N-00601MA1999999088521MD1710061+9999ME1314999MW1711REMSYN130AAXX  13064 17203 11520 80000 11044 21050 38852 48499 57006 69972 77172 8552/ 333 21060 3/109 43046 55065 70007 85627 88457 93101;
0202172030999992000021309004+38870+040500FM-12+117799999V0209999C00001036001CN0200001N1+00141-00141999999ADDAY171031AY221031GA1041+012009069GF107991041051012501011001MA1999999088341MD1710181+9999ME1314859MW1021REMSYN088AAXX  13094 17203 41670 70000 10014 21014 38834 48485 57018 70272 84510 333 84640 87460;
0279172030999992000021312004+38870+040500FM-12+117799999V0209999C000010090019N0008001N1+00271-00021999999ADDAA106001091AL19900091AY171061AY241061GA1011+002409079GA2051+009009069GA3081+021009049GF108991061071002501021999MA1999999088161MD1710181+9999ME1314699MW1711REMSYN112AAXX  13124 17203 11308 80000 10027 21002 38816 48469 57018 69991 77174 8672/ 333 81708 85630 88457 93100 96041;
0243172030999992000021315004+38870+040500FM-12+117799999V0209999C000010090019N0008001N1+00001-00141999999ADDAY171031AY241031GA1011+002409079GA2051+009009069GF108991061071002501021999MA1999999088041MD1610121+9999ME1314579MW1421REMSYN094AAXX  13154 17203 41308 80000 10000 21014 38804 48457 56012 74374 8672/ 333 81708 85630 88457;EQDQ01+000432PRSWM1
0270172030999992000021318004+38870+040500FM-12+117799999V0209999C000010300019N0200001N1-00121-00191999999ADDAA112001091AL10600091AY171061AY241061GA1041+012009069GA2071+030009049GF107991041051012501011001KA1120M+00301MA1999999088101MD1110061+9999ME1314629MW1281REMSYN106AAXX  13184 17203 11670 70000 11012 21019 38810 48462 51006 60012 72874 84510 333 10030 84640 87460 93100;
0152172030999992000021321004+38870+040500FM-12+117799999V0209999C000012200019N0200001N1-00361-00521999999ADDGF102991021001999999031001MA1999999088181MD1110081+9999ME1314729REMSYN076AAXX  13214 17203 42970 20000 11036 21052 38818 48472 51008 82030 333 10197;
0173172030999992000021400004+38870+040500FM-12+117799999V0209999C000012200019N0200001N1-00521-00581999999ADDAA199000021GA1001+999999999GF100991001001999999001001MA1999999088221MD1210041+9999ME1314749REMSYN070AAXX  14004 17203 32970 00000 11052 21058 38822 48474 52004 333 10202;
0162172030999992000021403004+38870+040500FM-12+117799999V0209999C000012200019N0200001N1-00761-00851999999ADDGA1001+999999999GF100991001001999999001001MA1999999088281MD1310061+9999ME1314789REMSYN070AAXX  14034 17203 42970 00000 11076 21085 38828 48478 53006 333 10226;
0263172030999992000021406004+38870+040500FM-12+117799999V0209999C00001036001CN0200001N1-00681-00801999999ADDAA124001391AJ100469199999999GA1041+012009069GF107991041041012501011001IA1279IA2999-01009KA1120N-00821MA1999999088501MD1210221+9999ME1314979REMSYN112AAXX  14064 17203 32670 70000 11068 21080 38850 48497 52022 84410 333 21082 3/110 43046 55000 70013 84640 87460;
0204172030999992000021412004+38870+040500FM-12+117799999V0209999C000010120019N0200001N1-00101-00481999999ADDAA199000091GA1051+012009069GF108991051051012501021999MA1999999088541MD1810011+9999ME1315029REMSYN082AAXX  14124 17203 32670 80000 11010 21048 38854 48502 58001 8552/ 333 85640 88460;EQDQ01  00002PRCP99
0202172030999992000021415004+38870+040500FM-12+117799999V0209999C000010111019N0150001N1-00201-00451999999ADDAY121031AY221031GA1051+011109069GF108991051051012501021999MA1999999088601MD1110041+9999ME1315059MW1701REMSYN088AAXX  14154 17203 41665 80000 11020 21045 38860 48505 51004 77022 8552/ 333 85637 88458;
0270172030999992000021418004+38870+040500FM-12+117799999V0209999C000010111019N0080001N1-00231-00341999999ADDAA112000191AL10600091AY121061AY221061GA1051+011109069GA2081+024009049GF108991051051012501021999KA1120M+00021MA1999999088761MD1210161+9999ME1315209MW1711REMSYN106AAXX  14184 17203 11658 80000 11023 21034 38876 48520 52016 69922 77122 8552/ 333 10002 85637 88458 93100;
0202172030999992000021421004+38870+040500FM-12+117799999V0209999C000010120019N0200001N1-00241-00331999999ADDAY171031AY221031GA1051+012009069GF108991051051012501021999MA1999999088821MD1110061+9999ME1315289MW1021REMSYN088AAXX  14214 17203 41670 80000 11024 21033 38882 48528 51006 70272 8552/ 333 85640 88460;
0251172030999992000021500004+38870+040500FM-12+117799999V0209999C000010300019N0200001N1-00281-00371999999ADDAA106000191AL10600091AY171061AY221061GA1041+012009069GA2081+030009049GF108991041051012501021999MA1999999088831MD1110011+9999ME1315309MW1021REMSYN100AAXX  15004 17203 11670 80000 11028 21037 38883 48530 51001 69911 70272 8452/ 333 84640 88460 93100;
0202172030999992000021503004+38870+040500FM-12+117799999V0209999C000010108019N0060001N1-00231-00291999999ADDAY121031AY221031GA1051+010809069GF108991051051012501021999MA1999999088831MD1410001+9999ME1315299MW1711REMSYN088AAXX  15034 17203 41656 80000 11023 21029 38883 48529 54000 77122 8552/ 333 85636 88457;
0329172030999992000021506004+38870+040500FM-12+117799999V0209999C000010108019N0060001N1-00241-00301999999ADDAA112000591AJ100449199999999AL10600191AY121061AY221061GA1051+010809069GA2081+021009049GF108991051051012501021999IA1279IA2999-00409KA1120N-00321MA1999999089001MD1210171+9999ME1315459MW1711REMSYN130AAXX  15064 17203 11656 80000 11024 21030 38900 48545 52017 69942 77122 8552/ 333 21032 3/104 43044 55000 70006 85636 88457 93101;
0202172030999992000021509004+38870+040500FM-12+117799999V0209999C000010099019N0100001N1+00021-00221999999ADDAY171031AY221031GA1051+009909069GF108991051051008001021999MA1999999089001MD1410001+9999ME1315469MW1711REMSYN088AAXX  15094 17203 41560 80000 10002 21022 38900 48546 54000 77172 8552/ 333 85633 88457;
0251172030999992000021512004+38870+040500FM-12+117799999V0209999C000010090019N0020001N1+00101-00041999999ADDAA106003091AL10600091AY171061AY221061GA1051+009009069GA2081+021009049GF108991051051008001021999MA1999999088901MD1710101+9999ME1315379MW1711REMSYN100AAXX  15124 17203 11520 80000 10010 21004 38890 48537 57010 60031 77172 8552/ 333 85630 88457 93100;
0202172030999992000021515004+38870+040500FM-12+117799999V0209999C000010090019N0008001N1+00001-00091999999ADDAY171031AY271031GA1051+009009069GF108991051051008001021999MA1999999088821MD1610081+9999ME1315309MW1731REMSYN088AAXX  15154 17203 41508 80000 10000 21009 38882 48530 56008 77377 8552/ 333 85630 88457;
0270172030999992000021518004+38870+040500FM-12+117799999V0209999C000010099019N0020001N1+00081+00031999999ADDAA112010991AL10600691AY171061AY271061GA1051+009909069GA2081+021009049GF108991051051008001021999KA1120M+00221MA1999999088781MD1610041+9999ME1315279MW1711REMSYN106AAXX  15184 17203 11520 80000 10008 20003 38878 48527 56004 60112 77177 8552/ 333 10022 85633 88457 93106;
0202172030999992000021521004+38870+040500FM-12+117799999V0209999C00001036001CN0030001N1+00081+00031999999ADDAY171031AY271031GA1041+009909069GF108991041051008001021999MA1999999088641MD1710141+9999ME1315169MW1711REMSYN088AAXX  15214 17203 41530 80000 10008 20003 38864 48516 57014 77177 8452/ 333 84633 88457;
0251172030999992000021600004+38870+040500FM-12+117799999V0209999C000010300019N0200001N1+00181+00091999999ADDAA106007191AL10600391AY171061AY221061GA1041+012009069GA2081+030009049GF108991041051012501021999MA1999999088551MD1710091+9999ME1315099MW1021REMSYN100AAXX  16004 17203 11670 80000 10018 20009 38855 48509 57009 60071 70272 8452/ 333 84640 88460 93103;
0202172030999992000021603004+38870+040500FM-12+117799999V0209999C000010105019N0060001N1+00101+00031999999ADDAY121031AY221031GA1051+010509069GF108991051051012501021999MA1999999088481MD1610071+9999ME1315019MW1711REMSYN088AAXX  16034 17203 41656 80000 10010 20003 38848 48501 56007 77122 8552/ 333 85635 88457;
0329172030999992000021606004+38870+040500FM-12+117799999V0209999C000010099019N0010001N1+00081+00031999999ADDAA112020191AJ100599199999999AL10600891AY121061AY221061GA1051+009909069GA2081+021009049GF108991051051008001021999IA1279IA2999-00109KA1120N+00021MA1999999088451MD1810031+9999ME1314999MW1731REMSYN130AAXX  16064 17203 11510 80000 10008 20003 38845 48499 58003 60202 77322 8552/ 333 20002 3/101 43059 55000 70306 85633 88457 93108;
0224172030999992000021609004+38870+040500FM-12+117799999V0209999C000010099019N0008001N1+00151+00111999999ADDAY171031AY271031GA1021+004509079GA2051+009909069GF108991061071004501021999MA1999999088431MD1610021+9999ME1314979MW1731REMSYN094AAXX  16094 17203 41408 80000 10015 20011 38843 48497 56002 77377 8672/ 333 82715 85633 88459;
0273172030999992000021612004+38870+040500FM-12+117799999V0209999C000010099019N0020001N1+00231+00141999999ADDAA106013091AL10600891AY171061AY271061GA1021+003609079GA2051+009909069GA3081+027009049GF108991061071004501021999MA1999999088321MD1710111+9999ME1314889MW1711REMSYN106AAXX  16124 17203 11420 80000 10023 20014 38832 48488 57011 60131 77177 8672/ 333 82712 85633 88459 93108;
0224172030999992000021615004+38870+040500FM-12+117799999V0209999C000010099019N0008001N1+00101+00031999999ADDAY171031AY271031GA1021+002409079GA2041+009909069GF108991061071002501021999MA1999999088271MD1710051+9999ME1314829MW1711REMSYN094AAXX  16154 17203 41308 80000 10010 20003 38827 48482 57005 77177 8672/ 333 82708 84633 88459;
0270172030999992000021618004+38870+040500FM-12+117799999V0209999C000010105019N0100001N1+00101+00061999999ADDAA112020191AL10600391AY171061AY271061GA1051+010509069GA2081+027009049GF108991051051012501021999KA1120M+00301MA1999999088271MD1410001+9999ME1314829MW1681REMSYN106AAXX  16184 17203 11660 80000 10010 20006 38827 48482 54000 60202 76877 8552/ 333 10030 85635 88459 93103;
0202172030999992000021621004+38870+040500FM-12+117799999V0209999C000010099019N0080001N1+00161+00121999999ADDAY171031AY271031GA1051+009909069GF108991051051012501021999MA1999999088181MD1710091+9999ME1314759MW1681REMSYN088AAXX  16214 17203 41658 80000 10016 20012 38818 48475 57009 76877 8552/ 333 85633 88457;
0251172030999992000021700004+38870+040500FM-12+117799999V0203101N001510090019N0008001N1+00041+00011999999ADDAA106018091AL10600491AY171061AY271061GA1051+009009069GA2081+021009049GF108991051051008001021999MA1999999088101MD1610081+9999ME1314679MW1731REMSYN100AAXX  17004 17203 11508 83103 10004 20001 38810 48467 56008 60181 77377 8552/ 333 85630 88457 93104;
0202172030999992000021703004+38870+040500FM-12+117799999V0209999C000010099019N0030001N1+00081+00031999999ADDAY171031AY271031GA1051+009909069GF108991051051008001021999MA1999999088181MD1310081+9999ME1314749MW1711REMSYN088AAXX  17034 17203 41530 80000 10008 20003 38818 48474 53008 77177 8552/ 333 85633 88457;
0202172030999992000021709004+38870+040500FM-12+117799999V0209999C00001036001CN0100001N1+00421+00211999999ADDAY171031AY271031GA1041+011109069GF108991041051012501021999MA1999999088551MD1210181+9999ME1315109MW1221REMSYN088AAXX  17094 17203 41660 80000 10042 20021 38855 48510 52018 72277 8452/ 333 84637 88459;
0251172030999992000021712004+38870+040500FM-12+117799999V0202501N002610300019N0200001N1+00521+00041999999ADDAA106000591AL10600091AY171061AY221061GA1031+012009069GA2061+030009039GF106991031051012501051001MA1999999088631MD1210081+9999ME1315179MW1011REMSYN100AAXX  17124 17203 11670 62505 10052 20004 38863 48517 52008 69951 70172 83550 333 83640 86360 93100;
0174172030999992000021715004+38870+040500FM-12+117799999V0209999C00001036001CN0200001N1+00201-00291999999ADDGA1041+012009069GF108991041051012501021999MA1999999088801MD1210171+9999ME1315319REMSYN082AAXX  17154 17203 42670 80000 10020 21029 38880 48531 52017 8452/ 333 84640 88360;
0210172030999992000021718004+38870+040500FM-12+117799999V0209999C00001036001CN0200001N1+00101-00221999999ADDAA112000591GA1041+012009069GF108991041051012501021999KA1120M+00541MA1999999089001MD1210201+9999ME1315489REMSYN094AAXX  17184 17203 12670 80000 10010 21022 38900 48548 52020 69952 8452/ 333 10054 84640 88460;
0174172030999992000021721004+38870+040500FM-12+117799999V0209999C00001036001CN0200001N1+00131-00031999999ADDGA1041+012009069GF108991041051012501021999MA1999999089101MD1210101+9999ME1315619REMSYN082AAXX  17214 17203 42670 80000 10013 21003 38910 48561 52010 8452/ 333 84640 88460;
0255172030999992000021800004+38870+040500FM-12+117799999V0203101N001510090019N0008001N1+00041+00011999999ADDAA106018091AL10600491AY171061AY271061GA1051+009009069GA2081+021009049GF108991051051008001021999MD1610081+9999ME1314679MW1731REMSYN100AAXX  18004 17203 11508 83103 10004 20001 38810 48467 56008 60181 77377 8552/ 333 85630 88457 93104;EQDQ01+088103APOSP 
0174172030999992000021803004+38870+040500FM-12+117799999V0209999C00001036001CN0200001N1+00041-00151999999ADDGA1041+012009069GF108991041051012501021999MA1999999089181MD1410001+9999ME1315669REMSYN082AAXX  18034 17203 42670 80000 10004 21015 38918 48566 54000 8452/ 333 84640 88460;
0263172030999992000021806004+38870+040500FM-12+117799999V0209999C00001036001CN0200001N1+00201-00031999999ADDAA124000591AJ100579199999999GA1031+012009069GF107991031051012501051001IA1279IA2999-00109KA1120N+00001MA1999999089241MD1310061+9999ME1315719REMSYN112AAXX  18064 17203 32670 70000 10020 21003 38924 48571 53006 83550 333 20000 3/101 43057 55020 70005 83640 87360;
0152172030999992000021809004+38870+040500FM-12+117799999V0209999C000012200019N0200001N1+00501-00091999999ADDGF101991011011012501001001MA1999999089331MD1210091+9999ME1315829REMSYN076AAXX  18094 17203 42670 10000 10050 21009 38933 48582 52009 81100 333 10308;
0163172030999992000021812004+38870+040500FM-12+117799999V0200401N001519999999N0200001N1+00421-00301999999ADDAA199000021GF107991071001999999011001MA1999999089261MD1710071+9999ME1315759REMSYN076AAXX  18124 17203 32970 70403 10042 21030 38926 48575 57007 87010 333 10305;
0152172030999992000021815004+38870+040500FM-12+117799999V0209999C000012200019N0200001N1+00241-00361999999ADDGF102991021011012501001001MA1999999089221MD1710041+9999ME1315699REMSYN076AAXX  18154 17203 42670 20000 10024 21036 38922 48569 57004 82100 333 10305;
0205172030999992000021818004+38870+040500FM-12+117799999V0209999C000012200019N0200001N1+00001-00411999999ADDAA199000091GA1001+999999999GF100991001001999999001001KA1999M+03081MA1999999089241MD1110021+9999ME1315719REMSYN070AAXX  18184 17203 32970 00000 10000 21041 38924 48571 51002 333 10308;EQDQ01  00002PRCP99
0152172030999992000021821004+38870+040500FM-12+117799999V0201801N001519999999N0200001N1-00101-00541999999ADDGF106991061001999999011001MA1999999089321MD1310081+9999ME1315799REMSYN076AAXX  18214 17203 42970 61803 11010 21054 38932 48579 53008 86010 333 10312;
0204172030999992000021900004+38870+040500FM-12+117799999V0209999C00001036001CN0200001N1-00141-00591999999ADDAA199000091GA1041+012009069GF108991041051012501021999MA1999999089261MD1810061+9999ME1315739REMSYN082AAXX  19004 17203 32670 80000 11014 21059 38926 48573 58006 8452/ 333 84640 88460;EQDQ01  00002PRCP99
0174172030999992000021903004+38870+040500FM-12+117799999V0209999C00001036001CN0200001N1-00251-00671999999ADDGA1041+012009069GF108991041051012501021999MA1999999089121MD1710141+9999ME1315589REMSYN082AAXX  19034 17203 42670 80000 11025 21067 38912 48558 57014 8452/ 333 84640 88460;
0162172030999992000021909004+38870+040500FM-12+117799999V0200301N001512200019N0200001N1+00341-00601999999ADDGA1001+999999999GF100991001001999999001001MA1999999089021MD1810081+9999ME1315519REMSYN070AAXX  19094 17203 42970 00303 10034 21060 38902 48551 58008 333 10283;
0204172030999992000021912004+38870+040500FM-12+117799999V0202501N00151036001CN0200001N1+00381-00541999999ADDAA199000091GA1031+012009089GF105991031011012501051001MA1999999088801MD1710221+9999ME1315319REMSYN082AAXX  19124 17203 32670 52503 10038 21054 38880 48531 57022 83150 333 83840 85360;EQDQ01  00002PRCP99
0202172030999992000021915004+38870+040500FM-12+117799999V0209999C00001036001CN0100001N1+00001-00441999999ADDAY121031AY221031GA1041+011109069GF108991041051012501021999MA1999999088601MD1710201+9999ME1315109MW1701REMSYN088AAXX  19154 17203 41660 80000 10000 21044 38860 48510 57020 77022 8452/ 333 84637 88458;
0270172030999992000021918004+38870+040500FM-12+117799999V0209999C000010210019N0030001N1-00041-00101999999ADDAA112003091AL10600491AY121061AY221061GA1041+000609069GA2081+021009049GF108991041051008001021999KA1120M+00521MA1999999088401MD1710201+9999ME1314929MW1711REMSYN106AAXX  19184 17203 11530 80000 11004 21010 38840 48492 57020 60032 77122 8452/ 333 10052 84602 88457 93104;
0251172030999992000022000004+38870+040500FM-12+117799999V0209999C000010072019N0030001N1-00021-00151999999ADDAA106007991AL10601291AY171061AY271061GA1051+007209069GA2081+021009049GF108991051051008001021999MA1999999088281MD1410001+9999ME1314849MW1711REMSYN100AAXX  20004 17203 11530 80000 11002 21015 38828 48484 54000 60081 77177 8552/ 333 85624 88457 93112;
0329172030999992000022006004+38870+040500FM-12+117799999V0209999C000010270019N0200001N1+00041-00421999999ADDAA112008991AJ100629199999999AL10600291AY171061AY221061GA1021+009909089GA2071+027009039GF107991021011008001071001IA1279IA2999-00109KA1120N-00071MA1999999088661MD1210341+9999ME1315179MW1021REMSYN130AAXX  20064 17203 11570 70000 10004 21042 38866 48517 52034 60092 70272 82170 333 21007 3/101 43062 55054 70125 82833 87359 93102;
0152172030999992000022009004+38870+040500FM-12+117799999V0209999C000012200019N0200001N1+00501-00371999999ADDGF102991021011012501001001MA1999999088821MD1210161+9999ME1315359REMSYN076AAXX  20094 17203 42670 20000 10050 21037 38882 48535 52016 82100 333 10249;
0162172030999992000022015004+38870+040500FM-12+117799999V0209999C000012200019N0200001N1+00181-00621999999ADDGA1001+999999999GF100991001001999999001001MA1999999089001MD1210121+9999ME1315499REMSYN070AAXX  20154 17203 42970 00000 10018 21062 38900 48549 52012 333 10281;
0205172030999992000022018004+38870+040500FM-12+117799999V0201601N002112200019N0200001N1-00161-00801999999ADDAA199000091GA1001+999999999GF100991001001999999001001KA1999M+03081MA1999999089141MD1210141+9999ME1315599REMSYN070AAXX  20184 17203 32970 01604 11016 21080 38914 48559 52014 333 10308;EQDQ01  00002PRCP99
0152172030999992000022021004+38870+040500FM-12+117799999V0209999C000012200019N0200001N1-00401-00911999999ADDGF102991021001999999031001MA1999999089201MD1110061+9999ME1315669REMSYN076AAXX  20214 17203 42970 20000 11040 21091 38920 48566 51006 82030 333 10309;
0182172030999992000022100004+38870+040500FM-12+117799999V0209999C000012200019N0200001N1-00561-00941999999ADDAA199000091GF103991031001999999031001MA1999999089201MD1410001+9999ME1315669REMSYN076AAXX  21004 17203 32970 30000 11056 21094 38920 48566 54000 83030 333 10304;EQDQ01  00002PRCP99
0162172030999992000022103004+38870+040500FM-12+117799999V0209999C000012200019N0200001N1-00641-00931999999ADDGA1001+999999999GF100991001001999999001001MA1999999089201MD1410001+9999ME1315629REMSYN070AAXX  21034 17203 42970 00000 11064 21093 38920 48562 54000 333 10321;
0258172030999992000022106004+38870+040500FM-12+117799999V0209999C000012200019N0200001N1-00361-00861999999ADDAA199000091AJ100539199999999GA1001+999999999GF100991001001999999001001IA1279IA2999-01009KA1120N-00731MA1999999089181MD1610021+9999ME1315609REMSYN088AAXX  21064 17203 32970 00000 11036 21086 38918 48560 56002 333 21073 3/110 43053 55071;EQDQ01  00002PRCP99
0152172030999992000022109004+38870+040500FM-12+117799999V0209999C000012200019N0200001N1+00001-00701999999ADDGF103991031011012501001001MA1999999089181MD1410001+9999ME1315619REMSYN076AAXX  21094 17203 42670 30000 10000 21070 38918 48561 54000 83100 333 10318;
0152172030999992000022115004+38870+040500FM-12+117799999V0209999C000012200019N0200001N1+00021-00701999999ADDGF104991041021012501001001MA1999999089001MD1610081+9999ME1315439REMSYN076AAXX  21154 17203 42670 40000 10002 21070 38900 48543 56008 84200 333 10303;
0223172030999992000022118004+38870+040500FM-12+117799999V0209999C00001036001CN0200001N1+00001-00471999999ADDAA199000091GA1041+012009069GF106991041051012501011001KA1120M+00401MA1999999088981MD1610021+9999ME1315439REMSYN088AAXX  21184 17203 32670 60000 10000 21047 38898 48543 56002 84510 333 10040 84640 86460;EQDQ01  00002PRCP99
0174172030999992000022121004+38870+040500FM-12+117799999V0209999C00001036001CN0200001N1-00021-00401999999ADDGA1041+012009069GF106991041051012501051001MA1999999088941MD1810041+9999ME1315429REMSYN082AAXX  21214 17203 42670 60000 11002 21040 38894 48542 58004 84550 333 84640 86360;
0204172030999992000022200004+38870+040500FM-12+117799999V0209999C00001036001CN0200001N1-00121-00411999999ADDAA199000091GA1041+012009069GF107991041051012501011001MA1999999088821MD1710121+9999ME1315329REMSYN082AAXX  22004 17203 32670 70000 11012 21041 38882 48532 57012 84510 333 84640 87460;EQDQ01  00002PRCP99
0174172030999992000022203004+38870+040500FM-12+117799999V0209999C00001036001CN0200001N1-00181-00431999999ADDGA1041+012009069GF107991041051012501011001MA1999999088701MD1710121+9999ME1315189REMSYN082AAXX  22034 17203 42670 70000 11018 21043 38870 48518 57012 84510 333 84640 87460;
0276172030999992000022206004+38870+040500FM-12+117799999V0209999C00001036001CN0200001N1+00001-00411999999ADDAA199000091AJ100499199999999GA1041+012009089GF106991041021012501051001IA1279IA2999-00309KA1120N-00201MA1999999088671MD1610031+9999ME1315189REMSYN106AAXX  22064 17203 32670 60000 10000 21041 38867 48518 56003 84250 333 21020 3/103 43049 55067 84840 86360;EQDQ01  00002PRCP99
0174172030999992000022209004+38870+040500FM-12+117799999V0209999C00001036001CN0200001N1+00301-00391999999ADDGA1041+012009089GF106991041021012501051001MA1999999088641MD1810031+9999ME1315179REMSYN082AAXX  22094 17203 42670 60000 10030 21039 38864 48517 58003 84250 333 84840 86360;
0204172030999992000022212004+38870+040500FM-12+117799999V0209999C00001036001CN0200001N1+00501-00371999999ADDAA199000091GA1041+012009089GF106991041021012501051001MA1999999088421MD1710221+9999ME1314979REMSYN082AAXX  22124 17203 32670 60000 10050 21037 38842 48497 57022 84250 333 84840 86360;EQDQ01  00002PRCP99
0174172030999992000022215004+38870+040500FM-12+117799999V0209999C00001036001CN0200001N1+00341-00281999999ADDGA1041+012009069GF107991041051012501011001MA1999999088281MD1710141+9999ME1314839REMSYN082AAXX  22154 17203 42670 70000 10034 21028 38828 48483 57014 84510 333 84640 87460;
0270172030999992000022218004+38870+040500FM-12+117799999V0209999C000010111019N0150001N1+00241-00241999999ADDAA112000191AL10600091AY121061AY221061GA1051+011109069GA2081+024009049GF108991051051012501021999KA1120M+00541MA1999999088201MD1710081+9999ME1314779MW1701REMSYN106AAXX  22184 17203 11665 80000 10024 21024 38820 48477 57008 69922 77022 8552/ 333 10054 85637 88458 93100;
0202172030999992000022221004+38870+040500FM-12+117799999V0209999C000010120019N0200001N1+00301-00171999999ADDAY171031AY221031GA1051+012009069GF108991051051012501021999MA1999999088031MD1810171+9999ME1314639MW1021REMSYN088AAXX  22214 17203 41670 80000 10030 21017 38803 48463 58017 70272 8552/ 333 85640 88460;
0219172030999992000022300004+38870+040500FM-12+117799999V0209999C000010120019N0200001N1+00351-00111999999ADDAA106000791AY171061AY221061GA1051+012009069GF108991051051012501021999MA1999999088001MD1610031+9999ME1314629MW1021REMSYN094AAXX  23004 17203 11670 80000 10035 21011 38800 48462 56003 69901 70272 8552/ 333 85640 88460;
0202172030999992000022303004+38870+040500FM-12+117799999V0200601N002110111019N0100001N1+00101-00091999999ADDAY161031AY261031GA1051+011109069GF108991051051012501021999MA1999999087981MD1610021+9999ME1314559MW1711REMSYN088AAXX  23034 17203 41660 80604 10010 21009 38798 48455 56002 77166 8552/ 333 85637 88458;
0202172030999992000022309004+38870+040500FM-12+117799999V0200401N002110099019N0100001N1+00281+00101999999ADDAY171031AY271031GA1051+009909069GF108991051051008001021999MA1999999088201MD1210201+9999ME1314789MW1681REMSYN088AAXX  23094 17203 41560 80404 10028 20010 38820 48478 52020 76877 8552/ 333 85633 88457;
0224172030999992000022315004+38870+040500FM-12+117799999V0209999C000010099019N0008001N1+00161+00021999999ADDAY121031AY221031GA1021+003609079GA2041+009909069GF108991061071004501021999MA1999999088321MD1310121+9999ME1314879MW1681REMSYN094AAXX  23154 17203 41408 80000 10016 20002 38832 48487 53012 76822 8672/ 333 82712 84633 88458;
0270172030999992000022318004+38870+040500FM-12+117799999V0209999C000010099019N0080001N1+00101+00011999999ADDAA112006191AL10600091AY121061AY221061GA1051+009909069GA2081+021009049GF108991051051008001021999KA1120M+00381MA1999999088471MD1210151+9999ME1315009MW1681REMSYN106AAXX  23184 17203 11558 80000 10010 20001 38847 48500 52015 60062 76822 8552/ 333 10038 85633 88457 93100;
0251172030999992000022400004+38870+040500FM-12+117799999V0209999C000010099019N0080001N1+00081-00061999999ADDAA106003091AL10600391AY171061AY271061GA1051+009909069GA2081+021009049GF108991051051008001021999MA1999999088601MD1110021+9999ME1315149MW1711REMSYN100AAXX  24004 17203 11558 80000 10008 21006 38860 48514 51002 60031 77177 8552/ 333 85633 88457 93103;
0202172030999992000022403004+38870+040500FM-12+117799999V0209999C000010090019N0008001N1+00081-00061999999ADDAY171031AY271031GA1051+009009069GF108991051051008001021999MA1999999088601MD1410001+9999ME1315139MW1731REMSYN088AAXX  24034 17203 41508 80000 10008 21006 38860 48513 54000 77377 8552/ 333 85630 88457;
0173172030999992000022406004+38870+040500FM-12+117799999V0202501N001519999999N0008001N1+00101-00041999999ADDGF108991999999004501999999REMSYN135AAXX  24064 17203 11408 82503 10010 21004 8878 48529 52018 60062 77177 8672/ 333 20004 3/000 43053 55000 70114 82716 84633 88459 93103;
0202172030999992000022409004+38870+040500FM-12+117799999V0209999C00001036001CN0200001N1+00221+00021999999ADDAY171031AY221031GA1041+012009069GF108991041051012501021999MA1999999088861MD1210081+9999ME1315379MW1231REMSYN088AAXX  24094 17203 41670 80000 10022 20002 38886 48537 52008 72372 8452/ 333 84640 88460;
0251172030999992000022412004+38870+040500FM-12+117799999V0209999C000010300019N0200001N1+00501-00031999999ADDAA106000591AL10600091AY171061AY221061GA1041+012009069GA2081+030009049GF108991041051012501021999MA1999999088811MD1810051+9999ME1315349MW1021REMSYN100AAXX  24124 17203 11670 80000 10050 21003 38881 48534 58005 69961 70272 8452/ 333 84640 88460 93100;
0174172030999992000022415004+38870+040500FM-12+117799999V0209999C00001036001CN0200001N1+00401-00051999999ADDGA1041+012009069GF108991041051012501021999MA1999999088811MD1410001+9999ME1315349REMSYN082AAXX  24154 17203 42670 80000 10040 21005 38881 48534 54000 8452/ 333 84640 88460;
0210172030999992000022418004+38870+040500FM-12+117799999V0209999C00001036001CN0200001N1+00201-00081999999ADDAA112000591GA1041+012009069GF108991041051012501021999KA1120M+00521MA1999999088861MD1310051+9999ME1315379REMSYN094AAXX  24184 17203 12670 80000 10020 21008 38886 48537 53005 69962 8452/ 333 10052 84640 88460;
0202172030999992000022421004+38870+040500FM-12+117799999V0209999C000010099019N0100001N1+00181+00051999999ADDAY121031AY221031GA1051+009909069GF108991051051008001021999MA1999999088861MD1410001+9999ME1315389MW1701REMSYN088AAXX  24214 17203 41560 80000 10018 20005 38886 48538 54000 77022 8552/ 333 85633 88457;
0202172030999992000022503004+38870+040500FM-12+117799999V0209999C000010099019N0080001N1+00101-00091999999ADDAY121031AY221031GA1051+009909069GF108991051051008001021999MA1999999088621MD1610081+9999ME1315169MW1701REMSYN088AAXX  25034 17203 41558 80000 10010 21009 38862 48516 56008 77022 8552/ 333 85633 88457;
0329172030999992000022506004+38870+040500FM-12+117799999V0209999C000010300019N0200001N1+00141-00041999999ADDAA112000891AJ100499199999999AL10600091AY171061AY221061GA1041+012009069GA2081+030009049GF108991041051012501021999IA1279IA2999+00009KA1120N+00071MA1999999088601MD1610021+9999ME1315139MW1021REMSYN130AAXX  25064 17203 11670 80000 10014 21004 38860 48513 56002 69982 70272 8452/ 333 20007 3/000 43049 55003 70014 84640 88460 93100;
0174172030999992000022509004+38870+040500FM-12+117799999V0209999C00001036001CN0200001N1+00461+00021999999ADDGA1021+009909069GF107991021051008001011001MA1999999088601MD1410001+9999ME1315159REMSYN082AAXX  25094 17203 42570 70000 10046 20002 38860 48515 54000 82510 333 82633 87459;
0185172030999992000022512004+38870+040500FM-12+117799999V0202801N00151036001CN0200001N1+00441-00031999999ADDAA199000021GA1021+009909069GF107991021051008001071001MA1999999088511MD1710091+9999ME1315079REMSYN082AAXX  25124 17203 32570 72803 10044 21003 38851 48507 57009 82570 333 82633 87459;
0152172030999992000022515004+38870+040500FM-12+117799999V0209999C000012200019N0200001N1+00201-00181999999ADDGF103991031011012501001001MA1999999088501MD1610011+9999ME1315049REMSYN076AAXX  25154 17203 42670 30000 10020 21018 38850 48504 56001 83100 333 10217;
0217172030999992000022518004+38870+040500FM-12+117799999V0209999C000012200019N0200001N1+00061-00181999999ADDAA199000091GA1031+012009029GF103991031011012501001001KA1120M+00541MA1999999088601MD1210101+9999ME1315139REMSYN082AAXX  25184 17203 32670 30000 10006 21018 38860 48513 52010 83100 333 10054 83840;EQDQ01  00002PRCP99
0174172030999992000022521004+38870+040500FM-12+117799999V0201601N00311036001CN0200001N1+00021-00331999999ADDGA1021+012009069GF106991021051012501011001MA1999999088861MD1110051+9999ME1315389REMSYN082AAXX  25214 17203 42670 61606 10002 21033 38886 48538 51005 82510 333 82640 86460;
0182172030999992000022600004+38870+040500FM-12+117799999V0201601N003612200019N0200001N1-00081-00611999999ADDAA199000091GF104991041011012501001001MA1999999088651MD1410001+9999ME1315189REMSYN076AAXX  26004 17203 32670 41607 11008 21061 38865 48518 54000 84100 333 10235;EQDQ01  00002PRCP99
0162172030999992000022603004+38870+040500FM-12+117799999V0201801N001512200019N0200001N1-00241-00841999999ADDGA1001+999999999GF100991001001999999001001MA1999999088701MD1310051+9999ME1315209REMSYN070AAXX  26034 17203 42970 01803 11024 21084 38870 48520 53005 333 10251;
0258172030999992000022606004+38870+040500FM-12+117799999V0201801N001512200019N0200001N1-00201-00851999999ADDAA199000091AJ100469199999999GA1001+999999999GF100991001001999999001001IA1279IA2999-00609KA1120N-00481MA1999999088761MD1310061+9999ME1315259REMSYN088AAXX  26064 17203 32970 01803 11020 21085 38876 48525 53006 333 21048 3/106 43046 55014;EQDQ01  00002PRCP99
0162172030999992000022609004+38870+040500FM-12+117799999V0201501N001512200019N0200001N1+00301-00661999999ADDGA1001+999999999GF100991001001999999001001MA1999999088831MD1210071+9999ME1315349REMSYN070AAXX  26094 17203 42970 01503 10030 21066 38883 48534 52007 333 10255;
0204172030999992000022612004+38870+040500FM-12+117799999V0209999C00001036001CN0200001N1+00301-00521999999ADDAA199000091GA1031+012009089GF105991031011012501051001MA1999999088801MD1610031+9999ME1315309REMSYN082AAXX  26124 17203 32670 50000 10030 21052 38880 48530 56003 83150 333 83840 85360;EQDQ01  00002PRCP99
0152172030999992000022615004+38870+040500FM-12+117799999V0209999C000012200019N0200001N1+00001-00701999999ADDGF103991031011012501001001MA1999999088761MD1610041+9999ME1315249REMSYN076AAXX  26154 17203 42670 30000 10000 21070 38876 48524 56004 83100 333 10264;
0217172030999992000022618004+38870+040500FM-12+117799999V0209999C000012200019N0200001N1-00241-00591999999ADDAA199000091GA1011+012009029GF101991011011012501001001KA1120M+00361MA1999999088761MD1410001+9999ME1315239REMSYN082AAXX  26184 17203 32670 10000 11024 21059 38876 48523 54000 81100 333 10036 81840;EQDQ01  00002PRCP99
0152172030999992000022621004+38870+040500FM-12+117799999V0209999C000012200019N0200001N1-00401-01031999999ADDGF103991031011012501001001MA1999999088701MD1710061+9999ME1315209REMSYN076AAXX  26214 17203 42670 30000 11040 21103 38870 48520 57006 83100 333 10251;
0182172030999992000022700004+38870+040500FM-12+117799999V0209999C000019999999N0200001N1-00361-00711999999ADDAA199000091GF107991071001999999071001MA1999999088611MD1710091+9999ME1315129REMSYN076AAXX  27004 17203 32970 70000 11036 21071 38861 48512 57009 87070 333 10242;EQDQ01  00002PRCP99
0152172030999992000022703004+38870+040500FM-12+117799999V0209999C000019999999N0200001N1-00361-00711999999ADDGF107991071001999999031001MA1999999088591MD1710021+9999ME1315089REMSYN076AAXX  27034 17203 42970 70000 11036 21071 38859 48508 57002 87030 333 10250;
0276172030999992000022706004+38870+040500FM-12+117799999V0209999C00001036001CN0200001N1-00321-00601999999ADDAA199000091AJ100429199999999GA1031+011109069GF108991031051012501021999IA1279IA2999-00609KA1120N-00431MA1999999088601MD1310011+9999ME1315089REMSYN106AAXX  27064 17203 32670 80000 11032 21060 38860 48508 53001 8352/ 333 21043 3/106 43042 55089 83637 88459;EQDQ01  00002PRCP99
0174172030999992000022709004+38870+040500FM-12+117799999V0209999C00001036001CN0200001N1+00141-00751999999ADDGA1041+012009069GF107991041051012501011001MA1999999088671MD1110061+9999ME1315169REMSYN082AAXX  27094 17203 42670 70000 10014 21075 38867 48516 51006 84510 333 84640 87460;
0152172030999992000022715004+38870+040500FM-12+117799999V0201601N003112200019N0200001N1-00181-01201999999ADDGF102991021011012501001001MA1999999088701MD1110071+9999ME1315179REMSYN076AAXX  27154 17203 42670 21606 11018 21120 38870 48517 51007 82100 333 10268;
0205172030999992000022718004+38870+040500FM-12+117799999V0201601N001512200019N0200001N1-00301-01271999999ADDAA199000091GA1001+999999999GF100991001001999999001001KA1999M+02821MA1999999088821MD1310121+9999ME1315279REMSYN070AAXX  27184 17203 32970 01603 11030 21127 38882 48527 53012 333 10282;EQDQ01  00002PRCP99
0162172030999992000022721004+38870+040500FM-12+117799999V0201601N003112200019N0200001N1-00381-01361999999ADDGA1001+999999999GF100991001001999999001001MA1999999088981MD1110161+9999ME1315449REMSYN070AAXX  27214 17203 42970 01606 11038 21136 38898 48544 51016 333 10289;
0192172030999992000022800004+38870+040500FM-12+117799999V0209999C000012200019N0200001N1-00561-01471999999ADDAA199000091GA1001+999999999GF100991001001999999001001MA1999999089021MD1110041+9999ME1315469REMSYN070AAXX  28004 17203 32970 00000 11056 21147 38902 48546 51004 333 10300;EQDQ01  00002PRCP99
0162172030999992000022803004+38870+040500FM-12+117799999V0201601N001512200019N0200001N1-00661-01531999999ADDGA1001+999999999GF100991001001999999001001MA1999999089101MD1310081+9999ME1315519REMSYN070AAXX  28034 17203 42970 01603 11066 21153 38910 48551 53008 333 10320;
0258172030999992000022806004+38870+040500FM-12+117799999V0201601N001512200019N0200001N1-00381-01361999999ADDAA199000091AJ100399199999999GA1001+999999999GF100991001001999999001001IA1279IA2999-00909KA1120N-00721MA1999999089301MD1210201+9999ME1315709REMSYN088AAXX  28064 17203 32970 01603 11038 21136 38930 48570 52020 333 21072 3/109 43039 55030;EQDQ01  00002PRCP99
0162172030999992000022809004+38870+040500FM-12+117799999V0209999C000012200019N0200001N1+00001-01221999999ADDGA1001+999999999GF100991001001999999001001MA1999999089341MD1110041+9999ME1315759REMSYN070AAXX  28094 17203 42970 00000 10000 21122 38934 48575 51004 333 10337;
0192172030999992000022812004+38870+040500FM-12+117799999V0202801N002112200019N0200001N1+00001-01431999999ADDAA199000091GA1001+999999999GF100991001001999999001001MA1999999089401MD1110061+9999ME1315799REMSYN070AAXX  28124 17203 32970 02804 10000 21143 38940 48579 51006 333 10349;EQDQ01  00002PRCP99
0162172030999992000022815004+38870+040500FM-12+117799999V0209999C000012200019N0200001N1-00201-01291999999ADDGA1001+999999999GF100991001001999999001001MA1999999089401MD1410001+9999ME1315779REMSYN070AAXX  28154 17203 42970 00000 11020 21129 38940 48577 54000 333 10355;
0162172030999992000022821004+38870+040500FM-12+117799999V0201601N002112200019N0200001N1-00751-01631999999ADDGA1001+999999999GF100991001001999999001001MA1999999089551MD1210051+9999ME1315919REMSYN070AAXX  28214 17203 42970 01604 11075 21163 38955 48591 52005 333 10373;
0152172030999992000022903004+38870+040500FM-12+117799999V0209999C000012200019N0200001N1-00851-01741999999ADDGF103991031011012501001001MA1999999089521MD1610031+9999ME1315889REMSYN076AAXX  29034 17203 42670 30000 11085 21174 38952 48588 56003 83100 333 10375;
0270172030999992000022906004+38870+040500FM-12+117799999V0209999C000012200019N0200001N1-00601-01541999999ADDAA199000091AJ100359199999999GA1021+012009029GF102991021011012501001001IA1279IA2999-01009KA1120N-00901MA1999999089601MD1310081+9999ME1315929REMSYN100AAXX  29064 17203 32670 20000 11060 21154 38960 48592 53008 82100 333 21090 3/110 43035 55091 82840;EQDQ01  00002PRCP99
0174172030999992000022909004+38870+040500FM-12+117799999V0203101N00411036001CN0200001N1-00141-01101999999ADDGA1031+012009089GF106991031011012501051001MA1999999089601MD1410001+9999ME1315949REMSYN082AAXX  29094 17203 42670 63108 11014 21110 38960 48594 54000 83150 333 83840 86360;
0182172030999992000022912004+38870+040500FM-12+117799999V0202801N002112200019N0200001N1+00031-00841999999ADDAA199000091GF103991031011012501001001MA1999999089501MD1710101+9999ME1315879REMSYN076AAXX  29124 17203 32670 32804 10003 21084 38950 48587 57010 83100 333 10367;EQDQ01  00002PRCP99
0152172030999992000022915004+38870+040500FM-12+117799999V0203301N002612200019N0200001N1-00241-00921999999ADDGF102991021011012501001001MA1999999089421MD1710081+9999ME1315779REMSYN076AAXX  29154 17203 42670 23305 11024 21092 38942 48577 57008 82100 333 10363;
0221172030999992000022918004+38870+040500FM-12+117799999V0209999C000012200019N0200001N1-00441-00971999999ADDAA199000091GA1001+999999999GF100991001001999999001001KA1999M+99999MA1999999089441MD1110021+9999ME1315799REMSYN070AAXX  29184 17203 32970 00000 11044 21097 38944 48579 51002 333 10366;EQDQ01  00002PRCP99Q02 +03662ATMX  
0162172030999992000022921004+38870+040500FM-12+117799999V0201601N002112200019N0200001N1-00601-01071999999ADDGA1001+999999999GF100991001001999999001001MA1999999089441MD1410001+9999ME1315819REMSYN070AAXX  29214 17203 42970 01604 11060 21107 38944 48581 54000 333 10360;
0162172030999992000030103004+38870+040500FM-12+117799999V0201801N002112200019N0200001N1-00841-01261999999ADDGA1001+999999999GF100991001001999999001001MA1999999089181MD1710141+9999ME1315569REMSYN070AAXX  01034 17203 42970 01804 11084 21126 38918 48556 57014 333 10335;
0258172030999992000030106004+38870+040500FM-12+117799999V0201801N001512200019N0200001N1-00581-01081999999ADDAA199000091AJ100319199999999GA1001+999999999GF100991001001999999001001IA1279IA2999-01009KA1120N-00921MA1999999089101MD1810081+9999ME1315499REMSYN088AAXX  01064 17203 32970 01803 11058 21108 38910 48549 58008 333 21092 3/110 43031 55088;EQDQ01  00002PRCP99
0174172030999992000030109004+38870+040500FM-12+117799999V0202801N00211036001CN0200001N1+00011-00901999999ADDGA1041+012009069GF107991041041012501011001MA1999999088941MD1710161+9999ME1315389REMSYN082AAXX  01094 17203 42670 72804 10001 21090 38894 48538 57016 84410 333 84640 87460;
0204172030999992000030112004+38870+040500FM-12+117799999V0202801N00211036001CN0200001N1+00101-00731999999ADDAA199000091GA1031+012009069GF105991031051012501051001MA1999999088661MD1710281+9999ME1315129REMSYN082AAXX  01124 17203 32670 52804 10010 21073 38866 48512 57028 83550 333 83640 85360;EQDQ01  00002PRCP99
0174172030999992000030115004+38870+040500FM-12+117799999V0202701N00151036001CN0200001N1-00101-00851999999ADDGA1041+012009069GF108991041051012501021999MA1999999088491MD1710171+9999ME1314969REMSYN082AAXX  01154 17203 42670 82703 11010 21085 38849 48496 57017 8452/ 333 84640 88460;
0217172030999992000030118004+38870+040500FM-12+117799999V0209999C000012200019N0200001N1-00161-00791999999ADDAA199000091GA1031+030009079GF103991031001999999031001KA1120M+00221MA1999999088461MD1810031+9999ME1314949REMSYN082AAXX  01184 17203 32970 30000 11016 21079 38846 48494 58003 83030 333 10022 83360;EQDQ01  00002PRCP99
0174172030999992000030121004+38870+040500FM-12+117799999V0209999C00001036001CN0200001N1-00281-00891999999ADDGA1031+012009069GF106991031051012501051001MA1999999088381MD1710081+9999ME1314909REMSYN082AAXX  01214 17203 42670 60000 11028 21089 38838 48490 57008 83550 333 83640 86360;
0192172030999992000030200004+38870+040500FM-12+117799999V0209999C000012200019N0200001N1-00481-01021999999ADDAA199000091GA1001+999999999GF100991001001999999001001MA1999999088301MD1710081+9999ME1314829REMSYN070AAXX  02004 17203 32970 00000 11048 21102 38830 48482 57008 333 10216;EQDQ01  00002PRCP99
0152172030999992000030203004+38870+040500FM-12+117799999V0209999C000012200019N0200001N1-00701-01161999999ADDGF103991031001000251031001MA1999999088301MD1510001+9999ME1314799REMSYN076AAXX  02034 17203 42070 30000 11070 21116 38830 48479 55000 83030 333 10228;
0270172030999992000030206004+38870+040500FM-12+117799999V0209999C000012200019N0200001N1-00401-00841999999ADDAA199000091AJ100269199999999GA1031+060009019GF103991001001999999001011IA1279IA2999-00909KA1120N-00701MA1999999088401MD1210101+9999ME1314909REMSYN100AAXX  02064 17203 32970 30000 11040 21084 38840 48490 52010 80001 333 21070 3/109 43026 55044 83070;EQDQ01  00002PRCP99
0152172030999992000030209004+38870+040500FM-12+117799999V0202501N001512200019N0200001N1+00081-00761999999ADDGF104991001001999999001021MA1999999088581MD1210181+9999ME1315089REMSYN076AAXX  02094 17203 42970 42503 10008 21076 38858 48508 52018 80002 333 10243;
0192172030999992000030212004+38870+040500FM-12+117799999V0200301N002112200019N0200001N1+00361-00571999999ADDAA199000091GA1001+999999999GF100991001001999999001001MA1999999088601MD1110021+9999ME1315109REMSYN070AAXX  02124 17203 32970 00304 10036 21057 38860 48510 51002 333 10246;EQDQ01  00002PRCP99
0162172030999992000030215004+38870+040500FM-12+117799999V0209999C000012200019N0200001N1+00201-00591999999ADDGA1001+999999999GF100991001001999999001001MA1999999088761MD1310161+9999ME1315229REMSYN070AAXX  02154 17203 42970 00000 10020 21059 38876 48522 53016 333 10270;
0205172030999992000030218004+38870+040500FM-12+117799999V0209999C000012200019N0200001N1-00201-00781999999ADDAA199000091GA1001+999999999GF100991001001999999001001KA1999M+03011MA1999999088981MD1210221+9999ME1315419REMSYN070AAXX  02184 17203 32970 00000 11020 21078 38898 48541 52022 333 10301;EQDQ01  00002PRCP99
0162172030999992000030221004+38870+040500FM-12+117799999V0209999C000012200019N0200001N1-00461-00921999999ADDGA1001+999999999GF100991001001999999001001MA1999999089101MD1210121+9999ME1315549REMSYN070AAXX  02214 17203 42970 00000 11046 21092 38910 48554 52012 333 10309;
0192172030999992000030300004+38870+040500FM-12+117799999V0209999C000012200019N0200001N1-00611-00851999999ADDAA199000091GA1001+999999999GF100991001001999999001001MA1999999089091MD1410001+9999ME1315549REMSYN070AAXX  03004 17203 32970 00000 11061 21085 38909 48554 54000 333 10303;EQDQ01  00002PRCP99
0162172030999992000030303004+38870+040500FM-12+117799999V0209999C000012200019N0200001N1-00701-01001999999ADDGA1001+999999999GF100991001001999999001001MA1999999089171MD1110071+9999ME1315599REMSYN070AAXX  03034 17203 42970 00000 11070 21100 38917 48559 51007 333 10317;
0258172030999992000030306004+38870+040500FM-12+117799999V0209999C000012200019N0200001N1-00501-00861999999ADDAA199000091AJ100249199999999GA1001+999999999GF100991001001999999001001IA1279IA2999-01009KA1120N-00861MA1999999089401MD1210231+9999ME1315789REMSYN088AAXX  03064 17203 32970 00000 11050 21086 38940 48578 52023 333 21086 3/110 43024 55087;EQDQ01  00002PRCP99
0162172030999992000030309004+38870+040500FM-12+117799999V0209999C000012200019N0200001N1+00041-00721999999ADDGA1001+999999999GF100991001001999999001001MA1999999089501MD1210101+9999ME1315899REMSYN070AAXX  03094 17203 42970 00000 10004 21072 38950 48589 52010 333 10355;
0192172030999992000030312004+38870+040500FM-12+117799999V0209999C000012200019N0200001N1+00421-00851999999ADDAA199000091GA1001+999999999GF100991001001999999001001MA1999999089351MD1710141+9999ME1315789REMSYN070AAXX  03124 17203 32970 00000 10042 21085 38935 48578 57014 333 10333;EQDQ01  00002PRCP99
0162172030999992000030315004+38870+040500FM-12+117799999V0209999C000012200019N0200001N1+00101-00531999999ADDGA1001+999999999GF100991001001999999001001MA1999999089321MD1610041+9999ME1315729REMSYN070AAXX  03154 17203 42970 00000 10010 21053 38932 48572 56004 333 10340;
0162172030999992000030321004+38870+040500FM-12+117799999V0209999C000012200019N0200001N1-00341-00791999999ADDGA1001+999999999GF100991001001999999001001MA1999999089331MD1810051+9999ME1315759REMSYN070AAXX  03214 17203 42970 00000 11034 21079 38933 48575 58005 333 10336;
0192172030999992000030400004+38870+040500FM-12+117799999V0209999C000012200019N0200001N1-00531-00901999999ADDAA199000091GA1001+999999999GF100991001001999999001001MA1999999089201MD1810131+9999ME1315659REMSYN070AAXX  04004 17203 32970 00000 11053 21090 38920 48565 58013 333 10315;EQDQ01  00002PRCP99
0162172030999992000030403004+38870+040500FM-12+117799999V0209999C000012200019N0200001N1-00601-00951999999ADDGA1001+999999999GF100991001001999999001001MA1999999089101MD1610101+9999ME1315539REMSYN070AAXX  04034 17203 42970 00000 11060 21095 38910 48553 56010 333 10309;
0276172030999992000030406004+38870+040500FM-12+117799999V0209999C00001036001CN0200001N1-00501-00901999999ADDAA199000091AJ100239199999999GA1031+012009089GF106991031011012501051001IA1279IA2999-00909KA1120N-00751MA1999999089071MD1510031+9999ME1315499REMSYN106AAXX  04064 17203 32670 60000 11050 21090 38907 48549 55003 83150 333 21075 3/109 43023 55088 83840 86360;EQDQ01  00002PRCP99
0157172030999992000030409004+38870+040500FM-12+117799999V0209999C000010360019N0200001N1-00061-00581999999ADDGF107991041051012501021001MA1999999089001MD1810071+9999ME1315459REMSYN081AAXX  04094 17203 42670 70000 11006 21058 38900 48545 58007 84520 333 8460 87460;
0204172030999992000030412004+38870+040500FM-12+117799999V0209999C00001036001CN0200001N1+00081-00491999999ADDAA199000091GA1041+012009069GF108991041051012501021999MA1999999088881MD1710121+9999ME1315339REMSYN082AAXX  04124 17203 32670 80000 10008 21049 38888 48533 57012 8452/ 333 84640 88460;EQDQ01  00002PRCP99
0174172030999992000030415004+38870+040500FM-12+117799999V0209999C00001036001CN0200001N1+00001-00501999999ADDGA1041+012009069GF107991041051012501021001MA1999999088851MD1710031+9999ME1315309REMSYN082AAXX  04154 17203 42670 70000 10000 21050 38885 48530 57003 84520 333 84640 87460;
0205172030999992000030418004+38870+040500FM-12+117799999V0209999C000012200019N0200001N1-00261-00461999999ADDAA199000091GA1001+999999999GF100991001001999999001001KA1999M+03011MA1999999088931MD1210081+9999ME1315369REMSYN070AAXX  04184 17203 32970 00000 11026 21046 38893 48536 52008 333 10301;EQDQ01  00002PRCP99
0162172030999992000030421004+38870+040500FM-12+117799999V0209999C000012200019N0200001N1-00461-00841999999ADDGA1001+999999999GF100991001001999999001001MA1999999089001MD1110071+9999ME1315449REMSYN070AAXX  04214 17203 42970 00000 11046 21084 38900 48544 51007 333 10303;
0162172030999992000030500004+38870+040500FM-12+117799999V0209999C000012200019N0200001N1-00601-00771999999ADDGA1001+999999999GF100991001001999999001001MA1999999089081MD1210081+9999ME1315529REMSYN070AAXX  05004 17203 42970 00000 11060 21077 38908 48552 52008 333 10312;
0162172030999992000030503004+38870+040500FM-12+117799999V0209999C000012200019N0200001N1-00681-00871999999ADDGA1001+999999999GF100991001001999999001001MA1999999089111MD1310031+9999ME1315539REMSYN070AAXX  05034 17203 42970 00000 11068 21087 38911 48553 53003 333 10316;
0258172030999992000030506004+38870+040500FM-12+117799999V0209999C000012200019N0200001N1-00401-00771999999ADDAA199000091AJ100199199999999GA1001+999999999GF100991001001999999001001IA1279IA2999-01009KA1120N-00761MA1999999089251MD1210141+9999ME1315659REMSYN088AAXX  05064 17203 32970 00000 11040 21077 38925 48565 52014 333 21076 3/110 43019 55001;EQDQ01  00002PRCP99
0162172030999992000030509004+38870+040500FM-12+117799999V0203601N001512200019N0200001N1+00121-00511999999ADDGA1001+999999999GF100991001001999999001001MA1999999089301MD1110051+9999ME1315729REMSYN070AAXX  05094 17203 42970 03603 10012 21051 38930 48572 51005 333 10332;
0192172030999992000030512004+38870+040500FM-12+117799999V0200301N001512200019N0200001N1+00401-00391999999ADDAA199000091GA1001+999999999GF100991001001999999001001MA1999999089241MD1810061+9999ME1315689REMSYN070AAXX  05124 17203 32970 00303 10040 21039 38924 48568 58006 333 10320;EQDQ01  00002PRCP99
0162172030999992000030515004+38870+040500FM-12+117799999V0209999C000012200019N0200001N1+00201-00531999999ADDGA1001+999999999GF100991001001999999001001MA1999999089201MD1610041+9999ME1315629REMSYN070AAXX  05154 17203 42970 00000 10020 21053 38920 48562 56004 333 10320;
0205172030999992000030518004+38870+040500FM-12+117799999V0209999C000012200019N0200001N1-00181-00611999999ADDAA199000091GA1001+999999999GF100991001001999999001001KA1999M+03311MA1999999089241MD1310061+9999ME1315659REMSYN070AAXX  05184 17203 32970 00000 11018 21061 38924 48565 53006 333 10331;EQDQ01  00002PRCP99
0152172030999992000030521004+38870+040500FM-12+117799999V0209999C000012200019N0200001N1-00341-00621999999ADDGF103991031001999999031001MA1999999089221MD1810021+9999ME1315669REMSYN076AAXX  05214 17203 42970 30000 11034 21062 38922 48566 58002 83030 333 10317;
0204172030999992000030600004+38870+040500FM-12+117799999V0209999C00001036001CN0200001N1-00301-00611999999ADDAA199000091GA1041+012009069GF107991041051012501021001MA1999999089141MD1810081+9999ME1315619REMSYN082AAXX  06004 17203 32670 70000 11030 21061 38914 48561 58008 84520 333 84640 87460;EQDQ01  00002PRCP99
0174172030999992000030603004+38870+040500FM-12+117799999V0209999C00001036001CN0200001N1-00281-00611999999ADDGA1041+012009069GF107991041051012501021001MA1999999089001MD1710141+9999ME1315479REMSYN082AAXX  06034 17203 42670 70000 11028 21061 38900 48547 57014 84520 333 84640 87460;
0174172030999992000030609004+38870+040500FM-12+117799999V0209999C00001036001CN0200001N1+00101-00411999999ADDGA1041+012009069GF108991041051012501021999MA1999999088851MD1710091+9999ME1315359REMSYN082AAXX  06094 17203 42670 80000 10010 21041 38885 48535 57009 8452/ 333 84640 88460;
0204172030999992000030612004+38870+040500FM-12+117799999V0209999C00001036001CN0200001N1+00271-00261999999ADDAA199000091GA1041+012009069GF108991041051012501021999MA1999999088621MD1710231+9999ME1315129REMSYN082AAXX  06124 17203 32670 80000 10027 21026 38862 48512 57023 8452/ 333 84640 88460;EQDQ01  00002PRCP99
0224172030999992000030615004+38870+040500FM-12+117799999V0209999C000010108019N0020001N1+00101-00011999999ADDAY121031AY221031GA1021+004509079GA2041+010809069GF108991061071004501021999MA1999999088451MD1710171+9999ME1314979MW1711REMSYN094AAXX  06154 17203 41420 80000 10010 21001 38845 48497 57017 77122 8672/ 333 82715 84636 88457;
0292172030999992000030618004+38870+040500FM-12+117799999V0209999C000010099019N0006001N1+00021-00121999999ADDAA112006191AL10600591AY121061AY221061GA1021+003909079GA2051+009909069GA3081+021009049GF108991071071004501021999KA1120M+00361MA1999999088321MD1710131+9999ME1314859MW1731REMSYN112AAXX  06184 17203 11406 80000 10002 21012 38832 48485 57013 60062 77322 8772/ 333 10036 82713 85633 88457 93105;
0329172030999992000030706004+38870+040500FM-12+117799999V0200601N003610120019N0200001N1+00301+00081999999ADDAA112035191AJ100409199999999AL10600491AY171061AY261061GA1051+012009069GA2081+030009049GF108991051051012501021999IA1279IA2999-00109KA1120N+00001MA1999999087671MD1710131+9999ME1314289MW1021REMSYN130AAXX  07064 17203 11670 80607 10030 20008 38767 48428 57013 60352 70276 8552/ 333 20000 3/101 43040 55001 70414 85640 88460 93104;
0202172030999992000030709004+38870+040500FM-12+117799999V0200701N001510105019N0060001N1+00161+00031999999ADDAY171031AY271031GA1051+010509069GF108991051051012501021999MA1999999087701MD1110031+9999ME1314309MW1711REMSYN088AAXX  07094 17203 41656 80703 10016 20003 38770 48430 51003 77177 8552/ 333 85635 88457;
0273172030999992000030712004+38870+040500FM-12+117799999V0201601N003110090019N0008001N1-00081-00251999999ADDAA106020191AL10601091AY121061AY221061GA1021+003609079GA2041+009009069GA3081+027009049GF108991061071004501021999MA1999999087661MD1810041+9999ME1314259MW1731REMSYN106AAXX  07124 17203 11408 81606 11008 21025 38766 48425 58004 60201 77322 8672/ 333 82712 84630 88459 93110;
0224172030999992000030715004+38870+040500FM-12+117799999V0201601N005710099019N0008001N1-00321-00471999999ADDAY171031AY271031GA1021+004209079GA2041+009909069GF108991061071004501021999MA1999999087661MD1510001+9999ME1314249MW1711REMSYN094AAXX  07154 17203 41408 81611 11032 21047 38766 48424 55000 77177 8672/ 333 82714 84633 88459;
0292172030999992000030718004+38870+040500FM-12+117799999V0201601N005110090019N0006001N1-00451-00601999999ADDAA112034091AL10602991AY171061AY271061GA1021+003609079GA2041+009009069GA3081+024009049GF108991061071004501021999KA1120M+00321MA1999999087701MD1110041+9999ME1314289MW1711REMSYN112AAXX  07184 17203 11406 81610 11045 21060 38770 48428 51004 60342 77177 8672/ 333 10032 82712 84630 88458 93129;
0202172030999992000030721004+38870+040500FM-12+117799999V0201601N004110105019N0060001N1-00301-00811999999ADDAY171031AY271031GA1051+010509069GF108991051051012501021999MA1999999087531MD1810171+9999ME1314129MW1711REMSYN088AAXX  07214 17203 41656 81608 11030 21081 38753 48412 58017 77177 8552/ 333 85635 88458;
0251172030999992000030800004+38870+040500FM-12+117799999V0201601N004110099019N0020001N1-00421-00621999999ADDAA106007191AL10601291AY171061AY271061GA1051+009909069GA2081+021009049GF108991051051008001021999MA1999999087571MD1110041+9999ME1314149MW1711REMSYN100AAXX  08004 17203 11520 81608 11042 21062 38757 48414 51004 60071 77177 8552/ 333 85633 88457 93112;
0202172030999992000030803004+38870+040500FM-12+117799999V0201601N005110099019N0020001N1-00401-00701999999ADDAY171031AY271031GA1051+009909069GF108991051051008001021999MA1999999087571MD1410001+9999ME1314159MW1711REMSYN088AAXX  08034 17203 41520 81610 11040 21070 38757 48415 54000 77177 8552/ 333 85633 88457;
0202172030999992000030809004+38870+040500FM-12+117799999V0201601N00461036001CN0200001N1+00001-00531999999ADDAY171031AY221031GA1041+012009069GF108991041051012501021999MA1999999088271MD1210301+9999ME1314839MW1021REMSYN088AAXX  08094 17203 41670 81609 10000 21053 38827 48483 52030 70272 8452/ 333 84640 88460;
0162172030999992000030815004+38870+040500FM-12+117799999V0201601N001512200019N0200001N1+00001-00871999999ADDGA1001+999999999GF100991001001999999001001MA1999999088501MD1310141+9999ME1315009REMSYN070AAXX  08154 17203 42970 01603 10000 21087 38850 48500 53014 333 10204;
0192172030999992000030818004+38870+040500FM-12+117799999V0209999C000012200019N0200001N1-00401-00991999999ADDAA112000191GA1001+999999999GF100991001001999999001001KA1999M+02761MA1999999088721MD1210221+9999ME1315179REMSYN076AAXX  08184 17203 12970 00000 11040 21099 38872 48517 52022 69912 333 10276;
0162172030999992000030821004+38870+040500FM-12+117799999V0201601N004112200019N0200001N1-00421-01021999999ADDGA1001+999999999GF100991001001999999001001MA1999999088841MD1210121+9999ME1315309REMSYN070AAXX  08214 17203 42970 01608 11042 21102 38884 48530 52012 333 10279;
0192172030999992000030900004+38870+040500FM-12+117799999V0209999C000012200019N0200001N1-00801-01291999999ADDAA199000091GA1001+999999999GF100991001001999999001001MA1999999088901MD1210061+9999ME1315359REMSYN070AAXX  09004 17203 32970 00000 11080 21129 38890 48535 52006 333 10292;EQDQ01  00002PRCP99
0162172030999992000030903004+38870+040500FM-12+117799999V0209999C000012200019N0200001N1-01021-01311999999ADDGA1001+999999999GF100991001001999999001001MA1999999088901MD1210101+9999ME1315319REMSYN070AAXX  09034 17203 42970 00000 11102 21131 38890 48531 52010 333 10303;
0258172030999992000030906004+38870+040500FM-12+117799999V0209999C000012200019N0200001N1-00601-01111999999ADDAA199000091AJ100409199999999GA1001+999999999GF100991001001999999001001IA1279IA2999-01509KA1120N-01101MA1999999089161MD1210161+9999ME1315559REMSYN088AAXX  09064 17203 32970 00000 11060 21111 38916 48555 52016 333 21110 3/115 43040 55033;EQDQ01  00002PRCP99
0162172030999992000030909004+38870+040500FM-12+117799999V0200401N001512200019N0200001N1-00161-01041999999ADDGA1001+999999999GF100991001001999999001001MA1999999089211MD1310051+9999ME1315629REMSYN070AAXX  09094 17203 42970 00403 11016 21104 38921 48562 53005 333 10327;
0192172030999992000030912004+38870+040500FM-12+117799999V0209999C000012200019N0200001N1+00101-00931999999ADDAA199000091GA1001+999999999GF100991001001999999001001MA1999999089211MD1010001+9999ME1315629REMSYN070AAXX  09124 17203 32970 00000 10010 21093 38921 48562 50000 333 10333;EQDQ01  00002PRCP99
0162172030999992000030915004+38870+040500FM-12+117799999V0200101N001512200019N0200001N1-00201-00931999999ADDGA1001+999999999GF100991001001999999001001MA1999999089121MD1710091+9999ME1315509REMSYN070AAXX  09154 17203 42970 00103 11020 21093 38912 48550 57009 333 10334;
0221172030999992000030918004+38870+040500FM-12+117799999V0209999C000012200019N0200001N1-00501-00971999999ADDAA199000091GA1001+999999999GF100991001001999999001001KA1999M+99999MA1999999089161MD1310041+9999ME1315549REMSYN070AAXX  09184 17203 32970 00000 11050 21097 38916 48554 53004 333 10339;EQDQ01  00002PRCP99Q02 +03392ATMX  
0162172030999992000030921004+38870+040500FM-12+117799999V0209999C000012200019N0200001N1-00701-01081999999ADDGA1001+999999999GF100991001001999999001001MA1999999089171MD1110011+9999ME1315579REMSYN070AAXX  09214 17203 42970 00000 11070 21108 38917 48557 51001 333 10328;
0192172030999992000031000004+38870+040500FM-12+117799999V0209999C000012200019N0200001N1-01001-01331999999ADDAA199000091GA1001+999999999GF100991001001999999001001MA1999999089101MD1810071+9999ME1315509REMSYN070AAXX  10004 17203 32970 00000 11100 21133 38910 48550 58007 333 10320;EQDQ01  00002PRCP99
0162172030999992000031003004+38870+040500FM-12+117799999V0209999C000012200019N0200001N1-01061-01361999999ADDGA1001+999999999GF100991001001999999001001MA1999999089081MD1610021+9999ME1315469REMSYN070AAXX  10034 17203 42970 00000 11106 21136 38908 48546 56002 333 10330;
0270172030999992000031006004+38870+040500FM-12+117799999V0209999C000012200019N0200001N1-00601-01031999999ADDAA199000091AJ100379199999999GA1021+012009029GF102991021011012501001001IA1279IA2999-01509KA1120N-01091MA1999999089081MD1410001+9999ME1315479REMSYN100AAXX  10064 17203 32670 20000 11060 21103 38908 48547 54000 82100 333 21109 3/115 43037 55091 82840;EQDQ01  00002PRCP99
0174172030999992000031009004+38870+040500FM-12+117799999V0209999C000012200019N0200001N1-00101-00781999999ADDGA1011+012009089GF104991011011012501001011MA1999999089081MD1010001+9999ME1315499REMSYN082AAXX  10094 17203 42670 40000 11010 21078 38908 48549 50000 81101 333 81840 84070;
0198172030999992000031012004+38870+040500FM-12+117799999V0203501N001512200019N0200001N1+00121-00781999999ADDAA199000091GF103991001001999999001011MA1999999089031MD1610051+9999ME1315449REMSYN076AAXX  10124 17203 32970 33503 10012 21078 38903 48544 56005 83001 333 10312;EQDQ01+000032SCOTLCQ02  00002PRCP99
0174172030999992000031015004+38870+040500FM-12+117799999V0200201N00151036001CN0200001N1-00161-00721999999ADDGA1031+010509069GF108991031051012501011999MA1999999089021MD1510011+9999ME1315419REMSYN082AAXX  10154 17203 42670 80203 11016 21072 38902 48541 55001 8351/ 333 83635 88459;
0174172030999992000031021004+38870+040500FM-12+117799999V0209999C00001036001CN0200001N1-00161-00521999999ADDGA1041+012009069GF108991041051012501021999MA1999999089001MD1810041+9999ME1315469REMSYN082AAXX  10214 17203 42670 80000 11016 21052 38900 48546 58004 8452/ 333 84640 88460;
0204172030999992000031100004+38870+040500FM-12+117799999V0209999C00001036001CN0200001N1-00201-00511999999ADDAA199000091GA1041+012009069GF108991041051012501021999MA1999999088901MD1710101+9999ME1315389REMSYN082AAXX  11004 17203 32670 80000 11020 21051 38890 48538 57010 8452/ 333 84640 88460;EQDQ01  00002PRCP99
0202172030999992000031103004+38870+040500FM-12+117799999V0209999C000010105019N0080001N1-00221-00421999999ADDAY121031AY221031GA1051+010509069GF108991051051012501021999MA1999999088721MD1710181+9999ME1315209MW1711REMSYN088AAXX  11034 17203 41658 80000 11022 21042 38872 48520 57018 77122 8552/ 333 85635 88458;
0307172030999992000031106004+38870+040500FM-12+117799999V0209999C000010105019N0060001N1-00221-00391999999ADDAA112000391AJ100389199999999AL10600391AY121061AY221061GA1051+010509069GF108991051051012501021999IA1279IA2999-00509KA1120N-00301MA1999999088601MD1710121+9999ME1315099MW1711REMSYN124AAXX  11064 17203 11656 80000 11022 21039 38860 48509 57012 69932 77122 8552/ 333 21030 3/105 43038 55073 70003 85635 93103;
0202172030999992000031109004+38870+040500FM-12+117799999V0209999C000010090019N0030001N1+00041-00051999999ADDAY171031AY271031GA1051+009009069GF108991051051008001021999MA1999999088501MD1710101+9999ME1315019MW1731REMSYN088AAXX  11094 17203 41530 80000 10004 21005 38850 48501 57010 77377 8552/ 333 85630 88457;
0251172030999992000031112004+38870+040500FM-12+117799999V0200401N001510105019N0100001N1+00361+00051999999ADDAA106010991AL10601191AY171061AY271061GA1051+010509069GA2081+024009049GF108991051051012501021999MA1999999088321MD1710181+9999ME1314879MW1681REMSYN100AAXX  11124 17203 11660 80403 10036 20005 38832 48487 57018 60111 76877 8552/ 333 85635 88458 93111;
0202172030999992000031115004+38870+040500FM-12+117799999V0209999C00001036001CN0200001N1+00221+00011999999ADDAY171031AY261031GA1041+012009069GF108991041051012501021999MA1999999088401MD1310081+9999ME1314939MW1211REMSYN088AAXX  11154 17203 41670 80000 10022 20001 38840 48493 53008 72176 8452/ 333 84640 88460;
0270172030999992000031118004+38870+040500FM-12+117799999V0201301N001510270019N0200001N1+00161-00391999999ADDAA112011991AL10600091AY171061AY261061GA1031+011109069GA2081+027009049GF108991031051012501021999KA1120M+00521MA1999999088551MD1210151+9999ME1315069MW1011REMSYN106AAXX  11184 17203 11670 81303 10016 21039 38855 48506 52015 60122 70176 8352/ 333 10052 83637 88459 93100;
0152172030999992000031121004+38870+040500FM-12+117799999V0201801N002112200019N0200001N1+00021-00511999999ADDGF103991031011012501001001MA1999999088621MD1110071+9999ME1315139REMSYN076AAXX  11214 17203 42670 31804 10002 21051 38862 48513 51007 83100 333 10242;
0173172030999992000031200004+38870+040500FM-12+117799999V0202001N001512200019N0200001N1-00101-00711999999ADDAA199000021GA1001+999999999GF100991001001999999001001MA1999999088631MD1310011+9999ME1315159REMSYN070AAXX  12004 17203 32970 02003 11010 21071 38863 48515 53001 333 10238;
0162172030999992000031203004+38870+040500FM-12+117799999V0209999C000012200019N0200001N1-00501-01051999999ADDGA1001+999999999GF100991001001999999001001MA1999999088701MD1210071+9999ME1315259REMSYN070AAXX  12034 17203 42970 00000 11050 21105 38870 48525 52007 333 10263;
0245172030999992000031206004+38870+040500FM-12+117799999V0209999C000012200019N0200001N1-00161-00761999999ADDAA124012491AJ100329199999999GA1001+999999999GF100991001001999999001001IA1279IA2999-01109KA1120N-00521MA1999999088831MD1210131+9999ME1315329REMSYN094AAXX  12064 17203 32970 00000 11016 21076 38883 48532 52013 333 21052 3/111 43032 55001 70125;
0162172030999992000031209004+38870+040500FM-12+117799999V0203601N001512200019N0200001N1+00241-00751999999ADDGA1001+999999999GF100991001001999999001001MA1999999088901MD1110071+9999ME1315409REMSYN070AAXX  12094 17203 42970 03603 10024 21075 38890 48540 51007 333 10269;
0192172030999992000031212004+38870+040500FM-12+117799999V0209999C000012200019N0200001N1+00401-00651999999ADDAA199000091GA1001+999999999GF100991001001999999001001MA1999999088901MD1410001+9999ME1315409REMSYN070AAXX  12124 17203 32970 00000 10040 21065 38890 48540 54000 333 10263;EQDQ01  00002PRCP99
0162172030999992000031215004+38870+040500FM-12+117799999V0209999C000012200019N0200001N1+00081-00911999999ADDGA1001+999999999GF100991001001999999001001MA1999999088901MD1410001+9999ME1315369REMSYN070AAXX  12154 17203 42970 00000 10008 21091 38890 48536 54000 333 10286;
0177172030999992000031218004+38870+040500FM-12+117799999V0209999C000012200019N0200001N1-00281-00861999999ADDAA199000091GA1001+999999999GF100991001001999999001001MA1999999088921ME1315379REMSYN069AAXX  12184 17203 32970 00000 11028 21086 38892 48537 5300 333 10288;EQDQ01  00002PRCP99
0162172030999992000031221004+38870+040500FM-12+117799999V0209999C000012200019N0200001N1-00501-00971999999ADDGA1001+999999999GF100991001001999999001001MA1999999088921MD1010001+9999ME1315389REMSYN070AAXX  12214 17203 42970 00000 11050 21097 38892 48538 50000 333 10283;
0182172030999992000031300004+38870+040500FM-12+117799999V0209999C000012200019N0200001N1-00681-01131999999ADDAA199000091GF103991031011012501001001MA1999999088861MD1710061+9999ME1315329REMSYN076AAXX  13004 17203 32670 30000 11068 21113 38886 48532 57006 83100 333 10276;EQDQ01  00002PRCP99
0162172030999992000031303004+38870+040500FM-12+117799999V0209999C000012200019N0200001N1-00781-01181999999ADDGA1001+999999999GF100991001001999999001001MA1999999088801MD1710061+9999ME1315259REMSYN070AAXX  13034 17203 42970 00000 11078 21118 38880 48525 57006 333 10286;
0258172030999992000031306004+38870+040500FM-12+117799999V0209999C000012200019N0200001N1-00441-00931999999ADDAA199000091AJ100289199999999GA1001+999999999GF100991001001999999001001IA1279IA2999-01009KA1120N-00861MA1999999088961MD1310161+9999ME1315389REMSYN088AAXX  13064 17203 32970 00000 11044 21093 38896 48538 53016 333 21086 3/110 43028 55088;EQDQ01  00002PRCP99
0162172030999992000031309004+38870+040500FM-12+117799999V0209999C000012200019N0200001N1+00101-00561999999ADDGA1001+999999999GF100991001001999999001001MA1999999088931MD1810031+9999ME1315429REMSYN070AAXX  13094 17203 42970 00000 10010 21056 38893 48542 58003 333 10289;
0192172030999992000031312004+38870+040500FM-12+117799999V0209999C000012200019N0200001N1+00281-00581999999ADDAA199000091GA1001+999999999GF100991001001999999001001MA1999999088801MD1610131+9999ME1315269REMSYN070AAXX  13124 17203 32970 00000 10028 21058 38880 48526 56013 333 10274;EQDQ01  00002PRCP99
0162172030999992000031315004+38870+040500FM-12+117799999V0209999C000012200019N0200001N1+00051-00731999999ADDGA1001+999999999GF100991001001999999001001MA1999999088751MD1610051+9999ME1315259REMSYN070AAXX  13154 17203 42970 00000 10005 21073 38875 48525 56005 333 10280;
0217172030999992000031318004+38870+040500FM-12+117799999V0209999C000012200019N0200001N1-00021-00531999999ADDAA199000091GA1031+030009079GF103991031001999999031001KA1120M+00481MA1999999088801MD1010051+9999ME1315269REMSYN082AAXX  13184 17203 32970 30000 11002 21053 38880 48526 50005 83030 333 10048 83360;EQDQ01  00002PRCP99
0162172030999992000031321004+38870+040500FM-12+117799999V0201601N003112200019N0200001N1-00181-00751999999ADDGA1001+999999999GF100991001001999999001001MA1999999088831MD1210031+9999ME1315329REMSYN070AAXX  13214 17203 42970 01606 11018 21075 38883 48532 52003 333 10266;
0182172030999992000031400004+38870+040500FM-12+117799999V0209999C000012200019N0200001N1-00301-00921999999ADDAA199000091GF103991031051012501001001MA1999999088861MD1110031+9999ME1315359REMSYN076AAXX  14004 17203 32670 30000 11030 21092 38886 48535 51003 83500 333 10270;EQDQ01  00002PRCP99
0162172030999992000031403004+38870+040500FM-12+117799999V0201801N001512200019N0200001N1-00501-01221999999ADDGA1001+999999999GF100991001001999999001001MA1999999088901MD1310041+9999ME1315359REMSYN070AAXX  14034 17203 42970 01803 11050 21122 38890 48535 53004 333 10286;
0258172030999992000031406004+38870+040500FM-12+117799999V0209999C000012200019N0200001N1-00241-01121999999ADDAA199000091AJ100249199999999GA1001+999999999GF100991001001999999001001IA1279IA2999-00909KA1120N-00541MA1999999089001MD1210101+9999ME1315469REMSYN088AAXX  14064 17203 32970 00000 11024 21112 38900 48546 52010 333 21054 3/109 43024 55091;EQDQ01  00002PRCP99
0152172030999992000031409004+38870+040500FM-12+117799999V0202601N002112200019N0200001N1+00101-00881999999ADDGF101991011011012501001001MA1999999089031MD1110031+9999ME1315509REMSYN076AAXX  14094 17203 42670 12604 10010 21088 38903 48550 51003 81100 333 10290;
0182172030999992000031412004+38870+040500FM-12+117799999V0202501N004612200019N0200001N1+00081-01081999999ADDAA199000091GF101991011011012501001001MA1999999088981MD1810051+9999ME1315449REMSYN076AAXX  14124 17203 32670 12509 10008 21108 38898 48544 58005 81100 333 10289;EQDQ01  00002PRCP99
0162172030999992000031415004+38870+040500FM-12+117799999V0209999C000012200019N0200001N1-00181-01251999999ADDGA1001+999999999GF100991001001999999001001MA1999999089061MD1310081+9999ME1315489REMSYN070AAXX  14154 17203 42970 00000 11018 21125 38906 48548 53008 333 10310;
0221172030999992000031418004+38870+040500FM-12+117799999V0209999C000012200019N0200001N1-00421-01331999999ADDAA199000091GA1001+999999999GF100991001001999999001001KA1999M+99999MA1999999089201MD1210141+9999ME1315609REMSYN070AAXX  14184 17203 32970 00000 11042 21133 38920 48560 52014 333 10326;EQDQ01  00002PRCP99Q02 +03262ATMX  
0162172030999992000031421004+38870+040500FM-12+117799999V0201801N002112200019N0200001N1-00721-01471999999ADDGA1001+999999999GF100991001001999999001001MA1999999089271MD1010071+9999ME1315669REMSYN070AAXX  14214 17203 42970 01804 11072 21147 38927 48566 50007 333 10334;
0192172030999992000031500004+38870+040500FM-12+117799999V0201801N001512200019N0200001N1-00851-01741999999ADDAA199000091GA1001+999999999GF100991001001999999001001MA1999999089231MD1610041+9999ME1315639REMSYN070AAXX  15004 17203 32970 01803 11085 21174 38923 48563 56004 333 10335;EQDQ01  00002PRCP99
0162172030999992000031503004+38870+040500FM-12+117799999V0201801N002612200019N0200001N1-01001-01801999999ADDGA1001+999999999GF100991001001999999001001MA1999999089201MD1810031+9999ME1315589REMSYN070AAXX  15034 17203 42970 01805 11100 21180 38920 48558 58003 333 10344;
0258172030999992000031506004+38870+040500FM-12+117799999V0209999C000012200019N0200001N1-00421-01331999999ADDAA199000091AJ100219199999999GA1001+999999999GF100991001001999999001001IA1279IA2999-01209KA1120N-01051MA1999999089281MD1310081+9999ME1315679REMSYN088AAXX  15064 17203 32970 00000 11042 21133 38928 48567 53008 333 21105 3/112 43021 55092;EQDQ01  00002PRCP99
0162172030999992000031509004+38870+040500FM-12+117799999V0209999C000012200019N0200001N1+00101-01341999999ADDGA1001+999999999GF100991001001999999001001MA1999999089301MD1110021+9999ME1315709REMSYN070AAXX  15094 17203 42970 00000 10010 21134 38930 48570 51002 333 10338;
0192172030999992000031512004+38870+040500FM-12+117799999V0202801N002112200019N0200001N1+00121-01061999999ADDAA199000091GA1001+999999999GF100991001001999999001001MA1999999089261MD1610041+9999ME1315659REMSYN070AAXX  15124 17203 32970 02804 10012 21106 38926 48565 56004 333 10339;EQDQ01  00002PRCP99
0162172030999992000031515004+38870+040500FM-12+117799999V0202801N002112200019N0200001N1-00201-01291999999ADDGA1001+999999999GF100991001001999999001001MA1999999089261MD1410001+9999ME1315629REMSYN070AAXX  15154 17203 42970 02804 11020 21129 38926 48562 54000 333 10351;
0221172030999992000031518004+38870+040500FM-12+117799999V0209999C000012200019N0200001N1-00501-01221999999ADDAA199000091GA1001+999999999GF100991001001999999001001KA1999M+99999MA1999999089301MD1310041+9999ME1315689REMSYN070AAXX  15184 17203 32970 00000 11050 21122 38930 48568 53004 333 10349;EQDQ01  00002PRCP99Q02 +03492ATMX  
0162172030999992000031521004+38870+040500FM-12+117799999V0209999C000012200019N0200001N1-00701-01341999999ADDGA1001+999999999GF100991001001999999001001MA1999999089341MD1110041+9999ME1315749REMSYN070AAXX  15214 17203 42970 00000 11070 21134 38934 48574 51004 333 10342;
0192172030999992000031600004+38870+040500FM-12+117799999V0209999C000012200019N0200001N1-00841-01551999999ADDAA199000091GA1001+999999999GF100991001001999999001001MA1999999089341MD1410001+9999ME1315729REMSYN070AAXX  16004 17203 32970 00000 11084 21155 38934 48572 54000 333 10348;EQDQ01  00002PRCP99
0162172030999992000031603004+38870+040500FM-12+117799999V0209999C000012200019N0200001N1-00921-01561999999ADDGA1001+999999999GF100991001001999999001001MA1999999089281MD1710061+9999ME1315569REMSYN070AAXX  16034 17203 42970 00000 11092 21156 38928 48556 57006 333 10353;
0270172030999992000031606004+38870+040500FM-12+117799999V0209999C000012200019N0200001N1-00501-01421999999ADDAA199000091AJ100189199999999GA1031+060009019GF103991001001999999001011IA1279IA2999-01209KA1120N-01021MA1999999089361MD1210081+9999ME1315739REMSYN100AAXX  16064 17203 32970 30000 11050 21142 38936 48573 52008 80001 333 21102 3/112 43018 55093 83070;EQDQ01  00002PRCP99
0162172030999992000031609004+38870+040500FM-12+117799999V0200401N001512200019N0200001N1+00001-01131999999ADDGA1001+999999999GF100991001001999999001001MA1999999089361MD1410001+9999ME1315759REMSYN070AAXX  16094 17203 42970 00403 10000 21113 38936 48575 54000 333 10351;
0192172030999992000031612004+38870+040500FM-12+117799999V0209999C000012200019N0200001N1+00321-00931999999ADDAA199000091GA1001+999999999GF100991001001999999001001MA1999999089241MD1710121+9999ME1315669REMSYN070AAXX  16124 17203 32970 00000 10032 21093 38924 48566 57012 333 10331;EQDQ01  00002PRCP99
0162172030999992000031615004+38870+040500FM-12+117799999V0202501N001512200019N0200001N1+00101-00891999999ADDGA1001+999999999GF100991001001999999001001MA1999999089201MD1610021+9999ME1315609REMSYN070AAXX  16154 17203 42970 02503 10010 21089 38920 48560 56002 333 10332;
0221172030999992000031618004+38870+040500FM-12+117799999V0209999C000012200019N0200001N1-00301-01051999999ADDAA199000091GA1001+999999999GF100991001001999999001001KA1999M+99999MA1999999089201MD1410001+9999ME1315599REMSYN070AAXX  16184 17203 32970 00000 11030 21105 38920 48559 54000 333 10332;EQDQ01  00002PRCP99Q02 +03322ATMX  
0162172030999992000031621004+38870+040500FM-12+117799999V0209999C000012200019N0200001N1-00501-01091999999ADDGA1001+999999999GF100991001001999999001001MA1999999089201MD1410001+9999ME1315629REMSYN070AAXX  16214 17203 42970 00000 11050 21109 38920 48562 54000 333 10321;
0192172030999992000031700004+38870+040500FM-12+117799999V0209999C000012200019N0200001N1-00711-01131999999ADDAA199000091GA1001+999999999GF100991001001999999001001MA1999999089201MD1410001+9999ME1315639REMSYN070AAXX  17004 17203 32970 00000 11071 21113 38920 48563 54000 333 10321;EQDQ01  00002PRCP99
0162172030999992000031703004+38870+040500FM-12+117799999V0209999C000012200019N0200001N1-00801-01081999999ADDGA1001+999999999GF100991001001999999001001MA1999999089101MD1610101+9999ME1315529REMSYN070AAXX  17034 17203 42970 00000 11080 21108 38910 48552 56010 333 10320;
0258172030999992000031706004+38870+040500FM-12+117799999V0209999C000012200019N0200001N1-00301-00811999999ADDAA199000091AJ100169199999999GA1001+999999999GF100991001001999999001001IA1279IA2999-01109KA1120N-00831MA1999999089121MD1310021+9999ME1315549REMSYN088AAXX  17064 17203 32970 00000 11030 21081 38912 48554 53002 333 21083 3/111 43016 55093;EQDQ01  00002PRCP99
0152172030999992000031709004+38870+040500FM-12+117799999V0200201N001519999999N0200001N1+00201-00731999999ADDGF107991001001999999001011MA1999999088981MD1710141+9999ME1315449REMSYN076AAXX  17094 17203 42970 70203 10020 21073 38898 48544 57014 80001 333 10295;
0182172030999992000031712004+38870+040500FM-12+117799999V0200201N001519999999N0200001N1+00501-00431999999ADDAA199000091GF108991081001999999011999MA1999999088821MD1710161+9999ME1315299REMSYN076AAXX  17124 17203 32970 80203 10050 21043 38882 48529 57016 8801/ 333 10271;EQDQ01  00002PRCP99
0152172030999992000031715004+38870+040500FM-12+117799999V0203201N001519999999N0200001N1+00441-00521999999ADDGF108991001001999999001051MA1999999088701MD1610121+9999ME1315189REMSYN076AAXX  17154 17203 42970 83203 10044 21052 38870 48518 56012 80005 333 10263;
0205172030999992000031718004+38870+040500FM-12+117799999V0209999C000012200019N0200001N1+00001-00661999999ADDAA199000091GA1001+999999999GF100991001001999999001001KA1999M+02601MA1999999088681MD1610021+9999ME1315169REMSYN070AAXX  17184 17203 32970 00000 10000 21066 38868 48516 56002 333 10260;EQDQ01  00002PRCP99
0162172030999992000031721004+38870+040500FM-12+117799999V0209999C000012200019N0200001N1-00141-00631999999ADDGA1001+999999999GF100991001001999999001001MA1999999088621MD1810061+9999ME1315139REMSYN070AAXX  17214 17203 42970 00000 11014 21063 38862 48513 58006 333 10242;
0182172030999992000031800004+38870+040500FM-12+117799999V0209999C000012200019N0200001N1-00141-00631999999ADDAA199000091GF103991031011012501001001MA1999999088461MD1710161+9999ME1315019REMSYN076AAXX  18004 17203 32670 30000 11014 21063 38846 48501 57016 83100 333 10235;EQDQ01  00002PRCP99
0202172030999992000031803004+38870+040500FM-12+117799999V0201601N00211036001CN0100001N1-00131-00581999999ADDAY111031AY211031GA1041+010509069GF108991041041012501021999MA1999999088381MD1710081+9999ME1314939MW1701REMSYN088AAXX  18034 17203 41660 81604 11013 21058 38838 48493 57008 77011 8442/ 333 84635 88458;
0329172030999992000031806004+38870+040500FM-12+117799999V0209999C000010105019N0080001N1+00021-00331999999ADDAA112000791AJ100149199999999AL10600091AY171061AY211061GA1051+010509069GA2081+024009049GF108991051051012501021999IA1279IA2999-00309KA1120N-00161MA1999999088301MD1710081+9999ME1314849MW1701REMSYN130AAXX  18064 17203 11658 80000 10002 21033 38830 48484 57008 69902 77071 8552/ 333 21016 3/103 43014 55075 79999 85635 88458 93100;
0202172030999992000031809004+38870+040500FM-12+117799999V0200601N001510105019N0080001N1+00121-00021999999ADDAY171031AY271031GA1051+010509069GF108991051051012501021999MA1999999088201MD1710101+9999ME1314759MW1681REMSYN088AAXX  18094 17203 41658 80603 10012 21002 38820 48475 57010 76877 8552/ 333 85635 88458;
0251172030999992000031812004+38870+040500FM-12+117799999V0209999C000010105019N0080001N1+00141+00051999999ADDAA106013091AL10600291AY171061AY271061GA1051+010509069GA2081+024009049GF108991051051012501021999MA1999999088101MD1810101+9999ME1314659MW1681REMSYN100AAXX  18124 17203 11658 80000 10014 20005 38810 48465 58010 60131 76877 8552/ 333 85635 88458 93102;
0174172030999992000031815004+38870+040500FM-12+117799999V0209999C00001036001CN0200001N1+00361+00051999999ADDGA1031+012009089GF105991031011012501051001MA1999999087921MD1710181+9999ME1314529REMSYN082AAXX  18154 17203 42670 50000 10036 20005 38792 48452 57018 83150 333 83840 85360;
0270172030999992000031818004+38870+040500FM-12+117799999V0209999C000010300019N0200001N1+00301-00041999999ADDAA112013091AL10600091AY171061AY221061GA1031+011409089GA2071+030009049GF107991031021012501071001KA1120M+00441MA1999999087901MD1510021+9999ME1314499MW1011REMSYN106AAXX  18184 17203 11670 70000 10030 21004 38790 48449 55002 60132 70172 83270 333 10044 83838 87460 93100;
0202172030999992000031821004+38870+040500FM-12+117799999V0200201N00151036001CN0200001N1+00241+00091999999ADDAY121031AY221031GA1031+011109069GF107991031051012501071001MA1999999087951MD1210051+9999ME1314549MW1211REMSYN088AAXX  18214 17203 41670 70203 10024 20009 38795 48454 52005 72122 83570 333 83637 87458;
0197172030999992000031900004+38870+040500FM-12+117799999V0201801N002112200019N0200001N1+00161-00221999999ADDAA106003091AY161061AY211061GF101991011011012501001001MA1999999088111MD1310161+9999ME1314689MW1021REMSYN088AAXX  19004 17203 11670 11804 10016 21022 38811 48468 53016 60031 70261 81100 333 10172;
0162172030999992000031903004+38870+040500FM-12+117799999V0201901N001512200019N0200001N1+00001-00591999999ADDGA1001+999999999GF100991001001999999001001MA1999999088321MD1210211+9999ME1314889REMSYN070AAXX  19034 17203 42970 01903 10000 21059 38832 48488 52021 333 10196;
0251172030999992000031906004+38870+040500FM-12+117799999V0201801N001512200019N0200001N1+00201-00291999999ADDAA112003091AJ100129199999999GA1001+999999999GF100991001001999999001001IA1279IA2999-00509KA1120N-00121MA1999999088511MD1210191+9999ME1315069REMSYN100AAXX  19064 17203 12970 01803 10020 21029 38851 48506 52019 60032 333 21012 3/105 43012 55000 70163;
0152172030999992000031909004+38870+040500FM-12+117799999V0209999C000012200019N0200001N1+00681-00131999999ADDGF103991031011012501001001MA1999999088641MD1210131+9999ME1315219REMSYN076AAXX  19094 17203 42670 30000 10068 21013 38864 48521 52013 83100 333 10217;
0204172030999992000031912004+38870+040500FM-12+117799999V0209999C00001036001CN0200001N1+00681-00131999999ADDAA199000091GA1041+012009089GF106991041021012501051001MA1999999088681MD1110041+9999ME1315239REMSYN082AAXX  19124 17203 32670 60000 10068 21013 38868 48523 51004 84250 333 84840 86360;EQDQ01  00002PRCP99
0174172030999992000031915004+38870+040500FM-12+117799999V0209999C000012200019N0200001N1+00641-00181999999ADDGA1021+012009089GF104991021011012501051001MA1999999088701MD1110021+9999ME1315259REMSYN082AAXX  19154 17203 42670 40000 10064 21018 38870 48525 51002 82150 333 82840 84360;
0217172030999992000031918004+38870+040500FM-12+117799999V0209999C000012200019N0200001N1+00261-00271999999ADDAA199000091GA1031+030009079GF103991031001999999031001KA1120M+00861MA1999999088741MD1310041+9999ME1315289REMSYN082AAXX  19184 17203 32970 30000 10026 21027 38874 48528 53004 83030 333 10086 83360;EQDQ01  00002PRCP99
0152172030999992000031921004+38870+040500FM-12+117799999V0209999C000012200019N0200001N1+00221-00261999999ADDGF104991041001999999031001MA1999999088781MD1110041+9999ME1315349REMSYN076AAXX  19214 17203 42970 40000 10022 21026 38878 48534 51004 84030 333 10239;
0204172030999992000032000004+38870+040500FM-12+117799999V0209999C00001036001CN0200001N1+00201-00261999999ADDAA199000091GA1041+012009089GF106991041021012501051001MA1999999088721MD1810061+9999ME1315289REMSYN082AAXX  20004 17203 32670 60000 10020 21026 38872 48528 58006 84250 333 84840 86360;EQDQ01  00002PRCP99
0174172030999992000032003004+38870+040500FM-12+117799999V0209999C00001036001CN0200001N1+00201-00211999999ADDGA1041+012009069GF107991041041012501021001MA1999999088601MD1610121+9999ME1315179REMSYN082AAXX  20034 17203 42670 70000 10020 21021 38860 48517 56012 84420 333 84640 87460;
0276172030999992000032006004+38870+040500FM-12+117799999V0209999C00001036001CN0200001N1+00381-00021999999ADDAA199000091AJ100089199999999GA1041+012009069GF107991041051012501021001IA1279IA2999-00209KA1120N+00161MA1999999088801MD1210201+9999ME1315349REMSYN106AAXX  20064 17203 32670 70000 10038 21002 38880 48534 52020 84520 333 20016 3/102 43008 55089 84640 87460;EQDQ01  00002PRCP99
0202172030999992000032009004+38870+040500FM-12+117799999V0202701N00151036001CN0100001N1+00481+00181999999ADDAY121031AY221031GA1041+010809069GF108991041051012501021999MA1999999088901MD1310101+9999ME1315439MW1611REMSYN088AAXX  20094 17203 41660 82703 10048 20018 38890 48543 53010 76122 8452/ 333 84636 88458;
0219172030999992000032012004+38870+040500FM-12+117799999V0203101N00211036001CN0100001N1+00481+00271999999ADDAA106002091AY121061AY221061GA1041+010509069GF108991041051012501021999MA1999999088921MD1110021+9999ME1315459MW1611REMSYN094AAXX  20124 17203 11660 83104 10048 20027 38892 48545 51002 60021 76122 8452/ 333 84635 88458;
0202172030999992000032015004+38870+040500FM-12+117799999V0209999C00001036001CN0200001N1+00401+00051999999ADDAY171031AY221031GA1041+012009089GF106991041021012501051001MA1999999088871MD1710051+9999ME1315409MW1031REMSYN088AAXX  20154 17203 41670 60000 10040 20005 38887 48540 57005 70372 84250 333 84840 86360;
0238172030999992000032018004+38870+040500FM-12+117799999V0209999C00001036001CN0200001N1+00301+00131999999ADDAA112003091AY161061AY221061GA1041+012009069GF106991041051012501051001KA1120M+00551MA1999999088851MD1610021+9999ME1315399MW1211REMSYN100AAXX  20184 17203 11670 60000 10030 20013 38885 48539 56002 60032 72162 84550 333 10055 84640 86360;
0174172030999992000032021004+38870+040500FM-12+117799999V0209999C00001036001CN0200001N1+00281+00151999999ADDGA1041+012009069GF107991041051012501011001MA1999999088821MD1610031+9999ME1315369REMSYN082AAXX  20214 17203 42670 70000 10028 20015 38882 48536 56003 84510 333 84640 87460;
0185172030999992000032100004+38870+040500FM-12+117799999V0209999C00001036001CN0200001N1+00201+00071999999ADDAA199000021GA1031+012009069GF105991031051012501051001MA1999999088761MD1810061+9999ME1315319REMSYN082AAXX  21004 17203 32670 50000 10020 20007 38876 48531 58006 83550 333 83640 85360;
0202172030999992000032103004+38870+040500FM-12+117799999V0209999C000010105019N0200001N1+00141+00001999999ADDAY121031AY221031GA1051+010509069GF108991051051012501021999MA1999999088781MD1010021+9999ME1315319MW1611REMSYN088AAXX  21034 17203 41670 80000 10014 20000 38878 48531 50002 76122 8552/ 333 85635 88458;
0297172030999992000032106004+38870+040500FM-12+117799999V0209999C00001036001CN0200001N1+00401+00271999999ADDAA112002091AJ100029199999999AY161061AY221061GA1041+012009069GF108991041051012501021999IA1279IA2999-00109KA1120N+00131MA1999999088771MD1810011+9999ME1315329MW1211REMSYN124AAXX  21064 17203 11670 80000 10040 20027 38877 48532 58001 60022 72162 8452/ 333 20013 3/101 43002 55012 70050 84640 88460;
0202172030999992000032109004+38870+040500FM-12+117799999V0209999C00001036001CN0150001N1+00801+00361999999ADDAY121031AY221031GA1041+010509069GF108991041051012501021999MA1999999088801MD1110031+9999ME1315379MW1611REMSYN088AAXX  21094 17203 41665 80000 10080 20036 38880 48537 51003 76122 8452/ 333 84635 88457;
0219172030999992000032112004+38870+040500FM-12+117799999V0209999C00001036001CN0150001N1+00841+00411999999ADDAA106002091AY161061AY221061GA1041+010509069GF108991041051012501021999MA1999999088641MD1610161+9999ME1315229MW1611REMSYN094AAXX  21124 17203 11665 80000 10084 20041 38864 48522 56016 60021 76162 8452/ 333 84635 88457;
0202172030999992000032115004+38870+040500FM-12+117799999V0209999C00001036001CN0200001N1+00801+00271999999ADDAY161031AY221031GA1041+012009069GF107991041051012501011001MA1999999088501MD1710141+9999ME1315089MW1021REMSYN088AAXX  21154 17203 41670 70000 10080 20027 38850 48508 57014 70262 84510 333 84640 87460;
0232172030999992000032118004+38870+040500FM-12+117799999V0209999C000012200019N0200001N1+00501+00071999999ADDAA112003091AY161061AY211061GA1031+012009029GF103991031011012501001001KA1120M+01021MA1999999088521MD1310021+9999ME1315109MW1011REMSYN094AAXX  21184 17203 11670 30000 10050 20007 38852 48510 53002 60032 70161 83100 333 10102 83840;
0174172030999992000032121004+38870+040500FM-12+117799999V0209999C00001036001CN0200001N1+00431+00111999999ADDGA1031+012009069GF106991031051012501011001MA1999999088551MD1110031+9999ME1315149REMSYN082AAXX  21214 17203 42670 60000 10043 20011 38855 48514 51003 83510 333 83640 86460;
0185172030999992000032200004+38870+040500FM-12+117799999V0209999C00001036001CN0200001N1+00501+00111999999ADDAA199000021GA1041+012009069GF107991041051012501021001MA1999999088501MD1610051+9999ME1315119REMSYN082AAXX  22004 17203 32670 70000 10050 20011 38850 48511 56005 84520 333 84640 87460;
0174172030999992000032203004+38870+040500FM-12+117799999V0209999C00001036001CN0200001N1+00451+00081999999ADDGA1041+012009069GF107991041051012501021001MA1999999088301MD1710201+9999ME1314919REMSYN082AAXX  22034 17203 42670 70000 10045 20008 38830 48491 57020 84520 333 84640 87460;
0282172030999992000032206004+38870+040500FM-12+117799999V0209999C00001036001CN0200001N1+00531+00221999999ADDAA124002591AJ199993999999999GA1041+012009069GF107991041051012501021001IA1309IA2999+00109KA1120N+00401MA1999999088281MD1810021+9999ME1314899REMSYN112AAXX  22064 17203 32670 70000 10053 20022 38828 48489 58002 84520 333 20040 3/001 42997 55027 70025 84640 87460;EQDQ01  09982SNDP  
0174172030999992000032209004+38870+040500FM-12+117799999V0209999C00001036001CN0200001N1+01001+00461999999ADDGA1031+012009089GF107991031021012501051001MA1999999088201MD1710081+9999ME1314839REMSYN082AAXX  22094 17203 42670 70000 10100 20046 38820 48483 57008 83250 333 83840 87360;
0204172030999992000032212004+38870+040500FM-12+117799999V0202801N00261036001CN0200001N1+01001+00241999999ADDAA199000091GA1021+012009089GF105991021011012501051001MA1999999088061MD1710141+9999ME1314719REMSYN082AAXX  22124 17203 32670 52805 10100 20024 38806 48471 57014 82150 333 82840 85360;EQDQ01  00002PRCP99
0152172030999992000032215004+38870+040500FM-12+117799999V0203001N001512200019N0200001N1+00801+00061999999ADDGF101991011011012501001001MA1999999088001MD1610061+9999ME1314639REMSYN076AAXX  22154 17203 42670 13003 10080 20006 38800 48463 56006 81100 333 10138;
0205172030999992000032218004+38870+040500FM-12+117799999V0209999C000012200019N0200001N1+00421-00031999999ADDAA199000091GA1001+999999999GF100991001001999999001001KA1999M+01431MA1999999088001MD1410001+9999ME1314629REMSYN070AAXX  22184 17203 32970 00000 10042 21003 38800 48462 54000 333 10143;EQDQ01  00002PRCP99
0162172030999992000032221004+38870+040500FM-12+117799999V0209999C000012200019N0200001N1+00261-00161999999ADDGA1001+999999999GF100991001001999999001001MA1999999088001MD1410001+9999ME1314639REMSYN070AAXX  22214 17203 42970 00000 10026 21016 38800 48463 54000 333 10138;
0192172030999992000032300004+38870+040500FM-12+117799999V0201601N002112200019N0200001N1+00101-00191999999ADDAA199000091GA1001+999999999GF100991001001999999001001MA1999999088001MD1410001+9999ME1314639REMSYN070AAXX  23004 17203 32970 01604 10010 21019 38800 48463 54000 333 10138;EQDQ01  00002PRCP99
0174172030999992000032303004+38870+040500FM-12+117799999V0209999C00001036001CN0200001N1+00121-00161999999ADDGA1031+012009089GF105991031011012501051001MA1999999088001MD1410001+9999ME1314619REMSYN082AAXX  23034 17203 42670 50000 10012 21016 38800 48461 54000 83150 333 83840 85360;
0286172030999992000032306004+38870+040500FM-12+117799999V0209999C000012200019N0200001N1+00301-00061999999ADDAA199000091AJ199993999999999GA1031+012009029GF103991031011012501001001IA1309IA2999+00009KA1120N+00081MA1999999088061MD1310061+9999ME1314679REMSYN100AAXX  23064 17203 32670 30000 10030 21006 38806 48467 53006 83100 333 20008 3/000 42997 55062 83840;EQDQ01  00002PRCP99Q02  09982SNDP  
0112172030999992000032309004+38870+040500FM-12+117799999V0209999C000012200019N0200001N1+00951-00061101501ADDGF103991031011012501001001MD1110041+9999REMSYN060AAXX  23094 17203 42670 30000 10095 21006 40150 51004 83100;
0198172030999992000032312004+38870+040500FM-12+117799999V0202701N002112200019N0200001N1+01081+00151999999ADDAA199000091GF102991999011012501001001MA1999999087911MD1710191+9999ME1314549REMSYN076AAXX  23124 17203 32670 22704 10108 20015 38791 48454 57019 81100 333 10128;EQDQ01+000012SCOTLCQ02  00002PRCP99
0174172030999992000032315004+38870+040500FM-12+117799999V0203001N00261036001CN0200001N1+00801+00011999999ADDGA1031+012009089GF105991031011012501051001MA1999999087851MD1610061+9999ME1314489REMSYN082AAXX  23154 17203 42670 53005 10080 20001 38785 48448 56006 83150 333 83840 85360;
0223172030999992000032318004+38870+040500FM-12+117799999V0209999C00001036001CN0200001N1+00601-00011999999ADDAA199000091GA1041+012009089GF107991041021012501051001KA1120M+01121MA1999999087801MD1610051+9999ME1314439REMSYN088AAXX  23184 17203 32670 70000 10060 21001 38780 48443 56005 84250 333 10112 84840 87360;EQDQ01  00002PRCP99
0174172030999992000032321004+38870+040500FM-12+117799999V0209999C00001036001CN0200001N1+00471+00081999999ADDGA1021+012009089GF105991021011012501051001MA1999999087901MD1110101+9999ME1314559REMSYN082AAXX  23214 17203 42670 50000 10047 20008 38790 48455 51010 82150 333 82840 85360;
0182172030999992000032400004+38870+040500FM-12+117799999V0209999C000012200019N0200001N1+00301-00061999999ADDAA199000091GF103991031001999999031001MA1999999087801MD1810101+9999ME1314459REMSYN076AAXX  24004 17203 32970 30000 10030 21006 38780 48445 58010 83030 333 10110;EQDQ01  00002PRCP99
0174172030999992000032403004+38870+040500FM-12+117799999V0209999C00001036001CN0200001N1+00311-00081999999ADDGA1021+012009089GF105991021011012501051001MA1999999087721MD1710081+9999ME1314369REMSYN082AAXX  24034 17203 42670 50000 10031 21008 38772 48436 57008 82150 333 82840 85360;
0274172030999992000032406004+38870+040500FM-12+117799999V0209999C000012200019N0200001N1+00601-00011999999ADDAA199000091AJ199993999999999GA1001+999999999GF100991001001999999001001IA1309IA2999+00109KA1120N+00291MA1999999087721MD1410001+9999ME1314379REMSYN088AAXX  24064 17203 32970 00000 10060 21001 38772 48437 54000 333 20029 3/001 42997 55086;EQDQ01  00002PRCP99Q02  09982SNDP  
0152172030999992000032409004+38870+040500FM-12+117799999V0203201N001519999999N0200001N1+00901+00111999999ADDGF108991081001999999011999MA1999999087701MD1610021+9999ME1314369REMSYN076AAXX  24094 17203 42970 83203 10090 20011 38770 48436 56002 8801/ 333 10098;
0182172030999992000032412004+38870+040500FM-12+117799999V0203001N001519999999N0200001N1+01081+00041999999ADDAA199000091GF108991081001999999011999MA1999999087591MD1710111+9999ME1314269REMSYN076AAXX  24124 17203 32970 83003 10108 20004 38759 48426 57011 8801/ 333 10085;EQDQ01  00002PRCP99
0171172030999992000032415004+38870+040500FM-12+117799999V0201701N003619999999N0200001N1+00701-00261999999ADDGF108991001001999999001061MA1999999087601MD1310011+9999ME1314259REMSYN076AAXX  24154 17203 42970 81707 10070 21026 38760 48425 53001 88006 333 10097;EQDQ01+000082SCOTLC
0205172030999992000032418004+38870+040500FM-12+117799999V0201601N004612200019N0200001N1+00541-00461999999ADDAA199000091GA1001+999999999GF100991001001999999001001KA1999M+01031MA1999999087701MD1310101+9999ME1314359REMSYN070AAXX  24184 17203 32970 01609 10054 21046 38770 48435 53010 333 10103;EQDQ01  00002PRCP99
0162172030999992000032421004+38870+040500FM-12+117799999V0201601N004612200019N0200001N1+00491-00471999999ADDGA1001+999999999GF100991001001999999001001MA1999999087871MD1210171+9999ME1314529REMSYN070AAXX  24214 17203 42970 01609 10049 21047 38787 48452 52017 333 10118;
0192172030999992000032500004+38870+040500FM-12+117799999V0201601N003612200019N0200001N1+00381-00501999999ADDAA199000091GA1001+999999999GF100991001001999999001001MA1999999088001MD1210131+9999ME1314659REMSYN070AAXX  25004 17203 32970 01607 10038 21050 38800 48465 52013 333 10133;EQDQ01  00002PRCP99
0162172030999992000032503004+38870+040500FM-12+117799999V0201601N001512200019N0200001N1+00141-00671999999ADDGA1001+999999999GF100991001001999999001001MA1999999088241MD1210241+9999ME1314839REMSYN070AAXX  25034 17203 42970 01603 10014 21067 38824 48483 52024 333 10176;
0274172030999992000032506004+38870+040500FM-12+117799999V0201601N002112200019N0200001N1+00421-00611999999ADDAA199000091AJ199993999999999GA1001+999999999GF100991001001999999001001IA1309IA2999+00009KA1120N+00071MA1999999088561MD1210321+9999ME1315149REMSYN088AAXX  25064 17203 32970 01604 10042 21061 38856 48514 52032 333 20007 3/000 42997 55042;EQDQ01  00002PRCP99Q02  09982SNDP  
0162172030999992000032509004+38870+040500FM-12+117799999V0201601N001512200019N0200001N1+00961-00321999999ADDGA1001+999999999GF100991001001999999001001MA1999999088741MD1210181+9999ME1315349REMSYN070AAXX  25094 17203 42970 01603 10096 21032 38874 48534 52018 333 10218;
0192172030999992000032512004+38870+040500FM-12+117799999V0209999C000012200019N0200001N1+01101-00351999999ADDAA199000091GA1001+999999999GF100991001001999999001001MA1999999088771MD1110031+9999ME1315379REMSYN070AAXX  25124 17203 32970 00000 10110 21035 38877 48537 51003 333 10221;EQDQ01  00002PRCP99
0162172030999992000032515004+38870+040500FM-12+117799999V0209999C000012200019N0200001N1+00981-00561999999ADDGA1001+999999999GF100991001001999999001001MA1999999088901MD1210121+9999ME1315469REMSYN070AAXX  25154 17203 42970 00000 10098 21056 38890 48546 52012 333 10241;
0205172030999992000032518004+38870+040500FM-12+117799999V0201601N001512200019N0200001N1+00341-00601999999ADDAA199000091GA1001+999999999GF100991001001999999001001KA1999M+02711MA1999999089061MD1210161+9999ME1315599REMSYN070AAXX  25184 17203 32970 01603 10034 21060 38906 48559 52016 333 10271;EQDQ01  00002PRCP99
0162172030999992000032521004+38870+040500FM-12+117799999V0209999C000012200019N0200001N1+00101-00741999999ADDGA1001+999999999GF100991001001999999001001MA1999999089231MD1210171+9999ME1315769REMSYN070AAXX  25214 17203 42970 00000 10010 21074 38923 48576 52017 333 10285;
0192172030999992000032600004+38870+040500FM-12+117799999V0201801N001512200019N0200001N1+00001-00731999999ADDAA199000091GA1001+999999999GF100991001001999999001001MA1999999089301MD1210071+9999ME1315839REMSYN070AAXX  26004 17203 32970 01803 10000 21073 38930 48583 52007 333 10288;EQDQ01  00002PRCP99
0162172030999992000032603004+38870+040500FM-12+117799999V0209999C000012200019N0200001N1-00081-00831999999ADDGA1001+999999999GF100991001001999999001001MA1999999089381MD1210081+9999ME1315899REMSYN070AAXX  26034 17203 42970 00000 11008 21083 38938 48589 52008 333 10308;
0274172030999992000032606004+38870+040500FM-12+117799999V0209999C000012200019N0200001N1+00501-00311999999ADDAA199000091AJ199993999999999GA1001+999999999GF100991001001999999001001IA1259IA2999-00409KA1120N-00101MA1999999089481MD1210101+9999ME1315979REMSYN088AAXX  26064 17203 32970 00000 10050 21031 38948 48597 52010 333 21010 3/104 41997 55095;EQDQ01  00002PRCP99Q02  09982SNDP  
0162172030999992000032609004+38870+040500FM-12+117799999V0201601N002612200019N0200001N1+01101-00361999999ADDGA1001+999999999GF100991001001999999001001MA1999999089501MD1110021+9999ME1316029REMSYN070AAXX  26094 17203 42970 01605 10110 21036 38950 48602 51002 333 10311;
0192172030999992000032612004+38870+040500FM-12+117799999V0201601N001512200019N0200001N1+01301-00361999999ADDAA199000091GA1001+999999999GF100991001001999999001001MA1999999089451MD1810051+9999ME1315989REMSYN070AAXX  26124 17203 32970 01603 10130 21036 38945 48598 58005 333 10305;EQDQ01  00002PRCP99
0152172030999992000032615004+38870+040500FM-12+117799999V0203001N002112200019N0200001N1+00821-00411999999ADDGF103991031001999999031001MA1999999089441MD1610011+9999ME1315949REMSYN076AAXX  26154 17203 42970 33004 10082 21041 38944 48594 56001 83030 333 10315;
0217172030999992000032618004+38870+040500FM-12+117799999V0209999C000012200019N0200001N1+00461-00311999999ADDAA199000091GA1021+030009079GF102991021001999999031001KA1120M+01361MA1999999089581MD1210141+9999ME1316079REMSYN082AAXX  26184 17203 32970 20000 10046 21031 38958 48607 52014 82030 333 10136 82360;EQDQ01  00002PRCP99
0152172030999992000032621004+38870+040500FM-12+117799999V0209999C000012200019N0200001N1+00221-00321999999ADDGF103991031001999999031001MA1999999089621MD1110041+9999ME1316149REMSYN076AAXX  26214 17203 42970 30000 10022 21032 38962 48614 51004 83030 333 10319;
0192172030999992000032700004+38870+040500FM-12+117799999V0209999C000012200019N0200001N1+00121-00451999999ADDAA199000091GA1001+999999999GF100991001001999999001001MA1999999089601MD1610021+9999ME1316129REMSYN070AAXX  27004 17203 32970 00000 10012 21045 38960 48612 56002 333 10317;EQDQ01  00002PRCP99
0162172030999992000032703004+38870+040500FM-12+117799999V0209999C000012200019N0200001N1+00001-00601999999ADDGA1001+999999999GF100991001001999999001001MA1999999089501MD1710101+9999ME1315999REMSYN070AAXX  27034 17203 42970 00000 10000 21060 38950 48599 57010 333 10322;
0274172030999992000032706004+38870+040500FM-12+117799999V0209999C000012200019N0200001N1+00401-00521999999ADDAA199000091AJ199993999999999GA1001+999999999GF100991001001999999001001IA1259IA2999-00309KA1120N-00061MA1999999089501MD1410001+9999ME1315999REMSYN088AAXX  27064 17203 32970 00000 10040 21052 38950 48599 54000 333 21006 3/103 41997 55094;EQDQ01  00002PRCP99Q02  09982SNDP  
0162172030999992000032709004+38870+040500FM-12+117799999V0203101N001512200019N0200001N1+01201-00021999999ADDGA1001+999999999GF100991001001999999001001MA1999999089361MD1710141+9999ME1315919REMSYN070AAXX  27094 17203 42970 03103 10120 21002 38936 48591 57014 333 10289;
0192172030999992000032712004+38870+040500FM-12+117799999V0200301N003612200019N0200001N1+01201-00261999999ADDAA199000091GA1001+999999999GF100991001001999999001001MA1999999089241MD1710121+9999ME1315799REMSYN070AAXX  27124 17203 32970 00307 10120 21026 38924 48579 57012 333 10275;EQDQ01  00002PRCP99
0162172030999992000032715004+38870+040500FM-12+117799999V0202801N003112200019N0200001N1+00901-00561999999ADDGA1001+999999999GF100991001001999999001001MA1999999089201MD1610041+9999ME1315729REMSYN070AAXX  27154 17203 42970 02806 10090 21056 38920 48572 56004 333 10287;
0205172030999992000032718004+38870+040500FM-12+117799999V0209999C000012200019N0200001N1+00501-00371999999ADDAA199000091GA1001+999999999GF100991001001999999001001KA1999M+02961MA1999999089281MD1210081+9999ME1315809REMSYN070AAXX  27184 17203 32970 00000 10050 21037 38928 48580 52008 333 10296;EQDQ01  00002PRCP99
0162172030999992000032721004+38870+040500FM-12+117799999V0201601N002112200019N0200001N1+00281-00311999999ADDGA1001+999999999GF100991001001999999001001MA1999999089301MD1110021+9999ME1315869REMSYN070AAXX  27214 17203 42970 01604 10028 21031 38930 48586 51002 333 10282;
0192172030999992000032800004+38870+040500FM-12+117799999V0209999C000012200019N0200001N1+00141-00421999999ADDAA199000091GA1001+999999999GF100991001001999999001001MA1999999089271MD1710031+9999ME1315829REMSYN070AAXX  28004 17203 32970 00000 10014 21042 38927 48582 57003 333 10279;EQDQ01  00002PRCP99
0162172030999992000032803004+38870+040500FM-12+117799999V0209999C000012200019N0200001N1+00101-00411999999ADDGA1001+999999999GF100991001001999999001001MA1999999089241MD1610031+9999ME1315779REMSYN070AAXX  28034 17203 42970 00000 10010 21041 38924 48577 56003 333 10286;
0274172030999992000032806004+38870+040500FM-12+117799999V0209999C000012200019N0200001N1+00541-00261999999ADDAA199000091AJ199992999999999GA1001+999999999GF100991001001999999001001IA1259IA2999-00309KA1120N+00061MA1999999089301MD1110061+9999ME1315839REMSYN088AAXX  28064 17203 32970 00000 10054 21026 38930 48583 51006 333 20006 3/103 41998 55095;EQDQ01  00002PRCP99Q02  09972SNDP  
0162172030999992000032809004+38870+040500FM-12+117799999V0203601N001512200019N0200001N1+01301-00221999999ADDGA1001+999999999GF100991001001999999001001MA1999999089261MD1810041+9999ME1315839REMSYN070AAXX  28094 17203 42970 03603 10130 21022 38926 48583 58004 333 10272;
0182172030999992000032812004+38870+040500FM-12+117799999V0203101N002119999999N0200001N1+01481-00171999999ADDAA199000091GF106991001001999999001081MA1999999089161MD1710101+9999ME1315749REMSYN076AAXX  28124 17203 32970 63104 10148 21017 38916 48574 57010 80008 333 10261;EQDQ01  00002PRCP99
0152172030999992000032815004+38870+040500FM-12+117799999V0203101N003112200019N0200001N1+01101-00231999999ADDGF102991001001999999001011MA1999999089141MD1610021+9999ME1315699REMSYN076AAXX  28154 17203 42970 23106 10110 21023 38914 48569 56002 80001 333 10269;
0205172030999992000032818004+38870+040500FM-12+117799999V0209999C000012200019N0200001N1+00671-00171999999ADDAA199000091GA1001+999999999GF100991001001999999001001KA1999M+02741MA1999999089181MD1310041+9999ME1315739REMSYN070AAXX  28184 17203 32970 00000 10067 21017 38918 48573 53004 333 10274;EQDQ01  00002PRCP99
0162172030999992000032821004+38870+040500FM-12+117799999V0209999C000012200019N0200001N1+00401-00271999999ADDGA1001+999999999GF100991001001999999001001MA1999999089201MD1110021+9999ME1315789REMSYN070AAXX  28214 17203 42970 00000 10040 21027 38920 48578 51002 333 10266;
0192172030999992000032900004+38870+040500FM-12+117799999V0209999C000012200019N0200001N1+00251-00231999999ADDAA199000091GA1001+999999999GF100991001001999999001001MA1999999089201MD1410001+9999ME1315799REMSYN070AAXX  29004 17203 32970 00000 10025 21023 38920 48579 54000 333 10260;EQDQ01  00002PRCP99
0162172030999992000032903004+38870+040500FM-12+117799999V0209999C000012200019N0200001N1+00131-00351999999ADDGA1001+999999999GF100991001001999999001001MA1999999089171MD1810031+9999ME1315729REMSYN070AAXX  29034 17203 42970 00000 10013 21035 38917 48572 58003 333 10273;
0292172030999992000032906004+38870+040500FM-12+117799999V0209999C00001036001CN0200001N1+00601-00021999999ADDAA199000091AJ199992999999999GA1021+012009089GF105991021011012501051001IA1259IA2999-00309KA1120N+00081MA1999999089201MD1110031+9999ME1315769REMSYN106AAXX  29064 17203 32670 50000 10060 21002 38920 48576 51003 82150 333 20008 3/103 41998 55079 82840 85360;EQDQ01  00002PRCP99Q02  09972SNDP  
0174172030999992000032909004+38870+040500FM-12+117799999V0209999C00001036001CN0200001N1+01401+00221999999ADDGA1031+012009089GF106991031011012501051001MA1999999089141MD1810061+9999ME1315739REMSYN082AAXX  29094 17203 42670 60000 10140 20022 38914 48573 58006 83150 333 83840 86360;
0204172030999992000032912004+38870+040500FM-12+117799999V0201801N00261036001CN0200001N1+01661+00071999999ADDAA199000091GA1021+012009089GF105991021011012501051001MA1999999089001MD1710141+9999ME1315619REMSYN082AAXX  29124 17203 32670 51805 10166 20007 38900 48561 57014 82150 333 82840 85360;EQDQ01  00002PRCP99
0174172030999992000032915004+38870+040500FM-12+117799999V0202801N00151036001CN0200001N1+01401-00051999999ADDGA1021+012009089GF105991021011012501051001MA1999999088921MD1710081+9999ME1315519REMSYN082AAXX  29154 17203 42670 52803 10140 21005 38892 48551 57008 82150 333 82840 85360;
0205172030999992000032918004+38870+040500FM-12+117799999V0209999C000012200019N0200001N1+00801+00031999999ADDAA199000091GA1001+999999999GF100991001001999999001001KA1999M+02461MA1999999088981MD1310061+9999ME1315559REMSYN070AAXX  29184 17203 32970 00000 10080 20003 38898 48555 53006 333 10246;EQDQ01  00002PRCP99
0162172030999992000032921004+38870+040500FM-12+117799999V0209999C000012200019N0200001N1+00521-00011999999ADDGA1001+999999999GF100991001001999999001001MA1999999089001MD1110021+9999ME1315619REMSYN070AAXX  29214 17203 42970 00000 10052 21001 38900 48561 51002 333 10232;
0192172030999992000033000004+38870+040500FM-12+117799999V0209999C000012200019N0200001N1+00341-00021999999ADDAA199000091GA1001+999999999GF100991001001999999001001MA1999999089001MD1410001+9999ME1315619REMSYN070AAXX  30004 17203 32970 00000 10034 21002 38900 48561 54000 333 10232;EQDQ01  00002PRCP99
0162172030999992000033003004+38870+040500FM-12+117799999V0209999C000012200019N0200001N1+00281-00091999999ADDGA1001+999999999GF100991001001999999001001MA1999999089001MD1410001+9999ME1315599REMSYN070AAXX  30034 17203 42970 00000 10028 21009 38900 48559 54000 333 10242;
0274172030999992000033006004+38870+040500FM-12+117799999V0209999C000012200019N0200001N1+00801+00131999999ADDAA199000091AJ199993999999999GA1001+999999999GF100991001001999999001001IA1259IA2999-00209KA1120N+00201MA1999999089041MD1310041+9999ME1315649REMSYN088AAXX  30064 17203 32970 00000 10080 20013 38904 48564 53004 333 20020 3/102 41997 55084;EQDQ01  00002PRCP99Q02  09982SNDP  
0162172030999992000033009004+38870+040500FM-12+117799999V0202501N001512200019N0200001N1+01561+00351999999ADDGA1001+999999999GF100991001001999999001001MA1999999089001MD1810041+9999ME1315629REMSYN070AAXX  30094 17203 42970 02503 10156 20035 38900 48562 58004 333 10232;
0192172030999992000033012004+38870+040500FM-12+117799999V0201901N001512200019N0200001N1+01701+00191999999ADDAA199000091GA1001+999999999GF100991001001999999001001MA1999999088941MD1810061+9999ME1315569REMSYN070AAXX  30124 17203 32970 01903 10170 20019 38894 48556 58006 333 10225;EQDQ01  00002PRCP99
0152172030999992000033015004+38870+040500FM-12+117799999V0202501N001512200019N0200001N1+01421-00021999999ADDGF104991001001999999001011MA1999999088831MD1710111+9999ME1315449REMSYN076AAXX  30154 17203 42970 42503 10142 21002 38883 48544 57011 80001 333 10223;
0205172030999992000033018004+38870+040500FM-12+117799999V0209999C000012200019N0200001N1+00901+00001999999ADDAA199000091GA1001+999999999GF100991001001999999001001KA1999M+02331MA1999999088921MD1210091+9999ME1315519REMSYN070AAXX  30184 17203 32970 00000 10090 20000 38892 48551 52009 333 10233;EQDQ01  00002PRCP99
0161172030999992000033021004+38870+040500FM-12+117799999V0209999C000012200019N0200001N1+00661-00051999999ADDGA1001+999999999GF100991001001999999001001MA1999999088941MD1110021+9999ME1315589REMSYN069AAXX  30214 17203 42970 00000 10066 21005 38894 48558 51002333 10220;
0192172030999992000033100004+38870+040500FM-12+117799999V0209999C000012200019N0200001N1+00401-00101999999ADDAA199000091GA1001+999999999GF100991001001999999001001MA1999999088941MD1410001+9999ME1315569REMSYN070AAXX  31004 17203 32970 00000 10040 21010 38894 48556 54000 333 10225;EQDQ01  00002PRCP99
0162172030999992000033103004+38870+040500FM-12+117799999V0209999C000012200019N0200001N1+00221-00181999999ADDGA1001+999999999GF100991001001999999001001MA1999999088881MD1610061+9999ME1315489REMSYN070AAXX  31034 17203 42970 00000 10022 21018 38888 48548 56006 333 10229;
0263172030999992000033106004+38870+040500FM-12+117799999V0209999C000010540019N0200001N1+00701-00131999999ADDAA199000091GA1081+054009089GF108991999001999999001061IA1099IA2999-00209KA1120N+00181MA1999999088891MD1310011+9999ME1315489REMSYN094AAXX  31064 17203 32970 80000 10070 21013 38889 48548 53001 80006 333 20018 31102 55093 88268;EQDQ01+000002SCOTLCQ02  00002PRCP99
0152172030999992000033109004+38870+040500FM-12+117799999V0202901N001019999999N0200001N1+01401+00321999999ADDGF107991001001999999001061MA1999999088911MD1110021+9999ME1315549REMSYN076AAXX  31094 17203 42970 72902 10140 20032 38891 48554 51002 80006 333 10227;
0182172030999992000033112004+38870+040500FM-12+117799999V0200401N001519999999N0200001N1+01601+00231999999ADDAA199000091GF108991081001999999021999MA1999999088821MD1710091+9999ME1315459REMSYN076AAXX  31124 17203 32970 80403 10160 20023 38882 48545 57009 8802/ 333 10211;EQDQ01  00002PRCP99
0152172030999992000033115004+38870+040500FM-12+117799999V0209999C000012200019N0200001N1+01501+00101999999ADDGF103991031011012501001001MA1999999088761MD1610061+9999ME1315379REMSYN076AAXX  31154 17203 42670 30000 10150 20010 38876 48537 56006 83100 333 10210;
0205172030999992000033118004+38870+040500FM-12+117799999V0209999C000012200019N0200001N1+01001+00141999999ADDAA199000091GA1001+999999999GF100991001001999999001001KA1999M+02231MA1999999088831MD1210071+9999ME1315439REMSYN070AAXX  31184 17203 32970 00000 10100 20014 38883 48543 52007 333 10223;EQDQ01  00002PRCP99
0162172030999992000033121004+38870+040500FM-12+117799999V0209999C000012200019N0200001N1+00651+00071999999ADDGA1001+999999999GF100991001001999999001001MA1999999088901MD1210071+9999ME1315539REMSYN070AAXX  31214 17203 42970 00000 10065 20007 38890 48553 52007 333 10220;
0192172030999992000040100004+38870+040500FM-12+117799999V0209999C000012200019N0200001N1+00521+00111999999ADDAA199000091GA1001+999999999GF100991001001999999001001MA1999999088951MD1110051+9999ME1315579REMSYN070AAXX  01004 17203 32970 00000 10052 20011 38895 48557 51005 333 10221;EQDQ01  00002PRCP99
0152172030999992000040103004+38870+040500FM-12+117799999V0209999C000012200019N0200001N1+00441+00141999999ADDGF103991031011012501001001MA1999999089001MD1110051+9999ME1315619REMSYN076AAXX  01034 17203 42670 30000 10044 20014 38900 48561 51005 83100 333 10232;
0241172030999992000040106004+38870+040500FM-12+117799999V0209999C000012200019N0200001N1+00941+00441999999ADDAA199000091GA1001+999999999GF100991001001999999001001IA1099IA2999+00209KA1120N+00401MA1999999089141MD1210141+9999ME1315749REMSYN088AAXX  01064 17203 32970 00000 10094 20044 38914 48574 52014 333 20040 31002 50064 55057;EQDQ01  00002PRCP99
0162172030999992000040109004+38870+040500FM-12+117799999V0209999C000012200019N0200001N1+01721+00661999999ADDGA1001+999999999GF100991001001999999001001MA1999999089201MD1110061+9999ME1315839REMSYN070AAXX  01094 17203 42970 00000 10172 20066 38920 48583 51006 333 10244;
0192172030999992000040112004+38870+040500FM-12+117799999V0200301N001512200019N0200001N1+02001+00701999999ADDAA199000091GA1001+999999999GF100991001001999999001001MA1999999089091MD1710101+9999ME1315749REMSYN070AAXX  01124 17203 32970 00303 10200 20070 38909 48574 57010 333 10228;EQDQ01  00002PRCP99
0152172030999992000040115004+38870+040500FM-12+117799999V0203001N001512200019N0200001N1+01661+00531999999ADDGF102991021011012501001001MA1999999089041MD1610061+9999ME1315669REMSYN076AAXX  01154 17203 42670 23003 10166 20053 38904 48566 56006 82100 333 10237;
0217172030999992000040118004+38870+040500FM-12+117799999V0201401N001510300019N0200001N1+01161+00241999999ADDAA199000091GA1071+030009079GF107991071001999999031001KA1120M+02041MA1999999089241MD1210201+9999ME1315859REMSYN082AAXX  01184 17203 32970 71403 10116 20024 38924 48585 52020 87030 333 10204 87360;EQDQ01  00002PRCP99
0162172030999992000040121004+38870+040500FM-12+117799999V0201701N001512200019N0200001N1+00901+00481999999ADDGA1001+999999999GF100991001001999999001001MA1999999089301MD1110061+9999ME1315869REMSYN070AAXX  01214 17203 42970 01703 10090 20048 38930 48586 51006 333 10251;
0192172030999992000040200004+38870+040500FM-12+117799999V0209999C000012200019N0200001N1+00661+00251999999ADDAA199000091GA1001+999999999GF100991001001999999001001MA1999999089301MD1410001+9999ME1315959REMSYN070AAXX  02004 17203 32970 00000 10066 20025 38930 48595 54000 333 10251;EQDQ01  00002PRCP99
0162172030999992000040203004+38870+040500FM-12+117799999V0201801N001512200019N0200001N1+00601+00221999999ADDGA1001+999999999GF100991001001999999001001MA1999999089271MD1610031+9999ME1315899REMSYN070AAXX  02034 17203 42970 01803 10060 20022 38927 48589 56003 333 10258;
0253172030999992000040206004+38870+040500FM-12+117799999V0209999C00001036001CN0200001N1+01101+00431999999ADDAA199000091GA1031+012009069GF107991031051012501051001IA1099IA2999+00209KA1120N+00591MA1999999089341MD1210071+9999ME1315959REMSYN100AAXX  02064 17203 32670 70000 10110 20043 38934 48595 52007 83550 333 20059 31002 55096 83640 88360;EQDQ01  00002PRCP99
0174172030999992000040209004+38870+040500FM-12+117799999V0202501N00211036001CN0200001N1+01701+00631999999ADDGA1031+012009069GF107991031051012501051001MA1999999089301MD1810041+9999ME1315949REMSYN082AAXX  02094 17203 42670 72504 10170 20063 38930 48594 58004 83550 333 83640 87360;
0204172030999992000040212004+38870+040500FM-12+117799999V0202701N00261036001CN0200001N1+01901+00631999999ADDAA199000091GA1031+012009069GF107991031051012501051001MA1999999089141MD1710161+9999ME1315789REMSYN082AAXX  02124 17203 32670 72705 10190 20063 38914 48578 57016 83550 333 83640 87360;EQDQ01  00002PRCP99
0174172030999992000040215004+38870+040500FM-12+117799999V0200701N00211036001CN0200001N1+01461+00541999999ADDGA1031+012009089GF106991031011012501051001MA1999999089021MD1710121+9999ME1315649REMSYN082AAXX  02154 17203 42670 60704 10146 20054 38902 48564 57012 83150 333 83840 86360;
0217172030999992000040218004+38870+040500FM-12+117799999V0209999C000012200019N0200001N1+01101+00401999999ADDAA199000091GA1031+030009079GF103991031001999999031001KA1120M+01931MA1999999089101MD1310081+9999ME1315739REMSYN082AAXX  02184 17203 32970 30000 10110 20040 38910 48573 53008 83030 333 10193 83360;EQDQ01  00002PRCP99
0152172030999992000040221004+38870+040500FM-12+117799999V0209999C000012200019N0200001N1+01021+00441999999ADDGF103991031001999999031001MA1999999089201MD1310101+9999ME1315869REMSYN076AAXX  02214 17203 42970 30000 10102 20044 38920 48586 53010 83030 333 10234;
0192172030999992000040300004+38870+040500FM-12+117799999V0201601N002112200019N0200001N1+00801+00411999999ADDAA199000091GA1001+999999999GF100991001001999999001001MA1999999089101MD1810101+9999ME1315779REMSYN070AAXX  03004 17203 32970 01604 10080 20041 38910 48577 58010 333 10223;EQDQ01  00002PRCP99
0162172030999992000040303004+38870+040500FM-12+117799999V0209999C000012200019N0200001N1+00701+00311999999ADDGA1001+999999999GF100991001001999999001001MA1999999089081MD1610021+9999ME1315709REMSYN070AAXX  03034 17203 42970 00000 10070 20031 38908 48570 56002 333 10236;
0269172030999992000040306004+38870+040500FM-12+117799999V0209999C000012200019N0200001N1+01101+00431999999ADDAA199000091GA1021+060009019GF102991001001999999001011IA1099IA2999+00209KA1120N+00621MA1999999089201MD1210121+9999ME1315829REMSYN100AAXX  03064 17203 32570 20000 10110 20043 38920 48582 52012 80001 333 20062 31002 50384 55070 82070;EQDQ01+008002SCOLCBQ02  00002PRCP99
0152172030999992000040309004+38870+040500FM-12+117799999V0209999C000012200019N0200001N1+01901+00631999999ADDGF102991001001999999001011MA1999999089201MD1010001+9999ME1315879REMSYN076AAXX  03094 17203 42970 20000 10190 20063 38920 48587 50000 80001 333 10234;
0204172030999992000040312004+38870+040500FM-12+117799999V0202701N002112200019N0200001N1+02161+00531999999ADDAA199000091GA1021+012009089GF104991021011012501051001MA1999999089061MD1710141+9999ME1315749REMSYN082AAXX  03124 17203 32670 42704 10216 20053 38906 48574 57014 82150 333 82840 84360;EQDQ01  00002PRCP99
0174172030999992000040315004+38870+040500FM-12+117799999V0209999C00001036001CN0200001N1+01701+00521999999ADDGA1041+012009089GF106991041021012501051001MA1999999089001MD1510061+9999ME1315659REMSYN082AAXX  03154 17203 42670 60000 10170 20052 38900 48565 55006 84250 333 84840 86360;
0217172030999992000040318004+38870+040500FM-12+117799999V0209999C000012200019N0200001N1+01201+00301999999ADDAA199000091GA1031+030009079GF103991031001999999031001KA1120M+02261MA1999999089101MD1210101+9999ME1315739REMSYN082AAXX  03184 17203 32970 30000 10120 20030 38910 48573 52010 83030 333 10226 83360;EQDQ01  00002PRCP99
0162172030999992000040321004+38870+040500FM-12+117799999V0209999C000012200019N0200001N1+00961+00321999999ADDGA1001+999999999GF100991001001999999001001MA1999999089171MD1210071+9999ME1315849REMSYN070AAXX  03214 17203 42970 00000 10096 20032 38917 48584 52007 333 10231;
0192172030999992000040400004+38870+040500FM-12+117799999V0209999C000012200019N0200001N1+00761+00321999999ADDAA199000091GA1001+999999999GF100991001001999999001001MA1999999089201MD1110031+9999ME1315879REMSYN070AAXX  04004 17203 32970 00000 10076 20032 38920 48587 51003 333 10229;EQDQ01  00002PRCP99
0152172030999992000040403004+38870+040500FM-12+117799999V0209999C000012200019N0200001N1+00661+00201999999ADDGF103991031001999999031001MA1999999089201MD1410001+9999ME1315839REMSYN076AAXX  04034 17203 42970 30000 10066 20020 38920 48583 54000 83030 333 10244;
0259172030999992000040406004+38870+040500FM-12+117799999V0209999C00001036001CN0200001N1+01001+00421999999ADDAA199000091GA1041+012009069GF107991041051012501011001IA1099IA2999+00309KA1120N+00621MA1999999089281MD1310081+9999ME1315899REMSYN106AAXX  04064 17203 32670 70000 10100 20042 38928 48589 53008 84510 333 20062 31003 50404 55074 84640 87460;EQDQ01  00002PRCP99
0174172030999992000040409004+38870+040500FM-12+117799999V0209999C00001036001CN0200001N1+01481+00611999999ADDGA1041+012009069GF107991041051012501011001MA1999999089301MD1110021+9999ME1315939REMSYN082AAXX  04094 17203 42670 70000 10148 20061 38930 48593 51002 84510 333 84640 87460;
0204172030999992000040412004+38870+040500FM-12+117799999V0209999C00001036001CN0200001N1+02081+00741999999ADDAA199000091GA1041+012009069GF107991041051012501011001MA1999999089121MD1710181+9999ME1315799REMSYN082AAXX  04124 17203 32670 70000 10208 20074 38912 48579 57018 84510 333 84640 87460;EQDQ01  00002PRCP99
0174172030999992000040415004+38870+040500FM-12+117799999V0202501N00211036001CN0200001N1+01901+00541999999ADDGA1031+012009089GF105991031011012501051001MA1999999089021MD1610101+9999ME1315689REMSYN082AAXX  04154 17203 42670 52504 10190 20054 38902 48568 56010 83150 333 83840 85360;
0223172030999992000040418004+38870+040500FM-12+117799999V0209999C00001036001CN0200001N1+01401+00391999999ADDAA199000091GA1031+012009069GF107991031051012501051001KA1120M+02201MA1999999089131MD1210111+9999ME1315779REMSYN088AAXX  04184 17203 32670 70000 10140 20039 38913 48577 52011 83550 333 10220 83640 87360;EQDQ01  00002PRCP99
0174172030999992000040421004+38870+040500FM-12+117799999V0201601N00151036001CN0200001N1+01221+00531999999ADDGA1041+012009069GF107991041051012501011001MA1999999089181MD1110051+9999ME1315849REMSYN082AAXX  04214 17203 42670 71603 10122 20053 38918 48584 51005 84510 333 84640 87460;
0219172030999992000040500004+38870+040500FM-12+117799999V0200401N001510105019N0080001N1+00721+00621999999ADDAA106004191AY121061AY221061GA1051+010509069GF108991051051012501021999MA1999999089231MD1110051+9999ME1315899MW1611REMSYN094AAXX  05004 17203 11658 80403 10072 20062 38923 48589 51005 60041 76122 8552/ 333 85635 88457;
0202172030999992000040503004+38870+040500FM-12+117799999V0201601N00151036001CN0200001N1+00651+00301999999ADDAY161031AY221031GA1041+012009089GF106991041021012501051001MA1999999089181MD1710051+9999ME1315839MW1021REMSYN088AAXX  05034 17203 41670 61603 10065 20030 38918 48583 57005 70262 84250 333 84840 86360;
0274172030999992000040506004+38870+040500FM-12+117799999V0209999C000012200019N0200001N1+01001+00481999999ADDAA112004191AY161061AY211061GA1021+012009029GF102991021011012501001001IA1119IA2999+00509KA1120N+00601MA1999999089181MD1410001+9999ME1315819MW1011REMSYN118AAXX  05064 17203 11670 20000 10100 20048 38918 48581 54000 60042 70161 82100 333 20060 32005 50384 55034 70038 82840;
0162172030999992000040509004+38870+040500FM-12+117799999V0209999C000012200019N0200001N1+01621+00661999999ADDGA1001+999999999GF100991001001999999001001MA1999999089181MD1410001+9999ME1315859REMSYN070AAXX  05094 17203 42970 00000 10162 20066 38918 48585 54000 333 10232;
0163172030999992000040512004+38870+040500FM-12+117799999V0209999C000012200019N0200001N1+01961+00531999999ADDAA199000021GF103991031011012501001001MA1999999088981MD1710201+9999ME1315649REMSYN076AAXX  05124 17203 32670 30000 10196 20053 38898 48564 57020 83100 333 10214;
0174172030999992000040515004+38870+040500FM-12+117799999V0203101N00151036001CN0200001N1+01801+00291999999ADDGA1021+012009089GF105991021011012501051001MA1999999088801MD1710181+9999ME1315469REMSYN082AAXX  05154 17203 42670 53103 10180 20029 38880 48546 57018 82150 333 82840 85360;
0205172030999992000040518004+38870+040500FM-12+117799999V0209999C000012200019N0200001N1+01201+00481999999ADDAA199000091GA1001+999999999GF100991001001999999001001KA1999M+02151MA1999999088901MD1310101+9999ME1315539REMSYN070AAXX  05184 17203 32970 00000 10120 20048 38890 48553 53010 333 10215;EQDQ01  00002PRCP99
0174172030999992000040521004+38870+040500FM-12+117799999V0209999C00001036001CN0200001N1+00921+00411999999ADDGA1031+012009069GF106991031051012501051001MA1999999088881MD1810021+9999ME1315549REMSYN082AAXX  05214 17203 42670 60000 10092 20041 38888 48554 58002 83550 333 83640 86360;
0182172030999992000040600004+38870+040500FM-12+117799999V0209999C000012200019N0000001N1+00821+00301999999ADDAA199000091GF103991001001999999001011MA1999999088841MD1810041+9999ME1315529REMSYN076AAXX  06004 17203 32900 30000 10082 20030 38884 48552 58004 80001 333 10193;EQDQ01  00002PRCP99
0152172030999992000040603004+38870+040500FM-12+117799999V0209999C000012200019N0200001N1+00701+00251999999ADDGF103991031011012501001001MA1999999088801MD1610041+9999ME1315469REMSYN076AAXX  06034 17203 42670 30000 10070 20025 38880 48546 56004 83100 333 10199;
0259172030999992000040606004+38870+040500FM-12+117799999V0209999C00001036001CN0200001N1+01201+00651999999ADDAA199000091GA1031+012009089GF105991031011012501051001IA1099IA2999+00509KA1120N+00661MA1999999088841MD1110041+9999ME1315499REMSYN106AAXX  06064 17203 32670 50000 10120 20065 38884 48549 51004 83150 333 20066 31005 50344 55081 83840 85360;EQDQ01  00002PRCP99
0162172030999992000040609004+38870+040500FM-12+117799999V0209999C000012200019N0200001N1+01781+00561999999ADDGA1001+999999999GF100991001001999999001001MA1999999088801MD1810041+9999ME1315489REMSYN070AAXX  06094 17203 42970 00000 10178 20056 38880 48548 58004 333 10188;
0182172030999992000040612004+38870+040500FM-12+117799999V0200601N002112200019N0200001N1+02181+00611999999ADDAA199000091GF104991041001999999031001MA1999999088601MD1710201+9999ME1315319REMSYN076AAXX  06124 17203 32970 40604 10218 20061 38860 48531 57020 84030 333 10160;EQDQ01  00002PRCP99
0152172030999992000040615004+38870+040500FM-12+117799999V0209999C000012200019N0200001N1+02001+00591999999ADDGF103991031011012501001001MA1999999088401MD1710201+9999ME1315099REMSYN076AAXX  06154 17203 42670 30000 10200 20059 38840 48509 57020 83100 333 10146;
0223172030999992000040618004+38870+040500FM-12+117799999V0209999C00001036001CN0200001N1+01641+00461999999ADDAA199000091GA1021+012009089GF105991021011012501051001KA1120M+02281MA1999999088401MD1410001+9999ME1315109REMSYN088AAXX  06184 17203 32670 50000 10164 20046 38840 48510 54000 82150 333 10228 82840 85360;EQDQ01  00002PRCP99
0162172030999992000040621004+38870+040500FM-12+117799999V0209999C000012200019N0200001N1+01241+00511999999ADDGA1001+999999999GF100991001001999999001001MA1999999088401MD1410001+9999ME1315119REMSYN070AAXX  06214 17203 42970 00000 10124 20051 38840 48511 54000 333 10137;
0192172030999992000040700004+38870+040500FM-12+117799999V0209999C000012200019N0200001N1+01061+00511999999ADDAA199000091GA1001+999999999GF100991001001999999001001MA1999999088321MD1810081+9999ME1315059REMSYN070AAXX  07004 17203 32970 00000 10106 20051 38832 48505 58008 333 10123;EQDQ01  00002PRCP99
0162172030999992000040703004+38870+040500FM-12+117799999V0209999C000012200019N0200001N1+00971+00511999999ADDGA1001+999999999GF100991001001999999001001MA1999999088201MD1710121+9999ME1314929REMSYN070AAXX  07034 17203 42970 00000 10097 20051 38820 48492 57012 333 10114;
0269172030999992000040706004+38870+040500FM-12+117799999V0202601N001510540019N0200001N1+01521+00711999999ADDAA199000091GA1071+054009089GF107991999001999999001051IA1099IA2999+00809KA1120N+00911MA1999999088071MD1710131+9999ME1314819REMSYN100AAXX  07064 17203 32970 72603 10152 20071 38807 48481 57013 80005 333 20091 31008 50444 55095 87268;EQDQ01+000002SCOTLCQ02  00002PRCP99
0152172030999992000040709004+38870+040500FM-12+117799999V0200501N004612200019N0200001N1+02041+00561999999ADDGF101991011011012501001001MA1999999088021MD1710051+9999ME1314769REMSYN076AAXX  07094 17203 42670 10509 10204 20056 38802 48476 57005 81100 333 10089;
0182172030999992000040712004+38870+040500FM-12+117799999V0200901N004112200019N0200001N1+02201+00121999999ADDAA199000091GF102991021011012501001001MA1999999087901MD1710101+9999ME1314659REMSYN076AAXX  07124 17203 32670 20908 10220 20012 38790 48465 57010 82100 333 10083;EQDQ01  00002PRCP99
0152172030999992000040715004+38870+040500FM-12+117799999V0200701N002110120019N0200001N1+01801+00301999999ADDGF106991061041012501001001MA1999999087941MD1310021+9999ME1314669REMSYN076AAXX  07154 17203 42670 60704 10180 20030 38794 48466 53002 86400 333 10090;
0217172030999992000040718004+38870+040500FM-12+117799999V0201301N001512200019N0200001N1+01481+00081999999ADDAA199000091GA1031+012009029GF103991031011012501001001KA1120M+02241MA1999999088101MD1210161+9999ME1314839REMSYN082AAXX  07184 17203 32670 31303 10148 20008 38810 48483 52016 83100 333 10224 83840;EQDQ01  00002PRCP99
0162172030999992000040721004+38870+040500FM-12+117799999V0201601N001512200019N0200001N1+01121-00191999999ADDGA1001+999999999GF100991001001999999001001MA1999999088281MD1210181+9999ME1315019REMSYN070AAXX  07214 17203 42970 01603 10112 21019 38828 48501 52018 333 10119;
0192172030999992000040800004+38870+040500FM-12+117799999V0209999C000012200019N0200001N1+00901-00161999999ADDAA199000091GA1001+999999999GF100991001001999999001001MA1999999088251MD1810031+9999ME1314989REMSYN070AAXX  08004 17203 32970 00000 10090 21016 38825 48498 58003 333 10115;EQDQ01  00002PRCP99
0162172030999992000040803004+38870+040500FM-12+117799999V0209999C000012200019N0200001N1+00781-00101999999ADDGA1001+999999999GF100991001001999999001001MA1999999088201MD1610051+9999ME1314819REMSYN070AAXX  08034 17203 42970 00000 10078 21010 38820 48481 56005 333 10124;
0253172030999992000040806004+38870+040500FM-12+117799999V0209999C000012200019N0200001N1+01041+00241999999ADDAA199000091GA1041+012009029GF104991041021012501001001IA1099IA2999+00509KA1120N+00581MA1999999088201MD1410001+9999ME1314909REMSYN100AAXX  08064 17203 32670 40000 10104 20024 38820 48490 54000 84200 333 20058 31005 50704 55095 84840;EQDQ01  00002PRCP99
0174172030999992000040809004+38870+040500FM-12+117799999V0200601N00361036001CN0200001N1+01361+00391999999ADDGA1041+012009089GF106991041021012501051001MA1999999088231MD1110031+9999ME1314929REMSYN082AAXX  08094 17203 42670 60607 10136 20039 38823 48492 51003 84250 333 84840 86360;
0204172030999992000040812004+38870+040500FM-12+117799999V0200401N00461036001CN0200001N1+01541+00471999999ADDAA199000091GA1031+012009089GF106991031011012501051001MA1999999088181MD1810051+9999ME1314879REMSYN082AAXX  08124 17203 32670 60409 10154 20047 38818 48487 58005 83150 333 83840 86360;EQDQ01  00002PRCP99
0174172030999992000040815004+38870+040500FM-12+117799999V0200301N00211036001CN0200001N1+01301+00341999999ADDGA1041+012009089GF106991041021012501051001MA1999999088121MD1310041+9999ME1314799REMSYN082AAXX  08154 17203 42670 60304 10130 20034 38812 48479 53004 84250 333 84840 86360;
0223172030999992000040818004+38870+040500FM-12+117799999V0202701N00151036001CN0200001N1+01161+00151999999ADDAA199000091GA1021+011409089GF106991021021012501051001KA1120M+01601MA1999999088121MD1410001+9999ME1314809REMSYN088AAXX  08184 17203 32670 62703 10116 20015 38812 48480 54000 82250 333 10160 82838 86360;EQDQ01  00002PRCP99
0162172030999992000040821004+38870+040500FM-12+117799999V0200401N001512200019N0200001N1+01001+00141999999ADDGA1001+999999999GF100991001001999999001001MA1999999088151MD1310031+9999ME1314849REMSYN070AAXX  08214 17203 42970 00403 10100 20014 38815 48484 53003 333 10124;
0219172030999992000040900004+38870+040500FM-12+117799999V0201101N00151036001CN0120001N1+00821+00671999999ADDAA106000891AY181061AY211061GA1041+010509069GF108991041051012501021999MA1999999088101MD1810051+9999ME1314799MW1601REMSYN094AAXX  09004 17203 11662 81103 10082 20067 38810 48479 58005 69981 76081 8452/ 333 84635 88457;
0202172030999992000040903004+38870+040500FM-12+117799999V0209999C00001036001CN0060001N1+00401+00281999999ADDAY161031AY221031GA1041+009009069GF108991041051008001021999MA1999999088091MD1510011+9999ME1314749MW1611REMSYN088AAXX  09034 17203 41556 80000 10040 20028 38809 48474 55001 76162 8452/ 333 84630 88457;
0312172030999992000040906004+38870+040500FM-12+117799999V0203401N001510300019N0200001N1+00221+00131999999ADDAA112017091AL10600091AY171061AY261061GA1041+012009069GA2081+030009049GF108991041051012501021999IA1119IA2999+00109KA1120N+00151MA1999999088221MD1310031+9999ME1314859MW1211REMSYN130AAXX  09064 17203 11670 83403 10022 20013 38822 48485 53003 60172 72176 8452/ 333 20015 32001 50444 55019 70170 84640 88460 93100;
0152172030999992000040909004+38870+040500FM-12+117799999V0200301N001512200019N0200001N1+00921+00281999999ADDGF103991031011012501001001MA1999999088101MD1810021+9999ME1314769REMSYN076AAXX  09094 17203 42670 30303 10092 20028 38810 48476 58002 83100 333 10128;
0197172030999992000040912004+38870+040500FM-12+117799999V0200101N003110120019N0200001N1+01051+00181999999ADDAA106000191AY111061AY211061GF106991061021012501001001MA1999999087901MD1710201+9999ME1314579MW1251REMSYN088AAXX  09124 17203 11670 60106 10105 20018 38790 48457 57020 69921 72511 86200 333 10111;
0202172030999992000040915004+38870+040500FM-12+117799999V0203601N002610120019N0200001N1+00581+00341999999ADDAY191031AY221031GA1051+012009089GF106991051021012501051001MA1999999087901MD1510001+9999ME1314529MW1291REMSYN088AAXX  09154 17203 41670 63605 10058 20034 38790 48452 55000 72992 85250 333 85840 86360;
0238172030999992000040918004+38870+040500FM-12+117799999V0209999C000010105019N0060001N1+00421+00301999999ADDAA112005191AY191061AY261061GA1051+010509069GF108991051051012501021999KA1120M+01171MA1999999088001MD1210101+9999ME1314599MW1611REMSYN100AAXX  09184 17203 11656 80000 10042 20030 38800 48459 52010 60052 76196 8552/ 333 10117 85635 88457;
0202172030999992000040921004+38870+040500FM-12+117799999V0209999C000010120019N0200001N1+00401+00281999999ADDAY161031AY221031GA1051+012009069GF108991051041012501021999MA1999999088001MD1410001+9999ME1314649MW1211REMSYN088AAXX  09214 17203 41670 80000 10040 20028 38800 48464 54000 72162 8542/ 333 85640 88460;
0219172030999992000041000004+38870+040500FM-12+117799999V0209999C000010105019N0070001N1+00421+00301999999ADDAA106001091AY161061AY221061GA1051+010509069GF108991051051012501021999MA1999999087961MD1810041+9999ME1314609MW1611REMSYN094AAXX  10004 17203 11657 80000 10042 20030 38796 48460 58004 60011 76162 8552/ 333 85635 88457;
0202172030999992000041003004+38870+040500FM-12+117799999V0201601N001510105019N0060001N1+00381+00251999999ADDAY161031AY261031GA1051+010509069GF108991051051012501021999MA1999999087941MD1610021+9999ME1314569MW1611REMSYN088AAXX  10034 17203 41656 81603 10038 20025 38794 48456 56002 76166 8552/ 333 85635 88457;
0280172030999992000041006004+38870+040500FM-12+117799999V0201601N00461036001CN0200001N1+00421-00351999999ADDAA112003091AY161061AY221061GA1041+012009069GF107991041051012501021001IA1119IA2999+00209KA1120N+00281MA1999999088201MD1010261+9999ME1314799MW1021REMSYN124AAXX  10064 17203 11670 71609 10042 21035 38820 48479 50026 60032 70262 84520 333 20028 32002 50184 55035 70079 84640 87460;
0174172030999992000041009004+38870+040500FM-12+117799999V0201801N00211036001CN0200001N1+00801-00311999999ADDGA1041+012009069GF107991041051012501021001MA1999999088401MD1210201+9999ME1315009REMSYN082AAXX  10094 17203 42670 71804 10080 21031 38840 48500 52020 84520 333 84640 87460;
0185172030999992000041012004+38870+040500FM-12+117799999V0201801N00211036001CN0200001N1+00901-00221999999ADDAA199000021GA1041+012009089GF106991041021012501051001MA1999999088541MD1210141+9999ME1315149REMSYN082AAXX  10124 17203 32670 61804 10090 21022 38854 48514 52014 84250 333 84840 86360;
0174172030999992000041015004+38870+040500FM-12+117799999V0209999C00001036001CN0200001N1+00801-00161999999ADDGA1041+012009089GF106991041021012501051001MA1999999088621MD1110081+9999ME1315219REMSYN082AAXX  10154 17203 42670 60000 10080 21016 38862 48521 51008 84250 333 84840 86360;
0223172030999992000041018004+38870+040500FM-12+117799999V0209999C000012200019N0200001N1+00561-00121999999ADDAA199000091GA1021+012009089GF104991021011012501051001KA1120M+00951MA1999999088681MD1310061+9999ME1315249REMSYN088AAXX  10184 17203 32670 40000 10056 21012 38868 48524 53006 82150 333 10095 82840 84360;EQDQ01  00002PRCP99
0152172030999992000041021004+38870+040500FM-12+117799999V0209999C000012200019N0200001N1+00381-00291999999ADDGF102991021011012501001001MA1999999088801MD1210121+9999ME1315379REMSYN076AAXX  10214 17203 42670 20000 10038 21029 38880 48537 52012 82100 333 10230;
0192172030999992000041100004+38870+040500FM-12+117799999V0209999C000012200019N0200001N1+00201-00131999999ADDAA199000091GA1001+999999999GF100991001001999999001001MA1999999088881MD1210081+9999ME1315449REMSYN070AAXX  11004 17203 32970 00000 10020 21013 38888 48544 52008 333 10239;EQDQ01  00002PRCP99
0152172030999992000041103004+38870+040500FM-12+117799999V0209999C000012200019N0200001N1+00101-00141999999ADDGF102991021011012501001001MA1999999088901MD1810021+9999ME1315459REMSYN076AAXX  11034 17203 42670 20000 10010 21014 38890 48545 58002 82100 333 10247;
0253172030999992000041106004+38870+040500FM-12+117799999V0209999C000012200019N0200001N1+00681+00271999999ADDAA199000091GA1031+012009029GF103991031011012501001001IA1119IA2999+00009KA1120N+00081MA1999999089001MD1110101+9999ME1315569REMSYN100AAXX  11064 17203 32670 30000 10068 20027 38900 48556 51010 83100 333 20008 32000 50264 55018 83840;EQDQ01  00002PRCP99
0152172030999992000041109004+38870+040500FM-12+117799999V0200701N002112200019N0200001N1+01201+00041999999ADDGF103991031011012501001001MA1999999088901MD1810101+9999ME1315499REMSYN076AAXX  11094 17203 42670 30704 10120 20004 38890 48549 58010 83100 333 10231;
0204172030999992000041112004+38870+040500FM-12+117799999V0200701N00311036001CN0200001N1+01221+00041999999ADDAA199000091GA1031+012009089GF105991031011012501051001MA1999999088831MD1810071+9999ME1315419REMSYN082AAXX  11124 17203 32670 50706 10122 20004 38883 48541 58007 83150 333 83840 85360;EQDQ01  00002PRCP99
0152172030999992000041115004+38870+040500FM-12+117799999V0200601N003110360019N0200001N1+01001+00061999999ADDGF107991041021012501051001MA1999999088821MD1610011+9999ME1315399REMSYN076AAXX  11154 17203 42670 70606 10100 20006 38882 48539 56001 84250 333 10232;
0223172030999992000041118004+38870+040500FM-12+117799999V0209999C00001036001CN0200001N1+00971+00271999999ADDAA199000091GA1041+012009069GF108991041051012501021999KA1120M+01301MA1999999088821MD1410001+9999ME1315429REMSYN088AAXX  11184 17203 32670 80000 10097 20027 38882 48542 54000 8452/ 333 10130 84640 88460;EQDQ01  00002PRCP99
0174172030999992000041121004+38870+040500FM-12+117799999V0209999C00001036001CN0200001N1+00901+00251999999ADDGA1041+012009069GF108991041051012501021999MA1999999088901MD1110081+9999ME1315539REMSYN082AAXX  11214 17203 42670 80000 10090 20025 38890 48553 51008 8452/ 333 84640 88460;
0204172030999992000041200004+38870+040500FM-12+117799999V0200401N00151036001CN0200001N1+00881+00201999999ADDAA199000091GA1041+012009089GF107991041021012501051001MA1999999088891MD1410001+9999ME1315529REMSYN082AAXX  12004 17203 32670 70403 10088 20020 38889 48552 54000 84250 333 84840 87360;EQDQ01  00002PRCP99
0174172030999992000041203004+38870+040500FM-12+117799999V0200401N00211036001CN0200001N1+00901+00181999999ADDGA1041+012009089GF107991041021012501051001MA1999999088801MD1610101+9999ME1315429REMSYN082AAXX  12034 17203 42670 70404 10090 20018 38880 48542 56010 84250 333 84840 87360;
0253172030999992000041206004+38870+040500FM-12+117799999V0209999C000012200019N0200001N1+01141+00221999999ADDAA199000091GA1021+012009029GF102991021011012501001001IA1099IA2999+00709KA1120N+00831MA1999999088901MD1210121+9999ME1315549REMSYN100AAXX  12064 17203 32670 20000 10114 20022 38890 48554 52012 82100 333 20083 31007 50204 55082 82840;EQDQ01  00002PRCP99
0174172030999992000041209004+38870+040500FM-12+117799999V0200701N00361036001CN0200001N1+01361+00371999999ADDGA1031+012009089GF106991031011012501051001MA1999999088921MD1410001+9999ME1315569REMSYN082AAXX  12094 17203 42670 60707 10136 20037 38892 48556 54000 83150 333 83840 86360;
0204172030999992000041212004+38870+040500FM-12+117799999V0200701N00311036001CN0200001N1+01301+00241999999ADDAA199000091GA1041+012009089GF107991041021012501051001MA1999999088801MD1810121+9999ME1315449REMSYN082AAXX  12124 17203 32670 70706 10130 20024 38880 48544 58012 84250 333 84840 87360;EQDQ01  00002PRCP99
0202172030999992000041215004+38870+040500FM-12+117799999V0202501N00211036001CN0100001N1+00861+00601999999ADDAY121031AY221031GA1041+009909089GF107991041021008001051001MA1999999088901MD1310101+9999ME1315519MW1811REMSYN088AAXX  12154 17203 41560 72504 10086 20060 38890 48551 53010 78122 84250 333 84833 87358;
0238172030999992000041218004+38870+040500FM-12+117799999V0209999C00001036001CN0200001N1+00801+00571999999ADDAA112002091AY181061AY221061GA1041+012009069GF107991041051012501011001KA1120M+01481MA1999999089021MD1210121+9999ME1315639MW1011REMSYN100AAXX  12184 17203 11670 70000 10080 20057 38902 48563 52012 60022 70182 84510 333 10148 84640 87460;
0174172030999992000041221004+38870+040500FM-12+117799999V0209999C00001036001CN0200001N1+00801+00571999999ADDGA1041+012009069GF108991041051012501021999MA1999999089061MD1210041+9999ME1315689REMSYN082AAXX  12214 17203 42670 80000 10080 20057 38906 48568 52004 8452/ 333 84640 88460;
0185172030999992000041300004+38870+040500FM-12+117799999V0209999C00001036001CN0200001N1+00781+00591999999ADDAA199000021GA1041+012009069GF108991041051012501021999MA1999999089041MD1810021+9999ME1315669REMSYN082AAXX  13004 17203 32670 80000 10078 20059 38904 48566 58002 8452/ 333 84640 88460;
0202172030999992000041303004+38870+040500FM-12+117799999V0209999C00001036001CN0150001N1+00761+00551999999ADDAY121031AY221031GA1041+010509069GF108991041051012501021999MA1999999089001MD1610041+9999ME1315519MW1611REMSYN088AAXX  13034 17203 41665 80000 10076 20055 38900 48551 56004 76122 8452/ 333 84635 88457;
0280172030999992000041306004+38870+040500FM-12+117799999V0209999C00001036001CN0100001N1+00761+00571999999ADDAA112002091AY121061AY221061GA1041+010509069GF108991041051012501021999IA1119IA2999+00609KA1120N+00701MA1999999089081MD1310081+9999ME1315669MW1611REMSYN124AAXX  13064 17203 11660 80000 10076 20057 38908 48566 53008 60022 76122 8452/ 333 20070 32006 50404 55039 70040 84635 88457;
0202172030999992000041309004+38870+040500FM-12+117799999V0209999C00001036001CN0150001N1+01001+00821999999ADDAY161031AY261031GA1041+011109069GF108991041051012501021999MA1999999089041MD1810041+9999ME1315649MW1211REMSYN088AAXX  13094 17203 41665 80000 10100 20082 38904 48564 58004 72166 8452/ 333 84637 88459;
0219172030999992000041312004+38870+040500FM-12+117799999V0209999C00001036001CN0200001N1+01401+00741999999ADDAA106005191AY161061AY221061GA1041+012009069GF108991041051012501021999MA1999999088901MD1710141+9999ME1315549MW1021REMSYN094AAXX  13124 17203 11670 80000 10140 20074 38890 48554 57014 60051 70262 8452/ 333 84640 88460;
0174172030999992000041315004+38870+040500FM-12+117799999V0203001N00151036001CN0200001N1+01301+00651999999ADDGA1041+012009069GF108991041041012501021999MA1999999088581MD1710321+9999ME1315239REMSYN082AAXX  13154 17203 42670 83003 10130 20065 38858 48523 57032 8442/ 333 84640 88460;
0210172030999992000041318004+38870+040500FM-12+117799999V0203401N00311036001CN0200001N1+01261+00621999999ADDAA112005191GA1021+012009089GF105991021011012501051001KA1120M+01501MA1999999088471MD1710111+9999ME1315129REMSYN094AAXX  13184 17203 12670 53406 10126 20062 38847 48512 57011 60052 82150 333 10150 82840 85360;
0162172030999992000041321004+38870+040500FM-12+117799999V0209999C000012200019N0200001N1+01141+00581999999ADDGA1001+999999999GF100991001001999999001001MA1999999088241MD1710231+9999ME1314919REMSYN070AAXX  13214 17203 42970 00000 10114 20058 38824 48491 57023 333 10137;
0192172030999992000041400004+38870+040500FM-12+117799999V0209999C000012200019N0200001N1+00901+00481999999ADDAA199000091GA1001+999999999GF100991001001999999001001MA1999999087941MD1710121+9999ME1314649REMSYN070AAXX  14004 17203 32970 00000 10090 20048 38794 48464 57012 333 10100;EQDQ01  00002PRCP99
0152172030999992000041403004+38870+040500FM-12+117799999V0209999C000019999999N0200001N1+00981+00571999999ADDGF108991001001999999001071MA1999999087831MD1710111+9999ME1314539REMSYN076AAXX  14034 17203 42970 80000 10098 20057 38783 48453 57011 80007 333 10092;
0287172030999992000041406004+38870+040500FM-12+117799999V0209999C000010540019N0060001N1+01301+00771999999ADDAA124004891AY111061AY211061GA1081+054009089GF108991999001999999001071IA1119IA2999+00709KA1120N+00881MA1999999087831MD1410001+9999ME1314549MW1101REMSYN112AAXX  14064 17203 31956 80000 10130 20077 38783 48454 54000 71011 80007 333 20088 32007 50154 55002 70049 88268;EQDQ01+000002SCOTLC
0180172030999992000041409004+38870+040500FM-12+117799999V0200901N002119999999N0050001N1+02001+00071999999ADDAY121031AY221031GF108991001001999999001071MA1999999087921MD1110091+9999ME1314669MW1051REMSYN082AAXX  14094 17203 41950 80904 10200 20007 38792 48466 51009 70522 80007 333 10077;
0224172030999992000041415004+38870+040500FM-12+117799999V0209999C000010210019N0050001N1+01741+00601999999ADDAY121031AY221031GA1031+010209069GA2081+021009049GF108991031031012501051999MA1999999088001MD1310081+9999ME1314719MW1601REMSYN094AAXX  14154 17203 41650 80000 10174 20060 38800 48471 53008 76022 8335/ 333 83634 88457 96005;
0238172030999992000041418004+38870+040500FM-12+117799999V0209999C00001036001CN0200001N1+01501+00721999999ADDAA112000791AY161061AY221061GA1031+011109069GF108991031051012501021999KA1120M+02081MA1999999088131MD1210131+9999ME1314839MW1021REMSYN100AAXX  14184 17203 11670 80000 10150 20072 38813 48483 52013 69902 70262 8352/ 333 10208 83637 88459;
0174172030999992000041421004+38870+040500FM-12+117799999V0209999C00001036001CN0200001N1+01281+00791999999ADDGA1031+012009089GF106991031021012501051001MA1999999088261MD1210131+9999ME1314999REMSYN082AAXX  14214 17203 42670 60000 10128 20079 38826 48499 52013 83250 333 83840 86360;
0163172030999992000041500004+38870+040500FM-12+117799999V0209999C000012200019N0200001N1+01101+00661999999ADDAA199000021GF104991041021012501001001MA1999999088261MD1410001+9999ME1314979REMSYN076AAXX  15004 17203 32670 40000 10110 20066 38826 48497 54000 84200 333 10121;
0174172030999992000041503004+38870+040500FM-12+117799999V0209999C00001036001CN0200001N1+01001+00591999999ADDGA1041+012009069GF108991041051012501021999MA1999999088321MD1310061+9999ME1315029REMSYN082AAXX  15034 17203 42670 80000 10100 20059 38832 48502 53006 8452/ 333 84640 88460;
0246172030999992000041506004+38870+040500FM-12+117799999V0209999C00001036001CN0200001N1+01241+00781999999ADDAA124000791GA1031+012009089GF105991031011012501051001IA1099IA2999+00709KA1120N+00971MA1999999088421MD1210101+9999ME1315119REMSYN112AAXX  15064 17203 32670 50000 10124 20078 38842 48511 52010 83150 333 20097 31007 50374 55034 79999 83840 85360;
0152172030999992000041509004+38870+040500FM-12+117799999V0209999C000012200019N0200001N1+01901+01051999999ADDGF104991041021012501001001MA1999999088411MD1810011+9999ME1315139REMSYN076AAXX  15094 17203 42670 40000 10190 20105 38841 48513 58001 84200 333 10133;
0204172030999992000041512004+38870+040500FM-12+117799999V0203101N00151036001CN0200001N1+02001+00811999999ADDAA199000091GA1031+012009089GF105991031011012501051001MA1999999088401MD1610011+9999ME1315129REMSYN082AAXX  15124 17203 32670 53103 10200 20081 38840 48512 56001 83150 333 83840 85360;EQDQ01  00002PRCP99
0152172030999992000041515004+38870+040500FM-12+117799999V0209999C000012200019N0200001N1+02001+00541999999ADDGF104991041021012501001001MA1999999088311MD1610091+9999ME1315039REMSYN076AAXX  15154 17203 42670 40000 10200 20054 38831 48503 56009 84200 333 10127;
0217172030999992000041518004+38870+040500FM-12+117799999V0209999C000012200019N0200001N1+01601+00361999999ADDAA199000091GA1021+012009029GF102991021011012501001001KA1120M+02201MA1999999088491MD1310181+9999ME1315199REMSYN082AAXX  15184 17203 32670 20000 10160 20036 38849 48519 53018 82100 333 10220 82840;EQDQ01  00002PRCP99
0152172030999992000041521004+38870+040500FM-12+117799999V0201301N001512200019N0200001N1+01301+00291999999ADDGF103991031011012501001001MA1999999088501MD1110011+9999ME1315229REMSYN076AAXX  15214 17203 42670 31303 10130 20029 38850 48522 51001 83100 333 10144;
0182172030999992000041600004+38870+040500FM-12+117799999V0201601N001510120019N0200001N1+01041+00381999999ADDAA199000091GF107991071021012501001001MA1999999088541MD1110041+9999ME1315259REMSYN076AAXX  16004 17203 32670 71603 10104 20038 38854 48525 51004 87200 333 10153;EQDQ01  00002PRCP99
0152172030999992000041603004+38870+040500FM-12+117799999V0201601N001012200019N0200001N1+00901+00411999999ADDGF101991011011012501001001MA1999999088601MD1210061+9999ME1315309REMSYN076AAXX  16034 17203 42670 11602 10090 20041 38860 48530 52006 81100 333 10165;
0241172030999992000041606004+38870+040500FM-12+117799999V0209999C000012200019N0200001N1+01481+00781999999ADDAA199000091GA1001+999999999GF100991001001999999001001IA1099IA2999+00509KA1120N+00881MA1999999088721MD1210121+9999ME1315429REMSYN088AAXX  16064 17203 32970 00000 10148 20078 38872 48542 52012 333 20088 31005 50384 55057;EQDQ01  00002PRCP99
0152172030999992000041609004+38870+040500FM-12+117799999V0200301N001512200019N0200001N1+01981+00741999999ADDGF103991031011012501001001MA1999999088701MD1810021+9999ME1315429REMSYN076AAXX  16094 17203 42670 30303 10198 20074 38870 48542 58002 83100 333 10167;
0182172030999992000041612004+38870+040500FM-12+117799999V0200101N002112200019N0200001N1+02201+00691999999ADDAA199000091GF104991041021012501001001MA1999999088601MD1710101+9999ME1315339REMSYN076AAXX  16124 17203 32670 40104 10220 20069 38860 48533 57010 84200 333 10155;EQDQ01  00002PRCP99
0152172030999992000041615004+38870+040500FM-12+117799999V0209999C000012200019N0200001N1+02101+00341999999ADDGF102991021011012501001001MA1999999088581MD1610021+9999ME1315299REMSYN076AAXX  16154 17203 42670 20000 10210 20034 38858 48529 56002 82100 333 10158;
0205172030999992000041618004+38870+040500FM-12+117799999V0201301N001512200019N0200001N1+01541+00171999999ADDAA199000091GA1001+999999999GF100991001001999999001001KA1999M+01631MA1999999088621MD1310041+9999ME1315339REMSYN070AAXX  16184 17203 32970 01303 10154 20017 38862 48533 53004 333 10163;EQDQ01  00002PRCP99
0162172030999992000041621004+38870+040500FM-12+117799999V0201601N001512200019N0200001N1+01201+00251999999ADDGA1001+999999999GF100991001001999999001001MA1999999088721MD1210101+9999ME1315439REMSYN070AAXX  16214 17203 42970 01603 10120 20025 38872 48543 52010 333 10169;
0192172030999992000041700004+38870+040500FM-12+117799999V0209999C000012200019N0200001N1+00941+00301999999ADDAA199000091GA1001+999999999GF100991001001999999001001MA1999999088761MD1110041+9999ME1315479REMSYN070AAXX  17004 17203 32970 00000 10094 20030 38876 48547 51004 333 10174;EQDQ01  00002PRCP99
0122172030999992000041703004+38870+040500FM-12+117799999V0209999C000012200019N0200001N1+00861+00251101791ADDGA1001+999999999GF100991001001999999001001MD1410001+9999REMSYN054AAXX  17034 17203 42970 00000 10086 20025 40179 54000;
0253172030999992000041706004+38870+040500FM-12+117799999V0209999C000012200019N0200001N1+01521+00571999999ADDAA199000091GA1041+060009019GF104991001001999999001011IA1099IA2999+00409KA1120N+00761MA1999999088901MD1210141+9999ME1315609REMSYN100AAXX  17064 17203 32970 40000 10152 20057 38890 48560 52014 80001 333 20076 31004 50444 55090 84070;EQDQ01  00002PRCP99
0152172030999992000041709004+38870+040500FM-12+117799999V0209999C000012200019N0200001N1+02141+00581999999ADDGF103991001001999999001011MA1999999088801MD1710101+9999ME1315529REMSYN076AAXX  17094 17203 42970 30000 10214 20058 38880 48552 57010 80001 333 10173;
0112172030999992000041712004+38870+040500FM-12+117799999V0209999C000012200019N0200001N1+02261+00491101671ADDGF104991041001999999031001MD1710121+9999REMSYN060AAXX  17124 17203 42970 40000 10226 20049 40167 57012 84030;
0174172030999992000041715004+38870+040500FM-12+117799999V0203601N00151036001CN0200001N1+02101+00391999999ADDGA1021+012009089GF106991021011012501051001MA1999999088441MD1710161+9999ME1315159REMSYN082AAXX  17154 17203 42670 63603 10210 20039 38844 48515 57016 82150 333 82840 86360;
0223172030999992000041718004+38870+040500FM-12+117799999V0200601N00311036001CN0200001N1+01601+00681999999ADDAA199000091GA1041+012009069GF107991041041012501011001KA1120M+02381MA1999999088581MD1310141+9999ME1315309REMSYN088AAXX  17184 17203 32670 70606 10160 20068 38858 48530 53014 84410 333 10238 84640 87460;EQDQ01  00002PRCP99
0193172030999992000041721004+38870+040500FM-12+117799999V0209999C00001036001CN0200001N1+01401+00721999999ADDGA1041+012009069GF107991041051012501011001MA1999999088581MD1410001+9999ME1315329REMSYN082AAXX  17214 17203 42670 70000 10140 20072 38858 48532 56000 84510 333 84640 87460;EQDQ01+000062APCTEN
0204172030999992000041800004+38870+040500FM-12+117799999V0201801N00151036001CN0200001N1+01241+00701999999ADDAA199000091GA1041+012009069GF107991041051012501011001MA1999999088521MD1810061+9999ME1315269REMSYN082AAXX  18004 17203 32670 71803 10124 20070 38852 48526 58006 84510 333 84640 87460;EQDQ01  00002PRCP99
0174172030999992000041803004+38870+040500FM-12+117799999V0209999C00001036001CN0200001N1+01141+00631999999ADDGA1041+012009069GF107991041051012501011001MA1999999088481MD1710041+9999ME1315209REMSYN082AAXX  18034 17203 42670 70000 10114 20063 38848 48520 57004 84510 333 84640 87460;
0259172030999992000041806004+38870+040500FM-12+117799999V0209999C00001036001CN0200001N1+01601+00921999999ADDAA199000091GA1041+012009089GF106991041021012501051001IA1099IA2999+00909KA1120N+01121MA1999999088501MD1110021+9999ME1315239REMSYN106AAXX  18064 17203 32670 60000 10160 20092 38850 48523 51002 84250 333 20112 31009 50554 55078 84840 86360;EQDQ01  00002PRCP99
0174172030999992000041809004+38870+040500FM-12+117799999V0200701N00261036001CN0200001N1+01921+00881999999ADDGA1041+012009069GF107991041051012501011001MA1999999088561MD1310061+9999ME1315299REMSYN082AAXX  18094 17203 42670 70705 10192 20088 38856 48529 53006 84510 333 84640 87460;
0204172030999992000041812004+38870+040500FM-12+117799999V0203001N00151036001CN0200001N1+02121+00971999999ADDAA199000091GA1041+012009069GF107991041051012501011001MA1999999088501MD1810061+9999ME1315239REMSYN082AAXX  18124 17203 32670 73003 10212 20097 38850 48523 58006 84510 333 84640 87460;EQDQ01  00002PRCP99
0174172030999992000041815004+38870+040500FM-12+117799999V0209999C00001036001CN0200001N1+02101+00901999999ADDGA1031+012009069GF106991031051012501071001MA1999999088361MD1710141+9999ME1315099REMSYN082AAXX  18154 17203 42670 60000 10210 20090 38836 48509 57014 83570 333 83640 86460;
0217172030999992000041818004+38870+040500FM-12+117799999V0209999C000012200019N0200001N1+01621+00701999999ADDAA199000091GA1031+012009029GF103991031011012501001001KA1120M+02231MA1999999088361MD1410001+9999ME1315099REMSYN082AAXX  18184 17203 32670 30000 10162 20070 38836 48509 54000 83100 333 10223 83840;EQDQ01  00002PRCP99
0152172030999992000041821004+38870+040500FM-12+117799999V0209999C000012200019N0200001N1+01501+00701999999ADDGF104991041001999999031001MA1999999088361MD1010001+9999ME1315109REMSYN076AAXX  18214 17203 42970 40000 10150 20070 38836 48510 50000 84030 333 10123;
0204172030999992000041900004+38870+040500FM-12+117799999V0209999C00001036001CN0200001N1+01501+00601999999ADDAA199000091GA1041+012009069GF107991041051012501011001MA1999999088201MD1710161+9999ME1314969REMSYN082AAXX  19004 17203 32670 70000 10150 20060 38820 48496 57016 84510 333 84640 87460;EQDQ01  00002PRCP99
0150172030999992000041903004+38870+040500FM-12+117799999V0209999C000019999999N0200001N1+01501+00601999999ADDGA1041+012009069GF108991999999012501999999MA1999999088201REMSYN081AAXX  19034 17203 42670 80000 10150 20060 38820 4845 54000 8452/ 333 84640 88460;
0280172030999992000041906004+38870+040500FM-12+117799999V0201601N00151036001CN0200001N1+01401+01071999999ADDAA112001091AY161061AY221061GA1041+012009069GF108991041051012501021999IA1119IA2999+01009KA1120N+01261MA1999999088301MD1210101+9999ME1315029MW1211REMSYN124AAXX  19064 17203 11670 81603 10140 20107 38830 48502 52010 60012 72162 8452/ 333 20126 32010 50434 55052 70011 84640 88460;
0174172030999992000041909004+38870+040500FM-12+117799999V0202801N00261036001CN0200001N1+02101+01321999999ADDGA1031+012009089GF106991031011012501051001MA1999999088121MD1810181+9999ME1314889REMSYN082AAXX  19094 17203 42670 62805 10210 20132 38812 48488 58018 83150 333 83840 86360;
0219172030999992000041912004+38870+040500FM-12+117799999V0203001N00211036001CN0200001N1+01601+01281999999ADDAA106001091AY161061AY221061GA1041+012009069GF108991041051012501021999MA1999999088201MD1110081+9999ME1314939MW1021REMSYN094AAXX  19124 17203 11670 83004 10160 20128 38820 48493 51008 60011 70262 8452/ 333 84640 88460;
0202172030999992000041915004+38870+040500FM-12+117799999V0203101N00151036001CN0200001N1+01701+01221999999ADDAY161031AY221031GA1041+012009069GF108991041051012501021999MA1999999088001MD1710201+9999ME1314749MW1021REMSYN088AAXX  19154 17203 41670 83103 10170 20122 38800 48474 57020 70262 8452/ 333 84640 88460;
0238172030999992000041918004+38870+040500FM-12+117799999V0203601N00211036001CN0150001N1+01601+01071999999ADDAA112001091AY161061AY221061GA1041+010509069GF108991041051012501021999KA1120M+02201MA1999999088041MD1310041+9999ME1314779MW1601REMSYN100AAXX  19184 17203 11665 83604 10160 20107 38804 48477 53004 60012 76062 8452/ 333 10220 84635 88458;
0202172030999992000041921004+38870+040500FM-12+117799999V0209999C00001036001CN0200001N1+01341+00891999999ADDAY161031AY221031GA1041+012009089GF107991041021012501051001MA1999999088031MD1810011+9999ME1314789MW1021REMSYN088AAXX  19214 17203 41670 70000 10134 20089 38803 48478 58001 70262 84250 333 84840 87360;
0219172030999992000042000004+38870+040500FM-12+117799999V0209999C00001036001CN0200001N1+01341+00891999999ADDAA106000791AY161061AY221061GA1041+012009069GF107991041051012501011001MA1999999088001MD1810031+9999ME1314739MW1021REMSYN094AAXX  20004 17203 11670 70000 10134 20089 38800 48473 58003 69901 70262 84510 333 84640 87460;
0174172030999992000042003004+38870+040500FM-12+117799999V0209999C00001036001CN0200001N1+01221+00801999999ADDGA1041+012009069GF108991041051012501021999MA1999999087981MD1610021+9999ME1314709REMSYN082AAXX  20034 17203 42670 80000 10122 20080 38798 48470 56002 8452/ 333 84640 88460;
0252172030999992000042006004+38870+040500FM-12+117799999V0209999C00001036001CN0200001N1+01401+00881999999ADDAA112000791GA1041+012009069GF108991041051012501021999IA1099IA2999+01009KA1120N+01201MA1999999088081MD1210101+9999ME1314839REMSYN118AAXX  20064 17203 12670 80000 10140 20088 38808 48483 52010 69902 8452/ 333 20120 31010 50384 55022 70013 84640 88460;
0174172030999992000042009004+38870+040500FM-12+117799999V0200601N00211036001CN0200001N1+01661+00781999999ADDGA1041+012009069GF108991041051012501021999MA1999999088181MD1210101+9999ME1314909REMSYN082AAXX  20094 17203 42670 80604 10166 20078 38818 48490 52010 8452/ 333 84640 88460;
0210172030999992000042012004+38870+040500FM-12+117799999V0200701N002619999999N0050001N1+01881+00611999999ADDAA199000091AY121061AY221061GF108991081001999999011999MA1999999088221MD1110041+9999ME1314969MW1051REMSYN082AAXX  20124 17203 31950 80705 10188 20061 38822 48496 51004 70522 8801/ 333 10112;EQDQ01  00002PRCP99
0174172030999992000042015004+38870+040500FM-12+117799999V0200201N00261036001CN0200001N1+01551+00621999999ADDGA1031+012009089GF105991031011012501051001MA1999999088121MD1610101+9999ME1314839REMSYN082AAXX  20154 17203 42670 50205 10155 20062 38812 48483 56010 83150 333 83840 85360;
0238172030999992000042018004+38870+040500FM-12+117799999V0201601N002110099019N0100001N1+00901+00721999999ADDAA112003091AY121061AY221061GA1051+009909069GF108991051051008001021999KA1120M+01941MA1999999088201MD1310081+9999ME1314889MW1631REMSYN100AAXX  20184 17203 11560 81604 10090 20072 38820 48488 53008 60032 76322 8552/ 333 10194 85633 88458;
0202172030999992000042021004+38870+040500FM-12+117799999V0209999C000010120019N0200001N1+00701+00591999999ADDAY161031AY221031GA1051+012009069GF108991051051012501021999MA1999999088381MD1110181+9999ME1315059MW1031REMSYN088AAXX  20214 17203 41670 80000 10070 20059 38838 48505 51018 70362 8552/ 333 85640 88460;
0174172030999992000042103004+38870+040500FM-12+117799999V0209999C00001036001CN0200001N1+00601+00421999999ADDGA1021+012009089GF105991021011012501051001MA1999999088241MD1810061+9999ME1314919REMSYN082AAXX  21034 17203 42670 50000 10060 20042 38824 48491 58006 82150 333 82840 85360;
0246172030999992000042106004+38870+040500FM-12+117799999V0209999C000012200019N0200001N1+01001+00631999999ADDAA112003091GA1031+030009079GF103991031001999999031001IA1119IA2999+00409KA1120N+00581MA1999999088301MD1310061+9999ME1314969REMSYN112AAXX  21064 17203 12970 30000 10100 20063 38830 48496 53006 60032 83030 333 20058 32004 50454 55000 70067 83360;
0174172030999992000042109004+38870+040500FM-12+117799999V0200401N00211036001CN0200001N1+01461+00411999999ADDGA1041+012009089GF106991041021012501051001MA1999999088301MD1410001+9999ME1314979REMSYN082AAXX  21094 17203 42670 60404 10146 20041 38830 48497 54000 84250 333 84840 86360;
0204172030999992000042112004+38870+040500FM-12+117799999V0200601N00311036001CN0200001N1+01661+00191999999ADDAA199000091GA1041+012009089GF106991041021012501051001MA1999999088281MD1810021+9999ME1314969REMSYN082AAXX  21124 17203 32670 60606 10166 20019 38828 48496 58002 84250 333 84840 86360;EQDQ01  00002PRCP99
0174172030999992000042115004+38870+040500FM-12+117799999V0200601N00211036001CN0200001N1+01501+00271999999ADDGA1041+012009089GF106991041021012501051001MA1999999088281MD1510001+9999ME1314949REMSYN082AAXX  21154 17203 42670 60604 10150 20027 38828 48494 55000 84250 333 84840 86360;
0217172030999992000042118004+38870+040500FM-12+117799999V0209999C000012200019N0200001N1+01381+00371999999ADDAA199000091GA1041+012009029GF104991041021012501001001KA1120M+01741MA1999999088381MD1310101+9999ME1315069REMSYN082AAXX  21184 17203 32670 40000 10138 20037 38838 48506 53010 84200 333 10174 84840;EQDQ01  00002PRCP99
0152172030999992000042121004+38870+040500FM-12+117799999V0209999C000012200019N0200001N1+01001+00461999999ADDGF102991021011012501001001MA1999999088421MD1010041+9999ME1315109REMSYN076AAXX  21214 17203 42670 20000 10100 20046 38842 48510 50004 82100 333 10155;
0204172030999992000042200004+38870+040500FM-12+117799999V0209999C00001036001CN0200001N1+01001+00511999999ADDAA199000091GA1041+012009089GF106991041021012501051001MA1999999088401MD1810021+9999ME1315109REMSYN082AAXX  22004 17203 32670 60000 10100 20051 38840 48510 58002 84250 333 84840 86360;EQDQ01  00002PRCP99
0174172030999992000042203004+38870+040500FM-12+117799999V0209999C00001036001CN0200001N1+01001+00591999999ADDGA1041+012009069GF108991041051012501021999MA1999999088401MD1410001+9999ME1315089REMSYN082AAXX  22034 17203 42670 80000 10100 20059 38840 48508 54000 8452/ 333 84640 88460;
0280172030999992000042206004+38870+040500FM-12+117799999V0209999C00001036001CN0200001N1+01161+00921999999ADDAA112000891AY121061AY221061GA1041+012009069GF107991041051012501021001IA1119IA2999+00609KA1120N+00971MA1999999088421MD1310021+9999ME1315119MW1211REMSYN124AAXX  22064 17203 11670 70000 10116 20092 38842 48511 53002 69972 72122 84520 333 20097 32006 50224 55065 70007 84640 87460;
0202172030999992000042209004+38870+040500FM-12+117799999V0209999C00001036001CN0200001N1+01281+00941999999ADDAY181031AY221031GA1041+012009089GF106991041021012501051001MA1999999088401MD1810021+9999ME1315079MW1251REMSYN088AAXX  22094 17203 41670 60000 10128 20094 38840 48507 58002 72582 84250 333 84840 86360;
0202172030999992000042215004+38870+040500FM-12+117799999V0209999C00001036001CN0200001N1+00961+00781999999ADDAY181031AY221031GA1041+012009089GF106991041021012501051001MA1999999088501MD1110151+9999ME1315149MW1251REMSYN088AAXX  22154 17203 41670 60000 10096 20078 38850 48514 51015 72582 84250 333 84840 86360;
0238172030999992000042218004+38870+040500FM-12+117799999V0209999C00001036001CN0200001N1+00881+00661999999ADDAA112005191AY181061AY221061GA1041+012009089GF106991041021012501051001KA1120M+01521MA1999999088541MD1310041+9999ME1315199MW1021REMSYN100AAXX  22184 17203 11670 60000 10088 20066 38854 48519 53004 60052 70282 84250 333 10152 84840 86360;
0174172030999992000042221004+38870+040500FM-12+117799999V0209999C00001036001CN0200001N1+00841+00571999999ADDGA1041+012009089GF106991041021012501051001MA1999999088601MD1210061+9999ME1315259REMSYN082AAXX  22214 17203 42670 60000 10084 20057 38860 48525 52006 84250 333 84840 86360;
0185172030999992000042300004+38870+040500FM-12+117799999V0209999C00001036001CN0200001N1+00801+00531999999ADDAA199000021GA1041+012009069GF108991041051012501021999MA1999999088601MD1410001+9999ME1315249REMSYN082AAXX  23004 17203 32670 80000 10080 20053 38860 48524 54000 8452/ 333 84640 88460;
0174172030999992000042303004+38870+040500FM-12+117799999V0209999C00001036001CN0200001N1+00761+00531999999ADDGA1041+012009089GF107991041021012501071001MA1999999088601MD1410001+9999ME1315229REMSYN082AAXX  23034 17203 42670 70000 10076 20053 38860 48522 54000 84270 333 84840 87460;
0240172030999992000042306004+38870+040500FM-12+117799999V0209999C000012200019N0200001N1+01121+00641999999ADDAA124005191GA1041+030009079GF104991041001999999031001IA1119IA2999+00709KA1120N+00741MA1999999088671MD1310071+9999ME1315319REMSYN106AAXX  23064 17203 32970 40000 10112 20064 38867 48531 53007 84030 333 20074 32007 50164 55021 70050 84360;
0152172030999992000042309004+38870+040500FM-12+117799999V0203101N002112200019N0200001N1+01561+00541999999ADDGF103991031011012501001001MA1999999088701MD1110031+9999ME1315369REMSYN076AAXX  23094 17203 42670 33104 10156 20054 38870 48536 51003 83100 333 10187;
0204172030999992000042312004+38870+040500FM-12+117799999V0200901N00151036001CN0200001N1+01601+00551999999ADDAA199000091GA1041+012009089GF106991041021012501051001MA1999999088641MD1610061+9999ME1315319REMSYN082AAXX  23124 17203 32670 60903 10160 20055 38864 48531 56006 84250 333 84840 86360;EQDQ01  00002PRCP99
0152172030999992000042315004+38870+040500FM-12+117799999V0200601N002112200019N0200001N1+01521+00491999999ADDGF103991031011012501001001MA1999999088531MD1610111+9999ME1315199REMSYN076AAXX  23154 17203 42670 30604 10152 20049 38853 48519 56011 83100 333 10173;
0217172030999992000042318004+38870+040500FM-12+117799999V0209999C000012200019N0200001N1+01301+00561999999ADDAA199000091GA1041+012009029GF104991041021012501001001KA1120M+01731MA1999999088601MD1310031+9999ME1315279REMSYN082AAXX  23184 17203 32670 40000 10130 20056 38860 48527 53003 84200 333 10173 84840;EQDQ01  00002PRCP99
0152172030999992000042321004+38870+040500FM-12+117799999V0209999C000012200019N0200001N1+01061+00661999999ADDGF104991041021012501001001MA1999999088621MD1110021+9999ME1315309REMSYN076AAXX  23214 17203 42670 40000 10106 20066 38862 48530 51002 84200 333 10173;
0182172030999992000042400004+38870+040500FM-12+117799999V0209999C000012200019N0200001N1+00921+00621999999ADDAA199000091GF103991031011012501001001MA1999999088621MD1410001+9999ME1315309REMSYN076AAXX  24004 17203 32670 30000 10092 20062 38862 48530 54000 83100 333 10173;EQDQ01  00002PRCP99
0152172030999992000042403004+38870+040500FM-12+117799999V0209999C000012200019N0200001N1+00801+00611999999ADDGF103991031011012501001001MA1999999088621MD1410001+9999ME1315289REMSYN076AAXX  24034 17203 42670 30000 10080 20061 38862 48528 54000 83100 333 10178;
0253172030999992000042406004+38870+040500FM-12+117799999V0209999C000012200019N0200001N1+01221+00641999999ADDAA199000091GA1041+012009029GF104991041021012501001001IA1099IA2999+00509KA1120N+00761MA1999999088621MD1410001+9999ME1315309REMSYN100AAXX  24064 17203 32670 40000 10122 20064 38862 48530 54000 84200 333 20076 31005 50284 55064 84840;EQDQ01  00002PRCP99
0180172030999992000042409004+38870+040500FM-12+117799999V0209999C000012200019N0200001N1+01621+00641999999ADDAY181031AY221031GF104991041021012501001001MA1999999088701MD1110081+9999ME1315389MW1251REMSYN082AAXX  24094 17203 41670 40000 10162 20064 38870 48538 51008 72582 84200 333 10182;
0202172030999992000042415004+38870+040500FM-12+117799999V0203601N00151036001CN0200001N1+01401+00561999999ADDAY181031AY221031GA1041+012009089GF106991041021012501051001MA1999999088621MD1510001+9999ME1315279MW1021REMSYN088AAXX  24154 17203 41670 63603 10140 20056 38862 48527 55000 70282 84250 333 84840 86360;
0238172030999992000042418004+38870+040500FM-12+117799999V0209999C00001036001CN0200001N1+01031+00451999999ADDAA112001091AY181061AY221061GA1041+012009069GF107991041041012501011001KA1120M+01821MA1999999088721MD1310101+9999ME1315379MW1011REMSYN100AAXX  24184 17203 11670 70000 10103 20045 38872 48537 53010 60012 70182 84410 333 10182 84640 87460;
0162172030999992000042421004+38870+040500FM-12+117799999V0209999C000012200019N0200001N1+00901+00561999999ADDGA1001+999999999GF100991001001999999001001MA1999999088781MD1110061+9999ME1315459REMSYN070AAXX  24214 17203 42970 00000 10090 20056 38878 48545 51006 333 10191;
0182172030999992000042500004+38870+040500FM-12+117799999V0201801N002112200019N0200001N1+00701+00511999999ADDAA199000091GF103991031001999999031001MA1999999088741MD1610041+9999ME1315409REMSYN076AAXX  25004 17203 32970 31804 10070 20051 38874 48540 56004 83030 333 10192;EQDQ01  00002PRCP99
0174172030999992000042503004+38870+040500FM-12+117799999V0209999C00001036001CN0200001N1+00681+00441999999ADDGA1021+012009089GF105991021011012501051001MA1999999088761MD1310021+9999ME1315419REMSYN082AAXX  25034 17203 42670 50000 10068 20044 38876 48541 53002 82150 333 82840 85360;
0246172030999992000042506004+38870+040500FM-12+117799999V0209999C00001036001CN0200001N1+00971+00551999999ADDAA124001591GA1031+011109089GF107991031021012501071001IA1099IA2999+00409KA1120N+00631MA1999999088831MD1110071+9999ME1315469REMSYN112AAXX  25064 17203 32670 70000 10097 20055 38883 48546 51007 83270 333 20063 31004 50254 55039 70014 83837 87359;
0174172030999992000042509004+38870+040500FM-12+117799999V0203601N00151036001CN0200001N1+01641+00461999999ADDGA1031+011409089GF107991031021012501031001MA1999999088831MD1010001+9999ME1315499REMSYN082AAXX  25094 17203 42670 73603 10164 20046 38883 48549 50000 83230 333 83838 87360;
0219172030999992000042512004+38870+040500FM-12+117799999V0201601N00211036001CN0200001N1+01661+00791999999ADDAA106001091AY181061AY221061GA1021+011409089GF106991021021012501031001MA1999999088761MD1710071+9999ME1315429MW1011REMSYN094AAXX  25124 17203 11670 61604 10166 20079 38876 48542 57007 60011 70182 82230 333 82838 86360;
0152172030999992000042515004+38870+040500FM-12+117799999V0200701N001512200019N0200001N1+01641+00511999999ADDGF102991021011012501001001MA1999999088641MD1810121+9999ME1315309REMSYN076AAXX  25154 17203 42670 20703 10164 20051 38864 48530 58012 82100 333 10180;
0204172030999992000042518004+38870+040500FM-12+117799999V0209999C000012200019N0200001N1+01201+00551999999ADDAA112001091GA1021+012009029GF102991021011012501001001KA1120M+01861MA1999999088681MD1310041+9999ME1315339REMSYN088AAXX  25184 17203 12670 20000 10120 20055 38868 48533 53004 60012 82100 333 10186 82840;
0162172030999992000042521004+38870+040500FM-12+117799999V0209999C000012200019N0200001N1+01001+00531999999ADDGA1001+999999999GF100991001001999999001001MA1999999088701MD1110071+9999ME1315389REMSYN070AAXX  25214 17203 42970 00000 10100 20053 38870 48538 51007 333 10188;
0192172030999992000042600004+38870+040500FM-12+117799999V0209999C000012200019N0200001N1+00841+00511999999ADDAA199000091GA1001+999999999GF100991001001999999001001MA1999999088761MD1410001+9999ME1315429REMSYN070AAXX  26004 17203 32970 00000 10084 20051 38876 48542 54000 333 10193;EQDQ01  00002PRCP99
0152172030999992000042603004+38870+040500FM-12+117799999V0209999C000012200019N0200001N1+00771+00481999999ADDGF102991021011012501001001MA1999999088751MD1410001+9999ME1315419REMSYN076AAXX  26034 17203 42670 20000 10077 20048 38875 48541 54000 82100 333 10193;
0228172030999992000042606004+38870+040500FM-12+117799999V0209999C000012200019N0200001N1+01401+00721999999ADDAA124001091GA1001+999999999GF100991001001999999001001IA1119IA2999+00409KA1120N+00751MA1999999088801MD1310051+9999ME1315479REMSYN094AAXX  26064 17203 32970 00000 10140 20072 38880 48547 53005 333 20075 32004 50254 55045 70010;
0152172030999992000042609004+38870+040500FM-12+117799999V0200601N001512200019N0200001N1+02001+01011999999ADDGF104991041021012501001001MA1999999088801MD1410001+9999ME1315509REMSYN076AAXX  26094 17203 42670 40603 10200 20101 38880 48550 54000 84200 333 10182;
0219172030999992000042612004+38870+040500FM-12+117799999V0209999C00001036001CN0200001N1+01901+00891999999ADDAA106002091AY181061AY211061GA1031+012009089GF105991031021012501051001MA1999999088801MD1410001+9999ME1315489MW1011REMSYN094AAXX  26124 17203 11670 50000 10190 20089 38880 48548 54000 60021 70181 83250 333 83840 85360;
0152172030999992000042615004+38870+040500FM-12+117799999V0200301N002112200019N0200001N1+01881+00691999999ADDGF102991021011012501001001MA1999999088761MD1610041+9999ME1315439REMSYN076AAXX  26154 17203 42670 20304 10188 20069 38876 48543 56004 82100 333 10189;
0192172030999992000042618004+38870+040500FM-12+117799999V0209999C000012200019N0200001N1+01401+00511999999ADDAA112002091GA1001+999999999GF100991001001999999001001KA1999M+01921MA1999999088831MD1310071+9999ME1315519REMSYN076AAXX  26184 17203 12970 00000 10140 20051 38883 48551 53007 60022 333 10192;
0162172030999992000042621004+38870+040500FM-12+117799999V0201801N001512200019N0200001N1+01121+00521999999ADDGA1001+999999999GF100991001001999999001001MA1999999088921MD1210091+9999ME1315629REMSYN070AAXX  26214 17203 42970 01803 10112 20052 38892 48562 52009 333 10192;
0192172030999992000042700004+38870+040500FM-12+117799999V0201801N001512200019N0200001N1+00941+00561999999ADDAA199000091GA1001+999999999GF100991001001999999001001MA1999999088921MD1410001+9999ME1315609REMSYN070AAXX  27004 17203 32970 01803 10094 20056 38892 48560 54000 333 10202;EQDQ01  00002PRCP99
0162172030999992000042703004+38870+040500FM-12+117799999V0201801N001512200019N0200001N1+00801+00491999999ADDGA1001+999999999GF100991001001999999001001MA1999999088921MD1410001+9999ME1315599REMSYN070AAXX  27034 17203 42970 01803 10080 20049 38892 48559 54000 333 10207;
0228172030999992000042706004+38870+040500FM-12+117799999V0209999C000012200019N0200001N1+01501+00721999999ADDAA124002091GA1001+999999999GF100991001001999999001001IA1099IA2999+00509KA1120N+00801MA1999999089061MD1210141+9999ME1315749REMSYN094AAXX  27064 17203 32970 00000 10150 20072 38906 48574 52014 333 20080 31005 50304 55077 70021;
0182172030999992000042712004+38870+040500FM-12+117799999V0202501N002112200019N0200001N1+02281+00571999999ADDAA199000091GF102991021011012501001001MA1999999088861MD1710161+9999ME1315579REMSYN076AAXX  27124 17203 32670 22504 10228 20057 38886 48557 57016 82100 333 10185;EQDQ01  00002PRCP99
0162172030999992000042715004+38870+040500FM-12+117799999V0209999C000012200019N0200001N1+02301+00551999999ADDGA1001+999999999GF100991001001999999001001MA1999999088731MD1710131+9999ME1315449REMSYN070AAXX  27154 17203 42970 00000 10230 20055 38873 48544 57013 333 10170;
0205172030999992000042718004+38870+040500FM-12+117799999V0209999C000012200019N0200001N1+01681+00471999999ADDAA199000091GA1001+999999999GF100991001001999999001001KA1999M+01671MA1999999088701MD1610031+9999ME1315419REMSYN070AAXX  27184 17203 32970 00000 10168 20047 38870 48541 56003 333 10167;EQDQ01  00002PRCP99
0162172030999992000042721004+38870+040500FM-12+117799999V0209999C000012200019N0200001N1+01401+00471999999ADDGA1001+999999999GF100991001001999999001001MA1999999088801MD1110101+9999ME1315549REMSYN070AAXX  27214 17203 42970 00000 10140 20047 38880 48554 51010 333 10168;
0192172030999992000042800004+38870+040500FM-12+117799999V0209999C000012200019N0200001N1+01201+00441999999ADDAA199000091GA1001+999999999GF100991001001999999001001MA1999999088701MD1810101+9999ME1315449REMSYN070AAXX  28004 17203 32970 00000 10120 20044 38870 48544 58010 333 10162;EQDQ01  00002PRCP99
0162172030999992000042803004+38870+040500FM-12+117799999V0209999C000012200019N0200001N1+01061+00531999999ADDGA1001+999999999GF100991001001999999001001MA1999999088661MD1810041+9999ME1315399REMSYN070AAXX  28034 17203 42970 00000 10106 20053 38866 48539 58004 333 10157;
0259172030999992000042806004+38870+040500FM-12+117799999V0209999C00001036001CN0200001N1+01401+00721999999ADDAA199000091GA1041+012009089GF107991041021012501051001IA1019IA2999+00709KA1120N+01041MA1999999088661MD1410001+9999ME1315379REMSYN106AAXX  28064 17203 32670 70000 10140 20072 38866 48537 54000 84250 333 20104 30007 50414 55096 84840 87360;EQDQ01  00002PRCP99
0174172030999992000042809004+38870+040500FM-12+117799999V0209999C00001036001CN0200001N1+02201+01031999999ADDGA1031+012009089GF106991031011012501051001MA1999999088601MD1810061+9999ME1315349REMSYN082AAXX  28094 17203 42670 60000 10220 20103 38860 48534 58006 83150 333 83840 86360;
0204172030999992000042812004+38870+040500FM-12+117799999V0201201N00151036001CN0200001N1+02061+00761999999ADDAA199000091GA1041+012009089GF107991041021012501051001MA1999999088501MD1610101+9999ME1315229REMSYN082AAXX  28124 17203 32670 71203 10206 20076 38850 48522 56010 84250 333 84840 87360;EQDQ01  00002PRCP99
0174172030999992000042815004+38870+040500FM-12+117799999V0209999C00001036001CN0200001N1+02121+00711999999ADDGA1031+012009089GF106991031011012501051001MA1999999088341MD1610161+9999ME1315079REMSYN082AAXX  28154 17203 42670 60000 10212 20071 38834 48507 56016 83150 333 83840 86360;
0223172030999992000042818004+38870+040500FM-12+117799999V0209999C00001036001CN0200001N1+01861+00601999999ADDAA199000091GA1031+012009089GF106991031011012501051001KA1120M+02401MA1999999088401MD1210061+9999ME1315129REMSYN088AAXX  28184 17203 32670 60000 10186 20060 38840 48512 52006 83150 333 10240 83840 86360;EQDQ01  00002PRCP99
0174172030999992000042821004+38870+040500FM-12+117799999V0201801N00151036001CN0200001N1+01501+00721999999ADDGA1031+012009089GF106991031011012501051001MA1999999088381MD1810021+9999ME1315149REMSYN082AAXX  28214 17203 43670 61803 10150 20072 38838 48514 58002 83150 333 83840 86360;
0174172030999992000042903004+38870+040500FM-12+117799999V0209999C00001036001CN0200001N1+01281+00901999999ADDGA1041+012009069GF108991041051012501021999MA1999999088101MD1610151+9999ME1314859REMSYN082AAXX  29034 17203 42670 80000 10128 20090 38810 48485 56015 8452/ 333 84640 88460;
0259172030999992000042906004+38870+040500FM-12+117799999V0200701N00151036001CN0200001N1+01321+00981999999ADDAA199000091GA1041+012009089GF108991041051012501021999IA1019IA2999+00809KA1120N+01251MA1999999088101MD1410001+9999ME1314839REMSYN106AAXX  29064 17203 32670 80703 10132 20098 38810 48483 54000 8452/ 333 20125 30008 50434 55043 84840 88460;EQDQ01  00002PRCP99
0202172030999992000042909004+38870+040500FM-12+117799999V0209999C000010105019N0080001N1+01141+01001999999ADDAY121031AY221031GA1051+010509089GF108991051051012501021999MA1999999088221MD1210121+9999ME1314929MW1611REMSYN088AAXX  29094 17203 41658 80000 10114 20100 38822 48492 52012 76122 8552/ 333 85835 88457;
0219172030999992000042912004+38870+040500FM-12+117799999V0200701N00151036001CN0200001N1+01281+00971999999ADDAA106004191AY161061AY221061GA1041+012009069GF108991041051012501021999MA1999999088321MD1210101+9999ME1315039MW1021REMSYN094AAXX  29124 17203 11670 80703 10128 20097 38832 48503 52010 60041 70262 8452/ 333 84640 88460;
0180172030999992000042915004+38870+040500FM-12+117799999V0203401N002612200019N0200001N1+01061+00731999999ADDAY161031AY261031GF103991031011012501001001MA1999999088391MD1210071+9999ME1315069MW1211REMSYN082AAXX  29154 17203 41670 33405 10106 20073 38839 48506 52007 72166 83100 333 10151;
0238172030999992000042918004+38870+040500FM-12+117799999V0209999C00001036001CN0200001N1+00901+00721999999ADDAA112006191AY161061AY211061GA1041+012009069GF108991041041012501021999KA1120M+01401MA1999999088541MD1210151+9999ME1315199MW1031REMSYN100AAXX  29184 17203 11670 80000 10090 20072 38854 48519 52015 60062 70361 8442/ 333 10140 84640 88460;
0202172030999992000042921004+38870+040500FM-12+117799999V0209999C00001036001CN0200001N1+00741+00741999999ADDAY121031AY221031GA1031+012009069GF106991031051012501051001MA1999999088561MD1010021+9999ME1315209MW1211REMSYN088AAXX  29214 17203 41670 60000 10074 20074 38856 48520 50002 72122 83550 333 83640 86360;
0197172030999992000043000004+38870+040500FM-12+117799999V0209999C000012200019N0200001N1+00601+00561999999ADDAA106002091AY161061AY211061GF102991021011012501001001MA1999999088501MD1810061+9999ME1315149MW1011REMSYN088AAXX  30004 17203 11670 20000 10060 20056 38850 48514 58006 60021 70161 82100 333 10197;
0174172030999992000043003004+38870+040500FM-12+117799999V0209999C00001036001CN0200001N1+00561+00481999999ADDGA1041+012009089GF107991041021012501051001MA1999999088501MD1410001+9999ME1315129REMSYN082AAXX  30034 17203 42670 70000 10056 20048 38850 48512 54000 84250 333 84840 87360;
0252172030999992000043006004+38870+040500FM-12+117799999V0209999C00001036001CN0200001N1+00901+00721999999ADDAA112002091GA1041+012009089GF107991041021012501051001IA1119IA2999+00409KA1120N+00501MA1999999088501MD1410001+9999ME1315139REMSYN118AAXX  30064 17203 12670 70000 10090 20072 38850 48513 54000 60022 84250 333 20050 32004 50204 55001 70075 84840 87360;
0174172030999992000043009004+38870+040500FM-12+117799999V0209999C00001036001CN0200001N1+01301+00561999999ADDGA1041+012009069GF108991041051012501011001MA1999999088501MD1410001+9999ME1315159REMSYN082AAXX  30094 17203 42670 80000 10130 20056 38850 48515 54000 84510 333 84640 88460;
0219172030999992000043012004+38870+040500FM-12+117799999V0209999C00001036001CN0200001N1+01461+00761999999ADDAA106003091AY161061AY221061GA1031+012009089GF106991031011012501051001MA1999999088501MD1010001+9999ME1315159MW1021REMSYN094AAXX  30124 17203 11670 60000 10146 20076 38850 48515 50000 60031 70262 83150 333 83840 86360;
0180172030999992000043015004+38870+040500FM-12+117799999V0209999C000012200019N0200001N1+01301+00731999999ADDAY181031AY281031GF103991031011012501001001MA1999999088481MD1610021+9999ME1315129MW1251REMSYN082AAXX  30154 17203 41670 30000 10130 20073 38848 48512 56002 72588 83100 333 10177;
0232172030999992000043018004+38870+040500FM-12+117799999V0209999C000012200019N0200001N1+01201+00851999999ADDAA112004191AY181061AY211061GA1041+012009029GF104991041021012501001001KA1120M+01681MA1999999088521MD1310041+9999ME1315189MW1011REMSYN094AAXX  30184 17203 11670 40000 10120 20085 38852 48518 53004 60042 70181 84200 333 10168 84840;
0162172030999992000043021004+38870+040500FM-12+117799999V0209999C000012200019N0200001N1+00941+00641999999ADDGA1001+999999999GF100991001001999999001001MA1999999088661MD1210141+9999ME1315319REMSYN070AAXX  30214 17203 42970 00000 10094 20064 38866 48531 52014 333 10188;
0173172030999992000050100004+38870+040500FM-12+117799999V0201601N001512200019N0200001N1+00841+00571999999ADDAA199000021GA1001+999999999GF100991001001999999001001MA1999999088641MD1810021+9999ME1315299REMSYN070AAXX  01004 17203 32970 01603 10084 20057 38864 48529 58002 333 10180;
0162172030999992000050103004+38870+040500FM-12+117799999V0209999C000012200019N0200001N1+00661+00421999999ADDGA1001+999999999GF100991001001999999001001MA1999999088621MD1610021+9999ME1315269REMSYN070AAXX  01034 17203 42970 00000 10066 20042 38862 48526 56002 333 10188;
0228172030999992000050106004+38870+040500FM-12+117799999V0209999C000012200019N0200001N1+01371+00711999999ADDAA124003691GA1001+999999999GF100991001001999999001001IA1119IA2999+00409KA1120N+00621MA1999999088681MD1210061+9999ME1315359REMSYN094AAXX  01064 17203 32970 00000 10137 20071 38868 48535 52006 333 20062 32004 50094 55041 70036;
0152172030999992000050109004+38870+040500FM-12+117799999V0209999C000012200019N0200001N1+01901+00681999999ADDGF102991021011012501001001MA1999999088681MD1410001+9999ME1315379REMSYN076AAXX  01094 17203 42670 20000 10190 20068 38868 48537 54000 82100 333 10174;
0182172030999992000050112004+38870+040500FM-12+117799999V0209999C000012200019N0200001N1+02101+00491999999ADDAA199000091GF103991031011012501001001MA1999999088581MD1710101+9999ME1315289REMSYN076AAXX  01124 17203 32670 30000 10210 20049 38858 48528 57010 83100 333 10158;EQDQ01  00002PRCP99
0202172030999992000050115004+38870+040500FM-12+117799999V0209999C00001036001CN0200001N1+01821+00751999999ADDAY181031AY211031GA1031+012009089GF105991031011012501051001MA1999999088521MD1610061+9999ME1315209MW1251REMSYN088AAXX  01154 17203 41670 50000 10182 20075 38852 48520 56006 72581 83150 333 83840 85360;
0220172030999992000050118004+38870+040500FM-12+117799999V0209999C000012200019N0200001N1+01441+00561999999ADDAA112000591AY181061AY211061GA1001+999999999GF100991001001999999001001KA1999M+01631MA1999999088581MD1310061+9999ME1315279MW1011REMSYN082AAXX  01184 17203 11970 00000 10144 20056 38858 48527 53006 69942 70181 333 10163;
0162172030999992000050121004+38870+040500FM-12+117799999V0209999C000012200019N0200001N1+01161+00571999999ADDGA1001+999999999GF100991001001999999001001MA1999999088661MD1210081+9999ME1315379REMSYN070AAXX  01214 17203 42970 00000 10116 20057 38866 48537 52008 333 10167;
0173172030999992000050200004+38870+040500FM-12+117799999V0201801N001512200019N0200001N1+00981+00571999999ADDAA199000021GA1001+999999999GF100991001001999999001001MA1999999088661MD1410001+9999ME1315379REMSYN070AAXX  02004 17203 32970 01803 10098 20057 38866 48537 54000 333 10167;
0162172030999992000050203004+38870+040500FM-12+117799999V0209999C000012200019N0200001N1+00821+00591999999ADDGA1001+999999999GF100991001001999999001001MA1999999088651MD1610011+9999ME1315339REMSYN070AAXX  02034 17203 42970 00000 10082 20059 38865 48533 56001 333 10176;
0228172030999992000050206004+38870+040500FM-12+117799999V0209999C000012200019N0200001N1+01401+00761999999ADDAA199000091GA1001+999999999GF100991001001999999001001KA1120N+00781MA1999999088721MD1110071+9999ME1315419REMSYN093AAXX  02064 17203 32970 00000 10140 20076 38872 48541 51007 333 20078 1005 50324 55083 70004;EQDQ01  00002PRCP99
0152172030999992000050209004+38870+040500FM-12+117799999V0200901N002112200019N0200001N1+02001+00771999999ADDGF104991041011012501001001MA1999999088701MD1810021+9999ME1315419REMSYN076AAXX  02094 17203 42670 40904 10200 20077 38870 48541 58002 84100 333 10167;
0204172030999992000050212004+38870+040500FM-12+117799999V0200901N00311090001CN0200001N1+02121+00641999999ADDAA199000091GA1041+011409089GF107991041081012501001061MA1999999088601MD1710101+9999ME1315329REMSYN082AAXX  02124 17203 32670 70906 10212 20064 38860 48532 57010 84806 333 84838 87268;EQDQ01  00002PRCP99
0152172030999992000050215004+38870+040500FM-12+117799999V0200701N002112200019N0200001N1+01901+00771999999ADDGF102991021011012501001001MA1999999088501MD1710101+9999ME1315199REMSYN076AAXX  02154 17203 42670 20704 10190 20077 38850 48519 57010 82100 333 10154;
0232172030999992000050218004+38870+040500FM-12+117799999V0209999C000012200019N0200001N1+01621+00911999999ADDAA112000791AY181061AY211061GA1041+012009029GF104991041011012501001001KA1120M+02151MA1999999088481MD1510021+9999ME1315209MW1011REMSYN094AAXX  02184 17203 11670 40000 10162 20091 38848 48520 55002 69902 70181 84100 333 10215 84840;
0174172030999992000050221004+38870+040500FM-12+117799999V0209999C00001036001CN0200001N1+01471+00771999999ADDGA1041+012009069GF107991041051012501021999MA1999999088501MD1110021+9999ME1315249REMSYN082AAXX  02214 17203 42670 70000 10147 20077 38850 48524 51002 8452/ 333 84640 87460;
0182172030999992000050300004+38870+040500FM-12+117799999V0209999C000012200019N0200001N1+01301+00771999999ADDAA199000091GF103991031011012501001001MA1999999088401MD1710101+9999ME1315159REMSYN076AAXX  03004 17203 32670 30000 10130 20077 38840 48515 57010 83100 333 10127;EQDQ01  00002PRCP99
0202172030999992000050303004+38870+040500FM-12+117799999V0209999C00001036001CN0150001N1+01201+00851999999ADDAY111031AY211031GA1041+011409069GF107991041051012501021999MA1999999088401MD1410001+9999ME1315129MW1801REMSYN088AAXX  03034 17203 41665 70000 10120 20085 38840 48512 54000 78011 8452/ 333 84638 87459;
0280172030999992000050306004+38870+040500FM-12+117799999V0209999C00001036001CN0200001N1+01701+01111999999ADDAA112000591AY181061AY211061GA1041+012009089GF107991041021012501051001IA1119IA2999+01109KA1120N+01171MA1999999088401MD1410001+9999ME1315149MW1031REMSYN124AAXX  03064 17203 11670 70000 10170 20111 38840 48514 54000 69942 70381 84250 333 20117 32011 50424 55091 70004 84840 87360;
0174172030999992000050309004+38870+040500FM-12+117799999V0200701N00261036001CN0200001N1+01901+00811999999ADDGA1031+012009089GF107991031021012501051001MA1999999088301MD1810101+9999ME1315049REMSYN082AAXX  03094 17203 42670 70705 10190 20081 38830 48504 58010 83250 333 83840 87360;
0185172030999992000050312004+38870+040500FM-12+117799999V0200601N00311036001CN0200001N1+02201+00831999999ADDAA199000021GA1021+012009089GF105991021011012501051001MA1999999088151MD1710151+9999ME1314909REMSYN082AAXX  03124 17203 32670 50606 10220 20083 38815 48490 57015 82150 333 82840 85360;
0185172030999992000050315004+38870+040500FM-12+117799999V0209999C000010360019N0200001N1+01741+01191999999ADDAY191031AY221031GF106991031021012501051001MA1999999088101MD1610051+9999ME1314829MW1011REMSYN087AAXX  03154 17203 41670 60000 10174 20119 38810 48482 56005 70192 83250 333 8340 86360;
0238172030999992000050318004+38870+040500FM-12+117799999V0209999C00001036001CN0200001N1+01401+01101999999ADDAA112000591AY191061AY281061GA1041+011409089GF107991041021012501071001KA1120M+02261MA1999999088221MD1310121+9999ME1314949MW1021REMSYN100AAXX  03184 17203 11670 70000 10140 20110 38822 48494 53012 69962 70298 84270 333 10226 84838 87359;
0162172030999992000050321004+38870+040500FM-12+117799999V0209999C000012200019N0200001N1+01201+00961999999ADDGA1001+999999999GF100991001001999999001001MA1999999088261MD1110041+9999ME1314989REMSYN070AAXX  03214 17203 42970 00000 10120 20096 38826 48498 51004 333 10116;
0204172030999992000050400004+38870+040500FM-12+117799999V0209999C000012200019N0200001N1+01141+00781999999ADDAA199000091GA1011+012009089GF104991011011012501031001MA1999999088261MD1410001+9999ME1314999REMSYN082AAXX  04004 17203 32670 40000 10114 20078 38826 48499 54000 81130 333 81840 84360;EQDQ01  00002PRCP99
0152172030999992000050403004+38870+040500FM-12+117799999V0209999C000019999999N0200001N1+01141+00821999999ADDGF108991081001999999021999MA1999999088261MD1410001+9999ME1314979REMSYN076AAXX  04034 17203 42970 80000 10114 20082 38826 48497 54000 8802/ 333 10126;
0246172030999992000050406004+38870+040500FM-12+117799999V0209999C00001036001CN0200001N1+01521+00911999999ADDAA124000591GA1021+012009089GF107991021011012501071001IA1099IA2999+00909KA1120N+01121MA1999999088421MD1110161+9999ME1315129REMSYN112AAXX  04064 17203 32670 70000 10152 20091 38842 48512 51016 82170 333 20112 31009 50484 55048 70006 82840 87360;
0174172030999992000050409004+38870+040500FM-12+117799999V0200401N00151036001CN0200001N1+01861+00961999999ADDGA1041+012009089GF107991041021012501051001MA1999999088421MD1010001+9999ME1315149REMSYN082AAXX  04094 17203 42670 70403 10186 20096 38842 48514 50000 84250 333 84840 87360;
0204172030999992000050412004+38870+040500FM-12+117799999V0200401N00261036001CN0200001N1+01861+01111999999ADDAA199000091GA1031+012009089GF106991031021012501051001MA1999999088421MD1510001+9999ME1315139REMSYN082AAXX  04124 17203 32670 60405 10186 20111 38842 48513 55000 83250 333 83840 86360;EQDQ01  00002PRCP99
0202172030999992000050415004+38870+040500FM-12+117799999V0209999C00001036001CN0200001N1+01301+01081999999ADDAY191031AY281031GA1041+012009089GF106991041021012501051001MA1999999088581MD1310161+9999ME1315259MW1251REMSYN088AAXX  04154 17203 41670 60000 10130 20108 38858 48525 53016 72598 84250 333 84840 86360;
0238172030999992000050418004+38870+040500FM-12+117799999V0209999C00001036001CN0150001N1+01201+01101999999ADDAA112004191AY191061AY281061GA1041+010509089GF107991041021012501051001KA1120M+01961MA1999999088541MD1810041+9999ME1315239MW1801REMSYN100AAXX  04184 17203 11665 70000 10120 20110 38854 48523 58004 60042 78098 84250 333 10196 84835 87359;
0202172030999992000050421004+38870+040500FM-12+117799999V0201801N002110099019N0100001N1+01141+01041999999ADDAY181031AY221031GA1051+009909069GF108991051051008001021999MA1999999088801MD1310261+9999ME1315509MW1631REMSYN088AAXX  04214 17203 41560 81804 10114 20104 38880 48550 53026 76382 8552/ 333 85633 88458;
0219172030999992000050500004+38870+040500FM-12+117799999V0209999C00001036001CN0200001N1+01001+00931999999ADDAA106005191AY181061AY261061GA1041+012009069GF108991041051012501021999MA1999999088581MD1710221+9999ME1315289MW1211REMSYN094AAXX  05004 17203 11670 80000 10100 20093 38858 48528 57022 60051 72186 8452/ 333 84640 88460;
0174172030999992000050503004+38870+040500FM-12+117799999V0201601N00211036001CN0200001N1+01001+00691999999ADDGA1021+012009089GF105991021011012501051001MA1999999088401MD1610181+9999ME1315079REMSYN082AAXX  05034 17203 42670 51604 10100 20069 38840 48507 56018 82150 333 82840 85360;
0252172030999992000050506004+38870+040500FM-12+117799999V0203101N00211220001CN0200001N1+01601+00721999999ADDAA112005191GA1021+012009089GF106991021011012501001011IA1119IA2999+00809KA1120N+00991MA1999999088361MD1810041+9999ME1315069REMSYN118AAXX  05064 17203 12670 63104 10160 20072 38836 48506 58004 60052 82101 333 20099 32008 50324 55024 70080 82840 86070;
0174172030999992000050509004+38870+040500FM-12+117799999V0203001N00211220001CN0200001N1+02181+00881999999ADDGA1021+012009089GF106991021011012501001011MA1999999088281MD1710081+9999ME1315029REMSYN082AAXX  05094 17203 42670 63004 10218 20088 38828 48502 57008 82101 333 82840 86070;
0191172030999992000050512004+38870+040500FM-12+117799999V0200301N003119999999N0080001N1+02481+00871999999ADDAA199000021AY121061AY221061GF108991081001999999011999MA1999999088201MD1610081+9999ME1314959MW1051REMSYN082AAXX  05124 17203 31958 80306 10248 20087 38820 48495 56008 70522 8801/ 333 10104;
0202172030999992000050515004+38870+040500FM-12+117799999V0200101N00211036001CN0060001N1+02121+00931999999ADDAY121031AY221031GA1041+011409069GF107991041051012501021001MA1999999088161MD1510041+9999ME1314899MW1051REMSYN088AAXX  05154 17203 41656 70104 10212 20093 38816 48489 55004 70522 84520 333 84638 87459;
0251172030999992000050518004+38870+040500FM-12+117799999V0209999C00001036001CN0060001N1+01801+00701999999ADDAA199000091AY121061AY221061GA1041+011409069GF108991041021012501051999KA1120M+02501MA1999999088301MD1210141+9999ME1315049MW1051REMSYN094AAXX  05184 17203 31656 80000 10180 20070 38830 48504 52014 70522 8425/ 333 10250 84638 88459;EQDQ01  00002PRCP99
0174172030999992000050521004+38870+040500FM-12+117799999V0209999C00001036001CN0200001N1+01581+00571999999ADDGA1031+012009089GF105991031011012501051001MA1999999088401MD1110101+9999ME1315169REMSYN082AAXX  05214 17203 42670 50000 10158 20057 38840 48516 51010 83150 333 83840 85360;
0192172030999992000050600004+38870+040500FM-12+117799999V0209999C000012200019N0200001N1+01301+00611999999ADDAA199000091GA1001+999999999GF100991001001999999001001MA1999999088461MD1310061+9999ME1315239REMSYN070AAXX  06004 17203 32970 00000 10130 20061 38846 48523 53006 333 10124;EQDQ01  00002PRCP99
0162172030999992000050603004+38870+040500FM-12+117799999V0209999C000012200019N0200001N1+01061+00771999999ADDGA1001+999999999GF100991001001999999001001MA1999999088461MD1410001+9999ME1315189REMSYN070AAXX  06034 17203 42970 00000 10106 20077 38846 48518 54000 333 10139;
0259172030999992000050606004+38870+040500FM-12+117799999V0209999C00001036001CN0200001N1+01341+00931999999ADDAA199000091GA1031+012009089GF105991031011012501051001IA1099IA2999+00809KA1120N+01001MA1999999088601MD1210141+9999ME1315329REMSYN106AAXX  06064 17203 32670 50000 10134 20093 38860 48532 52014 83150 333 20100 31008 50334 55074 83840 85360;EQDQ01  00002PRCP99
0152172030999992000050609004+38870+040500FM-12+117799999V0200401N001512200019N0200001N1+01901+00971999999ADDGF104991041021012501001001MA1999999088611MD1010011+9999ME1315359REMSYN076AAXX  06094 17203 42670 40403 10190 20097 38861 48535 50001 84200 333 10151;
0182172030999992000050612004+38870+040500FM-12+117799999V0200701N002612200019N0200001N1+02181+00841999999ADDAA199000091GF102991021011012501001001MA1999999088561MD1710051+9999ME1315319REMSYN076AAXX  06124 17203 32670 20705 10218 20084 38856 48531 57005 82100 333 10146;EQDQ01  00002PRCP99
0152172030999992000050615004+38870+040500FM-12+117799999V0200601N002112200019N0200001N1+01861+00711999999ADDGF102991021011012501001001MA1999999088511MD1610051+9999ME1315219REMSYN076AAXX  06154 17203 42670 20604 10186 20071 38851 48521 56005 82100 333 10150;
0217172030999992000050618004+38870+040500FM-12+117799999V0209999C000012200019N0200001N1+01501+00591999999ADDAA199000091GA1031+012009029GF103991031011012501001001KA1120M+02221MA1999999088661MD1310151+9999ME1315369REMSYN082AAXX  06184 17203 32670 30000 10150 20059 38866 48536 53015 83100 333 10222 83840;EQDQ01  00002PRCP99
0192172030999992000050700004+38870+040500FM-12+117799999V0201601N002112200019N0200001N1+00901+00521999999ADDAA199000091GA1001+999999999GF100991001001999999001001MA1999999088741MD1110021+9999ME1315459REMSYN070AAXX  07004 17203 32970 01604 10090 20052 38874 48545 51002 333 10176;EQDQ01  00002PRCP99
0152172030999992000050703004+38870+040500FM-12+117799999V0201601N001512200019N0200001N1+00881+00411999999ADDGF104991041021012501001001MA1999999088781MD1310041+9999ME1315469REMSYN076AAXX  07034 17203 42670 41603 10088 20041 38878 48546 53004 84200 333 10186;
0253172030999992000050706004+38870+040500FM-12+117799999V0209999C000012200019N0200001N1+01501+00721999999ADDAA199000091GA1031+012009029GF103991031011012501001001IA1099IA2999+00509KA1120N+00851MA1999999088821MD1210041+9999ME1315519REMSYN100AAXX  07064 17203 32670 30000 10150 20072 38882 48551 52004 83100 333 20085 31005 50454 55078 83840;EQDQ01  00002PRCP99
0202172030999992000050709004+38870+040500FM-12+117799999V0200301N00151036001CN0200001N1+01961+00961999999ADDAY111031AY211031GA1041+012009089GF105991041021012501051001MA1999999088801MD1810021+9999ME1315519MW1251REMSYN088AAXX  07094 17203 41670 50303 10196 20096 38880 48551 58002 72511 84250 333 84840 85360;
0219172030999992000050712004+38870+040500FM-12+117799999V0200401N00211036001CN0200001N1+02101+00861999999ADDAA106000791AY181061AY211061GA1041+012009089GF106991041021012501051001MA1999999088651MD1710151+9999ME1315359MW1021REMSYN094AAXX  07124 17203 11670 60404 10210 20086 38865 48535 57015 69901 70281 84250 333 84840 86360;
0174172030999992000050715004+38870+040500FM-12+117799999V0200401N00151036001CN0200001N1+01981+00741999999ADDGA1041+012009089GF106991041021012501051001MA1999999088461MD1710191+9999ME1315169REMSYN082AAXX  07154 17203 42670 60403 10198 20074 38846 48516 57019 84250 333 84840 86360;
0210172030999992000050718004+38870+040500FM-12+117799999V0209999C00001036001CN0200001N1+01581+00701999999ADDAA112000791GA1031+012009089GF105991031011012501051001KA1120M+02201MA1999999088401MD1610061+9999ME1315139REMSYN094AAXX  07184 17203 12670 50000 10158 20070 38840 48513 56006 69902 83150 333 10220 83840 85360;
0162172030999992000050721004+38870+040500FM-12+117799999V0209999C000012200019N0200001N1+01261+00681999999ADDGA1001+999999999GF100991001001999999001001MA1999999088401MD1410001+9999ME1315139REMSYN070AAXX  07214 17203 42970 00000 10126 20068 38840 48513 54000 333 10132;
0192172030999992000050800004+38870+040500FM-12+117799999V0209999C000012200019N0200001N1+01001+00711999999ADDAA199000091GA1001+999999999GF100991001001999999001001MA1999999088341MD1610061+9999ME1315079REMSYN070AAXX  08004 17203 32970 00000 10100 20071 38834 48507 56006 333 10125;EQDQ01  00002PRCP99
0162172030999992000050803004+38870+040500FM-12+117799999V0209999C000012200019N0200001N1+00821+00511999999ADDGA1001+999999999GF100991001001999999001001MA1999999088321MD1610021+9999ME1315029REMSYN070AAXX  08034 17203 42970 00000 10082 20051 38832 48502 56002 333 10133;
0228172030999992000050806004+38870+040500FM-12+117799999V0209999C000012200019N0200001N1+01401+00881999999ADDAA124000791GA1001+999999999GF100991001001999999001001IA1099IA2999+00509KA1120N+00801MA1999999088421MD1210101+9999ME1315129REMSYN094AAXX  08064 17203 32970 00000 10140 20088 38842 48512 52010 333 20080 31005 50434 55079 79999;
0152172030999992000050809004+38870+040500FM-12+117799999V0209999C000012200019N0200001N1+01871+00701999999ADDGF103991031011012501001001MA1999999088401MD1810021+9999ME1315129REMSYN076AAXX  08094 17203 42670 30000 10187 20070 38840 48512 58002 83100 333 10132;
0182172030999992000050812004+38870+040500FM-12+117799999V0201601N001512200019N0200001N1+02101+00341999999ADDAA199000091GF103991031011012501001001MA1999999088301MD1710101+9999ME1315029REMSYN076AAXX  08124 17203 32670 31603 10210 20034 38830 48502 57010 83100 333 10121;EQDQ01  00002PRCP99
0152172030999992000050815004+38870+040500FM-12+117799999V0201801N005112200019N0200001N1+01201+00201999999ADDGF103991031011012501001001MA1999999088301MD1510001+9999ME1314969REMSYN076AAXX  08154 17203 42670 31810 10120 20020 38830 48496 55000 83100 333 10151;
0217172030999992000050818004+38870+040500FM-12+117799999V0201601N002112200019N0200001N1+00981+00161999999ADDAA199000091GA1041+012009059GF104991041041012501001001KA1120M+02171MA1999999088601MD1210301+9999ME1315269REMSYN082AAXX  08184 17203 32670 41604 10098 20016 38860 48526 52030 84400 333 10217 84640;EQDQ01  00002PRCP99
0162172030999992000050821004+38870+040500FM-12+117799999V0201801N002112200019N0200001N1+00641-00361999999ADDGA1001+999999999GF100991001001999999001001MA1999999088741MD1210141+9999ME1315419REMSYN070AAXX  08214 17203 42970 01804 10064 21036 38874 48541 52014 333 10186;
0192172030999992000050900004+38870+040500FM-12+117799999V0201501N004112200019N0200001N1+00421-00551999999ADDAA199000091GA1001+999999999GF100991001001999999001001MA1999999088751MD1310011+9999ME1315429REMSYN070AAXX  09004 17203 32970 01508 10042 21055 38875 48542 53001 333 10188;EQDQ01  00002PRCP99
0162172030999992000050903004+38870+040500FM-12+117799999V0201601N005112200019N0200001N1+00341-00531999999ADDGA1001+999999999GF100991001001999999001001MA1999999088861MD1210111+9999ME1315459REMSYN070AAXX  09034 17203 42970 01610 10034 21053 38886 48545 52011 333 10226;
0241172030999992000050906004+38870+040500FM-12+117799999V0201701N002612200019N0200001N1+00901-00021999999ADDAA199000091GA1001+999999999GF100991001001999999001001IA1019IA2999+00109KA1120N+00201MA1999999088961MD1110101+9999ME1315579REMSYN088AAXX  09064 17203 32970 01705 10090 21002 38896 48557 51010 333 20020 30001 50424 55096;EQDQ01  00002PRCP99
0162172030999992000050909004+38870+040500FM-12+117799999V0201601N002112200019N0200001N1+01541+00051999999ADDGA1001+999999999GF100991001001999999001001MA1999999088861MD1710101+9999ME1315509REMSYN070AAXX  09094 17203 42970 01604 10154 20005 38886 48550 57010 333 10211;
0192172030999992000050912004+38870+040500FM-12+117799999V0201801N003112200019N0200001N1+01821+00101999999ADDAA199000091GA1001+999999999GF100991001001999999001001MA1999999088791MD1610071+9999ME1315449REMSYN070AAXX  09124 17203 32970 01806 10182 20010 38879 48544 56007 333 10202;EQDQ01  00002PRCP99
0162172030999992000050915004+38870+040500FM-12+117799999V0202401N002612200019N0200001N1+01501-00011999999ADDGA1001+999999999GF100991001001999999001001MA1999999088791MD1410001+9999ME1315419REMSYN070AAXX  09154 17203 42970 02405 10150 21001 38879 48541 54000 333 10213;
0205172030999992000050918004+38870+040500FM-12+117799999V0202501N002112200019N0200001N1+01121-00261999999ADDAA199000091GA1001+999999999GF100991001001999999001001KA1999M+02201MA1999999088901MD1310111+9999ME1315539REMSYN070AAXX  09184 17203 32970 02504 10112 21026 38890 48553 53011 333 10220;EQDQ01  00002PRCP99
0162172030999992000050921004+38870+040500FM-12+117799999V0201801N001512200019N0200001N1+00971-00181999999ADDGA1001+999999999GF100991001001999999001001MA1999999088931MD1110031+9999ME1315599REMSYN070AAXX  09214 17203 42970 01803 10097 21018 38893 48559 51003 333 10208;
0205172030999992000051000004+38870+040500FM-12+117799999V0201601N001512200019N0200001N1+01701+00141999999ADDAA199000091GA1001+999999999GF100991001001999999001001KA1999M+01691MA1999999088721MD1310051+9999ME1315439REMSYN070AAXX  11184 17203 32970 01603 10170 20014 38872 48543 53005 333 10169;EQDQ01  00002PRCP99
0162172030999992000051003004+38870+040500FM-12+117799999V0201501N001512200019N0200001N1+00751-00451999999ADDGA1001+999999999GF100991001001999999001001MA1999999089001MD1310021+9999ME1315559REMSYN070AAXX  10034 17203 42970 01503 10075 21045 38900 48555 53002 333 10227;
0241172030999992000051006004+38870+040500FM-12+117799999V0209999C000012200019N0200001N1+01501-00071999999ADDAA199000091GA1001+999999999GF100991001001999999001001IA1019IA2999+00209KA1120N+00701MA1999999089101MD1110101+9999ME1315769REMSYN088AAXX  10064 17203 32970 00000 10150 21007 38910 48576 51010 333 20070 30002 50704 55101;EQDQ01  00002PRCP99
0162172030999992000051009004+38870+040500FM-12+117799999V0202501N002112200019N0200001N1+01841+00131999999ADDGA1001+999999999GF100991001001999999001001MA1999999089041MD1810061+9999ME1315719REMSYN070AAXX  10094 17203 42970 02504 10184 20013 38904 48571 58006 333 10216;
0192172030999992000051012004+38870+040500FM-12+117799999V0201601N002112200019N0200001N1+02161+00151999999ADDAA199000091GA1001+999999999GF100991001001999999001001MA1999999088921MD1710121+9999ME1315619REMSYN070AAXX  10124 17203 32970 01604 10216 20015 38892 48561 57012 333 10197;EQDQ01  00002PRCP99
0162172030999992000051015004+38870+040500FM-12+117799999V0201601N002612200019N0200001N1+02001-00071999999ADDGA1001+999999999GF100991001001999999001001MA1999999088831MD1610091+9999ME1315519REMSYN070AAXX  10154 17203 42970 01605 10200 21007 38883 48551 56009 333 10192;
0205172030999992000051018004+38870+040500FM-12+117799999V0201601N003112200019N0200001N1+01401-00051999999ADDAA199000091GA1001+999999999GF100991001001999999001001KA1999M+02001MA1999999088901MD1310071+9999ME1315599REMSYN070AAXX  10184 17203 32970 01606 10140 21005 38890 48559 53007 333 10200;EQDQ01  00002PRCP99
0162172030999992000051021004+38870+040500FM-12+117799999V0202001N001512200019N0200001N1+01201-00071999999ADDGA1001+999999999GF100991001001999999001001MA1999999088951MD1110051+9999ME1315649REMSYN070AAXX  10214 17203 42970 02003 10120 21007 38895 48564 51005 333 10200;
0192172030999992000051100004+38870+040500FM-12+117799999V0209999C000012200019N0200001N1+00961+00081999999ADDAA199000091GA1001+999999999GF100991001001999999001001MA1999999088921MD1610031+9999ME1315629REMSYN070AAXX  11004 17203 32970 00000 10096 20008 38892 48562 56003 333 10192;EQDQ01  00002PRCP99
0162172030999992000051103004+38870+040500FM-12+117799999V0209999C000012200019N0200001N1+00781+00111999999ADDGA1001+999999999GF100991001001999999001001MA1999999088961MD1310041+9999ME1315639REMSYN070AAXX  11034 17203 42970 00000 10078 20011 38896 48563 53004 333 10207;
0241172030999992000051106004+38870+040500FM-12+117799999V0209999C000012200019N0200001N1+01561+00541999999ADDAA199000091GA1001+999999999GF100991001001999999001001IA1019IA2999+00209KA1120N+00661MA1999999089001MD1110041+9999ME1315689REMSYN088AAXX  11064 17203 32970 00000 10156 20054 38900 48568 51004 333 20066 30002 50684 55100;EQDQ01  00002PRCP99
0162172030999992000051109004+38870+040500FM-12+117799999V0202201N001512200019N0200001N1+02201+00571999999ADDGA1001+999999999GF100991001001999999001001MA1999999088901MD1810101+9999ME1315629REMSYN070AAXX  11094 17203 42970 02203 10220 20057 38890 48562 58010 333 10185;
0192172030999992000051112004+38870+040500FM-12+117799999V0200101N001512200019N0200001N1+02401+00501999999ADDAA199000091GA1001+999999999GF100991001001999999001001MA1999999088771MD1710131+9999ME1315499REMSYN070AAXX  11124 17203 32970 00103 10240 20050 38877 48549 57013 333 10170;EQDQ01  00002PRCP99
0162172030999992000051115004+38870+040500FM-12+117799999V0209999C000012200019N0200001N1+02201+00441999999ADDGA1001+999999999GF100991001001999999001001MA1999999088671MD1710101+9999ME1315379REMSYN070AAXX  11154 17203 42970 00000 10220 20044 38867 48537 57010 333 10168;
0162172030999992000051121004+38870+040500FM-12+117799999V0209999C000012200019N0200001N1+01301+00081999999ADDGA1001+999999999GF100991001001999999001001MA1999999088801MD1110081+9999ME1315539REMSYN070AAXX  11214 17203 42970 00000 10130 20008 38880 48553 51008 333 10168;
0192172030999992000051200004+38870+040500FM-12+117799999V0209999C000012200019N0200001N1+01061+00161999999ADDAA199000091GA1001+999999999GF100991001001999999001001MA1999999088801MD1410001+9999ME1315539REMSYN070AAXX  12004 17203 32970 00000 10106 20016 38880 48553 54000 333 10173;EQDQ01  00002PRCP99
0162172030999992000051203004+38870+040500FM-12+117799999V0209999C000012200019N0200001N1+00841+00181999999ADDGA1001+999999999GF100991001001999999001001MA1999999088801MD1410001+9999ME1315509REMSYN070AAXX  12034 17203 42970 00000 10084 20018 38880 48550 54000 333 10183;
0241172030999992000051206004+38870+040500FM-12+117799999V0209999C000012200019N0200001N1+01641+00681999999ADDAA199000091GA1001+999999999GF100991001001999999001001IA1019IA2999+00309KA1120N+00801MA1999999088921MD1210121+9999ME1315639REMSYN088AAXX  12064 17203 32970 00000 10164 20068 38892 48563 52012 333 20080 30003 50624 55102;EQDQ01  00002PRCP99
0162172030999992000051209004+38870+040500FM-12+117799999V0202701N002112200019N0200001N1+02281+00761999999ADDGA1001+999999999GF100991001001999999001001MA1999999088841MD1710081+9999ME1315589REMSYN070AAXX  12094 17203 42970 02704 10228 20076 38884 48558 57008 333 10173;
0182172030999992000051212004+38870+040500FM-12+117799999V0200401N002112200019N0200001N1+02501+00611999999ADDAA199000091GF103991031011012501001001MA1999999088701MD1710141+9999ME1315439REMSYN076AAXX  12124 17203 32670 30404 10250 20061 38870 48543 57014 83100 333 10157;EQDQ01  00002PRCP99
0152172030999992000051215004+38870+040500FM-12+117799999V0200901N001512200019N0200001N1+02301+00551999999ADDGF103991031011012501001001MA1999999088581MD1710121+9999ME1315299REMSYN076AAXX  12154 17203 42670 30903 10230 20055 38858 48529 57012 83100 333 10153;
0217172030999992000051218004+38870+040500FM-12+117799999V0209999C000012200019N0200001N1+01801+00451999999ADDAA199000091GA1031+012009029GF103991031011012501001001KA1120M+02581MA1999999088601MD1110021+9999ME1315339REMSYN082AAXX  12184 17203 32670 30000 10180 20045 38860 48533 51002 83100 333 10258 83840;EQDQ01  00002PRCP99
0162172030999992000051221004+38870+040500FM-12+117799999V0209999C000012200019N0200001N1+01431+00371999999ADDGA1001+999999999GF100991001001999999001001MA1999999088661MD1110061+9999ME1315419REMSYN070AAXX  12214 17203 42970 00000 10143 20037 38866 48541 51006 333 10147;
0192172030999992000051300004+38870+040500FM-12+117799999V0209999C000012200019N0200001N1+01201+00321999999ADDAA199000091GA1001+999999999GF100991001001999999001001MA1999999088661MD1410001+9999ME1315419REMSYN070AAXX  13004 17203 32970 00000 10120 20032 38866 48541 54000 333 10152;EQDQ01  00002PRCP99
0162172030999992000051303004+38870+040500FM-12+117799999V0209999C000012200019N0200001N1+00961+00461999999ADDGA1001+999999999GF100991001001999999001001MA1999999088661MD1410001+9999ME1315389REMSYN070AAXX  13034 17203 42970 00000 10096 20046 38866 48538 54000 333 10162;
0241172030999992000051306004+38870+040500FM-12+117799999V0209999C000012200019N0200001N1+01741+00971999999ADDAA199000091GA1001+999999999GF100991001001999999001001IA1019IA2999+00609KA1120N+00901MA1999999088741MD1210081+9999ME1315489REMSYN088AAXX  13064 17203 32970 00000 10174 20097 38874 48548 52008 333 20090 30006 50584 55099;EQDQ01  00002PRCP99
0152172030999992000051309004+38870+040500FM-12+117799999V0202501N002112200019N0200001N1+02481+01121999999ADDGF102991021011012501001001MA1999999088641MD1810101+9999ME1315409REMSYN076AAXX  13094 17203 42670 22504 10248 20112 38864 48540 58010 82100 333 10140;
0182172030999992000051312004+38870+040500FM-12+117799999V0200701N001512200019N0200001N1+02521+00741999999ADDAA199000091GF103991031011012501001001MA1999999088521MD1710121+9999ME1315289REMSYN076AAXX  13124 17203 32670 30703 10252 20074 38852 48528 57012 83100 333 10131;EQDQ01  00002PRCP99
0152172030999992000051315004+38870+040500FM-12+117799999V0200601N002112200019N0200001N1+02321+00631999999ADDGF103991031011012501001001MA1999999088421MD1710101+9999ME1315159REMSYN076AAXX  13154 17203 42670 30604 10232 20063 38842 48515 57010 83100 333 10135;
0217172030999992000051318004+38870+040500FM-12+117799999V0201601N002612200019N0200001N1+01821+00661999999ADDAA199000091GA1021+012009029GF102991021011012501001001KA1120M+02661MA1999999088521MD1310101+9999ME1315279REMSYN082AAXX  13184 17203 32670 21605 10182 20066 38852 48527 53010 82100 333 10266 82840;EQDQ01  00002PRCP99
0152172030999992000051321004+38870+040500FM-12+117799999V0201601N002112200019N0200001N1+01621+00701999999ADDGF103991031001000251031001MA1999999088601MD1110081+9999ME1315389REMSYN076AAXX  13214 17203 42070 31604 10162 20070 38860 48538 51008 83030 333 10135;
0182172030999992000051400004+38870+040500FM-12+117799999V0209999C000012200019N0200001N1+01601+00721999999ADDAA199000091GF103991031001999999031001MA1999999088601MD1410001+9999ME1315389REMSYN076AAXX  14004 17203 32970 30000 10160 20072 38860 48538 54000 83030 333 10131;EQDQ01  00002PRCP99
0152172030999992000051403004+38870+040500FM-12+117799999V0209999C000019999999N0200001N1+01361+00841999999ADDGF107991071001999999011001MA1999999088541MD1710061+9999ME1315299REMSYN076AAXX  14034 17203 42970 70000 10136 20084 38854 48529 57006 87010 333 10138;
0269172030999992000051406004+38870+040500FM-12+117799999V0209999C000010600019N0200001N1+02021+01191999999ADDAA199000091GA1061+060009089GF106991999001999999001051IA1019IA2999+01009KA1120N+01341MA1999999088581MD1310041+9999ME1315349REMSYN100AAXX  14064 17203 32970 60000 10202 20119 38858 48534 53004 80005 333 20134 30010 50604 55080 86270;EQDQ01+000002SCOTLCQ02  00002PRCP99
0174172030999992000051409004+38870+040500FM-12+117799999V0209999C00001090001CN0200001N1+02541+01271999999ADDGA1031+012009089GF107991031011012501001051MA1999999088501MD1710081+9999ME1315289REMSYN082AAXX  14094 17203 42670 70000 10254 20127 38850 48528 57008 83105 333 83840 87270;
0204172030999992000051412004+38870+040500FM-12+117799999V0203501N00211036001CN0200001N1+02541+01201999999ADDAA199000091GA1041+012009089GF107991041021012501051001MA1999999088301MD1710201+9999ME1315099REMSYN082AAXX  14124 17203 32670 73504 10254 20120 38830 48509 57020 84250 333 84840 87360;EQDQ01  00002PRCP99
0174172030999992000051415004+38870+040500FM-12+117799999V0209999C00001036001CN0200001N1+02201+00991999999ADDGA1041+012009089GF105991041021012501051001MA1999999088251MD1610051+9999ME1315009REMSYN082AAXX  14154 17203 42670 50000 10220 20099 38825 48500 56005 84250 333 84840 85360;
0221172030999992000051418004+38870+040500FM-12+117799999V0209999C000012200019N0200001N1+01801+00971999999ADDAA199000091GA1001+999999999GF100991001001999999001001KA1999M+99999MA1999999088381MD1210131+9999ME1315149REMSYN070AAXX  14184 17203 32970 00000 10180 20097 38838 48514 52013 333 10115;EQDQ01  00002PRCP99Q02 +01152ATMX  
0162172030999992000051421004+38870+040500FM-12+117799999V0201601N001512200019N0200001N1+01561+00751999999ADDGA1001+999999999GF100991001001999999001001MA1999999088441MD1210061+9999ME1315229REMSYN070AAXX  14214 17203 42970 01603 10156 20075 38844 48522 52006 333 10117;
0192172030999992000051500004+38870+040500FM-12+117799999V0209999C000012200019N0200001N1+01361+00681999999ADDAA199000091GA1001+999999999GF100991001001999999001001MA1999999088401MD1810041+9999ME1315179REMSYN070AAXX  15004 17203 32970 00000 10136 20068 38840 48517 58004 333 10113;EQDQ01  00002PRCP99
0162172030999992000051503004+38870+040500FM-12+117799999V0209999C000012200019N0200001N1+01161+00651999999ADDGA1001+999999999GF100991001001999999001001MA1999999088381MD1610021+9999ME1315129REMSYN070AAXX  15034 17203 42970 00000 10116 20065 38838 48512 56002 333 10125;
0241172030999992000051506004+38870+040500FM-12+117799999V0209999C000012200019N0200001N1+01801+01001999999ADDAA199000091GA1001+999999999GF100991001001999999001001IA1019IA2999+00709KA1120N+01101MA1999999088501MD1210121+9999ME1315259REMSYN088AAXX  15064 17203 32970 00000 10180 20100 38850 48525 52012 333 20110 30007 50604 55083;EQDQ01  00002PRCP99
0162172030999992000051509004+38870+040500FM-12+117799999V0209999C000012200019N0200001N1+02361+01161999999ADDGA1001+999999999GF100991001001999999001001MA1999999088501MD1410001+9999ME1315279REMSYN070AAXX  15094 17203 42970 00000 10236 20116 38850 48527 54000 333 10124;
0182172030999992000051512004+38870+040500FM-12+117799999V0209999C000012200019N0200001N1+02301+01201999999ADDAA199000091GF103991031011012501001001MA1999999088401MD1610101+9999ME1315159REMSYN076AAXX  15124 17203 32670 30000 10230 20120 38840 48515 56010 83100 333 10122;EQDQ01  00002PRCP99
0152172030999992000051515004+38870+040500FM-12+117799999V0201501N001512200019N0200001N1+02221+00501999999ADDGF102991021011012501001001MA1999999088301MD1610101+9999ME1315049REMSYN076AAXX  15154 17203 42670 21503 10222 20050 38830 48504 56010 82100 333 10116;
0221172030999992000051518004+38870+040500FM-12+117799999V0201501N001512200019N0200001N1+01781+00211999999ADDAA199000091GA1001+999999999GF100991001001999999001001KA1999M+99999MA1999999088401MD1310101+9999ME1315159REMSYN070AAXX  15184 17203 32970 01503 10178 20021 38840 48515 53010 333 10122;EQDQ01  00002PRCP99Q02 +01222ATMX  
0152172030999992000051521004+38870+040500FM-12+117799999V0201601N003612200019N0200001N1+01581+00121999999ADDGF102991021001999999031001MA1999999088501MD1210101+9999ME1315279REMSYN076AAXX  15214 17203 42970 21607 10158 20012 38850 48527 52010 82030 333 10124;
0192172030999992000051600004+38870+040500FM-12+117799999V0201601N003112200019N0200001N1+01341+00091999999ADDAA199000091GA1001+999999999GF100991001001999999001001MA1999999088501MD1410001+9999ME1315249REMSYN070AAXX  16004 17203 32970 01606 10134 20009 38850 48524 54000 333 10134;EQDQ01  00002PRCP99
0162172030999992000051603004+38870+040500FM-12+117799999V0201601N002112200019N0200001N1+01201-00071999999ADDGA1001+999999999GF100991001001999999001001MA1999999088501MD1410001+9999ME1315249REMSYN070AAXX  16034 17203 42970 01604 10120 21007 38850 48524 54000 333 10139;
0253172030999992000051606004+38870+040500FM-12+117799999V0201701N002112200019N0200001N1+01761-00261999999ADDAA199000091GA1011+060009019GF101991001001999999001011IA1019IA2999+00709KA1120N+01101MA1999999088581MD1110081+9999ME1315329REMSYN100AAXX  16064 17203 32970 11704 10176 21026 38858 48532 51008 80001 333 20110 30007 50574 55104 81070;EQDQ01  00002PRCP99
0152172030999992000051609004+38870+040500FM-12+117799999V0203501N002112200019N0200001N1+02301+00111999999ADDGF103991001001999999001011MA1999999088471MD1710111+9999ME1315239REMSYN076AAXX  16094 17203 42970 33504 10230 20011 38847 48523 57011 80001 333 10125;
0204172030999992000051612004+38870+040500FM-12+117799999V0202901N00151220001CN0200001N1+02441-00141999999ADDAA199000091GA1021+012009089GF107991021011012501001041MA1999999088321MD1710151+9999ME1315089REMSYN082AAXX  16124 17203 32670 72903 10244 21014 38832 48508 57015 82104 333 82840 87070;EQDQ01  00002PRCP99
0174172030999992000051615004+38870+040500FM-12+117799999V0201801N00151220001CN0200001N1+02221-00111999999ADDGA1011+012009089GF106991011011012501001011MA1999999088231MD1710091+9999ME1314979REMSYN082AAXX  16154 17203 42670 61803 10222 21011 38823 48497 57009 81101 333 81840 86070;
0217172030999992000051618004+38870+040500FM-12+117799999V0209999C000012200019N0200001N1+01631+00091999999ADDAA199000091GA1021+060009019GF102991001001999999001011KA1120M+02471MA1999999088331MD1210101+9999ME1315079REMSYN082AAXX  16184 17203 32970 20000 10163 20009 38833 48507 52010 80001 333 10247 82070;EQDQ01  00002PRCP99
0162172030999992000051621004+38870+040500FM-12+117799999V0209999C000012200019N0200001N1+01201-00151999999ADDGA1001+999999999GF100991001001999999001001MA1999999088381MD1110051+9999ME1315129REMSYN070AAXX  16214 17203 42970 00000 10120 21015 38838 48512 51005 333 10120;
0192172030999992000051700004+38870+040500FM-12+117799999V0209999C000012200019N0200001N1+00971+00051999999ADDAA199000091GA1001+999999999GF100991001001999999001001MA1999999088341MD1810041+9999ME1315089REMSYN070AAXX  17004 17203 32970 00000 10097 20005 38834 48508 58004 333 10120;EQDQ01  00002PRCP99
0152172030999992000051703004+38870+040500FM-12+117799999V0209999C000012200019N0200001N1+00851+00191999999ADDGF102991021001999999031001MA1999999088341MD1410001+9999ME1315069REMSYN076AAXX  17034 17203 42970 20000 10085 20019 38834 48506 54000 82030 333 10130;
0241172030999992000051706004+38870+040500FM-12+117799999V0209999C000012200019N0200001N1+01701+00841999999ADDAA199000091GA1001+999999999GF100991001001999999001001IA1019IA2999+00409KA1120N+00801MA1999999088341MD1410001+9999ME1315089REMSYN088AAXX  17064 17203 32970 00000 10170 20084 38834 48508 54000 333 20080 30004 50664 55098;EQDQ01  00002PRCP99
0152172030999992000051709004+38870+040500FM-12+117799999V0202501N002612200019N0200001N1+02301+00651999999ADDGF103991031011012501001001MA1999999088201MD1710141+9999ME1314959REMSYN076AAXX  17094 17203 42670 32505 10230 20065 38820 48495 57014 83100 333 10099;
0182172030999992000051712004+38870+040500FM-12+117799999V0200401N003110120019N0200001N1+02381+00371999999ADDAA199000091GF105991051021012501001001MA1999999088101MD1610101+9999ME1314849REMSYN076AAXX  17124 17203 32670 50406 10238 20037 38810 48484 56010 85200 333 10093;EQDQ01  00002PRCP99
0174172030999992000051715004+38870+040500FM-12+117799999V0209999C00001036001CN0200001N1+02101+00181999999ADDGA1031+012009089GF107991031021012501051001MA1999999088071MD1810031+9999ME1314799REMSYN082AAXX  17154 17203 42670 70000 10210 20018 38807 48479 58003 83250 333 83840 87360;
0223172030999992000051718004+38870+040500FM-12+117799999V0201601N00151036001CN0200001N1+01841+00311999999ADDAA199000091GA1031+012009089GF107991031021012501051001KA1120M+02421MA1999999088121MD1210051+9999ME1314879REMSYN088AAXX  17184 17203 32670 71603 10184 20031 38812 48487 52005 83250 333 10242 83840 87360;EQDQ01  00002PRCP99
0202172030999992000051721004+38870+040500FM-12+117799999V0201701N00151036001CN0200001N1+01501+00741999999ADDAY181031AY221031GA1031+011409089GF107991031021012501031001MA1999999088101MD1610021+9999ME1314879MW1021REMSYN088AAXX  17214 17203 41670 71703 10150 20074 38810 48487 56002 70282 83230 333 83838 87360;
0219172030999992000051800004+38870+040500FM-12+117799999V0209999C00001036001CN0200001N1+01301+00771999999ADDAA106000791AY181061AY221061GA1011+012009089GF106991011011012501031001MA1999999088021MD1810081+9999ME1314799MW1011REMSYN094AAXX  18004 17203 11670 60000 10130 20077 38802 48479 58008 69901 70182 81130 333 81840 86360;
0202172030999992000051803004+38870+040500FM-12+117799999V0201701N00151036001CN0100001N1+01001+00961999999ADDAY111031AY211031GA1031+010509089GF107991031021012501051001MA1999999088021MD1510001+9999ME1314759MW1801REMSYN088AAXX  18034 17203 41660 71703 10100 20096 38802 48475 55000 78011 83250 333 83835 87358;
0174172030999992000051809004+38870+040500FM-12+117799999V0202501N00211036001CN0200001N1+01901+00681999999ADDGA1041+012009089GF106991041021012501051001MA1999999088101MD1110051+9999ME1314859REMSYN082AAXX  18094 17203 42670 62504 10190 20068 38810 48485 51005 84250 333 84840 86360;
0219172030999992000051812004+38870+040500FM-12+117799999V0201601N00151036001CN0200001N1+01901+00681999999ADDAA106000591AY181061AY211061GA1041+012009089GF107991041021012501051001MA1999999088001MD1610101+9999ME1314749MW1031REMSYN094AAXX  18124 17203 11670 71603 10190 20068 38800 48474 56010 69951 70381 84250 333 84840 87360;
0152172030999992000051815004+38870+040500FM-12+117799999V0209999C000012200019N0200001N1+01801+00701999999ADDGF104991041021012501001001MA1999999087951MD1810051+9999ME1314679REMSYN076AAXX  18154 17203 42670 40000 10180 20070 38795 48467 58005 84200 333 10091;
0210172030999992000051818004+38870+040500FM-12+117799999V0203001N00211036001CN0200001N1+01501+00721999999ADDAA112000591GA1021+012009089GF105991021011012501051001KA1120M+02161MA1999999088101MD1210151+9999ME1314829REMSYN094AAXX  18184 17203 12670 53004 10150 20072 38810 48482 52015 69952 82150 333 10216 82840 85360;
0174172030999992000051821004+38870+040500FM-12+117799999V0201601N00151036001CN0200001N1+01301+00691999999ADDGA1031+012009089GF106991031021012501051001MA1999999088181MD1110081+9999ME1314919REMSYN082AAXX  18214 17203 42670 61603 10130 20069 38818 48491 51008 83250 333 83840 86360;
0204172030999992000051900004+38870+040500FM-12+117799999V0209999C00001036001CN0200001N1+01101+00801999999ADDAA199000091GA1031+012009089GF107991031021012501051001MA1999999088181MD1410001+9999ME1314909REMSYN082AAXX  19004 17203 32670 70000 10110 20080 38818 48490 54000 83250 333 83840 87360;EQDQ01  00002PRCP99
0174172030999992000051903004+38870+040500FM-12+117799999V0209999C00001036001CN0200001N1+01101+00801999999ADDGA1031+012009089GF106991031021012501051001MA1999999088021MD1710161+9999ME1314749REMSYN082AAXX  19034 17203 42670 60000 10110 20080 38802 48474 57016 83250 333 83840 86360;
0246172030999992000051906004+38870+040500FM-12+117799999V0209999C00001036001CN0200001N1+01501+00801999999ADDAA124000591GA1031+012009089GF105991031011012501051001IA1099IA2999+00809KA1120N+01001MA1999999088061MD1310041+9999ME1314799REMSYN112AAXX  19064 17203 32670 50000 10150 20080 38806 48479 53004 83150 333 20100 31008 50374 55056 70005 83840 85360;
0174172030999992000051909004+38870+040500FM-12+117799999V0203101N00151036001CN0200001N1+01841+00731999999ADDGA1041+012009089GF106991041021012501051001MA1999999088001MD1810061+9999ME1314739REMSYN082AAXX  19094 17203 42670 63103 10184 20073 38800 48473 58006 84250 333 84840 86360;
0219172030999992000051912004+38870+040500FM-12+117799999V0200401N00151036001CN0150001N1+01221+01051999999ADDAA106006191AY181061AY211061GA1041+011409089GF107991041021012501051001MA1999999088041MD1310041+9999ME1314749MW1801REMSYN094AAXX  19124 17203 11665 70403 10122 20105 38804 48474 53004 60061 78081 84250 333 84838 87359;
0202172030999992000051915004+38870+040500FM-12+117799999V0209999C00001036001CN0200001N1+01341+01111999999ADDAY181031AY221031GA1041+012009089GF106991041021012501051001MA1999999088141MD1110101+9999ME1314839MW1011REMSYN088AAXX  19154 17203 41670 60000 10134 20111 38814 48483 51010 70182 84250 333 84840 86360;
0232172030999992000051918004+38870+040500FM-12+117799999V0209999C000012200019N0200001N1+01101+00781999999ADDAA112007191AY181061AY211061GA1031+012009029GF103991031011012501001001KA1120M+02001MA1999999088141MD1410001+9999ME1314849MW1011REMSYN094AAXX  19184 17203 11670 30000 10110 20078 38814 48484 54000 60072 70181 83100 333 10200 83840;
0162172030999992000051921004+38870+040500FM-12+117799999V0201601N001512200019N0200001N1+01001+00631999999ADDGA1001+999999999GF100991001001999999001001MA1999999088301MD1310161+9999ME1315019REMSYN070AAXX  19214 17203 42970 01603 10100 20063 38830 48501 53016 333 10131;
0173172030999992000052000004+38870+040500FM-12+117799999V0209999C000012200019N0200001N1+00921+00561999999ADDAA199000021GA1001+999999999GF100991001001999999001001MA1999999088301MD1410001+9999ME1314979REMSYN070AAXX  20004 17203 32970 00000 10092 20056 38830 48497 54000 333 10146;
0162172030999992000052003004+38870+040500FM-12+117799999V0209999C000012200019N0200001N1+00661+00401999999ADDGA1001+999999999GF100991001001999999001001MA1999999088381MD1310081+9999ME1315039REMSYN070AAXX  20034 17203 42970 00000 10066 20040 38838 48503 53008 333 10172;
0228172030999992000052006004+38870+040500FM-12+117799999V0209999C000012200019N0200001N1+01441+00771999999ADDAA124006691GA1001+999999999GF100991001001999999001001IA1119IA2999+00409KA1120N+00601MA1999999088481MD1210101+9999ME1315169REMSYN094AAXX  20064 17203 32970 00000 10144 20077 38848 48516 52010 333 20060 32004 50334 55035 70066;
0152172030999992000052009004+38870+040500FM-12+117799999V0209999C000012200019N0200001N1+02001+00681999999ADDGF102991021011012501001001MA1999999088441MD1810041+9999ME1315159REMSYN076AAXX  20094 17203 42670 20000 10200 20068 38844 48515 58004 82100 333 10142;
0182172030999992000052012004+38870+040500FM-12+117799999V0200601N003112200019N0200001N1+02161+00441999999ADDAA199000091GF102991021011012501001001MA1999999088401MD1710041+9999ME1315139REMSYN076AAXX  20124 17203 32670 20606 10216 20044 38840 48513 57004 82100 333 10142;EQDQ01  00002PRCP99
0152172030999992000052015004+38870+040500FM-12+117799999V0200601N001512200019N0200001N1+02001+00391999999ADDGF103991031011012501001001MA1999999088421MD1110021+9999ME1315119REMSYN076AAXX  20154 17203 42670 30603 10200 20039 38842 48511 51002 83100 333 10150;
0205172030999992000052018004+38870+040500FM-12+117799999V0209999C000012200019N0200001N1+01501+00361999999ADDAA199000091GA1001+999999999GF100991001001999999001001KA1999M+01531MA1999999088541MD1210121+9999ME1315259REMSYN070AAXX  20184 17203 32970 00000 10150 20036 38854 48525 52012 333 10153;EQDQ01  00002PRCP99
0162172030999992000052021004+38870+040500FM-12+117799999V0209999C000012200019N0200001N1+01221+00281999999ADDGA1001+999999999GF100991001001999999001001MA1999999088661MD1110121+9999ME1315389REMSYN070AAXX  20214 17203 42970 00000 10122 20028 38866 48538 51012 333 10162;
0192172030999992000052100004+38870+040500FM-12+117799999V0201601N002112200019N0200001N1+01001+00281999999ADDAA199000091GA1001+999999999GF100991001001999999001001MA1999999088661MD1410001+9999ME1315389REMSYN070AAXX  21004 17203 32970 01604 10100 20028 38866 48538 54000 333 10162;EQDQ01  00002PRCP99
0152172030999992000052103004+38870+040500FM-12+117799999V0209999C000012200019N0200001N1+00861+00341999999ADDGF102991021011012501001001MA1999999088741MD1210081+9999ME1315439REMSYN076AAXX  21034 17203 42670 20000 10086 20034 38874 48543 52008 82100 333 10181;
0241172030999992000052106004+38870+040500FM-12+117799999V0209999C000012200019N0200001N1+01641+00891999999ADDAA199000091GA1001+999999999GF100991001001999999001001IA1099IA2999+00509KA1120N+00821MA1999999088821MD1210081+9999ME1315539REMSYN088AAXX  21064 17203 32970 00000 10164 20089 38882 48553 52008 333 20082 31005 50444 55100;EQDQ01  00002PRCP99
0152172030999992000052109004+38870+040500FM-12+117799999V0200401N001512200019N0200001N1+02321+00681999999ADDGF104991041021012501001001MA1999999088801MD1810021+9999ME1315539REMSYN076AAXX  21094 17203 42670 40403 10232 20068 38880 48553 58002 84200 333 10168;
0204172030999992000052112004+38870+040500FM-12+117799999V0200101N00151036001CN0200001N1+02381+00571999999ADDAA199000091GA1041+012009089GF105991041021012501051001MA1999999088741MD1710061+9999ME1315469REMSYN082AAXX  21124 17203 32670 50103 10238 20057 38874 48546 57006 84250 333 84840 85360;EQDQ01  00002PRCP99
0152172030999992000052115004+38870+040500FM-12+117799999V0209999C000012200019N0200001N1+02181+00511999999ADDGF104991041021012501001001MA1999999088681MD1710061+9999ME1315389REMSYN076AAXX  21154 17203 42670 40000 10218 20051 38868 48538 57006 84200 333 10169;
0217172030999992000052118004+38870+040500FM-12+117799999V0209999C000012200019N0200001N1+01741+00601999999ADDAA199000091GA1031+012009029GF103991031011012501001001KA1120M+02481MA1999999088721MD1310041+9999ME1315459REMSYN082AAXX  21184 17203 32670 30000 10174 20060 38872 48545 53004 83100 333 10248 83840;EQDQ01  00002PRCP99
0152172030999992000052121004+38870+040500FM-12+117799999V0209999C000012200019N0200001N1+01541+00511999999ADDGF103991031011012501001001MA1999999088821MD1210101+9999ME1315589REMSYN076AAXX  21214 17203 42670 30000 10154 20051 38882 48558 52010 83100 333 10166;
0192172030999992000052200004+38870+040500FM-12+117799999V0209999C000012200019N0200001N1+01261+00511999999ADDAA199000091GA1001+999999999GF100991001001999999001001MA1999999088841MD1110021+9999ME1315589REMSYN070AAXX  22004 17203 32970 00000 10126 20051 38884 48558 51002 333 10173;EQDQ01  00002PRCP99
0162172030999992000052203004+38870+040500FM-12+117799999V0209999C000012200019N0200001N1+01101+00661999999ADDGA1001+999999999GF100991001001999999001001MA1999999088921MD1310081+9999ME1315639REMSYN070AAXX  22034 17203 42970 00000 10110 20066 38892 48563 53008 333 10192;
0253172030999992000052206004+38870+040500FM-12+117799999V0209999C000012200019N0200001N1+01861+00921999999ADDAA199000091GA1031+030009079GF103991031001999999031001IA1019IA2999+00709KA1120N+01021MA1999999089001MD1210081+9999ME1315739REMSYN100AAXX  22064 17203 32970 30000 10186 20092 38900 48573 52008 83030 333 20102 30007 50444 55083 83360;EQDQ01  00002PRCP99
0152172030999992000052209004+38870+040500FM-12+117799999V0209999C000012200019N0200001N1+02401+00701999999ADDGF102991021011012501001001MA1999999088881MD1710121+9999ME1315649REMSYN076AAXX  22094 17203 42670 20000 10240 20070 38888 48564 57012 82100 333 10167;
0182172030999992000052212004+38870+040500FM-12+117799999V0200401N002112200019N0200001N1+02701+00921999999ADDAA199000091GF103991031011012501001001MA1999999088801MD1710081+9999ME1315569REMSYN076AAXX  22124 17203 32670 30404 10270 20092 38880 48556 57008 83100 333 10158;EQDQ01  00002PRCP99
0152172030999992000052215004+38870+040500FM-12+117799999V0200401N002112200019N0200001N1+02301+00471999999ADDGF102991021011012501001001MA1999999088631MD1710171+9999ME1315369REMSYN076AAXX  22154 17203 42670 20404 10230 20047 38863 48536 57017 82100 333 10154;
0217172030999992000052218004+38870+040500FM-12+117799999V0209999C000012200019N0200001N1+01861+00431999999ADDAA199000091GA1021+012009059GF102991021041012501001001KA1120M+02741MA1999999088681MD1310051+9999ME1315439REMSYN082AAXX  22184 17203 32670 20000 10186 20043 38868 48543 53005 82400 333 10274 82640;EQDQ01  00002PRCP99
0162172030999992000052221004+38870+040500FM-12+117799999V0209999C000012200019N0200001N1+01621+00621999999ADDGA1001+999999999GF100991001001999999001001MA1999999088781MD1110101+9999ME1315559REMSYN070AAXX  22214 17203 42970 00000 10162 20062 38878 48555 51010 333 10156;
0192172030999992000052300004+38870+040500FM-12+117799999V0209999C000012200019N0200001N1+01361+00721999999ADDAA199000091GA1001+999999999GF100991001001999999001001MA1999999088781MD1410001+9999ME1315559REMSYN070AAXX  23004 17203 32970 00000 10136 20072 38878 48555 54000 333 10156;EQDQ01  00002PRCP99
0152172030999992000052303004+38870+040500FM-12+117799999V0209999C000012200019N0200001N1+01261+00681999999ADDGF103991031001999999031001MA1999999088771MD1610011+9999ME1315519REMSYN076AAXX  23034 17203 42970 30000 10126 20068 38877 48551 56001 83030 333 10165;
0253172030999992000052306004+38870+040500FM-12+117799999V0209999C000012200019N0200001N1+02041+01181999999ADDAA199000091GA1011+012009029GF101991011011012501001001IA1019IA2999+00809KA1120N+01181MA1999999088801MD1110031+9999ME1315569REMSYN100AAXX  23064 17203 32670 10000 10204 20118 38880 48556 51003 81100 333 20118 30008 50534 55099 81840;EQDQ01  00002PRCP99
0152172030999992000052309004+38870+040500FM-12+117799999V0200701N001512200019N0200001N1+02601+01031999999ADDGF101991011011012501001001MA1999999088701MD1810101+9999ME1315489REMSYN076AAXX  23094 17203 42670 10703 10260 20103 38870 48548 58010 81100 333 10142;
0198172030999992000052312004+38870+040500FM-12+117799999V0200301N001512200019N0200001N1+02581+00541999999ADDAA199000091GF102991999011012501001001MA1999999088501MD1710201+9999ME1315279REMSYN076AAXX  23124 17203 32670 20303 10258 20054 38850 48527 57020 81100 333 10124;EQDQ01+000012SCOTLCQ02  00002PRCP99
0152172030999992000052315004+38870+040500FM-12+117799999V0201801N003112200019N0200001N1+02541+00681999999ADDGF104991041081012501001001MA1999999088441MD1610061+9999ME1315209REMSYN076AAXX  23154 17203 42670 41806 10254 20068 38844 48520 56006 84800 333 10122;
0221172030999992000052318004+38870+040500FM-12+117799999V0201801N001512200019N0200001N1+01901+00561999999ADDAA199000091GA1001+999999999GF100991001001999999001001KA1999M+99999MA1999999088541MD1210101+9999ME1315319REMSYN070AAXX  23184 17203 32970 01803 10190 20056 38854 48531 52010 333 10129;EQDQ01  00002PRCP99Q02 +01292ATMX  
0162172030999992000052321004+38870+040500FM-12+117799999V0209999C000012200019N0200001N1+01501+00551999999ADDGA1001+999999999GF100991001001999999001001MA1999999088601MD1110061+9999ME1315389REMSYN070AAXX  23214 17203 42970 00000 10150 20055 38860 48538 51006 333 10135;
0192172030999992000052400004+38870+040500FM-12+117799999V0209999C000012200019N0200001N1+01401+00641999999ADDAA199000091GA1001+999999999GF100991001001999999001001MA1999999088561MD1810041+9999ME1315359REMSYN070AAXX  24004 17203 32970 00000 10140 20064 38856 48535 58004 333 10131;EQDQ01  00002PRCP99
0162172030999992000052403004+38870+040500FM-12+117799999V0209999C000012200019N0200001N1+01251+00651999999ADDGA1001+999999999GF100991001001999999001001MA1999999088531MD1610031+9999ME1315299REMSYN070AAXX  24034 17203 42970 00000 10125 20065 38853 48529 56003 333 10132;
0253172030999992000052406004+38870+040500FM-12+117799999V0209999C000012200019N0200001N1+02101+01081999999ADDAA199000091GA1031+012009029GF103991031011012501001001IA1019IA2999+01009KA1120N+01221MA1999999088531MD1410001+9999ME1315309REMSYN100AAXX  24064 17203 32670 30000 10210 20108 38853 48530 54000 83100 333 20122 30010 50594 55099 83840;EQDQ01  00002PRCP99
0152172030999992000052409004+38870+040500FM-12+117799999V0203401N002112200019N0200001N1+02601+01121999999ADDGF103991031011012501001001MA1999999088421MD1710111+9999ME1315209REMSYN076AAXX  24094 17203 42670 33404 10260 20112 38842 48520 57011 83100 333 10115;
0182172030999992000052412004+38870+040500FM-12+117799999V0200701N002612200019N0200001N1+02681+00451999999ADDAA199000091GF104991041021012501001001MA1999999088241MD1710181+9999ME1315039REMSYN076AAXX  24124 17203 32670 40705 10268 20045 38824 48503 57018 84200 333 10094;EQDQ01  00002PRCP99
0174172030999992000052415004+38870+040500FM-12+117799999V0201601N00211036001CN0200001N1+02181+00711999999ADDGA1021+012009089GF105991021011012501051001MA1999999088301MD1110061+9999ME1315049REMSYN082AAXX  24154 17203 42670 51604 10218 20071 38830 48504 51006 82150 333 82840 85360;
0223172030999992000052418004+38870+040500FM-12+117799999V0201601N00211036001CN0200001N1+01841+00731999999ADDAA199000091GA1011+012009089GF105991011011012501051001KA1120M+02841MA1999999088311MD1410001+9999ME1315089REMSYN088AAXX  24184 17203 32670 51604 10184 20073 38831 48508 54000 81150 333 10284 81840 85360;EQDQ01  00002PRCP99
0174172030999992000052421004+38870+040500FM-12+117799999V0201701N00151036001CN0200001N1+01741+00771999999ADDGA1021+012009089GF107991021021012501071001MA1999999088241MD1810061+9999ME1315049REMSYN082AAXX  24214 17203 42670 71703 10174 20077 38824 48504 58006 82270 333 82840 87360;
0182172030999992000052500004+38870+040500FM-12+117799999V0200301N001519999999N0200001N1+01641+00731999999ADDAA199000091GF107991071001999999031001MA1999999088101MD1810141+9999ME1314949REMSYN076AAXX  25004 17203 32970 70303 10164 20073 38810 48494 58014 87030 333 10069;EQDQ01  00002PRCP99
0162172030999992000052503004+38870+040500FM-12+117799999V0202901N001512200019N0200001N1+01601+00681999999ADDGA1001+999999999GF100991001001999999001001MA1999999088051MD1710051+9999ME1314829REMSYN070AAXX  25034 17203 42970 02903 10160 20068 38805 48482 57005 333 10077;
0241172030999992000052506004+38870+040500FM-12+117799999V0203101N001512200019N0200001N1+02201+00871999999ADDAA199000091GA1001+999999999GF100991001001999999001001IA1019IA2999+01209KA1120N+01501MA1999999088051MD1410001+9999ME1314849REMSYN088AAXX  25064 17203 32970 03103 10220 20087 38805 48484 54000 333 20150 30012 50584 55078;EQDQ01  00002PRCP99
0152172030999992000052509004+38870+040500FM-12+117799999V0203601N001512200019N0200001N1+02681+00891999999ADDGF103991031011012501001001MA1999999088001MD1810051+9999ME1314809REMSYN076AAXX  25094 17203 42670 33603 10268 20089 38800 48480 58005 83100 333 10057;
0182172030999992000052512004+38870+040500FM-12+117799999V0200701N003112200019N0200001N1+02701+00881999999ADDAA199000091GF102991021011012501001001MA1999999088001MD1410001+9999ME1314809REMSYN076AAXX  25124 17203 32670 20706 10270 20088 38800 48480 54000 82100 333 10057;EQDQ01  00002PRCP99
0162172030999992000052515004+38870+040500FM-12+117799999V0200701N003112200019N0200001N1+02501+00521999999ADDGA1001+999999999GF100991001001999999001001MA1999999087941MD1810061+9999ME1314739REMSYN070AAXX  25154 17203 42970 00706 10250 20052 38794 48473 58006 333 10060;
0221172030999992000052518004+38870+040500FM-12+117799999V0209999C000012200019N0200001N1+02001+00681999999ADDAA199000091GA1001+999999999GF100991001001999999001001KA1999M+99999MA1999999088001MD1310061+9999ME1314809REMSYN070AAXX  25184 17203 32970 00000 10200 20068 38800 48480 53006 333 10062;EQDQ01  00002PRCP99Q02 +00622ATMX  
0162172030999992000052521004+38870+040500FM-12+117799999V0209999C000012200019N0200001N1+01541+00731999999ADDGA1001+999999999GF100991001001999999001001MA1999999088081MD1110081+9999ME1314879REMSYN070AAXX  25214 17203 42970 00000 10154 20073 38808 48487 51008 333 10071;
0192172030999992000052600004+38870+040500FM-12+117799999V0209999C000012200019N0200001N1+01371+00711999999ADDAA199000091GA1001+999999999GF100991001001999999001001MA1999999088081MD1410001+9999ME1314769REMSYN070AAXX  26004 17203 32970 00000 10137 20071 38808 48476 54000 333 10076;EQDQ01  00002PRCP99
0162172030999992000052603004+38870+040500FM-12+117799999V0209999C000012200019N0200001N1+01301+00811999999ADDGA1001+999999999GF100991001001999999001001MA1999999088051MD1610031+9999ME1314829REMSYN070AAXX  26034 17203 42970 00000 10130 20081 38805 48482 56003 333 10077;
0241172030999992000052606004+38870+040500FM-12+117799999V0203401N001512200019N0200001N1+01901+00851999999ADDAA199000091GA1001+999999999GF100991001001999999001001IA1019IA2999+01009KA1120N+01201MA1999999088081MD1310031+9999ME1314859REMSYN088AAXX  26064 17203 32970 03403 10190 20085 38808 48485 53003 333 20120 30010 50844 55110;EQDQ01  00002PRCP99
0152172030999992000052609004+38870+040500FM-12+117799999V0200701N003112200019N0200001N1+02321+00861999999ADDGF102991021011012501001001MA1999999088081MD1410001+9999ME1314859REMSYN076AAXX  26094 17203 42670 20706 10232 20086 38808 48485 54000 82100 333 10081;
0204172030999992000052612004+38870+040500FM-12+117799999V0200601N00361036001CN0200001N1+02461+00451999999ADDAA199000091GA1031+012009089GF105991031011012501051001MA1999999088061MD1610021+9999ME1314849REMSYN082AAXX  26124 17203 32670 50607 10246 20045 38806 48484 56002 83150 333 83840 85360;EQDQ01  00002PRCP99
0174172030999992000052615004+38870+040500FM-12+117799999V0201301N00211036001CN0200001N1+02041+00411999999ADDGA1041+012009089GF106991041021012501051001MA1999999088061MD1510001+9999ME1314809REMSYN082AAXX  26154 17203 42670 61304 10204 20041 38806 48480 55000 84250 333 84840 86360;
0217172030999992000052618004+38870+040500FM-12+117799999V0209999C000012200019N0200001N1+01601+00641999999ADDAA199000091GA1031+012009029GF103991031011012501001001KA1120M+02481MA1999999088221MD1210161+9999ME1314969REMSYN082AAXX  26184 17203 32670 30000 10160 20064 38822 48496 52016 83100 333 10248 83840;EQDQ01  00002PRCP99
0162172030999992000052621004+38870+040500FM-12+117799999V0209999C000012200019N0200001N1+01351+00601999999ADDGA1001+999999999GF100991001001999999001001MA1999999088301MD1110081+9999ME1315069REMSYN070AAXX  26214 17203 42970 00000 10135 20060 38830 48506 51008 333 10111;
0204172030999992000052700004+38870+040500FM-12+117799999V0201601N00211036001CN0200001N1+01301+00691999999ADDAA199000091GA1041+001209069GF107991041041001501021001MA1999999088301MD1410001+9999ME1315079REMSYN082AAXX  27004 17203 32270 71604 10130 20069 38830 48507 54000 84420 333 84604 87460;EQDQ01  00002PRCP99
0202172030999992000052703004+38870+040500FM-12+117799999V0209999C00001036001CN0200001N1+01001+00881999999ADDAY191031AY281031GA1031+012009089GF105991031011012501051001MA1999999088301MD1410001+9999ME1315029MW1251REMSYN088AAXX  27034 17203 41670 50000 10100 20088 38830 48502 54000 72598 83150 333 83840 85360;
0262172030999992000052706004+38870+040500FM-12+117799999V0209999C000012200019N0200001N1+01701+00961999999ADDAA112001091AY191061AY281061GA1001+999999999GF100991001001999999001001IA1119IA2999+00809KA1120N+00941MA1999999088381MD1310081+9999ME1315129MW1021REMSYN106AAXX  27064 17203 11970 00000 10170 20096 38838 48512 53008 60012 70298 333 20094 32008 50704 55097 70013;
0152172030999992000052709004+38870+040500FM-12+117799999V0209999C000012200019N0200001N1+02201+00831999999ADDGF103991031011012501001001MA1999999088321MD1710061+9999ME1315079REMSYN076AAXX  27094 17203 42670 30000 10220 20083 38832 48507 57006 83100 333 10113;
0163172030999992000052712004+38870+040500FM-12+117799999V0209999C000012200019N0200001N1+02481+00641999999ADDAA199000021GF103991031011012501001001MA1999999088221MD1710101+9999ME1314999REMSYN076AAXX  27124 17203 32670 30000 10248 20064 38822 48499 57010 83100 333 10097;
0174172030999992000052715004+38870+040500FM-12+117799999V0203601N00151036001CN0200001N1+02101+00551999999ADDGA1031+012009059GF105991031011012501051001MA1999999088251MD1310031+9999ME1314989REMSYN082AAXX  27154 17203 42670 53603 10210 20055 38825 48498 53003 83150 333 83540 85360;
0221172030999992000052718004+38870+040500FM-12+117799999V0201601N002112200019N0200001N1+01681+00471999999ADDAA199000091GA1001+999999999GF100991001001999999001001KA1999M+99999MA1999999088401MD1210151+9999ME1315149REMSYN070AAXX  27184 17203 32970 01604 10168 20047 38840 48514 52015 333 10127;EQDQ01  00002PRCP99Q02 +01272ATMX  
0162172030999992000052721004+38870+040500FM-12+117799999V0201601N003112200019N0200001N1+01561+00671999999ADDGA1001+999999999GF100991001001999999001001MA1999999088501MD1210101+9999ME1315269REMSYN070AAXX  27214 17203 42970 01606 10156 20067 38850 48526 52010 333 10129;
0192172030999992000052800004+38870+040500FM-12+117799999V0209999C000012200019N0200001N1+01321+00671999999ADDAA199000091GA1001+999999999GF100991001001999999001001MA1999999088501MD1410001+9999ME1315259REMSYN070AAXX  28004 17203 32970 00000 10132 20067 38850 48525 54000 333 10129;EQDQ01  00002PRCP99
0162172030999992000052803004+38870+040500FM-12+117799999V0201601N002112200019N0200001N1+01301+00691999999ADDGA1001+999999999GF100991001001999999001001MA1999999088521MD1310021+9999ME1315259REMSYN070AAXX  28034 17203 42970 01604 10130 20069 38852 48525 53002 333 10141;
0241172030999992000052806004+38870+040500FM-12+117799999V0209999C000012200019N0200001N1+02041+00991999999ADDAA199000091GA1001+999999999GF100991001001999999001001IA1019IA2999+01009KA1120N+01181MA1999999088601MD1210081+9999ME1315349REMSYN088AAXX  28064 17203 32970 00000 10204 20099 38860 48534 52008 333 20118 30010 50364 55093;EQDQ01  00002PRCP99
0152172030999992000052809004+38870+040500FM-12+117799999V0209999C000012200019N0200001N1+02401+00971999999ADDGF103991031011012501001001MA1999999088551MD1810051+9999ME1315329REMSYN076AAXX  28094 17203 42670 30000 10240 20097 38855 48532 58005 83100 333 10130;
0182172030999992000052812004+38870+040500FM-12+117799999V0209999C000012200019N0200001N1+02601+00911999999ADDAA199000091GF103991031011012501001001MA1999999088451MD1710101+9999ME1315219REMSYN076AAXX  28124 17203 32670 30000 10260 20091 38845 48521 57010 83100 333 10118;EQDQ01  00002PRCP99
0152172030999992000052815004+38870+040500FM-12+117799999V0209999C000012200019N0200001N1+02461+00701999999ADDGF104991041021012501001001MA1999999088371MD1710081+9999ME1315139REMSYN076AAXX  28154 17203 42670 40000 10246 20070 38837 48513 57008 84200 333 10114;
0223172030999992000052818004+38870+040500FM-12+117799999V0209999C00001036001CN0200001N1+02001+00851999999ADDAA199000091GA1031+012009089GF105991031011012501051001KA1120M+02761MA1999999088401MD1310031+9999ME1315179REMSYN088AAXX  28184 17203 32670 50000 10200 20085 38840 48517 53003 83150 333 10276 83840 85360;EQDQ01  00002PRCP99
0152172030999992000052821004+38870+040500FM-12+117799999V0209999C000012200019N0200001N1+01761+00921999999ADDGF102991021011012501001001MA1999999088461MD1110061+9999ME1315249REMSYN076AAXX  28214 17203 42670 20000 10176 20092 38846 48524 51006 82100 333 10115;
0192172030999992000052900004+38870+040500FM-12+117799999V0209999C000012200019N0200001N1+01501+00841999999ADDAA199000091GA1001+999999999GF100991001001999999001001MA1999999088461MD1410001+9999ME1315239REMSYN070AAXX  29004 17203 32970 00000 10150 20084 38846 48523 54000 333 10119;EQDQ01  00002PRCP99
0162172030999992000052903004+38870+040500FM-12+117799999V0209999C000012200019N0200001N1+01321+00871999999ADDGA1001+999999999GF100991001001999999001001MA1999999088481MD1310021+9999ME1315249REMSYN070AAXX  29034 17203 42970 00000 10132 20087 38848 48524 53002 333 10127;
0253172030999992000052906004+38870+040500FM-12+117799999V0209999C000012200019N0200001N1+02181+01341999999ADDAA199000091GA1021+012009029GF102991021011012501001001IA1019IA2999+01009KA1120N+01261MA1999999088581MD1210101+9999ME1315359REMSYN100AAXX  29064 17203 32670 20000 10218 20134 38858 48535 52010 82100 333 20126 30010 50544 55106 82840;EQDQ01  00002PRCP99
0152172030999992000052909004+38870+040500FM-12+117799999V0209999C000012200019N0200001N1+02701+01171999999ADDGF103991031011012501001001MA1999999088501MD1810081+9999ME1315309REMSYN076AAXX  29094 17203 42670 30000 10270 20117 38850 48530 58008 83100 333 10114;
0182172030999992000052912004+38870+040500FM-12+117799999V0200401N002612200019N0200001N1+02801+00891999999ADDAA199000091GF103991031011012501001001MA1999999088401MD1710101+9999ME1315209REMSYN076AAXX  29124 17203 32670 30405 10280 20089 38840 48520 57010 83100 333 10103;EQDQ01  00002PRCP99
0152172030999992000052915004+38870+040500FM-12+117799999V0209999C000012200019N0200001N1+02501+00901999999ADDGF103991031011012501001001MA1999999088321MD1710081+9999ME1315089REMSYN076AAXX  29154 17203 42670 30000 10250 20090 38832 48508 57008 83100 333 10108;
0221172030999992000052918004+38870+040500FM-12+117799999V0209999C000012200019N0200001N1+02041+00871999999ADDAA199000091GA1001+999999999GF100991001001999999001001KA1999M+99999MA1999999088321MD1510001+9999ME1315119REMSYN070AAXX  29184 17203 32970 00000 10204 20087 38832 48511 55000 333 10099;EQDQ01  00002PRCP99Q02 +00992ATMX  
0162172030999992000052921004+38870+040500FM-12+117799999V0209999C000012200019N0200001N1+01801+00761999999ADDGA1001+999999999GF100991001001999999001001MA1999999088401MD1110081+9999ME1315209REMSYN070AAXX  29214 17203 42970 00000 10180 20076 38840 48520 51008 333 10103;
0192172030999992000053000004+38870+040500FM-12+117799999V0209999C000012200019N0200001N1+01501+00721999999ADDAA199000091GA1001+999999999GF100991001001999999001001MA1999999088401MD1410001+9999ME1315199REMSYN070AAXX  30004 17203 32970 00000 10150 20072 38840 48519 54000 333 10103;EQDQ01  00002PRCP99
0152172030999992000053003004+38870+040500FM-12+117799999V0209999C000012200019N0200001N1+01341+00811999999ADDGF103991031011012501001001MA1999999088401MD1410001+9999ME1315169REMSYN076AAXX  30034 17203 42670 30000 10134 20081 38840 48516 54000 83100 333 10117;
0253172030999992000053006004+38870+040500FM-12+117799999V0209999C000012200019N0200001N1+02201+01191999999ADDAA199000091GA1011+012009029GF101991011011012501001001IA1019IA2999+01109KA1120N+01321MA1999999088441MD1110041+9999ME1315279REMSYN100AAXX  30064 17203 32670 10000 10220 20119 38844 48527 51004 81100 333 20132 30011 50644 55104 81840;EQDQ01  00002PRCP99
0152172030999992000053009004+38870+040500FM-12+117799999V0202901N001512200019N0200001N1+02701+01011999999ADDGF102991021011012501001001MA1999999088381MD1710061+9999ME1315189REMSYN076AAXX  30094 17203 42670 22903 10270 20101 38838 48518 57006 82100 333 10101;
0182172030999992000053012004+38870+040500FM-12+117799999V0200701N002112200019N0200001N1+02961+00951999999ADDAA199000091GF103991031011012501001001MA1999999088221MD1710161+9999ME1315039REMSYN076AAXX  30124 17203 32670 30704 10296 20095 38822 48503 57016 83100 333 10082;EQDQ01  00002PRCP99
0152172030999992000053015004+38870+040500FM-12+117799999V0200901N001512200019N0200001N1+02641+00831999999ADDGF102991021011012501001001MA1999999088101MD1710121+9999ME1314889REMSYN076AAXX  30154 17203 42670 20903 10264 20083 38810 48488 57012 82100 333 10078;
0221172030999992000053018004+38870+040500FM-12+117799999V0209999C000012200019N0200001N1+02101+00731999999ADDAA199000091GA1001+999999999GF100991001001999999001001KA1999M+99999MA1999999088211MD1310101+9999ME1315009REMSYN070AAXX  30184 17203 32970 00000 10210 20073 38821 48500 53010 333 10080;EQDQ01  00002PRCP99Q02 +00802ATMX  
0162172030999992000053021004+38870+040500FM-12+117799999V0209999C000012200019N0200001N1+01801+00771999999ADDGA1001+999999999GF100991001001999999001001MA1999999088171MD1110071+9999ME1314989REMSYN070AAXX  30214 17203 42970 00000 10180 20077 38817 48498 51007 333 10077;
0182172030999992000053100004+38870+040500FM-12+117799999V0209999C000012200019N0200001N1+01601+00621999999ADDAA199000091GF103991031011012501001001MA1999999088171MD1410001+9999ME1314999REMSYN076AAXX  31004 17203 32670 30000 10160 20062 38817 48499 54000 83100 333 10072;EQDQ01  00002PRCP99
0174172030999992000053103004+38870+040500FM-12+117799999V0209999C00001036001CN0200001N1+01581+00681999999ADDGA1041+012009089GF106991041021012501051001MA1999999088201MD1310031+9999ME1314999REMSYN082AAXX  31034 17203 42670 60000 10158 20068 38820 48499 53003 84250 333 84840 86360;
0253172030999992000053106004+38870+040500FM-12+117799999V0209999C000012200019N0200001N1+02301+01141999999ADDAA199000091GA1021+012009029GF102991021011012501001001IA1019IA2999+01209KA1120N+01501MA1999999088201MD1410001+9999ME1314899REMSYN100AAXX  31064 17203 32670 20000 10230 20114 38820 48489 54000 82100 333 20150 30012 50674 55104 82840;EQDQ01  00002PRCP99
0174172030999992000053109004+38870+040500FM-12+117799999V0200401N00311036001CN0200001N1+02501+01191999999ADDGA1041+012009089GF107991041021012501051001MA1999999088151MD1610051+9999ME1314959REMSYN082AAXX  31094 17203 42670 70406 10250 20119 38815 48495 56005 84250 333 84840 87360;
0204172030999992000053112004+38870+040500FM-12+117799999V0201601N00261036001CN0200001N1+02431+01341999999ADDAA199000091GA1041+012009089GF107991041021012501051001MA1999999088151MD1410001+9999ME1314939REMSYN082AAXX  31124 17203 32670 71605 10243 20134 38815 48493 54000 84250 333 84840 87360;EQDQ01  00002PRCP99
0224172030999992000053115004+38870+040500FM-12+117799999V0201601N00101036001CN0150001N1+01901+01411999999ADDAY191031AY221031GA1011+006309099GA2031+009909089GF107991041091008001051001MA1999999088181MD1310031+9999ME1314939MW1951REMSYN094AAXX  31154 17203 41565 71602 10190 20141 38818 48493 53003 79592 84950 333 81921 83833 87358;
0208172030999992000053118004+38870+040500FM-12+117799999V0209999C000010360019N0200001N1+01521+01381999999ADDAA112005191AY191061AY221061GF107991041021012501051001MA1999999088471MD1210291+9999ME1315239MW1021REMSYN099AAXX  31184 17203 11670 70000 10152 20138 38847 48523 52029 60052 70292 84250 33 10272 84837 87359;
0174172030999992000053121004+38870+040500FM-12+117799999V0209999C00001036001CN0200001N1+01321+00941999999ADDGA1031+011409089GF107991031021012501071001MA1999999088501MD1110031+9999ME1315269REMSYN082AAXX  31214 17203 42670 70000 10132 20094 38850 48526 51003 83270 333 83838 87360;
0173172030999992000060100004+38870+040500FM-12+117799999V0201701N002112200019N0200001N1+01301+00851999999ADDAA199000021GA1001+999999999GF100991001001999999001001MA1999999088501MD1410001+9999ME1315269REMSYN070AAXX  01004 17203 32970 01704 10130 20085 38850 48526 54000 333 10129;
0152172030999992000060103004+38870+040500FM-12+117799999V0201601N002612200019N0200001N1+01361+00721999999ADDGF101991011011012501001001MA1999999088511MD1310011+9999ME1315239REMSYN076AAXX  01034 17203 42670 11605 10136 20072 38851 48523 53001 81100 333 10145;
0241172030999992000060106004+38870+040500FM-12+117799999V0209999C000012200019N0200001N1+02101+00861999999ADDAA199000091GA1001+999999999GF100991001001999999001001IA1119IA2999+01109KA1120N+01301MA1999999088601MD1210091+9999ME1315359REMSYN088AAXX  01064 17203 32970 00000 10210 20086 38860 48535 52009 333 20130 32011 50464 55059;EQDQ01  00002PRCP99
0162172030999992000060109004+38870+040500FM-12+117799999V0203101N001512200019N0200001N1+02401+01131999999ADDGA1001+999999999GF100991001001999999001001MA1999999088501MD1810101+9999ME1315259REMSYN070AAXX  01094 17203 42970 03103 10240 20113 38850 48525 58010 333 10129;
0182172030999992000060112004+38870+040500FM-12+117799999V0203401N001512200019N0200001N1+02651+01041999999ADDAA199000091GF102991021011012501001001MA1999999088421MD1810081+9999ME1315209REMSYN076AAXX  01124 17203 32670 23403 10265 20104 38842 48520 58008 82100 333 10115;EQDQ01  00002PRCP99
0162172030999992000060115004+38870+040500FM-12+117799999V0203101N001512200019N0200001N1+02601+00991999999ADDGA1001+999999999GF100991001001999999001001MA1999999088321MD1710101+9999ME1315099REMSYN070AAXX  01154 17203 42970 03103 10260 20099 38832 48509 57010 333 10103;
0221172030999992000060118004+38870+040500FM-12+117799999V0209999C000012200019N0200001N1+02061+00911999999ADDAA199000091GA1001+999999999GF100991001001999999001001KA1999M+99999MA1999999088361MD1310041+9999ME1315149REMSYN070AAXX  01184 17203 32970 00000 10206 20091 38836 48514 53004 333 10103;EQDQ01  00002PRCP99Q02 +01032ATMX  
0162172030999992000060121004+38870+040500FM-12+117799999V0209999C000012200019N0200001N1+01801+00931999999ADDGA1001+999999999GF100991001001999999001001MA1999999088401MD1110041+9999ME1315169REMSYN070AAXX  01214 17203 42970 00000 10180 20093 38840 48516 51004 333 10117;
0192172030999992000060200004+38870+040500FM-12+117799999V0209999C000012200019N0200001N1+01541+00851999999ADDAA199000091GA1001+999999999GF100991001001999999001001MA1999999088401MD1410001+9999ME1315189REMSYN070AAXX  02004 17203 32970 00000 10154 20085 38840 48518 54000 333 10108;EQDQ01  00002PRCP99
0162172030999992000060203004+38870+040500FM-12+117799999V0209999C000012200019N0200001N1+01471+01021999999ADDGA1001+999999999GF100991001001999999001001MA1999999088401MD1410001+9999ME1315189REMSYN070AAXX  02034 17203 42970 00000 10147 20102 38840 48518 54000 333 10113;
0253172030999992000060206004+38870+040500FM-12+117799999V0209999C000012200019N0200001N1+02301+01161999999ADDAA199000091GA1031+012009029GF103991031011012501001001IA1019IA2999+01209KA1120N+01441MA1999999088401MD1410001+9999ME1315209REMSYN100AAXX  02064 17203 32670 30000 10230 20116 38840 48520 54000 83100 333 20144 30012 50564 55112 83840;EQDQ01  00002PRCP99
0152172030999992000060209004+38870+040500FM-12+117799999V0202701N002112200019N0200001N1+02801+01231999999ADDGF103991031011012501001001MA1999999088381MD1810021+9999ME1315199REMSYN076AAXX  02094 17203 42670 32704 10280 20123 38838 48519 58002 83100 333 10096;
0182172030999992000060212004+38870+040500FM-12+117799999V0201001N001512200019N0200001N1+03001+01051999999ADDAA199000091GF103991031011012501001001MA1999999088321MD1710061+9999ME1315129REMSYN076AAXX  02124 17203 32670 31003 10300 20105 38832 48512 57006 83100 333 10089;EQDQ01  00002PRCP99
0152172030999992000060215004+38870+040500FM-12+117799999V0209999C000012200019N0200001N1+02661+00861999999ADDGF102991021011012501001001MA1999999088221MD1710101+9999ME1315009REMSYN076AAXX  02154 17203 42670 20000 10266 20086 38822 48500 57010 82100 333 10087;
0221172030999992000060218004+38870+040500FM-12+117799999V0209999C000012200019N0200001N1+02201+00831999999ADDAA199000091GA1001+999999999GF100991001001999999001001KA1999M+99999MA1999999088221MD1410001+9999ME1315029REMSYN070AAXX  02184 17203 32970 00000 10220 20083 38822 48502 54000 333 10082;EQDQ01  00002PRCP99Q02 +00822ATMX  
0162172030999992000060221004+38870+040500FM-12+117799999V0201601N001512200019N0200001N1+02031+00831999999ADDGA1001+999999999GF100991001001999999001001MA1999999088301MD1310101+9999ME1315139REMSYN070AAXX  02214 17203 42970 01603 10203 20083 38830 48513 53010 333 10082;
0192172030999992000060300004+38870+040500FM-12+117799999V0201801N001512200019N0200001N1+01801+00831999999ADDAA199000091GA1001+999999999GF100991001001999999001001MA1999999088301MD1410001+9999ME1315129REMSYN070AAXX  03004 17203 32970 01803 10180 20083 38830 48512 54000 333 10082;EQDQ01  00002PRCP99
0162172030999992000060303004+38870+040500FM-12+117799999V0209999C000012200019N0200001N1+01561+00761999999ADDGA1001+999999999GF100991001001999999001001MA1999999088231MD1610071+9999ME1315029REMSYN070AAXX  03034 17203 42970 00000 10156 20076 38823 48502 56007 333 10088;
0259172030999992000060306004+38870+040500FM-12+117799999V0209999C00001036001CN0200001N1+01961+01231999999ADDAA199000091GA1041+012009089GF107991041021012501051001IA1019IA2999+01409KA1120N+01521MA1999999088271MD1110041+9999ME1315069REMSYN106AAXX  03064 17203 32670 70000 10196 20123 38827 48506 51004 84250 333 20152 30014 50554 55109 84840 87360;EQDQ01  00002PRCP99
0174172030999992000060309004+38870+040500FM-12+117799999V0209999C00001036001CN0200001N1+02341+01171999999ADDGA1041+012009089GF106991041021012501051001MA1999999088361MD1010091+9999ME1315169REMSYN082AAXX  03094 17203 42670 60000 10234 20117 38836 48516 50009 84250 333 84840 86360;
0342172030999992000060312004+38870+040500FM-12+117799999V0203401N001510300019N0200001N1+02541+01161999999ADDAA199000091AJ199999999999999GA1041+012009089GA2071+030009039GF107991041021012501051001IA1249KA1120N+00771MA1999999088181MD1710181+9999ME1314989REMSYN152AAXX  03124 17203 32670 73403 10254 20116 38818 48498 57018 84250 333 84840 87360 17205 32680 30000 10240 20077 38320 48478 54000 83200 333 83840 92418;EQDQ01  00002PRCP99Q02  04782SNDP  
0152172030999992000060315004+38870+040500FM-12+117799999V0200101N002612200019N0200001N1+02861+01111999999ADDGF103991031011012501001001MA1999999087981MD1710201+9999ME1314789REMSYN076AAXX  03154 17203 42670 30105 10286 20111 38798 48478 57020 83100 333 10055;
0221172030999992000060318004+38870+040500FM-12+117799999V0209999C000012200019N0200001N1+02281+00941999999ADDAA199000091GA1001+999999999GF100991001001999999001001KA1999M+99999MA1999999087981MD1510001+9999ME1314789REMSYN070AAXX  03184 17203 32970 00000 10228 20094 38798 48478 55000 333 10060;EQDQ01  00002PRCP99Q02 +00602ATMX  
0162172030999992000060321004+38870+040500FM-12+117799999V0209999C000012200019N0200001N1+01961+00801999999ADDGA1001+999999999GF100991001001999999001001MA1999999088051MD1210071+9999ME1314859REMSYN070AAXX  03214 17203 42970 00000 10196 20080 38805 48485 52007 333 10063;
0192172030999992000060400004+38870+040500FM-12+117799999V0209999C000012200019N0200001N1+01701+00721999999ADDAA199000091GA1001+999999999GF100991001001999999001001MA1999999088051MD1410001+9999ME1314859REMSYN070AAXX  04004 17203 32970 00000 10170 20072 38805 48485 54000 333 10068;EQDQ01  00002PRCP99
0162172030999992000060403004+38870+040500FM-12+117799999V0209999C000012200019N0200001N1+01501+00511999999ADDGA1001+999999999GF100991001001999999001001MA1999999088051MD1410001+9999ME1314859REMSYN070AAXX  04034 17203 42970 00000 10150 20051 38805 48485 54000 333 10063;
0241172030999992000060406004+38870+040500FM-12+117799999V0209999C000012200019N0200001N1+02201+00951999999ADDAA199000091GA1001+999999999GF100991001001999999001001IA1019IA2999+01209KA1120N+01481MA1999999088101MD1310051+9999ME1314919REMSYN088AAXX  04064 17203 32970 00000 10220 20095 38810 48491 53005 333 20148 30012 50584 55034;EQDQ01  00002PRCP99
0162172030999992000060409004+38870+040500FM-12+117799999V0200901N001512200019N0200001N1+02601+00911999999ADDGA1001+999999999GF100991001001999999001001MA1999999088101MD1410001+9999ME1314919REMSYN070AAXX  04094 17203 42970 00903 10260 20091 38810 48491 54000 333 10064;
0182172030999992000060412004+38870+040500FM-12+117799999V0200401N003112200019N0200001N1+02681+00751999999ADDAA199000091GF103991031011012501001001MA1999999088151MD1110051+9999ME1314959REMSYN076AAXX  04124 17203 32670 30406 10268 20075 38815 48495 51005 83100 333 10074;EQDQ01  00002PRCP99
0152172030999992000060415004+38870+040500FM-12+117799999V0201601N002612200019N0200001N1+02441+00941999999ADDGF103991031011012501001001MA1999999088161MD1110011+9999ME1314939REMSYN076AAXX  04154 17203 42670 31605 10244 20094 38816 48493 51001 83100 333 10085;
0217172030999992000060418004+38870+040500FM-12+117799999V0201601N004112200019N0200001N1+02101+00821999999ADDAA199000091GA1021+012009029GF102991021011012501001001KA1120M+02721MA1999999088241MD1310081+9999ME1315049REMSYN082AAXX  04184 17203 32670 21608 10210 20082 38824 48504 53008 82100 333 10272 82840;EQDQ01  00002PRCP99
0152172030999992000060421004+38870+040500FM-12+117799999V0209999C000012200019N0200001N1+01901+00771999999ADDGF102991021011012501001001MA1999999088361MD1210121+9999ME1315169REMSYN076AAXX  04214 17203 42670 20000 10190 20077 38836 48516 52012 82100 333 10098;
0192172030999992000060500004+38870+040500FM-12+117799999V0209999C000012200019N0200001N1+01561+00801999999ADDAA199000091GA1001+999999999GF100991001001999999001001MA1999999088401MD1110041+9999ME1315199REMSYN070AAXX  05004 17203 32970 00000 10156 20080 38840 48519 51004 333 10108;EQDQ01  00002PRCP99
0152172030999992000060503004+38870+040500FM-12+117799999V0209999C000012200019N0200001N1+01501+00841999999ADDGF103991031011012501001001MA1999999088401MD1410001+9999ME1315179REMSYN076AAXX  05034 17203 42670 30000 10150 20084 38840 48517 54000 83100 333 10113;
0253172030999992000060506004+38870+040500FM-12+117799999V0209999C000012200019N0200001N1+02171+01191999999ADDAA199000091GA1021+012009029GF102991021011012501001001IA1019IA2999+01209KA1120N+01481MA1999999088401MD1410001+9999ME1315199REMSYN100AAXX  05064 17203 32670 20000 10217 20119 38840 48519 54000 82100 333 20148 30012 50894 55101 82840;EQDQ01  00002PRCP99
0152172030999992000060509004+38870+040500FM-12+117799999V0209999C000012200019N0200001N1+02601+01241999999ADDGF103991031011012501001001MA1999999088331MD1810071+9999ME1315149REMSYN076AAXX  05094 17203 42670 30000 10260 20124 38833 48514 58007 83100 333 10095;
0182172030999992000060512004+38870+040500FM-12+117799999V0209999C000012200019N0200001N1+02751+01261999999ADDAA199000091GF103991031011012501001001MA1999999088201MD1710131+9999ME1314999REMSYN076AAXX  05124 17203 32670 30000 10275 20126 38820 48499 57013 83100 333 10080;EQDQ01  00002PRCP99
0152172030999992000060515004+38870+040500FM-12+117799999V0209999C000012200019N0200001N1+02601+01141999999ADDGF102991021011012501001001MA1999999088161MD1710041+9999ME1314949REMSYN076AAXX  05154 17203 42670 20000 10260 20114 38816 48494 57004 82100 333 10085;
0221172030999992000060518004+38870+040500FM-12+117799999V0201601N003112200019N0200001N1+02181+00931999999ADDAA199000091GA1001+999999999GF100991001001999999001001KA1999M+99999MA1999999088181MD1310021+9999ME1314989REMSYN070AAXX  05184 17203 32970 01606 10218 20093 38818 48498 53002 333 10078;EQDQ01  00002PRCP99Q02 +00782ATMX  
0162172030999992000060521004+38870+040500FM-12+117799999V0201601N003112200019N0200001N1+01941+00901999999ADDGA1001+999999999GF100991001001999999001001MA1999999088311MD1210131+9999ME1315129REMSYN070AAXX  05214 17203 42970 01606 10194 20090 38831 48512 52013 333 10088;
0192172030999992000060600004+38870+040500FM-12+117799999V0201601N001512200019N0200001N1+01701+00851999999ADDAA199000091GA1001+999999999GF100991001001999999001001MA1999999088301MD1810011+9999ME1315109REMSYN070AAXX  06004 17203 32970 01603 10170 20085 38830 48510 58001 333 10092;EQDQ01  00002PRCP99
0162172030999992000060603004+38870+040500FM-12+117799999V0201601N002112200019N0200001N1+01501+00881999999ADDGA1001+999999999GF100991001001999999001001MA1999999088281MD1810021+9999ME1315069REMSYN070AAXX  06034 17203 42970 01604 10150 20088 38828 48506 58002 333 10099;
0241172030999992000060606004+38870+040500FM-12+117799999V0201901N001512200019N0200001N1+02301+01241999999ADDAA199000091GA1001+999999999GF100991001001999999001001IA1019IA2999+01209KA1120N+01481MA1999999088281MD1510001+9999ME1315089REMSYN088AAXX  06064 17203 32970 01903 10230 20124 38828 48508 55000 333 20148 30012 50524 55101;EQDQ01  00002PRCP99
0152172030999992000060609004+38870+040500FM-12+117799999V0203201N002112200019N0200001N1+02681+01151999999ADDGF101991011011012501001001MA1999999088171MD1710111+9999ME1314989REMSYN076AAXX  06094 17203 42670 13204 10268 20115 38817 48498 57011 81100 333 10072;
0182172030999992000060612004+38870+040500FM-12+117799999V0202401N001512200019N0200001N1+02921+01391999999ADDAA199000091GF101991011011012501001001MA1999999088101MD1610071+9999ME1314919REMSYN076AAXX  06124 17203 32670 12403 10292 20139 38810 48491 56007 81100 333 10064;EQDQ01  00002PRCP99
0152172030999992000060615004+38870+040500FM-12+117799999V0203001N001512200019N0200001N1+02801+00941999999ADDGF101991011011012501001001MA1999999088011MD1610091+9999ME1314819REMSYN076AAXX  06154 17203 42670 13003 10280 20094 38801 48481 56009 81100 333 10058;
0217172030999992000060618004+38870+040500FM-12+117799999V0209999C000012200019N0200001N1+02301+01041999999ADDAA199000091GA1021+012009029GF102991021011012501001001KA1120M+03041MA1999999088011MD1410001+9999ME1314839REMSYN082AAXX  06184 17203 32670 20000 10230 20104 38801 48483 54000 82100 333 10304 82840;EQDQ01  00002PRCP99
0162172030999992000060621004+38870+040500FM-12+117799999V0209999C000012200019N0200001N1+01951+00961999999ADDGA1001+999999999GF100991001001999999001001MA1999999088061MD1110051+9999ME1314879REMSYN070AAXX  06214 17203 42970 00000 10195 20096 38806 48487 51005 333 10059;
0192172030999992000060700004+38870+040500FM-12+117799999V0201601N001512200019N0200001N1+01841+00981999999ADDAA199000091GA1001+999999999GF100991001001999999001001MA1999999088061MD1410001+9999ME1314889REMSYN070AAXX  07004 17203 32970 01603 10184 20098 38806 48488 54000 333 10055;EQDQ01  00002PRCP99
0162172030999992000060703004+38870+040500FM-12+117799999V0209999C000012200019N0200001N1+01851+00971999999ADDGA1001+999999999GF100991001001999999001001MA1999999088061MD1410001+9999ME1314889REMSYN070AAXX  07034 17203 42970 00000 10185 20097 38806 48488 54000 333 10059;
0241172030999992000060706004+38870+040500FM-12+117799999V0209999C000012200019N0200001N1+02601+01351999999ADDAA199000091GA1001+999999999GF100991001001999999001001IA1019IA2999+01409KA1120N+01721MA1999999088061MD1410001+9999ME1314899REMSYN088AAXX  07064 17203 32970 00000 10260 20135 38806 48489 54000 333 20172 30014 50654 55113;EQDQ01  00002PRCP99
0152172030999992000060709004+38870+040500FM-12+117799999V0202701N002112200019N0200001N1+03001+01351999999ADDGF102991021011012501001001MA1999999087981MD1810081+9999ME1314819REMSYN076AAXX  07094 17203 42670 22704 10300 20135 38798 48481 58008 82100 333 10041;
0182172030999992000060712004+38870+040500FM-12+117799999V0200301N002612200019N0200001N1+03101+01081999999ADDAA199000091GF103991031011012501001001MA1999999087901MD1710081+9999ME1314749REMSYN076AAXX  07124 17203 32670 30305 10310 20108 38790 48474 57008 83100 333 10032;EQDQ01  00002PRCP99
0152172030999992000060715004+38870+040500FM-12+117799999V0200301N003112200019N0200001N1+02801+00801999999ADDGF102991021011012501001001MA1999999087801MD1610101+9999ME1314629REMSYN076AAXX  07154 17203 42670 20306 10280 20080 38780 48462 56010 82100 333 10030;
0221172030999992000060718004+38870+040500FM-12+117799999V0209999C000012200019N0200001N1+02261+00501999999ADDAA199000091GA1001+999999999GF100991001001999999001001KA1999M+99999MA1999999087891MD1310091+9999ME1314719REMSYN070AAXX  07184 17203 32970 00000 10226 20050 38789 48471 53009 333 10035;EQDQ01  00002PRCP99Q02 +00352ATMX  
0152172030999992000060721004+38870+040500FM-12+117799999V0209999C000012200019N0200001N1+01961+00761999999ADDGF101991011011012501001001MA1999999088001MD1210111+9999ME1314839REMSYN076AAXX  07214 17203 42670 10000 10196 20076 38800 48483 52011 81100 333 10043;
0192172030999992000060800004+38870+040500FM-12+117799999V0201701N001512200019N0200001N1+01741+00861999999ADDAA199000091GA1001+999999999GF100991001001999999001001MA1999999088041MD1110041+9999ME1314869REMSYN070AAXX  08004 17203 32970 01703 10174 20086 38804 48486 51004 333 10052;EQDQ01  00002PRCP99
0162172030999992000060803004+38870+040500FM-12+117799999V0209999C000012200019N0200001N1+01601+00721999999ADDGA1001+999999999GF100991001001999999001001MA1999999088101MD1210071+9999ME1314819REMSYN070AAXX  08034 17203 42970 00000 10160 20072 38810 48481 52007 333 10006;
0241172030999992000060806004+38870+040500FM-12+117799999V0209999C000012200019N0200001N1+02201+01231999999ADDAA199000091GA1001+999999999GF100991001001999999001001IA1019IA2999+01209KA1120N+01521MA1999999088201MD1110101+9999ME1315009REMSYN088AAXX  08064 17203 32970 00000 10220 20123 38820 48500 51010 333 20152 30012 50744 55110;EQDQ01  00002PRCP99
0162172030999992000060809004+38870+040500FM-12+117799999V0209999C000012200019N0200001N1+02761+01331999999ADDGA1001+999999999GF100991001001999999001001MA1999999088201MD1410001+9999ME1315029REMSYN070AAXX  08094 17203 42970 00000 10276 20133 38820 48502 54000 333 10071;
0182172030999992000060812004+38870+040500FM-12+117799999V0209999C000012200019N0200001N1+03101+01281999999ADDAA199000091GF102991021011012501001001MA1999999088111MD1710091+9999ME1314939REMSYN076AAXX  08124 17203 32670 20000 10310 20128 38811 48493 57009 82100 333 10060;EQDQ01  00002PRCP99
0152172030999992000060815004+38870+040500FM-12+117799999V0209999C000012200019N0200001N1+02851+01341999999ADDGF103991031011012501001001MA1999999088041MD1610071+9999ME1314849REMSYN076AAXX  08154 17203 42670 30000 10285 20134 38804 48484 56007 83100 333 10062;
0217172030999992000060818004+38870+040500FM-12+117799999V0201601N002112200019N0200001N1+02401+01131999999ADDAA199000091GA1021+012009029GF102991021011012501001001KA1120M+03161MA1999999088161MD1310121+9999ME1314979REMSYN082AAXX  08184 17203 32670 21604 10240 20113 38816 48497 53012 82100 333 10316 82840;EQDQ01  00002PRCP99
0162172030999992000060821004+38870+040500FM-12+117799999V0201601N003112200019N0200001N1+02121+01051999999ADDGA1001+999999999GF100991001001999999001001MA1999999088401MD1210241+9999ME1315239REMSYN070AAXX  08214 17203 42970 01606 10212 20105 38840 48523 52024 333 10094;
0192172030999992000060900004+38870+040500FM-12+117799999V0201601N002112200019N0200001N1+01801+00911999999ADDAA199000091GA1001+999999999GF100991001001999999001001MA1999999088401MD1410001+9999ME1315239REMSYN070AAXX  09004 17203 32970 01604 10180 20091 38840 48523 54000 333 10094;EQDQ01  00002PRCP99
0162172030999992000060903004+38870+040500FM-12+117799999V0201601N002612200019N0200001N1+01841+01051999999ADDGA1001+999999999GF100991001001999999001001MA1999999088501MD1310101+9999ME1315329REMSYN070AAXX  09034 17203 42970 01605 10184 20105 38850 48532 53010 333 10110;
0241172030999992000060906004+38870+040500FM-12+117799999V0200601N003612200019N0200001N1+02401+01321999999ADDAA199000091GA1001+999999999GF100991001001999999001001IA1019IA2999+01609KA1120N+01801MA1999999088541MD1110041+9999ME1315369REMSYN088AAXX  09064 17203 32970 00607 10240 20132 38854 48536 51004 333 20180 30016 50744 55113;EQDQ01  00002PRCP99
0152172030999992000060909004+38870+040500FM-12+117799999V0201601N002112200019N0200001N1+02721+01461999999ADDGF103991031011012501001001MA1999999088521MD1610021+9999ME1315349REMSYN076AAXX  09094 17203 42670 31604 10272 20146 38852 48534 56002 83100 333 10107;
0182172030999992000060912004+38870+040500FM-12+117799999V0202401N003112200019N0200001N1+02841+01471999999ADDAA199000091GF102991021011012501001001MA1999999088481MD1710041+9999ME1315299REMSYN076AAXX  09124 17203 32670 22406 10284 20147 38848 48529 57004 82100 333 10107;EQDQ01  00002PRCP99
0152172030999992000060915004+38870+040500FM-12+117799999V0201801N002612200019N0200001N1+02581+01211999999ADDGF101991011011012501001001MA1999999088421MD1610061+9999ME1315229REMSYN076AAXX  09154 17203 42670 11805 10258 20121 38842 48522 56006 81100 333 10105;
0221172030999992000060918004+38870+040500FM-12+117799999V0201601N003112200019N0200001N1+02161+01021999999ADDAA199000091GA1001+999999999GF100991001001999999001001KA1999M+99999MA1999999088531MD1210111+9999ME1315329REMSYN070AAXX  09184 17203 32970 01606 10216 20102 38853 48532 52011 333 10123;EQDQ01  00002PRCP99Q02 +01232ATMX  
0162172030999992000060921004+38870+040500FM-12+117799999V0201601N002112200019N0200001N1+02061+00911999999ADDGA1001+999999999GF100991001001999999001001MA1999999088681MD1210151+9999ME1315509REMSYN070AAXX  09214 17203 42970 01604 10206 20091 38868 48550 52015 333 10125;
0192172030999992000061000004+38870+040500FM-12+117799999V0201601N001512200019N0200001N1+01881+00901999999ADDAA199000091GA1001+999999999GF100991001001999999001001MA1999999088611MD1710071+9999ME1315579REMSYN070AAXX  10004 17203 32970 01603 10188 20090 38861 48557 57007 333 10117;EQDQ01  00002PRCP99
0162172030999992000061003004+38870+040500FM-12+117799999V0201801N002112200019N0200001N1+01761+00841999999ADDGA1001+999999999GF100991001001999999001001MA1999999088641MD1310031+9999ME1315439REMSYN070AAXX  10034 17203 42970 01804 10176 20084 38864 48543 53003 333 10130;
0241172030999992000061006004+38870+040500FM-12+117799999V0201501N002112200019N0200001N1+02341+01251999999ADDAA199000091GA1001+999999999GF100991001001999999001001IA1019IA2999+01609KA1120N+01681MA1999999088661MD1110021+9999ME1315469REMSYN088AAXX  10064 17203 32970 01504 10234 20125 38866 48546 51002 333 20168 30016 50764 55112;EQDQ01  00002PRCP99
0162172030999992000061009004+38870+040500FM-12+117799999V0202501N002112200019N0200001N1+02821+01451999999ADDGA1001+999999999GF100991001001999999001001MA1999999088541MD1710121+9999ME1315379REMSYN070AAXX  10094 17203 42970 02504 10282 20145 38854 48537 57012 333 10109;
0192172030999992000061012004+38870+040500FM-12+117799999V0203001N002112200019N0200001N1+03061+01461999999ADDAA199000091GA1001+999999999GF100991001001999999001001MA1999999088421MD1710121+9999ME1315259REMSYN070AAXX  10124 17203 32970 03004 10306 20146 38842 48525 57012 333 10091;EQDQ01  00002PRCP99
0162172030999992000061015004+38870+040500FM-12+117799999V0201801N002112200019N0200001N1+02701+01031999999ADDGA1001+999999999GF100991001001999999001001MA1999999088351MD1610071+9999ME1315159REMSYN070AAXX  10154 17203 42970 01804 10270 20103 38835 48515 56007 333 10097;
0221172030999992000061018004+38870+040500FM-12+117799999V0201601N005112200019N0200001N1+02281+00891999999ADDAA199000091GA1001+999999999GF100991001001999999001001KA1999M+99999MA1999999088421MD1210071+9999ME1315239REMSYN070AAXX  10184 17203 32970 01610 10228 20089 38842 48523 52007 333 10100;EQDQ01  00002PRCP99Q02 +01002ATMX  
0162172030999992000061021004+38870+040500FM-12+117799999V0201601N003612200019N0200001N1+02001+00631999999ADDGA1001+999999999GF100991001001999999001001MA1999999088541MD1210121+9999ME1315369REMSYN070AAXX  10214 17203 42970 01607 10200 20063 38854 48536 52012 333 10109;
0192172030999992000061100004+38870+040500FM-12+117799999V0201601N004112200019N0200001N1+01801+00541999999ADDAA199000091GA1001+999999999GF100991001001999999001001MA1999999088561MD1110021+9999ME1315389REMSYN070AAXX  11004 17203 32970 01608 10180 20054 38856 48538 51002 333 10112;EQDQ01  00002PRCP99
0162172030999992000061103004+38870+040500FM-12+117799999V0201601N003112200019N0200001N1+01701+00541999999ADDGA1001+999999999GF100991001001999999001001MA1999999088581MD1310021+9999ME1315389REMSYN070AAXX  11034 17203 42970 01606 10170 20054 38858 48538 53002 333 10124;
0241172030999992000061106004+38870+040500FM-12+117799999V0201601N002112200019N0200001N1+02221+01131999999ADDAA199000091GA1001+999999999GF100991001001999999001001IA1019IA2999+01509KA1120N+01681MA1999999088621MD1210041+9999ME1315429REMSYN088AAXX  11064 17203 32970 01604 10222 20113 38862 48542 52004 333 20168 30015 50804 55112;EQDQ01  00002PRCP99
0162172030999992000061109004+38870+040500FM-12+117799999V0203401N001512200019N0200001N1+02801+01311999999ADDGA1001+999999999GF100991001001999999001001MA1999999088541MD1810081+9999ME1315369REMSYN070AAXX  11094 17203 42970 03403 10280 20131 38854 48536 58008 333 10109;
0192172030999992000061112004+38870+040500FM-12+117799999V0201601N002112200019N0200001N1+02971+01361999999ADDAA199000091GA1001+999999999GF100991001001999999001001MA1999999088361MD1710181+9999ME1315189REMSYN070AAXX  11124 17203 32970 01604 10297 20136 38836 48518 57018 333 10089;EQDQ01  00002PRCP99
0221172030999992000061118004+38870+040500FM-12+117799999V0201601N004112200019N0200001N1+02301+00701999999ADDAA199000091GA1001+999999999GF100991001001999999001001KA1999M+99999MA1999999088401MD1310101+9999ME1315219REMSYN070AAXX  11184 17203 32970 01608 10230 20070 38840 48521 53010 333 10098;EQDQ01  00002PRCP99Q02 +00982ATMX  
0162172030999992000061121004+38870+040500FM-12+117799999V0201601N002112200019N0200001N1+01961+00331999999ADDGA1001+999999999GF100991001001999999001001MA1999999088561MD1210161+9999ME1315389REMSYN070AAXX  11214 17203 42970 01604 10196 20033 38856 48538 52016 333 10112;
0192172030999992000061200004+38870+040500FM-12+117799999V0201501N001512200019N0200001N1+01681+00161999999ADDAA199000091GA1001+999999999GF100991001001999999001001MA1999999088601MD1110041+9999ME1315429REMSYN070AAXX  12004 17203 32970 01503 10168 20016 38860 48542 51004 333 10121;EQDQ01  00002PRCP99
0162172030999992000061203004+38870+040500FM-12+117799999V0201601N004112200019N0200001N1+01501+00101999999ADDGA1001+999999999GF100991001001999999001001MA1999999088681MD1310081+9999ME1315469REMSYN070AAXX  12034 17203 42970 01608 10150 20010 38868 48546 53008 333 10140;
0241172030999992000061206004+38870+040500FM-12+117799999V0201601N002112200019N0200001N1+02101+00491999999ADDAA199000091GA1001+999999999GF100991001001999999001001IA1019IA2999+01109KA1120N+01471MA1999999088801MD1210121+9999ME1315609REMSYN088AAXX  12064 17203 32970 01604 10210 20049 38880 48560 52012 333 20147 30011 50824 55112;EQDQ01  00002PRCP99
0162172030999992000061209004+38870+040500FM-12+117799999V0202701N002612200019N0200001N1+02551+00561999999ADDGA1001+999999999GF100991001001999999001001MA1999999088801MD1010001+9999ME1315609REMSYN070AAXX  12094 17203 42970 02705 10255 20056 38880 48560 50000 333 10144;
0192172030999992000061212004+38870+040500FM-12+117799999V0202501N003112200019N0200001N1+02731+00501999999ADDAA199000091GA1001+999999999GF100991001001999999001001MA1999999088671MD1810131+9999ME1315479REMSYN070AAXX  12124 17203 32970 02506 10273 20050 38867 48547 58013 333 10134;EQDQ01  00002PRCP99
0162172030999992000061215004+38870+040500FM-12+117799999V0201501N002612200019N0200001N1+02451+00401999999ADDGA1001+999999999GF100991001001999999001001MA1999999088641MD1810031+9999ME1315419REMSYN070AAXX  12154 17203 42970 01505 10245 20040 38864 48541 58003 333 10140;
0221172030999992000061218004+38870+040500FM-12+117799999V0201601N003112200019N0200001N1+02061+00191999999ADDAA199000091GA1001+999999999GF100991001001999999001001KA1999M+99999MA1999999088761MD1210121+9999ME1315539REMSYN070AAXX  12184 17203 32970 01606 10206 20019 38876 48553 52012 333 10149;EQDQ01  00002PRCP99Q02 +01492ATMX  
0162172030999992000061221004+38870+040500FM-12+117799999V0201501N002112200019N0200001N1+01681+00161999999ADDGA1001+999999999GF100991001001999999001001MA1999999088901MD1210141+9999ME1315689REMSYN070AAXX  12214 17203 42970 01504 10168 20016 38890 48568 52014 333 10165;
0192172030999992000061300004+38870+040500FM-12+117799999V0201501N003112200019N0200001N1+01541+00161999999ADDAA199000091GA1001+999999999GF100991001001999999001001MA1999999088901MD1410001+9999ME1315689REMSYN070AAXX  13004 17203 32970 01506 10154 20016 38890 48568 54000 333 10165;EQDQ01  00002PRCP99
0162172030999992000061303004+38870+040500FM-12+117799999V0201601N001512200019N0200001N1+01351+00101999999ADDGA1001+999999999GF100991001001999999001001MA1999999088951MD1310051+9999ME1315709REMSYN070AAXX  13034 17203 42970 01603 10135 20010 38895 48570 53005 333 10180;
0241172030999992000061306004+38870+040500FM-12+117799999V0209999C000012200019N0200001N1+02101+00591999999ADDAA199000091GA1001+999999999GF100991001001999999001001IA1019IA2999+01009KA1120N+01281MA1999999089001MD1110051+9999ME1315779REMSYN088AAXX  13064 17203 32970 00000 10210 20059 38900 48577 51005 333 20128 30010 51004 55112;EQDQ01  00002PRCP99
0162172030999992000061309004+38870+040500FM-12+117799999V0202701N003612200019N0200001N1+02581+00781999999ADDGA1001+999999999GF100991001001999999001001MA1999999088841MD1710161+9999ME1315629REMSYN070AAXX  13094 17203 42970 02707 10258 20078 38884 48562 57016 333 10158;
0182172030999992000061312004+38870+040500FM-12+117799999V0203101N004112200019N0200001N1+02851+00801999999ADDAA199000091GF101991011011012501001001MA1999999088761MD1510081+9999ME1315559REMSYN076AAXX  13124 17203 32670 13108 10285 20080 38876 48555 55008 81100 333 10144;EQDQ01  00002PRCP99
0162172030999992000061315004+38870+040500FM-12+117799999V0202601N004112200019N0200001N1+02701+00681999999ADDGA1001+999999999GF100991001001999999001001MA1999999088681MD1710081+9999ME1315459REMSYN070AAXX  13154 17203 42970 02608 10270 20068 38868 48545 57008 333 10145;
0221172030999992000061318004+38870+040500FM-12+117799999V0201801N002612200019N0200001N1+02301+00671999999ADDAA199000091GA1001+999999999GF100991001001999999001001KA1999M+99999MA1999999088671MD1610011+9999ME1315469REMSYN070AAXX  13184 17203 32970 01805 10230 20067 38867 48546 56001 333 10134;EQDQ01  00002PRCP99Q02 +01342ATMX  
0162172030999992000061321004+38860+040500FM-12+117799999V0201501N002612200019N0200001N1+02001+00411999999ADDGA1001+999999999GF100991001001999999001001MA1999999088801MD1210131+9999ME1315609REMSYN070AAXX  13214 17203 42970 01505 10200 20041 38880 48560 52013 333 10144;
0192172030999992000061400004+38860+040500FM-12+117799999V0201501N002112200019N0200001N1+01771+00191999999ADDAA199000091GA1001+999999999GF100991001001999999001001MA1999999088801MD1410001+9999ME1315609REMSYN070AAXX  14004 17203 32970 01504 10177 20019 38880 48560 54000 333 10144;EQDQ01  00002PRCP99
0162172030999992000061403004+38860+040500FM-12+117799999V0201501N002112200019N0200001N1+01701+00191999999ADDGA1001+999999999GF100991001001999999001001MA1999999088781MD1810021+9999ME1315579REMSYN070AAXX  14034 17203 42970 01504 10170 20019 38878 48557 58002 333 10146;
0241172030999992000061406004+38860+040500FM-12+117799999V0201601N002112200019N0200001N1+02201+00641999999ADDAA199000091GA1001+999999999GF100991001001999999001001IA1019IA2999+01309KA1120N+01601MA1999999088781MD1410001+9999ME1315579REMSYN088AAXX  14064 17203 32970 01604 10220 20064 38878 48557 54000 333 20160 30013 50954 55111;EQDQ01  00002PRCP99
0162172030999992000061409004+38860+040500FM-12+117799999V0201901N002612200019N0200001N1+02601+00811999999ADDGA1001+999999999GF100991001001999999001001MA1999999088601MD1710181+9999ME1315419REMSYN070AAXX  14094 17203 42970 01905 10260 20081 38860 48541 57018 333 10121;
0182172030999992000061412004+38860+040500FM-12+117799999V0201801N002112200019N0200001N1+02851+01031999999ADDAA199000091GF101991011011012501001001MA1999999088401MD1710201+9999ME1315229REMSYN076AAXX  14124 17203 32670 11804 10285 20103 38840 48522 57020 81100 333 10098;EQDQ01  00002PRCP99
0152172030999992000061415004+38860+040500FM-12+117799999V0201801N003612200019N0200001N1+02421+00831999999ADDGF101991011011012501001001MA1999999088361MD1610041+9999ME1315149REMSYN076AAXX  14154 17203 42670 11807 10242 20083 38836 48514 56004 81100 333 10103;
0221172030999992000061418004+38860+040500FM-12+117799999V0201801N002612200019N0200001N1+02001+00641999999ADDAA199000091GA1001+999999999GF100991001001999999001001KA1999M+99999MA1999999088441MD1310081+9999ME1315239REMSYN070AAXX  14184 17203 32970 01805 10200 20064 38844 48523 53008 333 10112;EQDQ01  00002PRCP99Q02 +01122ATMX  
0162172030999992000061421004+38860+040500FM-12+117799999V0201601N003612200019N0200001N1+01681+00541999999ADDGA1001+999999999GF100991001001999999001001MA1999999088521MD1210081+9999ME1315319REMSYN070AAXX  14214 17203 42970 01607 10168 20054 38852 48531 52008 333 10121;
0192172030999992000061500004+38860+040500FM-12+117799999V0201601N002112200019N0200001N1+01461+00521999999ADDAA199000091GA1001+999999999GF100991001001999999001001MA1999999088581MD1110061+9999ME1315379REMSYN070AAXX  15004 17203 32970 01604 10146 20052 38858 48537 51006 333 10124;EQDQ01  00002PRCP99
0162172030999992000061503004+38860+040500FM-12+117799999V0201801N001512200019N0200001N1+01461+00521999999ADDGA1001+999999999GF100991001001999999001001MA1999999088541MD1610041+9999ME1315309REMSYN070AAXX  15034 17203 42970 01803 10146 20052 38854 48530 56004 333 10133;
0241172030999992000061506004+38860+040500FM-12+117799999V0202501N002612200019N0200001N1+02101+00731999999ADDAA199000091GA1001+999999999GF100991001001999999001001IA1019IA2999+01209KA1120N+01401MA1999999088581MD1010041+9999ME1315359REMSYN088AAXX  15064 17203 32970 02505 10210 20073 38858 48535 50004 333 20140 30012 50894 55111;EQDQ01  00002PRCP99
0162172030999992000061509004+38860+040500FM-12+117799999V0203401N003612200019N0200001N1+02501+00941999999ADDGA1001+999999999GF100991001001999999001001MA1999999088481MD1710101+9999ME1315269REMSYN070AAXX  15094 17203 42970 03407 10250 20094 38848 48526 57010 333 10117;
0192172030999992000061512004+38860+040500FM-12+117799999V0202501N004112200019N0200001N1+02751+01061999999ADDAA199000091GA1001+999999999GF100991001001999999001001MA1999999088301MD1710181+9999ME1315099REMSYN070AAXX  15124 17203 32970 02508 10275 20106 38830 48509 57018 333 10096;EQDQ01  00002PRCP99
0162172030999992000061515004+38860+040500FM-12+117799999V0203301N003112200019N0200001N1+02661+00881999999ADDGA1001+999999999GF100991001001999999001001MA1999999088221MD1710081+9999ME1315009REMSYN070AAXX  15154 17203 42970 03306 10266 20088 38822 48500 57008 333 10087;
0221172030999992000061518004+38860+040500FM-12+117799999V0209999C000012200019N0200001N1+02081+00521999999ADDAA199000091GA1001+999999999GF100991001001999999001001KA1999M+99999MA1999999088281MD1310061+9999ME1315079REMSYN070AAXX  15184 17203 32970 00000 10208 20052 38828 48507 53006 333 10094;EQDQ01  00002PRCP99Q02 +00942ATMX  
0162172030999992000061521004+38860+040500FM-12+117799999V0201601N001512200019N0200001N1+01901+00491999999ADDGA1001+999999999GF100991001001999999001001MA1999999088411MD1210131+9999ME1315219REMSYN070AAXX  15214 17203 42970 01603 10190 20049 38841 48521 52013 333 10104;
0192172030999992000061600004+38860+040500FM-12+117799999V0209999C000012200019N0200001N1+01521+00491999999ADDAA199000091GA1001+999999999GF100991001001999999001001MA1999999088411MD1410001+9999ME1315209REMSYN070AAXX  16004 17203 32970 00000 10152 20049 38841 48520 54000 333 10108;EQDQ01  00002PRCP99
0162172030999992000061603004+38860+040500FM-12+117799999V0201601N001512200019N0200001N1+01601+00551999999ADDGA1001+999999999GF100991001001999999001001MA1999999088431MD1310021+9999ME1315229REMSYN070AAXX  16034 17203 42970 01603 10160 20055 38843 48522 53002 333 10111;
0241172030999992000061606004+38860+040500FM-12+117799999V0209999C000012200019N0200001N1+02361+01041999999ADDAA199000091GA1001+999999999GF100991001001999999001001IA1019IA2999+01309KA1120N+01521MA1999999088501MD1110071+9999ME1315299REMSYN088AAXX  16064 17203 32970 00000 10236 20104 38850 48529 51007 333 20152 30013 50884 55111;EQDQ01  00002PRCP99
0162172030999992000061609004+38860+040500FM-12+117799999V0203601N001512200019N0200001N1+02801+00911999999ADDGA1001+999999999GF100991001001999999001001MA1999999088501MD1410001+9999ME1315329REMSYN070AAXX  16094 17203 42970 03603 10280 20091 38850 48532 54000 333 10105;
0182172030999992000061612004+38860+040500FM-12+117799999V0202501N002112200019N0200001N1+03141+01041999999ADDAA199000091GF102991021011012501001001MA1999999088401MD1610101+9999ME1315129REMSYN076AAXX  16124 17203 32670 22504 10314 20104 38840 48512 56010 82100 333 10098;EQDQ01  00002PRCP99
0152172030999992000061615004+38860+040500FM-12+117799999V0200401N001512200019N0200001N1+02701+00731999999ADDGF103991031011012501001001MA1999999088321MD1710081+9999ME1315119REMSYN076AAXX  16154 17203 42670 30403 10270 20073 38832 48511 57008 83100 333 10094;
0221172030999992000061618004+38860+040500FM-12+117799999V0209999C000012200019N0200001N1+02201+00501999999ADDAA199000091GA1001+999999999GF100991001001999999001001KA1999M+99999MA1999999088401MD1310081+9999ME1315219REMSYN070AAXX  16184 17203 32970 00000 10220 20050 38840 48521 53008 333 10098;EQDQ01  00002PRCP99Q02 +00982ATMX  
0162172030999992000061621004+38860+040500FM-12+117799999V0201601N001512200019N0200001N1+02001+00811999999ADDGA1001+999999999GF100991001001999999001001MA1999999088481MD1310081+9999ME1315309REMSYN070AAXX  16214 17203 42970 01603 10200 20081 38848 48530 53008 333 10103;
0192172030999992000061700004+38860+040500FM-12+117799999V0209999C000012200019N0200001N1+01661+00441999999ADDAA199000091GA1001+999999999GF100991001001999999001001MA1999999088481MD1410001+9999ME1315319REMSYN070AAXX  17004 17203 32970 00000 10166 20044 38848 48531 54000 333 10103;EQDQ01  00002PRCP99
0162172030999992000061703004+38860+040500FM-12+117799999V0201601N001512200019N0200001N1+01561+00711999999ADDGA1001+999999999GF100991001001999999001001MA1999999088501MD1310021+9999ME1315299REMSYN070AAXX  17034 17203 42970 01603 10156 20071 38850 48529 53002 333 10119;
0241172030999992000061706004+38860+040500FM-12+117799999V0209999C000012200019N0200001N1+02361+01161999999ADDAA199000091GA1001+999999999GF100991001001999999001001IA1019IA2999+01209KA1120N+01521MA1999999088581MD1110031+9999ME1315399REMSYN088AAXX  17064 17203 32970 00000 10236 20116 38858 48539 51003 333 20152 30012 50744 55108;EQDQ01  00002PRCP99
0152172030999992000061709004+38860+040500FM-12+117799999V0209999C000012200019N0200001N1+03051+01151999999ADDGF102991021011012501001001MA1999999088521MD1810061+9999ME1315369REMSYN076AAXX  17094 17203 42670 20000 10305 20115 38852 48536 58006 82100 333 10103;
0204172030999992000061712004+38860+040500FM-12+117799999V0200701N002112200019N0200001N1+03261+00911999999ADDAA199000091GA1021+012009089GF104991021011012501001081MA1999999088401MD1710121+9999ME1315239REMSYN082AAXX  17124 17203 32670 40704 10326 20091 38840 48523 57012 82108 333 82840 84270;EQDQ01  00002PRCP99
0152172030999992000061715004+38860+040500FM-12+117799999V0209999C000019999999N0200001N1+03001+00731999999ADDGF106991001001999999001081MA1999999088261MD1710141+9999ME1315079REMSYN076AAXX  17154 17203 42970 60000 10300 20073 38826 48507 57014 80008 333 10082;
0217172030999992000061718004+38860+040500FM-12+117799999V0209999C000012200019N0200001N1+02401+00841999999ADDAA199000091GA1021+030009079GF102991021001999999031001KA1120M+03301MA1999999088221MD1610041+9999ME1315039REMSYN082AAXX  17184 17203 32970 20000 10240 20084 38822 48503 56004 82030 333 10330 82360;EQDQ01  00002PRCP99
0096172030999992000061720004+38860+040500FM-16+117799999V02099999999992200019N0160931N1+99999+99999999999ADDMW1001REMMET059172030Z PGRO 17203073 1802(5 7SM FEW010 SCT250 27/22 A2986;EQDQ01+000000PRSWM2
0174172030999992000061721004+38860+040500FM-12+117799999V0209999C00001036001CN0200001N1+02221+00631999999ADDGA1031+012009089GF105991031011000251051001MA1999999088281MD1110061+9999ME1315139REMSYN082AAXX  17214 17203 42070 50000 10222 20063 38828 48513 51006 83150 333 83840 85360;
0192172030999992000061800004+38860+040500FM-12+117799999V0209999C000012200019N0200001N1+01961+00721999999ADDAA199000091GA1001+999999999GF100991001001999999001001MA1999999088221MD1710061+9999ME1315079REMSYN070AAXX  18004 17203 32970 00000 10196 20072 38822 48507 57006 333 10064;EQDQ01  00002PRCP99
0162172030999992000061803004+38860+040500FM-12+117799999V0209999C000012200019N0200001N1+01781+00611999999ADDGA1001+999999999GF100991001001999999001001MA1999999088201MD1610021+9999ME1315029REMSYN070AAXX  18034 17203 42970 00000 10178 20061 38820 48502 56002 333 10071;
0241172030999992000061806004+38860+040500FM-12+117799999V0209999C000012200019N0200001N1+02501+01111999999ADDAA199000091GA1001+999999999GF100991001001999999001001IA1019IA2999+01409KA1120N+01741MA1999999088201MD1410001+9999ME1315039REMSYN088AAXX  18064 17203 32970 00000 10250 20111 38820 48503 54000 333 20174 30014 50724 55110;EQDQ01  00002PRCP99
0162172030999992000061809004+38860+040500FM-12+117799999V0200401N002612200019N0200001N1+03141+01091999999ADDGA1001+999999999GF100991001001999999001001MA1999999088081MD1710121+9999ME1314939REMSYN070AAXX  18094 17203 42970 00405 10314 20109 38808 48493 57012 333 10043;
0182172030999992000061812004+38860+040500FM-12+117799999V0200301N002112200019N0200001N1+03301+00931999999ADDAA199000091GF103991031011012501001001MA1999999087881MD1710201+9999ME1314739REMSYN076AAXX  18124 17203 32670 30304 10330 20093 38788 48473 57020 83100 333 10025;EQDQ01  00002PRCP99
0152172030999992000061815004+38860+040500FM-12+117799999V0200701N002112200019N0200001N1+03101+00511999999ADDGF103991031011012501001001MA1999999087681MD1710201+9999ME1314519REMSYN076AAXX  18154 17203 42670 30704 10310 20051 38768 48451 57020 83100 333 10011;
0221172030999992000061818004+38860+040500FM-12+117799999V0201301N001512200019N0200001N1+02561+00301999999ADDAA199000091GA1001+999999999GF100991001001999999001001KA1999M+99999MA1999999087641MD1510041+9999ME1314479REMSYN070AAXX  18184 17203 32970 01303 10256 20030 38764 48447 55004 333 10002;EQDQ01  00002PRCP99Q02 +00022ATMX  
0152172030999992000061821004+38860+040500FM-12+117799999V0201401N002612200019N0200001N1+02441+00631999999ADDGF102991021001999999031001MA1999999087781MD1210141+9999ME1314649REMSYN076AAXX  18214 17203 42970 21405 10244 20063 38778 48464 52014 82030 333 10004;
0192172030999992000061900004+38860+040500FM-12+117799999V0201601N006212200019N0200001N1+01801+00851999999ADDAA199000091GA1001+999999999GF100991001001999999001001MA1999999087941MD1210161+9999ME1314789REMSYN070AAXX  19004 17203 32970 01612 10180 20085 38794 48478 52016 333 10032;EQDQ01  00002PRCP99
0162172030999992000061903004+38860+040500FM-12+117799999V0201601N003612200019N0200001N1+01701+00761999999ADDGA1001+999999999GF100991001001999999001001MA1999999087951MD1110011+9999ME1314779REMSYN070AAXX  19034 17203 42970 01607 10170 20076 38795 48477 51001 333 10042;
0241172030999992000061906004+38860+040500FM-12+117799999V0201601N002112200019N0200001N1+02141+01231999999ADDAA199000091GA1001+999999999GF100991001001999999001001IA1019IA2999+01309KA1120N+01681MA1999999088011MD1310061+9999ME1314839REMSYN088AAXX  19064 17203 32970 01604 10214 20123 38801 48483 53006 333 20168 30013 50824 55112;EQDQ01  00002PRCP99
0152172030999992000061909004+38860+040500FM-12+117799999V0201601N002112200019N0200001N1+02621+01191999999ADDGF101991011011012501001001MA1999999087941MD1810071+9999ME1314789REMSYN076AAXX  19094 17203 42670 11604 10262 20119 38794 48478 58007 81100 333 10036;
0162172030999992000061915004+38860+040500FM-12+117799999V0201201N001512200019N0200001N1+02651+01011999999ADDGA1001+999999999GF100991001001999999001001MA1999999087781MD1610061+9999ME1314589REMSYN070AAXX  19154 17203 42970 01203 10265 20101 38778 48458 56006 333 10032;
0221172030999992000061918004+38860+040500FM-12+117799999V0201601N002112200019N0200001N1+02201+00651999999ADDAA199000091GA1001+999999999GF100991001001999999001001KA1999M+99999MA1999999087861MD1310081+9999ME1314669REMSYN070AAXX  19184 17203 32970 01604 10220 20065 38786 48466 53008 333 10041;EQDQ01  00002PRCP99Q02 +00412ATMX  
0162172030999992000061921004+38860+040500FM-12+117799999V0209999C000012200019N0200001N1+01881+00521999999ADDGA1001+999999999GF100991001001999999001001MA1999999088001MD1110141+9999ME1314819REMSYN070AAXX  19214 17203 42970 00000 10188 20052 38800 48481 51014 333 10057;
0192172030999992000062000004+38860+040500FM-12+117799999V0201601N002112200019N0200001N1+01701+00641999999ADDAA199000091GA1001+999999999GF100991001001999999001001MA1999999088001MD1410001+9999ME1314819REMSYN070AAXX  20004 17203 32970 01604 10170 20064 38800 48481 54000 333 10053;EQDQ01  00002PRCP99
0162172030999992000062003004+38860+040500FM-12+117799999V0201501N001512200019N0200001N1+01601+00571999999ADDGA1001+999999999GF100991001001999999001001MA1999999088121MD1210121+9999ME1314919REMSYN070AAXX  20034 17203 42970 01503 10160 20057 38812 48491 52012 333 10076;
0241172030999992000062006004+38860+040500FM-12+117799999V0201601N001512200019N0200001N1+01901+00721999999ADDAA199000091GA1001+999999999GF100991001001999999001001IA1019IA2999+01009KA1120N+01401MA1999999088301MD1210181+9999ME1315089REMSYN088AAXX  20064 17203 32970 01603 10190 20072 38830 48508 52018 333 20140 30010 50744 55113;EQDQ01  00002PRCP99
0152172030999992000062009004+38860+040500FM-12+117799999V0209999C000012200019N0200001N1+02201+00761999999ADDGF102991021011012501001001MA1999999088381MD1110081+9999ME1315169REMSYN076AAXX  20094 17203 42670 20000 10220 20076 38838 48516 51008 82100 333 10110;
0192172030999992000062012004+38860+040500FM-12+117799999V0202201N002112200019N0200001N1+02461+00931999999ADDAA199000091GA1001+999999999GF100991001001999999001001MA1999999088381MD1410001+9999ME1315179REMSYN070AAXX  20124 17203 32970 02204 10246 20093 38838 48517 54000 333 10105;EQDQ01  00002PRCP99
0162172030999992000062015004+38860+040500FM-12+117799999V0201801N001512200019N0200001N1+02321+00771999999ADDGA1001+999999999GF100991001001999999001001MA1999999088301MD1710081+9999ME1315079REMSYN070AAXX  20154 17203 42970 01803 10232 20077 38830 48507 57008 333 10101;
0221172030999992000062018004+38860+040500FM-12+117799999V0201601N001512200019N0200001N1+01901+00521999999ADDAA199000091GA1001+999999999GF100991001001999999001001KA1999M+99999MA1999999088381MD1310081+9999ME1315159REMSYN070AAXX  20184 17203 32970 01603 10190 20052 38838 48515 53008 333 10115;EQDQ01  00002PRCP99Q02 +01152ATMX  
0162172030999992000062021004+38860+040500FM-12+117799999V0201501N002112200019N0200001N1+01541+00061999999ADDGA1001+999999999GF100991001001999999001001MA1999999088521MD1210141+9999ME1315279REMSYN070AAXX  20214 17203 42970 01504 10154 20006 38852 48527 52014 333 10131;
0162172030999992000062103004+38860+040500FM-12+117799999V0201501N001512200019N0200001N1+01221+00181999999ADDGA1001+999999999GF100991001001999999001001MA1999999088601MD1110021+9999ME1315349REMSYN070AAXX  21034 17203 42970 01503 10122 20018 38860 48534 51002 333 10145;
0241172030999992000062106004+38860+040500FM-12+117799999V0201601N001512200019N0200001N1+01901+00851999999ADDAA199000091GA1001+999999999GF100991001001999999001001IA1019IA2999+01009KA1120N+01181MA1999999088621MD1010021+9999ME1315389REMSYN088AAXX  21064 17203 32970 01603 10190 20085 38862 48538 50002 333 20118 30010 50724 55111;EQDQ01  00002PRCP99
0162172030999992000062109004+38860+040500FM-12+117799999V0202501N001512200019N0200001N1+02361+00741999999ADDGA1001+999999999GF100991001001999999001001MA1999999088531MD1710091+9999ME1315299REMSYN070AAXX  21094 17203 42970 02503 10236 20074 38853 48529 57009 333 10127;
0177172030999992000062112004+38860+040500FM-12+117799999V0209999C000012200019N0200001N1+02701+00681999999ADDAA199000091GA1001+999999999GF100991001001999999001001MA1999999088481ME1315279REMSYN069AAXX  21124 17203 32970 00000 10270 20068 38848 48527 5005 333 10117;EQDQ01  00002PRCP99
0162172030999992000062115004+38860+040500FM-12+117799999V0200701N001512200019N0200001N1+02551+00471999999ADDGA1001+999999999GF100991001001999999001001MA1999999088401MD1710081+9999ME1315169REMSYN070AAXX  21154 17203 42970 00703 10255 20047 38840 48516 57008 333 10117;
0221172030999992000062118004+38860+040500FM-12+117799999V0201501N002112200019N0200001N1+02001+00291999999ADDAA199000091GA1001+999999999GF100991001001999999001001KA1999M+99999MA1999999088501MD1310101+9999ME1315279REMSYN070AAXX  21184 17203 32970 01504 10200 20029 38850 48527 53010 333 10124;EQDQ01  00002PRCP99Q02 +01242ATMX  
0162172030999992000062121004+38860+040500FM-12+117799999V0209999C000012200019N0200001N1+01601-00021999999ADDGA1001+999999999GF100991001001999999001001MA1999999088601MD1110101+9999ME1315379REMSYN070AAXX  21214 17203 42970 00000 10160 21002 38860 48537 51010 333 10135;
0192172030999992000062200004+38860+040500FM-12+117799999V0209999C000012200019N0200001N1+01281-00121999999ADDAA199000091GA1001+999999999GF100991001001999999001001MA1999999088601MD1410001+9999ME1315389REMSYN070AAXX  22004 17203 32970 00000 10128 21012 38860 48538 54000 333 10135;EQDQ01  00002PRCP99
0162172030999992000062203004+38860+040500FM-12+117799999V0209999C000012200019N0200001N1+01101-00071999999ADDGA1001+999999999GF100991001001999999001001MA1999999088651MD1310051+9999ME1315409REMSYN070AAXX  22034 17203 42970 00000 10110 21007 38865 48540 53005 333 10151;
0241172030999992000062206004+38860+040500FM-12+117799999V0209999C000012200019N0200001N1+02001+00491999999ADDAA199000091GA1001+999999999GF100991001001999999001001IA1019IA2999+00609KA1120N+01051MA1999999088701MD1110051+9999ME1315469REMSYN088AAXX  22064 17203 32970 00000 10200 20049 38870 48546 51005 333 20105 30006 50654 55114;EQDQ01  00002PRCP99
0162172030999992000062209004+38860+040500FM-12+117799999V0209999C000012200019N0200001N1+02701+00981999999ADDGA1001+999999999GF100991001001999999001001MA1999999088601MD1810101+9999ME1315399REMSYN070AAXX  22094 17203 42970 00000 10270 20098 38860 48539 58010 333 10126;
0192172030999992000062212004+38860+040500FM-12+117799999V0201601N001012200019N0200001N1+02901+00711999999ADDAA199000091GA1001+999999999GF100991001001999999001001MA1999999088501MD1710101+9999ME1315289REMSYN070AAXX  22124 17203 32970 01602 10290 20071 38850 48528 57010 333 10119;EQDQ01  00002PRCP99
0162172030999992000062215004+38860+040500FM-12+117799999V0209999C000012200019N0200001N1+02701+00311999999ADDGA1001+999999999GF100991001001999999001001MA1999999088401MD1610101+9999ME1315169REMSYN070AAXX  22154 17203 42970 00000 10270 20031 38840 48516 56010 333 10117;
0221172030999992000062218004+38860+040500FM-12+117799999V0201601N004612200019N0200001N1+02261+00731999999ADDAA199000091GA1001+999999999GF100991001001999999001001KA1999M+99999MA1999999088381MD1810021+9999ME1315169REMSYN070AAXX  22184 17203 32970 01609 10226 20073 38838 48516 58002 333 10105;EQDQ01  00002PRCP99Q02 +01052ATMX  
0162172030999992000062221004+38860+040500FM-12+117799999V0201601N003112200019N0200001N1+02051+00731999999ADDGA1001+999999999GF100991001001999999001001MA1999999088481MD1210101+9999ME1315309REMSYN070AAXX  22214 17203 42970 01606 10205 20073 38848 48530 52010 333 10103;
0192172030999992000062300004+38860+040500FM-12+117799999V0201601N001512200019N0200001N1+01881+00611999999ADDAA199000091GA1001+999999999GF100991001001999999001001MA1999999088501MD1110021+9999ME1315239REMSYN070AAXX  23004 17203 32970 01603 10188 20061 38850 48523 51002 333 10105;EQDQ01  00002PRCP99
0162172030999992000062303004+38860+040500FM-12+117799999V0201601N003112200019N0200001N1+01721+00431999999ADDGA1001+999999999GF100991001001999999001001MA1999999088481MD1610021+9999ME1315289REMSYN070AAXX  23034 17203 42970 01606 10172 20043 38848 48528 56002 333 10112;
0241172030999992000062306004+38860+040500FM-12+117799999V0201701N002612200019N0200001N1+02421+00911999999ADDAA199000091GA1001+999999999GF100991001001999999001001IA1019IA2999+00809KA1120N+01181MA1999999088451MD1810031+9999ME1315269REMSYN088AAXX  23064 17203 32970 01705 10242 20091 38845 48526 58003 333 20118 30008 50824 55110;EQDQ01  00002PRCP99
0162172030999992000062309004+38860+040500FM-12+117799999V0201501N002112200019N0200001N1+02801+00961999999ADDGA1001+999999999GF100991001001999999001001MA1999999088301MD1710151+9999ME1315139REMSYN070AAXX  23094 17203 42970 01504 10280 20096 38830 48513 57015 333 10082;
0192172030999992000062312004+38860+040500FM-12+117799999V0201601N002112200019N0200001N1+02921+00941999999ADDAA199000091GA1001+999999999GF100991001001999999001001MA1999999088141MD1710161+9999ME1314969REMSYN070AAXX  23124 17203 32970 01604 10292 20094 38814 48496 57016 333 10064;EQDQ01  00002PRCP99
0162172030999992000062315004+38860+040500FM-12+117799999V0202501N001512200019N0200001N1+02601+00311999999ADDGA1001+999999999GF100991001001999999001001MA1999999088041MD1710101+9999ME1314849REMSYN070AAXX  23154 17203 42970 02503 10260 20031 38804 48484 57010 333 10062;
0221172030999992000062318004+38860+040500FM-12+117799999V0201601N002612200019N0200001N1+02301+00601999999ADDAA199000091GA1001+999999999GF100991001001999999001001KA1999M+99999MA1999999088041MD1410001+9999ME1314859REMSYN070AAXX  23184 17203 32970 01605 10230 20060 38804 48485 54000 333 10052;EQDQ01  00002PRCP99Q02 +00522ATMX  
0162172030999992000062321004+38860+040500FM-12+117799999V0201501N002112200019N0200001N1+01921+00621999999ADDGA1001+999999999GF100991001001999999001001MA1999999088301MD1210261+9999ME1315129REMSYN070AAXX  23214 17203 42970 01504 10192 20062 38830 48512 52026 333 10082;
0192172030999992000062400004+38860+040500FM-12+117799999V0201601N002612200019N0200001N1+01741+00511999999ADDAA199000091GA1001+999999999GF100991001001999999001001MA1999999088301MD1410001+9999ME1315129REMSYN070AAXX  24004 17203 32970 01605 10174 20051 38830 48512 54000 333 10092;EQDQ01  00002PRCP99
0162172030999992000062403004+38860+040500FM-12+117799999V0201601N001512200019N0200001N1+01701+00541999999ADDGA1001+999999999GF100991001001999999001001MA1999999088301MD1410001+9999ME1315099REMSYN070AAXX  24034 17203 42970 01603 10170 20054 38830 48509 54000 333 10092;
0241172030999992000062406004+38860+040500FM-12+117799999V0201601N002112200019N0200001N1+02301+00901999999ADDAA199000091GA1001+999999999GF100991001001999999001001IA1019IA2999+01309KA1120N+01621MA1999999088301MD1410001+9999ME1315119REMSYN088AAXX  24064 17203 32970 01604 10230 20090 38830 48511 54000 333 20162 30013 50814 55111;EQDQ01  00002PRCP99
0162172030999992000062409004+38860+040500FM-12+117799999V0202701N003112200019N0200001N1+02601+00931999999ADDGA1001+999999999GF100991001001999999001001MA1999999088201MD1710101+9999ME1315019REMSYN070AAXX  24094 17203 42970 02706 10260 20093 38820 48501 57010 333 10075;
0193172030999992000062412004+38860+040500FM-12+117799999V0202501N003112200019N0200001N1+02801+00961999999ADDAA199000091GA1001+999999999GF100991001001999999001001MD1710041+9999ME1314979REMSYN070AAXX  24124 17203 32970 02506 10280 20096 38897 48497 57004 333 10071;EQDQ01+088973APOSP Q02  00002PRCP99
0162172030999992000062415004+38860+040500FM-12+117799999V0201801N002112200019N0200001N1+02601+00631999999ADDGA1001+999999999GF100991001001999999001001MA1999999088101MD1610061+9999ME1314909REMSYN070AAXX  24154 17203 42970 01804 10260 20063 38810 48490 56006 333 10069;
0221172030999992000062418004+38860+040500FM-12+117799999V0201601N002612200019N0200001N1+02161+00391999999ADDAA199000091GA1001+999999999GF100991001001999999001001KA1999M+99999MA1999999088181MD1310081+9999ME1314999REMSYN070AAXX  24184 17203 32970 01605 10216 20039 38818 48499 53008 333 10078;EQDQ01  00002PRCP99Q02 +00782ATMX  
0162172030999992000062421004+38860+040500FM-12+117799999V0201601N002112200019N0200001N1+02001+00391999999ADDGA1001+999999999GF100991001001999999001001MA1999999088241MD1210061+9999ME1315059REMSYN070AAXX  24214 17203 42970 01604 10200 20039 38824 48505 52006 333 10080;
0192172030999992000062500004+38860+040500FM-12+117799999V0201701N001512200019N0200001N1+01501-00061999999ADDAA199000091GA1001+999999999GF100991001001999999001001MA1999999088201MD1610041+9999ME1315009REMSYN070AAXX  25004 17203 32970 01703 10150 21006 38820 48500 56004 333 10080;EQDQ01  00002PRCP99
0162172030999992000062503004+38860+040500FM-12+117799999V0201601N002112200019N0200001N1+01441+00021999999ADDGA1001+999999999GF100991001001999999001001MA1999999088201MD1410001+9999ME1314989REMSYN070AAXX  25034 17203 42970 01604 10144 20002 38820 48498 54000 333 10090;
0241172030999992000062506004+38860+040500FM-12+117799999V0209999C000012200019N0200001N1+02301+00901999999ADDAA199000091GA1001+999999999GF100991001001999999001001IA1019IA2999+01009KA1120N+01421MA1999999088201MD1410001+9999ME1315019REMSYN088AAXX  25064 17203 32970 00000 10230 20090 38820 48501 54000 333 20142 30010 50844 55111;EQDQ01  00002PRCP99
0162172030999992000062509004+38860+040500FM-12+117799999V0201601N001512200019N0200001N1+02841+00951999999ADDGA1001+999999999GF100991001001999999001001MA1999999088061MD1810141+9999ME1314899REMSYN070AAXX  25094 17203 42970 01603 10284 20095 38806 48489 58014 333 10055;
0192172030999992000062512004+38860+040500FM-12+117799999V0209999C000012200019N0200001N1+03021+00951999999ADDAA199000091GA1001+999999999GF100991001001999999001001MA1999999087931MD1710131+9999ME1314749REMSYN070AAXX  25124 17203 32970 00000 10302 20095 38793 48474 57013 333 10045;EQDQ01  00002PRCP99
0162172030999992000062515004+38860+040500FM-12+117799999V0209999C000012200019N0200001N1+02881+00581999999ADDGA1001+999999999GF100991001001999999001001MA1999999087861MD1610071+9999ME1314669REMSYN070AAXX  25154 17203 42970 00000 10288 20058 38786 48466 56007 333 10041;
0221172030999992000062518004+38860+040500FM-12+117799999V0201601N003112200019N0200001N1+02441+00421999999ADDAA199000091GA1001+999999999GF100991001001999999001001KA1999M+99999MA1999999087871MD1310011+9999ME1314699REMSYN070AAXX  25184 17203 32970 01606 10244 20042 38787 48469 53001 333 10033;EQDQ01  00002PRCP99Q02 +00332ATMX  
0162172030999992000062521004+38860+040500FM-12+117799999V0201601N004112200019N0200001N1+02201+00551999999ADDGA1001+999999999GF100991001001999999001001MA1999999088001MD1110131+9999ME1314689REMSYN070AAXX  25214 17203 42970 01608 10220 20055 38800 48468 51013 333 10043;
0192172030999992000062600004+38860+040500FM-12+117799999V0201601N002112200019N0200001N1+01921+00481999999ADDAA199000091GA1001+999999999GF100991001001999999001001MA1999999088001MD1410001+9999ME1314839REMSYN070AAXX  26004 17203 32970 01604 10192 20048 38800 48483 54000 333 10043;EQDQ01  00002PRCP99
0162172030999992000062603004+38860+040500FM-12+117799999V0201501N002612200019N0200001N1+01781+00421999999ADDGA1001+999999999GF100991001001999999001001MA1999999088021MD1310021+9999ME1314849REMSYN070AAXX  26034 17203 42970 01505 10178 20042 38802 48484 53002 333 10055;
0241172030999992000062606004+38860+040500FM-12+117799999V0201601N001512200019N0200001N1+02501+00851999999ADDAA199000091GA1001+999999999GF100991001001999999001001IA1019IA2999+01309KA1120N+01761MA1999999088081MD1210061+9999ME1314819REMSYN088AAXX  26064 17203 32970 01603 10250 20085 38808 48481 52006 333 20176 30013 50794 55111;EQDQ01  00002PRCP99
0162172030999992000062609004+38860+040500FM-12+117799999V0201601N001512200019N0200001N1+02901+01041999999ADDGA1001+999999999GF100991001001999999001001MA1999999088081MD1410001+9999ME1314929REMSYN070AAXX  26094 17203 42970 01603 10290 20104 38808 48492 54000 333 10048;
0192172030999992000062612004+38860+040500FM-12+117799999V0203601N001512200019N0200001N1+03121+00971999999ADDAA199000091GA1001+999999999GF100991001001999999001001MA1999999087871MD1710211+9999ME1314719REMSYN070AAXX  26124 17203 32970 03603 10312 20097 38787 48471 57021 333 10028;EQDQ01  00002PRCP99
0162172030999992000062615004+38860+040500FM-12+117799999V0209999C000012200019N0200001N1+02841+00771999999ADDGA1001+999999999GF100991001001999999001001MA1999999087841MD1610031+9999ME1314659REMSYN070AAXX  26154 17203 42970 00000 10284 20077 38784 48465 56003 333 10034;
0221172030999992000062618004+38860+040500FM-12+117799999V0201501N003112200019N0200001N1+02341+00671999999ADDAA199000091GA1001+999999999GF100991001001999999001001KA1999M+99999MA1999999087901MD1310061+9999ME1314739REMSYN070AAXX  26184 17203 32970 01506 10234 20067 38790 48473 53006 333 10036;EQDQ01  00002PRCP99Q02 +00362ATMX  
0162172030999992000062621004+38860+040500FM-12+117799999V0201601N003112200019N0200001N1+02181+00621999999ADDGA1001+999999999GF100991001001999999001001MA1999999088021MD1210121+9999ME1314869REMSYN070AAXX  26214 17203 42970 01606 10218 20062 38802 48486 52012 333 10045;
0192172030999992000062700004+38860+040500FM-12+117799999V0201601N002112200019N0200001N1+01901+00501999999ADDAA199000091GA1001+999999999GF100991001001999999001001MA1999999088051MD1110031+9999ME1314899REMSYN070AAXX  27004 17203 32970 01604 10190 20050 38805 48489 51003 333 10049;EQDQ01  00002PRCP99
0162172030999992000062703004+38860+040500FM-12+117799999V0201601N002612200019N0200001N1+01761+00581999999ADDGA1001+999999999GF100991001001999999001001MA1999999088051MD1410001+9999ME1314869REMSYN070AAXX  27034 17203 42970 01605 10176 20058 38805 48486 54000 333 10058;
0241172030999992000062706004+38860+040500FM-12+117799999V0203001N001512200019N0200001N1+02521+00971999999ADDAA199000091GA1001+999999999GF100991001001999999001001IA1019IA2999+01309KA1120N+01681MA1999999088071MD1010021+9999ME1314909REMSYN088AAXX  27064 17203 32970 03003 10252 20097 38807 48490 50002 333 20168 30013 50954 55111;EQDQ01  00002PRCP99
0162172030999992000062709004+38860+040500FM-12+117799999V0209999C000012200019N0200001N1+03001+01141999999ADDGA1001+999999999GF100991001001999999001001MA1999999087901MD1810171+9999ME1315699REMSYN070AAXX  27094 17203 42970 00000 10300 20114 38790 48569 58017 333 10032;
0192172030999992000062712004+38860+040500FM-12+117799999V0209999C000012200019N0200001N1+03201+01011999999ADDAA199000091GA1001+999999999GF100991001001999999001001MA1999999087861MD1810061+9999ME1314709REMSYN070AAXX  27124 17203 32970 00000 10320 20101 38786 48470 58006 333 10023;EQDQ01  00002PRCP99
0162172030999992000062715004+38860+040500FM-12+117799999V0209999C000012200019N0200001N1+03001+00881999999ADDGA1001+999999999GF100991001001999999001001MA1999999087761MD1710061+9999ME1314589REMSYN070AAXX  27154 17203 42970 00000 10300 20088 38776 48458 57006 333 10020;
0221172030999992000062718004+38860+040500FM-12+117799999V0209999C000012200019N0200001N1+02401+00591999999ADDAA199000091GA1001+999999999GF100991001001999999001001KA1999M+99999MA1999999087801MD1310041+9999ME1314639REMSYN070AAXX  27184 17203 32970 00000 10240 20059 38780 48463 53004 333 10020;EQDQ01  00002PRCP99Q02 +00202ATMX  
0162172030999992000062721004+38860+040500FM-12+117799999V0209999C000012200019N0200001N1+02001+00421999999ADDGA1001+999999999GF100991001001999999001001MA1999999087801MD1410001+9999ME1314639REMSYN070AAXX  27214 17203 42970 00000 10200 20042 38780 48463 54000 333 10020;
0192172030999992000062800004+38860+040500FM-12+117799999V0209999C000012200019N0200001N1+01801+00551999999ADDAA199000091GA1001+999999999GF100991001001999999001001MA1999999087901MD1210101+9999ME1314739REMSYN070AAXX  28004 17203 32970 00000 10180 20055 38790 48473 52010 333 10032;EQDQ01  00002PRCP99
0162172030999992000062803004+38860+040500FM-12+117799999V0209999C000012200019N0200001N1+01621+00601999999ADDGA1001+999999999GF100991001001999999001001MA1999999087901MD1410001+9999ME1314719REMSYN070AAXX  28034 17203 42970 00000 10162 20060 38790 48471 54000 333 10041;
0241172030999992000062806004+38860+040500FM-12+117799999V0209999C000012200019N0200001N1+02401+01061999999ADDAA199000091GA1001+999999999GF100991001001999999001001IA1019IA2999+01309KA1120N+01601MA1999999088001MD1310101+9999ME1314829REMSYN088AAXX  28064 17203 32970 00000 10240 20106 38800 48482 53010 333 20160 30013 50814 55112;EQDQ01  00002PRCP99
0152172030999992000062809004+38860+040500FM-12+117799999V0209999C000012200019N0200001N1+03101+01121999999ADDGF101991011011012501001001MA1999999087981MD1810021+9999ME1314829REMSYN076AAXX  28094 17203 42670 10000 10310 20112 38798 48482 58002 81100 333 10036;
0182172030999992000062812004+38860+040500FM-12+117799999V0200401N001512200019N0200001N1+03301+01031999999ADDAA199000091GF102991021011012501001001MA1999999087921MD1810061+9999ME1314769REMSYN076AAXX  28124 17203 32670 20403 10330 20103 38792 48476 58006 82100 333 10029;EQDQ01  00002PRCP99
0152172030999992000062815004+38860+040500FM-12+117799999V0209999C000012200019N0200001N1+03081+00911999999ADDGF102991021011012501001001MA1999999087901MD1610021+9999ME1314729REMSYN076AAXX  28154 17203 42670 20000 10308 20091 38790 48472 56002 82100 333 10036;
0177172030999992000062818004+38860+040500FM-12+117799999V0201501N002112200019N0200001N1+02501+00861999999ADDAA199000091GA1001+999999999GF100991001001999999001001MA1999999087921ME1314759REMSYN069AAXX  28184 17203 32970 01504 10250 20086 38792 48475 5002 333 10039;EQDQ01  00002PRCP99
0162172030999992000062821004+38860+040500FM-12+117799999V0209999C000012200019N0200001N1+02021+00571999999ADDGA1001+999999999GF100991001001999999001001MA1999999088071MD1210151+9999ME1314919REMSYN070AAXX  28214 17203 42970 00000 10202 20057 38807 48491 52015 333 10047;
0192172030999992000062900004+38860+040500FM-12+117799999V0209999C000012200019N0200001N1+01931+00521999999ADDAA199000091GA1001+999999999GF100991001001999999001001MA1999999088101MD1110031+9999ME1314959REMSYN070AAXX  29004 17203 32970 00000 10193 20052 38810 48495 51003 333 10050;EQDQ01  00002PRCP99
0162172030999992000062903004+38860+040500FM-12+117799999V0209999C000012200019N0200001N1+01751+00591999999ADDGA1001+999999999GF100991001001999999001001MA1999999088101MD1410001+9999ME1314939REMSYN070AAXX  29034 17203 42970 00000 10175 20059 38810 48493 54000 333 10059;
0241172030999992000062906004+38860+040500FM-12+117799999V0209999C000012200019N0200001N1+02521+01251999999ADDAA199000091GA1001+999999999GF100991001001999999001001IA1019IA2999+01409KA1120N+01721MA1999999088221MD1210121+9999ME1315069REMSYN088AAXX  29064 17203 32970 00000 10252 20125 38822 48506 52012 333 20172 30014 50794 55111;EQDQ01  00002PRCP99
0162172030999992000062909004+38860+040500FM-12+117799999V0209999C000012200019N0200001N1+03261+01271999999ADDGA1001+999999999GF100991001001999999001001MA1999999088201MD1610021+9999ME1315059REMSYN070AAXX  29094 17203 42970 00000 10326 20127 38820 48505 56002 333 10061;
0192172030999992000062912004+38860+040500FM-12+117799999V0200901N001512200019N0200001N1+03451+01051999999ADDAA199000091GA1001+999999999GF100991001001999999001001MA1999999088141MD1610061+9999ME1315009REMSYN070AAXX  29124 17203 32970 00903 10345 20105 38814 48500 56006 333 10050;EQDQ01  00002PRCP99
0162172030999992000062915004+38860+040500FM-12+117799999V0200901N001512200019N0200001N1+03121+00881999999ADDGA1001+999999999GF100991001001999999001001MA1999999088041MD1710101+9999ME1314879REMSYN070AAXX  29154 17203 42970 00903 10312 20088 38804 48487 57010 333 10052;
0221172030999992000062918004+38860+040500FM-12+117799999V0209999C000012200019N0200001N1+02531+00591999999ADDAA199000091GA1001+999999999GF100991001001999999001001KA1999M+99999MA1999999088041MD1410001+9999ME1314889REMSYN070AAXX  29184 17203 32970 00000 10253 20059 38804 48488 54000 333 10048;EQDQ01  00002PRCP99Q02 +00482ATMX  
0162172030999992000062921004+38860+040500FM-12+117799999V0209999C000012200019N0200001N1+02201+00651999999ADDGA1001+999999999GF100991001001999999001001MA1999999088201MD1110161+9999ME1315069REMSYN070AAXX  29214 17203 42970 00000 10220 20065 38820 48506 51016 333 10052;
0192172030999992000063000004+38860+040500FM-12+117799999V0209999C000012200019N0200001N1+01901+00571999999ADDAA199000091GA1001+999999999GF100991001001999999001001MA1999999088251MD1310051+9999ME1315119REMSYN070AAXX  30004 17203 32970 00000 10190 20057 38825 48511 53005 333 10063;EQDQ01  00002PRCP99
0162172030999992000063003004+38860+040500FM-12+117799999V0209999C000012200019N0200001N1+01701+00521999999ADDGA1001+999999999GF100991001001999999001001MA1999999088301MD1110051+9999ME1315129REMSYN070AAXX  30034 17203 42970 00000 10170 20052 38830 48512 51005 333 10082;
0241172030999992000063006004+38860+040500FM-12+117799999V0209999C000012200019N0200001N1+02501+01261999999ADDAA199000091GA1001+999999999GF100991001001999999001001IA1019IA2999+01309KA1120N+01671MA1999999088401MD1110101+9999ME1315249REMSYN088AAXX  30064 17203 32970 00000 10250 20126 38840 48524 51010 333 20167 30013 50874 55112;EQDQ01  00002PRCP99
0162172030999992000063009004+38860+040500FM-12+117799999V0209999C000012200019N0200001N1+03201+01091999999ADDGA1001+999999999GF100991001001999999001001MA1999999088461MD1310061+9999ME1315329REMSYN070AAXX  30094 17203 42970 00000 10320 20109 38846 48532 53006 333 10086;
0192172030999992000063012004+38860+040500FM-12+117799999V0209999C000012200019N0200001N1+03281+00791999999ADDAA199000091GA1001+999999999GF100991001001999999001001MA1999999088441MD1810021+9999ME1315299REMSYN070AAXX  30124 17203 32970 00000 10328 20079 38844 48529 58002 333 10089;EQDQ01  00002PRCP99
0162172030999992000063015004+38860+040500FM-12+117799999V0209999C000012200019N0200001N1+03041+00561999999ADDGA1001+999999999GF100991001001999999001001MA1999999088351MD1710091+9999ME1315179REMSYN070AAXX  30154 17203 42970 00000 10304 20056 38835 48517 57009 333 10088;
0221172030999992000063018004+38860+040500FM-12+117799999V0209999C000012200019N0000001N1+02441+00761999999ADDAA199000091GA1001+999999999GF100991001001999999001001KA1999M+99999MA1999999088341MD1610011+9999ME1315179REMSYN070AAXX  30184 17203 32900 00000 10244 20076 38834 48517 56001 333 10082;EQDQ01  00002PRCP99Q02 +00822ATMX  
0162172030999992000063021004+38860+040500FM-12+117799999V0209999C000012200019N0200001N1+02141+00601999999ADDGA1001+999999999GF100991001001999999001001MA1999999088431MD1110091+9999ME1315299REMSYN070AAXX  30214 17203 42970 00000 10214 20060 38843 48529 51009 333 10083;
0192172030999992000070100004+38860+040500FM-12+117799999V0209999C000012200019N0200001N1+01781+00321999999ADDAA199000091GA1001+999999999GF100991001001999999001001MA1999999088431MD1410001+9999ME1315289REMSYN070AAXX  01004 17203 32970 00000 10178 20032 38843 48528 54000 333 10092;EQDQ01  00002PRCP99
0162172030999992000070103004+38860+040500FM-12+117799999V0209999C000012200019N0200001N1+01621+00231999999ADDGA1001+999999999GF100991001001999999001001MA1999999088431MD1410001+9999ME1315249REMSYN070AAXX  01034 17203 42970 00000 10162 20023 38843 48524 54000 333 10102;
0241172030999992000070106004+38860+040500FM-12+117799999V0203501N001512200019N0200001N1+02461+01131999999ADDAA199000091GA1001+999999999GF100991001001999999001001IA1019IA2999+01309KA1120N+01281MA1999999088501MD1210071+9999ME1315339REMSYN088AAXX  01064 17203 32970 03503 10246 20113 38850 48533 52007 333 20128 30013 50764 55112;EQDQ01  00002PRCP99
0162172030999992000070109004+38860+040500FM-12+117799999V0209999C000012200019N0200001N1+03201+01001999999ADDGA1001+999999999GF100991001001999999001001MA1999999088471MD1810031+9999ME1315339REMSYN070AAXX  01094 17203 42970 00000 10320 20100 38847 48533 58003 333 10088;
0192172030999992000070112004+38860+040500FM-12+117799999V0200401N002112200019N0200001N1+03381+00711999999ADDAA199000091GA1001+999999999GF100991001001999999001001MA1999999088341MD1710131+9999ME1315199REMSYN070AAXX  01124 17203 32970 00404 10338 20071 38834 48519 57013 333 10077;EQDQ01  00002PRCP99
0162172030999992000070115004+38860+040500FM-12+117799999V0201001N001512200019N0200001N1+03221+00351999999ADDGA1001+999999999GF100991001001999999001001MA1999999088221MD1710121+9999ME1315059REMSYN070AAXX  01154 17203 42970 01003 10322 20035 38822 48505 57012 333 10073;
0221172030999992000070118004+38860+040500FM-12+117799999V0209999C000012200019N0200001N1+02501+00411999999ADDAA199000091GA1001+999999999GF100991001001999999001001KA1999M+99999MA1999999088221MD1410001+9999ME1315059REMSYN070AAXX  01184 17203 32970 00000 10250 20041 38822 48505 54000 333 10068;EQDQ01  00002PRCP99Q02 +00682ATMX  
0162172030999992000070121004+38860+040500FM-12+117799999V0209999C000012200019N0200001N1+02001+00061999999ADDGA1001+999999999GF100991001001999999001001MA1999999088301MD1110081+9999ME1315159REMSYN070AAXX  01214 17203 42970 00000 10200 20006 38830 48515 51008 333 10073;
0192172030999992000070200004+38860+040500FM-12+117799999V0209999C000012200019N0200001N1+01741+00091999999ADDAA199000091GA1001+999999999GF100991001001999999001001MA1999999088301MD1410001+9999ME1315149REMSYN070AAXX  02004 17203 32970 00000 10174 20009 38830 48514 54000 333 10073;EQDQ01  00002PRCP99
0162172030999992000070203004+38860+040500FM-12+117799999V0209999C000012200019N0200001N1+01521+00241999999ADDGA1001+999999999GF100991001001999999001001MA1999999088301MD1410001+9999ME1315129REMSYN070AAXX  02034 17203 42970 00000 10152 20024 38830 48512 54000 333 10082;
0241172030999992000070206004+38860+040500FM-12+117799999V0209999C000012200019N0200001N1+02401+00821999999ADDAA199000091GA1001+999999999GF100991001001999999001001IA1019IA2999+01309KA1120N+01591MA1999999088401MD1310101+9999ME1315239REMSYN088AAXX  02064 17203 32970 00000 10240 20082 38840 48523 53010 333 20159 30013 50874 55111;EQDQ01  00002PRCP99
0162172030999992000070209004+38860+040500FM-12+117799999V0209999C000012200019N0200001N1+03201+01111999999ADDGA1001+999999999GF100991001001999999001001MA1999999088351MD1810051+9999ME1315209REMSYN070AAXX  02094 17203 42970 00000 10320 20111 38835 48520 58005 333 10079;
0192172030999992000070212004+38860+040500FM-12+117799999V0201601N001512200019N0200001N1+03481+01151999999ADDAA199000091GA1001+999999999GF100991001001999999001001MA1999999088221MD1710131+9999ME1315069REMSYN070AAXX  02124 17203 32970 01603 10348 20115 38822 48506 57013 333 10064;EQDQ01  00002PRCP99
0162172030999992000070215004+38860+040500FM-12+117799999V0209999C000012200019N0200001N1+03201+01001999999ADDGA1001+999999999GF100991001001999999001001MA1999999088101MD1710121+9999ME1314929REMSYN070AAXX  02154 17203 42970 00000 10320 20100 38810 48492 57012 333 10059;
0221172030999992000070218004+38860+040500FM-12+117799999V0201601N003612200019N0200001N1+02701+01011999999ADDAA199000091GA1001+999999999GF100991001001999999001001KA1999M+99999MA1999999088101MD1410001+9999ME1314949REMSYN070AAXX  02184 17203 32970 01607 10270 20101 38810 48494 54000 333 10050;EQDQ01  00002PRCP99Q02 +00502ATMX  
0162172030999992000070221004+38860+040500FM-12+117799999V0201601N004112200019N0200001N1+02521+01011999999ADDGA1001+999999999GF100991001001999999001001MA1999999088171MD1210171+9999ME1315059REMSYN070AAXX  02214 17203 42970 01608 10252 20101 38817 48505 52017 333 10044;
0192172030999992000070300004+38860+040500FM-12+117799999V0201601N002612200019N0200001N1+02361+01161999999ADDAA199000091GA1001+999999999GF100991001001999999001001MA1999999088201MD1110031+9999ME1315089REMSYN070AAXX  03004 17203 32970 01605 10236 20116 38820 48508 51003 333 10048;EQDQ01  00002PRCP99
0162172030999992000070303004+38860+040500FM-12+117799999V0201601N001512200019N0200001N1+02201+01071999999ADDGA1001+999999999GF100991001001999999001001MA1999999088181MD1610021+9999ME1315049REMSYN070AAXX  03034 17203 42970 01603 10220 20107 38818 48504 56002 333 10055;
0240172030999992000070306004+38860+040500FM-12+117799999V0201601N002112200019N0200001N1+02801+01491999999ADDAA199000091GA1001+999999999GF100991001001999999001001IA1019IA2999+01709KA1120N+02101MA1999999088151MD1810031+9999ME1315019REMSYN087AAXX  03064 17203 32970 0160410280 20149 38815 48501 58003 333 20210 30017 50874 55111;EQDQ01  00002PRCP99
0162172030999992000070309004+38860+040500FM-12+117799999V0209999C000012200019N0200001N1+03321+01871999999ADDGA1001+999999999GF100991001001999999001001MA1999999088101MD1710051+9999ME1314989REMSYN070AAXX  03094 17203 42970 00000 10332 20187 38810 48498 57005 333 10036;
0182172030999992000070312004+38860+040500FM-12+117799999V0202501N001512200019N0200001N1+03501+01821999999ADDAA199000091GF102991021011012501001001MA1999999087981MD1710121+9999ME1314869REMSYN076AAXX  03124 17203 32670 22503 10350 20182 38798 48486 57012 82100 333 10023;EQDQ01  00002PRCP99
0152172030999992000070315004+38860+040500FM-12+117799999V0201601N002112200019N0200001N1+03221+01531999999ADDGF102991021011012501001001MA1999999087871MD1710111+9999ME1314739REMSYN076AAXX  03154 17203 42670 21604 10322 20153 38787 48473 57011 82100 333 10019;
0221172030999992000070318004+38860+040500FM-12+117799999V0201601N003112200019N0200001N1+02851+01241999999ADDAA199000091GA1001+999999999GF100991001001999999001001KA1999M+99999MA1999999087901MD1310031+9999ME1314779REMSYN070AAXX  03184 17203 32970 01606 10285 20124 38790 48477 53003 333 10018;EQDQ01  00002PRCP99Q02 +00182ATMX  
0162172030999992000070321004+38860+040500FM-12+117799999V0201601N002612200019N0200001N1+02601+01121999999ADDGA1001+999999999GF100991001001999999001001MA1999999088061MD1210161+9999ME1314959REMSYN070AAXX  03214 17203 42970 01605 10260 20112 38806 48495 52016 333 10027;
0192172030999992000070400004+38860+040500FM-12+117799999V0201601N002612200019N0200001N1+02441+01031999999ADDAA199000091GA1001+999999999GF100991001001999999001001MA1999999088081MD1110021+9999ME1314979REMSYN070AAXX  04004 17203 32970 01605 10244 20103 38808 48497 51002 333 10030;EQDQ01  00002PRCP99
0162172030999992000070403004+38860+040500FM-12+117799999V0201601N002112200019N0200001N1+02181+00971999999ADDGA1001+999999999GF100991001001999999001001MA1999999088101MD1310021+9999ME1314969REMSYN070AAXX  04034 17203 42970 01604 10218 20097 38810 48496 53002 333 10045;
0241172030999992000070406004+38860+040500FM-12+117799999V0209999C000012200019N0200001N1+02801+01491999999ADDAA199000091GA1001+999999999GF100991001001999999001001IA1019IA2999+01709KA1120N+02141MA1999999088201MD1210101+9999ME1315089REMSYN088AAXX  04064 17203 32970 00000 10280 20149 38820 48508 52010 333 20214 30017 50884 55112;EQDQ01  00002PRCP99
0162172030999992000070409004+38860+040500FM-12+117799999V0203401N001512200019N0200001N1+03321+01681999999ADDGA1001+999999999GF100991001001999999001001MA1999999088141MD1810061+9999ME1315039REMSYN070AAXX  04094 17203 42970 03403 10332 20168 38814 48503 58006 333 10037;
0192172030999992000070412004+38860+040500FM-12+117799999V0209999C000012200019N0200001N1+03601+01531999999ADDAA199000091GA1001+999999999GF100991001001999999001001MA1999999088061MD1710081+9999ME1314969REMSYN070AAXX  04124 17203 32970 00000 10360 20153 38806 48496 57008 333 10027;EQDQ01  00002PRCP99
0162172030999992000070415004+38860+040500FM-12+117799999V0209999C000012200019N0200001N1+03301+01221999999ADDGA1001+999999999GF100991001001999999001001MA1999999087971MD1710091+9999ME1314839REMSYN070AAXX  04154 17203 42970 00000 10330 20122 38797 48483 57009 333 10031;
0221172030999992000070418004+38860+040500FM-12+117799999V0201601N001512200019N0200001N1+02701+01141999999ADDAA199000091GA1001+999999999GF100991001001999999001001KA1999M+99999MA1999999087981MD1310011+9999ME1314849REMSYN070AAXX  04184 17203 32970 01603 10270 20114 38798 48484 53001 333 10027;EQDQ01  00002PRCP99Q02 +00272ATMX  
0192172030999992000070500004+38860+040500FM-12+117799999V0201601N002112200019N0200001N1+02581+01361999999ADDAA199000091GA1001+999999999GF100991001001999999001001MA1999999088121MD1110051+9999ME1315029REMSYN070AAXX  05004 17203 32970 01604 10258 20136 38812 48502 51005 333 10030;EQDQ01  00002PRCP99
0162172030999992000070503004+38860+040500FM-12+117799999V0209999C000012200019N0200001N1+02201+01301999999ADDGA1001+999999999GF100991001001999999001001MA1999999088201MD1210081+9999ME1315069REMSYN070AAXX  05034 17203 42970 00000 10220 20130 38820 48506 52008 333 10052;
0241172030999992000070506004+38860+040500FM-12+117799999V0209999C000012200019N0200001N1+03001+01671999999ADDAA199000091GA1001+999999999GF100991001001999999001001IA1019IA2999+01809KA1120N+02181MA1999999088321MD1110121+9999ME1315209REMSYN088AAXX  05064 17203 32970 00000 10300 20167 38832 48520 51012 333 20218 30018 50824 55112;EQDQ01  00002PRCP99
0161172030999992000070509004+38860+040500FM-12+117799999V0209999C000012200019N0200001N1+03401+01721999999ADDGA1001+999999999GF100991001001999999001001MA1999999088261MD1810061+9999ME1315159REMSYN069AAXX  05094 17203 42970 00000 10340 20172 38826 48515 58006 33 10050;
0192172030999992000070512004+38860+040500FM-12+117799999V0209999C000012200019N0200001N1+03621+01581999999ADDAA199000091GA1001+999999999GF100991001001999999001001MA1999999088151MD1710111+9999ME1315059REMSYN070AAXX  05124 17203 32970 00000 10362 20158 38815 48505 57011 333 10033;EQDQ01  00002PRCP99
0162172030999992000070515004+38860+040500FM-12+117799999V0201601N001512200019N0200001N1+03301+01221999999ADDGA1001+999999999GF100991001001999999001001MA1999999088071MD1710081+9999ME1314939REMSYN070AAXX  05154 17203 42970 01603 10330 20122 38807 48493 57008 333 10037;
0221172030999992000070518004+38860+040500FM-12+117799999V0201601N003112200019N0016001N1+02901+00881999999ADDAA199000091GA1001+999999999GF100991001001999999001001KA1999M+99999MA1999999088071MD1410001+9999ME1314959REMSYN070AAXX  05184 17203 32916 01606 10290 20088 38807 48495 54000 333 10029;EQDQ01  00002PRCP99Q02 +00292ATMX  
0162172030999992000070521004+38860+040500FM-12+117799999V0201601N001512200019N0200001N1+02601+00651999999ADDGA1001+999999999GF100991001001999999001001MA1999999088301MD1210231+9999ME1315199REMSYN070AAXX  05214 17203 42970 01603 10260 20065 38830 48519 52023 333 10055;
0192172030999992000070600004+38860+040500FM-12+117799999V0201801N003612200019N0200001N1+02501+00621999999ADDAA199000091GA1001+999999999GF100991001001999999001001MA1999999088301MD1410001+9999ME1315209REMSYN070AAXX  06004 17203 32970 01807 10250 20062 38830 48520 54000 333 10050;EQDQ01  00002PRCP99
0162172030999992000070603004+38860+040500FM-12+117799999V0209999C000012200019N0200001N1+02281+00761999999ADDGA1001+999999999GF100991001001999999001001MA1999999088301MD1410001+9999ME1315179REMSYN070AAXX  06034 17203 42970 00000 10228 20076 38830 48517 54000 333 10064;
0241172030999992000070606004+38860+040500FM-12+117799999V0201601N001512200019N0200001N1+02981+01251999999ADDAA199000091GA1001+999999999GF100991001001999999001001IA1019IA2999+01909KA1120N+02201MA1999999088451MD1310151+9999ME1315349REMSYN088AAXX  06064 17203 32970 01603 10298 20125 38845 48534 53015 333 20220 30019 50824 55112;EQDQ01  00002PRCP99
0162172030999992000070609004+38860+040500FM-12+117799999V0202501N002112200019N0000001N1+03501+01411999999ADDGA1001+999999999GF100991001001999999001001MA1999999088341MD1810111+9999ME1315249REMSYN070AAXX  06094 17203 42900 02504 10350 20141 38834 48524 58011 333 10059;
0192172030999992000070612004+38860+040500FM-12+117799999V0202501N002612200019N0200001N1+03681+01391999999ADDAA199000091GA1001+999999999GF100991001001999999001001MA1999999088221MD1710121+9999ME1315129REMSYN070AAXX  06124 17203 32970 02505 10368 20139 38822 48512 57012 333 10041;EQDQ01  00002PRCP99
0162172030999992000070615004+38860+040500FM-12+117799999V0202701N002112200019N0200001N1+03401+01201999999ADDGA1001+999999999GF100991001001999999001001MA1999999088101MD1610121+9999ME1314979REMSYN070AAXX  06154 17203 42970 02704 10340 20120 38810 48497 56012 333 10041;
0221172030999992000070618004+38860+040500FM-12+117799999V0201801N001512200019N0200001N1+02861+01111999999ADDAA199000091GA1001+999999999GF100991001001999999001001KA1999M+99999MA1999999088101MD1410001+9999ME1314989REMSYN070AAXX  06184 17203 32970 01803 10286 20111 38810 48498 54000 333 10036;EQDQ01  00002PRCP99Q02 +00362ATMX  
0162172030999992000070621004+38860+040500FM-12+117799999V0201301N002112200019N0200001N1+02641+00921999999ADDGA1001+999999999GF100991001001999999001001MA1999999088251MD1210151+9999ME1315159REMSYN070AAXX  06214 17203 42970 01304 10264 20092 38825 48515 52015 333 10045;
0192172030999992000070700004+38860+040500FM-12+117799999V0201601N001512200019N0200001N1+02521+00841999999ADDAA199000091GA1001+999999999GF100991001001999999001001MA1999999088251MD1410001+9999ME1315159REMSYN070AAXX  07004 17203 32970 01603 10252 20084 38825 48515 54000 333 10045;EQDQ01  00002PRCP99
0162172030999992000070703004+38860+040500FM-12+117799999V0201801N001512200019N0200001N1+02201+00831999999ADDGA1001+999999999GF100991001001999999001001MA1999999088221MD1610031+9999ME1315099REMSYN070AAXX  07034 17203 42970 01803 10220 20083 38822 48509 56003 333 10055;
0241172030999992000070706004+38860+040500FM-12+117799999V0209999C000012200019N0200001N1+02821+01481999999ADDAA199000091GA1001+999999999GF100991001001999999001001IA1019IA2999+01909KA1120N+02161MA1999999088181MD1810041+9999ME1315059REMSYN088AAXX  07064 17203 32970 00000 10282 20148 38818 48505 58004 333 20216 30019 51044 55111;EQDQ01  00002PRCP99
0162172030999992000070709004+38860+040500FM-12+117799999V0209999C000012200019N0200001N1+03451+01741999999ADDGA1001+999999999GF100991001001999999001001MA1999999088051MD1710131+9999ME1314949REMSYN070AAXX  07094 17203 42970 00000 10345 20174 38805 48494 57013 333 10026;
0192172030999992000070712004+38860+040500FM-12+117799999V0201601N001512200019N0200001N1+03651+01531999999ADDAA199000091GA1001+999999999GF100991001001999999001001MA1999999087901MD1710151+9999ME1314799REMSYN070AAXX  07124 17203 32970 01603 10365 20153 38790 48479 57015 333 10004;EQDQ01  00002PRCP99
0168172030999992000070715004+38860+040500FM-12+117799999V0209999C000012200019N0200001N1+03401+01271999999ADDGA1021+012009029GF102991021011012501001001MA1999999087741MD1710161+9999ME1314609REMSYN076AAXX  07154 17203 42670 20000 10340 20127 38774 48460 57016 82100 333 82840;
0221172030999992000070718004+38860+040500FM-12+117799999V0201601N001512200019N0200001N1+02851+01141999999ADDAA199000091GA1001+999999999GF100991001001999999001001KA1999M+99999MA1999999087721MD1610021+9999ME1314599REMSYN070AAXX  07184 17203 32970 01603 10285 20114 38772 48459 56002 333 10001;EQDQ01  00002PRCP99Q02 +00012ATMX  
0162172030999992000070721004+38860+040500FM-12+117799999V0201601N002112200019N0200001N1+02701+01051999999ADDGA1001+999999999GF100991001001999999001001MA1999999087871MD1210151+9999ME1314769REMSYN070AAXX  07214 17203 42970 01604 10270 20105 38787 48476 52015 333 10001;
0192172030999992000070800004+38860+040500FM-12+117799999V0201501N002612200019N0200001N1+02501+01211999999ADDAA199000091GA1001+999999999GF100991001001999999001001MA1999999087871MD1410001+9999ME1314769REMSYN070AAXX  08004 17203 32970 01505 10250 20121 38787 48476 54000 333 10001;EQDQ01  00002PRCP99
0241172030999992000070806004+38860+040500FM-12+117799999V0201601N002612200019N0200001N1+02801+01571999999ADDAA199000091GA1001+999999999GF100991001001999999001001IA1019IA2999+01809KA1120N+02181MA1999999088001MD1110101+9999ME1314879REMSYN088AAXX  08064 17203 32970 01605 10280 20157 38800 48487 51010 333 20218 30018 51084 55112;EQDQ01  00002PRCP99
0162172030999992000070809004+38860+040500FM-12+117799999V0201801N002112200019N0200001N1+03201+01571999999ADDGA1001+999999999GF100991001001999999001001MA1999999088001MD1410001+9999ME1314889REMSYN070AAXX  08094 17203 42970 01804 10320 20157 38800 48488 54000 333 10021;
0192172030999992000070812004+38860+040500FM-12+117799999V0201601N001512200019N0200001N1+03421+01421999999ADDAA199000091GA1001+999999999GF100991001001999999001001MA1999999087961MD1810041+9999ME1314849REMSYN070AAXX  08124 17203 32970 01603 10342 20142 38796 48484 58004 333 10016;EQDQ01  00002PRCP99
0162172030999992000070815004+38860+040500FM-12+117799999V0201601N002112200019N0200001N1+03201+01011999999ADDGA1001+999999999GF100991001001999999001001MA1999999087901MD1610061+9999ME1314769REMSYN070AAXX  08154 17203 42970 01604 10320 20101 38790 48476 56006 333 10023;
0221172030999992000070818004+38860+040500FM-12+117799999V0201601N003112200019N0200001N1+02681+00981999999ADDAA199000091GA1001+999999999GF100991001001999999001001KA1999M+99999MA1999999087961MD1310061+9999ME1314829REMSYN070AAXX  08184 17203 32970 01606 10268 20098 38796 48482 53006 333 10029;EQDQ01  00002PRCP99Q02 +00292ATMX  
0162172030999992000070821004+38860+040500FM-12+117799999V0201601N001512200019N0200001N1+02401+00891999999ADDGA1001+999999999GF100991001001999999001001MA1999999088071MD1210111+9999ME1314949REMSYN070AAXX  08214 17203 42970 01603 10240 20089 38807 48494 52011 333 10037;
0192172030999992000070900004+38860+040500FM-12+117799999V0201601N003112200019N0200001N1+02151+00951999999ADDAA199000091GA1001+999999999GF100991001001999999001001MA1999999088081MD1110011+9999ME1314959REMSYN070AAXX  09004 17203 32970 01606 10215 20095 38808 48495 51001 333 10039;EQDQ01  00002PRCP99
0162172030999992000070903004+38860+040500FM-12+117799999V0201601N001512200019N0200001N1+02021+00841999999ADDGA1001+999999999GF100991001001999999001001MA1999999088181MD1210101+9999ME1315039REMSYN070AAXX  09034 17203 42970 01603 10202 20084 38818 48503 52010 333 10059;
0241172030999992000070906004+38860+040500FM-12+117799999V0201701N001512200019N0200001N1+02581+01171999999ADDAA199000091GA1001+999999999GF100991001001999999001001IA1019IA2999+01609KA1120N+01981MA1999999088241MD1210061+9999ME1315099REMSYN088AAXX  09064 17203 32970 01703 10258 20117 38824 48509 52006 333 20198 30016 50834 55112;EQDQ01  00002PRCP99
0162172030999992000070909004+38860+040500FM-12+117799999V0202701N002112200019N0200001N1+03241+01201999999ADDGA1001+999999999GF100991001001999999001001MA1999999088121MD1710121+9999ME1314999REMSYN070AAXX  09094 17203 42970 02704 10324 20120 38812 48499 57012 333 10043;
0192172030999992000070912004+38860+040500FM-12+117799999V0202801N001512200019N0200001N1+03381+00971999999ADDAA199000091GA1001+999999999GF100991001001999999001001MA1999999087971MD1710171+9999ME1314849REMSYN070AAXX  09124 17203 32970 02803 10338 20097 38797 48484 57017 333 10026;EQDQ01  00002PRCP99
0162172030999992000070915004+38860+040500FM-12+117799999V0201801N002112200019N0200001N1+03141+00411999999ADDGA1001+999999999GF100991001001999999001001MA1999999087871MD1710101+9999ME1314719REMSYN070AAXX  09154 17203 42970 01804 10314 20041 38787 48471 57010 333 10024;
0221172030999992000070918004+38860+040500FM-12+117799999V0201801N002112200019N0200001N1+02721+00701999999ADDAA199000091GA1001+999999999GF100991001001999999001001KA1999M+99999MA1999999087851MD1610021+9999ME1314709REMSYN070AAXX  09184 17203 32970 01804 10272 20070 38785 48470 56002 333 10021;EQDQ01  00002PRCP99Q02 +00212ATMX  
0162172030999992000070921004+38860+040500FM-12+117799999V0201801N002612200019N0200001N1+02461+00611999999ADDGA1001+999999999GF100991001001999999001001MA1999999087901MD1110051+9999ME1314779REMSYN070AAXX  09214 17203 42970 01805 10246 20061 38790 48477 51005 333 10018;
0192172030999992000071000004+38860+040500FM-12+117799999V0201601N002112200019N0200001N1+02101+00501999999ADDAA199000091GA1001+999999999GF100991001001999999001001MA1999999087901MD1410001+9999ME1314769REMSYN070AAXX  10004 17203 32970 01604 10210 20050 38790 48476 54000 333 10018;EQDQ01  00002PRCP99
0162172030999992000071003004+38860+040500FM-12+117799999V0209999C000012200019N0200001N1+02001+00471999999ADDGA1001+999999999GF100991001001999999001001MA1999999087871MD1810031+9999ME1314719REMSYN070AAXX  10034 17203 42970 00000 10200 20047 38787 48471 58003 333 10024;
0241172030999992000071006004+38860+040500FM-12+117799999V0209999C000012200019N0200001N1+02901+01371999999ADDAA199000091GA1001+999999999GF100991001001999999001001IA1019IA2999+01709KA1120N+01971MA1999999087871MD1410001+9999ME1314739REMSYN088AAXX  10064 17203 32970 00000 10290 20137 38787 48473 54000 333 20197 30017 50904 55112;EQDQ01  00002PRCP99
0162172030999992000071009004+38860+040500FM-12+117799999V0202701N001512200019N0200001N1+03401+01311999999ADDGA1001+999999999GF100991001001999999001001MA1999999087701MD1710171+9999ME1314589REMSYN070AAXX  10094 17203 42970 02703 10340 20131 38770 48458 57017 333 09991;
0192172030999992000071012004+38860+040500FM-12+117799999V0209999C000012200019N0200001N1+03641+01291999999ADDAA199000091GA1001+999999999GF100991001001999999001001MA1999999087581MD1710121+9999ME1314459REMSYN070AAXX  10124 17203 32970 00000 10364 20129 38758 48445 57012 333 09977;EQDQ01  00002PRCP99
0162172030999992000071015004+38860+040500FM-12+117799999V0209999C000012200019N0200001N1+03321+00921999999ADDGA1001+999999999GF100991001001999999001001MA1999999087501MD1610081+9999ME1314359REMSYN070AAXX  10154 17203 42970 00000 10332 20092 38750 48435 56008 333 09977;
0205172030999992000071018004+38860+040500FM-12+117799999V0201601N002612200019N0200001N1+02841+00961999999ADDAA199000091GA1001+999999999GF100991001001999999001001KA1999M+03681MA1999999087511MD1410001+9999ME1314379REMSYN070AAXX  10184 17203 32970 01605 10284 20096 38751 48437 54000 333 10368;EQDQ01  00002PRCP99
0162172030999992000071021004+38860+040500FM-12+117799999V0201601N003612200019N0200001N1+02661+00531999999ADDGA1001+999999999GF100991001001999999001001MA1999999087711MD1210211+9999ME1314609REMSYN070AAXX  10214 17203 42970 01607 10266 20053 38771 48460 52021 333 09988;
0192172030999992000071100004+38860+040500FM-12+117799999V0202601N002112200019N0200001N1+02441+00311999999ADDAA199000091GA1001+999999999GF100991001001999999001001MA1999999087771MD1210061+9999ME1314669REMSYN070AAXX  11004 17203 32970 02604 10244 20031 38777 48466 52006 333 09994;EQDQ01  00002PRCP99
0162172030999992000071103004+38860+040500FM-12+117799999V0201701N002112200019N0200001N1+02301+00411999999ADDGA1001+999999999GF100991001001999999001001MA1999999087801MD1310031+9999ME1314249REMSYN070AAXX  11034 17203 42970 01704 10230 20041 38780 48424 53003 333 10007;
0241172030999992000071106004+38860+040500FM-12+117799999V0201601N001512200019N0200001N1+02861+01231999999ADDAA199000091GA1001+999999999GF100991001001999999001001IA1019IA2999+01709KA1120N+02201MA1999999087901MD1210101+9999ME1314789REMSYN088AAXX  11064 17203 32970 01603 10286 20123 38790 48478 52010 333 20220 30017 50984 55112;EQDQ01  00002PRCP99
0162172030999992000071109004+38860+040500FM-12+117799999V0202701N001512200019N0200001N1+03461+01311999999ADDGA1001+999999999GF100991001001999999001001MA1999999087871MD1810031+9999ME1314769REMSYN070AAXX  11094 17203 42970 02703 10346 20131 38787 48476 58003 333 10001;
0192172030999992000071112004+38860+040500FM-12+117799999V0202501N002612200019N0200001N1+03601+01271999999ADDAA199000091GA1001+999999999GF100991001001999999001001MA1999999087701MD1710171+9999ME1314599REMSYN070AAXX  11124 17203 32970 02505 10360 20127 38770 48459 57017 333 09986;EQDQ01  00002PRCP99
0162172030999992000071115004+38860+040500FM-12+117799999V0201601N001512200019N0200001N1+03301+01161999999ADDGA1001+999999999GF100991001001999999001001MA1999999087681MD1610021+9999ME1314549REMSYN070AAXX  11154 17203 42970 01603 10330 20116 38768 48454 56002 333 09993;
0205172030999992000071118004+38860+040500FM-12+117799999V0201601N003112200019N0200001N1+03001+00831999999ADDAA199000091GA1001+999999999GF100991001001999999001001KA1999M+03701MA1999999087681MD1410001+9999ME1314559REMSYN070AAXX  11184 17203 32970 01606 10300 20083 38768 48455 54000 333 10370;EQDQ01  00002PRCP99
0162172030999992000071121004+38860+040500FM-12+117799999V0201601N002112200019N0200001N1+02601+00781999999ADDGA1001+999999999GF100991001001999999001001MA1999999087881MD1210201+9999ME1314779REMSYN070AAXX  11214 17203 42970 01604 10260 20078 38788 48477 52020 333 10007;
0192172030999992000071200004+38860+040500FM-12+117799999V0201601N002612200019N0200001N1+02401+00801999999ADDAA199000091GA1001+999999999GF100991001001999999001001MA1999999087881MD1410001+9999ME1314769REMSYN070AAXX  12004 17203 32970 01605 10240 20080 38788 48476 54000 333 10007;EQDQ01  00002PRCP99
0162172030999992000071203004+38860+040500FM-12+117799999V0201601N003112200019N0200001N1+02401+00801999999ADDGA1001+999999999GF100991001001999999001001MA1999999087901MD1310021+9999ME1314779REMSYN070AAXX  12034 17203 42970 01606 10240 20080 38790 48477 53002 333 10018;
0241172030999992000071206004+38860+040500FM-12+117799999V0201601N002112200019N0200001N1+03041+01121999999ADDAA199000091GA1001+999999999GF100991001001999999001001IA1019IA2999+01909KA1120N+02261MA1999999088061MD1210161+9999ME1314959REMSYN088AAXX  12064 17203 32970 01604 10304 20112 38806 48495 52016 333 20226 30019 51164 55112;EQDQ01  00002PRCP99
0162172030999992000071209004+38860+040500FM-12+117799999V0201801N002112200019N0200001N1+03521+01361999999ADDGA1001+999999999GF100991001001999999001001MA1999999088061MD1410001+9999ME1314969REMSYN070AAXX  12094 17203 42970 01804 10352 20136 38806 48496 54000 333 10023;
0192172030999992000071212004+38860+040500FM-12+117799999V0201601N002612200019N0200001N1+03681+01131999999ADDAA199000091GA1001+999999999GF100991001001999999001001MA1999999087941MD1710121+9999ME1314829REMSYN070AAXX  12124 17203 32970 01605 10368 20113 38794 48482 57012 333 10014;EQDQ01  00002PRCP99
0162172030999992000071215004+38860+040500FM-12+117799999V0201801N003112200019N0200001N1+03401+00861999999ADDGA1001+999999999GF100991001001999999001001MA1999999087901MD1610041+9999ME1314789REMSYN070AAXX  12154 17203 42970 01806 10340 20086 38790 48478 56004 333 10014;
0221172030999992000071218004+38860+040500FM-12+117799999V0201601N003112200019N0200001N1+02941+00681999999ADDAA199000091GA1001+999999999GF100991001001999999001001KA1999M+99999MA1999999087921MD1310021+9999ME1314809REMSYN070AAXX  12184 17203 32970 01606 10294 20068 38792 48480 53002 333 10011;EQDQ01  00002PRCP99Q02 +00112ATMX  
0162172030999992000071221004+38860+040500FM-12+117799999V0201301N002112200019N0200001N1+02781+00721999999ADDGA1001+999999999GF100991001001999999001001MA1999999088101MD1210181+9999ME1315019REMSYN070AAXX  12214 17203 42970 01304 10278 20072 38810 48501 52018 333 10028;
0192172030999992000071300004+38860+040500FM-12+117799999V0201601N003112200019N0200001N1+02351+00511999999ADDAA199000091GA1001+999999999GF100991001001999999001001MA1999999088131MD1210031+9999ME1315029REMSYN070AAXX  13004 17203 32970 01606 10235 20051 38813 48502 52003 333 10035;EQDQ01  00002PRCP99
0162172030999992000071303004+38860+040500FM-12+117799999V0201601N001512200019N0200001N1+02141+00561999999ADDGA1001+999999999GF100991001001999999001001MA1999999088131MD1410001+9999ME1315009REMSYN070AAXX  13034 17203 42970 01603 10214 20056 38813 48500 54000 333 10044;
0241172030999992000071306004+38860+040500FM-12+117799999V0209999C000012200019N0200001N1+03101+01361999999ADDAA199000091GA1001+999999999GF100991001001999999001001IA1019IA2999+01809KA1120N+02081MA1999999088181MD1310051+9999ME1315079REMSYN088AAXX  13064 17203 32970 00000 10310 20136 38818 48507 53005 333 20208 30018 51244 55112;EQDQ01  00002PRCP99
0162172030999992000071309004+38860+040500FM-12+117799999V0202701N002112200019N0200001N1+03401+01471999999ADDGA1001+999999999GF100991001001999999001001MA1999999088121MD1810061+9999ME1315029REMSYN070AAXX  13094 17203 42970 02704 10340 20147 38812 48502 58006 333 10030;
0192172030999992000071312004+38860+040500FM-12+117799999V0203601N002612200019N0200001N1+03681+01351999999ADDAA199000091GA1001+999999999GF100991001001999999001001MA1999999087951MD1710171+9999ME1314839REMSYN070AAXX  13124 17203 32970 03605 10368 20135 38795 48483 57017 333 10015;EQDQ01  00002PRCP99
0162172030999992000071315004+38860+040500FM-12+117799999V0209999C000012200019N0200001N1+03641+01291999999ADDGA1001+999999999GF100991001001999999001001MA1999999087701MD1710251+9999ME1314579REMSYN070AAXX  13154 17203 42970 00000 10364 20129 38770 48457 57025 333 09991;
0205172030999992000071318004+38860+040500FM-12+117799999V0201801N001512200019N0200001N1+02801+01211999999ADDAA199000091GA1001+999999999GF100991001001999999001001KA1999M+03761MA1999999087761MD1110061+9999ME1314639REMSYN070AAXX  13184 17203 32970 01803 10280 20121 38776 48463 51006 333 10376;EQDQ01  00002PRCP99
0162172030999992000071321004+38860+040500FM-12+117799999V0209999C000012200019N0200001N1+02401+00801999999ADDGA1001+999999999GF100991001001999999001001MA1999999087831MD1310071+9999ME1314709REMSYN070AAXX  13214 17203 42970 00000 10240 20080 38783 48470 53007 333 10006;
0192172030999992000071400004+38860+040500FM-12+117799999V0209999C000012200019N0200001N1+02281+00761999999ADDAA199000091GA1001+999999999GF100991001001999999001001MA1999999087851MD1110021+9999ME1314739REMSYN070AAXX  14004 17203 32970 00000 10228 20076 38785 48473 51002 333 10004;EQDQ01  00002PRCP99
0162172030999992000071403004+38860+040500FM-12+117799999V0201601N001512200019N0200001N1+02181+00841999999ADDGA1001+999999999GF100991001001999999001001MA1999999087851MD1410001+9999ME1314739REMSYN070AAXX  14034 17203 42970 01603 10218 20084 38785 48473 54000 333 10008;
0241172030999992000071406004+38860+040500FM-12+117799999V0209999C000012200019N0200001N1+03001+01311999999ADDAA199000091GA1001+999999999GF100991001001999999001001IA1019IA2999+01909KA1120N+02161MA1999999087901MD1210051+9999ME1314789REMSYN088AAXX  14064 17203 32970 00000 10300 20131 38790 48478 52005 333 20216 30019 51154 55109;EQDQ01  00002PRCP99
0162172030999992000071409004+38860+040500FM-12+117799999V0209999C000012200019N0200001N1+03521+01631999999ADDGA1001+999999999GF100991001001999999001001MA1999999087901MD1410001+9999ME1314789REMSYN070AAXX  14094 17203 42970 00000 10352 20163 38790 48478 54000 333 10009;
0192172030999992000071412004+38860+040500FM-12+117799999V0202501N002112200019N0200001N1+03781+01581999999ADDAA199000091GA1001+999999999GF100991001001999999001001MA1999999087801MD1710101+9999ME1314699REMSYN070AAXX  14124 17203 32970 02504 10378 20158 38780 48469 57010 333 09998;EQDQ01  00002PRCP99
0162172030999992000071415004+38860+040500FM-12+117799999V0209999C000012200019N0200001N1+03401+01201999999ADDGA1001+999999999GF100991001001999999001001MA1999999087701MD1610101+9999ME1314569REMSYN070AAXX  14154 17203 42970 00000 10340 20120 38770 48456 56010 333 09995;
0205172030999992000071418004+38860+040500FM-12+117799999V0201801N001512200019N0200001N1+02751+00951999999ADDAA199000091GA1001+999999999GF100991001001999999001001KA1999M+03821MA1999999087701MD1410001+9999ME1314579REMSYN070AAXX  14184 17203 32970 01803 10275 20095 38770 48457 54000 333 10382;EQDQ01  00002PRCP99
0162172030999992000071421004+38860+040500FM-12+117799999V0209999C000012200019N0200001N1+02451+00711999999ADDGA1001+999999999GF100991001001999999001001MA1999999087801MD1110101+9999ME1314689REMSYN070AAXX  14214 17203 42970 00000 10245 20071 38780 48468 51010 333 09998;
0192172030999992000071500004+38860+040500FM-12+117799999V0209999C000012200019N0200001N1+02231+00571999999ADDAA199000091GA1001+999999999GF100991001001999999001001MA1999999087801MD1410001+9999ME1314699REMSYN070AAXX  15004 17203 32970 00000 10223 20057 38780 48469 54000 333 09998;EQDQ01  00002PRCP99
0162172030999992000071503004+38860+040500FM-12+117799999V0209999C000012200019N0200001N1+02001+00521999999ADDGA1001+999999999GF100991001001999999001001MA1999999087801MD1410001+9999ME1314569REMSYN070AAXX  15034 17203 42970 00000 10200 20052 38780 48456 54000 333 10001;
0241172030999992000071506004+38860+040500FM-12+117799999V0209999C000012200019N0200001N1+02741+01271999999ADDAA199000091GA1001+999999999GF100991001001999999001001IA1019IA2999+01709KA1120N+01921MA1999999088001MD1210201+9999ME1314869REMSYN088AAXX  15064 17203 32970 00000 10274 20127 38800 48486 52020 333 20192 30017 51004 55111;EQDQ01  00002PRCP99
0162172030999992000071509004+38860+040500FM-12+117799999V0209999C000012200019N0200001N1+03641+01491999999ADDGA1001+999999999GF100991001001999999001001MA1999999087971MD1810031+9999ME1314869REMSYN070AAXX  15094 17203 42970 00000 10364 20149 38797 48486 58003 333 10017;
0192172030999992000071512004+38860+040500FM-12+117799999V0200901N001512200019N0200001N1+03761+01511999999ADDAA199000091GA1001+999999999GF100991001001999999001001MA1999999087941MD1810031+9999ME1314839REMSYN070AAXX  15124 17203 32970 00903 10376 20151 38794 48483 58003 333 10014;EQDQ01  00002PRCP99
0162172030999992000071515004+38860+040500FM-12+117799999V0201001N001512200019N0200001N1+03421+00791999999ADDGA1001+999999999GF100991001001999999001001MA1999999087831MD1710111+9999ME1314699REMSYN070AAXX  15154 17203 42970 01003 10342 20079 38783 48469 57011 333 10015;
0221172030999992000071518004+38860+040500FM-12+117799999V0209999C000012200019N0200001N1+02701+00431999999ADDAA199000091GA1001+999999999GF100991001001999999001001KA1999M+99999MA1999999087871MD1310041+9999ME1314739REMSYN070AAXX  15184 17203 32970 00000 10270 20043 38787 48473 53004 333 10019;EQDQ01  00002PRCP99Q02 +00192ATMX  
0192172030999992000071600004+38860+040500FM-12+117799999V0209999C000012200019N0200001N1+02201+00121999999ADDAA199000091GA1001+999999999GF100991001001999999001001MA1999999088001MD1410001+9999ME1314899REMSYN070AAXX  16004 17203 32970 00000 10220 20012 38800 48489 54000 333 10021;EQDQ01  00002PRCP99
0162172030999992000071603004+38860+040500FM-12+117799999V0209999C000012200019N0200001N1+01851-00051999999ADDGA1001+999999999GF100991001001999999001001MA1999999088081MD1310081+9999ME1314939REMSYN070AAXX  16034 17203 42970 00000 10185 21005 38808 48493 53008 333 10048;
0241172030999992000071606004+38860+040500FM-12+117799999V0209999C000012200019N0200001N1+02701+01211999999ADDAA199000091GA1001+999999999GF100991001001999999001001IA1019IA2999+01309KA1120N+01821MA1999999088161MD1210081+9999ME1315029REMSYN088AAXX  16064 17203 32970 00000 10270 20121 38816 48502 52008 333 20182 30013 50954 55109;EQDQ01  00002PRCP99
0162172030999992000071609004+38860+040500FM-12+117799999V0209999C000012200019N0200001N1+03501+01291999999ADDGA1001+999999999GF100991001001999999001001MA1999999088171MD1110011+9999ME1315069REMSYN070AAXX  16094 17203 42970 00000 10350 20129 38817 48506 51001 333 10040;
0192172030999992000071612004+38860+040500FM-12+117799999V0201901N002612200019N0200001N1+03701+00421999999ADDAA199000091GA1001+999999999GF100991001001999999001001MA1999999088101MD1810071+9999ME1314989REMSYN070AAXX  16124 17203 32970 01905 10370 20042 38810 48498 58007 333 10032;EQDQ01  00002PRCP99
0162172030999992000071615004+38860+040500FM-12+117799999V0209999C000012200019N0200001N1+03401+00351999999ADDGA1001+999999999GF100991001001999999001001MA1999999088101MD1410001+9999ME1314959REMSYN070AAXX  16154 17203 42970 00000 10340 20035 38810 48495 54000 333 10050;
0221172030999992000071618004+38860+040500FM-12+117799999V0201801N002112200019N0200001N1+02801+00651999999ADDAA199000091GA1001+999999999GF100991001001999999001001KA1999M+99999MA1999999088161MD1310061+9999ME1315029REMSYN070AAXX  16184 17203 32970 01804 10280 20065 38816 48502 53006 333 10048;EQDQ01  00002PRCP99Q02 +00482ATMX  
0162172030999992000071621004+38860+040500FM-12+117799999V0209999C000012200019N0200001N1+02381+00531999999ADDGA1001+999999999GF100991001001999999001001MA1999999088261MD1210101+9999ME1315159REMSYN070AAXX  16214 17203 42970 00000 10238 20053 38826 48515 52010 333 10055;
0162172030999992000071703004+38860+040500FM-12+117799999V0209999C000012200019N0200001N1+01901+00491999999ADDGA1001+999999999GF100991001001999999001001MA1999999088281MD1310021+9999ME1315139REMSYN070AAXX  17034 17203 42970 00000 10190 20049 38828 48513 53002 333 10071;
0241172030999992000071706004+38860+040500FM-12+117799999V0202601N001512200019N0200001N1+02641+00961999999ADDAA199000091GA1001+999999999GF100991001001999999001001IA1019IA2999+01409KA1120N+01881MA1999999088361MD1110081+9999ME1315229REMSYN088AAXX  17064 17203 32970 02603 10264 20096 38836 48522 51008 333 20188 30014 50994 55112;EQDQ01  00002PRCP99
0162172030999992000071709004+38860+040500FM-12+117799999V0202701N001512200019N0200001N1+03541+01261999999ADDGA1001+999999999GF100991001001999999001001MA1999999088221MD1710141+9999ME1315119REMSYN070AAXX  17094 17203 42970 02703 10354 20126 38822 48511 57014 333 10046;
0192172030999992000071712004+38860+040500FM-12+117799999V0209999C000012200019N0200001N1+03881+01041999999ADDAA199000091GA1001+999999999GF100991001001999999001001MA1999999088061MD1710161+9999ME1314949REMSYN070AAXX  17124 17203 32970 00000 10388 20104 38806 48494 57016 333 10032;EQDQ01  00002PRCP99
0162172030999992000071715004+38860+040500FM-12+117799999V0209999C000012200019N0200001N1+03461+00591999999ADDGA1001+999999999GF100991001001999999001001MA1999999087971MD1710091+9999ME1314829REMSYN070AAXX  17154 17203 42970 00000 10346 20059 38797 48482 57009 333 10031;
0221172030999992000071718004+38860+040500FM-12+117799999V0201601N002112200019N0200001N1+02951+00721999999ADDAA199000091GA1001+999999999GF100991001001999999001001KA1999M+99999MA1999999087971MD1410001+9999ME1314839REMSYN070AAXX  17184 17203 32970 01604 10295 20072 38797 48483 54000 333 10026;EQDQ01  00002PRCP99Q02 +00262ATMX  
0162172030999992000071721004+38860+040500FM-12+117799999V0209999C000012200019N0200001N1+02521+00341999999ADDGA1001+999999999GF100991001001999999001001MA1999999087981MD1310011+9999ME1314879REMSYN070AAXX  17214 17203 42970 00000 10252 20034 38798 48487 53001 333 10018;
0192172030999992000071800004+38860+040500FM-12+117799999V0209999C000012200019N0200001N1+02351+00301999999ADDAA199000091GA1001+999999999GF100991001001999999001001MA1999999087941MD1810041+9999ME1314849REMSYN070AAXX  18004 17203 32970 00000 10235 20030 38794 48484 58004 333 10009;EQDQ01  00002PRCP99
0152172030999992000071803004+38860+040500FM-12+117799999V0209999C000012200019N0200001N1+02201+00551999999ADDGF103991031011012501001001MA1999999087921MD1610021+9999ME1314799REMSYN076AAXX  18034 17203 42670 30000 10220 20055 38792 48479 56002 83100 333 10020;
0259172030999992000071806004+38860+040500FM-12+117799999V0209999C00001036001CN0200001N1+02901+01041999999ADDAA199000091GA1031+012009089GF105991031011012501051001IA1019IA2999+01909KA1120N+02121MA1999999087921MD1410001+9999ME1314809REMSYN106AAXX  18064 17203 32670 50000 10290 20104 38792 48480 54000 83150 333 20212 30019 51004 55106 83840 85360;EQDQ01  00002PRCP99
0174172030999992000071809004+38860+040500FM-12+117799999V0209999C00001036001CN0200001N1+03601+01441999999ADDGA1031+012009089GF105991031011012501051001MA1999999087821MD1810101+9999ME1314719REMSYN082AAXX  18094 17203 42670 50000 10360 20144 38782 48471 58010 83150 333 83840 85360;
0204172030999992000071812004+38860+040500FM-12+117799999V0203401N00211036001CN0200001N1+03861+01541999999ADDAA199000091GA1031+012009089GF106991031011012501051001MA1999999087651MD1710171+9999ME1314549REMSYN082AAXX  18124 17203 32670 63404 10386 20154 38765 48454 57017 83150 333 83840 86360;EQDQ01  00002PRCP99
0174172030999992000071815004+38860+040500FM-12+117799999V0209999C00001036001CN0200001N1+03501+01291999999ADDGA1031+012009089GF105991031011012501051001MA1999999087501MD1710151+9999ME1314369REMSYN082AAXX  18154 17203 42670 50000 10350 20129 38750 48436 57015 83150 333 83840 85360;
0223172030999992000071818004+38860+040500FM-12+117799999V0203201N00261036001CN0200001N1+03201+01011999999ADDAA199000091GA1041+011109069GF106991041041012501041001KA1120M+03881MA1999999087601MD1310101+9999ME1314489REMSYN088AAXX  18184 17203 32670 63205 10320 20101 38760 48448 53010 84440 333 10388 84637 86360;EQDQ01  00002PRCP99
0196172030999992000071821004+38860+040500FM-12+117799999V0203401N001512200019N0200001N1+02821+01221999999ADDAY181031AY211031GA1021+012009029GF102991021011012501001001MA1999999087721MD1110121+9999ME1314629MW1011REMSYN082AAXX  18214 17203 41670 23403 10282 20122 38772 48462 51012 70181 82100 333 82840;
0213172030999992000071900004+38860+040500FM-12+117799999V0209999C000012200019N0200001N1+02561+01111999999ADDAA106000791AY181061AY211061GA1011+012009029GF101991011011012501001001MA1999999087741MD1310021+9999ME1314649MW1031REMSYN088AAXX  19004 17203 11670 10000 10256 20111 38774 48464 53002 69901 70381 81100 333 81840;
0174172030999992000071903004+38860+040500FM-12+117799999V0209999C00001036001CN0200001N1+02501+01301999999ADDGA1041+010509069GF106991041041012501031001MA1999999087701MD1710041+9999ME1314589REMSYN082AAXX  19034 17203 42670 60000 10250 20130 38770 48458 57004 84430 333 84635 86360;
0240172030999992000071906004+38860+040500FM-12+117799999V0203001N004112200019N0200001N1+02941+01601999999ADDAA124000791GA1031+012009029GF103991031011012501001001IA1019IA2999+02009KA1120N+02401MA1999999087701MD1410001+9999ME1314599REMSYN106AAXX  19064 17203 32670 33008 10294 20160 38770 48459 54000 83100 333 20240 30020 51104 55093 79999 83840;
0187172030999992000071909004+38860+040500FM-12+117799999V0202701N002612200019N0200001N1+03421+01721999999ADDGA1031+060009089GF103991999001999999001061MA1999999087641MD1810061+9999ME1314539REMSYN076AAXX  19094 17203 42970 32705 10342 20172 38764 48453 58006 80006 333 83270;EQDQ01+000002SCOTLC
0204172030999992000071912004+38860+040500FM-12+117799999V0209999C00311220001CN0200001N1+03701+01541999999ADDAA199000091GA1031+012009089GF105991031011012501001061MA1999999087501MD1610141+9999ME1314399REMSYN082AAXX  19124 17203 32670 50006 10370 20154 38750 48439 56014 83106 333 83840 85270;EQDQ01  00002PRCP99
0187172030999992000071915004+38860+040500FM-12+117799999V0200401N003610600019N0200001N1+03441+01291999999ADDGA1061+060009089GF106991999001999999001061MA1999999087421MD1710081+9999ME1314309REMSYN076AAXX  19154 17203 42970 60407 10344 20129 38742 48430 57008 80006 333 86270;EQDQ01+000002SCOTLC
0205172030999992000071918004+38860+040500FM-12+117799999V0209999C000012200019N0200001N1+02801+01071999999ADDAA199000091GA1001+999999999GF100991001001999999001001KA1999M+03771MA1999999087501MD1310081+9999ME1314369REMSYN070AAXX  19184 17203 32970 00000 10280 20107 38750 48436 53008 333 10377;EQDQ01  00002PRCP99
0162172030999992000071921004+38860+040500FM-12+117799999V0209999C000012200019N0200001N1+02401+00851999999ADDGA1001+999999999GF100991001001999999001001MA1999999087601MD1110101+9999ME1314479REMSYN070AAXX  19214 17203 42970 00000 10240 20085 38760 48447 51010 333 09979;
0192172030999992000072000004+38860+040500FM-12+117799999V0201601N002112200019N0200001N1+02361+00831999999ADDAA199000091GA1001+999999999GF100991001001999999001001MA1999999087661MD1310061+9999ME1314549REMSYN070AAXX  20004 17203 32970 01604 10236 20083 38766 48454 53006 333 09982;EQDQ01  00002PRCP99
0187172030999992000072003004+38860+040500FM-12+117799999V0209999C000010300019N0200001N1+02181+01011999999ADDGA1071+030009019GF107991071001999999011999MA1999999087721MD1210061+9999ME1314589REMSYN076AAXX  20034 17203 42970 70000 10218 20101 38772 48458 52006 87010 333 87460;EQDQ01+000002SCOHCG
0259172030999992000072006004+38860+040500FM-12+117799999V0209999C00001036001CN0200001N1+02801+01171999999ADDAA199000091GA1031+012009089GF107991031011012501011001IA1019IA2999+01909KA1120N+02161MA1999999087821MD1410001+9999ME1314689REMSYN106AAXX  20064 17203 32670 70000 10280 20117 38782 48468 54000 83110 333 20216 30019 51194 55089 83840 87460;EQDQ01  00002PRCP99
0174172030999992000072009004+38860+040500FM-12+117799999V0200301N00261036001CN0200001N1+03361+01601999999ADDGA1031+012009089GF107991031011012501011001MA1999999087881MD1110061+9999ME1314759REMSYN082AAXX  20094 17203 42670 70305 10336 20160 38788 48475 51006 83110 333 83840 87460;
0192172030999992000072012004+38860+040500FM-12+117799999V0200101N002112200019N0200001N1+03521+01441999999ADDAA199000091GA1001+999999999GF100991001001999999001001MA1999999087881MD1410001+9999ME1314759REMSYN070AAXX  20124 17203 32970 00104 10352 20144 38788 48475 54000 333 10011;EQDQ01  00002PRCP99
0162172030999992000072015004+38860+040500FM-12+117799999V0200401N002612200019N0200001N1+03261+00871999999ADDGA1001+999999999GF100991001001999999001001MA1999999087881MD1410001+9999ME1314749REMSYN070AAXX  20154 17203 42970 00405 10326 20087 38788 48474 54000 333 10020;
0221172030999992000072018004+38860+040500FM-12+117799999V0209999C000012200019N0200001N1+02581+00881999999ADDAA199000091GA1001+999999999GF100991001001999999001001KA1999M+99999MA1999999088081MD1210201+9999ME1314939REMSYN070AAXX  20184 17203 32970 00000 10258 20088 38808 48493 52020 333 10043;EQDQ01  00002PRCP99Q02 +00432ATMX  
0162172030999992000072021004+38860+040500FM-12+117799999V0209999C000012200019N0200001N1+02201+00871999999ADDGA1001+999999999GF100991001001999999001001MA1999999088201MD1210121+9999ME1315079REMSYN070AAXX  20214 17203 42970 00000 10220 20087 38820 48507 52012 333 10052;
0192172030999992000072100004+38860+040500FM-12+117799999V0201601N001512200019N0200001N1+02101+00941999999ADDAA199000091GA1001+999999999GF100991001001999999001001MA1999999088281MD1110081+9999ME1315149REMSYN070AAXX  21004 17203 32970 01603 10210 20094 38828 48514 51008 333 10061;EQDQ01  00002PRCP99
0162172030999992000072103004+38860+040500FM-12+117799999V0209999C000012200019N0200001N1+01861+00881999999ADDGA1001+999999999GF100991001001999999001001MA1999999088381MD1210101+9999ME1315229REMSYN070AAXX  21034 17203 42970 00000 10186 20088 38838 48522 52010 333 10082;
0241172030999992000072106004+38860+040500FM-12+117799999V0209999C000012200019N0200001N1+02701+01331999999ADDAA199000091GA1001+999999999GF100991001001999999001001IA1019IA2999+01509KA1120N+01821MA1999999088471MD1110091+9999ME1315329REMSYN088AAXX  21064 17203 32970 00000 10270 20133 38847 48532 51009 333 20182 30015 50914 55095;EQDQ01  00002PRCP99
0162172030999992000072109004+38860+040500FM-12+117799999V0209999C000012200019N0200001N1+03301+01361999999ADDGA1001+999999999GF100991001001999999001001MA1999999088401MD1810071+9999ME1315279REMSYN070AAXX  21094 17203 42970 00000 10330 20136 38840 48527 58007 333 10075;
0192172030999992000072112004+38860+040500FM-12+117799999V0200301N002112200019N0200001N1+03521+01051999999ADDAA199000091GA1001+999999999GF100991001001999999001001MA1999999088351MD1810051+9999ME1315219REMSYN070AAXX  21124 17203 32970 00304 10352 20105 38835 48521 58005 333 10069;EQDQ01  00002PRCP99
0162172030999992000072115004+38860+040500FM-12+117799999V0200401N002112200019N0200001N1+03301+00931999999ADDGA1001+999999999GF100991001001999999001001MA1999999088301MD1610051+9999ME1315149REMSYN070AAXX  21154 17203 42970 00404 10330 20093 38830 48514 56005 333 10073;
0221172030999992000072118004+38860+040500FM-12+117799999V0209999C000012200019N0200001N1+02701+00591999999ADDAA199000091GA1001+999999999GF100991001001999999001001KA1999M+99999MA1999999088301MD1410001+9999ME1315169REMSYN070AAXX  21184 17203 32970 00000 10270 20059 38830 48516 54000 333 10068;EQDQ01  00002PRCP99Q02 +00682ATMX  
0162172030999992000072121004+38860+040500FM-12+117799999V0209999C000012200019N0200001N1+02241+00561999999ADDGA1001+999999999GF100991001001999999001001MA1999999088401MD1210101+9999ME1315279REMSYN070AAXX  21214 17203 42970 00000 10224 20056 38840 48527 52010 333 10075;
0192172030999992000072200004+38860+040500FM-12+117799999V0209999C000012200019N0200001N1+02001+00591999999ADDAA199000091GA1001+999999999GF100991001001999999001001MA1999999088481MD1210081+9999ME1315349REMSYN070AAXX  22004 17203 32970 00000 10200 20059 38848 48534 52008 333 10084;EQDQ01  00002PRCP99
0162172030999992000072203004+38860+040500FM-12+117799999V0209999C000012200019N0200001N1+01901+00611999999ADDGA1001+999999999GF100991001001999999001001MA1999999088481MD1410001+9999ME1315339REMSYN070AAXX  22034 17203 42970 00000 10190 20061 38848 48533 54000 333 10093;
0241172030999992000072206004+38860+040500FM-12+117799999V0209999C000012200019N0200001N1+02701+01051999999ADDAA199000091GA1001+999999999GF100991001001999999001001IA1019IA2999+01509KA1120N+01801MA1999999088561MD1010081+9999ME1315419REMSYN088AAXX  22064 17203 32970 00000 10270 20105 38856 48541 50008 333 20180 30015 50904 55109;EQDQ01  00002PRCP99
0162172030999992000072209004+38860+040500FM-12+117799999V0202701N001512200019N0200001N1+03501+01241999999ADDGA1001+999999999GF100991001001999999001001MA1999999088481MD1710081+9999ME1315369REMSYN070AAXX  22094 17203 42970 02703 10350 20124 38848 48536 57008 333 10080;
0182172030999992000072212004+38860+040500FM-12+117799999V0209999C000012200019N0200001N1+03701+01161999999ADDAA199000091GF102991021011012501001001MA1999999088361MD1710121+9999ME1315239REMSYN076AAXX  22124 17203 32670 20000 10370 20116 38836 48523 57012 82100 333 10071;EQDQ01  00002PRCP99
0162172030999992000072215004+38860+040500FM-12+117799999V0209999C000012200019N0200001N1+03341+01081999999ADDGA1001+999999999GF100991001001999999001001MA1999999088241MD1710121+9999ME1315099REMSYN070AAXX  22154 17203 42970 00000 10334 20108 38824 48509 57012 333 10066;
0221172030999992000072218004+38860+040500FM-12+117799999V0209999C000012200019N0200001N1+02701+01031999999ADDAA199000091GA1001+999999999GF100991001001999999001001KA1999M+99999MA1999999088241MD1410001+9999ME1315109REMSYN070AAXX  22184 17203 32970 00000 10270 20103 38824 48510 54000 333 10061;EQDQ01  00002PRCP99Q02 +00612ATMX  
0162172030999992000072221004+38860+040500FM-12+117799999V0201601N001512200019N0200001N1+02421+00831999999ADDGA1001+999999999GF100991001001999999001001MA1999999088301MD1110061+9999ME1315199REMSYN070AAXX  22214 17203 42970 01603 10242 20083 38830 48519 51006 333 10055;
0192172030999992000072300004+38860+040500FM-12+117799999V0209999C000012200019N0200001N1+02181+00621999999ADDAA199000091GA1001+999999999GF100991001001999999001001MA1999999088301MD1410001+9999ME1315199REMSYN070AAXX  23004 17203 32970 00000 10218 20062 38830 48519 54000 333 10059;EQDQ01  00002PRCP99
0162172030999992000072303004+38860+040500FM-12+117799999V0209999C000012200019N0200001N1+02001+00681999999ADDGA1001+999999999GF100991001001999999001001MA1999999088301MD1410001+9999ME1315169REMSYN070AAXX  23034 17203 42970 00000 10200 20068 38830 48516 54000 333 10068;
0241172030999992000072306004+38860+040500FM-12+117799999V0209999C000012200019N0200001N1+02681+01231999999ADDAA199000091GA1001+999999999GF100991001001999999001001IA1019IA2999+01709KA1120N+01971MA1999999088381MD1310081+9999ME1315249REMSYN088AAXX  23064 17203 32970 00000 10268 20123 38838 48524 53008 333 20197 30017 50924 55105;EQDQ01  00002PRCP99
0162172030999992000072309004+38860+040500FM-12+117799999V0200401N002112200019N0000001N1+03501+01451999999ADDGA1001+999999999GF100991001001999999001001MA1999999088341MD1810041+9999ME1315239REMSYN070AAXX  23094 17203 42900 00404 10350 20145 38834 48523 58004 333 10059;
0192172030999992000072312004+38860+040500FM-12+117799999V0200701N002612200019N0200001N1+03651+01231999999ADDAA199000091GA1001+999999999GF100991001001999999001001MA1999999088231MD1710111+9999ME1315119REMSYN070AAXX  23124 17203 32970 00705 10365 20123 38823 48511 57011 333 10051;EQDQ01  00002PRCP99
0162172030999992000072315004+38860+040500FM-12+117799999V0209999C000012200019N0200001N1+03241+01201999999ADDGA1001+999999999GF100991001001999999001001MA1999999088181MD1810051+9999ME1315039REMSYN070AAXX  23154 17203 42970 00000 10324 20120 38818 48503 58005 333 10059;
0221172030999992000072318004+38860+040500FM-12+117799999V0209999C000012200019N0200001N1+02701+01051999999ADDAA199000091GA1001+999999999GF100991001001999999001001KA1999M+99999MA1999999088131MD1610051+9999ME1314989REMSYN070AAXX  23184 17203 32970 00000 10270 20105 38813 48498 56005 333 10049;EQDQ01  00002PRCP99Q02 +00492ATMX  
0162172030999992000072321004+38860+040500FM-12+117799999V0209999C000012200019N0200001N1+02301+00831999999ADDGA1001+999999999GF100991001001999999001001MA1999999088201MD1110071+9999ME1315089REMSYN070AAXX  23214 17203 42970 00000 10230 20083 38820 48508 51007 333 10048;
0192172030999992000072400004+38860+040500FM-12+117799999V0209999C000012200019N0200001N1+02121+00431999999ADDAA199000091GA1001+999999999GF100991001001999999001001MA1999999088221MD1110021+9999ME1315109REMSYN070AAXX  24004 17203 32970 00000 10212 20043 38822 48510 51002 333 10050;EQDQ01  00002PRCP99
0162172030999992000072403004+38860+040500FM-12+117799999V0209999C000012200019N0200001N1+01861+00491999999ADDGA1001+999999999GF100991001001999999001001MA1999999088241MD1310021+9999ME1315089REMSYN070AAXX  24034 17203 42970 00000 10186 20049 38824 48508 53002 333 10066;
0241172030999992000072406004+38860+040500FM-12+117799999V0209999C000012200019N0200001N1+02721+01121999999ADDAA199000091GA1001+999999999GF100991001001999999001001IA1019IA2999+01409KA1120N+01801MA1999999088261MD1110021+9999ME1315129REMSYN088AAXX  24064 17203 32970 00000 10272 20112 38826 48512 51002 333 20180 30014 50854 55105;EQDQ01  00002PRCP99
0162172030999992000072409004+38860+040500FM-12+117799999V0200701N001512200019N0200001N1+03401+01301999999ADDGA1001+999999999GF100991001001999999001001MA1999999088181MD1810081+9999ME1315059REMSYN070AAXX  24094 17203 42970 00703 10340 20130 38818 48505 58008 333 10050;
0192172030999992000072412004+38860+040500FM-12+117799999V0200301N002112200019N0200001N1+03501+01021999999ADDAA199000091GA1001+999999999GF100991001001999999001001MA1999999088081MD1710101+9999ME1314949REMSYN070AAXX  24124 17203 32970 00304 10350 20102 38808 48494 57010 333 10039;EQDQ01  00002PRCP99
0162172030999992000072415004+38860+040500FM-12+117799999V0209999C000012200019N0200001N1+03161+00891999999ADDGA1001+999999999GF100991001001999999001001MA1999999088031MD1810051+9999ME1314879REMSYN070AAXX  24154 17203 42970 00000 10316 20089 38803 48487 58005 333 10047;
0221172030999992000072418004+38860+040500FM-12+117799999V0209999C000012200019N0200001N1+02701+00691999999ADDAA199000091GA1001+999999999GF100991001001999999001001KA1999M+99999MA1999999088001MD1610031+9999ME1314779REMSYN070AAXX  24184 17203 32970 00000 10270 20069 38800 48477 56003 333 10034;EQDQ01  00002PRCP99Q02 +00342ATMX  
0162172030999992000072421004+38860+040500FM-12+117799999V0209999C000012200019N0200001N1+02201+00501999999ADDGA1001+999999999GF100991001001999999001001MA1999999088121MD1310121+9999ME1314999REMSYN070AAXX  24214 17203 42970 00000 10220 20050 38812 48499 53012 333 10043;
0192172030999992000072500004+38860+040500FM-12+117799999V0209999C000012200019N0200001N1+02101+00551999999ADDAA199000091GA1001+999999999GF100991001001999999001001MA1999999088161MD1210041+9999ME1315029REMSYN070AAXX  25004 17203 32970 00000 10210 20055 38816 48502 52004 333 10048;EQDQ01  00002PRCP99
0162172030999992000072503004+38860+040500FM-12+117799999V0209999C000012200019N0200001N1+01961+00631999999ADDGA1001+999999999GF100991001001999999001001MA1999999088241MD1210081+9999ME1315089REMSYN070AAXX  25034 17203 42970 00000 10196 20063 38824 48508 52008 333 10066;
0241172030999992000072506004+38860+040500FM-12+117799999V0200201N001512200019N0200001N1+02601+01241999999ADDAA199000091GA1001+999999999GF100991001001999999001001IA1019IA2999+01409KA1120N+01801MA1999999088381MD1210141+9999ME1315239REMSYN088AAXX  25064 17203 32970 00203 10260 20124 38838 48523 52014 333 20180 30014 50894 55107;EQDQ01  00002PRCP99
0162172030999992000072509004+38860+040500FM-12+117799999V0202701N001512200019N0200001N1+03321+01271999999ADDGA1001+999999999GF100991001001999999001001MA1999999088321MD1710061+9999ME1315199REMSYN070AAXX  25094 17203 42970 02703 10332 20127 38832 48519 57006 333 10066;
0192172030999992000072512004+38860+040500FM-12+117799999V0200901N001512200019N0200001N1+03551+01031999999ADDAA199000091GA1001+999999999GF100991001001999999001001MA1999999088231MD1710091+9999ME1315119REMSYN070AAXX  25124 17203 32970 00903 10355 20103 38823 48511 57009 333 10056;EQDQ01  00002PRCP99
0162172030999992000072515004+38860+040500FM-12+117799999V0200701N001512200019N0200001N1+03221+00801999999ADDGA1001+999999999GF100991001001999999001001MA1999999088141MD1710091+9999ME1314999REMSYN070AAXX  25154 17203 42970 00703 10322 20080 38814 48499 57009 333 10055;
0221172030999992000072518004+38860+040500FM-12+117799999V0201601N001512200019N0200001N1+02641+00741999999ADDAA199000091GA1001+999999999GF100991001001999999001001KA1999M+99999MA1999999088201MD1310061+9999ME1315059REMSYN070AAXX  25184 17203 32970 01603 10264 20074 38820 48505 53006 333 10061;EQDQ01  00002PRCP99Q02 +00612ATMX  
0162172030999992000072521004+38860+040500FM-12+117799999V0209999C000012200019N0200001N1+02281+00671999999ADDGA1001+999999999GF100991001001999999001001MA1999999088341MD1210141+9999ME1315219REMSYN070AAXX  25214 17203 42970 00000 10228 20067 38834 48521 52014 333 10068;
0192172030999992000072600004+38860+040500FM-12+117799999V0209999C000012200019N0200001N1+02101+00821999999ADDAA199000091GA1001+999999999GF100991001001999999001001MA1999999088351MD1110011+9999ME1315239REMSYN070AAXX  26004 17203 32970 00000 10210 20082 38835 48523 51001 333 10069;EQDQ01  00002PRCP99
0162172030999992000072603004+38860+040500FM-12+117799999V0209999C000012200019N0200001N1+01941+00821999999ADDGA1001+999999999GF100991001001999999001001MA1999999088381MD1310031+9999ME1315229REMSYN070AAXX  26034 17203 42970 00000 10194 20082 38838 48522 53003 333 10082;
0241172030999992000072606004+38860+040500FM-12+117799999V0209999C000012200019N0200001N1+02801+01341999999ADDAA199000091GA1001+999999999GF100991001001999999001001IA1019IA2999+01509KA1120N+01881MA1999999088421MD1210041+9999ME1315289REMSYN088AAXX  26064 17203 32970 00000 10280 20134 38842 48528 52004 333 20188 30015 50864 55104;EQDQ01  00002PRCP99
0162172030999992000072609004+38860+040500FM-12+117799999V0209999C000012200019N0200001N1+03481+01611999999ADDGA1001+999999999GF100991001001999999001001MA1999999088361MD1810061+9999ME1315249REMSYN070AAXX  26094 17203 42970 00000 10348 20161 38836 48524 58006 333 10066;
0192172030999992000072612004+38860+040500FM-12+117799999V0209999C000012200019N0200001N1+03661+01271999999ADDAA199000091GA1001+999999999GF100991001001999999001001MA1999999088241MD1710121+9999ME1315129REMSYN070AAXX  26124 17203 32970 00000 10366 20127 38824 48512 57012 333 10052;EQDQ01  00002PRCP99
0162172030999992000072615004+38860+040500FM-12+117799999V0209999C000012200019N0200001N1+03321+00871999999ADDGA1001+999999999GF100991001001999999001001MA1999999088161MD1710081+9999ME1315019REMSYN070AAXX  26154 17203 42970 00000 10332 20087 38816 48501 57008 333 10057;
0221172030999992000072618004+38860+040500FM-12+117799999V0201601N001512200019N0200001N1+02741+00751999999ADDAA199000091GA1001+999999999GF100991001001999999001001KA1999M+99999MA1999999088221MD1310061+9999ME1315089REMSYN070AAXX  26184 17203 32970 01603 10274 20075 38822 48508 53006 333 10055;EQDQ01  00002PRCP99Q02 +00552ATMX  
0162172030999992000072621004+38860+040500FM-12+117799999V0209999C000012200019N0020001N1+02261+00921999999ADDGA1001+999999999GF100991001001999999001001MA1999999088251MD1110031+9999ME1315049REMSYN070AAXX  26214 17203 42920 00000 10226 20092 38825 48504 51003 333 10054;
0192172030999992000072700004+38860+040500FM-12+117799999V0201601N001512200019N0200001N1+02261+01031999999ADDAA199000091GA1001+999999999GF100991001001999999001001MA1999999088251MD1410001+9999ME1315149REMSYN070AAXX  27004 17203 32970 01603 10226 20103 38825 48514 54000 333 10049;EQDQ01  00002PRCP99
0162172030999992000072703004+38860+040500FM-12+117799999V0209999C000012200019N0200001N1+02101+01031999999ADDGA1001+999999999GF100991001001999999001001MA1999999088301MD1210051+9999ME1314889REMSYN070AAXX  27034 17203 42970 00000 10210 20103 38830 48488 52005 333 10068;
0241172030999992000072706004+38860+040500FM-12+117799999V0209999C000012200019N0200001N1+02761+01481999999ADDAA199000091GA1001+999999999GF100991001001999999001001IA1019IA2999+01709KA1120N+02061MA1999999088371MD1210071+9999ME1315239REMSYN088AAXX  27064 17203 32970 00000 10276 20148 38837 48523 52007 333 20206 30017 50814 55103;EQDQ01  00002PRCP99
0162172030999992000072709004+38860+040500FM-12+117799999V0209999C000012200019N0200001N1+03521+01701999999ADDGA1001+999999999GF100991001001999999001001MA1999999088301MD1810071+9999ME1315189REMSYN070AAXX  27094 17203 42970 00000 10352 20170 38830 48518 58007 333 10059;
0182172030999992000072712004+38860+040500FM-12+117799999V0200401N001512200019N0200001N1+03781+01241999999ADDAA199000091GF102991021011012501001001MA1999999088161MD1710141+9999ME1315059REMSYN076AAXX  27124 17203 32670 20403 10378 20124 38816 48505 57014 82100 333 10039;EQDQ01  00002PRCP99
0162172030999992000072715004+38860+040500FM-12+117799999V0209999C000012200019N0200001N1+03421+01291999999ADDGA1001+999999999GF100991001001999999001001MA1999999088041MD1710121+9999ME1314909REMSYN070AAXX  27154 17203 42970 00000 10342 20129 38804 48490 57012 333 10034;
0221172030999992000072718004+38860+040500FM-12+117799999V0201601N001512200019N0200001N1+02781+00951999999ADDAA199000091GA1001+999999999GF100991001001999999001001KA1999M+99999MA1999999088061MD1310021+9999ME1314929REMSYN070AAXX  27184 17203 32970 01603 10278 20095 38806 48492 53002 333 10036;EQDQ01  00002PRCP99Q02 +00362ATMX  
0162172030999992000072721004+38860+040500FM-12+117799999V0201601N001512200019N0200001N1+02501+00851999999ADDGA1001+999999999GF100991001001999999001001MA1999999088121MD1110061+9999ME1315019REMSYN070AAXX  27214 17203 42970 01603 10250 20085 38812 48501 51006 333 10034;
0192172030999992000072800004+38860+040500FM-12+117799999V0209999C000012200019N0200001N1+02301+00791999999ADDAA199000091GA1001+999999999GF100991001001999999001001MA1999999088141MD1310021+9999ME1315039REMSYN070AAXX  28004 17203 32970 00000 10230 20079 38814 48503 53002 333 10037;EQDQ01  00002PRCP99
0162172030999992000072803004+38860+040500FM-12+117799999V0209999C000012200019N0200001N1+02101+00731999999ADDGA1001+999999999GF100991001001999999001001MA1999999088201MD1210061+9999ME1315069REMSYN070AAXX  28034 17203 42970 00000 10210 20073 38820 48506 52006 333 10052;
0241172030999992000072806004+38860+040500FM-12+117799999V0209999C000012200019N0200001N1+02801+01461999999ADDAA199000091GA1001+999999999GF100991001001999999001001IA1019IA2999+01709KA1120N+02081MA1999999088301MD1210101+9999ME1315179REMSYN088AAXX  28064 17203 32970 00000 10280 20146 38830 48517 52010 333 20208 30017 50894 55100;EQDQ01  00002PRCP99
0162172030999992000072809004+38860+040500FM-12+117799999V0209999C000012200019N0200001N1+03551+01581999999ADDGA1001+999999999GF100991001001999999001001MA1999999088251MD1810051+9999ME1315159REMSYN070AAXX  28094 17203 42970 00000 10355 20158 38825 48515 58005 333 10049;
0192172030999992000072812004+38860+040500FM-12+117799999V0201301N001512200019N0200001N1+03801+01361999999ADDAA199000091GA1001+999999999GF100991001001999999001001MA1999999088151MD1710101+9999ME1315049REMSYN070AAXX  28124 17203 32970 01303 10380 20136 38815 48504 57010 333 10038;EQDQ01  00002PRCP99
0162172030999992000072815004+38860+040500FM-12+117799999V0201601N001512200019N0200001N1+03481+00991999999ADDGA1001+999999999GF100991001001999999001001MA1999999088071MD1710081+9999ME1314949REMSYN070AAXX  28154 17203 42970 01603 10348 20099 38807 48494 57008 333 10037;
0221172030999992000072818004+38860+040500FM-12+117799999V0201601N003612200019N0200001N1+02841+00911999999ADDAA199000091GA1001+999999999GF100991001001999999001001KA1999M+99999MA1999999088161MD1310091+9999ME1315049REMSYN070AAXX  28184 17203 32970 01607 10284 20091 38816 48504 53009 333 10048;EQDQ01  00002PRCP99Q02 +00482ATMX  
0162172030999992000072821004+38860+040500FM-12+117799999V0201601N002112200019N0200001N1+02541+00681999999ADDGA1001+999999999GF100991001001999999001001MA1999999088281MD1210121+9999ME1315189REMSYN070AAXX  28214 17203 42970 01604 10254 20068 38828 48518 52012 333 10052;
0192172030999992000072900004+38860+040500FM-12+117799999V0201601N002112200019N0200001N1+02431+00911999999ADDAA199000091GA1001+999999999GF100991001001999999001001MA1999999088321MD1310051+9999ME1315239REMSYN070AAXX  29004 17203 32970 01604 10243 20091 38832 48523 53005 333 10053;EQDQ01  00002PRCP99
0162172030999992000072903004+38860+040500FM-12+117799999V0209999C000012200019N0200001N1+02181+00921999999ADDGA1001+999999999GF100991001001999999001001MA1999999088431MD1210111+9999ME1315319REMSYN070AAXX  29034 17203 42970 00000 10218 20092 38843 48531 52011 333 10079;
0241172030999992000072906004+38860+040500FM-12+117799999V0209999C000012200019N0200001N1+02821+01411999999ADDAA199000091GA1001+999999999GF100991001001999999001001IA1019IA2999+01709KA1120N+02061MA1999999088571MD1210141+9999ME1315459REMSYN088AAXX  29064 17203 32970 00000 10282 20141 38857 48545 52014 333 20206 30017 51004 55102;EQDQ01  00002PRCP99
0162172030999992000072909004+38860+040500FM-12+117799999V0209999C000012200019N0200001N1+03681+01501999999ADDGA1001+999999999GF100991001001999999001001MA1999999088571MD1410001+9999ME1315489REMSYN070AAXX  29094 17203 42970 00000 10368 20150 38857 48548 54000 333 10081;
0192172030999992000072912004+38860+040500FM-12+117799999V0200301N001512200019N0200001N1+03821+01171999999ADDAA199000091GA1001+999999999GF100991001001999999001001MA1999999088461MD1810111+9999ME1315389REMSYN070AAXX  29124 17203 32970 00303 10382 20117 38846 48538 58011 333 10069;EQDQ01  00002PRCP99
0162172030999992000072915004+38860+040500FM-12+117799999V0201601N001512200019N0200001N1+03701+01221999999ADDGA1001+999999999GF100991001001999999001001MA1999999088401MD1610021+9999ME1315299REMSYN070AAXX  29154 17203 42970 01603 10370 20122 38840 48529 56002 333 10071;
0221172030999992000072918004+38860+040500FM-12+117799999V0209999C000012200019N0200001N1+02901+00711999999ADDAA199000091GA1001+999999999GF100991001001999999001001KA1999M+99999MA1999999088501MD1310101+9999ME1315389REMSYN070AAXX  29184 17203 32970 00000 10290 20071 38850 48538 53010 333 10082;EQDQ01  00002PRCP99Q02 +00822ATMX  
0162172030999992000072921004+38860+040500FM-12+117799999V0209999C000012200019N0200001N1+02501+00761999999ADDGA1001+999999999GF100991001001999999001001MA1999999088601MD1110101+9999ME1315519REMSYN070AAXX  29214 17203 42970 00000 10250 20076 38860 48551 51010 333 10085;
0192172030999992000073000004+38860+040500FM-12+117799999V0201601N001512200019N0200001N1+02201+00641999999ADDAA199000091GA1001+999999999GF100991001001999999001001MA1999999088601MD1410001+9999ME1315509REMSYN070AAXX  30004 17203 32970 01603 10220 20064 38860 48550 54000 333 10089;EQDQ01  00002PRCP99
0162172030999992000073003004+38860+040500FM-12+117799999V0209999C000012200019N0200001N1+02061+00601999999ADDGA1001+999999999GF100991001001999999001001MA1999999088641MD1310041+9999ME1315529REMSYN070AAXX  30034 17203 42970 00000 10206 20060 38864 48552 53004 333 10098;
0241172030999992000073006004+38860+040500FM-12+117799999V0209999C000012200019N0200001N1+02861+01151999999ADDAA199000091GA1001+999999999GF100991001001999999001001IA1019IA2999+01609KA1120N+02001MA1999999088781MD1210141+9999ME1315659REMSYN088AAXX  30064 17203 32970 00000 10286 20115 38878 48565 52014 333 20200 30016 50984 55101;EQDQ01  00002PRCP99
0162172030999992000073009004+38860+040500FM-12+117799999V0209999C000012200019N0200001N1+03601+01511999999ADDGA1001+999999999GF100991001001999999001001MA1999999088701MD1810081+9999ME1315619REMSYN070AAXX  30094 17203 42970 00000 10360 20151 38870 48561 58008 333 10100;
0182172030999992000073012004+38860+040500FM-12+117799999V0209999C000012200019N0200001N1+04001+01411999999ADDAA199000091GF103991031011012501001001MA1999999088601MD1710101+9999ME1315529REMSYN076AAXX  30124 17203 32670 30000 10400 20141 38860 48552 57010 83100 333 10085;EQDQ01  00002PRCP99
0152172030999992000073015004+38860+040500FM-12+117799999V0209999C000012200019N0200001N1+03501+01201999999ADDGF102991021011012501001001MA1999999088481MD1710121+9999ME1315359REMSYN076AAXX  30154 17203 42670 20000 10350 20120 38848 48535 57012 82100 333 10084;
0221172030999992000073018004+38860+040500FM-12+117799999V0209999C000012200019N0200001N1+03001+00871999999ADDAA199000091GA1001+999999999GF100991001001999999001001KA1999M+99999MA1999999088481MD1410001+9999ME1315389REMSYN070AAXX  30184 17203 32970 00000 10300 20087 38848 48538 54000 333 10080;EQDQ01  00002PRCP99Q02 +00802ATMX  
0162172030999992000073021004+38860+040500FM-12+117799999V0209999C000012200019N0200001N1+02641+00741999999ADDGA1001+999999999GF100991001001999999001001MA1999999088481MD1410001+9999ME1315399REMSYN070AAXX  30214 17203 42970 00000 10264 20074 38848 48539 54000 333 10071;
0192172030999992000073100004+38860+040500FM-12+117799999V0201601N002112200019N0200001N1+02621+00701999999ADDAA199000091GA1001+999999999GF100991001001999999001001MA1999999088541MD1310061+9999ME1315479REMSYN070AAXX  31004 17203 32970 01604 10262 20070 38854 48547 53006 333 10069;EQDQ01  00002PRCP99
0162172030999992000073103004+38860+040500FM-12+117799999V0209999C000012200019N0200001N1+02401+00701999999ADDGA1001+999999999GF100991001001999999001001MA1999999088541MD1410001+9999ME1315439REMSYN070AAXX  31034 17203 42970 00000 10240 20070 38854 48543 54000 333 10082;
0253172030999992000073106004+38860+040500FM-12+117799999V0209999C000012200019N0200001N1+03021+01441999999ADDAA199000091GA1021+012009029GF102991021011012501001001IA1019IA2999+02009KA1120N+02341MA1999999088621MD1310081+9999ME1315529REMSYN100AAXX  31064 17203 32670 20000 10302 20144 38862 48552 53008 82100 333 20234 30020 51024 55099 82840;EQDQ01  00002PRCP99
0152172030999992000073109004+38860+040500FM-12+117799999V0202501N001512200019N0200001N1+03741+01881999999ADDGF102991021011012501001001MA1999999088541MD1810081+9999ME1315469REMSYN076AAXX  31094 17203 42670 22503 10374 20188 38854 48546 58008 82100 333 10073;
0182172030999992000073112004+38860+040500FM-12+117799999V0209999C000012200019N0200001N1+03941+01441999999ADDAA199000091GF102991021011012501001001MA1999999088381MD1710161+9999ME1315319REMSYN076AAXX  31124 17203 32670 20000 10394 20144 38838 48531 57016 82100 333 10059;EQDQ01  00002PRCP99
0152172030999992000073115004+38860+040500FM-12+117799999V0209999C000012200019N0200001N1+03601+01181999999ADDGF104991041021012501001001MA1999999088291MD1710091+9999ME1315189REMSYN076AAXX  31154 17203 42670 40000 10360 20118 38829 48518 57009 84200 333 10054;
0221172030999992000073118004+38860+040500FM-12+117799999V0201601N001512200019N0200001N1+02901+00901999999ADDAA199000091GA1001+999999999GF100991001001999999001001KA1999M+99999MA1999999088301MD1310011+9999ME1315199REMSYN070AAXX  31184 17203 32970 01603 10290 20090 38830 48519 53001 333 10055;EQDQ01  00002PRCP99Q02 +00552ATMX  
0162172030999992000073121004+38860+040500FM-12+117799999V0209999C000012200019N0200001N1+02801+00981999999ADDGA1001+999999999GF100991001001999999001001MA1999999088381MD1110081+9999ME1315319REMSYN070AAXX  31214 17203 42970 00000 10280 20098 38838 48531 51008 333 10051;
0192172030999992000080100004+38860+040500FM-12+117799999V0209999C000012200019N0200001N1+02301+00961999999ADDAA199000091GA1001+999999999GF100991001001999999001001MA1999999088361MD1610021+9999ME1315279REMSYN070AAXX  01004 17203 32970 00000 10230 20096 38836 48527 56002 333 10057;EQDQ01  00002PRCP99
0162172030999992000080103004+38860+040500FM-12+117799999V0209999C000012200019N0200001N1+02121+00761999999ADDGA1001+999999999GF100991001001999999001001MA1999999088361MD1410001+9999ME1315249REMSYN070AAXX  01034 17203 42970 00000 10212 20076 38836 48524 54000 333 10066;
0241172030999992000080106004+38860+040500FM-12+117799999V0209999C000012200019N0200001N1+02751+01141999999ADDAA199000091GA1001+999999999GF100991001001999999001001IA1019IA2999+01609KA1120N+02081MA1999999088381MD1110021+9999ME1315269REMSYN088AAXX  01064 17203 32970 00000 10275 20114 38838 48526 51002 333 20208 30016 51184 55093;EQDQ01  00002PRCP99
0162172030999992000080109004+38860+040500FM-12+117799999V0203101N001512200019N0200001N1+03621+01581999999ADDGA1001+999999999GF100991001001999999001001MA1999999088251MD1810131+9999ME1315179REMSYN070AAXX  01094 17203 42970 03103 10362 20158 38825 48517 58013 333 10040;
0182172030999992000080112004+38860+040500FM-12+117799999V0200701N003112200019N0200001N1+03751+00981999999ADDAA199000091GF102991021011012501001001MA1999999088121MD1710131+9999ME1315009REMSYN076AAXX  01124 17203 32670 20706 10375 20098 38812 48500 57013 82100 333 10034;EQDQ01  00002PRCP99
0162172030999992000080115004+38860+040500FM-12+117799999V0201001N001512200019N0200001N1+03361+00631999999ADDGA1001+999999999GF100991001001999999001001MA1999999087981MD1710141+9999ME1314849REMSYN070AAXX  01154 17203 42970 01003 10336 20063 38798 48484 57014 333 10032;
0221172030999992000080118004+38860+040500FM-12+117799999V0209999C000012200019N0200001N1+02801+00501999999ADDAA199000091GA1001+999999999GF100991001001999999001001KA1999M+99999MA1999999087951MD1610031+9999ME1314809REMSYN070AAXX  01184 17203 32970 00000 10280 20050 38795 48480 56003 333 10024;EQDQ01  00002PRCP99Q02 +00242ATMX  
0162172030999992000080121004+38860+040500FM-12+117799999V0209999C000012200019N0200001N1+02201+00291999999ADDGA1001+999999999GF100991001001999999001001MA1999999088021MD1110071+9999ME1314909REMSYN070AAXX  01214 17203 42970 00000 10220 20029 38802 48490 51007 333 10027;
0192172030999992000080200004+38860+040500FM-12+117799999V0209999C000012200019N0200001N1+02001+00451999999ADDAA199000091GA1001+999999999GF100991001001999999001001MA1999999088001MD1810021+9999ME1314869REMSYN070AAXX  02004 17203 32970 00000 10200 20045 38800 48486 58002 333 10030;EQDQ01  00002PRCP99
0162172030999992000080203004+38860+040500FM-12+117799999V0209999C000012200019N0200001N1+01801+00301999999ADDGA1001+999999999GF100991001001999999001001MA1999999088001MD1410001+9999ME1314849REMSYN070AAXX  02034 17203 42970 00000 10180 20030 38800 48484 54000 333 10039;
0241172030999992000080206004+38860+040500FM-12+117799999V0209999C000012200019N0200001N1+02601+01121999999ADDAA199000091GA1001+999999999GF100991001001999999001001IA1019IA2999+01409KA1120N+01801MA1999999088001MD1410001+9999ME1314929REMSYN088AAXX  02064 17203 32970 00000 10260 20112 38800 48492 54000 333 20180 30014 51104 55101;EQDQ01  00002PRCP99
0162172030999992000080209004+38860+040500FM-12+117799999V0200701N003612200019N0200001N1+03401+01091999999ADDGA1001+999999999GF100991001001999999001001MA1999999087881MD1810121+9999ME1314759REMSYN070AAXX  02094 17203 42970 00707 10340 20109 38788 48475 58012 333 10016;
0192172030999992000080212004+38860+040500FM-12+117799999V0200701N003612200019N0200001N1+03511+01021999999ADDAA199000091GA1001+999999999GF100991001001999999001001MA1999999087811MD1710071+9999ME1314669REMSYN070AAXX  02124 17203 32970 00707 10351 20102 38781 48466 57007 333 10008;EQDQ01  00002PRCP99
0162172030999992000080215004+38860+040500FM-12+117799999V0201201N002112200019N0200001N1+03101+00491999999ADDGA1001+999999999GF100991001001999999001001MA1999999087701MD1710111+9999ME1314539REMSYN070AAXX  02154 17203 42970 01204 10310 20049 38770 48453 57011 333 10009;
0221172030999992000080218004+38860+040500FM-12+117799999V0201601N002112200019N0200001N1+02661+00681999999ADDAA199000091GA1001+999999999GF100991001001999999001001KA1999M+99999MA1999999087741MD1310041+9999ME1314589REMSYN070AAXX  02184 17203 32970 01604 10266 20068 38774 48458 53004 333 10009;EQDQ01  00002PRCP99Q02 +00092ATMX  
0162172030999992000080221004+38860+040500FM-12+117799999V0201601N002112200019N0200001N1+02281+00721999999ADDGA1001+999999999GF100991001001999999001001MA1999999087921MD1210181+9999ME1314799REMSYN070AAXX  02214 17203 42970 01604 10228 20072 38792 48479 52018 333 10020;
0192172030999992000080300004+38860+040500FM-12+117799999V0201601N002612200019N0200001N1+02001+00981999999ADDAA199000091GA1001+999999999GF100991001001999999001001MA1999999088041MD1110121+9999ME1314909REMSYN070AAXX  03004 17203 32970 01605 10200 20098 38804 48490 51012 333 10034;EQDQ01  00002PRCP99
0162172030999992000080303004+38860+040500FM-12+117799999V0201601N001512200019N0200001N1+01841+00981999999ADDGA1001+999999999GF100991001001999999001001MA1999999088071MD1310031+9999ME1314909REMSYN070AAXX  03034 17203 42970 01603 10184 20098 38807 48490 53003 333 10051;
0241172030999992000080306004+38860+040500FM-12+117799999V0201601N002612200019N0200001N1+02301+01381999999ADDAA199000091GA1001+999999999GF100991001001999999001001IA1019IA2999+01509KA1120N+01801MA1999999088151MD1210081+9999ME1314989REMSYN088AAXX  03064 17203 32970 01605 10230 20138 38815 48498 52008 333 20180 30015 51024 55100;EQDQ01  00002PRCP99
0152172030999992000080309004+38860+040500FM-12+117799999V0201601N002112200019N0200001N1+02801+01421999999ADDGF102991021011012501001001MA1999999088081MD1810071+9999ME1314929REMSYN076AAXX  03094 17203 42670 21604 10280 20142 38808 48492 58007 82100 333 10052;
0182172030999992000080312004+38860+040500FM-12+117799999V0202701N003112200019N0200001N1+03001+01441999999ADDAA199000091GF102991021011012501001001MA1999999087981MD1710101+9999ME1314819REMSYN076AAXX  03124 17203 32670 22706 10300 20144 38798 48481 57010 82100 333 10041;EQDQ01  00002PRCP99
0152172030999992000080315004+38860+040500FM-12+117799999V0201601N002612200019N0200001N1+02541+01081999999ADDGF102991021011012501001001MA1999999087881MD1710101+9999ME1314689REMSYN076AAXX  03154 17203 42670 21605 10254 20108 38788 48468 57010 82100 333 10044;
0217172030999992000080318004+38860+040500FM-12+117799999V0201501N005712200019N0200001N1+02101+00991999999ADDAA199000091GA1011+012009029GF101991011011012501001001KA1120M+03021MA1999999088121MD1210241+9999ME1314929REMSYN082AAXX  03184 17203 32670 11511 10210 20099 38812 48492 52024 81100 333 10302 81840;EQDQ01  00002PRCP99
0162172030999992000080321004+38860+040500FM-12+117799999V0201501N004612200019N0200001N1+02021+00961999999ADDGA1001+999999999GF100991001001999999001001MA1999999088221MD1210111+9999ME1315049REMSYN070AAXX  03214 17203 42970 01509 10202 20096 38822 48504 52011 333 10073;
0192172030999992000080400004+38860+040500FM-12+117799999V0201601N003112200019N0200001N1+01921+00941999999ADDAA199000091GA1001+999999999GF100991001001999999001001MA1999999088201MD1810021+9999ME1315039REMSYN070AAXX  04004 17203 32970 01606 10192 20094 38820 48503 58002 333 10066;EQDQ01  00002PRCP99
0162172030999992000080403004+38860+040500FM-12+117799999V0201501N002612200019N0200001N1+01901+00991999999ADDGA1001+999999999GF100991001001999999001001MA1999999088201MD1410001+9999ME1315009REMSYN070AAXX  04034 17203 42970 01505 10190 20099 38820 48500 54000 333 10080;
0241172030999992000080406004+38860+040500FM-12+117799999V0201601N002612200019N0200001N1+02301+01121999999ADDAA199000091GA1001+999999999GF100991001001999999001001IA1019IA2999+01509KA1120N+01801MA1999999088301MD1210101+9999ME1315109REMSYN088AAXX  04064 17203 32970 01605 10230 20112 38830 48510 52010 333 20180 30015 50884 55100;EQDQ01  00002PRCP99
0152172030999992000080409004+38860+040500FM-12+117799999V0202501N002612200019N0200001N1+02601+01241999999ADDGF104991041021012501001001MA1999999088161MD1710141+9999ME1314979REMSYN076AAXX  04094 17203 42670 42505 10260 20124 38816 48497 57014 84200 333 10071;
0182172030999992000080412004+38860+040500FM-12+117799999V0202501N002110120019N0200001N1+02811+01341999999ADDAA199000091GF106991061021012501001001MA1999999087961MD1710201+9999ME1314779REMSYN076AAXX  04124 17203 32670 62504 10281 20134 38796 48477 57020 86200 333 10043;EQDQ01  00002PRCP99
0152172030999992000080415004+38860+040500FM-12+117799999V0201601N003112200019N0200001N1+02581+01401999999ADDGF104991041021012501001001MA1999999087931MD1610031+9999ME1314749REMSYN076AAXX  04154 17203 42670 41606 10258 20140 38793 48474 56003 84200 333 10049;
0223172030999992000080418004+38860+040500FM-12+117799999V0209999C00001036001CN0200001N1+02331+01181999999ADDAA199000091GA1041+012009089GF106991041021012501051001KA1120M+02861MA1999999088101MD1110071+9999ME1314919REMSYN088AAXX  04184 17203 32670 60000 10233 20118 38810 48491 51007 84250 333 10286 84840 86360;EQDQ01  00002PRCP99
0152172030999992000080421004+38860+040500FM-12+117799999V0209999C000012200019N0200001N1+02201+01071999999ADDGF103991031011012501001001MA1999999088201MD1110101+9999ME1315029REMSYN076AAXX  04214 17203 42670 30000 10220 20107 38820 48502 51010 83100 333 10071;
0182172030999992000080500004+38860+040500FM-12+117799999V0201601N002112200019N0200001N1+02101+01031999999ADDAA199000091GF102991021011012501001001MA1999999088161MD1810041+9999ME1314989REMSYN076AAXX  05004 17203 32670 21604 10210 20103 38816 48498 58004 82100 333 10061;EQDQ01  00002PRCP99
0162172030999992000080503004+38860+040500FM-12+117799999V0201601N002112200019N0200001N1+01981+01111999999ADDGA1001+999999999GF100991001001999999001001MA1999999088071MD1410001+9999ME1314889REMSYN070AAXX  05034 17203 42970 01604 10198 20111 38807 48488 54000 333 10071;
0259172030999992000080506004+38860+040500FM-12+117799999V0209999C00001036001CN0200001N1+02041+01311999999ADDAA199000091GA1041+012009089GF106991041021012501051001IA1019IA2999+01709KA1120N+01961MA1999999088261MD1310101+9999ME1315079REMSYN106AAXX  05064 17203 32670 60000 10204 20131 38826 48507 53010 84250 333 20196 30017 50824 55073 84840 86360;EQDQ01  00002PRCP99
0152172030999992000080509004+38860+040500FM-12+117799999V0202701N001512200019N0200001N1+02801+01421999999ADDGF103991031011012501001001MA1999999088261MD1410001+9999ME1315109REMSYN076AAXX  05094 17203 42670 32703 10280 20142 38826 48510 54000 83100 333 10073;
0219172030999992000080512004+38860+040500FM-12+117799999V0202701N00151036001CN0150001N1+02101+01431999999ADDAA106000191AY111061AY211061GA1041+010509089GF107991041021012501051001MA1999999088371MD1310111+9999ME1315169MW1801REMSYN094AAXX  05124 17203 11665 72703 10210 20143 38837 48516 53011 69921 78011 84250 333 84835 87358;
0202172030999992000080515004+38860+040500FM-12+117799999V0209999C00001036001CN0200001N1+02101+01361999999ADDAY181031AY221031GA1041+012009089GF107991041021012501051001MA1999999088371MD1010001+9999ME1315159MW1021REMSYN088AAXX  05154 17203 41670 70000 10210 20136 38837 48515 50000 70282 84250 333 84840 87360;
0232172030999992000080518004+38860+040500FM-12+117799999V0209999C000012200019N0200001N1+01881+01251999999ADDAA112000791AY181061AY211061GA1031+030009079GF103991031001999999031001KA1120M+03061MA1999999088371MD1510001+9999ME1315149MW1011REMSYN094AAXX  05184 17203 11970 30000 10188 20125 38837 48514 55000 69902 70181 83030 333 10306 83360;
0162172030999992000080521004+38860+040500FM-12+117799999V0209999C000012200019N0200001N1+01801+01121999999ADDGA1001+999999999GF100991001001999999001001MA1999999088401MD1110031+9999ME1315219REMSYN070AAXX  05214 17203 42970 00000 10180 20112 38840 48521 51003 333 10098;
0173172030999992000080600004+38860+040500FM-12+117799999V0201601N002112200019N0200001N1+01771+01061999999ADDAA199000021GA1001+999999999GF100991001001999999001001MA1999999088341MD1610061+9999ME1315119REMSYN070AAXX  06004 17203 32970 01604 10177 20106 38834 48511 56006 333 10110;
0152172030999992000080603004+38860+040500FM-12+117799999V0201601N002612200019N0200001N1+01681+00981999999ADDGF102991021001999999031001MA1999999088341MD1410001+9999ME1315109REMSYN076AAXX  06034 17203 42970 21605 10168 20098 38834 48510 54000 82030 333 10111;
0152172030999992000080609004+38860+040500FM-12+117799999V0209999C000012200019N0200001N1+02901+01041999999ADDGF102991021011012501001001MA1999999088381MD1810021+9999ME1315209REMSYN076AAXX  06094 17203 42670 20000 10290 20104 38838 48520 58002 82100 333 10091;
0182172030999992000080612004+38860+040500FM-12+117799999V0209999C000012200019N0200001N1+03181+00901999999ADDAA199000091GF104991041011012501001001MA1999999088251MD1710131+9999ME1315099REMSYN076AAXX  06124 17203 32670 40000 10318 20090 38825 48509 57013 84100 333 10072;EQDQ01  00002PRCP99
0174172030999992000080615004+38860+040500FM-12+117799999V0209999C00001036001CN0200001N1+03001+00681999999ADDGA1031+012009089GF105991031011012501051001MA1999999088151MD1710101+9999ME1314979REMSYN082AAXX  06154 17203 42670 50000 10300 20068 38815 48497 57010 83150 333 83840 85360;
0221172030999992000080618004+38860+040500FM-12+117799999V0209999C000012200019N0200001N1+02401+00841999999ADDAA199000091GA1001+999999999GF100991001001999999001001KA1999M+99999MA1999999088141MD1610011+9999ME1314969REMSYN070AAXX  06184 17203 32970 00000 10240 20084 38814 48496 56001 333 10064;EQDQ01  00002PRCP99Q02 +00642ATMX  
0162172030999992000080621004+38860+040500FM-12+117799999V0209999C000012200019N0200001N1+02201+00781999999ADDGA1001+999999999GF100991001001999999001001MA1999999088301MD1110161+9999ME1315149REMSYN070AAXX  06214 17203 42970 00000 10220 20078 38830 48514 51016 333 10073;
0192172030999992000080700004+38860+040500FM-12+117799999V0201601N002112200019N0200001N1+02021+00801999999ADDAA199000091GA1001+999999999GF100991001001999999001001MA1999999088301MD1410001+9999ME1315159REMSYN070AAXX  07004 17203 32970 01604 10202 20080 38830 48515 54000 333 10073;EQDQ01  00002PRCP99
0162172030999992000080703004+38860+040500FM-12+117799999V0209999C000012200019N0200001N1+01921+00751999999ADDGA1001+999999999GF100991001001999999001001MA1999999088381MD1310081+9999ME1315219REMSYN070AAXX  07034 17203 42970 00000 10192 20075 38838 48521 53008 333 10087;
0152172030999992000080709004+38860+040500FM-12+117799999V0209999C000012200019N0200001N1+03161+01371999999ADDGF102991021011012501001001MA1999999088321MD1710161+9999ME1315189REMSYN076AAXX  07094 17203 42670 20000 10316 20137 38832 48518 57016 82100 333 10071;
0182172030999992000080712004+38860+040500FM-12+117799999V0209999C000012200019N0200001N1+03421+01191999999ADDAA199000091GF103991031011012501001001MA1999999088201MD1710121+9999ME1315069REMSYN076AAXX  07124 17203 32670 30000 10342 20119 38820 48506 57012 83100 333 10057;EQDQ01  00002PRCP99
0152172030999992000080715004+38860+040500FM-12+117799999V0209999C000012200019N0200001N1+03151+00931999999ADDGF102991021011012501001001MA1999999088101MD1710101+9999ME1314949REMSYN076AAXX  07154 17203 42670 20000 10315 20093 38810 48494 57010 82100 333 10055;
0217172030999992000080718004+38860+040500FM-12+117799999V0209999C000012200019N0200001N1+02621+00801999999ADDAA199000091GA1011+012009029GF101991011011012501001001KA1120M+03501MA1999999088171MD1310071+9999ME1315019REMSYN082AAXX  07184 17203 32670 10000 10262 20080 38817 48501 53007 81100 333 10350 81840;EQDQ01  00002PRCP99
0162172030999992000080721004+38860+040500FM-12+117799999V0209999C000012200019N0200001N1+02321+00951999999ADDGA1001+999999999GF100991001001999999001001MA1999999088321MD1210151+9999ME1315189REMSYN070AAXX  07214 17203 42970 00000 10232 20095 38832 48518 52015 333 10070;
0192172030999992000080800004+38860+040500FM-12+117799999V0209999C000012200019N0200001N1+02101+00731999999ADDAA199000091GA1001+999999999GF100991001001999999001001MA1999999088361MD1110041+9999ME1315239REMSYN070AAXX  08004 17203 32970 00000 10210 20073 38836 48523 51004 333 10070;EQDQ01  00002PRCP99
0152172030999992000080803004+38860+040500FM-12+117799999V0201701N001512200019N0200001N1+01981+00791999999ADDGF101991011011012501001001MA1999999088401MD1310041+9999ME1315249REMSYN076AAXX  08034 17203 42670 11703 10198 20079 38840 48524 53004 81100 333 10084;
0253172030999992000080806004+38860+040500FM-12+117799999V0209999C000012200019N0200001N1+02601+01311999999ADDAA199000091GA1041+012009029GF104991041021012501001001IA1019IA2999+01509KA1120N+01951MA1999999088501MD1210101+9999ME1315359REMSYN100AAXX  08064 17203 32670 40000 10260 20131 38850 48535 52010 84200 333 20195 30015 50964 55081 84840;EQDQ01  00002PRCP99
0152172030999992000080809004+38860+040500FM-12+117799999V0203101N001512200019N0200001N1+03421+01491999999ADDGF104991041021012501001001MA1999999088441MD1710061+9999ME1315329REMSYN076AAXX  08094 17203 42670 43103 10342 20149 38844 48532 57006 84200 333 10075;
0182172030999992000080812004+38860+040500FM-12+117799999V0209999C000012200019N0200001N1+03601+01221999999ADDAA199000091GF103991031011012501001001MA1999999088331MD1710111+9999ME1315209REMSYN076AAXX  08124 17203 32670 30000 10360 20122 38833 48520 57011 83100 333 10045;EQDQ01  00002PRCP99
0152172030999992000080815004+38860+040500FM-12+117799999V0209999C000012200019N0200001N1+03181+01111999999ADDGF102991021011012501001001MA1999999088201MD1710131+9999ME1315049REMSYN076AAXX  08154 17203 42670 20000 10318 20111 38820 48504 57013 82100 333 10061;
0221172030999992000080818004+38860+040500FM-12+117799999V0209999C000012200019N0200001N1+02681+00651999999ADDAA199000091GA1001+999999999GF100991001001999999001001KA1999M+99999MA1999999088261MD1310061+9999ME1315119REMSYN070AAXX  08184 17203 32970 00000 10268 20065 38826 48511 53006 333 10068;EQDQ01  00002PRCP99Q02 +00682ATMX  
0162172030999992000080821004+38860+040500FM-12+117799999V0201601N002112200019N0200001N1+02441+00571999999ADDGA1001+999999999GF100991001001999999001001MA1999999088301MD1110041+9999ME1315199REMSYN070AAXX  08214 17203 42970 01604 10244 20057 38830 48519 51004 333 10059;
0192172030999992000080900004+38860+040500FM-12+117799999V0209999C000012200019N0200001N1+02021+00621999999ADDAA199000091GA1001+999999999GF100991001001999999001001MA1999999088341MD1110041+9999ME1315229REMSYN070AAXX  09004 17203 32970 00000 10202 20062 38834 48522 51004 333 10068;EQDQ01  00002PRCP99
0162172030999992000080903004+38860+040500FM-12+117799999V0201601N002112200019N0200001N1+01921+00621999999ADDGA1001+999999999GF100991001001999999001001MA1999999088381MD1310041+9999ME1315229REMSYN070AAXX  09034 17203 42970 01604 10192 20062 38838 48522 53004 333 10082;
0241172030999992000080906004+38860+040500FM-12+117799999V0209999C000012200019N0200001N1+02801+01381999999ADDAA199000091GA1001+999999999GF100991001001999999001001IA1019IA2999+01409KA1120N+01881MA1999999088401MD1110021+9999ME1315279REMSYN088AAXX  09064 17203 32970 00000 10280 20138 38840 48527 51002 333 20188 30014 50854 55093;EQDQ01  00002PRCP99
0152172030999992000080909004+38860+040500FM-12+117799999V0202501N002112200019N0200001N1+03481+01341999999ADDGF102991021011012501001001MA1999999088361MD1810041+9999ME1315259REMSYN076AAXX  09094 17203 42670 22504 10348 20134 38836 48525 58004 82100 333 10062;
0182172030999992000080912004+38860+040500FM-12+117799999V0202501N001512200019N0200001N1+03641+01151999999ADDAA199000091GF103991031011012501001001MA1999999088201MD1710161+9999ME1315089REMSYN076AAXX  09124 17203 32670 32503 10364 20115 38820 48508 57016 83100 333 10052;EQDQ01  00002PRCP99
0152172030999992000080915004+38860+040500FM-12+117799999V0209999C000012200019N0200001N1+03201+00811999999ADDGF103991031011012501001001MA1999999088101MD1610101+9999ME1314949REMSYN076AAXX  09154 17203 42670 30000 10320 20081 38810 48494 56010 83100 333 10050;
0221172030999992000080918004+38860+040500FM-12+117799999V0209999C000012200019N0200001N1+02741+00851999999ADDAA199000091GA1001+999999999GF100991001001999999001001KA1999M+99999MA1999999088101MD1410001+9999ME1314979REMSYN070AAXX  09184 17203 32970 00000 10274 20085 38810 48497 54000 333 10041;EQDQ01  00002PRCP99Q02 +00412ATMX  
0162172030999992000080921004+38860+040500FM-12+117799999V0201601N001512200019N0200001N1+02461+00841999999ADDGA1001+999999999GF100991001001999999001001MA1999999088181MD1110081+9999ME1315079REMSYN070AAXX  09214 17203 42970 01603 10246 20084 38818 48507 51008 333 10041;
0192172030999992000081000004+38860+040500FM-12+117799999V0209999C000012200019N0200001N1+02241+00791999999ADDAA199000091GA1001+999999999GF100991001001999999001001MA1999999088181MD1410001+9999ME1315079REMSYN070AAXX  10004 17203 32970 00000 10224 20079 38818 48507 54000 333 10046;EQDQ01  00002PRCP99
0152172030999992000081003004+38860+040500FM-12+117799999V0201601N001512200019N0200001N1+02201+00781999999ADDGF102991021011012501001001MA1999999088181MD1410001+9999ME1315049REMSYN076AAXX  10034 17203 42670 21603 10220 20078 38818 48504 54000 82100 333 10055;
0253172030999992000081006004+38860+040500FM-12+117799999V0209999C000012200019N0200001N1+02801+01351999999ADDAA199000091GA1011+012009029GF101991011011012501001001IA1019IA2999+01809KA1120N+02161MA1999999088251MD1310071+9999ME1315129REMSYN100AAXX  10064 17203 32670 10000 10280 20135 38825 48512 53007 81100 333 20216 30018 50854 55094 81840;EQDQ01  00002PRCP99
0198172030999992000081012004+38860+040500FM-12+117799999V0202501N002612200019N0200001N1+03701+01071999999ADDAA199000091GF103991999011012501001001MA1999999088121MD1810101+9999ME1315019REMSYN076AAXX  10124 17203 32670 32505 10370 20107 38812 48501 58010 84100 333 10034;EQDQ01+000042SCOTLCQ02  00002PRCP99
0152172030999992000081015004+38860+040500FM-12+117799999V0209999C000012200019N0200001N1+03081+01001999999ADDGF103991031011012501001001MA1999999088071MD1710051+9999ME1314929REMSYN076AAXX  10154 17203 42670 30000 10308 20100 38807 48492 57005 83100 333 10047;
0223172030999992000081018004+38860+040500FM-12+117799999V0201601N001519999999N0200001N1+02741+01111999999ADDAA199000091GA1021+012009089GF107991021011012501001001KA1120M+03721MA1999999088041MD1610031+9999ME1314919REMSYN088AAXX  10184 17203 32670 71603 10274 20111 38804 48491 56003 82100 333 10372 82840 87360;EQDQ01  00002PRCP99
0152172030999992000081021004+38860+040500FM-12+117799999V0209999C000012200019N0200001N1+02451+00801999999ADDGF101991011011012501001001MA1999999088151MD1210111+9999ME1315049REMSYN076AAXX  10214 17203 42670 10000 10245 20080 38815 48504 52011 81100 333 10038;
0192172030999992000081100004+38860+040500FM-12+117799999V0209999C000012200019N0200001N1+02201+00651999999ADDAA199000091GA1001+999999999GF100991001001999999001001MA1999999088191MD1210041+9999ME1315089REMSYN070AAXX  11004 17203 32970 00000 10220 20065 38819 48508 52004 333 10042;EQDQ01  00002PRCP99
0152172030999992000081103004+38860+040500FM-12+117799999V0201601N001512200019N0200001N1+02171+00671999999ADDGF103991031011012501001001MA1999999088221MD1310031+9999ME1315079REMSYN076AAXX  11034 17203 42670 31603 10217 20067 38822 48507 53003 83100 333 10064;
0253172030999992000081106004+38860+040500FM-12+117799999V0209999C000012200019N0200001N1+02801+01081999999ADDAA199000091GA1031+012009029GF103991031011012501001001IA1019IA2999+01709KA1120N+02661MA1999999088301MD1110081+9999ME1315179REMSYN100AAXX  11064 17203 32670 30000 10280 20108 38830 48517 51008 83100 333 20266 30017 51014 55091 83840;EQDQ01  00002PRCP99
0162172030999992000081109004+38860+040500FM-12+117799999V0203401N003112200019N0200001N1+03401+01371999999ADDGA1001+999999999GF100991001001999999001001MA1999999088251MD1810051+9999ME1315139REMSYN070AAXX  11094 17203 42970 03406 10340 20137 38825 48513 58005 333 10054;
0182172030999992000081112004+38860+040500FM-12+117799999V0209999C000012200019N0200001N1+03651+01261999999ADDAA199000091GF103991031011012501001001MA1999999088081MD1710171+9999ME1314969REMSYN076AAXX  11124 17203 32670 30000 10365 20126 38808 48496 57017 83100 333 10034;EQDQ01  00002PRCP99
0152172030999992000081115004+38860+040500FM-12+117799999V0209999C000012200019N0200001N1+03301+01001999999ADDGF103991031011012501001001MA1999999087981MD1710101+9999ME1314849REMSYN076AAXX  11154 17203 42670 30000 10330 20100 38798 48484 57010 83100 333 10032;
0221172030999992000081118004+38860+040500FM-12+117799999V0209999C000012200019N0025001N1+02661+01081999999ADDAA199000091GA1001+999999999GF100991001001999999001001KA1999M+99999MA1999999088021MD1310041+9999ME1314889REMSYN070AAXX  11184 17203 32925 00000 10266 20108 38802 48488 53004 333 10071;EQDQ01  00002PRCP99Q02 +00712ATMX  
0162172030999992000081121004+38860+040500FM-12+117799999V0209999C000012200019N0200001N1+02441+00811999999ADDGA1001+999999999GF100991001001999999001001MA1999999088121MD1210101+9999ME1315009REMSYN070AAXX  11214 17203 42970 00000 10244 20081 38812 48500 52010 333 10039;
0192172030999992000081200004+38860+040500FM-12+117799999V0201801N001512200019N0200001N1+02381+00771999999ADDAA199000091GA1001+999999999GF100991001001999999001001MA1999999088131MD1110011+9999ME1315029REMSYN070AAXX  12004 17203 32970 01803 10238 20077 38813 48502 51001 333 10035;EQDQ01  00002PRCP99
0162172030999992000081203004+38860+040500FM-12+117799999V0201701N001512200019N0200001N1+02201+00951999999ADDGA1001+999999999GF100991001001999999001001MA1999999088131MD1410001+9999ME1314999REMSYN070AAXX  12034 17203 42970 01703 10220 20095 38813 48499 54000 333 10044;
0241172030999992000081206004+38860+040500FM-12+117799999V0209999C000012200019N0200001N1+02901+01511999999ADDAA199000091GA1001+999999999GF100991001001999999001001IA1019IA2999+01809KA1120N+02181MA1999999088271MD1210141+9999ME1315149REMSYN088AAXX  12064 17203 32970 00000 10290 20151 38827 48514 52014 333 20218 30018 51004 55091;EQDQ01  00002PRCP99
0162172030999992000081209004+38860+040500FM-12+117799999V0202801N002112200019N0200001N1+03401+01431999999ADDGA1001+999999999GF100991001001999999001001MA1999999088241MD1810031+9999ME1315129REMSYN070AAXX  12094 17203 42970 02804 10340 20143 38824 48512 58003 333 10052;
0182172030999992000081212004+38860+040500FM-12+117799999V0209999C000012200019N0200001N1+03581+01321999999ADDAA199000091GF102991021011012501001001MA1999999088121MD1710121+9999ME1315009REMSYN076AAXX  12124 17203 32670 20000 10358 20132 38812 48500 57012 82100 333 10034;EQDQ01  00002PRCP99
0143172030999992000081215004+38860+040500FM-12+117799999V0209999C000012200019N0200001N1+03301+01161999999ADDGF102991021011012501001001MA1999999088001MD1610121+9999REMSYN076AAXX  12154 17203 42670 20000 10330 20116 38800 4//86 56012 82100 333 10030;
0217172030999992000081218004+38860+040500FM-12+117799999V0209999C000012200019N0200001N1+02801+01071999999ADDAA199000091GA1031+012009029GF103991031011012501001001KA1120M+03621MA1999999088101MD1310101+9999ME1314989REMSYN082AAXX  12184 17203 32670 30000 10280 20107 38810 48498 53010 83100 333 10362 83840;EQDQ01  00002PRCP99
0152172030999992000081221004+38860+040500FM-12+117799999V0209999C000012200019N0200001N1+02501+00851999999ADDGF102991021011012501001001MA1999999088141MD1110041+9999ME1315039REMSYN076AAXX  12214 17203 42670 20000 10250 20085 38814 48503 51004 82100 333 10037;
0192172030999992000081300004+38860+040500FM-12+117799999V0209999C000012200019N0200001N1+02301+00741999999ADDAA199000091GA1001+999999999GF100991001001999999001001MA1999999088181MD1110041+9999ME1315079REMSYN070AAXX  13004 17203 32970 00000 10230 20074 38818 48507 51004 333 10046;EQDQ01  00002PRCP99
0162172030999992000081303004+38860+040500FM-12+117799999V0209999C000012200019N0200001N1+02151+00761999999ADDGA1001+999999999GF100991001001999999001001MA1999999088201MD1310021+9999ME1315069REMSYN070AAXX  13034 17203 42970 00000 10215 20076 38820 48506 53002 333 10057;
0241172030999992000081306004+38860+040500FM-12+117799999V0209999C000012200019N0200001N1+02881+01451999999ADDAA199000091GA1001+999999999GF100991001001999999001001IA1019IA2999+01609KA1120N+02101MA1999999088311MD1210111+9999ME1315189REMSYN088AAXX  13064 17203 32970 00000 10288 20145 38831 48518 52011 333 20210 30016 50914 55095;EQDQ01  00002PRCP99
0162172030999992000081309004+38860+040500FM-12+117799999V0209999C000012200019N0200001N1+03521+01631999999ADDGA1001+999999999GF100991001001999999001001MA1999999088321MD1110011+9999ME1315229REMSYN070AAXX  13094 17203 42970 00000 10352 20163 38832 48522 51001 333 10057;
0192172030999992000081312004+38860+040500FM-12+117799999V0200701N001512200019N0200001N1+03701+01221999999ADDAA199000091GA1001+999999999GF100991001001999999001001MA1999999088241MD1810081+9999ME1315139REMSYN070AAXX  13124 17203 32970 00703 10370 20122 38824 48513 58008 333 10048;EQDQ01  00002PRCP99
0162172030999992000081315004+38860+040500FM-12+117799999V0209999C000012200019N0200001N1+03241+01021999999ADDGA1001+999999999GF100991001001999999001001MA1999999088201MD1610041+9999ME1315069REMSYN070AAXX  13154 17203 42970 00000 10324 20102 38820 48506 56004 333 10057;
0221172030999992000081318004+38860+040500FM-12+117799999V0209999C000012200019N0200001N1+02661+00721999999ADDAA199000091GA1001+999999999GF100991001001999999001001KA1999M+99999MA1999999088271MD1310071+9999ME1315139REMSYN070AAXX  13184 17203 32970 00000 10266 20072 38827 48513 53007 333 10060;EQDQ01  00002PRCP99Q02 +00602ATMX  
0162172030999992000081321004+38860+040500FM-12+117799999V0209999C000012200019N0200001N1+02301+00791999999ADDGA1001+999999999GF100991001001999999001001MA1999999088421MD1210151+9999ME1315219REMSYN070AAXX  13214 17203 42970 00000 10230 20079 38842 48521 52015 333 10073;
0192172030999992000081400004+38860+040500FM-12+117799999V0209999C000012200019N0200001N1+02181+00841999999ADDAA199000091GA1001+999999999GF100991001001999999001001MA1999999088461MD1110041+9999ME1315349REMSYN070AAXX  14004 17203 32970 00000 10218 20084 38846 48534 51004 333 10077;EQDQ01  00002PRCP99
0162172030999992000081403004+38860+040500FM-12+117799999V0209999C000012200019N0200001N1+01961+00761999999ADDGA1001+999999999GF100991001001999999001001MA1999999088461MD1410001+9999ME1315319REMSYN070AAXX  14034 17203 42970 00000 10196 20076 38846 48531 54000 333 10087;
0241172030999992000081406004+38860+040500FM-12+117799999V0209999C000012200019N0200001N1+02501+01261999999ADDAA199000091GA1001+999999999GF100991001001999999001001IA1019IA2999+01309KA1120N+01881MA1999999088521MD1310061+9999ME1315369REMSYN088AAXX  14064 17203 32970 00000 10250 20126 38852 48536 53006 333 20188 30013 50884 55095;EQDQ01  00002PRCP99
0162172030999992000081409004+38860+040500FM-12+117799999V0200701N002112200019N0200001N1+03201+01181999999ADDGA1001+999999999GF100991001001999999001001MA1999999088461MD1810061+9999ME1315339REMSYN070AAXX  14094 17203 42970 00704 10320 20118 38846 48533 58006 333 10082;
0192172030999992000081412004+38860+040500FM-12+117799999V0203001N001512200019N0200001N1+03401+00901999999ADDAA199000091GA1001+999999999GF100991001001999999001001MA1999999088381MD1710081+9999ME1315249REMSYN070AAXX  14124 17203 32970 03003 10340 20090 38838 48524 57008 333 10073;EQDQ01  00002PRCP99
0162172030999992000081415004+38860+040500FM-12+117799999V0200701N002112200019N0200001N1+03061+00831999999ADDGA1001+999999999GF100991001001999999001001MA1999999088271MD1710111+9999ME1315119REMSYN070AAXX  14154 17203 42970 00704 10306 20083 38827 48511 57011 333 10074;
0221172030999992000081418004+38860+040500FM-12+117799999V0209999C000012200019N0200001N1+02581+00641999999ADDAA199000091GA1001+999999999GF100991001001999999001001KA1999M+99999MA1999999088291MD1310021+9999ME1315129REMSYN070AAXX  14184 17203 32970 00000 10258 20064 38829 48512 53002 333 10076;EQDQ01  00002PRCP99Q02 +00762ATMX  
0162172030999992000081421004+38860+040500FM-12+117799999V0201601N002612200019N0200001N1+02531+01161999999ADDGA1001+999999999GF100991001001999999001001MA1999999088381MD1210091+9999ME1315269REMSYN070AAXX  14214 17203 42970 01605 10253 20116 38838 48526 52009 333 10068;
0192172030999992000081500004+38860+040500FM-12+117799999V0201601N003112200019N0200001N1+02381+01071999999ADDAA199000091GA1001+999999999GF100991001001999999001001MA1999999088381MD1410001+9999ME1315269REMSYN070AAXX  15004 17203 32970 01606 10238 20107 38838 48526 54000 333 10068;EQDQ01  00002PRCP99
0152172030999992000081503004+38860+040500FM-12+117799999V0201601N001512200019N0200001N1+02181+00751999999ADDGF102991021011012501001001MA1999999088381MD1410001+9999ME1315239REMSYN076AAXX  15034 17203 42670 21603 10218 20075 38838 48523 54000 82100 333 10082;
0162172030999992000081509004+38860+040500FM-12+117799999V0209999C000012200019N0200001N1+03201+01521999999ADDGA1001+999999999GF100991001001999999001001MA1999999088421MD1010001+9999ME1315309REMSYN070AAXX  15094 17203 42970 00000 10320 20152 38842 48530 50000 333 10073;
0182172030999992000081512004+38860+040500FM-12+117799999V0209999C000012200019N0200001N1+03401+01301999999ADDAA199000091GF103991031011012501001001MA1999999088301MD1610121+9999ME1315189REMSYN076AAXX  15124 17203 32670 30000 10340 20130 38830 48518 56012 83100 333 10059;EQDQ01  00002PRCP99
0162172030999992000081515004+38860+040500FM-12+117799999V0209999C000012200019N0200001N1+03001+00871999999ADDGA1001+999999999GF100991001001999999001001MA1999999088171MD1610131+9999ME1315029REMSYN070AAXX  15154 17203 42970 00000 10300 20087 38817 48502 56013 333 10058;
0221172030999992000081518004+38860+040500FM-12+117799999V0201601N002612200019N0200001N1+02641+00671999999ADDAA199000091GA1001+999999999GF100991001001999999001001KA1999M+99999MA1999999088171MD1410001+9999ME1315039REMSYN070AAXX  15184 17203 32970 01605 10264 20067 38817 48503 54000 333 10053;EQDQ01  00002PRCP99Q02 +00532ATMX  
0162172030999992000081521004+38860+040500FM-12+117799999V0201601N003112200019N0200001N1+02401+00841999999ADDGA1001+999999999GF100991001001999999001001MA1999999088321MD1210151+9999ME1315199REMSYN070AAXX  15214 17203 42970 01606 10240 20084 38832 48519 52015 333 10066;
0192172030999992000081600004+38860+040500FM-12+117799999V0201601N003112200019N0200001N1+02261+00821999999ADDAA199000091GA1001+999999999GF100991001001999999001001MA1999999088381MD1110061+9999ME1315269REMSYN070AAXX  16004 17203 32970 01606 10226 20082 38838 48526 51006 333 10073;EQDQ01  00002PRCP99
0162172030999992000081603004+38860+040500FM-12+117799999V0201601N003612200019N0200001N1+02101+00841999999ADDGA1001+999999999GF100991001001999999001001MA1999999088381MD1410001+9999ME1315229REMSYN070AAXX  16034 17203 42970 01607 10210 20084 38838 48522 54000 333 10082;
0241172030999992000081606004+38860+040500FM-12+117799999V0209999C000012200019N0200001N1+02601+01351999999ADDAA199000091GA1001+999999999GF100991001001999999001001IA1019IA2999+01609KA1120N+02071MA1999999088401MD1110021+9999ME1315259REMSYN088AAXX  16064 17203 32970 00000 10260 20135 38840 48525 51002 333 20207 30016 50884 55095;EQDQ01  00002PRCP99
0192172030999992000081612004+38860+040500FM-12+117799999V0209999C000012200019N0200001N1+03401+01351999999ADDAA199000091GA1001+999999999GF100991001001999999001001MA1999999088121MD1710161+9999ME1314999REMSYN070AAXX  16124 17203 32970 00000 10340 20135 38812 48499 57016 333 10043;EQDQ01  00002PRCP99
0162172030999992000081615004+38860+040500FM-12+117799999V0209999C000012200019N0200001N1+02961+00951999999ADDGA1001+999999999GF100991001001999999001001MA1999999088001MD1710121+9999ME1314849REMSYN070AAXX  16154 17203 42970 00000 10296 20095 38800 48484 57012 333 10043;
0221172030999992000081618004+38860+040500FM-12+117799999V0209999C000012200019N0200001N1+02521+00791999999ADDAA199000091GA1001+999999999GF100991001001999999001001KA1999M+99999MA1999999088051MD1310051+9999ME1314899REMSYN070AAXX  16184 17203 32970 00000 10252 20079 38805 48489 53005 333 10044;EQDQ01  00002PRCP99Q02 +00442ATMX  
0162172030999992000081621004+38860+040500FM-12+117799999V0209999C000012200019N0200001N1+02301+00681999999ADDGA1001+999999999GF100991001001999999001001MA1999999088131MD1210081+9999ME1314999REMSYN070AAXX  16214 17203 42970 00000 10230 20068 38813 48499 52008 333 10049;
0192172030999992000081700004+38860+040500FM-12+117799999V0209999C000012200019N0200001N1+02001+00591999999ADDAA199000091GA1001+999999999GF100991001001999999001001MA1999999088171MD1110041+9999ME1315039REMSYN070AAXX  17004 17203 32970 00000 10200 20059 38817 48503 51004 333 10053;EQDQ01  00002PRCP99
0162172030999992000081703004+38860+040500FM-12+117799999V0209999C000012200019N0200001N1+01751+00471999999ADDGA1001+999999999GF100991001001999999001001MA1999999088251MD1210081+9999ME1315079REMSYN070AAXX  17034 17203 42970 00000 10175 20047 38825 48507 52008 333 10076;
0241172030999992000081706004+38860+040500FM-12+117799999V0209999C000012200019N0200001N1+02581+01131999999ADDAA199000091GA1001+999999999GF100991001001999999001001IA1019IA2999+01309KA1120N+01701MA1999999088281MD1110031+9999ME1315129REMSYN088AAXX  17064 17203 32970 00000 10258 20113 38828 48512 51003 333 20170 30013 50824 55095;EQDQ01  00002PRCP99
0162172030999992000081709004+38860+040500FM-12+117799999V0209999C000012200019N0200001N1+03251+01311999999ADDGA1001+999999999GF100991001001999999001001MA1999999088301MD1110021+9999ME1315179REMSYN070AAXX  17094 17203 42970 00000 10325 20131 38830 48517 51002 333 10064;
0192172030999992000081712004+38860+040500FM-12+117799999V0209999C000012200019N0200001N1+03461+01141999999ADDAA199000091GA1001+999999999GF100991001001999999001001MA1999999088241MD1810061+9999ME1315109REMSYN070AAXX  17124 17203 32970 00000 10346 20114 38824 48510 58006 333 10061;EQDQ01  00002PRCP99
0162172030999992000081715004+38860+040500FM-12+117799999V0200401N001512200019N0200001N1+03021+00551999999ADDGA1001+999999999GF100991001001999999001001MA1999999088151MD1710091+9999ME1314979REMSYN070AAXX  17154 17203 42970 00403 10302 20055 38815 48497 57009 333 10065;
0221172030999992000081718004+38860+040500FM-12+117799999V0201601N001512200019N0200001N1+02501+00361999999ADDAA199000091GA1001+999999999GF100991001001999999001001KA1999M+99999MA1999999088151MD1410001+9999ME1314999REMSYN070AAXX  17184 17203 32970 01603 10250 20036 38815 48499 54000 333 10060;EQDQ01  00002PRCP99Q02 +00602ATMX  
0162172030999992000081721004+38860+040500FM-12+117799999V0209999C000012200019N0200001N1+02201+00551999999ADDGA1001+999999999GF100991001001999999001001MA1999999088241MD1210091+9999ME1315109REMSYN070AAXX  17214 17203 42970 00000 10220 20055 38824 48510 52009 333 10061;
0192172030999992000081800004+38860+040500FM-12+117799999V0209999C000012200019N0200001N1+01881+00371999999ADDAA199000091GA1001+999999999GF100991001001999999001001MA1999999088281MD1110041+9999ME1315149REMSYN070AAXX  18004 17203 32970 00000 10188 20037 38828 48514 51004 333 10066;EQDQ01  00002PRCP99
0162172030999992000081803004+38860+040500FM-12+117799999V0209999C000012200019N0200001N1+01661+00341999999ADDGA1001+999999999GF100991001001999999001001MA1999999088401MD1310121+9999ME1315229REMSYN070AAXX  18034 17203 42970 00000 10166 20034 38840 48522 53012 333 10098;
0241172030999992000081806004+38860+040500FM-12+117799999V0209999C000012200019N0200001N1+02341+00841999999ADDAA199000091GA1001+999999999GF100991001001999999001001IA1019IA2999+01309KA1120N+01661MA1999999088471MD1310071+9999ME1315309REMSYN088AAXX  18064 17203 32970 00000 10234 20084 38847 48530 53007 333 20166 30013 50844 55097;EQDQ01  00002PRCP99
0182172030999992000081812004+38860+040500FM-12+117799999V0200401N001512200019N0200001N1+03501+01111999999ADDAA199000091GF102991021011012501001001MA1999999088341MD1710121+9999ME1315249REMSYN076AAXX  18124 17203 32670 20403 10350 20111 38834 48524 57012 82100 333 10073;EQDQ01  00002PRCP99
0152172030999992000081815004+38860+040500FM-12+117799999V0200701N001512200019N0200001N1+03241+01061999999ADDGF101991011011012501001001MA1999999088261MD1710081+9999ME1315099REMSYN076AAXX  18154 17203 42670 10703 10324 20106 38826 48509 57008 81100 333 10078;
0221172030999992000081818004+38860+040500FM-12+117799999V0209999C000012200019N0200001N1+02701+00881999999ADDAA199000091GA1001+999999999GF100991001001999999001001KA1999M+99999MA1999999088301MD1310041+9999ME1315149REMSYN070AAXX  18184 17203 32970 00000 10270 20088 38830 48514 53004 333 10077;EQDQ01  00002PRCP99Q02 +00772ATMX  
0162172030999992000081821004+38860+040500FM-12+117799999V0209999C000012200019N0200001N1+02201+00711999999ADDGA1001+999999999GF100991001001999999001001MA1999999088421MD1110121+9999ME1315289REMSYN070AAXX  18214 17203 42970 00000 10220 20071 38842 48528 51012 333 10082;
0192172030999992000081900004+38860+040500FM-12+117799999V0209999C000012200019N0200001N1+01861+00411999999ADDAA199000091GA1001+999999999GF100991001001999999001001MA1999999088421MD1410001+9999ME1315289REMSYN070AAXX  19004 17203 32970 00000 10186 20041 38842 48528 54000 333 10082;EQDQ01  00002PRCP99
0162172030999992000081903004+38860+040500FM-12+117799999V0209999C000012200019N0200001N1+01781+00421999999ADDGA1001+999999999GF100991001001999999001001MA1999999088501MD1110081+9999ME1315349REMSYN070AAXX  19034 17203 42970 00000 10178 20042 38850 48534 51008 333 10100;
0241172030999992000081906004+38860+040500FM-12+117799999V0209999C000012200019N0200001N1+02701+01231999999ADDAA199000091GA1001+999999999GF100991001001999999001001IA1019IA2999+01409KA1120N+01761MA1999999088551MD1310051+9999ME1315419REMSYN088AAXX  19064 17203 32970 00000 10270 20123 38855 48541 53005 333 20176 30014 50834 55096;EQDQ01  00002PRCP99
0162172030999992000081909004+38860+040500FM-12+117799999V0209999C000012200019N0200001N1+03371+01151999999ADDGA1001+999999999GF100991001001999999001001MA1999999088501MD1810051+9999ME1315379REMSYN070AAXX  19094 17203 42970 00000 10337 20115 38850 48537 58005 333 10086;
0192172030999992000081912004+38860+040500FM-12+117799999V0200901N001512200019N0200001N1+03481+00961999999ADDAA199000091GA1001+999999999GF100991001001999999001001MA1999999088401MD1610101+9999ME1315269REMSYN070AAXX  19124 17203 32970 00903 10348 20096 38840 48526 56010 333 10080;EQDQ01  00002PRCP99
0162172030999992000081915004+38860+040500FM-12+117799999V0209999C000012200019N0200001N1+03001+00541999999ADDGA1001+999999999GF100991001001999999001001MA1999999088301MD1610101+9999ME1315129REMSYN070AAXX  19154 17203 42970 00000 10300 20054 38830 48512 56010 333 10082;
0221172030999992000081918004+38860+040500FM-12+117799999V0209999C000012200019N0200001N1+02461+00631999999ADDAA199000091GA1001+999999999GF100991001001999999001001KA1999M+99999MA1999999088281MD1610021+9999ME1315199REMSYN070AAXX  19184 17203 32970 00000 10246 20063 38828 48519 56002 333 10070;EQDQ01  00002PRCP99Q02 +00702ATMX  
0162172030999992000081921004+38860+040500FM-12+117799999V0201701N001512200019N0200001N1+02161+00331999999ADDGA1001+999999999GF100991001001999999001001MA1999999088321MD1210041+9999ME1315199REMSYN070AAXX  19214 17203 42970 01703 10216 20033 38832 48519 52004 333 10066;
0162172030999992000082000004+38860+040500FM-12+117799999V0201601N002112200019N0200001N1+02061+00531999999ADDGA1001+999999999GF100991001001999999001001MA1999999088321MD1410001+9999ME1315199REMSYN070AAXX  20004 17203 22970 01604 10206 20053 38832 48519 54000 333 10066;
0162172030999992000082003004+38860+040500FM-12+117799999V0209999C000012200019N0200001N1+02001+00811999999ADDGA1001+999999999GF100991001001999999001001MA1999999088321MD1410001+9999ME1315169REMSYN070AAXX  20034 17203 42970 00000 10200 20081 38832 48516 54000 333 10080;
0241172030999992000082006004+38860+040500FM-12+117799999V0209999C000012200019N0200001N1+02621+01341999999ADDAA199000091GA1001+999999999GF100991001001999999001001IA1019IA2999+01409KA1120N+01951MA1999999088351MD1110031+9999ME1315199REMSYN088AAXX  20064 17203 32970 00000 10262 20134 38835 48519 51003 333 20195 30014 50884 55097;EQDQ01  00002PRCP99
0152172030999992000082009004+38860+040500FM-12+117799999V0200401N001512200019N0200001N1+03241+01401999999ADDGF101991011011012501001001MA1999999088321MD1810031+9999ME1315189REMSYN076AAXX  20094 17203 42670 10403 10324 20140 38832 48518 58003 81100 333 10071;
0182172030999992000082012004+38860+040500FM-12+117799999V0209999C000012200019N0200001N1+03361+01121999999ADDAA199000091GF102991021011012501001001MA1999999088251MD1710071+9999ME1315129REMSYN076AAXX  20124 17203 32670 20000 10336 20112 38825 48512 57007 82100 333 10063;EQDQ01  00002PRCP99
0162172030999992000082015004+38860+040500FM-12+117799999V0200601N001512200019N0200001N1+03001+00921999999ADDGA1001+999999999GF100991001001999999001001MA1999999088201MD1610051+9999ME1315049REMSYN070AAXX  20154 17203 42970 00603 10300 20092 38820 48504 56005 333 10066;
0221172030999992000082018004+38860+040500FM-12+117799999V0201801N002112200019N0200001N1+02551+00951999999ADDAA199000091GA1001+999999999GF100991001001999999001001KA1999M+99999MA1999999088281MD1310081+9999ME1315139REMSYN070AAXX  20184 17203 32970 01804 10255 20095 38828 48513 53008 333 10071;EQDQ01  00002PRCP99Q02 +00712ATMX  
0162172030999992000082021004+38860+040500FM-12+117799999V0201801N001512200019N0200001N1+02321+00771999999ADDGA1001+999999999GF100991001001999999001001MA1999999088401MD1210121+9999ME1315279REMSYN070AAXX  20214 17203 42970 01803 10232 20077 38840 48527 52012 333 10075;
0192172030999992000082100004+38860+040500FM-12+117799999V0209999C000012200019N0200001N1+02001+00851999999ADDAA199000091GA1001+999999999GF100991001001999999001001MA1999999088401MD1410001+9999ME1315269REMSYN070AAXX  21004 17203 32970 00000 10200 20085 38840 48526 54000 333 10080;EQDQ01  00002PRCP99
0162172030999992000082103004+38860+040500FM-12+117799999V0209999C000012200019N0200001N1+01841+00731999999ADDGA1001+999999999GF100991001001999999001001MA1999999088421MD1310021+9999ME1315259REMSYN070AAXX  21034 17203 42970 00000 10184 20073 38842 48525 53002 333 10096;
0241172030999992000082106004+38860+040500FM-12+117799999V0209999C000012200019N0200001N1+02551+01341999999ADDAA199000091GA1001+999999999GF100991001001999999001001IA1019IA2999+01409KA1120N+01821MA1999999088501MD1210081+9999ME1315359REMSYN088AAXX  21064 17203 32970 00000 10255 20134 38850 48535 52008 333 20182 30014 50764 55096;EQDQ01  00002PRCP99
0162172030999992000082109004+38860+040500FM-12+117799999V0200301N001512200019N0200001N1+03261+01141999999ADDGA1001+999999999GF100991001001999999001001MA1999999088481MD1810021+9999ME1315359REMSYN070AAXX  21094 17203 42970 00303 10326 20114 38848 48535 58002 333 10084;
0192172030999992000082112004+38860+040500FM-12+117799999V0200601N001512200019N0200001N1+03431+01161999999ADDAA199000091GA1001+999999999GF100991001001999999001001MA1999999088341MD1710141+9999ME1315209REMSYN070AAXX  21124 17203 32970 00603 10343 20116 38834 48520 57014 333 10073;EQDQ01  00002PRCP99
0152172030999992000082115004+38860+040500FM-12+117799999V0200701N001512200019N0200001N1+03041+00941999999ADDGF101991011011012501001001MA1999999088331MD1610011+9999ME1315169REMSYN076AAXX  21154 17203 42670 10703 10304 20094 38833 48516 56001 81100 333 10086;
0221172030999992000082118004+38860+040500FM-12+117799999V0209999C000012200019N0200001N1+02661+00911999999ADDAA199000091GA1001+999999999GF100991001001999999001001KA1999M+99999MA1999999088401MD1310071+9999ME1315259REMSYN070AAXX  21184 17203 32970 00000 10266 20091 38840 48525 53007 333 10084;EQDQ01  00002PRCP99Q02 +00842ATMX  
0162172030999992000082121004+38860+040500FM-12+117799999V0201601N001512200019N0200001N1+02251+00831999999ADDGA1001+999999999GF100991001001999999001001MA1999999088461MD1110061+9999ME1315339REMSYN070AAXX  21214 17203 42970 01603 10225 20083 38846 48533 51006 333 10082;
0192172030999992000082200004+38860+040500FM-12+117799999V0209999C000012200019N0200001N1+02021+00841999999ADDAA199000091GA1001+999999999GF100991001001999999001001MA1999999088501MD1310041+9999ME1315369REMSYN070AAXX  22004 17203 32970 00000 10202 20084 38850 48536 53004 333 10091;EQDQ01  00002PRCP99
0162172030999992000082203004+38860+040500FM-12+117799999V0209999C000012200019N0200001N1+01781+00781999999ADDGA1001+999999999GF100991001001999999001001MA1999999088501MD1410001+9999ME1315329REMSYN070AAXX  22034 17203 42970 00000 10178 20078 38850 48532 54000 333 10105;
0241172030999992000082206004+38860+040500FM-12+117799999V0209999C000012200019N0200001N1+02481+01231999999ADDAA199000091GA1001+999999999GF100991001001999999001001IA1019IA2999+01309KA1120N+01761MA1999999088601MD1110101+9999ME1315459REMSYN088AAXX  22064 17203 32970 00000 10248 20123 38860 48545 51010 333 20176 30013 50784 55097;EQDQ01  00002PRCP99
0152172030999992000082209004+38860+040500FM-12+117799999V0203201N001512200019N0200001N1+03221+01351999999ADDGF101991011011012501001001MA1999999088581MD1810021+9999ME1315449REMSYN076AAXX  22094 17203 42670 13203 10322 20135 38858 48544 58002 81100 333 10100;
0182172030999992000082212004+38860+040500FM-12+117799999V0201501N002612200019N0200001N1+03451+00961999999ADDAA199000091GF101991011011012501001001MA1999999088501MD1710101+9999ME1315379REMSYN076AAXX  22124 17203 32670 11505 10345 20096 38850 48537 57010 81100 333 10091;EQDQ01  00002PRCP99
0152172030999992000082215004+38860+040500FM-12+117799999V0201601N003112200019N0200001N1+03241+00971999999ADDGF101991011011012501001001MA1999999088411MD1610091+9999ME1315259REMSYN076AAXX  22154 17203 42670 11606 10324 20097 38841 48525 56009 81100 333 10090;
0221172030999992000082218004+38860+040500FM-12+117799999V0201601N001512200019N0200001N1+02621+00751999999ADDAA199000091GA1001+999999999GF100991001001999999001001KA1999M+99999MA1999999088501MD1210091+9999ME1315349REMSYN070AAXX  22184 17203 32970 01603 10262 20075 38850 48534 52009 333 10096;EQDQ01  00002PRCP99Q02 +00962ATMX  
0162172030999992000082221004+38860+040500FM-12+117799999V0201601N001512200019N0200001N1+02341+00711999999ADDGA1001+999999999GF100991001001999999001001MA1999999088541MD1310041+9999ME1315419REMSYN070AAXX  22214 17203 42970 01603 10234 20071 38854 48541 53004 333 10091;
0192172030999992000082300004+38860+040500FM-12+117799999V0209999C000012200019N0200001N1+02001+00771999999ADDAA199000091GA1001+999999999GF100991001001999999001001MA1999999088571MD1210031+9999ME1315449REMSYN070AAXX  23004 17203 32970 00000 10200 20077 38857 48544 52003 333 10094;EQDQ01  00002PRCP99
0162172030999992000082303004+38860+040500FM-12+117799999V0209999C000012200019N0200001N1+01881+00741999999ADDGA1001+999999999GF100991001001999999001001MA1999999088571MD1410001+9999ME1315399REMSYN070AAXX  23034 17203 42970 00000 10188 20074 38857 48539 54000 333 10113;
0241172030999992000082306004+38860+040500FM-12+117799999V0209999C000012200019N0200001N1+02581+01211999999ADDAA199000091GA1001+999999999GF100991001001999999001001IA1019IA2999+01309KA1120N+01841MA1999999088681MD1210111+9999ME1315539REMSYN088AAXX  23064 17203 32970 00000 10258 20121 38868 48553 52011 333 20184 30013 50784 55095;EQDQ01  00002PRCP99
0162172030999992000082309004+38860+040500FM-12+117799999V0209999C000012200019N0200001N1+03421+01021999999ADDGA1001+999999999GF100991001001999999001001MA1999999088621MD1810061+9999ME1315509REMSYN070AAXX  23094 17203 42970 00000 10342 20102 38862 48550 58006 333 10096;
0182172030999992000082312004+38860+040500FM-12+117799999V0209999C000012200019N0200001N1+03631+01111999999ADDAA199000091GF102991021011012501001001MA1999999088501MD1710121+9999ME1315379REMSYN076AAXX  23124 17203 32670 20000 10363 20111 38850 48537 57012 82100 333 10086;EQDQ01  00002PRCP99
0152172030999992000082315004+38860+040500FM-12+117799999V0200901N002112200019N0200001N1+03201+00631999999ADDGF102991021011012501001001MA1999999088381MD1810121+9999ME1315229REMSYN076AAXX  23154 17203 42670 20904 10320 20063 38838 48522 58012 82100 333 10087;
0221172030999992000082318004+38860+040500FM-12+117799999V0201801N001512200019N0200001N1+02641+00491999999ADDAA199000091GA1001+999999999GF100991001001999999001001KA1999M+99999MA1999999087851MD1510031+9999ME1314689REMSYN070AAXX  23184 17203 32970 01803 10264 20049 38785 48468 55003 333 10078;EQDQ01  00002PRCP99Q02 +00782ATMX  
0162172030999992000082321004+38860+040500FM-12+117799999V0201601N002112200019N0200001N1+02321+00271999999ADDGA1001+999999999GF100991001001999999001001MA1999999088371MD1010021+9999ME1315259REMSYN070AAXX  23214 17203 42970 01604 10232 20027 38837 48525 50002 333 10067;
0192172030999992000082400004+38860+040500FM-12+117799999V0201701N001512200019N0200001N1+02181+00361999999ADDAA199000091GA1001+999999999GF100991001001999999001001MA1999999088301MD1810071+9999ME1315189REMSYN070AAXX  24004 17203 32970 01703 10218 20036 38830 48518 58007 333 10059;EQDQ01  00002PRCP99
0162172030999992000082403004+38860+040500FM-12+117799999V0209999C000012200019N0200001N1+01901+00401999999ADDGA1001+999999999GF100991001001999999001001MA1999999088291MD1810011+9999ME1315139REMSYN070AAXX  24034 17203 42970 00000 10190 20040 38829 48513 58001 333 10072;
0241172030999992000082406004+38860+040500FM-12+117799999V0209999C000012200019N0200001N1+02601+01201999999ADDAA199000091GA1001+999999999GF100991001001999999001001IA1019IA2999+01409KA1120N+01831MA1999999088281MD1810011+9999ME1315139REMSYN088AAXX  24064 17203 32970 00000 10260 20120 38828 48513 58001 333 20183 30014 50864 55095;EQDQ01  00002PRCP99
0152172030999992000082409004+38860+040500FM-12+117799999V0200601N002612200019N0200001N1+03241+01401999999ADDGF103991031011012501001001MA1999999088201MD1710081+9999ME1315079REMSYN076AAXX  24094 17203 42670 30605 10324 20140 38820 48507 57008 83100 333 10052;
0182172030999992000082412004+38860+040500FM-12+117799999V0200301N002112200019N0200001N1+03381+01401999999ADDAA199000091GF103991031011012501001001MA1999999088061MD1710141+9999ME1314939REMSYN076AAXX  24124 17203 32670 30304 10338 20140 38806 48493 57014 83100 333 10036;EQDQ01  00002PRCP99
0152172030999992000082415004+38860+040500FM-12+117799999V0200601N002112200019N0200001N1+03061+01101999999ADDGF102991021011012501001001MA1999999087951MD1710111+9999ME1314789REMSYN076AAXX  24154 17203 42670 20604 10306 20110 38795 48478 57011 82100 333 10037;
0223172030999992000082418004+38860+040500FM-12+117799999V0209999C00001036001CN0200001N1+02751+01221999999ADDAA199000091GA1031+012009089GF107991031021012501051001KA1120M+03431MA1999999087941MD1110011+9999ME1314809REMSYN088AAXX  24184 17203 32670 70000 10275 20122 38794 48480 51001 83250 333 10343 83840 87360;EQDQ01  00002PRCP99
0202172030999992000082421004+38860+040500FM-12+117799999V0201501N00151036001CN0150001N1+02201+01761999999ADDAY161031AY221031GA1041+011109089GF107991041021012501051001MA1999999088071MD1110131+9999ME1314939MW1801REMSYN088AAXX  24214 17203 41665 71503 10220 20176 38807 48493 51013 78062 84250 333 84837 87359;
0219172030999992000082500004+38860+040500FM-12+117799999V0201501N00311036001CN0150001N1+01681+01631999999ADDAA106031091AY161061AY221061GA1041+010809089GF107991041021012501051001MA1999999088181MD1110111+9999ME1315039MW1811REMSYN094AAXX  25004 17203 11665 71506 10168 20163 38818 48503 51011 60311 78162 84250 333 84836 87358;
0202172030999992000082503004+38860+040500FM-12+117799999V0209999C00001036001CN0200001N1+01701+01621999999ADDAY181031AY261031GA1041+011409069GF108991041051012501021999MA1999999088181MD1410001+9999ME1315009MW1211REMSYN088AAXX  25034 17203 41670 80000 10170 20162 38818 48500 54000 72186 8452/ 333 84638 88459;
0279172030999992000082506004+38860+040500FM-12+117799999V0209999C000010360019N0150001N1+01801+01741999999ADDAA112041991AY181061AY261061GA1041+010509069GF108991041051012501021999IA1119IA2999+00909KA1120N+01621MA1999999088221MD1310041+9999ME1315049MW1601REMSYN123AAXX  25064 17203 11665 80000 10180 20174 38822 48504 53004 60422 76086 8452/ 333 20162 32009 50864 5595 70424 84635 88459;
0202172030999992000082509004+38860+040500FM-12+117799999V0209999C00001036001CN0200001N1+02001+01851999999ADDAY161031AY221031GA1041+012009069GF108991041051012501021999MA1999999088221MD1410001+9999ME1315019MW1021REMSYN088AAXX  25094 17203 41670 80000 10200 20185 38822 48501 54000 70262 8452/ 333 84640 88460;
0219172030999992000082512004+38860+040500FM-12+117799999V0202501N00151036001CN0200001N1+02451+01801999999ADDAA106002091AY161061AY221061GA1031+012009089GF106991031011012501051001MA1999999088041MD1710181+9999ME1314839MW1011REMSYN094AAXX  25124 17203 11670 62503 10245 20180 38804 48483 57018 60021 70162 83150 333 83840 86360;
0174172030999992000082515004+38860+040500FM-12+117799999V0201601N00211036001CN0200001N1+02251+01341999999ADDGA1031+012009089GF105991031011012501051001MA1999999088001MD1610041+9999ME1314789REMSYN082AAXX  25154 17203 42670 51604 10225 20134 38800 48478 56004 83150 333 83840 85360;
0204172030999992000082518004+38860+040500FM-12+117799999V0201601N002612200019N0200001N1+02041+01321999999ADDAA112002091GA1041+012009059GF104991041041012501001001KA1120M+02671MA1999999088121MD1310121+9999ME1314899REMSYN088AAXX  25184 17203 12670 41605 10204 20132 38812 48489 53012 60022 84400 333 10267 84640;
0162172030999992000082521004+38860+040500FM-12+117799999V0209999C000012200019N0200001N1+01901+01301999999ADDGA1001+999999999GF100991001001999999001001MA1999999088181MD1110061+9999ME1314959REMSYN070AAXX  25214 17203 42970 00000 10190 20130 38818 48495 51006 333 10087;
0182172030999992000082600004+38860+040500FM-12+117799999V0209999C000012200019N0200001N1+01621+01271999999ADDAA199000091GF103991031051012501001001MA1999999088171MD1810011+9999ME1314959REMSYN076AAXX  26004 17203 32670 30000 10162 20127 38817 48495 58001 83500 333 10086;EQDQ01  00002PRCP99
0174172030999992000082603004+38860+040500FM-12+117799999V0209999C00001036001CN0200001N1+01741+01461999999ADDGA1041+012009089GF107991041021012501051001MA1999999088161MD1610011+9999ME1314949REMSYN082AAXX  26034 17203 42670 70000 10174 20146 38816 48494 56001 84250 333 84840 87360;
0240172030999992000082606004+38860+040500FM-12+117799999V0209999C000010111019N0200001N1+01901+01571999999ADDAA124001591GA1071+011109029GF107991071021012501001001IA1099IA2999+01309KA1120N+01681MA1999999088231MD1310071+9999ME1315009REMSYN106AAXX  26064 17203 32670 70000 10190 20157 38823 48500 53007 87200 333 20168 31013 50224 55028 70015 87837;
0152172030999992000082609004+38860+040500FM-12+117799999V0202701N001512200019N0200001N1+02561+01551999999ADDGF102991021011012501001001MA1999999088221MD1810011+9999ME1315029REMSYN076AAXX  26094 17203 42670 22703 10256 20155 38822 48502 58001 82100 333 10082;
0182172030999992000082612004+38860+040500FM-12+117799999V0203101N002112200019N0200001N1+02801+01421999999ADDAA199000091GF104991041021012501001001MA1999999088141MD1810081+9999ME1314959REMSYN076AAXX  26124 17203 32670 43104 10280 20142 38814 48495 58008 84200 333 10068;EQDQ01  00002PRCP99
0152172030999992000082615004+38860+040500FM-12+117799999V0200501N003112200019N0200001N1+02681+00891999999ADDGF102991021011012501001001MA1999999088021MD1710121+9999ME1314829REMSYN076AAXX  26154 17203 42670 20506 10268 20089 38802 48482 57012 82100 333 10060;
0217172030999992000082618004+38860+040500FM-12+117799999V0201601N004612200019N0200001N1+02201+01301999999ADDAA199000091GA1021+012009029GF102991021011012501001001KA1120M+02861MA1999999088201MD1210181+9999ME1314999REMSYN082AAXX  26184 17203 32670 21609 10220 20130 38820 48499 52018 82100 333 10286 82840;EQDQ01  00002PRCP99
0162172030999992000082621004+38860+040500FM-12+117799999V0209999C000012200019N0200001N1+01801+01291999999ADDGA1001+999999999GF100991001001999999001001MA1999999088421MD1110221+9999ME1315229REMSYN070AAXX  26214 17203 42970 00000 10180 20129 38842 48522 51022 333 10105;
0192172030999992000082700004+38860+040500FM-12+117799999V0201601N001512200019N0200001N1+01601+01281999999ADDAA199000091GA1001+999999999GF100991001001999999001001MA1999999088421MD1410001+9999ME1315219REMSYN070AAXX  27004 17203 32970 01603 10160 20128 38842 48521 54000 333 10105;EQDQ01  00002PRCP99
0162172030999992000082703004+38860+040500FM-12+117799999V0209999C000012200019N0200001N1+01421+01311999999ADDGA1001+999999999GF100991001001999999001001MA1999999088421MD1410001+9999ME1315209REMSYN070AAXX  27034 17203 42970 00000 10142 20131 38842 48520 54000 333 10115;
0253172030999992000082706004+38860+040500FM-12+117799999V0209999C000012200019N0200001N1+01951+01381999999ADDAA199000091GA1021+012009029GF102991021011012501001001IA1099IA2999+00909KA1120N+01381MA1999999088501MD1210081+9999ME1315289REMSYN100AAXX  27064 17203 32670 20000 10195 20138 38850 48528 52008 82100 333 20138 31009 50444 55090 82840;EQDQ01  00002PRCP99
0152172030999992000082709004+38860+040500FM-12+117799999V0209999C000012200019N0200001N1+02761+01091999999ADDGF103991031011012501001001MA1999999088531MD1110031+9999ME1315349REMSYN076AAXX  27094 17203 42670 30000 10276 20109 38853 48534 51003 83100 333 10113;
0182172030999992000082712004+38860+040500FM-12+117799999V0200901N003112200019N0200001N1+02901+00991999999ADDAA199000091GF103991031011012501001001MA1999999088401MD1710131+9999ME1315209REMSYN076AAXX  27124 17203 32670 30906 10290 20099 38840 48520 57013 83100 333 10103;EQDQ01  00002PRCP99
0162172030999992000082715004+38860+040500FM-12+117799999V0200901N001512200019N0200001N1+02681+00581999999ADDGA1001+999999999GF100991001001999999001001MA1999999088321MD1810081+9999ME1315109REMSYN070AAXX  27154 17203 42970 00903 10268 20058 38832 48510 58008 333 10103;
0221172030999992000082718004+38860+040500FM-12+117799999V0209999C000012200019N0200001N1+02141+00601999999ADDAA199000091GA1001+999999999GF100991001001999999001001KA1999M+99999MA1999999088321MD1510001+9999ME1315109REMSYN070AAXX  27184 17203 32970 00000 10214 20060 38832 48510 55000 333 10103;EQDQ01  00002PRCP99Q02 +01032ATMX  
0162172030999992000082721004+38860+040500FM-12+117799999V0201701N001512200019N0200001N1+01781+00901999999ADDGA1001+999999999GF100991001001999999001001MA1999999088361MD1110041+9999ME1315179REMSYN070AAXX  27214 17203 42970 01703 10178 20090 38836 48517 51004 333 10094;
0192172030999992000082800004+38860+040500FM-12+117799999V0209999C000012200019N0200001N1+01681+00901999999ADDAA199000091GA1001+999999999GF100991001001999999001001MA1999999088361MD1410001+9999ME1315179REMSYN070AAXX  28004 17203 32970 00000 10168 20090 38836 48517 54000 333 10094;EQDQ01  00002PRCP99
0152172030999992000082803004+38860+040500FM-12+117799999V0209999C000012200019N0200001N1+01521+00981999999ADDGF101991011011012501001001MA1999999088361MD1410001+9999ME1315159REMSYN076AAXX  28034 17203 42670 10000 10152 20098 38836 48515 54000 81100 333 10103;
0259172030999992000082806004+38860+040500FM-12+117799999V0209999C00001036001CN0200001N1+02281+01361999999ADDAA199000091GA1041+012009089GF106991041021012501051001IA1019IA2999+00809KA1120N+01541MA1999999088421MD1210061+9999ME1315229REMSYN106AAXX  28064 17203 32670 60000 10228 20136 38842 48522 52006 84250 333 20154 30008 50524 55098 84840 86360;EQDQ01  00002PRCP99
0174172030999992000082809004+38860+040500FM-12+117799999V0201601N002112200019N0200001N1+02621+01301999999ADDGA1021+012009089GF104991021011012501051001MA1999999088321MD1810101+9999ME1315129REMSYN082AAXX  28094 17203 42670 41604 10262 20130 38832 48512 58010 82150 333 82840 84360;
0182172030999992000082812004+38860+040500FM-12+117799999V0201501N003612200019N0200001N1+02801+01271999999ADDAA199000091GF103991031011012501001001MA1999999088201MD1710121+9999ME1315019REMSYN076AAXX  28124 17203 32670 31507 10280 20127 38820 48501 57012 83100 333 10080;EQDQ01  00002PRCP99
0152172030999992000082815004+38860+040500FM-12+117799999V0201601N004112200019N0200001N1+02301+00551999999ADDGF102991021011012501001001MA1999999088181MD1610021+9999ME1314959REMSYN076AAXX  28154 17203 42670 21608 10230 20055 38818 48495 56002 82100 333 10092;
0221172030999992000082818004+38860+040500FM-12+117799999V0201601N001512200019N0200001N1+01901+00291999999ADDAA199000091GA1001+999999999GF100991001001999999001001KA1999M+99999MA1999999088301MD1310121+9999ME1315089REMSYN070AAXX  28184 17203 32970 01603 10190 20029 38830 48508 53012 333 10096;EQDQ01  00002PRCP99Q02 +00962ATMX  
0162172030999992000082821004+38860+040500FM-12+117799999V0201501N002112200019N0200001N1+01801+00301999999ADDGA1001+999999999GF100991001001999999001001MA1999999088351MD1310051+9999ME1315159REMSYN070AAXX  28214 17203 42970 01504 10180 20030 38835 48515 53005 333 10097;
0192172030999992000082900004+38860+040500FM-12+117799999V0201501N003112200019N0200001N1+01651+00201999999ADDAA199000091GA1001+999999999GF100991001001999999001001MA1999999088381MD1110051+9999ME1315189REMSYN070AAXX  29004 17203 32970 01506 10165 20020 38838 48518 51005 333 10101;EQDQ01  00002PRCP99
0162172030999992000082903004+38860+040500FM-12+117799999V0201601N003112200019N0200001N1+01401+00281999999ADDGA1001+999999999GF100991001001999999001001MA1999999088381MD1410001+9999ME1315149REMSYN070AAXX  29034 17203 42970 01606 10140 20028 38838 48514 54000 333 10120;
0241172030999992000082906004+38860+040500FM-12+117799999V0201601N001512200019N0200001N1+02021+00751999999ADDAA199000091GA1001+999999999GF100991001001999999001001IA1019IA2999+00909KA1120N+01381MA1999999088421MD1310041+9999ME1315199REMSYN088AAXX  29064 17203 32970 01603 10202 20075 38842 48519 53004 333 20138 30009 50574 55095;EQDQ01  00002PRCP99
0162172030999992000082909004+38860+040500FM-12+117799999V0209999C000012200019N0200001N1+02581+00881999999ADDGA1001+999999999GF100991001001999999001001MA1999999088301MD1810121+9999ME1315109REMSYN070AAXX  29094 17203 42970 00000 10258 20088 38830 48510 58012 333 10092;
0192172030999992000082912004+38860+040500FM-12+117799999V0209999C000012200019N0200001N1+02821+00831999999ADDAA199000091GA1001+999999999GF100991001001999999001001MA1999999088101MD1710201+9999ME1314919REMSYN070AAXX  29124 17203 32970 00000 10282 20083 38810 48491 57020 333 10069;EQDQ01  00002PRCP99
0162172030999992000082915004+38860+040500FM-12+117799999V0209999C000012200019N0200001N1+02481+00641999999ADDGA1001+999999999GF100991001001999999001001MA1999999087981MD1710121+9999ME1314759REMSYN070AAXX  29154 17203 42970 00000 10248 20064 38798 48475 57012 333 10069;
0221172030999992000082918004+38860+040500FM-12+117799999V0209999C000012200019N0200001N1+02021+00481999999ADDAA199000091GA1001+999999999GF100991001001999999001001KA1999M+99999MA1999999087961MD1610021+9999ME1314749REMSYN070AAXX  29184 17203 32970 00000 10202 20048 38796 48474 56002 333 10062;EQDQ01  00002PRCP99Q02 +00622ATMX  
0162172030999992000082921004+38860+040500FM-12+117799999V0209999C000012200019N0200001N1+01861+00491999999ADDGA1001+999999999GF100991001001999999001001MA1999999088021MD1110061+9999ME1314829REMSYN070AAXX  29214 17203 42970 00000 10186 20049 38802 48482 51006 333 10060;
0192172030999992000083000004+38860+040500FM-12+117799999V0209999C000012200019N0200001N1+01621+00531999999ADDAA199000091GA1001+999999999GF100991001001999999001001MA1999999088001MD1610021+9999ME1314819REMSYN070AAXX  30004 17203 32970 00000 10162 20053 38800 48481 56002 333 10057;EQDQ01  00002PRCP99
0162172030999992000083003004+38860+040500FM-12+117799999V0209999C000012200019N0200001N1+01501+00681999999ADDGA1001+999999999GF100991001001999999001001MA1999999087971MD1810031+9999ME1314759REMSYN070AAXX  30034 17203 42970 00000 10150 20068 38797 48475 58003 333 10063;
0241172030999992000083006004+38860+040500FM-12+117799999V0209999C000012200019N0200001N1+01981+01031999999ADDAA199000091GA1001+999999999GF100991001001999999001001IA1019IA2999+01009KA1120N+01481MA1999999087931MD1710041+9999ME1314719REMSYN088AAXX  30064 17203 32970 00000 10198 20103 38793 48471 57004 333 20148 30010 50654 55098;EQDQ01  00002PRCP99
0152172030999992000083009004+38860+040500FM-12+117799999V0202601N001512200019N0200001N1+02521+01051999999ADDGF101991011011012501001001MA1999999087911MD1810021+9999ME1314719REMSYN076AAXX  30094 17203 42670 12603 10252 20105 38791 48471 58002 81100 333 10047;
0182172030999992000083012004+38860+040500FM-12+117799999V0201601N001512200019N0200001N1+02781+01081999999ADDAA199000091GF102991021011012501001001MA1999999087801MD1710111+9999ME1314609REMSYN076AAXX  30124 17203 32670 21603 10278 20108 38780 48460 57011 82100 333 10034;EQDQ01  00002PRCP99
0152172030999992000083015004+38860+040500FM-12+117799999V0209999C000012200019N0200001N1+02361+00701999999ADDGF101991011011012501001001MA1999999087741MD1710061+9999ME1314529REMSYN076AAXX  30154 17203 42670 10000 10236 20070 38774 48452 57006 81100 333 10042;
0221172030999992000083018004+38860+040500FM-12+117799999V0201601N002612200019N0200001N1+02001+00731999999ADDAA199000091GA1001+999999999GF100991001001999999001001KA1999M+99999MA1999999087901MD1310161+9999ME1314689REMSYN070AAXX  30184 17203 32970 01605 10200 20073 38790 48468 53016 333 10055;EQDQ01  00002PRCP99Q02 +00552ATMX  
0162172030999992000083021004+38860+040500FM-12+117799999V0201601N002612200019N0200001N1+01781+00701999999ADDGA1001+999999999GF100991001001999999001001MA1999999087981MD1210081+9999ME1314789REMSYN070AAXX  30214 17203 42970 01605 10178 20070 38798 48478 52008 333 10055;
0192172030999992000083100004+38860+040500FM-12+117799999V0201601N003112200019N0200001N1+01671+00661999999ADDAA199000091GA1001+999999999GF100991001001999999001001MA1999999087981MD1410001+9999ME1314789REMSYN070AAXX  31004 17203 32970 01606 10167 20066 38798 48478 54000 333 10055;EQDQ01  00002PRCP99
0162172030999992000083103004+38860+040500FM-12+117799999V0201601N002612200019N0200001N1+01541+00651999999ADDGA1001+999999999GF100991001001999999001001MA1999999087981MD1410001+9999ME1314769REMSYN070AAXX  31034 17203 42970 01605 10154 20065 38798 48476 54000 333 10065;
0241172030999992000083106004+38860+040500FM-12+117799999V0201601N002612200019N0200001N1+02001+00881999999ADDAA199000091GA1001+999999999GF100991001001999999001001IA1019IA2999+01009KA1120N+01501MA1999999088101MD1210121+9999ME1314879REMSYN088AAXX  31064 17203 32970 01605 10200 20088 38810 48487 52012 333 20150 30010 50614 55096;EQDQ01  00002PRCP99
0152172030999992000083109004+38860+040500FM-12+117799999V0209999C000012200019N0200001N1+02541+01161999999ADDGF103991031011012501001001MA1999999088021MD1810081+9999ME1314829REMSYN076AAXX  31094 17203 42670 30000 10254 20116 38802 48482 58008 83100 333 10060;
0182172030999992000083112004+38860+040500FM-12+117799999V0201601N001512200019N0200001N1+02801+01111999999ADDAA199000091GF103991031011012501001001MA1999999087981MD1710041+9999ME1314789REMSYN076AAXX  31124 17203 32670 31603 10280 20111 38798 48478 57004 83100 333 10055;EQDQ01  00002PRCP99
0174172030999992000083115004+38860+040500FM-12+117799999V0201301N00511036001CN0200001N1+02051+00841999999ADDGA1031+012009089GF105991031011012501051001MA1999999087951MD1510031+9999ME1314719REMSYN082AAXX  31154 17203 42670 51310 10205 20084 38795 48471 55003 83150 333 83840 85360;
0217172030999992000083118004+38860+040500FM-12+117799999V0201601N001512200019N0200001N1+01681+00861999999ADDAA199000091GA1021+012009029GF102991021011012501001001KA1120M+02821MA1999999088231MD1210281+9999ME1314999REMSYN082AAXX  31184 17203 32670 21603 10168 20086 38823 48499 52028 82100 333 10282 82840;EQDQ01  00002PRCP99
0162172030999992000083121004+38860+040500FM-12+117799999V0201601N002612200019N0200001N1+01641+00771999999ADDGA1001+999999999GF100991001001999999001001MA1999999088281MD1210051+9999ME1315079REMSYN070AAXX  31214 17203 42970 01605 10164 20077 38828 48507 52005 333 10094;
0192172030999992000090100004+38860+040500FM-12+117799999V0201501N002612200019N0200001N1+01501+00761999999ADDAA199000091GA1001+999999999GF100991001001999999001001MA1999999088271MD1810011+9999ME1315069REMSYN070AAXX  01004 17203 32970 01505 10150 20076 38827 48506 58001 333 10088;EQDQ01  00002PRCP99
0162172030999992000090103004+38860+040500FM-12+117799999V0201601N003612200019N0200001N1+01381+00781999999ADDGA1001+999999999GF100991001001999999001001MA1999999088301MD1110031+9999ME1315049REMSYN070AAXX  01034 17203 42970 01607 10138 20078 38830 48504 51003 333 10116;
0241172030999992000090106004+38860+040500FM-12+117799999V0201601N001512200019N0200001N1+01901+01011999999ADDAA199000091GA1001+999999999GF100991001001999999001001IA1019IA2999+00609KA1120N+01341MA1999999088361MD1010061+9999ME1315129REMSYN088AAXX  01064 17203 32970 01603 10190 20101 38836 48512 50006 333 20134 30006 50664 55076;EQDQ01  00002PRCP99
0152172030999992000090109004+38860+040500FM-12+117799999V0203401N001512200019N0200001N1+02441+01111999999ADDGF102991021011012501001001MA1999999088261MD1710101+9999ME1315049REMSYN076AAXX  01094 17203 42670 23403 10244 20111 38826 48504 57010 82100 333 10097;
0162172030999992000090115004+38860+040500FM-12+117799999V0201601N003112200019N0200001N1+02401+00931999999ADDGA1001+999999999GF100991001001999999001001MA1999999088041MD1710091+9999ME1314819REMSYN070AAXX  01154 17203 42970 01606 10240 20093 38804 48481 57009 333 10076;
0221172030999992000090118004+38860+040500FM-12+117799999V0201601N002112200019N0200001N1+02001+00641999999ADDAA199000091GA1001+999999999GF100991001001999999001001KA1999M+99999MA1999999088121MD1210081+9999ME1314909REMSYN070AAXX  01184 17203 32970 01604 10200 20064 38812 48490 52008 333 10081;EQDQ01  00002PRCP99Q02 +00812ATMX  
0162172030999992000090121004+38860+040500FM-12+117799999V0201601N001512200019N0200001N1+01821+00621999999ADDGA1001+999999999GF100991001001999999001001MA1999999088201MD1210081+9999ME1314999REMSYN070AAXX  01214 17203 42970 01603 10182 20062 38820 48499 52008 333 10085;
0192172030999992000090200004+38860+040500FM-12+117799999V0201601N001512200019N0200001N1+01701+00591999999ADDAA199000091GA1001+999999999GF100991001001999999001001MA1999999088201MD1410001+9999ME1315009REMSYN070AAXX  02004 17203 32970 01603 10170 20059 38820 48500 54000 333 10080;EQDQ01  00002PRCP99
0162172030999992000090203004+38860+040500FM-12+117799999V0209999C000012200019N0200001N1+01401+00691999999ADDGA1001+999999999GF100991001001999999001001MA1999999088201MD1410001+9999ME1314979REMSYN070AAXX  02034 17203 42970 00000 10140 20069 38820 48497 54000 333 10095;
0241172030999992000090206004+38860+040500FM-12+117799999V0209999C000012200019N0200001N1+02001+01021999999ADDAA199000091GA1001+999999999GF100991001001999999001001IA1019IA2999+00609KA1120N+01371MA1999999088201MD1410001+9999ME1314989REMSYN088AAXX  02064 17203 32970 00000 10200 20102 38820 48498 54000 333 20137 30006 50574 55098;EQDQ01  00002PRCP99
0162172030999992000090209004+38860+040500FM-12+117799999V0209999C000012200019N0200001N1+02731+01111999999ADDGA1001+999999999GF100991001001999999001001MA1999999088131MD1810071+9999ME1314949REMSYN070AAXX  02094 17203 42970 00000 10273 20111 38813 48494 58007 333 10067;
0192172030999992000090212004+38860+040500FM-12+117799999V0209999C000012200019N0200001N1+02981+00821999999ADDAA199000091GA1001+999999999GF100991001001999999001001MA1999999087971MD1710161+9999ME1314789REMSYN070AAXX  02124 17203 32970 00000 10298 20082 38797 48478 57016 333 10049;EQDQ01  00002PRCP99
0162172030999992000090215004+38860+040500FM-12+117799999V0209999C000012200019N0200001N1+02521+00341999999ADDGA1001+999999999GF100991001001999999001001MA1999999087901MD1610071+9999ME1314689REMSYN070AAXX  02154 17203 42970 00000 10252 20034 38790 48468 56007 333 10055;
0221172030999992000090218004+38860+040500FM-12+117799999V0209999C000012200019N0200001N1+02041+00301999999ADDAA199000091GA1001+999999999GF100991001001999999001001KA1999M+99999MA1999999087901MD1510001+9999ME1314689REMSYN070AAXX  02184 17203 32970 00000 10204 20030 38790 48468 55000 333 10055;EQDQ01  00002PRCP99Q02 +00552ATMX  
0162172030999992000090221004+38860+040500FM-12+117799999V0209999C000012200019N0200001N1+01721+00381999999ADDGA1001+999999999GF100991001001999999001001MA1999999088001MD1110101+9999ME1314819REMSYN070AAXX  02214 17203 42970 00000 10172 20038 38800 48481 51010 333 10057;
0192172030999992000090300004+38860+040500FM-12+117799999V0209999C000012200019N0200001N1+01501+00601999999ADDAA199000091GA1001+999999999GF100991001001999999001001MA1999999088001MD1410001+9999ME1314809REMSYN070AAXX  03004 17203 32970 00000 10150 20060 38800 48480 54000 333 10057;EQDQ01  00002PRCP99
0162172030999992000090303004+38860+040500FM-12+117799999V0209999C000012200019N0200001N1+01301+00341999999ADDGA1001+999999999GF100991001001999999001001MA1999999088001MD1410001+9999ME1314779REMSYN070AAXX  03034 17203 42970 00000 10130 20034 38800 48477 54000 333 10072;
0241172030999992000090306004+38860+040500FM-12+117799999V0209999C000012200019N0200001N1+02001+00901999999ADDAA199000091GA1001+999999999GF100991001001999999001001IA1019IA2999+00609KA1120N+01301MA1999999088001MD1410001+9999ME1314789REMSYN088AAXX  03064 17203 32970 00000 10200 20090 38800 48478 54000 333 20130 30006 50664 55095;EQDQ01  00002PRCP99
0162172030999992000090309004+38860+040500FM-12+117799999V0209999C000012200019N0200001N1+02901+01001999999ADDGA1001+999999999GF100991001001999999001001MA1999999088001MD1410001+9999ME1314819REMSYN070AAXX  03094 17203 42970 00000 10290 20100 38800 48481 54000 333 10053;
0192172030999992000090312004+38860+040500FM-12+117799999V0203601N002112200019N0200001N1+03101+00851999999ADDAA199000091GA1001+999999999GF100991001001999999001001MA1999999087941MD1810061+9999ME1314759REMSYN070AAXX  03124 17203 32970 03604 10310 20085 38794 48475 58006 333 10046;EQDQ01  00002PRCP99
0162172030999992000090315004+38860+040500FM-12+117799999V0209999C000012200019N0200001N1+02601+00251999999ADDGA1001+999999999GF100991001001999999001001MA1999999087901MD1610041+9999ME1314689REMSYN070AAXX  03154 17203 42970 00000 10260 20025 38790 48468 56004 333 10055;
0221172030999992000090318004+38860+040500FM-12+117799999V0209999C000012200019N0200001N1+02131+00371999999ADDAA199000091GA1001+999999999GF100991001001999999001001KA1999M+99999MA1999999087981MD1310081+9999ME1314779REMSYN070AAXX  03184 17203 32970 00000 10213 20037 38798 48477 53008 333 10060;EQDQ01  00002PRCP99Q02 +00602ATMX  
0162172030999992000090321004+38860+040500FM-12+117799999V0209999C000012200019N0200001N1+01781+00521999999ADDGA1001+999999999GF100991001001999999001001MA1999999088041MD1210061+9999ME1314869REMSYN070AAXX  03214 17203 42970 00000 10178 20052 38804 48486 52006 333 10057;
0192172030999992000090400004+38860+040500FM-12+117799999V0209999C000012200019N0200001N1+01581+00611999999ADDAA199000091GA1001+999999999GF100991001001999999001001MA1999999088101MD1210061+9999ME1314929REMSYN070AAXX  04004 17203 32970 00000 10158 20061 38810 48492 52006 333 10064;EQDQ01  00002PRCP99
0162172030999992000090403004+38860+040500FM-12+117799999V0209999C000012200019N0200001N1+01381+00581999999ADDGA1001+999999999GF100991001001999999001001MA1999999088181MD1210081+9999ME1314969REMSYN070AAXX  04034 17203 42970 00000 10138 20058 38818 48496 52008 333 10087;
0241172030999992000090406004+38860+040500FM-12+117799999V0209999C000012200019N0200001N1+02001+00981999999ADDAA199000091GA1001+999999999GF100991001001999999001001IA1019IA2999+00609KA1120N+01351MA1999999088321MD1210141+9999ME1315119REMSYN088AAXX  04064 17203 32970 00000 10200 20098 38832 48511 52014 333 20135 30006 50664 55096;EQDQ01  00002PRCP99
0152172030999992000090409004+38860+040500FM-12+117799999V0209999C000012200019N0200001N1+03001+01341999999ADDGF101991011011012501001001MA1999999088381MD1010061+9999ME1315209REMSYN076AAXX  04094 17203 42670 10000 10300 20134 38838 48520 50006 81100 333 10091;
0177172030999992000090412004+38860+040500FM-12+117799999V0200301N002112200019N0200001N1+03171+00911999999ADDAA199000091GA1001+999999999GF100991001001999999001001MA1999999088261ME1315089REMSYN069AAXX  04124 17203 32970 00304 10317 20091 38826 48508 5701 333 10078;EQDQ01  00002PRCP99
0162172030999992000090415004+38860+040500FM-12+117799999V0200301N002112200019N0200001N1+02721+00791999999ADDGA1001+999999999GF100991001001999999001001MA1999999088201MD1610061+9999ME1314989REMSYN070AAXX  04154 17203 42970 00304 10272 20079 38820 48498 56006 333 10090;
0221172030999992000090418004+38860+040500FM-12+117799999V0209999C000012200019N0200001N1+02201+00691999999ADDAA199000091GA1001+999999999GF100991001001999999001001KA1999M+99999MA1999999088301MD1310101+9999ME1315099REMSYN070AAXX  04184 17203 32970 00000 10220 20069 38830 48509 53010 333 10096;EQDQ01  00002PRCP99Q02 +00962ATMX  
0162172030999992000090421004+38860+040500FM-12+117799999V0209999C000012200019N0200001N1+01941+00641999999ADDGA1001+999999999GF100991001001999999001001MA1999999088401MD1210101+9999ME1315239REMSYN070AAXX  04214 17203 42970 00000 10194 20064 38840 48523 52010 333 10089;
0192172030999992000090500004+38860+040500FM-12+117799999V0209999C000012200019N0200001N1+01641+00621999999ADDAA199000091GA1001+999999999GF100991001001999999001001MA1999999088401MD1410001+9999ME1315229REMSYN070AAXX  05004 17203 32970 00000 10164 20062 38840 48522 54000 333 10094;EQDQ01  00002PRCP99
0162172030999992000090503004+38860+040500FM-12+117799999V0209999C000012200019N0200001N1+01441+00611999999ADDGA1001+999999999GF100991001001999999001001MA1999999088401MD1410001+9999ME1315189REMSYN070AAXX  05034 17203 42970 00000 10144 20061 38840 48518 54000 333 10108;
0241172030999992000090506004+38860+040500FM-12+117799999V0209999C000012200019N0200001N1+02021+01041999999ADDAA199000091GA1001+999999999GF100991001001999999001001IA1019IA2999+00909KA1120N+01401MA1999999088481MD1310081+9999ME1315279REMSYN088AAXX  05064 17203 32970 00000 10202 20104 38848 48527 53008 333 20140 30009 50624 55095;EQDQ01  00002PRCP99
0162172030999992000090509004+38860+040500FM-12+117799999V0209999C000012200019N0200001N1+02941+01341999999ADDGA1001+999999999GF100991001001999999001001MA1999999088331MD1810151+9999ME1315169REMSYN070AAXX  05094 17203 42970 00000 10294 20134 38833 48516 58015 333 10086;
0192172030999992000090512004+38860+040500FM-12+117799999V0209999C000012200019N0200001N1+03151+01171999999ADDAA199000091GA1001+999999999GF100991001001999999001001MA1999999088161MD1710171+9999ME1314989REMSYN070AAXX  05124 17203 32970 00000 10315 20117 38816 48498 57017 333 10066;EQDQ01  00002PRCP99
0162172030999992000090515004+38860+040500FM-12+117799999V0201601N001512200019N0200001N1+02721+01001999999ADDGA1001+999999999GF100991001001999999001001MA1999999088071MD1710091+9999ME1314869REMSYN070AAXX  05154 17203 42970 01603 10272 20100 38807 48486 57009 333 10070;
0221172030999992000090518004+38860+040500FM-12+117799999V0201601N002112200019N0200001N1+02361+00741999999ADDAA199000091GA1001+999999999GF100991001001999999001001KA1999M+99999MA1999999088131MD1310061+9999ME1314939REMSYN070AAXX  05184 17203 32970 01604 10236 20074 38813 48493 53006 333 10072;EQDQ01  00002PRCP99Q02 +00722ATMX  
0162172030999992000090521004+38860+040500FM-12+117799999V0209999C000012200019N0200001N1+01921+00551999999ADDGA1001+999999999GF100991001001999999001001MA1999999088171MD1110041+9999ME1315009REMSYN070AAXX  05214 17203 42970 00000 10192 20055 38817 48500 51004 333 10067;
0192172030999992000090600004+38860+040500FM-12+117799999V0209999C000012200019N0200001N1+01801+00591999999ADDAA199000091GA1001+999999999GF100991001001999999001001MA1999999088121MD1810051+9999ME1314969REMSYN070AAXX  06004 17203 32970 00000 10180 20059 38812 48496 58005 333 10057;EQDQ01  00002PRCP99
0162172030999992000090603004+38860+040500FM-12+117799999V0209999C000012200019N0200001N1+01501+00601999999ADDGA1001+999999999GF100991001001999999001001MA1999999088121MD1410001+9999ME1314919REMSYN070AAXX  06034 17203 42970 00000 10150 20060 38812 48491 54000 333 10076;
0241172030999992000090606004+38860+040500FM-12+117799999V0209999C000012200019N0200001N1+02001+01021999999ADDAA199000091GA1001+999999999GF100991001001999999001001IA1019IA2999+00609KA1120N+01451MA1999999088121MD1410001+9999ME1314939REMSYN088AAXX  06064 17203 32970 00000 10200 20102 38812 48493 54000 333 20145 30006 50694 55094;EQDQ01  00002PRCP99
0162172030999992000090609004+38860+040500FM-12+117799999V0209999C000012200019N0200001N1+03001+01231999999ADDGA1001+999999999GF100991001001999999001001MA1999999088001MD1710121+9999ME1314839REMSYN070AAXX  06094 17203 42970 00000 10300 20123 38800 48483 57012 333 10043;
0182172030999992000090612004+38860+040500FM-12+117799999V0200601N002112200019N0200001N1+03231+00991999999ADDAA199000091GF101991011011012501001001MA1999999087841MD1710161+9999ME1314679REMSYN076AAXX  06124 17203 32670 10604 10323 20099 38784 48467 57016 81100 333 10025;EQDQ01  00002PRCP99
0152172030999992000090615004+38860+040500FM-12+117799999V0209999C000012200019N0200001N1+02721+00951999999ADDGF102991021011012501001001MA1999999087771MD1710071+9999ME1314579REMSYN076AAXX  06154 17203 42670 20000 10272 20095 38777 48457 57007 82100 333 10036;
0217172030999992000090618004+38860+040500FM-12+117799999V0209999C000012200019N0200001N1+02201+00741999999ADDAA199000091GA1021+030009079GF102991021001999999031001KA1120M+03261MA1999999087771MD1410001+9999ME1314579REMSYN082AAXX  06184 17203 32970 20000 10220 20074 38777 48457 54000 82030 333 10326 82360;EQDQ01  00002PRCP99
0162172030999992000090621004+38860+040500FM-12+117799999V0209999C000012200019N0200001N1+01961+00761999999ADDGA1001+999999999GF100991001001999999001001MA1999999087801MD1110031+9999ME1314639REMSYN070AAXX  06214 17203 42970 00000 10196 20076 38780 48463 51003 333 10020;
0192172030999992000090700004+38860+040500FM-12+117799999V0209999C000012200019N0200001N1+01741+00771999999ADDAA199000091GA1001+999999999GF100991001001999999001001MA1999999087801MD1410001+9999ME1314639REMSYN070AAXX  07004 17203 32970 00000 10174 20077 38780 48463 54000 333 10020;EQDQ01  00002PRCP99
0162172030999992000090703004+38860+040500FM-12+117799999V0201801N001512200019N0200001N1+01641+00851999999ADDGA1001+999999999GF100991001001999999001001MA1999999087801MD1410001+9999ME1314609REMSYN070AAXX  07034 17203 42970 01803 10164 20085 38780 48460 54000 333 10034;
0241172030999992000090706004+38860+040500FM-12+117799999V0209999C000012200019N0200001N1+02101+01221999999ADDAA199000091GA1001+999999999GF100991001001999999001001IA1019IA2999+01009KA1120N+01571MA1999999087951MD1210151+9999ME1314749REMSYN088AAXX  07064 17203 32970 00000 10210 20122 38795 48474 52015 333 20157 30010 50704 55092;EQDQ01  00002PRCP99
0162172030999992000090709004+38860+040500FM-12+117799999V0200301N002612200019N0200001N1+02801+01271999999ADDGA1001+999999999GF100991001001999999001001MA1999999088001MD1110051+9999ME1314829REMSYN070AAXX  07094 17203 42970 00305 10280 20127 38800 48482 51005 333 10048;
0192172030999992000090712004+38860+040500FM-12+117799999V0200401N002112200019N0200001N1+02901+01331999999ADDAA199000091GA1001+999999999GF100991001001999999001001MA1999999088001MD1410001+9999ME1314809REMSYN070AAXX  07124 17203 32970 00404 10290 20133 38800 48480 54000 333 10053;EQDQ01  00002PRCP99
0152172030999992000090715004+38860+040500FM-12+117799999V0200301N002612200019N0200001N1+02701+01051999999ADDGF102991021011012501001001MA1999999088001MD1410001+9999ME1314809REMSYN076AAXX  07154 17203 42670 20305 10270 20105 38800 48480 54000 82100 333 10057;
0217172030999992000090718004+38860+040500FM-12+117799999V0209999C000012200019N0200001N1+02201+00871999999ADDAA199000091GA1011+012009029GF101991011011012501001001KA1120M+02951MA1999999088231MD1310231+9999ME1315029REMSYN082AAXX  07184 17203 32670 10000 10220 20087 38823 48502 53023 81100 333 10295 81840;EQDQ01  00002PRCP99
0162172030999992000090721004+38860+040500FM-12+117799999V0209999C000012200019N0200001N1+01761+00841999999ADDGA1001+999999999GF100991001001999999001001MA1999999088351MD1210121+9999ME1315169REMSYN070AAXX  07214 17203 42970 00000 10176 20084 38835 48516 52012 333 10092;
0192172030999992000090800004+38860+040500FM-12+117799999V0209999C000012200019N0200001N1+01551+00881999999ADDAA199000091GA1001+999999999GF100991001001999999001001MA1999999088451MD1210101+9999ME1315259REMSYN070AAXX  08004 17203 32970 00000 10155 20088 38845 48525 52010 333 10109;EQDQ01  00002PRCP99
0162172030999992000090803004+38860+040500FM-12+117799999V0209999C000012200019N0200001N1+01471+00941999999ADDGA1001+999999999GF100991001001999999001001MA1999999088551MD1210101+9999ME1315339REMSYN070AAXX  08034 17203 42970 00000 10147 20094 38855 48533 52010 333 10125;
0241172030999992000090806004+38860+040500FM-12+117799999V0209999C000012200019N0200001N1+02101+01321999999ADDAA199000091GA1001+999999999GF100991001001999999001001IA1019IA2999+00909KA1120N+01421MA1999999088721MD1210171+9999ME1315519REMSYN088AAXX  08064 17203 32970 00000 10210 20132 38872 48551 52017 333 20142 30009 50724 55091;EQDQ01  00002PRCP99
0162172030999992000090809004+38860+040500FM-12+117799999V0203601N001512200019N0200001N1+02701+00921999999ADDGA1001+999999999GF100991001001999999001001MA1999999088801MD1110081+9999ME1315609REMSYN070AAXX  08094 17203 42970 03603 10270 20092 38880 48560 51008 333 10149;
0192172030999992000090812004+38860+040500FM-12+117799999V0200401N001512200019N0200001N1+02801+00841999999ADDAA199000091GA1001+999999999GF100991001001999999001001MA1999999088801MD1410001+9999ME1315599REMSYN070AAXX  08124 17203 32970 00403 10280 20084 38880 48559 54000 333 10149;EQDQ01  00002PRCP99
0162172030999992000090815004+38860+040500FM-12+117799999V0209999C000012200019N0200001N1+02501+00851999999ADDGA1001+999999999GF100991001001999999001001MA1999999088801MD1410001+9999ME1315569REMSYN070AAXX  08154 17203 42970 00000 10250 20085 38880 48556 54000 333 10158;
0221172030999992000090818004+38860+040500FM-12+117799999V0209999C000012200019N0200001N1+01931+00651999999ADDAA199000091GA1001+999999999GF100991001001999999001001KA1999M+99999MA1999999088901MD1310101+9999ME1315669REMSYN070AAXX  08184 17203 32970 00000 10193 20065 38890 48566 53010 333 10170;EQDQ01  00002PRCP99Q02 +01702ATMX  
0162172030999992000090821004+38860+040500FM-12+117799999V0209999C000012200019N0200001N1+01701+00631999999ADDGA1001+999999999GF100991001001999999001001MA1999999089001MD1110101+9999ME1315799REMSYN070AAXX  08214 17203 42970 00000 10170 20063 38900 48579 51010 333 10172;
0192172030999992000090900004+38860+040500FM-12+117799999V0209999C000012200019N0200001N1+01401+00681999999ADDAA199000091GA1001+999999999GF100991001001999999001001MA1999999089041MD1110041+9999ME1315819REMSYN070AAXX  09004 17203 32970 00000 10140 20068 38904 48581 51004 333 10181;EQDQ01  00002PRCP99
0162172030999992000090903004+38860+040500FM-12+117799999V0209999C000012200019N0200001N1+01201+00651999999ADDGA1001+999999999GF100991001001999999001001MA1999999089041MD1410001+9999ME1315789REMSYN070AAXX  09034 17203 42970 00000 10120 20065 38904 48578 54000 333 10196;
0241172030999992000090906004+38860+040500FM-12+117799999V0209999C000012200019N0200001N1+01861+00881999999ADDAA199000091GA1001+999999999GF100991001001999999001001IA1019IA2999+00709KA1120N+01191MA1999999089101MD1310061+9999ME1315849REMSYN088AAXX  09064 17203 32970 00000 10186 20088 38910 48584 53006 333 20119 30007 50634 55091;EQDQ01  00002PRCP99
0162172030999992000090909004+38860+040500FM-12+117799999V0209999C000012200019N0200001N1+02841+01201999999ADDGA1001+999999999GF100991001001999999001001MA1999999089041MD1810061+9999ME1315849REMSYN070AAXX  09094 17203 42970 00000 10284 20120 38904 48584 58006 333 10171;
0192172030999992000090912004+38860+040500FM-12+117799999V0209999C000012200019N0200001N1+03181+01101999999ADDAA199000091GA1001+999999999GF100991001001999999001001MA1999999088881MD1710161+9999ME1315679REMSYN070AAXX  09124 17203 32970 00000 10318 20110 38888 48567 57016 333 10153;EQDQ01  00002PRCP99
0162172030999992000090915004+38860+040500FM-12+117799999V0209999C000012200019N0200001N1+02661+00811999999ADDGA1001+999999999GF100991001001999999001001MA1999999088701MD1710181+9999ME1315469REMSYN070AAXX  09154 17203 42970 00000 10266 20081 38870 48546 57018 333 10152;
0221172030999992000090918004+38860+040500FM-12+117799999V0209999C000012200019N0200001N1+02321+00601999999ADDAA199000091GA1001+999999999GF100991001001999999001001KA1999M+99999MA1999999088701MD1410001+9999ME1315479REMSYN070AAXX  09184 17203 32970 00000 10232 20060 38870 48547 54000 333 10142;EQDQ01  00002PRCP99Q02 +01422ATMX  
0162172030999992000090921004+38860+040500FM-12+117799999V0201501N003612200019N0200001N1+02231+00841999999ADDGA1001+999999999GF100991001001999999001001MA1999999088761MD1310061+9999ME1315609REMSYN070AAXX  09214 17203 42970 01507 10223 20084 38876 48560 53006 333 10130;
0192172030999992000091000004+38860+040500FM-12+117799999V0201501N003112200019N0200001N1+02001+01011999999ADDAA199000091GA1001+999999999GF100991001001999999001001MA1999999088761MD1410001+9999ME1315609REMSYN070AAXX  10004 17203 32970 01506 10200 20101 38876 48560 54000 333 10125;EQDQ01  00002PRCP99
0162172030999992000091003004+38860+040500FM-12+117799999V0201501N002612200019N0200001N1+01801+01041999999ADDGA1001+999999999GF100991001001999999001001MA1999999088701MD1810061+9999ME1315509REMSYN070AAXX  10034 17203 42970 01505 10180 20104 38870 48550 58006 333 10137;
0253172030999992000091006004+38860+040500FM-12+117799999V0201501N001512200019N0200001N1+02171+00971999999ADDAA199000091GA1011+012009029GF101991011011012501001001IA1019IA2999+01109KA1120N+01781MA1999999088761MD1110061+9999ME1315559REMSYN100AAXX  10064 17203 32670 11503 10217 20097 38876 48555 51006 81100 333 20178 30011 50644 55093 81840;EQDQ01  00002PRCP99
0152172030999992000091009004+38860+040500FM-12+117799999V0202501N003612200019N0200001N1+02651+01201999999ADDGF102991021011012501001001MA1999999088631MD1810131+9999ME1315469REMSYN076AAXX  10094 17203 42670 22507 10265 20120 38863 48546 58013 82100 333 10120;
0182172030999992000091012004+38860+040500FM-12+117799999V0202501N003612200019N0200001N1+02851+01111999999ADDAA199000091GF102991021011012501001001MA1999999088471MD1710161+9999ME1315309REMSYN076AAXX  10124 17203 32670 22507 10285 20111 38847 48530 57016 82100 333 10102;EQDQ01  00002PRCP99
0152172030999992000091015004+38860+040500FM-12+117799999V0202501N004112200019N0200001N1+02581+00831999999ADDGF101991011011012501001001MA1999999088431MD1610041+9999ME1315239REMSYN076AAXX  10154 17203 42670 12508 10258 20083 38843 48523 56004 81100 333 10133;
0221172030999992000091018004+38860+040500FM-12+117799999V0201601N002612200019N0200001N1+02061+00811999999ADDAA199000091GA1001+999999999GF100991001001999999001001KA1999M+99999MA1999999088621MD1210191+9999ME1315419REMSYN070AAXX  10184 17203 32970 01605 10206 20081 38862 48541 52019 333 10133;EQDQ01  00002PRCP99Q02 +01332ATMX  
0162172030999992000091021004+38860+040500FM-12+117799999V0209999C000012200019N0200001N1+01781+00561999999ADDGA1001+999999999GF100991001001999999001001MA1999999088681MD1110061+9999ME1315489REMSYN070AAXX  10214 17203 42970 00000 10178 20056 38868 48548 51006 333 10135;
0192172030999992000091100004+38860+040500FM-12+117799999V0201601N001512200019N0200001N1+01541+00471999999ADDAA199000091GA1001+999999999GF100991001001999999001001MA1999999088701MD1110021+9999ME1315499REMSYN070AAXX  11004 17203 32970 01603 10154 20047 38870 48549 51002 333 10137;EQDQ01  00002PRCP99
0162172030999992000091103004+38860+040500FM-12+117799999V0201601N002112200019N0200001N1+01381+00531999999ADDGA1001+999999999GF100991001001999999001001MA1999999088701MD1410001+9999ME1315469REMSYN070AAXX  11034 17203 42970 01604 10138 20053 38870 48546 54000 333 10147;
0241172030999992000091106004+38860+040500FM-12+117799999V0209999C000012200019N0200001N1+02101+01181999999ADDAA199000091GA1001+999999999GF100991001001999999001001IA1019IA2999+00809KA1120N+01361MA1999999088701MD1410001+9999ME1315489REMSYN088AAXX  11064 17203 32970 00000 10210 20118 38870 48548 54000 333 20136 30008 50864 55092;EQDQ01  00002PRCP99
0162172030999992000091109004+38860+040500FM-12+117799999V0203401N003112200019N0200001N1+02641+01211999999ADDGA1001+999999999GF100991001001999999001001MA1999999088601MD1810101+9999ME1315409REMSYN070AAXX  11094 17203 42970 03406 10264 20121 38860 48540 58010 333 10126;
0192172030999992000091112004+38860+040500FM-12+117799999V0209999C000012200019N0200001N1+02981+01191999999ADDAA199000091GA1001+999999999GF100991001001999999001001MA1999999088401MD1710201+9999ME1315219REMSYN070AAXX  11124 17203 32970 00000 10298 20119 38840 48521 57020 333 10098;EQDQ01  00002PRCP99
0162172030999992000091115004+38860+040500FM-12+117799999V0209999C000012200019N0200001N1+02501+01111999999ADDGA1001+999999999GF100991001001999999001001MA1999999088201MD1710201+9999ME1314979REMSYN070AAXX  11154 17203 42970 00000 10250 20111 38820 48497 57020 333 10095;
0221172030999992000091118004+38860+040500FM-12+117799999V0209999C000012200019N0200001N1+02041+00821999999ADDAA199000091GA1001+999999999GF100991001001999999001001KA1999M+99999MA1999999088241MD1310041+9999ME1315039REMSYN070AAXX  11184 17203 32970 00000 10204 20082 38824 48503 53004 333 10089;EQDQ01  00002PRCP99Q02 +00892ATMX  
0162172030999992000091121004+38860+040500FM-12+117799999V0209999C000012200019N0200001N1+01761+00801999999ADDGA1001+999999999GF100991001001999999001001MA1999999088271MD1110031+9999ME1315079REMSYN070AAXX  11214 17203 42970 00000 10176 20080 38827 48507 51003 333 10088;
0192172030999992000091200004+38860+040500FM-12+117799999V0209999C000012200019N0200001N1+01541+00691999999ADDAA199000091GA1001+999999999GF100991001001999999001001MA1999999088261MD1810021+9999ME1315079REMSYN070AAXX  12004 17203 32970 00000 10154 20069 38826 48507 58002 333 10082;EQDQ01  00002PRCP99
0162172030999992000091203004+38860+040500FM-12+117799999V0209999C000012200019N0200001N1+01361+00721999999ADDGA1001+999999999GF100991001001999999001001MA1999999088251MD1610011+9999ME1315029REMSYN070AAXX  12034 17203 42970 00000 10136 20072 38825 48502 56001 333 10100;
0241172030999992000091206004+38860+040500FM-12+117799999V0209999C000012200019N0200001N1+01901+00891999999ADDAA199000091GA1001+999999999GF100991001001999999001001IA1019IA2999+00709KA1120N+01301MA1999999088251MD1410001+9999ME1315029REMSYN088AAXX  12064 17203 32970 00000 10190 20089 38825 48502 54000 333 20130 30007 50774 55092;EQDQ01  00002PRCP99
0162172030999992000091209004+38860+040500FM-12+117799999V0209999C000012200019N0200001N1+02861+01111999999ADDGA1001+999999999GF100991001001999999001001MA1999999088201MD1810051+9999ME1315019REMSYN070AAXX  12094 17203 42970 00000 10286 20111 38820 48501 58005 333 10075;
0192172030999992000091212004+38860+040500FM-12+117799999V0202501N001512200019N0200001N1+03101+01121999999ADDAA199000091GA1001+999999999GF100991001001999999001001MA1999999088061MD1710141+9999ME1314879REMSYN070AAXX  12124 17203 32970 02503 10310 20112 38806 48487 57014 333 10059;EQDQ01  00002PRCP99
0162172030999992000091215004+38860+040500FM-12+117799999V0209999C000012200019N0200001N1+02551+00881999999ADDGA1001+999999999GF100991001001999999001001MA1999999087951MD1610111+9999ME1314739REMSYN070AAXX  12154 17203 42970 00000 10255 20088 38795 48473 56011 333 10061;
0221172030999992000091218004+38860+040500FM-12+117799999V0209999C000012200019N0200001N1+02101+00641999999ADDAA199000091GA1001+999999999GF100991001001999999001001KA1999M+99999MA1999999087971MD1310021+9999ME1314749REMSYN070AAXX  12184 17203 32970 00000 10210 20064 38797 48474 53002 333 10063;EQDQ01  00002PRCP99Q02 +00632ATMX  
0162172030999992000091221004+38860+040500FM-12+117799999V0201601N001512200019N0200001N1+01701+00301999999ADDGA1001+999999999GF100991001001999999001001MA1999999088041MD1210071+9999ME1314859REMSYN070AAXX  12214 17203 42970 01603 10170 20030 38804 48485 52007 333 10057;
0192172030999992000091300004+38860+040500FM-12+117799999V0209999C000012200019N0200001N1+01641+00461999999ADDAA199000091GA1001+999999999GF100991001001999999001001MA1999999088061MD1110021+9999ME1314899REMSYN070AAXX  13004 17203 32970 00000 10164 20046 38806 48489 51002 333 10055;EQDQ01  00002PRCP99
0162172030999992000091303004+38860+040500FM-12+117799999V0209999C000012200019N0200001N1+01331+00541999999ADDGA1001+999999999GF100991001001999999001001MA1999999088061MD1410001+9999ME1314839REMSYN070AAXX  13034 17203 42970 00000 10133 20054 38806 48483 54000 333 10079;
0241172030999992000091306004+38860+040500FM-12+117799999V0209999C000012200019N0200001N1+01881+00831999999ADDAA199000091GA1001+999999999GF100991001001999999001001IA1019IA2999+00709KA1120N+01271MA1999999088141MD1210081+9999ME1314919REMSYN088AAXX  13064 17203 32970 00000 10188 20083 38814 48491 52008 333 20127 30007 50664 55091;EQDQ01  00002PRCP99
0162172030999992000091309004+38860+040500FM-12+117799999V0209999C000012200019N0200001N1+02841+01281999999ADDGA1001+999999999GF100991001001999999001001MA1999999088161MD1110021+9999ME1314979REMSYN070AAXX  13094 17203 42970 00000 10284 20128 38816 48497 51002 333 10071;
0192172030999992000091312004+38860+040500FM-12+117799999V0200701N004112200019N0200001N1+02961+01001999999ADDAA199000091GA1001+999999999GF100991001001999999001001MA1999999088081MD1610081+9999ME1314899REMSYN070AAXX  13124 17203 32970 00708 10296 20100 38808 48489 56008 333 10062;EQDQ01  00002PRCP99
0162172030999992000091315004+38860+040500FM-12+117799999V0201001N001512200019N0200001N1+02561+01151999999ADDGA1001+999999999GF100991001001999999001001MA1999999088081MD1510001+9999ME1314859REMSYN070AAXX  13154 17203 42970 01003 10256 20115 38808 48485 55000 333 10081;
0221172030999992000091318004+38860+040500FM-12+117799999V0209999C000012200019N0200001N1+02161+01231999999ADDAA199000091GA1001+999999999GF100991001001999999001001KA1999M+99999MA1999999088281MD1210201+9999ME1315059REMSYN070AAXX  13184 17203 32970 00000 10216 20123 38828 48505 52020 333 10099;EQDQ01  00002PRCP99Q02 +00992ATMX  
0162172030999992000091321004+38860+040500FM-12+117799999V0209999C000012200019N0200001N1+01851+01211999999ADDGA1001+999999999GF100991001001999999001001MA1999999088451MD1210171+9999ME1315279REMSYN070AAXX  13214 17203 42970 00000 10185 20121 38845 48527 52017 333 10104;
0192172030999992000091400004+38860+040500FM-12+117799999V0201801N001512200019N0200001N1+01751+01151999999ADDAA199000091GA1001+999999999GF100991001001999999001001MA1999999088481MD1210031+9999ME1315319REMSYN070AAXX  14004 17203 32970 01803 10175 20115 38848 48531 52003 333 10103;EQDQ01  00002PRCP99
0152172030999992000091403004+38860+040500FM-12+117799999V0209999C000012200019N0200001N1+01601+01021999999ADDGF102991021011012501001001MA1999999088501MD1110021+9999ME1315289REMSYN076AAXX  14034 17203 42670 20000 10160 20102 38850 48528 51002 82100 333 10119;
0253172030999992000091406004+38860+040500FM-12+117799999V0209999C000012200019N0200001N1+02101+01491999999ADDAA199000091GA1021+012009029GF102991021011012501001001IA1019IA2999+00909KA1120N+01551MA1999999088641MD1310141+9999ME1315429REMSYN100AAXX  14064 17203 32670 20000 10210 20149 38864 48542 53014 82100 333 20155 30009 50664 55091 82840;EQDQ01  00002PRCP99
0152172030999992000091409004+38860+040500FM-12+117799999V0200601N001512200019N0200001N1+02641+01651999999ADDGF103991031011012501001001MA1999999088661MD1110021+9999ME1315469REMSYN076AAXX  14094 17203 42670 30603 10264 20165 38866 48546 51002 83100 333 10133;
0182172030999992000091412004+38860+040500FM-12+117799999V0200601N002112200019N0200001N1+02831+01621999999ADDAA199000091GF103991031011012501001001MA1999999088561MD1710101+9999ME1315389REMSYN076AAXX  14124 17203 32670 30604 10283 20162 38856 48538 57010 83100 333 10116;EQDQ01  00002PRCP99
0152172030999992000091415004+38860+040500FM-12+117799999V0200301N001512200019N0200001N1+02541+01161999999ADDGF102991021011012501001001MA1999999088501MD1610061+9999ME1315289REMSYN076AAXX  14154 17203 42670 20303 10254 20116 38850 48528 56006 82100 333 10119;
0217172030999992000091418004+38860+040500FM-12+117799999V0209999C000012200019N0200001N1+02021+01231999999ADDAA199000091GA1031+012009029GF103991031011012501001001KA1120M+02861MA1999999088581MD1310081+9999ME1315369REMSYN082AAXX  14184 17203 32670 30000 10202 20123 38858 48536 53008 83100 333 10286 83840;EQDQ01  00002PRCP99
0152172030999992000091421004+38860+040500FM-12+117799999V0209999C000012200019N0200001N1+01871+01221999999ADDGF103991031011012501001001MA1999999088661MD1110081+9999ME1315469REMSYN076AAXX  14214 17203 42670 30000 10187 20122 38866 48546 51008 83100 333 10128;
0182172030999992000091500004+38860+040500FM-12+117799999V0201601N001512200019N0200001N1+01751+01191999999ADDAA199000091GF103991031011012501001001MA1999999088621MD1810041+9999ME1315439REMSYN076AAXX  15004 17203 32670 31603 10175 20119 38862 48543 58004 83100 333 10123;EQDQ01  00002PRCP99
0152172030999992000091503004+38860+040500FM-12+117799999V0209999C000012200019N0200001N1+01621+01161999999ADDGF103991031001999999031001MA1999999088561MD1710061+9999ME1315349REMSYN076AAXX  15034 17203 42970 30000 10162 20116 38856 48534 57006 83030 333 10126;
0253172030999992000091506004+38860+040500FM-12+117799999V0209999C000012200019N0200001N1+02001+01431999999ADDAA199000091GA1031+012009029GF103991031011012501001001IA1019IA2999+01009KA1120N+01581MA1999999088541MD1610021+9999ME1315309REMSYN100AAXX  15064 17203 32670 30000 10200 20143 38854 48530 56002 83100 333 20158 30010 50514 55091 83840;EQDQ01  00002PRCP99
0174172030999992000091509004+38860+040500FM-12+117799999V0209999C00001036001CN0200001N1+02501+01411999999ADDGA1041+012009089GF106991041021012501051001MA1999999088501MD1810041+9999ME1315309REMSYN082AAXX  15094 17203 42670 60000 10250 20141 38850 48530 58004 84250 333 84840 86360;
0204172030999992000091512004+38860+040500FM-12+117799999V0200401N00211036001CN0200001N1+02801+01561999999ADDAA199000091GA1031+012009089GF105991031011012501051001MA1999999088401MD1810101+9999ME1315109REMSYN082AAXX  15124 17203 32670 50404 10280 20156 38840 48510 58010 83150 333 83840 85360;EQDQ01  00002PRCP99
0152172030999992000091515004+38860+040500FM-12+117799999V0209999C000012200019N0200001N1+02401+00931999999ADDGF103991031011012501001001MA1999999088351MD1610051+9999ME1315139REMSYN076AAXX  15154 17203 42670 30000 10240 20093 38835 48513 56005 83100 333 10107;
0221172030999992000091518004+38860+040500FM-12+117799999V0209999C000012200019N0200001N1+02071+00761999999ADDAA199000091GA1001+999999999GF100991001001999999001001KA1999M+99999MA1999999088471MD1310121+9999ME1315249REMSYN070AAXX  15184 17203 32970 00000 10207 20076 38847 48524 53012 333 10121;EQDQ01  00002PRCP99Q02 +01212ATMX  
0192172030999992000091600004+38860+040500FM-12+117799999V0209999C000012200019N0200001N1+01681+00861999999ADDAA199000091GA1001+999999999GF100991001001999999001001MA1999999088531MD1310031+9999ME1315349REMSYN070AAXX  16004 17203 32970 00000 10168 20086 38853 48534 53003 333 10118;EQDQ01  00002PRCP99
0162172030999992000091603004+38860+040500FM-12+117799999V0209999C000012200019N0200001N1+01481+00931999999ADDGA1001+999999999GF100991001001999999001001MA1999999088581MD1210051+9999ME1315349REMSYN070AAXX  16034 17203 42970 00000 10148 20093 38858 48534 52005 333 10138;
0241172030999992000091606004+38860+040500FM-12+117799999V0209999C000012200019N0200001N1+02101+01101999999ADDAA199000091GA1001+999999999GF100991001001999999001001IA1019IA2999+00809KA1120N+01401MA1999999088641MD1210061+9999ME1315429REMSYN088AAXX  16064 17203 32970 00000 10210 20110 38864 48542 52006 333 20140 30008 50444 55064;EQDQ01  00002PRCP99
0174172030999992000091609004+38860+040500FM-12+117799999V0202501N00211036001CN0200001N1+02581+01171999999ADDGA1031+012009089GF105991031011012501051001MA1999999088601MD1810041+9999ME1315409REMSYN082AAXX  16094 17203 42670 52504 10258 20117 38860 48540 58004 83150 333 83840 85360;
0204172030999992000091612004+38860+040500FM-12+117799999V0200601N00211036001CN0200001N1+02901+00991999999ADDAA199000091GA1031+012009089GF105991031011012501051001MA1999999088481MD1710121+9999ME1315289REMSYN082AAXX  16124 17203 32670 50604 10290 20099 38848 48528 57012 83150 333 83840 85360;EQDQ01  00002PRCP99
0152172030999992000091615004+38860+040500FM-12+117799999V0200601N001512200019N0200001N1+02501+00761999999ADDGF102991021011012501001001MA1999999088381MD1710101+9999ME1315159REMSYN076AAXX  16154 17203 42670 20603 10250 20076 38838 48515 57010 82100 333 10110;
0221172030999992000091618004+38860+040500FM-12+117799999V0209999C000012200019N0200001N1+02001+00591999999ADDAA199000091GA1001+999999999GF100991001001999999001001KA1999M+99999MA1999999088461MD1310081+9999ME1315379REMSYN070AAXX  16184 17203 32970 00000 10200 20059 38846 48537 53008 333 10119;EQDQ01  00002PRCP99Q02 +01192ATMX  
0162172030999992000091621004+38860+040500FM-12+117799999V0209999C000012200019N0200001N1+01801+00971999999ADDGA1001+999999999GF100991001001999999001001MA1999999088521MD1110061+9999ME1315329REMSYN070AAXX  16214 17203 42970 00000 10180 20097 38852 48532 51006 333 10117;
0192172030999992000091700004+38860+040500FM-12+117799999V0209999C000012200019N0200001N1+01661+00881999999ADDAA199000091GA1001+999999999GF100991001001999999001001MA1999999088581MD1310061+9999ME1315389REMSYN070AAXX  17004 17203 32970 00000 10166 20088 38858 48538 53006 333 10119;EQDQ01  00002PRCP99
0162172030999992000091703004+38860+040500FM-12+117799999V0209999C000012200019N0200001N1+01481+00901999999ADDGA1001+999999999GF100991001001999999001001MA1999999088601MD1110021+9999ME1315379REMSYN070AAXX  17034 17203 42970 00000 10148 20090 38860 48537 51002 333 10135;
0259172030999992000091706004+38860+040500FM-12+117799999V0201501N00261036001CN0200001N1+01901+00891999999ADDAA199000091GA1031+012009089GF105991031011012501051001IA1019IA2999+00809KA1120N+01401MA1999999088651MD1310051+9999ME1315419REMSYN106AAXX  17064 17203 32670 51505 10190 20089 38865 48541 53005 83150 333 20140 30008 50524 55086 83840 85360;EQDQ01  00002PRCP99
0174172030999992000091709004+38860+040500FM-12+117799999V0201601N00511036001CN0200001N1+02041+00991999999ADDGA1041+012009089GF107991041021012501051001MA1999999088851MD1210201+9999ME1315609REMSYN082AAXX  17094 17203 42670 71610 10204 20099 38885 48560 52020 84250 333 84840 87360;
0219172030999992000091712004+38860+040500FM-12+117799999V0209999C000010111019N0080001N1+01541+01511999999ADDAA106003091AY121061AY221061GA1051+011109069GF108991051051012501021999MA1999999089161MD1210311+9999ME1315869MW1611REMSYN094AAXX  17124 17203 11658 80000 10154 20151 38916 48586 52031 60031 76122 8552/ 333 85637 88458;
0180172030999992000091715004+38860+040500FM-12+117799999V0209999C000012200019N0200001N1+01541+01221999999ADDAY161031AY211031GF103991031011012501001001MA1999999088941MD1710221+9999ME1315639MW1011REMSYN082AAXX  17154 17203 41670 30000 10154 20122 38894 48563 57022 70161 83100 333 10199;
0220172030999992000091718004+38860+040500FM-12+117799999V0209999C000012200019N0200001N1+01301+01131999999ADDAA112004191AY161061AY211061GA1001+999999999GF100991001001999999001001KA1999M+01901MA1999999088901MD1610041+9999ME1315619MW1011REMSYN082AAXX  17184 17203 11970 00000 10130 20113 38890 48561 56004 60042 70161 333 10190;
0162172030999992000091721004+38860+040500FM-12+117799999V0209999C000012200019N0200001N1+01181+00971999999ADDGA1001+999999999GF100991001001999999001001MA1999999088901MD1410001+9999ME1315619REMSYN070AAXX  17214 17203 42970 00000 10118 20097 38890 48561 54000 333 10190;
0173172030999992000091800004+38860+040500FM-12+117799999V0209999C000012200019N0200001N1+01041+00901999999ADDAA199000021GA1001+999999999GF100991001001999999001001MA1999999088901MD1410001+9999ME1315569REMSYN070AAXX  18004 17203 32970 00000 10104 20090 38890 48556 54000 333 10205;
0162172030999992000091803004+38860+040500FM-12+117799999V0209999C000012200019N0200001N1+01001+00821999999ADDGA1001+999999999GF100991001001999999001001MA1999999088901MD1410001+9999ME1315569REMSYN070AAXX  18034 17203 42970 00000 10100 20082 38890 48556 54000 333 10205;
0228172030999992000091806004+38860+040500FM-12+117799999V0209999C000012200019N0200001N1+01901+01351999999ADDAA124003891GA1001+999999999GF100991001001999999001001IA1099IA2999+00409KA1120N+00961MA1999999088981MD1210081+9999ME1315689REMSYN094AAXX  18064 17203 32970 00000 10190 20135 38898 48568 52008 333 20096 31004 50284 55021 70039;
0162172030999992000091809004+38860+040500FM-12+117799999V0209999C000012200019N0200001N1+02251+01031999999ADDGA1001+999999999GF100991001001999999001001MA1999999088901MD1810081+9999ME1315629REMSYN070AAXX  18094 17203 42970 00000 10225 20103 38890 48562 58008 333 10185;
0182172030999992000091812004+38860+040500FM-12+117799999V0209999C000012200019N0200001N1+02681+00821999999ADDAA199000091GF102991021011012501001001MA1999999088741MD1710161+9999ME1315499REMSYN076AAXX  18124 17203 32670 20000 10268 20082 38874 48549 57016 82100 333 10156;EQDQ01  00002PRCP99
0152172030999992000091815004+38860+040500FM-12+117799999V0209999C000012200019N0200001N1+02201+00641999999ADDGF101991011011012501001001MA1999999088621MD1610121+9999ME1315349REMSYN076AAXX  18154 17203 42670 10000 10220 20064 38862 48534 56012 81100 333 10157;
0221172030999992000091818004+38860+040500FM-12+117799999V0209999C000012200019N0200001N1+01831+00651999999ADDAA199000091GA1001+999999999GF100991001001999999001001KA1999M+99999MA1999999088701MD1310081+9999ME1315419REMSYN070AAXX  18184 17203 32970 00000 10183 20065 38870 48541 53008 333 10167;EQDQ01  00002PRCP99Q02 +01672ATMX  
0162172030999992000091821004+38860+040500FM-12+117799999V0209999C000012200019N0200001N1+01521+00701999999ADDGA1001+999999999GF100991001001999999001001MA1999999088741MD1110041+9999ME1315499REMSYN070AAXX  18214 17203 42970 00000 10152 20070 38874 48549 51004 333 10156;
0192172030999992000091900004+38860+040500FM-12+117799999V0209999C000012200019N0200001N1+01301+00521999999ADDAA199000091GA1001+999999999GF100991001001999999001001MA1999999088741MD1410001+9999ME1315509REMSYN070AAXX  19004 17203 32970 00000 10130 20052 38874 48550 54000 333 10151;EQDQ01  00002PRCP99
0162172030999992000091903004+38860+040500FM-12+117799999V0209999C000012200019N0200001N1+01131+00671999999ADDGA1001+999999999GF100991001001999999001001MA1999999088771MD1310031+9999ME1315499REMSYN070AAXX  19034 17203 42970 00000 10113 20067 38877 48549 53003 333 10170;
0241172030999992000091906004+38860+040500FM-12+117799999V0209999C000012200019N0200001N1+01701+01041999999ADDAA199000091GA1001+999999999GF100991001001999999001001IA1019IA2999+00709KA1120N+01101MA1999999088861MD1110091+9999ME1315599REMSYN088AAXX  19064 17203 32970 00000 10170 20104 38886 48559 51009 333 20110 30007 50324 55088;EQDQ01  00002PRCP99
0162172030999992000091909004+38860+040500FM-12+117799999V0209999C000012200019N0200001N1+02701+00961999999ADDGA1001+999999999GF100991001001999999001001MA1999999088801MD1810061+9999ME1315589REMSYN070AAXX  19094 17203 42970 00000 10270 20096 38880 48558 58006 333 10153;
0192172030999992000091912004+38860+040500FM-12+117799999V0209999C000012200019N0200001N1+02921+00791999999ADDAA199000091GA1001+999999999GF100991001001999999001001MA1999999088601MD1710201+9999ME1315379REMSYN070AAXX  19124 17203 32970 00000 10292 20079 38860 48537 57020 333 10131;EQDQ01  00002PRCP99
0162172030999992000091915004+38860+040500FM-12+117799999V0209999C000012200019N0200001N1+02401+00801999999ADDGA1001+999999999GF100991001001999999001001MA1999999088501MD1610101+9999ME1315249REMSYN070AAXX  19154 17203 42970 00000 10240 20080 38850 48524 56010 333 10134;
0221172030999992000091918004+38860+040500FM-12+117799999V0201601N001512200019N0200001N1+02101+00491999999ADDAA199000091GA1001+999999999GF100991001001999999001001KA1999M+99999MA1999999088581MD1310081+9999ME1315339REMSYN070AAXX  19184 17203 32970 01603 10210 20049 38858 48533 53008 333 10138;EQDQ01  00002PRCP99Q02 +01382ATMX  
0162172030999992000091921004+38860+040500FM-12+117799999V0201601N002112200019N0200001N1+01921+00421999999ADDGA1001+999999999GF100991001001999999001001MA1999999088651MD1210071+9999ME1315469REMSYN070AAXX  19214 17203 42970 01604 10192 20042 38865 48546 52007 333 10127;
0192172030999992000092000004+38860+040500FM-12+117799999V0201601N002112200019N0200001N1+01751+00351999999ADDAA199000091GA1001+999999999GF100991001001999999001001MA1999999088651MD1410001+9999ME1315469REMSYN070AAXX  20004 17203 32970 01604 10175 20035 38865 48546 54000 333 10127;EQDQ01  00002PRCP99
0162172030999992000092003004+38860+040500FM-12+117799999V0209999C000012200019N0200001N1+01551+00231999999ADDGA1001+999999999GF100991001001999999001001MA1999999088651MD1410001+9999ME1315489REMSYN070AAXX  20034 17203 42970 00000 10155 20023 38865 48548 54000 333 10141;
0241172030999992000092006004+38860+040500FM-12+117799999V0209999C000012200019N0200001N1+02201+00641999999ADDAA199000091GA1001+999999999GF100991001001999999001001IA1019IA2999+00909KA1120N+01401MA1999999088681MD1310031+9999ME1315479REMSYN088AAXX  20064 17203 32970 00000 10220 20064 38868 48547 53003 333 20140 30009 50554 55088;EQDQ01  00002PRCP99
0162172030999992000092009004+38860+040500FM-12+117799999V0209999C000012200019N0200001N1+02821+00871999999ADDGA1001+999999999GF100991001001999999001001MA1999999088581MD1810101+9999ME1315409REMSYN070AAXX  20094 17203 42970 00000 10282 20087 38858 48540 58010 333 10114;
0192172030999992000092012004+38860+040500FM-12+117799999V0209999C000012200019N0200001N1+03041+00841999999ADDAA199000091GA1001+999999999GF100991001001999999001001MA1999999088361MD1710221+9999ME1315189REMSYN070AAXX  20124 17203 32970 00000 10304 20084 38836 48518 57022 333 10089;EQDQ01  00002PRCP99
0162172030999992000092015004+38860+040500FM-12+117799999V0209999C000012200019N0200001N1+02481+00531999999ADDGA1001+999999999GF100991001001999999001001MA1999999088301MD1610061+9999ME1315089REMSYN070AAXX  20154 17203 42970 00000 10248 20053 38830 48508 56006 333 10101;
0221172030999992000092018004+38860+040500FM-12+117799999V0201601N002112200019N0200001N1+02281+00311999999ADDAA199000091GA1001+999999999GF100991001001999999001001KA1999M+99999MA1999999088441MD1210141+9999ME1315249REMSYN070AAXX  20184 17203 32970 01604 10228 20031 38844 48524 52014 333 10108;EQDQ01  00002PRCP99Q02 +01082ATMX  
0162172030999992000092021004+38860+040500FM-12+117799999V0201601N002612200019N0200001N1+02001+00291999999ADDGA1001+999999999GF100991001001999999001001MA1999999088501MD1110061+9999ME1315329REMSYN070AAXX  20214 17203 42970 01605 10200 20029 38850 48532 51006 333 10105;
0192172030999992000092100004+38860+040500FM-12+117799999V0209999C000012200019N0200001N1+01821+00221999999ADDAA199000091GA1001+999999999GF100991001001999999001001MA1999999088501MD1410001+9999ME1315329REMSYN070AAXX  21004 17203 32970 00000 10182 20022 38850 48532 54000 333 10105;EQDQ01  00002PRCP99
0162172030999992000092103004+38860+040500FM-12+117799999V0209999C000012200019N0200001N1+01601+00181999999ADDGA1001+999999999GF100991001001999999001001MA1999999088501MD1410001+9999ME1315289REMSYN070AAXX  21034 17203 42970 00000 10160 20018 38850 48528 54000 333 10124;
0241172030999992000092106004+38860+040500FM-12+117799999V0201601N001512200019N0200001N1+02181+00711999999ADDAA199000091GA1001+999999999GF100991001001999999001001IA1019IA2999+01009KA1120N+01501MA1999999088501MD1410001+9999ME1315309REMSYN088AAXX  21064 17203 32970 01603 10218 20071 38850 48530 54000 333 20150 30010 50654 55089;EQDQ01  00002PRCP99
0162172030999992000092109004+38860+040500FM-12+117799999V0200301N001512200019N0200001N1+02841+00861999999ADDGA1001+999999999GF100991001001999999001001MA1999999088441MD1810061+9999ME1315269REMSYN070AAXX  21094 17203 42970 00303 10284 20086 38844 48526 58006 333 10098;
0182172030999992000092112004+38860+040500FM-12+117799999V0201801N001512200019N0200001N1+03001+00781999999ADDAA199000091GF101991011011012501001001MA1999999088301MD1710141+9999ME1315129REMSYN076AAXX  21124 17203 32670 11803 10300 20078 38830 48512 57014 81100 333 10082;EQDQ01  00002PRCP99
0162172030999992000092115004+38860+040500FM-12+117799999V0209999C000012200019N0200001N1+02461+00551999999ADDGA1001+999999999GF100991001001999999001001MA1999999088261MD1710041+9999ME1315049REMSYN070AAXX  21154 17203 42970 00000 10246 20055 38826 48504 57004 333 10097;
0221172030999992000092118004+38860+040500FM-12+117799999V0201501N001512200019N0200001N1+02181+00471999999ADDAA199000091GA1001+999999999GF100991001001999999001001KA1999M+99999MA1999999088401MD1210141+9999ME1315199REMSYN070AAXX  21184 17203 32970 01503 10218 20047 38840 48519 52014 333 10103;EQDQ01  00002PRCP99Q02 +01032ATMX  
0162172030999992000092121004+38860+040500FM-12+117799999V0201601N003112200019N0200001N1+02001+00541999999ADDGA1001+999999999GF100991001001999999001001MA1999999088521MD1210121+9999ME1315349REMSYN070AAXX  21214 17203 42970 01606 10200 20054 38852 48534 52012 333 10107;
0192172030999992000092200004+38860+040500FM-12+117799999V0201601N002112200019N0200001N1+01801+00541999999ADDAA199000091GA1001+999999999GF100991001001999999001001MA1999999088581MD1210061+9999ME1315399REMSYN070AAXX  22004 17203 32970 01604 10180 20054 38858 48539 52006 333 10114;EQDQ01  00002PRCP99
0162172030999992000092203004+38860+040500FM-12+117799999V0201601N001512200019N0200001N1+01701+00501999999ADDGA1001+999999999GF100991001001999999001001MA1999999088641MD1110061+9999ME1315429REMSYN070AAXX  22034 17203 42970 01603 10170 20050 38864 48542 51006 333 10135;
0241172030999992000092206004+38860+040500FM-12+117799999V0201601N001512200019N0200001N1+02101+00641999999ADDAA199000091GA1001+999999999GF100991001001999999001001IA1019IA2999+00909KA1120N+01671MA1999999088721MD1110081+9999ME1315509REMSYN088AAXX  22064 17203 32970 01603 10210 20064 38872 48550 51008 333 20167 30009 50264 55089;EQDQ01  00002PRCP99
0162172030999992000092209004+38860+040500FM-12+117799999V0209999C000012200019N0200001N1+02701+01051999999ADDGA1001+999999999GF100991001001999999001001MA1999999088721MD1410001+9999ME1315539REMSYN070AAXX  22094 17203 42970 00000 10270 20105 38872 48553 54000 333 10130;
0192172030999992000092212004+38860+040500FM-12+117799999V0209999C000012200019N0200001N1+03001+00671999999ADDAA199000091GA1001+999999999GF100991001001999999001001MA1999999088601MD1710021+9999ME1315429REMSYN070AAXX  22124 17203 32970 00000 10300 20067 38860 48542 57002 333 10116;EQDQ01  00002PRCP99
0162172030999992000092215004+38860+040500FM-12+117799999V0201601N001512200019N0200001N1+02421+00431999999ADDGA1001+999999999GF100991001001999999001001MA1999999088601MD1410001+9999ME1315389REMSYN070AAXX  22154 17203 42970 01603 10242 20043 38860 48538 54000 333 10122;
0221172030999992000092218004+38860+040500FM-12+117799999V0209999C000012200019N0200001N1+02181+00511999999ADDAA199000091GA1001+999999999GF100991001001999999001001KA1999M+99999MA1999999088701MD1310101+9999ME1315489REMSYN070AAXX  22184 17203 32970 00000 10218 20051 38870 48548 53010 333 10142;EQDQ01  00002PRCP99Q02 +01422ATMX  
0162172030999992000092221004+38860+040500FM-12+117799999V0209999C000012200019N0200001N1+01961+00531999999ADDGA1001+999999999GF100991001001999999001001MA1999999088801MD1110101+9999ME1315619REMSYN070AAXX  22214 17203 42970 00000 10196 20053 38880 48561 51010 333 10144;
0192172030999992000092300004+38860+040500FM-12+117799999V0201601N001512200019N0200001N1+01761+00391999999ADDAA199000091GA1001+999999999GF100991001001999999001001MA1999999088801MD1410001+9999ME1315619REMSYN070AAXX  23004 17203 32970 01603 10176 20039 38880 48561 54000 333 10139;EQDQ01  00002PRCP99
0162172030999992000092303004+38860+040500FM-12+117799999V0201601N002112200019N0200001N1+01581+00381999999ADDGA1001+999999999GF100991001001999999001001MA1999999088821MD1310021+9999ME1315589REMSYN070AAXX  23034 17203 42970 01604 10158 20038 38882 48558 53002 333 10161;
0241172030999992000092306004+38860+040500FM-12+117799999V0209999C000012200019N0200001N1+02101+00811999999ADDAA199000091GA1001+999999999GF100991001001999999001001IA1019IA2999+01109KA1120N+01521MA1999999088881MD1110061+9999ME1315669REMSYN088AAXX  23064 17203 32970 00000 10210 20081 38888 48566 51006 333 20152 30011 50764 55086;EQDQ01  00002PRCP99
0162172030999992000092309004+38860+040500FM-12+117799999V0209999C000012200019N0200001N1+02901+01081999999ADDGA1001+999999999GF100991001001999999001001MA1999999088851MD1810031+9999ME1315679REMSYN070AAXX  23094 17203 42970 00000 10290 20108 38885 48567 58003 333 10145;
0182172030999992000092312004+38860+040500FM-12+117799999V0209999C000012200019N0200001N1+03001+00721999999ADDAA199000091GF102991021011012501001001MA1999999088701MD1710151+9999ME1315519REMSYN076AAXX  23124 17203 32670 20000 10300 20072 38870 48551 57015 82100 333 10128;EQDQ01  00002PRCP99
0162172030999992000092315004+38860+040500FM-12+117799999V0209999C000012200019N0200001N1+02401+00651999999ADDGA1001+999999999GF100991001001999999001001MA1999999088601MD1610101+9999ME1315379REMSYN070AAXX  23154 17203 42970 00000 10240 20065 38860 48537 56010 333 10135;
0221172030999992000092318004+38860+040500FM-12+117799999V0201601N001512200019N0200001N1+02041+00401999999ADDAA199000091GA1001+999999999GF100991001001999999001001KA1999M+99999MA1999999088621MD1310021+9999ME1315399REMSYN070AAXX  23184 17203 32970 01603 10204 20040 38862 48539 53002 333 10133;EQDQ01  00002PRCP99Q02 +01332ATMX  
0162172030999992000092321004+38860+040500FM-12+117799999V0209999C000012200019N0200001N1+01701+00401999999ADDGA1001+999999999GF100991001001999999001001MA1999999088681MD1210061+9999ME1315499REMSYN070AAXX  23214 17203 42970 00000 10170 20040 38868 48549 52006 333 10130;
0192172030999992000092400004+38860+040500FM-12+117799999V0209999C000012200019N0200001N1+01401+00271999999ADDAA199000091GA1001+999999999GF100991001001999999001001MA1999999088681MD1410001+9999ME1315479REMSYN070AAXX  24004 17203 32970 00000 10140 20027 38868 48547 54000 333 10135;EQDQ01  00002PRCP99
0162172030999992000092403004+38860+040500FM-12+117799999V0209999C000012200019N0200001N1+01201+00251999999ADDGA1001+999999999GF100991001001999999001001MA1999999088681MD1410001+9999ME1315429REMSYN070AAXX  24034 17203 42970 00000 10120 20025 38868 48542 54000 333 10154;
0241172030999992000092406004+38860+040500FM-12+117799999V0209999C000012200019N0200001N1+01841+00401999999ADDAA199000091GA1001+999999999GF100991001001999999001001IA1019IA2999+00709KA1120N+01161MA1999999088801MD1310121+9999ME1315559REMSYN088AAXX  24064 17203 32970 00000 10184 20040 38880 48555 53012 333 20116 30007 50774 55085;EQDQ01  00002PRCP99
0123172030999992000092409004+38860+040500FM-12+117799999V0209999C000012200019N0200001N1+99999+99999999999ADDGA1001+999999999GF100991001001999999001001REMSYN069AAXX  24094 17203 42970 00000 1030 20101 38878 48559 58002 333 10137;
0182172030999992000092412004+38860+040500FM-12+117799999V0203001N001512200019N0200001N1+02991+00731999999ADDAA199000091GF101991011011012501001001MA1999999088661MD1710121+9999ME1315459REMSYN076AAXX  24124 17203 32670 13003 10299 20073 38866 48545 57012 81100 333 10133;EQDQ01  00002PRCP99
0162172030999992000092415004+38860+040500FM-12+117799999V0201501N002112200019N0200001N1+02361+00491999999ADDGA1001+999999999GF100991001001999999001001MA1999999088581MD1610081+9999ME1315329REMSYN070AAXX  24154 17203 42970 01504 10236 20049 38858 48532 56008 333 10143;
0221172030999992000092418004+38860+040500FM-12+117799999V0209999C000012200019N0200001N1+02001+00391999999ADDAA199000091GA1001+999999999GF100991001001999999001001KA1999M+99999MA1999999088641MD1310061+9999ME1315409REMSYN070AAXX  24184 17203 32970 00000 10200 20039 38864 48540 53006 333 10145;EQDQ01  00002PRCP99Q02 +01452ATMX  
0162172030999992000092421004+38860+040500FM-12+117799999V0209999C000012200019N0200001N1+01601+00401999999ADDGA1001+999999999GF100991001001999999001001MA1999999088701MD1110061+9999ME1315519REMSYN070AAXX  24214 17203 42970 00000 10160 20040 38870 48551 51006 333 10132;
0192172030999992000092500004+38860+040500FM-12+117799999V0209999C000012200019N0200001N1+01421+00251999999ADDAA199000091GA1001+999999999GF100991001001999999001001MA1999999088701MD1410001+9999ME1315499REMSYN070AAXX  25004 17203 32970 00000 10142 20025 38870 48549 54000 333 10137;EQDQ01  00002PRCP99
0162172030999992000092503004+38860+040500FM-12+117799999V0209999C000012200019N0200001N1+01201+00281999999ADDGA1001+999999999GF100991001001999999001001MA1999999088701MD1410001+9999ME1315449REMSYN070AAXX  25034 17203 42970 00000 10120 20028 38870 48544 54000 333 10157;
0241172030999992000092506004+38860+040500FM-12+117799999V0209999C000012200019N0200001N1+01801+00681999999ADDAA199000091GA1001+999999999GF100991001001999999001001IA1019IA2999+00709KA1120N+01171MA1999999088801MD1310101+9999ME1315559REMSYN088AAXX  25064 17203 32970 00000 10180 20068 38880 48555 53010 333 20117 30007 50574 55087;EQDQ01  00002PRCP99
0152172030999992000092509004+38860+040500FM-12+117799999V0209999C000012200019N0200001N1+02861+01021999999ADDGF102991021011012501001001MA1999999088701MD1810101+9999ME1315509REMSYN076AAXX  25094 17203 42670 20000 10286 20102 38870 48550 58010 82100 333 10137;
0220172030999992000092512004+38860+040500FM-12+117799999V0200401N002112200019N0200001N1+03051+00781999999ADDAA199000091GA1031+012009089GF199999021011012501001031MA1999999088581MD1710121+9999ME1315389REMSYN082AAXX  25124 17203 32670 20404 10305 20078 38858 48538 57012 82103 333 83840 92428;EQDQ01+000022SCOTCVQ02  00002PRCP99
0152172030999992000092515004+38860+040500FM-12+117799999V0209999C000012200019N0200001N1+02421+00301999999ADDGF103991031011012501001001MA1999999088471MD1710111+9999ME1315229REMSYN076AAXX  25154 17203 42670 30000 10242 20030 38847 48522 57011 83100 333 10130;
0217172030999992000092518004+38860+040500FM-12+117799999V0209999C000012200019N0200001N1+02001+00181999999ADDAA199000091GA1031+012009029GF103991031011012501001001KA1120M+03101MA1999999088501MD1310031+9999ME1315269REMSYN082AAXX  25184 17203 32670 30000 10200 20018 38850 48526 53003 83100 333 10310 83840;EQDQ01  00002PRCP99
0162172030999992000092521004+38860+040500FM-12+117799999V0209999C000012200019N0200001N1+01701+00501999999ADDGA1001+999999999GF100991001001999999001001MA1999999088541MD1310041+9999ME1315359REMSYN070AAXX  25214 17203 42970 00000 10170 20050 38854 48535 53004 333 10114;
0192172030999992000092600004+38860+040500FM-12+117799999V0209999C000012200019N0200001N1+01541+00511999999ADDAA199000091GA1001+999999999GF100991001001999999001001MA1999999088501MD1810041+9999ME1315319REMSYN070AAXX  26004 17203 32970 00000 10154 20051 38850 48531 58004 333 10110;EQDQ01  00002PRCP99
0152172030999992000092603004+38860+040500FM-12+117799999V0209999C000012200019N0200001N1+01381+00531999999ADDGF103991031011012501001001MA1999999088501MD1410001+9999ME1315269REMSYN076AAXX  26034 17203 42670 30000 10138 20053 38850 48526 54000 83100 333 10129;
0241172030999992000092606004+38860+040500FM-12+117799999V0209999C000012200019N0200001N1+01901+00891999999ADDAA199000091GA1001+999999999GF100991001001999999001001IA1019IA2999+00809KA1120N+01361MA1999999088561MD1110061+9999ME1315329REMSYN088AAXX  26064 17203 32970 00000 10190 20089 38856 48532 51006 333 20136 30008 50684 55082;EQDQ01  00002PRCP99
0152172030999992000092609004+38860+040500FM-12+117799999V0200901N003112200019N0200001N1+02641+00921999999ADDGF102991021011012501001001MA1999999088481MD1810081+9999ME1315279REMSYN076AAXX  26094 17203 42670 20906 10264 20092 38848 48527 58008 82100 333 10112;
0182172030999992000092612004+38860+040500FM-12+117799999V0200601N003612200019N0200001N1+02681+00841999999ADDAA199000091GF102991021011012501001001MA1999999088381MD1710101+9999ME1315179REMSYN076AAXX  26124 17203 32670 20607 10268 20084 38838 48517 57010 82100 333 10105;EQDQ01  00002PRCP99
0162172030999992000092615004+38860+040500FM-12+117799999V0200701N001512200019N0200001N1+02321+00481999999ADDGA1001+999999999GF100991001001999999001001MA1999999088281MD1610101+9999ME1315049REMSYN070AAXX  26154 17203 42970 00703 10232 20048 38828 48504 56010 333 10109;
0221172030999992000092618004+38860+040500FM-12+117799999V0209999C000012200019N0200001N1+02001+00491999999ADDAA199000091GA1001+999999999GF100991001001999999001001KA1999M+99999MA1999999088261MD1510021+9999ME1315039REMSYN070AAXX  26184 17203 32970 00000 10200 20049 38826 48503 55002 333 10097;EQDQ01  00002PRCP99Q02 +00972ATMX  
0162172030999992000092621004+38860+040500FM-12+117799999V0209999C000012200019N0200001N1+01481+00311999999ADDGA1001+999999999GF100991001001999999001001MA1999999088301MD1110041+9999ME1315089REMSYN070AAXX  26214 17203 42970 00000 10148 20031 38830 48508 51004 333 10096;
0192172030999992000092700004+38860+040500FM-12+117799999V0209999C000012200019N0200001N1+01301+00411999999ADDAA199000091GA1001+999999999GF100991001001999999001001MA1999999088301MD1410001+9999ME1315089REMSYN070AAXX  27004 17203 32970 00000 10130 20041 38830 48508 54000 333 10101;EQDQ01  00002PRCP99
0162172030999992000092703004+38860+040500FM-12+117799999V0209999C000012200019N0200001N1+01201+00551999999ADDGA1001+999999999GF100991001001999999001001MA1999999088271MD1810031+9999ME1315029REMSYN070AAXX  27034 17203 42970 00000 10120 20055 38827 48502 58003 333 10107;
0253172030999992000092706004+38860+040500FM-12+117799999V0209999C000012200019N0200001N1+01801+01011999999ADDAA199000091GA1021+012009029GF102991021011012501001001IA1019IA2999+00609KA1120N+01151MA1999999088301MD1310031+9999ME1315079REMSYN100AAXX  27064 17203 32670 20000 10180 20101 38830 48507 53003 82100 333 20115 30006 50734 55084 82840;EQDQ01  00002PRCP99
0119172030999992000092709004+38860+040500FM-12+117799999V0200601N002612200019N0200001N1+99999+99999999999ADDGF104991041021012501001001MD1110041+9999ME1315109REMSYN058AAXX  27094 17203 42670 40605 48510 51004 84200 333 10111;
0182172030999992000092712004+38860+040500FM-12+117799999V0200601N002610120019N0200001N1+02401+01171999999ADDAA199000091GF105991051021012501001001MA1999999088181MD1710161+9999ME1314949REMSYN076AAXX  27124 17203 32670 50605 10240 20117 38818 48494 57016 85200 333 10097;EQDQ01  00002PRCP99
0174172030999992000092715004+38860+040500FM-12+117799999V0209999C00001036001CN0200001N1+02121+01031999999ADDGA1041+012009089GF106991041021012501051001MA1999999088101MD1610081+9999ME1314849REMSYN082AAXX  27154 17203 42670 60000 10212 20103 38810 48484 56008 84250 333 84840 86360;
0223172030999992000092718004+38860+040500FM-12+117799999V0209999C00001036001CN0200001N1+01801+01151999999ADDAA199000091GA1041+012009069GF105991041051012501011001KA1120M+02581MA1999999088201MD1310101+9999ME1314969REMSYN088AAXX  27184 17203 32670 50000 10180 20115 38820 48496 53010 84510 333 10258 84640 85460;EQDQ01  00002PRCP99
0174172030999992000092721004+38860+040500FM-12+117799999V0209999C00001036001CN0200001N1+01641+01011999999ADDGA1041+012009069GF106991041051012501011001MA1999999088261MD1110061+9999ME1315039REMSYN082AAXX  27214 17203 42670 60000 10164 20101 38826 48503 51006 84510 333 84640 86460;
0182172030999992000092800004+38860+040500FM-12+117799999V0201601N002112200019N0200001N1+01441+00891999999ADDAA199000091GF102991021001999999031001MA1999999088301MD1310041+9999ME1315079REMSYN076AAXX  28004 17203 32970 21604 10144 20089 38830 48507 53004 82030 333 10106;EQDQ01  00002PRCP99
0162172030999992000092803004+38860+040500FM-12+117799999V0209999C000012200019N0200001N1+01201+00851999999ADDGA1001+999999999GF100991001001999999001001MA1999999088301MD1410001+9999ME1315049REMSYN070AAXX  28034 17203 42970 00000 10120 20085 38830 48504 54000 333 10116;
0236172030999992000092806004+38860+040500FM-12+117799999V0209999C000012200019N0200001N1+01751+01001999999ADDAA199000091GF102991021011012501001001IA1019IA2999+00809KA1120N+01161MA1999999088421MD1210121+9999ME1315169REMSYN099AAXX  28064 17203 32670 20000 10175 20100 38842 48516 52012 82100 333 20116 30008 0474 55071 82840;EQDQ01  00002PRCP99
0174172030999992000092809004+38860+040500FM-12+117799999V0203101N00151036001CN0200001N1+02301+01201999999ADDGA1031+012009089GF105991031011012501051001MA1999999088441MD1110021+9999ME1315219REMSYN082AAXX  28094 17203 42670 53103 10230 20120 38844 48521 51002 83150 333 83840 85360;
0204172030999992000092812004+38860+040500FM-12+117799999V0200701N00211036001CN0200001N1+02401+01211999999ADDAA199000091GA1041+012009089GF106991041021012501051001MA1999999088301MD1610141+9999ME1315079REMSYN082AAXX  28124 17203 32670 60704 10240 20121 38830 48507 56014 84250 333 84840 86360;EQDQ01  00002PRCP99
0224172030999992000092815004+38860+040500FM-12+117799999V0201801N001510105019N0100001N1+01381+01351999999ADDAY121031AY221031GA1021+008109099GA2031+010509089GF107991051091008001051001MA1999999088401MD1310101+9999ME1315099MW1951REMSYN094AAXX  28154 17203 41560 71803 10138 20135 38840 48509 53010 79522 85950 333 82927 83835 87357;
0238172030999992000092818004+38860+040500FM-12+117799999V0209999C00001036001CN0200001N1+01401+01151999999ADDAA112002091AY191061AY221061GA1031+012009089GF105991031011012501051001KA1120M+02481MA1999999088401MD1410001+9999ME1315129MW1021REMSYN100AAXX  28184 17203 11670 50000 10140 20115 38840 48512 54000 60022 70292 83150 333 10248 83840 85360;
0202172030999992000092821004+38860+040500FM-12+117799999V0201601N002110099019N0100001N1+01201+01131999999ADDAY181031AY281031GA1051+009909089GF107991051021008001051001MA1999999088601MD1110201+9999ME1315349MW1811REMSYN088AAXX  28214 17203 41560 71604 10120 20113 38860 48534 51020 78188 85250 333 85833 87358;
0219172030999992000092900004+38860+040500FM-12+117799999V0209999C00001036001CN0150001N1+01201+01151999999ADDAA106007191AY181061AY221061GA1041+010209089GF107991041021012501051001MA1999999088441MD1810161+9999ME1315189MW1811REMSYN094AAXX  29004 17203 11665 70000 10120 20115 38844 48518 58016 60071 78182 84250 333 84834 87359;
0202172030999992000092903004+38860+040500FM-12+117799999V0201601N00211036001CN0150001N1+01201+01121999999ADDAY181031AY221031GA1041+009909089GF107991041021008001051001MA1999999088341MD1710101+9999ME1315039MW1811REMSYN088AAXX  29034 17203 41565 71604 10120 20112 38834 48503 57010 78182 84250 333 84833 87358;
0280172030999992000092906004+38860+040500FM-12+117799999V0209999C00001036001CN0200001N1+01361+01231999999ADDAA112009991AY181061AY221061GA1031+012009089GF106991031011012501051001IA1119IA2999+00809KA1120N+01101MA1999999088401MD1310061+9999ME1315099MW1021REMSYN124AAXX  29064 17203 11670 60000 10136 20123 38840 48509 53006 60102 70282 83150 333 20110 32008 50364 55072 70116 83840 86360;
0174172030999992000092909004+38860+040500FM-12+117799999V0209999C00001036001CN0200001N1+01901+01161999999ADDGA1031+012009089GF106991031011012501051001MA1999999088451MD1110051+9999ME1315179REMSYN082AAXX  29094 17203 42670 60000 10190 20116 38845 48517 51005 83150 333 83840 86360;
0185172030999992000092912004+38860+040500FM-12+117799999V0200301N00211036001CN0200001N1+02051+00901999999ADDAA199000021GA1041+012009089GF107991041021012501051001MA1999999088321MD1710131+9999ME1315049REMSYN082AAXX  29124 17203 32670 70304 10205 20090 38832 48504 57013 84250 333 84840 87360;
0202172030999992000092915004+38860+040500FM-12+117799999V0209999C00001036001CN0200001N1+01381+01251999999ADDAY181031AY221031GA1031+012009089GF106991031011012501051001MA1999999088281MD1810041+9999ME1314979MW1251REMSYN088AAXX  29154 17203 41670 60000 10138 20125 38828 48497 58004 72582 83150 333 83840 86360;
0220172030999992000092918004+38860+040500FM-12+117799999V0209999C000012200019N0200001N1+01501+01101999999ADDAA112003091AY181061AY211061GA1001+999999999GF100991001001999999001001KA1999M+01521MA1999999088481MD1210201+9999ME1315189MW1011REMSYN082AAXX  29184 17203 11970 00000 10150 20110 38848 48518 52020 60032 70181 333 10152;
0162172030999992000092921004+38860+040500FM-12+117799999V0209999C000012200019N0200001N1+01201+01061999999ADDGA1001+999999999GF100991001001999999001001MA1999999088581MD1210101+9999ME1315299REMSYN070AAXX  29214 17203 42970 00000 10120 20106 38858 48529 52010 333 10153;
0163172030999992000093000004+38860+040500FM-12+117799999V0209999C000012200019N0200001N1+01161+01061999999ADDAA199000021GF103991031011012501001001MA1999999088581MD1410001+9999ME1315309REMSYN076AAXX  30004 17203 32670 30000 10116 20106 38858 48530 54000 83100 333 10153;
0174172030999992000093003004+38860+040500FM-12+117799999V0209999C00001036001CN0200001N1+01161+01061999999ADDGA1041+012009089GF107991041021012501051001MA1999999088581MD1410001+9999ME1315269REMSYN082AAXX  30034 17203 42670 70000 10116 20106 38858 48526 54000 84250 333 84840 87360;
0246172030999992000093006004+38860+040500FM-12+117799999V0209999C00001036001CN0200001N1+01281+00861999999ADDAA124002891GA1041+012009089GF107991041021012501051001IA1099IA2999+00809KA1120N+01081MA1999999088701MD1310121+9999ME1315399REMSYN112AAXX  30064 17203 32670 70000 10128 20086 38870 48539 53012 84250 333 20108 31008 50164 55022 70027 84840 87360;
0174172030999992000093009004+38860+040500FM-12+117799999V0203401N00261036001CN0200001N1+01561+00951999999ADDGA1041+012009089GF107991041021012501051001MA1999999088841MD1210141+9999ME1315529REMSYN082AAXX  30094 17203 42670 73405 10156 20095 38884 48552 52014 84250 333 84840 87360;
0204172030999992000093012004+38860+040500FM-12+117799999V0202501N00211036001CN0200001N1+01861+01041999999ADDAA199000091GA1031+012009089GF105991031011012501051001MA1999999088841MD1410001+9999ME1315539REMSYN082AAXX  30124 17203 32670 52504 10186 20104 38884 48553 54000 83150 333 83840 85360;EQDQ01  00002PRCP99
0174172030999992000093015004+38860+040500FM-12+117799999V0201601N00151036001CN0200001N1+01701+00761999999ADDGA1041+012009089GF106991041021012501051001MA1999999088841MD1510001+9999ME1315539REMSYN082AAXX  30154 17203 42670 61603 10170 20076 38884 48553 55000 84250 333 84840 86360;
0205172030999992000093018004+38860+040500FM-12+117799999V0201601N002112200019N0200001N1+01401+00681999999ADDAA199000091GA1001+999999999GF100991001001999999001001KA1999M+02141MA1999999088981MD1210141+9999ME1315659REMSYN070AAXX  30184 17203 32970 01604 10140 20068 38898 48565 52014 333 10214;EQDQ01  00002PRCP99
0162172030999992000093021004+38860+040500FM-12+117799999V0201601N001512200019N0200001N1+01331+00621999999ADDGA1001+999999999GF100991001001999999001001MA1999999089001MD1110021+9999ME1315689REMSYN070AAXX  30214 17203 42970 01603 10133 20062 38900 48568 51002 333 10211;
0192172030999992000100100004+38860+040500FM-12+117799999V0209999C000012200019N0200001N1+01201+00651999999ADDAA199000091GA1001+999999999GF100991001001999999001001MA1999999089001MD1410001+9999ME1315709REMSYN070AAXX  01004 17203 32970 00000 10120 20065 38900 48570 54000 333 10206;EQDQ01  00002PRCP99
0162172030999992000100103004+38860+040500FM-12+117799999V0201601N002112200019N0200001N1+01121+00641999999ADDGA1001+999999999GF100991001001999999001001MA1999999088971MD1610031+9999ME1315659REMSYN070AAXX  01034 17203 42970 01604 10112 20064 38897 48565 56003 333 10208;
0253172030999992000100106004+38860+040500FM-12+117799999V0201601N002112200019N0200001N1+01701+01111999999ADDAA199000091GA1031+012009029GF103991031011012501001001IA1099IA2999+00709KA1120N+01101MA1999999089001MD1310031+9999ME1315709REMSYN100AAXX  01064 17203 32670 31604 10170 20111 38900 48570 53003 83100 333 20110 31007 50204 55032 83840;EQDQ01  00002PRCP99
0174172030999992000100109004+38860+040500FM-12+117799999V0209999C00001036001CN0200001N1+02001+00811999999ADDGA1031+012009089GF105991031011012501051001MA1999999088901MD1810101+9999ME1315629REMSYN082AAXX  01094 17203 42670 50000 10200 20081 38890 48562 58010 83150 333 83840 85360;
0204172030999992000100112004+38860+040500FM-12+117799999V0200101N00151036001CN0200001N1+02101+00861999999ADDAA199000091GA1031+012009089GF105991031011012501051001MA1999999088791MD1710111+9999ME1315519REMSYN082AAXX  01124 17203 32670 50103 10210 20086 38879 48551 57011 83150 333 83840 85360;EQDQ01  00002PRCP99
0202172030999992000100115004+38860+040500FM-12+117799999V0201601N00261036001CN0200001N1+01701+00841999999ADDAY181031AY221031GA1041+012009089GF107991041021012501051001MA1999999088701MD1610091+9999ME1315399MW1251REMSYN088AAXX  01154 17203 41670 71605 10170 20084 38870 48539 56009 72582 84250 333 84840 87360;
0238172030999992000100118004+38860+040500FM-12+117799999V0201601N005110108019N0080001N1+01501+00921999999ADDAA112000591AY181061AY221061GA1051+010809069GF108991051051012501021999KA1120M+02261MA1999999088831MD1310131+9999ME1315559MW1611REMSYN100AAXX  01184 17203 11658 81610 10150 20092 38883 48555 53013 69942 76182 8552/ 333 10226 85636 88457;
0190172030999992000100121004+38860+040500FM-12+117799999V0209999C000012200019N0200001N1+01381+00821999999ADDAY161031AY211031GA1001+999999999GF100991001001999999001001MA1999999088861MD1110031+9999ME1315589MW1011REMSYN076AAXX  01214 17203 41970 00000 10138 20082 38886 48558 51003 70161 333 10180;
0219172030999992000100200004+38860+040500FM-12+117799999V0201601N00151036001CN0200001N1+01461+00791999999ADDAA106000791AY161061AY211061GA1041+012009069GF106991041051012501051001MA1999999088821MD1810041+9999ME1315569MW1031REMSYN094AAXX  02004 17203 11670 61603 10146 20079 38882 48556 58004 69901 70361 84550 333 84640 86360;
0152172030999992000100203004+38860+040500FM-12+117799999V0201601N002112200019N0200001N1+01241+00741999999ADDGF102991021051012501001001MA1999999088801MD1610021+9999ME1315499REMSYN076AAXX  02034 17203 42670 21604 10124 20074 38880 48549 56002 82500 333 10183;
0246172030999992000100206004+38860+040500FM-12+117799999V0209999C000012200019N0200001N1+01681+00781999999ADDAA112000791GA1021+012009029GF102991021011012501001001IA1099IA2999+00809KA1120N+01171MA1999999088861MD1310061+9999ME1315579REMSYN112AAXX  02064 17203 12670 20000 10168 20078 38886 48557 53006 69902 82100 333 20117 31008 50364 55059 70004 82840;
0152172030999992000100209004+38860+040500FM-12+117799999V0202501N002112200019N0200001N1+02181+00961999999ADDGF103991031011012501001001MA1999999088801MD1710061+9999ME1315549REMSYN076AAXX  02094 17203 42670 32504 10218 20096 38880 48554 57006 83100 333 10168;
0182172030999992000100212004+38860+040500FM-12+117799999V0202501N002612200019N0200001N1+02301+00691999999ADDAA199000091GF103991031011012501001001MA1999999088701MD1710101+9999ME1315469REMSYN076AAXX  02124 17203 32670 32505 10230 20069 38870 48546 57010 83100 333 10152;EQDQ01  00002PRCP99
0152172030999992000100215004+38860+040500FM-12+117799999V0202501N003112200019N0200001N1+02001+00631999999ADDGF103991031011012501001001MA1999999088661MD1610041+9999ME1315389REMSYN076AAXX  02154 17203 42670 32506 10200 20063 38866 48538 56004 83100 333 10162;
0205172030999992000100218004+38860+040500FM-12+117799999V0209999C000012200019N0200001N1+01561+00581999999ADDAA199000091GA1001+999999999GF100991001001999999001001KA1999M+01801MA1999999088821MD1210161+9999ME1315539REMSYN070AAXX  02184 17203 32970 00000 10156 20058 38882 48553 52016 333 10180;EQDQ01  00002PRCP99
0162172030999992000100221004+38860+040500FM-12+117799999V0209999C000012200019N0200001N1+01301+00521999999ADDGA1001+999999999GF100991001001999999001001MA1999999088981MD1210161+9999ME1315709REMSYN070AAXX  02214 17203 42970 00000 10130 20052 38898 48570 52016 333 10194;
0192172030999992000100300004+38860+040500FM-12+117799999V0201601N001512200019N0200001N1+01161+00481999999ADDAA199000091GA1001+999999999GF100991001001999999001001MA1999999089001MD1110021+9999ME1315729REMSYN070AAXX  03004 17203 32970 01603 10116 20048 38900 48572 51002 333 10196;EQDQ01  00002PRCP99
0162172030999992000100303004+38860+040500FM-12+117799999V0209999C000012200019N0200001N1+01041+00511999999ADDGA1001+999999999GF100991001001999999001001MA1999999089001MD1410001+9999ME1315699REMSYN070AAXX  03034 17203 42970 00000 10104 20051 38900 48569 54000 333 10206;
0241172030999992000100306004+38860+040500FM-12+117799999V0209999C000012200019N0200001N1+01601+00721999999ADDAA199000091GA1001+999999999GF100991001001999999001001IA1099IA2999+00509KA1120N+00961MA1999999089141MD1210141+9999ME1315849REMSYN088AAXX  03064 17203 32970 00000 10160 20072 38914 48584 52014 333 20096 31005 50494 55084;EQDQ01  00002PRCP99
0162172030999992000100309004+38860+040500FM-12+117799999V0209999C000012200019N0200001N1+02101+00771999999ADDGA1001+999999999GF100991001001999999001001MA1999999089121MD1810021+9999ME1315839REMSYN070AAXX  03094 17203 42970 00000 10210 20077 38912 48583 58002 333 10210;
0192172030999992000100312004+38860+040500FM-12+117799999V0203001N002112200019N0200001N1+02341+00561999999ADDAA199000091GA1001+999999999GF100991001001999999001001MA1999999088971MD1710151+9999ME1315709REMSYN070AAXX  03124 17203 32970 03004 10234 20056 38897 48570 57015 333 10188;EQDQ01  00002PRCP99
0162172030999992000100315004+38860+040500FM-12+117799999V0209999C000012200019N0200001N1+01841+00551999999ADDGA1001+999999999GF100991001001999999001001MA1999999088901MD1610071+9999ME1315589REMSYN070AAXX  03154 17203 42970 00000 10184 20055 38890 48558 56007 333 10200;
0205172030999992000100318004+38860+040500FM-12+117799999V0201801N001512200019N0200001N1+01501+00461999999ADDAA199000091GA1001+999999999GF100991001001999999001001KA1999M+01941MA1999999088941MD1310041+9999ME1315649REMSYN070AAXX  03184 17203 32970 01803 10150 20046 38894 48564 53004 333 10194;EQDQ01  00002PRCP99
0162172030999992000100321004+38860+040500FM-12+117799999V0201601N002112200019N0200001N1+01281+00351999999ADDGA1001+999999999GF100991001001999999001001MA1999999089041MD1210101+9999ME1315759REMSYN070AAXX  03214 17203 42970 01604 10128 20035 38904 48575 52010 333 10201;
0192172030999992000100400004+38860+040500FM-12+117799999V0209999C000012200019N0200001N1+01141+00221999999ADDAA199000091GA1001+999999999GF100991001001999999001001MA1999999089041MD1410001+9999ME1315769REMSYN070AAXX  04004 17203 32970 00000 10114 20022 38904 48576 54000 333 10201;EQDQ01  00002PRCP99
0162172030999992000100403004+38860+040500FM-12+117799999V0201601N001512200019N0200001N1+01101+00221999999ADDGA1001+999999999GF100991001001999999001001MA1999999089041MD1410001+9999ME1315729REMSYN070AAXX  04034 17203 42970 01603 10110 20022 38904 48572 54000 333 10211;
0241172030999992000100406004+38860+040500FM-12+117799999V0209999C000012200019N0200001N1+01581+00651999999ADDAA199000091GA1001+999999999GF100991001001999999001001IA1019IA2999+00609KA1120N+01001MA1999999089121MD1310081+9999ME1315819REMSYN088AAXX  04064 17203 32970 00000 10158 20065 38912 48581 53008 333 20100 30006 50494 55086;EQDQ01  00002PRCP99
0162172030999992000100409004+38860+040500FM-12+117799999V0202701N001512200019N0200001N1+02281+00511999999ADDGA1001+999999999GF100991001001999999001001MA1999999089101MD1810021+9999ME1315839REMSYN070AAXX  04094 17203 42970 02703 10228 20051 38910 48583 58002 333 10202;
0192172030999992000100412004+38860+040500FM-12+117799999V0209999C000012200019N0200001N1+02471+00431999999ADDAA199000091GA1001+999999999GF100991001001999999001001MA1999999088941MD1710161+9999ME1315689REMSYN070AAXX  04124 17203 32970 00000 10247 20043 38894 48568 57016 333 10184;EQDQ01  00002PRCP99
0162172030999992000100415004+38860+040500FM-12+117799999V0209999C000012200019N0200001N1+01881+00461999999ADDGA1001+999999999GF100991001001999999001001MA1999999088881MD1610061+9999ME1315579REMSYN070AAXX  04154 17203 42970 00000 10188 20046 38888 48557 56006 333 10192;
0205172030999992000100418004+38860+040500FM-12+117799999V0209999C000012200019N0200001N1+01581+00331999999ADDAA199000091GA1001+999999999GF100991001001999999001001KA1999M+01941MA1999999088941MD1310061+9999ME1315659REMSYN070AAXX  04184 17203 32970 00000 10158 20033 38894 48565 53006 333 10194;EQDQ01  00002PRCP99
0162172030999992000100421004+38860+040500FM-12+117799999V0201601N001512200019N0200001N1+01301+00281999999ADDGA1001+999999999GF100991001001999999001001MA1999999089001MD1210061+9999ME1315739REMSYN070AAXX  04214 17203 42970 01603 10130 20028 38900 48573 52006 333 10191;
0192172030999992000100500004+38860+040500FM-12+117799999V0209999C000012200019N0200001N1+01161+00341999999ADDAA199000091GA1001+999999999GF100991001001999999001001MA1999999089001MD1410001+9999ME1315749REMSYN070AAXX  05004 17203 32970 00000 10116 20034 38900 48574 54000 333 10191;EQDQ01  00002PRCP99
0162172030999992000100503004+38860+040500FM-12+117799999V0209999C000012200019N0200001N1+00921+00371999999ADDGA1001+999999999GF100991001001999999001001MA1999999089041MD1110041+9999ME1315719REMSYN070AAXX  05034 17203 42970 00000 10092 20037 38904 48571 51004 333 10216;
0241172030999992000100506004+38860+040500FM-12+117799999V0209999C000012200019N0200001N1+01401+00761999999ADDAA199000091GA1001+999999999GF100991001001999999001001IA1019IA2999+00509KA1120N+00771MA1999999089131MD1310091+9999ME1315819REMSYN088AAXX  05064 17203 32970 00000 10140 20076 38913 48581 53009 333 20077 30005 50554 55084;EQDQ01  00002PRCP99
0162172030999992000100509004+38860+040500FM-12+117799999V0209999C000012200019N0200001N1+02301+00741999999ADDGA1001+999999999GF100991001001999999001001MA1999999089171MD1110041+9999ME1315909REMSYN070AAXX  05094 17203 42970 00000 10230 20074 38917 48590 51004 333 10211;
0192172030999992000100512004+38860+040500FM-12+117799999V0200401N001512200019N0200001N1+02621+00601999999ADDAA199000091GA1001+999999999GF100991001001999999001001MA1999999089001MD1610171+9999ME1315749REMSYN070AAXX  05124 17203 32970 00403 10262 20060 38900 48574 56017 333 10186;EQDQ01  00002PRCP99
0162172030999992000100515004+38860+040500FM-12+117799999V0209999C000012200019N0200001N1+02001+00341999999ADDGA1001+999999999GF100991001001999999001001MA1999999088951MD1810051+9999ME1315639REMSYN070AAXX  05154 17203 42970 00000 10200 20034 38895 48563 58005 333 10200;
0205172030999992000100518004+38860+040500FM-12+117799999V0209999C000012200019N0200001N1+01601+00351999999ADDAA199000091GA1001+999999999GF100991001001999999001001KA1999M+02071MA1999999089011MD1310061+9999ME1315719REMSYN070AAXX  05184 17203 32970 00000 10160 20035 38901 48571 53006 333 10207;EQDQ01  00002PRCP99
0192172030999992000100600004+38860+040500FM-12+117799999V0209999C000012200019N0200001N1+01081+00381999999ADDAA199000091GA1001+999999999GF100991001001999999001001MA1999999089101MD1310021+9999ME1315849REMSYN070AAXX  06004 17203 32970 00000 10108 20038 38910 48584 53002 333 10203;EQDQ01  00002PRCP99
0152172030999992000100603004+38860+040500FM-12+117799999V0209999C000012200019N0200001N1+00881+00411999999ADDGF103991001001999999001011MA1999999089081MD1610021+9999ME1315769REMSYN076AAXX  06034 17203 42970 30000 10088 20041 38908 48576 56002 80001 333 10220;
0253172030999992000100606004+38860+040500FM-12+117799999V0209999C000012200019N0200001N1+01401+00681999999ADDAA199000091GA1031+060009019GF103991001001999999001011IA1019IA2999+00509KA1120N+00821MA1999999089161MD1110081+9999ME1315859REMSYN100AAXX  06064 17203 32970 30000 10140 20068 38916 48585 51008 80001 333 20082 30005 50454 55088 83070;EQDQ01  00002PRCP99
0152172030999992000100609004+38860+040500FM-12+117799999V0209999C000012200019N0200001N1+02301+00741999999ADDGF103991001001999999001011MA1999999089101MD1810061+9999ME1315839REMSYN076AAXX  06094 17203 42970 30000 10230 20074 38910 48583 58006 80001 333 10202;
0182172030999992000100612004+38860+040500FM-12+117799999V0200401N002112200019N0200001N1+02601+00641999999ADDAA199000091GF104991001001999999001011MA1999999088981MD1710121+9999ME1315729REMSYN076AAXX  06124 17203 32970 40404 10260 20064 38898 48572 57012 80001 333 10189;EQDQ01  00002PRCP99
0152172030999992000100615004+38860+040500FM-12+117799999V0209999C000012200019N0200001N1+01901+00441999999ADDGF102991021001999999031001MA1999999088921MD1610061+9999ME1315609REMSYN076AAXX  06154 17203 42970 20000 10190 20044 38892 48560 56006 82030 333 10202;
0217172030999992000100618004+38860+040500FM-12+117799999V0201601N002112200019N0200001N1+01601+00351999999ADDAA199000091GA1031+030009079GF103991031001999999031001KA1120M+02641MA1999999088961MD1210041+9999ME1315659REMSYN082AAXX  06184 17203 32970 31604 10160 20035 38896 48565 52004 83030 333 10264 83360;EQDQ01  00002PRCP99
0162172030999992000100621004+38860+040500FM-12+117799999V0209999C000012200019N0200001N1+01301+00281999999ADDGA1001+999999999GF100991001001999999001001MA1999999089001MD1110041+9999ME1315739REMSYN070AAXX  06214 17203 42970 00000 10130 20028 38900 48573 51004 333 10191;
0192172030999992000100700004+38860+040500FM-12+117799999V0209999C000012200019N0200001N1+01001+00331999999ADDAA199000091GA1001+999999999GF100991001001999999001001MA1999999089001MD1410001+9999ME1315739REMSYN070AAXX  07004 17203 32970 00000 10100 20033 38900 48573 54000 333 10191;EQDQ01  00002PRCP99
0162172030999992000100703004+38860+040500FM-12+117799999V0209999C000012200019N0200001N1+00801+00321999999ADDGA1001+999999999GF100991001001999999001001MA1999999089001MD1410001+9999ME1315679REMSYN070AAXX  07034 17203 42970 00000 10080 20032 38900 48567 54000 333 10211;
0253172030999992000100706004+38860+040500FM-12+117799999V0209999C000012200019N0200001N1+01401+00601999999ADDAA199000091GA1031+030009079GF103991031001999999031001IA1019IA2999+00409KA1120N+00741MA1999999089081MD1310081+9999ME1315779REMSYN100AAXX  07064 17203 32970 30000 10140 20060 38908 48577 53008 83030 333 20074 30004 50524 55083 83360;EQDQ01  00002PRCP99
0152172030999992000100709004+38860+040500FM-12+117799999V0202801N001512200019N0200001N1+02201+00591999999ADDGF104991041011012501001001MA1999999089081MD1410001+9999ME1315809REMSYN076AAXX  07094 17203 42670 42803 10220 20059 38908 48580 54000 84100 333 10200;
0182172030999992000100712004+38860+040500FM-12+117799999V0209999C000012200019N0200001N1+02541+00721999999ADDAA199000091GF103991031011012501001001MA1999999088871MD1710211+9999ME1315619REMSYN076AAXX  07124 17203 32670 30000 10254 20072 38887 48561 57021 83100 333 10176;EQDQ01  00002PRCP99
0152172030999992000100715004+38860+040500FM-12+117799999V0209999C000012200019N0200001N1+02001+00681999999ADDGF103991031011012501001001MA1999999088801MD1610071+9999ME1315489REMSYN076AAXX  07154 17203 42670 30000 10200 20068 38880 48548 56007 83100 333 10188;
0217172030999992000100718004+38860+040500FM-12+117799999V0209999C000012200019N0200001N1+01601+00451999999ADDAA199000091GA1041+030009079GF104991041001999999031001KA1120M+02601MA1999999088881MD1310081+9999ME1315589REMSYN082AAXX  07184 17203 32970 40000 10160 20045 38888 48558 53008 84030 333 10260 84360;EQDQ01  00002PRCP99
0174172030999992000100721004+38860+040500FM-12+117799999V0209999C00001036001CN0200001N1+01421+00511999999ADDGA1031+012009089GF105991031011012501051001MA1999999088881MD1410001+9999ME1315629REMSYN082AAXX  07214 17203 42670 50000 10142 20051 38888 48562 54000 83150 333 83840 85360;
0182172030999992000100800004+38860+040500FM-12+117799999V0209999C000012200019N0200001N1+01201+00441999999ADDAA199000091GF103991031011012501001001MA1999999088881MD1410001+9999ME1315639REMSYN076AAXX  08004 17203 32670 30000 10120 20044 38888 48563 54000 83100 333 10172;EQDQ01  00002PRCP99
0259172030999992000100806004+38860+040500FM-12+117799999V0209999C00001036001CN0200001N1+01361+00801999999ADDAA199000091GA1031+012009089GF105991031011012501051001IA1019IA2999+00709KA1120N+01081MA1999999088941MD1310061+9999ME1315649REMSYN106AAXX  08064 17203 32670 50000 10136 20080 38894 48564 53006 83150 333 20108 30007 50454 55077 83840 85360;EQDQ01  00002PRCP99
0174172030999992000100809004+38860+040500FM-12+117799999V0203601N00261036001CN0200001N1+02261+00861999999ADDGA1041+012009089GF107991041021012501051001MA1999999088921MD1810021+9999ME1315669REMSYN082AAXX  08094 17203 42670 73605 10226 20086 38892 48566 58002 84250 333 84840 87360;
0204172030999992000100812004+38860+040500FM-12+117799999V0200601N00311036001CN0200001N1+02261+00771999999ADDAA199000091GA1041+012009089GF107991041021012501051001MA1999999088781MD1710141+9999ME1315529REMSYN082AAXX  08124 17203 32670 70606 10226 20077 38878 48552 57014 84250 333 84840 87360;EQDQ01  00002PRCP99
0174172030999992000100815004+38860+040500FM-12+117799999V0200701N00211036001CN0200001N1+02101+00641999999ADDGA1041+012009089GF107991041021012501051001MA1999999088681MD1610101+9999ME1315409REMSYN082AAXX  08154 17203 42670 70704 10210 20064 38868 48540 56010 84250 333 84840 87360;
0217172030999992000100818004+38860+040500FM-12+117799999V0209999C000012200019N0200001N1+01821+00701999999ADDAA199000091GA1041+030009079GF104991041001999999031001KA1120M+02401MA1999999088701MD1310021+9999ME1315429REMSYN082AAXX  08184 17203 32970 40000 10182 20070 38870 48542 53002 84030 333 10240 84360;EQDQ01  00002PRCP99
0152172030999992000100821004+38860+040500FM-12+117799999V0209999C000012200019N0200001N1+01451+00721999999ADDGF102991021001999999031001MA1999999088741MD1110041+9999ME1315499REMSYN076AAXX  08214 17203 42970 20000 10145 20072 38874 48549 51004 82030 333 10156;
0192172030999992000100900004+38860+040500FM-12+117799999V0201601N002112200019N0200001N1+01301+00771999999ADDAA199000091GA1001+999999999GF100991001001999999001001MA1999999088701MD1810041+9999ME1315449REMSYN070AAXX  09004 17203 32970 01604 10130 20077 38870 48544 58004 333 10157;EQDQ01  00002PRCP99
0152172030999992000100903004+38860+040500FM-12+117799999V0201601N002112200019N0200001N1+01171+00801999999ADDGF102991021011012501001001MA1999999088701MD1410001+9999ME1315429REMSYN076AAXX  09034 17203 42670 21604 10117 20080 38870 48542 54000 82100 333 10167;
0259172030999992000100906004+38860+040500FM-12+117799999V0209999C000012200019N0200001N1+01701+01071999999ADDAA199000091GA1021+012009089GF104991021011012501051001IA1019IA2999+00709KA1120N+01081MA1999999088701MD1410001+9999ME1315459REMSYN106AAXX  09064 17203 32670 40000 10170 20107 38870 48545 54000 82150 333 20108 30007 50454 55034 82840 84360;EQDQ01  00002PRCP99
0113172030999992000100909004+38860+040500FM-12+117799999V0209999C000012200019N0200001N1+02301+99999999999ADDGF102991999999012501999999REMSYN075AAXX  09094 17203 42670 20000 10230 2034 38868 48543 58002 82100 333 10149;
0182172030999992000100912004+38860+040500FM-12+117799999V0200701N002612200019N0200001N1+02501+00981999999ADDAA199000091GF103991031011012501001001MA1999999088541MD1710141+9999ME1315309REMSYN076AAXX  09124 17203 32670 30705 10250 20098 38854 48530 57014 83100 333 10133;EQDQ01  00002PRCP99
0152172030999992000100915004+38860+040500FM-12+117799999V0209999C000012200019N0200001N1+01901+00341999999ADDGF102991021011012501001001MA1999999088541MD1410001+9999ME1315259REMSYN076AAXX  09154 17203 42670 20000 10190 20034 38854 48525 54000 82100 333 10153;
0205172030999992000100918004+38860+040500FM-12+117799999V0209999C000012200019N0200001N1+01461+00631999999ADDAA199000091GA1001+999999999GF100991001001999999001001KA1999M+01551MA1999999088601MD1310061+9999ME1315329REMSYN070AAXX  09184 17203 32970 00000 10146 20063 38860 48532 53006 333 10155;EQDQ01  00002PRCP99
0152172030999992000100921004+38860+040500FM-12+117799999V0209999C000012200019N0200001N1+01281+00621999999ADDGF103991031001999999031001MA1999999088661MD1110061+9999ME1315409REMSYN076AAXX  09214 17203 42970 30000 10128 20062 38866 48540 51006 83030 333 10152;
0162172030999992000101003004+38860+040500FM-12+117799999V0209999C000012200019N0200001N1+01001+00591999999ADDGA1001+999999999GF100991001001999999001001MA1999999088681MD1410001+9999ME1315389REMSYN070AAXX  10034 17203 42970 00000 10100 20059 38868 48538 54000 333 10174;
0253172030999992000101006004+38860+040500FM-12+117799999V0209999C000012200019N0200001N1+01501+00901999999ADDAA199000091GA1021+030009079GF102991021001999999031001IA1019IA2999+00609KA1120N+00951MA1999999088751MD1110071+9999ME1315459REMSYN100AAXX  10064 17203 32970 20000 10150 20090 38875 48545 51007 82030 333 20095 30006 50514 55085 82360;EQDQ01  00002PRCP99
0174172030999992000101009004+38860+040500FM-12+117799999V0200701N00151036001CN0200001N1+02101+01021999999ADDGA1041+012009089GF106991041021012501051001MA1999999088781MD1110031+9999ME1315509REMSYN082AAXX  10094 17203 42670 60703 10210 20102 38878 48550 51003 84250 333 84840 86360;
0204172030999992000101012004+38860+040500FM-12+117799999V0209999C00001036001CN0200001N1+02201+00991999999ADDAA199000091GA1041+012009089GF107991041021012501051001MA1999999088681MD1810101+9999ME1315419REMSYN082AAXX  10124 17203 32670 70000 10220 20099 38868 48541 58010 84250 333 84840 87360;EQDQ01  00002PRCP99
0174172030999992000101015004+38860+040500FM-12+117799999V0209999C00001036001CN0200001N1+01841+00941999999ADDGA1031+012009089GF105991031011012501051001MA1999999088621MD1610061+9999ME1315319REMSYN082AAXX  10154 17203 42670 50000 10184 20094 38862 48531 56006 83150 333 83840 85360;
0217172030999992000101018004+38860+040500FM-12+117799999V0209999C000012200019N0200001N1+01461+00831999999ADDAA199000091GA1021+012009029GF102991021011012501001001KA1120M+02321MA1999999088621MD1410001+9999ME1315329REMSYN082AAXX  10184 17203 32670 20000 10146 20083 38862 48532 54000 82100 333 10232 82840;EQDQ01  00002PRCP99
0162172030999992000101021004+38860+040500FM-12+117799999V0201601N002112200019N0200001N1+01401+00841999999ADDGA1001+999999999GF100991001001999999001001MA1999999088621MD1410001+9999ME1315369REMSYN070AAXX  10214 17203 42970 01604 10140 20084 38862 48536 54000 333 10152;
0192172030999992000101100004+38860+040500FM-12+117799999V0209999C000012200019N0200001N1+01201+00851999999ADDAA199000091GA1001+999999999GF100991001001999999001001MA1999999088711MD1210091+9999ME1315449REMSYN070AAXX  11004 17203 32970 00000 10120 20085 38871 48544 52009 333 10163;EQDQ01  00002PRCP99
0162172030999992000101103004+38860+040500FM-12+117799999V0209999C000012200019N0200001N1+01101+00821999999ADDGA1001+999999999GF100991001001999999001001MA1999999088721MD1110011+9999ME1315429REMSYN070AAXX  11034 17203 42970 00000 10110 20082 38872 48542 51001 333 10174;
0253172030999992000101106004+38860+040500FM-12+117799999V0209999C000012200019N0200001N1+01401+01071999999ADDAA199000091GA1031+012009029GF103991031011012501001001IA1019IA2999+00709KA1120N+01061MA1999999088751MD1310031+9999ME1315449REMSYN100AAXX  11064 17203 32670 30000 10140 20107 38875 48544 53003 83100 333 20106 30007 50364 55051 83840;EQDQ01  00002PRCP99
0174172030999992000101109004+38860+040500FM-12+117799999V0209999C00001036001CN0200001N1+01981+01031999999ADDGA1031+012009089GF105991031011012501051001MA1999999088631MD1710121+9999ME1315369REMSYN082AAXX  11094 17203 42670 50000 10198 20103 38863 48536 57012 83150 333 83840 85360;
0204172030999992000101112004+38860+040500FM-12+117799999V0209999C00001036001CN0200001N1+02001+01091999999ADDAA199000091GA1041+012009089GF106991041021012501051001MA1999999088501MD1710131+9999ME1315229REMSYN082AAXX  11124 17203 32670 60000 10200 20109 38850 48522 57013 84250 333 84840 86360;EQDQ01  00002PRCP99
0174172030999992000101115004+38860+040500FM-12+117799999V0209999C00001036001CN0200001N1+01501+01101999999ADDGA1031+012009089GF105991031011012501051001MA1999999088661MD1110161+9999ME1315349REMSYN082AAXX  11154 17203 42670 50000 10150 20110 38866 48534 51016 83150 333 83840 85360;
0238172030999992000101118004+38860+040500FM-12+117799999V0209999C00001036001CN0200001N1+01281+00971999999ADDAA112000191AY181061AY221061GA1041+012009089GF106991041021012501051001KA1120M+02101MA1999999088641MD1810021+9999ME1315339MW1031REMSYN100AAXX  11184 17203 11670 60000 10128 20097 38864 48533 58002 69912 70382 84250 333 10210 84840 86360;
0174172030999992000101121004+38860+040500FM-12+117799999V0209999C00001036001CN0200001N1+01221+00941999999ADDGA1041+012009089GF106991041021012501051001MA1999999088741MD1110101+9999ME1315459REMSYN082AAXX  11214 17203 42670 60000 10122 20094 38874 48545 51010 84250 333 84840 86360;
0192172030999992000101200004+38860+040500FM-12+117799999V0209999C000012200019N0200001N1+01001+00821999999ADDAA199000091GA1001+999999999GF100991001001999999001001MA1999999088741MD1410001+9999ME1315459REMSYN070AAXX  12004 17203 32970 00000 10100 20082 38874 48545 54000 333 10176;EQDQ01  00002PRCP99
0162172030999992000101203004+38860+040500FM-12+117799999V0209999C000012200019N0200001N1+00881+00771999999ADDGA1001+999999999GF100991001001999999001001MA1999999088781MD1310041+9999ME1315449REMSYN070AAXX  12034 17203 42970 00000 10088 20077 38878 48544 53004 333 10196;
0228172030999992000101206004+38860+040500FM-12+117799999V0209999C000012200019N0200001N1+01581+01011999999ADDAA124000191GA1001+999999999GF100991001001999999001001IA1019IA2999+00509KA1120N+00861MA1999999088901MD1210121+9999ME1315589REMSYN094AAXX  12064 17203 32970 00000 10158 20101 38890 48558 52012 333 20086 30005 50304 55026 70001;
0152172030999992000101209004+38860+040500FM-12+117799999V0200101N001512200019N0200001N1+02161+01101999999ADDGF102991021011012501001001MA1999999088921MD1010021+9999ME1315649REMSYN076AAXX  12094 17203 42670 20103 10216 20110 38892 48564 50002 82100 333 10187;
0204172030999992000101212004+38860+040500FM-12+117799999V0209999C000012200019N0200001N1+02361+01001999999ADDAA199000091GA1021+012009089GF104991021011012501001011MA1999999088741MD1710181+9999ME1315469REMSYN082AAXX  12124 17203 32670 40000 10236 20100 38874 48546 57018 82101 333 82840 84070;EQDQ01  00002PRCP99
0152172030999992000101215004+38860+040500FM-12+117799999V0201501N001519999999N0200001N1+01881+00941999999ADDGF105991001001999999001011MA1999999088721MD1510021+9999ME1315409REMSYN076AAXX  12154 17203 42970 51503 10188 20094 38872 48540 55002 80001 333 10179;
0217172030999992000101218004+38860+040500FM-12+117799999V0201601N001512200019N0200001N1+01631+00971999999ADDAA199000091GA1031+030009079GF103991031001999999031001KA1120M+02421MA1999999088841MD1210121+9999ME1315559REMSYN082AAXX  12184 17203 32970 31603 10163 20097 38884 48555 52012 83030 333 10242 83360;EQDQ01  00002PRCP99
0174172030999992000101221004+38860+040500FM-12+117799999V0209999C00001036001CN0200001N1+01361+00861999999ADDGA1021+012009089GF105991021011012501051001MA1999999088901MD1110061+9999ME1315639REMSYN082AAXX  12214 17203 42670 50000 10136 20086 38890 48563 51006 82150 333 82840 85360;
0192172030999992000101300004+38860+040500FM-12+117799999V0209999C000012200019N0200001N1+01101+00741999999ADDAA199000091GA1001+999999999GF100991001001999999001001MA1999999088941MD1110041+9999ME1315669REMSYN070AAXX  13004 17203 32970 00000 10110 20074 38894 48566 51004 333 10189;EQDQ01  00002PRCP99
0162172030999992000101303004+38860+040500FM-12+117799999V0209999C000012200019N0200001N1+00921+00771999999ADDGA1001+999999999GF100991001001999999001001MA1999999088941MD1410001+9999ME1315629REMSYN070AAXX  13034 17203 42970 00000 10092 20077 38894 48562 54000 333 10204;
0241172030999992000101306004+38860+040500FM-12+117799999V0209999C000012200019N0200001N1+01401+00881999999ADDAA199000091GA1001+999999999GF100991001001999999001001IA1019IA2999+00509KA1120N+00881MA1999999088981MD1310041+9999ME1315679REMSYN088AAXX  13064 17203 32970 00000 10140 20088 38898 48567 53004 333 20088 30005 50374 55074;EQDQ01  00002PRCP99
0152172030999992000101309004+38860+040500FM-12+117799999V0203601N001512200019N0200001N1+02101+01061999999ADDGF101991011011012501001001MA1999999088901MD1810081+9999ME1315629REMSYN076AAXX  13094 17203 42670 13603 10210 20106 38890 48562 58008 81100 333 10185;
0182172030999992000101312004+38860+040500FM-12+117799999V0200701N002612200019N0200001N1+02401+01091999999ADDAA199000091GF103991031011012501001001MA1999999088681MD1710221+9999ME1315419REMSYN076AAXX  13124 17203 32670 30705 10240 20109 38868 48541 57022 83100 333 10154;EQDQ01  00002PRCP99
0152172030999992000101315004+38860+040500FM-12+117799999V0209999C000012200019N0200001N1+02021+00801999999ADDGF103991031011012501001001MA1999999088601MD1610081+9999ME1315309REMSYN076AAXX  13154 17203 42670 30000 10202 20080 38860 48530 56008 83100 333 10160;
0217172030999992000101318004+38860+040500FM-12+117799999V0201601N001512200019N0200001N1+01581+00561999999ADDAA199000091GA1031+030009079GF103991031001999999031001KA1120M+02421MA1999999088641MD1310041+9999ME1315349REMSYN082AAXX  13184 17203 32970 31603 10158 20056 38864 48534 53004 83030 333 10242 83360;EQDQ01  00002PRCP99
0152172030999992000101321004+38860+040500FM-12+117799999V0201601N002612200019N0200001N1+01441+00611999999ADDGF103991001001999999001011MA1999999088721MD1110081+9999ME1315469REMSYN076AAXX  13214 17203 42970 31605 10144 20061 38872 48546 51008 80001 333 10159;
0182172030999992000101400004+38860+040500FM-12+117799999V0209999C000012200019N0200001N1+01181+00501999999ADDAA199000091GF104991001001999999001011MA1999999088701MD1810021+9999ME1315449REMSYN076AAXX  14004 17203 32970 40000 10118 20050 38870 48544 58002 80001 333 10157;EQDQ01  00002PRCP99
0152172030999992000101403004+38860+040500FM-12+117799999V0201601N001512200019N0200001N1+01061+00491999999ADDGF102991021001999999031001MA1999999088681MD1610021+9999ME1315399REMSYN076AAXX  14034 17203 42970 21603 10106 20049 38868 48539 56002 82030 333 10169;
0253172030999992000101406004+38860+040500FM-12+117799999V0209999C000012200019N0200001N1+01381+00701999999ADDAA199000091GA1031+012009029GF103991031011012501001001IA1019IA2999+00609KA1120N+00961MA1999999088751MD1310071+9999ME1315459REMSYN100AAXX  14064 17203 32670 30000 10138 20070 38875 48545 53007 83100 333 20096 30006 50404 55078 83840;EQDQ01  00002PRCP99
0152172030999992000101409004+38860+040500FM-12+117799999V0209999C000012200019N0200001N1+02181+00791999999ADDGF103991031011012501001001MA1999999088701MD1810051+9999ME1315449REMSYN076AAXX  14094 17203 42670 30000 10218 20079 38870 48544 58005 83100 333 10157;
0182172030999992000101412004+38860+040500FM-12+117799999V0209999C000012200019N0200001N1+02201+00821999999ADDAA199000091GF103991031011012501001001MA1999999088521MD1710181+9999ME1315259REMSYN076AAXX  14124 17203 32670 30000 10220 20082 38852 48525 57018 83100 333 10141;EQDQ01  00002PRCP99
0174172030999992000101415004+38860+040500FM-12+117799999V0201501N00151036001CN0200001N1+01701+00631999999ADDGA1031+012009089GF105991031011012501051001MA1999999088501MD1610021+9999ME1315199REMSYN082AAXX  14154 17203 42670 51503 10170 20063 38850 48519 56002 83150 333 83840 85360;
0217172030999992000101418004+38860+040500FM-12+117799999V0201501N002112200019N0200001N1+01481+00631999999ADDAA199000091GA1031+012009029GF103991031011012501001001KA1120M+02401MA1999999088601MD1110101+9999ME1315309REMSYN082AAXX  14184 17203 32670 31504 10148 20063 38860 48530 51010 83100 333 10240 83840;EQDQ01  00002PRCP99
0162172030999992000101421004+38860+040500FM-12+117799999V0201601N001512200019N0200001N1+01201+00531999999ADDGA1001+999999999GF100991001001999999001001MA1999999088761MD1310161+9999ME1315489REMSYN070AAXX  14214 17203 42970 01603 10120 20053 38876 48548 53016 333 10167;
0192172030999992000101500004+38860+040500FM-12+117799999V0201601N001512200019N0200001N1+01061+00451999999ADDAA199000091GA1001+999999999GF100991001001999999001001MA1999999088871MD1110111+9999ME1315589REMSYN070AAXX  15004 17203 32970 01603 10106 20045 38887 48558 51011 333 10186;EQDQ01  00002PRCP99
0162172030999992000101503004+38860+040500FM-12+117799999V0201601N002112200019N0200001N1+00881+00321999999ADDGA1001+999999999GF100991001001999999001001MA1999999088871MD1410001+9999ME1315539REMSYN070AAXX  15034 17203 42970 01604 10088 20032 38887 48553 54000 333 10201;
0241172030999992000101506004+38860+040500FM-12+117799999V0209999C000012200019N0200001N1+01401+00641999999ADDAA199000091GA1001+999999999GF100991001001999999001001IA1019IA2999+00509KA1120N+00871MA1999999089001MD1210131+9999ME1315689REMSYN088AAXX  15064 17203 32970 00000 10140 20064 38900 48568 52013 333 20087 30005 50454 55055;EQDQ01  00002PRCP99
0152172030999992000101509004+38860+040500FM-12+117799999V0203101N002112200019N0200001N1+02101+00811999999ADDGF102991021011012501001001MA1999999089021MD1110021+9999ME1315739REMSYN076AAXX  15094 17203 42670 23104 10210 20081 38902 48573 51002 82100 333 10203;
0182172030999992000101512004+38860+040500FM-12+117799999V0203401N001512200019N0200001N1+02301+00601999999ADDAA199000091GF102991021011012501001001MA1999999088901MD1710121+9999ME1315629REMSYN076AAXX  15124 17203 32670 23403 10230 20060 38890 48562 57012 82100 333 10185;EQDQ01  00002PRCP99
0162172030999992000101515004+38860+040500FM-12+117799999V0209999C000012200019N0200001N1+01851+00491999999ADDGA1001+999999999GF100991001001999999001001MA1999999088811MD1710091+9999ME1315489REMSYN070AAXX  15154 17203 42970 00000 10185 20049 38881 48548 57009 333 10189;
0205172030999992000101518004+38860+040500FM-12+117799999V0209999C000012200019N0200001N1+01301+00211999999ADDAA199000091GA1001+999999999GF100991001001999999001001KA1999M+02071MA1999999088921MD1210111+9999ME1315599REMSYN070AAXX  15184 17203 32970 00000 10130 20021 38892 48559 52011 333 10207;EQDQ01  00002PRCP99
0162172030999992000101521004+38860+040500FM-12+117799999V0209999C000012200019N0200001N1+01141+00061999999ADDGA1001+999999999GF100991001001999999001001MA1999999089001MD1110081+9999ME1315719REMSYN070AAXX  15214 17203 42970 00000 10114 20006 38900 48571 51008 333 10201;
0192172030999992000101600004+38860+040500FM-12+117799999V0209999C000012200019N0200001N1+01031-00041999999ADDAA199000091GA1001+999999999GF100991001001999999001001MA1999999089051MD1110051+9999ME1315769REMSYN070AAXX  16004 17203 32970 00000 10103 21004 38905 48576 51005 333 10202;EQDQ01  00002PRCP99
0162172030999992000101603004+38860+040500FM-12+117799999V0209999C000012200019N0200001N1+01001-00021999999ADDGA1001+999999999GF100991001001999999001001MA1999999089051MD1410001+9999ME1315729REMSYN070AAXX  16034 17203 42970 00000 10100 21002 38905 48572 54000 333 10217;
0241172030999992000101606004+38860+040500FM-12+117799999V0209999C000012200019N0200001N1+01401+00421999999ADDAA199000091GA1001+999999999GF100991001001999999001001IA1019IA2999+00509KA1120N+00901MA1999999089161MD1310111+9999ME1315819REMSYN088AAXX  16064 17203 32970 00000 10140 20042 38916 48581 53011 333 20090 30005 50534 55081;EQDQ01  00002PRCP99
0162172030999992000101609004+38860+040500FM-12+117799999V0209999C000012200019N0200001N1+02041+00291999999ADDGA1001+999999999GF100991001001999999001001MA1999999089081MD1810081+9999ME1315789REMSYN070AAXX  16094 17203 42970 00000 10204 20029 38908 48578 58008 333 10210;
0182172030999992000101612004+38860+040500FM-12+117799999V0209999C000012200019N0200001N1+02341+00181999999ADDAA199000091GF102991021001999999031001MA1999999088901MD1710181+9999ME1315629REMSYN076AAXX  16124 17203 32970 20000 10234 20018 38890 48562 57018 82030 333 10185;EQDQ01  00002PRCP99
0162172030999992000101615004+38860+040500FM-12+117799999V0209999C000012200019N0200001N1+01701+00141999999ADDGA1001+999999999GF100991001001999999001001MA1999999088801MD1610101+9999ME1315489REMSYN070AAXX  16154 17203 42970 00000 10170 20014 38880 48548 56010 333 10188;
0205172030999992000101618004+38860+040500FM-12+117799999V0209999C000012200019N0200001N1+01351+00071999999ADDAA199000091GA1001+999999999GF100991001001999999001001KA1999M+02001MA1999999088901MD1310101+9999ME1315579REMSYN070AAXX  16184 17203 32970 00000 10135 20007 38890 48557 53010 333 10200;EQDQ01  00002PRCP99
0162172030999992000101621004+38860+040500FM-12+117799999V0209999C000012200019N0200001N1+01001+00141999999ADDGA1001+999999999GF100991001001999999001001MA1999999088941MD1110041+9999ME1315639REMSYN070AAXX  16214 17203 42970 00000 10100 20014 38894 48563 51004 333 10199;
0182172030999992000101700004+38860+040500FM-12+117799999V0209999C000012200019N0200001N1+00841+00131999999ADDAA199000091GF101991011011012501001001MA1999999088941MD1410001+9999ME1315649REMSYN076AAXX  17004 17203 32670 10000 10084 20013 38894 48564 54000 81100 333 10194;EQDQ01  00002PRCP99
0152172030999992000101703004+38860+040500FM-12+117799999V0209999C000012200019N0200001N1+00681+00181999999ADDGF102991021011012501001001MA1999999088911MD1810031+9999ME1315569REMSYN076AAXX  17034 17203 42670 20000 10068 20018 38891 48556 58003 82100 333 10211;
0253172030999992000101706004+38860+040500FM-12+117799999V0209999C000012200019N0200001N1+01201+00391999999ADDAA199000091GA1041+012009029GF104991041021012501001001IA1019IA2999+00409KA1120N+00581MA1999999088911MD1410001+9999ME1315579REMSYN100AAXX  17064 17203 32670 40000 10120 20039 38891 48557 54000 84200 333 20058 30004 50484 55081 84840;EQDQ01  00002PRCP99
0152172030999992000101709004+38860+040500FM-12+117799999V0209999C000012200019N0200001N1+02101+00541999999ADDGF101991011011012501001001MA1999999088911MD1410001+9999ME1315619REMSYN076AAXX  17094 17203 42670 10000 10210 20054 38891 48561 54000 81100 333 10191;
0182172030999992000101712004+38860+040500FM-12+117799999V0209999C000012200019N0200001N1+02301+00391999999ADDAA199000091GF102991021011012501001001MA1999999088701MD1610211+9999ME1315419REMSYN076AAXX  17124 17203 32670 20000 10230 20039 38870 48541 56021 82100 333 10167;EQDQ01  00002PRCP99
0162172030999992000101715004+38860+040500FM-12+117799999V0209999C000012200019N0200001N1+01661+00261999999ADDGA1001+999999999GF100991001001999999001001MA1999999088701MD1410001+9999ME1315369REMSYN070AAXX  17154 17203 42970 00000 10166 20026 38870 48536 54000 333 10187;
0205172030999992000101718004+38860+040500FM-12+117799999V0209999C000012200019N0200001N1+01381+00191999999ADDAA199000091GA1001+999999999GF100991001001999999001001KA1999M+01931MA1999999088801MD1310101+9999ME1315479REMSYN070AAXX  17184 17203 32970 00000 10138 20019 38880 48547 53010 333 10193;EQDQ01  00002PRCP99
0162172030999992000101721004+38860+040500FM-12+117799999V0209999C000012200019N0200001N1+01081+00241999999ADDGA1001+999999999GF100991001001999999001001MA1999999088861MD1110061+9999ME1315579REMSYN070AAXX  17214 17203 42970 00000 10108 20024 38886 48557 51006 333 10185;
0192172030999992000101800004+38860+040500FM-12+117799999V0209999C000012200019N0200001N1+00901+00301999999ADDAA199000091GA1001+999999999GF100991001001999999001001MA1999999088861MD1410001+9999ME1315579REMSYN070AAXX  18004 17203 32970 00000 10090 20030 38886 48557 54000 333 10185;EQDQ01  00002PRCP99
0162172030999992000101803004+38860+040500FM-12+117799999V0209999C000012200019N0200001N1+00601+00181999999ADDGA1001+999999999GF100991001001999999001001MA1999999088881MD1310021+9999ME1315529REMSYN070AAXX  18034 17203 42970 00000 10060 20018 38888 48552 53002 333 10213;
0241172030999992000101806004+38860+040500FM-12+117799999V0209999C000012200019N0200001N1+01101+00271999999ADDAA199000091GA1001+999999999GF100991001001999999001001IA1019IA2999+00209KA1120N+00561MA1999999088941MD1310061+9999ME1315609REMSYN088AAXX  18064 17203 32970 00000 10110 20027 38894 48560 53006 333 20056 30002 50424 55078;EQDQ01  00002PRCP99
0162172030999992000101809004+38860+040500FM-12+117799999V0209999C000012200019N0200001N1+01921+00571999999ADDGA1001+999999999GF100991001001999999001001MA1999999088861MD1810081+9999ME1315559REMSYN070AAXX  18094 17203 42970 00000 10192 20057 38886 48555 58008 333 10190;
0192172030999992000101812004+38860+040500FM-12+117799999V0202701N001512200019N0200001N1+02121+00471999999ADDAA199000091GA1001+999999999GF100991001001999999001001MA1999999088641MD1710221+9999ME1315359REMSYN070AAXX  18124 17203 32970 02703 10212 20047 38864 48535 57022 333 10165;EQDQ01  00002PRCP99
0162172030999992000101815004+38860+040500FM-12+117799999V0209999C000012200019N0200001N1+01401+00061999999ADDGA1001+999999999GF100991001001999999001001MA1999999088621MD1610021+9999ME1315269REMSYN070AAXX  18154 17203 42970 00000 10140 20006 38862 48526 56002 333 10188;
0205172030999992000101818004+38860+040500FM-12+117799999V0209999C000012200019N0200001N1+01081-00071999999ADDAA199000091GA1001+999999999GF100991001001999999001001KA1999M+01901MA1999999088681MD1110061+9999ME1315339REMSYN070AAXX  18184 17203 32970 00000 10108 21007 38868 48533 51006 333 10190;EQDQ01  00002PRCP99
0162172030999992000101821004+38860+040500FM-12+117799999V0209999C000012200019N0200001N1+00901+00061999999ADDGA1001+999999999GF100991001001999999001001MA1999999088681MD1410001+9999ME1315299REMSYN070AAXX  18214 17203 42970 00000 10090 20006 38868 48529 54000 333 10174;
0182172030999992000101900004+38860+040500FM-12+117799999V0209999C000012200019N0200001N1+00821+00061999999ADDAA199000091GF102991021011012501001001MA1999999088681MD1410001+9999ME1315389REMSYN076AAXX  19004 17203 32670 20000 10082 20006 38868 48538 54000 82100 333 10169;EQDQ01  00002PRCP99
0152172030999992000101903004+38860+040500FM-12+117799999V0209999C000012200019N0200001N1+00601-00071999999ADDGF104991041021012501001001MA1999999088681MD1410001+9999ME1315329REMSYN076AAXX  19034 17203 42670 40000 10060 21007 38868 48532 54000 84200 333 10195;
0259172030999992000101906004+38860+040500FM-12+117799999V0209999C00001036001CN0200001N1+00901+00211999999ADDAA199000091GA1031+012009089GF105991031011012501051001IA1019IA2999+00209KA1120N+00581MA1999999088701MD1310021+9999ME1315339REMSYN106AAXX  19064 17203 32670 50000 10090 20021 38870 48533 53002 83150 333 20058 30002 50424 55080 83840 85360;EQDQ01  00002PRCP99
0152172030999992000101909004+38860+040500FM-12+117799999V0203401N002112200019N0200001N1+02002+00631999999ADDGF104991041001999999031001MA1999999088641MD1810061+9999ME1315349REMSYN076AAXX  19094 17203 42970 43404 10200 20063 38864 48534 58006 84030 333 10170;
0174172030999992000101915004+38860+040500FM-12+117799999V0209999C00001036001CN0200001N1+01681+00561999999ADDGA1031+012009089GF106991031011012501051001MA1999999088481MD1610041+9999ME1315149REMSYN082AAXX  19154 17203 42670 60000 10168 20056 38848 48514 56004 83150 333 83840 86360;
0217172030999992000101918004+38860+040500FM-12+117799999V0200601N001512200019N0200001N1+01621+00571999999ADDAA199000091GA1031+012009029GF103991031011012501001001KA1120M+02151MA1999999088501MD1310021+9999ME1315199REMSYN082AAXX  19184 17203 32670 30603 10162 20057 38850 48519 53002 83100 333 10215 83840;EQDQ01  00002PRCP99
0152172030999992000101921004+38860+040500FM-12+117799999V0209999C000012200019N0200001N1+01241+00701999999ADDGF103991031001999999031001MA1999999088641MD1210141+9999ME1315369REMSYN076AAXX  19214 17203 42970 30000 10124 20070 38864 48536 52014 83030 333 10160;
0204172030999992000102000004+38860+040500FM-12+117799999V0209999C00001036001CN0200001N1+01201+00731999999ADDAA199000091GA1031+012009089GF105991031011012501051001MA1999999088681MD1110041+9999ME1315419REMSYN082AAXX  20004 17203 32670 50000 10120 20073 38868 48541 51004 83150 333 83840 85360;EQDQ01  00002PRCP99
0174172030999992000102003004+38860+040500FM-12+117799999V0209999C00001036001CN0200001N1+01101+00741999999ADDGA1041+012009089GF106991041021012501051001MA1999999088681MD1410001+9999ME1315379REMSYN082AAXX  20034 17203 42670 60000 10110 20074 38868 48537 54000 84250 333 84840 86360;
0259172030999992000102006004+38860+040500FM-12+117799999V0209999C00001036001CN0200001N1+01441+00931999999ADDAA199000091GA1041+012009089GF106991041021012501051001IA1019IA2999+00809KA1120N+01061MA1999999088771MD1210091+9999ME1315469REMSYN106AAXX  20064 17203 32670 60000 10144 20093 38877 48546 52009 84250 333 20106 30008 50424 55053 84840 86360;EQDQ01  00002PRCP99
0174172030999992000102009004+38860+040500FM-12+117799999V0200601N00311036001CN0200001N1+01861+01041999999ADDGA1041+012009089GF107991041021012501051001MA1999999088701MD1810071+9999ME1315419REMSYN082AAXX  20094 17203 42670 70606 10186 20104 38870 48541 58007 84250 333 84840 87360;
0204172030999992000102012004+38860+040500FM-12+117799999V0200301N00151036001CN0200001N1+01761+01001999999ADDAA199000091GA1041+012009089GF107991041021012501051001MA1999999088501MD1710201+9999ME1315209REMSYN082AAXX  20124 17203 32670 70303 10176 20100 38850 48520 57020 84250 333 84840 87360;EQDQ01  00002PRCP99
0174172030999992000102015004+38860+040500FM-12+117799999V0209999C00001036001CN0200001N1+01741+00851999999ADDGA1041+012009069GF108991041041012501021999MA1999999088361MD1710141+9999ME1315069REMSYN082AAXX  20154 17203 42670 80000 10174 20085 38836 48506 57014 8442/ 333 84640 88460;
0223172030999992000102018004+38860+040500FM-12+117799999V0200301N00261036001CN0200001N1+01641+00811999999ADDAA199000091GA1041+012009069GF107991041051012501011001KA1120M+01881MA1999999088261MD1710101+9999ME1314989REMSYN088AAXX  20184 17203 32670 70305 10164 20081 38826 48498 57010 84510 333 10188 84640 87460;EQDQ01  00002PRCP99
0174172030999992000102021004+38860+040500FM-12+117799999V0200401N00361036001CN0200001N1+01701+00851999999ADDGA1031+012009089GF105991031011012501051001MA1999999088251MD1510011+9999ME1315009REMSYN082AAXX  20214 17203 42670 50407 10170 20085 38825 48500 55001 83150 333 83840 85360;
0219172030999992000102100004+38860+040500FM-12+117799999V0209999C00001036001CN0150001N1+01101+01031999999ADDAA106006191AY191061AY281061GA1041+010509069GF108991041041012501021999MA1999999088351MD1210101+9999ME1315059MW1611REMSYN094AAXX  21004 17203 11665 80000 10110 20103 38835 48505 52010 60061 76198 8442/ 333 84635 88457;
0202172030999992000102103004+38860+040500FM-12+117799999V0209999C00001036001CN0200001N1+01021+00911999999ADDAY161031AY221031GA1031+012009089GF105991031011012501051001MA1999999088401MD1110051+9999ME1315109MW1011REMSYN088AAXX  21034 17203 41670 50000 10102 20091 38840 48510 51005 70162 83150 333 83840 85360;
0280172030999992000102106004+38860+040500FM-12+117799999V0209999C00001036001CN0200001N1+01141+01071999999ADDAA112006191AY161061AY221061GA1031+012009089GF106991031011012501051001IA1119IA2999+00709KA1120N+00961MA1999999088601MD1210201+9999ME1315299MW1021REMSYN124AAXX  21064 17203 11670 60000 10114 20107 38860 48529 52020 60062 70262 83150 333 20096 32007 50434 55031 70060 83840 86360;
0174172030999992000102109004+38860+040500FM-12+117799999V0209999C00001036001CN0200001N1+01501+00901999999ADDGA1041+012009089GF107991041021012501051001MA1999999088661MD1110061+9999ME1315389REMSYN082AAXX  21094 17203 42670 70000 10150 20090 38866 48538 51006 84250 333 84840 87360;
0185172030999992000102112004+38860+040500FM-12+117799999V0200401N00211036001CN0200001N1+01801+00761999999ADDAA199000021GA1031+012009089GF105991031011012501051001MA1999999088601MD1810061+9999ME1315309REMSYN082AAXX  21124 17203 32670 50404 10180 20076 38860 48530 58006 83150 333 83840 85360;
0152172030999992000102115004+38860+040500FM-12+117799999V0201601N001512200019N0200001N1+01401+00681999999ADDGF103991031011012501001001MA1999999088581MD1610021+9999ME1315259REMSYN076AAXX  21154 17203 42670 31603 10140 20068 38858 48525 56002 83100 333 10173;
0217172030999992000102118004+38860+040500FM-12+117799999V0209999C000012200019N0200001N1+01081+00721999999ADDAA199000091GA1041+012009029GF104991041021012501001001KA1120M+01821MA1999999088721MD1310141+9999ME1315379REMSYN082AAXX  21184 17203 32670 40000 10108 20072 38872 48537 53014 84200 333 10182 84840;EQDQ01  00002PRCP99
0152172030999992000102121004+38860+040500FM-12+117799999V0209999C000012200019N0200001N1+00981+00761999999ADDGF102991021001999999031001MA1999999088781MD1110061+9999ME1315449REMSYN076AAXX  21214 17203 42970 20000 10098 20076 38878 48544 51006 82030 333 10196;
0192172030999992000102200004+38860+040500FM-12+117799999V0209999C000012200019N0200001N1+00801+00691999999ADDAA199000091GA1001+999999999GF100991001001999999001001MA1999999088801MD1310021+9999ME1315489REMSYN070AAXX  22004 17203 32970 00000 10080 20069 38880 48548 53002 333 10193;EQDQ01  00002PRCP99
0162172030999992000102203004+38860+040500FM-12+117799999V0209999C000012200019N0200001N1+00601+00561999999ADDGA1001+999999999GF100991001001999999001001MA1999999088801MD1410001+9999ME1315439REMSYN070AAXX  22034 17203 42970 00000 10060 20056 38880 48543 54000 333 10209;
0253172030999992000102206004+38860+040500FM-12+117799999V0209999C000012200019N0200001N1+00901+00721999999ADDAA199000091GA1041+012009029GF104991041021012501001001IA1119IA2999+00309KA1120N+00581MA1999999088851MD1310051+9999ME1315479REMSYN100AAXX  22064 17203 32670 40000 10090 20072 38885 48547 53005 84200 333 20058 32003 50134 55041 84840;EQDQ01  00002PRCP99
0202172030999992000102209004+38860+040500FM-12+117799999V0209999C00001036001CN0150001N1+01201+00751999999ADDAY111031AY211031GA1041+011409089GF107991041021012501051001MA1999999088801MD1810051+9999ME1315459MW1601REMSYN088AAXX  22094 17203 41665 70000 10120 20075 38880 48545 58005 76011 84250 333 84838 87359;
0219172030999992000102212004+38860+040500FM-12+117799999V0209999C000010009019N0080001N1+01031+00941999999ADDAA106005191AY111061AY211061GA1051+000909069GF108991051051000751021999MA1999999088701MD1710101+9999ME1315329MW1611REMSYN094AAXX  22124 17203 11158 80000 10103 20094 38870 48532 57010 60051 76111 8552/ 333 85603 88457;
0202172030999992000102215004+38860+040500FM-12+117799999V0209999C000010105019N0060001N1+00901+00851999999ADDAY161031AY261031GA1051+010509069GF108991051051012501021999MA1999999088601MD1610101+9999ME1315219MW1611REMSYN088AAXX  22154 17203 41656 80000 10090 20085 38860 48521 56010 76166 8552/ 333 85635 88457;
0238172030999992000102218004+38860+040500FM-12+117799999V0209999C00001036001CN0200001N1+00861+00791999999ADDAA112023991AY161061AY221061GA1041+012009089GF107991041021012501051001KA1120M+01271MA1999999088601MD1410001+9999ME1315229MW1021REMSYN100AAXX  22184 17203 11670 70000 10086 20079 38860 48522 54000 60242 70262 84250 333 10127 84840 87360;
0174172030999992000102221004+38860+040500FM-12+117799999V0209999C00001036001CN0200001N1+00801+00741999999ADDGA1041+012009069GF108991041051012501021999MA1999999088521MD1710081+9999ME1315169REMSYN082AAXX  22214 17203 42670 80000 10080 20074 38852 48516 57008 8452/ 333 84640 88460;
0219172030999992000102300004+38860+040500FM-12+117799999V0209999C00001036001CN0200001N1+00791+00721999999ADDAA106003091AY161061AY221061GA1041+012009069GF108991041051012501021999MA1999999088501MD1610021+9999ME1315139MW1211REMSYN094AAXX  23004 17203 11670 80000 10079 20072 38850 48513 56002 60031 72162 8452/ 333 84640 88460;
0174172030999992000102303004+38860+040500FM-12+117799999V0209999C00001036001CN0200001N1+00741+00681999999ADDGA1031+012009069GF107991031051012501011001MA1999999088501MD1410001+9999ME1315129REMSYN082AAXX  23034 17203 42670 70000 10074 20068 38850 48512 54000 83510 333 83640 87460;
0252172030999992000102306004+38860+040500FM-12+117799999V0209999C00001036001CN0200001N1+00921+00851999999ADDAA112003091GA1031+012009089GF106991031011012501051001IA1119IA2999+00309KA1120N+00641MA1999999088581MD1310081+9999ME1315219REMSYN118AAXX  23064 17203 12670 60000 10092 20085 38858 48521 53008 60032 83150 333 20064 32003 50114 55006 70267 83840 86360;
0152172030999992000102309004+38860+040500FM-12+117799999V0209999C000012200019N0200001N1+01361+00411999999ADDGF104991041011012501001001MA1999999088561MD1810021+9999ME1315219REMSYN076AAXX  23094 17203 42670 40000 10136 20041 38856 48521 58002 84100 333 10176;
0185172030999992000102312004+38860+040500FM-12+117799999V0209999C00001036001CN0200001N1+01321+00221999999ADDAA199000021GA1031+012009089GF105991031011012501051001MA1999999088461MD1610101+9999ME1315119REMSYN082AAXX  23124 17203 32670 50000 10132 20022 38846 48511 56010 83150 333 83840 85360;
0152172030999992000102315004+38860+040500FM-12+117799999V0209999C000012200019N0200001N1+01001+00241999999ADDGF103991031011012501001001MA1999999088501MD1110041+9999ME1315139REMSYN076AAXX  23154 17203 42670 30000 10100 20024 38850 48513 51004 83100 333 10180;
0238172030999992000102318004+38860+040500FM-12+117799999V0209999C000010111019N0100001N1+00881+00731999999ADDAA112000191AY111061AY211061GA1051+011109069GF108991051041012501021999KA1120M+01461MA1999999088501MD1510001+9999ME1315139MW1601REMSYN100AAXX  23184 17203 11660 80000 10088 20073 38850 48513 55000 69912 76011 8542/ 333 10146 85637 88459;
0180172030999992000102321004+38860+040500FM-12+117799999V0209999C000012200019N0200001N1+00701+00551999999ADDAY161031AY211031GF104991041021012501001001MA1999999088531MD1010031+9999ME1315189MW1021REMSYN082AAXX  23214 17203 41670 40000 10070 20055 38853 48518 50003 70261 84200 333 10178;
0197172030999992000102400004+38860+040500FM-12+117799999V0209999C000012200019N0200001N1+00581+00421999999ADDAA106000591AY161061AY211061GF103991031011012501001001MA1999999088521MD1610011+9999ME1315159MW1021REMSYN088AAXX  24004 17203 11670 30000 10058 20042 38852 48515 56001 69951 70261 83100 333 10182;
0174172030999992000102403004+38860+040500FM-12+117799999V0209999C00001036001CN0200001N1+00601+00521999999ADDGA1041+012009089GF107991041021012501051001MA1999999088501MD1610021+9999ME1315129REMSYN082AAXX  24034 17203 42670 70000 10060 20052 38850 48512 56002 84250 333 84840 87360;
0246172030999992000102406004+38860+040500FM-12+117799999V0209999C000012200019N0200001N1+00941+00641999999ADDAA112000591GA1041+012009029GF104991041021012501001001IA1119IA2999+00309KA1120N+00531MA1999999088521MD1310021+9999ME1315159REMSYN112AAXX  24064 17203 12670 40000 10094 20064 38852 48515 53002 69952 84200 333 20053 32003 50104 55039 70006 84840;
0119172030999992000102409004+38860+040500FM-12+117799999V0209999C000019999999N0200001N1+01181+00671999999ADDGF107991999999012501999999REMSYN081AAXX  24094 17203 42670 70000 10118 20067 3852 48516 54000 84250 333 84840 87360;
0219172030999992000102412004+38860+040500FM-12+117799999V0209999C000010108019N0100001N1+01071+00911999999ADDAA106002091AY111061AY211061GA1051+010809069GF108991051051012501021999MA1999999088481MD1610041+9999ME1315119MW1611REMSYN094AAXX  24124 17203 11660 80000 10107 20091 38848 48511 56004 60021 76111 8552/ 333 85636 88458;
0202172030999992000102415004+38860+040500FM-12+117799999V0209999C00001036001CN0200001N1+00921+00701999999ADDAY161031AY211031GA1031+012009089GF105991031011012501051001MA1999999088481MD1410001+9999ME1315109MW1031REMSYN088AAXX  24154 17203 41670 50000 10092 20070 38848 48510 54000 70361 83150 333 83840 85360;
0238172030999992000102418004+38860+040500FM-12+117799999V0209999C00001036001CN0200001N1+00871+00701999999ADDAA112003091AY181061AY261061GA1041+012009069GF107991041041012501041001KA1120M+01221MA1999999088521MD1310041+9999ME1315169MW1251REMSYN100AAXX  24184 17203 11670 70000 10087 20070 38852 48516 53004 60032 72586 84440 333 10122 84640 87460;
0174172030999992000102421004+38860+040500FM-12+117799999V0209999C000010111019N0150001N1+00751+00661999999ADDGA1051+011109069GF108991051051012501021999MA1999999088541MD1110021+9999ME1315189REMSYN082AAXX  24214 17203 41665 80000 10075 20066 38854 48518 51002 8552/ 333 85637 88457;
0219172030999992000102500004+38860+040500FM-12+117799999V0209999C00001036001CN0150001N1+00651+00511999999ADDAA106007191AY121061AY221061GA1041+010509069GF108991041051012501021999MA1999999088601MD1110061+9999ME1315229MW1611REMSYN094AAXX  25004 17203 11665 80000 10065 20051 38860 48522 51006 60071 76122 8452/ 333 84635 88457;
0174172030999992000102503004+38860+040500FM-12+117799999V0209999C00001036001CN0200001N1+00631+00531999999ADDGA1041+012009069GF108991041051012501021999MA1999999088551MD1610051+9999ME1315169REMSYN082AAXX  25034 17203 42670 80000 10063 20053 38855 48516 56005 8452/ 333 84640 88460;
0280172030999992000102506004+38860+040500FM-12+117799999V0209999C00001036001CN0100001N1+00721+00641999999ADDAA112007191AY161061AY221061GA1041+011109069GF108991041051012501021999IA1119IA2999+00309KA1120N+00581MA1999999088551MD1410001+9999ME1315169MW1601REMSYN124AAXX  25064 17203 11660 80000 10072 20064 38855 48516 54000 60072 76062 8452/ 333 20058 32003 50054 55017 70098 84637 88458;
0174172030999992000102509004+38860+040500FM-12+117799999V0209999C00001036001CN0200001N1+01261+00801999999ADDGA1031+012009089GF105991031011012501051001MA1999999088501MD1810051+9999ME1315159REMSYN082AAXX  25094 17203 42670 50000 10126 20080 38850 48515 58005 83150 333 83840 85360;
0219172030999992000102512004+38860+040500FM-12+117799999V0209999C00001036001CN0200001N1+01301+00191999999ADDAA106000391AY161061AY221061GA1041+012009089GF106991041021012501051001MA1999999088401MD1710101+9999ME1315059MW1021REMSYN094AAXX  25124 17203 11670 60000 10130 20019 38840 48505 57010 69931 70262 84250 333 84840 86360;
0174172030999992000102515004+38860+040500FM-12+117799999V0201601N00151036001CN0200001N1+01021+00531999999ADDGA1041+012009089GF105991041021012501051001MA1999999088481MD1210081+9999ME1315119REMSYN082AAXX  25154 17203 42670 51603 10102 20053 38848 48511 52008 84250 333 84840 85360;
0210172030999992000102518004+38860+040500FM-12+117799999V0209999C00001036001CN0200001N1+00861+00431999999ADDAA112000391GA1041+012009069GF106991041041012501051001KA1120M+01441MA1999999088601MD1210121+9999ME1315229REMSYN094AAXX  25184 17203 12670 60000 10086 20043 38860 48522 52012 69932 84450 333 10144 84640 86360;
0202172030999992000102521004+38860+040500FM-12+117799999V0209999C00001036001CN0200001N1+00761+00451999999ADDAY161031AY221031GA1041+012009069GF108991041051012501021999MA1999999088651MD1110051+9999ME1315299MW1011REMSYN088AAXX  25214 17203 41670 80000 10076 20045 38865 48529 51005 70162 8452/ 333 84640 88460;
0219172030999992000102600004+38860+040500FM-12+117799999V0209999C00001036001CN0200001N1+00741+00511999999ADDAA106000191AY161061AY221061GA1041+012009069GF107991041051012501011001MA1999999088651MD1410001+9999ME1315309MW1021REMSYN094AAXX  26004 17203 11670 70000 10074 20051 38865 48530 54000 69911 70262 84510 333 84640 87460;
0174172030999992000102603004+38860+040500FM-12+117799999V0209999C00001036001CN0200001N1+00741+00511999999ADDGA1041+012009069GF107991041051012501011001MA1999999088701MD1310051+9999ME1315329REMSYN082AAXX  26034 17203 42670 70000 10074 20051 38870 48532 53005 84510 333 84640 87460;
0204172030999992000102606004+38860+040500FM-12+117799999V0209999C000010360019N0200001N1+01001+00421999999ADDAA112000191GF105991031011012501051001MA1999999088881MD1210181+9999ME1315509REMSYN117AAXX  26064 17203 12670 50000 10100 20042 38888 48550 52018 69912 83150 33 20062 32004 50174 55027 70004 83840 85360;
0152172030999992000102609004+38860+040500FM-12+117799999V0209999C000012200019N0200001N1+01541+00441999999ADDGF103991031011012501001001MA1999999088901MD1110021+9999ME1315549REMSYN076AAXX  26094 17203 42670 30000 10154 20044 38890 48554 51002 83100 333 10210;
0204172030999992000102612004+38860+040500FM-12+117799999V0200301N00151036001CN0200001N1+01501+00361999999ADDAA199000091GA1031+012009089GF105991031011012501051001MA1999999088861MD1610041+9999ME1315509REMSYN082AAXX  26124 17203 32670 50303 10150 20036 38886 48550 56004 83150 333 83840 85360;EQDQ01  00002PRCP99
0152172030999992000102615004+38860+040500FM-12+117799999V0209999C000012200019N0200001N1+01001+00501999999ADDGF102991021011012501001001MA1999999088941MD1210081+9999ME1315549REMSYN076AAXX  26154 17203 42670 20000 10100 20050 38894 48554 52008 82100 333 10230;
0205172030999992000102618004+38860+040500FM-12+117799999V0209999C000012200019N0200001N1+00761+00491999999ADDAA199000091GA1001+999999999GF100991001001999999001001KA1999M+02421MA1999999089041MD1110101+9999ME1315649REMSYN070AAXX  26184 17203 32970 00000 10076 20049 38904 48564 51010 333 10242;EQDQ01  00002PRCP99
0162172030999992000102621004+38860+040500FM-12+117799999V0209999C000012200019N0200001N1+00601+00401999999ADDGA1001+999999999GF100991001001999999001001MA1999999089121MD1210081+9999ME1315749REMSYN070AAXX  26214 17203 42970 00000 10060 20040 38912 48574 52008 333 10240;
0192172030999992000102700004+38860+040500FM-12+117799999V0209999C000012200019N0200001N1+00501+00381999999ADDAA199000091GA1001+999999999GF100991001001999999001001MA1999999089121MD1410001+9999ME1315739REMSYN070AAXX  27004 17203 32970 00000 10050 20038 38912 48573 54000 333 10246;EQDQ01  00002PRCP99
0162172030999992000102703004+38860+040500FM-12+117799999V0209999C000012200019N0200001N1+00401+00321999999ADDGA1001+999999999GF100991001001999999001001MA1999999089121MD1410001+9999ME1315699REMSYN070AAXX  27034 17203 42970 00000 10040 20032 38912 48569 54000 333 10262;
0241172030999992000102706004+38860+040500FM-12+117799999V0209999C000012200019N0200001N1+00661+00291999999ADDAA199000091GA1001+999999999GF100991001001999999001001IA1099IA2999+00109KA1120N+00281MA1999999089181MD1310061+9999ME1315759REMSYN088AAXX  27064 17203 32970 00000 10066 20029 38918 48575 53006 333 20028 31001 50264 55068;EQDQ01  00002PRCP99
0152172030999992000102709004+38860+040500FM-12+117799999V0209999C000012200019N0200001N1+01501+00501999999ADDGF101991011011012501001001MA1999999089151MD1810031+9999ME1315769REMSYN076AAXX  27094 17203 42670 10000 10150 20050 38915 48576 58003 81100 333 10249;
0182172030999992000102712004+38860+040500FM-12+117799999V0209999C000012200019N0200001N1+01701+00241999999ADDAA199000091GF102991021011012501001001MA1999999089011MD1710141+9999ME1315639REMSYN076AAXX  27124 17203 32670 20000 10170 20024 38901 48563 57014 82100 333 10228;EQDQ01  00002PRCP99
0162172030999992000102715004+38860+040500FM-12+117799999V0209999C000012200019N0200001N1+01141+00271999999ADDGA1001+999999999GF100991001001999999001001MA1999999088951MD1610061+9999ME1315549REMSYN070AAXX  27154 17203 42970 00000 10114 20027 38895 48554 56006 333 10237;
0205172030999992000102718004+38860+040500FM-12+117799999V0201601N001512200019N0200001N1+00921+00321999999ADDAA199000091GA1001+999999999GF100991001001999999001001KA1999M+02471MA1999999089041MD1210091+9999ME1315629REMSYN070AAXX  27184 17203 32970 01603 10092 20032 38904 48562 52009 333 10247;EQDQ01  00002PRCP99
0162172030999992000102721004+38860+040500FM-12+117799999V0209999C000012200019N0200001N1+00821+00431999999ADDGA1001+999999999GF100991001001999999001001MA1999999089101MD1110061+9999ME1315739REMSYN070AAXX  27214 17203 42970 00000 10082 20043 38910 48573 51006 333 10233;
0192172030999992000102800004+38860+040500FM-12+117799999V0201601N001512200019N0200001N1+00601+00311999999ADDAA199000091GA1001+999999999GF100991001001999999001001MA1999999089101MD1410001+9999ME1315739REMSYN070AAXX  28004 17203 32970 01603 10060 20031 38910 48573 54000 333 10238;EQDQ01  00002PRCP99
0162172030999992000102803004+38860+040500FM-12+117799999V0209999C000012200019N0200001N1+00421+00341999999ADDGA1001+999999999GF100991001001999999001001MA1999999089101MD1410001+9999ME1315689REMSYN070AAXX  28034 17203 42970 00000 10042 20034 38910 48568 54000 333 10254;
0253172030999992000102806004+38860+040500FM-12+117799999V0209999C000012200019N0200001N1+00861+00391999999ADDAA199000091GA1021+012009029GF102991021011012501001001IA1099IA2999+00009KA1120N+00381MA1999999089181MD1310081+9999ME1315779REMSYN100AAXX  28064 17203 32670 20000 10086 20039 38918 48577 53008 82100 333 20038 31000 50254 55068 82840;EQDQ01  00002PRCP99
0152172030999992000102809004+38860+040500FM-12+117799999V0209999C000012200019N0200001N1+01381+00391999999ADDGF103991031011012501001001MA1999999089161MD1810021+9999ME1315789REMSYN076AAXX  28094 17203 42670 30000 10138 20039 38916 48578 58002 83100 333 10245;
0182172030999992000102812004+38860+040500FM-12+117799999V0209999C000012200019N0200001N1+01461+00501999999ADDAA199000091GF104991041021012501001001MA1999999089021MD1610141+9999ME1315659REMSYN076AAXX  28124 17203 32670 40000 10146 20050 38902 48565 56014 84200 333 10234;EQDQ01  00002PRCP99
0152172030999992000102815004+38860+040500FM-12+117799999V0209999C000012200019N0200001N1+01201+00301999999ADDGF104991041021012501001001MA1999999089001MD1610021+9999ME1315599REMSYN076AAXX  28154 17203 42670 40000 10120 20030 38900 48559 56002 84200 333 10242;
0217172030999992000102818004+38860+040500FM-12+117799999V0209999C000012200019N0200001N1+00881+00451999999ADDAA199000091GA1031+012009029GF103991031011012501001001KA1120M+01561MA1999999089101MD1210101+9999ME1315709REMSYN082AAXX  28184 17203 32670 30000 10088 20045 38910 48570 52010 83100 333 10156 83840;EQDQ01  00002PRCP99
0162172030999992000102821004+38860+040500FM-12+117799999V0209999C000012200019N0200001N1+00751+00331999999ADDGA1001+999999999GF100991001001999999001001MA1999999089201MD1110101+9999ME1315819REMSYN070AAXX  28214 17203 42970 00000 10075 20033 38920 48581 51010 333 10250;
0204172030999992000102900004+38860+040500FM-12+117799999V0209999C00001036001CN0200001N1+00701+00381999999ADDAA199000091GA1021+012009089GF105991021011012501051001MA1999999089201MD1410001+9999ME1315829REMSYN082AAXX  29004 17203 32670 50000 10070 20038 38920 48582 54000 82150 333 82840 85360;EQDQ01  00002PRCP99
0162172030999992000102903004+38860+040500FM-12+117799999V0209999C000012200019N0200001N1+00601+00311999999ADDGA1001+999999999GF100991001001999999001001MA1999999089201MD1410001+9999ME1315799REMSYN070AAXX  29034 17203 42970 00000 10060 20031 38920 48579 54000 333 10260;
0259172030999992000102906004+38860+040500FM-12+117799999V0209999C00001036001CN0200001N1+00631+00491999999ADDAA199000091GA1031+012009089GF105991031011012501051001IA1099IA2999+00109KA1120N+00401MA1999999089271MD1310071+9999ME1315849REMSYN106AAXX  29064 17203 32670 50000 10063 20049 38927 48584 53007 83150 333 20040 31001 50224 55054 83840 85360;EQDQ01  00002PRCP99
0152172030999992000102909004+38860+040500FM-12+117799999V0209999C000012200019N0200001N1+01401+00341999999ADDGF103991031011012501001001MA1999999089231MD1810041+9999ME1315849REMSYN076AAXX  29094 17203 42670 30000 10140 20034 38923 48584 58004 83100 333 10253;
0204172030999992000102912004+38860+040500FM-12+117799999V0200601N00211036001CN0200001N1+01381+00321999999ADDAA199000091GA1041+012009089GF107991041021012501051001MA1999999089101MD1710131+9999ME1315729REMSYN082AAXX  29124 17203 32670 70604 10138 20032 38910 48572 57013 84250 333 84840 87360;EQDQ01  00002PRCP99
0174172030999992000102915004+38860+040500FM-12+117799999V0201501N00151036001CN0200001N1+01151+00551999999ADDGA1041+012009069GF108991041051012501021999MA1999999089061MD1610041+9999ME1315659REMSYN082AAXX  29154 17203 42670 81503 10115 20055 38906 48565 56004 8452/ 333 84640 88460;
0238172030999992000102918004+38860+040500FM-12+117799999V0209999C000010108019N0080001N1+00821+00751999999ADDAA112002091AY121061AY221061GA1051+010809069GF108991051051012501021999KA1120M+01631MA1999999089241MD1210181+9999ME1315819MW1611REMSYN100AAXX  29184 17203 11658 80000 10082 20075 38924 48581 52018 60022 76122 8552/ 333 10163 85636 88457;
0202172030999992000102921004+38860+040500FM-12+117799999V0209999C00001036001CN0200001N1+00781+00741999999ADDAY161031AY261031GA1041+012009069GF108991041051012501021999MA1999999089241MD1410001+9999ME1315869MW1211REMSYN088AAXX  29214 17203 41670 80000 10078 20074 38924 48586 54000 72166 8452/ 333 84640 88460;
0219172030999992000103000004+38860+040500FM-12+117799999V0209999C00001036001CN0200001N1+00761+00721999999ADDAA106000591AY161061AY221061GA1041+012009069GF108991041051012501021999MA1999999089241MD1410001+9999ME1315869MW1211REMSYN094AAXX  30004 17203 11670 80000 10076 20072 38924 48586 54000 69961 72162 8452/ 333 84640 88460;
0174172030999992000103003004+38860+040500FM-12+117799999V0209999C00001036001CN0200001N1+00721+00681999999ADDGA1041+012009069GF108991041051012501021999MA1999999089241MD1410001+9999ME1315839REMSYN082AAXX  30034 17203 42670 80000 10072 20068 38924 48583 54000 8452/ 333 84640 88460;
0252172030999992000103006004+38860+040500FM-12+117799999V0209999C00001036001CN0200001N1+00861+00751999999ADDAA112000591GA1041+012009069GF107991041051012501011001IA1119IA2999+00609KA1120N+00671MA1999999089271MD1310031+9999ME1315859REMSYN118AAXX  30064 17203 12670 70000 10086 20075 38927 48585 53003 69962 84510 333 20067 32006 50114 55038 70028 84640 87460;
0174172030999992000103009004+38860+040500FM-12+117799999V0209999C00001036001CN0200001N1+01101+00741999999ADDGA1041+012009069GF108991041041012501021999MA1999999089301MD1010031+9999ME1315899REMSYN082AAXX  30094 17203 42670 80000 10110 20074 38930 48589 50003 8442/ 333 84640 88460;
0219172030999992000103012004+38860+040500FM-12+117799999V0209999C00001036001CN0080001N1+01041+00901999999ADDAA106002091AY121061AY221061GA1041+010809069GF108991041051012501021999MA1999999089241MD1710061+9999ME1315839MW1611REMSYN094AAXX  30124 17203 11658 80000 10104 20090 38924 48583 57006 60021 76122 8452/ 333 84636 88457;
0202172030999992000103015004+38860+040500FM-12+117799999V0209999C00001036001CN0200001N1+00981+00871999999ADDAY161031AY221031GA1041+012009069GF108991041041012501021999MA1999999089201MD1710041+9999ME1315789MW1021REMSYN088AAXX  30154 17203 41670 80000 10098 20087 38920 48578 57004 70262 8442/ 333 84640 88460;
0238172030999992000103018004+38860+040500FM-12+117799999V0209999C00001036001CN0080001N1+00881+00811999999ADDAA112003091AY161061AY221061GA1041+010809069GF108991041051012501021999KA1120M+01121MA1999999089121MD1710081+9999ME1315719MW1611REMSYN100AAXX  30184 17203 11658 80000 10088 20081 38912 48571 57008 60032 76162 8452/ 333 10112 84636 88457;
0202172030999992000103021004+38860+040500FM-12+117799999V0209999C00001036001CN0080001N1+00841+00771999999ADDAY161031AY261031GA1041+010809069GF108991041051012501021999MA1999999089091MD1710031+9999ME1315709MW1611REMSYN088AAXX  30214 17203 41658 80000 10084 20077 38909 48570 57003 76166 8452/ 333 84636 88457;
0219172030999992000103100004+38860+040500FM-12+117799999V0209999C00001036001CN0080001N1+00821+00781999999ADDAA106007991AY161061AY261061GA1041+010509069GF108991041051012501021999MA1999999089061MD1710041+9999ME1315679MW1621REMSYN094AAXX  31004 17203 11658 80000 10082 20078 38906 48567 57004 60081 76266 8452/ 333 84635 88456;
0202172030999992000103103004+38860+040500FM-12+117799999V0209999C00001036001CN0080001N1+00681+00641999999ADDAY161031AY261031GA1041+010509069GF108991041051012501021999MA1999999089081MD1310021+9999ME1315679MW1621REMSYN088AAXX  31034 17203 41658 80000 10068 20064 38908 48567 53002 76266 8452/ 333 84635 88456;
0280172030999992000103106004+38860+040500FM-12+117799999V0209999C00001036001CN0200001N1+00561+00401999999ADDAA112011991AY161061AY221061GA1041+012009069GF107991041051012501021001IA1119IA2999+00309KA1120N+00481MA1999999089101MD1110021+9999ME1315679MW1021REMSYN124AAXX  31064 17203 11670 70000 10056 20040 38910 48567 51002 60122 70262 84520 333 20048 32003 50124 55000 70159 84640 87460;
0202172030999992000103109004+38860+040500FM-12+117799999V0209999C00001036001CN0200001N1+00901+00521999999ADDAY181031AY221031GA1041+012009089GF106991041021012501051001MA1999999089051MD1710051+9999ME1315649MW1021REMSYN088AAXX  31094 17203 41670 60000 10090 20052 38905 48564 57005 70282 84250 333 84840 86360;
0219172030999992000103112004+38860+040500FM-12+117799999V0209999C00001036001CN0200001N1+01301+00381999999ADDAA106000391AY181061AY221061GA1031+012009089GF105991031011012501051001MA1999999088881MD1710171+9999ME1315519MW1021REMSYN094AAXX  31124 17203 11670 50000 10130 20038 38888 48551 57017 69931 70282 83150 333 83840 85360;
0152172030999992000103115004+38860+040500FM-12+117799999V0209999C000012200019N0200001N1+00981+00401999999ADDGF103991031011012501001001MA1999999088851MD1710031+9999ME1315459REMSYN076AAXX  31154 17203 42670 30000 10098 20040 38885 48545 57003 83100 333 10225;
0204172030999992000103118004+38860+040500FM-12+117799999V0209999C000012200019N0200001N1+00801+00491999999ADDAA112000391GA1031+012009029GF103991031011012501001001KA1120M+01321MA1999999088921MD1110071+9999ME1315509REMSYN088AAXX  31184 17203 12670 30000 10080 20049 38892 48550 51007 69932 83100 333 10132 83840;
0162172030999992000103121004+38860+040500FM-12+117799999V0209999C000012200019N0200001N1+00621+00501999999ADDGA1001+999999999GF100991001001999999001001MA1999999088941MD1110021+9999ME1315539REMSYN070AAXX  31214 17203 42970 00000 10062 20050 38894 48553 51002 333 10236;
0192172030999992000110100004+38860+040500FM-12+117799999V0209999C000012200019N0200001N1+00441+00401999999ADDAA199000091GA1001+999999999GF100991001001999999001001MA1999999088921MD1610021+9999ME1315539REMSYN070AAXX  01004 17203 32970 00000 10044 20040 38892 48553 56002 333 10228;EQDQ01  00002PRCP99
0162172030999992000110103004+38860+040500FM-12+117799999V0209999C000012200019N0200001N1+00441+00361999999ADDGA1001+999999999GF100991001001999999001001MA1999999088921MD1410001+9999ME1315509REMSYN070AAXX  01034 17203 42970 00000 10044 20036 38892 48550 54000 333 10239;
0228172030999992000110106004+38860+040500FM-12+117799999V0209999C000012200019N0200001N1+00801+00271999999ADDAA124000391GA1001+999999999GF100991001001999999001001IA1099IA2999+00109KA1120N+00381MA1999999088981MD1310061+9999ME1315589REMSYN094AAXX  01064 17203 32970 00000 10080 20027 38898 48558 53006 333 20038 31001 50084 55015 70003;
0162172030999992000110109004+38860+040500FM-12+117799999V0209999C000012200019N0200001N1+01521+00341999999ADDGA1001+999999999GF100991001001999999001001MA1999999088921MD1810061+9999ME1315559REMSYN070AAXX  01094 17203 42970 00000 10152 20034 38892 48555 58006 333 10217;
0182172030999992000110112004+38860+040500FM-12+117799999V0203301N002112200019N0200001N1+01721+00481999999ADDAA199000091GF103991031011012501001001MA1999999088781MD1710141+9999ME1315419REMSYN076AAXX  01124 17203 32670 33304 10172 20048 38878 48541 57014 83100 333 10201;EQDQ01  00002PRCP99
0152172030999992000110115004+38860+040500FM-12+117799999V0209999C000012200019N0200001N1+01201+00571999999ADDGF101991011011012501001001MA1999999088771MD1610011+9999ME1315389REMSYN076AAXX  01154 17203 42670 10000 10120 20057 38877 48538 56001 81100 333 10216;
0205172030999992000110118004+38860+040500FM-12+117799999V0209999C000012200019N0200001N1+01001+00631999999ADDAA199000091GA1001+999999999GF100991001001999999001001KA1999M+02211MA1999999088861MD1210091+9999ME1315489REMSYN070AAXX  01184 17203 32970 00000 10100 20063 38886 48548 52009 333 10221;EQDQ01  00002PRCP99
0162172030999992000110121004+38860+040500FM-12+117799999V0209999C000012200019N0200001N1+00841+00531999999ADDGA1001+999999999GF100991001001999999001001MA1999999088881MD1110021+9999ME1315539REMSYN070AAXX  01214 17203 42970 00000 10084 20053 38888 48553 51002 333 10208;
0192172030999992000110200004+38860+040500FM-12+117799999V0209999C000012200019N0200001N1+00641+00481999999ADDAA199000091GA1001+999999999GF100991001001999999001001MA1999999088881MD1410001+9999ME1315549REMSYN070AAXX  02004 17203 32970 00000 10064 20048 38888 48554 54000 333 10208;EQDQ01  00002PRCP99
0162172030999992000110203004+38860+040500FM-12+117799999V0209999C000012200019N0200001N1+00481+00441999999ADDGA1001+999999999GF100991001001999999001001MA1999999088881MD1410001+9999ME1315489REMSYN070AAXX  02034 17203 42970 00000 10048 20044 38888 48548 54000 333 10229;
0235172030999992000110206004+38860+040500FM-12+117799999V0209999C000012200019N0200001N1+00901+00521999999ADDAA199000091GA1001+999999999GF100991001001999999001001IA1099IA2999+00109KA1120N+00401MA1999999088921MD1310041+9999ME1315539REMSYN082AAXX  02064 17203 32970 00000 10090 20052 38892 48553 53004 333 20040 31001 55063;EQDQ01  00002PRCP99
0152172030999992000110209004+38860+040500FM-12+117799999V0209999C000012200019N0200001N1+01621+00661999999ADDGF102991021011012501001001MA1999999088841MD1810081+9999ME1315509REMSYN076AAXX  02094 17203 42670 20000 10162 20066 38884 48550 58008 82100 333 10203;
0182172030999992000110212004+38860+040500FM-12+117799999V0209999C000012200019N0200001N1+01701+00401999999ADDAA199000091GF103991031011012501001001MA1999999088701MD1710141+9999ME1315369REMSYN076AAXX  02124 17203 32670 30000 10170 20040 38870 48536 57014 83100 333 10187;EQDQ01  00002PRCP99
0202172030999992000110215004+38860+040500FM-12+117799999V0201601N00151036001CN0200001N1+01321+00451999999ADDAY181031AY211031GA1041+012009089GF106991041021012501051001MA1999999088761MD1310061+9999ME1315389MW1251REMSYN088AAXX  02154 17203 41670 61603 10132 20045 38876 48538 53006 72581 84250 333 84840 86360;
0232172030999992000110218004+38860+040500FM-12+117799999V0209999C000012200019N0200001N1+00921+00461999999ADDAA112000191AY181061AY211061GA1031+030009079GF103991031001999999031001KA1120M+01801MA1999999088871MD1210111+9999ME1315499MW1011REMSYN094AAXX  02184 17203 11970 30000 10092 20046 38887 48549 52011 69912 70181 83030 333 10180 83360;
0162172030999992000110221004+38860+040500FM-12+117799999V0209999C000012200019N0200001N1+00701+00421999999ADDGA1001+999999999GF100991001001999999001001MA1999999088921MD1210051+9999ME1315569REMSYN070AAXX  02214 17203 42970 00000 10070 20042 38892 48556 52005 333 10212;
0173172030999992000110300004+38860+040500FM-12+117799999V0209999C000012200019N0200001N1+00521+00401999999ADDAA199000021GA1001+999999999GF100991001001999999001001MA1999999088941MD1310021+9999ME1315589REMSYN070AAXX  03004 17203 32970 00000 10052 20040 38894 48558 53002 333 10220;
0162172030999992000110303004+38860+040500FM-12+117799999V0209999C000012200019N0200001N1+00401+00361999999ADDGA1001+999999999GF100991001001999999001001MA1999999088981MD1310041+9999ME1315589REMSYN070AAXX  03034 17203 42970 00000 10040 20036 38898 48558 53004 333 10235;
0222172030999992000110306004+38860+040500FM-12+117799999V0209999C000012200019N0200001N1+00801+00411999999ADDAA124000191GA1001+999999999GF100991001001999999001001IA1099IA2999+00109KA1120N+00371MA1999999089081MD1210101+9999ME1315689REMSYN088AAXX  03064 17203 32970 00000 10080 20041 38908 48568 52010 333 20037 31001 55062 70001;
0152172030999992000110309004+38860+040500FM-12+117799999V0200101N001512200019N0200001N1+01501+00551999999ADDGF102991021011012501001001MA1999999089061MD1810021+9999ME1315699REMSYN076AAXX  03094 17203 42670 20103 10150 20055 38906 48569 58002 82100 333 10234;
0182172030999992000110312004+38860+040500FM-12+117799999V0203601N001512200019N0200001N1+01701+00301999999ADDAA199000091GF103991031011012501001001MA1999999088981MD1710081+9999ME1315629REMSYN076AAXX  03124 17203 32670 33603 10170 20030 38898 48562 57008 83100 333 10224;EQDQ01  00002PRCP99
0152172030999992000110315004+38860+040500FM-12+117799999V0209999C000012200019N0200001N1+01181+00371999999ADDGF101991011011012501001001MA1999999089001MD1110021+9999ME1315599REMSYN076AAXX  03154 17203 42670 10000 10118 20037 38900 48559 51002 81100 333 10242;
0205172030999992000110318004+38860+040500FM-12+117799999V0209999C000012200019N0200001N1+00901+00431999999ADDAA199000091GA1001+999999999GF100991001001999999001001KA1999M+02661MA1999999089201MD1210201+9999ME1315799REMSYN070AAXX  03184 17203 32970 00000 10090 20043 38920 48579 52020 333 10266;EQDQ01  00002PRCP99
0162172030999992000110321004+38860+040500FM-12+117799999V0209999C000012200019N0200001N1+00761+00291999999ADDGA1001+999999999GF100991001001999999001001MA1999999089271MD1210061+9999ME1315899REMSYN070AAXX  03214 17203 42970 00000 10076 20029 38927 48589 52006 333 10253;
0192172030999992000110400004+38860+040500FM-12+117799999V0209999C000012200019N0200001N1+00601+00271999999ADDAA199000091GA1001+999999999GF100991001001999999001001MA1999999089341MD1210071+9999ME1315969REMSYN070AAXX  04004 17203 32970 00000 10060 20027 38934 48596 52007 333 10260;EQDQ01  00002PRCP99
0162172030999992000110403004+38860+040500FM-12+117799999V0209999C000012200019N0200001N1+00521+00441999999ADDGA1001+999999999GF100991001001999999001001MA1999999089361MD1110021+9999ME1315939REMSYN070AAXX  04034 17203 42970 00000 10052 20044 38936 48593 51002 333 10289;
0235172030999992000110406004+38860+040500FM-12+117799999V0209999C000012200019N0200001N1+00701+00501999999ADDAA199000091GA1001+999999999GF100991001001999999001001IA1099IA2999+00109KA1120N+00301MA1999999089481MD1210121+9999ME1316039REMSYN082AAXX  04064 17203 32970 00000 10070 20050 38948 48603 52012 333 20030 31001 55061;EQDQ01  00002PRCP99
0162172030999992000110409004+38860+040500FM-12+117799999V0209999C000012200019N0200001N1+01501+00451999999ADDGA1001+999999999GF100991001001999999001001MA1999999089401MD1810091+9999ME1316019REMSYN070AAXX  04094 17203 42970 00000 10150 20045 38940 48601 58009 333 10273;
0192172030999992000110412004+38860+040500FM-12+117799999V0209999C000012200019N0200001N1+01721+00161999999ADDAA199000091GA1001+999999999GF100991001001999999001001MA1999999089261MD1710141+9999ME1315899REMSYN070AAXX  04124 17203 32970 00000 10172 20016 38926 48589 57014 333 10251;EQDQ01  00002PRCP99
0162172030999992000110415004+38860+040500FM-12+117799999V0209999C000012200019N0200001N1+01151+00101999999ADDGA1001+999999999GF100991001001999999001001MA1999999089261MD1410001+9999ME1315849REMSYN070AAXX  04154 17203 42970 00000 10115 20010 38926 48584 54000 333 10272;
0205172030999992000110418004+38860+040500FM-12+117799999V0209999C000012200019N0200001N1+00901+00251999999ADDAA199000091GA1001+999999999GF100991001001999999001001KA1999M+02821MA1999999089341MD1210081+9999ME1315919REMSYN070AAXX  04184 17203 32970 00000 10090 20025 38934 48591 52008 333 10282;EQDQ01  00002PRCP99
0162172030999992000110421004+38860+040500FM-12+117799999V0209999C000012200019N0200001N1+00681+00311999999ADDGA1001+999999999GF100991001001999999001001MA1999999089401MD1110061+9999ME1316019REMSYN070AAXX  04214 17203 42970 00000 10068 20031 38940 48601 51006 333 10273;
0192172030999992000110500004+38860+040500FM-12+117799999V0209999C000012200019N0200001N1+00481+00271999999ADDAA199000091GA1001+999999999GF100991001001999999001001MA1999999089381MD1610021+9999ME1315999REMSYN070AAXX  05004 17203 32970 00000 10048 20027 38938 48599 56002 333 10270;EQDQ01  00002PRCP99
0162172030999992000110503004+38860+040500FM-12+117799999V0209999C000012200019N0200001N1+00361+00231999999ADDGA1001+999999999GF100991001001999999001001MA1999999089341MD1610041+9999ME1315909REMSYN070AAXX  05034 17203 42970 00000 10036 20023 38934 48590 56004 333 10282;
0235172030999992000110506004+38860+040500FM-12+117799999V0209999C000012200019N0200001N1+00701+00051999999ADDAA199000091GA1001+999999999GF100991001001999999001001IA1099IA2999+00009KA1120N+00281MA1999999089401MD1310061+9999ME1315969REMSYN082AAXX  05064 17203 32970 00000 10070 20005 38940 48596 53006 333 20028 31000 55062;EQDQ01  00002PRCP99
0152172030999992000110509004+38860+040500FM-12+117799999V0209999C000012200019N0200001N1+01601+00381999999ADDGF101991011011012501001001MA1999999089281MD1810121+9999ME1315909REMSYN076AAXX  05094 17203 42670 10000 10160 20038 38928 48590 58012 81100 333 10259;
0182172030999992000110512004+38860+040500FM-12+117799999V0209999C000012200019N0200001N1+01701+00191999999ADDAA199000091GF102991021011012501001001MA1999999089101MD1710181+9999ME1315729REMSYN076AAXX  05124 17203 32670 20000 10170 20019 38910 48572 57018 82100 333 10238;EQDQ01  00002PRCP99
0152172030999992000110515004+38860+040500FM-12+117799999V0209999C000012200019N0200001N1+01201+00071999999ADDGF102991021011012501001001MA1999999089021MD1610081+9999ME1315609REMSYN076AAXX  05154 17203 42670 20000 10120 20007 38902 48560 56008 82100 333 10245;
0205172030999992000110518004+38860+040500FM-12+117799999V0201801N001512200019N0200001N1+01001+00181999999ADDAA199000091GA1001+999999999GF100991001001999999001001KA1999M+02541MA1999999089101MD1110081+9999ME1315699REMSYN070AAXX  05184 17203 32970 01803 10100 20018 38910 48569 51008 333 10254;EQDQ01  00002PRCP99
0162172030999992000110521004+38860+040500FM-12+117799999V0209999C000012200019N0200001N1+00841+00081999999ADDGA1001+999999999GF100991001001999999001001MA1999999089081MD1610021+9999ME1315729REMSYN070AAXX  05214 17203 42970 00000 10084 20008 38908 48572 56002 333 10231;
0192172030999992000110600004+38860+040500FM-12+117799999V0201801N001512200019N0200001N1+00601+00131999999ADDAA199000091GA1001+999999999GF100991001001999999001001MA1999999089081MD1410001+9999ME1315729REMSYN070AAXX  06004 17203 32970 01803 10060 20013 38908 48572 54000 333 10231;EQDQ01  00002PRCP99
0162172030999992000110603004+38860+040500FM-12+117799999V0209999C000012200019N0200001N1+00581+00011999999ADDGA1001+999999999GF100991001001999999001001MA1999999089041MD1810041+9999ME1315649REMSYN070AAXX  06034 17203 42970 00000 10058 20001 38904 48564 58004 333 10242;
0235172030999992000110606004+38860+040500FM-12+117799999V0209999C000012200019N0200001N1+00851+00021999999ADDAA199000091GA1001+999999999GF100991001001999999001001IA1099IA2999+00209KA1120N+00501MA1999999089081MD1310041+9999ME1315699REMSYN082AAXX  06064 17203 32970 00000 10085 20002 38908 48569 53004 333 20050 31002 55067;EQDQ01  00002PRCP99
0162172030999992000110609004+38860+040500FM-12+117799999V0209999C000012200019N0200001N1+01621+00171999999ADDGA1001+999999999GF100991001001999999001001MA1999999089001MD1810081+9999ME1315659REMSYN070AAXX  06094 17203 42970 00000 10162 20017 38900 48565 58008 333 10221;
0192172030999992000110612004+38860+040500FM-12+117799999V0203101N001512200019N0200001N1+01681+00161999999ADDAA199000091GA1001+999999999GF100991001001999999001001MA1999999088851MD1710151+9999ME1315499REMSYN070AAXX  06124 17203 32970 03103 10168 20016 38885 48549 57015 333 10209;EQDQ01  00002PRCP99
0162172030999992000110615004+38860+040500FM-12+117799999V0209999C000012200019N0200001N1+01101+00121999999ADDGA1001+999999999GF100991001001999999001001MA1999999088801MD1610051+9999ME1315419REMSYN070AAXX  06154 17203 42970 00000 10110 20012 38880 48541 56005 333 10219;
0205172030999992000110618004+38860+040500FM-12+117799999V0209999C000012200019N0200001N1+00841+00031999999ADDAA199000091GA1001+999999999GF100991001001999999001001KA1999M+02291MA1999999088881MD1310081+9999ME1315499REMSYN070AAXX  06184 17203 32970 00000 10084 20003 38888 48549 53008 333 10229;EQDQ01  00002PRCP99
0162172030999992000110621004+38860+040500FM-12+117799999V0209999C000012200019N0200001N1+00701+00061999999ADDGA1001+999999999GF100991001001999999001001MA1999999088901MD1110021+9999ME1315559REMSYN070AAXX  06214 17203 42970 00000 10070 20006 38890 48555 51002 333 10210;
0192172030999992000110700004+38860+040500FM-12+117799999V0209999C000012200019N0200001N1+00501+00011999999ADDAA199000091GA1001+999999999GF100991001001999999001001MA1999999088901MD1410001+9999ME1315549REMSYN070AAXX  07004 17203 32970 00000 10050 20001 38890 48554 54000 333 10215;EQDQ01  00002PRCP99
0162172030999992000110703004+38860+040500FM-12+117799999V0209999C000012200019N0200001N1+00431-00021999999ADDGA1001+999999999GF100991001001999999001001MA1999999088901MD1410001+9999ME1315459REMSYN070AAXX  07034 17203 42970 00000 10043 21002 38890 48545 54000 333 10231;
0247172030999992000110706004+38860+040500FM-12+117799999V0209999C000012200019N0200001N1+00751+00351999999ADDAA199000091GA1031+060009019GF103991001001999999001011IA1099IA2999-00109KA1120N+00231MA1999999088971MD1310071+9999ME1315579REMSYN094AAXX  07064 17203 32970 30000 10075 20035 38897 48557 53007 80001 333 20023 31101 55069 83070;EQDQ01  00002PRCP99
0152172030999992000110709004+38860+040500FM-12+117799999V0209999C000012200019N0200001N1+01521+00291999999ADDGF104991001001999999001011MA1999999088901MD1810071+9999ME1315549REMSYN076AAXX  07094 17203 42970 40000 10152 20029 38890 48554 58007 80001 333 10215;
0182172030999992000110712004+38860+040500FM-12+117799999V0209999C000019999999N0200001N1+01641+00211999999ADDAA199000091GF105991001001999999001011MA1999999088761MD1610141+9999ME1315409REMSYN076AAXX  07124 17203 32970 50000 10164 20021 38876 48540 56014 80001 333 10199;EQDQ01  00002PRCP99
0152172030999992000110715004+38860+040500FM-12+117799999V0209999C000012200019N0200001N1+01101+00361999999ADDGF103991001001999999001011MA1999999088801MD1310041+9999ME1315409REMSYN076AAXX  07154 17203 42970 30000 10110 20036 38880 48540 53004 80001 333 10219;
0217172030999992000110718004+38860+040500FM-12+117799999V0201801N001512200019N0200001N1+00901+00211999999ADDAA199000091GA1031+060009019GF103991001001999999001011KA1120M+01671MA1999999088861MD1210061+9999ME1315469REMSYN082AAXX  07184 17203 32970 31803 10090 20021 38886 48546 52006 80001 333 10167 83070;EQDQ01  00002PRCP99
0162172030999992000110721004+38860+040500FM-12+117799999V0209999C000012200019N0200001N1+00801+00131999999ADDGA1001+999999999GF100991001001999999001001MA1999999088941MD1210081+9999ME1315589REMSYN070AAXX  07214 17203 42970 00000 10080 20013 38894 48558 52008 333 10215;
0235172030999992000110806004+38860+040500FM-12+117799999V0209999C000012200019N0200001N1+00721+00271999999ADDAA199000091GA1001+999999999GF100991001001999999001001IA1099IA2999-00109KA1120N+00211MA1999999089121MD1310121+9999ME1315719REMSYN082AAXX  08064 17203 32970 00000 10072 20027 38912 48571 53012 333 20021 31101 55065;EQDQ01  00002PRCP99
0162172030999992000110809004+38860+040500FM-12+117799999V0200301N001512200019N0200001N1+01451+00411999999ADDGA1001+999999999GF100991001001999999001001MA1999999089141MD1010021+9999ME1315719REMSYN070AAXX  08094 17203 42970 00303 10145 20041 38914 48571 50002 333 10243;
0192172030999992000110812004+38860+040500FM-12+117799999V0200101N001512200019N0200001N1+01661+00181999999ADDAA199000091GA1001+999999999GF100991001001999999001001MA1999999089001MD1610141+9999ME1315639REMSYN070AAXX  08124 17203 32970 00103 10166 20018 38900 48563 56014 333 10227;EQDQ01  00002PRCP99
0162172030999992000110815004+38860+040500FM-12+117799999V0209999C000012200019N0200001N1+01141+00221999999ADDGA1001+999999999GF100991001001999999001001MA1999999088981MD1610021+9999ME1315569REMSYN070AAXX  08154 17203 42970 00000 10114 20022 38898 48556 56002 333 10246;
0205172030999992000110818004+38860+040500FM-12+117799999V0209999C000012200019N0200001N1+00981+00161999999ADDAA199000091GA1001+999999999GF100991001001999999001001KA1999M+02561MA1999999089121MD1210141+9999ME1315719REMSYN070AAXX  08184 17203 32970 00000 10098 20016 38912 48571 52014 333 10256;EQDQ01  00002PRCP99
0162172030999992000110821004+38860+040500FM-12+117799999V0209999C000012200019N0200001N1+00601+00181999999ADDGA1001+999999999GF100991001001999999001001MA1999999089201MD1110081+9999ME1315819REMSYN070AAXX  08214 17203 42970 00000 10060 20018 38920 48581 51008 333 10255;
0192172030999992000110900004+38860+040500FM-12+117799999V0209999C000012200019N0200001N1+00501+00161999999ADDAA199000091GA1001+999999999GF100991001001999999001001MA1999999089201MD1410001+9999ME1315829REMSYN070AAXX  09004 17203 32970 00000 10050 20016 38920 48582 54000 333 10250;EQDQ01  00002PRCP99
0162172030999992000110903004+38860+040500FM-12+117799999V0209999C000012200019N0200001N1+00321+00191999999ADDGA1001+999999999GF100991001001999999001001MA1999999089201MD1410001+9999ME1315769REMSYN070AAXX  09034 17203 42970 00000 10032 20019 38920 48576 54000 333 10271;
0235172030999992000110906004+38860+040500FM-12+117799999V0209999C000012200019N0200001N1+00781+00201999999ADDAA199000091GA1001+999999999GF100991001001999999001001IA1099IA2999-00109KA1120N+00281MA1999999089261MD1310061+9999ME1315849REMSYN082AAXX  09064 17203 32970 00000 10078 20020 38926 48584 53006 333 20028 31101 55065;EQDQ01  00002PRCP99
0152172030999992000110909004+38860+040500FM-12+117799999V0203601N001512200019N0200001N1+01361+00501999999ADDGF101991011011012501001001MA1999999089181MD1810081+9999ME1315789REMSYN076AAXX  09094 17203 42670 13603 10136 20050 38918 48578 58008 81100 333 10253;
0182172030999992000110912004+38860+040500FM-12+117799999V0202701N003612200019N0200001N1+01851+00441999999ADDAA199000091GF103991031011012501001001MA1999999089021MD1710161+9999ME1315679REMSYN076AAXX  09124 17203 32670 32707 10185 20044 38902 48567 57016 83100 333 10224;EQDQ01  00002PRCP99
0152172030999992000110915004+38860+040500FM-12+117799999V0209999C000012200019N0200001N1+01301+00381999999ADDGF103991031001999999031001MA1999999089021MD1410001+9999ME1315619REMSYN076AAXX  09154 17203 42970 30000 10130 20038 38902 48561 54000 83030 333 10245;
0205172030999992000110918004+38860+040500FM-12+117799999V0209999C000012200019N0200001N1+01001+00371999999ADDAA199000091GA1001+999999999GF100991001001999999001001KA1999M+02511MA1999999089121MD1210101+9999ME1315719REMSYN070AAXX  09184 17203 32970 00000 10100 20037 38912 48571 52010 333 10251;EQDQ01  00002PRCP99
0162172030999992000110921004+38860+040500FM-12+117799999V0209999C000012200019N0200001N1+00901+00301999999ADDGA1001+999999999GF100991001001999999001001MA1999999089201MD1210081+9999ME1315829REMSYN070AAXX  09214 17203 42970 00000 10090 20030 38920 48582 52008 333 10250;
0192172030999992000111000004+38860+040500FM-12+117799999V0201601N002112200019N0200001N1+00721+00181999999ADDAA199000091GA1001+999999999GF100991001001999999001001MA1999999089231MD1110031+9999ME1315879REMSYN070AAXX  10004 17203 32970 01604 10072 20018 38923 48587 51003 333 10248;EQDQ01  00002PRCP99
0162172030999992000111003004+38860+040500FM-12+117799999V0209999C000012200019N0200001N1+00531+00171999999ADDGA1001+999999999GF100991001001999999001001MA1999999089231MD1410001+9999ME1315829REMSYN070AAXX  10034 17203 42970 00000 10053 20017 38923 48582 54000 333 10258;
0235172030999992000111006004+38860+040500FM-12+117799999V0209999C000012200019N0200001N1+00881+00411999999ADDAA199000091GA1001+999999999GF100991001001999999001001IA1019IA2999+00209KA1120N+00481MA1999999089321MD1310091+9999ME1315919REMSYN082AAXX  10064 17203 32970 00000 10088 20041 38932 48591 53009 333 20048 30002 55067;EQDQ01  00002PRCP99
0174172030999992000111009004+38860+040500FM-12+117799999V0209999C00001036001CN0200001N1+01501+00591999999ADDGA1031+012009089GF106991031011012501051001MA1999999089361MD1110041+9999ME1315999REMSYN082AAXX  10094 17203 42670 60000 10150 20059 38936 48599 51004 83150 333 83840 86360;
0182172030999992000111012004+38860+040500FM-12+117799999V0201601N002112200019N0200001N1+01801+00541999999ADDAA199000091GF103991031001999999031001MA1999999089121MD1710241+9999ME1315779REMSYN076AAXX  10124 17203 32970 31604 10180 20054 38912 48577 57024 83030 333 10230;EQDQ01  00002PRCP99
0162172030999992000111015004+38860+040500FM-12+117799999V0209999C000012200019N0200001N1+01321+00311999999ADDGA1001+999999999GF100991001001999999001001MA1999999089181MD1310061+9999ME1315779REMSYN070AAXX  10154 17203 42970 00000 10132 20031 38918 48577 53006 333 10258;
0205172030999992000111018004+38860+040500FM-12+117799999V0209999C000012200019N0200001N1+01021+00351999999ADDAA199000091GA1001+999999999GF100991001001999999001001KA1999M+02711MA1999999089341MD1210161+9999ME1315939REMSYN070AAXX  10184 17203 32970 00000 10102 20035 38934 48593 52016 333 10271;EQDQ01  00002PRCP99
0162172030999992000111021004+38860+040500FM-12+117799999V0209999C000012200019N0200001N1+00821+00381999999ADDGA1001+999999999GF100991001001999999001001MA1999999089461MD1210121+9999ME1316079REMSYN070AAXX  10214 17203 42970 00000 10082 20038 38946 48607 52012 333 10274;
0192172030999992000111100004+38860+040500FM-12+117799999V0209999C000012200019N0200001N1+00681+00311999999ADDAA199000091GA1001+999999999GF100991001001999999001001MA1999999089501MD1110041+9999ME1316139REMSYN070AAXX  11004 17203 32970 00000 10068 20031 38950 48613 51004 333 10279;EQDQ01  00002PRCP99
0162172030999992000111103004+38860+040500FM-12+117799999V0209999C000012200019N0200001N1+00501+00291999999ADDGA1001+999999999GF100991001001999999001001MA1999999089541MD1110041+9999ME1316119REMSYN070AAXX  11034 17203 42970 00000 10050 20029 38954 48611 51004 333 10299;
0235172030999992000111106004+38860+040500FM-12+117799999V0209999C000012200019N0200001N1+00701+00341999999ADDAA199000091GA1001+999999999GF100991001001999999001001IA1019IA2999+00109KA1120N+00381MA1999999089701MD1210161+9999ME1316259REMSYN082AAXX  11064 17203 32970 00000 10070 20034 38970 48625 52016 333 20038 30001 55054;EQDQ01  00002PRCP99
0162172030999992000111109004+38860+040500FM-12+117799999V0209999C000012200019N0200001N1+01501+00501999999ADDGA1001+999999999GF100991001001999999001001MA1999999089681MD1810021+9999ME1316289REMSYN070AAXX  11094 17203 42970 00000 10150 20050 38968 48628 58002 333 10300;
0182172030999992000111112004+38860+040500FM-12+117799999V0202801N001512200019N0200001N1+01741+00541999999ADDAA199000091GF102991001001999999001011MA1999999089501MD1710181+9999ME1316129REMSYN076AAXX  11124 17203 32970 22803 10174 20054 38950 48612 57018 80001 333 10279;EQDQ01  00002PRCP99
0152172030999992000111115004+38860+040500FM-12+117799999V0209999C000012200019N0200001N1+01301+00521999999ADDGF102991021011012501001001MA1999999089481MD1610021+9999ME1316059REMSYN076AAXX  11154 17203 42670 20000 10130 20052 38948 48605 56002 82100 333 10292;
0205172030999992000111118004+38860+040500FM-12+117799999V0209999C000012200019N0200001N1+01001+00371999999ADDAA199000091GA1001+999999999GF100991001001999999001001KA1999M+03071MA1999999089561MD1210081+9999ME1316129REMSYN070AAXX  11184 17203 32970 00000 10100 20037 38956 48612 52008 333 10307;EQDQ01  00002PRCP99
0162172030999992000111121004+38860+040500FM-12+117799999V0209999C000012200019N0200001N1+00801+00271999999ADDGA1001+999999999GF100991001001999999001001MA1999999089601MD1110041+9999ME1316209REMSYN070AAXX  11214 17203 42970 00000 10080 20027 38960 48620 51004 333 10290;
0192172030999992000111200004+38860+040500FM-12+117799999V0209999C000012200019N0200001N1+00721+00131999999ADDAA199000091GA1001+999999999GF100991001001999999001001MA1999999089541MD1710061+9999ME1316159REMSYN070AAXX  12004 17203 32970 00000 10072 20013 38954 48615 57006 333 10283;EQDQ01  00002PRCP99
0152172030999992000111203004+38860+040500FM-12+117799999V0209999C000012200019N0200001N1+00501+00161999999ADDGF102991021001999999031001MA1999999089501MD1610041+9999ME1316079REMSYN076AAXX  12034 17203 42970 20000 10050 20016 38950 48607 56004 82030 333 10295;
0247172030999992000111206004+38860+040500FM-12+117799999V0209999C000012200019N0200001N1+00801+00401999999ADDAA199000091GA1031+030009079GF103991031001999999031001IA1019IA2999+00109KA1120N+00421MA1999999089461MD1810041+9999ME1316039REMSYN094AAXX  12064 17203 32970 30000 10080 20040 38946 48603 58004 83030 333 20042 30001 55055 83360;EQDQ01  00002PRCP99
0174172030999992000111209004+38860+040500FM-12+117799999V0209999C00001036001CN0200001N1+01051+00451999999ADDGA1031+012009089GF105991031011012501051001MA1999999089371MD1710091+9999ME1315959REMSYN082AAXX  12094 17203 42670 50000 10105 20045 38937 48595 57009 83150 333 83840 85360;
0204172030999992000111212004+38860+040500FM-12+117799999V0209999C00001036001CN0200001N1+01261+00441999999ADDAA199000091GA1041+012009089GF106991041021012501051001MA1999999089181MD1710191+9999ME1315789REMSYN082AAXX  12124 17203 32670 60000 10126 20044 38918 48578 57019 84250 333 84840 86360;EQDQ01  00002PRCP99
0174172030999992000111215004+38860+040500FM-12+117799999V0209999C00001036001CN0200001N1+01101+00581999999ADDGA1041+012009069GF108991041051012501021999MA1999999089061MD1710121+9999ME1315649REMSYN082AAXX  12154 17203 42670 80000 10110 20058 38906 48564 57012 8452/ 333 84640 88460;
0223172030999992000111218004+38860+040500FM-12+117799999V0209999C00001036001CN0200001N1+01001+00501999999ADDAA199000091GA1041+012009069GF107991041051012501011001KA1120M+01301MA1999999089021MD1710041+9999ME1315629REMSYN088AAXX  12184 17203 32670 70000 10100 20050 38902 48562 57004 84510 333 10130 84640 87460;EQDQ01  00002PRCP99
0174172030999992000111221004+38860+040500FM-12+117799999V0209999C00001036001CN0200001N1+00961+00541999999ADDGA1041+012009069GF106991041051012501011001MA1999999089021MD1410001+9999ME1315649REMSYN082AAXX  12214 17203 42670 60000 10096 20054 38902 48564 54000 84510 333 84640 86460;
0182172030999992000111300004+38860+040500FM-12+117799999V0209999C000012200019N0200001N1+00701+00421999999ADDAA199000091GF102991021011012501001001MA1999999088981MD1810041+9999ME1315609REMSYN076AAXX  13004 17203 32670 20000 10070 20042 38898 48560 58004 82100 333 10230;EQDQ01  00002PRCP99
0152172030999992000111303004+38860+040500FM-12+117799999V0209999C000012200019N0200001N1+00521+00271999999ADDGF103991031011012501001001MA1999999089001MD1610021+9999ME1315599REMSYN076AAXX  13034 17203 42670 30000 10052 20027 38900 48559 56002 83100 333 10242;
0235172030999992000111306004+38860+040500FM-12+117799999V0209999C000012200019N0200001N1+00741+00471999999ADDAA199000091GA1001+999999999GF100991001001999999001001IA1019IA2999+00109KA1120N+00501MA1999999089101MD1310101+9999ME1315699REMSYN082AAXX  13064 17203 32970 00000 10074 20047 38910 48569 53010 333 20050 30001 55011;EQDQ01  00002PRCP99
0162172030999992000111309004+38860+040500FM-12+117799999V0209999C000012200019N0200001N1+01401+00351999999ADDGA1001+999999999GF100991001001999999001001MA1999999089001MD1810101+9999ME1315649REMSYN070AAXX  13094 17203 42970 00000 10140 20035 38900 48564 58010 333 10221;
0192172030999992000111312004+38860+040500FM-12+117799999V0209999C000012200019N0200001N1+01521+00211999999ADDAA199000091GA1001+999999999GF100991001001999999001001MA1999999088801MD1710201+9999ME1315449REMSYN070AAXX  13124 17203 32970 00000 10152 20021 38880 48544 57020 333 10204;EQDQ01  00002PRCP99
0205172030999992000111318004+38860+040500FM-12+117799999V0209999C000012200019N0200001N1+00741-00161999999ADDAA199000091GA1001+999999999GF100991001001999999001001KA1999M+02311MA1999999088851MD1310051+9999ME1315449REMSYN070AAXX  13184 17203 32970 00000 10074 21016 38885 48544 53005 333 10231;EQDQ01  00002PRCP99
0162172030999992000111321004+38860+040500FM-12+117799999V0201801N001512200019N0200001N1+00581-00231999999ADDGA1001+999999999GF100991001001999999001001MA1999999088951MD1210101+9999ME1315579REMSYN070AAXX  13214 17203 42970 01803 10058 21023 38895 48557 52010 333 10226;
0192172030999992000111400004+38860+040500FM-12+117799999V0209999C000012200019N0200001N1+00401-00211999999ADDAA199000091GA1001+999999999GF100991001001999999001001MA1999999088961MD1110011+9999ME1315589REMSYN070AAXX  14004 17203 32970 00000 10040 21021 38896 48558 51001 333 10227;EQDQ01  00002PRCP99
0162172030999992000111403004+38860+040500FM-12+117799999V0209999C000012200019N0200001N1+00201-00291999999ADDGA1001+999999999GF100991001001999999001001MA1999999088981MD1110021+9999ME1315549REMSYN070AAXX  14034 17203 42970 00000 10020 21029 38898 48554 51002 333 10251;
0235172030999992000111406004+38860+040500FM-12+117799999V0209999C000012200019N0200001N1+00501-00251999999ADDAA199000091GA1001+999999999GF100991001001999999001001IA1099IA2999-00109KA1120N+00101MA1999999089081MD1210101+9999ME1315649REMSYN082AAXX  14064 17203 32970 00000 10050 21025 38908 48564 52010 333 20010 31101 55063;EQDQ01  00002PRCP99
0162172030999992000111409004+38860+040500FM-12+117799999V0209999C000012200019N0200001N1+01301+00081999999ADDGA1001+999999999GF100991001001999999001001MA1999999089101MD1110021+9999ME1315709REMSYN070AAXX  14094 17203 42970 00000 10130 20008 38910 48570 51002 333 10249;
0192172030999992000111412004+38860+040500FM-12+117799999V0202701N001512200019N0200001N1+01501+00051999999ADDAA199000091GA1001+999999999GF100991001001999999001001MA1999999088911MD1710191+9999ME1315539REMSYN070AAXX  14124 17203 32970 02703 10150 20005 38891 48553 57019 333 10222;EQDQ01  00002PRCP99
0162172030999992000111415004+38860+040500FM-12+117799999V0209999C000012200019N0200001N1+01041-00131999999ADDGA1001+999999999GF100991001001999999001001MA1999999088911MD1410001+9999ME1315489REMSYN070AAXX  14154 17203 42970 00000 10104 21013 38891 48548 54000 333 10243;
0205172030999992000111418004+38860+040500FM-12+117799999V0201601N002112200019N0200001N1+00731-00141999999ADDAA199000091GA1001+999999999GF100991001001999999001001KA1999M+02611MA1999999089071MD1210161+9999ME1315639REMSYN070AAXX  14184 17203 32970 01604 10073 21014 38907 48563 52016 333 10261;EQDQ01  00002PRCP99
0162172030999992000111421004+38860+040500FM-12+117799999V0201501N002112200019N0200001N1+00601-00261999999ADDGA1001+999999999GF100991001001999999001001MA1999999089121MD1210051+9999ME1315729REMSYN070AAXX  14214 17203 42970 01504 10060 21026 38912 48572 52005 333 10246;
0192172030999992000111500004+38860+040500FM-12+117799999V0209999C000012200019N0200001N1+00501-00431999999ADDAA199000091GA1001+999999999GF100991001001999999001001MA1999999089121MD1410001+9999ME1315739REMSYN070AAXX  15004 17203 32970 00000 10050 21043 38912 48573 54000 333 10246;EQDQ01  00002PRCP99
0162172030999992000111503004+38860+040500FM-12+117799999V0209999C000012200019N0200001N1+00451-00471999999ADDGA1001+999999999GF100991001001999999001001MA1999999089121MD1410001+9999ME1315639REMSYN070AAXX  15034 17203 42970 00000 10045 21047 38912 48563 54000 333 10251;
0235172030999992000111506004+38860+040500FM-12+117799999V0209999C000012200019N0200001N1+00801-00191999999ADDAA199000091GA1001+999999999GF100991001001999999001001IA1019IA2999-00109KA1120N+00381MA1999999089201MD1310081+9999ME1315779REMSYN082AAXX  15064 17203 32970 00000 10080 21019 38920 48577 53008 333 20038 30101 55059;EQDQ01  00002PRCP99
0162172030999992000111509004+38860+040500FM-12+117799999V0209999C000012200019N0200001N1+01401-00121999999ADDGA1001+999999999GF100991001001999999001001MA1999999089261MD1110061+9999ME1315869REMSYN070AAXX  15094 17203 42970 00000 10140 21012 38926 48586 51006 333 10262;
0192172030999992000111512004+38860+040500FM-12+117799999V0209999C000012200019N0200001N1+01561-00191999999ADDAA199000091GA1001+999999999GF100991001001999999001001MA1999999089041MD1710221+9999ME1315659REMSYN070AAXX  15124 17203 32970 00000 10156 21019 38904 48565 57022 333 10237;EQDQ01  00002PRCP99
0162172030999992000111515004+38860+040500FM-12+117799999V0209999C000012200019N0200001N1+01101-00291999999ADDGA1001+999999999GF100991001001999999001001MA1999999089021MD1610021+9999ME1315609REMSYN070AAXX  15154 17203 42970 00000 10110 21029 38902 48560 56002 333 10245;
0205172030999992000111518004+38860+040500FM-12+117799999V0201601N002112200019N0200001N1+00781-00691999999ADDAA199000091GA1001+999999999GF100991001001999999001001KA1999M+02631MA1999999089181MD1210161+9999ME1315759REMSYN070AAXX  15184 17203 32970 01604 10078 21069 38918 48575 52016 333 10263;EQDQ01  00002PRCP99
0162172030999992000111521004+38860+040500FM-12+117799999V0201601N001512200019N0200001N1+00621-00521999999ADDGA1001+999999999GF100991001001999999001001MA1999999089241MD1210061+9999ME1315849REMSYN070AAXX  15214 17203 42970 01603 10062 21052 38924 48584 52006 333 10260;
0192172030999992000111600004+38860+040500FM-12+117799999V0201601N001512200019N0200001N1+00601-00551999999ADDAA199000091GA1001+999999999GF100991001001999999001001MA1999999089281MD1110041+9999ME1315899REMSYN070AAXX  16004 17203 32970 01603 10060 21055 38928 48589 51004 333 10259;EQDQ01  00002PRCP99
0162172030999992000111603004+38860+040500FM-12+117799999V0209999C000012200019N0200001N1+00401-00451999999ADDGA1001+999999999GF100991001001999999001001MA1999999089341MD1310061+9999ME1315909REMSYN070AAXX  16034 17203 42970 00000 10040 21045 38934 48590 53006 333 10282;
0235172030999992000111606004+38860+040500FM-12+117799999V0209999C000012200019N0200001N1+00801-00381999999ADDAA199000091GA1001+999999999GF100991001001999999001001IA1019IA2999-00109KA1120N+00301MA1999999089481MD1210141+9999ME1316049REMSYN082AAXX  16064 17203 32970 00000 10080 21038 38948 48604 52014 333 20030 30101 55058;EQDQ01  00002PRCP99
0162172030999992000111609004+38860+040500FM-12+117799999V0203001N002112200019N0200001N1+01501-00341999999ADDGA1001+999999999GF100991001001999999001001MA1999999089481MD1410001+9999ME1316089REMSYN070AAXX  16094 17203 42970 03004 10150 21034 38948 48608 54000 333 10282;
0192172030999992000111612004+38860+040500FM-12+117799999V0203001N002612200019N0200001N1+01601-00441999999ADDAA199000091GA1001+999999999GF100991001001999999001001MA1999999089321MD1710161+9999ME1315949REMSYN070AAXX  16124 17203 32970 03005 10160 21044 38932 48594 57016 333 10263;EQDQ01  00002PRCP99
0161172030999992000111615004+38860+040500FM-12+117799999V0209999C000012200019N0200001N1+01101-00501999999ADDGA1001+999999999GF100991001001999999001001MA1999999089321MD1410001+9999ME1315889REMSYN069AAXX  16154 17203 42970 00000 10110 21050 38932 48588 54000 33 10279;
0205172030999992000111618004+38860+040500FM-12+117799999V0209999C000012200019N0200001N1+00801-00511999999ADDAA199000091GA1001+999999999GF100991001001999999001001KA1999M+02971MA1999999089471MD1210151+9999ME1316029REMSYN070AAXX  16184 17203 32970 00000 10080 21051 38947 48602 52015 333 10297;EQDQ01  00002PRCP99
0162172030999992000111621004+38860+040500FM-12+117799999V0201801N001512200019N0200001N1+00681-00501999999ADDGA1001+999999999GF100991001001999999001001MA1999999089501MD1110031+9999ME1316109REMSYN070AAXX  16214 17203 42970 01803 10068 21050 38950 48610 51003 333 10284;
0192172030999992000111700004+38860+040500FM-12+117799999V0209999C000012200019N0200001N1+00561-00621999999ADDAA199000091GA1001+999999999GF100991001001999999001001MA1999999089521MD1110021+9999ME1316119REMSYN070AAXX  17004 17203 32970 00000 10056 21062 38952 48611 51002 333 10286;EQDQ01  00002PRCP99
0162172030999992000111703004+38860+040500FM-12+117799999V0201801N002112200019N0200001N1+00461-00561999999ADDGA1001+999999999GF100991001001999999001001MA1999999089521MD1410001+9999ME1316079REMSYN070AAXX  17034 17203 42970 01804 10046 21056 38952 48607 54000 333 10302;
0235172030999992000111706004+38860+040500FM-12+117799999V0209999C000012200019N0200001N1+00721-00581999999ADDAA199000091GA1001+999999999GF100991001001999999001001IA1019IA2999-00109KA1120N+00371MA1999999089601MD1310081+9999ME1316149REMSYN082AAXX  17064 17203 32970 00000 10072 21058 38960 48614 53008 333 20037 30101 55057;EQDQ01  00002PRCP99
0162172030999992000111709004+38860+040500FM-12+117799999V0203101N001512200019N0200001N1+01401-00531999999ADDGA1001+999999999GF100991001001999999001001MA1999999089421MD1710181+9999ME1316029REMSYN070AAXX  17094 17203 42970 03103 10140 21053 38942 48602 57018 333 10280;
0192172030999992000111712004+38860+040500FM-12+117799999V0203301N002612200019N0200001N1+01521-00601999999ADDAA199000091GA1001+999999999GF100991001001999999001001MA1999999089201MD1710221+9999ME1315819REMSYN070AAXX  17124 17203 32970 03305 10152 21060 38920 48581 57022 333 10255;EQDQ01  00002PRCP99
0162172030999992000111715004+38860+040500FM-12+117799999V0209999C000012200019N0200001N1+01101-00731999999ADDGA1001+999999999GF100991001001999999001001MA1999999089181MD1610021+9999ME1315759REMSYN070AAXX  17154 17203 42970 00000 10110 21073 38918 48575 56002 333 10263;
0205172030999992000111718004+38860+040500FM-12+117799999V0201601N001512200019N0200001N1+00801-00731999999ADDAA199000091GA1001+999999999GF100991001001999999001001KA1999M+02661MA1999999089201MD1610021+9999ME1315779REMSYN070AAXX  17184 17203 32970 01603 10080 21073 38920 48577 56002 333 10266;EQDQ01  00002PRCP99
0161172030999992000111721004+38860+040500FM-12+117799999V0209999C000012200019N0200001N1+00521-00751999999ADDGA1001+999999999GF100991001001999999001001MA1999999089201MD1410001+9999ME1315809REMSYN069AAXX  17214 17203 42970 00000 10052 21075 38920 48580 54000 33 10255;
0192172030999992000111800004+38860+040500FM-12+117799999V0209999C000012200019N0200001N1+00451-00681999999ADDAA199000091GA1001+999999999GF100991001001999999001001MA1999999089201MD1410001+9999ME1315809REMSYN070AAXX  18004 17203 32970 00000 10045 21068 38920 48580 54000 333 10255;EQDQ01  00002PRCP99
0152172030999992000111803004+38860+040500FM-12+117799999V0209999C000012200019N0200001N1+00351-00691999999ADDGF102991021011012501001001MA1999999089151MD1610051+9999ME1315729REMSYN076AAXX  18034 17203 42670 20000 10035 21069 38915 48572 56005 82100 333 10265;
0247172030999992000111806004+38860+040500FM-12+117799999V0209999C000012200019N0200001N1+00551-00781999999ADDAA199000091GA1011+012009029GF101991011011012501001001IA1019IA2999-00209KA1120N+00231MA1999999089171MD1310021+9999ME1315739REMSYN094AAXX  18064 17203 32670 10000 10055 21078 38917 48573 53002 81100 333 20023 30102 55059 81840;EQDQ01  00002PRCP99
0162172030999992000111809004+38860+040500FM-12+117799999V0209999C000012200019N0200001N1+01401-00691999999ADDGA1001+999999999GF100991001001999999001001MA1999999089081MD1810091+9999ME1315609REMSYN070AAXX  18094 17203 42970 00000 10140 21069 38908 48560 58009 333 10241;
0182172030999992000111812004+38860+040500FM-12+117799999V0209999C000012200019N0200001N1+01401-00961999999ADDAA199000091GF103991031011012501001001MA1999999088881MD1710201+9999ME1315509REMSYN076AAXX  18124 17203 32670 30000 10140 21096 38888 48550 57020 83100 333 10223;EQDQ01  00002PRCP99
0152172030999992000111815004+38860+040500FM-12+117799999V0209999C000012200019N0200001N1+00961-01121999999ADDGF102991021011012501001001MA1999999088901MD1310021+9999ME1315479REMSYN076AAXX  18154 17203 42670 20000 10096 21112 38890 48547 53002 82100 333 10236;
0205172030999992000111818004+38860+040500FM-12+117799999V0209999C000012200019N0200001N1+00681-00711999999ADDAA199000091GA1001+999999999GF100991001001999999001001KA1999M+02551MA1999999089021MD1210121+9999ME1315599REMSYN070AAXX  18184 17203 32970 00000 10068 21071 38902 48559 52012 333 10255;EQDQ01  00002PRCP99
0162172030999992000111821004+38860+040500FM-12+117799999V0209999C000012200019N0200001N1+00521-00681999999ADDGA1001+999999999GF100991001001999999001001MA1999999089061MD1210041+9999ME1315679REMSYN070AAXX  18214 17203 42970 00000 10052 21068 38906 48567 52004 333 10239;
0182172030999992000111900004+38860+040500FM-12+117799999V0209999C000012200019N0200001N1+00401-00511999999ADDAA199000091GF102991021011012501001001MA1999999089101MD1110041+9999ME1315709REMSYN076AAXX  19004 17203 32670 20000 10040 21051 38910 48570 51004 82100 333 10249;EQDQ01  00002PRCP99
0174172030999992000111903004+38860+040500FM-12+117799999V0209999C00001036001CN0200001N1+00401-00451999999ADDGA1031+012009089GF106991031011012501051001MA1999999089101MD1410001+9999ME1315669REMSYN082AAXX  19034 17203 42670 60000 10040 21045 38910 48566 54000 83150 333 83840 86360;
0247172030999992000111906004+38860+040500FM-12+117799999V0209999C000012200019N0200001N1+00661-00271999999ADDAA199000091GA1021+030009079GF102991021001999999031001IA1019IA2999+00109KA1120N+00341MA1999999089221MD1210121+9999ME1315789REMSYN094AAXX  19064 17203 32970 20000 10066 21027 38922 48578 52012 82030 333 20034 30001 55055 82360;EQDQ01  00002PRCP99
0174172030999992000111909004+38860+040500FM-12+117799999V0209999C00001036001CN0200001N1+01181-00161999999ADDGA1041+012009089GF106991041021012501051001MA1999999089221MD1410001+9999ME1315809REMSYN082AAXX  19094 17203 42670 60000 10118 21016 38922 48580 54000 84250 333 84840 86360;
0182172030999992000111912004+38860+040500FM-12+117799999V0209999C000012200019N0200001N1+01441+00061999999ADDAA199000091GF102991021011012501001001MA1999999089081MD1710141+9999ME1315679REMSYN076AAXX  19124 17203 32670 20000 10144 20006 38908 48567 57014 82100 333 10246;EQDQ01  00002PRCP99
0174172030999992000111915004+38860+040500FM-12+117799999V0209999C00001036001CN0200001N1+01061+00111999999ADDGA1031+012009089GF105991031011012501051001MA1999999089081MD1510001+9999ME1315659REMSYN082AAXX  19154 17203 42670 50000 10106 20011 38908 48565 55000 83150 333 83840 85360;
0153172030999992000111918004+38860+040500FM-12+117799999V0209999C000012200019N0200001N1+00681+99999999999ADDAA199000091GA1001+999999999GF100991001001999999001001REMSYN069AAXX  19184 17203 32970 00000 10068 0013 38914 48570 52006 333 10264;EQDQ01  00002PRCP99
0174172030999992000111921004+38860+040500FM-12+117799999V0209999C000012200019N0200001N1+00601+00081999999ADDGA1021+012009089GF104991021011012501051001MA1999999089181MD1110041+9999ME1315779REMSYN082AAXX  19214 17203 42670 40000 10060 20008 38918 48577 51004 82150 333 82840 84360;
0204172030999992000112000004+38860+040500FM-12+117799999V0209999C000012200019N0200001N1+00501-00041999999ADDAA199000091GA1021+012009089GF104991021011012501051001MA1999999089181MD1410001+9999ME1315779REMSYN082AAXX  20004 17203 32670 40000 10050 21004 38918 48577 54000 82150 333 82840 84360;EQDQ01  00002PRCP99
0162172030999992000112003004+38860+040500FM-12+117799999V0209999C000012200019N0200001N1+00381-00031999999ADDGA1001+999999999GF100991001001999999001001MA1999999089181MD1410001+9999ME1315749REMSYN070AAXX  20034 17203 42970 00000 10038 21003 38918 48574 54000 333 10268;
0247172030999992000112006004+38860+040500FM-12+117799999V0209999C000012200019N0200001N1+00461+00111999999ADDAA199000091GA1031+012009029GF103991031011012501001001IA1019IA2999+00009KA1120N+00181MA1999999089261MD1310081+9999ME1315799REMSYN094AAXX  20064 17203 32670 30000 10046 20011 38926 48579 53008 83100 333 20018 30000 55032 83840;EQDQ01  00002PRCP99
0174172030999992000112009004+38860+040500FM-12+117799999V0209999C00001036001CN0200001N1+01101+00261999999ADDGA1021+012009089GF105991021011012501051001MA1999999089201MD1010061+9999ME1315789REMSYN082AAXX  20094 17203 42670 50000 10110 20026 38920 48578 50006 82150 333 82840 85360;
0204172030999992000112012004+38860+040500FM-12+117799999V0209999C00001036001CN0200001N1+01161+00201999999ADDAA199000091GA1031+012009089GF105991031011012501051001MA1999999089011MD1710191+9999ME1315599REMSYN082AAXX  20124 17203 32670 50000 10116 20020 38901 48559 57019 83150 333 83840 85360;EQDQ01  00002PRCP99
0174172030999992000112015004+38860+040500FM-12+117799999V0209999C00001036001CN0200001N1+00901+00111999999ADDGA1031+012009089GF105991031011012501051001MA1999999089001MD1610011+9999ME1315579REMSYN082AAXX  20154 17203 42670 50000 10090 20011 38900 48557 56001 83150 333 83840 85360;
0205172030999992000112018004+38860+040500FM-12+117799999V0209999C000012200019N0200001N1+00621+00061999999ADDAA199000091GA1001+999999999GF100991001001999999001001KA1999M+02591MA1999999089001MD1410001+9999ME1315569REMSYN070AAXX  20184 17203 32970 00000 10062 20006 38900 48556 54000 333 10259;EQDQ01  00002PRCP99
0162172030999992000112021004+38860+040500FM-12+117799999V0201601N001512200019N0200001N1+00501-00141999999ADDGA1001+999999999GF100991001001999999001001MA1999999089001MD1410001+9999ME1315599REMSYN070AAXX  20214 17203 42970 01603 10050 21014 38900 48559 54000 333 10242;
0192172030999992000112100004+38860+040500FM-12+117799999V0209999C000012200019N0200001N1+00401-00101999999ADDAA199000091GA1001+999999999GF100991001001999999001001MA1999999088981MD1810021+9999ME1315569REMSYN070AAXX  21004 17203 32970 00000 10040 21010 38898 48556 58002 333 10240;EQDQ01  00002PRCP99
0162172030999992000112103004+38860+040500FM-12+117799999V0209999C000012200019N0200001N1+00141-00041999999ADDGA1001+999999999GF100991001001999999001001MA1999999088921MD1610061+9999ME1315479REMSYN070AAXX  21034 17203 42970 00000 10014 21004 38892 48547 56006 333 10249;
0235172030999992000112106004+38860+040500FM-12+117799999V0209999C000012200019N0200001N1+00401-00211999999ADDAA199000091GA1001+999999999GF100991001001999999001001IA1019IA2999-00209KA1120N+00081MA1999999088971MD1210051+9999ME1315529REMSYN082AAXX  21064 17203 32970 00000 10040 21021 38897 48552 52005 333 20008 30102 55020;EQDQ01  00002PRCP99
0162172030999992000112109004+38860+040500FM-12+117799999V0209999C000012200019N0200001N1+01121+00121999999ADDGA1001+999999999GF100991001001999999001001MA1999999088841MD1810131+9999ME1315449REMSYN070AAXX  21094 17203 42970 00000 10112 20012 38884 48544 58013 333 10224;
0182172030999992000112112004+38860+040500FM-12+117799999V0209999C000012200019N0200001N1+01401-00051999999ADDAA199000091GF102991021011001501001001MA1999999088681MD1710161+9999ME1315309REMSYN076AAXX  21124 17203 32270 20000 10140 21005 38868 48530 57016 82100 333 10200;EQDQ01  00002PRCP99
0174172030999992000112115004+38860+040500FM-12+117799999V0209999C000012200019N0200001N1+00901-00311999999ADDGA1021+012009089GF104991021011012501051001MA1999999088641MD1610041+9999ME1315229REMSYN082AAXX  21154 17203 42670 40000 10090 21031 38864 48522 56004 82150 333 82840 84360;
0205172030999992000112118004+38860+040500FM-12+117799999V0209999C000012200019N0200001N1+00601-00291999999ADDAA199000091GA1001+999999999GF100991001001999999001001KA1999M+02311MA1999999088761MD1210121+9999ME1315329REMSYN070AAXX  21184 17203 32970 00000 10060 21029 38876 48532 52012 333 10231;EQDQ01  00002PRCP99
0162172030999992000112121004+38860+040500FM-12+117799999V0201601N001512200019N0200001N1+00501-00401999999ADDGA1001+999999999GF100991001001999999001001MA1999999088801MD1110041+9999ME1315409REMSYN070AAXX  21214 17203 42970 01603 10050 21040 38880 48540 51004 333 10219;
0162172030999992000112203004+38860+040500FM-12+117799999V0209999C000012200019N0200001N1+00141-00481999999ADDGA1001+999999999GF100991001001999999001001MA1999999088801MD1410001+9999ME1315369REMSYN070AAXX  22034 17203 42970 00000 10014 21048 38880 48536 54000 333 10236;
0235172030999992000112206004+38860+040500FM-12+117799999V0209999C000012200019N0200001N1+00281-00421999999ADDAA199000091GA1001+999999999GF100991001001999999001001IA1019IA2999-00309KA1120N+00001MA1999999088801MD1410001+9999ME1315359REMSYN082AAXX  22064 17203 32970 00000 10028 21042 38880 48535 54000 333 20000 30103 55053;EQDQ01  00002PRCP99
0162172030999992000112209004+38860+040500FM-12+117799999V0209999C000012200019N0200001N1+00941+00061999999ADDGA1001+999999999GF100991001001999999001001MA1999999088801MD1010021+9999ME1315399REMSYN070AAXX  22094 17203 42970 00000 10094 20006 38880 48539 50002 333 10225;
0192172030999992000112212004+38860+040500FM-12+117799999V0209999C000012200019N0200001N1+01201-00191999999ADDAA199000091GA1001+999999999GF100991001001999999001001MA1999999088631MD1710171+9999ME1315239REMSYN070AAXX  22124 17203 32970 00000 10120 21019 38863 48523 57017 333 10205;EQDQ01  00002PRCP99
0162172030999992000112215004+38860+040500FM-12+117799999V0209999C000012200019N0200001N1+00861-00281999999ADDGA1001+999999999GF100991001001999999001001MA1999999088601MD1610031+9999ME1315189REMSYN070AAXX  22154 17203 42970 00000 10086 21028 38860 48518 56003 333 10212;
0205172030999992000112218004+38860+040500FM-12+117799999V0209999C000012200019N0200001N1+00481-00461999999ADDAA199000091GA1001+999999999GF100991001001999999001001KA1999M+02381MA1999999088771MD1310171+9999ME1315329REMSYN070AAXX  22184 17203 32970 00000 10048 21046 38877 48532 53017 333 10238;EQDQ01  00002PRCP99
0162172030999992000112221004+38860+040500FM-12+117799999V0209999C000012200019N0200001N1+00341-00471999999ADDGA1001+999999999GF100991001001999999001001MA1999999088801MD1110031+9999ME1315389REMSYN070AAXX  22214 17203 42970 00000 10034 21047 38880 48538 51003 333 10230;
0192172030999992000112300004+38860+040500FM-12+117799999V0209999C000012200019N0200001N1+00151-00561999999ADDAA199000091GA1001+999999999GF100991001001999999001001MA1999999088801MD1410001+9999ME1315399REMSYN070AAXX  23004 17203 32970 00000 10015 21056 38880 48539 54000 333 10225;EQDQ01  00002PRCP99
0147172030999992000112303004+38860+040500FM-12+117799999V0209999C000012200019N0200001N1+00101-00601999999ADDGA1001+999999999GF100991001001999999001001MA1999999088771ME1315339REMSYN069AAXX  23034 17203 42970 00000 10010 21060 38877 48533 6003 333 10232;
0247172030999992000112306004+38860+040500FM-12+117799999V0209999C000012200019N0200001N1+00331-00271999999ADDAA199000091GA1031+030009079GF103991031001999999031001IA1019IA2999-00209KA1120N-00021MA1999999088851MD1310081+9999ME1315409REMSYN094AAXX  23064 17203 32970 30000 10033 21027 38885 48540 53008 83030 333 21002 30102 55055 83360;EQDQ01  00002PRCP99
0152172030999992000112309004+38860+040500FM-12+117799999V0203401N001512200019N0200001N1+01001-00081999999ADDGF102991021011012501001001MA1999999088801MD1810051+9999ME1315389REMSYN076AAXX  23094 17203 42670 23403 10100 21008 38880 48538 58005 82100 333 10225;
0182172030999992000112312004+38860+040500FM-12+117799999V0200101N002112200019N0200001N1+01181-00041999999ADDAA199000091GF103991031011012501001001MA1999999088641MD1710161+9999ME1315239REMSYN076AAXX  23124 17203 32670 30104 10118 21004 38864 48523 57016 83100 333 10206;EQDQ01  00002PRCP99
0152172030999992000112315004+38860+040500FM-12+117799999V0209999C000012200019N0200001N1+00601-00121999999ADDGF103991031011012501001001MA1999999088701MD1210061+9999ME1315259REMSYN076AAXX  23154 17203 42670 30000 10060 21012 38870 48525 52006 83100 333 10229;
0205172030999992000112318004+38860+040500FM-12+117799999V0209999C000012200019N0200001N1+00401-00271999999ADDAA199000091GA1001+999999999GF100991001001999999001001KA1999M+02411MA1999999088801MD1210101+9999ME1315349REMSYN070AAXX  23184 17203 32970 00000 10040 21027 38880 48534 52010 333 10241;EQDQ01  00002PRCP99
0162172030999992000112321004+38860+040500FM-12+117799999V0201601N002112200019N0200001N1+00261-00331999999ADDGA1001+999999999GF100991001001999999001001MA1999999088941MD1210141+9999ME1315519REMSYN070AAXX  23214 17203 42970 01604 10026 21033 38894 48551 52014 333 10246;
0192172030999992000112400004+38860+040500FM-12+117799999V0209999C000012200019N0200001N1+00141-00331999999ADDAA199000091GA1001+999999999GF100991001001999999001001MA1999999089001MD1110061+9999ME1315579REMSYN070AAXX  24004 17203 32970 00000 10014 21033 38900 48557 51006 333 10248;EQDQ01  00002PRCP99
0162172030999992000112403004+38860+040500FM-12+117799999V0209999C000012200019N0200001N1+00001-00381999999ADDGA1001+999999999GF100991001001999999001001MA1999999089001MD1410001+9999ME1315529REMSYN070AAXX  24034 17203 42970 00000 10000 21038 38900 48552 54000 333 10270;
0235172030999992000112406004+38860+040500FM-12+117799999V0209999C000012200019N0200001N1+00161-00121999999ADDAA199000091GA1001+999999999GF100991001001999999001001IA1099IA2999-00509KA1120N-00131MA1999999089101MD1310101+9999ME1315619REMSYN082AAXX  24064 17203 32970 00000 10016 21012 38910 48561 53010 333 21013 31105 55051;EQDQ01  00002PRCP99
0162172030999992000112409004+38860+040500FM-12+117799999V0209999C000012200019N0200001N1+00981+00001999999ADDGA1001+999999999GF100991001001999999001001MA1999999089141MD1110041+9999ME1315699REMSYN070AAXX  24094 17203 42970 00000 10098 20000 38914 48569 51004 333 10269;
0182172030999992000112412004+38860+040500FM-12+117799999V0203301N001512200019N0200001N1+01171-00091999999ADDAA199000091GF103991031011012501001001MA1999999088931MD1710211+9999ME1315509REMSYN076AAXX  24124 17203 32670 33303 10117 21009 38893 48550 57021 83100 333 10240;EQDQ01  00002PRCP99
0152172030999992000112415004+38860+040500FM-12+117799999V0209999C000012200019N0200001N1+00781-00101999999ADDGF102991021011012501001001MA1999999089001MD1310071+9999ME1315539REMSYN076AAXX  24154 17203 42670 20000 10078 21010 38900 48553 53007 82100 333 10264;
0205172030999992000112418004+38860+040500FM-12+117799999V0201601N002112200019N0200001N1+00401-00271999999ADDAA199000091GA1001+999999999GF100991001001999999001001KA1999M+02861MA1999999089141MD1210141+9999ME1315649REMSYN070AAXX  24184 17203 32970 01604 10040 21027 38914 48564 52014 333 10286;EQDQ01  00002PRCP99
0162172030999992000112421004+38860+040500FM-12+117799999V0201601N002112200019N0200001N1+00201-00471999999ADDGA1001+999999999GF100991001001999999001001MA1999999089201MD1210061+9999ME1315669REMSYN070AAXX  24214 17203 42970 01604 10020 21047 38920 48566 52006 333 10276;
0192172030999992000112500004+38860+040500FM-12+117799999V0209999C000012200019N0200001N1+00021-00451999999ADDAA199000091GA1001+999999999GF100991001001999999001001MA1999999089241MD1110041+9999ME1315789REMSYN070AAXX  25004 17203 32970 00000 10002 21045 38924 48578 51004 333 10281;EQDQ01  00002PRCP99
0162172030999992000112503004+38860+040500FM-12+117799999V0209999C000012200019N0200001N1-00101-00571999999ADDGA1001+999999999GF100991001001999999001001MA1999999089281MD1310041+9999ME1315789REMSYN070AAXX  25034 17203 42970 00000 11010 21057 38928 48578 53004 333 10302;
0247172030999992000112506004+38860+040500FM-12+117799999V0209999C000012200019N0200001N1+00001-00471999999ADDAA199000091GA1021+060009019GF102991001001999999001011IA1099IA2999-00509KA1120N-00231MA1999999089401MD1210121+9999ME1315879REMSYN094AAXX  25064 17203 32970 20000 10000 21047 38940 48587 52012 80001 333 21023 31105 55047 82070;EQDQ01  00002PRCP99
0162172030999992000112509004+38860+040500FM-12+117799999V0203601N001512200019N0200001N1+00801-00031999999ADDGA1001+999999999GF100991001001999999001001MA1999999089441MD1010041+9999ME1315959REMSYN070AAXX  25094 17203 42970 03603 10080 21003 38944 48595 50004 333 10309;
0182172030999992000112512004+38860+040500FM-12+117799999V0203401N001512200019N0200001N1+01021-00051999999ADDAA199000091GF102991021011012501001001MA1999999089301MD1710141+9999ME1315839REMSYN076AAXX  25124 17203 32670 23403 10102 21005 38930 48583 57014 82100 333 10293;EQDQ01  00002PRCP99
0162172030999992000112515004+38860+040500FM-12+117799999V0201501N001512200019N0200001N1+00641-00241999999ADDGA1001+999999999GF100991001001999999001001MA1999999089331MD1310031+9999ME1315819REMSYN070AAXX  25154 17203 42970 01503 10064 21024 38933 48581 53003 333 10308;
0205172030999992000112518004+38860+040500FM-12+117799999V0201801N001512200019N0200001N1+00351-00391999999ADDAA199000091GA1001+999999999GF100991001001999999001001KA1999M+03211MA1999999089401MD1210071+9999ME1315879REMSYN070AAXX  25184 17203 32970 01803 10035 21039 38940 48587 52007 333 10321;EQDQ01  00002PRCP99
0162172030999992000112521004+38860+040500FM-12+117799999V0201601N001512200019N0200001N1+00101-00501999999ADDGA1001+999999999GF100991001001999999001001MA1999999089461MD1210061+9999ME1315969REMSYN070AAXX  25214 17203 42970 01603 10010 21050 38946 48596 52006 333 10317;
0192172030999992000112600004+38860+040500FM-12+117799999V0209999C000012200019N0200001N1-00121-00541999999ADDAA199000091GA1001+999999999GF100991001001999999001001MA1999999089461MD1410001+9999ME1315969REMSYN070AAXX  26004 17203 32970 00000 11012 21054 38946 48596 54000 333 10317;EQDQ01  00002PRCP99
0162172030999992000112603004+38860+040500FM-12+117799999V0209999C000012200019N0200001N1-00261-00531999999ADDGA1001+999999999GF100991001001999999001001MA1999999089461MD1410001+9999ME1315929REMSYN070AAXX  26034 17203 42970 00000 11026 21053 38946 48592 54000 333 10328;
0235172030999992000112606004+38860+040500FM-12+117799999V0209999C000012200019N0200001N1+00001-00471999999ADDAA199000091GA1001+999999999GF100991001001999999001001IA1099IA2999-00609KA1120N-00341MA1999999089501MD1310041+9999ME1315969REMSYN082AAXX  26064 17203 32970 00000 10000 21047 38950 48596 53004 333 21034 31106 55051;EQDQ01  00002PRCP99
0162172030999992000112609004+38860+040500FM-12+117799999V0209999C000012200019N0200001N1+00741-00161999999ADDGA1001+999999999GF100991001001999999001001MA1999999089501MD1410001+9999ME1315999REMSYN070AAXX  26094 17203 42970 00000 10074 21016 38950 48599 54000 333 10322;
0192172030999992000112612004+38860+040500FM-12+117799999V0202501N001512200019N0200001N1+00861-00231999999ADDAA199000091GA1001+999999999GF100991001001999999001001MA1999999089301MD1610201+9999ME1315809REMSYN070AAXX  26124 17203 32970 02503 10086 21023 38930 48580 56020 333 10299;EQDQ01  00002PRCP99
0162172030999992000112615004+38860+040500FM-12+117799999V0209999C000012200019N0200001N1+00621-00661999999ADDGA1001+999999999GF100991001001999999001001MA1999999089241MD1810061+9999ME1315729REMSYN070AAXX  26154 17203 42970 00000 10062 21066 38924 48572 58006 333 10303;
0205172030999992000112618004+38860+040500FM-12+117799999V0201601N001512200019N0200001N1+00221-00501999999ADDAA199000091GA1001+999999999GF100991001001999999001001KA1999M+03181MA1999999089321MD1310081+9999ME1315789REMSYN070AAXX  26184 17203 32970 01603 10022 21050 38932 48578 53008 333 10318;EQDQ01  00002PRCP99
0162172030999992000112621004+38860+040500FM-12+117799999V0201601N001512200019N0200001N1+00141-00421999999ADDGA1001+999999999GF100991001001999999001001MA1999999089361MD1110041+9999ME1315879REMSYN070AAXX  26214 17203 42970 01603 10014 21042 38936 48587 51004 333 10306;
0192172030999992000112700004+38860+040500FM-12+117799999V0209999C000012200019N0200001N1-00061-00461999999ADDAA199000091GA1001+999999999GF100991001001999999001001MA1999999089361MD1410001+9999ME1315869REMSYN070AAXX  27004 17203 32970 00000 11006 21046 38936 48586 54000 333 10306;EQDQ01  00002PRCP99
0162172030999992000112703004+38860+040500FM-12+117799999V0209999C000012200019N0200001N1-00201-00511999999ADDGA1001+999999999GF100991001001999999001001MA1999999089301MD1610061+9999ME1315789REMSYN070AAXX  27034 17203 42970 00000 11020 21051 38930 48578 56006 333 10310;
0247172030999992000112706004+38860+040500FM-12+117799999V0209999C000012200019N0200001N1-00061-00401999999ADDAA199000091GA1021+030009079GF102991021001999999031001IA1149IA2999-00609KA1120N-00301MA1999999089401MD1110101+9999ME1315859REMSYN094AAXX  27064 17203 32970 20000 11006 21040 38940 48585 51010 82030 333 21030 34106 55053 82360;EQDQ01  00002PRCP99
0152172030999992000112709004+38860+040500FM-12+117799999V0209999C000012200019N0200001N1+00651-00321999999ADDGF102991001001999999001011MA1999999089301MD1810101+9999ME1315819REMSYN076AAXX  27094 17203 42970 20000 10065 21032 38930 48581 58010 80001 333 10299;
0204172030999992000112712004+38860+040500FM-12+117799999V0209999C00001036001CN0200001N1+00801-00081999999ADDAA199000091GA1031+012009089GF105991031011012501051001MA1999999089141MD1710161+9999ME1315659REMSYN082AAXX  27124 17203 32670 50000 10080 21008 38914 48565 57016 83150 333 83840 85360;EQDQ01  00002PRCP99
0174172030999992000112715004+38860+040500FM-12+117799999V0209999C00001036001CN0200001N1+00761-00081999999ADDGA1031+012009089GF106991031011012501051001MA1999999089101MD1510041+9999ME1315619REMSYN082AAXX  27154 17203 42670 60000 10076 21008 38910 48561 55004 83150 333 83840 86360;
0223172030999992000112718004+38860+040500FM-12+117799999V0209999C00001036001CN0200001N1+00601-00071999999ADDAA199000091GA1031+012009089GF106991031011012501051001KA1120M+00901MA1999999089151MD1210051+9999ME1315629REMSYN088AAXX  27184 17203 32670 60000 10060 21007 38915 48562 52005 83150 333 10090 83840 86360;EQDQ01  00002PRCP99
0174172030999992000112721004+38860+040500FM-12+117799999V0209999C00001036001CN0200001N1+00401-00271999999ADDGA1031+012009089GF105991031011012501051001MA1999999089121MD1610031+9999ME1315669REMSYN082AAXX  27214 17203 42670 50000 10040 21027 38912 48566 56003 83150 333 83840 85360;
0204172030999992000112800004+38860+040500FM-12+117799999V0209999C00001036001CN0200001N1+00441-00161999999ADDAA199000091GA1031+012009089GF106991031011012501051001MA1999999089121MD1410001+9999ME1315679REMSYN082AAXX  28004 17203 32670 60000 10044 21016 38912 48567 54000 83150 333 83840 86360;EQDQ01  00002PRCP99
0174172030999992000112803004+38860+040500FM-12+117799999V0209999C00001036001CN0200001N1+00441-00161999999ADDGA1031+012009089GF107991031011012501051001MA1999999089121MD1410001+9999ME1315679REMSYN082AAXX  28034 17203 42670 70000 10044 21016 38912 48567 54000 83150 333 83840 87360;
0253172030999992000112806004+38860+040500FM-12+117799999V0209999C00001036001CN0200001N1+00401+00091999999ADDAA199000091GA1041+012009069GF108991041051012501021999IA1019IA2999+00109KA1120N+00401MA1999999089241MD1210121+9999ME1315779REMSYN100AAXX  28064 17203 32670 80000 10040 20009 38924 48577 52012 8452/ 333 20040 30001 55035 84640 88460;EQDQ01  00002PRCP99
0174172030999992000112809004+38860+040500FM-12+117799999V0203401N00151036001CN0200001N1+00641+00181999999ADDGA1041+012009089GF107991041021012501051001MA1999999089251MD1110011+9999ME1315789REMSYN082AAXX  28094 17203 42670 73403 10064 20018 38925 48578 51001 84250 333 84840 87360;
0205172030999992000112812004+38860+040500FM-12+117799999V0209999C00001036001CN0200001N1+00701+00341999999ADDAA199000091GA1041+012009069GF108991041051012501021999MD1710091+9999ME1315699REMSYN082AAXX  28124 17203 32670 80000 10070 20034 38816 48569 57009 8452/ 333 84640 88460;EQDQ01+088163APOSP Q02  00002PRCP99
0202172030999992000112815004+38860+040500FM-12+117799999V0209999C00001036001CN0200001N1+00541+00361999999ADDAY161031AY221031GA1041+012009069GF108991041051012501021999MA1999999089221MD1110061+9999ME1315759MW1211REMSYN088AAXX  28154 17203 41670 80000 10054 20036 38922 48575 51006 72162 8452/ 333 84640 88460;
0238172030999992000112818004+38860+040500FM-12+117799999V0209999C00001036001CN0200001N1+00521+00311999999ADDAA112000591AY161061AY221061GA1041+012009069GF108991041051012501021999KA1120M+00721MA1999999089301MD1210081+9999ME1315829MW1021REMSYN100AAXX  28184 17203 11670 80000 10052 20031 38930 48582 52008 69952 70262 8452/ 333 10072 84640 88460;
0174172030999992000112821004+38860+040500FM-12+117799999V0209999C00001036001CN0200001N1+00521+00311999999ADDGA1041+012009069GF108991041051012501021999MA1999999089341MD1110041+9999ME1315799REMSYN082AAXX  28214 17203 42670 80000 10052 20031 38934 48579 51004 8452/ 333 84640 88460;
0185172030999992000112900004+38860+040500FM-12+117799999V0209999C00001036001CN0200001N1+00501+00341999999ADDAA199000021GA1041+012009069GF108991041051012501021999MA1999999089301MD1610041+9999ME1315849REMSYN082AAXX  29004 17203 32670 80000 10050 20034 38930 48584 56004 8452/ 333 84640 88460;
0174172030999992000112903004+38860+040500FM-12+117799999V0209999C00001036001CN0200001N1+00501+00341999999ADDGA1041+012009069GF108991041051012501021999MA1999999089241MD1710061+9999ME1315699REMSYN082AAXX  29034 17203 42670 80000 10050 20034 38924 48569 57006 8452/ 333 84640 88460;
0240172030999992000112906004+38860+040500FM-12+117799999V0209999C00001036001CN0200001N1+00601+00311999999ADDAA124000591GA1041+012009069GF107991041051012501011001IA1099IA2999+00409KA1120N+00401MA1999999089281MD1110041+9999ME1315819REMSYN106AAXX  29064 17203 32670 70000 10060 20031 38928 48581 51004 84510 333 20040 31004 55000 70005 84640 87460;
0174172030999992000112909004+38860+040500FM-12+117799999V0209999C00001036001CN0200001N1+01031+00391999999ADDGA1041+012009069GF107991041051012501011001MA1999999089201MD1710081+9999ME1315779REMSYN082AAXX  29094 17203 42670 70000 10103 20039 38920 48577 57008 84510 333 84640 87460;
0204172030999992000112912004+38860+040500FM-12+117799999V0209999C00001036001CN0200001N1+01171+00331999999ADDAA199000091GA1031+012009089GF106991031011012501051001MA1999999089001MD1710201+9999ME1315599REMSYN082AAXX  29124 17203 32670 60000 10117 20033 38900 48559 57020 83150 333 83840 86360;EQDQ01  00002PRCP99
0174172030999992000112915004+38860+040500FM-12+117799999V0203101N00211036001CN0200001N1+01031+00341999999ADDGA1031+012009089GF106991031011012501051001MA1999999088931MD1610071+9999ME1315529REMSYN082AAXX  29154 17203 42670 63104 10103 20034 38893 48552 56007 83150 333 83840 86360;
0223172030999992000112918004+38860+040500FM-12+117799999V0209999C00001036001CN0200001N1+00921+00281999999ADDAA199000091GA1041+012009089GF107991041021012501051001KA1120M+01201MA1999999088931MD1410001+9999ME1315529REMSYN088AAXX  29184 17203 32670 70000 10092 20028 38893 48552 54000 84250 333 10120 84840 87360;EQDQ01  00002PRCP99
0174172030999992000112921004+38860+040500FM-12+117799999V0201801N00211036001CN0200001N1+00731+00211999999ADDGA1031+012009089GF105991031011012501051001MA1999999088931MD1410001+9999ME1315539REMSYN082AAXX  29214 17203 42670 51804 10073 20021 38893 48553 54000 83150 333 83840 85360;
0204172030999992000113000004+38860+040500FM-12+117799999V0209999C00001036001CN0200001N1+00681+00131999999ADDAA199000091GA1041+012009089GF106991041021012501051001MA1999999088821MD1810111+9999ME1315449REMSYN082AAXX  30004 17203 32670 60000 10068 20013 38882 48544 58011 84250 333 84840 86360;EQDQ01  00002PRCP99
0185172030999992000113003004+38860+040500FM-12+117799999V0201601N002110360019N0100001N1+00541+00381999999ADDAY121031AY221031GF108991041051012501021999MA1999999088881MD1310061+9999ME1315479MW1611REMSYN087AAXX  30034 17203 41660 81604 10054 20038 38888 48547 53006 76122 8452/ 333 8435 88457;
0274172030999992000113006004+38860+040500FM-12+117799999V0201601N00211036001CN0150001N1+00421+00341999999ADDAA112004191AY121061AY221061GA1041+010509069GF108991041051012501021999IA1119IA2999+00309KA1120N+00401MA1999999088841MD1010041+9999ME1315449MW1611REMSYN118AAXX  30064 17203 11665 81604 10042 20034 38884 48544 50004 60042 76122 8452/ 333 20040 32003 55007 70044 84635 88457;
0202172030999992000113009004+38860+040500FM-12+117799999V0201601N00151036001CN0100001N1+00521+00441999999ADDAY161031AY261031GA1041+009909069GF108991041051008001021999MA1999999088701MD1710141+9999ME1315299MW1601REMSYN088AAXX  30094 17203 41560 81603 10052 20044 38870 48529 57014 76066 8452/ 333 84633 88458;
0219172030999992000113012004+38860+040500FM-12+117799999V0209999C00001036001CN0200001N1+00661+00461999999ADDAA106000591AY161061AY221061GA1041+012009069GF108991041051012501021999MA1999999088501MD1610201+9999ME1315109MW1021REMSYN094AAXX  30124 17203 11670 80000 10066 20046 38850 48510 56020 69961 70262 8452/ 333 84640 88460;
0202172030999992000113015004+38860+040500FM-12+117799999V0209999C00001036001CN0080001N1+00541+00461999999ADDAY121031AY221031GA1041+009909069GF108991041051008001021999MA1999999088561MD1310061+9999ME1315149MW1611REMSYN088AAXX  30154 17203 41558 80000 10054 20046 38856 48514 53006 76122 8452/ 333 84633 88457;
0238172030999992000113018004+38860+040500FM-12+117799999V0209999C000010105019N0080001N1+00401+00341999999ADDAA112006191AY121061AY221061GA1051+010509069GF108991051051008001021999KA1120M+00681MA1999999088681MD1210121+9999ME1315249MW1611REMSYN100AAXX  30184 17203 11558 80000 10040 20034 38868 48524 52012 60062 76122 8552/ 333 10068 85635 88458;
0202172030999992000113021004+38860+040500FM-12+117799999V0209999C000010099019N0080001N1+00401+00361999999ADDAY161031AY261031GA1051+009909069GF108991051051008001021999MA1999999088761MD1210081+9999ME1315329MW1611REMSYN088AAXX  30214 17203 41558 80000 10040 20036 38876 48532 52008 76166 8552/ 333 85633 88457;
0219172030999992000120100004+38860+040500FM-12+117799999V0209999C00001036001CN0200001N1+00401+00361999999ADDAA106002091AY161061AY221061GA1041+012009069GF108991041051012501021999MA1999999088871MD1210111+9999ME1315439MW1021REMSYN094AAXX  01004 17203 11670 80000 10040 20036 38887 48543 52011 60021 70262 8452/ 333 84640 88460;
0174172030999992000120103004+38860+040500FM-12+117799999V0209999C00001036001CN0200001N1+00301+00241999999ADDGA1041+012009069GF108991041051012501021999MA1999999088901MD1210031+9999ME1315449REMSYN082AAXX  01034 17203 42670 80000 10030 20024 38890 48544 52003 8452/ 333 84640 88460;
0246172030999992000120106004+38860+040500FM-12+117799999V0209999C00001036001CN0200001N1+00351+00291999999ADDAA112002091GA1041+012009069GF107991041051012501011001IA1119IA2999+00209KA1120N+00271MA1999999089051MD1210151+9999ME1315589REMSYN112AAXX  01064 17203 12670 70000 10035 20029 38905 48558 52015 60022 84510 333 20027 32002 55000 70078 84640 87460;
0174172030999992000120109004+38860+040500FM-12+117799999V0209999C00001036001CN0200001N1+00741+00421999999ADDGA1031+012009089GF105991031011012501051001MA1999999089121MD1110071+9999ME1315679REMSYN082AAXX  01094 17203 42670 50000 10074 20042 38912 48567 51007 83150 333 83840 85360;
0204172030999992000120112004+38860+040500FM-12+117799999V0209999C00001036001CN0200001N1+01001+00461999999ADDAA199000091GA1031+012009089GF105991031011012501051001MA1999999089061MD1610061+9999ME1315639REMSYN082AAXX  01124 17203 32670 50000 10100 20046 38906 48563 56006 83150 333 83840 85360;EQDQ01  00002PRCP99
0152172030999992000120115004+38860+040500FM-12+117799999V0209999C000012200019N0200001N1+00701+00381999999ADDGF102991021011012501001001MA1999999089121MD1310061+9999ME1315669REMSYN076AAXX  01154 17203 42670 20000 10070 20038 38912 48566 53006 82100 333 10272;
0205172030999992000120118004+38860+040500FM-12+117799999V0201801N001512200019N0200001N1+00501+00201999999ADDAA199000091GA1001+999999999GF100991001001999999001001KA1999M+02891MA1999999089221MD1210101+9999ME1315749REMSYN070AAXX  01184 17203 32970 01803 10050 20020 38922 48574 52010 333 10289;EQDQ01  00002PRCP99
0162172030999992000120121004+38860+040500FM-12+117799999V0201601N001512200019N0200001N1+00401+00141999999ADDGA1001+999999999GF100991001001999999001001MA1999999089301MD1110081+9999ME1315839REMSYN070AAXX  01214 17203 42970 01603 10040 20014 38930 48583 51008 333 10288;
0192172030999992000120200004+38860+040500FM-12+117799999V0209999C000012200019N0200001N1+00231-00071999999ADDAA199000091GA1001+999999999GF100991001001999999001001MA1999999089301MD1410001+9999ME1315849REMSYN070AAXX  02004 17203 32970 00000 10023 21007 38930 48584 54000 333 10288;EQDQ01  00002PRCP99
0162172030999992000120203004+38860+040500FM-12+117799999V0209999C000012200019N0200001N1+00111-00151999999ADDGA1001+999999999GF100991001001999999001001MA1999999089301MD1410001+9999ME1315819REMSYN070AAXX  02034 17203 42970 00000 10011 21015 38930 48581 54000 333 10299;
0235172030999992000120206004+38860+040500FM-12+117799999V0209999C000012200019N0200001N1+00201-00031999999ADDAA199000091GA1001+999999999GF100991001001999999001001IA1099IA2999-00209KA1120N+00001MA1999999089381MD1310081+9999ME1315889REMSYN082AAXX  02064 17203 32970 00000 10020 21003 38938 48588 53008 333 20000 31102 55019;EQDQ01  00002PRCP99
0162172030999992000120209004+38860+040500FM-12+117799999V0209999C000012200019N0200001N1+00931+00071999999ADDGA1001+999999999GF100991001001999999001001MA1999999089401MD1110021+9999ME1315949REMSYN070AAXX  02094 17203 42970 00000 10093 20007 38940 48594 51002 333 10294;
0192172030999992000120212004+38860+040500FM-12+117799999V0203001N002112200019N0200001N1+01041+00031999999ADDAA199000091GA1001+999999999GF100991001001999999001001MA1999999089231MD1710171+9999ME1315779REMSYN070AAXX  02124 17203 32970 03004 10104 20003 38923 48577 57017 333 10280;EQDQ01  00002PRCP99
0162172030999992000120215004+38860+040500FM-12+117799999V0209999C000012200019N0200001N1+00801+00051999999ADDGA1001+999999999GF100991001001999999001001MA1999999089231MD1410001+9999ME1315759REMSYN070AAXX  02154 17203 42970 00000 10080 20005 38923 48575 54000 333 10285;
0205172030999992000120218004+38860+040500FM-12+117799999V0209999C000012200019N0200001N1+00381-00031999999ADDAA199000091GA1001+999999999GF100991001001999999001001KA1999M+03091MA1999999089341MD1210111+9999ME1315839REMSYN070AAXX  02184 17203 32970 00000 10038 21003 38934 48583 52011 333 10309;EQDQ01  00002PRCP99
0162172030999992000120221004+38860+040500FM-12+117799999V0209999C000012200019N0200001N1+00101+00011999999ADDGA1001+999999999GF100991001001999999001001MA1999999089421MD1210081+9999ME1315939REMSYN070AAXX  02214 17203 42970 00000 10010 20001 38942 48593 52008 333 10307;
0192172030999992000120300004+38860+040500FM-12+117799999V0209999C000012200019N0200001N1-00021-00071999999ADDAA199000091GA1001+999999999GF100991001001999999001001MA1999999089401MD1610021+9999ME1315939REMSYN070AAXX  03004 17203 32970 00000 11002 21007 38940 48593 56002 333 10305;EQDQ01  00002PRCP99
0162172030999992000120303004+38860+040500FM-12+117799999V0209999C000012200019N0200001N1-00081-00141999999ADDGA1001+999999999GF100991001001999999001001MA1999999089401MD1410001+9999ME1315899REMSYN070AAXX  03034 17203 42970 00000 11008 21014 38940 48589 54000 333 10310;
0235172030999992000120306004+38860+040500FM-12+117799999V0209999C000012200019N0200001N1+00301-00021999999ADDAA199000091GA1001+999999999GF100991001001999999001001IA1099IA2999-00509KA1120N-00121MA1999999089421MD1310021+9999ME1315919REMSYN082AAXX  03064 17203 32970 00000 10030 21002 38942 48591 53002 333 21012 31105 55048;EQDQ01  00002PRCP99
0152172030999992000120309004+38860+040500FM-12+117799999V0209999C000012200019N0200001N1+00651+00071999999ADDGF103991031001999999031001MA1999999089421MD1010001+9999ME1315919REMSYN076AAXX  03094 17203 42970 30000 10065 20007 38942 48591 50000 83030 333 10312;
0182172030999992000120312004+38860+040500FM-12+117799999V0209999C000012200019N0200001N1+00801-00031999999ADDAA199000091GF103991031001999999031001MA1999999089371MD1710051+9999ME1315879REMSYN076AAXX  03124 17203 32970 30000 10080 21003 38937 48587 57005 83030 333 10308;EQDQ01  00002PRCP99
0162172030999992000120315004+38860+040500FM-12+117799999V0209999C000012200019N0200001N1+00401-00051999999ADDGA1001+999999999GF100991001001999999001001MA1999999089421MD1310051+9999ME1315889REMSYN070AAXX  03154 17203 42970 00000 10040 21005 38942 48588 53005 333 10324;
0205172030999992000120318004+38860+040500FM-12+117799999V0209999C000012200019N0200001N1+00201-00031999999ADDAA199000091GA1001+999999999GF100991001001999999001001KA1999M+03391MA1999999089551MD1210131+9999ME1316019REMSYN070AAXX  03184 17203 32970 00000 10020 21003 38955 48601 52013 333 10339;EQDQ01  00002PRCP99
0162172030999992000120321004+38860+040500FM-12+117799999V0209999C000012200019N0200001N1+00071-00101999999ADDGA1001+999999999GF100991001001999999001001MA1999999089641MD1210091+9999ME1316119REMSYN070AAXX  03214 17203 42970 00000 10007 21010 38964 48611 52009 333 10338;
0192172030999992000120400004+38860+040500FM-12+117799999V0209999C000012200019N0200001N1-00081-00141999999ADDAA199000091GA1001+999999999GF100991001001999999001001MA1999999089671MD1110031+9999ME1316149REMSYN070AAXX  04004 17203 32970 00000 11008 21014 38967 48614 51003 333 10341;EQDQ01  00002PRCP99
0138172030999992000120403004+38860+040500FM-12+117799999V0201601N002112200019N0200001N1-00131-00201999999ADDGA1001+999999999GF100991001001999999001001MA1999999089671REMSYN069AAXX  04034 17203 42970 01604 11013 21020 38967 4810 54000 333 10358;
0235172030999992000120406004+38860+040500FM-12+117799999V0209999C000012200019N0200001N1+00081-00111999999ADDAA199000091GA1001+999999999GF100991001001999999001001IA1099IA2999-00509KA1120N-00181MA1999999089801MD1310131+9999ME1316229REMSYN082AAXX  04064 17203 32970 00000 10008 21011 38980 48622 53013 333 21018 31105 55046;EQDQ01  00002PRCP99
0162172030999992000120409004+38860+040500FM-12+117799999V0209999C000012200019N0200001N1+00701+00051999999ADDGA1001+999999999GF100991001001999999001001MA1999999089761MD1810041+9999ME1316229REMSYN070AAXX  04094 17203 42970 00000 10070 20005 38976 48622 58004 333 10352;
0192172030999992000120412004+38860+040500FM-12+117799999V0209999C000012200019N0200001N1+00781-00051999999ADDAA199000091GA1001+999999999GF100991001001999999001001MA1999999089621MD1710141+9999ME1316099REMSYN070AAXX  04124 17203 32970 00000 10078 21005 38962 48609 57014 333 10336;EQDQ01  00002PRCP99
0162172030999992000120415004+38860+040500FM-12+117799999V0202801N002112200019N0200001N1+00341-00181999999ADDGA1001+999999999GF100991001001999999001001MA1999999089581MD1610041+9999ME1316019REMSYN070AAXX  04154 17203 42970 02804 10034 21018 38958 48601 56004 333 10348;
0205172030999992000120418004+38860+040500FM-12+117799999V0209999C000012200019N0200001N1+00101-00301999999ADDAA199000091GA1001+999999999GF100991001001999999001001KA1999M+03591MA1999999089681MD1310101+9999ME1316109REMSYN070AAXX  04184 17203 32970 00000 10010 21030 38968 48610 53010 333 10359;EQDQ01  00002PRCP99
0181172030999992000120421004+38860+040500FM-12+117799999V0209999C000012200019N0200001N1+00001-00201999999ADDGA1001+999999999GF100991001001999999001001MA1999999089681MD1410001+9999ME1316149REMSYN070AAXX  04214 17203 42970 00000 10000 21020 38968 48614 56000 333 10342;EQDQ01+000062APCTEN
0192172030999992000120500004+38860+040500FM-12+117799999V0209999C000012200019N0200001N1-00101-00251999999ADDAA199000091GA1001+999999999GF100991001001999999001001MA1999999089651MD1610031+9999ME1316129REMSYN070AAXX  05004 17203 32970 00000 11010 21025 38965 48612 56003 333 10344;EQDQ01  00002PRCP99
0162172030999992000120503004+38860+040500FM-12+117799999V0209999C000012200019N0200001N1-00151-00301999999ADDGA1001+999999999GF100991001001999999001001MA1999999089601MD1810051+9999ME1316039REMSYN070AAXX  05034 17203 42970 00000 11015 21030 38960 48603 58005 333 10350;
0235172030999992000120506004+38860+040500FM-12+117799999V0209999C000012200019N0200001N1+00001-00201999999ADDAA199000091GA1001+999999999GF100991001001999999001001IA1099IA2999-00409KA1120N-00201MA1999999089601MD1510001+9999ME1316039REMSYN082AAXX  05064 17203 32970 00000 10000 21020 38960 48603 55000 333 21020 31104 55050;EQDQ01  00002PRCP99
0162172030999992000120509004+38860+040500FM-12+117799999V0209999C000012200019N0200001N1+00521-00151999999ADDGA1001+999999999GF100991001001999999001001MA1999999089541MD1810061+9999ME1316009REMSYN070AAXX  05094 17203 42970 00000 10052 21015 38954 48600 58006 333 10332;
0192172030999992000120512004+38860+040500FM-12+117799999V0209999C000012200019N0200001N1+00741+00001999999ADDAA199000091GA1001+999999999GF100991001001999999001001MA1999999089361MD1710181+9999ME1315859REMSYN070AAXX  05124 17203 32970 00000 10074 20000 38936 48585 57018 333 10311;EQDQ01  00002PRCP99
0162172030999992000120515004+38860+040500FM-12+117799999V0209999C000012200019N0200001N1+00441-00081999999ADDGA1001+999999999GF100991001001999999001001MA1999999089361MD1510001+9999ME1315829REMSYN070AAXX  05154 17203 42970 00000 10044 21008 38936 48582 55000 333 10322;
0205172030999992000120518004+38860+040500FM-12+117799999V0209999C000012200019N0200001N1+00121-00121999999ADDAA199000091GA1001+999999999GF100991001001999999001001KA1999M+03311MA1999999089441MD1210081+9999ME1315899REMSYN070AAXX  05184 17203 32970 00000 10012 21012 38944 48589 52008 333 10331;EQDQ01  00002PRCP99
0162172030999992000120521004+38860+040500FM-12+117799999V0209999C000012200019N0200001N1+00001-00251999999ADDGA1001+999999999GF100991001001999999001001MA1999999089501MD1110061+9999ME1315979REMSYN070AAXX  05214 17203 42970 00000 10000 21025 38950 48597 51006 333 10327;
0192172030999992000120600004+38860+040500FM-12+117799999V0209999C000012200019N0200001N1-00161-00401999999ADDAA199000091GA1001+999999999GF100991001001999999001001MA1999999089461MD1810041+9999ME1315949REMSYN070AAXX  06004 17203 32970 00000 11016 21040 38946 48594 58004 333 10322;EQDQ01  00002PRCP99
0162172030999992000120603004+38860+040500FM-12+117799999V0209999C000012200019N0200001N1-00221-00361999999ADDGA1001+999999999GF100991001001999999001001MA1999999089401MD1710061+9999ME1315859REMSYN070AAXX  06034 17203 42970 00000 11022 21036 38940 48585 57006 333 10327;
0235172030999992000120606004+38860+040500FM-12+117799999V0209999C000012200019N0200001N1-00221-00421999999ADDAA199000091GA1001+999999999GF100991001001999999001001IA1099IA2999-00509KA1120N-00301MA1999999089401MD1410001+9999ME1315839REMSYN082AAXX  06064 17203 32970 00000 11022 21042 38940 48583 54000 333 21030 31105 55045;EQDQ01  00002PRCP99
0162172030999992000120609004+38860+040500FM-12+117799999V0209999C000012200019N0200001N1+00501-00201999999ADDGA1001+999999999GF100991001001999999001001MA1999999089381MD1810021+9999ME1315869REMSYN070AAXX  06094 17203 42970 00000 10050 21020 38938 48586 58002 333 10319;
0192172030999992000120612004+38860+040500FM-12+117799999V0200601N001512200019N0200001N1+00661-00211999999ADDAA199000091GA1001+999999999GF100991001001999999001001MA1999999089191MD1710191+9999ME1315699REMSYN070AAXX  06124 17203 32970 00603 10066 21021 38919 48569 57019 333 10297;EQDQ01  00002PRCP99
0162172030999992000120615004+38860+040500FM-12+117799999V0209999C000012200019N0200001N1+00321-00311999999ADDGA1001+999999999GF100991001001999999001001MA1999999089161MD1610031+9999ME1315639REMSYN070AAXX  06154 17203 42970 00000 10032 21031 38916 48563 56003 333 10305;
0205172030999992000120618004+38860+040500FM-12+117799999V0209999C000012200019N0200001N1-00031-00391999999ADDAA199000091GA1001+999999999GF100991001001999999001001KA1999M+03171MA1999999089221MD1010061+9999ME1315669REMSYN070AAXX  06184 17203 32970 00000 11003 21039 38922 48566 50006 333 10317;EQDQ01  00002PRCP99
0162172030999992000120621004+38860+040500FM-12+117799999V0209999C000012200019N0200001N1-00161-00291999999ADDGA1001+999999999GF100991001001999999001001MA1999999089171MD1710051+9999ME1315659REMSYN070AAXX  06214 17203 42970 00000 11016 21029 38917 48565 57005 333 10295;
0192172030999992000120700004+38860+040500FM-12+117799999V0209999C000012200019N0200001N1-00221-00331999999ADDAA199000091GA1001+999999999GF100991001001999999001001MA1999999089101MD1710071+9999ME1315599REMSYN070AAXX  07004 17203 32970 00000 11022 21033 38910 48559 57007 333 10287;EQDQ01  00002PRCP99
0162172030999992000120703004+38860+040500FM-12+117799999V0201601N001512200019N0200001N1-00281-00371999999ADDGA1001+999999999GF100991001001999999001001MA1999999089021MD1810081+9999ME1315509REMSYN070AAXX  07034 17203 42970 01603 11028 21037 38902 48550 58008 333 10288;
0247172030999992000120706004+38860+040500FM-12+117799999V0209999C000012200019N0200001N1-00201-00391999999ADDAA199000091GA1031+030009079GF103991031001999999031001IA1149IA2999-00609KA1120N-00321MA1999999089001MD1610021+9999ME1315469REMSYN094AAXX  07064 17203 32970 30000 11020 21039 38900 48546 56002 83030 333 21032 34106 55047 83360;EQDQ01  00002PRCP99
0152172030999992000120709004+38860+040500FM-12+117799999V0209999C000012200019N0200001N1+00401-00321999999ADDGF103991031001999999031001MA1999999088901MD1810101+9999ME1315409REMSYN076AAXX  07094 17203 42970 30000 10040 21032 38890 48540 58010 83030 333 10269;
0182172030999992000120712004+38860+040500FM-12+117799999V0209999C000012200019N0200001N1+00601-00231999999ADDAA199000091GF102991021001999999031001MA1999999088701MD1710201+9999ME1315229REMSYN076AAXX  07124 17203 32970 20000 10060 21023 38870 48522 57020 82030 333 10240;EQDQ01  00002PRCP99
0152172030999992000120715004+38860+040500FM-12+117799999V0209999C000012200019N0200001N1+00301-00311999999ADDGF103991031001999999031001MA1999999088701MD1510001+9999ME1315229REMSYN076AAXX  07154 17203 42970 30000 10030 21031 38870 48522 55000 83030 333 10251;
0217172030999992000120718004+38860+040500FM-12+117799999V0209999C000012200019N0200001N1+00001-00471999999ADDAA199000091GA1031+030009079GF103991031001999999031001KA1120M+00631MA1999999088781MD1210081+9999ME1315259REMSYN082AAXX  07184 17203 32970 30000 10000 21047 38878 48525 52008 83030 333 10063 83360;EQDQ01  00002PRCP99
0162172030999992000120721004+38860+040500FM-12+117799999V0209999C000012200019N0200001N1-00261-00561999999ADDGA1001+999999999GF100991001001999999001001MA1999999088821MD1310041+9999ME1315329REMSYN070AAXX  07214 17203 42970 00000 11026 21056 38882 48532 53004 333 10260;
0192172030999992000120800004+38860+040500FM-12+117799999V0209999C000012200019N0200001N1-00281-00521999999ADDAA199000091GA1001+999999999GF100991001001999999001001MA1999999088901MD1210081+9999ME1315409REMSYN070AAXX  08004 17203 32970 00000 11028 21052 38890 48540 52008 333 10263;EQDQ01  00002PRCP99
0162172030999992000120803004+38860+040500FM-12+117799999V0201601N001512200019N0200001N1-00341-00501999999ADDGA1001+999999999GF100991001001999999001001MA1999999088831MD1610071+9999ME1315329REMSYN070AAXX  08034 17203 42970 01603 11034 21050 38883 48532 56007 333 10267;
0247172030999992000120806004+38860+040500FM-12+117799999V0209999C000012200019N0200001N1-00201-00451999999ADDAA199000091GA1031+012009029GF103991031011012501001001IA1149IA2999-00609KA1120N-00361MA1999999088941MD1210111+9999ME1315409REMSYN094AAXX  08064 17203 32670 30000 11020 21045 38894 48540 52011 83100 333 21036 34106 55046 83840;EQDQ01  00002PRCP99
0152172030999992000120809004+38860+040500FM-12+117799999V0209999C000012200019N0200001N1+00481-00111999999ADDGF103991031011012501001001MA1999999089001MD1110061+9999ME1315499REMSYN076AAXX  08094 17203 42670 30000 10048 21011 38900 48549 51006 83100 333 10281;
0182172030999992000120812004+38860+040500FM-12+117799999V0200401N001510120019N0200001N1+00431-00291999999ADDAA199000091GF105991051021012501001001MA1999999088801MD1610201+9999ME1315309REMSYN076AAXX  08124 17203 32670 50403 10043 21029 38880 48530 56020 85200 333 10257;EQDQ01  00002PRCP99
0174172030999992000120815004+38860+040500FM-12+117799999V0209999C00001036001CN0200001N1+00301-00221999999ADDGA1031+012009089GF106991031011012501051001MA1999999088881MD1310081+9999ME1315369REMSYN082AAXX  08154 17203 42670 60000 10030 21022 38888 48536 53008 83150 333 83840 86360;
0223172030999992000120818004+38860+040500FM-12+117799999V0209999C00001036001CN0200001N1+00221-00211999999ADDAA199000091GA1031+012009089GF106991031011012501051001KA1120M+00561MA1999999088981MD1210101+9999ME1315459REMSYN088AAXX  08184 17203 32670 60000 10022 21021 38898 48545 52010 83150 333 10056 83840 86360;EQDQ01  00002PRCP99
0193172030999992000120821004+38860+040500FM-12+117799999V0209999C000010120019N0200001N1+00201-00181999999ADDGA1081+012009039GF199999081011012501051001MA1999999088971MD1810011+9999ME1315509REMSYN082AAXX  08214 17203 42670 60000 10020 21018 38897 48550 58001 88150 333 88340 86360;EQDQ01+000062SCOTCV
0192172030999992000120900004+38860+040500FM-12+117799999V0209999C000012200019N0200001N1+00031-00351999999ADDAA199000091GA1001+999999999GF100991001001999999001001MA1999999088951MD1610021+9999ME1315469REMSYN070AAXX  09004 17203 32970 00000 10003 21035 38895 48546 56002 333 10269;EQDQ01  00002PRCP99
0162172030999992000120903004+38860+040500FM-12+117799999V0209999C000012200019N0200001N1-00021-00371999999ADDGA1001+999999999GF100991001001999999001001MA1999999088921MD1810031+9999ME1315429REMSYN070AAXX  09034 17203 42970 00000 11002 21037 38892 48542 58003 333 10271;
0253172030999992000120906004+38860+040500FM-12+117799999V0209999C00001036001CN0200001N1+00001-00381999999ADDAA199000091GA1031+012009089GF106991031011012501051001IA1149IA2999-00409KA1120N-00081MA1999999089031MD1210111+9999ME1315519REMSYN100AAXX  09064 17203 32670 60000 10000 21038 38903 48551 52011 83150 333 21008 34104 55041 83840 86360;EQDQ01  00002PRCP99
0174172030999992000120909004+38860+040500FM-12+117799999V0209999C00001036001CN0200001N1+00601-00351999999ADDGA1031+012009089GF105991031011012501051001MA1999999089001MD1810031+9999ME1315539REMSYN082AAXX  09094 17203 42670 50000 10060 21035 38900 48553 58003 83150 333 83840 85360;
0204172030999992000120912004+38860+040500FM-12+117799999V0209999C00001036001CN0200001N1+00761-00251999999ADDAA199000091GA1031+012009089GF105991031011012501051001MA1999999088881MD1610121+9999ME1315429REMSYN082AAXX  09124 17203 32670 50000 10076 21025 38888 48542 56012 83150 333 83840 85360;EQDQ01  00002PRCP99
0162172030999992000120915004+38860+040500FM-12+117799999V0209999C000012200019N0200001N1+00421-00301999999ADDGA1001+999999999GF100991001001999999001001MA1999999088881MD1410001+9999ME1315399REMSYN070AAXX  09154 17203 42970 00000 10042 21030 38888 48539 54000 333 10261;
0205172030999992000120918004+38860+040500FM-12+117799999V0201601N002112200019N0200001N1+00201-00401999999ADDAA199000091GA1001+999999999GF100991001001999999001001KA1999M+02741MA1999999088941MD1210061+9999ME1315449REMSYN070AAXX  09184 17203 32970 01604 10020 21040 38894 48544 52006 333 10274;EQDQ01  00002PRCP99
0162172030999992000120921004+38860+040500FM-12+117799999V0201601N001512200019N0200001N1+00101-00411999999ADDGA1001+999999999GF100991001001999999001001MA1999999089001MD1310061+9999ME1315529REMSYN070AAXX  09214 17203 42970 01603 10010 21041 38900 48552 53006 333 10264;
0192172030999992000121000004+38860+040500FM-12+117799999V0201501N002112200019N0200001N1+00021-00481999999ADDAA199000091GA1001+999999999GF100991001001999999001001MA1999999088961MD1810041+9999ME1315499REMSYN070AAXX  10004 17203 32970 01504 10002 21048 38896 48549 58004 333 10259;EQDQ01  00002PRCP99
0162172030999992000121003004+38860+040500FM-12+117799999V0201601N001512200019N0200001N1+00001-00471999999ADDGA1001+999999999GF100991001001999999001001MA1999999088871MD1710091+9999ME1315399REMSYN070AAXX  10034 17203 42970 01603 10000 21047 38887 48539 57009 333 10260;
0235172030999992000121006004+38860+040500FM-12+117799999V0201601N001512200019N0200001N1+00141-00391999999ADDAA199000091GA1001+999999999GF100991001001999999001001IA1099IA2999-00309KA1120N-00021MA1999999088861MD1610011+9999ME1315379REMSYN082AAXX  10064 17203 32970 01603 10014 21039 38886 48537 56001 333 21002 31103 55008;EQDQ01  00002PRCP99
0162172030999992000121009004+38860+040500FM-12+117799999V0203301N002112200019N0200001N1+00901-00161999999ADDGA1001+999999999GF100991001001999999001001MA1999999088901MD1110041+9999ME1315459REMSYN070AAXX  10094 17203 42970 03304 10090 21016 38890 48545 51004 333 10247;
0192172030999992000121012004+38860+040500FM-12+117799999V0203101N002612200019N0200001N1+00991-00241999999ADDAA199000091GA1001+999999999GF100991001001999999001001MA1999999088661MD1810241+9999ME1315239REMSYN070AAXX  10124 17203 32970 03105 10099 21024 38866 48523 58024 333 10219;EQDQ01  00002PRCP99
0162172030999992000121015004+38860+040500FM-12+117799999V0209999C000012200019N0200001N1+00601-00291999999ADDGA1001+999999999GF100991001001999999001001MA1999999088701MD1310041+9999ME1315249REMSYN070AAXX  10154 17203 42970 00000 10060 21029 38870 48524 53004 333 10235;
0205172030999992000121018004+38860+040500FM-12+117799999V0209999C000012200019N0200001N1+00381-00231999999ADDAA199000091GA1001+999999999GF100991001001999999001001KA1999M+02401MA1999999088741MD1210041+9999ME1315279REMSYN070AAXX  10184 17203 32970 00000 10038 21023 38874 48527 52004 333 10240;EQDQ01  00002PRCP99
0162172030999992000121021004+38860+040500FM-12+117799999V0201601N001512200019N0200001N1+00241-00301999999ADDGA1001+999999999GF100991001001999999001001MA1999999088741MD1410001+9999ME1315329REMSYN070AAXX  10214 17203 42970 01603 10024 21030 38874 48532 54000 333 10223;
0192172030999992000121100004+38860+040500FM-12+117799999V0209999C000012200019N0200001N1+00121-00331999999ADDAA199000091GA1001+999999999GF100991001001999999001001MA1999999088681MD1710061+9999ME1315259REMSYN070AAXX  11004 17203 32970 00000 10012 21033 38868 48525 57006 333 10216;EQDQ01  00002PRCP99
0162172030999992000121103004+38860+040500FM-12+117799999V0209999C000012200019N0200001N1+00041-00361999999ADDGA1001+999999999GF100991001001999999001001MA1999999088581MD1610101+9999ME1315139REMSYN070AAXX  11034 17203 42970 00000 10004 21036 38858 48513 56010 333 10221;
0235172030999992000121106004+38860+040500FM-12+117799999V0201601N001512200019N0200001N1+00101-00301999999ADDAA199000091GA1001+999999999GF100991001001999999001001IA1099IA2999-00309KA1120N+00001MA1999999088581MD1410001+9999ME1315129REMSYN082AAXX  11064 17203 32970 01603 10010 21030 38858 48512 54000 333 20000 31103 55049;EQDQ01  00002PRCP99
0152172030999992000121109004+38860+040500FM-12+117799999V0209999C000019999999N0200001N1+00781-00211999999ADDGF105991051001999999031001MA1999999088341MD1710241+9999ME1314949REMSYN076AAXX  11094 17203 42970 50000 10078 21021 38834 48494 57024 85030 333 10183;
0204172030999992000121112004+38860+040500FM-12+117799999V0202501N00151036001CN0200001N1+00921-00191999999ADDAA199000091GA1021+012009089GF105991021011012501051001MA1999999088001MD1710341+9999ME1314619REMSYN082AAXX  11124 17203 32670 52503 10092 21019 38800 48461 57034 82150 333 82840 85360;EQDQ01  00002PRCP99
0152172030999992000121115004+38860+040500FM-12+117799999V0209999C000012200019N0200001N1+00601-00291999999ADDGF103991031001999999031001MA1999999088001MD1410001+9999ME1314609REMSYN076AAXX  11154 17203 42970 30000 10060 21029 38800 48460 54000 83030 333 10154;
0217172030999992000121118004+38860+040500FM-12+117799999V0209999C000012200019N0200001N1+00301-00281999999ADDAA199000091GA1021+030009079GF102991021001999999031001KA1120M+00981MA1999999088081MD1310081+9999ME1314669REMSYN082AAXX  11184 17203 32970 20000 10030 21028 38808 48466 53008 82030 333 10098 82360;EQDQ01  00002PRCP99
0152172030999992000121121004+38860+040500FM-12+117799999V0209999C000012200019N0200001N1+00141-00191999999ADDGF103991031001999999031001MA1999999088101MD1110021+9999ME1314719REMSYN076AAXX  11214 17203 42970 30000 10014 21019 38810 48471 51002 83030 333 10155;
0192172030999992000121200004+38860+040500FM-12+117799999V0209999C000012200019N0200001N1-00051-00291999999ADDAA199000091GA1001+999999999GF100991001001999999001001MA1999999088151MD1110051+9999ME1314749REMSYN070AAXX  12004 17203 32970 00000 11005 21029 38815 48474 51005 333 10166;EQDQ01  00002PRCP99
0174172030999992000121203004+38860+040500FM-12+117799999V0209999C00001036001CN0200001N1-00081-00301999999ADDGA1021+012009089GF105991021011012501051001MA1999999088151MD1410001+9999ME1314739REMSYN082AAXX  12034 17203 42670 50000 11008 21030 38815 48473 54000 82150 333 82840 85360;
0253172030999992000121206004+38860+040500FM-12+117799999V0209999C00001036001CN0200001N1+00071-00141999999ADDAA199000091GA1041+012009089GF106991041021012501051001IA1099IA2999-00409KA1120N-00161MA1999999088251MD1210101+9999ME1314819REMSYN100AAXX  12064 17203 32670 60000 10007 21014 38825 48481 52010 84250 333 21016 31104 55033 84840 86360;EQDQ01  00002PRCP99
0174172030999992000121209004+38860+040500FM-12+117799999V0209999C00001036001CN0200001N1+00201-00031999999ADDGA1041+012009089GF107991041021012501051001MA1999999088311MD1110061+9999ME1314879REMSYN082AAXX  12094 17203 42670 70000 10020 21003 38831 48487 51006 84250 333 84840 87360;
0204172030999992000121212004+38860+040500FM-12+117799999V0209999C00001036001CN0200001N1+00321-00171999999ADDAA199000091GA1041+012009069GF108991041041012501021999MA1999999088281MD1610031+9999ME1314859REMSYN082AAXX  12124 17203 32670 80000 10032 21017 38828 48485 56003 8442/ 333 84640 88460;EQDQ01  00002PRCP99
0202172030999992000121215004+38860+040500FM-12+117799999V0209999C00001036001CN0100001N1+00241+00091999999ADDAY121031AY221031GA1041+009909069GF108991041051008001021999MA1999999088381MD1310101+9999ME1314929MW1601REMSYN088AAXX  12154 17203 41560 80000 10024 20009 38838 48492 53010 76022 8452/ 333 84633 88458;
0270172030999992000121218004+38860+040500FM-12+117799999V0209999C000010099019N0080001N1+00121+00031999999ADDAA112002091AL10600091AY121061AY221061GA1051+009909069GA2081+021009049GF108991051051008001021999KA1120M+00361MA1999999088461MD1210081+9999ME1315009MW1681REMSYN106AAXX  12184 17203 11558 80000 10012 20003 38846 48500 52008 60022 76822 8552/ 333 10036 85633 88457 93100;
0202172030999992000121221004+38860+040500FM-12+117799999V0209999C000010099019N0080001N1+00081+00011999999ADDAY171031AY271031GA1051+009909069GF108991051051008001021999MA1999999088461MD1410001+9999ME1315009MW1681REMSYN088AAXX  12214 17203 41558 80000 10008 20001 38846 48500 54000 76877 8552/ 333 85633 88457;
0251172030999992000121300004+38860+040500FM-12+117799999V0209999C000010300019N0200001N1+00061+00011999999ADDAA106000891AL10600091AY171061AY221061GA1041+012009069GA2081+030009049GF108991041041012501051999MA1999999088461MD1410001+9999ME1315029MW1021REMSYN100AAXX  13004 17203 11670 80000 10006 20001 38846 48502 54000 69981 70272 8445/ 333 84640 88460 93100;
0174172030999992000121303004+38860+040500FM-12+117799999V0200301N00151036001CN0200001N1+00061+00011999999ADDGA1041+012009069GF108991041051012501021999MA1999999088321MD1710141+9999ME1314889REMSYN082AAXX  13034 17203 42670 80303 10006 20001 38832 48488 57014 8452/ 333 84640 88460;
0306172030999992000121306004+38860+040500FM-12+117799999V0201501N002110099019N0080001N1+00121+00081999999ADDAA112002091AL10600091AY121061AY221061GA1051+009909069GA2081+021009049GF108991051051008001021999IA1119IA2999-00109KA1120N+00001MA1999999088301MD1610021+9999ME1314859MW1681REMSYN124AAXX  13064 17203 11558 81504 10012 20008 38830 48485 56002 60022 76822 8552/ 333 20000 32101 55000 70042 85633 88457 93100;
0202172030999992000121309004+38860+040500FM-12+117799999V0209999C000010090019N0080001N1+00301+00261999999ADDAY171031AY241031GA1051+009009069GF108991051051008001021999MA1999999088281MD1810021+9999ME1314849MW1611REMSYN088AAXX  13094 17203 41558 80000 10030 20026 38828 48484 58002 76174 8552/ 333 85630 88457;
0251172030999992000121312004+38860+040500FM-12+117799999V0209999C000010105019N0080001N1+00431+00201999999ADDAA106002091AL10600091AY171061AY241061GA1051+010509069GA2081+021009049GF108991051051012501021999MA1999999088161MD1510121+9999ME1314749MW1611REMSYN100AAXX  13124 17203 11658 80000 10043 20020 38816 48474 55012 60021 76174 8552/ 333 85635 88457 93100;
0202172030999992000121315004+38860+040500FM-12+117799999V0209999C000010105019N0080001N1+00241+00181999999ADDAY161031AY261031GA1051+010509069GF108991051051012501021999MA1999999088141MD1610021+9999ME1314719MW1611REMSYN088AAXX  13154 17203 41658 80000 10024 20018 38814 48471 56002 76166 8552/ 333 85635 88457;
0238172030999992000121318004+38860+040500FM-12+117799999V0201501N001510099019N0080001N1+00201+00161999999ADDAA112013091AY161061AY261061GA1051+009909069GF108991051051008001021999KA1120M+00451MA1999999088101MD1810041+9999ME1314679MW1611REMSYN100AAXX  13184 17203 11558 81503 10020 20016 38810 48467 58004 60132 76166 8552/ 333 10045 85633 88457;
0202172030999992000121321004+38860+040500FM-12+117799999V0209999C000010099019N0070001N1+00181+00141999999ADDAY161031AY261031GA1051+009909069GF108991051051008001021999MA1999999088021MD1710081+9999ME1314619MW1611REMSYN088AAXX  13214 17203 41557 80000 10018 20014 38802 48461 57008 76166 8552/ 333 85633 88457;
0219172030999992000121400004+38860+040500FM-12+117799999V0209999C00001036001CN0200001N1+00181+00091999999ADDAA106006191AY161061AY221061GA1041+012009069GF108991041051012501021999MA1999999088001MD1610021+9999ME1314609MW1021REMSYN094AAXX  14004 17203 11670 80000 10018 20009 38800 48460 56002 60061 70262 8452/ 333 84640 88460;
0174172030999992000121403004+38860+040500FM-12+117799999V0209999C00001036001CN0200001N1+00211+00101999999ADDGA1041+012009069GF108991041051012501021999MA1999999087921MD1810081+9999ME1314529REMSYN082AAXX  14034 17203 42670 80000 10021 20010 38792 48452 58008 8452/ 333 84640 88460;
0274172030999992000121406004+38860+040500FM-12+117799999V0209999C00001036001CN0080001N1+00201+00111999999ADDAA112007991AY121061AY221061GA1041+009909069GF108991041051008001021999IA1119IA2999+00009KA1120N+00111MA1999999088001MD1110081+9999ME1314599MW1611REMSYN118AAXX  14064 17203 11558 80000 10020 20011 38800 48459 51008 60082 76122 8452/ 333 20011 32000 55000 70206 84633 88457;
0202172030999992000121409004+38860+040500FM-12+117799999V0209999C00001036001CN0200001N1+00371+00221999999ADDAY161031AY221031GA1041+012009069GF108991041051012501021999MA1999999088001MD1010001+9999ME1314609MW1211REMSYN088AAXX  14094 17203 41670 80000 10037 20022 38800 48460 50000 72162 8452/ 333 84640 88460;
0219172030999992000121412004+38860+040500FM-12+117799999V0209999C00001036001CN0200001N1+00721+00161999999ADDAA106000591AY161061AY221061GA1031+012009089GF105991031011012501051001MA1999999087901MD1610101+9999ME1314529MW1011REMSYN094AAXX  14124 17203 11670 50000 10072 20016 38790 48452 56010 69951 70162 83150 333 83840 85360;
0174172030999992000121415004+38860+040500FM-12+117799999V0209999C00001036001CN0200001N1+00501-00061999999ADDGA1031+012009089GF105991031011012501051001MA1999999087981MD1210081+9999ME1314599REMSYN082AAXX  14154 17203 42670 50000 10050 21006 38798 48459 52008 83150 333 83840 85360;
0210172030999992000121418004+38860+040500FM-12+117799999V0201601N00151036001CN0200001N1+00401-00051999999ADDAA112000591GA1031+012009089GF105991031011012501051001KA1120M+00751MA1999999088041MD1110061+9999ME1314639REMSYN094AAXX  14184 17203 12670 51603 10040 21005 38804 48463 51006 69952 83150 333 10075 83840 85360;
0174172030999992000121421004+38860+040500FM-12+117799999V0209999C00001036001CN0200001N1+00361-00051999999ADDGA1041+012009069GF107991041051012501011001MA1999999088041MD1410001+9999ME1314649REMSYN082AAXX  14214 17203 42670 70000 10036 21005 38804 48464 54000 84510 333 84640 87460;
0182172030999992000121500004+38860+040500FM-12+117799999V0201601N001512200019N0200001N1+00181-00151999999ADDAA199000091GF104991041001999999031001MA1999999088021MD1610021+9999ME1314639REMSYN076AAXX  15004 17203 32970 41603 10018 21015 38802 48463 56002 84030 333 10151;EQDQ01  00002PRCP99
0174172030999992000121503004+38860+040500FM-12+117799999V0209999C00001036001CN0200001N1+00121-00221999999ADDGA1041+012009069GF106991041051012501051001MA1999999088001MD1610021+9999ME1314609REMSYN082AAXX  15034 17203 42670 60000 10012 21022 38800 48460 56002 84550 333 84640 86360;
0240172030999992000121506004+38860+040500FM-12+117799999V0209999C00001036001CN0200001N1+00281-00041999999ADDAA124000591GA1041+012009089GF107991041021012501051001IA1119IA2999-00209KA1120N+00081MA1999999088111MD1310111+9999ME1314719REMSYN106AAXX  15064 17203 32670 70000 10028 21004 38811 48471 53011 84250 333 20008 32102 55006 70005 84840 87360;
0174172030999992000121509004+38860+040500FM-12+117799999V0202401N00151036001CN0200001N1+00581-00041999999ADDGA1041+012009089GF107991041021012501051001MA1999999088111MD1010001+9999ME1314729REMSYN082AAXX  15094 17203 42670 72403 10058 21004 38811 48472 50000 84250 333 84840 87360;
0183172030999992000121512004+38860+040500FM-12+117799999V0201601N00151036001CN0200001N1+00651-00131999999ADDAA199000091GA1041+012009089GF107991041021012501051001MD1610051+9999ME1314589REMSYN076AAXX  15124 17203 32670 71603 10065 21013 48458 56005 84250 333 84840 87360;EQDQ01  00002PRCP99
0174172030999992000121515004+38860+040500FM-12+117799999V0209999C00001036001CN0200001N1+00501-00111999999ADDGA1031+012009089GF105991031011012501051001MA1999999088201MD1310141+9999ME1314789REMSYN082AAXX  15154 17203 42670 50000 10050 21011 38820 48478 53014 83150 333 83840 85360;
0205172030999992000121518004+38860+040500FM-12+117799999V0201601N001512200019N0200001N1+00201-00521999999ADDAA199000091GA1001+999999999GF100991001001999999001001KA1999M+01991MA1999999088341MD1210141+9999ME1314909REMSYN070AAXX  15184 17203 32970 01603 10020 21052 38834 48490 52014 333 10199;EQDQ01  00002PRCP99
0152172030999992000121521004+38860+040500FM-12+117799999V0209999C000012200019N0200001N1+00101-00501999999ADDGF104991041001999999031001MA1999999088471MD1310131+9999ME1315049REMSYN076AAXX  15214 17203 42970 40000 10010 21050 38847 48504 53013 84030 333 10208;
0204172030999992000121600004+38860+040500FM-12+117799999V0209999C00001036001CN0200001N1+00001-00471999999ADDAA199000091GA1041+012009089GF106991041021012501051001MA1999999088461MD1510011+9999ME1315039REMSYN082AAXX  16004 17203 32670 60000 10000 21047 38846 48503 55001 84250 333 84840 86360;EQDQ01  00002PRCP99
0174172030999992000121603004+38860+040500FM-12+117799999V0209999C00001036001CN0200001N1+00001-00471999999ADDGA1041+012009089GF106991041021012501051001MA1999999088501MD1110041+9999ME1315059REMSYN082AAXX  16034 17203 42670 60000 10000 21047 38850 48505 51004 84250 333 84840 86360;
0247172030999992000121606004+38860+040500FM-12+117799999V0209999C000012200019N0200001N1+00001-00471999999ADDAA199000091GA1041+012009029GF104991041021012501001001IA1099IA2999-00409KA1120N-00131MA1999999088681MD1210181+9999ME1315209REMSYN094AAXX  16064 17203 32670 40000 10000 21047 38868 48520 52018 84200 333 21013 31104 55020 84840;EQDQ01  00002PRCP99
0152172030999992000121609004+38860+040500FM-12+117799999V0209999C000012200019N0200001N1+00601-00071999999ADDGF103991031011012501001001MA1999999088801MD1110121+9999ME1315349REMSYN076AAXX  16094 17203 42670 30000 10060 21007 38880 48534 51012 83100 333 10241;
0182172030999992000121612004+38860+040500FM-12+117799999V0200401N002112200019N0200001N1+00701-00131999999ADDAA199000091GF104991041021012501001001MA1999999088721MD1810081+9999ME1315269REMSYN076AAXX  16124 17203 32670 40404 10070 21013 38872 48526 58008 84200 333 10232;EQDQ01  00002PRCP99
0174172030999992000121615004+38860+040500FM-12+117799999V0200401N00151036001CN0200001N1+00521-00141999999ADDGA1041+012009089GF107991041041012501051001MA1999999088801MD1310081+9999ME1315339REMSYN082AAXX  16154 17203 42670 70403 10052 21014 38880 48533 53008 84450 333 84840 87360;
0223172030999992000121618004+38860+040500FM-12+117799999V0200601N00211036001CN0200001N1+00501-00201999999ADDAA199000091GA1041+012009089GF107991041021012501051001KA1120M+00731MA1999999089001MD1110201+9999ME1315509REMSYN088AAXX  16184 17203 32670 70604 10050 21020 38900 48550 51020 84250 333 10073 84840 87360;EQDQ01  00002PRCP99
0174172030999992000121621004+38860+040500FM-12+117799999V0200601N00151036001CN0200001N1+00501-00091999999ADDGA1041+012009069GF108991041051012501021999MA1999999089001MD1410001+9999ME1315559REMSYN082AAXX  16214 17203 42670 80603 10050 21009 38900 48555 54000 8452/ 333 84640 88460;
0204172030999992000121700004+38860+040500FM-12+117799999V0203601N00211036001CN0200001N1+00481+00011999999ADDAA199000091GA1041+012009069GF108991041051012501021999MA1999999089001MD1410001+9999ME1315559REMSYN082AAXX  17004 17203 32670 83604 10048 20001 38900 48555 54000 8452/ 333 84640 88460;EQDQ01  00002PRCP99
0202172030999992000121703004+38860+040500FM-12+117799999V0200601N00261036001CN0150001N1+00471+00101999999ADDAY121031AY221031GA1041+011109069GF108991041051012501021999MA1999999089001MD1410001+9999ME1315549MW1601REMSYN088AAXX  17034 17203 41665 80605 10047 20010 38900 48554 54000 76022 8452/ 333 84637 88458;
0274172030999992000121706004+38860+040500FM-12+117799999V0203601N00151036001CN0150001N1+00401+00091999999ADDAA112000591AY161061AY221061GA1041+011109069GF108991041051012501021999IA1119IA2999+00309KA1120N+00361MA1999999089051MD1210051+9999ME1315589MW1601REMSYN118AAXX  17064 17203 11665 83603 10040 20009 38905 48558 52005 69942 76062 8452/ 333 20036 32003 55040 70004 84637 88458;
0202172030999992000121709004+38860+040500FM-12+117799999V0203401N00261036001CN0150001N1+00461+00161999999ADDAY161031AY221031GA1041+010509069GF108991041051012501021999MA1999999089001MD1810051+9999ME1315549MW1601REMSYN088AAXX  17094 17203 41665 83405 10046 20016 38900 48554 58005 76062 8452/ 333 84635 88458;
0219172030999992000121712004+38860+040500FM-12+117799999V0203401N00211036001CN0080001N1+00481+00321999999ADDAA106002091AY161061AY221061GA1041+009909069GF108991041051008001021999MA1999999088901MD1610101+9999ME1315459MW1611REMSYN094AAXX  17124 17203 11558 83404 10048 20032 38890 48545 56010 60021 76162 8452/ 333 84633 88457;
0202172030999992000121715004+38860+040500FM-12+117799999V0209999C00001036001CN0080001N1+00321+00191999999ADDAY161031AY261031GA1041+009909069GF108991041051008001021999MA1999999088981MD1210081+9999ME1315519MW1611REMSYN088AAXX  17154 17203 41558 80000 10032 20019 38898 48551 52008 76166 8452/ 333 84633 88457;
0238172030999992000121718004+38860+040500FM-12+117799999V0209999C00001036001CN0080001N1+00281+00221999999ADDAA112008991AY161061AY261061GA1041+009909069GF108991041051008001021999KA1120M+00521MA1999999089031MD1210051+9999ME1315559MW1611REMSYN100AAXX  17184 17203 11558 80000 10028 20022 38903 48555 52005 60092 76166 8452/ 333 10052 84633 88457;
0202172030999992000121721004+38860+040500FM-12+117799999V0209999C00001036001CN0200001N1+00301+00191999999ADDAY161031AY221031GA1041+012009069GF108991041051012501021999MA1999999089041MD1110011+9999ME1315579MW1021REMSYN088AAXX  17214 17203 41670 80000 10030 20019 38904 48557 51001 70262 8452/ 333 84640 88460;
0219172030999992000121800004+38860+040500FM-12+117799999V0209999C00001036001CN0200001N1+00381+00281999999ADDAA106000891AY161061AY221061GA1041+012009069GF108991041051012501021999MA1999999089041MD1410001+9999ME1315579MW1021REMSYN094AAXX  18004 17203 11670 80000 10038 20028 38904 48557 54000 69971 70262 8452/ 333 84640 88460;
0202172030999992000121803004+38860+040500FM-12+117799999V0209999C000010099019N0080001N1+00341+00281999999ADDAY121031AY221031GA1051+009909069GF108991051051008001021999MA1999999089001MD1610041+9999ME1315529MW1611REMSYN088AAXX  18034 17203 41558 80000 10034 20028 38900 48552 56004 76122 8552/ 333 85633 88457;
0274172030999992000121806004+38860+040500FM-12+117799999V0209999C000010099019N0080001N1+00401+00321999999ADDAA112004191AY121061AY221061GA1051+009909069GF108991051051008001021999IA1119IA2999+00209KA1120N+00251MA1999999089161MD1310161+9999ME1315669MW1611REMSYN118AAXX  18064 17203 11558 80000 10040 20032 38916 48566 53016 60042 76122 8552/ 333 20025 32002 55000 70127 85633 88457;
0202172030999992000121809004+38860+040500FM-12+117799999V0203301N002110099019N0100001N1+00421+00291999999ADDAY161031AY261031GA1051+009909069GF108991051051008001021999MA1999999089301MD1210141+9999ME1315809MW1611REMSYN088AAXX  18094 17203 41560 83304 10042 20029 38930 48580 52014 76166 8552/ 333 85633 88457;
0219172030999992000121812004+38860+040500FM-12+117799999V0203001N002110099019N0080001N1+00501+00421999999ADDAA106004191AY161061AY261061GA1051+009909069GF108991051051008001021999MA1999999089081MD1710221+9999ME1315609MW1611REMSYN094AAXX  18124 17203 11558 83004 10050 20042 38908 48560 57022 60041 76166 8552/ 333 85633 88457;
0202172030999992000121815004+38860+040500FM-12+117799999V0209999C000010099019N0080001N1+00471+00371999999ADDAY161031AY261031GA1051+009909069GF108991051051008001021999MA1999999089001MD1710081+9999ME1315539MW1611REMSYN088AAXX  18154 17203 41558 80000 10047 20037 38900 48553 57008 76166 8552/ 333 85633 88457;
0366172030999992000121818004+38860+040500FM-12+117799999V0209999C000010099019N0070001N1+00381+00341999999ADDAA112011991AJ100069199999999AY161061AY261061GA1051+009909069GA2081+021009049GF108991051051008001021999IA1309KA1120M+00531KA2120N-00081MA1999999088871MD1810131+9999ME1315429MW1611REMSYN176AAXX  18184 17203 11557 80000 10038 20034 38887 48542 58013 60122 76166 8552/ 333 10053 85633 88457 17205 32670 42006 10040 21008 38350 48520 57010 84500 333 10054 84640 92427;
0202172030999992000121821004+38860+040500FM-12+117799999V0200601N001510099019N0070001N1+00501+00251999999ADDAY161031AY261031GA1051+009909069GF108991051051008001021999MA1999999088741MD1710131+9999ME1315309MW1611REMSYN088AAXX  18214 17203 41557 80603 10050 20025 38874 48530 57013 76166 8552/ 333 85633 88457;
0219172030999992000121900004+38860+040500FM-12+117799999V0200301N002110099019N0070001N1+00481+00271999999ADDAA106007991AY161061AY261061GA1051+009909069GF108991051051008001021999MA1999999088601MD1710141+9999ME1315179MW1611REMSYN094AAXX  19004 17203 11557 80304 10048 20027 38860 48517 57014 60081 76166 8552/ 333 85633 88457;
0202172030999992000121903004+38860+040500FM-12+117799999V0200601N002110099019N0080001N1+00461+00211999999ADDAY161031AY261031GA1051+009909069GF108991051051008001021999MA1999999088421MD1710181+9999ME1315019MW1611REMSYN088AAXX  19034 17203 41558 80604 10046 20021 38842 48501 57018 76166 8552/ 333 85633 88457;
0274172030999992000121906004+38860+040500FM-12+117799999V0209999C000010099019N0080001N1+00321+00151999999ADDAA112013091AY161061AY261061GA1051+009909069GF108991051051008001021999IA1119IA2999+00309KA1120N+00301MA1999999088421MD1510001+9999ME1314999MW1611REMSYN118AAXX  19064 17203 11558 80000 10032 20015 38842 48499 55000 60132 76166 8552/ 333 20030 32003 55000 70250 85633 88457;
0202172030999992000121909004+38860+040500FM-12+117799999V0209999C000010099019N0080001N1+00381+00211999999ADDAY161031AY261031GA1051+009909069GF108991051051008001021999MA1999999088401MD1810021+9999ME1314989MW1611REMSYN088AAXX  19094 17203 41558 80000 10038 20021 38840 48498 58002 76166 8552/ 333 85633 88457;
0219172030999992000121912004+38860+040500FM-12+117799999V0209999C000010099019N0080001N1+00221+00061999999ADDAA106005191AY161061AY261061GA1051+009909069GF108991051051008001021999MA1999999088221MD1710181+9999ME1314819MW1611REMSYN094AAXX  19124 17203 11558 80000 10022 20006 38822 48481 57018 60051 76166 8552/ 333 85633 88457;
0202172030999992000121915004+38860+040500FM-12+117799999V0209999C000010099019N0080001N1+00101-00061999999ADDAY161031AY261031GA1051+009909069GF108991051051008001021999MA1999999088201MD1610021+9999ME1314709MW1681REMSYN088AAXX  19154 17203 41558 80000 10010 21006 38820 48470 56002 76866 8552/ 333 85633 88457;
0270172030999992000121918004+38860+040500FM-12+117799999V0209999C000010300019N0200001N1+00121-00021999999ADDAA112008991AL10600091AY171061AY261061GA1041+012009069GA2081+030009049GF108991041051012501021999KA1120M+00401MA1999999088201MD1410001+9999ME1314779MW1021REMSYN106AAXX  19184 17203 11670 80000 10012 21002 38820 48477 54000 60092 70276 8452/ 333 10040 84640 88460 93100;
0174172030999992000121921004+38860+040500FM-12+117799999V0209999C00001036001CN0200001N1+00131-00031999999ADDGA1041+012009069GF108991041051012501021999MA1999999088271MD1110071+9999ME1314849REMSYN082AAXX  19214 17203 42670 80000 10013 21003 38827 48484 51007 8452/ 333 84640 88460;
0219172030999992000122000004+38860+040500FM-12+117799999V0209999C000010099019N0080001N1+00071-00051999999ADDAA106000891AY121061AY221061GA1051+009909069GF108991051051008001021999MA1999999088201MD1810071+9999ME1314769MW1681REMSYN094AAXX  20004 17203 11558 80000 10007 21005 38820 48476 58007 69981 76822 8552/ 333 85633 88457;
0202172030999992000122003004+38860+040500FM-12+117799999V0209999C000010099019N0080001N1+00101+00011999999ADDAY171031AY271031GA1051+009909069GF108991051051008001021999MA1999999088081MD1710121+9999ME1314659MW1681REMSYN088AAXX  20034 17203 41558 80000 10010 20001 38808 48465 57012 76877 8552/ 333 85633 88457;
0306172030999992000122006004+38860+040500FM-12+117799999V0209999C000010099019N0080001N1+00101+00011999999ADDAA112003091AL10600091AY171061AY271061GA1051+009909069GA2081+021009049GF108991051051008001021999IA1099IA2999+00009KA1120N+00041MA1999999088031MD1710091+9999ME1314619MW1681REMSYN124AAXX  20064 17203 11558 80000 10010 20001 38803 48461 57009 60032 76877 8552/ 333 20004 31000 55000 70028 85633 88457 93100;
0202172030999992000122009004+38860+040500FM-12+117799999V0209999C000010099019N0030001N1+00101+00031999999ADDAY171031AY271031GA1051+009909069GF108991051051008001021999MA1999999087901MD1810131+9999ME1314499MW1711REMSYN088AAXX  20094 17203 41530 80000 10010 20003 38790 48449 58013 77177 8552/ 333 85633 88457;
0251172030999992000122012004+38860+040500FM-12+117799999V0209999C000010099019N0008001N1+00101+00031999999ADDAA106015091AL10600491AY171061AY271061GA1051+009909069GA2081+021009049GF108991051051008001021999MA1999999087801MD1610101+9999ME1314399MW1731REMSYN100AAXX  20124 17203 11508 80000 10010 20003 38780 48439 56010 60151 77377 8552/ 333 85633 88457 93104;
0202172030999992000122015004+38860+040500FM-12+117799999V0209999C000010099019N0010001N1+00021-00031999999ADDAY171031AY271031GA1051+009909069GF108991051051008001021999MA1999999087801MD1410001+9999ME1314399MW1711REMSYN088AAXX  20154 17203 41510 80000 10002 21003 38780 48439 54000 77177 8552/ 333 85633 88457;
0289172030999992000122018004+38860+040500FM-12+117799999V0209999C000010099019N0080001N1+00051-00041999999ADDAA112004191AL10699999AY171061AY271061GA1051+009909069GA2081+021009049GF108991051051008001021999KA1120M+00161MA1999999087701MD1810101+9999ME1314309MW1711REMSYN106AAXX  20184 17203 11558 80000 10005 21004 38770 48430 58010 60042 77177 8552/ 333 10016 85633 88457 93180;EQDQ01   3002SNWF06
0202172030999992000122021004+38860+040500FM-12+117799999V0209999C000010099019N0010001N1+00051+00001999999ADDAY171031AY271031GA1051+009909069GF108991051051008001021999MA1999999087651MD1810051+9999ME1314259MW1711REMSYN088AAXX  20214 17203 41510 80000 10005 20000 38765 48425 58005 77177 8552/ 333 85633 88457;
0273172030999992000122100004+38860+040500FM-12+117799999V0209999C000010099019N0010001N1+00051-00021999999ADDAA106005191AL10600491AY171061AY271061GA1021+004509079GA2051+009909069GA3081+027009049GF108991061071004501021999MA1999999087601MD1610051+9999ME1314219MW1731REMSYN106AAXX  21004 17203 11410 80000 10005 21002 38760 48421 56005 60051 77377 8672/ 333 82715 85633 88459 93104;
0202172030999992000122103004+38860+040500FM-12+117799999V0209999C00001036001CN0200001N1+00001-00301999999ADDAY171031AY221031GA1041+012009069GF108991041051012501021999MA1999999087651MD1110051+9999ME1314259MW1021REMSYN088AAXX  21034 17203 41670 80000 10000 21030 38765 48425 51005 70272 8452/ 333 84640 88460;
0329172030999992000122106004+38860+040500FM-12+117799999V0209999C000010300019N0200001N1+00001-00241999999ADDAA112005191AJ100139199999999AL10600091AY171061AY221061GA1041+012009069GA2081+030009049GF108991041051012501021999IA1279IA2999-00309KA1120N-00121MA1999999087851MD1210201+9999ME1314449MW1021REMSYN130AAXX  21064 17203 11670 80000 10000 21024 38785 48444 52020 60052 70272 8452/ 333 21012 3/103 43013 55000 70295 84640 88460 93100;
0185172030999992000122112004+38860+040500FM-12+117799999V0209999C00001036001CN0200001N1+00271-00401999999ADDAA199000021GA1041+012009089GF107991041021012501051001MA1999999088161MD1310061+9999ME1314729REMSYN082AAXX  21124 17203 32670 70000 10027 21040 38816 48472 53006 84250 333 84840 87360;
0174172030999992000122115004+38860+040500FM-12+117799999V0209999C00001036001CN0200001N1-00061-00581999999ADDGA1041+012009069GF107991041041012501011001MA1999999088321MD1210161+9999ME1314889REMSYN082AAXX  21154 17203 42670 70000 11006 21058 38832 48488 52016 84410 333 84640 87460;
0217172030999992000122118004+38860+040500FM-12+117799999V0201601N002612200019N0200001N1-00301-00921999999ADDAA199000091GA1041+030009079GF104991041001999999031001KA1120M+00361MA1999999088411MD1210091+9999ME1314929REMSYN082AAXX  21184 17203 32970 41605 11030 21092 38841 48492 52009 84030 333 10036 84360;EQDQ01  00002PRCP99
0162172030999992000122121004+38860+040500FM-12+117799999V0209999C000012200019N0200001N1-00401-01031999999ADDGA1001+999999999GF100991001001999999001001MA1999999088561MD1210151+9999ME1315079REMSYN070AAXX  21214 17203 42970 00000 11040 21103 38856 48507 52015 333 10241;
0192172030999992000122200004+38860+040500FM-12+117799999V0209999C000012200019N0200001N1-00601-01241999999ADDAA199000091GA1001+999999999GF100991001001999999001001MA1999999088701MD1210141+9999ME1315189REMSYN070AAXX  22004 17203 32970 00000 11060 21124 38870 48518 52014 333 10263;EQDQ01  00002PRCP99
0162172030999992000122203004+38860+040500FM-12+117799999V0209999C000012200019N0200001N1-00801-01291999999ADDGA1001+999999999GF100991001001999999001001MA1999999088801MD1210101+9999ME1315249REMSYN070AAXX  22034 17203 42970 00000 11080 21129 38880 48524 52010 333 10286;
0258172030999992000122206004+38860+040500FM-12+117799999V0209999C000012200019N0200001N1-00801-01391999999ADDAA199000091AJ100119199999999GA1001+999999999GF100991001001999999001001IA1279IA2999-01309KA1120N-00931MA1999999088961MD1210161+9999ME1315369REMSYN088AAXX  22064 17203 32970 00000 11080 21139 38896 48536 52016 333 21093 3/113 43011 55004;EQDQ01  00002PRCP99
0162172030999992000122209004+38860+040500FM-12+117799999V0209999C000012200019N0200001N1-00341-01151999999ADDGA1001+999999999GF100991001001999999001001MA1999999089001MD1010041+9999ME1315429REMSYN070AAXX  22094 17203 42970 00000 11034 21115 38900 48542 50004 333 10309;
0192172030999992000122212004+38860+040500FM-12+117799999V0209999C000012200019N0200001N1-00401-01151999999ADDAA199000091GA1001+999999999GF100991001001999999001001MA1999999088961MD1810041+9999ME1315569REMSYN070AAXX  22124 17203 32970 00000 11040 21115 38896 48556 58004 333 10310;EQDQ01  00002PRCP99
0162172030999992000122215004+38860+040500FM-12+117799999V0209999C000012200019N0200001N1-00561-01141999999ADDGA1001+999999999GF100991001001999999001001MA1999999089001MD1110041+9999ME1315389REMSYN070AAXX  22154 17203 42970 00000 11056 21114 38900 48538 51004 333 10326;
0217172030999992000122218004+38860+040500FM-12+117799999V0209999C000012200019N0200001N1-00761-01241999999ADDAA199000091GA1031+030009079GF103991031001999999031001KA1120M-00201MA1999999089161MD1210161+9999ME1315519REMSYN082AAXX  22184 17203 32970 30000 11076 21124 38916 48551 52016 83030 333 11020 83360;EQDQ01  00002PRCP99
0152172030999992000122221004+38860+040500FM-12+117799999V0209999C000012200019N0200001N1-00801-01251999999ADDGF103991031001999999031001MA1999999089161MD1010001+9999ME1315549REMSYN076AAXX  22214 17203 42970 30000 11080 21125 38916 48554 50000 83030 333 10339;
0204172030999992000122300004+38860+040500FM-12+117799999V0209999C00001036001CN0200001N1-00701-01161999999ADDAA199000091GA1031+012009069GF106991031051012501051001MA1999999089161MD1410001+9999ME1315549REMSYN082AAXX  23004 17203 32670 60000 11070 21116 38916 48554 54000 83550 333 83640 86360;EQDQ01  00002PRCP99
0174172030999992000122303004+38860+040500FM-12+117799999V0209999C00001036001CN0200001N1-00671-01001999999ADDGA1041+012009069GF107991041051012501011001MA1999999089101MD1810061+9999ME1315489REMSYN082AAXX  23034 17203 42670 70000 11067 21100 38910 48548 58006 84510 333 84640 87460;
0276172030999992000122306004+38860+040500FM-12+117799999V0209999C000012200019N0200001N1-00701-01001999999ADDAA199000091AJ100109199999999GA1021+012009089GF104991021011012501051001IA1279IA2999-01009KA1120N-00831MA1999999089021MD1710081+9999ME1315399REMSYN106AAXX  23064 17203 32670 40000 11070 21100 38902 48539 57008 82150 333 21083 3/110 43010 55045 82840 84360;EQDQ01  00002PRCP99
0174172030999992000122309004+38860+040500FM-12+117799999V0209999C00001036001CN0200001N1-00331-00741999999ADDGA1041+012009089GF107991041051012501021001MA1999999089051MD1110031+9999ME1315449REMSYN082AAXX  23094 17203 42670 70000 11033 21074 38905 48544 51003 84520 333 84840 87460;
0204172030999992000122312004+38860+040500FM-12+117799999V0209999C00001036001CN0200001N1-00151-00781999999ADDAA199000091GA1041+012009089GF107991041021012501051001MA1999999088891MD1710161+9999ME1315319REMSYN082AAXX  23124 17203 32670 70000 11015 21078 38889 48531 57016 84250 333 84840 87460;EQDQ01  00002PRCP99
0174172030999992000122315004+38860+040500FM-12+117799999V0209999C00001036001CN0200001N1-00401-00841999999ADDGA1031+012009089GF105991031011012501051001MA1999999088821MD1710071+9999ME1315249REMSYN082AAXX  23154 17203 42670 50000 11040 21084 38882 48524 57007 83150 333 83840 85360;
0223172030999992000122318004+38860+040500FM-12+117799999V0209999C00001036001CN0200001N1-00401-00841999999ADDAA199000091GA1041+012009089GF107991041021012501051001KA1120M-00121MA1999999088801MD1610021+9999ME1315229REMSYN088AAXX  23184 17203 32670 70000 11040 21084 38880 48522 56002 84250 333 11012 84840 87360;EQDQ01  00002PRCP99
0174172030999992000122321004+38860+040500FM-12+117799999V0209999C00001036001CN0200001N1-00441-00821999999ADDGA1041+012009069GF108991041051012501021999MA1999999088801MD1410001+9999ME1315249REMSYN082AAXX  23214 17203 42670 80000 11044 21082 38880 48524 54000 8452/ 333 84640 88460;
0204172030999992000122400004+38860+040500FM-12+117799999V0209999C00001036001CN0200001N1-00421-00721999999ADDAA199000091GA1041+012009069GF108991041051012501021999MA1999999088641MD1710161+9999ME1315119REMSYN082AAXX  24004 17203 32670 80000 11042 21072 38864 48511 57016 8452/ 333 84640 88460;EQDQ01  00002PRCP99
0174172030999992000122403004+38860+040500FM-12+117799999V0209999C00001036001CN0200001N1-00321-00731999999ADDGA1041+012009069GF108991041051012501021999MA1999999088451MD1710191+9999ME1314939REMSYN082AAXX  24034 17203 42670 80000 11032 21073 38845 48493 57019 8452/ 333 84640 88460;
0276172030999992000122406004+38860+040500FM-12+117799999V0209999C00001036001CN0200001N1-00301-00641999999ADDAA199000091AJ100109199999999GA1041+012009069GF108991041051012501021999IA1279IA2999-00809KA1120N-00501MA1999999088431MD1810021+9999ME1314929REMSYN106AAXX  24064 17203 32670 80000 11030 21064 38843 48492 58002 8452/ 333 21050 3/108 43010 55000 84640 88460;EQDQ01  00002PRCP99
0202172030999992000122409004+38860+040500FM-12+117799999V0209999C00001036001CN0100001N1-00101-00331999999ADDAY121031AY221031GA1041+009909069GF108991041051008001021999MA1999999088501MD1110071+9999ME1314999MW1701REMSYN088AAXX  24094 17203 41560 80000 11010 21033 38850 48499 51007 77022 8452/ 333 84633 88457;
0251172030999992000122412004+38860+040500FM-12+117799999V0209999C000010099019N0070001N1-00201-00391999999ADDAA106004191AL10600491AY121061AY221061GA1051+009909069GA2081+021009049GF108991051051008001021999MA1999999088301MD1610201+9999ME1314809MW1711REMSYN100AAXX  24124 17203 11557 80000 11020 21039 38830 48480 56020 60041 77122 8552/ 333 85633 88457 93104;
0202172030999992000122415004+38860+040500FM-12+117799999V0209999C000010099019N0020001N1-00201-00311999999ADDAY171031AY271031GA1051+009909069GF108991051051008001021999MA1999999088281MD1810021+9999ME1314799MW1711REMSYN088AAXX  24154 17203 41520 80000 11020 21031 38828 48479 58002 77177 8552/ 333 85633 88457;
0270172030999992000122418004+38860+040500FM-12+117799999V0209999C000010099019N0010001N1-00201-00251999999ADDAA112009991AL10600591AY171061AY271061GA1051+009909069GA2081+021009049GF108991051051008001021999KA1120M-00071MA1999999088221MD1810061+9999ME1314749MW1711REMSYN106AAXX  24184 17203 11510 80000 11020 21025 38822 48474 58006 60102 77177 8552/ 333 11007 85633 88457 93105;
0202172030999992000122421004+38860+040500FM-12+117799999V0209999C000010099019N0008001N1-00181-00281999999ADDAY171031AY271031GA1051+009909069GF108991051051008001021999MA1999999088201MD1810021+9999ME1314739MW1731REMSYN088AAXX  24214 17203 41508 80000 11018 21028 38820 48473 58002 77377 8552/ 333 85633 88457;
0251172030999992000122500004+38860+040500FM-12+117799999V0209999C000010099019N0008001N1-00131-00251999999ADDAA106001091AL10601391AY171061AY271061GA1051+009909069GA2081+021009049GF108991051051008001021999MA1999999088161MD1610041+9999ME1314709MW1731REMSYN100AAXX  25004 17203 11508 80000 11013 21025 38816 48470 56004 60011 77377 8552/ 333 85633 88457 93113;
0202172030999992000122503004+38860+040500FM-12+117799999V0209999C000010099019N0010001N1-00101-00221999999ADDAY171031AY271031GA1051+009909069GF108991051051008001021999MA1999999088161MD1410001+9999ME1314709MW1711REMSYN088AAXX  25034 17203 41510 80000 11010 21022 38816 48470 54000 77177 8552/ 333 85633 88457;
0329172030999992000122506004+38860+040500FM-12+117799999V0209999C000010120019N0200001N1+00001-00121999999ADDAA112014091AJ100369199999999AL10600491AY171061AY221061GA1051+012009069GA2081+030009049GF108991051051012501021999IA1279IA2999-00409KA1120N-00201MA1999999088231MD1310071+9999ME1314779MW1021REMSYN130AAXX  25064 17203 11670 80000 10000 21012 38823 48477 53007 60142 70272 8552/ 333 21020 3/104 43036 55000 70239 85640 88460 93104;
0174172030999992000122509004+38860+040500FM-12+117799999V0209999C00001036001CN0200001N1+00201-00131999999ADDGA1041+012009069GF108991041051012501021999MA1999999088321MD1210091+9999ME1314869REMSYN082AAXX  25094 17203 42670 80000 10020 21013 38832 48486 52009 8452/ 333 84640 88460;
0185172030999992000122512004+38860+040500FM-12+117799999V0209999C00001036001CN0200001N1+00301-00061999999ADDAA199000021GA1041+012009069GF108991041051012501021999MA1999999088301MD1610021+9999ME1314859REMSYN082AAXX  25124 17203 32670 80000 10030 21006 38830 48485 56002 8452/ 333 84640 88460;
0174172030999992000122515004+38860+040500FM-12+117799999V0209999C00001036001CN0200001N1+00101-00141999999ADDGA1041+012009069GF107991041051012501011001MA1999999088501MD1210201+9999ME1315029REMSYN082AAXX  25154 17203 42670 70000 10010 21014 38850 48502 52020 84510 333 84640 87460;
0223172030999992000122518004+38860+040500FM-12+117799999V0209999C00001036001CN0200001N1+00001-00141999999ADDAA199000091GA1021+012009089GF105991021011012501051001KA1120M+00361MA1999999088661MD1210161+9999ME1315179REMSYN088AAXX  25184 17203 32670 50000 10000 21014 38866 48517 52016 82150 333 10036 82840 85360;EQDQ01  00002PRCP99
0174172030999992000122521004+38860+040500FM-12+117799999V0209999C00001036001CN0200001N1-00101-00391999999ADDGA1021+012009089GF105991021011012501051001MA1999999088831MD1210171+9999ME1315339REMSYN082AAXX  25214 17203 42670 50000 11010 21039 38883 48533 52017 82150 333 82840 85360;
0192172030999992000122600004+38860+040500FM-12+117799999V0209999C000012200019N0200001N1-00301-00641999999ADDAA199000091GA1001+999999999GF100991001001999999001001MA1999999088971MD1210141+9999ME1315469REMSYN070AAXX  26004 17203 32970 00000 11030 21064 38897 48546 52014 333 10283;EQDQ01  00002PRCP99
0162172030999992000122603004+38860+040500FM-12+117799999V0209999C000012200019N0200001N1-00461-00711999999ADDGA1001+999999999GF100991001001999999001001MA1999999089101MD1210131+9999ME1315549REMSYN070AAXX  26034 17203 42970 00000 11046 21071 38910 48554 52013 333 10309;
0258172030999992000122606004+38860+040500FM-12+117799999V0209999C000012200019N0200001N1-00661-00911999999ADDAA199000091AJ100339199999999GA1001+999999999GF100991001001999999001001IA1279IA2999-01009KA1120N-00701MA1999999089301MD1210201+9999ME1315709REMSYN088AAXX  26064 17203 32970 00000 11066 21091 38930 48570 52020 333 21070 3/110 43033 55000;EQDQ01  00002PRCP99
0162172030999992000122609004+38860+040500FM-12+117799999V0209999C000012200019N0200001N1+00101-00531999999ADDGA1001+999999999GF100991001001999999001001MA1999999089381MD1210081+9999ME1315829REMSYN070AAXX  26094 17203 42970 00000 10010 21053 38938 48582 52008 333 10330;
0192172030999992000122612004+38860+040500FM-12+117799999V0209999C000012200019N0200001N1-00101-00641999999ADDAA199000091GA1001+999999999GF100991001001999999001001MA1999999089321MD1810061+9999ME1315749REMSYN070AAXX  26124 17203 32970 00000 11010 21064 38932 48574 58006 333 10334;EQDQ01  00002PRCP99
0174172030999992000122615004+38860+040500FM-12+117799999V0209999C00001036001CN0200001N1-00221-00601999999ADDGA1031+012009089GF105991031011012501051001MA1999999089381MD1310061+9999ME1315779REMSYN082AAXX  26154 17203 42670 50000 11022 21060 38938 48577 53006 83150 333 83840 85360;
0217172030999992000122618004+38860+040500FM-12+117799999V0209999C000012200019N0200001N1-00441-00751999999ADDAA199000091GA1031+030009079GF103991031001999999031001KA1120M+00141MA1999999089501MD1110121+9999ME1315849REMSYN082AAXX  26184 17203 32970 30000 11044 21075 38950 48584 51012 83030 333 10014 83360;EQDQ01  00002PRCP99
0162172030999992000122621004+38860+040500FM-12+117799999V0209999C000012200019N0200001N1-00601-00811999999ADDGA1001+999999999GF100991001001999999001001MA1999999089521MD1310021+9999ME1315909REMSYN070AAXX  26214 17203 42970 00000 11060 21081 38952 48590 53002 333 10358;
0192172030999992000122700004+38860+040500FM-12+117799999V0209999C000012200019N0200001N1-00681-00981999999ADDAA199000091GA1001+999999999GF100991001001999999001001MA1999999089521MD1010001+9999ME1315899REMSYN070AAXX  27004 17203 32970 00000 11068 21098 38952 48589 50000 333 10369;EQDQ01  00002PRCP99
0162172030999992000122703004+38860+040500FM-12+117799999V0200301N001512200019N0200001N1-00741-01051999999ADDGA1001+999999999GF100991001001999999001001MA1999999089521MD1410001+9999ME1315879REMSYN070AAXX  27034 17203 42970 00303 11074 21105 38952 48587 54000 333 10375;
0276172030999992000122706004+38860+040500FM-12+117799999V0200301N00211036001CN0200001N1-00601-01111999999ADDAA199000091AJ100309199999999GA1031+012009089GF105991031011012501051001IA1279IA2999-01109KA1120N-00761MA1999999089541MD1310021+9999ME1315889REMSYN106AAXX  27064 17203 32670 50304 11060 21111 38954 48588 53002 83150 333 21076 3/111 43030 55022 83840 85360;EQDQ01  00002PRCP99
0152172030999992000122709004+38860+040500FM-12+117799999V0209999C000012200019N0200001N1-00021-00701999999ADDGF103991031001999999031001MA1999999089601MD1010061+9999ME1315979REMSYN076AAXX  27094 17203 42970 30000 11002 21070 38960 48597 50006 83030 333 10373;
0182172030999992000122712004+38860+040500FM-12+117799999V0209999C000012200019N0200001N1+00101-00741999999ADDAA199000091GF103991031001999999031001MA1999999089501MD1610101+9999ME1315889REMSYN076AAXX  27124 17203 32970 30000 10010 21074 38950 48588 56010 83030 333 10367;EQDQ01  00002PRCP99
0152172030999992000122715004+38860+040500FM-12+117799999V0209999C000012200019N0200001N1-00301-00891999999ADDGF102991021011012501001001MA1999999089501MD1410001+9999ME1315849REMSYN076AAXX  27154 17203 42670 20000 11030 21089 38950 48584 54000 82100 333 10373;
0221172030999992000122718004+38860+040500FM-12+117799999V0209999C000012200019N0200001N1-00501-00971999999ADDAA199000091GA1001+999999999GF100991001001999999001001KA1999M+99999MA1999999089501MD1410001+9999ME1315849REMSYN070AAXX  27184 17203 32970 00000 11050 21097 38950 48584 54000 333 10378;EQDQ01  00002PRCP99Q02 +03782ATMX  
0162172030999992000122721004+38860+040500FM-12+117799999V0201301N001512200019N0200001N1-00651-01141999999ADDGA1001+999999999GF100991001001999999001001MA1999999089571MD1210071+9999ME1315949REMSYN070AAXX  27214 17203 42970 01303 11065 21114 38957 48594 52007 333 10369;
0192172030999992000122800004+38860+040500FM-12+117799999V0209999C000012200019N0200001N1-00901-01291999999ADDAA199000091GA1001+999999999GF100991001001999999001001MA1999999089571MD1410001+9999ME1315939REMSYN070AAXX  28004 17203 32970 00000 11090 21129 38957 48593 54000 333 10375;EQDQ01  00002PRCP99
0162172030999992000122803004+38860+040500FM-12+117799999V0209999C000012200019N0200001N1-00801-01161999999ADDGA1001+999999999GF100991001001999999001001MA1999999089551MD1810021+9999ME1315889REMSYN070AAXX  28034 17203 42970 00000 11080 21116 38955 48588 58002 333 10384;
0258172030999992000122806004+38860+040500FM-12+117799999V0209999C000012200019N0200001N1-00781-01271999999ADDAA199000091AJ100249199999999GA1001+999999999GF100991001001999999001001IA1279IA2999-01209KA1120N-00971MA1999999089551MD1510001+9999ME1315879REMSYN088AAXX  28064 17203 32970 00000 11078 21127 38955 48587 55000 333 21097 3/112 43024 55024;EQDQ01  00002PRCP99
0174172030999992000122809004+38860+040500FM-12+117799999V0209999C000012200019N0200001N1-00101-00941999999ADDGA1011+012009089GF103991011011012501031001MA1999999089641MD1110091+9999ME1315999REMSYN082AAXX  28094 17203 42670 30000 11010 21094 38964 48599 51009 81130 333 81840 83360;
0182172030999992000122812004+38860+040500FM-12+117799999V0209999C000012200019N0200001N1-00101-00941999999ADDAA199000091GF103991031011012501001001MA1999999089541MD1610101+9999ME1315889REMSYN076AAXX  28124 17203 32670 30000 11010 21094 38954 48588 56010 83100 333 10377;EQDQ01  00002PRCP99
0152172030999992000122815004+38860+040500FM-12+117799999V0209999C000012200019N0200001N1-00261-00951999999ADDGF103991031011012501001001MA1999999089601MD1110061+9999ME1315939REMSYN076AAXX  28154 17203 42670 30000 11026 21095 38960 48593 51006 83100 333 10384;
0221172030999992000122818004+38860+040500FM-12+117799999V0209999C000012200019N0200001N1-00601-01111999999ADDAA199000091GA1001+999999999GF100991001001999999001001KA1999M+99999MA1999999089601MD1410001+9999ME1315909REMSYN070AAXX  28184 17203 32970 00000 11060 21111 38960 48590 54000 333 10347;EQDQ01  00002PRCP99Q02 +03472ATMX  
0152172030999992000122821004+38860+040500FM-12+117799999V0209999C000012200019N0200001N1-00601-01031999999ADDGF102991021011012501001001MA1999999089601MD1410001+9999ME1315969REMSYN076AAXX  28214 17203 42670 20000 11060 21103 38960 48596 54000 82100 333 10378;
0182172030999992000122900004+38860+040500FM-12+117799999V0209999C000012200019N0200001N1-00501-00971999999ADDAA199000091GF103991031011012501001001MA1999999089601MD1410001+9999ME1315979REMSYN076AAXX  29004 17203 32670 30000 11050 21097 38960 48597 54000 83100 333 10373;EQDQ01  00002PRCP99
0162172030999992000122903004+38860+040500FM-12+117799999V0209999C000012200019N0200001N1-00601-01031999999ADDGA1001+999999999GF100991001001999999001001MA1999999089551MD1610051+9999ME1315909REMSYN070AAXX  29034 17203 42970 00000 11060 21103 38955 48590 56005 333 10373;
0270172030999992000122906004+38860+040500FM-12+117799999V0209999C000012200019N0200001N1-00501-00901999999ADDAA199000091AJ100209199999999GA1031+030009079GF103991031001999999031001IA1279IA2999-01109KA1120N-00651MA1999999089551MD1410001+9999ME1315899REMSYN100AAXX  29064 17203 32970 30000 11050 21090 38955 48589 54000 83030 333 21065 3/111 43020 55043 83360;EQDQ01  00002PRCP99
0152172030999992000122909004+38860+040500FM-12+117799999V0209999C000012200019N0200001N1+00261-00651999999ADDGF102991021011012501001001MA1999999089521MD1810031+9999ME1315929REMSYN076AAXX  29094 17203 42670 20000 10026 21065 38952 48592 58003 82100 333 10358;
0204172030999992000122912004+38860+040500FM-12+117799999V0209999C000012200019N0200001N1+00261-00511999999ADDAA199000091GA1021+012009089GF104991021011012501001011MA1999999089281MD1710241+9999ME1315719REMSYN082AAXX  29124 17203 32670 40000 10026 21051 38928 48571 57024 82101 333 82840 84070;EQDQ01  00002PRCP99
0174172030999992000122915004+38860+040500FM-12+117799999V0209999C00001220001CN0200001N1+00001-00601999999ADDGA1031+012009089GF106991031011012501001011MA1999999089261MD1510021+9999ME1315679REMSYN082AAXX  29154 17203 42670 60000 10000 21060 38926 48567 55002 83101 333 83840 86070;
0221172030999992000122918004+38860+040500FM-12+117799999V0209999C000012200019N0200001N1-00221-00741999999ADDAA199000091GA1001+999999999GF100991001001999999001001KA1999M+99999MA1999999089301MD1110041+9999ME1315709REMSYN070AAXX  29184 17203 32970 00000 11022 21074 38930 48570 51004 333 10344;EQDQ01  00002PRCP99Q02 +03442ATMX  
0162172030999992000122921004+38860+040500FM-12+117799999V0209999C000012200019N0200001N1-00401-00871999999ADDGA1001+999999999GF100991001001999999001001MA1999999089201MD1610101+9999ME1315659REMSYN070AAXX  29214 17203 42970 00000 11040 21087 38920 48565 56010 333 10315;
0192172030999992000123000004+38860+040500FM-12+117799999V0209999C000012200019N0200001N1-00531-00901999999ADDAA199000091GA1001+999999999GF100991001001999999001001MA1999999089161MD1610041+9999ME1315609REMSYN070AAXX  30004 17203 32970 00000 11053 21090 38916 48560 56004 333 10310;EQDQ01  00002PRCP99
0162172030999992000123003004+38860+040500FM-12+117799999V0209999C000012200019N0200001N1-00741-01011999999ADDGA1001+999999999GF100991001001999999001001MA1999999089201MD1310041+9999ME1315609REMSYN070AAXX  30034 17203 42970 00000 11074 21101 38920 48560 53004 333 10332;
0276172030999992000123006004+38860+040500FM-12+117799999V0209999C000012200019N0200001N1-00761-01031999999ADDAA199000091AJ100199199999999GA1011+012009089GF104991011011012501051001IA1279IA2999-01409KA1120N-00901MA1999999089201MD1410001+9999ME1315589REMSYN106AAXX  30064 17203 32670 40000 11076 21103 38920 48558 54000 81150 333 21090 3/114 43019 55042 81840 84360;EQDQ01  00002PRCP99
0174172030999992000123009004+38860+040500FM-12+117799999V0209999C00001036001CN0200001N1-00361-00971999999ADDGA1041+012009089GF107991041021012501051001MA1999999089131MD1610071+9999ME1315549REMSYN082AAXX  30094 17203 42670 70000 11036 21097 38913 48554 56007 84250 333 84840 87360;
0204172030999992000123012004+38860+040500FM-12+117799999V0209999C00001036001CN0200001N1-00141-00801999999ADDAA199000091GA1041+012009069GF108991041051012501021999MA1999999088931MD1710141+9999ME1315379REMSYN082AAXX  30124 17203 32670 80000 11014 21080 38893 48537 57014 8452/ 333 84640 88460;EQDQ01  00002PRCP99
0174172030999992000123015004+38860+040500FM-12+117799999V0209999C00001036001CN0200001N1-00271-00841999999ADDGA1041+012009069GF108991041051012501021999MA1999999088901MD1710091+9999ME1315329REMSYN082AAXX  30154 17203 42670 80000 11027 21084 38890 48532 57009 8452/ 333 84640 88460;
0223172030999992000123018004+38860+040500FM-12+117799999V0209999C00001036001CN0200001N1-00341-00691999999ADDAA199000091GA1041+012009069GF107991041051012501011001KA1120M-00081MA1999999088901MD1410001+9999ME1315319REMSYN088AAXX  30184 17203 32670 70000 11034 21069 38890 48531 54000 84510 333 11008 84640 87460;EQDQ01  00002PRCP99
0174172030999992000123021004+38860+040500FM-12+117799999V0209999C00001036001CN0200001N1-00301-00641999999ADDGA1041+012009069GF108991041051012501021999MA1999999088781MD1710121+9999ME1315239REMSYN082AAXX  30214 17203 42670 80000 11030 21064 38878 48523 57012 8452/ 333 84640 88460;
0204172030999992000123100004+38860+040500FM-12+117799999V0209999C00001036001CN0200001N1-00181-00611999999ADDAA199000091GA1041+012009069GF108991041051012501021999MA1999999088701MD1710081+9999ME1315189REMSYN082AAXX  31004 17203 32670 80000 11018 21061 38870 48518 57008 8452/ 333 84640 88460;EQDQ01  00002PRCP99
0202172030999992000123103004+38860+040500FM-12+117799999V0209999C000010108019N0080001N1-00201-00391999999ADDAY121031AY221031GA1051+010809069GF108991051051012501021999MA1999999088821MD1310121+9999ME1315289MW1611REMSYN088AAXX  31034 17203 41658 80000 11020 21039 38882 48528 53012 76122 8552/ 333 85636 88458;
0329172030999992000123106004+38860+040500FM-12+117799999V0209999C000010300019N0200001N1-00101-00221999999ADDAA112007191AJ100269199999999AL10600791AY171061AY221061GA1041+012009069GA2081+030009049GF108991041051012501021999IA1279IA2999-00509KA1120N-00421MA1999999088781MD1610041+9999ME1315259MW1221REMSYN130AAXX  31064 17203 11670 80000 11010 21022 38878 48525 56004 60072 72272 8452/ 333 21042 3/105 43026 55000 70070 84640 88460 93107;
0174172030999992000123109004+38860+040500FM-12+117799999V0209999C00001036001CN0200001N1+00001-00171999999ADDGA1041+012009069GF108991041051012501021999MA1999999088891MD1210111+9999ME1315369REMSYN082AAXX  31094 17203 42670 80000 10000 21017 38889 48536 52011 8452/ 333 84640 88460;
0185172030999992000123112004+38860+040500FM-12+117799999V0209999C00001036001CN0200001N1+00071-00171999999ADDAA199000021GA1041+012009069GF108991041051012501021999MA1999999088851MD1610041+9999ME1315339REMSYN082AAXX  31124 17203 32670 80000 10007 21017 38885 48533 56004 8452/ 333 84640 88460;
0174172030999992000123115004+38860+040500FM-12+117799999V0209999C00001036001CN0200001N1+00001-00171999999ADDGA1041+012009069GF108991041051012501021999MA1999999089001MD1310151+9999ME1315469REMSYN082AAXX  31154 17203 42670 80000 10000 21017 38900 48546 53015 8452/ 333 84640 88460;
0204172030999992000123118004+38860+040500FM-12+117799999V0209999C00001036001CN0200001N1+00001-00301999999ADDAA199000021GA1041+012009069GF108991041051012501021999KA1120M+00121MA1999999089081MD1210081+9999ME1315549REMSYN088AAXX  31184 17203 32670 80000 10000 21030 38908 48554 52008 8452/ 333 10012 84640 88460;
0174172030999992000123121004+38860+040500FM-12+117799999V0209999C00001036001CN0200001N1-00081-00361999999ADDGA1041+012009069GF108991041051012501021999MA1999999089201MD1210121+9999ME1315659REMSYN082AAXX  31214 17203 42670 80000 11008 21036 38920 48565 52012 8452/ 333 84640 88460;
