0140285880999992000010100004+55570+071370FM-12+012999999V0201401N007019999999N0060001N1-02521-02771102691ADDAY171061AY231061GF108991081001999999021999MD1710301+9999MW1711REMSYN066AAXX  01001 28588 41956 81407 11252 21277 40269 57030 77173 8802/;
0180285880999992000010106004+55570+071370FM-12+012999999V0201401N007019999999N0400001N1-02591-02911102611ADDAA100002091AY171061AY231061GF105991001001999999001021KA1999N-02621MD1310031+9999MW1361REMSYN082AAXX  01061 28588 11982 51407 11259 21291 40261 53003 60020 73673 80002 333 21262;
0170285880999992000010112004+55570+071370FM-12+012999999V0203601N003012200019N0500001N1+99999+99999102541ADDAA106000091AY131061AY211061GF102991001001999999001021MD1410001+9999MW1021REMSYN066AAXX  01121 28588 31984 23603 19275 21321 40254 54000 70231 80002;EQDQ01  00002PRCP06
0162285880999992000010118004+55570+071370FM-12+012999999V0203601N001012200019N0500001N1-02861-03161102751ADDAA100000791GA1001+999999999GF100991001001999999001001KA1999M-02521MD1310091+9999REMSYN070AAXX  01181 28588 12984 03601 11286 21316 40275 53009 69900 333 11252;
0122285880999992000010121004+55570+071370FM-12+012999999V0203601N001012200019N0500001N1-02961-03261102911ADDGA1001+999999999GF100991001001999999001001MD1210141+9999REMSYN054AAXX  01211 28588 42984 03601 11296 21326 40291 52014;
0112285880999992000010200004+55570+071370FM-12+012999999V0203601N003019999999N0500001N1-02831-03131103071ADDGF107991001001999999001021MD1210181+9999REMSYN060AAXX  02001 28588 42984 73603 11283 21313 40307 52018 80002;
0191285880999992000010206004+55570+071370FM-12+012999999V0203201N005012200019N0400001N1-03201-03571103631ADDAA106000091GA1001+999999999GF100991001001999999001001KA1999N+99999MD1210321+9999REMSYN064AAXX  02061 28588 32982 03205 11320 21357 40363 52032 333 21303;EQDQ01  00002PRCP06Q02 -03032ATMN  
0122285880999992000010212004+55570+071370FM-12+012999999V0203201N005012200019N0500001N1-03041-03411103961ADDGA1001+999999999GF100991001001999999001001MD1210231+9999REMSYN054AAXX  02121 28588 42984 03205 11304 21341 40396 52023;
0122285880999992000010221004+55570+071370FM-12+012999999V0203201N003012200019N0500001N1-03211-03641104321ADDGA1001+999999999GF100991001001999999001001MD1210061+9999REMSYN054AAXX  02211 28588 42984 03203 11321 21364 40432 52006;
0112285880999992000010300004+55570+071370FM-12+012999999V0203201N003019999999N0500001N1-03051-03411104351ADDGF108991081001999999021999MD1210041+9999REMSYN060AAXX  03001 28588 42984 83203 11305 21341 40435 52004 8802/;
0180285880999992000010306004+55570+071370FM-12+012999999V0202701N003019999999N0400001N1-02751-03131104351ADDAA100000791AY171061AY221061GF107991071001999999071001KA1999N-03261MD1810031+9999MW1021REMSYN082AAXX  03061 28588 11982 72703 11275 21313 40435 58003 69900 70272 87070 333 21326;
0112285880999992000010312004+55570+071370FM-12+012999999V0202301N001012200019N0500001N1-02731-03121104551ADDGF102991001001999999001011MD1210161+9999REMSYN060AAXX  03121 28588 42984 22301 11273 21312 40455 52016 80001;
0162285880999992000010318004+55570+071370FM-12+012999999V0201801N001012200019N0500001N1-03521-03871104821ADDAA100000891GA1001+999999999GF100991001001999999001001KA1999M-02501MD1210101+9999REMSYN070AAXX  03181 28588 12984 01801 11352 21387 40482 52010 69970 333 11250;
0122285880999992000010321004+55570+071370FM-12+012999999V0201401N001012200019N0500001N1-03561-03901104891ADDGA1001+999999999GF100991001001999999001001MD1210061+9999REMSYN054AAXX  03211 28588 42984 01401 11356 21390 40489 52006;
0112285880999992000010400004+55570+071370FM-12+012999999V0202101N001012200019N0500001N1-03251-03551104871ADDGF103991001001999999001021MD1210011+9999REMSYN060AAXX  04001 28588 42984 32101 11325 21355 40487 52001 80002;
0203285880999992000010406004+55570+071370FM-12+012999999V0201401N001012200019N0060001N1-02981-03281104771ADDAA106000091AY111061AY211061GA1001+999999999GF100991001001999999001001KA1999N-03591MD1810081+9999MW1101REMSYN070AAXX  04061 28588 31956 01401 11298 21328 40477 58008 71011 333 21359;EQDQ01  00002PRCP06
0140285880999992000010412004+55570+071370FM-12+012999999V0201801N001012200019N0090001N1-02721-03031104531ADDAY101061AY201061GF101991001001999999001011MD1710121+9999MW1101REMSYN066AAXX  04121 28588 41959 11801 11272 21303 40453 57012 71000 80001;
0112285880999992000010421004+55570+071370FM-12+012999999V0201601N003019999999N0500001N1-02561-02811103871ADDGF108991001001999999001071MD1710241+9999REMSYN060AAXX  04211 28588 42984 81603 11256 21281 40387 57024 80007;
0112285880999992000010500004+55570+071370FM-12+012999999V0201401N003019999999N0500001N1-02421-02661103551ADDGF108991081001999999021999MD1710291+9999REMSYN060AAXX  05001 28588 42984 81403 11242 21266 40355 57029 8802/;
0165285880999992000010506004+55570+071370FM-12+012999999V0201401N005019999999N0400001N1-02201-02521103011ADDAA106000091GF108991081001999999021999KA1999N-02921MD1710301+9999REMSYN070AAXX  05061 28588 32982 81405 11220 21252 40301 57030 8802/ 333 21292;EQDQ01  00002PRCP06
0140285880999992000010512004+55570+071370FM-12+012999999V0200901N007019999999N0500001N1-02041-02711102311ADDAY171061AY231061GF108991081001999999021999MD1710431+9999MW1361REMSYN066AAXX  05121 28588 41984 80907 11204 21271 40231 57043 73673 8802/;
0180285880999992000010518004+55570+071370FM-12+012999999V0201401N007019999999N0060001N1-02011-02421101881ADDAA100000791AY171061AY231061GF108991081001999999021999KA1999M-01951MD1710241+9999MW1711REMSYN082AAXX  05181 28588 11956 81407 11201 21242 40188 57024 69900 77173 8802/ 333 11195;
0140285880999992000010521004+55570+071370FM-12+012999999V0200901N005019999999N0060001N1-01991-02401101841ADDAY171031AY231031GF108991081001999999021999MD1710041+9999MW1711REMSYN066AAXX  05211 28588 41956 80905 11199 21240 40184 57004 77173 8802/;
0180285880999992000010606004+55570+071370FM-12+012999999V0209999C000019999999N0400001N1-02381-02771101931ADDAA100000591AY171061AY211061GF106991001001999999001021KA1999N-02411MD1310081+9999MW1221REMSYN082AAXX  06061 28588 11982 60000 11238 21277 40193 53008 69940 72271 80002 333 21241;
0122285880999992000010700004+55570+071370FM-12+012999999V0203201N001012200019N0500001N1-02731-03121102341ADDGA1001+999999999GF100991001001999999001001MD1210131+9999REMSYN054AAXX  07001 28588 42984 03201 11273 21312 40234 52013;
0165285880999992000010706004+55570+071370FM-12+012999999V0209999C000012200019N0400001N1-02691-03001102421ADDAA106000091GF101991001001999999001011KA1999N-03011MD1210031+9999REMSYN070AAXX  07061 28588 32982 10000 11269 21300 40242 52003 80001 333 21301;EQDQ01  00002PRCP06
0112285880999992000010712004+55570+071370FM-12+012999999V0200501N001012200019N0500001N1-02871-03181102451ADDGF102991001001999999001011MD1310031+9999REMSYN060AAXX  07121 28588 42984 20501 11287 21318 40245 53003 80001;
0165285880999992000010718004+55570+071370FM-12+012999999V0209999C000019999999N0500001N1-02411-02731102291ADDAA106000091GF108991081001999999021999KA1999M-02401MD1710101+9999REMSYN070AAXX  07181 28588 32984 80000 11241 21273 40229 57010 8802/ 333 11240;EQDQ01  00002PRCP06
0150285880999992000010721004+55570+071370FM-12+012999999V0200501N001012200019N0500001N1-02601-02911102261ADDAY171031AY211031GA1001+999999999GF100991001001999999001001MD1710041+9999MW1011REMSYN060AAXX  07211 28588 41984 00501 11260 21291 40226 57004 70171;
0150285880999992000010800004+55570+071370FM-12+012999999V0200501N001012200019N0500001N1-02771-03081102231ADDAY171061AY211061GA1001+999999999GF100991001001999999001001MD1710041+9999MW1021REMSYN060AAXX  08001 28588 41984 00501 11277 21308 40223 57004 70271;
0152285880999992000010806004+55570+071370FM-12+012999999V0200501N003019999999N0400001N1-02691-03071102081ADDAA100000591GF106991061001999999051001KA1999N-03851MD1710031+9999REMSYN076AAXX  08061 28588 12982 60503 11269 21307 40208 57003 69940 86050 333 21385;
0112285880999992000010812004+55570+071370FM-12+012999999V0203601N003019999999N0500001N1-02901-03271102221ADDGF106991061001999999051001MD1310121+9999REMSYN060AAXX  08121 28588 42984 63603 11290 21327 40222 53012 86050;
0175285880999992000010818004+55570+071370FM-12+012999999V0203201N001012200019N0500001N1-03051-03411102491ADDAA106000091GA1001+999999999GF100991001001999999001001KA1999M-02661MD1210141+9999REMSYN064AAXX  08181 28588 32984 03201 11305 21341 40249 52014 333 11266;EQDQ01  00002PRCP06
0122285880999992000010821004+55570+071370FM-12+012999999V0209999C000012200019N0500001N1-02971-03351102651ADDGA1001+999999999GF100991001001999999001001MD1210161+9999REMSYN054AAXX  08211 28588 42984 00000 11297 21335 40265 52016;
0112285880999992000010900004+55570+071370FM-12+012999999V0202301N001019999999N0500001N1-02761-03131102791ADDGF108991081001999999021999MD1210151+9999REMSYN060AAXX  09001 28588 42984 82301 11276 21313 40279 52015 8802/;
0140285880999992000010912004+55570+071370FM-12+012999999V0202001N005019999999N0500001N1-02201-02681102821ADDAY171061AY221061GF107991071001999999051001MD1710111+9999MW1021REMSYN066AAXX  09121 28588 41984 72005 11220 21268 40282 57011 70272 87050;
0199285880999992000010918004+55570+071370FM-12+012999999V0202301N007019999999N0060001N1-01581-01851102361ADDAA100000391AY171061AY231061GF108991081001999999021999KA1999M+99999MD1710261+9999MW1711REMSYN082AAXX  09181 28588 11956 82307 11158 21185 40236 57026 69930 77173 8802/ 333 11195;EQDQ01 -01952ATMX  
0140285880999992000010921004+55570+071370FM-12+012999999V0202301N005010075019N0060001N1-01331-01531102141ADDAY171031AY231031GF108991081001008001021999MD1710211+9999MW1711REMSYN066AAXX  09211 28588 41556 82305 11133 21153 40214 57021 77173 8802/;
0140285880999992000011000004+55570+071370FM-12+012999999V0202301N003019999999N0500001N1-01171-01371101871ADDAY171061AY231061GF106991061001999999051001MD1710251+9999MW1021REMSYN066AAXX  10001 28588 41984 62303 11117 21137 40187 57025 70273 86050;
0180285880999992000011006004+55570+071370FM-12+012999999V0202301N007019999999N0060001N1-00871-01161101501ADDAA100000791AY171061AY231061GF108991081001999999021999KA1999N-01961MD1710081+9999MW1711REMSYN082AAXX  10061 28588 11956 82307 11087 21116 40150 57008 69900 77173 8802/ 333 21196;
0140285880999992000011012004+55570+071370FM-12+012999999V0202301N007019999999N0090001N1-00871-01201101521ADDAY171061AY231061GF108991081001999999021999MD1310031+9999MW1711REMSYN066AAXX  10121 28588 41959 82307 11087 21120 40152 53003 77173 8802/;
0112285880999992000011021004+55570+071370FM-12+012999999V0202301N005019999999N0500001N1-00721-01011101471ADDGF108991081001999999021999MD1310081+9999REMSYN060AAXX  10211 28588 42984 82305 11072 21101 40147 53008 8802/;
0112285880999992000011100004+55570+071370FM-12+012999999V0202301N005019999999N0500001N1-00681-00971101371ADDGF108991081001999999021999MD1810101+9999REMSYN060AAXX  11001 28588 42984 82305 11068 21097 40137 58010 8802/;
0180285880999992000011106004+55570+071370FM-12+012999999V0202701N005019999999N0070001N1-00501-00601101321ADDAA100000791AY171061AY221061GF108991081001999999021999KA1999N-00801MD1410001+9999MW1711REMSYN082AAXX  11061 28588 11957 82705 11050 21060 40132 54000 69900 77172 8802/ 333 21080;
0180285880999992000011118004+55570+071370FM-12+012999999V0202301N003019999999N0090001N1-00431-00551101351ADDAA100000591AY171061AY221061GF108991081001999999021999KA1999M-00351MD1810051+9999MW1711REMSYN082AAXX  11181 28588 11959 82303 11043 21055 40135 58005 69940 77172 8802/ 333 11035;
0140285880999992000011121004+55570+071370FM-12+012999999V0202301N003010075019N0090001N1-00431-00551101291ADDAY171031AY221031GF108991081001008001021999MD1710061+9999MW1711REMSYN066AAXX  11211 28588 41559 82303 11043 21055 40129 57006 77172 8802/;
0140285880999992000011200004+55570+071370FM-12+012999999V0202301N003010075019N0500001N1-00441-00571101311ADDAY171061AY221061GF108991081001008001021999MD1310021+9999MW1021REMSYN066AAXX  12001 28588 41584 82303 11044 21057 40131 53002 70272 8802/;
0180285880999992000011206004+55570+071370FM-12+012999999V0202301N001019999999N0090001N1-00471-00531101241ADDAA100000791AY171061AY221061GF108991081001999999021999KA1999N-00511MD1310011+9999MW1221REMSYN082AAXX  12061 28588 11959 82301 11047 21053 40124 53001 69900 72272 8802/ 333 21051;
0140285880999992000011212004+55570+071370FM-12+012999999V0202701N001019999999N0090001N1-00491-00591101331ADDAY171061AY221061GF106991061001999999051001MD1210081+9999MW1101REMSYN066AAXX  12121 28588 41959 62701 11049 21059 40133 52008 71072 86050;
0112285880999992000011221004+55570+071370FM-12+012999999V0202301N001010300019N0500001N1-00461-00811101501ADDGF107991041071012501071001MD1210021+9999REMSYN060AAXX  12211 28588 42684 72301 11046 21081 40150 52002 84770;
0112285880999992000011300004+55570+071370FM-12+012999999V0202301N001019999999N0500001N1-00591-00941101551ADDGF107991071001999999071001MD1210041+9999REMSYN060AAXX  13001 28588 42984 72301 11059 21094 40155 52004 87070;
0140285880999992000011312004+55570+071370FM-12+012999999V0202301N001019999999N0500001N1-00761-00941101871ADDAY171061AY221061GF107991071001999999031001MD1310071+9999MW1021REMSYN066AAXX  13121 28588 11984 72301 11076 21094 40187 53007 70272 87030;
0190285880999992000011318004+55570+071370FM-12+012999999V0202301N001012200019N0090001N1-01181-01311101911ADDAA100000191AY171061AY211061GA1001+999999999GF100991001001999999001001KA1999M-00541MD1810031+9999MW1101REMSYN076AAXX  13181 28588 11959 02301 11118 21131 40191 58003 69920 71071 333 11054;
0160285880999992000011321004+55570+071370FM-12+012999999V0202301N001012200019N0090001N1-00951-01071101831ADDAY111031AY211031GA1001+999999999GF100991001001999999001001MD1710061+9999MW1101REMSYN070    AAXX  13211 28588 41959 02301 11095 21107 40183 57006 71011 8802/;
0144285880999992000011400004+55570+071370FM-12+012999999V0202301N001019999999N0080001N1-00851-00921101621ADDAY111061AY211061GF108991081001999999021999MD1710201+9999MW1101REMSYN070    AAXX  14001 28588 41958 82301 11085 21092 40162 57020 71011 8802/;
0184285880999992000011406004+55570+071370FM-12+012999999V0201801N007019999999N0070001N1-00661-00981100981ADDAA100000791AY171061AY231061GF108991081001999999021999KA1999N-01221MD1710301+9999MW1711REMSYN086    AAXX  14061 28588 11957 81807 11066 21098 40098 57030 69900 77173 8802/ 333 21122;
0144285880999992000011412004+55570+071370FM-12+012999999V0202301N005019999999N0070001N1-00651-00931100381ADDAY171061AY231061GF107991071001999999071001MD1710181+9999MW1711REMSYN070    AAXX  14121 28588 41957 72305 11065 21093 40038 57018 77173 87070;
0203285880999992000011418004+55570+071370FM-12+012999999V0202301N007010075019N0060001N1-00221-00471100221ADDAA100001091AY171061AY231061GF108991081001008001021999KA1999M+99999MD1710021+9999MW1711REMSYN086    AAXX  14181 28588 11556 82307 11022 21047 40022 57002 60010 77173 8802/ 333 11042;EQDQ01 -00422ATMX  
0144285880999992000011421004+55570+071370FM-12+012999999V0202701N009010075019N0500001N1-00181-00391100371ADDAY171031AY231031GF106991061051008001001001MD1310151+9999MW1361REMSYN070    AAXX  14211 28588 41584 62709 11018 21039 40037 53015 73673 86500;
0144285880999992000011500004+55570+071370FM-12+012999999V0202701N009010075019N0500001N1-00501-00741100501ADDAY171061AY231061GF106991061051008001001001MD1210121+9999MW1361REMSYN070    AAXX  15001 28588 41584 62709 11050 21074 40050 52012 73673 86500;
0194285880999992000011506004+55570+071370FM-12+012999999V0202701N007012200019N0400001N1-01351-01551101171ADDAA100000791AY131061AY211061GA1001+999999999GF100991001001999999001001KA1999N-01351MD1210251+9999MW1361REMSYN080    AAXX  15061 28588 11982 02707 11135 21155 40117 52025 69900 73631 333 21135;
0154285880999992000011512004+55570+071370FM-12+012999999V0203401N007012200019N0400001N1+99999+99999101791ADDAY131061AY211061GA1001+999999999GF100991001001999999001001MD1210311+9999MW1021REMSYN064    AAXX  15121 28588 41982 03407 19062 21309 40179 52031 70231;
0179285880999992000011518004+55570+071370FM-12+012999999V0203201N003012200019N0500001N1-02751-03211102571ADDAA199000091GA1001+999999999GF100991001001999999001001KA1999M-01341MD1210351+9999REMSYN068    AAXX  15181 28588 32984 03203 11275 21321 40257 52035 333 11134;EQDQ01  00002PRCP99
0126285880999992000011521004+55570+071370FM-12+012999999V0203201N005012200019N0500001N1-02851-03291102891ADDGA1001+999999999GF100991001001999999001001MD1210311+9999REMSYN058    AAXX  15211 28588 42984 03205 11285 21329 40289 52031;
0126285880999992000011600004+55570+071370FM-12+012999999V0202701N001012200019N0500001N1-02941-03391103131ADDGA1001+999999999GF100991001001999999001001MD1210221+9999REMSYN058    AAXX  16001 28588 42984 02701 11294 21339 40313 52022;
0169285880999992000011606004+55570+071370FM-12+012999999V0201801N001012200019N0280001N1-02841-03021103381ADDAA199000091GF102991001001999999001011KA1999N-03101MD1210031+9999REMSYN074    AAXX  16061 28588 32978 21801 11284 21302 40338 52003 80001 333 21310;EQDQ01  00002PRCP99
0144285880999992000011612004+55570+071370FM-12+012999999V0201801N001019999999N0090001N1-02441-02761103161ADDAY111061AY211061GF106991041001999999031021MD1710111+9999MW1101REMSYN070    AAXX  16121 28588 41959 61801 11244 21276 40316 57011 71011 84032;
0177285880999992000011618004+55570+071370FM-12+012999999V0201601N005019999999N0500001N1-02161-02481102841ADDAA199000021AY111061AY281061GF107991071001999999071001KA1999M+99999MW1701REMSYN074    AAXX  16181 28588 32984 71605 11216 21248 40284 77018 87070 333 11232;EQDQ01 -02322ATMX  
0110285880999992000011621004+55570+071370FM-12+012999999V0201601N005019999999N0500001N1+99999+99999102571ADDGF107991071001999999051001MD1710261+9999REMSYN058    AAXX  16211 28588 42984 71605 21244 40257 57026 87050;
0116285880999992000011700004+55570+071370FM-12+012999999V0201801N003019999999N0500001N1-02111-02361102451ADDGF106991001001999999001011MD1710121+9999REMSYN064    AAXX  17001 28588 42984 61803 11211 21236 40245 57012 80001;
0184285880999992000011706004+55570+071370FM-12+012999999V0202301N005019999999N0400001N1-01641-01901102101ADDAA100000791AY171061AY221061GF108991081001999999011999KA1999N-02321MD1710131+9999MW1021REMSYN086    AAXX  17061 28588 11982 82305 11164 21190 40210 57013 69900 70272 8801/ 333 21232;
0144285880999992000011712004+55570+071370FM-12+012999999V0201801N003019999999N0400001N1-01081-01521101821ADDAY171061AY221061GF108991001001999999001071MD1710041+9999MW1021REMSYN070    AAXX  17121 28588 41982 81803 11108 21152 40182 57004 70272 80007;
0203285880999992000011718004+55570+071370FM-12+012999999V0202301N003019999999N0060001N1-00871-01111101681ADDAA100000791AY171061AY231061GF108991081001999999021999KA1999M+99999MD1710031+9999MW1711REMSYN086    AAXX  17181 28588 11956 82303 11087 21111 40168 57003 69900 77173 8802/ 333 11093;EQDQ01 -00932ATMX  
0144285880999992000011721004+55570+071370FM-12+012999999V0202301N001019999999N0060001N1-00951-01211101641ADDAY171031AY221031GF108991081001999999021999MD1710051+9999MW1711REMSYN070    AAXX  17211 28588 41956 82301 11095 21121 40164 57005 77172 8802/;
0144285880999992000011800004+55570+071370FM-12+012999999V0202301N001019999999N0060001N1-00951-01211101531ADDAY171061AY221061GF108991081001999999021999MD1710111+9999MW1711REMSYN070    AAXX  18001 28588 41956 82301 11095 21121 40153 57011 77172 8802/;
0184285880999992000011806004+55570+071370FM-12+012999999V0202301N003019999999N0070001N1-01101-01381101611ADDAA100000791AY171061AY221061GF108991081001999999021999KA1999N-01091MD1310111+9999MW1711REMSYN086    AAXX  18061 28588 11957 82303 11110 21138 40161 53011 69900 77172 8802/ 333 21109;
0144285880999992000011812004+55570+071370FM-12+012999999V0202301N003019999999N0060001N1-01031-01311101661ADDAY171061AY221061GF108991081001999999021999MD1810011+9999MW1711REMSYN070    AAXX  18121 28588 41956 82303 11103 21131 40166 58001 77172 8802/;
0126285880999992000011821004+55570+071370FM-12+012999999V0202301N003012200019N0500001N1-01301-01571101871ADDGA1001+999999999GF100991001001999999001001MD1210031+9999REMSYN058    AAXX  18211 28588 42984 02303 11130 21157 40187 52003;
0116285880999992000011900004+55570+071370FM-12+012999999V0202501N003019999999N0500001N1-01331-01601102071ADDGF108991081001999999011999MD1210191+9999REMSYN064    AAXX  19001 28588 42984 82503 11133 21160 40207 52019 8801/;
0213285880999992000011906004+55570+071370FM-12+012999999V0202001N003019999999N0060001N1-01551-01821102441ADDAA199000091AY121061AY221061GF106991001001999999001021KA1999N+99999MD1210141+9999MW1101REMSYN080    AAXX  19061 28588 31956 62003 11155 21182 40244 52014 71022 80002 333 21144;EQDQ01  00002PRCP99Q02 -01442ATMN  
0144285880999992000011912004+55570+071370FM-12+012999999V0202001N003019999999N0070001N1-00821-01011102551ADDAY171061AY221061GF108991081001999999021999MD1210121+9999MW1711REMSYN070    AAXX  19121 28588 41957 82003 11082 21101 40255 52012 77172 8802/;
0190285880999992000011918004+55570+071370FM-12+012999999V0202301N001012200019N0500001N1-01371-01501102781ADDAA100000591AY171061AY211061GA1001+999999999GF100991001001999999001001KA1999M-00781MD1210011+9999MW1021REMSYN076AAXX  19181 28588 11984 02301 11137 21150 40278 52001 69960 70271 333 11078;
0122285880999992000011921004+55570+071370FM-12+012999999V0209999C000012200019N0500001N1-01531-01661102681ADDGA1001+999999999GF100991001001999999001001MD1810111+9999REMSYN054AAXX  19211 28588 42984 00000 11153 21166 40268 58011;
0170285880999992000012000004+55570+071370FM-12+012999999V0201801N007019999999N0060001N1-01061-01341101952ADDAA199000021AY171061AY231061GF108991081001999999021999MD1210331+9999MW1711REMSYN066AAXX  10601 28588 31956 81807 11106 21134 40195 52033 77173 8802/;EQDQ01+101953APOSLP
0146285880999992000012006004+55570+071370FM-12+012999999V0201401N003019999999N0220001N1-01591-01721102401ADDAA199000021GF106991001001999999001021KA1999N-01871MD1810301+9999REMSYN070AAXX  20061 28588 32972 61403 11159 21172 40240 58030 80002 333 21187;
0140285880999992000012012004+55570+071370FM-12+012999999V0201401N005019999999N0080001N1-01121-01321102181ADDAY121061AY221061GF108991081001999999021999MD1710051+9999MW1101REMSYN066AAXX  20121 28588 41958 81405 11112 21132 40218 57005 71022 8802/;
0193285880999992000012018004+55570+071370FM-12+012999999V0201401N007019999999N0500001N1-01371-01571101761ADDAA199000091AY131061AY221061GF108991001001999999001071KA1999M-01111MD1710221+9999MW1361REMSYN076AAXX  20181 28588 31984 81407 11137 21157 40176 57022 73632 80007 333 11111;EQDQ01  00002PRCP99
0140285880999992000012021004+55570+071370FM-12+012999999V0201401N009019999999N0500001N1-01281-01481101581ADDAY131031AY221031GF108991001001999999001071MD1710161+9999MW1361REMSYN066AAXX  20211 28588 41984 81409 11128 21148 40158 57016 73632 80007;
0140285880999992000012100004+55570+071370FM-12+012999999V0201401N009019999999N0500001N1-01071-01271101541ADDAY131061AY221061GF108991001001999999001071MD1710031+9999MW1361REMSYN066AAXX  21001 28588 41984 81409 11107 21127 40154 57003 73632 80007;
0140285880999992000012112004+55570+071370FM-12+012999999V0201101N003019999999N0400001N1-01101-01541102311ADDAY171061AY231061GF106991001001999999001021MD1210191+9999MW1021REMSYN066AAXX  21121 28588 41982 61103 11110 21154 40231 52019 70273 80002;
0140285880999992000012121004+55570+071370FM-12+012999999V0201401N007019999999N0060001N1-01041-01171102151ADDAY171031AY231031GF108991081001999999021999MD1810171+9999MW1711REMSYN066AAXX  21211 28588 41956 81407 11104 21117 40215 58017 77173 8802/;
0140285880999992000012200004+55570+071370FM-12+012999999V0201401N007019999999N0500001N1-00801-00941102101ADDAY171061AY231061GF108991081001999999021999MD1710041+9999MW1361REMSYN066AAXX  22001 28588 41984 81407 11080 21094 40210 57004 73673 8802/;
0180285880999992000012206004+55570+071370FM-12+012999999V0201401N007019999999N0400001N1-00671-01091101901ADDAA100000791AY131061AY221061GF108991001001999999001021KA1999N-01401MD1710081+9999MW1361REMSYN082AAXX  22061 28588 11982 81407 11067 21109 40190 57008 69900 73632 80002 333 21140;
0140285880999992000012212004+55570+071370FM-12+012999999V0201401N007019999999N0500001N1-00871-01361101921ADDAY131061AY221061GF107991071001999999071001MD1310011+9999MW1361REMSYN066AAXX  22121 28588 41984 71407 11087 21136 40192 53001 73632 87070;
0140285880999992000012221004+55570+071370FM-12+012999999V0201401N009019999999N0500001N1-00721-01411101851ADDAY131031AY221031GF108991001001999999001071MD1310041+9999MW1361REMSYN066AAXX  22211 28588 41984 81409 11072 21141 40185 53004 73632 80007;
0140285880999992000012300004+55570+071370FM-12+012999999V0201101N009019999999N0500001N1-00881-01601101801ADDAY131061AY221061GF108991001001999999001071MD1810051+9999MW1361REMSYN066AAXX  23001 28588 41984 81109 11088 21160 40180 58005 73632 80007;
0193285880999992000012306004+55570+071370FM-12+012999999V0201101N007019999999N0400001N1-01021-01751101721ADDAA199000091AY131061AY221061GF108991081001999999011999KA1999N-01061MD1710021+9999MW1361REMSYN076AAXX  23061 28588 31982 81107 11102 21175 40172 57002 73632 8801/ 333 21106;EQDQ01  00002PRCP99
0140285880999992000012312004+55570+071370FM-12+012999999V0201101N007019999999N0500001N1-01001-01361101841ADDAY171061AY231061GF108991081001999999021999MD1210091+9999MW1361REMSYN066AAXX  23121 28588 41984 81107 11100 21136 40184 52009 73673 8802/;
0180285880999992000012318004+55570+071370FM-12+012999999V0201401N005019999999N0090001N1-01071-01271101871ADDAA100001091AY171061AY231061GF108991081001999999021999KA1999M-00931MD1210021+9999MW1711REMSYN082AAXX  23181 28588 11959 81405 11107 21127 40187 52002 60010 77173 8802/ 333 11093;
0140285880999992000012321004+55570+071370FM-12+012999999V0201401N003010075019N0500001N1-01131-01331101861ADDAY171031AY221031GF108991081001008001021999MD1810031+9999MW1021REMSYN066AAXX  23211 28588 41584 81403 11113 21133 40186 58003 70272 8802/;
0140285880999992000012400004+55570+071370FM-12+012999999V0201401N003010075019N0500001N1-01151-01351101771ADDAY171061AY221061GF108991081001008001021999MD1710091+9999MW1021REMSYN066AAXX  24001 28588 41584 81403 11115 21135 40177 57009 70272 8802/;
0185285880999992000012406004+55570+071370FM-12+012999999V0201601N002012200019N0200001N1-01091-01291101711ADDAA100002091AY171061AY211061GF102991001001999999001021IA1099IA2999-03209MD1410001+9999MW1011REMSYN082AAXX  24061 28588 11970 21602 11109 21129 40171 54000 60020 70171 80002 333 31132;
0150285880999992000012412004+55570+071370FM-12+012999999V0201801N003012200019N0090001N1-01111-01391101841ADDAY101061AY201061GA1001+999999999GF100991001001999999001001MD1210121+9999MW1101REMSYN060AAXX  24121 28588 41959 01803 11111 21139 40184 52012 71000;
0112285880999992000012421004+55570+071370FM-12+012999999V0202301N003019999999N0500001N1-01361-01561102011ADDGF108991001001999999001071MD1810031+9999REMSYN060AAXX  24211 28588 42984 82303 11136 21156 40201 58003 80007;
0140285880999992000012500004+55570+071370FM-12+012999999V0202301N003019999999N0060001N1-01161-01361102041ADDAY171061AY221061GF108991081001999999021999MD1310041+9999MW1711REMSYN066AAXX  25001 28588 41956 82303 11116 21136 40204 53004 77172 8802/;
0180285880999992000012506004+55570+071370FM-12+012999999V0202301N007019999999N0070001N1-01341-01691102391ADDAA100000791AY171061AY231061GF108991081001999999021999KA1999N-01531MD1210221+9999MW1711REMSYN082AAXX  25061 28588 11957 82307 11134 21169 40239 52022 69900 77173 8802/ 333 21153;
0150285880999992000012512004+55570+071370FM-12+012999999V0202701N007012200019N0400001N1-01461-02071102921ADDAY171061AY231061GA1001+999999999GF100991001001999999001001MD1210321+9999MW1361REMSYN060AAXX  25121 28588 41982 02707 11146 21207 40292 52032 73673;
0190285880999992000012518004+55570+071370FM-12+012999999V0202701N003012200019N0500001N1-01991-02401103531ADDAA100000591AY131061AY201061GA1001+999999999GF100991001001999999001001KA1999M-01221MD1210261+9999MW1021REMSYN076AAXX  25181 28588 11984 02703 11199 21240 40353 52026 69960 70230 333 11122;
0122285880999992000012521004+55570+071370FM-12+012999999V0202301N003012200019N0500001N1-02151-02551103731ADDGA1001+999999999GF100991001001999999001001MD1210181+9999REMSYN054AAXX  25211 28588 42984 02303 11215 21255 40373 52018;
0122285880999992000012600004+55570+071370FM-12+012999999V0201901N002012200019N0500001N1-02251-02571103911ADDGA1001+999999999GF100991001001999999001001MD1210181+9999REMSYN054AAXX  26001 28588 42984 01902 11225 21257 40391 52018;
0165285880999992000012606004+55570+071370FM-12+012999999V0201801N003019999999N0230001N1-01921-02411104231ADDAA199000091GF108991001001999999001021KA1999N-02331MD1210141+9999REMSYN070AAXX  26061 28588 32973 81803 11192 21241 40423 52014 80002 333 21233;EQDQ01  00002PRCP99
0112285880999992000012612004+55570+071370FM-12+012999999V0201801N004019999999N0210001N1-01741-02241104231ADDGF108991001001999999001021MD1010031+9999REMSYN060AAXX  26121 28588 42971 81804 11174 21224 40423 50003 80002;
0122285880999992000012621004+55570+071370FM-12+012999999V0201601N003012200019N0500001N1-01781-02191103781ADDGA1001+999999999GF100991001001999999001001MD1710191+9999REMSYN054AAXX  26211 28588 42984 01603 11178 21219 40378 57019;
0122285880999992000012700004+55570+071370FM-12+012999999V0201501N005012200019N0500001N1-01761-02351103651ADDGA1001+999999999GF100991001001999999001001MD1710121+9999REMSYN054AAXX  27001 28588 42984 01505 11176 21235 40365 57012;
0165285880999992000012706004+55570+071370FM-12+012999999V0201301N006019999999N0400001N1-01491-02091103321ADDAA199000091GF107991001001999999001021KA1999N-01951MD1710071+9999REMSYN070AAXX  27061 28588 32982 71306 11149 21209 40332 57007 80002 333 21195;EQDQ01  00002PRCP99
0140285880999992000012712004+55570+071370FM-12+012999999V0201601N006019999999N0400001N1-01321+99999103001ADDAY131061AY221061GF107991001001999999001021MD1710111+9999MW1361REMSYN066AAXX  27121 28588 41982 71606 11132 20193 40300 57011 73632 80002;
0203285880999992000012718004+55570+071370FM-12+012999999V0201601N004012200019N0500001N1-01361-01881102871ADDAA199000091AY131061AY211061GA1001+999999999GF100991001001999999001001KA1999M-01091MD1710031+9999MW1021REMSYN070AAXX  27181 28588 31984 01604 11136 21188 40287 57003 70231 333 11109;EQDQ01  00002PRCP99
0122285880999992000012721004+55570+071370FM-12+012999999V0201701N005012200019N0500001N1-01351-01871102771ADDGA1001+999999999GF100991001001999999001001MD1710101+9999REMSYN054AAXX  27211 28588 42984 01705 11135 21187 40277 57010;
0122285880999992000012800004+55570+071370FM-12+012999999V0201801N003012200019N0500001N1-01461-01971102631ADDGA1001+999999999GF100991001001999999001001MD1710131+9999REMSYN054AAXX  28001 28588 42984 01803 11146 21197 40263 57013;
0165285880999992000012806004+55570+071370FM-12+012999999V0201601N004019999999N0400001N1-01361-01971102531ADDAA199000091GF106991001001999999001021KA1999N-01571MD1710061+9999REMSYN070AAXX  28061 28588 32982 61604 11136 21197 40253 57006 80002 333 21157;EQDQ01  00002PRCP99
0165285880999992000012818004+55570+071370FM-12+012999999V0201801N004019999999N0500001N1-01271-01791102091ADDAA199000091GF107991071001999999051001KA1999M-00981MD1710011+9999REMSYN070AAXX  28181 28588 32984 71804 11127 21179 40209 57001 87050 333 11098;EQDQ01  00002PRCP99
0140285880999992000012821004+55570+071370FM-12+012999999V0202101N003019999999N0060001N1-01201-01401102111ADDAY171031AY221031GF108991081001999999021999MD1310021+9999MW1711REMSYN066AAXX  28211 28588 41956 82103 11120 21140 40211 53002 77172 8802/;
0140285880999992000012900004+55570+071370FM-12+012999999V0202001N002019999999N0080001N1-01031-01231102221ADDAY171061AY221061GF108991081001999999021999MD1210121+9999MW1711REMSYN066AAXX  29001 28588 41958 82002 11103 21123 40222 52012 77172 8802/;
0180285880999992000012906004+55570+071370FM-12+012999999V0202301N001019999999N0290001N1-01031-01161102401ADDAA100003091AY171061AY221061GF108991081001999999011999KA1999N-01291MD1210031+9999MW1021REMSYN082AAXX  29061 28588 11979 82301 11103 21116 40240 52003 60030 70272 8801/ 333 21129;
0112285880999992000012912004+55570+071370FM-12+012999999V0203501N001012200019N0400001N1-01121-01251102541ADDGF103991021001999999031011MD1210041+9999REMSYN060AAXX  29121 28588 42982 33501 11112 21125 40254 52004 82031;
0181285880999992000012918004+55570+071370FM-12+012999999V0200201N001012200019N0500001N1-01701-01831102551ADDAA199000091GF102991001001999999001011KA1999N+99999MD1810051+9999REMSYN070AAXX  29181 28588 32984 20201 11170 21183 40255 58005 80001 333 21096;EQDQ01  00002PRCP99Q02 -00962ATMN  
0150285880999992000012921004+55570+071370FM-12+012999999V0203301N001012200019N0080001N1-01921-01981102511ADDAY101031AY201031GA1001+999999999GF100991001001999999001001MD1710071+9999MW1101REMSYN060AAXX  29211 28588 41958 03301 11192 21198 40251 57007 71000;
0150285880999992000013000004+55570+071370FM-12+012999999V0203301N001012200019N0060001N1-01931-01991102451ADDAY101061AY201061GA1001+999999999GF100991001001999999001001MD1710061+9999MW1101REMSYN060AAXX  30001 28588 41956 03301 11193 21199 40245 57006 71000;
0203285880999992000013006004+55570+071370FM-12+012999999V0202401N001012200019N0060001N1-01831-02021102321ADDAA199000091AY111061AY211061GA1001+999999999GF100991001001999999001001KA1999N-02121MD1710101+9999MW1101REMSYN070AAXX  30061 28588 31956 02401 11183 21202 40232 57010 71011 333 21212;EQDQ01  00002PRCP99
0112285880999992000013012004+55570+071370FM-12+012999999V0201901N003019999999N0280001N1-01381-01651102041ADDGF106991061001999999051001MD1710071+9999REMSYN060AAXX  30121 28588 42978 61903 11138 21165 40204 57007 86050;
0199285880999992000013018004+55570+071370FM-12+012999999V0202401N005019999999N0060001N1-01061-01261102011ADDAA100000791AY171061AY221061GF108991081001999999021999KA1999M+99999MD1810011+9999MW1711REMSYN082AAXX  30181 28588 11956 82405 11106 21126 40201 58001 69900 77172 8802/ 333 11127;EQDQ01 -01272ATMX  
0140285880999992000013021004+55570+071370FM-12+012999999V0202501N005019999999N0500001N1-00961-01171102041ADDAY171031AY221031GF108991081001999999021999MD1310031+9999MW1021REMSYN066AAXX  30211 28588 41984 82505 11096 21117 40204 53003 70272 8802/;
0159285880999992000013100004+55570+071370FM-12+012999999V0200701N006012200019N0500001N1-01061-01191102131ADDAY171061AY231061GF102991999001999999021999MD1210081+9999MW1361REMSYN066AAXX  31001 28588 41984 20706 11106 21119 40213 52008 73673 8802/;EQDQ01+000082SCOTLC
0190285880999992000013106004+55570+071370FM-12+012999999V0202701N004012200019N0210001N1-01011-01211102581ADDAA100000591AY171061AY211061GA1001+999999999GF100991001001999999001001KA1999N-01281MD1210261+9999MW1011REMSYN076AAXX  31061 28588 11971 02704 11101 21121 40258 52026 69940 70171 333 21128;
0122285880999992000013112004+55570+071370FM-12+012999999V0202501N003012200019N0230001N1-01191-01461102891ADDGA1001+999999999GF100991001001999999001001MD1210171+9999REMSYN054AAXX  31121 28588 42973 02503 11119 21146 40289 52017;
0150285880999992000013121004+55570+071370FM-12+012999999V0201901N002012200019N0080001N1-01761-01951103061ADDAY101031AY201031GA1001+999999999GF100991001001999999001001MD1210021+9999MW1101REMSYN060AAXX  31211 28588 41958 01902 11176 21195 40306 52002 71000;
0150285880999992000020100004+55570+071370FM-12+012999999V0202001N002012200019N0060001N1-01801-01921103021ADDAY101061AY201061GA1001+999999999GF100991001001999999001001MD1810041+9999MW1101REMSYN060AAXX  01001 28588 41956 02002 11180 21192 40302 58004 71000;
0193285880999992000020106004+55570+071370FM-12+012999999V0201901N003019999999N0060001N1-01211-01341102921ADDAA199000091AY111061AY211061GF108991081001999999021999KA1999N-01821MD1310011+9999MW1101REMSYN076AAXX  01061 28588 31956 81903 11121 21134 40292 53001 71011 8802/ 333 21182;EQDQ01  00002PRCP99
0140285880999992000020112004+55570+071370FM-12+012999999V0201801N003019999999N0060001N1-00911-00981102641ADDAY171061AY221061GF107991071001999999071001MD1710201+9999MW1101REMSYN066AAXX  01121 28588 41956 71803 11091 21098 40264 57020 71072 87070;
0180285880999992000020118004+55570+071370FM-12+012999999V0201901N003010075019N0090001N1-00671-00721102491ADDAA100000191AY121061AY221061GF108991081001008001021999KA1999M-00701MD1710081+9999MW1101REMSYN082AAXX  01181 28588 11559 81903 11067 21072 40249 57008 69920 71022 8802/ 333 11070;
0140285880999992000020121004+55570+071370FM-12+012999999V0202101N003010075019N0090001N1-00551-00591102431ADDAY121031AY221031GF108991081001008001021999MD1710061+9999MW1101REMSYN066AAXX  01211 28588 41559 82103 11055 21059 40243 57006 71022 8802/;
0140285880999992000020200004+55570+071370FM-12+012999999V0201801N004010075019N0080001N1-00581-00621102431ADDAY121061AY221061GF108991081001008001021999MD1410001+9999MW1101REMSYN066AAXX  02001 28588 41558 81804 11058 21062 40243 54000 71022 8802/;
0181285880999992000020206004+55570+071370FM-12+012999999V0201701N004012200019N0400001N1-00851-00961102271ADDAA199000091GF103991001001999999001021KA1999N+99999MD1710051+9999REMSYN070AAXX  02061 28588 32982 31704 11085 21096 40227 57005 80002 333 21071;EQDQ01  00002PRCP99Q02 -00712ATMN  
0112285880999992000020212004+55570+071370FM-12+012999999V0201501N004019999999N0350001N1-00891-01281101991ADDGF106991001001999999001021MD1710211+9999REMSYN060AAXX  02121 28588 42981 61504 11089 21128 40199 57021 80002;
0175285880999992000020218004+55570+071370FM-12+012999999V0201501N005012200019N0500001N1-01331-01531101881ADDAA199000091GA1001+999999999GF100991001001999999001001KA1999M-00561MD1810171+9999REMSYN064AAXX  02181 28588 32984 01505 11133 21153 40188 58017 333 11056;EQDQ01  00002PRCP99
0122285880999992000020221004+55570+071370FM-12+012999999V0201601N005012200019N0500001N1-01401-01601101701ADDGA1001+999999999GF100991001001999999001001MD1710181+9999REMSYN054AAXX  02211 28588 42984 01605 11140 21160 40170 57018;
0122285880999992000020300004+55570+071370FM-12+012999999V0201601N005012200019N0500001N1-01561-01751101561ADDGA1001+999999999GF100991001001999999001001MD1710141+9999REMSYN054AAXX  03001 28588 42984 01605 11156 21175 40156 57014;
0165285880999992000020306004+55570+071370FM-12+012999999V0201401N006019999999N0220001N1-01611-01741101231ADDAA199000091GF106991001001999999001021KA1999N-01651MD1710201+9999REMSYN070AAXX  03061 28588 32972 61406 11161 21174 40123 57020 80002 333 21165;EQDQ01  00002PRCP99
0140285880999992000020312004+55570+071370FM-12+012999999V0201401N004019999999N0060001N1-01461-01591101061ADDAY171061AY221061GF108991081001999999021999MD1710011+9999MW1711REMSYN066AAXX  03121 28588 41956 81404 11146 21159 40106 57001 77172 8802/;
0180285880999992000020318004+55570+071370FM-12+012999999V0201401N003019999999N0060001N1-01541-01671101121ADDAA100000591AY171061AY221061GF108991081001999999021999KA1999M-01381MD1810071+9999MW1711REMSYN082AAXX  03181 28588 11956 81403 11154 21167 40112 58007 69950 77172 8802/ 333 11138;
0140285880999992000020321004+55570+071370FM-12+012999999V0201301N003019999999N0070001N1-01411-01471101061ADDAY171031AY221031GF108991081001999999021999MD1710041+9999MW1711REMSYN066AAXX  03211 28588 41957 81303 11141 21147 40106 57004 77172 8802/;
0140285880999992000020400004+55570+071370FM-12+012999999V0201301N004019999999N0070001N1-01401-01461101081ADDAY171061AY221061GF108991081001999999021999MD1310021+9999MW1711REMSYN066AAXX  04001 28588 41957 81304 11140 21146 40108 53002 77172 8802/;
0157285880999992000020406004+55570+071370FM-12+012999999V0201901N005019999999N0400001N1-01221-01421101081ADDAA100000791AY171061AY221061GF106991061001999999051001MD1810171+9999MW1021REMSYN072AAXX  04061 28588 11982 61905 11122 21142 40108 58017 69900 70272 86050;
0140285880999992000020412004+55570+071370FM-12+012999999V0201601N007019999999N0060001N1-00681-00971100661ADDAY171061AY231061GF108991081001999999021999MD1710231+9999MW1711REMSYN066AAXX  04121 28588 41956 81607 11068 21097 40066 57023 77173 8802/;
0222285880999992000020418004+55570+071370FM-12+012999999V0202001N008019999999N0060001N1-00121-00221099971ADDAA100000791AY171061AY231061GF108991081001999999021999KA1120M+99999MD1710291+9999MW1711OA140101301REMSYN094AAXX  04181 28588 11956 82008 11012 21022 49997 57029 69900 77173 8802/ 333 11030 91013 91113;EQDQ01 -00302ATMX  
0191285880999992000020421004+55570+071370FM-12+012999999V0202101N999999999999N0060001N1-00121+99999999999ADDAY171031AY231031GF105991999001999999021999MD1310041+9999MW1711REMSYN066AAXX  04211 28588 41956 52197 11012 21011 40102 53004 77173 8802/;EQDQ01+009701WOSPD Q02+000082SCOTLCQ03+101023APOSLP
0146285880999992000020500004+55570+071370FM-12+012999999V0202501N006019999999N0060001N1-00011-00071100371ADDAY171061AY231061GF108991081001999999021999MD1210351+9999MW1711REMSYN072AAXX  05001 28588 41956 82506 11001 21007 40037 52035 77173 8802/ 93701;
0180285880999992000020506004+55570+071370FM-12+012999999V0202301N004010300019N0060001N1-00191-00401100871ADDAA100001091AY171061AY221061GF107991021011008001071001KA1999N-00301MD1210211+9999MW1711REMSYN082AAXX  05061 28588 11556 72304 11019 21040 40087 52021 60010 77172 82170 333 21030;
0140285880999992000020512004+55570+071370FM-12+012999999V0202401N004019999999N0250001N1-00211-00601101021ADDAY171061AY221061GF107991071001999999071001MD1410001+9999MW1021REMSYN066AAXX  05121 28588 41975 72404 11021 21060 40102 54000 70272 87070;
0140285880999992000020521004+55570+071370FM-12+012999999V0202101N003019999999N0500001N1-00281-00441100871ADDAY171031AY221031GF108991081001999999021999MD1710041+9999MW1021REMSYN066AAXX  05211 28588 41984 82103 11028 21044 40087 57004 70272 8802/;
0140285880999992000020600004+55570+071370FM-12+012999999V0202601N004010075019N0500001N1-00321-00631100921ADDAY171061AY221061GF107991071051008001001001MD1310051+9999MW1021REMSYN066AAXX  06001 28588 41584 72604 11032 21063 40092 53005 70272 87500;
0209285880999992000020606004+55570+071370FM-12+012999999V0203001N005019999999N0400001N1-00871-01301101491ADDAA199000091AY131061AY221061GF106991001001999999001011KA1999N+99999MD1210431+9999MW1361REMSYN076AAXX  06061 28588 31982 63005 11087 21130 40149 52043 73632 80001 333 21052;EQDQ01  00002PRCP99Q02 -00522ATMN  
0150285880999992000020612004+55570+071370FM-12+012999999V0203001N002012200019N0400001N1-00941-01631102021ADDAY131061AY211061GA1001+999999999GF100991001001999999001001MD1210241+9999MW1021REMSYN060AAXX  06121 28588 41982 03002 11094 21163 40202 52024 70231;
0175285880999992000020618004+55570+071370FM-12+012999999V0202601N003012200019N0500001N1-01801-02061102581ADDAA199000091GA1001+999999999GF100991001001999999001001KA1999M-00511MD1210231+9999REMSYN064AAXX  06181 28588 32984 02603 11180 21206 40258 52023 333 11051;EQDQ01  00002PRCP99
0122285880999992000020621004+55570+071370FM-12+012999999V0201901N002012200019N0500001N1-01961-02221102701ADDGA1001+999999999GF100991001001999999001001MD1210091+9999REMSYN054AAXX  06211 28588 42984 01902 11196 21222 40270 52009;
0122285880999992000020700004+55570+071370FM-12+012999999V0202501N001012200019N0500001N1-01881-02141102771ADDGA1001+999999999GF100991001001999999001001MD1210091+9999REMSYN054AAXX  07001 28588 42984 02501 11188 21214 40277 52009;
0193285880999992000020706004+55570+071370FM-12+012999999V0201801N003012200019N0060001N1-01681-02021102761ADDAA199000091AY101061AY201061GF102991001001999999001021KA1999N-02101MD1810031+9999MW1101REMSYN076AAXX  07061 28588 31956 21803 11168 21202 40276 58003 71000 80002 333 21210;EQDQ01  00002PRCP99
0112285880999992000020712004+55570+071370FM-12+012999999V0201601N002019999999N0400001N1-01411-01921102491ADDGF108991001001999999001021MD1710161+9999REMSYN060AAXX  07121 28588 42982 81602 11141 21192 40249 57016 80002;
0193285880999992000020718004+55570+071370FM-12+012999999V0201501N004019999999N0500001N1-01511-01701102331ADDAA199000091AY171061AY211061GF108991001001999999001021KA1999M-01191MD1710131+9999MW1031REMSYN076AAXX  07181 28588 31984 81504 11151 21170 40233 57013 70371 80002 333 11119;EQDQ01  00002PRCP99
0112285880999992000020721004+55570+071370FM-12+012999999V0201401N003019999999N0500001N1-01771-01961102251ADDGF108991001001999999001021MD1710101+9999REMSYN060AAXX  07211 28588 42984 81403 11177 21196 40225 57010 80002;
0147285880999992000020800004+55570+071370FM-12+012999999V0201001N002019999999N0500001N1+99999+99999102111ADDGF108991001001999999001021MD1710141+9999REMSYN060AAXX  08001 28588 42984 81002 11742 21193 40211 57014 80002;EQDQ01-007423ATOT  Q02 -07423ATOT  
0180285880999992000020806004+55570+071370FM-12+012999999V0200401N003019999999N0060001N1-01331-01531101761ADDAA100000591AY171061AY221061GF108991081001999999021999KA1999N-01881MD1710171+9999MW1711REMSYN082AAXX  08061 28588 /1956 80403 11133 21153 40176 57017 69960 77172 8802/ 333 21188;
0140285880999992000020812004+55570+071370FM-12+012999999V0203201N002012200019N0080001N1-01221-01421101551ADDAY171061AY211061GF102991999999999999999999MD1710051+9999MW1101REMSYN066AAXX  08121 28588 41958 23202 11122 21142 40155 57005 71071 92080;
0152285880999992000020818004+55570+071370FM-12+012999999V0203301N002012200019N0500001N1-01711-01971101601ADDAA100003091GF102991001001999999001011KA1999M-01051MD1810021+9999REMSYN076AAXX  08181 28588 12984 23302 11171 21197 40160 58002 60030 80001 333 11105;
0122285880999992000020821004+55570+071370FM-12+012999999V0203301N002012200019N0500001N1-01961-02291101701ADDGA1001+999999999GF100991001001999999001001MD1310081+9999REMSYN054AAXX  08211 28588 42984 03302 11196 21229 40170 53008;
0122285880999992000020900004+55570+071370FM-12+012999999V0203401N003012200019N0500001N1-02021-02351101721ADDGA1001+999999999GF100991001001999999001001MD1210021+9999REMSYN054AAXX  09001 28588 42984 03403 11202 21235 40172 52002;
0152285880999992000020906004+55570+071370FM-12+012999999V0202501N002012200019N0210001N1-01931-02191101881ADDAA199000091GA1001+999999999GF100991001001999999001001MD1210011+9999REMSYN054AAXX  09061 28588 32971 02502 11193 21219 40188 52001;EQDQ01  00002PRCP99
0122285880999992000020912004+55570+071370FM-12+012999999V0202401N001012200019N0400001N1-01461-01891102001ADDGA1001+999999999GF100991001001999999001001MD1210091+9999REMSYN054AAXX  09121 28588 42982 02401 11146 21189 40200 52009;
0175285880999992000020918004+55570+071370FM-12+012999999V0201901N001012200019N0500001N1-02121-02371102361ADDAA199000091GA1001+999999999GF100991001001999999001001KA1999M-01451MD1210121+9999REMSYN064AAXX  09181 28588 32984 01901 11212 21237 40236 52012 333 11145;EQDQ01  00002PRCP99
0122285880999992000020921004+55570+071370FM-12+012999999V0202101N002012200019N0500001N1-02101-02351102431ADDGA1001+999999999GF100991001001999999001001MD1210081+9999REMSYN054AAXX  09211 28588 42984 02102 11210 21235 40243 52008;
0150285880999992000021000004+55570+071370FM-12+012999999V0202101N001012200019N0090001N1-02131-02381102501ADDAY101061AY201061GA1001+999999999GF100991001001999999001001MD1210061+9999MW1101REMSYN060AAXX  10001 28588 41959 02101 11213 21238 40250 52006 71000;
0190285880999992000021006004+55570+071370FM-12+012999999V0202001N003012200019N0130001N1-01801-02061102681ADDAA100000791AY171061AY211061GA1001+999999999GF100991001001999999001001KA1999N-02171MD1210051+9999MW1011REMSYN076AAXX  10061 28588 11963 02003 11180 21206 40268 52005 69900 70171 333 21217;
0122285880999992000021012004+55570+071370FM-12+012999999V0201901N003012200019N0200001N1-01511-01931102771ADDGA1001+999999999GF100991001001999999001001MD1210051+9999REMSYN054AAXX  10121 28588 42970 01903 11151 21193 40277 52005;
0112285880999992000021021004+55570+071370FM-12+012999999V0202101N002010075019N0500001N1-01421-01691102681ADDGF107991071051008001001001MD1710061+9999REMSYN060AAXX  10211 28588 42584 72102 11142 21169 40268 57006 87500;
0112285880999992000021100004+55570+071370FM-12+012999999V0201601N003019999999N0500001N1-01341-01611102591ADDGF108991081001999999021999MD1710081+9999REMSYN060AAXX  11001 28588 42984 81603 11134 21161 40259 57008 8802/;
0180285880999992000021106004+55570+071370FM-12+012999999V0201601N004019999999N0080001N1-01131-01411102561ADDAA100000791AY171061AY221061GF107991071001999999071001KA1999N-01751MD1310071+9999MW1711REMSYN082AAXX  11061 28588 11958 71604 11113 21141 40256 53007 69900 77172 87070 333 21175;
0140285880999992000021112004+55570+071370FM-12+012999999V0201401N005019999999N0070001N1-00971-01281102371ADDAY171061AY231061GF107991071001999999071001MD1710121+9999MW1711REMSYN066AAXX  11121 28588 41957 71405 11097 21128 40237 57012 77173 87070;
0174285880999992000021118004+55570+071370FM-12+012999999V0201301N004019999999N0060001N1-00971-01231102201ADDAA100000591AY171061AY231061GF108991999999008001999999KA1999M-00871MD1710111+9999MW1711REMSYN076AAXX  11181 28588 11556 81304 11097 21123 40220 57011 69960 77173 333 11087;
0140285880999992000021121004+55570+071370FM-12+012999999V0201201N003010075019N0060001N1-00861-01101102141ADDAY171031AY221031GF108991081001008001021999MD1710051+9999MW1711REMSYN066AAXX  11211 28588 41556 81203 11086 21110 40214 57005 77172 8802/;
0140285880999992000021200004+55570+071370FM-12+012999999V0201501N003010075019N0050001N1-00701-00831101981ADDAY171061AY221061GF108991081001008001021999MD1710141+9999MW1711REMSYN066AAXX  12001 28588 41550 81503 11070 21083 40198 57014 77172 8802/;
0199285880999992000021206004+55570+071370FM-12+012999999V0201401N003010075019N0080001N1-00351-00401101821ADDAA100000591AY171061AY221061GF108991081001008001021999KA1999M+99999MD1710101+9999MW1711REMSYN082AAXX  12061 28588 11558 81403 11035 21040 40182 57010 69960 77172 8802/ 333 11103;EQDQ01 -01032ATMX  
0140285880999992000021212004+55570+071370FM-12+012999999V0201201N004010075019N0280001N1-00271-00431101691ADDAY171061AY221061GF108991081001008001021999MD1710081+9999MW1711REMSYN066AAXX  12121 28588 41578 81204 11027 21043 40169 57008 77172 8802/;
0180285880999992000021218004+55570+071370FM-12+012999999V0201501N004019999999N0060001N1-00311-00481101441ADDAA100000591AY171061AY221061GF108991081001999999021999KA1999M-00221MD1710121+9999MW1711REMSYN082AAXX  12181 28588 11956 81504 11031 21048 40144 57012 69960 77172 8802/ 333 11022;
0140285880999992000021300004+55570+071370FM-12+012999999V0202401N006012200019N0500001N1-00071-00421101071ADDAY171061AY231061GF103991001001999999001011MD1710061+9999MW1361REMSYN066AAXX  13001 28588 41984 32406 11007 21042 40107 57006 73673 80001;
0180285880999992000021306004+55570+071370FM-12+012999999V0202101N004019999999N0060001N1-00171-00381101011ADDAA100002091AY171061AY231061GF107991071001999999071001KA1999N-00351MD1810081+9999MW1711REMSYN082AAXX  13061 28588 11956 72104 11017 21038 40101 58008 60020 77173 87070 333 21035;
0140285880999992000021312004+55570+071370FM-12+012999999V0202401N006010075019N0060001N1-00191-00431101131ADDAY171061AY231061GF108991081001008001021999MD1310121+9999MW1711REMSYN066AAXX  13121 28588 41556 82406 11019 21043 40113 53012 77173 8802/;
0180285880999992000021318004+55570+071370FM-12+012999999V0202601N005010075019N0060001N1-00571-00871101461ADDAA100000191AY171061AY231061GF108991081001008001021999KA1999M-00081MD1210181+9999MW1711REMSYN082AAXX  13181 28588 11556 82605 11057 21087 40146 52018 69920 77173 8802/ 333 11008;
0140285880999992000021321004+55570+071370FM-12+012999999V0202601N004010075019N0060001N1-00661-00901101561ADDAY171031AY231031GF108991081001008001021999MD1210101+9999MW1711REMSYN066AAXX  13211 28588 41556 82604 11066 21090 40156 52010 77173 8802/;
0140285880999992000021400004+55570+071370FM-12+012999999V0202601N004010075019N0500001N1-00631-00861101581ADDAY171061AY231061GF108991081001008001021999MD1210011+9999MW1021REMSYN066AAXX  14001 28588 41584 82604 11063 21086 40158 52001 70273 8802/;
0180285880999992000021406004+55570+071370FM-12+012999999V0201901N003019999999N0060001N1-00621-00891101631ADDAA100000791AY171061AY221061GF108991081001999999021999KA1999N-00671MD1210011+9999MW1711REMSYN082AAXX  14061 28588 11956 81903 11062 21089 40163 52001 69900 77172 8802/ 333 21067;
0140285880999992000021412004+55570+071370FM-12+012999999V0202301N002019999999N0220001N1-00471-00781101541ADDAY171061AY221061GF107991071001999999071001MD1710031+9999MW1021REMSYN066AAXX  14121 28588 41972 72302 11047 21078 40154 57003 70272 87070;
0199285880999992000021418004+55570+071370FM-12+012999999V0201101N001019999999N0060001N1+00531-00671101411ADDAA100000791AY171061AY221061GF108991081001999999021999KA1999M+99999MD1710071+9999MW1711REMSYN082AAXX  14181 28588 11956 81101 10053 21067 40141 57007 69900 77172 8802/ 333 11045;EQDQ01 -00452ATMX  
0140285880999992000021421004+55570+071370FM-12+012999999V0201101N002019999999N0060001N1-00551-00661101311ADDAY171031AY221031GF108991081001999999021999MD1710111+9999MW1711REMSYN066AAXX  14211 28588 41956 81102 11055 21066 40131 57011 77172 8802/;
0140285880999992000021500004+55570+071370FM-12+012999999V0201301N002019999999N0060001N1-00591-00661101191ADDAY171061AY221061GF108991081001999999021999MD1710121+9999MW1711REMSYN066AAXX  15001 28588 41956 81302 11059 21066 40119 57012 77172 8802/;
0180285880999992000021506004+55570+071370FM-12+012999999V0201901N003019999999N0035001N1-00551-00701101021ADDAA100002091AY171061AY221061GF108991081001999999011999KA1999N-00731MD1710081+9999MW1711REMSYN082AAXX  15061 28588 11935 81903 11055 21070 40102 57008 60020 77172 8801/ 333 21073;
0140285880999992000021512004+55570+071370FM-12+012999999V0202801N004010075019N0210001N1-00451-00761101091ADDAY181061AY271061GF107991071091008001001001MD1310091+9999MW1251REMSYN066AAXX  15121 28588 41571 72804 11045 21076 40109 53009 72587 87900;
0180285880999992000021518004+55570+071370FM-12+012999999V0202801N004019999999N0060001N1-00581-00801101421ADDAA100001091AY171061AY221061GF108991081001999999011999KA1999M-00401MD1210171+9999MW1711REMSYN082AAXX  15181 28588 11956 82804 11058 21080 40142 52017 60010 77172 8801/ 333 11040;
0140285880999992000021521004+55570+071370FM-12+012999999V0202801N003010300019N0500001N1-00591-00891101651ADDAY171031AY221031GF108991041071008001011999MD1210221+9999MW1021REMSYN066AAXX  15211 28588 41584 82803 11059 21089 40165 52022 70272 8471/;
0140285880999992000021600004+55570+071370FM-12+012999999V0202701N005019999999N0060001N1-00661-00941101781ADDAY171061AY231061GF108991081001999999021999MD1210131+9999MW1711REMSYN066AAXX  16001 28588 41956 82705 11066 21094 40178 52013 77173 8802/;
0140285880999992000021700004+55570+071370FM-12+012999999V0202001N004010075019N0060001N1-00871-01061102411ADDAY171061AY221061GF108991081001008001021999MD1710081+9999MW1711REMSYN066AAXX  17001 28588 41556 82004 11087 21106 40241 57008 77172 8802/;
0180285880999992000021706004+55570+071370FM-12+012999999V0202301N005019999999N0280001N1-00681-00971102361ADDAA100000591AY171061AY231061GF107991071001999999071001KA1999N-01071MD1410001+9999MW1361REMSYN082AAXX  17061 28588 11978 72305 11068 21097 40236 54000 69960 73673 87070 333 21107;
0140285880999992000021712004+55570+071370FM-12+012999999V0202201N004012200019N0400001N1-00721-01201102441ADDAY131061AY211061GF102991001001999999001021MD1210051+9999MW1021REMSYN066AAXX  17121 28588 41982 22204 11072 21120 40244 52005 70231 80002;
0152285880999992000021718004+55570+071370FM-12+012999999V0202101N003019999999N0500001N1-00831-01111102501ADDAA100000791GF108991001001999999001021KA1999M-00521MD1210051+9999REMSYN076AAXX  17181 28588 12984 82103 11083 21111 40250 52005 69900 80002 333 11052;
0140285880999992000021721004+55570+071370FM-12+012999999V0202201N004019999999N0050001N1-00701-00951102311ADDAY171031AY221031GF108991081001999999011999MD1810181+9999MW1711REMSYN066AAXX  17211 28588 41950 82204 11070 21095 40231 58018 77172 8801/;
0140285880999992000021800004+55570+071370FM-12+012999999V0202501N003019999999N0060001N1-00701-00911102291ADDAY171061AY221061GF108991081001999999011999MD1710021+9999MW1711REMSYN066AAXX  18001 28588 41956 82503 11070 21091 40229 57002 77172 8801/;
0180285880999992000021806004+55570+071370FM-12+012999999V0203001N002019999999N0280001N1-00811-00951102391ADDAA100000591AY171061AY221061GF108991001001999999001021KA1999N-01011MD1210041+9999MW1021REMSYN082AAXX  18061 28588 11978 83002 11081 21095 40239 52004 69940 70272 80002 333 21101;
0112285880999992000021812004+55570+071370FM-12+012999999V0202801N002019999999N0400001N1-00731-01031102541ADDGF105991001001999999001021MD1210111+9999REMSYN060AAXX  18121 28588 42982 52802 11073 21103 40254 52011 80002;
0140285880999992000021821004+55570+071370FM-12+012999999V0203101N003019999999N0060001N1-01031-01161102851ADDAY171031AY221031GF108991081001999999021999MD1210071+9999MW1711REMSYN066AAXX  18211 28588 41956 83103 11103 21116 40285 52007 77172 8802/;
0140285880999992000021900004+55570+071370FM-12+012999999V0203301N003019999999N0190001N1-01041-01171102911ADDAY171061AY221061GF107991071001999999071001MD1210061+9999MW1021REMSYN066AAXX  19001 28588 41969 73303 11104 21117 40291 52006 70272 87070;
0162285880999992000021906004+55570+071370FM-12+012999999V0203301N004012200019N0210001N1-01181-01381103211ADDAA100000791GA1001+999999999GF100991001001999999001001KA1999N-01721MD1210121+9999REMSYN070AAXX  19061 28588 12971 03304 11118 21138 40321 52012 69900 333 21172;
0150285880999992000021912004+55570+071370FM-12+012999999V0203201N004012200019N0400001N1-01011-01541103371ADDAY171061AY211061GA1001+999999999GF100991001001999999001001MD1210081+9999MW1011REMSYN060AAXX  19121 28588 41982 03204 11101 21154 40337 52008 70171;
0190285880999992000021918004+55570+071370FM-12+012999999V0203101N002012200019N0060001N1-01931-02051103641ADDAA100000791AY101061AY201061GA1001+999999999GF100991001001999999001001KA1999M-00951MD1210081+9999MW1101REMSYN076AAXX  19181 28588 11956 03102 11193 21205 40364 52008 69900 71000 333 11095;
0150285880999992000021921004+55570+071370FM-12+012999999V0202701N001012200019N0090001N1-02011-02131103641ADDAY101031AY201031GA1001+999999999GF100991001001999999001001MD1410001+9999MW1101REMSYN060AAXX  19211 28588 41959 02701 11201 21213 40364 54000 71000;
0103285880999992000022000004+55570+071370FM-12+012999999V0202201N001019999999N0050001N1-02011+99999999999ADDGF108991999999999999999999REMSYN065AAXX  20001 28588 41950 82201 11201 2122 40369 53005 71011 80007;
0193285880999992000022006004+55570+071370FM-12+012999999V0201901N003019999999N0140001N1-01621-01811103631ADDAA199000091AY141061AY221061GF107991071001999999071001KA1999N-02651MD1810071+9999MW1021REMSYN076AAXX  20061 28588 31964 71903 11162 21181 40363 58007 70242 87070 333 21265;EQDQ01  00002PRCP99
0140285880999992000022012004+55570+071370FM-12+012999999V0201901N004019999999N0110001N1-01061-01341103441ADDAY171061AY211061GF107991071001999999071001MD1710041+9999MW1221REMSYN066AAXX  20121 28588 41961 71904 11106 21134 40344 57004 72271 87070;
0171285880999992000022018004+55570+071370FM-12+012999999V0202301N003019999999N0500001N1-00981-01291103301ADDAA100000791GF106991061001999999051001KA1999M+99999MD1710111+9999REMSYN076AAXX  20181 28588 12984 62303 11098 21129 40330 57011 69900 86050 333 11106;EQDQ01 -01062ATMX  
0112285880999992000022021004+55570+071370FM-12+012999999V0202301N004019999999N0500001N1-01041-01481103361ADDGF106991001001999999001011MD1310061+9999REMSYN060AAXX  20211 28588 42984 62304 11104 21148 40336 53006 80001;
0122285880999992000022100004+55570+071370FM-12+012999999V0202301N003012200019N0500001N1-01281-01631103261ADDGA1001+999999999GF100991001001999999001001MD1810111+9999REMSYN054AAXX  21001 28588 42984 02303 11128 21163 40326 58011;
0165285880999992000022106004+55570+071370FM-12+012999999V0202601N005019999999N0400001N1-00981-01391103401ADDAA199000091GF107991001001999999001021KA1999N-01301MD1310151+9999REMSYN070AAXX  21061 28588 32982 72605 11098 21139 40340 53015 80002 333 21130;EQDQ01  00002PRCP99
0112285880999992000022112004+55570+071370FM-12+012999999V0202501N004019999999N0400001N1-00651-01411103341ADDGF105991051001999999031001MD1310091+9999REMSYN060AAXX  21121 28588 42982 52504 11065 21141 40334 53009 85030;
0165285880999992000022118004+55570+071370FM-12+012999999V0202501N004019999999N0500001N1-00691-01261103451ADDAA199000091GF107991071001999999051001KA1999M-00551MD1210041+9999REMSYN070AAXX  21181 28588 32984 72504 11069 21126 40345 52004 87050 333 11055;EQDQ01  00002PRCP99
0112285880999992000022121004+55570+071370FM-12+012999999V0202401N003012200019N0500001N1-00711-01241103501ADDGF102991021001999999031001MD1210051+9999REMSYN060AAXX  21211 28588 42984 22403 11071 21124 40350 52005 82030;
0112285880999992000022200004+55570+071370FM-12+012999999V0202401N005012200019N0500001N1-00931-01441103551ADDGF101991011001999999031001MD1210021+9999REMSYN060AAXX  22001 28588 42984 12405 11093 21144 40355 52002 81030;
0165285880999992000022206004+55570+071370FM-12+012999999V0202401N003019999999N0400001N1-00871-01791103521ADDAA199000091GF105991001001999999001011KA1999N-01251MD1810021+9999REMSYN070AAXX  22061 28588 32982 52403 11087 21179 40352 58002 80001 333 21125;EQDQ01  00002PRCP99
0140285880999992000022212004+55570+071370FM-12+012999999V0202501N007019999999N0400001N1-00501-01891103471ADDAY131061AY221061GF106991001001999999001011MD1310031+9999MW1361REMSYN066AAXX  22121 28588 41982 62507 11050 21189 40347 53003 73632 80001;
0203285880999992000022218004+55570+071370FM-12+012999999V0202301N005012200019N0500001N1-00871-01651103581ADDAA199000091AY131061AY211061GA1001+999999999GF100991001001999999001001KA1999M-00471MD1810011+9999MW1021REMSYN070AAXX  22181 28588 31984 02305 11087 21165 40358 58001 70231 333 11047;EQDQ01  00002PRCP99
0112285880999992000022221004+55570+071370FM-12+012999999V0202201N004019999999N0500001N1-01131-01751103541ADDGF108991001001999999001021MD1710061+9999REMSYN060AAXX  22211 28588 42984 82204 11113 21175 40354 57006 80002;
0112285880999992000022300004+55570+071370FM-12+012999999V0202101N004019999999N0500001N1-01191-01811103521ADDGF106991001001999999001021MD1710021+9999REMSYN060AAXX  23001 28588 42984 62104 11119 21181 40352 57002 80002;
0165285880999992000022306004+55570+071370FM-12+012999999V0202301N004012200019N0400001N1-01011-01851103531ADDAA199000091GF102991001001999999001011KA1999N-01401MD1810011+9999REMSYN070AAXX  23061 28588 32982 22304 11101 21185 40353 58001 80001 333 21140;EQDQ01  00002PRCP99
0112285880999992000022312004+55570+071370FM-12+012999999V0201901N003012200019N0400001N1-00821-01771103481ADDGF102991001001999999001011MD1710011+9999REMSYN060AAXX  23121 28588 42982 21903 11082 21177 40348 57001 80001;
0159285880999992000022318004+55570+071370FM-12+012999999V0201201N003012200019N0500001N1-01381-01901999999ADDAA199000091GF102991001001999999001011KA1999M-00701MD1810061+9999REMSYN064AAXX  23181 28588 32984 21203 11138 21190 58006 80001 333 11070;EQDQ01  00002PRCP99
0122285880999992000022321004+55570+071370FM-12+012999999V0202101N002012200019N0500001N1-01551-01971103391ADDGA1001+999999999GF100991001001999999001001MD1710081+9999REMSYN054AAXX  23211 28588 42984 02102 11155 21197 40339 57008;
0122285880999992000022400004+55570+071370FM-12+012999999V0202001N003012200019N0500001N1-01641-02061103351ADDGA1001+999999999GF100991001001999999001001MD1710041+9999REMSYN054AAXX  24001 28588 42984 02003 11164 21206 40335 57004;
0175285880999992000022406004+55570+071370FM-12+012999999V0202301N004012200019N0400001N1-01061-02021103161ADDAA199000091GA1001+999999999GF100991001001999999001001KA1999N-01681MD1710091+9999REMSYN064AAXX  24061 28588 32982 02304 11106 21202 40316 57009 333 21168;EQDQ01  00002PRCP99
0122285880999992000022412004+55570+071370FM-12+012999999V0202001N004012200019N0400001N1-00591-01931102911ADDGA1001+999999999GF100991001001999999001001MD1710101+9999REMSYN054AAXX  24121 28588 42982 02004 11059 21193 40291 57010;
0175285880999992000022418004+55570+071370FM-12+012999999V0201901N004012200019N0500001N1-01141-01491102641ADDAA199000091GA1001+999999999GF100991001001999999001001KA1999M-00421MD1710171+9999REMSYN064AAXX  24181 28588 32984 01904 11114 21149 40264 57017 333 11042;EQDQ01  00002PRCP99
0112285880999992000022421004+55570+071370FM-12+012999999V0201901N004012200019N0500001N1-01291-01721102471ADDGF102991021001999999031001MD1710161+9999REMSYN060AAXX  24211 28588 42984 21904 11129 21172 40247 57016 82030;
0112285880999992000022500004+55570+071370FM-12+012999999V0201801N005012200019N0500001N1-01351-01781102271ADDGF102991001001999999001011MD1710221+9999REMSYN060AAXX  25001 28588 42984 21805 11135 21178 40227 57022 80001;
0165285880999992000022506004+55570+071370FM-12+012999999V0201801N005019999999N0280001N1-00971-01611101911ADDAA199000091GF107991071001999999051001KA1999N-01421MD1710151+9999REMSYN070AAXX  25061 28588 32978 71805 11097 21161 40191 57015 87050 333 21142;EQDQ01  00002PRCP99
0112285880999992000022512004+55570+071370FM-12+012999999V0201801N004019999999N0290001N1-00601-01131101701ADDGF108991081001999999021999MD1710071+9999REMSYN060AAXX  25121 28588 42979 81804 11060 21113 40170 57007 8802/;
0175285880999992000022518004+55570+071370FM-12+012999999V0202001N003012200019N0500001N1-00871-01111101571ADDAA199000091GA1001+999999999GF100991001001999999001001KA1999M-00601MD1710081+9999REMSYN064AAXX  25181 28588 32984 02003 11087 21111 40157 57008 333 11060;EQDQ01  00002PRCP99
0150285880999992000022521004+55570+071370FM-12+012999999V0202301N003012200019N0090001N1-01201-01331101481ADDAY101031AY201031GA1001+999999999GF100991001001999999001001MD1710121+9999MW1101REMSYN060AAXX  25211 28588 41959 02303 11120 21133 40148 57012 71000;
0150285880999992000022600004+55570+071370FM-12+012999999V0202001N003012200019N0060001N1-01421-01621101421ADDAY101061AY201061GA1001+999999999GF100991001001999999001001MD1710071+9999MW1101REMSYN060AAXX  26001 28588 41956 02003 11142 21162 40142 57007 71000;
0165285880999992000022606004+55570+071370FM-12+012999999V0202101N004012200019N0400001N1-01181-01531101241ADDAA199000091GF102991001001999999001011KA1999N-01501MD1710051+9999REMSYN070AAXX  26061 28588 32982 22104 11118 21153 40124 57005 80001 333 21150;EQDQ01  00002PRCP99
0122285880999992000022612004+55570+071370FM-12+012999999V0202001N004012200019N0400001N1-00911-01651101121ADDGA1001+999999999GF100991001001999999001001MD1310041+9999REMSYN054AAXX  26121 28588 42982 02004 11091 21165 40112 53004;
0175285880999992000022618004+55570+071370FM-12+012999999V0202301N003012200019N0500001N1-01401-01751101221ADDAA199000091GA1001+999999999GF100991001001999999001001KA1999M-00811MD1210031+9999REMSYN064AAXX  26181 28588 32984 02303 11140 21175 40122 52003 333 11081;EQDQ01  00002PRCP99
0122285880999992000022621004+55570+071370FM-12+012999999V0202401N002012200019N0500001N1-01651-01911101271ADDGA1001+999999999GF100991001001999999001001MD1210041+9999REMSYN054AAXX  26211 28588 42984 02402 11165 21191 40127 52004;
0122285880999992000022700004+55570+071370FM-12+012999999V0201901N002012200019N0260001N1-01831-02021101301ADDGA1001+999999999GF100991001001999999001001MD1210011+9999REMSYN054AAXX  27001 28588 42976 01902 11183 21202 40130 52001;
0165285880999992000022706004+55570+071370FM-12+012999999V0201801N002019999999N0280001N1-01541-01731101251ADDAA199000091GF108991081001999999021999KA1999N-02271MD1710011+9999REMSYN070AAXX  27061 28588 32978 81802 11154 21173 40125 57001 8802/ 333 21227;EQDQ01  00002PRCP99
0112285880999992000022712004+55570+071370FM-12+012999999V0209999C000019999999N0400001N1-01021-01461101131ADDGF108991001001999999001041MD1710051+9999REMSYN060AAXX  27121 28588 42982 80000 11102 21146 40113 57005 80004;
0203285880999992000022718004+55570+071370FM-12+012999999V0202701N003012200019N0060001N1-01471-01671101481ADDAA199000091AY101061AY201061GA1001+999999999GF100991001001999999001001KA1999M-01001MD1210221+9999MW1101REMSYN070AAXX  27181 28588 31956 02703 11147 21167 40148 52022 71000 333 11100;EQDQ01  00002PRCP99
0150285880999992000022721004+55570+071370FM-12+012999999V0202601N003012200019N0090001N1-01851-02041101691ADDAY101031AY201031GA1001+999999999GF100991001001999999001001MD1210171+9999MW1101REMSYN060AAXX  27211 28588 41959 02603 11185 21204 40169 52017 71000;
0150285880999992000022800004+55570+071370FM-12+012999999V0202401N003012200019N0090001N1-01851-02041101921ADDAY101061AY201061GA1001+999999999GF100991001001999999001001MD1210231+9999MW1101REMSYN060AAXX  28001 28588 41959 02403 11185 21204 40192 52023 71000;
0165285880999992000022806004+55570+071370FM-12+012999999V0201201N002019999999N0270001N1-01561-01751101801ADDAA199000091GF108991001001999999001021KA1999N-02091MD1810161+9999REMSYN070AAXX  28061 28588 32977 81202 11156 21175 40180 58016 80002 333 21209;EQDQ01  00002PRCP99
0140285880999992000022812004+55570+071370FM-12+012999999V0201701N003019999999N0060001N1-01051-01331101441ADDAY171061AY221061GF108991081001999999021999MD1710101+9999MW1711REMSYN066AAXX  28121 28588 41956 81703 11105 21133 40144 57010 77172 8802/;
0180285880999992000022818004+55570+071370FM-12+012999999V0202301N003019999999N0500001N1-01461-01661101491ADDAA100000791AY171061AY221061GF105991001001999999001011KA1999M-01051MD1310061+9999MW1021REMSYN082AAXX  28181 28588 11984 52303 11146 21166 40149 53006 69900 70272 80001 333 11105;
0122285880999992000022821004+55570+071370FM-12+012999999V0202101N003012200019N0500001N1-01781-01971101601ADDGA1001+999999999GF100991001001999999001001MD1210081+9999REMSYN054AAXX  28211 28588 42984 02103 11178 21197 40160 52008;
0175285880999992000022906004+55570+071370FM-12+012999999V0202101N003012200019N0290001N1-01841-02101101611ADDAA199000091GA1001+999999999GF100991001001999999001001KA1999N-02201MD1810011+9999REMSYN064AAXX  29061 28588 32979 02103 11184 21210 40161 58001 333 21220;EQDQ01  00002PRCP99
0112285880999992000022912004+55570+071370FM-12+012999999V0202001N005019999999N0400001N1-01311-02131101151ADDGF108991081001999999021999MD1710261+9999REMSYN060AAXX  29121 28588 42982 82005 11131 21213 40115 57026 8802/;
0180285880999992000022918004+55570+071370FM-12+012999999V0202101N006019999999N0060001N1-01401-01751100721ADDAA100000791AY171061AY231061GF108991081001999999021999KA1999M-01301MD1710211+9999MW1711REMSYN082AAXX  29181 28588 11956 82106 11140 21175 40072 57021 69900 77173 8802/ 333 11130;
0140285880999992000022921004+55570+071370FM-12+012999999V0202001N006019999999N0060001N1-01191-01461100501ADDAY171031AY231031GF108991081001999999021999MD1710201+9999MW1711REMSYN066AAXX  29211 28588 41956 82006 11119 21146 40050 57020 77173 8802/;
0140285880999992000030100004+55570+071370FM-12+012999999V0202101N006010075019N0500001N1-01001-01281100241ADDAY171061AY231061GF107991071051008001001001MD1710251+9999MW1361REMSYN066AAXX  01001 28588 41584 72106 11100 21128 40024 57025 73673 87500;
0225285880999992000030106004+55570+071370FM-12+012999999V0202401N008010048019N0050001N1-00501-00671099741ADDAA100000791AY171061AY231061GA1081+004809059GF108991081001004501021999KA1120N-01441MD1710141+9999MW1711OA140101301REMSYN100AAXX  01061 28588 11450 82408 11050 21067 49974 57014 69900 77173 8802/ 333 21144 88516 91013 91113;
0208285880999992000030112004+55570+071370FM-12+012999999V0202701N009010063019N0260001N1+00131-00361100411ADDAY171061AY231061GA1071+006309069GF107991071051008001001001MD1210542+9999MW1381OA140101301REMSYN088AAXX  01121 28588 41576 72709 10013 21036 40041 52054 73873 87500 333 87621 91013 91115;EQDQ01+000542APC3  
0231285880999992000030118004+55570+071370FM-12+012999999V0203201N006012200019N0500001N1-00481-01201101832ADDAA100000591AY171061AY231061GA1001+999999999GF100991001001999999001001KA1120M+00131MD1210832+9999MW1361REMSYN082AAXX  01181 28588 11984 03206 11048 21120 40183 52083 69940 73673 333 10013 91113;EQDQ01+101833APOSLPQ02+000832APC3  
0150285880999992000030121004+55570+071370FM-12+012999999V0203301N005012200019N0500001N1-01181-02131102561ADDAY131031AY201031GA1001+999999999GF100991001001999999001001MD1210681+9999MW1021REMSYN060AAXX  01211 28588 41984 03305 11118 21213 40256 52068 70230;
0150285880999992000030200004+55570+071370FM-12+012999999V0202801N002012200019N0500001N1-01541-02351102911ADDAY131061AY201061GA1001+999999999GF100991001001999999001001MD1210311+9999MW1021REMSYN060AAXX  02001 28588 41984 02802 11154 21235 40291 52031 70230;
0152285880999992000030206004+55570+071370FM-12+012999999V0202001N003012200019N0400001N1-01061-02021103331ADDAA100000791GF102991001001999999001021KA1999N-01931MD1210111+9999REMSYN076AAXX  02061 28588 12982 22003 11106 21202 40333 52011 69900 80002 333 21193;
0112285880999992000030212004+55570+071370FM-12+012999999V0201801N006019999999N0400001N1-00731-01551103081ADDGF107991001001999999001011MD1710101+9999REMSYN060AAXX  02121 28588 42982 71806 11073 21155 40308 57010 80001;
0175285880999992000030218004+55570+071370FM-12+012999999V0202001N004012200019N0500001N1-00691-00851102651ADDAA199000091GA1001+999999999GF100991001001999999001001KA1999M-00711MD1710191+9999REMSYN064AAXX  02181 28588 32984 02004 11069 21085 40265 57019 333 11071;EQDQ01  00002PRCP99
0112285880999992000030221004+55570+071370FM-12+012999999V0202401N005019999999N0500001N1-00411-00831102451ADDGF107991071001999999071001MD1710181+9999REMSYN060AAXX  02211 28588 42984 72405 11041 21083 40245 57018 87070;
0112285880999992000030300004+55570+071370FM-12+012999999V0202301N006019999999N0500001N1-00471-00911102421ADDGF107991071001999999071001MD1710031+9999REMSYN060AAXX  03001 28588 42984 72306 11047 21091 40242 57003 87070;
0165285880999992000030306004+55570+071370FM-12+012999999V0202501N005012200019N0400001N1-00421-01111102461ADDAA199000091GF101991001001999999001011KA1999N-00881MD1710011+9999REMSYN070AAXX  03061 28588 32982 12505 11042 21111 40246 57001 80001 333 21088;EQDQ01  00002PRCP99
0122285880999992000030312004+55570+071370FM-12+012999999V0202501N005012200019N0400001N1-00051-01191102431ADDGA1001+999999999GF100991001001999999001001MD1310011+9999REMSYN054AAXX  03121 28588 42982 02505 11005 21119 40243 53001;
0175285880999992000030318004+55570+071370FM-12+012999999V0202501N004012200019N0500001N1-00611-01011102741ADDAA199000091GA1001+999999999GF100991001001999999001001KA1999M+00011MD1210131+9999REMSYN064AAXX  03181 28588 32984 02504 11061 21101 40274 52013 333 10001;EQDQ01  00002PRCP99
0122285880999992000030321004+55570+071370FM-12+012999999V0202601N004012200019N0500001N1-00831-01021102851ADDGA1001+999999999GF100991001001999999001001MD1210091+9999REMSYN054AAXX  03211 28588 42984 02604 11083 21102 40285 52009;
0112285880999992000030400004+55570+071370FM-12+012999999V0202401N006019999999N0500001N1-00681-00801102861ADDGF108991081001999999021999MD1210031+9999REMSYN060AAXX  04001 28588 42984 82406 11068 21080 40286 52003 8802/;
0193285880999992000030406004+55570+071370FM-12+012999999V0202601N005012200019N0270001N1-00351-00711103031ADDAA199000091AY171061AY211061GF102991001001999999001021KA1999N-00871MD1210041+9999MW1011REMSYN076AAXX  04061 28588 31977 22605 11035 21071 40303 52004 70171 80002 333 21087;EQDQ01  00002PRCP99
0122285880999992000030412004+55570+071370FM-12+012999999V0202501N004012200019N0400001N1-00081-00531103141ADDGA1001+999999999GF100991001001999999001001MD1210071+9999REMSYN054AAXX  04121 28588 42982 02504 11008 21053 40314 52007;
0162285880999992000030418004+55570+071370FM-12+012999999V0202201N002012200019N0500001N1-00781-00961103401ADDAA100000791GA1001+999999999GF100991001001999999001001KA1999M-00041MD1210121+9999REMSYN070AAXX  04181 28588 12984 02202 11078 21096 40340 52012 69900 333 11004;
0150285880999992000030500004+55570+071370FM-12+012999999V0202301N001012200019N0060001N1-01351-01481103411ADDAY101061AY201061GA1001+999999999GF100991001001999999001001MD1810021+9999MW1101REMSYN060AAXX  05001 28588 41956 02301 11135 21148 40341 58002 71000;
0203285880999992000030506004+55570+071370FM-12+012999999V0201601N001012200019N0060001N1-00801-00981103561ADDAA199000091AY101061AY201061GA1001+999999999GF100991001001999999001001KA1999N-01891MD1210161+9999MW1101REMSYN070AAXX  05061 28588 31956 01601 11080 21098 40356 52016 71000 333 21189;EQDQ01  00002PRCP99
0112285880999992000030512004+55570+071370FM-12+012999999V0201301N002012200019N0400001N1+00061-01061103291ADDGF102991001001999999001011MD1710101+9999REMSYN060AAXX  05121 28588 42982 21302 10006 21106 40329 57010 80001;
0150285880999992000030521004+55570+071370FM-12+012999999V0201501N005012200019N0090001N1-00821-00881103201ADDAY141031AY201031GA1001+999999999GF100991001001999999001001MD1710111+9999MW1101REMSYN060AAXX  05211 28588 41959 01505 11082 21088 40320 57011 71040;
0150285880999992000030600004+55570+071370FM-12+012999999V0200901N003012200019N0060001N1-01441-01501103161ADDAY141061AY201061GA1001+999999999GF100991001001999999001001MD1710071+9999MW1101REMSYN060AAXX  06001 28588 41956 00903 11144 21150 40316 57007 71040;
0150285880999992000030606004+55570+071370FM-12+012999999V0200901N003012200019N0060001N1-01441-01501103161ADDAY141061AY201061GA1001+999999999GF100991001001999999001001MD1710071+9999MW1101REMSYN060AAXX  06061 28588 41956 00903 11144 21150 40316 57007 71040;
0112285880999992000030612004+55570+071370FM-12+012999999V0201101N004012200019N0280001N1-00221-00991102691ADDGF102991001001999999001011MD1710081+9999REMSYN060AAXX  06121 28588 42978 21104 11022 21099 40269 57008 80001;
0175285880999992000030618004+55570+071370FM-12+012999999V0200801N003012200019N0500001N1-01241-01511102501ADDAA199000091GA1001+999999999GF100991001001999999001001KA1999M-00081MD1710121+9999REMSYN064AAXX  06181 28588 32984 00803 11124 21151 40250 57012 333 11008;EQDQ01  00002PRCP99
0122285880999992000030621004+55570+071370FM-12+012999999V0200801N003012200019N0500001N1-01471-01601102441ADDGA1001+999999999GF100991001001999999001001MD1710181+9999REMSYN054AAXX  06211 28588 42984 00803 11147 21160 40244 57018;
0150285880999992000030700004+55570+071370FM-12+012999999V0201201N004012200019N0060001N1-01461-01591102371ADDAY101061AY201061GA1001+999999999GF100991001001999999001001MD1710071+9999MW1101REMSYN060AAXX  07001 28588 41956 01204 11146 21159 40237 57007 71000;
0190285880999992000030706004+55570+071370FM-12+012999999V0201501N004012200019N0260001N1-00911-01251102401ADDAA100000791AY171061AY211061GA1001+999999999GF100991001001999999001001KA1999N-01521MD1210061+9999MW1011REMSYN076AAXX  07061 28588 11976 01504 11091 21125 40240 52006 69900 70171 333 21152;
0122285880999992000030712004+55570+071370FM-12+012999999V0201501N004012200019N0400001N1-00501-01231102421ADDGA1001+999999999GF100991001001999999001001MD1310101+9999REMSYN054AAXX  07121 28588 42982 01504 11050 21123 40242 53010;
0162285880999992000030718004+55570+071370FM-12+012999999V0201701N003012200019N0130001N1-01121-01321102481ADDAA100000791GA1001+999999999GF100991001001999999001001KA1999M-00501MD1310011+9999REMSYN070AAXX  07181 28588 11963 01703 11112 21132 40248 53001 69900 333 11050;
0140285880999992000030721004+55570+071370FM-12+012999999V0201701N003019999999N0060001N1-01261-01321102451ADDAY171031AY211031GF108991081001999999021999MD1810031+9999MW1711REMSYN066AAXX  07211 28588 41956 81703 11126 21132 40245 58003 77171 8802/;
0140285880999992000030800004+55570+071370FM-12+012999999V0202101N002019999999N0060001N1-01541-01671102531ADDAY171061AY211061GF108991081001999999021999MD1310051+9999MW1711REMSYN066AAXX  08001 28588 41956 82102 11154 21167 40253 53005 77171 8802/;
0190285880999992000030806004+55570+071370FM-12+012999999V0202001N002012200019N0190001N1-01041-01401102531ADDAA100000791AY171061AY211061GA1001+999999999GF100991001001999999001001KA1999N-02071MD1410001+9999MW1021REMSYN076AAXX  08061 28588 11969 02002 11104 21140 40253 54000 69900 70271 333 21207;
0122285880999992000030812004+55570+071370FM-12+012999999V0202001N004012200019N0300001N1-00581-01311102381ADDGA1001+999999999GF100991001001999999001001MD1710021+9999REMSYN054AAXX  08121 28588 42980 02004 11058 21131 40238 57002;
0175285880999992000030818004+55570+071370FM-12+012999999V0201801N003012200019N0500001N1-01291-01421102351ADDAA199000091GA1001+999999999GF100991001001999999001001KA1999M-00571MD1810061+9999REMSYN064AAXX  08181 28588 32984 01803 11129 21142 40235 58006 333 11057;EQDQ01  00002PRCP99
0122285880999992000030821004+55570+071370FM-12+012999999V0201701N002012200019N0180001N1-01451-01581102261ADDGA1001+999999999GF100991001001999999001001MD1710111+9999REMSYN054AAXX  08211 28588 42968 01702 11145 21158 40226 57011;
0122285880999992000030900004+55570+071370FM-12+012999999V0201601N003012200019N0210001N1-01551-01681102161ADDGA1001+999999999GF100991001001999999001001MD1710111+9999REMSYN054AAXX  09001 28588 42971 01603 11155 21168 40216 57011;
0165285880999992000030906004+55570+071370FM-12+012999999V0201701N005012200019N0300001N1-01081-01521101971ADDAA199000091GF104991001001999999001021KA1999N-01671MD1810021+9999REMSYN070AAXX  09061 28588 32980 41705 11108 21152 40197 58002 80002 333 21167;EQDQ01  00002PRCP99
0112285880999992000030912004+55570+071370FM-12+012999999V0201801N005019999999N0400001N1-00571-01591101741ADDGF106991001001999999001021MD1710101+9999REMSYN060AAXX  09121 28588 42982 61805 11057 21159 40174 57010 80002;
0165285880999992000030918004+55570+071370FM-12+012999999V0201601N004012200019N0500001N1-01161-01441101601ADDAA199000091GF102991001001999999001011KA1999M-00491MD1710151+9999REMSYN070AAXX  09181 28588 32984 21604 11116 21144 40160 57015 80001 333 11049;EQDQ01  00002PRCP99
0112285880999992000030921004+55570+071370FM-12+012999999V0201601N004019999999N0500001N1-00961-01301101471ADDGF107991071001999999071001MD1710121+9999REMSYN060AAXX  09211 28588 42984 71604 11096 21130 40147 57012 87070;
0112285880999992000031000004+55570+071370FM-12+012999999V0201601N003010075019N0500001N1-00921-01321101491ADDGF108991081001008001021999MD1310021+9999REMSYN060AAXX  10001 28588 42584 81603 11092 21132 40149 53002 8802/;
0175285880999992000031006004+55570+071370FM-12+012999999V0200901N002012200019N0400001N1-00581-01361101591ADDAA199000091GA1001+999999999GF100991001001999999001001KA1999N-01171MD1210021+9999REMSYN064AAXX  10061 28588 32982 00902 11058 21136 40159 52002 333 21117;EQDQ01  00002PRCP99
0122285880999992000031012004+55570+071370FM-12+012999999V0201701N004012200019N0400001N1-00401-01401101831ADDGA1001+999999999GF100991001001999999001001MD1210201+9999REMSYN054AAXX  10121 28588 42982 01704 11040 21140 40183 52020;
0175285880999992000031018004+55570+071370FM-12+012999999V0201801N002012200019N0500001N1-00981-01151102021ADDAA199000091GA1001+999999999GF100991001001999999001001KA1999M-00331MD1210061+9999REMSYN064AAXX  10181 28588 32984 01802 11098 21115 40202 52006 333 11033;EQDQ01  00002PRCP99
0150285880999992000031021004+55570+071370FM-12+012999999V0201801N001012200019N0040001N1-00941-01011102051ADDAY101031AY201031GA1001+999999999GF100991001001999999001001MD1210031+9999MW1101REMSYN060AAXX  10211 28588 41940 01801 11094 21101 40205 52003 71000;
0150285880999992000031100004+55570+071370FM-12+012999999V0201801N002010006019N0008001N1-00721-00771102101ADDAY141061AY241061GA1091+999999999GF109991091999999999999999MD1210061+9999MW1491REMSYN060AAXX  11001 28588 41/08 91802 11072 21077 40210 52006 74944;
0193285880999992000031106004+55570+071370FM-12+012999999V0201501N004019999999N0060001N1-00571-00571102201ADDAA199000091AY141061AY221061GF108991081001999999011999KA1999N-01071MD1210061+9999MW1101REMSYN076AAXX  11061 28588 31956 81504 11057 21057 40220 52006 71042 8801/ 333 21107;EQDQ01  00002PRCP99
0112285880999992000031112004+55570+071370FM-12+012999999V0201601N004012200019N0300001N1-00041-00551102111ADDGF102991001001999999001091MD1710041+9999REMSYN060AAXX  11121 28588 42980 21604 11004 21055 40211 57004 80009;
0175285880999992000031118004+55570+071370FM-12+012999999V0201301N004012200019N0500001N1-00611-00921102151ADDAA199000091GA1001+999999999GF100991001001999999001001KA1999M-00041MD1810131+9999REMSYN064AAXX  11181 28588 32984 01304 11061 21092 40215 58013 333 11004;EQDQ01  00002PRCP99
0122285880999992000031121004+55570+071370FM-12+012999999V0201401N004012200019N0500001N1-00781-01001102021ADDGA1001+999999999GF100991001001999999001001MD1710131+9999REMSYN054AAXX  11211 28588 42984 01404 11078 21100 40202 57013;
0122285880999992000031200004+55570+071370FM-12+012999999V0201501N003012200019N0500001N1-00901-01061102011ADDGA1001+999999999GF100991001001999999001001MD1710011+9999REMSYN054AAXX  12001 28588 42984 01503 11090 21106 40201 57001;
0165285880999992000031206004+55570+071370FM-12+012999999V0201701N003019999999N0290001N1-00291-01051101961ADDAA199000091GF107991001001999999001021KA1999N-00921MD1810081+9999REMSYN070AAXX  12061 28588 32979 71703 11029 21105 40196 58008 80002 333 21092;EQDQ01  00002PRCP99
0112285880999992000031212004+55570+071370FM-12+012999999V0201601N003019999999N0400001N1+00121-00901102051ADDGF108991001001999999001021MD1210061+9999REMSYN060AAXX  12121 28588 42982 81603 10012 21090 40205 52006 80002;
0175285880999992000031218004+55570+071370FM-12+012999999V0201501N002012200019N0290001N1-00421-00681101951ADDAA199000091GA1001+999999999GF100991001001999999001001KA1999M+00221MD1710031+9999REMSYN064AAXX  12181 28588 32979 01502 11042 21068 40195 57003 333 10022;EQDQ01  00002PRCP99
0122285880999992000031221004+55570+071370FM-12+012999999V0201401N002012200019N0270001N1-00851-01041101871ADDGA1001+999999999GF100991001001999999001001MD1710101+9999REMSYN054AAXX  12211 28588 42977 01402 11085 21104 40187 57010;
0122285880999992000031300004+55570+071370FM-12+012999999V0201501N003012200019N0180001N1-00891-01001101821ADDGA1001+999999999GF100991001001999999001001MD1710051+9999REMSYN054AAXX  13001 28588 42968 01503 11089 21100 40182 57005;
0175285880999992000031306004+55570+071370FM-12+012999999V0201401N004012200019N0400001N1-00261-00831101641ADDAA199000091GA1001+999999999GF100991001001999999001001KA1999N-01371MD1710091+9999REMSYN064AAXX  13061 28588 32982 01404 11026 21083 40164 57009 333 21137;EQDQ01  00002PRCP99
0122285880999992000031312004+55570+071370FM-12+012999999V0201101N006012200019N0400001N1+00101-00841101371ADDGA1001+999999999GF100991001001999999001001MD1710131+9999REMSYN054AAXX  13121 28588 42982 01106 10010 21084 40137 57013;
0165285880999992000031318004+55570+071370FM-12+012999999V0201401N007019999999N0500001N1-00361-00841101331ADDAA199000091GF106991001001999999001021KA1999M+00281MD1310011+9999REMSYN070AAXX  13181 28588 32984 61407 11036 21084 40133 53001 80002 333 10028;EQDQ01  00002PRCP99
0140285880999992000031321004+55570+071370FM-12+012999999V0201501N006010075019N0060001N1-00401-00621101251ADDAY171031AY221031GF108991081001008001021999MD1810081+9999MW1711REMSYN066AAXX  13211 28588 41556 81506 11040 21062 40125 58008 77172 8802/;
0140285880999992000031400004+55570+071370FM-12+012999999V0201501N006010075019N0500001N1-00291-00561101241ADDAY171061AY221061GF107991071051008001001001MD1410001+9999MW1021REMSYN066AAXX  14001 28588 41584 71506 11029 21056 40124 54000 70272 87500;
0180285880999992000031406004+55570+071370FM-12+012999999V0201701N006010075019N0300001N1-00181-00561101341ADDAA100000791AY171061AY231061GF107991071051008001001001KA1999N-00451MD1810011+9999MW1021REMSYN082AAXX  14061 28588 11580 71706 11018 21056 40134 58001 69900 70273 87500 333 21045;
0140285880999992000031412004+55570+071370FM-12+012999999V0201801N004019999999N0060001N1-00141-00401101581ADDAY171061AY221061GF108991081001999999021999MD1210101+9999MW1711REMSYN066AAXX  14121 28588 41956 81804 11014 21040 40158 52010 77172 8802/;
0180285880999992000031418004+55570+071370FM-12+012999999V0202001N003019999999N0500001N1-00381-00711101751ADDAA100000791AY171061AY221061GF108991081001999999021999KA1999M-00141MD1210051+9999MW1021REMSYN082AAXX  14181 28588 11984 82003 11038 21071 40175 52005 69900 70272 8802/ 333 11014;
0112285880999992000031421004+55570+071370FM-12+012999999V0201901N003019999999N0500001N1-00621-00771101791ADDGF108991001001999999001041MD1210031+9999REMSYN060AAXX  14211 28588 42984 81903 11062 21077 40179 52003 80004;
0112285880999992000031500004+55570+071370FM-12+012999999V0201901N002019999999N0500001N1-00621-00701101811ADDGF108991081001999999021999MD1210021+9999REMSYN060AAXX  15001 28588 42984 81902 11062 21070 40181 52002 8802/;
0180285880999992000031506004+55570+071370FM-12+012999999V0202401N004019999999N0270001N1-00391-00721101921ADDAA100000791AY171061AY221061GF106991001001999999001021KA1999N-00671MD1210081+9999MW1021REMSYN082AAXX  15061 28588 11977 62404 11039 21072 40192 52008 69900 70272 80002 333 21067;
0112285880999992000031512004+55570+071370FM-12+012999999V0202501N005012200019N0400001N1-00221-01131101981ADDGF103991001001999999001011MD1210061+9999REMSYN060AAXX  15121 28588 42982 32505 11022 21113 40198 52006 80001;
0175285880999992000031518004+55570+071370FM-12+012999999V0202601N002012200019N0500001N1-00991-01351102161ADDAA199000091GA1001+999999999GF100991001001999999001001KA1999M-00191MD1210031+9999REMSYN064AAXX  15181 28588 32984 02602 11099 21135 40216 52003 333 11019;EQDQ01  00002PRCP99
0122285880999992000031521004+55570+071370FM-12+012999999V0202501N003012200019N0500001N1-01151-01351102191ADDGA1001+999999999GF100991001001999999001001MD1210021+9999REMSYN054AAXX  15211 28588 42984 02503 11115 21135 40219 52002;
0150285880999992000031600004+55570+071370FM-12+012999999V0202501N003012200019N0090001N1-01281-01411102221ADDAY101061AY201061GA1001+999999999GF100991001001999999001001MD1210031+9999MW1101REMSYN060AAXX  16001 28588 41959 02503 11128 21141 40222 52003 71000;
0175285880999992000031606004+55570+071370FM-12+012999999V0201801N003012200019N0120001N1-00691-01211102361ADDAA199000091GA1001+999999999GF100991001001999999001001KA1999N-01421MD1210121+9999REMSYN064AAXX  16061 28588 32962 01803 11069 21121 40236 52012 333 21142;EQDQ01  00002PRCP99
0112285880999992000031612004+55570+071370FM-12+012999999V0202701N002012200019N0300001N1-00341-01131102291ADDGF102991001001999999001021MD1710021+9999REMSYN060AAXX  16121 28588 42980 22702 11034 21113 40229 57002 80002;
0165285880999992000031618004+55570+071370FM-12+012999999V0202101N002019999999N0290001N1-01031-01231102411ADDAA199000091GF108991001001999999001071KA1999M-00301MD1210061+9999REMSYN070AAXX  16181 28588 32979 82102 11103 21123 40241 52006 80007 333 11030;EQDQ01  00002PRCP99
0140285880999992000031621004+55570+071370FM-12+012999999V0203301N001019999999N0060001N1-01201-01261102361ADDAY121031AY221031GF108991081001999999011999MD1810061+9999MW1101REMSYN066AAXX  16211 28588 41956 83301 11120 21126 40236 58006 71022 8801/;
0140285880999992000031700004+55570+071370FM-12+012999999V0203601N002019999999N0090001N1-01321-01381102261ADDAY121061AY221061GF108991081001999999011999MD1710131+9999MW1101REMSYN066AAXX  17001 28588 41959 83602 11132 21138 40226 57013 71022 8801/;
0165285880999992000031706004+55570+071370FM-12+012999999V0200601N002019999999N0350001N1-00681-00971102131ADDAA199000091GF108991001001999999001021KA1999N-01361MD1710031+9999REMSYN070AAXX  17061 28588 32981 80602 11068 21097 40213 57003 80002 333 21136;EQDQ01  00002PRCP99
0112285880999992000031712004+55570+071370FM-12+012999999V0203301N004010750019N0400001N1-00381-01051102031ADDGF108991031021008001001021MD1810091+9999REMSYN060AAXX  17121 28588 42582 83304 11038 21105 40203 58009 83202;
0165285880999992000031718004+55570+071370FM-12+012999999V0202801N003019999999N0500001N1-00751-01051102121ADDAA199000091GF108991001001999999001071KA1999M-00381MD1410001+9999REMSYN070AAXX  17181 28588 32999 82803 11075 21105 40212 54000 80007 333 11038;EQDQ01  00002PRCP99
0112285880999992000031721004+55570+071370FM-12+012999999V0202701N003019999999N0500001N1-00931-01141102121ADDGF108991081001999999011999MD1810011+9999REMSYN060AAXX  17211 28588 42999 82703 11093 21114 40212 58001 8801/;
0140285880999992000031800004+55570+071370FM-12+012999999V0202701N003019999999N0500001N1-00871-00981102131ADDAY171061AY221061GF108991081001999999011999MD1310021+9999MW1021REMSYN066AAXX  18001 28588 41999 82703 11087 21098 40213 53002 70272 8801/;
0175285880999992000031818004+55570+071370FM-12+012999999V0203301N006012200019N0500001N1-01121-01961102821ADDAA199000091GA1001+999999999GF100991001001999999001001KA1999M-00471MD1210191+9999REMSYN064AAXX  18181 28588 32984 03306 11112 21196 40282 52019 333 11047;EQDQ01  00002PRCP99
0122285880999992000031821004+55570+071370FM-12+012999999V0203101N003012200019N0500001N1-01501-02101103001ADDGA1001+999999999GF100991001001999999001001MD1210161+9999REMSYN054AAXX  18211 28588 42984 03103 11150 21210 40300 52016;
0122285880999992000031900004+55570+071370FM-12+012999999V0203001N003012200019N0500001N1-01781-02191103091ADDGA1001+999999999GF100991001001999999001001MD1210071+9999REMSYN054AAXX  19001 28588 42984 03003 11178 21219 40309 52007;
0175285880999992000031906004+55570+071370FM-12+012999999V0203101N006012200019N0400001N1-01281-02001103241ADDAA199000091GA1001+999999999GF100991001001999999001001KA1999N-01831MD1210051+9999REMSYN064AAXX  19061 28588 32982 03106 11128 21200 40324 52005 333 21183;EQDQ01  00002PRCP99
0112285880999992000031912004+55570+071370FM-12+012999999V0203201N005012200019N0400001N1-00871-01861103301ADDGF102991001001999999001011MD1210051+9999REMSYN060AAXX  19121 28588 42982 23205 11087 21186 40330 52005 80001;
0175285880999992000031918004+55570+071370FM-12+012999999V0202701N003012200019N0500001N1-01381-02091103361ADDAA199000091GA1001+999999999GF100991001001999999001001KA1999M-00841MD1210011+9999REMSYN064AAXX  19181 28588 32984 02703 11138 21209 40336 52001 333 11084;EQDQ01  00002PRCP99
0122285880999992000031921004+55570+071370FM-12+012999999V0202601N003012200019N0500001N1-01671-02091103351ADDGA1001+999999999GF100991001001999999001001MD1310031+9999REMSYN054AAXX  19211 28588 42984 02603 11167 21209 40335 53003;
0122285880999992000032000004+55570+071370FM-12+012999999V0202601N003012200019N0500001N1-01811-02141103341ADDGA1001+999999999GF100991001001999999001001MD1710021+9999REMSYN054AAXX  20001 28588 42984 02603 11181 21214 40334 57002;
0165285880999992000032006004+55570+071370FM-12+012999999V0202601N003019999999N0400001N1-00801-01671103221ADDAA199000091GF107991071001999999071001KA1999N-01881MD1710051+9999REMSYN070AAXX  20061 28588 32982 72603 11080 21167 40322 57005 87070 333 21188;EQDQ01  00002PRCP99
0165285880999992000032018004+55570+071370FM-12+012999999V0202401N005019999999N0500001N1-00341-00901102561ADDAA199000091GF108991081001999999021999KA1999M-00321MD1710251+9999REMSYN070AAXX  20181 28588 32984 82405 11034 21090 40256 57025 8802/ 333 11032;EQDQ01  00002PRCP99
0112285880999992000032021004+55570+071370FM-12+012999999V0202301N006019999999N0500001N1-00441-00951102381ADDGF108991081001999999011999MD1710181+9999REMSYN060AAXX  20211 28588 42984 82306 11044 21095 40238 57018 8801/;
0112285880999992000032100004+55570+071370FM-12+012999999V0202401N006019999999N0500001N1-00481-00971102171ADDGF108991081001999999011999MD1710211+9999REMSYN060AAXX  21001 28588 42984 82406 11048 21097 40217 57021 8801/;
0188285880999992000032106004+55570+071370FM-12+012999999V0202601N009019999999N0400001N1-00381-01051102021ADDAA199000091GF108991001001999999001021KA1120N-00591MD1710081+9999OA140101201REMSYN082AAXX  21061 28588 32982 82609 11038 21105 40202 57008 80002 333 21059 91012 91112;EQDQ01  00002PRCP99
0139285880999992000032112004+55570+071370FM-12+012999999V0202501N007019999999N0400001N1-00091-00831101861ADDGF105991001001999999001011MD1310021+9999OA140101201REMSYN076AAXX  21121 28588 42982 52507 11009 21083 40186 53002 80001 333 91012 91114;
0181285880999992000032118004+55570+071370FM-12+012999999V0202401N005012200019N0500001N1-00401-00981101981ADDAA199000091GA1001+999999999GF100991001001999999001001KA1120M+00011MD1210041+9999REMSYN070AAXX  21181 28588 32984 02405 11040 21098 40198 52004 333 10001 91112;EQDQ01  00002PRCP99
0122285880999992000032121004+55570+071370FM-12+012999999V0202501N006012200019N0500001N1-00501-01081102031ADDGA1001+999999999GF100991001001999999001001MD1210051+9999REMSYN054AAXX  21211 28588 42984 02506 11050 21108 40203 52005;
0112285880999992000032200004+55570+071370FM-12+012999999V0202401N006019999999N0500001N1-00461-01171102091ADDGF108991001001999999001071MD1210061+9999REMSYN060AAXX  22001 28588 42984 82406 11046 21117 40209 52006 80007;
0165285880999992000032206004+55570+071370FM-12+012999999V0202101N004012200019N0400001N1-00171-01001102181ADDAA199000091GF102991001001999999001021KA1999N-00681MD1210021+9999REMSYN070AAXX  22061 28588 32982 22104 11017 21100 40218 52002 80002 333 21068;EQDQ01  00002PRCP99
0112285880999992000032212004+55570+071370FM-12+012999999V0202101N004019999999N0400001N1+00271-00711102111ADDGF105991051001999999081001MD1710011+9999REMSYN060AAXX  22121 28588 42982 52104 10027 21071 40211 57001 85080;
0165285880999992000032218004+55570+071370FM-12+012999999V0202201N004019999999N0500001N1+00061-00851102131ADDAA199000091GF106991001001999999001021KA1999M+00271MD1310011+9999REMSYN070AAXX  22181 28588 32984 62204 10006 21085 40213 53001 80002 333 10027;EQDQ01  00002PRCP99
0112285880999992000032221004+55570+071370FM-12+012999999V0202101N004019999999N0500001N1-00111-00901102031ADDGF108991001001999999001071MD1810091+9999REMSYN060AAXX  22211 28588 42984 82104 11011 21090 40203 58009 80007;
0112285880999992000032300004+55570+071370FM-12+012999999V0202001N004019999999N0500001N1-00421-01111102041ADDGF108991001001999999001071MD1710021+9999REMSYN060AAXX  23001 28588 42984 82004 11042 21111 40204 57002 80007;
0165285880999992000032306004+55570+071370FM-12+012999999V0201801N005019999999N0400001N1+00041-00931101811ADDAA199000091GF106991001001999999001021KA1999N-00531MD1710141+9999REMSYN070AAXX  23061 28588 32982 61805 10004 21093 40181 57014 80002 333 21053;EQDQ01  00002PRCP99
0165285880999992000032318004+55570+071370FM-12+012999999V0201901N004019999999N0500001N1-00071-00321101021ADDAA199000091GF108991001001999999001071KA1999M+00261MD1710161+9999REMSYN070AAXX  23181 28588 32984 81904 11007 21032 40102 57016 80007 333 10026;EQDQ01  00002PRCP99
0112285880999992000032321004+55570+071370FM-12+012999999V0202001N003019999999N0500001N1-00141-00401100921ADDGF108991081001999999021999MD1710101+9999REMSYN060AAXX  23211 28588 42984 82003 11014 21040 40092 57010 8802/;
0112285880999992000032400004+55570+071370FM-12+012999999V0202001N002019999999N0500001N1-00241-00461100831ADDGF106991061001999999031001MD1710101+9999REMSYN060AAXX  24001 28588 42984 62002 11024 21046 40083 57010 86030;
0165285880999992000032406004+55570+071370FM-12+012999999V0202301N003019999999N0400001N1+00121-00231100861ADDAA199000091GF108991081001999999011999KA1999N-00321MD1310091+9999REMSYN070AAXX  24061 28588 32982 82303 10012 21023 40086 53009 8801/ 333 21032;EQDQ01  00002PRCP99
0112285880999992000032412004+55570+071370FM-12+012999999V0202501N004019999999N0400001N1+00211-00161100971ADDGF108991081001999999021999MD1310111+9999REMSYN060AAXX  24121 28588 42982 82504 10021 21016 40097 53011 8802/;
0165285880999992000032418004+55570+071370FM-12+012999999V0202601N004019999999N0500001N1+00021-00151101181ADDAA199000091GF108991081001999999021999KA1999M+00301MD1310221+9999REMSYN070AAXX  24181 28588 32984 82604 10002 21015 40118 53022 8802/ 333 10030;EQDQ01  00002PRCP99
0112285880999992000032421004+55570+071370FM-12+012999999V0202501N003019999999N0500001N1-00161-00271101321ADDGF108991001001999999001071MD1210121+9999REMSYN060AAXX  24211 28588 42984 82503 11016 21027 40132 52012 80007;
0112285880999992000032500004+55570+071370FM-12+012999999V0202401N004019999999N0500001N1-00321-00421101551ADDGF106991001001999999001021MD1210231+9999REMSYN060AAXX  25001 28588 42984 62404 11032 21042 40155 52023 80002;
0175285880999992000032506004+55570+071370FM-12+012999999V0202101N003012200019N0300001N1+00311-00451101861ADDAA199000091GA1001+999999999GF100991001001999999001001KA1999N-00321MD1210081+9999REMSYN064AAXX  25061 28588 32980 02103 10031 21045 40186 52008 333 21032;EQDQ01  00002PRCP99
0122285880999992000032512004+55570+071370FM-12+012999999V0201901N004012200019N0400001N1+00411-00461101931ADDGA1001+999999999GF100991001001999999001001MD1210011+9999REMSYN054AAXX  25121 28588 42982 01904 10041 21046 40193 52001;
0175285880999992000032518004+55570+071370FM-12+012999999V0201701N004012200019N0500001N1-00041-00281101791ADDAA199000091GA1001+999999999GF100991001001999999001001KA1999M+00491MD1710111+9999REMSYN064AAXX  25181 28588 32984 01704 11004 21028 40179 57011 333 10049;EQDQ01  00002PRCP99
0122285880999992000032521004+55570+071370FM-12+012999999V0201501N004012200019N0500001N1-00131-00331101581ADDGA1001+999999999GF100991001001999999001001MD1710211+9999REMSYN054AAXX  25211 28588 42984 01504 11013 21033 40158 57021;
0122285880999992000032600004+55570+071370FM-12+012999999V0201301N004012200019N0270001N1-00161-00401101251ADDGA1001+999999999GF100991001001999999001001MD1710341+9999REMSYN054AAXX  26001 28588 42977 01304 11016 21040 40125 57034;
0233285880999992000032606004+55570+071370FM-12+012999999V0201301N012010075019N0070001N1-00021-00081099831ADDAA199000021AY161061AY211061GF108991081001008001021999KA1120N-00251MD1710872+9999MW1661OA140101801OA249901801REMSYN094AAXX  26061 28588 31557 81312 11002 21008 49983 57087 76661 8802/ 333 21025 91018 91118 93497;EQDQ01+000872APC3  
0185285880999992000032612004+55570+071370FM-12+012999999V0201901N007010075019N0080001N1+00361+00131098882ADDAY161061AY221061GF108991999071008001021999MD1710271+9999MW1611REMSYN076AAXX  26121 28588 41558 81907 10036 20013 49888 57027 76162 8872/ 333 91114;EQDQ01+000082SCOTLCQ02+098883APOSLP
0222285880999992000032618004+55570+071370FM-12+012999999V0202501N010010075019N0500001N1+00121-00301099621ADDAA100000591AY161061AY221061GF107991071051008001001001KA1120M+00411MD1210572+9999MW1021OA140101701REMSYN094AAXX  26181 28588 11584 72510 10012 21030 49962 52057 69950 70262 87500 333 10041 91017 91119;EQDQ01+000572APC3  
0138285880999992000032621004+55570+071370FM-12+012999999V0202501N010010066019N0500001N1+00201-00201100021ADDGA1071+006609059GF107991071051008001001001MD1210391+9999REMSYN070AAXX  26211 28588 42584 72510 10020 21020 40002 52039 87500 333 87622;
0161285880999992000032700004+55570+071370FM-12+012999999V0202301N008010069019N0500001N1+00161-00151100031ADDGA1071+006909069GF107991071051008001001001MD1210011+9999OA140101301REMSYN082AAXX  27001 28588 42584 72308 10016 21015 40003 52001 87500 333 87623 91013 91118;
0225285880999992000032706004+55570+071370FM-12+012999999V0202201N008010066019N0400001N1+00111-00311099961ADDAA100000791AY171061AY221061GA1071+006609069GF107991071051008001001001KA1120N+00021MD1710051+9999MW1221OA140101401REMSYN100AAXX  27061 28588 11582 72208 10011 21031 49996 57005 69900 72272 87500 333 20002 87622 91014 91114;
0191285880999992000032712004+55570+071370FM-12+012999999V0202501N007010042019N0300001N1+00131-00321100301ADDAY171061AY261061GA1081+004209079GF108991999071004501021999MD1210261+9999MW1221REMSYN082AAXX  27121 28588 41480 82507 10013 21032 40030 52026 72276 8872/ 333 88714 91114;EQDQ01+000082SCOTLC
0203285880999992000032718004+55570+071370FM-12+012999999V0202501N008019999999N0044001N1-00201-00231101131ADDAA100000791AY171061AY231061GF108991081001999999021999KA1120M+00221MD1210371+9999MW1711OA140101201REMSYN094AAXX  27181 28588 11944 82508 11020 21023 40113 52037 69900 77173 8802/ 333 10022 91012 91114;
0150285880999992000032721004+55570+071370FM-12+012999999V0202501N007012200019N0500001N1-00231-00421101511ADDAY171031AY231031GA1001+999999999GF100991001001999999001001MD1210381+9999MW1011REMSYN060AAXX  27211 28588 41984 02507 11023 21042 40151 52038 70173;
0160285880999992000032800004+55570+071370FM-12+012999999V0202401N005012200019N0500001N1-00461-00701101681ADDAY171061AY231061GA1001+999999999GF100991001001999999001001MD1210151+9999MW1021REMSYN070AAXX  28001 28588 41984 02405 11046 21070 40168 52015 70273 333 91112;
0122285880999992000032812004+55570+071370FM-12+012999999V0202901N006019999999N0400001N1-00011-00921102191ADDGF106991061021999999001001MD1210091+9999REMSYN070AAXX  28121 28588 42982 62906 11001 21092 40219 52009 86200 333 91112;
0181285880999992000032818004+55570+071370FM-12+012999999V0202301N003012200019N0500001N1-00501-00861102381ADDAA199000091GA1001+999999999GF100991001001999999001001KA1120M-00021MD1210051+9999REMSYN070AAXX  28181 28588 32984 02303 11050 21086 40238 52005 333 11002 91112;EQDQ01  00002PRCP99
0122285880999992000032821004+55570+071370FM-12+012999999V0202501N003012200019N0500001N1-00551-00811102511ADDGA1001+999999999GF100991001001999999001001MD1210111+9999REMSYN054AAXX  28211 28588 42984 02503 11055 21081 40251 52011;
0122285880999992000032900004+55570+071370FM-12+012999999V0202401N004012200019N0500001N1-00611-00761102541ADDGA1001+999999999GF100991001001999999001001MD1210031+9999REMSYN054AAXX  29001 28588 42984 02404 11061 21076 40254 52003;
0175285880999992000032906004+55570+071370FM-12+012999999V0202401N005012200019N0500001N1-00071-00841102501ADDAA199000091GA1001+999999999GF100991001001999999001001KA1999N-00631MD1810041+9999REMSYN064AAXX  29061 28588 32984 02405 11007 21084 40250 58004 333 21063;EQDQ01  00002PRCP99
0122285880999992000032912004+55570+071370FM-12+012999999V0202101N005012200019N0400001N1+00051-01021102111ADDGA1001+999999999GF100991001001999999001001MD1710211+9999REMSYN054AAXX  29121 28588 42982 02105 10005 21102 40211 57021;
0175285880999992000032918004+55570+071370FM-12+012999999V0202601N003012200019N0500001N1-00481-00971101951ADDAA199000091GA1001+999999999GF100991001001999999001001KA1999M+00071MD1810231+9999REMSYN064AAXX  29181 28588 32984 02603 11048 21097 40195 58023 333 10007;EQDQ01  00002PRCP99
0122285880999992000032921004+55570+071370FM-12+012999999V0202501N003012200019N0500001N1-00581-00921101861ADDGA1001+999999999GF100991001001999999001001MD1710101+9999REMSYN054AAXX  29211 28588 42984 02503 11058 21092 40186 57010;
0122285880999992000033000004+55570+071370FM-12+012999999V0202401N004012200019N0500001N1-00681-01011101831ADDGA1001+999999999GF100991001001999999001001MD1710031+9999REMSYN054AAXX  30001 28588 42984 02404 11068 21101 40183 57003;
0175285880999992000033006004+55570+071370FM-12+012999999V0202501N006012200019N0400001N1-00201-00951101721ADDAA199000091GA1001+999999999GF100991001001999999001001KA1999N-00751MD1710031+9999REMSYN064AAXX  30061 28588 32982 02506 11020 21095 40172 57003 333 21075;EQDQ01  00002PRCP99
0122285880999992000033012004+55570+071370FM-12+012999999V0202401N007012200019N0400001N1+00041-00841101571ADDGF102991001001999999001021MD1710111+9999REMSYN070AAXX  30121 28588 42982 22407 10004 21084 40157 57011 80002 333 91112;
0175285880999992000033018004+55570+071370FM-12+012999999V0202401N005012200019N0500001N1-00281-00811101521ADDAA199000091GA1001+999999999GF100991001001999999001001KA1999M+00041MD1310031+9999REMSYN064AAXX  30181 28588 32984 02405 11028 21081 40152 53003 333 10004;EQDQ01  00002PRCP99
0122285880999992000033021004+55570+071370FM-12+012999999V0202401N005012200019N0500001N1-00381-00911101431ADDGA1001+999999999GF100991001001999999001001MD1810101+9999REMSYN054AAXX  30211 28588 42984 02405 11038 21091 40143 58010;
0112285880999992000033100004+55570+071370FM-12+012999999V0202201N003012200019N0500001N1-00561-00901101371ADDGF102991001001999999001021MD1710071+9999REMSYN060AAXX  31001 28588 42984 22203 11056 21090 40137 57007 80002;
0165285880999992000033106004+55570+071370FM-12+012999999V0202201N004019999999N0400001N1-00221-00691101251ADDAA199000091GF107991071001999999071001KA1999N-00651MD1710071+9999REMSYN070AAXX  31061 28588 32982 72204 11022 21069 40125 57007 87070 333 21065;EQDQ01  00002PRCP99
0106285880999992000033112004+55570+071370FM-12+012999999V0202401N005012200019N0400001N1+00091-00761999999ADDGF102991001001999999001071MD1710101+9999REMSYN054AAXX  31121 28588 42982 22405 10009 21076 57010 80007;
0174285880999992000033118004+55570+071370FM-12+012999999V0202401N006019999999N0060001N1-00141-00511100921ADDAA199000021AY171061AY211061GF107991071001999999071001KA1999M+00091MD1710051+9999MW1711REMSYN076AAXX  31181 28588 31956 72406 11014 21051 40092 57005 77171 87070 333 10009;
0140285880999992000033121004+55570+071370FM-12+012999999V0202401N007019999999N0500001N1-00211-00531100811ADDAY171031AY221031GF107991071001999999071001MD1710111+9999MW1021REMSYN066AAXX  31211 28588 41984 72407 11021 21053 40081 57011 70272 87070;
0140285880999992000040100004+55570+071370FM-12+012999999V0202301N006019999999N0500001N1-00161-00461100681ADDAY171061AY221061GF108991081001999999021999MD1710131+9999MW1021REMSYN066AAXX  01001 28588 41984 82306 11016 21046 40068 57013 70272 8802/;
0152285880999992000040106004+55570+071370FM-12+012999999V0202501N006019999999N0400001N1+00231-00261100761ADDAA199000021GF106991061001999999031001KA1120N-00251MD1210091+9999REMSYN076AAXX  01061 28588 32982 62506 10023 21026 40076 52009 86030 333 21025 91113;
0112285880999992000040112004+55570+071370FM-12+012999999V0202501N006012200019N0400001N1+00451-00161101311ADDGF102991021011008001001001MD1210291+9999REMSYN060AAXX  01121 28588 42582 22506 10045 21016 40131 52029 82100;
0175285880999992000040118004+55570+071370FM-12+012999999V0203201N003012200019N0500001N1+00051-00151102181ADDAA199000091GA1001+999999999GF100991001001999999001001KA1999M+00491MD1210401+9999REMSYN064AAXX  01181 28588 32984 03203 10005 21015 40218 52040 333 10049;EQDQ01  00002PRCP99
0122285880999992000040121004+55570+071370FM-12+012999999V0203201N003012200019N0500001N1-00171-00581102541ADDGA1001+999999999GF100991001001999999001001MD1210341+9999REMSYN054AAXX  01211 28588 42984 03203 11017 21058 40254 52034;
0122285880999992000040200004+55570+071370FM-12+012999999V0203601N002012200019N0500001N1-00401-00661102941ADDGA1001+999999999GF100991001001999999001001MD1210381+9999REMSYN054AAXX  02001 28588 42984 03602 11040 21066 40294 52038;
0175285880999992000040206004+55570+071370FM-12+012999999V0201101N003012200019N0400001N1+00021-01071103121ADDAA199000091GA1001+999999999GF100991001001999999001001KA1999N-00581MD1210121+9999REMSYN064AAXX  02061 28588 32982 01103 10002 21107 40312 52012 333 21058;EQDQ01  00002PRCP99
0175285880999992000040218004+55570+071370FM-12+012999999V0201601N005012200019N0400001N1-00071-00351102521ADDAA199000091GA1001+999999999GF100991001001999999001001KA1999M+00321MD1710261+9999REMSYN064AAXX  02181 28588 32982 01605 11007 21035 40252 57026 333 10032;EQDQ01  00002PRCP99
0122285880999992000040221004+55570+071370FM-12+012999999V0201801N003012200019N0400001N1-00041-00191102331ADDGA1001+999999999GF100991001001999999001001MD1710191+9999REMSYN054AAXX  02211 28588 42982 01803 11004 21019 40233 57019;
0140285880999992000040300004+55570+071370FM-12+012999999V0201801N003012200019N0090001N1-00121-00221102161ADDAY101061AY201061GF101991001001999999001021MD1710171+9999MW1101REMSYN066AAXX  03001 28588 41959 11803 11012 21022 40216 57017 71000 80002;
0165285880999992000040306004+55570+071370FM-12+012999999V0202001N005012200019N0250001N1+00451-00291101881ADDAA199000091GF101991011001999999051001KA1999N-00191MD1710081+9999REMSYN070AAXX  03061 28588 32975 12005 10045 21029 40188 57008 81050 333 21019;EQDQ01  00002PRCP99
0122285880999992000040312004+55570+071370FM-12+012999999V0202601N005012200019N0400001N1+00641-00201101851ADDGA1001+999999999GF100991001001999999001001MD1310041+9999REMSYN054AAXX  03121 28588 42982 02605 10064 21020 40185 53004;
0175285880999992000040318004+55570+071370FM-12+012999999V0202701N003012200019N0500001N1+00061-00111102201ADDAA199000091GA1001+999999999GF100991001001999999001001KA1999M+00701MD1210161+9999REMSYN064AAXX  03181 28588 32984 02703 10006 21011 40220 52016 333 10070;EQDQ01  00002PRCP99
0122285880999992000040321004+55570+071370FM-12+012999999V0202601N003012200019N0500001N1-00021-00171102361ADDGA1001+999999999GF100991001001999999001001MD1210151+9999REMSYN054AAXX  03211 28588 42984 02603 11002 21017 40236 52015;
0112285880999992000040400004+55570+071370FM-12+012999999V0202601N002019999999N0250001N1-00121-00221102581ADDGF107991071001999999071001MD1210211+9999REMSYN060AAXX  04001 28588 42975 72602 11012 21022 40258 52021 87070;
0165285880999992000040406004+55570+071370FM-12+012999999V0203101N002012200019N0400001N1+00541-00041103071ADDAA199000091GF101991001001999999001021KA1999N-00201MD1210251+9999REMSYN070AAXX  04061 28588 32982 13102 10054 21004 40307 52025 80002 333 21020;EQDQ01  00002PRCP99
0112285880999992000040412004+55570+071370FM-12+012999999V0202401N003010750019N0400001N1+00641-00071103141ADDGF105991021011012501001021MD1810031+9999REMSYN060AAXX  04121 28588 42682 52403 10064 21007 40314 58003 82102;
0165285880999992000040418004+55570+071370FM-12+012999999V0201501N004010075019N0500001N1+00281-00531103391ADDAA199000091GF107991071051008001001001KA1999M+00701MD1210021+9999REMSYN070AAXX  04181 28588 32584 71504 10028 21053 40339 52002 87500 333 10070;EQDQ01  00002PRCP99
0122285880999992000040421004+55570+071370FM-12+012999999V0201501N003012200019N0500001N1+00081-00281103231ADDGA1001+999999999GF100991001001999999001001MD1810171+9999REMSYN054AAXX  04211 28588 42984 01503 10008 21028 40323 58017;
0131285880999992000040500004+55570+071370FM-12+012999999V0201701N003019999999N0500001N1+00021-00211103121ADDGF105991999001999999031001MD1710131+9999REMSYN060AAXX  05001 28588 42984 51703 10002 21021 40312 57013 86030;EQDQ01+000062SCOTLC
0165285880999992000040506004+55570+071370FM-12+012999999V0201501N006019999999N0300001N1+00671-00061102691ADDAA199000091GF106991001001999999001021KA1999N-00091MD1710181+9999REMSYN070AAXX  05061 28588 32980 61506 10067 21006 40269 57018 80002 333 21009;EQDQ01  00002PRCP99
0181285880999992000040518004+55570+071370FM-12+012999999V0201901N003019999999N0500001N1+00541+00021101931ADDAA199000091GF105991999001999999031001KA1999M+00951MD1710121+9999REMSYN070AAXX  05181 28588 32984 51903 10054 20002 40193 57012 86030 333 10095;EQDQ01+000062SCOTLCQ02  00002PRCP99
0122285880999992000040521004+55570+071370FM-12+012999999V0201901N002012200019N0500001N1+00321-00191101841ADDGA1001+999999999GF100991001001999999001001MD1710101+9999REMSYN054AAXX  05211 28588 42984 01902 10032 21019 40184 57010;
0122285880999992000040600004+55570+071370FM-12+012999999V0201801N002012200019N0500001N1+00181-00291101851ADDGA1001+999999999GF100991001001999999001001MD1410001+9999REMSYN054AAXX  06001 28588 42984 01802 10018 21029 40185 54000;
0165285880999992000040606004+55570+071370FM-12+012999999V0200301N003019999999N0180001N1+00851+00301101951ADDAA199000091GF105991001001999999001011KA1999N+00071MD1210131+9999REMSYN070AAXX  06061 28588 32968 50303 10085 20030 40195 52013 80001 333 20007;EQDQ01  00002PRCP99
0112285880999992000040612004+55570+071370FM-12+012999999V0200301N007012200019N0400001N1+00481+00211102311ADDGF102991021011008001001001MD1210181+9999REMSYN060AAXX  06121 28588 42582 20307 10048 20021 40231 52018 82100;
0175285880999992000040618004+55570+071370FM-12+012999999V0200501N006012200019N0500001N1-00031-00541102801ADDAA199000091GA1001+999999999GF100991001001999999001001KA1999M+00911MD1210161+9999REMSYN064AAXX  06181 28588 32984 00506 11003 21054 40280 52016 333 10091;EQDQ01  00002PRCP99
0122285880999992000040621004+55570+071370FM-12+012999999V0200701N006012200019N0500001N1-00181-00641103011ADDGA1001+999999999GF100991001001999999001001MD1210201+9999REMSYN054AAXX  06211 28588 42984 00706 11018 21064 40301 52020;
0122285880999992000040700004+55570+071370FM-12+012999999V0200901N005012200019N0500001N1-00331-00721103161ADDGA1001+999999999GF100991001001999999001001MD1210141+9999REMSYN054AAXX  07001 28588 42984 00905 11033 21072 40316 52014;
0175285880999992000040706004+55570+071370FM-12+012999999V0201001N005012200019N0400001N1+00041-00661103441ADDAA199000091GA1001+999999999GF100991001001999999001001KA1999N-00391MD1210061+9999REMSYN064AAXX  07061 28588 32982 01005 10004 21066 40344 52006 333 21039;EQDQ01  00002PRCP99
0122285880999992000040712004+55570+071370FM-12+012999999V0201101N006012200019N0400001N1+00431-00591103261ADDGA1001+999999999GF100991001001999999001001MD1710071+9999REMSYN054AAXX  07121 28588 42982 01106 10043 21059 40326 57007;
0175285880999992000040718004+55570+071370FM-12+012999999V0201401N004012200019N0500001N1-00131-00531103231ADDAA199000091GA1001+999999999GF100991001001999999001001KA1999M+00441MD1710041+9999REMSYN064AAXX  07181 28588 32984 01404 11013 21053 40323 57004 333 10044;EQDQ01  00002PRCP99
0122285880999992000040721004+55570+071370FM-12+012999999V0201401N003012200019N0500001N1-00291-00461103141ADDGA1001+999999999GF100991001001999999001001MD1710101+9999REMSYN054AAXX  07211 28588 42984 01403 11029 21046 40314 57010;
0122285880999992000040800004+55570+071370FM-12+012999999V0201501N004012200019N0500001N1-00401-00421103101ADDGA1001+999999999GF100991001001999999001001MD1710051+9999REMSYN054AAXX  08001 28588 42984 01504 11040 21042 40310 57005;
0175285880999992000040806004+55570+071370FM-12+012999999V0201401N006012200019N0400001N1+00321-00401102801ADDAA199000091GA1001+999999999GF100991001001999999001001KA1999N-00441MD1710091+9999REMSYN064AAXX  08061 28588 32982 01406 10032 21040 40280 57009 333 21044;EQDQ01  00002PRCP99
0112285880999992000040812004+55570+071370FM-12+012999999V0201501N007019999999N0400001N1+00741-00191102271ADDGF106991001001999999001021MD1710261+9999REMSYN060AAXX  08121 28588 42982 61507 10074 21019 40227 57026 80002;
0174285880999992000040818004+55570+071370FM-12+012999999V0201301N004019999999N0060001N1+00381-00091101881ADDAA199000021AY161061AY221061GF107991071001999999071001KA1999M+00751MD1710201+9999MW1611REMSYN076AAXX  08181 28588 31956 71304 10038 21009 40188 57020 76162 87070 333 10075;
0140285880999992000040821004+55570+071370FM-12+012999999V0201101N005010042019N0090001N1+00291+00131101241ADDAY161031AY221031GF108991081001004501021999MD1710631+9999MW1611REMSYN066AAXX  08211 28588 41459 81105 10029 20013 40124 57063 76162 8802/;
0134285880999992000040900004+55570+071370FM-12+012999999V0201201N004019999999N0500001N1+00281+99999101031ADDAY161061AY221061GF108991081001999999021999MD1710231+9999MW1021REMSYN060AAXX  09001 28588 41984 81204 10028 40103 57023 70262 8802/;
0180285880999992000040906004+55570+071370FM-12+012999999V0202501N003010042019N0350001N1+00761+00451100531ADDAA100002091AY151061AY221061GF108991081001004501021999KA1999N+00191MD1710211+9999MW1021REMSYN082AAXX  09061 28588 11481 82503 10076 20045 40053 57021 60020 70252 8802/ 333 20019;
0140285880999992000040912004+55570+071370FM-12+012999999V0203301N018010042019N0060001N1+00181+00151101001ADDAY161061AY251061GF108991081001004501021999MD1210211+9999MW1611REMSYN066AAXX  09121 28588 41456 83318 10018 20015 40100 52021 76165 8802/;
0190285880999992000040918004+55570+071370FM-12+012999999V0203401N006012200019N0500001N1+00101-00041101671ADDAA100002091AY161061AY211061GA1001+999999999GF100991001001999999001001KA1999M+00781MD1210321+9999MW1011REMSYN076AAXX  09181 28588 11984 03406 10010 21004 40167 52032 60020 70161 333 10078;
0112285880999992000040921004+55570+071370FM-12+012999999V0203601N006019999999N0500001N1+00001-00231101971ADDGF108991081001999999021999MD1210291+9999REMSYN060AAXX  09211 28588 42984 83606 10000 21023 40197 52029 8802/;
0122285880999992000041000004+55570+071370FM-12+012999999V0203601N007012200019N0500001N1-00301-00571102411ADDGA1001+999999999GF100991001001999999001001MD1210421+9999REMSYN054AAXX  10001 28588 42984 03607 11030 21057 40241 52042;
0175285880999992000041006004+55570+071370FM-12+012999999V0200301N005012200019N0400001N1-00131-01081103081ADDAA199000091GA1001+999999999GF100991001001999999001001KA1999N-00481MD1210281+9999REMSYN064AAXX  10061 28588 32982 00305 11013 21108 40308 52028 333 21048;EQDQ01  00002PRCP99
0122285880999992000041012004+55570+071370FM-12+012999999V0200201N003012200019N0400001N1+00351-01251103171ADDGA1001+999999999GF100991001001999999001001MD1210031+9999REMSYN054AAXX  10121 28588 42982 00203 10035 21125 40317 52003;
0175285880999992000041018004+55570+071370FM-12+012999999V0202101N002012200019N0500001N1-00141-00901103301ADDAA199000091GA1001+999999999GF100991001001999999001001KA1999M+00351MD1210031+9999REMSYN064AAXX  10181 28588 32984 02102 11014 21090 40330 52003 333 10035;EQDQ01  00002PRCP99
0122285880999992000041021004+55570+071370FM-12+012999999V0201701N001012200019N0500001N1-00371-00621103291ADDGA1001+999999999GF100991001001999999001001MD1810021+9999REMSYN054AAXX  10211 28588 42984 01701 11037 21062 40329 58002;
0122285880999992000041100004+55570+071370FM-12+012999999V0201901N001012200019N0500001N1-00401-00771103401ADDGA1001+999999999GF100991001001999999001001MD1310111+9999REMSYN054AAXX  11001 28588 42984 01901 11040 21077 40340 53011;
0175285880999992000041106004+55570+071370FM-12+012999999V0202201N003012200019N0400001N1+00611-00931103291ADDAA199000091GA1001+999999999GF100991001001999999001001KA1999N-00441MD1810051+9999REMSYN064AAXX  11061 28588 32982 02203 10061 21093 40329 58005 333 21044;EQDQ01  00002PRCP99
0112285880999992000041112004+55570+071370FM-12+012999999V0201801N004012200019N0400001N1+00971-00781103041ADDGF102991001001999999001011MD1710141+9999REMSYN060AAXX  11121 28588 42982 21804 10097 21078 40304 57014 80001;
0165285880999992000041118004+55570+071370FM-12+012999999V0201501N003019999999N0500001N1+00291-00471102861ADDAA199000091GF106991001001999999001011KA1999M+00981MD1710051+9999REMSYN070AAXX  11181 28588 32984 61503 10029 21047 40286 57005 80001 333 10098;EQDQ01  00002PRCP99
0112285880999992000041121004+55570+071370FM-12+012999999V0201601N003019999999N0500001N1+00191-00501102801ADDGF107991001001999999001011MD1710071+9999REMSYN060AAXX  11211 28588 42984 71603 10019 21050 40280 57007 80001;
0112285880999992000041200004+55570+071370FM-12+012999999V0201201N002019999999N0500001N1-00041-00381102591ADDGF108991001001999999001021MD1710221+9999REMSYN060AAXX  12001 28588 42984 81202 11004 21038 40259 57022 80002;
0188285880999992000041206004+55570+071370FM-12+012999999V0201401N008019999999N0400001N1+00621-00621102251ADDAA199000091GF107991061001999999071051KA1120N-00081MD1710171+9999OA140101201REMSYN082AAXX  12061 28588 32982 71408 10062 21062 40225 57017 86075 333 21008 91012 91112;EQDQ01  00002PRCP99
0122285880999992000041212004+55570+071370FM-12+012999999V0201301N006019999999N0400001N1+00761-00251101901ADDGF107991071001999999071001MD1710081+9999REMSYN070AAXX  12121 28588 42982 71306 10076 21025 40190 57008 87070 333 91114;
0165285880999992000041218004+55570+071370FM-12+012999999V0201101N004010075019N0500001N1+00581-00151101331ADDAA199000091GF107991071051008001001001KA1999M+00861MD1710211+9999REMSYN070AAXX  12181 28588 32584 71104 10058 21015 40133 57021 87500 333 10086;EQDQ01  00002PRCP99
0122285880999992000041221004+55570+071370FM-12+012999999V0201101N002012200019N0500001N1+00171-00081101191ADDGA1001+999999999GF100991001001999999001001MD1710161+9999REMSYN054AAXX  12211 28588 42984 01102 10017 21008 40119 57016;
0112285880999992000041300004+55570+071370FM-12+012999999V0201201N001012200019N0500001N1+00041-00071101111ADDGF101991001001999999001011MD1710091+9999REMSYN060AAXX  13001 28588 42984 11201 10004 21007 40111 57009 80001;
0165285880999992000041306004+55570+071370FM-12+012999999V0200801N004012200019N0400001N1+01331+00231100861ADDAA199000091GF103991001001999999001021KA1999N-00111MD1710081+9999REMSYN070AAXX  13061 28588 32982 30804 10133 20023 40086 57008 80002 333 21011;EQDQ01  00002PRCP99
0112285880999992000041312004+55570+071370FM-12+012999999V0201401N003012200019N0400001N1+01851+00431100601ADDGF103991021021008001001011MD1710151+9999REMSYN060AAXX  13121 28588 42582 31403 10185 20043 40060 57015 82201;
0165285880999992000041318004+55570+071370FM-12+012999999V0209999C000019999999N0500001N1+01161+00611100601ADDAA199000091GF106991021001999999061021KA1999M+01861MD1310051+9999REMSYN070AAXX  13181 28588 32984 60000 10116 20061 40060 53005 82062 333 10186;EQDQ01  00002PRCP99
0112285880999992000041321004+55570+071370FM-12+012999999V0203501N002019999999N0500001N1+00761+00561100651ADDGF108991001001999999001011MD1210031+9999REMSYN060AAXX  13211 28588 42984 83502 10076 20056 40065 52003 80001;
0112285880999992000041400004+55570+071370FM-12+012999999V0202401N001010075019N0280001N1+00821+00511100611ADDGF107991071091008001001001MD1810031+9999REMSYN060AAXX  14001 28588 42578 72401 10082 20051 40061 58003 87900;
0180285880999992000041406004+55570+071370FM-12+012999999V0202501N001019999999N0160001N1+01331+00591100511ADDAA100000191AY181061AY221061GF107991071001999999051001KA1999N+00551MD1710021+9999MW1021REMSYN082AAXX  14061 28588 11966 72501 10133 20059 40051 57002 69910 70282 87050 333 20055;
0180285880999992000041418004+55570+071370FM-12+012999999V0202701N002019999999N0290001N1+00721+00651100481ADDAA100004191AY161061AY221061GF106991061001999999051001KA1999M+01331MD1710031+9999MW1021REMSYN082AAXX  14181 28588 11979 62702 10072 20065 40048 57003 60040 70262 86050 333 10133;
0140285880999992000041500004+55570+071370FM-12+012999999V0202701N006019999999N0060001N1+00561+00561100701ADDAY161061AY221061GF108991081001999999021999MD1210141+9999MW1611REMSYN066AAXX  15001 28588 41956 82706 10056 20056 40070 52014 76162 8802/;
0221285880999992000041506004+55570+071370FM-12+012999999V0202601N005010051019N0060001N1+00401+00351100871ADDAA100002091AY161061AY221061GA1081+005109069GF108991999071004501021999KA1120N+00361MD1210091+9999MW1611REMSYN088AAXX  15061 28588 11456 82605 10040 20035 40087 52009 60020 76162 8872/ 333 20036 88717;EQDQ01+000082SCOTLC
0140285880999992000041512004+55570+071370FM-12+012999999V0203001N005010042019N0060001N1+00491+00471101061ADDAY161061AY251061GF108991081001004501021999MD1210081+9999MW1211REMSYN066AAXX  15121 28588 41456 83005 10049 20047 40106 52008 72165 8802/;
0180285880999992000041518004+55570+071370FM-12+012999999V0202901N005010042019N0500001N1+00561+00511101581ADDAA100004191AY161061AY221061GF108991081001004501021999KA1999M+00631MD1210321+9999MW1021REMSYN082AAXX  15181 28588 11484 82905 10056 20051 40158 52032 60040 70262 8802/ 333 10063;
0112285880999992000041521004+55570+071370FM-12+012999999V0202801N004010042019N0500001N1+00461+00391101761ADDGF108991081001004501021999MD1210171+9999REMSYN060AAXX  15211 28588 42484 82804 10046 20039 40176 52017 8802/;
0112285880999992000041600004+55570+071370FM-12+012999999V0202701N003012200019N0500001N1+00181+00071101181ADDGF102991001001999999001021MD1210101+9999REMSYN060AAXX  16001 28588 42984 22703 10018 20007 40118 52010 80002;
0165285880999992000041606004+55570+071370FM-12+012999999V0203201N004012200019N0400001N1+01051+00291102091ADDAA199000091GF102991001001999999001011KA1999N+00161MD1210111+9999REMSYN070AAXX  16061 28588 32982 23204 10105 20029 40209 52011 80001 333 20016;EQDQ01  00002PRCP99
0112285880999992000041612004+55570+071370FM-12+012999999V0203001N004012200019N0400001N1+01631-00051102071ADDGF102991001001999999001021MD1810021+9999REMSYN060AAXX  16121 28588 42982 23004 10163 21005 40207 58002 80002;
0165285880999992000041618004+55570+071370FM-12+012999999V0202301N002019999999N0500001N1+00891+00041102191ADDAA199000091GF108991001001999999001071KA1999M+01641MD1210011+9999REMSYN070AAXX  16181 28588 32984 82302 10089 20004 40219 52001 80007 333 10164;EQDQ01  00002PRCP99
0122285880999992000041621004+55570+071370FM-12+012999999V0202201N003012200019N0500001N1+00871+00041102161ADDGA1001+999999999GF100991001001999999001001MD1810031+9999REMSYN054AAXX  16211 28588 42984 02203 10087 20004 40216 58003;
0112285880999992000041700004+55570+071370FM-12+012999999V0209999C000019999999N0280001N1+00651+00291102191ADDGF108991001001999999001021MD1310021+9999REMSYN060AAXX  17001 28588 42978 80000 10065 20029 40219 53002 80002;
0165285880999992000041706004+55570+071370FM-12+012999999V0202701N006019999999N0130001N1+01741+00211102061ADDAA199000091GF108991001001999999001021KA1999N+00591MD1810091+9999REMSYN070AAXX  17061 28588 32963 82706 10174 20021 40206 58009 80002 333 20059;EQDQ01  00002PRCP99
0122285880999992000041712004+55570+071370FM-12+012999999V0203001N006012200019N0140001N1+01771+00321102071ADDGF102991001001999999001021MD1310011+9999REMSYN070AAXX  17121 28588 42964 23006 10177 20032 40207 53001 80002 333 91112;
0165285880999992000041718004+55570+071370FM-12+012999999V0209999C000012200019N0120001N1+00941+00411102211ADDAA199000091GF101991001001999999001011KA1999M+01821MD1210061+9999REMSYN070AAXX  17181 28588 32962 10000 10094 20041 40221 52006 80001 333 10182;EQDQ01  00002PRCP99
0140285880999992000041721004+55570+071370FM-12+012999999V0202501N002010075019N0090001N1+00811+00411102231ADDAY111031AY211031GF105991051091008001001001MD1210011+9999MW1101REMSYN066AAXX  17211 28588 41559 52502 10081 20041 40223 52001 71011 85900;
0140285880999992000041800004+55570+071370FM-12+012999999V0209999C000010075019N0090001N1+00581+00511102301ADDAY111061AY211061GF106991061091008001001001MD1210051+9999MW1101REMSYN066AAXX  18001 28588 41559 60000 10058 20051 40230 52005 71011 86900;
0165285880999992000041806004+55570+071370FM-12+012999999V0200301N003019999999N0290001N1+01001+00451102511ADDAA199000091GF107991071001999999051001KA1999N+00571MD1210061+9999REMSYN070AAXX  18061 28588 32979 70303 10100 20045 40251 52006 87050 333 20057;EQDQ01  00002PRCP99
0112285880999992000041812004+55570+071370FM-12+012999999V0200601N006019999999N0400001N1+01221+00061102861ADDGF107991001001999999001021MD1210101+9999REMSYN060AAXX  18121 28588 42982 70606 10122 20006 40286 52010 80002;
0175285880999992000041818004+55570+071370FM-12+012999999V0200501N003012200019N0500001N1+00421+00001103161ADDAA199000091GA1001+999999999GF100991001001999999001001KA1999M+01391MD1210131+9999REMSYN064AAXX  18181 28588 32984 00503 10042 21000 40316 52013 333 10139;EQDQ01  00002PRCP99
0122285880999992000041821004+55570+071370FM-12+012999999V0200601N002012200019N0190001N1+00331-00081103221ADDGA1001+999999999GF100991001001999999001001MD1210061+9999REMSYN054AAXX  18211 28588 42969 00602 10033 21008 40322 52006;
0112285880999992000041900004+55570+071370FM-12+012999999V0200801N002012200019N0270001N1+00161-00091103281ADDGF102991001001999999001021MD1210051+9999REMSYN060AAXX  19001 28588 42977 20802 10016 21009 40328 52005 80002;
0175285880999992000041906004+55570+071370FM-12+012999999V0200901N004012200019N0400001N1+01201+00211103231ADDAA199000091GA1001+999999999GF100991001001999999001001KA1999N+00101MD1810131+9999REMSYN064AAXX  19061 28588 32982 00904 10120 20021 40323 58013 333 20010;EQDQ01  00002PRCP99
0122285880999992000041912004+55570+071370FM-12+012999999V0202101N002012200019N0400001N1+01691+00361102941ADDGA1001+999999999GF100991001001999999001001MD1710211+9999REMSYN054AAXX  19121 28588 42982 02102 10169 20036 40294 57021;
0175285880999992000041918004+55570+071370FM-12+012999999V0201301N001012200019N0260001N1+00901+00291102831ADDAA199000091GA1001+999999999GF100991001001999999001001KA1999M+01711MD1710051+9999REMSYN064AAXX  19181 28588 32976 01301 10090 20029 40283 57005 333 10171;EQDQ01  00002PRCP99
0150285880999992000041921004+55570+071370FM-12+012999999V0201801N001012200019N0060001N1+00561+00421102811ADDAY101031AY201031GA1001+999999999GF100991001001999999001001MD1710041+9999MW1101REMSYN060AAXX  19211 28588 41956 01801 10056 20042 40281 57004 71000;
0150285880999992000042000004+55570+071370FM-12+012999999V0209999C000012200019N0090001N1+00341+00291102871ADDAY101061AY201061GA1001+999999999GF100991001001999999001001MD1310041+9999MW1101REMSYN060AAXX  20001 28588 41959 00000 10034 20029 40287 53004 71000;
0175285880999992000042006004+55570+071370FM-12+012999999V0201601N003012200019N0400001N1+01771+00171102721ADDAA199000091GA1001+999999999GF100991001001999999001001KA1999N+00271MD1710081+9999REMSYN064AAXX  20061 28588 32982 01603 10177 20017 40272 57008 333 20027;EQDQ01  00002PRCP99
0112285880999992000042012004+55570+071370FM-12+012999999V0202601N002010075019N0400001N1+01971+00191102361ADDGF105991051021008001001001MD1710171+9999REMSYN060AAXX  20121 28588 42582 52602 10197 20019 40236 57017 85200;
0203285880999992000042018004+55570+071370FM-12+012999999V0201701N002012200019N0060001N1+00891+00461102301ADDAA199000091AY111061AY211061GA1001+999999999GF100991001001999999001001KA1999M+01991MD1710051+9999MW1101REMSYN070AAXX  20181 28588 31956 01702 10089 20046 40230 57005 71011 333 10199;EQDQ01  00002PRCP99
0150285880999992000042021004+55570+071370FM-12+012999999V0201701N002012200019N0060001N1+00581+00211102271ADDAY101031AY201031GA1001+999999999GF100991001001999999001001MD1710061+9999MW1101REMSYN060AAXX  20211 28588 41956 01702 10058 20021 40227 57006 71000;
0165285880999992000042106004+55570+071370FM-12+012999999V0201401N002019999999N0400001N1+01791-00271102031ADDAA199000091GF106991001001999999001021KA1999N+00361MD1710121+9999REMSYN070AAXX  21061 28588 32982 61402 10179 21027 40203 57012 80002 333 20036;EQDQ01  00002PRCP99
0112285880999992000042112004+55570+071370FM-12+012999999V0201901N003012200019N0400001N1+01981-00141101681ADDGF103991021001999999031021MD1710151+9999REMSYN060AAXX  21121 28588 42982 31903 10198 21014 40168 57015 82032;
0175285880999992000042118004+55570+071370FM-12+012999999V0209999C000012200019N0500001N1+00951+00191101641ADDAA199000091GA1001+999999999GF100991001001999999001001KA1999M+02041MD1310021+9999REMSYN064AAXX  21181 28588 32984 00000 10095 20019 40164 53002 333 10204;EQDQ01  00002PRCP99
0112285880999992000042121004+55570+071370FM-12+012999999V0202301N001019999999N0500001N1+01021+00111101671ADDGF108991001001999999001021MD1210031+9999REMSYN060AAXX  21211 28588 42984 82301 10102 20011 40167 52003 80002;
0193285880999992000042200004+55570+071370FM-12+012999999V0202001N003012200019N0070001N1+01391+00321101321ADDAA199000091AY101061AY201061GF102991001001999999001021KA1999M+02051MD1710151+9999MW1041REMSYN076AAXX  23181 28588 31957 22003 10139 20032 40132 57015 70400 80002 333 10205;EQDQ01  00002PRCP99
0165285880999992000042206004+55570+071370FM-12+012999999V0203001N005019999999N0150001N1+01871+00401101621ADDAA199000091GF105991001001999999001021KA1999N+00571MD1210051+9999REMSYN070AAXX  22061 28588 32965 53005 10187 20040 40162 52005 80002 333 20057;EQDQ01  00002PRCP99
0181285880999992000042218004+55570+071370FM-12+012999999V0200401N003012200019N0500001N1+00711-00051102261ADDAA199000091GA1001+999999999GF100991001001999999001001KA1120M+02071MD1210201+9999REMSYN070AAXX  22181 28588 32984 00403 10071 21005 40226 52020 333 10207 91112;EQDQ01  00002PRCP99
0122285880999992000042221004+55570+071370FM-12+012999999V0202701N002012200019N0500001N1+00401+00091102401ADDGA1001+999999999GF100991001001999999001001MD1210111+9999REMSYN054AAXX  22211 28588 42984 02702 10040 20009 40240 52011;
0140285880999992000042300004+55570+071370FM-12+012999999V0201901N001012200019N0090001N1+00091+00041102451ADDAY101061AY201061GF102991001001999999001021MD1210041+9999MW1101REMSYN066AAXX  23001 28588 41959 21901 10009 20004 40245 52004 71000 80002;
0175285880999992000042306004+55570+071370FM-12+012999999V0202101N003012200019N0260001N1+01601+00041102361ADDAA199000091GA1001+999999999GF100991001001999999001001KA1999N+00071MD1810041+9999REMSYN064AAXX  23061 28588 32976 02103 10160 20004 40236 58004 333 20007;EQDQ01  00002PRCP99
0112285880999992000042312004+55570+071370FM-12+012999999V0202701N006012200019N0280001N1+02041+00211101801ADDGF102991001001999999001011MD1710201+9999REMSYN060AAXX  23121 28588 42978 22706 10204 20021 40180 57020 80001;
0140285880999992000042321004+55570+071370FM-12+012999999V0201901N001012200019N0080001N1+01261+00291101101ADDAY101031AY201031GF103991001001999999001021MD1710221+9999MW1041REMSYN066AAXX  23211 28588 41958 31901 10126 20029 40110 57022 70400 80002;
0140285880999992000042400004+55570+071370FM-12+012999999V0202201N003019999999N0080001N1+01301+00301100891ADDAY111061AY211061GF107991071001999999071001MD1710201+9999MW1041REMSYN066AAXX  24001 28588 41958 72203 10130 20030 40089 57020 70411 87070;
0163285880999992000042406004+55570+071370FM-12+012999999V0202401N004019999999N0400001N1+01831+00801100941ADDAY181061AY221061GF106991001001999999001021KA1999N+01211MD1310131+9999MW1021REMSYN076AAXX  24061 28588 11982 62404 10183 20080 40094 53013 70282 80002 333 20121;
0190285880999992000042418004+55570+071370FM-12+012999999V0203201N004012200019N0280001N1+01001+00811101321ADDAA100000791AY181061AY211061GA1001+999999999GF100991001001999999001001KA1999M+01951MD1210171+9999MW1011REMSYN076AAXX  24181 28588 11978 03204 10100 20081 40132 52017 69900 70181 333 10195;
0122285880999992000042421004+55570+071370FM-12+012999999V0202901N002012200019N0260001N1+00541+00471101601ADDGA1001+999999999GF100991001001999999001001MD1210241+9999REMSYN054AAXX  24211 28588 42976 02902 10054 20047 40160 52024;
0112285880999992000042500004+55570+071370FM-12+012999999V0209999C000012200019N0220001N1+00321+00241101621ADDGF102991001001999999001021MD1210011+9999REMSYN060AAXX  25001 28588 42972 20000 10032 20024 40162 52001 80002;
0152285880999992000042506004+55570+071370FM-12+012999999V0202501N004019999999N0400001N1+01351+00151101331ADDAA100000591GF106991001001999999001021KA1999N+00271MD1710201+9999REMSYN076AAXX  25061 28588 12982 62504 10135 20015 40133 57020 69940 80002 333 20027;
0112285880999992000042512004+55570+071370FM-12+012999999V0203001N005010075019N0260001N1+01571+00231100841ADDGF108991061091008001001021MD1710181+9999REMSYN060AAXX  25121 28588 42576 83005 10157 20023 40084 57018 86902;
0180285880999992000042518004+55570+071370FM-12+012999999V0203201N006010075019N0500001N1+00971+00381100911ADDAA100000791AY181061AY221061GF106991061091008001001001KA1999M+01711MD1310111+9999MW1251REMSYN082AAXX  25181 28588 /1584 63206 10097 20038 40091 53011 69900 72582 86900 333 10171;
0150285880999992000042521004+55570+071370FM-12+012999999V0203201N006012200019N0500001N1+00571+00141101151ADDAY181031AY211031GA1001+999999999GF100991001001999999001001MD1210211+9999MW1011REMSYN060AAXX  25211 28588 41984 03206 10057 20014 40115 52021 70181;
0159285880999992000042600004+55570+071370FM-12+012999999V0203201N012019999999N0500001N1+00211-00301101271ADDAY181061AY211061GF105991999001999999031001MD1210101+9999MW1031REMSYN066AAXX  26001 28588 41984 53212 10021 21030 40127 52010 70381 86030;EQDQ01+000062SCOTLC
0152285880999992000042606004+55570+071370FM-12+012999999V0203201N012010075019N0400001N1+00291-00331101841ADDAA100000791GF107991071091008001001001KA1999N+00151MD1210251+9999REMSYN076AAXX  26061 28588 12582 73212 10029 21033 40184 52025 69900 87900 333 20015;
0112285880999992000042612004+55570+071370FM-12+012999999V0203401N012012200019N0400001N1+00711-00471102111ADDGF103991031021008001001001MD1210051+9999REMSYN060AAXX  26121 28588 42582 33412 10071 21047 40211 52005 83200;
0165285880999992000042618004+55570+071370FM-12+012999999V0201701N001010075019N0500001N1+00431-00321102301ADDAA199000091GF107991071051008001001001KA1999M+00711MD1210061+9999REMSYN070AAXX  26181 28588 32584 71701 10043 21032 40230 52006 87500 333 10071;EQDQ01  00002PRCP99
0112285880999992000042621004+55570+071370FM-12+012999999V0201801N003010075019N0500001N1+00501-00371102131ADDGF107991071051008001001001MD1810161+9999REMSYN060AAXX  26211 28588 42584 71803 10050 21037 40213 58016 87500;
0112285880999992000042700004+55570+071370FM-12+012999999V0202001N005010750019N0500001N1+00481-00471101931ADDGF107991021051008001001021MD1710191+9999REMSYN060AAXX  27001 28588 42584 72005 10048 21047 40193 57019 82502;
0188285880999992000042706004+55570+071370FM-12+012999999V0202301N009012200019N0130001N1+01911+00111101451ADDAA199000091GF102991011011008001001021KA1120N+00351MD1710211+9999OA140101201REMSYN082AAXX  27061 28588 32563 22309 10191 20011 40145 57021 81102 333 20035 91012 91113;EQDQ01  00002PRCP99
0139285880999992000042712004+55570+071370FM-12+012999999V0202701N009012200019N0070001N1+02341+00171101131ADDGF102991001001999999001021MD1710151+9999OA140101401REMSYN076AAXX  27121 28588 42957 22709 10234 20017 40113 57015 80002 333 91014 91117;
0181285880999992000042718004+55570+071370FM-12+012999999V0202401N006012200019N0500001N1+01751+00271100871ADDAA199000091GA1001+999999999GF100991001001999999001001KA1120M+02341MD1710181+9999REMSYN070AAXX  27181 28588 32984 02406 10175 20027 40087 57018 333 10234 91114;EQDQ01  00002PRCP99
0122285880999992000042721004+55570+071370FM-12+012999999V0202401N007012200019N0500001N1+01671+00501100661ADDGA1001+999999999GF100991001001999999001001MD1710211+9999REMSYN054AAXX  27211 28588 42984 02407 10167 20050 40066 57021;
0112285880999992000042800004+55570+071370FM-12+012999999V0202801N007012200019N0200001N1+01481+00481100501ADDGF102991001001999999001021MD1710171+9999REMSYN060AAXX  28001 28588 42970 22807 10148 20048 40050 57017 80002;
0171285880999992000042806004+55570+071370FM-12+012999999V0202801N009010300019N0260001N1+01701+00771100471ADDAA199000091GF105991041091008001061001KA1120N+01451MD1310121+9999REMSYN076AAXX  28061 28588 32576 52809 10170 20077 40047 53012 84960 333 20145 91113;EQDQ01  00002PRCP99
0167285880999992000042812004+55570+071370FM-12+012999999V0203401N008010075019N0070001N1+00641+00551100941ADDAY161061AY221061GF107991071071008001001001MD1210171+9999MW1611OA140101201REMSYN082AAXX  28121 28588 41557 73408 10064 20055 40094 52017 76162 87700 333 91012 91113;
0196285880999992000042818004+55570+071370FM-12+012999999V0203601N005012200019N0500001N1+00231-00401101421ADDAA100002091AY161061AY211061GA1001+999999999GF100991001001999999001001KA1120M+01751MD1210251+9999MW1011REMSYN082AAXX  28181 28588 11984 03605 10023 21040 40142 52025 60020 70161 333 10175 91112;
0122285880999992000042821004+55570+071370FM-12+012999999V0203601N003012200019N0500001N1+00011-00401101561ADDGA1001+999999999GF100991001001999999001001MD1210121+9999REMSYN054AAXX  28211 28588 42984 03603 10001 21040 40156 52012;
0112285880999992000042900004+55570+071370FM-12+012999999V0203301N003012200019N0400001N1-00221-00401101661ADDGF103991031051008001001001MD1210091+9999REMSYN060AAXX  29001 28588 42582 33303 11022 21040 40166 52009 83500;
0165285880999992000042906004+55570+071370FM-12+012999999V0203501N005010075019N0400001N1+00111-00781101701ADDAA199000091GF107991071051008001001001KA1999N-00241MD1810091+9999REMSYN070AAXX  29061 28588 32582 73505 10011 21078 40170 58009 87500 333 21024;EQDQ01  00002PRCP99
0112285880999992000042912004+55570+071370FM-12+012999999V0200401N005012200019N0400001N1+00401-01141101571ADDGF103991021021008001001021MD1710031+9999REMSYN060AAXX  29121 28588 42582 30405 10040 21114 40157 57003 82202;
0175285880999992000042918004+55570+071370FM-12+012999999V0203101N002012200019N0500001N1-00121-00711101561ADDAA199000091GA1001+999999999GF100991001001999999001001KA1999M+00421MD1310101+9999REMSYN064AAXX  29181 28588 32984 03102 11012 21071 40156 53010 333 10042;EQDQ01  00002PRCP99
0122285880999992000042921004+55570+071370FM-12+012999999V0203001N001012200019N0500001N1-00301-00931101591ADDGA1001+999999999GF100991001001999999001001MD1210021+9999REMSYN054AAXX  29211 28588 42984 03001 11030 21093 40159 52002;
0122285880999992000043000004+55570+071370FM-12+012999999V0209999C000012200019N0500001N1-00421-00801101671ADDGA1001+999999999GF100991001001999999001001MD1210061+9999REMSYN054AAXX  30001 28588 42984 00000 11042 21080 40167 52006;
0165285880999992000043006004+55570+071370FM-12+012999999V0203201N002010075019N0400001N1+00521-01011101831ADDAA199000091GF106991061091008001001001KA1999N-00411MD1210081+9999REMSYN070AAXX  30061 28588 32582 63202 10052 21101 40183 52008 86900 333 21041;EQDQ01  00002PRCP99
0112285880999992000043012004+55570+071370FM-12+012999999V0201801N004010075019N0400001N1+00771-00981101851ADDGF105991051091008001001001MD1210011+9999REMSYN060AAXX  30121 28588 42582 51804 10077 21098 40185 52001 85900;
0175285880999992000043018004+55570+071370FM-12+012999999V0209999C000012200019N0500001N1+00341-00921101971ADDAA199000091GA1001+999999999GF100991001001999999001001KA1999M+00841MD1210031+9999REMSYN064AAXX  30181 28588 32984 00000 10034 21092 40197 52003 333 10084;EQDQ01  00002PRCP99
0122285880999992000043021004+55570+071370FM-12+012999999V0201801N003012200019N0500001N1+00241-00761101941ADDGA1001+999999999GF100991001001999999001001MD1810041+9999REMSYN054AAXX  30211 28588 42984 01803 10024 21076 40194 58004;
0112285880999992000050100004+55570+071370FM-12+012999999V0201401N002019999999N0300001N1+00091-00511101851ADDGF108991001001999999001021MD1710091+9999REMSYN060AAXX  01001 28588 42980 81402 10009 21051 40185 57009 80002;
0188285880999992000050106004+55570+071370FM-12+012999999V0200701N008019999999N0400001N1+00581-00691101411ADDAA199000091GF108991001001999999001071KA1120N+00071MD1710241+9999OA140101201REMSYN082AAXX  01061 28588 32982 80708 10058 21069 40141 57024 80007 333 20007 91012 91014;EQDQ01  00002PRCP99
0139285880999992000050112004+55570+071370FM-12+012999999V0200801N014012200019N0400001N1+00901-00821100861ADDGF103991001001999999001011MD1710151+9999OA140101501REMSYN076AAXX  01121 28588 42982 30814 10090 21082 40086 57015 80001 333 91015 91118;
0171285880999992000050118004+55570+071370FM-12+012999999V0200801N008010075019N0500001N1+00541-00631100631ADDAA199000091GF107991071051008001001001KA1120M+00981MD1710161+9999REMSYN076AAXX  01181 28588 32584 70808 10054 21063 40063 57016 87500 333 10098 91115;EQDQ01  00002PRCP99
0112285880999992000050121004+55570+071370FM-12+012999999V0201401N007019999999N0500001N1+00481-00551100461ADDGF108991081001999999021999MD1710161+9999REMSYN060AAXX  01211 28588 42984 81407 10048 21055 40046 57016 8802/;
0112285880999992000050200004+55570+071370FM-12+012999999V0201001N007010075019N0400001N1+00381-00501100451ADDGF107991071051008001001001MD1710031+9999REMSYN060AAXX  02001 28588 42582 71007 10038 21050 40045 57003 87500;
0186285880999992000050206004+55570+071370FM-12+012999999V0201301N008010075019N0150001N1+00541+00021100421ADDAA100000791AY171061AY221061GF107991071051008001001001KA1120N+00291MD1810031+9999MW1021REMSYN088AAXX  02061 28588 11565 71308 10054 20002 40042 58003 69900 70272 87500 333 20029 91112;
0150285880999992000050212004+55570+071370FM-12+012999999V0201401N008010075019N0150001N1+00541+00301100281ADDAY181061AY261061GF107991071071008001001001MD1810291+9999MW1021REMSYN076AAXX  02121 28588 41565 71408 10054 20030 40028 58029 70286 87700 333 91113;
0186285880999992000050218004+55570+071370FM-12+012999999V0201201N003012200019N0290001N1+00251+00221100551ADDAA100004191AY161061AY211061GF102991021001999999031001KA1120M+00551MD1210051+9999MW1011REMSYN088AAXX  02181 28588 11979 21203 10025 20022 40055 52005 60040 70161 82030 333 10055 91112;
0112285880999992000050221004+55570+071370FM-12+012999999V0201601N001012200019N0280001N1+00081-00281100661ADDGF101991001001999999001021MD1210091+9999REMSYN060AAXX  02211 28588 42978 11601 10008 21028 40066 52009 80002;
0112285880999992000050300004+55570+071370FM-12+012999999V0203101N001012200019N0300001N1-00041-00341100671ADDGF103991001001999999001011MD1410001+9999REMSYN060AAXX  03001 28588 42980 33101 11004 21034 40067 54000 80001;
0174285880999992000050306004+55570+071370FM-12+012999999V0201401N005010075019N0400001N1+00241+00221100481ADDAA199000021AY161061AY211061GF107991071071008001001001KA1999N-00051MD1710051+9999MW1211REMSYN076AAXX  03061 28588 31582 71405 10024 20022 40048 57005 72161 87700 333 21005;
0150285880999992000050312004+55570+071370FM-12+012999999V0202801N008010075019N0400001N1+00741-00671100371ADDAY181061AY211061GF106991051091008001001011MD1310121+9999MW1031REMSYN076AAXX  03121 28588 41582 62808 10074 21067 40037 53012 70381 85901 333 91113;
0196285880999992000050318004+55570+071370FM-12+012999999V0202601N007012200019N0500001N1+00091-00141100541ADDAA100002091AY181061AY211061GA1001+999999999GF100991001001999999001001KA1120M+00751MD1310121+9999MW1021REMSYN082AAXX  03181 28588 11984 02607 10009 21014 40054 53012 60020 70281 333 10075 91112;
0122285880999992000050321004+55570+071370FM-12+012999999V0202701N002012200019N0500001N1+00041-00161100571ADDGA1001+999999999GF100991001001999999001001MD1210021+9999REMSYN054AAXX  03211 28588 42984 02702 10004 21016 40057 52002;
0112285880999992000050400004+55570+071370FM-12+012999999V0202501N002012200019N0270001N1+00001-00211100651ADDGF102991021051008001001001MD1210081+9999REMSYN060AAXX  04001 28588 42577 22502 10000 21021 40065 52008 82500;
0165285880999992000050406004+55570+071370FM-12+012999999V0202701N008010075019N0400001N1+00611-00321100831ADDAA199000091GF107991071021008001001001KA1999N-00041MD1210041+9999REMSYN070AAXX  04061 28588 32582 72708 10061 21032 40083 52004 87200 333 21004;EQDQ01  00002PRCP99
0112285880999992000050412004+55570+071370FM-12+012999999V0202701N005010075019N0400001N1+00561-00391100831ADDGF107991071051008001001001MD1810031+9999REMSYN060AAXX  04121 28588 42582 72705 10056 21039 40083 58003 87500;
0175285880999992000050418004+55570+071370FM-12+012999999V0202301N002012200019N0500001N1+00041-00581100741ADDAA199000091GA1001+999999999GF100991001001999999001001KA1999M+00621MD1710121+9999REMSYN064AAXX  04181 28588 32984 02302 10004 21058 40074 57012 333 10062;EQDQ01  00002PRCP99
0122285880999992000050421004+55570+071370FM-12+012999999V0202401N002012200019N0500001N1+00001-00441100681ADDGA1001+999999999GF100991001001999999001001MD1710061+9999REMSYN054AAXX  04211 28588 42984 02402 10000 21044 40068 57006;
0112285880999992000050500004+55570+071370FM-12+012999999V0202801N002019999999N0260001N1-00101-00221100781ADDGF106991061001999999031001MD1310101+9999REMSYN060AAXX  05001 28588 42976 62802 11010 21022 40078 53010 86030;
0193285880999992000050506004+55570+071370FM-12+012999999V0202801N004010075019N0400001N1+00531-00081100981ADDAA199000091AY181061AY221061GF107991071091008001001001KA1999N-00131MD1210141+9999MW1021REMSYN076AAXX  05061 28588 31582 72804 10053 21008 40098 52014 70282 87900 333 21013;EQDQ01  00002PRCP99
0140285880999992000050512004+55570+071370FM-12+012999999V0202601N005010075019N0400001N1+00771-00171101371ADDAY181061AY221061GF106991061091008001001001MD1210131+9999MW1021REMSYN066AAXX  05121 28588 41582 62605 10077 21017 40137 52013 70282 86900;
0152285880999992000050518004+55570+071370FM-12+012999999V0202701N002012200019N0500001N1+00361-00571101791ADDAA100001091GF102991021001999999031001KA1999M+00781MD1210141+9999REMSYN076AAXX  05181 28588 12984 22702 10036 21057 40179 52014 60010 82030 333 10078;
0112285880999992000050521004+55570+071370FM-12+012999999V0202201N005012200019N0500001N1+00591-00351101731ADDGF102991001001999999001011MD1810051+9999REMSYN060AAXX  05211 28588 42984 22205 10059 21035 40173 58005 80001;
0112285880999992000050600004+55570+071370FM-12+012999999V0202201N007019999999N0400001N1+00531-00561101641ADDGF108991001001999999001091MD1710091+9999REMSYN060AAXX  06001 28588 42982 82207 10053 21056 40164 57009 80009;
0193285880999992000050606004+55570+071370FM-12+012999999V0202801N005019999999N0400001N1+01121-00221101291ADDAA199000091AY181061AY221061GF108991081001999999011999KA1999N+00341MD1710181+9999MW1021REMSYN076AAXX  06061 28588 31982 82805 10112 21022 40129 57018 70282 8801/ 333 20034;EQDQ01  00002PRCP99
0150285880999992000050612004+55570+071370FM-12+012999999V0202801N007010075019N0400001N1+01381+00191101351ADDAY181061AY221061GF107991061091008001001011MD1210021+9999MW1021REMSYN076AAXX  06121 28588 41582 72807 10138 20019 40135 52002 70282 86901 333 91112;
0168285880999992000050618004+55570+071370FM-12+012999999V0202701N003012200019N0500001N1+00591-00041101541ADDAA100000591GA1001+999999999GF100991001001999999001001KA1120M+01381MD1210111+9999REMSYN076AAXX  06181 28588 12984 02703 10059 21004 40154 52011 69960 333 10138 91112;
0122285880999992000050621004+55570+071370FM-12+012999999V0203001N002012200019N0500001N1+00351-00091101561ADDGA1001+999999999GF100991001001999999001001MD1210011+9999REMSYN054AAXX  06211 28588 42984 03002 10035 21009 40156 52001;
0112285880999992000050700004+55570+071370FM-12+012999999V0202301N003019999999N0250001N1+00301-00081101591ADDGF106991041001999999081011MD1210031+9999REMSYN060AAXX  07001 28588 42975 62303 10030 21008 40159 52003 84081;
0165285880999992000050706004+55570+071370FM-12+012999999V0202701N005010750019N0400001N1+01651-00121101581ADDAA199000091GF108991041021008001001071KA1999N+00281MD1410001+9999REMSYN070AAXX  07061 28588 32582 82705 10165 21012 40158 54000 84207 333 20028;EQDQ01  00002PRCP99
0112285880999992000050712004+55570+071370FM-12+012999999V0202501N005019999999N0400001N1+01651+00171101361ADDGF107991071001999999061001MD1710101+9999REMSYN060AAXX  07121 28588 42982 72505 10165 20017 40136 57010 87060;
0165285880999992000050718004+55570+071370FM-12+012999999V0202301N001019999999N0290001N1+01211+00151101181ADDAA199000091GF108991081001999999011999KA1999M+01831MD1710101+9999REMSYN070AAXX  07181 28588 32979 82301 10121 20015 40118 57010 8801/ 333 10183;EQDQ01  00002PRCP99
0112285880999992000050721004+55570+071370FM-12+012999999V0202301N003012200019N0280001N1+01061+00061100891ADDGF102991001001999999001011MD1710281+9999REMSYN060AAXX  07211 28588 42978 22303 10106 20006 40089 57028 80001;
0112285880999992000050800004+55570+071370FM-12+012999999V0201801N005019999999N0300001N1+01001+00111100721ADDGF107991041091999999061011MD1710161+9999REMSYN060AAXX  08001 28588 42980 71805 10100 20011 40072 57016 84961;
0165285880999992000050806004+55570+071370FM-12+012999999V0201801N003019999999N0400001N1+01541+00251100281ADDAA199000091GF107991071001999999071001KA1999N+00951MD1710191+9999REMSYN070AAXX  08061 28588 32982 71803 10154 20025 40028 57019 87070 333 20095;EQDQ01  00002PRCP99
0112285880999992000050812004+55570+071370FM-12+012999999V0202001N007010300019N0300001N1+01681+00191099951ADDGF107991041011008001071001MD1710131+9999REMSYN060AAXX  08121 28588 42580 72007 10168 20019 49995 57013 84170;
0180285880999992000050818004+55570+071370FM-12+012999999V0203201N009010300019N0500001N1+00701+00381100311ADDAA100000891AY181061AY221061GF107991041091008001061001KA1999M+01731MD1210271+9999MW1021REMSYN082AAXX  08181 28588 11584 73209 10070 20038 40031 52027 69970 70282 84960 333 10173;
0122285880999992000050821004+55570+071370FM-12+012999999V0203201N005012200019N0500001N1+00301-00351100531ADDGA1001+999999999GF100991001001999999001001MD1210191+9999REMSYN054AAXX  08211 28588 42984 03205 10030 21035 40053 52019;
0122285880999992000050900004+55570+071370FM-12+012999999V0202501N003012200019N0400001N1+00071-00581100631ADDGF101991011051008001001001MD1210081+9999REMSYN070AAXX  09001 28588 42582 12503 10007 21058 40063 52008 81500 333 91112;
0175285880999992000050906004+55570+071370FM-12+012999999V0202701N010010075019N0400001N1+00701-00571100811ADDAA100000791GF106991061021008001001001KA1120N+00051MD1210151+9999OA140101501REMSYN088AAXX  09061 28588 12582 62710 10070 21057 40081 52015 69900 86200 333 20005 91015 91115;
0139285880999992000050912004+55570+071370FM-12+012999999V0202701N008012200019N0400001N1+01201-00741101201ADDGF102991011011008001001011MD1210201+9999OA140101201REMSYN076AAXX  09121 28588 42582 22708 10120 21074 40120 52020 81101 333 91012 91116;
0181285880999992000050918004+55570+071370FM-12+012999999V0203101N002012200019N0500001N1+00441-00381101521ADDAA199000091GA1001+999999999GF100991001001999999001001KA1120M+01201MD1210141+9999REMSYN070AAXX  09181 28588 32984 03102 10044 21038 40152 52014 333 10120 91112;EQDQ01  00002PRCP99
0122285880999992000050921004+55570+071370FM-12+012999999V0209999C000012200019N0500001N1-00051-00291101741ADDGA1001+999999999GF100991001001999999001001MD1210201+9999REMSYN054AAXX  09211 28588 42984 00000 11005 21029 40174 52020;
0112285880999992000051000004+55570+071370FM-12+012999999V0209999C000012200019N0400001N1-00221-00441101721ADDGF102991001001999999001011MD1810031+9999REMSYN060AAXX  10001 28588 42982 20000 11022 21044 40172 58003 80001;
0165285880999992000051006004+55570+071370FM-12+012999999V0201001N005019999999N0400001N1+01181-00441101511ADDAA199000091GF106991001001999999001021KA1999N-00311MD1710091+9999REMSYN070AAXX  10061 28588 32982 61005 10118 21044 40151 57009 80002 333 21031;EQDQ01  00002PRCP99
0112285880999992000051012004+55570+071370FM-12+012999999V0201001N008019999999N0400001N1+01281-00381100841ADDGF108991081001999999021999MD1710351+9999REMSYN060AAXX  10121 28588 42982 81008 10128 21038 40084 57035 8802/;
0180285880999992000051018004+55570+071370FM-12+012999999V0200401N008019999999N0080001N1+00541+00371100401ADDAA100001091AY161061AY221061GF108991081001999999021999KA1999M+01421MD1710181+9999MW1611REMSYN082AAXX  10181 28588 11958 80408 10054 20037 40040 57018 60010 76162 8802/ 333 10142;
0159285880999992000051021004+55570+071370FM-12+012999999V0200501N007010075019N0060001N1+00451+00431100141ADDAY161031AY221031GF108991999071008001021999MD1710261+9999MW1611REMSYN066AAXX  10211 28588 41556 80507 10045 20043 40014 57026 76162 8872/;EQDQ01+000082SCOTLC
0140285880999992000051100004+55570+071370FM-12+012999999V0201001N006010075019N0290001N1+00401+00351100081ADDAY161061AY221061GF107991071051008001001001MD1710081+9999MW1021REMSYN066AAXX  11001 28588 41579 71006 10040 20035 40008 57008 70262 87500;
0180285880999992000051106004+55570+071370FM-12+012999999V0200501N004019999999N0090001N1+00411+00391099981ADDAA100004191AY121061AY221061GF108991081001999999021999KA1999N+00301MD1410001+9999MW1101REMSYN082AAXX  11061 28588 11959 80504 10041 20039 49998 54000 60040 71022 8802/ 333 20030;
0112285880999992000051112004+55570+071370FM-12+012999999V0200501N004010075019N0350001N1+00491+00301100221ADDGF107991071051008001001001MD1210191+9999REMSYN060AAXX  11121 28588 42581 70504 10049 20030 40022 52019 87500;
0165285880999992000051118004+55570+071370FM-12+012999999V0200701N006010075019N0500001N1+00301+00091100261ADDAA199000091GF107991071051008001001001KA1999M+00491MD1310051+9999REMSYN070AAXX  11181 28588 32584 70706 10030 20009 40026 53005 87500 333 10049;EQDQ01  00002PRCP99
0140285880999992000051121004+55570+071370FM-12+012999999V0201001N005010075019N0500001N1+00221+00061100291ADDAY161031AY221031GF107991071051008001001001MD1210021+9999MW1021REMSYN066AAXX  11211 28588 41584 71005 10022 20006 40029 52002 70262 87500;
0140285880999992000051200004+55570+071370FM-12+012999999V0200501N004010075019N0400001N1+00181-00011100391ADDAY161061AY221061GF107991071051008001001001MD1210101+9999MW1021REMSYN066AAXX  12001 28588 41582 70504 10018 21001 40039 52010 70262 87500;
0152285880999992000051206004+55570+071370FM-12+012999999V0200401N003010075019N0400001N1+00591+00051100811ADDAA100000791GF107991071051008001001001KA1999N+00151MD1210201+9999REMSYN076AAXX  12061 28588 12582 70403 10059 20005 40081 52020 69900 87500 333 20015;
0112285880999992000051212004+55570+071370FM-12+012999999V0201101N001010120019N0400001N1+01071-00221101021ADDGF105991051081008001001001MD1210111+9999REMSYN060AAXX  12121 28588 42582 51101 10107 21022 40102 52011 85800;
0175285880999992000051218004+55570+071370FM-12+012999999V0202401N003012200019N0500001N1+00531+00101101321ADDAA199000091GA1001+999999999GF100991001001999999001001KA1999M+01071MD1210161+9999REMSYN064AAXX  12181 28588 32984 02403 10053 20010 40132 52016 333 10107;EQDQ01  00002PRCP99
0122285880999992000051221004+55570+071370FM-12+012999999V0202301N001012200019N0500001N1+00191+00031101441ADDGA1001+999999999GF100991001001999999001001MD1210101+9999REMSYN054AAXX  12211 28588 42984 02301 10019 20003 40144 52010;
0150285880999992000051300004+55570+071370FM-12+012999999V0209999C000012200019N0047001N1-00171-00231101541ADDAY101061AY201061GA1001+999999999GF100991001001999999001001MD1210071+9999MW1101REMSYN060AAXX  13001 28588 41947 00000 11017 21023 40154 52007 71000;
0165285880999992000051306004+55570+071370FM-12+012999999V0201701N003012200019N0400001N1+01281-00381101561ADDAA199000091GF101991011011008001001001KA1999N-00171MD1210011+9999REMSYN070AAXX  13061 28588 32582 11703 10128 21038 40156 52001 81100 333 21017;EQDQ01  00002PRCP99
0112285880999992000051312004+55570+071370FM-12+012999999V0201701N002012200019N0400001N1+01381-00141101571ADDGF102991021021008001001001MD1310041+9999REMSYN060AAXX  13121 28588 42582 21702 10138 21014 40157 53004 82200;
0175285880999992000051318004+55570+071370FM-12+012999999V0201601N001012200019N0500001N1+00801+00291101761ADDAA199000091GA1001+999999999GF100991001001999999001001KA1999M+01471MD1210081+9999REMSYN064AAXX  13181 28588 32984 01601 10080 20029 40176 52008 333 10147;EQDQ01  00002PRCP99
0122285880999992000051321004+55570+071370FM-12+012999999V0201601N001012200019N0240001N1+00561+00401101881ADDGA1001+999999999GF100991001001999999001001MD1210111+9999REMSYN054AAXX  13211 28588 42974 01601 10056 20040 40188 52011;
0140285880999992000051400004+55570+071370FM-12+012999999V0201401N002019999999N0080001N1+00501+00411101921ADDAY111061AY211061GF108991001001999999001021MD1210041+9999MW1101REMSYN066AAXX  14001 28588 41958 81402 10050 20041 40192 52004 71011 80002;
0165285880999992000051406004+55570+071370FM-12+012999999V0201401N005012200019N0400001N1+01691+00291101881ADDAA199000091GF105991041021008001001011KA1999N+00251MD1810061+9999REMSYN070AAXX  14061 28588 32582 51405 10169 20029 40188 58006 84201 333 20025;EQDQ01  00002PRCP99
0112285880999992000051412004+55570+071370FM-12+012999999V0201801N007012200019N0400001N1+01941+00171101701ADDGF104991031021008001001011MD1710141+9999REMSYN060AAXX  14121 28588 42582 41807 10194 20017 40170 57014 83201;
0175285880999992000051418004+55570+071370FM-12+012999999V0202101N005012200019N0500001N1+01441+00301101541ADDAA199000091GA1001+999999999GF100991001001999999001001KA1999M+01961MD1710091+9999REMSYN064AAXX  14181 28588 32984 02105 10144 20030 40154 57009 333 10196;EQDQ01  00002PRCP99
0112285880999992000051421004+55570+071370FM-12+012999999V0201201N004010300019N0500001N1+01361+00431101471ADDGF106991041091008001061001MD1710081+9999REMSYN060AAXX  14211 28588 42584 61204 10136 20043 40147 57008 84960;
0112285880999992000051500004+55570+071370FM-12+012999999V0201401N005019999999N0400001N1+01201+00531101331ADDGF106991061001999999061001MD1710151+9999REMSYN060AAXX  15001 28588 42982 61405 10120 20053 40133 57015 86060;
0216285880999992000051506004+55570+071370FM-12+012999999V0201801N008010075019N0400001N1+01701+01001101191ADDAA199000091AY181061AY221061GF107991061091008001001021KA1120N+01171MD1710031+9999MW1021OA140101201REMSYN088AAXX  15061 28588 31582 71808 10170 20100 40119 57003 70282 86902 333 20117 91012 91112;EQDQ01  00002PRCP99
0112285880999992000051512004+55570+071370FM-12+012999999V0202301N007012200019N0400001N1+01641+00301101371ADDGF102991021021008001001011MD1210141+9999REMSYN060AAXX  15121 28588 42582 22307 10164 20030 40137 52014 82201;
0162285880999992000051518004+55570+071370FM-12+012999999V0202701N001012200019N0500001N1+00701+00001101661ADDAA100000791GA1001+999999999GF100991001001999999001001KA1999M+01841MD1210081+9999REMSYN070AAXX  15181 28588 12984 02701 10070 21000 40166 52008 69900 333 10184;
0122285880999992000051521004+55570+071370FM-12+012999999V0209999C000012200019N0500001N1+00291+00021101641ADDGA1001+999999999GF100991001001999999001001MD1810041+9999REMSYN054AAXX  15211 28588 42984 00000 10029 20002 40164 58004;
0122285880999992000051600004+55570+071370FM-12+012999999V0209999C000012200019N0130001N1+00101+00051101601ADDGA1001+999999999GF100991001001999999001001MD1710051+9999REMSYN054AAXX  16001 28588 42963 00000 10010 20005 40160 57005;
0112285880999992000051612004+55570+071370FM-12+012999999V0202201N005010075019N0400001N1+01901+00021100891ADDGF107991071021008001001001MD1710081+9999REMSYN060AAXX  16121 28588 42582 72205 10190 20002 40089 57008 87200;
0175285880999992000051618004+55570+071370FM-12+012999999V0203101N002012200019N0500001N1+00911+00271101201ADDAA199000091GA1001+999999999GF100991001001999999001001KA1999M+01901MD1210151+9999REMSYN064AAXX  16181 28588 32984 03102 10091 20027 40120 52015 333 10190;EQDQ01  00002PRCP99
0122285880999992000051621004+55570+071370FM-12+012999999V0202801N001012200019N0500001N1+00491+00321101251ADDGA1001+999999999GF100991001001999999001001MD1210031+9999REMSYN054AAXX  16211 28588 42984 02801 10049 20032 40125 52003;
0112285880999992000051700004+55570+071370FM-12+012999999V0202301N001019999999N0400001N1+00291+00191101261ADDGF106991001001999999001041MD1410001+9999REMSYN060AAXX  17001 28588 42982 62301 10029 20019 40126 54000 80004;
0165285880999992000051706004+55570+071370FM-12+012999999V0201401N001012200019N0400001N1+01621+00031101031ADDAA199000091GF101991001001999999001011KA1999N+00251MD1810171+9999REMSYN070AAXX  17061 28588 32982 11401 10162 20003 40103 58017 80001 333 20025;EQDQ01  00002PRCP99
0112285880999992000051712004+55570+071370FM-12+012999999V0202101N003012200019N0400001N1+01951+00111100641ADDGF102991021021012501001001MD1710161+9999REMSYN060AAXX  17121 28588 42682 22103 10195 20011 40064 57016 82200;
0175285880999992000051718004+55570+071370FM-12+012999999V0202001N001012200019N0180001N1+00891+00341100571ADDAA199000091GA1001+999999999GF100991001001999999001001KA1999M+01991MD1710021+9999REMSYN064AAXX  17181 28588 32968 02001 10089 20034 40057 57002 333 10199;EQDQ01  00002PRCP99
0122285880999992000051721004+55570+071370FM-12+012999999V0201901N002012200019N0220001N1+01091+00191100481ADDGA1001+999999999GF100991001001999999001001MD1710081+9999REMSYN054AAXX  17211 28588 42972 01902 10109 20019 40048 57008;
0122285880999992000051800004+55570+071370FM-12+012999999V0201701N001012200019N0300001N1+00561+00321100431ADDGA1001+999999999GF100991001001999999001001MD1710071+9999REMSYN054AAXX  18001 28588 42980 01701 10056 20032 40043 57007;
0165285880999992000051806004+55570+071370FM-12+012999999V0201601N006010075019N0400001N1+01971+00531100051ADDAA199000091GF106991061091008001001001KA1999N+00351MD1710221+9999REMSYN070AAXX  18061 28588 32582 61606 10197 20053 40005 57022 86900 333 20035;EQDQ01  00002PRCP99
0146285880999992000051812004+55570+071370FM-12+012999999V0202701N009010075019N0290001N1+00981+00951099821ADDAY181061AY221061GF107991071091008001001001MD1710081+9999MW1251REMSYN072AAXX  18121 28588 41579 72709 10098 20095 49982 57008 72582 87900 91113;
0122285880999992000051821004+55570+071370FM-12+012999999V0202201N006012200019N0650001N1+00521+00171100051ADDGA1001+999999999GF100991001001999999001001MD1210041+9999REMSYN054AAXX  18211 28588 42987 02206 10052 20017 40005 52004;
0122285880999992000051900004+55570+071370FM-12+012999999V0201901N007012200019N0400001N1+00421+00221100151ADDGA1001+999999999GF100991001001999999001001MD1210081+9999REMSYN054AAXX  19001 28588 42982 01907 10042 20022 40015 52008;
0188285880999992000051906004+55570+071370FM-12+012999999V0202301N009010075019N0400001N1+01121+00001100331ADDAA199000091GF105991051021008001001001KA1120N+00401MD1210121+9999OA140101301REMSYN082AAXX  19061 28588 32582 52309 10112 20000 40033 52012 85200 333 20040 91013 91114;EQDQ01  00002PRCP99
0139285880999992000051912004+55570+071370FM-12+012999999V0202301N008019999999N0400001N1+01271+00151100401ADDGF108991081001999999021999MD1210131+9999OA140101201REMSYN076AAXX  19121 28588 42982 82308 10127 20015 40040 52013 8802/ 333 91012 91114;
0165285880999992000051918004+55570+071370FM-12+012999999V0201801N003010075019N0500001N1+01171+00191100361ADDAA199000091GF107991071051008001001001KA1999M+01421MD1710071+9999REMSYN070AAXX  19181 28588 32584 71803 10117 20019 40036 57007 87500 333 10142;EQDQ01  00002PRCP99
0112285880999992000051921004+55570+071370FM-12+012999999V0201401N002010075019N0500001N1+00971+00131100121ADDGF107991071051008001001001MD1710251+9999REMSYN060AAXX  19211 28588 42584 71402 10097 20013 40012 57025 87500;
0112285880999992000052000004+55570+071370FM-12+012999999V0201301N003010300019N0400001N1+00821+00191099951ADDGF106991021091008001061001MD1710181+9999REMSYN060AAXX  20001 28588 42582 61303 10082 20019 49995 57018 82960;
0171285880999992000052006004+55570+071370FM-12+012999999V0201801N008012200019N0400001N1+01501-00021099711ADDAA199000091GF103991021021008001001021KA1120N+00651MD1710021+9999REMSYN076AAXX  20061 28588 32582 31808 10150 21002 49971 57002 82202 333 20065 91113;EQDQ01  00002PRCP99
0167285880999992000052012004+55570+071370FM-12+012999999V0202701N009010075019N0100001N1+01041+00001100111ADDAY181061AY211061GF108991081091008001999999MD1210251+9999MW1801OA140101201REMSYN082AAXX  20121 28588 41560 82709 10104 20000 40011 52025 78081 889// 333 91012 91116;
0186285880999992000052018004+55570+071370FM-12+012999999V0202101N002012200019N0500001N1+00791+00341100191ADDAA100000591AY181061AY211061GF102991021091008001001001KA1120M+01541MD1210021+9999MW1011REMSYN088AAXX  20181 28588 11584 22102 10079 20034 40019 52002 69940 70181 82900 333 10154 91112;
0112285880999992000052021004+55570+071370FM-12+012999999V0202501N004010075019N0500001N1+00841+00251100131ADDGF106991061091008001001001MD1810051+9999REMSYN060AAXX  20211 28588 42584 62504 10084 20025 40013 58005 86900;
0112285880999992000052100004+55570+071370FM-12+012999999V0201901N004010075019N0400001N1+00641+00301100231ADDGF106991061091008001001001MD1310091+9999REMSYN060AAXX  21001 28588 42582 61904 10064 20030 40023 53009 86900;
0165285880999992000052106004+55570+071370FM-12+012999999V0201901N006010075019N0400001N1+01171+00061100341ADDAA199000091GF106991061021008001001021KA1999N+00611MD1210101+9999REMSYN070AAXX  21061 28588 32582 61906 10117 20006 40034 52010 86202 333 20061;EQDQ01  00002PRCP99
0165285880999992000052118004+55570+071370FM-12+012999999V0201801N004010300019N0500001N1+00881+00401100651ADDAA199000091GF107991021041008001071001KA1999M+01331MD1210161+9999REMSYN070AAXX  21181 28588 32584 71804 10088 20040 40065 52016 82470 333 10133;EQDQ01  00002PRCP99
0140285880999992000052121004+55570+071370FM-12+012999999V0209999C000019999999N0090001N1+00741+00581100721ADDAY121031AY221031GF107991021041999999071001MD1210061+9999MW1101REMSYN066AAXX  21211 28588 41959 70000 10074 20058 40072 52006 71022 82470;
0112285880999992000052200004+55570+071370FM-12+012999999V0201301N001010300019N0300001N1+00641+00601100821ADDGF108991021041008001021021MD1210101+9999REMSYN060AAXX  22001 28588 42580 81301 10064 20060 40082 52010 82422;
0165285880999992000052206004+55570+071370FM-12+012999999V0200401N004010075019N0400001N1+01391+00711101091ADDAA199000091GF107991061091008001001021KA1999N+00601MD1210131+9999REMSYN070AAXX  22061 28588 32582 70404 10139 20071 40109 52013 86902 333 20060;EQDQ01  00002PRCP99
0112285880999992000052212004+55570+071370FM-12+012999999V0200801N003010750019N0400001N1+01701+00431101161ADDGF107991031021008001001021MD1210031+9999REMSYN060AAXX  22121 28588 42582 70803 10170 20043 40116 52003 83202;
0165285880999992000052218004+55570+071370FM-12+012999999V0200701N002012200019N0500001N1+00771+00401101501ADDAA199000091GF102991001001999999001021KA1999M+01711MD1210091+9999REMSYN070AAXX  22181 28588 32984 20702 10077 20040 40150 52009 80002 333 10171;EQDQ01  00002PRCP99
0112285880999992000052221004+55570+071370FM-12+012999999V0200601N001012200019N0290001N1+00711+00531101451ADDGF102991001001999999001021MD1810041+9999REMSYN060AAXX  22211 28588 42979 20601 10071 20053 40145 58004 80002;
0112285880999992000052300004+55570+071370FM-12+012999999V0209999C000012200019N0230001N1+00541+00421101541ADDGF103991001001999999001021MD1310071+9999REMSYN060AAXX  23001 28588 42973 30000 10054 20042 40154 53007 80002;
0165285880999992000052306004+55570+071370FM-12+012999999V0201401N002010075019N0400001N1+01931+00381101621ADDAA199000091GF106991061091008001001001KA1999N+00521MD1210091+9999REMSYN070AAXX  23061 28588 32582 61402 10193 20038 40162 52009 86900 333 20052;EQDQ01  00002PRCP99
0112285880999992000052312004+55570+071370FM-12+012999999V0202301N003010075019N0400001N1+01951+00381101661ADDGF105991051091008001001001MD1210031+9999REMSYN060AAXX  23121 28588 42582 52303 10195 20038 40166 52003 85900;
0165285880999992000052318004+55570+071370FM-12+012999999V0209999C000010075019N0500001N1+01231+00781101831ADDAA199000091GF106991061091008001001001KA1999M+02091MD1210041+9999REMSYN070AAXX  23181 28588 32584 60000 10123 20078 40183 52004 86900 333 10209;EQDQ01  00002PRCP99
0112285880999992000052321004+55570+071370FM-12+012999999V0209999C000012200019N0500001N1+00991+00651101881ADDGF102991021021008001001001MD1210021+9999REMSYN060AAXX  23211 28588 42584 20000 10099 20065 40188 52002 82200;
0140285880999992000052400004+55570+071370FM-12+012999999V0209999C000012200019N0060001N1+00751+00641101891ADDAY111061AY211061GF102991021021008001001001MD1410001+9999MW1101REMSYN066AAXX  24001 28588 41556 20000 10075 20064 40189 54000 71011 82200;
0165285880999992000052406004+55570+071370FM-12+012999999V0200701N002010075019N0400001N1+02141+00411101781ADDAA199000091GF105991051021008001001001KA1999N+00671MD1810061+9999REMSYN070AAXX  24061 28588 32582 50702 10214 20041 40178 58006 85200 333 20067;EQDQ01  00002PRCP99
0112285880999992000052412004+55570+071370FM-12+012999999V0200601N002012200019N0400001N1+02341+00321101541ADDGF102991021021008001001001MD1710111+9999REMSYN060AAXX  24121 28588 42582 20602 10234 20032 40154 57011 82200;
0175285880999992000052418004+55570+071370FM-12+012999999V0200101N001012200019N0500001N1+01341+00561101521ADDAA199000091GA1001+999999999GF100991001001999999001001KA1999M+02361MD1710011+9999REMSYN064AAXX  24181 28588 32984 00101 10134 20056 40152 57001 333 10236;EQDQ01  00002PRCP99
0112285880999992000052421004+55570+071370FM-12+012999999V0200101N001012200019N0500001N1+01081+00561101461ADDGF102991021001999999041001MD1710071+9999REMSYN060AAXX  24211 28588 42984 20101 10108 20056 40146 57007 82040;
0140285880999992000052500004+55570+071370FM-12+012999999V0200101N002019999999N0080001N1+01331+00641101451ADDAY111061AY211061GF106991061001999999031001MD1410001+9999MW1101REMSYN066AAXX  25001 28588 41958 60102 10133 20064 40145 54000 71011 86030;
0165285880999992000052506004+55570+071370FM-12+012999999V0200501N003012200019N0400001N1+02141+00671101501ADDAA199000091GF102991021001999999051001KA1999N+01061MD1210061+9999REMSYN070AAXX  25061 28588 32982 20503 10214 20067 40150 52006 82050 333 20106;EQDQ01  00002PRCP99
0112285880999992000052512004+55570+071370FM-12+012999999V0200801N005012200019N0400001N1+02301+00761101481ADDGF103991021021008001001011MD1310071+9999REMSYN060AAXX  25121 28588 42582 30805 10230 20076 40148 53007 82201;
0175285880999992000052518004+55570+071370FM-12+012999999V0209999C000012200019N0500001N1+01411+01091101581ADDAA199000091GA1001+999999999GF100991001001999999001001KA1999M+02451MD1210051+9999REMSYN064AAXX  25181 28588 32984 00000 10141 20109 40158 52005 333 10245;EQDQ01  00002PRCP99
0112285880999992000052521004+55570+071370FM-12+012999999V0209999C000012200019N0500001N1+01011+00901101621ADDGF102991011001999999041021MD1210011+9999REMSYN060AAXX  25211 28588 42984 20000 10101 20090 40162 52001 81042;
0140285880999992000052600004+55570+071370FM-12+012999999V0209999C000012200019N0080001N1+01051+00851101581ADDAY101061AY201061GF101991001001999999001011MD1810041+9999MW1101REMSYN066AAXX  26001 28588 41958 10000 10105 20085 40158 58004 71000 80001;
0112285880999992000052612004+55570+071370FM-12+012999999V0202701N002010075019N0400001N1+02541+00611101161ADDGF106991051091008001001011MD1710111+9999REMSYN060AAXX  26121 28588 42582 62702 10254 20061 40116 57011 85901;
0165285880999992000052618004+55570+071370FM-12+012999999V0209999C000010300019N0500001N1+01661+01281101071ADDAA199000091GF106991031091008001061001KA1999M+02661MD1710051+9999REMSYN070AAXX  26181 28588 32584 60000 10166 20128 40107 57005 83960 333 10266;EQDQ01  00002PRCP99
0112285880999992000052621004+55570+071370FM-12+012999999V0201701N001012200019N0500001N1+01421+01201100861ADDGF102991021091008001001001MD1710211+9999REMSYN060AAXX  26211 28588 42584 21701 10142 20120 40086 57021 82900;
0112285880999992000052700004+55570+071370FM-12+012999999V0201501N001012200019N0290001N1+01501+01041100841ADDGF103991001001999999001021MD1710021+9999REMSYN060AAXX  27001 28588 42979 31501 10150 20104 40084 57002 80002;
0165285880999992000052706004+55570+071370FM-12+012999999V0201801N003010750019N0400001N1+02521+01051101631ADDAA199000091GF105991021011008001031021KA1999N+01401MD1710151+9999REMSYN070AAXX  27061 28588 32582 51803 10252 20105 40163 57015 82132 333 20140;EQDQ01  00002PRCP99
0140285880999992000052712004+55570+071370FM-12+012999999V0201601N003010075019N0290001N1+01791+01231100481ADDAY181061AY221061GF107991071091008001001001MD1710011+9999MW1251REMSYN066AAXX  27121 28588 41579 71603 10179 20123 40048 57001 72582 87900;
0180285880999992000052718004+55570+071370FM-12+012999999V0200901N002010075019N0170001N1+01481+01391100231ADDAA100001091AY181061AY221061GF107991071091008001001001KA1999M+02641MD1710221+9999MW1021REMSYN082AAXX  27181 28588 11567 70902 10148 20139 40023 57022 60010 70282 87900 333 10264;
0140285880999992000052800004+55570+071370FM-12+012999999V0209999C000019999999N0006001N1+01311+01311099871ADDAY141061AY221061GF108991081001999999021999MD1710161+9999MW1441REMSYN066AAXX  28001 28588 41906 80000 10131 20131 49987 57016 74442 8802/;
0180285880999992000052806004+55570+071370FM-12+012999999V0203601N001010075019N0110001N1+01621+01431099661ADDAA100003091AY151061AY241061GF107991071091008001001001KA1999N+01261MD1710061+9999MW1021REMSYN082AAXX  28061 28588 11561 73601 10162 20143 49966 57006 60030 70254 87900 333 20126;
0140285880999992000052812004+55570+071370FM-12+012999999V0202901N002010075019N0170001N1+01541+01381099611ADDAY181061AY221061GF107991061091008001071001MD1310021+9999MW1251REMSYN066AAXX  28121 28588 41567 72902 10154 20138 49961 53002 72582 86970;
0180285880999992000052818004+55570+071370FM-12+012999999V0202801N003010075019N0200001N1+01411+01211099551ADDAA100001091AY181061AY221061GF107991051091008001071001KA1999M+01791MD1710041+9999MW1021REMSYN082AAXX  28181 28588 11570 72803 10141 20121 49955 57004 60010 70282 85970 333 10179;
0112285880999992000052821004+55570+071370FM-12+012999999V0202501N002010075019N0500001N1+01421+01121099481ADDGF107991051091008001071001MD1710071+9999REMSYN060AAXX  28211 28588 42584 72502 10142 20112 49948 57007 85970;
0112285880999992000052900004+55570+071370FM-12+012999999V0202601N002012200019N0250001N1+01151+01051099441ADDGF102991021051008001001011MD1710061+9999REMSYN060AAXX  29001 28588 42575 22602 10115 20105 49944 57006 82501;
0152285880999992000052906004+55570+071370FM-12+012999999V0202601N005010075019N0400001N1+02001+00931099281ADDAA100000391GF107991071091008001001001KA1999N+01121MD1710061+9999REMSYN076AAXX  29061 28588 12582 72605 10200 20093 49928 57006 69930 87900 333 20112;
0140285880999992000052912004+55570+071370FM-12+012999999V0203301N005010075019N0400001N1+01741+01031099261ADDAY181061AY221061GF106991061091008001001011MD1710021+9999MW1021REMSYN066AAXX  29121 28588 41582 63305 10174 20103 49926 57002 70282 86901;
0152285880999992000052918004+55570+071370FM-12+012999999V0209999C000012200019N0500001N1+01391+01241099221ADDAA100004191GF102991021091008001001001KA1999M+02011MD1810161+9999REMSYN076AAXX  29181 28588 11584 20000 10139 20124 49922 58016 60040 82900 333 10201;
0112285880999992000052921004+55570+071370FM-12+012999999V0203601N004010075019N0500001N1+01381+01341099171ADDGF107991071091008001001001MD1710051+9999REMSYN060AAXX  29211 28588 42584 73604 10138 20134 49917 57005 87900;
0140285880999992000053000004+55570+071370FM-12+012999999V0203601N004010075019N0240001N1+01361+01301099181ADDAY181061AY211061GF107991071091008001001001MD1310011+9999MW1251REMSYN066AAXX  30001 28588 41574 73604 10136 20130 49918 53001 72581 87900;
0180285880999992000053006004+55570+071370FM-12+012999999V0203601N007010075019N0170001N1+01311+01241099471ADDAA100000591AY181061AY221061GF107991071091008001001001KA1999N+01271MD1210151+9999MW1251REMSYN082AAXX  30061 28588 11567 73607 10131 20124 49947 52015 69940 72582 87900 333 20127;
0167285880999992000053012004+55570+071370FM-12+012999999V0203601N008010075019N0400001N1+01371+01031099841ADDAY181061AY261061GF107991071071008001001001MD1210201+9999MW1021OA140101201REMSYN082AAXX  30121 28588 41582 73608 10137 20103 49984 52020 70286 87700 333 91012 91112;
0112285880999992000053021004+55570+071370FM-12+012999999V0203601N004010075019N0500001N1+01381+01341099171ADDGF107991071091008001001001MD1710051+9999REMSYN060AAXX  30211 28588 42584 73604 10138 20134 49917 57005 87900;
0112285880999992000053100004+55570+071370FM-12+012999999V0203601N004010075019N0500001N1+01381+01341099171ADDGF107991071091008001001001MD1710051+9999REMSYN060AAXX  31001 28588 42584 73604 10138 20134 49917 57005 87900;
0180285880999992000053106004+55570+071370FM-12+012999999V0203201N007010075019N0400001N1+01511+00811100381ADDAA100000591AY161061AY221061GF106991051091008001031001KA1999N+01011MD1210101+9999MW1021REMSYN082AAXX  31061 28588 11582 63207 10151 20081 40038 52010 69940 70262 85930 333 20101;
0139285880999992000053112004+55570+071370FM-12+012999999V0203601N009010075019N0400001N1+01941+00401100461ADDGF105991051091008001001001MD1210041+9999OA140101301REMSYN076AAXX  31121 28588 42582 53609 10194 20040 40046 52004 85900 333 91013 91113;
0165285880999992000053118004+55570+071370FM-12+012999999V0203601N001019999999N0500001N1+01251+00411100761ADDAA199000091GF105991051001999999051001KA1999M+01981MD1210191+9999REMSYN070AAXX  31181 28588 32984 53601 10125 20041 40076 52019 85050 333 10198;EQDQ01  00002PRCP99
0112285880999992000053121004+55570+071370FM-12+012999999V0203601N003012200019N0500001N1+01011+00531100701ADDGF102991021001999999041001MD1810071+9999REMSYN060AAXX  31211 28588 42984 23603 10101 20053 40070 58007 82040;
0112285880999992000060100004+55570+071370FM-12+012999999V0203601N003010300019N0280001N1+00761+00481100811ADDGF105991021021008001031001MD1310091+9999REMSYN060AAXX  01001 28588 42578 53603 10076 20048 40081 53009 82230;
0165285880999992000060106004+55570+071370FM-12+012999999V0200501N006010075019N0400001N1+01141+00381100971ADDAA199000091GF107991071051008001001001KA1999N+00751MD1210101+9999REMSYN070AAXX  01061 28588 32582 70506 10114 20038 40097 52010 87500 333 20075;EQDQ01  00002PRCP99
0112285880999992000060112004+55570+071370FM-12+012999999V0200701N007010075019N0400001N1+01181+00151101161ADDGF107991071051008001001001MD1210111+9999REMSYN060AAXX  01121 28588 42582 70707 10118 20015 40116 52011 87500;
0165285880999992000060118004+55570+071370FM-12+012999999V0203201N003012200019N0500001N1+00441+00111101391ADDAA199000091GF102991021051008001001001KA1999M+01331MD1210051+9999REMSYN070AAXX  01181 28588 32584 23203 10044 20011 40139 52005 82500 333 10133;EQDQ01  00002PRCP99
0150285880999992000060121004+55570+071370FM-12+012999999V0203201N002012200019N0060001N1+00281+00151101391ADDAY101031AY201031GA1001+999999999GF100991001001999999001001MD1810011+9999MW1101REMSYN060AAXX  01211 28588 41956 03202 10028 20015 40139 58001 71000;
0140285880999992000060200004+55570+071370FM-12+012999999V0203201N002019999999N0070001N1+00381+00331101411ADDAY111061AY211061GF105991051001999999031001MD1310021+9999MW1101REMSYN066AAXX  02001 28588 41957 53202 10038 20033 40141 53002 71011 85030;
0171285880999992000060206004+55570+071370FM-12+012999999V0203501N007012200019N0400001N1+01531+00041101481ADDAA199000091GF101991011021008001001001KA1120N+00201MD1810031+9999REMSYN076AAXX  02061 28588 32582 13507 10153 20004 40148 58003 81200 333 20020 91112;EQDQ01  00002PRCP99
0122285880999992000060212004+55570+071370FM-12+012999999V0203101N007012200019N0400001N1+01781+00021101381ADDGF102991001001999999001041MD1410001+9999REMSYN070AAXX  02121 28588 42982 23107 10178 20002 40138 54000 80004 333 91112;
0171285880999992000060218004+55570+071370FM-12+012999999V0203401N002019999999N0500001N1+01191+00271101311ADDAA199000091GF108991061001999999051021KA1120M+01791MD1710081+9999REMSYN076AAXX  02181 28588 32984 83402 10119 20027 40131 57008 86052 333 10179 91112;EQDQ01  00002PRCP99
0112285880999992000060221004+55570+071370FM-12+012999999V0203401N002019999999N0500001N1+01161+00431101171ADDGF107991071001999999051001MD1710141+9999REMSYN060AAXX  02211 28588 42984 73402 10116 20043 40117 57014 87050;
0140285880999992000060300004+55570+071370FM-12+012999999V0203201N002019999999N0090001N1+01201+00341101081ADDAY161061AY221061GF108991081001999999021999MD1710091+9999MW1611REMSYN066AAXX  03001 28588 41959 83202 10120 20034 40108 57009 76162 8802/;
0180285880999992000060306004+55570+071370FM-12+012999999V0202701N005010075019N0400001N1+01411+00941100631ADDAA100000791AY161061AY221061GF107991051021008001031001KA1999N+01091MD1710271+9999MW1021REMSYN082AAXX  03061 28588 11582 72705 10141 20094 40063 57027 69900 70262 85230 333 20109;
0122285880999992000060312004+55570+071370FM-12+012999999V0200501N005012200019N0400001N1+01491+00621100921ADDGF103991031021008001001001MD1210171+9999REMSYN070AAXX  03121 28588 42582 30505 10149 20062 40092 52017 83200 333 91112;
0162285880999992000060318004+55570+071370FM-12+012999999V0203101N002012200019N0500001N1+00871+00291101241ADDAA100000791GA1001+999999999GF100991001001999999001001KA1999M+01761MD1210131+9999REMSYN070AAXX  03181 28588 12984 03102 10087 20029 40124 52013 69900 333 10176;
0122285880999992000060321004+55570+071370FM-12+012999999V0209999C000012200019N0500001N1+00581+00181101401ADDGA1001+999999999GF100991001001999999001001MD1210141+9999REMSYN054AAXX  03211 28588 42984 00000 10058 20018 40140 52014;
0122285880999992000060400004+55570+071370FM-12+012999999V0202701N002012200019N0400001N1+00541+00471101411ADDGA1001+999999999GF100991001001999999001001MD1210011+9999REMSYN054AAXX  04001 28588 42982 02702 10054 20047 40141 52001;
0165285880999992000060406004+55570+071370FM-12+012999999V0202701N005010300019N0400001N1+01691+00061101151ADDAA199000091GF107991041091008001071001KA1999N+00501MD1710141+9999REMSYN070AAXX  04061 28588 32582 72705 10169 20006 40115 57014 84970 333 20050;EQDQ01  00002PRCP99
0140285880999992000060412004+55570+071370FM-12+012999999V0201801N003010075019N0400001N1+01511+00971100881ADDAY181061AY221061GF106991051091008001031011MD1710211+9999MW1021REMSYN066AAXX  04121 28588 41582 61803 10151 20097 40088 57021 70282 85931;
0152285880999992000060418004+55570+071370FM-12+012999999V0203501N001012200019N0500001N1+01231+01071100841ADDAA100002091GF103991021021008001031001KA1999M+01741MD1310061+9999REMSYN076AAXX  04181 28588 12584 33501 10123 20107 40084 53006 60020 82230 333 10174;
0140285880999992000060421004+55570+071370FM-12+012999999V0202901N001012200019N0060001N1+01181+01061100841ADDAY101031AY201031GF102991021001999999061001MD1410001+9999MW1101REMSYN066AAXX  04211 28588 41956 22901 10118 20106 40084 54000 71000 82060;
0140285880999992000060500004+55570+071370FM-12+012999999V0202701N001019999999N0006001N1+00991+00991100971ADDAY141061AY221061GF107991001001999999001021MD1310111+9999MW1461REMSYN066AAXX  05001 28588 41906 72701 10099 20099 40097 53011 74642 80002;
0193285880999992000060506004+55570+071370FM-12+012999999V0202701N003010075019N0400001N1+01941+00821100841ADDAA199000091AY141061AY211061GF107991061021008001001021KA1999N+00941MD1710041+9999MW1031REMSYN076AAXX  05061 28588 31582 72703 10194 20082 40084 57004 70341 86202 333 20094;EQDQ01  00002PRCP99
0112285880999992000060512004+55570+071370FM-12+012999999V0202701N003010300019N0400001N1+02101+00701100631ADDGF107991021051008001061071MD1710081+9999REMSYN060AAXX  05121 28588 42582 72703 10210 20070 40063 57008 82567;
0165285880999992000060518004+55570+071370FM-12+012999999V0202301N001012200019N0500001N1+01271+00851100571ADDAA199000091GF102991001001999999001011KA1999M+02131MD1310021+9999REMSYN070AAXX  05181 28588 32984 22301 10127 20085 40057 53002 80001 333 10213;EQDQ01  00002PRCP99
0140285880999992000060521004+55570+071370FM-12+012999999V0209999C000012200019N0070001N1+00921+00771100451ADDAY101031AY201031GF102991001001999999001011MD1810131+9999MW1101REMSYN066AAXX  05211 28588 41957 20000 10092 20077 40045 58013 71000 80001;
0140285880999992000060600004+55570+071370FM-12+012999999V0201801N001010300019N0090001N1+01101+00851100381ADDAY111061AY211061GF106991041091008001061021MD1710061+9999MW1101REMSYN066AAXX  06001 28588 41559 61801 10110 20085 40038 57006 71011 84962;
0170285880999992000060606004+55570+071370FM-12+012999999V0201901N003010300019N0400001N1+02101+01211100161ADDAA199000091AY181061AY221061GF105991041091008001061001MD1710051+9999MW1021REMSYN066AAXX  06061 28588 31582 51903 10210 20121 40016 57005 70282 84960;EQDQ01  00002PRCP99
0140285880999992000060612004+55570+071370FM-12+012999999V0202901N003012200019N0400001N1+02301+00841099861ADDAY181061AY221061GF106991031091008001001041MD1310031+9999MW1021REMSYN066AAXX  06121 28588 41582 62903 10230 20084 49986 53003 70282 83904;
0152285880999992000060618004+55570+071370FM-12+012999999V0202901N001012200019N0500001N1+01341+00861099881ADDAA100002091GF101991001001999999001021KA1999M+02311MD1310011+9999REMSYN076AAXX  06181 28588 12984 12901 10134 20086 49988 53001 60020 80002 333 10231;
0112285880999992000060621004+55570+071370FM-12+012999999V0209999C000019999999N0500001N1+01061+00851099781ADDGF108991011001999999061021MD1810111+9999REMSYN060AAXX  06211 28588 42984 80000 10106 20085 49978 58011 81062;
0140285880999992000060700004+55570+071370FM-12+012999999V0202101N001010075019N0300001N1+01161+01001099811ADDAY181061AY211061GF106991051091008001061001MD1310031+9999MW1021REMSYN066AAXX  07001 28588 41580 62101 10116 20100 49981 53003 70281 85960;
0157285880999992000060712004+55570+071370FM-12+012999999V0202901N005010075019N0400001N1+01801+00431099691ADDAY191061AY281061GF106991051091008001001021HL10009MD1810081+9999MW1021REMSYN076AAXX  07121 28588 41582 62905 10180 20043 49969 58008 70298 85902 333 93202;
0112285880999992000060721004+55570+071370FM-12+012999999V0202701N002012200019N0500001N1+00751+00641099931ADDGF102991001001999999001011MD1210031+9999REMSYN060AAXX  07211 28588 42984 22702 10075 20064 49993 52003 80001;
0112285880999992000060800004+55570+071370FM-12+012999999V0202201N001012200019N0400001N1+00691+00621099981ADDGF101991001001999999001011MD1210051+9999REMSYN060AAXX  08001 28588 42982 12201 10069 20062 49998 52005 80001;
0174285880999992000060806004+55570+071370FM-12+012999999V0203201N006010075019N0070001N1+01591+00671099901ADDAA199000021AY181061AY221061GF106991061091008001001001KA1999N+00641MD1310011+9999MW1801REMSYN076AAXX  08061 28588 31557 63206 10159 20067 49990 53001 78082 86900 333 20064;
0140285880999992000060812004+55570+071370FM-12+012999999V0203201N005010075019N0290001N1+01171+00951100101ADDAY181061AY221061GF107991071091008001001001MD1210131+9999MW1801REMSYN066AAXX  08121 28588 41579 73205 10117 20095 40010 52013 78082 87900;
0180285880999992000060818004+55570+071370FM-12+012999999V0203601N007010075019N0500001N1+00931+00671100391ADDAA100003091AY181061AY221061GF107991071091008001001001KA1999M+01601MD1210141+9999MW1021REMSYN082AAXX  08181 28588 11584 73607 10093 20067 40039 52014 60030 70282 87900 333 10160;
0140285880999992000060821004+55570+071370FM-12+012999999V0203001N005010075019N0060001N1+00751+00711100391ADDAY181031AY221031GF107991071091008001001001MD1810011+9999MW1801REMSYN066AAXX  08211 28588 41556 73005 10075 20071 40039 58001 78082 87900;
0159285880999992000060900004+55570+071370FM-12+012999999V0203001N007010075019N0070001N1+00791+00741100361ADDAY181061AY261061GF108991999071008001021999MD1710031+9999MW1611REMSYN066AAXX  09001 28588 41557 83007 10079 20074 40036 57003 76186 8872/;EQDQ01+000082SCOTLC
0205285880999992000060906004+55570+071370FM-12+012999999V0203601N008010075019N0120001N1+00911+00851100811ADDAA100006191AY161061AY221061GF108991999071008001021999KA1120N+00731MD1210281+9999MW1211REMSYN088AAXX  09061 28588 11562 83608 10091 20085 40081 52028 60060 72162 8872/ 333 20073 91112;EQDQ01+000082SCOTLC
0122285880999992000060912004+55570+071370FM-12+012999999V0203401N006010075019N0290001N1+01571+00951101071ADDGF106991061021008001001001MD1210101+9999REMSYN070AAXX  09121 28588 42579 63406 10157 20095 40107 52010 86200 333 91112;
0180285880999992000060918004+55570+071370FM-12+012999999V0202401N002012200019N0070001N1+01021+00941101381ADDAA100000591AY111061AY211061GF102991021001999999031001KA1999M+01621MD1210101+9999MW1101REMSYN082AAXX  09181 28588 11957 22402 10102 20094 40138 52010 69940 71011 82030 333 10162;
0150285880999992000060921004+55570+071370FM-12+012999999V0202401N001012200019N0048001N1+00821+99999101431ADDAY101031AY201031GA1001+999999999GF100991001001999999001001MD1210041+9999MW1101REMSYN060AAXX  09211 28588 41948 02401 10082 22080 40143 52004 71000;
0150285880999992000061000004+55570+071370FM-12+012999999V0202501N001012200019N0050001N1+00891+00891101531ADDAY101061AY201061GA1001+999999999GF100991001001999999001001MD1210091+9999MW1101REMSYN060AAXX  10001 28588 41950 02501 10089 20089 40153 52009 71000;
0142285880999992000061006004+55570+071370FM-12+012999999V0202901N002012200019N0400001N1+01881+00461101651ADDAA199000091GF101991011011008001001001MD1410001+9999REMSYN060AAXX  10061 28588 32582 12902 10188 20046 40165 54000 81100;EQDQ01  00002PRCP99
0112285880999992000061012004+55570+071370FM-12+012999999V0201801N003012200019N0400001N1+02241+00481101541ADDGF102991021021008001001001MD1810061+9999REMSYN060AAXX  10121 28588 42582 21803 10224 20048 40154 58006 82200;
0175285880999992000061018004+55570+071370FM-12+012999999V0201601N003012200019N0500001N1+01561+00971101571ADDAA199000091GA1001+999999999GF100991001001999999001001KA1999M+02251MD1210031+9999REMSYN064AAXX  10181 28588 32984 01603 10156 20097 40157 52003 333 10225;EQDQ01  00002PRCP99
0122285880999992000061021004+55570+071370FM-12+012999999V0201701N003012200019N0500001N1+01261+00901101571ADDGA1001+999999999GF100991001001999999001001MD1810011+9999REMSYN054AAXX  10211 28588 42984 01703 10126 20090 40157 58001;
0112285880999992000061100004+55570+071370FM-12+012999999V0201601N004012200019N0300001N1+01201+00861101551ADDGF102991001001999999001011MD1710021+9999REMSYN060AAXX  11001 28588 42980 21604 10120 20086 40155 57002 80001;
0165285880999992000061106004+55570+071370FM-12+012999999V0201801N005019999999N0400001N1+99999+99999101511ADDAA199000091GF107991001001999999001021KA1999N+01151MD1810021+9999REMSYN070AAXX  11061 28588 32982 71805 12029 20106 40151 58002 80002 333 20115;EQDQ01  00002PRCP99
0112285880999992000061112004+55570+071370FM-12+012999999V0201801N005010750019N0400001N1+02601+00651101331ADDGF106991021021008001001021MD1710091+9999REMSYN060AAXX  11121 28588 42582 61805 10260 20065 40133 57009 82202;
0112285880999992000061121004+55570+071370FM-12+012999999V0201701N002019999999N0500001N1+01801+01041101421ADDGF107991071001999999061001MD1810011+9999REMSYN060AAXX  11211 28588 42984 71702 10180 20104 40142 58001 87060;
0112285880999992000061200004+55570+071370FM-12+012999999V0201901N003019999999N0400001N1+01661+01171101641ADDGF106991061001999999061001MD1310111+9999REMSYN060AAXX  12001 28588 42982 61903 10166 20117 40164 53011 86060;
0165285880999992000061206004+55570+071370FM-12+012999999V0202401N002019999999N0400001N1+02451+01481101411ADDAA199000091GF106991051001999999031011KA1999N+01621MD1710021+9999REMSYN070AAXX  12061 28588 32982 62402 10245 20148 40141 57002 85031 333 20162;EQDQ01  00002PRCP99
0140285880999992000061212004+55570+071370FM-12+012999999V0201801N002010075019N0080001N1+02611+01351101261ADDAY181061AY221061GF106991051091008001001021MD1710081+9999MW1801REMSYN066AAXX  12121 28588 41558 61802 10261 20135 40126 57008 78082 85902;
0174285880999992000061218004+55570+071370FM-12+012999999V0202201N001019999999N0500001N1+01701+01531101351ADDAA100006191AY191061AY281061GF107991999999008001999999KA1999M+02681MD1310081+9999MW1021REMSYN076AAXX  12181 28588 11584 72201 10170 20153 40135 53008 60060 70298 333 10268;
0112285880999992000061221004+55570+071370FM-12+012999999V0209999C000010750019N0500001N1+01681+01511101341ADDGF107991031091008001001021MD1710011+9999REMSYN060AAXX  12211 28588 42584 70000 10168 20151 40134 57001 83902;
0140285880999992000061300004+55570+071370FM-12+012999999V0201301N001010300019N0170001N1+01571+01511101281ADDAY181061AY221061GF107991041091008001061011MD1710061+9999MW1021REMSYN066AAXX  13001 28588 41567 71301 10157 20151 40128 57006 70282 84961;
0180285880999992000061306004+55570+071370FM-12+012999999V0201301N003012200019N0400001N1+02451+01541101221ADDAA100003091AY181061AY211061GF103991021021008001001021KA1999N+01491MD1810081+9999MW1011REMSYN082AAXX  13061 28588 11582 31303 10245 20154 40122 58008 60030 70181 82202 333 20149;
0112285880999992000061312004+55570+071370FM-12+012999999V0201501N005010750019N0400001N1+02621+00981101031ADDGF106991021021008001001021MD1710081+9999REMSYN060AAXX  13121 28588 42582 61505 10262 20098 40103 57008 82202;
0165285880999992000061318004+55570+071360FM-12+012999999V0201201N004010075019N0500001N1+01851+01401101021ADDAA199000091GF105991051051008001001001KA1999M+02621MD1310031+9999REMSYN070AAXX  13181 28588 32584 51204 10185 20140 40102 53003 85500 333 10262;EQDQ01  00002PRCP99
0112285880999992000061321004+55570+071360FM-12+012999999V0201201N002012200019N0500001N1+01551+01241100961ADDGF102991001001999999001011MD1810071+9999REMSYN060AAXX  13211 28588 42984 21202 10155 20124 40096 58007 80001;
0112285880999992000061400004+55570+071360FM-12+012999999V0200801N004019999999N0220001N1+01541+01211100971ADDGF105991001001999999001021MD1410001+9999REMSYN060AAXX  14001 28588 42972 50804 10154 20121 40097 54000 80002;
0142285880999992000061406004+55570+071360FM-12+012999999V0200901N007019999999N0400001N1+02561+01201100791ADDAA199000091GF107991001001999999001021MD1710071+9999REMSYN060AAXX  14061 28588 32982 70907 10256 20120 40079 57007 80002;EQDQ01  00002PRCP99
0112285880999992000061412004+55570+071360FM-12+012999999V0201701N003019999999N0400001N1+02471+01301100811ADDGF107991071001999999071001MD1310071+9999REMSYN060AAXX  14121 28588 42982 71703 10247 20130 40081 53007 87070;
0165285880999992000061418004+55570+071360FM-12+012999999V0202701N001019999999N0500001N1+01931+01561100921ADDAA199000091GF107991071001999999071001KA1999M+02691MD1210071+9999REMSYN070AAXX  14181 28588 32984 72701 10193 20156 40092 52007 87070 333 10269;EQDQ01  00002PRCP99
0112285880999992000061421004+55570+071360FM-12+012999999V0209999C000019999999N0200001N1+01741+01551100831ADDGF107991071001999999071001MD1810091+9999REMSYN060AAXX  14211 28588 42970 70000 10174 20155 40083 58009 87070;
0112285880999992000061500004+55570+071360FM-12+012999999V0201901N001010300019N0400001N1+01731+01541100681ADDGF107991021091008001061001MD1710151+9999REMSYN060AAXX  15001 28588 42582 71901 10173 20154 40068 57015 82960;
0112285880999992000061512004+55570+071360FM-12+012999999V0201901N004010075019N0400001N1+02261+01131100451ADDGF106991061021008001001001MD1710101+9999REMSYN060AAXX  15121 28588 42582 61904 10226 20113 40045 57010 86200;
0112285880999992000061521004+55570+071360FM-12+012999999V0201601N003012200019N0240001N1+01501+01261100531ADDGF102991021001999999031001MD1310091+9999REMSYN060AAXX  15211 28588 42974 21603 10150 20126 40053 53009 82030;
0112285880999992000061600004+55570+071360FM-12+012999999V0201301N002012200019N0280001N1+01321+01281100561ADDGF103991031001999999051001MD1210021+9999REMSYN060AAXX  16001 28588 42978 31302 10132 20128 40056 52002 83050;
0129285880999992000061606004+55570+071360FM-12+012999999V0202101N007010075019N0400001N1+02091+01091100351ADDAA100000791GF105991051091008001001001MD1710011+9999REMSYN066AAXX  16061 28588 12582 52107 10209 20109 40035 57001 69900 85900;
0167285880999992000061612004+55570+071360FM-12+012999999V0202301N009010075019N0400001N1+02141+00931100491ADDAY121061AY221061GF106991061091008001001001MD1210121+9999MW1251OA140101301REMSYN082AAXX  16121 28588 41582 62309 10214 20093 40049 52012 72522 86900 333 91013 91113;
0158285880999992000061618004+55570+071360FM-12+012999999V0202001N003010300019N0500001N1+01691+01271100881ADDAA100000791GF105991041091008001061011KA1120M+02371MD1210081+9999REMSYN082AAXX  16181 28588 12584 52003 10169 20127 40088 52008 69900 84961 333 10237 51113;
0112285880999992000061621004+55570+071360FM-12+012999999V0202101N002010075019N0500001N1+01631+01191100741ADDGF106991061051008001001001MD1210061+9999REMSYN060AAXX  16211 28588 42584 62102 10163 20119 40074 52006 86500;
0112285880999992000061700004+55570+071360FM-12+012999999V0202801N003019999999N0400001N1+01501+01241100881ADDGF105991021001999999061011MD1210131+9999REMSYN060AAXX  17001 28588 42982 52803 10150 20124 40088 52013 82061;
0165285880999992000061706004+55570+071360FM-12+012999999V0201901N004012200019N0400001N1+02241+00801101221ADDAA199000091GF101991011011008001001001KA1999N+01481MD1210151+9999REMSYN070AAXX  17061 28588 32582 11904 10224 20080 40122 52015 81100 333 20148;EQDQ01  00002PRCP99
0112285880999992000061712004+55570+071360FM-12+012999999V0203401N005012200019N0400001N1+02411+00741101411ADDGF101991011011008001001001MD1210061+9999REMSYN060AAXX  17121 28588 42582 13405 10241 20074 40141 52006 81100;
0165285880999992000061718004+55570+071360FM-12+012999999V0201601N001012200019N0500001N1+01541+01051101671ADDAA199000091GF102991021001999999031001KA1999M+02431MD1210121+9999REMSYN070AAXX  17181 28588 32984 21601 10154 20105 40167 52012 82030 333 10243;EQDQ01  00002PRCP99
0112285880999992000061721004+55570+071360FM-12+012999999V0201401N001012200019N0500001N1+01231+00981101701ADDGF102991001001999999001011MD1210021+9999REMSYN060AAXX  17211 28588 42984 21401 10123 20098 40170 52002 80001;
0112285880999992000061800004+55570+071360FM-12+012999999V0201501N003019999999N0400001N1+01511+01021101771ADDGF105991051001999999031001MD1210081+9999REMSYN060AAXX  18001 28588 42982 51503 10151 20102 40177 52008 85030;
0142285880999992000061806004+55570+071360FM-12+012999999V0201901N004012200019N0400001N1+02641+01241101801ADDAA199000091GF101991011021008001001001MD1210021+9999REMSYN060AAXX  18061 28588 32582 11904 10264 20124 40180 52002 81200;EQDQ01  00002PRCP99
0112285880999992000061812004+55570+071360FM-12+012999999V0202401N004012200019N0400001N1+02951+01301101691ADDGF103991031091008001001001MD1710041+9999REMSYN060AAXX  18121 28588 42582 32404 10295 20130 40169 57004 83900;
0175285880999992000061818004+55570+071360FM-12+012999999V0201701N001012200019N0500001N1+02201+01641101811ADDAA199000091GA1001+999999999GF100991001001999999001001KA1999M+02961MD1310101+9999REMSYN064AAXX  18181 28588 32984 01701 10220 20164 40181 53010 333 10296;EQDQ01  00002PRCP99
0122285880999992000061821004+55570+071360FM-12+012999999V0209999C000012200019N0500001N1+01781+01451101901ADDGA1001+999999999GF100991001001999999001001MD1210071+9999REMSYN054AAXX  18211 28588 42984 00000 10178 20145 40190 52007;
0122285880999992000061900004+55570+071360FM-12+012999999V0201801N001012200019N0140001N1+01721+01461101931ADDGA1001+999999999GF100991001001999999001001MD1210021+9999REMSYN054AAXX  19001 28588 42964 01801 10172 20146 40193 52002;
0152285880999992000061906004+55570+071360FM-12+012999999V0201601N002012200019N0400001N1+03011+01271102241ADDAA199000091GA1001+999999999GF100991001001999999001001MD1210041+9999REMSYN054AAXX  19061 28588 32982 01602 10301 20127 40224 52004;EQDQ01  00002PRCP99
0122285880999992000061921004+55570+071360FM-12+012999999V0200801N001012200019N0500001N1+01891+01711102071ADDGA1001+999999999GF100991001001999999001001MD1210061+9999REMSYN054AAXX  19211 28588 42984 00801 10189 20171 40207 52006;
0150285880999992000062000004+55570+071360FM-12+012999999V0209999C000012200019N0070001N1+01801+01671102121ADDAY101061AY201061GA1001+999999999GF100991001001999999001001MD1210051+9999MW1101REMSYN060AAXX  20001 28588 41957 00000 10180 20167 40212 52005 71000;
0165285880999992000062006004+55570+071360FM-12+012999999V0200801N002010075019N0400001N1+03001+01591102051ADDAA199000091GF105991051021008001001001KA1999N+01761MD1310021+9999REMSYN070AAXX  20061 28588 32582 50802 10300 20159 40205 53002 85200 333 20176;EQDQ01  00002PRCP99
0112285880999992000062012004+55570+071360FM-12+012999999V0200601N002012200019N0400001N1+03121+01631101871ADDGF102991021011008001001001MD1710111+9999REMSYN060AAXX  20121 28588 42582 20602 10312 20163 40187 57011 82100;
0122285880999992000062021004+55570+071360FM-12+012999999V0209999C000012200019N0015001N1+02081+01921102061ADDGA1001+999999999GF100991001001999999001001MD1410001+9999REMSYN054AAXX  20211 28588 42915 00000 10208 20192 40206 54000;
0150285880999992000062100004+55570+071360FM-12+012999999V0203101N001012200019N9999999N1+01961+01851102081ADDAY101061AY201061GA1001+999999999GF100991001001999999001001MD1410001+9999MW1101REMSYN060AAXX  21001 28588 41955 03101 10196 20185 40208 54000 71000;
0112285880999992000062112004+55570+071360FM-12+012999999V0201701N001019999999N0300001N1+02741+01841101991ADDGF107991001001999999001021MD1710111+9999REMSYN060AAXX  21121 28588 42980 71701 10274 20184 40199 57011 80002;
0165285880999992000062118004+55570+071360FM-12+012999999V0200801N001012200019N0220001N1+01981+01701102051ADDAA199000091GF102991021091008001001021KA1999M+03131MD1810131+9999REMSYN070AAXX  21181 28588 32572 20801 10198 20170 40205 58013 82902 333 10313;EQDQ01  00002PRCP99
0140285880999992000062121004+55570+071360FM-12+012999999V0201301N001012200019N0090001N1+01901+01701102021ADDAY101031AY201031GF102991001001999999001011MD1710031+9999MW1101REMSYN066AAXX  21211 28588 41959 21301 10190 20170 40202 57003 71000 80001;
0140285880999992000062200004+55570+071360FM-12+012999999V0209999C000012200019N0070001N1+01871+01701102041ADDAY101061AY201061GF102991001001999999001011MD1310021+9999MW1101REMSYN066AAXX  22001 28588 41957 20000 10187 20170 40204 53002 71000 80001;
0152285880999992000062206004+55570+071360FM-12+012999999V0203301N001012200019N0400001N1+02931+01611101901ADDAA199000091GA1001+999999999GF100991001001999999001001MD1810081+9999REMSYN054AAXX  22061 28588 32982 03301 10293 20161 40190 58008;EQDQ01  00002PRCP99
0112285880999992000062212004+55570+071360FM-12+012999999V0200301N001012200019N0400001N1+03181+01381101551ADDGF103991021021008001001011MD1710191+9999REMSYN060AAXX  22121 28588 42582 30301 10318 20138 40155 57019 82201;
0165285880999992000062218004+55570+071360FM-12+012999999V0209999C000012200019N0250001N1+02271+01901101481ADDAA199000091GF102991001001999999001021KA1999M+03191MD1710021+9999REMSYN070AAXX  22181 28588 32975 20000 10227 20190 40148 57002 80002 333 10319;EQDQ01  00002PRCP99
0169285880999992000062221004+55570+071360FM-12+012999999V0209999C000012200019N0080001N1+02081+01901999999ADDAY101031AY201031GA1001+999999999GF100991001001999999001001MD1710011+9999MW1101REMSYN060AAXX  22211 28588 41958 00000 10208 20190 40378 57001 71000;EQDQ01+103783APOSLP
0150285880999992000062300004+55570+071360FM-12+012999999V0209999C000012200019N0070001N1+01851+01721101421ADDAY101061AY201061GA1001+999999999GF100991001001999999001001MD1710081+9999MW1101REMSYN060AAXX  23001 28588 41957 00000 10185 20172 40142 57008 71000;
0165285880999992000062306004+55570+071360FM-12+012999999V0200501N003012200019N0400001N1+03101+01691101311ADDAA199000091GF102991021021008001001001KA1999N+01831MD1710061+9999REMSYN070AAXX  23061 28588 32582 20503 10310 20169 40131 57006 82200 333 20183;EQDQ01  00002PRCP99
0112285880999992000062312004+55570+071360FM-12+012999999V0201201N003012200019N0400001N1+03291+01481100951ADDGF102991021021008001001001MD1710191+9999REMSYN060AAXX  23121 28588 42582 21203 10329 20148 40095 57019 82200;
0112285880999992000062321004+55570+071360FM-12+012999999V0200601N002010075019N0500001N1+02121+01571101061ADDGF106991061091008001001001MD1210011+9999REMSYN060AAXX  23211 28588 42584 60602 10212 20157 40106 52001 86900;
0112285880999992000062400004+55570+071360FM-12+012999999V0200701N001010750019N0400001N1+02041+01711101121ADDGF106991021021008001001021MD1210051+9999REMSYN060AAXX  24001 28588 42582 60701 10204 20171 40112 52005 82202;
0165285880999992000062406004+55570+071360FM-12+012999999V0200401N005010750019N0400001N1+02831+01971100931ADDAA199000091GF105991021031008001001021KA1999N+02001MD1710021+9999REMSYN070AAXX  24061 28588 32582 50405 10283 20197 40093 57002 82302 333 20200;EQDQ01  00002PRCP99
0140285880999992000062412004+55570+071360FM-12+012999999V0209999C000010075019N0400001N1+02211+01841100991ADDAY191061AY281061GF107991071091008001001001MD1310101+9999MW1171REMSYN066AAXX  24121 28588 41582 70000 10221 20184 40099 53010 71798 87900;
0180285880999992000062418004+55570+071360FM-12+012999999V0200901N005010300019N0500001N1+02211+01731101131ADDAA100000791AY191061AY281061GF105991031051008001051011KA1999M+03031MD1210121+9999MW1021REMSYN082AAXX  24181 28588 11584 50905 10221 20173 40113 52012 69900 70298 83551 333 10303;
0112285880999992000062421004+55570+071360FM-12+012999999V0200801N004019999999N0500001N1+01951+01601101051ADDGF106991001001999999001011MD1210061+9999REMSYN060AAXX  24211 28588 42984 60804 10195 20160 40105 52006 80001;
0112285880999992000062500004+55570+071360FM-12+012999999V0200701N004019999999N0400001N1+01821+01531101351ADDGF106991001001999999001011MD1210141+9999REMSYN060AAXX  25001 28588 42982 60704 10182 20153 40135 52014 80001;
0141285880999992000062506004+55570+071360FM-12+012999999V0200901N008012200019N0400001N1+02441+01241101441ADDGF101991001001999999001021KA1120N+01781MD1210011+9999REMSYN076AAXX  25061 28588 42982 10908 10244 20124 40144 52001 80002 333 20178 91112;
0132285880999992000062512004+55570+071360FM-12+012999999V0201201N007012200019N0400001N1+02661+00781101501ADDGA1001+999999999GF100991001001999999001001MD1310131+9999REMSYN064AAXX  25121 28588 42982 01207 10266 20078 40150 53013 333 91112;
0175285880999992000062518004+55570+071360FM-12+012999999V0200901N003012200019N0500001N1+01541+01131101331ADDAA199000091GA1001+999999999GF100991001001999999001001KA1999M+02691MD1310021+9999REMSYN064AAXX  25181 28588 32984 00903 10154 20113 40133 53002 333 10269;EQDQ01  00002PRCP99
0122285880999992000062521004+55570+071360FM-12+012999999V0201001N002012200019N0500001N1+01291+00981101321ADDGA1001+999999999GF100991001001999999001001MD1810021+9999REMSYN054AAXX  25211 28588 42984 01002 10129 20098 40132 58002;
0122285880999992000062600004+55570+071360FM-12+012999999V0203001N002012200019N0500001N1+01381+01101101271ADDGA1001+999999999GF100991001001999999001001MD1710041+9999REMSYN054AAXX  26001 28588 42984 03002 10138 20110 40127 57004;
0152285880999992000062606004+55570+071360FM-12+012999999V0200901N006012200019N0400001N1+02361+00891101141ADDAA199000091GA1001+999999999GF100991001001999999001001MD1710141+9999REMSYN054AAXX  26061 28588 32982 00906 10236 20089 40114 57014;EQDQ01  00002PRCP99
0122285880999992000062612004+55570+071360FM-12+012999999V0200901N007012200019N0400001N1+02761+00811100911ADDGF102991001001999999001021MD1710081+9999REMSYN070AAXX  26121 28588 42982 20907 10276 20081 40091 57008 80002 333 91113;
0165285880999992000062618004+55570+071360FM-12+012999999V0200801N003019999999N0500001N1+01941+00851100751ADDAA199000091GF106991061001999999061001KA1999M+02771MD1310011+9999REMSYN070AAXX  26181 28588 32984 60803 10194 20085 40075 53001 86060 333 10277;EQDQ01  00002PRCP99
0112285880999992000062621004+55570+071360FM-12+012999999V0200901N003019999999N0500001N1+01761+00921100721ADDGF107991031001999999061021MD1810041+9999REMSYN060AAXX  26211 28588 42984 70903 10176 20092 40072 58004 83062;
0112285880999992000062700004+55570+071360FM-12+012999999V0201101N003010300019N0400001N1+01641+01021100691ADDGF106991011091008001041021MD1710031+9999REMSYN060AAXX  27001 28588 42582 61103 10164 20102 40069 57003 81942;
0165285880999992000062706004+55570+071360FM-12+012999999V0200701N006010750019N0400001N1+02441+01261100611ADDAA199000091GF106991021021008001001021KA1999N+01451MD1310051+9999REMSYN070AAXX  27061 28588 32582 60706 10244 20126 40061 53005 82202 333 20145;EQDQ01  00002PRCP99
0131285880999992000062712004+55570+071360FM-12+012999999V0201601N999992200019N0400001N1+02891+01261100561ADDGF102991001001999999001011MD1310041+9999REMSYN060AAXX  27121 28588 42982 26605 10289 20126 40056 53004 80001;EQDQ01+010501WOSPD 
0112285880999992000062721004+55570+071360FM-12+012999999V0200701N003010075019N0500001N1+01911+01511100591ADDGF106991061091008001001001MD1810061+9999REMSYN060AAXX  27211 28588 42584 60703 10191 20151 40059 58006 86900;
0112285880999992000062800004+55570+071360FM-12+012999999V0200301N002010075019N0300001N1+01821+01571100691ADDGF107991051091008001071001MD1310101+9999REMSYN060AAXX  28001 28588 42580 70302 10182 20157 40069 53010 85970;
0180285880999992000062806004+55570+071360FM-12+012999999V0200501N005019999999N0100001N1+01781+01631100761ADDAA100000591AY161061AY221061GF107991071001999999071001KA1999N+01761MD1810011+9999MW1611REMSYN082AAXX  28061 28588 11960 70505 10178 20163 40076 58001 69960 76162 87070 333 20176;
0150285880999992000062812004+55570+071360FM-12+012999999V0200701N006010300019N0400001N1+00771+99999100791ADDAY161061AY221061GF107991011011012501071001MD1310041+9999MW1021REMSYN076AAXX  28121 28588 41682 70706 10077 20150 40079 53004 70262 81170 333 91113;
0180285880999992000062818004+55570+071360FM-12+012999999V0200501N007019999999N0090001N1+01601+01501100741ADDAA100001091AY161061AY221061GF107991071001999999071001KA1999M+01871MD1310021+9999MW1611REMSYN082AAXX  28181 28588 11959 70507 10160 20150 40074 53002 60010 76162 87070 333 10187;
0140285880999992000062821004+55570+071360FM-12+012999999V0200501N006019999999N0250001N1+01531+01481100731ADDAY161031AY221031GF107991071001999999071001MD1810011+9999MW1211REMSYN066AAXX  28211 28588 41975 70506 10153 20148 40073 58001 72162 87070;
0140285880999992000062900004+55570+071360FM-12+012999999V0200501N004010075019N0400001N1+01461+01291100771ADDAY161061AY221061GF107991071051008001001001MD1310031+9999MW1021REMSYN066AAXX  29001 28588 41582 70504 10146 20129 40077 53003 70262 87500;
0129285880999992000062906004+55570+071360FM-12+012999999V0200301N004010075019N0400001N1+01821+01141100831ADDAA100000591GF107991071051008001001001MD1210011+9999REMSYN066AAXX  29061 28588 12582 70304 10182 20114 40083 52001 69950 87500;
0112285880999992000062912004+55570+071360FM-12+012999999V0200301N006010075019N0400001N1+02161+00841100931ADDGF106991051091008001001011MD1210031+9999REMSYN060AAXX  29121 28588 42582 60306 10216 20084 40093 52003 85901;
0165285880999992000062918004+55570+071360FM-12+012999999V0200201N003019999999N0500001N1+01521+01031101011ADDAA199000091GF107991071001999999071001KA1999M+02171MD1310091+9999REMSYN070AAXX  29181 28588 32984 70203 10152 20103 40101 53009 87070 333 10217;EQDQ01  00002PRCP99
0112285880999992000062921004+55570+071360FM-12+012999999V0203601N002010750019N0500001N1+01261+01001101061ADDGF108991011051008001001021MD1210041+9999REMSYN060AAXX  29211 28588 42584 83602 10126 20100 40106 52004 81502;
0112285880999992000063000004+55570+071360FM-12+012999999V0200201N002010300019N0400001N1+01161+01001101121ADDGF108991031051008001041021MD1210051+9999REMSYN060AAXX  30001 28588 42582 80202 10116 20100 40112 52005 83542;
0165285880999992000063006004+55570+071360FM-12+012999999V0200301N006010075019N0400001N1+02051+00561101271ADDAA199000091GF107991071021008001001021KA1999N+01081MD1210031+9999REMSYN070AAXX  30061 28588 32582 70306 10205 20056 40127 52003 87202 333 20108;EQDQ01  00002PRCP99
0112285880999992000063012004+55570+071360FM-12+012999999V0200301N003010075019N0400001N1+02101+00501101361ADDGF105991051091008001001001MD1210021+9999REMSYN060AAXX  30121 28588 42582 50303 10210 20050 40136 52002 85900;
0122285880999992000063021004+55570+071360FM-12+012999999V0203401N001012200019N0500001N1+00941+00771101711ADDGA1001+999999999GF100991001001999999001001MD1210061+9999REMSYN054AAXX  30211 28588 42984 03401 10094 20077 40171 52006;
0140285880999992000070100004+55570+071360FM-12+012999999V0209999C000012200019N0070001N1+00921+00811101831ADDAY101061AY201061GF102991001001999999001011MD1210121+9999MW1101REMSYN066AAXX  01001 28588 41957 20000 10092 20081 40183 52012 71000 80001;
0165285880999992000070106004+55570+071360FM-12+012999999V0203601N004010075019N0400001N1+02111+00481101601ADDAA199000091GF106991051091008001031001KA1999N+00871MD1710021+9999REMSYN070AAXX  01061 28588 32582 63604 10211 20048 40160 57002 85930 333 20087;EQDQ01  00002PRCP99
0112285880999992000070112004+55570+071360FM-12+012999999V0203501N005010300019N0400001N1+02211+00591101471ADDGF106991041091008001031001MD1710071+9999REMSYN060AAXX  01121 28588 42582 63505 10221 20059 40147 57007 84930;
0165285880999992000070118004+55570+071360FM-12+012999999V0203401N001012200019N0500001N1+01321+00771101531ADDAA199000091GF102991021011008001061001KA1999M+02211MD1310041+9999REMSYN070AAXX  01181 28588 32584 23401 10132 20077 40153 53004 82160 333 10221;EQDQ01  00002PRCP99
0122285880999992000070121004+55570+071360FM-12+012999999V0202301N001012200019N0500001N1+01141+00871101531ADDGA1001+999999999GF100991001001999999001001MD1810021+9999REMSYN054AAXX  01211 28588 42984 02301 10114 20087 40153 58002;
0122285880999992000070200004+55570+071360FM-12+012999999V0201901N001012200019N0400001N1+01121+00841101501ADDGA1001+999999999GF100991001001999999001001MD1710031+9999REMSYN054AAXX  02001 28588 42982 01901 10112 20084 40150 57003;
0165285880999992000070206004+55570+071360FM-12+012999999V0203401N003010075019N0400001N1+02461+00971101381ADDAA199000091GF105991051011008001001001KA1999N+01041MD1810061+9999REMSYN070AAXX  02061 28588 32582 53403 10246 20097 40138 58006 85100 333 20104;EQDQ01  00002PRCP99
0112285880999992000070212004+55570+071360FM-12+012999999V0203601N004012200019N0400001N1+02531+00971101251ADDGF103991031021008001001001MD1710061+9999REMSYN060AAXX  02121 28588 42582 33604 10253 20097 40125 57006 83200;
0165285880999992000070218004+55570+071360FM-12+012999999V0201601N001012200019N0230001N1+01791+01211101221ADDAA199000091GF102991021001999999031001KA1999M+02641MD1310021+9999REMSYN070AAXX  02181 28588 32973 21601 10179 20121 40122 53002 82030 333 10264;EQDQ01  00002PRCP99
0112285880999992000070221004+55570+071360FM-12+012999999V0202201N002010075019N0070001N1+01581+01101101181ADDGF105991051091008001001001MD1810051+9999REMSYN060AAXX  02211 28588 41557 52202 10158 20110 40118 58005 85900;
0140285880999992000070300004+55570+071360FM-12+012999999V0202101N002010750019N0070001N1+01531+01201101141ADDAY111061AY211061GF105991021091008001081011MD1710051+9999MW1041REMSYN066AAXX  03001 28588 41557 52102 10153 20120 40114 57005 70411 82981;
0142285880999992000070306004+55570+071360FM-12+012999999V0202001N004010300019N0400001N1+02621+01071101021ADDAA199000091GF106991031091008001051001MD1710051+9999REMSYN060AAXX  03061 28588 32582 62004 10262 20107 40102 57005 83950;EQDQ01  00002PRCP99
0112285880999992000070312004+55570+071360FM-12+012999999V0202301N002010075019N0400001N1+02571+01301100911ADDGF106991061091008001001001MD1710101+9999REMSYN060AAXX  03121 28588 42582 62302 10257 20130 40091 57010 86900;
0175285880999992000070318004+55570+071360FM-12+012999999V0209999C000012200019N0500001N1+01761+01431100851ADDAA199000091GA1001+999999999GF100991001001999999001001KA1999M+02711MD1410001+9999REMSYN064AAXX  03181 28588 32984 00000 10176 20143 40085 54000 333 10271;EQDQ01  00002PRCP99
0112285880999992000070321004+55570+071360FM-12+012999999V0209999C000012200019N0500001N1+01721+01211100751ADDGF102991021001999999031001MD1810141+9999REMSYN060AAXX  03211 28588 42984 20000 10172 20121 40075 58014 82030;
0112285880999992000070400004+55570+071360FM-12+012999999V0201601N002019999999N0400001N1+01731+01121100671ADDGF107991061001999999061021MD1710081+9999REMSYN060AAXX  04001 28588 42982 71602 10173 20112 40067 57008 86062;
0165285880999992000070406004+55570+071360FM-12+012999999V0200301N005010075019N0400001N1+02791+01381100571ADDAA199000091GF107991061021008001081011KA1999N+01651MD1310041+9999REMSYN070AAXX  04061 28588 32582 70305 10279 20138 40057 53004 86281 333 20165;EQDQ01  00002PRCP99
0139285880999992000070412004+55570+071360FM-12+012999999V0201901N012010075019N0400001N1+03181+00971100181ADDGF107991061091008001061011MD1710101+9999OA140101201REMSYN076AAXX  04121 28588 42582 71912 10318 20097 40018 57010 86961 333 91012 91116;
0140285880999992000070500004+55570+071360FM-12+012999999V0201701N002012200019N0090001N1+01691+01531100591ADDAY111061AY211061GF104991001001999999001021MD1210081+9999MW1101REMSYN066AAXX  05001 28588 41959 41702 10169 20153 40059 52008 71011 80002;
0165285880999992000070506004+55570+071360FM-12+012999999V0202401N007010075019N0400001N1+02731+01371100431ADDAA199000091GF105991051091008001001001KA1999N+01651MD1710011+9999REMSYN070AAXX  05061 28588 32582 52407 10273 20137 40043 57001 85900 333 20165;EQDQ01  00002PRCP99
0112285880999992000070512004+55570+071360FM-12+012999999V0202601N008010075019N0400001N1+02741+01341100391ADDGF107991051091008001031021MD1410001+9999REMSYN060AAXX  05121 28588 42582 72608 10274 20134 40039 54000 85932;
0165285880999992000070518004+55570+071360FM-12+012999999V0202101N001012200019N0500001N1+01871+01321100471ADDAA199000091GF105991041091008001001011KA1999M+02881MD1410001+9999REMSYN070AAXX  05181 28588 32584 52101 10187 20132 40047 54000 84901 333 10288;EQDQ01  00002PRCP99
0147285880999992000070521004+55570+071360FM-12+012999999V0202201N999992200019N0000001N1+01681+01401100431ADDGF104991999091008001001011MD1810101+9999REMSYN060AAXX  05211 28588 42500 47202 10168 20140 40043 58010 86901;EQDQ01+010201WOSPD Q02+000062SCOTLC
0180285880999992000070606004+55570+071360FM-12+012999999V0200301N005010300019N0400001N1+02181+01591100101ADDAA100000891AY181061AY221061GF107991011021008001061021KA1999N+01661MD1710181+9999MW1021REMSYN082AAXX  06061 28588 11582 70305 10218 20159 40010 57018 69970 70282 81262 333 20166;
0140285880999992000070612004+55570+071360FM-12+012999999V0202001N007019999999N0400001N1+02801+01181099571ADDAY191061AY281061GF107991061001999999071021MD1710171+9999MW1021REMSYN066AAXX  06121 28588 41982 72007 10280 20118 49957 57017 70298 86072;
0112285880999992000070621004+55570+071360FM-12+012999999V0202101N003012200019N0500001N1+01801+01521099441ADDGF102991021091008001001001MD1810181+9999REMSYN060AAXX  06211 28588 42584 22103 10180 20152 49944 58018 82900;
0112285880999992000070700004+55570+071360FM-12+012999999V0201801N006019999999N0400001N1+01421+01121099381ADDGF107991071001999999071001MD1710081+9999REMSYN060AAXX  07001 28588 42982 71806 10142 20112 49938 57008 87070;
0157285880999992000070706004+55570+071360FM-12+012999999V0202501N007010075019N0400001N1+01441+01061099631ADDAA100000791AY181061AY221061GF107991071051008001001001MD1210181+9999MW1021REMSYN072AAXX  07061 28588 11582 72507 10144 20106 49963 52018 69900 70282 87500;
0159285880999992000070712004+55570+071360FM-12+012999999V0202801N005010075019N0070001N1+01141+01141100201ADDAY161061AY221061GF108991999071008001021999MD1210231+9999MW1611REMSYN066AAXX  07121 28588 41557 82805 10114 20114 40020 52023 76162 8872/;EQDQ01+000082SCOTLC
0180285880999992000070718004+55570+071360FM-12+012999999V0202901N004019999999N0210001N1+01101+01041100671ADDAA100002091AY161061AY221061GF107991071001999999071001KA1999M+01501MD1210261+9999MW1021REMSYN082AAXX  07181 28588 11971 72904 10110 20104 40067 52026 60020 70262 87070 333 10150;
0112285880999992000070721004+55570+071360FM-12+012999999V0202901N003019999999N0300001N1+01061+00941100811ADDGF107991071001999999051001MD1210141+9999REMSYN060AAXX  07211 28588 42980 72903 10106 20094 40081 52014 87050;
0112285880999992000070800004+55570+071360FM-12+012999999V0202701N003019999999N0120001N1+00981+00851100901ADDGF107991071001999999051001MD1210081+9999REMSYN060AAXX  08001 28588 42962 72703 10098 20085 40090 52008 87050;
0152285880999992000070806004+55570+071360FM-12+012999999V0202801N007012200019N0400001N1+01871+00401101051ADDAA100000591GF102991001001999999001021KA1999N+00951MD1210071+9999REMSYN076AAXX  08061 28588 12982 22807 10187 20040 40105 52007 69950 80002 333 20095;
0112285880999992000070812004+55570+071360FM-12+012999999V0202801N006010075019N0400001N1+02111+00271101021ADDGF105991051021008001001001MD1410001+9999REMSYN060AAXX  08121 28588 42582 52806 10211 20027 40102 54000 85200;
0112285880999992000070821004+55570+071360FM-12+012999999V0202301N002012200019N0500001N1+01181+00701101211ADDGF102991001001999999001011MD1210011+9999REMSYN060AAXX  08211 28588 42984 22302 10118 20070 40121 52001 80001;
0112285880999992000070900004+55570+071360FM-12+012999999V0202301N002019999999N0220001N1+00981+00701101241ADDGF105991001001999999001021MD1210021+9999REMSYN060AAXX  09001 28588 42972 52302 10098 20070 40124 52002 80002;
0165285880999992000070906004+55570+071360FM-12+012999999V0201201N002019999999N0400001N1+02191+00641101131ADDAA199000091GF106991001001999999001021KA1999N+00931MD1710031+9999REMSYN070AAXX  09061 28588 32982 61202 10219 20064 40113 57003 80002 333 20093;EQDQ01  00002PRCP99
0112285880999992000070912004+55570+071360FM-12+012999999V0201601N004010750019N0400001N1+02461+00681100941ADDGF105991021091008001001021MD1710081+9999REMSYN060AAXX  09121 28588 42582 51604 10246 20068 40094 57008 82902;
0112285880999992000071012004+55570+071360FM-12+012999999V0200801N007019999999N0400001N1+02061+01101100801ADDGF107991071001999999051001MD1710081+9999REMSYN060AAXX  10121 28588 42982 70807 10206 20110 40080 57008 87050;
0112285880999992000071021004+55570+071360FM-12+012999999V0200501N005010300019N0500001N1+01621+01391100611ADDGF107991041091008001071001MD1710081+9999REMSYN060AAXX  10211 28588 42584 70505 10162 20139 40061 57008 84970;
0140285880999992000071100004+55570+071360FM-12+012999999V0200301N003019999999N0200001N1+01541+01431100591ADDAY161061AY221061GF107991071001999999071001MD1710021+9999MW1211REMSYN066AAXX  11001 28588 41970 70303 10154 20143 40059 57002 72162 87070;
0157285880999992000071106004+55570+071360FM-12+012999999V0200701N005019999999N0400001N1+02101+01251100751ADDAA100001091AY161061AY221061GF107991071001999999071001MD1810011+9999MW1021REMSYN072AAXX  11061 28588 11982 70705 10210 20125 40075 58001 60010 70262 87070;
0112285880999992000071112004+55570+071360FM-12+012999999V0200601N008012200019N0400001N1+02381+00801100551ADDGF103991021021008001001021MD1710021+9999REMSYN060AAXX  11121 28588 42582 30608 10238 20080 40055 57002 82202;
0158285880999992000071118004+55570+071360FM-12+012999999V0200201N003010300019N0500001N1+01621+01121100671ADDAA100000791GF107991021091008001061021KA1120M+02421MD1210051+9999REMSYN082AAXX  11181 28588 12584 70203 10162 20112 40067 52005 69900 82962 333 10242 91112;
0112285880999992000071121004+55570+071360FM-12+012999999V0200401N005010300019N0500001N1+01701+01061100661ADDGF107991021091008001061001MD1810011+9999REMSYN060AAXX  11211 28588 42584 70405 10170 20106 40066 58001 82960;
0112285880999992000071200004+55570+071360FM-12+012999999V0200401N004019999999N0400001N1+01661+01101100741ADDGF107991071001999999071001MD1310081+9999REMSYN060AAXX  12001 28588 42982 70404 10166 20110 40074 53008 87070;
0159285880999992000071206004+55570+071360FM-12+012999999V0200301N005019999999N0400001N1+02241+01221100871ADDAA199000091GF107991999999999999999999KA1999N+01441MD1210061+9999REMSYN064AAXX  12061 28588 32982 70305 10224 20122 40087 52006 333 20144;EQDQ01  00002PRCP99
0139285880999992000071212004+55570+071360FM-12+012999999V0200301N008019999999N0400001N1+02741+00941100871ADDGF105991051091999999001001MD1710171+9999OA140101301REMSYN076AAXX  12121 28588 42982 50308 10274 20094 40087 57017 85900 333 91013 91114;
0112285880999992000071221004+55570+071360FM-12+012999999V0203601N004012200019N0500001N1+01621+01281101001ADDGF102991001001999999001011MD1210021+9999REMSYN060AAXX  12211 28588 42984 23604 10162 20128 40100 52002 80001;
0112285880999992000071300004+55570+071360FM-12+012999999V0203401N003012200019N0400001N1+01401+01251101131ADDGF103991031001999999031001MD1210121+9999REMSYN060AAXX  13001 28588 42982 33403 10140 20125 40113 52012 83030;
0159285880999992000071306004+55570+071360FM-12+012999999V0200201N007012200019N0400001N1+02471+00511101251ADDAA199000091GF103991999999008001999999KA1999N+01371MD1210081+9999REMSYN064AAXX  13061 28588 32582 30207 10247 20051 40125 52008 333 20137;EQDQ01  00002PRCP99
0122285880999992000071312004+55570+071360FM-12+012999999V0200201N008012200019N0400001N1+02551+00561101291ADDGF102991001001999999001021MD1210031+9999REMSYN070AAXX  13121 28588 42982 20208 10255 20056 40129 52003 80002 333 91112;
0171285880999992000071318004+55570+071360FM-12+012999999V0203501N002012200019N0500001N1+01521+00761101381ADDAA199000091GF102991001001999999001011KA1120M+02601MD1310061+9999REMSYN076AAXX  13181 28588 32984 23502 10152 20076 40138 53006 80001 333 10260 91112;EQDQ01  00002PRCP99
0122285880999992000071321004+55570+071360FM-12+012999999V0203001N001012200019N0500001N1+01271+00931101421ADDGA1001+999999999GF100991001001999999001001MD1210031+9999REMSYN054AAXX  13211 28588 42984 03001 10127 20093 40142 52003;
0140285880999992000071400004+55570+071360FM-12+012999999V0202601N002012200019N0080001N1+01241+01121101441ADDAY101061AY201061GF102991001001999999001011MD1210021+9999MW1101REMSYN066AAXX  14001 28588 41958 22602 10124 20112 40144 52002 71000 80001;
0165285880999992000071406004+55570+071360FM-12+012999999V0200101N005012200019N0400001N1+02661+01311101321ADDAA199000091GF101991011001999999041001KA1999N+01171MD1710021+9999REMSYN070AAXX  14061 28588 32982 10105 10266 20131 40132 57002 81040 333 20117;EQDQ01  00002PRCP99
0139285880999992000071412004+55570+071360FM-12+012999999V0200101N004010075019N0400001N1+02621+01291101221ADDGF107991061091008001001021MD1310011+9999OA140101301REMSYN076AAXX  14121 28588 42582 70104 10262 20129 40122 53001 86902 333 91013 91114;
0181285880999992000071418004+55570+071360FM-12+012999999V0200301N005012200019N0500001N1+01441+00851101611ADDAA199000091GA1001+999999999GF100991001001999999001001KA1120M+02821MD1210221+9999REMSYN070AAXX  14181 28588 32984 00305 10144 20085 40161 52022 333 10282 91113;EQDQ01  00002PRCP99
0122285880999992000071421004+55570+071360FM-12+012999999V0200201N004012200019N0500001N1+01091+00671101771ADDGA1001+999999999GF100991001001999999001001MD1210131+9999REMSYN054AAXX  14211 28588 42984 00204 10109 20067 40177 52013;
0112285880999992000071500004+55570+071360FM-12+012999999V0200101N003019999999N0400001N1+01101+00741101781ADDGF107991071001999999051001MD1210011+9999REMSYN060AAXX  15001 28588 42982 70103 10110 20074 40178 52001 87050;
0188285880999992000071506004+55570+071360FM-12+012999999V0200401N008010075019N0400001N1+01631+00501101881ADDAA199000091GF106991061021008001001001KA1120N+00881MD1810051+9999OA140101201REMSYN082AAXX  15061 28588 32582 60408 10163 20050 40188 58005 86200 333 20088 91012 91113;EQDQ01  00002PRCP99
0139285880999992000071512004+55570+071360FM-12+012999999V0200401N008010075019N0400001N1+01781+00701101981ADDGF106991061091008001001001MD1310121+9999OA140101201REMSYN076AAXX  15121 28588 42582 60408 10178 20070 40198 53012 86900 333 91012 91114;
0181285880999992000071518004+55570+071360FM-12+012999999V0203301N003012200019N0280001N1+01181+00741102131ADDAA199000091GA1001+999999999GF100991001001999999001001KA1120M+01841MD1210081+9999REMSYN070AAXX  15181 28588 32978 03303 10118 20074 40213 52008 333 10184 91112;EQDQ01  00002PRCP99
0150285880999992000071600004+55570+071360FM-12+012999999V0203101N002012200019N0080001N1+01021+00801102011ADDAY101061AY201061GA1001+999999999GF100991001001999999001001MD1710061+9999MW1101REMSYN060AAXX  16001 28588 41958 03102 10102 20080 40201 57006 71000;
0165285880999992000071606004+55570+071360FM-12+012999999V0200101N007012200019N0400001N1+02171+00821101841ADDAA199000091GF105991041021008001001011KA1999N+00831MD1710071+9999REMSYN070AAXX  16061 28588 32582 50107 10217 20082 40184 57007 84201 333 20083;EQDQ01  00002PRCP99
0112285880999992000071612004+55570+071360FM-12+012999999V0203601N007012200019N0400001N1+02241+00581101741ADDGF104991041091008001001001MD1710041+9999REMSYN060AAXX  16121 28588 42582 43607 10224 20058 40174 57004 84900;
0112285880999992000071621004+55570+071360FM-12+012999999V0202801N003019999999N0500001N1+01371+00921101691ADDGF106991061001999999031001MD1810061+9999REMSYN060AAXX  16211 28588 42984 62803 10137 20092 40169 58006 86030;
0112285880999992000071700004+55570+071360FM-12+012999999V0203101N002012200019N0400001N1+01241+00861101671ADDGF102991021001999999031001MD1710021+9999REMSYN060AAXX  17001 28588 42982 23102 10124 20086 40167 57002 82030;
0165285880999992000071706004+55570+071360FM-12+012999999V0200101N004010300019N0400001N1+02251+01101101671ADDAA199000091GF106991021091008001031001KA1999N+01201MD1410001+9999REMSYN070AAXX  17061 28588 32582 60104 10225 20110 40167 54000 82930 333 20120;EQDQ01  00002PRCP99
0112285880999992000071712004+55570+071360FM-12+012999999V0203601N007010075019N0400001N1+02541+01061101551ADDGF107991051091008001001021MD1710051+9999REMSYN060AAXX  17121 28588 42582 73607 10254 20106 40155 57005 85902;
0140285880999992000071721004+55570+071360FM-12+012999999V0202601N002010750019N0070001N1+01641+01571101481ADDAY181031AY221031GF105991021091008001031021MD1810051+9999MW1101REMSYN066AAXX  17211 28588 41557 52602 10164 20157 40148 58005 71082 82932;
0140285880999992000071800004+55570+071360FM-12+012999999V0202901N003019999999N0080001N1+01651+01601101271ADDAY181061AY221061GF108991081001999999021999MD1710211+9999MW1101REMSYN066AAXX  18001 28588 41958 82903 10165 20160 40127 57021 71082 8802/;
0152285880999992000071806004+55570+071360FM-12+012999999V0200401N002010075019N0400001N1+02041+01661101271ADDAA100013091GF107991071051008001001001KA1999N+01621MD1810011+9999REMSYN076AAXX  18061 28588 12582 70402 10204 20166 40127 58001 60130 87500 333 20162;
0112285880999992000071812004+55570+071360FM-12+012999999V0201401N001010750019N0400001N1+02621+01501101041ADDGF106991021021008001001021MD1710141+9999REMSYN060AAXX  18121 28588 42582 61401 10262 20150 40104 57014 82202;
0180285880999992000071818004+55570+071360FM-12+012999999V0200801N003010075019N0070001N1+01771+01571101101ADDAA199000021AY191061AY281061GF107991071091008001001001KA1120M+02631MD1310061+9999MW1951REMSYN082AAXX  18181 28588 31557 70803 10177 20157 40110 53006 79598 87900 333 10263 55550;
0159285880999992000071821004+55570+071360FM-12+012999999V0203001N999990750019N0500001N1+01691+01511101051ADDAY191031AY281031GF107991031091008001001021MD1810061+9999MW1021REMSYN066AAXX  18211 28588 41584 73033 10169 20151 40105 58006 70298 83902;EQDQ01+003303WOSPD 
0140285880999992000071900004+55570+071360FM-12+012999999V0203301N003019999999N0600001N1+01631+01541101081ADDAY191061AY281061GF108991081001999999021999MD1310031+9999MW1101REMSYN066AAXX  19001 28588 41986 83303 10163 20154 40108 53003 71098 8802/;
0152285880999992000071906004+55570+071360FM-12+012999999V0203601N006010075019N0400001N1+02081+01641101311ADDAA100002091GF106991061091008001001001KA1999N+01601MD1210071+9999REMSYN076AAXX  19061 28588 12582 63606 10208 20164 40131 52007 60020 86900 333 20160;
0122285880999992000071912004+55570+071360FM-12+012999999V0203501N007012200019N0400001N1+02151+01051101531ADDGF103991021021008001051001MD1210131+9999REMSYN070AAXX  19121 28588 42582 33507 10215 20105 40153 52013 82250 333 91113;
0181285880999992000071918004+55570+071360FM-12+012999999V0203601N002012200019N0500001N1+01411+01171101731ADDAA199000091GA1001+999999999GF100991001001999999001001KA1120M+02341MD1210131+9999REMSYN070AAXX  19181 28588 32984 03602 10141 20117 40173 52013 333 10234 91112;EQDQ01  00002PRCP99
0122285880999992000071921004+55570+071360FM-12+012999999V0203301N002012200019N0500001N1+01151+01071101821ADDGA1001+999999999GF100991001001999999001001MD1210061+9999REMSYN054AAXX  19211 28588 42984 03302 10115 20107 40182 52006;
0150285880999992000072000004+55570+071360FM-12+012999999V0203201N002012200019N0090001N1+01081+01021101921ADDAY101061AY201061GA1001+999999999GF100991001001999999001001MD1210101+9999MW1101REMSYN060AAXX  20001 28588 41959 03202 10108 20102 40192 52010 71000;
0165285880999992000072006004+55570+071360FM-12+012999999V0203401N004012200019N0400001N1+02091+00841101991ADDAA199000091GF102991021021008001001001KA1999N+01051MD1210041+9999REMSYN070AAXX  20061 28588 32582 23404 10209 20084 40199 52004 82200 333 20105;EQDQ01  00002PRCP99
0112285880999992000072012004+55570+071360FM-12+012999999V0200201N005012200019N0400001N1+02251+00701102011ADDGF102991021021008001001001MD1210021+9999REMSYN060AAXX  20121 28588 42582 20205 10225 20070 40201 52002 82200;
0175285880999992000072018004+55570+071360FM-12+012999999V0200201N001012200019N0500001N1+01481+00951102361ADDAA199000091GA1001+999999999GF100991001001999999001001KA1999M+02301MD1210251+9999REMSYN064AAXX  20181 28588 32984 00201 10148 20095 40236 52025 333 10230;EQDQ01  00002PRCP99
0122285880999992000072021004+55570+071360FM-12+012999999V0200101N001012200019N0500001N1+01101+00941102391ADDGA1001+999999999GF100991001001999999001001MD1210011+9999REMSYN054AAXX  20211 28588 42984 00101 10110 20094 40239 52001;
0112285880999992000072100004+55570+071360FM-12+012999999V0209999C000019999999N0200001N1+01101+00971102331ADDGF106991061001999999031001MD1810061+9999REMSYN060AAXX  21001 28588 42970 60000 10110 20097 40233 58006 86030;
0165285880999992000072106004+55570+071360FM-12+012999999V0203101N003012200019N0400001N1+02251+01031102141ADDAA199000091GF106991041021008001001011KA1999N+01051MD1810141+9999REMSYN070AAXX  21061 28588 32582 63103 10225 20103 40214 58014 84201 333 20105;EQDQ01  00002PRCP99
0112285880999992000072112004+55570+071360FM-12+012999999V0203601N006010075019N0400001N1+02481+00921101911ADDGF106991051021008001001011MD1710081+9999REMSYN060AAXX  21121 28588 42582 63606 10248 20092 40191 57008 85201;
0165285880999992000072118004+55570+071360FM-12+012999999V0203501N002012200019N0500001N1+01421+01071102031ADDAA199000091GF102991001001999999001021KA1999M+02491MD1210031+9999REMSYN070AAXX  21181 28588 32984 23502 10142 20107 40203 52003 80002 333 10249;EQDQ01  00002PRCP99
0112285880999992000072121004+55570+071360FM-12+012999999V0203001N001010300019N0500001N1+01271+01101101991ADDGF105991021091008001031001MD1810051+9999REMSYN060AAXX  21211 28588 42584 53001 10127 20110 40199 58005 82930;
0112285880999992000072200004+55570+071360FM-12+012999999V0203101N001010075019N0400001N1+01331+01121101901ADDGF106991051091008001031021MD1710081+9999REMSYN060AAXX  22001 28588 42582 63101 10133 20112 40190 57008 85932;
0180285880999992000072206004+55570+071360FM-12+012999999V0200201N005010075019N0400001N1+01471+01111102021ADDAA100001091AY181061AY221061GF105991051021008001001001KA1999N+01131MD1210081+9999MW1021REMSYN082AAXX  22061 28588 11582 50205 10147 20111 40202 52008 69990 70282 85200 333 20113;
0112285880999992000072212004+55570+071360FM-12+012999999V0203601N007010750019N0400001N1+01881+00781101891ADDGF107991021011008001001021MD1410001+9999REMSYN060AAXX  22121 28588 42582 73607 10188 20078 40189 54000 82102;
0165285880999992000072218004+55570+071360FM-12+012999999V0203201N003012200019N0500001N1+01121+00681101941ADDAA199000091GF103991021051008001061001KA1999M+01931MD1810031+9999REMSYN070AAXX  22181 28588 32584 33203 10112 20068 40194 58003 82560 333 10193;EQDQ01  00002PRCP99
0112285880999992000072221004+55570+071360FM-12+012999999V0202901N001012200019N0500001N1+00921+00731101841ADDGF102991021051008001001001MD1710111+9999REMSYN060AAXX  22211 28588 42584 22901 10092 20073 40184 57011 82500;
0112285880999992000072300004+55570+071360FM-12+012999999V0202601N003012200019N0400001N1+00801+00741101761ADDGF102991021051008001001001MD1710081+9999REMSYN060AAXX  23001 28588 42582 22603 10080 20074 40176 57008 82500;
0165285880999992000072306004+55570+071360FM-12+012999999V0202901N005012200019N0400001N1+01901+00671101481ADDAA199000091GF103991021021008001001011KA1999N+00781MD1710031+9999REMSYN070AAXX  23061 28588 32582 32905 10190 20067 40148 57003 82201 333 20078;EQDQ01  00002PRCP99
0140285880999992000072312004+55570+071360FM-12+012999999V0203401N005010300019N0220001N1+01751+00411101341ADDAY181061AY211061GF107991041091008001071001MD1710061+9999MW1021REMSYN066AAXX  23121 28588 41572 73405 10175 20041 40134 57006 70281 84970;
0152285880999992000072318004+55570+071360FM-12+012999999V0203201N003019999999N0150001N1+01391+01001101271ADDAA100000791GF107991071001999999051001KA1999M+01911MD1710051+9999REMSYN076AAXX  23181 28588 12965 73203 10139 20100 40127 57005 69900 87050 333 10191;
0112285880999992000072321004+55570+071360FM-12+012999999V0203001N003010300019N0140001N1+01261+01051101121ADDGF107991021091008001051001MD1710161+9999REMSYN060AAXX  23211 28588 42564 73003 10126 20105 40112 57016 82950;
0140285880999992000072400004+55570+071360FM-12+012999999V0203301N004010075019N0090001N1+01141+01061101081ADDAY181061AY221061GF107991061071008001041001MD1710051+9999MW1101REMSYN066AAXX  24001 28588 41559 73304 10114 20106 40108 57005 71082 86740;
0152285880999992000072406004+55570+071360FM-12+012999999V0203601N008010075019N0400001N1+01661+00481101031ADDAA100000791GF106991061091008001001001KA1999N+01131MD1710011+9999REMSYN076AAXX  24061 28588 12582 63608 10166 20048 40103 57001 69900 86900 333 20113;
0140285880999992000072412004+55570+071360FM-12+012999999V0203501N006010075019N0400001N1+01711+00651101031ADDAY181061AY221061GF106991051091008001001011MD1310011+9999MW1021REMSYN066AAXX  24121 28588 41582 63506 10171 20065 40103 53001 70282 85901;
0152285880999992000072418004+55570+071360FM-12+012999999V0203501N003019999999N0500001N1+01281+00841101121ADDAA100000591GF105991051001008001031001KA1999M+01791MD1210031+9999REMSYN076AAXX  24181 28588 12584 53503 10128 20084 40112 52003 69940 85030 333 10179;
0122285880999992000072421004+55570+071360FM-12+012999999V0203101N003012200019N0500001N1+01081+00941101121ADDGA1001+999999999GF100991001001999999001001MD1810011+9999REMSYN054AAXX  24211 28588 42984 03103 10108 20094 40112 58001;
0122285880999992000072500004+55570+071360FM-12+012999999V0203101N003012200019N0400001N1+00931+00821101131ADDGA1001+999999999GF100991001001999999001001MD1410001+9999REMSYN054AAXX  25001 28588 42982 03103 10093 20082 40113 54000;
0165285880999992000072506004+55570+071360FM-12+012999999V0203401N005010750019N0400001N1+02031+00671101071ADDAA199000091GF107991031021008001001081KA1999N+00901MD1810071+9999REMSYN070AAXX  25061 28588 32582 73405 10203 20067 40107 58007 83208 333 20090;EQDQ01  00002PRCP99
0112285880999992000072512004+55570+071360FM-12+012999999V0203301N005010075019N0400001N1+02231+00621100951ADDGF106991061021008001001001MD1710031+9999REMSYN060AAXX  25121 28588 42582 63305 10223 20062 40095 57003 86200;
0165285880999992000072518004+55570+071360FM-12+012999999V0209999C000012200019N0500001N1+01401+00761101001ADDAA199000091GF102991021091008001001001KA1999M+02331MD1310021+9999REMSYN070AAXX  25181 28588 32584 20000 10140 20076 40100 53002 82900 333 10233;EQDQ01  00002PRCP99
0112285880999992000072521004+55570+071360FM-12+012999999V0202201N002019999999N0500001N1+01201+00921101011ADDGF106991061001999999031001MD1410001+9999REMSYN060AAXX  25211 28588 42984 62202 10120 20092 40101 54000 86030;
0140285880999992000072600004+55570+071360FM-12+012999999V0209999C000012200019N0090001N1+01041+00771101061ADDAY111061AY211061GF103991031001999999031001MD1310041+9999MW1101REMSYN066AAXX  26001 28588 41959 30000 10104 20077 40106 53004 71011 83030;
0165285880999992000072606004+55570+071360FM-12+012999999V0201501N002012200019N0400001N1+02451+00951101121ADDAA199000091GF101991011011008001001001KA1999N+01001MD1210081+9999REMSYN070AAXX  26061 28588 32582 11502 10245 20095 40112 52008 81100 333 20100;EQDQ01  00002PRCP99
0112285880999992000072612004+55570+071360FM-12+012999999V0202301N002012200019N0270001N1+02731+00811101101ADDGF102991011011008001061001MD1810041+9999REMSYN060AAXX  26121 28588 42577 22302 10273 20081 40110 58004 81160;
0203285880999992000072618004+55570+071360FM-12+012999999V0201201N001012200019N0060001N1+01701+01231101331ADDAA199000091AY101061AY201061GA1001+999999999GF100991001001999999001001KA1999M+02731MD1210141+9999MW1041REMSYN070AAXX  26181 28588 31956 01201 10170 20123 40133 52014 70400 333 10273;EQDQ01  00002PRCP99
0150285880999992000072621004+55570+071360FM-12+012999999V0201801N002012200019N0060001N1+01621+01181101281ADDAY101031AY201031GA1001+999999999GF100991001001999999001001MD1810051+9999MW1041REMSYN060AAXX  26211 28588 41956 01802 10162 20118 40128 58005 70400;
0140285880999992000072700004+55570+071360FM-12+012999999V0202201N002019999999N0060001N1+01401+01101101261ADDAY111061AY211061GF106991001001999999001041MD1710031+9999MW1041REMSYN066AAXX  27001 28588 41956 62202 10140 20110 40126 57003 70411 80004;
0165285880999992000072706004+55570+071360FM-12+012999999V0202701N006012200019N0200001N1+02771+01441101241ADDAA199000091GF102991001001999999001041KA1999N+01481MD1810011+9999REMSYN070AAXX  27061 28588 32970 22706 10277 20144 40124 58001 80004 333 20148;EQDQ01  00002PRCP99
0112285880999992000072712004+55570+071360FM-12+012999999V0202701N004012200019N0400001N1+02931+01471101131ADDGF105991021021008001001011MD1710021+9999REMSYN060AAXX  27121 28588 42582 52704 10293 20147 40113 57002 82201;
0165285880999992000072718004+55570+071360FM-12+012999999V0203101N001019999999N0500001N1+02131+01521101231ADDAA199000091GF105991011001999999061021KA1999M+03101MD1310091+9999REMSYN070AAXX  27181 28588 32984 53101 10213 20152 40123 53009 81062 333 10310;EQDQ01  00002PRCP99
0112285880999992000072721004+55570+071360FM-12+012999999V0209999C000019999999N0500001N1+01801+01461101371ADDGF105991011001999999061021MD1210121+9999REMSYN060AAXX  27211 28588 42984 50000 10180 20146 40137 52012 81062;
0140285880999992000072800004+55570+071360FM-12+012999999V0201201N003010300019N0290001N1+01941+01601101251ADDAY181061AY221061GF107991021091008001061001MD1310021+9999MW1021REMSYN066AAXX  28001 28588 41579 71203 10194 20160 40125 53002 70282 82960;
0152285880999992000072806004+55570+071360FM-12+012999999V0201501N002010075019N0400001N1+02761+01581101241ADDAA100000791GF106991061091008001001001KA1999N+01791MD1310051+9999REMSYN076AAXX  28061 28588 12582 61502 10276 20158 40124 53005 69900 86900 333 20179;
0112285880999992000072812004+55570+071360FM-12+012999999V0200301N004012200019N0290001N1+03101+01691101141ADDGF103991001001999999001021MD1410001+9999REMSYN060AAXX  28121 28588 42979 30304 10310 20169 40114 54000 80002;
0165285880999992000072818004+55570+071360FM-12+012999999V0203401N001012200019N0500001N1+02171+01821101421ADDAA199000091GF102991021001999999051001KA1999M+03141MD1210141+9999REMSYN070AAXX  28181 28588 32984 23401 10217 20182 40142 52014 82050 333 10314;EQDQ01  00002PRCP99
0122285880999992000072821004+55570+071360FM-12+012999999V0203601N002012200019N0230001N1+01901+01771101481ADDGA1001+999999999GF100991001001999999001001MD1210041+9999REMSYN054AAXX  28211 28588 42973 03602 10190 20177 40148 52004;
0140285880999992000072900004+55570+071360FM-12+012999999V0203601N002012200019N0080001N1+01751+01671101481ADDAY101061AY201061GF102991001001999999001041MD1410001+9999MW1101REMSYN066AAXX  29001 28588 41958 23602 10175 20167 40148 54000 71000 80004;
0165285880999992000072906004+55570+071360FM-12+012999999V0200101N004012200019N0280001N1+02841+01681101481ADDAA199000091GF102991021021008001001001KA1999N+01711MD1210041+9999REMSYN070AAXX  29061 28588 32578 20104 10284 20168 40148 52004 82200 333 20171;EQDQ01  00002PRCP99
0112285880999992000072912004+55570+071360FM-12+012999999V0200301N003012200019N0400001N1+03091+01391101391ADDGF102991021021008001001001MD1710041+9999REMSYN060AAXX  29121 28588 42582 20303 10309 20139 40139 57004 82200;
0165285880999992000072918004+55570+071360FM-12+012999999V0200801N001012200019N0500001N1+02131+01671101421ADDAA199000091GF102991001001999999001011KA1999M+03091MD1310021+9999REMSYN070AAXX  29181 28588 32984 20801 10213 20167 40142 53002 80001 333 10309;EQDQ01  00002PRCP99
0150285880999992000072921004+55570+071360FM-12+012999999V0200901N002012200019N0070001N1+01951+01741101441ADDAY101031AY201031GA1001+999999999GF100991001001999999001001MD1410001+9999MW1101REMSYN060AAXX  29211 28588 41957 00902 10195 20174 40144 54000 71000;
0193285880999992000073006004+55570+071360FM-12+012999999V0200501N006010300019N0400001N1+02341+01781101421ADDAA199000091AY191061AY211061GF107991031091008001061001KA1999N+01761MD1810111+9999MW1021REMSYN076AAXX  30061 28588 31582 70506 10234 20178 40142 58011 70291 83960 333 20176;EQDQ01  00002PRCP99
0112285880999992000073012004+55570+071360FM-12+012999999V0200801N006019999999N0400001N1+02961+01581101121ADDGF107991001001999999001021MD1710111+9999REMSYN060AAXX  30121 28588 42982 70806 10296 20158 40112 57011 80002;
0140285880999992000080112004+55570+071360FM-12+012999999V0203501N003010300019N0080001N1+02141+01971100731ADDAY191061AY281061GF105991041091008001051001MD1710051+9999MW1801REMSYN066AAXX  01121 28588 41558 53503 10214 20197 40073 57005 78098 84950;
0180285880999992000080118004+55570+071360FM-12+012999999V0202201N002012200019N0280001N1+02001+01901100611ADDAA100007191AY181061AY211061GF102991021091008001001001KA1999M+02271MD1710081+9999MW1011REMSYN082AAXX  01181 28588 11578 22202 10200 20190 40061 57008 60070 70181 82900 333 10227;
0112285880999992000080121004+55570+071360FM-12+012999999V0203101N007010075019N0500001N1+01761+01411100531ADDGF106991061091008001001001MD1710081+9999REMSYN060AAXX  01211 28588 42584 63107 10176 20141 40053 57008 86900;
0140285880999992000080200004+55570+071360FM-12+012999999V0202801N004010300019N0300001N1+01581+01441100501ADDAY181061AY211061GF106991031091008001031001MD1710041+9999MW1021REMSYN066AAXX  02001 28588 41580 62804 10158 20144 40050 57004 70281 83930;
0152285880999992000080206004+55570+071360FM-12+012999999V0203401N006010075019N0300001N1+02201+01801100551ADDAA100004191GF106991061021008001001001KA1999N+01541MD1210071+9999REMSYN076AAXX  02061 28588 12580 63406 10220 20180 40055 52007 60040 86200 333 20154;
0150285880999992000080212004+55570+071360FM-12+012999999V0203401N003010300019N0400001N1+02281+01661100651ADDAY181061AY221061GF106991031091008001061021MD1310111+9999MW1021REMSYN076AAXX  02121 28588 41582 63403 10228 20166 40065 53011 70282 83962 333 91113;
0152285880999992000080218004+55570+071360FM-12+012999999V0202701N001012200019N0190001N1+01881+01751100771ADDAA100000591GF102991021001999999061001KA1999M+02631MD1210081+9999REMSYN076AAXX  02181 28588 12969 22701 10188 20175 40077 52008 69960 82060 333 10263;
0150285880999992000080221004+55570+071360FM-12+012999999V0202901N002012200019N0080001N1+01731+01681100761ADDAY101031AY201031GA1001+999999999GF100991001001999999001001MD1810011+9999MW1101REMSYN060AAXX  02211 28588 41958 02902 10173 20168 40076 58001 71000;
0140285880999992000080300004+55570+071360FM-12+012999999V0202701N002012200019N0060001N1+01601+01591100811ADDAY101061AY201061GF102991001001999999001011MD1310041+9999MW1101REMSYN066AAXX  03001 28588 41956 22702 10160 20159 40081 53004 71000 80001;
0165285880999992000080306004+55570+071360FM-12+012999999V0203001N004010300019N0300001N1+02441+00461100791ADDAA199000091GF107991041091008001061021KA1999N+01571MD1810011+9999REMSYN070AAXX  03061 28588 32580 73004 10244 20046 40079 58001 84962 333 20157;EQDQ01  00002PRCP99
0140285880999992000080312004+55570+071360FM-12+012999999V0203501N002010075019N0180001N1+01961+01781100861ADDAY161061AY221061GF107991061091008001071001MD1810031+9999MW1211REMSYN066AAXX  03121 28588 41568 73502 10196 20178 40086 58003 72162 86970;
0152285880999992000080318004+55570+071360FM-12+012999999V0201501N002012200019N0500001N1+01741+01621100831ADDAA100003091GF102991021091008001001001KA1999M+02461MD1310051+9999REMSYN076AAXX  03181 28588 12584 21502 10174 20162 40083 53005 60030 82900 333 10246;
0150285880999992000080321004+55570+071360FM-12+012999999V0201501N002012200019N0080001N1+01591+01541100761ADDAY101031AY201031GA1001+999999999GF100991001001999999001001MD1810081+9999MW1101REMSYN060AAXX  03211 28588 41958 01502 10159 20154 40076 58008 71000;
0112285880999992000080400004+55570+071360FM-12+012999999V0201501N004010750019N0170001N1+01621+01531100651ADDGF107991031091008001001021MD1710111+9999REMSYN060AAXX  04001 28588 42567 71504 10162 20153 40065 57011 83902;
0186285880999992000080406004+55570+071360FM-12+012999999V0201801N007012200019N0400001N1+02541+01651100321ADDAA100001091AY191061AY281061GF106991021021008001001061KA1120N+01561MD1710191+9999MW1021REMSYN088AAXX  04061 28588 11582 61807 10254 20165 40032 57019 60010 70298 82206 333 20156 91115;
0112285880999992000080412004+55570+071360FM-12+012999999V0202801N007012200019N0400001N1+02951+01361100341ADDGF102991021021008001001011MD1210021+9999REMSYN060AAXX  04121 28588 42582 22807 10295 20136 40034 52002 82201;
0175285880999992000080418004+55570+071360FM-12+012999999V0203601N002012200019N0240001N1+01801+01671100601ADDAA199000091GA1001+999999999GF100991001001999999001001KA1999M+02951MD1810031+9999REMSYN064AAXX  04181 28588 32974 03602 10180 20167 40060 58003 333 10295;EQDQ01  00002PRCP99
0140285880999992000080421004+55570+071360FM-12+012999999V0202301N002019999999N0090001N1+01591+01511100651ADDAY111031AY211031GF105991001001999999001021MD1310041+9999MW1101REMSYN066AAXX  04211 28588 41959 52302 10159 20151 40065 53004 71011 80002;
0112285880999992000080500004+55570+071360FM-12+012999999V0201401N002010300019N0170001N1+01701+01511100571ADDGF107991021091008001061021MD1810081+9999REMSYN060AAXX  05001 28588 42567 71402 10170 20151 40057 58008 82962;
0165285880999992000080506004+55570+071360FM-12+012999999V0201301N007019999999N0400001N1+02391+01571100251ADDAA199000091GF105991031001999999031011KA1999N+01571MD1710221+9999REMSYN070AAXX  05061 28588 32982 51307 10239 20157 40025 57022 83031 333 20157;EQDQ01  00002PRCP99
0150285880999992000080512004+55570+071360FM-12+012999999V0202601N004010300019N0400001N1+02331+01891099971ADDAY191061AY281061GF105991031091008001061021MD1710041+9999MW1021REMSYN076AAXX  05121 28588 41582 52604 10233 20189 49997 57004 70298 83962 333 91114;
0152285880999992000080518004+55570+071360FM-12+012999999V0202701N007012200019N0500001N1+01801+01121100281ADDAA100003091GF102991021091008001001001KA1999M+02801MD1310321+9999REMSYN076AAXX  05181 28588 12584 22707 10180 20112 40028 53032 60030 82900 333 10280;
0122285880999992000080521004+55570+071360FM-12+012999999V0202501N004012200019N0500001N1+01461+01281100271ADDGA1001+999999999GF100991001001999999001001MD1810031+9999REMSYN054AAXX  05211 28588 42984 02504 10146 20128 40027 58003;
0112285880999992000080600004+55570+071360FM-12+012999999V0201901N003012200019N0220001N1+01271+01181100281ADDGF102991001001999999001011MD1410001+9999REMSYN060AAXX  06001 28588 42972 21903 10127 20118 40028 54000 80001;
0188285880999992000080606004+55570+071360FM-12+012999999V0202501N007010075019N0400001N1+02141+01151100171ADDAA199000091GF107991071091008001001001KA1120N+01241MD1710021+9999OA140101201REMSYN082AAXX  06061 28588 32582 72507 10214 20115 40017 57002 87900 333 20124 91012 91112;EQDQ01  00002PRCP99
0150285880999992000080612004+55570+071360FM-12+012999999V0202701N005010075019N0400001N1+02181+01271100271ADDAY181061AY221061GF107991071091008001001001MD1210041+9999MW1021REMSYN076AAXX  06121 28588 41582 72705 10218 20127 40027 52004 70282 87900 333 91112;
0162285880999992000080618004+55570+071360FM-12+012999999V0202401N003012200019N0250001N1+01491+01341100521ADDAA100000791GA1001+999999999GF100991001001999999001001KA1999M+02301MD1210071+9999REMSYN070AAXX  06181 28588 12975 02403 10149 20134 40052 52007 69900 333 10230;
0150285880999992000080621004+55570+071360FM-12+012999999V0202601N003012200019N0060001N1+01321+01261100561ADDAY101031AY201031GA1001+999999999GF100991001001999999001001MD1210031+9999MW1101REMSYN060AAXX  06211 28588 41956 02603 10132 20126 40056 52003 71000;
0140285880999992000080700004+55570+071360FM-12+012999999V0202401N003012200019N0080001N1+01211+01151100681ADDAY101061AY201061GF103991001001999999001041MD1210121+9999MW1101REMSYN066AAXX  07001 28588 41958 32403 10121 20115 40068 52012 71000 80004;
0165285880999992000080706004+55570+071360FM-12+012999999V0201901N002010075019N0400001N1+02121+00901100661ADDAA199000091GF106991051021008001001021KA1999N+01201MD1810051+9999REMSYN070AAXX  07061 28588 32582 61902 10212 20090 40066 58005 85202 333 20120;EQDQ01  00002PRCP99
0140285880999992000080712004+55570+071360FM-12+012999999V0202301N004010075019N0090001N1+01961+01271100501ADDAY181061AY221061GF108991081091008001999999MD1710051+9999MW1801REMSYN066AAXX  07121 28588 41559 82304 10196 20127 40050 57005 78082 889//;
0180285880999992000080718004+55570+071360FM-12+012999999V0203101N003010750019N0500001N1+01461+01351100371ADDAA100000791AY181061AY221061GF106991031091008001001021KA1999M+02341MD1410001+9999MW1021REMSYN082AAXX  07181 28588 11584 63103 10146 20135 40037 54000 69900 70282 83902 333 10234;
0112285880999992000080721004+55570+071360FM-12+012999999V0202601N002012200019N0500001N1+01471+01341100371ADDGF103991021091008001001021MD1410001+9999REMSYN060AAXX  07211 28588 42584 32602 10147 20134 40037 54000 82902;
0112285880999992000080800004+55570+071360FM-12+012999999V0203101N004010075019N0400001N1+01401+01221100541ADDGF106991061091008001001001MD1310161+9999REMSYN060AAXX  08001 28588 42582 63104 10140 20122 40054 53016 86900;
0165285880999992000080806004+55570+071360FM-12+012999999V0202701N005010075019N0400001N1+01901+00811100751ADDAA199000091GF105991051021008001001001KA1999N+01391MD1210051+9999REMSYN070AAXX  08061 28588 32582 52705 10190 20081 40075 52005 85200 333 20139;EQDQ01  00002PRCP99
0112285880999992000080812004+55570+071360FM-12+012999999V0202601N004010300019N0400001N1+02191+00641100791ADDGF106991031091008001031001MD1210031+9999REMSYN060AAXX  08121 28588 42582 62604 10219 20064 40079 52003 83930;
0165285880999992000080818004+55570+071360FM-12+012999999V0201701N002010300019N0500001N1+01441+01091100841ADDAA199000091GF106991031091008001061001KA1999M+02201MD1710061+9999REMSYN070AAXX  08181 28588 32584 61702 10144 20109 40084 57006 83960 333 10220;EQDQ01  00002PRCP99
0140285880999992000080821004+55570+071360FM-12+012999999V0200901N004010075019N0090001N1+01321+01251100871ADDAY181031AY221031GF108991081091008001999999MD1310021+9999MW1801REMSYN066AAXX  08211 28588 41559 80904 10132 20125 40087 53002 78082 889//;
0140285880999992000080900004+55570+071360FM-12+012999999V0201801N002010075019N0300001N1+01291+01251100861ADDAY181061AY221061GF107991061091008001061001MD1810011+9999MW1251REMSYN066AAXX  09001 28588 41580 71802 10129 20125 40086 58001 72582 86960;
0180285880999992000080906004+55570+071360FM-12+012999999V0202701N002010300019N0300001N1+01631+01211100851ADDAA100006191AY181061AY221061GF105991021021008001061001KA1999N+01151MD1810021+9999MW1021REMSYN082AAXX  09061 28588 11580 52702 10163 20121 40085 58002 60060 70282 82260 333 20115;
0112285880999992000080912004+55570+071360FM-12+012999999V0203101N002010075019N0400001N1+01811+00891100811ADDGF106991051091008001001011MD1310041+9999REMSYN060AAXX  09121 28588 42582 63102 10181 20089 40081 53004 85901;
0152285880999992000080918004+55570+071360FM-12+012999999V0203101N002012200019N0280001N1+01211+01151101061ADDAA100001091GF102991021001999999031001KA1999M+01961MD1210021+9999REMSYN076AAXX  09181 28588 12978 23102 10121 20115 40106 52002 60010 82030 333 10196;
0140285880999992000080921004+55570+071360FM-12+012999999V0203201N003012200019N0090001N1+01141+01121101081ADDAY101031AY201031GF102991021001999999031001MD1210011+9999MW1101REMSYN066AAXX  09211 28588 41959 23203 10114 20112 40108 52001 71000 82030;
0193285880999992000081006004+55570+071360FM-12+012999999V0203501N003010075019N0400001N1+01831+01181101251ADDAA199000091AY141061AY211061GF105991051021008001001001KA1999N+01061MD1210041+9999MW1021REMSYN076AAXX  10061 28588 31582 53503 10183 20118 40125 52004 70241 85200 333 20106;EQDQ01  00002PRCP99
0203285880999992000081018004+55570+071360FM-12+012999999V0202701N001012200019N0090001N1+01351+01241101441ADDAA199000091AY111061AY211061GA1001+999999999GF100991001001999999001001KA1999M+02251MD1210041+9999MW1101REMSYN070AAXX  10181 28588 31959 02701 10135 20124 40144 52004 71011 333 10225;EQDQ01  00002PRCP99
0150285880999992000081021004+55570+071360FM-12+012999999V0202501N001012200019N0070001N1+01171+01101101451ADDAY101031AY201031GA1001+999999999GF100991001001999999001001MD1210011+9999MW1101REMSYN060AAXX  10211 28588 41957 02501 10117 20110 40145 52001 71000;
0165285880999992000081106004+55570+071360FM-12+012999999V0202501N003010075019N0400001N1+02281+01071101481ADDAA199000091GF106991061021008001001001KA1999N+01001MD1210021+9999REMSYN070AAXX  11061 28588 32582 62503 10228 20107 40148 52002 86200 333 20100;EQDQ01  00002PRCP99
0112285880999992000081112004+55570+071360FM-12+012999999V0202601N003010075019N0400001N1+02541+01151101351ADDGF106991061091008001001001MD1710071+9999REMSYN060AAXX  11121 28588 42582 62603 10254 20115 40135 57007 86900;
0165285880999992000081118004+55570+071360FM-12+012999999V0201601N004019999999N0500001N1+01981+01111101201ADDAA199000091GF106991061001999999031001KA1999M+02611MD1710081+9999REMSYN070AAXX  11181 28588 32984 61604 10198 20111 40120 57008 86030 333 10261;EQDQ01  00002PRCP99
0122285880999992000081121004+55570+071360FM-12+012999999V0201701N004012200019N0500001N1+01781+00941101091ADDGA1001+999999999GF100991001001999999001001MD1710121+9999REMSYN054AAXX  11211 28588 42984 01704 10178 20094 40109 57012;
0112285880999992000081200004+55570+071360FM-12+012999999V0201601N003010300019N0400001N1+01731+01071101021ADDGF107991021091008001071001MD1710081+9999REMSYN060AAXX  12001 28588 42582 71603 10173 20107 40102 57008 82970;
0165285880999992000081206004+55570+071360FM-12+012999999V0202601N003010300019N0400001N1+02271+01271100861ADDAA199000091GF107991031091008001061001KA1999N+01701MD1710031+9999REMSYN070AAXX  12061 28588 32582 72603 10227 20127 40086 57003 83960 333 20170;EQDQ01  00002PRCP99
0112285880999992000081212004+55570+071360FM-12+012999999V0203001N005010300019N0400001N1+02321+01461100971ADDGF105991021091008001051001MD1210101+9999REMSYN060AAXX  12121 28588 42582 53005 10232 20146 40097 52010 82950;
0175285880999992000081218004+55570+071360FM-12+012999999V0203201N002012200019N0500001N1+01701+01511101051ADDAA199000091GA1001+999999999GF100991001001999999001001KA1999M+02561MD1210021+9999REMSYN064AAXX  12181 28588 32984 03202 10170 20151 40105 52002 333 10256;EQDQ01  00002PRCP99
0112285880999992000081221004+55570+071360FM-12+012999999V0203301N002012200019N0500001N1+01291+01221101071ADDGF102991001001999999001011MD1410001+9999REMSYN060AAXX  12211 28588 42984 23302 10129 20122 40107 54000 80001;
0140285880999992000081300004+55570+071360FM-12+012999999V0203301N001012200019N0090001N1+01221+01191101111ADDAY101061AY201061GF103991001001999999001011MD1310041+9999MW1101REMSYN066AAXX  13001 28588 41959 33301 10122 20119 40111 53004 71000 80001;
0165285880999992000081306004+55570+071360FM-12+012999999V0201901N002010075019N0400001N1+02091+01181100931ADDAA199000091GF106991061091008001001001KA1999N+01201MD1710051+9999REMSYN070AAXX  13061 28588 32582 61902 10209 20118 40093 57005 86900 333 20120;EQDQ01  00002PRCP99
0112285880999992000081312004+55570+071360FM-12+012999999V0203001N005010075019N0400001N1+02251+00891100871ADDGF106991051091008001001021MD1710021+9999REMSYN060AAXX  13121 28588 42582 63005 10225 20089 40087 57002 85902;
0165285880999992000081318004+55570+071360FM-12+012999999V0202701N003012200019N0500001N1+01381+01041101051ADDAA199000091GF102991021091008001001001KA1999M+02261MD1210051+9999REMSYN070AAXX  13181 28588 32584 22703 10138 20104 40105 52005 82900 333 10226;EQDQ01  00002PRCP99
0112285880999992000081321004+55570+071360FM-12+012999999V0202701N003012200019N0500001N1+01291+01021101161ADDGF102991021001999999031001MD1210101+9999REMSYN060AAXX  13211 28588 42984 22703 10129 20102 40116 52010 82030;
0122285880999992000081400004+55570+071360FM-12+012999999V0202401N003012200019N0220001N1+01021+00921101251ADDGA1001+999999999GF100991001001999999001001MD1210081+9999REMSYN054AAXX  14001 28588 42972 02403 10102 20092 40125 52008;
0165285880999992000081406004+55570+071360FM-12+012999999V0202801N004010075019N0400001N1+01781+00881101281ADDAA199000091GF106991061021008001001001KA1999N+01001MD1210031+9999REMSYN070AAXX  14061 28588 32582 62804 10178 20088 40128 52003 86200 333 20100;EQDQ01  00002PRCP99
0112285880999992000081412004+55570+071360FM-12+012999999V0202701N005010075019N0400001N1+02131+00461101231ADDGF105991051021008001001001MD1810061+9999REMSYN060AAXX  14121 28588 42582 52705 10213 20046 40123 58006 85200;
0165285880999992000081418004+55570+071360FM-12+012999999V0202401N002012200019N0500001N1+01271+00591101271ADDAA199000091GF102991021001999999061001KA1999M+02141MD1810071+9999REMSYN070AAXX  14181 28588 32984 22402 10127 20059 40127 58007 82060 333 10214;EQDQ01  00002PRCP99
0122285880999992000081421004+55570+071360FM-12+012999999V0202201N002012200019N0500001N1+01131+00761101291ADDGA1001+999999999GF100991001001999999001001MD1310011+9999REMSYN054AAXX  14211 28588 42984 02202 10113 20076 40129 53001;
0165285880999992000081506004+55570+071360FM-12+012999999V0202601N004010300019N0400001N1+01971+00861101251ADDAA199000091GF107991021021008001061011KA1999N+00971MD1810021+9999REMSYN070AAXX  15061 28588 32582 72604 10197 20086 40125 58002 82261 333 20097;EQDQ01  00002PRCP99
0140285880999992000081512004+55570+071360FM-12+012999999V0200201N001010075019N0080001N1+01561+01231101291ADDAY161061AY221061GF108991081001008001021999MD1310051+9999MW1611REMSYN066AAXX  15121 28588 41558 80201 10156 20123 40129 53005 76162 8802/;
0180285880999992000081518004+55570+071360FM-12+012999999V0201601N003019999999N0500001N1+01371+01221100961ADDAA100002091AY161061AY221061GF107991071001999999071001KA1999M+01981MD1710121+9999MW1021REMSYN082AAXX  15181 28588 11984 71603 10137 20122 40096 57012 60020 70262 87070 333 10198;
0139285880999992000081521004+55570+071360FM-12+012999999V0201601N001010075019N0200001N1+01341+01231100861ADDAY161031AY221031GF107991051091008001071001MD1710101+9999MW1211REMSYN065AAXX  15211 28588 41570 71601 10134 20123 4008657010 72162 85970;
0140285880999992000081600004+55570+071360FM-12+012999999V0201601N003010300019N0350001N1+01411+01141100721ADDAY161061AY221061GF107991031091008001071001MD1710131+9999MW1021REMSYN066AAXX  16001 28588 41581 71603 10141 20114 40072 57013 70262 83970;
0152285880999992000081606004+55570+071360FM-12+012999999V0201601N003019999999N0400001N1+02131+01031100611ADDAA100000591GF106991061001999999051001KA1999N+01331MD1710041+9999REMSYN076AAXX  16061 28588 12982 61603 10213 20103 40061 57004 69950 86050 333 20133;
0112285880999992000081612004+55570+071360FM-12+012999999V0200201N001010300019N0400001N1+02661+00811100341ADDGF106991021091008001051001MD1710091+9999REMSYN060AAXX  16121 28588 42582 60201 10266 20081 40034 57009 82950;
0122285880999992000081621004+55570+071360FM-12+012999999V0201401N001012200019N0500001N1+01601+01411100281ADDGA1001+999999999GF100991001001999999001001MD1710021+9999REMSYN054AAXX  16211 28588 42984 01401 10160 20141 40028 57002;
0112285880999992000081700004+55570+071360FM-12+012999999V0200901N001012200019N0400001N1+01081+00681100241ADDGF102991001001999999001011MD1710071+9999REMSYN060AAXX  17001 28588 42982 20901 10108 20068 40024 57007 80001;
0165285880999992000081706004+55570+071360FM-12+012999999V0201401N001019999999N0400001N1+02281+00881099151ADDAA199000091GF105991031001999999031021KA1999N+01071MD1710101+9999REMSYN070AAXX  17061 28588 32982 51401 10228 20088 49915 57010 83032 333 20107;EQDQ01  00002PRCP99
0159285880999992000081712004+55570+071360FM-12+012999999V0203601N001010300019N0300001N1+00751+99999100102ADDAY161061AY221061GF106991041071008001061011MD1810021+9999MW1021REMSYN066AAXX  17121 28588 41580 63601 10075 20159 40010 58002 70262 84761;EQDQ01+100103APOSLP
0112285880999992000081800004+55570+071360FM-12+012999999V0201801N001019999999N0140001N1+01441+01351099971ADDGF108991081001999999021999MD1710081+9999REMSYN060AAXX  18001 28588 42964 81801 10144 20135 49997 57008 8802/;
0165285880999992000081806004+55570+071360FM-12+012999999V0202501N012010075019N0400001N1+01661+00621100091ADDAA199000091GF106991061021008001001001KA1999N+01401MD1310161+9999REMSYN070AAXX  18061 28588 32582 62512 10166 20062 40009 53016 86200 333 20140;EQDQ01  00002PRCP99
0122285880999992000081812004+55570+071360FM-12+012999999V0202401N008010075019N0400001N1+01401+00621100261ADDGF107991071091008001001001MD1410001+9999REMSYN070AAXX  18121 28588 42582 72408 10140 20062 40026 54000 87900 333 91113;
0186285880999992000081818004+55570+071360FM-12+012999999V0202501N006010075019N0500001N1+01251+00761100241ADDAA100000591AY161061AY221061GF107991071051008001001001KA1120M+01791MD1310041+9999MW1021REMSYN088AAXX  18181 28588 11584 72506 10125 20076 40024 53004 69940 70262 87500 333 10179 91113;
0140285880999992000081821004+55570+071360FM-12+012999999V0202501N007010075019N0500001N1+01231+00951100251ADDAY181031AY221031GF107991061091008001071001MD1210011+9999MW1021REMSYN066AAXX  18211 28588 41584 72507 10123 20095 40025 52001 70282 86970;
0150285880999992000081900004+55570+071360FM-12+012999999V0202501N004010075019N0300001N1+01251+01061100351ADDAY181061AY221061GF108991081091008001999999MD1210101+9999MW1021REMSYN076AAXX  19001 28588 41580 82504 10125 20106 40035 52010 70282 889// 333 91112;
0180285880999992000081906004+55570+071360FM-12+012999999V0202701N005010075019N0400001N1+01491+01021100671ADDAA100002091AY161061AY221061GF106991061091008001001001KA1999N+01201MD1210041+9999MW1021REMSYN082AAXX  19061 28588 11582 62705 10149 20102 40067 52004 60020 70262 86900 333 20120;
0112285880999992000081912004+55570+071360FM-12+012999999V0202601N006010300019N0400001N1+01901+00711100691ADDGF107991041091008001031021MD1810011+9999REMSYN060AAXX  19121 28588 42582 72606 10190 20071 40069 58001 84932;
0162285880999992000081918004+55570+071360FM-12+012999999V0202401N003012200019N0500001N1+01131+00711100781ADDAA100000791GA1001+999999999GF100991001001999999001001KA1999M+01921MD1810041+9999REMSYN070AAXX  19181 28588 12984 02403 10113 20071 40078 58004 69900 333 10192;
0122285880999992000081921004+55570+071360FM-12+012999999V0202301N003012200019N0500001N1+00901+00711100751ADDGA1001+999999999GF100991001001999999001001MD1710041+9999REMSYN054AAXX  19211 28588 42984 02303 10090 20071 40075 57004;
0112285880999992000082000004+55570+071360FM-12+012999999V0202101N003019999999N0290001N1+00801+00621100781ADDGF106991001001999999001011MD1310031+9999REMSYN060AAXX  20001 28588 42979 62103 10080 20062 40078 53003 80001;
0165285880999992000082006004+55570+071360FM-12+012999999V0202301N004012200019N0400001N1+01881+00611100601ADDAA199000091GF104991041021008001001001KA1999N+00791MD1710101+9999REMSYN070AAXX  20061 28588 32582 42304 10188 20061 40060 57010 84200 333 20079;EQDQ01  00002PRCP99
0112285880999992000082012004+55570+071360FM-12+012999999V0201501N002010300019N0400001N1+02081+00531100361ADDGF107991021091008001031011MD1710111+9999REMSYN060AAXX  20121 28588 42582 71502 10208 20053 40036 57011 82931;
0165285880999992000082018004+55570+071360FM-12+012999999V0203501N002019999999N0500001N1+01141+01091100321ADDAA199000091GF107991071001999999061001KA1999M+02091MD1810121+9999REMSYN070AAXX  20181 28588 32984 73502 10114 20109 40032 58012 87060 333 10209;EQDQ01  00002PRCP99
0131285880999992000082021004+55570+071360FM-12+012999999V0201801N002019999999N0400001N1+01251+00971100211ADDGF107991999001999999051001MD1710101+9999REMSYN060AAXX  20211 28588 42982 71802 10125 20097 40021 57010 86050;EQDQ01+000062SCOTLC
0165285880999992000082106004+55570+071360FM-12+012999999V0203101N003010075019N0400001N1+01891+00881100031ADDAA199000091GF106991051031008001001021KA1999N+01131MD1710031+9999REMSYN070AAXX  21061 28588 32582 63103 10189 20088 40003 57003 85302 333 20113;EQDQ01  00002PRCP99
0140285880999992000082112004+55570+071360FM-12+012999999V0202401N001010075019N0070001N1+01471+01181100081ADDAY181061AY261061GF107991061071008001071001MD1210011+9999MW1611REMSYN066AAXX  21121 28588 41557 72401 10147 20118 40008 52001 76186 86770;
0193285880999992000082118004+55570+071360FM-12+012999999V0202401N003012200019N0250001N1+01191+01041100041ADDAA100000891AY101061AY211061GF103991031001999999031001KA1999M+01991MD1810091+9999REMSYN082AAXX  21181 28588 11975 32403 10119 20104 40004 58009 69970 78601 83030 333 10199;EQDQ01+000862PRSWM1
0140285880999992000082121004+55570+071360FM-12+012999999V0202201N002012200019N0090001N1+01001+00981100011ADDAY101031AY201031GF102991021001999999031001MD1710041+9999MW1101REMSYN066AAXX  21211 28588 41959 22202 10100 20098 40001 57004 71000 82030;
0140285880999992000082200004+55570+071360FM-12+012999999V0202301N003012200019N0060001N1+00861+00861100001ADDAY101061AY201061GF102991021001999999031001MD1710021+9999MW1101REMSYN066AAXX  22001 28588 41956 22303 10086 20086 40000 57002 71000 82030;
0165285880999992000082206004+55570+071360FM-12+012999999V0202701N004010075019N0350001N1+01501+01091100001ADDAA199000091GF107991071091008001001001KA1999N+00831MD1210011+9999REMSYN070AAXX  22061 28588 32581 72704 10150 20109 40000 52001 87900 333 20083;EQDQ01  00002PRCP99
0140285880999992000082212004+55570+071360FM-12+012999999V0202801N003010075019N0400001N1+01381+01101100081ADDAY181061AY221061GF107991071091008001001001MD1310101+9999MW1251REMSYN066AAXX  22121 28588 41582 72803 10138 20110 40008 53010 72582 87900;
0180285880999992000082218004+55570+071360FM-12+012999999V0202601N003010300019N0070001N1+01121+01001100181ADDAA100000391AY121061AY221061GF107991021011008001071001KA1999M+01691MD1210021+9999MW1101REMSYN082AAXX  22181 28588 11557 72603 10112 20100 40018 52002 69930 71022 82170 333 10169;
0103285880999992000082221004+55570+071360FM-12+012999999V0202601N002019999999N0090001N1+01071+00991100181ADDGF108991999999999999999999REMSYN065AAXX  22211 28588 41959 82602 10107 20099 40018 5400 71022 8802/;
0159285880999992000082300004+55570+071360FM-12+012999999V0202301N003010075019N0090001N1+01081+01041100251ADDAY161061AY221061GF108991999071008001021999MD1310071+9999MW1611REMSYN066AAXX  23001 28588 41559 82303 10108 20104 40025 53007 76162 8872/;EQDQ01+000082SCOTLC
0199285880999992000082306004+55570+071360FM-12+012999999V0202901N005010075019N0400001N1+01501+00801100551ADDAA100001091AY161061AY221061GF108991999091008001001001KA1999N+01031MD1210121+9999MW1021REMSYN082AAXX  23061 28588 11582 82905 10150 20080 40055 52012 60010 70262 87900 333 20103;EQDQ01+000072SCOTLC
0140285880999992000082312004+55570+071360FM-12+012999999V0202601N004010075019N0400001N1+01601+00941100761ADDAY181061AY221061GF106991051091008001001011MD1210101+9999MW1021REMSYN066AAXX  23121 28588 41582 62604 10160 20094 40076 52010 70282 85901;
0180285880999992000082318004+55570+071360FM-12+012999999V0202701N002012200019N0090001N1+01131+01051101001ADDAA100001091AY181061AY211061GF102991001001999999001021KA1999M+01721MD1210021+9999MW1011REMSYN082AAXX  23181 28588 11959 22702 10113 20105 40100 52002 69990 70181 80002 333 10172;
0140285880999992000082321004+55570+071360FM-12+012999999V0202701N002019999999N0090001N1+01081+01061101061ADDAY111031AY211031GF106991061001999999051001MD1210061+9999MW1101REMSYN066AAXX  23211 28588 41959 62702 10108 20106 40106 52006 71011 86050;
0112285880999992000082400004+55570+071360FM-12+012999999V0202501N002010075019N0290001N1+01061+01041101161ADDGF107991071051008001001001MD1210101+9999REMSYN060AAXX  24001 28588 42579 72502 10106 20104 40116 52010 87500;
0165285880999992000082406004+55570+071360FM-12+012999999V0203301N002010075019N0400001N1+01661+00741101311ADDAA199000091GF106991061091008001001001KA1999N+01031MD1210101+9999REMSYN070AAXX  24061 28588 32582 63302 10166 20074 40131 52010 86900 333 20103;EQDQ01  00002PRCP99
0112285880999992000082412004+55570+071360FM-12+012999999V0201701N003010075019N0400001N1+01901+00381101081ADDGF106991051091008001001041MD1710061+9999REMSYN060AAXX  24121 28588 42582 61703 10190 20038 40108 57006 85904;
0175285880999992000082418004+55570+071360FM-12+012999999V0201201N003012200019N0500001N1+01421+00981101061ADDAA199000091GA1001+999999999GF100991001001999999001001KA1999M+01931MD1710031+9999REMSYN064AAXX  24181 28588 32984 01203 10142 20098 40106 57003 333 10193;EQDQ01  00002PRCP99
0112285880999992000082500004+55570+071360FM-12+012999999V0201101N005010300019N0400001N1+01351+00811100941ADDGF105991041051008001051001MD1410001+9999REMSYN060AAXX  25001 28588 42582 51105 10135 20081 40094 54000 84550;
0165285880999992000082506004+55570+071360FM-12+012999999V0201601N005019999999N0400001N1+02191+00941100601ADDAA199000091GF106991041001999999031021KA1999N+01331MD1710071+9999REMSYN070AAXX  25061 28588 32982 61605 10219 20094 40060 57007 84032 333 20133;EQDQ01  00002PRCP99
0112285880999992000082512004+55570+071360FM-12+012999999V0202301N004012200019N0400001N1+02741+01131100471ADDGF102991001001999999001011MD1710061+9999REMSYN060AAXX  25121 28588 42982 22304 10274 20113 40047 57006 80001;
0140285880999992000082521004+55570+071360FM-12+012999999V0202301N005012200019N0500001N1+02031+01331100271ADDAY181031AY211031GF102991021091008001001001MD1310011+9999MW1011REMSYN066AAXX  25211 28588 41584 22305 10203 20133 40027 53001 70181 82900;
0140285880999992000082600004+55570+071360FM-12+012999999V0202601N003010300019N0280001N1+01681+01341100521ADDAY181061AY211061GF107991041091008001031001MD1210231+9999MW1031REMSYN066AAXX  26001 28588 41578 72603 10168 20134 40052 52023 70381 84930;
0152285880999992000082606004+55570+071360FM-12+012999999V0202501N006010075019N0400001N1+01741+01031100911ADDAA100007991GF107991061021008001001021KA1999N+01371MD1210041+9999REMSYN076AAXX  26061 28588 12582 72506 10174 20103 40091 52004 60080 86202 333 20137;
0112285880999992000082612004+55570+071360FM-12+012999999V0202901N005010075019N0400001N1+01881+00671101111ADDGF106991061021008001001001MD1210141+9999REMSYN060AAXX  26121 28588 42582 62905 10188 20067 40111 52014 86200;
0175285880999992000082618004+55570+071360FM-12+012999999V0202501N003012200019N0500001N1+01201+00881101381ADDAA199000091GA1001+999999999GF100991001001999999001001KA1999M+02031MD1210111+9999REMSYN064AAXX  26181 28588 32984 02503 10120 20088 40138 52011 333 10203;EQDQ01  00002PRCP99
0150285880999992000082621004+55570+071360FM-12+012999999V0202601N002012200019N0070001N1+01051+00891101541ADDAY101031AY201031GA1001+999999999GF100991001001999999001001MD1210141+9999MW1101REMSYN060AAXX  26211 28588 41957 02602 10105 20089 40154 52014 71000;
0122285880999992000082700004+55570+071360FM-12+012999999V0203201N004012200019N0270001N1+00891+00771101681ADDGA1001+999999999GF100991001001999999001001MD1210131+9999REMSYN054AAXX  27001 28588 42977 03204 10089 20077 40168 52013;
0165285880999992000082706004+55570+071360FM-12+012999999V0203401N006012200019N0400001N1+01561+00451101861ADDAA199000091GF102991011021008001001021KA1999N+00851MD1210041+9999REMSYN070AAXX  27061 28588 32582 23406 10156 20045 40186 52004 81202 333 20085;EQDQ01  00002PRCP99
0131285880999992000082712004+55570+071360FM-12+012999999V0203201N005019999999N0400001N1+01801+00361101811ADDGF106991999051008001001021MD1810031+9999REMSYN060AAXX  27121 28588 42582 63205 10180 20036 40181 58003 80502;EQDQ01+000002SCOTLC
0175285880999992000082718004+55570+071360FM-12+012999999V0202301N001012200019N0500001N1+00841+00621101911ADDAA199000091GA1001+999999999GF100991001001999999001001KA1999M+01821MD1810031+9999REMSYN064AAXX  27181 28588 32984 02301 10084 20062 40191 58003 333 10182;EQDQ01  00002PRCP99
0112285880999992000082721004+55570+071360FM-12+012999999V0202301N001019999999N0500001N1+00841+00771101871ADDGF106991001001999999001021MD1710041+9999REMSYN060AAXX  27211 28588 42984 62301 10084 20077 40187 57004 80002;
0112285880999992000082800004+55570+071360FM-12+012999999V0202701N001012200019N0290001N1+00741+00671101891ADDGF103991031051008001001001MD1310011+9999REMSYN060AAXX  28001 28588 42579 32701 10074 20067 40189 53001 83500;
0142285880999992000082806004+55570+071360FM-12+012999999V0202701N004010300019N0400001N1+01741+00551101671ADDAA199000091GF106991021021008001051001MD1710091+9999REMSYN060AAXX  28061 28588 32582 62704 10174 20055 40167 57009 82250;EQDQ01  00002PRCP99
0140285880999992000082812004+55570+071360FM-12+012999999V0202401N006012200019N0400001N1+01791+00591101411ADDAY181061AY221061GF105991041091008001001011MD1710081+9999MW1021REMSYN066AAXX  28121 28588 41582 52406 10179 20059 40141 57008 70282 84901;
0190285880999992000082818004+55570+071360FM-12+012999999V0202501N002012200019N0500001N1+01021+00851101201ADDAA100000591AY181061AY221061GA1001+999999999GF100991001001999999001001KA1999M+01911MD1710091+9999MW1021REMSYN076AAXX  28181 28588 11984 02502 10102 20085 40120 57009 69940 70282 333 10191;
0122285880999992000082821004+55570+071360FM-12+012999999V0202401N003012200019N0500001N1+00941+00761101141ADDGA1001+999999999GF100991001001999999001001MD1710071+9999REMSYN054AAXX  28211 28588 42984 02403 10094 20076 40114 57007;
0140285880999992000082900004+55570+071360FM-12+012999999V0202601N003010075019N0090001N1+00981+00951100901ADDAY181061AY221061GF107991071091008001001001MD1710221+9999MW1811REMSYN066AAXX  29001 28588 41559 72603 10098 20095 40090 57022 78182 87900;
0167285880999992000082906004+55570+071360FM-12+012999999V0203201N006010075019N0400001N1+01201+01061100811ADDAA100001091AY181061AY221061GF106991061091008001001001MD1710011+9999MW1251REMSYN082AAXX  29061 28588 11582 63206 10120 20106 40081 57001 60010 72582 86900 333 90092;
0140285880999992000082912004+55570+071360FM-12+012999999V0203201N005010075019N0400001N1+01271+00851100821ADDAY181061AY221061GF105991051091008001001001MD1310071+9999MW1251REMSYN066AAXX  29121 28588 41582 53205 10127 20085 40082 53007 72582 85900;
0116285880999992000082921004+55570+071360FM-12+012999999V0203101N004012200019N0280001N1+99999+99999101151ADDGA1001+999999999GF100991001001999999001001MD1210141+9999REMSYN048AAXX  29211 28588 42978 03104 20065 40115 52014;
0112285880999992000083000004+55570+071360FM-12+012999999V0203101N005019999999N0500001N1+00781+00671101171ADDGF107991071001999999071001MD1210021+9999REMSYN060AAXX  30001 28588 42984 73105 10078 20067 40117 52002 87070;
0188285880999992000083006004+55570+071360FM-12+012999999V0203401N009010075019N0400001N1+01171+00301101221ADDAA199000091GF107991071091008001001001KA1120N+00731MD1210021+9999OA140101201REMSYN082AAXX  30061 28588 32582 73409 10117 20030 40122 52002 87900 333 20073 91012 91112;EQDQ01  00002PRCP99
0150285880999992000083012004+55570+071360FM-12+012999999V0203301N008010075019N0400001N1+01191+00131101281ADDAY181061AY221061GF106991061021008001001001MD1310071+9999MW1021REMSYN076AAXX  30121 28588 41582 63308 10119 20013 40128 53007 70282 86200 333 91114;
0168285880999992000083018004+55570+071360FM-12+012999999V0203201N004012200019N0500001N1+00631+00401101471ADDAA100000791GA1001+999999999GF100991001001999999001001KA1120M+01411MD1210081+9999REMSYN076AAXX  30181 28588 12984 03204 10063 20040 40147 52008 69900 333 10141 91112;
0122285880999992000083021004+55570+071360FM-12+012999999V0203101N004012200019N0500001N1+00491+00351101581ADDGA1001+999999999GF100991001001999999001001MD1210091+9999REMSYN054AAXX  30211 28588 42984 03104 10049 20035 40158 52009;
0112285880999992000083100004+55570+071360FM-12+012999999V0203101N004012200019N0500001N1+00351+00271101771ADDGF102991021001999999061001MD1210181+9999REMSYN060AAXX  31001 28588 42984 23104 10035 20027 40177 52018 82060;
0165285880999992000083106004+55570+071360FM-12+012999999V0203601N007012200019N0400001N1+01261+00481101981ADDAA199000091GF102991011021008001001011KA1999N+00321MD1210101+9999REMSYN070AAXX  31061 28588 32582 23607 10126 20048 40198 52010 81201 333 20032;EQDQ01  00002PRCP99
0112285880999992000083112004+55570+071360FM-12+012999999V0203401N004010075019N0400001N1+01501+00531102191ADDGF106991061021008001001001MD1210101+9999REMSYN060AAXX  31121 28588 42582 63404 10150 20053 40219 52010 86200;
0175285880999992000083118004+55570+071360FM-12+012999999V0202601N001012200019N0500001N1+00691+00491102261ADDAA199000091GA1001+999999999GF100991001001999999001001KA1999M+01591MD1310031+9999REMSYN064AAXX  31181 28588 32984 02601 10069 20049 40226 53003 333 10159;EQDQ01  00002PRCP99
0116285880999992000083121004+55570+071360FM-12+012999999V0202401N001012200019N0500001N1+99999+99999102401ADDGA1001+999999999GF100991001001999999001001MD1210111+9999REMSYN048AAXX  31211 28588 42984 02401 20034 40240 52011;
0112285880999992000090100004+55570+071360FM-12+012999999V0202301N002012200019N0500001N1+00361+00291102421ADDGF103991031001999999031001MD1210021+9999REMSYN060AAXX  01001 28588 42984 32302 10036 20029 40242 52002 83030;
0165285880999992000090106004+55570+071360FM-12+012999999V0202801N004019999999N0400001N1+01561+00271102421ADDAA199000091GF106991061001999999031001KA1999N+00311MD1810031+9999REMSYN070AAXX  01061 28588 32982 62804 10156 20027 40242 58003 86030 333 20031;EQDQ01  00002PRCP99
0112285880999992000090112004+55570+071360FM-12+012999999V0202901N004010300019N0400001N1+01941+00621102371ADDGF105991021021008001051001MD1310021+9999REMSYN060AAXX  01121 28588 42582 52904 10194 20062 40237 53002 82250;
0175285880999992000090118004+55570+071360FM-12+012999999V0202101N001012200019N0500001N1+00991+00761102471ADDAA199000091GA1001+999999999GF100991001001999999001001KA1999M+01951MD1810051+9999REMSYN064AAXX  01181 28588 32984 02101 10099 20076 40247 58005 333 10195;EQDQ01  00002PRCP99
0122285880999992000090121004+55570+071360FM-12+012999999V0202201N001012200019N0500001N1+00821+00701102501ADDGA1001+999999999GF100991001001999999001001MD1310021+9999REMSYN054AAXX  01211 28588 42984 02201 10082 20070 40250 53002;
0112285880999992000090200004+55570+071360FM-12+012999999V0202301N001012200019N0500001N1+00831+00681102531ADDGF102991021001999999031001MD1210031+9999REMSYN060AAXX  02001 28588 42984 22301 10083 20068 40253 52003 82030;
0165285880999992000090206004+55570+071360FM-12+012999999V0202301N001019999999N0400001N1+01931+00811102561ADDAA199000091GF105991051001999999031001KA1999N+00801MD1810031+9999REMSYN070AAXX  02061 28588 32982 52301 10193 20081 40256 58003 85030 333 20080;EQDQ01  00002PRCP99
0112285880999992000090212004+55570+071360FM-12+012999999V0200301N003010300019N0400001N1+02071+00901102541ADDGF105991021091008001051001MD1710011+9999REMSYN060AAXX  02121 28588 42582 50303 10207 20090 40254 57001 82950;
0122285880999992000090221004+55570+071360FM-12+012999999V0201301N001012200019N0280001N1+00841+00761102691ADDGA1001+999999999GF100991001001999999001001MD1210021+9999REMSYN054AAXX  02211 28588 42978 01301 10084 20076 40269 52002;
0140285880999992000090300004+55570+071360FM-12+012999999V0203401N001012200019N0090001N1+00621+00581102691ADDAY101061AY201061GF102991001001999999001011MD1810011+9999MW1101REMSYN066AAXX  03001 28588 41959 23401 10062 20058 40269 58001 71000 80001;
0159285880999992000090306004+55570+071360FM-12+012999999V0201601N002019999999N0400001N1+02201+99999102711ADDAA199000091GF106991001001999999001021KA1999N+00601MD1410001+9999REMSYN064AAXX  03061 28588 32982 61602 10220 40271 54000 80002 333 20060;EQDQ01  00002PRCP99
0112285880999992000090312004+55570+071360FM-12+012999999V0201901N002010750019N0400001N1+02401+00321102601ADDGF106991041021008001001021MD1710081+9999REMSYN060AAXX  03121 28588 42582 61902 10240 20032 40260 57008 84202;
0122285880999992000090321004+55570+071360FM-12+012999999V0201601N001012200019N0500001N1+01001+00611102661ADDGA1001+999999999GF100991001001999999001001MD1210041+9999REMSYN054AAXX  03211 28588 42984 01601 10100 20061 40266 52004;
0112285880999992000090400004+55570+071360FM-12+012999999V0201601N001012200019N0500001N1+00871+00461102701ADDGF102991001001999999001011MD1210041+9999REMSYN060AAXX  04001 28588 42984 21601 10087 20046 40270 52004 80001;
0165285880999992000090406004+55570+071360FM-12+012999999V0201201N003012200019N0500001N1+02131+00681102701ADDAA199000091GF101991001001999999001011KA1999N+00831MD1210011+9999REMSYN070AAXX  04061 28588 32984 11203 10213 20068 40270 52001 80001 333 20083;EQDQ01  00002PRCP99
0112285880999992000090412004+55570+071360FM-12+012999999V0201101N003012200019N0400001N1+02321+00381102341ADDGF102991001001999999001011MD1710111+9999REMSYN060AAXX  04121 28588 42982 21103 10232 20038 40234 57011 80001;
0175285880999992000090418004+55570+071360FM-12+012999999V0200601N001012200019N0500001N1+01071+00591102381ADDAA199000091GA1001+999999999GF100991001001999999001001KA1999M+02411MD1310011+9999REMSYN064AAXX  04181 28588 32984 00601 10107 20059 40238 53001 333 10241;EQDQ01  00002PRCP99
0122285880999992000090421004+55570+071360FM-12+012999999V0200901N001012200019N0500001N1+00871+00581102321ADDGA1001+999999999GF100991001001999999001001MD1810071+9999REMSYN054AAXX  04211 28588 42984 00901 10087 20058 40232 58007;
0140285880999992000090500004+55570+071360FM-12+012999999V0200901N001012200019N0080001N1+00571+00501102351ADDAY101061AY201061GF102991001001999999001021MD1410001+9999MW1101REMSYN066AAXX  05001 28588 41958 20901 10057 20050 40235 54000 71000 80002;
0152285880999992000090506004+55570+071360FM-12+012999999V0200901N007012200019N0400001N1+02241+00461102151ADDAA199000091GA1001+999999999GF100991001001999999001001MD1810121+9999REMSYN054AAXX  05061 28588 32982 00907 10224 20046 40215 58012;EQDQ01  00002PRCP99
0122285880999992000090512004+55570+071360FM-12+012999999V0201101N004012200019N0400001N1+02421+00401101791ADDGA1001+999999999GF100991001001999999001001MD1710221+9999REMSYN054AAXX  05121 28588 42982 01104 10242 20040 40179 57022;
0175285880999992000090518004+55570+071360FM-12+012999999V0200801N002012200019N0500001N1+01161+00731101831ADDAA199000091GA1001+999999999GF100991001001999999001001KA1999M+02431MD1710021+9999REMSYN064AAXX  05181 28588 32984 00802 10116 20073 40183 57002 333 10243;EQDQ01  00002PRCP99
0122285880999992000090521004+55570+071360FM-12+012999999V0200901N002012200019N0500001N1+00961+00731101791ADDGA1001+999999999GF100991001001999999001001MD1710051+9999REMSYN054AAXX  05211 28588 42984 00902 10096 20073 40179 57005;
0112285880999992000090600004+55570+071360FM-12+012999999V0200701N002012200019N0500001N1+00691+00501101811ADDGF102991001001999999001011MD1310011+9999REMSYN060AAXX  06001 28588 42984 20702 10069 20050 40181 53001 80001;
0165285880999992000090606004+55570+071360FM-12+012999999V0201201N006019999999N0400001N1+02191+00801101601ADDAA199000091GF106991001001999999001011KA1999N+00651MD1710091+9999REMSYN070AAXX  06061 28588 32982 61206 10219 20080 40160 57009 80001 333 20065;EQDQ01  00002PRCP99
0112285880999992000090612004+55570+071360FM-12+012999999V0200801N004019999999N0400001N1+02251+00621101411ADDGF107991001001999999001021MD1710061+9999REMSYN060AAXX  06121 28588 42982 70804 10225 20062 40141 57006 80002;
0122285880999992000090621004+55570+071360FM-12+012999999V0200701N001012200019N0500001N1+00941+00681101591ADDGA1001+999999999GF100991001001999999001001MD1210021+9999REMSYN054AAXX  06211 28588 42984 00701 10094 20068 40159 52002;
0112285880999992000090700004+55570+071360FM-12+012999999V0200901N001012200019N0220001N1+00541+00421101611ADDGF102991001001999999001011MD1410001+9999REMSYN060AAXX  07001 28588 42972 20901 10054 20042 40161 54000 80001;
0165285880999992000090706004+55570+071360FM-12+012999999V0201601N003012200019N0400001N1+02241+00771101581ADDAA199000091GF103991001001999999001021KA1999N+00511MD1310071+9999REMSYN070AAXX  07061 28588 32982 31603 10224 20077 40158 53007 80002 333 20051;EQDQ01  00002PRCP99
0112285880999992000090712004+55570+071360FM-12+012999999V0201801N001012200019N0400001N1+02541+00431101491ADDGF102991001001999999001021MD1410001+9999REMSYN060AAXX  07121 28588 42982 21801 10254 20043 40149 54000 80002;
0122285880999992000090721004+55570+071360FM-12+012999999V0202201N002012200019N0500001N1+01221+00561101631ADDGA1001+999999999GF100991001001999999001001MD1410001+9999REMSYN054AAXX  07211 28588 42984 02202 10122 20056 40163 54000;
0112285880999992000090800004+55570+071360FM-12+012999999V0202301N003012200019N0500001N1+01331+00381101671ADDGF102991001001999999001011MD1310041+9999REMSYN060AAXX  08001 28588 42984 22303 10133 20038 40167 53004 80001;
0181285880999992000090806004+55570+071360FM-12+012999999V0202601N006012200019N0400001N1+02521+00671101681ADDAA199000091GF102991001001999999001021KA1999N+01201MD1410001+9999REMSYN070AAXX  08061 28588 33282 22606 10252 20067 40168 54000 80002 333 20120;EQDQ01+001502SCOLCBQ02  00002PRCP99
0112285880999992000090812004+55570+071360FM-12+012999999V0202801N004012200019N0400001N1+02831+00731101601ADDGF102991001001999999001021MD1410001+9999REMSYN060AAXX  08121 28588 42982 22804 10283 20073 40160 54000 80002;
0175285880999992000090818004+55570+071360FM-12+012999999V0202101N003012200019N0500001N1+01731+00611101751ADDAA199000091GA1001+999999999GF100991001001999999001001KA1999M+02891MD1810011+9999REMSYN064AAXX  08181 28588 32984 02103 10173 20061 40175 58001 333 10289;EQDQ01  00002PRCP99
0122285880999992000090821004+55570+071360FM-12+012999999V0201301N003012200019N0500001N1+01461+00481101551ADDGA1001+999999999GF100991001001999999001001MD1710211+9999REMSYN054AAXX  08211 28588 42984 01303 10146 20048 40155 57021;
0112285880999992000090900004+55570+071360FM-12+012999999V0201901N002019999999N0500001N1+01351+00411101471ADDGF106991001001999999001021MD1710091+9999REMSYN060AAXX  09001 28588 42984 61902 10135 20041 40147 57009 80002;
0142285880999992000090906004+55570+071360FM-12+012999999V0202401N006012200019N0400001N1+02621+00591101071ADDAA199000091GF103991031001999999051001MD1710211+9999REMSYN060AAXX  09061 28588 32982 32406 10262 20059 40107 57021 83050;EQDQ01  00002PRCP99
0112285880999992000090912004+55570+071360FM-12+012999999V0203001N004010300019N0400001N1+02701+00771100851ADDGF107991031091008001031001MD1710081+9999REMSYN060AAXX  09121 28588 42582 73004 10270 20077 40085 57008 83930;
0165285880999992000090918004+55570+071360FM-12+012999999V0200201N006019999999N0500001N1+01171+00851101141ADDAA199000091GF108991081001999999011999KA1999M+02961MD1210031+9999REMSYN070AAXX  09181 28588 32984 80206 10117 20085 40114 52003 8801/ 333 10296;EQDQ01  00002PRCP99
0165285880999992000091112004+55570+071360FM-12+012999999V0200301N001010300019N0400001N1+01111+00461100521ADDAA199000091GF107991031051008001061001KA1999N+00531MD1810051+9999REMSYN070AAXX  11121 28588 32582 70301 10111 20046 40052 58005 83560 333 20053;EQDQ01  00002PRCP99
0152285880999992000091206004+55570+071360FM-12+012999999V0203501N003010750019N0400001N1+01001+00451100481ADDAA100001091GF107991011011008001001021KA1999N+00561MD1210021+9999REMSYN076AAXX  12061 28588 12582 73503 10100 20045 40048 52002 69990 81102 333 20056;
0112285880999992000091212004+55570+071360FM-12+012999999V0203401N003010300019N0400001N1+01171+00411100621ADDGF108991011021008001061021MD1210051+9999REMSYN060AAXX  12121 28588 42582 83403 10117 20041 40062 52005 81262;
0165285880999992000091218004+55570+071360FM-12+012999999V0202801N002010075019N0500001N1+00951+00621100941ADDAA199000091GF107991071051008001001001KA1999M+01241MD1210101+9999REMSYN070AAXX  12181 28588 32584 72802 10095 20062 40094 52010 87500 333 10124;EQDQ01  00002PRCP99
0122285880999992000091221004+55570+071360FM-12+012999999V0202501N002012200019N0500001N1+00491+00441101151ADDGA1001+999999999GF100991001001999999001001MD1210181+9999REMSYN054AAXX  12211 28588 42984 02502 10049 20044 40115 52018;
0112285880999992000091300004+55570+071360FM-12+012999999V0202101N002019999999N0500001N1+00411+00391101371ADDGF106991001001999999001021MD1210211+9999REMSYN060AAXX  13001 28588 42984 62102 10041 20039 40137 52021 80002;
0142285880999992000091306004+55570+071360FM-12+012999999V0202401N003019999999N0400001N1+01431+00711101511ADDAA199000091GF105991051001999999051001MD1210071+9999REMSYN060AAXX  13061 28588 32982 52403 10143 20071 40151 52007 85050;EQDQ01  00002PRCP99
0112285880999992000091312004+55570+071360FM-12+012999999V0202401N002012200019N0400001N1+01701+00341101631ADDGF103991021021008001031001MD1210051+9999REMSYN060AAXX  13121 28588 42582 32402 10170 20034 40163 52005 82230;
0165285880999992000091318004+55570+071360FM-12+012999999V0201501N003019999999N0500001N1+01121+00511101591ADDAA199000091GF107991021001999999031021KA1999M+01711MD1810111+9999REMSYN070AAXX  13181 28588 32984 71503 10112 20051 40159 58011 82032 333 10171;EQDQ01  00002PRCP99
0112285880999992000091321004+55570+071360FM-12+012999999V0201401N004019999999N0500001N1+01191+00501101421ADDGF107991071001999999071001MD1710161+9999REMSYN060AAXX  13211 28588 42984 71404 10119 20050 40142 57016 87070;
0112285880999992000091400004+55570+071360FM-12+012999999V0201401N005019999999N0500001N1+01231+00461101181ADDGF107991071001999999071001MD1710231+9999REMSYN060AAXX  14001 28588 42984 71405 10123 20046 40118 57023 87070;
0188285880999992000091406004+55570+071360FM-12+012999999V0201601N010019999999N0400001N1+01861+00411100661ADDAA199000091GF106991051001999999031011KA1120N+01061MD1710271+9999OA140101401REMSYN082AAXX  14061 28588 32982 61610 10186 20041 40066 57027 85031 333 20106 91014 91114;EQDQ01  00002PRCP99
0139285880999992000091412004+55570+071360FM-12+012999999V0201501N008019999999N0400001N1+02061+00431099921ADDGF106991061001999999041001MD1710351+9999OA149901301REMSYN076AAXX  14121 28588 42982 61508 10206 20043 49992 57035 86040 333 91113 91117;
0122285880999992000091421004+55570+071360FM-12+012999999V0202001N004012200019N0500001N1+00821+00581099991ADDGA1001+999999999GF100991001001999999001001MD1310151+9999REMSYN054AAXX  14211 28588 42984 02004 10082 20058 49999 53015;
0122285880999992000091500004+55570+071360FM-12+012999999V0202001N004012200019N0500001N1+00731+00481100091ADDGA1001+999999999GF100991001001999999001001MD1210091+9999REMSYN054AAXX  15001 28588 42984 02004 10073 20048 40009 52009;
0186285880999992000091506004+55570+071360FM-12+012999999V0202001N008010075019N0400001N1+01001+00461099961ADDAA100002091AY161061AY211061GF107991071071008001001001KA1120N+00661MD1310021+9999MW1211REMSYN088AAXX  15061 28588 11582 72008 10100 20046 49996 53002 60020 72161 87700 333 20066 91113;
0122285880999992000091512004+55570+071360FM-12+012999999V0202201N007010075019N0400001N1+01211+00271100061ADDGF107991071051008001001001MD1210031+9999REMSYN070AAXX  15121 28588 42582 72207 10121 20027 40006 52003 87500 333 91114;
0186285880999992000091518004+55570+071360FM-12+012999999V0202401N006010075019N0500001N1+00871+00451099991ADDAA100000791AY181061AY221061GF106991061091008001001001KA1120M+01211MD1310021+9999MW1021REMSYN088AAXX  15181 28588 11584 62406 10087 20045 49999 53002 69900 70282 86900 333 10121 55550;
0158285880999992000091521004+55570+071360FM-12+012999999V0202401N008019999999N0500001N1+00761+00301100041ADDGF107991999001999999071001MD1210041+9999OA140101401REMSYN076AAXX  15211 28588 42984 72408 10076 20030 40004 52004 85070 333 91014 91114;EQDQ01+000052SCOTLC
0146285880999992000091600004+55570+071360FM-12+012999999V0202501N008010075019N0500001N1+00761+00451100121ADDAY121061AY221061GF107991071091008001001001MD1210081+9999MW1251REMSYN072AAXX  16001 28588 41584 72508 10076 20045 40012 52008 72522 87900 91114;
0175285880999992000091606004+55570+071360FM-12+012999999V0202601N008010075019N0400001N1+00851+00451100531ADDAA100000791GF107991071051008001001001KA1120N+00711MD1210221+9999OA140101201REMSYN088AAXX  16061 28588 12582 72608 10085 20045 40053 52022 69900 87500 333 20071 91012 91114;
0139285880999992000091612004+55570+071360FM-12+012999999V0202601N007010075019N0400001N1+00981+00411101051ADDGF107991071051008001001001MD1210261+9999OA140101201REMSYN076AAXX  16121 28588 42582 72607 10098 20041 40105 52026 87500 333 91012 91114;
0171285880999992000091618004+55570+071360FM-12+012999999V0202901N004010300019N0500001N1+00711+00511101461ADDAA199000091GF106991041051008001031001KA1120M+01001MD1210141+9999REMSYN076AAXX  16181 28588 32584 62904 10071 20051 40146 52014 84530 333 10100 91113;EQDQ01  00002PRCP99
0112285880999992000091621004+55570+071360FM-12+012999999V0202901N004010075019N0500001N1+00701+00511101611ADDGF107991071051008001001001MD1210141+9999REMSYN060AAXX  16211 28588 42584 72904 10070 20051 40161 52014 87500;
0112285880999992000091700004+55570+071360FM-12+012999999V0202801N002019999999N0500001N1+00671+00581101741ADDGF107991071001999999051001MD1210131+9999REMSYN060AAXX  17001 28588 42984 72802 10067 20058 40174 52013 87050;
0142285880999992000091706004+55570+071360FM-12+012999999V0203301N002010075019N0400001N1+01001+00301101851ADDAA199000091GF106991061051008001001001MD1410001+9999REMSYN060AAXX  17061 28588 32582 63302 10100 20030 40185 54000 86500;EQDQ01  00002PRCP99
0112285880999992000091712004+55570+071360FM-12+012999999V0201601N004019999999N0400001N1+01161+00091101621ADDGF107991071001999999071001MD1710081+9999REMSYN060AAXX  17121 28588 42982 71604 10116 20009 40162 57008 87070;
0180285880999992000091718004+55570+071360FM-12+012999999V0201301N006019999999N0500001N1+00991+00381101061ADDAA100000791AY161061AY221061GF107991071001999999071001KA1999M+01311MD1710321+9999MW1021REMSYN082AAXX  17181 28588 11984 71306 10099 20038 40106 57032 69900 70262 87070 333 10131;
0112285880999992000091721004+55570+071360FM-12+012999999V0201201N006019999999N0500001N1+00961+00301100631ADDGF107991071001999999071001MD1710421+9999REMSYN060AAXX  17211 28588 42984 71206 10096 20030 40063 57042 87070;
0112285880999992000091800004+55570+071360FM-12+012999999V0201501N005010075019N0500001N1+00961+00291100251ADDGF107991061091008001071001MD1710371+9999REMSYN060AAXX  18001 28588 42584 71505 10096 20029 40025 57037 86970;
0203285880999992000091806004+55570+071360FM-12+012999999V0202801N008010075019N0400001N1+01051+00211100211ADDAA100000791AY181061AY221061GF107991051091008001071001KA1120N+00831MD1310091+9999MW1021OA140101201REMSYN094AAXX  18061 28588 11582 72808 10105 20021 40021 53009 69900 70282 85970 333 20083 91012 91112;
0122285880999992000091812004+55570+071360FM-12+012999999V0202501N004012200019N0400001N1+01261-00301100111ADDGF103991031091008001001001MD1710071+9999REMSYN070AAXX  18121 28588 42582 32504 10126 21030 40011 57007 83900 333 91112;
0112285880999992000091821004+55570+071360FM-12+012999999V0202301N003010075019N0500001N1+00561+00321099841ADDGF107991071051008001001001MD1710091+9999REMSYN060AAXX  18211 28588 42584 72303 10056 20032 49984 57009 87500;
0112285880999992000091900004+55570+071360FM-12+012999999V0202801N003019999999N0500001N1+00541+00401099811ADDGF107991071001999999071001MD1710031+9999REMSYN060AAXX  19001 28588 42984 72803 10054 20040 49981 57003 87070;
0165285880999992000091906004+55570+071360FM-12+012999999V0202801N004010075019N0400001N1+00811+00341099971ADDAA199000091GF107991071051008001001001KA1999N+00511MD1210031+9999REMSYN070AAXX  19061 28588 32582 72804 10081 20034 49997 52003 87500 333 20051;EQDQ01  00002PRCP99
0140285880999992000091912004+55570+071360FM-12+012999999V0202901N005010075019N0400001N1+00691+00391100351ADDAY181061AY221061GF107991071091008001001001MD1210281+9999MW1021REMSYN066AAXX  19121 28588 41582 72905 10069 20039 40035 52028 70282 87900;
0180285880999992000091918004+55570+071360FM-12+012999999V0203101N005010075019N0500001N1+00451+00251100791ADDAA100002091AY181061AY221061GF106991061051008001061001KA1999M+01071MD1210201+9999MW1021REMSYN082AAXX  19181 28588 11584 63105 10045 20025 40079 52020 60020 70282 86560 333 10107;
0112285880999992000091921004+55570+071360FM-12+012999999V0203001N004010075019N0500001N1+00381+00201101011ADDGF107991071051008001001001MD1210201+9999REMSYN060AAXX  19211 28588 42584 73004 10038 20020 40101 52020 87500;
0112285880999992000092000004+55570+071360FM-12+012999999V0202901N004012200019N0500001N1+00221-00081101191ADDGF102991001001999999001011MD1210171+9999REMSYN060AAXX  20001 28588 42984 22904 10022 21008 40119 52017 80001;
0152285880999992000092006004+55570+071360FM-12+012999999V0202401N006019999999N0400001N1+00821+00041101371ADDAA100000391GF107991071001999999071001KA1999N+00171MD1210061+9999REMSYN076AAXX  20061 28588 12982 72406 10082 20004 40137 52006 69930 87070 333 20017;
0112285880999992000092012004+55570+071360FM-12+012999999V0202301N008010075019N0350001N1+01211+00321101221ADDGF107991071051008001001001MD1710031+9999REMSYN060AAXX  20121 28588 42581 72308 10121 20032 40122 57003 87500;
0165285880999992000092018004+55570+071360FM-12+012999999V0202401N005010075019N0500001N1+01071+00301101241ADDAA199000091GF107991071051008001001001KA1999M+01271MD1810021+9999REMSYN070AAXX  20181 28588 32584 72405 10107 20030 40124 58002 87500 333 10127;EQDQ01  00002PRCP99
0112285880999992000092021004+55570+071360FM-12+012999999V0202301N004019999999N0500001N1+00941+00301101101ADDGF107991001001999999001021MD1710151+9999REMSYN060AAXX  20211 28588 42984 72304 10094 20030 40110 57015 80002;
0112285880999992000092100004+55570+071360FM-12+012999999V0202301N004012200019N0500001N1+00641+00301101061ADDGF103991001001999999001021MD1710051+9999REMSYN060AAXX  21001 28588 42984 32304 10064 20030 40106 57005 80002;
0156285880999992000092106004+55570+071360FM-12+012999999V0202401N008012200019N0400001N1+01231+99999100961ADDGF103991031021008001001001KA1120N+00631MA1999999100361MD1810091+9999REMSYN076AAXX  21061 28588 22582 32408 10123 30036 40096 58009 83200 333 20063 91112;
0122285880999992000092112004+55570+071360FM-12+012999999V0202501N007010075019N0400001N1+01301+00231100901ADDGF107991071091008001001001MD1710021+9999REMSYN070AAXX  21121 28588 42582 72507 10130 20023 40090 57002 87900 333 91113;
0180285880999992000092118004+55570+071360FM-12+012999999V0203201N005019999999N0500001N1+00371-00291101401ADDAA100000191AY161061AY221061GF107991071001999999071001KA1999M+01411MD1210241+9999MW1021REMSYN082AAXX  21181 28588 11984 73205 10037 21029 40140 52024 69910 70262 87070 333 10141;
0112285880999992000092121004+55570+071360FM-12+012999999V0203101N005010075019N0500001N1+00141-00411101471ADDGF107991071051008001001001MD1210061+9999REMSYN060AAXX  21211 28588 42584 73105 10014 21041 40147 52006 87500;
0112285880999992000092200004+55570+071360FM-12+012999999V0203101N003019999999N0500001N1-00081-00331101681ADDGF106991061001999999071001MD1210191+9999REMSYN060AAXX  22001 28588 42984 63103 11008 21033 40168 52019 86070;
0165285880999992000092206004+55570+071360FM-12+012999999V0203301N004010075019N0400001N1+00161-00581101901ADDAA199000091GF106991061091008001001021KA1999N-00151MD1210101+9999REMSYN070AAXX  22061 28588 32582 63304 10016 21058 40190 52010 86902 333 21015;EQDQ01  00002PRCP99
0112285880999992000092212004+55570+071360FM-12+012999999V0203101N005010075019N0400001N1+00321-00861102141ADDGF107991071091008001001001MD1210121+9999REMSYN060AAXX  22121 28588 42582 73105 10032 21086 40214 52012 87900;
0122285880999992000092221004+55570+071360FM-12+012999999V0202401N002012200019N0500001N1-00441-00711102431ADDGA1001+999999999GF100991001001999999001001MD1210041+9999REMSYN054AAXX  22211 28588 42984 02402 11044 21071 40243 52004;
0122285880999992000092300004+55570+071360FM-12+012999999V0202101N002012200019N0500001N1-00621-00811102541ADDGA1001+999999999GF100991001001999999001001MD1210091+9999REMSYN054AAXX  23001 28588 42984 02102 11062 21081 40254 52009;
0165285880999992000092306004+55570+071360FM-12+012999999V0202101N004019999999N0400001N1+00431-00861102321ADDAA199000091GF106991061001999999051001KA1999N-00641MD1710121+9999REMSYN070AAXX  23061 28588 32982 62104 10043 21086 40232 57012 86050 333 21064;EQDQ01  00002PRCP99
0112285880999992000092312004+55570+071360FM-12+012999999V0202101N005010300019N0400001N1+00571-00961102051ADDGF106991021011008001031021MD1710121+9999REMSYN060AAXX  23121 28588 42582 62105 10057 21096 40205 57012 82132;
0165285880999992000092318004+55570+071360FM-12+012999999V0203401N002019999999N0500001N1+00031-00811101901ADDAA199000091GF108991001001999999001071KA1999M+00681MD1710081+9999REMSYN070AAXX  23181 28588 32984 83402 10003 21081 40190 57008 80007 333 10068;EQDQ01  00002PRCP99
0147285880999992000092321004+55570+071360FM-12+012999999V0201601N001019999999N0500001N1-00181-00791101811ADDGF108991001001999999001031MD1710091+9999REMSYN060AAXX  23211 28588 42984 81601 11018 21079 40181 57000 80003;EQDQ01+000072APCTENQ02+000002APC3  
0112285880999992000092400004+55570+071360FM-12+012999999V0201501N001012200019N0500001N1-00461-00891102061ADDGF105991021011008001001011MD1710021+9999REMSYN060AAXX  24001 28588 42584 51501 11046 21089 40206 57002 82101;
0165285880999992000092406004+55570+071360FM-12+012999999V0201301N004010300019N0400001N1+00621-00861101771ADDAA199000091GF107991031021008001061021KA1999N-00561MD1410001+9999REMSYN070AAXX  24061 28588 32582 71304 10062 21086 40177 54000 83262 333 21056;EQDQ01  00002PRCP99
0165285880999992000092418004+55570+071360FM-12+012999999V0200101N003019999999N0500001N1+00091-00591101831ADDAA199000091GF108991081001999999021999KA1999M+00711MD1810051+9999REMSYN070AAXX  24181 28588 32984 80103 10009 21059 40183 58005 8802/ 333 10071;EQDQ01  00002PRCP99
0112285880999992000092421004+55570+071360FM-12+012999999V0200101N005019999999N0500001N1+00141-00521101701ADDGF108991081001999999021999MD1710131+9999REMSYN060AAXX  24211 28588 42984 80105 10014 21052 40170 57013 8802/;
0112285880999992000092500004+55570+071360FM-12+012999999V0200201N006019999999N0500001N1+00121-00441101631ADDGF108991081001999999021999MD1710071+9999REMSYN060AAXX  25001 28588 42984 80206 10012 21044 40163 57007 8802/;
0180285880999992000092506004+55570+071360FM-12+012999999V0200201N006010750019N0400001N1+00441-00531101481ADDAA100000791AY171061AY221061GF106991021021008001051041KA1999N+00031MD1710091+9999MW1021REMSYN082AAXX  25061 28588 11582 60206 10044 21053 40148 57009 69900 70272 82254 333 20003;
0139285880999992000092512004+55570+071360FM-12+012999999V0200201N008012200019N0400001N1+00551-00701101401ADDGF103991011021008001001021MD1710011+9999OA140101201REMSYN076AAXX  25121 28588 42582 30208 10055 21070 40140 57001 81202 333 91012 91113;
0181285880999992000092518004+55570+071360FM-12+012999999V0203201N004012200019N0500001N1-00101-00761101511ADDAA199000091GA1001+999999999GF100991001001999999001001KA1120M+00581MD1410001+9999REMSYN070AAXX  25181 28588 32984 03204 11010 21076 40151 54000 333 10058 91112;EQDQ01  00002PRCP99
0122285880999992000092521004+55570+071360FM-12+012999999V0203001N002012200019N0500001N1-00261-00711101531ADDGA1001+999999999GF100991001001999999001001MD1410001+9999REMSYN054AAXX  25211 28588 42984 03002 11026 21071 40153 54000;
0122285880999992000092600004+55570+071360FM-12+012999999V0202401N001012200019N0500001N1-00501-00711101551ADDGA1001+999999999GF100991001001999999001001MD1310011+9999REMSYN054AAXX  26001 28588 42984 02401 11050 21071 40155 53001;
0165285880999992000092606004+55570+071360FM-12+012999999V0202201N004012200019N0400001N1+00521-00491101431ADDAA199000091GF102991001001999999001011KA1999N-00591MD1810111+9999REMSYN070AAXX  26061 28588 32982 22204 10052 21049 40143 58011 80001 333 21059;EQDQ01  00002PRCP99
0112285880999992000092612004+55570+071360FM-12+012999999V0202101N004019999999N0400001N1+00861-01471101211ADDGF107991071001999999071001MD1710071+9999REMSYN060AAXX  26121 28588 42982 72104 10086 21147 40121 57007 87070;
0112285880999992000092621004+55570+071360FM-12+012999999V0202301N005010075019N0500001N1+00891+00251101031ADDGF107991071051008001001001MD1310091+9999REMSYN060AAXX  26211 28588 42584 72305 10089 20025 40103 53009 87500;
0122285880999992000092700004+55570+071360FM-12+012999999V0202101N005012200019N0500001N1+00601+00211100871ADDGA1001+999999999GF100991001001999999001001MD1810171+9999REMSYN054AAXX  27001 28588 42984 02105 10060 20021 40087 58017;
0165285880999992000092706004+55570+071360FM-12+012999999V0202001N009019999999N0300001N1+00851+00111101161ADDAA199000091GF108991001001999999001021KA1999N+00461MD1810051+9999REMSYN070AAXX  27061 28588 32980 82009 10085 20011 40116 58005 80002 333 20046;EQDQ01  00002PRCP99
0112285880999992000092712004+55570+071360FM-12+012999999V0202301N012019999999N0350001N1+00891+00131101191ADDGF108991081001999999021999MD1810021+9999REMSYN060AAXX  27121 28588 42981 82312 10089 20013 40119 58002 8802/;
0165285880999992000092718004+55570+071360FM-12+012999999V0202301N007019999999N0500001N1+00801-00251101141ADDAA199000091GF107991071001999999071001KA1999M+01051MD1710021+9999REMSYN070AAXX  27181 28588 32984 72307 10080 21025 40114 57002 87070 333 10105;EQDQ01  00002PRCP99
0112285880999992000092721004+55570+071360FM-12+012999999V0202001N003019999999N0500001N1+00601-00371100941ADDGF108991081001999999021999MD1710201+9999REMSYN060AAXX  27211 28588 42984 82003 10060 21037 40094 57020 8802/;
0112285880999992000092800004+55570+071360FM-12+012999999V0201801N003019999999N0500001N1+00581-00321100691ADDGF108991081001999999011999MD1710251+9999REMSYN060AAXX  28001 28588 42984 81803 10058 21032 40069 57025 8801/;
0180285880999992000092806004+55570+071360FM-12+012999999V0201801N005010300019N0400001N1+00731+00381100171ADDAA100000191AY161061AY221061GF107991041071008001071001KA1999N+00441MD1710261+9999MW1021REMSYN082AAXX  28061 28588 11582 71805 10073 20038 40017 57026 69910 70262 84770 333 20044;
0140285880999992000092812004+55570+071360FM-12+012999999V0202301N007010075019N0100001N1+00621+99999100051ADDAY181061AY221061GF107991071091008001001001MD1410001+9999MW1801REMSYN066AAXX  28121 28588 41560 72307 10062 20086 40005 54000 78082 87900;
0180285880999992000092818004+55570+071360FM-12+012999999V0202301N005010075019N0500001N1+00381-00021100041ADDAA100002091AY181061AY221061GF107991071051008001999999KA1999M+01011MD1810031+9999MW1021REMSYN082AAXX  28181 28588 11584 72305 10038 21002 40004 58003 60020 70282 875// 333 10101;
0112285880999992000092821004+55570+071360FM-12+012999999V0202301N007010075019N0500001N1+00291+00191100091ADDGF107991071051008001001001MD1310051+9999REMSYN060AAXX  28211 28588 42584 72307 10029 20019 40009 53005 87500;
0112285880999992000092900004+55570+071360FM-12+012999999V0202701N007010075019N0500001N1+00271+00171100301ADDGF107991071051008001001001MD1210211+9999REMSYN060AAXX  29001 28588 42584 72707 10027 20017 40030 52021 87500;
0170285880999992000092906004+55570+071360FM-12+012999999V0202701N005010300019N0400001N1+00281+00231100761ADDAA199000091AY161061AY221061GF107991021011008001071001MD1210291+9999MW1021REMSYN066AAXX  29061 28588 31582 72705 10028 20023 40076 52029 70262 82170;EQDQ01  00002PRCP99
0140285880999992000092912004+55570+071360FM-12+012999999V0203201N005010075019N0400001N1+00381-00051101181ADDAY161061AY221061GF107991071091008001001001MD1210201+9999MW1021REMSYN066AAXX  29121 28588 41582 73205 10038 21005 40118 52020 70262 87900;
0152285880999992000092918004+55570+071360FM-12+012999999V0202701N005010075019N0500001N1+00141-00341101391ADDAA100000791GF107991071051008001001001KA1999M+00421MD1210091+9999REMSYN076AAXX  29181 28588 12584 72705 10014 21034 40139 52009 69900 87500 333 10042;
0112285880999992000092921004+55570+071360FM-12+012999999V0209999C000010075019N0500001N1+00021-00311101391ADDGF107991071051008001001001MD1810011+9999REMSYN060AAXX  29211 28588 42584 70000 10002 21031 40139 58001 87500;
0140285880999992000093000004+55570+071360FM-12+012999999V0202701N003010075019N0060001N1+00001-00081101311ADDAY171061AY221061GF108991081001008001021999MD1710081+9999MW1711REMSYN066AAXX  30001 28588 41556 82703 10000 21008 40131 57008 77172 8802/;
0180285880999992000093006004+55570+071360FM-12+012999999V0202801N005010075019N0060001N1+00251+00201101221ADDAA100001091AY171061AY261061GF108991081001008001021999KA1999N-00041MD1710031+9999MW1611REMSYN082AAXX  30061 28588 11556 82805 10025 20020 40122 57003 60010 76176 8802/ 333 21004;
0140285880999992000093012004+55570+071360FM-12+012999999V0202701N005010075019N0060001N1+00411+00381101101ADDAY161061AY221061GF107991071051008001001001MD1410001+9999MW1611REMSYN066AAXX  30121 28588 41556 72705 10041 20038 40110 54000 76162 87500;
0112285880999992000093021004+55570+071360FM-12+012999999V0202701N003010075019N0180001N1+00281+00251101171ADDGF107991071051008001001001MD1810021+9999REMSYN060AAXX  30211 28588 42568 72703 10028 20025 40117 58002 87500;
0112285880999992000100100004+55570+071360FM-12+012999999V0202901N003010075019N0200001N1+00341+00291101201ADDGF107991071051008001001001MD1310031+9999REMSYN060AAXX  01001 28588 42570 72903 10034 20029 40120 53003 87500;
0165285880999992000100106004+55570+071360FM-12+012999999V0202901N003010075019N0400001N1+00431+00181101351ADDAA199000091GF107991071051008001001001KA1999N+00171MD1210041+9999REMSYN070AAXX  01061 28588 32582 72903 10043 20018 40135 52004 87500 333 20017;EQDQ01  00002PRCP99
0112285880999992000100112004+55570+071360FM-12+012999999V0203601N005010075019N0400001N1+00341-00011101601ADDGF107991071091008001001001MD1210161+9999REMSYN060AAXX  01121 28588 42582 73605 10034 21001 40160 52016 87900;
0112285880999992000100121004+55570+071360FM-12+012999999V0202701N005019999999N0500001N1+00041+00011102111ADDGF107991071001999999071001MD1210161+9999REMSYN060AAXX  01211 28588 42984 72705 10004 20001 40211 52016 87070;
0131285880999992000100200004+55570+071360FM-12+012999999V0203201N005010075019N0500001N1-00111-00151102291ADDGF108991999071008001021999MD1210181+9999REMSYN060AAXX  02001 28588 42584 83205 11011 21015 40229 52018 8872/;EQDQ01+000082SCOTLC
0165285880999992000100206004+55570+071360FM-12+012999999V0203601N001010075019N0400001N1+00161-00221102601ADDAA199000091GF107991071051008001001001KA1999N-00201MD1210121+9999REMSYN070AAXX  02061 28588 32582 73601 10016 21022 40260 52012 87500 333 21020;EQDQ01  00002PRCP99
0112285880999992000100212004+55570+071360FM-12+012999999V0200201N001010075019N0400001N1+00151-00551102811ADDGF107991071051008001001001MD1210151+9999REMSYN060AAXX  02121 28588 42582 70201 10015 21055 40281 52015 87500;
0165285880999992000100218004+55570+071360FM-12+012999999V0200201N001019999999N0500001N1-00191-00651103111ADDAA199000091GF106991061001999999051001KA1999M+00311MD1210161+9999REMSYN070AAXX  02181 28588 32984 60201 11019 21065 40311 52016 86050 333 10031;EQDQ01  00002PRCP99
0112285880999992000100221004+55570+071360FM-12+012999999V0200501N003010075019N0500001N1-00141-00661103121ADDGF107991071051008001001001MD1210011+9999REMSYN060AAXX  02211 28588 42584 70503 11014 21066 40312 52001 87500;
0134285880999992000100300004+55570+071360FM-12+012999999V0200501N003019999999N0500001N1-00151-00831103221ADDAY101061AY201061GF107991999999008001999999MD1210101+9999MW1751REMSYN060AAXX  03001 28588 42584 70503 11015 21083 40322 52010 77500;
0123285880999992000100306004+55570+071360FM-12+012999999V0200501N003019999999N0400001N1-00101-00931103211ADDAA199000021GF107991071001999999071001MD1810111+9999REMSYN060AAXX  03061 28588 32982 70503 11010 21093 40321 58011 87070;
0112285880999992000100312004+55570+071360FM-12+012999999V0200901N001019999999N0400001N1+00021-01011103141ADDGF107991071001999999071001MD1810121+9999REMSYN060AAXX  03121 28588 42982 70901 10002 21101 40314 58012 87070;
0165285880999992000100318004+55570+071360FM-12+012999999V0209999C000019999999N0500001N1-00141-00901103161ADDAA199000091GF107991071001999999071001KA1999M+00051MD1810051+9999REMSYN070AAXX  03181 28588 32984 70000 11014 21090 40316 58005 87070 333 10005;EQDQ01  00002PRCP99
0128285880999992000100321004+55570+071360FM-12+012999999V0209999C000012200019N0500001N1-00201-00781103061ADDGA1001+999999999GF100991001001999999001001MD1710091+9999REMSYN060AAXX  03211 28588 42984 00000 11020 21078 40306 57009 87070;
0112285880999992000100400004+55570+071360FM-12+012999999V0209999C000019999999N0500001N1-00201-00741103021ADDGF107991071001999999071001MD1710041+9999REMSYN060AAXX  04001 28588 42984 70000 11020 21074 40302 57004 87070;
0165285880999992000100406004+55570+071360FM-12+012999999V0201801N001019999999N0400001N1+00021-00781102821ADDAA199000091GF107991071001999999071001KA1999N-00261MD1710091+9999REMSYN070AAXX  04061 28588 32982 71801 10002 21078 40282 57009 87070 333 21026;EQDQ01  00002PRCP99
0112285880999992000100412004+55570+071360FM-12+012999999V0200901N001019999999N0400001N1+00041-00921102611ADDGF108991081001999999021999MD1710081+9999REMSYN060AAXX  04121 28588 42982 80901 10004 21092 40261 57008 8802/;
0112285880999992000100421004+55570+071360FM-12+012999999V0200701N003019999999N0500001N1-00201-00951102771ADDGF107991071001999999071001MD1210081+9999REMSYN060AAXX  04211 28588 42984 70703 11020 21095 40277 52008 87070;
0112285880999992000100500004+55570+071360FM-12+012999999V0200701N003019999999N0500001N1-00341-00941102851ADDGF107991071001999999071001MD1210071+9999REMSYN060AAXX  05001 28588 42984 70703 11034 21094 40285 52007 87070;
0165285880999992000100506004+55570+071360FM-12+012999999V0200501N003019999999N0400001N1+00001-00901103131ADDAA199000091GF107991071001999999071001KA1999N-00371MD1210121+9999REMSYN070AAXX  05061 28588 32982 70503 10000 21090 40313 52012 87070 333 21037;EQDQ01  00002PRCP99
0112285880999992000100512004+55570+071360FM-12+012999999V0200501N003019999999N0500001N1+00101-00941103221ADDGF107991071001999999071001MD1210091+9999REMSYN060AAXX  05121 28588 42984 70503 10010 21094 40322 52009 87070;
0165285880999992000100518004+55570+071360FM-12+012999999V0203201N003010075019N0500001N1-00061-00781103371ADDAA199000091GF107991071051008001001001KA1999M+00121MD1210091+9999REMSYN070AAXX  05181 28588 32584 73203 11006 21078 40337 52009 87500 333 10012;EQDQ01  00002PRCP99
0112285880999992000100521004+55570+071360FM-12+012999999V0203601N001010075019N0500001N1-00141-00621103461ADDGF107991071051008001001001MD1210081+9999REMSYN060AAXX  05211 28588 42584 73601 11014 21062 40346 52008 87500;
0112285880999992000100600004+55570+071360FM-12+012999999V0203601N001019999999N0500001N1-00161-00761103461ADDGF108991081001999999021999MD1210021+9999REMSYN060AAXX  06001 28588 42984 83601 11016 21076 40346 52002 8802/;
0165285880999992000100606004+55570+071360FM-12+012999999V0209999C000019999999N0400001N1+00021-00821103451ADDAA199000091GF107991071051999999001001KA1999N-00241MD1810031+9999REMSYN070AAXX  06061 28588 32982 70000 10002 21082 40345 58003 87500 333 21024;EQDQ01  00002PRCP99
0112285880999992000100612004+55570+071360FM-12+012999999V0202901N003010075019N0400001N1+00011-01091103211ADDGF107991071051008001001001MD1710101+9999REMSYN060AAXX  06121 28588 42582 72903 10001 21109 40321 57010 87500;
0165285880999992000100618004+55570+071360FM-12+012999999V0202901N003010075019N0500001N1-00091-00701103021ADDAA199000091GF107991071051008001001001KA1999M+00091MD1710061+9999REMSYN070AAXX  06181 28588 32584 72903 11009 21070 40302 57006 87500 333 10009;EQDQ01  00002PRCP99
0131285880999992000100621004+55570+071360FM-12+012999999V0202701N003010075019N0060001N1-00111-00171102871ADDGF108991999071008001021999MD1710161+9999REMSYN060AAXX  06211 28588 41556 82703 11011 21017 40287 57016 8872/;EQDQ01+000082SCOTLC
0159285880999992000100700004+55570+071360FM-12+012999999V0203401N003010075019N0060001N1-00071-00201102851ADDAY171061AY221061GF108991999071008001021999MD1710011+9999MW1711REMSYN066AAXX  07001 28588 41556 83403 11007 21020 40285 57001 77172 8872/;EQDQ01+000082SCOTLC
0176285880999992000100706004+55570+071360FM-12+012999999V0203401N007010075019N0060001N1+00101-00461103101ADDAA100000791AY171061AY221061GF108991999071008001021999MD1210191+9999MW1711REMSYN072AAXX  07061 28588 11556 83407 10010 21046 40310 52019 69900 77172 8872/;EQDQ01+000082SCOTLC
0140285880999992000100712004+55570+071360FM-12+012999999V0203601N005019999999N0400001N1+00071-00841103411ADDAY171061AY221061GF106991061001999999031001MD1210221+9999MW1021REMSYN066AAXX  07121 28588 41982 63605 10007 21084 40341 52022 70272 86030;
0162285880999992000100718004+55570+071360FM-12+012999999V0203601N001012200019N0500001N1-00561-00821103621ADDAA100000791GA1001+999999999GF100991001001999999001001KA1999M+00181MD1210011+9999REMSYN070AAXX  07181 28588 12984 03601 11056 21082 40362 52001 69900 333 10018;
0122285880999992000100721004+55570+071360FM-12+012999999V0202301N003012200019N0500001N1-00811-00811103651ADDGA1001+999999999GF100991001001999999001001MD1210021+9999REMSYN054AAXX  07211 28588 42984 02303 11081 21081 40365 52002;
0112285880999992000100800004+55570+071360FM-12+012999999V0209999C000019999999N0500001N1-00581-00691103591ADDGF108991081001999999021999MD1810041+9999REMSYN060AAXX  08001 28588 42984 80000 11058 21069 40359 58004 8802/;
0165285880999992000100806004+55570+071360FM-12+012999999V0202701N003019999999N0400001N1+00061-00671103571ADDAA199000091GF106991061001999999051001KA1999N-00931MD1410001+9999REMSYN070AAXX  08061 28588 32982 62703 10006 21067 40357 54000 86050 333 21093;EQDQ01  00002PRCP99
0112285880999992000100812004+55570+071360FM-12+012999999V0202301N003012200019N0400001N1+00521-00851103321ADDGF102991001001999999001011MD1410001+9999REMSYN060AAXX  08121 28588 42982 22303 10052 21085 40332 54000 80001;
0122285880999992000100821004+55570+071360FM-12+012999999V0202501N003012200019N0500001N1+00041-00321102911ADDGA1001+999999999GF100991001001999999001001MD1710121+9999REMSYN054AAXX  08211 28588 42984 02503 10004 21032 40291 57012;
0122285880999992000100900004+55570+071360FM-12+012999999V0202301N001012200019N0500001N1-00041-00411102861ADDGA1001+999999999GF100991001001999999001001MD1710051+9999REMSYN054AAXX  09001 28588 42984 02301 11004 21041 40286 57005;
0165285880999992000100906004+55570+071360FM-12+012999999V0202301N003019999999N0300001N1+00411-00271102811ADDAA199000091GF107991071001999999071001KA1999N-00081MD1810041+9999REMSYN070AAXX  09061 28588 32980 72303 10041 21027 40281 58004 87070 333 21008;EQDQ01  00002PRCP99
0159285880999992000100912004+55570+071360FM-12+012999999V0201801N001010075019N0060001N1+00391+00341102881ADDAY161061AY221061GF108991999071008001021999MD1210021+9999MW1611REMSYN066AAXX  09121 28588 41556 81801 10039 20034 40288 52002 76162 8872/;EQDQ01+000082SCOTLC
0163285880999992000100918004+55570+071360FM-12+012999999V0202301N001019999999N0060001N1+00411+00411102961ADDAY161061AY221061GF108991081001999999021999KA1999M+00541MD1210051+9999MW1611REMSYN076AAXX  09181 28588 11956 82301 10041 20041 40296 52005 76162 8802/ 333 10054;
0140285880999992000100921004+55570+071360FM-12+012999999V0209999C000010075019N0220001N1+00401+00401103081ADDAY161031AY221031GF108991081001008001021999MD1210121+9999MW1021REMSYN066AAXX  09211 28588 41572 80000 10040 20040 40308 52012 70262 8802/;
0159285880999992000101000004+55570+071360FM-12+012999999V0209999C000010075019N0270001N1+00391+00391103081ADDAY161061AY221061GF108991999071008001021999MD1410001+9999MW1021REMSYN066AAXX  10001 28588 41577 80000 10039 20039 40308 54000 70262 8872/;EQDQ01+000082SCOTLC
0199285880999992000101006004+55570+071360FM-12+012999999V0201601N001010075019N0070001N1+00431+00431103211ADDAA100001091AY141061AY221061GF108991999071008001021999KA1999N+00341MD1210121+9999MW1101REMSYN082AAXX  10061 28588 11557 81601 10043 20043 40321 52012 60010 71042 8872/ 333 20034;EQDQ01+000082SCOTLC
0159285880999992000101012004+55570+071360FM-12+012999999V0201401N001010075019N0060001N1+00501+00431103331ADDAY161061AY221061GF108991999071008001021999MD1210081+9999MW1611REMSYN066AAXX  10121 28588 41556 81401 10050 20043 40333 52008 76162 8872/;EQDQ01+000082SCOTLC
0190285880999992000101018004+55570+071360FM-12+012999999V0201401N001012200019N0080001N1+00001-00051103451ADDAA100000891AY161061AY211061GA1001+999999999GF100991001001999999001001KA1999M+00571MD1210031+9999MW1101REMSYN076AAXX  10181 28588 11958 01401 10000 21005 40345 52003 69970 71061 333 10057;
0150285880999992000101021004+55570+071360FM-12+012999999V0201401N001012200019N0090001N1-00231-00351103491ADDAY101031AY201031GA1001+999999999GF100991001001999999001001MD1210031+9999MW1101REMSYN060AAXX  10211 28588 41959 01401 11023 21035 40349 52003 71000;
0140285880999992000101100004+55570+071360FM-12+012999999V0200901N001019999999N0090001N1-00101-00201103451ADDAY111061AY211061GF106991061001999999051001MD1810031+9999MW1101REMSYN066AAXX  11001 28588 41959 60901 11010 21020 40345 58003 71011 86050;
0165285880999992000101106004+55570+071360FM-12+012999999V0200901N003012200019N0400001N1+00441-00571103511ADDAA199000091GF102991001001999999001021KA1999N-00311MD1810011+9999REMSYN070AAXX  11061 28588 32982 20903 10044 21057 40351 58001 80002 333 21031;EQDQ01  00002PRCP99
0112285880999992000101112004+55570+071360FM-12+012999999V0200901N005012200019N0400001N1+00541-00811103431ADDGF102991001001999999001011MD1710041+9999REMSYN060AAXX  11121 28588 42982 20905 10054 21081 40343 57004 80001;
0165285880999992000101118004+55570+071360FM-12+012999999V0200901N001012200019N0500001N1-00121-00661103391ADDAA199000091GF103991021001999999041011KA1999M+00671MD1710041+9999REMSYN070AAXX  11181 28588 32984 30901 11012 21066 40339 57004 82041 333 10067;EQDQ01  00002PRCP99
0140285880999992000101121004+55570+071360FM-12+012999999V0200901N001019999999N0090001N1-00131-00461103271ADDAY111031AY211031GF106991051001999999041021MD1710121+9999MW1101REMSYN066AAXX  11211 28588 41959 60901 11013 21046 40327 57012 71011 85042;
0140285880999992000101200004+55570+071360FM-12+012999999V0200501N003012200019N0080001N1-00191-00341103211ADDAY111061AY211061GF102991001001999999001011MD1710071+9999MW1101REMSYN066AAXX  12001 28588 41958 20503 11019 21034 40321 57007 71011 80001;
0165285880999992000101206004+55570+071360FM-12+012999999V0200601N005019999999N0350001N1+00181-00231103071ADDAA199000091GF108991081001999999021999KA1999N-00211MD1710061+9999REMSYN070AAXX  12061 28588 32981 80605 10018 21023 40307 57006 8802/ 333 21021;EQDQ01  00002PRCP99
0112285880999992000101212004+55570+071360FM-12+012999999V0200601N007019999999N0400001N1+00571-00301102821ADDGF108991081001999999021999MD1710081+9999REMSYN060AAXX  12121 28588 42982 80607 10057 21030 40282 57008 8802/;
0165285880999992000101218004+55570+071360FM-12+012999999V0200501N009019999999N0500001N1+00361-00341102831ADDAA199000091GF107991071001999999071001KA1999M+00581MD1410001+9999REMSYN070AAXX  12181 28588 32984 70509 10036 21034 40283 54000 87070 333 10058;EQDQ01  00002PRCP99
0159285880999992000101221004+55570+071360FM-12+012999999V0200501N007010075019N0060001N1+00101-00011102811ADDAY171031AY221031GF108991999071008001021999MD1810031+9999MW1711REMSYN066AAXX  12211 28588 41556 80507 10010 21001 40281 58003 77172 8872/;EQDQ01+000082SCOTLC
0140285880999992000101300004+55570+071360FM-12+012999999V0200201N007010075019N0270001N1+00041-00071102711ADDAY171061AY221061GF108991081001008001021999MD1710111+9999MW1021REMSYN066AAXX  13001 28588 41577 80207 10004 21007 40271 57011 70272 8802/;
0171285880999992000101306004+55570+071360FM-12+012999999V0200201N009010075019N0200001N1+00011-00261102631ADDAA100002091GF108991999071008001021999KA1999N-00131MD1810081+9999REMSYN076AAXX  13061 28588 12570 80209 10001 21026 40263 58008 60020 8872/ 333 21013;EQDQ01+000082SCOTLC
0112285880999992000101312004+55570+071360FM-12+012999999V0200201N012010300019N0400001N1+00171-00451102401ADDGF107991021091008001011001MD1310041+9999REMSYN060AAXX  13121 28588 42582 70212 10017 21045 40240 53004 82910;
0180285880999992000101318004+55570+071360FM-12+012999999V0200901N005010075019N0060001N1-00071-00111102191ADDAA100001091AY171061AY221061GF108991081001008001021999KA1999M+00291MD1710161+9999MW1711REMSYN082AAXX  13181 28588 11556 80905 11007 21011 40219 57016 60010 77172 8802/ 333 10029;
0140285880999992000101321004+55570+071360FM-12+012999999V0200901N005010075019N0060001N1-00101-00121101981ADDAY171031AY221031GF108991081001008001021999MD1710201+9999MW1711REMSYN066AAXX  13211 28588 41556 80905 11010 21012 40198 57020 77172 8802/;
0180285880999992000101406004+55570+071360FM-12+012999999V0200501N005010075019N0042001N1-00061-00151101611ADDAA100005191AY171061AY221061GF108991081001008001021999KA1999N-00171MD1710021+9999MW1711REMSYN082AAXX  14061 28588 11542 80505 11006 21015 40161 57002 60050 77172 8802/ 333 21017;
0140285880999992000101412004+55570+071360FM-12+012999999V0200501N003010075019N0050001N1-00011-00101101691ADDAY171061AY221061GF108991081001008001021999MD1310081+9999MW1711REMSYN066AAXX  14121 28588 41550 80503 11001 21010 40169 53008 77172 8802/;
0180285880999992000101418004+55570+071360FM-12+012999999V0200501N001010075019N0060001N1+00011-00081101771ADDAA100007191AY171061AY221061GF108991081001008001021999KA1999M+00011MD1410001+9999MW1711REMSYN082AAXX  14181 28588 11556 80501 10001 21008 40177 54000 60070 77172 8802/ 333 10001;
0140285880999992000101421004+55570+071360FM-12+012999999V0200501N001019999999N0070001N1+00011-00051101831ADDAY171031AY221031GF108991081001999999021999MD1310061+9999MW1101REMSYN066AAXX  14211 28588 41957 80501 10001 21005 40183 53006 71072 8802/;
0140285880999992000101500004+55570+071360FM-12+012999999V0200501N003019999999N0046001N1+00001-00061101891ADDAY171061AY221061GF108991081001999999021999MD1210061+9999MW1711REMSYN066AAXX  15001 28588 41946 80503 10000 21006 40189 52006 77172 8802/;
0180285880999992000101506004+55570+071360FM-12+012999999V0200501N003019999999N0070001N1+00021-00041102111ADDAA100000891AY171061AY221061GF107991071001999999071001KA1999N-00031MD1210121+9999MW1711REMSYN082AAXX  15061 28588 11957 70503 10002 21004 40211 52012 69970 77172 87070 333 21003;
0140285880999992000101512004+55570+071360FM-12+012999999V0200501N001019999999N0060001N1+00021-00041102161ADDAY171061AY221061GF108991081001999999021999MD1210031+9999MW1711REMSYN066AAXX  15121 28588 41956 80501 10002 21004 40216 52003 77172 8802/;
0180285880999992000101518004+55570+071360FM-12+012999999V0209999C000010075019N0070001N1-00051-00111102321ADDAA100001091AY171061AY221061GF108991081001008001021999KA1999M+00061MD1210051+9999MW1101REMSYN082AAXX  15181 28588 11557 80000 11005 21011 40232 52005 60010 71072 8802/ 333 10006;
0151285880999992000101521004+55570+071360FM-12+012999999V0209999C000010075019N0070001N1-00071-00131102301ADDAA199000021AY121031AY221031GF108991081001008001021999MD1810021+9999MW1101REMSYN066AAXX  15211 28588 31557 80000 11007 21013 40230 58002 71022 8802/;
0140285880999992000101600004+55570+071360FM-12+012999999V0209999C000019999999N0090001N1-00101-00141102291ADDAY121061AY221061GF108991081001999999021999MD1710011+9999MW1101REMSYN066AAXX  16001 28588 41959 80000 11010 21014 40229 57001 71022 8802/;
0180285880999992000101606004+55570+071360FM-12+012999999V02099999999999999999N0080001N1-00031-00061102321ADDAA100000791AY121061AY221061GF108991001001999999001071KA1999N-00151MD1410001+9999MW1101REMSYN082AAXX  16061 28588 11958 84501 11003 21006 40232 54000 69900 71022 80007 333 21015;
0140285880999992000101612004+55570+071360FM-12+012999999V0209999C000019999999N0090001N1+00081-00121102261ADDAY171061AY221061GF107991071001999999071001MD1310011+9999MW1101REMSYN066AAXX  16121 28588 41959 70000 10008 21012 40226 53001 71072 87070;
0180285880999992000101618004+55570+071360FM-12+012999999V0202701N001019999999N0090001N1-00041-00131102201ADDAA100000391AY171061AY221061GF108991081001999999021999KA1999M+00201MD1810111+9999MW1711REMSYN082AAXX  16181 28588 11959 82701 11004 21013 40220 58011 69930 77172 8802/ 333 10020;
0140285880999992000101621004+55570+071360FM-12+012999999V0202701N003019999999N0260001N1-00041-00101102191ADDAY171031AY221031GF108991081001999999021999MD1710011+9999MW1021REMSYN066AAXX  16211 28588 41976 82703 11004 21010 40219 57001 70272 8802/;
0140285880999992000101700004+55570+071360FM-12+012999999V0202701N003010075019N0290001N1-00081-00171102151ADDAY171061AY221061GF107991071051008001001001MD1710041+9999MW1021REMSYN066AAXX  17001 28588 41579 72703 11008 21017 40215 57004 70272 87500;
0180285880999992000101706004+55570+071360FM-12+012999999V0202701N003019999999N0047001N1-00111-00301102181ADDAA100000891AY171061AY221061GF108991081001999999021999KA1999N-00141MD1210011+9999MW1711REMSYN082AAXX  17061 28588 11947 82703 11011 21030 40218 52001 69970 77172 8802/ 333 21014;
0140285880999992000101712004+55570+071360FM-12+012999999V0202701N001010075019N0190001N1+00051-00151102431ADDAY171061AY221061GF108991081001008001021999MD1210161+9999MW1021REMSYN066AAXX  17121 28588 41569 82701 10005 21015 40243 52016 70272 8802/;
0152285880999992000101718004+55570+071360FM-12+012999999V0202701N001019999999N0500001N1+00121-00021102671ADDAA100000791GF108991081001999999021999KA1999M+00121MD1210011+9999REMSYN076AAXX  17181 28588 12984 82701 10012 21002 40267 52001 69900 8802/ 333 10012;
0112285880999992000101721004+55570+071360FM-12+012999999V0202701N003019999999N0500001N1+00081-00031102801ADDGF108991081001999999021999MD1210121+9999REMSYN060AAXX  17211 28588 42984 82703 10008 21003 40280 52012 8802/;
0112285880999992000101800004+55570+071360FM-12+012999999V0202701N003019999999N0500001N1+00041-00071102281ADDGF108991081001999999021999MD1210091+9999REMSYN060AAXX  18001 28588 42984 82703 10004 21007 40228 52009 8802/;
0165285880999992000101806004+55570+071360FM-12+012999999V0203201N001010075019N0400001N1+00111-00241103001ADDAA199000091GF107991071051008001001001KA1999N-00031MD1210061+9999REMSYN070AAXX  18061 28588 32582 73201 10011 21024 40300 52006 87500 333 21003;EQDQ01  00002PRCP99
0112285880999992000101812004+55570+071360FM-12+012999999V0203201N001010300019N0400001N1+00231-00401103031ADDGF107991041051008001051001MD1210021+9999REMSYN060AAXX  18121 28588 42582 73201 10023 21040 40303 52002 84550;
0165285880999992000101818004+55570+071360FM-12+012999999V0203201N001010075019N0500001N1+00131-00221102911ADDAA199000091GF108991081001008001021999KA1999M+00311MD1710061+9999REMSYN070AAXX  18181 28588 32584 83201 10013 21022 40291 57006 8802/ 333 10031;EQDQ01  00002PRCP99
0112285880999992000101821004+55570+071360FM-12+012999999V0203201N001010075019N0500001N1+00121-00141102791ADDGF107991071051008001001001MD1710121+9999REMSYN060AAXX  18211 28588 42584 73201 10012 21014 40279 57012 87500;
0112285880999992000101900004+55570+071360FM-12+012999999V0202701N001010075019N0500001N1+00161-00031102621ADDGF107991071051008001001001MD1710171+9999REMSYN060AAXX  19001 28588 42584 72701 10016 21003 40262 57017 87500;
0165285880999992000101906004+55570+071360FM-12+012999999V0202701N005019999999N0250001N1+00231-00201102251ADDAA199000091GF107991071001999999071001KA1999N+00091MD1710201+9999REMSYN070AAXX  19061 28588 32975 72705 10023 21020 40225 57020 87070 333 20009;EQDQ01  00002PRCP99
0122285880999992000101912004+55570+071360FM-12+012999999V0202701N012010075019N0400001N1+00171-00211101861ADDGF107991071051008001001001MD1710041+9999REMSYN070AAXX  19121 28588 42582 72712 10017 21021 40186 57004 87500 333 91112;
0199285880999992000101918004+55570+071360FM-12+012999999V0202701N007010075019N0500001N1+00161+00111101361ADDAA199000021AY161061AY221061GF108991999071008001021999KA1120M+00341MD1710271+9999MW1211REMSYN082AAXX  19181 28588 31584 82707 10016 20011 40136 57027 72162 8872/ 333 10034 91112;EQDQ01+000082SCOTLC
0140285880999992000101921004+55570+071360FM-12+012999999V0202701N007010075019N0090001N1+00171+00121101131ADDAY161031AY221031GF108991081001008001021999MD1710231+9999MW1611REMSYN066AAXX  19211 28588 41559 82707 10017 20012 40113 57023 76162 8802/;
0140285880999992000102000004+55570+071360FM-12+012999999V0202701N007010075019N0060001N1+00061+00031100911ADDAY171061AY261061GF108991081001008001021999MD1710221+9999MW1711REMSYN066AAXX  20001 28588 41556 82707 10006 20003 40091 57022 77176 8802/;
0180285880999992000102006004+55570+071360FM-12+012999999V0202701N005010075019N0350001N1+00251+00171100861ADDAA100005191AY171061AY221061GF107991071051008001001001KA1999N+00051MD1310021+9999MW1021REMSYN082AAXX  20061 28588 11581 72705 10025 20017 40086 53002 60050 70272 87500 333 20005;
0140285880999992000102012004+55570+071360FM-12+012999999V0202701N003010075019N0060001N1+00271+00241100761ADDAY161061AY221061GF108991081001008001021999MD1710091+9999MW1611REMSYN066AAXX  20121 28588 41556 82703 10027 20024 40076 57009 76162 8802/;
0186285880999992000102018004+55570+071360FM-12+012999999V0203601N012019999999N0500001N1-00451-00921101321ADDAA100002091AY171061AY261061GF106991061001999999031001KA1120M+00311MD1210491+9999MW1021REMSYN088AAXX  20181 28588 11984 63612 11045 21092 40132 52049 60020 70276 86030 333 10031 91112;
0140285880999992000102021004+55570+071360FM-12+012999999V0203601N012019999999N0060001N1-00771-01221101711ADDAY171031AY221031GF108991081001999999021999MD1210361+9999MW1711REMSYN066AAXX  20211 28588 41956 83612 11077 21122 40171 52036 77172 8802/;
0150285880999992000102100004+55570+071360FM-12+012999999V0203601N012019999999N0500001N1-01011-01541102051ADDAY171061AY221061GF106991061001999999031001MD1210031+9999MW1021REMSYN076AAXX  21001 28588 41984 63612 11101 21154 40205 52003 70272 86030 333 91112;
0152285880999992000102106004+55570+071360FM-12+012999999V0203601N012010075019N0400001N1-00971-01491102591ADDAA100000591GF106991061021008001001001KA1999N-01191MD1210181+9999REMSYN076AAXX  21061 28588 12582 63612 11097 21149 40259 52018 69940 86200 333 21119;
0122285880999992000102112004+55570+071360FM-12+012999999V0203601N007012200019N0400001N1-00701-01631102941ADDGA1001+999999999GF100991001001999999001001MD1210201+9999REMSYN054AAXX  21121 28588 42982 03607 11070 21163 40294 52020;
0175285880999992000102118004+55570+071360FM-12+012999999V0209999C000012200019N0500001N1-00921-01371103251ADDAA199000091GA1001+999999999GF100991001001999999001001KA1999M-00681MD1210151+9999REMSYN064AAXX  21181 28588 32984 00000 11092 21137 40325 52015 333 11068;EQDQ01  00002PRCP99
0122285880999992000102121004+55570+071360FM-12+012999999V0203201N001012200019N0500001N1-01001-01441103281ADDGA1001+999999999GF100991001001999999001001MD1210031+9999REMSYN054AAXX  21211 28588 42984 03201 11100 21144 40328 52003;
0122285880999992000102200004+55570+071360FM-12+012999999V0203201N003012200019N0500001N1-00921-01321103051ADDGA1001+999999999GF100991001001999999001001MD1810221+9999REMSYN054AAXX  22001 28588 42984 03203 11092 21132 40305 58022;
0174285880999992000102206004+55570+071360FM-12+012999999V0202301N005019999999N0060001N1-00301-00931102681ADDAA199000021AY171061AY221061GF108991081001999999021999KA1999N-01021MD1710061+9999MW1711REMSYN076AAXX  22061 28588 31956 82305 11030 21093 40268 57006 77172 8802/ 333 21102;
0140285880999992000102212004+55570+071360FM-12+012999999V0202301N001019999999N0060001N1-00111-00231102511ADDAY171061AY221061GF108991081001999999021999MD1710041+9999MW1711REMSYN066AAXX  22121 28588 41956 82301 11011 21023 40251 57004 77172 8802/;
0199285880999992000102218004+55570+071360FM-12+012999999V0202701N003010075019N0500001N1+00031-00051102451ADDAA100002091AY171061AY221061GF108991081001008001021999KA1999M+99999MD1810071+9999MW1021REMSYN082AAXX  22181 28588 11584 82703 10003 21005 40245 58007 60020 70272 8802/ 333 11004;EQDQ01 -00042ATMX  
0112285880999992000102221004+55570+071360FM-12+012999999V0202701N003010075019N0500001N1+00051-00121102391ADDGF108991081001008001021999MD1710051+9999REMSYN060AAXX  22211 28588 42584 82703 10005 21012 40239 57005 8802/;
0140285880999992000102300004+55570+071360FM-12+012999999V0202301N001010075019N0500001N1+00061-00141102371ADDAY171061AY221061GF108991081001008001021999MD1710021+9999MW1711REMSYN066AAXX  23001 28588 41584 82301 10006 21014 40237 57002 77172 8802/;
0180285880999992000102306004+55570+071360FM-12+012999999V0202301N003010075019N0290001N1+00181-00041102291ADDAA100000791AY171061AY221061GF105991051051008001001001KA1999N-00061MD1710031+9999MW1021REMSYN082AAXX  23061 28588 11579 52303 10018 21004 40229 57003 69900 70272 85500 333 21006;
0140285880999992000102312004+55570+071360FM-12+012999999V0202301N001019999999N0060001N1+00141-00051102161ADDAY171061AY221061GF108991081001999999021999MD1710081+9999MW1711REMSYN066AAXX  23121 28588 41956 82301 10014 21005 40216 57008 77172 8802/;
0112285880999992000102400004+55570+071360FM-12+012999999V0202301N003019999999N0500001N1-00061-00441101721ADDGF108991081001999999021999MD1710101+9999REMSYN060AAXX  24001 28588 42984 82303 11006 21044 40172 57010 8802/;
0165285880999992000102406004+55570+071360FM-12+012999999V0202001N005019999999N0400001N1+00061-00811101451ADDAA199000091GF107991071001999999051001KA1999N-00151MD1710241+9999REMSYN070AAXX  24061 28588 32982 72005 10006 21081 40145 57024 87050 333 21015;EQDQ01  00002PRCP99
0112285880999992000102412004+55570+071360FM-12+012999999V0202001N005019999999N0400001N1+00221-00881101221ADDGF106991001001999999001021MD1710011+9999REMSYN060AAXX  24121 28588 42982 62005 10022 21088 40122 57001 80002;
0175285880999992000102418004+55570+071360FM-12+012999999V0201801N003012200019N0500001N1-00231-01051101071ADDAA199000091GA1001+999999999GF100991001001999999001001KA1999M+00391MD1710121+9999REMSYN064AAXX  24181 28588 32984 01803 11023 21105 40107 57012 333 10039;EQDQ01  00002PRCP99
0112285880999992000102421004+55570+071360FM-12+012999999V0201801N005019999999N0500001N1-00161-00891100981ADDGF108991081001999999021999MD1710081+9999REMSYN060AAXX  24211 28588 42984 81805 11016 21089 40098 57008 8802/;
0140285880999992000102500004+55570+071360FM-12+012999999V0201801N003019999999N0060001N1-00201-00351100951ADDAY171061AY221061GF108991081001999999021999MD1710031+9999MW1711REMSYN066AAXX  25001 28588 41956 81803 11020 21035 40095 57003 77172 8802/;
0180285880999992000102506004+55570+071360FM-12+012999999V0201801N001019999999N0060001N1-00011-00091101031ADDAA100001091AY171061AY221061GF108991081001999999021999KA1999N-00311MD1210041+9999MW1711REMSYN082AAXX  25061 28588 11956 81801 11001 21009 40103 52004 69990 77172 8802/ 333 21031;
0140285880999992000102512004+55570+071360FM-12+012999999V0209999C000019999999N0060001N1+00051-00031101381ADDAY171061AY221061GF108991081001999999021999MD1210181+9999MW1711REMSYN066AAXX  25121 28588 41956 80000 10005 21003 40138 52018 77172 8802/;
0180285880999992000102518004+55570+071360FM-12+012999999V0202301N003019999999N0500001N1+00151+00071101771ADDAA100001091AY171061AY221061GF108991081001999999021999KA1999M+00201MD1210111+9999MW1021REMSYN082AAXX  25181 28588 11984 82303 10015 20007 40177 52011 60010 70272 8802/ 333 10020;
0140285880999992000102521004+55570+071360FM-12+012999999V0202301N003019999999N0060001N1+00081+00001101611ADDAY171031AY221031GF108991081001999999021999MD1810161+9999MW1711REMSYN066AAXX  25211 28588 41956 82303 10008 21000 40161 58016 77172 8802/;
0140285880999992000102600004+55570+071360FM-12+012999999V0202301N003019999999N0060001N1+00061+00011102191ADDAY171061AY221061GF108991081001999999021999MD1310571+9999MW1711REMSYN066AAXX  26001 28588 41956 82303 10006 20001 40219 53057 77172 8802/;
0180285880999992000102606004+55570+071360FM-12+012999999V0202701N003012200019N0400001N1+00291-00101102681ADDAA100000191AY171061AY211061GF102991021011008001001001KA1999N+00031MD1210151+9999MW1011REMSYN082AAXX  26061 28588 11582 22703 10029 21010 40268 52015 69910 70171 82100 333 20003;
0112285880999992000102612004+55570+071360FM-12+012999999V0202701N001019999999N0400001N1+00361-00411102801ADDGF106991001001999999001021MD1210041+9999REMSYN060AAXX  26121 28588 42982 62701 10036 21041 40280 52004 80002;
0165285880999992000102618004+55570+071360FM-12+012999999V0202301N003019999999N0500001N1+00211-00291102781ADDAA199000091GF107991071001999999071001KA1999M+00471MD1810051+9999REMSYN070AAXX  26181 28588 32984 72303 10021 21029 40278 58005 87070 333 10047;EQDQ01  00002PRCP99
0122285880999992000102621004+55570+071360FM-12+012999999V0202301N003012200019N0500001N1-00021-00321102701ADDGA1001+999999999GF100991001001999999001001MD1710091+9999REMSYN054AAXX  26211 28588 42984 02303 11002 21032 40270 57009;
0122285880999992000102700004+55570+071360FM-12+012999999V0202301N003012200019N0500001N1-00071-00351102511ADDGA1001+999999999GF100991001001999999001001MD1710181+9999REMSYN054AAXX  27001 28588 42984 02303 11007 21035 40251 57018;
0165285880999992000102706004+55570+071360FM-12+012999999V0201801N003019999999N0300001N1+00191-00091102441ADDAA199000091GF108991081001999999021999KA1999N-00091MD1710051+9999REMSYN070AAXX  27061 28588 32980 81803 10019 21009 40244 57005 8802/ 333 21009;EQDQ01  00002PRCP99
0112285880999992000102712004+55570+071360FM-12+012999999V0201801N003019999999N0250001N1+00451-00121102181ADDGF107991071001999999071001MD1710111+9999REMSYN060AAXX  27121 28588 42975 71803 10045 21012 40218 57011 87070;
0175285880999992000102718004+55570+071360FM-12+012999999V0201801N003012200019N0500001N1+00231-00141102021ADDAA199000091GA1001+999999999GF100991001001999999001001KA1999M+00481MD1710091+9999REMSYN064AAXX  27181 28588 32984 01803 10023 21014 40202 57009 333 10048;EQDQ01  00002PRCP99
0112285880999992000102721004+55570+071360FM-12+012999999V0201801N001019999999N0500001N1+00101-00221101921ADDGF108991081001999999021999MD1710101+9999REMSYN060AAXX  27211 28588 42984 81801 10010 21022 40192 57010 8802/;
0112285880999992000102800004+55570+071360FM-12+012999999V0201801N001019999999N0500001N1+00201+00011101881ADDGF108991081001999999021999MD1710041+9999REMSYN060AAXX  28001 28588 42984 81801 10020 20001 40188 57004 8802/;
0193285880999992000102806004+55570+071360FM-12+012999999V0202701N003010075019N0080001N1+00141+00111101901ADDAA199000091AY121061AY221061GF108991081001008001021999KA1999N+00101MD1810071+9999MW1101REMSYN076AAXX  28061 28588 31558 82703 10014 20011 40190 58007 71022 8802/ 333 20010;EQDQ01  00002PRCP99
0112285880999992000102812004+55570+071360FM-12+012999999V0202301N005010075019N0300001N1+00251+00171101951ADDGF108991081001008001021999MD1210031+9999REMSYN060AAXX  28121 28588 42580 82305 10025 20017 40195 52003 8802/;
0175285880999992000102818004+55570+071360FM-12+012999999V0202301N003012200019N0500001N1+00111-00181101841ADDAA199000091GA1001+999999999GF100991001001999999001001KA1999M+00271MD1710081+9999REMSYN064AAXX  28181 28588 32984 02303 10011 21018 40184 57008 333 10027;EQDQ01  00002PRCP99
0112285880999992000102821004+55570+071360FM-12+012999999V0202301N005019999999N0500001N1+00241+00001101761ADDGF108991081001999999021999MD1710081+9999REMSYN060AAXX  28211 28588 42984 82305 10024 21000 40176 57008 8802/;
0112285880999992000102900004+55570+071360FM-12+012999999V0202301N005019999999N0500001N1+00341-00011101621ADDGF108991081001999999021999MD1710131+9999REMSYN060AAXX  29001 28588 42984 82305 10034 21001 40162 57013 8802/;
0165285880999992000102906004+55570+071360FM-12+012999999V0202301N005019999999N0190001N1+00551+00201101421ADDAA199000091GF107991071001999999071001KA1999N+00101MD1710071+9999REMSYN070AAXX  29061 28588 32969 72305 10055 20020 40142 57007 87070 333 20010;EQDQ01  00002PRCP99
0112285880999992000102912004+55570+071360FM-12+012999999V0202301N007012200019N0400001N1+00551+00001101071ADDGF103991031051008001001001MD1710121+9999REMSYN060AAXX  29121 28588 42582 32307 10055 20000 40107 57012 83500;
0165285880999992000102918004+55570+071360FM-12+012999999V0202301N005019999999N0500001N1+00541+00301100891ADDAA199000091GF108991081001999999021999KA1999M+00781MD1710101+9999REMSYN070AAXX  29181 28588 32984 82305 10054 20030 40089 57010 8802/ 333 10078;EQDQ01  00002PRCP99
0112285880999992000102921004+55570+071360FM-12+012999999V0202301N007019999999N0500001N1+00501+00331100781ADDGF108991081001999999021999MD1710111+9999REMSYN060AAXX  29211 28588 42984 82307 10050 20033 40078 57011 8802/;
0112285880999992000103000004+55570+071360FM-12+012999999V0202301N005019999999N0500001N1+00481+00281100681ADDGF108991081001999999021999MD1710101+9999REMSYN060AAXX  30001 28588 42984 82305 10048 20028 40068 57010 8802/;
0193285880999992000103006004+55570+071360FM-12+012999999V0202301N001019999999N0050001N1+00371+00301100271ADDAA199000021AY161061AY221061GF108991081001999999021999KA1999N+99999MD1710241+9999MW1611REMSYN076AAXX  30061 28588 31950 82301 10037 20030 40027 57024 76162 8802/ 333 20043;EQDQ01 +00432ATMN  
0140285880999992000103012004+55570+071360FM-12+012999999V0203201N003019999999N0070001N1+00161-00111100041ADDAY161061AY221061GF107991071001999999071001MD1710021+9999MW1611REMSYN066AAXX  30121 28588 41957 73203 10016 21011 40004 57002 76162 87070;
0180285880999992000103018004+55570+071360FM-12+012999999V0203601N012010075019N0047001N1-00051-00111100411ADDAA100003091AY171061AY261061GF108991081071008001999999KA1999M+00441MD1210111+9999MW1711REMSYN082AAXX  30181 28588 11547 83612 11005 21011 40041 52011 60030 77176 887// 333 10044;
0150285880999992000103021004+55570+071360FM-12+012999999V0203601N012012200019N0500001N1-00281-01031100851ADDAY171031AY211031GA1001+999999999GF100991001001999999001001MD1210421+9999MW1011REMSYN060AAXX  30211 28588 41984 03612 11028 21103 40085 52042 70171;
0150285880999992000103100004+55570+071360FM-12+012999999V0203201N009012200019N0500001N1-00411-01001101301ADDAY171061AY211061GA1001+999999999GF100991001001999999001001MD1210431+9999MW1021REMSYN060AAXX  31001 28588 41984 03209 11041 21100 40130 52043 70271;
0146285880999992000103106004+55570+071360FM-12+012999999V0202301N005012200019N0400001N1-00271-00931101751ADDAA199000021GF103991021011008001001021KA1999N-00531MD1210161+9999REMSYN070AAXX  31061 28588 32582 32305 11027 21093 40175 52016 82102 333 21053;
0112285880999992000103112004+55570+071360FM-12+012999999V0202301N003019999999N0400001N1-00381-01101101721ADDGF105991001001999999001021MD1710031+9999REMSYN060AAXX  31121 28588 42982 52303 11038 21110 40172 57003 80002;
0165285880999992000103118004+55570+071360FM-12+012999999V0209999C000019999999N0500001N1-00661-00821101551ADDAA199000091GF108991081001999999021999KA1999M-00131MD1710071+9999REMSYN070AAXX  31181 28588 32984 80000 11066 21082 40155 57007 8802/ 333 11013;EQDQ01  00002PRCP99
0140285880999992000103121004+55570+071360FM-12+012999999V0209999C000019999999N0060001N1-00501-00631101481ADDAY171031AY221031GF108991081001999999021999MD1710061+9999MW1711REMSYN066AAXX  31211 28588 41956 80000 11050 21063 40148 57006 77172 8802/;
0140285880999992000110100004+55570+071360FM-12+012999999V0203201N001019999999N0060001N1-00631-00751101561ADDAY171061AY221061GF106991061001999999021001MD1310071+9999MW1711REMSYN066AAXX  01001 28588 41956 63201 11063 21075 40156 53007 77172 86020;
0152285880999992000110106004+55570+071360FM-12+012999999V0203201N007019999999N0060001N1-00501-00821101921ADDAA100000891GF107991071001999999071001KA1999N-00731MD1210211+9999REMSYN076AAXX  01061 28588 11956 73207 11050 21082 40192 52021 69970 87070 333 21073;
0140285880999992000110112004+55570+071360FM-12+012999999V0203201N007019999999N0400001N1-00761-01411102361ADDAY171061AY221061GF106991001001999999001021MD1210131+9999MW1021REMSYN066AAXX  01121 28588 41982 63207 11076 21141 40236 52013 70272 80002;
0152285880999992000110118004+55570+071360FM-12+012999999V0202301N003019999999N0500001N1-00791-01251102471ADDAA100000791GF108991001001999999001071KA1999M-00511MD1410001+9999REMSYN076AAXX  01181 28588 12984 82303 11079 21125 40247 54000 69900 80007 333 11051;
0140285880999992000110121004+55570+071360FM-12+012999999V0202301N003019999999N0060001N1-00671-01091102411ADDAY171031AY221031GF108991081001999999021999MD1810051+9999MW1711REMSYN066AAXX  01211 28588 41956 82303 11067 21109 40241 58005 77172 8802/;
0140285880999992000110200004+55570+071360FM-12+012999999V0202301N003019999999N0060001N1-00661-00901102281ADDAY171061AY221061GF108991081001999999021999MD1710131+9999MW1711REMSYN066AAXX  02001 28588 41956 82303 11066 21090 40228 57013 77172 8802/;
0180285880999992000110206004+55570+071360FM-12+012999999V0202301N001010075019N0400001N1-00431-00771102281ADDAA100000891AY171061AY221061GF105991051021008001001001KA1999N-00931MD1310071+9999MW1021REMSYN082AAXX  02061 28588 11582 52301 11043 21077 40228 53007 69980 70272 85200 333 21093;
0140285880999992000110212004+55570+071360FM-12+012999999V0202301N001019999999N0260001N1-00391-00841102211ADDAY171061AY221061GF108991081001999999021999MD1810071+9999MW1021REMSYN066AAXX  02121 28588 41976 82301 11039 21084 40221 58007 70272 8802/;
0180285880999992000110306004+55570+071360FM-12+012999999V0203201N003010075019N0350001N1-00461-00811102801ADDAA100003091AY171061AY221061GF107991071091008001001001KA1999N-00461MD1210431+9999MW1021REMSYN082AAXX  03061 28588 11581 73203 11046 21081 40280 52043 60030 70272 87900 333 21046;
0112285880999992000110312004+55570+071360FM-12+012999999V0203201N001012200019N0400001N1-00041-01091103381ADDGF103991031051008001001001MD1210321+9999REMSYN060AAXX  03121 28588 42582 33201 11004 21109 40338 52032 83500;
0147285880999992000110318004+55570+071360FM-12+012999999V0203201N001012200019N0500001N1-01311+99999999999ADDAA199000091GA1001+999999999GF100991001001999999001001REMSYN063AAXX  03181 28588 32984 03201 11131 2144 40393 52019 333 11036;EQDQ01  00002PRCP99
0152285880999992000110321004+55570+071360FM-12+012999999V0203201N001012200019N0500001N1-01681-01741104171ADDAA199000091GA1001+999999999GF100991001001999999001001MD1210211+9999REMSYN054AAXX  03211 28588 32984 03201 11168 21174 40417 52021;EQDQ01  00002PRCP99
0122285880999992000110400004+55570+071360FM-12+012999999V0209999C000012200019N0500001N1-02011-02131104301ADDGA1001+999999999GF100991001001999999001001MD1210101+9999REMSYN054AAXX  04001 28588 42984 00000 11201 21213 40430 52010;
0175285880999992000110406004+55570+071360FM-12+012999999V0200501N001012200019N0290001N1-01311-01511104451ADDAA199000091GA1001+999999999GF100991001001999999001001KA1999N-02121MD1210031+9999REMSYN064AAXX  04061 28588 32979 00501 11131 21151 40445 52003 333 21212;EQDQ01  00002PRCP99
0112285880999992000110412004+55570+071360FM-12+012999999V0201401N003019999999N0350001N1-00851-01621104461ADDGF108991001001999999001041MD1210021+9999REMSYN060AAXX  04121 28588 42981 81403 11085 21162 40446 52002 80004;
0174285880999992000110418004+55570+071360FM-12+012999999V0201401N005019999999N0060001N1-01001-01361104241ADDAA199000021AY171061AY221061GF108991081001999999021999KA1999M-00801MD1710161+9999MW1711REMSYN076AAXX  04181 28588 31956 81405 11100 21136 40424 57016 77172 8802/ 333 11080;
0140285880999992000110421004+55570+071360FM-12+012999999V0201401N007019999999N0060001N1-00961-01261104001ADDAY171031AY231031GF108991081001999999021999MD1710241+9999MW1711REMSYN066AAXX  04211 28588 41956 81407 11096 21126 40400 57024 77173 8802/;
0140285880999992000110500004+55570+071360FM-12+012999999V0201401N007010075019N0050001N1-01011-01211103781ADDAY171061AY231061GF108991081001008001021999MD1710221+9999MW1711REMSYN066AAXX  05001 28588 41550 81407 11101 21121 40378 57022 77173 8802/;
0180285880999992000110506004+55570+071360FM-12+012999999V0200901N007019999999N0060001N1-00831-01061103501ADDAA100004191AY171061AY231061GF108991081001999999021999KA1999N-01041MD1710091+9999MW1711REMSYN082AAXX  05061 28588 11956 80907 11083 21106 40350 57009 60040 77173 8802/ 333 21104;
0159285880999992000110512004+55570+071360FM-12+012999999V0200901N007010075019N0050001N1-00801-01071103701ADDAY171061AY231061GF108991999071008001021999MD1310201+9999MW1711REMSYN066AAXX  05121 28588 41550 80907 11080 21107 40370 53020 77173 8872/;EQDQ01+000082SCOTLC
0180285880999992000110518004+55570+071360FM-12+012999999V0201401N005019999999N0500001N1-01031-01391104001ADDAA100000591AY171061AY231061GF107991071001999999051001KA1999M-00771MD1210161+9999MW1021REMSYN082AAXX  05181 28588 11984 71405 11103 21139 40400 52016 69950 70273 87050 333 11077;
0122285880999992000110521004+55570+071360FM-12+012999999V0201401N003012200019N0500001N1-01621-01811104211ADDGA1001+999999999GF100991001001999999001001MD1210111+9999REMSYN054AAXX  05211 28588 42984 01403 11162 21181 40421 52011;
0122285880999992000110600004+55570+071360FM-12+012999999V0201101N003012200019N0500001N1-01761-01881104321ADDGA1001+999999999GF100991001001999999001001MD1210091+9999REMSYN054AAXX  06001 28588 42984 01103 11176 21188 40432 52009;
0122285880999992000110612004+55570+071360FM-12+012999999V0203601N001012200019N0400001N1-01671-02011104891ADDGA1001+999999999GF100991001001999999001001MD1310191+9999REMSYN054AAXX  06121 28588 42982 03601 11167 21201 40489 53019;
0175285880999992000110618004+55570+071360FM-12+012999999V0203601N001012200019N0500001N1-02001-02191105031ADDAA199000091GA1001+999999999GF100991001001999999001001KA1999M-01301MD1310131+9999REMSYN064AAXX  06181 28588 32984 03601 11200 21219 40503 53013 333 11130;EQDQ01  00002PRCP99
0122285880999992000110621004+55570+071360FM-12+012999999V0203601N001012200019N0500001N1-02171-02351105141ADDGA1001+999999999GF100991001001999999001001MD1210091+9999REMSYN054AAXX  06211 28588 42984 03601 11217 21235 40514 52009;
0122285880999992000110700004+55570+071360FM-12+012999999V0203601N001012200019N0500001N1-02291-02481105241ADDGA1001+999999999GF100991001001999999001001MD1210101+9999REMSYN054AAXX  07001 28588 42984 03601 11229 21248 40524 52010;
0175285880999992000110706004+55570+071360FM-12+012999999V0209999C000012200019N0400001N1-01941-02131105371ADDAA199000091GA1001+999999999GF100991001001999999001001KA1999N-02561MD1210061+9999REMSYN064AAXX  07061 28588 32982 00000 11194 21213 40537 52006 333 21256;EQDQ01  00002PRCP99
0112285880999992000110712004+55570+071360FM-12+012999999V0203201N001012200019N0400001N1-01611-02211105241ADDGF103991001001999999001021MD1810101+9999REMSYN060AAXX  07121 28588 42982 33201 11161 21221 40524 58010 80002;
0165285880999992000110718004+55570+071360FM-12+012999999V0203201N001012200019N0500001N1-02081-02331105221ADDAA199000091GF102991001001999999001021KA1999M-01481MD1310011+9999REMSYN070AAXX  07181 28588 32984 23201 11208 21233 40522 53001 80002 333 11148;EQDQ01  00002PRCP99
0112285880999992000110721004+55570+071360FM-12+012999999V0202301N001019999999N0500001N1-01961-02221105201ADDGF106991001001999999001021MD1810021+9999REMSYN060AAXX  07211 28588 42984 62301 11196 21222 40520 58002 80002;
0112285880999992000110800004+55570+071360FM-12+012999999V0202301N003019999999N0500001N1-02001-02231105111ADDGF105991001001999999001021MD1710091+9999REMSYN060AAXX  08001 28588 42984 52303 11200 21223 40511 57009 80002;
0175285880999992000110806004+55570+071360FM-12+012999999V0203201N003012200019N0400001N1-01491-02091104751ADDAA199000091GA1001+999999999GF100991001001999999001001KA1999N-02091MD1710141+9999REMSYN064AAXX  08061 28588 32982 03203 11149 21209 40475 57014 333 21209;EQDQ01  00002PRCP99
0112285880999992000110812004+55570+071360FM-12+012999999V0202701N003019999999N0500001N1-01191-01911104531ADDGF108991001001999999001021MD1710031+9999REMSYN060AAXX  08121 28588 42984 82703 11119 21191 40453 57003 80002;
0165285880999992000110818004+55570+071360FM-12+012999999V0202701N003012200019N0500001N1-01191-01631104441ADDAA199000091GF103991001001999999001021KA1999M-01001MD1810111+9999REMSYN070AAXX  08181 28588 32984 32703 11119 21163 40444 58011 80002 333 11100;EQDQ01  00002PRCP99
0112285880999992000110821004+55570+071360FM-12+012999999V0202701N001019999999N0500001N1-01061-01341104421ADDGF106991001001999999001021MD1410001+9999REMSYN060AAXX  08211 28588 42984 62701 11106 21134 40442 54000 80002;
0122285880999992000110900004+55570+071360FM-12+012999999V0203401N001012200019N0500001N1-00961-01221104261ADDGA1001+999999999GF100991001001999999001001MD1810161+9999REMSYN054AAXX  09001 28588 42984 03401 11096 21122 40426 58016;
0165285880999992000110906004+55570+071360FM-12+012999999V0202301N003012200019N0400001N1-00621-01111104141ADDAA199000091GF102991021001999999031001KA1999N-01211MD1710081+9999REMSYN070AAXX  09061 28588 32982 22303 11062 21111 40414 57008 82030 333 21121;EQDQ01  00002PRCP99
0112285880999992000110912004+55570+071360FM-12+012999999V0202701N003012200019N0500001N1-00631-01131104101ADDGF103991011001999999031041MD1410001+9999REMSYN060AAXX  09121 28588 42984 32703 11063 21113 40410 54000 81034;
0175285880999992000110918004+55570+071360FM-12+012999999V0202701N003012200019N0500001N1-00971-01141104191ADDAA199000091GA1001+999999999GF100991001001999999001001KA1999M-00381MD1210011+9999REMSYN064AAXX  09181 28588 32984 02703 11097 21114 40419 52001 333 11038;EQDQ01  00002PRCP99
0122285880999992000110921004+55570+071360FM-12+012999999V0209999C000012200019N0350001N1-01051-01181104171ADDGA1001+999999999GF100991001001999999001001MD1810021+9999REMSYN054AAXX  09211 28588 42981 00000 11105 21118 40417 58002;
0122285880999992000111000004+55570+071360FM-12+012999999V0202701N001012200019N0500001N1-01101-01231104091ADDGA1001+999999999GF100991001001999999001001MD1710081+9999REMSYN054AAXX  10001 28588 42984 02701 11110 21123 40409 57008;
0165285880999992000111006004+55570+071360FM-12+012999999V0202701N003012200019N0400001N1-00711-01191104051ADDAA199000091GF102991001001999999001021KA1999N-01191MD1210061+9999REMSYN070AAXX  10061 28588 32982 22703 11071 21119 40405 52006 80002 333 21119;EQDQ01  00002PRCP99
0165285880999992000111206004+55570+071360FM-12+012999999V0209999C000012200019N0400001N1-00571-01401103331ADDAA199000091GF103991001001999999001011KA1999N-01621MD1810021+9999REMSYN070AAXX  12061 28588 32982 30000 11057 21140 40333 58002 80001 333 21162;EQDQ01  00002PRCP99
0112285880999992000111212004+55570+071360FM-12+012999999V0202301N001012200019N0500001N1-00431-01881103281ADDGF103991001001999999001021MD1410001+9999REMSYN060AAXX  12121 28588 42984 32301 11043 21188 40328 54000 80002;
0150285880999992000111312004+55570+071360FM-12+012999999V0202301N001012200019N0090001N1-00601-01341103271ADDAY111061AY211061GA1001+999999999GF100991001001999999001001MD1410001+9999MW1041REMSYN060AAXX  13121 28588 41959 02301 11060 21134 40327 54000 70411;
0193285880999992000111318004+55570+071360FM-12+012999999V0209999C000019999999N0006001N1-01131-01191103371ADDAA199000091AY141061AY211061GF108991081001999999011999KA1999M-00381MD1410001+9999MW1481REMSYN076AAXX  13181 28588 31906 80000 11113 21119 40337 54000 74841 8801/ 333 11038;EQDQ01  00002PRCP99
0140285880999992000111321004+55570+071360FM-12+012999999V0201801N003019999999N0090001N1-00891-00921103331ADDAY141031AY221031GF108991081001999999011999MD1810021+9999MW1101REMSYN066AAXX  13211 28588 41959 81803 11089 21092 40333 58002 71042 8801/;
0140285880999992000111400004+55570+071360FM-12+012999999V0201801N003019999999N0090001N1-00951-00951103391ADDAY141061AY221061GF108991081001999999011999MD1310051+9999MW1101REMSYN066AAXX  14001 28588 41959 81803 11095 21095 40339 53005 71042 8801/;
0181285880999992000111406004+55570+071360FM-12+012999999V0202001N999999999999N0060001N1-00921-00921103481ADDAA199000091GF108991081001999999021999KA1999N-01301MD1210021+9999REMSYN070AAXX  14061 28588 32956 82030 11092 21092 40348 52002 8802/ 333 21130;EQDQ01  00002PRCP99Q020003003WOSPD 
0140285880999992000111412004+55570+071360FM-12+012999999V0201801N001019999999N0019001N1-00831-00831103561ADDAY121061AY221061GF108991081001999999021999MD1310081+9999MW1101REMSYN066AAXX  14121 28588 41919 81801 11083 21083 40356 53008 71022 8802/;
0193285880999992000111418004+55570+071360FM-12+012999999V0202001N001019999999N0018001N1-01051-01051103601ADDAA199000091AY121061AY221061GF108991081001999999021999KA1999M-00811MD1310031+9999MW1101REMSYN076AAXX  14181 28588 31918 82001 11105 21105 40360 53003 71022 8802/ 333 11081;EQDQ01  00002PRCP99
0140285880999992000111421004+55570+071360FM-12+012999999V0202001N001019999999N0030001N1-01101-01101103591ADDAY121031AY221031GF108991081001999999021999MD1710011+9999MW1101REMSYN066AAXX  14211 28588 41930 82001 11110 21110 40359 57001 71022 8802/;
0140285880999992000111500004+55570+071360FM-12+012999999V0209999C000019999999N0035001N1-01201-01201103561ADDAY121061AY221061GF108991081001999999011999MD1710041+9999MW1101REMSYN066AAXX  15001 28588 41935 80000 11120 21120 40356 57004 71022 8801/;
0193285880999992000111506004+55570+071360FM-12+012999999V0201401N001019999999N0270001N1-01121-01181103451ADDAA199000091AY171061AY221061GF105991001001999999001021KA1999N-01281MD1710061+9999MW1021REMSYN076AAXX  15061 28588 31977 51401 11112 21118 40345 57006 70272 80002 333 21128;EQDQ01  00002PRCP99
0140285880999992000111512004+55570+071360FM-12+012999999V0200901N001012200019N0070001N1-01271-01331103251ADDAY111061AY211061GF102991001001999999001011MD1710091+9999MW1101REMSYN066AAXX  15121 28588 41957 20901 11127 21133 40325 57009 71011 80001;
0199285880999992000111518004+55570+071360FM-12+012999999V0201401N001019999999N0090001N1-00721-00721103041ADDAA100000791AY111061AY211061GF108991081001999999021999KA1999M+99999MD1810161+9999MW1101REMSYN082AAXX  15181 28588 11959 81401 11072 21072 40304 58016 69900 71011 8802/ 333 11090;EQDQ01 -00902ATMX  
0140285880999992000111521004+55570+071360FM-12+012999999V0200901N001019999999N0070001N1-00741-00741102961ADDAY121031AY221031GF108991081001999999021999MD1710101+9999MW1101REMSYN066AAXX  15211 28588 41957 80901 11074 21074 40296 57010 71022 8802/;
0140285880999992000111600004+55570+071360FM-12+012999999V0200901N003019999999N0070001N1-00791-00811102881ADDAY121061AY221061GF108991081001999999021999MD1710081+9999MW1101REMSYN066AAXX  16001 28588 41957 80903 11079 21081 40288 57008 71022 8802/;
0165285880999992000111606004+55570+071360FM-12+012999999V0200501N001019999999N0300001N1-00981-01011102841ADDAA199000091GF106991001001999999001021KA1999N-01021MD1810061+9999REMSYN070AAXX  16061 28588 32980 60501 11098 21101 40284 58006 80002 333 21102;EQDQ01  00002PRCP99
0092285880999992000111612004+55570+071360FM-12+012999999V0200701N001019999999N0500001N1-01051-01051102811ADDGF108991081001999999021999REMSYN054AAXX  16121 28588 42984 80701 11105 21105 40281 8802/;
0193285880999992000111618004+55570+071360FM-12+012999999V0200901N001010075019N0060001N1-01171-01171102761ADDAA199000091AY111061AY211061GF107991071051008001001001KA1999M-00861MD1810061+9999MW1101REMSYN076AAXX  16181 28588 31556 70901 11117 21117 40276 58006 71011 87500 333 11086;EQDQ01  00002PRCP99
0140285880999992000111621004+55570+071360FM-12+012999999V0200901N001019999999N0070001N1-01081-01081102651ADDAY121031AY221031GF108991081001999999021999MD1710101+9999MW1101REMSYN066AAXX  16211 28588 41957 80901 11108 21108 40265 57010 71022 8802/;
0140285880999992000111700004+55570+071360FM-12+012999999V0201401N001019999999N0060001N1-00981-00981102541ADDAY121061AY221061GF108991081001999999021999MD1710101+9999MW1101REMSYN066AAXX  17001 28588 41956 81401 11098 21098 40254 57010 71022 8802/;
0174285880999992000111706004+55570+071360FM-12+012999999V0201401N005019999999N0047001N1-00851-00851102241ADDAA199000021AY171061AY221061GF108991081001999999021999KA1999N-01471MD1710171+9999MW1711REMSYN076AAXX  17061 28588 31947 81405 11085 21085 40224 57017 77172 8802/ 333 21147;
0140285880999992000111712004+55570+071360FM-12+012999999V0201401N003019999999N0060001N1-00681-00681102171ADDAY171061AY221061GF107991071001999999071001MD1310011+9999MW1711REMSYN066AAXX  17121 28588 41956 71403 11068 21068 40217 53001 77172 87070;
0180285880999992000111718004+55570+071360FM-12+012999999V0201401N003019999999N0500001N1-00731-00731102401ADDAA100002091AY171061AY221061GF108991081001999999021999KA1999M-00661MD1210031+9999MW1021REMSYN082AAXX  17181 28588 11984 81403 11073 21073 40240 52003 60020 70272 8802/ 333 11066;
0112285880999992000111721004+55570+071360FM-12+012999999V0201401N005019999999N0500001N1-00721-00721102231ADDGF108991081001999999021999MD1810171+9999REMSYN060AAXX  17211 28588 42984 81405 11072 21072 40223 58017 8802/;
0140285880999992000111800004+55570+071360FM-12+012999999V0201401N007019999999N0060001N1-00611-00611101981ADDAY171061AY231061GF108991081001999999021999MD1710241+9999MW1711REMSYN066AAXX  18001 28588 41956 81407 11061 21061 40198 57024 77173 8802/;
0180285880999992000111806004+55570+071360FM-12+012999999V0202301N007019999999N0260001N1-00111-00241101501ADDAA100002091AY171061AY231061GF107991071001999999071001KA1999N-00741MD1710201+9999MW1361REMSYN082AAXX  18061 28588 11976 72307 11011 21024 40150 57020 60020 73673 87070 333 21074;
0140285880999992000111812004+55570+071360FM-12+012999999V0202301N005010075019N0220001N1-00171-00341101421ADDAY171061AY231061GF108991081001008001021999MD1710021+9999MW1021REMSYN066AAXX  18121 28588 41572 82305 11017 21034 40142 57002 70273 8802/;
0180285880999992000111818004+55570+071360FM-12+012999999V0202301N005019999999N0060001N1-00031-00211101351ADDAA100001091AY171061AY221061GF108991081001999999021999KA1999M-00081MD1810051+9999MW1711REMSYN082AAXX  18181 28588 11956 82305 11003 21021 40135 58005 60010 77172 8802/ 333 11008;
0159285880999992000111821004+55570+071360FM-12+012999999V0202301N005010075019N0170001N1+00001-00081101381ADDAY171031AY221031GF108991999071008001021999MD1310031+9999MW1021REMSYN066AAXX  18211 28588 41567 82305 10000 21008 40138 53003 70272 8872/;EQDQ01+000082SCOTLC
0150285880999992000111900004+55570+071360FM-12+012999999V0202701N001012200019N0500001N1-00401-00741101621ADDAY171061AY221061GA1001+999999999GF100991001001999999001001MD1210201+9999MW1011REMSYN060AAXX  19001 28588 41984 02701 11040 21074 40162 52020 70172;
0180285880999992000111906004+55570+071360FM-12+012999999V0203201N001010075019N0400001N1-00321-00631101501ADDAA100000791AY171061AY221061GF107991061051008001051011KA1999N-00511MD1710081+9999MW1021REMSYN082AAXX  19061 28588 11582 73201 11032 21063 40150 57008 69900 70272 86551 333 21051;
0140285880999992000111912004+55570+071360FM-12+012999999V0200201N001019999999N0300001N1-00541-00581101501ADDAY171061AY221061GF108991081001999999021999MD1310061+9999MW1021REMSYN066AAXX  19121 28588 41980 80201 11054 21058 40150 53006 70272 8802/;
0180285880999992000111918004+55570+071360FM-12+012999999V0203601N007010075019N0060001N1-00961-01121101581ADDAA100000891AY171061AY231061GF108991081001008001021999KA1999M-00321MD1310161+9999MW1711REMSYN082AAXX  19181 28588 11556 83607 11096 21112 40158 53016 69970 77173 8802/ 333 11032;
0140285880999992000111921004+55570+071360FM-12+012999999V0203601N007010075019N0050001N1-01161-01441101731ADDAY171031AY231031GF108991081001008001021999MD1210131+9999MW1711REMSYN066AAXX  19211 28588 41550 83607 11116 21144 40173 52013 77173 8802/;
0150285880999992000112000004+55570+071360FM-12+012999999V0209999C000012200019N0160001N1-01681-01871101891ADDAY171061AY231061GA1001+999999999GF100991001001999999001001MD1210141+9999MW1011REMSYN060AAXX  20001 28588 41966 00000 11168 21187 40189 52014 70173;
0180285880999992000112006004+55570+071360FM-12+012999999V0202701N001019999999N0350001N1-01551-01741102151ADDAA100001091AY171061AY221061GF106991001001999999001021KA1999N-01961MD1210171+9999MW1021REMSYN082AAXX  20061 28588 11981 62701 11155 21174 40215 52017 60010 70272 80002 333 21196;
0112285880999992000112012004+55570+071360FM-12+012999999V0202701N001019999999N0500001N1-01881-02141102241ADDGF107991071001999999071001MD1210061+9999REMSYN060AAXX  20121 28588 42984 72701 11188 21214 40224 52006 87070;
0180285880999992000112018004+55570+071360FM-12+012999999V0202301N001019999999N0060001N1-01951-02141102161ADDAA100000791AY171061AY211061GF108991081001999999021999KA1999M-01441MD1310031+9999MW1711REMSYN082AAXX  20181 28588 11956 82301 11195 21214 40216 53003 69900 77171 8802/ 333 11144;
0140285880999992000112021004+55570+071360FM-12+012999999V0202301N001019999999N0500001N1-01901-02091102141ADDAY171031AY221031GF108991081001999999021999MD1810011+9999MW1021REMSYN066AAXX  20211 28588 41984 82301 11190 21209 40214 58001 70272 8802/;
0140285880999992000112100004+55570+071360FM-12+012999999V0203601N001019999999N0060001N1-01941-02131102201ADDAY171061AY221061GF108991081001999999021999MD1310041+9999MW1711REMSYN066AAXX  21001 28588 41956 83601 11194 21213 40220 53004 77172 8802/;
0190285880999992000112106004+55570+071360FM-12+012999999V0203401N001012200019N0400001N1-01991-02251102411ADDAA100000591AY171061AY211061GA1001+999999999GF100991001001999999001001KA1999N-02041MD1210121+9999MW1011REMSYN076AAXX  21061 28588 11982 03401 11199 21225 40241 52012 69950 70171 333 21204;
0112285880999992000112112004+55570+071360FM-12+012999999V0203401N001012200019N0500001N1-02211-02471102541ADDGF102991001001999999001091MD1210111+9999REMSYN060AAXX  21121 28588 42984 23401 11221 21247 40254 52011 80009;
0162285880999992000112118004+55570+071360FM-12+012999999V0203601N001012200019N0500001N1-02641-02881102671ADDAA100000791GA1001+999999999GF100991001001999999001001KA1999M-01991MD1810021+9999REMSYN070AAXX  21181 28588 32984 03601 11264 21288 40267 58002 69900 333 11199;
0122285880999992000112121004+55570+071360FM-12+012999999V0203601N001012200019N0500001N1-02721-03101102841ADDGA1001+999999999GF100991001001999999001001MD1310151+9999REMSYN054AAXX  21211 28588 42984 03601 11272 21310 40284 53015;
0122285880999992000112200004+55570+071360FM-12+012999999V0203601N001012200019N0500001N1-02611-02851102811ADDGA1001+999999999GF100991001001999999001001MD1810021+9999REMSYN054AAXX  22001 28588 42984 03601 11261 21285 40281 58002;
0203285880999992000112206004+55570+071360FM-12+012999999V0203601N001012200019N0280001N1-02381-02701103011ADDAA199000091AY171061AY211061GA1001+999999999GF100991001001999999001001KA1999N-02731MD1210141+9999MW1011REMSYN070AAXX  22061 28588 31978 03601 11238 21270 40301 52014 70171 333 21273;EQDQ01  00002PRCP99
0122285880999992000112212004+55570+071360FM-12+012999999V0203201N001012200019N0290001N1-02191-02441103161ADDGA1001+999999999GF100991001001999999001001MD1210111+9999REMSYN054AAXX  22121 28588 42979 03201 11219 21244 40316 52011;
0152285880999992000112218004+55570+071360FM-12+012999999V0202701N001012200019N0500001N1-02441-02691103341ADDAA100000791GF103991001001999999001021KA1999M-01961MD1210081+9999REMSYN076AAXX  22181 28588 12984 32701 11244 21269 40334 52008 69900 80002 333 11196;
0122285880999992000112221004+55570+071360FM-12+012999999V0202701N001012200019N0500001N1-02521-02771103391ADDGA1001+999999999GF100991001001999999001001MD1210031+9999REMSYN054AAXX  22211 28588 42984 02701 11252 21277 40339 52003;
0122285880999992000112300004+55570+071360FM-12+012999999V0202701N001012200019N0500001N1-02601-02841103411ADDGA1001+999999999GF100991001001999999001001MD1210021+9999REMSYN054AAXX  23001 28588 42984 02701 11260 21284 40341 52002;
0165285880999992000112306004+55570+071360FM-12+012999999V0202601N003012200019N0400001N1-02211-02471103321ADDAA199000091GF102991001001999999001011KA1999N-02651MD1710031+9999REMSYN070AAXX  23061 28588 32982 22603 11221 21247 40332 57003 80001 333 21265;EQDQ01  00002PRCP99
0112285880999992000112312004+55570+071360FM-12+012999999V0202301N003012200019N0300001N1-02031-02281103161ADDGF102991001001999999001011MD1710061+9999REMSYN060AAXX  23121 28588 42980 22303 11203 21228 40316 57006 80001;
0175285880999992000112318004+55570+071360FM-12+012999999V0202301N003012200019N0500001N1-02081-02331103131ADDAA199000091GA1001+999999999GF100991001001999999001001KA1999M-01851MD1710021+9999REMSYN064AAXX  23181 28588 32984 02303 11208 21233 40313 57002 333 11185;EQDQ01  00002PRCP99
0122285880999992000112321004+55570+071360FM-12+012999999V0202301N003012200019N0500001N1-02101-02351103111ADDGA1001+999999999GF100991001001999999001001MD1710021+9999REMSYN054AAXX  23211 28588 42984 02303 11210 21235 40311 57002;
0122285880999992000112400004+55570+071360FM-12+012999999V0202301N003012200019N0500001N1-02051-02301103091ADDGA1001+999999999GF100991001001999999001001MD1710021+9999REMSYN054AAXX  24001 28588 42984 02303 11205 21230 40309 57002;
0165285880999992000112406004+55570+071360FM-12+012999999V0202701N005012200019N0400001N1-01781-02111103181ADDAA199000091GF102991001001999999001021KA1999N-02121MD1310101+9999REMSYN070AAXX  24061 28588 32982 22705 11178 21211 40318 53010 80002 333 21212;EQDQ01  00002PRCP99
0112285880999992000112412004+55570+071360FM-12+012999999V0202701N007019999999N0500001N1-01661-02081102991ADDGF105991001001999999001021MD1310071+9999REMSYN060AAXX  24121 28588 42984 52707 11166 21208 40299 53007 80002;
0175285880999992000112418004+55570+071360FM-12+012999999V0202701N003012200019N0500001N1-02051-02301103091ADDAA199000091GA1001+999999999GF100991001001999999001001KA1999M-01541MD1410001+9999REMSYN064AAXX  24181 28588 32984 02703 11205 21230 40309 54000 333 11154;EQDQ01  00002PRCP99
0122285880999992000112421004+55570+071360FM-12+012999999V0202701N003012200019N0500001N1-02051-02301103111ADDGA1001+999999999GF100991001001999999001001MD1310021+9999REMSYN054AAXX  24211 28588 42984 02703 11205 21230 40311 53002;
0122285880999992000112500004+55570+071360FM-12+012999999V0202701N003012200019N0500001N1-02051-02301103091ADDGA1001+999999999GF100991001001999999001001MD1810021+9999REMSYN054AAXX  25001 28588 42984 02703 11205 21230 40309 58002;
0165285880999992000112506004+55570+071360FM-12+012999999V0202701N005012200019N0400001N1-01801-02141103151ADDAA199000091GF102991001001999999001021KA1999N-02131MD1310081+9999REMSYN070AAXX  25061 28588 32982 22705 11180 21214 40315 53008 80002 333 21213;EQDQ01  00002PRCP99
0112285880999992000112512004+55570+071360FM-12+012999999V0202701N003012200019N0500001N1-01481-01821103101ADDGF104991001001999999001021MD1310081+9999REMSYN060AAXX  25121 28588 42984 42703 11148 21182 40310 53008 80002;
0175285880999992000112518004+55570+071360FM-12+012999999V0202701N003012200019N0500001N1-01411-01841102881ADDAA199000091GA1001+999999999GF100991001001999999001001KA1999M-01431MD1710151+9999REMSYN064AAXX  25181 28588 32984 02703 11141 21184 40288 57015 333 11143;EQDQ01  00002PRCP99
0122285880999992000112521004+55570+071360FM-12+012999999V0202701N003012200019N0500001N1-01531-01871102891ADDGA1001+999999999GF100991001001999999001001MD1410001+9999REMSYN054AAXX  25211 28588 42984 02703 11153 21187 40289 54000;
0122285880999992000112600004+55570+071360FM-12+012999999V0202701N003012200019N0500001N1-01531-01871102891ADDGA1001+999999999GF100991001001999999001001MD1410001+9999REMSYN054AAXX  26001 28588 42984 02703 11153 21187 40289 54000;
0112285880999992000112612004+55570+071360FM-12+012999999V0202301N003019999999N0500001N1-01311-01831102751ADDGF106991021001999999031021MD1310011+9999REMSYN060AAXX  26121 28588 42984 62303 11131 21183 40275 53001 82032;
0175285880999992000112618004+55570+071360FM-12+012999999V0202701N003012200019N0500001N1-01781-02111102731ADDAA199000091GA1001+999999999GF100991001001999999001001KA1999M-01201MD1710041+9999REMSYN064AAXX  26181 28588 32984 02703 11178 21211 40273 57004 333 11120;EQDQ01  00002PRCP99
0122285880999992000112621004+55570+071360FM-12+012999999V0202301N003012200019N0500001N1-01821-02081102751ADDGA1001+999999999GF100991001001999999001001MD1310021+9999REMSYN054AAXX  26211 28588 42984 02303 11182 21208 40275 53002;
0131285880999992000112700004+55570+071360FM-12+012999999V0202301N003019999999N0500001N1-01721-01981102751ADDGF105991999001999999051001MD1410001+9999REMSYN060AAXX  27001 28588 42984 52303 11172 21198 40275 54000 86050;EQDQ01+000062SCOTLC
0137285880999992000112706004+55570+071360FM-12+012999999V0202701N001019999999N0130001N1-01301-01651102711ADDAA199000091GF108991999999999999999999REMSYN069AAXX  27061 28588 32963 82701 11130 21165 40271 5802 8802/ 333 21184;EQDQ01  00002PRCP99
0112285880999992000112712004+55570+071360FM-12+012999999V0202701N003019999999N0170001N1-01101-01461102591ADDGF108991081001999999021999MD1710071+9999REMSYN060AAXX  27121 28588 42967 82703 11110 21146 40259 57007 8802/;
0175285880999992000112718004+55570+071360FM-12+012999999V0202701N003012200019N0500001N1-01641-02061102351ADDAA199000091GA1001+999999999GF100991001001999999001001KA1999M-01091MD1710181+9999REMSYN064AAXX  27181 28588 32984 02703 11164 21206 40235 57018 333 11109;EQDQ01  00002PRCP99
0112285880999992000112721004+55570+071360FM-12+012999999V0202701N003019999999N0280001N1-01581-01711102031ADDGF106991001001999999001021MD1710311+9999REMSYN060AAXX  27211 28588 42978 62703 11158 21171 40203 57031 80002;
0122285880999992000112800004+55570+071360FM-12+012999999V0202301N003012200019N0500001N1-01591-01781101781ADDGA1001+999999999GF100991001001999999001001MD1710251+9999REMSYN054AAXX  28001 28588 42984 02303 11159 21178 40178 57025;
0165285880999992000112806004+55570+071360FM-12+012999999V0202901N003010075019N0300001N1-00951-01531101171ADDAA199000091GF107991071051008001001001KA1999N-01651MD1710301+9999REMSYN070AAXX  28061 28588 32580 72903 11095 21153 40117 57030 87500 333 21165;EQDQ01  00002PRCP99
0112285880999992000112812004+55570+071360FM-12+012999999V0202701N003010075019N0500001N1-00821-01571100821ADDGF107991071051008001001001MD1710051+9999REMSYN060AAXX  28121 28588 42584 72703 11082 21157 40082 57005 87500;
0180285880999992000112818004+55570+071360FM-12+012999999V0202701N003010075019N0500001N1-00791-01101100781ADDAA100000791AY171061AY221061GF108991081001008001021999KA1999M-00661MD1310011+9999MW1021REMSYN082AAXX  28181 28588 11584 82703 11079 21110 40078 53001 69900 70272 8802/ 333 11066;
0140285880999992000112821004+55570+071360FM-12+012999999V0203201N003010075019N0060001N1-00771-01031100801ADDAY171031AY221031GF108991081001008001021999MD1210021+9999MW1711REMSYN066AAXX  28211 28588 41556 83203 11077 21103 40080 52002 77172 8802/;
0140285880999992000112900004+55570+071360FM-12+012999999V0202301N003010075019N0060001N1-00801-01021100861ADDAY171061AY221061GF108991081001008001021999MD1210061+9999MW1711REMSYN066AAXX  29001 28588 41556 82303 11080 21102 40086 52006 77172 8802/;
0199285880999992000112906004+55570+071360FM-12+012999999V0203201N009019999999N0350001N1-01651-02071101641ADDAA100000791AY171061AY231061GF108991081001999999021999KA1999N+99999MD1210461+9999MW1361REMSYN082AAXX  29061 28588 11981 83209 11165 21207 40164 52046 69900 73673 8802/ 333 21107;EQDQ01 -01072ATMN  
0150285880999992000112912004+55570+071360FM-12+012999999V0203201N007012200019N0500001N1-02161-02561102371ADDAY131061AY211061GA1001+999999999GF100991001001999999001001MD1210341+9999MW1361REMSYN060AAXX  29121 28588 41984 03207 11216 21256 40237 52034 73631;
0190285880999992000112918004+55570+071360FM-12+012999999V0202301N003012200019N0500001N1-02521-02841103011ADDAA100000791AY131061AY201061GA1001+999999999GF100991001001999999001001KA1999M-01071MD1210241+9999MW1021REMSYN076AAXX  29181 28588 11984 02303 11252 21284 40301 52024 69900 70230 333 11107;
0140285880999992000112921004+55570+071360FM-12+012999999V0202301N003019999999N0060001N1-02251-02571103001ADDAY171031AY211031GF108991081001999999021999MD1210021+9999MW1711REMSYN066AAXX  29211 28588 41956 82303 11225 21257 40300 52002 77171 8802/;
0140285880999992000113000004+55570+071360FM-12+012999999V0202301N007019999999N0060001N1-02071-02471102761ADDAY171061AY231061GF108991081001999999021999MD1810231+9999MW1711REMSYN066AAXX  30001 28588 41956 82307 11207 21247 40276 58023 77173 8802/;
0180285880999992000113006004+55570+071360FM-12+012999999V0202001N005019999999N0060001N1-01581-01851102521ADDAA100000891AY171061AY231061GF108991081001999999011999KA1999N-02541MD1710091+9999MW1711REMSYN082AAXX  30061 28588 11956 82005 11158 21185 40252 57009 69980 77173 8801/ 333 21254;
0140285880999992000113012004+55570+071360FM-12+012999999V0202301N003019999999N0500001N1-01021-01381102541ADDAY171061AY231061GF108991081001999999021999MD1310061+9999MW1021REMSYN066AAXX  30121 28588 41984 82303 11102 21138 40254 53006 70273 8802/;
0199285880999992000113018004+55570+071360FM-12+012999999V0202301N003019999999N0500001N1-00781-00921102451ADDAA100000591AY171061AY221061GF108991081001999999021999KA1999M+99999MD1710071+9999MW1021REMSYN082AAXX  30181 28588 /1984 82303 11078 21092 40245 57007 69940 70272 8802/ 333 11093;EQDQ01 -00932ATMX  
0112285880999992000113021004+55570+071360FM-12+012999999V0202301N003019999999N0500001N1-00861-00961102351ADDGF108991081001999999021999MD1710101+9999REMSYN060AAXX  30211 28588 42984 82303 11086 21096 40235 57010 8802/;
0112285880999992000120100004+55570+071360FM-12+012999999V0202301N003019999999N0060001N1-00881-00991102281ADDGF108991081001999999021999MD1710071+9999REMSYN060AAXX  01001 28588 41956 82303 11088 21099 40228 57007 8802/;
0174285880999992000120106004+55570+071360FM-12+012999999V0202301N005019999999N0060001N1-00791-00971999999ADDAA100001091AY171061AY231061GF108991081001999999021999KA1999N-00971MD1710141+9999MW1711REMSYN076AAXX  01061 28588 11956 82305 11079 21097 57014 69990 77173 8802/ 333 21097;
0140285880999992000120112004+55570+071360FM-12+012999999V0202301N005019999999N0050001N1-00861-01051101631ADDAY171061AY231061GF108991081001999999021999MD1710171+9999MW1711REMSYN066AAXX  01121 28588 41950 82305 11086 21105 40163 57017 77173 8802/;
0180285880999992000120118004+55570+071360FM-12+012999999V0202001N005019999999N0070001N1-01021-01221101161ADDAA100001091AY171061AY231061GF108991081001999999021999KA1999M-00701MD1710201+9999MW1711REMSYN082AAXX  01181 28588 11957 82005 11102 21122 40116 57020 60010 77173 8802/ 333 11070;
0140285880999992000120200004+55570+071360FM-12+012999999V0201801N003019999999N0060001N1-01041-01171100681ADDAY171061AY231061GF108991081001999999021999MD1710191+9999MW1711REMSYN066AAXX  02001 28588 41956 81803 11104 21117 40068 57019 77173 8802/;
0180285880999992000120206004+55570+071360FM-12+012999999V0202901N003019999999N0060001N1-01041-01241100321ADDAA100001091AY171061AY221061GF108991081001999999011999KA1999N-01101MD1710061+9999MW1711REMSYN082AAXX  02061 28588 11956 82903 11104 21124 40032 57006 60010 77172 8801/ 333 21110;
0140285880999992000120212004+55570+071360FM-12+012999999V0203201N003019999999N0060001N1-01301-01501100481ADDAY171061AY211061GF106991061001999999021001MD1210121+9999MW1711REMSYN066AAXX  02121 28588 41956 63203 11130 21150 40048 52012 77171 86020;
0180285880999992000120218004+55570+071360FM-12+012999999V0202701N003019999999N0240001N1-01061-01191100901ADDAA100001091AY171061AY211061GF106991001001999999001011KA1999M-01021MD1210111+9999MW1031REMSYN082AAXX  02181 28588 11974 62703 11106 21119 40090 52011 60010 70371 80001 333 11102;
0112285880999992000120221004+55570+071360FM-12+012999999V0202701N003019999999N0210001N1-00881-01031100981ADDGF105991001001999999001021MD1210101+9999REMSYN060AAXX  02211 28588 42971 52703 11088 21103 40098 52010 80002;
0112285880999992000120300004+55570+071360FM-12+012999999V0202301N003019999999N0190001N1-00841-00991100981ADDGF108991081001999999021999MD1410001+9999REMSYN060AAXX  03001 28588 42969 82303 11084 21099 40098 54000 8802/;
0180285880999992000120306004+55570+071360FM-12+012999999V0202001N003019999999N0050001N1-00731-00861100741ADDAA100000391AY171061AY221061GF108991081001999999011999KA1999N-01181MD1710171+9999MW1711REMSYN082AAXX  03061 28588 11950 82003 11073 21086 40074 57017 69930 77172 8801/ 333 21118;
0140285880999992000120312004+55570+071360FM-12+012999999V0202301N003019999999N0050001N1-00821-01011100421ADDAY171061AY221061GF108991081001999999021999MD1710141+9999MW1711REMSYN066AAXX  03121 28588 41950 82303 11082 21101 40042 57014 77172 8802/;
0180285880999992000120318004+55570+071360FM-12+012999999V0203601N007010075019N0500001N1-02211-02611100641ADDAA100002091AY171061AY231061GF107991071051008001001001KA1999M-00731MD1310151+9999MW1361REMSYN082AAXX  03181 28588 11584 73607 11221 21261 40064 53015 60020 73673 87500 333 11073;
0140285880999992000120321004+55570+071360FM-12+012999999V0203601N007010075019N0060001N1-02441-02831100751ADDAY171031AY231031GF108991081001008001021999MD1210091+9999MW1711REMSYN066AAXX  03211 28588 41556 83607 11244 21283 40075 52009 77173 8802/;
0150285880999992000120400004+55570+071360FM-12+012999999V0203601N007012200019N0500001N1-02791-03171100981ADDAY171061AY231061GA1001+999999999GF100991001001999999001001MD1210021+9999MW1361REMSYN060AAXX  04001 28588 41984 03607 11279 21317 40098 52002 73673;
0209285880999992000120406004+55570+071360FM-12+012999999V0203201N007012200019N0400001N1-03171-03541101401ADDAA100000791AY131061AY201061GA1001+999999999GF100991001001999999001001KA1999N+99999MD1210151+9999MW1361REMSYN076AAXX  04061 28588 11982 03207 11317 21354 40140 52015 69900 73630 333 21307;EQDQ01 -03072ATMN  
0150285880999992000120412004+55570+071360FM-12+012999999V0202301N007012200019N0500001N1-03171-03611101901ADDAY131061AY201061GA1001+999999999GF100991001001999999001001MD1210271+9999MW1361REMSYN060AAXX  04121 28588 41984 02307 11317 21361 40190 52027 73630;
0203285880999992000120418004+55570+071360FM-12+012999999V0202701N003012200019N0500001N1-03391-03681102371ADDAA199000091AY131061AY201061GA1001+999999999GF100991001001999999001001KA1999M-03061MD1210241+9999MW1021REMSYN070AAXX  04181 28588 31984 02703 11339 21368 40237 52024 70230 333 11306;EQDQ01  00002PRCP99
0122285880999992000120421004+55570+071360FM-12+012999999V0202701N003012200019N0500001N1-03421-03641102451ADDGA1001+999999999GF100991001001999999001001MD1210081+9999REMSYN054AAXX  04211 28588 42984 02703 11342 21364 40245 52008;
0122285880999992000120500004+55570+071360FM-12+012999999V0202701N001012200019N0500001N1-03421-03641102451ADDGA1001+999999999GF100991001001999999001001MD1410001+9999REMSYN054AAXX  05001 28588 42984 02701 11342 21364 40245 54000;
0175285880999992000120506004+55570+071360FM-12+012999999V0209999C000012200019N0400001N1-03571-03861102691ADDAA199000091GA1001+999999999GF100991001001999999001001KA1999N-03831MD1210081+9999REMSYN064AAXX  05061 28588 32982 00000 11357 21386 40269 52008 333 21383;EQDQ01  00002PRCP99
0122285880999992000120512004+55570+071360FM-12+012999999V0200201N001012200019N0500001N1-03271-03571102791ADDGA1001+999999999GF100991001001999999001001MD1810021+9999REMSYN054AAXX  05121 28588 42984 00201 11327 21357 40279 58002;
0175285880999992000120518004+55570+071360FM-12+012999999V0200201N001012200019N0500001N1-03601-03971103171ADDAA199000091GA1001+999999999GF100991001001999999001001KA1999M-03041MD1210091+9999REMSYN064AAXX  05181 28588 32984 00201 11360 21397 40317 52009 333 11304;EQDQ01  00002PRCP99
0116285880999992000120600004+55570+071360FM-12+012999999V0200201N001012200019N0500001N1-03721-04071999999ADDGA1001+999999999GF100991001001999999001001MD1210091+9999REMSYN048AAXX  06001 28588 42984 00201 11372 21407 52009;
0165285880999992000120606004+55570+071360FM-12+012999999V0202701N001012200019N0400001N1-03371-03721103711ADDAA199000091GF103991001001999999001011KA1999N-03901MD1210031+9999REMSYN070AAXX  06061 28588 32982 32701 11337 21372 40371 52003 80001 333 21390;EQDQ01  00002PRCP99
0112285880999992000120612004+55570+071360FM-12+012999999V0202701N001012200019N0500001N1-02881-03331103691ADDGF102991001001999999001021MD1310051+9999REMSYN060AAXX  06121 28588 42984 22701 11288 21333 40369 53005 80002;
0175285880999992000120618004+55570+071360FM-12+012999999V0202701N003012200019N0500001N1-02931-03311103761ADDAA199000091GA1001+999999999GF100991001001999999001001KA1999M-02841MD1310061+9999REMSYN064AAXX  06181 28588 32984 02703 11293 21331 40376 53006 333 11284;EQDQ01  00002PRCP99
0122285880999992000120621004+55570+071360FM-12+012999999V0202701N003012200019N0500001N1-02811-03181103781ADDGA1001+999999999GF100991001001999999001001MD1210031+9999REMSYN054AAXX  06211 28588 42984 02703 11281 21318 40378 52003;
0122285880999992000120700004+55570+071360FM-12+012999999V0202701N003012200019N0500001N1-02621-03011103771ADDGA1001+999999999GF100991001001999999001001MD1410001+9999REMSYN054AAXX  07001 28588 42984 02703 11262 21301 40377 54000;
0165285880999992000120706004+55570+071360FM-12+012999999V0202701N003012200019N0400001N1-02461-02851103641ADDAA199000091GF101991001001999999001021KA1999N-02971MD1710051+9999REMSYN070AAXX  07061 28588 32982 12703 11246 21285 40364 57005 80002 333 21297;EQDQ01  00002PRCP99
0112285880999992000120712004+55570+071360FM-12+012999999V0202701N003012200019N0500001N1-02141-02621103531ADDGF102991001001999999001021MD1710091+9999REMSYN060AAXX  07121 28588 42984 22703 11214 21262 40353 57009 80002;
0175285880999992000120718004+55570+071360FM-12+012999999V0202301N003012200019N0500001N1-02331-02891103501ADDAA199000091GA1001+999999999GF100991001001999999001001KA1999M-02041MD1810041+9999REMSYN064AAXX  07181 28588 32984 02303 11233 21289 40350 58004 333 11204;EQDQ01  00002PRCP99
0112285880999992000120721004+55570+071360FM-12+012999999V0202301N005012200019N0500001N1-02201-02771103311ADDGF103991001001999999001021MD1710181+9999REMSYN060AAXX  07211 28588 42984 32305 11220 21277 40331 57018 80002;
0112285880999992000120800004+55570+071360FM-12+012999999V0202301N005019999999N0500001N1-01881-02661103191ADDGF106991001001999999001021MD1710091+9999REMSYN060AAXX  08001 28588 42984 62305 11188 21266 40319 57009 80002;
0193285880999992000120806004+55570+071360FM-12+012999999V0202301N007019999999N0400001N1-01191-02601102761ADDAA199000091AY131061AY221061GF107991001001999999001041KA1999N-02331MD1710161+9999MW1361REMSYN076AAXX  08061 28588 31982 72307 11119 21260 40276 57016 73632 80004 333 21233;EQDQ01  00002PRCP99
0140285880999992000120812004+55570+071360FM-12+012999999V0202701N007019999999N0500001N1-00821-02311102421ADDAY131061AY221061GF108991081001999999011999MD1710161+9999MW1361REMSYN066AAXX  08121 28588 41984 82707 11082 21231 40242 57016 73632 8801/;
0174285880999992000120818004+55570+071360FM-12+012999999V0202701N007019999999N0060001N1-01111-01551102491ADDAA199000021AY171061AY231061GF108991081001999999011999KA1999M-00811MD1210041+9999MW1711REMSYN076AAXX  08181 28588 31956 82707 11111 21155 40249 52004 77173 8801/ 333 11081;
0140285880999992000120821004+55570+071360FM-12+012999999V0202701N005019999999N0060001N1-01151-01681102481ADDAY171031AY231031GF108991081001999999011999MD1810021+9999MW1711REMSYN066AAXX  08211 28588 41956 82705 11115 21168 40248 58002 77173 8801/;
0140285880999992000120900004+55570+071360FM-12+012999999V0202701N003019999999N0500001N1-01121-01471102561ADDAY171061AY231061GF108991081001999999021999MD1310081+9999MW1021REMSYN066AAXX  09001 28588 41984 82703 11112 21147 40256 53008 70273 8802/;
0152285880999992000120906004+55570+071360FM-12+012999999V0202701N003019999999N0400001N1-01041-01241102231ADDAA100000191GF108991081001999999021999KA1999N-01151MD1710081+9999REMSYN076AAXX  09061 28588 12982 82703 11104 21124 40223 57008 69920 8802/ 333 21115;
0112285880999992000120912004+55570+071360FM-12+012999999V0202701N005019999999N0500001N1-00861-01241101991ADDGF108991081001999999021999MD1710151+9999REMSYN060AAXX  09121 28588 42984 82705 11086 21124 40199 57015 8802/;
0180285880999992000120918004+55570+071360FM-12+012999999V0202301N005019999999N0500001N1-00871-01461101651ADDAA100000891AY171061AY231061GF108991081001999999011999KA1999M-00831MD1710101+9999MW1361REMSYN082AAXX  09181 28588 11984 82305 11087 21146 40165 57010 69980 73673 8801/ 333 11083;
0140285880999992000120921004+55570+071360FM-12+012999999V0202301N005019999999N0060001N1-01061-01261101761ADDAY171031AY231031GF108991081001999999021999MD1310101+9999MW1711REMSYN066AAXX  09211 28588 41956 82305 11106 21126 40176 53010 77173 8802/;
0140285880999992000121000004+55570+071360FM-12+012999999V0202301N003019999999N0270001N1-01121-01321101681ADDAY171061AY231061GF108991001001999999001071MD1410001+9999MW1021REMSYN066AAXX  10001 28588 41977 82303 11112 21132 40168 54000 70273 80007;
0180285880999992000121006004+55570+071360FM-12+012999999V0202301N003019999999N0280001N1-00721-00931101781ADDAA100000591AY171061AY221061GF108991081001999999021999KA1999N-01161MD1210081+9999MW1021REMSYN082AAXX  10061 28588 11978 82303 11072 21093 40178 52008 69950 70272 8802/ 333 21116;
0140285880999992000121012004+55570+071360FM-12+012999999V0202001N003019999999N0260001N1-00641-00871102051ADDAY171061AY221061GF108991081001999999021999MD1210141+9999MW1021REMSYN066AAXX  10121 28588 41976 82003 11064 21087 40205 52014 70272 8802/;
0152285880999992000121018004+55570+071360FM-12+012999999V0202001N003019999999N0500001N1-00611-00801102371ADDAA100000791GF108991081001999999021999KA1999M-00591MD1210171+9999REMSYN076AAXX  10181 28588 12984 82003 11061 21080 40237 52017 69900 8802/ 333 11059;
0112285880999992000121021004+55570+071360FM-12+012999999V0202301N003019999999N0500001N1-00621-00811102411ADDGF108991081001999999021999MD1210041+9999REMSYN060AAXX  10211 28588 42984 82303 11062 21081 40241 52004 8802/;
0112285880999992000121100004+55570+071360FM-12+012999999V0202301N001019999999N0500001N1-00621-00811102491ADDGF108991081001999999021999MD1210081+9999REMSYN060AAXX  11001 28588 42984 82301 11062 21081 40249 52008 8802/;
0174285880999992000121106004+55570+071360FM-12+012999999V0202001N001019999999N0060001N1-00531-00671102631ADDAA199000021AY171061AY221061GF108991081001999999021999KA1999N-00631MD1210061+9999MW1711REMSYN076AAXX  11061 28588 31956 82001 11053 21067 40263 52006 77172 8802/ 333 21063;
0140285880999992000121112004+55570+071360FM-12+012999999V0202301N001019999999N0130001N1-00591-00741102721ADDAY171061AY221061GF106991031001999999071011MD1210061+9999MW1021REMSYN066AAXX  11121 28588 41963 62301 11059 21074 40272 52006 70272 83071;
0199285880999992000121118004+55570+071360FM-12+012999999V0202301N001019999999N0090001N1-00771-00871102821ADDAA100000791AY121061AY221061GF105991999001999999051001KA1999M-00481MD1810031+9999MW1101REMSYN082AAXX  11181 28588 11959 52301 11077 21087 40282 58003 69900 71022 86050 333 11048;EQDQ01+000062SCOTLC
0140285880999992000121121004+55570+071360FM-12+012999999V0202001N001019999999N0080001N1-00741-00801102741ADDAY121031AY221031GF108991081001999999021999MD1710081+9999MW1101REMSYN066AAXX  11211 28588 41958 82001 11074 21080 40274 57008 71022 8802/;
0140285880999992000121200004+55570+071360FM-12+012999999V0202301N003019999999N0070001N1-00621-00701102651ADDAY121061AY221061GF108991081001999999021999MD1710071+9999MW1101REMSYN066AAXX  12001 28588 41957 82303 11062 21070 40265 57007 71022 8802/;
0181285880999992000121206004+55570+071360FM-12+012999999V0202301N003012200019N0120001N1-00511-00721102451ADDAA199000091GA1001+999999999GF100991001001999999001001KA1999N-00911MD1710091+9999REMSYN070AAXX  12061 28588 32962 02303 11051 21072 40245 57009 8802/ 333 21091;EQDQ01  00002PRCP99
0140285880999992000121212004+55570+071360FM-12+012999999V0202301N001019999999N0060001N1-00401-00591102311ADDAY171061AY221061GF107991071001999999071001MD1710031+9999MW1711REMSYN066AAXX  12121 28588 41956 72301 11040 21059 40231 57003 77172 87070;
0180285880999992000121218004+55570+071360FM-12+012999999V0202301N001019999999N0060001N1-00451-00541102141ADDAA100000791AY171061AY221061GF108991081001999999021999KA1999M-00371MD1710091+9999MW1711REMSYN082AAXX  12181 28588 11956 82301 11045 21054 40214 57009 69900 77172 8802/ 333 11037;
0140285880999992000121221004+55570+071360FM-12+012999999V0202301N001010075019N0060001N1-00521-00621102171ADDAY171031AY221031GF108991081001008001021999MD1310031+9999MW1711REMSYN066AAXX  12211 28588 41556 82301 11052 21062 40217 53003 77172 8802/;
0140285880999992000121300004+55570+071360FM-12+012999999V0202301N001019999999N0060001N1-00631-00711102141ADDAY171061AY221061GF108991081001999999021999MD1810051+9999MW1711REMSYN066AAXX  13001 28588 41956 82301 11063 21071 40214 58005 77172 8802/;
0163285880999992000121306004+55570+071360FM-12+012999999V0202301N001019999999N0060001N1-00701-00831102151ADDAY171061AY221061GF108991081001999999021999KA1999N-00691MD1410001+9999MW1711REMSYN076AAXX  13061 28588 11956 82301 11070 21083 40215 54000 77172 8802/ 333 21069;
0140285880999992000121312004+55570+071360FM-12+012999999V0202301N001010075019N0060001N1-00751-00811102201ADDAY171061AY221061GF108991081001008001021999MD1210031+9999MW1711REMSYN066AAXX  13121 28588 41556 82301 11075 21081 40220 52003 77172 8802/;
0180285880999992000121318004+55570+071360FM-12+012999999V0201901N001019999999N0060001N1-00881-00951102121ADDAA100001091AY171061AY221061GF108991081001999999011999KA1999M-00701MD1810011+9999MW1711REMSYN082AAXX  13181 28588 11956 81901 11088 21095 40212 58001 60010 77172 8801/ 333 11070;
0140285880999992000121321004+55570+071360FM-12+012999999V0202101N002019999999N0500001N1-00941-01011102091ADDAY171031AY221031GF108991081001999999011999MD1710031+9999MW1021REMSYN066AAXX  13211 28588 41984 82102 11094 21101 40209 57003 70272 8801/;
0112285880999992000121400004+55570+071360FM-12+012999999V0202201N001010075019N0200001N1-00881-00951101991ADDGF108991081001008001021999MD1710091+9999REMSYN060AAXX  14001 28588 41570 82201 11088 21095 40199 57009 8802/;
0146285880999992000121406004+55570+071360FM-12+012999999V0202301N002019999999N0060001N1-00761-00811101991ADDAA100000191GF108991999999999999999999KA1999N-00971MD1310041+9999REMSYN070AAXX  14061 28588 11956 82302 11076 21081 40199 53004 69920 333 21097;
0140285880999992000121412004+55570+071360FM-12+012999999V0202101N002019999999N0060001N1-00941-01011101931ADDAY171061AY221061GF108991081001999999011999MD1710051+9999MW1711REMSYN066AAXX  14121 28588 41956 82102 11094 21101 40193 57005 77172 8801/;
0180285880999992000121418004+55570+071360FM-12+012999999V0201201N001019999999N0090001N1-00941-00971101851ADDAA100000191AY171061AY221061GF108991081001999999021999KA1999M-00711MD1710051+9999MW1101REMSYN082AAXX  14181 28588 11959 81201 11094 21097 40185 57005 69920 71072 8802/ 333 11071;
0140285880999992000121421004+55570+071360FM-12+012999999V0201501N003019999999N0060001N1-00981-01061101841ADDAY171031AY221031GF108991081001999999021999MD1710011+9999MW1711REMSYN066AAXX  14211 28588 41956 81503 11098 21106 40184 57001 77172 8802/;
0140285880999992000121500004+55570+071360FM-12+012999999V0201501N003019999999N0060001N1-00951-01021101711ADDAY171061AY221061GF108991081001999999021999MD1710131+9999MW1711REMSYN066AAXX  15001 28588 41956 81503 11095 21102 40171 57013 77172 8802/;
0180285880999992000121506004+55570+071360FM-12+012999999V0201701N003019999999N0110001N1-00941-01061101671ADDAA100000391AY171061AY221061GF108991081001999999011999KA1999N-00981MD1310011+9999MW1021REMSYN082AAXX  15061 28588 11961 81703 11094 21106 40167 53001 69930 70272 8801/ 333 21098;
0112285880999992000121512004+55570+071360FM-12+012999999V0201701N002019999999N0500001N1-00941-01191101521ADDGF107991071001999999071001MD1710021+9999REMSYN060AAXX  15121 28588 42984 71702 11094 21119 40152 57002 87070;
0199285880999992000121518004+55570+071360FM-12+012999999V0201901N003019999999N0060001N1-00901-01011101561ADDAA100000791AY171061AY221061GF108991081001999999021999KA1999N+99999MD1810051+9999MW1711REMSYN082AAXX  15181 28588 11956 81903 11090 21101 40156 58005 69900 77172 8802/ 333 21083;EQDQ01 -00832ATMN  
0140285880999992000121521004+55570+071360FM-12+012999999V0201901N003019999999N0500001N1-01001-01061101601ADDAY171031AY221031GF105991001001999999001021MD1310021+9999MW1021REMSYN066AAXX  15211 28588 41984 51903 11100 21106 40160 53002 70272 80002;
0140285880999992000121600004+55570+071360FM-12+012999999V0201901N003019999999N0500001N1-01261-01321101641ADDAY171061AY221061GF105991001001999999001021MD1210021+9999MW1021REMSYN066AAXX  16001 28588 41984 51903 11126 21132 40164 52002 70272 80002;
0180285880999992000121606004+55570+071360FM-12+012999999V0202101N002019999999N0060001N1-01001-01061101641ADDAA100001091AY121061AY221061GF107991071001999999071001KA1999N-01301MD1810041+9999MW1101REMSYN082AAXX  16061 28588 11956 72102 11100 21106 40164 58004 60010 71022 87070 333 21130;
0140285880999992000121612004+55570+071360FM-12+012999999V0201701N003019999999N0060001N1-00901-01011101691ADDAY171061AY221061GF108991081001999999021999MD1210011+9999MW1711REMSYN066AAXX  16121 28588 41956 81703 11090 21101 40169 52001 77172 8802/;
0180285880999992000121618004+55570+071360FM-12+012999999V0201401N002019999999N0060001N1-00801-00901101441ADDAA100000591AY171061AY221061GF108991081001999999021999KA1999M-00851MD1710111+9999MW1711REMSYN082AAXX  16181 28588 11956 81402 11080 21090 40144 57011 69950 77172 8802/ 333 11085;
0140285880999992000121621004+55570+071360FM-12+012999999V0202301N001019999999N0500001N1-00681-00761101461ADDAY171031AY221031GF107991071001999999071001MD1310031+9999MW1021REMSYN066AAXX  16211 28588 41984 72301 11068 21076 40146 53003 70272 87070;
0140285880999992000121700004+55570+071360FM-12+012999999V0202201N001019999999N0260001N1-00601-00641101491ADDAY171061AY221061GF107991071001999999071001MD1210031+9999MW1021REMSYN066AAXX  17001 28588 41976 72201 11060 21064 40149 52003 70272 87070;
0180285880999992000121706004+55570+071360FM-12+012999999V0200301N001019999999N0043001N1-00531-00561101441ADDAA100001091AY171061AY241061GF108991081001999999021999KA1999N-00871MD1310081+9999MW1711REMSYN082AAXX  17061 28588 11943 80301 11053 21056 40144 53008 60010 77174 8802/ 333 21087;
0140285880999992000121712004+55570+071360FM-12+012999999V0203601N002019999999N0150001N1-00621-00661101561ADDAY171061AY221061GF107991071001999999071001MD1310121+9999MW1221REMSYN066AAXX  17121 28588 41965 73602 11062 21066 40156 53012 72272 87070;
0180285880999992000121718004+55570+071360FM-12+012999999V0203301N001019999999N0006001N1-00951-00981101831ADDAA100001091AY141061AY221061GF108991081001999999021999KA1999M-00471MD1210091+9999MW1461REMSYN082AAXX  17181 28588 11906 83301 11095 21098 40183 52009 60010 74642 8802/ 333 11047;
0140285880999992000121721004+55570+071360FM-12+012999999V0209999C000019999999N0047001N1-01231-01361101931ADDAY141031AY221031GF108991081001999999021999MD1210081+9999MW1101REMSYN066AAXX  17211 28588 41947 80000 11123 21136 40193 52008 71042 8802/;
0140285880999992000121800004+55570+071360FM-12+012999999V0202201N001019999999N0050001N1-00921-01031101921ADDAY171061AY241061GF108991081001999999021999MD1210021+9999MW1711REMSYN066AAXX  18001 28588 41950 82201 11092 21103 40192 52002 77174 8802/;
0180285880999992000121806004+55570+071360FM-12+012999999V0200901N003010075019N0050001N1-00721-00811101771ADDAA100000891AY171061AY221061GF108991081001008001021999KA1999N-01301MD1710061+9999MW1711REMSYN082AAXX  18061 28588 11550 80903 11072 21081 40177 57006 69980 77172 8802/ 333 21130;
0140285880999992000121812004+55570+071360FM-12+012999999V0201001N003010075019N0050001N1-00631-00711101781ADDAY171061AY221061GF108991081001008001021999MD1310041+9999MW1711REMSYN066AAXX  18121 28588 41550 81003 11063 21071 40178 53004 77172 8802/;
0180285880999992000121818004+55570+071360FM-12+012999999V0201101N002010075019N0047001N1-00631-00711101631ADDAA100004191AY171061AY231061GF108991081001008001021999KA1999M-00621MD1710141+9999MW1711REMSYN082AAXX  18181 28588 11547 81102 11063 21071 40163 57014 60040 77173 8802/ 333 11062;
0140285880999992000121821004+55570+071360FM-12+012999999V0202001N002010075019N0050001N1-00641-00721101451ADDAY171031AY221031GF108991081001008001021999MD1710171+9999MW1711REMSYN066AAXX  18211 28588 41550 82002 11064 21072 40145 57017 77172 8802/;
0140285880999992000121900004+55570+071360FM-12+012999999V0202101N002010075019N0050001N1-00431-00521101321ADDAY171061AY221061GF108991081001008001021999MD1710121+9999MW1711REMSYN066AAXX  19001 28588 41550 82102 11043 21052 40132 57012 77172 8802/;
0180285880999992000121906004+55570+071360FM-12+012999999V0202101N003010075019N0060001N1-00411-00461101301ADDAA100004191AY171061AY221061GF108991081001008001021999KA1999N-00671MD1310061+9999MW1711REMSYN082AAXX  19061 28588 11556 82103 11041 21046 40130 53006 60040 77172 8802/ 333 21067;
0140285880999992000121912004+55570+071360FM-12+012999999V0202601N003010075019N0060001N1-00241-00271101241ADDAY171061AY221061GF108991081001008001021999MD1310091+9999MW1711REMSYN066AAXX  19121 28588 41556 82603 11024 21027 40124 53009 77172 8802/;
0180285880999992000121918004+55570+071360FM-12+012999999V0202801N006019999999N0500001N1-00471-01001101611ADDAA100001091AY171061AY231061GF106991061001999999031001KA1999M-00191MD1210231+9999MW1361REMSYN082AAXX  19181 28588 11984 62806 11047 21100 40161 52023 60010 73673 86030 333 11019;
0140285880999992000121921004+55570+071360FM-12+012999999V0203201N003019999999N0060001N1-00611-00961101791ADDAY171031AY231031GF108991081001999999021999MD1210171+9999MW1711REMSYN066AAXX  19211 28588 41956 83203 11061 21096 40179 52017 77173 8802/;
0140285880999992000122000004+55570+071360FM-12+012999999V0203501N003019999999N0500001N1-00851-01171102011ADDAY171061AY231061GF108991081001999999021999MD1210211+9999MW1021REMSYN066AAXX  20001 28588 41984 83503 11085 21117 40201 52021 70273 8802/;
0209285880999992000122006004+55570+071360FM-12+012999999V0203401N002012200019N0400001N1-01411-01681102541ADDAA100000791AY171061AY211061GA1001+999999999GF100991001001999999001001KA1999N+99999MD1210271+9999MW1011REMSYN076AAXX  20061 28588 11982 03402 11141 21168 40254 52027 69900 70171 333 21118;EQDQ01 -01182ATMN  
0112285880999992000122012004+55570+071360FM-12+012999999V0202501N001012200019N0500001N1-01721-01911102931ADDGF102991001001999999001011MD1210171+9999REMSYN060AAXX  20121 28588 42984 22501 11172 21191 40293 52017 80001;
0162285880999992000122018004+55570+071360FM-12+012999999V0201501N002012200019N0500001N1-02631-02801103161ADDAA100000791GA1001+999999999GF100991001001999999001001KA1999M-01161MD1210031+9999REMSYN070AAXX  20181 28588 12984 01502 11263 21280 40316 52003 69900 333 11116;
0122285880999992000122021004+55570+071360FM-12+012999999V0201601N002012200019N0500001N1-01871-02061103121ADDGA1001+999999999GF100991001001999999001001MD1210021+9999REMSYN054AAXX  20211 28588 42984 01602 11187 21206 40312 52002;
0122285880999992000122100004+55570+071360FM-12+012999999V0201501N003012200019N0500001N1-01901-02091103051ADDGA1001+999999999GF100991001001999999001001MD1810071+9999REMSYN054AAXX  21001 28588 42984 01503 11190 21209 40305 58007;
0174285880999992000122106004+55570+071360FM-12+012999999V0201201N004019999999N0044001N1-01441-01711102851ADDAA199000021AY171061AY211061GF108991081001999999021999KA1999N-02641MD1710101+9999MW1711REMSYN076AAXX  21061 28588 31944 81204 11144 21171 40285 57010 77171 8802/ 333 21264;
0140285880999992000122112004+55570+071360FM-12+012999999V0201801N003010075019N0270001N1-01231-01501102311ADDAY171061AY221061GF108991081001008001021999MD1710171+9999MW1021REMSYN066AAXX  21121 28588 41577 81803 11123 21150 40231 57017 70272 8802/;
0180285880999992000122118004+55570+071360FM-12+012999999V0202201N004010075019N0060001N1-01111-01311101871ADDAA100000791AY171061AY221061GF108991081001008001021999KA1999M-01131MD1710201+9999MW1711REMSYN082AAXX  21181 28588 11556 82204 11111 21131 40187 57020 69900 77172 8802/ 333 11113;
0140285880999992000122121004+55570+071360FM-12+012999999V0201101N003010075019N0070001N1-01061-01191101691ADDAY171031AY221031GF108991081001008001021999MD1710181+9999MW1711REMSYN066AAXX  21211 28588 41557 81103 11106 21119 40169 57018 77172 8802/;
0140285880999992000122200004+55570+071360FM-12+012999999V0203401N002010075019N0260001N1-01041-01241101811ADDAY171061AY221061GF108991081001008001021999MD1310121+9999MW1021REMSYN066AAXX  22001 28588 41576 83402 11104 21124 40181 53012 70272 8802/;
0171285880999992000122206004+55570+071360FM-12+012999999V0203101N002019999999N0120001N1-01291-01421102211ADDAA100004191GF108991001001999999001021KA1999N+99999MD1210241+9999REMSYN076AAXX  22061 28588 12962 83102 11129 21142 40221 52024 60040 80002 333 21123;EQDQ01 -01232ATMN  
0140285880999992000122212004+55570+071360FM-12+012999999V0209999C000012200019N0025001N1-01641-01771102471ADDAY101061AY201061GF102991001001999999001021MD1210091+9999MW1101REMSYN066AAXX  22121 28588 41925 20000 11164 21177 40247 52009 71000 80002;
0203285880999992000122218004+55570+071360FM-12+012999999V0201001N002012200019N0300001N1-01911-02171102331ADDAA199000091AY141061AY201061GA1001+999999999GF100991001001999999001001KA1999M-01211MD1710081+9999MW1021REMSYN070AAXX  22181 28588 31980 01002 11191 21217 40233 57008 70240 333 11121;EQDQ01  00002PRCP99
0112285880999992000122221004+55570+071360FM-12+012999999V0200901N004010075019N0210001N1-01441-01711101941ADDGF107991071051008001001001MD1710341+9999REMSYN060AAXX  22211 28588 42571 70904 11144 21171 40194 57034 87500;
0140285880999992000122300004+55570+071360FM-12+012999999V0201001N006010075019N0060001N1-01301-01501101571ADDAY171061AY231061GF108991081001008001021999MD1710351+9999MW1711REMSYN066AAXX  23001 28588 41556 81006 11130 21150 40157 57035 77173 8802/;
0180285880999992000122306004+55570+071360FM-12+012999999V0201401N004010075019N0060001N1-00871-01021101211ADDAA100000591AY171061AY231061GF108991081001008001021999KA1999N-02151MD1710091+9999MW1711REMSYN082AAXX  23061 28588 31556 81404 11087 21102 40121 57009 69960 77173 8802/ 333 21215;
0150285880999992000122312004+55570+071360FM-12+012999999V0202301N006012200019N0500001N1-00951-01531101451ADDAY171061AY231061GA1001+999999999GF100991001001999999001001MD1310221+9999MW1361REMSYN060AAXX  23121 28588 41984 02306 11095 21153 40145 53022 73673;
0180285880999992000122318004+55570+071360FM-12+012999999V0202301N003010075019N0500001N1-01261-01531101781ADDAA100000791AY131061AY211061GF105991051011008001001001KA1999M-00501MD1210131+9999MW1031REMSYN082AAXX  23181 28588 11584 52303 11126 21153 40178 52013 69900 70331 85100 333 11050;
0122285880999992000122321004+55570+071360FM-12+012999999V0202301N005012200019N0500001N1-01361-01561101861ADDGA1001+999999999GF100991001001999999001001MD1210071+9999REMSYN054AAXX  23211 28588 42984 02305 11136 21156 40186 52007;
0122285880999992000122400004+55570+071360FM-12+012999999V0202301N005012200019N0500001N1-01391-01661101931ADDGA1001+999999999GF100991001001999999001001MD1210071+9999REMSYN054AAXX  24001 28588 42984 02305 11139 21166 40193 52007;
0181285880999992000122406004+55570+071360FM-12+012999999V0202001N003012200019N0400001N1-01781-02041102311ADDAA199000091GF102991001001999999001011KA1999N+99999MD1210181+9999REMSYN070AAXX  24061 28588 32982 22003 11178 21204 40231 52018 80001 333 21169;EQDQ01  00002PRCP99Q02 -01692ATMN  
0174285880999992000122418004+55570+071360FM-12+012999999V0202301N005019999999N0060001N1-01641-01981102301ADDAA199000021AY171061AY211061GF108991081001999999021999KA1999M-01681MD1710061+9999MW1711REMSYN076AAXX  24181 28588 31956 82305 11164 21198 40230 57006 77171 8802/ 333 11168;
0150285880999992000122421004+55570+071360FM-12+012999999V0202301N007012200019N0500001N1-01401-01751102171ADDAY171031AY231031GA1001+999999999GF100991001001999999001001MD1710121+9999MW1361REMSYN060AAXX  24211 28588 41984 02307 11140 21175 40217 57012 73673;
0140285880999992000122500004+55570+071360FM-12+012999999V0202301N007019999999N0500001N1-01321-01671102111ADDAY171061AY231061GF108991081001999999021999MD1710051+9999MW1361REMSYN066AAXX  25001 28588 41984 82307 11132 21167 40211 57005 73673 8802/;
0180285880999992000122506004+55570+071360FM-12+012999999V0201801N005012200019N0300001N1-01411-01761102301ADDAA100000191AY171061AY231061GF103991021001999999041011KA1999N-01781MD1310061+9999MW1011REMSYN082AAXX  25061 28588 11980 31805 11141 21176 40230 53006 69920 70173 82041 333 21178;
0140285880999992000122512004+55570+071360FM-12+012999999V0202001N007019999999N0060001N1-01171-01521102151ADDAY171061AY231061GF108991081001999999021999MD1810111+9999MW1711REMSYN066AAXX  25121 28588 41956 82007 11117 21152 40215 58011 77173 8802/;
0180285880999992000122518004+55570+071360FM-12+012999999V0202301N003019999999N0500001N1-01131-01571102031ADDAA100000591AY171061AY231061GF108991081001999999011999KA1999M-01151MD1710081+9999MW1021REMSYN082AAXX  25181 28588 11984 82303 11113 21157 40203 57008 69940 70273 8801/ 333 11115;
0112285880999992000122521004+55570+071360FM-12+012999999V0202001N005019999999N0500001N1-01181-01621101931ADDGF108991081001999999021999MD1710101+9999REMSYN060AAXX  25211 28588 42984 82005 11118 21162 40193 57010 8802/;
0140285880999992000122600004+55570+071360FM-12+012999999V0201801N007019999999N0060001N1-01121-01561101811ADDAY171061AY231061GF108991081001999999021999MD1710121+9999MW1711REMSYN066AAXX  26001 28588 41956 81807 11112 21156 40181 57012 77173 8802/;
0180285880999992000122606004+55570+071360FM-12+012999999V0201801N007019999999N0060001N1-01001-01361101421ADDAA100000791AY171061AY231061GF108991081001999999021999KA1999N-01241MD1710171+9999MW1711REMSYN082AAXX  26061 28588 11956 81807 11100 21136 40142 57017 69900 77173 8802/ 333 21124;
0140285880999992000122612004+55570+071360FM-12+012999999V0202301N001012200019N0230001N1-01071-01351101311ADDAY171061AY231061GF103991031001999999031001MD1710011+9999MW1011REMSYN066AAXX  26121 28588 41973 32301 11107 21135 40131 57001 70173 83030;
0152285880999992000122618004+55570+071360FM-12+012999999V0202701N005010075019N0500001N1-00911-01111101631ADDAA100000591GF107991071051008001001001KA1999M-00851MD1210261+9999REMSYN076AAXX  26181 28588 12584 72705 11091 21111 40163 52026 69950 87500 333 11085;
0140285880999992000122621004+55570+071360FM-12+012999999V0202701N003010075019N0500001N1-00921-01171101811ADDAY171031AY231031GF107991071051008001001001MD1210181+9999MW1021REMSYN066AAXX  26211 28588 41584 72703 11092 21117 40181 52018 70273 87500;
0150285880999992000122700004+55570+071360FM-12+012999999V0202301N005012200019N0500001N1-01421-01621102141ADDAY171061AY231061GA1001+999999999GF100991001001999999001001MD1210281+9999MW1011REMSYN060AAXX  27001 28588 41984 02305 11142 21162 40214 52028 70173;
0140285880999992000122712004+55570+071360FM-12+012999999V0201401N007019999999N0060001N1-01171-01371101661ADDAY171061AY231061GF108991081001999999021999MD1710301+9999MW1711REMSYN066AAXX  27121 28588 41956 81407 11117 21137 40166 57030 77173 8802/;
0180285880999992000122718004+55570+071360FM-12+012999999V0202301N001019999999N0060001N1-01131-01411101201ADDAA100004191AY171061AY231061GF108991081001999999021999KA1999M-01081MD1710161+9999MW1711REMSYN082AAXX  27181 28588 11956 82301 11113 21141 40120 57016 60040 77173 8802/ 333 11108;
0140285880999992000122721004+55570+071360FM-12+012999999V0203601N001019999999N0060001N1-01281-01551101271ADDAY171031AY221031GF108991081001999999021999MD1310071+9999MW1711REMSYN066AAXX  27211 28588 41956 83601 11128 21155 40127 53007 77172 8802/;
0150285880999992000122800004+55570+071360FM-12+012999999V0203601N003012200019N0500001N1-01591-01861101531ADDAY171061AY211061GA1001+999999999GF100991001001999999001001MD1210241+9999MW1011REMSYN060AAXX  28001 28588 41984 03603 11159 21186 40153 52024 70171;
0181285880999992000122806004+55570+071360FM-12+012999999V0203201N003012200019N0280001N1-02091-02341102311ADDAA100002091GA1001+999999999GF100991001001999999001001KA1999N+99999MD1210331+9999REMSYN070AAXX  28061 28588 12978 03203 11209 21234 40231 52033 60020 333 21186;EQDQ01 -01862ATMN  
0112285880999992000122812004+55570+071360FM-12+012999999V0202901N001012200019N0260001N1-02341-02591102831ADDGF101991001001999999001021MD1210221+9999REMSYN060AAXX  28121 28588 42976 12901 11234 21259 40283 52022 80002;
0175285880999992000122818004+55570+071360FM-12+012999999V0209999C000012200019N0170001N1-02891-03131102991ADDAA199000091GA1001+999999999GF100991001001999999001001KA1999M-01861MD1210081+9999REMSYN064AAXX  28181 28588 32967 00000 11289 21313 40299 52008 333 11186;EQDQ01  00002PRCP99
0112285880999992000122821004+55570+071360FM-12+012999999V0209999C000012200019N0160001N1-02941-03241102951ADDGF101991001001999999001021MD1810061+9999REMSYN060AAXX  28211 28588 42966 10000 11294 21324 40295 58006 80002;
0112285880999992000122900004+55570+071360FM-12+012999999V0203201N001019999999N0220001N1-02361-02611102721ADDGF108991001001999999001021MD1710181+9999REMSYN060AAXX  29001 28588 42972 83201 11236 21261 40272 57018 80002;
0151285880999992000122906004+55570+071360FM-12+012999999V0200501N003019999999N0050001N1-01861-02191102361ADDAA199000021AY171061AY221061GF108991081001999999021999MD1710141+9999MW1711REMSYN066AAXX  29061 28588 31950 80503 11186 21219 40236 57014 77172 8802/;
0140285880999992000122912004+55570+071360FM-12+012999999V0200201N007019999999N0060001N1-01841-02101102211ADDAY171061AY231061GF108991081001999999011999MD1310091+9999MW1711REMSYN066AAXX  29121 28588 41956 80207 11184 21210 40221 53009 77173 8801/;
0190285880999992000122918004+55570+071360FM-12+012999999V0200501N003012200019N0500001N1-02471-02711102711ADDAA100002091AY171061AY231061GA1001+999999999GF100991001001999999001001KA1999M-01631MD1210251+9999MW1021REMSYN076AAXX  29181 28588 11984 00503 11247 21271 40271 52025 60020 70273 333 11163;
0122285880999992000122921004+55570+071360FM-12+012999999V0200501N003012200019N0500001N1-02691-02931102941ADDGA1001+999999999GF100991001001999999001001MD1210211+9999REMSYN054AAXX  29211 28588 41984 00503 11269 21293 40294 52021;
0122285880999992000123000004+55570+071360FM-12+012999999V0203201N003012200019N0500001N1-02881-03121103211ADDGA1001+999999999GF100991001001999999001001MD1210261+9999REMSYN054AAXX  30001 28588 42984 03203 11288 21312 40321 52026;
0165285880999992000123006004+55570+071360FM-12+012999999V0202701N003019999999N0350001N1-02711-03091103621ADDAA199000091GF105991031001999999061011KA1999N-02991MD1210211+9999REMSYN070AAXX  30061 28588 32981 52703 11271 21309 40362 52021 83061 333 21299;EQDQ01  00002PRCP99
0112285880999992000123012004+55570+071360FM-12+012999999V0201401N001012200019N0300001N1-02461-02771103741ADDGF102991001001999999001011MD1210071+9999REMSYN060AAXX  30121 28588 42980 21401 11246 21277 40374 52007 80001;
0165285880999992000123018004+55570+071360FM-12+012999999V0201601N003019999999N0500001N1-02411-02731103581ADDAA199000091GF107991071001999999071001KA1999M-02381MD1810181+9999REMSYN070AAXX  30181 28588 32984 71603 11241 21273 40358 58018 87070 333 11238;EQDQ01  00002PRCP99
0122285880999992000123021004+55570+071360FM-12+012999999V0201401N005012200019N0500001N1-02201-02521103391ADDGA1001+999999999GF100991001001999999001001MD1710181+9999REMSYN054AAXX  30211 28588 42984 01405 11220 21252 40339 57018;
0112285880999992000123100004+55570+071360FM-12+012999999V0201401N005019999999N0500001N1-02081-02411103231ADDGF108991081001999999021999MD1710141+9999REMSYN060AAXX  31001 28588 42984 81405 11208 21241 40323 57014 8802/;
0193285880999992000123106004+55570+071360FM-12+012999999V0200901N003019999999N0400001N1-02071-02471103311ADDAA199000091AY131061AY221061GF107991021001999999031021KA1999N-02441MD1310121+9999MW1021REMSYN076AAXX  31061 28588 31982 70903 11207 21247 40331 53012 70232 82032 333 21244;EQDQ01  00002PRCP99
0112285880999992000123112004+55570+071360FM-12+012999999V0200901N003019999999N0500001N1-02271-02671103421ADDGF107991071001999999051001MD1310101+9999REMSYN060AAXX  31121 28588 42984 70903 11227 21267 40342 53010 87050;
0165285880999992000123118004+55570+071360FM-12+012999999V0201101N003019999999N0500001N1-02221-02541103491ADDAA199000091GF107991071001999999071001KA1999M-01941MD1210031+9999REMSYN070AAXX  31181 28588 32984 71103 11222 21254 40349 52003 87070 333 11194;EQDQ01  00002PRCP99
0112285880999992000123121004+55570+071360FM-12+012999999V0201401N005019999999N0500001N1-02181-02431103491ADDGF107991071001999999071001MD1410001+9999REMSYN060AAXX  31211 28588 42984 71405 11218 21243 40349 54000 87070;
