0230309350999992000010100004+50370+108750FM-12+077099999V0209999C000019999999N0100001N1-02481-02661103501ADDAA112001091AJ100119199999999AY171061AY271061GF108991999999999999999999IA1239KA1120N-02771MA1999999093191MD1210241+9999MW1711REMSYN094AAXX  01001 30935 11997 80000 11248 21266 39319 40350 52024 60012 77177 333 21277 47011 55043;
0140309350999992000010103004+50370+108750FM-12+077099999V0209999C000019999999N0100001N1-02211-02401103641ADDAY171031AY271031GF108991081001999999021999MD1210231+9999MW1711REMSYN066AAXX  01031 30935 41997 80000 11221 21240 40364 52023 77177 8802/;
0140309350999992000010106004+50370+108750FM-12+077099999V0202401N001019999999N0100001N1-01891-02221103481ADDAY171061AY271061GF108991061001999999031011MD1810031+9999MW1221REMSYN066AAXX  01061 30935 41997 82401 11189 21222 40348 58003 72277 86031;
0140309350999992000010109004+50370+108750FM-12+077099999V0202701N001019999999N0100001N1-01961-02451103641ADDAY121031AY221031GF106991031001999999031011MD1310131+9999MW1151REMSYN066AAXX  01091 30935 41997 62701 11196 21245 40364 53013 71522 83031;
0173309350999992000010112004+50370+108750FM-12+077099999V0203101N001012200019N0500001N1-02491-02811103991ADDAA112000591GF102991001001999999001011KA1999M-01861MA1999999093631MD1210111+9999REMSYN082AAXX  01121 30935 12999 23101 11249 21281 39363 40399 52011 69952 80001 333 11186;
0140309350999992000010115004+50370+108750FM-12+077099999V0203201N001019999999N0100001N1-02471-02711103921ADDAY111031AY211031GF108991061001999999031011MD1810071+9999MW1151REMSYN066AAXX  01151 30935 41997 83201 11247 21271 40392 58007 71511 86031;
0112309350999992000010118004+50370+108750FM-12+077099999V0200201N001019999999N0500001N1-02771-03011103951ADDGF105991001001999999001011MD1710091+9999REMSYN060AAXX  01181 30935 42999 50201 11277 21301 40395 57009 80001;
0112309350999992000010121004+50370+108750FM-12+077099999V0209999C000012200019N0500001N1-03311-03471104111ADDGF102991001001999999001999MD1710071+9999REMSYN060AAXX  01211 30935 42999 20000 11331 21347 40411 57007 8000/;
0257309350999992000010200004+50370+108750FM-12+077099999V0209999C000012200019N0500001N1-03671+99999104261ADDAA106000091AJ100109199999999GF101991001001999999001011GJ100009IA1239KA1120N-03731MA1999999093381MD1710021+9999REMSYN116AAXX  02001 30935 32999 10000 11367 21/91 39338 40426 57002 80001 333 21373 47010 55000 555 1/141 51235 53004 7000/;EQDQ01  00002PRCP06
0122309350999992000010203004+50370+108750FM-12+077099999V0209999C000012200019N0500001N1-03471-03701104211ADDGA1001+999999999GF100991001001999999001001MD1310041+9999REMSYN054AAXX  02031 30935 42999 00000 11347 21370 40421 53004;
0122309350999992000010206004+50370+108750FM-12+077099999V0209999C000012200019N0500001N1-03041-03271103801ADDGA1001+999999999GF100991001001999999001001MD1810191+9999REMSYN054AAXX  02061 30935 42999 00000 11304 21327 40380 58019;
0112309350999992000010209004+50370+108750FM-12+077099999V0209999C000012200019N0500001N1-03031-03411103581ADDGF102991001001999999001011MD1710191+9999REMSYN060AAXX  02091 30935 42999 20000 11303 21341 40358 57019 80001;
0196309350999992000010212004+50370+108750FM-12+077099999V0209999C000012200019N0500001N1-03501-03741103791ADDAA106000091GA1001+999999999GF100991001001999999001001KA1999M-02471MA1999999093031MD1710011+9999REMSYN070AAXX  02121 30935 32999 00000 11350 21374 39303 40379 57001 333 11247;EQDQ01  00002PRCP06
0122309350999992000010215004+50370+108750FM-12+077099999V0201801N001012200019N0500001N1-03721-03951103881ADDGA1001+999999999GF100991001001999999001001MD1710011+9999REMSYN054AAXX  02151 30935 42999 01801 11372 21395 40388 57001;
0122309350999992000010218004+50370+108750FM-12+077099999V0209999C000012200019N0500001N1-03911-04171103801ADDGA1001+999999999GF100991001001999999001001MD1710161+9999REMSYN054AAXX  02181 30935 42999 00000 11391 21417 40380 57016;
0122309350999992000010221004+50370+108750FM-12+077099999V0209999C000012200019N0500001N1-04071-04321103881ADDGA1001+999999999GF100991001001999999001001MD1410001+9999REMSYN054AAXX  02211 30935 42999 00000 11407 21432 40388 54000;
0231309350999992000010300004+50370+108750FM-12+077099999V0209999C000012200019N0500001N1-04071-04321103901ADDAA106000091AJ100119199999999GA1001+999999999GF100991001001999999001001IA1239KA1120N-04071MA1999999092881MD1310021+9999REMSYN082AAXX  03001 30935 32999 00000 11407 21432 39288 40390 53002 333 21407 47011 55060;EQDQ01  00002PRCP06
0150309350999992000010303004+50370+108750FM-12+077099999V0209999C000010003019N0005001N1-03951-04221103881ADDAY141031AY211031GA1091+999999999GF109991091999999999999999MD1210041+9999MW1471REMSYN060AAXX  03031 30935 41/93 90000 11395 21422 40388 52004 74741;
0150309350999992000010306004+50370+108750FM-12+077099999V0209999C000012200019N0500001N1-03321-03621103381ADDAY141061AY211061GA1001+999999999GF100991001001999999001001MD1810181+9999MW1011REMSYN060AAXX  03061 30935 42999 00000 11332 21362 40338 58018 70141;
0112309350999992000010309004+50370+108750FM-12+077099999V0209999C000012200019N0500001N1-03211-03571103471ADDGF102991001001999999001011MD1310121+9999REMSYN060AAXX  03091 30935 42999 20000 11321 21357 40347 53012 80001;
0186309350999992000010312004+50370+108750FM-12+077099999V0209999C000012200019N0500001N1-03581-03861103691ADDAA106000091GF101991001001999999001011KA1999M-03221MA1999999092901MD1210041+9999REMSYN076AAXX  03121 30935 32999 10000 11358 21386 39290 40369 52004 80001 333 11322;EQDQ01  00002PRCP06
0112309350999992000010315004+50370+108750FM-12+077099999V0209999C000012200019N0500001N1-03811-04091103901ADDGF102991001001999999001011MD1210101+9999REMSYN060AAXX  03151 30935 42999 20000 11381 21409 40390 52010 80001;
0112309350999992000010318004+50370+108750FM-12+077099999V0209999C000012200019N0500001N1-03861-04131104031ADDGF101991001001999999001011MD1210091+9999REMSYN060AAXX  03181 30935 42999 10000 11386 21413 40403 52009 80001;
0122309350999992000010321004+50370+108750FM-12+077099999V0209999C000012200019N0500001N1-03951-04221104221ADDGA1001+999999999GF100991001001999999001001MD1210141+9999REMSYN054AAXX  03211 30935 42999 00000 11395 21422 40422 52014;
0295309350999992000010400004+50370+108750FM-12+077099999V0209999C000012200019N0100001N1-04011-04271104451ADDAA106000091AJ100119199999999AY141061AY201061GA1001+999999999GF100991001001999999001001GJ102589IA1239KA1120N-04091MA1999999093401MD1210171+9999MW1461REMSYN116AAXX  04001 30935 31997 00000 11401 21427 39340 40445 52017 74640 333 21409 47011 55043 555 1/142 51373 53002 7000/;EQDQ01  00002PRCP06
0150309350999992000010403004+50370+108750FM-12+077099999V0209999C000010003019N0005001N1-03921-04171104531ADDAY141031AY241031GA1091+999999999GF109991091999999999999999MD1210111+9999MW1451REMSYN060AAXX  04031 30935 41/93 90000 11392 21417 40453 52011 74544;
0140309350999992000010406004+50370+108750FM-12+077099999V0209999C000012200019N0100001N1-03191-03571104181ADDAY141061AY201061GF102991001001999999001011MD1410001+9999MW1031REMSYN066AAXX  04061 30935 41997 20000 11319 21357 40418 54000 70340 80001;
0112309350999992000010409004+50370+108750FM-12+077099999V0209999C000012200019N0500001N1-03191-03571104181ADDGF103991001001999999001011MD1410001+9999REMSYN060AAXX  04091 30935 42999 30000 11319 21357 40418 54000 80001;
0196309350999992000010412004+50370+108750FM-12+077099999V0209999C000012200019N0500001N1-03631-03841104531ADDAA106000091GA1001+999999999GF100991001001999999001001KA1999M-03171MA1999999093641MD1310131+9999REMSYN070AAXX  04121 30935 32999 00000 11363 21384 39364 40453 53013 333 11317;EQDQ01  00002PRCP06
0122309350999992000010415004+50370+108750FM-12+077099999V0209999C000012200019N0500001N1-03891-04171104711ADDGA1001+999999999GF100991001001999999001001MD1210051+9999REMSYN054AAXX  04151 30935 42999 00000 11389 21417 40471 52005;
0122309350999992000010418004+50370+108750FM-12+077099999V0209999C000012200019N0500001N1-04011-04271104881ADDGA1001+999999999GF100991001001999999001001MD1210091+9999REMSYN054AAXX  04181 30935 42999 00000 11401 21427 40488 52009;
0122309350999992000010421004+50370+108750FM-12+077099999V0209999C000012200019N0500001N1-03981-04271104951ADDGA1001+999999999GF100991001001999999001001MD1210071+9999REMSYN054AAXX  04211 30935 42999 00000 11398 21427 40495 52007;
0249309350999992000010500004+50370+108750FM-12+077099999V0209999C000019999999N0100001N1-03891-04171105091ADDAA106000091AJ100119199999999AY111061AY211061GF106991001001999999001011IA1239KA1120N-04021MA1999999094031MD1210181+9999MW1401REMSYN094AAXX  05001 30935 31997 60000 11389 21417 39403 40509 52018 74011 80001 333 21402 47011 55039;EQDQ01  00002PRCP06
0140309350999992000010503004+50370+108750FM-12+077099999V0209999C000019999999N0100001N1-03641-03941105021ADDAY141031AY221031GF108991001001999999001061MD1210041+9999MW1281REMSYN066AAXX  05031 30935 41997 80000 11364 21394 40502 52004 72842 80006;
0140309350999992000010506004+50370+108750FM-12+077099999V0209999C000019999999N0100001N1-03231-03461104691ADDAY171061AY241061GF108991081001999999021999MD1810121+9999MW1711REMSYN066AAXX  05061 30935 41997 80000 11323 21346 40469 58012 77174 8802/;
0140309350999992000010509004+50370+108750FM-12+077099999V0209999C000019999999N0100001N1-03041-03271104671ADDAY171031AY271031GF108991081001999999021999MD1310061+9999MW1711REMSYN066AAXX  05091 30935 41997 80000 11304 21327 40467 53006 77177 8802/;
0201309350999992000010512004+50370+108750FM-12+077099999V0209999C000019999999N0100001N1-03081-03321104711ADDAA112000191AY171061AY221061GF108991081001999999021999KA1999M-03001MA1999999094031MD1210021+9999MW1151REMSYN088AAXX  05121 30935 11997 80000 11308 21332 39403 40471 52002 69922 71572 8802/ 333 11300;
0112309350999992000010515004+50370+108750FM-12+077099999V0203001N001019999999N0500001N1-02781-03031104531ADDGF106991001001999999001011MD1810041+9999REMSYN060AAXX  05151 30935 42999 63001 11278 21303 40453 58004 80001;
0112309350999992000010518004+50370+108750FM-12+077099999V0209999C000019999999N0500001N1-02911-03751104561ADDGF105991001001999999001011MD1710031+9999REMSYN060AAXX  05181 30935 42999 50000 11291 21375 40456 57003 80001;
0112309350999992000010521004+50370+108750FM-12+077099999V0209999C000012200019N0500001N1-03041-03271104611ADDGF102991001001999999001011MD1710011+9999REMSYN060AAXX  05211 30935 42999 20000 11304 21327 40461 57001 80001;
0112309350999992000010603004+50370+108750FM-12+077099999V0202701N001012200019N0500001N1-03021-03251104561ADDGF101991999001999999001011MD1410001+9999REMSYN060AAXX  06031 30935 42999 12701 11302 21325 40456 54000 8/001;
0112309350999992000010606004+50370+108750FM-12+077099999V0202301N002012200019N0500001N1-02541-02921104131ADDGF102991001001999999001011MD1810181+9999REMSYN060AAXX  06061 30935 42999 22302 11254 21292 40413 58018 80001;
0140309350999992000010609004+50370+108750FM-12+077099999V0202901N001019999999N0100001N1-02591-02911104131ADDAY111031AY211031GF108991081001999999021999MD1710031+9999MW1151REMSYN066AAXX  06091 30935 41997 82901 11259 21291 40413 57003 71511 8802/;
0186309350999992000010612004+50370+108750FM-12+077099999V0202901N002012200019N0500001N1-03121-03421104421ADDAA106000091GF102991001001999999001011KA1999M-02511MA1999999093751MD1310041+9999REMSYN076AAXX  06121 30935 32999 22902 11312 21342 39375 40442 53004 80001 333 11251;EQDQ01  00002PRCP06
0122309350999992000010615004+50370+108750FM-12+077099999V0209999C000012200019N0500001N1-03511-03741104491ADDGA1001+999999999GF100991001001999999001001MD1810101+9999REMSYN054AAXX  06151 30935 42999 00000 11351 21374 40449 58010;
0122309350999992000010618004+50370+108750FM-12+077099999V0209999C000012200019N0500001N1-04001-04211104661ADDGA1001+999999999GF100991001001999999001001MD1710061+9999REMSYN054AAXX  06181 30935 42999 00000 11400 21421 40466 57006;
0122309350999992000010621004+50370+108750FM-12+077099999V0209999C000012200019N0500001N1-04011-04261104541ADDGA1001+999999999GF100991001001999999001001MD1710141+9999REMSYN054AAXX  06211 30935 42999 00000 11401 21426 40454 57014;
0180309350999992000010700004+50370+108750FM-12+077099999V0209999C000012200019N0100001N1-04211-04401999999ADDAA106000091AY101061AY201061GA1001+999999999GF100991001001999999001001MD1710041+9999MW1401REMSYN060AAXX  07001 30935 31997 00000 11421 2144/ 39/// 57004 74000;EQDQ01  00002PRCP06
0150309350999992000010703004+50370+108750FM-12+077099999V0209999C000010003019N0005001N1-04171-04431104531ADDAY141031AY201031GA1091+999999999GF109991091999999999999999MD1710011+9999MW1471REMSYN060AAXX  07031 30935 41/93 90000 11417 21443 40453 57001 74740;
0150309350999992000010706004+50370+108750FM-12+077099999V0200301N001012200019N0500001N1-03431-03711103941ADDAY141061AY201061GA1001+999999999GF100991001001999999001001MD1719999+9999MW1011REMSYN060AAXX  07061 30935 41999 00301 11343 21371 40394 57/20 70140;
0122309350999992000010709004+50370+108750FM-12+077099999V0200601N001012200019N0500001N1-03491-03771103871ADDGA1001+999999999GF100991001001999999001001MD1710091+9999REMSYN054AAXX  07091 30935 42999 00601 11349 21377 40387 57009;
0196309350999992000010712004+50370+108750FM-12+077099999V0200501N001012200019N0500001N1-03931-04221104051ADDAA106000091GA1001+999999999GF100991001001999999001001KA1999M-03401MA1999999093081MD1710031+9999REMSYN070AAXX  07121 30935 32999 00501 11393 21422 39308 40405 57003 333 11340;EQDQ01  00002PRCP06
0122309350999992000010715004+50370+108750FM-12+077099999V0209999C000012200019N0500001N1-04161-04431104091ADDGA1001+999999999GF100991001001999999001001MD1710071+9999REMSYN054AAXX  07151 30935 42999 00000 11416 21443 40409 57007;
0122309350999992000010718004+50370+108750FM-12+077099999V0209999C000012200019N0500001N1-04331-04611104191ADDGA1001+999999999GF100991001001999999001001MD1310021+9999REMSYN054AAXX  07181 30935 42999 00000 11433 21461 40419 53002;
0122309350999992000010721004+50370+108750FM-12+077099999V0209999C000012200019N0500001N1-04501-04761104231ADDGA1001+999999999GF100991001001999999001001MD1810051+9999REMSYN054AAXX  07211 30935 42999 00000 11450 21476 40423 58005;
0295309350999992000010800004+50370+108750FM-12+077099999V0209999C000012200019N0100001N1-04491-04761104241ADDAA106000091AJ100119199999999AY101061AY201061GA1001+999999999GF100991001001999999001001GJ102289IA1239KA1120N-04591MA1999999093001MD1310021+9999MW1401REMSYN116AAXX  08001 30935 31997 00000 11449 21476 39300 40424 53002 74000 333 21459 47011 55038 555 1/1// 51385 53003 7000/;EQDQ01  00002PRCP06
0150309350999992000010803004+50370+108750FM-12+077099999V0209999C000010003019N0005001N1-04111-04381104031ADDAY141031AY201031GA1091+999999999GF109991091999999999999999MD1810021+9999MW1471REMSYN060AAXX  08031 30935 41/93 90000 11411 21438 40403 58002 74740;
0140309350999992000010806004+50370+108750FM-12+077099999V0209999C000012200019N0500001N1-03551-03831999999ADDAY141061AY201061GF102991001001999999001011MD1210061+9999MW1031REMSYN066AAXX  08061 30935 41999 20000 11355 21383 40//9 52006 70340 80001;
0112309350999992000010809004+50370+108750FM-12+077099999V0209999C000019999999N0500001N1-03451-03811103641ADDGF106991001001999999001011MD1410001+9999REMSYN060AAXX  08091 30935 42999 60000 11345 21381 40364 54000 80001;
0186309350999992000010812004+50370+108750FM-12+077099999V0209999C000012200019N0500001N1-03881-04171103871ADDAA106000091GF102991001001999999001011KA1999M-03351MA1999999092941MD1310021+9999REMSYN076AAXX  08121 30935 32999 20000 11388 21417 39294 40387 53002 80001 333 11335;EQDQ01  00002PRCP06
0112309350999992000010815004+50370+108750FM-12+077099999V0203001N002012200019N0500001N1-03961-04221103991ADDGF103991001001999999001011MD1210071+9999REMSYN060AAXX  08151 30935 42999 33002 11396 21422 40399 52007 80001;
0122309350999992000010818004+50370+108750FM-12+077099999V0209999C000012200019N0500001N1-04181-04431104171ADDGA1001+999999999GF100991001001999999001001MD1210061+9999REMSYN054AAXX  08181 30935 42999 00000 11418 21443 40417 52006;
0122309350999992000010821004+50370+108750FM-12+077099999V0209999C000012200019N0500001N1-04221-04481104351ADDGA1001+999999999GF100991001001999999001001MD1210151+9999REMSYN054AAXX  08211 30935 42999 00000 11422 21448 40435 52015;
0247309350999992000010900004+50370+108750FM-12+077099999V0209999C000012200019N0500001N1-04331-04611104481ADDAA106000091AJ100119199999999GA1001+999999999GF100991001001999999001001IA1239KA1120N+99999MA1999999093281MD1210061+9999REMSYN082AAXX  09001 30935 32999 00000 11433 21461 39328 40448 52006 333 21338 47011 55024;EQDQ01  00002PRCP06Q02 -03382ATMN  
0150309350999992000010903004+50370+108750FM-12+077099999V0209999C000010003019N0005001N1-04151-04431104421ADDAY141031AY201031GA1091+999999999GF109991091999999999999999MD1210031+9999MW1471REMSYN060AAXX  09031 30935 41/93 90000 11415 21443 40442 52003 74740;
0112309350999992000010909004+50370+108750FM-12+077099999V0201801N001019999999N0500001N1-03441-03741103831ADDGF105991001001999999001011MD1710091+9999REMSYN060AAXX  09091 30935 42999 51801 11344 21374 40383 57009 80001;
0186309350999992000010912004+50370+108750FM-12+077099999V0209999C000012200019N0500001N1-03531-03831103871ADDAA106000091GF102991001001999999001011KA1999M-03401MA1999999093091MD1410001+9999REMSYN076AAXX  09121 30935 32999 20000 11353 21383 39309 40387 54000 80001 333 11340;EQDQ01  00002PRCP06
0080309350999992000010915004+50370+108750FM-12+077099999V0209999C000019999999N0000001N1-03731-04011103991ADDMD1310021+9999REMSYN054AAXX  09151 30935 42990 /0000 11373 21401 40399 53002;
0122309350999992000010918004+50370+108750FM-12+077099999V0209999C000012200019N0500001N1-03621-03841104081ADDGA1001+999999999GF100991001001999999001001MD1210131+9999REMSYN054AAXX  09181 30935 42999 00000 11362 21384 40408 52013;
0122309350999992000010921004+50370+108750FM-12+077099999V0209999C000012200019N0500001N1-03511-03741104351ADDGA1001+999999999GF100991001001999999001001MD1210291+9999REMSYN054AAXX  09211 30935 42999 00000 11351 21374 40435 52029;
0221309350999992000011000004+50370+108750FM-12+077099999V0209999C000019999999N0500001N1-03681-03971104651ADDAA106000091AJ100119199999999GF105991001001999999001011IA1239KA1120N-03691MA1999999093721MD1210191+9999REMSYN088AAXX  10001 30935 32999 50000 11368 21397 39372 40465 52019 80001 333 21369 47011 55031;EQDQ01  00002PRCP06
0112309350999992000011003004+50370+108750FM-12+077099999V0209999C000012200019N0500001N1-03491-03701104861ADDGF102991001001999999001011MD1210271+9999REMSYN060AAXX  10031 30935 42999 20000 11349 21370 40486 52027 80001;
0112309350999992000011006004+50370+108750FM-12+077099999V0200301N001012200019N0500001N1-03061-03431104671ADDGF102991001001999999001011MD1210011+9999REMSYN060AAXX  10061 30935 42999 20301 11306 21343 40467 52001 80001;
0112309350999992000011009004+50370+108750FM-12+077099999V0200401N001012200019N0500001N1-02921-03291104731ADDGF102991001001999999001011MD1210111+9999REMSYN060AAXX  10091 30935 42999 20401 11292 21329 40473 52011 80001;
0196309350999992000011012004+50370+108750FM-12+077099999V0203201N001012200019N0500001N1-03321-03621104931ADDAA106000091GA1001+999999999GF100991001001999999001001KA1999M-02851MA1999999094131MD1210021+9999REMSYN070AAXX  10121 30935 32999 03201 11332 21362 39413 40493 52002 333 11285;EQDQ01  00002PRCP06
0122309350999992000011015004+50370+108750FM-12+077099999V0209999C000012200019N0500001N1-03451-03671105031ADDGA1001+999999999GF100991001001999999001001MD1210031+9999REMSYN054AAXX  10151 30935 42999 00000 11345 21367 40503 52003;
0122309350999992000011018004+50370+108750FM-12+077099999V0209999C000012200019N0500001N1-03521-03741105091ADDGA1001+999999999GF100991001001999999001001MD1210021+9999REMSYN054AAXX  10181 30935 42999 00000 11352 21374 40509 52002;
0122309350999992000011021004+50370+108750FM-12+077099999V0209999C000012200019N0500001N1-03721-03951105191ADDGA1001+999999999GF100991001001999999001001MD1210011+9999REMSYN054AAXX  10211 30935 42999 00000 11372 21395 40519 52001;
0231309350999992000011100004+50370+108750FM-12+077099999V0209999C000012200019N0500001N1-03711-03951105191ADDAA106000091AJ100119199999999GA1001+999999999GF100991001001999999001001IA1239KA1120N-03721MA1999999094201MD1210011+9999REMSYN082AAXX  11001 30935 32999 00000 11371 21395 39420 40519 52001 333 21372 47011 55060;EQDQ01  00002PRCP06
0150309350999992000011103004+50370+108750FM-12+077099999V0209999C000012200019N0500001N1-03591-03801105141ADDAY101031AY201031GA1001+999999999GF100991001001999999001001MD1410001+9999MW1401REMSYN060AAXX  11031 30935 41999 00000 11359 21380 40514 54000 74000;
0122309350999992000011106004+50370+108750FM-12+077099999V0200801N001012200019N0500001N1-02931-03241104591ADDGA1001+999999999GF100991001001999999001001MD1810221+9999REMSYN054AAXX  11061 30935 42999 00801 11293 21324 40459 58022;
0122309350999992000011109004+50370+108750FM-12+077099999V0209999C000012200019N0500001N1-02731-03121104371ADDGA1001+999999999GF100991001001999999001001MD1710111+9999REMSYN054AAXX  11091 30935 42999 00000 11273 21312 40437 57011;
0196309350999992000011112004+50370+108750FM-12+077099999V0209999C000012200019N0500001N1-03241-03481104711ADDAA106000091GA1001+999999999GF100991001001999999001001KA1999M-02701MA1999999093961MD1310081+9999REMSYN070AAXX  11121 30935 32999 00000 11324 21348 39396 40471 53008 333 11270;EQDQ01  00002PRCP06
0122309350999992000011115004+50370+108750FM-12+077099999V0203201N001012200019N0500001N1-03431-03641104751ADDGA1001+999999999GF100991001001999999001001MD1810031+9999REMSYN054AAXX  11151 30935 42999 03201 11343 21364 40475 58003;
0122309350999992000011118004+50370+108750FM-12+077099999V0209999C000012200019N0500001N1-03611-03841104771ADDGA1001+999999999GF100991001001999999001001MD1710071+9999REMSYN054AAXX  11181 30935 42999 00000 11361 21384 40477 57007;
0122309350999992000011121004+50370+108750FM-12+077099999V0209999C000012200019N0500001N1-03701-03911104791ADDGA1001+999999999GF100991001001999999001001MD1710021+9999REMSYN054AAXX  11211 30935 42999 00000 11370 21391 40479 57002;
0231309350999992000011200004+50370+108750FM-12+077099999V0209999C000012200019N0500001N1-03791-04031104701ADDAA106000091AJ100119199999999GA1001+999999999GF100991001001999999001001IA1239KA1120N-03801MA1999999093721MD1710121+9999REMSYN082AAXX  12001 30935 32999 00000 11379 21403 39372 40470 57012 333 21380 47011 55062;EQDQ01  00002PRCP06
0122309350999992000011203004+50370+108750FM-12+077099999V0209999C000012200019N0500001N1-03561-03831104561ADDGA1001+999999999GF100991001001999999001001MD1710031+9999REMSYN054AAXX  12031 30935 42999 00000 11356 21383 40456 57003;
0112309350999992000011206004+50370+108750FM-12+077099999V0201401N001012200019N0500001N1-02741-03121103901ADDGF101991001001999999001011MD1710251+9999REMSYN060AAXX  12061 30935 42999 11401 11274 21312 40390 57025 80001;
0112309350999992000011209004+50370+108750FM-12+077099999V0209999C000012200019N0500001N1-02741-03121103771ADDGF102991001001999999001011MD1710121+9999REMSYN060AAXX  12091 30935 42999 20000 11274 21312 40377 57012 80001;
0196309350999992000011212004+50370+108750FM-12+077099999V0209999C000012200019N0500001N1-03181-03411103811ADDAA106000091GA1001+999999999GF100991001001999999001001KA1999M-02601MA1999999093181MD1710141+9999REMSYN070AAXX  12121 30935 32999 00000 11318 21341 39318 40381 57014 333 11260;EQDQ01  00002PRCP06
0112309350999992000011215004+50370+108750FM-12+077099999V0209999C000012200019N0500001N1-03211-03431103701ADDGF102991001001999999001011MD1710111+9999REMSYN060AAXX  12151 30935 42999 20000 11321 21343 40370 57011 80001;
0112309350999992000011218004+50370+108750FM-12+077099999V0209999C000012200019N0500001N1-03241-03481103571ADDGF102991001001999999001011MD1710131+9999REMSYN060AAXX  12181 30935 42999 20000 11324 21348 40357 57013 80001;
0112309350999992000011221004+50370+108750FM-12+077099999V0209999C000012200019N0500001N1-03401-03611103591ADDGF103991001001999999001011MD1710051+9999REMSYN060AAXX  12211 30935 42999 30000 11340 21361 40359 57005 80001;
0112309350999992000011303004+50370+108750FM-12+077099999V0209999C000019999999N0500001N1-03191-03431103481ADDGF106991001001999999001051MD1410001+9999REMSYN060AAXX  13031 30935 42999 60000 11319 21343 40348 54000 80005;
0112309350999992000011306004+50370+108750FM-12+077099999V0209999C000019999999N0500001N1-02711-02941103171ADDGF105991001001999999001011MD1810081+9999REMSYN060AAXX  13061 30935 42999 50000 11271 21294 40317 58008 80001;
0112309350999992000011309004+50370+108750FM-12+077099999V0209999C000012200019N0500001N1-02661-02971103121ADDGF103991001001999999001011MD1710031+9999REMSYN060AAXX  13091 30935 42999 30000 11266 21297 40312 57003 80001;
0186309350999992000011312004+50370+108750FM-12+077099999V0209999C000012200019N0500001N1-03061-03291103321ADDAA106000091GF103991001001999999001011KA1999M-02581MA1999999092791MD1310021+9999REMSYN076AAXX  13121 30935 32999 30000 11306 21329 39279 40332 53002 80001 333 11258;EQDQ01  00002PRCP06
0122309350999992000011315004+50370+108750FM-12+077099999V0200601N001012200019N0500001N1-03271-03431103461ADDGA1001+999999999GF100991001001999999001001MD1210051+9999REMSYN054AAXX  13151 30935 42999 00601 11327 21343 40346 52005;
0122309350999992000011318004+50370+108750FM-12+077099999V0209999C000012200019N0500001N1-03541-03771103771ADDGA1001+999999999GF100991001001999999001001MD1210151+9999REMSYN054AAXX  13181 30935 42999 00000 11354 21377 40377 52015;
0126309350999992000011321004+50370+108750FM-12+077099999V0209999C000012200019N0500001N1-03591-03801103841ADDGA1001+999999999GF100991001001999999001001MD1210051+9999REMSYN058    AAXX  13211 30935 42999 00000 11359 21380 40384 52005;
0235309350999992000011400004+50370+108750FM-12+077099999V0209999C000012200019N0500001N1-03741-03951103981ADDAA199000091AJ100119199999999GA1001+999999999GF100991001001999999001001IA1239KA1120N-03741MA1999999093091MD1210051+9999REMSYN086    AAXX  14001 30935 32999 00000 11374 21395 39309 40398 52005 333 21374 47011 55036;EQDQ01  00002PRCP99
0116309350999992000011403004+50370+108750FM-12+077099999V0209999C000019999999N0500001N1-03351-03591103941ADDGF108991031001999999041051MD1210141+9999REMSYN064    AAXX  14031 30935 42999 80000 11335 21359 40394 52014 83045;
0116309350999992000011406004+50370+108750FM-12+077099999V0209999C000019999999N0500001N1-02661-02901103591ADDGF108991041001999999041051MD1810031+9999REMSYN064    AAXX  14061 30935 42999 80000 11266 21290 40359 58003 84045;
0116309350999992000011409004+50370+108750FM-12+077099999V0209999C000019999999N0500001N1-02621-02941103601ADDGF108991041001999999041011MD1310031+9999REMSYN064    AAXX  14091 30935 42999 80000 11262 21294 40360 53003 84041;
0190309350999992000011412004+50370+108750FM-12+077099999V0209999C000019999999N0500001N1-03071-03251103921ADDAA199000091GF108991001001999999001051KA1999M-02601MA1999999093341MD1210111+9999REMSYN080    AAXX  14121 30935 32999 80000 11307 21325 39334 40392 52011 80005 333 11260;EQDQ01  00002PRCP99
0116309350999992000011415004+50370+108750FM-12+077099999V0201201N001012200019N0500001N1-03241-03481104281ADDGF102991001001999999001011MD1210231+9999REMSYN064    AAXX  14151 30935 42999 21201 11324 21348 40428 52023 80001;
0126309350999992000011418004+50370+108750FM-12+077099999V0200301N001012200019N0500001N1-03401-03611104421ADDGA1001+999999999GF100991001001999999001001MD1210071+9999REMSYN058    AAXX  14181 30935 42999 00301 11340 21361 40442 52007;
0116309350999992000011421004+50370+108750FM-12+077099999V0209999C000012200019N0500001N1-03431-03641104531ADDGF102991001001999999001011MD1210091+9999REMSYN064    AAXX  14211 30935 42999 20000 11343 21364 40453 52009 80001;
0225309350999992000011500004+50370+108750FM-12+077099999V0209999C000012200019N0500001N1-03321-03561104581ADDAA199000091AJ100119199999999GF103991021001999999031011IA1239KA1120N-03551MA1999999093811MD1210081+9999REMSYN092    AAXX  15001 30935 32999 30000 11332 21356 39381 40458 52008 82031 333 21355 47011 55012;EQDQ01  00002PRCP99
0126309350999992000011503004+50370+108750FM-12+077099999V0209999C000012200019N0500001N1-03051-03271104551ADDGA1001+999999999GF100991001001999999001001MD1210091+9999REMSYN058    AAXX  15031 30935 42999 00000 11305 21327 40455 52009;
0116309350999992000011506004+50370+108750FM-12+077099999V0200601N001012200019N0500001N1-02631-03011104071ADDGF103991001001999999001011MD1810261+9999REMSYN064    AAXX  15061 30935 42999 30601 11263 21301 40407 58026 80001;
0116309350999992000011509004+50370+108750FM-12+077099999V0209999C000012200019N0500001N1-02521-02991103921ADDGF103991001001999999001011MD1710091+9999REMSYN064    AAXX  15091 30935 42999 30000 11252 21299 40392 57009 80001;
0135309350999992000011511004+50370+108750FM-12+077099999V0209999C000012200019N0500001N1-03221-03461104221ADDGF102991999999999999999999MA1999999093501MD1710021+9999REMSYN068    AAXX  15111 30935 /2999 20000 11322 21346 3935/ 40422 57002 333;
0206309350999992000011512004+50370+108750FM-12+077099999V0209999C000012200019N0500001N1-03221-03461104221ADDAA199000091GF102991001001999999001011KA1999M+99999MA1999999093531MD1710021+9999REMSYN080    AAXX  15121 30935 32999 20000 11322 21346 39353 40422 57002 80001 333 10244;EQDQ01  00002PRCP99Q02 +02442ATMX  
0126309350999992000011515004+50370+108750FM-12+077099999V0209999C000012200019N0500001N1-03361-03591104361ADDGA1001+999999999GF100991001001999999001001MD1310071+9999REMSYN058    AAXX  15151 30935 42999 00000 11336 21359 40436 53007;
0116309350999992000011518004+50370+108750FM-12+077099999V0209999C000012200019N0500001N1-03461-03671104381ADDGF102991001001999999001011MD1810031+9999REMSYN064    AAXX  15181 30935 42999 20000 11346 21367 40438 58003 80001;
0116309350999992000011521004+50370+108750FM-12+077099999V0209999C000012200019N0500001N1-03621-03841104321ADDGF101991001001999999001011MD1710121+9999REMSYN064    AAXX  15211 30935 42999 10000 11362 21384 40432 57012 80001;
0225309350999992000011600004+50370+108750FM-12+077099999V0209999C000012200019N0500001N1-03731-03951104191ADDAA199000091AJ100119199999999GF102991001001999999001011IA1239KA1120N-03751MA1999999093291MD1710161+9999REMSYN092    AAXX  16001 30935 32999 20000 11373 21395 39329 40419 57016 80001 333 21375 47011 55068;EQDQ01  00002PRCP99
0116309350999992000011603004+50370+108750FM-12+077099999V0209999C000019999999N0500001N1-03271-03511103961ADDGF105991001001999999001011MD1710011+9999REMSYN064    AAXX  16031 30935 42999 50000 11327 21351 40396 57001 80001;
0116309350999992000011606004+50370+108750FM-12+077099999V0200701N001019999999N0500001N1-02601-02911103471ADDGF106991001001999999001011MD1710161+9999REMSYN064    AAXX  16061 30935 42999 60701 11260 21291 40347 57016 80001;
0126309350999992000011609004+50370+108750FM-12+077099999V0209999C000012200019N0500001N1-02451-02851103281ADDGA1001+999999999GF100991001001999999001001MD1710121+9999REMSYN058    AAXX  16091 30935 42999 00000 11245 21285 40328 57012;
0200309350999992000011612004+50370+108750FM-12+077099999V0209999C000012200019N0500001N1-03111-03341103641ADDAA199000091GA1001+999999999GF100991001001999999001001KA1999M-02421MA1999999093051MD1310051+9999REMSYN074    AAXX  16121 30935 32999 00000 11311 21334 39305 40364 53005 333 11242;EQDQ01  00002PRCP99
0116309350999992000011615004+50370+108750FM-12+077099999V0209999C000019999999N0500001N1-03151-03381103691ADDGF108991001001999999001061MD1210041+9999REMSYN064    AAXX  16151 30935 42999 80000 11315 21338 40369 52004 80006;
0116309350999992000011618004+50370+108750FM-12+077099999V0209999C000019999999N0500001N1-03201-03431103731ADDGF108991001001999999001061MD1210011+9999REMSYN064    AAXX  16181 30935 42999 80000 11320 21343 40373 52001 80006;
0116309350999992000011621004+50370+108750FM-12+077099999V0209999C000012200019N0500001N1-03451-03671103921ADDGF102991001001999999001011MD1210071+9999REMSYN064    AAXX  16211 30935 42999 20000 11345 21367 40392 52007 80001;
0219309350999992000011700004+50370+108750FM-12+077099999V0209999C000012200019N0500001N1-03531-03771104021ADDAA199000091AJ100119199999999GF103991999999999999999999IA1239KA1120N-03571MA1999999093231MD1210061+9999REMSYN086    AAXX  17001 30935 32999 30000 11353 21377 39323 40402 52006 333 21357 47011 55062;EQDQ01  00002PRCP99
0116309350999992000011703004+50370+108750FM-12+077099999V0203101N001019999999N0500001N1-03371-03591104091ADDGF105991021001999999041011MD1210121+9999REMSYN064    AAXX  17031 30935 42999 53101 11337 21359 40409 52012 82041;
0116309350999992000011706004+50370+108750FM-12+077099999V0200501N001019999999N0500001N1-02641-02951103721ADDGF108991001001999999001061MD1810021+9999REMSYN064    AAXX  17061 30935 42999 80501 11264 21295 40372 58002 80006;
0144309350999992000011709004+50370+108750FM-12+077099999V0209999C000019999999N0100001N1-02421-02731103731ADDAY121031AY221031GF108991081001999999071999MD1310101+9999MW1151REMSYN070    AAXX  17091 30935 41997 80000 11242 21273 40373 53010 71522 8807/;
0218309350999992000011712004+50370+108750FM-12+077099999V0200601N001019999999N0100001N1-02501-02741103961ADDAA199000091AY121061AY221061GF108991081001999999021999KA1999M-02371MA1999999093601MD1210181+9999MW1151REMSYN086    AAXX  17121 30935 31997 80601 11250 21274 39360 40396 52018 71522 8802/ 333 11237;EQDQ01  00002PRCP99
0144309350999992000011715004+50370+108750FM-12+077099999V0200901N001019999999N0100001N1-02801-02981104251ADDAY171031AY221031GF108991081001999999021999MD1210141+9999MW1711REMSYN070    AAXX  17151 30935 41997 80901 11280 21298 40425 52014 77172 8802/;
0144309350999992000011718004+50370+108750FM-12+077099999V0201201N001019999999N0100001N1-02671-02851104261ADDAY171061AY271061GF108991081001999999021999MD1210051+9999MW1711REMSYN070    AAXX  17181 30935 41997 81201 11267 21285 40426 52005 77177 8802/;
0110309350999992000011721004+50370+108750FM-12+077099999V0209999C000019999999N0500001N1+99999+99999104421ADDGF105991001001999999001011MD1210041+9999REMSYN058    AAXX  17211 30935 42999 50000 21313 40442 52004 80001;
0212309350999992000011800004+50370+108750FM-12+077099999V0209999C000012200019N0500001N1-03111-03341104561ADDAA112001091AJ100119199999999GF103991001001999999001011IA1239KA1120N-03171MA1999999093881MD1210051+9999REMSYN098    AAXX  18001 30935 12999 30000 11311 21334 39388 40456 52005 60012 80001 333 21317 47011 55022;
0116309350999992000011803004+50370+108750FM-12+077099999V0209999C000019999999N0500001N1-02791-03031104441ADDGF106991001001999999001051MD1210031+9999REMSYN064    AAXX  18031 30935 42999 60000 11279 21303 40444 52003 80005;
0116309350999992000011806004+50370+108750FM-12+077099999V0209999C000019999999N0500001N1-02261-02441104011ADDGF108991001001999999001051MD1810171+9999REMSYN064    AAXX  18061 30935 42999 80000 11226 21244 40401 58017 80005;
0144309350999992000011809004+50370+108750FM-12+077099999V0200501N002019999999N0100001N1-01851-02041103731ADDAY121031AY221031GF108991081001999999021999MD1710101+9999MW1151REMSYN070    AAXX  18091 30935 41997 80502 11185 21204 40373 57010 71522 8802/;
0190309350999992000011812004+50370+108750FM-12+077099999V0200701N002019999999N0500001N1-01691-02031103591ADDAA199000091GF106991051001999999041011KA1999M-01611MA1999999093561MD1710081+9999REMSYN080    AAXX  18121 30935 32999 60702 11169 21203 39356 40359 57008 85041 333 11161;EQDQ01  00002PRCP99
0116309350999992000011815004+50370+108750FM-12+077099999V0209999C000019999999N0500001N1-02241-02491103781ADDGF106991031001999999041011MD1710021+9999REMSYN064    AAXX  18151 30935 42999 60000 11224 21249 40378 57002 83041;
0116309350999992000011818004+50370+108750FM-12+077099999V0209999C000012200019N0500001N1-02741-02911103921ADDGF102991001001999999001011MD1710081+9999REMSYN064    AAXX  18181 30935 42999 20000 11274 21291 40392 57008 80001;
0116309350999992000011821004+50370+108750FM-12+077099999V0209999C000012200019N0500001N1-03131-03301104101ADDGF101991001001999999001011MD1410001+9999REMSYN064    AAXX  18211 30935 42999 10000 11313 21330 40410 54000 80001;
0225309350999992000011900004+50370+108750FM-12+077099999V0209999C000012200019N0500001N1-03431-03641104271ADDAA199000091AJ100119199999999GF102991001001999999001011IA1239KA1120N-03431MA1999999093491MD1310031+9999REMSYN092    AAXX  19001 30935 32999 20000 11343 21364 39349 40427 53003 80001 333 21343 47011 55027;EQDQ01  00002PRCP99
0126309350999992000011903004+50370+108750FM-12+077099999V0209999C000012200019N0500001N1-02941-03171104191ADDGA1001+999999999GF100991001001999999001001MD1210131+9999REMSYN058    AAXX  19031 30935 42999 00000 11294 21317 40419 52013;
0126309350999992000011906004+50370+108750FM-12+077099999V0209999C000012200019N0500001N1-02501-02811103851ADDGA1001+999999999GF100991001001999999001001MD1810121+9999REMSYN058    AAXX  19061 30935 42999 00000 11250 21281 40385 58012;
0126309350999992000011909004+50370+108750FM-12+077099999V0209999C000012200019N0500001N1-02331-02721103701ADDGA1001+999999999GF100991001001999999001001MD1710071+9999REMSYN058    AAXX  19091 30935 42999 00000 11233 21272 40370 57007;
0122309350999992000011911004+50370+108750FM-12+077099999V0209999C000012200019N0500001N1-03381-03611104281ADDGA1001+999999999GF100991001001999999001001MD1410001+9999REMSYN054AAXX  19111 30935 42999 00000 11338 21361 40428 54000;
0200309350999992000011912004+50370+108750FM-12+077099999V0209999C000012200019N0500001N1-02961-03191104021ADDAA199000091GA1001+999999999GF100991001001999999001001KA1999M-02251MA1999999093461MD1310031+9999REMSYN074    AAXX  19121 30935 32999 00000 11296 21319 39346 40402 53003 333 11225;EQDQ01  00002PRCP99
0126309350999992000011915004+50370+108750FM-12+077099999V0200501N001012200019N0500001N1-03211-03431104201ADDGA1001+999999999GF100991001001999999001001MD1210061+9999REMSYN058    AAXX  19151 30935 42999 00501 11321 21343 40420 52006;
0122309350999992000011918004+50370+108750FM-12+077099999V0209999C000012200019N0500001N1-03381-03611104281ADDGA1001+999999999GF100991001001999999001001MD1410001+9999REMSYN054AAXX  19181 30935 42999 00000 11338 21361 40428 54000;
0112309350999992000011921004+50370+108750FM-12+077099999V0209999C000019999999N0500001N1-03291-03581104281ADDGF105991001001999999001011MD1310031+9999REMSYN060AAXX  19211 30935 42999 50000 11329 21358 40428 53003 80001;
0221309350999992000012000004+50370+108750FM-12+077099999V0209999C000019999999N0500001N1-03061-03291104261ADDAA199000091AJ100119199999999GF105991001001999999001011IA1239KA1120N-03411MA1999999093641MD1210091+9999REMSYN088AAXX  20001 30935 32999 50000 11306 21329 39364 40426 52009 80001 333 21341 47011 55072;EQDQ01  00002PRCP99
0112309350999992000012003004+50370+108750FM-12+077099999V0209999C000019999999N0500001N1-02821-03061104251ADDGF108991031001999999041011MD1210081+9999REMSYN060AAXX  20031 30935 42999 80000 11282 21306 40425 52008 83041;
0112309350999992000012006004+50370+108750FM-12+077099999V0200801N001019999999N0500001N1-02351-02751103991ADDGF107991041001999999041011MD1810051+9999REMSYN060AAXX  20061 30935 42999 70801 11235 21275 40399 58005 84041;
0112309350999992000012009004+50370+108750FM-12+077099999V0209999C000019999999N0500001N1-02301-02701103971ADDGF108991051001999999041011MD1310011+9999REMSYN060AAXX  20091 30935 42999 80000 11230 21270 40397 53001 85041;
0200309350999992000012012004+50370+108750FM-12+077099999V02099999999999999999N0500001N1-02821-03061104291ADDAA199000091GF105991001001999999001021KA1120M-02201MA1999999093751MD1210071+9999REMSYN090AAXX  20121 30935 32999 5/000 11282 21306 39375 40429 52007 80002 333 11220 555 1/153 002;EQDQ01  00002PRCP99
0112309350999992000012015004+50370+108750FM-12+077099999V0209999C000012200019N0500001N1-03011-03251104411ADDGF103991001001999999001011MD1210041+9999REMSYN060AAXX  20151 30935 42999 30000 11301 21325 40441 52004 80001;
0112309350999992000012018004+50370+108750FM-12+077099999V0209999C000019999999N0500001N1-03121-03361104461ADDGF105991021001999999041011MD1410001+9999REMSYN060AAXX  20181 30935 42999 50000 11312 21336 40446 54000 82041;
0112309350999992000012021004+50370+108750FM-12+077099999V0209999C000012200019N0500001N1-03221-03461104561ADDGF103991001001999999001011MD1310051+9999REMSYN060AAXX  20211 30935 42999 30000 11322 21346 40456 53005 80001;
0221309350999992000012100004+50370+108750FM-12+077099999V0209999C000012200019N0500001N1-03251-03481104541ADDAA199000091AJ100119199999999GF103991001001999999001011IA1239KA1120N-03321MA1999999093811MD1810031+9999REMSYN088AAXX  21001 30935 32999 30000 11325 21348 39381 40454 58003 80001 333 21332 47011 55062;EQDQ01  00002PRCP99
0112309350999992000012103004+50370+108750FM-12+077099999V0209999C000019999999N0500001N1-02961-03191104521ADDGF106991041001999999031011MD1310101+9999REMSYN060AAXX  21031 30935 42999 60000 11296 21319 40452 53010 84031;
0112309350999992000012106004+50370+108750FM-12+077099999V0200901N001019999999N0500001N1-02321-02711103991ADDGF108991041001999999031011MD1810221+9999REMSYN060AAXX  21061 30935 42999 80901 11232 21271 40399 58022 84031;
0112309350999992000012109004+50370+108750FM-12+077099999V0209999C000019999999N0500001N1-02171-02491103791ADDGF108991061001999999031011MD1710131+9999REMSYN060AAXX  21091 30935 42999 80000 11217 21249 40379 57013 86031;
0186309350999992000012112004+50370+108750FM-12+077099999V0209999C000019999999N0500001N1-02361-02611104001ADDAA199000091GF108991061001999999031011KA1999M-02141MA1999999093681MD1310121+9999REMSYN076AAXX  21121 30935 32999 80000 11236 21261 39368 40400 53012 86031 333 11214;EQDQ01  00002PRCP99
0112309350999992000012115004+50370+108750FM-12+077099999V0209999C000019999999N0500001N1-02491-02741104071ADDGF108991031001999999041051MD1210011+9999REMSYN060AAXX  21151 30935 42999 80000 11249 21274 40407 52001 83045;
0112309350999992000012118004+50370+108750FM-12+077099999V0209999C000019999999N0500001N1-02681-02861104141ADDGF108991041001999999041051MD1410001+9999REMSYN060AAXX  21181 30935 42999 80000 11268 21286 40414 54000 84045;
0140309350999992000012121004+50370+108750FM-12+077099999V0209999C000019999999N0100001N1-02671-02851104161ADDAY121031AY221031GF108991041001999999041051MD1310021+9999MW1151REMSYN066AAXX  21211 30935 41997 80000 11267 21285 40416 53002 71522 84045;
0221309350999992000012200004+50370+108750FM-12+077099999V0209999C000019999999N0500001N1-02761-02931104301ADDAA199000091AJ100119199999999GF106991041001999999041011IA1239KA1120N-02821MA1999999093801MD1210091+9999REMSYN088AAXX  22001 30935 32999 60000 11276 21293 39380 40430 52009 84041 333 21282 47011 55040;EQDQ01  00002PRCP99
0159309350999992000012203004+50370+108750FM-12+077099999V0209999C000019999999N0100001N1-02461-02631104291ADDAY171031AY221031GF107991999001999999041001MD1210111+9999MW1711REMSYN066AAXX  22031 30935 41997 70000 11246 21263 40429 52011 77172 86040;EQDQ01+000062SCOTLC
0140309350999992000012206004+50370+108750FM-12+077099999V0209999C000019999999N0100001N1-01891-02221104051ADDAY171061AY221061GF105991031001999999041011MD1410001+9999MW1151REMSYN066AAXX  22061 30935 41997 50000 11189 21222 40405 54000 71572 83041;
0140309350999992000012209004+50370+108750FM-12+077099999V0209999C000019999999N0100001N1-01911-02171104141ADDAY171031AY271031GF106991041001999999041011MD1310071+9999MW1711REMSYN066AAXX  22091 30935 41997 60000 11191 21217 40414 53007 77177 84041;
0220309350999992000012212004+50370+108750FM-12+077099999V0209999C000019999999N0500001N1-02291-02481104581ADDAA112000891AY171061AY221061GF105991001001999999001011KA1999M+99999MA1999999094241MD1210261+9999MW1221REMSYN088AAXX  22121 30935 11999 50000 11229 21248 39424 40458 52026 69972 72272 80001 333 10184;EQDQ01 +01842ATMX  
0112309350999992000012215004+50370+108750FM-12+077099999V0209999C000019999999N0500001N1-02591-02771104991ADDGF106991001001999999001011MD1210241+9999REMSYN060AAXX  22151 30935 42999 60000 11259 21277 40499 52024 80001;
0131309350999992000012218004+50370+108750FM-12+077099999V0209999C000019999999N0500001N1-02871-03051999999ADDGF106991001001999999001011MD1210181+9999REMSYN060AAXX  22181 30935 42999 60000 11287 21305 40432 52018 80001;EQDQ01+104323APOSLP
0112309350999992000012221004+50370+108750FM-12+077099999V0209999C000019999999N0500001N1-03031-03211105651ADDGF106991001001999999001011MD1210241+9999REMSYN060AAXX  22211 30935 42999 60000 11303 21321 40565 52024 80001;
0202309350999992000012300004+50370+108750FM-12+077099999V0209999C000012200019N0500001N1-03341-03501105931ADDAA199000021AJ100119199999999GF102991011001999999041011IA1239KA1120N-03341MA1999999095021MD1210121+9999REMSYN088AAXX  23001 30935 32999 20000 11334 21350 39502 40593 52012 81041 333 21334 47011 55032;
0122309350999992000012303004+50370+108750FM-12+077099999V0209999C000012200019N0500001N1-02981-03151105931ADDGA1001+999999999GF100991001001999999001001MD1210141+9999REMSYN054AAXX  23031 30935 42999 00000 11298 21315 40593 52014;
0122309350999992000012306004+50370+108750FM-12+077099999V0209999C000012200019N0500001N1-02431-02611105631ADDGA1001+999999999GF100991001001999999001001MD1810031+9999REMSYN054AAXX  23061 30935 42999 00000 11243 21261 40563 58003;
0122309350999992000012309004+50370+108750FM-12+077099999V0200501N002012200019N0500001N1-01911-02401105381ADDGA1001+999999999GF100991001001999999001001MD1710031+9999REMSYN054AAXX  23091 30935 42999 00502 11191 21240 40538 57003;
0196309350999992000012312004+50370+108750FM-12+077099999V0200701N003012200019N0500001N1-02061-02391105471ADDAA199000091GA1001+999999999GF100991001001999999001001KA1999M-01811MA1999999095131MD1310031+9999REMSYN070AAXX  23121 30935 32999 00703 11206 21239 39513 40547 53003 333 11181;EQDQ01  00002PRCP99
0140309350999992000012315004+50370+108750FM-12+077099999V0202501N002019999999N0100001N1-02111-02361105431ADDAY171031AY221031GF108991051001999999041011MD1810071+9999MW1711REMSYN066AAXX  23151 30935 41997 82502 11211 21236 40543 58007 77172 85041;
0140309350999992000012318004+50370+108750FM-12+077099999V0202701N001019999999N0100001N1-02121-02371105431ADDAY171061AY221061GF107991041001999999041011MD1410001+9999MW1711REMSYN066AAXX  23181 30935 41997 72701 11212 21237 40543 54000 77172 84041;
0140309350999992000012321004+50370+108750FM-12+077099999V0202701N001019999999N0100001N1-02231-02481105541ADDAY171031AY271031GF106991001001999999001011MD1310061+9999MW1151REMSYN066AAXX  23211 30935 41997 62701 11223 21248 40554 53006 71577 80001;
0236309350999992000012400004+50370+108750FM-12+077099999V0202901N001012200019N0500001N1-02701-02941105951ADDAA112000591AJ100119199999999AY171061AY211061GF103991001001999999001011IA1239KA1120N-02711MA1999999095311MD1210191+9999MW1011REMSYN100AAXX  24001 30935 11999 32901 11270 21294 39531 40595 52019 69962 70171 80001 333 21271 47011 55073;
0112309350999992000012403004+50370+108750FM-12+077099999V0209999C000012200019N0500001N1-02511-02751105931ADDGF103991001001999999001011MD1210051+9999REMSYN060AAXX  24031 30935 42999 30000 11251 21275 40593 52005 80001;
0122309350999992000012406004+50370+108750FM-12+077099999V0200201N001012200019N0500001N1-02241-02561105821ADDGA1001+999999999GF100991001001999999001001MD1210011+9999REMSYN054AAXX  24061 30935 42999 00201 11224 21256 40582 52001;
0122309350999992000012409004+50370+108750FM-12+077099999V0200401N001012200019N0500001N1-02121-02521105771ADDGA1001+999999999GF100991001001999999001001MD1410001+9999REMSYN054AAXX  24091 30935 42999 00401 11212 21252 40577 54000;
0196309350999992000012412004+50370+108750FM-12+077099999V0209999C000012200019N0500001N1-02591-02771106011ADDAA199000091GA1001+999999999GF100991001001999999001001KA1999M-02051MA1999999095401MD1310031+9999REMSYN070AAXX  24121 30935 32999 00000 11259 21277 39540 40601 53003 333 11205;EQDQ01  00002PRCP99
0112309350999992000012415004+50370+108750FM-12+077099999V0200601N001012200019N0500001N1-02971-03151106181ADDGF101991001001999999001011MD1410001+9999REMSYN060AAXX  24151 30935 42999 10601 11297 21315 40618 54000 80001;
0122309350999992000012418004+50370+108750FM-12+077099999V0209999C000012200019N0500001N1-03161-03321106271ADDGA1001+999999999GF100991001001999999001001MD1410001+9999REMSYN054AAXX  24181 30935 42999 00000 11316 21332 40627 54000;
0116309350999992000012421004+50370+108750FM-12+077099999V0209999C000012200019N0500001N1-03231-03461999999ADDGA1001+999999999GF100991001001999999001001MD1410001+9999REMSYN048AAXX  24211 30935 42999 00000 11323 21346 54000;
0231309350999992000012500004+50370+108750FM-12+077099999V0209999C000012200019N0500001N1-03331-03561106371ADDAA199000091AJ100119199999999GA1001+999999999GF100991001001999999001001IA1239KA1120N-03421MA1999999095421MD1310021+9999REMSYN082AAXX  25001 30935 32999 00000 11333 21356 39542 40637 53002 333 21342 47011 55072;EQDQ01  00002PRCP99
0122309350999992000012503004+50370+108750FM-12+077099999V0209999C000012200019N0500001N1-02721-02961106121ADDGA1001+999999999GF100991001001999999001001MD1210031+9999REMSYN054AAXX  25031 30935 42999 00000 11272 21296 40612 52003;
0122309350999992000012506004+50370+108750FM-12+077099999V0209999C000012200019N0500001N1-02341-02661105931ADDGA1001+999999999GF100991001001999999001001MD1810011+9999REMSYN054AAXX  25061 30935 42999 00000 11234 21266 40593 58001;
0122309350999992000012509004+50370+108750FM-12+077099999V0209999C000012200019N0500001N1-02081-02561105741ADDGA1001+999999999GF100991001001999999001001MD1710081+9999REMSYN054AAXX  25091 30935 42999 00000 11208 21256 40574 57008;
0196309350999992000012512004+50370+108750FM-12+077099999V0209999C000012200019N0500001N1-02811-03041106041ADDAA199000091GA1001+999999999GF100991001001999999001001KA1999M-02041MA1999999095341MD1710021+9999REMSYN070AAXX  25121 30935 32999 00000 11281 21304 39534 40604 57002 333 11204;EQDQ01  00002PRCP99
0122309350999992000012515004+50370+108750FM-12+077099999V0202901N001012200019N0500001N1-03171-03411106251ADDGA1001+999999999GF100991001001999999001001MD1310041+9999REMSYN054AAXX  25151 30935 42999 02901 11317 21341 40625 53004;
0122309350999992000012518004+50370+108750FM-12+077099999V0209999C000012200019N0500001N1-03281-03511106361ADDGA1001+999999999GF100991001001999999001001MD1210051+9999REMSYN054AAXX  25181 30935 42999 00000 11328 21351 40636 52005;
0122309350999992000012521004+50370+108750FM-12+077099999V0200401N001012200019N0500001N1-03511-03741106451ADDGA1001+999999999GF100991001001999999001001MD1810021+9999REMSYN054AAXX  25211 30935 42999 00401 11351 21374 40645 58002;
0231309350999992000012600004+50370+108750FM-12+077099999V0209999C000012200019N0500001N1-03591-03801106451ADDAA199000091AJ100119199999999GA1001+999999999GF100991001001999999001001IA1239KA1120N-03611MA1999999095361MD1710051+9999REMSYN082AAXX  26001 30935 32999 00000 11359 21380 39536 40645 57005 333 21361 47011 55075;EQDQ01  00002PRCP99
0122309350999992000012603004+50370+108750FM-12+077099999V0209999C000012200019N0500001N1-03081-03321106091ADDGA1001+999999999GF100991001001999999001001MD1710101+9999REMSYN054AAXX  26031 30935 42999 00000 11308 21332 40609 57010;
0122309350999992000012606004+50370+108750FM-12+077099999V0209999C000012200019N0500001N1-02401-02801105441ADDGA1001+999999999GF100991001001999999001001MD1710301+9999REMSYN054AAXX  26061 30935 42999 00000 11240 21280 40544 57030;
0122309350999992000012609004+50370+108750FM-12+077099999V0209999C000012200019N0500001N1-02271-02751105131ADDGA1001+999999999GF100991001001999999001001MD1710221+9999REMSYN054AAXX  26091 30935 42999 00000 11227 21275 40513 57022;
0196309350999992000012612004+50370+108750FM-12+077099999V0209999C000012200019N0500001N1-02901-03131105251ADDAA199000091GA1001+999999999GF100991001001999999001001KA1999M-02201MA1999999094591MD1710151+9999REMSYN070AAXX  26121 30935 32999 00000 11290 21313 39459 40525 57015 333 11220;EQDQ01  00002PRCP99
0122309350999992000012615004+50370+108750FM-12+077099999V0209999C000012200019N0500001N1-03151-03381105241ADDGA1001+999999999GF100991001001999999001001MD1710111+9999REMSYN054AAXX  26151 30935 42999 00000 11315 21338 40524 57011;
0122309350999992000012618004+50370+108750FM-12+077099999V0209999C000012200019N0500001N1-03341-03561105221ADDGA1001+999999999GF100991001001999999001001MD1710111+9999REMSYN054AAXX  26181 30935 42999 00000 11334 21356 40522 57011;
0122309350999992000012621004+50370+108750FM-12+077099999V0209999C000012200019N0500001N1-03541-03771105231ADDGA1001+999999999GF100991001001999999001001MD1710071+9999REMSYN054AAXX  26211 30935 42999 00000 11354 21377 40523 57007;
0231309350999992000012700004+50370+108750FM-12+077099999V0209999C000012200019N0500001N1-03671-03911105261ADDAA199000091AJ100119199999999GA1001+999999999GF100991001001999999001001IA1239KA1120N-03691MA1999999094281MD1710021+9999REMSYN082AAXX  27001 30935 32999 00000 11367 21391 39428 40526 57002 333 21369 47011 55075;EQDQ01  00002PRCP99
0140309350999992000012703004+50370+108750FM-12+077099999V0209999C000012200019N0100001N1-03191-03431105131ADDAY101031AY201031GF103991001001999999001011MD1310081+9999MW1401REMSYN066AAXX  27031 30935 41997 30000 11319 21343 40513 53008 74000 80001;
0112309350999992000012706004+50370+108750FM-12+077099999V0200501N001012200019N0500001N1-02571-02881104571ADDGF102991001001999999001011MD1810251+9999REMSYN060AAXX  27061 30935 42999 20501 11257 21288 40457 58025 80001;
0112309350999992000012709004+50370+108750FM-12+077099999V0209999C000019999999N0500001N1-02181-02661104341ADDGF107991021001999999031021MD1710051+9999REMSYN060AAXX  27091 30935 42999 70000 11218 21266 40434 57005 82032;
0202309350999992000012712004+50370+108750FM-12+077099999V0209999C000012200019N0500001N1-02531-02841104621ADDAA199000091GF103991031001999999031001KA1120M-02111MA1999999094171MD1310111+9999REMSYN092AAXX  27121 30935 32999 30000 11253 21284 39417 40462 53011 83030 333 11211 555 1/128 53002;EQDQ01  00002PRCP99
0112309350999992000012715004+50370+108750FM-12+077099999V0209999C000012200019N0500001N1-02281-02531104551ADDGF103991001001999999001011MD1110041+9999REMSYN060AAXX  27151 30935 42999 30000 11228 21253 40455 51004 80001;
0112309350999992000012718004+50370+108750FM-12+077099999V0209999C000019999999N0500001N1-02011-02201104461ADDGF106991041001999999031011MD1210031+9999REMSYN060AAXX  27181 30935 42999 60000 11201 21220 40446 52003 84031;
0112309350999992000012721004+50370+108750FM-12+077099999V0209999C000012200019N0500001N1-02161-02411104611ADDGF103991021001999999031011MD1210071+9999REMSYN060AAXX  27211 30935 42999 30000 11216 21241 40461 52007 82031;
0221309350999992000012800004+50370+108750FM-12+077099999V0202001N001019999999N0500001N1-02121-02301104561ADDAA199000091AJ100119199999999GF106991041001999999031051IA1239KA1120N-02531MA1999999094281MD1810031+9999REMSYN088AAXX  28001 30935 32999 62001 11212 21230 39428 40456 58003 84035 333 21253 47011 55066;EQDQ01  00002PRCP99
0112309350999992000012803004+50370+108750FM-12+077099999V0201501N004019999999N0500001N1-01871-02131104671ADDGF106991021001999999041051MD1310191+9999REMSYN060AAXX  28031 30935 42999 61504 11187 21213 40467 53019 82045;
0112309350999992000012806004+50370+108750FM-12+077099999V0202601N004010750019N0500001N1-01441-02051104491ADDGF105991021011012501041011MD1410001+9999REMSYN060AAXX  28061 30935 42699 52604 11144 21205 40449 54000 82141;
0112309350999992000012809004+50370+108750FM-12+077099999V0202101N002012200019N0500001N1-01541-02141104621ADDGF103991021001999999041011MD1310081+9999REMSYN060AAXX  28091 30935 42999 32102 11154 21214 40462 53008 82041;
0186309350999992000012812004+50370+108750FM-12+077099999V0203201N001012200019N0500001N1-01971-02381105041ADDAA199000091GF102991001001999999001011KA1999M-01381MA1999999094771MD1210221+9999REMSYN076AAXX  28121 30935 32999 23201 11197 21238 39477 40504 52022 80001 333 11138;EQDQ01  00002PRCP99
0122309350999992000012815004+50370+108750FM-12+077099999V0209999C000012200019N0500001N1-02361-02611105261ADDGA1001+999999999GF100991001001999999001001MD1210051+9999REMSYN054AAXX  28151 30935 42999 00000 11236 21261 40526 52005;
0122309350999992000012818004+50370+108750FM-12+077099999V0202901N002012200019N0500001N1-02721-02901105511ADDGA1001+999999999GF100991001001999999001001MD1210081+9999REMSYN054AAXX  28181 30935 42999 02902 11272 21290 40551 52008;
0122309350999992000012821004+50370+108750FM-12+077099999V0202701N001012200019N0500001N1-02871-03051105621ADDGA1001+999999999GF100991001001999999001001MD1210041+9999REMSYN054AAXX  28211 30935 42999 02701 11287 21305 40562 52004;
0221309350999992000012900004+50370+108750FM-12+077099999V0209999C000012200019N0500001N1-03011-03191105781ADDAA199000091AJ100119199999999GF102991021001999999041001IA1239KA1120N-03171MA1999999095031MD1210091+9999REMSYN088AAXX  29001 30935 32999 20000 11301 21319 39503 40578 52009 82040 333 21317 47011 55052;EQDQ01  00002PRCP99
0112309350999992000012903004+50370+108750FM-12+077099999V0200401N001012200019N0500001N1-02671-02851105681ADDGF101991011001999999041001MD1210041+9999REMSYN060AAXX  29031 30935 42999 10401 11267 21285 40568 52004 81040;
0112309350999992000012906004+50370+108750FM-12+077099999V0200301N001019999999N0500001N1-02121-02441105381ADDGF108991031001999999041011MD1810041+9999REMSYN060AAXX  29061 30935 42999 80301 11212 21244 40538 58004 83041;
0112309350999992000012909004+50370+108750FM-12+077099999V0209999C000019999999N0500001N1-01711-02131105211ADDGF106991021001999999041011MD1710011+9999REMSYN060AAXX  29091 30935 42999 60000 11171 21213 40521 57001 82041;
0186309350999992000012912004+50370+108750FM-12+077099999V0201701N001012200019N0500001N1-02341-02521105631ADDAA199000091GF102991001001999999001011KA1999M-01641MA1999999095161MD1310141+9999REMSYN076AAXX  29121 30935 32999 21701 11234 21252 39516 40563 53014 80001 333 11164;EQDQ01  00002PRCP99
0122309350999992000012915004+50370+108750FM-12+077099999V0209999C000012200019N0500001N1-02821-03001105931ADDGA1001+999999999GF100991001001999999001001MD1210081+9999REMSYN054AAXX  29151 30935 42999 00000 11282 21300 40593 52008;
0122309350999992000012918004+50370+108750FM-12+077099999V0209999C000012200019N0500001N1-03101-03281106151ADDGA1001+999999999GF100991001001999999001001MD1210071+9999REMSYN054AAXX  29181 30935 42999 00000 11310 21328 40615 52007;
0122309350999992000012921004+50370+108750FM-12+077099999V0209999C000012200019N0500001N1-03501-03671106431ADDGA1001+999999999GF100991001001999999001001MD1210081+9999REMSYN054AAXX  29211 30935 42999 00000 11350 21367 40643 52008;
0231309350999992000013000004+50370+108750FM-12+077099999V0209999C000012200019N0500001N1-03651-03871106591ADDAA199000091AJ100119199999999GA1001+999999999GF100991001001999999001001IA1239KA1120N-03651MA1999999095471MD1210081+9999REMSYN082AAXX  30001 30935 32999 00000 11365 21387 39547 40659 52008 333 21365 47011 55067;EQDQ01  00002PRCP99
0122309350999992000013003004+50370+108750FM-12+077099999V0209999C000012200019N0500001N1-03231-03461106521ADDGA1001+999999999GF100991001001999999001001MD1210121+9999REMSYN054AAXX  30031 30935 42999 00000 11323 21346 40652 52012;
0122309350999992000013006004+50370+108750FM-12+077099999V0209999C000012200019N0500001N1-02671-02911106191ADDGA1001+999999999GF100991001001999999001001MD1810061+9999REMSYN054AAXX  30061 30935 42999 00000 11267 21291 40619 58006;
0122309350999992000013009004+50370+108750FM-12+077099999V0209999C000012200019N0500001N1-02411-02811105971ADDGA1001+999999999GF100991001001999999001001MD1710091+9999REMSYN054AAXX  30091 30935 42999 00000 11241 21281 40597 57009;
0186309350999992000013012004+50370+108750FM-12+077099999V0200401N001012200019N0500001N1-03051-03271106291ADDAA199000091GF102991001001999999001011KA1999M-02321MA1999999095461MD1310021+9999REMSYN076AAXX  30121 30935 32999 20401 11305 21327 39546 40629 53002 80001 333 11232;EQDQ01  00002PRCP99
0122309350999992000013015004+50370+108750FM-12+077099999V0209999C000012200019N0500001N1-03271-03511106391ADDGA1001+999999999GF100991001001999999001001MD1410001+9999REMSYN054AAXX  30151 30935 42999 00000 11327 21351 40639 54000;
0122309350999992000013018004+50370+108750FM-12+077099999V0209999C000012200019N0500001N1-03471-03701106491ADDGA1001+999999999GF100991001001999999001001MD1410001+9999REMSYN054AAXX  30181 30935 42999 00000 11347 21370 40649 54000;
0122309350999992000013021004+50370+108750FM-12+077099999V0209999C000012200019N0500001N1-03591-03801106451ADDGA1001+999999999GF100991001001999999001001MD1810091+9999REMSYN054AAXX  30211 30935 42999 00000 11359 21380 40645 58009;
0231309350999992000013100004+50370+108750FM-12+077099999V0209999C000012200019N0500001N1-03721-03951106431ADDAA199000091AJ100119199999999GA1001+999999999GF100991001001999999001001IA1239KA1120N-03721MA1999999095301MD1710071+9999REMSYN082AAXX  31001 30935 32999 00000 11372 21395 39530 40643 57007 333 21372 47011 55072;EQDQ01  00002PRCP99
0119309350999992000013101004+50370+108750FM-12+077099999V0209999C999992200019N0500001N1+99999+99999999999ADDGA1001+999999999GF100991001001999999001001REMSYN030AAXX  31011 30935 42999 00080;EQDQ01+008003WOSPD Q020008003WOSPD 
0150309350999992000013103004+50370+108750FM-12+077099999V0209999C000012200019N0500001N1-03321-03561106201ADDAY141031AY201031GA1001+999999999GF100991001001999999001001MD1710041+9999MW1281REMSYN060AAXX  31031 30935 41999 00000 11332 21356 40620 57004 72840;
0122309350999992000013106004+50370+108750FM-12+077099999V0209999C000012200019N0500001N1-02611-03001105571ADDGA1001+999999999GF100991001001999999001001MD1710261+9999REMSYN054AAXX  31061 30935 42999 00000 11261 21300 40557 57026;
0122309350999992000013109004+50370+108750FM-12+077099999V0209999C000012200019N0500001N1-02281-02761105111ADDGA1001+999999999GF100991001001999999001001MD1710281+9999REMSYN054AAXX  31091 30935 42999 00000 11228 21276 40511 57028;
0196309350999992000013112004+50370+108750FM-12+077099999V0209999C000012200019N0500001N1-03021-03251105391ADDAA199000091GA1001+999999999GF100991001001999999001001KA1999M-02161MA1999999094661MD1710061+9999REMSYN070AAXX  31121 30935 32999 00000 11302 21325 39466 40539 57006 333 11216;EQDQ01  00002PRCP99
0122309350999992000013115004+50370+108750FM-12+077099999V0209999C000012200019N0500001N1-03251-03481105421ADDGA1001+999999999GF100991001001999999001001MD1710061+9999REMSYN054AAXX  31151 30935 42999 00000 11325 21348 40542 57006;
0122309350999992000013118004+50370+108750FM-12+077099999V0209999C000012200019N0500001N1-03451-03671105421ADDGA1001+999999999GF100991001001999999001001MD1710081+9999REMSYN054AAXX  31181 30935 42999 00000 11345 21367 40542 57008;
0122309350999992000013121004+50370+108750FM-12+077099999V0209999C000012200019N0500001N1-03621-03841105381ADDGA1001+999999999GF100991001001999999001001MD1710121+9999REMSYN054AAXX  31211 30935 42999 00000 11362 21384 40538 57012;
0231309350999992000020100004+50370+108750FM-12+077099999V0209999C000012200019N0500001N1-03751-04051105331ADDAA199000091AJ100119199999999GA1001+999999999GF100991001001999999001001IA1239KA1120N-03751MA1999999094301MD1710101+9999REMSYN082AAXX  01001 30935 32999 00000 11375 21405 39430 40533 57010 333 21375 47011 55072;EQDQ01  00002PRCP99
0116309350999992000020103004+50370+108750FM-12+077099999V0209999C000012200019N0500001N1-03071+99999104921ADDGA1001+999999999GF100991001001999999001001MD1710071+9999REMSYN048AAXX  01031 30935 42999 00000 11307 40492 57007;
0122309350999992000020106004+50370+108750FM-12+077099999V0200201N001012200019N0500001N1-02541-02861104341ADDGA1001+999999999GF100991001001999999001001MD1710311+9999REMSYN054AAXX  01061 30935 42999 00201 11254 21286 40434 57031;
0122309350999992000020109004+50370+108750FM-12+077099999V0209999C000012200019N0500001N1-02171-02651103941ADDGA1001+999999999GF100991001001999999001001MD1710221+9999REMSYN054AAXX  01091 30935 42999 00000 11217 21265 40394 57022;
0196309350999992000020111004+50370+108750FM-12+077099999V0209999C000012200019N0500001N1-02891-03131104241ADDAA199000091GA1001+999999999GF100991001001999999001001KA1999M-02121MA1999999093691MD1710011+9999REMSYN070AAXX  01111 30935 32999 00000 11289 21313 39369 40424 57001 333 11212;EQDQ01  00002PRCP99
0196309350999992000020112004+50370+108750FM-12+077099999V0209999C000012200019N0500001N1-02891-03131104241ADDAA199000091GA1001+999999999GF100991001001999999001001KA1999M-02121MA1999999093691MD1710011+9999REMSYN070AAXX  01121 30935 32999 00000 11289 21313 39369 40424 57001 333 11212;EQDQ01  00002PRCP99
0122309350999992000020115004+50370+108750FM-12+077099999V0209999C000012200019N0500001N1-03181-03471104351ADDGA1001+999999999GF100991001001999999001001MD1710031+9999REMSYN054AAXX  01151 30935 42999 00000 11318 21347 40435 57003;
0122309350999992000020118004+50370+108750FM-12+077099999V0209999C000012200019N0500001N1-03341-03561104371ADDGA1001+999999999GF100991001001999999001001MD1710041+9999REMSYN054AAXX  01181 30935 42999 00000 11334 21356 40437 57004;
0122309350999992000020121004+50370+108750FM-12+077099999V0209999C000012200019N0500001N1-03631-03841104511ADDGA1001+999999999GF100991001001999999001001MD1410001+9999REMSYN054AAXX  01211 30935 42999 00000 11363 21384 40451 54000;
0231309350999992000020200004+50370+108750FM-12+077099999V0200901N001012200019N0500001N1-03671-03911104541ADDAA199000091AJ100119199999999GA1001+999999999GF100991001001999999001001IA1239KA1120N-03711MA1999999093631MD1310011+9999REMSYN082AAXX  02001 30935 32999 00901 11367 21391 39363 40454 53001 333 21371 47011 55082;EQDQ01  00002PRCP99
0122309350999992000020203004+50370+108750FM-12+077099999V0202101N001012200019N0500001N1-03071-03291104301ADDGA1001+999999999GF100991001001999999001001MD1210041+9999REMSYN054AAXX  02031 30935 42999 02101 11307 21329 40430 52004;
0112309350999992000020206004+50370+108750FM-12+077099999V0209999C000019999999N0500001N1-02431-02821103941ADDGF105991001001999999001011MD1810071+9999REMSYN060AAXX  02061 30935 42999 50000 11243 21282 40394 58007 80001;
0112309350999992000020209004+50370+108750FM-12+077099999V0209999C000012200019N0500001N1-02131-02611103781ADDGF102991001001999999001011MD1710031+9999REMSYN060AAXX  02091 30935 42999 20000 11213 21261 40378 57003 80001;
0196309350999992000020212004+50370+108750FM-12+077099999V0202601N001012200019N0500001N1-02701-03011104091ADDAA199000091GA1001+999999999GF100991001001999999001001KA1999M-02101MA1999999093641MD1310071+9999REMSYN070AAXX  02121 30935 32999 02601 11270 21301 39364 40409 53007 333 11210;EQDQ01  00002PRCP99
0122309350999992000020215004+50370+108750FM-12+077099999V0209999C000012200019N0500001N1-03001-03231104291ADDGA1001+999999999GF100991001001999999001001MD1210041+9999REMSYN054AAXX  02151 30935 42999 00000 11300 21323 40429 52004;
0122309350999992000020218004+50370+108750FM-12+077099999V0209999C000012200019N0500001N1-03181-03411104301ADDGA1001+999999999GF100991001001999999001001MD1810061+9999REMSYN054AAXX  02181 30935 42999 00000 11318 21341 40430 58006;
0122309350999992000020221004+50370+108750FM-12+077099999V0209999C000012200019N0500001N1-03271-03511104311ADDGA1001+999999999GF100991001001999999001001MD1710031+9999REMSYN054AAXX  02211 30935 42999 00000 11327 21351 40431 57003;
0231309350999992000020300004+50370+108750FM-12+077099999V0209999C000012200019N0500001N1-03511-03741104491ADDAA199000091AJ100119199999999GA1001+999999999GF100991001001999999001001IA1239KA1120N-03511MA1999999093651MD1310061+9999REMSYN082AAXX  03001 30935 32999 00000 11351 21374 39365 40449 53006 333 21351 47011 55074;EQDQ01  00002PRCP99
0122309350999992000020303004+50370+108750FM-12+077099999V0200301N001012200019N0500001N1-02911-03151104241ADDGA1001+999999999GF100991001001999999001001MD1210031+9999REMSYN054AAXX  03031 30935 42999 00301 11291 21315 40424 52003;
0122309350999992000020306004+50370+108750FM-12+077099999V0203501N001012200019N0500001N1-02321-02641103751ADDGA1001+999999999GF100991001001999999001001MD1810211+9999REMSYN054AAXX  03061 30935 42999 03501 11232 21264 40375 58021;
0122309350999992000020309004+50370+108750FM-12+077099999V0209999C000012200019N0500001N1-02011-02421103451ADDGA1001+999999999GF100991001001999999001001MD1710151+9999REMSYN054AAXX  03091 30935 42999 00000 11201 21242 40345 57015;
0196309350999992000020312004+50370+108750FM-12+077099999V0202401N001012200019N0500001N1-02701-02941103721ADDAA199000091GA1001+999999999GF100991001001999999001001KA1999M-01901MA1999999093301MD1710021+9999REMSYN070AAXX  03121 30935 32999 02401 11270 21294 39330 40372 57002 333 11190;EQDQ01  00002PRCP99
0122309350999992000020315004+50370+108750FM-12+077099999V0209999C000012200019N0500001N1-03011-03251103851ADDGA1001+999999999GF100991001001999999001001MD1710011+9999REMSYN054AAXX  03151 30935 42999 00000 11301 21325 40385 57001;
0122309350999992000020318004+50370+108750FM-12+077099999V0209999C000012200019N0500001N1-03281-03511103991ADDGA1001+999999999GF100991001001999999001001MD1310011+9999REMSYN054AAXX  03181 30935 42999 00000 11328 21351 40399 53001;
0122309350999992000020321004+50370+108750FM-12+077099999V0209999C000012200019N0500001N1-03451-03671104101ADDGA1001+999999999GF100991001001999999001001MD1210031+9999REMSYN054AAXX  03211 30935 42999 00000 11345 21367 40410 52003;
0231309350999992000020400004+50370+108750FM-12+077099999V0209999C000012200019N0500001N1-03551-03771104181ADDAA199000091AJ100119199999999GA1001+999999999GF100991001001999999001001IA1239KA1120N-03611MA1999999093361MD1210031+9999REMSYN082AAXX  04001 30935 32999 00000 11355 21377 39336 40418 52003 333 21361 47011 55075;EQDQ01  00002PRCP99
0122309350999992000020403004+50370+108750FM-12+077099999V0209999C000012200019N0500001N1-03111-03341104031ADDGA1001+999999999GF100991001001999999001001MD1210051+9999REMSYN054AAXX  04031 30935 42999 00000 11311 21334 40403 52005;
0122309350999992000020406004+50370+108750FM-12+077099999V0200101N001012200019N0500001N1-02331-02651103531ADDGA1001+999999999GF100991001001999999001001MD1810141+9999REMSYN054AAXX  04061 30935 42999 00101 11233 21265 40353 58014;
0122309350999992000020409004+50370+108750FM-12+077099999V0209999C000012200019N0500001N1-02001-02491103261ADDGA1001+999999999GF100991001001999999001001MD1710121+9999REMSYN054AAXX  04091 30935 42999 00000 11200 21249 40326 57012;
0196309350999992000020412004+50370+108750FM-12+077099999V0209999C000012200019N0500001N1-02791-03111103621ADDAA199000091GA1001+999999999GF100991001001999999001001KA1999M-01901MA1999999093171MD1310021+9999REMSYN070AAXX  04121 30935 32999 00000 11279 21311 39317 40362 53002 333 11190;EQDQ01  00002PRCP99
0112309350999992000020415004+50370+108750FM-12+077099999V0209999C000012200019N0500001N1-03081-03321103791ADDGF101991001001999999001011MD1210031+9999REMSYN060AAXX  04151 30935 42999 10000 11308 21332 40379 52003 80001;
0122309350999992000020418004+50370+108750FM-12+077099999V0209999C000012200019N0500001N1-03291-03511103971ADDGA1001+999999999GF100991001001999999001001MD1210081+9999REMSYN054AAXX  04181 30935 42999 00000 11329 21351 40397 52008;
0122309350999992000020421004+50370+108750FM-12+077099999V0209999C000012200019N0500001N1-03401-03611104081ADDGA1001+999999999GF100991001001999999001001MD1210051+9999REMSYN054AAXX  04211 30935 42999 00000 11340 21361 40408 52005;
0231309350999992000020500004+50370+108750FM-12+077099999V0209999C000012200019N0500001N1-03621-03841104351ADDAA199000091AJ100119199999999GA1001+999999999GF100991001001999999001001IA1239KA1120N-03641MA1999999093481MD1210151+9999REMSYN082AAXX  05001 30935 32999 00000 11362 21384 39348 40435 52015 333 21364 47011 55075;EQDQ01  00002PRCP99
0140309350999992000020503004+50370+108750FM-12+077099999V0200601N001019999999N9999999N1-03071-03291104171ADDAY111031AY211031GF105991001001999999001021MD1210071+9999MW1401REMSYN066AAXX  05031 30935 4197/ 50601 11307 21329 40417 52007 74011 80002;
0112309350999992000020506004+50370+108750FM-12+077099999V0209999C000019999999N0500001N1-02361-02611103721ADDGF106991021001999999031021MD1810111+9999REMSYN060AAXX  05061 30935 42999 60000 11236 21261 40372 58011 82032;
0112309350999992000020509004+50370+108750FM-12+077099999V0209999C000010750019N0500001N1-02021-02431103531ADDGF105991011011012501001021MD1710051+9999REMSYN060AAXX  05091 30935 42699 50000 11202 21243 40353 57005 81102;
0186309350999992000020512004+50370+108750FM-12+077099999V0209999C000012200019N0500001N1-02571-02811103811ADDAA199000091GF102991001001999999001011KA1999M-01981MA1999999093431MD1310041+9999REMSYN076AAXX  05121 30935 32999 20000 11257 21281 39343 40381 53004 80001 333 11198;EQDQ01  00002PRCP99
0122309350999992000020515004+50370+108750FM-12+077099999V0200901N001012200019N0500001N1-02731-02911103881ADDGA1001+999999999GF100991001001999999001001MD1410001+9999REMSYN054AAXX  05151 30935 42999 00901 11273 21291 40388 54000;
0122309350999992000020518004+50370+108750FM-12+077099999V0209999C000012200019N0500001N1-02881-03051104011ADDGA1001+999999999GF100991001001999999001001MD1310051+9999REMSYN054AAXX  05181 30935 42999 00000 11288 21305 40401 53005;
0122309350999992000020521004+50370+108750FM-12+077099999V0209999C000012200019N0500001N1-02831-03061104001ADDGA1001+999999999GF100991001001999999001001MD1210021+9999REMSYN054AAXX  05211 30935 42999 00000 11283 21306 40400 52002;
0221309350999992000020600004+50370+108750FM-12+077099999V0202201N001012200019N0500001N1-02661-02831103961ADDAA199000091AJ100119199999999GF103991001001999999001011IA1239KA1120N-02921MA1999999093541MD1210041+9999REMSYN088AAXX  06001 30935 32999 32201 11266 21283 39354 40396 52004 80001 333 21292 47011 55059;EQDQ01  00002PRCP99
0140309350999992000020603004+50370+108750FM-12+077099999V0201601N001019999999N0100001N1-02041-02231103761ADDAY111031AY211031GF106991001001999999001011MD1210051+9999MW1151REMSYN066AAXX  06031 30935 41997 61601 11204 21223 40376 52005 71511 80001;
0112309350999992000020606004+50370+108750FM-12+077099999V0201701N002019999999N0500001N1-01241-01671103221ADDGF105991001001999999001021MD1810181+9999REMSYN060AAXX  06061 30935 42999 51702 11124 21167 40322 58018 80002;
0112309350999992000020609004+50370+108750FM-12+077099999V0202401N003012200019N0500001N1-01151-01991103121ADDGF101991001001999999001011MD1710071+9999REMSYN060AAXX  06091 30935 42999 12403 11115 21199 40312 57007 80001;
0196309350999992000020612004+50370+108750FM-12+077099999V0202101N001012200019N0500001N1-01951-02361103511ADDAA199000091GA1001+999999999GF100991001001999999001001KA1999M-01091MA1999999093401MD1310061+9999REMSYN070AAXX  06121 30935 32999 02101 11195 21236 39340 40351 53006 333 11109;EQDQ01  00002PRCP99
0141309350999992000020615004+50370+108750FM-12+077099999V0209999C000012200019N0500001N1-02561-02811999999ADDGA1001+999999999GF100991001001999999001001MD1210081+9999REMSYN054AAXX  06151 30935 42999 00000 11256 21281 40286 52008;EQDQ01+102863APOSLP
0122309350999992000020618004+50370+108750FM-12+077099999V0209999C000012200019N0500001N1-02831-03001103971ADDGA1001+999999999GF100991001001999999001001MD1810011+9999REMSYN054AAXX  06181 30935 42999 00000 11283 21300 40397 58001;
0122309350999992000020621004+50370+108750FM-12+077099999V0209999C000012200019N0500001N1-03001-03171104061ADDGA1001+999999999GF100991001001999999001001MD1310011+9999REMSYN054AAXX  06211 30935 42999 00000 11300 21317 40406 53001;
0231309350999992000020700004+50370+108750FM-12+077099999V0202201N001012200019N0500001N1-03311-03531104241ADDAA199000091AJ100119199999999GA1001+999999999GF100991001001999999001001IA1239KA1120N-03371MA1999999093521MD1210041+9999REMSYN082AAXX  07001 30935 32999 02201 11331 21353 39352 40424 52004 333 21337 47011 55065;EQDQ01  00002PRCP99
0122309350999992000020703004+50370+108750FM-12+077099999V0209999C000012200019N0500001N1-02491-02671103911ADDGA1001+999999999GF100991001001999999001001MD1210031+9999REMSYN054AAXX  07031 30935 42999 00000 11249 21267 40391 52003;
0122309350999992000020706004+50370+108750FM-12+077099999V0200501N001012200019N0500001N1-02081-02411103701ADDGA1001+999999999GF100991001001999999001001MD1810021+9999REMSYN054AAXX  07061 30935 42999 00501 11208 21241 40370 58002;
0112309350999992000020709004+50370+108750FM-12+077099999V0201801N001012200019N0500001N1-01731-02231103541ADDGF102991001001999999001011MD1710021+9999REMSYN060AAXX  07091 30935 42999 21801 11173 21223 40354 57002 80001;
0196309350999992000020712004+50370+108750FM-12+077099999V0202401N001012200019N0500001N1-02421-02661103851ADDAA199000091GA1001+999999999GF100991001001999999001001KA1999M-01651MA1999999093531MD1310021+9999REMSYN070AAXX  07121 30935 32999 02401 11242 21266 39353 40385 53002 333 11165;EQDQ01  00002PRCP99
0122309350999992000020715004+50370+108750FM-12+077099999V0209999C000012200019N0500001N1-02581-02821103901ADDGA1001+999999999GF100991001001999999001001MD1810021+9999REMSYN054AAXX  07151 30935 42999 00000 11258 21282 40390 58002;
0112309350999992000020718004+50370+108750FM-12+077099999V0209999C000019999999N0500001N1-02441-02691103841ADDGF105991001001999999001011MD1410001+9999REMSYN060AAXX  07181 30935 42999 50000 11244 21269 40384 54000 80001;
0112309350999992000020721004+50370+108750FM-12+077099999V0209999C000012200019N0500001N1-02491-02741103921ADDGF103991001001999999001011MD1310051+9999REMSYN060AAXX  07211 30935 42999 30000 11249 21274 40392 53005 80001;
0237309350999992000020800004+50370+108750FM-12+077099999V0209999C000019999999N0500001N1-02511-02751999999ADDAA199000091AJ100119199999999GF106991041001999999031011IA1239KA1120N-02681MA1999999093571MD1210011+9999REMSYN088AAXX  08001 30935 32999 60000 11251 21275 39357 40494 52001 84031 333 21268 47011 55080;EQDQ01+104943APOSLPQ02  00002PRCP99
0112309350999992000020803004+50370+108750FM-12+077099999V0200301N001012200019N0500001N1-02101-02431103751ADDGF103991001001999999001011MD1810011+9999REMSYN060AAXX  08031 30935 42999 30301 11210 21243 40375 58001 80001;
0112309350999992000020806004+50370+108750FM-12+077099999V0203101N001012200019N0500001N1-01651-02151103431ADDGF102991001001999999001011MD1710121+9999REMSYN060AAXX  08061 30935 42999 23101 11165 21215 40343 57012 80001;
0122309350999992000020809004+50370+108750FM-12+077099999V0209999C000012200019N0500001N1-01401-02111103161ADDGA1001+999999999GF100991001001999999001001MD1710161+9999REMSYN054AAXX  08091 30935 42999 00000 11140 21211 40316 57016;
0196309350999992000020812004+50370+108750FM-12+077099999V0209999C000012200019N0500001N1-02171-02491103361ADDAA199000091GA1001+999999999GF100991001001999999001001KA1999M-01351MA1999999093181MD1710101+9999REMSYN070AAXX  08121 30935 32999 00000 11217 21249 39318 40336 57010 333 11135;EQDQ01  00002PRCP99
0122309350999992000020815004+50370+108750FM-12+077099999V0209999C000012200019N0500001N1-02511-02691103481ADDGA1001+999999999GF100991001001999999001001MD1710031+9999REMSYN054AAXX  08151 30935 42999 00000 11251 21269 40348 57003;
0112309350999992000020818004+50370+108750FM-12+077099999V0209999C000012200019N0500001N1-02661-02831103451ADDGF102991001001999999001011MD1410001+9999REMSYN060AAXX  08181 30935 42999 20000 11266 21283 40345 54000 80001;
0112309350999992000020821004+50370+108750FM-12+077099999V0209999C000012200019N0500001N1-02821-03001103531ADDGF101991001001999999001011MD1810071+9999REMSYN060AAXX  08211 30935 42999 10000 11282 21300 40353 58007 80001;
0221309350999992000020900004+50370+108750FM-12+077099999V0209999C000012200019N0500001N1-03011-03191103621ADDAA199000091AJ100119199999999GF103991021001999999031011IA1239KA1120N-03011MA1999999093081MD1410001+9999REMSYN088AAXX  09001 30935 32999 30000 11301 21319 39308 40362 54000 82031 333 21301 47011 55083;EQDQ01  00002PRCP99
0112309350999992000020903004+50370+108750FM-12+077099999V0201801N001012200019N0500001N1-02561-02741103411ADDGF103991001001999999001011MD1810011+9999REMSYN060AAXX  09031 30935 42999 31801 11256 21274 40341 58001 80001;
0112309350999992000020906004+50370+108750FM-12+077099999V0203201N001012200019N0500001N1-01791-02121102881ADDGF102991001001999999001011MD1710181+9999REMSYN060AAXX  09061 30935 42999 23201 11179 21212 40288 57018 80001;
0112309350999992000020909004+50370+108750FM-12+077099999V0209999C000012200019N0500001N1-01491-01911102581ADDGF102991001001999999001011MD1710161+9999REMSYN060AAXX  09091 30935 42999 20000 11149 21191 40258 57016 80001;
0186309350999992000020912004+50370+108750FM-12+077099999V0209999C000012200019N0500001N1-02051-02301102811ADDAA199000091GF103991001001999999001011KA1999M-01451MA1999999092731MD1410001+9999REMSYN076AAXX  09121 30935 32999 30000 11205 21230 39273 40281 54000 80001 333 11145;EQDQ01  00002PRCP99
0122309350999992000020915004+50370+108750FM-12+077099999V0209999C000012200019N0500001N1-02351-02531102971ADDGA1001+999999999GF100991001001999999001001MD1310021+9999REMSYN054AAXX  09151 30935 42999 00000 11235 21253 40297 53002;
0112309350999992000020918004+50370+108750FM-12+077099999V0209999C000019999999N0500001N1-02251-02431102951ADDGF108991061001999999041021MD1210031+9999REMSYN060AAXX  09181 30935 42999 80000 11225 21243 40295 52003 86042;
0112309350999992000020921004+50370+108750FM-12+077099999V0209999C000019999999N0500001N1-02221-02401102871ADDGF107991051001999999041021MD1810061+9999REMSYN060AAXX  09211 30935 42999 70000 11222 21240 40287 58006 85042;
0221309350999992000021000004+50370+108750FM-12+077099999V0200301N001012200019N0500001N1-02591-02771103001ADDAA199000091AJ100119199999999GF102991021001999999041001IA1239KA1120N-02621MA1999999092691MD1710031+9999REMSYN088AAXX  10001 30935 32999 20301 11259 21277 39269 40300 57003 82040 333 21262 47011 55059;EQDQ01  00002PRCP99
0112309350999992000021003004+50370+108750FM-12+077099999V0209999C000019999999N0500001N1-02061-02311102891ADDGF105991021001999999041011MD1310111+9999REMSYN060AAXX  10031 30935 42999 50000 11206 21231 40289 53011 82041;
0112309350999992000021006004+50370+108750FM-12+077099999V0202301N001012200019N0500001N1-01461-01811102341ADDGF102991001001999999001011MD1810271+9999REMSYN060AAXX  10061 30935 42999 22301 11146 21181 40234 58027 80001;
0112309350999992000021009004+50370+108750FM-12+077099999V0200301N001012200019N0500001N1-01271-01701102121ADDGF102991001001999999001011MD1710141+9999REMSYN060AAXX  10091 30935 42999 20301 11127 21170 40212 57014 80001;
0186309350999992000021012004+50370+108750FM-12+077099999V0209999C000012200019N0500001N1-01761-02021102331ADDAA199000091GF102991001001999999001011KA1999M-01211MA1999999092411MD1310021+9999REMSYN076AAXX  10121 30935 32999 20000 11176 21202 39241 40233 53002 80001 333 11121;EQDQ01  00002PRCP99
0122309350999992000021015004+50370+108750FM-12+077099999V0209999C000012200019N0500001N1-02001-02191102401ADDGA1001+999999999GF100991001001999999001001MD1810031+9999REMSYN054AAXX  10151 30935 42999 00000 11200 21219 40240 58003;
0122309350999992000021018004+50370+108750FM-12+077099999V0209999C000012200019N0500001N1-02181-02361102481ADDGA1001+999999999GF100991001001999999001001MD1410001+9999REMSYN054AAXX  10181 30935 42999 00000 11218 21236 40248 54000;
0112309350999992000021021004+50370+108750FM-12+077099999V0209999C000012200019N0500001N1-01881-02071102361ADDGF103991001001999999001011MD1310011+9999REMSYN060AAXX  10211 30935 42999 30000 11188 21207 40236 53001 80001;
0221309350999992000021100004+50370+108750FM-12+077099999V0202101N001019999999N0500001N1-01801-01991102421ADDAA199000091AJ100119199999999GF106991031001999999041011IA1239KA1120N-02221MA1999999092471MD1210081+9999REMSYN088AAXX  11001 30935 32999 62101 11180 21199 39247 40242 52008 83041 333 21222 47011 55075;EQDQ01  00002PRCP99
0140309350999992000021103004+50370+108750FM-12+077099999V0200101N001019999999N0100001N1-01471-01741102511ADDAY111031AY211031GF106991001001999999001021MD1210201+9999MW1401REMSYN066AAXX  11031 30935 41997 60101 11147 21174 40251 52020 74011 80002;
0097309350999992000021106004+50370+108750FM-12+077099999V0200601N001012200019N0500001N1-00591-01161102201ADDGF102991999999999999999999REMSYN059AAXX  11061 30935 42999 20601 11059 21116 40220 5203 81041;
0112309350999992000021109004+50370+108750FM-12+077099999V0202801N002019999999N0500001N1-00701-01771102331ADDGF105991001001999999001011MD1210081+9999REMSYN060AAXX  11091 30935 42999 52802 11070 21177 40233 52008 80001;
0202309350999992000021112004+50370+108750FM-12+077099999V0202101N001012200019N0500001N1-01091-01711102731ADDAA199000091GF102991001001999999001011KA1999N+99999MA1999999093011MD1210231+9999REMSYN076AAXX  11121 30935 32999 22101 11109 21171 39301 40273 52023 80001 333 21047;EQDQ01  00002PRCP99Q02 -00472ATMN  
0122309350999992000021115004+50370+108750FM-12+077099999V0202501N001012200019N0500001N1-01271-01881103031ADDGA1001+999999999GF100991001001999999001001MD1210201+9999REMSYN054AAXX  11151 30935 42999 02501 11127 21188 40303 52020;
0122309350999992000021118004+50370+108750FM-12+077099999V0203201N001012200019N0500001N1-01581-02091103361ADDGA1001+999999999GF100991001001999999001001MD1210191+9999REMSYN054AAXX  11181 30935 42999 03201 11158 21209 40336 52019;
0122309350999992000021121004+50370+108750FM-12+077099999V0209999C000012200019N0500001N1-02201-02451103631ADDGA1001+999999999GF100991001001999999001001MD1210021+9999REMSYN054AAXX  11211 30935 42999 00000 11220 21245 40363 52002;
0221309350999992000021200004+50370+108750FM-12+077099999V0200601N001012200019N0500001N1-02611-02791103871ADDAA199000091AJ100119199999999GF102991021001999999041001IA1239KA1120N-02631MA1999999093461MD1210041+9999REMSYN088AAXX  12001 30935 32999 20601 11261 21279 39346 40387 52004 82040 333 21263 47011 55017;EQDQ01  00002PRCP99
0112309350999992000021203004+50370+108750FM-12+077099999V0203301N001012200019N0500001N1-02041-02231103711ADDGF102991011001999999041011MD1210081+9999REMSYN060AAXX  12031 30935 42999 23301 11204 21223 40371 52008 81041;
0112309350999992000021206004+50370+108750FM-12+077099999V0201401N002012200019N0500001N1-01091-01711103231ADDGF103991021001999999041011MD1810081+9999REMSYN060AAXX  12061 30935 42999 31402 11109 21171 40323 58008 82041;
0112309350999992000021209004+50370+108750FM-12+077099999V0202001N004012200019N0500001N1-01031-01871103131ADDGF101991001001999999001011MD1710071+9999REMSYN060AAXX  12091 30935 42999 12004 11103 21187 40313 57007 80001;
0196309350999992000021212004+50370+108750FM-12+077099999V0202101N003012200019N0500001N1-01661-02251103541ADDAA199000091GA1001+999999999GF100991001001999999001001KA1999M-00721MA1999999093541MD1310151+9999REMSYN070AAXX  12121 30935 32999 02103 11166 21225 39354 40354 53015 333 11072;EQDQ01  00002PRCP99
0122309350999992000021215004+50370+108750FM-12+077099999V0201901N002012200019N0500001N1-02141-02391103811ADDGA1001+999999999GF100991001001999999001001MD1210061+9999REMSYN054AAXX  12151 30935 42999 01902 11214 21239 40381 52006;
0112309350999992000021218004+50370+108750FM-12+077099999V0202401N002012200019N0500001N1-02131-02381103871ADDGF102991001001999999001011MD1210051+9999REMSYN060AAXX  12181 30935 42999 22402 11213 21238 40387 52005 80001;
0122309350999992000021221004+50370+108750FM-12+077099999V0202101N003012200019N0500001N1-02291-02481103941ADDGA1001+999999999GF100991001001999999001001MD1410001+9999REMSYN054AAXX  12211 30935 42999 02103 11229 21248 40394 54000;
0221309350999992000021300004+50370+108750FM-12+077099999V0209999C000012200019N0500001N1-02511-02691104111ADDAA199000091AJ100119199999999GF103991021001999999041011IA1239KA1120N-02571MA1999999093731MD1310081+9999REMSYN088AAXX  13001 30935 32999 30000 11251 21269 39373 40411 53008 82041 333 21257 47011 55084;EQDQ01  00002PRCP99
0112309350999992000021303004+50370+108750FM-12+077099999V0201801N001019999999N0500001N1-01881-02211103821ADDGF105991001001999999001011MD1810021+9999REMSYN060AAXX  13031 30935 42999 51801 11188 21221 40382 58002 80001;
0112309350999992000021306004+50370+108750FM-12+077099999V0201601N003019999999N0500001N1-01201-01721103381ADDGF107991031001999999041011MD1710161+9999REMSYN060AAXX  13061 30935 42999 71603 11120 21172 40338 57016 83041;
0112309350999992000021309004+50370+108750FM-12+077099999V0202201N005010300019N0500001N1-01261-01981103351ADDGF106991021011012501041011MD1710041+9999REMSYN060AAXX  13091 30935 42699 62205 11126 21198 40335 57004 82141;
0202309350999992000021312004+50370+108750FM-12+077099999V0202201N002012200019N0500001N1-01941-02351103661ADDAA199000091GF102991001001999999001011KA1120M-01101MA1999999093541MD1310031+9999REMSYN092AAXX  13121 30935 32999 22202 11194 21235 39354 40366 53003 80001 333 11110 555 1/125 53009;EQDQ01  00002PRCP99
0112309350999992000021315004+50370+108750FM-12+077099999V0202701N001012200019N0500001N1-02321+99999103901ADDGF101991001001999999001011MD1210071+9999REMSYN060AAXX  13151 30935 42999 12701 11232 22264 40390 52007 80001;
0112309350999992000021318004+50370+108750FM-12+077099999V0202501N003012200019N0500001N1-02471-02651103971ADDGF102991001001999999001011MD1410001+9999REMSYN060AAXX  13181 30935 42999 22503 11247 21265 40397 54000 80001;
0122309350999992000021321004+50370+108750FM-12+077099999V0209999C000012200019N0500001N1-02811-02981104121ADDGA1001+999999999GF100991001001999999001001MD1410001+9999REMSYN054AAXX  13211 30935 42999 00000 11281 21298 40412 54000;
0221309350999992000021400004+50370+108750FM-12+077099999V0203401N001012200019N0500001N1-02931-03111104221ADDAA199000091AJ100119199999999GF103991021001999999041011IA1239KA1120N-02931MA1999999093651MD1310041+9999REMSYN088AAXX  14001 30935 32999 33401 11293 21311 39365 40422 53004 82041 333 21293 47011 55026;EQDQ01  00002PRCP99
0112309350999992000021403004+50370+108750FM-12+077099999V0203401N001019999999N0500001N1-02191-02371103901ADDGF105991031001999999041011MD1410001+9999REMSYN060AAXX  14031 30935 42999 53401 11219 21237 40390 54000 83041;
0112309350999992000021406004+50370+108750FM-12+077099999V0201101N003010300019N0500001N1-01331-01761103441ADDGF108991021011012501041011MD1810091+9999REMSYN060AAXX  14061 30935 42699 81103 11133 21176 40344 58009 82141;
0202309350999992000021412004+50370+108750FM-12+077099999V0202401N003012200019N0500001N1-01901-02311103621ADDAA199000091GF102991001001999999001011KA1120M-01071MA1999999093521MD1310021+9999REMSYN092AAXX  14121 30935 32999 22403 11190 21231 39352 40362 53002 80001 333 11107 555 1/124 53007;EQDQ01  00002PRCP99
0122309350999992000021415004+50370+108750FM-12+077099999V0209999C000012200019N0500001N1-02371-02551103871ADDGA1001+999999999GF100991001001999999001001MD1210041+9999REMSYN054AAXX  14151 30935 42999 00000 11237 21255 40387 52004;
0122309350999992000021418004+50370+108750FM-12+077099999V0209999C000012200019N0500001N1-02821-03061104021ADDGA1001+999999999GF100991001001999999001001MD1810041+9999REMSYN054AAXX  14181 30935 42999 00000 11282 21306 40402 58004;
0112309350999992000021421004+50370+108750FM-12+077099999V0209999C000012200019N0500001N1-03121-03361104111ADDGF103991001001999999001011MD1710051+9999REMSYN060AAXX  14211 30935 42999 30000 11312 21336 40411 57005 80001;
0259309350999992000021500004+50370+108750FM-12+077099999V0200901N001012200019N0500001N1-03291-03511104191ADDAA199000091AJ100119199999999GA1001+999999999GF100991001001999999001001IA1239KA1120N-03311MA1999999093481MD1310011+9999REMSYN110AAXX  15001 30935 32999 00901 11329 21351 39348 40419 53001 333 21331 47011 5500/ 555 1/140 51214 53084 7000/;EQDQ01  00002PRCP99
0122309350999992000021503004+50370+108750FM-12+077099999V0209999C000012200019N0500001N1-02721-02901103971ADDGA1001+999999999GF100991001001999999001001MD1210041+9999REMSYN054AAXX  15031 30935 42999 00000 11272 21290 40397 52004;
0122309350999992000021506004+50370+108750FM-12+077099999V0200301N001012200019N0500001N1-02041-02371103501ADDGA1001+999999999GF100991001001999999001001MD1810171+9999REMSYN054AAXX  15061 30935 42999 00301 11204 21237 40350 58017;
0122309350999992000021509004+50370+108750FM-12+077099999V0200301N002012200019N0500001N1-01821-02231103221ADDGA1001+999999999GF100991001001999999001001MD1710161+9999REMSYN054AAXX  15091 30935 42999 00302 11182 21223 40322 57016;
0196309350999992000021512004+50370+108750FM-12+077099999V0202301N001012200019N0500001N1-02511-02821103541ADDAA199000091GA1001+999999999GF100991001001999999001001KA1999M-01781MA1999999093211MD1310021+9999REMSYN070AAXX  15121 30935 32999 02301 11251 21282 39321 40354 53002 333 11178;EQDQ01  00002PRCP99
0122309350999992000021515004+50370+108750FM-12+077099999V0209999C000012200019N0500001N1-02761-02991103631ADDGA1001+999999999GF100991001001999999001001MD1810011+9999REMSYN054AAXX  15151 30935 42999 00000 11276 21299 40363 58001;
0122309350999992000021518004+50370+108750FM-12+077099999V0209999C000012200019N0500001N1-03151-03381103821ADDGA1001+999999999GF100991001001999999001001MD1010011+9999REMSYN054AAXX  15181 30935 42999 00000 11315 21338 40382 50001;
0202309350999992000021521004+50370+108750FM-12+077099999V0202401N003012200019N0500001N1+99999-02311103621ADDAA199000091GF102991001001999999001011KA1999M-01071MA1999999093521MD1310021+9999REMSYN076AAXX  15211 30935 32999 22403 11190 21231 39352 40362 53002 80001 333 11107;EQDQ01-001903ATOT  Q02  00002PRCP99
0231309350999992000021600004+50370+108750FM-12+077099999V0209999C000012200019N0500001N1-03411-03642104021ADDAA199000091AJ100119199999999GA1001+999999999GF100991001001999999001001IA1239KA1120N-03411MA1999999093271MD1210011+9999REMSYN082AAXX  16001 30935 32999 00000 11341 21364 39327 40402 52001 333 21341 47011 55088;EQDQ01  00002PRCP99
0122309350999992000021603004+50370+108750FM-12+077099999V0209999C000012200019N0500001N1-02701-02941103641ADDGA1001+999999999GF100991001001999999001001MD1810041+9999REMSYN054AAXX  16031 30935 42999 00000 11270 21294 40364 58004;
0112309350999992000021606004+50370+108750FM-12+077099999V0200301N001012200019N0500001N1-01941-02351103071ADDGF101991001001999999001011MD1710221+9999REMSYN060AAXX  16061 30935 42999 10301 11194 21235 40307 57022 80001;
0122309350999992000021609004+50370+108750FM-12+077099999V0201501N001012200019N0500001N1-01651-02151102711ADDGA1001+999999999GF100991001001999999001001MD1710231+9999REMSYN054AAXX  16091 30935 42999 01501 11165 21215 40271 57023;
0196309350999992000021612004+50370+108750FM-12+077099999V0209999C000012200019N0500001N1-02391-02711103161ADDAA199000091GA1001+999999999GF100991001001999999001001KA1999M-01591MA1999999092921MD1310141+9999REMSYN070AAXX  16121 30935 32999 00000 11239 21271 39292 40316 53014 333 11159;EQDQ01  00002PRCP99
0122309350999992000021615004+50370+108750FM-12+077099999V0209999C000012200019N0500001N1-02651-02901103291ADDGA1001+999999999GF100991001001999999001001MD1210011+9999REMSYN054AAXX  16151 30935 42999 00000 11265 21290 40329 52001;
0122309350999992000021618004+50370+108750FM-12+077099999V0202101N001012200019N0500001N1-02891-03131103401ADDGA1001+999999999GF100991001001999999001001MD1210011+9999REMSYN054AAXX  16181 30935 42999 02101 11289 21313 40340 52001;
0122309350999992000021621004+50370+108750FM-12+077099999V0209999C000012200019N0500001N1-03001-03231103521ADDGA1001+999999999GF100991001001999999001001MD1210051+9999REMSYN054AAXX  16211 30935 42999 00000 11300 21323 40352 52005;
0221309350999992000021700004+50370+108750FM-12+077099999V0209999C000012200019N0500001N1-03111-03341103701ADDAA199000091AJ100119199999999GF102991001001999999001011IA1239KA1120N-03131MA1999999093111MD1210121+9999REMSYN088AAXX  17001 30935 32999 20000 11311 21334 39311 40370 52012 80001 333 21313 47011 55090;EQDQ01  00002PRCP99
0122309350999992000021703004+50370+108750FM-12+077099999V0200601N001012200019N0500001N1-02461-02701103391ADDGA1001+999999999GF100991001001999999001001MD1810021+9999REMSYN054AAXX  17031 30935 42999 00601 11246 21270 40339 58002;
0112309350999992000021706004+50370+108750FM-12+077099999V0200601N001012200019N0500001N1-01571-02081102901ADDGF101991001001999999001011MD1710101+9999REMSYN060AAXX  17061 30935 42999 10601 11157 21208 40290 57010 80001;
0112309350999992000021709004+50370+108750FM-12+077099999V0203401N001019999999N0500001N1-01411-01921102731ADDGF108991051001999999041011MD1710101+9999REMSYN060AAXX  17091 30935 42999 83401 11141 21192 40273 57010 85041;
0186309350999992000021712004+50370+108750FM-12+077099999V0209999C000019999999N0500001N1-01571-01991102781ADDAA199000091GF106991001001999999001011KA1999M-01271MA1999999092881MD1710011+9999REMSYN076AAXX  17121 30935 32999 60000 11157 21199 39288 40278 57001 80001 333 11127;EQDQ01  00002PRCP99
0140309350999992000021715004+50370+108750FM-12+077099999V0201801N001019999999N0100001N1-01521-01821102911ADDAY171031AY221031GF108991081001999999071999MD1310141+9999MW1711REMSYN066AAXX  17151 30935 41997 81801 11152 21182 40291 53014 77172 8807/;
0134309350999992000021718004+50370+108750FM-12+077099999V0201901N002019999999N0100001N1+99999+99999103001ADDAY171061AY221061GF108991081001999999071999MD1210161+9999MW1711REMSYN060AAXX  17181 30935 41997 81902 21149 40300 52016 77172 8807/;
0140309350999992000021721004+50370+108750FM-12+077099999V0201701N001019999999N0100001N1-01361-01491103071ADDAY171031AY271031GF108991081001999999071999MD1210041+9999MW1711REMSYN066AAXX  17211 30935 41997 81701 11136 21149 40307 52004 77177 8807/;
0236309350999992000021800004+50370+108750FM-12+077099999V0201901N002019999999N0100001N1-01401-01531103251ADDAA112001091AJ100129199999999AY171061AY271061GF108991081001999999071999IA1239KA1120N-01571MA1999999093361MD1210141+9999MW1711REMSYN100AAXX  18001 30935 11997 81902 11140 21153 39336 40325 52014 60012 77177 8807/ 333 21157 47012 55057;
0140309350999992000021803004+50370+108750FM-12+077099999V0201801N003019999999N0100001N1-01091-01291103201ADDAY171031AY221031GF108991051001999999041071MD1210081+9999MW1221REMSYN066AAXX  18031 30935 42997 81803 11109 21129 40320 52008 72272 85047;
0112309350999992000021806004+50370+108750FM-12+077099999V0202101N003012200019N0500001N1-00771-01431103041ADDGF105991021021012501001011MD1810041+9999REMSYN060AAXX  18061 30935 42699 52103 11077 21143 40304 58004 82201;
0112309350999992000021809004+50370+108750FM-12+077099999V0202501N002012200019N0500001N1-00711-01511102981ADDGF103991021021012501001011MD1710041+9999REMSYN060AAXX  18091 30935 42699 32502 11071 21151 40298 57004 82201;
0173309350999992000021812004+50370+108750FM-12+077099999V0202201N002012200019N0500001N1-01481-01911103331ADDAA112000791GF102991001001999999001011KA1999M-00651MA1999999093411MD1310051+9999REMSYN082AAXX  18121 30935 12999 22202 11148 21191 39341 40333 53005 69902 80001 333 11065;
0112309350999992000021815004+50370+108750FM-12+077099999V0203401N001012200019N0500001N1-01921-02181103511ADDGF101991001001999999001011MD1410001+9999REMSYN060AAXX  18151 30935 42999 13401 11192 21218 40351 54000 80001;
0112309350999992000021818004+50370+108750FM-12+077099999V0209999C000012200019N0500001N1-02501-02671103801ADDGF102991011001999999041011MD1310041+9999REMSYN060AAXX  18181 30935 42999 20000 11250 21267 40380 53004 81041;
0112309350999992000021821004+50370+108750FM-12+077099999V0202601N001012200019N0500001N1-02731-02911103921ADDGF103991001001999999001011MD1810011+9999REMSYN060AAXX  18211 30935 42999 32601 11273 21291 40392 58001 80001;
0221309350999992000021900004+50370+108750FM-12+077099999V0209999C000019999999N0500001N1-02851-03021104011ADDAA199000091AJ100129199999999GF105991031001999999041011IA1239KA1120N-02891MA1999999093501MD1210041+9999REMSYN088AAXX  19001 30935 32999 50000 11285 21302 39350 40401 52004 83041 333 21289 47012 55053;EQDQ01  00002PRCP99
0112309350999992000021903004+50370+108750FM-12+077099999V0209999C000019999999N0500001N1-02231-02411103701ADDGF105991001001999999001011MD1810041+9999REMSYN060AAXX  19031 30935 42999 50000 11223 21241 40370 58004 80001;
0112309350999992000021906004+50370+108750FM-12+077099999V0200201N001012200019N0500001N1-01741-02001103321ADDGF103991001001999999001011MD1710151+9999REMSYN060AAXX  19061 30935 42999 30201 11174 21200 40332 57015 80001;
0112309350999992000021909004+50370+108750FM-12+077099999V0203501N001012200019N0500001N1-01411-01841103021ADDGF102991001001999999001011MD1710161+9999REMSYN060AAXX  19091 30935 42999 23501 11141 21184 40302 57016 80001;
0186309350999992000021912004+50370+108750FM-12+077099999V0200201N001012200019N0500001N1-02101-02431103281ADDAA199000091GF103991021001999999041011KA1999M-01361MA1999999093141MD1610011+9999REMSYN076AAXX  19121 30935 32999 30201 11210 21243 39314 40328 56001 82041 333 11136;EQDQ01  00002PRCP99
0122309350999992000021915004+50370+108750FM-12+077099999V0209999C000012200019N0500001N1-02421-02601103511ADDGA1001+999999999GF100991001001999999001001MD1310081+9999REMSYN054AAXX  19151 30935 42999 00000 11242 21260 40351 53008;
0122309350999992000021918004+50370+108750FM-12+077099999V0209999C000012200019N0500001N1-02621-02801103651ADDGA1001+999999999GF100991001001999999001001MD1210051+9999REMSYN054AAXX  19181 30935 42999 00000 11262 21280 40365 52005;
0112309350999992000021921004+50370+108750FM-12+077099999V0209999C000012200019N0500001N1-02881-03051103761ADDGF103991001001999999001011MD1810021+9999REMSYN060AAXX  19211 30935 42999 30000 11288 21305 40376 58002 80001;
0259309350999992000022000004+50370+108750FM-12+077099999V0209999C000012200019N0100001N1-03121-03301103851ADDAA199000091AJ100129199999999AY101061AY201061GA1001+999999999GF100991001001999999001001IA1239KA1120N-03141MA1999999093241MD1710011+9999MW1401REMSYN088AAXX  20001 30935 31997 00000 11312 21330 39324 40385 57001 74000 333 21314 47012 55079;EQDQ01  00002PRCP99
0150309350999992000022003004+50370+108750FM-12+077099999V0203401N001012200019N0100001N1-02361-02551103551ADDAY101031AY201031GA1001+999999999GF100991001001999999001001MD1310041+9999MW1401REMSYN060AAXX  20031 30935 41997 03401 11236 21255 40355 53004 74000;
0112309350999992000022006004+50370+108750FM-12+077099999V0203301N001012200019N0500001N1-01801-02141103071ADDGF103991001001999999001011MD1810221+9999REMSYN060AAXX  20061 30935 42999 33301 11180 21214 40307 58022 80001;
0112309350999992000022009004+50370+108750FM-12+077099999V0202101N001019999999N0500001N1-01351-01961102711ADDGF106991021001999999041011MD1710171+9999REMSYN060AAXX  20091 30935 42999 62101 11135 21196 40271 57017 82041;
0156309350999992000022012004+50370+108750FM-12+077099999V0202401N001019999999N0500001N1-02141-02471103041ADDGF105991001001999999001011KA1999M-01301MA1999999092911MD1310021+9999REMSYN076AAXX  20121 30935 42999 52401 11214 21247 39291 40304 53002 80001 333 11130;
0112309350999992000022015004+50370+108750FM-12+077099999V0209999C000012200019N0500001N1-02541-02721103291ADDGF102991001001999999001011MD1210061+9999REMSYN060AAXX  20151 30935 42999 20000 11254 21272 40329 52006 80001;
0122309350999992000022018004+50370+108750FM-12+077099999V0209999C000012200019N0500001N1-02841-03021103541ADDGA1001+999999999GF100991001001999999001001MD1210111+9999REMSYN054AAXX  20181 30935 42999 00000 11284 21302 40354 52011;
0112309350999992000022021004+50370+108750FM-12+077099999V0209999C000012200019N0500001N1-02891-03071103661ADDGF102991001001999999001011MD1210081+9999REMSYN060AAXX  20211 30935 42999 20000 11289 21307 40366 52008 80001;
0221309350999992000022100004+50370+108750FM-12+077099999V0209999C000012200019N0500001N1-02931-03111103751ADDAA199000091AJ100129199999999GF102991001001999999001011IA1239KA1120N-03031MA1999999093241MD1210081+9999REMSYN088AAXX  21001 30935 32999 20000 11293 21311 39324 40375 52008 80001 333 21303 47012 55081;EQDQ01  00002PRCP99
0122309350999992000022103004+50370+108750FM-12+077099999V0200301N001012200019N0500001N1-02351-02531103661ADDGA1001+999999999GF100991001001999999001001MD1210141+9999REMSYN054AAXX  21031 30935 42999 00301 11235 21253 40366 52014;
0112309350999992000022106004+50370+108750FM-12+077099999V0200201N001012200019N0500001N1-01551-01971103201ADDGF103991021001999999041011MD1810121+9999REMSYN060AAXX  21061 30935 42999 30201 11155 21197 40320 58012 82041;
0112309350999992000022109004+50370+108750FM-12+077099999V0203301N001019999999N0500001N1-01251-01771103061ADDGF106991031001999999041011MD1710011+9999REMSYN060AAXX  21091 30935 42999 63301 11125 21177 40306 57001 83041;
0186309350999992000022112004+50370+108750FM-12+077099999V0201901N002012200019N0500001N1-01551-01891103331ADDAA199000091GF103991021001999999041011KA1999M-01201MA1999999093381MD1310131+9999REMSYN076AAXX  21121 30935 32999 31902 11155 21189 39338 40333 53013 82041 333 11120;EQDQ01  00002PRCP99
0112309350999992000022115004+50370+108750FM-12+077099999V0202101N001012200019N0500001N1-01801-02061103661ADDGF103991001001999999001011MD1210211+9999REMSYN060AAXX  21151 30935 42999 32101 11180 21206 40366 52021 80001;
0112309350999992000022118004+50370+108750FM-12+077099999V0201601N001019999999N0500001N1-02071-02261103821ADDGF105991021001999999031011MD1210051+9999REMSYN060AAXX  21181 30935 42999 51601 11207 21226 40382 52005 82031;
0112309350999992000022121004+50370+108750FM-12+077099999V0201301N001019999999N0500001N1-02431-02611103891ADDGF106991001001999999001021MD1210011+9999REMSYN060AAXX  21211 30935 42999 61301 11243 21261 40389 52001 80002;
0221309350999992000022200004+50370+108750FM-12+077099999V0200601N001010300019N0500001N1-02201-02381103901ADDAA199000091AJ100129199999999GF108991011011012501041011IA1239KA1120N-02491MA1999999093651MD1410001+9999REMSYN088AAXX  22001 30935 32699 80601 11220 21238 39365 40390 54000 81141 333 21249 47012 55051;EQDQ01  00002PRCP99
0112309350999992000022203004+50370+108750FM-12+077099999V0202501N003012200019N0500001N1-01401-01831103601ADDGF106991021011012501001011MD1310031+9999REMSYN060AAXX  22031 30935 42699 62503 11140 21183 40360 53003 82101;
0112309350999992000022206004+50370+108750FM-12+077099999V0202101N004012200019N0500001N1-01131-01851103461ADDGF108991021011012501001011MD1810031+9999REMSYN060AAXX  22061 30935 42699 82104 11113 21185 40346 58003 82101;
0112309350999992000022209004+50370+108750FM-12+077099999V0201901N004012200019N0500001N1-00991-01931103261ADDGF106991021011012501001011MD1710131+9999REMSYN060AAXX  22091 30935 42699 61904 11099 21193 40326 57013 82101;
0186309350999992000022212004+50370+108750FM-12+077099999V0202601N004012200019N0500001N1-01671-02261103541ADDAA199000091GF103991001001999999001011KA1999M-00931MA1999999093531MD1310011+9999REMSYN076AAXX  22121 30935 32999 32604 11167 21226 39353 40354 53001 80001 333 11093;EQDQ01  00002PRCP99
0097309350999992000022215004+50370+108750FM-12+077099999V0209999C000019999999N0500001N1+99999+99999999999ADDGF105991999999999999999999REMSYN059AAXX  22151 30935 42999 50000 1102 21235 40367 58001 83041;
0112309350999992000022218004+50370+108750FM-12+077099999V0203301N002019999999N0500001N1-02141-02391103701ADDGF106991021001999999041011MD1710021+9999REMSYN060AAXX  22181 30935 42999 63302 11214 21239 40370 57002 82041;
0112309350999992000022221004+50370+108750FM-12+077099999V0202101N001019999999N0500001N1-02131-02311103731ADDGF107991051001999999041011MD1310031+9999REMSYN060AAXX  22211 30935 42999 72101 11213 21231 40373 53003 85041;
0236309350999992000022300004+50370+108750FM-12+077099999V0209999C000019999999N0100001N1-02131-02311103781ADDAA112000791AJ100129199999999AY171061AY221061GF108991081001999999021999IA1239KA1120N-02581MA1999999093571MD1210041+9999MW1711REMSYN100AAXX  23001 30935 11997 80000 11213 21231 39357 40378 52004 69902 77172 8802/ 333 21258 47012 55069;
0140309350999992000022303004+50370+108750FM-12+077099999V0201501N002019999999N0100001N1-01331-01531103541ADDAY171031AY271031GF108991081001999999021999MD1210081+9999MW1711REMSYN066AAXX  23031 30935 41997 81502 11133 21153 40354 52008 77177 8802/;
0140309350999992000022306004+50370+108750FM-12+077099999V0200801N003010300019N0100001N1-00891-01331103261ADDAY171061AY221061GF107991021021012501041011MD1810091+9999MW1221REMSYN066AAXX  23061 30935 41697 70803 11089 21133 40326 58009 72272 82241;
0140309350999992000022309004+50370+108750FM-12+077099999V0200101N003010300019N0500001N1-00741-01701103131ADDAY131031AY221031GF106991021021012501041011MD1710071+9999MW1011REMSYN066AAXX  23091 30935 41699 60103 11074 21170 40313 57007 70132 82241;
0177309350999992000022312004+50370+108750FM-12+077099999V0202101N002019999999N0500001N1+99999+99999999999ADDAA100000791AY131061AY221061GF105991031001999999041011MD1410001+9999MW1011REMSYN092AAXX  23121 30935 11999 52102 21184 35//9 54000 6990/ 70132 83041 333 121// 555 1/118 53010;
0112309350999992000022315004+50370+108750FM-12+077099999V0201901N002019999999N0500001N1-01371-01891103381ADDGF106991021001999999041011MD1410001+9999REMSYN060AAXX  23151 30935 42999 61902 11137 21189 40338 54000 82041;
0112309350999992000022318004+50370+108750FM-12+077099999V0201901N003012200019N0500001N1-01591-02101103751ADDGF103991021001999999041011MD1810091+9999REMSYN060AAXX  23181 30935 42999 31903 11159 21210 40375 58009 82041;
0112309350999992000022321004+50370+108750FM-12+077099999V0200601N001019999999N0500001N1-01611-02031103261ADDGF108991081001999999021999MD1710101+9999REMSYN060AAXX  23211 30935 42999 80601 11161 21203 40326 57010 8802/;
0221309350999992000022400004+50370+108750FM-12+077099999V0201401N001019999999N0500001N1-01641-01981103241ADDAA199000091AJ100129199999999GF108991081001999999021999IA1239KA1120N-01841MA1999999093271MD1710031+9999REMSYN088AAXX  24001 30935 32999 81401 11164 21198 39327 40324 57003 8802/ 333 21184 47012 55025;EQDQ01  00002PRCP99
0237309350999992000022401004+50370+108750FM-12+077099999V0201401N001019999999N0500001N1-01641-01981103241ADDAA199000091AJ100129199999999GF108991081001999999021999IA1239KA1120N-01841MA1999999092702MD1719999+9999REMSYN088AAXX  24011 30935 32999 81401 11164 21198 3927/ 40324 570/3 8802/ 333 21184 47012 55025;EQDQ01+092703APOSP Q02  00002PRCP99
0112309350999992000022403004+50370+108750FM-12+077099999V0201901N003019999999N0500001N1-00891-01751102901ADDGF108991031001999999041011MD1710031+9999REMSYN060AAXX  24031 30935 42999 81903 11089 21175 40290 57003 83041;
0112309350999992000022406004+50370+108750FM-12+077099999V0201901N004019999999N0500001N1-00441-01601102591ADDGF108991031001999999041051MD1710141+9999REMSYN060AAXX  24061 30935 42999 81904 11044 21160 40259 57014 83045;
0112309350999992000022409004+50370+108750FM-12+077099999V0201801N003010300019N0500001N1-00311-01541102391ADDGF108991021051012501071999MD1710141+9999REMSYN060AAXX  24091 30935 42699 81803 11031 21154 40239 57014 8257/;
0186309350999992000022412004+50370+108750FM-12+077099999V0200101N003019999999N0500001N1-00591-01121102521ADDAA199000091GF106991041001999999041011KA1999M-00241MA1999999092991MD1310031+9999REMSYN076AAXX  24121 30935 32999 60103 11059 21112 39299 40252 53003 84041 333 11024;EQDQ01  00002PRCP99
0112309350999992000022415004+50370+108750FM-12+077099999V0209999C000019999999N0500001N1-00741-01041102501ADDGF108991081001999999071999MD1810061+9999REMSYN060AAXX  24151 30935 42999 80000 11074 21104 40250 58006 8807/;
0140309350999992000022418004+50370+108750FM-12+077099999V0202101N004019999999N0500001N1-00781-01091102491ADDAY171061AY221061GF106991051001999999041011MD1710031+9999MW1011REMSYN066AAXX  24181 30935 41999 62104 11078 21109 40249 57003 70172 85041;
0208309350999992000022500004+50370+108750FM-12+077099999V0201501N001019999999N0500001N1-01101-01541102751ADDAA112000191AJ100129199999999GF106991031001999999041021IA1239KA1120N-01181MA1999999093021MD1210031+9999REMSYN094AAXX  25001 30935 12999 61501 11110 21154 39302 40275 52003 69922 83042 333 21118 47012 55028;
0140309350999992000022503004+50370+108750FM-12+077099999V0202101N004019999999N0100001N1-00771-01221102621ADDAY121031AY221031GF108991081001999999071999MD1410001+9999MW1151REMSYN066AAXX  25031 30935 41997 82104 11077 21122 40262 54000 71522 8807/;
0140309350999992000022506004+50370+108750FM-12+077099999V0203201N006010750019N0040001N1-00671-01231102481ADDAY181061AY221061GF108991031091012501001021MD1810091+9999MW1851REMSYN066AAXX  25061 30935 41696 83206 11067 21123 40248 58009 78582 83902;
0140309350999992000022509004+50370+108750FM-12+077099999V0202401N004010750019N0100001N1-00671-01281102481ADDAY181031AY221031GF108991031091012501001021MD1410001+9999MW1151REMSYN066AAXX  25091 30935 41697 82404 11067 21128 40248 54000 71582 83902;
0217309350999992000022512004+50370+108750FM-12+077099999V0201801N003010750019N0500001N1-00791-01201102511ADDAA112000791AY181061AY231061GF108991011091012501001021KA1120M-00591MA1999999092921MD1810011+9999MW1011REMSYN104AAXX  25121 30935 11699 81803 11079 21120 39292 40251 58001 69902 70183 81902 333 11059 555 1/110 53012;
0140309350999992000022515004+50370+108750FM-12+077099999V0201801N003019999999N0100001N1-00811-00911102451ADDAY171031AY221031GF108991081001999999021999MD1710071+9999MW1711REMSYN066AAXX  25151 30935 41997 81803 11081 21091 40245 57007 77172 8802/;
0140309350999992000022518004+50370+108750FM-12+077099999V0201901N004019999999N0100001N1-00801-00901102311ADDAY171061AY221061GF108991081001999999021999MD1710111+9999MW1711REMSYN066AAXX  25181 30935 41997 81904 11080 21090 40231 57011 77172 8802/;
0140309350999992000022521004+50370+108750FM-12+077099999V0202701N005019999999N0500001N1-00721-01251102231ADDAY171031AY221031GF108991001001999999001021MD1710061+9999MW1011REMSYN066AAXX  25211 30935 41999 82705 11072 21125 40223 57006 70172 80002;
0236309350999992000022600004+50370+108750FM-12+077099999V0201801N005019999999N0100001N1-00831-01251102261ADDAA112001091AJ100139199999999AY171061AY221061GF108991081001999999021999IA1239KA1120N-00921MA1999999092671MD1710011+9999MW1711REMSYN100AAXX  26001 30935 11997 81805 11083 21125 39267 40226 57001 69992 77172 8802/ 333 21092 47013 55002;
0140309350999992000022603004+50370+108750FM-12+077099999V0202401N006019999999N0100001N1-00681-00921102231ADDAY171031AY271031GF108991081001999999021999MD1310031+9999MW1711REMSYN066AAXX  26031 30935 41997 82406 11068 21092 40223 53003 77177 8802/;
0140309350999992000022606004+50370+108750FM-12+077099999V0201901N006019999999N0040001N1-00571-01091102251ADDAY171061AY271061GF108991081001999999021999MD1210051+9999MW1711REMSYN066AAXX  26061 30935 41996 81906 11057 21109 40225 52005 77177 8802/;
0140309350999992000022609004+50370+108750FM-12+077099999V0202901N005010750019N0100001N1-00581-01201102261ADDAY171031AY271031GF106991041091012501001021MD1410001+9999MW1151REMSYN066AAXX  26091 30935 41697 62905 11058 21120 40226 54000 71577 84902;
0201309350999992000022612004+50370+108750FM-12+077099999V0202701N001019999999N0100001N1-00691-00941102461ADDAA112000591AY171061AY221061GF108991081001999999021999KA1999M-00421MA1999999092901MD1310151+9999MW1711REMSYN088AAXX  26121 30935 11997 82701 11069 21094 39290 40246 53015 69942 77172 8802/ 333 11042;
0140309350999992000022615004+50370+108750FM-12+077099999V0209999C000010300019N0500001N1-00771-00991102611ADDAY171031AY221031GF107991021051012501041021MD1210171+9999MW1011REMSYN066AAXX  26151 30935 41699 70000 11077 21099 40261 52017 70172 82542;
0140309350999992000022618004+50370+108750FM-12+077099999V0202601N002010300019N0500001N1-01071-01271102831ADDAY171061AY221061GF107991021051012501041001MD1210101+9999MW1021REMSYN066AAXX  26181 30935 41699 72602 11107 21127 40283 52010 70272 82540;
0112309350999992000022621004+50370+108750FM-12+077099999V0200901N001019999999N0500001N1-01421-01621103021ADDGF106991051001999999041021MD1210041+9999REMSYN060AAXX  26211 30935 42999 60901 11142 21162 40302 52004 85042;
0208309350999992000022700004+50370+108750FM-12+077099999V0203601N003012200019N0500001N1-01731-01921103221ADDAA112000391AJ100149199999999GF102991011001999999041011IA1239KA1120N-01751MA1999999093221MD1210071+9999REMSYN094AAXX  27001 30935 12999 23603 11173 21192 39322 40322 52007 69932 81041 333 21175 47014 55000;
0122309350999992000022703004+50370+108750FM-12+077099999V0200401N003012200019N0500001N1-01611-01951103391ADDGA1001+999999999GF100991001001999999001001MD1210201+9999REMSYN054AAXX  27031 30935 42999 00403 11161 21195 40339 52020;
0122309350999992000022706004+50370+108750FM-12+077099999V0202901N001012200019N0500001N1-01001-01661103081ADDGA1001+999999999GF100991001001999999001001MD1810071+9999REMSYN054AAXX  27061 30935 42999 02901 11100 21166 40308 58007;
0122309350999992000022709004+50370+108750FM-12+077099999V0203401N001012200019N0500001N1-00801-01601102841ADDGA1001+999999999GF100991001001999999001001MD1710141+9999REMSYN054AAXX  27091 30935 42999 03401 11080 21160 40284 57014;
0196309350999992000022712004+50370+108750FM-12+077099999V0200301N002012200019N0500001N1-01531-01801103111ADDAA199000091GA1001+999999999GF100991001001999999001001KA1999M-00301MA1999999093191MD1710021+9999REMSYN070AAXX  27121 30935 32999 00302 11153 21180 39319 40311 57002 333 11030;EQDQ01  00002PRCP99
0122309350999992000022715004+50370+108750FM-12+077099999V0202701N001012200019N0500001N1-01961-02081103321ADDGA1001+999999999GF100991001001999999001001MD1310041+9999REMSYN054AAXX  27151 30935 42999 02701 11196 21208 40332 53004;
0122309350999992000022718004+50370+108750FM-12+077099999V0209999C000012200019N0500001N1-02281-02401103461ADDGA1001+999999999GF100991001001999999001001MD1410001+9999REMSYN054AAXX  27181 30935 42999 00000 11228 21240 40346 54000;
0122309350999992000022721004+50370+108750FM-12+077099999V0203501N001012200019N0500001N1-02461-02571103531ADDGA1001+999999999GF100991001001999999001001MD1410001+9999REMSYN054AAXX  27211 30935 42999 03501 11246 21257 40353 54000;
0249309350999992000022800004+50370+108750FM-12+077099999V0209999C000012200019N0100001N1-02531-02701103571ADDAA199000091AJ100149199999999AY101061AY201061GF102991001001999999001011IA1239KA1120N-02671MA1999999093231MD1410001+9999MW1401REMSYN094AAXX  28001 30935 31997 20000 11253 21270 39323 40357 54000 74000 80001 333 21267 47014 55094;EQDQ01  00002PRCP99
0112309350999992000022803004+50370+108750FM-12+077099999V0203401N001012200019N0500001N1-02111-02231103401ADDGF102991001001999999001011MD1310011+9999REMSYN060AAXX  28031 30935 42999 23401 11211 21223 40340 53001 80001;
0112309350999992000022806004+50370+108750FM-12+077099999V0203101N001012200019N0500001N1-01371-01501102931ADDGF102991001001999999001011MD1810151+9999REMSYN060AAXX  28061 30935 42999 23101 11137 21150 40293 58015 80001;
0112309350999992000022809004+50370+108750FM-12+077099999V0203401N001012200019N0500001N1-00791-01461102441ADDGF103991001001999999001011MD1710241+9999REMSYN060AAXX  28091 30935 42999 33401 11079 21146 40244 57024 80001;
0165309350999992000022812004+50370+108750FM-12+077099999V0202101N001012200019N0500001N1-01521-01791102651ADDAA199000091GF101991001001999999001011KA1999M-00701MD1710071+9999REMSYN070AAXX  28121 30935 32999 12101 11152 21179 40265 57007 80001 333 11070;EQDQ01  00002PRCP99
0122309350999992000022815004+50370+108750FM-12+077099999V0200101N001012200019N0500001N1-01901-02091102721ADDGA1001+999999999GF100991001001999999001001MD1710071+9999REMSYN054AAXX  28151 30935 42999 00101 11190 21209 40272 57007;
0112309350999992000022818004+50370+108750FM-12+077099999V0209999C000012200019N0500001N1-02041-02161102771ADDGF101991001001999999001011MD1710011+9999REMSYN060AAXX  28181 30935 42999 10000 11204 21216 40277 57001 80001;
0122309350999992000022821004+50370+108750FM-12+077099999V0209999C000012200019N0500001N1-02291-02411102881ADDGA1001+999999999GF100991001001999999001001MD1410001+9999REMSYN054AAXX  28211 30935 42999 00000 11229 21241 40288 54000;
0267309350999992000022900004+50370+108750FM-12+077099999V0209999C000012200019N0500001N1-02471-02591103131ADDAA199000091AJ100139199999999GA1001+999999999GF100991001001999999001001GJ104989IA1239KA1120N-02521MA1999999092851MD1310151+9999REMSYN110AAXX  29001 30935 32999 00000 11247 21259 39285 40313 53015 333 21252 47013 55083 555 1/125 51188 53002 7000/;EQDQ01  00002PRCP99
0122309350999992000022903004+50370+108750FM-12+077099999V0200301N001012200019N0500001N1-01621-01881102921ADDGA1001+999999999GF100991001001999999001001MD1210141+9999REMSYN054AAXX  29031 30935 42999 00301 11162 21188 40292 52014;
0122309350999992000022906004+50370+108750FM-12+077099999V0200601N001012200019N0500001N1-00871-01411102581ADDGA1001+999999999GF100991001001999999001001MD1810041+9999REMSYN054AAXX  29061 30935 42999 00601 11087 21141 40258 58004;
0157309350999992000022909004+50370+108750FM-12+077099999V0203001N002012200019N0500001N1-00111-01151102301ADDGA1001+999999999GF100991001001999999001001MD1710281+9999REMSYN054AAXX  29091 30935 42999 03002 11011 21115 40230 56000;EQDQ01+000062APCTENQ02+000002APC3  
0212309350999992000022912004+50370+108750FM-12+077099999V0202801N004012200019N0500001N1-00621-01611102471ADDAA199000091GA1001+999999999GF100991001001999999001001KA1999N+99999MA1999999092941MD1810011+9999REMSYN070AAXX  29121 30935 32999 02804 11062 21161 39294 40247 58001 333 21007;EQDQ01  00002PRCP99Q02 -00072ATMN  
0122309350999992000022915004+50370+108750FM-12+077099999V0200601N001012200019N0500001N1-01371-01801102821ADDGA1001+999999999GF100991001001999999001001MD1310041+9999REMSYN054AAXX  29151 30935 42999 00601 11137 21180 40282 53004;
0122309350999992000022918004+50370+108750FM-12+077099999V0209999C000012200019N0500001N1-01761-01951102971ADDGA1001+999999999GF100991001001999999001001MD1410001+9999REMSYN054AAXX  29181 30935 42999 00000 11176 21195 40297 54000;
0122309350999992000022921004+50370+108750FM-12+077099999V0209999C000012200019N0500001N1-02101-02221103101ADDGA1001+999999999GF100991001001999999001001MD1810011+9999REMSYN054AAXX  29211 30935 42999 00000 11210 21222 40310 58001;
0231309350999992000030100004+50370+108750FM-12+077099999V0209999C000012200019N0500001N1-02411-02531103231ADDAA199000091AJ100139199999999GA1001+999999999GF100991001001999999001001IA1239KA1120N-02431MA1999999092971MD1410001+9999REMSYN082AAXX  01001 30935 32999 00000 11241 21253 39297 40323 54000 333 21243 47013 55098;EQDQ01  00002PRCP99
0122309350999992000030103004+50370+108750FM-12+077099999V0201201N001012200019N0500001N1-01431-01781102741ADDGA1001+999999999GF100991001001999999001001MD1810071+9999REMSYN054AAXX  01031 30935 42999 01201 11143 21178 40274 58007;
0112309350999992000030106004+50370+108750FM-12+077099999V0200201N001012200019N0500001N1-00851-01331102101ADDGF102991001001999999001011MD1710371+9999REMSYN060AAXX  01061 30935 42999 20201 11085 21133 40210 57037 80001;
0186309350999992000030112004+50370+108750FM-12+077099999V0209999C000012200019N0500001N1-00921-01421101631ADDAA199000091GF102991021001999999031001KA1999M-00301MA1999999092071MD1710191+9999REMSYN076AAXX  01121 30935 32999 20000 11092 21142 39207 40163 57019 82030 333 11030;EQDQ01  00002PRCP99
0122309350999992000030115004+50370+108750FM-12+077099999V0209999C000012200019N0500001N1-01571-01841101871ADDGA1001+999999999GF100991001001999999001001MD1710021+9999REMSYN054AAXX  01151 30935 42999 00000 11157 21184 40187 57002;
0112309350999992000030118004+50370+108750FM-12+077099999V0202601N002012200019N0500001N1-01791-02011101761ADDGF103991001001999999001011MD1710181+9999REMSYN060AAXX  01181 30935 42999 32602 11179 21201 40176 57018 80001;
0112309350999992000030121004+50370+108750FM-12+077099999V0202101N001019999999N0500001N1-01701-01831101701ADDGF106991001001999999001011MD1710021+9999REMSYN060AAXX  01211 30935 42999 62101 11170 21183 40170 57002 80001;
0221309350999992000030200004+50370+108750FM-12+077099999V0209999C000012200019N0500001N1-01951-02071101811ADDAA199000091AJ100139199999999GF103991021001999999041011IA1239KA1120N-01971MA1999999091861MD1310011+9999REMSYN088AAXX  02001 30935 32999 30000 11195 21207 39186 40181 53001 82041 333 21197 47013 55093;EQDQ01  00002PRCP99
0122309350999992000030203004+50370+108750FM-12+077099999V0200701N001012200019N0500001N1-01341-01611101561ADDGA1001+999999999GF100991001001999999001001MD1410001+9999REMSYN054AAXX  02031 30935 42999 00701 11134 21161 40156 54000;
0112309350999992000030206004+50370+108750FM-12+077099999V0201701N003012200019N0500001N1-00022-00941101011ADDGF102991021011012501001011MD1810061+9999REMSYN060AAXX  02061 30935 42699 21703 11002 21094 40101 58006 82101;
0112309350999992000030209004+50370+108750FM-12+077099999V0202401N004010300019N0500001N1-00141-01151101071ADDGF108991031051012501041011MD1310031+9999REMSYN060AAXX  02091 30935 42699 82404 11014 21115 40107 53003 83541;
0186309350999992000030212004+50370+108750FM-12+077099999V0202101N006010120019N0500001N1-00301-01021101341ADDAA199000091GF108991051051012501041011KA1999M+00121MA1999999092021MD1210191+9999REMSYN076AAXX  02121 30935 32699 82106 11030 21102 39202 40134 52019 85541 333 10012;EQDQ01  00002PRCP99
0112309350999992000030215004+50370+108750FM-12+077099999V0202401N003019999999N0500001N1-00681-00971101681ADDGF106991031001999999041011MD1210181+9999REMSYN060AAXX  02151 30935 42999 62403 11068 21097 40168 52018 83041;
0112309350999992000030218004+50370+108750FM-12+077099999V0202101N003012200019N0500001N1-00831-01251101861ADDGF103991021001999999041011MD1210111+9999REMSYN060AAXX  02181 30935 42999 32103 11083 21125 40186 52011 82041;
0140309350999992000030221004+50370+108750FM-12+077099999V0200901N002019999999N0100001N1-01171-01361102161ADDAY171031AY221031GF108991081001999999071999MD1210151+9999MW1151REMSYN066AAXX  02211 30935 41997 80902 11117 21136 40216 52015 71572 8807/;
0236309350999992000030300004+50370+108750FM-12+077099999V0201801N002019999999N0500001N1-01051-01111102191ADDAA112000191AJ100059199999999AY171061AY221061GF108991041001999999041011IA1239KA1120N-01281MA1999999092541MD1210081+9999MW1011REMSYN100AAXX  03001 30935 11999 81802 11105 21111 39254 40219 52008 69922 70172 84041 333 21128 47005 55065;
0140309350999992000030303004+50370+108750FM-12+077099999V0201801N005010120019N0500001N1-00831-01301102591ADDAY181031AY231031GF108991051091012501001011MD1210431+9999MW1261REMSYN066AAXX  03031 30935 41699 81805 11083 21130 40259 52043 72683 85901;
0140309350999992000030306004+50370+108750FM-12+077099999V0202201N007010300019N0500001N1-00781-02101102891ADDAY181061AY221061GF106991021011012501041011MD1210281+9999MW1011REMSYN066AAXX  03061 30935 41699 62207 11078 21210 40289 52028 70182 82141;
0112309350999992000030309004+50370+108750FM-12+077099999V0200201N007012200019N0500001N1-00811-01911102931ADDGF108991021011012501001011MD1210031+9999REMSYN060AAXX  03091 30935 42699 80207 11081 21191 40293 52003 82101;
0173309350999992000030312004+50370+108750FM-12+077099999V0201101N002019999999N0500001N1-01101-02061103041ADDAA112000791GF108991061001999999041011KA1999M-00651MA1999999093281MD1410001+9999REMSYN082AAXX  03121 30935 12999 81102 11110 21206 39328 40304 54000 69902 86041 333 11065;
0112309350999992000030315004+50370+108750FM-12+077099999V0202001N003012200019N0500001N1-01181-02011102791ADDGF102991001001999999001011MD1810251+9999REMSYN060AAXX  03151 30935 42999 22003 11118 21201 40279 58025 80001;
0112309350999992000030318004+50370+108750FM-12+077099999V0202001N003012200019N0500001N1-01091-01821102691ADDGF101991001001999999001011MD1710071+9999REMSYN060AAXX  03181 30935 42999 12003 11109 21182 40269 57007 80001;
0112309350999992000030321004+50370+108750FM-12+077099999V0203401N001012200019N0500001N1-02001-02261102851ADDGF102991001001999999001011MD1710171+9999REMSYN060AAXX  03211 30935 42999 23401 11200 21226 40285 57017 80001;
0221309350999992000030400004+50370+108750FM-12+077099999V0202401N001019999999N0500001N1-01901-02091102691ADDAA199000091AJ100059199999999GF106991041001999999031021IA1239KA1120N-02001MA1999999092681MD1710111+9999REMSYN088AAXX  04001 30935 32999 62401 11190 21209 39268 40269 57011 84032 333 21200 47005 55033;EQDQ01  00002PRCP99
0112309350999992000030403004+50370+108750FM-12+077099999V0200301N001019999999N0500001N1-01261-01691102221ADDGF108991061001999999031021MD1710201+9999REMSYN060AAXX  04031 30935 42999 80301 11126 21169 40222 57020 86032;
0112309350999992000030406004+50370+108750FM-12+077099999V0202101N004019999999N0500001N1-00281-01411101501ADDGF108991081001999999071999MD1710321+9999REMSYN060AAXX  04061 30935 42999 82104 11028 21141 40150 57032 8807/;
0112309350999992000030409004+50370+108750FM-12+077099999V0201901N003019999999N0500001N1-00221-01301101391ADDGF108991081001999999021999MD1710081+9999REMSYN060AAXX  04091 30935 42999 81903 11022 21130 40139 57008 8802/;
0186309350999992000030412004+50370+108750FM-12+077099999V0201901N002019999999N0500001N1-00801-01811101601ADDAA199000091GF108991031001999999051021KA1999M-00161MA1999999092081MD1410001+9999REMSYN076AAXX  04121 30935 32999 81902 11080 21181 39208 40160 54000 83052 333 11016;EQDQ01  00002PRCP99
0112309350999992000030415004+50370+108750FM-12+077099999V0202001N006012200019N0500001N1-00701-01631101941ADDGF102991001001999999001011MD1310351+9999REMSYN060AAXX  04151 30935 42999 22006 11070 21163 40194 53035 80001;
0112309350999992000030418004+50370+108750FM-12+077099999V0202501N006012200019N0500001N1-01071-02031102391ADDGF103991001001999999001011MD1210271+9999REMSYN060AAXX  04181 30935 42999 32506 11107 21203 40239 52027 80001;
0122309350999992000030421004+50370+108750FM-12+077099999V0201901N004012200019N0500001N1-01701-02611103061ADDGA1001+999999999GF100991001001999999001001MD1210391+9999REMSYN054AAXX  04211 30935 42999 01904 11170 21261 40306 52039;
0231309350999992000030500004+50370+108750FM-12+077099999V0202101N004012200019N0500001N1-01981-02761103431ADDAA199000091AJ100049199999999GA1001+999999999GF100991001001999999001001IA1239KA1120N-01981MA1999999093321MD1210231+9999REMSYN082AAXX  05001 30935 32999 02104 11198 21276 39332 40343 52023 333 21198 47004 55009;EQDQ01  00002PRCP99
0122309350999992000030503004+50370+108750FM-12+077099999V0201901N004012200019N0500001N1-01631-02551103401ADDGA1001+999999999GF100991001001999999001001MD1210101+9999REMSYN054AAXX  05031 30935 42999 01904 11163 21255 40340 52010;
0122309350999992000030506004+50370+108750FM-12+077099999V0202201N005012200019N0500001N1-01391-02331103251ADDGA1001+999999999GF100991001001999999001001MD1810061+9999REMSYN054AAXX  05061 30935 42999 02205 11139 21233 40325 58006;
0122309350999992000030509004+50370+108750FM-12+077099999V0202301N004012200019N0500001N1-01271-02351103131ADDGA1001+999999999GF100991001001999999001001MD1710061+9999REMSYN054AAXX  05091 30935 42999 02304 11127 21235 40313 57006;
0196309350999992000030512004+50370+108750FM-12+077099999V0202701N002012200019N0500001N1-01701-02611103311ADDAA199000091GA1001+999999999GF100991001001999999001001KA1999M-01221MA1999999093311MD1310011+9999REMSYN070AAXX  05121 30935 32999 02702 11170 21261 39331 40331 53001 333 11122;EQDQ01  00002PRCP99
0122309350999992000030515004+50370+108750FM-12+077099999V0202101N001012200019N0500001N1-02301-02961103571ADDGA1001+999999999GF100991001001999999001001MD1210011+9999REMSYN054AAXX  05151 30935 42999 02101 11230 21296 40357 52001;
0122309350999992000030518004+50370+108750FM-12+077099999V0209999C000012200019N0500001N1-02621-03091103731ADDGA1001+999999999GF100991001001999999001001MD1210021+9999REMSYN054AAXX  05181 30935 42999 00000 11262 21309 40373 52002;
0122309350999992000030521004+50370+108750FM-12+077099999V0209999C000012200019N0500001N1-02931-03311104081ADDGA1001+999999999GF100991001001999999001001MD1210191+9999REMSYN054AAXX  05211 30935 42999 00000 11293 21331 40408 52019;
0231309350999992000030600004+50370+108750FM-12+077099999V0209999C000012200019N0500001N1-03091-03381104351ADDAA199000091AJ100049199999999GA1001+999999999GF100991001001999999001001IA1239KA1120N-03181MA1999999093711MD1210181+9999REMSYN082AAXX  06001 30935 32999 00000 11309 21338 39371 40435 52018 333 21318 47004 55101;EQDQ01  00002PRCP99
0122309350999992000030603004+50370+108750FM-12+077099999V0203401N001012200019N0500001N1-02491-02881104221ADDGA1001+999999999GF100991001001999999001001MD1210121+9999REMSYN054AAXX  06031 30935 42999 03401 11249 21288 40422 52012;
0122309350999992000030606004+50370+108750FM-12+077099999V0201301N001012200019N0500001N1-01551-02061103821ADDGA1001+999999999GF100991001001999999001001MD1410001+9999REMSYN054AAXX  06061 30935 42999 01301 11155 21206 40382 54000;
0112309350999992000030609004+50370+108750FM-12+077099999V0202201N006012200019N0500001N1-00851-01911103451ADDGF102991021001999999041011MD1810091+9999REMSYN060AAXX  06091 30935 42999 22206 11085 21191 40345 58009 82041;
0186309350999992000030612004+50370+108750FM-12+077099999V0202101N003019999999N0500001N1-01171-01701103691ADDAA199000091GF105991031001999999041011KA1999M-00721MA1999999093851MD1310111+9999REMSYN076AAXX  06121 30935 32999 52103 11117 21170 39385 40369 53011 83041 333 11072;EQDQ01  00002PRCP99
0140309350999992000030615004+50370+108750FM-12+077099999V0201901N002019999999N0100001N1-01401-01601103761ADDAY121031AY221031GF106991051001999999031011MD1810021+9999MW1151REMSYN066AAXX  06151 30935 41997 61902 11140 21160 40376 58002 71522 85031;
0140309350999992000030618004+50370+108750FM-12+077099999V0202101N003019999999N0100001N1-01191-01391103531ADDAY171061AY221061GF108991081001999999021999MD1710131+9999MW1711REMSYN066AAXX  06181 30935 41997 82103 11119 21139 40353 57013 77172 8802/;
0112309350999992000030621004+50370+108750FM-12+077099999V0200101N001019999999N0500001N1-01081-01281103341ADDGF107991051001999999041011MD1710141+9999REMSYN060AAXX  06211 30935 42999 70101 11108 21128 40334 57014 85041;
0208309350999992000030700004+50370+108750FM-12+077099999V0202301N002019999999N0500001N1-00941-01341103291ADDAA112000791AJ100049199999999GF108991051001999999041021IA1239KA1120N-01531MA1999999093561MD1410001+9999REMSYN094AAXX  07001 30935 12999 82302 11094 21134 39356 40329 54000 69902 85042 333 21153 47004 55095;
0140309350999992000030703004+50370+108750FM-12+077099999V0201201N003019999999N0100001N1-00871-01061103261ADDAY171031AY221031GF108991081001999999071999MD1410001+9999MW1711REMSYN066AAXX  07031 30935 41997 81203 11087 21106 40326 54000 77172 8807/;
0140309350999992000030706004+50370+108750FM-12+077099999V0201601N002019999999N0500001N1-00591-00941103101ADDAY171061AY221061GF108991081001999999071999MD1810041+9999MW1011REMSYN066AAXX  07061 30935 41999 81602 11059 21094 40310 58004 70172 8807/;
0140309350999992000030709004+50370+108750FM-12+077099999V0202701N004010300019N0100001N1-00311-00991102821ADDAY121031AY221031GF108991021011012501021999MD1710171+9999MW1151REMSYN066AAXX  07091 30935 41697 82704 11031 21099 40282 57017 71522 8212/;
0173309350999992000030712004+50370+108750FM-12+077099999V0202101N002010300019N0500001N1-00471-01141102901ADDAA112000791GF106991011011012501041011KA1999M-00261MA1999999093371MD1310021+9999REMSYN082AAXX  07121 30935 12699 62102 11047 21114 39337 40290 53002 69902 81141 333 11026;
0112309350999992000030715004+50370+108750FM-12+077099999V0209999C000012200019N0500001N1-00801-01311103021ADDGF102991001001999999001011MD1410001+9999REMSYN060AAXX  07151 30935 42999 20000 11080 21131 40302 54000 80001;
0122309350999992000030718004+50370+108750FM-12+077099999V0202701N002012200019N0500001N1-01471-01601103301ADDGA1001+999999999GF100991001001999999001001MD1310021+9999REMSYN054AAXX  07181 30935 42999 02702 11147 21160 40330 53002;
0122309350999992000030721004+50370+108750FM-12+077099999V0200101N002012200019N0500001N1-01731-01851103411ADDGA1001+999999999GF100991001001999999001001MD1410001+9999REMSYN054AAXX  07211 30935 42999 00102 11173 21185 40341 54000;
0221309350999992000030800004+50370+108750FM-12+077099999V0209999C000012200019N0500001N1-02121-02241103701ADDAA199000091AJ100049199999999GF102991021001999999031001IA1239KA1120N-02171MA1999999093511MD1310121+9999REMSYN088AAXX  08001 30935 32999 20000 11212 21224 39351 40370 53012 82030 333 21217 47004 55000;EQDQ01  00002PRCP99
0112309350999992000030803004+50370+108750FM-12+077099999V0200601N001019999999N0500001N1-01331-01531103391ADDGF108991001001999999001021MD1210021+9999REMSYN060AAXX  08031 30935 42999 80601 11133 21153 40339 52002 80002;
0112309350999992000030806004+50370+108750FM-12+077099999V0201201N003010750019N0500001N1-00191-00851102881ADDGF108991031091012501001021MD1810081+9999REMSYN060AAXX  08061 30935 42699 81203 11019 21085 40288 58008 83902;
0112309350999992000030809004+50370+108750FM-12+077099999V0203301N003012200019N0500001N1-00071-00881102701ADDGF103991021011012501001021MD1710121+9999REMSYN060AAXX  08091 30935 42699 33303 11007 21088 40270 57012 82102;
0202309350999992000030812004+50370+108750FM-12+077099999V0202601N002012200019N0500001N1-00551-01161102851ADDAA199000091GF102991001001999999001011KA1120M+00021MA1999999093341MD1310011+9999REMSYN092AAXX  08121 30935 32999 22602 11055 21116 39334 40285 53001 80001 333 10002 555 1/109 53009;EQDQ01  00002PRCP99
0122309350999992000030815004+50370+108750FM-12+077099999V0209999C000012200019N0500001N1-01151-01501103081ADDGA1001+999999999GF100991001001999999001001MD1810031+9999REMSYN054AAXX  08151 30935 42999 00000 11115 21150 40308 58003;
0122309350999992000030818004+50370+108750FM-12+077099999V0200101N001012200019N0500001N1-01381-01511103181ADDGA1001+999999999GF100991001001999999001001MD1410001+9999REMSYN054AAXX  08181 30935 42999 00101 11138 21151 40318 54000;
0122309350999992000030821004+50370+108750FM-12+077099999V0209999C000012200019N0500001N1-01761-01881103381ADDGA1001+999999999GF100991001001999999001001MD1310041+9999REMSYN054AAXX  08211 30935 42999 00000 11176 21188 40338 53004;
0231309350999992000030900004+50370+108750FM-12+077099999V0209999C000012200019N0500001N1-01981-02101103691ADDAA199000091AJ100019199999999GA1001+999999999GF100991001001999999001001IA1309KA1120N-02001MA1999999093551MD1210201+9999REMSYN082AAXX  09001 30935 32999 00000 11198 21210 39355 40369 52020 333 21200 42001 55085;EQDQ01  00002PRCP99
0122309350999992000030903004+50370+108750FM-12+077099999V0203301N002012200019N0500001N1-01271-01401103461ADDGA1001+999999999GF100991001001999999001001MD1210061+9999REMSYN054AAXX  09031 30935 42999 03302 11127 21140 40346 52006;
0122309350999992000030906004+50370+108750FM-12+077099999V0201801N002012200019N0500001N1+00041-00711102741ADDGA1001+999999999GF100991001001999999001001MD1810201+9999REMSYN054AAXX  09061 30935 42999 01802 10004 21071 40274 58020;
0122309350999992000030909004+50370+108750FM-12+077099999V0200501N003012200019N0500001N1+00081-01001102641ADDGA1001+999999999GF100991001001999999001001MD1710081+9999REMSYN054AAXX  09091 30935 42999 00503 10008 21100 40264 57008;
0153309350999992000030912004+50370+108750FM-12+077099999V0202401N001012200019N0500001N1+99999+99999999999ADDAA199000091GA1001+999999999GF100991001001999999001001REMSYN069AAXX  09121 30935 32999 02401 1109 21121 39335 40285 53002 333 10026;EQDQ01  00002PRCP99
0122309350999992000030915004+50370+108750FM-12+077099999V0202401N008012200019N0500001N1-00891-01331103191ADDGA1001+999999999GF100991001001999999001001MD1210151+9999REMSYN054AAXX  09151 30935 42999 02408 11089 21133 40319 52015;
0122309350999992000030918004+50370+108750FM-12+077099999V0200301N002012200019N0500001N1-01641-01901103531ADDGA1001+999999999GF100991001001999999001001MD1210041+9999REMSYN054AAXX  09181 30935 42999 00302 11164 21190 40353 52004;
0122309350999992000030921004+50370+108750FM-12+077099999V0209999C000012200019N0500001N1-01771-01891103611ADDGA1001+999999999GF100991001001999999001001MD1210011+9999REMSYN054AAXX  09211 30935 42999 00000 11177 21189 40361 52001;
0247309350999992000031000004+50370+108750FM-12+077099999V0209999C000012200019N0500001N1-01861-01921103461ADDAA199000091AJ199992999999999GA1001+999999999GF100991001001999999001001IA1309KA1120N-01951MA1999999093391MD1810161+9999REMSYN082AAXX  10001 30935 32999 00000 11186 21192 39339 40346 58016 333 21195 42998 55102;EQDQ01  00002PRCP99Q02  09972SNDP  
0122309350999992000031003004+50370+108750FM-12+077099999V0203601N001012200019N0500001N1-01091-01221103141ADDGA1001+999999999GF100991001001999999001001MD1710011+9999REMSYN054AAXX  10031 30935 42999 03601 11109 21122 40314 57001;
0122309350999992000031006004+50370+108750FM-12+077099999V0209999C000012200019N0500001N1-00331-00721102651ADDGA1001+999999999GF100991001001999999001001MD1710181+9999REMSYN054AAXX  10061 30935 42999 00000 11033 21072 40265 57018;
0122309350999992000031009004+50370+108750FM-12+077099999V0202401N002012200019N0500001N1+00481-00921102161ADDGA1001+999999999GF100991001001999999001001MD1710211+9999REMSYN054AAXX  10091 30935 42999 02402 10048 21092 40216 57021;
0196309350999992000031012004+50370+108750FM-12+077099999V0202201N003012200019N0500001N1-00181-01011102371ADDAA199000091GA1001+999999999GF100991001001999999001001KA1999M+00571MA1999999092991MD1410001+9999REMSYN070AAXX  10121 30935 32999 02203 11018 21101 39299 40237 54000 333 10057;EQDQ01  00002PRCP99
0122309350999992000031015004+50370+108750FM-12+077099999V0209999C000012200019N0500001N1-00571-01091102621ADDGA1001+999999999GF100991001001999999001001MD1310101+9999REMSYN054AAXX  10151 30935 42999 00000 11057 21109 40262 53010;
0122309350999992000031018004+50370+108750FM-12+077099999V0209999C000012200019N0500001N1-01131-01331102841ADDGA1001+999999999GF100991001001999999001001MD1110011+9999REMSYN054AAXX  10181 30935 42999 00000 11113 21133 40284 51001;
0122309350999992000031021004+50370+108750FM-12+077099999V0209999C000012200019N0500001N1-01421-01551102951ADDGA1001+999999999GF100991001001999999001001MD1810011+9999REMSYN054AAXX  10211 30935 42999 00000 11142 21155 40295 58001;
0247309350999992000031100004+50370+108750FM-12+077099999V0209999C000012200019N0500001N1-01651-01711103041ADDAA199000091AJ199992999999999GA1001+999999999GF100991001001999999001001IA1259KA1120N-01691MA1999999093091MD1410001+9999REMSYN082AAXX  11001 30935 32999 00000 11165 21171 39309 40304 54000 333 21169 41998 55102;EQDQ01  00002PRCP99Q02  09972SNDP  
0122309350999992000031103004+50370+108750FM-12+077099999V0209999C000012200019N0500001N1-00991-01251102761ADDGA1001+999999999GF100991001001999999001001MD1810021+9999REMSYN054AAXX  11031 30935 42999 00000 11099 21125 40276 58002;
0122309350999992000031106004+50370+108750FM-12+077099999V0203501N001012200019N0500001N1-00301-00761102211ADDGA1001+999999999GF100991001001999999001001MD1710261+9999REMSYN054AAXX  11061 30935 42999 03501 11030 21076 40221 57026;
0122309350999992000031109004+50370+108750FM-12+077099999V0200301N001012200019N0500001N1+00341-00641101821ADDGA1001+999999999GF100991001001999999001001MD1710151+9999REMSYN054AAXX  11091 30935 42999 00301 10034 21064 40182 57015;
0196309350999992000031112004+50370+108750FM-12+077099999V0201201N001012200019N0500001N1+00101-00961102011ADDAA199000091GA1001+999999999GF100991001001999999001001KA1999M+00421MA1999999092751MD1310091+9999REMSYN070AAXX  11121 30935 32999 01201 10010 21096 39275 40201 53009 333 10042;EQDQ01  00002PRCP99
0122309350999992000031115004+50370+108750FM-12+077099999V0200601N001012200019N0500001N1-00641-00961102411ADDGA1001+999999999GF100991001001999999001001MD1210131+9999REMSYN054AAXX  11151 30935 42999 00601 11064 21096 40241 52013;
0122309350999992000031118004+50370+108750FM-12+077099999V0202301N001012200019N0500001N1-01091-01221102631ADDGA1001+999999999GF100991001001999999001001MD1210041+9999REMSYN054AAXX  11181 30935 42999 02301 11109 21122 40263 52004;
0122309350999992000031121004+50370+108750FM-12+077099999V0200901N001012200019N0500001N1-01421-01481103091ADDGA1001+999999999GF100991001001999999001001MD1210301+9999REMSYN054AAXX  11211 30935 42999 00901 11142 21148 40309 52030;
0247309350999992000031200004+50370+108750FM-12+077099999V0209999C000012200019N0500001N1-01641-01701103111ADDAA199000091AJ199992999999999GA1001+999999999GF100991001001999999001001IA1259KA1120N-01721MA1999999093151MD1810071+9999REMSYN082AAXX  12001 30935 32999 00000 11164 21170 39315 40311 58007 333 21172 41998 55101;EQDQ01  00002PRCP99Q02  09972SNDP  
0112309350999992000031203004+50370+108750FM-12+077099999V0200301N001012200019N0500001N1-00941-01151102811ADDGF103991001001999999001011MD1710011+9999REMSYN060AAXX  12031 30935 42999 30301 11094 21115 40281 57001 80001;
0112309350999992000031206004+50370+108750FM-12+077099999V0200301N001019999999N0500001N1-00221-00611102361ADDGF106991001001999999001011MD1710161+9999REMSYN060AAXX  12061 30935 42999 60301 11022 21061 40236 57016 80001;
0112309350999992000031209004+50370+108750FM-12+077099999V0200601N001012200019N0500001N1+00311-00351102071ADDGF102991001001999999001011MD1710101+9999REMSYN060AAXX  12091 30935 42999 20601 10031 21035 40207 57010 80001;
0186309350999992000031212004+50370+108750FM-12+077099999V0201101N001012200019N0500001N1-00171-00781102331ADDAA199000091GF101991001001999999001011KA1999M+00341MA1999999092951MD1310071+9999REMSYN076AAXX  12121 30935 32999 11101 11017 21078 39295 40233 53007 80001 333 10034;EQDQ01  00002PRCP99
0112309350999992000031215004+50370+108750FM-12+077099999V0209999C000012200019N0500001N1-00621-01061102601ADDGF102991001001999999001011MD1210101+9999REMSYN060AAXX  12151 30935 42999 20000 11062 21106 40260 52010 80001;
0112309350999992000031218004+50370+108750FM-12+077099999V0209999C000012200019N0500001N1-00991-01211102801ADDGF102991011001999999041011MD1210061+9999REMSYN060AAXX  12181 30935 42999 20000 11099 21121 40280 52006 81041;
0112309350999992000031221004+50370+108750FM-12+077099999V0200301N001012200019N0500001N1-01351-01481102971ADDGF101991001001999999001011MD1210031+9999REMSYN060AAXX  12211 30935 42999 10301 11135 21148 40297 52003 80001;
0237309350999992000031300004+50370+108750FM-12+077099999V0209999C000012200019N0500001N1-01601-01661103321ADDAA199000091AJ199992999999999GF102991001001999999001011IA1259KA1120N-01631MA1999999093351MD1210211+9999REMSYN088AAXX  13001 30935 32999 20000 11160 21166 39335 40332 52021 80001 333 21163 41998 55102;EQDQ01  00002PRCP99Q02  09972SNDP  
0122309350999992000031303004+50370+108750FM-12+077099999V0200201N001012200019N0500001N1-00931-01231103051ADDGA1001+999999999GF100991001001999999001001MD1410001+9999REMSYN054AAXX  13031 30935 42999 00201 11093 21123 40305 54000;
0112309350999992000031306004+50370+108750FM-12+077099999V0203401N002012200019N0500001N1-00281-00771102611ADDGF102991011011012501001011MD1810171+9999REMSYN060AAXX  13061 30935 42699 23402 11028 21077 40261 58017 81101;
0112309350999992000031309004+50370+108750FM-12+077099999V0209999C000012200019N0500001N1+00251-00701102251ADDGF102991011011012501001011MD1710151+9999REMSYN060AAXX  13091 30935 42699 20000 10025 21070 40225 57015 81101;
0196309350999992000031312004+50370+108750FM-12+077099999V0202201N001012200019N0500001N1-00291-00751102461ADDAA199000091GA1001+999999999GF100991001001999999001001KA1999M+00321MA1999999093021MD1710011+9999REMSYN070AAXX  13121 30935 32999 02201 11029 21075 39302 40246 57001 333 10032;EQDQ01  00002PRCP99
0122309350999992000031315004+50370+108750FM-12+077099999V0201301N001012200019N0500001N1-00721-00931102641ADDGA1001+999999999GF100991001001999999001001MD1310041+9999REMSYN054AAXX  13151 30935 42999 01301 11072 21093 40264 53004;
0122309350999992000031318004+50370+108750FM-12+077099999V0209999C000012200019N0500001N1-01201-01331102891ADDGA1001+999999999GF100991001001999999001001MD1210051+9999REMSYN054AAXX  13181 30935 42999 00000 11120 21133 40289 52005;
0122309350999992000031321004+50370+108750FM-12+077099999V0200901N001012200019N0500001N1-01411-01471102931ADDGA1001+999999999GF100991001001999999001001MD1810031+9999REMSYN054AAXX  13211 30935 42999 00901 11141 21147 40293 58003;
0247309350999992000031400004+50370+108750FM-12+077099999V0201201N001012200019N0500001N1-01611-01671103041ADDAA199000091AJ199992999999999GA1001+999999999GF100991001001999999001001IA1259KA1120N-01631MA1999999093101MD1310021+9999REMSYN082AAXX  14001 30935 32999 01201 11161 21167 39310 40304 53002 333 21163 41998 55102;EQDQ01  00002PRCP99Q02  09972SNDP  
0122309350999992000031403004+50370+108750FM-12+077099999V0200901N001012200019N0500001N1-01931+99999102731ADDGA1001+999999999GF100991001001999999001001MD1810041+9999REMSYN054AAXX  14031 30935 42999 00901 11193 21114 40273 58004;
0131309350999992000031406004+50370+108750FM-12+077099999V0203501N001012200019N0500001N1-00242-00761102161ADDGF102991001001999999001011MD1710281+9999REMSYN060AAXX  14061 30935 42999 23501 11024 21076 40216 57028 80001;EQDQ01-000243ATOT  
0112309350999992000031409004+50370+108750FM-12+077099999V0202101N002012200019N0500001N1+00321-00911101841ADDGF102991011011012501001011MD1710111+9999REMSYN060AAXX  14091 30935 42699 22102 10032 21091 40184 57011 81101;
0186309350999992000031412004+50370+108750FM-12+077099999V0202001N001012200019N0500001N1-00131-00931102121ADDAA199000091GF102991001001999999001011KA1999M+00371MA1999999092781MD1310111+9999REMSYN076AAXX  14121 30935 32999 22001 11013 21093 39278 40212 53011 80001 333 10037;EQDQ01  00002PRCP99
0112309350999992000031415004+50370+108750FM-12+077099999V0209999C000012200019N0500001N1-00421-00971102221ADDGF102991001001999999001011MD1410001+9999REMSYN060AAXX  14151 30935 42999 20000 11042 21097 40222 54000 80001;
0112309350999992000031418004+50370+108750FM-12+077099999V0209999C000012200019N0500001N1-00821-01051102311ADDGF102991001001999999001011MD1810051+9999REMSYN060AAXX  14181 30935 42999 20000 11082 21105 40231 58005 80001;
0122309350999992000031421004+50370+108750FM-12+077099999V0209999C000012200019N0500001N1-01021-01151102361ADDGA1001+999999999GF100991001001999999001001MD1710031+9999REMSYN054AAXX  14211 30935 42999 00000 11102 21115 40236 57003;
0237309350999992000031500004+50370+108750FM-12+077099999V0209999C000019999999N0500001N1-01201-01261102431ADDAA199000091AJ199992999999999GF108991051001999999041011IA1259KA1120N-01321MA1999999092701MD1410001+9999REMSYN088AAXX  15001 30935 32999 80000 11120 21126 39270 40243 54000 85041 333 21132 41998 55104;EQDQ01  00002PRCP99Q02  09972SNDP  
0112309350999992000031503004+50370+108750FM-12+077099999V0200201N001019999999N0500001N1-00551-00851102201ADDGF108991031001999999041011MD1310021+9999REMSYN060AAXX  15031 30935 42999 80201 11055 21085 40220 53002 83041;
0112309350999992000031506004+50370+108750FM-12+077099999V0202001N002012200019N0500001N1+00381-00501101601ADDGF106991031011012501001011MD1810251+9999REMSYN060AAXX  15061 30935 42699 62002 10038 21050 40160 58025 83101;
0112309350999992000031509004+50370+108750FM-12+077099999V0202201N004010120019N0500001N1+00471-00891101441ADDGF107991051021012501041011MD1710121+9999REMSYN060AAXX  15091 30935 42699 72204 10047 21089 40144 57012 85241;
0202309350999992000031512004+50370+108750FM-12+077099999V0202101N002012200019N0500001N1+00031-00891101591ADDAA199000091GF102991001001999999001011KA1120M+00611MA1999999092351MD1410001+9999REMSYN092AAXX  15121 30935 32999 22102 10003 21089 39235 40159 54000 80001 333 10061 555 1/102 53007;EQDQ01  00002PRCP99
0112309350999992000031515004+50370+108750FM-12+077099999V0201901N002019999999N0500001N1-00311-00811101661ADDGF105991031001999999031011MD1810051+9999REMSYN060AAXX  15151 30935 42999 51902 11031 21081 40166 58005 83031;
0112309350999992000031518004+50370+108750FM-12+077099999V0201201N001012200019N0500001N1-00721-00931101771ADDGF103991021001999999031011MD1710031+9999REMSYN060AAXX  15181 30935 42999 31201 11072 21093 40177 57003 82031;
0112309350999992000031521004+50370+108750FM-12+077099999V0200501N001019999999N0500001N1-00981-01151101751ADDGF106991031001999999041011MD1710111+9999REMSYN060AAXX  15211 30935 42999 60501 11098 21115 40175 57011 83041;
0237309350999992000031600004+50370+108750FM-12+077099999V0209999C000019999999N0500001N1-01011-01071101711ADDAA199000091AJ199992999999999GF107991071001999999041001IA1259KA1120N-01101MA1999999092121MD1710041+9999REMSYN088AAXX  16001 30935 32999 70000 11101 21107 39212 40171 57004 87040 333 21110 41998 55122;EQDQ01  00002PRCP99Q02  09972SNDP  
0112309350999992000031603004+50370+108750FM-12+077099999V0209999C000019999999N0500001N1-00401-00741101371ADDGF108991061001999999041021MD1710101+9999REMSYN060AAXX  16031 30935 42999 80000 11040 21074 40137 57010 86042;
0112309350999992000031606004+50370+108750FM-12+077099999V0202701N003010300019N0500001N1+00391-00991101011ADDGF108991021011012501041021MD1710171+9999REMSYN060AAXX  16061 30935 42699 82703 10039 21099 40101 57017 82142;
0112309350999992000031609004+50370+108750FM-12+077099999V0202101N002010300019N0500001N1+00351-00761100781ADDGF108991021011012501041021MD1710131+9999REMSYN060AAXX  16091 30935 42699 82102 10035 21076 40078 57013 82142;
0202309350999992000031612004+50370+108750FM-12+077099999V0202901N005010300019N0500001N1+00121-00741100861ADDAA199000091GF106991021011012501041011KA1120M+00421MA1999999091721MD1410001+9999REMSYN092AAXX  16121 30935 32699 62905 10012 21074 39172 40086 54000 82141 333 10042 555 1/101 53011;EQDQ01  00002PRCP99
0112309350999992000031615004+50370+108750FM-12+077099999V0202301N001019999999N0500001N1-00161-00571100961ADDGF107991051001999999041011MD1410001+9999REMSYN060AAXX  16151 30935 42999 72301 11016 21057 40096 54000 85041;
0112309350999992000031618004+50370+108750FM-12+077099999V0202401N002019999999N0200001N1-00371-00481101001ADDGF108991061001999999041011MD1810031+9999REMSYN060AAXX  16181 30935 42998 82402 11037 21048 40100 58003 86041;
0112309350999992000031621004+50370+108750FM-12+077099999V0202901N001019999999N0500001N1-00391-00471101041ADDGF108991071001999999041011MD1310031+9999REMSYN060AAXX  16211 30935 42999 82901 11039 21047 40104 53003 87041;
0228309350999992000031700004+50370+108750FM-12+077099999V0209999C000019999999N0500001N1-00581-00621101341ADDAA199000091GF107991051001999999041011GJ102709KA1120N-00581MA1999999091931MD1210211+9999REMSYN110AAXX  17001 30935 32999 70000 11058 21062 39193 40134 52021 85041 333 21058 55045 555 14104 51032 53007 7000/;EQDQ01  00002PRCP99
0112309350999992000031703004+50370+108750FM-12+077099999V0209999C000019999999N0500001N1-00141-00581101471ADDGF105991001001999999001011MD1210271+9999REMSYN060AAXX  17031 30935 42999 50000 11014 21058 40147 52027 80001;
0112309350999992000031706004+50370+108750FM-12+077099999V0200501N003012200019N0500001N1+00201-00971101401ADDGF103991021021012501001011MD1110041+9999REMSYN060AAXX  17061 30935 42699 30503 10020 21097 40140 51004 82201;
0112309350999992000031709004+50370+108750FM-12+077099999V0203001N004012200019N0500001N1+00181-00911101521ADDGF105991031021012501001011MD1210101+9999REMSYN060AAXX  17091 30935 42699 53004 10018 21091 40152 52010 83201;
0232309350999992000031712004+50370+108750FM-12+077099999V0202101N002019999999N0100001N1-00121-00591101891ADDAA199000091AY111061AY211061GF105991031091999999001011KA1120M+00351MA1999999092581MD1210241+9999MW1151REMSYN100AAXX  17121 30935 31/97 52102 11012 21059 39258 40189 52024 71511 83901 333 10035 555 14103 53009. ;EQDQ01  00002PRCP99
0112309350999992000031715004+50370+108750FM-12+077099999V0202401N002010300019N0500001N1-00291-00751102261ADDGF106991021011012501031001MD1210271+9999REMSYN060AAXX  17151 30935 42699 62402 11029 21075 40226 52027 82130;
0112309350999992000031721004+50370+108750FM-12+077099999V0202101N001012200019N0500001N1-00741-00871102621ADDGF102991021001999999031001MD1210061+9999REMSYN060AAXX  17211 30935 42999 22101 11074 21087 40262 52006 82030;
0238309350999992000031800004+50370+108750FM-12+077099999V0200401N001012200019N0500001N1-00951-01021102811ADDAA199000091GA1001+999999999GF100991001001999999001001GJ104869KA1120N-01021MA1999999093131MD1210091+9999REMSYN104AAXX  18001 30935 32999 00401 11095 21102 39313 40281 52009 333 21102 55081 555 14110 51017 53007 7000/;EQDQ01  00002PRCP99
0112309350999992000031803004+50370+108750FM-12+077099999V0202801N001012200019N0500001N1-00361-00841102581ADDGF102991011011012501001011MD1410001+9999REMSYN060AAXX  18031 30935 42699 22801 11036 21084 40258 54000 81101;
0112309350999992000031806004+50370+108750FM-12+077099999V0201901N002019999999N0500001N1+00131-00951102081ADDGF105991001001999999001011MD1810311+9999REMSYN060AAXX  18061 30935 42999 51902 10013 21095 40208 58031 80001;
0112309350999992000031809004+50370+108750FM-12+077099999V0202101N003019999999N0500001N1+00201-01021101721ADDGF106991001001999999001011MD1710291+9999REMSYN060AAXX  18091 30935 42999 62103 10020 21102 40172 57029 80001;
0202309350999992000031812004+50370+108750FM-12+077099999V0209999C000019999999N0500001N1-00121-00871101791ADDAA199000091GF106991031001999999041011KA1120M+00331MA1999999092491MD1710041+9999REMSYN092AAXX  18121 30935 32999 60000 11012 21087 39249 40179 57004 83041 333 10033 555 14103 53007;EQDQ01  00002PRCP99
0112309350999992000031815004+50370+108750FM-12+077099999V0203401N001012200019N0500001N1-00321-00751101781ADDGF102991001001999999001011MD1710081+9999REMSYN060AAXX  18151 30935 42999 23401 11032 21075 40178 57008 80001;
0112309350999992000031818004+50370+108750FM-12+077099999V0200301N002019999999N0500001N1-00451-01011101751ADDGF106991001001999999001011MD1710071+9999REMSYN060AAXX  18181 30935 42999 60302 11045 21101 40175 57007 80001;
0122309350999992000031821004+50370+108750FM-12+077099999V0209999C000012200019N0500001N1-00901-01011101961ADDGA1001+999999999GF100991001001999999001001MD1310041+9999REMSYN054AAXX  18211 30935 42999 00000 11090 21101 40196 53004;
0192309350999992000031900004+50370+108750FM-12+077099999V0209999C000012200019N0500001N1-01111-01171102081ADDAA199000091GF103991001001999999001011KA1120N-01171MA1999999092421MD1210041+9999REMSYN082AAXX  19001 30935 32999 30000 11111 21117 39242 40208 52004 80001 333 21117 55087;EQDQ01  00002PRCP99
0112309350999992000031903004+50370+108750FM-12+077099999V0200401N001019999999N0500001N1-00391-00881101901ADDGF105991041001999999041011MD1210081+9999REMSYN060AAXX  19031 30935 42999 50401 11039 21088 40190 52008 84041;
0112309350999992000031906004+50370+108750FM-12+077099999V0202701N006010120019N0500001N1+00331-00891101651ADDGF106991051021012501041011MD1410001+9999REMSYN060AAXX  19061 30935 42699 62706 10033 21089 40165 54000 85241;
0112309350999992000031909004+50370+108750FM-12+077099999V0202001N002012200019N0500001N1+00391-00991101631ADDGF103991021021012501001011MD1410001+9999REMSYN060AAXX  19091 30935 42699 32002 10039 21099 40163 54000 82201;
0212309350999992000031912004+50370+108750FM-12+077099999V0202701N002012200019N0500001N1-00071-01071101941ADDAA199000091GA1001+999999999GF100991001001999999001001KA1120M+00491MA1999999092641MD1310141+9999REMSYN086AAXX  19121 30935 32999 02702 11007 21107 39264 40194 53014 333 10049 555 14103 53009;EQDQ01  00002PRCP99
0122309350999992000031915004+50370+108750FM-12+077099999V0201901N002012200019N0500001N1-00451-01011102301ADDGA1001+999999999GF100991001001999999001001MD1210201+9999REMSYN054AAXX  19151 30935 42999 01902 11045 21101 40230 52020;
0122309350999992000031918004+50370+108750FM-12+077099999V0202101N002012200019N0500001N1-00631-00901102471ADDGA1001+999999999GF100991001001999999001001MD1210101+9999REMSYN054AAXX  19181 30935 42999 02102 11063 21090 40247 52010;
0122309350999992000031921004+50370+108750FM-12+077099999V0202201N002012200019N0500001N1-01131-01261102801ADDGA1001+999999999GF100991001001999999001001MD1210121+9999REMSYN054AAXX  19211 30935 42999 02202 11113 21126 40280 52012;
0238309350999992000032000004+50370+108750FM-12+077099999V0209999C000012200019N0500001N1-01271-01331103021ADDAA199000091GA1001+999999999GF100991001001999999001001GJ106129KA1120N-01291MA1999999093211MD1210151+9999REMSYN104AAXX  20001 30935 32999 00000 11127 21133 39321 40302 52015 333 21129 55102 555 14112 51032 53005 7000/;EQDQ01  00002PRCP99
0112309350999992000032003004+50370+108750FM-12+077099999V0200601N002019999999N0500001N1-00701-00991102851ADDGF107991021001999999031021MD1210041+9999REMSYN060AAXX  20031 30935 42999 70602 11070 21099 40285 52004 82032;
0112309350999992000032006004+50370+108750FM-12+077099999V0209999C000019999999N0500001N1+00071-01011102131ADDGF108991021001999999011011MD1810261+9999REMSYN060AAXX  20061 30935 42999 80000 10007 21101 40213 58026 82011;
0112309350999992000032009004+50370+108750FM-12+077099999V0200601N002019999999N0500001N1+00231-00961101991ADDGF105991001001999999001011MD1710211+9999REMSYN060AAXX  20091 30935 42999 50602 10023 21096 40199 57021 80001;
0186309350999992000032012004+50370+108750FM-12+077099999V0202501N003019999999N0500001N1-00151-00921102121ADDAA199000091GF105991031001999999041011KA1999M+00361MA1999999092771MD1410001+9999REMSYN076AAXX  20121 30935 32999 52503 11015 21092 39277 40212 54000 83041 333 10036;EQDQ01  00002PRCP99
0112309350999992000032015004+50370+108750FM-12+077099999V0201301N001019999999N0500001N1+99999+99999102161ADDGF108991001001999999001071MD1410001+9999REMSYN060AAXX  20151 30935 42999 81301 12027 21080 40216 54000 80007;
0112309350999992000032018004+50370+108750FM-12+077099999V0200201N001019999999N0500001N1-00361-00931102101ADDGF108991001001999999001071MD1810081+9999REMSYN060AAXX  20181 30935 42999 80201 11036 21093 40210 58008 80007;
0112309350999992000032021004+50370+108750FM-12+077099999V0200201N003010300019N0500001N1-00311-01081101851ADDGF108991021051012501071999MD1710221+9999REMSYN060AAXX  20211 30935 42699 80203 11031 21108 40185 57022 8257/;
0228309350999992000032100004+50370+108750FM-12+077099999V0200301N002019999999N0500001N1-00321-01151101751ADDAA199000091GF108991081001999999021999GJ106129KA1120N-00371MA1999999092381MD1710091+9999REMSYN110AAXX  21001 30935 32999 80302 11032 21115 39238 40175 57009 8802/ 333 21037 55102 555 14104 51052 53009 7000/;EQDQ01  00002PRCP99
0140309350999992000032103004+50370+108750FM-12+077099999V0200101N003019999999N0100001N1-00321-00751101581ADDAY171031AY221031GF108991081001999999021999MD1710151+9999MW1711REMSYN066AAXX  21031 30935 41997 80103 11032 21075 40158 57015 77172 8802/;
0140309350999992000032106004+50370+108750FM-12+077099999V0200401N001019999999N0100001N1-00191-00251101251ADDAY171061AY221061GF108991081001999999021999MD1710251+9999MW1711REMSYN066AAXX  21061 30935 41997 80401 11019 21025 40125 57025 77172 8802/;
0140309350999992000032109004+50370+108750FM-12+077099999V0209999C000019999999N0100001N1-00071-00141101161ADDAY171031AY271031GF108991081001999999021999MD1710041+9999MW1711REMSYN066AAXX  21091 30935 41997 80000 11007 21014 40116 57004 77177 8802/;
0194309350999992000032112004+50370+108750FM-12+077099999V0203101N001019999999N0100001N1-00161-00571101221ADDAA112003091AY171061AY221061GF108991081001999999021999MA1999999091961MD1310021+9999MW1151REMSYN094AAXX  21121 30935 11997 83101 11016 21057 39196 40122 53002 60032 71572 8802/ 333 1/103 53008;
0140309350999992000032115004+50370+108750FM-12+077099999V0202701N003019999999N0100001N1-00291-00561101481ADDAY171031AY221031GF108991081001999999021999MD1210191+9999MW1711REMSYN066AAXX  21151 30935 41997 82703 11029 21056 40148 52019 77172 8802/;
0140309350999992000032118004+50370+108750FM-12+077099999V0202901N004019999999N0500001N1-00271-00681101551ADDAY171061AY221061GF108991081001999999021999MD1210081+9999MW1021REMSYN066AAXX  21181 30935 41999 82904 11027 21068 40155 52008 70272 8802/;
0112309350999992000032121004+50370+108750FM-12+077099999V0202101N002019999999N0090001N1-00521-00931101831ADDGF108991081001999999021999MD1210161+9999REMSYN060AAXX  21211 30935 42959 82102 11052 21093 40183 52016 8802/;
0291309350999992000032200004+50370+108750FM-12+077099999V0201901N001019999999N0500001N1-00651-01161102081ADDAA112000591AJ199992999999999AY171061AY221061GF107991071001999999031001GJ100009IA1259KA1120N-00651MA1999999092571MD1210181+9999MW1011REMSYN128AAXX  22001 30935 11999 71901 11065 21116 39257 40208 52018 69952 70172 87030 333 21065 41998 55000 555 1/106 51025 53013 7004/;EQDQ01  09972SNDP  
0112309350999992000032203004+50370+108750FM-12+077099999V0202601N002019999999N0500001N1-00461-01221102171ADDGF106991051001999999031011MD1210151+9999REMSYN060AAXX  22031 30935 41999 62602 11046 21122 40217 52015 85031;
0112309350999992000032206004+50370+108750FM-12+077099999V0202401N002010300019N0500001N1-00271-01161102111ADDGF107991031021012501031011MD1210011+9999REMSYN060AAXX  22061 30935 42699 72402 11027 21116 40211 52001 83231;
0112309350999992000032209004+50370+108750FM-12+077099999V0202101N004010300019N0500001N1-00191-01191102061ADDGF106991021021012501041011MD1810021+9999REMSYN060AAXX  22091 30935 42699 62104 11019 21119 40206 58002 82241;
0202309350999992000032212004+50370+108750FM-12+077099999V0202201N002012200019N0500001N1-00471-01141102441ADDAA199000091GF102991021001999999041001KA1120M-00051MA1999999092951MD1310241+9999REMSYN092AAXX  22121 30935 32999 22202 11047 21114 39295 40244 53024 82040 333 11005 555 1/105 53010;EQDQ01  00002PRCP99
0122309350999992000032215004+50370+108750FM-12+077099999V0202601N002012200019N0500001N1-00931-01331102691ADDGA1001+999999999GF100991001001999999001001MD1210081+9999REMSYN054AAXX  22151 30935 42999 02602 11093 21133 40269 52008;
0112309350999992000032218004+50370+108750FM-12+077099999V0209999C000019999999N0500001N1-01071-01351102801ADDGF106991041001999999041011MD1210051+9999REMSYN060AAXX  22181 30935 42999 60000 11107 21135 40280 52005 84041;
0112309350999992000032221004+50370+108750FM-12+077099999V0209999C000019999999N0500001N1-01361-01491102921ADDGF105991031001999999041011MD1410001+9999REMSYN060AAXX  22211 30935 42999 50000 11136 21149 40292 54000 83041;
0273309350999992000032300004+50370+108750FM-12+077099999V0209999C000019999999N0500001N1-01381-01511103041ADDAA199000091AJ199992999999999GF106991051001999999041011GJ102469IA1259KA1120N-01441MA1999999093181MD1310101+9999REMSYN116AAXX  23001 30935 32999 60000 11138 21151 39318 40304 53010 85041 333 21144 41998 55041 555 1/114 51039 53007 7000/;EQDQ01  00002PRCP99Q02  09972SNDP  
0112309350999992000032303004+50370+108750FM-12+077099999V0202701N001010750019N0500001N1-00641-01091102741ADDGF108991021011012501001061MD1410001+9999REMSYN060AAXX  23031 30935 42699 82701 11064 21109 40274 54000 82106;
0112309350999992000032306004+50370+108750FM-12+077099999V0202101N004019999999N0500001N1-00301-00881102531ADDGF108991081001999999071999MD1810091+9999REMSYN060AAXX  23061 30935 42999 82104 11030 21088 40253 58009 8807/;
0112309350999992000032309004+50370+108750FM-12+077099999V0202001N006010120019N0500001N1-00131-01031102371ADDGF108991051021012501001011MD1710081+9999REMSYN060AAXX  23091 30935 42699 82006 11013 21103 40237 57008 85201;
0207309350999992000032312004+50370+108750FM-12+077099999V0202201N007019999999N0100001N1-00291-00671102431ADDAA199000091AY121061AY221061GF108991081001999999021999MA1999999093021MD1310011+9999MW1151REMSYN088AAXX  23121 30935 31997 82207 11029 21067 39302 40243 53001 71522 8802/ 333 1/103 53010;EQDQ01  00002PRCP99
0140309350999992000032315004+50370+108750FM-12+077099999V0201801N005019999999N0100001N1-00381-00531102421ADDAY121031AY221031GF108991081001999999021999MD1810041+9999MW1151REMSYN066AAXX  23151 30935 41997 81805 11038 21053 40242 58004 71522 8802/;
0112309350999992000032318004+50370+108750FM-12+077099999V0202301N005019999999N0500001N1-00321-00631102391ADDGF108991081001999999071999MD1710011+9999REMSYN060AAXX  23181 30935 42999 82305 11032 21063 40239 57001 8807/;
0112309350999992000032321004+50370+108750FM-12+077099999V0201901N004019999999N0500001N1-00421-00471102411ADDGF108991081001999999071999MD1710021+9999REMSYN060AAXX  23211 30935 42999 81904 11042 21047 40241 57002 8807/;
0272309350999992000032400004+50370+108750FM-12+077099999V0200601N002019999999N0040001N1-00441-00671102391ADDAA112000591AJ100009199999999AY171061AY221061GF108991081001999999021999GJ101149IA1239KA1120N-00571MA1999999092931MD1710021+9999MW1731REMSYN128AAXX  24001 30935 11996 80602 11044 21067 39293 40239 57002 69942 77372 8802/ 333 21057 47000 55019 555 1/105 51075 53011 7994/;
0118309350999992000032403004+50370+108750FM-12+077099999V0202701N002019999999N0500001N1-00041-00671102331ADDGF108991081001999999071999MD1310081+9999REMSYN066AAXX  24031 30935 41999 82702 11004 21067 40233 53008 7/272 8807/;
0140309350999992000032406004+50370+108750FM-12+077099999V0203301N003010750019N0100001N1+00001-00361102371ADDAY181061AY271061GF108991041091012501001021MD1210041+9999MW1261REMSYN066AAXX  24061 30935 41697 83303 10000 21036 40237 52004 72687 84902;
0140309350999992000032409004+50370+108750FM-12+077099999V0203201N003010120019N0100001N1+00101-00571102331ADDAY181031AY221031GF108991051091012501041021MD1410001+9999MW1261REMSYN066AAXX  24091 30935 41697 83203 10010 21057 40233 54000 72682 85942;
0217309350999992000032412004+50370+108750FM-12+077099999V0202201N004019999999N0100001N1+00001-00361102371ADDAA112000791AY181061AY221061GF108991081001999999021999KA1120M+00221MA1999999093051MD1410001+9999MW1151REMSYN104AAXX  24121 30935 11997 82204 10000 21036 39305 40237 54000 69902 71582 8802/ 333 10022 555 1/001 53011;
0112309350999992000032415004+50370+108750FM-12+077099999V0202101N002019999999N0500001N1-00011-00341102321ADDGF108991081001999999071999MD1810041+9999REMSYN060AAXX  24151 30935 42999 82102 11001 21034 40232 58004 8807/;
0112309350999992000032418004+50370+108750FM-12+077099999V0203001N001019999999N0500001N1+00051-00331102151ADDGF108991081001999999071999MD1710131+9999REMSYN060AAXX  24181 30935 42999 83001 10005 21033 40215 57013 8807/;
0112309350999992000032421004+50370+108750FM-12+077099999V0202401N002019999999N0500001N1-00261-00491102171ADDGF106991041001999999041011MD1710091+9999REMSYN060AAXX  24211 30935 42999 62402 11026 21049 40217 57009 84041;
0228309350999992000032500004+50370+108750FM-12+077099999V0200501N002019999999N0500001N1-00241-00571102131ADDAA199000091GF108991081001999999071999GJ100669KA1120N-00341MA1999999092761MD1710031+9999REMSYN110AAXX  25001 30935 32999 80502 11024 21057 39276 40213 57003 8807/ 333 21034 55011 555 14103 51019 53007 7990/;EQDQ01  00002PRCP99
0112309350999992000032503004+50370+108750FM-12+077099999V0209999C000019999999N0500001N1+00301-00541101841ADDGF107991041001999999041011MD1710091+9999REMSYN060AAXX  25031 30935 42999 70000 10030 21054 40184 57009 84041;
0112309350999992000032506004+50370+108750FM-12+077099999V0201401N004019999999N0500001N1+00881-00711101301ADDGF105991031001999999041011MD1710321+9999REMSYN060AAXX  25061 30935 42999 51404 10088 21071 40130 57032 83041;
0112309350999992000032509004+50370+108750FM-12+077099999V0202101N005019999999N0500001N1+01001-00671100951ADDGF105991021001999999041011MD1710281+9999REMSYN060AAXX  25091 30935 42999 52105 10100 21067 40095 57028 82041;
0202309350999992000032512004+50370+108750FM-12+077099999V0202401N002012200019N0500001N1+00401-00511100941ADDAA199000091GF102991001001999999001011KA1120M+01141MA1999999091881MD1710191+9999REMSYN092AAXX  25121 30935 32999 22402 10040 21051 39188 40094 57019 80001 333 10114 555 11002 53011;EQDQ01  00002PRCP99
0112309350999992000032515004+50370+108750FM-12+077099999V0209999C000012200019N0500001N1-00051-00501100931ADDGF102991001001999999001011MD1710151+9999REMSYN060AAXX  25151 30935 42999 20000 11005 21050 40093 57015 80001;
0112309350999992000032518004+50370+108750FM-12+077099999V0209999C000019999999N0500001N1-00221-00371100761ADDGF106991021001999999031021MD1710201+9999REMSYN060AAXX  25181 30935 42999 60000 11022 21037 40076 57020 82032;
0112309350999992000032521004+50370+108750FM-12+077099999V0209999C000019999999N0500001N1-00251-00341100751ADDGF108991081001999999021999MD1710021+9999REMSYN060AAXX  25211 30935 42999 80000 11025 21034 40075 57002 8802/;
0192309350999992000032600004+50370+108750FM-12+077099999V0200201N001019999999N0500001N1-00201-00351100901ADDAA199000091GF107991071001999999031001KA1120N-00301MA1999999091651MD1310141+9999REMSYN082AAXX  26001 30935 32999 70201 11020 21035 39165 40090 53014 87030 333 21030 55076;EQDQ01  00002PRCP99
0112309350999992000032603004+50370+108750FM-12+077099999V0202101N003010300019N0500001N1+00511-00321100821ADDGF106991041051012501031011MD1210161+9999REMSYN060AAXX  26031 30935 42699 62103 10051 21032 40082 52016 84531;
0112309350999992000032606004+50370+108750FM-12+077099999V0202201N005012200019N0500001N1+00571-00271100961ADDGF106991041091012501001011MD1210141+9999REMSYN060AAXX  26061 30935 42699 62205 10057 21027 40096 52014 84901;
0112309350999992000032609004+50370+108750FM-12+077099999V0202301N005010300019N0500001N1+00481-00551101081ADDGF106991031091012501041011MD1210091+9999REMSYN060AAXX  26091 30935 42699 62305 10048 21055 40108 52009 83941;
0186309350999992000032612004+50370+108750FM-12+077099999V0202401N003012200019N0500001N1+00141-00781101581ADDAA199000091GF106991021091012501001011KA1999M+00731MA1999999092381MD1210341+9999REMSYN076AAXX  26121 30935 32699 62403 10014 21078 39238 40158 52034 82901 333 10073;EQDQ01  00002PRCP99
0112309350999992000032615004+50370+108750FM-12+077099999V0200301N003012200019N0500001N1+00041-00921101751ADDGF102991001001999999001011MD1210121+9999REMSYN060AAXX  26151 30935 42999 20303 10004 21092 40175 52012 80001;
0112309350999992000032618004+50370+108750FM-12+077099999V0203101N003019999999N0500001N1-00071-00881101971ADDGF105991031001999999041011MD1210161+9999REMSYN060AAXX  26181 30935 42999 53103 11007 21088 40197 52016 83041;
0112309350999992000032621004+50370+108750FM-12+077099999V0202901N004019999999N0500001N1-00271-00681102161ADDGF105991031001999999041011MD1210111+9999REMSYN060AAXX  26211 30935 42999 52904 11027 21068 40216 52011 83041;
0276309350999992000032700004+50370+108750FM-12+077099999V0202001N004012200019N0500001N1-00361-00841102311ADDAA112000791AA224999999AY181061AY221061GF105991041091012501001011GJ103129KA1120N-00381MA1999999092881MD1210111+9999MW1011REMSYN125AAXX  27001 30935 11699 52004 11036 21084 39288 40231 52011 69902 70182 84901 333 21038 55052 555 14106 50012 53010 7990/ /-;EQDQ01  99992PRCP24
0140309350999992000032703004+50370+108750FM-12+077099999V0203201N005010120019N0100001N1-00211-00881102361ADDAY121031AY221031GF108991061091012501001011MD1210091+9999MW1151REMSYN066AAXX  27031 30935 41697 83205 11021 21088 40236 52009 71522 86901;
0112309350999992000032706004+50370+108750FM-12+077099999V0203001N005010120019N0500001N1-00061-01061102301ADDGF108991061091012501041001MD1410001+9999REMSYN060AAXX  27061 30935 4/699 83005 11006 21106 40230 54000 86940;
0112309350999992000032709004+50370+108750FM-12+077099999V0203501N001010120019N0500001N1+00191-01411102221ADDGF107991051091012501001011MD1410001+9999REMSYN060AAXX  27091 30935 42699 73501 10019 21141 40222 54000 85901;
0202309350999992000032712004+50370+108750FM-12+077099999V0200201N001012200019N0500001N1-00121-01111102311ADDAA199000091GF101991011001999999041001KA1120M+00291MA1999999092961MD1810011+9999REMSYN092AAXX  27121 30935 32999 10201 11012 21111 39296 40231 58001 81040 333 10029 555 14106 53008;EQDQ01  00002PRCP99
0122309350999992000032715004+50370+108750FM-12+077099999V0202601N001012200019N0500001N1-00491-01021102501ADDGA1001+999999999GF100991001001999999001001MD1310051+9999REMSYN054AAXX  27151 30935 42999 02601 11049 21102 40250 53005;
0122309350999992000032718004+50370+108750FM-12+077099999V0202801N001012200019N0500001N1-00761-01111102631ADDGA1001+999999999GF100991001001999999001001MD1210031+9999REMSYN054AAXX  27181 30935 42999 02801 11076 21111 40263 52003;
0122309350999992000032721004+50370+108750FM-12+077099999V0200901N001012200019N0500001N1-00941-01191102671ADDGA1001+999999999GF100991001001999999001001MD1810031+9999REMSYN054AAXX  27211 30935 42999 00901 11094 21119 40267 58003;
0228309350999992000032800004+50370+108750FM-12+077099999V0200401N002019999999N0500001N1-00821-01241102731ADDAA199000091GF107991021001999999031021GJ104209KA1120N-00961MA1999999093101MD1310091+9999REMSYN110AAXX  28001 30935 32999 70402 11082 21124 39310 40273 53009 82032 333 21096 55070 555 14107 51011 53006 7000/;EQDQ01  00002PRCP99
0112309350999992000032803004+50370+108750FM-12+077099999V0200601N002019999999N0500001N1-00491-01121102441ADDGF108991001001999999001061MD1810151+9999REMSYN060AAXX  28031 30935 42999 80602 11049 21112 40244 58015 80006;
0112309350999992000032806004+50370+108750FM-12+077099999V0200301N001019999999N0500001N1+00201-00821101731ADDGF108991021001999999031061MD1710411+9999REMSYN060AAXX  28061 30935 42999 80301 10020 21082 40173 57041 82036;
0112309350999992000032809004+50370+108750FM-12+077099999V0201201N001019999999N0500001N1+00341-00731101491ADDGF108991081001999999021999MD1710181+9999REMSYN060AAXX  28091 30935 42999 81201 10034 21073 40149 57018 8802/;
0201309350999992000032812004+50370+108750FM-12+077099999V0209999C000019999999N0100001N1+00141+00031101551ADDAA112001091AY171061AY261061GF108991081001999999021999KA1999M+00411MA1999999092361MD1410001+9999MW1711REMSYN088AAXX  28121 30935 11997 80000 10014 20003 39236 40155 54000 60012 77176 8802/ 333 10041;
0140309350999992000032815004+50370+108750FM-12+077099999V0209999C000019999999N0100001N1+00081+00001101611ADDAY171031AY221031GF108991081001999999071999MD1310041+9999MW1151REMSYN066AAXX  28151 30935 41997 80000 10008 21000 40161 53004 71572 8807/;
0134309350999992000032818004+50370+108750FM-12+077099999V0201901N002019999999N0500001N1+00131-00351101931ADDAY171061AY221061GF105991999999999999999999MD1210301+9999MW1011REMSYN060AAXX  28181 30935 41999 51902 10013 21035 40193 52030 70172;
0112309350999992000032821004+50370+108750FM-12+077099999V0202101N002012200019N0500001N1-00091-00591102341ADDGF101991011001999999041001MD1210301+9999REMSYN060AAXX  28211 30935 42999 12102 11009 21059 40234 52030 81040;
0224309350999992000032900004+50370+108750FM-12+077099999V0203301N002012200019N0500001N1-00251-00541999999ADDAA112000891GF102991011051012501001011GJ103249KA1120N-00361MA1999999093221MD1210221+9999ME1102649REMSYN116AAXX  29001 30935 12699 23302 11025 21054 39322 41264 52022 69972 81501 333 21036 55054 555 14103 51035 53006 7002/;
0112309350999992000032903004+50370+108750FM-12+077099999V0203301N002012200019N0500001N1+00141-00871102551ADDGF103991031021012501001001MD1210041+9999REMSYN060AAXX  29031 30935 42699 33302 10014 21087 40255 52004 83200;
0112309350999992000032906004+50370+108750FM-12+077099999V0203001N002012200019N0500001N1+00331-01161102271ADDGF103991031021012501001001MD1810191+9999REMSYN060AAXX  29061 30935 42699 33002 10033 21116 40227 58019 83200;
0112309350999992000032909004+50370+108750FM-12+077099999V0203301N002012200019N0500001N1+00461-01321101921ADDGF102991021021012501001011MD1710291+9999REMSYN060AAXX  29091 30935 42699 23302 10046 21132 40192 57029 82201;
0202309350999992000032912004+50370+108750FM-12+077099999V0203301N001012200019N0500001N1+00021-01221101941ADDAA199000091GF102991021001999999031001KA1120M+00541MA1999999092661MD1710121+9999REMSYN092AAXX  29121 30935 32999 23301 10002 21122 39266 40194 57012 82030 333 10054 555 14105 53010;EQDQ01  00002PRCP99
0122309350999992000032915004+50370+108750FM-12+077099999V0209999C000012200019N0500001N1-00351-00961101991ADDGA1001+999999999GF100991001001999999001001MD1710071+9999REMSYN054AAXX  29151 30935 42999 00000 11035 21096 40199 57007;
0112309350999992000032918004+50370+108750FM-12+077099999V0209999C000019999999N0500001N1-00421-01011101941ADDGF106991001001999999001021MD1710061+9999REMSYN060AAXX  29181 30935 42999 60000 11042 21101 40194 57006 80002;
0112309350999992000032921004+50370+108750FM-12+077099999V0209999C000019999999N0500001N1-00421-01261101901ADDGF108991041001999999031021MD1710051+9999REMSYN060AAXX  29211 30935 42999 80000 11042 21126 40190 57005 84032;
0192309350999992000033000004+50370+108750FM-12+077099999V0209999C000019999999N0500001N1-00481-00971102081ADDAA199000091GF106991001001999999001011KA1120N-00511MA1999999092641MD1310161+9999REMSYN082AAXX  30001 30935 32999 60000 11048 21097 39264 40208 53016 80001 333 21051 55109;EQDQ01  00002PRCP99
0112309350999992000033003004+50370+108750FM-12+077099999V0201601N001012200019N0500001N1+00081-00971101841ADDGF106991021091012501001011MD1810041+9999REMSYN060AAXX  30031 30935 42699 61601 10008 21097 40184 58004 82901;
0140309350999992000033006004+50370+108750FM-12+077099999V0202001N002010300019N0100001N1+00031-00681101791ADDAY121061AY221061GF108991041091012501041021MD1710061+9999MW1151REMSYN066AAXX  30061 30935 41697 82002 10003 21068 40179 57006 71522 84942;
0140309350999992000033009004+50370+108750FM-12+077099999V0201701N005010120019N0100001N1-00141-00311101861ADDAY181031AY221031GF108991061091012501041021MD1310011+9999MW1261REMSYN066AAXX  30091 30935 41697 81705 11014 21031 40186 53001 72682 86942;
0217309350999992000033012004+50370+108750FM-12+077099999V0203101N005010300019N0500001N1-00111-00771101841ADDAA112000191AY181061AY221061GF108991031021012501071999KA1120M+00211MA1999999092541MD1810011+9999MW1031REMSYN104AAXX  30121 30935 11699 83105 11011 21077 39254 40184 58001 69922 70382 8327/ 333 10021 555 14102 53011;
0112309350999992000033015004+50370+108750FM-12+077099999V0202901N002012200019N0500001N1-00281-00941102061ADDGF102991021001999999041001MD1310141+9999REMSYN060AAXX  30151 30935 42999 22902 11028 21094 40206 53014 82040;
0122309350999992000033018004+50370+108750FM-12+077099999V0203201N004012200019N0500001N1-00671-01091102201ADDGA1001+999999999GF100991001001999999001001MD1810011+9999REMSYN054AAXX  30181 30935 42999 03204 11067 21109 40220 58001;
0122309350999992000033021004+50370+108750FM-12+077099999V0200401N001012200019N0500001N1-00921-01081102331ADDGA1001+999999999GF100991001001999999001001MD1310041+9999REMSYN054AAXX  30211 30935 42999 00401 11092 21108 40233 53004;
0202309350999992000033100004+50370+108750FM-12+077099999V0209999C000012200019N0500001N1-00971-01181102381ADDAA199000091GA1001+999999999GF100991001001999999001001KA1120N-01081MA1999999092741MD1210031+9999REMSYN076AAXX  31001 30935 32999 00000 11097 21118 39274 40238 52003 333 21108 55042;EQDQ01  00002PRCP99
0112309350999992000033103004+50370+108750FM-12+077099999V0209999C000019999999N0500001N1-00381-00851102121ADDGF105991001001999999001011MD1810041+9999REMSYN060AAXX  31031 30935 42999 50000 11038 21085 40212 58004 80001;
0112309350999992000033106004+50370+108750FM-12+077099999V0202001N003012200019N0500001N1+00291-01041101651ADDGF106991021021012501001011MD1710211+9999REMSYN060AAXX  31061 30935 42699 62003 10029 21104 40165 57021 82201;
0112309350999992000033109004+50370+108750FM-12+077099999V0203301N004012200019N0500001N1+00361-01231101601ADDGF105991041021012501001011MD1710031+9999REMSYN060AAXX  31091 30935 42699 53304 10036 21123 40160 57003 84201;
0202309350999992000033112004+50370+108750FM-12+077099999V0203301N002012200019N0500001N1+00001-01101101751ADDAA199000091GF101991001001999999001011KA1120M+00591MA1999999092491MD1310031+9999REMSYN092AAXX  31121 30935 32999 13302 10000 21110 39249 40175 53003 80001 333 10059 555 14107 53010;EQDQ01  00002PRCP99
0122309350999992000033115004+50370+108750FM-12+077099999V0200601N002012200019N0500001N1-00251-00811101981ADDGA1001+999999999GF100991001001999999001001MD1210131+9999REMSYN054AAXX  31151 30935 42999 00602 11025 21081 40198 52013;
0122309350999992000033118004+50370+108750FM-12+077099999V0200701N001012200019N0500001N1-00461-00851102081ADDGA1001+999999999GF100991001001999999001001MD1210021+9999REMSYN054AAXX  31181 30935 42999 00701 11046 21085 40208 52002;
0112309350999992000033121004+50370+108750FM-12+077099999V0200901N001012200019N0500001N1-00621-00931102111ADDGF102991001001999999001011MD1810031+9999REMSYN060AAXX  31211 30935 42999 20901 11062 21093 40211 58003 80001;
0247309350999992000040100004+50370+108750FM-12+077099999V0200601N003019999999N0500001N1-00691-01111102231ADDAA124000091GF106991031001999999041021GJ107209KA1120N-00721MA1999999092691MD1310081+9999REMSYN113AAXX  01001 30935 32999 60603 11069 21111 39269 40223 53008 83042 333 21072 55120 555 14105 51032 53008 7000/ /-;EQDQ01  00002PRCP99Q02  00003PRCP99
0112309350999992000040103004+50370+108750FM-12+077099999V0200901N001012200019N0500001N1-00171-01001101931ADDGF102991001001999999001011MD1810101+9999REMSYN060AAXX  01031 30935 42999 20901 11017 21100 40193 58010 80001;
0112309350999992000040106004+50370+108750FM-12+077099999V0209999C000010750019N0500001N1+00481-00731101381ADDGF106991041021012501001021MD1710281+9999REMSYN060AAXX  01061 30935 42699 60000 10048 21073 40138 57028 84202;
0112309350999992000040109004+50370+108750FM-12+077099999V0203201N002010750019N0500001N1+00711-01171101111ADDGF105991031021012501001021MD1710181+9999REMSYN060AAXX  01091 30935 42699 53202 10071 21117 40111 57018 83202;
0234309350999992000040112004+50370+108750FM-12+077099999V0202301N999992200019N0500001N1+00101-01211101261ADDAA199000091GF103991021001999999041011KA1120M+00861MA1999999092071MD1710061+9999REMSYN092AAXX  01121 30935 32999 32333 10010 21121 39207 40126 57006 82041 333 10086 555 14105 53009;EQDQ01+003303WOSPD Q02  00002PRCP99Q030003303WOSPD 
0131309350999992000040115004+50370+108750FM-12+077099999V0203101N999999999999N0500001N1-00131-00981101401ADDGF105991031001999999041011MD1310061+9999REMSYN060AAXX  01151 30935 42999 53183 11013 21098 40140 53006 83041;EQDQ01+008303WOSPD 
0112309350999992000040118004+50370+108750FM-12+077099999V0200401N001012200019N0500001N1-00431-00741101511ADDGF102991001001999999001011MD1410001+9999REMSYN060AAXX  01181 30935 42999 20401 11043 21074 40151 54000 80001;
0112309350999992000040121004+50370+108750FM-12+077099999V0200301N001012200019N0500001N1-00661-00821101571ADDGF101991001001999999001011MD1810021+9999REMSYN060AAXX  01211 30935 42999 10301 11066 21082 40157 58002 80001;
0196309350999992000040200004+50370+108750FM-12+077099999V0209999C000012200019N0500001N1+99999+99999101581ADDAA199000091GA1001+999999999GF100991001001999999001001KA1120N-00781MA1999999092141MD1310031+9999REMSYN070AAXX  02001 30935 32999 00000 21081 39214 40158 53003 333 21078 55104;EQDQ01  00002PRCP99
0122309350999992000040203004+50370+108750FM-12+077099999V0200801N001012200019N0500001N1+00091-00811101191ADDGA1001+999999999GF100991001001999999001001MD1810131+9999REMSYN054AAXX  02031 30935 42999 00801 10009 21081 40119 58013;
0112309350999992000040206004+50370+108750FM-12+077099999V0202501N007012200019N0500001N1+01161-00471100411ADDGF106991021021012501001011MD1710381+9999REMSYN060AAXX  02061 30935 42699 62507 10116 21047 40041 57038 82201;
0112309350999992000040209004+50370+108750FM-12+077099999V0202401N007010300019N0500001N1+01101-00711100211ADDGF107991021011012501031001MD1710201+9999REMSYN060AAXX  02091 30935 42699 72407 10110 21071 40021 57020 82130;
0186309350999992000040212004+50370+108750FM-12+077099999V0203501N009019999999N0500001N1+00681-00801100471ADDAA199000091GF108991081001999999021999KA1999M+01361MA1999999091541MD1310111+9999REMSYN076AAXX  02121 30935 32999 83509 10068 21080 39154 40047 53011 8802/ 333 10136;EQDQ01  00002PRCP99
0112309350999992000040215004+50370+108750FM-12+077099999V0203001N002019999999N0500001N1+00091-00331101161ADDGF108991081001999999071999MD1210451+9999REMSYN060AAXX  02151 30935 42999 83002 10009 21033 40116 52045 8807/;
0112309350999992000040218004+50370+108750FM-12+077099999V0209999C000019999999N0500001N1-00081-00421101251ADDGF105991021001999999031011MD1210031+9999REMSYN060AAXX  02181 30935 42999 50000 11008 21042 40125 52003 82031;
0112309350999992000040221004+50370+108750FM-12+077099999V0209999C000019999999N0500001N1+00021-00781101411ADDGF108991031001999999031021MD1210171+9999REMSYN060AAXX  02211 30935 42999 80000 10002 21078 40141 52017 83032;
0206309350999992000040300004+50370+108750FM-12+077099999V0202701N001010300019N0500001N1-00071-00771101641ADDAA199000091GF107991021091012501031011GJ104929KA1120N-00091MA1999999092361MD1210171+9999REMSYN088AAXX  03001 30935 32699 72701 11007 21077 39236 40164 52017 82931 333 21009 55082 91118;EQDQ01  00002PRCP99
0112309350999992000040303004+50370+108750FM-12+077099999V0203501N008010300019N0500001N1+00121-00851101731ADDGF107991021091012501041011MD1210151+9999REMSYN060AAXX  03031 30935 42699 73508 10012 21085 40173 52015 82941;
0122309350999992000040306004+50370+108750FM-12+077099999V0203001N004010120019N0500001N1-00041-00911102041ADDGF108991061091012501001011MD1210231+9999REMSYN070AAXX  03061 30935 42699 83004 11004 21091 40204 52023 86901 333 91118;
0140309350999992000040309004+50370+108750FM-12+077099999V0203501N009010120019N0500001N1-00051-01091102151ADDAY181031AY221031GF107991061091012501001011MD1210101+9999MW1011REMSYN066AAXX  03091 30935 41699 73509 11005 21109 40215 52010 70182 86901;
0217309350999992000040312004+50370+108750FM-12+077099999V0202901N007012200019N0500001N1-00321-00871102561ADDAA112000791AY181061AY221061GF105991031091012501001011KA1120M+00241MA1999999093121MD1210281+9999MW1011REMSYN104AAXX  03121 30935 11699 52907 11032 21087 39312 40256 52028 69902 70182 83901 333 10024 555 14007 53018;
0112309350999992000040315004+50370+108750FM-12+077099999V0202701N003019999999N0500001N1-00441-00951102831ADDGF105991001001999999001011MD1210211+9999REMSYN060AAXX  03151 30935 42999 52703 11044 21095 40283 52021 80001;
0112309350999992000040318004+50370+108750FM-12+077099999V0202501N003019999999N0500001N1-00541-01091102961ADDGF106991021001999999031011MD1210081+9999REMSYN060AAXX  03181 30935 42999 62503 11054 21109 40296 52008 82031;
0112309350999992000040321004+50370+108750FM-12+077099999V0202701N003019999999N0500001N1-00761-01261103121ADDGF105991001001999999001011MD1210061+9999REMSYN060AAXX  03211 30935 42999 52703 11076 21126 40312 52006 80001;
0112309350999992000040403004+50370+108750FM-12+077099999V0202101N002012200019N0500001N1-00221-00941103011ADDGF101991011011012501001001MD1810091+9999REMSYN060AAXX  04031 30935 42699 12102 11022 21094 40301 58009 81100;
0112309350999992000040406004+50370+108750FM-12+077099999V0202101N002012200019N0500001N1+00211-00901102541ADDGF101991011011012501001001MD1710291+9999REMSYN060AAXX  04061 30935 42699 12102 10021 21090 40254 57029 81100;
0108309350999992000040409004+50370+108750FM-12+077099999V0202301N004012200019N0500001N1+00391-01041102211ADDGA1001+999999999GF100991001001999999001001REMSYN054AAXX  04091 30935 42999 02304 10039 21104 40221 97023;
0186309350999992000040412004+50370+108750FM-12+077099999V0203101N002012200019N0500001N1+00071-01211102141ADDAA199000091GF102991001001999999001011KA1999M+00421MA1999999092861MD1710181+9999REMSYN076AAXX  04121 30935 32999 23102 10007 21121 39286 40214 57018 80001 333 10042;EQDQ01  00002PRCP99
0112309350999992000040415004+50370+108750FM-12+077099999V0209999C000012200019N0500001N1-00371-00991102141ADDGF101991001001999999001011MD1710141+9999REMSYN060AAXX  04151 30935 42999 10000 11037 21099 40214 57014 80001;
0112309350999992000040418004+50370+108750FM-12+077099999V0203201N001012200019N0500001N1-00541-00921101981ADDGF102991001001999999001011MD1710201+9999REMSYN060AAXX  04181 30935 42999 23201 11054 21092 40198 57020 80001;
0112309350999992000040421004+50370+108750FM-12+077099999V0209999C000019999999N0500001N1-00571-00791101791ADDGF105991001001999999001011MD1710181+9999REMSYN060AAXX  04211 30935 42999 50000 11057 21079 40179 57018 80001;
0192309350999992000040500004+50370+108750FM-12+077099999V0200701N002012200019N0500001N1-00541-00871101701ADDAA199000091GF104991021001999999031011KA1120N-00611MA1999999092261MD1710081+9999REMSYN082AAXX  05001 30935 32999 40702 11054 21087 39226 40170 57008 82031 333 21061 55120;EQDQ01  00002PRCP99
0112309350999992000040503004+50370+108750FM-12+077099999V0202701N001019999999N0500001N1-00071-00881101261ADDGF107991061001999999031011MD1710241+9999REMSYN060AAXX  05031 30935 42999 72701 11007 21088 40126 57024 86031;
0112309350999992000040506004+50370+108750FM-12+077099999V0202901N001019999999N0500001N1+00431-00631100731ADDGF108991061001999999031011MD1710321+9999REMSYN060AAXX  05061 30935 42999 82901 10043 21063 40073 57032 86031;
0140309350999992000040509004+50370+108750FM-12+077099999V0203301N006019999999N0100001N1-00011-00381101051ADDAY171031AY221031GF108991081001999999021999MD1310161+9999MW1711REMSYN066AAXX  05091 30935 41997 83306 11001 21038 40105 53016 77172 8802/;
0186309350999992000040712004+50370+108750FM-12+077099999V0203001N001010750019N0500001N1+00361-00841100061ADDAA199000091GF108991031051012501001071KA1999M+00631MA1999999091061MD1710171+9999REMSYN076AAXX  07121 30935 32699 83001 10036 21084 39106 40006 57017 83507 333 10063;EQDQ01  00002PRCP99
0236309350999992000040800004+50370+108750FM-12+077099999V0202901N003012200019N0500001N1-00811-01431101981ADDAA112002091AJ100009199999999AY171061AY221061GF106991041051012501001061IA1239KA1120N-00821MA1999999092431MD1210401+9999MW1011REMSYN100AAXX  08001 30935 11699 62903 11081 21143 39243 40198 52040 60022 70172 84506 333 21082 47000 55064;
0237309350999992000040900004+50370+108750FM-12+077099999V0202801N002012200019N0500001N1-01191-01911103241ADDAA199000091AJ199992999999999GF103991011001999999041011IA1259KA1120N-01381MA1999999093431MD1210021+9999REMSYN088AAXX  09001 30935 32999 32802 11119 21191 39343 40324 52002 81041 333 21138 41998 55063;EQDQ01  00002PRCP99Q02  09972SNDP  
0202309350999992000041000004+50370+108750FM-12+077099999V0200401N001012200019N0500001N1-00871-00981102171ADDAA199000091GA1001+999999999GF100991001001999999001001KA1120N-01211MA1999999092581MD1310031+9999REMSYN076AAXX  10001 30935 32999 00401 11087 21098 39258 40217 53003 333 21121 55039;EQDQ01  00002PRCP99
0122309350999992000041003004+50370+108750FM-12+077099999V0203201N002012200019N0500001N1-00191-00891101681ADDGA1001+999999999GF100991001001999999001001MD1810221+9999REMSYN054AAXX  10031 30935 42999 03202 11019 21089 40168 58022;
0112309350999992000041006004+50370+108750FM-12+077099999V0209999C000012200019N0500001N1+00951-00671100771ADDGF101991001001999999001011MD1710471+9999REMSYN060AAXX  10061 30935 42999 10000 10095 21067 40077 57047 80001;
0112309350999992000041009004+50370+108750FM-12+077099999V0202601N003012200019N0500001N1+01471-01171100191ADDGF102991001001999999001011MD1710371+9999REMSYN060AAXX  10091 30935 42999 22603 10147 21117 40019 57037 80001;
0186309350999992000041012004+50370+108750FM-12+077099999V0203101N003012200019N0500001N1+00661-00941100211ADDAA199000091GF102991001001999999001011KA1999M+01551MA1999999091291MD1710231+9999REMSYN076AAXX  10121 30935 32999 23103 10066 21094 39129 40021 57023 80001 333 10155;EQDQ01  00002PRCP99
0112309350999992000041015004+50370+108750FM-12+077099999V0200501N002012200019N0500001N1+00121-00761100391ADDGF103991001001999999001011MD1410001+9999REMSYN060AAXX  10151 30935 42999 30502 10012 21076 40039 54000 80001;
0112309350999992000041018004+50370+108750FM-12+077099999V0203201N001012200019N0500001N1-00361-00611100441ADDGF102991001001999999001011MD1810111+9999REMSYN060AAXX  10181 30935 42999 23201 11036 21061 40044 58011 80001;
0112309350999992000041021004+50370+108750FM-12+077099999V0209999C000019999999N0500001N1-00451-00681100551ADDGF108991051001999999041011MD1310071+9999REMSYN060AAXX  10211 30935 42999 80000 11045 21068 40055 53007 85041;
0214309350999992000041100004+50370+108750FM-12+077099999V0209999C000012200019N0500001N1-00461-00681100941ADDAA199000091AY101061AY211061GF102991999999999999999999KA1120N-00551MA1999999091601MD1210351+9999MW1001REMSYN082AAXX  11001 30935 32999 20000 11046 21068 39160 40094 52035 70001 333 21055 55123;EQDQ01  00002PRCP99
0131309350999992000041103004+50370+108750FM-12+077099999V0200301N006012200019N0500001N1+01032-00031100741ADDGF105991021051012501001011MD1210291+9999REMSYN060AAXX  11031 30935 42699 50306 10103 21003 40074 52029 82501;EQDQ01+001033ATOT  
0112309350999992000041106004+50370+108750FM-12+077099999V0203301N005010150019N0500001N1+00941+00331100821ADDGF106991061081012501001011MD1210051+9999REMSYN060AAXX  11061 30935 42699 63305 10094 20033 40082 52005 86801;
0112309350999992000041109004+50370+108750FM-12+077099999V0203401N005010150019N0500001N1+00611-00781101231ADDGF106991061081012501001011MD1210271+9999REMSYN060AAXX  11091 30935 42699 63405 10061 21078 40123 52027 86801;
0186309350999992000041112004+50370+108750FM-12+077099999V0203201N003019999999N0500001N1+00411-01061101621ADDAA199000091GF105991031001999999041011KA1999M+01141MA1999999092501MD1210291+9999REMSYN076AAXX  11121 30935 32999 53203 10041 21106 39250 40162 52029 83041 333 10114;EQDQ01  00002PRCP99
0112309350999992000041115004+50370+108750FM-12+077099999V0202901N002012200019N0500001N1+00121-00921101981ADDGF102991001001999999001011MD1210241+9999REMSYN060AAXX  11151 30935 42999 22902 10012 21092 40198 52024 80001;
0122309350999992000041118004+50370+108750FM-12+077099999V0202501N002012200019N0500001N1-00191-01081102311ADDGA1001+999999999GF100991001001999999001001MD1210201+9999REMSYN054AAXX  11181 30935 42999 02502 11019 21108 40231 52020;
0122309350999992000041121004+50370+108750FM-12+077099999V0209999C000012200019N0500001N1-00241-00801102521ADDGA1001+999999999GF100991001001999999001001MD1210171+9999REMSYN054AAXX  11211 30935 42999 00000 11024 21080 40252 52017;
0192309350999992000041200004+50370+108750FM-12+077099999V0203101N003012200019N0500001N1-00081-00681102761ADDAA199000091GF101991011001999999031001KA1120N-00391MA1999999093361MD1210241+9999REMSYN082AAXX  12001 30935 32999 13103 11008 21068 39336 40276 52024 81030 333 21039 55022;EQDQ01  00002PRCP99
0112309350999992000041309004+50370+108750FM-12+077099999V0202901N005010300019N0500001N1+01031-00471102271ADDGF105991031011012501041011MD1710161+9999REMSYN060AAXX  13091 30935 42699 52905 10103 21047 40227 57016 83141;
0192309350999992000041400004+50370+108750FM-12+077099999V0200901N001012200019N0500001N1-00301-00581102671ADDAA199000091GF102991001001999999001011KA1120N-00771MA1999999093241MD1710011+9999REMSYN082AAXX  14001 30935 32999 20901 11030 21058 39324 40267 57001 80001 333 21077 55111;EQDQ01  00002PRCP99
0112309350999992000041406004+50370+108750FM-12+077099999V0202301N001012200019N0500001N1+01311-00441101621ADDGF101991001001999999001011MD1710361+9999REMSYN060AAXX  14061 30935 42999 12301 10131 21044 40162 57036 80001;
0112309350999992000041421004+50370+108750FM-12+077099999V0209999C000012200019N0500001N1-00481-00721102081ADDGF103991001001999999001011MD1210081+9999REMSYN060AAXX  14211 30935 42999 30000 11048 21072 40208 52008 80001;
0202309350999992000041500004+50370+108750FM-12+077099999V0209999C000012200019N0500001N1-00081-00331102071ADDAA199000091GA1001+999999999GF100991001001999999001001KA1120N-00511MA1999999092761MD1210121+9999REMSYN076AAXX  15001 30935 32999 00000 11008 21033 39276 40207 52012 333 21051 55120;EQDQ01  00002PRCP99
0122309350999992000041503004+50370+108750FM-12+077099999V0200101N001012200019N0500001N1+00821-00331101721ADDGA1001+999999999GF100991001001999999001001MD1810031+9999REMSYN054AAXX  15031 30935 42999 00101 10082 21033 40172 58003;
0186309350999992000041512004+50370+108750FM-12+077099999V0203201N003019999999N0500001N1+01081-00741101231ADDAA199000091GF108991081001999999011999KA1999M+01701MA1999999092351MD1410001+9999REMSYN076AAXX  15121 30935 32999 83203 10108 21074 39235 40123 54000 8801/ 333 10170;EQDQ01  00002PRCP99
0202309350999992000041600004+50370+108750FM-12+077099999V0209999C000012200019N0500001N1+00021-00491101681ADDAA199000091GA1001+999999999GF100991001001999999001001KA1120N-00391MA1999999092441MD1310121+9999REMSYN076AAXX  16001 30935 32999 00000 10002 21049 39244 40168 53012 333 21039 55090;EQDQ01  00002PRCP99
0112309350999992000041621004+50370+108750FM-12+077099999V0209999C000019999999N0500001N1-00311-00451101731ADDGF107991061001999999041011MD1210011+9999REMSYN060AAXX  16211 30935 42999 70000 11031 21045 40173 52001 86041;
0228309350999992000041700004+50370+108750FM-12+077099999V0209999C000019999999N0500001N1-00101-00221101741ADDAA199000091GF108991061001999999041011GJ106789KA1120N-00341MA1999999092451MD1210081+9999REMSYN110AAXX  17001 30935 32999 80000 11010 21022 39245 40174 52008 86041 333 21034 55113 555 10001 50076 53006 7000/;EQDQ01  00002PRCP99
0192309350999992000041800004+50370+108750FM-12+077099999V0209999C000019999999N0500001N1+00021-00221101331ADDAA199000091GF105991001001999999001081KA1120N-00171MA1999999092121MD1310061+9999REMSYN082AAXX  18001 30935 32999 50000 10002 21022 39212 40133 53006 80008 333 21017 55043;EQDQ01  00002PRCP99
0112309350999992000041803004+50370+108750FM-12+077099999V0209999C000019999999N0500001N1+00861-00191100991ADDGF106991001001999999001011MD1810051+9999REMSYN060AAXX  18031 30935 42999 60000 10086 21019 40099 58005 80001;
0112309350999992000041906004+50370+108750FM-12+077099999V0200901N001010120019N0500001N1+01101+00021100951ADDGF108991071091012501001011MD1710181+9999REMSYN060AAXX  19061 30935 42699 80901 10110 20002 40095 57018 87901;
0112309350999992000042003004+50370+108750FM-12+077099999V0202601N003010300019N0500001N1+00181-00901101921ADDGF107991021021012501041011MD1210071+9999REMSYN060AAXX  20031 30935 42699 72603 10018 21090 40192 52007 82241;
0167309350999992000042012004+50370+108750FM-12+077099999V0203301N004012200019N0500001N1+00221-00981101651ADDAA199000091GF103991021021012501001011MA1999999092461MD1310021+9999REMSYN070AAXX  20121 30935 32699 33304 10022 21098 39246 40165 53002 82201 333;EQDQ01  00002PRCP99
0112309350999992000042018004+50370+108750FM-12+077099999V0203201N003012200019N0500001N1-00361-00891101821ADDGF101991001001999999001011MD1410001+9999REMSYN060AAXX  20181 30935 42999 13203 11036 21089 40182 54000 80001;
0140309350999992000042106004+50370+108750FM-12+077099999V0202401N002010750019N0500001N1+00021-00461101811ADDAY121061AY221061GF106991031091012501001081MD1310021+9999MW1861REMSYN066AAXX  21061 30935 41699 62402 10002 21046 40181 53002 78622 83908;
0173309350999992000042200004+50370+108750FM-12+077099999V0202701N001019999999N0500001N1-00021-00491102201ADDAA199000091GF105991041001999999041011MA1999999092901MD1810041+9999REMSYN076AAXX  22001 30935 32999 52701 11002 21049 39290 40220 58004 84041 333 55103;EQDQ01  00002PRCP99
0112309350999992000042203004+50370+108750FM-12+077099999V0201101N005010300019N0500001N1+00451-00881102021ADDGF108991031011012501041011MD1710011+9999REMSYN060AAXX  22031 30935 42699 81105 10045 21088 40202 57001 83141;
0112309350999992000042206004+50370+108750FM-12+077099999V0201101N003010120019N0500001N1+00791-00981101681ADDGF108991051011012501041011MD1710211+9999REMSYN060AAXX  22061 30935 42699 81103 10079 21098 40168 57021 85141;
0112309350999992000042209004+50370+108750FM-12+077099999V0201101N005010120019N0500001N1+01021-00861101371ADDGF106991051011012501001011MD1710221+9999REMSYN060AAXX  22091 30935 42699 61105 10102 21086 40137 57022 85101;
0183309350999992000042300004+50370+108750FM-12+077099999V0209999C000012200019N0500001N1-00161-00611101461ADDAA199000091GA1001+999999999GF100991001001999999001001MA1999999092181MD1710081+9999REMSYN070AAXX  23001 30935 32999 00000 11016 21061 39218 40146 57008 333 55122;EQDQ01  00002PRCP99
0112309350999992000042315004+50370+108750FM-12+077099999V0203001N001019999999N0500001N1+00581-00891099901ADDGF105991031001999999041011MD1710051+9999REMSYN060AAXX  23151 30935 42999 53001 10058 21089 49990 57005 83041;
0173309350999992000042400004+50370+108750FM-12+077099999V0203301N007019999999N0500001N1+00271-00281100571ADDAA199000091GF108991061001999999041011MA1999999091511MD1210351+9999REMSYN076AAXX  24001 30935 32999 83307 10027 21028 39151 40057 52035 86041 333 55123;EQDQ01  00002PRCP99
0112309350999992000042421004+50370+108750FM-12+077099999V0202401N001019999999N0500001N1-00031-00521102081ADDGF108991081001999999071999MD1210071+9999REMSYN060AAXX  24211 30935 42999 82401 11003 21052 40208 52007 8807/;
0112309350999992000042503004+50370+108750FM-12+077099999V0201801N003010120019N0500001N1+00371-00361102121ADDGF106991061021012501001011MD1410001+9999REMSYN060AAXX  25031 30935 42699 61803 10037 21036 40212 54000 86201;
0112309350999992000042518004+50370+108750FM-12+077099999V0209999C000012200019N0500001N1-00091-00711101891ADDGF102991001001999999001011MD1210021+9999REMSYN060AAXX  25181 30935 42999 20000 11009 21071 40189 52002 80001;
0189309350999992000042600004+50370+108750FM-12+077099999V0209999C000012200019N0500001N1+00011-00561101901ADDAA199000091GA1001+999999999GF100991001001999999001001MA1999999092641MD1210041+9999REMSYN076AAXX  26001 30935 32999 00000 10001 21056 39264 40190 52004 333 21/// 55104;EQDQ01  00002PRCP99
0173309350999992000042700004+50370+108750FM-12+077099999V0201201N001019999999N0500001N1+00171-00171100321ADDAA199000091GF108991031001999999041051MA1999999091251MD1710151+9999REMSYN076AAXX  27001 30935 32999 81201 10017 21017 39125 40032 57015 83045 333 55132;EQDQ01  00002PRCP99
0112309350999992000042706004+50370+108750FM-12+077099999V0201301N002012200019N0500001N1+02272-00171100051ADDGF105991031011012501001011MD1710381+9999REMSYN060AAXX  27061 30935 42699 51302 10227 21017 40005 57038 83101;
0122309350999992000042718004+50370+108750FM-12+077099999V0200401N002012200019N0500001N1+00771-00271999999ADDGA1001+999999999GF100991001001999999001001MD1410001+9999REMSYN054AAXX  27181 30935 42999 00402 10077 21027 40927 54000;
0173309350999992000042800004+50370+108750FM-12+077099999V0203101N003019999999N0500001N1+00381-00151100231ADDAA199000091GF108991061001999999041011MA1999999091231MD1210341+9999REMSYN076AAXX  28001 30935 32999 83103 10038 21015 39123 40023 52034 86041 333 55084;EQDQ01  00002PRCP99
0112309350999992000042803004+50370+108750FM-12+077099999V0203201N002019999999N0500001N1+00431-00321100411ADDGF108991051001999999041011MD1210191+9999REMSYN060AAXX  28031 30935 42999 83202 10043 21032 40041 52019 85041;
0201309350999992000042812004+50370+108750FM-12+077099999V0203301N006010120019N0500001N1+00401-00771100701ADDAA112000791AY171061AY221061GF108991051051012501071999KA1999M+00501MA1999999091661MD1210151+9999MW1011REMSYN088AAXX  28121 30935 41699 83306 10040 21077 39166 40070 52015 69902 70172 8557/ 333 10050;
0122309350999992000042915004+50370+108750FM-12+077099999V0209999C000012200019N0500001N1+00431-00121101301ADDGA1001+999999999GF100991001001999999001001MD1210081+9999REMSYN054AAXX  29151 30935 42999 00000 10043 21012 40130 52008;
0122309350999992000043021004+50370+108750FM-12+077099999V0209999C000012200019N0500001N1-00031-00411101081ADDGA1001+999999999GF100991001001999999001001MD1410001+9999REMSYN054AAXX  30211 30935 42999 00000 11003 21041 40108 54000;
0209309350999992000050100004+50370+108750FM-12+077099999V0201001N001012200019N0500001N1+00361-00381101011ADDAA199000091GF103991001001999999001011GJ107149MA1999999091931MD1310061+9999REMSYN104AAXX  01001 30935 32999 31001 10036 21038 39193 40101 53006 80001 333 55119 555 10012 50099 53005 7000/;EQDQ01  00002PRCP99
0122309350999992000050109004+50370+108750FM-12+077099999V0203301N012010300019N0500001N1+01711-00121100041ADDGF108991021011012501041051MD1310071+9999REMSYN070AAXX  01091 30935 42699 83312 10171 21012 40004 53007 82145 333 91123;
0112309350999992000050121004+50370+108750FM-12+077099999V0202901N001019999999N0500001N1-00061-00711102251ADDGF106991041001999999031011MD1210061+9999REMSYN060AAXX  01211 30935 42999 62901 11006 21071 40225 52006 84031;
0189309350999992000050200004+50370+108750FM-12+077099999V0202501N001010750019N0500001N1-00081-00831102381ADDAA112001091AJ100009199999999GF105991021011012501041011IA1259MA1999999093041MD1210111+9999REMSYN088AAXX  02001 30935 12699 52501 11008 21083 39304 40238 52011 60012 82141 333 41000 55085;
0186309350999992000050212004+50370+108750FM-12+077099999V0202301N001019999999N0500001N1+00981-01031101431ADDAA199000091GF108991041001999999041011KA1999M+01121MA1999999092501MD1410001+9999REMSYN076AAXX  02121 30935 32999 82301 10098 21103 39250 40143 54000 84041 333 10112;EQDQ01  00002PRCP99
0112309350999992000050221004+50370+108750FM-12+077099999V0203101N001010300019N0500001N1+00121-00761101101ADDGF108991021051012501031011MD1710161+9999REMSYN060AAXX  02211 30935 42699 83101 10012 21076 40110 57016 82531;
0173309350999992000050300004+50370+108750FM-12+077099999V0201201N002019999999N0500001N1-00471-00641100861ADDAA199000091GF106991031001999999041011MA1999999091831MD1710111+9999REMSYN076AAXX  03001 30935 32999 61202 11047 21064 39183 40086 57011 83041 333 55113;EQDQ01  00002PRCP99
0131309350999992000050303004+50370+108750FM-12+077099999V0200601N004019999999N0500001N1+01242-00251100541ADDGF107991051001999999031011MD1710061+9999REMSYN060AAXX  03031 30935 42999 70604 10124 21025 40054 57006 85031;EQDQ01+001243ATOT  
0186309350999992000050312004+50370+108750FM-12+077099999V0203501N004010300019N0500001N1+01321-00191100731ADDAA199000091GF108991021051012501041011KA1999M+01771MA1999999091961MD1210181+9999REMSYN076AAXX  03121 30935 32699 83504 10132 21019 39196 40073 52018 82541 333 10177;EQDQ01  00002PRCP99
0183309350999992000050400004+50370+108750FM-12+077099999V0203301N001012200019N0500001N1+00291-00971102641ADDAA199000091GA1001+999999999GF100991001001999999001001MA1999999093391MD1210391+9999REMSYN070AAXX  04001 30935 32999 03301 10029 21097 39339 40264 52039 333 55078;EQDQ01  00002PRCP99
0196309350999992000050412004+50370+108750FM-12+077099999V0202201N001012200019N0500001N1+01501-00641101771ADDAA199000091GA1001+999999999GF100991001001999999001001KA1999M+01621MA1999999092971MD1710051+9999REMSYN070AAXX  04121 30935 32999 02201 10150 21064 39297 40177 57005 333 10162;EQDQ01  00002PRCP99
0173309350999992000050500004+50370+108750FM-12+077099999V0209999C000012200019N0500001N1+00091-00551102211ADDAA199000091GF102991001001999999001011MA1999999092941MD1410001+9999REMSYN076AAXX  05001 30935 32999 20000 10009 21055 39294 40221 54000 80001 333 55137;EQDQ01  00002PRCP99
0140309350999992000050609004+50370+108750FM-12+077099999V0203301N008019999999N0100001N1+01801+00191100031ADDAY121031AY221031GF108991081001999999071999MD1310291+9999MW1041REMSYN066AAXX  06091 30935 41997 83308 10180 20019 40003 53029 70422 8807/;
0112309350999992000050618004+50370+108750FM-12+077099999V0201901N004019999999N0500001N1+00351-00061102281ADDGF106991031001999999041011MD1210361+9999REMSYN060AAXX  06181 30935 42999 61904 10035 21006 40228 52036 83041;
0112309350999992000050621004+50370+108750FM-12+077099999V0202301N003019999999N0500001N1+00241-00221102371ADDGF107991071001999999031001MD1210051+9999REMSYN060AAXX  06211 30935 42999 72303 10024 21022 40237 52005 87030;
0173309350999992000050700004+50370+108750FM-12+077099999V0202501N003010300019N0500001N1+00341-00331102601ADDAA199000091GF106991031051012501041011MA1999999093371MD1210231+9999REMSYN076AAXX  07001 30935 32699 62503 10034 21033 39337 40260 52023 83541 333 55092;EQDQ01  00002PRCP99
0112309350999992000050706004+50370+108750FM-12+077099999V0200101N005010120019N0500001N1+01181-00781102391ADDGF106991051021012501001011MD1810051+9999REMSYN060AAXX  07061 30935 42699 60105 10118 21078 40239 58005 85201;
0186309350999992000050712004+50370+108750FM-12+077099999V0203301N003019999999N0500001N1+00931-01071102201ADDAA199000091GF105991031001999999041011KA1999M+01191MA1999999093191MD1710091+9999REMSYN076AAXX  07121 30935 32999 53303 10093 21107 39319 40220 57009 83041 333 10119;EQDQ01  00002PRCP99
0112309350999992000050721004+50370+108750FM-12+077099999V0209999C000012200019N0500001N1-00581-01061102731ADDGF102991011001999999041011MD1810021+9999REMSYN060AAXX  07211 30935 42999 20000 11058 21106 40273 58002 81041;
0183309350999992000050800004+50370+108750FM-12+077099999V0209999C000012200019N0500001N1+00001-00671102541ADDAA199000091GA1001+999999999GF100991001001999999001001MA1999999093211MD1310021+9999REMSYN070AAXX  08001 30935 32999 00000 10000 21067 39321 40254 53002 333 55113;EQDQ01  00002PRCP99
0183309350999992000050900004+50370+108750FM-12+077099999V0201501N001012200019N0500001N1+00251-00341101811ADDAA199000091GA1001+999999999GF100991001001999999001001MA1999999092641MD1410001+9999REMSYN070AAXX  09001 30935 32999 01501 10025 21034 39264 40181 54000 333 55115;EQDQ01  00002PRCP99
0112309350999992000051021004+50370+108750FM-12+077099999V0202501N003010300019N0500001N1+00971+00501100341ADDGF108991021091012501071999MD1210101+9999REMSYN060AAXX  10211 30935 42699 82503 10097 20050 40034 52010 8297/;
0188309350999992000051100004+50370+108750FM-12+077099999V0203401N002010300019N0100001N1+00621+00361100871ADDAA112001091AY161061AY221061GF108991031051012501021999MA1999999091901MD1210371+9999MW1611REMSYN088AAXX  11001 30935 11697 83402 10062 20036 39190 40087 52037 60012 76162 8352/ 333 55104;
0140309350999992000051103004+50370+108750FM-12+077099999V0202701N002010120019N0100001N1+01031+00501100801ADDAY161031AY221031GF106991061051012501041011MD1210061+9999MW1211REMSYN066AAXX  11031 30935 41697 62702 10103 20050 40080 52006 72162 86541;
0112309350999992000051106004+50370+108750FM-12+077099999V0202701N005010300019N0500001N1+01311+00211100751ADDGF106991031091012501031011MD1210031+9999REMSYN060AAXX  11061 30935 42699 62705 10131 20021 40075 52003 83931;
0173309350999992000051112004+50370+108750FM-12+077099999V0203401N003012200019N0500001N1+01181-00171100921ADDAA112000791GF103991021011012501001011KA1999M+01441MA1999999092101MD1210101+9999REMSYN082AAXX  11121 30935 12699 33403 10118 21017 39210 40092 52010 69902 82101 333 10144;
0122309350999992000051115004+50370+108750FM-12+077099999V0203301N004012200019N0500001N1+00451-00161101161ADDGA1001+999999999GF100991001001999999001001MD1410001+9999REMSYN054AAXX  11151 30935 42999 03304 10045 21016 40116 54000;
0112309350999992000051118004+50370+108750FM-12+077099999V0209999C000012200019N0500001N1+00021-00191101321ADDGF103991001001999999001011MD1310011+9999REMSYN060AAXX  11181 30935 42999 30000 10002 21019 40132 53001 80001;
0112309350999992000051121004+50370+108750FM-12+077099999V0209999C000012200019N0500001N1-00301-00331101441ADDGF102991001001999999001011MD1210011+9999REMSYN060AAXX  11211 30935 42999 20000 11030 21033 40144 52001 80001;
0173309350999992000051200004+50370+108750FM-12+077099999V0200601N001012200019N0500001N1+00231-00201101311ADDAA199000091GF102991001001999999001011MA1999999092171MD1210051+9999REMSYN076AAXX  12001 30935 32999 20601 10023 21020 39217 40131 52005 80001 333 55069;EQDQ01  00002PRCP99
0186309350999992000051212004+50370+108750FM-12+077099999V0200301N002012200019N0500001N1+01971-00191100031ADDAA199000091GF103991011011012501001011KA1999M+02141MA1999999091521MD1610021+9999REMSYN076AAXX  12121 30935 32699 30302 10197 21019 39152 40003 56002 81101 333 10214;EQDQ01  00002PRCP99
0112309350999992000051221004+50370+108750FM-12+077099999V0209999C000012200019N0500001N1+00001-00371100931ADDGF102991001001999999001011MD1110011+9999REMSYN060AAXX  12211 30935 42999 20000 10000 21037 40093 51001 80001;
0173309350999992000051300004+50370+108750FM-12+077099999V0200801N001012200019N0500001N1+00591-00011100751ADDAA199000091GF102991001001999999001011MA1999999091771MD1210021+9999REMSYN076AAXX  13001 30935 32999 20801 10059 21001 39177 40075 52002 80001 333 55139;EQDQ01  00002PRCP99
0112309350999992000051303004+50370+108750FM-12+077099999V0209999C000012200019N0500001N1+01511+00001100391ADDGF103991001001999999001011MD1810051+9999REMSYN060AAXX  13031 30935 42999 30000 10151 20000 40039 58005 80001;
0186309350999992000051312004+50370+108750FM-12+077099999V0202101N002010300019N0500001N1+02001+00211099911ADDAA199000091GF107991021091012501041011KA1999M+02471MA1999999091421MD1810021+9999REMSYN076AAXX  13121 30935 32699 72102 10200 20021 39142 49991 58002 82941 333 10247;EQDQ01  00002PRCP99
0112309350999992000051318004+50370+108750FM-12+077099999V0203101N001019999999N0500001N1+00851+00211100761ADDGF106991021001999999041011MD1210261+9999REMSYN060AAXX  13181 30935 42999 63101 10085 20021 40076 52026 82041;
0140309350999992000051321004+50370+108750FM-12+077099999V0203201N001019999999N0100001N1+00781+00111100961ADDAY121031AY221031GF108991061001999999041011MD1210181+9999MW1041REMSYN066AAXX  13211 30935 41997 83201 10078 20011 40096 52018 70422 86041;
0173309350999992000051400004+50370+108750FM-12+077099999V0201801N001010300019N0500001N1+01001+00411100981ADDAA199000091GF108991021051012501041011MA1999999092121MD1210091+9999REMSYN076AAXX  14001 30935 32699 81801 10100 20041 39212 40098 52009 82541 333 55121;EQDQ01  00002PRCP99
0112309350999992000051406004+50370+108750FM-12+077099999V0203301N007010120019N0500001N1+01431+00551100941ADDGF108991061051012501071999MD1210021+9999REMSYN060AAXX  14061 30935 42699 83307 10143 20055 40094 52002 8657/;
0140309350999992000051409004+50370+108750FM-12+077099999V0203201N004010120019N0500001N1+00961+00681101221ADDAY161031AY221031GF108991081051012501999999MD1210121+9999MW1211REMSYN066AAXX  14091 30935 41699 83204 10096 20068 40122 52012 72162 885//;
0201309350999992000051412004+50370+108750FM-12+077099999V0202301N001010120019N0100001N1+00821+00641101541ADDAA112003091AY161061AY221061GF108991071051012501021999KA1999M+01481MA1999999092571MD1210241+9999MW1611REMSYN088AAXX  14121 30935 11697 82301 10082 20064 39257 40154 52024 60032 76162 8752/ 333 10148;
0140309350999992000051415004+50370+108750FM-12+077099999V0203001N001010120019N0500001N1+00711+00581101631ADDAY161031AY221031GF108991051051012501021999MD1210051+9999MW1011REMSYN066AAXX  14151 30935 41699 83001 10071 20058 40163 52005 70162 8552/;
0140309350999992000051418004+50370+108750FM-12+077099999V0202601N002010120019N0100001N1+00651+00511101651ADDAY161061AY221061GF108991061051012501021999MD1410001+9999MW1611REMSYN066AAXX  14181 30935 41697 82602 10065 20051 40165 54000 76162 8652/;
0140309350999992000051421004+50370+108750FM-12+077099999V0202001N001010120019N0100001N1+00631+00521101611ADDAY161031AY221031GF108991081051012501999999MD1810041+9999MW1611REMSYN066AAXX  14211 30935 41697 82001 10063 20052 40161 58004 76162 885//;
0188309350999992000051500004+50370+108750FM-12+077099999V0209999C000010075019N0100001N1+00621+00531101701ADDAA112004191AY161061AY221061GF108991051051008001021999MA1999999092651MD1310071+9999MW1611REMSYN088AAXX  15001 30935 11597 80000 10062 20053 39265 40170 53007 60042 76162 8552/ 333 55024;
0173309350999992000051512004+50370+108750FM-12+077099999V0209999C000010300019N0500001N1+01101+00581101331ADDAA112003091GF106991041051012501041001KA1999M+01201MA1999999092471MD1310021+9999REMSYN082AAXX  15121 30935 12699 60000 10110 20058 39247 40133 53002 60032 84540 333 10120;
0112309350999992000051515004+50370+108750FM-12+077099999V0209999C000010120019N0500001N1+00941+00641101391ADDGF108991051051012501071999MD1410001+9999REMSYN060AAXX  15151 30935 42699 80000 10094 20064 40139 54000 8557/;
0172309350999992000051600004+50370+108750FM-12+077099999V0200301N003010075019N0500001N1+00891+00481100921ADDAA199000091GF107991051051008001041001MA1999999092031MD1710051+9999REMSYN075AAXX  16001 30935 32599 70303 10089 20048 39203 40092 57005 85540 333 5500;EQDQ01  00002PRCP99
0140309350999992000051609004+50370+108750FM-12+077099999V0200301N005010120019N0100001N1+01201+00561100541ADDAY191031AY281031GF107991061091012501041001MD1310051+9999MW1911REMSYN066AAXX  16091 30935 41697 70305 10120 20056 40054 53005 79198 86940;
0201309350999992000051612004+50370+108750FM-12+077099999V0203501N004010300019N0100001N1+00961+00851100861ADDAA112003091AY191061AY281061GF108991021041012501071999KA1999M+01731MA1999999092001MD1210231+9999MW1611REMSYN088AAXX  16121 30935 11697 83504 10096 20085 39200 40086 52023 60032 76198 8247/ 333 10173;
0140309350999992000051621004+50370+108750FM-12+077099999V0200601N002010120019N0100001N1+00651+00631101281ADDAY161031AY261031GF108991051051012501021999MD1210131+9999MW1611REMSYN066AAXX  16211 30935 41697 80602 10065 20063 40128 52013 76166 8552/;
0188309350999992000051700004+50370+108750FM-12+077099999V0201901N001010120019N0100001N1+00581+00531101361ADDAA112025991AY161061AY261061GF108991061051012501021999MA1999999092341MD1210051+9999MW1611REMSYN088AAXX  17001 30935 11697 81901 10058 20053 39234 40136 52005 60262 76166 8652/ 333 55034;
0140309350999992000051706004+50370+108750FM-12+077099999V0202301N003010120019N0500001N1+01421+00211101151ADDAY161061AY221061GF107991061091012501041011MD1810071+9999MW1011REMSYN066AAXX  17061 30935 41699 72303 10142 20021 40115 58007 70162 86941;
0112309350999992000051721004+50370+108750FM-12+077099999V0209999C000012200019N0500001N1+00131-00011101641ADDGF102991001001999999001011MD1210041+9999REMSYN060AAXX  17211 30935 42999 20000 10013 21001 40164 52004 80001;
0183309350999992000051800004+50370+108750FM-12+077099999V0209999C000012200019N0500001N1+00671+00211101551ADDAA199000091GA1001+999999999GF100991001001999999001001MA1999999092531MD1210091+9999REMSYN070AAXX  18001 30935 32999 00000 10067 20021 39253 40155 52009 333 55012;EQDQ01  00002PRCP99
0112309350999992000051806004+50370+108750FM-12+077099999V0203301N004012200019N0500001N1+01931-00331100791ADDGF108991031011012501001011MD1710191+9999REMSYN060AAXX  18061 30935 42699 83304 10193 21033 40079 57019 83101;
0186309350999992000051812004+50370+108750FM-12+077099999V0203201N002010300019N0500001N1+01671-00051100601ADDAA199000091GF106991031051012501031011KA1999M+02041MA1999999091951MD1710081+9999REMSYN076AAXX  18121 30935 32699 63202 10167 21005 39195 40060 57008 83531 333 10204;EQDQ01  00002PRCP99
0173309350999992000051900004+50370+108750FM-12+077099999V0200701N002010300019N0500001N1+00971+00341100501ADDAA199000091GF106991021051012501041011MA1999999091671MD1710051+9999REMSYN076AAXX  19001 30935 32699 60702 10097 20034 39167 40050 57005 82541 333 55121;EQDQ01  00002PRCP99
0112309350999992000051903004+50370+108750FM-12+077099999V0200801N001010300019N0500001N1+01531+00231100181ADDGF107991021011012501041001MD1710131+9999REMSYN060AAXX  19031 30935 42699 70801 10153 20023 40018 57013 82140;
0186309350999992000051912004+50370+108750FM-12+077099999V0203301N003012200019N0500001N1+02041+00551099891ADDAA199000091GF108991021051012501001011KA1999M+02381MA1999999091421MD1210011+9999REMSYN076AAXX  19121 30935 32699 83303 10204 20055 39142 49989 52001 82501 333 10238;EQDQ01  00002PRCP99
0112309350999992000051915004+50370+108750FM-12+077099999V0202801N004010750019N0500001N1+01561+00581100151ADDGF108991021051012501001021MD1210111+9999REMSYN060AAXX  19151 30935 42699 82804 10156 20058 40015 52011 82502;
0112309350999992000051918004+50370+108750FM-12+077099999V0203101N002010300019N0500001N1+01341+00841100481ADDGF108991021051012501041021MD1210241+9999REMSYN060AAXX  19181 30935 42699 83102 10134 20084 40048 52024 82542;
0112309350999992000051921004+50370+108750FM-12+077099999V0202201N004010300019N0500001N1+01211+00821100691ADDGF108991041051012501041011MD1210151+9999REMSYN060AAXX  19211 30935 42699 82204 10121 20082 40069 52015 84541;
0173309350999992000052000004+50370+108750FM-12+077099999V0202701N003019999999N0500001N1+01471+00701100781ADDAA199000091GF105991021001999999031021MA1999999092071MD1210151+9999REMSYN076AAXX  20001 30935 32999 52703 10147 20070 39207 40078 52015 82032 333 55096;EQDQ01  00002PRCP99
0112309350999992000052003004+50370+108750FM-12+077099999V0202701N006010120019N0500001N1+01531+00591100891ADDGF107991051091012501041011MD1210121+9999REMSYN060AAXX  20031 30935 42699 72706 10153 20059 40089 52012 85941;
0112309350999992000052006004+50370+108750FM-12+077099999V0203201N004010120019N0500001N1+01921+00611100731ADDGF105991051021012501001001MD1810041+9999REMSYN060AAXX  20061 30935 42699 53204 10192 20061 40073 58004 85200;
0112309350999992000052009004+50370+108750FM-12+077099999V0202901N003012200019N0500001N1+01961+00321100641ADDGF103991031021012501001001MD1710071+9999REMSYN060AAXX  20091 30935 42699 32903 10196 20032 40064 57007 83200;
0186309350999992000052012004+50370+108750FM-12+077099999V0203001N003012200019N0500001N1+01811+00231100801ADDAA199000091GF101991011011012501001001KA1999M+02071MA1999999092181MD1310101+9999REMSYN076AAXX  20121 30935 32699 13003 10181 20023 39218 40080 53010 81100 333 10207;EQDQ01  00002PRCP99
0112309350999992000052021004+50370+108750FM-12+077099999V0209999C000012200019N0500001N1+00301+00221101541ADDGF103991001001999999001011MD1210041+9999REMSYN060AAXX  20211 30935 42999 30000 10030 20022 40154 52004 80001;
0173309350999992000052100004+50370+108750FM-12+077099999V0200401N002010750019N0500001N1+00581+00101101451ADDAA199000091GF105991021091012501041011MA1999999092411MD1410001+9999REMSYN076AAXX  21001 30935 32699 50402 10058 20010 39241 40145 54000 82941 333 55116;EQDQ01  00002PRCP99
0186309350999992000052112004+50370+108750FM-12+077099999V0202101N003010300019N0500001N1+02221+00611099851ADDAA199000091GF107991021091012501031011KA1999M+02671MA1999999091431MD1710081+9999REMSYN076AAXX  21121 30935 32699 72103 10222 20061 39143 49985 57008 82931 333 10267;EQDQ01  00002PRCP99
0140309350999992000052118004+50370+108750FM-12+077099999V0203201N002010300019N0500001N1+01181+01001100561ADDAY191061AY281061GF107991021041012501031001MD1210321+9999MW1011REMSYN066AAXX  21181 30935 41699 73202 10118 20100 40056 52032 70198 82430;
0112309350999992000052121004+50370+108750FM-12+077099999V0203201N001012200019N0500001N1+00981+00851100731ADDGF104991041001999999041001MD1210101+9999REMSYN060AAXX  21211 30935 42999 43201 10098 20085 40073 52010 84040;
0160309350999992000052200004+50370+108750FM-12+077099999V0200801N001010300019N0500001N1+01121+00981100881ADDAA112003091GF108991031051012501041011MA1999999092071MD1210181+9999REMSYN082AAXX  22001 30935 12699 80801 10112 20098 39207 40088 52018 60032 83541 333 55096;
0112309350999992000052221004+50370+108750FM-12+077099999V0201401N001010120019N0500001N1+00991+00891099881ADDGF108991071051012501001011MD1710091+9999REMSYN060AAXX  22211 30935 42699 81401 10099 20089 49988 57009 87501;
0140309350999992000052303004+50370+108750FM-12+077099999V0200101N004010120019N0100001N1+01881+00861100061ADDAY181031AY221031GF107991051091012501041001MD1210341+9999MW1801REMSYN066AAXX  23031 30935 41697 70104 10188 20086 40006 52034 78082 85940;
0140309350999992000052306004+50370+108750FM-12+077099999V0203001N002010120019N0500001N1+01911+01121100101ADDAY181061AY221061GF106991051091012501001011MD1210051+9999MW1031REMSYN066AAXX  23061 30935 41699 63002 10191 20112 40010 52005 70382 85901;
0140309350999992000052315004+50370+108750FM-12+077099999V0203301N012010120019N0100001N1+01121+00771100541ADDAY181031AY221031GF108991051091012501071999MD1310281+9999MW1801REMSYN066AAXX  23151 30935 41697 83312 10112 20077 40054 53028 78082 8597/;
0140309350999992000052318004+50370+108750FM-12+077099999V0209999C000010300019N0500001N1+00751+00731100961ADDAY181061AY221061GF108991021091012501041001MD1210271+9999MW1011REMSYN066AAXX  23181 30935 41699 80000 10075 20073 40096 52027 70182 82940;
0112309350999992000052321004+50370+108750FM-12+077099999V0200501N003019999999N0500001N1+00571+00551101271ADDGF105991001001999999001011MD1210221+9999REMSYN060AAXX  23211 30935 42999 50503 10057 20055 40127 52022 80001;
0160309350999992000052400004+50370+108750FM-12+077099999V0202301N002012200019N0500001N1+00801+00581101221ADDAA112006191GF102991021041012501001041MA1999999092281MD1210031+9999REMSYN082AAXX  24001 30935 12699 22302 10080 20058 39228 40122 52003 60062 82404 333 55099;
0140309350999992000052406004+50370+108750FM-12+077099999V0201401N010010120019N0100001N1+01101+00411101251ADDAY191061AY281061GF107991051091012501041001MD1210101+9999MW1951REMSYN066AAXX  24061 30935 41697 71410 10110 20041 40125 52010 79598 85940;
0112309350999992000052421004+50370+108750FM-12+077099999V0209999C000012200019N0500001N1-00021-00201102321ADDGF101991011001999999041001MD1210081+9999REMSYN060AAXX  24211 30935 42999 10000 11002 21020 40232 52008 81040;
0188309350999992000052600004+50370+108750FM-12+077099999V0201901N001010300019N0500001N1+00731+00191101541ADDAA112000591AY181061AY221061GF105991021011012501031001MA1999999092541MD1310121+9999MW1031REMSYN088AAXX  26001 30935 11699 51901 10073 20019 39254 40154 53012 69942 70382 82130 333 55142;
0122309350999992000052618004+50370+108750FM-12+077099999V0209999C000012200019N0500001N1+00441+00131101611ADDGA1001+999999999GF100991001001999999001001MD1210071+9999REMSYN054AAXX  26181 30935 42999 00000 10044 20013 40161 52007;
0122309350999992000052621004+50370+108750FM-12+077099999V0209999C000012200019N0500001N1+00121-00051101751ADDGA1001+999999999GF100991001001999999001001MD1210031+9999REMSYN054AAXX  26211 30935 42999 00000 10012 21005 40175 52003;
0173309350999992000052700004+50370+108750FM-12+077099999V0209999C000012200019N0500001N1+00591+00111101601ADDAA199000091GF103991001001999999001011MA1999999092551MD1210011+9999REMSYN076AAXX  27001 30935 32999 30000 10059 20011 39255 40160 52001 80001 333 55145;EQDQ01  00002PRCP99
0196309350999992000052712004+50370+108750FM-12+077099999V0203201N003012200019N0500001N1+02271-00121100241ADDAA199000091GA1001+999999999GF100991001001999999001001KA1999M+02601MA1999999091791MD1410001+9999REMSYN070AAXX  27121 30935 32999 03203 10227 21012 39179 40024 54000 333 10260;EQDQ01  00002PRCP99
0206309350999992000052900004+50370+108750FM-12+077099999V0202001N002010120019N0100001N1+00981+00651100231ADDAA112000791AY161061AY221061GF107991071051012501031001IA1169IA2999+04209MA1999999091431MD1710111+9999MW1211REMSYN088AAXX  29001 30935 11697 72002 10098 20065 39143 40023 57011 69902 72162 87530 333 35042;
0112309350999992000052909004+50370+108750FM-12+077099999V0202401N008010300019N0500001N1+01531+00591100121ADDGF106991021021012501041011MD1810191+9999REMSYN060AAXX  29091 30935 42699 62408 10153 20059 40012 58019 82241;
0112309350999992000052915004+50370+108750FM-12+077099999V0200601N002019999999N0500001N1+01141+00621100411ADDGF108991081001999999071999MD1210101+9999REMSYN060AAXX  29151 30935 42999 80602 10114 20062 40041 52010 8807/;
0112309350999992000053003004+50370+108750FM-12+077099999V0200801N001012200019N0500001N1+01521+00851100411ADDGF105991021011012501001011MD1410001+9999REMSYN060AAXX  30031 30935 42699 50801 10152 20085 40041 54000 82101;
0201309350999992000053012004+50370+108750FM-12+077099999V0202701N002012200019N0500001N1+02201+00811100061ADDAA112000891AY181061AY221061GF105991031091012501001011KA1999M+04221MA1999999091631MD1410001+9999MW1011REMSYN088AAXX  30121 30935 11699 52702 10220 20081 39163 40006 54000 69972 70182 83901 333 10422;
0112309350999992000053021004+50370+108750FM-12+077099999V0209999C000012200019N0500001N1+00481+00331101111ADDGF103991021001999999041011MD1210131+9999REMSYN060AAXX  30211 30935 42999 30000 10048 20033 40111 52013 82041;
0112309350999992000053106004+50370+108750FM-12+077099999V0202401N001010750019N0500001N1+02391+00091100491ADDGF105991021021012501041011MD1710171+9999REMSYN060AAXX  31061 30935 42699 52401 10239 20009 40049 57017 82241;
0112309350999992000053109004+50370+108750FM-12+077099999V0200601N002010300019N0500001N1+02471+00361100291ADDGF107991041091012501041011MD1710151+9999REMSYN060AAXX  31091 30935 42699 70602 10247 20036 40029 57015 84941;
0112309350999992000053121004+50370+108750FM-12+077099999V0201301N002010300019N0500001N1+01131+01031101191ADDGF107991031051012501041011MD1410001+9999REMSYN060AAXX  31211 30935 42699 71302 10113 20103 40119 54000 83541;
0160309350999992000060100004+50370+108750FM-12+077099999V0202601N004010750019N0500001N1+01331+01001101151ADDAA112003091GF105991021091012501081011MA1999999092381MD1310021+9999REMSYN082AAXX  01001 30935 12699 52604 10133 20100 39238 40115 53002 60032 82981 333 55100;
0112309350999992000060106004+50370+108750FM-12+077099999V0202401N004012200019N0500001N1+02231+00901100741ADDGF101991011011012501001001MD1710091+9999REMSYN060AAXX  01061 30935 42699 12404 10223 20090 40074 57009 81100;
0196309350999992000060112004+50370+108750FM-12+077099999V0200601N001012200019N0500001N1+02431+00991100491ADDAA199000091GA1001+999999999GF100991001001999999001001KA1999M+02551MA1999999092081MD1710021+9999REMSYN070AAXX  01121 30935 32999 00601 10243 20099 39208 40049 57002 333 10255;EQDQ01  00002PRCP99
0122309350999992000060118004+50370+108750FM-12+077099999V0209999C000012200019N0500001N1+01031+00861101261ADDGA1001+999999999GF100991001001999999001001MD1210191+9999REMSYN054AAXX  01181 30935 42999 00000 10103 20086 40126 52019;
0112309350999992000060121004+50370+108750FM-12+077099999V0209999C000012200019N0500001N1+00731+00621101391ADDGF103991021001999999031011MD1210031+9999REMSYN060AAXX  01211 30935 42999 30000 10073 20062 40139 52003 82031;
0173309350999992000060200004+50370+108750FM-12+077099999V0200901N001019999999N0500001N1+01161+00771101241ADDAA199000091GF105991001001999999001011MA1999999092471MD1810011+9999REMSYN076AAXX  02001 30935 32999 50901 10116 20077 39247 40124 58001 80001 333 55145;EQDQ01  00002PRCP99
0112309350999992000060221004+50370+108750FM-12+077099999V0209999C000012200019N0500001N1+00941+00641101061ADDGF102991021001999999041011MD1310081+9999REMSYN060AAXX  02211 30935 42999 20000 10094 20064 40106 53008 82041;
0173309350999992000060300004+50370+108750FM-12+077099999V0200801N001019999999N0500001N1+01471+00861100961ADDAA199000091GF106991041001999999041011MA1999999092241MD1210071+9999REMSYN076AAXX  03001 30935 32999 60801 10147 20086 39224 40096 52007 84041 333 55135;EQDQ01  00002PRCP99
0186309350999992000060312004+50370+108750FM-12+077099999V0203201N003012200019N0500001N1+02851+00931099941ADDAA199000091GF104991021051012501001011KA1999M+03341MA1999999091691MD1410001+9999REMSYN076AAXX  03121 30935 32699 43203 10285 20093 39169 49994 54000 82501 333 10334;EQDQ01  00002PRCP99
0112309350999992000060321004+50370+108750FM-12+077099999V0202701N001012200019N0500001N1+00961+00651100861ADDGF103991001001999999001011MD1210171+9999REMSYN060AAXX  03211 30935 42999 32701 10096 20065 40086 52017 80001;
0140309350999992000060409004+50370+108750FM-12+077099999V0201701N003019999999N0100001N1+02901+01181100391ADDAY121031AY221031GF108991021001999999041011MD1810111+9999MW1041REMSYN066AAXX  04091 30935 41997 81703 10290 20118 40039 58011 70422 82041;
0214309350999992000060412004+50370+108750FM-12+077099999V0200301N003019999999N0100001N1+02611+00991100451ADDAA199000091AY121061AY221061GF108991001001999999001061KA1999M+02981MA1999999092091MD1710031+9999MW1041REMSYN082AAXX  04121 30935 31997 80303 10261 20099 39209 40045 57003 70422 80006 333 10298;EQDQ01  00002PRCP99
0140309350999992000060521004+50370+108750FM-12+077099999V0202901N002010120019N0500001N1+01361+01051100651ADDAY181031AY221031GF108991051091012501041999MD1210021+9999MW1031REMSYN066AAXX  05211 30935 41699 82902 10136 20105 40065 52002 70382 8594/;
0188309350999992000060600004+50370+108750FM-12+077099999V0203201N003010300019N0500001N1+01311+00711100791ADDAA112011991AY181061AY221061GF107991031041012501041001MA1999999092041MD1210101+9999MW1011REMSYN088AAXX  06001 30935 11699 73203 10131 20071 39204 40079 52010 60122 70182 83440 333 55038;
0173309350999992000060612004+50370+108750FM-12+077099999V0203201N002012200019N0500001N1+01621+00671100851ADDAA112000891GF102991021041012501001001KA1999M+01731MA1999999092181MD1010041+9999REMSYN082AAXX  06121 30935 12699 23202 10162 20067 39218 40085 50004 69972 82400 333 10173;
0211309350999992000060700004+50370+108750FM-12+077099999V0201401N001010003019N0005001N1+00561+00511101251ADDAA199000091AY141061AY241061GA1091+999999999GF109991091999999999999999MA1999999092231MD1210031+9999MW1431REMSYN076AAXX  07001 30935 31/93 91401 10056 20051 39223 40125 52003 74344 333 55083;EQDQ01  00002PRCP99
0173309350999992000060800004+50370+108750FM-12+077099999V0200601N003010300019N0500001N1+01221+00651101221ADDAA199000091GF108991021011012501031011MA1999999092401MD1210131+9999REMSYN076AAXX  08001 30935 32699 80603 10122 20065 39240 40122 52013 82131 333 55109;EQDQ01  00002PRCP99
0122309350999992000060815004+50370+108750FM-12+077099999V0209999C000012200019N0500001N1+01121+00811100991ADDGA1001+999999999GF100991001001999999001001MD1210081+9999REMSYN054AAXX  08151 30935 42999 00000 10112 20081 40099 52008;
0243309350999992000060900004+50370+108750FM-12+077099999V0209999C000012200019N0500001N1+01311+00821101131ADDAA199000091GA1001+999999999GF100991001001999999001001GJ106849IA1019IA2999+00609MA1999999092351MD1210101+9999REMSYN104AAXX  09001 30935 32999 00000 10131 20082 39235 40113 52010 333 55114 555 10020 30006 50165 53005 7000/;EQDQ01  00002PRCP99
0112309350999992000060906004+50370+108750FM-12+077099999V0209999C000012200019N0500001N1+02781+00811100371ADDGF102991021011012501001001MD1710211+9999REMSYN060AAXX  09061 30935 42699 20000 10278 20081 40037 57021 82100;
0196309350999992000060912004+50370+108750FM-12+077099999V0203201N003012200019N0500001N1+02731+01211100231ADDAA199000091GA1001+999999999GF100991001001999999001001KA1999M+02951MA1999999091941MD1410001+9999REMSYN070AAXX  09121 30935 32999 03203 10273 20121 39194 40023 54000 333 10295;EQDQ01  00002PRCP99
0183309350999992000061000004+50370+108750FM-12+077099999V0200701N001012200019N0500001N1+01511+00741100931ADDAA199000091GA1001+999999999GF100991001001999999001001MA1999999092231MD1210091+9999REMSYN070AAXX  10001 30935 32999 00701 10151 20074 39223 40093 52009 333 55153;EQDQ01  00002PRCP99
0112309350999992000061006004+50370+108750FM-12+077099999V0203301N001012200019N0500001N1+03061+00981100121ADDGF101991011011012501001001MD1710241+9999REMSYN060AAXX  10061 30935 42699 13301 10306 20098 40012 57024 81100;
0233309350999992000061100004+50370+108750FM-12+077099999V0201101N001012200019N0500001N1+01551+00951100971ADDAA199000091GF102991001001999999001011GJ109069IA1019IA2999+00909MA1999999092281MD1210051+9999REMSYN110AAXX  11001 30935 32999 21101 10155 20095 39228 40097 52005 80001 333 55151 555 10021 30009 50212 53004 7000/;EQDQ01  00002PRCP99
0230309350999992000061112004+50370+108750FM-12+077099999V0202901N002010300019N0100001N1+02861+01381100491ADDAA199000091AY121061AY221061GF107991011011012501031021KA1120M+03511MA1999999092211MD1310121+9999MW1041REMSYN098AAXX  11121 30935 31697 72902 10286 20138 39221 40049 53012 70422 81132 333 10351 555 10032 53014;EQDQ01  00002PRCP99
0140309350999992000061115004+50370+108750FM-12+077099999V0202101N002012200019N0100001N1+02311+01241100901ADDAY111031AY211031GF102991001001999999001011MD1210231+9999MW1041REMSYN066AAXX  11151 30935 41997 22102 10231 20124 40090 52023 70411 80001;
0150309350999992000061118004+50370+108750FM-12+077099999V0202201N001012200019N0100001N1+01861+01271101251ADDAY111061AY211061GA1001+999999999GF100991001001999999001001MD1210191+9999MW1041REMSYN060AAXX  11181 30935 41997 02201 10186 20127 40125 52019 70411;
0140309350999992000061121004+50370+108750FM-12+077099999V0202601N001012200019N0100001N1+01451+01151101571ADDAY101031AY201031GF103991021001999999031011MD1210171+9999MW1041REMSYN066AAXX  11211 30935 41997 32601 10145 20115 40157 52017 70400 82031;
0183309350999992000061200004+50370+108750FM-12+077099999V0202401N001012200019N0500001N1+01641+01221101561ADDAA199000091GA1001+999999999GF100991001001999999001001MA1999999092851MD1210051+9999REMSYN070AAXX  12001 30935 32999 02401 10164 20122 39285 40156 52005 333 55129;EQDQ01  00002PRCP99
0173309350999992000061300004+50370+108750FM-12+077099999V0200601N002019999999N0500001N1+01681+01301100961ADDAA199000091GF106991041001999999041011MA1999999092321MD1210071+9999REMSYN076AAXX  13001 30935 32999 60602 10168 20130 39232 40096 52007 84041 333 55135;EQDQ01  00002PRCP99
0112309350999992000061303004+50370+108750FM-12+077099999V0209999C000019999999N0500001N1+02271+01271100581ADDGF105991031001999999041011MD1810191+9999REMSYN060AAXX  13031 30935 42999 50000 10227 20127 40058 58019 83041;
0186309350999992000061312004+50370+108750FM-12+077099999V0202201N002012200019N0500001N1+03011+00841099711ADDAA199000091GF105991021091012501001011KA1999M+03311MA1999999091521MD1710061+9999REMSYN076AAXX  13121 30935 32699 52202 10301 20084 39152 49971 57006 82901 333 10331;EQDQ01  00002PRCP99
0173309350999992000061400004+50360+108750FM-12+077099999V0203301N001019999999N0500001N1+01661+01021099931ADDAA199000091GF106991061001999999031001MA1999999091351MD1710161+9999REMSYN076AAXX  14001 30935 32999 63301 10166 20102 39135 49993 57016 86030 333 55106;EQDQ01  00002PRCP99
0112309350999992000061406004+50360+108750FM-12+077099999V0200501N001012200019N0500001N1+03111+01591099281ADDGF103991011011012501001021MD1710051+9999REMSYN060AAXX  14061 30935 42699 30501 10311 20159 49928 57005 81102;
0112309350999992000061409004+50360+108750FM-12+077099999V0200501N005010750019N0500001N1+03131+01621099121ADDGF106991021011012501001021MD1710131+9999REMSYN060AAXX  14091 30935 42699 60505 10313 20162 49912 57013 82102;
0247309350999992000061412004+50360+108750FM-12+077099999V0200801N003010120019N0100001N1+01642+01431100432ADDAA112009991AY191061AY281061GF108991081091012501999999KA1120M+03331MD1310792+9999MW1951REMSYN098AAXX  14121 30935 11697 80803 10164 20143 40043 53079 60102 79598 889// 333 10333 555 12018 53013;EQDQ01+001643ATOT  Q02+100433APOSLPQ03+000792APC3  
0112309350999992000061421004+50360+108750FM-12+077099999V0209999C000010300019N0500001N1+01621+01411100701ADDGF108991031051012501041021MD1210121+9999REMSYN060AAXX  14211 30935 42699 80000 10162 20141 40070 52012 83542;
0160309350999992000061500004+50360+108750FM-12+077099999V0201101N001010300019N0500001N1+01701+01361100891ADDAA112004191GF108991021051012501041021MA1999999092261MD1210201+9999REMSYN082AAXX  15001 30935 12699 81101 10170 20136 39226 40089 52020 60042 82542 333 55100;
0112309350999992000061503004+50360+108750FM-12+077099999V0202501N006010300019N0500001N1+02221+01191100881ADDGF106991011051012501041011MD1210131+9999REMSYN060AAXX  15031 30935 42699 62506 10222 20119 40088 52013 81541;
0186309350999992000061512004+50360+108750FM-12+077099999V0200601N001010750019N0500001N1+02641+01161100531ADDAA199000091GF108991011011012501001061KA1999M+02851MA1999999092181MD1310081+9999REMSYN076AAXX  15121 30935 32699 80601 10264 20116 39218 40053 53008 81106 333 10285;EQDQ01  00002PRCP99
0112309350999992000061521004+50360+108750FM-12+077099999V0209999C000010300019N0500001N1+01541+01251101421ADDGF107991021091012501031021MD1210131+9999REMSYN060AAXX  15211 30935 42699 70000 10154 20125 40142 52013 82932;
0112309350999992000061606004+50360+108750FM-12+077099999V0202501N001010300019N0500001N1+02801+01131101071ADDGF108991021011012501041011MD1710161+9999REMSYN060AAXX  16061 30935 42699 82501 10280 20113 40107 57016 82141;
0112309350999992000061609004+50360+108750FM-12+077099999V0200901N001012200019N0500001N1+02991+01241100871ADDGF108991021011012501001011MD1710131+9999REMSYN060AAXX  16091 30935 42699 80901 10299 20124 40087 57013 82101;
0112309350999992000061615004+50360+108750FM-12+077099999V0201401N002019999999N0500001N1+01921+01241101331ADDGF108991031001999999041011MD1310131+9999REMSYN060AAXX  16151 30935 42999 81402 10192 20124 40133 53013 83041;
0112309350999992000061621004+50360+108750FM-12+077099999V0209999C000019999999N0500001N1+01301+01171101561ADDGF106991021001999999041011MD1410001+9999REMSYN060AAXX  16211 30935 42999 60000 10130 20117 40156 54000 82041;
0173309350999992000061700004+50360+108750FM-12+077099999V0209999C000012200019N0500001N1+01671+01311101661ADDAA199000091GF102991001001999999001011MA1999999092951MD1310201+9999REMSYN076AAXX  17001 30935 32999 20000 10167 20131 39295 40166 53020 80001 333 55072;EQDQ01  00002PRCP99
0112309350999992000061703004+50360+108750FM-12+077099999V0203001N002012200019N0500001N1+02371+01461101311ADDGF102991011011012501001011MD1810111+9999REMSYN060AAXX  17031 30935 42699 23002 10237 20146 40131 58011 81101;
0202309350999992000061712004+50360+108750FM-12+077099999V0200601N002012200019N0500001N1+02811+01511100691ADDAA199000091GF108991021011012501001011KA1120M+03201MA1999999092381MD1710081+9999REMSYN092AAXX  17121 30935 32699 80602 10281 20151 39238 40069 57008 82101 333 10320 555 10030 53009;EQDQ01  00002PRCP99
0112309350999992000061721004+50360+108750FM-12+077099999V0209999C000010120019N0500001N1+01621+01331101091ADDGF108991051051012501041011MD1310041+9999REMSYN060AAXX  17211 30935 42699 80000 10162 20133 40109 53004 85541;
0188309350999992000061800004+50360+108750FM-12+077099999V0209999C000019999999N0500001N1+01811+01471101121ADDAA112000391AY181061AY221061GF107991071001999999031001MA1999999092511MD1210091+9999MW1011REMSYN088AAXX  18001 30935 11999 70000 10181 20147 39251 40112 52009 69932 70182 87030 333 55125;
0140309350999992000061809004+50360+108750FM-12+077099999V0200901N004010300019N0500001N1+02761+01301100591ADDAY191031AY221031GF108991021011012501041021MD1310021+9999MW1011REMSYN066AAXX  18091 30935 41699 80904 10276 20130 40059 53002 70192 82142;
0173309350999992000061900004+50360+108750FM-12+077099999V0209999C000019999999N0500001N1+01681+01231101141ADDAA199000091GF108991011001999999041051MA1999999092481MD1210031+9999REMSYN076AAXX  19001 30935 32999 80000 10168 20123 39248 40114 52003 81045 333 55068;EQDQ01  00002PRCP99
0112309350999992000061903004+50360+108750FM-12+077099999V0202701N001010300019N0500001N1+02321+01441100961ADDGF107991011021012501031011MD1210021+9999REMSYN060AAXX  19031 30935 42699 72701 10232 20144 40096 52002 81231;
0140309350999992000061906004+50360+108750FM-12+077099999V0203201N004010120019N0100001N1+02221+01581100891ADDAY191061AY281061GF108991081091012501999999MD1810091+9999MW1951REMSYN066AAXX  19061 30935 41697 83204 10222 20158 40089 58009 79598 889//;
0140309350999992000061909004+50360+108750FM-12+077099999V0201601N001010300019N0500001N1+02121+01591100821ADDAY191031AY281031GF108991031091012501071999MD1710081+9999MW1011REMSYN066AAXX  19091 30935 41699 81601 10212 20159 40082 57008 70198 8397/;
0201309350999992000061912004+50360+108750FM-12+077099999V0203001N002010300019N0500001N1+02181+01841100721ADDAA112004191AY191061AY281061GF108991011041012501041021KA1999M+02321MA1999999092251MD1710081+9999MW1011REMSYN088AAXX  19121 30935 11699 83002 10218 20184 39225 40072 57008 60042 70198 81442 333 10232;
0112309350999992000062021004+50360+108750FM-12+077099999V0209999C000010300019N0500001N1+01461+01201100751ADDGF107991031051012501031001MD1310031+9999REMSYN060AAXX  20211 30935 42699 70000 10146 20120 40075 53003 83530;
0173309350999992000062100004+50360+108750FM-12+077099999V0200501N001010300019N0500001N1+01771+01311100611ADDAA199000091GF108991031051012501041011MA1999999092021MD1510041+9999REMSYN076AAXX  21001 30935 32699 80501 10177 20131 39202 40061 55004 83541 333 55111;EQDQ01  00002PRCP99
0112309350999992000062103004+50360+108750FM-12+077099999V0201001N001010300019N0500001N1+02291+01381100401ADDGF108991021011012501031011MD1710041+9999REMSYN060AAXX  21031 30935 42699 81001 10229 20138 40040 57004 82131;
0112309350999992000062106004+50360+108750FM-12+077099999V0201101N002012200019N0500001N1+03011+01451099871ADDGF105991031091012501001011MD1710301+9999REMSYN060AAXX  21061 30935 42699 51102 10301 20145 49987 57030 83901;
0112309350999992000062109004+50360+108750FM-12+077099999V0203301N001010300019N0500001N1+02981+01411099701ADDGF106991021021012501041011MD1710171+9999REMSYN060AAXX  21091 30935 42699 63301 10298 20141 49970 57017 82241;
0186309350999992000062112004+50360+108750FM-12+077099999V0202801N002010300019N0500001N1+02821+01451099681ADDAA199000091GF108991031021012501041011KA1999M+03021MA1999999091461MD1710051+9999REMSYN076AAXX  21121 30935 32699 82802 10282 20145 39146 49968 57005 83241 333 10302;EQDQ01  00002PRCP99
0188309350999992000062200004+50360+108750FM-12+077099999V0202401N001010075019N0500001N1+01701+01531100121ADDAA112007191AY181061AY221061GF107991061041008001041001MA1999999091561MD1710031+9999MW1031REMSYN088AAXX  22001 30935 11599 72401 10170 20153 39156 40012 57003 60072 70382 86440 333 55096;
0140309350999992000062203004+50360+108750FM-12+077099999V0201201N001010075019N0100001N1+01641+01391100251ADDAY161031AY221031GF108991061071008001021999MD1310101+9999MW1611REMSYN066AAXX  22031 30935 41597 81201 10164 20139 40025 53010 76162 8672/;
0140309350999992000062206004+50360+108750FM-12+077099999V0203401N004010075019N0100001N1+01501+01141100551ADDAY161061AY261061GF108991061071008001021999MD1210231+9999MW1611REMSYN066AAXX  22061 30935 41597 83404 10150 20114 40055 52023 76166 8672/;
0233309350999992000062300004+50360+108750FM-12+077099999V0202301N001019999999N0500001N1+00721+00291101671ADDAA199000091GF106991051001999999041011GJ100489IA1099IA2999+00209MA1999999092661MD1210011+9999REMSYN110AAXX  23001 30935 32999 62301 10072 20029 39266 40167 52001 85041 333 55008 555 11010 31002 50155 53007 7014/;EQDQ01  00002PRCP99
0186309350999992000062312004+50360+108750FM-12+077099999V0202801N004012200019N0500001N1+01681+00151100911ADDAA199000091GF103991031001999999031001KA1999M+02141MA1999999092241MD1710131+9999REMSYN076AAXX  23121 30935 32999 32804 10168 20015 39224 40091 57013 83030 333 10214;EQDQ01  00002PRCP99
0122309350999992000062321004+50360+108750FM-12+077099999V0209999C000012200019N0500001N1+00221+00141101531ADDGA1001+999999999GF100991001001999999001001MD1210031+9999REMSYN054AAXX  23211 30935 42999 00000 10022 20014 40153 52003;
0196309350999992000062412004+50360+108750FM-12+077099999V0203201N002012200019N0500001N1+02311+00361100241ADDAA199000091GA1001+999999999GF100991001001999999001001KA1999M+02421MA1999999091811MD1710011+9999REMSYN070AAXX  24121 30935 32999 03202 10231 20036 39181 40024 57001 333 10242;EQDQ01  00002PRCP99
0122309350999992000062418004+50360+108750FM-12+077099999V0201101N001012200019N0500001N1+00941+00681100661ADDGA1001+999999999GF100991001001999999001001MD1310011+9999REMSYN054AAXX  24181 30935 42999 01101 10094 20068 40066 53001;
0112309350999992000062421004+50360+108750FM-12+077099999V0202701N001012200019N0500001N1+00571+00411100861ADDGF102991001001999999001011MD1210061+9999REMSYN060AAXX  24211 30935 42999 22701 10057 20041 40086 52006 80001;
0186309350999992000062512004+50360+108750FM-12+077099999V0201801N001012200019N0500001N1+02831+01261099481ADDAA199000091GF103991021001999999041011KA1999M+02991MA1999999091271MD1710111+9999REMSYN076AAXX  25121 30935 32999 31801 10283 20126 39127 49948 57011 82041 333 10299;EQDQ01  00002PRCP99
0112309350999992000062621004+50360+108750FM-12+077099999V0209999C000010120019N0500001N1+01361+01041100361ADDGF108991081051012501999999MD1410001+9999REMSYN060AAXX  26211 30935 42699 80000 10136 20104 40036 54000 885//;
0160309350999992000062700004+50360+108750FM-12+077099999V0203501N003010120019N0500001N1+01271+00981100451ADDAA112000591GF108991061051012501021999MA1999999091731MD1310061+9999REMSYN082AAXX  27001 30935 12699 83503 10127 20098 39173 40045 53006 69942 8652/ 333 55069;
0112309350999992000062703004+50360+108750FM-12+077099999V0201801N003010120019N0500001N1+01391+00981100451ADDGF108991061051012501021999MD1210021+9999REMSYN060AAXX  27031 30935 42699 81803 10139 20098 40045 52002 8652/;
0214309350999992000062712004+50360+108750FM-12+077099999V0203201N003010300019N0100001N1+01351+00981100511ADDAA199000091AY121061AY221061GF108991021041012501071999KA1999M+01451MA1999999091801MD1210021+9999MW1151REMSYN082AAXX  27121 30935 31697 83203 10135 20098 39180 40051 52002 71522 8247/ 333 10145;EQDQ01  00002PRCP99
0188309350999992000062800004+50360+108750FM-12+077099999V0202101N002019999999N0100001N1+01021+00851100401ADDAA112002091AY161061AY261061GF108991081001999999071999MA1999999091601MD1710061+9999MW1611REMSYN088AAXX  28001 30935 11997 82102 10102 20085 39160 40040 57006 60022 76166 8807/ 333 55000;
0201309350999992000062812004+50360+108750FM-12+077099999V0202101N001010300019N0100001N1+01121+00981100451ADDAA112010991AY161061AY221061GF108991041071008001021999KA1999M+01231MA1999999091671MD1310081+9999MW1631REMSYN088AAXX  28121 30935 11597 82101 10112 20098 39167 40045 53008 60112 76362 8472/ 333 10123;
0112309350999992000062821004+50360+108750FM-12+077099999V0209999C000010120019N0500001N1+00931+00851100551ADDGF106991051051012501041001MD1410001+9999REMSYN060AAXX  28211 30935 42699 60000 10093 20085 40055 54000 85540;
0160309350999992000062900004+50360+108750FM-12+077099999V0202301N002010300019N0500001N1+01261+01001100581ADDAA112001091GF106991041051012501041011MA1999999091841MD1310131+9999REMSYN082AAXX  29001 30935 12699 62302 10126 20100 39184 40058 53013 60012 84541 333 55000;
0112309350999992000062903004+50360+108750FM-12+077099999V0201801N002012200019N0500001N1+01791+01111100361ADDGF101991011011012501001001MD1810051+9999REMSYN060AAXX  29031 30935 42699 11802 10179 20111 40036 58005 81100;
0202309350999992000062912004+50360+108750FM-12+077099999V0202501N001012200019N0500001N1+02441+01061099951ADDAA199000091GF102991011011012501001011KA1120M+02591MA1999999091591MD1710011+9999REMSYN092AAXX  29121 30935 32699 22501 10244 20106 39159 49995 57001 81101 333 10259 555 11026 53008;EQDQ01  00002PRCP99
0112309350999992000062915004+50360+108750FM-12+077099999V0201501N001012200019N0500001N1+01631+01181100201ADDGF102991001001999999001011MD1310011+9999REMSYN060AAXX  29151 30935 42999 21501 10163 20118 40020 53001 80001;
0122309350999992000062918004+50360+108750FM-12+077099999V0201801N001012200019N0500001N1+01201+01041100401ADDGA1001+999999999GF100991001001999999001001MD1210031+9999REMSYN054AAXX  29181 30935 42999 01801 10120 20104 40040 52003;
0112309350999992000062921004+50360+108750FM-12+077099999V0201901N001019999999N0500001N1+01061+00941100421ADDGF106991051001999999041011MD1210011+9999REMSYN060AAXX  29211 30935 42999 61901 10106 20094 40042 52001 85041;
0188309350999992000063000004+50360+108750FM-12+077099999V0209999C000010750019N0500001N1+01331+01121100431ADDAA112000791AY181061AY211061GF105991021021012501041011MA1999999091731MD1210091+9999MW1011REMSYN088AAXX  30001 30935 11699 50000 10133 20112 39173 40043 52009 69902 70181 82241 333 55147;
0186309350999992000063012004+50360+108750FM-12+077099999V0201501N004010300019N0500001N1+02481+01621099601ADDAA199000091GF108991021021012501071999KA1999M+02801MA1999999091301MD1710021+9999REMSYN076AAXX  30121 30935 32699 81504 10248 20162 39130 49960 57002 8227/ 333 10280;EQDQ01  00002PRCP99
0140309350999992000063015004+50360+108750FM-12+077099999V0202301N001010120019N0500001N1+02021+01381099821ADDAY191031AY281031GF107991051091012501041011MD1310071+9999MW1171REMSYN066AAXX  30151 30935 41699 72301 10202 20138 49982 53007 71798 85941;
0112309350999992000063021004+50360+108750FM-12+077099999V0201101N001012200019N0500001N1+01321+01171100051ADDGF102991021001999999041001MD1410001+9999REMSYN060AAXX  30211 30935 42999 21101 10132 20117 40005 54000 82040;
0170309350999992000070100004+50360+108750FM-12+077099999V0209999C000012200019N0500001N1+01671+01331100061ADDAA112000591GA1001+999999999GF100991001001999999001001MA1999999091491MD1310111+9999REMSYN076AAXX  01001 30935 12999 00000 10167 20133 39149 40006 53011 69962 333 55093;
0112309350999992000070106004+50360+108750FM-12+077099999V0201801N002012200019N0500001N1+02821+01401099621ADDGF103991021011012501001021MD1810121+9999REMSYN060AAXX  01061 30935 42699 31802 10282 20140 49962 58012 82102;
0186309350999992000070112004+50360+108750FM-12+077099999V0200101N002012200019N0500001N1+02651+01591099641ADDAA199000091GF106991021011012501001011KA1999M+02941MA1999999091381MD1310061+9999REMSYN076AAXX  01121 30935 32699 60102 10265 20159 39138 49964 53006 82101 333 10294;EQDQ01  00002PRCP99
0112309350999992000070121004+50360+108750FM-12+077099999V0209999C000010300019N0500001N1+01521+01411100081ADDGF108991031051012501041011MD1410001+9999REMSYN060AAXX  01211 30935 42699 80000 10152 20141 40008 54000 83541;
0188309350999992000070200004+50360+108750FM-12+077099999V0203101N001010300019N0500001N1+01641+01411100141ADDAA112000791AY181061AY211061GF108991031091012501041011MA1999999091561MD1310091+9999MW1801REMSYN088AAXX  02001 30935 11699 83101 10164 20141 39156 40014 53009 69902 78081 83941 333 55128;
0112309350999992000070203004+50360+108750FM-12+077099999V0202901N001012200019N0500001N1+02051+01191100081ADDGF103991021021012501041011MD1210051+9999REMSYN060AAXX  02031 30935 42699 32901 10205 20119 40008 52005 82241;
0140309350999992000070206004+50360+108750FM-12+077099999V0203301N003010750019N0500001N1+02471+01301099871ADDAY181061AY211061GF105991021021012501041021MD1810071+9999MW1031REMSYN066AAXX  02061 30935 41699 53303 10247 20130 49987 58007 70381 82242;
0112309350999992000070221004+50360+108750FM-12+077099999V0203201N003019999999N0500001N1+01441+00821100831ADDGF107991071001999999041001MD1210111+9999REMSYN060AAXX  02211 30935 42999 73203 10144 20082 40083 52011 87040;
0233309350999992000070300004+50360+108750FM-12+077099999V0202501N003010300019N0500001N1+01491+00841101031ADDAA199000091GF107991021051012501071999GJ103849IA1019IA2999+01409MA1999999092311MD1210141+9999REMSYN110AAXX  03001 30935 32699 72503 10149 20084 39231 40103 52014 8257/ 333 55064 555 10018 30014 50194 53007 7996/;EQDQ01  00002PRCP99
0112309350999992000070306004+50360+108750FM-12+077099999V0201401N003012200019N0500001N1+02151+00881100881ADDGF106991041021012501001011MD1410001+9999REMSYN060AAXX  03061 30935 42699 61403 10215 20088 40088 54000 84201;
0186309350999992000070312004+50360+108750FM-12+077099999V0203301N001012200019N0500001N1+02151+00841100911ADDAA199000091GF101991011021012501001001KA1999M+02291MA1999999092391MD1310031+9999REMSYN076AAXX  03121 30935 32699 13301 10215 20084 39239 40091 53003 81200 333 10229;EQDQ01  00002PRCP99
0122309350999992000070315004+50360+108750FM-12+077099999V0203501N002012200019N0500001N1+01481+00861101261ADDGA1001+999999999GF100991001001999999001001MD1210131+9999REMSYN054AAXX  03151 30935 42999 03502 10148 20086 40126 52013;
0233309350999992000070400004+50360+108750FM-12+077099999V0200801N002012200019N0500001N1+01121+00741101871ADDAA199000091GF102991021001999999041001GJ106309IA1019IA2999+00609MA1999999092961MD1210161+9999REMSYN110AAXX  04001 30935 32999 20802 10112 20074 39296 40187 52016 82040 333 55105 555 10017 30006 50184 53006 7000/;EQDQ01  00002PRCP99
0112309350999992000070403004+50360+108750FM-12+077099999V0201501N001012200019N0500001N1+01891+00971101491ADDGF103991021001999999041011MD1810111+9999REMSYN060AAXX  04031 30935 42999 31501 10189 20097 40149 58011 82041;
0112309350999992000070406004+50360+108750FM-12+077099999V0202101N002019999999N0500001N1+02431+00901101151ADDGF108991021011999999041011MD1710161+9999REMSYN060AAXX  04061 30935 42999 82102 10243 20090 40115 57016 82141;
0112309350999992000070409004+50360+108750FM-12+077099999V0200601N003010300019N0500001N1+02751+00851100851ADDGF108991021011012501041011MD1710191+9999REMSYN060AAXX  04091 30935 42699 80603 10275 20085 40085 57019 82141;
0186309350999992000070412004+50360+108750FM-12+077099999V0202301N002010300019N0500001N1+02581+00991100801ADDAA199000091GF108991021011012501031011KA1999M+02771MA1999999092411MD1710091+9999REMSYN076AAXX  04121 30935 32699 82302 10258 20099 39241 40080 57009 82131 333 10277;EQDQ01  00002PRCP99
0173309350999992000070500004+50360+108750FM-12+077099999V0203301N002010300019N0500001N1+01681+01091101231ADDAA199000091GF107991011051012501041011MA1999999092551MD1210051+9999REMSYN076AAXX  05001 30935 32699 73302 10168 20109 39255 40123 52005 81541 333 55138;EQDQ01  00002PRCP99
0112309350999992000070506004+50360+108750FM-12+077099999V0202701N002010120019N0500001N1+02831+01201100811ADDGF107991051091012501041011MD1710031+9999REMSYN060AAXX  05061 30935 42699 72702 10283 20120 40081 57003 85941;
0112309350999992000070509004+50360+108750FM-12+077099999V0202801N002010300019N0500001N1+02621+01301100901ADDGF107991031061012501041001MD1310031+9999REMSYN060AAXX  05091 30935 42699 72802 10262 20130 40090 53003 83640;
0186309350999992000070512004+50360+108750FM-12+077099999V0200301N001010120019N0500001N1+02331+01661101021ADDAA199000091GF107991051051012501041001KA1999M+03011MA1999999092561MD1210041+9999REMSYN076AAXX  05121 30935 32699 70301 10233 20166 39256 40102 52004 85540 333 10301;EQDQ01  00002PRCP99
0112309350999992000070515004+50360+108750FM-12+077099999V0203401N001010120019N0500001N1+02031+01611101101ADDGF107991051091012501041001MD1810011+9999REMSYN060AAXX  05151 30935 42699 73401 10203 20161 40110 58001 85940;
0140309350999992000070609004+50360+108750FM-12+077099999V0200701N002010120019N0500001N1+01981+01841100571ADDAY191031AY281031GF107991061091012501041011MD1310061+9999MW1951REMSYN066AAXX  06091 30935 41699 70702 10198 20184 40057 53006 79598 86941;
0236309350999992000070612004+50360+108750FM-12+077099999V0201401N002010075019N0100001N1+01891+01741999999ADDAA112014091AY191061AY281061GF108991051071008001021999KA1999M+02581MA1999999092091MD1210031+9999MW1801REMSYN088AAXX  06121 30935 11597 81402 10189 20174 39209 40563 52003 60142 78098 8572/ 333 10258;EQDQ01+105633APOSLPQ02 105633APOSLP
0140309350999992000070621004+50360+108750FM-12+077099999V0200901N001010300019N0100001N1+01761+01641100011ADDAY161031AY221031GF108991031071008001021999MD1710251+9999MW1601REMSYN066AAXX  06211 30935 41597 80901 10176 20164 40001 57025 76062 8372/;
0201309350999992000070712004+50360+108750FM-12+077099999V0200601N001012200019N0500001N1+01911+01521100171ADDAA112023991AY181061AY221061GF102991011021012501031011KA1999M+02041MA1999999091661MD1410001+9999MW1011REMSYN088AAXX  07121 30935 11699 20601 10191 20152 39166 40017 54000 60242 70182 81231 333 10204;
0150309350999992000070721004+50360+108750FM-12+077099999V0201501N001010003019N0005001N1+01421+01341100381ADDAY141031AY201031GA1091+999999999GF109991091999999999999999MD1310051+9999MW1471REMSYN060AAXX  07211 30935 41/93 91501 10142 20134 40038 53005 74740;
0211309350999992000070800004+50360+108750FM-12+077099999V0201901N001010003019N0005001N1+01491+01421100451ADDAA199000091AY141061AY201061GA1091+999999999GF109991091999999999999999MA1999999091801MD1210091+9999MW1451REMSYN076AAXX  08001 30935 31/93 91901 10149 20142 39180 40045 52009 74540 333 55029;EQDQ01  00002PRCP99
0140309350999992000070803004+50360+108750FM-12+077099999V0202201N002010300019N0500001N1+01821+01501100341ADDAY141031AY211031GF108991041011012501041011MD1410001+9999MW1031REMSYN066AAXX  08031 30935 41699 82202 10182 20150 40034 54000 70341 84141;
0173309350999992000070812004+50360+108750FM-12+077099999V0201401N002012200019N0500001N1+02471+01361100021ADDAA112002091GF102991011011012501041001KA1999M+02491MA1999999091681MD1710021+9999REMSYN082AAXX  08121 30935 12699 21402 10247 20136 39168 40002 57002 60022 81140 333 10249;
0261309350999992000070900004+50360+108750FM-12+077099999V0209999C000010300019N0040001N1+01411+01321100591ADDAA199000091AY141061AY221061GF107991041061008001041001GJ105289IA1099IA2999+01109MA1999999091901MD1210161+9999MW1101REMSYN116AAXX  09001 30935 31596 70000 10141 20132 39190 40059 52016 71042 84640 333 55088 555 11019 31011 50183 53007 7002/;EQDQ01  00002PRCP99
0186309350999992000070912004+50360+108750FM-12+077099999V0203301N002012200019N0500001N1+02491+01641100101ADDAA199000091GF102991011011012501001011KA1999M+02661MA1999999091761MD1310041+9999REMSYN076AAXX  09121 30935 32699 23302 10249 20164 39176 40010 53004 81101 333 10266;EQDQ01  00002PRCP99
0112309350999992000070918004+50360+108750FM-12+077099999V0209999C000012200019N0500001N1+01481+01331100471ADDGF102991001001999999001011MD1410001+9999REMSYN060AAXX  09181 30935 42999 20000 10148 20133 40047 54000 80001;
0112309350999992000070921004+50360+108750FM-12+077099999V0209999C000012200019N0500001N1+01361+01231100651ADDGF108991021011012501001011MD1310131+9999REMSYN060AAXX  09211 30935 42699 80000 10136 20123 40065 53013 82101;
0188309350999992000071000004+50360+108750FM-12+077099999V0201101N001010120019N0100001N1+01461+01311100871ADDAA112003091AY181061AY211061GF108991061091012501031999MA1999999092171MD1210231+9999MW1811REMSYN088AAXX  10001 30935 11697 81101 10146 20131 39217 40087 52023 60032 78181 8693/ 333 55109;
0140309350999992000071003004+50360+108750FM-12+077099999V0202301N001010120019N0500001N1+01631+01461100841ADDAY181031AY211031GF107991051091012501041011MD1210031+9999MW1251REMSYN066AAXX  10031 30935 41699 72301 10163 20146 40084 52003 72581 85941;
0173309350999992000071012004+50360+108750FM-12+077099999V0203101N002012200019N0500001N1+02071+01131100891ADDAA112008991GF101991011011012501001001KA1999M+02181MA1999999092351MD1210071+9999REMSYN082AAXX  10121 30935 12699 13102 10207 20113 39235 40089 52007 60092 81100 333 10218;
0122309350999992000071018004+50360+108750FM-12+077099999V0203201N001012200019N0500001N1+00901+00811101081ADDGA1001+999999999GF100991001001999999001001MD1210011+9999REMSYN054AAXX  10181 30935 42999 03201 10090 20081 40108 52001;
0166309350999992000071021004+50360+108750FM-12+077099999V0203501N001010060019N0020001N1+01121+01061101331ADDAY111031AY211031GA1081+006009059GF108991081061004501999999MD1210091+9999MW1101REMSYN076AAXX  10211 30935 41495 83501 10112 20106 40133 52009 71011 886// 333 88620;
0211309350999992000071100004+50360+108750FM-12+077099999V0202301N001010003019N0005001N1+01141+01041101321ADDAA199000091AY141061AY221061GA1091+999999999GF109991091999999999999999MA1999999092481MD1410001+9999MW1471REMSYN076AAXX  11001 30935 31/93 92301 10114 20104 39248 40132 54000 74742 333 55061;EQDQ01  00002PRCP99
0201309350999992000071112004+50360+108750FM-12+077099999V0202301N001012200019N0500001N1+02171+01151100671ADDAA112000591AY161061AY241061GF103991021001999999031011KA1999M+02261MA1999999092181MD1410001+9999MW1011REMSYN088AAXX  11121 30935 11999 32301 10217 20115 39218 40067 54000 69942 70164 82031 333 10226;
0150309350999992000071121004+50360+108750FM-12+077099999V0209999C000010003019N0005001N1+01171+01071101001ADDAY141031AY201031GA1091+999999999GF109991091999999999999999MD1410001+9999MW1471REMSYN060AAXX  11211 30935 41/93 90000 10117 20107 40100 54000 74740;
0150309350999992000071203004+50360+108750FM-12+077099999V0200201N001010003019N0005001N1+01411+01211100851ADDAY141031AY241031GA1091+999999999GF109991091999999999999999MD1710041+9999MW1431REMSYN060AAXX  12031 30935 41/93 90201 10141 20121 40085 57004 74344;
0140309350999992000071206004+50360+108750FM-12+077099999V0202501N001010300019N0500001N1+01681+01401100601ADDAY141061AY221061GF107991021011012501041011MD1710151+9999MW1031REMSYN066AAXX  12061 30935 41699 72501 10168 20140 40060 57015 70342 82141;
0140309350999992000071221004+50360+108750FM-12+077099999V0200601N001010120019N0500001N1+01401+01271100051ADDAY161031AY221031GF108991061051012501031999MD1710161+9999MW1031REMSYN066AAXX  12211 30935 41699 80601 10140 20127 40005 57016 70362 8653/;
0140309350999992000071306004+50360+108750FM-12+077099999V0200801N001010300019N0500001N1+02361+01351099751ADDAY181061AY211061GF107991031091012501041021MD1810031+9999MW1031REMSYN066AAXX  13061 30935 41699 70801 10236 20135 49975 58003 70381 83942;
0173309350999992000071312004+50360+108750FM-12+077099999V0201801N001012200019N0500001N1+02271+01671099751ADDAA112000791GF106991031091012501001011KA1999M+02611MA1999999091391MD1310021+9999REMSYN082AAXX  13121 30935 12699 61801 10227 20167 39139 49975 53002 69902 83901 333 10261;
0150309350999992000071321004+50360+108750FM-12+077099999V0203201N001010003019N0005001N1+01481+01411100211ADDAY141031AY211031GA1091+999999999GF109991091999999999999999MD1210041+9999MW1471REMSYN060AAXX  13211 30935 41/93 93201 10148 20141 40021 52004 74741;
0140309350999992000071403004+50360+108750FM-12+077099999V0200501N001010300019N0500001N1+01891+01601100161ADDAY141031AY221031GF106991021011012501031011MD1810011+9999MW1031REMSYN066AAXX  14031 30935 41699 60501 10189 20160 40016 58001 70342 82131;
0112309350999992000071415004+50360+108750FM-12+077099999V0203201N001010300019N0500001N1+02031+01651099791ADDGF107991021011012501041001MD1310031+9999REMSYN060AAXX  14151 30935 42699 73201 10203 20165 49979 53003 82140;
0131309350999992000071418004+50360+108750FM-12+077099999V0209999C000019999999N0500001N1+01801+01681099861ADDGF108991999001999999061001MD1210061+9999REMSYN060AAXX  14181 30935 42999 80000 10180 20168 49986 52006 84060;EQDQ01+000042SCOTLC
0140309350999992000071421004+50360+108750FM-12+077099999V0202701N002010120019N0100001N1+01751+01441100101ADDAY191031AY281031GF108991061091012501061001MD1210111+9999MW1951REMSYN066AAXX  14211 30935 41697 82702 10175 20144 40010 52011 79598 86960;
0140309350999992000071509004+50360+108750FM-12+077099999V0202101N023010120019N0500001N1+02411+01431099741ADDAY191031AY281031GF108991061091012501061999MD1710061+9999MW1951REMSYN066AAXX  15091 30935 41699 82123 10241 20143 49974 57006 79598 8696/;
0140309350999992000071603004+50360+108750FM-12+077099999V0201001N001010300019N0500001N1+01861+01491100631ADDAY141031AY221031GF107991041091012501041011MD1410001+9999MW1031REMSYN066AAXX  16031 30935 41699 71001 10186 20149 40063 54000 70342 84941;
0140309350999992000071606004+50360+108750FM-12+077099999V0201701N002010300019N0500001N1+02191+01421100531ADDAY141061AY221061GF107991031091012501041011MD1410001+9999MW1011REMSYN066AAXX  16061 30935 41699 71702 10219 20142 40053 54000 70142 83941;
0186309350999992000071612004+50360+108750FM-12+077099999V0201501N001010120019N0500001N1+02131+01701100351ADDAA199000091GF108991061051012501041999KA1999M+02341MA1999999091891MD1710121+9999REMSYN076AAXX  16121 30935 32699 81501 10213 20170 39189 40035 57012 8654/ 333 10234;EQDQ01  00002PRCP99
0112309350999992000071615004+50360+108750FM-12+077099999V0201701N002010120019N0500001N1+01881+01641100421ADDGF108991051051012501041999MD1410001+9999REMSYN060AAXX  16151 30935 42699 81702 10188 20164 40042 54000 8554/;
0140309350999992000071621004+50360+108750FM-12+077099999V0201001N001010300019N0100001N1+01651+01551100571ADDAY181031AY261031GF108991041071008001021999MD1310141+9999MW1631REMSYN066AAXX  16211 30935 41597 81001 10165 20155 40057 53014 76386 8472/;
0188309350999992000071700004+50360+108750FM-12+077099999V0200601N003010300019N0500001N1+01681+01581100421ADDAA112011991AY161061AY281061GF107991031051008001031021MA1999999091831MD1810031+9999MW1011REMSYN088AAXX  17001 30935 11599 70603 10168 20158 39183 40042 58003 60122 70168 83532 333 55042;
0112309350999992000071703004+50360+108750FM-12+077099999V0200601N002010750019N0500001N1+02081+01641100231ADDGF107991031091012501001021MD1710061+9999REMSYN060AAXX  17031 30935 42699 70602 10208 20164 40023 57006 83902;
0112309350999992000071706004+50360+108750FM-12+077099999V0201401N002010300019N0500001N1+02451+01801099931ADDGF106991021091012501041001MD1710251+9999REMSYN060AAXX  17061 30935 42699 61402 10245 20180 49993 57025 82940;
0211309350999992000071800004+50360+108750FM-12+077099999V0201201N001010003019N0005001N1+01671+01531100681ADDAA199000091AY141061AY211061GA1091+999999999GF109991091999999999999999MA1999999092061MD1210141+9999MW1471REMSYN076AAXX  18001 30935 31/93 91201 10167 20153 39206 40068 52014 74741 333 55105;EQDQ01  00002PRCP99
0140309350999992000071803004+50360+108750FM-12+077099999V0202901N001010300019N0500001N1+02101+01711100481ADDAY141031AY221031GF106991021011012501031011MD1810051+9999MW1281REMSYN066AAXX  18031 30935 41699 62901 10210 20171 40048 58005 72842 82131;
0140309350999992000071806004+50360+108750FM-12+077099999V0201401N002010300019N0500001N1+02581+01511100221ADDAY141061AY221061GF106991031011012501031011MD1710121+9999MW1011REMSYN066AAXX  18061 30935 41699 61402 10258 20151 40022 57012 70142 83131;
0165309350999992000071812004+50360+108750FM-12+077099999V0201901N001010300019N0500001N1+02341+01871099921ADDAA199000091GF107991011021012501031001KA1999M+02681MD1310181+9999REMSYN070AAXX  18121 30935 32699 71901 10234 20187 49992 53018 81230 333 10268;EQDQ01  00002PRCP99
0112309350999992000071818004+50360+108750FM-12+077099999V0209999C000019999999N0500001N1+01831+01591099991ADDGF108991081001999999071999MD1710041+9999REMSYN060AAXX  18181 30935 42999 80000 10183 20159 49999 57004 8807/;
0131309350999992000071821004+50360+108750FM-12+077099999V0209999C000010300019N0500001N1+01831+01661999999ADDGF108991031051012501071999MD1710111+9999REMSYN060AAXX  18211 30935 42699 80000 10183 20166 40087 57011 8357/;EQDQ01+100873APOSLP
0140309350999992000071903004+50360+108750FM-12+077099999V0202101N002010300019N0100001N1+01771+01641100071ADDAY161031AY221031GF108991031071008001021999MD1210161+9999MW1631REMSYN066AAXX  19031 30935 41597 82102 10177 20164 40007 52016 76362 8372/;
0140309350999992000071906004+50360+108750FM-12+077099999V0201701N003010120019N0500001N1+01821+01381100121ADDAY161061AY221061GF108991061051012501041001MD1210051+9999MW1031REMSYN066AAXX  19061 30935 41699 81703 10182 20138 40012 52005 70362 86540;
0112309350999992000071909004+50360+108750FM-12+077099999V0201401N002010120019N0500001N1+01801+01341100171ADDGF107991061051012501031001MD1210041+9999REMSYN060AAXX  19091 30935 42699 71402 10180 20134 40017 52004 86530;
0173309350999992000071912004+50360+108750FM-12+077099999V0202801N001010120019N0500001N1+01711+01261100341ADDAA112014091GF108991061051012501041001KA1999M+01831MA1999999091751MD1210121+9999REMSYN082AAXX  19121 30935 32699 82801 10171 20126 39175 40034 52012 60142 86540 333 10183;
0092309350999992000071921004+50360+108750FM-12+077099999V0202801N002019999999N0500001N1+01381+01131100541ADDGF106991041001999999041011REMSYN054AAXX  19211 30935 42999 62802 10138 20113 40054 84041;
0191309350999992000072000004+50360+108750FM-12+077099999V0202501N003010300019N0500001N1+01491+01231100501ADDAA199000091GF106991041021012501041011IA1169IA2999+04409MA1999999091841MD1210011+9999REMSYN076AAXX  20001 30935 32699 62503 10149 20123 39184 40050 52001 84241 333 35044;EQDQ01  00002PRCP99
0140309350999992000072006004+50360+108750FM-12+077099999V0202701N006010120019N0500001N1+01651+01151100501ADDAY181061AY221061GF108991061091012501001011MD1310041+9999MW1031REMSYN066AAXX  20061 30935 41699 82706 10165 20115 40050 53004 70382 86901;
0173309350999992000072012004+50360+108750FM-12+077099999V0200701N005010120019N0500001N1+01531+00951100791ADDAA112002091GF107991061091012501001011KA1999M+01811MA1999999092111MD1210091+9999REMSYN082AAXX  20121 30935 12699 70705 10153 20095 39211 40079 52009 60022 86901 333 10181;
0112309350999992000072021004+50360+108750FM-12+077099999V0202601N003010300019N0500001N1+01161+00881101071ADDGF106991041051012501041001MD1410001+9999REMSYN060AAXX  20211 30935 42699 62603 10116 20088 40107 54000 84540;
0173309350999992000072100004+50360+108750FM-12+077099999V0202401N002010300019N0500001N1+01441+00951101181ADDAA199000091GF107991041041012501041001MA1999999092441MD1310191+9999REMSYN076AAXX  21001 30935 32699 72402 10144 20095 39244 40118 53019 84440 333 55018;EQDQ01  00002PRCP99
0112309350999992000072103004+50360+108750FM-12+077099999V0202601N004010300019N0500001N1+01881+01031100921ADDGF105991041011012501041001MD1810111+9999REMSYN060AAXX  21031 30935 42699 52604 10188 20103 40092 58011 84140;
0112309350999992000072106004+50360+108750FM-12+077099999V0202801N005012200019N0500001N1+02161+01101100781ADDGF103991031011012501001001MD1710061+9999REMSYN060AAXX  21061 30935 42699 32805 10216 20110 40078 57006 83100;
0186309350999992000072112004+50360+108750FM-12+077099999V0202901N003012200019N0500001N1+02171+01021100741ADDAA199000091GF104991031011012501001011KA1999M+02341MA1999999092241MD1310051+9999REMSYN076AAXX  21121 30935 32699 42903 10217 20102 39224 40074 53005 83101 333 10234;EQDQ01  00002PRCP99
0177309350999992000072200004+50360+108750FM-12+077099999V0201801N002012200019N0500001N1+01521+01131999999ADDAA199000091GA1001+999999999GF100991001001999999001001MA1999999092481MD1210051+9999REMSYN064AAXX  22001 30935 32999 01802 10152 20113 39248 52005 333 55118;EQDQ01  00002PRCP99
0142309350999992000072203004+50360+108750FM-12+077099999V0202901N003010300019N0500001N1+02111+01171100961ADDAA199000091GF106991021011012501041011MD1810051+9999REMSYN060AAXX  22031 30935 32699 62903 10211 20117 40096 58005 82141;EQDQ01  00002PRCP99
0122309350999992000072221004+50360+108750FM-12+077099999V0202901N001012200019N0500001N1+00941+00771101111ADDGA1001+999999999GF100991001001999999001001MD1710021+9999REMSYN054AAXX  22211 30935 42999 02901 10094 20077 40111 57002;
0112309350999992000072303004+50360+108750FM-12+077099999V0202801N002010120019N0500001N1+02071+01061100691ADDGF105991051021012501001001MD1810091+9999REMSYN060AAXX  23031 30935 42699 52802 10207 20106 40069 58009 85200;
0112309350999992000072306004+50360+108750FM-12+077099999V0203001N002010120019N0500001N1+02191+00991100571ADDGF106991051021012501001011MD1710081+9999REMSYN060AAXX  23061 30935 42699 63002 10219 20099 40057 57008 85201;
0186309350999992000072312004+50360+108750FM-12+077099999V0203201N002012200019N0500001N1+02151+00971100331ADDAA199000091GF101991011011012501001001KA1999M+02441MA1999999091861MD1710061+9999REMSYN076AAXX  23121 30935 32699 13202 10215 20097 39186 40033 57006 81100 333 10244;EQDQ01  00002PRCP99
0112309350999992000072318004+50360+108750FM-12+077099999V0201501N001012200019N0500001N1+01001+00921100681ADDGF103991001001999999001011MD1310011+9999REMSYN060AAXX  23181 30935 42999 31501 10100 20092 40068 53001 80001;
0112309350999992000072321004+50360+108750FM-12+077099999V0202901N001019999999N0500001N1+00801+00711100801ADDGF105991031001999999041011MD1210031+9999REMSYN060AAXX  23211 30935 42999 52901 10080 20071 40080 52003 83041;
0112309350999992000072403004+50360+108750FM-12+077099999V0200401N001010120019N0500001N1+01421+01101100681ADDGF108991051041012501071999MD1410001+9999REMSYN060AAXX  24031 30935 42699 80401 10142 20110 40068 54000 8547/;
0112309350999992000072406004+50360+108750FM-12+077099999V0201801N001010120019N0500001N1+01811+01291100451ADDGF107991061021012501041011MD1810091+9999REMSYN060AAXX  24061 30935 42699 71801 10181 20129 40045 58009 86241;
0112309350999992000072421004+50360+108750FM-12+077099999V0209999C000010075019N0500001N1+01191+01101100581ADDGF108991081061008001999999MD1410001+9999REMSYN060AAXX  24211 30935 42599 80000 10119 20110 40058 54000 886//;
0211309350999992000072500004+50360+108750FM-12+077099999V0200201N001010003019N0005001N1+01271+01181100651ADDAA199000091AY141061AY221061GA1091+999999999GF109991091999999999999999MA1999999091911MD1310081+9999MW1451REMSYN076AAXX  25001 30935 31/93 90201 10127 20118 39191 40065 53008 74542 333 55052;EQDQ01  00002PRCP99
0140309350999992000072503004+50360+108750FM-12+077099999V0209999C000010300019N0500001N1+01551+01291100511ADDAY141031AY221031GF108991031051012501041021MD1810041+9999MW1011REMSYN066AAXX  25031 30935 41699 80000 10155 20129 40051 58004 70142 83542;
0140309350999992000072506004+50360+108750FM-12+077099999V0200301N001010300019N0500001N1+01981+01491100351ADDAY141061AY221061GF108991031091012501041021MD1710021+9999MW1021REMSYN066AAXX  25061 30935 41699 80301 10198 20149 40035 57002 70242 83942;
0112309350999992000072509004+50360+108750FM-12+077099999V0201801N001010300019N0500001N1+02181+01391100131ADDGF107991011011012501041021MD1710151+9999REMSYN060AAXX  25091 30935 42699 71801 10218 20139 40013 57015 81142;
0186309350999992000072512004+50360+108750FM-12+077099999V0203201N001012200019N0500001N1+02191+01481100061ADDAA199000091GF105991021011012501001011KA1999M+02311MA1999999091641MD1710061+9999REMSYN076AAXX  25121 30935 32699 53201 10219 20148 39164 40006 57006 82101 333 10231;EQDQ01  00002PRCP99
0112309350999992000072521004+50360+108750FM-12+077099999V0209999C000010120019N0500001N1+01341+01261100351ADDGF106991051051012501001011MD1310061+9999REMSYN060AAXX  25211 30935 42699 60000 10134 20126 40035 53006 85501;
0173309350999992000072600004+50360+108750FM-12+077099999V0201801N002010120019N0500001N1+01591+01431100331ADDAA199000091GF107991061091012501031011MA1999999091721MD1210061+9999REMSYN076AAXX  26001 30935 32699 71802 10159 20143 39172 40033 52006 86931 333 55031;EQDQ01  00002PRCP99
0112309350999992000072615004+50360+108750FM-12+077099999V0200201N001019999999N0500001N1+01801+01221099721ADDGF108991081001999999071999MD1710171+9999REMSYN060AAXX  26151 30935 42999 80201 10180 20122 49972 57017 8807/;
0188309350999992000072700004+50360+108750FM-12+077099999V0202601N002010300019N0100001N1+01291+01021099941ADDAA112022191AY161061AY261061GF108991031071012501021999MA1999999091261MD1310171+9999MW1631REMSYN088AAXX  27001 30935 11697 82602 10129 20102 39126 49994 53017 60222 76366 8372/ 333 55114;
0140309350999992000072703004+50360+108750FM-12+077099999V0202901N002010120019N0500001N1+01351+00881100141ADDAY161031AY261031GF107991061051012501041001MD1210191+9999MW1011REMSYN066AAXX  27031 30935 41699 72902 10135 20088 40014 52019 70166 86540;
0140309350999992000072706004+50360+108750FM-12+077099999V0203101N005010300019N0100001N1+01341+00991100201ADDAY161061AY261061GF108991031071012501021999MD1210061+9999MW1621REMSYN066AAXX  27061 30935 41697 83105 10134 20099 40020 52006 76266 8372/;
0201309350999992000072712004+50360+108750FM-12+077099999V0202201N003010300019N0500001N1+01351+00881100371ADDAA112004191AY161061AY261061GF107991031091012501041021KA1999M+01761MA1999999091661MD1210101+9999MW1011REMSYN088AAXX  27121 30935 11699 72203 10135 20088 39166 40037 52010 60042 70166 83942 333 10176;
0112309350999992000072718004+50360+108750FM-12+077099999V0202601N001010300019N0500001N1+01171+00671100551ADDGF106991031051012501041011MD1210021+9999REMSYN060AAXX  27181 30935 42699 62601 10117 20067 40055 52002 83541;
0112309350999992000072721004+50360+108750FM-12+077099999V0202701N004010120019N0500001N1+01181+00621100541ADDGF108991051051012501041001MD1810011+9999REMSYN060AAXX  27211 30935 42699 82704 10118 20062 40054 58001 85540;
0173309350999992000072800004+50360+108750FM-12+077099999V0202801N005010120019N0500001N1+01241+00681100521ADDAA199000091GF108991061051012501071999MA1999999091771MD1410001+9999REMSYN076AAXX  28001 30935 32699 82805 10124 20068 39177 40052 54000 8657/ 333 55027;EQDQ01  00002PRCP99
0140309350999992000072821004+50360+108750FM-12+077099999V0202101N001010120019N0500001N1+01281+01051100961ADDAY161031AY221031GF108991061051012501041001MD1210061+9999MW1031REMSYN066AAXX  28211 30935 41699 82101 10128 20105 40096 52006 70362 86540;
0248309350999992000072900004+50360+108750FM-12+077099999V0202901N002010120019N0500001N1+01491+00991100991ADDAA112004191AY161061AY221061GF108991051051012501041021GJ100009IA1119IA2999+01109MA1999999092281MD1210091+9999MW1011REMSYN122AAXX  29001 30935 11699 82902 10149 20099 39228 40099 52009 60042 70162 85542 333 55000 555 12017 32011 50125 53008 7006/;
0112309350999992000072915004+50360+108750FM-12+077099999V0202801N001012200019N0500001N1+01371+01121100971ADDGF102991021001999999041011MD1410001+9999REMSYN060AAXX  29151 30935 42999 22801 10137 20112 40097 54000 82041;
0112309350999992000072921004+50360+108750FM-12+077099999V0209999C000012200019N0500001N1+01071+00951101051ADDGF102991001001999999001011MD1810031+9999REMSYN060AAXX  29211 30935 42999 20000 10107 20095 40105 58003 80001;
0211309350999992000073000004+50360+108750FM-12+077099999V0200501N001010003019N0005001N1+01021+00901101021ADDAA199000091AY141061AY201061GA1091+999999999GF109991091999999999999999MA1999999092161MD1710051+9999MW1451REMSYN076AAXX  30001 30935 31/93 90501 10102 20090 39216 40102 57005 74540 333 55029;EQDQ01  00002PRCP99
0140309350999992000073003004+50360+108750FM-12+077099999V0201601N002010300019N0500001N1+01841+01131100671ADDAY141031AY211031GF107991041091012501041011MD1710071+9999MW1031REMSYN066AAXX  30031 30935 41699 71602 10184 20113 40067 57007 70341 84941;
0140309350999992000073006004+50360+108750FM-12+077099999V0201701N002010120019N0500001N1+02021+01461100531ADDAY181061AY241061GF106991051091012501001011MD1710061+9999MW1011REMSYN066AAXX  30061 30935 41699 61702 10202 20146 40053 57006 70184 85901;
0201309350999992000073012004+50360+108750FM-12+077099999V0200101N001012200019N0500001N1+01671+01421100551ADDAA112014091AY191061AY281061GF106991031091012501001011KA1999M+02021MA1999999091941MD1410001+9999MW1011REMSYN088AAXX  30121 30935 11699 60101 10167 20142 39194 40055 54000 60142 70198 83901 333 10202;
0112309350999992000073021004+50360+108750FM-12+077099999V0209999C000010300019N0500001N1+01261+01201100801ADDGF106991021041012501041001MD1210011+9999REMSYN060AAXX  30211 30935 42699 60000 10126 20120 40080 52001 82440;
0188309350999992000073100004+50360+108750FM-12+077099999V0209999C000010300019N0500001N1+01321+01251100881ADDAA112000591AY141061AY221061GF106991031021012501041011MA1999999092141MD1210091+9999MW1281REMSYN088AAXX  31001 30935 11699 60000 10132 20125 39214 40088 52009 69942 72842 83241 333 55075;
0186309350999992000073112004+50360+108750FM-12+077099999V0203401N002012200019N0500001N1+02051+01091100521ADDAA199000091GF102991011001999999041011KA1999M+02321MA1999999092011MD1310051+9999REMSYN076AAXX  31121 30935 32999 23402 10205 20109 39201 40052 53005 81041 333 10232;EQDQ01  00002PRCP99
0140309350999992000080121004+50360+108750FM-12+077099999V0200501N002010120019N0500001N1+01481+01351100641ADDAY181031AY221031GF108991051091012501071999MD1710121+9999MW1011REMSYN066AAXX  01211 30935 41699 80502 10148 20135 40064 57012 70182 8597/;
0140309350999992000080203004+50360+108750FM-12+077099999V0200601N002010300019N0500001N1+01671+01391100601ADDAY161031AY221031GF107991021041012501041021MD1310021+9999MW1011REMSYN066AAXX  02031 30935 41699 70602 10167 20139 40060 53002 70162 82442;
0112309350999992000080209004+50360+108750FM-12+077099999V0200601N002010300019N0500001N1+02481+01441100231ADDGF106991021091012501031021MD1810111+9999REMSYN060AAXX  02091 30935 42699 60602 10248 20144 40023 58011 82932;
0173309350999992000080212004+50360+108750FM-12+077099999V0209999C000012200019N0500001N1+02381+01661100181ADDAA112000391GF107991031091012501001011KA1999M+02511MA1999999091811MD1710061+9999REMSYN082AAXX  02121 30935 12699 70000 10238 20166 39181 40018 57006 69932 83901 333 10251;
0112309350999992000080218004+50360+108750FM-12+077099999V0202401N002012200019N0500001N1+01661+01281100611ADDGF102991021001999999041001MD1210101+9999REMSYN060AAXX  02181 30935 42999 22402 10166 20128 40061 52010 82040;
0112309350999992000080221004+50360+108750FM-12+077099999V0209999C000010120019N0500001N1+01401+01271100721ADDGF107991051051012501031001MD1210031+9999REMSYN060AAXX  02211 30935 42699 70000 10140 20127 40072 52003 85530;
0173309350999992000080300004+50360+108750FM-12+077099999V0203101N001010120019N0500001N1+01471+01301100801ADDAA199000091GF107991051051012501031001MA1999999092111MD1210091+9999REMSYN076AAXX  03001 30935 32699 73101 10147 20130 39211 40080 52009 85530 333 55038;EQDQ01  00002PRCP99
0201309350999992000080312004+50360+108750FM-12+077099999V0202901N002010300019N0500001N1+01931+01561100591ADDAA112000391AY181061AY211061GF108991021021012501041021KA1999M+02541MA1999999092061MD1310081+9999MW1011REMSYN088AAXX  03121 30935 11699 82902 10193 20156 39206 40059 53008 69932 70181 82242 333 10254;
0112309350999992000080318004+50360+108750FM-12+077099999V0209999C000010300019N0500001N1+01471+01361100871ADDGF106991021051012501041021MD1210021+9999REMSYN060AAXX  03181 30935 42699 60000 10147 20136 40087 52002 82542;
0112309350999992000080321004+50360+108750FM-12+077099999V0209999C000010300019N0500001N1+01301+01191100991ADDGF106991031051012501041001MD1210071+9999REMSYN060AAXX  03211 30935 42699 60000 10130 20119 40099 52007 83540;
0201309350999992000080400004+50360+108750FM-12+077099999V0209999C000010075019N0040001N1+01471+01401101031ADDAA199000091AY121061AY221061GF108991081061008001999999MA1999999092321MD1210081+9999MW1401REMSYN082AAXX  04001 30935 31596 80000 10147 20140 39232 40103 52008 74022 886// 333 55076;EQDQ01  00002PRCP99
0112309350999992000080406004+50360+108750FM-12+077099999V0201301N002010300019N0500001N1+02271+01511100731ADDGF106991021091012501031011MD1810111+9999REMSYN060AAXX  04061 30935 42699 61302 10227 20151 40073 58011 82931;
0186309350999992000080412004+50360+108750FM-12+077099999V0200501N001019999999N0500001N1+02371+01581100601ADDAA199000091GF107991051001999999031021KA1999M+02721MA1999999092191MD1710031+9999REMSYN076AAXX  04121 30935 32999 70501 10237 20158 39219 40060 57003 85032 333 10272;EQDQ01  00002PRCP99
0112309350999992000080503004+50360+108750FM-12+077099999V0201101N002010300019N0500001N1+02051+01551100881ADDGF107991041051012501041011MD1410001+9999REMSYN060AAXX  05031 30935 42699 71102 10205 20155 40088 54000 84541;
0112309350999992000080506004+50360+108750FM-12+077099999V0200901N002012200019N0500001N1+02521+01601100681ADDGF108991031011012501001011MD1810051+9999REMSYN060AAXX  05061 30935 42699 80902 10252 20160 40068 58005 83101;
0112309350999992000080518004+50360+108750FM-12+077099999V0209999C000010300019N0500001N1+01851+01641100861ADDGF107991021051012501041011MD1310131+9999REMSYN060AAXX  05181 30935 42699 70000 10185 20164 40086 53013 82541;
0140309350999992000080706004+50360+108750FM-12+077099999V0203501N001012200019N0500001N1+02201+01171101151ADDAY151061AY241061GF102991011011012501001011MD1810201+9999MW1011REMSYN066AAXX  07061 30935 41699 23501 10220 20117 40115 58020 70154 81101;
0122309350999992000080715004+50360+108750FM-12+077099999V0201201N001012200019N0500001N1+01611+01321101221ADDGA1001+999999999GF100991001001999999001001MD1310081+9999REMSYN054AAXX  07151 30935 42999 01201 10161 20132 40122 53008;
0201309350999992000080800004+50360+108750FM-12+077099999V0209999C000012200019N0500001N1+01141+01091101541ADDAA199000091AY141061AY201061GF103991001001999999001011MA1999999092681MD1210071+9999MW1281REMSYN082AAXX  08001 30935 31999 30000 10114 20109 39268 40154 52007 72840 80001 333 55083;EQDQ01  00002PRCP99
0150309350999992000080821004+50360+108750FM-12+077099999V0209999C000010003019N0005001N1+01281+01211101191ADDAY141031AY201031GA1091+999999999GF109991091999999999999999MD1310031+9999MW1471REMSYN060AAXX  08211 30935 41/93 90000 10128 20121 40119 53003 74740;
0186309350999992000080912004+50360+108750FM-12+077099999V0203101N001012200019N0500001N1+02321+01341100571ADDAA199000091GF102991001001999999001011KA1999M+02901MA1999999092141MD1710071+9999REMSYN076AAXX  09121 30935 32999 23101 10232 20134 39214 40057 57007 80001 333 10290;EQDQ01  00002PRCP99
0112309350999992000080915004+50360+108750FM-12+077099999V0202901N001012200019N0500001N1+01781+01451100881ADDGF101991001001999999001011MD1310141+9999REMSYN060AAXX  09151 30935 42999 12901 10178 20145 40088 53014 80001;
0112309350999992000081018004+50360+108750FM-12+077099999V0203501N001012200019N0500001N1+01491+01361100961ADDGF102991001001999999001011MD1210081+9999REMSYN060AAXX  10181 30935 42999 23501 10149 20136 40096 52008 80001;
0112309350999992000081021004+50360+108750FM-12+077099999V0209999C000012200019N0500001N1+01251+01151101041ADDGF103991021001999999041011MD1410001+9999REMSYN060AAXX  10211 30935 42999 30000 10125 20115 40104 54000 82041;
0173309350999992000081100004+50360+108750FM-12+077099999V0201101N001019999999N0500001N1+01401+01251101061ADDAA199000091GF106991031001999999031021MA1999999092331MD1310071+9999REMSYN076AAXX  11001 30935 32999 61101 10140 20125 39233 40106 53007 83032 333 55118;EQDQ01  00002PRCP99
0112309350999992000081103004+50360+108750FM-12+077099999V0200801N002010300019N0500001N1+02011+01381100821ADDGF106991021011012501041021MD1810041+9999REMSYN060AAXX  11031 30935 42699 60802 10201 20138 40082 58004 82142;
0112309350999992000081121004+50360+108750FM-12+077099999V0209999C000019999999N0500001N1+01541+01401100831ADDGF107991071001999999031001MD1410001+9999REMSYN060AAXX  11211 30935 42999 70000 10154 20140 40083 54000 87030;
0233309350999992000081200004+50360+108750FM-12+077099999V0209999C000010300019N0500001N1+01661+01521100841ADDAA199000091GF106991011011012501041011GJ105049IA1019IA2999+01609MA1999999092211MD1310051+9999REMSYN110AAXX  12001 30935 32699 60000 10166 20152 39221 40084 53005 81141 333 55084 555 10021 30016 50195 53007 7000/;EQDQ01  00002PRCP99
0112309350999992000081203004+50360+108750FM-12+077099999V0200901N001010750019N0500001N1+02101+01451100621ADDGF105991011011012501041011MD1810081+9999REMSYN060AAXX  12031 30935 42699 50901 10210 20145 40062 58008 81141;
0112309350999992000081218004+50360+108750FM-12+077099999V0209999C000012200019N0500001N1+01811+01611100421ADDGF102991001001999999001011MD1410001+9999REMSYN060AAXX  12181 30935 42999 20000 10181 20161 40042 54000 80001;
0140309350999992000081318004+50360+108750FM-12+077099999V0202401N003010120019N0500001N1+01511+01381099891ADDAY181061AY221061GF108991061051012501071999MD1710061+9999MW1031REMSYN066AAXX  13181 30935 41699 82403 10151 20138 49989 57006 70382 8657/;
0112309350999992000081418004+50360+108750FM-12+077099999V0202501N003010120019N0500001N1+01141+00701100301ADDGF107991051091012501071999MD1410001+9999REMSYN060AAXX  14181 30935 42699 72503 10114 20070 40030 54000 8597/;
0140309350999992000081521004+50360+108750FM-12+077099999V0202401N002019999999N0100001N1+00801+00671100621ADDAY161031AY261031GF108991081001999999021999MD1210031+9999MW1601REMSYN066AAXX  15211 30935 41997 82402 10080 20067 40062 52003 76066 8802/;
0112309350999992000081621004+50360+108750FM-12+077099999V0202401N001010750019N0500001N1+00531+00441101551ADDGF105991011051012501041021MD1210091+9999REMSYN060AAXX  16211 30935 42699 52401 10053 20044 40155 52009 81542;
0112309350999992000081703004+50360+108750FM-12+077099999V0209999C000010300019N0500001N1+01131+00801101491ADDGF107991041051012501041011MD1210041+9999REMSYN060AAXX  17031 30935 42699 70000 10113 20080 40149 52004 84541;
0112309350999992000081715004+50360+108750FM-12+077099999V0200601N001010300019N0500001N1+00941+00731101571ADDGF106991021041012501041011MD1310051+9999REMSYN060AAXX  17151 30935 42699 60601 10094 20073 40157 53005 82441;
0112309350999992000081718004+50360+108750FM-12+077099999V0209999C000012200019N0500001N1+00621+00551101701ADDGF102991021001999999041001MD1210011+9999REMSYN060AAXX  17181 30935 42999 20000 10062 20055 40170 52001 82040;
0140309350999992000081806004+50360+108750FM-12+077099999V0200901N001010300019N0500001N1+01391+00741101661ADDAY151061AY241061GF107991021011012501031001MD1810131+9999MW1011REMSYN066AAXX  18061 30935 41699 70901 10139 20074 40166 58013 70154 82130;
0211309350999992000081900004+50360+108750FM-12+077099999V0200901N001010003019N0005001N1+00771+00731101941ADDAA199000091AY141061AY201061GA1091+999999999GF109991091999999999999999MA1999999092931MD1310101+9999MW1451REMSYN076AAXX  19001 30935 31/93 90901 10077 20073 39293 40194 53010 74540 333 55071;EQDQ01  00002PRCP99
0186309350999992000081912004+50360+108750FM-12+077099999V0201201N001019999999N0500001N1+01931+01431100741ADDAA199000091GF107991041001999999041011KA1999M+02501MA1999999092191MD1710191+9999REMSYN076AAXX  19121 30935 32999 71201 10193 20143 39219 40074 57019 84041 333 10250;EQDQ01  00002PRCP99
0188309350999992000082000004+50360+108750FM-12+077099999V0209999C000019999999N0100001N1+01401+01311100851ADDAA112001091AY161061AY221061GF108991081001999999071999MA1999999092141MD1810011+9999MW1611REMSYN088AAXX  20001 30935 11997 80000 10140 20131 39214 40085 58001 60012 76162 8807/ 333 55090;
0140309350999992000082021004+50360+108750FM-12+077099999V0201701N001019999999N0100001N1+01441+01351100911ADDAY161031AY221031GF108991081001999999071999MD1410001+9999MW1611REMSYN066AAXX  20211 30935 41997 81701 10144 20135 40091 54000 76162 8807/;
0188309350999992000082100004+50360+108750FM-12+077099999V0200401N002010300019N0100001N1+01471+01421100941ADDAA112004191AY161061AY221061GF108991021051012501071999MA1999999092241MD1310031+9999MW1611REMSYN088AAXX  21001 30935 11697 80402 10147 20142 39224 40094 53003 60042 76162 8257/ 333 55005;
0140309350999992000082206004+50360+108750FM-12+077099999V0202401N001010075019N0040001N1+01651+01461101021ADDAY161061AY261061GF108991051071008001021999MD1410001+9999MW1611REMSYN066AAXX  22061 30935 41596 82401 10165 20146 40102 54000 76166 8572/;
0201309350999992000082212004+50360+108750FM-12+077099999V0200501N002010300019N0500001N1+01611+01251101041ADDAA112005191AY161061AY221061GF107991041091012501041011KA1999M+01851MA1999999092371MD1410001+9999MW1011REMSYN088AAXX  22121 30935 11699 70502 10161 20125 39237 40104 54000 60052 70162 84941 333 10185;
0160309350999992000082400004+50360+108750FM-12+077099999V0200801N001019999999N0500001N1+01281+01051101281ADDAA112000391GF106991041001999999031011MA1999999092491MD1210051+9999REMSYN082AAXX  24001 30935 12999 60801 10128 20105 39249 40128 52005 69932 84031 333 55105;
0186309350999992000082412004+50360+108750FM-12+077099999V0209999C000012200019N0500001N1+01851+01361100721ADDAA199000091GF102991011001999999041011KA1999M+02481MA1999999092151MD1710011+9999REMSYN076AAXX  24121 30935 32999 20000 10185 20136 39215 40072 57001 81041 333 10248;EQDQ01  00002PRCP99
0112309350999992000082421004+50360+108750FM-12+077099999V0200601N002012200019N0500001N1+01101+00811101211ADDGF102991001001999999001011MD1210011+9999REMSYN060AAXX  24211 30935 42999 20602 10110 20081 40121 52001 80001;
0112309350999992000082503004+50360+108750FM-12+077099999V0200501N005019999999N0500001N1+01741+00891101021ADDGF105991021001999999041011MD1810041+9999REMSYN060AAXX  25031 30935 42999 50505 10174 20089 40102 58004 82041;
0112309350999992000082603004+50360+108750FM-12+077099999V0200601N002010300019N0500001N1+02061+01171100491ADDGF105991011041012501041001MD1210061+9999REMSYN060AAXX  26031 30935 42699 50602 10206 20117 40049 52006 81440;
0112309350999992000082618004+50360+108750FM-12+077099999V0200801N002010300019N0500001N1+01381+01211101061ADDGF108991041091012501041011MD1410001+9999REMSYN060AAXX  26181 30935 42699 80802 10138 20121 40106 54000 84941;
0112309350999992000082621004+50360+108750FM-12+077099999V0200301N002010300019N0500001N1+01321+01171101141ADDGF106991031091012501041011MD1310051+9999REMSYN060AAXX  26211 30935 42699 60302 10132 20117 40114 53005 83941;
0188309350999992000082700004+50360+108750FM-12+077099999V0200401N001010120019N0100001N1+01241+01001101301ADDAA112002091AY161061AY221061GF107991061091012501041011MA1999999092491MD1210121+9999MW1611REMSYN088AAXX  27001 30935 11697 70401 10124 20100 39249 40130 52012 60022 76162 86941 333 55105;
0167309350999992000082712004+50360+108750FM-12+077099999V0200601N002010750019N0500001N1+01531+00841101111ADDAA199000021GF107991011011012501001021KA1999M+02021MA1999999092391MD1310061+9999REMSYN076AAXX  27121 30935 32699 70602 10153 20084 39239 40111 53006 81102 333 10202;
0112309350999992000082715004+50360+108750FM-12+077099999V0200601N001012200019N0500001N1+01271+00861101201ADDGF103991001001999999001011MD1210011+9999REMSYN060AAXX  27151 30935 42999 30601 10127 20086 40120 52001 80001;
0140309350999992000082809004+50360+108750FM-12+077099999V0200601N001010300019N0500001N1+01531+01071100551ADDAY191031AY281031GF106991041091012501041011MD1710021+9999MW1011REMSYN066AAXX  28091 30935 41699 60601 10153 20107 40055 57002 70198 84941;
0112309350999992000082818004+50360+108750FM-12+077099999V0200701N001010120019N0500001N1+01171+01051100551ADDGF108991061091012501041011MD1710051+9999REMSYN060AAXX  28181 30935 42699 80701 10117 20105 40055 57005 86941;
0198309350999992000083000004+50360+108750FM-12+077099999V0200701N001010003019N0005001N1+00971+00901100311ADDAA112000591AY151061AY241061GA1091+999999999GF109991091999999999999999MA1999999091511MD1810021+9999MW1511REMSYN082AAXX  30001 30935 11/93 90701 10097 20090 39151 40031 58002 69942 75154 333 55050;
0131309350999992000083021004+50360+108750FM-12+077099999V0203501N002012200019N0500001N1+01201+01121099691ADDGF103991999001999999041001MD1210061+9999REMSYN060AAXX  30211 30935 42999 33502 10120 20112 49969 52006 82040;EQDQ01+000022SCOTLC
0173309350999992000083100004+50360+108750FM-12+077099999V0200501N001010300019N0500001N1+01321+01171099911ADDAA199000091GF107991021021012501041011MA1999999091251MD1210241+9999REMSYN076AAXX  31001 30935 31699 70501 10132 20117 39125 49991 52024 82241 333 55075;EQDQ01  00002PRCP99
0140309350999992000083103004+50360+108750FM-12+077099999V0203301N002010120019N0500001N1+01671+01131100131ADDAY181031AY211031GF107991051091012501041011MD1210301+9999MW1031REMSYN066AAXX  31031 30935 41699 73302 10167 20113 40013 52030 70381 85941;
0140309350999992000083106004+50360+108750FM-12+077099999V0202001N001010120019N0500001N1+01871+01121100161ADDAY181061AY211061GF107991061091012501041011MD1210091+9999MW1031REMSYN066AAXX  31061 30935 41699 72001 10187 20112 40016 52009 70381 86941;
0140309350999992000083118004+50360+108750FM-12+077099999V0201201N003010300019N0500001N1+01431+01281100091ADDAY191061AY281061GF107991031091012501031001MD1310101+9999MW1811REMSYN066AAXX  31181 30935 41699 71203 10143 20128 40009 53010 78198 83930;
0112309350999992000083121004+50360+108750FM-12+077099999V0203201N001010300019N0500001N1+01121+00971100471ADDGF106991021041012501031001MD1210241+9999REMSYN060AAXX  31211 30935 42699 63201 10112 20097 40047 52024 82430;
0112309350999992000090103004+50360+108750FM-12+077099999V0202501N001010120019N0500001N1+01401+01071100711ADDGF107991051051012501031001MD1210141+9999REMSYN060AAXX  01031 30935 42699 72501 10140 20107 40071 52014 85530;
0112309350999992000090106004+50360+108750FM-12+077099999V0202001N001010750019N0500001N1+01971+01181100531ADDGF105991021021012501041011MD1410001+9999REMSYN060AAXX  01061 30935 42699 52001 10197 20118 40053 54000 82241;
0186309350999992000090112004+50360+108750FM-12+077099999V0201201N001019999999N0500001N1+01761+00851100741ADDAA199000091GF108991061001999999041011KA1999M+02121MA1999999092131MD1310151+9999REMSYN076AAXX  01121 30935 32999 81201 10176 20085 39213 40074 53015 86041 333 10212;EQDQ01  00002PRCP99
0112309350999992000090115004+50360+108750FM-12+077099999V0200401N002019999999N0500001N1+01611+00821100861ADDGF108991071001999999041011MD1210061+9999REMSYN060AAXX  01151 30935 42999 80402 10161 20082 40086 52006 87041;
0140309350999992000090121004+50360+108750FM-12+077099999V0203201N006010120019N0100001N1+01041+00701100991ADDAY181031AY221031GF108991061091012501041001MD1810091+9999MW1811REMSYN066AAXX  01211 30935 41697 83206 10104 20070 40099 58009 78182 86940;
0188309350999992000090200004+50360+108750FM-12+077099999V0203001N001010300019N0100001N1+00871+00771101201ADDAA112023191AY181061AY261061GF108991021051012501071999MA1999999092281MD1310141+9999MW1611REMSYN088AAXX  02001 30935 11697 83001 10087 20077 39228 40120 53014 60232 76186 8257/ 333 55056;
0112309350999992000090209004+50360+108750FM-12+077099999V0202901N003010120019N0500001N1+00991+00711101061ADDGF108991051051012501071999MD1410001+9999REMSYN060AAXX  02091 30935 42699 82903 10099 20071 40106 54000 8557/;
0140309350999992000090218004+50360+108750FM-12+077099999V0202501N001010300019N0500001N1+00881+00771101171ADDAY161061AY221061GF108991041051012501071999MD1410001+9999MW1031REMSYN066AAXX  02181 30935 41699 82501 10088 20077 40117 54000 70362 8457/;
0112309350999992000090221004+50360+108750FM-12+077099999V0209999C000010300019N0500001N1+00901+00761101181ADDGF108991021051012501071999MD1310011+9999REMSYN060AAXX  02211 30935 42699 80000 10090 20076 40118 53001 8257/;
0188309350999992000090300004+50360+108750FM-12+077099999V0202301N002010120019N0100001N1+00911+00771101341ADDAA112001091AY161061AY221061GF108991051051012501021999MA1999999092431MD1210161+9999MW1611REMSYN088AAXX  03001 30935 11697 82302 10091 20077 39243 40134 52016 60012 76162 8552/ 333 55000;
0140309350999992000090303004+50360+108750FM-12+077099999V0202801N004010120019N0500001N1+00991+00501101481ADDAY161031AY221031GF107991051051012501041001MD1210141+9999MW1011REMSYN066AAXX  03031 30935 41699 72804 10099 20050 40148 52014 70162 85540;
0140309350999992000090306004+50360+108750FM-12+077099999V0202601N004010120019N0500001N1+01021+00411101701ADDAY161061AY221061GF107991051051012501041001MD1210201+9999MW1021REMSYN066AAXX  03061 30935 41699 72604 10102 20041 40170 52020 70262 85540;
0125309350999992000090318004+50360+108750FM-12+077099999V0202301N002019999999N0100001N1+99999+99999999999ADDGF108991999999012501999999REMSYN087AAXX  03181 30935 11697 82302 0091 20077 39243 40134 52016 60012 76162 8552/ 333 55000;
0173309350999992000090400004+50360+108750FM-12+077099999V0202301N002010120019N0500001N1+00471+00301102831ADDAA199000091GF107991051091012501041001MA1999999093641MD1310201+9999REMSYN076AAXX  04001 30935 32699 72302 10047 20030 39364 40283 53020 85940 333 55025;EQDQ01  00002PRCP99
0140309350999992000090403004+50360+108750FM-12+077099999V0202401N003010120019N0500001N1+00831+00461102691ADDAY161031AY221031GF108991061051012501041999MD1810011+9999MW1611REMSYN066AAXX  04031 30935 41699 82403 10083 20046 40269 58001 76162 8654/;
0217309350999992000090412004+50360+108750FM-12+077099999V0202901N002010300019N0500001N1+00671+00121102701ADDAA112000891AY181061AY221061GF105991031041012501041001KA1120M+01321MA1999999093581MD1310071+9999MW1011REMSYN104AAXX  04121 30935 12699 52902 10067 20012 39358 40270 53007 69972 70182 83440 333 10132 555 11005 53014;
0122309350999992000090418004+50360+108750FM-12+077099999V0209999C000012200019N0500001N1+00191+00061103101ADDGA1001+999999999GF100991001001999999001001MD1210041+9999REMSYN054AAXX  04181 30935 42999 00000 10019 20006 40310 52004;
0211309350999992000090600004+50360+108750FM-12+077099999V0209999C000010003019N0005001N1+00301+00251102181ADDAA199000091AY141061AY201061GA1091+999999999GF109991091999999999999999MA1999999092991MD1310101+9999MW1431REMSYN076AAXX  06001 30935 31/93 90000 10030 20025 39299 40218 53010 74340 333 55084;EQDQ01  00002PRCP99
0140309350999992000090606004+50360+108750FM-12+077099999V0202601N005012200019N0500001N1+01761+00341101451ADDAY141061AY221061GF106991041021012501001011MD1710191+9999MW1031REMSYN066AAXX  06061 30935 41699 62605 10176 20034 40145 57019 70342 84201;
0112309350999992000090621004+50360+108750FM-12+077099999V0200701N001019999999N0500001N1+00661+00501101821ADDGF106991031001999999041011MD1410001+9999REMSYN060AAXX  06211 30935 42999 60701 10066 20050 40182 54000 83041;
0112309350999992000090709004+50360+108750FM-12+077099999V0202901N004010750019N0500001N1+01591+00191101581ADDGF106991031091012501001021MD1710091+9999REMSYN060AAXX  07091 30935 42699 62904 10159 20019 40158 57009 83902;
0122309350999992000090803004+50360+108750FM-12+077099999V0201601N002012200019N0500001N1+00781+00291102331ADDGA1001+999999999GF100991001001999999001001MD1210011+9999REMSYN054AAXX  08031 30935 42999 01602 10078 20029 40233 52001;
0112309350999992000090806004+50360+108750FM-12+077099999V0201501N002012200019N0500001N1+01461-00091101851ADDGF101991011011012501001001MD1810241+9999REMSYN060AAXX  08061 30935 42699 11502 10146 21009 40185 58024 81100;
0122309350999992000090809004+50360+108750FM-12+077099999V0200601N002012200019N0500001N1+01691+00061101611ADDGA1001+999999999GF100991001001999999001001MD1710161+9999REMSYN054AAXX  08091 30935 42999 00602 10169 20006 40161 57016;
0196309350999992000090812004+50360+108750FM-12+077099999V0203301N002012200019N0500001N1+01071+00151101801ADDAA199000091GA1001+999999999GF100991001001999999001001KA1999M+01691MA1999999092881MD1410001+9999REMSYN070AAXX  08121 30935 32999 03302 10107 20015 39288 40180 54000 333 10169;EQDQ01  00002PRCP99
0122309350999992000090815004+50360+108750FM-12+077099999V0209999C000012200019N0500001N1+00531+00361102091ADDGA1001+999999999GF100991001001999999001001MD1310101+9999REMSYN054AAXX  08151 30935 42999 00000 10053 20036 40209 53010;
0150309350999992000090821004+50360+108750FM-12+077099999V0209999C000012200019N0100001N1+00051-00031102301ADDAY101031AY201031GA1001+999999999GF100991001001999999001001MD1210011+9999MW1401REMSYN060AAXX  08211 30935 41997 00000 10005 21003 40230 52001 74000;
0201309350999992000090900004+50360+108750FM-12+077099999V0202001N001012200019N0500001N1+00051-00011102391ADDAA199000091AY141061AY201061GF103991001001999999001011MA1999999093101MD1210081+9999MW1281REMSYN082AAXX  09001 30935 31999 32001 10005 21001 39310 40239 52008 72840 80001 333 55118;EQDQ01  00002PRCP99
0186309350999992000090912004+50360+108750FM-12+077099999V0203301N002019999999N0500001N1+01381+00731101521ADDAA199000091GF105991021001999999041011KA1999M+02171MA1999999092731MD1310091+9999REMSYN076AAXX  09121 30935 32999 53302 10138 20073 39273 40152 53009 82041 333 10217;EQDQ01  00002PRCP99
0112309350999992000091015004+50360+108750FM-12+077099999V0202901N001012200019N0500001N1+00921+00511101781ADDGF102991011001999999041011MD1310111+9999REMSYN060AAXX  10151 30935 42999 22901 10092 20051 40178 53011 81041;
0122309350999992000091118004+50360+108750FM-12+077099999V0201801N001012200019N0500001N1+00591+00521101881ADDGA1001+999999999GF100991001001999999001001MD1210051+9999REMSYN054AAXX  11181 30935 42999 01801 10059 20052 40188 52005;
0150309350999992000091203004+50360+108750FM-12+077099999V0200901N001012200019N0500001N1+01021+00591102021ADDAY141031AY201031GA1001+999999999GF100991001001999999001001MD1210041+9999MW1021REMSYN060AAXX  12031 30935 41999 00901 10102 20059 40202 52004 70240;
0150309350999992000091206004+50360+108750FM-12+077099999V0201301N001012200019N0500001N1+02061+00771101511ADDAY141061AY201061GA1001+999999999GF100991001001999999001001MD1810161+9999MW1021REMSYN060AAXX  12061 30935 41999 01301 10206 20077 40151 58016 70240;
0112309350999992000091209004+50360+108750FM-12+077099999V0209999C000012200019N0500001N1+02381+00321101281ADDGF101991011021012501001001MD1710131+9999REMSYN060AAXX  12091 30935 42699 10000 10238 20032 40128 57013 81200;
0112309350999992000091218004+50360+108750FM-12+077099999V0209999C000012200019N0500001N1+00621+00531102191ADDGF102991001001999999001011MD1210091+9999REMSYN060AAXX  12181 30935 42999 20000 10062 20053 40219 52009 80001;
0112309350999992000091221004+50360+108750FM-12+077099999V0209999C000012200019N0500001N1+00301+00251102321ADDGF102991001001999999001011MD1210021+9999REMSYN060AAXX  12211 30935 42999 20000 10030 20025 40232 52002 80001;
0271309350999992000091300004+50360+108750FM-12+077099999V0209999C000010003019N0005001N1+00361+00261102361ADDAA199000091AY141061AY201061GA1091+999999999GF109991091999999999999999GJ105589IA1099IA2999+00309MA1999999093171MD1210051+9999MW1451REMSYN110AAXX  13001 30935 31/93 90000 10036 20026 39317 40236 52005 74540 333 55093 555 11007 31003 50118 53002 7000/;EQDQ01  00002PRCP99
0212309350999992000091312004+50360+108750FM-12+077099999V0200401N001012200019N0500001N1+01711+00811101291ADDAA199000091GA1001+999999999GF100991001001999999001001KA1999M+99999MA1999999092611MD1710021+9999REMSYN070AAXX  13121 30935 32999 00401 10171 20081 39261 40129 57002 333 10025;EQDQ01  00002PRCP99Q02 +00252ATMX  
0122309350999992000091318004+50360+108750FM-12+077099999V0203101N001012200019N0500001N1+00621+00511101721ADDGA1001+999999999GF100991001001999999001001MD1210011+9999REMSYN054AAXX  13181 30935 42999 03101 10062 20051 40172 52001;
0112309350999992000091321004+50360+108750FM-12+077099999V0201501N001012200019N0500001N1+00321+00271101811ADDGF102991021001999999041011MD1810021+9999REMSYN060AAXX  13211 30935 42999 21501 10032 20027 40181 58002 82041;
0112309350999992000091409004+50360+108750FM-12+077099999V0200501N005010120019N0500001N1+02191+00851100991ADDGF108991051021012501041011MD1710101+9999REMSYN060AAXX  14091 30935 42699 80505 10219 20085 40099 57010 85241;
0211309350999992000091600004+50360+108750FM-12+077099999V0202801N001010003019N0005001N1+00091+00041101981ADDAA199000091AY141061AY201061GA1091+999999999GF109991091999999999999999MA1999999092741MD1210131+9999MW1451REMSYN076AAXX  16001 30935 31/93 92801 10009 20004 39274 40198 52013 74540 333 55094;EQDQ01  00002PRCP99
0140309350999992000091603004+50360+108750FM-12+077099999V0202901N002012200019N0500001N1+01041+00361101521ADDAY141031AY201031GF102991001001999999001011MD1810121+9999MW1031REMSYN066AAXX  16031 30935 41999 22902 10104 20036 40152 58012 70340 80001;
0140309350999992000091606004+50360+108750FM-12+077099999V0202401N002012200019N0500001N1+01821+00581100931ADDAY141061AY201061GF103991021021012501041011MD1710311+9999MW1031REMSYN066AAXX  16061 30935 41699 32402 10182 20058 40093 57031 70340 82241;
0112309350999992000091615004+50360+108750FM-12+077099999V0209999C000012200019N0500001N1+00941+00681100961ADDGF104991031001999999041011MD1810031+9999REMSYN060AAXX  16151 30935 42999 40000 10094 20068 40096 58003 83041;
0173309350999992000091900004+50360+108750FM-12+077099999V0209999C000012200019N0500001N1+00021-00041102171ADDAA199000091GF103991011011012501041011MA1999999092891MD1210051+9999REMSYN076AAXX  19001 30935 32699 30000 10002 21004 39289 40217 52005 81141 333 55009;EQDQ01  00002PRCP99
0140309350999992000091909004+50360+108750FM-12+077099999V0202701N005012200019N0500001N1+01611-00541101321ADDAY181031AY211031GF102991021091012501001001MD1710101+9999MW1011REMSYN066AAXX  19091 30935 41699 22705 10161 21054 40132 57010 70181 82900;
0173309350999992000092000004+50360+108750FM-12+077099999V0202601N001019999999N0500001N1-00091-00181101961ADDAA199000091GF105991001001999999001011MA1999999092661MD1810031+9999REMSYN076AAXX  20001 30935 32999 52601 11009 21018 39266 40196 58003 80001 333 55094;EQDQ01  00002PRCP99
0112309350999992000092003004+50360+108750FM-12+077099999V0201501N001019999999N0500001N1+00881+00061101421ADDGF106991001001999999001011MD1710191+9999REMSYN060AAXX  20031 30935 42999 61501 10088 20006 40142 57019 80001;
0186309350999992000092012004+50360+108750FM-12+077099999V0209999C000012200019N0500001N1+01321+00611100681ADDAA199000091GF102991011001999999031011KA1999M+02121MA1999999091941MD1310061+9999REMSYN076AAXX  20121 30935 32999 20000 10132 20061 39194 40068 53006 81031 333 10212;EQDQ01  00002PRCP99
0112309350999992000092018004+50360+108750FM-12+077099999V0209999C000012200019N0500001N1+00541+00321100901ADDGF103991001001999999001011MD1610011+9999REMSYN060AAXX  20181 30935 42999 30000 10054 20032 40090 56001 80001;
0173309350999992000092100004+50360+108750FM-12+077099999V0203501N001010300019N0500001N1+00651+00211100921ADDAA199000091GF106991021051012501041011MA1999999091951MD1310101+9999REMSYN076AAXX  21001 30935 32699 63501 10065 20021 39195 40092 53010 82541 333 55099;EQDQ01  00002PRCP99
0112309350999992000092103004+50360+108750FM-12+077099999V0203601N005010300019N0500001N1+01381+00531101091ADDGF106991011011012501041011MD1210381+9999REMSYN060AAXX  21031 30935 42699 63605 10138 20053 40109 52038 81141;
0112309350999992000092121004+50360+108750FM-12+077099999V0202401N001012200019N0500001N1+00301+00121102261ADDGF104991001001999999001011MD1210111+9999REMSYN060AAXX  21211 30935 42999 42401 10030 20012 40226 52011 80001;
0122309350999992000092318004+50360+108750FM-12+077099999V0209999C000012200019N0500001N1+00021-00251101651ADDGA1001+999999999GF100991001001999999001001MD1410001+9999REMSYN054AAXX  23181 30935 42999 00000 10002 21025 40165 54000;
0183309350999992000092400004+50360+108750FM-12+077099999V0209999C000012200019N0500001N1-00211-00361101891ADDAA199000091GA1001+999999999GF100991001001999999001001MA1999999092551MD1210121+9999REMSYN070AAXX  24001 30935 32999 00000 11021 21036 39255 40189 52012 333 55095;EQDQ01  00002PRCP99
0122309350999992000092403004+50360+108750FM-12+077099999V0201901N001012200019N0500001N1+00771-00091101671ADDGA1001+999999999GF100991001001999999001001MD1210111+9999REMSYN054AAXX  24031 30935 42999 01901 10077 21009 40167 52011;
0233309350999992000092500004+50360+108750FM-12+077099999V0209999C000019999999N0500001N1-00021-00171102001ADDAA199000091GF107991051001999999041011GJ106909IA1019IA2999-00209MA1999999092721MD1810101+9999REMSYN110AAXX  25001 30935 32999 70000 11002 21017 39272 40200 58010 85041 333 55115 555 10001 30102 50067 53006 7000/;EQDQ01  00002PRCP99
0122309350999992000092515004+50360+108750FM-12+077099999V0203501N001012200019N0500001N1+00521-00041101451ADDGA1001+999999999GF100991001001999999001001MD1310081+9999REMSYN054AAXX  25151 30935 42999 03501 10052 21004 40145 53008;
0122309350999992000092518004+50360+108750FM-12+077099999V0209999C000012200019N0500001N1+00061-00141101801ADDGA1001+999999999GF100991001001999999001001MD1210171+9999REMSYN054AAXX  25181 30935 42999 00000 10006 21014 40180 52017;
0243309350999992000092600004+50360+108750FM-12+077099999V0209999C000012200019N0500001N1-00141-00231101151ADDAA199000091GA1001+999999999GF100991001001999999001001GJ105649IA1149IA2999-00309MA1999999092641MD1210071+9999REMSYN104AAXX  26001 30935 32999 00000 11014 21023 39264 40115 52007 333 55094 555 14102 34103 50075 53006 7000/;EQDQ01  00002PRCP99
0122309350999992000092703004+50360+108750FM-12+077099999V0209999C000012200019N0500001N1+00991+00001101611ADDGA1001+999999999GF100991001001999999001001MD1210031+9999REMSYN054AAXX  27031 30935 42999 00000 10099 20000 40161 52003;
0112309350999992000092709004+50360+108750FM-12+077099999V0209999C000012200019N0500001N1+02361+00291100661ADDGF101991011001999999041001MD1710181+9999REMSYN060AAXX  27091 30935 42999 10000 10236 20029 40066 57018 81040;
0112309350999992000092809004+50360+108750FM-12+077099999V0203301N006010750019N0500001N1+00921-00171102641ADDGF105991021091012501041011MD1210031+9999REMSYN060AAXX  28091 30935 42699 53306 10092 21017 40264 52003 82941;
0183309350999992000092812004+50360+108750FM-12+077099999V0203301N003012200019N0500001N1+00431-00471103021ADDAA112000791GA1001+999999999GF100991001001999999001001KA1999M+01031MA1999999093781MD1210191+9999REMSYN076AAXX  28121 30935 12999 03303 10043 21047 39378 40302 52019 69902 333 10103;
0183309350999992000092900004+50360+108750FM-12+077099999V0209999C000012200019N0500001N1-00441-00531103251ADDAA199000091GA1001+999999999GF100991001001999999001001MA1999999093721MD1710091+9999REMSYN070AAXX  29001 30935 32999 00000 11044 21053 39372 40325 57009 333 55064;EQDQ01  00002PRCP99
0122309350999992000092903004+50360+108750FM-12+077099999V0203501N001012200019N0500001N1+00211-00381102901ADDGA1001+999999999GF100991001001999999001001MD1710111+9999REMSYN054AAXX  29031 30935 42999 03501 10021 21038 40290 57011;
0183309350999992000093000004+50360+108750FM-12+077099999V0209999C000012200019N0500001N1-00461-00521102441ADDAA199000091GA1001+999999999GF100991001001999999001001MA1999999092971MD1410001+9999REMSYN070AAXX  30001 30935 32999 00000 11046 21052 39297 40244 54000 333 55105;EQDQ01  00002PRCP99
0122309350999992000093003004+50360+108750FM-12+077099999V0200501N001012200019N0500001N1+00471-00451102051ADDGA1001+999999999GF100991001001999999001001MD1810061+9999REMSYN054AAXX  30031 30935 42999 00501 10047 21045 40205 58006;
0112309350999992000100109004+50360+108750FM-12+077099999V0200701N002012200019N0500001N1+01681-00171101321ADDGF101991001001999999001011MD1710191+9999REMSYN060AAXX  01091 30935 42999 10702 10168 21017 40132 57019 80001;
0112309350999992000100118004+50360+108750FM-12+077099999V0200501N003012200019N0500001N1+00551-00571101781ADDGF103991031001999999041001MD1410001+9999REMSYN060AAXX  01181 30935 42999 30503 10055 21057 40178 54000 83040;
0112309350999992000100121004+50360+108750FM-12+077099999V0209999C000012200019N0500001N1+00001-00671101971ADDGF102991021001999999041001MD1310011+9999REMSYN060AAXX  01211 30935 42999 20000 10000 21067 40197 53001 82040;
0173309350999992000100200004+50360+108750FM-12+077099999V0209999C000019999999N0500001N1-00111-00431102001ADDAA199000091GF108991041001999999041011MA1999999092681MD1810021+9999REMSYN076AAXX  02001 30935 32999 80000 11011 21043 39268 40200 58002 84041 333 55102;EQDQ01  00002PRCP99
0112309350999992000100203004+50360+108750FM-12+077099999V0202201N001019999999N0500001N1+00481-00221101741ADDGF107991041001999999041011MD1710041+9999REMSYN060AAXX  02031 30935 42999 72201 10048 21022 40174 57004 84041;
0140309350999992000100206004+50360+108750FM-12+077099999V0202701N001010120019N0500001N1+00961-00141101571ADDAY161061AY221061GF108991061051012501071999MD1410001+9999MW1211REMSYN066AAXX  02061 30935 41699 82701 10096 21014 40157 54000 72162 8657/;
0173309350999992000100212004+50360+108750FM-12+077099999V0203101N001010300019N0500001N1+00711+00041101961ADDAA112000791GF107991021051012501041001KA1999M+00961MA1999999092911MD1210191+9999REMSYN082AAXX  02121 30935 12699 73101 10071 20004 39291 40196 52019 69902 82540 333 10096;
0112309350999992000100215004+50360+108750FM-12+077099999V0203101N001019999999N0500001N1+00521+00081102041ADDGF106991051001999999041011MD1210021+9999REMSYN060AAXX  02151 30935 42999 63101 10052 20008 40204 52002 85041;
0112309350999992000100221004+50360+108750FM-12+077099999V0202501N001019999999N0500001N1+00241-00091102221ADDGF106991041001999999041011MD1210021+9999REMSYN060AAXX  02211 30935 42999 62501 10024 21009 40222 52002 84041;
0173309350999992000100300004+50360+108750FM-12+077099999V0202701N003010120019N0500001N1+00301-00021102341ADDAA199000091GF107991061051012501041011MA1999999093141MD1210131+9999REMSYN076AAXX  03001 30935 32699 72703 10030 21002 39314 40234 52013 86541 333 55012;EQDQ01  00002PRCP99
0186309350999992000100312004+50360+108750FM-12+077099999V0203601N003019999999N0500001N1+00691-00351102071ADDAA199000091GF106991021001999999041011KA1999M+01321MA1999999093011MD1310041+9999REMSYN076AAXX  03121 30935 32999 63603 10069 21035 39301 40207 53004 82041 333 10132;EQDQ01  00002PRCP99
0131309350999992000100315004+50360+108750FM-12+077099999V0209999C000012200019N0500001N1+00151-00441102341ADDGF102991999001999999041001MD1210061+9999REMSYN060AAXX  03151 30935 42999 20000 10015 21044 40234 52006 81040;EQDQ01+000012SCOTLC
0225309350999992000100400004+50360+108750FM-12+077099999V0200201N001012200019N0500001N1-00591-00701102891ADDAA199000091GF102991001001999999001011GJ105049MA1999999093341MD1210131+9999REMSYN104AAXX  04001 30935 32699 20201 11059 21070 39334 40289 52013 80001 333 55084 555 10107 50063 53006 7000/;EQDQ01+012502SCOLCBQ02  00002PRCP99
0112309350999992000100421004+50360+108750FM-12+077099999V0209999C000012200019N0500001N1-00071-00461101701ADDGF103991021001999999041011MD1710101+9999REMSYN060AAXX  04211 30935 42999 30000 11007 21046 40170 57010 82041;
0173309350999992000100500004+50360+108750FM-12+077099999V0209999C000019999999N0500001N1-00051-00361101761ADDAA199000091GF108991041001999999041011MA1999999092491MD1310061+9999REMSYN076AAXX  05001 30935 32999 80000 11005 21036 39249 40176 53006 84041 333 55086;EQDQ01  00002PRCP99
0112309350999992000100509004+50360+108750FM-12+077099999V0203301N001012200019N0500001N1+01391-00331101091ADDGF101991001001999999001011MD1710051+9999REMSYN060AAXX  05091 30935 42999 13301 10139 21033 40109 57005 80001;
0173309350999992000100600004+50360+108750FM-12+077099999V0201801N001010300019N0500001N1-00061-00241101521ADDAA199000091GF108991021051012501071999MA1999999092261MD1710011+9999REMSYN076AAXX  06001 30935 32699 81801 11006 21024 39226 40152 57001 8257/ 333 55092;EQDQ01  00002PRCP99
0201309350999992000100612004+50360+108750FM-12+077099999V0202901N001010075019N0100001N1+00201+00041101441ADDAA112011991AY161061AY261061GF108991051071008001071999KA1999M+00371MA1999999092281MD1310201+9999MW1611REMSYN088AAXX  06121 30935 11597 82901 10020 20004 39228 40144 53020 60122 76166 8577/ 333 10037;
0112309350999992000100621004+50360+108750FM-12+077099999V0203501N003010300019N0500001N1-00031-00631102311ADDGF108991021051012501071999MD1210221+9999REMSYN060AAXX  06211 30935 42699 83503 11003 21063 40231 52022 8257/;
0160309350999992000100700004+50360+108750FM-12+077099999V0202801N002010120019N0500001N1-00131-00841102561ADDAA112000891GF107991051051012501041001MA1999999093181MD1210191+9999REMSYN082AAXX  07001 30935 12699 72802 11013 21084 39318 40256 52019 69982 85540 333 55000;
0186309350999992000100712004+50360+108750FM-12+077099999V0209999C000012200019N0500001N1-00071-00461102331ADDAA199000091GF106991031051012501001011KA1999M+00331MA1999999093001MD1710011+9999REMSYN076AAXX  07121 30935 32699 60000 11007 21046 39300 40233 57001 83501 333 10033;EQDQ01  00002PRCP99
0231309350999992000100800004+50360+108750FM-12+077099999V0209999C000010021019N0040001N1-00451-00511102281ADDAA199000091AY111061AY211061GA1081+002109069GF108991081061001501999999GJ102649MA1999999092831MD1710111+9999MW1401REMSYN088AAXX  08001 30935 31296 80000 11045 21051 39283 40228 57011 74011 886// 333 55044 88707;EQDQ01  00002PRCP99
0140309350999992000100906004+50360+108750FM-12+077099999V0203501N002010120019N0100001N1-00091-00831102681ADDAY171061AY221061GF108991051051012501071999MD1210011+9999MW1151REMSYN066AAXX  09061 30935 41697 83502 11009 21083 40268 52001 71572 8557/;
0112309350999992000100909004+50360+108750FM-12+077099999V0203201N003010120019N0500001N1-00071-00841102641ADDGF108991061051012501071999MD1810031+9999REMSYN060AAXX  09091 30935 42699 83203 11007 21084 40264 58003 8657/;
0173309350999992000101000004+50360+108750FM-12+077099999V0201801N002012200019N0500001N1-00721-01061103341ADDAA199000091GF104991021051012501041011MA1999999093691MD1810011+9999REMSYN076AAXX  10001 30935 32699 41802 11072 21106 39369 40334 58001 82541 333 55000;EQDQ01  00002PRCP99
0140309350999992000101118004+50360+108750FM-12+077099999V0202401N003010300019N0100001N1-00381-00831104061ADDAY171061AY221061GF108991021051012501071999MD1410001+9999MW1711REMSYN066AAXX  11181 30935 41697 82403 11038 21083 40406 54000 77172 8257/;
0112309350999992000101218004+50360+108750FM-12+077099999V0209999C000012200019N0500001N1-00721-01011103381ADDGF103991021001999999031011MD1710111+9999REMSYN060AAXX  12181 30935 42999 30000 11072 21101 40338 57011 82031;
0112309350999992000101318004+50360+108750FM-12+077099999V0202701N004010300019N0500001N1-00071-01021102621ADDGF105991031051012501041001MD1210261+9999REMSYN060AAXX  13181 30935 42699 52704 11007 21102 40262 52026 83540;
0140309350999992000101321004+50360+108750FM-12+077099999V0202901N006012200019N0500001N1-00341-00991102891ADDAY171031AY211031GF102991021051012501001001MD1210171+9999MW1011REMSYN066AAXX  13211 30935 41699 22906 11034 21099 40289 52017 70171 82500;
0188309350999992000101400004+50360+108750FM-12+077099999V0202601N003012200019N0500001N1-00431-01171103111ADDAA112000791AY171061AY211061GF102991021051012501001001MA1999999093581MD1210161+9999MW1011REMSYN088AAXX  14001 30935 11699 22603 11043 21117 39358 40311 52016 69902 70171 82500 333 55016;
0112309350999992000101403004+50360+108750FM-12+077099999V0202901N006010300019N0500001N1-00271-00971103251ADDGF105991031051012501041001MD1210181+9999REMSYN060AAXX  14031 30935 42699 52906 11027 21097 40325 52018 83540;
0112309350999992000101406004+50360+108750FM-12+077099999V0202801N005012200019N0500001N1+00021-01371103151ADDGF104991021011012501001011MD1410001+9999REMSYN060AAXX  14061 30935 42699 42805 10002 21137 40315 54000 82101;
0196309350999992000101412004+50360+108750FM-12+077099999V0202901N002012200019N0500001N1-00401-01171103271ADDAA199000091GA1001+999999999GF100991001001999999001001KA1999M+00171MA1999999093741MD1810031+9999REMSYN070AAXX  14121 30935 32999 02902 11040 21117 39374 40327 58003 333 10017;EQDQ01  00002PRCP99
0122309350999992000101415004+50360+108750FM-12+077099999V0203201N002012200019N0500001N1-00671-01231103371ADDGA1001+999999999GF100991001001999999001001MD1410001+9999REMSYN054AAXX  14151 30935 42999 03202 11067 21123 40337 54000;
0122309350999992000101418004+50360+108750FM-12+077099999V0209999C000012200019N0500001N1-00961-01171103321ADDGA1001+999999999GF100991001001999999001001MD1810151+9999REMSYN054AAXX  14181 30935 42999 00000 11096 21117 40332 58015;
0173309350999992000101500004+50360+108750FM-12+077099999V0203101N001012200019N0500001N1-01211-01361102881ADDAA199000091GF101991001001999999001011MA1999999093101MD1710231+9999REMSYN076AAXX  15001 30935 32999 13101 11121 21136 39310 40288 57023 80001 333 55091;EQDQ01  00002PRCP99
0186309350999992000101512004+50360+108750FM-12+077099999V0202601N002010300019N0500001N1+00271-01001101591ADDAA199000091GF106991031051012501041011KA1999M+00891MA1999999092441MD1710061+9999REMSYN076AAXX  15121 30935 32699 62602 10027 21100 39244 40159 57006 83541 333 10089;EQDQ01  00002PRCP99
0112309350999992000101518004+50360+108750FM-12+077099999V0200101N001019999999N0500001N1-00261-00761101691ADDGF108991031051999999041051MD1710051+9999REMSYN060AAXX  15181 30935 42999 80101 11026 21076 40169 57005 83545;
0112309350999992000101603004+50360+108750FM-12+077099999V0202801N005010300019N0500001N1+00361-00611101851ADDGF107991031051012501041001MD1210191+9999REMSYN060AAXX  16031 30935 42699 72805 10036 21061 40185 52019 83540;
0112309350999992000101606004+50360+108750FM-12+077099999V0203301N007012200019N0500001N1+00321-01011102051ADDGF105991031021012501001011MD1210161+9999REMSYN060AAXX  16061 30935 42699 53307 10032 21101 40205 52016 83201;
0209309350999992000101700004+50360+108750FM-12+077099999V0209999C000012200019N0500001N1-01311-01521103571ADDAA199000091GF102991001001999999001011GJ102109MA1999999093691MD1210041+9999REMSYN104AAXX  17001 30935 32999 20000 11131 21152 39369 40357 52004 80001 333 55035 555 14114 51002 53006 7990/;EQDQ01  00002PRCP99
0186309350999992000101712004+50360+108750FM-12+077099999V0200601N002019999999N0500001N1+00021-01161101731ADDAA199000091GF108991081001999999071999KA1999M+00051MA1999999092481MD1710271+9999REMSYN076AAXX  17121 30935 32999 80602 10002 21116 39248 40173 57027 8807/ 333 10005;EQDQ01  00002PRCP99
0112309350999992000101815004+50360+108750FM-12+077099999V0202101N001010300019N0500001N1-00261-00911101621ADDGF107991021051012501041011MD1310051+9999REMSYN060AAXX  18151 30935 42699 72101 11026 21091 40162 53005 82541;
0112309350999992000101818004+50360+108750FM-12+077099999V0209999C000012200019N0500001N1-00811-01081101851ADDGF102991001001999999001011MD1210021+9999REMSYN060AAXX  18181 30935 42999 20000 11081 21108 40185 52002 80001;
0219309350999992000101900004+50360+108750FM-12+077099999V0201101N001019999999N0500001N1-01061-01191102141ADDAA199000091AJ100019199999999GF105991999001999999041011IA1239MD1210111+9999REMSYN082AAXX  19001 30935 32999 51101 11106 21119 31248 40214 52011 88041 333 2/111 47001;EQDQ01+000082SCOTLCQ02+012481APOSP Q03  00002PRCP99
0112309350999992000101915004+50360+108750FM-12+077099999V0209999C000019999999N0500001N1-00491-00811101511ADDGF105991021001999999041011MD1810051+9999REMSYN060AAXX  19151 30935 42999 50000 11049 21081 40151 58005 82041;
0112309350999992000102003004+50360+108750FM-12+077099999V0202901N001010120019N0500001N1-00241-00801101741ADDGF107991061011012501041011MD1210181+9999REMSYN060AAXX  20031 30935 42699 72901 11024 21080 40174 52018 86141;
0112309350999992000102006004+50360+108750FM-12+077099999V0202901N003012200019N0500001N1-00121-01331101941ADDGF103991021021012501001011MD1210221+9999REMSYN060AAXX  20061 30935 42699 32903 11012 21133 40194 52022 82201;
0122309350999992000102015004+50360+108750FM-12+077099999V0209999C000012200019N0500001N1-00981-01451102271ADDGA1001+999999999GF100991001001999999001001MD1410001+9999REMSYN054AAXX  20151 30935 42999 00000 11098 21145 40227 54000;
0218309350999992000102200004+50360+108750FM-12+077099999V0209999C000019999999N0500001N1-01111-01201101581ADDAA199000091AJ199992999999999GF108991021001999999041011IA1259MA1999999091961MD1710011+9999REMSYN082AAXX  22001 30935 32999 80000 11111 21120 39196 40158 57001 82041 333 41998 55089;EQDQ01  00002PRCP99Q02  09972SNDP  
0112309350999992000102206004+50360+108750FM-12+077099999V0201301N001012200019N0500001N1+00311-00981101001ADDGF102991001001999999001011MD1810081+9999REMSYN060AAXX  22061 30935 42999 21301 10031 21098 40100 58008 80001;
0112309350999992000102209004+50360+108750FM-12+077099999V0200501N001012200019N0500001N1+00501-01051100841ADDGF102991001001999999001011MD1710091+9999REMSYN060AAXX  22091 30935 42999 20501 10050 21105 40084 57009 80001;
0140309350999992000102315004+50360+108750FM-12+077099999V0202601N005019999999N0100001N1-01121-01641102941ADDAY171031AY221031GF108991031051999999021999MD1210201+9999MW1711REMSYN066AAXX  23151 30935 41997 82605 11112 21164 40294 52020 77172 8352/;
0112309350999992000102406004+50360+108750FM-12+077099999V0202601N006012200019N0500001N1-00621-01831103051ADDGF105991031091012501001011MD1810171+9999REMSYN060AAXX  24061 30935 42699 52606 11062 21183 40305 58017 83901;
0112309350999992000102409004+50360+108750FM-12+077099999V0202901N004012200019N0500001N1-00631-01931103021ADDGF105991031091012501001011MD1710021+9999REMSYN060AAXX  24091 30935 42699 52904 11063 21193 40302 57002 83901;
0186309350999992000102412004+50360+108750FM-12+077099999V0203101N001012200019N0500001N1-01121-01921103201ADDAA199000091GF102991001001999999001011KA1999M-00601MA1999999093421MD1710011+9999REMSYN076AAXX  24121 30935 32999 23101 11112 21192 39342 40320 57001 80001 333 11060;EQDQ01  00002PRCP99
0112309350999992000102606004+50360+108750FM-12+077099999V0200501N002019999999N0500001N1-00981-01511103261ADDGF107991021001999999041011MD1710171+9999REMSYN060AAXX  26061 30935 42999 70502 11098 21151 40326 57017 82041;
0112309350999992000102615004+50360+108750FM-12+077099999V0209999C000012200019N0500001N1-01341-01611103361ADDGF102991001001999999001011MD1210041+9999REMSYN060AAXX  26151 30935 42999 20000 11134 21161 40336 52004 80001;
0122309350999992000102721004+50360+108750FM-12+077099999V0209999C000012200019N0500001N1-01421-01551104151ADDGA1001+999999999GF100991001001999999001001MD1810051+9999REMSYN054AAXX  27211 30935 42999 00000 11142 21155 40415 58005;
0112309350999992000102803004+50360+108750FM-12+077099999V0201601N001012200019N0500001N1-00801-01311103631ADDGF103991001001999999001011MD1710201+9999REMSYN060AAXX  28031 30935 42999 31601 11080 21131 40363 57020 80001;
0186309350999992000102912004+50360+108750FM-12+077099999V0203201N001019999999N0500001N1-00361-01061101851ADDAA199000091GF105991051001999999041001KA1999M-00181MA1999999092461MD1310121+9999REMSYN076AAXX  29121 30935 32999 53201 11036 21106 39246 40185 53012 85040 333 11018;EQDQ01  00002PRCP99
0112309350999992000103103004+50360+108750FM-12+077099999V0202101N001012200019N0500001N1-00761-00761102171ADDGF102991001001999999001011MD1710111+9999REMSYN060AAXX  31031 30935 42999 22101 11076 21076 40217 57011 80001;
0202309350999992000103112004+50360+108750FM-12+077099999V0209999C000012200019N0500001N1-00541-00961101191ADDAA199000091GF103991001001999999001011KA1120M+00261MA1999999091811MD1710131+9999REMSYN092AAXX  31121 30935 32999 30000 11054 21096 39181 40119 57013 80001 333 10026 555 14109 53004;EQDQ01  00002PRCP99
0214309350999992000110112004+50360+108750FM-12+077099999V0202701N003010300019N0100001N1+00101-00461101531ADDAA199000091AY121061AY221061GF108991021051012501071999KA1999M+00201MA1999999092331MD1210231+9999MW1151REMSYN082AAXX  01121 30935 31697 82703 10010 21046 39233 40153 52023 71522 8257/ 333 10020;EQDQ01  00002PRCP99
0112309350999992000110121004+50360+108750FM-12+077099999V0203101N003012200019N0500001N1-00671-01041101921ADDGF102991021001999999041001MD1310021+9999REMSYN060AAXX  01211 30935 42999 23103 11067 21104 40192 53002 82040;
0186309350999992000110212004+50360+108750FM-12+077099999V0200501N001012200019N0500001N1-00361-00761101711ADDAA199000091GF102991021001999999041011KA1999M+00281MA1999999092341MD1310041+9999REMSYN076AAXX  02121 30935 32999 20501 11036 21076 39234 40171 53004 82041 333 10028;EQDQ01  00002PRCP99
0217309350999992000110300004+50360+108750FM-12+077099999V0209999C000019999999N0100001N1-00491-00591101501ADDAA112001091AJ100029199999999AY171061AY221061GF108991081001999999021999IA1239MA1999999092111MD1710071+9999MW1711REMSYN094AAXX  03001 30935 11997 80000 11049 21059 39211 40150 57007 60012 77172 8802/ 333 47002 55064;
0140309350999992000110306004+50360+108750FM-12+077099999V0202701N007019999999N0100001N1-00261-00741101281ADDAY171061AY271061GF108991081001999999021999MD1710091+9999MW1711REMSYN066AAXX  03061 30935 41997 82707 11026 21074 40128 57009 77177 8802/;
0140309350999992000110309004+50360+108750FM-12+077099999V0203201N008019999999N0100001N1-00341-00811101361ADDAY171031AY271031GF108991081001999999021999MD1310051+9999MW1711REMSYN066AAXX  03091 30935 41997 83208 11034 21081 40136 53005 77177 8802/;
0201309350999992000110312004+50360+108750FM-12+077099999V0203301N006019999999N0100001N1-00391-00841101481ADDAA112001091AY171061AY231061GF108991081001999999021999KA1999M-00221MA1999999092121MD1210091+9999MW1711REMSYN088AAXX  03121 30935 11997 83306 11039 21084 39212 40148 52009 60012 77173 8802/ 333 11022;
0112309350999992000110421004+50360+108750FM-12+077099999V0203001N002019999999N0500001N1-01111-01391102091ADDGF105991041001999999031021MD1210031+9999REMSYN060AAXX  04211 30935 42999 53002 11111 21139 40209 52003 84032;
0140309350999992000110618004+50360+108750FM-12+077099999V0202601N004010300019N0100001N1-01731-02071104111ADDAY171061AY211061GF108991021051012501071999MD1810031+9999MW1711REMSYN066AAXX  06181 30935 41697 82604 11173 21207 40411 58003 77171 8257/;
0140309350999992000110706004+50360+108750FM-12+077099999V0201801N002019999999N0100001N1-01311-01741104091ADDAY171061AY271061GF108991051001999999041011MD1810061+9999MW1711REMSYN066AAXX  07061 30935 41997 81802 11131 21174 40409 58006 77177 85041;
0112309350999992000110709004+50360+108750FM-12+077099999V0201901N001012200019N0500001N1-01261-02091104071ADDGF102991021001999999041011MD1410001+9999REMSYN060AAXX  07091 30935 42999 21901 11126 21209 40407 54000 82041;
0112309350999992000110821004+50360+108750FM-12+077099999V0202901N001012200019N0500001N1-02511-02751104661ADDGF101991001001999999001011MD1210021+9999REMSYN060AAXX  08211 30935 42999 12901 11251 21275 40466 52002 80001;
0112309350999992000110903004+50360+108750FM-12+077099999V0202101N001012200019N0500001N1-01941-02131104531ADDGF102991021001999999041001MD1210031+9999REMSYN060AAXX  09031 30935 42999 22101 11194 21213 40453 52003 82040;
0112309350999992000110909004+50360+108750FM-12+077099999V0202301N001012200019N0500001N1-01131-01851103971ADDGF102991021021012501001001MD1710101+9999REMSYN060AAXX  09091 30935 42699 22301 11113 21185 40397 57010 82200;
0112309350999992000110921004+50360+108750FM-12+077099999V0200601N001012200019N0500001N1-02241-02491104361ADDGF103991031001999999031001MD1710021+9999REMSYN060AAXX  09211 30935 42999 30601 11224 21249 40436 57002 83030;
0230309350999992000111100004+50360+108750FM-12+077099999V0202701N003019999999N0100001N1+99999+99999103221ADDAA112000591AJ100049199999999AY171061AY221061GF108991081001999999021999IA1239KA1120N-01691MA1999999093391MD1710061+9999MW1711REMSYN094AAXX  11001 30935 11997 82703 21153 39339 40322 57006 69942 77172 8802/ 333 21169 47004 55024;
0112309350999992000111321004+50360+108750FM-12+077099999V0202701N001019999999N0500001N1-01751-02341103731ADDGF107991041001999999041011MD1210121+9999REMSYN060AAXX  13211 30935 42999 72701 11175 21234 40373 52012 84041;
0112309350999992000111518004+50360+108750FM-12+077099999V0209999C000019999999N0500001N1-02051-02241104101ADDGF108991001001999999001051MD1710061+9999REMSYN060AAXX  15181 30935 42999 80000 11205 21224 40410 57006 80005;
0112309350999992000111706004+50360+108750FM-12+077099999V0200201N001012200019N0500001N1-01361-01881103201ADDGF103991021001999999041011MD1810151+9999REMSYN060AAXX  17061 30935 42999 30201 11136 21188 40320 58015 82041;
0112309350999992000111818004+50360+108750FM-12+077099999V0209999C000012200019N0500001N1-02371-02551104331ADDGF102991001001999999001011MD1210011+9999REMSYN060AAXX  18181 30935 42999 20000 11237 21255 40433 52001 80001;
0122309350999992000112015004+50360+108750FM-12+077099999V0209999C000012200019N0500001N1-02711-02881103581ADDGA1001+999999999GF100991001001999999001001MD1410001+9999REMSYN054AAXX  20151 30935 42999 00000 11271 21288 40358 54000;
0122309350999992000112021004+50360+108750FM-12+077099999V0209999C000012200019N0500001N1-03061-03291103441ADDGA1001+999999999GF100991001001999999001001MD1710161+9999REMSYN054AAXX  20211 30935 42999 00000 11306 21329 40344 57016;
0230309350999992000112200004+50360+108750FM-12+077099999V0202201N001019999999N0100001N1-02191-02441103161ADDAA199000091AJ100089199999999AY121061AY221061GF108991081001999999021999IA1239MA1999999092991MD1210191+9999MW1151REMSYN088AAXX  22001 30935 31997 82201 11219 21244 39299 40316 52019 71522 8802/ 333 47008 55053;EQDQ01  00002PRCP99
0122309350999992000112218004+50360+108750FM-12+077099999V0209999C000012200019N0500001N1-02501-02741103281ADDGA1001+999999999GF100991001001999999001001MD1410001+9999REMSYN054AAXX  22181 30935 42999 00000 11250 21274 40328 54000;
0112309350999992000112403004+50360+108750FM-12+077099999V0209999C000012200019N0500001N1-02551-02801103441ADDGF101991001001999999001011MD1310011+9999REMSYN060AAXX  24031 30935 42999 10000 11255 21280 40344 53001 80001;
0122309350999992000112521004+50360+108750FM-12+077099999V0209999C000012200019N0500001N1-03061-03291103781ADDGA1001+999999999GF100991001001999999001001MD1810011+9999REMSYN054AAXX  25211 30935 42999 00000 11306 21329 40378 58001;
0202309350999992000112600004+50360+108750FM-12+077099999V0209999C000012200019N0500001N1-02991-03301103851ADDAA199000091AJ100089199999999GF103991021001999999041011IA1239MA1999999093301MD1310101+9999REMSYN082AAXX  26001 30935 32999 30000 11299 21330 39330 40385 53010 82041 333 47008 55061;EQDQ01  00002PRCP99
0142309350999992000112606004+50360+108750FM-12+077099999V0209999C000019999999N0500001N1-02161-02561103581ADDAA199000091GF105991001001999999001011MD1810091+9999REMSYN060AAXX  26061 30935 32999 50000 11216 21256 40358 58009 80001;EQDQ01  00002PRCP99
0122309350999992000112615004+50360+108750FM-12+077099999V0209999C000012200019N0500001N1-02871-03121103701ADDGA1001+999999999GF100991001001999999001001MD1410001+9999REMSYN054AAXX  26151 30935 42999 00000 11287 21312 40370 54000;
0112309350999992000112709004+50360+108750FM-12+077099999V0209999C000019999999N0500001N1-02031-02441103141ADDGF105991001001999999001011MD1710241+9999REMSYN060AAXX  27091 30935 42999 50000 11203 21244 40314 57024 80001;
0112309350999992000112721004+50360+108750FM-12+077099999V0209999C000012200019N0500001N1-02571-02811102901ADDGF102991001001999999001011MD1710071+9999REMSYN060AAXX  27211 30935 42999 20000 11257 21281 40290 57007 80001;
0183309350999992000112812004+50360+108750FM-12+077099999V0209999C000012200019N0500001N1-02241-02491103281ADDAA112000191GA1001+999999999GF100991001001999999001001KA1999M-01711MA1999999093081MD1210071+9999REMSYN076AAXX  28121 30935 12999 00000 11224 21249 39308 40328 52007 69922 333 11171;
0122309350999992000112821004+50360+108750FM-12+077099999V0209999C000012200019N0500001N1-02871-03121103491ADDGA1001+999999999GF100991001001999999001001MD1710091+9999REMSYN054AAXX  28211 30935 42999 00000 11287 21312 40349 57009;
0212309350999992000112900004+50360+108750FM-12+077099999V0209999C000012200019N0500001N1-02831-03001103431ADDAA199000091AJ100089199999999GA1001+999999999GF100991001001999999001001IA1239MA1999999092981MD1710041+9999REMSYN076AAXX  29001 30935 32999 00000 11283 21300 39298 40343 57004 333 47008 55035;EQDQ01  00002PRCP99
0217309350999992000120100004+50360+108750FM-12+077099999V0201501N001019999999N0500001N1-01521-01791102661ADDAA112001091AJ100099199999999AY171061AY221061GF108991081001999999021999IA1239MA1999999092791MD1210311+9999MW1011REMSYN094AAXX  01001 30935 11999 81501 11152 21179 39279 40266 52031 60012 70172 8802/ 333 47009 55049;
0112309350999992000120309004+50360+108750FM-12+077099999V0209999C000019999999N0500001N1-02251-02571101541ADDGF107991041001999999031021MD1710221+9999REMSYN060AAXX  03091 30935 42999 70000 11225 21257 40154 57022 84032;
0112309350999992000120409004+50360+108750FM-12+077099999V0203001N001012200019N0500001N1-01671-02011102651ADDGF102991021001999999041011MD1710141+9999REMSYN060AAXX  04091 30935 42999 23001 11167 21201 40265 57014 82041;
0112309350999992000120503004+50360+108750FM-12+077099999V0209999C000019999999N0500001N1-02471-02711102261ADDGF108991031001999999041011MD1710011+9999REMSYN060AAXX  05031 30935 42999 80000 11247 21271 40226 57001 83041;
0236309350999992000120600004+50360+108750FM-12+077099999V0200701N001019999999N0500001N1-02241-02421103141ADDAA112000791AJ100089199999999AY171061AY221061GF106991021001999999041051IA1239KA1120N-02451MA1999999092951MD1210231+9999MW1011REMSYN100AAXX  06001 30935 11999 60701 11224 21242 39295 40314 52023 69902 70172 82045 333 21245 47008 55001;
0112309350999992000120606004+50360+108750FM-12+077099999V0200401N001012200019N0500001N1-01601-01941103061ADDGF104991001001999999001011MD1810031+9999REMSYN060AAXX  06061 30935 42999 40401 11160 21194 40306 58003 80001;
0202309350999992000120700004+50360+108750FM-12+077099999V0209999C000019999999N0500001N1-02291-02481102801ADDAA199000091AJ100089199999999GF105991031001999999041011IA1239MA1999999092631MD1710091+9999REMSYN082AAXX  07001 30935 32999 50000 11229 21248 39263 40280 57009 83041 333 47008 55035;EQDQ01  00002PRCP99
0186309350999992000120712004+50360+108750FM-12+077099999V0200601N001012200019N0500001N1-02261-02441102881ADDAA199000091GF102991001001999999001011KA1999M-01511MA1999999092721MD1310211+9999REMSYN076AAXX  07121 30935 32999 20601 11226 21244 39272 40288 53021 80001 333 11151;EQDQ01  00002PRCP99
0112309350999992000120815004+50360+108750FM-12+077099999V0201901N002019999999N0500001N1-01891-02151103341ADDGF108991081001999999021999MD1210011+9999REMSYN060AAXX  08151 30935 42999 81902 11189 21215 40334 52001 8802/;
0112309350999992000120821004+50360+108750FM-12+077099999V0203601N001012200019N0500001N1-02431-02751103691ADDGF102991001001999999001011MD1210061+9999REMSYN060AAXX  08211 30935 42999 23601 11243 21275 40369 52006 80001;
0122309350999992000120903004+50360+108750FM-12+077099999V0202501N001012200019N0500001N1-02301-02631103871ADDGA1001+999999999GF100991001001999999001001MD1210141+9999REMSYN054AAXX  09031 30935 42999 02501 11230 21263 40387 52014;
0196309350999992000120912004+50360+108750FM-12+077099999V0202701N001012200019N0500001N1-02531-02841104011ADDAA199000091GA1001+999999999GF100991001001999999001001KA1999M-01761MA1999999093631MD1310061+9999REMSYN070AAXX  09121 30935 32999 02701 11253 21284 39363 40401 53006 333 11176;EQDQ01  00002PRCP99
0230309350999992000121000004+50360+108750FM-12+077099999V0201301N001019999999N0100001N1-02751-02991104081ADDAA199000091AJ100089199999999AY121061AY221061GF108991081001999999071999IA1239MA1999999093601MD1310031+9999MW1151REMSYN088AAXX  10001 30935 31997 81301 11275 21299 39360 40408 53003 71522 8807/ 333 47008 55039;EQDQ01  00002PRCP99
0140309350999992000121003004+50360+108750FM-12+077099999V0209999C000019999999N0100001N1-02631-02871104181ADDAY171031AY221031GF108991081001999999021999MD1210141+9999MW1711REMSYN066AAXX  10031 30935 41997 80000 11263 21287 40418 52014 77172 8802/;
0212309350999992000121100004+50360+108750FM-12+077099999V0209999C000012200019N0500001N1-03781-04051105341ADDAA199000091AJ100089199999999GA1001+999999999GF100991001001999999001001IA1239MA1999999094291MD1810041+9999REMSYN076AAXX  11001 30935 32999 00000 11378 21405 39429 40534 58004 333 47008 55037;EQDQ01  00002PRCP99
0122309350999992000121103004+50360+108750FM-12+077099999V0200501N001012200019N0500001N1-03471-03771105151ADDGA1001+999999999GF100991001001999999001001MD1710031+9999REMSYN054AAXX  11031 30935 42999 00501 11347 21377 40515 57003;
0112309350999992000121203004+50360+108750FM-12+077099999V0209999C000019999999N0500001N1-02961-03261104101ADDGF107991061001999999031011MD1710031+9999REMSYN060AAXX  12031 30935 42999 70000 11296 21326 40410 57003 86031;
0186309350999992000121312004+50360+108750FM-12+077099999V0209999C000019999999N0500001N1-02281-02531102181ADDAA199000091GF106991041001999999041021KA1999M-02071MA1999999092071MD1710081+9999REMSYN076AAXX  13121 30935 32999 60000 11228 21253 39207 40218 57008 84042 333 11207;EQDQ01  00002PRCP99
0217309350999992000121400004+50360+108750FM-12+077099999V0203101N001019999999N0100001N1-01971-02231101861ADDAA112000391AJ100089199999999AY171061AY221061GF108991081001999999021999IA1239MA1999999091901MD1310071+9999MW1711REMSYN094AAXX  14001 30935 11997 83101 11197 21223 39190 40186 53007 69932 77172 8802/ 333 47008 55028;
0212309350999992000121500004+50360+108750FM-12+077099999V0203001N001012200019N0500001N1-02721-02961103431ADDAA199000091AJ100089199999999GA1001+999999999GF100991001001999999001001IA1239MA1999999093031MD1210031+9999REMSYN076AAXX  15001 30935 32999 03001 11272 21296 39303 40343 52003 333 47008 55008;EQDQ01  00002PRCP99
0122309350999992000121603004+50360+108750FM-12+077099999V0209999C000012200019N0500001N1-02871-03121103471ADDGA1001+999999999GF100991001001999999001001MD1210011+9999REMSYN054AAXX  16031 30935 42999 00000 11287 21312 40347 52001;
0212309350999992000121700004+50360+108750FM-12+077099999V0209999C000012200019N0500001N1-03151-03451103171ADDAA199000091AJ100089199999999GA1001+999999999GF100991001001999999001001IA1239MA1999999092621MD1810121+9999REMSYN076AAXX  17001 30935 32999 00000 11315 21345 39262 40317 58012 333 47008 55061;EQDQ01  00002PRCP99
0122309350999992000121718004+50360+108750FM-12+077099999V0209999C000012200019N0500001N1-03041-03271104011ADDGA1001+999999999GF100991001001999999001001MD1210241+9999REMSYN054AAXX  17181 30935 42999 00000 11304 21327 40401 52024;
0122309350999992000121721004+50360+108750FM-12+077099999V0200501N001012200019N0500001N1-02661-02901103881ADDGA1001+999999999GF100991001001999999001001MD1210041+9999REMSYN054AAXX  17211 30935 42999 00501 11266 21290 40388 52004;
0112309350999992000121903004+50360+108750FM-12+077099999V0200701N001019999999N0500001N1-02421-02661103401ADDGF107991011001999999041011MD1210131+9999REMSYN060AAXX  19031 30935 42999 70701 11242 21266 40340 52013 81041;
0186309350999992000122012004+50360+108750FM-12+077099999V0209999C000019999999N0500001N1-01721-01981102221ADDAA199000091GF108991051001999999071051KA1999M-01441MA1999999092321MD1710111+9999REMSYN076AAXX  20121 30935 32999 80000 11172 21198 39232 40222 57011 85075 333 11144;EQDQ01  00002PRCP99
0140309350999992000122021004+50360+108750FM-12+077099999V0209999C000019999999N0100001N1-01661-01851102121ADDAY171031AY221031GF108991081001999999021999MD1210011+9999MW1711REMSYN066AAXX  20211 30935 41997 80000 11166 21185 40212 52001 77172 8802/;
0217309350999992000122100004+50360+108750FM-12+077099999V0209999C000019999999N0500001N1-01601-01791102141ADDAA112000891AJ100099199999999AY171061AY221061GF108991081001999999021999IA1239MA1999999092291MD1210041+9999MW1011REMSYN094AAXX  21001 30935 11999 80000 11160 21179 39229 40214 52004 69972 70172 8802/ 333 47009 55034;
0173309350999992000122112004+50360+108750FM-12+077099999V0202201N003012200019N0500001N1-01001-01201102271ADDAA112000191GF103991021001999999041011KA1999M-00841MA1999999092621MD1210111+9999REMSYN082AAXX  21121 30935 12999 32203 11100 21120 39262 40227 52011 69922 82041 333 11084;
0122309350999992000122221004+50360+108750FM-12+077099999V0209999C000012200019N0500001N1-03271-03571103641ADDGA1001+999999999GF100991001001999999001001MD1710061+9999REMSYN054AAXX  22211 30935 42999 00000 11327 21357 40364 57006;
0212309350999992000122300004+50360+108750FM-12+077099999V0200601N001012200019N0500001N1-03451-03741103661ADDAA199000091AJ100099199999999GA1001+999999999GF100991001001999999001001IA1239MA1999999092941MD1710051+9999REMSYN076AAXX  23001 30935 32999 00601 11345 21374 39294 40366 57005 333 47009 55021;EQDQ01  00002PRCP99
0112309350999992000122303004+50360+108750FM-12+077099999V0200601N001012200019N0500001N1-03201-03501103541ADDGF103991021001999999031011MD1710011+9999REMSYN060AAXX  23031 30935 42999 30601 11320 21350 40354 57001 82031;
0196309350999992000122312004+50360+108750FM-12+077099999V0209999C000012200019N0500001N1-03031-03341103581ADDAA199000091GA1001+999999999GF100991001001999999001001KA1999M-02491MA1999999093041MD1310211+9999REMSYN070AAXX  23121 30935 32999 00000 11303 21334 39304 40358 53021 333 11249;EQDQ01  00002PRCP99
0212309350999992000122400004+50360+108750FM-12+077099999V0209999C000012200019N0500001N1-03441-03741104141ADDAA199000091AJ100099199999999GA1001+999999999GF100991001001999999001001IA1239MA1999999093361MD1210051+9999REMSYN076AAXX  24001 30935 32999 00000 11344 21374 39336 40414 52005 333 47009 55062;EQDQ01  00002PRCP99
0140309350999992000122406004+50360+108750FM-12+077099999V0201201N001010300019N0100001N1-02601-02911103861ADDAY171061AY211061GF108991011051012501031021MD1810091+9999MW1151REMSYN066AAXX  24061 30935 41697 81201 11260 21291 40386 58009 71571 81532;
0160309350999992000122412004+50360+108750FM-12+077099999V0209999C000012200019N0500001N1-02991-03231104181ADDAA112000791GA1001+999999999GF100991001001999999001001MA1999999093591MD1210091+9999REMSYN066AAXX  24121 30935 12999 00000 11299 21323 39359 40418 52009 69902;
0212309350999992000122500004+50360+108750FM-12+077099999V0209999C000012200019N0500001N1-03651-03941104581ADDAA199000091AJ100099199999999GA1001+999999999GF100991001001999999001001IA1239MA1999999093671MD1810081+9999REMSYN076AAXX  25001 30935 32999 00000 11365 21394 39367 40458 58008 333 47009 55035;EQDQ01  00002PRCP99
0189309350999992000122600004+50360+108750FM-12+077099999V0209999C000019999999N0500001N1-02761-03061104241ADDAA112000791AJ100099199999999GF106991031001999999041061IA1239MA1999999093741MD1210011+9999REMSYN088AAXX  26001 30935 11999 60000 11276 21306 39374 40424 52001 69902 83046 333 47009 55060;
0202309350999992000122700004+50360+108750FM-12+077099999V0209999C000012200019N0500001N1-03231-03521104661ADDAA199000091AJ100099199999999GF102991001001999999001011IA1239MA1999999093931MD1810051+9999REMSYN082AAXX  27001 30935 32999 20000 11323 21352 39393 40466 58005 80001 333 47009 55022;EQDQ01  00002PRCP99
0173309350999992000122712004+50360+108750FM-12+077099999V0209999C000012200019N0500001N1-02731-03041103811ADDAA112000791GF102991001001999999001011KA1999M-02211MA1999999093361MD1710051+9999REMSYN082AAXX  27121 30935 12999 20000 11273 21304 39336 40381 57005 69902 80001 333 11221;
0112309350999992000122721004+50360+108750FM-12+077099999V0209999C000012200019N0500001N1-02831-03131103341ADDGF103991001001999999001051MD1710101+9999REMSYN060AAXX  27211 30935 42999 30000 11283 21313 40334 57010 80005;
0202309350999992000122800004+50360+108750FM-12+077099999V0209999C000012200019N0500001N1-02901-03201103361ADDAA199000091AJ100099199999999GF103991001001999999001011IA1239MA1999999092891MD1710011+9999REMSYN082AAXX  28001 30935 32999 30000 11290 21320 39289 40336 57001 80001 333 47009 55057;EQDQ01  00002PRCP99
0112309350999992000122803004+50360+108750FM-12+077099999V0209999C000019999999N0500001N1-02721-02961103381ADDGF108991001001999999001061MD1310101+9999REMSYN060AAXX  28031 30935 42999 80000 11272 21296 40338 53010 80006;
0112309350999992000122806004+50360+108750FM-12+077099999V0209999C000019999999N0500001N1-02171-02491103181ADDGF108991081001999999021999MD1210031+9999REMSYN060AAXX  28061 30935 42999 80000 11217 21249 40318 52003 8802/;
0186309350999992000122812004+50360+108750FM-12+077099999V0209999C000012200019N0500001N1-02491-02741103201ADDAA199000091GF103991031001999999031001KA1999M-02101MA1999999092911MD1710041+9999REMSYN076AAXX  28121 30935 32999 30000 11249 21274 39291 40320 57004 83030 333 11210;EQDQ01  00002PRCP99
0217309350999992000122900004+50360+108750FM-12+077099999V0209999C000019999999N0100001N1-02421-02661102231ADDAA112000391AJ100099199999999AY171061AY211061GF108991081001999999021999IA1239MA1999999092071MD1710221+9999MW1711REMSYN094AAXX  29001 30935 11997 80000 11242 21266 39207 40223 57022 69932 77171 8802/ 333 47009 55001;
0202309350999992000123000004+50360+108750FM-12+077099999V0209999C000019999999N0500001N1-02301-02491103531ADDAA199000091AJ100139199999999GF105991001001999999001011IA1239MA1999999093281MD1210081+9999REMSYN082AAXX  30001 30935 32999 50000 11230 21249 39328 40353 52008 80001 333 47013 55000;EQDQ01  00002PRCP99
0112309350999992000123009004+50360+108750FM-12+077099999V0203201N001019999999N0500001N1-01891-02221103141ADDGF105991021001999999041011MD1710201+9999REMSYN060AAXX  30091 30935 42999 53201 11189 21222 40314 57020 82041;
0186309350999992000123012004+50360+108750FM-12+077099999V0200301N001012200019N0500001N1-02571-02741103171ADDAA199000091GF102991001001999999001011KA1999M-01511MA1999999092851MD1710231+9999REMSYN076AAXX  30121 30935 32999 20301 11257 21274 39285 40317 57023 80001 333 11151;EQDQ01  00002PRCP99
0202309350999992000123100004+50360+108750FM-12+077099999V0209999C000012200019N0500001N1-02771-03011102501ADDAA199000091AJ100139199999999GF102991001001999999001011IA1239MA1999999092171MD1710111+9999REMSYN082AAXX  31001 30935 32999 20000 11277 21301 39217 40250 57011 80001 333 47013 55060;EQDQ01  00002PRCP99
0140309350999992000123109004+50360+108750FM-12+077099999V0202001N001019999999N0100001N1-01941-02201101771ADDAY171031AY221031GF108991081001999999021999MD1710041+9999MW1711REMSYN066AAXX  31091 30935 41997 82001 11194 21220 40177 57004 77172 8802/;
0201309350999992000123112004+50360+108750FM-12+077099999V0200801N003019999999N0100001N1-01461-01811101711ADDAA112000191AY171061AY221061GF108991081001999999021999KA1999M-01451MA1999999091951MD1310111+9999MW1711REMSYN088AAXX  31121 30935 11997 80803 11146 21181 39195 40171 53011 69922 77172 8802/ 333 11145;
