0161334150999992000010100004+49570+025600FM-12+032499999V0209999C000010360019N0100001N1-00611-00691102561ADDAY181061AY221061GF107991041031012501031001MA1999999098351MD1710031+9999MW1851REMSYN072AAXX  01001 33415 41697 70000 11061 21069 39835 40256 57003 78582 84330;
0156334150999992000010103004+49570+025600FM-12+032499999V0209999V002010360019N0100001N1-00421-00511102531ADDAY181031AY221031GF107991021031012501031001MD1410001+9999MW1021REMSYN082AAXX  01031 33415 41697 79902 11042 21051 40253 54000 70282 82330 555 21062 7993/;
0209334150999992000010106004+49570+025600FM-12+032499999V0202701N003010360019N0100001N1-00281-00351102471ADDAA112000791AJ100179199999999AY181061AY221061GF107991031051012501031001IA1239KA1120N-00621MD1810031+9999MW1021REMSYN088AAXX  01061 33415 11697 72703 11028 21035 40247 58003 69902 70282 83530 333 21062 47017;
0166334150999992000010109004+49570+025600FM-12+032499999V0203101N002010024019N0020001N1-00261-00321102451ADDAY121031AY221031GA1061+002409069GF108991061071002501031999MD1710021+9999MW1101REMSYN076AAXX  01091 33415 41395 83102 11026 21032 40245 57002 71022 8673/ 333 86708;
0187334150999992000010112004+49570+025600FM-12+032499999V0203301N003010036019N0040001N1-00191-00341102341ADDAY121061AY221061GA1061+003609069GF108991061071004501031999MA1999999098221MD1710081+9999MW1101REMSYN082AAXX  01121 33415 41496 83303 11019 21034 39822 40234 57008 71022 8673/ 333 86712;
0166334150999992000010115004+49570+025600FM-12+032499999V0203101N003010360019N0040001N1-00261-00391102401ADDAY121031AY221031GA1031+005709059GF108991031051004501031999MD1310041+9999MW1101REMSYN076AAXX  01151 33415 41496 83103 11026 21039 40240 53004 71022 8353/ 333 83619;
0215334150999992000010118004+49570+025600FM-12+032499999V0202901N002010360019N0040001N1-00321-00461102411ADDAA106000091AY121061AY221061GA1041+005709059GF107991041051004501031001KA1120M-00191MD1810011+9999MW1101REMSYN082AAXX  01181 33415 31496 72902 11032 21046 40241 58001 71022 84530 333 11019 84619;EQDQ01  00002PRCP06
0166334150999992000010121004+49570+025600FM-12+032499999V0209999C000010024019N0040001N1-00351-00461102441ADDAY121031AY221031GA1061+002409069GF108991061071002501031999MD1310031+9999MW1101REMSYN076AAXX  01211 33415 41396 80000 11035 21046 40244 53003 71022 8673/ 333 86708;
0187334150999992000010200004+49570+025600FM-12+032499999V0209999C000010039019N0040001N1-00281-00381102511ADDAY121061AY221061GA1081+003909059GF108991081051004501999999MA1999999098361MD1210081+9999MW1101REMSYN082AAXX  02001 33415 41496 80000 11028 21038 39836 40251 52008 71022 885// 333 88613;
0212334150999992000010203004+49570+025600FM-12+032499999V0202701N002010030019N0040001N1-00261-00361102541ADDAA106000091AY121031AY221031GA1081+003009069GF108991081051004501999999MD1210031+9999MW1101REMSYN092AAXX  02031 33415 31496 82702 11026 21036 40254 52003 71022 885// 333 88610 555 21036 7000/;EQDQ01  00002PRCP06
0244334150999992000010206004+49570+025600FM-12+032499999V0203101N004010027019N0040001N1-00281-00381102611ADDAA106000091AJ100169199999999AY121061AY221061GA1081+002709069GF108991081061002501999999IA1239KA1120N-00361MD1210071+9999MW1101REMSYN088AAXX  02061 33415 31396 83104 11028 21038 40261 52007 71022 886// 333 21036 47016 88709;EQDQ01  00002PRCP06
0166334150999992000010209004+49570+025600FM-12+032499999V0202901N004010027019N0040001N1-00271-00371102781ADDAY121031AY221031GA1081+002709069GF108991081061004501999999MD1210161+9999MW1101REMSYN076AAXX  02091 33415 41496 82904 11027 21037 40278 52016 71022 886// 333 88709;
0187334150999992000010212004+49570+025600FM-12+032499999V0202901N002010039019N0040001N1-00231-00421102801ADDAY121061AY221061GA1051+003909059GF107991041051004501031001MA1999999098641MD1210021+9999MW1101REMSYN082AAXX  02121 33415 41496 72902 11023 21042 39864 40280 52002 71022 84530 333 85613;
0166334150999992000010215004+49570+025600FM-12+032499999V0202701N003010051019N0040001N1-00431-00621102841ADDAY121031AY221031GA1051+005109059GF107991051051004501031001MD1210011+9999MW1101REMSYN076AAXX  02151 33415 41496 72703 11043 21062 40284 52001 71022 85530 333 85617;
0215334150999992000010218004+49570+025600FM-12+032499999V0202901N002010360019N0040001N1-00441-00641102861ADDAA106000091AY121061AY221061GA1041+005409059GF107991041051004501031001KA1120M-00221MD1210021+9999MW1101REMSYN082AAXX  02181 33415 31496 72902 11044 21064 40286 52002 71022 84530 333 11022 84618;EQDQ01  00002PRCP06
0134334150999992000010221004+49570+025600FM-12+032499999V0202701N002019999999N0005001N1-00691-00691102911ADDAY141031AY221031GF108991999999999999999999MD1410001+9999MW1491REMSYN060AAXX  02211 33415 41/93 82702 11069 21069 40291 54000 74942;
0155334150999992000010300004+49570+025600FM-12+032499999V0202701N002019999999N0005001N1-00731-00731102891ADDAY141061AY221061GF108991999999999999999999MA1999999098651MD1810021+9999MW1491REMSYN066AAXX  03001 33415 41/93 82702 11073 21073 39865 40289 58002 74942;
0180334150999992000010303004+49570+025600FM-12+032499999V0209999C000019999999N0005001N1-00171-01171102891ADDAA106000091AY141031AY241031GF108991999999999999999999MD1710081+9999MW1491REMSYN076AAXX  03031 33415 31/93 80000 11017 21117 40289 57008 74944 555 21118 7000/;EQDQ01  00002PRCP06
0222334150999992000010306004+49570+025600FM-12+032499999V0202501N003010360019N0040001N1-00971-01141102591ADDAA106000091AJ100169199999999AY141061AY221061GF107991041051008001031001IA1239KA1120N-01181MD1710241+9999MW1101REMSYN082AAXX  03061 33415 31596 72503 11097 21114 40259 57024 71042 84530 333 21118 47016;EQDQ01  00002PRCP06
0166334150999992000010309004+49570+025600FM-12+032499999V0202301N008010045019N0040001N1-00501-00711102321ADDAY181031AY221031GA1061+004509099GF108991061031004501031999MD1710201+9999MW1851REMSYN076AAXX  03091 33415 41496 82308 11050 21071 40232 57020 78582 8633/ 333 86915;
0193334150999992000010312004+49570+025600FM-12+032499999V0202701N005010039019N0040001N1-00291-00461102071ADDAY181061AY221061GA1061+003909099GF108991051031004501031999MA1999999097941MD1710191+9999MW1851REMSYN088AAXX  03121 33415 41496 82705 11029 21046 39794 40207 57019 78582 8533/ 333 86913 92982;
0166334150999992000010315004+49570+025600FM-12+032499999V0202701N006010027019N0040001N1-00201-00291102021ADDAY181031AY251031GA1081+002709069GF108991081061002501999999MD1710041+9999MW1561REMSYN076AAXX  03151 33415 41396 82706 11020 21029 40202 57004 75685 886// 333 88709;
0202334150999992000010318004+49570+025600FM-12+032499999V0202701N007010024019N0040001N1-00201-00261102091ADDAA112001091AY181061AY251061GA1081+002409069GF108991081061002501999999KA1120M-00201MD1310071+9999MW1101REMSYN088AAXX  03181 33415 11396 82707 11020 21026 40209 53007 60012 71085 886// 333 11020 88708;
0166334150999992000010321004+49570+025600FM-12+032499999V0202701N007010015019N0010001N1-00181-00201102111ADDAY121031AY221031GA1081+001509069GF108991081061001501999999MD1210021+9999MW1101REMSYN076AAXX  03211 33415 41294 82707 11018 21020 40211 52002 71022 886// 333 88705;
0171334150999992000010400004+49570+025600FM-12+032499999V0202701N005010003019N0005001N1-00181-00181102071ADDAY141061AY221061GA1091+999999999GF109991091999999999999999MA1999999097951MD1810041+9999MW1471REMSYN066AAXX  04001 33415 41/93 92705 11018 21018 39795 40207 58004 74742;
0196334150999992000010403004+49570+025600FM-12+032499999V0202701N005010003019N0005001N1-00151-00151102071ADDAA106000091AY141031AY241031GA1091+999999999GF109991091999999999999999MD1410001+9999MW1491REMSYN076AAXX  04031 33415 31/93 92705 11015 21015 40207 54000 74944 555 21020 7001/;EQDQ01  00002PRCP06
0244334150999992000010406004+49570+025600FM-12+032499999V0202301N004010021019N0040001N1-00151-00201102131ADDAA106000091AJ100179199999999AY141061AY221061GA1081+002109069GF108991081061001501999999IA1239KA1120N-00201MD1310061+9999MW1101REMSYN088AAXX  04061 33415 31296 82304 11015 21020 40213 53006 71042 886// 333 21020 47017 88707;EQDQ01  00002PRCP06
0166334150999992000010409004+49570+025600FM-12+032499999V0202201N003010033019N0020001N1-00101-00171102141ADDAY171031AY221031GA1081+003309069GF108991081061004501999999MD1210031+9999MW1201REMSYN076AAXX  04091 33415 41495 82203 11010 21017 40214 52003 72072 886// 333 88711;
0187334150999992000010412004+49570+025600FM-12+032499999V0202201N004010039019N0040001N1+00041-00131102041ADDAY181061AY271061GA1051+003909099GF107991051031004501031001MA1999999097951MD1810091+9999MW1101REMSYN082AAXX  04121 33415 41496 72204 10004 21013 39795 40204 58009 71087 85330 333 85913;
0174334150999992000010418004+49570+025600FM-12+032499999V0202501N006010036019N0100001N1+00111-00181101991ADDAA112000791GA1061+003609059GF108991061051004501031999KA1120M+00111MD1410001+9999REMSYN082AAXX  04181 33415 32497 82506 10011 21018 40199 54000 69902 8653/ 333 10011 86612;
0138334150999992000010421004+49570+025600FM-12+032499999V0202701N00401002101CN0100001N1+00091-00021101971ADDGA1041+002409069GF108991081061002501999999MD1410001+9999REMSYN070AAXX  04211 33415 42397 82704 10009 21002 40197 54000 886// 333 84708;
0159334150999992000010500004+49570+025600FM-12+032499999V0202701N004010021019N0100001N1+00131+00051101951ADDGA1081+002109069GF108991081061002501999999MA1999999097891MD1810011+9999REMSYN076AAXX  05001 33415 41397 82704 10013 20005 39789 40195 58001 886// 333 88707;
0184334150999992000010503004+49570+025600FM-12+032499999V0202701N003010024019N0100001N1+00051-00031101881ADDAA106000091GA1071+002409079GF108991081061002501999999MD1710091+9999REMSYN086AAXX  05031 33415 32397 82703 10005 21003 40188 57009 886// 333 87708 555 20005 7990/;EQDQ01  00002PRCP06
0231334150999992000010506004+49570+025600FM-12+032499999V0202501N003010027019N0040001N1+00021-00071101791ADDAA112000791AJ100129199999999AY171061AY221061GA1081+002709069GF108991081061002501999999IA1279KA1120N+00021MD1710091+9999MW1771REMSYN094AAXX  05061 33415 11396 82503 10002 21007 40179 57009 69902 77772 886// 333 20002 43012 88709;
0166334150999992000010509004+49570+025600FM-12+032499999V0202001N006010030019N0040001N1+00041-00021101761ADDAY171031AY221031GA1061+003009059GF108991061051004501031999MD1710021+9999MW1221REMSYN076AAXX  05091 33415 41496 82006 10004 21002 40176 57002 72272 8653/ 333 86610;
0187334150999992000010512004+49570+025600FM-12+032499999V0202301N007010033019N0020001N1+00071+00011101641ADDAY181061AY271061GA1061+003309099GF108991061031004501031999MA1999999097571MD1710121+9999MW1831REMSYN082AAXX  05121 33415 41495 82307 10007 20001 39757 40164 57012 78387 8633/ 333 86911;
0166334150999992000010515004+49570+025600FM-12+032499999V0202501N006010360019N0100001N1+00041-00101101671ADDAY181031AY221031GA1041+007209099GF108991041031008001031999MD1310031+9999MW1021REMSYN076AAXX  05151 33415 41597 82506 10004 21010 40167 53003 70282 8433/ 333 84924;
0180334150999992000010518004+49570+025600FM-12+032499999V0202701N007010120019N0100001N1+00101-00101101701ADDAA112002091AY181061AY221061GF108991051031012501031999KA1999M+00101MD1210051+9999MW1021REMSYN082AAXX  05181 33415 11697 82707 10010 21010 40170 52005 60022 70282 8533/ 333 10010;
0140334150999992000010521004+49570+025600FM-12+032499999V0202701N009010360019N0100001N1+00081-00061101771ADDAY181031AY221031GF107991041031012501031001MD1210061+9999MW1851REMSYN066AAXX  05211 33415 41697 72709 10008 21006 40177 52006 78582 84330;
0182334150999992000010603004+49570+025600FM-12+032499999V0203201N006010045019N0100001N1+00041-00071101861ADDAY181031AY221031GA1051+004509099GF108991051031004501031999MD1210021+9999MW1261REMSYN092AAXX  06031 33415 41497 83206 10004 21007 40186 52002 72682 8533/ 333 85915 555 20003 7005/;
0230334150999992000010606004+49570+025600FM-12+032499999V0203201N006010039019N0040001N1+00031-00031102021ADDAA112003091AJ100109199999999AY181061AY221061GA1051+003909099GF108991051031004501031999IA1279KA1120N+00031MD1210151+9999MW1851REMSYN093AAXX  06061 33415 1149683206 10003 21003 40202 52015 60032 78582 8533/ 333 20003 43010 85913;
0166334150999992000010609004+49570+025600FM-12+032499999V0203201N005010045019N0040001N1+00011-00141102241ADDAY181031AY221031GA1061+004509099GF107991061031004501031001MD1210221+9999MW1101REMSYN076AAXX  06091 33415 41496 73205 10001 21014 40224 52022 71082 86330 333 86915;
0187334150999992000010612004+49570+025600FM-12+032499999V0203201N004010048019N0040001N1+00081-00061102311ADDAY181061AY221061GA1061+004809099GF107991061031004501031001MA1999999098231MD1210081+9999MW1101REMSYN082AAXX  06121 33415 41496 73204 10008 21006 39823 40231 52008 71082 86330 333 86916;
0166334150999992000010615004+49570+025600FM-12+032499999V0203601N003010027019N0040001N1+00021-00071102461ADDAY121031AY221031GA1081+002709069GF108991081061002501999999MD1210131+9999MW1101REMSYN076AAXX  06151 33415 41396 83603 10002 21007 40246 52013 71022 886// 333 88709;
0166334150999992000010621004+49570+025600FM-12+032499999V0203601N001010024019N0020001N1-00011-00041102661ADDAY121031AY221031GA1061+002409069GF108991081061002501999999MD1210091+9999MW1101REMSYN076AAXX  06211 33415 41395 83601 11001 21004 40266 52009 71022 886// 333 86708;
0187334150999992000010700004+49570+025600FM-12+032499999V0209999C000010021019N0020001N1-00031-00091102721ADDAY121061AY221061GA1081+002109069GF108991081061002501999999MA1999999098591MD1210041+9999MW1101REMSYN082AAXX  07001 33415 41395 80000 11003 21009 39859 40272 52004 71022 886// 333 88707;
0212334150999992000010703004+49570+025600FM-12+032499999V0209999C000010021019N0020001N1-00061-00121102691ADDAA106000091AY121031AY221031GA1081+002109079GF108991081061002501999999MD1810031+9999MW1101REMSYN092AAXX  07031 33415 31395 80000 11006 21012 40269 58003 71022 886// 333 88707 555 21006 7993/;EQDQ01  00002PRCP06
0244334150999992000010706004+49570+025600FM-12+032499999V0201801N002010021019N0020001N1-00121-00181102681ADDAA106000091AJ100109199999999AY121061AY221061GA1081+002109069GF108991081061002501999999IA1279KA1120N-00121MD1710021+9999MW1101REMSYN088AAXX  07061 33415 31395 81802 11012 21018 40268 57002 71022 886// 333 21012 43010 88707;EQDQ01  00002PRCP06
0150334150999992000010709004+49570+025600FM-12+032499999V0202001N003010003019N0005001N1-00281-00281102751ADDAY141031AY221031GA1091+999999999GF109991091999999999999999MD1310051+9999MW1491REMSYN060AAXX  07091 33415 41/93 92003 11028 21028 40275 53005 74942;
0187334150999992000010712004+49570+025600FM-12+032499999V0202001N004010036019N0100001N1-00161-00301102721ADDAY141061AY221061GA1071+003609059GF107991071051004501001001MA1999999098581MD1810011+9999MW1021REMSYN082AAXX  07121 33415 41497 72004 11016 21030 39858 40272 58001 70242 87500 333 87612;
0112334150999992000010715004+49570+025600FM-12+032499999V0201801N003012200019N0100001N1-00461-00591102771ADDGF103991031001999999031001MD1410001+9999REMSYN060AAXX  07151 33415 42997 31803 11046 21059 40277 54000 83030;
0203334150999992000010718004+49570+025600FM-12+032499999V0202001N003010003019N0005001N1-00461-00461102821ADDAA106000091AY141061AY211061GA1091+999999999GF109991091999999999999999KA1999M-00121MD1310051+9999MW1491REMSYN070AAXX  07181 33415 31/93 92003 11046 21046 40282 53005 74941 333 11012;EQDQ01  00002PRCP06
0150334150999992000010721004+49570+025600FM-12+032499999V0201801N003010003019N0005001N1-00621-00621102891ADDAY141031AY241031GA1091+999999999GF109991091999999999999999MD1210041+9999MW1491REMSYN060AAXX  07211 33415 41/93 91803 11062 21062 40289 52004 74944;
0187334150999992000010800004+49570+025600FM-12+032499999V0202301N002010045019N0100001N1-00581-00621102871ADDAY141061AY221061GA1071+004509059GF107991071051004501001001MA1999999098671MD1410001+9999MW1021REMSYN082AAXX  08001 33415 41497 72302 11058 21062 39867 40287 54000 70242 87500 333 87615;
0184334150999992000010803004+49570+025600FM-12+032499999V0201801N002010030019N0100001N1-00451-00511102861ADDAA106000091GA1081+003009079GF108991081061002501999999MD1410001+9999REMSYN086AAXX  08031 33415 32397 81802 11045 21051 40286 54000 886// 333 88710 555 21062 7000/;EQDQ01  00002PRCP06
0216334150999992000010806004+49570+025600FM-12+032499999V0201801N003010033019N0100001N1-00301-00401102811ADDAA106000091AJ100099199999999GA1081+003309069GF108991081061004501999999IA1279KA1120N-00621MD1810021+9999REMSYN082AAXX  08061 33415 32497 81803 11030 21040 40281 58002 886// 333 21062 43009 88711;EQDQ01  00002PRCP06
0166334150999992000010809004+49570+025600FM-12+032499999V0201801N001010033019N0040001N1-00201-00351102871ADDAY121031AY221031GA1081+003309059GF108991081051004501999999MD1310071+9999MW1101REMSYN076AAXX  08091 33415 41496 81801 11020 21035 40287 53007 71022 885// 333 88611;
0161334150999992000010812004+49570+025600FM-12+032499999V0201801N003010360019N0040001N1-00051-00231102771ADDAY121061AY221061GF107991021051008001031001MA1999999098641MD1810081+9999MW1101REMSYN072AAXX  08121 33415 41596 71803 11005 21023 39864 40277 58008 71022 82530;
0140334150999992000010815004+49570+025600FM-12+032499999V0201401N003019999999N0040001N1-00241-00401102771ADDAY121031AY221031GF107991071001999999031001MD1710031+9999MW1101REMSYN066AAXX  08151 33415 41996 71403 11024 21040 40277 57003 71022 87030;
0193334150999992000010818004+49570+025600FM-12+032499999V0201401N003019999999N0040001N1-00291-00421102791ADDAA106000091AY121061AY221061GF107991071001999999031001KA1999M-00041MD1310021+9999MW1101REMSYN076AAXX  08181 33415 31996 71403 11029 21042 40279 53002 71022 87030 333 11004;EQDQ01  00002PRCP06
0166334150999992000010821004+49570+025600FM-12+032499999V0201401N003010360019N0040001N1-00291-00391102811ADDAY121031AY221031GA1031+006609059GF107991031051008001031001MD1210021+9999MW1101REMSYN076AAXX  08211 33415 41596 71403 11029 21039 40281 52002 71022 83530 333 83622;
0161334150999992000010900004+49570+025600FM-12+032499999V0201401N001019999999N0040001N1-00311-00411102731ADDAY121061AY221061GF107991071001999999031001MA1999999098531MD1810121+9999MW1101REMSYN072AAXX  09001 33415 41996 71401 11031 21041 39853 40273 58012 71022 87030;
0170334150999992000010903004+49570+025600FM-12+032499999V0201401N002010360019N0040001N1-00321-00421102731ADDAA106000091AY121031AY221031GF107991021051008001031001MD1310031+9999MW1101REMSYN066AAXX  09031 33415 31596 71402 11032 21042 40273 53003 71022 82530;EQDQ01  00002PRCP06
0140334150999992000010909004+49570+025600FM-12+032499999V0201601N003019999999N0040001N1-00291-00421102781ADDAY121031AY221031GF107991071001999999031001MD1210041+9999MW1101REMSYN066AAXX  09091 33415 41996 71603 11029 21042 40278 52004 71022 87030;
0161334150999992000010912004+49570+025600FM-12+032499999V0201601N003019999999N0040001N1-00161-00401102721ADDAY121061AY221061GF107991071001999999031001MA1999999098581MD1810041+9999MW1101REMSYN072AAXX  09121 33415 41996 71603 11016 21040 39858 40272 58004 71022 87030;
0150334150999992000010915004+49570+025600FM-12+032499999V0201401N003010003019N0005001N1-00521-00521102801ADDAY141031AY221031GA1091+999999999GF109991091999999999999999MD1310021+9999MW1491REMSYN060AAXX  09151 33415 41/93 91403 11052 21052 40280 53002 74942;
0150334150999992000010921004+49570+025600FM-12+032499999V0201801N002010003019N0005001N1-00561-00561102851ADDAY141031AY221031GA1091+999999999GF109991091999999999999999MD1210031+9999MW1491REMSYN060AAXX  09211 33415 41/93 91802 11056 21056 40285 52003 74942;
0187334150999992000011000004+49570+025600FM-12+032499999V0201801N002010021019N0040001N1-00581-00621102921ADDAY141061AY221061GA1081+002109069GF108991081061002501999999MA1999999098711MD1210061+9999MW1101REMSYN082AAXX  10001 33415 41396 81802 11058 21062 39871 40292 52006 71042 886// 333 88707;
0212334150999992000011003004+49570+025600FM-12+032499999V0201901N002010021019N0040001N1-00551-00591102941ADDAA106000091AY121031AY221031GA1081+002109079GF108991081061002501999999MD1210021+9999MW1101REMSYN092AAXX  10031 33415 31396 81902 11055 21059 40294 52002 71022 886// 333 88707 555 21062 7000/;EQDQ01  00002PRCP06
0244334150999992000011006004+49570+025600FM-12+032499999V0201801N002010021019N0040001N1-00621-00661103001ADDAA106000091AJ100099199999999AY121061AY221061GA1081+002109069GF108991081061002501999999IA1279KA1120N-00631MD1210041+9999MW1101REMSYN088AAXX  10061 33415 31396 81802 11062 21066 40300 52004 71022 886// 333 21063 43009 88707;EQDQ01  00002PRCP06
0166334150999992000011009004+49570+025600FM-12+032499999V0202001N002010360019N0040001N1-00481-00541103031ADDAY121031AY221031GA1041+005109059GF107991041051004501031001MD1210061+9999MW1101REMSYN076AAXX  10091 33415 41496 72002 11048 21054 40303 52006 71022 84530 333 84617;
0187334150999992000011012004+49570+025600FM-12+032499999V0202501N004010360019N0040001N1-00171-00221102991ADDAY121061AY221061GA1041+003909059GF107991041051004501031001MA1999999098841MD1210011+9999MW1101REMSYN082AAXX  10121 33415 41496 72504 11017 21022 39884 40299 52001 71022 84530 333 84613;
0166334150999992000011015004+49570+025600FM-12+032499999V0202701N004010039019N0020001N1-00081-00151103051ADDAY181031AY221031GA1051+003909099GF107991051031004501031001MD1210071+9999MW1851REMSYN076AAXX  10151 33415 41495 72704 11008 21015 40305 52007 78582 85330 333 85913;
0202334150999992000011018004+49570+025600FM-12+032499999V0203201N006010360019N0040001N1-00021-00111103081ADDAA112002091AY181061AY221061GA1041+004209099GF107991041031004501031001KA1120M-00021MD1210041+9999MW1851REMSYN088AAXX  10181 33415 11496 73206 11002 21011 40308 52004 60022 78582 84330 333 11002 84914;
0166334150999992000011021004+49570+025600FM-12+032499999V0203201N006010360019N0040001N1-00021-00111103221ADDAY181031AY221031GA1041+004509099GF107991041031004501031001MD1210141+9999MW1851REMSYN076AAXX  10211 33415 41496 73206 11002 21011 40322 52014 78582 84330 333 84915;
0187334150999992000011100004+49570+025600FM-12+032499999V0203201N005010360019N0040001N1-00031-00151103271ADDAY181061AY221061GA1041+006009099GF107991041031008001031001MA1999999099221MD1210131+9999MW1101REMSYN082AAXX  11001 33415 41596 73205 11003 21015 39922 40327 52013 71082 84330 333 84920;
0182334150999992000011103004+49570+025600FM-12+032499999V0203201N004010360019N0040001N1-00061-00181103491ADDAY121031AY221031GA1041+004809069GF107991041051004501031001MD1210111+9999MW1101REMSYN092AAXX  11031 33415 41496 73204 11006 21018 40349 52011 71022 84530 333 84616 555 21007 7002/;
0231334150999992000011106004+49570+025600FM-12+032499999V0203201N005010360019N0040001N1-00071-00221103601ADDAA112000391AJ100109199999999AY121061AY221061GA1041+003909059GF107991041051004501031001IA1239KA1120N-00081MD1210111+9999MW1101REMSYN094AAXX  11061 33415 11496 73205 11007 21022 40360 52011 69932 71022 84530 333 21008 47010 84613;
0166334150999992000011109004+49570+025600FM-12+032499999V0203201N004010042019N0040001N1-00051-00171103741ADDAY181031AY221031GA1051+004209099GF107991051031004501031001MD1210131+9999MW1851REMSYN076AAXX  11091 33415 41496 73204 11005 21017 40374 52013 78582 85330 333 85914;
0187334150999992000011112004+49570+025600FM-12+032499999V0203201N003010360019N0040001N1-00021-00221103741ADDAY181061AY221061GA1041+006009099GF107991041031008001031001MA1999999099571MD1410001+9999MW1261REMSYN082AAXX  11121 33415 41596 73203 11002 21022 39957 40374 54000 72682 84330 333 84920;
0166334150999992000011115004+49570+025600FM-12+032499999V0203201N002010360019N0040001N1-00091-00281103781ADDAY181031AY221031GA1041+006309099GF107991041031008001031001MD1310041+9999MW1101REMSYN076AAXX  11151 33415 41596 73202 11009 21028 40378 53004 71082 84330 333 84921;
0202334150999992000011118004+49570+025600FM-12+032499999V0209999C000010360019N0040001N1-00141-00281103891ADDAA112000791AY181061AY221061GA1041+006009099GF107991041031008001031001KA1120M-00011MD1210101+9999MW1021REMSYN088AAXX  11181 33415 11596 70000 11014 21028 40389 52010 69902 70282 84330 333 11001 84920;
0166334150999992000011121004+49570+025600FM-12+032499999V0209999C000010360019N0040001N1-00271-00401103951ADDAY121031AY221031GA1041+005709059GF107991041051008001031001MD1210031+9999MW1101REMSYN076AAXX  11211 33415 41596 70000 11027 21040 40395 52003 71022 84530 333 84619;
0187334150999992000011200004+49570+025600FM-12+032499999V0209999V002010360019N0040001N1-00291-00421104021ADDAY121061AY221061GA1041+005709059GF107991041051008001031001MA1999999099811MD1210071+9999MW1101REMSYN082AAXX  12001 33415 41596 79902 11029 21042 39981 40402 52007 71022 84530 333 84619;
0212334150999992000011203004+49570+025600FM-12+032499999V0203201N002010033019N0040001N1-00241-00331103971ADDAA106000091AY121031AY221031GA1081+003309069GF108991081051004501999999MD1810051+9999MW1101REMSYN092AAXX  12031 33415 31496 83202 11024 21033 40397 58005 71022 885// 333 88611 555 21030 7990/;EQDQ01  00002PRCP06
0210334150999992000011206004+49570+025600FM-12+032499999V0209999C000019999999N0005001N1-00241-00241999999ADDAA106000091AJ100109199999999AY141061AY221061GF108991999999999999999999IA1239KA1120N-00301MD1710021+9999MW1491REMSYN070AAXX  12061 33415 31/93 80000 11024 21024 57002 74942 333 21030 47010;EQDQ01  00002PRCP06
0166334150999992000011209004+49570+025600FM-12+032499999V0209999C000010012019N0010001N1-00221-00251103971ADDAY141031AY221031GA1081+001209069GF108991081061001501999999MD1310021+9999MW1281REMSYN076AAXX  12091 33415 41294 80000 11022 21025 40397 53002 72842 886// 333 88704;
0187334150999992000011212004+49570+025600FM-12+032499999V0209999C000010027019N0040001N1-00081-00121103881ADDAY141061AY221061GA1081+002709069GF108991081061002501999999MA1999999099701MD1810061+9999MW1101REMSYN082AAXX  12121 33415 41396 80000 11008 21012 39970 40388 58006 71042 886// 333 88709;
0166334150999992000011215004+49570+025600FM-12+032499999V0209999C000010027019N0040001N1-00231-00291103861ADDAY121031AY221031GA1081+002709069GF108991081061002501999999MD1710041+9999MW1101REMSYN076AAXX  12151 33415 41396 80000 11023 21029 40386 57004 71022 886// 333 88709;
0215334150999992000011218004+49570+025600FM-12+032499999V0200901N002010024019N0040001N1-00421-00511103811ADDAA106000091AY121061AY221061GA1061+002409069GF108991061071002501031999KA1120M-00081MD1710081+9999MW1101REMSYN082AAXX  12181 33415 31396 80902 11042 21051 40381 57008 71022 8673/ 333 11008 86708;EQDQ01  00002PRCP06
0166334150999992000011221004+49570+025600FM-12+032499999V0201601N004010021019N0020001N1-00451-00481103771ADDAY121031AY221031GA1081+002109069GF108991081061002501999999MD1710041+9999MW1101REMSYN076AAXX  12211 33415 41395 81604 11045 21048 40377 57004 71022 886// 333 88707;
0171334150999992000011300004+49570+025600FM-12+032499999V0201101N004010003019N0005001N1-00511-00511103791ADDAY141061AY221061GA1091+999999999GF109991091999999999999999MA1999999099541MD1410001+9999MW1491REMSYN066AAXX  13001 33415 41/93 91104 11051 21051 39954 40379 54000 74942;
0196334150999992000011303004+49570+025600FM-12+032499999V0201601N005010003019N0005001N1-00801-00801103741ADDAA106000091AY141031AY241031GA1091+999999999GF109991091999999999999999MD1810091+9999MW1491REMSYN076AAXX  13031 33415 31/93 91605 11080 21080 40374 58009 74944 555 21082 7000/;EQDQ01  00002PRCP06
0232334150999992000011306004+49570+025600FM-12+032499999V0201601N004010003019N0005001N1-00751-00751103681ADDAA106000091AJ100109199999999AY141061AY241061GA1091+999999999GF109991091999999999999999IA1239KA1120N-00821MD1710041+9999MW1491REMSYN076AAXX  13061 33415 31/93 91604 11075 21075 40368 57004 74944 333 21082 47010;EQDQ01  00002PRCP06
0166334150999992000011309004+49570+025600FM-12+032499999V0201801N003010012019N0010001N1-00651-00701103731ADDAY141031AY221031GA1081+001209069GF108991081061001501999999MD1310071+9999MW1101REMSYN076AAXX  13091 33415 41294 81803 11065 21070 40373 53007 71042 886// 333 88704;
0187334150999992000011312004+49570+025600FM-12+032499999V0201601N004010018019N0040001N1-00621-00701103541ADDAY141061AY221061GA1081+001809069GF108991081061002501999999MA1999999099291MD1810191+9999MW1101REMSYN082AAXX  13121 33415 41396 81604 11062 21070 39929 40354 58019 71042 886// 333 88706;
0166334150999992000011315004+49570+025600FM-12+032499999V0201501N004010021019N0040001N1-00651-00731103461ADDAY121031AY221031GA1081+002109069GF108991081061002501999999MD1710081+9999MW1101REMSYN076AAXX  13151 33415 41396 81504 11065 21073 40346 57008 71022 886// 333 88707;
0215334150999992000011318004+49570+025600FM-12+032499999V0201401N004010015019N0010001N1-00751-00811103411ADDAA106000091AY121061AY221061GA1081+001509069GF108991081061001501999999KA1120M-00601MD1710061+9999MW1101REMSYN082AAXX  13181 33415 31294 81404 11075 21081 40341 57006 71022 886// 333 11060 88705;EQDQ01  00002PRCP06
0170334150999992000011321004+49570+025600FM-12+032499999V0201401N004010015019N0010001N1-00771-00831103391ADDAY121031AY221031GA1081+001509069GF108991081061001501999999MD1710021+9999MW1101REMSYN080    AAXX  13211 33415 41294 81404 11077 21083 40339 57002 71022 886// 333 88705;
0191334150999992000011400004+49570+025600FM-12+032499999V0201601N003010015019N0010001N1-00771-00831103381ADDAY121061AY221061GA1081+001509069GF108991081061001501999999MA1999999099121MD1710011+9999MW1101REMSYN086    AAXX  14001 33415 41294 81603 11077 21083 39912 40338 57001 71022 886// 333 88705;
0216334150999992000011403004+49570+025600FM-12+032499999V0201401N002010015019N0010001N1-00761-00811103241ADDAA199000091AY121031AY221031GA1081+001509079GF108991081061001501999999MD1710131+9999MW1101REMSYN096    AAXX  14031 33415 31294 81402 11076 21081 40324 57013 71022 886// 333 88705 555 21078 7000/;EQDQ01  00002PRCP99
0248334150999992000011406004+49570+025600FM-12+032499999V0201401N003010018019N0020001N1-00661-00741103201ADDAA199000091AJ100109199999999AY121061AY221061GA1081+001809069GF108991081061001501999999IA1279KA1120N-00781MD1710031+9999MW1101REMSYN092    AAXX  14061 33415 31295 81403 11066 21074 40320 57003 71022 886// 333 21078 43010 88706;EQDQ01  00002PRCP99
0170334150999992000011409004+49570+025600FM-12+032499999V0201401N003010015019N0020001N1-00751-00811103241ADDAY121031AY221031GA1081+001509069GF108991081061001501999999MD1310031+9999MW1101REMSYN080    AAXX  14091 33415 41295 81403 11075 21081 40324 53003 71022 886// 333 88705;
0191334150999992000011412004+49570+025600FM-12+032499999V0201601N002010009019N0010001N1-00821-00841103221ADDAY121061AY221061GA1081+000909069GF108991081061001501999999MA1999999098951MD1810041+9999MW1101REMSYN086    AAXX  14121 33415 41294 81602 11082 21084 39895 40322 58004 71022 886// 333 88703;
0170334150999992000011415004+49570+025600FM-12+032499999V0201601N004010012019N0010001N1-00841-00871103181ADDAY121031AY221031GA1081+001209069GF108991081061001501999999MD1710041+9999MW1101REMSYN080    AAXX  14151 33415 41294 81604 11084 21087 40318 57004 71022 886// 333 88704;
0219334150999992000011418004+49570+025600FM-12+032499999V0201601N004010012019N0010001N1-00741-00801103161ADDAA199000091AY121061AY221061GA1081+001209069GF108991081061001501999999KA1120M-00661MD1410001+9999MW1101REMSYN086    AAXX  14181 33415 31294 81604 11074 21080 40316 54000 71022 886// 333 11066 88704;EQDQ01  00002PRCP99
0170334150999992000011421004+49570+025600FM-12+032499999V0201801N002010018019N0040001N1-00651-00731103021ADDAY121031AY221031GA1081+001809069GF108991081061001501999999MD1810121+9999MW1101REMSYN080    AAXX  14211 33415 41296 81802 11065 21073 40302 58012 71022 886// 333 88706;
0191334150999992000011500004+49570+025600FM-12+032499999V0201601N002010018019N0040001N1-00591-00661102951ADDAY121061AY221061GA1081+001809069GF108991081061001501999999MA1999999098721MD1710061+9999MW1101REMSYN086    AAXX  15001 33415 41296 81602 11059 21066 39872 40295 57006 71022 886// 333 88706;
0186334150999992000011503004+49570+025600FM-12+032499999V0201601N00201001201CN0020001N1-00591-00631102971ADDAY181031AY221031GA1031+001809079GF108991061031001501031999MD1310021+9999MW1851REMSYN096    AAXX  15031 33415 41295 81602 11059 21063 40297 53002 78582 8633/ 333 83706 555 21074 7002/;
0235334150999992000011506004+49570+025600FM-12+032499999V0202301N002010063019N0040001N1-00621-00701102861ADDAA112002091AJ100129199999999AY181061AY221061GA1051+006309099GF108991051031008001031999IA1239KA1120N-00741MD1810101+9999MW1851REMSYN098    AAXX  15061 33415 11596 82302 11062 21070 40286 58010 60022 78582 8533/ 333 21074 47012 85921;
0170334150999992000011509004+49570+025600FM-12+032499999V0202301N003010360019N0040001N1-00491-00621102841ADDAY181031AY221031GA1031+008109059GF107991031051008001031001MD1310011+9999MW1101REMSYN080    AAXX  15091 33415 41596 72303 11049 21062 40284 53001 71082 83530 333 83627;
0191334150999992000011512004+49570+025600FM-12+032499999V0202701N003010360019N0040001N1-00361-00541102711ADDAY181061AY221061GA1041+008709059GF107991041051008001031001MA1999999098541MD1810111+9999MW1101REMSYN086    AAXX  15121 33415 41596 72703 11036 21054 39854 40271 58011 71082 84530 333 84629;
0170334150999992000011515004+49570+025600FM-12+032499999V0202901N004010051019N0040001N1-00371-00521102641ADDAY121031AY221031GA1051+005109059GF107991051051004501031001MD1710061+9999MW1101REMSYN080    AAXX  15151 33415 41496 72904 11037 21052 40264 57006 71022 85530 333 85617;
0200334150999992000011518004+49570+025600FM-12+032499999V0202701N006010360019N0040001N1-00421-00611102691ADDAA199000021AY121061AY221061GA1041+006009059GF107991041051008001031001KA1120M-00341MD1310021+9999MW1101REMSYN086    AAXX  15181 33415 31596 72706 11042 21061 40269 53002 71022 84530 333 11034 84620;
0142334150999992000011521004+49570+025600FM-12+032499999V0202901N006010096019N0100001N1-00421-00721102651ADDGA1051+009609059GF107991051051008001031001MD1810031+9999REMSYN074    AAXX  15211 33415 41597 72906 11042 21072 40265 58003 85530 333 85632;
0191334150999992000011600004+49570+025600FM-12+032499999V0202701N003010069019N0040001N1-00441-00641102591ADDAY121061AY221061GA1061+006909059GF107991061051008001031001MA1999999098411MD1710061+9999MW1101REMSYN086    AAXX  16001 33415 41596 72703 11044 21064 39841 40259 57006 71022 86530 333 86623;
0216334150999992000011603004+49570+025600FM-12+032499999V0202701N005010084019N0040001N1-00471-00671102621ADDAA199000091AY121031AY221031GA1061+008409069GF108991061051008001031999MD1310031+9999MW1101REMSYN096    AAXX  16031 33415 31596 82705 11047 21067 40262 53003 71022 8653/ 333 86628 555 21048 7990/;EQDQ01  00002PRCP99
0235334150999992000011606004+49570+025600FM-12+032499999V0202901N004010051019N0040001N1-00511-00801102611ADDAA112000791AJ100129199999999AY181061AY221061GA1061+005109099GF108991061031004501031999IA1239KA1120N-00511MD1810031+9999MW1851REMSYN098    AAXX  16061 33415 11496 82904 11051 21080 40261 58003 69902 78582 8633/ 333 21051 47012 86917;
0170334150999992000011609004+49570+025600FM-12+032499999V0203101N004010036019N0020001N1-00451-00581102661ADDAY181031AY281031GA1081+003609059GF108991061031004501071999MD1310071+9999MW1851REMSYN080    AAXX  16091 33415 41495 83104 11045 21058 40266 53007 78588 8637/ 333 88612;
0191334150999992000011612004+49570+025600FM-12+032499999V0203201N004010042019N0020001N1-00461-00621102671ADDAY181061AY281061GA1061+004209099GF108991061031004501071999MA1999999098491MD1210011+9999MW1851REMSYN086    AAXX  16121 33415 41495 83204 11046 21062 39849 40267 52001 78588 8637/ 333 86914;
0170334150999992000011615004+49570+025600FM-12+032499999V0203101N003010033019N0020001N1-00471-00641102671ADDAY181031AY221031GA1061+003309069GF108991061071004501021999MD1410001+9999MW1711REMSYN080    AAXX  16151 33415 41495 83103 11047 21064 40267 54000 77182 8672/ 333 86711;
0206334150999992000011618004+49570+025600FM-12+032499999V0202701N003010036019N0040001N1-00501-00711102671ADDAA112002091AY181061AY221061GA1081+003609059GF108991081051004501999999KA1120M-00431MD1810021+9999MW1101REMSYN092    AAXX  16181 33415 11496 82703 11050 21071 40267 58002 60022 71082 885// 333 11043 88612;
0144334150999992000011621004+49570+025600FM-12+032499999V0202501N003019999999N0040001N1-00971-01091102561ADDAY121031AY221031GF105991001001999999001011MD1710171+9999MW1101REMSYN070    AAXX  16211 33415 41996 52503 11097 21109 40256 57017 71022 80001;
0165334150999992000011700004+49570+025600FM-12+032499999V0202501N004019999999N0040001N1-01091-01221102161ADDAY121061AY221061GF106991031001999999031011MA1999999097891MD1710411+9999MW1101REMSYN076    AAXX  17001 33415 41996 62504 11109 21122 39789 40216 57041 71022 83031;
0216334150999992000011703004+49570+025600FM-12+032499999V0202301N006010048019N0040001N1-00731-00861101542ADDAA199000021AY121031AY221031GA1061+004809069GF107991061051004501031001MD1710531+9999MW1101REMSYN096    AAXX  17031 33415 31496 72306 11073 21086 40154 57053 71022 86530 333 86616 555 21110 7002/;EQDQ01+101543APOSLP
0248334150999992000011706004+49570+025600FM-12+032499999V0202401N009010084019N0100001N1-00571-00831100941ADDAA199000091AJ100139199999999AY131061AY221061GA1061+008409059GF107991061051008001031001IA1239KA1120N-01101MD1710551+9999MW1361REMSYN092    AAXX  17061 33415 31597 72409 11057 21083 40094 57055 73632 86530 333 21110 47013 86628;EQDQ01  00002PRCP99
0170334150999992000011709004+49570+025600FM-12+032499999V0202501N009010039019N0100001N1-00381-00601100231ADDAY181031AY231031GA1061+003909099GF108991061031004501031999MD1710651+9999MW1851REMSYN080    AAXX  17091 33415 41497 82509 11038 21060 40023 57065 78583 8633/ 333 86913;
0191334150999992000011712004+49570+025600FM-12+032499999V0202401N008010021019N0005001N1-00281-00441099611ADDAY181061AY231061GA1041+002109069GF108991061031002501031999MA1999999095581MD1710581+9999MW1861REMSYN086    AAXX  17121 33415 41393 82408 11028 21044 39558 49961 57058 78683 8633/ 333 84707;
0170334150999992000011715004+49570+025600FM-12+032499999V0202501N008010021019N0010001N1-00121-00221099251ADDAY181031AY231031GA1041+002109099GF108991061031002501031999MD1710331+9999MW1861REMSYN080    AAXX  17151 33415 41394 82508 11012 21022 49925 57033 78683 8633/ 333 84907;
0206334150999992000011718004+49570+025600FM-12+032499999V0202701N00801002101CN0100001N1-00121-00251099111ADDAA112004191AY181061AY231061GA1031+003009069GF108991061031002501031999KA1120M-00061MD1710141+9999MW1021REMSYN092    AAXX  17181 33415 11397 82708 11012 21025 49911 57014 60042 70283 8633/ 333 11006 83710;
0142334150999992000011721004+49570+025600FM-12+032499999V0202801N008010039019N0100001N1-00141-00281098931ADDGA1051+003909059GF107991051051004501031001MD1710171+9999REMSYN074    AAXX  17211 33415 42497 72808 11014 21028 49893 57017 85530 333 85613;
0163334150999992000011800004+49570+025600FM-12+032499999V0202801N009010042019N0100001N1-00181-00361098851ADDGA1051+004209059GF107991051051004501031001MA1999999094871MD1710091+9999REMSYN080    AAXX  18001 33415 42497 72809 11018 21036 39487 49885 57009 85530 333 85614;
0169334150999992000011803004+49570+025600FM-12+032499999V02099999999990360019N0100001N1-00241-00461098991ADDAA199000021GA1041+004809069GF107991041051004501031001MD1310111+9999REMSYN090    AAXX  18031 33415 32497 7307/ 11024 21046 49899 53011 84530 333 84616 555 21025 7004/;
0235334150999992000011806004+49570+025600FM-12+032499999V0202801N00801002101CN0040001N1-00261-00391098861ADDAA112000891AJ100149199999999AY181061AY221061GA1031+002709069GF108991061031002501031999IA1249KA1120N-00271MD1810121+9999MW1851REMSYN098    AAXX  18061 33415 11396 82808 11026 21039 49886 58012 69972 78582 8633/ 333 21027 48014 83709;
0170334150999992000011809004+49570+025600FM-12+032499999V0202901N008010039019N0040001N1-00191-00371098851ADDAY181031AY281031GA1061+003909099GF107991071031004501031001MD1710021+9999MW1851REMSYN080    AAXX  18091 33415 41496 72908 11019 21037 49885 57002 78588 87330 333 86913;
0191334150999992000011812004+49570+025600FM-12+032499999V0202901N009010033019N0020001N1-00181-00291098811ADDAY181061AY231061GA1081+003309099GF108991081031004501999999MA1999999094831MD1710011+9999MW1851REMSYN086    AAXX  18121 33415 41495 82909 11018 21029 39483 49881 57001 78583 883// 333 88911;
0170334150999992000011815004+49570+025600FM-12+032499999V0202901N011010030019N0020001N1-00211-00301098911ADDAY181031AY231031GA1061+003009099GF107991061031004501031001MD1310071+9999MW1851REMSYN080    AAXX  18151 33415 41495 72911 11021 21030 49891 53007 78583 86330 333 86910;
0206334150999992000011818004+49570+025600FM-12+032499999V0202901N011010030019N0020001N1-00211-00301099011ADDAA112001091AY181061AY231061GA1061+003009099GF107991061091004501011001KA1120M-00151MD1210101+9999MW1851REMSYN092    AAXX  18181 33415 11495 72911 11021 21030 49901 52010 60012 78583 86910 333 11015 86910;
0170334150999992000011821004+49570+025600FM-12+032499999V0202901N010010033019N0020001N1-00241-00331099111ADDAY181031AY231031GA1061+003309099GF107991061031004501031001MD1210101+9999MW1851REMSYN080    AAXX  18211 33415 41495 72910 11024 21033 49911 52010 78583 86330 333 86911;
0191334150999992000011900004+49570+025600FM-12+032499999V0202901N006010036019N0040001N1-00261-00391099261ADDAY181061AY231061GA1061+003609099GF107991061031004501031001MA1999999095251MD1210151+9999MW1851REMSYN086    AAXX  19001 33415 41496 72906 11026 21039 39525 49926 52015 78583 86330 333 86912;
0186334150999992000011903004+49570+025600FM-12+032499999V0202901N006010039019N0040001N1-00411-00571099571ADDAY181031AY281031GA1061+003909099GF107991061031004501031001MD1210261+9999MW1851REMSYN096    AAXX  19031 33415 41496 72906 11041 21057 49957 52026 78588 86330 333 86913 555 21041 7004/;
0235334150999992000011906004+49570+025600FM-12+032499999V0202901N009010039019N0020001N1-00531-00671099881ADDAA112003091AJ100169199999999AY181061AY231061GA1081+003909099GF108991081031004501999999IA1249KA1120N-00531MD1210291+9999MW1851REMSYN098    AAXX  19061 33415 11495 82909 11053 21067 49988 52029 60032 78583 883// 333 21053 48016 88913;
0170334150999992000011909004+49570+025600FM-12+032499999V0202901N006010075019N0040001N1-00511-00721100151ADDAY181031AY231031GA1061+007509099GF108991061031008001031001MD1210261+9999MW1851REMSYN080    AAXX  19091 33415 41596 82906 11051 21072 40015 52026 78583 86330 333 86925;
0191334150999992000011912004+49570+025600FM-12+032499999V0202901N006010054019N0040001N1-00461-00701100231ADDAY181061AY231061GA1061+005409099GF108991061031004501031999MA1999999096141MD1210081+9999MW1381REMSYN086    AAXX  19121 33415 41496 82906 11046 21070 39614 40023 52008 73883 8633/ 333 86918;
0170334150999992000011915004+49570+025600FM-12+032499999V0202901N006010030019N0020001N1-00501-00631100411ADDAY181031AY231031GA1081+003009099GF108991081031004501999999MD1210161+9999MW1851REMSYN080    AAXX  19151 33415 41495 82906 11050 21063 40041 52016 78583 883// 333 88910;
0202334150999992000011918004+49570+025600FM-12+032499999V0202901N007010360019N0040001N1-00651-00971100701ADDAA112001091AY181061AY231061GA1031+006609099GF107991031031008001031001KA1120M-00461MD1210271+9999MW1361REMSYN088AAXX  19181 33415 11596 72907 11065 21097 40070 52027 60012 73683 83330 333 11046 83922;
0166334150999992000011921004+49570+025600FM-12+032499999V0202901N008010048019N0040001N1-00751-00971100911ADDAY181031AY231031GA1061+004809099GF108991061031004501031999MD1210181+9999MW1851REMSYN076AAXX  19211 33415 41496 82908 11075 21097 40091 52018 78583 8633/ 333 86916;
0187334150999992000012000004+49570+025600FM-12+032499999V0202901N007010360019N0100001N1-00801-01071101121ADDAY181061AY231061GA1031+003009099GF106991031031008001031001MA1999999096941MD1210191+9999MW1021REMSYN082AAXX  20001 33415 41597 62907 11080 21107 39694 40112 52019 70283 83330 333 83910;
0156334150999992000012003004+49570+025600FM-12+032499999V0202901N006012200019N0100001N1-00951-01301101321ADDAY131031AY211031GF102991021031008001001001MD1210171+9999MW1361REMSYN082AAXX  20031 33415 41597 22906 11095 21130 40132 52017 73631 82300 555 21097 7001/;
0231334150999992000012006004+49570+025600FM-12+032499999V0202701N005010360019N0100001N1-00991-01251101371ADDAA112000791AJ100179199999999AY131061AY211061GA1041+006909099GF107991041031008001031001IA1249KA1120N-01041MD1210041+9999MW1361REMSYN094AAXX  20061 33415 11597 72705 11099 21125 40137 52004 69902 73631 84330 333 21104 48017 84923;
0140334150999992000012009004+49570+025600FM-12+032499999V0202701N009010360019N0100001N1-00571-00831101411ADDAY181031AY221031GF106991021031008001031001MD1210121+9999MW1361REMSYN066AAXX  20091 33415 41597 62709 11057 21083 40141 52012 73682 82330;
0187334150999992000012012004+49570+025600FM-12+032499999V0202701N007010048019N0020001N1-00441-00671101231ADDAY131061AY221061GA1061+004809099GF107991061031004501031001MA1999999097101MD1810171+9999MW1851REMSYN082AAXX  20121 33415 41495 72707 11044 21067 39710 40123 58017 78532 86330 333 86916;
0140334150999992000012015004+49570+025600FM-12+032499999V0202501N007010360019N0100001N1-00411-00751100981ADDAY181031AY231031GF106991021031008001031001MD1710231+9999MW1361REMSYN066AAXX  20151 33415 41597 62507 11041 21075 40098 57023 73683 82330;
0180334150999992000012018004+49570+025600FM-12+032499999V0202401N010019999999N0100001N1-00391-00881100691ADDAA112000191AY181061AY231061GF106991041001999999031011KA1999M-00391MD1710281+9999MW1371REMSYN082AAXX  20181 33415 11997 62410 11039 21088 40069 57028 69922 73783 84031 333 11039;
0159334150999992000012021004+49570+025600FM-12+032499999V0202501N009019999999N0100001N1-00371-00521100331ADDAY131031AY231031GF107991999071999999999999MD1710331+9999MW1381REMSYN066AAXX  20211 33415 41997 72509 11037 21052 40033 57033 73833 887//;EQDQ01+000082SCOTLC
0161334150999992000012100004+49570+025600FM-12+032499999V0202501N010019999999N0020001N1-00371-00481100011ADDAY171061AY221061GF108991081001999999021999MA1999999095951MD1710311+9999MW1731REMSYN072AAXX  21001 33415 41995 82510 11037 21048 39595 40001 57031 77372 8802/;
0182334150999992000012103004+49570+025600FM-12+032499999V0202501N008010024019N0010001N1-00331-00371099551ADDAY171031AY231031GA1071+002409079GF108991071071002501021999MD1710451+9999MW1731REMSYN092AAXX  21031 33415 11394 82508 11033 21037 49955 57045 77373 8772/ 333 87708 555 21040 7003/;
0231334150999992000012106004+49570+025600FM-12+032499999V0202501N007010024019N0020001N1-00171-00221099331ADDAA112005191AJ100179199999999AY171061AY231061GA1071+002409069GF108991071071002501021999IA1239KA1120N-00401MD1710181+9999MW1731REMSYN094AAXX  21061 33415 11395 82507 11017 21022 49933 57018 60052 77373 8772/ 333 21040 47017 87708;
0166334150999992000012109004+49570+025600FM-12+032499999V0203201N008010360019N0100001N1-00361-00681099451ADDAY171031AY231031GA1041+007509099GF107991041031008001031001MD1310091+9999MW1021REMSYN076AAXX  21091 33415 41597 73208 11036 21068 49945 53009 70273 84330 333 84925;
0187334150999992000012112004+49570+025600FM-12+032499999V0203201N006010048019N0040001N1-00501-00861099561ADDAY181061AY221061GA1051+004809099GF108991051031004501031999MA1999999095491MD1210081+9999MW1851REMSYN082AAXX  21121 33415 41496 83206 11050 21086 39549 49956 52008 78582 8533/ 333 85916;
0166334150999992000012115004+49570+025600FM-12+032499999V0203201N003010045019N0100001N1-00601-00751099751ADDAY181031AY221031GA1051+004509099GF107991051031004501031001MD1210171+9999MW1261REMSYN076AAXX  21151 33415 41497 73203 11060 21075 49975 52017 72682 85330 333 85915;
0202334150999992000012118004+49570+025600FM-12+032499999V0203201N006010072019N0100001N1-00781-00961100061ADDAA112003091AY181061AY221061GA1051+007209099GF107991051031008001031001KA1120M-00171MD1210261+9999MW1021REMSYN088AAXX  21181 33415 11597 73206 11078 21096 40006 52026 60032 70282 85330 333 11017 85924;
0166334150999992000012121004+49570+025600FM-12+032499999V0203201N008010075019N0100001N1-00881-01031100461ADDAY131031AY221031GA1051+007509059GF107991051051008001031001MD1210371+9999MW1361REMSYN076AAXX  21211 33415 41597 73208 11088 21103 40046 52037 73632 85530 333 85625;
0161334150999992000012200004+49570+025600FM-12+032499999V0202901N008019999999N0100001N1-01241-01441100791ADDAY181061AY231061GF106991041001999999031011MA1999999096561MD1210271+9999MW1361REMSYN072AAXX  22001 33415 41997 62908 11124 21144 39656 40079 52027 73683 84031;
0182334150999992000012203004+49570+025600FM-12+032499999V0202501N004010039019N0020001N1-00961-01081100831ADDAY181031AY231031GA1051+003909099GF108991051031004501031999MD1210091+9999MW1851REMSYN092AAXX  22031 33415 41495 82504 11096 21108 40083 52009 78583 8533/ 333 85913 555 21124 7006/;
0231334150999992000012206004+49570+025600FM-12+032499999V0203201N008010039019N0020001N1-01041-01241101071ADDAA112001091AJ100189199999999AY181061AY231061GA1051+003909099GF108991051031004501031999IA1239KA1120N-01241MD1210211+9999MW1851REMSYN094AAXX  22061 33415 11495 83208 11104 21124 40107 52021 60012 78583 8533/ 333 21124 47018 85913;
0166334150999992000012209004+49570+025600FM-12+032499999V0202501N007012200019N0100001N1-01191-01541101311ADDAY181031AY231031GA1031+006009099GF103991031031004501001001MD1210261+9999MW1361REMSYN076AAXX  22091 33415 41497 32507 11119 21154 40131 52026 73683 83300 333 83920;
0171334150999992000012212004+49570+025600FM-12+032499999V0202701N008012200019N0100001N1-00951-01461101341ADDAY181061AY231061GA1001+999999999GF100991001001999999001001MA1999999097131MD1210011+9999MW1361REMSYN066AAXX  22121 33415 41997 02708 11095 21146 39713 40134 52001 73683;
0140334150999992000012215004+49570+025600FM-12+032499999V0202701N005012200019N0100001N1-01021-01461101421ADDAY131031AY201031GF102991021001999999031001MD1210071+9999MW1021REMSYN066AAXX  22151 33415 41997 22705 11102 21146 40142 52007 70230 82030;
0162334150999992000012218004+49570+025600FM-12+032499999V0202501N005012200019N0100001N1-01271-01621101521ADDAA112000791GA1001+999999999GF100991001001999999001001KA1999M-00911MD1210051+9999REMSYN070AAXX  22181 33415 12997 02505 11127 21162 40152 52005 69902 333 11091;
0112334150999992000012221004+49570+025600FM-12+032499999V0209999C000012200019N0100001N1-01581-01921101641ADDGF103991031001999999031001MD1210061+9999REMSYN060AAXX  22211 33415 42997 30000 11158 21192 40164 52006 83030;
0133334150999992000012300004+49570+025600FM-12+032499999V0209999C000012200019N0100001N1-01821-02081101621ADDGF101991011001999999031001MA1999999097261MD1810051+9999REMSYN066AAXX  23001 33415 42997 10000 11182 21208 39726 40162 58005 81030;
0158334150999992000012303004+49570+025600FM-12+032499999V0209999C000012200019N0100001N1-02061-02251101691ADDAA199000091GF103991031001999999031001MD1310021+9999REMSYN076AAXX  23031 33415 32997 30000 11206 21225 40169 53002 83030 555 21207 7994/;EQDQ01  00002PRCP99
0194334150999992000012306004+49570+025600FM-12+032499999V0209999C000019999999N0100001N1-01981-02171101721ADDAA199000091AJ100149199999999GF107991071001999999031001IA1249KA1120N-02081MD1210041+9999REMSYN076AAXX  23061 33415 32997 70000 11198 21217 40172 52004 87030 333 21208 48014;EQDQ01  00002PRCP99
0112334150999992000012309004+49570+025600FM-12+032499999V0209999C000019999999N0100001N1-01511-01781101671ADDGF107991041001999999031011MD1210031+9999REMSYN060AAXX  23091 33415 42997 70000 11151 21178 40167 52003 84031;
0133334150999992000012312004+49570+025600FM-12+032499999V0209999C000019999999N0100001N1-01361-01711101561ADDGF107991001001999999001011MA1999999097291MD1810061+9999REMSYN066AAXX  23121 33415 42997 70000 11136 21171 39729 40156 58006 80001;
0112334150999992000012315004+49570+025600FM-12+032499999V0209999C000019999999N0100001N1-01181-01701101581ADDGF107991041001999999031011MD1310021+9999REMSYN060AAXX  23151 33415 42997 70000 11118 21170 40158 53002 84031;
0165334150999992000012318004+49570+025600FM-12+032499999V0209999V001019999999N0100001N1-01291-01721101621ADDAA199000091GF107991071001999999031001KA1999M-01141MD1210031+9999REMSYN070AAXX  23181 33415 32997 79901 11129 21172 40162 52003 87030 333 11114;EQDQ01  00002PRCP99
0112334150999992000012321004+49570+025600FM-12+032499999V0203601N003019999999N0100001N1-01501-01841101681ADDGF107991071001999999031001MD1210021+9999REMSYN060AAXX  23211 33415 42997 73603 11150 21184 40168 52002 87030;
0133334150999992000012400004+49570+025600FM-12+032499999V0203401N003019999999N0100001N1-01631-01891101701ADDGF107991071001999999031001MA1999999097391MD1210031+9999REMSYN066AAXX  24001 33415 42997 73403 11163 21189 39739 40170 52003 87030;
0212334150999992000012403004+49570+025600FM-12+032499999V0203601N002010045019N0040001N1-01441-01641101691ADDAA199000091AY121031AY221031GA1051+004509069GF108991051051004501031999MD1410001+9999MW1101REMSYN092AAXX  24031 33415 31496 83602 11144 21164 40169 54000 71022 8553/ 333 85615 555 21164 7000/;EQDQ01  00002PRCP99
0194334150999992000012406004+49570+025600FM-12+032499999V0203601N005010360019N0100001N1-01301-01571101691ADDAA199000091AJ100149199999999GF107991021051008001031001IA1249KA1120N-01641MD1310021+9999REMSYN076AAXX  24061 33415 32597 73605 11130 21157 40169 53002 82530 333 21164 48014;EQDQ01  00002PRCP99
0112334150999992000012409004+49570+025600FM-12+032499999V0203601N006019999999N0100001N1-01321-01671101771ADDGF107991071001999999031001MD1210081+9999REMSYN060AAXX  24091 33415 42997 73606 11132 21167 40177 52008 87030;
0133334150999992000012412004+49570+025600FM-12+032499999V0203301N005012200019N0100001N1-01301-01731101761ADDGF103991031001999999031011MA1999999097461MD1810031+9999REMSYN066AAXX  24121 33415 42997 33305 11130 21173 39746 40176 58003 83031;
0112334150999992000012415004+49570+025600FM-12+032499999V0203101N006012200019N0100001N1-01431-01861101861ADDGF103991031001999999031011MD1310091+9999REMSYN060AAXX  24151 33415 42997 33106 11143 21186 40186 53009 83031;
0165334150999992000012418004+49570+025600FM-12+032499999V0203101N007012200019N0100001N1-01601-01941102051ADDAA199000091GF102991001001999999001011KA1999M-01281MD1210151+9999REMSYN070AAXX  24181 33415 32997 23107 11160 21194 40205 52015 80001 333 11128;EQDQ01  00002PRCP99
0122334150999992000012421004+49570+025600FM-12+032499999V0202801N006012200019N0100001N1-01981-02241102151ADDGA1001+999999999GF100991001001999999001001MD1210031+9999REMSYN054AAXX  24211 33415 42997 02806 11198 21224 40215 52003;
0161334150999992000012500004+49570+025600FM-12+032499999V0202901N003019999999N0020001N1-02091-02091102241ADDAY111061AY211061GF107991001001999999001011MA1999999097801MD1210071+9999MW1101REMSYN072AAXX  25001 33415 41995 72903 11209 21209 39780 40224 52007 71011 80001;
0186334150999992000012503004+49570+025600FM-12+032499999V0202701N006010360019N0040001N1-01701-01891102291ADDAA199000091AY121031AY221031GF107991031051012501031001MD1210111+9999MW1101REMSYN082AAXX  25031 33415 31696 72706 11170 21189 40229 52011 71022 83530 555 21210 7000/;EQDQ01  00002PRCP99
0222334150999992000012506004+49570+025600FM-12+032499999V0202701N005012200019N0040001N1-01781-01971102391ADDAA199000091AJ100149199999999AY111061AY211061GF102991001001999999001011IA1249KA1120N-02101MD1210081+9999MW1101REMSYN082AAXX  25061 33415 31996 22705 11178 21197 40239 52008 71011 80001 333 21210 48014;EQDQ01  00002PRCP99
0140334150999992000012509004+49570+025600FM-12+032499999V0202901N005019999999N0040001N1-01591-01861102451ADDAY111031AY211031GF106991001001999999001011MD1210101+9999MW1101REMSYN066AAXX  25091 33415 41996 62905 11159 21186 40245 52010 71011 80001;
0161334150999992000012512004+49570+025600FM-12+032499999V0202701N006012200019N0100001N1-01251-01601102401ADDAY181061AY211061GF106991021031008001001011MA1999999098101MD1210011+9999MW1261REMSYN072AAXX  25121 33415 41597 62706 11125 21160 39810 40240 52001 72681 82301;
0112334150999992000012515004+49570+025600FM-12+032499999V0202701N007019999999N0100001N1-01301-01651102431ADDGF107991001001999999001011MD1210011+9999REMSYN060AAXX  25151 33415 42997 72707 11130 21165 40243 52001 80001;
0152334150999992000012518004+49570+025600FM-12+032499999V0202501N006012200019N0100001N1-01331-01601102381ADDAA112000791GF103991001001999999001011KA1999M-01241MD1810041+9999REMSYN076AAXX  25181 33415 12997 32506 11133 21160 40238 58004 69902 80001 333 11124;
0166334150999992000012521004+49570+025600FM-12+032499999V0202501N005010360019N0100001N1-00951-01161102071ADDAY131031AY221031GA1041+009309059GF107991041051008001031001MD1710231+9999MW1361REMSYN076AAXX  25211 33415 41597 72505 11095 21116 40207 57023 73632 84530 333 84631;
0187334150999992000012600004+49570+025600FM-12+032499999V0202701N009010060019N0010001N1-00861-01011101851ADDAY181061AY231061GA1051+006009099GF108991051031008001031999MA1999999097641MD1710201+9999MW1851REMSYN082AAXX  26001 33415 41594 82709 11086 21101 39764 40185 57020 78583 8533/ 333 85920;
0182334150999992000012603004+49570+025600FM-12+032499999V0202701N009010051019N0010001N1-00821-00921101751ADDAY181031AY231031GA1061+005109099GF108991061031004501031999MD1710101+9999MW1851REMSYN092AAXX  26031 33415 41494 82709 11082 21092 40175 57010 78583 8633/ 333 86917 555 21133 7002/;
0231334150999992000012606004+49570+025600FM-12+032499999V0202701N008010036019N0020001N1-00761-00891101721ADDAA112002091AJ100159199999999AY181061AY231061GA1051+003609099GF108991051031004501031999IA1249KA1120N-01331MD1710011+9999MW1851REMSYN094AAXX  26061 33415 11495 82708 11076 21089 40172 57001 60022 78583 8533/ 333 21133 48015 85912;
0166334150999992000012609004+49570+025600FM-12+032499999V0202501N007010045019N0020001N1-00681-00841101751ADDAY181031AY231031GA1051+004509099GF107991051031004501031001MD1310031+9999MW1851REMSYN076AAXX  26091 33415 41495 72507 11068 21084 40175 53003 78583 85330 333 85915;
0187334150999992000012612004+49570+025600FM-12+032499999V0202701N009010048019N0040001N1-00531-00731101681ADDAY181061AY231061GA1051+004809099GF107991051031004501031001MA1999999097521MD1810041+9999MW1851REMSYN082AAXX  26121 33415 41496 72709 11053 21073 39752 40168 58004 78583 85330 333 85916;
0166334150999992000012615004+49570+025600FM-12+032499999V0202701N009010045019N0040001N1-00491-00661101691ADDAY181031AY231031GA1051+004509099GF107991051031004501031001MD1310021+9999MW1851REMSYN076AAXX  26151 33415 41496 72709 11049 21066 40169 53002 78583 85330 333 85915;
0202334150999992000012618004+49570+025600FM-12+032499999V0202701N005010051019N0040001N1-00441-00601101791ADDAA112002091AY181061AY231061GA1051+005109099GF108991051031004501031999KA1120M-00431MD1210101+9999MW1851REMSYN088AAXX  26181 33415 11496 82705 11044 21060 40179 52010 60022 78583 8533/ 333 11043 85917;
0166334150999992000012621004+49570+025600FM-12+032499999V0202701N009010054019N0040001N1-00431-00591101811ADDAY181031AY231031GA1051+005409099GF108991051031004501031999MD1210021+9999MW1851REMSYN076AAXX  26211 33415 41496 82709 11043 21059 40181 52002 78583 8533/ 333 85918;
0187334150999992000012700004+49570+025600FM-12+032499999V0202701N008010360019N0040001N1-00411-00571101631ADDAY181061AY231061GA1041+005109099GF107991041031004501031001MA1999999097491MD1810171+9999MW1851REMSYN082AAXX  27001 33415 41496 72708 11041 21057 39749 40163 58017 78583 84330 333 84917;
0199334150999992000012703004+49570+025600FM-12+032499999V0202701N013010042019N0010001N1-00371-00521101561ADDAA124003091AY181031AY231031GA1051+004209099GF108991051031004501031999MD1710051+9999MW1861REMSYN098AAXX  27031 33415 41494 82713 11037 21052 40156 57005 78683 8533/ 333 85914 555 21044 7003/ 91018;
0231334150999992000012706004+49570+025600FM-12+032499999V0202701N010010045019N0020001N1-00281-00411101601ADDAA112001091AJ100169199999999AY181061AY231061GA1051+004509099GF108991051031004501031999IA1249KA1120N-00441MD1310051+9999MW1861REMSYN094AAXX  27061 33415 11495 82710 11028 21041 40160 53005 60012 78683 8533/ 333 21044 48016 85915;
0166334150999992000012709004+49570+025600FM-12+032499999V0202701N012010051019N0020001N1-00101-00231101671ADDAY181031AY231031GA1061+005109099GF108991061031004501031001MD1210101+9999MW1851REMSYN076AAXX  27091 33415 41495 82712 11010 21023 40167 52010 78583 86330 333 86917;
0187334150999992000012712004+49570+025600FM-12+032499999V0202701N014010039019N0020001N1-00071-00171101641ADDAY181061AY231061GA1081+003909099GF108991081031004501999999MA1999999097561MD1810031+9999MW1851REMSYN082AAXX  27121 33415 41495 82714 11007 21017 39756 40164 58003 78583 883// 333 88913;
0166334150999992000012715004+49570+025600FM-12+032499999V0202701N007010042019N0040001N1+00011-00101101751ADDAY181031AY231031GA1061+004209099GF107991061031004501031001MD1310121+9999MW1101REMSYN076AAXX  27151 33415 41496 72707 10001 21010 40175 53012 71083 86330 333 86914;
0202334150999992000012718004+49570+025600FM-12+032499999V0202701N008010045019N0100001N1-00011-00191101791ADDAA112000391AY181061AY231061GA1061+004509099GF107991061031004501031001KA1120M+00021MD1210031+9999MW1021REMSYN088AAXX  27181 33415 11497 72708 11001 21019 40179 52003 69932 70283 86330 333 10002 86915;
0112334150999992000012721004+49570+025600FM-12+032499999V0202701N008010360019N0100001N1-00041-00281101771ADDGF107991021051008001031001MD1810021+9999REMSYN060AAXX  27211 33415 42597 72708 11004 21028 40177 58002 82530;
0159334150999992000012800004+49570+025600FM-12+032499999V0202701N007010030019N0100001N1-00031-00181101761ADDGA1061+003009099GF107991061031004501031001MA1999999097681MD1710011+9999REMSYN076AAXX  28001 33415 42497 72707 11003 21018 39768 40176 57001 86330 333 86910;
0212334150999992000012803004+49570+025600FM-12+032499999V0202501N007010039019N0100001N1-00121-00291101691ADDAA199000091AY131031AY221031GA1051+003909099GF107991051031004501031001MD1710091+9999MW1361REMSYN092AAXX  28031 33415 31497 72507 11012 21029 40169 57009 73632 85330 333 85913 555 21012 7998/;EQDQ01  00002PRCP99
0244334150999992000012806004+49570+025600FM-12+032499999V0202501N009010039019N0100001N1-00171-00551101611ADDAA199000091AJ100129199999999AY131061AY221061GA1061+003909099GF107991061031004501031001IA1249KA1120N-00171MD1710081+9999MW1361REMSYN088AAXX  28061 33415 31497 72509 11017 21055 40161 57008 73632 86330 333 21017 48012 86913;EQDQ01  00002PRCP99
0166334150999992000012809004+49570+025600FM-12+032499999V0202501N007010054019N0100001N1-00051-00501101591ADDAY131031AY231031GA1061+005409099GF107991061031004501031001MD1410001+9999MW1361REMSYN076AAXX  28091 33415 41497 72507 11005 21050 40159 54000 73633 86330 333 86918;
0187334150999992000012812004+49570+025600FM-12+032499999V0202701N007010078019N0100001N1+00001-00391101471ADDAY131061AY231061GA1061+007809099GF107991061031008001031001MA1999999097411MD1810101+9999MW1361REMSYN082AAXX  28121 33415 41597 72707 10000 21039 39741 40147 58010 73633 86330 333 86926;
0166334150999992000012815004+49570+025600FM-12+032499999V0202501N006010093019N0100001N1-00031-00301101491ADDAY181031AY231031GA1061+009309099GF107991061031008001031999MD1410001+9999MW1851REMSYN076AAXX  28151 33415 41597 72506 11003 21030 40149 54000 78583 8633/ 333 86931;
0202334150999992000012818004+49570+025600FM-12+032499999V0202301N007010099019N0100001N1-00071-00421101471ADDAA112000791AY181061AY231061GA1061+009909099GF108991061031012501031999KA1120M+00001MD1810021+9999MW1021REMSYN088AAXX  28181 33415 11697 82307 11007 21042 40147 58002 69902 70283 8633/ 333 10000 86933;
0166334150999992000012821004+49570+025600FM-12+032499999V0202501N009010090019N0100001N1-00091-00441101521ADDAY131031AY221031GA1061+009009099GF108991061031008001031999MD1310051+9999MW1361REMSYN076AAXX  28211 33415 41597 82509 11009 21044 40152 53005 73632 8633/ 333 86930;
0187334150999992000012900004+49570+025600FM-12+032499999V0202501N007010078019N0100001N1-00091-00441101521ADDAY131061AY221061GA1061+007809099GF108991061031008001031999MA1999999097441MD1410001+9999MW1021REMSYN082AAXX  29001 33415 41597 82507 11009 21044 39744 40152 54000 70232 8633/ 333 86926;
0182334150999992000012903004+49570+025600FM-12+032499999V0202301N006010099019N0100001N1-00141-00541101511ADDAY181031AY221031GA1061+009909099GF108991061031008001031999MD1810021+9999MW1851REMSYN092AAXX  29031 33415 41597 82306 11014 21054 40151 58002 78582 8633/ 333 86933 555 21016 7990/;
0209334150999992000012906004+49570+025600FM-12+032499999V0202001N004010360019N0100001N1-00211-00671101511ADDAA112000791AJ100119199999999AY181061AY221061GF107991041031012501031001IA1249KA1120N-00271MD1710021+9999MW1021REMSYN088AAXX  29061 33415 11697 72004 11021 21067 40151 57002 69902 70282 84330 333 21027 48011;
0112334150999992000012909004+49570+025600FM-12+032499999V0202001N006010120019N0100001N1-00181-00671101441ADDGF107991071051012501001001MD1710051+9999REMSYN060AAXX  29091 33415 42697 72006 11018 21067 40144 57005 87500;
0133334150999992000012912004+49570+025600FM-12+032499999V0202001N005010120019N0100001N1-00021-00601101241ADDGF107991061051012501031001MA1999999097171MD1710181+9999REMSYN066AAXX  29121 33415 42697 72005 11002 21060 39717 40124 57018 86530;
0086334150999992000012915004+49570+025600FM-12+032499999V0201801N005019999999N0100001N1+00021-00581100901ADDGF107991999999012501999999REMSYN048AAXX  29151 33415 42697 71805 10002 21058 4009/;
0165334150999992000012918004+49570+025600FM-12+032499999V0201601N006010120019N0100001N1-00051-00571100751ADDAA199000091GF107991051051012501031001KA1999M+00041MD1710231+9999REMSYN070AAXX  29181 33415 32697 71606 11005 21057 40075 57023 85530 333 10004;EQDQ01  00002PRCP99
0112334150999992000012921004+49570+025600FM-12+032499999V0201801N008010360019N0100001N1+00101-00391100461ADDGF107991041051012501031001MD1710241+9999REMSYN060AAXX  29211 33415 42697 71808 10010 21039 40046 57024 84530;
0112334150999992000013000004+49570+025600FM-12+032499999V0201801N006010360019N0100001N1+00141-00271999999ADDGF107991031051012501031041MD1710281+9999REMSYN060AAXX  30001 33415 42697 71806 10014 21027 392// 57028 83534;
0182334150999992000013003004+49570+025600FM-12+032499999V0202001N008010360019N0100001N1+00181-00101099991ADDAY181031AY221031GA1041+004509099GF107991041031004501031001MD1710161+9999MW1261REMSYN092AAXX  30031 33415 41497 72008 10018 21010 49999 57016 72682 84330 333 84915 555 21005 7990/;
0209334150999992000013006004+49570+025600FM-12+032499999V0202001N009010075019N0100001N1+00241+00031099761ADDAA112000891AJ100109199999999AY181061AY221061GF107991051031008001031001IA1289KA1120N-00051MD1710221+9999MW1021REMSYN088AAXX  30061 33415 11597 72009 10024 20003 49976 57022 69982 70282 85330 333 21005 44010;
0140334150999992000013009004+49570+025600FM-12+032499999V0202301N007010120019N0100001N1+00191+00081099771ADDAY181031AY221031GF108991051031012501031999MD1310011+9999MW1801REMSYN066AAXX  30091 33415 41697 82307 10019 20008 49977 53001 78082 8533/;
0161334150999992000013012004+49570+025600FM-12+032499999V0202501N010010360019N0100001N1+00251+00041099801ADDAY181061AY221061GF106991031031012501031001MA1999999095841MD1210031+9999MW1251REMSYN072AAXX  30121 33415 41697 62510 10025 20004 39584 49980 52003 72582 83330;
0140334150999992000013015004+49570+025600FM-12+032499999V0202701N009010120019N0040001N1+00271+00061100031ADDAY181031AY221031GF108991081031012501999999MD1210221+9999MW1831REMSYN066AAXX  30151 33415 41696 82709 10027 20006 40003 52022 78382 883//;
0190334150999992000013018004+49570+025600FM-12+032499999V0202501N010012200019N0100001N1+00071-00221100381ADDAA112004191AY181061AY211061GA1001+999999999GF100991001001999999001001KA1999M+00301MD1210301+9999MW1021REMSYN076AAXX  30181 33415 11997 02510 10007 21022 40038 52030 60042 70281 333 10030;
0112334150999992000013021004+49570+025600FM-12+032499999V0202701N010012200019N0100001N1+00121-00371100631ADDGF103991031031012501001001MD1210261+9999REMSYN060AAXX  30211 33415 42697 32710 10012 21037 40063 52026 83300;
0133334150999992000013100004+49570+025600FM-12+032499999V0202701N012010120019N0100001N1+00141-00341100941ADDGF106991061051012501001001MA1999999096911MD1210291+9999REMSYN066AAXX  31001 33415 42697 62712 10014 21034 39691 40094 52029 86500;
0149334150999992000013103004+49570+025600FM-12+032499999V0202701N009012200019N0100001N1-00061-00541101191ADDAA199000021GA1001+999999999GF100991001001999999001001MD1210211+9999REMSYN070AAXX  31031 33415 32997 02709 11006 21054 40119 52021 555 21007 7004/;
0194334150999992000013106004+49570+025600FM-12+032499999V0202501N004019999999N0100001N1-00241-00601101261ADDAA199000091AJ100069199999999GF106991061001999999031001IA1289KA1120N-00251MD1210041+9999REMSYN076AAXX  31061 33415 32997 62504 11024 21060 40126 52004 86030 333 21025 44006;EQDQ01  00002PRCP99
0138334150999992000013109004+49570+025600FM-12+032499999V0202001N002010360019N0100001N1-00081-00621101081ADDGA1041+005709059GF107991041051004501031001MD1810141+9999REMSYN070AAXX  31091 33415 42497 72002 11008 21062 40108 58014 84530 333 84619;
0187334150999992000013112004+49570+025600FM-12+032499999V0202001N006010066019N0100001N1+00011-00131100531ADDAY181061AY221061GA1051+006609099GF107991051031008001031001MA1999999096501MD1710521+9999MW1261REMSYN082AAXX  31121 33415 41597 72006 10001 21013 39650 40053 57052 72682 85330 333 85922;
0166334150999992000013115004+49570+025600FM-12+032499999V0202301N009010360019N0100001N1+00331-00141100341ADDAY181031AY221031GA1041+008109099GF107991041031008001031001MD1710131+9999MW1251REMSYN076AAXX  31151 33415 41597 72309 10033 21014 40034 57013 72582 84330 333 84927;
0202334150999992000013118004+49570+025600FM-12+032499999V0202701N012010093019N0100001N1+00341-00011100551ADDAA112003091AY181061AY221061GA1051+009309099GF107991051031008001031001KA1120M+00371MD1310201+9999MW1251REMSYN088AAXX  31181 33415 11597 72712 10034 21001 40055 53020 60032 72582 85330 333 10037 85931;
0112334150999992000013121004+49570+025600FM-12+032499999V0202701N013010360019N0100001N1+00401-00121100801ADDGF106991021031012501031001MD1210251+9999REMSYN060AAXX  31211 33415 42697 62713 10040 21012 40080 52025 82330;
0133334150999992000020100004+49570+025600FM-12+032499999V0202901N015010360019N0100001N1+00291-00291101351ADDGF105991021051012501031001MA1999999097331MD1210511+9999REMSYN066AAXX  01001 33415 42697 52915 10029 21029 39733 40135 52051 82530;
0139334150999992000020103004+49570+025600FM-12+032499999V0202901N010019999999N0100001N1+00081-00611101831ADDAA199000021GF107991071001999999031001MD1210421+9999REMSYN076AAXX  01031 33415 32997 72910 10008 21061 40183 52042 87030 555 20007 7003/;
0175334150999992000020106004+49570+025600FM-12+032499999V0202701N007019999999N0100001N1-00111-00581102111ADDAA199000021AJ100039199999999GF105991051001999999031001IA1279KA1120N-00121MD1210241+9999REMSYN076AAXX  01061 33415 32997 52707 11011 21058 40211 52024 85030 333 21012 43003;
0112334150999992000020109004+49570+025600FM-12+032499999V0202701N007010360019N0100001N1+00121-00371102221ADDGF107991041051012501031001MD1210041+9999REMSYN060AAXX  01091 33415 42697 72707 10012 21037 40222 52004 84530;
0161334150999992000020112004+49570+025600FM-12+032499999V0202501N005010360019N0100001N1+00261-00231102161ADDAY181061AY221061GF107991041031012501031001MA1999999098061MD1810071+9999MW1801REMSYN072AAXX  01121 33415 41697 72505 10026 21023 39806 40216 58007 78082 84330;
0140334150999992000020115004+49570+025600FM-12+032499999V0202501N002010360019N0100001N1+00211-00101102061ADDAY181031AY221031GF107991041031012501031001MD1710061+9999MW1751REMSYN066AAXX  01151 33415 41697 72502 10021 21010 40206 57006 77582 84330;
0202334150999992000020118004+49570+025600FM-12+032499999V0202201N006010360019N0100001N1+00221-00061101981ADDAA112000791AY181061AY221061GA1041+006309099GF107991041031008001031001KA1120M+00261MD1710081+9999MW1801REMSYN088AAXX  01181 33415 11597 72206 10022 21006 40198 57008 69902 78082 84330 333 10026 84921;
0166334150999992000020121004+49570+025600FM-12+032499999V0201801N004010360019N0100001N1+00201-00021101931ADDAY181031AY221031GA1041+008109059GF107991041051008001031001MD1710041+9999MW1021REMSYN076AAXX  01211 33415 41597 71804 10020 21002 40193 57004 70282 84530 333 84627;
0161334150999992000020200004+49570+025600FM-12+032499999V0202201N004010360019N0100001N1+00271+00061101711ADDAY181061AY221061GF107991041051012501031001MA1999999097671MD1710211+9999MW1021REMSYN072AAXX  02001 33415 41697 72204 10027 20006 39767 40171 57021 70282 84530;
0128334150999992000020203004+49570+025600FM-12+032499999V0202201N005019999999N0100001N1+00231+00101101481ADDGF105991051001999999031011MD1710221+9999REMSYN076AAXX  02031 33415 42997 52205 10023 20010 40148 57022 85031 555 20020 7990/;
0181334150999992000020206004+49570+025600FM-12+032499999V0202401N005019999999N0100001N1+00231+00011101371ADDAA112000791AJ100039199999999GF106991061001999999031011IA1279KA1120N+00201MD1710111+9999REMSYN082AAXX  02061 33415 12997 62405 10023 20001 40137 57011 69902 86031 333 20020 43003;
0112334150999992000020209004+49570+025600FM-12+032499999V0202301N007019999999N0100001N1+00541+00081101261ADDGF107991041001999999031011MD1710061+9999REMSYN060AAXX  02091 33415 42997 72307 10054 20008 40126 57006 84031;
0133334150999992000020212004+49570+025600FM-12+032499999V0202701N006019999999N0100001N1+00551+00061101061ADDGF107991041001999999031011MA1999999097091MD1710191+9999REMSYN066AAXX  02121 33415 42997 72706 10055 20006 39709 40106 57019 84031;
0112334150999992000020215004+49570+025600FM-12+032499999V0202501N006010360019N0100001N1+00491+00081100961ADDGF107991021051012501031001MD1710101+9999REMSYN060AAXX  02151 33415 42697 72506 10049 20008 40096 57010 82530;
0165334150999992000020218004+49570+025600FM-12+032499999V0202501N008010360019N0100001N1+00461+00101100961ADDAA199000091GF107991021051012501031001KA1999M+00581MD1710021+9999REMSYN070AAXX  02181 33415 32697 72508 10046 20010 40096 57002 82530 333 10058;EQDQ01  00002PRCP99
0140334150999992000020221004+49570+025600FM-12+032499999V0202501N005010360019N0100001N1+00381+00091100941ADDAY181031AY221031GF107991041031012501031001MD1710021+9999MW1801REMSYN066AAXX  02211 33415 41697 72505 10038 20009 40094 57002 78082 84330;
0161334150999992000020300004+49570+025600FM-12+032499999V0202301N007010360019N0100001N1+00351+00121100881ADDAY181061AY221061GF107991031051012501031001MA1999999096891MD1710061+9999MW1021REMSYN072AAXX  03001 33415 41697 72307 10035 20012 39689 40088 57006 70282 83530;
0182334150999992000020303004+49570+025600FM-12+032499999V0202701N007010066019N0100001N1+00311+00181100861ADDAY181031AY221031GA1051+006609099GF107991051031008001031001MD1710021+9999MW1801REMSYN092AAXX  03031 33415 41597 72707 10031 20018 40086 57002 78082 85330 333 85922 555 20030 7001/;
0209334150999992000020306004+49570+025600FM-12+032499999V0202901N006010360019N0100001N1+00221-00081101001ADDAA112002091AJ100029199999999AY181061AY221061GF105991021051008001031001IA1309KA1120N+00211MD1310121+9999MW1021REMSYN088AAXX  03061 33415 11597 52906 10022 21008 40100 53012 60022 70282 82530 333 20021 42002;
0112334150999992000020309004+49570+025600FM-12+032499999V0202901N007010360019N0100001N1+00191-00311101191ADDGF105991021051008001031001MD1210181+9999REMSYN060AAXX  03091 33415 42597 52907 10019 21031 40119 52018 82530;
0159334150999992000020312004+49570+025600FM-12+032499999V0202701N006010084019N0100001N1+00261-00441101271ADDGA1061+008409059GF106991061051008001001001MA1999999097251MD1210081+9999REMSYN076AAXX  03121 33415 42597 62706 10026 21044 39725 40127 52008 86500 333 86628;
0166334150999992000020315004+49570+025600FM-12+032499999V0202701N007010360019N0100001N1+00201-00371101331ADDAY181031AY221031GA1041+007209099GF106991041031008001031001MD1210051+9999MW1021REMSYN076AAXX  03151 33415 41597 62707 10020 21037 40133 52005 70282 84330 333 84924;
0202334150999992000020318004+49570+025600FM-12+032499999V0202701N007010081019N0100001N1+00081-00251101651ADDAA112001091AY181061AY221061GA1051+008109099GF106991051031008001031001KA1120M+00271MD1210281+9999MW1261REMSYN088AAXX  03181 33415 11597 62707 10008 21025 40165 52028 60012 72682 85330 333 10027 85927;
0166334150999992000020321004+49570+025600FM-12+032499999V0202701N006010072019N0100001N1+00021-00221101871ADDAY181031AY221031GA1051+007209099GF106991051031008001031001MD1210211+9999MW1851REMSYN076AAXX  03211 33415 41597 62706 10002 21022 40187 52021 78582 85330 333 85924;
0187334150999992000020400004+49570+025600FM-12+032499999V0202301N006010360019N0100001N1+00021-00181101911ADDAY181061AY221061GA1041+006009099GF107991041031008001031001MA1999999097831MD1210041+9999MW1021REMSYN082AAXX  04001 33415 41597 72306 10002 21018 39783 40191 52004 70282 84330 333 84920;
0201334150999992000020403004+49570+025600FM-12+032499999V0202901N006010360019N0100001N1-00271-00431102532ADDAY181031AY221031GA1041+006009099GF106991041031008001031001MD1210551+9999MW1021REMSYN092AAXX  04031 33415 41597 62906 11027 21043 40253 52055 70282 84330 333 84920 555 21028 7003/;EQDQ01+102533APOSLP
0209334150999992000020406004+49570+025600FM-12+032499999V0202701N009010360019N0100001N1-00431-00551102991ADDAA112001091AJ100049199999999AY181061AY231061GF106991041031008001031001IA1249KA1120N-00441MD1210411+9999MW1361REMSYN088AAXX  04061 33415 11597 62709 11043 21055 40299 52041 60012 73683 84330 333 21044 48004;
0140334150999992000020409004+49570+025600FM-12+032499999V0202701N008010360019N0100001N1-00301-00471103181ADDAY131031AY231031GF105991021031012501031001MD1210201+9999MW1361REMSYN066AAXX  04091 33415 41697 52708 11030 21047 40318 52020 73633 82330;
0161334150999992000020412004+49570+025600FM-12+032499999V0202901N007012200019N0100001N1-00221-00611103221ADDAY131061AY231061GF104991021051012501001011MA1999999099051MD1210061+9999MW1361REMSYN072AAXX  04121 33415 41697 42907 11022 21061 39905 40322 52006 73633 82501;
0140334150999992000020415004+49570+025600FM-12+032499999V0202501N005012200019N0100001N1-00261-00631103221ADDAY131031AY201031GF103991021001999999031011MD1410001+9999MW1011REMSYN066AAXX  04151 33415 41997 32505 11026 21063 40322 54000 70130 82031;
0193334150999992000020418004+49570+025600FM-12+032499999V0202301N003012200019N0100001N1-00451-00761103121ADDAA199000091AY131061AY201061GF102991001001999999001011KA1999M-00221MD1810141+9999MW1021REMSYN076AAXX  04181 33415 31997 22303 11045 21076 40312 58014 70230 80001 333 11022;EQDQ01  00002PRCP99
0112334150999992000020421004+49570+025600FM-12+032499999V0202001N009010360019N0100001N1-00351-00561102721ADDGF107991021031012501031001MD1710361+9999REMSYN060AAXX  04211 33415 42697 72009 11035 21056 40272 57036 82330;
0133334150999992000020500004+49570+025600FM-12+032499999V0202301N008010360019N0100001N1-00271-00431102351ADDGF107991021031012501031001MA1999999098211MD1710341+9999REMSYN066AAXX  05001 33415 42697 72308 11027 21043 39821 40235 57034 82330;
0201334150999992000020503004+49570+025600FM-12+032499999V0202501N008010069019N0100001N1-00081-00181101801ADDAY181031AY231031GA1051+006909099GF107991051031008001031001MD1710502+9999MW1851REMSYN092AAXX  05031 33415 41597 72508 11008 21018 40180 57050 78583 85330 333 85923 555 21045 7990/;EQDQ01+000502APC3  
0231334150999992000020506004+49570+025600FM-12+032499999V0202501N010010054019N0040001N1+00041-00021101521ADDAA112001091AJ100059199999999AY181061AY231061GA1061+005409099GF108991061031008001031999IA1279KA1120N-00451MD1710251+9999MW1851REMSYN094AAXX  05061 33415 11596 82510 10004 21002 40152 57025 60012 78583 8633/ 333 21045 43005 86918;
0166334150999992000020509004+49570+025600FM-12+032499999V0202701N008010060019N0100001N1+00131-00011101391ADDAY181031AY221031GA1061+006009099GF107991061031008001031001MD1710121+9999MW1021REMSYN076AAXX  05091 33415 41597 72708 10013 21001 40139 57012 70282 86330 333 86920;
0187334150999992000020512004+49570+025600FM-12+032499999V0202701N009010039019N0100001N1+00241+00171101431ADDAY181061AY221061GA1081+003909099GF108991081031004501999999MA1999999097401MD1310061+9999MW1801REMSYN082AAXX  05121 33415 41497 82709 10024 20017 39740 40143 53006 78082 883// 333 88913;
0166334150999992000020515004+49570+025600FM-12+032499999V0202701N008010033019N0040001N1+00301+00221101561ADDAY181031AY281031GA1061+003309099GF107991061031004501031001MD1210141+9999MW1801REMSYN076AAXX  05151 33415 41496 72708 10030 20022 40156 52014 78088 86330 333 86911;
0202334150999992000020518004+49570+025600FM-12+032499999V0202901N007010033019N0040001N1+00301+00221101781ADDAA112004191AY181061AY221061GA1061+003309099GF107991061031004501031001KA1120M+00301MD1210211+9999MW1101REMSYN088AAXX  05181 33415 11496 72907 10030 20022 40178 52021 60042 71082 86330 333 10030 86911;
0138334150999992000020521004+49570+025600FM-12+032499999V0203201N006010099019N0100001N1+00311+00101101991ADDGA1051+009909059GF107991051051008001031001MD1210201+9999REMSYN070AAXX  05211 33415 42597 73206 10031 20010 40199 52020 85530 333 85633;
0159334150999992000020600004+49570+025600FM-12+032499999V0202701N005010087019N0100001N1+00221+00031102171ADDGA1061+008709059GF107991061051008001031001MA1999999098111MD1210161+9999REMSYN076AAXX  06001 33415 42597 72705 10022 20003 39811 40217 52016 86530 333 86629;
0193334150999992000020603004+49570+025600FM-12+032499999V0202701N004010036019N0040001N1+00221+00141102211ADDAA199000021AY121031AY221031GA1071+003609069GF107991071051004501001001MD1210041+9999MW1101REMSYN092AAXX  06031 33415 31496 72704 10022 20014 40221 52004 71022 87500 333 87612 555 20022 7005/;
0231334150999992000020606004+49570+025600FM-12+032499999V0202501N004010021019N0040001N1+00231+00181102171ADDAA112000891AJ100029199999999AY181061AY221061GA1051+002109069GF108991081031002501999999IA1279KA1120N+00211MD1810041+9999MW1801REMSYN094AAXX  06061 33415 11396 82504 10023 20018 40217 58004 69982 78082 883// 333 20021 43002 85707;
0166334150999992000020609004+49570+025600FM-12+032499999V0202701N006010015019N0010001N1+00341+00291102211ADDAY161031AY251031GA1081+001509069GF108991081061001501999999MD1310051+9999MW1511REMSYN076AAXX  06091 33415 41294 82706 10034 20029 40221 53005 75165 886// 333 88705;
0187334150999992000020612004+49570+025600FM-12+032499999V0202701N007010015019N0020001N1+00361+00311102151ADDAY181061AY251061GA1081+001509069GF108991081061001501999999MA1999999098121MD1810041+9999MW1101REMSYN082AAXX  06121 33415 41295 82707 10036 20031 39812 40215 58004 71085 886// 333 88705;
0166334150999992000020615004+49570+025600FM-12+032499999V0202701N005010018019N0020001N1+00401+00281102131ADDAY121031AY221031GA1051+001809069GF107991051071002501031001MD1710021+9999MW1101REMSYN076AAXX  06151 33415 41395 72705 10040 20028 40213 57002 71022 85730 333 85706;
0180334150999992000020618004+49570+025600FM-12+032499999V0202701N007012200019N0040001N1+00431+00201102121ADDAA112000791AY121061AY221061GF104991041001999999031001KA1999M+00431MD1710011+9999MW1101REMSYN082AAXX  06181 33415 31996 42707 10043 20020 40212 57001 69902 71022 84030 333 10043;
0112334150999992000020621004+49570+025600FM-12+032499999V0202501N004019999999N0100001N1+00471+00191102101ADDGF105991051001999999031001MD1410001+9999REMSYN060AAXX  06211 33415 42997 52504 10047 20019 40210 54000 85030;
0133334150999992000020700004+49570+025600FM-12+032499999V0202701N005019999999N0100001N1+00421+00171102141ADDGF105991051001999999031001MA1999999098111MD1310021+9999REMSYN066AAXX  07001 33415 41997 52705 10042 20017 39811 40214 53002 85030;
0158334150999992000020703004+49570+025600FM-12+032499999V0202001N003019999999N0100001N1+00311+00071102081ADDAA199000091GF105991051001999999031001MD1810071+9999REMSYN076AAXX  07031 33415 32997 52003 10031 20007 40208 58007 85030 555 20031 7998/;EQDQ01  00002PRCP99
0142334150999992000020706004+49570+025600FM-12+032499999V0202501N003019999999N0100001N1+00201-00021102091ADDAA199000091GF106991061001999999031031MD1710011+9999REMSYN060AAXX  07061 33415 32997 62503 10020 21002 40209 57001 86033;EQDQ01  00002PRCP99
0112334150999992000020709004+49570+025600FM-12+032499999V0209999V001019999999N0100001N1+00491+00081102001ADDGF107991021001999999031011MD1710041+9999REMSYN060AAXX  07091 33415 42997 79901 10049 20008 40200 57004 82031;
0133334150999992000020712004+49570+025600FM-12+032499999V0209999V002019999999N0100001N1+00891+00171101801ADDGF106991021001999999031011MA1999999097851MD1710141+9999REMSYN066AAXX  07121 33415 42997 69902 10089 20017 39785 40180 57014 82031;
0112334150999992000020715004+49570+025600FM-12+032499999V0202001N002019999999N0100001N1+00731+00231101741ADDGF107991041001999999031011MD1710081+9999REMSYN060AAXX  07151 33415 42997 72002 10073 20023 40174 57008 84031;
0165334150999992000020718004+49570+025600FM-12+032499999V0202501N004019999999N0100001N1+00511+00071101711ADDAA199000091GF105991001001999999001011KA1999M+00911MD1710061+9999REMSYN070AAXX  07181 33415 32997 52504 10051 20007 40171 57006 80001 333 10091;EQDQ01  00002PRCP99
0122334150999992000020721004+49570+025600FM-12+032499999V0202501N004012200019N0100001N1+00381-00021101651ADDGA1001+999999999GF100991001001999999001001MD1710071+9999REMSYN054AAXX  07211 33415 42997 02504 10038 21002 40165 57007;
0133334150999992000020800004+49570+025600FM-12+032499999V0202701N002012200019N0100001N1+00381+00011101681ADDGF102991001001999999001011MA1999999097671MD1310031+9999REMSYN066AAXX  08001 33415 42997 22702 10038 20001 39767 40168 53003 80001;
0174334150999992000020803004+49570+025600FM-12+032499999V0202301N003019999999N0100001N1+00361+00041101551ADDAA199000091GF107991999001999999031001MD1810141+9999REMSYN076AAXX  08031 33415 32997 72303 10036 20004 40155 58014 88030 555 20035 7000/;EQDQ01+000082SCOTLCQ02  00002PRCP99
0194334150999992000020806004+49570+025600FM-12+032499999V0209999V001010360019N0100001N1+00321+00031101451ADDAA199000091AJ100009199999999GF107991041051012501031001IA1309KA1120N+00321MD1710101+9999REMSYN076AAXX  08061 33415 32697 79901 10032 20003 40145 57010 84530 333 20032 42997;EQDQ01  00002PRCP99
0106334150999992000020809004+49570+025600FM-12+032499999V0202001N005019999999N0100001N1+00511+00191101311ADDGF105991999999999999999999MD1710111+9999REMSYN054AAXX  08091 33415 41997 52005 10051 20019 40131 57011;
0161334150999992000020812004+49570+025600FM-12+032499999V0202001N005010360019N0100001N1+00741+00271100981ADDAY181061AY221061GF106991031051012501031011MA1999999097041MD1710281+9999MW1021REMSYN072AAXX  08121 33415 41697 62005 10074 20027 39704 40098 57028 70282 83531;
0140334150999992000020815004+49570+025600FM-12+032499999V0202301N007010360019N0100001N1+00641+00111100811ADDAY121031AY221031GF108991041031012501031999MD1710181+9999MW1251REMSYN066AAXX  08151 33415 41697 82307 10064 20011 40081 57018 72522 8433/;
0180334150999992000020818004+49570+025600FM-12+032499999V0202301N009010120019N0100001N1+00541+00081100801ADDAA112000791AY181061AY221061GF108991061051012501031999KA1999M+00751MD1710021+9999MW1021REMSYN082AAXX  08181 33415 11697 82309 10054 20008 40080 57002 69902 70282 8653/ 333 10075;
0122334150999992000020821004+49570+025600FM-12+032499999V0202301N007012200019N0100001N1+00441-00041100651ADDGA1001+999999999GF100991001001999999001001MD1710161+9999REMSYN054AAXX  08211 33415 42997 02307 10044 21004 40065 57016;
0133334150999992000020900004+49570+025600FM-12+032499999V0202001N007010360019N0100001N1+00391+00021100481ADDGF107991031051012501031001MA1999999096511MD1710171+9999REMSYN066AAXX  09001 33415 42697 72007 10039 20002 39651 40048 57017 83530;
0139334150999992000020903004+49570+025600FM-12+032499999V0201801N006010120019N0100001N1+00431+00091100161ADDAA199000021GF108991081051012501999999MD1710301+9999REMSYN076AAXX  09031 33415 32697 81806 10043 20009 40016 57030 885// 555 20038 7990/;
0209334150999992000020906004+49570+025600FM-12+032499999V0202001N006010120019N0100001N1+00441+00241100101ADDAA112001091AJ100009199999999AY181061AY221061GF108991051031012501031999IA1259KA1120N+00381MD1710061+9999MW1251REMSYN088AAXX  09061 33415 11697 82006 10044 20024 40010 57006 60012 72582 8533/ 333 20038 41997;
0112334150999992000020909004+49570+025600FM-12+032499999V0202401N008010360019N0100001N1+00681+00241100251ADDGF107991031031012501031001MD1310181+9999REMSYN060AAXX  09091 33415 42697 72408 10068 20024 40025 53018 83330;
0133334150999992000020912004+49570+025600FM-12+032499999V0202701N008012200019N0100001N1+00911-00091100631ADDGF105991021011012501001011MA1999999096721MD1210391+9999REMSYN066AAXX  09121 33415 42697 52708 10091 21009 39672 40063 52039 82101;
0112334150999992000020915004+49570+025600FM-12+032499999V0202701N007012200019N0100001N1+00521-00201100901ADDGF103991021051012501001011MD1210211+9999REMSYN060AAXX  09151 33415 42697 32707 10052 21020 40090 52021 82501;
0146334150999992000020918004+49570+025600FM-12+032499999V0202701N005012200019N0100001N1+00211-00221101211ADDAA199000021GF103991001001999999001011KA1999M+00911MD1210261+9999REMSYN070AAXX  09181 33415 32997 32705 10021 21022 40121 52026 80001 333 10091;
0112334150999992000020921004+49570+025600FM-12+032499999V0202701N007019999999N0100001N1+00241-00161101461ADDGF107991071001999999031011MD1210241+9999REMSYN060AAXX  09211 33415 42997 72707 10024 21016 40146 52024 87031;
0133334150999992000021000004+49570+025600FM-12+032499999V0202701N004019999999N0100001N1+00111-00211101591ADDGF105991001001999999001011MA1999999097541MD1210111+9999REMSYN066AAXX  10001 33415 42997 52704 10011 21021 39754 40159 52011 80001;
0158334150999992000021003004+49570+025600FM-12+032499999V0202201N003012200019N0100001N1-00021-00291101721ADDAA199000091GF102991001001999999001011MD1210101+9999REMSYN076AAXX  10031 33415 32997 22203 11002 21029 40172 52010 80001 555 21003 7001/;EQDQ01  00002PRCP99
0194334150999992000021006004+49570+025600FM-12+032499999V0202201N005019999999N0100001N1-00011-00281101861ADDAA199000091AJ100009199999999GF107991071001999999031011IA1259KA1120N-00081MD1210141+9999REMSYN076AAXX  10061 33415 32997 72205 11001 21028 40186 52014 87031 333 21008 41997;EQDQ01  00002PRCP99
0140334150999992000021009004+49570+025600FM-12+032499999V0202301N005010360019N0100001N1+00141-00271102011ADDAY181031AY221031GF107991041031012501031001MD1210161+9999MW1261REMSYN066AAXX  10091 33415 41697 72305 10014 21027 40201 52016 72682 84330;
0161334150999992000021012004+49570+025600FM-12+032499999V0202501N007010360019N0100001N1+00341-00261102101ADDAY181061AY221061GF107991041031012501031001MA1999999098061MD1210121+9999MW1021REMSYN072AAXX  10121 33415 41697 72507 10034 21026 39806 40210 52012 70282 84330;
0140334150999992000021015004+49570+025600FM-12+032499999V0202701N006010120019N0100001N1+00241-00061102221ADDAY181031AY221031GF107991051031012501031001MD1210101+9999MW1021REMSYN066AAXX  10151 33415 41697 72706 10024 21006 40222 52010 70282 85330;
0180334150999992000021018004+49570+025600FM-12+032499999V0202501N004010360019N0100001N1+00141+00001102341ADDAA112000791AY181061AY221061GF107991021031012501031001KA1999M+00371MD1210101+9999MW1021REMSYN082AAXX  10181 33415 11697 72504 10014 20000 40234 52010 69902 70282 82330 333 10037;
0112334150999992000021021004+49570+025600FM-12+032499999V0202501N004012200019N0100001N1+00051-00061102411ADDGF103991031001999999031001MD1210051+9999REMSYN060AAXX  10211 33415 42997 32504 10005 21006 40241 52005 83030;
0133334150999992000021100004+49570+025600FM-12+032499999V0202001N002012200019N0100001N1+00001-00121102411ADDGF103991031001999999031001MA1999999098311MD1410001+9999REMSYN066AAXX  11001 33415 42997 32002 10000 21012 39831 40241 54000 83030;
0186334150999992000021103004+49570+025600FM-12+032499999V0201801N002012200019N0040001N1-00121-00191102381ADDAA199000091AY101031AY201031GF103991031001999999031001MD1810051+9999MW1101REMSYN082AAXX  11031 33415 31996 31802 11012 21019 40238 58005 71000 83030 555 21014 7990/;EQDQ01  00002PRCP99
0222334150999992000021106004+49570+025600FM-12+032499999V0201601N003012200019N0040001N1-00331-00371102421ADDAA199000091AJ100009199999999AY101061AY201061GF102991021001999999031001IA1259KA1120N-00351MD1410001+9999MW1101REMSYN082AAXX  11061 33415 31996 21603 11033 21037 40242 54000 71000 82030 333 21035 41998;EQDQ01  00002PRCP99
0112334150999992000021109004+49570+025600FM-12+032499999V0201601N004012200019N0100001N1+00181-00191102391ADDGF103991021001999999031011MD1310041+9999REMSYN060AAXX  11091 33415 42997 31604 10018 21019 40239 53004 82031;
0133334150999992000021112004+49570+025600FM-12+032499999V0202001N005019999999N0100001N1+00561-00251102421ADDGF105991021001999999031011MA1999999098391MD1210091+9999REMSYN066AAXX  11121 33415 42997 52005 10056 21025 39839 40242 52009 82031;
0112334150999992000021115004+49570+025600FM-12+032499999V0202301N002019999999N0100001N1+00531-00361102431ADDGF106991031001999999031011MD1410001+9999REMSYN060AAXX  11151 33415 42997 62302 10053 21036 40243 54000 83031;
0165334150999992000021118004+49570+025600FM-12+032499999V0202701N003019999999N0100001N1+00171-00241102621ADDAA199000091GF105991021001999999031011KA1999M+00581MD1310131+9999REMSYN070AAXX  11181 33415 32997 52703 10017 21024 40262 53013 82031 333 10058;EQDQ01  00002PRCP99
0112334150999992000021121004+49570+025600FM-12+032499999V0202901N006019999999N0100001N1+00211-00071102751ADDGF107991041001999999031011MD1210151+9999REMSYN060AAXX  11211 33415 42997 72906 10021 21007 40275 52015 84031;
0133334150999992000021200004+49570+025600FM-12+032499999V0203201N003019999999N0100001N1+00201-00021102891ADDGF107991041001999999031011MA1999999098801MD1210131+9999REMSYN066AAXX  12001 33415 42997 73203 10020 21002 39880 40289 52013 84031;
0158334150999992000021203004+49570+025600FM-12+032499999V0203601N004019999999N0100001N1+00161-00061102921ADDAA199000091GF107991041001999999031011MD1210021+9999REMSYN076AAXX  12031 33415 32997 73604 10016 21006 40292 52002 84031 555 20015 7000/;EQDQ01  00002PRCP99
0194334150999992000021206004+49570+025600FM-12+032499999V0203601N001010360019N0100001N1+00121-00171103021ADDAA199000091AJ100009199999999GF107991021051012501031011IA1259KA1120N+00111MD1210091+9999REMSYN076AAXX  12061 33415 32697 73601 10012 21017 40302 52009 82531 333 20011 41998;EQDQ01  00002PRCP99
0112334150999992000021209004+49570+025600FM-12+032499999V0203201N002010360019N0100001N1+00271-00121102981ADDGF107991031051012501031001MD1810021+9999REMSYN060AAXX  12091 33415 42697 73202 10027 21012 40298 58002 83530;
0133334150999992000021212004+49570+025600FM-12+032499999V0203601N002010360019N0100001N1+00511-00241102861ADDGF105991021051012501031001MA1999999098821MD1710071+9999REMSYN066AAXX  12121 33415 42697 53602 10051 21024 39882 40286 57007 82530;
0112334150999992000021215004+49570+025600FM-12+032499999V0209999V001010360019N0100001N1+00381-00181102771ADDGF106991021051012501031001MD1710121+9999REMSYN060AAXX  12151 33415 42697 69901 10038 21018 40277 57012 82530;
0165334150999992000021218004+49570+025600FM-12+032499999V0209999C000019999999N0100001N1+00091-00301102751ADDAA199000091GF105991051001999999031001KA1999M+00521MD1710051+9999REMSYN070AAXX  12181 33415 32997 50000 10009 21030 40275 57005 85030 333 10052;EQDQ01  00002PRCP99
0112334150999992000021221004+49570+025600FM-12+032499999V0209999V002012200019N0100001N1-00051-00331102651ADDGF103991031001999999031001MD1710131+9999REMSYN060AAXX  12211 33415 42997 39902 11005 21033 40265 57013 83030;
0133334150999992000021300004+49570+025600FM-12+032499999V0201401N003012200019N0100001N1-00121-00351102531ADDGF102991021001999999031001MA1999999098401MD1710121+9999REMSYN066AAXX  13001 33415 42997 21403 11012 21035 39840 40253 57012 82030;
0158334150999992000021303004+49570+025600FM-12+032499999V0201401N003012200019N0100001N1-00291-00391102341ADDAA199000091GF102991021001999999031001MD1710201+9999REMSYN076AAXX  13031 33415 32997 21403 11029 21039 40234 57020 82030 555 21030 7000/;EQDQ01  00002PRCP99
0260334150999992000021306004+49570+025600FM-12+032499999V0201601N006010012019N0010001N1-00181-00201102211ADDAA199000091AJ199992999999999AY111061AY211061GA1081+001209069GF108991081061001501999999IA1259KA1120N-00301MD1710111+9999MW1101REMSYN088AAXX  13061 33415 31294 81606 11018 21020 40221 57011 71011 886// 333 21030 41998 88704;EQDQ01  00002PRCP99Q02  09972SNDP  
0166334150999992000021309004+49570+025600FM-12+032499999V0201801N003010018019N0020001N1-00101-00201102121ADDAY121031AY221031GA1061+001809069GF107991061071001501031001MD1710071+9999MW1101REMSYN076AAXX  13091 33415 41295 71803 11010 21020 40212 57007 71022 86730 333 86706;
0187334150999992000021312004+49570+025600FM-12+032499999V0201801N004010036019N0040001N1+00041-00191102031ADDAY121061AY221061GA1061+003609059GF107991061031004501031001MA1999999097941MD1710081+9999MW1101REMSYN082AAXX  13121 33415 41496 71804 10004 21019 39794 40203 57008 71022 86330 333 86612;
0112334150999992000021315004+49570+025600FM-12+032499999V0201601N004012200019N0100001N1+00191-00121101791ADDGF102991021001999999031011MD1710201+9999REMSYN060AAXX  13151 33415 42997 21604 10019 21012 40179 57020 82031;
0193334150999992000021318004+49570+025600FM-12+032499999V0201601N004019999999N0040001N1-00011-00131101781ADDAA199000091AY111061AY211061GF106991051001999999031011KA1999M+00241MD1710041+9999MW1101REMSYN076AAXX  13181 33415 31996 61604 11001 21013 40178 57004 71011 85031 333 10024;EQDQ01  00002PRCP99
0140334150999992000021321004+49570+025600FM-12+032499999V0201601N005019999999N0040001N1-00021-00141101661ADDAY121031AY221031GF107991071001999999031001MD1710141+9999MW1101REMSYN066AAXX  13211 33415 41996 71605 11002 21014 40166 57014 71022 87030;
0161334150999992000021400004+49570+025600FM-12+032499999V0201601N004012200019N0040001N1-00081-00181101521ADDAY111061AY211061GF102991021001999999031001MA1999999097441MD1710121+9999MW1101REMSYN072AAXX  14001 33415 41996 21604 11008 21018 39744 40152 57012 71011 82030;
0207334150999992000021403004+49570+025600FM-12+032499999V0201801N004019999999N0040001N1-00081-00181101241ADDAA199000091AY111031AY211031GF107991071001999999031001MA1999999097271MD1710171+9999MW1101REMSYN088AAXX  14031 33415 31996 71804 11008 21018 39727 40124 57017 71011 87030 555 21008 7000/;EQDQ01  00002PRCP99
0231334150999992000021406004+49570+025600FM-12+032499999V0202301N006010030019N0040001N1+00041-00021101231ADDAA112002091AJ100029199999999AY181061AY221061GA1061+003009099GF107991061031004501031001IA1279KA1120N-00081MD1710091+9999MW1851REMSYN094AAXX  14061 33415 11496 72306 10004 21002 40123 57009 60022 78582 86330 333 21008 43002 86910;
0161334150999992000021412004+49570+025600FM-12+032499999V0202701N007012200019N0100001N1+00151-00331101371ADDAY181061AY211061GF103991031011004501001001MA1999999097321MD1810051+9999MW1011REMSYN072AAXX  14121 33415 41497 32707 10015 21033 39732 40137 58005 70181 83100;
0112334150999992000021415004+49570+025600FM-12+032499999V0202501N004010360019N0100001N1+00111-00311101381ADDGF105991031051012501031001MD1310011+9999REMSYN060AAXX  14151 33415 42697 52504 10011 21031 40138 53001 83530;
0152334150999992000021418004+49570+025600FM-12+032499999V0202501N005012200019N0100001N1-00071-00291101461ADDAA112000791GF103991031051012501001001KA1999M+00181MD1210051+9999REMSYN076AAXX  14181 33415 12697 32505 11007 21029 40146 52005 69902 83500 333 10018;
0122334150999992000021421004+49570+025600FM-12+032499999V0202501N004012200019N0100001N1-00251-00381101541ADDGA1001+999999999GF100991001001999999001001MD1210111+9999REMSYN054AAXX  14211 33415 42997 02504 11025 21038 40154 52011;
0133334150999992000021500004+49570+025600FM-12+032499999V0202901N003012200019N0100001N1-00281-00411101701ADDGF103991031051012501001001MA1999999097571MD1210081+9999REMSYN066AAXX  15001 33415 42697 32903 11028 21041 39757 40170 52008 83500;
0156334150999992000021503004+49570+025600FM-12+032499999V0202901N003010120019N0100001N1-00121-00251101721ADDAY181031AY211031GF108991081031012501999999MD1210051+9999MW1851REMSYN082AAXX  15031 33415 41697 82903 11012 21025 40172 52005 78581 883// 555 21029 7002/;
0209334150999992000021505004+49570+025600FM-12+032499999V0202701N004010120019N0100001N1-00201-00351101861ADDAA112000791AJ100019199999999AY181999AY211999GF106991061031012501001001IA1239KA1120N-00291MD1210131+9999MW1021REMSYN088AAXX  15051 33415 11697 62704 11020 21035 40186 52013 69902 70281 86300 333 21029 47001;
0209334150999992000021506004+49570+025600FM-12+032499999V0202701N004010120019N0100001N1-00201-00351101861ADDAA112000791AJ100019199999999AY181061AY211061GF106991061031012501001001IA1239KA1120N-00291MD1210131+9999MW1021REMSYN088AAXX  15061 33415 11697 62704 11020 21035 40186 52013 69902 70281 86300 333 21029 47001;
0138334150999992000021509004+49570+025600FM-12+032499999V0202701N006010081019N0100001N1-00071-00491101971ADDGA1071+008109099GF107991071031008001001001MD1210131+9999REMSYN070AAXX  15091 33415 42597 72706 11007 21049 40197 52013 87300 333 87927;
0159334150999992000021512004+49570+025600FM-12+032499999V0202501N004010087019N0100001N1+00021-00701101851ADDGA1061+008709059GF107991061051008001001001MA1999999097771MD1810111+9999REMSYN076AAXX  15121 33415 42597 72504 10002 21070 39777 40185 58011 86500 333 86629;
0112334150999992000021515004+49570+025600FM-12+032499999V0202001N003012200019N0100001N1+00021-00741101731ADDGF103991011001999999031011MD1710111+9999REMSYN060AAXX  15151 33415 42997 32003 10002 21074 40173 57011 81031;
0165334150999992000021518004+49570+025600FM-12+032499999V0201601N002012200019N0100001N1-00221-00541101701ADDAA199000091GF102991001001999999001011KA1999M+00141MD1710071+9999REMSYN070AAXX  15181 33415 32997 21602 11022 21054 40170 57007 80001 333 10014;EQDQ01  00002PRCP99
0112334150999992000021521004+49570+025600FM-12+032499999V0201601N002019999999N0100001N1-00221-00501101621ADDGF105991021001999999031011MD1710081+9999REMSYN060AAXX  15211 33415 42997 51602 11022 21050 40162 57008 82031;
0133334150999992000021600004+49570+025600FM-12+032499999V0201801N004019999999N0100001N1-00201-00481101581ADDGF105991001001999999001011MA1999999097471MD1710041+9999REMSYN066AAXX  16001 33415 42997 51804 11020 21048 39747 40158 57004 80001;
0182334150999992000021603004+49570+025600FM-12+032499999V0202001N005010096019N0100001N1-00141-00341101421ADDAY181031AY221031GA1051+009609099GF107991051031008001031001MD1710141+9999MW1851REMSYN092AAXX  16031 33415 41597 72005 11014 21034 40142 57014 78582 85330 333 85932 555 21024 7990/;
0209334150999992000021606004+49570+025600FM-12+032499999V0201801N004010120019N0100001N1-00091-00381101281ADDAA112000791AJ100009199999999AY181061AY221061GF107991051031012501031001IA1259KA1120N-00241MD1710121+9999MW1021REMSYN088AAXX  16061 33415 11697 71804 11009 21038 40128 57012 69902 70282 85330 333 21024 41998;
0112334150999992000021609004+49570+025600FM-12+032499999V0201801N004012200019N0100001N1+00141-00341101241ADDGF103991031001999999031011MD1710011+9999REMSYN060AAXX  16091 33415 42997 31804 10014 21034 40124 57001 83031;
0133334150999992000021612004+49570+025600FM-12+032499999V0201801N006019999999N0100001N1-00041-00301100981ADDGF106991061001999999031011MA1999999096991MD1710211+9999REMSYN066AAXX  16121 33415 42997 61806 11004 21030 39699 40098 57021 86031;
0112334150999992000021615004+49570+025600FM-12+032499999V0201501N005019999999N0100001N1+00381-00281100881ADDGF107991071001999999031011MD1710101+9999REMSYN060AAXX  16151 33415 42997 71505 10038 21028 40088 57010 87031;
0165334150999992000021618004+49570+025600FM-12+032499999V0201401N008019999999N0100001N1+00111-00311100821ADDAA199000091GF107991071001999999031011KA1999M+00521MD1710091+9999REMSYN070AAXX  16181 33415 32997 71408 10011 21031 40082 57009 87031 333 10052;EQDQ01  00002PRCP99
0112334150999992000021621004+49570+025600FM-12+032499999V0201401N005019999999N0100001N1+00041-00291100791ADDGF107991071001999999031011MD1710051+9999REMSYN060AAXX  16211 33415 42997 71405 10004 21029 40079 57005 87031;
0133334150999992000021700004+49570+025600FM-12+032499999V0201301N005019999999N0100001N1+00011-00231100711ADDGF107991071001999999031001MA1999999096681MD1710071+9999REMSYN066AAXX  17001 33415 42997 71305 10001 21023 39668 40071 57007 87030;
0158334150999992000021703004+49570+025600FM-12+032499999V0201301N004019999999N0100001N1-00081-00231100581ADDAA199000091GF107991071001999999031001MD1710141+9999REMSYN076AAXX  17031 33415 32997 71304 11008 21023 40058 57014 87030 555 21009 7990/;EQDQ01  00002PRCP99
0222334150999992000021706004+49570+025600FM-12+032499999V0201301N006019999999N0040001N1-00201-00291100491ADDAA199000091AJ100009199999999AY121061AY221061GF107991071001999999031001IA1259KA1120N-00211MD1710141+9999MW1101REMSYN082AAXX  17061 33415 31996 71306 11020 21029 40049 57014 71022 87030 333 21021 41998;EQDQ01  00002PRCP99
0112334150999992000021709004+49570+025600FM-12+032499999V0201101N008019999999N0100001N1-00041-00381100441ADDGF107991041001999999031011MD1710091+9999REMSYN060AAXX  17091 33415 42997 71108 11004 21038 40044 57009 84031;
0133334150999992000021712004+49570+025600FM-12+032499999V0201401N007019999999N0100001N1+00121-00331100081ADDGF107991021051999999031011MA1999999096091MD1710221+9999REMSYN066AAXX  17121 33415 42997 71407 10012 21033 39609 40008 57022 82531;
0138334150999992000021715004+49570+025600FM-12+032499999V0201401N006010360019N0100001N1+00141-00241100031ADDGA1041+007209059GF107991041051008001031011MD1710051+9999REMSYN070AAXX  17151 33415 42597 71406 10014 21024 40003 57005 84531 333 84624;
0202334150999992000021718004+49570+025600FM-12+032499999V0201401N004010060019N0100001N1+00151-00071100111ADDAA112000391AY181061AY221061GA1051+006009099GF107991051031008001031001KA1120M+00161MD1310071+9999MW1801REMSYN088AAXX  17181 33415 11597 71404 10015 21007 40011 53007 69932 78082 85330 333 10016 85920;
0166334150999992000021721004+49570+025600FM-12+032499999V0201801N001010360019N0040001N1+00111-00031100131ADDAY181031AY221031GA1041+005409099GF107991041031008001031001MD1210021+9999MW1101REMSYN076AAXX  17211 33415 41596 71801 10011 21003 40013 52002 71082 84330 333 84918;
0187334150999992000021800004+49570+025600FM-12+032499999V0202701N005010054019N0040001N1+00021-00091100341ADDAY181061AY221061GA1051+005409099GF107991051031008001031001MA1999999096321MD1210191+9999MW1851REMSYN082AAXX  18001 33415 41596 72705 10002 21009 39632 40034 52019 78582 85330 333 85918;
0182334150999992000021803004+49570+025600FM-12+032499999V0202901N007010360019N0040001N1-00071-00221100451ADDAY181031AY221031GA1041+005709099GF107991041031008001031001MD1210101+9999MW1101REMSYN092AAXX  18031 33415 41596 72907 11007 21022 40045 52010 71082 84330 333 84919 555 21008 7004/;
0231334150999992000021806004+49570+025600FM-12+032499999V0203201N007010360019N0100001N1-00121-00341100701ADDAA112004191AJ100019199999999AY181061AY221061GA1031+005109099GF107991031031008001031001IA1279KA1120N-00131MD1210221+9999MW1021REMSYN094AAXX  18061 33415 11597 73207 11012 21034 40070 52022 60042 70282 83330 333 21013 43001 83917;
0112334150999992000021809004+49570+025600FM-12+032499999V0202901N005010360019N0100001N1-00191-00431100791ADDGF106991031031008001031001MD1210081+9999REMSYN060AAXX  18091 33415 42597 62905 11019 21043 40079 52008 83330;
0133334150999992000021812004+49570+025600FM-12+032499999V0202901N007010360019N0100001N1-00031-00331100851ADDGF105991021051012501031001MA1999999096801MD1210081+9999REMSYN066AAXX  18121 33415 42697 52907 11003 21033 39680 40085 52008 82530;
0112334150999992000021815004+49570+025600FM-12+032499999V0203201N006010120019N0100001N1-00051-00461100841ADDGF107991051051012501031001MD1810011+9999REMSYN060AAXX  18151 33415 42697 73206 11005 21046 40084 58001 85530;
0165334150999992000021818004+49570+025600FM-12+032499999V0203201N005010120019N0100001N1-00091-00441100761ADDAA199000091GF107991051031012501031001KA1999M-00011MD1710081+9999REMSYN070AAXX  18181 33415 32697 73205 11009 21044 40076 57008 85330 333 11001;EQDQ01  00002PRCP99
0138334150999992000021821004+49570+025600FM-12+032499999V0202901N005010090019N0100001N1-00111-00371100781ADDGA1051+009009099GF107991051031008001031001MD1410001+9999REMSYN070AAXX  18211 33415 42597 72905 11011 21037 40078 54000 85330 333 85930;
0133334150999992000021900004+49570+025600FM-12+032499999V0202901N005010360019N0100001N1-00181-00361100781ADDGF107991041031012501031001MA1999999096711MD1410001+9999REMSYN066AAXX  19001 33415 42697 72905 11018 21036 39671 40078 54000 84330;
0158334150999992000021903004+49570+025600FM-12+032499999V0202701N004010360019N0100001N1-00201-00321100781ADDAA199000091GF107991041031012501031001MD1410001+9999REMSYN076AAXX  19031 33415 32697 72704 11020 21032 40078 54000 84330 555 21022 7000/;EQDQ01  00002PRCP99
0194334150999992000021906004+49570+025600FM-12+032499999V0202701N004010360019N0100001N1-00181-00321100831ADDAA199000091AJ100009199999999GF107991031031012501031001IA1279KA1120N-00221MD1310051+9999REMSYN076AAXX  19061 33415 32697 72704 11018 21032 40083 53005 83330 333 21022 43000;EQDQ01  00002PRCP99
0112334150999992000021909004+49570+025600FM-12+032499999V0202701N004010360019N0100001N1-00091-00481100921ADDGF105991021051012501031001MD1210111+9999REMSYN060AAXX  19091 33415 42697 52704 11009 21048 40092 52011 82530;
0133334150999992000021912004+49570+025600FM-12+032499999V0202501N004012200019N0100001N1+00081-00731100911ADDGF102991021051012501031001MA1999999096871MD1410001+9999REMSYN066AAXX  19121 33415 42697 22504 10008 21073 39687 40091 54000 82530;
0112334150999992000021915004+49570+025600FM-12+032499999V0202501N002019999999N0100001N1+00101-00541100901ADDGF106991061001999999031001MD1310011+9999REMSYN060AAXX  19151 33415 42997 62502 10010 21054 40090 53001 86030;
0165334150999992000021918004+49570+025600FM-12+032499999V0202501N001012200019N0100001N1-00161-00651100971ADDAA199000091GF103991031001999999031001KA1999M+00121MD1210021+9999REMSYN070AAXX  19181 33415 32997 32501 11016 21065 40097 52002 83030 333 10012;EQDQ01  00002PRCP99
0112334150999992000021921004+49570+025600FM-12+032499999V0209999C000019999999N0100001N1-00211-00561101061ADDGF106991061001999999031001MD1210071+9999REMSYN060AAXX  19211 33415 42997 60000 11021 21056 40106 52007 86030;
0133334150999992000022000004+49570+025600FM-12+032499999V0202301N002010360019N0100001N1-00141-00401101081ADDGF107991031051012501031001MA1999999097011MD1210041+9999REMSYN066AAXX  20001 33415 42697 72302 11014 21040 39701 40108 52004 83530;
0184334150999992000022003004+49570+025600FM-12+032499999V0202301N003010360019N0100001N1-00051-00231101071ADDAA199000091GA1041+008109069GF107991041051008001031001MD1410001+9999REMSYN086AAXX  20031 33415 32597 72303 11005 21023 40107 54000 84530 333 84627 555 21022 7000/;EQDQ01  00002PRCP99
0250334150999992000022006004+49570+025600FM-12+032499999V0202701N002010069019N0100001N1-00061-00241101111ADDAA112000791AJ199992999999999AY181061AY221061GA1051+006909099GF107991051031008001031001IA1259KA1120N-00221MD1310041+9999MW1261REMSYN094AAXX  20061 33415 11597 72702 11006 21024 40111 53004 69902 72682 85330 333 21022 41998 85923;EQDQ01  09972SNDP  
0166334150999992000022009004+49570+025600FM-12+032499999V0202701N001010039019N0100001N1-00021-00171101211ADDAY181031AY221031GA1051+003909099GF107991051031004501031001MD1210091+9999MW1261REMSYN076AAXX  20091 33415 41497 72701 11002 21017 40121 52009 72682 85330 333 85913;
0187334150999992000022012004+49570+025600FM-12+032499999V0202701N003010066019N0100001N1+00021-00151101291ADDAY181061AY221061GA1051+006609099GF107991051031008001031001MA1999999097241MD1210101+9999MW1021REMSYN082AAXX  20121 33415 41597 72703 10002 21015 39724 40129 52010 70282 85330 333 85922;
0140334150999992000022015004+49570+025600FM-12+032499999V0203201N004010360019N0100001N1-00041-00341101341ADDAY181031AY221031GF107991031031012501031001MD1210031+9999MW1021REMSYN066AAXX  20151 33415 41697 73204 11004 21034 40134 52003 70282 83330;
0180334150999992000022018004+49570+025600FM-12+032499999V0203201N005010360019N0100001N1-00121-00521101521ADDAA112000591AY181061AY221061GF107991031051012501031001KA1999M+00021MD1210161+9999MW1021REMSYN082AAXX  20181 33415 11697 73205 11012 21052 40152 52016 69962 70282 83530 333 10002;
0112334150999992000022021004+49570+025600FM-12+032499999V0202901N005010360019N0100001N1-00151-00591101601ADDGF107991041051012501031001MD1210071+9999REMSYN060AAXX  20211 33415 42697 72905 11015 21059 40160 52007 84530;
0161334150999992000022100004+49570+025600FM-12+032499999V0202901N008010360019N0100001N1-00221-00541101611ADDAY181061AY221061GF107991041031012501031001MA1999999097501MD1410001+9999MW1021REMSYN072AAXX  21001 33415 41697 72908 11022 21054 39750 40161 54000 70282 84330;
0154334150999992000022103004+49570+025600FM-12+032499999V0202901N009010360019N0100001N1-00261-00451101671ADDGA1041+004209099GF107991041031004501031001MD1310061+9999REMSYN086AAXX  21031 33415 42497 72909 11026 21045 40167 53006 84330 333 84914 555 21026 7996/;
0181334150999992000022106004+49570+025600FM-12+032499999V0202901N009010120019N0100001N1-00441-00711101781ADDAA112000791AJ100009199999999GF107991071051012501001001IA1259KA1120N-00441MD1210071+9999REMSYN082AAXX  21061 33415 12697 72909 11044 21071 40178 52007 69902 87500 333 21044 41998;
0138334150999992000022109004+49570+025600FM-12+032499999V0203101N007010060019N0100001N1-00411-00871101931ADDGA1071+006009059GF107991071051008001001001MD1210151+9999REMSYN070AAXX  21091 33415 42597 73107 11041 21087 40193 52015 87500 333 87620;
0159334150999992000022112004+49570+025600FM-12+032499999V0203101N009010081019N0100001N1-00301-00931102021ADDGA1061+008109059GF106991061051008001001001MA1999999097881MD1210101+9999REMSYN076AAXX  21121 33415 42597 63109 11030 21093 39788 40202 5201/ 86500 333 86627;
0138334150999992000022115004+49570+025600FM-12+032499999V0203201N00601012001CN0100001N1-00281-00901102111ADDGA1041+009909099GF107991071051012501001001MD1210081+9999REMSYN070AAXX  21151 33415 42697 73206 11028 21090 40211 52008 87500 333 84933;
0202334150999992000022118004+49570+025600FM-12+032499999V0203101N00801012001CN0100001N1-00291-00671102181ADDAA112000791AY181061AY221061GA1041+009909099GF107991071051012501001001KA1120M-00261MD1210091+9999MW1851REMSYN088AAXX  21181 33415 11697 73108 11029 21067 40218 52009 69902 78582 87500 333 11026 84933;
0166334150999992000022121004+49570+025600FM-12+032499999V0202901N006010045019N0100001N1-00331-00571102301ADDAY181031AY281031GA1061+004509099GF107991061031004501031001MD1210091+9999MW1851REMSYN076AAXX  21211 33415 41497 72906 11033 21057 40230 52009 78588 86330 333 86915;
0187334150999992000022200004+49570+025600FM-12+032499999V0202901N007010039019N0100001N1-00361-00581102321ADDAY181061AY281061GA1061+003909099GF107991061031002501031001MA1999999098161MD1210021+9999MW1851REMSYN082AAXX  22001 33415 41397 72907 11036 21058 39816 40232 52002 78588 86330 333 86913;
0182334150999992000022203004+49570+025600FM-12+032499999V0203201N004010048019N0040001N1-00431-00661102311ADDAY181031AY281031GA1061+004809099GF107991061031004501031001MD1810021+9999MW1851REMSYN092AAXX  22031 33415 41496 73204 11043 21066 40231 58002 78588 86330 333 86916 555 21044 7992/;
0250334150999992000022206004+49570+025600FM-12+032499999V0203201N005010045019N0100001N1-00511-00761102391ADDAA112000391AJ199993999999999AY181061AY281061GA1051+004509099GF107991051031004501031001IA1239KA1120N-00511MD1310061+9999MW1851REMSYN094AAXX  22061 33415 11497 73205 11051 21076 40239 53006 69932 78588 85330 333 21051 47997 85915;EQDQ01  09982SNDP  
0140334150999992000022209004+49570+025600FM-12+032499999V0203201N007010042019N0100001N1-00451-01011102501ADDAY181031AY211031GF105991051031004501001001MD1210121+9999MW1021REMSYN066AAXX  22091 33415 41497 53207 11045 21101 40250 52012 70281 85300;
0187334150999992000022212004+49570+025600FM-12+032499999V0203401N006010081019N0100001N1-00501-01181102571ADDAY181061AY211061GA1071+008109099GF107991071031008001001001MA1999999098371MD1210051+9999MW1851REMSYN082AAXX  22121 33415 41597 73406 11050 21118 39837 40257 52005 78581 87300 333 87927;
0140334150999992000022215004+49570+025600FM-12+032499999V0203201N005010120019N0100001N1-00501-01231102581ADDAY181031AY221031GF107991071031012501001001MD1210011+9999MW1021REMSYN066AAXX  22151 33415 41697 73205 11050 21123 40258 52001 70282 87300;
0202334150999992000022218004+49570+025600FM-12+032499999V0202901N003010093019N0100001N1-00541-01241102591ADDAA112000791AY181061AY221061GA1061+009309059GF106991061051008001001001KA1120M-00451MD1210011+9999MW1021REMSYN088AAXX  22181 33415 11597 62903 11054 21124 40259 52001 69902 70282 86500 333 11045 86631;
0138334150999992000022221004+49570+025600FM-12+032499999V0203401N005010084019N0100001N1-00481-01151102641ADDGA1081+008409059GF108991081051008001999999MD1210051+9999REMSYN070AAXX  22211 33415 42597 83405 11048 21115 40264 52005 885// 333 88628;
0159334150999992000022300004+49570+025600FM-12+032499999V0203201N003010081019N0100001N1-00481-01101102661ADDGA1081+008109059GF108991081051008001999999MA1999999098461MD1210021+9999REMSYN076AAXX  23001 33415 42597 83203 11048 21110 39846 40266 52002 885// 333 88627;
0158334150999992000022303004+49570+025600FM-12+032499999V0202701N003010360019N0100001N1-00591-00981102631ADDAA199000091GF107991041051012501031001MD1810041+9999REMSYN076AAXX  23031 33415 32697 72703 11059 21098 40263 58004 84530 555 21059 7991/;EQDQ01  00002PRCP99
0209334150999992000022306004+49570+025600FM-12+032499999V0202501N003010120019N0100001N1-00621-01021102611ADDAA112000791AJ100009199999999AY181061AY221061GF106991061031012501001001IA1239KA1120N-00621MD1710021+9999MW1851REMSYN088AAXX  23061 33415 11697 62503 11062 21102 40261 57002 69902 78582 86300 333 21062 47997;
0112334150999992000022309004+49570+025600FM-12+032499999V0202501N002012200019N0100001N1-00281-01081102611ADDGF102991021001999999031001MD1310051+9999REMSYN060AAXX  23091 33415 42997 22502 11028 21108 40261 53005 82030;
0161334150999992000022312004+49570+025600FM-12+032499999V0202701N004010360019N0100001N1-00241-01221102591ADDAY181061AY211061GF106991031051012501031001MA1999999098441MD1810011+9999MW1021REMSYN072AAXX  23121 33415 42697 62704 11024 21122 39844 40259 58001 70281 83530;
0112334150999992000022315004+49570+025600FM-12+032499999V0202701N004010360019N0100001N1-00241-01121102611ADDGF106991021051012501031001MD1310021+9999REMSYN060AAXX  23151 33415 42697 62704 11024 21112 40261 53002 82530;
0152334150999992000022318004+49570+025600FM-12+032499999V0202501N002019999999N0100001N1-00381-00871102691ADDAA112000791GF107991071001999999031001KA1999M-00151MD1210041+9999REMSYN076AAXX  23181 33415 12997 72502 11038 21087 40269 52004 69902 87030 333 11015;
0166334150999992000022321004+49570+025600FM-12+032499999V0202901N003010360019N0100001N1-00341-00701102731ADDAY181031AY221031GA1041+006909099GF107991041031008001031001MD1210061+9999MW1851REMSYN076AAXX  23211 33415 41597 72903 11034 21070 40273 52006 78582 84330 333 84923;
0187334150999992000022400004+49570+025600FM-12+032499999V0202701N004010081019N0100001N1-00351-00671102751ADDAY181061AY221061GA1051+008109099GF107991051031008001031001MA1999999098581MD1210021+9999MW1021REMSYN082AAXX  24001 33415 41597 72704 11035 21067 39858 40275 52002 70282 85330 333 85927;
0128334150999992000022403004+49570+025600FM-12+032499999V0202701N004010360019N0100001N1-00391-00681102741ADDGF107991021051012501031001MD1810011+9999REMSYN076AAXX  24031 33415 42697 72704 11039 21068 40274 58001 82530 555 21040 7990/;
0181334150999992000022406004+49570+025600FM-12+032499999V0202501N002010360019N0100001N1-00401-00621102861ADDAA112000791AJ100009199999999GF107991031051012501031001IA1309KA1120N-00411MD1310101+9999REMSYN082AAXX  24061 33415 12697 72502 11040 21062 40286 53010 69902 83530 333 21041 42998;
0112334150999992000022409004+49570+025600FM-12+032499999V0202701N004010360019N0100001N1-00221-00731102871ADDGF107991021051012501031001MD1210031+9999REMSYN060AAXX  24091 33415 42697 72704 11022 21073 40287 52003 82530;
0133334150999992000022412004+49570+025600FM-12+032499999V0202701N004010360019N0100001N1-00101-00841102861ADDGF106991041031012501031001MA1999999098711MD1210011+9999REMSYN066AAXX  24121 33415 42697 62704 11010 21084 39871 40286 52001 84330;
0140334150999992000022415004+49570+025600FM-12+032499999V0202401N003010360019N0100001N1-00171-00861102751ADDAY181031AY221031GF106991031051012501031001MD1810101+9999MW1021REMSYN066AAXX  24151 33415 41697 62403 11017 21086 40275 58010 70282 83530;
0180334150999992000022418004+49570+025600FM-12+032499999V0202101N003012200019N0100001N1-00411-00911102701ADDAA112000791AY181061AY221061GF103991031001999999031011KA1999M-00041MD1710101+9999MW1021REMSYN082AAXX  24181 33415 11997 32103 11041 21091 40270 57010 69902 70282 83031 333 11004;
0112334150999992000022421004+49570+025600FM-12+032499999V0202001N004012200019N0100001N1-00411-00831102551ADDGF103991001001999999001011MD1710141+9999REMSYN060AAXX  24211 33415 42997 32004 11041 21083 40255 57014 80001;
0133334150999992000022500004+49570+025600FM-12+032499999V0201801N004019999999N0100001N1-00401-00741102261ADDGF105991051001999999031011MA1999999098101MD1710271+9999REMSYN066AAXX  25001 33415 42997 51804 11040 21074 39810 40226 57027 85031;
0158334150999992000022503004+49570+025600FM-12+032499999V0202001N006019999999N0100001N1-00351-00561102021ADDAA199000091GF107991071001999999031001MD1710221+9999REMSYN076AAXX  25031 33415 32997 72006 11035 21056 40202 57022 87030 555 21042 7990/;EQDQ01  00002PRCP99
0209334150999992000022506004+49570+025600FM-12+032499999V0202501N007010360019N0100001N1-00081-00291101841ADDAA112000791AJ100009199999999AY181061AY221061GF107991041031012501031001IA1309KA1120N-00421MD1710131+9999MW1851REMSYN088AAXX  25061 33415 11697 72507 11008 21029 40184 57013 69902 78582 84330 333 21042 42998;
0166334150999992000022509004+49570+025600FM-12+032499999V0202501N009010360019N0100001N1+00081-00211101801ADDAY181031AY221031GA1041+005109099GF107991041031004501031001MD1710031+9999MW1021REMSYN076AAXX  25091 33415 41497 72509 10008 21021 40180 57003 70282 84330 333 84917;
0187334150999992000022512004+49570+025600FM-12+032499999V0202701N006010360019N0100001N1+00281-00141101701ADDAY181061AY221061GA1041+004509059GF107991041051004501031001MA1999999097681MD1710041+9999MW1021REMSYN082AAXX  25121 33415 41497 72706 10028 21014 39768 40170 57004 70282 84530 333 84615;
0138334150999992000022515004+49570+025600FM-12+032499999V0202501N007010060019N0100001N1+00191-00151101631ADDGA1051+006009059GF107991051051008001031001MD1710091+9999REMSYN070AAXX  25151 33415 42597 72507 10019 21015 40163 57009 85530 333 85620;
0202334150999992000022518004+49570+025600FM-12+032499999V0202501N006010042019N0040001N1+00021-00091101581ADDAA112001091AY181061AY221061GA1051+004209099GF107991051031004501031001KA1120M+00291MD1710081+9999MW1851REMSYN088AAXX  25181 33415 11496 72506 10002 21009 40158 57008 60012 78582 85330 333 10029 85914;
0166334150999992000022521004+49570+025600FM-12+032499999V0202701N003010039019N0040001N1+00021-00071101601ADDAY181031AY281031GA1051+003909099GF107991051031004501031001MD1310021+9999MW1851REMSYN076AAXX  25211 33415 41496 72703 10002 21007 40160 53002 78588 85330 333 85913;
0187334150999992000022600004+49570+025600FM-12+032499999V0202901N005010039019N0020001N1+00001-00061101681ADDAY181061AY281061GA1081+003909099GF108991081031004501999999MA1999999097611MD1210081+9999MW1851REMSYN082AAXX  26001 33415 41495 82905 10000 21006 39761 40168 52008 78588 883// 333 88913;
0182334150999992000022603004+49570+025600FM-12+032499999V0202901N007010048019N0040001N1-00051-00111101861ADDAY181031AY281031GA1051+004809099GF107991051031004501031001MD1210161+9999MW1851REMSYN092AAXX  26031 33415 41496 72907 11005 21011 40186 52016 78588 85330 333 85916 555 21006 7005/;
0231334150999992000022606004+49570+025600FM-12+032499999V0202901N008010360019N0100001N1-00041-00161102051ADDAA112004191AJ100069199999999AY181061AY221061GA1041+004209099GF107991041031004501031001IA1279KA1120N-00061MD1210181+9999MW1261REMSYN094AAXX  26061 33415 11497 72908 11004 21016 40205 52018 60042 72682 84330 333 21006 43006 84914;
0166334150999992000022609004+49570+025600FM-12+032499999V0202901N006010360019N0100001N1+00071-00191102201ADDAY181031AY221031GA1031+006009099GF106991031031008001031001MD1210161+9999MW1021REMSYN076AAXX  26091 33415 41597 62906 10007 21019 40220 52016 70282 83330 333 83920;
0187334150999992000022612004+49570+025600FM-12+032499999V0202901N008010360019N0100001N1+00131-00131102281ADDAY181061AY221061GA1041+006009099GF106991041031008001031001MA1999999098201MD1210091+9999MW1261REMSYN082AAXX  26121 33415 41597 62908 10013 21013 39820 40228 52009 72682 84330 333 84920;
0166334150999992000022615004+49570+025600FM-12+032499999V0202901N008010057019N0100001N1+00081-00061102421ADDAY181031AY221031GA1051+005709099GF107991051031008001031001MD1210131+9999MW1831REMSYN076AAXX  26151 33415 41597 72908 10008 21006 40242 52013 78382 85330 333 85919;
0202334150999992000022618004+49570+025600FM-12+032499999V0202701N006010360019N0100001N1+00081-00091102571ADDAA112000591AY181061AY221061GA1041+006309099GF107991041031008001031001KA1120M+00141MD1210151+9999MW1021REMSYN088AAXX  26181 33415 11597 72706 10008 21009 40257 52015 69942 70282 84330 333 10014 84921;
0138334150999992000022621004+49570+025600FM-12+032499999V0202701N006010360019N0100001N1+00081-00121102621ADDGA1041+006609099GF107991041031008001031001MD1210041+9999REMSYN070AAXX  26211 33415 42597 72706 10008 21012 40262 52004 84330 333 84922;
0187334150999992000022700004+49570+025600FM-12+032499999V0202701N006010360019N0100001N1+00061-00111102651ADDAY181061AY221061GA1031+006909099GF106991031031008001031001MA1999999098541MD1210021+9999MW1021REMSYN082AAXX  27001 33415 41597 62706 10006 21011 39854 40265 52002 70282 83330 333 83923;
0128334150999992000022703004+49570+025600FM-12+032499999V0202701N007010360019N0100001N1+00031-00141102651ADDGF107991021031008001031001MD1410001+9999REMSYN076AAXX  27031 33415 42597 72707 10003 21014 40265 54000 82330 555 20002 7001/;
0181334150999992000022706004+49570+025600FM-12+032499999V0202701N006010360019N0100001N1+00021-00221102691ADDAA112000791AJ100029199999999GF107991031031012501031001IA1279KA1120N+00011MD1310041+9999REMSYN082AAXX  27061 33415 12697 72706 10002 21022 40269 53004 69902 83330 333 20001 43002;
0140334150999992000022709004+49570+025600FM-12+032499999V0203201N008010360019N0100001N1+00091-00371102911ADDAY181031AY221031GF107991041031012501031001MD1210231+9999MW1021REMSYN066AAXX  27091 33415 41697 73208 10009 21037 40291 52023 70282 84330;
0161334150999992000022712004+49570+025600FM-12+032499999V0203201N006010360019N0100001N1+00161-00461103031ADDAY181061AY221061GF107991041031012501031001MA1999999098921MD1210111+9999MW1021REMSYN072AAXX  27121 33415 41697 73206 10016 21046 39892 40303 52011 70282 84330;
0140334150999992000022715004+49570+025600FM-12+032499999V0202901N006010120019N0100001N1+00151-00301103161ADDAY181031AY221031GF107991051031012501031001MD1210131+9999MW1271REMSYN066AAXX  27151 33415 41697 72906 10015 21030 40316 52013 72782 85330;
0180334150999992000022718004+49570+025600FM-12+032499999V0209999C000010120019N0100001N1+00101-00131103291ADDAA112000791AY181061AY221061GF107991051031012501031001KA1999M+00201MD1210121+9999MW1021REMSYN082AAXX  27181 33415 11697 70000 10010 21013 40329 52012 69902 70282 85330 333 10020;
0112334150999992000022721004+49570+025600FM-12+032499999V0202901N002010120019N0100001N1+00091-00051103461ADDGF107991051031012501031001MD1210161+9999REMSYN060AAXX  27211 33415 42697 72902 10009 21005 40346 52016 85330;
0133334150999992000022800004+49570+025600FM-12+032499999V0202701N002012200019N0100001N1-00091-00181103571ADDGF103991031001999999031001MA1999999099411MD1210081+9999REMSYN066AAXX  28001 33415 42997 32702 11009 21018 39941 40357 52008 83030;
0193334150999992000022803004+49570+025600FM-12+032499999V0202301N004010033019N0040001N1-00101-00161103601ADDAA199000021AY111031AY211031GA1051+003309069GF105991051051004501001001MD1210031+9999MW1101REMSYN092AAXX  28031 33415 31496 52304 11010 21016 40360 52003 71011 85500 333 85611 555 21012 7990/;
0260334150999992000022806004+49570+025600FM-12+032499999V0201801N004010021019N0040001N1-00151-00201103651ADDAA199000091AJ199992999999999AY111061AY211061GA1061+002109069GF108991061071002501031999IA1309KA1120N-00161MD1210031+9999MW1101REMSYN088AAXX  28061 33415 31396 81804 11015 21020 40365 52003 71011 8673/ 333 21016 42998 86707;EQDQ01  00002PRCP99Q02  09972SNDP  
0166334150999992000022809004+49570+025600FM-12+032499999V0201601N005010024019N0040001N1-00081-00181103621ADDAY121031AY221031GA1051+002409069GF107991051071002501031001MD1810011+9999MW1101REMSYN076AAXX  28091 33415 41396 71605 11008 21018 40362 58001 71022 85730 333 85708;
0143334150999992000022812004+49570+025600FM-12+032499999V0201801N007012200019N0100001N1+00491-00201103321ADDGA1001+999999999GF100991001001999999001001MA1999999099261MD1710201+9999REMSYN060AAXX  28121 33415 42997 01807 10049 21020 39926 40332 57020;
0122334150999992000022815004+49570+025600FM-12+032499999V0201801N004012200019N0100001N1+00471-00201103181ADDGA1001+999999999GF100991001001999999001001MD1710161+9999REMSYN054AAXX  28151 33415 42997 01804 10047 21020 40318 57016;
0175334150999992000022818004+49570+025600FM-12+032499999V0201601N005012200019N0100001N1+00121-00261103121ADDAA199000091GA1001+999999999GF100991001001999999001001KA1999M+00511MD1710091+9999REMSYN064AAXX  28181 33415 32997 01605 10012 21026 40312 57009 333 10051;EQDQ01  00002PRCP99
0122334150999992000022821004+49570+025600FM-12+032499999V0201601N005012200019N0100001N1+00041-00261103011ADDGA1001+999999999GF100991001001999999001001MD1710121+9999REMSYN054AAXX  28211 33415 42997 01605 10004 21026 40301 57012;
0143334150999992000022900004+49570+025600FM-12+032499999V0201601N004012200019N0100001N1-00141-00361102891ADDGA1001+999999999GF100991001001999999001001MA1999999098741MD1710151+9999REMSYN060AAXX  29001 33415 42997 01604 11014 21036 39874 40289 57015;
0168334150999992000022903004+49570+025600FM-12+032499999V0201601N002012200019N0100001N1-00341-00511102821ADDAA199000091GA1001+999999999GF100991001001999999001001MD1710091+9999REMSYN070AAXX  29031 33415 32997 01602 11034 21051 40282 57009 555 21035 7000/;EQDQ01  00002PRCP99
0194334150999992000022906004+49570+025600FM-12+032499999V0201601N003012200019N0100001N1-00321-00561102751ADDAA199000091AJ100009199999999GF102991001001999999001011IA1259KA1120N-00351MD1710071+9999REMSYN076AAXX  29061 33415 32997 21603 11032 21056 40275 57007 80001 333 21035 41998;EQDQ01  00002PRCP99
0112334150999992000022909004+49570+025600FM-12+032499999V0202001N004012200019N0100001N1+00361-00341102671ADDGF102991001001999999001011MD1310021+9999REMSYN060AAXX  29091 33415 42997 22004 10036 21034 40267 53002 80001;
0133334150999992000022912004+49570+025600FM-12+032499999V0202001N006012200019N0100001N1+00821-00331102501ADDGF103991001001999999001011MA1999999098511MD1810091+9999REMSYN066AAXX  29121 33415 42997 32006 10082 21033 39851 40250 58009 80001;
0112334150999992000022915004+49570+025600FM-12+032499999V0202001N003019999999N0100001N1+00791-00121102301ADDGF105991001001999999001011MD1710191+9999REMSYN060AAXX  29151 33415 42997 52003 10079 21012 40230 57019 80001;
0165334150999992000022918004+49570+025600FM-12+032499999V0201601N006019999999N0100001N1+00301-00121102261ADDAA199000091GF106991001001999999001011KA1999M+00931MD1710111+9999REMSYN070AAXX  29181 33415 32997 61606 10030 21012 40226 57011 80001 333 10093;EQDQ01  00002PRCP99
0112334150999992000022921004+49570+025600FM-12+032499999V0201601N004019999999N0100001N1+00131-00131102111ADDGF105991001001999999001011MD1710171+9999REMSYN060AAXX  29211 33415 42997 51604 10013 21013 40211 57017 80001;
0133334150999992000030100004+49570+025600FM-12+032499999V0201601N005012200019N0100001N1+00041-00131101941ADDGF103991001001999999001011MA1999999097861MD1710181+9999REMSYN066AAXX  01001 33415 42997 31605 10004 21013 39786 40194 57018 80001;
0158334150999992000030103004+49570+025600FM-12+032499999V0201401N004012200019N0100001N1-00131-00231101631ADDAA199000091GF103991001001999999001011MD1710331+9999REMSYN076AAXX  01031 33415 32997 31404 11013 21023 40163 57033 80001 555 21014 7000/;EQDQ01  00002PRCP99
0222334150999992000030106004+49570+025600FM-12+032499999V0201601N005010360019N0040001N1-00201-00291101431ADDAA199000091AJ100009199999999AY111061AY211061GF107991021051012501031011IA1259KA1120N-00251MD1710191+9999MW1101REMSYN082AAXX  01061 33415 31696 71605 11020 21029 40143 57019 71011 82531 333 21025 41998;EQDQ01  00002PRCP99
0112334150999992000030109004+49570+025600FM-12+032499999V0201501N005010360019N0100001N1+00061-00271101311ADDGF107991021051012501031001MD1710081+9999REMSYN060AAXX  01091 33415 42697 71505 10006 21027 40131 57008 82530;
0133334150999992000030112004+49570+025600FM-12+032499999V0201501N008010360019N0100001N1+00221-00311101061ADDGF107991021051012501031001MA1999999097051MD1710211+9999REMSYN066AAXX  01121 33415 42697 71508 10022 21031 39705 40106 57021 82530;
0112334150999992000030115004+49570+025600FM-12+032499999V0201501N008010360019N0100001N1+00231-00141100981ADDGF107991041051012501031001MD1710081+9999REMSYN060AAXX  01151 33415 42697 71508 10023 21014 40098 57008 84530;
0180334150999992000030118004+49570+025600FM-12+032499999V0201501N004010360019N0100001N1+00221-00061100931ADDAA112000791AY181061AY221061GF107991031051012501031001KA1999M+00281MD1710051+9999MW1021REMSYN082AAXX  01181 33415 11697 71504 10022 21006 40093 57005 69902 70282 83530 333 10028;
0112334150999992000030121004+49570+025600FM-12+032499999V0201801N003010360019N0100001N1+00241+00001100981ADDGF107991031051012501031001MD1310071+9999REMSYN060AAXX  01211 33415 42697 71803 10024 21000 40098 53007 83530;
0133334150999992000030200004+49570+025600FM-12+032499999V0201501N004010360019N0100001N1+00171-00051100941ADDGF107991041051012501031001MA1999999096911MD1810061+9999REMSYN066AAXX  02001 33415 42697 71504 10017 21005 39691 40094 58006 84530;
0158334150999992000030203004+49570+025600FM-12+032499999V0201401N004010360019N0100001N1+00091-00081100861ADDAA199000091GF107991021051012501031001MD1710071+9999REMSYN076AAXX  02031 33415 32697 71404 10009 21008 40086 57007 82530 555 20008 7990/;EQDQ01  00002PRCP99
0194334150999992000030206004+49570+025600FM-12+032499999V0201401N004010360019N0100001N1+00021-00121100941ADDAA199000091AJ100009199999999GF107991021051012501031001IA1259KA1120N+00021MD1310061+9999REMSYN076AAXX  02061 33415 32697 71404 10002 21012 40094 53006 82530 333 20002 41998;EQDQ01  00002PRCP99
0140334150999992000030209004+49570+025600FM-12+032499999V0201601N006010360019N0100001N1+00071-00131101011ADDAY181031AY221031GF107991031031012501031001MD1210071+9999MW1021REMSYN066AAXX  02091 33415 41697 71606 10007 21013 40101 52007 70282 83330;
0187334150999992000030212004+49570+025600FM-12+032499999V0201801N001010063019N0100001N1+00191-00031101031ADDAY181061AY221061GA1051+006309099GF107991051031008001031001MA1999999097021MD1210051+9999MW1801REMSYN082AAXX  02121 33415 41597 71801 10019 21003 39702 40103 52005 78082 85330 333 85921;
0166334150999992000030215004+49570+025600FM-12+032499999V0201801N001010042019N0040001N1+00101-00011101061ADDAY181031AY281031GA1051+004209099GF107991051031004501031001MD1210011+9999MW1801REMSYN076AAXX  02151 33415 41496 71801 10010 21001 40106 52001 78088 85330 333 85914;
0202334150999992000030218004+49570+025600FM-12+032499999V0202701N005010036019N0020001N1+00051-00031101301ADDAA112003091AY181061AY281061GA1081+003609099GF108991081031004501999999KA1120M+00241MD1210221+9999MW1851REMSYN088AAXX  02181 33415 11495 82705 10005 21003 40130 52022 60032 78588 883// 333 10024 88912;
0166334150999992000030221004+49570+025600FM-12+032499999V0202901N008010360019N0100001N1+00051-00061101531ADDAY181031AY221031GA1041+003909099GF107991041031004501031001MD1210221+9999MW1851REMSYN076AAXX  02211 33415 41497 72908 10005 21006 40153 52022 78582 84330 333 84913;
0161334150999992000030300004+49570+025600FM-12+032499999V0202901N005012200019N0100001N1+00031-00111101651ADDAY181061AY211061GF103991031001999999031001MA1999999097581MD1210111+9999MW1021REMSYN072AAXX  03001 33415 41997 32905 10003 21011 39758 40165 52011 70281 83030;
0128334150999992000030303004+49570+025600FM-12+032499999V0202701N003012200019N0100001N1-00111-00301101751ADDGF102991021001999999031001MD1210071+9999REMSYN076AAXX  03031 33415 42997 22703 11011 21030 40175 52007 82030 555 21012 7005/;
0181334150999992000030306004+49570+025600FM-12+032499999V0202701N004019999999N0100001N1-00281-00441101791ADDAA112002091AJ100009199999999GF105991021001999999031011IA1279KA1120N-00301MD1210031+9999REMSYN082AAXX  03061 33415 12997 52704 11028 21044 40179 52003 60022 82031 333 21030 43997;
0112334150999992000030309004+49570+025600FM-12+032499999V0202001N002019999999N0100001N1+00161-00391101731ADDGF106991001001999999001011MD1410001+9999REMSYN060AAXX  03091 33415 42997 62002 10016 21039 40173 54000 80001;
0133334150999992000030312004+49570+025600FM-12+032499999V0202001N005012200019N0100001N1+00321-00401101501ADDGF102991001001999999001011MA1999999097481MD1810201+9999REMSYN066AAXX  03121 33415 42997 22005 10032 21040 39748 40150 58020 80001;
0112334150999992000030315004+49570+025600FM-12+032499999V0201801N006012200019N0100001N1+00411-00271101211ADDGF103991001001999999001011MD1710261+9999REMSYN060AAXX  03151 33415 42997 31806 10041 21027 40121 57026 80001;
0175334150999992000030318004+49570+025600FM-12+032499999V0201801N004012200019N0100001N1+00171-00171101151ADDAA199000091GA1001+999999999GF100991001001999999001001KA1999M+00431MD1710111+9999REMSYN064AAXX  03181 33415 32997 01804 10017 21017 40115 57011 333 10043;EQDQ01  00002PRCP99
0112334150999992000030321004+49570+025600FM-12+032499999V0202001N005010360019N0100001N1+00171-00081101051ADDGF108991031051012501031999MD1710091+9999REMSYN060AAXX  03211 33415 42697 82005 10017 21008 40105 57009 8353/;
0133334150999992000030400004+49570+025600FM-12+032499999V0202001N006010120019N0100001N1+00241+00081100981ADDGF108991061051012501031999MA1999999096971MD1710051+9999REMSYN066AAXX  04001 33415 42697 82006 10024 20008 39697 40098 57005 8653/;
0106334150999992000030403004+49570+025600FM-12+032499999V0202001N006019999999N0100001N1+00241+00081999999ADDGF108991999999008001999999MD1710051+9999REMSYN054AAXX  04031 33415 4/597 82006 10024 20008 4/098 57005;
0194334150999992000030406004+49570+025600FM-12+032499999V0201601N003019999999N0100001N1+00071-00221100821ADDAA199000091AJ100009199999999GF106991031001999999031011IA1259KA1120N+00071MD1710101+9999REMSYN076AAXX  04061 33415 32997 61603 10007 21022 40082 57010 83031 333 20007 41998;EQDQ01  00002PRCP99
0112334150999992000030409004+49570+025600FM-12+032499999V0201801N005010360019N0100001N1+00421-00191100711ADDGF107991031051012501031001MD1710051+9999REMSYN060AAXX  04091 33415 42697 71805 10042 21019 40071 57005 83530;
0159334150999992000030412004+49570+025600FM-12+032499999V0202301N004010087019N0100001N1+00521-00071100621ADDGA1051+008709059GF107991051051008001031001MA1999999096671MD1710061+9999REMSYN076AAXX  04121 33415 42597 72304 10052 21007 39667 40062 57006 85530 333 85629;
0166334150999992000030415004+49570+025600FM-12+032499999V0202701N007010051019N0100001N1+00131-00041100791ADDAY181031AY221031GA1061+005109099GF108991061031004501031999MD1310101+9999MW1831REMSYN076AAXX  04151 33415 41497 82707 10013 21004 40079 53010 78382 8633/ 333 86917;
0202334150999992000030418004+49570+025600FM-12+032499999V0202701N006010069019N0100001N1+00111-00061101001ADDAA112003091AY181061AY221061GA1051+006909099GF107991051031008001031001KA1120M+00531MD1210201+9999MW1251REMSYN088AAXX  04181 33415 11597 72706 10011 21006 40100 52020 60032 72582 85330 333 10053 85923;
0138334150999992000030421004+49570+025600FM-12+032499999V0202701N005010093019N0100001N1+00081-00061101181ADDGA1051+009309099GF107991051031008001031001MD1210171+9999REMSYN070AAXX  04211 33415 42597 72705 10008 21006 40118 52017 85330 333 85931;
0133334150999992000030500004+49570+025600FM-12+032499999V0202701N006010360019N0100001N1+00061-00111101311ADDGF107991031051012501031001MA1999999097261MD1210121+9999REMSYN066AAXX  05001 33415 42697 72706 10006 21011 39726 40131 52012 83530;
0139334150999992000030503004+49570+025600FM-12+032499999V0202701N006010360019N0100001N1-00011-00221101471ADDAA199000021GF107991041051012501031001MD1210151+9999REMSYN076AAXX  05031 33415 32697 72706 11001 21022 40147 52015 84530 555 21002 7003/;
0250334150999992000030506004+49570+025600FM-12+032499999V0202701N004010063019N0100001N1-00151-00371101641ADDAA112000791AJ199993999999999AY181061AY221061GA1051+006309099GF107991051031008001031001IA1239KA1120N-00161MD1210131+9999MW1021REMSYN094AAXX  05061 33415 11597 72704 11015 21037 40164 52013 69902 70282 85330 333 21016 47997 85921;EQDQ01  09982SNDP  
0166334150999992000030509004+49570+025600FM-12+032499999V0202701N008010063019N0100001N1-00041-00461101731ADDAY181031AY221031GA1051+006309099GF107991051031008001031001MD1210111+9999MW1261REMSYN076AAXX  05091 33415 42597 72708 11004 21046 40173 52011 72682 85330 333 85921;
0187334150999992000030512004+49570+025600FM-12+032499999V0202701N007010360019N0100001N1+00091-00421101741ADDAY181061AY221061GA1041+006909099GF106991041031008001031001MA1999999097671MD1210021+9999MW1021REMSYN082AAXX  05121 33415 41597 62707 10009 21042 39767 40174 52002 70282 84330 333 84923;
0166334150999992000030515004+49570+025600FM-12+032499999V0203201N006010360019N0100001N1-00091-00551101861ADDAY181031AY221031GA1041+006009099GF106991041031008001031001MD1210101+9999MW1261REMSYN076AAXX  05151 33415 41597 63206 11009 21055 40186 52010 72682 84330 333 84920;
0199334150999992000030518004+49570+025600FM-12+032499999V0202901N004010360019N0100001N1-00191-00651999999ADDAA112000391AY181061AY221061GF105991021031008001031001KA1999M+00101MD1210161+9999MW1021REMSYN082AAXX  05181 33415 11597 52904 11019 21065 40105 52016 69932 70282 82330 333 10010;EQDQ01+101053APOSLP
0112334150999992000030521004+49570+025600FM-12+032499999V0202701N006012200019N0100001N1-00231-00651102171ADDGF102991021001999999031001MD1210111+9999REMSYN060AAXX  05211 33415 42997 22706 11023 21065 40217 52011 82030;
0133334150999992000030600004+49570+025600FM-12+032499999V0202701N007010360019N0100001N1-00241-00501102311ADDGF105991021031012501031001MA1999999098171MD1210131+9999REMSYN066AAXX  06001 33415 42697 52707 11024 21050 39817 40231 52013 82330;
0182334150999992000030603004+49570+025600FM-12+032499999V0202901N006010360019N0100001N1-00251-00511102391ADDAY181031AY221031GA1041+006309099GF106991041031008001031001MD1210081+9999MW1021REMSYN092AAXX  06031 33415 41597 62906 11025 21051 40239 52008 70282 84330 333 84921 555 21026 7993/;
0233334150999992000030606004+49570+025600FM-12+032499999V0202701N007010066019N0100001N1-00321-00531102571ADDAJ199993999999999AY181061AY221061GA1051+006609099GF107991051031008001031001IA1239KA1120N-00331MD1210161+9999MW1021REMSYN088AAXX  06061 33415 11597 72707 11032 21053 40257 52016 70282 85330 333 21033 47997 85922;EQDQ01  09982SNDP  
0138334150999992000030609004+49570+025600FM-12+032499999V0202701N006010090019N0100001N1-00121-00521102651ADDGA1051+009009099GF107991051031008001031001MD1210101+9999REMSYN070AAXX  06091 33415 42597 72706 11012 21052 40265 52010 85330 333 85930;
0133334150999992000030612004+49570+025600FM-12+032499999V0202701N005010360019N0100001N1+00021-00621102671ADDGF107991041031012501031001MA1999999098561MD1210051+9999REMSYN066AAXX  06121 33415 42697 72705 10002 21062 39856 40267 52005 84330;
0112334150999992000030615004+49570+025600FM-12+032499999V0202701N006010360019N0100001N1+00001-00901102661ADDGF106991031031012501031001MD1810031+9999REMSYN060AAXX  06151 33415 42697 62706 10000 21090 40266 58003 83330;
0165334150999992000030618004+49570+025600FM-12+032499999V0202501N006012200019N0100001N1-00161-00721102611ADDAA199000091GF102991021051012501031001KA1999M+00051MD1710051+9999REMSYN070AAXX  06181 33415 32697 22506 11016 21072 40261 57005 82530 333 10005;EQDQ01  00002PRCP99
0112334150999992000030621004+49570+025600FM-12+032499999V0202001N006010360019N0100001N1-00131-00531102531ADDGF107991031031012501031001MD1710081+9999REMSYN060AAXX  06211 33415 42697 72006 11013 21053 40253 57008 83330;
0159334150999992000030700004+49570+025600FM-12+032499999V0202301N008010066019N0100001N1-00111-00371102321ADDGA1051+006609099GF107991051031008001031001MA1999999098201MD1710201+9999REMSYN076AAXX  07001 33415 42597 72308 11011 21037 39820 40232 57020 85330 333 85922;
0158334150999992000030703004+49570+025600FM-12+032499999V0202301N005010120019N0100001N1-00041-00311102001ADDAA199000091GF107991051031012501031001MD1710301+9999REMSYN076AAXX  07031 33415 32697 72305 11004 21031 40200 57030 85330 555 21016 7000/;EQDQ01  00002PRCP99
0194334150999992000030706004+49570+025600FM-12+032499999V0202301N005010120019N0100001N1+00061-00521101811ADDAA199000091AJ100009199999999GF107991051031012501031001IA1259KA1120N-00161MD1710171+9999REMSYN076AAXX  07061 33415 32697 72305 10006 21052 40181 57017 85330 333 21016 41998;EQDQ01  00002PRCP99
0140334150999992000030709004+49570+025600FM-12+032499999V0202501N006010360019N0100001N1+00231-00101101651ADDAY181031AY221031GF107991041031012501031001MD1710121+9999MW1261REMSYN066AAXX  07091 33415 41697 72506 10023 21010 40165 57012 72682 84330;
0161334150999992000030712004+49570+025600FM-12+032499999V0202501N009019999999N0100001N1+00761-00071101361ADDAY181061AY221061GF106991021001999999031011MA1999999097401MD1710211+9999MW1011REMSYN072AAXX  07121 33415 41997 62509 10076 21007 39740 40136 57021 70182 82031;
0112334150999992000030715004+49570+025600FM-12+032499999V0202501N007010120019N0100001N1+00741-00021101261ADDGF107991061031012501031001MD1710101+9999REMSYN060AAXX  07151 33415 42697 72507 10074 21002 40126 57010 86330;
0152334150999992000030718004+49570+025600FM-12+032499999V0202501N008010120019N0100001N1+00601-00031101301ADDAA112000391GF107991061031012501031001KA1999M+00891MD1310031+9999REMSYN076AAXX  07181 33415 12697 72508 10060 21003 40130 53003 69932 86330 333 10089;
0112334150999992000030721004+49570+025600FM-12+032499999V0202501N008010120019N0100001N1+00521-00041101311ADDGF107991061031012501031001MD1810011+9999REMSYN060AAXX  07211 33415 42697 72508 10052 21004 40131 58001 86330;
0133334150999992000030800004+49570+025600FM-12+032499999V0202501N007019999999N0100001N1+00581+00041101211ADDGF107991071001999999031001MA1999999097251MD1710071+9999REMSYN066AAXX  08001 33415 42997 72507 10058 20004 39725 40121 57007 87030;
0156334150999992000030803004+49570+025600FM-12+032499999V0202301N006010120019N0100001N1+00541+00141101081ADDAY181031AY221031GF107991061031012501031001MD1710151+9999MW1801REMSYN082AAXX  08031 33415 41697 72306 10054 20014 40108 57015 78082 86330 555 20052 7993/;
0202334150999992000030806004+49570+025600FM-12+032499999V0202501N008010051019N0100001N1+00541+00251101061ADDAA112000391AY181061AY221061GA1061+005109099GF107991061031004501031001KA1120N+00521MD1710031+9999MW1801REMSYN088AAXX  08061 33415 11497 72508 10054 20025 40106 57003 69932 78082 86330 333 20052 86917;
0166334150999992000030809004+49570+025600FM-12+032499999V0202601N009010045019N0100001N1+00581+00341101131ADDAY181031AY221031GA1051+004509099GF107991051031004501031001MD1310101+9999MW1801REMSYN076AAXX  08091 33415 41497 72609 10058 20034 40113 53010 78082 85330 333 85915;
0187334150999992000030812004+49570+025600FM-12+032499999V0202501N006010039019N0040001N1+00591+00431101121ADDAY181061AY221061GA1061+003909099GF108991061031004501031999MA1999999097161MD1810011+9999MW1801REMSYN082AAXX  08121 33415 41496 82506 10059 20043 39716 40112 58001 78082 8633/ 333 86913;
0166334150999992000030815004+49570+025600FM-12+032499999V0202701N007010036019N0040001N1+00621+00511101111ADDAY181031AY221031GA1061+003609099GF107991061031004501031001MD1710011+9999MW1251REMSYN076AAXX  08151 33415 41496 72707 10062 20051 40111 57001 72582 86330 333 86912;
0202334150999992000030818004+49570+025600FM-12+032499999V0202301N006010054019N0040001N1+00601+00511101071ADDAA112001091AY181061AY221061GA1061+005409099GF108991061031004501031999KA1120M+00621MD1710041+9999MW1801REMSYN088AAXX  08181 33415 11496 82306 10060 20051 40107 57004 60012 78082 8633/ 333 10062 86918;
0166334150999992000030821004+49570+025600FM-12+032499999V0202301N007010093019N0100001N1+00581+00421100871ADDAY181031AY221031GA1051+009309099GF107991051031008001031001MD1710201+9999MW1021REMSYN076AAXX  08211 33415 41597 72307 10058 20042 40087 57020 70282 85330 333 85931;
0187334150999992000030900004+49570+025600FM-12+032499999V0202301N007010054019N0100001N1+00551+00431100671ADDAY181061AY221061GA1061+005409099GF108991061031004501031999MA1999999098711MD1710201+9999MW1801REMSYN082AAXX  09001 33415 41497 82307 10055 20043 39871 40067 57020 78082 8633/ 333 86918;
0182334150999992000030903004+49570+025600FM-12+032499999V0202501N007010084019N0100001N1+00641+00531100401ADDAY181031AY281031GA1061+008409099GF108991061031008001031999MD1710241+9999MW1801REMSYN092AAXX  09031 33415 41597 82507 10064 20053 40040 57024 78088 8633/ 333 86928 555 20054 7002/;
0202334150999992000030906004+49570+025600FM-12+032499999V0202301N006010072019N0100001N1+00661+00521100051ADDAA112004191AY181061AY281061GA1061+007209099GF107991061031008001031001KA1120N+00541MD1710231+9999MW1801REMSYN088AAXX  09061 33415 11597 72306 10066 20052 40005 57023 60042 78088 86330 333 20054 86924;
0140334150999992000030909004+49570+025600FM-12+032499999V0202701N011010360019N0100001N1+00941+00361099981ADDAY181031AY221031GF107991041051012501031011MD1710041+9999MW1021REMSYN066AAXX  09091 33415 41697 72711 10094 20036 49998 57004 70282 84531;
0187334150999992000030912004+49570+025600FM-12+032499999V0202301N008010360019N0100001N1+00841+00531099871ADDAY181061AY221061GA1041+005109099GF107991041031008001031001MA1999999096002MD1710101+9999MW1801REMSYN082AAXX  09121 33415 41597 72308 10084 20053 39600 49987 57010 78082 84330 333 84917;
0166334150999992000030915004+49570+025600FM-12+032499999V0202501N010010045019N0100001N1+00821+00591099581ADDAY181031AY221031GA1051+004509099GF107991051031004501031001MD1710301+9999MW1251REMSYN076AAXX  09151 33415 41497 72510 10082 20059 49958 57030 72582 85330 333 85915;
0202334150999992000030918004+49570+025600FM-12+032499999V0202701N009010048019N0100001N1+00801+00561099581ADDAA112003091AY181061AY221061GA1051+004809099GF107991051031004501031001KA1120M+01001MD1410001+9999MW1801REMSYN088AAXX  09181 33415 11497 72709 10080 20056 49958 54000 60032 78082 85330 333 10100 85916;
0166334150999992000030921004+49570+025600FM-12+032499999V0203201N008010360019N0100001N1+00521+00111099881ADDAY181031AY221031GA1031+006309099GF107991031031008001031001MD1310251+9999MW1021REMSYN076AAXX  09211 33415 41597 73208 10052 20011 49988 53025 70282 83330 333 83921;
0187334150999992000031000004+49570+025600FM-12+032499999V0202901N008010090019N0100001N1+00281-00141100321ADDAY181061AY221061GA1061+009009059GF107991061051008001031001MA1999999096351MD1210401+9999MW1021REMSYN082AAXX  10001 33415 41597 72908 10028 21014 39635 40032 52040 70282 86530 333 86630;
0182334150999992000031003004+49570+025600FM-12+032499999V0202901N008010360019N0100001N1-00061-00181100591ADDAY181031AY221031GA1041+004209099GF107991041031004501031001MD1210201+9999MW1851REMSYN092AAXX  10031 33415 41497 72908 11006 21018 40059 52020 78582 84330 333 84914 555 21006 7006/;
0209334150999992000031006004+49570+025600FM-12+032499999V0203201N005012200019N0100001N1-00181-00561100891ADDAA112000591AJ100009199999999AY181061AY221061GF105991021051012501001011IA1239KA1120N-00221MD1210271+9999MW1021REMSYN088AAXX  10061 33415 11697 53205 11018 21056 40089 52027 69952 70282 82501 333 21022 47997;
0112334150999992000031009004+49570+025600FM-12+032499999V0202901N005010120019N0100001N1-00031-00691101091ADDGF107991071031012501001001MD1210211+9999REMSYN060AAXX  10091 33415 42697 72905 11003 21069 40109 52021 87300;
0161334150999992000031012004+49570+025600FM-12+032499999V0202701N006010120019N0100001N1+00101-00661101161ADDAY181061AY221061GF107991071031012501001001MA1999999097121MD1210091+9999MW1851REMSYN072AAXX  10121 33415 41697 72706 10010 21066 39712 40116 52009 78582 87300;
0140334150999992000031015004+49570+025600FM-12+032499999V0202701N006012200019N0100001N1+00111-00651101241ADDAY181031AY221031GF105991031031012501001011MD1210081+9999MW1261REMSYN066AAXX  10151 33415 41697 52706 10011 21065 40124 52008 72682 83301;
0190334150999992000031018004+49570+025600FM-12+032499999V0202901N008012200019N0100001N1-00161-00501101531ADDAA112000391AY181061AY211061GA1001+999999999GF100991001001999999001001KA1999M+00151MD1210241+9999MW1011REMSYN076AAXX  10181 33415 11997 02908 11016 21050 40153 52024 69932 70181 333 10015;
0140334150999992000031021004+49570+025600FM-12+032499999V0202901N008010120019N0100001N1-00211-00531101781ADDAY181031AY211031GF105991051031012501001001MD1210231+9999MW1021REMSYN066AAXX  10211 33415 41697 52908 11021 21053 40178 52023 70281 85300;
0161334150999992000031100004+49570+025600FM-12+032499999V0202701N006010120019N0100001N1-00221-00501101831ADDAY181061AY211061GF106991061031012501001001MA1999999097711MD1210041+9999MW1021REMSYN072AAXX  11001 33415 41697 62706 11022 21050 39771 40183 52004 70281 86300;
0138334150999992000031103004+49570+025600FM-12+032499999V0202701N004012200019N0100001N1-00301-00541101821ADDGA1001+999999999GF100991001001999999001001MD1810021+9999REMSYN070AAXX  11031 33415 42997 02704 11030 21054 40182 58002 555 21031 7996/;
0181334150999992000031106004+49570+025600FM-12+032499999V0202701N005012200019N0100001N1-00341-00511101821ADDAA112000391AJ100019199999999GF103991021051012501001011IA1239KA1120N-00391MD1410001+9999REMSYN082AAXX  11061 33415 12697 32705 11034 21051 40182 54000 69932 82501 333 21039 47001;
0112334150999992000031109004+49570+025600FM-12+032499999V0202901N006010120019N0100001N1-00071-00561101771ADDGF107991071031012501001001MD1410001+9999REMSYN060AAXX  11091 33415 42697 72906 11007 21056 40177 54000 87300;
0133334150999992000031112004+49570+025600FM-12+032499999V0202701N004010120019N0100001N1+00211-00591101471ADDGF107991061031012501031001MA1999999097441MD1810251+9999REMSYN066AAXX  11121 33415 42697 72704 10021 21059 39744 40147 58025 86330;
0112334150999992000031115004+49570+025600FM-12+032499999V0202301N004010120019N0100001N1+00201-00681101201ADDGF108991051031012501031999MD1710261+9999REMSYN060AAXX  11151 33415 42697 82304 10020 21068 40120 57026 8533/;
0202334150999992000031118004+49570+025600FM-12+032499999V0201801N005010072019N0100001N1-00081-00291101091ADDAA112000791AY181061AY221061GA1061+007209099GF108991061031008001031999KA1120M+00291MD1710151+9999MW1851REMSYN088AAXX  11181 33415 11597 81805 11008 21029 40109 57015 69902 78582 8633/ 333 10029 86924;
0166334150999992000031121004+49570+025600FM-12+032499999V0201401N005010081019N0040001N1-00141-00231100861ADDAY181031AY281031GA1061+008109099GF108991061031008001031999MD1710241+9999MW1851REMSYN076AAXX  11211 33415 41596 81405 11014 21023 40086 57024 78588 8633/ 333 86927;
0187334150999992000031200004+49570+025600FM-12+032499999V0201401N004010069019N0020001N1-00141-00241100721ADDAY181061AY281061GA1061+006909099GF108991061031008001031999MA1999999096661MD1710131+9999MW1851REMSYN082AAXX  12001 33415 41595 81404 11014 21024 39666 40072 57013 78588 8633/ 333 86923;
0182334150999992000031203004+49570+025600FM-12+032499999V0201601N002010063019N0020001N1-00151-00201100701ADDAY181031AY281031GA1051+006309099GF108991051031008001031999MD1710021+9999MW1861REMSYN092AAXX  12031 33415 41595 81602 11015 21020 40070 57002 78688 8533/ 333 85921 555 21017 7002/;
0231334150999992000031206004+49570+025600FM-12+032499999V0203601N004010033019N0020001N1-00101-00141100901ADDAA112003091AJ100039199999999AY181061AY281061GA1061+003309099GF108991061031004501031999IA1239KA1120N-00171MD1310211+9999MW1851REMSYN094AAXX  12061 33415 11495 83604 11010 21014 40090 53021 60032 78588 8633/ 333 21017 47003 86911;
0166334150999992000031209004+49570+025600FM-12+032499999V0203601N008010054019N0100001N1-00091-00381101601ADDAY181031AY231031GA1061+005409099GF107991061031004501031001MD1210671+9999MW1021REMSYN076AAXX  12091 33415 41497 73608 11009 21038 40160 52067 70283 86330 333 86918;
0187334150999992000031212004+49570+025600FM-12+032499999V0203201N006010063019N0100001N1-00021-00541101951ADDAY181061AY231061GA1061+006309059GF106991061051008001001001MA1999999097861MD1210341+9999MW1021REMSYN082AAXX  12121 33415 41597 63206 11002 21054 39786 40195 52034 70283 86500 333 86621;
0112334150999992000031215004+49570+025600FM-12+032499999V0203101N007012200019N0100001N1+00041-00841102181ADDGF102991021051012501001001MD1210231+9999REMSYN060AAXX  12151 33415 42697 23107 10004 21084 40218 52023 82500;
0152334150999992000031218004+49570+025600FM-12+032499999V0203001N008012200019N0100001N1-00151-01011102401ADDAA112000191GF102991021001999999031001KA1999M+00051MD1210191+9999REMSYN076AAXX  12181 33415 32997 23008 11015 21101 40240 52019 69912 82030 333 10005;
0122334150999992000031221004+49570+025600FM-12+032499999V0203101N005012200019N0100001N1-00331-00931102671ADDGA1001+999999999GF100991001001999999001001MD1210221+9999REMSYN054AAXX  12211 33415 42997 03105 11033 21093 40267 52022;
0143334150999992000031300004+49570+025600FM-12+032499999V0202901N003012200019N0100001N1-00441-00911102811ADDGA1001+999999999GF100991001001999999001001MA1999999098621MD1210121+9999REMSYN060AAXX  13001 33415 42997 02903 11044 21091 39862 40281 52012;
0168334150999992000031303004+49570+025600FM-12+032499999V0202701N004012200019N0100001N1-00661-00981102851ADDAA199000091GA1001+999999999GF100991001001999999001001MD1210031+9999REMSYN070AAXX  13031 33415 32997 02704 11066 21098 40285 52003 555 21067 7001/;EQDQ01  00002PRCP99
0194334150999992000031306004+49570+025600FM-12+032499999V0202701N002019999999N0100001N1-00721-00931103001ADDAA199000091AJ100019199999999GF107991041001999999031011IA1279KA1120N-00831MD1210111+9999REMSYN076AAXX  13061 33415 32997 72702 11072 21093 40300 52011 84031 333 21083 43001;EQDQ01  00002PRCP99
0112334150999992000031309004+49570+025600FM-12+032499999V0202701N003019999999N0100001N1-00181-00831103001ADDGF105991031001999999031011MD1210071+9999REMSYN060AAXX  13091 33415 42997 52703 11018 21083 40300 52007 83031;
0196334150999992000031312004+49570+025600FM-12+032499999V0203601N006010075019N0750001N1-00161-01191999999ADDAY171061AY211061GF107991071051008001001001MA1999999999999MD1210081+9999MW1021REMSYN072AAXX  13121 33415 41589 73606 11016 21119 30115 40214 52008 70271 87500;EQDQ01+102143APOSLPQ02 101153APOSP 
0122334150999992000031315004+49570+025600FM-12+032499999V0202301N001012200019N0100001N1+00241-00801102761ADDGA1001+999999999GF100991001001999999001001MD1710101+9999REMSYN054AAXX  13151 33415 42997 02301 10024 21080 40276 57010;
0165334150999992000031318004+49570+025600FM-12+032499999V0209999C000012200019N0100001N1-00051-00791102761ADDAA199000091GF102991001001999999001011KA1999M+00251MD1710031+9999REMSYN070AAXX  13181 33415 32997 20000 11005 21079 40276 57003 80001 333 10025;EQDQ01  00002PRCP99
0112334150999992000031321004+49570+025600FM-12+032499999V0209999C000012200019N0100001N1-00211-00751102801ADDGF102991001001999999001011MD1310011+9999REMSYN060AAXX  13211 33415 42997 20000 11021 21075 40280 53001 80001;
0133334150999992000031400004+49570+025600FM-12+032499999V0209999C000019999999N0100001N1-00261-00591102801ADDGF105991001001999999001011MA1999999098641MD1410001+9999REMSYN066AAXX  14001 33415 42997 50000 11026 21059 39864 40280 54000 80001;
0158334150999992000031403004+49570+025600FM-12+032499999V0201401N002019999999N0100001N1-00321-00531102691ADDAA199000091GF107991051001999999031011MD1810121+9999REMSYN076AAXX  14031 33415 32997 71402 11032 21053 40269 58012 85031 555 21033 7000/;EQDQ01  00002PRCP99
0194334150999992000031406004+49570+025600FM-12+032499999V0201401N003010360019N0100001N1-00221-00401102611ADDAA199000091AJ100009199999999GF107991021051012501031001IA1259KA1120N-00331MD1710061+9999REMSYN076AAXX  14061 33415 32697 71403 11022 21040 40261 57006 82530 333 21033 41998;EQDQ01  00002PRCP99
0112334150999992000031409004+49570+025600FM-12+032499999V0201801N003010360019N0100001N1+00161-00251102361ADDGF106991021051012501031011MD1710181+9999REMSYN060AAXX  14091 33415 42697 61803 10016 21025 40236 57018 82531;
0133334150999992000031412004+49570+025600FM-12+032499999V0202001N005010360019N0100001N1+00521-00301102161ADDGF107991021051012501031011MA1999999098141MD1710141+9999REMSYN066AAXX  14121 33415 42697 72005 10052 21030 39814 40216 57014 82531;
0112334150999992000031415004+49570+025600FM-12+032499999V0201801N006010360019N0100001N1+00581-00321101881ADDGF106991021051012501031011MD1710261+9999REMSYN060AAXX  14151 33415 42697 61806 10058 21032 40188 57026 82531;
0165334150999992000031418004+49570+025600FM-12+032499999V0201801N004010360019N0100001N1+00271-00181101771ADDAA199000091GF106991031051012501031011KA1999M+00591MD1710161+9999REMSYN070AAXX  14181 33415 32697 61804 10027 21018 40177 57016 83531 333 10059;EQDQ01  00002PRCP99
0112334150999992000031421004+49570+025600FM-12+032499999V0202001N004012200019N0100001N1+00161-00191101471ADDGF103991021001999999031011MD1710301+9999REMSYN060AAXX  14211 33415 42997 32004 10016 21019 40147 57030 82031;
0133334150999992000031500004+49570+025600FM-12+032499999V0201801N003012200019N0100001N1+00081-00211101261ADDGF102991021001999999031011MA1999999097211MD1710211+9999REMSYN066AAXX  15001 33415 42997 21803 10008 21021 39721 40126 57021 82031;
0158334150999992000031503004+49570+025600FM-12+032499999V0201601N006010360019N0100001N1+00131-00131100911ADDAA199000091GF107991041051012501031001MD1710321+9999REMSYN076AAXX  15031 33415 32697 71606 10013 21013 40091 57032 84530 555 20007 7000/;EQDQ01  00002PRCP99
0209334150999992000031506004+49570+025600FM-12+032499999V0201601N005010360019N0100001N1+00121-00051100621ADDAA112000391AJ100009199999999AY181061AY221061GF107991041031012501031001IA1259KA1120N+00071MD1710281+9999MW1251REMSYN088AAXX  15061 33415 11697 71605 10012 21005 40062 57028 69932 72582 84330 333 20007 41998;
0140334150999992000031509004+49570+025600FM-12+032499999V0202301N005010120019N0100001N1+00321+00141100581ADDAY181031AY281031GF107991051031012501031001MD1710011+9999MW1801REMSYN066AAXX  15091 33415 41697 72305 10032 20014 40058 57001 78088 85330;
0161334150999992000031512004+49570+025600FM-12+032499999V0202901N006010120019N0100001N1+00351+00171100741ADDAY181061AY221061GF107991051031012501031001MA1999999096751MD1310151+9999MW1801REMSYN072AAXX  15121 33415 41697 72906 10035 20017 39675 40074 53015 78082 85330;
0140334150999992000031515004+49570+025600FM-12+032499999V0202901N008010360019N0100001N1+00171-00051100961ADDAY181031AY221031GF107991031031012501031001MD1210181+9999MW1021REMSYN066AAXX  15151 33415 41697 72908 10017 21005 40096 52018 70282 83330;
0180334150999992000031518004+49570+025600FM-12+032499999V0202701N008010360019N0100001N1+00061-00171101081ADDAA112002091AY181061AY221061GF106991021031012501031001KA1999M+00421MD1210111+9999MW1021REMSYN082AAXX  15181 33415 11697 62708 10006 21017 40108 52011 60022 70282 82330 333 10042;
0112334150999992000031521004+49570+025600FM-12+032499999V0202501N009012200019N0100001N1-00061-00341101171ADDGF102991021001999999031001MD1210061+9999REMSYN060AAXX  15211 33415 42997 22509 11006 21034 40117 52006 82030;
0133334150999992000031600004+49570+025600FM-12+032499999V0202501N009012200019N0100001N1-00131-00461101181ADDGF104991021001999999031011MA1999999097101MD1410001+9999REMSYN066AAXX  16001 33415 42997 42509 11013 21046 39710 40118 54000 82031;
0182334150999992000031603004+49570+025600FM-12+032499999V0202501N007010066019N0100001N1-00151-00381101011ADDAY181031AY221031GA1051+006609099GF108991051031008001031999MD1810161+9999MW1851REMSYN092AAXX  16031 33415 41597 82507 11015 21038 40101 58016 78582 8533/ 333 85922 555 21017 7002/;
0250334150999992000031606004+49570+025600FM-12+032499999V0202701N005010078019N0100001N1-00161-00301101011ADDAA112000391AJ199993999999999AY181061AY221061GA1051+007809099GF107991051031008001031001IA1239KA1120N-00191MD1410001+9999MW1851REMSYN094AAXX  16061 33415 11597 72705 11016 21030 40101 54000 69932 78582 85330 333 21019 47997 85926;EQDQ01  09982SNDP  
0166334150999992000031609004+49570+025600FM-12+032499999V0202701N008010060019N0100001N1-00081-00301101081ADDAY181031AY221031GA1061+006009099GF107991061031008001031001MD1310081+9999MW1261REMSYN076AAXX  16091 33415 41597 72708 11008 21030 40108 53008 72682 86330 333 86920;
0161334150999992000031612004+49570+025600FM-12+032499999V0202901N008012200019N0100001N1+00081-00651101171ADDAY181061AY221061GF103991031051012501001001MA1999999097121MD1210101+9999MW1021REMSYN072AAXX  16121 33415 41697 32908 10008 21065 39712 40117 52010 70282 83500;
0112334150999992000031615004+49570+025600FM-12+032499999V0202901N008010360019N0100001N1+00011-00431101271ADDGF106991021031012501031001MD1210101+9999REMSYN060AAXX  16151 33415 42697 62908 10001 21043 40127 52010 82330;
0152334150999992000031618004+49570+025600FM-12+032499999V0202701N005019999999N0100001N1-00161-00421101381ADDAA112000791GF105991021001999999031011KA1999M+00141MD1210111+9999REMSYN076AAXX  16181 33415 12997 52705 11016 21042 40138 52011 69902 82031 333 10014;
0140334150999992000031621004+49570+025600FM-12+032499999V0202701N006012200019N0100001N1-00271-00461101491ADDAY181031AY221031GF103991021001999999031011MD1210051+9999MW1021REMSYN066AAXX  16211 33415 41997 32706 11027 21046 40149 52005 70282 82031;
0161334150999992000031700004+49570+025600FM-12+032499999V0202701N006019999999N0100001N1-00291-00461101371ADDAY181061AY211061GF105991051001999999031001MA1999999097351MD1810031+9999MW1021REMSYN072AAXX  17001 33415 41997 52706 11029 21046 39735 40137 58003 70281 85030;
0128334150999992000031703004+49570+025600FM-12+032499999V0202901N006019999999N0100001N1-00271-00431101371ADDGF107991071001999999031001MD1710081+9999REMSYN076AAXX  17031 33415 42997 72906 11027 21043 40137 57008 87030 555 21029 7996/;
0250334150999992000031706004+49570+025600FM-12+032499999V0202701N005010051019N0100001N1-00291-00521101351ADDAA112000391AJ199993999999999AY181061AY221061GA1061+005109099GF107991061091004501031001IA1239KA1120N-00291MD1710021+9999MW1261REMSYN094AAXX  17061 33415 11497 72705 11029 21052 40135 57002 69932 72682 86930 333 21029 47997 86917;EQDQ01  09982SNDP  
0166334150999992000031709004+49570+025600FM-12+032499999V0202701N007010060019N0040001N1-00211-00491101281ADDAY181031AY221031GA1051+006009099GF107991051031008001031001MD1710071+9999MW1851REMSYN076AAXX  17091 33415 41596 72707 11021 21049 40128 57007 78582 85330 333 85920;
0161334150999992000031712004+49570+025600FM-12+032499999V0202901N006010120019N0100001N1-00071-00601101221ADDAY181061AY221061GF107991071051012501001001MA1999999097151MD1710031+9999MW1021REMSYN072AAXX  17121 33415 41697 72906 11007 21060 39715 40122 57003 70282 87500;
0112334150999992000031715004+49570+025600FM-12+032499999V0202701N007010120019N0100001N1-00101-00561101201ADDGF107991051051012501001011MD1710031+9999REMSYN060AAXX  17151 33415 42697 72707 11010 21056 40120 57003 85501;
0112334150999992000031721004+49570+025600FM-12+032499999V0202701N004019999999N0100001N1-00341-00481101281ADDGF106991031001999999031011MD1410001+9999REMSYN060AAXX  17211 33415 42997 62704 11034 21048 40128 54000 83031;
0133334150999992000031800004+49570+025600FM-12+032499999V0202301N003019999999N0100001N1-00321-00421101281ADDGF107991071001999999031001MA1999999097171MD1410001+9999REMSYN066AAXX  18001 33415 42997 72303 11032 21042 39717 40128 54000 87030;
0107334150999992000031801004+49570+025600FM-12+032499999V02099999999999999999N0100001N1-00321-00421999999ADDGF107991999999999999999999MA1999999097171REMSYN054AAXX  18011 33415 42997 7/303 11032 21042 39717 99526;
0182334150999992000031803004+49570+025600FM-12+032499999V0202301N004010360019N0040001N1-00341-00421101281ADDAY181031AY221031GA1041+004509099GF107991041031004501031001MD1410001+9999MW1851REMSYN092AAXX  18031 33415 41496 72304 11034 21042 40128 54000 78582 84330 333 84915 555 21034 7990/;
0209334150999992000031806004+49570+025600FM-12+032499999V0202501N005010075019N0100001N1-00321-00461101371ADDAA112000791AJ100009199999999AY181061AY221061GF107991051031008001031001IA1239KA1120N-00361MD1310091+9999MW1021REMSYN088AAXX  18061 33415 11597 72505 11032 21046 40137 53009 69902 70282 85330 333 21036 47997;
0140334150999992000031809004+49570+025600FM-12+032499999V0202901N004010360019N0100001N1-00131-00421101521ADDAY181031AY221031GF107991041031012501031001MD1210171+9999MW1851REMSYN066AAXX  18091 33415 41697 72904 11013 21042 40152 52017 78582 84330;
0161334150999992000031812004+49570+025600FM-12+032499999V0202901N005010360019N0100001N1-00021-00351101611ADDAY181061AY221061GF107991041031012501031001MA1999999097531MD1210101+9999MW1021REMSYN072AAXX  18121 33415 41697 72905 11002 21035 39753 40161 52010 70282 84330;
0140334150999992000031815004+49570+025600FM-12+032499999V0203401N005010120019N0100001N1+00011-00541101681ADDAY181031AY221031GF105991051031012501001001MD1210081+9999MW1261REMSYN066AAXX  18151 33415 41697 53405 10001 21054 40168 52008 72682 85300;
0180334150999992000031818004+49570+025600FM-12+032499999V0203401N004012200019N0100001N1-00121-00411101861ADDAA112000791AY181061AY211061GF101991011001999999031001KA1999M+00071MD1210141+9999MW1021REMSYN082AAXX  18181 33415 11997 13404 11012 21041 40186 52014 69902 70281 81030 333 10007;
0166334150999992000031821004+49570+025600FM-12+032499999V0203201N003010045019N0100001N1-00151-00321101911ADDAY181031AY211031GA1071+004509099GF107991071031004501001001MD1210051+9999MW1851REMSYN076AAXX  18211 33415 41497 73203 11015 21032 40191 52005 78581 87300 333 87915;
0187334150999992000031900004+49570+025600FM-12+032499999V0203201N004010360019N0100001N1-00201-00351101871ADDAY181061AY221061GA1031+005709099GF106991031031004501031001MA1999999097761MD1810041+9999MW1021REMSYN082AAXX  19001 33415 41497 63204 11020 21035 39776 40187 58004 70282 83330 333 83919;
0128334150999992000031903004+49570+025600FM-12+032499999V0203401N003010360019N0100001N1-00201-00321101821ADDGF108991041031012501031999MD1710051+9999REMSYN076AAXX  19031 33415 42697 83403 11020 21032 40182 57005 8433/ 555 21021 7990/;
0250334150999992000031906004+49570+025600FM-12+032499999V0203201N004010036019N0100001N1-00231-00321101851ADDAA112000791AJ199993999999999AY181061AY221061GA1051+003609099GF107991051031004501031001IA1239KA1120N-00231MD1310021+9999MW1261REMSYN094AAXX  19061 33415 11497 73204 11023 21032 40185 53002 69902 72682 85330 333 21023 47997 85912;EQDQ01  09982SNDP  
0166334150999992000031909004+49570+025600FM-12+032499999V0203201N007010360019N0100001N1-00151-00421101811ADDAY181031AY221031GA1041+004509099GF107991041031004501031001MD1810031+9999MW1021REMSYN076AAXX  19091 33415 41497 73207 11015 21042 40181 58003 70282 84330 333 84915;
0187334150999992000031912004+49570+025600FM-12+032499999V0203201N008010060019N0100001N1+00011-00471101721ADDAY181061AY221061GA1051+006009099GF107991051031008001031001MA1999999097651MD1710051+9999MW1021REMSYN082AAXX  19121 33415 41597 73208 10001 21047 39765 40172 57005 70282 85330 333 85920;
0166334150999992000031915004+49570+025600FM-12+032499999V0203201N008010360019N0100001N1-00041-00591101671ADDAY181031AY221031GA1041+007209099GF107991041031008001031001MD1710061+9999MW1021REMSYN076AAXX  19151 33415 41597 73208 11004 21059 40167 57006 70282 84330 333 84924;
0202334150999992000031918004+49570+025600FM-12+032499999V0202901N009010039019N0040001N1-00191-00341101691ADDAA112000591AY181061AY221061GA1051+003909099GF107991051031004501031001KA1120M+00021MD1410001+9999MW1851REMSYN088AAXX  19181 33415 11496 72909 11019 21034 40169 54000 69942 78582 85330 333 10002 85913;
0166334150999992000031921004+49570+025600FM-12+032499999V0202901N008010036019N0040001N1-00201-00261101561ADDAY181031AY281031GA1051+003609099GF108991051031004501031999MD1710121+9999MW1851REMSYN076AAXX  19211 33415 41496 82908 11020 21026 40156 57012 78588 8533/ 333 85912;
0187334150999992000032000004+49570+025600FM-12+032499999V0202901N007010036019N0020001N1-00231-00291101521ADDAY181061AY281061GA1081+003609099GF108991081031004501999999MA1999999097411MD1710061+9999MW1851REMSYN082AAXX  20001 33415 41495 82907 11023 21029 39741 40152 57006 78588 883// 333 88912;
0182334150999992000032003004+49570+025600FM-12+032499999V0202901N008010042019N0040001N1-00231-00291101441ADDAY181031AY281031GA1061+004209099GF108991061031004501031999MD1710081+9999MW1851REMSYN092AAXX  20031 33415 41496 82908 11023 21029 40144 57008 78588 8633/ 333 86914 555 21024 7004/;
0231334150999992000032006004+49570+025600FM-12+032499999V0202901N005010033019N0020001N1-00201-00261101491ADDAA112004191AJ100039199999999AY181061AY231061GA1051+003309099GF107991051031004501031001IA1239KA1120N-00241MD1310071+9999MW1851REMSYN094AAXX  20061 33415 11495 72905 11020 21026 40149 53007 60042 78583 85330 333 21024 47003 85911;
0166334150999992000032009004+49570+025600FM-12+032499999V0203201N005010033019N0020001N1-00131-00231101641ADDAY181031AY231031GA1061+003309099GF108991061031004501031999MD1210141+9999MW1851REMSYN076AAXX  20091 33415 41495 83205 11013 21023 40164 52014 78583 8633/ 333 86911;
0187334150999992000032012004+49570+025600FM-12+032499999V0203301N007010039019N0040001N1-00061-00211101671ADDAY181061AY231061GA1051+003909099GF108991051031004501031999MA1999999097591MD1210051+9999MW1851REMSYN082AAXX  20121 33415 41496 83307 11006 21021 39759 40167 52005 78583 8533/ 333 85913;
0166334150999992000032015004+49570+025600FM-12+032499999V0203301N006010051019N0040001N1-00061-00211101721ADDAY181031AY281031GA1051+005109099GF108991051031004501031999MD1210051+9999MW1851REMSYN076AAXX  20151 33415 41496 83306 11006 21021 40172 52005 78588 8533/ 333 85917;
0125334150999992000032018004+49570+025600FM-12+032499999V0203601N004019999999N0100001N1-00081-00211101851ADDGF107991999999008001999999REMSYN087AAXX  20181 33415 11597 73604 11008 21021 40185 2012 60012 78582 83330 333 11004 83926;
0140334150999992000032021004+49570+025600FM-12+032499999V0203601N004010360019N0100001N1-00161-00271101931ADDAY181031AY221031GF107991021031012501031001MD1210061+9999MW1021REMSYN066AAXX  20211 33415 41697 73604 11016 21027 40193 52006 70282 82330;
0187334150999992000032100004+49570+025600FM-12+032499999V0203601N004010360019N0100001N1-00181-00291101991ADDAY181061AY221061GA1031+009009099GF107991031031012501031001MA1999999097881MD1210061+9999MW1851REMSYN082AAXX  21001 33415 41697 73604 11018 21029 39788 40199 52006 78582 83330 333 83930;
0182334150999992000032103004+49570+025600FM-12+032499999V0203601N003010360019N0100001N1-00221-00311102011ADDAY181031AY221031GA1041+005109099GF107991041031008001031001MD1210011+9999MW1021REMSYN092AAXX  21031 33415 41597 73603 11022 21031 40201 52001 70282 84330 333 84917 555 21023 7002/;
0209334150999992000032106004+49570+025600FM-12+032499999V0209999C000019999999N0040001N1-00311-00451102151ADDAA112000191AJ100049199999999AY181061AY221061GF106991001001999999001011IA1249KA1120N-00321MD1210111+9999MW1101REMSYN088AAXX  21061 33415 11996 60000 11031 21045 40215 52011 69922 71082 80001 333 21032 48004;
0140334150999992000032109004+49570+025600FM-12+032499999V0203601N001012200019N0040001N1-00251-00381102191ADDAY111031AY211031GF105991021051008001001011MD1210061+9999MW1101REMSYN066AAXX  21091 33415 41596 53601 11025 21038 40219 52006 71011 82501;
0133334150999992000032112004+49570+025600FM-12+032499999V0209999C000012200019N0100001N1+00181-00591102131ADDGF106991021051008001001011MA1999999098061MD1410001+9999REMSYN066AAXX  21121 33415 42597 60000 10018 21059 39806 40213 54000 82501;
0112334150999992000032115004+49570+025600FM-12+032499999V0209999V001019999999N0100001N1+00231-00561102001ADDGF105991021001999999031011MD1810121+9999REMSYN060AAXX  21151 33415 42997 59901 10023 21056 40200 58012 82031;
0165334150999992000032118004+49570+025600FM-12+032499999V0209999V001019999999N0100001N1-00061-00371102051ADDAA199000091GF105991031001999999031011KA1999M+00251MD1310011+9999REMSYN070AAXX  21181 33415 32997 59901 11006 21037 40205 53001 83031 333 10025;EQDQ01  00002PRCP99
0112334150999992000032121004+49570+025600FM-12+032499999V0209999V001012200019N0100001N1-00111-00231102081ADDGF104991021001999999031011MD1210021+9999REMSYN060AAXX  21211 33415 42997 49901 11011 21023 40208 52002 82031;
0149334150999992000032200004+49570+025600FM-12+032499999V0209999C000012200019N0100001N1-00121-00411102051ADDGA1001+999999999GF100991001001999999001001MA1999999097931MD1810041+9999REMSYN066AAXX  22001 33415 42697 00000 11012 21041 39793 40205 58004 82530;
0158334150999992000032203004+49570+025600FM-12+032499999V0209999C000010360019N0100001N1-00071-00321101871ADDAA199000091GF107991031051012501031001MD1710151+9999REMSYN076AAXX  22031 33415 32697 70000 11007 21032 40187 57015 83530 555 21015 7000/;EQDQ01  00002PRCP99
0260334150999992000032206004+49570+025600FM-12+032499999V0202701N003010036019N0040001N1+00051-00061101901ADDAA199000091AJ199993999999999AY121061AY221061GA1061+003609059GF108991061051004501031999IA1259KA1120N-00151MD1310041+9999MW1101REMSYN088AAXX  22061 33415 31496 82703 10005 21006 40190 53004 71022 8653/ 333 21015 41997 86612;EQDQ01  00002PRCP99Q02  09982SNDP  
0166334150999992000032209004+49570+025600FM-12+032499999V0202701N006010027019N0040001N1+00301+00201101901ADDAY121031AY221031GA1051+002709099GF107991051051002501031001MD1210051+9999MW1101REMSYN076AAXX  22091 33415 41396 72706 10030 20020 40190 52005 71022 85530 333 85909;
0159334150999992000032212004+49570+025600FM-12+032499999V0202701N006010360019N0100001N1+00481+00121101891ADDGA1041+005409059GF107991041051004501031001MA1999999097891MD1210021+9999REMSYN076AAXX  22121 33415 42497 72706 10048 20012 39789 40189 52002 84530 333 84618;
0138334150999992000032215004+49570+025600FM-12+032499999V0202701N004010360019N0100001N1+00421+00111101931ADDGA1041+006009059GF107991041051008001031001MD1210011+9999REMSYN070AAXX  22151 33415 41597 72704 10042 20011 40193 52001 84530 333 84620;
0165334150999992000032218004+49570+025600FM-12+032499999V0202501N003012200019N0100001N1+00311+00051101851ADDAA199000091GF104991021051008001031001KA1999M+00511MD1810081+9999REMSYN070AAXX  22181 33415 32597 42503 10031 20005 40185 58008 82530 333 10051;EQDQ01  00002PRCP99
0112334150999992000032221004+49570+025600FM-12+032499999V0202701N002012200019N0100001N1+00201-00021101821ADDGF103991021001999999031011MD1710051+9999REMSYN060AAXX  22211 33415 42997 32702 10020 21002 40182 57005 82031;
0161334150999992000032300004+49570+025600FM-12+032499999V0202701N002019999999N0040001N1+00161+00001101811ADDAY111061AY211061GF105991021001999999031011MA1999999097751MD1710021+9999MW1101REMSYN072AAXX  23001 33415 41996 52702 10016 21000 39775 40181 57002 71011 82031;
0158334150999992000032303004+49570+025600FM-12+032499999V0202501N003010360019N0100001N1+00151+00011101681ADDAA199000091GF107991021051012501031001MD1710121+9999REMSYN076AAXX  23031 33415 32697 72503 10015 20001 40168 57012 82530 555 20014 7000/;EQDQ01  00002PRCP99
0194334150999992000032306004+49570+025600FM-12+032499999V0202501N003010360019N0100001N1+00191+00031101611ADDAA199000091AJ100009199999999GF107991041051012501031001IA1259KA1120N+00141MD1710071+9999REMSYN076AAXX  23061 33415 32697 72503 10019 20003 40161 57007 84530 333 20014 41997;EQDQ01  00002PRCP99
0112334150999992000032309004+49570+025600FM-12+032499999V0202701N006010360019N0100001N1+00681+00191101511ADDGF105991021051012501031001MD1710021+9999REMSYN060AAXX  23091 33415 42697 52706 10068 20019 40151 57002 82530;
0133334150999992000032312004+49570+025600FM-12+032499999V0202901N005010360019N0100001N1+00851+00301101361ADDGF107991041051012501031001MA1999999097431MD1710111+9999REMSYN066AAXX  23121 33415 42697 72905 10085 20030 39743 40136 57011 84530;
0112334150999992000032315004+49570+025600FM-12+032499999V0202901N005019999999N0100001N1+00891+00291101211ADDGF105991021001999999031011MD1710141+9999REMSYN060AAXX  23151 33415 42997 52905 10089 20029 40121 57014 82031;
0165334150999992000032318004+49570+025600FM-12+032499999V0202501N003010360019N0100001N1+00671+00261101191ADDAA199000091GF107991021051012501031001KA1999M+00951MD1710051+9999REMSYN070AAXX  23181 33415 32697 72503 10067 20026 40119 57005 82530 333 10095;EQDQ01  00002PRCP99
0112334150999992000032321004+49570+025600FM-12+032499999V0202501N006010360019N0100001N1+00511+00271101171ADDGF106991021051012501031001MD1710051+9999REMSYN060AAXX  23211 33415 42697 62506 10051 20027 40117 57005 82530;
0133334150999992000032400004+49570+025600FM-12+032499999V0202701N005010360019N0100001N1+00401+00221101171ADDGF105991021051012501031001MA1999999097181MD1710011+9999REMSYN066AAXX  24001 33415 42697 52705 10040 20022 39718 40117 57001 82530;
0184334150999992000032403004+49570+025600FM-12+032499999V0202901N008010360019N0100001N1+00401+00171101171ADDAA199000091GA1041+006609069GF107991041051008001031001MD1410001+9999REMSYN086AAXX  24031 33415 32597 72908 10040 20017 40117 54000 84530 333 84622 555 20038 7000/;EQDQ01  00002PRCP99
0165334150999992000032406004+49570+025600FM-12+032499999V0202901N005010360019N0100001N1+00201-00201101361ADDAA199000091GF106991021051012501031001KA1999N+00161MD1310151+9999REMSYN070AAXX  24061 33415 32697 62905 10020 21020 40136 53015 82530 333 20016;EQDQ01  00002PRCP99
0112334150999992000032409004+49570+025600FM-12+032499999V0203101N008010900019N0100001N1+00481-00361101521ADDGF105991021051012501031011MD1210181+9999REMSYN060AAXX  24091 33415 42697 53108 10048 21036 40152 52018 82531;
0133334150999992000032412004+49570+025600FM-12+032499999V0203301N007012200019N0100001N1+00681-00521101511ADDGF106991031011012501001011MA1999999097531MD1210021+9999REMSYN066AAXX  24121 33415 42697 63307 10068 21052 39753 40151 52002 83101;
0112334150999992000032415004+49570+025600FM-12+032499999V0203301N005010360019N0100001N1+00641-00381101551ADDGF106991031011012501031011MD1210041+9999REMSYN060AAXX  24151 33415 42697 63305 10064 21038 40155 52004 83131;
0165334150999992000032418004+49570+025600FM-12+032499999V0203601N002019999999N0100001N1+00211-00291101721ADDAA199000091GF105991001001999999001011KA1999M+00691MD1210111+9999REMSYN070AAXX  24181 33415 32997 53602 10021 21029 40172 52011 80001 333 10069;EQDQ01  00002PRCP99
0112334150999992000032421004+49570+025600FM-12+032499999V0203101N001012200019N0100001N1+00061-00341101911ADDGF102991001001999999001011MD1210151+9999REMSYN060AAXX  24211 33415 42997 23101 10006 21034 40191 52015 80001;
0133334150999992000032500004+49570+025600FM-12+032499999V0209999C000012200019N0100001N1-00071-00351102011ADDGF102991001001999999001011MA1999999097911MD1210081+9999REMSYN066AAXX  25001 33415 42997 20000 11007 21035 39791 40201 52008 80001;
0158334150999992000032503004+49570+025600FM-12+032499999V0203201N001019999999N0100001N1-00261-00421102101ADDAA199000091GF106991061001999999031011MD1210061+9999REMSYN076AAXX  25031 33415 32997 63201 11026 21042 40210 52006 86031 555 21027 7000/;EQDQ01  00002PRCP99
0165334150999992000032506004+49570+025600FM-12+032499999V0209999C000012200019N0100001N1-00121-00291102221ADDAA199000091GF105991021051012501001011KA1999N-00321MD1210131+9999REMSYN070AAXX  25061 33415 31697 50000 11012 21029 40222 52013 82501 333 21032;EQDQ01  00002PRCP99
0106334150999992000032509004+49570+025600FM-12+032499999V0201401N003012200019N0100001N1+00581-00251999999ADDGF104991021051012501001011MD1210101+9999REMSYN054AAXX  25091 33415 42697 41403 10058 21025 52010 82501;
0133334150999992000032512004+49570+025600FM-12+032499999V0202201N002012200019N0100001N1+00801-00191102091ADDGF106991021011012501001011MA1999999098111MD1810191+9999REMSYN066AAXX  25121 33415 42697 62202 10080 21019 39811 40209 58019 82101;
0112334150999992000032515004+49570+025600FM-12+032499999V0201301N005012200019N0100001N1+00791-00191101941ADDGF105991011011012501001011MD1710141+9999REMSYN060AAXX  25151 33415 42697 51305 10079 21019 40194 57014 81101;
0165334150999992000032518004+49570+025600FM-12+032499999V0201301N004019999999N0100001N1+00431-00151102011ADDAA199000091GF106991031001999999031011KA1999M+00931MD1310011+9999REMSYN070AAXX  25181 33415 32997 61304 10043 21015 40201 53001 83031 333 10093;EQDQ01  00002PRCP99
0133334150999992000032600004+49570+025600FM-12+032499999V0201201N004010360019N0100001N1+00291+00001101801ADDGF107991021051012501031011MA1999999097771MD1710131+9999REMSYN066AAXX  26001 33415 42697 71204 10029 20000 39777 40180 57013 82531;
0133334150999992000032603004+49570+025600FM-12+032499999V0201201N004010360019N0100001N1+00291+00001101801ADDGF107991021051012501031011MA1999999097771MD1710131+9999REMSYN066AAXX  26031 33415 42697 71204 10029 20000 39777 40180 57013 82531;
0215334150999992000032606004+49570+025600FM-12+032499999V0201401N002010360019N0040001N1+00281+00151101591ADDAA199000091AY121061AY221061GA1041+002709069GF108991041071002501031999KA1120N+00231MD1710061+9999MW1101REMSYN082AAXX  26061 33415 31396 81402 10028 20015 40159 57006 71022 8473/ 333 20023 84709;EQDQ01  00002PRCP99
0166334150999992000032609004+49570+025600FM-12+032499999V0202001N003010039019N0040001N1+00621+00411101531ADDAY121031AY221031GA1051+003909059GF108991051051004501031999MD1710021+9999MW1101REMSYN076AAXX  26091 33415 41496 82003 10062 20041 40153 57002 71022 8553/ 333 85613;
0187334150999992000032612004+49570+025600FM-12+032499999V0202501N003010360019N0040001N1+00931+00531101481ADDAY121061AY221061GA1031+007509059GF106991031051008001031001MA1999999097541MD1710011+9999MW1101REMSYN082AAXX  26121 33415 41596 62503 10093 20053 39754 40148 57001 71022 83530 333 83625;
0112334150999992000032615004+49570+025600FM-12+032499999V0202701N007010120019N0100001N1+01131+00551101311ADDGF106991061031012501001001MD1710131+9999REMSYN060AAXX  26151 33415 42697 62707 10113 20055 40131 57013 86300;
0165334150999992000032618004+49570+025600FM-12+032499999V0202501N002012200019N0100001N1+00801+00431101391ADDAA199000091GF103991031051012501001001KA1999M+01141MD1310041+9999REMSYN070AAXX  26181 33415 32697 32502 10080 20043 40139 53004 83500 333 10114;EQDQ01  00002PRCP99
0150334150999992000032621004+49570+025600FM-12+032499999V0209999C000012200019N0040001N1+00311+00211101531ADDAY101031AY201031GA1001+999999999GF100991001001999999001001MD1210061+9999MW1101REMSYN060AAXX  26211 33415 41996 00000 10031 20021 40153 52006 71000;
0171334150999992000032700004+49570+025600FM-12+032499999V0209999C000012200019N0020001N1+00181+00131101521ADDAY101061AY201061GA1001+999999999GF100991001001999999001001MA1999999097491MD1810021+9999MW1101REMSYN066AAXX  27001 33415 41995 00000 10018 20013 39749 40152 58002 71000;
0196334150999992000032703004+49570+025600FM-12+032499999V0209999C000012200019N0005001N1+00031+00031101461ADDAA199000091AY141031AY201031GA1001+999999999GF100991001001999999001001MD1710091+9999MW1461REMSYN076AAXX  27031 33415 31993 00000 10003 20003 40146 57009 74640 555 20002 7000/;EQDQ01  00002PRCP99
0193334150999992000032706004+49570+025600FM-12+032499999V0201101N002019999999N0040001N1+00171+00121101401ADDAA199000091AY141061AY211061GF106991021001999999031011KA1999N-00111MD1710031+9999MW1101REMSYN076AAXX  27061 33415 31996 61102 10017 20012 40140 57003 71041 82031 333 21011;EQDQ01  00002PRCP99
0140334150999992000032709004+49570+025600FM-12+032499999V0201401N007010120019N0040001N1+01021+00641101231ADDAY121031AY221031GF107991051031012501031001MD1710061+9999MW1101REMSYN066AAXX  27091 33415 41696 71407 10102 20064 40123 57006 71022 85330;
0133334150999992000032712004+49570+025600FM-12+032499999V0201401N006010360019N0100001N1+01301+00621101061ADDGF107991021051012501031001MA1999999097191MD1710121+9999REMSYN066AAXX  27121 33415 42697 71406 10130 20062 39719 40106 57012 82530;
0112334150999992000032715004+49570+025600FM-12+032499999V0201401N005010360019N0100001N1+01421+00531100911ADDGF107991031051012501031001MD1710121+9999REMSYN060AAXX  27151 33415 42697 71405 10142 20053 40091 57012 83530;
0165334150999992000032718004+49570+025600FM-12+032499999V0201101N005010120019N0100001N1+01081+00531100951ADDAA199000091GF107991051031012501031001KA1999M+01431MD1710011+9999REMSYN070AAXX  27181 33415 32697 71105 10108 20053 40095 57001 85330 333 10143;EQDQ01  00002PRCP99
0138334150999992000032721004+49570+025600FM-12+032499999V0201401N007010072019N0100001N1+00821+00561101051ADDGA1051+007209099GF107991051031008001031001MD1310051+9999REMSYN070AAXX  27211 33415 42597 71407 10082 20056 40105 53005 85330 333 85924;
0159334150999992000032800004+49570+025600FM-12+032499999V0201101N006010087019N0100001N1+00741+00551101021ADDGA1061+008709059GF108991061051008001031999MA1999999097081MD1810031+9999REMSYN076AAXX  28001 33415 42597 81106 10074 20055 39708 40102 58003 8653/ 333 86629;
0184334150999992000032803004+49570+025600FM-12+032499999V0201101N004010051019N0100001N1+00681+00551100981ADDAA199000091GA1061+005109069GF108991061051004501031999MD1710041+9999REMSYN086AAXX  28031 33415 32497 81104 10068 20055 40098 57004 8653/ 333 86617 555 20068 7000/;EQDQ01  00002PRCP99
0202334150999992000032806004+49570+025600FM-12+032499999V0200901N006010024019N0040001N1+00641+00551101131ADDAA112000791AY161061AY221061GA1061+002409069GF108991061071002501021999KA1120N+00641MD1310131+9999MW1611REMSYN088AAXX  28061 33415 11396 80906 10064 20055 40113 53013 69902 76162 8672/ 333 20064 86708;
0166334150999992000032809004+49570+025600FM-12+032499999V0200901N003010021019N0020001N1+00581-00491101231ADDAY161031AY221031GA1061+002109069GF108991071071002501021999MD1210101+9999MW1611REMSYN076AAXX  28091 33415 41395 80903 10058 21049 40123 52010 76162 8772/ 333 86707;
0187334150999992000032812004+49570+025600FM-12+032499999V0201101N003010021019N0020001N1+00611+00541101421ADDAY161061AY261061GA1061+002109069GF108991061071002501021999MA1999999097451MD1210181+9999MW1611REMSYN082AAXX  28121 33415 41395 81103 10061 20054 39745 40142 52018 76166 8672/ 333 86707;
0166334150999992000032815004+49570+025600FM-12+032499999V0200901N005010360019N0100001N1+00681+00501101521ADDAY161031AY221031GA1041+003909099GF107991041031004501031001MD1210101+9999MW1211REMSYN076AAXX  28151 33415 41497 70905 10068 20050 40152 52010 72162 84330 333 84913;
0202334150999992000032818004+49570+025600FM-12+032499999V0201101N005010360019N0100001N1+00601+00461101651ADDAA112008991AY161061AY221061GA1041+003609099GF108991041031004501031999KA1120M+00701MD1210121+9999MW1021REMSYN088AAXX  28181 33415 11497 81105 10060 20046 40165 52012 60092 70262 8433/ 333 10070 84912;
0138334150999992000032821004+49570+025600FM-12+032499999V0201101N005010036019N0100001N1+00541+00451101791ADDGA1051+003609059GF108991051051004501031999MD1210121+9999REMSYN070AAXX  28211 33415 42497 81105 10054 20045 40179 52012 8553/ 333 85612;
0159334150999992000032900004+49570+025600FM-12+032499999V0201101N002010030019N0100001N1+00461+00391101891ADDGA1051+003009059GF107991051051004501031001MA1999999097891MD1210101+9999REMSYN076AAXX  29001 33415 42497 71102 10046 20039 39789 40189 52010 85530 333 85610;
0193334150999992000032903004+49570+025600FM-12+032499999V0201301N005010024019N0040001N1+00461+00391101881ADDAA199000021AY121031AY221031GA1061+002409079GF107991061071002501031001MD1810011+9999MW1101REMSYN092AAXX  29031 33415 31396 71305 10046 20039 40188 58001 71022 86730 333 86708 555 20045 7009/;
0202334150999992000032906004+49570+025600FM-12+032499999V0201101N005010009019N0020001N1+00421+00401101991ADDAA112000391AY161061AY221061GA1061+000909069GF108991061071000751021999KA1120N+00411MD1310081+9999MW1611REMSYN088AAXX  29061 33415 11195 81105 10042 20040 40199 53008 69932 76162 8672/ 333 20041 86703;
0166334150999992000032909004+49570+025600FM-12+032499999V0201101N003010027019N0040001N1+00481+00431102091ADDAY161031AY261031GA1061+002709069GF108991061071002501021999MD1210121+9999MW1611REMSYN076AAXX  29091 33415 41396 81103 10048 20043 40209 52012 76166 8672/ 333 86709;
0187334150999992000032912004+49570+025600FM-12+032499999V0200901N005010027019N0100001N1+00471+00351102051ADDAY161061AY261061GA1061+002709069GF108991061071002501021999MA1999999098041MD1810041+9999MW1611REMSYN082AAXX  29121 33415 41397 80905 10047 20035 39804 40205 58004 76166 8672/ 333 86709;
0166334150999992000032915004+49570+025600FM-12+032499999V0200901N005010030019N0100001N1+00481+00381101971ADDAY161031AY221031GA1061+003009069GF108991061071002501021999MD1710081+9999MW1611REMSYN076AAXX  29151 33415 41397 80905 10048 20038 40197 57008 76162 8672/ 333 86710;
0202334150999992000032918004+49570+025600FM-12+032499999V0200901N004010021019N0020001N1+00421+00351102081ADDAA112013091AY161061AY221061GA1061+002109069GF108991061071002501021999KA1120M+00501MD1310091+9999MW1611REMSYN088AAXX  29181 33415 11395 80904 10042 20035 40208 53009 60132 76162 8672/ 333 10050 86707;
0166334150999992000032921004+49570+025600FM-12+032499999V0200901N005010024019N0020001N1+00411+00341102121ADDAY161031AY261031GA1061+002409069GF108991061071002501021999MD1210031+9999MW1611REMSYN076AAXX  29211 33415 41395 80905 10041 20034 40212 52003 76166 8672/ 333 86708;
0187334150999992000033000004+49570+025600FM-12+032499999V0200901N004010024019N0040001N1+00381+00311102061ADDAY161061AY261061GA1061+002409069GF108991061071002501021999MA1999999098031MD1810061+9999MW1611REMSYN082AAXX  30001 33415 41396 80904 10038 20031 39803 40206 58006 76166 8672/ 333 86708;
0182334150999992000033003004+49570+025600FM-12+032499999V0200901N005010024019N0040001N1+00361+00231101871ADDAY161031AY221031GA1061+002409079GF108991061071002501021999MD1710191+9999MW1101REMSYN092AAXX  30031 33415 41396 80905 10036 20023 40187 57019 71062 8672/ 333 86708 555 20035 7014/;
0202334150999992000033006004+49570+025600FM-12+032499999V0201101N007010009019N0020001N1+00371+00271101721ADDAA112001091AY161061AY221061GA1071+000909069GF108991071071001501021999KA1120N+00351MD1710141+9999MW1251REMSYN088AAXX  30061 33415 11295 81107 10037 20027 40172 57014 60012 72562 8772/ 333 20035 87703;
0166334150999992000033009004+49570+025600FM-12+032499999V0201101N007010015019N0020001N1+00461+00391101611ADDAY161031AY221031GA1061+001509069GF108991061071001501021999MD1710091+9999MW1611REMSYN076AAXX  30091 33415 41295 81107 10046 20039 40161 57009 76162 8672/ 333 86705;
0187334150999992000033012004+49570+025600FM-12+032499999V0201401N007010009019N0020001N1+00491+00441101481ADDAY161061AY261061GA1061+000909069GF108991061071001501021999MA1999999097491MD1710121+9999MW1611REMSYN082AAXX  30121 33415 41295 81407 10049 20044 39749 40148 57012 76166 8672/ 333 86703;
0166334150999992000033015004+49570+025600FM-12+032499999V0201401N008010015019N0020001N1+00601+00521101301ADDAY161031AY261031GA1061+001509069GF108991061071001501021999MD1710161+9999MW1611REMSYN076AAXX  30151 33415 41295 81408 10060 20052 40130 57016 76166 8672/ 333 86705;
0202334150999992000033018004+49570+025600FM-12+032499999V0201401N006010018019N0020001N1+00621+00551101151ADDAA112007191AY161061AY261061GA1061+001809069GF108991061071001501021999KA1120M+00631MD1710141+9999MW1611REMSYN088AAXX  30181 33415 11295 81406 10062 20055 40115 57014 60072 76166 8672/ 333 10063 86706;
0166334150999992000033021004+49570+025600FM-12+032499999V0200901N004010018019N0020001N1+00601+00531101111ADDAY161031AY261031GA1061+001809069GF108991061071001501021999MD1710041+9999MW1611REMSYN076AAXX  30211 33415 41295 80904 10060 20053 40111 57004 76166 8672/ 333 86706;
0187334150999992000033100004+49570+025600FM-12+032499999V0201101N003010024019N0040001N1+00511+00391101091ADDAY161061AY221061GA1051+002409069GF108991051071002501031999MA1999999097111MD1710041+9999MW1101REMSYN082AAXX  31001 33415 41396 81103 10051 20039 39711 40109 57004 71062 8573/ 333 85708;
0182334150999992000033103004+49570+025600FM-12+032499999V0201601N004010360019N0040001N1+00481+00411100971ADDAY121031AY221031GA1041+003609069GF108991041051004501031999MD1710111+9999MW1101REMSYN092AAXX  31031 33415 41496 81604 10048 20041 40097 57011 71022 8453/ 333 84612 555 20047 7013/;
0180334150999992000033106004+49570+025600FM-12+032499999V0201401N002019999999N0005001N1+00501+00501100941ADDAA112005191AY141061AY221061GF106991001001999999001011KA1999N+00471MD1710031+9999MW1461REMSYN082AAXX  31061 33415 11993 61402 10050 20050 40094 57003 60052 74642 80001 333 20047;
0140334150999992000033109004+49570+025600FM-12+032499999V0201801N005012200019N0100001N1+01061+00701100741ADDAY141031AY211031GF103991021001999999031011MD1710111+9999MW1021REMSYN066AAXX  31091 33415 41997 31805 10106 20070 40074 57011 70241 82031;
0161334150999992000033112004+49570+025600FM-12+032499999V0202001N005010360019N0100001N1+01211+00061100571ADDAY141061AY211061GF107991031051012501031001MA1999999096711MD1710151+9999MW1021REMSYN072AAXX  31121 33415 41697 72005 10121 20006 39671 40057 57015 70241 83530;
0140334150999992000033115004+49570+025600FM-12+032499999V0202301N008010360019N0100001N1+00791+00091100561ADDAY121031AY221031GF106991031031012501031001MD1710061+9999MW1251REMSYN066AAXX  31151 33415 41697 62308 10079 20009 40056 57006 72522 83330;
0180334150999992000033118004+49570+025600FM-12+032499999V0202501N007010360019N0100001N1+00661+00171100551ADDAA112000791AY181061AY221061GF106991021031012501031001KA1999M+01221MD1710041+9999MW1021REMSYN082AAXX  31181 33415 11697 62507 10066 20017 40055 57004 69902 70282 82330 333 10122;
0112334150999992000033121004+49570+025600FM-12+032499999V0202001N005010360019N0100001N1+00581+00261100691ADDGF106991021051012501031001MD1310121+9999REMSYN060AAXX  31211 33415 42697 62005 10058 20026 40069 53012 82530;
0133334150999992000040100004+49570+025600FM-12+032499999V0202001N004012200019N0100001N1+00471+00301100731ADDGF103991031001999999031001MA1999999096771MD1210031+9999REMSYN066AAXX  01001 33415 42997 32004 10047 20030 39677 40073 52003 83030;
0139334150999992000040103004+49570+025600FM-12+032499999V0202001N005012200019N0100001N1+00291+00081100751ADDAA199000021GF102991021001999999031001MD1810011+9999REMSYN076AAXX  01031 33415 32997 22005 10029 20008 40075 58001 82030 555 20027 7990/;
0165334150999992000040106004+49570+025600FM-12+032499999V0201801N005012200019N0100001N1+00421+00081100791ADDAA199000091GF103991031001999999031001KA1999N+00271MD1310051+9999REMSYN070AAXX  01061 33415 32997 31805 10042 20008 40079 53005 83030 333 20027;EQDQ01  00002PRCP99
0112334150999992000040109004+49570+025600FM-12+032499999V0202301N008010120019N0100001N1+00981+00251100851ADDGF106991061011012501001001MD1210141+9999REMSYN060AAXX  01091 33415 42697 62308 10098 20025 40085 52014 86100;
0133334150999992000040112004+49570+025600FM-12+032499999V0202301N007010120019N0100001N1+01301+00231100841ADDGF107991051011012501001011MA1999999096981MD1210031+9999REMSYN066AAXX  01121 33415 42697 72307 10130 20023 39698 40084 52003 85101;
0112334150999992000040115004+49570+025600FM-12+032499999V0201801N004010120019N0100001N1+01281+00341100781ADDGF107991051051012501031011MD1810061+9999REMSYN060AAXX  01151 33415 42697 71804 10128 20034 40078 58006 85531;
0165334150999992000040118004+49570+025600FM-12+032499999V0209999C000010360019N0100001N1+01001+00301100821ADDAA199000091GF107991031051012501031001KA1999M+01321MD1410001+9999REMSYN070AAXX  01181 33415 32697 70000 10100 20030 40082 54000 83530 333 10132;EQDQ01  00002PRCP99
0112334150999992000040121004+49570+025600FM-12+032499999V0209999V002010120019N0100001N1+00821+00301100801ADDGF107991051051012501031001MD1810041+9999REMSYN060AAXX  01211 33415 42697 79902 10082 20030 40080 58004 85530;
0133334150999992000040200004+49570+025600FM-12+032499999V0200501N004010120019N0100001N1+00681+00381100791ADDGF107991051031012501031001MA1999999096861MD1710021+9999REMSYN066AAXX  02001 33415 42697 70504 10068 20038 39686 40079 57002 85330;
0182334150999992000040203004+49570+025600FM-12+032499999V0200701N003010360019N0100001N1+00641+00431100671ADDAY181031AY221031GA1041+009009099GF107991041031008001031001MD1710141+9999MW1801REMSYN092AAXX  02031 33415 41597 70703 10064 20043 40067 57014 78082 84330 333 84930 555 20064 7997/;
0202334150999992000040206004+49570+025600FM-12+032499999V0200701N003010360019N0040001N1+00611+00591100591ADDAA112005191AY181061AY221061GA1041+007209099GF107991041031008001031001KA1120N+00601MD1710071+9999MW1801REMSYN088AAXX  02061 33415 11596 70703 10061 20059 40059 57007 60052 78082 84330 333 20060 84924;
0166334150999992000040209004+49570+025600FM-12+032499999V0200901N004010054019N0040001N1+00741+00651100561ADDAY181031AY221031GA1051+005409099GF107991051031004501031001MD1410001+9999MW1101REMSYN076AAXX  02091 33415 41496 70904 10074 20065 40056 54000 71082 85330 333 85918;
0187334150999992000040212004+49570+025600FM-12+032499999V0209999V002010042019N0100001N1+01021+00761100451ADDAY181061AY221061GA1051+004209099GF107991051031004501031001MA1999999096571MD1810081+9999MW1021REMSYN082AAXX  02121 33415 41497 79902 10102 20076 39657 40045 58008 70282 85330 333 85914;
0112334150999992000040215004+49570+025600FM-12+032499999V0203201N003010360019N0100001N1+01051+00711100421ADDGF106991021051008001031001MD1710021+9999REMSYN060AAXX  02151 33415 42597 63203 10105 20071 40042 57002 82530;
0202334150999992000040218004+49570+025600FM-12+032499999V0202901N003010048019N0040001N1+00811+00681100561ADDAA112000591AY121061AY221061GA1061+004809059GF107991061051004501031001KA1120M+01051MD1310101+9999MW1101REMSYN088AAXX  02181 33415 11496 72903 10081 20068 40056 53010 69952 71022 86530 333 10105 86616;
0166334150999992000040221004+49570+025600FM-12+032499999V0202701N005010360019N0040001N1+00661+00551100711ADDAY121031AY221031GA1041+003909059GF108991041051004501031999MD1210131+9999MW1101REMSYN076AAXX  02211 33415 41496 82705 10066 20055 40071 52013 71022 8453/ 333 84613;
0187334150999992000040300004+49570+025600FM-12+032499999V0202701N008010360019N0040001N1+00591+00471100831ADDAY121061AY221061GA1031+003909059GF108991031051004501031999MA1999999096881MD1210101+9999MW1101REMSYN082AAXX  03001 33415 41496 82708 10059 20047 39688 40083 52010 71022 8353/ 333 83613;
0212334150999992000040303004+49570+025600FM-12+032499999V0203201N005010030019N0040001N1+00411+00311100971ADDAA199000091AY121031AY221031GA1051+003009069GF108991051051002501031999MD1210101+9999MW1101REMSYN092AAXX  03031 33415 31396 83205 10041 20031 40097 52010 71022 8553/ 333 85610 555 20040 7005/;EQDQ01  00002PRCP99
0165334150999992000040306004+49570+025600FM-12+032499999V0202701N004019999999N0100001N1+00471+00331101061ADDAA199000091GF105991051001999999031001KA1999N+00371MD1210111+9999REMSYN070AAXX  03061 33415 32997 52704 10047 20033 40106 52011 85030 333 20037;EQDQ01  00002PRCP99
0112334150999992000040309004+49570+025600FM-12+032499999V0209999V001010360019N0100001N1+00811+00291101071ADDGF106991021051008001031001MD1210061+9999REMSYN060AAXX  03091 33415 42597 69901 10081 20029 40107 52006 82530;
0133334150999992000040312004+49570+025600FM-12+032499999V0202201N004010360019N0100001N1+01031+00341101081ADDGF107991031051012501031001MA1999999097171MD1210021+9999REMSYN066AAXX  03121 33415 42697 72204 10103 20034 39717 40108 52002 83530;
0112334150999992000040315004+49570+025600FM-12+032499999V0209999V001010360019N0100001N1+01151+00451100991ADDGF106991021051012501031001MD1810061+9999REMSYN060AAXX  03151 33415 42697 69901 10115 20045 40099 58006 82530;
0112334150999992000040321004+49570+025600FM-12+032499999V0201101N005019999999N0100001N1+00741+00451100951ADDGF107991061001999999031011MD1710021+9999REMSYN060AAXX  03211 33415 42997 71105 10074 20045 40095 57002 86031;
0161334150999992000040400004+49570+025600FM-12+032499999V0201101N006010360019N0100001N1+00691+00491100841ADDAY181061AY221061GF107991041031012501031001MA1999999096901MD1710111+9999MW1801REMSYN072AAXX  04001 33415 41697 71106 10069 20049 39690 40084 57011 78082 84330;
0182334150999992000040403004+49570+025600FM-12+032499999V0201101N004010066019N0100001N1+00731+00551100671ADDAY181031AY221031GA1051+006609099GF107991051031008001031001MD1710161+9999MW1021REMSYN092AAXX  04031 33415 41597 71104 10073 20055 40067 57016 70282 85330 333 85922 555 20068 7993/;
0215334150999992000040406004+49570+025600FM-12+032499999V0201201N006010360019N0100001N1+00841+00581100571ADDAA112000391AY181061AY221061GF107991021031012501031001KA1999N+00681MD1710101+9999MW1021REMSYN082AAXX  04061 33415 11697 71206 10084 20058 40057 5007/ 69932 70282 82330 333 20068;EQDQ01+000002APCTENQ02+000702APC3  
0112334150999992000040409004+49570+025600FM-12+032499999V0201401N005010360019N0100001N1+01081+00701100441ADDGF108991031051012501031999MD1710101+9999REMSYN060AAXX  04091 33415 42697 81405 10108 20070 40044 57010 8353/;
0161334150999992000040412004+49570+025600FM-12+032499999V0201101N006010120019N0100001N1+01191+00761100361ADDAY181061AY221061GF108991051031012501031999MA1999999096501MD1710071+9999MW1021REMSYN072AAXX  04121 33415 42697 81106 10119 20076 39650 40036 57007 70282 8533/;
0140334150999992000040415004+49570+025600FM-12+032499999V0201401N007010120019N0100001N1+01201+00841100321ADDAY181031AY221031GF107991051031012501031001MD1710031+9999MW1801REMSYN066AAXX  04151 33415 41697 71407 10120 20084 40032 57003 78082 85330;
0180334150999992000040418004+49570+025600FM-12+032499999V0201401N005010360019N0100001N1+01041+00851100331ADDAA112000791AY181061AY221061GF107991021051012501031001KA1999M+01331MD1410001+9999MW1021REMSYN082AAXX  04181 33415 11697 71405 10104 20085 40033 54000 69902 70282 82530 333 10133;
0112334150999992000040421004+49570+025600FM-12+032499999V0201101N003012200019N0100001N1+00841+00671100371ADDGF102991021001999999031001MD1310011+9999REMSYN060AAXX  04211 33415 42997 21103 10084 20067 40037 53001 82030;
0143334150999992000040500004+49570+025600FM-12+032499999V0201401N004012200019N0100001N1+00701+00591100361ADDGA1001+999999999GF100991001001999999001001MA1999999096441MD1810041+9999REMSYN060AAXX  05001 33415 42997 01404 10070 20059 39644 40036 58004;
0167334150999992000040503004+49570+025600FM-12+032499999V0201401N003012200019N0020001N1+00571+00501100231ADDAA199000021AY101031AY201031GF102991021001999999031001MD1710141+9999MW1101REMSYN082AAXX  05031 33415 31995 21403 10057 20050 40023 57014 71000 82030 555 20055 7990/;
0230334150999992000040506004+49570+025600FM-12+032499999V0200901N003010360019N0020001N1+00641+00601100141ADDAA199000091AY141061AY211061GA1031+002109079GF107991031071002501031001IA1099IA2999+00409MD1710081+9999MW1101REMSYN092AAXX  05061 33415 31395 70903 10064 20060 40014 57008 71041 83730 333 83707 555 31004 52002;EQDQ01  00002PRCP99
0140334150999992000040509004+49570+025600FM-12+032499999V0200701N006010360019N0040001N1+01111+00861099811ADDAY141031AY221031GF107991021051004501031001MD1710261+9999MW1101REMSYN066AAXX  05091 33415 41496 70706 10111 20086 49981 57026 71042 82530;
0133334150999992000040512004+49570+025600FM-12+032499999V0200901N009010360019N0100001N1+01551+01031099441ADDGF107991021051012501031001MA1999999095681MD1710281+9999REMSYN066AAXX  05121 33415 42697 70909 10155 20103 39568 49944 57028 82530;
0166334150999992000040515004+49570+025600FM-12+032499999V0200701N008010360019N0100001N1+01461+01201099171ADDAY181031AY221031GA1041+007509099GF107991041031008001031001MD1710281+9999MW1251REMSYN076AAXX  05151 33415 41597 70708 10146 20120 49917 57028 72582 84330 333 84925;
0140334150999992000040521004+49570+025600FM-12+032499999V0200901N004010360019N0100001N1+01221+01061098911ADDAY181031AY221031GF107991021031012501031011MD1710081+9999MW1021REMSYN066AAXX  05211 33415 41697 70904 10122 20106 49891 57008 70282 82331;
0187334150999992000040600004+49570+025600FM-12+032499999V0200701N005010081019N0100001N1+01031+00931098801ADDAY191061AY281061GA1051+008109099GF107991051031008001031001MA1999999094991MD1710131+9999MW1951REMSYN082AAXX  06001 33415 41597 70705 10103 20093 39499 49880 57013 79598 85330 333 85927;
0182334150999992000040603004+49570+025600FM-12+032499999V0200601N002010360019N0100001N1+01191+01071098691ADDAY191031AY281031GA1031+009609099GF107991031031008001031001MD1710081+9999MW1021REMSYN092AAXX  06031 33415 41597 70602 10119 20107 49869 57008 70298 83330 333 83932 555 20103 7010/;
0202334150999992000040606004+49570+025600FM-12+032499999V0203301N003010360019N0040001N1+00961+00881098741ADDAA112010991AY191061AY281061GA1031+003009069GF108991041031002501031999KA1120N+00951MD1310011+9999MW1801REMSYN088AAXX  06061 33415 11396 83303 10096 20088 49874 53001 60112 78098 8433/ 333 20095 83710;
0166334150999992000040609004+49570+025600FM-12+032499999V0202701N00701002101CN0040001N1+00961+00901098941ADDAY181031AY281031GA1041+002409069GF108991081031002501999999MD1210191+9999MW1801REMSYN076AAXX  06091 33415 41396 82707 10096 20090 49894 52019 78088 883// 333 84708;
0193334150999992000040612004+49570+025600FM-12+032499999V0202701N014010039019N0100001N1+00471+00351099291ADDAY181061AY281061GA1061+003909099GF107991061031004501031001MA1999999095391MD1210281+9999MW1801REMSYN088AAXX  06121 33415 41497 72714 10047 20035 39539 49929 52028 78088 86330 333 86913 91019;
0166334150999992000040615004+49570+025600FM-12+032499999V0202901N013010021019N0020001N1+00111+00031099771ADDAY181031AY281031GA1051+002109069GF108991081031002501999999MD1210401+9999MW1801REMSYN076AAXX  06151 33415 41395 82913 10011 20003 49977 52040 78088 883// 333 85707;
0208334150999992000040618004+49570+025600FM-12+032499999V0202901N014010021019N0040001N1+00011-00101100181ADDAA112017091AY181061AY281061GA1041+002109079GF108991081031002501999999KA1120M+00971MD1210381+9999MW1851REMSYN094AAXX  06181 33415 11396 82914 10001 21010 40018 52038 60172 78588 883// 333 10097 84707 91019;
0166334150999992000040621004+49570+025600FM-12+032499999V0202901N012010021019N0020001N1-00081-00151100521ADDAY181031AY281031GA1041+002109069GF108991081031002501999999MD1210321+9999MW1851REMSYN076AAXX  06211 33415 41395 82912 11008 21015 40052 52032 78588 883// 333 84707;
0187334150999992000040700004+49570+025600FM-12+032499999V0202901N011010042019N0040001N1-00101-00231100791ADDAY181061AY281061GA1051+004209099GF107991051031004501031091MA1999999096741MD1210251+9999MW1851REMSYN082AAXX  07001 33415 41496 72911 11010 21023 39674 40079 52025 78588 85339 333 85914;
0182334150999992000040703004+49570+025600FM-12+032499999V0202901N010010039019N0020001N1-00151-00261100911ADDAY181031AY281031GA1081+003909099GF108991081031004501999999MD1210101+9999MW1851REMSYN092AAXX  07031 33415 41495 82910 11015 21026 40091 52010 78588 883// 333 88913 555 21016 7022/;
0231334150999992000040706004+49570+025600FM-12+032499999V0202901N011010042019N0100001N1-00081-00301101041ADDAA112003091AJ100019199999999AY181061AY281061GA1051+004209099GF107991051031004501031001IA1239KA1120N-00161MD1210141+9999MW1851REMSYN094AAXX  07061 33415 11497 72911 11008 21030 40104 52014 60032 78588 85330 333 21016 47001 85914;
0166334150999992000040709004+49570+025600FM-12+032499999V0202901N011010054019N0100001N1-00021-00621101241ADDAY181031AY231031GA1051+005409099GF107991051031008001031001MD1210191+9999MW1261REMSYN076AAXX  07091 33415 41597 72911 11002 21062 40124 52019 72683 85330 333 85918;
0187334150999992000040712004+49570+025600FM-12+032499999V0203201N009010360019N0100001N1+00121-00721101331ADDAY181061AY231061GA1041+006009099GF107991041031012501031001MA1999999097291MD1210121+9999MW1021REMSYN082AAXX  07121 33415 41697 73209 10012 21072 39729 40133 52012 70283 84330 333 84920;
0112334150999992000040715004+49570+025600FM-12+032499999V0203201N008010360019N0100001N1+00201-00561101401ADDGF107991021031012501031001MD1210081+9999REMSYN060AAXX  07151 33415 42697 73208 10020 21056 40140 52008 82330;
0152334150999992000040718004+49570+025600FM-12+032499999V0202901N008019999999N0100001N1+00181-00431101531ADDAA112000791GF106991041001999999031011KA1999M+00211MD1210111+9999REMSYN076AAXX  07181 33415 12997 62908 10018 21043 40153 52011 69902 84031 333 10021;
0112334150999992000040721004+49570+025600FM-12+032499999V0202701N006019999999N0100001N1+00161-00321101531ADDGF106991021001999999031011MD1410001+9999REMSYN060AAXX  07211 33415 42997 62706 10016 21032 40153 54000 82031;
0133334150999992000040800004+49570+025600FM-12+032499999V0202701N006019999999N0100001N1+00091-00271101531ADDGF105991021001999999031011MA1999999097481MD1410001+9999REMSYN066AAXX  08001 33415 42997 52706 10009 21027 39748 40153 54000 82031;
0158334150999992000040803004+49570+025600FM-12+032499999V0202901N007019999999N0100001N1+00031-00301101471ADDAA199000091GF105991021001999999031011MD1810071+9999REMSYN076AAXX  08031 33415 32997 52907 10003 21030 40147 58007 82031 555 20002 7994/;EQDQ01  00002PRCP99
0238334150999992000040806004+49570+025600FM-12+032499999V0202901N006019999999N0100001N1+00061-00401101481ADDAA199000091AJ199993999999999GF107991061001999999031011IA1099IA2999+00009KA1120N+00021MD1310011+9999REMSYN092AAXX  08061 33415 32997 72906 10006 21040 40148 53001 86031 333 20002 41997 555 31100 52103;EQDQ01  00002PRCP99Q02  09982SNDP  
0112334150999992000040809004+49570+025600FM-12+032499999V0202901N006019999999N0100001N1+00281-00381101451ADDGF107991061001999999031011MD1410001+9999REMSYN060AAXX  08091 33415 42997 72906 10028 21038 40145 54000 86031;
0133334150999992000040812004+49570+025600FM-12+032499999V0202901N007010120019N0100001N1+00451-00331101471ADDGF107991061031012501031001MA1999999097471MD1310051+9999REMSYN066AAXX  08121 33415 42697 72907 10045 21033 39747 40147 53005 86330;
0112334150999992000040815004+49570+025600FM-12+032499999V0202901N007010120019N0100001N1+00371-00261101541ADDGF107991061031012501031001MD1210051+9999REMSYN060AAXX  08151 33415 42697 72907 10037 21026 40154 52005 86330;
0165334150999992000040818004+49570+025600FM-12+032499999V0202901N006010360019N0100001N1+00201-00271101661ADDAA199000091GF107991021051012501031001KA1999M+00461MD1210101+9999REMSYN070AAXX  08181 33415 32697 72906 10020 21027 40166 52010 82530 333 10046;EQDQ01  00002PRCP99
0112334150999992000040821004+49570+025600FM-12+032499999V0202901N005019999999N0100001N1+00081-00251101701ADDGF106991061001999999031001MD1210011+9999REMSYN060AAXX  08211 33415 42997 62905 10008 21025 40170 52001 86030;
0133334150999992000040900004+49570+025600FM-12+032499999V0202901N006010360019N0100001N1+00061-00201101691ADDGF107991021051012501031001MA1999999097621MD1810011+9999REMSYN066AAXX  09001 33415 42697 72906 10006 21020 39762 40169 58001 82530;
0158334150999992000040903004+49570+025600FM-12+032499999V0202901N005010360019N0100001N1+00071-00191101681ADDAA199000091GF107991021051012501031001MD1710011+9999REMSYN076AAXX  09031 33415 32697 72905 10007 21019 40168 57001 82530 555 20005 7000/;EQDQ01  00002PRCP99
0199334150999992000040906004+49570+025600FM-12+032499999V0202901N003010120019N0100001N1+00061-00141101691ADDAA199000091GF107991061051012501031001IA1099IA2999-00109KA1120N+00011MD1310011+9999REMSYN086AAXX  09061 33415 32697 72903 10006 21014 40169 53001 86530 333 20001 555 31101 52103;EQDQ01  00002PRCP99
0138334150999992000040909004+49570+025600FM-12+032499999V0202901N006010099019N0100001N1+00341-00101101741ADDGA1061+009909099GF107991061031008001031001MD1210091+9999REMSYN070AAXX  09091 33415 42597 72906 10034 21010 40174 52009 86330 333 86933;
0133334150999992000040912004+49570+025600FM-12+032499999V0202901N007010120019N0100001N1+00441-00231101801ADDGF107991061031012501031001MA1999999097781MD1210071+9999REMSYN066AAXX  09121 33415 42697 72907 10044 21023 39778 40180 52007 86330;
0112334150999992000040915004+49570+025600FM-12+032499999V0203201N004010120019N0100001N1+00371-00261101821ADDGF107991061031012501031001MD1210011+9999REMSYN060AAXX  09151 33415 42697 73204 10037 21026 40182 52001 86330;
0165334150999992000040918004+49570+025600FM-12+032499999V0203201N001019999999N0100001N1+00281-00241101921ADDAA199000091GF107991071001999999031001KA1999M+00441MD1210081+9999REMSYN070AAXX  09181 33415 32997 73201 10028 21024 40192 52008 87030 333 10044;EQDQ01  00002PRCP99
0112334150999992000040921004+49570+025600FM-12+032499999V0209999C000019999999N0100001N1+00121-00331101971ADDGF107991071001999999031001MD1210031+9999REMSYN060AAXX  09211 33415 42997 70000 10012 21033 40197 52003 87030;
0133334150999992000041000004+49570+025600FM-12+032499999V0209999C000019999999N0100001N1+00081-00151101901ADDGF107991071001999999031001MA1999999097821MD1810081+9999REMSYN066AAXX  10001 33415 42997 70000 10008 21015 39782 40190 58008 87030;
0158334150999992000041003004+49570+025600FM-12+032499999V0209999C000019999999N0100001N1-00061-00211101921ADDAA199000091GF106991061001999999031001MD1310011+9999REMSYN076AAXX  10031 33415 32997 60000 11006 21021 40192 53001 86030 555 21006 7000/;EQDQ01  00002PRCP99
0199334150999992000041006004+49570+025600FM-12+032499999V0201801N001019999999N0100001N1+00041-00191101951ADDAA199000091GF106991001001999999001011IA1099IA2999-00109KA1120N-00111MD1210041+9999REMSYN086AAXX  10061 33415 32997 61801 10004 21019 40195 52004 80001 333 21011 555 31101 52102;EQDQ01  00002PRCP99
0112334150999992000041009004+49570+025600FM-12+032499999V0201601N002012200019N0100001N1+00511-00241101881ADDGF106991031021012501001011MD1210021+9999REMSYN060AAXX  10091 33415 42697 61602 10051 21024 40188 52002 83201;
0133334150999992000041012004+49570+025600FM-12+032499999V0201401N004010120019N0100001N1+00581-00251101781ADDGF107991071051012501001001MA1999999097781MD1810111+9999REMSYN066AAXX  10121 33415 42697 71404 10058 21025 39778 40178 58011 87500;
0112334150999992000041015004+49570+025600FM-12+032499999V0201301N004010120019N0100001N1+00661-00141101581ADDGF107991061051012501031001MD1710181+9999REMSYN060AAXX  10151 33415 42697 71304 10066 21014 40158 57018 86530;
0165334150999992000041018004+49570+025600FM-12+032499999V0201101N004019999999N0100001N1+00301-00021101531ADDAA199000091GF106991021001999999031011KA1999M+00661MD1710091+9999REMSYN070AAXX  10181 33415 32997 61104 10030 21002 40153 57009 82031 333 10066;EQDQ01  00002PRCP99
0112334150999992000041021004+49570+025600FM-12+032499999V0201101N003012200019N0100001N1+00171-00081101511ADDGF104991001001999999001011MD1710051+9999REMSYN060AAXX  10211 33415 42997 41103 10017 21008 40151 57005 80001;
0133334150999992000041100004+49570+025600FM-12+032499999V0200901N004012200019N0100001N1+00031-00171101391ADDGF102991001001999999001011MA1999999097331MD1710131+9999REMSYN066AAXX  11001 33415 42997 20904 10003 21017 39733 40139 57013 80001;
0158334150999992000041103004+49570+025600FM-12+032499999V0200901N003012200019N0100001N1-00011-00191101201ADDAA199000091GF103991021001999999031011MD1710181+9999REMSYN076AAXX  11031 33415 32997 30903 11001 21019 40120 57018 82031 555 21001 7000/;EQDQ01  00002PRCP99
0199334150999992000041106004+49570+025600FM-12+032499999V0201101N004019999999N0100001N1+00171+00011101111ADDAA199000091GF107991061001999999031011IA1099IA2999-00209KA1120N-00021MD1710171+9999REMSYN086AAXX  11061 33415 32997 71104 10017 20001 40111 57017 86031 333 21002 555 31102 52103;EQDQ01  00002PRCP99
0112334150999992000041109004+49570+025600FM-12+032499999V0201401N007019999999N0100001N1+00731+00231100911ADDGF107991021001999999031011MD1710111+9999REMSYN060AAXX  11091 33415 42997 71407 10073 20023 40091 57011 82031;
0133334150999992000041112004+49570+025600FM-12+032499999V0201401N007010360019N0100001N1+01141+00271100721ADDGF107991021011008001031001MA1999999096841MD1710131+9999REMSYN066AAXX  11121 33415 42597 71407 10114 20027 39684 40072 57013 82130;
0112334150999992000041115004+49570+025600FM-12+032499999V0201401N006010120019N0100001N1+01001+00291100561ADDGF108991081051012501999999MD1710071+9999REMSYN060AAXX  11151 33415 42697 81406 10100 20029 40056 57007 885//;
0165334150999992000041118004+49570+025600FM-12+032499999V0201601N003010120019N0100001N1+00771+00381100641ADDAA199000091GF108991081051012501999999KA1999M+01191MD1710051+9999REMSYN070AAXX  11181 33415 32697 81603 10077 20038 40064 57005 885// 333 10119;EQDQ01  00002PRCP99
0112334150999992000041121004+49570+025600FM-12+032499999V0201101N003010120019N0100001N1+00701+00451100621ADDGF108991081051012501999999MD1710031+9999REMSYN060AAXX  11211 33415 42697 81103 10070 20045 40062 57003 885//;
0133334150999992000041200004+49570+025600FM-12+032499999V0201401N003010120019N0100001N1+00701+00511100581ADDGF108991081051012501999999MA1999999096651MD1710041+9999REMSYN066AAXX  12001 33415 42697 81403 10070 20051 39665 40058 57004 885//;
0158334150999992000041203004+49570+025600FM-12+032499999V0201401N003012200019N0100001N1+00351+00171100641ADDAA199000091GF102991001001999999001011MD1710011+9999REMSYN076AAXX  12031 33415 32997 21403 10035 20017 40064 57001 80001 555 20034 7000/;EQDQ01  00002PRCP99
0209334150999992000041206004+49570+025600FM-12+032499999V0201401N004012200019N0100001N1+00401+00091100621ADDAA199000091GA1001+999999999GF100991001001999999001001IA1099IA2999+00009KA1120N+00151MD1310011+9999REMSYN080AAXX  12061 33415 32997 01404 10040 20009 40062 53001 333 20015 555 31000 52101;EQDQ01  00002PRCP99
0112334150999992000041209004+49570+025600FM-12+032499999V0201401N006012200019N0100001N1+01101+00321100491ADDGF101991001001999999001011MD1810031+9999REMSYN060AAXX  12091 33415 42997 11406 10110 20032 40049 58003 80001;
0133334150999992000041212004+49570+025600FM-12+032499999V0201401N008012200019N0100001N1+01441+00211100391ADDGF104991041051012501001001MA1999999096561MD1710061+9999REMSYN066AAXX  12121 33415 42697 41408 10144 20021 39656 40039 57006 84500;
0112334150999992000041215004+49570+025600FM-12+032499999V0201401N006019999999N0100001N1+01511+00191100281ADDGF105991021001999999031011MD1710091+9999REMSYN060AAXX  12151 33415 42997 51406 10151 20019 40028 57009 82031;
0165334150999992000041218004+49570+025600FM-12+032499999V0201101N005019999999N0100001N1+01131+00301100371ADDAA199000091GF106991031001999999031011KA1999M+01521MD1310031+9999REMSYN070AAXX  12181 33415 32997 61105 10113 20030 40037 53003 83031 333 10152;EQDQ01  00002PRCP99
0112334150999992000041221004+49570+025600FM-12+032499999V0201101N003019999999N0100001N1+00751+00271100441ADDGF105991031001999999031011MD1210011+9999REMSYN060AAXX  12211 33415 42997 51103 10075 20027 40044 52001 83031;
0133334150999992000041300004+49570+025600FM-12+032499999V0201101N003019999999N0100001N1+00561+00221100431ADDGF107991061001999999031011MA1999999096481MD1810031+9999REMSYN066AAXX  13001 33415 42997 71103 10056 20022 39648 40043 58003 86031;
0158334150999992000041303004+49570+025600FM-12+032499999V0201401N001010360019N0100001N1+00541+00251100471ADDAA199000091GF107991021051012501031001MD1310041+9999REMSYN076AAXX  13031 33415 32697 71401 10054 20025 40047 53004 82530 555 20050 7000/;EQDQ01  00002PRCP99
0214334150999992000041306004+49570+025600FM-12+032499999V0209999V001010120019N0040001N1+00591+00401100571ADDAA112000391AY181061AY221061GF107991061031012501031001IA1099IA2999+00209KA1120N+00501MD1210111+9999MW1801REMSYN098AAXX  13061 33415 11696 79901 10059 20040 40057 52011 69932 78082 86330 333 20050 555 31002 52001;
0140334150999992000041309004+49570+025600FM-12+032499999V0202001N005010360019N0100001N1+01061+00381100611ADDAY181031AY221031GF106991021051012501031011MD1210101+9999MW1021REMSYN066AAXX  13091 33415 41697 62005 10106 20038 40061 52010 70282 82531;
0161334150999992000041312004+49570+025600FM-12+032499999V0202201N005010360019N0100001N1+01481+00651100581ADDAY181061AY221061GF106991021031012501031011MA1999999096761MD1210031+9999MW1021REMSYN072AAXX  13121 33415 41697 62205 10148 20065 39676 40058 52003 70282 82331;
0112334150999992000041315004+49570+025600FM-12+032499999V0202301N007010360019N0100001N1+01761+00511100461ADDGF106991031031012501031001MD1810081+9999REMSYN060AAXX  13151 33415 42697 62307 10176 20051 40046 58008 83330;
0152334150999992000041318004+49570+025600FM-12+032499999V0202001N005019999999N0100001N1+01381+00611100581ADDAA112000791GF105991051001999999031001KA1999M+01771MD1310061+9999REMSYN076AAXX  13181 33415 12997 52005 10138 20061 40058 53006 69902 85030 333 10177;
0112334150999992000041321004+49570+025600FM-12+032499999V0202201N004012200019N0100001N1+01151+00511100701ADDGF104991041001999999031001MD1210101+9999REMSYN060AAXX  13211 33415 42997 42204 10115 20051 40070 52010 84030;
0133334150999992000041400004+49570+025600FM-12+032499999V0202101N004019999999N0100001N1+01021+00511100731ADDGF106991061001999999031001MA1999999096841MD1410001+9999REMSYN066AAXX  14001 33415 42997 62104 10102 20051 39684 40073 54008 86030;
0158334150999992000041403004+49570+025600FM-12+032499999V0202001N003019999999N0100001N1+00951+00611100781ADDAA199000091GF106991061001999999031001MD1310051+9999REMSYN076AAXX  14031 33415 32997 62003 10095 20061 40078 53005 86030 555 20094 7993/;EQDQ01  00002PRCP99
0175334150999992000041406004+49570+025600FM-12+032499999V0209999V002010360019N0100001N1+01021+00651100881ADDAA199000091GF107991031031012501031001KA1120N+00931MD1210091+9999REMSYN080AAXX  14061 33415 32697 79902 10102 20065 40088 52009 83330 333 20093 555 52004;EQDQ01  00002PRCP99
0112334150999992000041409004+49570+025600FM-12+032499999V0202001N005012200019N0100001N1+01841+00841100731ADDGF106991021011012501001011MD1810031+9999REMSYN060AAXX  14091 33415 42697 62005 10184 20084 40073 58003 82101;
0112334150999992000041415004+49570+025600FM-12+032499999V0202301N007010360019N0100001N1+02021+00361100621ADDGF107991031011012501031001MD1710071+9999REMSYN060AAXX  14151 33415 42697 72307 10202 20036 40062 57007 83130;
0165334150999992000041418004+49570+025600FM-12+032499999V0202101N003012200019N0100001N1+01441+00531100751ADDAA199000091GF103991021051012501031001KA1999M+02081MD1310061+9999REMSYN070AAXX  14181 33415 32697 32103 10144 20053 40075 53006 82530 333 10208;EQDQ01  00002PRCP99
0112334150999992000041421004+49570+025600FM-12+032499999V0202001N005012200019N0100001N1+01191+00561100791ADDGF102991021001999999031001MD1410001+9999REMSYN060AAXX  14211 33415 42997 22005 10119 20056 40079 54000 82030;
0133334150999992000041500004+49570+025600FM-12+032499999V0201401N002012200019N0100001N1+00981+00501100771ADDGF103991031001999999031001MA1999999096881MD1810041+9999REMSYN066AAXX  15001 33415 42997 31402 10098 20050 39688 40077 58004 83030;
0158334150999992000041503004+49570+025600FM-12+032499999V0201101N003012200019N0100001N1+00801+00461100771ADDAA199000091GF103991021051012501031001MD1710031+9999REMSYN076AAXX  15031 33415 32697 31103 10080 20046 40077 57003 82530 555 20079 7000/;EQDQ01  00002PRCP99
0175334150999992000041506004+49570+025600FM-12+032499999V0201401N002012200019N0100001N1+01081+00531100761ADDAA199000091GF103991031001999999031001KA1120N+00741MD1310031+9999REMSYN080AAXX  15061 33415 32997 31402 10108 20053 40076 53003 83030 333 20074 555 52002;EQDQ01  00002PRCP99
0112334150999992000041509004+49570+025600FM-12+032499999V0201401N005012200019N0100001N1+02011+00861100581ADDGF103991031001999999031001MD1810041+9999REMSYN060AAXX  15091 33415 42997 31405 10201 20086 40058 58004 83030;
0152334150999992000041512004+49570+025600FM-12+032499999V0201801N006010360019N0100001N1+02111+00741999999ADDGF106991031051012501031001MA1999999096821MD1710021+9999REMSYN066AAXX  15121 33415 42697 61806 10211 20074 39682 40156 57002 83530;EQDQ01+101563APOSLP
0112334150999992000041515004+49570+025600FM-12+032499999V0201801N006010360019N0100001N1+02171+00641100461ADDGF106991021051012501031001MD1710091+9999REMSYN060AAXX  15151 33415 42697 61806 10217 20064 40046 57009 82530;
0165334150999992000041518004+49570+025600FM-12+032499999V0201801N003010360019N0100001N1+01511+00701100601ADDAA199000091GF106991031031012501031001KA1999M+02181MD1310051+9999REMSYN070AAXX  15181 33415 32697 61803 10151 20070 40060 53005 83330 333 10218;EQDQ01  00002PRCP99
0112334150999992000041521004+49570+025600FM-12+032499999V0201401N002012200019N0100001N1+01311+00711100661ADDGF102991021001999999031001MD1210031+9999REMSYN060AAXX  15211 33415 42997 21402 10131 20071 40066 52003 82030;
0133334150999992000041600004+49570+025600FM-12+032499999V0201101N001012200019N0100001N1+01101+00651100691ADDGF102991001001999999001011MA1999999096811MD1410001+9999REMSYN066AAXX  16001 33415 42997 21101 10110 20065 39681 40069 54000 80001;
0156334150999992000041603004+49570+025600FM-12+032499999V0200901N002010360019N0100001N1+01071+00901100791ADDAY181031AY221031GF107991041031012501031001MD1310091+9999MW1801REMSYN082AAXX  16031 33415 41697 70902 10107 20090 40079 53009 78082 84330 555 20106 7001/;
0180334150999992000041606004+49570+025600FM-12+032499999V0201401N003010360019N0100001N1+01271+01001100651ADDAA112002091AY181061AY221061GF107991041031012501031001KA1999N+01061MD1810101+9999MW1021REMSYN082AAXX  16061 33415 11697 71403 10127 20100 40065 58010 60022 70282 84330 333 20106;
0112334150999992000041609004+49570+025600FM-12+032499999V0201401N006010360019N0100001N1+01731+01021100631ADDGF107991031031012501031001MD1310051+9999REMSYN060AAXX  16091 33415 42697 71406 10173 20102 40063 53005 83330;
0133334150999992000041612004+49570+025600FM-12+032499999V0201601N008010120019N0100001N1+02151+00921100451ADDGF107991051031012501031001MA1999999096721MD1810131+9999REMSYN066AAXX  16121 33415 42697 71608 10215 20092 39672 40045 58013 85330;
0140334150999992000041615004+49570+025600FM-12+032499999V0202501N007010120019N0100001N1+01801+00611100341ADDAY191031AY281031GF107991061031012501031001MD1710161+9999MW1951REMSYN066AAXX  16151 33415 41697 72507 10180 20061 40034 57016 79598 86330;
0180334150999992000041618004+49570+025600FM-12+032499999V0202701N008012200019N0100001N1+01431+00971100561ADDAA112001091AY191061AY281061GF103991031031012501001001KA1999M+02281MD1310181+9999MW1021REMSYN082AAXX  16181 33415 11697 32708 10143 20097 40056 53018 60012 70298 83300 333 10228;
0112334150999992000041621004+49570+025600FM-12+032499999V0203201N003012200019N0100001N1+00971+00531101051ADDGF102991021031012501001001MD1210401+9999REMSYN060AAXX  16211 33415 42697 23203 10097 20053 40105 52040 82300;
0133334150999992000041700004+49570+025600FM-12+032499999V0202001N002012200019N0100001N1+00701+00191101151ADDGF102991021001999999031001MA1999999097201MD1210061+9999REMSYN066AAXX  17001 33415 42997 22002 10070 20019 39720 40115 52006 82030;
0139334150999992000041703004+49570+025600FM-12+032499999V0209999C000012200019N0100001N1+00371+00031101261ADDAA199000021GF102991021001999999031011MD1210051+9999REMSYN076AAXX  17031 33415 32997 20000 10037 20003 40126 52005 82031 555 20035 7002/;
0199334150999992000041706004+49570+025600FM-12+032499999V0201801N002019999999N0100001N1+00791+00561101291ADDAA199000091GF106991021001999999031011IA1099IA2999+00109KA1120N+00351MD1210101+9999REMSYN086AAXX  17061 33415 32997 61802 10079 20056 40129 52010 82031 333 20035 555 31001 52000;EQDQ01  00002PRCP99
0112334150999992000041709004+49570+025600FM-12+032499999V0201401N004019999999N0100001N1+01301+00621101241ADDGF106991061001999999031021MD1210021+9999REMSYN060AAXX  17091 33415 42997 61404 10130 20062 40124 52002 86032;
0133334150999992000041712004+49570+025600FM-12+032499999V0201401N008012200019N0100001N1+01781+00621101061ADDGF102991001001999999001011MA1999999097261MD1810061+9999REMSYN066AAXX  17121 33415 42997 21408 10178 20062 39726 40106 58006 80001;
0131334150999992000041715004+49570+025600FM-12+032499999V0201401N006019999999N0100001N1+01861+00531999999ADDGF106991021001999999031011MD1710111+9999REMSYN060AAXX  17151 33415 42997 61406 10186 20053 40194 57011 82031;EQDQ01+101943APOSLP
0165334150999992000041718004+49570+025600FM-12+032499999V0200701N004012200019N0100001N1+01461+00861100981ADDAA199000091GF102991001001999999001011KA1999M+01921MD1710011+9999REMSYN070AAXX  17181 33415 32997 20704 10146 20086 40098 57001 80001 333 10192;EQDQ01  00002PRCP99
0112334150999992000041721004+49570+025600FM-12+032499999V0200501N003012200019N0100001N1+01161+00741101011ADDGF102991001001999999001011MD1710011+9999REMSYN060AAXX  17211 33415 42997 20503 10116 20074 40101 57001 80001;
0133334150999992000041800004+49570+025600FM-12+032499999V0200701N002019999999N0100001N1+01061+00741101001ADDGF107991001001999999001011MA1999999097111MD1710021+9999REMSYN066AAXX  18001 33415 42997 70702 10106 20074 39711 40100 57002 80001;
0158334150999992000041803004+49570+025600FM-12+032499999V0209999C000012200019N0100001N1+00861+00641100981ADDAA199000091GF102991001001999999001011MD1710041+9999REMSYN076AAXX  18031 33415 32997 20000 10086 20064 40098 57004 80001 555 20086 7000/;EQDQ01  00002PRCP99
0175334150999992000041806004+49570+025600FM-12+032499999V0200901N003012200019N0100001N1+01131+00821100961ADDAA199000091GF103991001001999999001011KA1120N+00801MD1310021+9999REMSYN080AAXX  18061 33415 32997 30903 10113 20082 40096 53002 80001 333 20080 555 52003;EQDQ01  00002PRCP99
0112334150999992000041809004+49570+025600FM-12+032499999V0201401N005012200019N0100001N1+01891+00941100921ADDGF103991001001999999001011MD1210041+9999REMSYN060AAXX  18091 33415 42997 31405 10189 20094 40092 52004 80001;
0133334150999992000041812004+49570+025600FM-12+032499999V0201401N006012200019N0100001N1+02331+00701100821ADDGF101991001001999999001011MA1999999097101MD1810031+9999REMSYN066AAXX  18121 33415 42997 11406 10233 20070 39710 40082 58003 80001;
0122334150999992000041815004+49570+025600FM-12+032499999V0201401N005012200019N0100001N1+02411+00531100761ADDGA1001+999999999GF100991001001999999001001MD1710051+9999REMSYN054AAXX  18151 33415 42997 01405 10241 20053 40076 57005;
0165334150999992000041818004+49570+025600FM-12+032499999V0201401N004012200019N0100001N1+01831+00741100871ADDAA199000091GF103991001001999999001011KA1999M+02431MD1310041+9999REMSYN070AAXX  18181 33415 32997 31404 10183 20074 40087 53004 80001 333 10243;EQDQ01  00002PRCP99
0112334150999992000041821004+49570+025600FM-12+032499999V0201401N002012200019N0100001N1+01421+00761100971ADDGF101991001001999999001011MD1210031+9999REMSYN060AAXX  18211 33415 42997 11402 10142 20076 40097 52003 80001;
0143334150999992000041900004+49570+025600FM-12+032499999V0209999C000012200019N0100001N1+01141+00741101001ADDGA1001+999999999GF100991001001999999001001MA1999999097121MD1410001+9999REMSYN060AAXX  19001 33415 42997 00000 10114 20074 39712 40100 54000;
0168334150999992000041903004+49570+025600FM-12+032499999V0209999C000012200019N0100001N1+00851+00611101021ADDAA199000091GA1001+999999999GF100991001001999999001001MD1810021+9999REMSYN070AAXX  19031 33415 32997 00000 10085 20061 40102 58002 555 20084 7000/;EQDQ01  00002PRCP99
0185334150999992000041906004+49570+025600FM-12+032499999V0209999C000012200019N0100001N1+01311+00821101041ADDAA199000091GA1001+999999999GF100991001001999999001001KA1120N+00841MD1310071+9999REMSYN074AAXX  19061 33415 32997 00000 10131 20082 40104 53007 333 20084 555 52004;EQDQ01  00002PRCP99
0122334150999992000041909004+49570+025600FM-12+032499999V0201101N005012200019N0100001N1+02221+00881100981ADDGA1001+999999999GF100991001001999999001001MD1210081+9999REMSYN054AAXX  19091 33415 42997 01105 10222 20088 40098 52008;
0133334150999992000041912004+49570+025600FM-12+032499999V0201101N007010120019N0100001N1+02291+00991100961ADDGF106991061021012501001001MA1999999097231MD1810021+9999REMSYN066AAXX  19121 33415 42697 61107 10229 20099 39723 40096 58002 86200;
0112334150999992000041915004+49570+025600FM-12+032499999V0200901N005010360019N0100001N1+02161+00981100921ADDGF107991041031012501031001MD1710061+9999REMSYN060AAXX  19151 33415 42697 70905 10216 20098 40092 57006 84330;
0165334150999992000041918004+49570+025600FM-12+032499999V0200701N004019999999N0100001N1+01751+00991101001ADDAA199000091GF106991021001999999031011KA1999M+02301MD1310031+9999REMSYN070AAXX  19181 33415 32997 60704 10175 20099 40100 53003 82031 333 10230;EQDQ01  00002PRCP99
0112334150999992000041921004+49570+025600FM-12+032499999V0209999C000012200019N0100001N1+01301+00801101141ADDGF103991001001999999001011MD1210071+9999REMSYN060AAXX  19211 33415 42997 30000 10130 20080 40114 52007 80001;
0133334150999992000042000004+49570+025600FM-12+032499999V0209999V002012200019N0100001N1+01081+00651101171ADDGF102991001001999999001011MA1999999097281MD1210011+9999REMSYN066AAXX  20001 33415 42997 29902 10108 20065 39728 40117 52001 80001;
0158334150999992000042003004+49570+025600FM-12+032499999V0203601N002012200019N0100001N1+01001+00681101191ADDAA199000091GF102991001001999999001011MD1410001+9999REMSYN076AAXX  20031 33415 32997 23602 10100 20068 40119 54000 80001 555 20099 7000/;EQDQ01  00002PRCP99
0145334150999992000042006004+49570+025600FM-12+032499999V0203601N002012200019N0100001N1+01411+01051101221ADDGF102991021001999999031011KA1120N+00971MD1310091+9999REMSYN080AAXX  20061 33415 42997 23602 10141 20105 40122 53009 82031 333 20097 555 52005;
0112334150999992000042009004+49570+025600FM-12+032499999V0200501N002012200019N0100001N1+02141+01111101101ADDGF102991021011012501001001MD1810021+9999REMSYN060AAXX  20091 33415 42697 20502 10214 20111 40110 58002 82100;
0133334150999992000042012004+49570+025600FM-12+032499999V0200201N006010120019N0100001N1+02201+01051101071ADDGF106991061011012501001001MA1999999097331MD1710021+9999REMSYN066AAXX  20121 33415 42697 60206 10220 20105 39733 40107 57002 86100;
0112334150999992000042015004+49570+025600FM-12+032499999V0200201N008010120019N0100001N1+02101+00861101031ADDGF105991051011012501001001MD1710061+9999REMSYN060AAXX  20151 33415 42697 50208 10210 20086 40103 57006 85100;
0165334150999992000042018004+49570+025600FM-12+032499999V0200201N004012200019N0100001N1+01691+00851101161ADDAA199000091GF102991021001999999031001KA1999M+02321MD1310071+9999REMSYN070AAXX  20181 33415 32997 20204 10169 20085 40116 53007 82030 333 10232;EQDQ01  00002PRCP99
0122334150999992000042021004+49570+025600FM-12+032499999V0203601N002012200019N0100001N1+01211+00711101261ADDGA1001+999999999GF100991001001999999001001MD1210031+9999REMSYN054AAXX  20211 33415 42997 03602 10121 20071 40126 52003;
0128334150999992000042103004+49570+025600FM-12+032499999V0203401N003012200019N0100001N1+01001+00651101281ADDGF101991011001999999031001MD1810011+9999REMSYN076AAXX  21031 33415 42997 13403 10100 20065 40128 58001 81030 555 20099 7000/;
0199334150999992000042106004+49570+025600FM-12+032499999V0203401N003012200019N0100001N1+01341+00861101301ADDAA199000091GF101991011001999999031001IA1019IA2999+00509KA1120N+00991MD1310081+9999REMSYN086AAXX  21061 33415 32997 13403 10134 20086 40130 53008 81030 333 20099 555 30005 52004;EQDQ01  00002PRCP99
0112334150999992000042109004+49570+025600FM-12+032499999V0203601N008010120019N0100001N1+01781+00761101261ADDGF106991061011012501001001MD1210011+9999REMSYN060AAXX  21091 33415 42697 63608 10178 20076 40126 52001 86100;
0133334150999992000042112004+49570+025600FM-12+032499999V0203601N007010120019N0100001N1+01891+00701101151ADDGF107991071031012501001001MA1999999097361MD1810091+9999REMSYN066AAXX  21121 33415 42697 73607 10189 20070 39736 40115 58009 87300;
0140334150999992000042115004+49570+025600FM-12+032499999V0203601N007010360019N0100001N1+01361+01051101301ADDAY181031AY221031GF107991041031012501031001MD1310081+9999MW1801REMSYN066AAXX  21151 33415 41697 73607 10136 20105 40130 53008 78082 84330;
0180334150999992000042118004+49570+025600FM-12+032499999V0203301N005010120019N0100001N1+01381+01021101301ADDAA112000891AY181061AY221061GF107991051031012501031001KA1999M+01971MD1410001+9999MW1021REMSYN082AAXX  21181 33415 11697 73305 10138 20102 40130 54000 69972 70282 85330 333 10197;
0112334150999992000042121004+49570+025600FM-12+032499999V0203301N004010360019N0100001N1+01181+00841101401ADDGF106991021051012501031001MD1210051+9999REMSYN060AAXX  21211 33415 42697 63304 10118 20084 40140 52005 82530;
0133334150999992000042200004+49570+025600FM-12+032499999V0203301N005010360019N0100001N1+01121+00851101351ADDGF107991041051012501031001MA1999999097461MD1810041+9999REMSYN066AAXX  22001 33415 42697 73305 10112 20085 39746 40135 58004 84530;
0128334150999992000042203004+49570+025600FM-12+032499999V0203301N004010360019N0100001N1+01131+00921101311ADDGF107991021051012501031001MD1710041+9999REMSYN076AAXX  22031 33415 42697 73304 10113 20092 40131 57004 82530 555 20112 7997/;
0165334150999992000042206004+49570+025600FM-12+032499999V0203201N007019999999N0100001N1+01191+00921101321ADDAA199000091GF107991071001999999031001KA1999N+01121MD1310011+9999REMSYN070AAXX  22061 33415 32997 73207 10119 20092 40132 53001 87030 333 20112;EQDQ01  00002PRCP99
0112334150999992000042209004+49570+025600FM-12+032499999V0203401N009019999999N0100001N1+01621+00811101261ADDGF107991071001999999031001MD1210011+9999REMSYN060AAXX  22091 33415 42997 73409 10162 20081 40126 52001 87030;
0140334150999992000042215004+49570+025600FM-12+032499999V0200201N003010360019N0100001N1+01541+01131101241ADDAY181031AY221031GF107991041031012501031001MD1410001+9999MW1251REMSYN066AAXX  22151 33415 41697 70203 10154 20113 40124 54000 72582 84330;
0180334150999992000042218004+49570+025600FM-12+032499999V0200201N004010360019N0100001N1+01621+01021101331ADDAA112000791AY181061AY221061GF107991041031012501031001KA1999M+02011MD1310091+9999MW1021REMSYN082AAXX  22181 33415 11697 70204 10162 20102 40133 53009 69902 70282 84330 333 10201;
0112334150999992000042221004+49570+025600FM-12+032499999V0203201N002012200019N0100001N1+01201+00771101451ADDGF103991031001999999031001MD1210051+9999REMSYN060AAXX  22211 33415 42997 33202 10120 20077 40145 52005 83030;
0133334150999992000042300004+49570+025600FM-12+032499999V0202701N004012200019N0100001N1+01041+00701101431ADDGF102991001001999999001011MA1999999097521MD1810031+9999REMSYN066AAXX  23001 33415 42997 22704 10104 20070 39752 40143 58003 80001;
0128334150999992000042303004+49570+025600FM-12+032499999V0203201N005019999999N0100001N1+01011+00711101431ADDGF105991001001999999001011MD1710011+9999REMSYN076AAXX  23031 33415 42997 53205 10101 20071 40143 57001 80001 555 20100 7990/;
0165334150999992000042306004+49570+025600FM-12+032499999V0203201N005012200019N0100001N1+01421+00841101381ADDAA199000091GF102991001001999999001011KA1999N+01001MD1310021+9999REMSYN070AAXX  23061 33415 32997 23205 10142 20084 40138 53002 80001 333 20100;EQDQ01  00002PRCP99
0112334150999992000042309004+49570+025600FM-12+032499999V0203601N007012200019N0100001N1+02131+01121101271ADDGF102991021011008001001001MD1810021+9999REMSYN060AAXX  23091 33415 42597 23607 10213 20112 40127 58002 82100;
0133334150999992000042312004+49570+025600FM-12+032499999V0203601N008012200019N0100001N1+02311+00991101161ADDGF103991031011008001001001MA1999999097431MD1710081+9999REMSYN066AAXX  23121 33415 42597 33608 10231 20099 39743 40116 57008 83100;
0112334150999992000042315004+49570+025600FM-12+032499999V0203601N008012200019N0100001N1+02111+00731101131ADDGF103991021011008001001011MD1710071+9999REMSYN060AAXX  23151 33415 42597 33608 10211 20073 40113 57007 82101;
0165334150999992000042318004+49570+025600FM-12+032499999V0202901N003012200019N0100001N1+01871+00891101141ADDAA199000091GF103991001001999999001011KA1999M+02351MD1710011+9999REMSYN070AAXX  23181 33415 32997 32903 10187 20089 40114 57001 80001 333 10235;EQDQ01  00002PRCP99
0112334150999992000042321004+49570+025600FM-12+032499999V0203601N003012200019N0100001N1+01461+00951101191ADDGF102991001001999999001011MD1710011+9999REMSYN060AAXX  23211 33415 42997 23603 10146 20095 40119 57001 80001;
0133334150999992000042400004+49570+025600FM-12+032499999V0203401N002012200019N0100001N1+01261+00941101211ADDGF102991001001999999001011MA1999999097341MD1410001+9999REMSYN066AAXX  24001 33415 42997 23402 10126 20094 39734 40121 54000 80001;
0128334150999992000042403004+49570+025600FM-12+032499999V0200201N002010360019N0100001N1+01061+00841101151ADDGF105991031051012501031001MD1710081+9999REMSYN076AAXX  24031 33415 42697 50202 10106 20084 40115 57008 83530 555 20105 7000/;
0187334150999992000042406004+49570+025600FM-12+032499999V0200501N007010084019N0100001N1+01331+00951101051ADDAA199000091GA1051+008409059GF107991051051008001031001KA1120N+01051MD1710061+9999REMSYN076AAXX  24061 33415 32597 70507 10133 20095 40105 57006 85530 333 20105 85628;EQDQ01  00002PRCP99
0166334150999992000042409004+49570+025600FM-12+032499999V0200901N005010033019N0100001N1+01351+01171101051ADDAY181031AY221031GA1051+003309099GF107991051031004501031001MD1410001+9999MW1801REMSYN076AAXX  24091 33415 41497 70905 10135 20117 40105 54000 78082 85330 333 85911;
0112334150999992000042415004+49570+025600FM-12+032499999V0201101N006010360019N0100001N1+01601+01131101041ADDGF107991021031012501031001MD1210011+9999REMSYN060AAXX  24151 33415 42697 71106 10160 20113 40104 52001 82330;
0152334150999992000042418004+49570+025600FM-12+032499999V0200901N006010360019N0100001N1+01351+01091101111ADDAA112001091GF106991021031012501031001KA1999M+01651MD1210031+9999REMSYN076AAXX  24181 33415 12697 60906 10135 20109 40111 52003 60012 82330 333 10165;
0112334150999992000042421004+49570+025600FM-12+032499999V0200901N008010360019N0100001N1+01101+00851101151ADDGF106991021031012501031001MD1410001+9999REMSYN060AAXX  24211 33415 42697 60908 10110 20085 40115 54000 82330;
0159334150999992000042500004+49570+025600FM-12+032499999V0201101N008010060019N0100001N1+01181+01031101241ADDGA1051+006009099GF107991051031008001031001MA1999999097351MD1310091+9999REMSYN076AAXX  25001 33415 42597 71108 10118 20103 39735 40124 53009 85330 333 85920;
0154334150999992000042503004+49570+025600FM-12+032499999V0201101N007010048019N0100001N1+01181+01061101241ADDGA1051+004809099GF107991051031004501031001MD1410001+9999REMSYN086AAXX  25031 33415 42497 71107 10118 20106 40124 54000 85330 333 85916 555 20109 7001/;
0187334150999992000042506004+49570+025600FM-12+032499999V0201101N009010051019N0100001N1+01181+01041101291ADDAA199000091GA1061+005109099GF107991061031004501031001KA1120N+01091MD1310051+9999REMSYN076AAXX  25061 33415 32497 71109 10118 20104 40129 53005 86330 333 20109 86917;EQDQ01  00002PRCP99
0138334150999992000042509004+49570+025600FM-12+032499999V0201401N008010099019N0100001N1+01561+01131101381ADDGA1061+009909099GF107991061031008001031001MD1210141+9999REMSYN070AAXX  25091 33415 42597 71408 10156 20113 40138 52014 86330 333 86933;
0133334150999992000042512004+49570+025600FM-12+032499999V0201401N009010120019N0100001N1+01641+01141101351ADDGF107991071031012501001001MA1999999097521MD1810021+9999REMSYN066AAXX  25121 33415 42697 71409 10164 20114 39752 40135 58002 87300;
0112334150999992000042515004+49570+025600FM-12+032499999V0201101N007010120019N0100001N1+01761+01291101241ADDGF107991051031012501031001MD1710091+9999REMSYN060AAXX  25151 33415 42697 71107 10176 20129 40124 57009 85330;
0165334150999992000042518004+49570+025600FM-12+032499999V0201101N005019999999N0100001N1+01481+01211101311ADDAA199000091GF105991001001999999001011KA1999M+01761MD1310041+9999REMSYN070AAXX  25181 33415 32997 51105 10148 20121 40131 53004 80001 333 10176;EQDQ01  00002PRCP99
0112334150999992000042521004+49570+025600FM-12+032499999V0201101N003019999999N0100001N1+01301+01171101341ADDGF106991061001999999031001MD1210011+9999REMSYN060AAXX  25211 33415 42997 61103 10130 20117 40134 52001 86030;
0133334150999992000042600004+49570+025600FM-12+032499999V0209999C000012200019N0100001N1+01091+00971101411ADDGF102991021001999999031001MA1999999097501MD1210021+9999REMSYN066AAXX  26001 33415 42997 20000 10109 20097 39750 40141 52002 82030;
0156334150999992000042603004+49570+025600FM-12+032499999V0209999C000019999999N0040001N1+00841+00761101391ADDAY111031AY211031GF107991021001999999031011MD1810041+9999MW1101REMSYN082AAXX  26031 33415 41996 70000 10084 20076 40139 58004 71011 82031 555 20084 7000/;
0193334150999992000042606004+49570+025600FM-12+032499999V0200701N001010360019N0040001N1+01191+01051101461ADDAA199000091AY111061AY211061GF107991031051012501031001KA1999N+00841MD1310121+9999MW1101REMSYN076AAXX  26061 33415 31696 70701 10119 20105 40146 53012 71011 83530 333 20084;EQDQ01  00002PRCP99
0112334150999992000042609004+49570+025600FM-12+032499999V0201401N005010360019N0100001N1+01761+01131101431ADDGF107991031051012501031001MD1210041+9999REMSYN060AAXX  26091 33415 42697 71405 10176 20113 40143 52004 83530;
0161334150999992000042612004+49570+025600FM-12+032499999V0200901N006010360019N0100001N1+02031+00991101321ADDAY191061AY221061GF107991041031012501031001MA1999999097551MD1810071+9999MW1291REMSYN072AAXX  26121 33415 41697 70906 10203 20099 39755 40132 58007 72992 84330;
0140334150999992000042615004+49570+025600FM-12+032499999V0200201N002010120019N0100001N1+01581+01201101411ADDAY191031AY281031GF107991051031012501031001MD1310031+9999MW1171REMSYN066AAXX  26151 33415 41697 70202 10158 20120 40141 53003 71798 85330;
0180334150999992000042618004+49570+025600FM-12+032499999V0203601N003010360019N0100001N1+01441+01201101521ADDAA112000791AY191061AY281061GF107991041031012501031001KA1999M+02081MD1210091+9999MW1021REMSYN082AAXX  26181 33415 11697 73603 10144 20120 40152 52009 69902 70298 84330 333 10208;
0112334150999992000042621004+49570+025600FM-12+032499999V0202701N003010360019N0100001N1+01341+01131101671ADDGF107991031031012501031001MD1210121+9999REMSYN060AAXX  26211 33415 42697 72703 10134 20113 40167 52012 83330;
0133334150999992000042700004+49570+025600FM-12+032499999V0203601N002010360019N0100001N1+01131+00971101721ADDGF106991021051012501031001MA1999999097821MD1210031+9999REMSYN066AAXX  27001 33415 42697 63602 10113 20097 39782 40172 52003 82530;
0156334150999992000042703004+49570+025600FM-12+032499999V0203601N001010360019N0100001N1+01111+01021101791ADDAY191031AY281031GF107991041031012501031001MD1210071+9999MW1251REMSYN082AAXX  27031 33415 41697 73601 10111 20102 40179 52007 72598 84330 555 20110 7994/;
0180334150999992000042706004+49570+025600FM-12+032499999V0200201N004010360019N0100001N1+01281+01131101941ADDAA112000591AY191061AY281061GF107991021051012501031001KA1999N+01101MD1210151+9999MW1021REMSYN082AAXX  27061 33415 11697 70204 10128 20113 40194 52015 69942 70298 82530 333 20110;
0112334150999992000042709004+49570+025600FM-12+032499999V0200501N003012200019N0100001N1+01911+01311101941ADDGF101991011011008001001001MD1210091+9999REMSYN060AAXX  27091 33415 42597 10503 10191 20131 40194 52009 81100;
0161334150999992000042712004+49570+025600FM-12+032499999V0200501N006010120019N0100001N1+02131+01191101881ADDAY191061AY211061GF106991061031012501999999MA1999999098101MD1810031+9999MW1171REMSYN072AAXX  27121 33415 41697 60506 10213 20119 39810 40188 58003 71791 863//;
0140334150999992000042715004+49570+025600FM-12+032499999V0200201N003010360019N0100001N1+02011+01141101881ADDAY191031AY281031GF107991041031012501031001MD1710011+9999MW1021REMSYN066AAXX  27151 33415 41697 70203 10201 20114 40188 57001 70298 84330;
0180334150999992000042718004+49570+025600FM-12+032499999V0200201N003019999999N0100001N1+01681+01091101961ADDAA112000791AY191061AY281061GF107991041001999999031011KA1999M+02141MD1310021+9999MW1021REMSYN082AAXX  27181 33415 11997 70203 10168 20109 40196 53002 69902 70298 84031 333 10214;
0122334150999992000042721004+49570+025600FM-12+032499999V0209999C000012200019N0100001N1+01391+01031102061ADDGA1001+999999999GF100991001001999999001001MD1210071+9999REMSYN054AAXX  27211 33415 42997 00000 10139 20103 40206 52007;
0143334150999992000042800004+49570+025600FM-12+032499999V0209999C000012200019N0100001N1+01141+00941102101ADDGA1001+999999999GF100991001001999999001001MA1999999098181MD1410001+9999REMSYN060AAXX  28001 33415 42997 00000 10114 20094 39818 40210 54000;
0138334150999992000042803004+49570+025600FM-12+032499999V0209999C000012200019N0100001N1+00971+00861102151ADDGA1001+999999999GF100991001001999999001001MD1310021+9999REMSYN070AAXX  28031 33415 42997 00000 10097 20086 40215 53002 555 20096 7990/;
0175334150999992000042806004+49570+025600FM-12+032499999V0203601N002012200019N0100001N1+01421+01101102151ADDAA199000091GF102991021001999999031001KA1120N+00941MD1210071+9999REMSYN080AAXX  28061 33415 32997 23602 10142 20110 40215 52007 82030 333 20094 555 52005;EQDQ01  00002PRCP99
0112334150999992000042809004+49570+025600FM-12+032499999V0200901N006012200019N0100001N1+02291+00801102061ADDGF103991031011012501001001MD1210021+9999REMSYN060AAXX  28091 33415 42697 30906 10229 20080 40206 52002 83100;
0133334150999992000042812004+49570+025600FM-12+032499999V0200901N006010120019N0100001N1+02521+00611101991ADDGF106991061011012501001001MA1999999098241MD1810051+9999REMSYN066AAXX  28121 33415 42697 60906 10252 20061 39824 40199 58005 86100;
0112334150999992000042815004+49570+025600FM-12+032499999V0200701N003010120019N0100001N1+02411+00681101911ADDGF106991061011012501001001MD1710091+9999REMSYN060AAXX  28151 33415 42697 60703 10241 20068 40191 57009 86100;
0165334150999992000042818004+49570+025600FM-12+032499999V0200501N003012200019N0100001N1+01891+00881102001ADDAA199000091GF102991021001999999031001KA1999M+02541MD1310031+9999REMSYN070AAXX  28181 33415 32997 20503 10189 20088 40200 53003 82030 333 10254;EQDQ01  00002PRCP99
0122334150999992000042821004+49570+025600FM-12+032499999V0209999V001012200019N0100001N1+01531+00861102121ADDGA1001+999999999GF100991001001999999001001MD1210071+9999REMSYN054AAXX  28211 33415 42997 09901 10153 20086 40212 52007;
0143334150999992000042900004+49570+025600FM-12+032499999V0209999V002012200019N0100001N1+01381+00891102171ADDGA1001+999999999GF100991001001999999001001MA1999999098281MD1210031+9999REMSYN060AAXX  29001 33415 42997 09902 10138 20089 39828 40217 52003;
0138334150999992000042903004+49570+025600FM-12+032499999V0203601N002012200019N0100001N1+01121+00811102181ADDGA1001+999999999GF100991001001999999001001MD1810021+9999REMSYN070AAXX  29031 33415 42997 03602 10112 20081 40218 58002 555 20110 7000/;
0175334150999992000042906004+49570+025600FM-12+032499999V0200501N002012200019N0100001N1+01601+01031102201ADDAA199000091GA1001+999999999GF100991001001999999001001KA1999N+01101MD1310081+9999REMSYN064AAXX  29061 33415 32997 00502 10160 20103 40220 53008 333 20110;EQDQ01  00002PRCP99
0112334150999992000042909004+49570+025600FM-12+032499999V0200601N006012200019N0100001N1+02211+00901102161ADDGF102991021011012501001001MD1210041+9999REMSYN060AAXX  29091 33415 42697 20606 10221 20090 40216 52004 82100;
0133334150999992000042912004+49570+025600FM-12+032499999V0200601N007012200019N0100001N1+02291+00711102081ADDGF102991001001999999001011MA1999999098301MD1810081+9999REMSYN066AAXX  29121 33415 42997 20607 10229 20071 39830 40208 58008 80001;
0112334150999992000042915004+49570+025600FM-12+032499999V0200601N004012200019N0100001N1+02301+00701102021ADDGF102991001001999999001011MD1710051+9999REMSYN060AAXX  29151 33415 42997 20604 10230 20070 40202 57005 80001;
0165334150999992000042918004+49570+025600FM-12+032499999V0200601N004012200019N0100001N1+01861+00781102051ADDAA199000091GF103991001001999999001011KA1999M+02361MD1710021+9999REMSYN070AAXX  29181 33415 32997 30604 10186 20078 40205 57002 80001 333 10236;EQDQ01  00002PRCP99
0112334150999992000042921004+49570+025600FM-12+032499999V0203601N002012200019N0100001N1+01461+00851102201ADDGF102991001001999999001011MD1310081+9999REMSYN060AAXX  29211 33415 42997 23602 10146 20085 40220 53008 80001;
0133334150999992000043000004+49570+025600FM-12+032499999V0200201N002012200019N0100001N1+01221+00741102281ADDGF102991001001999999001011MA1999999098351MD1210041+9999REMSYN066AAXX  30001 33415 42997 20202 10122 20074 39835 40228 52004 80001;
0138334150999992000043003004+49570+025600FM-12+032499999V0209999V001012200019N0100001N1+00831+00551102261ADDGA1001+999999999GF100991001001999999001001MD1810031+9999REMSYN070AAXX  30031 33415 42997 09901 10083 20055 40226 58003 555 20082 7000/;
0165334150999992000043006004+49570+025600FM-12+032499999V0209999C000012200019N0100001N1+01521+00981102221ADDAA199000091GF102991001001999999001011KA1999N+00821MD1310031+9999REMSYN070AAXX  30061 33415 32997 20000 10152 20098 40222 53003 80001 333 20082;EQDQ01  00002PRCP99
0112334150999992000043009004+49570+025600FM-12+032499999V0209999V001012200019N0100001N1+02241+00771102111ADDGF104991001001999999001011MD1810021+9999REMSYN060AAXX  30091 33415 42997 49901 10224 20077 40211 58002 80001;
0133334150999992000043012004+49570+025600FM-12+032499999V0209999V002012200019N0100001N1+02441+00701101991ADDGF104991001001999999001011MA1999999098241MD1710091+9999REMSYN066AAXX  30121 33415 42997 49902 10244 20070 39824 40199 57009 80001;
0112334150999992000043015004+49570+025600FM-12+032499999V0203201N002012200019N0100001N1+02441+00641101851ADDGF102991001001999999001011MD1710141+9999REMSYN060AAXX  30151 33415 42997 23202 10244 20064 40185 57014 80001;
0165334150999992000043018004+49570+025600FM-12+032499999V0203401N002012200019N0100001N1+02061+00681101831ADDAA199000091GF102991001001999999001011KA1999M+02501MD1710061+9999REMSYN070AAXX  30181 33415 32997 23402 10206 20068 40183 57006 80001 333 10250;EQDQ01  00002PRCP99
0122334150999992000043021004+49570+025600FM-12+032499999V0202501N002012200019N0100001N1+01381+00701101921ADDGA1001+999999999GF100991001001999999001001MD1410001+9999REMSYN054AAXX  30211 33415 42997 02502 10138 20070 40192 54000;
0143334150999992000050100004+49570+025600FM-12+032499999V0202701N003012200019N0100001N1+01101+00611101901ADDGA1001+999999999GF100991001001999999001001MA1999999097971MD1810071+9999REMSYN060AAXX  01001 33415 42997 02703 10110 20061 39797 40190 58007;
0128334150999992000050103004+49570+025600FM-12+032499999V0202701N003012200019N0100001N1+01121+00801101781ADDGF106991031051012501001011MD1710091+9999REMSYN076AAXX  01031 33415 42697 62703 10112 20080 40178 57009 83501 555 20110 7000/;
0165334150999992000050106004+49570+025600FM-12+032499999V0203201N002010120019N0100001N1+01681+01061101691ADDAA199000091GF107991051051012501031001KA1999N+01101MD1710031+9999REMSYN070AAXX  01061 33415 32697 73202 10168 20106 40169 57003 85530 333 20110;EQDQ01  00002PRCP99
0112334150999992000050109004+49570+025600FM-12+032499999V0203401N002019999999N0100001N1+02271+01231101561ADDGF105991021001999999031011MD1710031+9999REMSYN060AAXX  01091 33415 42997 53402 10227 20123 40156 57003 82031;
0178334150999992000050112004+49570+025600FM-12+032499999V0203601N008010090019N0100001N1+02361+01121101501ADDGA1051+009009029GF106991999011012501001001MA1999999097761MD1710061+9999REMSYN076AAXX  01121 33415 42697 63608 10236 20112 39776 40150 57006 85100 333 85830;EQDQ01+000052SCOTLC
0112334150999992000050115004+49570+025600FM-12+032499999V0203601N006012200019N0100001N1+02121+00941101491ADDGF102991021001999999031001MD1710041+9999REMSYN060AAXX  01151 33415 42997 23606 10212 20094 40149 57004 82030;
0181334150999992000050118004+49570+025600FM-12+032499999V0200201N004012200019N0100001N1+01411+00501101671ADDAA199000091GF103991999001999999031001KA1999M+02411MD1310071+9999REMSYN070AAXX  01181 33415 32997 30204 10141 20050 40167 53007 82030 333 10241;EQDQ01+000022SCOTLCQ02  00002PRCP99
0112334150999992000050121004+49570+025600FM-12+032499999V0203601N004012200019N0100001N1+01801+00501101801ADDGF102991021001999999031001MD1210091+9999REMSYN060AAXX  01211 33415 42997 23604 10180 20050 40180 52009 82030;
0143334150999992000050200004+49570+025600FM-12+032499999V0200201N003012200019N0100001N1+00721+00291102051ADDGA1001+999999999GF100991001001999999001001MA1999999098081MD1210201+9999REMSYN060AAXX  02001 33415 42997 00203 10072 20029 39808 40205 52020;
0209334150999992000050206004+49570+025600FM-12+032499999V0200501N004012200019N0100001N1+00661-00181102231ADDAA199000091GA1001+999999999GF100991001001999999001001IA1019IA2999-00109KA1120N+00211MD1210121+9999REMSYN080AAXX  02061 33415 32997 00504 10066 21018 40223 52012 333 20021 555 30101 52103;EQDQ01  00002PRCP99
0122334150999992000050209004+49570+025600FM-12+032499999V0200401N007012200019N0100001N1+01001-00571102311ADDGA1001+999999999GF100991001001999999001001MD1210121+9999REMSYN054AAXX  02091 33415 42997 00407 10100 21057 40231 52012;
0133334150999992000050212004+49570+025600FM-12+032499999V0200401N007012200019N0100001N1+01071-00741102371ADDGF101991011011008001001001MA1999999098411MD1210061+9999REMSYN066AAXX  02121 33415 42597 10407 10107 21074 39841 40237 52006 81100;
0122334150999992000050215004+49570+025600FM-12+032499999V0200201N005012200019N0200001N1+01021-00571102371ADDGA1001+999999999GF100991001001999999001001MD1410001+9999REMSYN054AAXX  02151 33415 42998 00205 10102 21057 40237 54000;
0175334150999992000050218004+49570+025600FM-12+032499999V0200401N003012200019N0100001N1+00691-00681102491ADDAA199000091GA1001+999999999GF100991001001999999001001KA1999M+01101MD1310071+9999REMSYN064AAXX  02181 33415 32997 00403 10069 21068 40249 53007 333 10110;EQDQ01  00002PRCP99
0122334150999992000050221004+49570+025600FM-12+032499999V0209999C000012200019N0100001N1+00181-00671102711ADDGA1001+999999999GF100991001001999999001001MD1210131+9999REMSYN054AAXX  02211 33415 42997 00000 10018 21067 40271 52013;
0143334150999992000050300004+49570+025600FM-12+032499999V0203601N001012200019N0100001N1-00021-00541102801ADDGA1001+999999999GF100991001001999999001001MA1999999098671MD1210061+9999REMSYN060AAXX  03001 33415 42997 03601 11002 21054 39867 40280 52006;
0128334150999992000050303004+49570+025600FM-12+032499999V0209999C000012200019N0100001N1-00211-00661102831ADDGF102991001001999999001011MD1410001+9999REMSYN076AAXX  03031 33415 42997 20000 11021 21066 40283 54000 80001 555 21021 7000/;
0199334150999992000050306004+49570+025600FM-12+032499999V0209999V002012200019N0100001N1+00671-00361102711ADDAA199000091GF103991001001999999001011IA1019IA2999-00609KA1120N-00211MD1310021+9999REMSYN086AAXX  03061 33415 32997 39902 10067 21036 40271 53002 80001 333 21021 555 30106 52108;EQDQ01  00002PRCP99
0112334150999992000050309004+49570+025600FM-12+032499999V0200201N003019999999N0100001N1+01041-00641102651ADDGF105991001001999999001011MD1410001+9999REMSYN060AAXX  03091 33415 42997 50203 10104 21064 40265 54000 80001;
0143334150999992000050312004+49570+025600FM-12+032499999V0209999V002012200019N0100001N1+01271-00671102521ADDGA1001+999999999GF100991001001999999001001MA1999999098581MD1810111+9999REMSYN060AAXX  03121 33415 42997 09902 10127 21067 39858 40252 58011;
0122334150999992000050315004+49570+025600FM-12+032499999V0200901N004012200019N0100001N1+01451-00571102351ADDGA1001+999999999GF100991001001999999001001MD1710131+9999REMSYN054AAXX  03151 33415 42997 00904 10145 21057 40235 57013;
0175334150999992000050318004+49570+025600FM-12+032499999V0200901N002012200019N0100001N1+01211-00671102351ADDAA199000091GA1001+999999999GF100991001001999999001001KA1999M+01491MD1710041+9999REMSYN064AAXX  03181 33415 32997 00902 10121 21067 40235 57004 333 10149;EQDQ01  00002PRCP99
0122334150999992000050321004+49570+025600FM-12+032499999V0209999C000012200019N0100001N1+00581-00481102451ADDGA1001+999999999GF100991001001999999001001MD1310011+9999REMSYN054AAXX  03211 33415 42997 00000 10058 21048 40245 53001;
0143334150999992000050400004+49570+025600FM-12+032499999V0209999C000012200019N0100001N1+00211-00471102481ADDGA1001+999999999GF100991001001999999001001MA1999999098411MD1810011+9999REMSYN060AAXX  04001 33415 42997 00000 10021 21047 39841 40248 58001;
0138334150999992000050403004+49570+025600FM-12+032499999V0209999C000012200019N0100001N1+00041-00391102491ADDGA1001+999999999GF100991001001999999001001MD1710021+9999REMSYN070AAXX  04031 33415 42997 00000 10004 21039 40249 57002 555 20003 7000/;
0209334150999992000050406004+49570+025600FM-12+032499999V0209999V002012200019N0100001N1+00781-00361102371ADDAA199000091GA1001+999999999GF100991001001999999001001IA1019IA2999-00309KA1120N+00031MD1710021+9999REMSYN080AAXX  04061 33415 32997 09902 10078 21036 40237 57002 333 20003 555 30103 52105;EQDQ01  00002PRCP99
0122334150999992000050409004+49570+025600FM-12+032499999V0201601N007012200019N0100001N1+01521-00091102201ADDGA1001+999999999GF100991001001999999001001MD1710061+9999REMSYN054AAXX  04091 33415 42997 01607 10152 21009 40220 57006;
0143334150999992000050412004+49570+025600FM-12+032499999V0202001N005012200019N0100001N1+01861-00021102011ADDGA1001+999999999GF100991001001999999001001MA1999999098171MD1710141+9999REMSYN060AAXX  04121 33415 42997 02005 10186 21002 39817 40201 57014;
0112334150999992000050415004+49570+025600FM-12+032499999V0209999V002012200019N0100001N1+01931-00121101821ADDGF102991001001999999001011MD1710171+9999REMSYN060AAXX  04151 33415 42997 29902 10193 21012 40182 57017 80001;
0165334150999992000050418004+49570+025600FM-12+032499999V0209999V001012200019N0100001N1+01601-00171101861ADDAA199000091GF102991001001999999001011KA1999M+01951MD1410001+9999REMSYN070AAXX  04181 33415 32997 29901 10160 21017 40186 54000 80001 333 10195;EQDQ01  00002PRCP99
0122334150999992000050421004+49570+025600FM-12+032499999V0209999V001012200019N0100001N1+01001-00051101891ADDGA1001+999999999GF100991001001999999001001MD1810051+9999REMSYN054AAXX  04211 33415 42997 09901 10100 21005 40189 58005;
0143334150999992000050500004+49570+025600FM-12+032499999V0209999C000012200019N0100001N1+00591-00041101881ADDGA1001+999999999GF100991001001999999001001MA1999999097891MD1710061+9999REMSYN060AAXX  05001 33415 42997 00000 10059 21004 39789 40188 57006;
0138334150999992000050503004+49570+025600FM-12+032499999V0209999C000012200019N0100001N1+00421-00071101931ADDGA1001+999999999GF100991001001999999001001MD1310011+9999REMSYN070AAXX  05031 33415 42997 00000 10042 21007 40193 53001 555 20041 7000/;
0209334150999992000050506004+49570+025600FM-12+032499999V0209999C000012200019N0100001N1+01091+00251101831ADDAA199000091GA1001+999999999GF100991001001999999001001IA1019IA2999+00109KA1120N+00411MD1410001+9999REMSYN080AAXX  05061 33415 32997 00000 10109 20025 40183 54000 333 20041 555 30001 52101;EQDQ01  00002PRCP99
0112334150999992000050509004+49570+025600FM-12+032499999V0200601N003012200019N0100001N1+01881+00501101701ADDGF105991021011012501001011MD1810011+9999REMSYN060AAXX  05091 33415 42697 50603 10188 20050 40170 58001 82101;
0133334150999992000050512004+49570+025600FM-12+032499999V0203301N004010120019N0100001N1+02111+00321101641ADDGF106991061011012501001001MA1999999097861MD1710031+9999REMSYN066AAXX  05121 33415 42697 63304 10211 20032 39786 40164 57003 86100;
0112334150999992000050515004+49570+025600FM-12+032499999V0203601N005010120019N0100001N1+02051+00131101641ADDGF105991051011012501001001MD1710021+9999REMSYN060AAXX  05151 33415 42697 53605 10205 20013 40164 57002 85100;
0165334150999992000050518004+49570+025600FM-12+032499999V0203301N003012200019N0100001N1+01691+00271101681ADDAA199000091GF102991001001999999001011KA1999M+02221MD1410001+9999REMSYN070AAXX  05181 33415 32997 23303 10169 20027 40168 54000 80001 333 10222;EQDQ01  00002PRCP99
0122334150999992000050521004+49570+025600FM-12+032499999V0203301N001012200019N0100001N1+01151+00301101821ADDGA1001+999999999GF100991001001999999001001MD1310071+9999REMSYN054AAXX  05211 33415 42997 03301 10115 20030 40182 53007;
0143334150999992000050600004+49570+025600FM-12+032499999V0203401N001012200019N0100001N1+00681+00101101911ADDGA1001+999999999GF100991001001999999001001MA1999999097931MD1210021+9999REMSYN060AAXX  06001 33415 42997 03401 10068 20010 39793 40191 52002;
0128334150999992000050603004+49570+025600FM-12+032499999V0202901N002012200019N0100001N1+00551+00231101911ADDGF102991001001999999001011MD1810031+9999REMSYN076AAXX  06031 33415 42997 22902 10055 20023 40191 58003 80001 555 20054 7000/;
0209334150999992000050606004+49570+025600FM-12+032499999V0203301N001012200019N0100001N1+01421+00841101781ADDAA199000091GA1001+999999999GF100991001001999999001001IA1019IA2999+00109KA1120N+00541MD1310011+9999REMSYN080AAXX  06061 33415 32997 03301 10142 20084 40178 53001 333 20054 555 30001 52100;EQDQ01  00002PRCP99
0112334150999992000050609004+49570+025600FM-12+032499999V0203601N002012200019N0100001N1+02021+00511101681ADDGF103991021011012501001011MD1210031+9999REMSYN060AAXX  06091 33415 42697 33602 10202 20051 40168 52003 82101;
0133334150999992000050612004+49570+025600FM-12+032499999V0202901N003012200019N0100001N1+02131+00171101601ADDGF103991021011012501001011MA1999999097821MD1810061+9999REMSYN066AAXX  06121 33415 42697 32903 10213 20017 39782 40160 58006 82101;
0112334150999992000050615004+49570+025600FM-12+032499999V0202901N006012200019N0100001N1+02121+00171101501ADDGF105991031011012501001011MD1710101+9999REMSYN060AAXX  06151 33415 42697 52906 10212 20017 40150 57010 83101;
0165334150999992000050618004+49570+025600FM-12+032499999V0203201N005019999999N0100001N1+01741+00211101541ADDAA199000091GF107991001001999999001011KA1999M+02181MD1710021+9999REMSYN070AAXX  06181 33415 32997 73205 10174 20021 40154 57002 80001 333 10218;EQDQ01  00002PRCP99
0112334150999992000050621004+49570+025600FM-12+032499999V0203201N004019999999N0100001N1+01341+00361101671ADDGF106991001001999999001011MD1310081+9999REMSYN060AAXX  06211 33415 42997 63204 10134 20036 40167 53008 80001;
0133334150999992000050700004+49570+025600FM-12+032499999V0203201N004012200019N0100001N1+01141+00411101741ADDGF103991001001999999001011MA1999999097821MD1210041+9999REMSYN066AAXX  07001 33415 42997 33204 10114 20041 39782 40174 52004 80001;
0128334150999992000050703004+49570+025600FM-12+032499999V0203201N003012200019N0100001N1+00901+00291101871ADDGF102991001001999999001011MD1210101+9999REMSYN076AAXX  07031 33415 42997 23203 10090 20029 40187 52010 80001 555 20089 7000/;
0175334150999992000050706004+49570+025600FM-12+032499999V0203601N006012200019N0100001N1+01301+00361102021ADDAA199000091GF102991001001999999001011KA1120N+00891MD1210191+9999REMSYN080AAXX  07061 33415 32997 23606 10130 20036 40202 52019 80001 333 20089 555 52005;EQDQ01  00002PRCP99
0112334150999992000050709004+49570+025600FM-12+032499999V0203601N008012200019N0100001N1+01701+00191102101ADDGF102991021011012501001001MD1210141+9999REMSYN060AAXX  07091 33415 42697 23608 10170 20019 40210 52014 82100;
0143334150999992000050712004+49570+025600FM-12+032499999V0203601N008012200019N0100001N1+01771-00191102131ADDGA1001+999999999GF100991001001999999001001MA1999999098281MD1210031+9999REMSYN060AAXX  07121 33415 42997 03608 10177 21019 39828 40213 52003;
0122334150999992000050715004+49570+025600FM-12+032499999V0203601N005012200019N0100001N1+01731-00191102131ADDGA1001+999999999GF100991001001999999001001MD1410001+9999REMSYN054AAXX  07151 33415 42997 03605 10173 21019 40213 54000;
0175334150999992000050718004+49570+025600FM-12+032499999V0203601N003012200019N0100001N1+01231-00191102381ADDAA199000091GA1001+999999999GF100991001001999999001001KA1999M+01831MD1310171+9999REMSYN064AAXX  07181 33415 32997 03603 10123 21019 40238 53017 333 10183;EQDQ01  00002PRCP99
0122334150999992000050721004+49570+025600FM-12+032499999V0203601N002012200019N0100001N1+00931+00001102441ADDGA1001+999999999GF100991001001999999001001MD1210021+9999REMSYN054AAXX  07211 33415 42997 03602 10093 20000 40244 52002;
0143334150999992000050800004+49570+025600FM-12+032499999V0203601N001012200019N0100001N1+00181+00151102561ADDGA1001+999999999GF100991001001999999001001MA1999999098571MD1210101+9999REMSYN060AAXX  08001 33415 42997 03601 10018 20015 39857 40256 52010;
0138334150999992000050803004+49570+025600FM-12+032499999V0209999C000012200019N0100001N1+00331-00181102641ADDGA1001+999999999GF100991001001999999001001MD1410001+9999REMSYN070AAXX  08031 33415 42997 00000 10033 21018 40264 54000 555 20032 7000/;
0209334150999992000050806004+49570+025600FM-12+032499999V0201401N006012200019N0100001N1+01031+00401102611ADDAA199000091GA1001+999999999GF100991001001999999001001IA1019IA2999-00109KA1120N+00321MD1310081+9999REMSYN080AAXX  08061 33415 32997 01406 10103 20040 40261 53008 333 20032 555 30101 52103;EQDQ01  00002PRCP99
0112334150999992000050809004+49570+025600FM-12+032499999V0201601N006012200019N0100001N1+01541+00041102481ADDGF102991001001999999001011MD1810061+9999REMSYN060AAXX  08091 33415 42997 21606 10154 20004 40248 58006 80001;
0133334150999992000050812004+49570+025600FM-12+032499999V0201601N004012200019N0100001N1+01811-00051102361ADDGF102991001001999999001011MA1999999098511MD1710081+9999REMSYN066AAXX  08121 33415 42997 21604 10181 21005 39851 40236 57008 80001;
0112334150999992000050815004+49570+025600FM-12+032499999V0201401N003019999999N0100001N1+01861-00171102231ADDGF106991001001999999001011MD1710131+9999REMSYN060AAXX  08151 33415 42997 61403 10186 21017 40223 57013 80001;
0165334150999992000050818004+49570+025600FM-12+032499999V0201401N003012200019N0100001N1+01521+00091102211ADDAA199000091GF103991001001999999001011KA1999M+01921MD1710061+9999REMSYN070AAXX  08181 33415 32997 31403 10152 20009 40221 57006 80001 333 10192;EQDQ01  00002PRCP99
0112334150999992000050821004+49570+025600FM-12+032499999V0209999C000012200019N0100001N1+00871+00171102281ADDGF102991001001999999001011MD1710011+9999REMSYN060AAXX  08211 33415 42997 20000 10087 20017 40228 57001 80001;
0133334150999992000050900004+49570+025600FM-12+032499999V0209999C000012200019N0100001N1+00541+00021102371ADDGF102991001001999999001011MA1999999098341MD1310031+9999REMSYN066AAXX  09001 33415 42997 20000 10054 20002 39834 40237 53003 80001;
0128334150999992000050903004+49570+025600FM-12+032499999V0209999C000012200019N0100001N1+00321+00031102401ADDGF102991001001999999001011MD1410001+9999REMSYN076AAXX  09031 33415 42997 20000 10032 20003 40240 54000 80001 555 20032 7000/;
0199334150999992000050906004+49570+025600FM-12+032499999V0201401N002012200019N0100001N1+01301+00251102311ADDAA199000091GF102991001001999999001011IA1019IA2999-00209KA1120N+00291MD1310061+9999REMSYN086AAXX  09061 33415 32997 21402 10130 20025 40231 53006 80001 333 20029 555 30102 52103;EQDQ01  00002PRCP99
0133334150999992000050912004+49570+025600FM-12+032499999V0200901N003012200019N0100001N1+02211+00001102041ADDGF102991001001999999001011MA1999999098261MD1710091+9999REMSYN066AAXX  09121 33415 42997 20903 10221 20000 39826 40204 57009 80001;
0112334150999992000050915004+49570+025600FM-12+032499999V0203401N003012200019N0200001N1+02401+00091101901ADDGF103991001001999999001011MD1710121+9999REMSYN060AAXX  09151 33415 42998 33403 10240 20009 40190 57012 80001;
0165334150999992000050918004+49570+025600FM-12+032499999V0200201N002012200019N0200001N1+02031+00321101931ADDAA199000091GF104991001001999999001011KA1999M+02401MD1710021+9999REMSYN070AAXX  09181 33415 32998 40202 10203 20032 40193 57002 80001 333 10240;EQDQ01  00002PRCP99
0112334150999992000050921004+49570+025600FM-12+032499999V0203601N002012200019N0100001N1+01301+00301102031ADDGF102991001001999999001011MD1410001+9999REMSYN060AAXX  09211 33415 42997 23602 10130 20030 40203 54000 80001;
0129334150999992000051000004+49570+025600FM-12+032499999V0209999C000012200019N0100001N1+00841+00231102041ADDGA1001+999999999GF100991001001999999001001MA1999999098121REMSYN060AAXX  10001 33415 42997 00000 10084 20023 39812 40204 80001;
0128334150999992000051003004+49570+025600FM-12+032499999V0209999C000012200019N0200001N1+00921+00321102011ADDGF103991001001999999001011MD1810081+9999REMSYN076AAXX  10031 33415 42998 30000 10092 20032 40201 58008 80001 555 20084 7000/;
0199334150999992000051006004+49570+025600FM-12+032499999V0209999C000012200019N0200001N1+01601+00611101871ADDAA199000091GF103991001001999999001011IA1019IA2999+00509KA1120N+00841MD1710051+9999REMSYN086AAXX  10061 33415 32998 30000 10160 20061 40187 57005 80001 333 20084 555 30005 52004;EQDQ01  00002PRCP99
0112334150999992000051009004+49570+025600FM-12+032499999V0209999V001012200019N0100001N1+02251+00811101711ADDGF106991011011008001001011MD1710061+9999REMSYN060AAXX  10091 33415 42597 69901 10225 20081 40171 57006 81101;
0133334150999992000051012004+49570+025600FM-12+032499999V0209999V002010120019N0100001N1+02351+00901101521ADDGF107991051031012501001011MA1999999097781MD1710171+9999REMSYN066AAXX  10121 33415 42697 79902 10235 20090 39778 40152 57017 85301;
0140334150999992000051015004+49570+025600FM-12+032499999V0200201N006010120019N0100001N1+01581+01311101661ADDAY191031AY281031GF107991061031012501001011MD1310041+9999MW1951REMSYN066AAXX  10151 33415 41697 70206 10158 20131 40166 53004 79598 86301;
0180334150999992000051018004+49570+025600FM-12+032499999V0209999V002010120019N0100001N1+01631+01461101591ADDAA112011991AY191061AY281061GF107991051031012501001011KA1999M+02411MD1810071+9999MW1021REMSYN082AAXX  10181 33415 11697 79902 10163 20146 40159 58007 60122 70298 85301 333 10241;
0140334150999992000051021004+49570+025600FM-12+032499999V0202701N005010120019N0100001N1+01461+01311101621ADDAY181031AY221031GF108991081031012501999999MD1310011+9999MW1801REMSYN066AAXX  10211 33415 41697 82705 10146 20131 40162 53001 78082 883//;
0161334150999992000051100004+49570+025600FM-12+032499999V0209999C000012200019N0100001N1+01411+01291101511ADDAY181061AY221061GF104991041031012501031999MA1999999097681MD1810081+9999MW1021REMSYN072AAXX  11001 33415 41697 40000 10141 20129 39768 40151 58008 70282 8433/;
0156334150999992000051103004+49570+025600FM-12+032499999V0209999C000010360019N0040001N1+01401+01341101491ADDAY121031AY221031GF108991041031012501031999MD1710041+9999MW1101REMSYN082AAXX  11031 33415 41696 80000 10140 20134 40149 57004 71022 8433/ 555 20139 7015/;
0152334150999992000051106004+49570+025600FM-12+032499999V0209999V001012200019N0100001N1+01611+01281101461ADDAA112003091GF102991021001999999031001KA1999N+01391MD1710011+9999REMSYN076AAXX  11061 33415 12997 29901 10161 20128 40146 57001 60032 82030 333 20139;
0112334150999992000051109004+49570+025600FM-12+032499999V0202901N002010120019N0100001N1+01931+01311101431ADDGF105991051011012501001001MD1310011+9999REMSYN060AAXX  11091 33415 42697 52902 10193 20131 40143 53001 85100;
0133334150999992000051112004+49570+025600FM-12+032499999V0202901N004010120019N0100001N1+02191+01221101271ADDGF106991061011012501001001MA1999999097521MD1810121+9999REMSYN066AAXX  11121 33415 42697 62904 10219 20122 39752 40127 58012 86100;
0112334150999992000051115004+49570+025600FM-12+032499999V0202901N007012200019N0100001N1+02251+01071101151ADDGF104991041011012501001001MD1710111+9999REMSYN060AAXX  11151 33415 42697 42907 10225 20107 40115 57011 84100;
0165334150999992000051118004+49570+025600FM-12+032499999V0202501N004012200019N0100001N1+01861+01231101161ADDAA199000091GF102991001001999999001011KA1999M+02271MD1710041+9999REMSYN070AAXX  11181 33415 32997 22504 10186 20123 40116 57004 80001 333 10227;EQDQ01  00002PRCP99
0131334150999992000051121004+49570+025600FM-12+032499999V02099999999992200019N0100001N1+01581+01251101501ADDGF102991999001999999031001MD1710101+9999REMSYN060AAXX  11211 33415 42997 25005 10158 20125 40150 57010 81030;EQDQ01+000012SCOTLC
0133334150999992000051200004+49570+025600FM-12+032499999V0202501N005012200019N0100001N1+01561+01231101101ADDGF102991021001999999031001MA1999999097271MD1710061+9999REMSYN066AAXX  12001 33415 42997 22505 10156 20123 39727 40110 57006 82030;
0128334150999992000051203004+49570+025600FM-12+032499999V0202901N006019999999N0100001N1+01401+01021101201ADDGF105991051001999999031001MD1310071+9999REMSYN076AAXX  12031 33415 42997 52906 10140 20102 40120 53007 85030 555 20139 7000/;
0187334150999992000051206004+49570+025600FM-12+032499999V0203201N006010072019N0100001N1+01271+00761101411ADDAA199000091GA1061+007209059GF106991061051008001001001KA1120N+01251MD1210191+9999REMSYN076AAXX  12061 33415 32597 63206 10127 20076 40141 52019 86500 333 20125 86624;EQDQ01  00002PRCP99
0112334150999992000051209004+49570+025600FM-12+032499999V0203201N006012200019N0100001N1+01331+00321101661ADDGF103991001001999999001011MD1210241+9999REMSYN060AAXX  12091 33415 42997 33206 10133 20032 40166 52024 80001;
0133334150999992000051212004+49570+025600FM-12+032499999V0202901N007019999999N0100001N1+01451-00141101711ADDGF105991001001999999001011MA1999999097831MD1210061+9999REMSYN066AAXX  12121 33415 42997 52907 10145 21014 39783 40171 52006 80001;
0122334150999992000051215004+49570+025600FM-12+032499999V0203101N009012200019N0100001N1+01401-00541101731ADDGA1001+999999999GF100991001001999999001001MD1210021+9999REMSYN054AAXX  12151 33415 42997 03109 10140 21054 40173 52002;
0175334150999992000051218004+49570+025600FM-12+032499999V0203201N006012200019N0100001N1+01041-00541101941ADDAA199000091GA1001+999999999GF100991001001999999001001KA1999M+01491MD1210151+9999REMSYN064AAXX  12181 33415 32997 03206 10104 21054 40194 52015 333 10149;EQDQ01  00002PRCP99
0122334150999992000051221004+49570+025600FM-12+032499999V0203101N004012200019N0100001N1+00661-00431102151ADDGA1001+999999999GF100991001001999999001001MD1210151+9999REMSYN054AAXX  12211 33415 42997 03104 10066 21043 40215 52015;
0143334150999992000051300004+49570+025600FM-12+032499999V0203001N006012200019N0100001N1+00371-00291102221ADDGA1001+999999999GF100991001001999999001001MA1999999098171MD1210021+9999REMSYN060AAXX  13001 33415 42997 03006 10037 21029 39817 40222 52002;
0138334150999992000051303004+49570+025600FM-12+032499999V0203001N004012200019N0100001N1+00241-00161102201ADDGA1001+999999999GF100991001001999999001001MD1210071+9999REMSYN070AAXX  13031 33415 42997 03004 10024 21016 40220 52007 555 20023 7000/;
0209334150999992000051306004+49570+025600FM-12+032499999V0203301N004012200019N0100001N1+00531-00051102491ADDAA199000091GA1001+999999999GF100991001001999999001001IA1019IA2999+00009KA1120N+00231MD1210151+9999REMSYN080AAXX  13061 33415 32997 03304 10053 21005 40249 52015 333 20023 555 30000 52100;EQDQ01  00002PRCP99
0122334150999992000051309004+49570+025600FM-12+032499999V0202901N006012200019N0100001N1+00921-00301102411ADDGA1001+999999999GF100991001001999999001001MD1210051+9999REMSYN054AAXX  13091 33415 42997 02906 10092 21030 40241 52005;
0143334150999992000051312004+49570+025600FM-12+032499999V0202701N007012200019N0100001N1+01221-00331102321ADDGA1001+999999999GF100991001001999999001001MA1999999098391MD1810051+9999REMSYN060AAXX  13121 33415 42997 02707 10122 21033 39839 40232 58005;
0122334150999992000051315004+49570+025600FM-12+032499999V0202901N007012200019N0100001N1+01341-00271102231ADDGA1001+999999999GF100991001001999999001001MD1710071+9999REMSYN054AAXX  13151 33415 42997 02907 10134 21027 40223 57007;
0165334150999992000051318004+49570+025600FM-12+032499999V0202901N006012200019N0100001N1+01141-00121102301ADDAA199000091GF102991001001999999001011KA1999M+01351MD1310041+9999REMSYN070AAXX  13181 33415 32997 22906 10114 21012 40230 53004 80001 333 10135;EQDQ01  00002PRCP99
0112334150999992000051321004+49570+025600FM-12+032499999V0202701N004012200019N0100001N1+00731-00141102361ADDGF102991001001999999001011MD1410001+9999REMSYN060AAXX  13211 33415 42997 22704 10073 21014 40236 54000 80001;
0133334150999992000051400004+49570+025600FM-12+032499999V0202701N003012200019N0100001N1+00621-00031102331ADDGF102991001001999999001011MA1999999098321MD1810041+9999REMSYN066AAXX  14001 33415 42997 22703 10062 21003 39832 40233 58004 80001;
0128334150999992000051403004+49570+025600FM-12+032499999V0202701N005019999999N0100001N1+00531+00041102301ADDGF105991001001999999001011MD1710041+9999REMSYN076AAXX  14031 33415 42997 52705 10053 20004 40230 57004 80001 555 20052 7000/;
0199334150999992000051406004+49570+025600FM-12+032499999V0202901N007019999999N0100001N1+00931+00191102221ADDAA199000091GF105991001001999999001011IA1019IA2999+00309KA1120N+00521MD1710021+9999REMSYN086AAXX  14061 33415 32997 52907 10093 20019 40222 57002 80001 333 20052 555 30003 52001;EQDQ01  00002PRCP99
0112334150999992000051409004+49570+025600FM-12+032499999V0202901N008012200019N0100001N1+01361+00401102151ADDGF106991021011012501001011MD1410001+9999REMSYN060AAXX  14091 33415 42697 62908 10136 20040 40215 54000 82101;
0133334150999992000051412004+49570+025600FM-12+032499999V0202701N008012200019N0100001N1+01761+00431101991ADDGF103991031011012501001001MA1999999098151MD1810111+9999REMSYN066AAXX  14121 33415 42697 32708 10176 20043 39815 40199 58011 83100;
0112334150999992000051415004+49570+025600FM-12+032499999V0202901N006010120019N0100001N1+01881+00451101851ADDGF105991051011012501001001MD1710121+9999REMSYN060AAXX  14151 33415 42697 52906 10188 20045 40185 57012 85100;
0165334150999992000051418004+49570+025600FM-12+032499999V0202701N006010120019N0100001N1+01651+00611101851ADDAA199000091GF105991051051012501001001KA1999M+01901MD1710021+9999REMSYN070AAXX  14181 33415 32697 52706 10165 20061 40185 57002 85500 333 10190;EQDQ01  00002PRCP99
0112334150999992000051421004+49570+025600FM-12+032499999V0202701N006012200019N0100001N1+01221+00501101941ADDGF102991001001999999011999MD1310021+9999REMSYN060AAXX  14211 33415 42997 22706 10122 20050 40194 53002 8001/;
0133334150999992000051500004+49570+025600FM-12+032499999V0202901N007019999999N0100001N1+01121+00621101961ADDGF105991021001999999031011MA1999999098031MD1410001+9999REMSYN066AAXX  15001 33415 42997 52907 10112 20062 39803 40196 54000 82031;
0128334150999992000051503004+49570+025600FM-12+032499999V0202901N006012200019N0100001N1+01001+00681101981ADDGF103991021001999999031011MD1310011+9999REMSYN076AAXX  15031 33415 42997 32906 10100 20068 40198 53001 82031 555 20098 7000/;
0165334150999992000051506004+49570+025600FM-12+032499999V0203201N007019999999N0100001N1+01251+00761102051ADDAA199000091GF105991001001999999001011KA1999N+00981MD1210101+9999REMSYN070AAXX  15061 33415 32997 53207 10125 20076 40205 52010 80001 333 20098;EQDQ01  00002PRCP99
0138334150999992000051509004+49570+025600FM-12+032499999V0203201N007010084019N0100001N1+01701+00821102111ADDGA1051+008409029GF105991051011008001001001MD1210121+9999REMSYN070AAXX  15091 33415 42597 53207 10170 20082 40211 52012 85100 333 85828;
0112334150999992000051515004+49570+025600FM-12+032499999V0203201N008012200019N0100001N1+02161+00701101981ADDGF102991001001999999001011MD1810081+9999REMSYN060AAXX  15151 33415 42997 23208 10216 20070 40198 58008 80001;
0165334150999992000051518004+49570+025600FM-12+032499999V0202501N003012200019N0100001N1+01761+00881101901ADDAA199000091GF103991021001999999031011KA1999M+02171MD1710111+9999REMSYN070AAXX  15181 33415 32997 32503 10176 20088 40190 57011 82031 333 10217;EQDQ01  00002PRCP99
0112334150999992000051521004+49570+025600FM-12+032499999V0202501N004012200019N0100001N1+01381+00761101911ADDGF102991021001999999031001MD1710041+9999REMSYN060AAXX  15211 33415 42997 22504 10138 20076 40191 57004 82030;
0143334150999992000051600004+49570+025600FM-12+032499999V0202701N005012200019N0100001N1+01211+00741101941ADDGA1001+999999999GF100991001001999999001001MA1999999098031MD1410001+9999REMSYN060AAXX  16001 33415 42997 02705 10121 20074 39803 40194 54000;
0128334150999992000051603004+49570+025600FM-12+032499999V0202701N005012200019N0100001N1+01171+00821101781ADDGF103991001001999999001011MD1810151+9999REMSYN076AAXX  16031 33415 42997 32705 10117 20082 40178 58015 80001 555 20116 7000/;
0165334150999992000051606004+49570+025600FM-12+032499999V0202701N004019999999N0100001N1+01621+00991101701ADDAA199000091GF105991001001999999001011KA1999N+01161MD1710021+9999REMSYN070AAXX  16061 33415 32997 52704 10162 20099 40170 57002 80001 333 20116;EQDQ01  00002PRCP99
0112334150999992000051609004+49570+025600FM-12+032499999V0202901N007012200019N0200001N1+02311+00771101621ADDGF103991001001999999001011MD1310021+9999REMSYN060AAXX  16091 33415 42998 32907 10231 20077 40162 53002 80001;
0133334150999992000051612004+49570+025600FM-12+032499999V0202901N009012200019N0200001N1+02511+00361101531ADDGF103991001001999999001011MA1999999097801MD1810081+9999REMSYN066AAXX  16121 33415 42998 32909 10251 20036 39780 40153 58008 80001;
0112334150999992000051615004+49570+025600FM-12+032499999V0202901N007012200019N0200001N1+02511+00341101491ADDGF103991001001999999001011MD1710041+9999REMSYN060AAXX  16151 33415 42998 32907 10251 20034 40149 57004 80001;
0165334150999992000051618004+49570+025600FM-12+032499999V0202901N005019999999N0200001N1+02081+00531101541ADDAA199000091GF106991001001999999001011KA1999M+02581MD1410001+9999REMSYN070AAXX  16181 33415 32998 62905 10208 20053 40154 54000 80001 333 10258;EQDQ01  00002PRCP99
0112334150999992000051621004+49570+025600FM-12+032499999V0203101N002012200019N0100001N1+01531+00651101631ADDGF104991001001999999001011MD1310021+9999REMSYN060AAXX  16211 33415 42997 43102 10153 20065 40163 53002 80001;
0133334150999992000051700004+49570+025600FM-12+032499999V0209999V001012200019N0100001N1+01321+00701101721ADDGF104991001001999999001011MA1999999097831MD1210051+9999REMSYN066AAXX  17001 33415 42997 49901 10132 20070 39783 40172 52005 80001;
0128334150999992000051703004+49570+025600FM-12+032499999V0209999C000019999999N0100001N1+01001+00611101781ADDGF106991001001999999001011MD1210021+9999REMSYN076AAXX  17031 33415 42997 60000 10100 20061 40178 52002 80001 555 20100 7000/;
0165334150999992000051706004+49570+025600FM-12+032499999V0201401N003012200019N0100001N1+01651+00731101741ADDAA199000091GF103991001001999999001011KA1999N+01001MD1210051+9999REMSYN070AAXX  17061 33415 32997 31403 10165 20073 40174 52005 80001 333 20100;EQDQ01  00002PRCP99
0112334150999992000051709004+49570+025600FM-12+032499999V0209999V001012200019N0100001N1+02161+00781101621ADDGF103991001001999999001011MD1810051+9999REMSYN060AAXX  17091 33415 42997 39901 10216 20078 40162 58005 80001;
0133334150999992000051712004+49570+025600FM-12+032499999V0201101N003010120019N0100001N1+02351+00551101501ADDGF106991051011012501001011MA1999999097761MD1710091+9999REMSYN066AAXX  17121 33415 42697 61103 10235 20055 39776 40150 57009 85101;
0112334150999992000051715004+49570+025600FM-12+032499999V0209999V001010120019N0100001N1+02521+00551101281ADDGF106991061021012501001001MD1710201+9999REMSYN060AAXX  17151 33415 42697 69901 10252 20055 40128 57020 86200;
0165334150999992000051718004+49570+025600FM-12+032499999V0201101N003012200019N0100001N1+02161+00701101231ADDAA199000091GF102991001001999999001011KA1999M+02521MD1710081+9999REMSYN070AAXX  17181 33415 32997 21103 10216 20070 40123 57008 80001 333 10252;EQDQ01  00002PRCP99
0112334150999992000051721004+49570+025600FM-12+032499999V0201101N002012200019N0100001N1+02041+01111101201ADDGF102991001001999999001011MD1710021+9999REMSYN060AAXX  17211 33415 42997 21102 10204 20111 40120 57002 80001;
0133334150999992000051800004+49570+025600FM-12+032499999V0201101N002012200019N0100001N1+01521+00941101201ADDGF102991001001999999001011MA1999999097371MD1710091+9999REMSYN066AAXX  18001 33415 42997 21102 10152 20094 39737 40120 57009 80001;
0128334150999992000051803004+49570+025600FM-12+032499999V0209999C000019999999N0100001N1+01081+00681101171ADDGF106991041001999999031011MD1710091+9999REMSYN076AAXX  18031 33415 42997 60000 10108 20068 40117 57009 84031 555 20108 7000/;
0165334150999992000051806004+49570+025600FM-12+032499999V0201601N003019999999N0100001N1+01581+00921101091ADDAA199000091GF107991051001999999031011KA1999N+01081MD1710021+9999REMSYN070AAXX  18061 33415 32997 71603 10158 20092 40109 57002 85031 333 20108;EQDQ01  00002PRCP99
0112334150999992000051809004+49570+025600FM-12+032499999V0201801N003012200019N0100001N1+02391+01061100911ADDGF101991011001999999031001MD1710061+9999REMSYN060AAXX  18091 33415 42997 11803 10239 20106 40091 57006 81030;
0133334150999992000051812004+49570+025600FM-12+032499999V0202301N003010120019N0100001N1+02691+00821100751ADDGF106991061031012501001001MA1999999097071MD1710131+9999REMSYN066AAXX  18121 33415 42697 62303 10269 20082 39707 40075 57013 86300;
0140334150999992000051815004+49570+025600FM-12+032499999V0201801N006010120019N0100001N1+02391+00731100691ADDAY191031AY221031GF107991071031012501001001MD1710091+9999MW1171REMSYN066AAXX  18151 33415 41697 71806 10239 20073 40069 57009 71792 87300;
0193334150999992000051818004+49570+025600FM-12+032499999V0201101N004010360019N0100001N1+01921+00941100771ADDAA199000091AY191061AY221061GF106991031031012501031001KA1999M+02701MD1310031+9999MW1021REMSYN076AAXX  18181 33415 31697 61104 10192 20094 40077 53003 70292 83330 333 10270;EQDQ01  00002PRCP99
0112334150999992000051821004+49570+025600FM-12+032499999V0201101N003012200019N0100001N1+01491+00881100831ADDGF103991031001999999031001MD1810011+9999REMSYN060AAXX  18211 33415 42997 31103 10149 20088 40083 58001 83030;
0133334150999992000051900004+49570+025600FM-12+032499999V0201401N002012200019N0100001N1+01351+00941100751ADDGF102991021001999999031001MA1999999096911MD1710091+9999REMSYN066AAXX  19001 33415 42997 21402 10135 20094 39691 40075 57009 82030;
0128334150999992000051903004+49570+025600FM-12+032499999V0200901N001012200019N0100001N1+01081+00811100731ADDGF103991031051012501001001MD1710061+9999REMSYN076AAXX  19031 33415 42697 30901 10108 20081 40073 57006 83500 555 20107 7000/;
0165334150999992000051906004+49570+025600FM-12+032499999V0209999V002012200019N0100001N1+01861+01061100611ADDAA199000091GF102991021011012501001001KA1999N+01071MD1710011+9999REMSYN070AAXX  19061 33415 32697 29902 10186 20106 40061 57001 82100 333 20107;EQDQ01  00002PRCP99
0112334150999992000051909004+49570+025600FM-12+032499999V0202301N007010120019N0100001N1+02491+00811100511ADDGF105991051031012501001001MD1710021+9999REMSYN060AAXX  19091 33415 42697 52307 10249 20081 40051 57002 85300;
0133334150999992000051912004+49570+025600FM-12+032499999V0202701N004010120019N0100001N1+02691+00621100341ADDGF105991051011012501001001MA1999999096681MD1710141+9999REMSYN066AAXX  19121 33415 42697 52704 10269 20062 39668 40034 57014 85100;
0112334150999992000051915004+49570+025600FM-12+032499999V0202901N005010120019N0100001N1+02301+00781100311ADDGF107991051031012501031001MD1710081+9999REMSYN060AAXX  19151 33415 42697 72905 10230 20078 40031 57008 85330;
0165334150999992000051918004+49570+025600FM-12+032499999V0201401N003010360019N0100001N1+01941+01071100361ADDAA199000091GF107991041031012501031001KA1999M+02721MD1310011+9999REMSYN070AAXX  19181 33415 32697 71403 10194 20107 40036 53001 84330 333 10272;EQDQ01  00002PRCP99
0112334150999992000051921004+49570+025600FM-12+032499999V0203401N002012200019N0100001N1+01621+01181100411ADDGF106991021051012501001011MD1210011+9999REMSYN060AAXX  19211 33415 42697 63402 10162 20118 40041 52001 82501;
0133334150999992000052000004+49570+025600FM-12+032499999V0202701N007012200019N0100001N1+01411+01061100541ADDGF103991001001999999001011MA1999999096721MD1210101+9999REMSYN066AAXX  20001 33415 42997 32707 10141 20106 39672 40054 52010 80001;
0156334150999992000052003004+49570+025600FM-12+032499999V0202701N003010360019N0100001N1+01351+01171100481ADDAY181031AY211031GF107991041031012501031001MD1810071+9999MW1801REMSYN082AAXX  20031 33415 42697 72703 10135 20117 40048 58007 78081 84330 555 20134 7990/;
0202334150999992000052006004+49570+025600FM-12+032499999V0202901N008010063019N0100001N1+01401+01181100511ADDAA112000791AY181061AY211061GA1051+006309099GF107991051031008001031001KA1120N+01301MD1310041+9999MW1251REMSYN088AAXX  20061 33415 11597 72908 10140 20118 40051 53004 69902 72581 85330 333 20130 85921;
0138334150999992000052009004+49570+025600FM-12+032499999V0202701N007010060019N0100001N1+01411+01061100631ADDGA1051+006009099GF107991051031008001031001MD1210121+9999REMSYN070AAXX  20091 33415 42597 72707 10141 20106 40063 52012 85330 333 85920;
0159334150999992000052012004+49570+025600FM-12+032499999V0202901N006010360019N0100001N1+01661+01021100631ADDGA1041+006309099GF107991041031008001031001MA1999999096831MD1210021+9999REMSYN076AAXX  20121 33415 42597 72906 10166 20102 39683 40063 52002 84330 333 84921;
0138334150999992000052015004+49570+025600FM-12+032499999V0202901N006010360019N0100001N1+01701+00931100631ADDGA1041+006909099GF107991041031008001031001MD1410001+9999REMSYN070AAXX  20151 33415 42597 72906 10170 20093 40063 54000 84330 333 84923;
0146334150999992000052018004+49570+025600FM-12+032499999V0202901N002010360019N0100001N1+01391+00781100651ADDAA199000021GF106991041031012501031011KA1999M+01711MD1810021+9999REMSYN070AAXX  20181 33415 32697 62902 10139 20078 40065 58002 84331 333 10171;
0112334150999992000052021004+49570+025600FM-12+032499999V0209999C000010360019N0100001N1+00971+00611100661ADDGF106991031031012501031011MD1710041+9999REMSYN060AAXX  20211 33415 42697 60000 10097 20061 40066 57004 83331;
0133334150999992000052100004+49570+025600FM-12+032499999V0209999C000012200019N0100001N1+00881+00581100651ADDGF103991021001999999031011MA1999999096741MD1710031+9999REMSYN066AAXX  21001 33415 42997 30000 10088 20058 39674 40065 57003 82031;
0128334150999992000052103004+49570+025600FM-12+032499999V0203601N001019999999N0100001N1+00861+00671100511ADDGF107991031001999999031011MD1710131+9999REMSYN076AAXX  21031 33415 42997 73601 10086 20067 40051 57013 83031 555 20085 7000/;
0202334150999992000052106004+49570+025600FM-12+032499999V0201601N003010051019N0040001N1+01031+00971100441ADDAA112004191AY181061AY221061GA1051+005109099GF108991051031004501031999KA1120N+00851MD1710041+9999MW1801REMSYN088AAXX  21061 33415 11496 81603 10103 20097 40044 57004 60042 78082 8533/ 333 20085 85917;
0166334150999992000052109004+49570+025600FM-12+032499999V0202701N008010036019N0100001N1+01001+00921100451ADDAY181031AY281031GA1061+003609099GF108991061031004501031999MD1410001+9999MW1801REMSYN076AAXX  21091 33415 41497 82708 10100 20092 40045 54000 78088 8633/ 333 86912;
0187334150999992000052112004+49570+025600FM-12+032499999V0202701N009010048019N0100001N1+00941+00761100551ADDAY181061AY281061GA1061+004809099GF107991061031004501031001MA1999999096671MD1310101+9999MW1801REMSYN082AAXX  21121 33415 41497 72709 10094 20076 39667 40055 53010 78088 86330 333 86916;
0166334150999992000052115004+49570+025600FM-12+032499999V0202701N009010048019N0100001N1+00871+00731100631ADDAY181031AY281031GA1061+004809099GF107991061031004501031001MD1210051+9999MW1801REMSYN076AAXX  21151 33415 41497 72709 10087 20073 40063 52005 78088 86330 333 86916;
0202334150999992000052118004+49570+025600FM-12+032499999V0202701N005010057019N0100001N1+00931+00781100671ADDAA112016091AY181061AY221061GA1061+005709099GF107991061031004501031001KA1120M+01031MD1210061+9999MW1021REMSYN088AAXX  21181 33415 11497 72705 10093 20078 40067 52006 60162 70282 86330 333 10103 86919;
0166334150999992000052121004+49570+025600FM-12+032499999V0202701N006010039019N0100001N1+00961+00811100821ADDAY181031AY221031GA1061+003909099GF108991061031004501031999MD1210141+9999MW1801REMSYN076AAXX  21211 33415 41497 82706 10096 20081 40082 52014 78082 8633/ 333 86913;
0187334150999992000052200004+49570+025600FM-12+032499999V0202701N007010039019N0100001N1+00991+00861100871ADDAY181061AY221061GA1061+003909099GF108991061031004501031999MA1999999096971MD1210051+9999MW1021REMSYN082AAXX  22001 33415 41497 82707 10099 20086 39697 40087 52005 70282 8633/ 333 86913;
0154334150999992000052203004+49570+025600FM-12+032499999V0202701N009010069019N0100001N1+00941+00811100931ADDGA1051+006909099GF107991051031008001031001MD1210061+9999REMSYN086AAXX  22031 33415 42597 72709 10094 20081 40093 52006 85330 333 85923 555 20092 7021/;
0152334150999992000052206004+49570+025600FM-12+032499999V0202701N007010360019N0100001N1+01101+00851101061ADDAA112000891GF107991031031012501031001KA1999N+00921MD1210141+9999REMSYN076AAXX  22061 33415 32697 72707 10110 20085 40106 52014 69982 83330 333 20092;
0112334150999992000052209004+49570+025600FM-12+032499999V0202901N008010120019N0100001N1+01501+00921101091ADDGF107991071021012501001001MD1210081+9999REMSYN060AAXX  22091 33415 42697 72908 10150 20092 40109 52008 87200;
0133334150999992000052212004+49570+025600FM-12+032499999V0202901N007010120019N0100001N1+01701+00861101061ADDGF107991071021012501001001MA1999999097251MD1410001+9999REMSYN066AAXX  22121 33415 42697 72907 10170 20086 39725 40106 54000 87200;
0112334150999992000052215004+49570+025600FM-12+032499999V0202701N004010120019N0100001N1+01841+00711101011ADDGF107991061021012501001011MD1810031+9999REMSYN060AAXX  22151 33415 42697 72704 10184 20071 40101 58003 86201;
0165334150999992000052218004+49570+025600FM-12+032499999V0209999C000019999999N0100001N1+01621+00881101031ADDAA199000091GF107991041001999999031011KA1999M+01841MD1410001+9999REMSYN070AAXX  22181 33415 32997 70000 10162 20088 40103 54000 84031 333 10184;EQDQ01  00002PRCP99
0112334150999992000052221004+49570+025600FM-12+032499999V0209999C000019999999N0100001N1+01101+00771101111ADDGF105991001001999999001011MD1410001+9999REMSYN060AAXX  22211 33415 42997 50000 10110 20077 40111 54000 80001;
0133334150999992000052300004+49570+025600FM-12+032499999V0209999C000019999999N0100001N1+00981+00761101141ADDGF107991041001999999031011MA1999999097231MD1310011+9999REMSYN066AAXX  23001 33415 42997 70000 10098 20076 39723 40114 53001 84031;
0128334150999992000052303004+49570+025600FM-12+032499999V0209999C000010360019N0100001N1+01001+00851101101ADDGF107991031051012501031011MD1810041+9999REMSYN076AAXX  23031 33415 42697 70000 10100 20085 40110 58004 83531 555 20098 7000/;
0180334150999992000052306004+49570+025600FM-12+032499999V0202701N001010120019N0100001N1+01151+01021101151ADDAA112000891AY181061AY221061GF107991051031012501031001KA1999N+00981MD1310081+9999MW1021REMSYN082AAXX  23061 33415 11697 72701 10115 20102 40115 53008 69982 70282 85330 333 20098;
0138334150999992000052309004+49570+025600FM-12+032499999V0202701N007010087019N0100001N1+01321+00841101311ADDGA1051+008709099GF107991051031008001031001MD1210181+9999REMSYN070AAXX  23091 33415 42597 72707 10132 20084 40131 52018 85330 333 85929;
0159334150999992000052312004+49570+025600FM-12+032499999V0203101N00601012001CN0100001N1+01371+00891101351ADDGA1041+009909029GF107991051031012501031001MA1999999097491MD1210041+9999REMSYN076AAXX  23121 33415 42697 73106 10137 20089 39749 40135 52004 85330 333 84833;
0112334150999992000052315004+49570+025600FM-12+032499999V0203401N005010120019N0100001N1+01441+00931101371ADDGF107991051031012501031001MD1210031+9999REMSYN060AAXX  23151 33415 42697 73405 10144 20093 40137 52003 85330;
0180334150999992000052318004+49570+025600FM-12+032499999V0203101N005010360019N0100001N1+01351+01031101451ADDAA112000791AY181061AY221061GF107991041031012501031001KA1999M+01551MD1210061+9999MW1801REMSYN082AAXX  23181 33415 11697 73105 10135 20103 40145 52006 69902 78082 84330 333 10155;
0166334150999992000052321004+49570+025600FM-12+032499999V0209999C000010078019N0100001N1+01131+00951101611ADDAY181031AY221031GA1061+007809099GF107991061031008001031001MD1210131+9999MW1251REMSYN076AAXX  23211 33415 41597 70000 10113 20095 40161 52013 72582 86330 333 86926;
0161334150999992000052400004+49570+025600FM-12+032499999V0203101N002010360019N0100001N1+01001+00851101641ADDAY181061AY221061GF107991031031012501031001MA1999999097711MD1410001+9999MW1021REMSYN072AAXX  24001 33415 41697 73102 10100 20085 39771 40164 54000 70282 83330;
0156334150999992000052403004+49570+025600FM-12+032499999V0202701N003019999999N0040001N1+00901+00841101661ADDAY121031AY221031GF105991051001999999031001MD1410001+9999MW1101REMSYN082AAXX  24031 33415 41996 52703 10090 20084 40166 54000 71022 85030 555 20089 7001/;
0152334150999992000052406004+49570+025600FM-12+032499999V0203401N003012200019N0100001N1+01401+01061101681ADDAA112000391GF103991031001999999031001KA1999N+00891MD1310111+9999REMSYN076AAXX  24061 33415 12997 33403 10140 20106 40168 53011 69932 83030 333 20089;
0112334150999992000052409004+49570+025600FM-12+032499999V0203401N005010120019N0100001N1+01701+00821101661ADDGF105991051011012501001001MD1410001+9999REMSYN060AAXX  24091 33415 42697 53405 10170 20082 40166 54000 85100;
0133334150999992000052412004+49570+025600FM-12+032499999V0203201N006010120019N0100001N1+01931+00581101641ADDGF105991051031012501001001MA1999999097831MD1310011+9999REMSYN066AAXX  24121 33415 42697 53206 10193 20058 39783 40164 53001 85300;
0112334150999992000052415004+49570+025600FM-12+032499999V0203201N006012200019N0100001N1+01911+00551101671ADDGF103991011011012501001011MD1210031+9999REMSYN060AAXX  24151 33415 42697 33206 10191 20055 40167 52003 81101;
0165334150999992000052418004+49570+025600FM-12+032499999V0203201N003019999999N0100001N1+01631+00611101761ADDAA199000091GF106991001001999999001011KA1999M+01961MD1210041+9999REMSYN070AAXX  24181 33415 32997 63203 10163 20061 40176 52004 80001 333 10196;EQDQ01  00002PRCP99
0122334150999992000052421004+49570+025600FM-12+032499999V0202701N002012200019N0100001N1+01121+00701101911ADDGA1001+999999999GF100991001001999999001001MD1210081+9999REMSYN054AAXX  24211 33415 42997 02702 10112 20070 40191 52008;
0122334150999992000052500004+49570+025600FM-12+032499999V0209999C000012200019N0100001N1+00941+00801101941ADDGA1001+999999999GF100991001001999999001001MD1210021+9999REMSYN054AAXX  25001 33415 42997 00000 10094 20080 40194 52002;
0138334150999992000052503004+49570+025600FM-12+032499999V0209999C000012200019N0100001N1+00701+00611101981ADDGA1001+999999999GF100991001001999999001001MD1410001+9999REMSYN070AAXX  25031 33415 42997 00000 10070 20061 40198 54000 555 20069 7000/;
0175334150999992000052506004+49570+025600FM-12+032499999V0209999C000012200019N0100001N1+01441+00981101921ADDAA199000091GA1001+999999999GF100991001001999999001001KA1999N+00691MD1310051+9999REMSYN064AAXX  25061 33415 32997 00000 10144 20098 40192 53005 333 20069;EQDQ01  00002PRCP99
0112334150999992000052509004+49570+025600FM-12+032499999V0209999V002012200019N0100001N1+01951+00841101861ADDGF102991021011012501001001MD1210011+9999REMSYN060AAXX  25091 33415 42697 29902 10195 20084 40186 52001 82100;
0127334150999992000052512004+49570+025600FM-12+032499999V0209999V001019999999N0100001N1+02101+00771101791ADDGF106991999999012501999999MA1999999098001MD1810061+9999REMSYN060AAXX  25121 33415 42697 69901 10210 20077 39800 40179 58006;
0112334150999992000052515004+49570+025600FM-12+032499999V0209999V001010120019N0100001N1+02131+00841101681ADDGF105991051011012501001001MD1710101+9999REMSYN060AAXX  25151 33415 42697 59901 10213 20084 40168 57010 85100;
0165334150999992000052518004+49570+025600FM-12+032499999V0201101N003012200019N0100001N1+01801+00971101721ADDAA199000091GF102991011001999999031011KA1999M+02201MD1410001+9999REMSYN070AAXX  25181 33415 32997 21103 10180 20097 40172 54000 81031 333 10220;EQDQ01  00002PRCP99
0122334150999992000052521004+49570+025600FM-12+032499999V0201401N002012200019N0100001N1+01451+01031101801ADDGA1001+999999999GF100991001001999999001001MD1310031+9999REMSYN054AAXX  25211 33415 42997 01402 10145 20103 40180 53003;
0143334150999992000052600004+49570+025600FM-12+032499999V0201401N001012200019N0100001N1+01281+01001101841ADDGA1001+999999999GF100991001001999999001001MA1999999097941MD1210011+9999REMSYN060AAXX  26001 33415 42997 01401 10128 20100 39794 40184 52001;
0166334150999992000052603004+49570+025600FM-12+032499999V0209999V001012200019N0040001N1+01001+00851101891ADDAY101031AY201031GA1001+999999999GF100991001001999999001001MD1210011+9999MW1101REMSYN076AAXX  26031 33415 41996 09901 10100 20085 40189 52001 71000 555 20100 7000/;
0175334150999992000052606004+49570+025600FM-12+032499999V0201601N002012200019N0100001N1+01641+01191101851ADDAA199000091GA1001+999999999GF100991001001999999001001KA1999N+01001MD1210061+9999REMSYN064AAXX  26061 33415 32997 01602 10164 20119 40185 52006 333 20100;EQDQ01  00002PRCP99
0112334150999992000052609004+49570+025600FM-12+032499999V0202501N004012200019N0100001N1+02271+01051101771ADDGF102991021001999999031001MD1410001+9999REMSYN060AAXX  26091 33415 42997 22504 10227 20105 40177 54000 82030;
0133334150999992000052612004+49570+025600FM-12+032499999V0202901N005010120019N0100001N1+02481+01111101731ADDGF105991051011012501001001MA1999999097991MD1810021+9999REMSYN066AAXX  26121 33415 42697 52905 10248 20111 39799 40173 58002 85100;
0112334150999992000052615004+49570+025600FM-12+032499999V0202901N004012200019N0100001N1+02511+01151101711ADDGF103991031011012501001001MD1710011+9999REMSYN060AAXX  26151 33415 42697 32904 10251 20115 40171 57001 83100;
0165334150999992000052618004+49570+025600FM-12+032499999V0203201N003019999999N0100001N1+02221+01321101811ADDAA199000091GF105991001001999999001011KA1999M+02561MD1310071+9999REMSYN070AAXX  26181 33415 32997 53203 10222 20132 40181 53007 80001 333 10256;EQDQ01  00002PRCP99
0112334150999992000052621004+49570+025600FM-12+032499999V0203201N002012200019N0100001N1+01761+01261101911ADDGF102991001001999999001011MD1210031+9999REMSYN060AAXX  26211 33415 42997 23202 10176 20126 40191 52003 80001;
0133334150999992000052700004+49570+025600FM-12+032499999V0203401N002012200019N0100001N1+01491+01221101991ADDGF102991001001999999001011MA1999999098131MD1210051+9999REMSYN066AAXX  27001 33415 42997 23402 10149 20122 39813 40199 52005 80001;
0128334150999992000052703004+49570+025600FM-12+032499999V0203401N001012200019N0100001N1+01391+01241102021ADDGF102991001001999999001011MD1210011+9999REMSYN076AAXX  27031 33415 42997 23401 10139 20124 40202 52001 80001 555 20138 7000/;
0175334150999992000052706004+49570+025600FM-12+032499999V0201101N003012200019N0100001N1+02001+01491101961ADDAA199000091GA1001+999999999GF100991001001999999001001KA1999N+01381MD1210021+9999REMSYN064AAXX  27061 33415 32997 01103 10200 20149 40196 52002 333 20138;EQDQ01  00002PRCP99
0112334150999992000052709004+49570+025600FM-12+032499999V0201601N004012200019N0100001N1+02501+01251101821ADDGF102991021011012501001001MD1810071+9999REMSYN060AAXX  27091 33415 42697 21604 10250 20125 40182 58007 82100;
0133334150999992000052712004+49570+025600FM-12+032499999V0201401N005012200019N0100001N1+02621+01201101751ADDGF104991041021012501001001MA1999999098041MD1710051+9999REMSYN066AAXX  27121 33415 42697 41405 10262 20120 39804 40175 57005 84200;
0112334150999992000052715004+49570+025600FM-12+032499999V0201401N006012200019N0100001N1+02581+01101101601ADDGF101991011011012501001001MD1710161+9999REMSYN060AAXX  27151 33415 42697 11406 10258 20110 40160 57016 81100;
0165334150999992000052718004+49570+025600FM-12+032499999V0201401N005012200019N0100001N1+02301+01141101571ADDAA199000091GF102991001001999999001011KA1999M+02681MD1710051+9999REMSYN070AAXX  27181 33415 32997 21405 10230 20114 40157 57005 80001 333 10268;EQDQ01  00002PRCP99
0112334150999992000052721004+49570+025600FM-12+032499999V0201201N003012200019N0100001N1+01801+01281101651ADDGF102991001001999999001011MD1310011+9999REMSYN060AAXX  27211 33415 42997 21203 10180 20128 40165 53001 80001;
0133334150999992000052800004+49570+025600FM-12+032499999V0201201N002012200019N0100001N1+01501+01091101711ADDGF102991001001999999001011MA1999999097861MD1210021+9999REMSYN066AAXX  28001 33415 42997 21202 10150 20109 39786 40171 52002 80001;
0128334150999992000052803004+49570+025600FM-12+032499999V0209999C000012200019N0100001N1+01331+01061101751ADDGF102991001001999999001011MD1210011+9999REMSYN076AAXX  28031 33415 42997 20000 10133 20106 40175 52001 80001 555 20133 7000/;
0165334150999992000052806004+49570+025600FM-12+032499999V0201401N002012200019N0100001N1+01981+01251101671ADDAA199000091GF102991001001999999001011KA1999N+01331MD1210021+9999REMSYN070AAXX  28061 33415 32997 21402 10198 20125 40167 52002 80001 333 20133;EQDQ01  00002PRCP99
0112334150999992000052809004+49570+025600FM-12+032499999V0201401N003012200019N0100001N1+02521+01471101551ADDGF102991001001999999001011MD1810061+9999REMSYN060AAXX  28091 33415 42997 21403 10252 20147 40155 58006 80001;
0143334150999992000052812004+49570+025600FM-12+032499999V0201601N005012200019N0100001N1+02711+01371101371ADDGA1001+999999999GF100991001001999999001001MA1999999097681MD1710151+9999REMSYN060AAXX  28121 33415 42997 01605 10271 20137 39768 40137 57015;
0122334150999992000052815004+49570+025600FM-12+032499999V0201401N008012200019N0100001N1+02781+01261101171ADDGA1001+999999999GF100991001001999999001001MD1710181+9999REMSYN054AAXX  28151 33415 42997 01408 10278 20126 40117 57018;
0165334150999992000052818004+49570+025600FM-12+032499999V0201401N006012200019N0100001N1+02321+01241101261ADDAA199000091GF103991021001999999031011KA1999M+02811MD1310021+9999REMSYN070AAXX  28181 33415 32997 31406 10232 20124 40126 53002 82031 333 10281;EQDQ01  00002PRCP99
0112334150999992000052821004+49570+025600FM-12+032499999V0201101N004012200019N0100001N1+01911+01351101201ADDGF103991021001999999031011MD1810021+9999REMSYN060AAXX  28211 33415 42997 31104 10191 20135 40120 58002 82031;
0133334150999992000052900004+49570+025600FM-12+032499999V0201101N003012200019N0100001N1+01521+01151101291ADDGF103991021001999999031011MA1999999097161MD1710041+9999REMSYN066AAXX  29001 33415 42997 31103 10152 20115 39716 40129 57004 82031;
0128334150999992000052903004+49570+025600FM-12+032499999V0209999V001019999999N0100001N1+01411+00901101081ADDGF105991031001999999031011MD1710221+9999REMSYN076AAXX  29031 33415 42997 59901 10141 20090 40108 57022 83031 555 20140 7000/;
0165334150999992000052906004+49570+025600FM-12+032499999V0201601N004019999999N0100001N1+01831+01291101031ADDAA199000091GF106991031001999999031011KA1999N+01401MD1410001+9999REMSYN070AAXX  29061 33415 32997 61604 10183 20129 40103 54000 83031 333 20140;EQDQ01  00002PRCP99
0112334150999992000052909004+49570+025600FM-12+032499999V0201601N006010360019N0100001N1+02411+01391100951ADDGF107991031011012501031011MD1410001+9999REMSYN060AAXX  29091 33415 42697 71606 10241 20139 40095 54000 83131;
0133334150999992000052912004+49570+025600FM-12+032499999V0201401N005012200019N0100001N1+02681+01381100711ADDGF105991021011012501001011MA1999999097051MD1810191+9999REMSYN066AAXX  29121 33415 42697 51405 10268 20138 39705 40071 58019 82101;
0112334150999992000052915004+49570+025600FM-12+032499999V0202901N009010360019N0100001N1+02561+01111100641ADDGF105991021031012501031001MD1710101+9999REMSYN060AAXX  29151 33415 42697 52909 10256 20111 40064 57010 82330;
0165334150999992000052918004+49570+025600FM-12+032499999V0203201N006010120019N0100001N1+01811+01561100831ADDAA199000091GF107991051031012501031001KA1999M+02741MD1310101+9999REMSYN070AAXX  29181 33415 32697 73206 10181 20156 40083 53010 85330 333 10274;EQDQ01  00002PRCP99
0166334150999992000052921004+49570+025600FM-12+032499999V0203401N007010069019N0100001N1+01611+01471100951ADDAY191031AY281031GA1061+006909099GF108991061031008001031999MD1210091+9999MW1951REMSYN076AAXX  29211 33415 41597 83407 10161 20147 40095 52009 79598 8633/ 333 86923;
0187334150999992000053000004+49570+025600FM-12+032499999V0202701N006010051019N0100001N1+01481+01331101071ADDAY191061AY281061GA1061+005109099GF108991061031004501031999MA1999999097241MD1210101+9999MW1801REMSYN082AAXX  30001 33415 41497 82706 10148 20133 39724 40107 52010 78098 8633/ 333 86917;
0182334150999992000053003004+49570+025600FM-12+032499999V0203201N006010036019N0100001N1+01201+01091101161ADDAY181031AY281031GA1061+003609099GF108991061031004501031999MD1210051+9999MW1801REMSYN092AAXX  30031 33415 41497 83206 10120 20109 40116 52005 78088 8633/ 333 86912 555 20118 7018/;
0202334150999992000053006004+49570+025600FM-12+032499999V0203201N008010039019N0100001N1+01201+01111101181ADDAA112022191AY181061AY221061GA1061+003909099GF108991061031004501031999KA1120N+01181MD1210021+9999MW1251REMSYN088AAXX  30061 33415 11497 83208 10120 20111 40118 52002 60222 72582 8633/ 333 20118 86913;
0166334150999992000053009004+49570+025600FM-12+032499999V0202901N006010033019N0100001N1+01091+00951101491ADDAY181031AY221031GA1061+003309099GF108991061031004501031999MD1210271+9999MW1801REMSYN076AAXX  30091 33415 41497 82906 10109 20095 40149 52027 78082 8633/ 333 86911;
0187334150999992000053012004+49570+025600FM-12+032499999V0202901N004010360019N0100001N1+01241+01111101491ADDAY181061AY221061GA1041+003609099GF108991041031004501031999MA1999999097611MD1210031+9999MW1801REMSYN082AAXX  30121 33415 41497 82904 10124 20111 39761 40149 52003 78082 8433/ 333 84912;
0166334150999992000053015004+49570+025600FM-12+032499999V0202901N006010360019N0100001N1+01201+00861101481ADDAY181031AY221031GA1031+007809099GF107991031031008001031001MD1810031+9999MW1021REMSYN076AAXX  30151 33415 41597 72906 10120 20086 40148 58003 70282 83330 333 83926;
0180334150999992000053018004+49570+025600FM-12+032499999V0203201N003012200019N0100001N1+01271+00821101481ADDAA112002091AY181061AY211061GF103991011011012501031011KA1999M+01341MD1310021+9999MW1021REMSYN082AAXX  30181 33415 11697 33203 10127 20082 40148 53002 60022 70281 81131 333 10134;
0122334150999992000053021004+49570+025600FM-12+032499999V0202701N004012200019N0100001N1+00931+00811101551ADDGA1001+999999999GF100991001001999999001001MD1210031+9999REMSYN054AAXX  30211 33415 42997 02704 10093 20081 40155 52003;
0143334150999992000053100004+49570+025600FM-12+032499999V0202701N003012200019N0100001N1+00811+00701101581ADDGA1001+999999999GF100991001001999999001001MA1999999097631MD1410001+9999REMSYN060AAXX  31001 33415 42997 02703 10081 20070 39763 40158 54000;
0138334150999992000053103004+49570+025600FM-12+032499999V0202701N002012200019N0100001N1+00581+00491101651ADDGA1001+999999999GF100991001001999999001001MD1310041+9999REMSYN070AAXX  31031 33415 42997 02702 10058 20049 40165 53004 555 20058 7006/;
0199334150999992000053106004+49570+025600FM-12+032499999V0202701N002019999999N0100001N1+01211+00951101561ADDAA199000091GF106991001001999999001011IA1099IA2999+00509KA1120N+00581MD1210011+9999REMSYN086AAXX  31061 33415 32997 62702 10121 20095 40156 52001 80001 333 20058 555 31005 52004;EQDQ01  00002PRCP99
0112334150999992000053109004+49570+025600FM-12+032499999V0202701N001010360019N0100001N1+01521+00651101511ADDGF107991021011012501031001MD1810021+9999REMSYN060AAXX  31091 33415 42697 72701 10152 20065 40151 58002 82130;
0133334150999992000053112004+49570+025600FM-12+032499999V0209999V002010120019N0100001N1+01741+00591101471ADDGF107991051011012501001011MA1999999097661MD1410001+9999REMSYN066AAXX  31121 33415 42697 79902 10174 20059 39766 40147 54000 85101;
0112334150999992000053115004+49570+025600FM-12+032499999V0209999V002012200019N0100001N1+01721+00621101431ADDGF107991031011012501001011MD1810061+9999REMSYN060AAXX  31151 33415 42697 79902 10172 20062 40143 58006 83101;
0180334150999992000053118004+49570+025600FM-12+032499999V0202301N006010360019N0100001N1+01551+00731101481ADDAA112000791AY181061AY221061GF107991031031012501031001KA1999M+01821MD1310041+9999MW1801REMSYN082AAXX  31181 33415 11697 72306 10155 20073 40148 53004 69902 78082 83330 333 10182;
0140334150999992000053121004+49570+025600FM-12+032499999V0202901N004010360019N0100001N1+01321+00801101621ADDAY181031AY221031GF107991031031012501031001MD1210101+9999MW1021REMSYN066AAXX  31211 33415 41697 72904 10132 20080 40162 52010 70282 83330;
0161334150999992000060100004+49570+025600FM-12+032499999V0202901N003010360019N0100001N1+01001+00701101781ADDAY181061AY221061GF107991031031012501031001MA1999999097851MD1210111+9999MW1021REMSYN072AAXX  01001 33415 41697 72903 10100 20070 39785 40178 52011 70282 83330;
0128334150999992000060103004+49570+025600FM-12+032499999V0202901N004010120019N0100001N1+00981+00851101811ADDGF107991051051012501031001MD1210031+9999REMSYN076AAXX  01031 33415 42697 72904 10098 20085 40181 52003 85530 555 20098 7996/;
0152334150999992000060106004+49570+025600FM-12+032499999V0203401N002010120019N0100001N1+01121+00971101841ADDAA112000591GF107991051051012501031001KA1999N+00981MD1210051+9999REMSYN076AAXX  01061 33415 12697 73402 10112 20097 40184 52005 69962 85530 333 20098;
0138334150999992000060109004+49570+025600FM-12+032499999V0203601N004010078019N0100001N1+01231+00851101991ADDGA1051+007809099GF108991051031008001031999MD1210161+9999REMSYN070AAXX  01091 33415 42597 83604 10123 20085 40199 52016 8533/ 333 85926;
0187334150999992000060112004+49570+025600FM-12+032499999V0203401N005010054019N0100001N1+01221+00901102121ADDAY181061AY221061GA1061+005409099GF107991061031004501031001MA1999999098211MD1210121+9999MW1021REMSYN082AAXX  01121 33415 42497 73405 10122 20090 39821 40212 52012 70282 86330 333 86918;
0138334150999992000060115004+49570+025600FM-12+032499999V0203201N006010066019N0100001N1+01241+00931102191ADDGA1061+006609099GF107991061031008001031001MD1210071+9999REMSYN070AAXX  01151 33415 42597 73206 10124 20093 40219 52007 86330 333 86922;
0202334150999992000060118004+49570+025600FM-12+032499999V0203201N005010081019N0100001N1+01181+00921102301ADDAA112000391AY181061AY221061GA1051+008109099GF107991051031008001031001KA1120M+01281MD1210091+9999MW1801REMSYN088AAXX  01181 33415 11597 73205 10118 20092 40230 52009 69932 78082 85330 333 10128 85927;
0140334150999992000060121004+49570+025600FM-12+032499999V0203201N004010360019N0100001N1+01061+00841102411ADDAY181031AY221031GF105991021051012501031001MD1210101+9999MW1021REMSYN066AAXX  01211 33415 41697 53204 10106 20084 40241 52010 70282 82530;
0171334150999992000060200004+49570+025600FM-12+032499999V0203201N005012200019N0100001N1+00921+00761102511ADDAY181061AY211061GA1001+999999999GF100991001001999999001001MA1999999098531MD1210061+9999MW1011REMSYN066AAXX  02001 33415 41997 03205 10092 20076 39853 40251 52006 70181;
0138334150999992000060203004+49570+025600FM-12+032499999V0203201N003012200019N0100001N1+00821+00701102581ADDGA1001+999999999GF100991001001999999001001MD1210061+9999REMSYN070AAXX  02031 33415 42997 03203 10082 20070 40258 52006 555 20080 7993/;
0162334150999992000060206004+49570+025600FM-12+032499999V0203401N004012200019N0100001N1+01221+00881102601ADDAA112000791GA1001+999999999GF100991001001999999001001KA1999N+00801MD1210091+9999REMSYN070AAXX  02061 33415 12997 03404 10122 20088 40260 52009 69902 333 20080;
0138334150999992000060209004+49570+025600FM-12+032499999V0203101N005010081019N0100001N1+01631+00921102551ADDGA1051+008109029GF105991051011012501001001MD1410001+9999REMSYN070AAXX  02091 33415 42697 53105 10163 20092 40255 54000 85100 333 85827;
0159334150999992000060212004+49570+025600FM-12+032499999V0203201N002010090019N0100001N1+01781+00821102511ADDGA1061+009009029GF106991061011012501001001MA1999999098661MD1810061+9999REMSYN076AAXX  02121 33415 42697 63202 10178 20082 39866 40251 58006 86100 333 86830;
0131334150999992000060215004+49570+025600FM-12+032499999V0203601N003010120019N0100001N1+01781+00821102471ADDGF106991999011012501001001MD1710041+9999REMSYN060AAXX  02151 33415 42697 63603 10178 20082 40247 57004 85100;EQDQ01+000052SCOTLC
0165334150999992000060218004+49570+025600FM-12+032499999V0203601N002012200019N0100001N1+01711+00781102421ADDAA199000091GF102991001001999999001011KA1999M+01891MD1710071+9999REMSYN070AAXX  02181 33415 32997 23602 10171 20078 40242 57007 80001 333 10189;EQDQ01  00002PRCP99
0112334150999992000060221004+49570+025600FM-12+032499999V0203601N001012200019N0100001N1+01211+00851102511ADDGF102991001001999999001011MD1310021+9999REMSYN060AAXX  02211 33415 42997 23601 10121 20085 40251 53002 80001;
0133334150999992000060300004+49570+025600FM-12+032499999V0209999C000012200019N0100001N1+01071+00821102521ADDGF102991001001999999001011MA1999999098571MD1410001+9999REMSYN066AAXX  03001 33415 42997 20000 10107 20082 39857 40252 54000 80001;
0138334150999992000060303004+49570+025600FM-12+032499999V0209999C000012200019N0100001N1+00771+00591102491ADDGA1001+999999999GF100991001001999999001001MD1710071+9999REMSYN070AAXX  03031 33415 42997 00000 10077 20059 40249 57007 555 20076 7000/;
0175334150999992000060306004+49570+025600FM-12+032499999V0201401N002012200019N0100001N1+01521+01001102361ADDAA199000091GA1001+999999999GF100991001001999999001001KA1999N+00761MD1710011+9999REMSYN064AAXX  03061 33415 32997 01402 10152 20100 40236 57001 333 20076;EQDQ01  00002PRCP99
0112334150999992000060309004+49570+025600FM-12+032499999V0201601N003012200019N0100001N1+01931+00621102291ADDGF103991001001999999001011MD1710021+9999REMSYN060AAXX  03091 33415 42997 31603 10193 20062 40229 57002 80001;
0133334150999992000060312004+49570+025600FM-12+032499999V0209999V002012200019N0100001N1+02191+00741102171ADDGF102991001001999999001011MA1999999098381MD1710091+9999REMSYN066AAXX  03121 33415 42997 29902 10219 20074 39838 40217 57009 80001;
0112334150999992000060315004+49570+025600FM-12+032499999V0209999V001012200019N0100001N1+02401+00771101981ADDGF102991001001999999001011MD1710161+9999REMSYN060AAXX  03151 33415 42997 29901 10240 20077 40198 57016 80001;
0175334150999992000060318004+49570+025600FM-12+032499999V0203201N002012200019N0100001N1+02231+01071101951ADDAA199000091GA1001+999999999GF100991001001999999001001KA1999M+02411MD1710041+9999REMSYN064AAXX  03181 33415 32997 03202 10223 20107 40195 57004 333 10241;EQDQ01  00002PRCP99
0112334150999992000060321004+49570+025600FM-12+032499999V0202701N001012200019N0100001N1+01601+01031102041ADDGF102991001001999999001011MD1310011+9999REMSYN060AAXX  03211 33415 42997 22701 10160 20103 40204 53001 80001;
0133334150999992000060400004+49570+025600FM-12+032499999V0209999C000012200019N0100001N1+01321+00991102101ADDGF103991001001999999001011MA1999999098211MD1210021+9999REMSYN066AAXX  04001 33415 42997 30000 10132 20099 39821 40210 52002 80001;
0128334150999992000060403004+49570+025600FM-12+032499999V0209999C000012200019N0100001N1+01071+00931102141ADDGF102991001001999999001011MD1410001+9999REMSYN076AAXX  04031 33415 42997 20000 10107 20093 40214 54000 80001 555 20106 7000/;
0175334150999992000060406004+49570+025600FM-12+032499999V0209999C000012200019N0100001N1+01891+01381102021ADDAA199000091GA1001+999999999GF100991001001999999001001KA1999N+01061MD1410001+9999REMSYN064AAXX  04061 33415 32997 00000 10189 20138 40202 54000 333 20106;EQDQ01  00002PRCP99
0112334150999992000060409004+49570+025600FM-12+032499999V0209999V002012200019N0100001N1+02411+01261101901ADDGF102991021011012501001001MD1810061+9999REMSYN060AAXX  04091 33415 42697 29902 10241 20126 40190 58006 82100;
0133334150999992000060412004+49570+025600FM-12+032499999V0209999V002012200019N0100001N1+02601+01211101851ADDGF102991021011012501001001MA1999999098131MD1710021+9999REMSYN066AAXX  04121 33415 42697 29902 10260 20121 39813 40185 57002 82100;
0112334150999992000060415004+49570+025600FM-12+032499999V0201101N002012200019N0100001N1+02661+01191101761ADDGF102991021011012501001001MD1710081+9999REMSYN060AAXX  04151 33415 42697 21102 10266 20119 40176 57008 82100;
0175334150999992000060418004+49570+025600FM-12+032499999V0200901N003012200019N0100001N1+02331+01351101771ADDAA199000091GA1001+999999999GF100991001001999999001001KA1999M+02691MD1710031+9999REMSYN064AAXX  04181 33415 32997 00903 10233 20135 40177 57003 333 10269;EQDQ01  00002PRCP99
0122334150999992000060421004+49570+025600FM-12+032499999V0209999C000012200019N0100001N1+01801+01241101841ADDGA1001+999999999GF100991001001999999001001MD1410001+9999REMSYN054AAXX  04211 33415 42997 00000 10180 20124 40184 54000;
0143334150999992000060500004+49570+025600FM-12+032499999V0200901N001012200019N0100001N1+01531+01221101911ADDGA1001+999999999GF100991001001999999001001MA1999999098051MD1310031+9999REMSYN060AAXX  05001 33415 42997 00901 10153 20122 39805 40191 53003;
0138334150999992000060503004+49570+025600FM-12+032499999V0209999C000012200019N0100001N1+01261+01111101901ADDGA1001+999999999GF100991001001999999001001MD1810051+9999REMSYN070AAXX  05031 33415 42997 00000 10126 20111 40190 58005 555 20124 7000/;
0175334150999992000060506004+49570+025600FM-12+032499999V0201601N002012200019N0100001N1+01891+01361101781ADDAA199000091GA1001+999999999GF100991001001999999001001KA1999N+01241MD1710021+9999REMSYN064AAXX  05061 33415 32997 01602 10189 20136 40178 57002 333 20124;EQDQ01  00002PRCP99
0122334150999992000060509004+49570+025600FM-12+032499999V0201801N002012200019N0100001N1+02601+01211101711ADDGA1001+999999999GF100991001001999999001001MD1310021+9999REMSYN054AAXX  05091 33415 42997 01802 10260 20121 40171 53002;
0143334150999992000060512004+49570+025600FM-12+032499999V0202001N002012200019N0100001N1+02841+00971101631ADDGA1001+999999999GF100991001001999999001001MA1999999097941MD1810061+9999REMSYN060AAXX  05121 33415 42997 02002 10284 20097 39794 40163 58006;
0112334150999992000060515004+49570+025600FM-12+032499999V0209999V002012200019N0100001N1+02911+01101101531ADDGF102991021011012501001001MD1710081+9999REMSYN060AAXX  05151 33415 42697 29902 10291 20110 40153 57008 82100;
0175334150999992000060518004+49570+025600FM-12+032499999V0209999V002012200019N0100001N1+02571+01401101481ADDAA199000091GA1001+999999999GF100991001001999999001001KA1999M+02961MD1710091+9999REMSYN064AAXX  05181 33415 32997 09902 10257 20140 40148 57009 333 10296;EQDQ01  00002PRCP99
0112334150999992000060521004+49570+025600FM-12+032499999V0209999C000012200019N0100001N1+01901+01391101571ADDGF102991021001999999031001MD1310021+9999REMSYN060AAXX  05211 33415 42997 20000 10190 20139 40157 53002 82030;
0133334150999992000060600004+49570+025600FM-12+032499999V0209999C000012200019N0100001N1+01641+01201101611ADDGF102991021001999999031001MA1999999097771MD1810021+9999REMSYN066AAXX  06001 33415 42997 20000 10164 20120 39777 40161 58002 82030;
0128334150999992000060603004+49570+025600FM-12+032499999V0201801N001012200019N0100001N1+01501+01321101531ADDGF102991001001999999001011MD1710081+9999REMSYN076AAXX  06031 33415 42997 21801 10150 20132 40153 57008 80001 555 20150 7000/;
0165334150999992000060606004+49570+025600FM-12+032499999V0209999C000012200019N0100001N1+02301+01501101321ADDAA199000091GF102991001001999999001011KA1999N+01501MD1710111+9999REMSYN070AAXX  06061 33415 32997 20000 10230 20150 40132 57011 80001 333 20150;EQDQ01  00002PRCP99
0122334150999992000060609004+49570+025600FM-12+032499999V0201601N004012200019N0100001N1+02741+01551101251ADDGA1001+999999999GF100991001001999999001001MD1410001+9999REMSYN054AAXX  06091 33415 42997 01604 10274 20155 40125 54000;
0133334150999992000060612004+49570+025600FM-12+032499999V0201601N005012200019N0100001N1+02981+01131101051ADDGF102991021011012501001001MA1999999097401MD1810181+9999REMSYN066AAXX  06121 33415 42697 21605 10298 20113 39740 40105 58018 82100;
0112334150999992000060615004+49570+025600FM-12+032499999V0201601N005012200019N0100001N1+02841+01121100911ADDGF102991021011012501001001MD1710151+9999REMSYN060AAXX  06151 33415 42697 21605 10284 20112 40091 57015 82100;
0165334150999992000060618004+49570+025600FM-12+032499999V0202301N001010360019N0100001N1+02661+01361100901ADDAA199000091GF107991031051012501031001KA1999M+02981MD1710021+9999REMSYN070AAXX  06181 33415 32697 72301 10266 20136 40090 57002 83530 333 10298;EQDQ01  00002PRCP99
0140334150999992000060621004+49570+025600FM-12+032499999V0202501N005010360019N0100001N1+02441+01571100931ADDAY121031AY221031GF107991041051012501031001MD1410001+9999MW1131REMSYN066AAXX  06211 33415 41697 72505 10244 20157 40093 54000 71322 84530;
0133334150999992000060700004+49570+025600FM-12+032499999V0203201N006010360019N0100001N1+02061+01541100971ADDGF107991041051012501031001MA1999999097221MD1810011+9999REMSYN066AAXX  07001 33415 42697 73206 10206 20154 39722 40097 58001 84530;
0128334150999992000060703004+49570+025600FM-12+032499999V0202901N004010360019N0100001N1+01661+01391101021ADDGF107991031051012501031001MD1410001+9999REMSYN076AAXX  07031 33415 42697 72904 10166 20139 40102 54000 83530 555 20266 7000/;
0165334150999992000060706004+49570+025600FM-12+032499999V0202901N006019999999N0100001N1+02061+01611100971ADDAA199000091GF107991041001999999031011KA1999N+01661MD1410001+9999REMSYN070AAXX  07061 33415 32997 72906 10206 20161 40097 54000 84031 333 20166;EQDQ01  00002PRCP99
0112334150999992000060709004+49570+025600FM-12+032499999V0203201N004010360019N0100001N1+02461+01511101011ADDGF107991021011012501031001MD1210091+9999REMSYN060AAXX  07091 33415 42697 73204 10246 20151 40101 52009 82130;
0133334150999992000060712004+49570+025600FM-12+032499999V0202901N008010360019N0100001N1+02361+01511101071ADDGF107991041031012501031001MA1999999097351MD1210041+9999REMSYN066AAXX  07121 33415 42697 72908 10236 20151 39735 40107 52004 84330;
0138334150999992000060715004+49570+025600FM-12+032499999V0203201N007010066019N0100001N1+01531+01181101391ADDGA1061+006609099GF108991061031012501031999MD1210201+9999REMSYN070AAXX  07151 33415 42697 83207 10153 20118 40139 52020 8633/ 333 86922;
0187334150999992000060718004+49570+025600FM-12+032499999V0202901N005010057019N0100001N1+01441+01061101511ADDAA199000091GA1061+005709099GF108991061031004501031999KA1120M+02471MD1210111+9999REMSYN076AAXX  07181 33415 32497 82905 10144 20106 40151 52011 8633/ 333 10247 86919;EQDQ01  00002PRCP99
0138334150999992000060721004+49570+025600FM-12+032499999V0202901N006010360019N0100001N1+01361+00951101641ADDGA1041+008109099GF107991041031008001031001MD1210101+9999REMSYN070AAXX  07211 33415 42597 72906 10136 20095 40164 52010 84330 333 84927;
0133334150999992000060800004+49570+025600FM-12+032499999V0202701N004010120019N0100001N1+01281+00881101761ADDGF108991051031012501031999MA1999999097871MD1210111+9999REMSYN066AAXX  08001 33415 42697 82704 10128 20088 39787 40176 52011 8533/;
0128334150999992000060803004+49570+025600FM-12+032499999V0202701N003010360019N0100001N1+01121+00921101841ADDGF107991031051012501031001MD1210061+9999REMSYN076AAXX  08031 33415 42697 72703 10112 20092 40184 52006 83530 555 20110 7000/;
0165334150999992000060806004+49570+025600FM-12+032499999V0202901N005010120019N0100001N1+01361+00901101961ADDAA199000091GF107991061021012501031001KA1999N+01101MD1210151+9999REMSYN070AAXX  08061 33415 32697 72905 10136 20090 40196 52015 86230 333 20110;EQDQ01  00002PRCP99
0121334150999992000060809004+49570+025600FM-12+032499999V0202901N006010120019N0100001N1+01621+00531999999ADDGF105991051011012501001001MD1210081+9999ME1312029REMSYN060AAXX  08091 33415 42697 52906 10162 20053 48202 52008 85100;
0133334150999992000060812004+49570+025600FM-12+032499999V0202901N006010120019N0100001N1+01701+00481102021ADDGF107991051031012501031001MA1999999098171MD1210011+9999REMSYN066AAXX  08121 33415 42697 72906 10170 20048 39817 40202 52001 85330;
0112334150999992000060815004+49570+025600FM-12+032499999V0202901N009010360019N0100001N1+01801+00321101961ADDGF106991041011012501031001MD1810051+9999REMSYN060AAXX  08151 33415 42697 62909 10180 20032 40196 58005 84130;
0165334150999992000060818004+49570+025600FM-12+032499999V0202901N007012200019N0100001N1+01641+00451102021ADDAA199000091GF102991021051012501001001KA1999M+01821MD1310041+9999REMSYN070AAXX  08181 33415 32697 22907 10164 20045 40202 53004 82500 333 10182;EQDQ01  00002PRCP99
0112334150999992000060821004+49570+025600FM-12+032499999V0202701N004012200019N0100001N1+01161+00651102231ADDGF103991031001999999031001MD1210141+9999REMSYN060AAXX  08211 33415 42997 32704 10116 20065 40223 52014 83030;
0133334150999992000060900004+49570+025600FM-12+032499999V0202701N003012200019N0100001N1+01001+00681102311ADDGF102991021001999999031001MA1999999098351MD1210051+9999REMSYN066AAXX  09001 33415 42997 22703 10100 20068 39835 40231 52005 82030;
0128334150999992000060903004+49570+025600FM-12+032499999V0202701N002012200019N0100001N1+00781+00561102381ADDGF102991001001999999001011MD1210061+9999REMSYN076AAXX  09031 33415 42997 22702 10078 20056 40238 52006 80001 555 20077 7000/;
0175334150999992000060906004+49570+025600FM-12+032499999V0202901N004012200019N0100001N1+01511+00701102361ADDAA199000091GA1001+999999999GF100991001001999999001001KA1999N+00771MD1210061+9999REMSYN064AAXX  09061 33415 32997 02904 10151 20070 40236 52006 333 20077;EQDQ01  00002PRCP99
0112334150999992000060909004+49570+025600FM-12+032499999V0203201N004012200019N0100001N1+01771+00641102281ADDGF102991021011008001001001MD1810041+9999REMSYN060AAXX  09091 33415 42597 23204 10177 20064 40228 58004 82100;
0133334150999992000060912004+49570+025600FM-12+032499999V0202901N002012200019N0100001N1+01971+00611102251ADDGF102991021011008001001001MA1999999098431MD1410001+9999REMSYN066AAXX  09121 33415 42597 22902 10197 20061 39843 40225 54000 82100;
0122334150999992000060915004+49570+025600FM-12+032499999V0203201N005012200019N0100001N1+02061+00581102201ADDGA1001+999999999GF100991001001999999001001MD1810041+9999REMSYN054AAXX  09151 33415 42997 03205 10206 20058 40220 58004;
0175334150999992000060918004+49570+025600FM-12+032499999V0203601N002012200019N0100001N1+01821+00551102221ADDAA199000091GA1001+999999999GF100991001001999999001001KA1999M+02081MD1710021+9999REMSYN064AAXX  09181 33415 32997 03602 10182 20055 40222 57002 333 10208;EQDQ01  00002PRCP99
0122334150999992000060921004+49570+025600FM-12+032499999V0209999C000012200019N0100001N1+01281+00741102351ADDGA1001+999999999GF100991001001999999001001MD1310071+9999REMSYN054AAXX  09211 33415 42997 00000 10128 20074 40235 53007;
0162334150999992000061000004+49570+025600FM-12+032499999V0209999C000012200019N0100001N1+01021+00651999999ADDGA1001+999999999GF100991001001999999001001MA1999999098511MD1210071+9999REMSYN060AAXX  10001 33415 42997 00000 10102 20065 39851 40147 52007;EQDQ01+101473APOSLP
0138334150999992000061003004+49570+025600FM-12+032499999V0203401N001012200019N0100001N1+00761+00511102511ADDGA1001+999999999GF100991001001999999001001MD1210011+9999REMSYN070AAXX  10031 33415 42997 03401 10076 20051 40251 52001 555 20075 7000/;
0175334150999992000061006004+49570+025600FM-12+032499999V0201101N004012200019N0100001N1+01721+00941102381ADDAA199000091GA1001+999999999GF100991001001999999001001KA1999N+00751MD1210011+9999REMSYN064AAXX  10061 33415 32997 01104 10172 20094 40238 52001 333 20075;EQDQ01  00002PRCP99
0122334150999992000061009004+49570+025600FM-12+032499999V0200901N007012200019N0100001N1+02061+00841102341ADDGA1001+999999999GF100991001001999999001001MD1410001+9999REMSYN054AAXX  10091 33415 42997 00907 10206 20084 40234 54000;
0143334150999992000061012004+49570+025600FM-12+032499999V0201101N007012200019N0100001N1+02241+00801102251ADDGA1001+999999999GF100991001001999999001001MA1999999098471MD1810061+9999REMSYN060AAXX  10121 33415 42997 01107 10224 20080 39847 40225 58006;
0122334150999992000061015004+49570+025600FM-12+032499999V0201101N005012200019N0100001N1+02371+00781102121ADDGA1001+999999999GF100991001001999999001001MD1710121+9999REMSYN054AAXX  10151 33415 42997 01105 10237 20078 40212 57012;
0175334150999992000061018004+49570+025600FM-12+032499999V0200901N003012200019N0100001N1+02041+00781102111ADDAA199000091GA1001+999999999GF100991001001999999001001KA1999M+02371MD1710051+9999REMSYN064AAXX  10181 33415 32997 00903 10204 20078 40211 57005 333 10237;EQDQ01  00002PRCP99
0122334150999992000061021004+49570+025600FM-12+032499999V0200901N002012200019N0100001N1+01541+00711102201ADDGA1001+999999999GF100991001001999999001001MD1310031+9999REMSYN054AAXX  10211 33415 42997 00902 10154 20071 40220 53003;
0143334150999992000061100004+49570+025600FM-12+032499999V0201101N004012200019N0100001N1+01381+00841102231ADDGA1001+999999999GF100991001001999999001001MA1999999098331MD1410001+9999REMSYN060AAXX  11001 33415 42997 01104 10138 20084 39833 40223 54000;
0138334150999992000061103004+49570+025600FM-12+032499999V0200901N003012200019N0100001N1+01241+00841102241ADDGA1001+999999999GF100991001001999999001001MD1410001+9999REMSYN070AAXX  11031 33415 42997 00903 10124 20084 40224 54000 555 20124 7000/;
0175334150999992000061106004+49570+025600FM-12+032499999V0201101N005012200019N0100001N1+01891+00971102151ADDAA199000091GA1001+999999999GF100991001001999999001001KA1999N+01241MD1810011+9999REMSYN064AAXX  11061 33415 32997 01105 10189 20097 40215 58001 333 20124;EQDQ01  00002PRCP99
0122334150999992000061109004+49570+025600FM-12+032499999V0201301N007012200019N0100001N1+02431+01191102051ADDGA1001+999999999GF100991001001999999001001MD1710021+9999REMSYN054AAXX  11091 33415 42997 01307 10243 20119 40205 57002;
0143334150999992000061112004+49570+025600FM-12+032499999V0201301N006012200019N0100001N1+02681+01211101971ADDGA1001+999999999GF100991001001999999001001MA1999999098261MD1710041+9999REMSYN060AAXX  11121 33415 42997 01306 10268 20121 39826 40197 57004;
0122334150999992000061115004+49570+025600FM-12+032499999V0201401N005012200019N0100001N1+02801+01311101871ADDGA1001+999999999GF100991001001999999001001MD1710091+9999REMSYN054AAXX  11151 33415 42997 01405 10280 20131 40187 57009;
0175334150999992000061118004+49570+025600FM-12+032499999V0201301N004012200019N0100001N1+02411+01201101861ADDAA199000091GA1001+999999999GF100991001001999999001001KA1999M+02801MD1710061+9999REMSYN064AAXX  11181 33415 32997 01304 10241 20120 40186 57006 333 10280;EQDQ01  00002PRCP99
0122334150999992000061121004+49570+025600FM-12+032499999V0201301N003012200019N0100001N1+01891+01101101951ADDGA1001+999999999GF100991001001999999001001MD1310031+9999REMSYN054AAXX  11211 33415 42997 01303 10189 20110 40195 53003;
0143334150999992000061200004+49570+025600FM-12+032499999V0200901N002012200019N0100001N1+01601+01021102041ADDGA1001+999999999GF100991001001999999001001MA1999999098181MD1210041+9999REMSYN060AAXX  12001 33415 42997 00902 10160 20102 39818 40204 52004;
0128334150999992000061203004+49570+025600FM-12+032499999V0201301N002012200019N0100001N1+01501+01041102081ADDGF103991031001999999031001MD1210041+9999REMSYN076AAXX  12031 33415 42997 31302 10150 20104 40208 52004 83030 555 20150 7000/;
0165334150999992000061206004+49570+025600FM-12+032499999V0201501N004012200019N0100001N1+01951+01131102101ADDAA199000091GF103991031001999999031001KA1999N+01501MD1210071+9999REMSYN070AAXX  12061 33415 32997 31504 10195 20113 40210 52007 83030 333 20150;EQDQ01  00002PRCP99
0112334150999992000061209004+49570+025600FM-12+032499999V0202001N004012200019N0100001N1+02521+01551101981ADDGF102991001001999999001011MD1810041+9999REMSYN060AAXX  12091 33415 42997 22004 10252 20155 40198 58004 80001;
0133334150999992000061212004+49570+025600FM-12+032499999V0202301N005010120019N0100001N1+03011+01871101891ADDGF105991051011012501001001MA1999999098231MD1710021+9999REMSYN066AAXX  12121 33415 42697 52305 10301 20187 39823 40189 57002 85100;
0112334150999992000061215004+49570+025600FM-12+032499999V0202501N005010120019N0100001N1+03011+01771101881ADDGF106991061011012501001001MD1710011+9999REMSYN060AAXX  12151 33415 42697 62505 10301 20177 40188 57001 86100;
0165334150999992000061218004+49570+025600FM-12+032499999V0202701N004019999999N0100001N1+02621+01691101921ADDAA199000091GF106991001001999999001011KA1999M+03111MD1710011+9999REMSYN070AAXX  12181 33415 32997 62704 10262 20169 40192 57001 80001 333 10311;EQDQ01  00002PRCP99
0112334150999992000061221004+49570+025600FM-12+032499999V0202701N004019999999N0100001N1+02271+01701102081ADDGF107991001001999999001011MD1310101+9999REMSYN060AAXX  12211 33415 42997 72704 10227 20170 40208 53010 80001;
0133334150999992000061300004+49570+025600FM-12+032499999V0202901N004012200019N0100001N1+02051+01791102181ADDGF104991001001999999001011MA1999999098391MD1210081+9999REMSYN066AAXX  13001 33415 42997 42904 10205 20179 39839 40218 52008 80001;
0128334150999992000061303004+49570+025600FM-12+032499999V0203201N005012200019N0100001N1+01801+01641102381ADDGF102991001001999999001011MD1210151+9999REMSYN076AAXX  13031 33415 42997 23205 10180 20164 40238 52015 80001 555 20178 7000/;
0165334150999992000061306004+49570+025600FM-12+032499999V0203201N006012200019N0100001N1+01941+01481102541ADDAA199000091GF102991001001999999001011KA1999N+01781MD1210181+9999REMSYN070AAXX  13061 33415 32997 23206 10194 20148 40254 52018 80001 333 20178;EQDQ01  00002PRCP99
0112334150999992000061309004+49570+025600FM-12+032499999V0203201N003012200019N0100001N1+02281+01001102631ADDGF102991001001999999001011MD1210111+9999REMSYN060AAXX  13091 33415 42997 23203 10228 20100 40263 52011 80001;
0133334150999992000061312004+49570+025600FM-12+032499999V0203001N006012200019N0100001N1+02441+00861102541ADDGF102991001001999999001011MA1999999098771MD1810061+9999REMSYN066AAXX  13121 33415 42997 23006 10244 20086 39877 40254 58006 80001;
0112334150999992000061315004+49570+025600FM-12+032499999V0203201N003012200019N0100001N1+02491+00781102401ADDGF102991001001999999001011MD1710131+9999REMSYN060AAXX  13151 33415 42997 23203 10249 20078 40240 57013 80001;
0165334150999992000061318004+49570+025600FM-12+032499999V0203301N002012200019N0100001N1+02261+01221102411ADDAA199000091GF102991001001999999001011KA1999M+02581MD1710021+9999REMSYN070AAXX  13181 33415 32997 23302 10226 20122 40241 57002 80001 333 10258;EQDQ01  00002PRCP99
0112334150999992000061321004+49570+025590FM-12+032499999V0209999C000012200019N0100001N1+01631+01091102521ADDGF103991001001999999001011MD1310031+9999REMSYN060AAXX  13211 33415 42997 30000 10163 20109 40252 53003 80001;
0133334150999992000061400004+49570+025590FM-12+032499999V0209999C000012200019N0100001N1+01341+00951102521ADDGF103991001001999999001011MA1999999098611MD1810041+9999REMSYN066AAXX  14001 33415 42997 30000 10134 20095 39861 40252 58004 80001;
0128334150999992000061403004+49570+025590FM-12+032499999V0202901N001019999999N0100001N1+01231+00951102431ADDGF105991001001999999001011MD1710101+9999REMSYN076AAXX  14031 33415 42997 52901 10123 20095 40243 57010 80001 555 20122 7000/;
0175334150999992000061406004+49570+025590FM-12+032499999V0203301N004012200019N0100001N1+02071+01241102291ADDAA199000091GA1001+999999999GF100991001001999999001001KA1999N+01221MD1710031+9999REMSYN064AAXX  14061 33415 32997 03304 10207 20124 40229 57003 333 20122;EQDQ01  00002PRCP99
0112334150999992000061409004+49570+025590FM-12+032499999V0201101N006012200019N0100001N1+02621+01351102031ADDGF101991001001999999001011MD1710181+9999REMSYN060AAXX  14091 33415 42997 11106 10262 20135 40203 57018 80001;
0161334150999992000061412004+49570+025590FM-12+032499999V0202901N012010120019N0100001N1+01911+01581102201ADDAY181061AY221061GF107991051031012501031001MA1999999098381MD1310081+9999MW1801REMSYN072AAXX  14121 33415 41697 72912 10191 20158 39838 40220 53008 78082 85330;
0140334150999992000061415004+49570+025590FM-12+032499999V0203201N002010360019N0100001N1+02201+01601101911ADDAY191031AY281031GF107991021031012501031001MD1810241+9999MW1021REMSYN066AAXX  14151 33415 41697 73202 10220 20160 40191 58024 70298 82330;
0180334150999992000061418004+49570+025590FM-12+032499999V0203401N001019999999N0100001N1+02081+01541101791ADDAA112000791AY191061AY281061GF107991031001999999031011KA1999M+02961MD1710131+9999MW1021REMSYN082AAXX  14181 33415 11997 73401 10208 20154 40179 57013 69902 70298 83031 333 10296;
0112334150999992000061421004+49570+025590FM-12+032499999V0202701N004019999999N0100001N1+01911+01581101751ADDGF107991041001999999031011MD1710061+9999REMSYN060AAXX  14211 33415 42997 72704 10191 20158 40175 57006 84031;
0133334150999992000061500004+49570+025590FM-12+032499999V0202301N002019999999N0100001N1+01861+01491101591ADDGF107991041001999999031011MA1999999097791MD1710161+9999REMSYN066AAXX  15001 33415 42997 72302 10186 20149 39779 40159 57016 84031;
0128334150999992000061503004+49570+025590FM-12+032499999V0209999V001019999999N0100001N1+01561+01321101581ADDGF107991031001999999031011MD1710061+9999REMSYN076AAXX  15031 33415 42997 79901 10156 20132 40158 57006 83031 555 20155 7990/;
0165334150999992000061506004+49570+025590FM-12+032499999V0202901N006010360019N0100001N1+02021+01481101421ADDAA199000091GF107991021051012501031001KA1999N+01551MD1710081+9999REMSYN070AAXX  15061 33415 32697 72906 10202 20148 40142 57008 82530 333 20155;EQDQ01  00002PRCP99
0112334150999992000061509004+49570+025590FM-12+032499999V0202901N008010360019N0100001N1+02321+01501101391ADDGF105991021011012501031001MD1410001+9999REMSYN060AAXX  15091 33415 42697 52908 10232 20150 40139 54000 82130;
0133334150999992000061512004+49570+025590FM-12+032499999V0202701N006010360019N0100001N1+02511+01501101351ADDGF106991041031012501031001MA1999999097641MD1810011+9999REMSYN066AAXX  15121 33415 42697 62706 10251 20150 39764 40135 58001 84330;
0140334150999992000061515004+49570+025590FM-12+032499999V0203201N002012200019N0100001N1+02381+01701101221ADDAY181031AY221031GF103991021011012501001011MD1710141+9999MW1021REMSYN066AAXX  15151 33415 41697 33202 10238 20170 40122 57014 70282 82101;
0180334150999992000061518004+49570+025590FM-12+032499999V0202301N003010360019N0100001N1+02081+01701101121ADDAA112002091AY191061AY281061GF107991041031012501031001KA1999M+02521MD1710131+9999MW1801REMSYN082AAXX  15181 33415 11697 72303 10208 20170 40112 57013 60022 78098 84330 333 10252;
0140334150999992000061521004+49570+025590FM-12+032499999V0202301N005010360019N0100001N1+01831+01561101051ADDAY191031AY281031GF107991031031012501031001MD1710091+9999MW1021REMSYN066AAXX  15211 33415 41697 72305 10183 20156 40105 57009 70298 83330;
0161334150999992000061600004+49570+025590FM-12+032499999V0202701N004010360019N0100001N1+01761+01581101041ADDAY191061AY281061GF107991041031012501031001MA1999999097251MD1710031+9999MW1021REMSYN072AAXX  16001 33415 41697 72704 10176 20158 39725 40104 57003 70298 84330;
0182334150999992000061603004+49570+025590FM-12+032499999V0202901N005010063019N0100001N1+01571+01451101061ADDAY181031AY221031GA1051+006309099GF107991051031008001031001MD1410001+9999MW1251REMSYN092AAXX  16031 33415 41597 72905 10157 20145 40106 54000 72582 85330 333 85921 555 20156 7003/;
0202334150999992000061606004+49570+025590FM-12+032499999V0203201N009010039019N0100001N1+01181+01001101261ADDAA112002091AY181061AY221061GA1051+003909099GF107991051031004501031001KA1120N+01171MD1310121+9999MW1801REMSYN088AAXX  16061 33415 11497 73209 10118 20100 40126 53012 60022 78082 85330 333 20117 85913;
0166334150999992000061609004+49570+025590FM-12+032499999V0202901N007010045019N0100001N1+01121+00701101471ADDAY181031AY221031GA1061+004509099GF107991051031004501031001MD1210191+9999MW1251REMSYN076AAXX  16091 33415 41497 72907 10112 20070 40147 52019 72582 85330 333 86915;
0133334150999992000061612004+49570+025590FM-12+032499999V0202901N005010360019N0100001N1+01521+00501101411ADDGF107991021051012501031001MA1999999097561MD1410001+9999REMSYN066AAXX  16121 33415 42697 72905 10152 20050 39756 40141 54000 82530;
0112334150999992000061615004+49570+025590FM-12+032499999V0202901N008010360019N0100001N1+01591+00461101381ADDGF106991031031012501031001MD1810021+9999REMSYN060AAXX  16151 33415 42697 62908 10159 20046 40138 58002 83330;
0152334150999992000061618004+49570+025590FM-12+032499999V0202901N005019999999N0100001N1+01281+00621101481ADDAA112000591GF106991031001999999031011KA1999M+01721MD1310061+9999REMSYN076AAXX  16181 33415 12997 62905 10128 20062 40148 53006 69942 83031 333 10172;
0112334150999992000061621004+49570+025590FM-12+032499999V0202701N004019999999N0100001N1+00981+00551101651ADDGF106991041001999999031011MD1210121+9999REMSYN060AAXX  16211 33415 42997 62704 10098 20055 40165 52012 84031;
0133334150999992000061700004+49570+025590FM-12+032499999V0202701N005012200019N0100001N1+00861+00551101681ADDGF102991011001999999031011MA1999999097731MD1210011+9999REMSYN066AAXX  17001 33415 42997 22705 10086 20055 39773 40168 52001 81031;
0128334150999992000061703004+49570+025590FM-12+032499999V0202701N005012200019N0100001N1+00691+00491101721ADDGF102991021001999999031001MD1210021+9999REMSYN076AAXX  17031 33415 42997 22705 10069 20049 40172 52002 82030 555 20069 7994/;
0187334150999992000061706004+49570+025590FM-12+032499999V0202801N007010360019N0100001N1+01001+00551101761ADDAA199000091GA1041+006309059GF106991041051008001031001KA1120N+00691MD1210081+9999REMSYN076AAXX  17061 33415 32597 62807 10100 20055 40176 52008 84530 333 20069 84621;EQDQ01  00002PRCP99
0166334150999992000061709004+49570+025590FM-12+032499999V0202901N006010051019N0100001N1+01201+00451101861ADDAY181031AY221031GA1061+005109099GF107991061031004501031001MD1210121+9999MW1801REMSYN076AAXX  17091 33415 41497 72906 10120 20045 40186 52012 78082 86330 333 86917;
0187334150999992000061712004+49570+025590FM-12+032499999V0202701N008010360019N0100001N1+01171+00211101931ADDAY181061AY221061GA1031+008409099GF106991031031008001031001MA1999999098021MD1210071+9999MW1021REMSYN082AAXX  17121 33415 41597 62708 10117 20021 39802 40193 52007 70282 83330 333 83928;
0140334150999992000061715004+49570+025590FM-12+032499999V0203101N008010360019N0100001N1+01341+00361101961ADDAY181031AY221031GF106991021031012501031011MD1210041+9999MW1021REMSYN066AAXX  17151 33415 41697 63108 10134 20036 40196 52004 70282 82331;
0180334150999992000061718004+49570+025590FM-12+032499999V0203101N008010360019N0100001N1+01231+00231102051ADDAA112000791AY181061AY221061GF105991021031012501031001KA1999M+01471MD1210071+9999MW1021REMSYN082AAXX  17181 33415 11697 53108 10123 20023 40205 52007 69902 70282 82330 333 10147;
0140334150999992000061721004+49570+025590FM-12+032499999V0202701N005010360019N0100001N1+01041+00561102201ADDAY181031AY221031GF107991041031012501031001MD1210141+9999MW1021REMSYN066AAXX  17211 33415 41697 72705 10104 20056 40220 52014 70282 84330;
0161334150999992000061800004+49570+025590FM-12+032499999V0202701N006019999999N0100001N1+00801+00531102281ADDAY181061AY221061GF105991051001999999031001MA1999999098301MD1210031+9999MW1021REMSYN072AAXX  18001 33415 41997 52706 10080 20053 39830 40228 52003 70282 85030;
0128334150999992000061803004+49570+025590FM-12+032499999V0202901N006019999999N0100001N1+00731+00581102321ADDGF106991061001999999031001MD1210021+9999REMSYN076AAXX  18031 33415 42997 62906 10073 20058 40232 52002 86030 555 20072 7993/;
0152334150999992000061806004+49570+025590FM-12+032499999V0202701N009010360019N0100001N1+00911+00671102291ADDAA112000391GF107991031031012501031001KA1999N+00721MD1410001+9999REMSYN076AAXX  18061 33415 12697 72709 10091 20067 40229 54000 69932 83330 333 20072;
0112334150999992000061809004+49570+025590FM-12+032499999V0202901N008010120019N0100001N1+01161+00621102261ADDGF107991051031012501031001MD1310011+9999REMSYN060AAXX  18091 33415 42697 72908 10116 20062 40226 53001 85330;
0171334150999992000061812004+49570+025590FM-12+032499999V0203201N012010120019N0100001N1+01281+00131102221ADDAY181061AY221061GF107991051031012501031001MA1999999098311MD1810021+9999MW1251REMSYN082AAXX  18121 33415 41697 73212 10128 20013 39831 40222 58002 72582 85330 333 91120;
0112334150999992000061815004+49570+025590FM-12+032499999V0203201N005010360019N0100001N1+01311-00021102241ADDGF106991031031012501031001MD1310021+9999REMSYN060AAXX  18151 33415 42697 63205 10131 21002 40224 53002 83330;
0152334150999992000061818004+49570+025590FM-12+032499999V0203401N009010360019N0100001N1+01111+00061102411ADDAA112000791GF106991021031012501031001KA1999M+01331MD1210141+9999REMSYN076AAXX  18181 33415 12697 63409 10111 20006 40241 52014 69902 82330 333 10133;
0112334150999992000061821004+49570+025590FM-12+032499999V0202901N005010360019N0100001N1+00731+00231102611ADDGF105991021031012501031001MD1210131+9999REMSYN060AAXX  18211 33415 42697 52905 10073 20023 40261 52013 82330;
0133334150999992000061900004+49570+025590FM-12+032499999V0202901N005012200019N0100001N1+00701+00401102701ADDGF103991031001999999031001MA1999999098691MD1210091+9999REMSYN066AAXX  19001 33415 42997 32905 10070 20040 39869 40270 52009 83030;
0128334150999992000061903004+49570+025590FM-12+032499999V0202901N006012200019N0100001N1+00501+00201102731ADDGF102991001001999999001011MD1410001+9999REMSYN076AAXX  19031 33415 42997 22906 10050 20020 40273 54000 80001 555 20047 7990/;
0175334150999992000061906004+49570+025590FM-12+032499999V0203201N006012200019N0100001N1+01101+00361102711ADDAA199000091GF102991001001999999001011KA1120N+00471MD1310061+9999REMSYN080AAXX  19061 33415 32997 23206 10110 20036 40271 53006 80001 333 20047 555 30004;EQDQ01  00002PRCP99
0112334150999992000061909004+49570+025590FM-12+032499999V0203201N008010120019N0100001N1+01381+00191102651ADDGF107991071021012501001001MD1810021+9999REMSYN060AAXX  19091 33415 42697 73208 10138 20019 40265 58002 87200;
0133334150999992000061912004+49570+025590FM-12+032499999V0202901N008010120019N0100001N1+01561+00271102491ADDGF107991071021012501001001MA1999999098601MD1710131+9999REMSYN066AAXX  19121 33415 42697 72908 10156 20027 39860 40249 57013 87200;
0112334150999992000061915004+49570+025590FM-12+032499999V0203201N008010120019N0100001N1+01541+00361102361ADDGF107991061021012501001011MD1710131+9999REMSYN060AAXX  19151 33415 42697 73208 10154 20036 40236 57013 86201;
0165334150999992000061918004+49570+025590FM-12+032499999V0203201N007010120019N0100001N1+01401+00301102331ADDAA199000091GF107991071051012501001001KA1999M+01621MD1710041+9999REMSYN070AAXX  19181 33415 32697 73207 10140 20030 40233 57004 87500 333 10162;EQDQ01  00002PRCP99
0112334150999992000061921004+49570+025590FM-12+032499999V0203201N002019999999N0100001N1+01061+00381102371ADDGF105991051001999999031001MD1410001+9999REMSYN060AAXX  19211 33415 42997 53202 10106 20038 40237 54000 85030;
0133334150999992000062000004+49570+025590FM-12+032499999V0202701N003012200019N0100001N1+00781+00361102381ADDGF103991031001999999031001MA1999999098401MD1810031+9999REMSYN066AAXX  20001 33415 42997 32703 10078 20036 39840 40238 58003 83030;
0128334150999992000062003004+49570+025590FM-12+032499999V0209999C000019999999N0100001N1+00321+00111102461ADDGF105991041001999999031011MD1410001+9999REMSYN076AAXX  20031 33415 42997 50000 10032 20011 40246 54000 84031 555 20032 7000/;
0199334150999992000062006004+49570+025590FM-12+032499999V0209999C000010120019N0100001N1+00981+00681102261ADDAA199000091GF107991071051012501001001IA1019IA2999+00209KA1120N+00321MD1810101+9999REMSYN086AAXX  20061 33415 32697 70000 10098 20068 40226 58010 87500 333 20032 555 30002 52001;EQDQ01  00002PRCP99
0112334150999992000062009004+49570+025590FM-12+032499999V0202701N005010360019N0100001N1+01721+00671102031ADDGF107991021051012501031001MD1710121+9999REMSYN060AAXX  20091 33415 42697 72705 10172 20067 40203 57012 82530;
0133334150999992000062012004+49570+025590FM-12+032499999V0202901N004010360019N0100001N1+02001+00511101831ADDGF107991041051012501031001MA1999999098031MD1710151+9999REMSYN066AAXX  20121 33415 42697 72904 10200 20051 39803 40183 57015 84530;
0112334150999992000062015004+49570+025590FM-12+032499999V0202901N005010120019N0100001N1+02241+00711101591ADDGF105991051011012501001001MD1710201+9999REMSYN060AAXX  20151 33415 42697 52905 10224 20071 40159 57020 85100;
0165334150999992000062018004+49570+025590FM-12+032499999V0202701N004019999999N0100001N1+02061+00951101521ADDAA199000091GF107991041001999999031011KA1999M+02251MD1710091+9999REMSYN070AAXX  20181 33415 32997 72704 10206 20095 40152 57009 84031 333 10225;EQDQ01  00002PRCP99
0166334150999992000062021004+49570+025590FM-12+032499999V0203601N004010081019N0100001N1+01521+01361101571ADDAY191031AY281031GA1061+008109099GF108991061031008001031999MD1710021+9999MW1951REMSYN076AAXX  20211 33415 42597 83604 10152 20136 40157 57002 79598 8633/ 333 86927;
0187334150999992000062100004+49570+025590FM-12+032499999V0200501N004010090019N0100001N1+01511+01401101501ADDAY191061AY281061GA1051+009009099GF107991051031008001031001MA1999999097661MD1710061+9999MW1951REMSYN082AAXX  21001 33415 42597 70504 10151 20140 39766 40150 57006 79598 85330 333 85930;
0182334150999992000062103004+49570+025590FM-12+032499999V0202501N003010360019N0100001N1+01441+01371101251ADDAY191031AY281031GA1041+009609099GF107991041031008001031001MD1710261+9999MW1251REMSYN092AAXX  21031 33415 42597 72503 10144 20137 40125 57026 72598 84330 333 84932 555 20143 7015/;
0180334150999992000062106004+49570+025590FM-12+032499999V0202301N003010120019N0100001N1+01651+01511100971ADDAA112015091AY191061AY281061GF107991051031012501031001KA1999N+01431MD1710231+9999MW1021REMSYN082AAXX  21061 33415 11697 72303 10165 20151 40097 57023 60152 70298 85330 333 20143;
0112334150999992000062109004+49570+025590FM-12+032499999V0203301N006010360019N0100001N1+01981+01271100961ADDGF107991031011012501031011MD1310031+9999REMSYN060AAXX  21091 33415 42697 73306 10198 20127 40096 53003 83131;
0133334150999992000062112004+49570+025590FM-12+032499999V0203301N006012200019N0100001N1+02241+01441100971ADDGF105991041011012501001011MA1999999097241MD1210041+9999REMSYN066AAXX  21121 33415 42697 53306 10224 20144 39724 40097 52004 84101;
0112334150999992000062115004+49570+025590FM-12+032499999V0203301N006012200019N0100001N1+02211+01341101101ADDGF105991021011012501001011MD1210121+9999REMSYN060AAXX  21151 33415 42697 53306 10221 20134 40110 52012 82101;
0165334150999992000062118004+49570+025590FM-12+032499999V0203501N002019999999N0100001N1+02021+01441101181ADDAA199000091GF106991001001999999001011KA1999M+02261MD1210051+9999REMSYN070AAXX  21181 33415 32997 63502 10202 20144 40118 52005 80001 333 10226;EQDQ01  00002PRCP99
0112334150999992000062121004+49570+025590FM-12+032499999V0203601N002019999999N0100001N1+01551+01171101261ADDGF105991001001999999001011MD1210021+9999REMSYN060AAXX  21211 33415 42997 53602 10155 20117 40126 52002 80001;
0133334150999992000062200004+49570+025590FM-12+032499999V0200401N002019999999N0100001N1+01371+01121101431ADDGF105991001001999999001011MA1999999097471MD1210041+9999REMSYN066AAXX  22001 33415 42997 50402 10137 20112 39747 40143 52004 80001;
0128334150999992000062203004+49570+025590FM-12+032499999V0209999C000019999999N0100001N1+01421+01291101201ADDGF106991051001999999031011MD1810021+9999REMSYN076AAXX  22031 33415 42997 60000 10142 20129 40120 58002 85031 555 20136 7000/;
0165334150999992000062206004+49570+025590FM-12+032499999V0203201N003012200019N0100001N1+02031+01491101211ADDAA199000091GF102991021011012501001001KA1999N+01361MD1710011+9999REMSYN070AAXX  22061 33415 32697 23203 10203 20149 40121 57001 82100 333 20136;EQDQ01  00002PRCP99
0112334150999992000062209004+49570+025590FM-12+032499999V0203601N004012200019N0100001N1+02461+01351101131ADDGF101991001001999999001011MD1710011+9999REMSYN060AAXX  22091 33415 42997 13604 10246 20135 40113 57001 80001;
0133334150999992000062212004+49570+025590FM-12+032499999V0203201N006012200019N0100001N1+02631+01431101141ADDGF103991031011012501001001MA1999999097451MD1310021+9999REMSYN066AAXX  22121 33415 42697 33206 10263 20143 39745 40114 53002 83100;
0122334150999992000062215004+49570+025590FM-12+032499999V0203601N007012200019N0100001N1+02741+00971101121ADDGA1001+999999999GF100991001001999999001001MD1810011+9999REMSYN054AAXX  22151 33415 42997 03607 10274 20097 40112 58001;
0165334150999992000062218004+49570+025590FM-12+032499999V0200501N002012200019N0100001N1+02411+01661101181ADDAA199000091GF102991021011012501001001KA1999M+02741MD1310041+9999REMSYN070AAXX  22181 33415 32697 20502 10241 20166 40118 53004 82100 333 10274;EQDQ01  00002PRCP99
0112334150999992000062221004+49570+025590FM-12+032499999V0209999C000012200019N0100001N1+01911+01631101381ADDGF103991031001999999031001MD1210111+9999REMSYN060AAXX  22211 33415 42997 30000 10191 20163 40138 52011 83030;
0133334150999992000062300004+49570+025590FM-12+032499999V0209999C000012200019N0100001N1+01701+01501101491ADDGF102991001001999999001011MA1999999097681MD1210091+9999REMSYN066AAXX  23001 33415 42997 20000 10170 20150 39768 40149 52009 80001;
0128334150999992000062303004+49570+025590FM-12+032499999V0209999C000012200019N0100001N1+01531+01391101531ADDGF102991001001999999001011MD1210011+9999REMSYN076AAXX  23031 33415 42997 20000 10153 20139 40153 52001 80001 555 20153 7000/;
0175334150999992000062306004+49570+025590FM-12+032499999V0201401N004012200019N0100001N1+02121+01441101481ADDAA199000091GA1001+999999999GF100991001001999999001001KA1999N+01531MD1210021+9999REMSYN064AAXX  23061 33415 32997 01404 10212 20144 40148 52002 333 20153;EQDQ01  00002PRCP99
0112334150999992000062309004+49570+025590FM-12+032499999V0201601N005019999999N0100001N1+02541+01301101471ADDGF105991031001999999031011MD1210041+9999REMSYN060AAXX  23091 33415 42997 51605 10254 20130 40147 52004 83031;
0133334150999992000062312004+49570+025590FM-12+032499999V0201401N005012200019N0100001N1+02711+01381101371ADDGF102991001001999999001011MA1999999097681MD1810071+9999REMSYN066AAXX  23121 33415 42997 21405 10271 20138 39768 40137 58007 80001;
0112334150999992000062315004+49570+025590FM-12+032499999V0201101N004012200019N0100001N1+02741+01421101311ADDGF102991001001999999001011MD1710061+9999REMSYN060AAXX  23151 33415 42997 21104 10274 20142 40131 57006 80001;
0165334150999992000062318004+49570+025590FM-12+032499999V0201101N004019999999N0100001N1+02391+01541101291ADDAA199000091GF105991001001999999001011KA1999M+02761MD1710051+9999REMSYN070AAXX  23181 33415 32997 51104 10239 20154 40129 57005 80001 333 10276;EQDQ01  00002PRCP99
0112334150999992000062321004+49570+025590FM-12+032499999V0201101N003019999999N0100001N1+02011+01611101331ADDGF106991001001999999001011MD1710011+9999REMSYN060AAXX  23211 33415 42997 61103 10201 20161 40133 57001 80001;
0133334150999992000062400004+49570+025590FM-12+032499999V0209999C000012200019N0100001N1+01841+01601101351ADDGF103991001001999999001011MA1999999097561MD1410001+9999REMSYN066AAXX  24001 33415 42997 30000 10184 20160 39756 40135 54000 80001;
0128334150999992000062403004+49570+025590FM-12+032499999V0202501N002019999999N0100001N1+01561+01421101341ADDGF106991051001999999031011MD1810051+9999REMSYN076AAXX  24031 33415 42997 62502 10156 20142 40134 58005 85031 555 20155 7000/;
0165334150999992000062406004+49570+025590FM-12+032499999V0203201N002012200019N0100001N1+02081+01691101241ADDAA199000091GF103991021001999999031011KA1999N+01551MD1710021+9999REMSYN070AAXX  24061 33415 32997 33202 10208 20169 40124 57002 82031 333 20155;EQDQ01  00002PRCP99
0112334150999992000062409004+49570+025590FM-12+032499999V0202901N002012200019N0100001N1+02571+01921101121ADDGF103991031011012501001001MD1710051+9999REMSYN060AAXX  24091 33415 42697 32902 10257 20192 40112 57005 83100;
0133334150999992000062412004+49570+025590FM-12+032499999V0202901N001012200019N0100001N1+02781+01921100981ADDGF103991031011012501001001MA1999999097331MD1710111+9999REMSYN066AAXX  24121 33415 42697 32901 10278 20192 39733 40098 57011 83100;
0112334150999992000062415004+49570+025590FM-12+032499999V0202901N003012200019N0100001N1+02891+01911100801ADDGF102991021011012501001001MD1710171+9999REMSYN060AAXX  24151 33415 42697 22903 10289 20191 40080 57017 82100;
0165334150999992000062418004+49570+025590FM-12+032499999V0209999V002010120019N0100001N1+02541+02071100811ADDAA199000091GF107991051031012501031001KA1999M+02901MD1710031+9999REMSYN070AAXX  24181 33415 32697 79902 10254 20207 40081 57003 85330 333 10290;EQDQ01  00002PRCP99
0140334150999992000062421004+49570+025590FM-12+032499999V0209999V002010120019N0100001N1+01981+01641100801ADDAY191031AY281031GF107991051031012501031001MD1710081+9999MW1951REMSYN066AAXX  24211 33415 41697 79902 10198 20164 40080 57008 79598 85330;
0161334150999992000062500004+49570+025590FM-12+032499999V0202901N002010120019N0100001N1+01861+01661100871ADDAY191061AY281061GF107991051031012501031001MA1999999097101MD1310051+9999MW1951REMSYN072AAXX  25001 33415 41697 72902 10186 20166 39710 40087 53005 79598 85330;
0129334150999992000062503004+49570+025590FM-12+032499999V0202901N002019999999N0100001N1+01511+01381100961ADDGF105991051001999999031001MD1210031+9999REMSYN077AAXX  25031 33415 42997 52902 10151 20138 40096 52003 85030 555 200150 7994/;
0202334150999992000062506004+49570+025590FM-12+032499999V0202901N003010360019N0100001N1+01631+01401101041ADDAA112000591AY191061AY221061GA1041+009009079GF107991041031008001031001KA1120N+01511MD1210101+9999MW1021REMSYN088AAXX  25061 33415 11597 72903 10163 20140 40104 52010 69942 70292 84330 333 20151 84330;
0138334150999992000062509004+49570+025590FM-12+032499999V0203101N003010081019N0100001N1+01791+01311101081ADDGA1051+008109099GF107991051031008001031001MD1210061+9999REMSYN070AAXX  25091 33415 42597 73103 10179 20131 40108 52006 85330 333 85927;
0133334150999992000062512004+49570+025590FM-12+032499999V0203301N002010360019N0100001N1+02131+01311101091ADDGF107991041031012501031011MA1999999097241MD1810051+9999REMSYN066AAXX  25121 33415 42697 73302 10213 20131 39724 40109 58005 84331;
0112334150999992000062515004+49570+025590FM-12+032499999V0203601N002010360019N0100001N1+02201+01331100841ADDGF107991041031012501031001MD1710131+9999REMSYN060AAXX  25151 33415 42697 73602 10220 20133 40084 57013 84330;
0180334150999992000062518004+49570+025590FM-12+032499999V0203201N002010120019N0100001N1+01721+01601100961ADDAA112007991AY191061AY281061GF107991051031012501031001KA1999M+02221MD1310051+9999MW1951REMSYN082AAXX  25181 33415 11697 73202 10172 20160 40096 53005 60082 79598 85330 333 10222;
0140334150999992000062521004+49570+025590FM-12+032499999V0209999C000019999999N0100001N1+01511+01441100881ADDAY191031AY221031GF106991051001999999031011MD1710101+9999MW1021REMSYN066AAXX  25211 33415 41997 60000 10151 20144 40088 57010 70292 85031;
0161334150999992000062600004+49570+025590FM-12+032499999V0202701N002010360019N0100001N1+01621+01551100771ADDAY191061AY281061GF107991021031012501031001MA1999999096971MD1710091+9999MW1021REMSYN072AAXX  26001 33415 41697 72702 10162 20155 39697 40077 57009 70298 82330;
0182334150999992000062603004+49570+025590FM-12+032499999V0202901N008010042019N0100001N1+01211+01151100901ADDAY181031AY221031GA1061+004209099GF107991061031004501031001MD1310161+9999MW1801REMSYN092AAXX  26031 33415 41497 72908 10121 20115 40090 53016 78082 86330 333 86914 555 20120 7012/;
0202334150999992000062606004+49570+025590FM-12+032499999V0203101N007010039019N0100001N1+01271+01211101131ADDAA112005191AY181061AY221061GA1051+003909099GF107991051031012501031001KA1120N+01201MD1210131+9999MW1251REMSYN088AAXX  26061 33415 11697 73107 10127 20121 40113 52013 60052 72582 85330 333 20120 85913;
0138334150999992000062609004+49570+025590FM-12+032499999V0202901N006010063019N0100001N1+01481+01061101221ADDGA1061+006309099GF107991061031008001031001MD1210111+9999REMSYN070AAXX  26091 33415 42597 72906 10148 20106 40122 52011 86330 333 86921;
0159334150999992000062612004+49570+025590FM-12+032499999V0202901N008010081019N0100001N1+01581+00921101301ADDGA1051+008109099GF107991051031008001031001MA1999999097471MD1210101+9999REMSYN076AAXX  26121 33415 42597 72908 10158 20092 30747 40130 52010 85330 333 85927;
0138334150999992000062615004+49570+025590FM-12+032499999V0202701N005010096019N0100001N1+01731+01041101251ADDGA1051+009609099GF107991051031008001031001MD1810031+9999REMSYN070AAXX  26151 33415 42597 72705 10173 20104 40125 58003 85330 333 85932;
0146334150999992000062618004+49570+025590FM-12+032499999V0202701N004010360019N0100001N1+01601+00941101351ADDAA199000021GF106991021051012501031001KA1999M+01741MD1310071+9999REMSYN070AAXX  26181 33415 32697 62704 10160 20094 40135 53007 82530 333 10174;
0112334150999992000062621004+49570+025590FM-12+032499999V0202701N003012200019N0100001N1+01241+00941101471ADDGF103991031001999999031001MD1210081+9999REMSYN060AAXX  26211 33415 42997 32703 10124 20094 40147 52008 83030;
0133334150999992000062700004+49570+025590FM-12+032499999V0202901N002012200019N0100001N1+01011+00801101531ADDGF101991011001999999031001MA1999999097611MD1210021+9999REMSYN066AAXX  27001 33415 42997 12902 10101 20080 39761 40153 52002 81030;
0128334150999992000062703004+49570+025590FM-12+032499999V0203201N002019999999N0100001N1+00881+00731101561ADDGF106991061001999999031001MD1210011+9999REMSYN076AAXX  27031 33415 42997 63202 10088 20073 40156 52001 86030 555 20085 7996/;
0165334150999992000062706004+49570+025590FM-12+032499999V0202901N003010120019N0100001N1+01291+00891101541ADDAA199000091GF107991051031012501031001KA1999N+00851MD1210041+9999REMSYN070AAXX  27061 33415 32697 72903 10129 20089 40154 52004 85330 333 20085;EQDQ01  00002PRCP99
0140334150999992000062709004+49570+025590FM-12+032499999V0202701N004010120019N0100001N1+01051+00861101541ADDAY181031AY221031GF107991051031012501031001MD1810031+9999MW1801REMSYN066AAXX  27091 33415 41697 72704 10105 20086 40154 58003 78082 85330;
0161334150999992000062712004+49570+025590FM-12+032499999V0209999V002010120019N0100001N1+01291+00821101511ADDAY181061AY221061GF107991051031012501031001MA1999999097631MD1410001+9999MW1021REMSYN072AAXX  27121 33415 41697 79902 10129 20082 39763 40151 54000 70282 85330;
0140334150999992000062715004+49570+025590FM-12+032499999V0202701N004010360019N0100001N1+01181+00851101491ADDAY121031AY221031GF107991041031012501031001MD1810041+9999MW1251REMSYN066AAXX  27151 33415 41697 72704 10118 20085 40149 58004 72522 84330;
0180334150999992000062718004+49570+025590FM-12+032499999V0202901N003010120019N0100001N1+01091+00931101481ADDAA112004191AY181061AY221061GF107991061031012501031001KA1999M+01401MD1710021+9999MW1021REMSYN082AAXX  27181 33415 11697 72903 10109 20093 40148 57002 60042 70282 86330 333 10140;
0140334150999992000062721004+49570+025590FM-12+032499999V0202301N004010360019N0100001N1+00981+00881101491ADDAY181031AY221031GF107991031031012501031001MD1410001+9999MW1021REMSYN066AAXX  27211 33415 41697 72304 10098 20088 40149 54000 70282 83330;
0161334150999992000062800004+49570+025590FM-12+032499999V0202701N004019999999N0100001N1+00781+00671101551ADDAY181061AY221061GF105991051001999999031001MA1999999097601MD1310031+9999MW1021REMSYN072AAXX  28001 33415 41997 52704 10078 20067 39760 40155 53003 70282 85030;
0128334150999992000062803004+49570+025590FM-12+032499999V0202701N005012200019N0100001N1+00641+00551101581ADDGF102991021001999999031001MD1410001+9999REMSYN076AAXX  28031 33415 42997 22705 10064 20055 40158 54000 82030 555 20062 7004/;
0152334150999992000062806004+49570+025590FM-12+032499999V0202901N006012200019N0100001N1+01061+00681101541ADDAA112000791GF103991031001999999031001KA1999N+00621MD1310031+9999REMSYN076AAXX  28061 33415 12997 32906 10106 20068 40154 53003 69902 83030 333 20062;
0112334150999992000062809004+49570+025590FM-12+032499999V0202701N007010360019N0100001N1+01321+00731101491ADDGF107991041031012501031001MD1810021+9999REMSYN060AAXX  28091 33415 42697 72707 10132 20073 40149 58002 84330;
0161334150999992000062812004+49570+025590FM-12+032499999V0202701N005010360019N0100001N1+01481+00531101451ADDAY181061AY221061GF107991041031012501031001MA1999999097601MD1710011+9999MW1021REMSYN072AAXX  28121 33415 41697 72705 10148 20053 39760 40145 57001 70282 84330;
0112334150999992000062815004+49570+025590FM-12+032499999V0202701N004010360019N0100001N1+01561+00451101401ADDGF107991031031012501031001MD1710041+9999REMSYN060AAXX  28151 33415 42697 72704 10156 20045 40140 57004 83330;
0152334150999992000062818004+49570+025590FM-12+032499999V0202701N003010360019N0100001N1+01411+00511101441ADDAA112000791GF107991021051012501031001KA1999M+01571MD1310011+9999REMSYN076AAXX  28181 33415 12697 72703 10141 20051 40144 53001 69902 82530 333 10157;
0112334150999992000062821004+49570+025590FM-12+032499999V0202701N004010360019N0100001N1+01031+00531101531ADDGF107991041031012501031001MD1210041+9999REMSYN060AAXX  28211 33415 42697 72704 10103 20053 40153 52004 84330;
0161334150999992000062900004+49570+025590FM-12+032499999V0202501N003010360019N0100001N1+00881+00661101551ADDAY181061AY221061GF106991021031012501031001MA1999999097611MD1410001+9999MW1021REMSYN072AAXX  29001 33415 41697 62503 10088 20066 39761 40155 54000 70282 82330;
0128334150999992000062903004+49570+025590FM-12+032499999V0209999C000010360019N0100001N1+00791+00641101531ADDGF107991031051012501031001MD1810031+9999REMSYN076AAXX  29031 33415 42697 70000 10079 20064 40153 58003 83530 555 20078 7994/;
0152334150999992000062906004+49570+025590FM-12+032499999V0202501N003010360019N0100001N1+01141+00851101481ADDAA112000591GF107991041031012501031001KA1999N+00781MD1410001+9999REMSYN076AAXX  29061 33415 12697 72503 10114 20085 40148 54000 69942 84330 333 20078;
0132334150999992000062909004+49570+025590FM-12+032499999V0202901N004010099019N0100001N1+01561+00851101381ADDGA1061+009909099GF107991999999008001999999MD1810041+9999REMSYN064AAXX  29091 33415 42597 72904 10156 20085 40138 58004 333 86933;
0133334150999992000062912004+49570+025590FM-12+032499999V0202701N005010120019N0100001N1+01581+00611101381ADDGF107991061031012501031001MA1999999097541MD1410001+9999REMSYN066AAXX  29121 33415 42697 72705 10158 20061 39754 40138 54000 86330;
0112334150999992000062915004+49570+025590FM-12+032499999V0202301N003010120019N0100001N1+01601+00451101341ADDGF107991061031012501031001MD1810041+9999REMSYN060AAXX  29151 33415 42697 72303 10160 20045 40134 58004 86330;
0165334150999992000062918004+49570+025590FM-12+032499999V0202301N001010120019N0100001N1+01461+00641101421ADDAA199000091GF107991051031012501031001KA1999M+01611MD1310071+9999REMSYN070AAXX  29181 33415 32697 72301 10146 20064 40142 53007 85330 333 10161;EQDQ01  00002PRCP99
0112334150999992000062921004+49570+025590FM-12+032499999V0202701N004010120019N0100001N1+01291+00681101481ADDGF107991061091012501031001MD1210031+9999REMSYN060AAXX  29211 33415 42697 72704 10129 20068 40148 52003 86930;
0161334150999992000063000004+49570+025590FM-12+032499999V0202701N003010360019N0100001N1+01011+00821101581ADDAY181061AY221061GF106991021031012501031001MA1999999097671MD1210071+9999MW1021REMSYN072AAXX  30001 33415 41697 62703 10101 20082 39767 40158 52007 70282 82330;
0128334150999992000063003004+49570+025590FM-12+032499999V0209999C000010360019N0100001N1+00961+00811101521ADDGF107991021031012501031001MD1810071+9999REMSYN076AAXX  30031 33415 42697 70000 10096 20081 40152 58007 82330 555 20096 7994/;
0180334150999992000063006004+49570+025590FM-12+032499999V0209999C000010120019N0100001N1+01121+00921101561ADDAA112000591AY181061AY221061GF107991051031012501031001KA1999N+00961MD1310061+9999MW1021REMSYN082AAXX  30061 33415 11697 70000 10112 20092 40156 53006 69942 70282 85330 333 20096;
0112334150999992000063009004+49570+025590FM-12+032499999V0209999V001010120019N0100001N1+01631+00861101511ADDGF107991051051012501031001MD1210021+9999REMSYN060AAXX  30091 33415 42697 79901 10163 20086 40151 52002 85530;
0161334150999992000063012004+49570+025590FM-12+032499999V0202901N006010120019N0100001N1+01721+00951101421ADDAY181061AY221061GF107991051031012501031001MA1999999097611MD1810071+9999MW1801REMSYN072AAXX  30121 33415 41697 72906 10172 20095 39761 40142 58007 78082 85330;
0140334150999992000063015004+49570+025590FM-12+032499999V0200201N004010360019N0100001N1+01661+01241101351ADDAY181031AY221031GF107991041031012501031001MD1710091+9999MW1801REMSYN066AAXX  30151 33415 41697 70204 10166 20124 40135 57009 78082 84330;
0180334150999992000063018004+49570+025590FM-12+032499999V0209999C000010360019N0100001N1+01551+01251101411ADDAA112003091AY181061AY221061GF107991021031012501031001KA1999M+01761MD1310051+9999MW1021REMSYN082AAXX  30181 33415 11697 70000 10155 20125 40141 53005 60032 70282 82330 333 10176;
0112334150999992000063021004+49570+025590FM-12+032499999V0209999C000019999999N0100001N1+01221+00991101471ADDGF106991061001999999031001MD1210021+9999REMSYN060AAXX  30211 33415 42997 60000 10122 20099 40147 52002 86030;
0170334150999992000070100004+49570+025590FM-12+032499999V0202501N003019999999N0040001N1+01101+01001101501ADDAY121061AY221061GF107991999999008001999999MA1999999097591MD1410001+9999MW1101REMSYN081AAXX  01001 33415 41596 72503 10110 20100 39759 40150 54000 71022 8330 333 85921;
0156334150999992000070103004+49570+025590FM-12+032499999V0203401N002010120019N0040001N1+01131+01071101441ADDAY181031AY221031GF107991051031012501031001MD1810051+9999MW1101REMSYN082AAXX  01031 33415 41696 73402 10113 20107 40144 58005 71082 85330 555 20109 7004/;
0180334150999992000070106004+49570+025590FM-12+032499999V0200901N003012200019N0100001N1+01411+01061101421ADDAA112000591AY181061AY211061GF103991031001999999031001KA1999N+01091MD1310031+9999MW1011REMSYN082AAXX  01061 33415 31997 30903 10141 20106 40142 53003 69962 70181 83030 333 20109;
0112334150999992000070109004+49570+025590FM-12+032499999V0209999V001010120019N0100001N1+01791+01231101391ADDGF106991061011012501001001MD1210021+9999REMSYN060AAXX  01091 33415 42697 69901 10179 20123 40139 52002 86100;
0187334150999992000070112004+49570+025590FM-12+032499999V0202701N006010081019N0100001N1+01961+01391101341ADDAY181061AY221061GA1061+008109099GF107991061031008001031001MA1999999097571MD1810021+9999MW1801REMSYN082AAXX  01121 33415 41597 72706 10196 20139 39757 40134 58002 78082 86330 333 86927;
0140334150999992000070115004+49570+025590FM-12+032499999V0209999V001010360019N0100001N1+01891+01401101351ADDAY181031AY221031GF107991041031012501031001MD1710011+9999MW1021REMSYN066AAXX  01151 33415 42697 79901 10189 20140 40135 57001 70282 84330;
0180334150999992000070118004+49570+025590FM-12+032499999V0209999V002010360019N0100001N1+01781+01301101351ADDAA112002091AY181061AY221061GF107991021031012501031001KA1999M+02101MD1710011+9999MW1021REMSYN082AAXX  01181 33415 11697 79902 10178 20130 40135 57001 60022 70282 82330 333 10210;
0112334150999992000070121004+49570+025590FM-12+032499999V0201601N003012200019N0100001N1+01371+01171101451ADDGF102991021001999999031001MD1310021+9999REMSYN060AAXX  01211 33415 42997 21603 10137 20117 40145 53002 82030;
0180334150999992000070200004+49570+025590FM-12+032499999V0202901N001019999999N0100001N1+01211+01111101441ADDAY181061AY221061GF107991999001004501031001MA1999999097581MD1310011+9999MW1021REMSYN072AAXX  02001 33415 41497 72901 10121 20111 39758 40144 53001 70282 82030;EQDQ01+000022SCOTLC
0128334150999992000070203004+49570+025590FM-12+032499999V0209999V002012200019N0100001N1+01191+01071101421ADDGF102991021001999999031001MD1810051+9999REMSYN076AAXX  02031 33415 42997 29902 10119 20107 40142 58005 82030 555 20117 7005/;
0112334150999992000070209004+49570+025590FM-12+032499999V0201601N005012200019N0100001N1+02441+01281101181ADDGF103991021001999999031011MD1710061+9999REMSYN060AAXX  02091 33415 42997 31605 10244 20128 40118 57006 82031;
0161334150999992000070212004+49570+025590FM-12+032499999V0202001N005010360019N0100001N1+02371+01441101081ADDAY181061AY221061GF107991031031012501031001MA1999999097361MD1710101+9999MW1021REMSYN072AAXX  02121 33415 41697 72005 10237 20144 39736 40108 57010 70282 83330;
0180334150999992000070218004+49570+025590FM-12+032499999V0202301N002010360019N0100001N1+01741+01481101251ADDAA112003091AY191061AY281061GF107991031031012501031001KA1999M+02581MD1310101+9999MW1021REMSYN082AAXX  02181 33415 11697 72302 10174 20148 40125 53010 60032 70298 83330 333 10258;
0140334150999992000070221004+49570+025590FM-12+032499999V0202301N003010360019N0100001N1+01581+01381101301ADDAY181031AY221031GF106991021031012501031001MD1210021+9999MW1021REMSYN066AAXX  02211 33415 41697 62303 10158 20138 40130 52002 70282 82330;
0161334150999992000070300004+49570+025590FM-12+032499999V0202701N002010360019N0100001N1+01361+01271101391ADDAY181061AY221061GF105991021051012501031001MA1999999097521MD1210041+9999MW1021REMSYN072AAXX  03001 33415 41697 52702 10136 20127 39752 40139 52004 70282 82530;
0156334150999992000070303004+49570+025590FM-12+032499999V0202501N001019999999N0100001N1+01301+01261101341ADDAY121031AY221031GF105991051001999999031001MD1810041+9999MW1101REMSYN082AAXX  03031 33415 41997 52501 10130 20126 40134 58004 71022 85030 555 20129 7004/;
0152334150999992000070306004+49570+025590FM-12+032499999V0209999V002019999999N0100001N1+01641+01451101321ADDAA112000591GF106991061001999999031001KA1999N+01291MD1310031+9999REMSYN076AAXX  03061 33415 12997 69902 10164 20145 40132 53003 69942 86030 333 20129;
0112334150999992000070309004+49570+025590FM-12+032499999V0209999V002010360019N0100001N1+01931+01631101201ADDGF107991041031012501031001MD1810081+9999REMSYN060AAXX  03091 33415 42697 79902 10193 20163 40120 58008 84330;
0187334150999992000070312004+49570+025590FM-12+032499999V0209999V002010042019N0100001N1+01881+01691101161ADDAY181061AY221061GA1051+004209099GF107991051031008001031001MA1999999097381MD1710051+9999MW1801REMSYN082AAXX  03121 33415 41597 79902 10188 20169 39738 40116 57005 78082 85330 333 85914;
0140334150999992000070315004+49570+025590FM-12+032499999V0201101N002010120019N0100001N1+01921+01651101011ADDAY181031AY221031GF107991051031012501031001MD1710131+9999MW1021REMSYN066AAXX  03151 33415 41697 71102 10192 20165 40101 57013 70282 85330;
0180334150999992000070318004+49570+025590FM-12+032499999V0209999V002010360019N0100001N1+01871+01651101021ADDAA112003091AY181061AY221061GF106991041031012501031001KA1999M+02021MD1410001+9999MW1021REMSYN082AAXX  03181 33415 11697 69902 10187 20165 40102 54000 60032 70282 84330 333 10202;
0112334150999992000070321004+49570+025590FM-12+032499999V0209999C000010360019N0100001N1+01701+01531101101ADDGF106991021031012501031011MD1210061+9999REMSYN060AAXX  03211 33415 41697 60000 10170 20153 40110 52006 82331;
0133334150999992000070400004+49570+025590FM-12+032499999V0209999C000010360019N0100001N1+01611+01471101131ADDGF106991021031012501031001MA1999999097311MD1410001+9999REMSYN066AAXX  04001 33415 42697 60000 10161 20147 39731 40113 54000 82330;
0185334150999992000070406004+49570+025590FM-12+032499999V0203601N002010009019N0010001N1+01571+01511101071ADDAY141061AY221061GA1081+000909069GF108991081061000751999999KA1120N+01501MD1310021+9999MW1101REMSYN082AAXX  04061 33415 11194 83602 10157 20151 40107 53002 71042 886// 333 20150 88703;
0166334150999992000070409004+49570+025590FM-12+032499999V0200901N003010048019N0100001N1+01881+01721100921ADDAY191031AY281031GA1061+004809099GF108991061031004501031999MD1810111+9999MW1951REMSYN076AAXX  04091 33415 41497 80903 10188 20172 40092 58011 79598 8633/ 333 86916;
0161334150999992000070412004+49570+025590FM-12+032499999V0209999C000010360019N0100001N1+02361+01861100821ADDAY191061AY221061GF107991041031012501031001MA1999999097111MD1710041+9999MW1021REMSYN072AAXX  04121 33415 41697 70000 10236 20186 39711 40082 57004 70292 84330;
0112334150999992000070415004+49570+025590FM-12+032499999V0200501N002010360019N0100001N1+02521+01841100711ADDGF106991041011012501031001MD1710081+9999REMSYN060AAXX  04151 33415 42697 60502 10252 20184 40071 57008 84130;
0174334150999992000070418004+49570+025590FM-12+032499999V0200701N003010069019N0100001N1+02301+01941100631ADDAA112000791GA1061+006909099GF108991061031008001031999KA1120M+02541MD1710101+9999REMSYN082AAXX  04181 33415 12597 80703 10230 20194 40063 57010 69902 8633/ 333 10254 86923;
0171334150999992000070500004+49570+025590FM-12+032499999V0200501N003010360019N0100001N1+01681+01581100501ADDAY191061AY281061GF105991021031012501031001MA1999999096721MD1810221+9999MW1131REMSYN082AAXX  05001 33415 41697 50503 10168 20158 39672 40050 58022 71398 82330 333 91124;
0128334150999992000070503004+49570+025590FM-12+032499999V0200701N003012200019N0100001N1+01431+01371100561ADDGF102991021031012501001001MD1310021+9999REMSYN076AAXX  05031 33415 42697 20703 10143 20137 40056 53002 82300 555 20141 7016/;
0152334150999992000070506004+49570+025590FM-12+032499999V0202501N007010360019N0100001N1+01861+01741100601ADDAA112016091GF106991041031012501031001KA1999N+01411MD1210101+9999REMSYN076AAXX  05061 33415 12697 62507 10186 20174 40060 52010 60162 84330 333 20141;
0112334150999992000070509004+49570+025590FM-12+032499999V0202701N008010120019N0100001N1+02071+01731100711ADDGF107991061031012501031001MD1210131+9999REMSYN060AAXX  05091 33415 42697 72708 10207 20173 40071 52013 86330;
0133334150999992000070512004+49570+025590FM-12+032499999V0202901N008012200019N0100001N1+02361+01681100751ADDGF105991041011012501001011MA1999999097051MD1210081+9999REMSYN066AAXX  05121 33415 42697 52908 10236 20168 39705 40075 52008 84101;
0112334150999992000070515004+49570+025590FM-12+032499999V0202901N008012200019N0100001N1+02471+01431100691ADDGF103991021001999999031011MD1810051+9999REMSYN060AAXX  05151 33415 42997 32908 10247 20143 40069 58005 82031;
0165334150999992000070518004+49570+025590FM-12+032499999V0202901N003019999999N0100001N1+02121+01601100891ADDAA199000091GF105991051001999999031001KA1999M+02471MD1310141+9999REMSYN070AAXX  05181 33415 32997 52903 10212 20160 40089 53014 85030 333 10247;EQDQ01  00002PRCP99
0112334150999992000070521004+49570+025590FM-12+032499999V0202701N004019999999N0100001N1+01701+01381101061ADDGF106991061001999999031001MD1210121+9999REMSYN060AAXX  05211 33415 42997 62704 10170 20138 40106 52012 86030;
0133334150999992000070600004+49570+025590FM-12+032499999V0202701N005012200019N0100001N1+01591+01171101091ADDGF102991021001999999031001MA1999999097281MD1210021+9999REMSYN066AAXX  06001 33415 42997 22705 10159 20117 39728 40109 52002 82030;
0128334150999992000070603004+49570+025590FM-12+032499999V0202301N003019999999N0100001N1+01391+01051101161ADDGF106991061001999999031001MD1210031+9999REMSYN076AAXX  06031 33415 42997 62303 10139 20105 40116 52003 86030 555 20139 7000/;
0165334150999992000070606004+49570+025590FM-12+032499999V0202701N008012200019N0100001N1+01801+01221101131ADDAA199000091GF102991021001999999031001KA1999N+01391MD1210031+9999REMSYN070AAXX  06061 33415 32997 22708 10180 20122 40113 52003 82030 333 20139;EQDQ01  00002PRCP99
0112334150999992000070609004+49570+025590FM-12+032499999V0202701N008010120019N0100001N1+02061+01101101091ADDGF107991071021012501001001MD1810021+9999REMSYN060AAXX  06091 33415 42697 72708 10206 20110 40109 58002 87200;
0133334150999992000070612004+49570+025590FM-12+032499999V0202701N010010120019N0100001N1+02221+01061101061ADDGF107991071021012501001001MA1999999097321MD1410001+9999REMSYN066AAXX  06121 33415 42697 72710 10222 20106 39732 40106 54000 87200;
0112334150999992000070615004+49570+025590FM-12+032499999V0202701N008012200019N0100001N1+02051+01111101011ADDGF107991041031012501001011MD1810071+9999REMSYN060AAXX  06151 33415 42697 72708 10205 20111 40101 58007 84301;
0180334150999992000070618004+49570+025590FM-12+032499999V0202701N005012200019N0100001N1+01621+01151101061ADDAA112000591AY191061AY281061GF107991041031012501001011KA1999M+02241MD1410001+9999MW1171REMSYN082AAXX  06181 33415 11697 72705 10162 20115 40106 54000 69952 71798 84301 333 10224;
0140334150999992000070621004+49570+025590FM-12+032499999V0202701N008010360019N0100001N1+01521+01261101171ADDAY191031AY281031GF107991041031012501031001MD1310091+9999MW1021REMSYN066AAXX  06211 33415 41697 72708 10152 20126 40117 53009 70298 84330;
0161334150999992000070700004+49570+025590FM-12+032499999V0202701N009010360019N0100001N1+01441+01221101191ADDAY191061AY281061GF107991031031012501031001MA1999999097341MD1410001+9999MW1021REMSYN072AAXX  07001 33415 41697 72709 10144 20122 39734 40119 54000 70298 83330;
0155334150999992000070703004+49570+025590FM-12+032499999V0202901N008010360019N0040001N1+01481+01351101171ADDAY121031AY221031GF107991031031012501031001MD1410001+9999MW1101REMSYN081AAXX  07031 33415 41696 72908 10148 20135 40117 54000 71022 83330 555 21447 002/;
0180334150999992000070706004+49570+025590FM-12+032499999V0202901N007010360019N0100001N1+01561+01421101211ADDAA112001091AY181061AY221061GF107991041031012501031001KA1999N+01441MD1310051+9999MW1021REMSYN082AAXX  07061 33415 11697 72907 10156 20142 40121 53005 60012 70282 84330 333 20144;
0166334150999992000070709004+49570+025590FM-12+032499999V0202901N005010069019N0100001N1+01761+01431101231ADDAY181031AY221031GA1061+006909099GF107991061031008001031001MD1210051+9999MW1801REMSYN076AAXX  07091 33415 41597 72905 10176 20143 40123 52005 78082 86330 333 86923;
0187334150999992000070712004+49570+025590FM-12+032499999V0202701N005010090019N0100001N1+01921+01401101231ADDAY181061AY221061GA1071+009009099GF107991071031008001001001MA1999999097451MD1210011+9999MW1021REMSYN082AAXX  07121 33415 41597 72705 10192 20140 39745 40123 52001 70282 87300 333 87930;
0112334150999992000070715004+49570+025590FM-12+032499999V0202901N007010120019N0100001N1+02141+01361101131ADDGF105991051011012501001001MD1810071+9999REMSYN060AAXX  07151 33415 42697 52907 10214 20136 40113 58007 85100;
0152334150999992000070718004+49570+025590FM-12+032499999V0202701N003010360019N0100001N1+01861+01351101111ADDAA112000791GF107991021031012501031001KA1999M+02161MD1710051+9999REMSYN076AAXX  07181 33415 12697 72703 10186 20135 40111 57005 69902 82330 333 10216;
0112334150999992000070721004+49570+025590FM-12+032499999V0209999C000019999999N0100001N1+01581+01331101131ADDGF105991051001999999031001MD1710041+9999REMSYN060AAXX  07211 33415 42997 50000 10158 20133 40113 57004 85030;
0133334150999992000070800004+49570+025590FM-12+032499999V0209999C000019999999N0100001N1+01441+01241101111ADDGF107991071001999999031001MA1999999097271MD1710021+9999REMSYN066AAXX  08001 33415 42997 70000 10144 20124 39727 40111 57002 87030;
0156334150999992000070803004+49570+025590FM-12+032499999V0209999C000010360019N0040001N1+01461+01351100961ADDAY121031AY221031GF107991031051012501031001MD1710141+9999MW1101REMSYN082AAXX  08031 33415 41696 70000 10146 20135 40096 57014 71022 83530 555 20142 7999/;
0202334150999992000070806004+49570+025590FM-12+032499999V0209999V001010051019N0040001N1+01581+01501100791ADDAA112000591AY181061AY221061GA1061+005109079GF108991061031008001031999KA1120N+01421MD1710141+9999MW1801REMSYN088AAXX  08061 33415 11596 89901 10158 20150 40079 57014 69942 78082 8633/ 333 20142 86317;
0138334150999992000070809004+49570+025590FM-12+032499999V0200901N003010027019N0040001N1+01641+01561100651ADDGA1061+002709099GF107991061031002501031001MD1710121+9999REMSYN070AAXX  08091 33415 41396 70903 10164 20156 40065 57012 86330 333 86909;
0206334150999992000070812004+49570+025590FM-12+032499999V0200901N004010048019N0040001N1+01701+01601999999ADDAY181061AY281061GA1051+004809099GF107991051031004501031001MA1999999096711MD1710161+9999MW1801REMSYN082AAXX  08121 33415 41496 70904 10170 20160 39671 40149 57016 78088 85330 333 85916;EQDQ01+101493APOSLP
0166334150999992000070815004+49570+025590FM-12+032499999V0201101N004010051019N0040001N1+01741+01651100391ADDAY181031AY281031GA1061+005109099GF107991061031004501031001MD1710081+9999MW1801REMSYN076AAXX  08151 33415 41496 71104 10174 20165 40039 57008 78088 86330 333 86917;
0180334150999992000070818004+49570+025590FM-12+032499999V0201101N002019999999N0100001N1+01721+01531100321ADDAA112004191AY181061AY221061GF106991021001999999031011KA1999M+01801MD1710091+9999MW1021REMSYN082AAXX  08181 33415 11997 61102 10172 20153 40032 57009 60042 70282 82031 333 10180;
0140334150999992000070821004+49570+025590FM-12+032499999V0200901N002019999999N0020001N1+01541+01431100341ADDAY121031AY221031GF107991071001999999031001MD1410001+9999MW1101REMSYN066AAXX  08211 33415 41995 70902 10154 20143 40034 54000 71022 87030;
0190334150999992000070900004+49570+025590FM-12+032499999V0209999C000012200019N0005001N1+01541+01541100221ADDAY141061AY221061GA1001+999999999GF100991001001999999001001MA1999999096441MD1810101+9999MW1461REMSYN066AAXX  09001 33415 41/93 00000 10154 20154 39644 40022 58010 74742;EQDQ01+000472PRSWM1
0185334150999992000070903004+49570+025590FM-12+032499999V0209999C000012200019N0005001N1+01461+01461100151ADDAY141031AY241031GA1001+999999999GF100991001001999999001001MD1710081+9999MW1441REMSYN076AAXX  09031 33415 41/93 00000 10146 20146 40015 57008 74544 555 20146 7005/;EQDQ01+000452PRSWM1
0215334150999992000070906004+49570+025590FM-12+032499999V0202901N003010048019N0040001N1+01561+01381100141ADDAA199000091AY141061AY221061GA1071+004809099GF107991071031004501001001KA1120N+01461MD1410001+9999MW1101REMSYN082AAXX  09061 33415 31496 72903 10156 20138 40014 54000 71042 87300 333 20146 87916;EQDQ01  00002PRCP99
0138334150999992000070909004+49570+025590FM-12+032499999V0202701N004010360019N0100001N1+01751+01441100141ADDGA1041+006609059GF107991041051008001031001MD1310031+9999REMSYN070AAXX  09091 33415 42597 72704 10175 20144 40014 53003 84530 333 84622;
0133334150999992000070912004+49570+025590FM-12+032499999V0202901N004010360019N0100001N1+01751+01361100081ADDGF107991041031012501031001MA1999999096331MD1810061+9999REMSYN066AAXX  09121 33415 42697 72904 10175 20136 39633 40008 58006 84330;
0166334150999992000070915004+49570+025590FM-12+032499999V0202901N006010060019N0100001N1+01531+01291100101ADDAY181031AY221031GA1051+006009099GF107991051031008001031001MD1710021+9999MW1021REMSYN076AAXX  09151 33415 41597 72906 10153 20129 40010 57002 70282 85330 333 85920;
0202334150999992000070918004+49570+025590FM-12+032499999V0203201N007010042019N0100001N1+01211+01051100161ADDAA112000791AY181061AY221061GA1061+004209099GF108991061031004501031999KA1120M+01831MD1310021+9999MW1251REMSYN088AAXX  09181 33415 11497 83207 10121 20105 40016 53002 69902 72582 8633/ 333 10183 86914;
0166334150999992000070921004+49570+025590FM-12+032499999V0203001N005010039019N0100001N1+01101+00981100231ADDAY181031AY221031GA1051+003909099GF108991051031004501031999MD1210041+9999MW1801REMSYN076AAXX  09211 33415 41497 83005 10110 20098 40023 52004 78082 8533/ 333 85913;
0187334150999992000071000004+49570+025590FM-12+032499999V0202901N009010036019N0100001N1+01091+00991100261ADDAY181061AY221061GA1051+003609099GF108991051031004501031999MA1999999096401MD1210031+9999MW1021REMSYN082AAXX  10001 33415 41497 82909 10109 20099 39640 40026 52003 70282 8533/ 333 85912;
0128334150999992000071003004+49570+025590FM-12+032499999V0202701N009010120019N0100001N1+01051+00851100281ADDGF107991051031012501031001MD1210021+9999REMSYN076AAXX  10031 33415 42697 72709 10105 20085 40028 52002 85330 555 20105 7990/;
0152334150999992000071006004+49570+025590FM-12+032499999V0202901N009010360019N0100001N1+01221+00841100391ADDAA112000791GF106991031051012501031001KA1999N+01051MD1210131+9999REMSYN076AAXX  10061 33415 12697 62909 10122 20084 40039 52013 69902 83530 333 20105;
0112334150999992000071009004+49570+025590FM-12+032499999V0202901N009010120019N0100001N1+01711+00881100451ADDGF105991051021012501001001MD1210101+9999REMSYN060AAXX  10091 33415 41697 52909 10171 20088 40045 52010 85200;
0133334150999992000071012004+49570+025590FM-12+032499999V0202901N007010120019N0100001N1+02011+00861100431ADDGF106991061021012501001001MA1999999096691MD1210041+9999REMSYN066AAXX  10121 33415 42697 62907 10201 20086 39669 40043 52004 86200;
0112334150999992000071015004+49570+025590FM-12+032499999V0202701N005012200019N0100001N1+02061+00811100421ADDGF106991031021012501001011MD1810011+9999REMSYN060AAXX  10151 33415 42697 62705 10206 20081 40042 58001 83201;
0165334150999992000071018004+49570+025590FM-12+032499999V0202501N002012200019N0100001N1+01871+01191100501ADDAA199000091GF104991001001999999001011KA1999M+02081MD1310051+9999REMSYN070AAXX  10181 33415 32997 42502 10187 20119 40050 53005 80001 333 10208;EQDQ01  00002PRCP99
0097334150999992000071021004+49570+025590FM-12+032499999V0202401N001012200019N0100001N1+99999+99999999999ADDGF102991999999999999999999REMSYN059AAXX  10211 33415 42997 22401 0137 20104 40068 52011 80001;
0143334150999992000071100004+49570+025590FM-12+032499999V0209999C000012200019N0100001N1+01141+00881100741ADDGA1001+999999999GF100991001001999999001001MA1999999096881MD1210041+9999REMSYN060AAXX  11001 33415 42997 00000 10114 20088 39688 40074 52004;
0138334150999992000071103004+49570+025590FM-12+032499999V0209999C000012200019N0100001N1+00981+00841100851ADDGA1001+999999999GF100991001001999999001001MD1210071+9999REMSYN070AAXX  11031 33415 42997 00000 10098 20084 40085 52007 555 20098 7000/;
0175334150999992000071106004+49570+025590FM-12+032499999V0201601N003012200019N0100001N1+01721+01061100801ADDAA199000091GA1001+999999999GF100991001001999999001001KA1999N+00981MD1210061+9999REMSYN064AAXX  11061 33415 32997 01603 10172 20106 40080 52006 333 20098;EQDQ01  00002PRCP99
0112334150999992000071109004+49570+025590FM-12+032499999V0201401N006012200019N0100001N1+02221+01251100651ADDGF102991001001999999001011MD1810091+9999REMSYN060AAXX  11091 33415 42997 21406 10222 20125 40065 58009 80001;
0133334150999992000071112004+49570+025590FM-12+032499999V0201401N007012200019N0100001N1+02431+01291100581ADDGF102991001001999999001011MA1999999096891MD1710031+9999REMSYN066AAXX  11121 33415 42997 21407 10243 20129 39689 40058 57003 80001;
0112334150999992000071115004+49570+025590FM-12+032499999V0201101N006012200019N0100001N1+02531+01311100421ADDGF102991001001999999001011MD1710151+9999REMSYN060AAXX  11151 33415 42997 21106 10253 20131 40042 57015 80001;
0165334150999992000071118004+49570+025590FM-12+032499999V0201401N004019999999N0100001N1+02211+01341100421ADDAA199000091GF105991021001999999031011KA1999M+02571MD1710041+9999REMSYN070AAXX  11181 33415 32997 51404 10221 20134 40042 57004 82031 333 10257;EQDQ01  00002PRCP99
0112334150999992000071121004+49570+025590FM-12+032499999V0201101N004019999999N0100001N1+02001+01411100331ADDGF106991031001999999031011MD1710111+9999REMSYN060AAXX  11211 33415 42997 61104 10200 20141 40033 57011 83031;
0133334150999992000071200004+49570+025590FM-12+032499999V0201401N004019999999N0100001N1+01821+01401100321ADDGF106991031001999999031011MA1999999096561MD1710031+9999REMSYN066AAXX  12001 33415 42997 61404 10182 20140 39656 40032 57003 83031;
0128334150999992000071203004+49570+025590FM-12+032499999V0200901N002019999999N0250001N1+01511+01271100341ADDGF108991021001999999031011MD1710021+9999REMSYN076AAXX  12031 33415 42975 80902 10151 20127 40034 57002 82031 555 20150 7000/;
0180334150999992000071206004+49570+025590FM-12+032499999V0200901N001010120019N0100001N1+01821+01591100411ADDAA112000391AY191061AY221061GF107991051031012501031001KA1999N+01501MD1310111+9999MW1951REMSYN082AAXX  12061 33415 11697 70901 10182 20159 40041 53011 69932 79592 85330 333 20150;
0140334150999992000071209004+49570+025590FM-12+032499999V0209999C000010360019N0100001N1+01901+01621100421ADDAY191031AY281031GF106991031031012501031001MD1210021+9999MW1021REMSYN066AAXX  12091 33415 41697 60000 10190 20162 40042 52002 70298 83330;
0161334150999992000071212004+49570+025590FM-12+032499999V0209999V002010360019N0100001N1+01721+01591100621ADDAY191061AY281061GF105991021031012501031001MA1999999096841MD1210171+9999MW1251REMSYN072AAXX  12121 33415 41697 59902 10172 20159 39684 40062 52017 72598 82330;
0112334150999992000071215004+49570+025590FM-12+032499999V0202501N003010360019N0100001N1+02201+01531100531ADDGF105991021011012501031001MD1810031+9999REMSYN060AAXX  12151 33415 42697 52503 10220 20153 40053 58003 82130;
0152334150999992000071218004+49570+025590FM-12+032499999V0203401N002012200019N0100001N1+01901+01511100611ADDAA112005191GF103991031051012501001001KA1999M+02201MD1310041+9999REMSYN076AAXX  12181 33415 12697 33402 10190 20151 40061 53004 60052 83500 333 10220;
0112334150999992000071221004+49570+025590FM-12+032499999V0203401N002010360019N0100001N1+01441+01201100761ADDGF106991021031012501031001MD1210081+9999REMSYN060AAXX  12211 33415 42697 63402 10144 20120 40076 52008 82330;
0133334150999992000071300004+49570+025590FM-12+032499999V0202901N002010360019N0100001N1+01321+01131100871ADDGF105991021031012501031001MA1999999097031MD1210101+9999REMSYN066AAXX  13001 33415 42697 52902 10132 20113 39703 40087 52010 82330;
0128334150999992000071303004+49570+025590FM-12+032499999V0202901N004010360019N0100001N1+01301+01171100761ADDGF106991031031012501031001MD1810111+9999REMSYN076AAXX  13031 33415 42697 62904 10130 20117 40076 58011 83330 555 20128 7005/;
0165334150999992000071306004+49570+025590FM-12+032499999V0203401N005010360019N0100001N1+01411+01241100791ADDAA199000091GF107991041031012501031001KA1999N+01281MD1310041+9999REMSYN070AAXX  13061 33415 32697 73405 10141 20124 40079 53004 84330 333 20128;EQDQ01  00002PRCP99
0166334150999992000071309004+49570+025590FM-12+032499999V0203601N005010360019N0100001N1+01561+01361100801ADDAY181031AY221031GA1041+006909099GF107991041031008001031001MD1210041+9999MW1251REMSYN076AAXX  13091 33415 41597 73605 10156 20136 40080 52004 72582 84330 333 84923;
0187334150999992000071312004+49570+025590FM-12+032499999V0200501N003010036019N0040001N1+01561+01391100751ADDAY181061AY221061GA1061+003609099GF107991061031004501031001MA1999999096951MD1810051+9999MW1801REMSYN082AAXX  13121 33415 41496 70503 10156 20139 39695 40075 58005 78082 86330 333 86912;
0166334150999992000071315004+49570+025590FM-12+032499999V0203601N006010036019N0100001N1+01361+01251100571ADDAY181031AY221031GA1061+003609099GF107991061031004501031001MD1710221+9999MW1251REMSYN076AAXX  13151 33415 41497 73606 10136 20125 40057 57022 72582 86330 333 86912;
0202334150999992000071318004+49570+025590FM-12+032499999V0203601N005010030019N0100001N1+01561+01391100311ADDAA112007191AY181061AY221061GA1061+003009099GF107991061031004501031001KA1120M+01601MD1710211+9999MW1801REMSYN088AAXX  13181 33415 11497 73605 10156 20139 40031 57021 60072 78082 86330 333 10160 86910;
0166334150999992000071321004+49570+025590FM-12+032499999V0203601N006010033019N0040001N1+01391+01241100091ADDAY181031AY281031GA1061+003309099GF107991061031004501031001MD1710231+9999MW1811REMSYN076AAXX  13211 33415 41496 73606 10139 20124 40009 57023 78188 86330 333 86911;
0187334150999992000071400004+49570+025590FM-12+032499999V0203201N006010027019N0040001N1+01271+01161099851ADDAY181061AY281061GA1081+002709099GF108991081031002501999999MA1999999096051MD1710241+9999MW1811REMSYN082AAXX  14001 33415 41396 83206 10127 20116 39605 49985 57024 78188 883// 333 88909;
0182334150999992000071403004+49570+025590FM-12+032499999V0202901N009010030019N0040001N1+01201+01141099571ADDAY181031AY281031GA1081+003009099GF108991081031004501999999MD1710291+9999MW1811REMSYN092AAXX  14031 33415 41496 82909 10120 20114 49957 57029 78188 883// 333 88910 555 20120 7047/;
0202334150999992000071406004+49570+025590FM-12+032499999V0202901N011010030019N0040001N1+00961+00901099581ADDAA112049091AY191061AY281061GA1081+003009099GF108991081091004501999999KA1120N+00961MD1710031+9999MW1801REMSYN088AAXX  14061 33415 11496 82911 10096 20090 49958 57003 60492 78098 889// 333 20096 88910;
0166334150999992000071409004+49570+025590FM-12+032499999V0202901N012010027019N0040001N1+00961+00941099681ADDAY181031AY261031GA1061+002709069GF108991061071002501021999MD1310101+9999MW1631REMSYN076AAXX  14091 33415 41396 82912 10096 20094 49968 53010 76386 8672/ 333 86709;
0187334150999992000071412004+49570+025590FM-12+032499999V0202701N011010027019N0100001N1+00941+00901099861ADDAY181061AY261061GA1061+002709069GF108991061071002501021999MA1999999096001MD1210171+9999MW1611REMSYN082AAXX  14121 33415 41397 82711 10094 20090 39600 49986 52017 76186 8672/ 333 86709;
0166334150999992000071415004+49570+025590FM-12+032499999V0202701N010010024019N0100001N1+00971+00931100111ADDAY161031AY261031GA1061+002409069GF108991061071002501021999MD1210241+9999MW1631REMSYN076AAXX  14151 33415 41397 82710 10097 20093 40011 52024 76366 8672/ 333 86708;
0202334150999992000071418004+49570+025590FM-12+032499999V0202901N007010036019N0100001N1+01041+01001100121ADDAA112025991AY181061AY261061GA1061+003609099GF108991061031004501071999KA1120M+01051MD1210031+9999MW1801REMSYN088AAXX  14181 33415 11497 82907 10104 20100 40012 52003 60262 78086 8637/ 333 10105 86912;
0166334150999992000071421004+49570+025590FM-12+032499999V0202201N005010039019N0100001N1+01101+01041100091ADDAY181031AY261031GA1061+003909099GF108991051031004501071999MD1810021+9999MW1251REMSYN076AAXX  14211 33415 41497 82205 10110 20104 40009 58002 72586 8537/ 333 86913;
0161334150999992000071500004+49570+025590FM-12+032499999V0202401N004019999999N0100001N1+01151+01071100111ADDAY181061AY221061GF105991021001999999031011MA1999999096271MD1310021+9999MW1021REMSYN072AAXX  15001 33415 41997 52404 10115 20107 39627 40011 53002 70282 82031;
0128334150999992000071503004+49570+025590FM-12+032499999V0202701N002019999999N0100001N1+00971+00811100201ADDGF106991031001999999031011MD1210051+9999REMSYN076AAXX  15031 33415 42997 62702 10097 20081 40020 52005 83031 555 20097 7028/;
0152334150999992000071506004+49570+025590FM-12+032499999V0202301N003012200019N0100001N1+01361+00991100291ADDAA112000591GF101991011001999999031001KA1999N+00971MD1210151+9999REMSYN076AAXX  15061 33415 12997 12303 10136 20099 40029 52015 69962 81030 333 20097;
0112334150999992000071509004+49570+025590FM-12+032499999V0202001N003012200019N0100001N1+01871+01101100371ADDGF103991011011008001001011MD1210141+9999REMSYN060AAXX  15091 33415 42597 32003 10187 20110 40037 52014 81101;
0133334150999992000071512004+49570+025590FM-12+032499999V0201801N005012200019N0100001N1+02051+01041100411ADDGF107991041031012501001011MA1999999096671MD1210061+9999REMSYN066AAXX  15121 33415 42697 71805 10205 20104 39667 40041 52006 84301;
0165334150999992000071518004+49570+025590FM-12+032499999V0201401N001012200019N0100001N1+01771+01321100551ADDAA199000091GF105991011051012501001011KA1999M+02091MD1210091+9999REMSYN070AAXX  15181 33415 32697 51401 10177 20132 40055 52009 81501 333 10209;EQDQ01  00002PRCP99
0133334150999992000071600004+49570+025590FM-12+032499999V0209999C000019999999N0100001N1+01251+01131100711ADDGF107991021001999999031011MA1999999096861MD1210021+9999REMSYN066AAXX  16001 33415 42997 70000 10125 20113 39686 40071 52002 82031;
0128334150999992000071603004+49570+025590FM-12+032499999V0201101N002019999999N0100001N1+01231+01071100651ADDGF106991021001999999031011MD1810061+9999REMSYN076AAXX  16031 33415 42997 61102 10123 20107 40065 58006 82031 555 20122 7000/;
0165334150999992000071606004+49570+025590FM-12+032499999V0200901N004010360019N0100001N1+01421+01221100601ADDAA199000091GF107991041051012501031001KA1999N+01221MD1710021+9999REMSYN070AAXX  16061 33415 32697 70904 10142 20122 40060 57002 84530 333 20122;EQDQ01  00002PRCP99
0112334150999992000071609004+49570+025590FM-12+032499999V0201101N008010120019N0100001N1+01921+01401100561ADDGF107991051051012501031001MD1310021+9999REMSYN060AAXX  16091 33415 42697 71108 10192 20140 40056 53002 85530;
0133334150999992000071612004+49570+025590FM-12+032499999V0201601N008010360019N0100001N1+01941+01121100631ADDGF107991041051012501031001MA1999999096871MD1210071+9999REMSYN066AAXX  16121 33415 42697 71608 10194 20112 39687 40063 52007 84530;
0140334150999992000071615004+49570+025590FM-12+032499999V0201401N005010120019N0100001N1+01501+01281100741ADDAY181031AY221031GF107991051031012501031001MD1210051+9999MW1251REMSYN066AAXX  16151 33415 41697 71405 10150 20128 40074 52005 72582 85330;
0202334150999992000071618004+49570+025590FM-12+032499999V0200901N002010072019N0100001N1+01461+01351100701ADDAA112003091AY181061AY221061GA1051+007209099GF107991051031008001031001KA1120M+02081MD1810031+9999MW1251REMSYN088AAXX  16181 33415 11597 70902 10146 20135 40070 58003 60032 72582 85330 333 10208 85924;
0166334150999992000071621004+49570+025590FM-12+032499999V0200901N003010060019N0100001N1+01421+01341100711ADDAY181031AY221031GA1051+006009099GF107991051031008001031001MD1410001+9999MW1801REMSYN076AAXX  16211 33415 41597 70903 10142 20134 40071 54000 78082 85330 333 85920;
0187334150999992000071700004+49570+025590FM-12+032499999V0201101N002010054019N0100001N1+01361+01281100651ADDAY181061AY221061GA1051+005409099GF107991051031004501031001MA1999999096811MD1810081+9999MW1021REMSYN082AAXX  17001 33415 41497 71102 10136 20128 39681 40065 58008 70282 85330 333 85918;
0128334150999992000071703004+49570+025590FM-12+032499999V0209999C000010120019N0100001N1+01321+01231100651ADDGF107991071051012501001001MD1410001+9999REMSYN076AAXX  17031 33415 42697 70000 10132 20123 40065 54000 87500 555 20132 7004/;
0174334150999992000071706004+49570+025590FM-12+032499999V0201601N004010090019N0100001N1+01341+01231100581ADDAA112001091GA1071+009009059GF107991071051008001001001KA1120N+01301MD1810071+9999REMSYN082AAXX  17061 33415 12597 71604 10134 20123 40058 58007 60012 87500 333 20130 87630;
0166334150999992000071709004+49570+025590FM-12+032499999V0202001N005010069019N0100001N1+01451+01211100601ADDAY181031AY221031GA1061+006909099GF108991061031008001031999MD1310041+9999MW1801REMSYN076AAXX  17091 33415 41597 82005 10145 20121 40060 53004 78082 8633/ 333 86923;
0187334150999992000071712004+49570+025590FM-12+032499999V0201801N003010093019N0100001N1+01651+01071100501ADDAY181061AY221061GA1061+009309099GF107991061031008001031001MA1999999096701MD1810081+9999MW1251REMSYN082AAXX  17121 33415 41597 71803 10165 20107 39670 40050 58008 72582 86330 333 86931;
0112334150999992000071715004+49570+025590FM-12+032499999V0202301N006010120019N0100001N1+01711+01021100551ADDGF107991061031012501031001MD1310071+9999REMSYN060AAXX  17151 33415 42697 72306 10171 20102 40055 53007 86330;
0152334150999992000071718004+49570+025590FM-12+032499999V0202301N005010120019N0100001N1+01511+01071100581ADDAA112000791GF107991061031012501031001KA1999M+01881MD1410001+9999REMSYN076AAXX  17181 33415 12697 72305 10151 20107 40058 54000 69902 86330 333 10188;
0112334150999992000071721004+49570+025590FM-12+032499999V0202301N004010120019N0100001N1+01361+01111100651ADDGF107991061031012501031001MD1310041+9999REMSYN060AAXX  17211 33415 42697 72304 10136 20111 40065 53004 86330;
0133334150999992000071800004+49570+025590FM-12+032499999V0202001N003010120019N0100001N1+01301+01131100641ADDGF107991051051012501031001MA1999999096801MD1810011+9999REMSYN066AAXX  18001 33415 42697 72003 10130 20113 39680 40064 58001 85530;
0182334150999992000071803004+49570+025590FM-12+032499999V0202501N003010042019N0040001N1+01311+01221100651ADDAY181031AY221031GA1061+004209099GF108991061031004501031999MD1310011+9999MW1801REMSYN092AAXX  18031 33415 41496 82503 10131 20122 40065 53001 78082 8633/ 333 86914 555 20129 7994/;
0202334150999992000071806004+49570+025590FM-12+032499999V0202901N007010033019N0100001N1+01361+01301100841ADDAA112004191AY181061AY221061GA1061+003309079GF108991061031004501031999KA1120N+01291MD1210191+9999MW1801REMSYN088AAXX  18061 33415 11497 82907 10136 20130 40084 52019 60042 78082 8633/ 333 20129 86311;
0166334150999992000071809004+49570+025590FM-12+032499999V0202901N006010042019N0100001N1+01501+01241101001ADDAY181031AY221031GA1051+004209099GF107991051031004501031001MD1210171+9999MW1021REMSYN076AAXX  18091 33415 41497 72906 10150 20124 40100 52017 70282 85330 333 85914;
0187334150999992000071812004+49570+025590FM-12+032499999V0202501N007010360019N0100001N1+01781+01261101041ADDAY181061AY221061GA1041+005409099GF107991041031004501031001MA1999999097251MD1210081+9999MW1021REMSYN082AAXX  18121 33415 41497 72507 10178 20126 39725 40104 52008 70282 84330 333 84918;
0138334150999992000071815004+49570+025590FM-12+032499999V0202901N006010360019N0100001N1+01771+01151101161ADDGA1041+006009099GF107991041031008001031001MD1210121+9999REMSYN070AAXX  18151 33415 42597 72906 10177 20115 40116 52012 84330 333 84920;
0152334150999992000071818004+49570+025590FM-12+032499999V0202701N004019999999N0100001N1+01521+00981101221ADDAA112000391GF105991031001999999031011KA1999M+01791MD1210021+9999REMSYN076AAXX  18181 33415 12997 52704 10152 20098 40122 52002 69932 83031 333 10179;
0112334150999992000071821004+49570+025590FM-12+032499999V0202501N003019999999N0100001N1+01231+00931101311ADDGF106991021001999999031011MD1210051+9999REMSYN060AAXX  18211 33415 42997 62503 10123 20093 40131 52005 82031;
0133334150999992000071900004+49570+025590FM-12+032499999V0202701N004019999999N0100001N1+01111+00861101341ADDGF105991021001999999031011MA1999999097441MD1410001+9999REMSYN066AAXX  19001 33415 42997 52704 10111 20086 39744 40134 54000 82031;
0128334150999992000071903004+49570+025590FM-12+032499999V0202701N003019999999N0100001N1+01131+00931101371ADDGF106991031001999999031011MD1310041+9999REMSYN076AAXX  19031 33415 42997 62703 10113 20093 40137 53004 83031 555 20110 7004/;
0165334150999992000071906004+49570+025590FM-12+032499999V0202501N002019999999N0100001N1+01381+01021101381ADDAA199000091GF105991031001999999031011KA1999N+01101MD1210031+9999REMSYN070AAXX  19061 33415 32997 52502 10138 20102 40138 52003 83031 333 20110;EQDQ01  00002PRCP99
0112334150999992000071909004+49570+025590FM-12+032499999V0202501N004010360019N0100001N1+01771+00981101301ADDGF106991041021012501031001MD1810021+9999REMSYN060AAXX  19091 33415 42697 62504 10177 20098 40130 58002 84230;
0133334150999992000071912004+49570+025590FM-12+032499999V0202701N004010120019N0100001N1+01911+00971101231ADDGF107991051031012501031001MA1999999097451MD1710041+9999REMSYN066AAXX  19121 33415 42697 72704 10191 20097 39745 40123 57004 85330;
0112334150999992000071915004+49570+025590FM-12+032499999V0203201N002010360019N0100001N1+01941+00991101231ADDGF106991021031012501031001MD1410001+9999REMSYN060AAXX  19151 33415 42697 63202 10194 20099 40123 54000 82330;
0165334150999992000071918004+49570+025590FM-12+032499999V0209999V002010360019N0100001N1+01571+01191101281ADDAA199000091GF107991021031012501031001KA1999M+01941MD1410001+9999REMSYN070AAXX  19181 33415 32697 79902 10157 20119 40128 54000 82330 333 10194;EQDQ01  00002PRCP99
0112334150999992000071921004+49570+025590FM-12+032499999V0209999C000010360019N0100001N1+01401+01151101331ADDGF107991021031012501031001MD1310031+9999REMSYN060AAXX  19211 33415 42697 70000 10140 20115 40133 53003 82330;
0133334150999992000072000004+49570+025590FM-12+032499999V0209999C000010360019N0100001N1+01321+01111101341ADDGF107991021031012501031001MA1999999097481MD1410001+9999REMSYN066AAXX  20001 33415 42697 70000 10132 20111 39748 40134 54000 82330;
0128334150999992000072003004+49570+025590FM-12+032499999V0209999C000010360019N0100001N1+01301+01171101351ADDGF107991031031012501031001MD1310011+9999REMSYN076AAXX  20031 33415 42697 70000 10130 20117 40135 53001 83330 555 20128 7000/;
0165334150999992000072006004+49570+025590FM-12+032499999V0209999C000010360019N0100001N1+01451+01301101391ADDAA199000091GF107991031031012501031001KA1999N+01281MD1210051+9999REMSYN070AAXX  20061 33415 32697 70000 10145 20130 40139 52005 83330 333 20128;EQDQ01  00002PRCP99
0112334150999992000072009004+49570+025590FM-12+032499999V0209999C000010120019N0100001N1+01871+01211101391ADDGF107991061031012501031001MD1210051+9999REMSYN060AAXX  20091 33415 42697 70000 10187 20121 40139 52005 86330;
0133334150999992000072012004+49570+025590FM-12+032499999V0209999C000010120019N0100001N1+01961+01191101401ADDGF107991061031012501031001MA1999999097611MD1210021+9999REMSYN066AAXX  20121 33415 42697 70000 10196 20119 39761 40140 52002 86330;
0112334150999992000072015004+49570+025590FM-12+032499999V0200901N002010120019N0100001N1+01871+01301101341ADDGF107991061031012501031001MD1810071+9999REMSYN060AAXX  20151 33415 42697 70902 10187 20130 40134 58007 86330;
0165334150999992000072018004+49570+025590FM-12+032499999V0202301N002010360019N0100001N1+01771+01251101401ADDAA199000091GF106991021031012501031011KA1999M+01961MD1310061+9999REMSYN070AAXX  20181 33415 32697 62302 10177 20125 40140 53006 82331 333 10196;EQDQ01  00002PRCP99
0112334150999992000072021004+49570+025590FM-12+032499999V0209999C000019999999N0100001N1+01391+01211101511ADDGF106991021001999999031011MD1210061+9999REMSYN060AAXX  20211 33415 42997 60000 10139 20121 40151 52006 82031;
0133334150999992000072100004+49570+025590FM-12+032499999V0202701N002012200019N0100001N1+01201+01041101591ADDGF102991001001999999001011MA1999999097701MD1210041+9999REMSYN066AAXX  21001 33415 42997 22702 10120 20104 39770 40159 52004 80001;
0156334150999992000072103004+49570+025590FM-12+032499999V0202701N003012200019N0040001N1+01111+01051101621ADDAY101031AY201031GF103991001001999999001011MD1210021+9999MW1101REMSYN082AAXX  21031 33415 41996 32703 10111 20105 40162 52002 71000 80001 555 20111 7000/;
0165334150999992000072106004+49570+025590FM-12+032499999V0203601N004010360019N0100001N1+01501+01211101601ADDAA199000091GF107991041051012501031001KA1999N+01111MD1210031+9999REMSYN070AAXX  21061 33415 32697 73604 10150 20121 40160 52003 84530 333 20111;EQDQ01  00002PRCP99
0112334150999992000072109004+49570+025590FM-12+032499999V0203201N004010360019N0100001N1+01931+01211101571ADDGF106991031021012501031001MD1210021+9999REMSYN060AAXX  21091 33415 42697 63204 10193 20121 40157 52002 83230;
0133334150999992000072112004+49570+025590FM-12+032499999V0203201N002012200019N0100001N1+02061+01171101571ADDGF106991041021012501001011MA1999999097791MD1210021+9999REMSYN066AAXX  21121 33415 42697 63202 10206 20117 39779 40157 52002 84201;
0112334150999992000072115004+49570+025590FM-12+032499999V0203401N002010360019N0100001N1+02031+01231101561ADDGF107991031021012501031011MD1810011+9999REMSYN060AAXX  21151 33415 42697 73402 10203 20123 40156 58001 83231;
0165334150999992000072118004+49570+025590FM-12+032499999V0209999C000010360019N0100001N1+01851+01411101621ADDAA199000091GF106991031031012501031011KA1999M+02061MD1310041+9999REMSYN070AAXX  21181 33415 32697 60000 10185 20141 40162 53004 83331 333 10206;EQDQ01  00002PRCP99
0112334150999992000072121004+49570+025590FM-12+032499999V0203401N002019999999N0100001N1+01531+01281101741ADDGF106991031001999999031011MD1210071+9999REMSYN060AAXX  21211 33415 42997 63402 10153 20128 40174 52007 83031;
0133334150999992000072200004+49570+025590FM-12+032499999V0209999C000010360019N0100001N1+01441+01221101741ADDGF107991021051012501031001MA1999999097881MD1810011+9999REMSYN066AAXX  22001 33415 42697 70000 10144 20122 39788 40174 58001 82530;
0156334150999992000072203004+49570+025590FM-12+032499999V0209999C000019999999N0040001N1+01391+01301101711ADDAY121031AY221031GF107991061001999999031011MD1710031+9999MW1101REMSYN082AAXX  22031 33415 41996 70000 10139 20130 40171 57003 71022 86031 555 20139 7000/;
0193334150999992000072206004+49570+025590FM-12+032499999V0209999V002019999999N0040001N1+01701+01501101701ADDAA199000091AY121061AY221061GF106991061001999999031001KA1999N+01391MD1310031+9999MW1101REMSYN076AAXX  22061 33415 31996 69902 10170 20150 40170 53003 71022 86030 333 20139;EQDQ01  00002PRCP99
0112334150999992000072209004+49570+025590FM-12+032499999V0201801N004010360019N0100001N1+02081+01451101651ADDGF106991021011012501031001MD1410001+9999REMSYN060AAXX  22091 33415 42697 61804 10208 20145 40165 54000 82130;
0161334150999992000072212004+49570+025590FM-12+032499999V0201801N003010360019N0100001N1+02301+01461101601ADDAY181061AY221061GF107991041031012501031001MA1999999097861MD1810021+9999MW1801REMSYN072AAXX  22121 33415 41697 71803 10230 20146 39786 40160 58002 78082 84330;
0140334150999992000072215004+49570+025590FM-12+032499999V0202001N004010120019N0100001N1+01911+01231101641ADDAY191031AY281031GF107991051031012501031001MD1710021+9999MW1951REMSYN066AAXX  22151 33415 41697 72004 10191 20123 40164 57002 79598 85330;
0180334150999992000072218004+49570+025590FM-12+032499999V0203601N003010360019N0100001N1+01771+01341101691ADDAA112002091AY191061AY281061GF106991041031012501031001KA1999M+02321MD1310041+9999MW1021REMSYN082AAXX  22181 33415 11697 63603 10177 20134 40169 53004 60022 70298 84330 333 10232;
0131334150999992000072221004+49570+025590FM-12+032499999V0209999V001019999999N0100001N1+01421+01121101751ADDGF106991999001012501031001MD1210011+9999REMSYN060AAXX  22211 33415 42697 69901 10142 20112 40175 52001 83030;EQDQ01+000032SCOTLC
0133334150999992000072300004+49570+025590FM-12+032499999V0209999C000012200019N0100001N1+01211+00951101761ADDGF102991021001999999031001MA1999999097871MD1810021+9999REMSYN066AAXX  23001 33415 42997 20000 10121 20095 39787 40176 58002 82030;
0156334150999992000072303004+49570+025590FM-12+032499999V0209999V001012200019N0040001N1+01161+01041101711ADDAY101031AY201031GF102991021001999999031001MD1710061+9999MW1101REMSYN082AAXX  23031 33415 41996 29901 10116 20104 40171 57006 71000 82030 555 20115 7002/;
0165334150999992000072306004+49570+025590FM-12+032499999V0202901N002019999999N0100001N1+01731+01521101571ADDAA199000091GF106991061001999999031001KA1999N+01151MD1710061+9999REMSYN070AAXX  23061 33415 32997 62902 10173 20152 40157 57006 86030 333 20115;EQDQ01  00002PRCP99
0112334150999992000072309004+49570+025590FM-12+032499999V0209999V002010360019N0100001N1+02071+01421101501ADDGF105991021011012501031001MD1710021+9999REMSYN060AAXX  23091 33415 42697 59902 10207 20142 40150 57002 82130;
0133334150999992000072312004+49570+025590FM-12+032499999V0209999V001010120019N0100001N1+02321+01271101351ADDGF106991061031012501001001MA1999999097611MD1710121+9999REMSYN066AAXX  23121 33415 42697 69901 10232 20127 39761 40135 57012 86300;
0112334150999992000072315004+49570+025590FM-12+032499999V0202701N007010360019N0100001N1+02201+01231101271ADDGF106991041031012501031001MD1710091+9999REMSYN060AAXX  23151 33415 42697 62707 10220 20123 40127 57009 84330;
0165334150999992000072318004+49570+025590FM-12+032499999V0202901N003010360019N0100001N1+02001+01311101281ADDAA199000091GF105991031031012501031011KA1999M+02351MD1710011+9999REMSYN070AAXX  23181 33415 32697 52903 10200 20131 40128 57001 83331 333 10235;EQDQ01  00002PRCP99
0122334150999992000072321004+49570+025590FM-12+032499999V0202701N003012200019N0100001N1+01531+01241101321ADDGA1001+999999999GF100991001001999999001001MD1710021+9999REMSYN054AAXX  23211 33415 42997 02703 10153 20124 40132 57002;
0143334150999992000072400004+49570+025590FM-12+032499999V0202701N003012200019N0100001N1+01491+01291101231ADDGA1001+999999999GF100991001001999999001001MA1999999097401MD1710091+9999REMSYN060AAXX  24001 33415 42997 02703 10149 20129 39740 40123 57009;
0156334150999992000072403004+49570+025590FM-12+032499999V0202501N004012200019N0040001N1+01221+01141101251ADDAY101031AY201031GF102991001001999999001011MD1710021+9999MW1101REMSYN082AAXX  24031 33415 41996 22504 10122 20114 40125 57002 71000 80001 555 20121 7000/;
0165334150999992000072406004+49570+025590FM-12+032499999V0202701N004012200019N0100001N1+01591+01261101171ADDAA199000091GF101991001001999999001011KA1999N+01211MD1710031+9999REMSYN070AAXX  24061 33415 31997 12704 10159 20126 40117 57003 80001 333 20121;EQDQ01  00002PRCP99
0112334150999992000072409004+49570+025590FM-12+032499999V0202701N003012200019N0100001N1+02071+01261101081ADDGF101991011001008001011001MD1710021+9999REMSYN060AAXX  24091 33415 42597 12703 10207 20126 40108 57002 81010;
0133334150999992000072412004+49570+025590FM-12+032499999V0202501N004010120019N0100001N1+02311+01151101011ADDGF107991071031012501001001MA1999999097291MD1710041+9999REMSYN066AAXX  24121 33415 42697 72504 10231 20115 39729 40101 57004 87300;
0131334150999992000072415004+49570+025590FM-12+032499999V0202301N002010120019N0100001N1+02371+01281999999ADDGF106991061021012501001001MD1710101+9999REMSYN060AAXX  24151 33415 42697 62302 10237 20128 40190 57010 86200;EQDQ01+101903APOSLP
0165334150999992000072418004+49570+025590FM-12+032499999V0202001N004010120019N0100001N1+01971+01401100901ADDAA199000091GF107991051031012501031001KA1999M+02421MD1710051+9999REMSYN070AAXX  24181 33415 32697 72004 10197 20140 40090 57005 85330 333 10242;EQDQ01  00002PRCP99
0140334150999992000072421004+49570+025590FM-12+032499999V0202001N004010360019N0100001N1+01771+01461100961ADDAY181031AY221031GF107991041031012501031001MD1310031+9999MW1021REMSYN066AAXX  24211 33415 41697 72004 10177 20146 40096 53003 70282 84330;
0161334150999992000072500004+49570+025590FM-12+032499999V0201801N002010360019N0100001N1+01541+01281100991ADDAY181061AY221061GF107991041031012501031001MA1999999097191MD1210071+9999MW1021REMSYN072AAXX  25001 33415 41697 71802 10154 20128 39719 40099 52007 70282 84330;
0156334150999992000072503004+49570+025590FM-12+032499999V0209999V001012200019N0040001N1+01411+01261100971ADDAY111031AY211031GF102991021001999999031001MD1810061+9999MW1101REMSYN082AAXX  25031 33415 41996 29901 10141 20126 40097 58006 71011 82030 555 20140 7990/;
0152334150999992000072506004+49570+025590FM-12+032499999V0209999V002019999999N0100001N1+01821+01571100911ADDAA112000791GF106991001001999999001011KA1999N+01401MD1710011+9999REMSYN076AAXX  25061 33415 12997 69902 10182 20157 40091 57001 69902 80001 333 20140;
0112334150999992000072509004+49570+025590FM-12+032499999V0201801N005012200019N0100001N1+02471+01691100711ADDGF102991001001999999001011MD1710101+9999REMSYN060AAXX  25091 33415 42997 21805 10247 20169 40071 57010 80001;
0133334150999992000072512004+49570+025590FM-12+032499999V0202001N006012200019N0100001N1+02711+01611100561ADDGF102991001001999999001011MA1999999096911MD1710111+9999REMSYN066AAXX  25121 33415 42997 22006 10271 20161 39691 40056 57011 80001;
0112334150999992000072515004+49570+025590FM-12+032499999V0202301N008012200019N0100001N1+02881+01551100461ADDGF105991021011012501001011MD1710081+9999REMSYN060AAXX  25151 33415 42697 52308 10288 20155 40046 57008 82101;
0165334150999992000072518004+49570+025590FM-12+032499999V0202901N005010360019N0100001N1+02261+01451100611ADDAA199000091GF106991041031012501031011KA1999M+02911MD1310071+9999REMSYN070AAXX  25181 33415 32697 62905 10226 20145 40061 53007 84331 333 10291;EQDQ01  00002PRCP99
0112334150999992000072521004+49570+025590FM-12+032499999V0202701N001010360019N0100001N1+01781+01341100791ADDGF105991031031012501031001MD1210111+9999REMSYN060AAXX  25211 33415 42697 52701 10178 20134 40079 52011 83330;
0133334150999992000072600004+49570+025590FM-12+032499999V0202501N004012200019N0100001N1+01711+01371100791ADDGF103991021031012501031001MA1999999097011MD1410001+9999REMSYN066AAXX  26001 33415 42697 32504 10171 20137 39701 40079 54000 82330;
0128334150999992000072603004+49570+025590FM-12+032499999V0202701N003010360019N0100001N1+01661+01391100801ADDGF105991021031012501031001MD1410001+9999REMSYN076AAXX  26031 33415 42697 52703 10166 20139 40080 54000 82330 555 20165 7000/;
0165334150999992000072606004+49570+025590FM-12+032499999V0202701N002012200019N0100001N1+02171+01631100841ADDAA199000091GF102991001001999999001011KA1999N+01651MD1310101+9999REMSYN070AAXX  26061 33415 32997 22702 10217 20163 40084 53010 80001 333 20165;EQDQ01  00002PRCP99
0112334150999992000072609004+49570+025590FM-12+032499999V0202301N003012200019N0100001N1+02461+01511100841ADDGF103991031011012501001001MD1210031+9999REMSYN060AAXX  26091 33415 42697 32303 10246 20151 40084 52003 83100;
0133334150999992000072612004+49570+025590FM-12+032499999V0202301N006010120019N0100001N1+02681+01361100731ADDGF105991051021012501001001MA1999999097071MD1810071+9999REMSYN066AAXX  26121 33415 42697 52306 10268 20136 39707 40073 58007 85200;
0112334150999992000072615004+49570+025590FM-12+032499999V0202001N006012200019N0100001N1+02741+01361100651ADDGF105991021011012501001011MD1710081+9999REMSYN060AAXX  26151 33415 42697 52006 10274 20136 40065 57008 82101;
0165334150999992000072618004+49570+025590FM-12+032499999V0201801N003010360019N0100001N1+02341+01741100661ADDAA199000091GF107991041031012501031001KA1999M+02861MD1710031+9999REMSYN070AAXX  26181 33415 32697 71803 10234 20174 40066 57003 84330 333 10286;EQDQ01  00002PRCP99
0140334150999992000072621004+49570+025590FM-12+032499999V0202001N005010120019N0100001N1+01851+01511100701ADDAY191031AY221031GF107991051031012501031001MD1710021+9999MW1251REMSYN066AAXX  26211 33415 41697 72005 10185 20151 40070 57002 72592 85330;
0161334150999992000072700004+49570+025590FM-12+032499999V0201801N003010360019N0100001N1+01771+01511100581ADDAY191061AY281061GF107991021031012501031001MA1999999096811MD1710131+9999MW1021REMSYN072AAXX  27001 33415 41697 71803 10177 20151 39681 40058 57013 70298 82330;
0128334150999992000072703004+49570+025590FM-12+032499999V0202301N008010360019N0100001N1+01701+01531100571ADDGF107991021031012501031001MD1710021+9999REMSYN076AAXX  27031 33415 42697 72308 10170 20153 40057 57002 82330 555 20168 7991/;
0202334150999992000072706004+49570+025590FM-12+032499999V0202501N009010060019N0100001N1+01661+01471100601ADDAA112000191AY181061AY221061GA1061+006009099GF108991061031008001031001KA1120N+01641MD1310031+9999MW1801REMSYN088AAXX  27061 33415 11597 82509 10166 20147 40060 53003 69912 78082 86330 333 20164 86920;
0166334150999992000072709004+49570+025590FM-12+032499999V0202701N008010054019N0100001N1+01611+01541100711ADDAY181031AY281031GA1061+005409099GF107991061031004501031001MD1210091+9999MW1801REMSYN076AAXX  27091 33415 41497 72708 10161 20154 40071 52009 78088 86330 333 86918;
0187334150999992000072712004+49570+025590FM-12+032499999V0202701N008010060019N0100001N1+01811+01581100841ADDAY181061AY221061GA1061+006009099GF107991061031008001031001MA1999999097061MD1210151+9999MW1801REMSYN082AAXX  27121 33415 41597 72708 10181 20158 39706 40084 52015 78082 86330 333 86920;
0166334150999992000072715004+49570+025590FM-12+032499999V0202701N007010060019N0100001N1+01711+01541100911ADDAY181031AY221031GA1061+006009099GF107991061031008001031001MD1210051+9999MW1801REMSYN076AAXX  27151 33415 41597 72707 10171 20154 40091 52005 78082 86330 333 86920;
0180334150999992000072718004+49570+025590FM-12+032499999V0202701N009010360019N0100001N1+01841+01571100951ADDAA112004191AY181061AY221061GF107991021031008001031001KA1999M+01901MD1210071+9999MW1021REMSYN082AAXX  27181 33415 11597 72709 10184 20157 40095 52007 60042 70282 82330 333 10190;
0166334150999992000072721004+49570+025590FM-12+032499999V0202701N006010045019N0100001N1+01641+01491101131ADDAY181031AY221031GA1061+004509099GF107991061031004501031001MD1210141+9999MW1251REMSYN076AAXX  27211 33415 41497 72706 10164 20149 40113 52014 72582 86330 333 86915;
0161334150999992000072800004+49570+025590FM-12+032499999V0202701N004012200019N0040001N1+01531+01461101171ADDAY181061AY221061GF102991021001999999031001MA1999999097341MD1210021+9999MW1101REMSYN072AAXX  28001 33415 41996 22704 10153 20146 39734 40117 52002 71082 82030;
0156334150999992000072803004+49570+025590FM-12+032499999V0202901N005012200019N0040001N1+01461+01401101171ADDAY101031AY201031GF103991021001999999031011MD1410001+9999MW1101REMSYN082AAXX  28031 33415 41996 32905 10146 20140 40117 54000 71000 82031 555 20146 7006/;
0202334150999992000072806004+49570+025590FM-12+032499999V0202701N005010033019N0040001N1+01561+01441101231ADDAA112003091AY111061AY211061GA1071+003309059GF107991071051004501001001KA1120N+01461MD1310071+9999MW1101REMSYN088AAXX  28061 33415 11496 72705 10156 20144 40123 53007 60032 71011 87500 333 20146 87611;
0138334150999992000072809004+49570+025590FM-12+032499999V0202901N005010072019N0100001N1+01981+01431101181ADDGA1071+007209059GF107991071051008001001001MD1410001+9999REMSYN070AAXX  28091 33415 42597 72905 10198 20143 40118 54000 87500 333 87624;
0159334150999992000072812004+49570+025590FM-12+032499999V0202901N00501007501CN0100001N1+02201+01501101101ADDGA1021+009009099GF107991051051008001001001MA1999999097361MD1810051+9999REMSYN076AAXX  28121 33415 42597 72905 10220 20150 39736 40110 58005 85500 333 82930;
0138334150999992000072815004+49570+025590FM-12+032499999V0202701N002010090019N0100001N1+02181+01391101061ADDGA1071+009009059GF107991071051008001001001MD1710041+9999REMSYN070AAXX  28151 33415 42597 72702 10218 20139 40106 57004 87500 333 87630;
0165334150999992000072818004+49570+025590FM-12+032499999V0209999C000010120019N0100001N1+01961+01521101011ADDAA199000091GF107991051051012501031001KA1999M+02221MD1710071+9999REMSYN070AAXX  28181 33415 32697 70000 10196 20152 40101 57007 85530 333 10222;EQDQ01  00002PRCP99
0112334150999992000072821004+49570+025590FM-12+032499999V0209999C000010360019N0100001N1+01661+01451101051ADDGF107991031051012501031001MD1410001+9999REMSYN060AAXX  28211 33415 42697 70000 10166 20145 40105 54000 83530;
0133334150999992000072900004+49570+025590FM-12+032499999V0209999C000012200019N0100001N1+01581+01421100941ADDGF104991041001999999031001MA1999999097131MD1810121+9999REMSYN066AAXX  29001 33415 42997 40000 10158 20142 39713 40094 58012 84030;
0162334150999992000072903004+49570+025590FM-12+032499999V0209999C000010360019N0100001N1+01581+01461100831ADDAY111031AY201031GA1041+009009069GF107991041051008001031001MW1091REMSYN086AAXX  29031 33415 42597 70000 10158 20146 40083 70910 84530 333 84630 555 20158 7000/;
0180334150999992000072906004+49570+025590FM-12+032499999V0200901N006010120019N0100001N1+01731+01471100611ADDAA112000791AY121061AY221061GF108991051031012501031999KA1999N+01581MD1710201+9999MW1251REMSYN082AAXX  29061 33415 11697 80906 10173 20147 40061 57020 69902 72522 8533/ 333 20158;
0166334150999992000072909004+49570+025590FM-12+032499999V0201601N008010081019N0100001N1+02001+01621100401ADDAY181031AY221031GA1071+008109099GF107991071031008001001001MD1710171+9999MW1251REMSYN076AAXX  29091 33415 41597 71608 10200 20162 40040 57017 72582 87300 333 87927;
0161334150999992000072912004+49570+025590FM-12+032499999V0201401N005010120019N0100001N1+02221+01631100251ADDAY191061AY281061GF106991061031012501001001MA1999999096551MD1710111+9999MW1951REMSYN072AAXX  29121 33415 41697 61405 10222 20163 39655 40025 57011 79598 86300;
0157334150999992000072915004+49570+025590FM-12+032499999V0201801N006010120019N0100001N1+02241+01221100271ADDAA112013091AY191031AY281031GF106991061031012501001001MD1310011+9999MW1021REMSYN072AAXX  29151 33415 41697 61806 10224 20122 40027 53001 60132 70298 86300;
0180334150999992000072918004+49570+025590FM-12+032499999V0202301N009010120019N0100001N1+01721+01331100521ADDAA112013091AY191061AY281061GF105991051031012501001001KA1999M+02371MD1210181+9999MW1251REMSYN082AAXX  29181 33415 11697 52309 10172 20133 40052 52018 60132 72598 85300 333 10237;
0112334150999992000072921004+49570+025590FM-12+032499999V0201801N004012200019N0100001N1+01501+01261100681ADDGF102991021001999999031001MD1210131+9999REMSYN060AAXX  29211 33415 42997 21804 10150 20126 40068 52013 82030;
0133334150999992000073000004+49570+025590FM-12+032499999V0201801N005019999999N0100001N1+01391+01261100671ADDGF106991061001999999031001MA1999999096851MD1810021+9999REMSYN066AAXX  30001 33415 42997 61805 10139 20126 39685 40067 58002 86030;
0128334150999992000073003004+49570+025590FM-12+032499999V0201801N005010120019N0100001N1+01481+01281100601ADDGF107991051031012501031001MD1710061+9999REMSYN076AAXX  30031 33415 42697 71805 10148 20128 40060 57006 85330 555 20139 7013/;
0146334150999992000073006004+49570+025590FM-12+032499999V0202001N005010360019N0100001N1+01621+01101100621ADDAA199000021GF107991041031012501031001KA1999N+01391MD1310031+9999REMSYN070AAXX  30061 33415 32697 72005 10162 20110 40062 53003 84330 333 20139;
0166334150999992000073009004+49570+025590FM-12+032499999V0202301N007010072019N0100001N1+01611+01321100771ADDAY181031AY221031GA1061+007209099GF108991061031008001031999MD1210151+9999MW1801REMSYN076AAXX  30091 33415 41597 82307 10161 20132 40077 52015 78082 8633/ 333 86924;
0187334150999992000073012004+49570+025590FM-12+032499999V0202301N007010039019N0100001N1+01531+01461101001ADDAY181061AY221061GA1061+003909099GF108991061031004501031999MA1999999097171MD1210201+9999MW1801REMSYN082AAXX  30121 33415 41497 82307 10153 20146 39717 40100 52020 78082 8633/ 333 86913;
0166334150999992000073015004+49570+025590FM-12+032499999V0202501N007010030019N0100001N1+01521+01451101221ADDAY181031AY281031GA1061+003009099GF108991061031004501031999MD1210221+9999MW1801REMSYN076AAXX  30151 33415 41497 82507 10152 20145 40122 52022 78088 8633/ 333 86910;
0202334150999992000073018004+49570+025590FM-12+032499999V0202701N005010039019N0100001N1+01511+01351101361ADDAA112006191AY181061AY221061GA1061+003909099GF107991061031004501031001KA1120M+01721MD1210131+9999MW1021REMSYN088AAXX  30181 33415 11497 72705 10151 20135 40136 52013 60062 70282 86330 333 10172 86913;
0138334150999992000073021004+49570+025590FM-12+032499999V0202901N008010048019N0100001N1+01421+01271101531ADDGA1061+004809099GF107991061031004501031001MD1210161+9999REMSYN070AAXX  30211 33415 42497 72908 10142 20127 40153 52016 86330 333 86916;
0182334150999992000073103004+49570+025590FM-12+032499999V0202701N004010045019N0100001N1+01391+01331101601ADDAY181031AY281031GA1051+004509099GF108991051031004501031999MD1310071+9999MW1801REMSYN092AAXX  31031 33415 41497 82704 10139 20133 40160 53007 78088 8533/ 333 85915 555 20139 7008/;
0166334150999992000073109004+49570+025590FM-12+032499999V0202901N004010360019N0100001N1+01461+01371101731ADDAY181031AY281031GA1041+004509099GF107991041031004501031001MD1210091+9999MW1801REMSYN076AAXX  31091 33415 41497 72904 10146 20137 40173 52009 78088 84330 333 84915;
0187334150999992000073112004+49570+025590FM-12+032499999V0202901N004010360019N0100001N1+01451+01301101811ADDAY181061AY281061GA1041+005109099GF107991041031004501031001MA1999999097941MD1210061+9999MW1801REMSYN082AAXX  31121 33415 41497 72904 10145 20130 39794 40181 52006 78088 84330 333 84917;
0166334150999992000073115004+49570+025590FM-12+032499999V0203201N004010360019N0100001N1+01651+01461101751ADDAY181031AY221031GA1041+008109099GF107991041031008001031001MD1810021+9999MW1251REMSYN076AAXX  31151 33415 41597 73204 10165 20146 40175 58002 72582 84330 333 84927;
0180334150999992000073118004+49570+025590FM-12+032499999V0202901N002010360019N0100001N1+01541+01381101801ADDAA112007991AY181061AY221061GF107991031031012501031001KA1999M+01661MD1310021+9999MW1021REMSYN082AAXX  31181 33415 11697 72902 10154 20138 40180 53002 60082 70282 83330 333 10166;
0112334150999992000073121004+49570+025590FM-12+032499999V0202701N005010360019N0100001N1+01481+01331101861ADDGF107991031051012501031001MD1210061+9999REMSYN060AAXX  31211 33415 42697 72705 10148 20133 40186 52006 83530;
0133334150999992000080100004+49570+025590FM-12+032499999V0202901N004019999999N0100001N1+01361+01281101881ADDGF106991061001999999031001MA1999999098001MD1410001+9999REMSYN066AAXX  01001 33415 42997 62904 10136 20128 39800 40188 54000 86030;
0156334150999992000080103004+49570+025590FM-12+032499999V0202701N004010360019N0040001N1+01231+01181101871ADDAY121031AY221031GF107991021051012501031001MD1810031+9999MW1101REMSYN082AAXX  01031 33415 41696 72704 10123 20118 40187 58003 71022 82530 555 20122 7010/;
0165334150999992000080106004+49570+025590FM-12+032499999V0202701N008019999999N0100001N1+01421+01311101861ADDAA199000091GF107991021051999999031001KA1999N+01221MD1310021+9999REMSYN070AAXX  01061 33415 32997 72708 10142 20131 40186 53002 82530 333 20122;EQDQ01  00002PRCP99
0112334150999992000080109004+49570+025590FM-12+032499999V0202901N006010120019N0100001N1+01801+01361101861ADDGF107991051051012501031001MD1210051+9999REMSYN060AAXX  01091 33415 42697 72906 10180 20136 40186 52005 85530;
0159334150999992000080112004+49570+025590FM-12+032499999V0202701N006010090019N0070001N1+01971+01261101801ADDGA1061+009009099GF107991061031012501031001MA1999999098011MD1810031+9999REMSYN076AAXX  01121 33415 42657 72706 10197 20126 39801 40180 58003 86330 333 86930;
0140334150999992000080115004+49570+025590FM-12+032499999V0202901N005010120019N0100001N1+01771+01271101971ADDAY181031AY221031GF106991051031012501031001MD1310141+9999MW1021REMSYN066AAXX  01151 33415 41697 62905 10177 20127 40197 53014 70282 85330;
0180334150999992000080118004+49570+025590FM-12+032499999V0202901N004010360019N0100001N1+01571+01281102001ADDAA112000791AY181061AY221061GF106991021031012501031001KA1999M+01991MD1410001+9999MW1021REMSYN082AAXX  01181 33415 11697 62904 10157 20128 40200 54000 69902 70282 82330 333 10199;
0112334150999992000080121004+49570+025590FM-12+032499999V0202701N004012200019N0100001N1+01321+01111102061ADDGF102991021001999999031001MD1310021+9999REMSYN060AAXX  01211 33415 42997 22704 10132 20111 40206 53002 82030;
0133334150999992000080200004+49570+025590FM-12+032499999V0202701N002012200019N0100001N1+01211+01051102081ADDGF102991021001999999031001MA1999999098171MD1410001+9999REMSYN066AAXX  02001 33415 42997 22702 10121 20105 39817 40208 54000 82030;
0147334150999992000080203004+49570+025590FM-12+032499999V0202701N002012200019N0100001N1+01141+01031102091ADDGF103991999001999999031001MD1410001+9999REMSYN076AAXX  02031 33415 42997 32702 10114 20103 40209 54000 82030 555 20113 7990/;EQDQ01+000022SCOTLC
0175334150999992000080206004+49570+025590FM-12+032499999V0202901N004012200019N0100001N1+01571+01301102111ADDAA199000091GA1001+999999999GF100991001001999999001001KA1999N+01131MD1310091+9999REMSYN064AAXX  02061 33415 32997 02904 10157 20130 40211 53009 333 20113;EQDQ01  00002PRCP99
0112334150999992000080209004+49570+025590FM-12+032499999V0203201N004010120019N0100001N1+01881+01131102061ADDGF106991061051012501001001MD1810021+9999REMSYN060AAXX  02091 33415 42697 63204 10188 20113 40206 58002 86500;
0133334150999992000080212004+49570+025590FM-12+032499999V0203601N002010120019N0100001N1+02071+01111102041ADDGF105991051051012501001001MA1999999098241MD1410001+9999REMSYN066AAXX  02121 33415 42697 53602 10207 20111 39824 40204 54000 85500;
0112334150999992000080215004+49570+025590FM-12+032499999V0203201N004012200019N0100001N1+02171+01201101961ADDGF103991031051012501001001MD1810041+9999REMSYN060AAXX  02151 33415 42697 33204 10217 20120 40196 58004 83500;
0165334150999992000080218004+49570+025590FM-12+032499999V0209999C000012200019N0100001N1+02021+01241101971ADDAA199000091GF102991001001999999001011KA1999M+02171MD1710031+9999REMSYN070AAXX  02181 33415 32997 20000 10202 20124 40197 57003 80001 333 10217;EQDQ01  00002PRCP99
0112334150999992000080221004+49570+025590FM-12+032499999V0209999C000012200019N0100001N1+01471+01231102011ADDGF102991001001999999001011MD1710021+9999REMSYN060AAXX  02211 33415 42997 20000 10147 20123 40201 57002 80001;
0143334150999992000080300004+49570+025590FM-12+032499999V0209999C000012200019N0100001N1+01241+01091102001ADDGA1001+999999999GF100991001001999999001001MA1999999098101MD1710031+9999REMSYN060AAXX  03001 33415 42997 00000 10124 20109 39810 40200 57003;
0128334150999992000080303004+49570+025590FM-12+032499999V0201401N003012200019N0100001N1+01091+00971102031ADDGF102991001001999999001011MD1410001+9999REMSYN076AAXX  03031 33415 42997 21403 10109 20097 40203 54000 80001 555 20109 7000/;
0159334150999992000080306004+49570+025590FM-12+032499999V0201601N002012200019N0100001N1+01611+01361101921ADDAA199000091GF103991999999999999999999KA1999N+01091MD1810021+9999REMSYN064AAXX  03061 33415 32997 31602 10161 20136 40192 58002 333 20109;EQDQ01  00002PRCP99
0112334150999992000080309004+49570+025590FM-12+032499999V0202301N004012200019N0100001N1+02321+01341101801ADDGF102991021001999999031001MD1710031+9999REMSYN060AAXX  03091 33415 42997 22304 10232 20134 40180 57003 82030;
0133334150999992000080312004+49570+025590FM-12+032499999V0202001N005012200019N0100001N1+02561+01421101731ADDGF104991041011012501001001MA1999999098021MD1710031+9999REMSYN066AAXX  03121 33415 42697 42005 10256 20142 39802 40173 57003 84100;
0112334150999992000080315004+49570+025590FM-12+032499999V0202301N002010120019N0100001N1+02611+01511101701ADDGF107991051031012501031001MD1710031+9999REMSYN060AAXX  03151 33415 42697 72302 10261 20151 40170 57003 85330;
0165334150999992000080318004+49570+025590FM-12+032499999V0202001N002010360019N0100001N1+02171+01801101741ADDAA199000091GF105991021051012501031001KA1999M+02641MD1710011+9999REMSYN070AAXX  03181 33415 32697 52002 10217 20180 40174 57001 82530 333 10264;EQDQ01  00002PRCP99
0112334150999992000080321004+49570+025590FM-12+032499999V0209999C000010360019N0100001N1+01811+01581101801ADDGF105991021051012501031001MD1410001+9999REMSYN060AAXX  03211 33415 42697 50000 10181 20158 40180 54000 82530;
0161334150999992000080400004+49570+025590FM-12+032499999V0209999C000012200019N0040001N1+01691+01591101811ADDAY111061AY211061GF102991021001999999031001MA1999999097981MD1410001+9999MW1101REMSYN072AAXX  04001 33415 41996 20000 10169 20159 39798 40181 54000 71011 82030;
0156334150999992000080403004+49570+025590FM-12+032499999V0209999C000010360019N0040001N1+01571+01471101791ADDAY111031AY211031GF107991021051012501031001MD1810031+9999MW1101REMSYN082AAXX  04031 33415 41696 70000 10157 20147 40179 58003 71011 82530 555 20155 7000/;
0165334150999992000080406004+49570+025590FM-12+032499999V0201401N003012200019N0100001N1+01891+01511101721ADDAA199000091GF102991021001999999031001KA1999N+01551MD1710031+9999REMSYN070AAXX  04061 33415 32997 21403 10189 20151 40172 57003 82030 333 20155;EQDQ01  00002PRCP99
0112334150999992000080409004+49570+025590FM-12+032499999V0201401N007012200019N0100001N1+02491+01551101591ADDGF103991031001999999031001MD1710071+9999REMSYN060AAXX  04091 33415 42997 31407 10249 20155 40159 57007 83030;
0133334150999992000080412004+49570+025590FM-12+032499999V0201801N005010360019N0100001N1+02881+01491101451ADDGF105991031031012501031001MA1999999097781MD1710071+9999REMSYN066AAXX  04121 33415 42697 51805 10288 20149 39778 40145 57007 83330;
0112334150999992000080415004+49570+025590FM-12+032499999V0202301N005010360019N0100001N1+02831+01351101411ADDGF106991041031012501031001MD1710051+9999REMSYN060AAXX  04151 33415 42697 62305 10283 20135 40141 57005 84330;
0165334150999992000080418004+49570+025590FM-12+032499999V0202901N003010120019N0100001N1+02211+01771101571ADDAA199000091GF107991071031012501001001KA1999M+02921MD1310101+9999REMSYN070AAXX  04181 33415 32697 72903 10221 20177 40157 53010 87300 333 10292;EQDQ01  00002PRCP99
0140334150999992000080421004+49570+025590FM-12+032499999V0209999C000012200019N0100001N1+01881+01641101801ADDAY181031AY211031GF102991021001999999031001MD1210171+9999MW1011REMSYN066AAXX  04211 33415 41997 20000 10188 20164 40180 52017 70181 82030;
0161334150999992000080500004+49570+025590FM-12+032499999V0203401N003019999999N0100001N1+01721+01571101941ADDAY181061AY211061GF108991081001999999031999MA1999999098101MD1210101+9999MW1021REMSYN072AAXX  05001 33415 41997 83403 10172 20157 39810 40194 52010 70281 8803/;
0182334150999992000080503004+49570+025590FM-12+032499999V0203401N003010027019N0040001N1+01461+01401101971ADDAY121031AY221031GA1061+002709079GF108991061061002501031999MD1210011+9999MW1101REMSYN092AAXX  05031 33415 41396 83403 10146 20140 40197 52001 71022 8663/ 333 86709 555 20146 7990/;
0202334150999992000080506004+49570+025590FM-12+032499999V0203601N004010021019N0040001N1+01481+01391102031ADDAA112000791AY121061AY221061GA1051+002109059GF108991081051002501999999KA1120N+01461MD1210061+9999MW1101REMSYN088AAXX  05061 33415 11396 83604 10148 20139 40203 52006 69902 71022 885// 333 20146 85607;
0138334150999992000080509004+49570+025590FM-12+032499999V0200501N004010036019N0100001N1+01721+01441102041ADDGA1051+003609059GF108991081051004501999999MD1210031+9999REMSYN070AAXX  05091 33415 42497 80504 10172 20144 40204 52003 885// 333 85612;
0159334150999992000080512004+49570+025590FM-12+032499999V0200501N003010090019N0100001N1+02061+01521102001ADDGA1071+009009059GF107991071051008001001001MA1999999098221MD1210021+9999REMSYN076AAXX  05121 33415 42597 70503 10206 20152 39822 40200 52002 87500 333 87630;
0138334150999992000080515004+49570+025590FM-12+032499999V0200201N004010090019N0100001N1+02051+01521101981ADDGA1071+009009059GF107991071051008001001001MD1810021+9999REMSYN070AAXX  05151 33415 42597 70204 10205 20152 40198 58002 87500 333 87630;
0202334150999992000080518004+49570+025590FM-12+032499999V0209999C000010066019N0100001N1+01921+01731102001ADDAA112000791AY181061AY221061GA1051+006609099GF107991051031008001031001KA1120M+02161MD1410001+9999MW1251REMSYN088AAXX  05181 33415 11597 70000 10192 20173 40200 54000 69902 72582 85330 333 10216 85922;
0138334150999992000080521004+49570+025590FM-12+032499999V0200201N003010360019N0100001N1+01741+01571102021ADDGA1041+007809059GF107991041051008001031001MD1410001+9999REMSYN070AAXX  05211 33415 42597 70203 10174 20157 40202 54000 84530 333 84626;
0133334150999992000080600004+49570+025590FM-12+032499999V0200701N001019999999N0100001N1+01621+01411102031ADDGF106991061001999999031001MA1999999098181MD1810021+9999REMSYN066AAXX  06001 33415 42997 60701 10162 20141 39818 40203 58002 86030;
0154334150999992000080603004+49570+025590FM-12+032499999V0203601N002010360019N0100001N1+01561+01421101991ADDGA1041+006009099GF107991041031008001031001MD1710041+9999REMSYN086AAXX  06031 33415 42597 73602 10156 20142 40199 57004 84330 333 84920 555 20156 7990/;
0146334150999992000080606004+49570+025590FM-12+032499999V0200701N004010360019N0100001N1+01721+01481101981ADDAA199000021GF107991031051012501031001KA1999N+01541MD1410001+9999REMSYN070AAXX  06061 33415 32697 70704 10172 20148 40198 54000 83530 333 20154;
0112334150999992000080609004+49570+025590FM-12+032499999V0200901N003010360019N0100001N1+02151+01641101871ADDGF107991021011012501031001MD1810041+9999REMSYN060AAXX  06091 33415 42697 70903 10215 20164 40187 58004 82130;
0133334150999992000080612004+49570+025590FM-12+032499999V0200901N004010360019N0100001N1+02401+01771101741ADDGF107991021011012501031001MA1999999098011MD1710091+9999REMSYN066AAXX  06121 33415 42697 70904 10240 20177 39801 40174 57009 82130;
0112334150999992000080615004+49570+025590FM-12+032499999V0200701N003010360019N0100001N1+02501+01871101601ADDGF106991041011012501031001MD1710121+9999REMSYN060AAXX  06151 33415 42697 60703 10250 20187 40160 57012 84130;
0165334150999992000080618004+49570+025590FM-12+032499999V0200501N002010360019N0100001N1+02191+01861101581ADDAA199000091GF105991021051012501031001KA1999M+02531MD1710051+9999REMSYN070AAXX  06181 33415 32697 50502 10219 20186 40158 57005 82530 333 10253;EQDQ01  00002PRCP99
0112334150999992000080621004+49570+025590FM-12+032499999V0200901N002010360019N0100001N1+02001+01811101611ADDGF107991021051012501031001MD1410001+9999REMSYN060AAXX  06211 33415 42697 70902 10200 20181 40161 54000 82530;
0133334150999992000080700004+49570+025590FM-12+032499999V0200901N003019999999N0100001N1+01861+01691101521ADDGF106991061001999999031001MA1999999097721MD1810121+9999REMSYN066AAXX  07001 33415 42997 60903 10186 20169 39772 40152 58012 86030;
0128334150999992000080703004+49570+025590FM-12+032499999V0200901N003010360019N0100001N1+01791+01701101461ADDGF107991031051012501031001MD1810101+9999REMSYN076AAXX  07031 33415 42697 70903 10179 20170 40146 58010 83530 555 20178 7000/;
0165334150999992000080706004+49570+025590FM-12+032499999V0201401N003012200019N0100001N1+02001+01701101341ADDAA199000091GF102991021001999999031001KA1999N+01761MD1710051+9999REMSYN070AAXX  07061 33415 32997 21403 10200 20170 40134 57005 82030 333 20176;EQDQ01  00002PRCP99
0112334150999992000080709004+49570+025590FM-12+032499999V0202301N005012200019N0100001N1+02631+01601101171ADDGF105991021011012501001011MD1710081+9999REMSYN060AAXX  07091 33415 42697 52305 10263 20160 40117 57008 82101;
0133334150999992000080712004+49570+025590FM-12+032499999V0202501N005012200019N0100001N1+02761+01591101141ADDGF106991031011012501001011MA1999999097471MD1710021+9999REMSYN066AAXX  07121 33415 42697 62505 10276 20159 39747 40114 57002 83101;
0112334150999992000080715004+49570+025590FM-12+032499999V0202901N007010360019N0100001N1+02191+01421101251ADDGF107991041031012501031011MD1310031+9999REMSYN060AAXX  07151 33415 42697 72907 10219 20142 40125 53003 84331;
0180334150999992000080718004+49570+025590FM-12+032499999V0202901N003010360019N0100001N1+02041+01421101241ADDAA112000791AY181061AY221061GF107991041031012501031001KA1999M+02771MD1810031+9999MW1021REMSYN082AAXX  07181 33415 11697 72903 10204 20142 40124 58003 69902 70282 84330 333 10277;
0140334150999992000080721004+49570+025590FM-12+032499999V0209999C000010360019N0100001N1+01811+01451101351ADDAY191031AY281031GF107991041031012501031001MD1310081+9999MW1021REMSYN066AAXX  07211 33415 41697 70000 10181 20145 40135 53008 70298 84330;
0161334150999992000080800004+49570+025590FM-12+032499999V0202901N003010360019N0100001N1+01651+01441101401ADDAY191061AY281061GF106991031051012501031001MA1999999097571MD1210021+9999MW1021REMSYN072AAXX  08001 33415 41697 62903 10165 20144 39757 40140 52002 70298 83530;
0182334150999992000080803004+49570+025590FM-12+032499999V0203201N004010027019N0040001N1+01581+01481101511ADDAY121031AY221031GA1051+002709079GF107991051061002501031001MD1210111+9999MW1101REMSYN092AAXX  08031 33415 41396 73204 10158 20148 40151 52011 71022 85630 333 85709 555 20157 7994/;
0202334150999992000080806004+49570+025590FM-12+032499999V0203201N005010030019N0040001N1+01631+01481101631ADDAA112000591AY121061AY221061GA1051+003009069GF107991051061004501031001KA1120N+01571MD1210111+9999MW1101REMSYN088AAXX  08061 33415 11496 73205 10163 20148 40163 52011 69942 71022 85630 333 20157 85710;
0166334150999992000080809004+49570+025590FM-12+032499999V0203201N004010042019N0100001N1+01641+01301101721ADDAY121031AY221031GA1051+004209069GF107991051061004501031001MD1210091+9999MW1101REMSYN076AAXX  08091 33415 41497 73204 10164 20130 40172 52009 71022 85630 333 85714;
0187334150999992000080812004+49570+025590FM-12+032499999V0202701N003010051019N0100001N1+01761+01391101701ADDAY181061AY221061GA1051+005109099GF107991051031004501031001MA1999999097891MD1210011+9999MW1801REMSYN082AAXX  08121 33415 41497 72703 10176 20139 39789 40170 52001 78082 85330 333 85917;
0149334150999992000080815004+49570+025590FM-12+032499999V0202901N003019999999N0100001N1+01831+01221101701ADDAY181031AY221031GF106991999999008001999999MD1410001+9999MW1021REMSYN075AAXX  08151 33415 41597 62903 10183 20122 40170 54000 70282 4330 333 84920;
0180334150999992000080818004+49570+025590FM-12+032499999V0202901N003010360019N0100001N1+01621+01051101771ADDAA112000791AY181061AY221061GF106991041031012501031001KA1999M+01861MD1310041+9999MW1021REMSYN082AAXX  08181 33415 11697 62903 10162 20105 40177 53004 69902 70282 84330 333 10186;
0122334150999992000080821004+49570+025590FM-12+032499999V0202701N002012200019N0100001N1+01311+00941101831ADDGA1001+999999999GF100991001001999999001001MD1210021+9999REMSYN054AAXX  08211 33415 42997 02702 10131 20094 40183 52002;
0143334150999992000080900004+49570+025590FM-12+032499999V0202701N002012200019N0100001N1+01141+00851101891ADDGA1001+999999999GF100991001001999999001001MA1999999097381MD1210031+9999REMSYN060AAXX  09001 33415 42997 02702 10114 20085 39738 40189 52003;
0138334150999992000080903004+49570+025590FM-12+032499999V0202701N002012200019N0100001N1+00841+00621101971ADDGA1001+999999999GF100991001001999999001001MD1210041+9999REMSYN070AAXX  09031 33415 42997 02702 10084 20062 40197 52004 555 20083 7990/;
0175334150999992000080906004+49570+025590FM-12+032499999V0202701N002012200019N0100001N1+01441+01041101911ADDAA199000091GA1001+999999999GF100991001001999999001001KA1999N+00831MD1210021+9999REMSYN064AAXX  09061 33415 32997 02702 10144 20104 40191 52002 333 20083;EQDQ01  00002PRCP99
0112334150999992000080909004+49570+025590FM-12+032499999V0202701N006012200019N0100001N1+01961+00971101841ADDGF102991021011012501001001MD1410001+9999REMSYN060AAXX  09091 33415 42697 22706 10196 20097 40184 54000 82100;
0133334150999992000080912004+49570+025590FM-12+032499999V0202901N003012200019N0100001N1+02101+00861101831ADDGF103991031011012501001001MA1999999098041MD1410001+9999REMSYN066AAXX  09121 33415 42697 32903 10210 20086 39804 40183 54000 83100;
0112334150999992000080915004+49570+025590FM-12+032499999V0202701N005012200019N0100001N1+02201+00811101791ADDGF103991031011012501001001MD1810031+9999REMSYN060AAXX  09151 33415 42697 32705 10220 20081 40179 58003 83100;
0165334150999992000080918004+49570+025590FM-12+032499999V0202901N001012200019N0100001N1+02001+01231101801ADDAA199000091GF102991021001999999031001KA1999M+02231MD1410001+9999REMSYN070AAXX  09181 33415 32997 22901 10200 20123 40180 54000 82030 333 10223;EQDQ01  00002PRCP99
0112334150999992000080921004+49570+025590FM-12+032499999V0209999C000012200019N0100001N1+01451+01071101881ADDGF102991021001999999031001MD1410001+9999REMSYN060AAXX  09211 33415 42997 20000 10145 20107 40188 54000 82030;
0133334150999992000081000004+49570+025590FM-12+032499999V0202701N003019999999N0100001N1+01551+01201101881ADDGF107991071001999999031001MA1999999098021MD1310011+9999REMSYN066AAXX  10001 33415 42997 72703 10155 20120 39802 40188 53001 87030;
0156334150999992000081003004+49570+025590FM-12+032499999V0202701N003010360019N0100001N1+01501+01321101911ADDAY181031AY221031GF107991041031012501031001MD1210031+9999MW1021REMSYN082AAXX  10031 33415 41697 72703 10150 20132 40191 52003 70282 84330 555 20143 7994/;
0180334150999992000081006004+49570+025590FM-12+032499999V0202901N002010360019N0100001N1+01601+01421101911ADDAA112000591AY181061AY221061GF107991031031012501031001KA1999N+01431MD1210021+9999MW1021REMSYN082AAXX  10061 33415 11697 72902 10160 20142 40191 52002 69942 70282 83330 333 20143;
0133334150999992000081012004+49570+025590FM-12+032499999V0203201N004010120019N0100001N1+02141+01301101891ADDGF107991071031012501001001MA1999999098111MD1810061+9999REMSYN066AAXX  10121 33415 42697 73204 10214 20130 39811 40189 58006 87300;
0112334150999992000081015004+49570+025590FM-12+032499999V0203601N005010120019N0100001N1+02101+01141101831ADDGF107991061051012501031001MD1710041+9999REMSYN060AAXX  10151 33415 42697 73605 10210 20114 40183 57004 86530;
0181334150999992000081018004+49570+025590FM-12+032499999V0209999C000019999999N0100001N1+01951+01391101831ADDAA199000091GF107991999051012501031001KA1999M+02201MD1710031+9999REMSYN070AAXX  10181 33415 32697 70000 10195 20139 40183 57003 80530 333 10220;EQDQ01+000002SCOTLCQ02  00002PRCP99
0112334150999992000081021004+49570+025590FM-12+032499999V0209999C000010360019N0100001N1+01721+01401101841ADDGF106991021051012501031001MD1710031+9999REMSYN060AAXX  10211 33415 42697 60000 10172 20140 40184 57003 82530;
0133334150999992000081100004+49570+025590FM-12+032499999V0209999C000012200019N0100001N1+01501+01321101851ADDGF102991001001999999001011MA1999999097991MD1710021+9999REMSYN066AAXX  11001 33415 42997 20000 10150 20132 39799 40185 57002 80001;
0128334150999992000081103004+49570+025590FM-12+032499999V0203601N002012200019N0100001N1+01221+01121101811ADDGF102991001001999999001011MD1710081+9999REMSYN076AAXX  11031 33415 42997 23602 10122 20112 40181 57008 80001 555 20122 7000/;
0165334150999992000081106004+49570+025590FM-12+032499999V0209999V002012200019N0100001N1+01671+01251101731ADDAA199000091GF102991021001999999031011KA1999N+01221MD1710011+9999REMSYN070AAXX  11061 33415 32997 29902 10167 20125 40173 57001 82031 333 20122;EQDQ01  00002PRCP99
0112334150999992000081109004+49570+025590FM-12+032499999V0201401N003012200019N0100001N1+02301+01531101581ADDGF102991001001999999001011MD1710061+9999REMSYN060AAXX  11091 33415 42997 21403 10230 20153 40158 57006 80001;
0133334150999992000081112004+49570+025590FM-12+032499999V0201801N004010120019N0100001N1+02501+01271101461ADDGF107991071021012501001001MA1999999097741MD1710101+9999REMSYN066AAXX  11121 33415 42697 71804 10250 20127 39774 40146 57010 87200;
0112334150999992000081115004+49570+025590FM-12+032499999V0209999C000010120019N0100001N1+02591+01311101301ADDGF106991061021012501001001MD1710141+9999REMSYN060AAXX  11151 33415 42697 60000 10259 20131 40130 57014 86200;
0165334150999992000081118004+49570+025590FM-12+032499999V0201801N002010360019N0100001N1+02211+01561101341ADDAA199000091GF107991021031012501031011KA1999M+02661MD1710011+9999REMSYN070AAXX  11181 33415 32697 71802 10221 20156 40134 57001 82331 333 10266;EQDQ01  00002PRCP99
0112334150999992000081121004+49570+025590FM-12+032499999V0202701N002010360019N0100001N1+01931+01451101401ADDGF107991031051012501031001MD1310021+9999REMSYN060AAXX  11211 33415 42697 72702 10193 20145 40140 53002 83530;
0133334150999992000081200004+49570+025590FM-12+032499999V0209999C000019999999N0100001N1+01641+01281101481ADDGF106991031001999999031011MA1999999097651MD1210041+9999REMSYN066AAXX  12001 33415 42997 60000 10164 20128 39765 40148 52004 83031;
0128334150999992000081203004+49570+025590FM-12+032499999V0201801N002019999999N0040001N1+01501+01321101431ADDGF105991051001999999031001MD1810061+9999REMSYN076AAXX  12031 33415 42996 51802 10150 20132 40143 58006 85030 555 20150 7000/;
0165334150999992000081206004+49570+025590FM-12+032499999V0209999C000012200019N0100001N1+01851+01601101421ADDAA199000091GF101991011001999999031001KA1999N+01501MD1310041+9999REMSYN070AAXX  12061 33415 32997 10000 10185 20160 40142 53004 81030 333 20150;EQDQ01  00002PRCP99
0122334150999992000081209004+49570+025590FM-12+032499999V0209999V002012200019N0100001N1+02511+01501101331ADDGA1001+999999999GF100991001001999999001001MD1810011+9999REMSYN054AAXX  12091 33415 42997 09902 10251 20150 40133 58001;
0140334150999992000081215004+49570+025590FM-12+032499999V0203601N004010120019N0100001N1+02351+01721101321ADDAY191031AY281031GF106991061031012501001001MD1310011+9999MW1951REMSYN066AAXX  12151 33415 41697 63604 10235 20172 40132 53001 79598 86300;
0180334150999992000081218004+49570+025590FM-12+032499999V0209999V001010120019N0100001N1+02141+01791101401ADDAA112000591AY191061AY281061GF106991051051012501031001KA1999M+02771MD1210051+9999MW1011REMSYN082AAXX  12181 33415 11697 69901 10214 20179 40140 52005 69942 70198 85530 333 10277;
0112334150999992000081221004+49570+025590FM-12+032499999V0209999C000012200019N0100001N1+01831+01611101541ADDGF103991011001999999031011MD1210091+9999REMSYN060AAXX  12211 33415 42997 30000 10183 20161 40154 52009 81031;
0161334150999992000081300004+49570+025590FM-12+032499999V0209999C000019999999N0040001N1+01651+01531101601ADDAY111061AY211061GF106991061001999999031001MA1999999097781MD1210041+9999MW1101REMSYN072AAXX  13001 33415 41996 60000 10165 20153 39778 40160 52004 71011 86030;
0156334150999992000081303004+49570+025590FM-12+032499999V0209999V002010360019N0040001N1+01581+01501101631ADDAY121031AY221031GF106991041031012501031001MD1210011+9999MW1101REMSYN082AAXX  13031 33415 41696 69902 10158 20150 40163 52001 71022 84330 555 20157 7994/;
0180334150999992000081306004+49570+025590FM-12+032499999V0209999V002010360019N0040001N1+01801+01691101731ADDAA112000791AY181061AY221061GF106991041031012501031001KA1999N+01571MD1210121+9999MW1101REMSYN082AAXX  13061 33415 11696 69902 10180 20169 40173 52012 69902 71082 84330 333 20157;
0112334150999992000081309004+49570+025590FM-12+032499999V0203601N002012200019N0100001N1+02291+01761101761ADDGF102991021001999999031001MD1210071+9999REMSYN060AAXX  13091 33415 41997 23602 10229 20176 40176 52007 82030;
0133334150999992000081312004+49570+025590FM-12+032499999V0203601N003010120019N0100001N1+02571+01341101681ADDGF105991051011012501001001MA1999999097971MD1810011+9999REMSYN066AAXX  13121 33415 41697 53603 10257 20134 39797 40168 58001 85100;
0165334150999992000081318004+49570+025590FM-12+032499999V0209999V002012200019N0100001N1+02111+01641101761ADDAA199000091GF102991021001999999031001KA1999M+02641MD1310081+9999REMSYN070AAXX  13181 33415 32997 29902 10211 20164 40176 53008 82030 333 10264;EQDQ01  00002PRCP99
0112334150999992000081321004+49570+025590FM-12+032499999V0209999C000012200019N0100001N1+01811+01491101921ADDGF102991021001999999031001MD1210101+9999REMSYN060AAXX  13211 33415 42997 20000 10181 20149 40192 52010 82030;
0133334150999992000081400004+49570+025590FM-12+032499999V0203601N002019999999N0100001N1+01681+01491102001ADDGF105991051001999999031001MA1999999098161MD1210061+9999REMSYN066AAXX  14001 33415 42997 53602 10168 20149 39816 40200 52006 85030;
0165334150999992000081406004+49570+025590FM-12+032499999V0203601N003010360019N0100001N1+01661+01301102071ADDAA199000091GF107991021031012501031001KA1999N+01431MD1210051+9999REMSYN070AAXX  14061 33415 32697 73603 10166 20130 40207 52005 82330 333 20143;EQDQ01  00002PRCP99
0112334150999992000081409004+49570+025590FM-12+032499999V0203401N002019999999N0100001N1+02071+00991102111ADDGF106991061001999999031001MD1210081+9999REMSYN060AAXX  14091 33415 42997 63402 10207 20099 40211 52008 86030;
0112334150999992000081415004+49570+025590FM-12+032499999V0203601N005010360019N0100001N1+02271+01051101991ADDGF106991031011012501031001MD1710071+9999REMSYN060AAXX  14151 33415 42697 63605 10227 20105 40199 57007 83130;
0165334150999992000081418004+49570+025590FM-12+032499999V0203601N002012200019N0100001N1+01771+01251102081ADDAA199000091GF102991021001999999031001KA1999M+02281MD1310041+9999REMSYN070AAXX  14181 33415 32997 23602 10177 20125 40208 53004 82030 333 10228;EQDQ01  00002PRCP99
0112334150999992000081421004+49570+025590FM-12+032499999V0203601N001012200019N0100001N1+01421+01061102141ADDGF102991001001999999001011MD1410001+9999REMSYN060AAXX  14211 33415 42997 23601 10142 20106 40214 54000 80001;
0133334150999992000081500004+49570+025590FM-12+032499999V0203201N001012200019N0100001N1+01241+01031102201ADDGF103991001001999999001011MA1999999098291MD1310031+9999REMSYN066AAXX  15001 33415 42997 33201 10124 20103 39829 40220 53003 80001;
0128334150999992000081503004+49570+025590FM-12+032499999V0202901N001012200019N0100001N1+01021+00901102241ADDGF102991001001999999001011MD1210011+9999REMSYN076AAXX  15031 33415 42997 22901 10102 20090 40224 52001 80001 555 20101 7000/;
0165334150999992000081506004+49570+025590FM-12+032499999V0203601N001012200019N0100001N1+01561+01211102181ADDAA199000091GF102991001001999999001011KA1999N+01011MD1210011+9999REMSYN070AAXX  15061 33415 32997 23601 10156 20121 40218 52001 80001 333 20101;EQDQ01  00002PRCP99
0112334150999992000081509004+49570+025590FM-12+032499999V0200901N002012200019N0100001N1+02111+01141102101ADDGF103991031011012501001001MD1410001+9999REMSYN060AAXX  15091 33415 42697 30902 10211 20114 40210 54000 83100;
0133334150999992000081512004+49570+025590FM-12+032499999V0200701N003010120019N0100001N1+02241+01061102041ADDGF105991051011012501001001MA1999999098271MD1810041+9999REMSYN066AAXX  15121 33415 42697 50703 10224 20106 39827 40204 58004 85100;
0131334150999992000081515004+49570+025590FM-12+032499999V0209999V001012200019N0100001N1+02271+01141101891ADDGF104991999011012501001001MD1710141+9999REMSYN060AAXX  15151 33415 42697 49901 10227 20114 40189 57014 83100;EQDQ01+000032SCOTLC
0165334150999992000081518004+49570+025590FM-12+032499999V0209999V002012200019N0100001N1+01911+01231101941ADDAA199000091GF102991021001999999031001KA1999M+02281MD1410001+9999REMSYN070AAXX  15181 33415 32997 29902 10191 20123 40194 54000 82030 333 10228;EQDQ01  00002PRCP99
0122334150999992000081521004+49570+025590FM-12+032499999V0209999V001012200019N0100001N1+01511+01071101991ADDGA1001+999999999GF100991001001999999001001MD1410001+9999REMSYN054AAXX  15211 33415 42997 09901 10151 20107 40199 54000;
0143334150999992000081600004+49570+025590FM-12+032499999V0209999V001012200019N0100001N1+01291+01001101991ADDGA1001+999999999GF100991001001999999001001MA1999999098131MD1410001+9999REMSYN060AAXX  16001 33415 42997 09901 10129 20100 39813 40199 54000;
0128334150999992000081603004+49570+025590FM-12+032499999V0203601N001012200019N0100001N1+01181+01001101971ADDGF102991021001999999031001MD1810071+9999REMSYN076AAXX  16031 33415 42997 23601 10118 20100 40197 58007 82030 555 20117 7000/;
0112334150999992000081609004+49570+025590FM-12+032499999V0209999V002012200019N0100001N1+02321+01211101651ADDGF104991041011012501001001MD1710111+9999REMSYN060AAXX  16091 33415 42697 49902 10232 20121 40165 57011 84100;
0133334150999992000081612004+49570+025590FM-12+032499999V0209999V002010120019N0100001N1+02431+01091101581ADDGF105991051011012501001001MA1999999097851MD1710051+9999REMSYN066AAXX  16121 33415 42697 59902 10243 20109 39785 40158 57005 85100;
0112334150999992000081615004+49570+025590FM-12+032499999V0209999V001012200019N0100001N1+02491+01241101431ADDGF104991041011012501001001MD1710141+9999REMSYN060AAXX  16151 33415 42697 49901 10249 20124 40143 57014 84100;
0165334150999992000081618004+49570+025590FM-12+032499999V0209999C000012200019N0100001N1+02201+01511101441ADDAA199000091GF102991011001999999031011KA1999M+02541MD1710021+9999REMSYN070AAXX  16181 33415 32997 20000 10220 20151 40144 57002 81031 333 10254;EQDQ01  00002PRCP99
0112334150999992000081621004+49570+025590FM-12+032499999V0202701N002012200019N0100001N1+01621+01261101571ADDGF102991021001999999031001MD1310041+9999REMSYN060AAXX  16211 33415 42997 22702 10162 20126 40157 53004 82030;
0161334150999992000081700004+49570+025590FM-12+032499999V0209999C000012200019N0040001N1+01431+01251101591ADDAY101061AY201061GF103991031001999999031001MA1999999097731MD1410001+9999MW1101REMSYN072AAXX  17001 33415 41996 30000 10143 20125 39773 40159 54000 71000 83030;
0156334150999992000081703004+49570+025590FM-12+032499999V0209999C000012200019N0040001N1+01301+01211101611ADDAY101031AY201031GF103991001001999999001011MD1410001+9999MW1101REMSYN082AAXX  17031 33415 41996 30000 10130 20121 40161 54000 71000 80001 555 20127 7000/;
0165334150999992000081706004+49570+025590FM-12+032499999V0209999C000012200019N0100001N1+01751+01501101581ADDAA199000091GF102991001001999999001011KA1999N+01241MD1310041+9999REMSYN070AAXX  17061 33415 32997 20000 10175 20150 40158 53004 80001 333 20124;EQDQ01  00002PRCP99
0122334150999992000081709004+49570+025590FM-12+032499999V0209999C000012200019N0100001N1+02531+01141101521ADDGA1001+999999999GF100991001001999999001001MD1210031+9999REMSYN054AAXX  17091 33415 42997 00000 10253 20114 40152 52003;
0133334150999992000081712004+49570+025590FM-12+032499999V0203201N005010120019N0100001N1+02741+01491101451ADDGF105991051011012501001001MA1999999097771MD1810031+9999REMSYN066AAXX  17121 33415 42697 53205 10274 20149 39777 40145 58003 85100;
0112334150999992000081715004+49570+025590FM-12+032499999V0202901N003012200019N0100001N1+02771+01471101441ADDGF102991021011012501001001MD1710011+9999REMSYN060AAXX  17151 33415 42697 22903 10277 20147 40144 57001 82100;
0165334150999992000081718004+49570+025590FM-12+032499999V0209999C000012200019N0100001N1+02411+01771101421ADDAA199000091GF102991001001999999001011KA1999M+02801MD1310061+9999REMSYN070AAXX  17181 33415 32997 20000 10241 20177 40142 53006 80001 333 10280;EQDQ01  00002PRCP99
0122334150999992000081721004+49570+025590FM-12+032499999V0209999C000012200019N0100001N1+01881+01581101481ADDGA1001+999999999GF100991001001999999001001MD1710011+9999REMSYN054AAXX  17211 33415 42997 00000 10188 20158 40148 57001;
0143334150999992000081800004+49570+025590FM-12+032499999V0209999C000012200019N0100001N1+01701+01511101521ADDGA1001+999999999GF100991001001999999001001MA1999999097701MD1310011+9999REMSYN060AAXX  18001 33415 42997 00000 10170 20151 39770 40152 53001;
0128334150999992000081803004+49570+025590FM-12+032499999V0209999V001012200019N0100001N1+01611+01511101541ADDGF103991021001999999031011MD1410001+9999REMSYN076AAXX  18031 33415 42997 39901 10161 20151 40154 54000 82031 555 20161 7000/;
0180334150999992000081806004+49570+025590FM-12+032499999V0201601N002010360019N0100001N1+01861+01661101541ADDAA112000791AY191061AY281061GF106991021031012501031011KA1999N+01611MD1310041+9999MW1021REMSYN082AAXX  18061 33415 11697 61602 10186 20166 40154 53004 69902 70298 82331 333 20161;
0122334150999992000081809004+49570+025590FM-12+032499999V0202701N004012200019N0100001N1+02601+01491101511ADDGA1001+999999999GF100991001001999999001001MD1210061+9999REMSYN054AAXX  18091 33415 42997 02704 10260 20149 40151 52006;
0143334150999992000081812004+49570+025590FM-12+032499999V0202701N003012200019N0100001N1+02801+01401101541ADDGA1001+999999999GF100991001001999999001001MA1999999097861MD1210061+9999REMSYN060AAXX  18121 33415 42997 02703 10280 20140 39786 40154 52006;
0112334150999992000081815004+49570+025590FM-12+032499999V0202901N005012200019N0100001N1+02841+01681101531ADDGF102991001001999999001011MD1410001+9999REMSYN060AAXX  18151 33415 42997 22905 10284 20168 40153 54000 80001;
0165334150999992000081818004+49570+025590FM-12+032499999V0209999C000012200019N0100001N1+02341+01651101681ADDAA199000091GF104991001001999999001011KA1999M+02871MD1310081+9999REMSYN070AAXX  18181 33415 32997 40000 10234 20165 40168 53008 80001 333 10287;EQDQ01  00002PRCP99
0112334150999992000081821004+49570+025590FM-12+032499999V0209999C000012200019N0100001N1+01921+01551101851ADDGF102991001001999999001011MD1210111+9999REMSYN060AAXX  18211 33415 42997 20000 10192 20155 40185 52011 80001;
0143334150999992000081900004+49570+025590FM-12+032499999V0209999C000012200019N0100001N1+01741+01511101891ADDGA1001+999999999GF100991001001999999001001MA1999999098071MD1210021+9999REMSYN060AAXX  19001 33415 42997 00000 10174 20151 39807 40189 52002;
0128334150999992000081903004+49570+025590FM-12+032499999V0200201N004010360019N0100001N1+01761+01591101991ADDGF106991031051012501031001MD1210101+9999REMSYN076AAXX  19031 33415 42697 60204 10176 20159 40199 52010 83530 555 20172 7990/;
0202334150999992000081906004+49570+025590FM-12+032499999V0201101N006010360019N0100001N1+01841+01641102021ADDAA112000791AY191061AY281061GA1041+004209099GF107991041031004501031001KA1120N+01721MD1210041+9999MW1171REMSYN088AAXX  19061 33415 11497 71106 10184 20164 40202 52004 69902 71798 84330 333 20172 84914;
0140334150999992000081909004+49570+025590FM-12+032499999V0201401N007012200019N0100001N1+02491+01721101901ADDAY191031AY211031GF101991011001999999031001MD1810041+9999MW1021REMSYN066AAXX  19091 33415 41997 11407 10249 20172 40190 58004 70291 81030;
0161334150999992000081912004+49570+025590FM-12+032499999V0201601N006012200019N0100001N1+02981+01831101791ADDAY191061AY211061GF101991001001999999001011MA1999999098131MD1710041+9999MW1011REMSYN072AAXX  19121 33415 41997 11606 10298 20183 39813 40179 57004 70191 80001;
0122334150999992000081915004+49570+025590FM-12+032499999V0202501N003012200019N0100001N1+03131+01641101631ADDGA1001+999999999GF100991001001999999001001MD1710141+9999REMSYN054AAXX  19151 33415 42997 02503 10313 20164 40163 57014;
0175334150999992000081918004+49570+025590FM-12+032499999V0201601N002012200019N0100001N1+02611+02151101661ADDAA199000091GA1001+999999999GF100991001001999999001001KA1999M+03151MD1710031+9999REMSYN064AAXX  19181 33415 32997 01602 10261 20215 40166 57003 333 10315;EQDQ01  00002PRCP99
0122334150999992000081921004+49570+025590FM-12+032499999V0202001N004012200019N0100001N1+02201+01801101671ADDGA1001+999999999GF100991001001999999001001MD1710041+9999REMSYN054AAXX  19211 33415 42997 02004 10220 20180 40167 57004;
0143334150999992000082000004+49570+025590FM-12+032499999V0209999C000012200019N0100001N1+02111+01811101671ADDGA1001+999999999GF100991001001999999001001MA1999999097911MD1710011+9999REMSYN060AAXX  20001 33415 42997 00000 10211 20181 39791 40167 57001;
0138334150999992000082003004+49570+025590FM-12+032499999V0209999C000012200019N0100001N1+01681+01541101731ADDGA1001+999999999GF100991001001999999001001MD1710011+9999REMSYN070AAXX  20031 33415 42997 00000 10168 20154 40173 57001 555 20168 7990/;
0175334150999992000082006004+49570+025590FM-12+032499999V0209999V001012200019N0100001N1+02051+01671101701ADDAA199000091GA1001+999999999GF100991001001999999001001KA1999N+01681MD1310021+9999REMSYN064AAXX  20061 33415 32997 09901 10205 20167 40170 53002 333 20168;EQDQ01  00002PRCP99
0122334150999992000082009004+49570+025590FM-12+032499999V0202301N003012200019N0100001N1+02991+01651101571ADDGA1001+999999999GF100991001001999999001001MD1810011+9999REMSYN054AAXX  20091 33415 42997 02303 10299 20165 40157 58001;
0143334150999992000082012004+49570+025590FM-12+032499999V0202301N003012200019N0100001N1+03281+01401101481ADDGA1001+999999999GF100991001001999999001001MA1999999097861MD1710051+9999REMSYN060AAXX  20121 33415 42997 02303 10328 20140 39786 40148 57005;
0112334150999992000082015004+49570+025590FM-12+032499999V0202301N002012200019N0100001N1+03311+01441101391ADDGF102991021011012501001001MD1710091+9999REMSYN060AAXX  20151 33415 42697 22302 10331 20144 40139 57009 82100;
0165334150999992000082018004+49570+025590FM-12+032499999V0202001N004012200019N0100001N1+02601+01741101461ADDAA199000091GF103991031011012501001001KA1999M+03381MD1410001+9999REMSYN070AAXX  20181 33415 32697 32004 10260 20174 40146 54000 83100 333 10338;EQDQ01  00002PRCP99
0112334150999992000082021004+49570+025590FM-12+032499999V0202301N001012200019N0100001N1+02321+01501101541ADDGF102991021001999999031001MD1310031+9999REMSYN060AAXX  20211 33415 42997 22301 10232 20150 40154 53003 82030;
0178334150999992000082100004+49570+025590FM-12+032499999V0209999C000012200019N0100001N1+02111+01801101671ADDGA1001+999999999GF100991001001999999001001MA1999999097801MD1210131+9999REMSYN060AAXX  21001 33415 42997 00000 10211 20180 39780 40167 57400;EQDQ01+000072APCTENQ02+004002APC3  
0138334150999992000082103004+49570+025590FM-12+032499999V0209999C000012200019N0100001N1+01621+01461101591ADDGA1001+999999999GF100991001001999999001001MD1810051+9999REMSYN070AAXX  21031 33415 42997 00000 10162 20146 40159 58005 555 20161 7000/;
0175334150999992000082106004+49570+025590FM-12+032499999V0209999C000012200019N0100001N1+02101+01641101491ADDAA199000091GA1001+999999999GF100991001001999999001001KA1999N+01611MD1710041+9999REMSYN064AAXX  21061 33415 32997 00000 10210 20164 40149 57004 333 20161;EQDQ01  00002PRCP99
0122334150999992000082109004+49570+025590FM-12+032499999V0201601N004012200019N0100001N1+03121+01521101321ADDGA1001+999999999GF100991001001999999001001MD1710031+9999REMSYN054AAXX  21091 33415 42997 01604 10312 20152 40132 57003;
0143334150999992000082112004+49570+025590FM-12+032499999V0202301N006012200019N0100001N1+03361+01091101201ADDGA1001+999999999GF100991001001999999001001MA1999999097591MD1710091+9999REMSYN060AAXX  21121 33415 42997 02306 10336 20109 39759 40120 57009;
0112334150999992000082115004+49570+025590FM-12+032499999V0202301N003012200019N0100001N1+03371+01371101171ADDGF102991021011012501001001MD1710031+9999REMSYN060AAXX  21151 33415 42697 22303 10337 20137 40117 57003 82100;
0175334150999992000082118004+49570+025590FM-12+032499999V0202501N002012200019N0100001N1+02691+01511101281ADDAA199000091GA1001+999999999GF100991001001999999001001KA1999M+03381MD1310031+9999REMSYN064AAXX  21181 33415 32997 02502 10269 20151 40128 53003 333 10338;EQDQ01  00002PRCP99
0122334150999992000082121004+49570+025590FM-12+032499999V0209999C000012200019N0100001N1+02151+01451101361ADDGA1001+999999999GF100991001001999999001001MD1210021+9999REMSYN054AAXX  21211 33415 42997 00000 10215 20145 40136 52002;
0143334150999992000082200004+49570+025590FM-12+032499999V0209999C000012200019N0100001N1+01941+01641101381ADDGA1001+999999999GF100991001001999999001001MA1999999097611MD1410001+9999REMSYN060AAXX  22001 33415 42997 00000 10194 20164 39761 40138 54000;
0138334150999992000082203004+49570+025590FM-12+032499999V0209999V001012200019N0100001N1+01621+01411101341ADDGA1001+999999999GF100991001001999999001001MD1810101+9999REMSYN070AAXX  22031 33415 42997 09901 10162 20141 40134 58010 555 20161 7000/;
0175334150999992000082206004+49570+025590FM-12+032499999V0201601N002012200019N0100001N1+02101+01591101221ADDAA199000091GA1001+999999999GF100991001001999999001001KA1999N+01571MD1710041+9999REMSYN064AAXX  22061 33415 32997 01602 10210 20159 40122 57004 333 20157;EQDQ01  00002PRCP99
0112334150999992000082209004+49570+025590FM-12+032499999V0201801N005012200019N0100001N1+03222+01721101161ADDGF102991001001999999001999MD1710051+9999REMSYN060AAXX  22091 33415 42997 21805 10322 20172 40116 57005 8000/;
0122334150999992000082215004+49570+025590FM-12+032499999V0202901N008012200019N0100001N1+02611+01401101351ADDGA1001+999999999GF100991001001999999001001MD1210221+9999REMSYN054AAXX  22151 33415 42997 02908 10261 20140 40135 52022;
0181334150999992000082218004+49570+025590FM-12+032499999V0203201N004012200019N0100001N1+02181+01391101591ADDAA199000091GF102991001001999999001011KA1999M+99999MD1210181+9999REMSYN070AAXX  22181 33415 32997 23204 10218 20139 40159 52018 80001 333 10133;EQDQ01  00002PRCP99Q02 +01332ATMX  
0112334150999992000082221004+49570+025590FM-12+032499999V0203201N003012200019N0100001N1+01891+01341101791ADDGF102991001001999999001011MD1210161+9999REMSYN060AAXX  22211 33415 42997 23203 10189 20134 40179 52016 80001;
0127334150999992000082300004+49570+025590FM-12+032499999V0203201N004012200019N0100001N1+01711+01351999999ADDGF102991001001999999001011MA1999999098041MD1210051+9999REMSYN060AAXX  23001 33415 42997 23204 10171 20135 39804 52005 80001;
0128334150999992000082303004+49570+025590FM-12+032499999V0203201N002019999999N0100001N1+01671+01351101911ADDGF106991031001999999031011MD1210041+9999REMSYN076AAXX  23031 33415 42997 63202 10167 20135 40191 52004 83031 555 20166 7000/;
0165334150999992000082306004+49570+025590FM-12+032499999V0203601N002010360019N0100001N1+01681+01301102041ADDAA199000091GF107991021051012501031001KA1999N+01661MD1210121+9999REMSYN070AAXX  23061 33415 32697 73602 10168 20130 40204 52012 82530 333 20166;EQDQ01  00002PRCP99
0112334150999992000082309004+49570+025590FM-12+032499999V0200501N001010360019N0100001N1+01801+01301101991ADDGF107991041051012501031001MD1810031+9999REMSYN060AAXX  23091 33415 42697 70501 10180 20130 40199 58003 84530;
0133334150999992000082312004+49570+025590FM-12+032499999V0203601N004010120019N0100001N1+01901+01261101921ADDGF107991051031012501031001MA1999999098111MD1710061+9999REMSYN066AAXX  23121 33415 42697 73604 10190 20126 39811 40192 57006 85330;
0112334150999992000082315004+49570+025590FM-12+032499999V0203401N001010360019N0100001N1+01861+01271101911ADDGF107991041031012501031001MD1710021+9999REMSYN060AAXX  23151 33415 42697 73401 10186 20127 40191 57002 84330;
0165334150999992000082318004+49570+025590FM-12+032499999V0202701N002010360019N0100001N1+01821+01231101861ADDAA199000091GF107991041031012501031001KA1999M+01991MD1710051+9999REMSYN070AAXX  23181 33415 32697 72702 10182 20123 40186 57005 84330 333 10199;EQDQ01  00002PRCP99
0112334150999992000082321004+49570+025590FM-12+032499999V0202901N002019999999N0100001N1+01421+00981101951ADDGF105991051001999999031001MD1310041+9999REMSYN060AAXX  23211 33415 42997 52902 10142 20098 40195 53004 85030;
0133334150999992000082400004+49570+025590FM-12+032499999V0203201N004012200019N0100001N1+01321+01071102011ADDGF102991021001999999031001MA1999999098121MD1210041+9999REMSYN066AAXX  24001 33415 42997 23204 10132 20107 39812 40201 52004 82030;
0128334150999992000082403004+49570+025590FM-12+032499999V0202701N003012200019N0100001N1+01051+00821102131ADDGF102991021001999999031001MD1210081+9999REMSYN076AAXX  24031 33415 42997 22703 10105 20082 40213 52008 82030 555 20103 7000/;
0165334150999992000082406004+49570+025590FM-12+032499999V0202901N003012200019N0100001N1+01291+00951102191ADDAA199000091GF101991001001999999001011KA1999N+01031MD1210081+9999REMSYN070AAXX  24061 33415 32997 12903 10129 20095 40219 52008 80001 333 20103;EQDQ01  00002PRCP99
0112334150999992000082409004+49570+025590FM-12+032499999V0202901N004012200019N0100001N1+01771+00711102151ADDGF103991031011012501001001MD1210021+9999REMSYN060AAXX  24091 33415 42697 32904 10177 20071 40215 52002 83100;
0133334150999992000082412004+49570+025590FM-12+032499999V0202901N005010120019N0100001N1+01951+00741102041ADDGF105991051011012501001001MA1999999098231MD1810071+9999REMSYN066AAXX  24121 33415 42697 52905 10195 20074 39823 40204 58007 85100;
0112334150999992000082415004+49570+025590FM-12+032499999V0203201N006010120019N0100001N1+01991+00681101861ADDGF106991061011012501001001MD1710171+9999REMSYN060AAXX  24151 33415 42697 63206 10199 20068 40186 57017 86100;
0165334150999992000082418004+49570+025590FM-12+032499999V0202901N002019999999N0100001N1+01491+00841101941ADDAA199000091GF107991001001999999001011KA1999M+02041MD1410001+9999REMSYN070AAXX  24181 33415 32997 72902 10149 20084 40194 54000 80001 333 10204;EQDQ01  00002PRCP99
0112334150999992000082421004+49570+025590FM-12+032499999V0202701N003019999999N0100001N1+01291+00811101871ADDGF106991001001999999001011MD1810091+9999REMSYN060AAXX  24211 33415 42997 62703 10129 20081 40187 58009 80001;
0133334150999992000082500004+49570+025590FM-12+032499999V0209999C000012200019N0100001N1+01061+00741101691ADDGF102991001001999999001011MA1999999097771MD1710201+9999REMSYN066AAXX  25001 33415 42997 20000 10106 20074 39777 40169 57020 80001;
0128334150999992000082503004+49570+025590FM-12+032499999V0201801N003019999999N0100001N1+00841+00671101481ADDGF106991021001999999031011MD1710231+9999REMSYN076AAXX  25031 33415 42997 61803 10084 20067 40148 57023 82031 555 20084 7000/;
0187334150999992000082506004+49570+025590FM-12+032499999V0202301N003010078019N0100001N1+01241+00861101281ADDAA199000091GA1051+007809099GF107991051031008001031001KA1120N+00841MD1710131+9999REMSYN076AAXX  25061 33415 32597 72303 10124 20086 40128 57013 85330 333 20084 85926;EQDQ01  00002PRCP99
0112334150999992000082509004+49570+025590FM-12+032499999V0202701N009010360019N0100001N1+01961+00971101051ADDGF107991041051012501031001MD1710131+9999REMSYN060AAXX  25091 33415 42697 72709 10196 20097 40105 57013 84530;
0133334150999992000082512004+49570+025590FM-12+032499999V0202901N005012200019N0100001N1+01981+00801101001ADDGF107991031011012501001011MA1999999097231MD1710051+9999REMSYN066AAXX  25121 33415 42697 72905 10198 20080 39723 40100 57005 83101;
0112334150999992000082515004+49570+025590FM-12+032499999V0202701N007012200019N0100001N1+01601+00741101061ADDGF107991041051012501001011MD1410001+9999REMSYN060AAXX  25151 33415 42697 72707 10160 20074 40106 54000 84501;
0180334150999992000082518004+49570+025590FM-12+032499999V0202501N007010360019N0100001N1+01321+00931101131ADDAA112000791AY181061AY221061GF107991031031012501031001KA1999M+02041MD1310051+9999MW1021REMSYN082AAXX  25181 33415 11697 72507 10132 20093 40113 53005 69902 70282 83330 333 10204;
0138334150999992000082521004+49570+025590FM-12+032499999V0202701N008010072019N0100001N1+01221+00931101211ADDGA1051+007209059GF107991051051008001031001MD1210061+9999REMSYN070AAXX  25211 33415 42597 72708 10122 20093 40121 52006 85530 333 85624;
0159334150999992000082600004+49570+025590FM-12+032499999V0202901N006010060019N0100001N1+01141+00921101231ADDGA1061+006009059GF107991061051008001031001MA1999999097341MD1410001+9999REMSYN076AAXX  26001 33415 42597 72906 10114 20092 39734 40123 54000 86530 333 86620;
0154334150999992000082603004+49570+025590FM-12+032499999V0202901N006010063019N0100001N1+01041+00881101241ADDGA1051+006309099GF107991051031008001031001MD1410001+9999REMSYN086AAXX  26031 33415 42597 72906 10104 20088 40124 54000 85330 333 85921 555 20104 7990/;
0187334150999992000082606004+49570+025590FM-12+032499999V0202901N008010054019N0100001N1+01121+00881101291ADDAA199000091GA1071+005409099GF107991071031004501001001KA1120N+01041MD1310061+9999REMSYN076AAXX  26061 33415 32497 72908 10112 20088 40129 53006 87300 333 20104 87918;EQDQ01  00002PRCP99
0166334150999992000082609004+49570+025590FM-12+032499999V0203201N007010048019N0040001N1+01101+00971101421ADDAY181031AY221031GA1061+004809099GF107991061031004501031001MD1210111+9999MW1801REMSYN076AAXX  26091 33415 41496 73207 10110 20097 40142 52011 78082 86330 333 86916;
0187334150999992000082612004+49570+025590FM-12+032499999V0203201N00601002101CN0040001N1+01071+01031101511ADDAY181061AY221061GA1041+002409069GF108991081031002501999999MA1999999097601MD1210091+9999MW1801REMSYN082AAXX  26121 33415 41396 83206 10107 20103 39760 40151 52009 78082 883// 333 84708;
0166334150999992000082615004+49570+025590FM-12+032499999V0203201N007010030019N0100001N1+01161+01101101561ADDAY181031AY281031GA1061+003009099GF107991061031004501031001MD1210061+9999MW1801REMSYN076AAXX  26151 33415 41497 73207 10116 20110 40156 52006 78088 86330 333 86910;
0202334150999992000082618004+49570+025590FM-12+032499999V0203401N004010039019N0100001N1+01191+01101101621ADDAA112009991AY181061AY221061GA1061+003909099GF108991061031004501031999KA1120M+01191MD1210071+9999MW1251REMSYN088AAXX  26181 33415 11497 83404 10119 20110 40162 52007 60102 72582 8633/ 333 10119 86913;
0138334150999992000082621004+49570+025590FM-12+032499999V0203601N004010039019N0100001N1+01201+01061101691ADDGA1051+003909059GF108991051051004501031999MD1210071+9999REMSYN070AAXX  26211 33415 42497 83604 10120 20106 40169 52007 8553/ 333 85613;
0159334150999992000082700004+49570+025590FM-12+032499999V0203201N004010033019N0100001N1+01181+01031101711ADDGA1081+003309059GF108991081051004501999999MA1999999097811MD1210011+9999REMSYN076AAXX  27001 33415 42497 83204 10118 20103 39781 40171 52001 885// 333 88611;
0154334150999992000082703004+49570+025590FM-12+032499999V0203601N005010033019N0100001N1+01221+01111101701ADDGA1081+003309069GF108991081051004501999999MD1410001+9999REMSYN086AAXX  27031 33415 42497 83605 10122 20111 40170 54000 885// 333 88611 555 20118 7010/;
0202334150999992000082706004+49570+025590FM-12+032499999V0203601N005010024019N0040001N1+01261+01191101781ADDAA112000791AY181061AY221061GA1081+002409099GF108991081031002501999999KA1120N+01181MD1210081+9999MW1101REMSYN088AAXX  27061 33415 11396 83605 10126 20119 40178 52008 69902 71082 883// 333 20118 88908;
0138334150999992000082709004+49570+025590FM-12+032499999V0200201N008010060019N0100001N1+01541+01091101841ADDGA1051+006009099GF107991051031008001031001MD1210091+9999REMSYN070AAXX  27091 33415 42597 70208 10154 20109 40184 52009 85330 333 85920;
0159334150999992000082712004+49570+025590FM-12+032499999V0203601N008010360019N0100001N1+01721+01131101861ADDGA1041+009009099GF107991041031008001031001MA1999999098031MD1210051+9999REMSYN076AAXX  27121 33415 42597 73608 10172 20113 39803 40186 52005 84330 333 84930;
0140334150999992000082715004+49570+025590FM-12+032499999V0200201N006010360019N0100001N1+01791+01331101821ADDAY181031AY221031GF107991041031012501031001MD1810031+9999MW1021REMSYN066AAXX  27151 33415 41697 70206 10179 20133 40182 58003 70282 84330;
0180334150999992000082718004+49570+025590FM-12+032499999V0203601N004010360019N0100001N1+01621+01331101981ADDAA112000791AY181061AY221061GF107991041031012501031001KA1999M+01841MD1310131+9999MW1021REMSYN082AAXX  27181 33415 11697 73604 10162 20133 40198 53013 69902 70282 84330 333 10184;
0140334150999992000082721004+49570+025590FM-12+032499999V0203601N002010360019N0100001N1+01531+01351102051ADDAY181031AY221031GF107991041031012501031001MD1210061+9999MW1021REMSYN066AAXX  27211 33415 41697 73602 10153 20135 40205 52006 70282 84330;
0161334150999992000082800004+49570+025590FM-12+032499999V0200201N004010120019N0100001N1+01481+01331102051ADDAY181061AY221061GF107991051031012501031001MA1999999098191MD1410001+9999MW1021REMSYN072AAXX  28001 33415 41697 70204 10148 20133 39819 40205 54000 70282 85330;
0128334150999992000082803004+49570+025590FM-12+032499999V0203601N003010360019N0100001N1+01261+01141102141ADDGF106991021051012501031001MD1310041+9999REMSYN076AAXX  28031 33415 42697 63603 10126 20114 40214 53004 82530 555 20125 7990/;
0152334150999992000082806004+49570+025590FM-12+032499999V0200201N004019999999N0100001N1+01511+01291102151ADDAA112000791GF106991061001999999031001KA1999N+01251MD1210061+9999REMSYN076AAXX  28061 33415 12997 60204 10151 20129 40215 52006 69902 86030 333 20125;
0112334150999992000082809004+49570+025590FM-12+032499999V0200901N003012200019N0100001N1+01971+01531102091ADDGF101991001001999999001011MD1410001+9999REMSYN060AAXX  28091 33415 42997 10903 10197 20153 40209 54000 80001;
0133334150999992000082812004+49570+025590FM-12+032499999V0200701N005010120019N0100001N1+02111+01451102071ADDGF107991071031012501001001MA1999999098291MD1410001+9999REMSYN066AAXX  28121 33415 42697 70705 10211 20145 39829 40207 54000 87300;
0112334150999992000082815004+49570+025590FM-12+032499999V0200701N005012200019N0100001N1+02181+01391101981ADDGF102991011011012501031001MD1810081+9999REMSYN060AAXX  28151 33415 42697 20705 10218 20139 40198 58008 81130;
0165334150999992000082818004+49570+025590FM-12+032499999V0209999C000012200019N0100001N1+01691+01271102051ADDAA199000091GF102991001001999999001011KA1999M+02181MD1410001+9999REMSYN070AAXX  28181 33415 32997 20000 10169 20127 40205 54000 80001 333 10218;EQDQ01  00002PRCP99
0112334150999992000082821004+49570+025590FM-12+032499999V0209999C000012200019N0100001N1+01301+01151102141ADDGF102991001001999999001011MD1310041+9999REMSYN060AAXX  28211 33415 42997 20000 10130 20115 40214 53004 80001;
0133334150999992000082900004+49570+025590FM-12+032499999V0209999C000012200019N0100001N1+01181+01031102171ADDGF102991001001999999001011MA1999999098251MD1410001+9999REMSYN066AAXX  29001 33415 42997 20000 10118 20103 39825 40217 54000 80001;
0128334150999992000082903004+49570+025590FM-12+032499999V0209999C000012200019N0100001N1+00961+00841102161ADDGF102991001001999999001011MD1810041+9999REMSYN076AAXX  29031 33415 42997 20000 10096 20084 40216 58004 80001 555 20096 7000/;
0165334150999992000082906004+49570+025590FM-12+032499999V0209999V002012200019N0100001N1+01261+01131102121ADDAA199000091GF101991001001999999001011KA1999N+00911MD1410001+9999REMSYN070AAXX  29061 33415 32997 19902 10126 20113 40212 54000 80001 333 20091;EQDQ01  00002PRCP99
0112334150999992000082909004+49570+025590FM-12+032499999V0209999C000012200019N0100001N1+02011+01211101981ADDGF102991021011012501001001MD1810031+9999REMSYN060AAXX  29091 33415 42697 20000 10201 20121 40198 58003 82100;
0133334150999992000082912004+49570+025590FM-12+032499999V0200501N002010120019N0100001N1+01181+99999101881ADDGF105991051011012501001001MA1999999098111MD1710071+9999REMSYN066AAXX  29121 33415 42697 50502 10118 20125 39811 40188 57007 85100;
0112334150999992000082915004+49570+025590FM-12+032499999V0200701N006010120019N0100001N1+01991+01281101841ADDGF106991061011012501001001MD1710061+9999REMSYN060AAXX  29151 33415 42697 60706 10199 20128 40184 57006 86100;
0165334150999992000082918004+49570+025590FM-12+032499999V0209999C000012200019N0100001N1+01671+01131101871ADDAA199000091GF102991021001999999031001KA1999M+02201MD1710021+9999REMSYN070AAXX  29181 33415 32997 20000 10167 20113 40187 57002 82030 333 10220;EQDQ01  00002PRCP99
0112334150999992000082921004+49570+025590FM-12+032499999V0209999C000012200019N0100001N1+01281+01051101931ADDGF103991021001999999031011MD1410001+9999REMSYN060AAXX  29211 33415 42997 30000 10128 20105 40193 54000 82031;
0133334150999992000083000004+49570+025590FM-12+032499999V0209999C000012200019N0100001N1+01051+00891101921ADDGF102991001001999999001011MA1999999097991MD1810041+9999REMSYN066AAXX  30001 33415 42997 20000 10105 20089 39799 40192 58004 80001;
0128334150999992000083003004+49570+025590FM-12+032499999V0209999C000019999999N0100001N1+00941+00841101881ADDGF105991031001999999031011MD1710051+9999REMSYN076AAXX  30031 33415 42997 50000 10094 20084 40188 57005 83031 555 20092 7000/;
0165334150999992000083006004+49570+025590FM-12+032499999V0209999C000010360019N0100001N1+01231+01121101801ADDAA199000091GF106991021051012501031001KA1999N+00921MD1710041+9999REMSYN070AAXX  30061 33415 32697 60000 10123 20112 40180 57004 82530 333 20092;EQDQ01  00002PRCP99
0112334150999992000083009004+49570+025590FM-12+032499999V0203201N002010360019N0100001N1+01871+01181101681ADDGF106991021051012501031001MD1710031+9999REMSYN060AAXX  30091 33415 42697 63202 10187 20118 40168 57003 82530;
0133334150999992000083012004+49570+025590FM-12+032499999V0209999V002010360019N0100001N1+01781+00971101641ADDGF106991041031012501031001MA1999999097821MD1710051+9999REMSYN066AAXX  30121 33415 42697 69902 10178 20097 39782 40164 57005 84330;
0112334150999992000083015004+49570+025590FM-12+032499999V0200501N004010360019N0100001N1+01921+01071101541ADDGF106991041031012501031001MD1710081+9999REMSYN060AAXX  30151 33415 42697 60504 10192 20107 40154 57008 84330;
0165334150999992000083018004+49570+025590FM-12+032499999V0209999C000019999999N0100001N1+01531+01071101581ADDAA199000091GF105991031001999999031011KA1999M+01991MD1710011+9999REMSYN070AAXX  30181 33415 32997 50000 10153 20107 40158 57001 83031 333 10199;EQDQ01  00002PRCP99
0122334150999992000083021004+49570+025590FM-12+032499999V0209999C000012200019N0100001N1+01171+00931101581ADDGA1001+999999999GF100991001001999999001001MD1710051+9999REMSYN054AAXX  30211 33415 42997 00000 10117 20093 40158 57005;
0143334150999992000083100004+49570+025590FM-12+032499999V0209999C000012200019N0100001N1+01011+00821101571ADDGA1001+999999999GF100991001001999999001001MA1999999097661MD1710021+9999REMSYN060AAXX  31001 33415 42997 00000 10101 20082 39766 40157 57002;
0138334150999992000083103004+49570+025590FM-12+032499999V0209999C000012200019N0100001N1+00871+00701101481ADDGA1001+999999999GF100991001001999999001001MD1710121+9999REMSYN070AAXX  31031 33415 42997 00000 10087 20070 40148 57012 555 20086 7000/;
0203334150999992000083106004+49570+025590FM-12+032499999V0209999C000012200019N0040001N1+01131+00931101471ADDAA199000091AY101061AY201061GA1001+999999999GF100991001001999999001001KA1999N+00731MD1310021+9999MW1101REMSYN070AAXX  31061 33415 31996 00000 10113 20093 40147 53002 71000 333 20073;EQDQ01  00002PRCP99
0112334150999992000083109004+49570+025590FM-12+032499999V0209999V002012200019N0100001N1+02021+01131101281ADDGF101991011001999999031001MD1810051+9999REMSYN060AAXX  31091 33415 42997 19902 10202 20113 40128 58005 81030;
0133334150999992000083112004+49570+025590FM-12+032499999V0209999C000010120019N0100001N1+02231+01171101171ADDGF105991051031012501001001MA1999999097431MD1710081+9999REMSYN066AAXX  31121 33415 42697 50000 10223 20117 39743 40117 57008 85300;
0112334150999992000083115004+49570+025590FM-12+032499999V0209999V002012200019N0100001N1+02271+01051101081ADDGF103991011011012501031011MD1710091+9999REMSYN060AAXX  31151 33415 42697 39902 10227 20105 40108 57009 81131;
0165334150999992000083118004+49570+025590FM-12+032499999V0202001N003012200019N0100001N1+01651+01201101081ADDAA199000091GF107991041051012501001011KA1999M+02271MD1710071+9999REMSYN070AAXX  31181 33415 32697 72003 10165 20120 40108 57007 84501 333 10227;EQDQ01  00002PRCP99
0112334150999992000083121004+49570+025590FM-12+032499999V0209999V002010120019N0100001N1+01601+01351101031ADDGF108991081051012501999999MD1710051+9999REMSYN060AAXX  31211 33415 42697 89902 10160 20135 40103 57005 885//;
0161334150999992000090100004+49570+025590FM-12+032499999V0209999V002010120019N0100001N1+01541+01381100911ADDAY181061AY221061GF108991081031012501999999MA1999999097091MD1710131+9999MW1801REMSYN072AAXX  01001 33415 41697 89902 10154 20138 39709 40091 57013 78082 883//;
0156334150999992000090103004+49570+025590FM-12+032499999V0209999V002010120019N0100001N1+01411+01261100811ADDAY181031AY221031GF108991081031012501999999MD1710111+9999MW1801REMSYN082AAXX  01031 33415 41697 89902 10141 20126 40081 57011 78082 883// 555 20140 7001/;
0180334150999992000090106004+49570+025590FM-12+032499999V0209999V002010360019N0100001N1+01411+01241100741ADDAA112001091AY181061AY221061GF107991041031012501031001KA1999N+01361MD1710071+9999MW1021REMSYN082AAXX  01061 33415 11697 79902 10141 20124 40074 57007 60012 70282 84330 333 20136;
0112334150999992000090109004+49570+025590FM-12+032499999V0201101N003010360019N0100001N1+01531+01261100691ADDGF107991041031012501031001MD1710031+9999REMSYN060AAXX  01091 33415 42697 71103 10153 20126 40069 57003 84330;
0161334150999992000090112004+49570+025590FM-12+032499999V0209999C000010120019N0100001N1+01521+01251100651ADDAY181061AY221061GF107991051031012501031001MA1999999096841MD1710041+9999MW1021REMSYN072AAXX  01121 33415 41697 70000 10152 20125 39684 40065 57004 70282 85330;
0140334150999992000090115004+49570+025590FM-12+032499999V0200701N002010360019N0100001N1+01541+01321100631ADDAY181031AY221031GF107991031031012501031001MD1710021+9999MW1021REMSYN066AAXX  01151 33415 41697 70702 10154 20132 40063 57002 70282 83330;
0180334150999992000090118004+49570+025590FM-12+032499999V0209999V002010360019N0100001N1+01441+01331100621ADDAA112000791AY181061AY221061GF107991031051012501031001KA1999M+01551MD1710021+9999MW1021REMSYN082AAXX  01181 33415 11697 79902 10144 20133 40062 57002 69902 70282 83530 333 10155;
0112334150999992000090121004+49570+025590FM-12+032499999V0200201N002010360019N0100001N1+01361+01281100541ADDGF107991031051012501031001MD1710101+9999REMSYN060AAXX  01211 33415 42697 70202 10136 20128 40054 57010 83530;
0187334150999992000090200004+49570+025590FM-12+032499999V0203201N003010063019N0040001N1+01351+01291100521ADDAY121061AY221061GA1051+006309059GF107991051051008001031001MA1999999096691MD1710011+9999MW1101REMSYN082AAXX  02001 33415 41596 73203 10135 20129 39669 40052 57001 71022 85530 333 85621;
0182334150999992000090203004+49570+025590FM-12+032499999V0203401N003010360019N0040001N1+01401+01321100481ADDAY121031AY221031GA1041+004209069GF107991041051004501031001MD1710031+9999MW1101REMSYN092AAXX  02031 33415 41496 73403 10140 20132 40048 57003 71022 84530 333 84614 555 20134 7990/;
0215334150999992000090206004+49570+025590FM-12+032499999V0203201N004010036019N0040001N1+01421+01311100481ADDAA199000091AY121061AY221061GA1051+003609059GF108991051051004501031001KA1120N+01341MD1410001+9999MW1101REMSYN082AAXX  02061 33415 31496 83204 10142 20131 40048 54000 71022 85530 333 20134 85612;EQDQ01  00002PRCP99
0166334150999992000090209004+49570+025590FM-12+032499999V0202901N005010024019N0040001N1+01451+01281100541ADDAY121031AY221031GA1051+002409069GF108991081051002501999999MD1310061+9999MW1101REMSYN076AAXX  02091 33415 41396 82905 10145 20128 40054 53006 71022 885// 333 85708;
0187334150999992000090212004+49570+025590FM-12+032499999V0203101N00501004201CN0040001N1+01631+01321100611ADDAY121061AY221061GA1041+003909099GF107991071051004501001001MA1999999096711MD1810011+9999MW1101REMSYN082AAXX  02121 33415 41496 73105 10163 20132 39671 40061 58001 71022 87500 333 84913;
0166334150999992000090215004+49570+025590FM-12+032499999V0202901N004010048019N0040001N1+01661+01321100571ADDAY121031AY221031GA1071+004809059GF107991071051004501001001MD1310061+9999MW1101REMSYN076AAXX  02151 33415 41496 72904 10166 20132 40057 53006 71022 87500 333 87616;
0179334150999992000090218004+49570+025590FM-12+032499999V0202701N002019999999N0040001N1+01381+01201100631ADDAA199000091AY121061AY221061GF107991999999008001999999MD1210041+9999MW1101REMSYN075AAXX  02181 33415 32596 72702 10138 20120 40063 52004 71022 8531 333 10174;EQDQ01  00002PRCP99
0140334150999992000090221004+49570+025590FM-12+032499999V0202901N001012200019N0040001N1+00951+00821100731ADDAY121031AY221031GF104991001001999999001011MD1210031+9999MW1101REMSYN066AAXX  02211 33415 41996 42901 10095 20082 40073 52003 71022 80001;
0161334150999992000090300004+49570+025590FM-12+032499999V0202701N002012200019N0040001N1+00761+00671100781ADDAY111061AY211061GF103991001001999999001011MA1999999096861MD1210021+9999MW1101REMSYN072AAXX  03001 33415 41996 32702 10076 20067 39686 40078 52002 71011 80001;
0166334150999992000090303004+49570+025590FM-12+032499999V0209999C000010003019N0005001N1+00751+00751100691ADDAY141031AY211031GA1091+999999999GF109991091999999999999999MD1810091+9999MW1471REMSYN076AAXX  03031 33415 41/93 90000 10075 20075 40069 58009 74741 555 20074 7000/;
0193334150999992000090306004+49570+025590FM-12+032499999V0209999C000019999999N0040001N1+01071+00971100661ADDAA199000091AY141061AY211061GF106991021001999999031011KA1999N+00741MD1310011+9999MW1281REMSYN076AAXX  03061 33415 31996 60000 10107 20097 40066 53001 72841 82031 333 20074;EQDQ01  00002PRCP99
0140334150999992000090309004+49570+025590FM-12+032499999V0201401N002019999999N0040001N1+01881+01451100531ADDAY121031AY221031GF106991021001012501031011MD1810011+9999MW1101REMSYN066AAXX  03091 33415 41696 61402 10188 20145 40053 58001 71022 82031;
0133334150999992000090312004+49570+025590FM-12+032499999V0201401N004010360019N0100001N1+02081+01351100401ADDGF107991031051012501031011MA1999999096681MD1710091+9999REMSYN066AAXX  03121 33415 42697 71404 10208 20135 39668 40040 57009 83531;
0140334150999992000090315004+49570+025590FM-12+032499999V0202901N006010120019N0100001N1+01581+01071100531ADDAY181031AY221031GF107991051031012501031001MD1310041+9999MW1801REMSYN066AAXX  03151 33415 41697 72906 10158 20107 40053 53004 78082 85330;
0180334150999992000090318004+49570+025590FM-12+032499999V0202901N003010360019N0100001N1+01391+01091100631ADDAA112002091AY181061AY221061GF107991041031012501031001KA1999M+02101MD1210091+9999MW1021REMSYN082AAXX  03181 33415 11697 72903 10139 20109 40063 52009 60022 70282 84330 333 10210;
0112334150999992000090321004+49570+025590FM-12+032499999V0202701N002010360019N0100001N1+01191+00951100771ADDGF106991031031012501031001MD1410001+9999REMSYN060AAXX  03211 33415 42697 62702 10119 20095 40077 54000 83330;
0133334150999992000090400004+49570+025590FM-12+032499999V0209999V001010360019N0100001N1+01171+00991100751ADDGF107991041031012501031001MA1999999096891MD1310081+9999REMSYN066AAXX  04001 33415 42697 79901 10117 20099 39689 40075 53008 84330;
0182334150999992000090403004+49570+025590FM-12+032499999V0202701N004010360019N0100001N1+01161+01041100781ADDAY121031AY221031GA1041+006309069GF107991041051008001031001MD1210021+9999MW1101REMSYN092AAXX  04031 33415 41597 72704 10116 20104 40078 52002 71022 84530 333 84621 555 20115 7002/;
0215334150999992000090406004+49570+025590FM-12+032499999V0202301N002010360019N0020001N1+01261+01171100851ADDAA199000091AY141061AY221061GA1041+002409029GF107991041051002501031001KA1120N+01151MD1210081+9999MW1101REMSYN082AAXX  04061 33415 31395 72302 10126 20117 40085 52008 71042 84530 333 20115 84508;EQDQ01  00002PRCP99
0112334150999992000090409004+49570+025590FM-12+032499999V0202301N004010360019N0100001N1+01801+01241100841ADDGF106991031031012501031001MD1210071+9999REMSYN060AAXX  04091 33415 42697 62304 10180 20124 40084 52007 83330;
0133334150999992000090412004+49570+025590FM-12+032499999V0202501N007010360019N0100001N1+01871+01321100821ADDGF106991031011012501031001MA1999999097061MD1410001+9999REMSYN066AAXX  04121 33415 42697 62507 10187 20132 39706 40082 54000 83130;
0112334150999992000090415004+49570+025590FM-12+032499999V0202701N006010120019N0100001N1+01841+01501100851ADDGF106991051051012501031001MD1310031+9999REMSYN060AAXX  04151 33415 42697 62706 10184 20150 40085 53003 85530;
0165334150999992000090418004+49570+025590FM-12+032499999V0202501N004010360019N0100001N1+01481+01221101031ADDAA199000091GF107991041051012501031001KA1999M+01941MD1210111+9999REMSYN070AAXX  04181 33415 32697 72504 10148 20122 40103 52011 84530 333 10194;EQDQ01  00002PRCP99
0112334150999992000090421004+49570+025590FM-12+032499999V0202701N004012200019N0100001N1+01231+01041101211ADDGF102991021001999999031001MD1210141+9999REMSYN060AAXX  04211 33415 42997 22704 10123 20104 40121 52014 82030;
0133334150999992000090500004+49570+025590FM-12+032499999V0202701N004012200019N0100001N1+01171+00991101251ADDGF102991021001999999031001MA1999999097361MD1210021+9999REMSYN066AAXX  05001 33415 42997 22704 10117 20099 39736 40125 52002 82030;
0128334150999992000090503004+49570+025590FM-12+032499999V0202901N004012200019N0100001N1+00961+00851101321ADDGF102991021001999999031001MD1210041+9999REMSYN076AAXX  05031 33415 42997 22904 10096 20085 40132 52004 82030 555 20093 7000/;
0165334150999992000090506004+49570+025590FM-12+032499999V0202901N004010360019N0100001N1+01191+01051101301ADDAA199000091GF106991031031012501031001KA1999N+00931MD1210031+9999REMSYN070AAXX  05061 33415 32697 62904 10119 20105 40130 52003 83330 333 20093;EQDQ01  00002PRCP99
0138334150999992000090509004+49570+025590FM-12+032499999V0203201N005010078019N0100001N1+01401+01041101371ADDGA1071+007809099GF107991071031008001001001MD1210091+9999REMSYN070AAXX  05091 33415 42597 73205 10140 20104 40137 52009 87300 333 87926;
0112334150999992000090515004+49570+025590FM-12+032499999V0203201N006010360019N0100001N1+01571+01301101231ADDGF107991031051012501031001MD1710061+9999REMSYN060AAXX  05151 33415 42697 73206 10157 20130 40123 57006 83530;
0165334150999992000090518004+49570+025590FM-12+032499999V0203401N005010360019N0100001N1+01281+01031101361ADDAA199000091GF107991031051012501031001KA1999M+01671MD1310081+9999REMSYN070AAXX  05181 33415 32697 73405 10128 20103 40136 53008 83530 333 10167;EQDQ01  00002PRCP99
0112334150999992000090521004+49570+025590FM-12+032499999V0203201N005019999999N0100001N1+01201+00921101461ADDGF107991071001999999031001MD1210071+9999REMSYN060AAXX  05211 33415 42997 73205 10120 20092 40146 52007 87030;
0133334150999992000090600004+49570+025590FM-12+032499999V0203201N004019999999N0100001N1+01081+00811101451ADDGF106991061001999999031001MA1999999097541MD1810021+9999REMSYN066AAXX  06001 33415 42997 63204 10108 20081 39754 40145 58002 86030;
0128334150999992000090603004+49570+025590FM-12+032499999V0203201N006019999999N0100001N1+00821+00561101471ADDGF106991021001999999031011MD1710021+9999REMSYN076AAXX  06031 33415 42997 63206 10082 20056 40147 57002 82031 555 20082 7000/;
0165334150999992000090606004+49570+025590FM-12+032499999V0203201N005019999999N0100001N1+00871+00511101451ADDAA199000091GF105991001001999999001011KA1999N+00721MD1710011+9999REMSYN070AAXX  06061 33415 32997 53205 10087 20051 40145 57001 80001 333 20072;EQDQ01  00002PRCP99
0112334150999992000090609004+49570+025590FM-12+032499999V0203201N008010120019N0100001N1+01301+00681101301ADDGF107991061021012501001011MD1710081+9999REMSYN060AAXX  06091 33415 42697 73208 10130 20068 40130 57008 86201;
0133334150999992000090612004+49570+025590FM-12+032499999V0203201N007010120019N0100001N1+01401+01061101221ADDGF107991071051012501001001MA1999999097371MD1710061+9999REMSYN066AAXX  06121 33415 42697 73207 10140 20106 39737 40122 57006 87500;
0138334150999992000090615004+49570+025590FM-12+032499999V0203201N008010054019N0100001N1+01141+00851101261ADDGA1071+005409099GF107991071031004501001001MD1410001+9999REMSYN070AAXX  06151 33415 42497 73208 10114 20085 40126 54000 87300 333 87918;
0187334150999992000090618004+49570+025590FM-12+032499999V0203201N005010051019N0100001N1+01101+00881101271ADDAA199000091GA1071+005109099GF107991071031004501001001KA1120M+01401MD1410001+9999REMSYN076AAXX  06181 33415 32497 73205 10110 20088 40127 54000 87300 333 10140 87917;EQDQ01  00002PRCP99
0166334150999992000090621004+49570+025590FM-12+032499999V0203201N006010054019N0100001N1+01081+00921101161ADDAY181031AY221031GA1051+005409099GF107991051031004501031001MD1810101+9999MW1021REMSYN076AAXX  06211 33415 41497 73206 10108 20092 40116 58010 70282 85330 333 85918;
0187334150999992000090700004+49570+025590FM-12+032499999V0203201N006010360019N0100001N1+01041+00921101041ADDAY181061AY221061GA1041+006309099GF107991041031008001031001MA1999999097151MD1710121+9999MW1021REMSYN082AAXX  07001 33415 41597 73206 10104 20092 39715 40104 57012 70282 84330 333 84921;
0128334150999992000090703004+49570+025590FM-12+032499999V0202901N005012200019N0100001N1+00881+00731100951ADDGF103991031051012501001001MD1710111+9999REMSYN076AAXX  07031 33415 42697 32905 10088 20073 40095 57011 83500 555 20088 7996/;
0152334150999992000090706004+49570+025590FM-12+032499999V0203201N005012200019N0100001N1+00821+00671100971ADDAA112000591GF107991041051012501001011KA1999N+00741MD1410001+9999REMSYN076AAXX  07061 33415 12697 73205 10082 20067 40097 54000 69962 84501 333 20074;
0112334150999992000090709004+49570+025590FM-12+032499999V0203201N007010360019N0100001N1+01281+00841100871ADDGF107991031051012501031001MD1810031+9999REMSYN060AAXX  07091 33415 42697 73207 10128 20084 40087 58003 83530;
0133334150999992000090712004+49570+025590FM-12+032499999V0202901N008010360019N0100001N1+01461+00951100801ADDGF107991041031012501031001MA1999999096971MD1710041+9999REMSYN066AAXX  07121 33415 42697 72908 10146 20095 39697 40080 57004 84330;
0112334150999992000090715004+49570+025590FM-12+032499999V0203201N008010360019N0100001N1+01341+01021100861ADDGF107991031031012501031001MD1310051+9999REMSYN060AAXX  07151 33415 42697 73208 10134 20102 40086 53005 83330;
0165334150999992000090718004+49570+025590FM-12+032499999V0202901N006010360019N0100001N1+01031+00761101061ADDAA199000091GF107991021051012501031001KA1999M+01471MD1210151+9999REMSYN070AAXX  07181 33415 32697 72906 10103 20076 40106 52015 82530 333 10147;EQDQ01  00002PRCP99
0112334150999992000090721004+49570+025590FM-12+032499999V0202901N005012200019N0100001N1+00921+00711101171ADDGF103991031001999999031001MD1210081+9999REMSYN060AAXX  07211 33415 42997 32905 10092 20071 40117 52008 83030;
0133334150999992000090800004+49570+025590FM-12+032499999V0202901N006010360019N0100001N1+00861+00711101271ADDGF107991021051012501031001MA1999999097341MD1210091+9999REMSYN066AAXX  08001 33415 42697 72906 10086 20071 39734 40127 52009 82530;
0128334150999992000090803004+49570+025590FM-12+032499999V0202901N008019999999N0100001N1+00741+00561101421ADDGF106991061001999999031001MD1210121+9999REMSYN076AAXX  08031 33415 42997 62908 10074 20056 40142 52012 86030 555 20073 7000/;
0165334150999992000090806004+49570+025590FM-12+032499999V0202901N007019999999N0100001N1+00741+00461101601ADDAA199000091GF107991071001999999031001KA1999N+00721MD1210171+9999REMSYN070AAXX  08061 33415 32997 72907 10074 20046 40160 52017 87030 333 20072;EQDQ01  00002PRCP99
0112334150999992000090809004+49570+025590FM-12+032499999V0202901N008019999999N0100001N1+01201+00731101781ADDGF107991071001999999031001MD1210251+9999REMSYN060AAXX  08091 33415 42997 72908 10120 20073 40178 52025 87030;
0133334150999992000090812004+49570+025590FM-12+032499999V0202901N005010360019N0100001N1+01621+00641101861ADDGF107991021011012501031001MA1999999098001MD1210121+9999REMSYN066AAXX  08121 33415 42697 72905 10162 20064 39800 40186 52012 82130;
0112334150999992000090815004+49570+025590FM-12+032499999V0202901N005012200019N0100001N1+01641+00591101951ADDGF103991011051012501001011MD1210101+9999REMSYN060AAXX  08151 33415 42697 32905 10164 20059 40195 52010 81501;
0165334150999992000090818004+49570+025590FM-12+032499999V0202901N004012200019N0100001N1+01101+00611102201ADDAA199000091GF102991001001999999001011KA1999M+01701MD1210171+9999REMSYN070AAXX  08181 33415 32997 22904 10110 20061 40220 52017 80001 333 10170;EQDQ01  00002PRCP99
0122334150999992000090821004+49570+025590FM-12+032499999V0202701N005012200019N0100001N1+00941+00611102421ADDGA1001+999999999GF100991001001999999001001MD1210191+9999REMSYN054AAXX  08211 33415 42997 02705 10094 20061 40242 52019;
0143334150999992000090900004+49570+025590FM-12+032499999V0202701N005012200019N0100001N1+00801+00561102521ADDGA1001+999999999GF100991001001999999001001MA1999999098531MD1210071+9999REMSYN060AAXX  09001 33415 42997 02705 10080 20056 39853 40252 52007;
0138334150999992000090903004+49570+025590FM-12+032499999V0202701N003012200019N0100001N1+00501+00361102611ADDGA1001+999999999GF100991001001999999001001MD1210041+9999REMSYN070AAXX  09031 33415 42997 02703 10050 20036 40261 52004 555 20049 7000/;
0209334150999992000090906004+49570+025590FM-12+032499999V0209999C000012200019N0100001N1+00751+00581102701ADDAA199000091GA1001+999999999GF100991001001999999001001IA1099IA2999+00309KA1120N+00361MD1210131+9999REMSYN080AAXX  09061 33415 32997 00000 10075 20058 40270 52013 333 20036 555 31003 52002;EQDQ01  00002PRCP99
0112334150999992000090909004+49570+025590FM-12+032499999V0202901N004012200019N0100001N1+01711+00641102661ADDGF102991001001999999001011MD1210091+9999REMSYN060AAXX  09091 33415 42997 22904 10171 20064 40266 52009 80001;
0133334150999992000090912004+49570+025590FM-12+032499999V0202901N004012200019N0100001N1+01971+00641102571ADDGF102991001001999999001011MA1999999098741MD1810051+9999REMSYN066AAXX  09121 33415 42997 22904 10197 20064 39874 40257 58005 80001;
0112334150999992000090915004+49570+025590FM-12+032499999V0202701N002012200019N0100001N1+02071+00821102531ADDGF101991001001999999001011MD1710031+9999REMSYN060AAXX  09151 33415 42997 12702 10207 20082 40253 57003 80001;
0165334150999992000090918004+49570+025590FM-12+032499999V0202701N002012200019N0100001N1+01561+00881102611ADDAA199000091GF102991001001999999001011KA1999M+02121MD1310011+9999REMSYN070AAXX  09181 33415 32997 22702 10156 20088 40261 53001 80001 333 10212;EQDQ01  00002PRCP99
0122334150999992000090921004+49570+025590FM-12+032499999V0202701N002012200019N0100001N1+01111+00781102721ADDGA1001+999999999GF100991001001999999001001MD1210041+9999REMSYN054AAXX  09211 33415 42997 02702 10111 20078 40272 52004;
0143334150999992000091000004+49570+025590FM-12+032499999V0209999C000012200019N0100001N1+01001+00761102681ADDGA1001+999999999GF100991001001999999001001MA1999999098711MD1810051+9999REMSYN060AAXX  10001 33415 42997 00000 10100 20076 39871 40268 58005;
0128334150999992000091003004+49570+025590FM-12+032499999V0209999C000012200019N0100001N1+00721+00561102671ADDGF102991001001999999001011MD1710051+9999REMSYN076AAXX  10031 33415 42997 20000 10072 20056 40267 57005 80001 555 20072 7000/;
0175334150999992000091006004+49570+025590FM-12+032499999V0201401N001012200019N0100001N1+01151+00781102531ADDAA199000091GA1001+999999999GF100991001001999999001001KA1999N+00721MD1710071+9999REMSYN064AAXX  10061 33415 32997 01401 10115 20078 40253 57007 333 20072;EQDQ01  00002PRCP99
0122334150999992000091009004+49570+025590FM-12+032499999V0209999V002012200019N0100001N1+02041+00811102341ADDGA1001+999999999GF100991001001999999001001MD1710061+9999REMSYN054AAXX  10091 33415 42997 09902 10204 20081 40234 57006;
0133334150999992000091012004+49570+025590FM-12+032499999V0202001N006012200019N0100001N1+02391+00561102161ADDGF103991001001999999001011MA1999999098391MD1710141+9999REMSYN066AAXX  10121 33415 42997 32006 10239 20056 39839 40216 57014 80001;
0112334150999992000091015004+49570+025590FM-12+032499999V0202701N005012200019N0100001N1+02381+00771101991ADDGF103991001001999999001011MD1710161+9999REMSYN060AAXX  10151 33415 42997 32705 10238 20077 40199 57016 80001;
0165334150999992000091018004+49570+025590FM-12+032499999V0202701N003012200019N0100001N1+01761+01101102001ADDAA199000091GF102991001001999999001011KA1999M+02461MD1710071+9999REMSYN070AAXX  10181 33415 32997 22703 10176 20110 40200 57007 80001 333 10246;EQDQ01  00002PRCP99
0112334150999992000091021004+49570+025590FM-12+032499999V0202701N002012200019N0100001N1+01361+01041101951ADDGF102991001001999999001011MD1710091+9999REMSYN060AAXX  10211 33415 42997 22702 10136 20104 40195 57009 80001;
0133334150999992000091100004+49570+025590FM-12+032499999V0202701N001012200019N0100001N1+01151+00991101901ADDGF102991001001999999001011MA1999999097991MD1710081+9999REMSYN066AAXX  11001 33415 42997 22701 10115 20099 39799 40190 57008 80001;
0128334150999992000091103004+49570+025590FM-12+032499999V0202701N003012200019N0100001N1+01021+00921101851ADDGF102991001001999999001011MD1710071+9999REMSYN076AAXX  11031 33415 42997 22703 10102 20092 40185 57007 80001 555 20100 7000/;
0165334150999992000091106004+49570+025590FM-12+032499999V0209999C000019999999N0100001N1+01221+01061101771ADDAA199000091GF106991031001999999031011KA1999N+00841MD1710041+9999REMSYN070AAXX  11061 33415 32997 60000 10122 20106 40177 57004 83031 333 20084;EQDQ01  00002PRCP99
0112334150999992000091109004+49570+025590FM-12+032499999V0203201N002019999999N0100001N1+01741+01231101761ADDGF106991041001999999031011MD1310051+9999REMSYN060AAXX  11091 33415 42997 63202 10174 20123 40176 53005 84031;
0133334150999992000091112004+49570+025590FM-12+032499999V0203401N003010360019N0100001N1+01891+01071101621ADDGF107991021051012501031011MA1999999097821MD1810091+9999REMSYN066AAXX  11121 33415 42697 73403 10189 20107 39782 40162 58009 82531;
0112334150999992000091115004+49570+025590FM-12+032499999V0203401N004010360019N0100001N1+01871+01051101641ADDGF107991021051012501031011MD1710091+9999REMSYN060AAXX  11151 33415 42697 73404 10187 20105 40164 57009 82531;
0165334150999992000091118004+49570+025590FM-12+032499999V0203401N002019999999N0100001N1+01571+01141101581ADDAA199000091GF107991031001999999031011KA1999M+01901MD1710061+9999REMSYN070AAXX  11181 33415 32997 73402 10157 20114 40158 57006 83031 333 10190;EQDQ01  00002PRCP99
0112334150999992000091121004+49570+025590FM-12+032499999V0203601N001019999999N0100001N1+01431+01111101541ADDGF106991031001999999031011MD1310021+9999REMSYN060AAXX  11211 33415 42997 63601 10143 20111 40154 53002 83031;
0133334150999992000091200004+49570+025590FM-12+032499999V0209999C000019999999N0100001N1+01211+00951101671ADDGF106991031001999999031011MA1999999097691MD1410001+9999REMSYN066AAXX  12001 33415 42997 60000 10121 20095 39769 40167 54000 83031;
0128334150999992000091203004+49570+025590FM-12+032499999V0209999C000019999999N0100001N1+01231+01021101441ADDGF107991031001999999031011MD1810131+9999REMSYN076AAXX  12031 33415 42997 70000 10123 20102 40144 58013 83031 555 20120 7000/;
0165334150999992000091206004+49570+025590FM-12+032499999V02099999999999999999N0100001N1+01391+01131101371ADDAA199000091GF107991041001999999031011KA1999N+01201MD1710041+9999REMSYN070AAXX  12061 33415 32997 75002 10139 20113 40137 57004 84031 333 20120;EQDQ01  00002PRCP99
0166334150999992000091209004+49570+025590FM-12+032499999V0202701N006010039019N0020001N1+01551+01311101361ADDAY181031AY221031GA1061+003909099GF107991051031004501031001MD1410001+9999MW1801REMSYN076AAXX  12091 33415 41495 72706 10155 20131 40136 54000 78082 85330 333 86913;
0187334150999992000091212004+49570+025590FM-12+032499999V0203201N006010360019N0100001N1+01621+01221101391ADDAY181061AY221061GA1041+005709099GF107991041031004501031001MA1999999097561MD1310041+9999MW1021REMSYN082AAXX  12121 33415 41497 73206 10162 20122 39756 40139 53004 70282 84330 333 84919;
0112334150999992000091215004+49570+025590FM-12+032499999V0203401N005019999999N0100001N1+01661+00991101391ADDGF105991001001999999001011MD1410001+9999REMSYN060AAXX  12151 33415 42997 53405 10166 20099 40139 54000 80001;
0152334150999992000091218004+49570+025590FM-12+032499999V0203201N004019999999N0100001N1+01421+00921101491ADDAA112002091GF106991031001999999031011KA1999M+01661MD1310081+9999REMSYN076AAXX  12181 33415 12997 63204 10142 20092 40149 53008 60022 83031 333 10166;
0112334150999992000091221004+49570+025590FM-12+032499999V0203201N002010120019N0100001N1+01201+00801101651ADDGF106991061051012501001001MD1210111+9999REMSYN060AAXX  12211 33415 42697 63202 10120 20080 40165 52011 86500;
0133334150999992000091300004+49570+025590FM-12+032499999V0209999C000012200019N0100001N1+00821+00591101711ADDGF106991021051012501001011MA1999999097751MD1410001+9999REMSYN066AAXX  13001 33415 42697 60000 10082 20059 39775 40171 54000 82501;
0128334150999992000091303004+49570+025590FM-12+032499999V0209999C000010360019N0100001N1+00641+00531101731ADDGF107991041051012501031011MD1810011+9999REMSYN076AAXX  13031 33415 42697 70000 10064 20053 40173 58001 84531 555 20064 7002/;
0199334150999992000091306004+49570+025590FM-12+032499999V0209999C000019999999N0100001N1+00781+00671101701ADDAA199000091GF106991001001999999001011IA1019IA2999+00509KA1120N+00601MD1410001+9999REMSYN086AAXX  13061 33415 32997 60000 10078 20067 40170 54000 80001 333 20060 555 30005 52004;EQDQ01  00002PRCP99
0112334150999992000091309004+49570+025590FM-12+032499999V0201401N003012200019N0100001N1+01781+01021101571ADDGF104991021011008001001011MD1310011+9999REMSYN060AAXX  13091 33415 42597 41403 10178 20102 40157 53001 82101;
0133334150999992000091312004+49570+025590FM-12+032499999V0201601N006019999999N0100001N1+02071+01041101421ADDGF106991001001999999001011MA1999999097651MD1810101+9999REMSYN066AAXX  13121 33415 42997 61606 10207 20104 39765 40142 58010 80001;
0112334150999992000091315004+49570+025590FM-12+032499999V0201601N005019999999N0100001N1+02081+01051101321ADDGF106991001001999999001011MD1710101+9999REMSYN060AAXX  13151 33415 42997 61605 10208 20105 40132 57010 80001;
0165334150999992000091318004+49570+025590FM-12+032499999V0201601N005019999999N0100001N1+01581+01101101321ADDAA199000091GF106991021001999999031011KA1999M+02131MD1710061+9999REMSYN070AAXX  13181 33415 32997 61605 10158 20110 40132 57006 82031 333 10213;EQDQ01  00002PRCP99
0112334150999992000091321004+49570+025590FM-12+032499999V0201801N003019999999N0100001N1+01281+01051101331ADDGF106991001001999999001011MD1710031+9999REMSYN060AAXX  13211 33415 42997 61803 10128 20105 40133 57003 80001;
0133334150999992000091400004+49570+025590FM-12+032499999V0201801N004019999999N0100001N1+00941+00771101281ADDGF106991031001999999031011MA1999999097361MD1710101+9999REMSYN066AAXX  14001 33415 42997 61804 10094 20077 39736 40128 57010 83031;
0128334150999992000091403004+49570+025590FM-12+032499999V0209999C000010360019N0100001N1+01231+01051101171ADDGF107991031051012501031001MD1710061+9999REMSYN076AAXX  14031 33415 42697 70000 10123 20105 40117 57006 83530 555 20094 7000/;
0165334150999992000091406004+49570+025590FM-12+032499999V0202201N005010360019N0100001N1+01421+01241101151ADDAA199000091GF107991021051012501031001KA1999N+00941MD1410001+9999REMSYN070AAXX  14061 33415 32697 72205 10142 20124 40115 54000 82530 333 20094;EQDQ01  00002PRCP99
0140334150999992000091409004+49570+025590FM-12+032499999V0202901N005010360019N0100001N1+01141+99999101141ADDAY181031AY221031GF107991041031012501031011MD1310061+9999MW1021REMSYN066AAXX  14091 33415 41697 72905 10114 20137 40114 53006 70282 84331;
0161334150999992000091412004+49570+025590FM-12+032499999V0202701N004010360019N0100001N1+02061+01191101141ADDAY181061AY221061GF107991041051012501031001MA1999999097371MD1210011+9999MW1021REMSYN072AAXX  14121 33415 41697 72704 10206 20119 39737 40114 52001 70282 84530;
0112334150999992000091415004+49570+025590FM-12+032499999V0202701N005010360019N0100001N1+02011+01091101161ADDGF106991031051012501031001MD1210021+9999REMSYN060AAXX  14151 33415 42697 62705 10201 20109 40116 52002 83530;
0152334150999992000091418004+49570+025590FM-12+032499999V0202701N002010360019N0100001N1+01531+01121101221ADDAA112000791GF107991031051012501031001KA1999M+02071MD1410001+9999REMSYN076AAXX  14181 33415 12697 72702 10153 20112 40122 54000 69902 83530 333 10207;
0112334150999992000091421004+49570+025590FM-12+032499999V0202701N003010360019N0100001N1+01341+01071101271ADDGF106991041051012501031001MD1310021+9999REMSYN060AAXX  14211 33415 42697 62703 10134 20107 40127 53002 84530;
0133334150999992000091500004+49570+025590FM-12+032499999V0202701N003010360019N0100001N1+01321+01091101271ADDGF106991031051012501031001MA1999999097431MD1210021+9999REMSYN066AAXX  15001 33415 42697 62703 10132 20109 39743 40127 52002 83530;
0128334150999992000091503004+49570+025590FM-12+032499999V0202701N006010360019N0100001N1+01311+01141101321ADDGF106991031051012501031001MD1210031+9999REMSYN076AAXX  15031 33415 42697 62706 10131 20114 40132 52003 83530 555 20130 7990/;
0187334150999992000091506004+49570+025590FM-12+032499999V0202901N008010360019N0100001N1+01281+01031101431ADDAA199000091GA1041+006009059GF107991041051008001031001KA1120N+01131MD1210091+9999REMSYN076AAXX  15061 33415 32597 72908 10128 20103 40143 52009 84530 333 20113 84620;EQDQ01  00002PRCP99
0166334150999992000091509004+49570+025590FM-12+032499999V0203201N008010030019N0100001N1+01141+01031101551ADDAY181031AY221031GA1061+003009099GF107991061031004501031001MD1210101+9999MW1801REMSYN076AAXX  15091 33415 41497 73208 10114 20103 40155 52010 78082 86330 333 86910;
0187334150999992000091512004+49570+025590FM-12+032499999V0203401N007010036019N0100001N1+01031+00761101791ADDAY181061AY221061GA1051+003609099GF107991051031004501031001MA1999999097871MD1210221+9999MW1021REMSYN082AAXX  15121 33415 41497 73407 10103 20076 39787 40179 52022 70282 85330 333 85912;
0112334150999992000091515004+49570+025590FM-12+032499999V0203401N004012200019N0100001N1+01321+00501101821ADDGF103991021051004501031001MD1210051+9999REMSYN060AAXX  15151 33415 42497 33404 10132 20050 40182 52005 82530;
0180334150999992000091518004+49570+025590FM-12+032499999V0203201N002010120019N0100001N1+00871+00651102021ADDAA112000591AY181061AY211061GF105991051031012501001001KA1999M+01321MD1210151+9999MW1021REMSYN082AAXX  15181 33415 11697 53202 10087 20065 40202 52015 69962 70281 85300 333 10132;
0122334150999992000091521004+49570+025590FM-12+032499999V0209999V001012200019N0100001N1+00701+00501102181ADDGA1001+999999999GF100991001001999999001001MD1210121+9999REMSYN054AAXX  15211 33415 42997 09901 10070 20050 40218 52012;
0143334150999992000091600004+49570+025590FM-12+032499999V0209999C000012200019N0100001N1+00411+00231102201ADDGA1001+999999999GF100991001001999999001001MA1999999098171MD1810021+9999REMSYN060AAXX  16001 33415 42997 00000 10041 20023 39817 40220 58002;
0166334150999992000091603004+49570+025590FM-12+032499999V0209999C000012200019N0010001N1+00211+00181102201ADDAY101031AY201031GA1001+999999999GF100991001001999999001001MD1710031+9999MW1101REMSYN076AAXX  16031 33415 41994 00000 10021 20018 40220 57003 71000 555 20019 7996/;
0199334150999992000091606004+49570+025590FM-12+032499999V0209999C000012200019N0100001N1+00321+00221102201ADDAA199000091GF103991001001999999001011IA1019IA2999-00109KA1120N+00041MD1310011+9999REMSYN086AAXX  16061 33415 32997 30000 10032 20022 40220 53001 80001 333 20004 555 30101 52102;EQDQ01  00002PRCP99
0112334150999992000091609004+49570+025590FM-12+032499999V0201101N004012200019N0100001N1+01261+00531102011ADDGF106991021011012501001011MD1810051+9999REMSYN060AAXX  16091 33415 42697 61104 10126 20053 40201 58005 82101;
0133334150999992000091612004+49570+025590FM-12+032499999V0200901N005012200019N0100001N1+01451+00341101791ADDGF106991031011012501001011MA1999999097921MD1710181+9999REMSYN066AAXX  16121 33415 42697 60905 10145 20034 39792 40179 57018 83101;
0112334150999992000091615004+49570+025590FM-12+032499999V0201401N004010360019N0100001N1+01391+00291101661ADDGF107991031051012501031001MD1710141+9999REMSYN060AAXX  16151 33415 42697 71404 10139 20029 40166 57014 83530;
0165334150999992000091618004+49570+025590FM-12+032499999V0201101N003010360019N0100001N1+01071+00551101631ADDAA199000091GF105991021051012501031001KA1999M+01461MD1710071+9999REMSYN070AAXX  16181 33415 32697 51103 10107 20055 40163 57007 82530 333 10146;EQDQ01  00002PRCP99
0138334150999992000091621004+49570+025590FM-12+032499999V0200901N003010072019N0100001N1+01071+00761101591ADDGA1061+007209059GF107991051051008001031001MD1710031+9999REMSYN070AAXX  16211 33415 42597 70903 10107 20076 40159 57003 85530 333 86624;
0159334150999992000091700004+49570+025590FM-12+032499999V0200901N005010051019N0100001N1+01001+00801101441ADDGA1051+005109059GF107991051051004501031001MA1999999097521MD1710161+9999REMSYN076AAXX  17001 33415 42497 70905 10100 20080 39752 40144 57016 85530 333 85617;
0154334150999992000091703004+49570+025590FM-12+032499999V0200901N007010360019N0100001N1+00991+00761101281ADDGA1041+006609069GF107991041051008001031001MD1710161+9999REMSYN086AAXX  17031 33415 42597 70907 10099 20076 40128 57016 84530 333 84622 555 20097 7000/;
0187334150999992000091706004+49570+025590FM-12+032499999V0200901N006010039019N0100001N1+01001+00461101161ADDAA199000091GA1061+003909099GF107991061031004501031001KA1120N+00971MD1710111+9999REMSYN076AAXX  17061 33415 32497 70906 10100 20046 40116 57011 86330 333 20097 86913;EQDQ01  00002PRCP99
0166334150999992000091709004+49570+025590FM-12+032499999V0200701N007010030019N0040001N1+00911+00821101141ADDAY181031AY221031GA1061+003009069GF108991061031004501999999MD1710031+9999MW1801REMSYN076AAXX  17091 33415 41496 80707 10091 20082 40114 57003 78082 863// 333 86710;
0187334150999992000091712004+49570+025590FM-12+032499999V0200701N008010021019N0040001N1+00931+00851100951ADDAY181061AY221061GA1061+002109069GF108991081091002501999999MA1999999097051MD1710171+9999MW1801REMSYN082AAXX  17121 33415 41396 80708 10093 20085 39705 40095 57017 78082 889// 333 86707;
0166334150999992000091715004+49570+025590FM-12+032499999V0200901N005010021019N0040001N1+00981+00901100811ADDAY181031AY281031GA1061+002109069GF108991081031004501999999MD1710141+9999MW1801REMSYN076AAXX  17151 33415 41496 80905 10098 20090 40081 57014 78088 883// 333 86707;
0202334150999992000091718004+49570+025590FM-12+032499999V0209999C000010021019N0040001N1+01031+00971100841ADDAA112014091AY181061AY221061GA1061+002109069GF108991081031002501999999KA1120M+01031MD1310041+9999MW1101REMSYN088AAXX  17181 33415 11396 80000 10103 20097 40084 53004 60142 71082 883// 333 10103 86707;
0140334150999992000091721004+49570+025590FM-12+032499999V0209999C000010120019N0100001N1+01011+00931100911ADDAY121031AY221031GF107991071051012501001001MD1210071+9999MW1101REMSYN066AAXX  17211 33415 41697 70000 10101 20093 40091 52007 71022 87500;
0187334150999992000091800004+49570+025590FM-12+032499999V0209999C000010030019N0040001N1+00991+00931100961ADDAY181061AY221061GA1061+003009069GF108991081031004501999999MA1999999097061MD1210041+9999MW1801REMSYN082AAXX  18001 33415 41496 80000 10099 20093 39706 40096 52004 78082 883// 333 86710;
0182334150999992000091803004+49570+025590FM-12+032499999V0200901N002010033019N0020001N1+01021+00951100921ADDAY181031AY281031GA1061+003309099GF107991061031004501031001MD1810031+9999MW1801REMSYN092AAXX  18031 33415 41495 70902 10102 20095 40092 58003 78088 86330 333 86911 555 20099 7017/;
0202334150999992000091806004+49570+025590FM-12+032499999V0200901N002010030019N0040001N1+01091+01031100881ADDAA112002091AY181061AY221061GA1061+003009099GF107991061031004501031001KA1120N+00991MD1710021+9999MW1101REMSYN088AAXX  18061 33415 11496 70902 10109 20103 40088 57002 60022 71082 86330 333 20099 86910;
0187334150999992000091812004+49570+025590FM-12+032499999V0202701N006010051019N0100001N1+01221+00941101021ADDAY181061AY221061GA1051+005109099GF107991051031008001031001MA1999999097151MD1310141+9999MW1021REMSYN082AAXX  18121 33415 41597 72706 10122 20094 39715 40102 53014 70282 85330 333 85917;
0166334150999992000091815004+49570+025590FM-12+032499999V0202701N004010360019N0100001N1+00941+00681101161ADDAY181031AY221031GA1041+003909099GF107991041031004501031001MD1210101+9999MW1801REMSYN076AAXX  18151 33415 41497 72704 10094 20068 40116 52010 78082 84330 333 84913;
0180334150999992000091818004+49570+025590FM-12+032499999V0202701N002010360019N0100001N1+00731+00531101331ADDAA112004191AY181061AY221061GF107991021031008001031001KA1999M+01321MD1210121+9999MW1021REMSYN082AAXX  18181 33415 11597 72702 10073 20053 40133 52012 60042 70282 82330 333 10132;
0112334150999992000091821004+49570+025590FM-12+032499999V0209999C000010360019N0100001N1+00641+00481101371ADDGF107991021051012501031001MD1210031+9999REMSYN060AAXX  18211 33415 42697 70000 10064 20048 40137 52003 82530;
0133334150999992000091900004+49570+025590FM-12+032499999V0209999C000010360019N0100001N1+00741+00611101371ADDGF107991021051012501031001MA1999999097411MD1210011+9999REMSYN066AAXX  19001 33415 42697 70000 10074 20061 39741 40137 52001 82530;
0182334150999992000091903004+49570+025590FM-12+032499999V0209999C000010057019N0100001N1+00701+00511101381ADDAY181031AY221031GA1051+005709099GF107991051031008001031001MD1210011+9999MW1021REMSYN092AAXX  19031 33415 41597 70000 10070 20051 40138 52001 70282 85330 333 85919 555 20064 7004/;
0180334150999992000091906004+49570+025590FM-12+032499999V0202501N002010360019N0100001N1+00731+00481101471ADDAA112000391AY181061AY221061GF107991021031012501031001KA1999N+00641MD1210081+9999MW1021REMSYN082AAXX  19061 33415 11697 72502 10073 20048 40147 52008 69932 70282 82330 333 20064;
0112334150999992000091909004+49570+025590FM-12+032499999V0202501N003010360019N0100001N1+01011+00401101421ADDGF106991031011012501031001MD1410001+9999REMSYN060AAXX  19091 33415 42697 62503 10101 20040 40142 54000 83130;
0133334150999992000091912004+49570+025590FM-12+032499999V0202301N003010360019N0100001N1+01181+00321101401ADDGF107991041051012501031001MA1999999097501MD1410001+9999REMSYN066AAXX  19121 33415 42697 72303 10118 20032 39750 40140 54000 84530;
0112334150999992000091915004+49570+025590FM-12+032499999V0203401N002010360019N0100001N1+01131+00581101421ADDGF106991031051012501031001MD1310011+9999REMSYN060AAXX  19151 33415 42697 63402 10113 20058 40142 53001 83530;
0165334150999992000091918004+49570+025590FM-12+032499999V0203601N002010360019N0100001N1+00961+00681101431ADDAA199000091GF106991021051012501031001KA1999M+01201MD1410001+9999REMSYN070AAXX  19181 33415 32697 63602 10096 20068 40143 54000 82530 333 10120;EQDQ01  00002PRCP99
0140334150999992000091921004+49570+025590FM-12+032499999V0203601N001010360019N0100001N1+00851+00741101511ADDAY121031AY221031GF106991021051012501031001MD1310061+9999MW1101REMSYN066AAXX  19211 33415 41697 63601 10085 20074 40151 53006 71022 82530;
0161334150999992000092000004+49570+025590FM-12+032499999V0203601N001010360019N0040001N1+00831+00731101511ADDAY121061AY221061GF107991021051012501031001MA1999999097571MD1410001+9999MW1101REMSYN072AAXX  20001 33415 41696 73601 10083 20073 39757 40151 54000 71022 82530;
0128334150999992000092003004+49570+025590FM-12+032499999V0209999C000010360019N0100001N1+00781+00701101481ADDGF107991021051012501031001MD1810041+9999REMSYN076AAXX  20031 33415 42697 70000 10078 20070 40148 58004 82530 555 20077 7000/;
0180334150999992000092006004+49570+025590FM-12+032499999V0200201N002010360019N0100001N1+00821+00701101471ADDAA112000791AY181061AY221061GF107991041031012501031001KA1999N+00771MD1710011+9999MW1021REMSYN082AAXX  20061 33415 11697 70202 10082 20070 40147 57001 69902 70282 84330 333 20077;
0166334150999992000092009004+49570+025590FM-12+032499999V0209999V002010051019N0100001N1+00921+00811101471ADDAY181031AY221031GA1051+005109099GF107991051031004501031001MD1310031+9999MW1801REMSYN076AAXX  20091 33415 41497 79902 10092 20081 40147 53003 78082 85330 333 85917;
0161334150999992000092012004+49570+025590FM-12+032499999V0200501N005010120019N0100001N1+01001+00591101441ADDAY181061AY221061GF107991061031012501031001MA1999999097521MD1810031+9999MW1021REMSYN072AAXX  20121 33415 41697 70505 10100 20059 39752 40144 58003 70282 86330;
0140334150999992000092015004+49570+025590FM-12+032499999V0200201N003010120019N0100001N1+01021+00701101481ADDAY181031AY221031GF107991051031012501031001MD1310041+9999MW1021REMSYN066AAXX  20151 33415 41697 70203 10102 20070 40148 53004 70282 85330;
0180334150999992000092018004+49570+025590FM-12+032499999V0209999V002010120019N0100001N1+00961+00731101521ADDAA112002091AY181061AY221061GF107991051051012501031001KA1999M+01021MD1210041+9999MW1021REMSYN082AAXX  20181 33415 11697 79902 10096 20073 40152 52004 60022 70282 85530 333 10102;
0112334150999992000092021004+49570+025590FM-12+032499999V0209999V002010360019N0100001N1+00951+00781101551ADDGF108991041051012501031999MD1210031+9999REMSYN060AAXX  20211 33415 42697 89902 10095 20078 40155 52003 8453/;
0133334150999992000092100004+49570+025590FM-12+032499999V0203401N004010360019N0100001N1+00901+00761101591ADDGF108991031051012501031999MA1999999097651MD1210021+9999REMSYN066AAXX  21001 33415 42697 83404 10090 20076 39765 40159 52002 8353/;
0128334150999992000092103004+49570+025590FM-12+032499999V0203401N002012200019N0100001N1+00561+99999101651ADDGF103991031001999999031001MD1210021+9999REMSYN076AAXX  21031 33415 42997 33402 10056 20064 40165 52002 83030 555 20056 7002/;
0249334150999992000092106004+49570+025590FM-12+032499999V0202901N004010015019N0040001N1+00831+00591101701ADDAA199000091AY111061AY211061GA1061+001509079GF106991061061001501001001IA1099IA2999+00409KA1120N+00511MD1210071+9999MW1101REMSYN098AAXX  21061 33415 31296 62904 10083 20059 40170 52007 71011 86600 333 20051 86705 555 31004 52002;EQDQ01  00002PRCP99
0138334150999992000092109004+49570+025590FM-12+032499999V0203401N005010054019N0100001N1+01001+00501101781ADDGA1061+005409059GF106991061051008001001001MD1210111+9999REMSYN070AAXX  21091 33415 42597 63405 10100 20050 40178 52011 86500 333 86618;
0159334150999992000092112004+49570+025590FM-12+032499999V0203601N004010063019N0100001N1+01281+00501101681ADDGA1061+006309059GF106991061051008001001001MA1999999097791MD1810061+9999REMSYN076AAXX  21121 33415 42597 63604 10128 20050 39779 40168 58006 86500 333 86621;
0138334150999992000092115004+49570+025590FM-12+032499999V0203601N002010063019N0100001N1+01261+00581101781ADDGA1071+006309059GF107991071051008001001001MD1310101+9999REMSYN070AAXX  21151 33415 42597 73602 10126 20058 40178 53010 87500 333 87621;
0165334150999992000092118004+49570+025590FM-12+032499999V0200201N003010120019N0100001N1+01121+00811101891ADDAA199000091GF107991071051012501001001KA1999M+01291MD1210091+9999REMSYN070AAXX  21181 33415 32697 70203 10112 20081 40189 52009 87500 333 10129;EQDQ01  00002PRCP99
0097334150999992000092121004+49570+025590FM-12+032499999V0209999C000019999999N0100001N1+99999+99999999999ADDGF107991999999012501999999REMSYN059AAXX  21211 33415 42697 70000 1104 20080 40191 54000 87500;
0133334150999992000092200004+49570+025590FM-12+032499999V0209999V001010120019N0100001N1+00971+00781102061ADDGF107991071051012501001001MA1999999098111MD1310131+9999REMSYN066AAXX  22001 33415 42697 79901 10097 20078 39811 40206 53013 87500;
0147334150999992000092203004+49570+025590FM-12+032499999V0200501N004010120019N0100001N1+00971+00811102081ADDGF107991999051012501001001MD1210021+9999REMSYN076AAXX  22031 33415 42697 70504 10097 20081 40208 52002 86500 555 20096 7000/;EQDQ01+000062SCOTLC
0187334150999992000092206004+49570+025590FM-12+032499999V0200701N004010042019N0100001N1+00991+00821102181ADDAA199000091GA1071+004209059GF107991071051004501001001KA1120N+00961MD1210101+9999REMSYN076AAXX  22061 33415 32497 70704 10099 20082 40218 52010 87500 333 20096 87614;EQDQ01  00002PRCP99
0138334150999992000092209004+49570+025590FM-12+032499999V0200701N005010063019N0100001N1+01171+00781102271ADDGA1061+006309059GF107991061051008001031001MD1210111+9999REMSYN070AAXX  22091 33415 41597 70705 10117 20078 40227 52011 86530 333 86621;
0159334150999992000092212004+49570+025590FM-12+032499999V0200701N00501007501CN0100001N1+01121+00771102311ADDGA1031+006909099GF107991061051008001031001MA1999999098381MD1210041+9999REMSYN076AAXX  22121 33415 42597 70705 10112 20077 39838 40231 52004 86530 333 83923;
0112334150999992000092215004+49570+025590FM-12+032499999V0200501N004010360019N0100001N1+01091+00781102361ADDGF107991031031012501031001MD1210041+9999REMSYN060AAXX  22151 33415 42697 70504 10109 20078 40236 52004 83330;
0187334150999992000092218004+49570+025590FM-12+032499999V0200501N007010078019N0100001N1+00991+00671102521ADDAA199000091GA1051+007809099GF107991051031008001031001KA1120M+01211MD1210141+9999REMSYN076AAXX  22181 33415 32597 70507 10099 20067 40252 52014 85330 333 10121 85926;EQDQ01  00002PRCP99
0112334150999992000092221004+49570+025590FM-12+032499999V0200701N005019999999N0100001N1+00771+00501102641ADDGF107991051001999999031011MD1210091+9999REMSYN060AAXX  22211 33415 42997 70705 10077 20050 40264 52009 85031;
0133334150999992000092300004+49570+025590FM-12+032499999V0209999C000019999999N0100001N1+00581+00341102711ADDGF105991051001999999031001MA1999999098691MD1210041+9999REMSYN066AAXX  23001 33415 42997 50000 10058 20034 39869 40271 52004 85030;
0128334150999992000092303004+49570+025590FM-12+032499999V0209999C000010360019N0100001N1+00551+00331102741ADDGF107991021031012501031001MD1210011+9999REMSYN076AAXX  23031 33415 42697 70000 10055 20033 40274 52001 82330 555 20046 7000/;
0199334150999992000092306004+49570+025590FM-12+032499999V0203601N003010360019N0100001N1+00681+00521102841ADDAA199000091GF107991031051012501031001IA1099IA2999+00309KA1120N+00461MD1210121+9999REMSYN086AAXX  23061 33415 32697 73603 10068 20052 40284 52012 83530 333 20046 555 31003 52002;EQDQ01  00002PRCP99
0138334150999992000092309004+49570+025590FM-12+032499999V0200701N006010084019N0100001N1+01171+00341102871ADDGA1071+008409029GF107991071011008001001001MD1210101+9999REMSYN070AAXX  23091 33415 42597 70706 10117 20034 40287 52010 87100 333 87828;
0133334150999992000092312004+49570+025590FM-12+032499999V0200501N004010120019N0100001N1+01041+00211102921ADDGF107991051051012501031001MA1999999098941MD1210021+9999REMSYN066AAXX  23121 33415 42697 70504 10104 20021 39894 40292 52002 85530;
0112334150999992000092315004+49570+025590FM-12+032499999V0200501N004010120019N0100001N1+01011+00321102921ADDGF107991061051012501031001MD1410001+9999REMSYN060AAXX  23151 33415 42697 70504 10101 20032 40292 54000 86530;
0165334150999992000092318004+49570+025590FM-12+032499999V0200201N002010360019N0100001N1+00861+00401102941ADDAA199000091GF107991041051012501031001KA1999M+01181MD1310011+9999REMSYN070AAXX  23181 33415 32697 70202 10086 20040 40294 53001 84530 333 10118;EQDQ01  00002PRCP99
0106334150999992000092321004+49570+025590FM-12+032499999V0200201N001012200019N0100001N1+00431+00181103081ADDGF102991999999999999999999MD1210061+9999REMSYN054AAXX  23211 33415 42997 20201 10043 20018 40308 52006;
0143334150999992000092400004+49570+025590FM-12+032499999V0200201N002012200019N0100001N1+00231+00011103121ADDGA1001+999999999GF100991001001999999001001MA1999999099021MD1210011+9999REMSYN060AAXX  24001 33415 42997 00202 10023 20001 39902 40312 52001;
0138334150999992000092403004+49570+025590FM-12+032499999V0200201N002012200019N0100001N1+00111-00091103091ADDGA1001+999999999GF100991001001999999001001MD1810041+9999REMSYN070AAXX  24031 33415 42997 00202 10011 21009 40309 58004 555 20010 7000/;
0209334150999992000092406004+49570+025590FM-12+032499999V0203401N002012200019N0100001N1+00141-00031103111ADDAA199000091GA1001+999999999GF100991001001999999001001IA1099IA2999-00109KA1120N-00031MD1310021+9999REMSYN080AAXX  24061 33415 32997 03402 10014 21003 40311 53002 333 21003 555 31101 52102;EQDQ01  00002PRCP99
0112334150999992000092409004+49570+025590FM-12+032499999V0200901N005012200019N0100001N1+00941+00111103001ADDGF102991001001999999001011MD1210011+9999REMSYN060AAXX  24091 33415 42997 20905 10094 20011 40300 52001 80001;
0143334150999992000092412004+49570+025590FM-12+032499999V0200701N006012200019N0100001N1+01201+00041102911ADDGA1001+999999999GF100991001001999999001001MA1999999098961MD1810051+9999REMSYN060AAXX  24121 33415 42997 00706 10120 20004 39896 40291 58005;
0122334150999992000092415004+49570+025590FM-12+032499999V0200901N005012200019N0100001N1+01181+00171102831ADDGA1001+999999999GF100991001001999999001001MD1710071+9999REMSYN054AAXX  24151 33415 42997 00905 10118 20017 40283 57007;
0175334150999992000092418004+49570+025590FM-12+032499999V0200701N001012200019N0100001N1+00661+00191102921ADDAA199000091GA1001+999999999GF100991001001999999001001KA1999M+01241MD1410001+9999REMSYN064AAXX  24181 33415 32997 00701 10066 20019 40292 54000 333 10124;EQDQ01  00002PRCP99
0122334150999992000092421004+49570+025590FM-12+032499999V0209999C000012200019N0100001N1+00301+00031102961ADDGA1001+999999999GF100991001001999999001001MD1410001+9999REMSYN054AAXX  24211 33415 42997 00000 10030 20003 40296 54000;
0143334150999992000092500004+49570+025590FM-12+032499999V0209999C000012200019N0100001N1+00161+00001102991ADDGA1001+999999999GF100991001001999999001001MA1999999098891MD1410001+9999REMSYN060AAXX  25001 33415 42997 00000 10016 21000 39889 40299 54000;
0138334150999992000092503004+49570+025590FM-12+032499999V0203401N002012200019N0100001N1+00081-00031102901ADDGA1001+999999999GF100991001001999999001001MD1810091+9999REMSYN070AAXX  25031 33415 42997 03402 10008 21003 40290 58009 555 20008 7000/;
0199334150999992000092506004+49570+025590FM-12+032499999V0203401N003012200019N0100001N1+00201+00041102891ADDAA199000091GF102991001001999999001011IA1099IA2999-00209KA1120N+00041MD1410001+9999REMSYN086AAXX  25061 33415 32997 23403 10020 20004 40289 54000 80001 333 20004 555 31102 52103;EQDQ01  00002PRCP99
0112334150999992000092509004+49570+025590FM-12+032499999V0200701N005012200019N0100001N1+01101+00251102791ADDGF103991021011008001001011MD1310031+9999REMSYN060AAXX  25091 33415 42597 30705 10110 20025 40279 53003 82101;
0133334150999992000092512004+49570+025590FM-12+032499999V0200501N003012200019N0100001N1+01161+00151102771ADDGF106991041021012501001011MA1999999098811MD1810021+9999REMSYN066AAXX  25121 33415 42697 60503 10116 20015 39881 40277 58002 84201;
0112334150999992000092515004+49570+025590FM-12+032499999V0200501N003012200019N0100001N1+01161+00211102691ADDGF104991041021012501001001MD1710081+9999REMSYN060AAXX  25151 33415 42697 40503 10116 20021 40269 57008 84200;
0165334150999992000092518004+49570+025590FM-12+032499999V0209999C000012200019N0100001N1+00601+00211102731ADDAA199000091GF103991031051012501001001KA1999M+01311MD1710031+9999REMSYN070AAXX  25181 33415 32697 30000 10060 20021 40273 57003 83500 333 10131;EQDQ01  00002PRCP99
0112334150999992000092521004+49570+025590FM-12+032499999V0203401N001010360019N0100001N1+00651+00421102791ADDGF107991021051012501031011MD1310061+9999REMSYN060AAXX  25211 33415 42697 73401 10065 20042 40279 53006 82531;
0133334150999992000092600004+49570+025590FM-12+032499999V0200501N002019999999N0100001N1+00601+00411102761ADDGF107991071001999999031001MA1999999098731MD1810031+9999REMSYN066AAXX  26001 33415 42997 70502 10060 20041 39873 40276 58003 87030;
0128334150999992000092603004+49570+025590FM-12+032499999V0203401N001019999999N0100001N1+00541+00321102771ADDGF106991061001999999031001MD1410001+9999REMSYN076AAXX  26031 33415 42997 63401 10054 20032 40277 54000 86030 555 20051 7000/;
0199334150999992000092606004+49570+025590FM-12+032499999V0203401N002019999999N0100001N1+00621+00361102781ADDAA199000091GF107991071001999999031001IA1019IA2999+00209KA1120N+00341MD1310021+9999REMSYN086AAXX  26061 33415 32997 73402 10062 20036 40278 53002 87030 333 20034 555 30002 52001;EQDQ01  00002PRCP99
0112334150999992000092609004+49570+025590FM-12+032499999V0203601N004019999999N0100001N1+01051+00341102761ADDGF107991071001999999031001MD1210051+9999REMSYN060AAXX  26091 33415 42997 73604 10105 20034 40276 52005 87030;
0133334150999992000092612004+49570+025590FM-12+032499999V0200201N003010120019N0100001N1+01311+00041102691ADDGF106991061011012501001001MA1999999098761MD1810041+9999REMSYN066AAXX  26121 33415 42697 60203 10131 20004 39876 40269 58004 86100;
0112334150999992000092615004+49570+025590FM-12+032499999V0203401N003010120019N0100001N1+01231+00211102641ADDGF107991071051012501001001MD1710061+9999REMSYN060AAXX  26151 33415 42697 73403 10123 20021 40264 57006 87500;
0165334150999992000092618004+49570+025590FM-12+032499999V0203401N002010120019N0100001N1+00971+00621102651ADDAA199000091GF108991081051012501999999KA1999M+01311MD1710011+9999REMSYN070AAXX  26181 33415 32697 83402 10097 20062 40265 57001 885// 333 10131;EQDQ01  00002PRCP99
0112334150999992000092621004+49570+025590FM-12+032499999V0209999C000010120019N0100001N1+00881+00641102731ADDGF108991081051012501999999MD1310051+9999REMSYN060AAXX  26211 33415 42697 80000 10088 20064 40273 53005 885//;
0133334150999992000092700004+49570+025590FM-12+032499999V0209999C000010120019N0100001N1+00791+00551102751ADDGF108991081051012501999999MA1999999098751MD1210011+9999REMSYN066AAXX  27001 33415 42697 80000 10079 20055 39875 40275 52001 885//;
0138334150999992000092703004+49570+025590FM-12+032499999V0209999C000012200019N0100001N1+00391+00111102741ADDGA1001+999999999GF100991001001999999001001MD1810061+9999REMSYN070AAXX  27031 33415 42997 00000 10039 20011 40274 58006 555 20038 7000/;
0209334150999992000092706004+49570+025590FM-12+032499999V0209999C000012200019N0100001N1+00421+00271102741ADDAA199000091GA1001+999999999GF100991001001999999001001IA1019IA2999+00109KA1120N+00321MD1410001+9999REMSYN080AAXX  27061 33415 32997 00000 10042 20027 40274 54000 333 20032 555 30001 52100;EQDQ01  00002PRCP99
0112334150999992000092709004+49570+025590FM-12+032499999V0209999V002012200019N0100001N1+01211+00091102691ADDGF103991031001999999031001MD1310061+9999REMSYN060AAXX  27091 33415 42997 39902 10121 20009 40269 53006 83030;
0133334150999992000092712004+49570+025590FM-12+032499999V0200901N003012200019N0100001N1+01381+00191102571ADDGF103991021001999999031011MA1999999098661MD1810091+9999REMSYN066AAXX  27121 33415 42997 30903 10138 20019 39866 40257 58009 82031;
0112334150999992000092715004+49570+025590FM-12+032499999V0201401N004012200019N0100001N1+01381+00251102431ADDGF102991001001999999001011MD1710141+9999REMSYN060AAXX  27151 33415 42997 21404 10138 20025 40243 57014 80001;
0165334150999992000092718004+49570+025590FM-12+032499999V0201401N004012200019N0100001N1+00891+00361102481ADDAA199000091GF102991001001999999001011KA1999M+01421MD1710021+9999REMSYN070AAXX  27181 33415 32997 21404 10089 20036 40248 57002 80001 333 10142;EQDQ01  00002PRCP99
0122334150999992000092721004+49570+025590FM-12+032499999V0201101N002012200019N0100001N1+00611+00301102491ADDGA1001+999999999GF100991001001999999001001MD1710021+9999REMSYN054AAXX  27211 33415 42997 01102 10061 20030 40249 57002;
0143334150999992000092800004+49570+025590FM-12+032499999V0209999C000012200019N0100001N1+00401+00201102491ADDGA1001+999999999GF100991001001999999001001MA1999999098451MD1710031+9999REMSYN060AAXX  28001 33415 42997 00000 10040 20020 39845 40249 57003;
0128334150999992000092803004+49570+025590FM-12+032499999V0209999C000012200019N0100001N1+00221+00091102431ADDGF103991001001999999001011MD1710091+9999REMSYN076AAXX  28031 33415 42997 30000 10022 20009 40243 57009 80001 555 20021 7000/;
0209334150999992000092806004+49570+025590FM-12+032499999V0209999C000012200019N0100001N1+00491+00241102471ADDAA199000091GA1001+999999999GF100991001001999999001001IA1019IA2999+00009KA1120N+00151MD1710021+9999REMSYN080AAXX  28061 33415 32997 00000 10049 20024 40247 57002 333 20015 555 30000 52102;EQDQ01  00002PRCP99
0122334150999992000092809004+49570+025590FM-12+032499999V0201401N006012200019N0100001N1+01281+00291102231ADDGA1001+999999999GF100991001001999999001001MD1710021+9999REMSYN054AAXX  28091 33415 42997 01406 10128 20029 40223 57002;
0133334150999992000092812004+49570+025590FM-12+032499999V0201101N005012200019N0100001N1+01581+00301102091ADDGF101991001001999999001011MA1999999098231MD1710091+9999REMSYN066AAXX  28121 33415 42997 11105 10158 20030 39823 40209 57009 80001;
0112334150999992000092815004+49570+025590FM-12+032499999V0201401N004012200019N0100001N1+01571+00291101981ADDGF101991001001999999001011MD1710111+9999REMSYN060AAXX  28151 33415 42997 11404 10157 20029 40198 57011 80001;
0175334150999992000092818004+49570+025590FM-12+032499999V0201101N001012200019N0100001N1+00961+00411102081ADDAA199000091GA1001+999999999GF100991001001999999001001KA1999M+01621MD1310011+9999REMSYN064AAXX  28181 33415 32997 01101 10096 20041 40208 53001 333 10162;EQDQ01  00002PRCP99
0122334150999992000092821004+49570+025590FM-12+032499999V0201101N003012200019N0100001N1+00681+00381102131ADDGA1001+999999999GF100991001001999999001001MD1210011+9999REMSYN054AAXX  28211 33415 42997 01103 10068 20038 40213 52001;
0143334150999992000092900004+49570+025590FM-12+032499999V0201401N001012200019N0100001N1+00571+00381102101ADDGA1001+999999999GF100991001001999999001001MA1999999098101MD1810041+9999REMSYN060AAXX  29001 33415 42997 01401 10057 20038 39810 40210 58004;
0138334150999992000092903004+49570+025590FM-12+032499999V0201101N003012200019N0100001N1+00461+00311102051ADDGA1001+999999999GF100991001001999999001001MD1710061+9999REMSYN070AAXX  29031 33415 42997 01103 10046 20031 40205 57006 555 20045 7000/;
0209334150999992000092906004+49570+025590FM-12+032499999V0201101N004012200019N0100001N1+00751+00501102051ADDAA199000091GA1001+999999999GF100991001001999999001001IA1019IA2999+00109KA1120N+00441MD1310041+9999REMSYN080AAXX  29061 33415 32997 01104 10075 20050 40205 53004 333 20044 555 30001 52001;EQDQ01  00002PRCP99
0122334150999992000092909004+49570+025590FM-12+032499999V0201401N007012200019N0100001N1+01431+00621101961ADDGA1001+999999999GF100991001001999999001001MD1210011+9999REMSYN054AAXX  29091 33415 42997 01407 10143 20062 40196 52001;
0143334150999992000092912004+49570+025590FM-12+032499999V0201401N008012200019N0100001N1+01611+00561101931ADDGA1001+999999999GF100991001001999999001001MA1999999098071MD1810021+9999REMSYN060AAXX  29121 33415 42997 01408 10161 20056 39807 40193 58002;
0112334150999992000092915004+49570+025590FM-12+032499999V0201101N005012200019N0100001N1+01521+00531101871ADDGF102991001001999999001011MD1710041+9999REMSYN060AAXX  29151 33415 42997 21105 10152 20053 40187 57004 80001;
0165334150999992000092918004+49570+025590FM-12+032499999V0200901N004012200019N0100001N1+00981+00361101971ADDAA199000091GF102991001001999999001011KA1999M+01671MD1410001+9999REMSYN070AAXX  29181 33415 32997 20904 10098 20036 40197 54000 80001 333 10167;EQDQ01  00002PRCP99
0122334150999992000092921004+49570+025590FM-12+032499999V0200901N003012200019N0100001N1+00811+00411102001ADDGA1001+999999999GF100991001001999999001001MD1410001+9999REMSYN054AAXX  29211 33415 42997 00903 10081 20041 40200 54000;
0143334150999992000093000004+49570+025590FM-12+032499999V0200901N004012200019N0100001N1+00781+00481102041ADDGA1001+999999999GF100991001001999999001001MA1999999098071MD1310041+9999REMSYN060AAXX  30001 33415 42997 00904 10078 20048 39807 40204 53004;
0128334150999992000093003004+49570+025590FM-12+032499999V0201101N005012200019N0100001N1+00831+00591102051ADDGF103991001001999999001011MD1210011+9999REMSYN076AAXX  30031 33415 42997 31105 10083 20059 40205 52001 80001 555 20077 7000/;
0187334150999992000093006004+49570+025590FM-12+032499999V0201101N007010360019N0100001N1+00861+00501102071ADDAA199000091GA1031+007509059GF107991031051008001031001KA1120N+00771MD1210031+9999REMSYN076AAXX  30061 33415 32597 71107 10086 20050 40207 52003 83530 333 20077 83625;EQDQ01  00002PRCP99
0112334150999992000093009004+49570+025590FM-12+032499999V0201401N008010360019N0100001N1+01301+00701102091ADDGF107991031051012501031001MD1210071+9999REMSYN060AAXX  30091 33415 42697 71408 10130 20070 40209 52007 83530;
0133334150999992000093012004+49570+025590FM-12+032499999V0201401N008019999999N0100001N1+01701+00671102071ADDGF105991021001999999031011MA1999999098221MD1210041+9999REMSYN066AAXX  30121 33415 42997 51408 10170 20067 39822 40207 52004 82031;
0112334150999992000093015004+49570+025590FM-12+032499999V0201401N006019999999N0100001N1+01661+00361102091ADDGF105991021001999999031011MD1210021+9999REMSYN060AAXX  30151 33415 42997 51406 10166 20036 40209 52002 82031;
0175334150999992000093018004+49570+025590FM-12+032499999V0201101N008012200019N0100001N1+01261+00501102201ADDAA199000091GA1001+999999999GF100991001001999999001001KA1999M+01741MD1210051+9999REMSYN064AAXX  30181 33415 32997 01108 10126 20050 40220 52005 333 10174;EQDQ01  00002PRCP99
0122334150999992000093021004+49570+025590FM-12+032499999V0201101N006012200019N0100001N1+01061+00611102291ADDGA1001+999999999GF100991001001999999001001MD1210061+9999REMSYN054AAXX  30211 33415 42997 01106 10106 20061 40229 52006;
0143334150999992000100100004+49570+025590FM-12+032499999V0201101N008012200019N0100001N1+01001+00651102351ADDGA1001+999999999GF100991001001999999001001MA1999999098391MD1210041+9999REMSYN060AAXX  01001 33415 42997 01108 10100 20065 39839 40235 52004;
0138334150999992000100103004+49570+025590FM-12+032499999V0201101N009012200019N0100001N1+00961+00731102361ADDGA1001+999999999GF100991001001999999001001MD1210011+9999REMSYN070AAXX  01031 33415 42997 01109 10096 20073 40236 52001 555 20096 7000/;
0165334150999992000100106004+49570+025590FM-12+032499999V0201201N007012200019N0100001N1+01081+00921102391ADDAA199000091GF102991001001999999001011KA1999N+00951MD1210051+9999REMSYN070AAXX  01061 33415 32997 21207 10108 20092 40239 52005 80001 333 20095;EQDQ01  00002PRCP99
0112334150999992000100109004+49570+025590FM-12+032499999V0201301N008012200019N0100001N1+01571+00731102331ADDGF104991001001999999001011MD1210011+9999REMSYN060AAXX  01091 33415 42997 41308 10157 20073 40233 52001 80001;
0133334150999992000100112004+49570+025590FM-12+032499999V0201301N012019999999N0100001N1+01771+00781102281ADDGF105991001001999999001011MA1999999098431MD1810031+9999REMSYN066AAXX  01121 33415 42997 51312 10177 20078 39843 40228 58003 80001;
0112334150999992000100115004+49570+025590FM-12+032499999V0201301N009012200019N0100001N1+01701+00591102221ADDGF104991001001999999001011MD1710071+9999REMSYN060AAXX  01151 33415 42997 41309 10170 20059 40222 57007 80001;
0165334150999992000100118004+49570+025590FM-12+032499999V0201101N008019999999N0100001N1+01401+00651102171ADDAA199000091GF105991021001999999031011KA1999M+01841MD1710081+9999REMSYN070AAXX  01181 33415 32997 51108 10140 20065 40217 57008 82031 333 10184;EQDQ01  00002PRCP99
0112334150999992000100121004+49570+025590FM-12+032499999V0201101N006012200019N0100001N1+01141+00611102161ADDGF102991001001999999001011MD1710041+9999REMSYN060AAXX  01211 33415 42997 21106 10114 20061 40216 57004 80001;
0133334150999992000100200004+49570+025590FM-12+032499999V0201301N010012200019N0100001N1+01081+00651102041ADDGF102991001001999999001011MA1999999098111MD1710131+9999REMSYN066AAXX  02001 33415 42997 21310 10108 20065 39811 40204 57013 80001;
0128334150999992000100203004+49570+025590FM-12+032499999V0201301N007012200019N0100001N1+01021+00591101961ADDGF103991001001999999001011MD1710091+9999REMSYN076AAXX  02031 33415 42997 31307 10102 20059 40196 57009 80001 555 20100 7000/;
0165334150999992000100206004+49570+025590FM-12+032499999V0201301N008019999999N0100001N1+01141+00611101871ADDAA199000091GF107991021001999999031011KA1999N+01001MD1710061+9999REMSYN070AAXX  02061 33415 32997 71308 10114 20061 40187 57006 82031 333 20100;EQDQ01  00002PRCP99
0112334150999992000100209004+49570+025590FM-12+032499999V0201401N010019999999N0100001N1+01451+00711101851ADDGF107991031001999999031011MD1310021+9999REMSYN060AAXX  02091 33415 42997 71410 10145 20071 40185 53002 83031;
0133334150999992000100212004+49570+025590FM-12+032499999V0201401N008019999999N0100001N1+01851+00821101781ADDGF107991021001999999031011MA1999999097961MD1810021+9999REMSYN066AAXX  02121 33415 42997 71408 10185 20082 39796 40178 58002 82031;
0112334150999992000100215004+49570+025590FM-12+032499999V0201401N009010360019N0100001N1+01771+00811101811ADDGF107991031051012501031011MD1310021+9999REMSYN060AAXX  02151 33415 42697 71409 10177 20081 40181 53002 83531;
0165334150999992000100218004+49570+025590FM-12+032499999V0201401N005019999999N0100001N1+01561+00851101861ADDAA199000091GF107991041001999999031011KA1999M+01871MD1210021+9999REMSYN070AAXX  02181 33415 32997 71405 10156 20085 40186 52002 84031 333 10187;EQDQ01  00002PRCP99
0112334150999992000100221004+49570+025590FM-12+032499999V0201401N006019999999N0100001N1+01381+00901101891ADDGF107991071001999999031001MD1210011+9999REMSYN060AAXX  02211 33415 42997 71406 10138 20090 40189 52001 87030;
0133334150999992000100300004+49570+025590FM-12+032499999V0201401N006019999999N0100001N1+01351+00941101941ADDGF107991071001999999031001MA1999999098061MD1210051+9999REMSYN066AAXX  03001 33415 42997 71406 10135 20094 39806 40194 52005 87030;
0128334150999992000100303004+49570+025590FM-12+032499999V0201101N004019999999N0100001N1+01201+00881102001ADDGF105991051001999999031001MD1210031+9999REMSYN076AAXX  03031 33415 42997 51104 10120 20088 40200 52003 85030 555 20119 7000/;
0165334150999992000100306004+49570+025590FM-12+032499999V0201401N007010360019N0100001N1+01191+00981102061ADDAA199000091GF107991041051004501031001KA1999N+01171MD1210051+9999REMSYN070AAXX  03061 33415 32497 71407 10119 20098 40206 52005 84530 333 20117;EQDQ01  00002PRCP99
0112334150999992000100309004+49570+025590FM-12+032499999V0201401N008012200019N0100001N1+01521+00971102171ADDGF106991021051004501001011MD1210161+9999REMSYN060AAXX  03091 33415 42497 61408 10152 20097 40217 52016 82501;
0133334150999992000100312004+49570+025590FM-12+032499999V0201401N007012200019N0100001N1+02061+00951102131ADDGF102991001001999999001011MA1999999098321MD1210021+9999REMSYN066AAXX  03121 33415 42997 21407 10206 20095 39832 40213 52002 80001;
0112334150999992000100315004+49570+025590FM-12+032499999V0201401N007012200019N0100001N1+01961+00701102171ADDGF103991001001999999001011MD1210031+9999REMSYN060AAXX  03151 33415 42997 31407 10196 20070 40217 52003 80001;
0165334150999992000100318004+49570+025590FM-12+032499999V0201101N003012200019N0100001N1+01461+00581102341ADDAA199000091GF102991001001999999001011KA1999M+02101MD1210101+9999REMSYN070AAXX  03181 33415 32997 21103 10146 20058 40234 52010 80001 333 10210;EQDQ01  00002PRCP99
0122334150999992000100321004+49570+025590FM-12+032499999V0201101N003012200019N0100001N1+01111+00591102471ADDGA1001+999999999GF100991001001999999001001MD1210071+9999REMSYN054AAXX  03211 33415 42997 01103 10111 20059 40247 52007;
0143334150999992000100400004+49570+025590FM-12+032499999V0201401N004012200019N0100001N1+01081+00741102451ADDGA1001+999999999GF100991001001999999001001MA1999999098501MD1810021+9999REMSYN060AAXX  04001 33415 42997 01404 10108 20074 39850 40245 58002;
0138334150999992000100403004+49570+025590FM-12+032499999V0201401N003012200019N0100001N1+00911+00711102431ADDGA1001+999999999GF100991001001999999001001MD1710041+9999REMSYN070AAXX  04031 33415 42997 01403 10091 20071 40243 57004 555 20090 7000/;
0175334150999992000100406004+49570+025590FM-12+032499999V0201401N004012200019N0100001N1+01131+00861102441ADDAA199000091GA1001+999999999GF100991001001999999001001KA1999N+00901MD1310041+9999REMSYN064AAXX  04061 33415 32997 01404 10113 20086 40244 53004 333 20090;EQDQ01  00002PRCP99
0122334150999992000100409004+49570+025590FM-12+032499999V0201401N008012200019N0100001N1+01901+00811102351ADDGA1001+999999999GF100991001001999999001001MD1210011+9999REMSYN054AAXX  04091 33415 42997 01408 10190 20081 40235 52001;
0133334150999992000100412004+49570+025590FM-12+032499999V0201401N006012200019N0100001N1+02281+00611102181ADDGF102991001001999999001011MA1999999098401MD1810111+9999REMSYN066AAXX  04121 33415 42997 21406 10228 20061 39840 40218 58011 80001;
0122334150999992000100415004+49570+025590FM-12+032499999V0201401N008012200019N0100001N1+02171+00271102121ADDGA1001+999999999GF100991001001999999001001MD1710071+9999REMSYN054AAXX  04151 33415 42997 01408 10217 20027 40212 57007;
0175334150999992000100418004+49570+025590FM-12+032499999V0201401N004012200019N0100001N1+01421+00411102251ADDAA199000091GA1001+999999999GF100991001001999999001001KA1999M+02341MD1310021+9999REMSYN064AAXX  04181 33415 32997 01404 10142 20041 40225 53002 333 10234;EQDQ01  00002PRCP99
0122334150999992000100421004+49570+025590FM-12+032499999V0201101N003012200019N0100001N1+01091+00531102291ADDGA1001+999999999GF100991001001999999001001MD1410001+9999REMSYN054AAXX  04211 33415 42997 01103 10109 20053 40229 54000;
0143334150999992000100500004+49570+025590FM-12+032499999V0201401N002012200019N0100001N1+00881+00481102311ADDGA1001+999999999GF100991001001999999001001MA1999999098341MD1810011+9999REMSYN060AAXX  05001 33415 42997 01402 10088 20048 39834 40231 58001;
0138334150999992000100503004+49570+025590FM-12+032499999V0201101N002012200019N0100001N1+00571+00281102251ADDGA1001+999999999GF100991001001999999001001MD1710091+9999REMSYN070AAXX  05031 33415 42997 01102 10057 20028 40225 57009 555 20056 7000/;
0209334150999992000100506004+49570+025590FM-12+032499999V0201101N003012200019N0100001N1+00891+00431102211ADDAA199000091GA1001+999999999GF100991001001999999001001IA1019IA2999+00209KA1120N+00551MD1410001+9999REMSYN080AAXX  05061 33415 32997 01103 10089 20043 40221 54000 333 20055 555 30002 52001;EQDQ01  00002PRCP99
0122334150999992000100509004+49570+025590FM-12+032499999V0201401N008012200019N0100001N1+01811+00321102071ADDGA1001+999999999GF100991001001999999001001MD1810021+9999REMSYN054AAXX  05091 33415 42997 01408 10181 20032 40207 58002;
0143334150999992000100512004+49570+025590FM-12+032499999V0201401N008012200019N0100001N1+02171+00171101971ADDGA1001+999999999GF100991001001999999001001MA1999999098191MD1710041+9999REMSYN060AAXX  05121 33415 42997 01408 10217 20017 39819 40197 57004;
0122334150999992000100515004+49570+025590FM-12+032499999V0201401N009012200019N0100001N1+01981+00061101931ADDGA1001+999999999GF100991001001999999001001MD1710071+9999REMSYN054AAXX  05151 33415 42997 01409 10198 20006 40193 57007;
0165334150999992000100518004+49570+025590FM-12+032499999V0201101N004012200019N0100001N1+01311+00231102051ADDAA199000091GF101991001001999999001011KA1999M+02201MD1310021+9999REMSYN070AAXX  05181 33415 32997 11104 10131 20023 40205 53002 80001 333 10220;EQDQ01  00002PRCP99
0112334150999992000100521004+49570+025590FM-12+032499999V0209999C000012200019N0100001N1+00841+00251102111ADDGF101991001001999999001011MD1810021+9999REMSYN060AAXX  05211 33415 42997 10000 10084 20025 40211 58002 80001;
0143334150999992000100600004+49570+025590FM-12+032499999V0209999C000012200019N0100001N1+00761+00251102051ADDGA1001+999999999GF100991001001999999001001MA1999999098071MD1710051+9999REMSYN060AAXX  06001 33415 42997 00000 10076 20025 39807 40205 57005;
0138334150999992000100603004+49570+025590FM-12+032499999V0209999C000012200019N0100001N1+00541+00301102051ADDGA1001+999999999GF100991001001999999001001MD1710031+9999REMSYN070AAXX  06031 33415 42997 00000 10054 20030 40205 57003 555 20053 7000/;
0199334150999992000100606004+49570+025590FM-12+032499999V0201101N004019999999N0100001N1+00811+00401102011ADDAA199000091GF105991001001999999001011IA1019IA2999+00109KA1120N+00441MD1410001+9999REMSYN086AAXX  06061 33415 32997 51104 10081 20040 40201 54000 80001 333 20044 555 30001 52101;EQDQ01  00002PRCP99
0112334150999992000100609004+49570+025590FM-12+032499999V0201301N007012200019N0100001N1+01591+00381101921ADDGF104991001001999999001011MD1310021+9999REMSYN060AAXX  06091 33415 42997 41307 10159 20038 40192 53002 80001;
0133334150999992000100612004+49570+025590FM-12+032499999V0201301N008019999999N0100001N1+01861+00291101861ADDGF106991001001999999001011MA1999999098041MD1810021+9999REMSYN066AAXX  06121 33415 42997 61308 10186 20029 39804 40186 58002 80001;
0112334150999992000100615004+49570+025590FM-12+032499999V0201101N007019999999N0100001N1+01701+00341101881ADDGF106991001001999999001011MD1410001+9999REMSYN060AAXX  06151 33415 42997 61107 10170 20034 40188 54000 80001;
0165334150999992000100618004+49570+025590FM-12+032499999V0201101N005019999999N0100001N1+01201+00481102021ADDAA199000091GF105991001001999999001011KA1999M+01871MD1310061+9999REMSYN070AAXX  06181 33415 32997 51105 10120 20048 40202 53006 80001 333 10187;EQDQ01  00002PRCP99
0112334150999992000100621004+49570+025590FM-12+032499999V0201101N002019999999N0100001N1+01011+00451102091ADDGF105991001001999999001011MD1210041+9999REMSYN060AAXX  06211 33415 42997 51102 10101 20045 40209 52004 80001;
0133334150999992000100700004+49570+025590FM-12+032499999V0209999C000019999999N0100001N1+00801+00321102141ADDGF105991001001999999001011MA1999999098161MD1210021+9999REMSYN066AAXX  07001 33415 42997 50000 10080 20032 39816 40214 52002 80001;
0128334150999992000100703004+49570+025590FM-12+032499999V0200901N002019999999N0100001N1+00651+00371102161ADDGF105991001001999999001011MD1410001+9999REMSYN076AAXX  07031 33415 42997 50902 10065 20037 40216 54000 80001 555 20060 7000/;
0199334150999992000100706004+49570+025590FM-12+032499999V0200901N002019999999N0100001N1+00661+00431102241ADDAA199000091GF107991041001999999031011IA1019IA2999+00209KA1120N+00501MD1310091+9999REMSYN086AAXX  07061 33415 32997 70902 10066 20043 40224 53009 84031 333 20050 555 30002 52001;EQDQ01  00002PRCP99
0112334150999992000100709004+49570+025590FM-12+032499999V0201101N007019999999N0100001N1+01601+00401102211ADDGF107991001001999999001011MD1210091+9999REMSYN060AAXX  07091 33415 42997 71107 10160 20040 40221 52009 80001;
0133334150999992000100712004+49570+025590FM-12+032499999V0201101N006019999999N0100001N1+01881+00191102171ADDGF106991001001999999001011MA1999999098341MD1410001+9999REMSYN066AAXX  07121 33415 42997 61106 10188 20019 39834 40217 54000 80001;
0112334150999992000100715004+49570+025590FM-12+032499999V0201101N007019999999N0100001N1+01801+00501102121ADDGF106991001001999999001011MD1810061+9999REMSYN060AAXX  07151 33415 42997 61107 10180 20050 40212 58006 80001;
0165334150999992000100718004+49570+025590FM-12+032499999V0200901N006012200019N0100001N1+01341+00581102241ADDAA199000091GF104991001001999999001011KA1999M+01941MD1310061+9999REMSYN070AAXX  07181 33415 32997 40906 10134 20058 40224 53006 80001 333 10194;EQDQ01  00002PRCP99
0112334150999992000100721004+49570+025590FM-12+032499999V0200901N007012200019N0100001N1+01121+00531102321ADDGF104991001001999999001011MD1210041+9999REMSYN060AAXX  07211 33415 42997 40907 10112 20053 40232 52004 80001;
0133334150999992000100800004+49570+025590FM-12+032499999V0200901N004012200019N0100001N1+00961+00511102371ADDGF102991001001999999001011MA1999999098411MD1210031+9999REMSYN066AAXX  08001 33415 42997 20904 10096 20051 39841 40237 52003 80001;
0138334150999992000100803004+49570+025590FM-12+032499999V0200901N004012200019N0100001N1+00781+00461102361ADDGA1001+999999999GF100991001001999999001001MD1810031+9999REMSYN070AAXX  08031 33415 42997 00904 10078 20046 40236 58003 555 20077 7000/;
0199334150999992000100806004+49570+025590FM-12+032499999V0200901N005019999999N0100001N1+00781+00411102401ADDAA199000091GF107991001001999999001011IA1019IA2999+00509KA1120N+00621MD1310041+9999REMSYN086AAXX  08061 33415 32997 70905 10078 20041 40240 53004 80001 333 20062 555 30005 52003;EQDQ01  00002PRCP99
0112334150999992000100809004+49570+025590FM-12+032499999V0201101N008019999999N0100001N1+01381+00501102361ADDGF106991001001999999001011MD1210041+9999REMSYN060AAXX  08091 33415 42997 61108 10138 20050 40236 52004 80001;
0133334150999992000100812004+49570+025590FM-12+032499999V0201101N006019999999N0100001N1+01611+00271102251ADDGF106991001001999999001011MA1999999098381MD1810081+9999REMSYN066AAXX  08121 33415 42997 61106 10161 20027 39838 40225 58008 80001;
0112334150999992000100815004+49570+025590FM-12+032499999V0200901N007012200019N0100001N1+01541+00111102171ADDGF103991001001999999001011MD1710091+9999REMSYN060AAXX  08151 33415 42997 30907 10154 20011 40217 57009 80001;
0165334150999992000100818004+49570+025590FM-12+032499999V0200901N005012200019N0100001N1+01061+00341102261ADDAA199000091GF101991001001999999001011KA1999M+01671MD1310031+9999REMSYN070AAXX  08181 33415 32997 10905 10106 20034 40226 53003 80001 333 10167;EQDQ01  00002PRCP99
0122334150999992000100821004+49570+025590FM-12+032499999V0200901N007012200019N0100001N1+00901+00341102301ADDGA1001+999999999GF100991001001999999001001MD1210011+9999REMSYN054AAXX  08211 33415 42997 00907 10090 20034 40230 52001;
0143334150999992000100900004+49570+025590FM-12+032499999V0201101N004012200019N0100001N1+00681+00351102241ADDGA1001+999999999GF100991001001999999001001MA1999999098251MD1810081+9999REMSYN060AAXX  09001 33415 42997 01104 10068 20035 39825 40224 58008;
0138334150999992000100903004+49570+025590FM-12+032499999V0209999C000012200019N0100001N1+00321+00081102201ADDGA1001+999999999GF100991001001999999001001MD1710101+9999REMSYN070AAXX  09031 33415 42997 00000 10032 20008 40220 57010 555 20031 7000/;
0209334150999992000100906004+49570+025590FM-12+032499999V0200901N004012200019N0100001N1+00351+00091102121ADDAA199000091GA1001+999999999GF100991001001999999001001IA1019IA2999-00109KA1120N+00111MD1710071+9999REMSYN080AAXX  09061 33415 32997 00904 10035 20009 40212 57007 333 20011 555 30101 52102;EQDQ01  00002PRCP99
0138334150999992000100909004+49570+025590FM-12+032499999V0201101N008010090019N0100001N1+00911-00051102001ADDGA1061+009009059GF106991061051008001001001MD1710031+9999REMSYN070AAXX  09091 33415 42597 61108 10091 21005 40200 57003 86500 333 86630;
0133334150999992000100912004+49570+025590FM-12+032499999V0200901N007012200019N0100001N1+01051-00271101801ADDGF101991011001999999031001MA1999999097871MD1710181+9999REMSYN066AAXX  09121 33415 42997 10907 10105 21027 39787 40180 57018 81030;
0112334150999992000100915004+49570+025590FM-12+032499999V0200901N005012200019N0100001N1+01001-00301101671ADDGF102991001001999999001011MD1710131+9999REMSYN060AAXX  09151 33415 42997 20905 10100 21030 40167 57013 80001;
0165334150999992000100918004+49570+025590FM-12+032499999V0200901N004012200019N0100001N1+00461-00211101731ADDAA199000091GF101991001001999999001011KA1999M+01091MD1710031+9999REMSYN070AAXX  09181 33415 32997 10904 10046 21021 40173 57003 80001 333 10109;EQDQ01  00002PRCP99
0112334150999992000100921004+49570+025590FM-12+032499999V0201101N003012200019N0100001N1+00361-00031101641ADDGF102991001001999999001011MD1710091+9999REMSYN060AAXX  09211 33415 42997 21103 10036 21003 40164 57009 80001;
0143334150999992000101000004+49570+025590FM-12+032499999V0201101N004012200019N0100001N1+00281-00081101531ADDGA1001+999999999GF100991001001999999001001MA1999999097511MD1710111+9999REMSYN060AAXX  10001 33415 42997 01104 10028 21008 39751 40153 57011;
0138334150999992000101003004+49570+025590FM-12+032499999V0201101N003012200019N0100001N1+00131-00091101501ADDGA1001+999999999GF100991001001999999001001MD1710061+9999REMSYN070AAXX  10031 33415 42997 01103 10013 21009 40150 57006 555 20011 7000/;
0199334150999992000101006004+49570+025590FM-12+032499999V0201101N004012200019N0100001N1+00301+00031101441ADDAA199000091GF101991001001999999001011IA1019IA2999-00209KA1120N+00061MD1710031+9999REMSYN086AAXX  10061 33415 32997 11104 10030 20003 40144 57003 80001 333 20006 555 30102 52103;EQDQ01  00002PRCP99
0138334150999992000101009004+49570+025590FM-12+032499999V0201101N005012200019N0100001N1+00861+00211101331ADDGA1041+008109059GF107991041051008001001011MD1710031+9999REMSYN070AAXX  10091 33415 42597 71105 10086 20021 40133 57003 84501 333 84627;
0133334150999992000101012004+49570+025590FM-12+032499999V0201101N005012200019N0100001N1+00961+00111101201ADDGF102991001001999999001011MA1999999097281MD1710111+9999REMSYN066AAXX  10121 33415 42997 21105 10096 20011 39728 40120 57011 80001;
0112334150999992000101015004+49570+025590FM-12+032499999V0201101N008012200019N0100001N1+00781+00091101231ADDGF102991001001999999001011MD1310011+9999REMSYN060AAXX  10151 33415 42997 21108 10078 20009 40123 53001 80001;
0187334150999992000101018004+49570+025590FM-12+032499999V0201101N006010360019N0100001N1+00671+00091101241ADDAA199000091GA1041+009009059GF107991041051008001031001KA1120M+00971MD1410001+9999REMSYN076AAXX  10181 33415 32597 71106 10067 20009 40124 54000 84530 333 10097 84630;EQDQ01  00002PRCP99
0112334150999992000101021004+49570+025590FM-12+032499999V0201101N004019999999N0100001N1+00491+00111101301ADDGF105991031001999999031011MD1310021+9999REMSYN060AAXX  10211 33415 42997 51104 10049 20011 40130 53002 83031;
0133334150999992000101100004+49570+025590FM-12+032499999V0201101N004012200019N0100001N1+00431+00151101281ADDGF102991001001999999001011MA1999999097291MD1810021+9999REMSYN066AAXX  11001 33415 42997 21104 10043 20015 39729 40128 58002 80001;
0128334150999992000101103004+49570+025590FM-12+032499999V0201101N003019999999N0100001N1+00411+00261101261ADDGF107991041001999999031011MD1710021+9999REMSYN076AAXX  11031 33415 42997 71103 10041 20026 40126 57002 84031 555 20040 7000/;
0221334150999992000101106004+49570+025590FM-12+032499999V0201101N007010033019N0100001N1+00541+00401101321ADDAA199000091GA1051+003309069GF107991051051004501031001IA1019IA2999+00409KA1120N+00401MD1310061+9999REMSYN092AAXX  11061 33415 32497 71107 10054 20040 40132 53006 85530 333 20040 85611 555 30004 52001;EQDQ01  00002PRCP99
0138334150999992000101109004+49570+025590FM-12+032499999V0201101N008010039019N0100001N1+00781+00381101191ADDGA1061+003909059GF107991061051004501031001MD1810081+9999REMSYN070AAXX  11091 33415 42497 71108 10078 20038 40119 58008 86530 333 86613;
0133334150999992000101112004+49570+025590FM-12+032499999V0201101N008010360019N0100001N1+01101+00431101071ADDGF107991021051012501031001MA1999999097181MD1710071+9999REMSYN066AAXX  11121 33415 42697 71108 10110 20043 39718 40107 57007 82530;
0112334150999992000101115004+49570+025590FM-12+032499999V0201401N007010360019N0100001N1+01301+00451101081ADDGF106991021051012501031001MD1310031+9999REMSYN060AAXX  11151 33415 42697 61407 10130 20045 40108 53003 82530;
0165334150999992000101118004+49570+025590FM-12+032499999V0201101N006012200019N0100001N1+00931+00611101231ADDAA199000091GF102991001001999999001011KA1999M+01301MD1210091+9999REMSYN070AAXX  11181 33415 32997 21106 10093 20061 40123 52009 80001 333 10130;EQDQ01  00002PRCP99
0112334150999992000101121004+49570+025590FM-12+032499999V0201401N006012200019N0100001N1+00821+00591101301ADDGF102991001001999999001011MD1210061+9999REMSYN060AAXX  11211 33415 42997 21406 10082 20059 40130 52006 80001;
0134334150999992000101200004+49570+025590FM-12+032499999V0209999C000010021019N0020001N1+01151+99999101841ADDAY121061AY221061GF108991081061002501999999MD1210081+9999MW1101REMSYN060AAXX  12001 33415 41395 80000 10115 40184 52008 71022 886//;
0154334150999992000101203004+49570+025590FM-12+032499999V0201401N008010360019N0100001N1+00751+00621101381ADDGA1041+004509069GF107991041051004501031001MD1210051+9999REMSYN086AAXX  12031 33415 42497 71408 10075 20062 40138 52005 84530 333 84615 555 20073 7000/;
0215334150999992000101206004+49570+025590FM-12+032499999V0201401N007010021019N0040001N1+00921+00811101491ADDAA199000091AY121061AY221061GA1081+002109069GF108991081061002501999999KA1120N+00731MD1210131+9999MW1101REMSYN082AAXX  12061 33415 31396 81407 10092 20081 40149 52013 71022 886// 333 20073 88707;EQDQ01  00002PRCP99
0166334150999992000101209004+49570+025590FM-12+032499999V0201401N009010021019N0020001N1+01001+00851101631ADDAY121031AY221031GA1081+002109069GF108991081061002501999999MD1210131+9999MW1101REMSYN076AAXX  12091 33415 41395 81409 10100 20085 40163 52013 71022 886// 333 88707;
0187334150999992000101212004+49570+025590FM-12+032499999V0201401N005010027019N0040001N1+01141+00851101641ADDAY121061AY221061GA1081+002709069GF108991081061002501999999MA1999999097741MD1210041+9999MW1101REMSYN082AAXX  12121 33415 41396 81405 10114 20085 39774 40164 52004 71022 886// 333 88709;
0166334150999992000101215004+49570+025590FM-12+032499999V0201401N008010033019N0040001N1+01201+99999101741ADDAY121031AY221031GA1081+003309069GF108991081061004501999999MD1210101+9999MW1101REMSYN076AAXX  12151 33415 41496 81408 10120 28094 40174 52010 71022 886// 333 88711;
0187334150999992000101218004+49570+025590FM-12+032499999V0201401N006010048019N0100001N1+01201+00971101851ADDAA199000091GA1071+004809059GF107991071051004501001001KA1120M+01221MD1210101+9999REMSYN076AAXX  12181 33415 32497 71406 10120 20097 40185 52010 87500 333 10122 87616;EQDQ01  00002PRCP99
0138334150999992000101221004+49570+025590FM-12+032499999V0201101N005010036019N0100001N1+01281+01091101951ADDGA1071+003609059GF107991071051004501001001MD1210111+9999REMSYN070AAXX  12211 33415 42497 71105 10128 20109 40195 52011 87500 333 87612;
0187334150999992000101300004+49570+025590FM-12+032499999V0201401N007010024019N0040001N1+01281+01141101991ADDAY121061AY221061GA1081+002409069GF108991081061002501999999MA1999999098101MD1210051+9999MW1101REMSYN082AAXX  13001 33415 41396 81407 10128 20114 39810 40199 52005 71022 886// 333 88708;
0182334150999992000101303004+49570+025590FM-12+032499999V0201401N005010021019N0040001N1+01361+01211102071ADDAY121031AY221031GA1081+002109079GF108991081061002501999999MD1210081+9999MW1101REMSYN092AAXX  13031 33415 41396 81405 10136 20121 40207 52008 71022 886// 333 88707 555 20120 7000/;
0215334150999992000101306004+49570+025590FM-12+032499999V0201401N006010024019N0020001N1+01361+01251102141ADDAA199000091AY121061AY221061GA1081+002409069GF108991081061002501999999KA1120N+01201MD1210071+9999MW1101REMSYN082AAXX  13061 33415 31395 81406 10136 20125 40214 52007 71022 886// 333 20120 88708;EQDQ01  00002PRCP99
0166334150999992000101309004+49570+025590FM-12+032499999V0201301N008010042019N0100001N1+01541+01151102241ADDAY121031AY221031GA1071+004209059GF107991071051004501001001MD1210121+9999MW1101REMSYN076AAXX  13091 33415 42497 71308 10154 20115 40224 52012 71022 87500 333 87614;
0159334150999992000101312004+49570+025590FM-12+032499999V0201301N007010051019N0100001N1+01661+01121102201ADDGA1071+005109059GF107991071051004501001001MA1999999098341MD1810381+9999REMSYN076AAXX  13121 33415 42497 71307 10166 20112 39834 40220 58038 87500 333 87617;
0138334150999992000101315004+49570+025590FM-12+032499999V0201301N007010060019N0100001N1+01581+01151102201ADDGA1071+006009059GF107991071051008001001001MD1410001+9999REMSYN070AAXX  13151 33415 42597 71307 10158 20115 40220 54000 87500 333 87620;
0165334150999992000101318004+49570+025590FM-12+032499999V0201301N007010360019N0100001N1+01431+01111102281ADDAA199000091GF107991031051008001031001KA1999M+01701MD1310051+9999REMSYN070AAXX  13181 33415 32597 71307 10143 20111 40228 53005 83530 333 10170;EQDQ01  00002PRCP99
0138334150999992000101321004+49570+025590FM-12+032499999V0201401N008010360019N0100001N1+01381+01101102281ADDGA1041+009009059GF107991041051008001031001MD1810011+9999REMSYN070AAXX  13211 33415 42597 71408 10138 20110 40228 58001 84530 333 84630;
0159334150999992000101400004+49570+025590FM-12+032499999V0201501N007010039019N0100001N1+01421+01241102281ADDGA1071+003909059GF107991071051004501001001MA1999999098391MD1310011+9999REMSYN076AAXX  14001 33415 42497 71507 10142 20124 39839 40228 53001 87500 333 87613;
0154334150999992000101403004+49570+025590FM-12+032499999V0201501N006010030019N0100001N1+01221+01031102271ADDGA1081+003009069GF108991081051004501999999MD1810031+9999REMSYN086AAXX  14031 33415 42497 81506 10122 20103 40227 58003 885// 333 88610 555 20120 7000/;
0215334150999992000101406004+49570+025590FM-12+032499999V0201401N006010021019N0040001N1+01141+01001102261ADDAA199000091AY121061AY221061GA1081+002109069GF108991081061002501999999KA1120N+01141MD1710031+9999MW1101REMSYN082AAXX  14061 33415 31396 81406 10114 20100 40226 57003 71022 886// 333 20114 88707;EQDQ01  00002PRCP99
0166334150999992000101409004+49570+025590FM-12+032499999V0201601N005010018019N0040001N1+01111+00971102301ADDAY121031AY221031GA1081+001809069GF108991081061001501999999MD1310041+9999MW1101REMSYN076AAXX  14091 33415 41296 81605 10111 20097 40230 53004 71022 886// 333 88706;
0159334150999992000101412004+49570+025590FM-12+032499999V0201401N008012200019N0100001N1+01381+01021102201ADDGA1031+003309059GF107991031051004501001011MA1999999098301MD1810071+9999REMSYN076AAXX  14121 33415 42497 71408 10138 20102 39830 40220 58007 83501 333 83611;
0112334150999992000101415004+49570+025590FM-12+032499999V0201401N007019999999N0100001N1+01351+00951102111ADDGF106991001001999999001011MD1710081+9999REMSYN060AAXX  14151 33415 42997 61407 10135 20095 40211 57008 80001;
0165334150999992000101418004+49570+025590FM-12+032499999V0201401N004019999999N0100001N1+01111+00891102121ADDAA199000091GF106991001001999999001011KA1999M+01441MD1710011+9999REMSYN070AAXX  14181 33415 32997 61404 10111 20089 40212 57001 80001 333 10144;EQDQ01  00002PRCP99
0112334150999992000101421004+49570+025590FM-12+032499999V0201401N003012200019N0100001N1+00901+00801102151ADDGF103991001001999999001011MD1710021+9999REMSYN060AAXX  14211 33415 42997 31403 10090 20080 40215 57002 80001;
0161334150999992000101500004+49570+025590FM-12+032499999V0201401N002012200019N0040001N1+00751+00671102201ADDAY111061AY211061GF101991001001999999001011MA1999999098221MD1310031+9999MW1101REMSYN072AAXX  15001 33415 41996 11402 10075 20067 39822 40220 53003 71011 80001;
0166334150999992000101503004+49570+025590FM-12+032499999V0209999C000012200019N0005001N1+00581+00581102241ADDAY141031AY201031GA1001+999999999GF100991001001999999001001MD1210041+9999MW1461REMSYN076AAXX  15031 33415 41993 00000 10058 20058 40224 52004 74640 555 20057 7000/;
0227334150999992000101506004+49570+025590FM-12+032499999V0209999C000012200019N0040001N1+00521+00451102291ADDAA199000091AY141061AY211061GF102991001001999999001011IA1019IA2999+00309KA1120N+00461MD1210031+9999MW1101REMSYN092AAXX  15061 33415 31996 20000 10052 20045 40229 52003 71041 80001 333 20046 555 30003 52002;EQDQ01  00002PRCP99
0112334150999992000101509004+49570+025590FM-12+032499999V0209999V001012200019N0100001N1+01401+00931102201ADDGF102991001001999999001011MD1210031+9999REMSYN060AAXX  15091 33415 42997 29901 10140 20093 40220 52003 80001;
0133334150999992000101512004+49570+025590FM-12+032499999V0209999V001012200019N0100001N1+01931+01131102101ADDGF101991001001999999001011MA1999999098291MD1810011+9999REMSYN066AAXX  15121 33415 42997 19901 10193 20113 39829 40210 58001 80001;
0112334150999992000101515004+49570+025590FM-12+032499999V0200701N003012200019N0100001N1+01831+01111102061ADDGF102991001001999999001011MD1710051+9999REMSYN060AAXX  15151 33415 42997 20703 10183 20111 40206 57005 80001;
0165334150999992000101518004+49570+025590FM-12+032499999V0200501N002012200019N0100001N1+01301+00991102221ADDAA199000091GF103991001001999999001011KA1999M+02011MD1310071+9999REMSYN070AAXX  15181 33415 32997 30502 10130 20099 40222 53007 80001 333 10201;EQDQ01  00002PRCP99
0150334150999992000101521004+49570+025590FM-12+032499999V0200501N002012200019N0040001N1+01041+00901102261ADDAY101031AY201031GA1001+999999999GF100991001001999999001001MD1210011+9999MW1101REMSYN060AAXX  15211 33415 41996 00502 10104 20090 40226 52001 71000;
0171334150999992000101600004+49570+025590FM-12+032499999V0200501N002012200019N0040001N1+00931+00821102291ADDAY101061AY201061GA1001+999999999GF100991001001999999001001MA1999999098331MD1210011+9999MW1101REMSYN066AAXX  16001 33415 41996 00502 10093 20082 39833 40229 52001 71000;
0166334150999992000101603004+49570+025590FM-12+032499999V0200901N002012200019N0040001N1+00711+00671102301ADDAY101031AY201031GA1001+999999999GF100991001001999999001001MD1210021+9999MW1101REMSYN076AAXX  16031 33415 41996 00902 10071 20067 40230 52002 71000 555 20070 7000/;
0227334150999992000101606004+49570+025590FM-12+032499999V0200901N004012200019N0040001N1+00931+00861102411ADDAA199000091AY141061AY211061GF102991021071002501001001IA1019IA2999+00509KA1120N+00701MD1210101+9999MW1101REMSYN092AAXX  16061 33415 31396 20904 10093 20086 40241 52010 71041 82700 333 20070 555 30005 52004;EQDQ01  00002PRCP99
0122334150999992000101609004+49570+025590FM-12+032499999V0201101N008012200019N0100001N1+01481+00891102391ADDGA1001+999999999GF100991001001999999001001MD1210051+9999REMSYN054AAXX  16091 33415 42997 01108 10148 20089 40239 52005;
0143334150999992000101612004+49570+025590FM-12+032499999V0200901N006012200019N0100001N1+01791+00981102331ADDGA1001+999999999GF100991001001999999001001MA1999999098481MD1810021+9999REMSYN060AAXX  16121 33415 42997 00906 10179 20098 39848 40233 58002;
0122334150999992000101615004+49570+025590FM-12+032499999V0200901N006012200019N0100001N1+01621+00881102331ADDGA1001+999999999GF100991001001999999001001MD1710011+9999REMSYN054AAXX  16151 33415 42997 00906 10162 20088 40233 57001;
0165334150999992000101618004+49570+025590FM-12+032499999V0200901N005012200019N0100001N1+01141+00531102471ADDAA199000091GF102991001001999999001011KA1999M+01801MD1310061+9999REMSYN070AAXX  16181 33415 32997 20905 10114 20053 40247 53006 80001 333 10180;EQDQ01  00002PRCP99
0122334150999992000101621004+49570+025590FM-12+032499999V0200901N004012200019N0100001N1+00971+00611102561ADDGA1001+999999999GF100991001001999999001001MD1210071+9999REMSYN054AAXX  16211 33415 42997 00904 10097 20061 40256 52007;
0143334150999992000101700004+49570+025590FM-12+032499999V0200901N005012200019N0100001N1+00911+00741102591ADDGA1001+999999999GF100991001001999999001001MA1999999098611MD1210011+9999REMSYN060AAXX  17001 33415 42997 00905 10091 20074 39861 40259 52001;
0128334150999992000101703004+49570+025590FM-12+032499999V0201101N005012200019N0100001N1+00741+00561102621ADDGF102991001001999999001011MD1410001+9999REMSYN076AAXX  17031 33415 42997 21105 10074 20056 40262 54000 80001 555 20073 7000/;
0199334150999992000101706004+49570+025590FM-12+032499999V0201101N004012200019N0100001N1+00681+00301102621ADDAA199000091GF102991001001999999001011IA1019IA2999+00409KA1120N+00611MD1410001+9999REMSYN086AAXX  17061 33415 32997 21104 10068 20030 40262 54000 80001 333 20061 555 30004 52003;EQDQ01  00002PRCP99
0112334150999992000101709004+49570+025590FM-12+032499999V0201101N008012200019N0100001N1+01171+00411102551ADDGF102991001001999999001011MD1410001+9999REMSYN060AAXX  17091 33415 42997 21108 10117 20041 40255 54000 80001;
0133334150999992000101712004+49570+025590FM-12+032499999V0201401N007012200019N0100001N1+01541+00481102441ADDGF104991001001999999001011MA1999999098561MD1810051+9999REMSYN066AAXX  17121 33415 42997 41407 10154 20048 39856 40244 58005 80001;
0112334150999992000101715004+49570+025590FM-12+032499999V0201101N006012200019N0100001N1+01401+00681102471ADDGF104991001001999999001011MD1410001+9999REMSYN060AAXX  17151 33415 42997 41106 10140 20068 40247 54000 80001;
0165334150999992000101718004+49570+025590FM-12+032499999V0201101N004012200019N0100001N1+01021+00501102551ADDAA199000091GF102991001001999999001011KA1999M+01661MD1310031+9999REMSYN070AAXX  17181 33415 32997 21104 10102 20050 40255 53003 80001 333 10166;EQDQ01  00002PRCP99
0112334150999992000101721004+49570+025590FM-12+032499999V0200901N004012200019N0100001N1+00981+00681102591ADDGF102991001001999999001011MD1210041+9999REMSYN060AAXX  17211 33415 42997 20904 10098 20068 40259 52004 80001;
0133334150999992000101800004+49570+025590FM-12+032499999V0201101N004012200019N0100001N1+00781+00531102651ADDGF104991001001999999001011MA1999999098661MD1210031+9999REMSYN066AAXX  18001 33415 42997 41104 10078 20053 39866 40265 52003 80001;
0128334150999992000101803004+49570+025590FM-12+032499999V0200901N004012200019N0100001N1+00561+00351102701ADDGF104991001001999999001011MD1210021+9999REMSYN076AAXX  18031 33415 42997 40904 10056 20035 40270 52002 80001 555 20054 7000/;
0199334150999992000101806004+49570+025590FM-12+032499999V0201101N005012200019N0100001N1+00501+00201102761ADDAA199000091GF104991001001999999001011IA1019IA2999+00309KA1120N+00441MD1210041+9999REMSYN086AAXX  18061 33415 32997 41105 10050 20020 40276 52004 80001 333 20044 555 30003 52002;EQDQ01  00002PRCP99
0112334150999992000101809004+49570+025590FM-12+032499999V0201101N008012200019N0100001N1+01121+00231102801ADDGF103991001001999999001011MD1210121+9999REMSYN060AAXX  18091 33415 42997 31108 10112 20023 40280 52012 80001;
0133334150999992000101812004+49570+025590FM-12+032499999V0200901N009012200019N0100001N1+01151+00191102891ADDGF103991001001999999001011MA1999999098921MD1210081+9999REMSYN066AAXX  18121 33415 42997 30909 10115 20019 39892 40289 52008 80001;
0112334150999992000101815004+49570+025590FM-12+032499999V0201101N007012200019N0100001N1+01001+00001102911ADDGF102991001001999999001011MD1210011+9999REMSYN060AAXX  18151 33415 42997 21107 10100 20000 40291 52001 80001;
0165334150999992000101818004+49570+025590FM-12+032499999V0201101N003012200019N0100001N1+00501-00051103001ADDAA199000091GF102991001001999999001011KA1999M+01241MD1210021+9999REMSYN070AAXX  18181 33415 32997 21103 10050 21005 40300 52002 80001 333 10124;EQDQ01  00002PRCP99
0112334150999992000101821004+49570+025590FM-12+032499999V0200901N006019999999N0100001N1+00491-00011103011ADDGF105991021001999999031011MD1210011+9999REMSYN060AAXX  18211 33415 42997 50906 10049 21001 40301 52001 82031;
0133334150999992000101900004+49570+025590FM-12+032499999V0200901N006019999999N0100001N1+00481+00071103031ADDGF105991021001999999031011MA1999999098981MD1210021+9999REMSYN066AAXX  19001 33415 42997 50906 10048 20007 39898 40303 52002 82031;
0128334150999992000101903004+49570+025590FM-12+032499999V0200901N005019999999N0100001N1+00381+00071103041ADDGF105991031001999999031011MD1810011+9999REMSYN076AAXX  19031 33415 42997 50905 10038 20007 40304 58001 83031 555 20037 7000/;
0199334150999992000101906004+49570+025590FM-12+032499999V0200901N008012200019N0100001N1+00391+00051103111ADDAA199000091GF102991001001999999001011IA1019IA2999+00109KA1120N+00331MD1310071+9999REMSYN086AAXX  19061 33415 32997 20908 10039 20005 40311 53007 80001 333 20033 555 30001 52100;EQDQ01  00002PRCP99
0112334150999992000101909004+49570+025590FM-12+032499999V0201101N005012200019N0100001N1+00861+00061103171ADDGF102991001001999999001011MD1210111+9999REMSYN060AAXX  19091 33415 42997 21105 10086 20006 40317 52011 80001;
0133334150999992000101912004+49570+025590FM-12+032499999V0201101N009019999999N0100001N1+00881-00091103151ADDGF107991041001999999031011MA1999999099151MD1410001+9999REMSYN066AAXX  19121 33415 42997 71109 10088 21009 39915 40315 54000 84031;
0112334150999992000101915004+49570+025590FM-12+032499999V0201401N008012200019N0100001N1+00821-00121103151ADDGF102991001001999999001011MD1810021+9999REMSYN060AAXX  19151 33415 42997 21408 10082 21012 40315 58002 80001;
0175334150999992000101918004+49570+025590FM-12+032499999V0201101N006012200019N0100001N1+00421-00191103321ADDAA199000091GA1001+999999999GF100991001001999999001001KA1999M+00921MD1310111+9999REMSYN064AAXX  19181 33415 32997 01106 10042 21019 40332 53011 333 10092;EQDQ01  00002PRCP99
0112334150999992000101921004+49570+025590FM-12+032499999V0201101N004012200019N0100001N1+00401-00151103401ADDGF103991001001999999001011MD1210081+9999REMSYN060AAXX  19211 33415 42997 31104 10040 21015 40340 52008 80001;
0133334150999992000102000004+49570+025590FM-12+032499999V0201401N003012200019N0100001N1+00241-00221103471ADDGF102991001001999999001011MA1999999099361MD1210041+9999REMSYN066AAXX  20001 33415 42997 21403 10024 21022 39936 40347 52004 80001;
0128334150999992000102003004+49570+025590FM-12+032499999V0201101N003012200019N0100001N1+00061-00301103541ADDGF102991001001999999001011MD1210041+9999REMSYN076AAXX  20031 33415 42997 21103 10006 21030 40354 52004 80001 555 20006 7000/;
0209334150999992000102006004+49570+025590FM-12+032499999V0201101N004012200019N0100001N1+00121-00201103591ADDAA199000091GA1001+999999999GF100991001001999999001001IA1019IA2999-00309KA1120N-00041MD1210061+9999REMSYN080AAXX  20061 33415 32997 01104 10012 21020 40359 52006 333 21004 555 30103 52104;EQDQ01  00002PRCP99
0112334150999992000102009004+49570+025590FM-12+032499999V0201401N009012200019N0100001N1+00881-00091103581ADDGF102991021011012501001001MD1210101+9999REMSYN060AAXX  20091 33415 42697 21409 10088 21009 40358 52010 82100;
0143334150999992000102012004+49570+025590FM-12+032499999V0201101N007012200019N0100001N1+01031-00121103541ADDGA1001+999999999GF100991001001999999001001MA1999999099541MD1810021+9999REMSYN060AAXX  20121 33415 42997 01107 10103 21012 39954 40354 58002;
0122334150999992000102015004+49570+025590FM-12+032499999V0201401N006012200019N0100001N1+00861-00071103551ADDGA1001+999999999GF100991001001999999001001MD1710021+9999REMSYN054AAXX  20151 33415 42997 01406 10086 21007 40355 57002;
0175334150999992000102018004+49570+025590FM-12+032499999V0201401N004012200019N0100001N1+00491-00101103651ADDAA199000091GA1001+999999999GF100991001001999999001001KA1999M+01031MD1310051+9999REMSYN064AAXX  20181 33415 32997 01404 10049 21010 40365 53005 333 10103;EQDQ01  00002PRCP99
0122334150999992000102021004+49570+025590FM-12+032499999V0201401N003012200019N0100001N1+00151-00201103691ADDGA1001+999999999GF100991001001999999001001MD1810021+9999REMSYN054AAXX  20211 33415 42997 01403 10015 21020 40369 58002;
0143334150999992000102100004+49570+025590FM-12+032499999V0201601N003012200019N0100001N1+00041-00261103701ADDGA1001+999999999GF100991001001999999001001MA1999999099651MD1310101+9999REMSYN060AAXX  21001 33415 42997 01603 10004 21026 39965 40370 53010;
0138334150999992000102103004+49570+025590FM-12+032499999V0209999C000012200019N0100001N1-00241-00501103811ADDGA1001+999999999GF100991001001999999001001MD1810041+9999REMSYN070AAXX  21031 33415 42997 00000 11024 21050 40381 58004 555 21024 7000/;
0237334150999992000102106004+49570+025590FM-12+032499999V0209999C000012200019N0040001N1-00251-00381103871ADDAA199000091AY101061AY201061GA1001+999999999GF100991001001999999001001IA1019IA2999-00509KA1120N-00301MD1310061+9999MW1101REMSYN086AAXX  21061 33415 31996 00000 11025 21038 40387 53006 71000 333 21030 555 30105 52106;EQDQ01  00002PRCP99
0122334150999992000102109004+49570+025590FM-12+032499999V0201101N004012200019N0100001N1+00811+00061103811ADDGA1001+999999999GF100991001001999999001001MD1210101+9999REMSYN054AAXX  21091 33415 42997 01104 10081 20006 40381 52010;
0143334150999992000102112004+49570+025590FM-12+032499999V0200901N004012200019N0100001N1+01001-00021103731ADDGA1001+999999999GF100991001001999999001001MA1999999099721MD1810051+9999REMSYN060AAXX  21121 33415 42997 00904 10100 21002 39972 40373 58005;
0141334150999992000102115004+49570+025590FM-12+032499999V0202001N999992200019N0100001N1+00841-00051103721ADDGA1001+999999999GF100991001001999999001001MD1710031+9999REMSYN054AAXX  21151 33415 42997 07004 10084 21005 40372 57003;EQDQ01+010401WOSPD 
0175334150999992000102118004+49570+025590FM-12+032499999V0200901N002012200019N0100001N1+00361-00111103781ADDAA199000091GA1001+999999999GF100991001001999999001001KA1999M+01031MD1710021+9999REMSYN064AAXX  21181 33415 32997 00902 10036 21011 40378 57002 333 10103;EQDQ01  00002PRCP99
0122334150999992000102121004+49570+025590FM-12+032499999V0209999C000012200019N0100001N1+00051-00211103861ADDGA1001+999999999GF100991001001999999001001MD1310031+9999REMSYN054AAXX  21211 33415 42997 00000 10005 21021 40386 53003;
0143334150999992000102200004+49570+025590FM-12+032499999V0209999C000012200019N0100001N1-00101-00281103891ADDGA1001+999999999GF100991001001999999001001MA1999999099711MD1210011+9999REMSYN060AAXX  22001 33415 42997 00000 11010 21028 39971 40389 52001;
0166334150999992000102203004+49570+025590FM-12+032499999V0209999C000012200019N0040001N1-00301-00431103911ADDAY101031AY201031GA1001+999999999GF100991001001999999001001MD1810021+9999MW1101REMSYN076AAXX  22031 33415 41996 00000 11030 21043 40391 58002 71000 555 21031 7000/;
0237334150999992000102206004+49570+025590FM-12+032499999V0209999C000012200019N0040001N1-00351-00431103861ADDAA199000091AY101061AY201061GA1001+999999999GF100991001001999999001001IA1019IA2999-00609KA1120N-00361MD1710051+9999MW1101REMSYN086AAXX  22061 33415 31996 00000 11035 21043 40386 57005 71000 333 21036 555 30106 52107;EQDQ01  00002PRCP99
0122334150999992000102209004+49570+025590FM-12+032499999V0201401N006012200019N0100001N1+00661-00041103791ADDGA1001+999999999GF100991001001999999001001MD1310081+9999REMSYN054AAXX  22091 33415 42997 01406 10066 21004 40379 53008;
0143334150999992000102212004+49570+025590FM-12+032499999V0201401N005012200019N0100001N1+00881-00141103651ADDGA1001+999999999GF100991001001999999001001MA1999999099631MD1810091+9999REMSYN060AAXX  22121 33415 42997 01405 10088 21014 39963 40365 58009;
0122334150999992000102215004+49570+025590FM-12+032499999V0201401N003012200019N0100001N1+00791-00071103561ADDGA1001+999999999GF100991001001999999001001MD1710101+9999REMSYN054AAXX  22151 33415 42997 01403 10079 21007 40356 57010;
0175334150999992000102218004+49570+025590FM-12+032499999V0201401N002012200019N0100001N1+00321-00161103631ADDAA199000091GA1001+999999999GF100991001001999999001001KA1999M+00901MD1710011+9999REMSYN064AAXX  22181 33415 32997 01402 10032 21016 40363 57001 333 10090;EQDQ01  00002PRCP99
0122334150999992000102221004+49570+025590FM-12+032499999V0201401N001012200019N0100001N1+00071-00191103631ADDGA1001+999999999GF100991001001999999001001MD1710031+9999REMSYN054AAXX  22211 33415 42997 01401 10007 21019 40363 57003;
0143334150999992000102300004+49570+025590FM-12+032499999V0201101N001012200019N0100001N1-00131-00281103591ADDGA1001+999999999GF100991001001999999001001MA1999999099411MD1710081+9999REMSYN060AAXX  23001 33415 42997 01101 11013 21028 39941 40359 57008;
0166334150999992000102303004+49570+025590FM-12+032499999V0209999C000012200019N0040001N1-00331-00471103471ADDAY101031AY201031GA1001+999999999GF100991001001999999001001MD1710141+9999MW1101REMSYN076AAXX  23031 33415 41996 00000 11033 21047 40347 57014 71000 555 21034 7000/;
0237334150999992000102306004+49570+025590FM-12+032499999V0201401N001012200019N0020001N1-00341-00451103491ADDAA199000091AY101061AY201061GA1001+999999999GF100991001001999999001001IA1019IA2999-00609KA1120N-00431MD1310021+9999MW1101REMSYN086AAXX  23061 33415 31995 01401 11034 21045 40349 53002 71000 333 21043 555 30106 52107;EQDQ01  00002PRCP99
0112334150999992000102309004+49570+025590FM-12+032499999V0201601N004012200019N0100001N1+00711+00041103271ADDGF102991001001999999001011MD1810051+9999REMSYN060AAXX  23091 33415 42997 21604 10071 20004 40327 58005 80001;
0133334150999992000102312004+49570+025590FM-12+032499999V0201601N003019999999N0100001N1+01281+00231103071ADDGF105991001001999999001011MA1999999099121MD1710121+9999REMSYN066AAXX  23121 33415 42997 51603 10128 20023 39912 40307 57012 80001;
0112334150999992000102315004+49570+025590FM-12+032499999V0201801N002019999999N0100001N1+01091+00191102921ADDGF106991001001999999001011MD1710171+9999REMSYN060AAXX  23151 33415 42997 61802 10109 20019 40292 57017 80001;
0165334150999992000102318004+49570+025590FM-12+032499999V0201801N001019999999N0100001N1+00431-00151102951ADDAA199000091GF106991001001999999001011KA1999M+01291MD1710061+9999REMSYN070AAXX  23181 33415 32997 61801 10043 21015 40295 57006 80001 333 10129;EQDQ01  00002PRCP99
0112334150999992000102321004+49570+025590FM-12+032499999V0209999C000019999999N0100001N1+00121-00201102971ADDGF105991001001999999001011MD1710021+9999REMSYN060AAXX  23211 33415 42997 50000 10012 21020 40297 57002 80001;
0133334150999992000102400004+49570+025590FM-12+032499999V0209999C000019999999N0100001N1+00061-00301102981ADDGF105991001001999999001011MA1999999098851MD1710021+9999REMSYN066AAXX  24001 33415 42997 50000 10006 21030 39885 40298 57002 80001;
0128334150999992000102403004+49570+025590FM-12+032499999V0201101N001012200019N0100001N1-00321-00531102731ADDGF103991001001999999001011MD1210291+9999REMSYN076AAXX  24031 33415 42997 31101 11032 21053 40273 52029 80001 555 21033 7000/;
0243334150999992000102406004+49570+025590FM-12+032499999V0201101N002012200019N0040001N1-00431-00661102641ADDAA199000091AY111061AY211061GF102991001001999999001011IA1019IA2999-00509KA1120N+99999MD1710101+9999MW1101REMSYN092AAXX  24061 33415 31996 21102 11043 21066 40264 57010 71011 80001 333 20044 555 30105 52107;EQDQ01  00002PRCP99Q02 +00442ATMN  
0112334150999992000102409004+49570+025590FM-12+032499999V0201601N002012200019N0100001N1+01001+00251102311ADDGF102991001001999999001011MD1710111+9999REMSYN060AAXX  24091 33415 42997 21602 10100 20025 40231 57011 80001;
0133334150999992000102412004+49570+025590FM-12+032499999V0201801N002012200019N0100001N1+01761+00111101981ADDGF102991001001999999001011MA1999999098141MD1710211+9999REMSYN066AAXX  24121 33415 42997 21802 10176 20011 39814 40198 57021 80001;
0112334150999992000102415004+49570+025590FM-12+032499999V0201601N002012200019N0100001N1+01601+00301101861ADDGF102991001001999999001011MD1710141+9999REMSYN060AAXX  24151 33415 42997 21602 10160 20030 40186 57014 80001;
0165334150999992000102418004+49570+025590FM-12+032499999V0202001N005012200019N0100001N1+00881+00021101931ADDAA199000091GF102991001001999999001011KA1999M+01851MD1710021+9999REMSYN070AAXX  24181 33415 32997 22005 10088 20002 40193 57002 80001 333 10185;EQDQ01  00002PRCP99
0122334150999992000102421004+49570+025590FM-12+032499999V0209999C000012200019N0100001N1+00381-00181102021ADDGA1001+999999999GF100991001001999999001001MD1410001+9999REMSYN054AAXX  24211 33415 42997 00000 10038 21018 40202 54000;
0133334150999992000102500004+49570+025590FM-12+032499999V0202501N002019999999N0100001N1+00321-00121102021ADDGF106991061001999999031001MA1999999097981MD1410001+9999REMSYN066AAXX  25001 33415 42997 62502 10032 21012 39798 40202 54000 86030;
0182334150999992000102503004+49570+025590FM-12+032499999V0202701N004010360019N0100001N1+00721+00381101961ADDAY181031AY221031GA1031+007209099GF107991031031008001031001MD1410001+9999MW1021REMSYN092AAXX  25031 33415 41597 72704 10072 20038 40196 54000 70282 83330 333 83924 555 20032 7990/;
0236334150999992000102506004+49570+025590FM-12+032499999V0202701N004010060019N0040001N1+00701+00341101941ADDAA112000791AY181061AY221061GA1061+006009069GF107991061051008001031001IA1019IA2999+00309KA1120N+00321MD1810021+9999MW1101REMSYN104AAXX  25061 33415 11596 72704 10070 20034 40194 58002 69902 71082 86530 333 20032 86620 555 30003 52002;
0140334150999992000102509004+49570+025590FM-12+032499999V0202501N005010360019N0040001N1+01121+00381101901ADDAY121031AY221031GF107991041051012501031001MD1310011+9999MW1101REMSYN066AAXX  25091 33415 41696 72505 10112 20038 40190 53001 71022 84530;
0133334150999992000102512004+49570+025590FM-12+032499999V0202501N004019999999N0100001N1+01471+00411101771ADDGF106991061001999999031001MA1999999097901MD1810071+9999REMSYN066AAXX  25121 33415 42997 62504 10147 20041 39790 40177 58007 86030;
0112334150999992000102515004+49570+025590FM-12+032499999V0202201N003012200019N0100001N1+01221+00231101681ADDGF104991031001999999031011MD1710121+9999REMSYN060AAXX  25151 33415 42997 42203 10122 20023 40168 57012 83031;
0165334150999992000102518004+49570+025590FM-12+032499999V0201801N004012200019N0100001N1+00771+00041101701ADDAA199000091GF104991021001999999031011KA1999M+01501MD1710091+9999REMSYN070AAXX  25181 33415 32997 41804 10077 20004 40170 57009 82031 333 10150;EQDQ01  00002PRCP99
0112334150999992000102521004+49570+025590FM-12+032499999V0201801N004012200019N0100001N1+00601+00001101601ADDGF103991001001999999001011MD1710071+9999REMSYN060AAXX  25211 33415 42997 31804 10060 20000 40160 57007 80001;
0133334150999992000102600004+49570+025590FM-12+032499999V0209999V001019999999N0100001N1+00641+00221101581ADDGF107991051001999999031011MA1999999097601MD1710021+9999REMSYN066AAXX  26001 33415 42997 79901 10064 20022 39760 40158 57002 85031;
0128334150999992000102603004+49570+025590FM-12+032499999V0201801N002019999999N0100001N1+00641+00301101531ADDGF107991041001999999031011MD1710051+9999REMSYN076AAXX  26031 33415 42997 71802 10064 20030 40153 57005 84031 555 20054 7000/;
0215334150999992000102606004+49570+025590FM-12+032499999V0202001N005019999999N0100001N1+00401+00381101391ADDAA199000091GF107991041001999999031011IA1019IA2999+00309KA1120N+99999MD1710091+9999REMSYN086AAXX  26061 33415 32997 72005 10040 20038 40139 57009 84031 333 20054 555 30003 53002;EQDQ01  00002PRCP99Q02 +00542ATMN  
0112334150999992000102609004+49570+025590FM-12+032499999V0202301N008010360019N0100001N1+01501+00641101341ADDGF106991021051012501031001MD1310031+9999REMSYN060AAXX  26091 33415 42697 62308 10150 20064 40134 53003 82530;
0133334150999992000102612004+49570+025590FM-12+032499999V0202301N006010360019N0100001N1+01641+00301101271ADDGF106991021051012501031001MA1999999097441MD1810051+9999REMSYN066AAXX  26121 33415 42697 62306 10164 20030 39744 40127 58005 82530;
0112334150999992000102615004+49570+025590FM-12+032499999V0202001N007010360019N0100001N1+01641+00301101191ADDGF106991021051012501031001MD1710081+9999REMSYN060AAXX  26151 33415 42697 62007 10164 20030 40119 57008 82530;
0165334150999992000102618004+49570+025590FM-12+032499999V0202001N004019999999N0100001N1+01221+00291101281ADDAA199000091GF106991061001999999031001KA1999M+01681MD1310031+9999REMSYN070AAXX  26181 33415 32997 62004 10122 20029 40128 53003 86030 333 10168;EQDQ01  00002PRCP99
0112334150999992000102621004+49570+025590FM-12+032499999V0202001N002019999999N0100001N1+00981+00461101281ADDGF106991061001999999031001MD1810031+9999REMSYN060AAXX  26211 33415 42997 62002 10098 20046 40128 58003 86030;
0133334150999992000102700004+49570+025590FM-12+032499999V0201401N003019999999N0100001N1+00781+00461101341ADDGF105991051001999999031001MA1999999097401MD1310041+9999REMSYN066AAXX  27001 33415 42997 51403 10078 20046 39740 40134 53004 85030;
0128334150999992000102703004+49570+025590FM-12+032499999V0201601N002019999999N0100001N1+00821+00481101191ADDGF107991041001999999031011MD1810151+9999REMSYN076AAXX  27031 33415 42997 71602 10082 20048 40119 58015 84031 555 20076 7000/;
0180334150999992000102706004+49570+025590FM-12+032499999V0209999V002010120019N0100001N1+00861+00431101151ADDAA112000791AY181061AY221061GF107991051031012501031001KA1999N+00761MD1710021+9999MW1801REMSYN082AAXX  27061 33415 11697 79902 10086 20043 40115 57002 69902 78082 85330 333 20076;
0166334150999992000102709004+49570+025590FM-12+032499999V0202901N004010045019N0040001N1+00971+00901101281ADDAY181031AY221031GA1061+004509099GF107991061031004501051001MD1310131+9999MW1801REMSYN076AAXX  27091 33415 41496 72904 10097 20090 40128 53013 78082 86350 333 86915;
0187334150999992000102712004+49570+025590FM-12+032499999V0202901N004010051019N0040001N1+00941+00711101361ADDAY181061AY221061GA1051+005109099GF107991051031004501051001MA1999999097441MD1210081+9999MW1801REMSYN082AAXX  27121 33415 41496 72904 10094 20071 39744 40136 52008 78082 85350 333 85917;
0166334150999992000102715004+49570+025590FM-12+032499999V0202901N005010360019N0040001N1+00861+00581101441ADDAY181031AY221031GA1041+007509099GF107991041031008001051001MD1210061+9999MW1101REMSYN076AAXX  27151 33415 41596 72905 10086 20058 40144 52006 71082 84350 333 84925;
0180334150999992000102718004+49570+025590FM-12+032499999V0202701N006010120019N0100001N1+00771+00451101631ADDAA112002091AY181061AY221061GF108991051051012501031999KA1999M+00971MD1210181+9999MW1021REMSYN082AAXX  27181 33415 11697 82706 10077 20045 40163 52018 60022 70282 8553/ 333 10097;
0112334150999992000102721004+49570+025590FM-12+032499999V0202701N004012200019N0100001N1+00551+00201101841ADDGF102991021001999999031001MD1210161+9999REMSYN060AAXX  27211 33415 42997 22704 10055 20020 40184 52016 82030;
0133334150999992000102800004+49570+025590FM-12+032499999V0202701N004019999999N0100001N1+00601+00261101941ADDGF108991081001999999031999MA1999999097941MD1210101+9999REMSYN066AAXX  28001 33415 42997 82704 10060 20026 39794 40194 52010 8803/;
0128334150999992000102803004+49570+025590FM-12+032499999V0202701N005010120019N0100001N1+00641+00381102011ADDGF108991051051012501031999MD1210071+9999REMSYN076AAXX  28031 33415 42697 82705 10064 20038 40201 52007 8553/ 555 20054 7002/;
0199334150999992000102806004+49570+025590FM-12+032499999V0202701N005010360019N0100001N1+00631+00371102141ADDAA199000091GF107991041051012501031001IA1099IA2999+00409KA1120N+00541MD1210131+9999REMSYN086AAXX  28061 33415 32697 72705 10063 20037 40214 52013 84530 333 20054 555 31004 52003;EQDQ01  00002PRCP99
0112334150999992000102809004+49570+025590FM-12+032499999V0202701N006010360019N0100001N1+00851+00401102231ADDGF107991021051012501031001MD1210131+9999REMSYN060AAXX  28091 33415 42697 72706 10085 20040 40223 52013 82530;
0133334150999992000102812004+49570+025590FM-12+032499999V0202701N005010120019N0100001N1+01121+00111102221ADDGF107991051021012501031001MA1999999098291MD1210021+9999REMSYN066AAXX  28121 33415 42697 72705 10112 20011 39829 40222 52002 85230;
0112334150999992000102815004+49570+025590FM-12+032499999V0202701N003010360019N0100001N1+00951+00191102281ADDGF107991031051012501031001MD1210021+9999REMSYN060AAXX  28151 33415 42697 72703 10095 20019 40228 52002 83530;
0165334150999992000102818004+49570+025590FM-12+032499999V0202301N001010360019N0100001N1+00691+00171102321ADDAA199000091GF107991021051012501031001KA1999M+01121MD1210011+9999REMSYN070AAXX  28181 33415 32697 72301 10069 20017 40232 52001 82530 333 10112;EQDQ01  00002PRCP99
0142334150999992000102821004+49570+025590FM-12+032499999V0202301N003012200019N0100001N1+00521+00111102341ADDAA199000091GF102991021031999999031001MD1210021+9999REMSYN060AAXX  28211 33415 32997 22303 10052 20011 40234 52002 82330;EQDQ01  00002PRCP99
0143334150999992000102900004+49570+025590FM-12+032499999V0209999C000012200019N0100001N1+00301-00021102471ADDGA1001+999999999GF100991001001999999001001MA1999999098411MD1210071+9999REMSYN060AAXX  29001 33415 42997 00000 10030 21002 39841 40247 52007;
0138334150999992000102903004+49570+025590FM-12+032499999V0209999C000012200019N0100001N1+00191-00091102511ADDGA1001+999999999GF100991001001999999001001MD1210051+9999REMSYN070AAXX  29031 33415 42997 00000 10019 21009 40251 52005 555 20018 7000/;
0227334150999992000102906004+49570+025590FM-12+032499999V0209999V001012200019N0040001N1-00101-00251102431ADDAA199000091AY101061AY201061GF102991001001999999001011IA1019IA2999-00309KA1120N-00111MD1710051+9999MW1101REMSYN092AAXX  29061 33415 31996 29901 11010 21025 40243 57005 71000 80001 333 21011 555 30103 52104;EQDQ01  00002PRCP99
0112334150999992000102909004+49570+025590FM-12+032499999V0201601N004012200019N0100001N1+00801+00231102281ADDGF102991001001999999001011MD1710011+9999REMSYN060AAXX  29091 33415 42997 21604 10080 20023 40228 57001 80001;
0133334150999992000102912004+49570+025590FM-12+032499999V0201601N006019999999N0100001N1+01231+00211102061ADDGF107991031001999999031011MA1999999098141MD1710161+9999REMSYN066AAXX  29121 33415 42997 71606 10123 20021 39814 40206 57016 83031;
0112334150999992000102915004+49570+025590FM-12+032499999V0201601N005019999999N0100001N1+01111+00251102001ADDGF105991001001999999001011MD1710071+9999REMSYN060AAXX  29151 33415 42997 51605 10111 20025 40200 57007 80001;
0165334150999992000102918004+49570+025590FM-12+032499999V0201601N003012200019N0100001N1+00621+00171102031ADDAA199000091GF102991001001999999001011KA1999M+01321MD1710041+9999REMSYN070AAXX  29181 33415 32997 21603 10062 20017 40203 57004 80001 333 10132;EQDQ01  00002PRCP99
0122334150999992000102921004+49570+025590FM-12+032499999V0201801N001012200019N0100001N1+00361+00101102061ADDGA1001+999999999GF100991001001999999001001MD1710011+9999REMSYN054AAXX  29211 33415 42997 01801 10036 20010 40206 57001;
0143334150999992000103000004+49570+025590FM-12+032499999V0201801N002012200019N0100001N1+00341+00131102041ADDGA1001+999999999GF100991001001999999001001MA1999999098001MD1710021+9999REMSYN060AAXX  30001 33415 42997 01802 10034 20013 39800 40204 57002;
0128334150999992000103003004+49570+025590FM-12+032499999V0201401N002012200019N0100001N1+00051-00091102071ADDGF103991001001999999001011MD1710021+9999REMSYN076AAXX  30031 33415 42997 31402 10005 21009 40207 57002 80001 555 20004 7000/;
0227334150999992000103006004+49570+025590FM-12+032499999V0201401N001019999999N0040001N1+00031-00081102091ADDAA199000091AY111061AY211061GF106991001001999999001011IA1019IA2999-00209KA1120N+00021MD1310021+9999MW1101REMSYN092AAXX  30061 33415 31996 61401 10003 21008 40209 53002 71011 80001 333 20002 555 30102 52103;EQDQ01  00002PRCP99
0112334150999992000103009004+49570+025590FM-12+032499999V0201401N002012200019N0100001N1+00911+00321101951ADDGF102991001001999999001011MD1410001+9999REMSYN060AAXX  30091 33415 42997 21402 10091 20032 40195 54000 80001;
0133334150999992000103012004+49570+025590FM-12+032499999V0202001N006012200019N0100001N1+01521+00451101671ADDGF102991001001999999001011MA1999999097811MD1810191+9999REMSYN066AAXX  30121 33415 42997 22006 10152 20045 39781 40167 58019 80001;
0112334150999992000103015004+49570+025590FM-12+032499999V0201601N004012200019N0100001N1+01231+00251101561ADDGF102991001001999999001011MD1710151+9999REMSYN060AAXX  30151 33415 42997 21604 10123 20025 40156 57015 80001;
0165334150999992000103018004+49570+025590FM-12+032499999V0201401N003012200019N0100001N1+00681+00101101531ADDAA199000091GF102991001001999999001011KA1999M+01531MD1710101+9999REMSYN070AAXX  30181 33415 32997 21403 10068 20010 40153 57010 80001 333 10153;EQDQ01  00002PRCP99
0122334150999992000103021004+49570+025590FM-12+032499999V0201401N002012200019N0100001N1+00491+00131101481ADDGA1001+999999999GF100991001001999999001001MD1710071+9999REMSYN054AAXX  30211 33415 42997 01402 10049 20013 40148 57007;
0127334150999992000103100004+49570+025590FM-12+032499999V0201401N002012200019N0100001N1+00431+00151101401ADDGF102991999999999999999999MA1999999097471MD1710021+9999REMSYN060AAXX  31001 33415 42997 21402 10043 20015 39747 40140 57002;
0138334150999992000103103004+49570+025590FM-12+032499999V0200901N002012200019N0100001N1+00321+00081101541ADDGA1001+999999999GF100991001001999999001001MD1310051+9999REMSYN070AAXX  31031 33415 42997 00902 10032 20008 40154 53005 555 20031 7000/;
0199334150999992000103106004+49570+025590FM-12+032499999V0201401N002012200019N0100001N1+00321+00061101501ADDAA199000091GF102991001001999999001011IA1019IA2999+00009KA1120N+00261MD1810041+9999REMSYN086AAXX  31061 33415 32997 21402 10032 20006 40150 58004 80001 333 20026 555 30000 52101;EQDQ01  00002PRCP99
0112334150999992000103109004+49570+025590FM-12+032499999V0201601N004012200019N0100001N1+01131+00411101361ADDGF102991001001999999001011MD1710021+9999REMSYN060AAXX  31091 33415 42997 21604 10113 20041 40136 57002 80001;
0133334150999992000103112004+49570+025590FM-12+032499999V0201401N006012200019N0100001N1+01761+00591101161ADDGF103991021001999999031011MA1999999097351MD1710111+9999REMSYN066AAXX  31121 33415 42997 31406 10176 20059 39735 40116 57011 82031;
0112334150999992000103115004+49570+025590FM-12+032499999V0201401N007012200019N0100001N1+01581+00611101141ADDGF102991001001999999001011MD1710041+9999REMSYN060AAXX  31151 33415 42997 21407 10158 20061 40114 57004 80001;
0165334150999992000103118004+49570+025590FM-12+032499999V0201401N009012200019N0100001N1+01151+00621101151ADDAA199000091GF102991001001999999001011KA1999M+01881MD1710041+9999REMSYN070AAXX  31181 33415 32997 21409 10115 20062 40115 57004 80001 333 10188;EQDQ01  00002PRCP99
0122334150999992000103121004+49570+025590FM-12+032499999V0201401N005012200019N0100001N1+00921+00501101271ADDGA1001+999999999GF100991001001999999001001MD1310071+9999REMSYN054AAXX  31211 33415 42997 01405 10092 20050 40127 53007;
0162334150999992000110100004+49570+025590FM-12+032499999V0201101N004012200019N0100001N1+99999+99999101351ADDGA1001+999999999GF100991001001999999001001MA1999999097391MD1210051+9999REMSYN060AAXX  01001 33415 42997 01104 11070 20043 39739 40135 52005;EQDQ01-000703ATOT  
0138334150999992000110103004+49570+025590FM-12+032499999V0201401N003012200019N0100001N1+00601+00361101401ADDGA1001+999999999GF100991001001999999001001MD1210041+9999REMSYN070AAXX  01031 33415 42997 01403 10060 20036 40140 52004 555 20058 7000/;
0249334150999992000110106004+49570+025590FM-12+032499999V0201401N006010012019N0010001N1+00581+00531101431ADDAA199000091AY111061AY211061GA1081+001209079GF108991081061001501999999IA1019IA2999+00409KA1120N+00561MD1210031+9999MW1101REMSYN098AAXX  01061 33415 31294 81406 10058 20053 40143 52003 71011 886// 333 20056 88704 555 30004 52004;EQDQ01  00002PRCP99
0166334150999992000110109004+49570+025590FM-12+032499999V0201401N007010018019N0020001N1+00801+00671101451ADDAY121031AY221031GA1081+001809069GF108991081061001501999999MD1210051+9999MW1101REMSYN076AAXX  01091 33415 41295 81407 10080 20067 40145 52005 71022 886// 333 88706;
0187334150999992000110112004+49570+025590FM-12+032499999V0201401N006010033019N0040001N1+01031+00671101271ADDAY111061AY211061GA1071+003309099GF107991071031002501001001MA1999999097371MD1710131+9999MW1101REMSYN082AAXX  01121 33415 41396 71406 10103 20067 39737 40127 57013 71011 87300 333 87911;
0166334150999992000110115004+49570+025590FM-12+032499999V0201401N008010030019N0040001N1+00891+00671101181ADDAY121031AY221031GA1071+003009059GF107991071051002501001001MD1710101+9999MW1101REMSYN076AAXX  01151 33415 41396 71408 10089 20067 40118 57010 71022 87500 333 87610;
0165334150999992000110118004+49570+025590FM-12+032499999V0201401N005012200019N0100001N1+00881+00481101171ADDAA199000091GF102991021001999999031001KA1999M+01081MD1710021+9999REMSYN070AAXX  01181 33415 32997 21405 10088 20048 40117 57002 82030 333 10108;EQDQ01  00002PRCP99
0166334150999992000110121004+49570+025590FM-12+032499999V0201401N008010036019N0040001N1+00951+00811101041ADDAY121031AY221031GA1051+003609059GF106991051031004501031001MD1710121+9999MW1101REMSYN076AAXX  01211 33415 41496 61408 10095 20081 40104 57012 71022 85330 333 85612;
0187334150999992000110200004+49570+025590FM-12+032499999V0201601N007010033019N0040001N1+00961+00811100981ADDAY121061AY221061GA1061+003309059GF107991061051004501031001MA1999999097081MD1710051+9999MW1101REMSYN082AAXX  02001 33415 41496 71607 10096 20081 39708 40098 57005 71022 86530 333 86611;
0182334150999992000110203004+49570+025590FM-12+032499999V0209999C000010030019N0020001N1+00901+00811101091ADDAY181031AY281031GA1061+003009099GF107991061031004501031001MD1310091+9999MW1101REMSYN092AAXX  02031 33415 41495 70000 10090 20081 40109 53009 71088 86330 333 86910 555 20090 7001/;
0221334150999992000110206004+49570+025590FM-12+032499999V0202301N003010021019N0020001N1+00931+00851101201ADDAA112001091AY181061AY261061GA1071+002109069GF108991999071002501021999KA1120N+00901MD1210121+9999MW1611REMSYN088AAXX  02061 33415 11395 82303 10093 20085 40120 52012 60012 76186 8872/ 333 20090 87707;EQDQ01+000082SCOTLC
0166334150999992000110209004+49570+025590FM-12+032499999V0202901N005010021019N0040001N1+00981+00901101361ADDAY161031AY221031GA1051+002109069GF108991081051002501999999MD1210151+9999MW1101REMSYN076AAXX  02091 33415 41396 82905 10098 20090 40136 52015 71062 885// 333 85707;
0187334150999992000110212004+49570+025590FM-12+032499999V0202701N002010030019N0100001N1+01021+00771101411ADDAY161061AY221061GA1071+003009059GF107991071051004501001001MA1999999097501MD1210061+9999MW1021REMSYN082AAXX  02121 33415 41497 72702 10102 20077 39750 40141 52006 70262 87500 333 87610;
0138334150999992000110215004+49570+025590FM-12+032499999V0209999C000010051019N0100001N1+00981+00811101451ADDGA1071+005109059GF107991071051004501001001MD1210031+9999REMSYN070AAXX  02151 33415 42497 70000 10098 20081 40145 52003 87500 333 87617;
0190334150999992000110218004+49570+025590FM-12+032499999V0209999C000012200019N0005001N1+00581+00581101561ADDAA112000791AY141061AY221061GA1001+999999999GF100991001001999999001001KA1999M+01061MD1210051+9999MW1461REMSYN076AAXX  02181 33415 11993 00000 10058 20058 40156 52005 69902 74642 333 10106;
0150334150999992000110221004+49570+025590FM-12+032499999V0209999C000012200019N0005001N1+00321+00321101671ADDAY141031AY201031GA1001+999999999GF100991001001999999001001MD1210071+9999MW1441REMSYN060AAXX  02211 33415 41993 00000 10032 20032 40167 52007 74440;
0171334150999992000110300004+49570+025590FM-12+032499999V0209999C000012200019N0005001N1+00341+00341101671ADDAY141061AY201061GA1001+999999999GF100991001001999999001001MA1999999097651MD1410001+9999MW1441REMSYN066AAXX  03001 33415 41993 00000 10034 20034 39765 40167 54000 74440;
0166334150999992000110303004+49570+025590FM-12+032499999V0209999C000012200019N0005001N1+00361+00361101661ADDAY141031AY201031GA1001+999999999GF100991001001999999001001MD1410001+9999MW1421REMSYN076AAXX  03031 33415 41993 00000 10036 20036 40166 54000 74240 555 20032 7990/;
0215334150999992000110306004+49570+025590FM-12+032499999V0201401N004010021019N0020001N1+00701+00611101691ADDAA199000091AY141061AY221061GA1081+002109069GF108991081061002501999999KA1120N+00321MD1310071+9999MW1101REMSYN082AAXX  03061 33415 31395 81404 10070 20061 40169 53007 71042 886// 333 20032 88707;EQDQ01  00002PRCP99
0166334150999992000110309004+49570+025590FM-12+032499999V0201101N005010021019N0040001N1+01031+00781101681ADDAY121031AY221031GA1061+002109069GF106991061061002501001001MD1210041+9999MW1101REMSYN076AAXX  03091 33415 41396 61105 10103 20078 40168 52004 71022 86600 333 86707;
0187334150999992000110312004+49570+025590FM-12+032499999V0201401N007010024019N0040001N1+00981+00801101671ADDAY121061AY221061GA1061+002409069GF106991061061002501001001MA1999999097741MD1810021+9999MW1101REMSYN082AAXX  03121 33415 41396 61407 10098 20080 39774 40167 58002 71022 86600 333 86708;
0140334150999992000110315004+49570+025590FM-12+032499999V0201401N004019999999N0040001N1+01011+00841101641ADDAY111031AY211031GF106991001001999999001011MD1710031+9999MW1101REMSYN066AAXX  03151 33415 41996 61404 10101 20084 40164 57003 71011 80001;
0193334150999992000110318004+49570+025590FM-12+032499999V0201401N004019999999N0040001N1+00761+00621101691ADDAA199000091AY111061AY211061GF106991001001999999001011KA1999M+01051MD1310021+9999MW1101REMSYN076AAXX  03181 33415 31996 61404 10076 20062 40169 53002 71011 80001 333 10105;EQDQ01  00002PRCP99
0140334150999992000110321004+49570+025590FM-12+032499999V0201401N005019999999N0040001N1+00701+00641101741ADDAY121031AY221031GF106991001001999999001011MD1210041+9999MW1101REMSYN066AAXX  03211 33415 41996 61405 10070 20064 40174 52004 71022 80001;
0187334150999992000110400004+49570+025590FM-12+032499999V0201401N004010012019N0010001N1+00701+00681101731ADDAY121061AY221061GA1081+001209069GF108991081061001501999999MA1999999097761MD1810011+9999MW1101REMSYN082AAXX  04001 33415 41294 81404 10070 20068 39776 40173 58001 71022 886// 333 88704;
0166334150999992000110403004+49570+025590FM-12+032499999V0201401N006010003019N0005001N1+00751+00751101711ADDAY141031AY221031GA1091+999999999GF109991091999999999999999MD1710011+9999MW1451REMSYN076AAXX  04031 33415 41/93 91406 10075 20075 40171 57001 74542 555 20062 7000/;
0202334150999992000110406004+49570+025590FM-12+032499999V0201401N008010021019N0040001N1+00741+00671101711ADDAA112000791AY151061AY241061GA1081+002109069GF108991081061002501999999KA1120N+00621MD1410001+9999MW1511REMSYN088AAXX  04061 33415 11396 81408 10074 20067 40171 54000 69902 75154 886// 333 20062 88707;
0166334150999992000110409004+49570+025590FM-12+032499999V0201401N006010027019N0040001N1+00921+00731101741ADDAY151031AY221031GA1081+002709069GF108991081061002501999999MD1310041+9999MW1101REMSYN076AAXX  04091 33415 41396 81406 10092 20073 40174 53004 71052 886// 333 88709;
0187334150999992000110412004+49570+025590FM-12+032499999V0201401N005010042019N0040001N1+01031+00711101671ADDAY151061AY221061GA1081+004209059GF108991081051004501999999MA1999999097711MD1810081+9999MW1101REMSYN082AAXX  04121 33415 41496 81405 10103 20071 39771 40167 58008 71052 885// 333 88614;
0166334150999992000110415004+49570+025590FM-12+032499999V0201401N006010045019N0040001N1+01061+00771101591ADDAY121031AY221031GA1061+004509059GF107991061051004501031001MD1710031+9999MW1101REMSYN076AAXX  04151 33415 41496 71406 10106 20077 40159 57003 71022 86530 333 86615;
0202334150999992000110418004+49570+025590FM-12+032499999V0201401N008010039019N0040001N1+01021+00811101571ADDAA112000791AY121061AY221061GA1061+003909059GF107991061051004501031001KA1120M+01091MD1710021+9999MW1101REMSYN088AAXX  04181 33415 11496 71408 10102 20081 40157 57002 69902 71022 86530 333 10109 86613;
0166334150999992000110421004+49570+025590FM-12+032499999V0201401N006010033019N0040001N1+01091+00901101491ADDAY121031AY221031GA1081+003309059GF108991081061004501999999MD1710081+9999MW1101REMSYN076AAXX  04211 33415 41496 81406 10109 20090 40149 57008 71022 886// 333 88611;
0187334150999992000110500004+49570+025590FM-12+032499999V0201401N005010027019N0040001N1+01131+00931101361ADDAY121061AY221061GA1081+002709069GF108991081061002501999999MA1999999097471MD1710111+9999MW1101REMSYN082AAXX  05001 33415 41396 81405 10113 20093 39747 40136 57011 71022 886// 333 88709;
0182334150999992000110503004+49570+025590FM-12+032499999V0201401N006010024019N0040001N1+01111+00951101301ADDAY121031AY221031GA1081+002409079GF108991081061002501999999MD1710061+9999MW1101REMSYN092AAXX  05031 33415 41396 81406 10111 20095 40130 57006 71022 886// 333 88708 555 20102 7990/;
0215334150999992000110506004+49570+025590FM-12+032499999V0201401N006010030019N0040001N1+01091+00931101361ADDAA199000091AY121061AY221061GA1061+003009069GF107991061071004501031001KA1120N+01021MD1310051+9999MW1101REMSYN082AAXX  05061 33415 31496 71406 10109 20093 40136 53005 71022 86730 333 20102 86710;EQDQ01  00002PRCP99
0112334150999992000110509004+49570+025590FM-12+032499999V0202001N005012200019N0100001N1+01431+00811101441ADDGF102991001001999999001011MD1210131+9999REMSYN060AAXX  05091 33415 42997 22005 10143 20081 40144 52013 80001;
0133334150999992000110512004+49570+025590FM-12+032499999V0202501N008012200019N0100001N1+01621+00271101521ADDGF103991021011008001001011MA1999999097681MD1210091+9999REMSYN066AAXX  05121 33415 42597 32508 10162 20027 39768 40152 52009 82101;
0112334150999992000110515004+49570+025590FM-12+032499999V0202701N005019999999N0100001N1+01081+00411101731ADDGF105991021001999999031011MD1210131+9999REMSYN060AAXX  05151 33415 42997 52705 10108 20041 40173 52013 82031;
0165334150999992000110518004+49570+025590FM-12+032499999V0202201N001019999999N0100001N1+00631+00401101941ADDAA199000091GF107991031001999999031011KA1999M+01621MD1210131+9999REMSYN070AAXX  05181 33415 32997 72201 10063 20040 40194 52013 83031 333 10162;EQDQ01  00002PRCP99
0112334150999992000110521004+49570+025590FM-12+032499999V0202001N002019999999N0100001N1+00461+00291101981ADDGF107991041001999999031011MD1210031+9999REMSYN060AAXX  05211 33415 42997 72002 10046 20029 40198 52003 84031;
0133334150999992000110600004+49570+025590FM-12+032499999V0209999C000019999999N0100001N1+00381+00231101931ADDGF107991021001999999031011MA1999999097901MD1810071+9999REMSYN066AAXX  06001 33415 42997 70000 10038 20023 39790 40193 58007 82031;
0156334150999992000110603004+49570+025590FM-12+032499999V0209999C000012200019N0040001N1+00261+00211101891ADDAY111031AY211031GF103991001001999999001011MD1710061+9999MW1101REMSYN082AAXX  06031 33415 41996 30000 10026 20021 40189 57006 71011 80001 555 20024 7000/;
0193334150999992000110606004+49570+025590FM-12+032499999V0209999C000019999999N0020001N1+00111+00061101721ADDAA199000091AY111061AY211061GF105991001001999999001011KA1999N+00071MD1710171+9999MW1101REMSYN076AAXX  06061 33415 31995 50000 10011 20006 40172 57017 71011 80001 333 20007;EQDQ01  00002PRCP99
0112334150999992000110609004+49570+025590FM-12+032499999V0200901N003019999999N0100001N1+00801+00381101571ADDGF106991021001999999031011MD1710051+9999REMSYN060AAXX  06091 33415 42997 60903 10080 20038 40157 57005 82031;
0159334150999992000110612004+49570+025590FM-12+032499999V0201401N005010360019N0100001N1+01101+00731101351ADDGA1041+003609059GF107991041051004501031001MA1999999097451MD1710171+9999REMSYN076AAXX  06121 33415 42497 71405 10110 20073 39745 40135 57017 84530 333 84612;
0166334150999992000110615004+49570+025590FM-12+032499999V0201101N004010024019N0040001N1+00941+00801101261ADDAY121031AY221031GA1051+002409069GF107991051071002501031001MD1710111+9999MW1101REMSYN076AAXX  06151 33415 41396 71104 10094 20080 40126 57011 71022 85730 333 85708;
0215334150999992000110618004+49570+025590FM-12+032499999V0201101N003010027019N0040001N1+00941+00861101221ADDAA199000091AY121061AY221061GA1081+002709069GF108991081061002501999999KA1120M+01131MD1710041+9999MW1101REMSYN082AAXX  06181 33415 31396 81103 10094 20086 40122 57004 71022 886// 333 10113 88709;EQDQ01  00002PRCP99
0166334150999992000110621004+49570+025590FM-12+032499999V0201401N005010360019N0019001N1+00961+00881101141ADDAY121031AY221031GA1041+003609059GF107991041051004501031001MD1710071+9999MW1101REMSYN076AAXX  06211 33415 41419 71405 10096 20088 40114 57007 71022 84530 333 84612;
0187334150999992000110700004+49570+025590FM-12+032499999V0201101N005010033019N0040001N1+00931+00851101061ADDAY121061AY221061GA1051+003309059GF107991051051004501031001MA1999999097151MD1710081+9999MW1101REMSYN082AAXX  07001 33415 41496 71105 10093 20085 39715 40106 57008 71022 85530 333 85611;
0182334150999992000110703004+49570+025590FM-12+032499999V0201401N007010360019N0040001N1+00971+00861100951ADDAY121031AY221031GA1041+004209069GF107991041051004501031001MD1710101+9999MW1101REMSYN092AAXX  07031 33415 41496 71407 10097 20086 40095 57010 71022 84530 333 84614 555 20092 7000/;
0215334150999992000110706004+49570+025590FM-12+032499999V0201101N005010030019N0040001N1+00981+00851100851ADDAA199000091AY121061AY221061GA1051+003009059GF107991051051004501031001KA1120N+00921MD1710101+9999MW1101REMSYN082AAXX  07061 33415 31496 71105 10098 20085 40085 57010 71022 85530 333 20092 85610;EQDQ01  00002PRCP99
0138334150999992000110709004+49570+025590FM-12+032499999V0201301N008010048019N0100001N1+01111+00821100751ADDGA1051+004809059GF107991051051004501031001MD1710081+9999REMSYN070AAXX  07091 33415 42497 71308 10111 20082 40075 57008 85530 333 85616;
0159334150999992000110712004+49570+025590FM-12+032499999V0201401N006010063019N0100001N1+01171+00711100551ADDGA1051+006309059GF107991051051008001031001MA1999999096691MD1710181+9999REMSYN076AAXX  07121 33415 42597 71406 10117 20071 39669 40055 57018 85530 333 85621;
0138334150999992000110715004+49570+025590FM-12+032499999V0201401N009010063019N0100001N1+01061+00641100421ADDGA1051+006309059GF107991051051008001031001MD1710141+9999REMSYN070AAXX  07151 33415 42597 71409 10106 20064 40042 57014 85530 333 85621;
0187334150999992000110718004+49570+025590FM-12+032499999V0201401N009010360019N0100001N1+01081+00801100321ADDAA199000091GA1041+006609059GF107991041051008001031001KA1120M+01191MD1710091+9999REMSYN076AAXX  07181 33415 32597 71409 10108 20080 40032 57009 84530 333 10119 84622;EQDQ01  00002PRCP99
0166334150999992000110721004+49570+025590FM-12+032499999V0201401N008010057019N0100001N1+01071+00901100381ADDAY181031AY221031GA1051+005709099GF107991051031008001031001MD1310051+9999MW1801REMSYN076AAXX  07211 33415 41597 71408 10107 20090 40038 53005 78082 85330 333 85919;
0190334150999992000110806004+49570+025590FM-12+032499999V0201601N006010003019N0005001N1+00861+00861100701ADDAA112001091AY141061AY221061GA1091+999999999GF109991091999999999999999KA1999N+00851MD1210261+9999MW1451REMSYN076AAXX  08061 33415 31/93 91606 10086 20086 40070 52026 60012 74542 333 20085;
0166334150999992000110809004+49570+025590FM-12+032499999V0201401N006012200019N0040001N1+01161+00971100731ADDAY141031AY211031GA1031+006009059GF103991031051008001001001MD1210081+9999MW1101REMSYN076AAXX  08091 33415 41596 31406 10116 20097 40073 52008 71041 83500 333 83620;
0161334150999992000110812004+49570+025590FM-12+032499999V0201401N007010360019N0100001N1+01441+01001100561ADDAY141061AY211061GF107991031051012501031001MA1999999096741MD1810131+9999MW1031REMSYN072AAXX  08121 33415 41697 71407 10144 20100 39674 40056 58013 70341 83530;
0166334150999992000110815004+49570+025590FM-12+032499999V0202001N005010066019N0100001N1+01141+00851100631ADDAY181031AY221031GA1051+006609099GF107991051031008001031001MD1310031+9999MW1251REMSYN076AAXX  08151 33415 41597 72005 10114 20085 40063 53003 72582 85330 333 85922;
0180334150999992000110818004+49570+025590FM-12+032499999V0201801N006012200019N0100001N1+00911+00711100881ADDAA112002091AY181061AY221061GF102991021001999999031001KA1999M+01461MD1210201+9999MW1021REMSYN082AAXX  08181 33415 11997 21806 10091 20071 40088 52020 60022 70282 82030 333 10146;
0122334150999992000110821004+49570+025590FM-12+032499999V0201601N005012200019N0100001N1+00701+00551101301ADDGA1001+999999999GF100991001001999999001001MD1210371+9999REMSYN054AAXX  08211 33415 42997 01605 10070 20055 40130 52037;
0133334150999992000110900004+49570+025590FM-12+032499999V0201601N004012200019N0100001N1+00521+00401101401ADDGF102991021001999999031001MA1999999097411MD1210071+9999REMSYN066AAXX  09001 33415 42997 21604 10052 20040 39741 40140 52007 82030;
0128334150999992000110903004+49570+025590FM-12+032499999V0201401N002012200019N0100001N1+00371+00241101511ADDGF102991021001999999031001MD1210091+9999REMSYN076AAXX  09031 33415 42997 21402 10037 20024 40151 52009 82030 555 20034 7002/;
0165334150999992000110906004+49570+025590FM-12+032499999V0209999C000012200019N0100001N1+00281+00181101601ADDAA199000091GF104991021001999999031011KA1999N+00151MD1210081+9999REMSYN070AAXX  09061 33415 32997 40000 10028 20018 40160 52008 82031 333 20015;EQDQ01  00002PRCP99
0150334150999992000110909004+49570+025590FM-12+032499999V0201301N006010003019N0005001N1+00891+00891101531ADDAY141031AY221031GA1091+999999999GF109991091999999999999999MD1210011+9999MW1471REMSYN060AAXX  09091 33415 41/93 91306 10089 20089 40153 52001 74742;
0187334150999992000110912004+49570+025590FM-12+032499999V0201301N006010360019N0040001N1+01181+01031101291ADDAY141061AY221061GA1041+002409069GF107991041071002501031001MA1999999097401MD1810191+9999MW1101REMSYN082AAXX  09121 33415 41396 71306 10118 20103 39740 40129 58019 71042 84730 333 84708;
0166334150999992000110915004+49570+025590FM-12+032499999V0201601N004010042019N0040001N1+01061+00941101361ADDAY181031AY221031GA1051+004209099GF107991051031004501031001MD1310061+9999MW1251REMSYN076AAXX  09151 33415 41496 71604 10106 20094 40136 53006 72582 85330 333 85914;
0202334150999992000110918004+49570+025590FM-12+032499999V0201401N003010060019N0100001N1+00721+00611101521ADDAA112002091AY181061AY221061GA1051+006009059GF107991051051008001031001KA1120M+01181MD1210091+9999MW1021REMSYN088AAXX  09181 33415 11597 71403 10072 20061 40152 52009 60022 70282 85530 333 10118 85620;
0112334150999992000110921004+49570+025590FM-12+032499999V0202301N003019999999N0100001N1+00581+00391101691ADDGF105991051001999999031001MD1210151+9999REMSYN060AAXX  09211 33415 42997 52303 10058 20039 40169 52015 85030;
0133334150999992000111000004+49570+025590FM-12+032499999V0202701N002012200019N0100001N1+00521+00351101861ADDGF102991001001999999001011MA1999999097861MD1210161+9999REMSYN066AAXX  10001 33415 42997 22702 10052 20035 39786 40186 52016 80001;
0128334150999992000111003004+49570+025590FM-12+032499999V0202501N002012200019N0100001N1+00301+00141101961ADDGF102991001001999999001011MD1210061+9999REMSYN076AAXX  10031 33415 42997 22502 10030 20014 40196 52006 80001 555 20030 7002/;
0165334150999992000111006004+49570+025590FM-12+032499999V0202001N002012200019N0100001N1+00061-00021102111ADDAA199000091GF102991001001999999001011KA1999N+00061MD1210101+9999REMSYN070AAXX  10061 33415 32997 22002 10006 21002 40211 52010 80001 333 20006;EQDQ01  00002PRCP99
0112334150999992000111009004+49570+025590FM-12+032499999V0209999V001019999999N0100001N1+00671+00461102041ADDGF107991001001999999001011MD1210041+9999REMSYN060AAXX  10091 33415 42997 79901 10067 20046 40204 52004 80001;
0133334150999992000111012004+49570+025590FM-12+032499999V0201101N003019999999N0100001N1+00941+00641101941ADDGF107991041001999999031011MA1999999098001MD1810061+9999REMSYN066AAXX  10121 33415 42997 71103 10094 20064 39800 40194 58006 84031;
0112334150999992000111015004+49570+025590FM-12+032499999V0209999V002010360019N0100001N1+00891+00651101931ADDGF107991041051012501031001MD1710021+9999REMSYN060AAXX  10151 33415 42697 79902 10089 20065 40193 57002 84530;
0180334150999992000111018004+49570+025590FM-12+032499999V0209999C000010120019N0100001N1+00741+00581101951ADDAA112000791AY181061AY221061GF108991081031012501999999KA1999M+00971MD1710011+9999MW1801REMSYN082AAXX  10181 33415 11697 80000 10074 20058 40195 57001 69902 78082 883// 333 10097;
0150334150999992000111021004+49570+025590FM-12+032499999V0209999C000012200019N0005001N1+00521+00521101971ADDAY181031AY241031GA1001+999999999GF100991001001999999001001MD1710011+9999MW1441REMSYN060AAXX  10211 33415 41993 00000 10052 20052 40197 57001 74484;
0187334150999992000111100004+49570+025590FM-12+032499999V0202901N004010039019N0040001N1+00601+00531101971ADDAY181061AY241061GA1081+003909099GF108991081031004501999999MA1999999097971MD1310011+9999MW1801REMSYN082AAXX  11001 33415 41496 82904 10060 20053 39797 40197 53001 78084 883// 333 88913;
0182334150999992000111103004+49570+025590FM-12+032499999V0202501N004010048019N0100001N1+00551+00431102031ADDAY181031AY221031GA1061+004809099GF107991071031004501031001MD1210051+9999MW1801REMSYN092AAXX  11031 33415 41497 72504 10055 20043 40203 52005 78082 87330 333 86916 555 20052 7007/;
0202334150999992000111106004+49570+025590FM-12+032499999V0202901N006010039019N0040001N1+00571+00481102141ADDAA112007191AY181061AY221061GA1061+003909099GF108991061031004501031999KA1120N+00521MD1210121+9999MW1801REMSYN088AAXX  11061 33415 11496 82906 10057 20048 40214 52012 60072 78082 8633/ 333 20052 86913;
0166334150999992000111109004+49570+025590FM-12+032499999V0202901N006010042019N0040001N1+00661+00521102341ADDAY181031AY221031GA1041+004209099GF107991061051004501031001MD1210201+9999MW1101REMSYN076AAXX  11091 33415 41496 72906 10066 20052 40234 52020 71082 86530 333 84914;
0187334150999992000111112004+49570+025590FM-12+032499999V0202901N005010075019N0040001N1+00701+00341102421ADDAY181061AY221061GA1031+007509099GF107991061051008001031001MA1999999098421MD1210081+9999MW1101REMSYN082AAXX  11121 33415 41596 72905 10070 20034 39842 40242 52008 71082 86530 333 83925;
0140334150999992000111115004+49570+025590FM-12+032499999V0202701N003012200019N0100001N1+00531+00291102521ADDAY121031AY221031GF106991021051012501001011MD1210071+9999MW1101REMSYN066AAXX  11151 33415 41697 62703 10053 20029 40252 52007 71022 82501;
0180334150999992000111118004+49570+025590FM-12+032499999V0202501N004019999999N0040001N1+00321+00111102631ADDAA112000791AY121061AY221061GF106991031001999999031011KA1999M+00721MD1210071+9999MW1101REMSYN082AAXX  11181 33415 31996 62504 10032 20011 40263 52007 69902 71022 83031 333 10072;
0140334150999992000111121004+49570+025590FM-12+032499999V0202501N002019999999N0040001N1+00341+00191102701ADDAY121031AY221031GF107991061001999999031011MD1210071+9999MW1101REMSYN066AAXX  11211 33415 41996 72502 10034 20019 40270 52007 71022 86031;
0161334150999992000111200004+49570+025590FM-12+032499999V0202701N004010360019N0040001N1+00401+00281102761ADDAY181061AY221061GF107991021031012501031001MA1999999098701MD1210071+9999MW1101REMSYN072AAXX  12001 33415 41696 72704 10040 20028 39870 40276 52007 71082 82330;
0156334150999992000111203004+49570+025590FM-12+032499999V0202701N003010360019N0040001N1+00321+00171102771ADDAY121031AY221031GF107991021051012501031001MD1410001+9999MW1101REMSYN082AAXX  12031 33415 41696 72703 10032 20017 40277 54000 71022 82530 555 20028 7990/;
0157334150999992000111206004+49570+025590FM-12+032499999V0202301N002010900019N0040001N1+00271+00111102751ADDAA112000791AY121061AY221061GF107991021051012501001031MD1810021+9999MW1101REMSYN072AAXX  12061 33415 31696 72302 10027 20011 40275 58002 69902 71022 82503;
0112334150999992000111209004+49570+025590FM-12+032499999V0202001N004012200019N0100001N1+00691+00121102741ADDGF102991001001999999001011MD1310041+9999REMSYN060AAXX  12091 33415 42997 22004 10069 20012 40274 53004 80001;
0133334150999992000111212004+49570+025590FM-12+032499999V0202001N003012200019N0100001N1+00821+00061102621ADDGF105991021051008001001011MA1999999098631MD1810091+9999REMSYN066AAXX  12121 33415 42597 52003 10082 20006 39863 40262 58009 82501;
0112334150999992000111215004+49570+025590FM-12+032499999V0201401N003012200019N0100001N1+00581+00131102491ADDGF102991001001999999001011MD1710151+9999REMSYN060AAXX  12151 33415 42997 21403 10058 20013 40249 57015 80001;
0175334150999992000111218004+49570+025590FM-12+032499999V0201401N003012200019N0100001N1+00251+00011102471ADDAA199000091GA1001+999999999GF100991001001999999001001KA1999M+00831MD1710081+9999REMSYN064AAXX  12181 33415 32997 01403 10025 20001 40247 57008 333 10083;EQDQ01  00002PRCP99
0122334150999992000111221004+49570+025590FM-12+032499999V0201101N003012200019N0100001N1+00101-00071102371ADDGA1001+999999999GF100991001001999999001001MD1710111+9999REMSYN054AAXX  12211 33415 42997 01103 10010 21007 40237 57011;
0133334150999992000111300004+49570+025590FM-12+032499999V0201101N002019999999N0100001N1+00051-00121102211ADDGF106991001001999999001011MA1999999098121MD1710171+9999REMSYN066AAXX  13001 33415 42997 61102 10005 21012 39812 40221 57017 80001;
0156334150999992000111303004+49570+025590FM-12+032499999V0201101N004012200019N0040001N1-00031-00151102081ADDAY111031AY211031GF103991001001999999001011MD1710141+9999MW1101REMSYN082AAXX  13031 33415 41996 31104 11003 21015 40208 57014 71011 80001 555 21005 7000/;
0140334150999992000111309004+49570+025590FM-12+032499999V0201401N006019999999N0040001N1+00281+00071101841ADDAY121031AY221031GF105991001001999999001011MD1710031+9999MW1101REMSYN066AAXX  13091 33415 41996 51406 10028 20007 40184 57003 71022 80001;
0112334150999992000111315004+49570+025590FM-12+032499999V0201401N004019999999N0100001N1+00561+00291101531ADDGF107991031001999999031011MD1710151+9999REMSYN060AAXX  13151 33415 42997 71404 10056 20029 40153 57015 83031;
0165334150999992000111318004+49570+025590FM-12+032499999V0201401N003019999999N0100001N1+00541+00321101531ADDAA199000091GF107991021001999999031011KA1999M+00721MD1710021+9999REMSYN070AAXX  13181 33415 32997 71403 10054 20032 40153 57002 82031 333 10072;EQDQ01  00002PRCP99
0112334150999992000111321004+49570+025590FM-12+032499999V0201101N001019999999N0100001N1+00321+00141101561ADDGF105991021001999999031011MD1310011+9999REMSYN060AAXX  13211 33415 42997 51101 10032 20014 40156 53001 82031;
0133334150999992000111400004+49570+025590FM-12+032499999V0201401N002012200019N0100001N1+00211+00111101581ADDGF103991001001999999001011MA1999999097541MD1410001+9999REMSYN066AAXX  14001 33415 42997 31402 10021 20011 39754 40158 54000 80001;
0128334150999992000111403004+49570+025590FM-12+032499999V0201401N002012200019N0100001N1+00191+00081101571ADDGF102991001001999999001011MD1810011+9999REMSYN076AAXX  14031 33415 42997 21402 10019 20008 40157 58001 80001 555 20018 7000/;
0135334150999992000111406004+49570+025590FM-12+032499999V0201101N003012200019N0100001N1+00261+00161101571ADDGF102991001001999999001011KA1999N+00181MD1410001+9999REMSYN070AAXX  14061 33415 42997 21103 10026 20016 40157 54000 80001 333 20018;
0141334150999992000111409004+49570+025590FM-12+032499999V0201401N004012200019N0100001N1+99999+99999101451ADDGA1001+999999999GF100991001001999999001001MD1810021+9999REMSYN054AAXX  14091 33415 42997 01404 11093 20053 40145 58002;EQDQ01-000933ATOT  
0152334150999992000111412004+49570+025590FM-12+032499999V0201401N003012200019N0100001N1+01471+00701101461ADDGF102991001001999999001999MA1999999097511MD1410001+9999REMSYN066AAXX  14121 33415 42797 21403 10147 20070 39751 40146 54000 8000/;EQDQ01+017502SCOLCB
0112334150999992000111415004+49570+025590FM-12+032499999V0201401N004012200019N0100001N1+01161+00771101421ADDGF102991001001999999001011MD1410001+9999REMSYN060AAXX  14151 33415 42997 21404 10116 20077 40142 54000 80001;
0165334150999992000111418004+49570+025590FM-12+032499999V0201401N004012200019N0100001N1+00811+00511101521ADDAA199000091GF102991001001999999001011KA1999M+01491MD1310061+9999REMSYN070AAXX  14181 33415 32997 21404 10081 20051 40152 53006 80001 333 10149;EQDQ01  00002PRCP99
0112334150999992000111421004+49570+025590FM-12+032499999V0201401N002012200019N0100001N1+00631+00401101551ADDGF102991001001999999001011MD1410001+9999REMSYN060AAXX  14211 33415 42997 21402 10063 20040 40155 54000 80001;
0133334150999992000111500004+49570+025590FM-12+032499999V0201101N002012200019N0100001N1+00531+00391101651ADDGF102991001001999999001011MA1999999097651MD1310081+9999REMSYN066AAXX  15001 33415 42997 21102 10053 20039 39765 40165 53008 80001;
0128334150999992000111503004+49570+025590FM-12+032499999V0201101N003012200019N0100001N1+00481+00361101651ADDGF102991001001999999001011MD1410001+9999REMSYN076AAXX  15031 33415 42997 21103 10048 20036 40165 54000 80001 555 20047 7000/;
0193334150999992000111506004+49570+025590FM-12+032499999V0201401N003019999999N0040001N1+00581+00461101631ADDAA199000091AY121061AY211061GF105991031001999999031011KA1999N+00471MD1410001+9999MW1101REMSYN076AAXX  15061 33415 31996 51403 10058 20046 40163 54000 71021 83031 333 20047;EQDQ01  00002PRCP99
0112334150999992000111509004+49570+025590FM-12+032499999V0201101N002010360019N0100001N1+00971+00671101701ADDGF106991021051012501031001MD1310121+9999REMSYN060AAXX  15091 33415 42697 61102 10097 20067 40170 53012 82530;
0112334150999992000111515004+49570+025590FM-12+032499999V0201601N003019999999N0100001N1+01261+00811101771ADDGF106991061001999999031001MD1210011+9999REMSYN060AAXX  15151 33415 42997 61603 10126 20081 40177 52001 86030;
0165334150999992000111518004+49570+025590FM-12+032499999V0201401N002019999999N0100001N1+00951+00711101941ADDAA199000091GF106991061001999999031001KA1999M+01641MD1210121+9999REMSYN070AAXX  15181 33415 32997 61402 10095 20071 40194 52012 86030 333 10164;EQDQ01  00002PRCP99
0112334150999992000111521004+49570+025590FM-12+032499999V0201401N003019999999N0100001N1+00721+00591101981ADDGF106991061001999999031001MD1410001+9999REMSYN060AAXX  15211 33415 42997 61403 10072 20059 40198 54000 86030;
0161334150999992000111600004+49570+025590FM-12+032499999V0201101N002019999999N0020001N1+00531+00461102081ADDAY121061AY221061GF107991071001999999031001MA1999999098071MD1310071+9999MW1101REMSYN072AAXX  16001 33415 41995 71102 10053 20046 39807 40208 53007 71022 87030;
0156334150999992000111603004+49570+025590FM-12+032499999V0201101N001019999999N0020001N1+00501+00451101981ADDAY121031AY221031GF106991061001999999031001MD1810101+9999MW1101REMSYN082AAXX  16031 33415 42995 61101 10050 20045 40198 58010 71022 86030 555 20047 7000/;
0193334150999992000111606004+49570+025590FM-12+032499999V0201401N004019999999N0010001N1+00501+00481101851ADDAA199000091AY121061AY221061GF105991021001999999031011KA1999N+00471MD1710121+9999MW1101REMSYN076AAXX  16061 33415 31994 51404 10050 20048 40185 57012 71022 82031 333 20047;EQDQ01  00002PRCP99
0150334150999992000111609004+49570+025590FM-12+032499999V0201401N008010003019N0005001N1+00621+00621101761ADDAY141031AY221031GA1091+999999999GF109991091999999999999999MD1710081+9999MW1431REMSYN060AAXX  16091 33415 41/93 91408 10062 20062 40176 57008 74342;
0187334150999992000111612004+49570+025590FM-12+032499999V0201401N006010015019N0020001N1+00701+00651101641ADDAY141061AY221061GA1081+001509069GF108991081061001501999999MA1999999097671MD1710101+9999MW1101REMSYN082AAXX  16121 33415 41295 81406 10070 20065 39767 40164 57010 71042 886// 333 88705;
0166334150999992000111615004+49570+025590FM-12+032499999V0201801N004010033019N0020001N1+00801+00671101621ADDAY121031AY221031GA1051+003309069GF107991071051004501051001MD1410001+9999MW1101REMSYN076AAXX  16151 33415 41495 71804 10080 20067 40162 54000 71022 87550 333 85711;
0202334150999992000111618004+49570+025590FM-12+032499999V0202701N004010045019N0100001N1+00861+00731101821ADDAA112000591AY181061AY221061GA1051+004509099GF107991051031004501031001KA1120M+00861MD1310201+9999MW1251REMSYN088AAXX  16181 33415 11497 72704 10086 20073 40182 53020 69942 72582 85330 333 10086 85915;
0166334150999992000111621004+49570+025590FM-12+032499999V0202901N005010360019N0100001N1+00761+00651102001ADDAY181031AY221031GA1041+005109099GF108991041031004501031999MD1210161+9999MW1801REMSYN076AAXX  16211 33415 41497 82905 10076 20065 40200 52016 78082 8433/ 333 84917;
0187334150999992000111700004+49570+025590FM-12+032499999V0203201N003010360019N0100001N1+00621+00481102151ADDAY181061AY221061GA1041+005109099GF107991041031004501031001MA1999999098151MD1210121+9999MW1021REMSYN082AAXX  17001 33415 41497 73203 10062 20048 39815 40215 52012 70282 84330 333 84917;
0154334150999992000111703004+49570+025590FM-12+032499999V0200201N002010039019N0100001N1+00581+00461102151ADDGA1051+003909069GF107991051051004501031001MD1410001+9999REMSYN086AAXX  17031 33415 42497 70202 10058 20046 40215 54000 85530 333 85613 555 20058 7003/;
0174334150999992000111706004+49570+025590FM-12+032499999V0200901N005010039019N0100001N1+00441+00321102311ADDAA112002091GA1071+003909059GF107991071051004501001001KA1120N+00441MD1310131+9999REMSYN082AAXX  17061 33415 12497 70905 10044 20032 40231 53013 60022 87500 333 20044 87613;
0112334150999992000111709004+49570+025590FM-12+032499999V0201101N007012200019N0100001N1+00731+00531102201ADDGF103991031001999999031001MD1810071+9999REMSYN060AAXX  17091 33415 42997 31107 10073 20053 40220 58007 83030;
0133334150999992000111712004+49570+025590FM-12+032499999V0201401N005012200019N0100001N1+01011+00581102031ADDGF103991011001999999031011MA1999999098091MD1710121+9999REMSYN066AAXX  17121 33415 42997 31405 10101 20058 39809 40203 57012 81031;
0112334150999992000111715004+49570+025590FM-12+032499999V0201101N004019999999N0100001N1+00921+00641101991ADDGF106991031001999999031011MD1710051+9999REMSYN060AAXX  17151 33415 42997 61104 10092 20064 40199 57005 83031;
0165334150999992000111718004+49570+025590FM-12+032499999V0201101N005019999999N0100001N1+00811+00641101981ADDAA199000091GF108991081001999999031999KA1999M+01091MD1710031+9999REMSYN070AAXX  17181 33415 32997 81105 10081 20064 40198 57003 8803/ 333 10109;EQDQ01  00002PRCP99
0166334150999992000111721004+49570+025590FM-12+032499999V0201401N008010015019N0020001N1+00801+00741101941ADDAY121031AY221031GA1081+001509069GF108991081061001501999999MD1710041+9999MW1101REMSYN076AAXX  17211 33415 41295 81408 10080 20074 40194 57004 71022 886// 333 88705;
0187334150999992000111800004+49570+025590FM-12+032499999V0201401N009010012019N0005001N1+00701+00651101921ADDAY121061AY221061GA1081+001209069GF108991081061001501999999MA1999999097941MD1710031+9999MW1101REMSYN082AAXX  18001 33415 41293 81409 10070 20065 39794 40192 57003 71022 886// 333 88704;
0182334150999992000111803004+49570+025590FM-12+032499999V0201401N005010009019N0010001N1+00631+00611101831ADDAY121031AY221031GA1081+000909079GF108991081061001501999999MD1710101+9999MW1101REMSYN092AAXX  18031 33415 41294 81405 10063 20061 40183 57010 71022 886// 333 88703 555 20062 7000/;
0215334150999992000111806004+49570+025590FM-12+032499999V0201401N008010009019N0010001N1+00601+00561101841ADDAA199000091AY121061AY221061GA1081+000909069GF108991081061000751999999KA1120N+00601MD1310011+9999MW1101REMSYN082AAXX  18061 33415 31194 81408 10060 20056 40184 53001 71022 886// 333 20060 88703;EQDQ01  00002PRCP99
0166334150999992000111809004+49570+025590FM-12+032499999V0201401N005010018019N0020001N1+00751+00621101811ADDAY121031AY221031GA1081+001809069GF108991081061001501999999MD1410001+9999MW1101REMSYN076AAXX  18091 33415 41295 81405 10075 20062 40181 54000 71022 886// 333 88706;
0187334150999992000111812004+49570+025590FM-12+032499999V0201401N006010030019N0040001N1+00711+00511101661ADDAY121061AY221061GA1061+003009069GF107991061071002501031001MA1999999097691MD1810161+9999MW1101REMSYN082AAXX  18121 33415 41396 71406 10071 20051 39769 40166 58016 71022 86730 333 86710;
0138334150999992000111815004+49570+025590FM-12+032499999V0201401N005010036019N0100001N1+00751+00551101591ADDGA1051+003609059GF107991051051004501031001MD1710051+9999REMSYN070AAXX  18151 33415 42497 71405 10075 20055 40159 57005 85530 333 85612;
0165334150999992000111818004+49570+025590FM-12+032499999V0201401N004010360019N0100001N1+00711+00531101661ADDAA199000091GF106991021051008001031001KA1999M+00791MD1310051+9999REMSYN070AAXX  18181 33415 32597 61404 10071 20053 40166 53005 82530 333 10079;EQDQ01  00002PRCP99
0112334150999992000111821004+49570+025590FM-12+032499999V0201401N002019999999N0100001N1+00571+00431101741ADDGF105991051001999999031001MD1210061+9999REMSYN060AAXX  18211 33415 42997 51402 10057 20043 40174 52006 85030;
0187334150999992000111900004+49570+025590FM-12+032499999V0201401N004010024019N0040001N1+00541+00421101801ADDAY121061AY221061GA1051+002409069GF107991051071002501031001MA1999999097801MD1210051+9999MW1101REMSYN082AAXX  19001 33415 41396 71404 10054 20042 39780 40180 52005 71022 85730 333 85708;
0182334150999992000111903004+49570+025590FM-12+032499999V0201401N004010021019N0040001N1+00721+00641101811ADDAY121031AY221031GA1061+002109079GF108991061071002501031999MD1210041+9999MW1101REMSYN092AAXX  19031 33415 41396 81404 10072 20064 40181 52004 71022 8673/ 333 86707 555 20053 7000/;
0185334150999992000111906004+49570+025590FM-12+032499999V0201401N005010021019N0040001N1+00691+00581101811ADDAY121061AY221061GA1081+002109069GF108991081061002501999999KA1120N+00531MD1410001+9999MW1101REMSYN082AAXX  19061 33415 41396 81405 10069 20058 40181 54000 71022 886// 333 20053 88707;
0166334150999992000111909004+49570+025590FM-12+032499999V0201401N008010021019N0040001N1+00671+00511101811ADDAY121031AY221031GA1081+002109069GF108991081061002501999999MD1410001+9999MW1101REMSYN076AAXX  19091 33415 41396 81408 10067 20051 40181 54000 71022 886// 333 88707;
0187334150999992000111912004+49570+025590FM-12+032499999V0201401N006010024019N0040001N1+00691+00511101681ADDAY121061AY221061GA1061+002409069GF108991051071002501031999MA1999999097711MD1810131+9999MW1101REMSYN082AAXX  19121 33415 41396 81406 10069 20051 39771 40168 58013 71022 8573/ 333 86708;
0166334150999992000111915004+49570+025590FM-12+032499999V0201401N006010036019N0040001N1+00701+00451101601ADDAY121031AY221031GA1051+003609059GF107991051051004501031001MD1710081+9999MW1101REMSYN076AAXX  19151 33415 41496 71406 10070 20045 40160 57008 71022 85530 333 85612;
0215334150999992000111918004+49570+025590FM-12+032499999V0201101N006010360019N0040001N1+00621+00461101561ADDAA199000091AY121061AY221061GA1041+004209059GF107991041051004501031001KA1120M+00711MD1710051+9999MW1101REMSYN082AAXX  19181 33415 31496 71106 10062 20046 40156 57005 71022 84530 333 10071 84614;EQDQ01  00002PRCP99
0166334150999992000111921004+49570+025590FM-12+032499999V0201401N006010036019N0040001N1+00661+00521101471ADDAY121031AY221031GA1051+003609059GF107991051051004501031001MD1710081+9999MW1101REMSYN076AAXX  19211 33415 41496 71406 10066 20052 40147 57008 71022 85530 333 85612;
0159334150999992000112000004+49570+025590FM-12+032499999V0201401N005010360019N0100001N1+00721+00591101451ADDGA1041+004509059GF107991041051004501031001MA1999999097491MD1710011+9999REMSYN076AAXX  20001 33415 42497 71405 10072 20059 39749 40145 57001 84530 333 84615;
0154334150999992000112003004+49570+025590FM-12+032499999V0201401N007010039019N0100001N1+00781+00611101381ADDGA1051+003909069GF107991051051004501031001MD1710051+9999REMSYN086AAXX  20031 33415 42497 71407 10078 20061 40138 57005 85530 333 85613 555 20062 7000/;
0187334150999992000112006004+49570+025590FM-12+032499999V0201401N005010036019N0100001N1+00781+00581101461ADDAA199000091GA1051+003609059GF107991051051004501031001KA1120N+00621MD1310071+9999REMSYN076AAXX  20061 33415 32497 71405 10078 20058 40146 53007 85530 333 20062 85612;EQDQ01  00002PRCP99
0138334150999992000112009004+49570+025590FM-12+032499999V0201401N006010036019N0100001N1+00801+00511101501ADDGA1051+003609059GF107991051051004501031001MD1210031+9999REMSYN070AAXX  20091 33415 42497 71406 10080 20051 40150 52003 85530 333 85612;
0159334150999992000112012004+49570+025590FM-12+032499999V0201401N005010360019N0100001N1+00871+00461101461ADDGA1041+004209059GF107991041051004501031001MA1999999097521MD1810021+9999REMSYN076AAXX  20121 33415 42497 71405 10087 20046 39752 40146 58002 84530 333 84614;
0138334150999992000112015004+49570+025590FM-12+032499999V0201401N004010360019N0100001N1+00831+00461101491ADDGA1041+005709059GF107991041051004501031001MD1310021+9999REMSYN070AAXX  20151 33415 42497 71404 10083 20046 40149 53002 84530 333 84619;
0187334150999992000112018004+49570+025590FM-12+032499999V0201801N001010360019N0100001N1+00601+00391101541ADDAA199000091GA1041+005409059GF107991041051004501031001KA1120M+00901MD1210021+9999REMSYN076AAXX  20181 33415 32497 71801 10060 20039 40154 52002 84530 333 10090 84618;EQDQ01  00002PRCP99
0112334150999992000112021004+49570+025590FM-12+032499999V0201401N002010360019N0100001N1+00531+00341101571ADDGF105991021051004501031001MD1210011+9999REMSYN060AAXX  20211 33415 42497 51402 10053 20034 40157 52001 82530;
0152334150999992000112100004+49570+025590FM-12+032499999V0209999C000012200019N0100001N1+00411+00261101611ADDGF103991999001008001031001MA1999999097601MD1210031+9999REMSYN066AAXX  21001 33415 42597 30000 10041 20026 39760 40161 52003 82030;EQDQ01+000022SCOTLC
0166334150999992000112103004+49570+025590FM-12+032499999V0209999C000010003019N0005001N1+00341+00341101731ADDAY141031AY221031GA1091+999999999GF109991091999999999999999MD1210061+9999MW1471REMSYN076AAXX  21031 33415 41/93 90000 10034 20034 40173 52006 74742 555 20033 7000/;
0187334150999992000112106004+49570+025590FM-12+032499999V0209999C000010003019N0005001N1+00341+00341101731ADDAA199000091GA1091+999999999GF109991091999999999999999KA1999N+00331MD1210041+9999MW1451REMSYN070AAXX  21061 33415 31/93 90000 10034 20034 40173 52004 745/2 333 20033;EQDQ01  00002PRCP99
0150334150999992000112109004+49570+025590FM-12+032499999V0201401N003010003019N0005001N1+00541+00541101741ADDAY141031AY241031GA1091+999999999GF109991091999999999999999MD1210041+9999MW1451REMSYN060AAXX  21091 33415 41/93 91403 10054 20054 40174 52004 74544;
0187334150999992000112112004+49570+025590FM-12+032499999V0201601N003010009019N0010001N1+00591+00571101711ADDAY141061AY221061GA1081+000909069GF108991081061000751999999MA1999999097721MD1810021+9999MW1101REMSYN082AAXX  21121 33415 41194 81603 10059 20057 39772 40171 58002 71042 886// 333 88703;
0166334150999992000112115004+49570+025590FM-12+032499999V0201401N003010021019N0040001N1+00651+00581101671ADDAY121031AY221031GA1081+002109069GF108991081061002501999999MD1710021+9999MW1101REMSYN076AAXX  21151 33415 41396 81403 10065 20058 40167 57002 71022 886// 333 88707;
0215334150999992000112118004+49570+025590FM-12+032499999V0201401N004010024019N0040001N1+00651+00541101731ADDAA199000091AY121061AY221061GA1081+002409059GF108991081051002501999999KA1120M+00681MD1310061+9999MW1101REMSYN082AAXX  21181 33415 31396 81404 10065 20054 40173 53006 71022 885// 333 10068 88608;EQDQ01  00002PRCP99
0166334150999992000112121004+49570+025590FM-12+032499999V0201401N003010033019N0040001N1+00681+00521101841ADDAY121031AY221031GA1061+003309059GF108991061051004501071999MD1210111+9999MW1101REMSYN076AAXX  21211 33415 41496 81403 10068 20052 40184 52011 71022 8657/ 333 86611;
0187334150999992000112200004+49570+025590FM-12+032499999V0201401N004010045019N0040001N1+00681+00571101781ADDAY121061AY221061GA1061+004509059GF107991061051004501031001MA1999999097811MD1810061+9999MW1101REMSYN082AAXX  22001 33415 41496 71404 10068 20057 39781 40178 58006 71022 86530 333 86615;
0182334150999992000112203004+49570+025590FM-12+032499999V0201601N004010033019N0040001N1+00701+00591101811ADDAY121031AY221031GA1051+003309069GF107991051051004501031001MD1310031+9999MW1101REMSYN092AAXX  22031 33415 41496 71604 10070 20059 40181 53003 71022 85530 333 85611 555 20064 7000/;
0215334150999992000112206004+49570+025590FM-12+032499999V0201401N004010036019N0040001N1+00731+00581101901ADDAA199000091AY121061AY221061GA1061+003609059GF107991061051004501031001KA1120N+00641MD1210081+9999MW1101REMSYN082AAXX  22061 33415 31496 71404 10073 20058 40190 52008 71022 86530 333 20064 86612;EQDQ01  00002PRCP99
0166334150999992000112209004+49570+025590FM-12+032499999V0201401N005010036019N0040001N1+00801+00581102021ADDAY121031AY221031GA1061+003609059GF108991061051004501031999MD1210131+9999MW1101REMSYN076AAXX  22091 33415 41496 81405 10080 20058 40202 52013 71022 8653/ 333 86612;
0159334150999992000112212004+49570+025590FM-12+032499999V0201601N006010042019N0100001N1+00801+00461102031ADDGA1081+004209059GF108991081051004501999999MA1999999098061MD1210011+9999REMSYN076AAXX  22121 33415 42497 81606 10080 20046 39806 40203 52001 885// 333 88614;
0138334150999992000112215004+49570+025590FM-12+032499999V0201401N003010048019N0100001N1+00781+00481102091ADDGA1081+004809059GF108991081051004501999999MD1210051+9999REMSYN070AAXX  22151 33415 42497 81403 10078 20048 40209 52005 885// 333 88616;
0165334150999992000112218004+49570+025590FM-12+032499999V0201101N003010360019N0100001N1+00731+00531102151ADDAA199000091GF108991041051012501031999KA1999M+00801MD1210051+9999REMSYN070AAXX  22181 33415 32697 81103 10073 20053 40215 52005 8453/ 333 10080;EQDQ01  00002PRCP99
0166334150999992000112221004+49570+025590FM-12+032499999V0201401N004010039019N0040001N1+00701+00561102241ADDAY121031AY221031GA1081+003909059GF108991081051004501999999MD1210051+9999MW1101REMSYN076AAXX  22211 33415 41496 81404 10070 20056 40224 52005 71022 885// 333 88613;
0187334150999992000112300004+49570+025590FM-12+032499999V0201401N005010030019N0040001N1+00701+00561102241ADDAY121061AY221061GA1081+003009059GF108991081051002501999999MA1999999098251MD1410001+9999MW1101REMSYN082AAXX  23001 33415 41396 81405 10070 20056 39825 40224 54000 71022 885// 333 88610;
0182334150999992000112303004+49570+025590FM-12+032499999V0201401N006010024019N0040001N1+00651+00541102241ADDAY121031AY221031GA1081+002409079GF108991081061002501999999MD1410001+9999MW1101REMSYN092AAXX  23031 33415 41396 81406 10065 20054 40224 54000 71022 886// 333 88708 555 20064 7000/;
0215334150999992000112306004+49570+025590FM-12+032499999V0201401N005010021019N0040001N1+00551+00461102271ADDAA199000091AY121061AY221061GA1081+002109069GF108991081061002501999999KA1120N+00541MD1410001+9999MW1101REMSYN082AAXX  23061 33415 31396 81405 10055 20046 40227 54000 71022 886// 333 20054 88707;EQDQ01  00002PRCP99
0166334150999992000112309004+49570+025590FM-12+032499999V0201401N006010021019N0020001N1+00581+00441102311ADDAY121031AY221031GA1081+002109069GF108991081061002501999999MD1310051+9999MW1101REMSYN076AAXX  23091 33415 41395 81406 10058 20044 40231 53005 71022 886// 333 88707;
0206334150999992000112312004+49570+025590FM-12+032499999V0201401N005010021019N0040001N1+00621+00481102261ADDAY121061AY221061GA1081+002109069GF108991999061002501999031MA1999999098261MD1810041+9999MW1101REMSYN082AAXX  23121 33415 41396 81405 10062 20048 39826 40226 58004 71022 886/3 333 88707;EQDQ01+000082SCOTLC
0166334150999992000112315004+49570+025590FM-12+032499999V0201401N006010021019N0020001N1+00581+00441102201ADDAY121031AY221031GA1081+002109069GF108991081061002501999999MD1710061+9999MW1101REMSYN076AAXX  23151 33415 41395 81406 10058 20044 40220 57006 71022 886// 333 88707;
0215334150999992000112318004+49570+025590FM-12+032499999V0201301N006010024019N0040001N1+00541+00401102251ADDAA199000091AY121061AY221061GA1081+002409069GF108991081061002501999999KA1120M+00621MD1310011+9999MW1101REMSYN082AAXX  23181 33415 31396 81306 10054 20040 40225 53001 71022 886// 333 10062 88708;EQDQ01  00002PRCP99
0166334150999992000112321004+49570+025590FM-12+032499999V0201301N008010021019N0040001N1+00511+00391102221ADDAY121031AY221031GA1081+002109069GF108991081061002501999999MD1810011+9999MW1101REMSYN076AAXX  23211 33415 41396 81308 10051 20039 40222 58001 71022 886// 333 88707;
0187334150999992000112400004+49570+025590FM-12+032499999V0201301N007010024019N0040001N1+00501+00381102071ADDAY121061AY221061GA1081+002409069GF108991081061002501999999MA1999999098061MD1710141+9999MW1101REMSYN082AAXX  24001 33415 41396 81307 10050 20038 39806 40207 57014 71022 886// 333 88708;
0182334150999992000112403004+49570+025590FM-12+032499999V0201301N006010021019N0040001N1+00511+00391101981ADDAY121031AY221031GA1081+002109079GF108991081061002501999999MD1710081+9999MW1101REMSYN092AAXX  24031 33415 41396 81306 10051 20039 40198 57008 71022 886// 333 88707 555 20050 7000/;
0202334150999992000112406004+49570+025590FM-12+032499999V0201301N008010012019N0020001N1+00411+00361102001ADDAA112000791AY151061AY221061GA1081+001209069GF108991081061001501999999KA1120N+00411MD1710011+9999MW1511REMSYN088AAXX  24061 33415 11295 81308 10041 20036 40200 57001 69902 75152 886// 333 20041 88704;
0187334150999992000112412004+49570+025590FM-12+032499999V0201401N005010012019N0020001N1+00311+00231101901ADDAY151061AY221061GA1081+001209069GF108991081061001501999999MA1999999097871MD1810131+9999MW1101REMSYN082AAXX  24121 33415 41295 81405 10031 20023 39787 40190 58013 71052 886// 333 88704;
0166334150999992000112415004+49570+025590FM-12+032499999V0201401N008010009019N0020001N1+00241+00191101921ADDAY151031AY221031GA1081+000909069GF108991081061001501999999MD1410001+9999MW1511REMSYN076AAXX  24151 33415 41295 81408 10024 20019 40192 54000 75152 886// 333 88703;
0202334150999992000112418004+49570+025590FM-12+032499999V0201401N006010006019N0010001N1+00221+00171101911ADDAA112000791AY151061AY221061GA1081+000609069GF108991081061000751999999KA1120M+00411MD1810011+9999MW1511REMSYN088AAXX  24181 33415 11194 81406 10022 20017 40191 58001 69902 75152 886// 333 10041 88702;
0166334150999992000112421004+49570+025590FM-12+032499999V0201401N007010009019N0010001N1+00221+00171101911ADDAY151031AY251031GA1081+000909069GF108991081061000751999999MD1410001+9999MW1511REMSYN076AAXX  24211 33415 41194 81407 10022 20017 40191 54000 75155 886// 333 88703;
0187334150999992000112500004+49570+025590FM-12+032499999V0201401N006010009019N0010001N1+00231+00211101851ADDAY151061AY251061GA1081+000909069GF108991081061001501999999MA1999999097801MD1810061+9999MW1511REMSYN082AAXX  25001 33415 41294 81406 10023 20021 39780 40185 58006 75155 886// 333 88703;
0182334150999992000112503004+49570+025590FM-12+032499999V0201101N004010009019N0010001N1+00251+00221101861ADDAY151031AY251031GA1081+000909079GF108991081061000751999999MD1310011+9999MW1511REMSYN092AAXX  25031 33415 41194 81104 10025 20022 40186 53001 75155 886// 333 88703 555 20021 7990/;
0202334150999992000112506004+49570+025590FM-12+032499999V0201101N006010009019N0010001N1+00171+00141101861ADDAA112000791AY151061AY251061GA1081+000909069GF108991081061000751999999KA1120N+00171MD1410001+9999MW1511REMSYN088AAXX  25061 33415 11194 81106 10017 20014 40186 54000 69902 75155 886// 333 20017 88703;
0150334150999992000112509004+49570+025590FM-12+032499999V0201101N006010003019N0005001N1+00201+00201101921ADDAY151031AY241031GA1091+999999999GF109991091999999999999999MD1310061+9999MW1451REMSYN060AAXX  25091 33415 41/93 91106 10020 20020 40192 53006 74554;
0171334150999992000112512004+49570+025590FM-12+032499999V0201101N006010003019N0005001N1+00231+00231101961ADDAY151061AY241061GA1091+999999999GF109991091999999999999999MA1999999097901MD1210031+9999MW1451REMSYN066AAXX  25121 33415 41/93 91106 10023 20023 39790 40196 52003 74554;
0150334150999992000112515004+49570+025590FM-12+032499999V0200901N006010003019N0005001N1+00121+00121101941ADDAY151031AY241031GA1091+999999999GF109991091999999999999999MD1810021+9999MW1511REMSYN060AAXX  25151 33415 41/93 90906 10012 20012 40194 58002 75154;
0202334150999992000112518004+49570+025590FM-12+032499999V0200901N007010009019N0010001N1+00061+00011102021ADDAA112000391AY151061AY241061GA1081+000909069GF108991081061001501999999KA1120M+00251MD1310051+9999MW1511REMSYN088AAXX  25181 33415 11294 80907 10006 20001 40202 53005 69932 75154 886// 333 10025 88703;
0166334150999992000112521004+49570+025590FM-12+032499999V0200901N007010012019N0020001N1+00041-00021102051ADDAY151031AY251031GA1081+001209069GF108991081061001501999999MD1210031+9999MW1511REMSYN076AAXX  25211 33415 41295 80907 10004 21002 40205 52003 75155 886// 333 88704;
0187334150999992000112600004+49570+025590FM-12+032499999V0201101N006010015019N0020001N1+00021-00041102001ADDAY151061AY251061GA1081+001509069GF108991081061001501999999MA1999999097911MD1810051+9999MW1511REMSYN082AAXX  26001 33415 41295 81106 10002 21004 39791 40200 58005 75155 886// 333 88705;
0182334150999992000112603004+49570+025590FM-12+032499999V0201101N007010012019N0010001N1+00001-00031101891ADDAY151031AY221031GA1081+001209079GF108991081061001501999999MD1710101+9999MW1101REMSYN092AAXX  26031 33415 41294 81107 10000 21003 40189 57010 71052 886// 333 88704 555 21001 7993/;
0196334150999992000112606004+49570+025590FM-12+032499999V0201101N008010003019N0005001N1-00051-00051101771ADDAA112000791AY151061AY241061GA1091+999999999GF109991091999999999999999KA1120N-00061MD1710121+9999MW1491REMSYN082AAXX  26061 33415 11/93 91108 11005 21005 40177 57012 69902 74954 333 21006 93400;
0150334150999992000112609004+49570+025590FM-12+032499999V0201101N007010003019N0005001N1-00011-00011101701ADDAY151031AY241031GA1091+999999999GF109991091999999999999999MD1710061+9999MW1491REMSYN060AAXX  26091 33415 41/93 91107 11001 21001 40170 57006 74954;
0187334150999992000112612004+49570+025590FM-12+032499999V0201101N007010009019N0010001N1+00061+00031101541ADDAY151061AY241061GA1081+000909069GF109991091999999999999999MA1999999097481MD1710151+9999MW1101REMSYN082AAXX  26121 33415 41194 91107 10006 20003 39748 40154 57015 71054 886// 333 88703;
0166334150999992000112615004+49570+025590FM-12+032499999V0201101N009010009019N0010001N1+00081+00031101421ADDAY121031AY221031GA1081+000909069GF108991081061001501999999MD1710111+9999MW1101REMSYN076AAXX  26151 33415 41294 81109 10008 20003 40142 57011 71022 886// 333 88703;
0196334150999992000112618004+49570+025590FM-12+032499999V0201101N008010012019N0020001N1+00061+99999101391ADDAA112002091AY181061AY221061GA1071+001209029GF108991071071001501021999KA1120M+00091MD1710041+9999MW1251REMSYN082AAXX  26181 33415 11295 81108 10006 40139 57004 60022 72582 8772/ 333 10009 87504;
0166334150999992000112621004+49570+025590FM-12+032499999V0201101N006010012019N0020001N1+00041-00161101381ADDAY121031AY221031GA1071+001209029GF108991071071001501021999MD1710011+9999MW1101REMSYN076AAXX  26211 33415 41295 81106 10004 21016 40138 57001 71022 8772/ 333 87504;
0206334150999992000112700004+49570+025590FM-12+032499999V0201101N006010012019N0040001N1+00031-00081101381ADDAY161061AY221061GA1071+001209029GF108991999071001501021999MA1999999097321MD1410001+9999MW1601REMSYN082AAXX  27001 33415 41296 81106 10003 21008 39732 40138 54000 76062 8872/ 333 87504;EQDQ01+000082SCOTLC
0201334150999992000112703004+49570+025590FM-12+032499999V0201101N006010015019N0020001N1+00021-00071101341ADDAY161031AY261031GA1071+001509059GF108991999071001501021999MD1810031+9999MW1611REMSYN092AAXX  27031 33415 41295 81106 10002 21007 40134 58003 76166 8872/ 333 87505 555 20001 7005/;EQDQ01+000082SCOTLC
0209334150999992000112706004+49570+025590FM-12+032499999V0201101N004010021019N0020001N1-00421+99999101401ADDAA112003091AY161061AY261061GF108991999071002501021999KA1120N-00581MD1310031+9999REMSYN082AAXX  27061 33415 11395 81104 11042 40140 53003 60032 76066 8872/ 333 21058 7507/;EQDQ01+000082SCOTLCQ02+000602PRSWM1
0166334150999992000112709004+49570+025590FM-12+032499999V0201101N004010021019N0020001N1+00031-00031101471ADDAY161031AY261031GA1071+002109069GF108991071071002501021999MD1210091+9999MW1611REMSYN076AAXX  27091 33415 41395 81104 10003 21003 40147 52009 76166 8772/ 333 87707;
0187334150999992000112712004+49570+025590FM-12+032499999V0201401N003010021019N0020001N1+00071-00011101491ADDAY161061AY251061GA1081+002109059GF108991081061002501999999MA1999999097431MD1210021+9999MW1101REMSYN082AAXX  27121 33415 41395 81403 10007 21001 39743 40149 52002 71065 886// 333 88607;
0138334150999992000112715004+49570+025590FM-12+032499999V0209999C000010021019N0100001N1+00081-00031101651ADDGA1081+002109059GF108991081061002501999999MD1210171+9999REMSYN070AAXX  27151 33415 42397 80000 10008 21003 40165 52017 886// 333 88607;
0202334150999992000112718004+49570+025590FM-12+032499999V0209999V002010009019N0010001N1+00051+00021101791ADDAA112000591AY121061AY221061GA1081+000909059GF108991081061000751999999KA1120M+00101MD1210111+9999MW1101REMSYN088AAXX  27181 33415 11194 89902 10005 20002 40179 52011 69952 71022 886// 333 10010 88603;
0166334150999992000112721004+49570+025590FM-12+032499999V0200501N002010015019N0020001N1+00031-00031101911ADDAY121031AY221031GA1081+001509059GF108991081061001501999999MD1210121+9999MW1101REMSYN076AAXX  27211 33415 41295 80502 10003 21003 40191 52012 71022 886// 333 88605;
0187334150999992000112800004+49570+025590FM-12+032499999V0209999V002010009019N0010001N1+00031+00001102021ADDAY121061AY221061GA1081+000909059GF108991081061001501999999MA1999999097931MD1210101+9999MW1101REMSYN082AAXX  28001 33415 41294 89902 10003 20000 39793 40202 52010 71022 886// 333 88603;
0182334150999992000112803004+49570+025590FM-12+032499999V0200201N003010009019N0010001N1+00021-00011102091ADDAY121031AY221031GA1081+000909079GF108991081061001501999999MD1210071+9999MW1101REMSYN092AAXX  28031 33415 41294 80203 10002 21001 40209 52007 71022 886// 333 88703 555 20001 7999/;
0215334150999992000112806004+49570+025590FM-12+032499999V0200201N003010012019N0020001N1-00051-00111102281ADDAA199000091AY121061AY221061GA1081+001209069GF108991081061001501999999KA1120N-00061MD1210171+9999MW1101REMSYN082AAXX  28061 33415 31295 80203 11005 21011 40228 52017 71022 886// 333 21006 88704;EQDQ01  00002PRCP99
0166334150999992000112809004+49570+025590FM-12+032499999V0209999C000010021019N0040001N1-00041-00161102421ADDAY121031AY221031GA1081+002109069GF108991081061002501999999MD1210131+9999MW1101REMSYN076AAXX  28091 33415 41396 80000 11004 21016 40242 52013 71022 886// 333 88707;
0187334150999992000112812004+49570+025590FM-12+032499999V0200201N002010024019N0020001N1+00061-00051102351ADDAY121061AY221061GA1081+002409069GF108991081061002501999999MA1999999098261MD1810041+9999MW1201REMSYN082AAXX  28121 33415 41395 80202 10006 21005 39826 40235 58004 72022 886// 333 88708;
0166334150999992000112815004+49570+025590FM-12+032499999V0200201N002010021019N0020001N1-00041-00161102371ADDAY121031AY221031GA1081+002109069GF108991081061002501999999MD1410001+9999MW1101REMSYN076AAXX  28151 33415 41395 80202 11004 21016 40237 54000 71022 886// 333 88707;
0202334150999992000112818004+49570+025590FM-12+032499999V0200501N002010021019N0020001N1-00061-00151102521ADDAA112000791AY121061AY221061GA1081+002109059GF108991081061002501999999KA1120M+00061MD1310141+9999MW1101REMSYN088AAXX  28181 33415 11395 80502 11006 21015 40252 53014 69902 71022 886// 333 10006 88607;
0166334150999992000112821004+49570+025590FM-12+032499999V0209999C000010021019N0040001N1-00101-00161102521ADDAY121031AY221031GA1081+002109069GF108991081061002501999999MD1410001+9999MW1101REMSYN076AAXX  28211 33415 41396 80000 11010 21016 40252 54000 71022 886// 333 88707;
0187334150999992000112900004+49570+025590FM-12+032499999V0200201N002010021019N0020001N1-00121-00151102561ADDAY121061AY221061GA1081+002109069GF108991081061002501999999MA1999999098431MD1310031+9999MW1101REMSYN082AAXX  29001 33415 41395 80202 11012 21015 39843 40256 53003 71022 886// 333 88707;
0182334150999992000112903004+49570+025590FM-12+032499999V0209999C000010012019N0010001N1-00041-00071102551ADDAY121031AY221031GA1081+001209079GF108991081061001501999999MD1410001+9999MW1101REMSYN092AAXX  29031 33415 41294 80000 11004 21007 40255 54000 71022 886// 333 88704 555 21012 7990/;
0187334150999992000112906004+49570+025590FM-12+032499999V0203201N002010021019N0100001N1+00071-00011102501ADDAA199000091GA1081+002109069GF108991081061002501999999KA1120N-00121MD1810031+9999REMSYN076AAXX  29061 33415 32397 83202 10007 21001 40250 58003 886// 333 21012 88707;EQDQ01  00002PRCP99
0166334150999992000112909004+49570+025590FM-12+032499999V0209999C000010015019N0040001N1+00051-00031102561ADDAY121031AY221031GA1081+001509069GF108991081061001501999999MD1310061+9999MW1101REMSYN076AAXX  29091 33415 41296 80000 10005 21003 40256 53006 71022 886// 333 88705;
0187334150999992000112912004+49570+025590FM-12+032499999V0209999V002010018019N0040001N1+00111+00001102451ADDAY121061AY221061GA1081+001809069GF108991081061001501999999MA1999999098361MD1810101+9999MW1101REMSYN082AAXX  29121 33415 41296 89902 10011 20000 39836 40245 58010 71022 886// 333 88706;
0166334150999992000112915004+49570+025590FM-12+032499999V0209999V002010018019N0040001N1+00131+00021102431ADDAY121031AY221031GA1081+001809069GF108991081061001501999999MD1710021+9999MW1101REMSYN076AAXX  29151 33415 41296 89902 10013 20002 40243 57002 71022 886// 333 88706;
0215334150999992000112918004+49570+025590FM-12+032499999V0201801N004010015019N0040001N1+00051-00011102451ADDAA199000091AY121061AY221061GA1081+001509069GF108991081061001501999999KA1120M+00131MD1310011+9999MW1101REMSYN082AAXX  29181 33415 31296 81804 10005 21001 40245 53001 71022 886// 333 10013 88705;EQDQ01  00002PRCP99
0150334150999992000112921004+49570+025590FM-12+032499999V0201801N003010003019N0005001N1+00011+00011102401ADDAY141031AY221031GA1091+999999999GF109991091999999999999999MD1810051+9999MW1451REMSYN060AAXX  29211 33415 41/93 91803 10001 20001 40240 58005 74542;
0171334150999992000113000004+49570+025590FM-12+032499999V0201801N003010003019N0005001N1-00061-00061102431ADDAY141061AY221061GA1091+999999999GF109991091999999999999999MA1999999098331MD1310031+9999MW1491REMSYN066AAXX  30001 33415 41/93 91803 11006 21006 39833 40243 53003 74942;
0166334150999992000113003004+49570+025590FM-12+032499999V0201801N002010003019N0005001N1-00101-00101102431ADDAY141031AY241031GA1091+999999999GF109991091999999999999999MD1810021+9999MW1491REMSYN076AAXX  30031 33415 41/93 91802 11010 21010 40243 58002 74944 555 21011 7000/;
0209334150999992000113006004+49570+025590FM-12+032499999V0201801N003010003019N0005001N1-00101-00101102461ADDAA199000091AY141061AY241061GA1091+999999999GF109991091999999999999999KA1120N-00111MD1310031+9999MW1491REMSYN076AAXX  30061 33415 31/93 91803 11010 21010 40246 53003 74944 333 21011 93403;EQDQ01  00002PRCP99
0150334150999992000113009004+49570+025590FM-12+032499999V0201801N002010003019N0005001N1-00091-00091102571ADDAY141031AY241031GA1091+999999999GF109991091999999999999999MD1210111+9999MW1491REMSYN060AAXX  30091 33415 41/93 91802 11009 21009 40257 52011 74944;
0161334150999992000113012004+49570+025590FM-12+032499999V0201401N003012200019N0040001N1+00201+00091102451ADDAY141061AY221061GF106991021071002501001011MA1999999098381MD1810071+9999MW1101REMSYN072AAXX  30121 33415 41396 61403 10020 20009 39838 40245 58007 71042 82701;
0150334150999992000113015004+49570+025590FM-12+032499999V0201401N003010003019N0005001N1+00121+00121102441ADDAY141031AY221031GA1091+999999999GF109991091999999999999999MD1710031+9999MW1471REMSYN060AAXX  30151 33415 41/93 91403 10012 20012 40244 57003 74742;
0203334150999992000113018004+49570+025590FM-12+032499999V0201601N003010003019N0005001N1-00041-00041102481ADDAA199000091AY141061AY221061GA1091+999999999GF109991091999999999999999KA1999M+00281MD1310011+9999MW1491REMSYN070AAXX  30181 33415 31/93 91603 11004 21004 40248 53001 74942 333 10028;EQDQ01  00002PRCP99
0150334150999992000113021004+49570+025590FM-12+032499999V0201601N003010003019N0005001N1-00111-00111102521ADDAY141031AY241031GA1091+999999999GF109991091999999999999999MD1210041+9999MW1491REMSYN060AAXX  30211 33415 41/93 91603 11011 21011 40252 52004 74944;
0171334150999992000120100004+49570+025590FM-12+032499999V0201801N003010003019N0005001N1-00131-00131102511ADDAY141061AY241061GA1091+999999999GF109991091999999999999999MA1999999098381MD1810021+9999MW1491REMSYN066AAXX  01001 33415 41/93 91803 11013 21013 39838 40251 58002 74944;
0166334150999992000120103004+49570+025590FM-12+032499999V0201801N003010003019N0005001N1-00151-00151102541ADDAY141031AY241031GA1091+999999999GF109991091999999999999999MD1310031+9999MW1491REMSYN076AAXX  01031 33415 41/93 91803 11015 21015 40254 53003 74944 555 21016 7000/;
0209334150999992000120106004+49570+025590FM-12+032499999V0202001N002010003019N0005001N1-00221-00221102531ADDAA199000091AY141061AY241061GA1091+999999999GF109991091999999999999999KA1120N-00221MD1810031+9999MW1491REMSYN076AAXX  01061 33415 31/93 92002 11022 21022 40253 58003 74944 333 21022 93403;EQDQ01  00002PRCP99
0150334150999992000120109004+49570+025590FM-12+032499999V0202001N002010003019N0005001N1-00161-00161102581ADDAY141031AY241031GA1091+999999999GF109991091999999999999999MD1310071+9999MW1491REMSYN060AAXX  01091 33415 41/93 92002 11016 21016 40258 53007 74944;
0171334150999992000120112004+49570+025590FM-12+032499999V0201801N002010003019N0005001N1+00021+00021102501ADDAY141061AY241061GA1091+999999999GF109991091999999999999999MA1999999098401MD1810051+9999MW1451REMSYN066AAXX  01121 33415 41/93 91802 10002 20002 39840 40250 58005 74544;
0150334150999992000120115004+49570+025590FM-12+032499999V0201601N002010003019N0005001N1-00061-00061102461ADDAY141031AY241031GA1091+999999999GF109991091999999999999999MD1710061+9999MW1451REMSYN060AAXX  01151 33415 41/93 91602 11006 21006 40246 57006 74544;
0209334150999992000120118004+49570+025590FM-12+032499999V0201601N002010003019N0005001N1-00221-00221102531ADDAA199000091AY141061AY241061GA1091+999999999GF109991091999999999999999KA1120M+00061MD1310041+9999MW1491REMSYN076AAXX  01181 33415 31/93 91602 11022 21022 40253 53004 74944 333 10006 93401;EQDQ01  00002PRCP99
0150334150999992000120121004+49570+025590FM-12+032499999V0201401N001010003019N0005001N1-00271-00271102471ADDAY141031AY241031GA1091+999999999GF109991091999999999999999MD1410001+9999MW1491REMSYN060AAXX  01211 33415 41/93 91401 11027 21027 40247 54000 74944;
0181334150999992000120200004+49570+025590FM-12+032499999V0209999C000010003019N0005001N1-00341-00341102511ADDAY141061AY241061GA1091+999999999GF109991091999999999999999MA1999999098351MD1810031+9999MW1491REMSYN076AAXX  02001 33415 41/93 90000 11034 21034 39835 40251 58003 74944 333 93404;
0166334150999992000120203004+49570+025590FM-12+032499999V0201101N002010003019N0005001N1-00481-00481102441ADDAY141031AY241031GA1091+999999999GF109991091999999999999999MD1710081+9999MW1491REMSYN076AAXX  02031 33415 41/93 91102 11048 21048 40244 57008 74944 555 21049 7000/;
0199334150999992000120206004+49570+025590FM-12+032499999V0201101N001012200019N0100001N1-00471-00531102441ADDAA199000091AY141061AY211061GF102991001001999999001011KA1120N-00521MD1410001+9999MW1021REMSYN082AAXX  02061 33415 31997 21101 11047 21053 40244 54000 70241 80001 333 21052 93608;EQDQ01  00002PRCP99
0112334150999992000120209004+49570+025590FM-12+032499999V0201401N003012200019N0100001N1-00101-00261102431ADDGF103991001001999999001011MD1310041+9999REMSYN060AAXX  02091 33415 42997 31403 11010 21026 40243 53004 80001;
0133334150999992000120212004+49570+025590FM-12+032499999V0201601N002012200019N0100001N1+00311+00051102291ADDGF102991001001999999001011MA1999999098241MD1810071+9999REMSYN066AAXX  02121 33415 42997 21602 10031 20005 39824 40229 58007 80001;
0150334150999992000120215004+49570+025590FM-12+032499999V0201401N003010003019N0005001N1+00071+00071102381ADDAY141031AY211031GA1091+999999999GF109991091999999999999999MD1310051+9999MW1471REMSYN060AAXX  02151 33415 41/93 91403 10007 20007 40238 53005 74741;
0209334150999992000120218004+49570+025590FM-12+032499999V0201801N002010003019N0005001N1-00201-00201102411ADDAA199000091AY141061AY211061GA1091+999999999GF109991091999999999999999KA1120M+00391MD1410001+9999MW1491REMSYN076AAXX  02181 33415 31/93 91802 11020 21020 40241 54000 74941 333 10039 93401;EQDQ01  00002PRCP99
0150334150999992000120221004+49570+025590FM-12+032499999V0201601N003010003019N0005001N1-00231-00231102401ADDAY141031AY241031GA1091+999999999GF109991091999999999999999MD1810031+9999MW1491REMSYN060AAXX  02211 33415 41/93 91603 11023 21023 40240 58003 74944;
0181334150999992000120300004+49570+025590FM-12+032499999V0201601N003010003019N0005001N1-00261-00261102451ADDAY141061AY241061GA1091+999999999GF109991091999999999999999MA1999999098301MD1310041+9999MW1491REMSYN076AAXX  03001 33415 41/93 91603 11026 21026 39830 40245 53004 74944 333 93503;
0166334150999992000120303004+49570+025590FM-12+032499999V0201601N002010003019N0005001N1-00311-00311102391ADDAY141031AY241031GA1091+999999999GF109991091999999999999999MD1810071+9999MW1491REMSYN076AAXX  03031 33415 41/93 91602 11031 21031 40239 58007 74944 555 21031 7000/;
0209334150999992000120306004+49570+025590FM-12+032499999V0201801N003010003019N0005001N1-00361-00361102441ADDAA199000091AY141061AY241061GA1091+999999999GF109991091999999999999999KA1120N-00361MD1310051+9999MW1491REMSYN076AAXX  03061 33415 31/93 91803 11036 21036 40244 53005 74944 333 21036 93508;EQDQ01  00002PRCP99
0150334150999992000120309004+49570+025590FM-12+032499999V0201601N003010003019N0005001N1-00261-00261102431ADDAY141031AY241031GA1091+999999999GF109991091999999999999999MD1210011+9999MW1491REMSYN060AAXX  03091 33415 41/93 91603 11026 21026 40243 52001 74944;
0171334150999992000120312004+49570+025590FM-12+032499999V0201601N003010003019N0005001N1-00181-00181102411ADDAY141061AY241061GA1091+999999999GF109991091999999999999999MA1999999098291MD1410001+9999MW1491REMSYN066AAXX  03121 33415 41/93 91603 11018 21018 39829 40241 54000 74944;
0150334150999992000120315004+49570+025590FM-12+032499999V0201401N003010003019N0005001N1-00161-00161102371ADDAY141031AY241031GA1091+999999999GF109991091999999999999999MD1810041+9999MW1491REMSYN060AAXX  03151 33415 41/93 91403 11016 21016 40237 58004 74944;
0203334150999992000120318004+49570+025590FM-12+032499999V0201801N003010003019N0005001N1-00181-00181102401ADDAA199000091AY141061AY241061GA1091+999999999GF109991091999999999999999KA1999M-00141MD1310031+9999MW1491REMSYN070AAXX  03181 33415 31/93 91803 11018 21018 40240 53003 74944 333 11014;EQDQ01  00002PRCP99
0150334150999992000120321004+49570+025590FM-12+032499999V0201601N003010003019N0005001N1-00231-00231102421ADDAY141031AY241031GA1091+999999999GF109991091999999999999999MD1410001+9999MW1491REMSYN060AAXX  03211 33415 41/93 91603 11023 21023 40242 54000 74944;
0171334150999992000120400004+49570+025590FM-12+032499999V0201801N004010003019N0005001N1-00251-00251102421ADDAY141061AY241061GA1091+999999999GF109991091999999999999999MA1999999098281MD1410001+9999MW1491REMSYN066AAXX  04001 33415 41/93 91804 11025 21025 39828 40242 54000 74944;
0166334150999992000120403004+49570+025590FM-12+032499999V0201801N004010003019N0005001N1-00281-00281102401ADDAY141031AY241031GA1091+999999999GF109991091999999999999999MD1810021+9999MW1491REMSYN076AAXX  04031 33415 41/93 91804 11028 21028 40240 58002 74944 555 21030 7000/;
0203334150999992000120406004+49570+025590FM-12+032499999V0201601N004010003019N0005001N1-00281-00281102401ADDAA199000091AY141061AY241061GA1091+999999999GF109991091999999999999999KA1999N-00301MD1410001+9999MW1491REMSYN070AAXX  04061 33415 31/93 91604 11028 21028 40240 54000 74944 333 21030;EQDQ01  00002PRCP99
0166334150999992000120409004+49570+025590FM-12+032499999V0202301N002010012019N0040001N1-00181-00261102461ADDAY141031AY221031GA1081+001209069GF108991081061001501999999MD1310071+9999MW1101REMSYN076AAXX  04091 33415 41296 82302 11018 21026 40246 53007 71042 886// 333 88704;
0187334150999992000120412004+49570+025590FM-12+032499999V0202001N002010360019N0040001N1-00021-00141102411ADDAY141061AY221061GA1041+006609059GF107991041051008001031001MA1999999098311MD1810021+9999MW1021REMSYN082AAXX  04121 33415 41596 72002 11002 21014 39831 40241 58002 70242 84530 333 84622;
0140334150999992000120415004+49570+025590FM-12+032499999V0201801N002019999999N0040001N1+00021-00121102411ADDAY121031AY221031GF107991031001999999031011MD1410001+9999MW1101REMSYN066AAXX  04151 33415 41996 71802 10002 21012 40241 54000 71022 83031;
0203334150999992000120418004+49570+025590FM-12+032499999V0201801N001010003019N0005001N1+00041+00041102471ADDAA199000091AY141061AY221061GA1091+999999999GF109991091999999999999999KA1999M+00041MD1310061+9999MW1471REMSYN070AAXX  04181 33415 31/93 91801 10004 20004 40247 53006 74742 333 10004;EQDQ01  00002PRCP99
0150334150999992000120421004+49570+025590FM-12+032499999V0209999C000010003019N0005001N1+00121+00121102521ADDAY141031AY241031GA1091+999999999GF109991091999999999999999MD1210061+9999MW1451REMSYN060AAXX  04211 33415 41/93 90000 10012 20012 40252 52006 74544;
0171334150999992000120500004+49570+025590FM-12+032499999V0209999C000010003019N0005001N1+00101+00101102541ADDAY141061AY241061GA1091+999999999GF109991091999999999999999MA1999999098451MD1210021+9999MW1451REMSYN066AAXX  05001 33415 41/93 90000 10010 20010 39845 40254 52002 74544;
0166334150999992000120503004+49570+025590FM-12+032499999V0209999C000010003019N0005001N1+00141+00141102551ADDAY141031AY241031GA1091+999999999GF109991091999999999999999MD1210011+9999MW1451REMSYN076AAXX  05031 33415 41/93 90000 10014 20014 40255 52001 74544 555 20009 7000/;
0193334150999992000120506004+49570+025590FM-12+032499999V0200901N002010012019N0020001N1+00181+00131102591ADDAA199000091AY141061AY221061GF108991081061001501999999KA1999N+00041MD1210051+9999MW1101REMSYN076AAXX  05061 33415 31295 80902 10018 20013 40259 52005 71042 886// 333 20004;EQDQ01  00002PRCP99
0166334150999992000120509004+49570+025590FM-12+032499999V0209999C000010018019N0020001N1+00221+00171102721ADDAY121031AY221031GA1081+001809069GF108991081061001501999999MD1210131+9999MW1101REMSYN076AAXX  05091 33415 41295 80000 10022 20017 40272 52013 71022 886// 333 88706;
0187334150999992000120512004+49570+025590FM-12+032499999V0201601N001010018019N0020001N1+00341+00271102691ADDAY121061AY221061GA1081+001809069GF108991081061001501999999MA1999999098621MD1810021+9999MW1101REMSYN082AAXX  05121 33415 41295 81601 10034 20027 39862 40269 58002 71022 886// 333 88706;
0166334150999992000120515004+49570+025590FM-12+032499999V0209999C000010015019N0020001N1+00381+00311102671ADDAY121031AY221031GA1081+001509069GF108991081061001501999999MD1410001+9999MW1101REMSYN076AAXX  05151 33415 41295 80000 10038 20031 40267 54000 71022 886// 333 88705;
0203334150999992000120518004+49570+025590FM-12+032499999V0201601N002010003019N0005001N1+00141+00141102721ADDAA199000091AY141061AY221061GA1091+999999999GF109991091999999999999999KA1999M+00401MD1410001+9999MW1451REMSYN070AAXX  05181 33415 31/93 91602 10014 20014 40272 54000 74542 333 10040;EQDQ01  00002PRCP99
0180334150999992000120521004+49570+025590FM-12+032499999V0201601N002010003019N0005001N1+00021+00021102821ADDAA199000091AY141031AY241031GA1091+999999999GF109991091999999999999999MD1310081+9999MW1451REMSYN060AAXX  05211 33415 31/93 91602 10002 20002 40282 53008 74544;EQDQ01  00002PRCP99
0171334150999992000120600004+49570+025590FM-12+032499999V0201601N002010003019N0005001N1-00011-00011102821ADDAY141061AY241061GA1091+999999999GF109991091999999999999999MA1999999098701MD1410001+9999MW1491REMSYN066AAXX  06001 33415 41/93 91602 11001 21001 39870 40282 54000 74944;
0166334150999992000120603004+49570+025590FM-12+032499999V0201601N004010003019N0005001N1+00021+00021102821ADDAY141031AY241031GA1091+999999999GF109991091999999999999999MD1410001+9999MW1451REMSYN076AAXX  06031 33415 41/93 91604 10002 20002 40282 54000 74544 555 21004 7000/;
0203334150999992000120606004+49570+025590FM-12+032499999V0201401N004010003019N0005001N1+00021+00021102821ADDAA199000091AY141061AY241061GA1091+999999999GF109991091999999999999999KA1999N-00041MD1410001+9999MW1451REMSYN070AAXX  06061 33415 31/93 91404 10002 20002 40282 54000 74544 333 21004;EQDQ01  00002PRCP99
0150334150999992000120609004+49570+025590FM-12+032499999V0201601N006010003019N0005001N1+00111+00111102891ADDAY141031AY241031GA1091+999999999GF109991091999999999999999MD1310091+9999MW1451REMSYN060AAXX  06091 33415 41/93 91606 10011 20011 40289 53009 74544;
0166334150999992000120612004+49570+025590FM-12+032499999V0201401N006010015019N0020001N1+00261+00211102811ADDAY141061AY221061GA1081+001509069GF108991081061001501999999MD1810071+9999MW1101REMSYN076AAXX  06121 33415 41295 81406 10026 20021 40281 58007 71042 886// 333 88705;
0166334150999992000120615004+49570+025590FM-12+032499999V0201601N005010018019N0040001N1+00301+00201102811ADDAY121031AY221031GA1081+001809069GF108991081061001501999999MD1310021+9999MW1101REMSYN076AAXX  06151 33415 41296 81605 10030 20020 40281 53002 71022 886// 333 88706;
0215334150999992000120618004+49570+025590FM-12+032499999V0201401N005010018019N0040001N1+00311+00211102811ADDAA199000091AY121061AY221061GA1081+001809069GF108991081061001501999999KA1120M+00311MD1410001+9999MW1101REMSYN082AAXX  06181 33415 31296 81405 10031 20021 40281 54000 71022 886// 333 10031 88706;EQDQ01  00002PRCP99
0166334150999992000120621004+49570+025590FM-12+032499999V0201401N006010015019N0040001N1+00281+00201102841ADDAY121031AY221031GA1081+001509069GF108991081061001501999999MD1310031+9999MW1101REMSYN076AAXX  06211 33415 41296 81406 10028 20020 40284 53003 71022 886// 333 88705;
0187334150999992000120700004+49570+025590FM-12+032499999V0201601N008010021019N0040001N1+00301+00171102781ADDAY121061AY221061GA1081+002109069GF108991081061002501999999MA1999999098711MD1810061+9999MW1101REMSYN082AAXX  07001 33415 41396 81608 10030 20017 39871 40278 58006 71022 886// 333 88707;
0154334150999992000120703004+49570+025590FM-12+032499999V0201401N005010033019N0100001N1+00291+00081102741ADDGA1061+003309079GF108991061071004501031999MD1710041+9999REMSYN086AAXX  07031 33415 42497 81405 10029 20008 40274 57004 8673/ 333 86711 555 20029 7000/;
0187334150999992000120706004+49570+025590FM-12+032499999V0201401N005010042019N0100001N1+00281+00041102751ADDAA199000091GA1051+004209059GF108991051051004501031999KA1120N+00281MD1310011+9999REMSYN076AAXX  07061 33415 32497 81405 10028 20004 40275 53001 8553/ 333 20028 85614;EQDQ01  00002PRCP99
0138334150999992000120709004+49570+025590FM-12+032499999V0201401N009010030019N0100001N1+00281+00041102821ADDGA1061+003009059GF107991061051004501031001MD1210071+9999REMSYN070AAXX  07091 33415 42497 71409 10028 20004 40282 52007 86530 333 86610;
0159334150999992000120712004+49570+025590FM-12+032499999V0201401N008010030019N0100001N1+00301+00121102761ADDGA1081+003009059GF108991081051002501999999MA1999999098691MD1810061+9999REMSYN076AAXX  07121 33415 42397 81408 10030 20012 39869 40276 58006 885// 333 88610;
0138334150999992000120715004+49570+025590FM-12+032499999V0201401N008010036019N0100001N1+00321+00111102691ADDGA1081+003609059GF108991081051004501999999MD1710081+9999REMSYN070AAXX  07151 33415 42497 81408 10032 20011 40269 57008 885// 333 88612;
0175334150999992000120718004+49570+025590FM-12+032499999V0201401N007012200019N0100001N1+00171-00051102691ADDAA199000091GA1001+999999999GF100991001001999999001001KA1999M+00331MD1710031+9999REMSYN064AAXX  07181 33415 32997 01407 10017 21005 40269 57003 333 10033;EQDQ01  00002PRCP99
0159334150999992000120800004+49570+025590FM-12+032499999V0201401N00501002101CN0100001N1+00201+00011102591ADDGA1041+002409069GF108991081051002501999999MA1999999098511MD1810081+9999REMSYN076AAXX  08001 33415 42397 81405 10020 20001 39851 40259 58008 885// 333 84708;
0154334150999992000120803004+49570+025590FM-12+032499999V0201401N007010021019N0100001N1+00181+00021102521ADDGA1041+002109079GF108991081051002501999999MD1710141+9999REMSYN086AAXX  08031 33415 42397 81407 10018 20002 40252 57014 885// 333 84707 555 20015 7000/;
0187334150999992000120806004+49570+025590FM-12+032499999V0201401N006010024019N0100001N1+00171-00021102491ADDAA199000091GA1051+002409069GF108991051071002501031999KA1120N+00151MD1710051+9999REMSYN076AAXX  08061 33415 32397 81406 10017 21002 40249 57005 8573/ 333 20015 85708;EQDQ01  00002PRCP99
0138334150999992000120809004+49570+025590FM-12+032499999V0201401N006010024019N0100001N1+00161+00001102521ADDGA1061+002409069GF108991061071002501031999MD1310031+9999REMSYN070AAXX  08091 33415 42397 81406 10016 21000 40252 53003 8673/ 333 86708;
0187334150999992000120812004+49570+025590FM-12+032499999V0201401N007010021019N0040001N1+00171+00011102401ADDAY121061AY221061GA1061+002109069GF108991061071002501031999MA1999999098311MD1810121+9999MW1101REMSYN082AAXX  08121 33415 41396 81407 10017 20001 39831 40240 58012 71022 8673/ 333 86707;
0166334150999992000120815004+49570+025590FM-12+032499999V0201401N005010024019N0040001N1+00141-00031102321ADDAY121031AY221031GA1081+002409069GF108991081061002501999999MD1710071+9999MW1101REMSYN076AAXX  08151 33415 41396 81405 10014 21003 40232 57007 71022 886// 333 88708;
0187334150999992000120818004+49570+025590FM-12+032499999V0201401N005010030019N0100001N1+00161-00031102301ADDAA199000091GA1051+003009069GF108991051071004501031999KA1120M+00181MD1710021+9999REMSYN076AAXX  08181 33415 32497 81405 10016 21003 40230 57002 8573/ 333 10018 85710;EQDQ01  00002PRCP99
0138334150999992000120821004+49570+025590FM-12+032499999V0201401N006010036019N0100001N1+00201+00011102201ADDGA1051+003609059GF108991051051004501031999MD1710081+9999REMSYN070AAXX  08211 33415 42497 81406 10020 20001 40220 57008 8553/ 333 85612;
0187334150999992000120900004+49570+025590FM-12+032499999V0201401N007010360019N0100001N1+00201+00011102161ADDAY181061AY221061GA1041+003909099GF107991041031004501031001MA1999999098101MD1710041+9999MW1021REMSYN082AAXX  09001 33415 41497 71407 10020 20001 39810 40216 57004 70282 84330 333 84913;
0154334150999992000120903004+49570+025590FM-12+032499999V0201401N005010360019N0100001N1+00151+00011102141ADDGA1041+004209069GF107991041051004501031001MD1710031+9999REMSYN086AAXX  09031 33415 42497 71405 10015 20001 40214 57003 84530 333 84614 555 20014 7990/;
0202334150999992000120906004+49570+025590FM-12+032499999V0201401N006010027019N0040001N1+00091-00051102141ADDAA112000791AY121061AY221061GA1051+002709069GF108991051071002501031999KA1120N+00081MD1410001+9999MW1101REMSYN088AAXX  09061 33415 31396 81406 10009 21005 40214 54000 69902 71022 8573/ 333 20008 85709;
0166334150999992000120909004+49570+025590FM-12+032499999V0201301N005010018019N0040001N1+00161+00001102151ADDAY121031AY221031GA1081+001809069GF108991081061002501999999MD1310011+9999MW1101REMSYN076AAXX  09091 33415 41396 81305 10016 20000 40215 53001 71022 886// 333 88706;
0187334150999992000120912004+49570+025590FM-12+032499999V0201301N005010021019N0040001N1+00221+00091102131ADDAY161061AY221061GA1061+002109069GF108991081051002501999999MA1999999098071MD1810011+9999MW1611REMSYN082AAXX  09121 33415 41396 81305 10022 20009 39807 40213 58001 76162 885// 333 86707;
0166334150999992000120915004+49570+025590FM-12+032499999V0201301N003010018019N0020001N1+00211+00111102121ADDAY161031AY221031GA1061+001809069GF108991081051002501999999MD1710011+9999MW1101REMSYN076AAXX  09151 33415 41395 81303 10021 20011 40212 57001 71062 885// 333 86706;
0202334150999992000120918004+49570+025590FM-12+032499999V0201601N003010024019N0040001N1+00221+00121102081ADDAA112003091AY161061AY221061GA1071+002409069GF108991061071002501031999KA1120M+00231MD1710041+9999MW1101REMSYN088AAXX  09181 33415 11396 81603 10022 20012 40208 57004 60032 71062 8673/ 333 10023 87708;
0166334150999992000120921004+49570+025590FM-12+032499999V0201601N001010033019N0040001N1+00201+00121102071ADDAY121031AY221031GA1051+003309069GF108991051071004501031999MD1710011+9999MW1101REMSYN076AAXX  09211 33415 41496 81601 10020 20012 40207 57001 71022 8573/ 333 85711;
0187334150999992000121000004+49570+025590FM-12+032499999V0209999V002010036019N0040001N1+00211+00181102131ADDAY121061AY221061GA1051+003609069GF108991051071004501031999MA1999999097971MD1710041+9999MW1101REMSYN082AAXX  10001 33415 41496 89902 10021 20018 39797 40213 57004 71022 8573/ 333 85712;
0182334150999992000121003004+49570+025590FM-12+032499999V0202001N002010063019N0040001N1+00281+00181102021ADDAY121031AY221031GA1051+006309069GF108991051051008001031999MD1310011+9999MW1101REMSYN092AAXX  10031 33415 41596 82002 10028 20018 40202 53001 71022 8553/ 333 85621 555 20020 7003/;
0193334150999992000121006004+49570+025590FM-12+032499999V0202001N002019999999N0040001N1+00271+00141101971ADDAA199000091AY121061AY221061GF107991071001999999031001KA1999N+00201MD1810051+9999MW1101REMSYN076AAXX  10061 33415 31996 72002 10027 20014 40197 58005 71022 87030 333 20020;EQDQ01  00002PRCP99
0140334150999992000121009004+49570+025590FM-12+032499999V0202301N003019999999N0040001N1+00581+00341102001ADDAY121031AY221031GF107991071001999999031001MD1310071+9999MW1101REMSYN066AAXX  10091 33415 41996 72303 10058 20034 40200 53007 71022 87030;
0161334150999992000121012004+49570+025590FM-12+032499999V0202301N002010360019N0040001N1+00671+00491101901ADDAY181061AY221061GF107991041031012501031001MA1999999097921MD1810081+9999MW1801REMSYN072AAXX  10121 33415 41696 72302 10067 20049 39792 40190 58008 78082 84330;
0140334150999992000121015004+49570+025590FM-12+032499999V0202301N002010360019N0040001N1+00531+00391101931ADDAY181031AY281031GF107991041031012501031001MD1410001+9999MW1801REMSYN066AAXX  10151 33415 41696 72302 10053 20039 40193 54000 78088 84330;
0180334150999992000121018004+49570+025590FM-12+032499999V0202501N002010120019N0040001N1+00521+00431101931ADDAA112003091AY181061AY221061GF107991051031012501031001KA1999M+00681MD1410001+9999MW1801REMSYN082AAXX  10181 33415 11696 72502 10052 20043 40193 54000 60032 78082 85330 333 10068;
0140334150999992000121021004+49570+025590FM-12+032499999V0202501N002010360019N0040001N1+00491+00421101931ADDAY181031AY221031GF107991041031012501031001MD1410001+9999MW1101REMSYN066AAXX  10211 33415 41696 72502 10049 20042 40193 54000 71082 84330;
0161334150999992000121100004+49570+025590FM-12+032499999V0209999C000010360019N0020001N1+00381+00331101911ADDAY181061AY221061GF106991021031012501031001MA1999999097891MD1810031+9999MW1101REMSYN072AAXX  11001 33415 41695 60000 10038 20033 39789 40191 58003 71082 82330;
0156334150999992000121103004+49570+025590FM-12+032499999V0209999C000019999999N0020001N1+00221+00171101881ADDAY121031AY221031GF106991061001999999031001MD1710061+9999MW1101REMSYN082AAXX  11031 33415 41995 60000 10022 20017 40188 57006 71022 86030 555 20021 7004/;
0221334150999992000121106004+49570+025590FM-12+032499999V0201401N001010360019N0020001N1-00181+99999101881ADDAA112001091AY181061AY221061GA1041+006009099GF107991041031008001031001KA1120N+99999MD1410001+9999MW1801REMSYN088AAXX  11061 33415 11595 71401 11018 20030 40188 54000 60012 78082 84330 333 20012 84920;EQDQ01 +00122ATMN  
0166334150999992000121109004+49570+025590FM-12+032499999V0202001N003010066019N0040001N1+00491+00421101791ADDAY181031AY281031GA1051+006609099GF108991051031008001031001MD1810041+9999MW1801REMSYN076AAXX  11091 33415 41596 82003 10049 20042 40179 58004 78088 85330 333 85922;
0187334150999992000121112004+49570+025590FM-12+032499999V0202501N005010042019N0040001N1+00601+00491101781ADDAY181061AY221061GA1061+004209099GF108991061031004501071999MA1999999097791MD1410001+9999MW1251REMSYN082AAXX  11121 33415 41496 82505 10060 20049 39779 40178 54000 72582 8637/ 333 86914;
0166334150999992000121115004+49570+025590FM-12+032499999V0202701N005010048019N0040001N1+00621+00531101971ADDAY151031AY221031GA1061+004809099GF108991061031004501031001MD1310181+9999MW1101REMSYN076AAXX  11151 33415 41496 82705 10062 20053 40197 53018 71052 86330 333 86916;
0202334150999992000121118004+49570+025590FM-12+032499999V0202701N004010030019N0040001N1+00601+00511102111ADDAA112002091AY181061AY251061GA1061+003009099GF108991061031004501031001KA1120M+00641MD1210141+9999MW1251REMSYN088AAXX  11181 33415 11496 82704 10060 20051 40211 52014 60022 72585 86330 333 10064 86910;
0166334150999992000121121004+49570+025590FM-12+032499999V0202701N005010027019N0040001N1+00621+00481102291ADDAY181031AY221031GA1061+002709099GF108991061031002501031999MD1210171+9999MW1801REMSYN076AAXX  11211 33415 41396 82705 10062 20048 40229 52017 78082 8633/ 333 86909;
0187334150999992000121200004+49570+025590FM-12+032499999V0202701N004010045019N0040001N1+00641+00501102341ADDAY181061AY221061GA1061+004509099GF108991061031004501031999MA1999999098331MD1210041+9999MW1101REMSYN082AAXX  12001 33415 41496 82704 10064 20050 39833 40234 52004 71082 8633/ 333 86915;
0182334150999992000121203004+49570+025590FM-12+032499999V0202501N003010360019N0040001N1+00541+00401102361ADDAY121031AY221031GA1031+009009099GF107991031031008001031001MD1410001+9999MW1101REMSYN092AAXX  12031 33415 41596 72503 10054 20040 40236 54000 71022 83330 333 83930 555 20052 7003/;
0174334150999992000121206004+49570+025590FM-12+032499999V0202301N004010069019N0100001N1+00471+00351102401ADDAA112000591GA1061+006909099GF107991061031008001031001KA1120N+00461MD1310041+9999REMSYN082AAXX  12061 33415 32597 72304 10047 20035 40240 53004 69942 86330 333 20046 86923;
0166334150999992000121209004+49570+025590FM-12+032499999V0202301N002010078019N0100001N1+00561+00321102421ADDAY181031AY221031GA1061+007809099GF107991061031008001031001MD1210041+9999MW1251REMSYN076AAXX  12091 33415 41597 72302 10056 20032 40242 52004 72582 86330 333 86926;
0161334150999992000121212004+49570+025590FM-12+032499999V0202301N005010360019N0100001N1+00821+00431102201ADDAY181061AY221061GF107991021051012501031011MA1999999098221MD1810191+9999MW1021REMSYN072AAXX  12121 33415 41697 72305 10082 20043 39822 40220 58019 70282 82531;
0112334150999992000121215004+49570+025590FM-12+032499999V0202301N004010360019N0100001N1+00781+00411102131ADDGF107991031051012501031001MD1710071+9999REMSYN060AAXX  12151 33415 42697 72304 10078 20041 40213 57007 83530;
0152334150999992000121218004+49570+025590FM-12+032499999V0202301N003010360019N0100001N1+00721+00381102061ADDAA112000791GF107991041051012501031001KA1999M+00881MD1710071+9999REMSYN076AAXX  12181 33415 12697 72303 10072 20038 40206 57007 69902 84530 333 10088;
0166334150999992000121221004+49570+025590FM-12+032499999V0202301N005010066019N0100001N1+00691+00491102001ADDAY181031AY221031GA1051+006609099GF108991051031008001031999MD1710061+9999MW1801REMSYN076AAXX  12211 33415 41597 82305 10069 20049 40200 57006 78082 8533/ 333 85922;
0187334150999992000121300004+49570+025590FM-12+032499999V0202301N003010042019N0049001N1+00641+00531102021ADDAY181061AY221061GA1061+004209099GF107991061031000751031001MA1999999098021MD1410001+9999MW1021REMSYN082AAXX  13001 33415 41149 72303 10064 20053 39802 40202 54000 70282 86330 333 86914;
0182334150999992000121303004+49570+025590FM-12+032499999V0202501N004010030019N0040001N1+00681+00571101801ADDAY121031AY221031GA1061+003009099GF107991061031004501031001MD1810191+9999MW1101REMSYN092AAXX  13031 33415 41496 72504 10068 20057 40180 58019 71022 86330 333 86910 555 20064 7001/;
0202334150999992000121306004+49570+025590FM-12+032499999V0202501N004010024019N0040001N1+00731+00641101761ADDAA112001091AY181061AY221061GA1061+002409069GF107991061071002501031001KA1120N+00641MD1710031+9999MW1101REMSYN088AAXX  13061 33415 11396 72504 10073 20064 40176 57003 60012 71082 86730 333 20064 86708;
0166334150999992000121309004+49570+025590FM-12+032499999V0202501N004010021019N0040001N1+00801+00741101711ADDAY161031AY221031GA1051+002109069GF108991051071002501021999MD1710051+9999MW1611REMSYN076AAXX  13091 33415 41396 82504 10080 20074 40171 57005 76162 8572/ 333 85707;
0187334150999992000121312004+49570+025590FM-12+032499999V0202301N004010360019N0040001N1+00911+00781101611ADDAY161061AY221061GA1041+006909059GF107991041051008001031001MA1999999097671MD1710081+9999MW1101REMSYN082AAXX  13121 33415 41596 72304 10091 20078 39767 40161 57008 71062 84530 333 84623;
0166334150999992000121315004+49570+025590FM-12+032499999V0202301N006010048019N0040001N1+00841+00761101541ADDAY181031AY261031GA1061+004809099GF108991061031004501031999MD1710071+9999MW1801REMSYN076AAXX  13151 33415 41496 82306 10084 20076 40154 57007 78086 8633/ 333 86916;
0180334150999992000121318004+49570+025590FM-12+032499999V0202301N004010120019N0100001N1+00811+00731101471ADDAA112002091AY181061AY221061GF108991061031012501031999KA1999M+00911MD1710081+9999MW1021REMSYN082AAXX  13181 33415 11697 82304 10081 20073 40147 57008 60022 70282 8633/ 333 10091;
0112334150999992000121321004+49570+025590FM-12+032499999V0202501N008019999999N0100001N1+00841+00681101401ADDGF107991071001999999031001MD1710051+9999REMSYN060AAXX  13211 33415 42997 72508 10084 20068 40140 57005 87030;
0133334150999992000121400004+49570+025590FM-12+032499999V0202501N005019999999N0100001N1+00761+00581101421ADDGF107991071001999999031001MA1999999097481MD1310011+9999REMSYN066AAXX  14001 33415 42997 72505 10076 20058 39748 40142 53001 87030;
0128334150999992000121403004+49570+025590FM-12+032499999V0202501N003019999999N0100001N1+00701+00511101361ADDGF107991071001999999031001MD1810081+9999REMSYN076AAXX  14031 33415 42997 72503 10070 20051 40136 58008 87030 555 20069 7002/;
0165334150999992000121406004+49570+025590FM-12+032499999V0202501N005019999999N0100001N1+00571+00301101301ADDAA199000091GF107991071001999999031001KA1999N+00561MD1710071+9999REMSYN070AAXX  14061 33415 32997 72505 10057 20030 40130 57007 87030 333 20056;EQDQ01  00002PRCP99
0112334150999992000121409004+49570+025590FM-12+032499999V0202501N007019999999N0100001N1+00741+00401101211ADDGF106991031001999999031011MD1710071+9999REMSYN060AAXX  14091 33415 42997 62507 10074 20040 40121 57007 83031;
0133334150999992000121412004+49570+025590FM-12+032499999V0202501N008010360019N0100001N1+00961+00301101071ADDGF107991041051012501031001MA1999999097161MD1710101+9999REMSYN066AAXX  14121 33415 42697 72508 10096 20030 39716 40107 57010 84530;
0112334150999992000121415004+49570+025590FM-12+032499999V0202301N005019999999N0100001N1+00761+00291101051ADDGF105991021001999999031011MD1710051+9999REMSYN060AAXX  14151 33415 42997 52305 10076 20029 40105 57005 82031;
0165334150999992000121418004+49570+025590FM-12+032499999V0202301N006012200019N0100001N1+00541+00141100981ADDAA199000091GF104991001001999999001011KA1999M+00981MD1710101+9999REMSYN070AAXX  14181 33415 32997 42306 10054 20014 40098 57010 80001 333 10098;EQDQ01  00002PRCP99
0112334150999992000121421004+49570+025590FM-12+032499999V0202501N004019999999N0100001N1+00401+00091101001ADDGF105991001001999999001011MD1410001+9999REMSYN060AAXX  14211 33415 42997 52504 10040 20009 40100 54000 80001;
0161334150999992000121500004+49570+025590FM-12+032499999V0202501N003010360019N0100001N1+00401+00201100891ADDAY181061AY221061GF107991031031012501031011MA1999999096901MD1810111+9999MW1021REMSYN072AAXX  15001 33415 41697 72503 10040 20020 39690 40089 58011 70282 83331;
0156334150999992000121503004+49570+025590FM-12+032499999V0201801N002010360019N0100001N1+00381+00281100781ADDAY181031AY221031GF107991041031012501031001MD1710101+9999MW1251REMSYN082AAXX  15031 33415 41697 71802 10038 20028 40078 57010 72582 84330 555 20038 7001/;
0202334150999992000121506004+49570+025590FM-12+032499999V0201601N004010063019N0100001N1+00401+00331100591ADDAA112001091AY181061AY221061GA1051+006309099GF107991051031008001031001KA1120N+00381MD1710181+9999MW1021REMSYN088AAXX  15061 33415 11597 71604 10040 20033 40059 57018 60012 70282 85330 333 20038 85921;
0166334150999992000121509004+49570+025590FM-12+032499999V0201401N003010360019N0100001N1+00521+00431100441ADDAY181031AY221031GA1041+003309099GF107991041031008001031001MD1710131+9999MW1801REMSYN076AAXX  15091 33415 41597 71403 10052 20043 40044 57013 78082 84330 333 84911;
0161334150999992000121512004+49570+025590FM-12+032499999V0202001N004010360019N0100001N1+00641+00481100211ADDAY181061AY221061GF106991021051008001031001MA1999999096291MD1710201+9999MW1011REMSYN072AAXX  15121 33415 41597 62004 10064 20048 39629 40021 57020 70182 82530;
0112334150999992000121515004+49570+025590FM-12+032499999V0201801N002010360019N0100001N1+00601+00411100171ADDGF107991031051012501031001MD1710041+9999REMSYN060AAXX  15151 33415 42697 71802 10060 20041 40017 57004 83530;
0152334150999992000121518004+49570+025590FM-12+032499999V0202001N003010360019N0100001N1+00481+00331100171ADDAA112001091GF107991031051012501031001KA1999M+00661MD1710021+9999REMSYN076AAXX  15181 33415 12697 72003 10048 20033 40017 57002 60012 83530 333 10066;
0140334150999992000121521004+49570+025590FM-12+032499999V0202001N004010120019N0100001N1+00521+00381100091ADDAY181031AY221031GF107991051031012501031001MD1710081+9999MW1801REMSYN066AAXX  15211 33415 41697 72004 10052 20038 40009 57008 78082 85330;
0187334150999992000121600004+49570+025590FM-12+032499999V0202001N002010081019N0100001N1+00501+00381100061ADDAY181061AY221061GA1051+008109099GF107991051031012501031001MA1999999096121MD1710031+9999MW1801REMSYN082AAXX  16001 33415 41697 72002 10050 20038 39612 40006 57003 78082 85330 333 85927;
0182334150999992000121603004+49570+025590FM-12+032499999V0202501N003010066019N0100001N1+00481+00381099921ADDAY181031AY281031GA1061+006609099GF107991061031008001031001MD1710131+9999MW1801REMSYN092AAXX  16031 33415 41597 72503 10048 20038 49992 57013 78088 86330 333 86922 555 20047 7004/;
0202334150999992000121606004+49570+025590FM-12+032499999V0202701N005010360019N0100001N1+00381+00181099961ADDAA112003091AY181061AY221061GA1041+009009099GF107991041031008001031001KA1120N+00371MD1310031+9999MW1021REMSYN088AAXX  16061 33415 11597 72705 10038 20018 49996 53003 60032 70282 84330 333 20037 84930;
0112334150999992000121609004+49570+025590FM-12+032499999V0202501N005010900019N0100001N1+00331+00041100001ADDGF105991021031012501031011MD1210021+9999REMSYN060AAXX  16091 33415 42697 52505 10033 20004 40000 52002 82331;
0133334150999992000121612004+49570+025590FM-12+032499999V0202701N007010360019N0100001N1+00461+00101100001ADDGF107991041031012501031001MA1999999096061MD1210021+9999REMSYN066AAXX  16121 33415 42697 72707 10046 20010 39606 40000 52002 84330;
0112334150999992000121615004+49570+025590FM-12+032499999V0202501N004010360019N0100001N1+00331-00021100121ADDGF106991031031012501031001MD1210091+9999REMSYN060AAXX  16151 33415 42697 62504 10033 21002 40012 52009 83330;
0165334150999992000121618004+49570+025590FM-12+032499999V0202701N004010900019N0100001N1+00161-00121100221ADDAA199000091GF105991021031012501031011KA1999M+00471MD1210071+9999REMSYN070AAXX  16181 33415 32697 52704 10016 21012 40022 52007 82331 333 10047;EQDQ01  00002PRCP99
0112334150999992000121621004+49570+025590FM-12+032499999V0202501N008019999999N0100001N1+00141-00111100221ADDGF106991041001999999031011MD1410001+9999REMSYN060AAXX  16211 33415 42997 62508 10014 21011 40022 54000 84031;
0133334150999992000121700004+49570+025590FM-12+032499999V0202201N005012200019N0100001N1+00101-00131100221ADDGF104991021001999999031011MA1999999096221MD1410001+9999REMSYN066AAXX  17001 33415 42997 42205 10010 21013 39622 40022 54000 82031;
0156334150999992000121703004+49570+025590FM-12+032499999V0202301N006010360019N0100001N1+00041-00131100231ADDAY181031AY221031GF107991041031012501031001MD1410001+9999MW1801REMSYN082AAXX  17031 33415 41697 72306 10004 21013 40023 54000 78082 84330 555 20003 7993/;
0209334150999992000121706004+49570+025590FM-12+032499999V0202701N007010360019N0100001N1+00041-00161100431ADDAA112001091AJ100009199999999AY181061AY221061GF106991041031012501031001IA1309KA1120N+00031MD1310191+9999MW1021REMSYN088AAXX  17061 33415 11697 62707 10004 21016 40043 53019 69992 70282 84330 333 20003 42997;
0166334150999992000121709004+49570+025590FM-12+032499999V0202501N007010042019N0040001N1+00061-00051100871ADDAY181031AY221031GA1061+004209099GF108991061031004501031001MD1210421+9999MW1801REMSYN076AAXX  17091 33415 41496 82507 10006 21005 40087 52042 78082 86330 333 86914;
0187334150999992000121712004+49570+025590FM-12+032499999V0202701N006010042019N0100001N1+00121-00051100891ADDAY181061AY221061GA1061+004209099GF108991061031004501031999MA1999999096871MD1210041+9999MW1021REMSYN082AAXX  17121 33415 41497 82706 10012 21005 39687 40089 52004 70282 8633/ 333 86914;
0140334150999992000121715004+49570+025590FM-12+032499999V0202701N005010360019N0100001N1+00131-00291101031ADDAY181031AY221031GF105991021031012501031001MD1210131+9999MW1021REMSYN066AAXX  17151 33415 41697 52705 10013 21029 40103 52013 70282 82330;
0180334150999992000121718004+49570+025590FM-12+032499999V0202301N007019999999N0100001N1+00111-00341101121ADDAA112000891AY181061AY221061GF105991051001999999031001KA1999M+00201MD1210091+9999MW1021REMSYN082AAXX  17181 33415 11997 52307 10011 21034 40112 52009 69982 70282 85030 333 10020;
0138334150999992000121721004+49570+025590FM-12+032499999V0202501N009010360019N0100001N1+00101-00251101241ADDGA1041+006609099GF107991041031008001031001MD1210111+9999REMSYN070AAXX  17211 33415 42597 72509 10010 21025 40124 52011 84330 333 84922;
0161334150999992000121800004+49570+025590FM-12+032499999V0202501N006010360019N0100001N1+00111-00241101391ADDAY181061AY221061GF107991021031008001031001MA1999999097341MD1210141+9999MW1021REMSYN072AAXX  18001 33415 41597 72506 10011 21024 39734 40139 52014 70282 82330;
0182334150999992000121803004+49570+025590FM-12+032499999V0202501N006010042019N0040001N1+00031-00081101461ADDAY181031AY221031GA1061+004209099GF108991061031004501031999MD1210061+9999MW1851REMSYN092AAXX  18031 33415 41496 82506 10003 21008 40146 52006 78582 8633/ 333 86914 555 20003 7001/;
0250334150999992000121806004+49570+025590FM-12+032499999V0202701N005010024019N0040001N1+00021-00091101571ADDAA112000591AJ199993999999999AY181061AY221061GA1061+002409069GF108991081031002501999999IA1309KA1120N+00001MD1210101+9999MW1851REMSYN094AAXX  18061 33415 11396 82705 10002 21009 40157 52010 69942 78582 883// 333 20000 42997 86708;EQDQ01  09982SNDP  
0166334150999992000121809004+49570+025590FM-12+032499999V0202501N005010030019N0100001N1+00071-00101101741ADDAY181031AY221031GA1061+003009099GF107991061031004501031001MD1210171+9999MW1021REMSYN076AAXX  18091 33415 41497 72505 10007 21010 40174 52017 70282 86330 333 86910;
0187334150999992000121812004+49570+025590FM-12+032499999V0202701N006010060019N0100001N1+00151-00071101681ADDAY181061AY221061GA1061+006009099GF107991061031008001031001MA1999999097631MD1810041+9999MW1021REMSYN082AAXX  18121 33415 41597 72706 10015 21007 39763 40168 58004 70282 86330 333 86920;
0138334150999992000121815004+49570+025590FM-12+032499999V0202701N004010099019N0100001N1+00081-00091101681ADDGA1051+009909099GF107991051031008001031001MD1410001+9999REMSYN070AAXX  18151 33415 42597 72704 10008 21009 40168 54000 85330 333 85933;
0152334150999992000121818004+49570+025590FM-12+032499999V0202501N006010120019N0100001N1+00081-00061101771ADDAA112000791GF107991051031012501031001KA1999M+00201MD1310081+9999REMSYN076AAXX  18181 33415 32697 72506 10008 21006 40177 53008 69902 85330 333 10020;
0140334150999992000121821004+49570+025590FM-12+032499999V0202501N006010120019N0100001N1+00051-00061101751ADDAY181031AY221031GF107991061031012501031001MD1810031+9999MW1851REMSYN066AAXX  18211 33415 41697 72506 10005 21006 40175 58003 78582 86330;
0161334150999992000121900004+49570+025590FM-12+032499999V0202701N006010360019N0100001N1+00051-00061101811ADDAY181061AY221061GF107991031031012501031001MA1999999097731MD1310051+9999MW1021REMSYN072AAXX  19001 33415 41697 72706 10005 21006 39773 40181 53005 70282 83330;
0128334150999992000121903004+49570+025590FM-12+032499999V0202701N006010360019N0100001N1+00021-00091101781ADDGF107991031031012501031001MD1810031+9999REMSYN076AAXX  19031 33415 42697 72706 10002 21009 40178 58003 83330 555 20001 7997/;
0209334150999992000121906004+49570+025590FM-12+032499999V0203201N009010360019N0100001N1-00011-00131101811ADDAA112000391AJ100009199999999AY181061AY221061GF107991041031012501031001IA1309KA1120N-00021MD1310031+9999MW1851REMSYN088AAXX  19061 33415 11697 73209 11001 21013 40181 53003 69932 78582 84330 333 21002 42997;
0140334150999992000121909004+49570+025590FM-12+032499999V0202901N005010120019N0100001N1-00061-00371102001ADDAY181031AY221031GF107991051031012501031001MD1210171+9999MW1851REMSYN066AAXX  19091 33415 41697 72905 11006 21037 40200 52017 78582 85330;
0187334150999992000121912004+49570+025590FM-12+032499999V0203401N005010042019N0020001N1-00221-00311102031ADDAY181061AY221061GA1051+004209099GF107991051031004501031001MA1999999097901MD1410001+9999MW1851REMSYN082AAXX  19121 33415 41495 73405 11022 21031 39790 40203 54000 78582 85330 333 85914;
0166334150999992000121915004+49570+025590FM-12+032499999V0203201N004010039019N0100001N1-00301-00401102091ADDAY181031AY221031GA1051+003909099GF107991051031004501031001MD1310061+9999MW1851REMSYN076AAXX  19151 33415 41497 73204 11030 21040 40209 53006 78582 85330 333 85913;
0202334150999992000121918004+49570+025590FM-12+032499999V0203401N007010045019N0100001N1-00421-00511102211ADDAA112001091AY181061AY221061GA1061+004509099GF107991061051004501031001KA1120M-00011MD1210091+9999MW1851REMSYN088AAXX  19181 33415 11497 73407 11042 21051 40221 52009 60012 78582 86530 333 11001 86915;
0166334150999992000121921004+49570+025590FM-12+032499999V0203201N006010360019N0100001N1-00431-00521102341ADDAY181031AY221031GA1041+006909099GF107991041031008001031001MD1210121+9999MW1021REMSYN076AAXX  19211 33415 41597 73206 11043 21052 40234 52012 70282 84330 333 84923;
0187334150999992000122000004+49570+025590FM-12+032499999V0203201N007010054019N0100001N1-00431-00491102361ADDAY181061AY221061GA1051+005409099GF107991051031004501031001MA1999999098191MD1210021+9999MW1851REMSYN082AAXX  20001 33415 41497 73207 11043 21049 39819 40236 52002 78582 85330 333 85918;
0182334150999992000122003004+49570+025590FM-12+032499999V0203201N006010051019N0100001N1-00461-00551102481ADDAY181031AY221031GA1051+005109099GF107991051031004501031001MD1210111+9999MW1851REMSYN092AAXX  20031 33415 41497 73206 11046 21055 40248 52011 78582 85330 333 85917 555 21046 7002/;
0231334150999992000122006004+49570+025590FM-12+032499999V0203401N005010039019N0100001N1-00501-00601102621ADDAA112000591AJ100019199999999AY181061AY221061GA1051+003909099GF107991051031004501031001IA1239KA1120N-00501MD1210121+9999MW1261REMSYN094AAXX  20061 33415 11497 73405 11050 21060 40262 52012 69942 72682 85330 333 21050 47001 85913;
0166334150999992000122009004+49570+025590FM-12+032499999V0203201N006010042019N0100001N1-00501-00711102691ADDAY181031AY281031GA1051+004209099GF108991051031004501031999MD1210221+9999MW1851REMSYN076AAXX  20091 33415 41497 83206 11050 21071 40269 52022 78588 8533/ 333 85914;
0166334150999992000122015004+49570+025590FM-12+032499999V0203201N006010051019N0100001N1-00621-00891102711ADDAY181031AY281031GA1081+005109099GF108991081031004501999999MD1210011+9999MW1851REMSYN076AAXX  20151 33415 41497 83206 11062 21089 40271 52001 78588 883// 333 88917;
0202334150999992000122018004+49570+025590FM-12+032499999V0203401N004010048019N0100001N1-00601-00831103101ADDAA112000191AY181061AY281061GA1081+004809099GF108991081031004501999999KA1120M-00501MD1210101+9999MW1851REMSYN088AAXX  20181 33415 11497 83404 11060 21083 40310 52010 69922 78588 883// 333 11050 88916;
0166334150999992000122021004+49570+025590FM-12+032499999V0203401N005010360019N0100001N1-00601-00791103211ADDAY181031AY281031GA1041+004809099GF108991041031004501031999MD1210101+9999MW1851REMSYN076AAXX  20211 33415 41497 83405 11060 21079 40321 52010 78588 8433/ 333 84916;
0187334150999992000122100004+49570+025590FM-12+032499999V0203201N003010054019N0100001N1-00641-00831103281ADDAY181061AY221061GA1081+005409099GF108991081031004501999999MA1999999099041MD1210071+9999MW1021REMSYN082AAXX  21001 33415 41497 83203 11064 21083 39904 40328 52007 70282 883// 333 88918;
0182334150999992000122103004+49570+025590FM-12+032499999V0203201N004010060019N0100001N1-00661-00821103281ADDAY181031AY221031GA1081+006009099GF108991081031004501999999MD1410001+9999MW1851REMSYN092AAXX  21031 33415 41497 83204 11066 21082 40328 54000 78582 883// 333 88920 555 21066 7992/;
0209334150999992000122106004+49570+025590FM-12+032499999V0202901N004010360019N0100001N1-00731-00981103261ADDAA112000191AJ100019199999999AY181061AY221061GF108991041031012501031999IA1239KA1120N-00741MD1810031+9999MW1851REMSYN088AAXX  21061 33415 11697 82904 11073 21098 40326 58003 69922 78582 8433/ 333 21074 47001;
0140334150999992000122109004+49570+025590FM-12+032499999V0202701N005010360019N0100001N1-00601-00991103331ADDAY181031AY221031GF107991031031012501031001MD1310071+9999MW1021REMSYN066AAXX  21091 33415 41697 72705 11060 21099 40333 53007 70282 83330;
0161334150999992000122112004+49570+025590FM-12+032499999V0202901N005010360019N0100001N1-00591-01021103191ADDAY181061AY221061GF107991031031012501031001MA1999999098951MD1810131+9999MW1021REMSYN072AAXX  21121 33415 41697 72905 11059 21102 39895 40319 58013 70282 83330;
0138334150999992000122115004+49570+025590FM-12+032499999V0202901N006010045019N0100001N1-00671-00951103201ADDGA1051+004509099GF107991051031004501031001MD1310011+9999REMSYN070AAXX  21151 33415 42497 72906 11067 21095 40320 53001 85330 333 85915;
0180334150999992000122118004+49570+025590FM-12+032499999V0202901N005010120019N0100001N1-00671-00911103151ADDAA112000791AY181061AY221061GF107991051031012501031001KA1999M-00561MD1810051+9999MW1261REMSYN082AAXX  21181 33415 11697 72905 11067 21091 40315 58005 69902 72682 85330 333 11056;
0103334150999992000122121004+49570+025590FM-12+032499999V0202901N003019999999N0100001N1-00681-00881103191ADDGF107991999999012501999999REMSYN065AAXX  21211 33415 41697 72903 11068 21088 40319 5303 78582 85330;
0161334150999992000122200004+49570+025590FM-12+032499999V0202901N003010360019N0100001N1-00701-00911103131ADDAY181061AY221061GF107991031031012501031001MA1999999098891MD1810051+9999MW1021REMSYN072AAXX  22001 33415 41697 72903 11070 21091 39889 40313 58005 70282 83330;
0128334150999992000122203004+49570+025590FM-12+032499999V0202901N004010360019N0100001N1-00621-00771103101ADDGF107991041031012501031001MD1710021+9999REMSYN076AAXX  22031 33415 42697 72904 11062 21077 40310 57002 84330 555 21070 7992/;
0203334150999992000122206004+49570+025590FM-12+032499999V0203001N003010057019N0100001N1-00581-00761103051ADDAA112000791AJ100019199999999GA1061+005709099GF107991061031004501001001IA1239KA1120N-00701MD1710051+9999REMSYN088AAXX  22061 33415 32497 73003 11058 21076 40305 57005 69902 86300 333 21070 47001 86919;
0166334150999992000122209004+49570+025590FM-12+032499999V0202701N006010048019N0100001N1-00501-00711103081ADDAY181031AY221031GA1051+004809099GF107991051031004501031001MD1310051+9999MW1851REMSYN076AAXX  22091 33415 41497 72706 11050 21071 40308 53005 78582 85330 333 85916;
0187334150999992000122212004+49570+025590FM-12+032499999V0202501N005010042019N0100001N1-00421-00651103031ADDAY181061AY221061GA1051+004209099GF107991051031004501031001MA1999999098831MD1810041+9999MW1261REMSYN082AAXX  22121 33415 41497 72505 11042 21065 39883 40303 58004 72682 85330 333 85914;
0138334150999992000122215004+49570+025590FM-12+032499999V0202501N004010051019N0100001N1-00441-00671102941ADDGA1051+005109099GF107991051031004501031001MD1710091+9999REMSYN070AAXX  22151 33415 42497 72504 11044 21067 40294 57009 85330 333 85917;
0202334150999992000122218004+49570+025590FM-12+032499999V0202501N004010060019N0100001N1-00481-00651102851ADDAA112000191AY181061AY221061GA1061+006009099GF107991061031008001031001KA1120M-00401MD1710081+9999MW1851REMSYN088AAXX  22181 33415 11597 72504 11048 21065 40285 57008 69922 78582 86330 333 11040 86920;
0166334150999992000122221004+49570+025590FM-12+032499999V0202501N005010060019N0100001N1-00541-00681102801ADDAY181031AY221031GA1051+006009099GF107991051031008001031001MD1710061+9999MW1021REMSYN076AAXX  22211 33415 41597 72505 11054 21068 40280 57006 70282 85330 333 85920;
0161334150999992000122300004+49570+025590FM-12+032499999V0202501N004019999999N0100001N1-00681-00841102681ADDAY181061AY221061GF105991051001999999031001MA1999999098451MD1710151+9999MW1021REMSYN072AAXX  23001 33415 41997 52504 11068 21084 39845 40268 57015 70282 85030;
0128334150999992000122303004+49570+025590FM-12+032499999V0202001N005012200019N0100001N1-00861-00971102401ADDGF103991031001999999031001MD1710291+9999REMSYN076AAXX  23031 33415 42997 32005 11086 21097 40240 57029 83030 555 21087 7992/;
0181334150999992000122306004+49570+025590FM-12+032499999V0202001N005019999999N0100001N1-00791-00971102131ADDAA112000791AJ100019199999999GF107991051001999999031011IA1239KA1120N-00871MD1710261+9999REMSYN082AAXX  23061 33415 12997 72005 11079 21097 40213 57026 69902 85031 333 21087 47001;
0112334150999992000122309004+49570+025590FM-12+032499999V0202001N004019999999N0100001N1-00581-00921101921ADDGF106991031001999999031011MD1710131+9999REMSYN060AAXX  23091 33415 42997 62004 11058 21092 40192 57013 83031;
0133334150999992000122312004+49570+025590FM-12+032499999V0202001N004019999999N0100001N1-00331-00971101601ADDGF106991031001999999031011MA1999999097481MD1710251+9999REMSYN066AAXX  23121 33415 42997 62004 11033 21097 39748 40160 57025 83031;
0112334150999992000122315004+49570+025590FM-12+032499999V0202301N005019999999N0100001N1-00321-00911101461ADDGF106991031001999999031011MD1710141+9999REMSYN060AAXX  23151 33415 42997 62305 11032 21091 40146 57014 83031;
0165334150999992000122318004+49570+025590FM-12+032499999V0202301N006019999999N0100001N1-00381-00961101271ADDAA199000091GF105991021001999999031011KA1999M-00311MD1710201+9999REMSYN070AAXX  23181 33415 32997 52306 11038 21096 40127 57020 82031 333 11031;EQDQ01  00002PRCP99
0112334150999992000122321004+49570+025590FM-12+032499999V0202001N003019999999N0100001N1-00471-01001101241ADDGF106991031001999999031011MD1710031+9999REMSYN060AAXX  23211 33415 42997 62003 11047 21100 40124 57003 83031;
0133334150999992000122400004+49570+025590FM-12+032499999V0202301N002019999999N0100001N1-00491-00941101111ADDGF106991021001999999031011MA1999999096971MD1710171+9999REMSYN066AAXX  24001 33415 42997 62302 11049 21094 39697 40111 57017 82031;
0128334150999992000122403004+49570+025590FM-12+032499999V0202301N002012200019N0100001N1-00781-01191101111ADDGF103991001001999999001011MD1710041+9999REMSYN076AAXX  24031 33415 42997 32302 11078 21119 40111 57004 80001 555 21079 7000/;
0194334150999992000122406004+49570+025590FM-12+032499999V0202901N002012200019N0100001N1-00961-01321101101ADDAA199000091AJ100019199999999GF102991011001999999031011IA1239KA1120N-00971MD1710031+9999REMSYN076AAXX  24061 33415 32997 22902 11096 21132 40110 57003 81031 333 21097 47001;EQDQ01  00002PRCP99
0112334150999992000122409004+49570+025590FM-12+032499999V0202301N005012200019N0100001N1-00621-01161101101ADDGF104991021001999999031011MD1310051+9999REMSYN060AAXX  24091 33415 42997 42305 11062 21116 40110 53005 82031;
0133334150999992000122412004+49570+025590FM-12+032499999V0202301N006010360019N0100001N1-00101-00801100851ADDGF107991031051012501031001MA1999999096781MD1810171+9999REMSYN066AAXX  24121 33415 42697 72306 11010 21080 39678 40085 58017 83530;
0112334150999992000122415004+49570+025590FM-12+032499999V0202001N002010360019N0100001N1-00041-00551100761ADDGF107991031051012501031001MD1710071+9999REMSYN060AAXX  24151 33415 42697 72002 11004 21055 40076 57007 83530;
0165334150999992000122418004+49570+025590FM-12+032499999V0201801N003010360019N0100001N1-00071-00491100681ADDAA199000091GF107991031051012501031001KA1999M-00041MD1710071+9999REMSYN070AAXX  24181 33415 32697 71803 11007 21049 40068 57007 83530 333 11004;EQDQ01  00002PRCP99
0112334150999992000122421004+49570+025590FM-12+032499999V0201601N003019999999N0100001N1-00431-00811100821ADDGF105991051001012501031001MD1310071+9999REMSYN060AAXX  24211 33415 42697 51603 11043 21081 40082 53007 85030;
0133334150999992000122500004+49570+025590FM-12+032499999V0201801N002012200019N0100001N1-00511-00801100691ADDGF103991031001012501031001MA1999999096711MD1410001+9999REMSYN066AAXX  25001 33415 42697 31802 11051 21080 39671 40069 54000 83030;
0128334150999992000122503004+49570+025590FM-12+032499999V0201601N002012200019N0100001N1-00821-01051100831ADDGF102991021001999999031001MD1810051+9999REMSYN076AAXX  25031 33415 42997 21602 11082 21105 40083 58005 82030 555 21084 7000/;
0194334150999992000122506004+49570+025590FM-12+032499999V0201401N002012200019N0100001N1-00841-00991100831ADDAA199000091AJ100019199999999GF104991021001999999031011IA1239KA1120N-00861MD1410001+9999REMSYN076AAXX  25061 33415 32997 41402 11084 21099 40083 54000 82031 333 21086 47001;EQDQ01  00002PRCP99
0112334150999992000122509004+49570+025590FM-12+032499999V0201401N003019999999N0100001N1-00391-00721100631ADDGF106991031001999999031011MD1810121+9999REMSYN060AAXX  25091 33415 42997 61403 11039 21072 40063 58012 83031;
0133334150999992000122512004+49570+025590FM-12+032499999V0201401N004019999999N0100001N1-00061-00541100431ADDGF107991071001999999031001MA1999999096401MD1710141+9999REMSYN066AAXX  25121 33415 42997 71404 11006 21054 39640 40043 57014 87030;
0140334150999992000122515004+49570+025590FM-12+032499999V0201401N005010120019N0100001N1-00061-00401100221ADDAY181031AY221031GF108991061031012501031999MD1710211+9999MW1871REMSYN066AAXX  25151 33415 41697 81405 11006 21040 40022 57021 78782 8633/;
0186334150999992000122518004+49570+025590FM-12+032499999V0201601N002010120019N0100001N1-00011-00121100141ADDAA112000891AY181061AY221061GF108991061031012501031999KA1120M+00021MD1710061+9999MW1251REMSYN088AAXX  25181 33415 11697 81602 11001 21012 40014 57006 69972 72582 8633/ 333 10002 93401;
0140334150999992000122521004+49570+025590FM-12+032499999V0209999V002019999999N0100001N1+00021-00041100091ADDAY161031AY221031GF108991081001999999021999MD1710041+9999MW1611REMSYN066AAXX  25211 33415 41997 89902 10002 21004 40009 57004 76162 8802/;
0161334150999992000122600004+49570+025590FM-12+032499999V0209999C000019999999N0100001N1+00031-00031100021ADDAY161061AY221061GF108991081001999999021999MA1999999096021MD1710071+9999MW1101REMSYN072AAXX  26001 33415 41997 80000 10003 21003 39602 40002 57007 71062 8802/;
0119334150999992000122603004+49570+025590FM-12+032499999V0209999C000019999999N0040001N1+00031-00031099771ADDGF108991999999999999999999REMSYN081AAXX  26031 33415 41996 80000 10003 21003 49977 5705 71022 8803/ 555 21001 7003/;
0209334150999992000122606004+49570+025590FM-12+032499999V0209999C000019999999N0040001N1+00051-00011100001ADDAA112003091AJ100009199999999AY121061AY221061GF108991081001999999031999IA1309KA1120N-00011MD1310031+9999MW1101REMSYN088AAXX  26061 33415 11996 80000 10005 21001 40000 53003 60032 71022 8803/ 333 21001 42997;
0140334150999992000122609004+49570+025590FM-12+032499999V0209999C000010360019N0040001N1+00141+00061100121ADDAY121031AY221031GF107991041051012501031001MD1210121+9999MW1101REMSYN066AAXX  26091 33415 41696 70000 10014 20006 40012 52012 71022 84530;
0161334150999992000122612004+49570+025590FM-12+032499999V0209999C000010360019N0040001N1+00221+00141099991ADDAY121061AY221061GF107991041031012501031001MA1999999096021MD1810101+9999MW1101REMSYN072AAXX  26121 33415 41696 70000 10022 20014 39602 49999 58010 71022 84330;
0140334150999992000122615004+49570+025590FM-12+032499999V0209999C000010120019N0040001N1+00201+00121099901ADDAY181031AY221031GF107991051031012501031001MD1710091+9999MW1801REMSYN066AAXX  26151 33415 41696 70000 10020 20012 49990 57009 78082 85330;
0180334150999992000122618004+49570+025590FM-12+032499999V0200501N003010360019N0100001N1+00241+00161099741ADDAA112000591AY181061AY221061GF107991041031012501031001KA1999M+00241MD1710151+9999MW1801REMSYN082AAXX  26181 33415 11697 70503 10024 20016 49974 57015 69962 78082 84330 333 10024;
0140334150999992000122621004+49570+025590FM-12+032499999V0209999C000010360019N0100001N1+00141+00091099651ADDAY181031AY221031GF107991041031012501031001MD1710101+9999MW1021REMSYN066AAXX  26211 33415 41697 70000 10014 20009 49965 57010 70282 84330;
0161334150999992000122700004+49570+025590FM-12+032499999V0209999C000010360019N0100001N1+00121+00071099591ADDAY181061AY221061GF107991041031012501031001MA1999999095621MD1710011+9999MW1251REMSYN072AAXX  27001 33415 41697 70000 10012 20007 39562 49959 57001 72582 84330;
0128334150999992000122703004+49570+025590FM-12+032499999V0209999C000010360019N0100001N1+00061-00021099631ADDGF106991021051012501031001MD1310021+9999REMSYN076AAXX  27031 33415 42697 60000 10006 21002 49963 53002 82530 555 20006 7996/;
0152334150999992000122706004+49570+025590FM-12+032499999V0209999C000010360019N0100001N1+00141+00001099751ADDAA112000791GF107991041051012501031001KA1999N+00061MD1210131+9999REMSYN076AAXX  27061 33415 12697 70000 10014 20000 49975 52013 69902 84530 333 20006;
0140334150999992000122709004+49570+025590FM-12+032499999V0209999C000010360019N0040001N1+00201+00071099991ADDAY121031AY221031GF107991021051012501031001MD1210251+9999MW1101REMSYN066AAXX  27091 33415 41696 70000 10020 20007 49999 52025 71022 82530;
0160334150999992000122712004+49570+025590FM-12+032499999V0209999C000010120019N0040001N1+00281+00181100051ADDAY181061AY221061GF107991061031012501031001MA1999999096091MD1210071+9999MW1801REMSYN071AAXX  27121 33415 41696 70000 1002820018 39609 40005 52007 78082 86330;
0140334150999992000122715004+49570+025590FM-12+032499999V0209999C000010360019N0010001N1+00241+00191100101ADDAY181031AY221031GF107991021051012501031001MD1210031+9999MW1101REMSYN066AAXX  27151 33415 41694 70000 10024 20019 40010 52003 71082 82530;
0180334150999992000122718004+49570+025590FM-12+032499999V0209999C000010360019N0040001N1+00151+00071100151ADDAA112000791AY181061AY221061GF107991021051012501031001KA1999M+00361MD1210031+9999MW1101REMSYN082AAXX  27181 33415 11696 70000 10015 20007 40015 52003 69902 71082 82530 333 10036;
0140334150999992000122721004+49570+025590FM-12+032499999V0209999C000010360019N0040001N1+00111+00031100261ADDAY121031AY221031GF107991021051012501031001MD1210011+9999MW1101REMSYN066AAXX  27211 33415 41696 70000 10011 20003 40026 52001 71022 82530;
0161334150999992000122800004+49570+025590FM-12+032499999V0209999C000010360019N0040001N1+00091+00011100181ADDAY121061AY221061GF107991021051012501031001MA1999999096181MD1210021+9999MW1101REMSYN072AAXX  28001 33415 41696 70000 10009 20001 39618 40018 52002 71022 82530;
0156334150999992000122803004+49570+025590FM-12+032499999V0209999C000010360019N0040001N1+00151+00071100031ADDAY181031AY221031GF107991031031012501031001MD1810141+9999MW1101REMSYN082AAXX  28031 33415 41696 70000 10015 20007 40003 58014 71082 83330 555 20009 7990/;
0180334150999992000122806004+49570+025590FM-12+032499999V0200401N001010360019N0040001N1+00241+00141099891ADDAA112000891AY181061AY221061GF107991021031012501031001KA1999N+00091MD1710121+9999MW1251REMSYN082AAXX  28061 33415 11696 70401 10024 20014 49989 57012 69982 72582 82330 333 20009;
0140334150999992000122809004+49570+025590FM-12+032499999V0200901N003010360019N0040001N1+00381+00261099831ADDAY121031AY221031GF107991031051012501031001MD1710031+9999MW1101REMSYN066AAXX  28091 33415 41696 70903 10038 20026 49983 57003 71022 83530;
0161334150999992000122812004+49570+025590FM-12+032499999V0201101N004010360019N0040001N1+00511+00371099671ADDAY121061AY221061GF107991031051012501031001MA1999999095751MD1710141+9999MW1101REMSYN072AAXX  28121 33415 41696 71104 10051 20037 39575 49967 57014 71022 83530;
0140334150999992000122815004+49570+025590FM-12+032499999V0201101N002010360019N0040001N1+00451+00351099601ADDAY181031AY221031GF107991041031012501031001MD1710081+9999MW1801REMSYN066AAXX  28151 33415 41696 71102 10045 20035 49960 57008 78082 84330;
0202334150999992000122818004+49570+025590FM-12+032499999V0201101N002010060019N0020001N1+00391+00321099561ADDAA112001091AY181061AY221061GA1051+006009099GF108991051031008001031999KA1120M+00521MD1710041+9999MW1801REMSYN088AAXX  28181 33415 11595 81102 10039 20032 49956 57004 60012 78082 8533/ 333 10052 85920;
0150334150999992000122821004+49570+025590FM-12+032499999V0201101N001010003019N0005001N1+00351+00351099491ADDAY181031AY241031GA1091+999999999GF109991091999999999999999MD1710081+9999MW1451REMSYN060AAXX  28211 33415 41/93 91101 10035 20035 49949 57008 74584;
0171334150999992000122900004+49570+025590FM-12+032499999V0209999C000010003019N0005001N1+00381+00381099501ADDAY181061AY241061GA1091+999999999GF109991091999999999999999MA1999999095571MD1310021+9999MW1801REMSYN066AAXX  29001 33415 41/93 90000 10038 20038 39557 49950 53002 78084;
0182334150999992000122903004+49570+025590FM-12+032499999V0202701N00601002101CN0040001N1+00471+00421099601ADDAY181031AY241031GA1041+002409079GF108991081031002501999999MD1210121+9999MW1801REMSYN092AAXX  29031 33415 41396 82706 10047 20042 49960 52012 78084 883// 333 84708 555 20034 7004/;
0202334150999992000122906004+49570+025590FM-12+032499999V0202701N00601004201CN0040001N1+00421+00351099941ADDAA112003091AY181061AY241061GA1041+003009069GF108991081031004501999999KA1120N+00341MD1210311+9999MW1101REMSYN088AAXX  29061 33415 11496 82706 10042 20035 49994 52031 60032 71084 883// 333 20034 84710;
0166334150999992000122909004+49570+025590FM-12+032499999V0203201N004010027019N0040001N1+00261+00171100241ADDAY121031AY221031GA1081+002709059GF108991081061002501999999MD1210261+9999MW1101REMSYN076AAXX  29091 33415 41396 83204 10026 20017 40024 52026 71022 886// 333 88609;
0187334150999992000122912004+49570+025590FM-12+032499999V0203401N003010045019N0040001N1+00321+00171100281ADDAY181061AY221061GA1051+004509099GF108991051031004501031001MA1999999096311MD1210051+9999MW1101REMSYN082AAXX  29121 33415 41496 83403 10032 20017 39631 40028 52005 71082 85330 333 85915;
0166334150999992000122915004+49570+025590FM-12+032499999V0203601N002010051019N0040001N1+00291+00191100371ADDAY181031AY221031GA1051+005109099GF107991051031004501031001MD1210091+9999MW1101REMSYN076AAXX  29151 33415 41496 73602 10029 20019 40037 52009 71082 85330 333 85917;
0202334150999992000122918004+49570+025590FM-12+032499999V0203601N001010048019N0040001N1+00231+00151100461ADDAA112001091AY181061AY221061GA1051+004809099GF107991051031004501031001KA1120M+00421MD1210071+9999MW1101REMSYN088AAXX  29181 33415 11496 73601 10023 20015 40046 52007 69992 71082 85330 333 10042 85916;
0166334150999992000122921004+49570+025590FM-12+032499999V0202501N002010042019N0040001N1+00221+00141100481ADDAY121031AY221031GA1051+004209059GF107991051051004501031001MD1410001+9999MW1101REMSYN076AAXX  29211 33415 41496 72502 10022 20014 40048 54000 71022 85530 333 85614;
0187334150999992000123000004+49570+025590FM-12+032499999V0209999V002010036019N0040001N1+00211+00131100211ADDAY121061AY221061GA1071+003609059GF108991071051004501001001MA1999999096231MD1810241+9999MW1101REMSYN082AAXX  30001 33415 41496 89902 10021 20013 39623 40021 58024 71022 87500 333 87612;
0182334150999992000123003004+49570+025590FM-12+032499999V0200701N003010021019N0020001N1+00211+00161100161ADDAY121031AY221031GA1081+002109079GF108991081061002501999999MD1710051+9999MW1101REMSYN092AAXX  30031 33415 41395 80703 10021 20016 40016 57005 71022 886// 333 88707 555 20020 7999/;
0215334150999992000123006004+49570+025590FM-12+032499999V0200901N004010009019N0010001N1+00221+00191100041ADDAA199000091AY121061AY221061GA1081+000909069GF108991081061001501999999KA1120N+00201MD1710111+9999MW1101REMSYN082AAXX  30061 33415 31294 80904 10022 20019 40004 57011 71022 886// 333 20020 88703;EQDQ01  00002PRCP99
0166334150999992000123009004+49570+025590FM-12+032499999V0200701N002010009019N0010001N1+00311+00281099951ADDAY151031AY221031GA1081+000909069GF108991081061001501999999MD1710081+9999MW1511REMSYN076AAXX  30091 33415 41294 80702 10031 20028 49995 57008 75152 886// 333 88703;
0187334150999992000123012004+49570+025590FM-12+032499999V0200901N006010009019N0010001N1+00481+00461099741ADDAY151061AY221061GA1081+000909069GF108991081061001501999999MA1999999095821MD1710171+9999MW1101REMSYN082AAXX  30121 33415 41294 80906 10048 20046 39582 49974 57017 71052 886// 333 88703;
0166334150999992000123015004+49570+025590FM-12+032499999V0201101N005010009019N0010001N1+00511+00491099651ADDAY151031AY221031GA1081+000909069GF108991081061001501999999MD1710091+9999MW1511REMSYN076AAXX  30151 33415 41294 81105 10051 20049 49965 57009 75152 886// 333 88703;
0202334150999992000123018004+49570+025590FM-12+032499999V0201101N003010009019N0010001N1+00491+00471099631ADDAA112000891AY151061AY221061GA1081+000909069GF108991081061000751999999KA1120M+00511MD1710021+9999MW1511REMSYN088AAXX  30181 33415 11194 81103 10049 20047 49963 57002 69972 75152 886// 333 10051 88703;
0166334150999992000123021004+49570+025590FM-12+032499999V0201401N006010009019N0010001N1+00481+00461099601ADDAY151031AY221031GA1081+000909069GF108991081061000751999999MD1710021+9999MW1101REMSYN076AAXX  30211 33415 41194 81406 10048 20046 49960 57002 71052 886// 333 88703;
0187334150999992000123100004+49570+025590FM-12+032499999V0202001N004010012019N0010001N1+00431+00411099721ADDAY151061AY221061GA1081+001209069GF108991081061001501999999MA1999999095781MD1310091+9999MW1101REMSYN082AAXX  31001 33415 41294 82004 10043 20041 39578 49972 53009 71052 886// 333 88704;
0182334150999992000123103004+49570+025590FM-12+032499999V0202701N010010012019N0010001N1+00101+00071099981ADDAY161031AY221031GA1071+001209079GF108991071071001501021999MD1210211+9999MW1681REMSYN092AAXX  31031 33415 41294 82710 10010 20007 49998 52021 76862 8772/ 333 87704 555 20009 7002/;
0138334150999992000123109004+49570+025590FM-12+032499999V0202701N007010060019N0100001N1+00021-00221100791ADDGA1061+006009099GF107991061031008001031001MD1210391+9999REMSYN070AAXX  31091 33415 42597 72707 10002 21022 40079 52039 86330 333 86920;
0133334150999992000123112004+49570+025590FM-12+032499999V0202701N007012200019N0100001N1+00041-00321100991ADDGF106991021051008001001011MA1999999096951MD1210201+9999REMSYN066AAXX  31121 33415 42597 62707 10004 21032 39695 40099 52020 82501;
0112334150999992000123115004+49570+025590FM-12+032499999V0202501N005012200019N0100001N1-00041-00381101311ADDGF106991021051012501001011MD1210291+9999REMSYN060AAXX  31151 33415 42697 62505 11004 21038 40131 52029 82501;
0165334150999992000123118004+49570+025590FM-12+032499999V0202301N004012200019N0100001N1-00141-00431101491ADDAA199000091GF106991021051012501001011KA1999M+00051MD1210161+9999REMSYN070AAXX  31181 33415 32697 62304 11014 21043 40149 52016 82501 333 10005;EQDQ01  00002PRCP99
0112334150999992000123121004+49570+025590FM-12+032499999V0202701N005019999999N0100001N1-00191-00471101581ADDGF105991001001999999001011MD1210091+9999REMSYN060AAXX  31211 33415 42997 52705 11019 21047 40158 52009 80001;
