0175375530999992000010206004+41930+045380FM-12+054399999V0209999C000012200019N0200001N1+00551+00241101521ADDAA106000091GA1001+999999999GF100991001001999999001001KA1999N+00241MD1210031+9999REMSYN064AAXX  02061 37553 32998 00000 10055 20024 40152 52003 333 20024;EQDQ01  00002PRCP06
0112375530999992000010209004+41930+045380FM-12+054399999V0209999C000012200019N0200001N1+01361+00151101471ADDGF102991001001999999001011MD1210041+9999REMSYN060AAXX  02091 37553 42998 20000 10136 20015 40147 52004 80001;
0150375530999992000010309004+41930+045380FM-12+054399999V0209999C000010003019N0002001N1+00311+00231101881ADDAY141031AY241031GA1091+999999999GF109991091999999999999999MD1810101+9999MW1451REMSYN060AAXX  03091 37553 41/92 90000 10031 20023 40188 58010 74544;
0203375530999992000010406004+41930+045380FM-12+054399999V0209999C000010003019N0005001N1+00331+00301101641ADDAA106000091AY141061AY241061GA1091+999999999GF109991091999999999999999KA1999N+00211MD1310061+9999MW1451REMSYN070AAXX  04061 37553 31/93 90000 10033 20030 40164 53006 74544 333 20021;EQDQ01  00002PRCP06
0150375530999992000010409004+41930+045380FM-12+054399999V0209999C000010003019N0005001N1+00351+00331101681ADDAY141031AY241031GA1091+999999999GF109991091999999999999999MD1210051+9999MW1451REMSYN060AAXX  04091 37553 41/93 90000 10035 20033 40168 52005 74544;
0143375530999992000010412004+41930+045380FM-12+054399999V0209999C000010150019N0040001N1+00461+00291101521ADDGF108991081051017501001001MA1999999095031MD1810131+9999REMSYN076AAXX  04121 37553 42796 80000 10046 20029 39503 40152 58013 88500 555 10008;
0179375530999992000010503004+41930+045380FM-12+054399999V0209999C000010150019N0040001N1+00271+00221101581ADDAA112003091AY161031AY261031GF108991081051017501999999MD1810081+9999MW1611REMSYN094AAXX  05031 37553 /1796 80000 10027 20022 40158 58008 76166 885// 555 20024 50033 60032 7003/;
0184375530999992000010515004+41930+045380FM-12+054399999V0209999C000010120019N0200001N1+00331+00281101601ADDAA112002891AY161031AY221031GF108991081051012501999999KA1120M+00361MD1210041+9999MW1021REMSYN086AAXX  05151 37553 /1698 80000 10033 20028 40160 52004 70262 885// 333 10036 555 60032;
0171375530999992000010600004+41930+045380FM-12+054399999V0209999C000010120019N0020001N1+00111+00031102261ADDAY141061AY221061GF108991081061012501999999MA1999999095631MD1210041+9999MW1101REMSYN082AAXX  07121 37553 41695 80000 10011 20003 39563 40226 52004 71042 886// 555 11003;
0198375530999992000010603004+41930+045380FM-12+054399999V0209999C000010075019N0040001N1+00301+00271101602ADDAA112395092AY161031AY261031GF108991081001008001021999MD1410001+9999MW1611REMSYN094AAXX  06031 37553 /1596 80000 10030 20027 40160 54000 76166 8802/ 555 20023 50029 63952 7003/;EQDQ01+101603APOSLP
0171375530999992000010612004+41930+045380FM-12+054399999V0209999C000019999999N0040001N1+00081+00051101271ADDAY161061AY261061GF108991081001999999021999MA1999999095051MD1810101+9999MW1731REMSYN082AAXX  06121 37553 41996 80000 10008 20005 39505 40127 58010 77366 8802/ 555 14001;
0140375530999992000010709004+41930+045380FM-12+054399999V0209999C000010120019N0010001N1+00121+00041102201ADDAY141031AY221031GF108991081061012501999999MD1210071+9999MW1101REMSYN066AAXX  07091 37553 41694 80000 10012 20004 40220 52007 71042 886//;
0165375530999992000010715004+41930+045380FM-12+054399999V0209999C000010120019N0200001N1+00151+00071102491ADDAA106000091GF108991081051012501999999KA1999M+00501MD1210231+9999REMSYN070AAXX  07151 37553 32698 80000 10015 20007 40249 52023 885// 333 10050;EQDQ01  00002PRCP06
0153375530999992000010800004+41930+045380FM-12+054399999V0202001N001010120019N0200001N1+00111+00031102771ADDGF107991071051012501001001MA1999999096111MD1210051+9999REMSYN086AAXX  08001 37553 42698 72001 10011 20003 39611 40277 52005 87500 333 55/// 555 11001;
0164375530999992000010803004+41930+045380FM-12+054399999V0202001N002010120019N0200001N1+00071-00101102861ADDAA106000091GF107991051051012501031011MD1210081+9999REMSYN082AAXX  08031 37553 32698 72002 10007 21010 40286 52008 85531 555 20006 50011 7000/;EQDQ01  00002PRCP06
0165375530999992000010806004+41930+045380FM-12+054399999V0209999C000010360019N0200001N1+00251+00041102951ADDAA106000091GF108991021051012501031001KA1999N+00061MD1210131+9999REMSYN070AAXX  08061 37553 32698 80000 10025 20004 40295 52013 82530 333 20006;EQDQ01  00002PRCP06
0143375530999992000010812004+41930+045380FM-12+054399999V0209999C000010360019N0200001N1+00491+00031102771ADDGF108991021051017501031001MA1999999096201MD1710111+9999REMSYN076AAXX  08121 37553 42798 80000 10049 20003 39620 40277 57011 82530 555 10007;
0180375530999992000010903004+41930+045380FM-12+054399999V0209999C000019999999N0200001N1-00141-00221102771ADDAA106000091GF106991999001999999031001MD1710191+9999REMSYN082AAXX  09031 37553 32998 60000 11014 21022 40277 57019 80030 555 21017 50022 7000/;EQDQ01+000002SCOTLCQ02  00002PRCP06
0153375530999992000010912004+41930+045380FM-12+054399999V0200901N001012200019N0200001N1+00501-00121102341ADDGA1001+999999999GF100991001001999999001001MA1999999097281MD1710131+9999REMSYN070AAXX  09121 37553 42998 00901 10050 21012 39728 40234 57013 555 10010;
0181375530999992000010915004+41930+045380FM-12+054399999V0209999C000012200019N0200001N1+00021-00091102411ADDAA106000091GF102991999001999999031001KA1999M+00521MD1710041+9999REMSYN070AAXX  09151 37553 32998 20000 10002 21009 40241 57004 80030 333 10052;EQDQ01+000002SCOTLCQ02  00002PRCP06
0165375530999992000011006004+41930+045380FM-12+054399999V0209999C000010120019N0200001N1+00101-00251102251ADDAA106000091GF108991081051012501999999KA1999N+00151MD1710071+9999REMSYN070AAXX  10061 37553 32698 80000 10010 21025 40225 57007 885// 333 20015;EQDQ01  00002PRCP06
0112375530999992000011009004+41930+045380FM-12+054399999V0209999C000010120019N0200001N1+00191-00371102181ADDGF108991081051012501999999MD1710091+9999REMSYN060AAXX  10091 37553 42698 80000 10019 21037 40218 57009 885//;
0143375530999992000011012004+41930+045380FM-12+054399999V0209999C000010120019N0200001N1+00271-00071101941ADDGF108991081051012501999999MA1999999095791MD1710091+9999REMSYN076AAXX  10121 37553 42698 80000 10027 21007 39579 40194 57009 885// 555 11035;
0197375530999992000011015004+41930+045380FM-12+054399999V0209999C000010120019N0040001N1+00171-00381102612ADDAA106000091GF108991081051012501999999KA1999M+00271MD1310872+9999REMSYN070AAXX  10151 37553 32696 80000 10017 21038 40261 53087 885// 333 10027;EQDQ01+102613APOSLPQ02+000872APC3  Q03  00002PRCP06
0160375530999992000011103004+41930+045380FM-12+054399999V0209999C000019999999N0200001N1+00061-00371102141ADDAA106000091GF106991999001999999031001REMSYN076AAXX  11031 37553 32998 60000 10006 21037 40214 80030 555 20006 50014 7000/;EQDQ01+000002SCOTLCQ02  00002PRCP06
0181375530999992000011106004+41930+045380FM-12+054399999V0209999C000010120019N0200001N1+00211-00171102932ADDAA106000091GF108991081051012501999999KA1999N+00071MD1310381+9999REMSYN070AAXX  11061 37553 32698 80000 10021 21017 40293 53038 885// 333 20007;EQDQ01+102933APOSLPQ02  00002PRCP06
0112375530999992000011109004+41930+045380FM-12+054399999V0202701N001010360019N0200001N1+00451-00361102741ADDGF107991021051017501031001MD1810121+9999REMSYN060AAXX  11091 37553 42798 72701 10045 21036 40274 58012 82530;
0179375530999992000011200004+41930+045380FM-12+054399999V0209999C000010075019N0020001N1+00121+00041102851ADDAA112999929AY161061AY261061GF108991081001008001021999MD1210081+9999MW1611REMSYN094AAXX  12001 37553 /1595 80000 10012 20004 40285 52008 76166 8802/ 555 20008 50014 69902 7990/;
0140375530999992000011206004+41930+045380FM-12+054399999V0201801N004010075019N0040001N1+00021-00091102971ADDAY171061AY271061GF108991081001008001021999MD1210051+9999MW1711REMSYN066AAXX  12061 37553 41596 81804 10002 21009 40297 52005 77177 8802/;
0143375530999992000011212004+41930+045380FM-12+054399999V0200901N004010075019N0040001N1+00041-00071102961ADDGF108991081001008001021999MA1999999096271MD1710011+9999REMSYN076AAXX  12121 37553 41596 80904 10004 21007 39627 40296 57001 8802/ 555 10004;
0178375530999992000011506004+41930+045380FM-12+054399999V0209999C000010075019N0010001N1-00061-00121103071ADDAA199000021AY171061AY271061GF108991081001008001021999KA1999N-00101MD1410001+9999MW1711REMSYN080    AAXX  15061 37553 31594 80000 11006 21012 40307 54000 77177 8802/ 333 21010;
0144375530999992000011509004+41930+045380FM-12+054399999V0209999C000010075019N0010001N1-00021-00081102951ADDAY171031AY271031GF108991081001008001021999MD1810121+9999MW1711REMSYN070    AAXX  15091 37553 41594 80000 11002 21008 40295 58012 77177 8802/;
0175375530999992000011512004+41930+045380FM-12+054399999V0200201N001010075019N0020001N1+00081+00031102731ADDAY171061AY271061GF108991081001008001021999MA1999999096121MD1710111+9999MW1711REMSYN086    AAXX  15121 37553 41595 80201 10008 20003 39612 40273 57011 77177 8802/ 555 11003;
0177375530999992000011515004+41930+045380FM-12+054399999V0209999C000010120019N0200001N1-00041-00121102391ADDAY171031AY221031GF107991071051012501001001KA1120M+00101MD1710051+9999MW1021REMSYN090    AAXX  15151 37553 /1698 70000 11004 21012 40239 57005 70272 87500 333 10010 55569 982;
0167375530999992000011600004+41930+045380FM-12+054399999V0202001N001012200019N0200001N1-00401-00491102611ADDGA1001+999999999GF100991001001999999001001MA1999999095841MD1710061+9999REMSYN084    AAXX  16001 37553 42998 02001 11040 21049 39584 40261 57006 333 55/// 555 14106;
0178375530999992000011603004+41930+045380FM-12+054399999V0202001N001012200019N0200001N1-00451-00551102581ADDAA199000091GA1001+999999999GF100991001001999999001001MD1710041+9999REMSYN080    AAXX  16031 37553 32998 02001 11045 21055 40258 57004 555 21047 51019 7998/;EQDQ01  00002PRCP99
0126375530999992000011609004+41930+045380FM-12+054399999V0209999C000012200019N0200001N1+00121-00701102351ADDGA1001+999999999GF100991001001999999001001MD1710031+9999REMSYN058    AAXX  16091 37553 42998 00000 10012 21070 40235 57003;
0157375530999992000011612004+41930+045380FM-12+054399999V0201801N002012200019N0200001N1+00311-00761102051ADDGA1001+999999999GF100991001001999999001001MA1999999095481MD1710251+9999REMSYN074    AAXX  16121 37553 42998 01802 10031 21076 39548 40205 57025 555 11008;
0179375530999992000011706004+41930+045380FM-12+054399999V0209999C000012200019N0200001N1-00231-00521102201ADDAA199000091GA1001+999999999GF100991001001999999001001KA1999N-00501MD1310011+9999REMSYN068    AAXX  17061 37553 32998 00000 11023 21052 40220 53001 333 21050;EQDQ01  00002PRCP99
0116375530999992000011709004+41930+045380FM-12+054399999V0209999C000012200019N0200001N1+00101-00431101911ADDGF103991021051012501031001MD1810181+9999REMSYN064    AAXX  17091 37553 42698 30000 10010 21043 40191 58018 82530;
0179375530999992000011806004+41930+045380FM-12+054399999V0209999C000012200019N0200001N1-00261-00791101101ADDAA199000091GF101991999999999999999999KA1999N+99999MD1710261+9999REMSYN068    AAXX  18061 37553 32998 10000 11026 21079 40110 57026 333 20035;EQDQ01  00002PRCP99Q02 +00352ATMN  
0135375530999992000011809004+41930+045380FM-12+054399999V0209999C000012200019N0200001N1+00211-00731100791ADDGF101991999001999999031001MD1310231+9999REMSYN064    AAXX  18091 37553 42998 10000 10021 21073 40079 53023 80030;EQDQ01+000002SCOTLC
0182375530999992000011812004+41930+045380FM-12+054399999V0209999C000019999999N0200001N1+00101-00431101532ADDGF108991999001999999031001MA1999999094311MD1810241+9999REMSYN080    AAXX  18121 37553 42998 80000 10010 21043 39431 40153 58024 80030 555 11105;EQDQ01+000002SCOTLCQ02+101533APOSLP
0169375530999992000011906004+41930+045380FM-12+054399999V0209999C000010150019N0200001N1-00101-00641100481ADDAA199000091GF108991081051017501999999KA1999N-00531MD1710421+9999REMSYN074    AAXX  19061 37553 32798 80000 11010 21064 40048 57042 885// 333 21053;EQDQ01  00002PRCP99
0116375530999992000011909004+41930+045380FM-12+054399999V0209999C000010150019N0200001N1+00191-00351100081ADDGF108991081051017501999999MD1710301+9999REMSYN064    AAXX  19091 37553 42798 80000 10019 21035 40008 57030 885//;
0154375530999992000012006004+41930+045380FM-12+054399999V0209999C000010075019N0020001N1+00041+00011100661ADDGF108991081001008001021999KA1999M+99999MD1710011+9999REMSYN070AAXX  20061 37553 11595 80000 10004 20001 40066 57001 8802/ 333 11016;EQDQ01 -00162ATMX  
0140375530999992000012009004+41930+045380FM-12+054399999V0209999C000010075019N0020001N1+00081+00041100541ADDAY171031AY271031GF108991081001008001021999MD1710101+9999MW1711REMSYN066AAXX  20091 37553 41595 80000 10008 20004 40054 57010 77177 8802/;
0143375530999992000012012004+41930+045380FM-12+054399999V0209999C000010075019N0020001N1+00081+00041100401ADDGF108991081001008001021999MA1999999093891MD1710141+9999REMSYN076AAXX  20121 37553 41595 80000 10008 20004 39389 40040 57014 8802/ 555 11001;
0184375530999992000012015004+41930+045380FM-12+054399999V0209999C000010075019N0200001N1+00061+00011100341ADDAA112000891AY171031AY271031GF108991081001008001021999KA1120M+00481MD1210051+9999MW1701REMSYN086AAXX  20151 37553 /1598 80000 10006 20001 40034 52005 77077 8802/ 333 10048 555 60012;
0162375530999992000012106004+41930+045380FM-12+054399999V0202701N004012200019N0200001N1-00191-00721100601ADDAA100001091GA1001+999999999GF100991001001999999001001KA1999N-00191MD1310331+9999REMSYN070AAXX  21061 37553 32998 02704 11019 21072 40060 53033 60010 333 21019;
0131375530999992000012109004+41930+045380FM-12+054399999V0202701N008012200019N0200001N1+00191-00841100641ADDGF102991999001999999031001MD1210121+9999REMSYN060AAXX  21091 37553 42998 22708 10019 21084 40064 52012 80030;EQDQ01+000002SCOTLC
0181375530999992000012115004+41930+045380FM-12+054399999V0202701N012012200019N0200001N1+00001-01181100891ADDAA199000091GF102991999001999999031001KA1999M+00231MD1210091+9999REMSYN070AAXX  21151 37553 32998 22712 10000 21118 40089 52009 80030 333 10023;EQDQ01+000002SCOTLCQ02  00002PRCP99
0174375530999992000012203004+41930+045380FM-12+054399999V0209999C000012200019N0200001N1-00691-01081101481ADDAA199000091GA1001+999999999GF100991001001999999001001MD1810011+9999REMSYN076AAXX  22031 37553 32998 00000 11069 21108 40148 58001 555 21071 51004 7000/;EQDQ01  00002PRCP99
0165375530999992000012306004+41930+045380FM-12+054399999V0202001N001010360019N0200001N1-00401-01031102301ADDAA199000091GF107991011051017501031011KA1999N-00711MD1210161+9999REMSYN070AAXX  23061 37553 32798 72001 11040 21103 40230 52016 81531 333 21071;EQDQ01  00002PRCP99
0112375530999992000012309004+41930+045380FM-12+054399999V0202901N002019999999N0200001N1-00151-00841102241ADDGF108991001001999999021999MD1410001+9999REMSYN060AAXX  23091 37553 42998 82902 11015 21084 40224 54000 8002/;
0175375530999992000012406004+41930+045380FM-12+054399999V0202001N002012200019N0200001N1-00321-01051102901ADDAA199000091GA1001+999999999GF100991001001999999001001KA1999N-00671MD1210041+9999REMSYN064AAXX  24061 37553 32998 02002 11032 21105 40290 52004 333 21067;EQDQ01  00002PRCP99
0122375530999992000012409004+41930+045380FM-12+054399999V0200901N001012200019N0200001N1+00171-00971102761ADDGA1001+999999999GF100991001001999999001001MD1210021+9999REMSYN054AAXX  24091 37553 42998 00901 10017 21097 40276 52002;
0153375530999992000012412004+41930+045380FM-12+054399999V0202001N001012200019N0200001N1+00451-01311102531ADDGA1001+999999999GF100991001001999999001001MA1999999096961MD1710161+9999REMSYN070AAXX  24121 37553 42998 02001 10045 21131 39696 40253 57016 555 1/101;
0181375530999992000012415004+41930+045380FM-12+054399999V0202001N001019999999N0200001N1-00101-00761102601ADDAA199000091GF106991999001999999031001KA1999M+00521MD1710061+9999REMSYN070AAXX  24151 37553 32998 62001 11010 21076 40260 57006 80030 333 10052;EQDQ01+000002SCOTLCQ02  00002PRCP99
0163375530999992000012500004+41930+045380FM-12+054399999V0209999C000012200019N0200001N1-00381-00791102371ADDGA1001+999999999GF100991001001999999001001MA1999999095621MD1710131+9999REMSYN080AAXX  25001 37553 42998 00000 11038 21079 39562 40237 57013 333 55/// 555 1/106;
0174375530999992000012503004+41930+045380FM-12+054399999V0202001N001012200019N0200001N1-00401-00661102501ADDAA199000091GA1001+999999999GF100991001001999999001001MD1710121+9999REMSYN076AAXX  25031 37553 32998 02001 11040 21066 40250 57012 555 21040 51018 7000/;EQDQ01  00002PRCP99
0175375530999992000012506004+41930+045380FM-12+054399999V0209999C000012200019N0200001N1+00161-00521101921ADDAA199000091GA1001+999999999GF100991001001999999001001KA1999N-00401MD1710171+9999REMSYN064AAXX  25061 37553 32998 00000 10016 21052 40192 57017 333 21040;EQDQ01  00002PRCP99
0131375530999992000012509004+41930+045380FM-12+054399999V0202501N001019999999N0200001N1+00811-00501101411ADDGF105991999001999999031001MD1710341+9999REMSYN060AAXX  25091 37553 42998 52501 10081 21050 40141 57034 80030;EQDQ01+000002SCOTLC
0140375530999992000012709004+41930+045380FM-12+054399999V0209999C000010075019N0200001N1-00071-00161101761ADDAY171031AY271031GF108991081001008001021999MD1210061+9999MW1711REMSYN066AAXX  27091 37553 41598 80000 11007 21016 40176 52006 77177 8802/;
0136375530999992000012806004+41930+045380FM-12+054399999V0202701N002019999999N0200001N1-00461-01131102191ADDAA199000091GF107991999999012501999999MD1710201+9999REMSYN054AAXX  28061 37553 32698 72702 11046 21113 40219 57020;EQDQ01  00002PRCP99
0106375530999992000012809004+41930+045380FM-12+054399999V0202701N003019999999N0200001N1-00021-01201102281ADDGF107991999999999999999999MD1310211+9999REMSYN054AAXX  28091 37553 42998 72703 11002 21120 40228 53021;
0143375530999992000012812004+41930+045380FM-12+054399999V0201801N001012200019N0200001N1+00001-01051102221ADDGF104991001001999999031011MA1999999095571MD1210051+9999REMSYN076AAXX  28121 37553 42998 41801 10000 21105 39557 40222 52005 80031 555 1/101;
0175375530999992000012906004+41930+045380FM-12+054399999V0209999C000012200019N0500001N1-00481-00971102951ADDAA199000091GA1001+999999999GF100991001001999999001001KA1999N-00641MD1410001+9999REMSYN064AAXX  29061 37553 32999 00000 11048 21097 40295 54000 333 21064;EQDQ01  00002PRCP99
0122375530999992000012909004+41930+045380FM-12+054399999V0209999C000012200019N0200001N1+00021-00741102631ADDGA1001+999999999GF100991001001999999001001MD1810171+9999REMSYN054AAXX  29091 37553 42998 00000 10002 21074 40263 58017;
0153375530999992000012912004+41930+045380FM-12+054399999V0209999C000012200019N0200001N1+00111-00611102411ADDGA1001+999999999GF100991001001999999001001MA1999999095811MD1710081+9999REMSYN070AAXX  29121 37553 42998 00000 10011 21061 39581 40241 57008 555 10010;
0092375530999992000013109004+41930+045380FM-12+054399999V0202901N001012200019N0500001N1+00981-00411102131ADDGF101991001001999999001011REMSYN054AAXX  31091 37553 42999 12901 10098 21041 40213 80001;
0143375530999992000013112004+41930+045380FM-12+054399999V0202001N001019999999N0500001N1+01201-00471101941ADDGF107991001001999999001011MA1999999095581MD1710131+9999REMSYN076AAXX  31121 37553 42999 72001 10120 21047 39558 40194 57013 80001 555 1/000;
0112375530999992000020106004+41930+045380FM-12+054399999V0202701N004019999999N0200001N1+00711-00171102581ADDGF105991001001999999031011MD1810021+9999REMSYN060AAXX  01061 37553 42998 52704 10071 21017 40258 58002 80031;
0162375530999992000020112004+41930+045380FM-12+054399999V0202701N006019999999N0200001N1+00631-00321102321ADDGF108991999001999999031001MA1999999095801MD1710271+9999REMSYN076AAXX  01121 37553 42998 82706 10063 21032 39580 40232 57027 80030 555 10000;EQDQ01+000002SCOTLC
0175375530999992000020206004+41930+045380FM-12+054399999V0202701N003012200019N0200001N1+00261-00131101981ADDAA199000091GA1001+999999999GF100991001001999999001001KA1999N+00201MD1210101+9999REMSYN064AAXX  02061 37553 32998 02703 10026 21013 40198 52010 333 20020;EQDQ01  00002PRCP99
0122375530999992000020209004+41930+045380FM-12+054399999V0202701N002012200019N0200001N1+00621-00231101971ADDGA1001+999999999GF100991001001999999001001MD1210071+9999REMSYN054AAXX  02091 37553 42998 02702 10062 21023 40197 52007;
0175375530999992000020406004+41930+045380FM-12+054399999V0202701N002012200019N0500001N1+00571-00341101821ADDAA199000091GA1001+999999999GF100991001001999999001001KA1999N-00391MD1210051+9999REMSYN064AAXX  04061 37553 32999 02702 10057 21034 40182 52005 333 21039;EQDQ01  00002PRCP99
0141375530999992000020409004+41930+045380FM-12+054399999V0202201N999992200019N0500001N1+00971-00221101601ADDGA1001+999999999GF100991001001999999001001MD1710111+9999REMSYN054AAXX  04091 37553 42999 07202 10097 21022 40160 57011;EQDQ01+010201WOSPD 
0153375530999992000020412004+41930+045380FM-12+054399999V0202801N004012200019N0500001N1+01271-00121101471ADDGA1001+999999999GF100991001001999999001001MA1999999095161MD1710051+9999REMSYN070AAXX  04121 37553 42999 02804 10127 21012 39516 40147 57005 555 11012;
0112375530999992000020609004+41930+045380FM-12+054399999V0202701N001010360019N0200001N1+00511-00281101451ADDGF105991031051012501031001MD1710041+9999REMSYN060AAXX  06091 37553 42698 52701 10051 21028 40145 57004 83530;
0122375530999992000020709004+41930+045380FM-12+054399999V0202901N002012200019N0500001N1+00611-00881101861ADDGA1001+999999999GF100991001001999999001001MD1210041+9999REMSYN054AAXX  07091 37553 42999 02902 10061 21088 40186 52004;
0153375530999992000020712004+41930+045380FM-12+054399999V0202901N004012200019N0500001N1+00671-00591101831ADDGA1001+999999999GF100991001001999999001001MA1999999095351MD1810021+9999REMSYN070AAXX  07121 37553 42999 02904 10067 21059 39535 40183 58002 555 11012;
0165375530999992000020806004+41930+045380FM-12+054399999V0202901N002019999999N0500001N1+00011-00661102571ADDAA199000091GF107991001001999999001091KA1999N-00341MD1310021+9999REMSYN070AAXX  08061 37553 32999 72902 10001 21066 40257 53002 80009 333 21034;EQDQ01  00002PRCP99
0112375530999992000020809004+41930+045380FM-12+054399999V0202701N001012200019N0500001N1+00451-00691102361ADDGF102991001001999999001011MD1810091+9999REMSYN060AAXX  08091 37553 42999 22701 10045 21069 40236 58009 80001;
0143375530999992000020812004+41930+045380FM-12+054399999V0202801N002012200019N0500001N1+00701-00471102261ADDGF103991001001999999001011MA1999999095771MD1710041+9999REMSYN076AAXX  08121 37553 42999 32802 10070 21047 39577 40226 57004 80001 555 11014;
0175375530999992000020906004+41930+045380FM-12+054399999V0209999C000012200019N0200001N1+00271-00621102291ADDAA199000091GA1001+999999999GF100991001001999999001001KA1999N-00341MD1710081+9999REMSYN064AAXX  09061 37553 32998 00000 10027 21062 40229 57008 333 21034;EQDQ01  00002PRCP99
0122375530999992000020909004+41930+045380FM-12+054399999V0209999C000012200019N0200001N1+00731-00541102181ADDGA1001+999999999GF100991001001999999001001MD1210011+9999REMSYN054AAXX  09091 37553 42998 00000 10073 21054 40218 52001;
0153375530999992000020912004+41930+045380FM-12+054399999V0209999C000012200019N0200001N1+00901-00541101961ADDGA1001+999999999GF100991001001999999001001MA1999999095531MD1810171+9999REMSYN070AAXX  09121 37553 42998 00000 10090 21054 39553 40196 58017 555 10022;
0175375530999992000021006004+41930+045380FM-12+054399999V0209999C000012200019N0200001N1+00621-00131102281ADDAA199000091GA1001+999999999GF100991001001999999001001KA1999N-00341MD1310081+9999REMSYN064AAXX  10061 37553 32998 00000 10062 21013 40228 53008 333 21034;EQDQ01  00002PRCP99
0122375530999992000021009004+41930+045380FM-12+054399999V0209999C000012200019N0200001N1+01021+00081101781ADDGA1001+999999999GF100991001001999999001001MD1810091+9999REMSYN054AAXX  10091 37553 42998 00000 10102 20008 40178 58009;
0112375530999992000021109004+41930+045380FM-12+054399999V0209999C000019999999N0500001N1+01301+00061102211ADDGF107991001001999999001011MD1810141+9999REMSYN060AAXX  11091 37553 42999 70000 10130 20006 40221 58014 80001;
0143375530999992000021112004+41930+045380FM-12+054399999V0209999C000019999999N0500001N1+01501-00121101931ADDGF106991001001999999001011MA1999999095631MD1710221+9999REMSYN076AAXX  11121 37553 42999 60000 10150 21012 39563 40193 57022 80001 555 10025;
0165375530999992000021306004+41930+045380FM-12+054399999V0209999C000010120019N0040001N1+00271+00191102241ADDAA199000091GF108991081061012501999999KA1999N+00161MD1710021+9999REMSYN070AAXX  13061 37553 32696 80000 10027 20019 40224 57002 886// 333 20016;EQDQ01  00002PRCP99
0106375530999992000021309004+41930+045380FM-12+054399999V0209999C000019999999N0200001N1+00471+00031101951ADDGF108991999999012501999999MD1210221+9999REMSYN054AAXX  13091 37553 42698 80000 10047 20003 40195 52022;
0163375530999992000021406004+41930+045380FM-12+054399999V0209999C000010075019N0200001N1+00191+00161102041ADDAY121061AY221061GF108991081001008001021999KA1999N+00241MD1810021+9999MW1611REMSYN076AAXX  14061 37553 11598 80000 10019 20016 40204 58002 76122 8802/ 333 20024;
0165375530999992000021506004+41930+045380FM-12+054399999V0209999C000019999999N0200001N1+00311+00021102321ADDAA199000091GF107991001001999999031011KA1999N+00061MD1210091+9999REMSYN070AAXX  15061 37553 32998 70000 10031 20002 40232 52009 80031 333 20006;EQDQ01  00002PRCP99
0112375530999992000021509004+41930+045380FM-12+054399999V0202801N001012200019N0200001N1+00721+00091102321ADDGF101991001001999999001011MD1710011+9999REMSYN060AAXX  15091 37553 42998 12801 10072 20009 40232 57001 80001;
0143375530999992000021512004+41930+045380FM-12+054399999V0201001N001010900019N0200001N1+00901-00271101981ADDGF105991011021017501031011MA1999999095551MD1710131+9999REMSYN076AAXX  15121 37553 42798 51001 10090 21027 39555 40198 57013 81231 555 10016;
0165375530999992000021603004+41930+045380FM-12+054399999V0202001N001019999999N0200001N1+00191-00211102121ADDAA199000091GF107991001001999999031011MD1810111+9999REMSYN083AAXX  16031 37553 32998 72001 10019 21021 40212 58011 80031 555 21011 50032/ 7000/;EQDQ01  00002PRCP99
0143375530999992000021609004+41930+045380FM-12+054399999V0202901N001019999999N0200001N1+01241+00041101481ADDGF107991001001999999001011MA1999999095151MD1710261+9999REMSYN076AAXX  16091 37553 42998 72901 10124 20004 39515 40148 57026 80001 555 10020;
0175375530999992000021706004+41930+045380FM-12+054399999V0209999C000012200019N0200001N1+00751-00021101471ADDAA199000091GA1001+999999999GF100991001001999999001001KA1999N+00061MD1210071+9999REMSYN064AAXX  17061 37553 32998 00000 10075 21002 40147 52007 333 20006;EQDQ01  00002PRCP99
0112375530999992000021709004+41930+045380FM-12+054399999V0201801N002019999999N0200001N1+00991+00201101381ADDGF106991001001999999031011MD1810031+9999REMSYN060AAXX  17091 37553 42998 61802 10099 20020 40138 58003 80031;
0143375530999992000021712004+41930+045380FM-12+054399999V0201801N001019999999N0200001N1+01001-00051101291ADDGF108991001001999999031011MA1999999094931MD1710081+9999REMSYN076AAXX  17121 37553 42998 81801 10100 21005 39493 40129 57008 80031 555 10015;
0165375530999992000021806004+41930+045380FM-12+054399999V0200901N001010120019N0200001N1+00481+00411102301ADDAA199000091GF108991081051012501999999KA1999N+00151MD1410001+9999REMSYN070AAXX  18061 37553 32698 80901 10048 20041 40230 54000 885// 333 20015;EQDQ01  00002PRCP99
0143375530999992000021812004+41930+045380FM-12+054399999V0200901N001010120019N0200001N1+00801+00601102321ADDGF108991081051012501999999MA1999999095781MD1710021+9999REMSYN076AAXX  18121 37553 42698 80901 10080 20060 39578 40232 57002 885// 555 10010;
0165375530999992000021906004+41930+045380FM-12+054399999V0202001N001010360019N0200001N1+00481+00121102171ADDAA199000091GF107991011051017501031011KA1999N+00131MD1410001+9999REMSYN070AAXX  19061 37553 32798 72001 10048 20012 40217 54000 81531 333 20013;EQDQ01  00002PRCP99
0112375530999992000021909004+41930+045380FM-12+054399999V0201001N001012200019N0200001N1+00941+00151101881ADDGF102991001001999999001011MD1810171+9999REMSYN060AAXX  19091 37553 42998 21001 10094 20015 40188 58017 80001;
0153375530999992000021912004+41930+045380FM-12+054399999V0200901N003012200019N0200001N1+01101+00061101631ADDGA1001+999999999GF100991001001999999001001MA1999999095271MD1710201+9999REMSYN070AAXX  19121 37553 42998 00903 10110 20006 39527 40163 57020 555 10022;
0165375530999992000022006004+41930+045380FM-12+054399999V0203201N002019999999N0200001N1+00541+00251101521ADDAA199000091GF108991001001999999021999KA1999N+00081MD1710021+9999REMSYN070AAXX  20061 37553 32998 83202 10054 20025 40152 57002 8002/ 333 20008;EQDQ01  00002PRCP99
0112375530999992000022009004+41930+045380FM-12+054399999V0203001N006019999999N0200001N1+00951-00071101371ADDGF108991001001999999001081MD1710051+9999REMSYN060AAXX  20091 37553 42998 83006 10095 21007 40137 57005 80008;
0162375530999992000022012004+41930+045380FM-12+054399999V0203001N005019999999N0200001N1+00961-00271101461ADDGF108991999001999999011001MA1999999095071MD1310081+9999REMSYN076AAXX  20121 37553 42998 83005 10096 21027 39507 40146 53008 80010 555 10015;EQDQ01+000002SCOTLC
0165375530999992000022306004+41930+045380FM-12+054399999V0202301N001019999999N0200001N1+00711-00091101241ADDAA199000091GF107991001001999999031011KA1999N+00191MD1210011+9999REMSYN070AAXX  23061 37553 32998 72301 10071 21009 40124 52001 80031 333 20019;EQDQ01  00002PRCP99
0112375530999992000022309004+41930+045380FM-12+054399999V0202501N001019999999N0200001N1+01271+00191101321ADDGF107991001001999999031011MD1210081+9999REMSYN060AAXX  23091 37553 42998 72501 10127 20019 40132 52008 80031;
0143375530999992000022312004+41930+045380FM-12+054399999V0209999C000019999999N0200001N1+01421+00061100901ADDGF107991001001999999031011MA1999999094651MD1710071+9999REMSYN076AAXX  23121 37553 42998 70000 10142 20006 39465 40090 57007 80031 555 10018;
0140375530999992000022509004+41930+045380FM-12+054399999V0209999C000010075019N0010001N1+00211+00081102401ADDAY171031AY251031GF108991081001008001021999MD1710111+9999MW1701REMSYN066AAXX  25091 37553 41594 80000 10021 20008 40240 57011 77075 8802/;
0112375530999992000022709004+41930+045380FM-12+054399999V0202901N002012200019N0500001N1+00561-00191101721ADDGF101991001001999999001011MD1710051+9999REMSYN060AAXX  27091 37553 42999 12902 10056 21019 40172 57005 80001;
0143375530999992000022712004+41930+045380FM-12+054399999V0203001N008012200019N0500001N1+00761-00441101661ADDGF101991001001999999001011MA1999999095221MD1710031+9999REMSYN076AAXX  27121 37553 42999 13008 10076 21044 39522 40166 57003 80001 555 11011;
0165375530999992000022806004+41930+045380FM-12+054399999V0203001N002019999999N0200001N1+00071-00751102751ADDAA199000091GF108991001001999999021999KA1999N-00091MD1210381+9999REMSYN070AAXX  28061 37553 32998 83002 10007 21075 40275 52038 8002/ 333 21009;EQDQ01  00002PRCP99
0112375530999992000022809004+41930+045380FM-12+054399999V0209999C000019999999N0200001N1+00331-00581102941ADDGF108991001001999999021999MD1210241+9999REMSYN060AAXX  28091 37553 42998 80000 10033 21058 40294 52024 8002/;
0143375530999992000022812004+41930+045380FM-12+054399999V0200901N001010360019N0200001N1+00431-00471103001ADDGF107991021021017501031001MA1999999096391MD1210071+9999REMSYN076AAXX  28121 37553 42798 70901 10043 21047 39639 40300 52007 82230 555 10018;
0140375530999992000022906004+41930+045380FM-12+054399999V0201801N002010075019N0040001N1+00061-00481103951ADDAY121061AY221061GF108991081001008001021999MD1710031+9999MW1771REMSYN066AAXX  29061 37553 41596 81802 10006 21048 40395 57003 77722 8802/;
0143375530999992000022912004+41930+045380FM-12+054399999V0201801N005010360019N0200001N1+00211-00401103681ADDGF106991041051017501031011MA1999999096991MD1710211+9999REMSYN076AAXX  29121 37553 42798 61805 10021 21040 39699 40368 57021 84531 555 10014;
0175375530999992000030106004+41930+045380FM-12+054399999V0209999C000012200019N0200001N1-00031-00481103041ADDAA199000091GA1001+999999999GF100991001001999999001001KA1999N-00431MD1710051+9999REMSYN064AAXX  01061 37553 32998 00000 11003 21048 40304 57005 333 21043;EQDQ01  00002PRCP99
0122375530999992000030109004+41930+045380FM-12+054399999V0209999C000012200019N0200001N1+00411-00541102741ADDGA1001+999999999GF100991001001999999001001MD1710181+9999REMSYN054AAXX  01091 37553 42998 00000 10041 21054 40274 57018;
0153375530999992000030112004+41930+045380FM-12+054399999V0209999C000012200019N0200001N1+00591-00591102381ADDGA1001+999999999GF100991001001999999001001MA1999999095851MD1710301+9999REMSYN070AAXX  01121 37553 42998 00000 10059 21059 39585 40238 57030 555 10017;
0165375530999992000030206004+41930+045380FM-12+054399999V0203001N002012200019N0200001N1+00171-00221102241ADDAA199000091GF103991001001999999031011KA1999N-00151MD1310021+9999REMSYN070AAXX  02061 37553 32998 33002 10017 21022 40224 53002 80031 333 21015;EQDQ01  00002PRCP99
0112375530999992000030209004+41930+045380FM-12+054399999V0202901N002019999999N0200001N1+00561-00251102211ADDGF107991001001999999031011MD1210061+9999REMSYN060AAXX  02091 37553 42998 72902 10056 21025 40221 52006 80031;
0175375530999992000030306004+41930+045380FM-12+054399999V0203001N003012200019N0500001N1+00361-00531102591ADDAA199000091GA1001+999999999GF100991001001999999001001KA1999N-00371MD1810041+9999REMSYN064AAXX  03061 37553 32999 03003 10036 21053 40259 58004 333 21037;EQDQ01  00002PRCP99
0116375530999992000030309004+41930+045380FM-12+054399999V0209999C000012200019N0500001N1+00851-00541999999ADDGA1001+999999999GF100991001001999999001001MD1710031+9999REMSYN048AAXX  03091 37553 42999 00000 10085 21054 57003;
0112375530999992000030409004+41930+045380FM-12+054399999V0209999C000012200019N0200001N1+00811-00641101981ADDGF102991001001999999031011MD1710121+9999REMSYN060AAXX  04091 37553 42998 20000 10081 21064 40198 57012 80031;
0143375530999992000030412004+41930+045380FM-12+054399999V0209999C000019999999N0200001N1+01061-00441101671ADDGF105991001001999999031011MA1999999095291MD1710241+9999REMSYN076AAXX  04121 37553 42998 50000 10106 21044 39529 40167 57024 80031 555 10012;
0165375530999992000030706004+41930+045380FM-12+054399999V0203001N003019999999N0200001N1+00841+00061101081ADDAA199000091GF107991001001999999001011KA1999N+00381MD1810011+9999REMSYN070AAXX  07061 37553 32998 73003 10084 20006 40108 58001 80001 333 20038;EQDQ01  00002PRCP99
0143375530999992000030712004+41930+045380FM-12+054399999V0203001N005019999999N0200001N1+00821-00141101161ADDGF108991001001999999021999MA1999999094771MD1810021+9999REMSYN076AAXX  07121 37553 42998 83005 10082 21014 39477 40116 58002 8002/ 555 10012;
0180375530999992000030806004+41930+045380FM-12+054399999V0209999C000010075019N0040001N1+00081+00001102161ADDAA100007991AY171061AY271061GF108991081001008001021999KA1999N-00041MD1210021+9999MW1711REMSYN082AAXX  08061 37553 11596 80000 10008 21000 40216 52002 60080 77177 8802/ 333 21004;
0140375530999992000030809004+41930+045380FM-12+054399999V0202701N001010120019N0040001N1+00141-00031102171ADDAY171031AY271031GF108991081001012501021999MD1210021+9999MW1701REMSYN066AAXX  08091 37553 41696 82701 10014 21003 40217 52002 77077 8802/;
0171375530999992000030812004+41930+045380FM-12+054399999V0202701N001010120019N0040001N1+00191+00061102001ADDAY171061AY271061GF108991081001012501021999MA1999999095411MD1810151+9999MW1701REMSYN082AAXX  08121 37553 41696 82701 10019 20006 39541 40200 58015 77077 8802/ 555 1/040;
0162375530999992000030906004+41930+045380FM-12+054399999V0202001N002012200019N0200001N1+00151-00331101941ADDAA100001091GA1001+999999999GF100991001001999999001001KA1999N-00071MD1710041+9999REMSYN070AAXX  09061 37553 32998 02002 10015 21033 40194 57004 60010 333 21007;
0112375530999992000031309004+41930+045380FM-12+054399999V0202901N006012200019N0500001N1+01021-00271101651ADDGF102991001001999999001021MD1210221+9999REMSYN060AAXX  13091 37553 42999 22906 10102 21027 40165 52022 80002;
0175375530999992000031406004+41930+045380FM-12+054399999V0203001N006012200019N0500001N1+00111-00731102041ADDAA199000091GA1001+999999999GF100991001001999999001001KA1999N-00391MD1210141+9999REMSYN064AAXX  14061 37553 32999 03006 10011 21073 40204 52014 333 21039;EQDQ01  00002PRCP99
0141375530999992000031409004+41930+045380FM-12+054399999V0203001N008012200019N0500001N1+00361-00701101911ADDGF101991999001999999041001MD1810071+9999REMSYN070AAXX  14091 37553 42999 13008 10036 21070 40191 58007 80040 333 91118;EQDQ01+000002SCOTLC
0164375530999992000031412004+41930+045380FM-12+054399999V0202901N007019999999N0500001N1+00431-00971101931ADDGF107991001001999999061011MA1999999095391MD1310031+9999OA149901801REMSYN086AAXX  14121 37553 42999 72907 10043 21097 39539 40193 53003 80061 333 91118 555 10012;
0175375530999992000031506004+41930+045380FM-12+054399999V0202901N001012200019N0500001N1+00161-00871102821ADDAA199000091GA1001+999999999GF100991001001999999001001KA1999N-00471MD1210011+9999REMSYN064AAXX  15061 37553 32999 02901 10016 21087 40282 52001 333 21047;EQDQ01  00002PRCP99
0122375530999992000031509004+41930+045380FM-12+054399999V0202901N002012200019N0500001N1+00621-00861102761ADDGA1001+999999999GF100991001001999999001001MD1210051+9999REMSYN054AAXX  15091 37553 42999 02902 10062 21086 40276 52005;
0164375530999992000031903004+41930+045380FM-12+054399999V0202001N002019999999N0500001N1+00601+00341101311ADDAA199000091GF107991001001999999031011MD1210061+9999REMSYN082AAXX  19031 37553 32999 72002 10060 20034 40131 52006 80031 555 20050 50051 7000/;EQDQ01  00002PRCP99
0165375530999992000031906004+41930+045380FM-12+054399999V0202901N005019999999N0500001N1+01001+00301101281ADDAA199000091GF107991001001999999041011KA1999N+00501MD1210341+9999REMSYN070AAXX  19061 37553 32999 72905 10100 20030 40128 52034 80041 333 20050;EQDQ01  00002PRCP99
0122375530999992000031909004+41930+045380FM-12+054399999V0202901N004012200019N0500001N1+01521+00191101251ADDGA1001+999999999GF100991001001999999001001MD1210071+9999REMSYN054AAXX  19091 37553 42999 02904 10152 20019 40125 52007;
0171375530999992000032212004+41930+045380FM-12+054399999V0201101N003010075019N0040001N1+00591+00541101431ADDAY161061AY261061GF108991081001008001021999MA1999999094981MD1710111+9999MW1611REMSYN082AAXX  22121 37553 41596 81103 10059 20054 39498 40143 57011 76166 8802/ 555 11008;
0152375530999992000032306004+41930+045380FM-12+054399999V0200201N004010120019N0200001N1+00581+00391101591ADDAA100000591GF108991081051012501999999KA1999N+00431MD1210131+9999REMSYN076AAXX  23061 37553 /2698 80204 10058 20039 40159 52013 69960 885// 333 20043;
0140375530999992000032309004+41930+045380FM-12+054399999V0201101N002010120019N0200001N1+00551+00431101641ADDAY161031AY221031GF108991081051012501999999MD1210061+9999MW1021REMSYN066AAXX  23091 37553 41698 81102 10055 20043 40164 52006 70262 885//;
0171375530999992000032312004+41930+045380FM-12+054399999V0200501N002010120019N0200001N1+00571+00501101611ADDAY171061AY221061GF108991081071012501999999MA1999999095141MD1810021+9999MW1021REMSYN082AAXX  23121 37553 41698 80502 10057 20050 39514 40161 58002 70272 887// 555 11007;
0152375530999992000032406004+41930+045380FM-12+054399999V0209999C000010075019N0040001N1+00531+00351101581ADDAA112001091GF108991081051008001999999KA1999N+00411MD1210021+9999REMSYN076AAXX  24061 37553 12596 80000 10053 20035 40158 52002 60012 885// 333 20041;
0112375530999992000032409004+41930+045380FM-12+054399999V0201201N001010120019N0040001N1+00631+00401101561ADDGF108991081051012501999999MD1410001+9999REMSYN060AAXX  24091 37553 42696 81201 10063 20040 40156 54000 885//;
0143375530999992000032412004+41930+045380FM-12+054399999V0209999C000010150019N0040001N1+00731+00321101411ADDGF108991081051017501999999MA1999999094981MD1710021+9999REMSYN076AAXX  24121 37553 42796 80000 10073 20032 39498 40141 57002 885// 555 11013;
0122375530999992000032609004+41930+045380FM-12+054399999V0202901N005012200019N0500001N1+01021-00571102361ADDGA1001+999999999GF100991001001999999001001MD1210111+9999REMSYN054AAXX  26091 37553 42999 02905 10102 21057 40236 52011;
0153375530999992000032612004+41930+045380FM-12+054399999V0200901N001012200019N0500001N1+01161-00601102391ADDGA1001+999999999GF100991001001999999001001MA1999999095991MD1210061+9999REMSYN070AAXX  26121 37553 42999 00901 10116 21060 39599 40239 52006 555 10027;
0165375530999992000032706004+41930+045380FM-12+054399999V0209999C000010120019N0200001N1+00481+00261103101ADDAA199000091GF107991071051012501001001KA1999N+00301MD1810071+9999REMSYN070AAXX  27061 37553 32698 70000 10048 20026 40310 58007 87500 333 20030;EQDQ01  00002PRCP99
0131375530999992000032709004+41930+045380FM-12+054399999V0209999C000019999999N0200001N1+00811+00171102731ADDGF106991999001999999031001MD1710271+9999REMSYN060AAXX  27091 37553 42998 60000 10081 20017 40273 57027 80030;EQDQ01+000002SCOTLC
0143375530999992000032712004+41930+045380FM-12+054399999V0200901N002019999999N0200001N1+01221+00271102341ADDGF107991001001999999001011MA1999999095961MD1710281+9999REMSYN076AAXX  27121 37553 42998 70902 10122 20027 39596 40234 57028 80001 555 10028;
0175375530999992000032806004+41930+045380FM-12+054399999V0203201N001012200019N0200001N1+00671+00191102731ADDAA199000091GA1001+999999999GF100991001001999999001001KA1999N+00061MD1210091+9999REMSYN064AAXX  28061 37553 32998 03201 10067 20019 40273 52009 333 20006;EQDQ01  00002PRCP99
0122375530999992000032809004+41930+045380FM-12+054399999V0200901N001012200019N0200001N1+01161+00321102411ADDGA1001+999999999GF100991001001999999001001MD1710201+9999REMSYN054AAXX  28091 37553 42998 00901 10116 20032 40241 57020;
0143375530999992000032812004+41930+045380FM-12+054399999V0200901N003012200019N0200001N1+01461+00091102081ADDGF104991001001999999031011MA1999999095781MD1710241+9999REMSYN076AAXX  28121 37553 42998 40903 10146 20009 39578 40208 57024 80031 555 10028;
0165375530999992000033006004+41930+045380FM-12+054399999V0200201N002019999999N0200001N1+01331+00611101761ADDAA199000091GF106991001001999999001011KA1999N+00931MD1210061+9999REMSYN070AAXX  30061 37553 32998 60202 10133 20061 40176 52006 80001 333 20093;EQDQ01  00002PRCP99
0112375530999992000033009004+41930+045380FM-12+054399999V0203001N003010360019N0200001N1+01721+00551101691ADDGF107991031031012501031011MD1410001+9999REMSYN060AAXX  30091 37553 42698 73003 10172 20055 40169 54000 83331;
0171375530999992000033012004+41930+045380FM-12+054399999V0202001N002010120019N0200001N1+01051+00851101881ADDAY191061AY281061GF107991071091012501001001MA1999999095501MD1310041+9999MW1801REMSYN082AAXX  30121 37553 41698 72002 10105 20085 39550 40188 53004 78098 87900 555 10011;
0165375530999992000033106004+41930+045380FM-12+054399999V0200901N001010120019N0100001N1+00821+00781102171ADDAA199000091GF108991081071012501999999KA1999N+00761MD1210091+9999REMSYN070AAXX  31061 37553 32697 80901 10082 20078 40217 52009 887// 333 20076;EQDQ01  00002PRCP99
0112375530999992000033109004+41930+045380FM-12+054399999V0200901N001010120019N0200001N1+01051+00591102021ADDGF108991081031012501999999MD1810101+9999REMSYN060AAXX  31091 37553 42698 80901 10105 20059 40202 58010 883//;
0165375530999992000040106004+41930+045380FM-12+054399999V0209999C000010150019N0110001N1+00781+00681102211ADDAA199000091GF108991061061017501011011KA1999N+00611MD1110051+9999REMSYN070AAXX  01061 37553 32761 80900 10078 20068 40221 51005 86611 333 20061;EQDQ01  00002PRCP99
0122375530999992000040109004+41930+045380FM-12+054399999V0209999C000012200019N0200001N1+01071+00611102191ADDGA1001+999999999GF100991001001999999001001MD1610121+9999REMSYN054AAXX  01091 37553 42698 00000 10107 20061 40219 56012;
0122375530999992000040309004+41930+045380FM-12+054399999V0200901N002012200019N0500001N1+01901+00981101831ADDGA1001+999999999GF100991001001999999001001MD1810181+9999REMSYN054AAXX  03091 37553 42699 00902 10190 20098 40183 58018;
0175375530999992000040406004+41930+045380FM-12+054399999V0203201N001012200019N0500001N1+01801+00851101751ADDAA199000091GA1001+999999999GF100991001001999999001001KA1999N+01001MD1210051+9999REMSYN064AAXX  04061 37553 32999 03201 10180 20085 40175 52005 333 20100;EQDQ01  00002PRCP99
0122375530999992000040409004+41930+045380FM-12+054399999V0200901N002012200019N0500001N1+02291+00901101581ADDGA1001+999999999GF100991001001999999001001MD1810061+9999REMSYN054AAXX  04091 37553 42999 00902 10229 20090 40158 58006;
0143375530999992000040412004+41930+045380FM-12+054399999V0201401N002012200019N0500001N1+02451+00771101421ADDGF107991011021017501001011MA1999999095361MD1710121+9999REMSYN076AAXX  04121 37553 42799 71402 10245 20077 39536 40142 57012 81201 555 10035;
0112375530999992000040509004+41930+045380FM-12+054399999V0200901N001012200019N0200001N1+02161+00931101411ADDGF103991001001999999031011MD1710141+9999REMSYN060AAXX  05091 37553 42998 30901 10216 20093 40141 57014 80031;
0143375530999992000040512004+41930+045380FM-12+054399999V0201801N004010360019N0200001N1+02181+00981101211ADDGF107991041051017501031011MA1999999095101MD1710201+9999REMSYN076AAXX  05121 37553 42798 71804 10218 20098 39510 40121 57020 84531 555 10022;
0175375530999992000040706004+41930+045380FM-12+054399999V0203201N001012200019N0500001N1+01921+01071100661ADDAA199000091GA1001+999999999GF100991001001999999001001KA1999N+01131MD1310021+9999REMSYN064AAXX  07061 37553 32999 03201 10192 20107 40066 53002 333 20113;EQDQ01  00002PRCP99
0165375530999992000040906004+41930+045380FM-12+054399999V0200601N002019999999N0200001N1+01241+01071101031ADDAA199000091GF105991001001999999031011KA1999N+01121MD1710031+9999REMSYN070AAXX  09061 37553 32998 50602 10124 20107 40103 57003 80031 333 20112;EQDQ01  00002PRCP99
0112375530999992000040909004+41930+045380FM-12+054399999V0201201N002019999999N0200001N1+01741+00921100671ADDGF107991001001999999031011MD1710241+9999REMSYN060AAXX  09091 37553 42998 71202 10174 20092 40067 57024 80031;
0143375530999992000040912004+41930+045380FM-12+054399999V0201201N004010360019N0200001N1+01581+01021100821ADDGF108991041051017501031011MA1999999094621MD1210101+9999REMSYN076AAXX  09121 37553 42798 81204 10158 20102 39462 40082 52010 84531 555 10020;
0140375530999992000042509004+41930+045380FM-12+054399999V0200901N002010360019N0200001N1+02021+01151101251ADDAY191031AY211031GF107991011051017501031011MD1710011+9999MW1011REMSYN066AAXX  25091 37553 42798 70902 10202 20115 40125 57001 70191 81531;
0143375530999992000042512004+41930+045380FM-12+054399999V0201801N002010360019N0200001N1+01941+01061101251ADDGF107991031051017501031011MA1999999095111MD1710021+9999REMSYN076AAXX  25121 37553 42798 71802 10194 20106 39511 40125 57002 83531 555 10039;
0165375530999992000042706004+41930+045380FM-12+054399999V0200201N001012200019N0500001N1+02001+01271101691ADDAA199000091GF101991011021017501001001KA1999N+00961MD1210051+9999REMSYN070AAXX  27061 37553 32799 10201 10200 20127 40169 52005 81200 333 20096;EQDQ01  00002PRCP99
0112375530999992000042709004+41930+045380FM-12+054399999V0200901N001012200019N0500001N1+02661+01471101401ADDGF101991011021017501001001MD1810141+9999REMSYN060AAXX  27091 37553 42799 10901 10266 20147 40140 58014 81200;
0143375530999992000042712004+41930+045380FM-12+054399999V0200501N001019999999N0500001N1+02491+01511101371ADDGF107991001001999999001011MA1999999095331MD1710061+9999REMSYN076AAXX  27121 37553 42999 70501 10249 20151 39533 40137 57006 80001 555 10044;
0165375530999992000050106004+41930+045380FM-12+054399999V0200201N001012200019N0500001N1+01511+01121101231ADDAA199000091GF102991011021017501031001KA1999N+01001MD1210211+9999REMSYN070AAXX  01061 37553 32799 20201 10151 20112 40123 52021 81230 333 20100;EQDQ01  00002PRCP99
0112375530999992000050109004+41930+045380FM-12+054399999V0200901N002012200019N0500001N1+01861+01191101231ADDGF102991011021017501031001MD1210071+9999REMSYN060AAXX  01091 37553 42799 20902 10186 20119 40123 52007 81230;
0171375530999992000050112004+41930+045380FM-12+054399999V0201001N001012200019N0500001N1+01841+01221101291ADDAY191061AY211061GF101991011021017501001001MA1999999095111MD1210041+9999MW1011REMSYN082AAXX  01121 37553 42799 11001 10184 20122 39511 40129 52004 70191 81200 555 10037;
0175375530999992000050203004+41930+045380FM-12+054399999V0203201N001012200019N0500001N1+01681+00861101291ADDAA199000091GA1001+999999999GF100991001001999999001001KA1999N+00741MD1310041+9999REMSYN064AAXX  02031 37553 32999 03201 10168 20086 40129 53004 333 20074;EQDQ01  00002PRCP99
0112375530999992000050209004+41930+045380FM-12+054399999V0203001N001012200019N0500001N1+02031+00941101221ADDGF101991011021008001001001MD1210011+9999REMSYN060AAXX  02091 37553 42599 13001 10203 20094 40122 52001 81200;
0143375530999992000050212004+41930+045380FM-12+054399999V0203201N002012200019N0500001N1+02411+00741101181ADDGF102991001001999999001011MA1999999094751MD1710341+9999REMSYN076AAXX  02121 37553 42999 23202 10241 20074 39475 40118 57034 80001 555 10042;
0135375530999992000050306004+41930+045380FM-12+054399999V0203001N002010360019N0200001N1+01681+01121101021ADDGF106991031051017501031011KA1999N+01201MD1210031+9999REMSYN070AAXX  03061 37553 12798 63002 10168 20112 40102 52003 83531 333 20120;
0140375530999992000050309004+41930+045380FM-12+054399999V0202201N002010120019N0200001N1+01461+01371100981ADDAY161031AY261031GF108991081051012501999999MD1810041+9999MW1631REMSYN066AAXX  03091 37553 41698 82202 10146 20137 40098 58004 76366 885//;
0171375530999992000050312004+41930+045380FM-12+054399999V0203001N001010120019N0200001N1+01361+01271101001ADDAY161061AY261061GF108991081051012501999999MA1999999094761MD1710041+9999MW1611REMSYN082AAXX  03121 37553 41698 83001 10136 20127 39476 40100 57004 76166 885// 555 10017;
0165375530999992000050406004+41930+045380FM-12+054399999V0200901N001010120019N0200001N1+00921+00411101911ADDAA199000091GF108991081051012501999999KA1999N+00761MD1210131+9999REMSYN070AAXX  04061 37553 32698 80901 10092 20041 40191 52013 885// 333 20076;EQDQ01  00002PRCP99
0180375530999992000050506004+41930+045380FM-12+054399999V0201001N001010075019N0040001N1+00811+00771102571ADDAA100002091AY161061AY261061GF108991081001008001021999KA1999N+00741MD1210041+9999MW1611REMSYN082AAXX  05061 37553 11596 81001 10081 20077 40257 52004 60020 76166 8802/ 333 20074;
0140375530999992000050509004+41930+045380FM-12+054399999V0200201N001010120019N0200001N1+01041+00741102331ADDAY161031AY221031GF108991081031012501999999MD1810131+9999MW1021REMSYN066AAXX  05091 37553 41698 80201 10104 20074 40233 58013 70262 883//;
0165375530999992000050606004+41930+045380FM-12+054399999V0209999C000010150019N0200001N1+01091+00891101531ADDAA199000091GF108991081051017501999999KA1999N+00961MD1710051+9999REMSYN070AAXX  06061 37553 32798 80000 10109 20089 40153 57005 885// 333 20096;EQDQ01  00002PRCP99
0112375530999992000050609004+41930+045380FM-12+054399999V0209999C000010150019N0200001N1+01321+01021101411ADDGF108991081031017501999999MD1710041+9999REMSYN060AAXX  06091 37553 42798 80000 10132 20102 40141 57004 883//;
0164375530999992000050703004+41930+045380FM-12+054399999V0203001N001012200019N0500001N1+01261+01051101411ADDAA199000091GF102991001001999999001021MD1210021+9999REMSYN082AAXX  07031 37553 32999 23001 10126 20105 40141 52002 80002 555 20090 50129 7996/;EQDQ01  00002PRCP99
0165375530999992000050706004+41930+045380FM-12+054399999V0203001N003012200019N0200001N1+01741+01051101351ADDAA199000091GF102991001001999999001011KA1999N+00901MD1210021+9999REMSYN070AAXX  07061 37553 32998 23003 10174 20105 40135 52002 80001 333 20090;EQDQ01  00002PRCP99
0199375530999992000050806004+41930+045380FM-12+054399999V0200901N002010075019N0040001N1+01201+01111101501ADDAA100000591AY161061AY261061GF108991081001008001021999KA1999N+99999MD1410001+9999MW1611REMSYN082AAXX  08061 37553 11596 80902 10120 20111 40150 54000 69940 76166 8802/ 333 20131;EQDQ01 +01312ATMN  
0140375530999992000050809004+41930+045380FM-12+054399999V0200901N002010075019N0040001N1+01281+01141101621ADDAY161031AY261031GF108991081001008001021999MD1210081+9999MW1611REMSYN066AAXX  08091 37553 41596 80902 10128 20114 40162 52008 76166 8802/;
0112375530999992000050909004+41930+045380FM-12+054399999V0202901N004012200019N0500001N1+01441+00131101541ADDGF101991011021017501001001MD1210051+9999REMSYN060AAXX  09091 37553 42799 12904 10144 20013 40154 52005 81200;
0143375530999992000050912004+41930+045380FM-12+054399999V0202901N006019999999N0500001N1+01321+00001101721ADDGF107991001001999999031011MA1999999095401MD1210151+9999REMSYN076AAXX  09121 37553 42999 72906 10132 20000 39540 40172 52015 80031 555 11023;
0198375530999992000051003004+41930+045380FM-12+054399999V0209999C000012200019N0500001N1+00771+00381102061ADDAA199000091GA1001+999999999GF100991001001999999001001IA1019IA2999-00309MD1810071+9999REMSYN082AAXX  10031 37553 32999 00000 10077 20038 40206 58007 555 20053 30103 50096 7000/;EQDQ01  00002PRCP99
0175375530999992000051006004+41930+045380FM-12+054399999V0203001N004012200019N0500001N1+01281+00171101911ADDAA199000091GA1001+999999999GF100991001001999999001001KA1999N+00581MD1710031+9999REMSYN064AAXX  10061 37553 32999 03004 10128 20017 40191 57003 333 20058;EQDQ01  00002PRCP99
0143375530999992000051012004+41930+045380FM-12+054399999V0203001N001012200019N0500001N1+01781+00301101631ADDGF101991001001999999001011MA1999999095411MD1710121+9999REMSYN076AAXX  10121 37553 42999 13001 10178 20030 39541 40163 57012 80001 555 10039;
0175375530999992000051106004+41930+045380FM-12+054399999V0209999C000012200019N0200001N1+01441+00651101891ADDAA199000091GA1001+999999999GF100991001001999999001001KA1999N+00511MD1210051+9999REMSYN064AAXX  11061 37553 32998 00000 10144 20065 40189 52005 333 20051;EQDQ01  00002PRCP99
0122375530999992000051109004+41930+045380FM-12+054399999V0200901N002012200019N0200001N1+01741+00761101811ADDGA1001+999999999GF100991001001999999001001MD1210011+9999REMSYN054AAXX  11091 37553 42998 00902 10174 20076 40181 52001;
0143375530999992000051112004+41930+045380FM-12+054399999V0209999C000012200019N0200001N1+02041+00401101581ADDGF101991001001999999001011MA1999999095421MD1810161+9999REMSYN076AAXX  11121 37553 42998 10000 10204 20040 39542 40158 58016 80001 555 10045;
0165375530999992000051406004+41930+045380FM-12+054399999V0202801N002012200019N0500001N1+01871+00821101411ADDAA199000091GF103991001001999999031011KA1999N+01451MD1210011+9999REMSYN070AAXX  14061 37553 32999 32802 10187 20082 40141 52001 80031 333 20145;EQDQ01  00002PRCP99
0112375530999992000051409004+41930+045380FM-12+054399999V0202701N002010360019N0500001N1+02141+00981101331ADDGF107991021021017501031011MD1810051+9999REMSYN060AAXX  14091 37553 42799 72702 10214 20098 40133 58005 82231;
0143375530999992000051412004+41930+045380FM-12+054399999V0202901N001010150019N0500001N1+02061+00921101461ADDGF107991061031017501031001MA1999999095331MD1310111+9999REMSYN076AAXX  14121 37553 42799 72901 10206 20092 39533 40146 53011 86330 555 10029;
0165375530999992000051506004+41930+045380FM-12+054399999V0209999C000019999999N0200001N1+01561+01001101661ADDAA199000091GF108991001001999999031011KA1999N+00991MD1710011+9999REMSYN070AAXX  15061 37553 32998 80000 10156 20100 40166 57001 80031 333 20099;EQDQ01  00002PRCP99
0181375530999992000051606004+41930+045380FM-12+054399999V0209999C000012200019N0200001N1+01501+00941101631ADDAA199000091GF102991999001999999031001KA1999N+00981MD1810071+9999REMSYN070AAXX  16061 37553 32998 20000 10150 20094 40163 58007 80030 333 20098;EQDQ01+000002SCOTLCQ02  00002PRCP99
0180375530999992000051806004+41930+045380FM-12+054399999V0200901N001010120019N0200001N1+01101+01031101521ADDAA100000591AY181061AY211061GF108991081091012501999999KA1999N+00851MD1810051+9999MW1801REMSYN082AAXX  18061 37553 11698 80901 10110 20103 40152 58005 69960 78081 889// 333 20085;
0126375530999992000051809004+41930+045380FM-12+054399999V0200501N002010120019N0200001N1+01211+00981101541ADDAY181031AY281031GF108991081091012501999999MW1801REMSYN066AAXX  18091 37553 41698 80502 10121 20098 40154 59002 78088 889//;
0171375530999992000051812004+41930+045380FM-12+054399999V0200901N002010360019N0500001N1+01321+01231101311ADDAY181061AY221061GF107991031031012501031011MA1999999095041MD1710121+9999MW1021REMSYN082AAXX  18121 37553 41699 70902 10132 20123 39504 40131 57012 70282 83331 555 11025;
0165375530999992000051906004+41930+045380FM-12+054399999V0200901N001012200019N0200001N1+01461+01001100991ADDAA199000091GF103991001001999999001011KA1999N+00751MD1710121+9999REMSYN070AAXX  19061 37553 32998 30901 10146 20100 40099 57012 80001 333 20075;EQDQ01  00002PRCP99
0131375530999992000051909004+41930+045380FM-12+054399999V0201201N001010360019N0200001N1+01681+01001999999ADDGF106991011051017501031011MD1710021+9999REMSYN060AAXX  19091 37553 42798 61201 10168 20100 40192 57002 81531;EQDQ01+101923APOSLP
0143375530999992000051912004+41930+045380FM-12+054399999V0201201N004010360019N0200001N1+01701+01031100901ADDGF107991041051017501031001MA1999999094731MD1710011+9999REMSYN076AAXX  19121 37553 42798 71204 10170 20103 39473 40090 57001 84530 555 11026;
0180375530999992000052006004+41930+045380FM-12+054399999V0209999C000010120019N0200001N1+01411+01301101081ADDAA100006191AY161061AY221061GF106991051051012501031001KA1999N+01001MD1810141+9999MW1011REMSYN082AAXX  20061 37553 31698 60000 10141 20130 40108 58014 60060 70162 85530 333 20100;
0112375530999992000052009004+41930+045380FM-12+054399999V0209999C000010360019N0500001N1+01511+01281101001ADDGF106991041051012501031001MD1710081+9999REMSYN060AAXX  20091 37553 42699 60000 10151 20128 40100 57008 84530;
0122375530999992000052206004+41930+045380FM-12+054399999V0200501N003012200019N0500001N1+02341+01181101331ADDGA1001+999999999GF100991001001999999001001MD1710021+9999REMSYN054AAXX  22061 37553 42999 00503 10234 20118 40133 57002;
0153375530999992000052212004+41930+045380FM-12+054399999V0200201N002012200019N0500001N1+02671+01201101071ADDGA1001+999999999GF100991001001999999001001MA1999999095071MD1710211+9999REMSYN070AAXX  22121 37553 42999 00202 10267 20120 39507 40107 57021 555 10049;
0192375530999992000052303004+41930+045380FM-12+054399999V0202101N001019999999N0500001N1+01581+01211101531ADDAA112999999AY181031AY221031GF106991999999017501999999MD1210031+9999MW1011REMSYN088AAXX  23031 37553 /2799 62101 10158 20121 40153 52003 70182 555 20153 50209 69902 7990/;EQDQ01  99992PRCP12
0152375530999992000052306004+41930+045380FM-12+054399999V0203601N001012200019N0200001N1+02201+01411101381ADDAA100000791GF102991001001999999001011KA1999N+01531MD1410001+9999REMSYN076AAXX  23061 37553 32998 23601 10220 20141 40138 54000 69900 80001 333 20153;
0140375530999992000052309004+41930+045380FM-12+054399999V0201801N002010360019N0200001N1+02501+01381101201ADDAY191031AY221031GF106991011051017501031011MD1710121+9999MW1031REMSYN066AAXX  23091 37553 42798 61802 10250 20138 40120 57012 70392 81531;
0143375530999992000052312004+41930+045380FM-12+054399999V0201201N001010360019N0200001N1+02001+00701101201ADDGF106991031051017501031011MA1999999095061MD1710111+9999REMSYN076AAXX  23121 37553 42798 61201 10200 20070 39506 40120 57011 83531 555 10037;
0159375530999992000052409004+41930+045380FM-12+054399999V0200901N002019999999N0200001N1+02581+01521101061ADDAY191031AY221031GF106991999091017501031001MD1710061+9999MW1171REMSYN066AAXX  24091 37553 42798 60902 10258 20152 40106 57006 71792 88930;EQDQ01+000082SCOTLC
0165375530999992000052412004+41930+045380FM-12+054399999V0200901N002010360019N0200001N1+02441+01691999999ADDAY191061AY281061GF107991041051012501031001MA1999999094991MD1710071+9999MW1951REMSYN076AAXX  24121 37553 41698 70902 10244 20169 39499 57007 79598 84530 555 11032;
0184375530999992000052415004+41930+045380FM-12+054399999V0202701N003010150019N0200001N1+02151+01731101091ADDAA112000791AY191031AY281031GF107991061091017501031011KA1120M+02761MD1310021+9999MW1171REMSYN086AAXX  24151 37553 /2798 72703 10215 20173 40109 53002 71798 86931 333 10276 555 69902;
0152375530999992000052418004+41930+045380FM-12+054399999V0209999C000019999999N0200001N1+01851+01791101471ADDAA100000791GF105991001001999999031011KA1999M+02761MD1710101+9999REMSYN076AAXX  24181 37553 32998 50000 10185 20179 40147 57010 69900 80031 333 10276;
0164375530999992000052503004+41930+045380FM-12+054399999V0209999C000019999999N0200001N1+01631+01361101191ADDAA199000091GF105991001001999999031011MD1710021+9999REMSYN082AAXX  25031 37553 32998 50000 10163 20136 40119 57002 80031 555 20164 50208 7990/;EQDQ01  00002PRCP99
0165375530999992000052606004+41930+045380FM-12+054399999V0203201N001019999999N0500001N1+02481+01251100551ADDAA199000091GF107991001001999999001011KA1999N+01301MD1710121+9999REMSYN070AAXX  26061 37553 32999 73201 10248 20125 40055 57012 80001 333 20130;EQDQ01  00002PRCP99
0140375530999992000052609004+41930+045380FM-12+054399999V0200901N002010360019N0500001N1+02561+01181100601ADDAY191031AY281031GF107991041091012501031001MD1310071+9999MW1991REMSYN066AAXX  26091 37553 41699 70902 10256 20118 40060 53007 79998 84930;
0171375530999992000052612004+41930+045380FM-12+054399999V0201401N003010360019N0500001N1+02821+01131100311ADDAY191061AY281061GF107991021021008001031011MA1999999094401MD1310221+9999MW1021REMSYN082AAXX  26121 37553 41599 71403 10282 20113 39440 40031 53022 70298 82231 555 10042;
0156375530999992000052615004+41930+045380FM-12+054399999V0201601N001010120019N0200001N1+02561+01331100391ADDAA112000791GF108991081031012501999999KA1120M+02901MD1310031+9999REMSYN080AAXX  26151 37553 /2698 81601 10256 20133 40039 53003 883// 333 10290 555 69902;
0162375530999992000052618004+41930+045380FM-12+054399999V0202001N001012200019N0500001N1+02161+01131100471ADDAA100000791GA1001+999999999GF100991001001999999001001KA1999M+02901MD1810021+9999REMSYN070AAXX  26181 37553 12999 02001 10216 20113 40047 58002 69900 333 10290;
0181375530999992000052700004+41930+045380FM-12+054399999V0202001N001012200019N0200001N1+01631+01161100621ADDAY191061AY291061GF106991031051008001001011MA1999999094451MD1310051+9999MW1011REMSYN092AAXX  27001 37553 41598 62001 10163 20116 39445 40062 53005 70199 83501 333 55/// 555 10015;
0151375530999992000052703004+41930+045380FM-12+054399999V0203201N002010360019N0500001N1+01641+01431100841ADDAA112000791GF107991021031017501031011MD1210221+9999REMSYN088AAXX  27031 37553 /2799 73202 10164 20143 40084 52022 82331 555 20163 50220 69972 7997/;
0156375530999992000052712004+41930+045380FM-12+054399999V0203201N004010360019N0200001N1+02201+01231100751ADDAA112000791GF106991011051017501031011KA1120M+02941MD1710081+9999REMSYN080AAXX  27121 37553 /2798 63204 10220 20123 40075 57008 81531 333 10294 555 69902;
0171375530999992000052812004+41930+045380FM-12+054399999V0202701N001012200019N0200001N1+02311+01511101161ADDAY191061AY221061GF104991031091017501031001MA1999999095101MD1710151+9999MW1171REMSYN082AAXX  28121 37553 42798 42701 10231 20151 39510 40116 57015 71792 83930 555 10138;
0156375530999992000052815004+41930+045380FM-12+054399999V0200901N001010120019N0200001N1+02081+01351101401ADDAA112000791GF106991061051012501031001KA1120M+02361MD1310181+9999REMSYN080AAXX  28151 37553 /2698 60901 10208 20135 40140 53018 86530 333 10236 555 69902;
0180375530999992000052903004+41930+045380FM-12+054399999V0209999C000012200019N0200001N1+01381+01211101571ADDAA199000091GF103991999001999999031001MD1710021+9999REMSYN082AAXX  29031 37553 32998 30000 10138 20121 40157 57002 80030 555 20135 50178 7990/;EQDQ01+000002SCOTLCQ02  00002PRCP99
0165375530999992000052915004+41930+045380FM-12+054399999V0201001N001010360019N0500001N1+02411+01221100981ADDAA199000091GF107991021031017501031011KA1999M+02711MD1710111+9999REMSYN070AAXX  29151 37553 32799 71001 10241 20122 40098 57011 82331 333 10271;EQDQ01  00002PRCP99
0164375530999992000053003004+41930+045380FM-12+054399999V0209999C000010150019N0200001N1+01771+01501101191ADDAA199000091GF107991051031017501031001MD1310141+9999REMSYN082AAXX  30031 37553 32798 70000 10177 20150 40119 53014 85330 555 20166 50210 7000/;EQDQ01  00002PRCP99
0165375530999992000053006004+41930+045380FM-12+054399999V0201601N001012200019N0500001N1+02471+01571100961ADDAA199000091GF101991011021017501001001KA1999N+01661MD1810071+9999REMSYN070AAXX  30061 37553 32799 11601 10247 20157 40096 58007 81200 333 20166;EQDQ01  00002PRCP99
0112375530999992000053009004+41930+045380FM-12+054399999V0201701N001012200019N0200001N1+02671+01411100881ADDGF103991021021017501001011MD1710041+9999REMSYN060AAXX  30091 37553 42798 31701 10267 20141 40088 57004 82201;
0143375530999992000053012004+41930+045380FM-12+054399999V0202501N002012200019N0200001N1+02741+01251100861ADDGF106991031031012501001011MA1999999094901MD1710011+9999REMSYN076AAXX  30121 37553 41698 62502 10274 20125 39490 40086 57001 83301 555 10043;
0151375530999992000053103004+41930+045380FM-12+054399999V0202901N001010900019N0500001N1+01451+01391101131ADDAA112026091GF105991011051017501031011MD1710011+9999REMSYN088AAXX  31031 37553 /2799 52901 10145 20139 40113 57001 81531 555 20145 50200 60262 7029/;
0152375530999992000053106004+41930+045380FM-12+054399999V0203001N002012200019N0200001N1+02121+01751101021ADDAA100025991GF101991001001999999001011KA1999N+01451MD1710021+9999REMSYN076AAXX  31061 37553 32998 13002 10212 20175 40102 57002 60260 80001 333 20145;
0159375530999992000053109004+41930+045380FM-12+054399999V0200901N002012200019N0200001N1+02521+01471999999ADDAY191031AY221031GF104991011051017501031011MD1710111+9999MW1171REMSYN066AAXX  31091 37553 42798 40902 10252 20147 40182 57011 71792 81531;EQDQ01+101823APOSLP
0143375530999992000053112004+41930+045380FM-12+054399999V0201801N004010360019N0200001N1+02661+00671100571ADDGF106991031051017501031011MA1999999094531MD1710191+9999REMSYN076AAXX  31121 37553 42798 61804 10266 20067 39453 40057 57019 83531 555 10034;
0162375530999992000060312004+41930+045380FM-12+054399999V0201101N003012200019N0500001N1+02861+01331101061ADDGF101991001001999999001011MA1999999095111MD1710201+9999REMSYN076AAXX  03121 37553 42999 11103 10286 20133 39511 40106 57020 83001 555 10048;EQDQ01+000032SCOTLC
0165375530999992000060315004+41930+045380FM-12+054399999V0202001N002010120019N0200001N1+02241+01541101281ADDAA199000091GF107991071031012501001001KA1999M+02881MD1710091+9999REMSYN070AAXX  03151 37553 32698 72002 10224 20154 40128 57009 87300 333 10288;EQDQ01  00002PRCP99
0174375530999992000060318004+41930+045380FM-12+054399999V0202001N001010120019N0200001N1+02001+01821101431ADDAA199000021AY181061AY281061GF108991081091012501999999KA1999M+02881MD1210111+9999MW1811REMSYN076AAXX  03181 37553 31698 82001 10200 20182 40143 52011 78188 889// 333 10288;
0151375530999992000060403004+41930+045380FM-12+054399999V0203201N001010360019N0200001N1+01741+01691101211ADDAA112002091GF106991011031017501031011MD1710121+9999REMSYN088AAXX  04031 37553 /2798 63201 10174 20169 40121 57012 81331 555 20165 50217 60022 7002/;
0152375530999992000060506004+41930+045380FM-12+054399999V0202701N002012200019N0200001N1+02311+01741100691ADDAA100002091GF103991001001999999031011KA1999N+01601MD1410001+9999REMSYN076AAXX  05061 37553 32998 32702 10231 20174 40069 54000 60020 80031 333 20160;
0112375530999992000060509004+41930+045380FM-12+054399999V0202701N001019999999N0100001N1+02631+01761100521ADDGF106991001001999999031011MD1410001+9999REMSYN060AAXX  05091 37553 42997 62701 10263 20176 40052 54000 80031;
0165375530999992000060515004+41930+045380FM-12+054399999V0202701N001019999999N0200001N1+02481+01651100541ADDAA199000091GF105991001001999999031011KA1999M+02911MD1310061+9999REMSYN070AAXX  05151 37553 32998 52701 10248 20165 40054 53006 80031 333 10291;EQDQ01  00002PRCP99
0175375530999992000060706004+41930+045380FM-12+054399999V0200201N001012200019N0500001N1+02621+01121100871ADDAA199000091GA1001+999999999GF100991001001999999001001KA1999N+01691MD1810041+9999REMSYN064AAXX  07061 37553 32999 00201 10262 20112 40087 58004 333 20169;EQDQ01  00002PRCP99
0122375530999992000060709004+41930+045380FM-12+054399999V0200701N003012200019N0500001N1+02961+00641100711ADDGA1001+999999999GF100991001001999999001001MD1710101+9999REMSYN054AAXX  07091 37553 42999 00703 10296 20064 40071 57010;
0153375530999992000060712004+41930+045380FM-12+054399999V0201201N002012200019N0500001N1+03101+00741100501ADDGA1001+999999999GF100991001001999999001001MA1999999094631MD1710161+9999REMSYN070AAXX  07121 37553 42999 01202 10310 20074 39463 40050 57016 555 10052;
0112375530999992000061109004+41930+045380FM-12+054399999V0200901N003010120019N0200001N1+01861+01361101741ADDGF108991081031012501999999MD1710051+9999REMSYN060AAXX  11091 37553 42698 80903 10186 20136 40174 57005 883//;
0143375530999992000061209004+41930+045380FM-12+054399999V0200901N004012200019N0200001N1+01821+01141101961ADDGF103991011051017501031011MA1999999095751MD1810051+9999REMSYN076AAXX  12091 37553 42798 30904 10182 20114 39575 40196 58005 81531 555 10046;
0181375530999992000061606004+41920+045380FM-12+054399999V0200901N002012200019N0500001N1+02181+01311101791ADDAA199000091GF101991999001999999031001KA1999N+01551MD1210031+9999REMSYN070AAXX  16061 37553 32999 10902 10218 20131 40179 52003 80030 333 20155;EQDQ01+000002SCOTLCQ02  00002PRCP99
0131375530999992000061609004+41920+045380FM-12+054399999V0209999C000012200019N0500001N1+02501+01151101531ADDGF102991999001999999031001MD1810191+9999REMSYN060AAXX  16091 37553 42999 20000 10250 20115 40153 58019 80030;EQDQ01+000002SCOTLC
0162375530999992000061612004+41920+045380FM-12+054399999V0200901N001012200019N0500001N1+02761+00861101321ADDGF101991999001999999031001MA1999999095331MD1710151+9999REMSYN076AAXX  16121 37553 42999 10901 10276 20086 39533 40132 57015 80030 555 10052;EQDQ01+000002SCOTLC
0112375530999992000061909004+41920+045380FM-12+054399999V0203601N003019999999N0500001N1+02421+01191100591ADDGF105991001001999999031011MD1710021+9999REMSYN060AAXX  19091 37553 42999 53603 10242 20119 40059 57002 80031;
0164375530999992000062003004+41920+045380FM-12+054399999V0203201N002010120019N0200001N1+01741+01231100971ADDAA199000091GF107991071031012501001001MD1210011+9999REMSYN082AAXX  20031 37553 32698 73202 10174 20123 40097 52001 87300 555 20164 50210 7000/;EQDQ01  00002PRCP99
0165375530999992000062006004+41920+045380FM-12+054399999V0203201N004010120019N0200001N1+02041+01341100891ADDAA199000091GF107991071031012501001001KA1999N+01641MD1810011+9999REMSYN070AAXX  20061 37553 32698 73204 10204 20134 40089 58001 87300 333 20164;EQDQ01  00002PRCP99
0131375530999992000062009004+41920+045380FM-12+054399999V0203001N004010120019N0200001N1+01721+01131100941ADDGF107991999051012501001001MD1210081+9999REMSYN060AAXX  20091 37553 42698 73004 10172 20113 40094 52008 86500;EQDQ01+000062SCOTLC
0143375530999992000062012004+41920+045380FM-12+054399999V0203201N005010150019N0200001N1+01501+00731101401ADDGF107991071031017501001001MA1999999095151MD1210281+9999REMSYN076AAXX  20121 37553 42798 73205 10150 20073 39515 40140 52028 87300 555 10015;
0112375530999992000062109004+41920+045380FM-12+054399999V0209999C000010150019N0200001N1+01991+01861101861ADDGF106991051051017501031001MD1410001+9999REMSYN060AAXX  21091 37553 42798 60000 10199 20186 40186 54000 85530;
0162375530999992000062112004+41920+045380FM-12+054399999V0209999C000012200019N0200001N1+02221+01151101501ADDGF103991999051012501031011MA1999999095401MD1810061+9999REMSYN076AAXX  21121 37553 42698 30000 10222 20115 39540 40150 58006 86531 555 10032;EQDQ01+000062SCOTLC
0175375530999992000062806004+41920+045380FM-12+054399999V0201801N001012200019N0500001N1+02421+01641100891ADDAA199000091GA1001+999999999GF100991001001999999001001KA1999N+01681MD1210141+9999REMSYN064AAXX  28061 37553 32999 01801 10242 20164 40089 52014 333 20168;EQDQ01  00002PRCP99
0112375530999992000062809004+41920+045380FM-12+054399999V0200901N002012200019N0200001N1+02761+01511100761ADDGF104991001001999999031011MD1810061+9999REMSYN060AAXX  28091 37553 42998 40902 10276 20151 40076 58006 80031;
0143375530999992000062812004+41920+045380FM-12+054399999V0200901N002012200019N0500001N1+03071+01581100581ADDGF101991001001999999031011MA1999999094701MD1710121+9999REMSYN076AAXX  28121 37553 42999 10902 10307 20158 39470 40058 57012 80031 555 10046;
0165375530999992000083006004+41920+045380FM-12+054399999V0203001N001012200019N0500001N1+01861+01151100861ADDAA199000091GF101991001001999999001011KA1999N+01511MD1810171+9999REMSYN070AAXX  30061 37553 32999 13001 10186 20115 40086 58017 80001 333 20151;EQDQ01  00002PRCP99
0165375530999992000090206004+41920+045380FM-12+054399999V0203401N001010120019N0200001N1+01821+01431101011ADDAA199000091GF108991081031012501999999KA1999N+01301MD1210301+9999REMSYN070AAXX  02061 37553 32698 83401 10182 20143 40101 52030 883// 333 20130;EQDQ01  00002PRCP99
0131375530999992000090209004+41920+045380FM-12+054399999V0202601N002019999999N0200001N1+02151+01291100971ADDGF107991999021012501001001MD1210031+9999REMSYN060AAXX  02091 37553 42698 72602 10215 20129 40097 52003 82200;EQDQ01+000022SCOTLC
0175375530999992000090212004+41920+045380FM-12+054399999V0200901N002012200019N0500001N1+02481+01271100831ADDGF101991011021017501001001KA1999M+99999MA1999999084831MD1810011+9999REMSYN076AAXX  02121 37553 42799 10902 10248 20127 38483 40083 58001 81200 333 10037;EQDQ01 +00372ATMX  
0175375530999992000090215004+41920+045380FM-12+054399999V0200901N001012200019N0500001N1+02361+01261100801ADDAA199000091GA1001+999999999GF100991001001999999001001KA1999M+02361MD1710061+9999REMSYN064AAXX  02151 37553 32999 00901 10236 20126 40080 57006 333 10236;EQDQ01  00002PRCP99
0164375530999992000090303004+41920+045380FM-12+054399999V0202001N001012200019N0500001N1+01571+01431101121ADDAA199000091GF102991011051017501031001MD1810011+9999REMSYN082AAXX  03031 37553 32799 22001 10157 20143 40112 58001 81530 555 20146 50192 7000/;EQDQ01  00002PRCP99
0165375530999992000090306004+41920+045380FM-12+054399999V0203401N001012200019N0500001N1+02141+01441101071ADDAA199000091GF101991011021017501001001KA1999N+01461MD1310081+9999REMSYN070AAXX  03061 37553 32799 13401 10214 20144 40107 53008 81200 333 20146;EQDQ01  00002PRCP99
0112375530999992000090309004+41920+045380FM-12+054399999V0203401N001012200019N0500001N1+02541+01301100871ADDGF101991011011017501001001MD1810111+9999REMSYN060AAXX  03091 37553 42799 13401 10254 20130 40087 58011 81100;
0143375530999992000090312004+41920+045380FM-12+054399999V0201301N001012200019N0500001N1+02791+01301100531ADDGF101991011021017501001001MA1999999094641MD1710241+9999REMSYN076AAXX  03121 37553 42799 11301 10279 20130 39464 40053 57024 81200 555 10047;
0175375530999992000090406004+41920+045380FM-12+054399999V0202101N001012200019N0500001N1+02321+01711101111ADDAA199000091GA1001+999999999GF100991001001999999001001KA1999N+01791MD1210061+9999REMSYN064AAXX  04061 37553 32999 02101 10232 20171 40111 52006 333 20179;EQDQ01  00002PRCP99
0131375530999992000090409004+41920+045380FM-12+054399999V0200901N005012200019N0200001N1+02751+01541101001ADDGF101991999001999999031001MD1810021+9999REMSYN060AAXX  04091 37553 42998 10905 10275 20154 40100 58002 80030;EQDQ01+000002SCOTLC
0162375530999992000090412004+41920+045380FM-12+054399999V0200301N001012200019N0200001N1+02901+01441100761ADDGF101991999001999999031001MA1999999094841MD1710191+9999REMSYN076AAXX  04121 37553 42998 10301 10290 20144 39484 40076 57019 80030 555 10049;EQDQ01+000002SCOTLC
0175375530999992000090415004+41920+045380FM-12+054399999V0209999C000012200019N0200001N1+02781+01301100771ADDAA199000091GA1001+999999999GF100991001001999999001001KA1999M+03031MD1710021+9999REMSYN064AAXX  04151 37553 32998 00000 10278 20130 40077 57002 333 10303;EQDQ01  00002PRCP99
0165375530999992000090506004+41920+045380FM-12+054399999V0209999C000012200019N0200001N1+02401+01811101251ADDAA199000091GF103991021051012501031001KA1999N+01821MD1810021+9999REMSYN070AAXX  05061 37553 32698 30000 10240 20181 40125 58002 82530 333 20182;EQDQ01  00002PRCP99
0162375530999992000090512004+41920+045380FM-12+054399999V0202701N002012200019N0200001N1+03031+01941100811ADDGF103991999001999999031001MA1999999094921MD1710171+9999REMSYN076AAXX  05121 37553 42998 32702 10303 20194 39492 40081 57017 80030 555 10035;EQDQ01+000002SCOTLC
0181375530999992000090515004+41920+045380FM-12+054399999V0200901N006012200019N0200001N1+02851+01861101642ADDAA199000091GF102991011051999999031011KA1999M+03111MD1710101+9999REMSYN070AAXX  05151 37553 32998 20906 10285 20186 40164 57010 81531 333 10311;EQDQ01+101643APOSLPQ02  00002PRCP99
0165375530999992000090606004+41920+045380FM-12+054399999V0203001N001019999999N0500001N1+02271+01841101081ADDAA199000091GF107991021051999999031011KA1999N+02051MD1310011+9999REMSYN070AAXX  06061 37553 32999 73001 10227 20184 40108 53001 82531 333 20205;EQDQ01  00002PRCP99
0143375530999992000090612004+41920+045380FM-12+054399999V0200901N002019999999N0500001N1+03061+01701100491ADDGF105991001001999999001011MA1999999094621MD1710191+9999REMSYN076AAXX  06121 37553 42999 50902 10306 20170 39462 40049 57019 80001 555 10050;
0165375530999992000090706004+41920+045380FM-12+054399999V0202701N001012200019N0500001N1+02561+01751100501ADDAA199000091GF102991001001999999001011KA1999N+01831MD1310091+9999REMSYN070AAXX  07061 37553 32999 22701 10256 20175 40050 53009 80001 333 20183;EQDQ01  00002PRCP99
0122375530999992000090709004+41920+045380FM-12+054399999V0202701N002012200019N0500001N1+03041+01771100221ADDGA1001+999999999GF100991001001999999001001MD1810171+9999REMSYN054AAXX  07091 37553 42999 02702 10304 20177 40022 58017;
0165375530999992000090715004+41920+045380FM-12+054399999V0200901N003012200019N0500001N1+03041+01501100151ADDAA199000091GF101991001001999999001011KA1999M+03371MD1310091+9999REMSYN070AAXX  07151 37553 32999 10903 10304 20150 40015 53009 80001 333 10337;EQDQ01  00002PRCP99
0175375530999992000090806004+41920+045380FM-12+054399999V0203201N009012200019N0200001N1+02781+01841100901ADDAA199000091GA1001+999999999GF100991001001999999001001KA1999N+02051MD1210061+9999REMSYN064AAXX  08061 37553 32598 03209 10278 20184 40090 52006 333 20205;EQDQ01  00002PRCP99
0143375530999992000090812004+41920+045380FM-12+054399999V0200901N002012200019N0200001N1+03261+01791100791ADDGF104991011051017501031001MA1999999094901MD1710041+9999REMSYN076AAXX  08121 37553 42798 40902 10326 20179 39490 40079 57004 81530 555 10052;
0191375530999992000090815004+41920+045380FM-12+054399999V0202201N003012200019N0200001N1+02881+01521101952ADDAA199000091GA1001+999999999GF100991001001999999001001KA1999M+03261MD1310121+9999REMSYN064AAXX  08151 37553 32998 02203 10288 20152 40195 53012 333 10326;EQDQ01+101953APOSLPQ02  00002PRCP99
0175375530999992000090906004+41920+045380FM-12+054399999V0201801N001012200019N0200001N1+02471+01891101621ADDAA199000091GA1001+999999999GF100991001001999999001001KA1999N+02041MD1210021+9999REMSYN064AAXX  09061 37553 32998 01801 10247 20189 40162 52002 333 20204;EQDQ01  00002PRCP99
0122375530999992000090909004+41920+045380FM-12+054399999V0201801N001012200019N0200001N1+02771+01871101591ADDGA1001+999999999GF100991001001999999001001MD1310041+9999REMSYN054AAXX  09091 37553 42998 01801 10277 20187 40159 53004;
0193375530999992000090915004+41920+045380FM-12+054399999V0209999C000010150019N0200001N1+02811+01971101311ADDAA199000091AY191031AY221031GF106991051091017501031001KA1999M+03031MD1710061+9999MW1171REMSYN076AAXX  09151 37553 32798 60000 10281 20197 40131 57006 71792 85930 333 10303;EQDQ01  00002PRCP99
0159375530999992000091009004+41920+045380FM-12+054399999V0203201N001010120019N0200001N1+05581+01511101861ADDAY191031AY201031GF108991081091012501999999MD1210081+9999MW1951REMSYN066AAXX  10091 37553 41698 83201 10558 20151 40186 52008 79598 889//;EQDQ01+000082PSTWM2
0175375530999992000091106004+41920+045380FM-12+054399999V0203201N002012200019N0500001N1+01762+01291101981ADDAA199000091GA1001+999999999GF100991001001999999001001KA1999N+01251MD1810021+9999REMSYN064AAXX  11061 37553 32999 03202 10176 20129 40198 58002 333 20125;EQDQ01  00002PRCP99
0112375530999992000091109004+41920+045380FM-12+054399999V0201001N002012200019N0500001N1+02191+01281101421ADDGF102991021021008001001001MD1710041+9999REMSYN060AAXX  11091 37553 42599 21002 10219 20128 40142 57004 82200;
0143375530999992000091112004+41920+045380FM-12+054399999V0200801N002012200019N0500001N1+02431+01481101391ADDGF102991021021999999001001MA1999999095741MD1710181+9999REMSYN076AAXX  11121 37553 42999 20802 10243 20148 39574 40139 57018 82200 555 10034;
0165375530999992000091115004+41920+045380FM-12+054399999V0200901N002012200019N0500001N1+02331+01351101291ADDAA199000091GF101991011021017501001001KA1999M+02461MD1710111+9999REMSYN070AAXX  11151 37553 32799 10902 10233 20135 40129 57011 81200 333 10246;EQDQ01  00002PRCP99
0174375530999992000091203004+41920+045380FM-12+054399999V0202001N002012200019N0500001N1+01661+01431101311ADDAA199000091GA1001+999999999GF100991001001999999001001MD1710121+9999REMSYN076AAXX  12031 37553 32999 02002 10166 20143 40131 57012 555 20153 50192 7000/;EQDQ01  00002PRCP99
0175375530999992000091206004+41920+045380FM-12+054399999V0209999C000012200019N0200001N1+02001+01521101221ADDAA199000091GA1001+999999999GF100991001001999999001001KA1999N+01531MD1710031+9999REMSYN064AAXX  12061 37553 32998 00000 10200 20152 40122 57003 333 20153;EQDQ01  00002PRCP99
0112375530999992000091209004+41920+045380FM-12+054399999V0201101N002012200019N0200001N1+02441+01321100931ADDGF102991011051017501031001MD1710171+9999REMSYN060AAXX  12091 37553 42798 21102 10244 20132 40093 57017 81530;
0143375530999992000091212004+41920+045380FM-12+054399999V0201301N002012200019N0200001N1+02621+01301100631ADDGF102991001001999999001011MA1999999094671MD1010241+9999REMSYN076AAXX  12121 37553 42998 21302 10262 20130 39467 40063 50024 80001 555 10036;
0165375530999992000091215004+41920+045380FM-12+054399999V0209999C000019999999N0200001N1+02401+01291100601ADDAA199000091GF108991001001999999001011KA1999M+02771MD1710081+9999REMSYN070AAXX  12151 37553 32998 80000 10240 20129 40060 57008 80001 333 10277;EQDQ01  00002PRCP99
0152375530999992000091406004+41920+045380FM-12+054399999V0209999C000010120019N0200001N1+01881+01751101651ADDAA100000791GF108991081091012501999999KA1999N+01761MD1210211+9999REMSYN076AAXX  14061 37553 12698 80000 10188 20175 40165 52021 69900 889// 333 20176;
0141375530999992000091409004+41920+045380FM-12+054399999V0200201N010010120019N0200001N1+99999+99999101611ADDGF107991071091012501001001MD1710041+9999REMSYN054AAXX  14091 37553 42698 70210 20179 40161 51000 87900;EQDQ01+000012APCTENQ02+000002APC3  
0143375530999992000091412004+41920+045380FM-12+054399999V0201001N003010120019N0200001N1+02131+01831101541ADDGF107991071091012501031001MA1999999095441MD1810041+9999REMSYN076AAXX  14121 37553 42698 71003 10213 20183 39544 40154 58004 87930 555 11030;
0165375530999992000091415004+41920+045380FM-12+054399999V0201201N001010120019N0200001N1+02041+01771101661ADDAA199000091GF107991071031012501001001KA1999M+02181MD1310081+9999REMSYN070AAXX  14151 37553 32698 71201 10204 20177 40166 53008 87300 333 10218;EQDQ01  00002PRCP99
0112375530999992000091509004+41920+045380FM-12+054399999V0203201N002010150019N0200001N1+02131+01561101361ADDGF107991051091017501031011MD1710111+9999REMSYN060AAXX  15091 37553 42798 73202 10213 20156 40136 57011 85931;
0143375530999992000091512004+41920+045380FM-12+054399999V0203101N002010150019N0200001N1+02331+01531101071ADDGF107991061051017501031011MA1999999085021MD1710241+9999REMSYN076AAXX  15121 37553 42798 73102 10233 20153 38502 40107 57024 86531 555 11035;
0152375530999992000091706004+41920+045380FM-12+054399999V0209999C000010120019N0200001N1+01961+01491101741ADDAA100000591GF108991081051012501999999KA1999N+01761MD1810011+9999REMSYN076AAXX  17061 37553 32698 80000 10196 20149 40174 58001 69940 885// 333 20176;
0112375530999992000091709004+41920+045380FM-12+054399999V0209999C000010120019N0200001N1+02221+01511101811ADDGF108991081051012501999999MD1310021+9999REMSYN060AAXX  17091 37553 42698 80000 10222 20151 40181 53002 885//;
0140375530999992000091809004+41920+045380FM-12+054399999V0209999C000010150019N0200001N1+01771+01541101571ADDAY191031AY281031GF108991081091017501999999MD1210011+9999MW1021REMSYN066AAXX  18091 37553 41798 80000 10177 20154 40157 52001 70298 889//;
0137375530999992000091812004+41920+045380FM-12+054399999V0203101N001010360019N0200001N1+99999+99999101521ADDGF106991031021017501031011MA1999999095401MD1810071+9999REMSYN070AAXX  18121 37553 42798 63101 20106 39540 40152 58007 83231 555 11028;
0181375530999992000092106004+41920+045380FM-12+054399999V0209999C000019999999N0200001N1+02041+01441101431ADDAA199000091GF108991999001999999031001KA1999N+01461MD1710141+9999REMSYN070AAXX  21061 37553 32998 80000 10204 20144 40143 57014 80030 333 20146;EQDQ01+000002SCOTLCQ02  00002PRCP99
0112375530999992000092109004+41920+045380FM-12+054399999V0209999C000012200019N0200001N1+02431+01611101171ADDGF103991011051012501031001MD1710171+9999REMSYN060AAXX  21091 37553 42698 30000 10243 20161 40117 57017 81530;
0175375530999992000092206004+41920+045380FM-12+054399999V0203001N003012200019N0500001N1+02111+01361101311ADDAA199000091GA1001+999999999GF100991001001999999001001KA1999N+01381MD1710031+9999REMSYN064AAXX  22061 37553 32999 03003 10211 20136 40131 57003 333 20138;EQDQ01  00002PRCP99
0143375530999992000092212004+41920+045380FM-12+054399999V0203101N002012200019N0500001N1+02751+01101101001ADDGF101991011021017501001001MA1999999095031MD1710081+9999REMSYN076AAXX  22121 37553 42799 13102 10275 20110 39503 40100 57008 81200 555 10045;
0175375530999992000092306004+41920+045380FM-12+054399999V0203001N001012200019N0500001N1+02121+01181101391ADDAA199000091GA1001+999999999GF100991001001999999001001KA1999N+01571MD1210081+9999REMSYN064AAXX  23061 37553 32999 03001 10212 20118 40139 52008 333 20157;EQDQ01  00002PRCP99
0122375530999992000092309004+41920+045380FM-12+054399999V0200501N003012200019N0500001N1+02531+01361101401ADDGA1001+999999999GF100991001001999999001001MD1210061+9999REMSYN054AAXX  23091 37553 42999 00503 10253 20136 40140 52006;
0153375530999992000092312004+41920+045380FM-12+054399999V0200901N001012200019N0500001N1+02541+01351101251ADDGA1001+999999999GF100991001001999999001001MA1999999095231MD1810131+9999REMSYN070AAXX  23121 37553 42999 00901 10254 20135 39523 40125 58013 555 10042;
0180375530999992000092406004+41920+045380FM-12+054399999V0209999C000019999999N0200001N1+01721+01721101971ADDAA100000791AY181061AY221061GF108991081001012501999999KA1999N+01651MD1210131+9999MW1021REMSYN082AAXX  24061 37553 11698 80000 10172 20172 40197 52013 69900 70282 880// 333 20165;
0112375530999992000092409004+41920+045380FM-12+054399999V0200901N002010120019N0200001N1+01741+01651101951ADDGF108991081031012501999999MD1210071+9999REMSYN060AAXX  24091 37553 42698 80902 10174 20165 40195 52007 883//;
0152375530999992000092506004+41920+045380FM-12+054399999V0200901N002010120019N0200001N1+01441+01381102161ADDAA100007191GF108991081051012501999999KA1999N+01441MD1210051+9999REMSYN076AAXX  25061 37553 /2698 80902 10144 20138 40216 52005 60070 885// 333 20144;
0143375530999992000092512004+41920+045380FM-12+054399999V0200901N001010120019N0200001N1+01871+01601101991ADDGF108991081051012501999999MA1999999095801MD1710041+9999REMSYN076AAXX  25121 37553 42698 80901 10187 20160 39580 40199 57004 885// 555 11025;
0136375530999992000092806004+41920+045380FM-12+054399999V0202001N001019999999N0200001N1+01371+01271101741ADDAA199000091GF107991999999017501999999MD1210131+9999REMSYN054AAXX  28061 37553 31798 72001 10137 20127 40174 52013;EQDQ01  00002PRCP99
0112375530999992000092809004+41920+045380FM-12+054399999V0209999C000010120019N0200001N1+01481+01301101861ADDGF108991081051012501999999MD1210141+9999REMSYN060AAXX  28091 37553 42698 80000 10148 20130 40186 52014 885//;
0140375530999992000092909004+41920+045380FM-12+054399999V0200901N002010075019N0040001N1+01181+01121102221ADDAY161031AY261031GF108991081001008001021011MD1810081+9999MW1611REMSYN066AAXX  29091 37553 41596 80902 10118 20112 40222 58008 76166 88021;
0181375530999992000100306004+41920+045380FM-12+054399999V0209999C000012200019N0200001N1+01401+01151102531ADDAA199000091GF102991999001999999031001KA1999N+00971MD1810031+9999REMSYN070AAXX  03061 37553 32998 20000 10140 20115 40253 58003 80030 333 20097;EQDQ01+000002SCOTLCQ02  00002PRCP99
0131375530999992000100309004+41920+045380FM-12+054399999V0209999C000012200019N0200001N1+01551+01181102501ADDGF102991999001999999031001MD1710021+9999REMSYN060AAXX  03091 37553 42998 20000 10155 20118 40250 57002 80030;EQDQ01+000002SCOTLC
0165375530999992000100406004+41920+045380FM-12+054399999V0209999C000010150019N0200001N1+01381+01211102541ADDAA199000091GF108991051051017501051999KA1999N+00941MD1210071+9999REMSYN070AAXX  04061 37553 32798 80000 10138 20121 40254 52007 8555/ 333 20094;EQDQ01  00002PRCP99
0112375530999992000100409004+41920+045380FM-12+054399999V0200901N001010360019N0200001N1+01541+01211102511ADDGF107991021051017501031001MD1210011+9999REMSYN060AAXX  04091 37553 42798 70901 10154 20121 40251 52001 82530;
0143375530999992000100412004+41920+045380FM-12+054399999V0200901N003012200019N0500001N1+01801+00931102401ADDGF102991011021017501031001MA1999999096151MD1810061+9999REMSYN076AAXX  04121 37553 42799 20903 10180 20093 39615 40240 58006 81230 555 11025;
0180375530999992000100503004+41920+045380FM-12+054399999V0209999C000010120019N0100001N1+01091+01021102661ADDAA100000591AY121031AY221031GF108991081061012501999999KA1999N+01061MD1810071+9999MW1101REMSYN082AAXX  05031 37553 11697 80000 10109 20102 40266 58007 69960 71022 886// 333 20106;
0140375530999992000100509004+41920+045380FM-12+054399999V0209999C000010120019N0200001N1+01351+01111102471ADDAY111031AY201031GF107991071051012501001001MD1710111+9999MW1011REMSYN066AAXX  05091 37553 41698 70000 10135 20111 40247 57011 70110 87500;
0143375530999992000100512004+41920+045380FM-12+054399999V0209999C000010360019N0200001N1+01571+01021102221ADDGF107991031021008001031011MA1999999095941MD1710191+9999REMSYN076AAXX  05121 37553 42598 70000 10157 20102 39594 40222 57019 83231 555 11022;
0164375530999992000100603004+41920+045380FM-12+054399999V0209999C000010120019N0200001N1+01251+01181102431ADDAA199000091GF107991071051012501001001MD1410001+9999REMSYN082AAXX  06031 37553 32698 70000 10125 20118 40243 54000 87500 555 20125 50140 7000/;EQDQ01  00002PRCP99
0112375530999992000100609004+41920+045380FM-12+054399999V0201201N002010210019N0200001N1+01361+01251102531ADDGF108991081051022501999999MD1210081+9999REMSYN060AAXX  06091 37553 42898 81202 10136 20125 40253 52008 885//;
0164375530999992000100703004+41920+045380FM-12+054399999V0209999C000010150019N0200001N1+01101+00981102561ADDAA199000091GF107991071051017501001001MD1710031+9999REMSYN082AAXX  07031 37553 32798 70000 10110 20098 40256 57003 87500 555 20108 50138 7000/;EQDQ01  00002PRCP99
0165375530999992000100706004+41920+045380FM-12+054399999V0209999C000010150019N0200001N1+01271+01141102441ADDAA199000091GF107991071051017501999999KA1999N+01081MD1710071+9999REMSYN070AAXX  07061 37553 32798 70000 10127 20114 40244 57007 875// 333 20108;EQDQ01  00002PRCP99
0131375530999992000100709004+41920+045380FM-12+054399999V0209999C000019999999N0200001N1+01311+01181102511ADDGF106991999051017501999999MD1710021+9999REMSYN060AAXX  07091 37553 42798 60000 10131 20118 40251 57002 875//;EQDQ01+000072SCOTLC
0143375530999992000100909004+41920+045380FM-12+054399999V0209999C000012200019N0200001N1+01971+01281101351ADDGF102991021021017501001011MA1999999095181MD1710191+9999REMSYN076AAXX  09091 37553 42798 20000 10197 20128 39518 40135 57019 82201 555 11031;
0175375530999992000101006004+41920+045380FM-12+054399999V0209999C000012200019N0500001N1+01521+01211101471ADDAA199000091GA1001+999999999GF100991001001999999001001KA1999N+01101MD1810101+9999REMSYN064AAXX  10061 37553 32999 00000 10152 20121 40147 58010 333 20110;EQDQ01  00002PRCP99
0122375530999992000101009004+41920+045380FM-12+054399999V0209999C000012200019N0500001N1+01961+01261101351ADDGA1001+999999999GF100991001001999999001001MD1710071+9999REMSYN054AAXX  10091 37553 42999 00000 10196 20126 40135 57007;
0143375530999992000101012004+41920+045380FM-12+054399999V0209999C000012200019N0500001N1+02141+01361101181ADDGF102991001001999999001011MA1999999095091MD1710111+9999REMSYN076AAXX  10121 37553 42999 20000 10214 20136 39509 40118 57011 80001 555 11033;
0131375530999992000101109004+41920+045380FM-12+054399999V0202701N001019999999N0200001N1+01911+01551101441ADDGF106991999001999999031001MD1710071+9999REMSYN060AAXX  11091 37553 42998 62701 10191 20155 40144 57007 80030;EQDQ01+000002SCOTLC
0171375530999992000101206004+41920+045380FM-12+054399999V0203001N001019999999N0100001N1+01731+01281101621ADDAA100000591GF106991999001999999031011KA1999N+01061MD1210021+9999REMSYN076AAXX  12061 37553 12997 63001 10173 20128 40162 52002 69950 88031 333 20106;EQDQ01+000082SCOTLC
0140375530999992000101209004+41920+045380FM-12+054399999V0202801N001010360019N0500001N1+02111+01301101511ADDAY191031AY211031GF107991031081017501031011MD1810021+9999MW1171REMSYN066AAXX  12091 37553 42799 72801 10211 20130 40151 58002 71791 83831;
0171375530999992000101212004+41920+045380FM-12+054399999V0202901N002010360019N0200001N1+02171+01091101451ADDAY191061AY211061GF107991031031017501031011MA1999999095341MD1710051+9999MW1171REMSYN082AAXX  12121 37553 41798 72902 10217 20109 39534 40145 57005 71791 83331 555 11027;
0164375530999992000101303004+41920+045380FM-12+054399999V0200901N001010075019N0200001N1+01251+01181102141ADDAA199000091GF108991081051008001999999MD1210031+9999REMSYN082AAXX  13031 37553 32598 80901 10125 20118 40214 52003 885// 555 20125 50166 7000/;EQDQ01  00002PRCP99
0143375530999992000101306004+41920+045380FM-12+054399999V0200701N004019999999N0020001N1+01261+01191999999ADDAA199000091GF108991999999008001999999REMSYN075AAXX  13061 37553 31595 80704 10126 20119 4018 52009 76166 8802/ 333 20125;EQDQ01  00002PRCP99
0140375530999992000101309004+41920+045380FM-12+054399999V0200901N001010075019N0100001N1+01321+01251102011ADDAY161031AY261031GF108991081001008001021999MD1810141+9999MW1611REMSYN066AAXX  13091 37553 41597 80901 10132 20125 40201 58014 76166 8802/;
0171375530999992000101312004+41920+045380FM-12+054399999V0200901N001010120019N0100001N1+01361+01301102031ADDAY161061AY261061GF108991081001012501021999MA1999999095731MD1310031+9999MW1611REMSYN082AAXX  13121 37553 41697 80901 10136 20130 39573 40203 53003 76166 8802/ 555 11015;
0179375530999992000101403004+41920+045380FM-12+054399999V0201201N005010075019N0040001N1+00901+00861102361ADDAA112004091AY161031AY261031GF108991081001008001021999MD1210031+9999MW1611REMSYN094AAXX  14031 37553 /1596 81205 10090 20086 40236 52003 76166 8802/ 555 20090 50115 60042 7005/;
0172375530999992000101406004+41920+045380FM-12+054399999V0201101N004019999999N0200001N1+00881+00771102631ADDAA100004191AW1611AZ161061GF108991081001999999021999KA1999N+00901MD1210241+9999REMSYN082AAXX  14061 37553 16998 81104 10088 20077 40263 52024 60040 76161 8802/ 333 20090;
0135375530999992000101506004+41920+045380FM-12+054399999V0209999C000010120019N0200001N1+00821+00741103031ADDGF108991081051012501999999KA1999N+00741MD1210091+9999REMSYN070AAXX  15061 37553 12698 80000 10082 20074 40303 52009 885// 333 20074;
0165375530999992000101606004+41920+045380FM-12+054399999V0200301N001012200019N0200001N1+01021+00851102531ADDAA199000091GF102991021021017501031011KA1999N+00771MD1710041+9999REMSYN070AAXX  16061 37553 32798 20301 10102 20085 40253 57004 82231 333 20077;EQDQ01  00002PRCP99
0112375530999992000101609004+41920+045380FM-12+054399999V0201001N001012200019N0200001N1+01431+00711102201ADDGF101991011021017501001001MD1710231+9999REMSYN060AAXX  16091 37553 42798 11001 10143 20071 40220 57023 81200;
0153375530999992000101612004+41920+045380FM-12+054399999V0200901N001012200019N0200001N1+01531+00861101951ADDGA1001+999999999GF100991001001999999001001MA1999999095671MD1710211+9999REMSYN070AAXX  16121 37553 42998 00901 10153 20086 39567 40195 57021 555 11025;
0143375530999992000101712004+41920+045380FM-12+054399999V0201101N002012200019N0500001N1+01721+00941101521ADDGF102991021021017501031001MA1999999095341MD1710161+9999REMSYN076AAXX  17121 37553 42799 21102 10172 20094 39534 40152 57016 82230 555 11025;
0174375530999992000101803004+41920+045380FM-12+054399999V0209999C000010120019N0200001N1+01021+00841101981ADDAA199000021AY161031AY261031GF108991081051012501999999KA1999N+00741MD1210051+9999MW1621REMSYN076AAXX  18031 37553 31698 80000 10102 20084 40198 52005 76266 885// 333 20074;
0112375530999992000101809004+41920+045380FM-12+054399999V0209999C000010120019N0200001N1+01181+00681101871ADDGF107991071031012501001001MD1810071+9999REMSYN060AAXX  18091 37553 42698 70000 10118 20068 40187 58007 87300;
0171375530999992000101812004+41920+045380FM-12+054399999V0209999C000010120019N0200001N1+01111+00881101601ADDAY161061AY261061GF108991081051012501999999MA1999999095261MD1710251+9999MW1031REMSYN082AAXX  18121 37553 41698 80000 10111 20088 39526 40160 57025 70366 885// 555 11013;
0152375530999992000101906004+41920+045380FM-12+054399999V0202701N002010120019N0200001N1+00891+00561101091ADDAA100002091GF108991081051012501999999KA1999N+00701MD1210021+9999REMSYN076AAXX  19061 37553 32698 82702 10089 20056 40109 52002 60020 885// 333 20070;
0131375530999992000101909004+41920+045380FM-12+054399999V0202701N001010360019N0200001N1+00931+00571102072ADDGF106991041051012501031001MD1210011+9999REMSYN060AAXX  19091 37553 42698 62701 10093 20057 40207 52001 84530;EQDQ01+102073APOSLP
0152375530999992000102006004+41920+045380FM-12+054399999V0203201N001012200019N0500001N1+00911+00581102541ADDAA100005191GF101991011021017501031001KA1999N+00441MD1810021+9999REMSYN076AAXX  20061 37553 12799 13201 10091 20058 40254 58002 60050 81230 333 20044;
0112375530999992000102009004+41920+045380FM-12+054399999V0201001N003012200019N0200001N1+01271+00591102381ADDGF102991021021012501031001MD1710061+9999REMSYN060AAXX  20091 37553 42698 21003 10127 20059 40238 57006 82230;
0143375530999992000102012004+41920+045380FM-12+054399999V0201001N003010150019N0200001N1+01051+00741102391ADDGF107991071051017501001001MA1999999095991MD1710031+9999REMSYN076AAXX  20121 37553 42798 71003 10105 20074 39599 40239 57003 87500 555 11013;
0180375530999992000102206004+41920+045380FM-12+054399999V0209999C000010120019N0200001N1+00801+00711102801ADDAA100004191AY161061AY261061GF108991081001012501021999KA1999N+00701MD1310021+9999MW1611REMSYN082AAXX  22061 37553 11698 80000 10080 20071 40280 53002 60040 76166 8802/ 333 20070;
0112375530999992000102209004+41920+045380FM-12+054399999V0209999C000010120019N0200001N1+00921+00841102751ADDGF108991081051012501999999MD1710021+9999REMSYN060AAXX  22091 37553 42698 80000 10092 20084 40275 57002 885//;
0140375530999992000102309004+41920+045380FM-12+054399999V0209999C000010075019N0040001N1+00921+00881102211ADDAY151031AY251031GF108991081001008001021999MD1710011+9999MW1511REMSYN066AAXX  23091 37553 41596 80000 10092 20088 40221 57001 75155 8802/;
0180375530999992000102406004+41920+045380FM-12+054399999V0200901N003010075019N0010001N1+00961+00921102301ADDAA100004191AY161061AY261061GF108991081001008001021999KA1999N+00661MD1310021+9999MW1611REMSYN082AAXX  24061 37553 11594 80903 10096 20092 40230 53002 60040 76166 8802/ 333 20066;
0140375530999992000102409004+41920+045380FM-12+054399999V0200901N002010120019N0200001N1+01041+00981102311ADDAY161031AY221031GF108991081051012501999999MD1210021+9999MW1021REMSYN066AAXX  24091 37553 41698 80902 10104 20098 40231 52002 70262 885//;
0143375530999992000102412004+41920+045380FM-12+054399999V0200801N001010120019N0200001N1+01081+01021102161ADDGF107991071051012501001001MA1999999095771MD1810131+9999REMSYN076AAXX  24121 37553 42698 70801 10108 20102 39577 40216 58013 87500 555 11015;
0140375530999992000102509004+41920+045380FM-12+054399999V0209999C000010075019N0040001N1+00981+00931102101ADDAY161031AY261031GF108991081001008001021999MD1810161+9999MW1611REMSYN066AAXX  25091 37553 41596 80000 10098 20093 40210 58016 76166 8802/;
0151375530999992000102603004+41920+045380FM-12+054399999V0209999C000010120019N0200001N1+00921+00881102081ADDAA112001091GF107991071051012501001001MD1210041+9999REMSYN088AAXX  26031 37553 /2698 70000 10092 20088 40208 52004 87500 555 20192 57096 60012 7008/;
0171375530999992000102606004+41920+045380FM-12+054399999V0209999C000010120019N0200001N1+01081+01021102121ADDAA100001091GF107991071051012501001001KA1999N+99999MD1210081+9999REMSYN076AAXX  26061 37553 12698 70000 10108 20102 40212 52008 60010 87500 333 20192;EQDQ01 +01922ATMN  
0112375530999992000102609004+41920+045380FM-12+054399999V0203201N001010360019N0200001N1+01441+00981101951ADDGF106991031051012501031011MD1810091+9999REMSYN060AAXX  26091 37553 42698 63201 10144 20098 40195 58009 83531;
0143375530999992000102612004+41920+045380FM-12+054399999V0202101N001010360019N0200001N1+01621+00811101841ADDGF106991021051017501031011MA1999999095581MD1710071+9999REMSYN076AAXX  26121 37553 42798 62101 10162 20081 39558 40184 57007 82531 555 11019;
0112375530999992000102809004+41920+045380FM-12+054399999V0209999C000012200019N0200001N1+01591+00841102041ADDGF102991021021017501001001MD1710021+9999REMSYN060AAXX  28091 37553 42798 20000 10159 20084 40204 57002 82200;
0143375530999992000102812004+41920+045380FM-12+054399999V0200801N001012200019N0200001N1+01731+00751101801ADDGF102991021021017501001001MA1999999095571MD1710191+9999REMSYN076AAXX  28121 37553 42798 20801 10173 20075 39557 40180 57019 82200 555 11023;
0165375530999992000103006004+41920+045380FM-12+054399999V0209999C000010360019N0200001N1+01201+00741102761ADDAA199000091GF107991031051017501031011KA1999N+00751MD1210021+9999REMSYN070AAXX  30061 37553 32798 70000 10120 20074 40276 52002 83531 333 20075;EQDQ01  00002PRCP99
0112375530999992000103009004+41920+045380FM-12+054399999V0209999C000019999999N0200001N1+01441+01001102701ADDGF106991001001999999031011MD1410001+9999REMSYN060AAXX  30091 37553 42998 60000 10144 20100 40270 54000 80031;
0143375530999992000103012004+41920+045380FM-12+054399999V0200901N002010360019N0200001N1+01461+01101102641ADDGF106991041051017501031011MA1999999096311MD1310051+9999REMSYN076AAXX  30121 37553 42798 60902 10146 20110 39631 40264 53005 84531 555 10017;
0181375530999992000103106004+41920+045380FM-12+054399999V0209999C000019999999N0200001N1+01281+00931102331ADDAA199000091GF106991999001999999031001KA1999N+00801MD1710031+9999REMSYN070AAXX  31061 37553 32998 60000 10128 20093 40233 57003 80030 333 20080;EQDQ01+000002SCOTLCQ02  00002PRCP99
0131375530999992000103109004+41920+045380FM-12+054399999V0209999C000019999999N0200001N1+01351+00991102551ADDGF106991999001999999031001MD1710071+9999REMSYN060AAXX  31091 37553 42998 60000 10135 20099 40255 57007 80030;EQDQ01+000002SCOTLC
0179375530999992000110106004+41920+045380FM-12+054399999V0200801N001010150019N0040001N1+01161+01091102591ADDAA100000191AY161061AY261061GF108991081001017501021999KA1999N+00711MD1210091+9999MW1611REMSYN081AAXX  01061 37553 3279680801 10116 20109 40259 52009 69920 76166 8802/ 333 20071;
0143375530999992000110112004+41920+045380FM-12+054399999V0209999C000019999999N0200001N1+01401+01251102391ADDGF107991031051999999031011MA1999999096071MD1710071+9999REMSYN076AAXX  01121 37553 42998 70000 10140 20125 39607 40239 57007 83531 555 11017;
0180375530999992000110203004+41920+045380FM-12+054399999V0209999C000010150019N0200001N1+01031+00971102481ADDAA199000091GF107991999051017501001001MD1210061+9999REMSYN082AAXX  02031 37553 32798 70000 10103 20097 40248 52006 85500 555 20103 50121 7006/;EQDQ01+000052SCOTLCQ02  00002PRCP99
0209375530999992000110206004+41920+045380FM-12+054399999V0200901N003010075019N0020001N1+01081+01021102471ADDAA199000021AY161061AY261061GF108991081001008001021999KA1999N+01031MD1710011+9999MW1611REMSYN076AAXX  02061 37553 31595 80903 10108 20102 40247 56000 76166 8802/ 333 20103;EQDQ01+000062APCTENQ02+000002APC3  
0140375530999992000110209004+41920+045380FM-12+054399999V0200801N002010075019N0040001N1+01011+00931102301ADDAY161031AY261031GF108991081001008001021999MD1810171+9999MW1611REMSYN066AAXX  02091 37553 41596 80802 10101 20093 40230 58017 76166 8802/;
0171375530999992000110212004+41920+045380FM-12+054399999V0200901N003010075019N0020001N1+00921+00861102301ADDAY161061AY261061GF108991081001008001021999MA1999999095631MD1710061+9999MW1611REMSYN082AAXX  02121 37553 41595 80903 10092 20086 39563 40230 57006 76166 8802/ 555 11011;
0174375530999992000110303004+41920+045380FM-12+054399999V0209999C000012200019N0200001N1+00601+00561102381ADDAA199000091GA1001+999999999GF100991001001999999001001MD1210011+9999REMSYN076AAXX  03031 37553 32998 00000 10060 20056 40238 52001 555 20059 50084 7990/;EQDQ01  00002PRCP99
0175375530999992000110306004+41920+045380FM-12+054399999V0202701N001012200019N0200001N1+01081+00641102241ADDAA199000091GA1001+999999999GF100991001001999999001001KA1999N+00591MD1710031+9999REMSYN064AAXX  03061 37553 32998 02701 10108 20064 40224 57003 333 20059;EQDQ01  00002PRCP99
0143375530999992000110312004+41920+045380FM-12+054399999V0201101N001012200019N0200001N1+01601+00851101531ADDGF101991001001999999001011MA1999999099701MD1710041+9999REMSYN076AAXX  03121 37553 42998 11101 10160 20085 39970 40153 57004 80001 555 10010;
0118375530999992000110609004+41920+045380FM-12+054399999V0200801N001010900019N0200001N1+01391+01001102241ADDGF105991021021017501031011MD1710111+9999REMSYN066AAXX  06091 37553 42798 50801 10139 20100 40224 57011 82231 82231;
0143375530999992000110612004+41920+045380FM-12+054399999V0201001N002012200019N0200001N1+01491+00971102071ADDGF102991021021017501001001MA1999999095771MD1710141+9999REMSYN076AAXX  06121 37553 42798 21002 10149 20097 39577 40207 57014 82200 555 11019;
0193375530999992000110706004+41920+045380FM-12+054399999V0201101N002010120019N0040001N1+00841+00761102511ADDAA199000091AY161061AY261061GF108991081051012501999999KA1999N+00721MD1810121+9999MW1031REMSYN076AAXX  07061 37553 31696 81102 10084 20076 40251 58012 70366 885// 333 20072;EQDQ01  00002PRCP99
0112375530999992000110709004+41920+045380FM-12+054399999V0200901N003010150019N0200001N1+00901+00811102371ADDGF108991081051017501999999MD1710121+9999REMSYN060AAXX  07091 37553 42798 80903 10090 20081 40237 57012 885//;
0143375530999992000110712004+41920+045380FM-12+054399999V0200901N002010075019N0200001N1+00961+00711102361ADDGF108991081051008001999999MA1999999085931MD1410001+9999REMSYN076AAXX  07121 37553 42598 80902 10096 20071 38593 40236 54000 885// 555 11012;
0143375530999992000110912004+41920+045380FM-12+054399999V0201001N004010120019N0200001N1+00601+00341102901ADDGF107991071051012501001001MA1999999096351MD1310071+9999REMSYN076AAXX  09121 37553 42698 71004 10060 20034 39635 40290 53007 87500 555 11010;
