0189407850999992000010118004+33980+051450FM-12+0982OIFK V0209999C000012200019N0100001N1+00681-00191102121ADDAA106000091GA1001+999999999GF100991001001999999001001MA1999999090791MD1010061+9999REMSYN076AAXX  01181 40785 32960 00000 10068 21019 39079 40212 50006 91746 333 55088;EQDQ01  00002PRCP06
0195407850999992000010212004+33980+051450FM-12+0982OIFK V0209999C000012200019N0150001N1+01781-00201101781ADDAA106000091GA1021+060009019GF102991001001999999001011MA1999999090551MD1710191+9999REMSYN082AAXX  02121 40785 32965 20000 10178 21020 39055 40178 57019 80001 91150 333 82070;EQDQ01  00002PRCP06
0189407850999992000010218004+33980+051450FM-12+0982OIFK V0209999C000012200019N0150001N1+00561-00331101981ADDAA106000091GA1001+999999999GF100991001001999999001001MA1999999090631MD1110041+9999REMSYN076AAXX  02181 40785 32965 00000 10056 21033 39063 40198 51004 91750 333 55087;EQDQ01  00002PRCP06
0183407850999992000010300004+33980+051450FM-12+0982OIFK V0209999C000012200019N0150001N1+00381-00531101841ADDAA106000091GA1001+999999999GF100991001001999999001001MA1999999090631MD1410001+9999REMSYN070AAXX  03001 40785 32965 00000 10038 21053 39063 40184 54000 92350 333;EQDQ01  00002PRCP06
0165407850999992000010309004+33980+051450FM-12+0982OIFK V0209999C000012200019N0100001N1+01461-00421101791ADDGA1031+060009019GF103991001001999999001011MA1999999090551MD1810171+9999REMSYN082AAXX  03091 40785 42960 30000 10146 21042 39055 40179 58017 80001 90850 333 83070;
0189407850999992000010318004+33980+051450FM-12+0982OIFK V0202101N003012200019N0150001N1+00761-00421101661ADDAA106000091GA1001+999999999GF100991001001999999001001MA1999999090361MD1410001+9999REMSYN076AAXX  03181 40785 32965 02103 10076 21042 39036 40166 54000 91750 333 55086;EQDQ01  00002PRCP06
0153407850999992000010321004+33980+051450FM-12+0982OIFK V0203101N003012200019N0100001N1+00821-00561101571ADDGA1001+999999999GF100991001001999999001001MA1999999090421MD1310061+9999REMSYN070AAXX  03211 40785 42960 03103 10082 21056 39042 40157 53006 92050 333;
0169407850999992000010400004+33980+051450FM-12+0982OIFK V0209999C000012200019N0100001N1+00641+00351101511ADDAA106000091GF103991001001999999001011MA1999999090401MD1610021+9999REMSYN072AAXX  04001 40785 32960 30000 10064 20035 39040 40151 56002 80001 83070;EQDQ01  00002PRCP06
0213407850999992000010406004+33980+051450FM-12+0982OIFK V0209999C00001220001CN0100001N1+00821-00311101781ADDAA106000091GA1021+012009069GF105991021041012501001061MA1999999090491MD1310141+9999REMSYN100AAXX  04061 40785 32660 50000 10082 21031 39049 40178 53014 82406 90550 333 3000/ 70000 82640 85270;EQDQ01  00002PRCP06
0201407850999992000010412004+33980+051450FM-12+0982OIFK V0209999C00001036001CN0120001N1+01201-00261101561ADDAA106000091GA1031+012009069GF108991031041012501011999MA1999999090341MD1610121+9999REMSYN088AAXX  04121 40785 32662 80000 10120 21026 39034 40156 56012 8341/ 91152 333 83640 88460;EQDQ01  00002PRCP06
0190407850999992000010415004+33980+051450FM-12+0982OIFK V0209999C00001220001CN0120001N1+00921-00091101551ADDGA1031+012009069GF107991031041012501001011KA1120M+01301MA1999999090291MD1610051+9999REMSYN094AAXX  04151 40785 42662 70000 10092 21009 39029 40155 56005 83401 91450 333 10130 83640 87070;
0215407850999992000010418004+33980+051450FM-12+0982OIFK V0209999C000012200019N0120001N1+00801-00201101471ADDAA106000091GA1011+012009069GF104991011041012501001011GJ100729MA1999999090291MD1010001+9999REMSYN094AAXX  04181 40785 32662 40000 10080 21020 39029 40147 50000 81401 91752 333 55012 81640 84070;EQDQ01  00002PRCP06
0171407850999992000010421004+33980+051450FM-12+0982OIFK V0209999C000012200019N0120001N1+00901-00321101411ADDGA1011+012009069GF104991011041012501001011MA1999999090251MD1610041+9999REMSYN088AAXX  04211 40785 42662 40000 10090 21032 39025 40141 56004 81401 92050 333 81640 84070;
0213407850999992000010506004+33980+051450FM-12+0982OIFK V0209999C00001090001CN0120001N1+00841-00111101621ADDAA106000091GA1021+012009069GF107991021041012501001061MA1999999090361MD1310161+9999REMSYN100AAXX  05061 40785 32662 70000 10084 21011 39036 40162 53016 82406 90547 333 30003 70000 82640 87270;EQDQ01  00002PRCP06
0171407850999992000010509004+33980+051450FM-12+0982OIFK V0209999C00001090001CN0120001N1+01041-00261101541ADDGA1021+012009069GF107991021041012501001061MA1999999090331MD1810031+9999REMSYN088AAXX  05091 40785 42662 70000 10104 21026 39033 40154 58003 82406 90847 333 82640 87270;
0215407850999992000010518004+33980+051450FM-12+0982OIFK V0209999C00001220001CN0120001N1+00661-00071101611ADDAA106000091GA1011+012009069GF105991011041012501001011GJ100009MA1999999090321MD1110141+9999REMSYN094AAXX  05181 40785 32662 50000 10066 21007 39032 40161 51014 81401 91747 333 55000 81640 85070;EQDQ01  00002PRCP06
0171407850999992000010521004+33980+051450FM-12+0982OIFK V0209999C000012200019N0120001N1+00641-00261101521ADDGA1011+012009069GF104991011041012501001011MA1999999090281MD1810041+9999REMSYN088AAXX  05211 40785 42662 40000 10064 21026 39028 40152 58004 81401 92041 333 81640 84070;
0190407850999992000010603004+33980+051450FM-12+0982OIFK V0209999C00001220001CN0120001N1+00661-00121101521ADDGA1011+012009069GF106991011041012501001061KA1120N+00501MA1999999090241MD1110031+9999REMSYN094AAXX  06031 40785 42662 60000 10066 21012 39024 40152 51003 81406 90247 333 20050 81640 86270;
0213407850999992000010606004+33980+051450FM-12+0982OIFK V0209999C00001036001CN0100001N1+00821+00111101521ADDAA106000091GA1031+012009069GF108991031041012501021999MA1999999090241MD1010001+9999REMSYN100AAXX  06061 40785 32660 80000 10082 20011 39024 40152 50000 8342/ 90550 333 30002 70000 83640 88459;EQDQ01  00002PRCP06
0165407850999992000010609004+33980+051450FM-12+0982OIFK V0209999C000012200019N0120001N1+01301-00371101131ADDGA1041+030009079GF104991021041012501031001MA1999999089971MD1710271+9999REMSYN082AAXX  06091 40785 42662 40000 10130 21037 38997 40113 57027 82430 90850 333 84360;
0195407850999992000010612004+33980+051450FM-12+0982OIFK V0209999C000012200019N0120001N1+01541-00561100861ADDAA106000091GA1021+012009059GF102991021041012501001001MA1999999089771MD1710201+9999REMSYN082AAXX  06121 40785 32662 20000 10154 21056 38977 40086 57020 82400 91150 333 82640;EQDQ01  00002PRCP06
0184407850999992000010615004+33980+051450FM-12+0982OIFK V0209999C000012200019N0120001N1+01061-00351101071ADDGA1021+012009059GF102991021041012501001001KA1120M+01601MA1999999089881MD1310111+9999REMSYN088AAXX  06151 40785 42662 20000 10106 21035 38988 40107 53011 82400 91450 333 10160 82640;
0153407850999992000010621004+33980+051450FM-12+0982OIFK V0209999C000012200019N0150001N1+00501+00111101091ADDGA1001+999999999GF100991001001999999001001MA1999999089921MD1410001+9999REMSYN070AAXX  06211 40785 42965 00000 10050 20011 38992 40109 54000 92050 333;
0184407850999992000010703004+33980+051450FM-12+0982OIFK V0209999C000012200019N0120001N1+00621-00021101511ADDGA1031+030009079GF103991031001999999031001KA1120N+00341MA1999999090281MD1210221+9999REMSYN088AAXX  07031 40785 42962 30000 10062 21002 39028 40151 52022 83030 90250 333 20034 83360;
0165407850999992000010709004+33980+051450FM-12+0982OIFK V0209999C000012200019N0150001N1+01181-00281101661ADDGA1021+012009059GF102991021041012501001001MA1999999090391MD1810091+9999REMSYN082AAXX  07091 40785 42665 20000 10118 21028 39039 40166 58009 82400 90850 333 82640;
0195407850999992000010712004+33980+051450FM-12+0982OIFK V0209999C000012200019N0150001N1+01221-00481101621ADDAA106000091GA1021+012009059GF102991021041012501001001MA1999999090351MD1610041+9999REMSYN082AAXX  07121 40785 32665 20000 10122 21048 39035 40162 56004 82400 91150 333 82640;EQDQ01  00002PRCP06
0184407850999992000010715004+33980+051450FM-12+0982OIFK V0209999C000012200019N0150001N1+00941-01111101841ADDGA1011+012009059GF101991011041012501001001KA1120M+01251MA1999999090521MD1310171+9999REMSYN088AAXX  07151 40785 42665 10000 10094 21111 39052 40184 53017 81400 91450 333 10125 81640;
0189407850999992000010718004+33980+051450FM-12+0982OIFK V0209999C000012200019N0150001N1+00401-00841102091ADDAA106000091GA1001+999999999GF100991001001999999001001MA1999999090681MD1210161+9999REMSYN076AAXX  07181 40785 32965 00000 10040 21084 39068 40209 52016 91750 333 55075;EQDQ01  00002PRCP06
0153407850999992000010721004+33980+051450FM-12+0982OIFK V0209999C000012200019N0150001N1+00321-00731102071ADDGA1001+999999999GF100991001001999999001001MA1999999090721MD1210041+9999REMSYN070AAXX  07211 40785 42965 00000 10032 21073 39072 40207 52004 92050 333;
0183407850999992000010800004+33980+051450FM-12+0982OIFK V0209999C000012200019N0150001N1+00021-00751102241ADDAA106000091GA1001+999999999GF100991001001999999001001MA1999999090831MD1310111+9999REMSYN070AAXX  08001 40785 32965 00000 10002 21075 39083 40224 53011 92350 333;EQDQ01  00002PRCP06
0172407850999992000010803004+33980+051450FM-12+0982OIFK V0209999C000012200019N0150001N1-00061-00631102391ADDGA1001+999999999GF100991001001999999001001KA1999N-00101MA1999999090891MD1210061+9999REMSYN076AAXX  08031 40785 42965 00000 11006 21063 39089 40239 52006 90250 333 21010;
0153407850999992000010809004+33980+051450FM-12+0982OIFK V0200501N002012200019N0150001N1+01081-00891102331ADDGA1001+999999999GF100991001001999999001001MA1999999090971MD1810151+9999REMSYN070AAXX  08091 40785 42965 00502 10108 21089 39097 40233 58015 90550 333;
0172407850999992000010815004+33980+051450FM-12+0982OIFK V0209999C000012200019N0150001N1+00681-00621102481ADDGA1001+999999999GF100991001001999999001001KA1999M+01201MA1999999090991MD1310061+9999REMSYN076AAXX  08151 40785 42965 00000 10068 21062 39099 40248 53006 91450 333 10120;
0189407850999992000010818004+33980+051450FM-12+0982OIFK V0209999C000012200019N0150001N1+00341-00621102471ADDAA106000091GA1001+999999999GF100991001001999999001001MA1999999090991MD1210071+9999REMSYN076AAXX  08181 40785 32965 00000 10034 21062 39099 40247 52007 91750 333 55090;EQDQ01  00002PRCP06
0153407850999992000010821004+33980+051450FM-12+0982OIFK V0209999C000012200019N0150001N1+00081-00691102441ADDGA1001+999999999GF100991001001999999001001MA1999999090991MD1410001+9999REMSYN070AAXX  08211 40785 42965 00000 10008 21069 39099 40244 54000 92050 333;
0183407850999992000010900004+33980+051450FM-12+0982OIFK V0209999C000012200019N0150001N1+00001-00771102461ADDAA106000091GA1001+999999999GF100991001001999999001001MA1999999090961MD1610031+9999REMSYN070AAXX  09001 40785 32965 00000 10000 21077 39096 40246 56003 92350 333;EQDQ01  00002PRCP06
0172407850999992000010903004+33980+051450FM-12+0982OIFK V0209999C000012200019N0150001N1-00041-00771102521ADDGA1001+999999999GF100991001001999999001001KA1999N-00101MA1999999090961MD1410001+9999REMSYN076AAXX  09031 40785 42965 00000 11004 21077 39096 40252 54000 90250 333 21010;
0171407850999992000010909004+33980+051450FM-12+0982OIFK V0209999C00001036001CN0120001N1+00301-00661102511ADDGA1031+012009069GF107991031041012501011001MA1999999090901MD1810131+9999REMSYN088AAXX  09091 40785 42662 70000 10030 21066 39090 40251 58013 83410 90848 333 83640 87460;
0201407850999992000010912004+33980+051450FM-12+0982OIFK V0209999C00001036001CN0120001N1+00401-00671102371ADDAA106000091GA1031+012009069GF107991031041012501071001MA1999999090781MD1610121+9999REMSYN088AAXX  09121 40785 32662 70000 10040 21067 39078 40237 56012 83470 91146 333 83640 87360;EQDQ01  00002PRCP06
0190407850999992000010915004+33980+051450FM-12+0982OIFK V0209999C00001036001CN0120001N1+00401-00311102341ADDGA1021+012009069GF105991021041012501051001KA1120M+00501MA1999999090751MD1610031+9999REMSYN094AAXX  09151 40785 42662 50000 10040 21031 39075 40234 56003 82450 91447 333 10050 82640 85360;
0209407850999992000010918004+33980+051450FM-12+0982OIFK V0209999C000012200019N0120001N1+00281-00251102281ADDAA106000091GA1031+030009079GF103991031001999999031001GJ100129MA1999999090711MD1810041+9999REMSYN088AAXX  09181 40785 32962 30000 10028 21025 39071 40228 58004 83030 91748 333 55002 83360;EQDQ01  00002PRCP06
0165407850999992000010921004+33980+051450FM-12+0982OIFK V0209999C000012200019N0120001N1+00141-00241102261ADDGA1041+030009079GF104991041001999999031001MA1999999090711MD1410001+9999REMSYN082AAXX  09211 40785 42962 40000 10014 21024 39071 40226 54000 84030 92040 333 84360;
0195407850999992000011000004+33980+051450FM-12+0982OIFK V0209999C000012200019N0120001N1+00301-00291102141ADDAA106000091GA1041+030009079GF104991041001999999031001MA1999999090621MD1810091+9999REMSYN082AAXX  10001 40785 32962 40000 10030 21029 39062 40214 58009 84030 92345 333 84360;EQDQ01  00002PRCP06
0190407850999992000011003004+33980+051450FM-12+0982OIFK V0209999C00001036001CN0120001N1+00301-00291102151ADDGA1021+012009069GF106991021041012501031001KA1120N+00041MA1999999090641MD1110021+9999REMSYN094AAXX  10031 40785 42662 60000 10030 21029 39064 40215 51002 82430 90247 333 20004 82640 86360;
0213407850999992000011006004+33980+051450FM-12+0982OIFK V0209999C00001036001CN0120001N1+00421-00431102301ADDAA106000091GA1031+012009069GF107991031041012501071001MA1999999090781MD1210141+9999REMSYN100AAXX  10061 40785 32662 70000 10042 21043 39078 40230 52014 83470 90550 333 3010/ 70000 83640 87360;EQDQ01  00002PRCP06
0201407850999992000011012004+33980+051450FM-12+0982OIFK V0209999C000012200019N0120001N1+00861-00481101911ADDAA106000091GA1021+012009069GF104991021041012501031001MA1999999090511MD1710131+9999REMSYN088AAXX  10121 40785 32662 40000 10086 21048 39051 40191 57013 82430 91150 333 82640 84360;EQDQ01  00002PRCP06
0184407850999992000011015004+33980+051450FM-12+0982OIFK V0209999C000012200019N0120001N1+00621-00481101961ADDGA1031+030009079GF103991031001012501031001KA1120M+00901MA1999999090511MD1410001+9999REMSYN088AAXX  10151 40785 42662 30000 10062 21048 39051 40196 54000 83030 91450 333 10090 83360;
0201407850999992000011018004+33980+051450FM-12+0982OIFK V0209999C000012200019N0120001N1+00621-00481101931ADDAA106000091GA1031+030009079GF103991031001999999031001MA1999999090511MD1410001+9999REMSYN088AAXX  10181 40785 32962 30000 10062 21048 39051 40193 54000 83030 91750 333 5502/ 83360;EQDQ01  00002PRCP06
0184407850999992000011021004+33980+051450FM-12+0982OIFK V0209999C000010300019N0120001N1+00441-00251999999ADDGA1061+030009079GF106991031001999999031001MA1999999090511MD1410001+9999REMSYN082AAXX  10211 40785 42962 60000 10044 21025 39051 40131 54000 83030 92050 333 86360;EQDQ01+101313APOSLP
0183407850999992000011100004+33980+051450FM-12+0982OIFK V0202801N002012200019N0120001N1+00161-00581102051ADDAA106000091GA1001+999999999GF100991001001999999001001MA1999999090611MD1110101+9999REMSYN070AAXX  11001 40785 32962 02802 10016 21058 39061 40205 51010 92350 333;EQDQ01  00002PRCP06
0195407850999992000011106004+33980+051450FM-12+0982OIFK V0209999C000012200019N0120001N1+00381-00461102291ADDAA106000091GA1001+999999999GF100991001001999999001001MA1999999090821MD1210151+9999REMSYN082AAXX  11061 40785 32962 00000 10038 21046 39082 40229 52015 90550 333 30105 70000;EQDQ01  00002PRCP06
0153407850999992000011109004+33980+051450FM-12+0982OIFK V0209999C000012200019N0120001N1+00681-00531102111ADDGA1001+999999999GF100991001001999999001001MA1999999090681MD1810141+9999REMSYN070AAXX  11091 40785 42962 00000 10068 21053 39068 40211 58014 90850 333;
0183407850999992000011112004+33980+051450FM-12+0982OIFK V0209999C000012200019N0120001N1+00821-00561101981ADDAA106000091GA1001+999999999GF100991001001999999001001MA1999999090551MD1710131+9999REMSYN070AAXX  11121 40785 32962 00000 10082 21056 39055 40198 57013 91150 333;EQDQ01  00002PRCP06
0189407850999992000011118004+33980+051450FM-12+0982OIFK V0209999C000012200019N0120001N1+00121-00511102241ADDAA106000091GA1001+999999999GF100991001001999999001001MA1999999090681MD1110041+9999REMSYN076AAXX  11181 40785 32962 00000 10012 21051 39068 40224 51004 91750 333 55088;EQDQ01  00002PRCP06
0153407850999992000011121004+33980+051450FM-12+0982OIFK V0209999C000012200019N0120001N1-00041-00581102211ADDGA1001+999999999GF100991001001999999001001MA1999999090681MD1410001+9999REMSYN070AAXX  11211 40785 42962 00000 11004 21058 39068 40221 54000 92050 333;
0207407850999992000011206004+33980+051450FM-12+0982OIFK V0209999C000012200019N0120001N1+00021-00601102511ADDAA106000091GA1041+060009019GF104991001001999999001011MA1999999090841MD1210111+9999REMSYN094AAXX  12061 40785 32962 40000 10002 21060 39084 40251 52011 80001 90552 333 30105 70000 84070;EQDQ01  00002PRCP06
0171407850999992000011209004+33980+051450FM-12+0982OIFK V0203501N00201036001CN0100001N1+00161-01061102461ADDGA1031+012009069GF108991031041012501021999MA1999999090801MD1810041+9999REMSYN088AAXX  12091 40785 42660 83502 10016 21106 39080 40246 58004 8342/ 90852 333 83640 88457;
0201407850999992000011212004+33980+051450FM-12+0982OIFK V0209999C000019999999N0100001N1+00321-01121102391ADDAA106000091GA1041+012009069GF108991041041999999021999MA1999999090761MD1610041+9999REMSYN088AAXX  12121 40785 32960 80000 10032 21112 39076 40239 56004 8442/ 91152 333 84640 88459;EQDQ01  00002PRCP06
0190407850999992000011215004+33980+051450FM-12+0982OIFK V0209999C000012200019N0100001N1+00281-01051102471ADDGA1021+012009069GF104991021041012501031001KA1120M+00441MA1999999090801MD1110041+9999REMSYN094AAXX  12151 40785 42660 40000 10028 21105 39080 40247 51004 82430 91450 333 10044 82640 84360;
0215407850999992000011218004+33980+051450FM-12+0982OIFK V0209999C000012200019N0100001N1+00121-01081102651ADDAA106000091GA1021+012009069GF104991021041999999031001GJ100969MA1999999090981MD1210181+9999REMSYN094AAXX  12181 40785 32960 40000 10012 21108 39098 40265 52018 82430 91752 333 55016 82640 84360;EQDQ01  00002PRCP06
0171407850999992000011221004+33980+051450FM-12+0982OIFK V0209999C00001036001CN0100001N1-00061-00641102661ADDGA1031+012009069GF105991031041012501031001MA1999999090981MD1410001+9999REMSYN088AAXX  12211 40785 42660 50000 11006 21064 39098 40266 54000 83430 92050 333 83640 85360;
0172407850999992000011303004+33980+051450FM-12+0982OIFK V0209999C000012200019N0100001N1-00201-01011102731ADDGA1001+999999999GF100991001001999999001001KA1999N-00221MA1999999091031MD1310051+9999REMSYN076AAXX  13031 40785 42960 00000 11020 21101 39103 40273 53005 90253 333 21022;
0207407850999992000011306004+33980+051450FM-12+0982OIFK V0209999C000012200019N0100001N1+00181-00781102851ADDAA106000091GA1021+012009059GF102991021051012501001001MA1999999091181MD1210151+9999REMSYN094AAXX  13061 40785 32660 20000 10018 21078 39118 40285 52015 82500 90545 333 30107 70000 82640;EQDQ01  00002PRCP06
0153407850999992000011309004+33980+051450FM-12+0982OIFK V0209999C000012200019N0100001N1+00501-01161102641ADDGA1001+999999999GF100991001001999999001001MA1999999091011MD1810171+9999REMSYN070AAXX  13091 40785 42960 00000 10050 21116 39101 40264 58017 90846 333;
0183407850999992000011312004+33980+051450FM-12+0982OIFK V0209999C000012200019N0100001N1+00721-01421102401ADDAA106000091GA1001+999999999GF100991001001999999001001MA1999999090831MD1710181+9999REMSYN070AAXX  13121 40785 32960 00000 10072 21142 39083 40240 57018 91147 333;EQDQ01  00002PRCP06
0172407850999992000011315004+33980+051450FM-12+0982OIFK V0209999C000012200019N0100001N1+00401-01011102541ADDGA1001+999999999GF100991001001999999001001KA1999M+00801MA1999999090881MD1310051+9999REMSYN076AAXX  13151 40785 42960 00000 10040 21101 39088 40254 53005 91447 333 10080;
0189407850999992000011318004+33980+051450FM-12+0982OIFK V0209999C000012200019N0100001N1+00121-01341102621ADDAA106000091GA1001+999999999GF100991001001999999001001MA1999999090961MD1110081+9999REMSYN076AAXX  13181 40785 32960 00000 10012 21134 39096 40262 51008 91745 333 55090;EQDQ01  00002PRCP06
0187407850999992000011400004+33980+051450FM-12+098299999V0209999C000012200019N0100001N1-00201-01421102621ADDAA199000091GA1001+999999999GF100991001001999999001001MA1999999091011MD1410001+9999REMSYN074    AAXX  14001 40785 32960 00000 11020 21142 39101 40262 54000 92345 333;EQDQ01  00002PRCP99
0176407850999992000011403004+33980+051450FM-12+098299999V0209999C000012200019N0100001N1-00501-01101102791ADDGA1001+999999999GF100991001001999999001001KA1999N-00521MA1999999091031MD1310021+9999REMSYN080    AAXX  14031 40785 42960 00000 11050 21110 39103 40279 53002 90245 333 21052;
0199407850999992000011406004+33980+051450FM-12+098299999V0209999C000012200019N0100001N1+00061-00981102911ADDAA124000091GA1001+999999999GF100991001001999999001001MA1999999091211MD1210131+9999REMSYN086    AAXX  14061 40785 32960 00000 10006 21098 39121 40291 52013 90550 333 30110 70000;EQDQ01  00002PRCP24
0187407850999992000011412004+33980+051450FM-12+098299999V0209999C000012200019N0100001N1+00681-00771102571ADDAA199000091GA1001+999999999GF100991001001999999001001MA1999999090961MD1610101+9999REMSYN074    AAXX  14121 40785 32960 00000 10068 21077 39096 40257 56010 91150 333;EQDQ01  00002PRCP99
0176407850999992000011415004+33980+051450FM-12+098299999V0209999C000012200019N0100001N1+00341-00621102621ADDGA1001+999999999GF100991001001999999001001KA1999M+00751MA1999999090991MD1110031+9999REMSYN080    AAXX  14151 40785 42960 00000 10034 21062 39099 40262 51003 91450 333 10075;
0193407850999992000011418004+33980+051450FM-12+098299999V0209999C000012200019N0100001N1+00081-00811102861ADDAA199000091GA1001+999999999GF100991001001999999001001MA1999999091131MD1210141+9999REMSYN080    AAXX  14181 40785 32960 00000 10008 21081 39113 40286 52014 91750 333 55092;EQDQ01  00002PRCP99
0157407850999992000011421004+33980+051450FM-12+098299999V0209999C000012200019N0100001N1-00121-00931102791ADDGA1001+999999999GF100991001001999999001001MA1999999091131MD1410001+9999REMSYN074    AAXX  14211 40785 42960 00000 11012 21093 39113 40279 54000 92050 333;
0187407850999992000011500004+33980+051450FM-12+098299999V0209999C000012200019N0120001N1-00281-01051102671ADDAA199000091GA1001+999999999GF100991001001999999001001MA1999999091031MD1810101+9999REMSYN074    AAXX  15001 40785 32962 00000 11028 21105 39103 40267 58010 92350 333;EQDQ01  00002PRCP99
0176407850999992000011503004+33980+051450FM-12+098299999V0209999C000012200019N0100001N1-00421-00991102721ADDGA1001+999999999GF100991001001999999001001KA1999N-00441MA1999999090991MD1610041+9999REMSYN080    AAXX  15031 40785 42960 00000 11042 21099 39099 40272 56004 90250 333 21044;
0199407850999992000011506004+33980+051450FM-12+098299999V0209999C000012200019N0100001N1+99999+99999102901ADDAA124000091GA1041+060009019GF104991999999999999999999MA1999999091151MD1110161+9999REMSYN086    AAXX  15061 40785 32960 40000 21077 39115 40290 51016 90550 333 30109 70000 84070;EQDQ01  00002PRCP24
0188407850999992000011509004+33980+051450FM-12+098299999V0203201N002010600019N0100001N1+00401-00501102821ADDGA1061+060009089GF106991999001999999001061MA1999999090891MD1810261+9999REMSYN086    AAXX  15091 40785 42960 63202 10040 21050 39089 40282 58026 80006 90850 333 86270;EQDQ01+000002SCOTLC
0183407850999992000011512004+33980+051450FM-12+098299999V0203501N003019999999N0100001N1+00501-01161102301ADDAA199000091GF107991001001999999001061MA1999999090681MD1710221+9999REMSYN086    AAXX  15121 40785 32960 73503 10050 21116 39068 40230 57022 80006 91150 333 8727/;EQDQ01  00002PRCP99
0194407850999992000011515004+33980+051450FM-12+098299999V0209999C00001036001CN0100001N1+00381-00861102341ADDGA1021+012009069GF106991021051012501071001KA1120M+00661MA1999999090641MD1610031+9999REMSYN098    AAXX  15151 40785 42660 60000 10038 21086 39064 40234 56003 82570 91450 333 10066 82640 86160;
0219407850999992000011518004+33980+051450FM-12+098299999V0209999C00001036001CN0100001N1+00301-00841102281ADDAA199000091GA1041+012009069GF107991041041012501071001GJ103069MA1999999090641MD1410001+9999REMSYN098    AAXX  15181 40785 32660 70000 10030 21084 39064 40228 54000 84470 91750 333 55051 84640 87460;EQDQ01  00002PRCP99
0175407850999992000011521004+33980+051450FM-12+098299999V0209999C00001036001CN0100001N1+00281-00541102001ADDGA1031+012009069GF107991031041012501011001MA1999999090501MD1710141+9999REMSYN092    AAXX  15211 40785 42660 70000 10028 21054 39050 40200 57014 83410 92050 333 83640 87460;
0205407850999992000011600004+33980+051450FM-12+098299999V0209999C00001036001CN0100001N1+00081-00661101981ADDAA199000091GA1031+012009069GF106991031041012501011001MA1999999090501MD1410001+9999REMSYN092    AAXX  16001 40785 32660 60000 10008 21066 39050 40198 54000 83410 92350 333 83640 86460;EQDQ01  00002PRCP99
0217407850999992000011606004+33980+051450FM-12+098299999V0209999C00001036001CN0100001N1+00201-00101101941ADDAA124000091GA1041+012009069GF106991041041012501071001MA1999999090421MD1210121+9999REMSYN104    AAXX  16061 40785 32660 60000 10020 21010 39042 40194 52012 84470 90552 333 30109 70000 84640 86460;EQDQ01  00002PRCP24
0175407850999992000011609004+33980+051450FM-12+098299999V0203401N004012200019N0100001N1+00501-01161101711ADDGA1021+012009069GF104991021041012501031001MA1999999090281MD1810151+9999REMSYN092    AAXX  16091 40785 42660 43404 10050 21116 39028 40171 58015 82430 90850 333 82640 84360;
0199407850999992000011612004+33980+051450FM-12+098299999V0203301N002012200019N0100001N1+00661-01201101561ADDAA199000091GA1041+012009059GF104991041041012501001001MA1999999090121MD1610151+9999REMSYN086    AAXX  16121 40785 32660 43302 10066 21120 39012 40156 56015 84400 91150 333 84640;EQDQ01  00002PRCP99
0194407850999992000011615004+33980+051450FM-12+098299999V0209999C00001220001CN0100001N1+00421-01101101691ADDGA1031+012009069GF107991031041012501001011KA1120M+00701MA1999999090181MD1310061+9999REMSYN098    AAXX  16151 40785 42660 70000 10042 21110 39018 40169 53006 83401 91450 333 10070 83640 87070;
0219407850999992000011618004+33980+051450FM-12+098299999V0209999C000019999999N0100001N1+00081-00951101821ADDAA199000091GA1031+012009069GF105991031041999999031001GJ104629MA1999999090271MD1110091+9999REMSYN098    AAXX  16181 40785 32960 50000 10008 21095 39027 40182 51009 83430 91752 333 55077 83640 85360;EQDQ01  00002PRCP99
0175407850999992000011621004+33980+051450FM-12+098299999V0209999C00001036001CN0100001N1+00001-00941101781ADDGA1031+012009069GF107991031041012501071001MA1999999090271MD1410001+9999REMSYN092    AAXX  16211 40785 42660 70000 10000 21094 39027 40178 54000 83470 92050 333 83640 87460;
0205407850999992000011700004+33980+051450FM-12+098299999V0209999C00001036001CN0100001N1-00081-00981101751ADDAA199000091GA1031+012009069GF107991031041012501071001MA1999999090201MD1810071+9999REMSYN092    AAXX  17001 40785 32660 70000 11008 21098 39020 40175 58007 83470 92352 333 83640 87460;EQDQ01  00002PRCP99
0188407850999992000011703004+33980+051450FM-12+098299999V0209999C000012200019N0100001N1-00041-00661101731ADDGA1041+012009059GF104991041041012501001001KA1120N-00201MA1999999090201MD1410001+9999REMSYN092    AAXX  17031 40785 42660 40000 11004 21066 39020 40173 54000 84400 90252 333 21020 84640;
0217407850999992000011706004+33980+051450FM-12+098299999V0209999C00001036001CN0100001N1+00201-00391101891ADDAA124000091GA1031+012009069GF105991031041012501071001MA1999999090321MD1310121+9999REMSYN104    AAXX  17061 40785 32660 50000 10020 21039 39032 40189 53012 83470 90546 333 30110 70000 83640 85460;EQDQ01  00002PRCP24
0197407850999992000011709004+33980+051450FM-12+098299999V0209999C00001036001CN0100001N1+00341-00261101821ADDGA1011+010509099GA2031+012009069GF106991041031012501011001MA1999999090261MD1810061+9999REMSYN098    AAXX  17091 40785 42660 60000 10034 21026 39026 40182 58006 84310 90845 333 81935 83640 86460;
0205407850999992000011712004+33980+051450FM-12+098299999V0209999C00001036001CN0100001N1+00241-00271101751ADDAA199000091GA1031+012009069GF107991031041012501011001MA1999999090201MD1610061+9999REMSYN092    AAXX  17121 40785 32660 70000 10024 21027 39020 40175 56006 83410 91147 333 83640 87460;EQDQ01  00002PRCP99
0188407850999992000011715004+33980+051450FM-12+098299999V0209999C000012200019N0100001N1+00181-00471101781ADDGA1021+012009059GF102991021041012501001001KA1120M+00361MA1999999090201MD1410001+9999REMSYN092    AAXX  17151 40785 42660 20000 10018 21047 39020 40178 54000 82400 91446 333 10036 82640;
0193407850999992000011718004+33980+051450FM-12+098299999V0209999C000012200019N0100001N1-00081-00651101921ADDAA199000091GA1001+999999999GF100991001001999999001001MA1999999090301MD1110101+9999REMSYN080    AAXX  17181 40785 32960 00000 11008 21065 39030 40192 51010 91747 333 55005;EQDQ01  00002PRCP99
0187407850999992000011800004+33980+051450FM-12+098299999V0209999C000012200019N0100001N1-00461-00801101861ADDAA199000091GA1001+999999999GF100991001001999999001001MA1999999090341MD1410001+9999REMSYN074    AAXX  18001 40785 32960 00000 11046 21080 39034 40186 54000 92347 333;EQDQ01  00002PRCP99
0199407850999992000011806004+33980+051450FM-12+098299999V0209999C000012200019N0100001N1+00021-00661102321ADDAA124000091GA1001+999999999GF100991001001999999001001MA1999999090641MD1210221+9999REMSYN086    AAXX  18061 40785 32960 00000 10002 21066 39064 40232 52022 90550 333 30110 70000;EQDQ01  00002PRCP24
0157407850999992000011809004+33980+051450FM-12+098299999V0209999C000012200019N0100001N1+00501-00751102111ADDGA1001+999999999GF100991001001999999001001MA1999999090501MD1810141+9999REMSYN074    AAXX  18091 40785 42960 00000 10050 21075 39050 40211 58014 90850 333;
0187407850999992000011812004+33980+051450FM-12+098299999V0203601N002012200019N0100001N1+00741-00881101881ADDAA199000091GA1001+999999999GF100991001001999999001001MA1999999090361MD1710141+9999REMSYN074    AAXX  18121 40785 32960 03602 10074 21088 39036 40188 57014 91150 333;EQDQ01  00002PRCP99
0193407850999992000011818004+33980+051450FM-12+098299999V0209999C000012200019N0100001N1-00021-00791102211ADDAA199000091GA1001+999999999GF100991001001999999001001MA1999999090591MD1110061+9999REMSYN080    AAXX  18181 40785 32960 00000 11002 21079 39059 40221 51006 91750 333 55089;EQDQ01  00002PRCP99
0187407850999992000011900004+33980+051450FM-12+098299999V0209999C000012200019N0100001N1-00211-00921102191ADDAA199000091GA1001+999999999GF100991001001999999001001MA1999999090551MD1410001+9999REMSYN074    AAXX  19001 40785 32960 00000 11021 21092 39055 40219 54000 90000 333;EQDQ01  00002PRCP99
0176407850999992000011903004+33980+051450FM-12+098299999V0209999C000012200019N0100001N1-00301-00811101881ADDGA1001+999999999GF100991001001999999001001KA1999N-00301MA1999999090291MD1710211+9999REMSYN080    AAXX  19031 40785 42960 00000 11030 21081 39029 40188 57021 90250 333 21030;
0217407850999992000011906004+33980+051450FM-12+098299999V0209999C000012200019N0100001N1+00061-00541102081ADDAA124000091GA1031+030009039GF104991021001999999031011MA1999999090501MD1110161+9999REMSYN104    AAXX  19061 40785 32960 40000 10006 21054 3905/ 40208 51016 82031 90550 333 3010/ 70000 83360 84070;EQDQ01  00002PRCP24
0197407850999992000011909004+33980+051450FM-12+098299999V0203601N003010300019N0100001N1+00401-00841101701ADDGA1021+012009069GA2041+030009039GF106991021041012501031061MA1999999090151MD1710301+9999REMSYN098    AAXX  19091 40785 42660 63603 10040 21084 39015 40170 57030 82436 90850 333 82640 84360 86370;
0227407850999992000011912004+33980+051450FM-12+098299999V0209999C000010360019N0100001N1+00521-00731101671ADDAA199000091GA1031+012009039GA2011+999999099GF107991041031012501031071MA1999999090151MD1410001+9999REMSYN098    AAXX  19121 40785 32660 70000 10052 21073 39015 40167 54000 84337 91150 333 8193/ 83340 87270;EQDQ01  00002PRCP99
0162407850999992000011915004+33980+051450FM-12+0982OIFK V0209999C000012200019N0100001N1+00321-00571101741ADDGF101991011041012501001001KA1999M+00521MA1999999090121MD1810031+9999REMSYN082AAXX  19151 40785 42660 10000 10032 21057 39012 40174 58003 81400 91450 333 10052;
0183407850999992000012000004+33980+051450FM-12+0982OIFK V0209999C000012200019N0100001N1-00201-00751102011ADDAA199000091GA1001+999999999GF100991001001999999001001MA1999999090451MD1410001+9999REMSYN070AAXX  20001 40785 32960 00000 11020 21075 39045 40201 54000 92350 333;EQDQ01  00002PRCP99
0172407850999992000012003004+33980+051450FM-12+0982OIFK V0209999C000012200019N0100001N1-00181-00731101921ADDGA1001+999999999GF100991001001999999001001KA1999N-00301MA1999999090551MD1810101+9999REMSYN076AAXX  20031 40785 42960 00000 11018 21073 39055 40192 58010 90250 333 21030;
0195407850999992000012006004+33980+051450FM-12+0982OIFK V0209999C000012200019N0100001N1+00461-00421101981ADDAA124000091GA1001+999999999GF100991001001999999001001MA1999999090441MD1310091+9999REMSYN082AAXX  20061 40785 32960 00000 10046 21042 39044 40198 53009 90550 333 31007 70000;EQDQ01  00002PRCP24
0153407850999992000012009004+33980+051450FM-12+0982OIFK V0209999C000012200019N0100001N1+01021-00621101621ADDGA1001+999999999GF100991001001999999001001MA1999999090221MD1710221+9999REMSYN070AAXX  20091 40785 42960 00000 10102 21062 39022 40162 57022 90852 333;
0183407850999992000012012004+33980+051450FM-12+0982OIFK V0209999C000012200019N0120001N1+01261-00591101261ADDAA199000091GA1001+999999999GF100991001001999999001001MA1999999089911MD1710311+9999REMSYN070AAXX  20121 40785 32962 00000 10126 21059 38991 40126 57031 91150 333;EQDQ01  00002PRCP99
0178407850999992000012015004+33980+051450FM-12+0982OIFK V0209999C000012200019N0120001N1+00841-00471101341ADDGA1021+060009019GF102991999999999999999999KA1120M+01351MA1999999089911MD1410001+9999REMSYN082AAXX  20151 40785 42962 20000 10084 21047 38991 40134 54000 91452 333 10135 82070;
0183407850999992000012100004+33980+051450FM-12+0982OIFK V0209999C000012200019N0120001N1-00081-00651101121ADDAA199000091GA1001+999999999GF100991001001999999001001MA1999999089881MD1410001+9999REMSYN070AAXX  21001 40785 32962 00000 11008 21065 38988 40112 54000 92352 333;EQDQ01  00002PRCP99
0195407850999992000012106004+33980+051450FM-12+0982OIFK V0209999C000012200019N0120001N1+00401-00681101081ADDAA124000091GA1001+999999999GF100991001001999999001001MA1999999089741MD1110051+9999REMSYN082AAXX  21061 40785 32962 00000 10040 21068 38974 40108 51005 90550 333 30103 70000;EQDQ01  00002PRCP24
0195407850999992000012206004+33980+051450FM-12+0982OIFK V0209999C000012200019N0120001N1+00541-00471101641ADDAA124000091GA1001+999999999GF100991001001999999001001MA1999999090381MD1210151+9999REMSYN082AAXX  22061 40785 32962 00000 10054 21047 39038 40164 52015 90550 333 30103 70000;EQDQ01  00002PRCP24
0153407850999992000012209004+33980+051450FM-12+0982OIFK V0209999C000012200019N0120001N1+00781-00771101441ADDGA1001+999999999GF100991001001999999001001MA1999999090251MD1810131+9999REMSYN070AAXX  22091 40785 42962 00000 10078 21077 39025 40144 58013 90850 333;
0183407850999992000012212004+33980+051450FM-12+0982OIFK V0209999C000012200019N0120001N1+01061-00971101351ADDAA199000091GA1001+999999999GF100991001001999999001001MA1999999090111MD1610141+9999REMSYN070AAXX  22121 40785 32962 00000 10106 21097 39011 40135 56014 91150 333;EQDQ01  00002PRCP99
0172407850999992000012215004+33980+051450FM-12+0982OIFK V0209999C000012200019N0120001N1+00681-00951101651ADDGA1001+999999999GF100991001001999999001001KA1999M+01101MA1999999090211MD1210101+9999REMSYN076AAXX  22151 40785 42962 00000 10068 21095 39021 40165 52010 91450 333 10110;
0189407850999992000012218004+33980+051450FM-12+0982OIFK V0209999C000012200019N0120001N1+00401-00901101741ADDAA199000091GA1001+999999999GF100991001001999999001001MA1999999090311MD1210101+9999REMSYN076AAXX  22181 40785 32962 00000 10040 21090 39031 40174 52010 91750 333 55092;EQDQ01  00002PRCP99
0172407850999992000012303004+33980+051450FM-12+0982OIFK V0209999C000012200019N0120001N1-00121-01031102211ADDGA1001+999999999GF100991001001999999001001KA1999N-00161MA1999999090651MD1310041+9999REMSYN076AAXX  23031 40785 42962 00000 11012 21103 39065 40221 53004 90250 333 21016;
0195407850999992000012306004+33980+051450FM-12+0982OIFK V0209999C000012200019N0100001N1+00361-00871102291ADDAA124000091GA1001+999999999GF100991001001999999001001MA1999999090781MD1210131+9999REMSYN082AAXX  23061 40785 32960 00000 10036 21087 39078 40229 52013 90552 333 30107 70000;EQDQ01  00002PRCP24
0172407850999992000012315004+33980+051450FM-12+0982OIFK V0209999C000012200019N0120001N1+00761-00981102321ADDGA1001+999999999GF100991001001999999001001KA1999M+01141MA1999999090781MD1210161+9999REMSYN076AAXX  23151 40785 42962 00000 10076 21098 39078 40232 52016 91450 333 10114;
0189407850999992000012318004+33980+051450FM-12+0982OIFK V0209999C000012200019N0150001N1+00301-01131102391ADDAA199000091GA1001+999999999GF100991001001999999001001MA1999999090841MD1110061+9999REMSYN076AAXX  23181 40785 32965 00000 10030 21113 39084 40239 51006 91752 333 55092;EQDQ01  00002PRCP99
0153407850999992000012321004+33980+051450FM-12+0982OIFK V0209999C000012200019N0100001N1+00221-01011102301ADDGA1001+999999999GF100991001001999999001001MA1999999090841MD1410001+9999REMSYN070AAXX  23211 40785 42960 00000 10022 21101 39084 40230 54000 92050 333;
0172407850999992000012403004+33980+051450FM-12+0982OIFK V0209999C000012200019N0100001N1-00181-00811102591ADDGA1001+999999999GF100991001001999999001001KA1999N-00201MA1999999091001MD1310071+9999REMSYN076AAXX  24031 40785 42960 00000 11018 21081 39100 40259 53007 90252 333 21020;
0195407850999992000012406004+33980+051450FM-12+0982OIFK V0209999C000012200019N0120001N1+00521-01051102781ADDAA124000091GA1001+999999999GF100991001001999999001001MA1999999091221MD1210221+9999REMSYN082AAXX  24061 40785 32962 00000 10052 21105 39122 40278 52022 90550 333 30106 70000;EQDQ01  00002PRCP24
0183407850999992000012412004+33980+051450FM-12+0982OIFK V0209999C000012200019N0150001N1+01301-01131102431ADDAA199000091GA1001+999999999GF100991001001999999001001MA1999999091001MD1610101+9999REMSYN070AAXX  24121 40785 32965 00000 10130 21113 39100 40243 56010 91150 333;EQDQ01  00002PRCP99
0189407850999992000012418004+33980+051450FM-12+0982OIFK V0209999C000012200019N0150001N1+00481-01081102671ADDAA199000091GA1001+999999999GF100991001001999999001001MA1999999091151MD1110091+9999REMSYN076AAXX  24181 40785 32965 00000 10048 21108 39115 40267 51009 91750 333 55094;EQDQ01  00002PRCP99
0183407850999992000012500004+33980+051450FM-12+0982OIFK V0209999C000012200019N0120001N1+00021-01001102601ADDAA199000091GA1001+999999999GF100991001001999999001001MA1999999091151MD1410001+9999REMSYN070AAXX  25001 40785 32962 00000 10002 21100 39115 40260 54000 92350 333;EQDQ01  00002PRCP99
0195407850999992000012512004+33980+051450FM-12+0982OIFK V0209999C000012200019N0120001N1+01061-01021102431ADDAA199000091GA1031+060009019GF103991001001999999001011MA1999999090731MD1710311+9999REMSYN082AAXX  25121 40785 32962 30000 10106 21102 39073 40243 57031 80001 91148 333 83070;EQDQ01  00002PRCP99
0207407850999992000012606004+33980+051450FM-12+0982OIFK V0209999C000012200019N0120001N1+00781-00791102081ADDAA124000091GA1031+012009059GF103991031041012501001001MA1999999090641MD1310051+9999REMSYN094AAXX  26061 40785 32662 30000 10078 21079 39064 40208 53005 83400 90550 333 30103 70000 83640;EQDQ01  00002PRCP24
0201407850999992000012612004+33980+051450FM-12+0982OIFK V0202201N00201220001CN0120001N1+01241-01351101571ADDAA199000091GA1021+012009069GF105991021041012501001011MA1999999090241MD1710281+9999REMSYN088AAXX  26121 40785 32662 52202 10124 21135 39024 40157 57028 82401 91150 333 82640 84070;EQDQ01  00002PRCP99
0190407850999992000012615004+33980+051450FM-12+0982OIFK V0209999C000012200019N0120001N1+00901-01041101741ADDGA1021+012009069GF104991021041012501001011KA1120M+01351MA1999999090311MD1110071+9999REMSYN094AAXX  26151 40785 42662 40000 10090 21104 39031 40174 51007 82401 91450 333 10135 82640 84070;
0215407850999992000012618004+33980+051450FM-12+0982OIFK V0209999C000012200019N0120001N1+00601-00891101711ADDAA199000091GA1011+012009069GF103991011041012501001011GJ103549MA1999999090371MD1310061+9999REMSYN094AAXX  26181 40785 32662 30000 10060 21089 39037 40171 53006 81401 91750 333 55059 81640 83070;EQDQ01  00002PRCP99
0165407850999992000012621004+33980+051450FM-12+0982OIFK V0209999C000012200019N0120001N1+00481-00611101611ADDGA1041+060009019GF104991001001999999001011MA1999999090311MD1810061+9999REMSYN082AAXX  26211 40785 42962 40000 10048 21061 39031 40161 58006 80001 92050 333 84070;
0195407850999992000012700004+33980+051450FM-12+0982OIFK V0209999C000012200019N0120001N1+00301-00751101541ADDAA199000091GA1021+060009019GF102991001001999999001011MA1999999090261MD1810051+9999REMSYN082AAXX  27001 40785 32962 20000 10030 21075 39026 40154 58005 80001 92350 333 82070;EQDQ01  00002PRCP99
0172407850999992000012703004+33980+051450FM-12+0982OIFK V0209999C000012200019N0120001N1+00081-00561101651ADDGA1001+999999999GF100991001001999999001001KA1999N+00041MA1999999090261MD1410001+9999REMSYN076AAXX  27031 40785 42962 00000 10008 21056 39026 40165 54000 90250 333 20004;
0207407850999992000012706004+33980+051450FM-12+0982OIFK V0209999C000012200019N0120001N1+00661-00201101741ADDAA124000091GA1021+012009029GF102991021011012501001011MA1999999090271MD1310111+9999REMSYN094AAXX  27061 40785 32662 20000 10066 21020 39027 40174 53011 82101 90550 333 30103 70000 82840;EQDQ01  00002PRCP24
0193407850999992000012709004+33980+051450FM-12+0982OIFK V0209999C000010300019N0100001N1+01021-00091101391ADDGA1031+012009069GA2041+030009039GF106991031041012501071011MA1999999090121MD1810251+9999REMSYN094AAXX  27091 40785 42660 60000 10102 21009 39012 40139 58025 83471 90850 333 83640 84360 86070;
0212407850999992000012715004+33980+051450FM-12+0982OIFK V0209999C00001036001CN0100001N1+01021+00111101341ADDGA1011+009009099GA2031+010509069GF107991041031008001021001KA1120M+01201MA1999999090001MD1410001+9999REMSYN100AAXX  27151 40785 42560 70000 10102 20011 39000 40134 54000 84320 91450 333 10120 81930 83635 87459;
0224407850999992000012718004+33980+051450FM-12+0982OIFK V0209999C000010105019N0100001N1+00861+00421101281ADDAA106001091GA1011+009009099GA2041+010509069GF108991051021008001001001GJ102049MA1999999090031MD1110031+9999REMSYN106AAXX  27181 40785 12560 80000 10086 20042 39003 40128 51003 69991 85200 91750 333 55034 81930 84635 88459;
0139407850999992000012721004+33980+051450FM-12+0982OIFK V0209999C000010360019N0100001N1+00861+00481101021ADDGF106991041041012501011999MA1999999089941MD1710091+9999REMSYN072AAXX  27211 40785 42660 60000 10086 20048 38994 40102 57009 8441/ 92050;
0201407850999992000012800004+33980+051450FM-12+0982OIFK V0209999C00001220001CN0100001N1+00531+00311101021ADDAA199000091GA1021+012009069GF105991031041012501001011MA1999999089841MD1810101+9999REMSYN088AAXX  28001 40785 32660 50000 10053 20031 38984 40102 58010 83401 92350 333 82640 85070;EQDQ01  00002PRCP99
0216407850999992000012806004+33980+051450FM-12+0982OIFK V0209999C000010120019N0100001N1+00621+00191101291ADDAA124000391GA1011+010509099GA2041+012009069GF108991051031012501021999MA1999999090041MD1110081+9999REMSYN106AAXX  28061 40785 32660 80000 10062 20019 39004 40129 51008 8532/ 90552 333 31002 70002 81935 84640 88459;
0221407850999992000012809004+33980+051450FM-12+0982OIFK V0209999C000010120019N0080001N1+00661+00391101211ADDAY161031AY221031GA1011+010509099GA2041+012009069GF108991051031012501021999MA1999999089981MD1810061+9999MW1511REMSYN100AAXX  28091 40785 41658 80000 10066 20039 38998 40121 58006 75162 8532/ 90852 333 81935 84640 88459;
0238407850999992000012812004+33980+051450FM-12+0982OIFK V0209999C000010105019N0100001N1+00621+00401101121ADDAA106000891AY161061AY261061GA1021+009009099GA2031+010509069GF108991051031008001021999MA1999999089831MD1610151+9999MW1211REMSYN106AAXX  28121 40785 11560 80000 10062 20040 38983 40112 56015 69981 72166 8532/ 91153 333 82930 83635 88459;
0221407850999992000012821004+33980+051450FM-12+0982OIFK V0209999C00001036001CN0080001N1+00561+00341101531ADDAY161031AY261031GA1011+009009099GA2031+010509069GF108991041031008001021999MA1999999090201MD1410001+9999MW1611REMSYN100AAXX  28211 40785 41558 80000 10056 20034 39020 40153 54000 76166 8432/ 92052 333 81930 83635 88459;
0228407850999992000012906004+33980+051450FM-12+0982OIFK V0209999C00001036001CN0100001N1+00341+00141101881ADDAA106000191AY161061AY261061GA1041+012009069GF108991041041012501021999MA1999999090451MD1210131+9999MW1211REMSYN112AAXX  29061 40785 11660 80000 10034 20014 39045 40188 52013 69911 72166 8442/ 90547 333 31003 70050 84640 88459;
0147407850999992000012912004+33980+051450FM-12+0982OIFK V0209999C000019999999N0100001N1+99999+99999999999ADDAA199000021GA1041+012009069GF108991999999012501999999REMSYN082AAXX  29121 40785 32660 80000 1006= 39014 40152 57014 8441/ 91145 333 84640 88459;
0202407850999992000012918004+33980+051450FM-12+0982OIFK V0202701N00201036001CN0100001N1+00361+00061102051ADDAA106000191GA1031+012009069GF106991031041012501011001GJ100129MA1999999090561MD1110171+9999REMSYN100AAXX  29181 40785 12660 62702 10036 20006 39056 40205 51017 69911 83410 91747 333 55002 83640 86460;
0183407850999992000013000004+33980+051450FM-12+0982OIFK V0202401N007012200019N0100001N1+00421-01081102101ADDAA199000091GA1001+999999999GF100991001001999999001001MA1999999090661MD1810051+9999REMSYN070AAXX  30001 40785 32960 02407 10042 21108 39066 40210 58005 92347 333;EQDQ01  00002PRCP99
0172407850999992000013003004+33980+051450FM-12+0982OIFK V0209999C000012200019N0100001N1+00241-00581102411ADDGA1001+999999999GF100991001001999999001001KA1999N+00101MA1999999090871MD1210211+9999REMSYN076AAXX  30031 40785 42960 00000 10024 21058 39087 40241 52021 90247 333 20010;
0176407850999992000013006004+33980+051450FM-12+0982OIFK V0209999C000012200019N0100001N1+00321-00571102681ADDAA124000191GA1001+999999999GF100991001001999999001001MA1999999091101MD1210231+9999REMSYN082AAXX  30061 40785 32960 00000 10032 21057 39110 40268 52023 90550 333 31102 70001;
0153407850999992000013009004+33980+051450FM-12+0982OIFK V0209999C000012200019N0100001N1+00861-00681102661ADDGA1001+999999999GF100991001001999999001001MA1999999091161MD1110061+9999REMSYN070AAXX  30091 40785 42960 00000 10086 21068 39116 40266 51006 90850 333;
0183407850999992000013012004+33980+051450FM-12+0982OIFK V0209999C000012200019N0100001N1+01161-00541102541ADDAA199000091GA1001+999999999GF100991001001999999001001MA1999999091161MD1610061+9999REMSYN070AAXX  30121 40785 32960 00000 10116 21054 39116 40254 56006 91150 333;EQDQ01  00002PRCP99
0189407850999992000013018004+33980+051450FM-12+0982OIFK V0209999C000012200019N0100001N1+00401-00181102971ADDAA199000091GA1001+999999999GF100991001001999999001001MA1999999091371MD1310171+9999REMSYN076AAXX  30181 40785 32960 00000 10040 21018 39137 40297 53017 91750 333 55097;EQDQ01  00002PRCP99
0183407850999992000013100004+33980+051450FM-12+0982OIFK V0209999C000012200019N0100001N1+00161-00291102861ADDAA199000091GA1001+999999999GF100991001001999999001001MA1999999091401MD1410001+9999REMSYN070AAXX  31001 40785 32960 00000 10016 21029 39140 40286 54000 92350 333;EQDQ01  00002PRCP99
0172407850999992000013103004+33980+051450FM-12+0982OIFK V0209999C000012200019N0100001N1-00141-00511102981ADDGA1001+999999999GF100991001001999999001001KA1999N-00141MA1999999091361MD1610041+9999REMSYN076AAXX  31031 40785 42960 00000 11014 21051 39136 40298 56004 90250 333 21014;
0153407850999992000013109004+33980+051450FM-12+0982OIFK V0209999C000012200019N0100001N1+00801-00511102761ADDGA1001+999999999GF100991001001999999001001MA1999999091261MD1810141+9999REMSYN070AAXX  31091 40785 42960 00000 10080 21051 39126 40276 58014 90850 333;
0195407850999992000013112004+33980+051450FM-12+0982OIFK V0209999C000012200019N0100001N1+01041-00271102531ADDAA199000091GA1011+060009019GF101991001001999999001011MA1999999091061MD1710201+9999REMSYN082AAXX  31121 40785 32960 10000 10104 21027 39106 40253 57020 80001 91150 333 81070;EQDQ01  00002PRCP99
0184407850999992000013115004+33980+051450FM-12+0982OIFK V0209999C000012200019N0100001N1+00541-00061102371ADDGA1031+060009019GF103991001001999999001011KA1120M+01151MA1999999091101MD1310041+9999REMSYN088AAXX  31151 40785 42960 30000 10054 21006 39110 40237 53004 80001 91450 333 10115 83070;
0189407850999992000013118004+33980+051450FM-12+0982OIFK V0209999C000012200019N0100001N1+00321-00151102591ADDAA199000091GA1001+999999999GF100991001001999999001001MA1999999091031MD1610071+9999REMSYN076AAXX  31181 40785 32960 00000 10032 21015 39103 40259 56007 91750 333 55093;EQDQ01  00002PRCP99
0153407850999992000013121004+33980+051450FM-12+0982OIFK V0209999C000012200019N0100001N1+00221-00281102391ADDGA1001+999999999GF100991001001999999001001MA1999999090921MD1710111+9999REMSYN070AAXX  31211 40785 42960 00000 10022 21028 39092 40239 57011 92050 333;
0183407850999992000020100004+33980+051450FM-12+0982OIFK V0209999C000012200019N0100001N1+00081-00321102411ADDAA199000091GA1001+999999999GF100991001001999999001001MA1999999090921MD1410001+9999REMSYN070AAXX  01001 40785 32960 00000 10008 21032 39092 40241 54000 92350 333;EQDQ01  00002PRCP99
0223407850999992000020106004+33980+051450FM-12+0982OIFK V0209999C000010600019N0100001N1+00321-00151102191ADDAA124000091GA1061+060009089GF106991999001999999001061MA1999999090671MD1410001+9999REMSYN094AAXX  01061 40785 32960 60000 10032 21015 39067 40219 54000 80006 90550 333 30105 70000 86270;EQDQ01+000002SCOTLCQ02  00002PRCP24
0184407850999992000020109004+33980+051450FM-12+0982OIFK V0209999C000010600019N0100001N1+00681-00091101861ADDGA1071+060009089GF107991999001999999001071MA1999999090431MD1710241+9999REMSYN082AAXX  01091 40785 42960 70000 10068 21009 39043 40186 57024 80007 90852 333 87270;EQDQ01+000002SCOTLC
0184407850999992000020115004+33980+051450FM-12+0982OIFK V0209999C000012200019N0100001N1+00441-00191101691ADDGA1021+060009019GF102991001001999999001011KA1120M+00851MA1999999090111MD1610041+9999REMSYN088AAXX  01151 40785 42960 20000 10044 21019 39011 40169 56004 80001 91450 333 10085 82070;
0183407850999992000020200004+33980+051450FM-12+0982OIFK V0209999C000012200019N0100001N1+00061-00451101651ADDAA199000091GA1001+999999999GF100991001001999999001001MA1999999090251MD1110031+9999REMSYN070AAXX  02001 40785 32960 00000 10006 21045 39025 40165 51003 92352 333;EQDQ01  00002PRCP99
0172407850999992000020203004+33980+051450FM-12+0982OIFK V0209999C000012200019N0100001N1-00041-00661101731ADDGA1001+999999999GF100991001001999999001001KA1999N-00161MA1999999090211MD1810011+9999REMSYN076AAXX  02031 40785 42960 00000 11004 21066 39021 40173 58001 90250 333 21016;
0195407850999992000020206004+33980+051450FM-12+0982OIFK V0209999C000012200019N0100001N1+00521-00941101791ADDAA124000091GA1001+999999999GF100991001001999999001001MA1999999090321MD1210111+9999REMSYN082AAXX  02061 40785 32960 00000 10052 21094 39032 40179 52011 90546 333 30106 70000;EQDQ01  00002PRCP24
0153407850999992000020209004+33980+051450FM-12+0982OIFK V0209999C000012200019N0100001N1+00921-01261101611ADDGA1001+999999999GF100991001001999999001001MA1999999090231MD1810091+9999REMSYN070AAXX  02091 40785 42960 00000 10092 21126 39023 40161 58009 90847 333;
0201407850999992000020212004+33980+051450FM-12+0982OIFK V0209999C00001036001CN0100001N1+01081-01411101501ADDAA199000091GA1011+012009089GF105991011011012501031001MA1999999090131MD1710101+9999REMSYN088AAXX  02121 40785 32660 50000 10108 21141 39013 40150 57010 81130 91146 333 81840 85360;EQDQ01  00002PRCP99
0190407850999992000020215004+33980+051450FM-12+0982OIFK V0209999C000012200019N0100001N1+00701-00611101791ADDGA1021+012009069GF104991021041012501031001KA1120M+01151MA1999999090301MD1310171+9999REMSYN094AAXX  02151 40785 42660 40000 10070 21061 39030 40179 53017 82430 91446 333 10115 82640 84360;
0190407850999992000020303004+33980+051450FM-12+0982OIFK V0209999C00001036001CN0100001N1+00321-00431102271ADDGA1031+012009069GF106991031041012501071001KA1120N+00301MA1999999090811MD1210151+9999REMSYN094AAXX  03031 40785 42660 60000 10032 21043 39081 40227 52015 83470 90246 333 20030 83640 86460;
0165407850999992000020309004+33980+051450FM-12+0982OIFK V0209999C000012200019N0120001N1+00741-00631102541ADDGA1021+012009059GF102991021041012501001001MA1999999091061MD1810031+9999REMSYN082AAXX  03091 40785 42662 20000 10074 21063 39106 40254 58003 82400 90850 333 82640;
0195407850999992000020312004+33980+051450FM-12+0982OIFK V0209999C000012200019N0120001N1+00901-00561102371ADDAA199000091GA1021+012009059GF102991021041012501001001MA1999999090941MD1710121+9999REMSYN082AAXX  03121 40785 32662 20000 10090 21056 39094 40237 57012 82400 91150 333 82640;EQDQ01  00002PRCP99
0172407850999992000020315004+33980+051450FM-12+0982OIFK V0209999C000012200019N0100001N1+00681-00461102491ADDGA1001+999999999GF100991001001999999001001KA1999M+00951MA1999999091001MD1310061+9999REMSYN076AAXX  03151 40785 42960 00000 10068 21046 39100 40249 53006 91450 333 10095;
0189407850999992000020318004+33980+051450FM-12+0982OIFK V0209999C000012200019N0100001N1+00421-00581102661ADDAA199000091GA1001+999999999GF100991001001999999001001MA1999999091131MD1210131+9999REMSYN076AAXX  03181 40785 32960 00000 10042 21058 39113 40266 52013 91750 333 55081;EQDQ01  00002PRCP99
0153407850999992000020321004+33980+051450FM-12+0982OIFK V0209999C000012200019N0120001N1+00161-00491102601ADDGA1001+999999999GF100991001001999999001001MA1999999091071MD1810061+9999REMSYN070AAXX  03211 40785 42962 00000 10016 21049 39107 40260 58006 92050 333;
0183407850999992000020400004+33980+051450FM-12+0982OIFK V0209999C000012200019N0120001N1+00101-00531102581ADDAA199000091GA1001+999999999GF100991001001999999001001MA1999999091071MD1410001+9999REMSYN070AAXX  04001 40785 32962 00000 10010 21053 39107 40258 54000 92350 333;EQDQ01  00002PRCP99
0172407850999992000020403004+33980+051450FM-12+0982OIFK V0209999C000012200019N0120001N1-00301-00731102551ADDGA1001+999999999GF100991001001999999001001KA1999N-00351MA1999999090941MD1810131+9999REMSYN076AAXX  04031 40785 42962 00000 11030 21073 39094 40255 58013 90250 333 21035;
0153407850999992000020409004+33980+051450FM-12+0982OIFK V0209999C000012200019N0150001N1+00801-00771102431ADDGA1001+999999999GF100991001001999999001001MA1999999090931MD1810121+9999REMSYN070AAXX  04091 40785 42965 00000 10080 21077 39093 40243 58012 90850 333;
0183407850999992000020412004+33980+051450FM-12+0982OIFK V0209999C000012200019N0150001N1+01101-00681102091ADDAA199000091GA1001+999999999GF100991001001999999001001MA1999999090681MD1710251+9999REMSYN070AAXX  04121 40785 32965 00000 10110 21068 39068 40209 57025 91150 333;EQDQ01  00002PRCP99
0209407850999992000020418004+33980+051450FM-12+0982OIFK V0209999C000012200019N0150001N1+00461-00501102211ADDAA199000091GA1041+060009019GF104991001001999999001011GJ105589MA1999999090721MD1310071+9999REMSYN088AAXX  04181 40785 32965 40000 10046 21050 39072 40221 53007 80001 91750 333 55093 84070;EQDQ01  00002PRCP99
0153407850999992000020421004+33980+051450FM-12+0982OIFK V0209999C000012200019N0150001N1+00261-00561102171ADDGA1001+999999999GF100991001001999999001001MA1999999090721MD1410001+9999REMSYN070AAXX  04211 40785 42965 00000 10026 21056 39072 40217 54000 92050 333;
0172407850999992000020503004+33980+051450FM-12+0982OIFK V0209999C000012200019N0150001N1+00001-00621102101ADDGA1001+999999999GF100991001001999999001001KA1999N-00101MA1999999090601MD1610051+9999REMSYN076AAXX  05031 40785 42965 00000 10000 21062 39060 40210 56005 90250 333 21010;
0195407850999992000020506004+33980+051450FM-12+0982OIFK V0209999C000012200019N0150001N1+00621-00761102141ADDAA124000091GA1001+999999999GF100991001001999999001001MA1999999090691MD1310091+9999REMSYN082AAXX  05061 40785 32965 00000 10062 21076 39069 40214 53009 90552 333 30106 70000;EQDQ01  00002PRCP24
0153407850999992000020509004+33980+051450FM-12+0982OIFK V0209999C000012200019N0100001N1+01061-01041101981ADDGA1001+999999999GF100991001001999999001001MA1999999090581MD1810091+9999REMSYN070AAXX  05091 40785 42960 00000 10106 21104 39058 40198 58009 90852 333;
0172407850999992000020603004+33980+051450FM-12+0982OIFK V0209999C000012200019N0150001N1-00061-00631101721ADDGA1001+999999999GF100991001001999999001001KA1999N-00121MA1999999090291MD1710071+9999REMSYN076AAXX  06031 40785 42965 00000 11006 21063 39029 40172 57007 90252 333 21012;
0153407850999992000020609004+33980+051450FM-12+0982OIFK V0209999C000012200019N0150001N1+01161-01141101301ADDGA1001+999999999GF100991001001999999001001MA1999999090041MD1710291+9999REMSYN070AAXX  06091 40785 42965 00000 10116 21114 39004 40130 57029 90845 333;
0172407850999992000020615004+33980+051450FM-12+0982OIFK V0209999C000012200019N0150001N1+00901-00641101181ADDGA1001+999999999GF100991001001999999001001KA1999M+01351MA1999999089811MD1310041+9999REMSYN076AAXX  06151 40785 42965 00000 10090 21064 38981 40118 53004 91446 333 10135;
0189407850999992000020618004+33980+051450FM-12+0982OIFK V0209999C000012200019N0150001N1+00441-00801101001ADDAA199000091GA1001+999999999GF100991001001999999001001MA1999999089711MD1810101+9999REMSYN076AAXX  06181 40785 32965 00000 10044 21080 38971 40100 58010 91746 333 55097;EQDQ01  00002PRCP99
0183407850999992000020700004+33980+051450FM-12+0982OIFK V0209999C000012200019N0150001N1+00221-00591100621ADDAA199000091GA1001+999999999GF100991001001999999001001MA1999999089441MD1710271+9999REMSYN070AAXX  07001 40785 32965 00000 10022 21059 38944 40062 57027 92347 333;EQDQ01  00002PRCP99
0172407850999992000020703004+33980+051450FM-12+0982OIFK V0209999C000012200019N0150001N1+00241-00641100661ADDGA1001+999999999GF100991001001999999001001KA1999N+00121MA1999999089391MD1610051+9999REMSYN076AAXX  07031 40785 42965 00000 10024 21064 38939 40066 56005 90244 333 20012;
0213407850999992000020706004+33980+051450FM-12+0982OIFK V0209999C00001220001CN0120001N1+00541-00621100821ADDAA124000091GA1031+012009069GF106991031041012501001061MA1999999089521MD1210131+9999REMSYN100AAXX  07061 40785 32662 60000 10054 21062 38952 40082 52013 83406 90550 333 30103 70000 83640 86270;EQDQ01  00002PRCP24
0199407850999992000020709004+33980+051450FM-12+0982OIFK V0209999C00001036001CN0100001N1+00641-00021100891ADDAY151031AY221031GA1031+012009069GF106991031041012501011001MA1999999089611MD1810091+9999MW1011REMSYN094AAXX  07091 40785 41660 60000 10064 21002 38961 40089 58009 70152 83410 90850 333 83640 86460;
0188407850999992000020712004+33980+051450FM-12+0982OIFK V0209999C00001220001CN0100001N1+00821-00011100911ADDAA106001091GA1031+012009069GF106991031041012501001061MA1999999089611MD1510001+9999REMSYN094AAXX  07121 40785 12660 60000 10082 21001 38961 40091 55000 60011 83406 91150 333 83640 86270;
0190407850999992000020715004+33980+051450FM-12+0982OIFK V0209999C00001220001CN0100001N1+00481+00091101231ADDGA1031+012009069GF106991031041012501001061KA1120M+00901MA1999999089841MD1210231+9999REMSYN094AAXX  07151 40785 42660 60000 10048 20009 38984 40123 52023 83406 91450 333 10090 83640 86270;
0202407850999992000020718004+33980+051450FM-12+0982OIFK V0209999C00001090001CN0100001N1+00261-00211101561ADDAA106000191GA1031+012009069GF107991031041012501001071GJ100969MA1999999090151MD1210311+9999REMSYN100AAXX  07181 40785 12660 70000 10026 21021 39015 40156 52031 69921 83407 91750 333 55016 83640 87270;
0188407850999992000020806004+33980+051450FM-12+0982OIFK V0209999C000012200019N0120001N1+00281-00481102191ADDAA124001591GA1021+030009079GF102991021001999999031001MA1999999090641MD1210221+9999REMSYN094AAXX  08061 40785 32962 20000 10028 21048 39064 40219 52022 82030 90550 333 30000 70014 82360;
0165407850999992000020809004+33980+051450FM-12+0982OIFK V0209999C000012200019N0120001N1+00581-00611102111ADDGA1021+012009029GF102991021011012501001001MA1999999090611MD1610041+9999REMSYN082AAXX  08091 40785 42662 20000 10058 21061 39061 40211 56004 82100 90850 333 82840;
0195407850999992000020812004+33980+051450FM-12+0982OIFK V0209999C000012200019N0120001N1+00721-00731102001ADDAA199000091GA1041+012009059GF104991041041012501001001MA1999999090551MD1610061+9999REMSYN082AAXX  08121 40785 32662 40000 10072 21073 39055 40200 56006 84400 91150 333 84640;EQDQ01  00002PRCP99
0189407850999992000020818004+33980+051450FM-12+0982OIFK V0209999C000012200019N0120001N1+00321-00571102281ADDAA199000091GA1001+999999999GF100991001001999999001001MA1999999090431MD1210131+9999REMSYN076AAXX  08181 40785 32962 00000 10032 21057 39043 40228 52013 91750 333 55090;EQDQ01  00002PRCP99
0153407850999992000020821004+33980+051450FM-12+0982OIFK V0209999C000012200019N0120001N1+00061-00911102351ADDGA1001+999999999GF100991001001999999001001MA1999999090801MD1210071+9999REMSYN070AAXX  08211 40785 42962 00000 10006 21091 39080 40235 52007 92050 333;
0172407850999992000020903004+33980+051450FM-12+0982OIFK V0209999C000012200019N0120001N1-00361-00861102441ADDGA1001+999999999GF100991001001999999001001KA1999N-00401MA1999999090801MD1410001+9999REMSYN076AAXX  09031 40785 42962 00000 11036 21086 39080 40244 54000 90250 333 21040;
0189407850999992000020918004+33980+051450FM-12+0982OIFK V0209999C000012200019N0100001N1+00221-00681102761ADDAA199000091GA1001+999999999GF100991001001999999001001MA1999999091071MD1210161+9999REMSYN076AAXX  09181 40785 32960 00000 10022 21068 39107 40276 52016 91750 333 55096;EQDQ01  00002PRCP99
0153407850999992000020921004+33980+051450FM-12+0982OIFK V0209999C000012200019N0100001N1+00061-00671102711ADDGA1001+999999999GF100991001001999999001001MA1999999091101MD1110031+9999REMSYN070AAXX  09211 40785 42960 00000 10006 21067 39110 40271 51003 92050 333;
0172407850999992000021003004+33980+051450FM-12+0982OIFK V0209999C000012200019N0120001N1-00341-00841102771ADDGA1001+999999999GF100991001001999999001001KA1999N-00401MA1999999091101MD1410001+9999REMSYN076AAXX  10031 40785 42962 00000 11034 21084 39110 40277 54000 90252 333 21040;
0195407850999992000021006004+33980+051450FM-12+0982OIFK V0209999C000012200019N0120001N1+00361-00631102831ADDAA124000091GA1001+999999999GF100991001001999999001001MA1999999091291MD1210191+9999REMSYN082AAXX  10061 40785 32962 00000 10036 21063 39129 40283 52019 90545 333 30108 70000;EQDQ01  00002PRCP24
0153407850999992000021009004+33980+051450FM-12+0982OIFK V0209999C000012200019N0120001N1+00861-00881102801ADDGA1001+999999999GF100991001001999999001001MA1999999091271MD1810021+9999REMSYN070AAXX  10091 40785 42962 00000 10086 21088 39127 40280 58002 90845 333;
0183407850999992000021012004+33980+051450FM-12+0982OIFK V0209999C000012200019N0120001N1+01141-01101102661ADDAA199000091GA1001+999999999GF100991001001999999001001MA1999999091131MD1710141+9999REMSYN070AAXX  10121 40785 32962 00000 10114 21110 39113 40266 57014 91146 333;EQDQ01  00002PRCP99
0172407850999992000021015004+33980+051450FM-12+0982OIFK V0209999C000012200019N0120001N1+00841-00891102791ADDGA1001+999999999GF100991001001999999001001KA1999M+01251MA1999999091181MD1310051+9999REMSYN076AAXX  10151 40785 42962 00000 10084 21089 39118 40279 53005 91447 333 10125;
0189407850999992000021018004+33980+051450FM-12+0982OIFK V0209999C000012200019N0120001N1+00361-00631102951ADDAA199000091GA1001+999999999GF100991001001999999001001MA1999999091341MD1110161+9999REMSYN076AAXX  10181 40785 32962 00000 10036 21063 39134 40295 51016 91747 333 55097;EQDQ01  00002PRCP99
0183407850999992000021100004+33980+051450FM-12+0982OIFK V0209999C000012200019N0120001N1+00041-00901102891ADDAA199000091GA1001+999999999GF100991001001999999001001MA1999999091391MD1110041+9999REMSYN070AAXX  11001 40785 32962 00000 10004 21090 39139 40289 51004 92347 333;EQDQ01  00002PRCP99
0172407850999992000021103004+33980+051450FM-12+0982OIFK V0209999C000012200019N0120001N1-00241-00791103061ADDGA1001+999999999GF100991001001999999001001KA1999N-00281MA1999999091411MD1310031+9999REMSYN076AAXX  11031 40785 42962 00000 11024 21079 39141 40306 53003 90247 333 21028;
0195407850999992000021106004+33980+051450FM-12+0982OIFK V0209999C000012200019N0120001N1+00581-00891102981ADDAA124000091GA1001+999999999GF100991001001999999001001MA1999999091411MD1510001+9999REMSYN082AAXX  11061 40785 32962 00000 10058 21089 39141 40298 55000 90550 333 30107 70000;EQDQ01  00002PRCP24
0165407850999992000021109004+33980+051450FM-12+0982OIFK V0209999C000012200019N0120001N1+00981-01151102791ADDGA1041+060009019GF104991001001999999001021MA1999999091281MD1810131+9999REMSYN082AAXX  11091 40785 42962 40000 10098 21115 39128 40279 58013 80002 90850 333 84070;
0153407850999992000021209004+33980+051450FM-12+0982OIFK V0209999C000012200019N0120001N1+01261-01041102281ADDGA1001+999999999GF100991001001999999001001MA1999999090971MD1810011+9999REMSYN070AAXX  12091 40785 42962 00000 10126 21104 39097 40228 58001 90850 333;
0183407850999992000021212004+33980+051450FM-12+0982OIFK V0209999C000012200019N0120001N1+01521-01211102061ADDAA199000091GA1001+999999999GF100991001001999999001001MA1999999090751MD1710221+9999REMSYN070AAXX  12121 40785 32962 00000 10152 21121 39075 40206 57022 91150 333;EQDQ01  00002PRCP99
0153407850999992000021221004+33980+051450FM-12+0982OIFK V0209999C000012200019N0120001N1+00361-00641102361ADDGA1001+999999999GF100991001001999999001001MA1999999090821MD1810031+9999REMSYN070AAXX  12211 40785 42962 00000 10036 21064 39082 40236 58003 92050 333;
0183407850999992000021300004+33980+051450FM-12+0982OIFK V0209999C000012200019N0120001N1+00201-00681102101ADDAA199000091GA1001+999999999GF100991001001999999001001MA1999999090791MD1610031+9999REMSYN070AAXX  13001 40785 32962 00000 10020 21068 39079 40210 56003 92350 333;EQDQ01  00002PRCP99
0184407850999992000021303004+33980+051450FM-12+0982OIFK V0209999C000012200019N0120001N1+00301-00751102131ADDGA1031+030009079GF103991031001999999031001KA1120N+00101MA1999999090751MD1610041+9999REMSYN088AAXX  13031 40785 42962 30000 10030 21075 39075 40213 56004 83030 90250 333 20010 83360;
0149407850999992000021306004+33980+051450FM-12+0982OIFK V0209999C000012200019N0120001N1+00301-00751102131ADDGF103991031001008001031999MA1999999090751MD1610041+9999REMSYN082AAXX  13061 40785 42562 30000 10030 21075 39075 40213 56004 8303/ 90250 333 22/29;
0171407850999992000021309004+33980+051450FM-12+0982OIFK V0209999C00001220001CN0120001N1+01181-00941101871ADDGA1021+012009069GF106991021041012501001061MA1999999090551MD1710131+9999REMSYN088AAXX  13091 40785 42662 60000 10118 21094 39055 40187 57013 82406 90852 333 82640 86270;
0209407850999992000021318004+33980+051450FM-12+0982OIFK V0209999C000012200019N0120001N1+00911-00721101441ADDAA199000091GA1031+012009069GF106991031041012501001061GJ103729MA1999999090201MD1810021+9999REMSYN088AAXX  13181 40785 32662 60000 10091 21072 39020 40144 58002 83406 333 55062 83640 86210;EQDQ01  00002PRCP99
0218407850999992000021403004+33980+051450FM-12+0982OIFK V0209999C00001036001CN0100001N1+00581+00261101201ADDAY161031AY221031GA1031+012009069GF106991031041012501011001KA1120N+00481MA1999999090001MD1710061+9999MW1211REMSYN100AAXX  14031 40785 41660 60000 10058 20026 39000 40120 57006 72162 83410 90250 333 20048 83640 86460;
0250407850999992000021406004+33980+051450FM-12+0982OIFK V0209999C000010105019N0080001N1+00541+00311101571ADDAA106003091AY161061AY261061GA1021+009009099GA2031+010509069GF108991051031008001021999MA1999999090291MD1210291+9999MW1611REMSYN118AAXX  14061 40785 11558 80000 10054 20031 39029 40157 52029 60031 76166 8532/ 90545 333 31003 70029 82930 83635 88558;
0182407850999992000021412004+33980+051450FM-12+0982OIFK V0203301N003012200019N0100001N1+01341-00301101291ADDAA106000891GA1041+012009059GF104991041041012501001001MA1999999090101MD1610101+9999REMSYN088AAXX  14121 40785 12660 43303 10134 21030 39010 40129 56010 69971 84400 91146 333 84640;
0184407850999992000021415004+33980+051450FM-12+0982OIFK V0209999C000012200019N0100001N1+01201-00261101481ADDGA1041+012009059GF104991041041012501001001KA1120M+01441MA1999999090251MD1210151+9999REMSYN088AAXX  14151 40785 42660 40000 10120 21026 39025 40148 52015 84400 91447 333 10144 84640;
0190407850999992000021418004+33980+051450FM-12+0982OIFK V0209999C000012200019N0100001N1+00641+00071101881ADDAA199000021GA1011+012009059GF101991011041012501001001GJ103009MA1999999090511MD1210261+9999REMSYN088AAXX  14181 40785 32660 10000 10064 20007 39051 40188 52026 81400 91745 333 55050 81640;
0176407850999992000021506004+33980+051450FM-12+0982OIFK V0209999C000012200019N0100001N1+00721+00001102311ADDAA124000891GA1001+999999999GF100991001001999999001001MA1999999090991MD1210221+9999REMSYN082AAXX  15061 40785 32960 00000 10072 20000 39099 40231 52022 90550 333 30101 70007;
0165407850999992000021509004+33980+051450FM-12+0982OIFK V0209999C000012200019N0100001N1+01281-00201102271ADDGA1031+012009029GF103991031011012501001001MA1999999090971MD1110051+9999REMSYN082AAXX  15091 40785 42660 30000 10128 21020 39097 40227 51005 83100 90850 333 83840;
0195407850999992000021512004+33980+051450FM-12+0982OIFK V0209999C000012200019N0100001N1+01401-00381102051ADDAA199000091GA1031+012009029GF103991031011012501001001MA1999999090751MD1610201+9999REMSYN082AAXX  15121 40785 32660 30000 10140 21038 39075 40205 56020 83100 91150 333 83840;EQDQ01  00002PRCP99
0172407850999992000021515004+33980+051450FM-12+0982OIFK V0209999C000012200019N0100001N1+01181-00201102141ADDGA1001+999999999GF100991001001999999001001KA1999M+01461MA1999999090801MD1310051+9999REMSYN076AAXX  15151 40785 42960 00000 10118 21020 39080 40214 53005 91450 333 10146;
0183407850999992000021518004+33980+051450FM-12+0982OIFK V0209999C000012200019N0100001N1+00761-00201102321ADDAA199000091GA1001+999999999GF100991001001999999001001MA1999999090951MD1110151+9999REMSYN070AAXX  15181 40785 32960 00000 10076 21020 39095 40232 51015 91750 333;EQDQ01  00002PRCP99
0153407850999992000021521004+33980+051450FM-12+0982OIFK V0209999C000012200019N0100001N1+00561-00201102141ADDGA1001+999999999GF100991001001999999001001MA1999999090871MD1810081+9999REMSYN070AAXX  15211 40785 42960 00000 10056 21020 39087 40214 58008 92050 333;
0183407850999992000021600004+33980+051450FM-12+0982OIFK V0209999C000012200019N0100001N1+00401-00181102161ADDAA199000091GA1001+999999999GF100991001001999999001001MA1999999090851MD1410001+9999REMSYN070AAXX  16001 40785 32960 00000 10040 21018 39085 40216 54000 92350 333;EQDQ01  00002PRCP99
0150407850999992000021615004+33980+051450FM-12+0982OIFK V0201001N013019999999N0025001N1+99999+99999101811ADDGF106991999999017501999999KA1999M+01641MA1999999092011MD1610061+9999REMSYN070AAXX  16151 40785 42725 61013 21011 39201 40181 56006 91450 333 10164;
0225407850999992000021618004+33980+051450FM-12+0982OIFK V0209999C000012200019N0100001N1+00821-00501101841ADDAA199000091GA1021+012009059GF102991021041012501001001GJ104749MA1999999090562MD1310081+9999REMSYN088AAXX  16181 40785 32660 20000 10082 21050 39056 40184 53008 82400 91750 333 55079 82640;EQDQ01+090563APOSP Q02  00002PRCP99
0165407850999992000021621004+33980+051450FM-12+0982OIFK V0209999C000012200019N0100001N1+00721-00081101781ADDGA1011+012009059GF101991011041012501001001MA1999999090561MD1410001+9999REMSYN082AAXX  16211 40785 42660 10000 10072 21008 39056 40178 5400/ 81400 92050 333 81640;
0183407850999992000021700004+33980+051450FM-12+0982OIFK V0209999C000012200019N0150001N1+00541-00191101761ADDAA199000091GA1001+999999999GF100991001001999999001001MA1999999090261MD1410001+9999REMSYN070AAXX  17001 40785 32965 00000 10054 21019 39026 40176 54000 92350 333;EQDQ01  00002PRCP99
0183407850999992000021712004+33980+051450FM-12+0982OIFK V0203501N002012200019N0100001N1+01681+99999101501ADDAA199000091GA1001+999999999GF100991001001999999001001MA1999999090301MD1710211+9999REMSYN070AAXX  17121 40785 32960 03502 10168 210/4 39030 4015/ 57021 91150 333;EQDQ01  00002PRCP99
0126407850999992000021715004+33980+051450FM-12+0982OIFK V0209999C000012200019N0100001N1+99999+99999101441ADDGA1001+999999999GF100991001001999999001001MD1610061+9999REMSYN058AAXX  17151 40785 42960 00000 21034 39/24 40144 56006 333;
0183407850999992000021800004+33980+051450FM-12+0982OIFK V0209999C000012200019N0100001N1+00721-00301101491ADDAA199000091GA1001+999999999GF100991001001999999001001MA1999999090301MD1410001+9999REMSYN070AAXX  18001 40785 32960 00000 10072 21030 39030 40149 54000 92350 333;EQDQ01  00002PRCP99
0172407850999992000021803004+33980+051450FM-12+0982OIFK V0209999C000012200019N0100001N1+00501-00661999999ADDGA1001+999999999GF100991001001999999001001KA1999N+00421MA1999999090481MD1210181+9999REMSYN076AAXX  18031 40785 42960 00000 1005/ 21066 39048 401/7 52018 90258 333 20042;
0147407850999992000021805004+33980+051450FM-12+0982OIFK V0200701N003012200019N0100001N1+01201-00401101871ADDGA1001+999999999GF100991001001999999001001REMSYN058AAXX  18051 40785 42960 00703 10120 2104/ 40187 5800/ 333;EQDQ01+000082APCTENQ02+000002APC3  
0195407850999992000021806004+33980+051450FM-12+0982OIFK V0201201N008012200019N0100001N1+00881-00341101951ADDAA124000091GA1001+999999999GF100991001001999999001001MA1999999090681MD1210201+9999REMSYN082AAXX  18061 40785 32960 01208 10088 21034 39068 40195 52020 90558 333 30000 70000;EQDQ01  00002PRCP24
0153407850999992000021809004+33980+051450FM-12+0982OIFK V0200701N003012200019N0100001N1+01201-00421101871ADDGA1001+999999999GF100991001001999999001001MA1999999090641MD1810041+9999REMSYN070AAXX  18091 40785 42960 00703 10120 21042 39064 40187 58004 90850 333;
0183407850999992000021900004+33980+051450FM-12+0982OIFK V0209999C000012200019N0100001N1+00501-00861101901ADDAA199000091GA1001+999999999GF100991001001999999001001MA1999999090681MD1410001+9999REMSYN070AAXX  19001 40785 32960 00000 10050 21086 39068 4019/ 54000 92350 333;EQDQ01  00002PRCP99
0172407850999992000021903004+33980+051450FM-12+0982OIFK V0209999C000012200019N0100001N1+00161-00361102171ADDGA1001+999999999GF100991001001999999001001KA1999N+00141MA1999999090811MD1210131+9999REMSYN076AAXX  19031 40785 42960 00000 10016 21036 39081 40217 52013 90250 333 20014;
0189407850999992000021906004+33980+051450FM-12+0982OIFK V0209999C000012200019N0120001N1+00901-00621999999ADDAA124000091GA1001+999999999GF100991001001999999001001MA1999999090911MD1210101+9999REMSYN076AAXX  19061 40785 3/962 00000 10090 21062 39091 52010 90546 333 30103 70000;EQDQ01  00002PRCP24
0172407850999992000021915004+33980+051450FM-12+0982OIFK V0209999C000012200019N0120001N1+01261-00691101881ADDGA1001+999999999GF100991001001999999001001KA1999M+01601MA1999999090541MD1610031+9999REMSYN076AAXX  19151 40785 42962 00000 10126 21069 39054 40188 56003 91446 333 10160;
0183407850999992000022000004+33980+051450FM-12+0982OIFK V0209999C000012200019N0120001N1+00401-00841101641ADDAA199000091GA1001+999999999GF100991001001999999001001MA1999999090421MD1810081+9999REMSYN070AAXX  20001 40785 32962 00000 10040 21084 39042 40164 58008 92345 333;EQDQ01  00002PRCP99
0195407850999992000022006004+33980+051450FM-12+0982OIFK V0209999C000012200019N0100001N1+00921-00341101821ADDAA124000091GA1001+999999999GF100991001001999999001001MA1999999090541MD1110081+9999REMSYN082AAXX  20061 40785 32960 00000 10092 21034 39054 40182 51008 90550 333 30103 70000;EQDQ01  00002PRCP24
0153407850999992000022009004+33980+051450FM-12+0982OIFK V0209999C000012200019N0100001N1+01521-00901101991ADDGA1001+999999999GF100991001001999999001001MA1999999090401MD1710241+9999REMSYN070AAXX  20091 40785 42960 00000 10152 21090 39040 40199 57024 90850 333;
0130407850999992000022015004+33980+051450FM-12+0982OIFK V0209999C000019999999N0100001N1+01441-01101101371ADDKA1999M+01741MA1999999090121MD1310051+9999REMSYN076AAXX  20151 40785 42960 /0000 10144 21110 39012 40137 53005 91450 333 10174;
0153407850999992000022021004+33980+051450FM-12+0982OIFK V0202001N002012200019N0100001N1+00661-00641101481ADDGA1001+999999999GF100991001001999999001001MA1999999090311MD1110071+9999REMSYN070AAXX  20211 40785 42960 02002 10066 21064 39031 40148 51007 92050 333;
0183407850999992000022100004+33980+051450FM-12+0982OIFK V0209999C000012200019N0100001N1+00481-00691101501ADDAA199000091GA1001+999999999GF100991001001999999001001MA1999999090311MD1410001+9999REMSYN070AAXX  21001 40785 32960 00000 10048 21069 39031 40150 54000 92350 333;EQDQ01  00002PRCP99
0195407850999992000022106004+33980+051450FM-12+0982OIFK V0209999C000012200019N0100001N1+01001-01261101901ADDAA124000091GA1001+999999999GF100991001001999999001001MA1999999090671MD1210151+9999REMSYN082AAXX  21061 40785 32960 00000 10100 21126 39067 40190 52015 90550 333 30101 70000;EQDQ01  00002PRCP24
0189407850999992000022118004+33980+051450FM-12+0982OIFK V0209999C000012200019N0100001N1+00821-01261101881ADDAA199000091GA1001+999999999GF100991001001999999001001MA1999999090611MD1210151+9999REMSYN076AAXX  21181 40785 32960 00000 10082 21126 39061 40188 52015 91752 333 55102;EQDQ01  00002PRCP99
0153407850999992000022121004+33980+051450FM-12+0982OIFK V0209999C000012200019N0100001N1+00801-01421101801ADDGA1001+999999999GF100991001001999999001001MA1999999090611MD1410001+9999REMSYN070AAXX  21211 40785 42960 00000 10080 21142 39061 40180 54000 92052 333;
0172407850999992000022203004+33980+051450FM-12+0982OIFK V0209999C000012200019N0100001N1+00201-01021101921ADDGA1001+999999999GF100991001001999999001001KA1999N+00101MA1999999090611MD1410001+9999REMSYN076AAXX  22031 40785 42960 00000 10020 21102 39061 40192 54000 90250 333 20010;
0195407850999992000022206004+33980+051450FM-12+0982OIFK V0209999C000012200019N0150001N1+00841-00901101971ADDAA124000091GA1001+999999999GF100991001001999999001001MA1999999090671MD1310061+9999REMSYN082AAXX  22061 40785 32965 00000 10084 21090 39067 40197 53006 90546 333 30104 70000;EQDQ01  00002PRCP24
0153407850999992000022209004+33980+051450FM-12+0982OIFK V0209999C000012200019N0150001N1+01501-01231101711ADDGA1001+999999999GF100991001001999999001001MA1999999090541MD1810131+9999REMSYN070AAXX  22091 40785 42965 00000 10150 21123 39054 40171 58013 90845 333;
0183407850999992000022212004+33980+051450FM-12+0982OIFK V0209999C000012200019N0150001N1+01741-01581101651ADDAA199000091GA1001+999999999GF100991001001999999001001MA1999999090331MD1710211+9999REMSYN070AAXX  22121 40785 32965 00000 10174 21158 39033 40165 57021 91146 333;EQDQ01  00002PRCP99
0172407850999992000022215004+33980+051450FM-12+0982OIFK V0209999C000012200019N0150001N1+01321-01051101461ADDGA1001+999999999GF100991001001999999001001KA1999M+01801MA1999999090361MD1310031+9999REMSYN076AAXX  22151 40785 42965 00000 10132 21105 39036 40146 53003 91447 333 10180;
0153407850999992000022221004+33980+051450FM-12+0982OIFK V0209999C000012200019N0150001N1+00561-01001101631ADDGA1001+999999999GF100991001001999999001001MA1999999090431MD1810021+9999REMSYN070AAXX  22211 40785 42965 00000 10056 21100 39043 40163 58002 92042 333;
0178407850999992000022300004+33980+051450FM-12+0982OIFK V0209999C000012200019N0150001N1+00361-00871101611ADDAA199000091GA1001+999999999GF100991001001999999001001MD1410001+9999REMSYN064AAXX  23001 40785 32965 00000 10036 21087 38965 40161 54000 333;EQDQ01+089653APOSP Q02  00002PRCP99
0172407850999992000022303004+33980+051450FM-12+0982OIFK V0209999C000012200019N0150001N1+00321-00911101801ADDGA1001+999999999GF100991001001999999001001KA1999N+00281MA1999999090511MD1310081+9999REMSYN076AAXX  23031 40785 42965 00000 10032 21091 39051 40180 53008 90247 333 20028;
0153407850999992000022309004+33980+051450FM-12+0982OIFK V0209999C000012200019N0150001N1+01661-01101101831ADDGA1001+999999999GF100991001001999999001001MA1999999090531MD1810101+9999REMSYN070AAXX  23091 40785 42965 00000 10166 21110 39053 40183 58010 90850 333;
0183407850999992000022312004+33980+051450FM-12+0982OIFK V0209999C000012200019N0150001N1+01861-01131101521ADDAA199000091GA1001+999999999GF100991001001999999001001MA1999999090351MD1710181+9999REMSYN070AAXX  23121 40785 32965 00000 10186 21113 39035 40152 57018 91150 333;EQDQ01  00002PRCP99
0184407850999992000022315004+33980+051450FM-12+0982OIFK V0209999C000012200019N0150001N1+01621-00811101531ADDGA1021+012009059GF102991021051012501001001KA1120M+01901MA1999999090321MD1610031+9999REMSYN088AAXX  23151 40785 42665 20000 10162 21081 39032 40153 56003 82500 91450 333 10190 82640;
0189407850999992000022318004+33980+051450FM-12+0982OIFK V0209999C000012200019N0100001N1+00981-00741101731ADDAA199000091GA1001+999999999GF100991001001999999001001MA1999999090551MD1210191+9999REMSYN076AAXX  23181 40785 32960 00000 10098 21074 39055 40173 52019 91750 333 55096;EQDQ01  00002PRCP99
0153407850999992000022321004+33980+051450FM-12+0982OIFK V0209999C000012200019N0100001N1+00781-00671101681ADDGA1001+999999999GF100991001001999999001001MA1999999090551MD1410001+9999REMSYN070AAXX  23211 40785 42960 00000 10078 21067 39055 40168 54000 92050 333;
0183407850999992000022400004+33980+051450FM-12+0982OIFK V0209999C000012200019N0100001N1+00561-00761101721ADDAA199000091GA1001+999999999GF100991001001999999001001MA1999999090581MD1110031+9999REMSYN070AAXX  24001 40785 32960 00000 10056 21076 39058 40172 51003 92350 333;EQDQ01  00002PRCP99
0172407850999992000022403004+33980+051450FM-12+0982OIFK V0209999C000012200019N0100001N1+00421-00731102011ADDGA1001+999999999GF100991001001999999001001KA1999N+00341MA1999999090771MD1310191+9999REMSYN076AAXX  24031 40785 42960 00000 10042 21073 39077 40201 53019 90250 333 20034;
0195407850999992000022406004+33980+051450FM-12+0982OIFK V0209999C000012200019N0120001N1+01301-00661102141ADDAA124000091GA1001+999999999GF100991001001999999001001MA1999999090931MD1110161+9999REMSYN082AAXX  24061 40785 32962 00000 10130 21066 39093 40214 51016 90550 333 30101 70000;EQDQ01  00002PRCP24
0111407850999992000022409004+33980+051450FM-12+0982OIFK V0209999C000019999999N0120001N1+01761-01121101971ADDMA1999999090811MD1810121+9999REMSYN070AAXX  24091 40785 42962 /0000 10176 21112 39081 40197 58012 90850 333;
0190407850999992000022415004+33980+051450FM-12+0982OIFK V0209999C00001220001CN0120001N1+01721-01151101861ADDGA1031+012009069GF106991031041012501001061KA1120M+02001MA1999999090641MD1310041+9999REMSYN094AAXX  24151 40785 42662 60000 10172 21115 39064 40186 53004 83406 91450 333 10200 83640 86270;
0209407850999992000022418004+33980+051450FM-12+0982OIFK V0201601N004019999999N0120001N1+01581-00361101691ADDAA199000091GA1031+012009069GF106991999999012501999999GJ104389MA1999999090641MD1010001+9999REMSYN088AAXX  24181 40785 32662 61604 10158 21036 39064 40169 50000 91750 333 55073 83640 86270;EQDQ01  00002PRCP99
0171407850999992000022421004+33980+051450FM-12+0982OIFK V0209999C00001012001CN0120001N1+01361-00201101691ADDGA1031+012009069GF106991051041012501001061MA1999999090601MD1810041+9999REMSYN088AAXX  24211 40785 42662 60000 10136 21020 39060 40169 58004 85406 92050 333 83640 86270;
0212407850999992000022503004+33980+051450FM-12+0982OIFK V0209999999999090001CN0150001N1+01141+00371101571ADDGA1011+010509099GA2031+012009069GF107991041031012501001061KA1120N+01061MA1999999090541MD1510001+9999REMSYN100AAXX  25031 40785 42665 7000/ 10114 20037 39054 40157 55000 84306 90250 333 20106 81935 83640 87270;
0213407850999992000022506004+33980+051450FM-12+0982OIFK V0209999C000010360019N0100001N1+01141+00271101801ADDAA124000091GA1011+010509099GF107991041031012501011001MA1999999090711MD1310171+9999REMSYN100AAXX  25061 40785 32660 70000 10114 20027 39071 40180 53017 84310 90550 333 30008 70000 81935 83640;EQDQ01  00002PRCP24
0240407850999992000022515004+33980+051450FM-12+0982OIFK V0202201N00201036001CN0080001N1+01481+00611101141ADDAY121031AY221031GA1011+010509099GA2031+012009069GF107991041031008001071001KA1120M+01801MA1999999090121MD1610021+9999MW1601REMSYN106AAXX  25151 40785 41558 72202 10148 20061 39012 40114 56002 76022 84370 91452 333 10180 81935 83640 87459;
0224407850999992000022518004+33980+051450FM-12+0982OIFK V0209999C000012200019N0100001N1+01101+00791101161ADDAA106000591AY161061AY221061GA1021+012009059GF102991021041012501001001GJ101809MA1999999090091MD1810031+9999MW1011REMSYN100AAXX  25181 40785 11660 20000 10110 20079 39009 40116 58003 69951 70162 82400 91750 333 55030 82640;
0164407850999992000022600004+33980+051450FM-12+0982OIFK V0209999C000012200019N0100001N1+00721+00501101141ADDAA199000021GA1001+999999999GF100991001001999999001001MA1999999090091MD1410001+9999REMSYN070AAXX  26001 40785 32960 00000 10072 20050 39009 40114 54000 92350 333;
0176407850999992000022606004+33980+051450FM-12+0982OIFK V0209999C000012200019N0120001N1+01261+00621101361ADDAA124000591GA1001+999999999GF100991001001999999001001MA1999999090291MD1310111+9999REMSYN082AAXX  26061 40785 32962 00000 10126 20062 39029 40136 53011 90550 333 30004 70005;
0153407850999992000022609004+33980+051450FM-12+0982OIFK V0209999C000012200019N0120001N1+01621-00281101191ADDGA1001+999999999GF100991001001999999001001MA1999999090151MD1710141+9999REMSYN070AAXX  26091 40785 42962 00000 10162 21028 39015 40119 57014 90850 333;
0184407850999992000022615004+33980+051450FM-12+0982OIFK V0202401N005012200019N0120001N1+01661-01641101211ADDGA1021+012009029GF102991021011012501001001KA1120M+02001MA1999999090091MD1210141+9999REMSYN088AAXX  26151 40785 42662 22405 10166 21164 39009 40121 52014 82100 91450 333 10200 82840;
0189407850999992000022618004+33980+051450FM-12+0982OIFK V0209999C000012200019N0120001N1+01021-00791101451ADDAA199000091GA1001+999999999GF100991001001999999001001MA1999999090311MD1210221+9999REMSYN076AAXX  26181 40785 32962 00000 10102 21079 39031 40145 52022 91750 333 55098;EQDQ01  00002PRCP99
0153407850999992000022621004+33980+051450FM-12+0982OIFK V0209999C000012200019N0120001N1+00841-00771101471ADDGA1001+999999999GF100991001001999999001001MA1999999090361MD1110051+9999REMSYN070AAXX  26211 40785 42962 00000 10084 21077 39036 40147 51005 92050 333;
0183407850999992000022700004+33980+051450FM-12+0982OIFK V0209999C000012200019N0120001N1+00501-00961101461ADDAA199000091GA1001+999999999GF100991001001999999001001MA1999999090331MD1810031+9999REMSYN070AAXX  27001 40785 32962 00000 10050 21096 39033 40146 58003 92350 333;EQDQ01  00002PRCP99
0172407850999992000022703004+33980+051450FM-12+0982OIFK V0209999C000012200019N0120001N1+00281-00771101541ADDGA1001+999999999GF100991001001999999001001KA1999N+00241MA1999999090331MD1510001+9999REMSYN076AAXX  27031 40785 42962 00000 10028 21077 39033 40154 55000 90250 333 20024;
0185407850999992000022706004+33980+051450FM-12+0982OIFK V0209999C000012200019N0100001N1+01001-00811101641ADDAA124000091GF103991031001999999031001MA1999999090431MD1110101+9999REMSYN088AAXX  27061 40785 32960 30000 10100 21081 39043 40164 51010 83030 90550 333 30102 70000;EQDQ01  00002PRCP24
0223407850999992000022712004+33980+051450FM-12+0982OIFK V0209999C00001036001CN0120001N1+01381-01091101251ADDAA199000091GA1011+010509099GA2031+012009069GF108991041031012501071999MA1999999090071MD1710271+9999REMSYN094AAXX  27121 40785 32662 80000 10138 21109 39007 40125 57027 8437/ 91150 333 81935 83640 88360;EQDQ01  00002PRCP99
0212407850999992000022715004+33980+051450FM-12+0982OIFK V0209999C000010120019N0120001N1+01321-00931101351ADDGA1021+010509099GA2031+012009069GF108991051031012501021999KA1120M+01451MA1999999090101MD1310031+9999REMSYN100AAXX  27151 40785 42662 80000 10132 21093 39010 40135 53003 8532/ 91450 333 10145 82935 83640 88460;
0215407850999992000022718004+33980+051450FM-12+0982OIFK V0202201N00401036001CN0120001N1+01201-00271101221ADDAA199000091GA1031+012009069GF105991031041012501071001GJ103129MA1999999090101MD1410001+9999REMSYN094AAXX  27181 40785 32662 52204 10120 21027 39010 40122 54000 83470 91750 333 55052 83640 85360;EQDQ01  00002PRCP99
0171407850999992000022721004+33980+051450FM-12+0982OIFK V0202301N00201036001CN0120001N1+01221-00401101221ADDGA1031+012009069GF105991031041012501071001MA1999999090151MD1110051+9999REMSYN088AAXX  27211 40785 42662 52302 10122 21040 39015 40122 51005 83470 92050 333 83640 85360;
0201407850999992000022800004+33980+051450FM-12+0982OIFK V0209999C00001036001CN0120001N1+01041-00221101351ADDAA199000091GA1031+012009069GF105991031041012501021001MA1999999090251MD1210101+9999REMSYN088AAXX  28001 40785 32662 50000 10104 21022 39025 40135 52010 83420 92350 333 83640 85460;EQDQ01  00002PRCP99
0190407850999992000022803004+33980+051450FM-12+0982OIFK V0209999C00001036001CN0120001N1+00961-00181101471ADDGA1031+012009069GF105991031041012501021001KA1120N+00901MA1999999090341MD1210091+9999REMSYN094AAXX  28031 40785 42662 50000 10096 21018 39034 40147 52009 83420 90250 333 20090 83640 85460;
0195407850999992000022812004+33980+051450FM-12+0982OIFK V0200201N002012200019N0120001N1+01581-00811101531ADDAA199000091GA1021+012009059GF102991021041012501001001MA1999999090451MD1610091+9999REMSYN082AAXX  28121 40785 32662 20202 10158 21081 39045 40153 56009 82400 91150 333 82640;EQDQ01  00002PRCP99
0184407850999992000022815004+33980+051450FM-12+0982OIFK V0209999C000012200019N0120001N1+01401-00721101771ADDGA1011+012009059GF101991011041012501001001KA1120M+01751MA1999999090601MD1210151+9999REMSYN088AAXX  28151 40785 42662 10000 10140 21072 39060 40177 52015 81400 91450 333 10175 81640;
0141407850999992000022818004+33980+051450FM-12+0982OIFK V0209999C000019999999N0120001N1+00881-00501102081ADDAA199000091MA1999999090791MD1210191+9999REMSYN070AAXX  28181 40785 32962 /0000 10088 21050 39079 40208 52019 91750 333;EQDQ01  00002PRCP99
0153407850999992000022821004+33980+051450FM-12+0982OIFK V0209999C000012200019N0120001N1+00841-00461102061ADDGA1001+999999999GF100991001001999999001001MA1999999090881MD1110091+9999REMSYN070AAXX  28211 40785 42962 00000 10084 21046 39088 40206 51009 92050 333;
0172407850999992000022903004+33980+051450FM-12+0982OIFK V0209999C000012200019N0120001N1+00141-00741102521ADDGA1001+999999999GF100991001001999999001001KA1999N+00121MA1999999091111MD1210111+9999REMSYN076AAXX  29031 40785 42962 00000 10014 21074 39111 40252 52011 90250 333 20012;
0195407850999992000022906004+33980+051450FM-12+0982OIFK V0209999C000012200019N0100001N1+00621-00581102781ADDAA124000091GA1001+999999999GF100991001001999999001001MA1999999091341MD1210231+9999REMSYN082AAXX  29061 40785 32960 00000 10062 21058 39134 40278 52023 90550 333 30103 70000;EQDQ01  00002PRCP24
0172407850999992000022915004+33980+051450FM-12+0982OIFK V0209999C000012200019N0120001N1+01221-00481102381ADDGA1001+999999999GF100991001001999999001001KA1999M+01441MA1999999090961MD1610031+9999REMSYN076AAXX  29151 40785 42962 00000 10122 21048 39096 40238 56003 91452 333 10144;
0189407850999992000022918004+33980+051450FM-12+0982OIFK V0209999C000012200019N0100001N1+00861-00461102341ADDAA199000091GA1001+999999999GF100991001001999999001001MA1999999090961MD1410001+9999REMSYN076AAXX  29181 40785 32960 00000 10086 21046 39096 40234 54000 91752 333 55104;EQDQ01  00002PRCP99
0153407850999992000022921004+33980+051450FM-12+0982OIFK V0209999C000012200019N0100001N1+00721-00341102311ADDGA1001+999999999GF100991001001999999001001MA1999999090961MD1410001+9999REMSYN070AAXX  29211 40785 42960 00000 10072 21034 39096 40231 54000 92052 333;
0172407850999992000030103004+33980+051450FM-12+0982OIFK V0209999C000012200019N0100001N1+00201-00371102281ADDGA1001+999999999GF100991001001999999001001KA1999N+00201MA1999999090911MD1410001+9999REMSYN076AAXX  01031 40785 42960 00000 10020 21037 39091 40228 54000 90252 333 20020;
0195407850999992000030106004+33980+051450FM-12+0982OIFK V0209999C000012200019N0100001N1+00761-00391102471ADDAA124000091GA1001+999999999GF100991001001999999001001MA1999999091101MD1210191+9999REMSYN082AAXX  01061 40785 32960 00000 10076 21039 39110 40247 52019 90548 333 30102 70000;EQDQ01  00002PRCP24
0183407850999992000030112004+33980+051450FM-12+0982OIFK V0203301N002012200019N0100001N1+01461-00371101851ADDAA199000091GA1001+999999999GF100991001001999999001001MA1999999090601MD1710271+9999REMSYN070AAXX  01121 40785 32960 03302 10146 21037 39060 40185 57027 91147 333;EQDQ01  00002PRCP99
0209407850999992000030118004+33980+051450FM-12+0982OIFK V0202101N002012200019N0100001N1+01101-00361101471ADDAA199000091GA1041+030009079GF104991041001999999031001GJ106009MA1999999090271MD1810111+9999REMSYN088AAXX  01181 40785 32960 42102 10110 21036 39027 40147 58011 84030 91746 333 55100 84360;EQDQ01  00002PRCP99
0212407850999992000030206004+33980+051450FM-12+0982OIFK V0209999C000010360019N0100001N1+00741-00411101091ADDAA199000091GA1031+012009069GF107991031041012501011001MA1999999089911MD1410001+9999REMSYN099AAXX  02061 40785 32660 70000 10074 21041 38991 40109 54000 83410 90550 333 30005 0000 83640 87460;EQDQ01  00002PRCP99
0171407850999992000030209004+33980+051450FM-12+0982OIFK V0202201N00201036001CN0100001N1+01141-00491100981ADDGA1031+012009069GF106991031041012501071001MA1999999089871MD1610041+9999REMSYN088AAXX  02091 40785 42660 62202 10114 21049 38987 40098 56004 83470 90850 333 83640 86460;
0201407850999992000030212004+33980+051450FM-12+0982OIFK V0202301N00401036001CN0100001N1+01501-00601100861ADDAA199000091GA1021+012009069GF105991021041012501011001MA1999999089791MD1710081+9999REMSYN088AAXX  02121 40785 32660 52304 10150 21060 38979 40086 57008 82410 91150 333 82640 85460;EQDQ01  00002PRCP99
0215407850999992000030218004+33980+051450FM-12+0982OIFK V0209999C00001036001CN0100001N1+00901-00251101681ADDAA199000091GA1021+012009069GF105991021041012501031001GJ102049MA1999999090391MD1210281+9999REMSYN094AAXX  02181 40785 32660 50000 10090 21025 39039 40168 52028 82430 91750 333 55034 82640 85360;EQDQ01  00002PRCP99
0215407850999992000030221004+33980+051450FM-12+0982OIFK V0209999C000010360019N0100001N1+00901-00251101681ADDAA199000091GA1999+012009069GF105991021041012501031001GJ102049MA1999999090391MD1210281+9999REMSYN094AAXX  02211 40785 32660 50000 10090 21025 39039 40168 52028 82430 91750 333 55034 8/640 85360;EQDQ01  00002PRCP99
0183407850999992000030300004+33980+051450FM-12+0982OIFK V0209999C000012200019N0100001N1+00441-00331101661ADDAA199000091GA1001+999999999GF100991001001999999001001MA1999999090441MD1410001+9999REMSYN070AAXX  03001 40785 32960 00000 10044 21033 39044 40166 54000 92350 333;EQDQ01  00002PRCP99
0172407850999992000030303004+33980+051450FM-12+0982OIFK V0209999C000012200019N0120001N1+00301-00451101871ADDGA1001+999999999GF100991001001999999001001KA1999N+00261MA1999999090501MD1310061+9999REMSYN076AAXX  03031 40785 42962 00000 10030 21045 39050 40187 53006 90250 333 20026;
0207407850999992000030306004+33980+051450FM-12+0982OIFK V0209999C000012200019N0120001N1+00941-00521101981ADDAA124000091GA1011+012009029GF101991011011012501001001MA1999999090701MD1210201+9999REMSYN094AAXX  03061 40785 32662 10000 10094 21052 39070 40198 52020 81100 90550 333 30000 70000 81840;EQDQ01  00002PRCP24
0172407850999992000030403004+33980+051450FM-12+0982OIFK V0209999C000012200019N0120001N1+00441-00801102201ADDGA1001+999999999GF100991001001999999001001KA1999N+00001MA1999999097991MD1410001+9999REMSYN076AAXX  04031 40785 42962 00000 10044 21080 39799 40220 54000 90250 333 20000;
0211407850999992000030406004+33980+051450FM-12+0982OIFK V0209999C000012200019N0100001N1+00881-00871102211ADDAA124000091GA1001+999999999GF100991001001999999001001MA1999999090852MD1210061+9999REMSYN082AAXX  04061 40785 32960 00000 10088 21087 39085 40221 52006 90550 333 30105 70000;EQDQ01+090853APOSP Q02  00002PRCP24
0183407850999992000030412004+33980+051450FM-12+0982OIFK V0200701N002012200019N0100001N1+01481-01161101601ADDAA199000091GA1001+999999999GF100991001001999999001001MA1999999090341MD1710361+9999REMSYN070AAXX  04121 40785 32960 00702 10148 21116 39034 40160 57036 91152 333;EQDQ01  00002PRCP99
0177407850999992000030415004+33980+051450FM-12+0982OIFK V0200701N002012200019N0100001N1+99999+99999101601ADDAA199000091GA1001+999999999GF100991001001999999001001MA1999999090341MD1710361+9999REMSYN064AAXX  04151 40785 32960 00702 1/148 21116 39034 40160 57036 333;EQDQ01  00002PRCP99
0189407850999992000030418004+33980+051450FM-12+0982OIFK V0209999C000012200019N0100001N1+00821-00921101411ADDAA199000091GA1001+999999999GF100991001001999999001001MA1999999090171MD1410001+9999REMSYN076AAXX  04181 40785 32960 00000 10082 21092 39017 40141 54000 91750 333 55104;EQDQ01  00002PRCP99
0153407850999992000030421004+33980+051450FM-12+0982OIFK V0209999C000012200019N0100001N1+00661-00891101311ADDGA1001+999999999GF100991001001999999001001MA1999999090121MD1710051+9999REMSYN070AAXX  04211 40785 42960 00000 10066 21089 39012 40131 57005 92052 333;
0183407850999992000030500004+33980+051450FM-12+0982OIFK V0209999C000012200019N0100001N1+00441-00801101171ADDAA199000091GA1001+999999999GF100991001001999999001001MA1999999090001MD1710121+9999REMSYN070AAXX  05001 40785 32960 00000 10044 21080 39000 40117 57012 92350 333;EQDQ01  00002PRCP99
0172407850999992000030503004+33980+051450FM-12+0982OIFK V0209999C000012200019N0150001N1+00161-00801101501ADDGA1001+999999999GF100991001001999999001001KA1999N+00101MA1999999090221MD1310221+9999REMSYN076AAXX  05031 40785 42965 00000 10016 21080 39022 40150 53022 90250 333 20010;
0207407850999992000030506004+33980+051450FM-12+0982OIFK V0209999C000012200019N0150001N1+00941-00901101691ADDAA124000091GA1011+012009029GF101991011011012501001001MA1999999090421MD1210201+9999REMSYN094AAXX  05061 40785 32665 10000 10094 21090 39042 40169 52020 81100 90546 333 30103 70000 81840;EQDQ01  00002PRCP24
0165407850999992000030509004+33980+051450FM-12+0982OIFK V0209999C000012200019N0150001N1+01541-01191101471ADDGA1031+012009059GF103991031041012501001001MA1999999090301MD1810121+9999REMSYN082AAXX  05091 40785 42665 30000 10154 21119 39030 40147 58012 83400 90846 333 83640;
0195407850999992000030512004+33980+051450FM-12+0982OIFK V0203301N003012200019N0150001N1+01641-01331101421ADDAA199000091GA1041+012009059GF104991041041012501001001MA1999999090251MD1610051+9999REMSYN082AAXX  05121 40785 32665 43303 10164 21133 39025 40142 56005 84400 91147 333 84640;EQDQ01  00002PRCP99
0184407850999992000030515004+33980+051450FM-12+0982OIFK V0209999C000012200019N0150001N1+01261-00491101751ADDGA1031+012009059GF103991031041012501001001KA1120M+01651MA1999999090421MD1210171+9999REMSYN088AAXX  05151 40785 42665 30000 10126 21049 39042 40175 52017 83400 91447 333 10165 83640;
0209407850999992000030518004+33980+051450FM-12+0982OIFK V0209999C000012200019N0150001N1+00961-00521101841ADDAA199000091GA1011+012009059GF101991011041012501001001GJ104869MA1999999090591MD1210171+9999REMSYN088AAXX  05181 40785 32665 10000 10096 21052 39059 40184 52017 81400 91747 333 55081 81640;EQDQ01  00002PRCP99
0172407850999992000030603004+33980+051450FM-12+0982OIFK V0209999C000012200019N0150001N1+00221-00601101951ADDGA1001+999999999GF100991001001999999001001KA1999N+00141MA1999999090601MD1310041+9999REMSYN076AAXX  06031 40785 42965 00000 10022 21060 39060 40195 53004 90246 333 20014;
0195407850999992000030606004+33980+051450FM-12+0982OIFK V0209999C000012200019N0100001N1+01061-00641101931ADDAA124000091GA1001+999999999GF100991001001999999001001MA1999999090691MD1110091+9999REMSYN082AAXX  06061 40785 32960 00000 10106 21064 39069 40193 51009 90550 333 30103 70000;EQDQ01  00002PRCP24
0194407850999992000030609004+33980+051450FM-12+0982OIFK V0209999C000012200019N0100001N1+01061-00641101931ADDAA199000091GA1001+999999999GF100991001001999999001001MA1999999090691MD1110091+9999REMSYN081AAXX  06091 40785 32960 00000 10106 21064 39069 40193 51009 90550 333 30103 7000;EQDQ01  00002PRCP99
0183407850999992000030612004+33980+051450FM-12+0982OIFK V0209999C000012200019N0150001N1+01761-00861101391ADDAA199000091GA1001+999999999GF100991001001999999001001MA1999999090231MD1710291+9999REMSYN070AAXX  06121 40785 32965 00000 10176 21086 39023 40139 57029 91150 333;EQDQ01  00002PRCP99
0184407850999992000030615004+33980+051450FM-12+0982OIFK V0209999C000012200019N0150001N1+01541-00961101381ADDGA1021+060009019GF102991001001999999001011KA1120M+01821MA1999999090151MD1710081+9999REMSYN088AAXX  06151 40785 42965 20000 10154 21096 39015 40138 57008 80001 91450 333 10182 82070;
0189407850999992000030618004+33980+051450FM-12+0982OIFK V0209999C000012200019N0100001N1+00901-00721101481ADDAA199000091GA1001+999999999GF100991001001999999001001MA1999999090271MD1110121+9999REMSYN076AAXX  06181 40785 32960 00000 10090 21072 39027 40148 51012 91750 333 55105;EQDQ01  00002PRCP99
0153407850999992000030621004+33980+051450FM-12+0982OIFK V0209999C000012200019N0150001N1+00721-00651101261ADDGA1001+999999999GF100991001001999999001001MA1999999090151MD1710121+9999REMSYN070AAXX  06211 40785 42965 00000 10072 21065 39015 40126 57012 92050 333;
0183407850999992000030700004+33980+051450FM-12+0982OIFK V0209999C000012200019N0100001N1+00541-00471101181ADDAA199000091GA1001+999999999GF100991001001999999001001MA1999999090071MD1710081+9999REMSYN070AAXX  07001 40785 32960 00000 10054 21047 39007 40118 57008 92350 333;EQDQ01  00002PRCP99
0172407850999992000030703004+33980+051450FM-12+0982OIFK V0209999C000012200019N0150001N1+00201-00611101501ADDGA1001+999999999GF100991001001999999001001KA1999N+00181MA1999999090261MD1310191+9999REMSYN076AAXX  07031 40785 42965 00000 10020 21061 39026 40150 53019 90250 333 20018;
0153407850999992000030709004+33980+051450FM-12+0982OIFK V0209999C000012200019N0150001N1+01641-01531101431ADDGA1001+999999999GF100991001001999999001001MA1999999090271MD1810111+9999REMSYN070AAXX  07091 40785 42965 00000 10164 21153 39027 40143 58011 90850 333;
0189407850999992000030718004+33980+051450FM-12+0982OIFK V0209999C000012200019N0150001N1+01041-00871101351ADDAA199000091GA1001+999999999GF100991001001999999001001MA1999999090211MD1110161+9999REMSYN076AAXX  07181 40785 32965 00000 10104 21087 39021 40135 51016 91750 333 55105;EQDQ01  00002PRCP99
0115407850999992000030721004+33980+051450FM-12+0982OIFK V0209999C000019999999N0100001N1+00201-01301101591ADDMD1110061+9999REMSYN070AAXX  07211 40785 /2960 /0000 10020 21130 38447 40159 51006 92050 333;EQDQ01+084473APOSP 
0195407850999992000030800004+33980+051450FM-12+0982OIFK V0209999C000012200019N0150001N1+00601-01161101171ADDAA199000091GA1001+999999999GF100991001001999999001001MA1999999090102MD1810111+9999REMSYN066AAXX  08001 40785 32965 00000 10060 21116 39010 40117 58011 92350;EQDQ01+090103APOSP Q02  00002PRCP99
0172407850999992000030803004+33980+051450FM-12+0982OIFK V0209999C000012200019N0150001N1+00521-01091101341ADDGA1001+999999999GF100991001001999999001001KA1999N+00401MA1999999090211MD1310111+9999REMSYN076AAXX  08031 40785 42965 00000 10052 21109 39021 40134 53011 90250 333 20040;
0184407850999992000030815004+33980+051450FM-12+0982OIFK V0209999C000012200019N0150001N1+01741-00971100901ADDGA1011+012009059GF101991011041012501001001KA1120M+02051MA1999999089831MD1310031+9999REMSYN088AAXX  08151 40785 42665 10000 10174 21097 38983 40090 53003 81400 91450 333 10205 81640;
0189407850999992000030818004+33980+051450FM-12+0982OIFK V0202401N004012200019N0150001N1+01641-00961100851ADDAA199000091GA1001+999999999GF100991001001999999001001MA1999999089891MD1810061+9999REMSYN076AAXX  08181 40785 32965 02404 10164 21096 38989 40085 58006 91752 333 55072;EQDQ01  00002PRCP99
0172407850999992000030903004+33980+051450FM-12+0982OIFK V0202401N005012200019N0150001N1+01381-01301100721ADDGA1001+999999999GF100991001001999999001001KA1999N+01301MA1999999089811MD1310071+9999REMSYN076AAXX  09031 40785 42965 02405 10138 21130 38981 40072 53007 90250 333 20130;
0223407850999992000030906004+33980+051450FM-12+0982OIFK V0200301N002012200019N0090001N1+01081-00891101141ADDAA124000091AY101061AY201061GA1001+999999999GF100991001001999999001001MA1999999090111MD1210301+9999MW1051REMSYN088AAXX  09061 40785 31959 00302 10108 21089 39011 40114 52030 70500 90545 333 30009 70000;EQDQ01  00002PRCP24
0200407850999992000030915004+33980+051450FM-12+0982OIFK V0203201N005012200019N0080001N1+01081-02221101501ADDAY101031AY201031GA1001+999999999GF100991001001999999001001KA1999M+01901MA1999999090371MD1210351+9999MW1071REMSYN082AAXX  09151 40785 41958 03205 10108 21222 39037 40150 52035 70700 91445 333 10190;
0189407850999992000030918004+33980+051450FM-12+0982OIFK V0203601N002012200019N0100001N1+00661-01141101841ADDAA199000091GA1001+999999999GF100991001001999999001001MA1999999090561MD1210191+9999REMSYN076AAXX  09181 40785 32960 03602 10066 21114 39056 40184 52019 91746 333 55078;EQDQ01  00002PRCP99
0183407850999992000031000004+33980+051450FM-12+0982OIFK V0209999C000012200019N0100001N1+00381-01041101761ADDAA199000091GA1001+999999999GF100991001001999999001001MA1999999090561MD1410001+9999REMSYN070AAXX  10001 40785 32960 00000 10038 21104 39056 40176 54000 92346 333;EQDQ01  00002PRCP99
0172407850999992000031003004+33980+051450FM-12+0982OIFK V0209999C000012200019N0100001N1+00001-01111101851ADDGA1001+999999999GF100991001001999999001001KA1999N-00021MA1999999090421MD1410001+9999REMSYN076AAXX  10031 40785 42960 00000 10000 21111 39042 40185 54000 90246 333 21002;
0195407850999992000031006004+33980+051450FM-12+0982OIFK V0209999C000012200019N0100001N1+00881-01301101841ADDAA124000091GA1001+999999999GF100991001001999999001001MA1999999090501MD1110081+9999REMSYN082AAXX  10061 40785 32960 00000 10088 21130 39050 40184 51008 90550 333 30105 70000;EQDQ01  00002PRCP24
0153407850999992000031009004+33980+051450FM-12+0982OIFK V0200901N002012200019N0100001N1+01641-01941101441ADDGA1001+999999999GF100991001001999999001001MA1999999090281MD1810221+9999REMSYN070AAXX  10091 40785 42960 00902 10164 21194 39028 40144 58022 90850 333;
0153407850999992000031012004+33980+051450FM-12+0982OIFK V0200901N002012200019N0100001N1+01641-01941101441ADDGA1001+999999999GF100991001001999999001001MA1999999090281MD1810221+9999REMSYN070AAXX  10121 40785 42960 00902 10164 21194 39028 40144 58022 90850 333;
0172407850999992000031015004+33980+051450FM-12+0982OIFK V0209999C000012200019N0100001N1+01701-01201101211ADDGA1001+999999999GF100991001001999999001001KA1999M+02021MA1999999089991MD1610041+9999REMSYN076AAXX  10151 40785 42960 00000 10170 21120 38999 40121 56004 91450 333 10202;
0183407850999992000031100004+33980+051450FM-12+0982OIFK V0209999C000012200019N0100001N1+00661-01021101261ADDAA199000091GA1001+999999999GF100991001001999999001001MA1999999090151MD1410001+9999REMSYN070AAXX  11001 40785 32960 00000 10066 21102 39015 40126 54000 92350 333;EQDQ01  00002PRCP99
0172407850999992000031103004+33980+051450FM-12+0982OIFK V0209999C000012200019N0100001N1+00441-01301101381ADDGA1001+999999999GF100991001001999999001001KA1999N+00381MA1999999090221MD1210121+9999REMSYN076AAXX  11031 40785 42960 00000 10044 21130 39022 40138 52012 90250 333 20038;
0153407850999992000031106004+33980+051450FM-12+0982OIFK V0209999C000019999999N0120001N1+01261-01341101581ADDAA124000091MA1999999090421MD1210201+9999REMSYN082AAXX  11061 40785 32962 /0000 10126 21134 39042 40158 52020 90550 333 30000 70000;EQDQ01  00002PRCP24
0153407850999992000031109004+33980+051450FM-12+0982OIFK V0209999C000012200019N0120001N1+01801-01011101271ADDGA1001+999999999GF100991001001999999001001MA1999999090231MD1710191+9999REMSYN070AAXX  11091 40785 42962 00000 10180 21101 39023 40127 57019 90850 333;
0189407850999992000031118004+33980+051450FM-12+0982OIFK V0209999C000012200019N0120001N1+01441-01081101161ADDAA199000091GA1001+999999999GF100991001001999999001001MA1999999090131MD1210121+9999REMSYN076AAXX  11181 40785 32962 00000 10144 21108 39013 40116 52012 91750 333 55107;EQDQ01  00002PRCP99
0153407850999992000031121004+33980+051450FM-12+0982OIFK V0202401N004012200019N0120001N1+01401-00801101061ADDGA1001+999999999GF100991001001999999001001MA1999999090131MD1410001+9999REMSYN070AAXX  11211 40785 42962 02404 10140 21080 39013 40106 54000 92050 333;
0183407850999992000031200004+33980+051450FM-12+0982OIFK V0202701N003012200019N0120001N1+01301-00821101031ADDAA199000091GA1001+999999999GF100991001001999999001001MA1999999090131MD1410001+9999REMSYN070AAXX  12001 40785 32962 02703 10130 21082 39013 40103 54000 92350 333;EQDQ01  00002PRCP99
0183407850999992000031212004+33980+051450FM-12+0982OIFK V0200901N003012200019N0100001N1+02101-01321100891ADDAA199000091GA1001+999999999GF100991001001999999001001MA1999999090001MD1710301+9999REMSYN070AAXX  12121 40785 32960 00903 10210 21132 39000 40089 57030 91150 333;EQDQ01  00002PRCP99
0172407850999992000031215004+33980+051450FM-12+0982OIFK V0209999C000012200019N0100001N1+01961-00961101061ADDGA1001+999999999GF100991001001999999001001KA1999M+02241MA1999999090031MD1410001+9999REMSYN076AAXX  12151 40785 42960 00000 10196 21096 39003 40106 54000 91452 333 10224;
0189407850999992000031218004+33980+051450FM-12+0982OIFK V0209999C000012200019N0100001N1+01461-00681101281ADDAA199000091GA1001+999999999GF100991001001999999001001MA1999999090221MD1210191+9999REMSYN076AAXX  12181 40785 32960 00000 10146 21068 39022 40128 52019 91752 333 55107;EQDQ01  00002PRCP99
0153407850999992000031221004+33980+051450FM-12+0982OIFK V0209999C000012200019N0100001N1+01241-00861101151ADDGA1001+999999999GF100991001001999999001001MA1999999090291MD1410001+9999REMSYN070AAXX  12211 40785 42960 00000 10124 21086 39029 40115 54000 92050 333;
0183407850999992000031300004+33980+051450FM-12+0982OIFK V0209999C000012200019N0100001N1+01081-00801101151ADDAA199000091GA1001+999999999GF100991001001999999001001MA1999999090221MD1410001+9999REMSYN070AAXX  13001 40785 32960 00000 10108 21080 39022 40115 54000 92352 333;EQDQ01  00002PRCP99
0172407850999992000031303004+33980+051450FM-12+0982OIFK V0209999C000012200019N0100001N1+00881-00951101321ADDGA1001+999999999GF100991001001999999001001KA1999N+00721MA1999999090271MD1210051+9999REMSYN076AAXX  13031 40785 42960 00000 10088 21095 39027 40132 52005 90252 333 20072;
0195407850999992000031306004+33980+051450FM-12+0982OIFK V0209999C000012200019N0150001N1+01441-00741101031ADDAA124000091GA1001+999999999GF100991001001999999001001MA1999999090151MD1810121+9999REMSYN082AAXX  13061 40785 32965 00000 10144 21074 39015 40103 58012 90546 333 30005 70000;EQDQ01  00002PRCP24
0209407850999992000031318004+33980+051450FM-12+0982OIFK V0209999C000012200019N0150001N1+01601-00761100761ADDAA199000091GA1011+012009059GF101991011041012501001001GJ105229MA1999999089851MD1210121+9999REMSYN088AAXX  13181 40785 32665 10000 10160 21076 38985 40076 52012 81400 91747 333 55087 81640;EQDQ01  00002PRCP99
0183407850999992000031400004+33980+051450FM-12+0982OIFK V0209999C000012200019N0150001N1+00801-00401100961ADDAA199000091GA1001+999999999GF100991001001999999001001MA1999999089961MD1310111+9999REMSYN070AAXX  14001 40785 32965 00000 10080 21040 38996 40096 53011 92346 333;EQDQ01  00002PRCP99
0172407850999992000031403004+33980+051450FM-12+0982OIFK V0209999C000012200019N0150001N1+00621-00481101141ADDGA1001+999999999GF100991001001999999001001KA1999N+00601MA1999999090051MD1210091+9999REMSYN076AAXX  14031 40785 42965 00000 10062 21048 39005 40114 52009 90245 333 20060;
0195407850999992000031406004+33980+051450FM-12+0982OIFK V0209999C000012200019N0100001N1+01201-00511101191ADDAA124000091GA1001+999999999GF100991001001999999001001MA1999999090181MD1110131+9999REMSYN082AAXX  14061 40785 32960 00000 10120 21051 39018 40119 51013 90550 333 30001 70000;EQDQ01  00002PRCP24
0165407850999992000031409004+33980+051450FM-12+0982OIFK V0200601N002012200019N0150001N1+01641-00621100951ADDGA1021+012009059GF102991021041012501001001MA1999999090031MD1710151+9999REMSYN082AAXX  14091 40785 42665 20602 10164 21062 39003 40095 57015 82400 90850 333 82640;
0104407850999992000031412004+33980+051450FM-12+0982OIFK V0209999C000019999999N0150001N1+01801+99999999999ADDAA199000091GF106991999999012501999999REMSYN036AAXX  14121 40785 32665 60000 10180;EQDQ01  00002PRCP99
0184407850999992000031415004+33980+051450FM-12+0982OIFK V0209999C000012200019N0150001N1+01661-00491100881ADDGA1021+030009079GF102991021001999999031001KA1120M+01851MA1999999089811MD1410001+9999REMSYN088AAXX  14151 40785 42965 20000 10166 21049 38981 40088 54000 82030 91450 333 10185 82360;
0189407850999992000031418004+33980+051450FM-12+0982OIFK V0209999C000012200019N0150001N1+01221-00581100941ADDAA199000091GA1001+999999999GF100991001001999999001001MA1999999089891MD1110081+9999REMSYN076AAXX  14181 40785 32965 00000 10122 21058 38989 40094 51008 91750 333 55077;EQDQ01  00002PRCP99
0165407850999992000031421004+33980+051450FM-12+0982OIFK V0209999C000012200019N0150001N1+01161-00551101021ADDGA1021+030009079GF102991021001999999031001MA1999999090021MD1210171+9999REMSYN082AAXX  14211 40785 42965 20000 10116 21055 39002 40102 52017 82030 92050 333 82360;
0183407850999992000031500004+33980+051450FM-12+0982OIFK V0209999C000012200019N0150001N1+00681-00631101231ADDAA199000091GA1001+999999999GF100991001001999999001001MA1999999090161MD1210141+9999REMSYN070AAXX  15001 40785 32965 00000 10068 21063 39016 40123 52014 92350 333;EQDQ01  00002PRCP99
0172407850999992000031503004+33980+051450FM-12+0982OIFK V0209999C000012200019N0100001N1+00461-00721101461ADDGA1001+999999999GF100991001001999999001001KA1999N+00421MA1999999090291MD1210131+9999REMSYN076AAXX  15031 40785 42960 00000 10046 21072 39029 40146 52013 90250 333 20042;
0130407850999992000031506004+33980+051450FM-12+0982OIFK V0202701N007019999999N9999999N1+01501-00671100941ADDMA1999999084772MD1210181+9999REMSYN070AAXX  15061 40785 //70/ /2707 10150 21067 38477 40094 52018 90550 333;EQDQ01+084773APOSP 
0195407850999992000031606004+33980+051450FM-12+0982OIFK V0209999C000012200019N0100001N1+00501-01111102391ADDAA124000091GA1001+999999999GF100991001001999999001001MA1999999090941MD1310141+9999REMSYN082AAXX  16061 40785 32960 00000 10050 21111 39094 40239 53014 90552 333 30102 70000;EQDQ01  00002PRCP24
0153407850999992000031609004+33980+051450FM-12+0982OIFK V0209999C000012200019N0100001N1+00921-01071102301ADDGA1001+999999999GF100991001001999999001001MA1999999090891MD1810051+9999REMSYN070AAXX  16091 40785 42960 00000 10092 21107 39089 40230 58005 90852 333;
0183407850999992000031612004+33980+051450FM-12+0982OIFK V0209999C000012200019N0100001N1+01261-01341101981ADDAA199000091GA1001+999999999GF100991001001999999001001MA1999999090631MD1710261+9999REMSYN070AAXX  16121 40785 32960 00000 10126 21134 39063 40198 57026 91152 333;EQDQ01  00002PRCP99
0189407850999992000031618004+33980+051450FM-12+0982OIFK V0209999C000012200019N0100001N1+00821-00921102051ADDAA199000091GA1001+999999999GF100991001001999999001001MA1999999090661MD1310081+9999REMSYN076AAXX  16181 40785 32960 00000 10082 21092 39066 40205 53008 91752 333 55106;EQDQ01  00002PRCP99
0153407850999992000031621004+33980+051450FM-12+0982OIFK V0209999C000012200019N0100001N1+00641-00801101991ADDGA1001+999999999GF100991001001999999001001MA1999999090661MD1410001+9999REMSYN070AAXX  16211 40785 42960 00000 10064 21080 39066 40199 54000 92052 333;
0183407850999992000031700004+33980+051450FM-12+0982OIFK V0209999C000012200019N0100001N1+00321-00761102001ADDAA199000091GA1001+999999999GF100991001001999999001001MA1999999090661MD1410001+9999REMSYN070AAXX  17001 40785 32960 00000 10032 21076 39066 40200 54000 92350 333;EQDQ01  00002PRCP99
0172407850999992000031703004+33980+051450FM-12+0982OIFK V0209999C000012200019N0100001N1+00121-01001102031ADDGA1001+999999999GF100991001001999999001001KA1999N+00061MA1999999090661MD1410001+9999REMSYN076AAXX  17031 40785 42960 00000 10012 21100 39066 40203 54000 90250 333 20006;
0195407850999992000031706004+33980+051450FM-12+0982OIFK V0209999C000012200019N0150001N1+01021-01001102061ADDAA124000091GA1001+999999999GF100991001001999999001001MA1999999090781MD1310121+9999REMSYN082AAXX  17061 40785 32965 00000 10102 21100 39078 40206 53012 90547 333 30103 70000;EQDQ01  00002PRCP24
0153407850999992000031709004+33980+051450FM-12+0982OIFK V0209999C000012200019N0150001N1+01461-01031101861ADDGA1001+999999999GF100991001001999999001001MA1999999090641MD1710141+9999REMSYN070AAXX  17091 40785 42965 00000 10146 21103 39064 40186 57014 90846 333;
0183407850999992000031712004+33980+051450FM-12+0982OIFK V0209999C000012200019N0150001N1+01741-01231101541ADDAA199000091GA1001+999999999GF100991001001999999001001MA1999999090351MD1710291+9999REMSYN070AAXX  17121 40785 32965 00000 10174 21123 39035 40154 57029 91146 333;EQDQ01  00002PRCP99
0172407850999992000031715004+33980+051450FM-12+0982OIFK V0209999C000012200019N0150001N1+01581-01041101581ADDGA1001+999999999GF100991001001999999001001KA1999M+01801MA1999999090321MD1610031+9999REMSYN076AAXX  17151 40785 42965 00000 10158 21104 39032 40158 56003 91447 333 10180;
0165407850999992000031809004+33980+051450FM-12+0982OIFK V0203201N002012200019N0150001N1+01621-01321101481ADDGA1031+012009059GF103991031041012501001001MA1999999090341MD1810121+9999REMSYN082AAXX  18091 40785 42665 33202 10162 21132 39034 40148 58012 83400 90850 333 83640;
0201407850999992000031812004+33980+051450FM-12+0982OIFK V0209999C00001036001CN0100001N1+01841-01381101081ADDAA199000091GA1031+012009069GF108991031041012501011001MA1999999090001MD1710341+9999REMSYN088AAXX  18121 40785 32660 80000 10184 21138 39000 40108 57034 83410 91150 333 83640 88460;EQDQ01  00002PRCP99
0190407850999992000031815004+33980+051450FM-12+0982OIFK V0209999C00001036001CN0100001N1+01701+00081101151ADDGA1041+012009069GF106991041041012501071001KA1120M+01961MA1999999090001MD1410001+9999REMSYN094AAXX  18151 40785 42660 60000 10170 20008 39000 40115 54000 84470 91450 333 10196 84640 86460;
0202407850999992000031818004+33980+051450FM-12+0982OIFK V0209999C00001036001CN0100001N1+01401+00201101201ADDAA106000191GA1031+012009069GF105991031041012501031001GJ103489MA1999999090151MD1310151+9999REMSYN100AAXX  18181 40785 12660 50000 10140 20020 39015 40120 53015 69911 83430 91750 333 55058 83640 85360;
0195407850999992000031900004+33980+051450FM-12+0982OIFK V0209999C000012200019N0100001N1+01081+00111101181ADDAA199000091GA1041+012009059GF104991041041012501001001MA1999999090151MD1410001+9999REMSYN082AAXX  19001 40785 32660 40000 10108 20011 39015 40118 54000 84400 92350 333 84640;EQDQ01  00002PRCP99
0184407850999992000031903004+33980+051450FM-12+0982OIFK V0209999C000012200019N0150001N1+00601-00101101271ADDGA1031+012009059GF103991031041012501001001KA1120N+00601MA1999999090191MD1310041+9999REMSYN088AAXX  19031 40785 42665 30000 10060 21010 39019 40127 53004 83400 90250 333 20060 83640;
0165407850999992000031909004+33980+051450FM-12+0982OIFK V0209999C000012200019N0150001N1+01801-00031101251ADDGA1031+012009059GF103991031041012501001001MA1999999090281MD1810091+9999REMSYN082AAXX  19091 40785 42665 30000 10180 21003 39028 40125 58009 83400 90850 333 83640;
0195407850999992000031912004+33980+051450FM-12+0982OIFK V0209999C000012200019N0150001N1+02181-00041101041ADDAA199000091GA1031+012009059GF103991031041012501001001MA1999999090091MD1710191+9999REMSYN082AAXX  19121 40785 32665 30000 10218 21004 39009 40104 57019 83400 91150 333 83640;EQDQ01  00002PRCP99
0184407850999992000031915004+33980+051450FM-12+0982OIFK V0209999C000012200019N0150001N1+02021+00111101231ADDGA1021+012009059GF102991021041012501001001KA1120M+02251MA1999999090181MD1310091+9999REMSYN088AAXX  19151 40785 42665 20000 10202 20011 39018 40123 53009 82400 91450 333 10225 82640;
0209407850999992000031918004+33980+051450FM-12+0982OIFK V0209999C000012200019N0100001N1+01661+00141101381ADDAA199000091GA1021+012009059GF102991021041012501001001GJ105529MA1999999090391MD1210211+9999REMSYN088AAXX  19181 40785 32660 20000 10166 20014 39039 40138 52021 82400 91752 333 55092 82640;EQDQ01  00002PRCP99
0153407850999992000032000004+33980+051450FM-12+0982OIFK V0209999C000012200019N0100001N1+01041-00131999999ADDAA199000091GA1001+999999999GF100991001001999999001001REMSYN069AAXX  20001 40785 32960 00000 10104 21013 3948 40145 54000 92350 333;EQDQ01  00002PRCP99
0169407850999992000032003004+33980+051450FM-12+0982OIFK V0209999C000012200019N0100001N1+01041-00901999999ADDAA199000091GA1001+999999999GF100991001001999999001001MA1999999090481REMSYN070AAXX  20031 40785 32960 00000 10104 2109/ 39048 401=5 54000 92350 333;EQDQ01  00002PRCP99
0209407850999992000032018004+33980+051450FM-12+0982OIFK V0209999C000012200019N0150001N1+01621-00841101451ADDAA199000091GA1021+012009059GF102991021041012501001001GJ106009MA1999999090551MD1210131+9999REMSYN088AAXX  20181 40785 32665 20000 10162 21084 39055 40145 52013 82400 91750 333 55100 82640;EQDQ01  00002PRCP99
0195407850999992000032112004+33980+051450FM-12+0982OIFK V0209999C000012200019N0150001N1+02361-00461101321ADDAA199000091GA1031+060009019GF103991001001999999001011MA1999999090401MD1710321+9999REMSYN082AAXX  21121 40785 32965 30000 10236 21046 39040 40132 57032 80001 91146 333 83070;EQDQ01  00002PRCP99
0184407850999992000032115004+33980+051450FM-12+0982OIFK V0203601N004010600019N0150001N1+02101-00851101371ADDGA1051+060009019GF105991001001999999001011KA1120M+02421MA1999999090401MD1410001+9999REMSYN088AAXX  21151 40785 42965 53604 10210 21085 39040 40137 54000 80001 91445 333 10242 85070;
0171407850999992000032209004+33980+051450FM-12+0982OIFK V0209999C00001090001CN0150001N1+02221-00331101081ADDGA1021+012009069GF107991021041012501001071MA1999999090251MD1710361+9999REMSYN088AAXX  22091 40785 42665 70000 10222 21033 39025 40108 57036 82407 90850 333 82640 87270;
0201407850999992000032212004+33980+051450FM-12+0982OIFK V0201001N00401090001CN0150001N1+02461-00561100661ADDAA199000091GA1031+012009069GF107991031041012501001071MA1999999089931MD1710321+9999REMSYN088AAXX  22121 40785 32665 71004 10246 21056 38993 40066 57032 83407 91150 333 83640 87270;EQDQ01  00002PRCP99
0168407850999992000032215004+33980+051450FM-12+0982OIFK V0209999C000010360019N0120001N1+02301-00051100731ADDGF108991041031012501011999KA1120M+02601MA1999999089931MD1410001+9999REMSYN088AAXX  22151 40785 42662 80000 10230 21005 38993 40073 54000 8431/ 91450 333 10260 218/8;
0215407850999992000032218004+33980+051450FM-12+0982OIFK V0209999C00001220001CN0120001N1+01192+00171100771ADDAA199000091GA1021+012009069GF106991021041012501001011GJ101929MA1999999089991MD1310061+9999REMSYN094AAXX  22181 40785 32662 60000 10119 20017 38999 40077 53006 82401 91750 333 55032 82640 86070;EQDQ01  00002PRCP99
0223407850999992000032300004+33980+051450FM-12+0982OIFK V0203401N005010300019N0120001N1+01901+00281100751ADDAA199000091GA1021+012009069GA2051+030009039GF107991021041012501071011MA1999999090041MD1610041+9999REMSYN094AAXX  23001 40785 32662 73405 10190 20028 39004 40075 56004 82471 92350 333 82640 85360 87070;EQDQ01  00002PRCP99
0201407850999992000032312004+33980+051450FM-12+0982OIFK V0209999C00001036001CN0120001N1+01901+00931100831ADDAA199000091GA1031+012009069GF106991031031012501041001MA1999999090071MD1810151+9999REMSYN088AAXX  23121 40785 32662 60000 10190 20093 39007 40083 58015 83340 91150 333 83640 86270;EQDQ01  00002PRCP99
0177407850999992000032403004+33980+051450FM-12+0982OIFK V0209999C000019999999N0120001N1+01461+00641100591ADDGA1031+012009069GF107991031041999999001071MA1999999089721MD1410001+9999REMSYN094AAXX  24031 40785 42962 70000 10146 20064 38972 40059 54000 83407 90250 333 30136 83640 87270;
0200407850999992000032406004+33980+051450FM-12+0982OIFK V0209999C00001090001CN0120001N1+01641+00701100591ADDAA124000391GA1031+012009069GF107991031041012501001071MA1999999089751MD1110031+9999REMSYN106AAXX  24061 40785 32662 70000 10164 20070 38975 40059 51003 83407 90550 333 30012 50531 70003 83640 87270;
0193407850999992000032409004+33980+051450FM-12+0982OIFK V0202501N005010300019N0100001N1+02081+00441100171ADDGA1031+012009069GA2051+030009039GF108991031041012501071071MA1999999089421MD1710331+9999REMSYN094AAXX  24091 40785 42660 82505 10208 20044 38942 40017 57033 83477 90852 333 83640 85360 88270;
0194407850999992000032411004+33980+051450FM-12+0982OIFK V0200901N00401036001CN0120001N1+02221+99999999999ADDAA199000091GA1031+012009069GF107991031041012501031001GJ100369MD1310111+9999REMSYN088AAXX  24111 40785 32662 70904 10222 21//9 49/91 53011 83430 91750 333 55006 83640 87360;EQDQ01  00002PRCP99
0223407850999992000032412004+33980+051450FM-12+0982OIFK V0203201N004010300019N0100001N1+02661-00511099881ADDAA199000091GA1031+012009069GA2051+030009039GF107991031041012501071071MA1999999089241MD1610181+9999REMSYN094AAXX  24121 40785 32660 73204 10266 21051 38924 49988 56018 83477 91152 333 83640 85360 87270;EQDQ01  00002PRCP99
0190407850999992000032415004+33980+051450FM-12+0982OIFK V0203401N00401036001CN0100001N1+02481-00661099851ADDGA1031+012009069GF107991031041012501071001KA1120M+02701MA1999999089181MD1810061+9999REMSYN094AAXX  24151 40785 42660 73404 10248 21066 38918 49985 58006 83470 91452 333 10270 83640 87360;
0215407850999992000032418004+33980+051450FM-12+0982OIFK V0200901N00401036001CN0120001N1+02221-00651099981ADDAA199000091GA1031+012009069GF107991031041012501031001GJ100369MA1999999089291MD1310111+9999REMSYN094AAXX  24181 40785 32662 70904 10222 21065 38929 49998 53011 83430 91750 333 55006 83640 87360;EQDQ01  00002PRCP99
0171407850999992000032421004+33980+051450FM-12+0982OIFK V0209999C00001036001CN0120001N1+02181-00361100081ADDGA1031+012009069GF105991031041012501031001MA1999999089451MD1210161+9999REMSYN088AAXX  24211 40785 42662 50000 10218 21036 38945 40008 52016 83430 92050 333 83640 85360;
0201407850999992000032500004+33980+051450FM-12+0982OIFK V0209999C00001036001CN0100001N1+01181-00261100061ADDAA199000091GA1031+012009069GF105991031041012501031001MA1999999089451MD1410001+9999REMSYN088AAXX  25001 40785 32660 50000 10118 21026 38945 40006 54000 83430 92352 333 83640 85360;EQDQ01  00002PRCP99
0225407850999992000032503004+33980+051450FM-12+0982OIFK V0202001N005012200019N0120001N1+01841-00431100401ADDGA1011+012009069GF103991011041012501031001KA1120N+01701MA1999999089971MD1210341+9999REMSYN094AAXX  25031 40785 42662 32005 10184 21043 38997 40040 55302 81430 90255 333 20170 81640 83336;EQDQ01+000052APCTENQ02+003022APC3  
0213407850999992000032506004+33980+051450FM-12+0982OIFK V0209999C000012200019N0120001N1+01641-00421100821ADDAA124000091GA1021+012009059GF102991021041012501001001MA1999999090041MD1210311+9999REMSYN100AAXX  25061 40785 32662 20000 10164 21042 39004 40082 52031 82400 90546 333 30014 50841 70000 82640;EQDQ01  00002PRCP24
0165407850999992000032509004+33980+051450FM-12+0982OIFK V0202701N011012200019N0150001N1+02281-01882100541ADDGA1011+012009059GF101991011041012501001001MA1999999089881MD1710161+9999REMSYN082AAXX  25091 40785 42665 12711 10228 21188 38988 40054 57016 81400 90846 333 81640;
0172407850999992000032515004+33980+051450FM-12+0982OIFK V0203001N003012200019N0150001N1+02161-01581100681ADDGA1001+999999999GF100991001001999999001001KA1999M+02521MA1999999089941MD1210181+9999REMSYN076AAXX  25151 40785 42965 03003 10216 21158 38994 40068 52018 91445 333 10252;
0221407850999992000032518004+33980+051450FM-12+0982OIFK V0209999C000012200019N0150001N1+01461-00382101382ADDAA199000091GA1001+999999999GF100991001001999999001001MA1999999090391MD1210451+9999REMSYN076AAXX  25181 40785 32965 00000 10146 21038 39039 40138 52045 91745 333 55103;EQDQ01-000383ATOD  Q02+101383APOSLPQ03  00002PRCP99
0153407850999992000032609004+33980+051450FM-12+0982OIFK V0209999C000012200019N0150001N1+01821-00331101631ADDGA1001+999999999GF100991001001999999001001MA1999999090591MD1810111+9999REMSYN070AAXX  26091 40785 42965 00000 10182 21033 39059 40163 58011 90850 333;
0195407850999992000032612004+33980+051450FM-12+0982OIFK V0209999C000012200019N0150001N1+01961-00161101381ADDAA199000091GA1011+012009059GF101991011041012501001001MA1999999090351MD1710241+9999REMSYN082AAXX  26121 40785 32665 10000 10196 21016 39035 40138 57024 81400 91150 333 81640;EQDQ01  00002PRCP99
0189407850999992000032618004+33980+051450FM-12+0982OIFK V0209999C000012200019N0150001N1+01441-00681101701ADDAA199000091GA1001+999999999GF100991001001999999001001MA1999999090631MD1210221+9999REMSYN076AAXX  26181 40785 32965 00000 10144 21068 39063 40170 52022 91750 333 55106;EQDQ01  00002PRCP99
0213407850999992000032706004+33980+051450FM-12+0982OIFK V0209999C000012200019N0150001N1+01101-00691102311ADDAA124000091GA1031+030009079GF103991031001999999031001MA1999999091111MD1110111+9999REMSYN100AAXX  27061 40785 32965 30000 10110 21069 39111 40231 51011 83030 90548 333 30002 50701 70000 83360;EQDQ01  00002PRCP24
0165407850999992000032709004+33980+051450FM-12+0982OIFK V0203601N002012200019N0150001N1+01501-00781102091ADDGA1031+012009029GF103991031011012501001001MA1999999090971MD1810141+9999REMSYN082AAXX  27091 40785 42665 33602 10150 21078 39097 40209 58014 83100 90847 333 83840;
0201407850999992000032712004+33980+051450FM-12+0982OIFK V0200601N00201036001CN0150001N1+01761-00501101771ADDAA199000091GA1031+012009069GF105991031041012501031001MA1999999090671MD1710301+9999REMSYN088AAXX  27121 40785 32665 50602 10176 21050 39067 40177 57030 83430 91146 333 83640 85360;EQDQ01  00002PRCP99
0190407850999992000032715004+33980+051450FM-12+0982OIFK V0209999C000012200019N0150001N1+01701-00321101851ADDGA1021+012009069GF103991021041012501031001KA1120M+01841MA1999999090651MD1610021+9999REMSYN094AAXX  27151 40785 42665 30000 10170 21032 39065 40185 56002 82430 91448 333 10184 82640 83360;
0219407850999992000032806004+33980+051450FM-12+0982OIFK V0209999C000012200019N0120001N1+01421-00361101991ADDAA124000091GA1011+012009069GF103991011041012501031001MA1999999090881MD1210161+9999REMSYN106AAXX  28061 40785 32662 30000 10142 21036 39088 40199 52016 81430 90550 333 30004 50531 70000 81640 83360;EQDQ01  00002PRCP24
0165407850999992000032809004+33980+051450FM-12+0982OIFK V0209999C000012200019N0100001N1+01841-00311101731ADDGA1021+012009059GF102991021041012501001001MA1999999090701MD1810181+9999REMSYN082AAXX  28091 40785 42660 20000 10184 21031 39070 40173 58018 82400 90850 333 82640;
0195407850999992000032812004+33980+051450FM-12+0982OIFK V0209999C000012200019N0150001N1+02061-00321101541ADDAA199000091GA1041+012009059GF104991041041012501001001MA1999999090461MD1710241+9999REMSYN082AAXX  28121 40785 32665 40000 10206 21032 39046 40154 57024 84400 91150 333 84640;EQDQ01  00002PRCP99
0184407850999992000032815004+33980+051450FM-12+0982OIFK V0203501N003012200019N0150001N1+01901-00581101671ADDGA1041+012009059GF104991041041012501001001KA1120M+02101MA1999999090411MD1610051+9999REMSYN088AAXX  28151 40785 42665 43503 10190 21058 39041 40167 56005 84400 91452 333 10210 84640;
0209407850999992000032818004+33980+051450FM-12+0982OIFK V0209999C000012200019N0150001N1+01581-00531101591ADDAA199000091GA1021+012009059GF102991021041012501001001GJ105589MA1999999090571MD1310161+9999REMSYN088AAXX  28181 40785 32665 20000 10158 21053 39057 40159 53016 82400 91750 333 55093 82640;EQDQ01  00002PRCP99
0165407850999992000032821004+33980+051450FM-12+0982OIFK V0209999C000012200019N0150001N1+01401-00421101541ADDGA1021+012009059GF102991021041012501001001MA1999999090571MD1410001+9999REMSYN082AAXX  28211 40785 42665 20000 10140 21042 39057 40154 54000 82400 92050 333 82640;
0195407850999992000032912004+33980+051450FM-12+0982OIFK V0209999C000012200019N0150001N1+02241-00551101301ADDAA199000091GA1031+012009029GF103991031021012501001001MA1999999090371MD1710201+9999REMSYN082AAXX  29121 40785 32665 30000 10224 21055 39037 40130 57020 83200 91146 333 83840;EQDQ01  00002PRCP99
0213407850999992000033006004+33980+051450FM-12+0982OIFK V0203001N002012200019N0150001N1+01681-00641101631ADDAA124000091GA1021+012009029GF102991021011012501001001MA1999999090621MD1210121+9999REMSYN100AAXX  30061 40785 32665 23002 10168 21064 39062 40163 52012 82100 90550 333 30004 50631 70000 82840;EQDQ01  00002PRCP24
0183407850999992000033021004+33980+051450FM-12+0982OIFK V0209999C000012200019N0150001N1+01221-00301101161ADDAA199000091GA1001+999999999GF100991001001999999001001MA1999999090261MD1410001+9999REMSYN070AAXX  30211 40785 32965 00000 10122 21030 39026 40116 54000 92350 333;EQDQ01  00002PRCP99
0183407850999992000033100004+33980+051450FM-12+0982OIFK V0209999C000012200019N0150001N1+01221-00301101161ADDAA199000091GA1001+999999999GF100991001001999999001001MA1999999090261MD1410001+9999REMSYN070AAXX  31001 40785 32965 00000 10122 21030 39026 40116 54000 92350 333;EQDQ01  00002PRCP99
0156407850999992000040109004+33980+051450FM-12+0982OIFK V0202201N002012200019N0100001N1+99999+99999101551ADDGA1021+012009089GF104991021011012501001011MD1810121+9999REMSYN088AAXX  01091 40785 42660 42202 1/228 21091 39/62 40155 58012 82101 90850 333 82840 84070;
0171407850999992000040112004+33980+051450FM-12+0982OIFK V0202201N002012200019N0100001N1+02281-00911101551ADDGA1021+012009089GF104991021011012501001011MA1999999090621MD1810121+9999REMSYN088AAXX  01121 40785 42660 42202 10228 21091 39062 40155 58012 82101 90850 333 82840 84070;
0188407850999992000040115004+33980+051450FM-12+0982OIFK V0209999C000012200019N0150001N1+02341-00851101381ADDGA1021+060009019GF102991001001999999001011KA1120M+02501MD1410001+9999REMSYN088AAXX  01151 40785 42965 20000 10234 21085 39002 40138 54000 80001 91450 333 10250 82070;EQDQ01+090023APOSP 
0189407850999992000040118004+33980+051450FM-12+0982OIFK V0209999C000012200019N0150001N1+01701-00691101521ADDAA199000091GA1001+999999999GF100991001001999999001001MA1999999090621MD1210201+9999REMSYN076AAXX  01181 40785 32965 00000 10170 21069 39062 40152 52020 91750 333 55111;EQDQ01  00002PRCP99
0183407850999992000040200004+33980+051450FM-12+0982OIFK V0209999C000012200019N0150001N1+01221-00591101571ADDAA199000091GA1001+999999999GF100991001001999999001001MA1999999090671MD1410001+9999REMSYN070AAXX  02001 40785 32965 00000 10122 21059 39067 40157 54000 92350 333;EQDQ01  00002PRCP99
0172407850999992000040203004+33980+051450FM-12+0982OIFK V0209999C000012200019N0150001N1+01021-00381101801ADDGA1001+999999999GF100991001001999999001001KA1999N+00981MA1999999090801MD1310131+9999REMSYN076AAXX  02031 40785 42965 00000 10102 21038 39080 40180 53013 90250 333 20098;
0201407850999992000040206004+33980+051450FM-12+0982OIFK V0209999C000012200019N0150001N1+02141-00311101861ADDAA124000091GA1001+999999999GF100991001001999999001001MA1999999090971MD1210171+9999REMSYN088AAXX  02061 40785 32965 00000 10214 21031 39097 40186 52017 90550 333 30006 50731 70000;EQDQ01  00002PRCP24
0211407850999992000040212004+33980+051450FM-12+0982OIFK V0209999C000012200019N0150001N1+02561-00481101451ADDAA199000091GA1999+000159999GF103991001001999999001011MA1999999090591MD1710271+9999REMSYN082AAXX  02121 40785 32965 30000 10256 21048 39059 40145 57027 80001 91146 333 8070/;EQDQ01  00002PRCP99Q02    003SCCGA1
0207407850999992000040306004+33980+051450FM-12+0982OIFK V0209999C000012200019N0100001N1+01841-00561101741ADDAA124000091GA1041+060009019GF104991999999999999999999MA1999999090801MD1310131+9999REMSYN094AAXX  03061 40785 32960 40000 10184 21056 39080 40174 53013 90550 333 30007 50121 70000 84070;EQDQ01  00002PRCP24
0171407850999992000040309004+33980+051450FM-12+0982OIFK V0209999C00001220001CN0150001N1+02341-01011101481ADDGA1021+012009089GF105991021011012501001011MA1999999090621MD1810181+9999REMSYN088AAXX  03091 40785 42665 50000 10234 21101 39062 40148 58018 82101 90850 333 82840 85070;
0201407850999992000040312004+33980+051450FM-12+0982OIFK V0209999C00001220001CN0150001N1+02721-00701101201ADDAA199000091GA1031+012009089GF105991031011012501001011MA1999999090381MD1710241+9999REMSYN088AAXX  03121 40785 32665 50000 10272 21070 39038 40120 57024 83101 91150 333 83840 85070;EQDQ01  00002PRCP99
0190407850999992000040315004+33980+051450FM-12+0982OIFK V0209999C00001220001CN0150001N1+02421-00601101161ADDGA1021+012009069GF105991021041012501001011KA1120M+02761MA1999999090321MD1610061+9999REMSYN094AAXX  03151 40785 42665 50000 10242 21060 39032 40116 56006 82401 91450 333 10276 82640 85070;
0153407850999992000040321004+33980+051450FM-12+0982OIFK V0209999C000012200019N0100001N1+01601-00401101211ADDGA1001+999999999GF100991001001999999001001MA1999999090361MD1310041+9999REMSYN070AAXX  03211 40785 42960 00000 10160 21040 39036 40121 53004 92050 333;
0173407850999992000040400004+33980+051450FM-12+0982OIFK V0209999C000012200019N0100001N1+01321-00261101211ADDAA199000091GA1001+999999999GF100991001001999999001001MA1999999090361MD1410001+9999REMSYN060AAXX  04001 40785 32960 00000 10132 21026 39036 40121 54000;EQDQ01  00002PRCP99
0152407850999992000040403004+33980+051450FM-12+0982OIFK V0209999C000019999999N0150001N1+99999+99999101371ADDGA1031+012009059KA1120N+01521MA1999999090541MD1210111+9999REMSYN082AAXX  04031 40785 42665 /0000 21048 39054 40137 52011 83400 90250 333 20152 83640;
0229407850999992000040406004+33980+051450FM-12+0982OIFK V0203301N003012200019N0150001N1+02001-01251101671ADDAA124000091GA1031+012009059GF199999021041012501001001MA1999999090761MD1210221+9999REMSYN100AAXX  04061 40785 32665 23303 10200 21125 39076 40167 52022 82400 90550 333 30012 50621 70000 83640;EQDQ01+000022SCOTCVQ02  00002PRCP24
0153407850999992000040421004+33980+051450FM-12+0982OIFK V0209999C000012200019N0150001N1+01761-00191101491ADDGA1001+999999999GF100991001001999999001001MA1999999090641MD1110071+9999REMSYN070AAXX  04211 40785 42965 00000 10176 21019 39064 40149 51007 92050 333;
0184407850999992000040503004+33980+051450FM-12+0982OIFK V0209999C000012200019N0150001N1+01181+00321101441ADDGA1031+060009019GF103991001001999999001011KA1120N+01161MA1999999090561MD1310041+9999REMSYN088AAXX  05031 40785 42965 30000 10118 20032 39056 40144 53004 80001 90250 333 20116 83070;
0171407850999992000040509004+33980+051450FM-12+0982OIFK V0201201N00301220001CN0150001N1+02581-00121101201ADDGA1021+012009089GF105991021011012501001011MA1999999090441MD1810161+9999REMSYN088AAXX  05091 40785 42665 51203 10258 21012 39044 40120 58016 82101 90850 333 82840 85070;
0201407850999992000040512004+33980+051450FM-12+0982OIFK V0209999C00001220001CN0150001N1+02661-00411100961ADDAA199000091GA1021+012009089GF105991021011012501001011MA1999999090191MD1710251+9999REMSYN088AAXX  05121 40785 32665 50000 10266 21041 39019 40096 57025 82101 91150 333 82840 85070;EQDQ01  00002PRCP99
0190407850999992000040515004+33980+051450FM-12+0982OIFK V0209999C00001220001CN0100001N1+02481-00181101001ADDGA1021+012009069GF105991021041012501001011KA1120M+02701MA1999999090161MD1610031+9999REMSYN094AAXX  05151 40785 42660 50000 10248 21018 39016 40100 56003 82401 91450 333 10270 82640 85070;
0189407850999992000040518004+33980+051450FM-12+0982OIFK V0209999C000012200019N0100001N1+02001-00181100921ADDAA199000091GA1001+999999999GF100991001001999999001001MA1999999090161MD1410001+9999REMSYN076AAXX  05181 40785 32960 00000 10200 21018 39016 40092 54000 91750 333 55103;EQDQ01  00002PRCP99
0157407850999992000040521004+33980+051450FM-12+0982OIFK V0209999C000012200019N0150001N1+01821+00001100911ADDGA1001+999999999GF100991001001999999001001MD1110061+9999REMSYN070AAXX  05211 40785 42965 00000 10182 20000 37022 40091 51006 92050 333;EQDQ01+070223APOSP 
0139407850999992000040603004+33980+051450FM-12+0982OIFK V0209999C000012200019N0150001N1+01341-00221100941ADDGF103991001001999999001011MA1999999090151MD1410001+9999REMSYN072AAXX  06031 40785 42965 30000 10134 21022 39015 40094 54000 80001 90250;
0201407850999992000040606004+33980+051450FM-12+0982OIFK V0200201N002012200019N0100001N1+01941-00171101061ADDAA124000091GA1001+999999999GF100991001001999999001001MA1999999090271MD1210121+9999REMSYN088AAXX  06061 40785 32960 00202 10194 21017 39027 40106 52012 90550 333 30009 50601 70000;EQDQ01  00002PRCP24
0189407850999992000040618004+33980+051450FM-12+0982OIFK V0209999C000012200019N0150001N1+02061-00201100761ADDAA199000091GA1001+999999999GF100991001001999999001001MA1999999090001MD1310141+9999REMSYN076AAXX  06181 40785 32965 00000 10206 21020 39000 40076 53014 91745 333 55110;EQDQ01  00002PRCP99
0183407850999992000040700004+33980+051450FM-12+0982OIFK V0209999C000012200019N0150001N1+01841-00431100711ADDAA199000091GA1001+999999999GF100991001001999999001001MA1999999090061MD1410001+9999REMSYN070AAXX  07001 40785 32965 00000 10184 21043 39006 40071 54000 92346 333;EQDQ01  00002PRCP99
0172407850999992000040703004+33980+051450FM-12+0982OIFK V0209999C000012200019N0150001N1+01761-00441100851ADDGA1001+999999999GF100991001001999999001001KA1999N+01601MA1999999090141MD1110081+9999REMSYN076AAXX  07031 40785 42965 00000 10176 21044 39014 40085 51008 90246 333 20160;
0201407850999992000040706004+33980+051450FM-12+0982OIFK V0202401N003012200019N0150001N1+02481-00451101051ADDAA124000091GA1001+999999999GF100991001001999999001001MA1999999090341MD1210201+9999REMSYN088AAXX  07061 40785 32965 02403 10248 21045 39034 40105 52020 90550 333 30012 50781 70000;EQDQ01  00002PRCP24
0211407850999992000040712004+33980+051450FM-12+0982OIFK V0209999C000012200019N0150001N1+03041-00911100531ADDAA199000091GA1011+012009029GF101991011011012501001001MA1999999089502MD1710211+9999REMSYN082AAXX  07121 40785 32665 10000 10304 21091 3895/ 40053 57021 81100 91150 333 81840;EQDQ01+089503APOSP Q02  00002PRCP99
0209407850999992000040718004+33980+051450FM-12+0982OIFK V0209999C000012200019N0150001N1+02241-00641100771ADDAA199000091GA1031+060009019GF103991001001999999001011GJ106669MA1999999090121MD1210171+9999REMSYN088AAXX  07181 40785 32965 30000 10224 21064 39012 40077 52017 80001 91750 333 55111 83070;EQDQ01  00002PRCP99
0153407850999992000040721004+33980+051450FM-12+0982OIFK V0209999C000012200019N0100001N1+02021-00481100801ADDGA1001+999999999GF100991001001999999001001MA1999999090181MD1110061+9999REMSYN070AAXX  07211 40785 42960 00000 10202 21048 39018 40080 51006 92050 333;
0190407850999992000040803004+33980+051450FM-12+0982OIFK V0209999C000012200019N0150001N1+01701+00361101041ADDGA1011+012009069GF103991011041012501001011KA1120N+01601MA1999999090351MD1210111+9999REMSYN094AAXX  08031 40785 42665 30000 10170 20036 39035 40104 52011 81401 90250 333 20160 81640 83070;
0241407850999992000040806004+33980+051450FM-12+0982OIFK V0209999C00001090001CN0100001N1+02421+00241101171ADDAA124000091GA1011+010509099GA2041+012009069GF107991011031012501001071MA1999999090481MD1210131+9999REMSYN112AAXX  08061 40785 32660 70000 10242 20024 39048 40117 52013 81307 90550 333 30013 50801 70000 81935 84640 86270;EQDQ01  00002PRCP24
0171407850999992000040809004+33980+051450FM-12+0982OIFK V0209999C00001090001CN0100001N1+02901+00151100991ADDGA1041+012009069GF106991041041012501001071MA1999999090351MD1710131+9999REMSYN088AAXX  08091 40785 42660 60000 10290 20015 39035 40099 57013 84407 90850 333 84640 86270;
0212407850999992000040815004+33980+051450FM-12+0982OIFK V0203301N00201012001CN0100001N1+02761+00031100841ADDGA1021+010509099GA2031+012009069GF106991021031012501001071KA1120M+03151MA1999999090151MD1310101+9999REMSYN100AAXX  08151 40785 42660 63302 10276 20003 39015 40084 53010 82307 91450 333 10315 82935 83640 86270;
0215407850999992000040818004+33980+051450FM-12+0982OIFK V0209999C00001220001CN0100001N1+02281+00391100971ADDAA199000091GA1031+012009069GF105991031041012501001061GJ102409MA1999999090301MD1210151+9999REMSYN094AAXX  08181 40785 32660 50000 10228 20039 39030 40097 52015 83406 91750 333 55040 83640 85270;EQDQ01  00002PRCP99
0171407850999992000040821004+33980+051450FM-12+0982OIFK V0209999C00001220001CN0100001N1+02201+00581101021ADDGA1031+012009069GF105991031041012501001061MA1999999090411MD1210111+9999REMSYN088AAXX  08211 40785 42660 50000 10220 20058 39041 40102 52011 83406 92050 333 83640 85270;
0190407850999992000040903004+33980+051450FM-12+0982OIFK V0209999C000012200019N0120001N1+01681+00601101081ADDGA1011+012009069GF104991011041012501001061KA1120N+01601MA1999999090061MD1810101+9999REMSYN094AAXX  09031 40785 42662 40000 10168 20060 39006 40108 58010 81406 90550 333 20160 81640 84270;
0219407850999992000040906004+33980+051450FM-12+0982OIFK V0209999C00001220001CN0120001N1+02401+00741100961ADDAA124000091GA1021+012009069GF105991021041012501001011MA1999999090311MD1110051+9999REMSYN106AAXX  09061 40785 32662 50000 10240 20074 39031 40096 51005 82401 90550 333 30014 50801 70000 82640 85070;EQDQ01  00002PRCP24
0171407850999992000040909004+33980+051450FM-12+0982OIFK V0209999C00001220001CN0120001N1+02761+00461100711ADDGA1031+012009069GF105991021041012501001011MA1999999090121MD1710191+9999REMSYN088AAXX  09091 40785 42662 50000 10276 20046 39012 40071 57019 82401 90852 333 83640 85070;
0217407850999992000040912004+33980+051450FM-12+0982OIFK V0200301N002012200019N0150001N1+02681+00521100851ADDAA199000091GA1041+012009069GF199999041041012501071001MA1999999090221MD1110101+9999REMSYN088AAXX  09121 40785 32665 10302 10268 20052 39022 40085 51010 84470 91150 333 84640 86360;EQDQ01+000012SCOTCVQ02  00002PRCP99
0190407850999992000040915004+33980+051450FM-12+0982OIFK V0201001N00201220001CN0120001N1+02501+00621100791ADDGA1031+012009069GF105991031041012501001011KA1120M+02841MA1999999090071MD1610151+9999REMSYN094AAXX  09151 40785 42662 51002 10250 20062 39007 40079 56015 83401 91450 333 10284 83640 85070;
0153407850999992000040921004+33980+051450FM-12+0982OIFK V0209999C000012200019N0100001N1+01901+00661100761ADDGA1001+999999999GF100991001001999999001001MA1999999090151MD1410001+9999REMSYN070AAXX  09211 40785 42960 00000 10190 20066 39015 40076 54000 92050 333;
0183407850999992000041000004+33980+051450FM-12+0982OIFK V0209999C000012200019N0100001N1+01781+00521100791ADDAA199000091GA1001+999999999GF100991001001999999001001MA1999999090151MD1410001+9999REMSYN070AAXX  10001 40785 32960 00000 10178 20052 39015 40079 54000 92350 333;EQDQ01  00002PRCP99
0184407850999992000041003004+33980+051450FM-12+0982OIFK V0209999C000012200019N0120001N1+01761+00461100481ADDGA1031+060009019GF103991001001999999001011KA1120N+01681MA1999999089821MD1410001+9999REMSYN088AAXX  10031 40785 42962 30000 10176 20046 38982 40048 54000 80001 90252 333 20168 83070;
0213407850999992000041006004+33980+051450FM-12+0982OIFK V0202301N009012200019N0150001N1+02961-00411100461ADDAA124000091GA1031+060009019GF103991001001999999001011MA1999999089891MD1110071+9999REMSYN100AAXX  10061 40785 32965 32309 10296 21041 38989 40046 51007 80001 90546 333 30014 50861 70000 83070;EQDQ01  00002PRCP24
0171407850999992000041009004+33980+051450FM-12+0982OIFK V0202101N008012200019N0100001N1+03241-00981100251ADDGA1011+012009089GF104991011011012501001011MA1999999089731MD1810161+9999REMSYN088AAXX  10091 40785 42660 42108 10324 21098 38973 40025 58016 81101 90847 333 81840 84070;
0201407850999992000041012004+33980+051450FM-12+0982OIFK V0202101N00901220001CN0100001N1+03081-00761100211ADDAA199000091GA1021+012009069GF106991021041012501001061MA1999999089671MD1710061+9999REMSYN088AAXX  10121 40785 32660 62109 10308 21076 38967 40021 57006 82406 91145 333 82640 86270;EQDQ01  00002PRCP99
0209407850999992000041018004+33980+051450FM-12+0982OIFK V0209999C000012200019N0100001N1+02621-00801100371ADDAA199000091GA1031+060009019GF103991001001999999001011GJ105529MA1999999089911MD1210211+9999REMSYN088AAXX  10181 40785 32960 30000 10262 21080 38991 40037 52021 80001 91746 333 55092 83070;EQDQ01  00002PRCP99
0183407850999992000041100004+33980+051450FM-12+0982OIFK V0209999C000012200019N0120001N1+01581-00681100681ADDAA199000091GA1001+999999999GF100991001001999999001001MA1999999090051MD1210141+9999REMSYN070AAXX  11001 40785 32962 00000 10158 21068 39005 40068 52014 92347 333;EQDQ01  00002PRCP99
0213407850999992000041106004+33980+051450FM-12+0982OIFK V0203601N002012200019N0100001N1+02021-01381101001ADDAA124000091GA1031+060009019GF103991001001999999001011MA1999999090311MD1210141+9999REMSYN100AAXX  11061 40785 32960 33602 10202 21138 39031 40100 52014 80001 90550 333 30009 51001 70000 83070;EQDQ01  00002PRCP24
0153407850999992000041109004+33980+051450FM-12+0982OIFK V0200201N002012200019N0120001N1+02401-01221100831ADDGA1001+999999999GF100991001001999999001001MA1999999090201MD1810111+9999REMSYN070AAXX  11091 40785 42962 00202 10240 21122 39020 40083 58011 90850 333;
0184407850999992000041115004+33980+051450FM-12+0982OIFK V0209999C000012200019N0100001N1+02701-00701100751ADDGA1031+060009019GF103991001001999999001011KA1120M+02901MA1999999090001MD1310021+9999REMSYN088AAXX  11151 40785 42960 30000 10270 21070 39000 40075 53002 80001 91450 333 10290 83070;
0189407850999992000041118004+33980+051450FM-12+0982OIFK V0209999C000012200019N0120001N1+02021-01381100981ADDAA199000091GA1001+999999999GF100991001001999999001001MA1999999090201MD1210201+9999REMSYN076AAXX  11181 40785 32962 00000 10202 21138 39020 40098 52020 91750 333 55106;EQDQ01  00002PRCP99
0153407850999992000041121004+33980+051450FM-12+0982OIFK V0209999C000012200019N0100001N1+01861-01261100951ADDGA1001+999999999GF100991001001999999001001MA1999999090201MD1410001+9999REMSYN070AAXX  11211 40785 42960 00000 10186 21126 39020 40095 54000 92050 333;
0172407850999992000041203004+33980+051450FM-12+0982OIFK V0209999C000012200019N0100001N1+01101-00681101301ADDGA1001+999999999GF100991001001999999001001KA1999N+01001MA1999999090451MD1210251+9999REMSYN076AAXX  12031 40785 42960 00000 10110 21068 39045 40130 52025 90250 333 20100;
0187407850999992000041206004+33980+051450FM-12+0982OIFK V0203301N010019999999N0120001N1+02381-01741101251ADDAA124000091GA1031+060009019MA1999999090511MD1210061+9999REMSYN100AAXX  12061 40785 32962 /3310 10238 21174 39051 40125 52006 80001 90550 333 30007 50901 70000 83070;EQDQ01  00002PRCP24
0190407850999992000041211004+33980+051450FM-12+0982OIFK V0209999999999220001CN0100001N1+02701-00101101021ADDGA1021+012009069GF106991021041012501001061KA1120M+02901MA1999999090201MD1810041+9999REMSYN094AAXX  12111 40785 42660 628// 10270 21010 39020 40102 58004 82406 91458 333 10290 82640 86270;
0227407850999992000041212004+33980+051450FM-12+0982OIFK V0202501N006010600019N0100001N1+02841-01612100971ADDAA199000091GA1061+060009089GF106991999001999999001061MA1999999090241MD1710191+9999REMSYN082AAXX  12121 40785 32960 62506 10284 21161 39024 40097 57019 80006 91150 333 86270;EQDQ01+000002SCOTLCQ02-001613ATOD  Q03  00002PRCP99
0209407850999992000041218004+33980+051450FM-12+0982OIFK V0202501N002012200019N0100001N1+02281-00061100931ADDAA199000091GA1041+060009089GF104991011041012501001061GJ105049MA1999999090421MD1210221+9999REMSYN088AAXX  12181 40785 32660 42502 10228 21006 39042 40093 52022 81406 91750 333 55084 84270;EQDQ01  00002PRCP99
0171407850999992000041221004+33980+051450FM-12+0982OIFK V0202401N005012200019N0100001N1+02381-00121101051ADDGA1011+012009069GF104991011041012501001061MA1999999090401MD1410001+9999REMSYN088AAXX  12211 40785 42660 42405 10238 21012 3904/ 40105 54000 81406 92050 333 81640 84270;
0201407850999992000041300004+33980+051450FM-12+0982OIFK V0202401N010012200019N0100001N1+02381-00201100901ADDAA199000091GA1011+012009069GF104991011041012501001061MA1999999090321MD1810101+9999REMSYN088AAXX  13001 40785 32660 42410 10238 21020 39032 40090 58010 81406 92350 333 81640 84270;EQDQ01  00002PRCP99
0190407850999992000041303004+33980+051450FM-12+0982OIFK V0202501N010012200019N0100001N1+02341-00141100901ADDGA1021+012009069GF104991021041012501001061KA1120N+02101MA1999999090281MD1410001+9999REMSYN094AAXX  13031 40785 42660 42510 10234 21014 39028 40090 54000 82406 90250 333 20210 82640 84270;
0184407850999992000041309004+33980+051450FM-12+0982OIFK V0209999C000010600019N0100001N1+02721+00281101101ADDGA1061+060009089GF106991999001999999001061MA1999999090501MD1810051+9999REMSYN082AAXX  13091 40785 42960 60000 10272 20028 39050 40110 58005 80006 90850 333 86270;EQDQ01+000002SCOTLC
0195407850999992000041312004+33980+051450FM-12+0982OIFK V0209999C000012200019N0100001N1+03021+00251100811ADDAA199000091GA1041+060009019GF104991001001999999001011MA1999999090291MD1710211+9999REMSYN082AAXX  13121 40785 32960 40000 10302 20025 39029 40081 57021 80001 91150 333 84070;EQDQ01  00002PRCP99
0225407850999992000041318004+33980+051450FM-12+0982OIFK V0209999C000010600019N0100001N1+02401+00351101061ADDAA199000091GA1061+060009089GF106991999001999999001061GJ105169MA1999999090401MD1210151+9999REMSYN088AAXX  13181 40785 32960 60000 10240 20035 39040 40106 52015 80006 91752 333 55086 86270;EQDQ01+000002SCOTLCQ02  00002PRCP99
0184407850999992000041321004+33980+051450FM-12+0982OIFK V0209999C000010600019N0100001N1+02161+00321101071ADDGA1061+060009089GF106991999001999999001061MA1999999090441MD1110041+9999REMSYN082AAXX  13211 40785 42960 60000 10216 20032 39044 40107 51004 80006 90250 333 86270;EQDQ01+000002SCOTLC
0195407850999992000041400004+33980+051450FM-12+0982OIFK V0209999C000012200019N0100001N1+01961+00331101061ADDAA199000091GA1041+060009019GF104991001001999999001011MA1999999090441MD1410001+9999REMSYN082AAXX  14001 40785 32960 40000 10196 20033 39044 40106 54000 80001 92350 333 84070;EQDQ01  00002PRCP99
0203407850999992000041403004+33980+051450FM-12+0982OIFK V0209999C000012200019N0120001N1+01561+00531101031ADDGA1051+030009079GF199999031001999999031001KA1120N+01561MA1999999090321MD1310031+9999REMSYN088AAXX  14031 40785 42962 30000 10156 20053 39032 40103 53003 83030 90252 333 20156 85360;EQDQ01+000032SCOTCV
0172407850999992000041406004+33980+051450FM-12+0982OIFK V0209999C000012200019N0120001N1+02481+00661101021ADDAA124999999GF104991041001999999031001MA1999999090401MD1110081+9999REMSYN094AAXX  14061 40785 32962 40000 10248 20066 39040 40102 51008 84030 90550 333 30013 50851 7000/;
0215407850999992000041418004+33980+051450FM-12+0982OIFK V0200301N00201036001CN0120001N1+02261+00881100891ADDAA199000091GA1031+012009069GF107991031041012501071001GJ103789MA1999999090291MD1010001+9999REMSYN094AAXX  14181 40785 32662 70302 10226 20088 39029 40089 5000/ 83470 91750 333 55063 83640 87360;EQDQ01  00002PRCP99
0171407850999992000041421004+33980+051450FM-12+0982OIFK V0209999C00001036001CN0120001N1+01981+00861100871ADDGA1031+012009069GF105991031041012501071001MA1999999090291MD1410001+9999REMSYN088AAXX  14211 40785 42662 50000 10198 20086 39029 40087 54000 83470 92050 333 83640 85360;
0201407850999992000041500004+33980+051450FM-12+0982OIFK V0209999C00001036001CN0120001N1+01801+00721100861ADDAA199000091GA1031+012009069GF106991031041012501031001MA1999999090291MD1410001+9999REMSYN088AAXX  15001 40785 32662 60000 10180 20072 39029 40086 54000 83430 92350 333 83640 86360;EQDQ01  00002PRCP99
0184407850999992000041503004+33980+051450FM-12+0982OIFK V0209999C000012200019N0120001N1+01761+00561100881ADDGA1041+060009019GF104991001001999999001011KA1120N+01701MA1999999090201MD1310101+9999REMSYN088AAXX  15031 40785 42962 40000 10176 20056 39020 40088 53010 80001 90250 333 20170 84070;
0229407850999992000041506004+33980+051450FM-12+0982OIFK V0209999C000010600019N0100001N1+02461+00641100881ADDAA124000091GA1051+060009089GF105991999001999999001061MA1999999090251MD1310051+9999REMSYN100AAXX  15061 40785 32960 50000 10246 20064 39025 40088 53005 80006 90550 333 30013 50761 70000 85270;EQDQ01+000002SCOTLCQ02  00002PRCP24
0165407850999992000041509004+33980+051450FM-12+0982OIFK V0209999C000010600019N0100001N1+02921+00601100731ADDGA1051+060009019GF105991001001999999001011MA1999999090141MD1810111+9999REMSYN082AAXX  15091 40785 42960 50000 10292 20060 39014 40073 58011 80001 90850 333 85070;
0201407850999992000041512004+33980+051450FM-12+0982OIFK V0209999C00001036001CN0120001N1+03061+00641100551ADDAA199000091GA1041+012009069GF107991041041012501011001MA1999999089981MD1710161+9999REMSYN088AAXX  15121 40785 32662 70000 10306 20064 38998 40055 57016 84410 91150 333 84640 87460;EQDQ01  00002PRCP99
0194407850999992000041515004+33980+051450FM-12+0982OIFK V0209999C00001036001CN0100001N1+02801+01021100591ADDGA1041+012009069GF107991041041012501011001KA1120M+03141MD1610021+9999REMSYN094AAXX  15151 40785 42660 70000 10280 20102 38796 40059 56002 84410 91450 333 10314 84640 87460;EQDQ01+087963APOSP 
0237407850999992000041518004+33980+051450FM-12+0982OIFK V0209999C00001036001CN0120001N1+02681+00521100671ADDAA199000091GA1011+010509099GA2031+012009069GF108991041031012501021999GJ103249MA1999999090131MD1210171+9999REMSYN100AAXX  15181 40785 32662 80000 10268 20052 39013 40067 52017 8432/ 91750 333 55054 81935 83640 88460;EQDQ01  00002PRCP99
0201407850999992000041600004+33980+051450FM-12+0982OIFK V0203101N00301036001CN0120001N1+02241+00361100711ADDAA199000091GA1031+012009069GF105991031041012501031001MA1999999090201MD1410001+9999REMSYN088AAXX  16001 40785 32662 53103 10224 20036 39020 40071 54000 83430 92350 333 83640 85360;EQDQ01  00002PRCP99
0190407850999992000041603004+33980+051450FM-12+0982OIFK V0209999C00001220001CN0120001N1+01741+00691100901ADDGA1031+012009069GF105991031041012501001011KA1120N+01621MA1999999090251MD1310051+9999REMSYN094AAXX  16031 40785 42662 50000 10174 20069 39025 40090 53005 83401 90250 333 20162 83640 85070;
0219407850999992000041606004+33980+051450FM-12+0982OIFK V0209999C00001090001CN0120001N1+02641+00621100871ADDAA124000091GA1021+012009069GF105991021041012501001021MA1999999090341MD1210091+9999REMSYN106AAXX  16061 40785 32662 50000 10264 20062 39034 40087 52009 82402 90550 333 30015 5071/ 70000 82640 85070;EQDQ01  00002PRCP24
0223407850999992000041612004+33980+051450FM-12+0982OIFK V0202401N00701090001CN0120001N1+02661+00691100751ADDAA199000091GA1011+010509099GA2031+012009069GF107991041031012501001071MA1999999090151MD1510001+9999REMSYN094AAXX  16121 40785 32662 72407 10266 20069 39015 40075 55000 84307 91150 333 81935 83640 87270;EQDQ01  00002PRCP99
0215407850999992000041618004+33980+051450FM-12+0982OIFK V0209999C00001090001CN0120001N1+02661+00561100721ADDAA199000091GA1031+012009069GF107991031041012501001071GJ102829MA1999999090211MD1110071+9999REMSYN094AAXX  16181 40785 32662 70000 10266 20056 39021 40072 51007 83407 91750 333 55047 83640 87270;EQDQ01  00002PRCP99
0201407850999992000041700004+33980+051450FM-12+0982OIFK V0209999C00001220001CN0120001N1+01861+00651100821ADDAA199000091GA1021+012009069GF105991021041012501001011MA1999999090161MD1810051+9999REMSYN088AAXX  17001 40785 32662 50000 10186 20065 39016 40082 58005 82401 92350 333 82640 83070;EQDQ01  00002PRCP99
0190407850999992000041703004+33980+051450FM-12+0982OIFK V0209999C000012200019N0120001N1+01901+00691100951ADDGA1011+012009069GF103991011041012501001011KA1120N+01661MA1999999090281MD1310121+9999REMSYN094AAXX  17031 40785 42662 30000 10190 20069 39028 40095 53012 81401 90250 333 20166 81640 83070;
0219407850999992000041706004+33980+051450FM-12+0982OIFK V0209999C000012200019N0120001N1+02561+00591100971ADDAA124000091GA1011+012009069GF103991011041012501001011MA1999999090421MD1210141+9999REMSYN106AAXX  17061 40785 32662 30000 10256 20059 39042 40097 52014 81401 90550 333 30014 50821 70000 81640 83070;EQDQ01  00002PRCP24
0165407850999992000041709004+33980+051450FM-12+0982OIFK V0209999C000012200019N0120001N1+02981+00511100741ADDGA1031+060009019GF103991001001999999001011MA1999999090261MD1710161+9999REMSYN082AAXX  17091 40785 42962 30000 10298 20051 39026 40074 57016 80001 90852 333 83070;
0223407850999992000041712004+33980+051450FM-12+0982OIFK V0202701N00401220001CN0120001N1+03021+00171100601ADDAA199000091GA1011+010509099GA2031+012009069GF106991041031012501001011MA1999999090021MD1710241+9999REMSYN094AAXX  17121 40785 32662 62704 10302 20017 39002 40060 57024 84301 91150 333 81935 83640 86070;EQDQ01  00002PRCP99
0252407850999992000041718004+33980+051450FM-12+0982OIFK V0209999C00001036001CN0100001N1+02101+01051101021ADDAA106000191AY101061AY221061GA1011+010509099GA2031+012009069GF108991041031012501011999GJ104329MA1999999090381MD1310261+9999MW1201REMSYN112AAXX  17181 40785 11660 80000 10210 20105 39038 40102 53026 69921 72002 8431/ 91750 333 55072 81935 83640 88460;
0193407850999992000041721004+33980+051450FM-12+0982OIFK V0209999C00001036001CN0100001N1+01941+01241100931ADDGA1011+010509099GA2031+012009069GF108991041031012501011999MA1999999090351MD1610031+9999REMSYN094AAXX  17211 40785 42660 80000 10194 20124 39035 40093 56003 8431/ 92050 333 81935 83640 88460;
0182407850999992000041800004+33980+051450FM-12+0982OIFK V0209999C00001036001CN0100001N1+01801+01201100941ADDAA199000021GA1031+012009069GF108991031041012501011999MA1999999090351MD1410001+9999REMSYN088AAXX  18001 40785 32660 80000 10180 20120 39035 40094 54000 8341/ 92350 333 83640 88460;
0182407850999992000041806004+33980+051450FM-12+0982OIFK V0209999C000012200019N0120001N1+02341+00831101011ADDAA124000391GA1001+999999999GF100991001001999999001001MA1999999090331MD1110161+9999REMSYN088AAXX  18061 40785 32962 00000 10234 20083 39033 40101 51016 90550 333 30015 50801 70002;
0149407850999992000041809004+33980+051450FM-12+0982OIFK V0209999C000012200019N0120001N1+02621+00721100911ADDGF102991021011012501001001MA1999999090261MD1810071+9999REMSYN082AAXX  18091 40785 42662 20000 10262 20072 39026 40091 58007 82100 90850 333 8280/;
0195407850999992000041812004+33980+051450FM-12+0982OIFK V0200301N003012200019N0120001N1+02961+00561100691ADDAA199000091GA1021+012009029GF102991021011012501001001MA1999999090091MD1710171+9999REMSYN082AAXX  18121 40785 32662 20303 10296 20056 39009 40069 57017 82100 91150 333 82840;EQDQ01  00002PRCP99
0190407850999992000041815004+33980+051450FM-12+0982OIFK V0209999C000012200019N0100001N1+02841+00401100691ADDGA1011+012009069GF103991011041012501031001KA1120M+03051MA1999999090061MD1610031+9999REMSYN094AAXX  18151 40785 42660 30000 10284 20040 39006 40069 56003 81430 91450 333 10305 81640 83360;
0209407850999992000041818004+33980+051450FM-12+0982OIFK V0201901N003012200019N0120001N1+02361+00501100811ADDAA199000091GA1031+030009079GF103991031001999999031001GJ106129MA1999999090191MD1210131+9999REMSYN088AAXX  18181 40785 32962 31903 10236 20050 39019 40081 52013 83030 91750 333 55102 83360;EQDQ01  00002PRCP99
0171407850999992000041821004+33980+051450FM-12+0982OIFK V0202701N002019999999N0120001N1+02221+00281100781ADDGA1031+030009039GF105991031001999999031011MA1999999090191MD1410001+9999REMSYN088AAXX  18211 40785 42962 52702 10222 20028 39019 40078 54000 83031 92050 333 83360 85070;
0201407850999992000041900004+33980+051450FM-12+0982OIFK V0209999C000019999999N0120001N1+01821+00371100891ADDAA199000091GA1031+030009039GF105991031001999999031011MA1999999090281MD1110091+9999REMSYN088AAXX  19001 40785 32962 50000 10182 20037 39028 40089 51009 83031 92350 333 83360 85070;EQDQ01  00002PRCP99
0184407850999992000041903004+33980+051450FM-12+0982OIFK V0209999C000010600019N0120001N1+01681+00501101011ADDGA1051+060009019GF105991001001999999001011KA1120N+01601MA1999999090321MD1310041+9999REMSYN088AAXX  19031 40785 42962 50000 10168 20050 39032 40101 53004 80001 90250 333 20160 85070;
0213407850999992000041906004+33980+051450FM-12+0982OIFK V0209999C000012200019N0120001N1+02661+00371101091ADDAA124000091GA1031+060009019GF103991001001999999001011MA1999999090461MD1210141+9999REMSYN100AAXX  19061 40785 32962 30000 10266 20037 39046 40109 52014 80001 90550 333 30013 50781 70000 83070;EQDQ01  00002PRCP24
0193407850999992000041909004+33980+051450FM-12+0982OIFK V0203001N00201090001CN0100001N1+02981+00441100911ADDGA1011+012009089GA2031+030009039GF105991011041012501031011MA1999999090351MD1810111+9999REMSYN094AAXX  19091 40785 42660 53002 10298 20044 39035 40091 58011 81431 90850 333 81840 83360 85070;
0201407850999992000041912004+33980+051450FM-12+0982OIFK V0209999C00001220001CN0120001N1+03141+00321100691ADDAA199000091GA1031+012009069GF106991031041012501001061MA1999999090111MD1710241+9999REMSYN088AAXX  19121 40785 32662 60000 10314 20032 39011 40069 57024 83406 91150 333 83640 86270;EQDQ01  00002PRCP99
0190407850999992000041915004+33980+051450FM-12+0982OIFK V0202101N002012200019N0120001N1+02821+00321100681ADDGA1011+012009069GF103991011041012501031001KA1120M+03161MA1999999090031MD1710081+9999REMSYN094AAXX  19151 40785 42662 32102 10282 20032 39003 40068 57008 81430 91450 333 10316 81640 83360;
0184407850999992000042003004+33980+051450FM-12+0982OIFK V0209999C000012200019N0120001N1+01661+00741101041ADDGA1021+030009079GF102991021001999999031001KA1120N+01661MA1999999090351MD1310061+9999REMSYN088AAXX  20031 40785 42962 20000 10166 20074 39035 40104 53006 82030 90250 333 20166 82360;
0201407850999992000042006004+33980+051450FM-12+0982OIFK V0209999C000012200019N0120001N1+02621+00571100961ADDAA124000091GA1001+999999999GF100991001001999999001001MA1999999090381MD1110031+9999REMSYN088AAXX  20061 40785 32962 00000 10262 20057 39038 40096 51003 90550 333 30014 50821 70000;EQDQ01  00002PRCP24
0139407850999992000042015004+33980+051450FM-12+0982OIFK V0200101N003012200019N0120001N1+03121+00151100451ADDGF102991021041012501001001MA1999999089891MD1610041+9999REMSYN072AAXX  20151 40785 42662 20103 10312 20015 38989 40045 56004 82400 82340;
0209407850999992000042018004+33980+051450FM-12+0982OIFK V0209999C000012200019N0120001N1+02601+00551100481ADDAA199000091GA1021+012009059GF102991021041012501001001GJ106729MA1999999089981MD1310091+9999REMSYN088AAXX  20181 40785 32662 20000 10260 20055 38998 40048 53009 82400 91750 333 55112 82640;EQDQ01  00002PRCP99
0171407850999992000042021004+33980+051450FM-12+0982OIFK V0202601N004012200019N0120001N1+02501+00121100441ADDGA1021+012009069GF104991021041012501001011MA1999999089981MD1010001+9999REMSYN088AAXX  20211 40785 42662 42604 10250 20012 38998 40044 50000 82401 92050 333 82640 84070;
0139407850999992000042103004+33980+051450FM-12+0982OIFK V0209999C000010900019N0120001N1+02021+00511100431ADDGF106991021041012501001071MA1999999089911MD1310081+9999REMSYN072AAXX  21031 40785 42662 60000 10202 20051 38991 40043 53008 82407 90250;
0241407850999992000042106004+33980+051450FM-12+0982OIFK V0200701N00201036001CN0120001N1+02341+00881100781ADDAA124000091GA1011+010509099GA2031+012009069GF107991041031012501011001MA1999999090201MD1210291+9999REMSYN112AAXX  21061 40785 32662 70702 10234 20088 39020 40078 52029 84310 90550 333 30016 50801 70000 81935 83640 87460;EQDQ01  00002PRCP24
0199407850999992000042109004+33980+051450FM-12+0982OIFK V0200901N00501036001CN0080001N1+02601+00701100561ADDAY121031AY221031GA1031+012009069GF105991031041012501071001MA1999999090021MD1810181+9999MW1071REMSYN094AAXX  21091 40785 41658 50905 10260 20070 39002 40056 58018 70722 83470 90850 333 83640 85360;
0238407850999992000042112004+33980+051450FM-12+0982OIFK V0203301N00901036001CN0060001N1+02201+00951100501ADDAA106000191AY161061AY221061GA1011+009009099GA2031+010509069GF108991041091008001041999MA1999999089831MD1610191+9999MW1971REMSYN106AAXX  21121 40785 11556 83309 10220 20095 38983 40050 56019 69911 79762 8494/ 91150 333 81930 83635 88457;
0176407850999992000042118004+33980+051450FM-12+0982OIFK V0209999C000012200019N0120001N1+01921+01081100601ADDAA106002091GA1001+999999999GF100991001001999999001001MA1999999089951MD1310081+9999REMSYN082AAXX  21181 40785 12962 00000 10192 20108 38995 40060 53008 60021 91752 333 55042;
0153407850999992000042121004+33980+051450FM-12+0982OIFK V0209999C000012200019N0100001N1+01781+01121100571ADDGA1001+999999999GF100991001001999999001001MA1999999089951MD1410001+9999REMSYN070AAXX  21211 40785 42960 00000 10178 20112 38995 40057 54000 92052 333;
0164407850999992000042200004+33980+051450FM-12+0982OIFK V0209999C000012200019N0100001N1+01601+01161100521ADDAA199000021GA1001+999999999GF100991001001999999001001MA1999999089951MD1410001+9999REMSYN070AAXX  22001 40785 32960 00000 10160 20116 38995 40052 54000 92350 333;
0184407850999992000042203004+33980+051450FM-12+0982OIFK V0209999C000012200019N0120001N1+01421+00951100851ADDGA1021+060009019GF102991001001999999001011KA1120N+01401MA1999999090041MD1210141+9999REMSYN088AAXX  22031 40785 42962 20000 10142 20095 39004 40085 52014 80001 90252 333 20140 82070;
0184407850999992000042215004+33980+051450FM-12+0982OIFK V0209999C000012200019N0120001N1+02881+00691100491ADDGA1011+012009059GF101991011041012501001001KA1120M+03151MA1999999089841MD1510011+9999REMSYN088AAXX  22151 40785 42662 10000 10288 20069 38984 40049 55001 81400 91447 333 10315 81640;
0189407850999992000042218004+33980+051450FM-12+0982OIFK V0209999C000012200019N0120001N1+02321+00931100531ADDAA199000091GA1001+999999999GF100991001001999999001001MA1999999089911MD1310071+9999REMSYN076AAXX  22181 40785 32962 00000 10232 20093 38991 40053 53007 91746 333 55106;EQDQ01  00002PRCP99
0153407850999992000042221004+33980+051450FM-12+0982OIFK V0209999C000012200019N0120001N1+01981+00991100571ADDGA1001+999999999GF100991001001999999001001MA1999999089971MD1110061+9999REMSYN070AAXX  22211 40785 42962 00000 10198 20099 38997 40057 51006 92041 333;
0172407850999992000042303004+33980+051450FM-12+0982OIFK V0209999C000012200019N0120001N1+01521+00101100911ADDGA1001+999999999GF100991001001999999001001KA1999N+01341MA1999999090221MD1210201+9999REMSYN076AAXX  23031 40785 42962 00000 10152 20010 39022 40091 52020 90247 333 20134;
0201407850999992000042306004+33980+051450FM-12+0982OIFK V0200901N003012200019N0120001N1+02141-00621101081ADDAA124000091GA1001+999999999GF100991001001999999001001MA1999999090371MD1210151+9999REMSYN088AAXX  23061 40785 32962 00903 10214 21062 39037 40108 52015 90550 333 30010 50701 70000;EQDQ01  00002PRCP24
0153407850999992000042309004+33980+051450FM-12+0982OIFK V0202401N002012200019N0120001N1+02821-01101100781ADDGA1001+999999999GF100991001001999999001001MA1999999090171MD1810201+9999REMSYN070AAXX  23091 40785 42962 02402 10282 21110 39017 40078 58020 90850 333;
0211407850999992000042312004+33980+051450FM-12+0982OIFK V0202401N008012200019N0080001N1+03001-01151100421ADDAA199000091AY101061AY201061GA1001+999999999GF100991001001999999001001MA1999999089981MD1710191+9999MW1071REMSYN076AAXX  23121 40785 31958 02408 10300 21115 38998 40042 57019 70700 91150 333;EQDQ01  00002PRCP99
0200407850999992000042315004+33980+051450FM-12+0982OIFK V0203001N003012200019N0080001N1+02721-01021100681ADDAY101031AY201031GA1001+999999999GF100991001001999999001001KA1999M+03061MA1999999089961MD1610021+9999MW1071REMSYN082AAXX  23151 40785 41958 03003 10272 21102 38996 40068 56002 70700 91450 333 10306;
0189407850999992000042318004+33980+051450FM-12+0982OIFK V0209999C000012200019N0100001N1+02201-00141100951ADDAA199000091GA1001+999999999GF100991001001999999001001MA1999999090231MD1210271+9999REMSYN076AAXX  23181 40785 32960 00000 10220 21014 39023 40095 52027 91750 333 55108;EQDQ01  00002PRCP99
0183407850999992000042400004+33980+051450FM-12+0982OIFK V0209999C000012200019N0120001N1+01881-00191100781ADDAA199000091GA1001+999999999GF100991001001999999001001MA1999999090231MD1410001+9999REMSYN070AAXX  24001 40785 32962 00000 10188 21019 39023 40078 54000 92350 333;EQDQ01  00002PRCP99
0201407850999992000042406004+33980+051450FM-12+0982OIFK V0209999C000012200019N0120001N1+02481-00281101071ADDAA124000091GA1001+999999999GF100991001001999999001001MA1999999090401MD1110081+9999REMSYN088AAXX  24061 40785 32962 00000 10248 21028 39040 40107 51008 90550 333 30010 51001 70000;EQDQ01  00002PRCP24
0153407850999992000042409004+33980+051450FM-12+0982OIFK V0209999C000012200019N0120001N1+02861-00971100871ADDGA1001+999999999GF100991001001999999001001MA1999999090231MD1710171+9999REMSYN070AAXX  24091 40785 42962 00000 10286 21097 39023 40087 57017 90850 333;
0165407850999992000042421004+33980+051450FM-12+0982OIFK V0209999C000012200019N0100001N1+01761+00201100821ADDGA1021+012009059GF102991021041012501001001MA1999999090161MD1410001+9999REMSYN082AAXX  24211 40785 42660 20000 10176 20020 39016 40082 54000 82400 92050 333 82640;
0195407850999992000042500004+33980+051450FM-12+0982OIFK V0209999C000012200019N0120001N1+01761+00161100811ADDAA199000091GA1021+012009059GF102991021041012501001001MA1999999090161MD1410001+9999REMSYN082AAXX  25001 40785 32662 20000 10176 20016 39016 40081 54000 82400 92350 333 82640;EQDQ01  00002PRCP99
0165407850999992000042509004+33980+051450FM-12+0982OIFK V0200901N003012200019N0120001N1+02701-00281100811ADDGA1021+012009059GF102991021041012501001001MA1999999090141MD1710181+9999REMSYN082AAXX  25091 40785 42662 20903 10270 21028 39014 40081 57018 82400 90850 333 82640;
0195407850999992000042512004+33980+051450FM-12+0982OIFK V0209999C000012200019N0120001N1+02921-00401100581ADDAA199000091GA1021+012009059GF102991021041012501001001MA1999999089961MD1710181+9999REMSYN082AAXX  25121 40785 32662 20000 10292 21040 38996 40058 57018 82400 91150 333 82640;EQDQ01  00002PRCP99
0188407850999992000042518004+33980+051450FM-12+0982OIFK V0209999C000012200019N0100001N1+02141-00261100781ADDAA199000091GA1001+999999999GF100991001001999999001001MA1999999090111MD1110021+9999REMSYN075AAXX  25181 40785 32960 00000 10214 21026 39011 40078 51002 91750 33 55097;EQDQ01  00002PRCP99
0183407850999992000042600004+33980+051450FM-12+0982OIFK V0209999C000012200019N0100001N1+01541-00561100891ADDAA199000091GA1001+999999999GF100991001001999999001001MA1999999090201MD1310091+9999REMSYN070AAXX  26001 40785 32960 00000 10154 21056 39020 40089 53009 92350 333;EQDQ01  00002PRCP99
0111407850999992000042609004+33980+051450FM-12+0982OIFK V0200201N004019999999N0120001N1+02621-00341999999ADDMA1999999090251MD1710151+9999REMSYN070AAXX  26091 40785 42962 /0204 10262 21034 39025 4//// 57015 90845 333;
0195407850999992000042612004+33980+051450FM-12+0982OIFK V0200101N004012200019N0120001N1+02821-00401100781ADDAA199000091GA1031+012009059GF103991031041012501001001MA1999999090071MD1710181+9999REMSYN082AAXX  26121 40785 32662 30104 10282 21040 39007 40078 57018 83400 91146 333 83640;EQDQ01  00002PRCP99
0184407850999992000042615004+33980+051450FM-12+0982OIFK V0209999C000012200019N0120001N1+02681-00021100781ADDGA1031+012009059GF103991031041012501001001KA1120M+02921MA1999999090071MD1410001+9999REMSYN088AAXX  26151 40785 42662 30000 10268 21002 39007 40078 54000 83400 91446 333 10292 83640;
0189407850999992000042618004+33980+051450FM-12+0982OIFK V0209999C000012200019N0120001N1+02101+00171100981ADDAA199000091GA1001+999999999GF100991001001999999001001MA1999999090291MD1210221+9999REMSYN076AAXX  26181 40785 32962 00000 10210 20017 39029 40098 52022 91745 333 55117;EQDQ01  00002PRCP99
0183407850999992000042700004+33980+051450FM-12+0982OIFK V0209999C000012200019N0120001N1+01721+00311100961ADDAA199000091GA1001+999999999GF100991001001999999001001MA1999999090311MD1410001+9999REMSYN070AAXX  27001 40785 32962 00000 10172 20031 39031 40096 54000 92346 333;EQDQ01  00002PRCP99
0153407850999992000042709004+33980+051450FM-12+0982OIFK V0209999C000012200019N0120001N1+02661+00181101261ADDGA1001+999999999GF100991001001999999001001MA1999999090541MD1810081+9999REMSYN070AAXX  27091 40785 42962 00000 10266 20018 39054 40126 58008 90850 333;
0183407850999992000042712004+33980+051450FM-12+0982OIFK V0200201N002012200019N0120001N1+02901-00331101011ADDAA199000091GA1001+999999999GF100991001001999999001001MA1999999090301MD1710241+9999REMSYN070AAXX  27121 40785 32962 00202 10290 21033 39030 40101 57024 91150 333;EQDQ01  00002PRCP99
0209407850999992000042718004+33980+051450FM-12+0982OIFK V0209999C000012200019N0100001N1+02201+00211101131ADDAA199000091GA1041+060009019GF104991001001999999001011GJ107089MA1999999090401MD1310141+9999REMSYN088AAXX  27181 40785 32960 40000 10220 20021 39040 40113 53014 80001 91750 333 55118 84070;EQDQ01  00002PRCP99
0215407850999992000042818004+33980+051450FM-12+0982OIFK V0209999C00001220001CN0120001N1+02761-00161100891ADDAA199000091GA1021+012009069GF105991021041012501001011GJ105169MA1999999090251MD1210171+9999REMSYN094AAXX  28181 40785 32662 50000 10276 21016 39025 40089 52017 82401 91750 333 55086 82640 85070;EQDQ01  00002PRCP99
0171407850999992000042921004+33980+051450FM-12+0982OIFK V0209999C00001036001CN0100001N1+02341+00631100751ADDGA1021+012009069GF105991021041012501031001MA1999999090231MD1110021+9999REMSYN088AAXX  29211 40785 42660 50000 10234 20063 39023 40075 51002 82430 92050 333 82640 85360;
0229407850999992000043012004+33980+051450FM-12+0982OIFK V0202701N002012200019N0080001N1+03321-00701100181ADDAA199000091AY101061AY201061GA1021+012009069GF104991021041012501031001MA1999999089801MD1710301+9999MW1071REMSYN094AAXX  30121 40785 31658 42702 10332 21070 38980 40018 57030 70700 82430 91150 333 82640 84360;EQDQ01  00002PRCP99
0184407850999992000043015004+33980+051450FM-12+0982OIFK V0200301N002012200019N0100001N1+02941-00301100321ADDGA1041+012009059GF104991041041012501001001KA1120M+03401MA1999999089781MD1610021+9999REMSYN088AAXX  30151 40785 42660 40302 10294 21030 38978 40032 56002 84400 91450 333 10340 84640;
0189407850999992000043018004+33980+051450FM-12+0982OIFK V0209999C000012200019N0100001N1+02421-00241100481ADDAA199000091GA1001+999999999GF100991001001999999001001MA1999999089941MD1210161+9999REMSYN076AAXX  30181 40785 32960 00000 10242 21024 38994 40048 52016 91750 333 55105;EQDQ01  00002PRCP99
0209407850999992000050115004+33980+051450FM-12+0982OIFK V0202301N010019999999N0100001N1+03001-00491100231ADDGA1021+012009069GF105991999041012501001011KA1120M+03261MA1999999089671MD1610091+9999REMSYN094AAXX  01151 40785 42660 52310 10300 21049 38967 40023 56009 87401 91450 333 10326 82640 85070;EQDQ01+000072SCOTLC
0215407850999992000050118004+33980+051450FM-12+0982OIFK V0202101N002012200019N0100001N1+02681-00401100411ADDAA199000091GA1011+012009069GF104991011041012501001011GJ103189MA1999999089941MD1210271+9999REMSYN094AAXX  01181 40785 32660 42102 10268 21040 38994 40041 52027 81401 91750 333 55053 81640 84070;EQDQ01  00002PRCP99
0165407850999992000050121004+33980+051450FM-12+0982OIFK V0202001N002012200019N0100001N1+02701-00191100311ADDGA1021+060009019GF102991001001999999001011MA1999999089921MD1610021+9999REMSYN082AAXX  01211 40785 42960 22002 10270 21019 38992 40031 56002 80001 92050 333 82070;
0184407850999992000050203004+33980+051450FM-12+0982OIFK V0209999C000012200019N0120001N1+01841+00151100841ADDGA1041+060009019GF104991001001999999001011KA1120N+01581MA1999999090241MD1210211+9999REMSYN088AAXX  02031 40785 42962 40000 10184 20015 39024 40084 52021 80001 90250 333 20158 84070;
0213407850999992000050206004+33980+051450FM-12+0982OIFK V0209999C000012200019N0100001N1+02361-00301101021ADDAA124000091GA1041+060009019GF104991001001999999011999MA1999999090391MD1210151+9999REMSYN100AAXX  02061 40785 32960 40000 10236 21030 39039 40102 52015 8001/ 90550 333 30013 51301 70000 84070;EQDQ01  00002PRCP24
0193407850999992000050209004+33980+051450FM-12+0982OIFK V0200701N003010600019N0080001N1+02761-00241100751ADDAY101031AY201031GA1051+060009019GF105991001001999999001011MA1999999090261MD1810131+9999MW1071REMSYN088AAXX  02091 40785 41958 50703 10276 21024 39026 40075 58013 70700 80001 90850 333 85070;
0190407850999992000050215004+33980+051450FM-12+0982OIFK V0209999C00001036001CN0100001N1+02801+00131100661ADDGA1021+012009069GF106991021051012501031001KA1120M+03101MA1999999090021MD1610021+9999REMSYN094AAXX  02151 40785 42660 60000 10280 20013 39002 40066 56002 82530 91450 333 10310 82640 86360;
0183407850999992000050300004+33980+051450FM-12+0982OIFK V0209999C000012200019N0100001N1+02061+00141100841ADDAA199000091GA1001+999999999GF100991001001999999001001MA1999999090241MD1410001+9999REMSYN070AAXX  03001 40785 32960 00000 10206 20014 39024 40084 54000 92350 333;EQDQ01  00002PRCP99
0172407850999992000050303004+33980+051450FM-12+0982OIFK V0202401N003012200019N0120001N1+02061-00311100881ADDGA1001+999999999GF100991001001999999001001KA1999N+01621MA1999999090271MD1410001+9999REMSYN076AAXX  03031 40785 42962 02403 10206 21031 39027 40088 54000 90250 333 20162;
0201407850999992000050306004+33980+051450FM-12+0982OIFK V0209999C000012200019N0100001N1+02781-00121100921ADDAA124000091GA1001+999999999GF100991001001999999001001MA1999999090351MD1110081+9999REMSYN088AAXX  03061 40785 32960 00000 10278 21012 39035 40092 51008 90550 333 30012 51201 70000;EQDQ01  00002PRCP24
0138407850999992000050309004+33980+051450FM-12+0982OIFK V0209999C000012200019N0100001N1+03061-00581999999ADDGA1001+999999999GF100991001001999999001001MA1999999090251REMSYN069AAXX  03091 40785 42960 00000 10306 21058 39025 4008 57010 90850 333;
0183407850999992000050312004+33980+051450FM-12+0982OIFK V0209999C000012200019N0100001N1+03261-00791100601ADDAA199000091GA1001+999999999GF100991001001999999001001MA1999999090061MD1710191+9999REMSYN070AAXX  03121 40785 32960 00000 10326 21079 39006 40060 57019 91150 333;EQDQ01  00002PRCP99
0172407850999992000050315004+33980+051450FM-12+0982OIFK V0209999C000012200019N0100001N1+03101-00171100561ADDGA1001+999999999GF100991001001999999001001KA1999M+03401MA1999999090001MD1610061+9999REMSYN076AAXX  03151 40785 42960 00000 10310 21017 39000 40056 56006 91450 333 10340;
0189407850999992000050318004+33980+051450FM-12+0982OIFK V0209999C000012200019N0100001N1+02541-00061100671ADDAA199000091GA1001+999999999GF100991001001999999001001MA1999999090141MD1210141+9999REMSYN076AAXX  03181 40785 32960 00000 10254 21006 39014 40067 52014 91750 333 55120;EQDQ01  00002PRCP99
0153407850999992000050321004+33980+051450FM-12+0982OIFK V0209999C000012200019N0100001N1+02481-00281100721ADDGA1001+999999999GF100991001001999999001001MA1999999090211MD1210071+9999REMSYN070AAXX  03211 40785 42960 00000 10248 21028 39021 40072 52007 92050 333;
0183407850999992000050400004+33980+051450FM-12+0982OIFK V0209999C000012200019N0100001N1+02121-00021100741ADDAA199000091GA1001+999999999GF100991001001999999001001MA1999999090211MD1410001+9999REMSYN070AAXX  04001 40785 32960 00000 10212 21002 39021 40074 54000 92350 333;EQDQ01  00002PRCP99
0172407850999992000050403004+33980+051450FM-12+0982OIFK V0209999C000012200019N0100001N1+01841+00141100951ADDGA1001+999999999GF100991001001999999001001KA1999N+01801MA1999999090311MD1210101+9999REMSYN076AAXX  04031 40785 42960 00000 10184 20014 39031 40095 52010 90250 333 20180;
0213407850999992000050406004+33980+051450FM-12+0982OIFK V0209999C000012200019N0150001N1+03041+00271100941ADDAA124000091GA1021+060009019GF102991001001999999001011MA1999999090431MD1110121+9999REMSYN100AAXX  04061 40785 32965 20000 10304 20027 39043 40094 51012 80001 90550 333 30016 51181 70000 82070;EQDQ01  00002PRCP24
0195407850999992000050412004+33980+051450FM-12+0982OIFK V0200601N003012200019N0150001N1+03561+00141100511ADDAA199000091GA1011+012009059GF101991011041012501001001MA1999999090071MD1710161+9999REMSYN082AAXX  04121 40785 32665 10603 10356 20014 39007 40051 57016 81400 91150 333 81640;EQDQ01  00002PRCP99
0189407850999992000050418004+33980+051450FM-12+0982OIFK V0209999C000012200019N0100001N1+02761+00331100601ADDAA199000091GA1001+999999999GF100991001001999999001001MA1999999090181MD1210171+9999REMSYN076AAXX  04181 40785 32960 00000 10276 20033 39018 40060 52017 91750 333 55098;EQDQ01  00002PRCP99
0153407850999992000050421004+33980+051450FM-12+0982OIFK V0209999C000012200019N0100001N1+02521+00201100561ADDGA1001+999999999GF100991001001999999001001MA1999999090161MD1610021+9999REMSYN070AAXX  04211 40785 42960 00000 10252 20020 39016 40056 56002 92050 333;
0201407850999992000050512004+33980+051450FM-12+0982OIFK V0203501N00201220001CN0150001N1+03501+00251100621ADDAA199000091GA1021+012009069GF106991021041012501001011MA1999999090161MD1710231+9999REMSYN088AAXX  05121 40785 32665 63502 10350 20025 39016 40062 57023 82401 91150 333 82640 86070;EQDQ01  00002PRCP99
0209407850999992000050518004+33980+051450FM-12+0982OIFK V0202401N002012200019N0150001N1+02821+00231100541ADDAA199000091GA1021+060009019GF102991001001999999001011GJ106369MA1999999090101MD1410001+9999REMSYN088AAXX  05181 40785 32965 22402 10282 20023 39010 40054 54000 80001 91750 333 55106 82070;EQDQ01  00002PRCP99
0183407850999992000050600004+33980+051450FM-12+0982OIFK V0209999C000012200019N0150001N1+02361+00211100581ADDAA199000091GA1001+999999999GF100991001001999999001001MA1999999090121MD1410001+9999REMSYN070AAXX  06001 40785 32965 00000 10236 20021 39012 40058 54000 92350 333;EQDQ01  00002PRCP99
0213407850999992000050606004+33980+051450FM-12+0982OIFK V0209999C000012200019N0150001N1+03021+00681100901ADDAA124000091GA1031+060009019GF103991001001999999001011MA1999999090431MD1210091+9999REMSYN100AAXX  06061 40785 32965 30000 10302 20068 39043 40090 52009 80001 90550 333 30019 51121 70000 83070;EQDQ01  00002PRCP24
0169407850999992000050609004+33980+051450FM-12+0982OIFK V0209999C000012200019N0100001N1+03361+00421100431ADDGA1041+060009019GF104991001001999999001011MD1710161+9999REMSYN082AAXX  06091 40785 42960 40000 10336 20042 39274 40043 57016 80001 90850 333 84070;EQDQ01+092743APOSP 
0201407850999992000050612004+33980+051450FM-12+0982OIFK V0200501N002012200019N0100001N1+03561+00581100461ADDAA199000091GA1011+010509069GF104991011041012501001021MA1999999090041MD1710231+9999REMSYN088AAXX  06121 40785 32660 40502 10356 20058 39004 40046 57023 81402 91150 333 81635 84070;EQDQ01  00002PRCP99
0212407850999992000050615004+33980+051450FM-12+0982OIFK V0209999C000010120019N0150001N1+03361+00821100451ADDGA1021+010509099GA2031+012009069GF107991051031012501001071KA1120M+03601MA1999999089961MD1710081+9999REMSYN100AAXX  06151 40785 42665 70000 10336 20082 38996 40045 57008 85307 91450 333 10360 82935 83640 87270;
0215407850999992000050618004+33980+051450FM-12+0982OIFK V0209999C00001090001CN0100001N1+03121+00701100561ADDAA199000091GA1031+012009069GF106991031041012501001071GJ105409MA1999999090161MD1210101+9999REMSYN094AAXX  06181 40785 32660 60000 10312 20070 39016 40056 52010 83407 91750 333 55090 83640 86270;EQDQ01  00002PRCP99
0171407850999992000050621004+33980+051450FM-12+0982OIFK V0209999C00001220001CN0100001N1+03101+00391100531ADDGA1031+010509069GF106991031041012501001061MA1999999090211MD1210051+9999REMSYN088AAXX  06211 40785 42660 60000 10310 20039 39021 40053 52005 83406 92050 333 83635 86270;
0223407850999992000050712004+33980+051450FM-12+0982OIFK V0209999C00001220001CN0100001N1+03461+01041100431ADDAA199000091GA1011+010509099GA2031+012009069GF106991041061012501001061MA1999999090241MD1710221+9999REMSYN094AAXX  07121 40785 32660 60000 10346 20104 39024 40043 57022 84606 91150 333 81935 83640 86270;EQDQ01  00002PRCP99
0171407850999992000050809004+33980+051450FM-12+0982OIFK V0200101N00401036001CN0150001N1+02981+00641100601ADDGA1041+012009069GF107991041041012501071001MA1999999090131MD1410001+9999REMSYN088AAXX  08091 40785 42665 70104 10298 20064 39013 40060 54000 84470 90846 333 84640 87360;
0223407850999992000050812004+33980+051450FM-12+0982OIFK V0200101N00201036001CN0120001N1+03001+00661100531ADDAA199000091GA1011+010509099GA2031+012009069GF107991031041012501021001MA1999999090011MD1710121+9999REMSYN094AAXX  08121 40785 32662 70102 10300 20066 39001 40053 57012 83420 91146 333 81935 83640 87459;EQDQ01  00002PRCP99
0190407850999992000050815004+33980+051450FM-12+0982OIFK V0209999C00001036001CN0120001N1+03101+00311100231ADDGA1041+012009069GF106991041041012501071001KA1120M+03151MA1999999089761MD1710251+9999REMSYN094AAXX  08151 40785 42662 60000 10310 20031 38976 40023 57025 84470 91446 333 10315 84640 86360;
0189407850999992000050818004+33980+051450FM-12+0982OIFK V0209999C000012200019N0120001N1+02741+00581100221ADDAA199000091GA1001+999999999GF100991001001999999001001MA1999999089791MD1310031+9999REMSYN076AAXX  08181 40785 32962 00000 10274 20058 38979 40022 53003 91746 333 55012;EQDQ01  00002PRCP99
0183407850999992000050900004+33980+051450FM-12+0982OIFK V0202601N003012200019N0150001N1+02501+00481100411ADDAA199000091GA1001+999999999GF100991001001999999001001MA1999999089961MD1410001+9999REMSYN070AAXX  09001 40785 32965 02603 10250 20048 38996 40041 54000 92345 333;EQDQ01  00002PRCP99
0172407850999992000050903004+33980+051450FM-12+0982OIFK V0200601N002012200019N0150001N1+02061+00641100281ADDGA1001+999999999GF100991001001999999001001KA1999N+02021MA1999999089801MD1410001+9999REMSYN076AAXX  09031 40785 42965 00602 10206 20064 38980 40028 54000 90245 333 20202;
0219407850999992000050906004+33980+051450FM-12+0982OIFK V0200301N003012200019N0150001N1+03061+00641100211ADDAA124000091GA1011+012009069GF103991011041012501001011MA1999999089821MD1110021+9999REMSYN106AAXX  09061 40785 32665 30303 10306 20064 38982 40021 51002 81401 90550 333 30017 51041 70000 81640 83070;EQDQ01  00002PRCP24
0171407850999992000050909004+33980+051450FM-12+0982OIFK V0202301N005012200019N0120001N1+03641+00011099981ADDGA1021+012009069GF104991021041012501001021MA1999999089681MD1710141+9999REMSYN088AAXX  09091 40785 42662 42305 10364 20001 38968 49998 57014 82402 90850 333 82640 83070;
0201407850999992000050912004+33980+051450FM-12+0982OIFK V0202401N004012200019N0120001N1+03761-00091099881ADDAA199000091GA1021+012009069GF104991021041012501001021MA1999999089581MD1710101+9999REMSYN088AAXX  09121 40785 32662 42404 10376 21009 38958 49988 57010 82402 91150 333 82640 84070;EQDQ01  00002PRCP99
0184407850999992000050915004+33980+051450FM-12+0982OIFK V0202201N007012200019N0120001N1+03381-00201100131ADDGA1011+012009059GF102991011041012501001011KA1120M+03801MA1999999089671MD1310091+9999REMSYN088AAXX  09151 40785 42662 22207 10338 21020 38967 40013 53009 81401 91450 333 10380 81640;
0153407850999992000050921004+33980+051450FM-12+0982OIFK V0209999C000012200019N0100001N1+02101+00171100481ADDGA1001+999999999GF100991001001999999001001MA1999999090031MD1210141+9999REMSYN070AAXX  09211 40785 42960 00000 10210 20017 39003 40048 52014 92050 333;
0183407850999992000051000004+33980+051450FM-12+0982OIFK V0209999C000012200019N0100001N1+02001+00321100481ADDAA199000091GA1001+999999999GF100991001001999999001001MA1999999090031MD1410001+9999REMSYN070AAXX  10001 40785 32960 00000 10200 20032 39003 40048 54000 92350 333;EQDQ01  00002PRCP99
0182407850999992000051006004+33980+051450FM-12+0982OIFK V0200601N002012200019N0150001N1+02621+00351100791ADDAA124999999GA1001+999999999GF100991001001999999001001MA1999999090261MD1110151+9999REMSYN088AAXX  10061 40785 32965 00602 10262 20035 39026 40079 51015 90550 333 30012 51321 7000/;
0111407850999992000051009004+33980+051450FM-12+0982OIFK V0209999C002019999999N0150001N1+02901+00081100681ADDMA1999999090111MD1710151+9999REMSYN070AAXX  10091 40785 42965 /0002 10290 20008 39011 40068 57015 90850 333;
0184407850999992000051012004+33980+051450FM-12+0982OIFK V0201201N002012200019N0150001N1+03141-00281100511ADDAA199000091GA1001+999999999GF100991001001999999001001MD1710151+9999REMSYN070AAXX  10121 40785 32965 01202 10314 21028 39996 40051 57015 91150 333;EQDQ01+099963APOSP Q02  00002PRCP99
0172407850999992000051015004+33980+051450FM-12+0982OIFK V0209999C000012200019N0150001N1+03081-00011100661ADDGA1001+999999999GF100991001001999999001001KA1999M+03221MA1999999090031MD1310071+9999REMSYN076AAXX  10151 40785 42965 00000 10308 21001 39003 40066 53007 91450 333 10322;
0189407850999992000051018004+33980+051450FM-12+0982OIFK V0209999C000012200019N0150001N1+02441+00041100811ADDAA199000091GA1001+999999999GF100991001001999999001001MA1999999090241MD1210211+9999REMSYN076AAXX  10181 40785 32965 00000 10244 20004 39024 40081 52021 91750 333 55123;EQDQ01  00002PRCP99
0153407850999992000051021004+33980+051450FM-12+0982OIFK V0209999C000012200019N0150001N1+02281+00161100791ADDGA1001+999999999GF100991001001999999001001MA1999999090241MD1410001+9999REMSYN070AAXX  10211 40785 42965 00000 10228 20016 39024 40079 54000 92050 333;
0184407850999992000051100004+33980+051450FM-12+0982OIFK V0209999C000012200019N0150001N1+01541+00121100811ADDAA199000091GA1001+999999999GF100991001001999999001001MD1810051+9999REMSYN070AAXX  11001 40785 32965 00000 10154 20012 3019/ 40081 58005 92350 333;EQDQ01+101903APOSP Q02  00002PRCP99
0158407850999992000051103004+33980+051450FM-12+0982OIFK V0209999C000019999999N0150001N1+01701-00081100971ADDGA1021+030009079KA1120N+01501MA1999999090331MD1210141+9999REMSYN088AAXX  11031 40785 42965 /2000 10170 21008 39033 40097 52014 82020 90250 333 20150 82360;
0153407850999992000051109004+33980+051450FM-12+0982OIFK V0209999C000012200019N0150001N1+02901+00071100811ADDGA1001+999999999GF100991001001999999001001MA1999999090271MD1810091+9999REMSYN070AAXX  11091 40785 42965 00000 10290 20007 39027 40081 58009 90850 333;
0183407850999992000051112004+33980+051450FM-12+0982OIFK V0209999C000012200019N0100001N1+03081-00081100701ADDAA199000091GA1001+999999999GF100991001001999999001001MA1999999090051MD1710221+9999REMSYN070AAXX  11121 40785 32960 00000 10308 21008 39005 40070 57022 91150 333;EQDQ01  00002PRCP99
0189407850999992000051118004+33980+051450FM-12+0982OIFK V0209999C000012200019N0100001N1+02341+00111100721ADDAA199000091GA1001+999999999GF100991001001999999001001MA1999999090131MD1310111+9999REMSYN076AAXX  11181 40785 32960 00000 10234 20011 39013 40072 53011 91752 333 55124;EQDQ01  00002PRCP99
0153407850999992000051121004+33980+051450FM-12+0982OIFK V0209999C000012200019N0100001N1+02201+00001100681ADDGA1001+999999999GF100991001001999999001001MA1999999090131MD1410001+9999REMSYN070AAXX  11211 40785 42960 00000 10220 20000 39013 40068 54000 92052 333;
0183407850999992000051200004+33980+051450FM-12+0982OIFK V0209999C000012200019N0100001N1+01701+00041100701ADDAA199000091GA1001+999999999GF100991001001999999001001MA1999999090131MD1410001+9999REMSYN070AAXX  12001 40785 32960 00000 10170 20004 39013 40070 54000 92350 333;EQDQ01  00002PRCP99
0191407850999992000051203004+33980+051450FM-12+0982OIFK V0209999C000012200019N0150001N1+01661-00401100931ADDGA1001+999999999GF100991001001999999001001KA1999M+99999MA1999999090281MD1310151+9999REMSYN076AAXX  12031 40785 42965 00000 10166 21040 39028 40093 53015 90250 333 10150;EQDQ01 +01502ATMX  
0171407850999992000051206004+33980+051450FM-12+0982OIFK V0203301N002012200019N0150001N1+02481-00541999999ADDAA199000091GA1001+999999999GF100991001001999999001001REMSYN087AAXX  12061 40785 32965 03302 10248 21054 3904 40101 51006 90550 333 30011 50901 70000;EQDQ01  00002PRCP99
0153407850999992000051209004+33980+051450FM-12+0982OIFK V0203001N003012200019N0150001N1+02901-00201100781ADDGA1001+999999999GF100991001001999999001001MA1999999090201MD1810141+9999REMSYN070AAXX  12091 40785 42965 03003 10290 21020 39020 40078 58014 90850 333;
0183407850999992000051212004+33980+051450FM-12+0982OIFK V0203501N003012200019N0150001N1+03181-00211100561ADDAA199000091GA1001+999999999GF100991001001999999001001MA1999999089931MD1710271+9999REMSYN070AAXX  12121 40785 32965 03503 10318 21021 38993 40056 57027 91150 333;EQDQ01  00002PRCP99
0130407850999992000051215004+33980+051450FM-12+0982OIFK V0209999C000019999999N0150001N1+03001-00771100551ADDKA1999M+03201MA1999999089911MD1610021+9999REMSYN076AAXX  12151 40785 42965 /0000 10300 21077 38991 40055 56002 91450 333 10320;
0189407850999992000051218004+33980+051450FM-12+0982OIFK V0209999C000012200019N0150001N1+02381-00201100771ADDAA199000091GA1001+999999999GF100991001001999999001001MA1999999090171MD1210261+9999REMSYN076AAXX  12181 40785 32965 00000 10238 21020 39017 40077 52026 91750 333 55122;EQDQ01  00002PRCP99
0177407850999992000051300004+33980+051450FM-12+0982OIFK V0209999C000012200019N0150001N1+02061+99999100781ADDAA199000091GA1001+999999999GF100991001001999999001001MA1999999090211MD1410001+9999REMSYN064AAXX  13001 40785 32965 00000 10206 39021 40078 54000 92350 333;EQDQ01  00002PRCP99
0172407850999992000051303004+33980+051450FM-12+0982OIFK V0209999C000012200019N0150001N1+01881-00531100911ADDGA1001+999999999GF100991001001999999001001KA1999N+01681MA1999999090291MD1310081+9999REMSYN076AAXX  13031 40785 42965 00000 10188 21053 39029 40091 53008 90250 333 20168;
0207407850999992000051306004+33980+051450FM-12+0982OIFK V0200201N002012200019N0150001N1+02881+00061100991ADDAA199000091GA1021+060009019GF102991001001999999001011MA1999999090441MD1110151+9999REMSYN094AAXX  13061 40785 32965 20202 10288 20006 39044 40099 51015 80001 90550 333 30011 51051 82070;EQDQ01  00002PRCP99
0195407850999992000051312004+33980+051450FM-12+0982OIFK V0209999C000012200019N0150001N1+03261+00061100641ADDAA199000091GA1021+060009019GF102991001001999999001011MA1999999090101MD1710171+9999REMSYN082AAXX  13121 40785 32965 20000 10326 20006 39010 40064 57017 80001 91150 333 82070;EQDQ01  00002PRCP99
0172407850999992000051315004+33980+051450FM-12+0982OIFK V0209999C000012200019N0150001N1+03001+00061100611ADDGA1001+999999999GF100991001001999999001001KA1999M+03301MA1999999090021MD1610081+9999REMSYN076AAXX  13151 40785 42965 00000 10300 20006 39002 40061 56008 91450 333 10330;
0189407850999992000051318004+33980+051450FM-12+0982OIFK V0209999C000012200019N0150001N1+02321+00271100741ADDAA199000091GA1001+999999999GF100991001001999999001001MA1999999090191MD1210171+9999REMSYN076AAXX  13181 40785 32965 00000 10232 20027 39019 40074 52017 91750 333 55124;EQDQ01  00002PRCP99
0153407850999992000051321004+33980+051450FM-12+0982OIFK V0209999C000012200019N0100001N1+02081+00181100641ADDGA1001+999999999GF100991001001999999001001MA1999999090191MD1410001+9999REMSYN070AAXX  13211 40785 42960 00000 10208 20018 39019 40064 54000 92050 333;
0183407850999992000051400004+33980+051450FM-12+0982OIFK V0209999C000012200019N0100001N1+01801-00131100731ADDAA199000091GA1001+999999999GF100991001001999999001001MA1999999090171MD1810021+9999REMSYN070AAXX  14001 40785 32960 00000 10180 21013 39017 40073 58002 92350 333;EQDQ01  00002PRCP99
0172407850999992000051403004+33980+051450FM-12+0982OIFK V0209999C000012200019N0150001N1+02021-00341100901ADDGA1001+999999999GF100991001001999999001001KA1999N+01681MA1999999090291MD1310121+9999REMSYN076AAXX  14031 40785 42965 00000 10202 21034 39029 40090 53012 90250 333 20168;
0153407850999992000051409004+33980+051450FM-12+0982OIFK V0200501N003012200019N0150001N1+03341-00381100661ADDGA1001+999999999GF100991001001999999001001MA1999999090151MD1710191+9999REMSYN070AAXX  14091 40785 42965 00503 10334 21038 39015 40066 57019 90850 333;
0172407850999992000051415004+33980+051450FM-12+0982OIFK V0209999C000012200019N0150001N1+03381-00481100281ADDGA1001+999999999GF100991001001999999001001KA1999M+03601MA1999999089811MD1610061+9999REMSYN076AAXX  14151 40785 42965 00000 10338 21048 38981 40028 56006 91450 333 10360;
0189407850999992000051418004+33980+051450FM-12+0982OIFK V0209999C000012200019N0150001N1+02721-00161100391ADDAA199000091GA1001+999999999GF100991001001999999001001MA1999999089931MD1310121+9999REMSYN076AAXX  14181 40785 32965 00000 10272 21016 38993 40039 53012 91750 333 55119;EQDQ01  00002PRCP99
0153407850999992000051421004+33980+051450FM-12+0982OIFK V0209999C000012200019N0150001N1+02421-00161100411ADDGA1001+999999999GF100991001001999999001001MA1999999089961MD1310031+9999REMSYN070AAXX  14211 40785 42965 00000 10242 21016 38996 40041 53003 92050 333;
0183407850999992000051500004+33980+051450FM-12+0982OIFK V0209999C000012200019N0150001N1+01981+00021100311ADDAA199000091GA1001+999999999GF100991001001999999001001MA1999999089851MD1710041+9999REMSYN070AAXX  15001 40785 32965 00000 10198 20002 38985 40031 57004 92350 333;EQDQ01  00002PRCP99
0172407850999992000051503004+33980+051450FM-12+0982OIFK V0209999C000012200019N0150001N1+02281+00001100381ADDGA1001+999999999GF100991001001999999001001KA1999N+01801MA1999999089921MD1310071+9999REMSYN076AAXX  15031 40785 42965 00000 10228 20000 38992 40038 53007 90250 333 20180;
0213407850999992000051506004+33980+051450FM-12+0982OIFK V0209999C000012200019N0150001N1+02861+00031100471ADDAA124000091GA1031+060009019GF103991001001999999001011MA1999999090001MD1110081+9999REMSYN100AAXX  15061 40785 32965 30000 10286 20003 39000 40047 51008 80001 90553 333 30014 51141 70000 83070;EQDQ01  00002PRCP24
0165407850999992000051509004+33980+051450FM-12+0982OIFK V0209999C000012200019N0100001N1+03421-00041100201ADDGA1041+060009019GF104991001001999999001011MA1999999089821MD1710181+9999REMSYN082AAXX  15091 40785 42960 40000 10342 21004 38982 40020 57018 80001 90852 333 84070;
0183407850999992000051512004+33980+051450FM-12+0982OIFK V0200301N002012200019N0150001N1+03521-00251100001ADDAA199000091GA1001+999999999GF100991001001999999001001MA1999999089751MD1710251+9999REMSYN070AAXX  15121 40785 32965 00302 10352 21025 38975 40000 57025 91150 333;EQDQ01  00002PRCP99
0183407850999992000051600004+33980+051450FM-12+0982OIFK V0209999C000012200019N0100001N1+02941+00211100081ADDAA199000091GA1001+999999999GF100991001001999999001001MA1999999089691MD1410001+9999REMSYN070AAXX  16001 40785 32960 00000 10294 20021 38969 40008 54000 92350 333;EQDQ01  00002PRCP99
0172407850999992000051603004+33980+051450FM-12+0982OIFK V0209999C000012200019N0150001N1+02101+00061100351ADDGA1001+999999999GF100991001001999999001001KA1999N+02081MA1999999089911MD1310221+9999REMSYN076AAXX  16031 40785 42965 00000 10210 20006 38991 40035 53022 90252 333 20208;
0201407850999992000051606004+33980+051450FM-12+0982OIFK V0202201N002012200019N0150001N1+02961+00111100461ADDAA124000091GA1001+999999999GF100991001001999999001001MA1999999090011MD1110101+9999REMSYN088AAXX  16061 40785 32965 02202 10296 20011 39001 40046 51010 90546 333 30017 51151 70000;EQDQ01  00002PRCP24
0183407850999992000051612004+33980+051450FM-12+0982OIFK V0202301N003012200019N0150001N1+03461+00311099911ADDAA199000091GA1001+999999999GF100991001001999999001001MA1999999089531MD1710291+9999REMSYN070AAXX  16121 40785 32965 02303 10346 20031 38953 49991 57029 91146 333;EQDQ01  00002PRCP99
0172407850999992000051615004+33980+051450FM-12+0982OIFK V0209999C000012200019N0150001N1+03301-00021099931ADDGA1001+999999999GF100991001001999999001001KA1999M+03501MA1999999089501MD1610031+9999REMSYN076AAXX  16151 40785 42965 00000 10330 21002 38950 49993 56003 91446 333 10350;
0189407850999992000051618004+33980+051450FM-12+0982OIFK V0209999C000012200019N0150001N1+02821+00101100031ADDAA199000091GA1001+999999999GF100991001001999999001001MA1999999089671MD1210171+9999REMSYN076AAXX  16181 40785 32965 00000 10282 20010 38967 40003 52017 91746 333 55117;EQDQ01  00002PRCP99
0172407850999992000051703004+33980+051450FM-12+0982OIFK V0209999C000012200019N0150001N1+02101+00211100291ADDGA1001+999999999GF100991001001999999001001KA1999N+01941MA1999999089841MD1310111+9999REMSYN076AAXX  17031 40785 42965 00000 10210 20021 38984 40029 53011 90247 333 20194;
0201407850999992000051706004+33980+051450FM-12+0982OIFK V0200301N002012200019N0150001N1+02821+00181100371ADDAA124000091GA1001+999999999GF100991001001999999001001MA1999999089931MD1110091+9999REMSYN088AAXX  17061 40785 32965 00302 10282 20018 38993 40037 51009 90550 333 30016 51171 70000;EQDQ01  00002PRCP24
0195407850999992000051712004+33980+051450FM-12+0982OIFK V0200801N002012200019N0150001N1+03401+00201099911ADDAA199000091GA1011+012009029GF101991011011012501001001MA1999999089531MD1710241+9999REMSYN082AAXX  17121 40785 32665 10802 10340 20020 38953 49991 57024 81100 91150 333 81840;EQDQ01  00002PRCP99
0184407850999992000051715004+33980+051450FM-12+0982OIFK V0209999C000012200019N0150001N1+03321+00131100061ADDGA1011+012009059GF101991011041012501001001KA1120M+03501MA1999999089621MD1310091+9999REMSYN088AAXX  17151 40785 42665 10000 10332 20013 38962 40006 53009 81400 91450 333 10350 81640;
0189407850999992000051718004+33980+051450FM-12+0982OIFK V0209999C000012200019N0150001N1+02681+00321100091ADDAA199000091GA1001+999999999GF100991001001999999001001MA1999999089671MD1310051+9999REMSYN076AAXX  17181 40785 32965 00000 10268 20032 38967 40009 53005 91750 333 55117;EQDQ01  00002PRCP99
0153407850999992000051721004+33980+051450FM-12+0982OIFK V0209999C000012200019N0150001N1+02261+00471100141ADDGA1001+999999999GF100991001001999999001001MA1999999089711MD1110041+9999REMSYN070AAXX  17211 40785 42965 00000 10226 20047 38971 40014 51004 92050 333;
0201407850999992000051806004+33980+051450FM-12+0982OIFK V0209999C000012200019N0150001N1+02841+00181100401ADDAA124000091GA1001+999999999GF100991001001999999001001MA1999999089941MD1110031+9999REMSYN088AAXX  18061 40785 32965 00000 10284 20018 38994 40040 51003 90546 333 30017 51001 70000;EQDQ01  00002PRCP24
0195407850999992000051812004+33980+051450FM-12+0982OIFK V0209999C000012200019N0150001N1+03381+00161099971ADDAA199000091GA1021+012009029GF102991021011012501001001MA1999999089561MD1710271+9999REMSYN082AAXX  18121 40785 32665 20000 10338 20016 38956 49997 57027 82100 91145 333 82840;EQDQ01  00002PRCP99
0184407850999992000051815004+33980+051450FM-12+0982OIFK V0209999C000012200019N0150001N1+03301+00101099961ADDGA1021+012009029GF102991021011012501001001KA1120M+03501MA1999999089541MD1610021+9999REMSYN088AAXX  18151 40785 42665 20000 10330 20010 38954 49996 56002 82100 91446 333 10350 82840;
0189407850999992000051818004+33980+051450FM-12+0982OIFK V0209999C000012200019N0150001N1+99999+99999100071ADDAA199000091GA1001+999999999GF100991001001999999001001MA1999999089641MD1310101+9999REMSYN076AAXX  18181 40785 32965 00000 10/74 20010 38964 40007 53010 91747 333 55121;EQDQ01  00002PRCP99
0183407850999992000051900004+33980+051450FM-12+0982OIFK V0209999C000012200019N0150001N1+02041+00231100351ADDAA199000091GA1001+999999999GF100991001001999999001001MA1999999089761MD1410001+9999REMSYN070AAXX  19001 40785 32965 00000 10204 20023 38976 40035 54000 92347 333;EQDQ01  00002PRCP99
0172407850999992000051903004+33980+051450FM-12+0982OIFK V0209999C000012200019N0150001N1+01901+00291100451ADDGA1001+999999999GF100991001001999999001001KA1999N+01801MA1999999089921MD1310161+9999REMSYN076AAXX  19031 40785 42965 00000 10190 20029 38992 40045 53016 90247 333 20180;
0201407850999992000051906004+33980+051450FM-12+0982OIFK V0209999C000012200019N0100001N1+02701+00451100481ADDAA124000091GA1001+999999999GF100991001001999999001001MA1999999090011MD1110091+9999REMSYN088AAXX  19061 40785 32960 00000 10270 20045 39001 40048 51009 90550 333 30014 51051 70000;EQDQ01  00002PRCP24
0157407850999992000051909004+33980+051450FM-12+0982OIFK V0209999C000012200019N0150001N1+03201+00461100161ADDGA1001+999999999GF100991001001999999001001MD1710241+9999REMSYN070AAXX  19091 40785 42965 00000 10320 20046 38477 40016 57024 90850 333;EQDQ01+084773APOSP 
0183407850999992000051912004+33980+051450FM-12+0982OIFK V0202201N003012200019N0100001N1+03521+00371099931ADDAA199000091GA1001+999999999GF100991001001999999001001MA1999999089531MD1710241+9999REMSYN070AAXX  19121 40785 32960 02203 10352 20037 38953 49993 57024 91150 333;EQDQ01  00002PRCP99
0184407850999992000051915004+33980+051450FM-12+0982OIFK V0202301N004012200019N0150001N1+03501+00021099751ADDGA1021+012009059GF102991021041012501001001KA1120M+03651MA1999999089351MD1610181+9999REMSYN088AAXX  19151 40785 42665 22304 10350 20002 38935 49975 56018 82400 91450 333 10365 82640;
0189407850999992000051918004+33980+051450FM-12+0982OIFK V0209999C000012200019N0100001N1+03121+00321099801ADDAA199000091GA1001+999999999GF100991001001999999001001MA1999999089481MD1210131+9999REMSYN076AAXX  19181 40785 32960 00000 10312 20032 38948 49980 52013 91750 333 55118;EQDQ01  00002PRCP99
0153407850999992000051921004+33980+051450FM-12+0982OIFK V0202201N003012200019N0100001N1+02921+00271099821ADDGA1001+999999999GF100991001001999999001001MA1999999089531MD1110051+9999REMSYN070AAXX  19211 40785 42960 02203 10292 20027 38953 49982 51005 92050 333;
0183407850999992000052000004+33980+051450FM-12+0982OIFK V0209999C000012200019N0150001N1+02561+00271099811ADDAA199000091GA1001+999999999GF100991001001999999001001MA1999999089531MD1410001+9999REMSYN070AAXX  20001 40785 32965 00000 10256 20027 38953 49981 54000 92350 333;EQDQ01  00002PRCP99
0172407850999992000052003004+33980+051450FM-12+0982OIFK V0202301N003012200019N0100001N1+02641+00151099941ADDGA1001+999999999GF100991001001999999001001KA1999N+01251MA1999999089631MD1310101+9999REMSYN076AAXX  20031 40785 42960 02303 10264 20015 38963 49994 53010 90250 333 20125;
0153407850999992000052021004+33980+051450FM-12+0982OIFK V0209999C000012200019N0100001N1+02541+00091100441ADDGA1001+999999999GF100991001001999999001001MA1999999090011MD1210081+9999REMSYN070AAXX  20211 40785 42960 00000 10254 20009 39001 40044 52008 92050 333;
0183407850999992000052100004+33980+051450FM-12+0982OIFK V0209999C000012200019N0100001N1+02201+00021100421ADDAA199000091GA1001+999999999GF100991001001999999001001MA1999999090011MD1410001+9999REMSYN070AAXX  21001 40785 32960 00000 1022/ 20002 39001 40042 54000 92350 333;EQDQ01  00002PRCP99
0130407850999992000052103004+33980+051450FM-12+0982OIFK V0209999C000019999999N0120001N1+01961+00561100681ADDKA1999N+01851MA1999999090141MD1210131+9999REMSYN076AAXX  21031 40785 42962 /0000 10196 20056 39014 40068 52013 90250 333 20185;
0201407850999992000052106004+33980+051450FM-12+0982OIFK V0209999C000012200019N0100001N1+02761+00181100721ADDAA124000091GA1001+999999999GF100991001001999999001001MA1999999090211MD1110071+9999REMSYN088AAXX  21061 40785 32960 00000 10276 20018 39021 40072 51007 90546 333 30016 51141 70000;EQDQ01  00002PRCP24
0147407850999992000052109004+33980+051450FM-12+0982OIFK V0209999C000012200019N0100001N1+03081+00211100551ADDGA1001+999999999GF100991001001999999001001MA1999999090071MD1810141+9999REMSYN064AAXX  21091 40785 42960 00000 10308 20021 39007 40055 58014 333;
0183407850999992000052112004+33980+051450FM-12+0982OIFK V0209999C000012200019N0100001N1+03321+00401100281ADDAA199000091GA1001+999999999GF100991001001999999001001MA1999999089821MD1710251+9999REMSYN070AAXX  21121 40785 32960 00000 10332 20040 38982 40028 57025 91145 333;EQDQ01  00002PRCP99
0172407850999992000052115004+33980+051450FM-12+0982OIFK V0209999C000012200019N0100001N1+03141+00271100351ADDGA1001+999999999GF100991001001999999001001KA1999M+03361MA1999999089821MD1410001+9999REMSYN076AAXX  21151 40785 42960 00000 10314 20027 38982 40035 54000 91446 333 10336;
0189407850999992000052118004+33980+051450FM-12+0982OIFK V0209999C000012200019N0100001N1+02661+00691100471ADDAA199000091GA1001+999999999GF100991001001999999001001MA1999999089971MD1210151+9999REMSYN076AAXX  21181 40785 32960 00000 10266 20069 38997 40047 52015 91746 333 55099;EQDQ01  00002PRCP99
0183407850999992000052200004+33980+051450FM-12+0982OIFK V0209999C000012200019N0120001N1+02181+00141100551ADDAA199000091GA1001+999999999GF100991001001999999001001MA1999999090061MD1310071+9999REMSYN070AAXX  22001 40785 32962 00000 10218 20014 39006 40055 53007 92346 333;EQDQ01  00002PRCP99
0172407850999992000052203004+33980+051450FM-12+0982OIFK V0209999C000012200019N0150001N1+02221+00001100751ADDGA1001+999999999GF100991001001999999001001KA1999N+02001MA1999999090211MD1310151+9999REMSYN076AAXX  22031 40785 42965 00000 10222 20000 39021 40075 53015 90247 333 20200;
0189407850999992000052218004+33980+051450FM-12+0982OIFK V0209999C000012200019N0150001N1+02461+00481100591ADDAA199000091GA1001+999999999GF100991001001999999001001MA1999999090061MD1310091+9999REMSYN076AAXX  22181 40785 32965 00000 10246 20048 39006 40059 53009 91750 333 55118;EQDQ01  00002PRCP99
0151407850999992000052221004+33980+051450FM-12+0982OIFK V0209999C000012200019N0100001N1+02341+00491999999ADDGA1001+999999999GF100991001001999999001001MD1410001+9999REMSYN064AAXX  22211 40785 42960 00000 10234 20049 40153 54000 92050 333;EQDQ01+101533APOSLP
0183407850999992000052300004+33980+051450FM-12+0982OIFK V0209999C000012200019N0100001N1+01961+00561100641ADDAA199000091GA1001+999999999GF100991001001999999001001MA1999999090131MD1310071+9999REMSYN070AAXX  23001 40785 32960 00000 10196 20056 39013 40064 53007 92350 333;EQDQ01  00002PRCP99
0172407850999992000052303004+33980+051450FM-12+0982OIFK V0209999C000012200019N0100001N1+02141+01011100691ADDGA1001+999999999GF100991001001999999001001KA1999N+01941MA1999999090171MD1110051+9999REMSYN076AAXX  23031 40785 42960 00000 10214 20101 39017 40069 51005 90250 333 20194;
0201407850999992000052306004+33980+051450FM-12+0982OIFK V0203001N002012200019N0100001N1+02721+00421100671ADDAA124000091GA1001+999999999GF100991001001999999001001MA1999999090141MD1810041+9999REMSYN088AAXX  23061 40785 3/960 03002 10272 20042 39014 40067 58004 90550 333 30015 51221 70000;EQDQ01  00002PRCP24
0195407850999992000052312004+33980+051450FM-12+0982OIFK V0209999C000012200019N0120001N1+03601+00081100161ADDAA199000091GA1031+010509029GF103991031011012501001001MA1999999089671MD1710231+9999REMSYN082AAXX  23121 40785 32662 30000 1036/ 20008 38967 40016 57023 83100 91152 333 83835;EQDQ01  00002PRCP99
0178407850999992000052315004+33980+051450FM-12+0982OIFK V0209999C000012200019N0100001N1+03421+00321100061ADDGA1041+012009059GF104991999999012501999999KA1120M+03541MA1999999089611MD1610061+9999REMSYN082AAXX  23151 40785 42660 40000 10342 20032 38961 40006 56006 91450 333 10354 84640;
0189407850999992000052318004+33980+051450FM-12+0982OIFK V0209999C000012200019N0100001N1+02921+00241999999ADDAA199000091GA1001+999999999GF100991001001999999001001MA1999999089801MD1310091+9999REMSYN076AAXX  23181 40785 32960 00000 10292 20024 38980 4/025 53009 91750 333 55094;EQDQ01  00002PRCP99
0183407850999992000052400004+33980+051450FM-12+0982OIFK V0209999C000012200019N0100001N1+02061+00451100341ADDAA199000091GA1001+999999999GF100991001001999999001001MA1999999089901MD1310081+9999REMSYN070AAXX  24001 40785 32960 00000 10206 20045 38990 40034 53008 92352 333;EQDQ01  00002PRCP99
0172407850999992000052403004+33980+051450FM-12+0982OIFK V0209999C000012200019N0100001N1+02281+00331100561ADDGA1001+999999999GF100991001001999999001001KA1999N+01921MA1999999090091MD1210191+9999REMSYN076AAXX  24031 40785 42960 00000 10228 20033 39009 40056 52019 90250 333 20192;
0153407850999992000052409004+33980+051450FM-12+0982OIFK V0200701N003012200019N0100001N1+03321+00121100221ADDGA1001+999999999GF100991001001999999001001MA1999999089871MD1810221+9999REMSYN070AAXX  24091 40785 42960 00703 10332 20012 38987 40022 58022 90846 333;
0195407850999992000052412004+33980+051450FM-12+0982OIFK V0200401N002012200019N0120001N1+03581+00201099981ADDAA199000091GA1011+010509029GF101991011011012501001001MA1999999089641MD1710231+9999REMSYN082AAXX  24121 40785 32662 10402 10358 20020 38964 49998 57023 81100 91146 333 81835;EQDQ01  00002PRCP99
0183407850999992000052500004+33980+051450FM-12+0982OIFK V0209999C000012200019N0120001N1+02241+00251100121ADDAA199000091GA1001+999999999GF100991001001999999001001MA1999999089741MD1310081+9999REMSYN070AAXX  25001 40785 32962 00000 10224 20025 38974 40012 53008 92346 333;EQDQ01  00002PRCP99
0172407850999992000052503004+33980+051450FM-12+0982OIFK V0209999C000012200019N0150001N1+02421+00061100321ADDGA1001+999999999GF100991001001999999001001KA1999N+02121MA1999999089921MD1210181+9999REMSYN076AAXX  25031 40785 42965 00000 10242 20006 38992 40032 52018 90246 333 20212;
0201407850999992000052506004+33980+051450FM-12+0982OIFK V0209999C000012200019N0150001N1+03021+00171100401ADDAA124000091GA1001+999999999GF100991001001999999001001MA1999999090011MD1210091+9999REMSYN088AAXX  25061 40785 32965 00000 10302 20017 39001 40040 52009 90550 333 30017 51151 70000;EQDQ01  00002PRCP24
0153407850999992000052509004+33980+051450FM-12+0982OIFK V0209999C000012200019N0150001N1+03461+00101100151ADDGA1001+999999999GF100991001001999999001001MA1999999089841MD1710171+9999REMSYN070AAXX  25091 40785 42965 00000 10346 20010 38984 40015 57017 90850 333;
0183407850999992000052512004+33980+051450FM-12+0982OIFK V0209999C000012200019N0150001N1+03661-00011100051ADDAA199000091GA1001+999999999GF100991001001999999001001MA1999999089691MD1710151+9999REMSYN070AAXX  25121 40785 32965 00000 10366 21001 38969 40005 57015 91150 333;EQDQ01  00002PRCP99
0172407850999992000052515004+33980+051450FM-12+0982OIFK V0209999C000012200019N0150001N1+03461+00101099961ADDGA1001+999999999GF100991001001999999001001KA1999M+03701MA1999999089601MD1610091+9999REMSYN076AAXX  25151 40785 42965 00000 10346 20010 38960 49996 56009 91450 333 10370;
0189407850999992000052518004+33980+051450FM-12+0982OIFK V0209999C000012200019N0100001N1+02921+00101100001ADDAA199000091GA1001+999999999GF100991001001999999001001MA1999999089661MD1110061+9999REMSYN076AAXX  25181 40785 32960 00000 10292 20010 38966 40000 51006 91750 333 55/02;EQDQ01  00002PRCP99
0153407850999992000052521004+33980+051450FM-12+0982OIFK V0209999C000012200019N0100001N1+02621+00371100111ADDGA1001+999999999GF100991001001999999001001MA1999999089781MD1210121+9999REMSYN070AAXX  25211 40785 42960 00000 10262 20037 38978 40011 52012 92050 333;
0183407850999992000052600004+33980+051450FM-12+0982OIFK V0209999C000012200019N9999999N1+02501+00301099911ADDAA199000091GA1001+999999999GF100991001001999999001001MA1999999089601MD1810181+9999REMSYN070AAXX  26001 40785 3265/ 00000 10250 20030 38960 49991 58018 92350 333;EQDQ01  00002PRCP99
0201407850999992000052606004+33980+051450FM-12+0982OIFK V0202201N002012200019N0150001N1+03281+00081100131ADDAA124000091GA1001+999999999GF100991001001999999001001MA1999999089801MD1110101+9999REMSYN088AAXX  26061 40785 32965 02202 10328 20008 38980 40013 51010 90550 333 30018 51201 70000;EQDQ01  00002PRCP24
0183407850999992000052700004+33980+051450FM-12+0982OIFK V0203101N004012200019N0150001N1+02841+00151099581ADDAA199000091GA1001+999999999GF100991001001999999001001MA1999999089431MD1310111+9999REMSYN070AAXX  27001 40785 32965 03104 10284 20015 38943 49958 53011 92350 333;EQDQ01  00002PRCP99
0201407850999992000052706004+33980+051450FM-12+0982OIFK V0201201N002012200019N0100001N1+02921+00251100071ADDAA124000091GA1001+999999999GF100991001001999999001001MA1999999089741MD1110091+9999REMSYN088AAXX  27061 40785 32960 01202 10292 20025 38974 40007 51009 90552 333 30019 51241 70000;EQDQ01  00002PRCP24
0147407850999992000052709004+33980+051450FM-12+0982OIFK V0202401N007012200019N0100001N1+99999+99999099781ADDGA1001+999999999GF100991001001999999001001MA1999999089541MD1710201+9999REMSYN064AAXX  27091 40785 42960 02407 21029 38954 49978 57020 90852 333;
0183407850999992000052712004+33980+051450FM-12+0982OIFK V0202401N007012200019N0120001N1+03701-00101099641ADDAA199000091GA1001+999999999GF100991001001999999001001MA1999999089411MD1710131+9999REMSYN070AAXX  27121 40785 32962 02407 10370 21010 38941 49964 57013 91150 333;EQDQ01  00002PRCP99
0174407850999992000052718004+33980+051450FM-12+0982OIFK V0209999C000012200019N0120001N1+02002+00531099951ADDAA199000091GA1001+999999999GF100991001001999999001001MD1210241+9999REMSYN076AAXX  27181 40785 32962 00000 1020/ 20053 3/95/ 49995 52024 91752 333 55118;EQDQ01  00002PRCP99
0153407850999992000052721004+33980+051450FM-12+0982OIFK V0209999C000012200019N0100001N1+02661+00301100021ADDGA1001+999999999GF100991001001999999001001MA1999999089671MD1210101+9999REMSYN070AAXX  27211 40785 42960 00000 10266 20030 38967 40002 52010 92050 333;
0183407850999992000052800004+33980+051450FM-12+0982OIFK V0209999C000012200019N0100001N1+02421+00241100021ADDAA199000091GA1001+999999999GF100991001001999999001001MA1999999089671MD1410001+9999REMSYN070AAXX  28001 40785 32960 00000 10242 20024 38967 40002 54000 92350 333;EQDQ01  00002PRCP99
0150407850999992000052812004+33980+051450FM-12+0982OIFK V0202101N002012200019N0150001N1+03781+99999999999ADDAA199000091GF101991999999012501999999REMSYN082AAXX  28121 40785 32665 12102 10378 2004= 38947 49974 57020 814/0 91146 333 81640;EQDQ01  00002PRCP99
0189407850999992000052818004+33980+051450FM-12+0982OIFK V0209999C000012200019N0150001N1+02961+00561099901ADDAA199000091GA1001+999999999GF100991001001999999001001MA1999999089591MD1210171+9999REMSYN076AAXX  28181 40785 32965 00000 10296 20056 38959 49990 52017 91746 333 55116;EQDQ01  00002PRCP99
0183407850999992000052900004+33980+051450FM-12+0982OIFK V0209999C000012200019N0150001N1+02221+00641100281ADDAA199000091GA1001+999999999GF100991001001999999001001MA1999999089931MD1110191+9999REMSYN070AAXX  29001 40785 32965 00000 10222 20064 38993 40028 51019 92347 333;EQDQ01  00002PRCP99
0172407850999992000052903004+33980+051450FM-12+0982OIFK V0209999C000012200019N0120001N1+02101+00811100471ADDGA1001+999999999GF100991001001999999001001KA1999N+02041MA1999999090051MD1310121+9999REMSYN076AAXX  29031 40785 42962 00000 10210 20081 39005 40047 53012 90246 333 20204;
0201407850999992000052906004+33980+051450FM-12+0982OIFK V0200301N003012200019N0120001N1+02581+00871100581ADDAA124000091GA1001+999999999GF100991001001999999001001MA1999999090121MD1110071+9999REMSYN088AAXX  29061 40785 32962 00303 10258 20087 39012 40058 51007 90550 333 30018 51351 70000;EQDQ01  00002PRCP24
0153407850999992000052909004+33980+051450FM-12+0982OIFK V0203601N002012200019N0120001N1+03021+99999100341ADDGA1001+999999999GF100991001001999999001001MA1999999089961MD1810161+9999REMSYN070AAXX  29091 40785 42962 03602 10302 2/076 38996 40034 58016 90850 333;
0177407850999992000052912004+33980+051450FM-12+0982OIFK V0200301N002012200019N0120001N1+99999+99999100121ADDAA199000091GA1001+999999999GF100991001001999999001001MA1999999089701MD1710261+9999REMSYN064AAXX  29121 40785 32962 00302 20053 38970 40012 57026 91150 333;EQDQ01  00002PRCP99
0176407850999992000052915004+33980+051450FM-12+0982OIFK V0209999C000012200019N0100001N1+03361+00901099971ADDGA1001+999999999GF100991001001999999001001KA1999M+03541MD1710131+9999REMSYN076AAXX  29151 40785 42960 00000 10336 20090 3857/ 49997 57013 91450 333 10354;EQDQ01+085703APOSP 
0153407850999992000052921004+33980+051450FM-12+0982OIFK V0209999C000012200019N0100001N1+02541+01111100011ADDGA1001+999999999GF100991001001999999001001MA1999999089621MD1310051+9999REMSYN070AAXX  29211 40785 42960 00000 10254 20111 38962 40001 53005 92050 333;
0183407850999992000053000004+33980+051450FM-12+0982OIFK V0209999C000012200019N0120001N1+02021+00661100061ADDAA199000091GA1001+999999999GF100991001001999999001001MA1999999089731MD1110111+9999REMSYN070AAXX  30001 40785 32962 00000 10202 20066 38973 40006 51011 92350 333;EQDQ01  00002PRCP99
0172407850999992000053003004+33980+051450FM-12+0982OIFK V0209999C000012200019N0100001N1+02101+00921100201ADDGA1001+999999999GF100991001001999999001001KA1999N+01941MA1999999089811MD1310081+9999REMSYN076AAXX  30031 40785 42960 00000 10210 20092 38981 40020 53008 90250 333 20194;
0201407850999992000053006004+33980+051450FM-12+0982OIFK V0209999C000012200019N0150001N1+03041+00641100321ADDAA124000091GA1001+999999999GF100991001001999999001001MA1999999089881MD1210071+9999REMSYN088AAXX  30061 40785 32965 00000 10304 20064 38988 40032 52007 90550 333 30017 51261 70000;EQDQ01  00002PRCP24
0153407850999992000053009004+33980+051450FM-12+0982OIFK V0209999C000012200019N0150001N1+03401+00461100101ADDGA1001+999999999GF100991001001999999001001MA1999999089751MD1710151+9999REMSYN070AAXX  30091 40785 42965 00000 10340 20046 38975 40010 57015 90850 333;
0183407850999992000053012004+33980+051450FM-12+0982OIFK V0209999C000012200019N0150001N1+03681+00281099891ADDAA199000091GA1001+999999999GF100991001001999999001001MA1999999089511MD1710221+9999REMSYN070AAXX  30121 40785 32965 00000 10368 20028 38951 49989 57022 91150 333;EQDQ01  00002PRCP99
0189407850999992000053018004+33980+051450FM-12+0982OIFK V0209999C000012200019N0150001N1+02941+00621099871ADDAA199000091GA1001+999999999GF100991001001999999001001MA1999999089541MD1310101+9999REMSYN076AAXX  30181 40785 32965 00000 10294 20062 38954 49987 53010 91750 333 55121;EQDQ01  00002PRCP99
0153407850999992000053021004+33980+051450FM-12+0982OIFK V0209999C000012200019N0150001N1+02681+00261099851ADDGA1001+999999999GF100991001001999999001001MA1999999089541MD1410001+9999REMSYN070AAXX  30211 40785 42965 00000 10268 20026 38954 49985 54000 92050 333;
0183407850999992000053100004+33980+051450FM-12+0982OIFK V0209999C000012200019N0150001N1+02521+00141099951ADDAA199000091GA1001+999999999GF100991001001999999001001MA1999999089641MD1310101+9999REMSYN070AAXX  31001 40785 32965 00000 10252 20014 38964 49995 53010 92350 333;EQDQ01  00002PRCP99
0172407850999992000053103004+33980+051450FM-12+0982OIFK V0209999C000012200019N0150001N1+02141+00211100141ADDGA1001+999999999GF100991001001999999001001KA1999N+01921MA1999999089731MD1210091+9999REMSYN076AAXX  31031 40785 42965 00000 10214 20021 38973 40014 52009 90250 333 20192;
0153407850999992000053109004+33980+051450FM-12+0982OIFK V0209999C000012200019N0150001N1+03521+00371100021ADDGA1001+999999999GF100991001001999999001001MA1999999089711MD1810131+9999REMSYN070AAXX  31091 40785 42965 00000 10352 20037 38971 40002 58013 90850 333;
0183407850999992000053112004+33980+051450FM-12+0982OIFK V0209999C000012200019N0150001N1+03741+00211099801ADDAA199000091GA1001+999999999GF100991001001999999001001MA1999999089531MD1710171+9999REMSYN070AAXX  31121 40785 32965 00000 10374 20021 38953 49980 57017 91150 333;EQDQ01  00002PRCP99
0172407850999992000053115004+33980+051450FM-12+0982OIFK V0209999C000012200019N0100001N1+03641+00221099781ADDGA1001+999999999GF100991001001999999001001KA1999M+03801MA1999999089431MD1610101+9999REMSYN076AAXX  31151 40785 42960 00000 10364 20022 38943 49978 56010 91450 333 10380;
0189407850999992000053118004+33980+051450FM-12+0982OIFK V0209999C000012200019N0150001N1+02961+00621099761ADDAA199000091GA1001+999999999GF100991001001999999001001MA1999999089571MD1210141+9999REMSYN076AAXX  31181 40785 32965 00000 10296 20062 38957 49976 52014 91750 333 55123;EQDQ01  00002PRCP99
0153407850999992000053121004+33980+051450FM-12+0982OIFK V0202301N002012200019N0100001N1+02721+00291099891ADDGA1001+999999999GF100991001001999999001001MA1999999089611MD1110041+9999REMSYN070AAXX  31211 40785 42960 02302 10272 20029 38961 49989 51004 92052 333;
0172407850999992000060103004+33980+051450FM-12+0982OIFK V0209999C000012200019N0100001N1+02641-00011100141ADDGA1001+999999999GF100991001001999999001001KA1999N+02341MA1999999089841MD1210231+9999REMSYN076AAXX  01031 40785 42960 00000 10264 21001 38984 40014 52023 90250 333 20234;
0201407850999992000060106004+33980+051450FM-12+0982OIFK V0209999C000012200019N0150001N1+03181+00221100291ADDAA124000091GA1001+999999999GF100991001001999999001001MA1999999089941MD1110101+9999REMSYN088AAXX  01061 40785 32965 00000 10318 20022 38994 40029 51010 90550 333 30018 51112 70000;EQDQ01  00002PRCP24
0172407850999992000060109004+33980+051450FM-12+0982OIFK V0203001N999992200019N0150001N1+03521-00101100081ADDGA1001+999999999GF100991001001999999001001MA1999999089771MD1710171+9999REMSYN070AAXX  01091 40785 42965 03084 10352 21010 38977 40008 57017 90850 333;EQDQ01+008403WOSPD 
0183407850999992000060112004+33980+051450FM-12+0982OIFK V0202701N002012200019N0150001N1+03621-00021099941ADDAA199000091GA1001+999999999GF100991001001999999001001MA1999999089821MD1610151+9999REMSYN070AAXX  01121 40785 32965 02702 10362 21002 38982 49994 56015 91150 333;EQDQ01  00002PRCP99
0189407850999992000060118004+33980+051450FM-12+0982OIFK V0209999C000012200019N0150001N1+02921+00161100191ADDAA199000091GA1001+999999999GF100991001001999999001001MA1999999089861MD1210341+9999REMSYN076AAXX  01181 40785 32965 00000 10292 20016 38986 40019 52034 91750 333 55123;EQDQ01  00002PRCP99
0153407850999992000060121004+33980+051450FM-12+0982OIFK V0209999C000012200019N0150001N1+02681+00661100211ADDGA1001+999999999GF100991001001999999001001MA1999999089901MD1110041+9999REMSYN070AAXX  01211 40785 42965 00000 10268 20066 38990 40021 51004 92050 333;
0183407850999992000060200004+33980+051450FM-12+0982OIFK V0209999C000012200019N0100001N1+02321+00711100241ADDAA199000091GA1001+999999999GF100991001001999999001001MA1999999089901MD1410001+9999REMSYN070AAXX  02001 40785 32960 00000 10232 20071 38990 40024 54000 92350 333;EQDQ01  00002PRCP99
0172407850999992000060203004+33980+051450FM-12+0982OIFK V0209999C000012200019N0100001N1+02101+00571100601ADDGA1001+999999999GF100991001001999999001001KA1999N+02081MA1999999090161MD1210261+9999REMSYN076AAXX  02031 40785 42960 00000 10210 20057 39016 40060 52026 90250 333 20208;
0201407850999992000060206004+33980+051450FM-12+0982OIFK V0209999C000012200019N0100001N1+02681+00831100731ADDAA124000091GA1001+999999999GF100991001001999999001001MA1999999090251MD1210091+9999REMSYN088AAXX  02061 40785 32960 00000 10268 20083 39025 40073 52009 90550 333 30018 51101 70000;EQDQ01  00002PRCP24
0153407850999992000060209004+33980+051450FM-12+0982OIFK V0209999C000012200019N0100001N1+03061+00641100561ADDGA1001+999999999GF100991001001999999001001MA1999999090091MD1710161+9999REMSYN070AAXX  02091 40785 4/560 00000 10306 20064 39009 40056 57016 90850 333;
0172407850999992000060215004+33980+051450FM-12+0982OIFK V0209999C000012200019N0150001N1+03481+00851100241ADDGA1001+999999999GF100991001001999999001001KA1999M+03601MA1999999089701MD1710111+9999REMSYN076AAXX  02151 40785 42965 00000 10348 20085 3897/ 40024 57011 91450 333 10360;
0153407850999992000060221004+33980+051450FM-12+0982OIFK V0209999C000012200019N0100001N1+02721+00761100541ADDGA1001+999999999GF100991001001999999001001MA1999999090101MD1310131+9999REMSYN070AAXX  02211 40785 42960 00000 10272 20076 39010 40054 53013 92050 333;
0189407850999992000060300004+33980+051450FM-12+0982OIFK V0209999C000012200019N0100001N1+02421+00611100531ADDAA199000091GA1001+999999999GF100991001001999999001001MA1999999090101MD1410001+0021REMSYN076AAXX  03001 40785 32960 00000 10242 20061 39010 40053 54000 92352 333 58002;EQDQ01  00002PRCP99
0172407850999992000060303004+33980+051450FM-12+0982OIFK V0209999C000012200019N0100001N1+02301+00461100711ADDGA1001+999999999GF100991001001999999001001KA1999N+02201MA1999999090261MD1210161+9999REMSYN076AAXX  03031 40785 42960 00000 1023/ 20046 39026 40071 52016 90250 333 20220;
0153407850999992000060309004+33980+051450FM-12+0982OIFK V0202101N003012200019N0150001N1+03341+00421100571ADDGA1001+999999999GF100991001001999999001001MA1999999090211MD1710161+9999REMSYN070AAXX  03091 40785 42965 02103 10334 20042 39021 40057 57016 90850 333;
0195407850999992000060312004+33980+051450FM-12+0982OIFK V0203601N004012200019N0150001N1+03661+00441100281ADDAA199000091GA1011+012009059GF101991011041012501001001MA1999999089951MD1710261+9999REMSYN082AAXX  03121 40785 32665 13604 10366 20044 38995 40028 57026 81400 91150 333 81640;EQDQ01  00002PRCP99
0184407850999992000060315004+33980+051450FM-12+0982OIFK V0209999C000012200019N0150001N1+03481+00521100211ADDGA1011+012009059GF101991011041012501001001KA1120M+03701MA1999999089831MD1610121+9999REMSYN088AAXX  03151 40785 42665 10000 10348 20052 38983 40021 56012 81400 91450 333 10370 81640;
0189407850999992000060318004+33980+051450FM-12+0982OIFK V0209999C000012200019N0150001N1+03001+00531100371ADDAA199000091GA1001+999999999GF100991001001999999001001MA1999999089991MD1310161+9999REMSYN076AAXX  03181 40785 32965 00000 10300 20053 38999 40037 53016 91750 333 55110;EQDQ01  00002PRCP99
0153407850999992000060321004+33980+051450FM-12+0982OIFK V0209999C000012200019N0150001N1+02841+00481100411ADDGA1001+999999999GF100991001001999999001001MA1999999090071MD1110081+9999REMSYN070AAXX  03211 40785 42965 00000 10284 20048 39007 40041 51008 92050 333;
0183407850999992000060400004+33980+051450FM-12+0982OIFK V0209999C000012200019N0150001N1+02421+00371100421ADDAA199000091GA1001+999999999GF100991001001999999001001MA1999999090071MD1410001+9999REMSYN070AAXX  04001 40785 32965 00000 10242 20037 39007 40042 54000 92350 333;EQDQ01  00002PRCP99
0201407850999992000060406004+33980+051450FM-12+0982OIFK V0209999C000012200019N0100001N1+02941+00701100781ADDAA124000091GA1001+999999999GF100991001001999999001001MA1999999090371MD1110111+9999REMSYN088AAXX  04061 40785 32960 00000 10294 20070 39037 40078 51011 90550 333 30019 51121 70000;EQDQ01  00002PRCP24
0153407850999992000060409004+33980+051450FM-12+0982OIFK V0200301N002012200019N0100001N1+03561+00581100391ADDGA1001+999999999GF100991001001999999001001MA1999999090081MD1810161+9999REMSYN070AAXX  04091 40785 42960 00302 10356 20058 39008 40039 58016 90850 333;
0195407850999992000060412004+33980+051450FM-12+0982OIFK V0200601N002012200019N0150001N1+03861+00301100161ADDAA199000091GA1021+012009029GF102991021011012501001001MA1999999089861MD1710221+9999REMSYN082AAXX  04121 40785 32665 20602 10386 20030 38986 40016 57022 82100 91150 333 82840;EQDQ01  00002PRCP99
0189407850999992000060418004+33980+051450FM-12+0982OIFK V0209999C000012200019N0150001N1+03321+00021100081ADDAA199000091GA1001+999999999GF100991001001999999001001MA1999999089781MD1310051+9999REMSYN076AAXX  04181 40785 32965 00000 10332 20002 38978 40008 53005 91750 333 55124;EQDQ01  00002PRCP99
0153407850999992000060421004+33980+051450FM-12+0982OIFK V0209999C000012200019N0150001N1+03001+00151100101ADDGA1001+999999999GF100991001001999999001001MA1999999089821MD1110041+9999REMSYN070AAXX  04211 40785 42965 00000 10300 20015 38982 40010 51004 90550 333;
0172407850999992000060503004+33980+051450FM-12+0982OIFK V0209999C000012200019N0100001N1+02341+00541100181ADDGA1001+999999999GF100991001001999999001001KA1999N+02201MA1999999089811MD1310121+9999REMSYN076AAXX  05031 40785 42960 00000 10234 20054 38981 40018 53012 90250 333 20220;
0201407850999992000060506004+33980+051450FM-12+0982OIFK V0209999C000012200019N0150001N1+03121+00411100121ADDAA124000091GA1001+999999999GF100991001001999999001001MA1999999089861MD1510031+9999REMSYN088AAXX  05061 40785 32965 00000 10312 20041 38986 40012 55003 90550 333 30010 51121 70000;EQDQ01  00002PRCP24
0172407850999992000060515004+33980+051450FM-12+0982OIFK V0203601N003012200019N0150001N1+03901-00121099511ADDGA1001+999999999GF100991001001999999001001KA1999M+04151MA1999999089281MD1610101+9999REMSYN076AAXX  05151 40785 42965 03603 10390 21012 38928 49951 56010 91450 333 10415;
0153407850999992000060521004+33980+051450FM-12+0982OIFK V0209999C000012200019N0150001N1+03021+00081099511ADDGA1001+999999999GF100991001001999999001001MA1999999089371MD1110091+9999REMSYN070AAXX  05211 40785 42965 00000 10302 20008 38937 49951 51009 92050 333;
0183407850999992000060600004+33980+051450FM-12+0982OIFK V0209999C000012200019N0150001N1+02421+00241099461ADDAA199000091GA1001+999999999GF100991001001999999001001MA1999999089271MD1610101+9999REMSYN070AAXX  06001 40785 32965 00000 10242 20024 38927 49946 56010 92350 333;EQDQ01  00002PRCP99
0217407850999992000060606004+33980+051450FM-12+0982OIFK V0202601N003012200019N0150001N1+03241-00181999999ADDAA124000091GA1001+999999999GF100991001001999999001001MA1999999089441MD1110061+9999REMSYN088AAXX  06061 40785 32965 02603 10324 21018 38944 4956/ 51006 90545 333 30009 51201 70000;EQDQ01  00002PRCP24Q02 095603APOSLP
0172407850999992000060609004+33980+051450FM-12+0982OIFK V0209999C000012200019N0150001N1+03741-00081099492ADDGA1001+999999999GF100991001001999999001001MA1999999089331MD1810111+9999REMSYN070AAXX  06091 40785 42965 00000 10374 21008 38933 49949 58011 90845 333;EQDQ01+099493APOSLP
0172407850999992000060615004+33980+051450FM-12+0982OIFK V0209999C000012200019N0150001N1+03841-00141099271ADDGA1001+999999999GF100991001001999999001001KA1999M+04001MA1999999089101MD1610021+9999REMSYN076AAXX  06151 40785 42965 00000 10384 21014 38910 49927 56002 91446 333 10400;
0189407850999992000060618004+33980+051450FM-12+0982OIFK V0209999C000012200019N0150001N1+03241+00151099431ADDAA199000091GA1001+999999999GF100991001001999999001001MA1999999089241MD1310141+9999REMSYN076AAXX  06181 40785 32965 00000 10324 20015 38924 49943 53014 91746 333 55120;EQDQ01  00002PRCP99
0153407850999992000060621004+33980+051450FM-12+0982OIFK V0209999C000012200019N0150001N1+02721+00421099511ADDGA1001+999999999GF100991001001999999001001MA1999999089321MD1110081+9999REMSYN070AAXX  06211 40785 42965 00000 10272 20042 38932 49951 51008 92041 333;
0183407850999992000060700004+33980+051450FM-12+0982OIFK V0209999C000012200019N0150001N1+02581+00341099751ADDAA199000091GA1001+999999999GF100991001001999999001001MA1999999089531MD1210211+9999REMSYN070AAXX  07001 40785 32965 00000 10258 20034 38953 49975 52021 92346 333;EQDQ01  00002PRCP99
0172407850999992000060703004+33980+051450FM-12+0982OIFK V0209999C000012200019N0150001N1+02381+00371100011ADDGA1001+999999999GF100991001001999999001001KA1999N+02301MA1999999089711MD1210181+9999REMSYN076AAXX  07031 40785 42965 00000 10238 20037 38971 40001 52018 90247 333 20230;
0201407850999992000060706004+33980+051450FM-12+0982OIFK V0200301N003012200019N0100001N1+03021+00241100121ADDAA124000091GA1001+999999999GF100991001001999999001001MA1999999089811MD1110101+9999REMSYN088AAXX  07061 40785 32960 00303 10302 20024 38981 40012 51010 90550 333 30022 51271 70000;EQDQ01  00002PRCP24
0111407850999992000060709004+33980+051450FM-12+0982OIFK V0209999C000019999999N0150001N1+03341+00141100031ADDMA1999999089681MD1810131+9999REMSYN070AAXX  07091 40785 42965 /0000 10334 20014 38968 40003 58013 90850 333;
0183407850999992000060712004+33980+051450FM-12+0982OIFK V0209999C000012200019N0150001N1+03721-00101099721ADDAA199000091GA1001+999999999GF100991001001999999001001MA1999999089461MD1710221+9999REMSYN070AAXX  07121 40785 32965 00000 10372 21010 38946 49972 57022 91150 333;EQDQ01  00002PRCP99
0189407850999992000060718004+33980+051450FM-12+0982OIFK V0209999C000012200019N0150001N1+03181+00001099671ADDAA199000091GA1001+999999999GF100991001001999999001001MA1999999089401MD1410001+9999REMSYN076AAXX  07181 40785 32965 00000 10318 20000 38940 49967 54000 91750 333 55116;EQDQ01  00002PRCP99
0153407850999992000060803004+33980+051450FM-12+0982OIFK V0209999C000012200019N0150001N1+02281+00181099861ADDGA1001+999999999GF100991001001999999001001MA1999999089521MD1310041+9999REMSYN070AAXX  08031 40785 42965 00000 10228 20018 38952 49986 53004 90250 333;
0201407850999992000060806004+33980+051450FM-12+0982OIFK V0209999C000012200019N0150001N1+03161-00131099851ADDAA124000091GA1001+999999999GF100991001001999999001001MA1999999089591MD1110071+9999REMSYN088AAXX  08061 40785 32965 00000 10316 21013 38959 49985 51007 90550 333 30019 51151 70000;EQDQ01  00002PRCP24
0153407850999992000060809004+33980+051450FM-12+0982OIFK V0209999C000012200019N0100001N1+03661-00141099711ADDGA1001+999999999GF100991001001999999001001MA1999999089471MD1810121+9999REMSYN070AAXX  08091 40785 42960 00000 10366 21014 38947 49971 58012 90852 333;
0183407850999992000060812004+33980+051450FM-12+0982OIFK V0209999C000012200019N0150001N1+04021+00131099421ADDAA199000091GA1001+999999999GF100991001001999999001001MA1999999089251MD1710221+9999REMSYN070AAXX  08121 40785 32965 00000 10402 20013 38925 49942 57022 91150 333;EQDQ01  00002PRCP99
0189407850999992000060818004+33980+051450FM-12+0982OIFK V0209999C000012200019N0100001N1+03221+00141099681ADDAA199000091GA1001+999999999GF100991001001999999001001MA1999999089431MD1310241+9999REMSYN076AAXX  08181 40785 32960 00000 10322 20014 38943 49968 53024 91752 333 55119;EQDQ01  00002PRCP99
0153407850999992000060821004+33980+051450FM-12+0982OIFK V0209999C000012200019N0100001N1+02961+00351099671ADDGA1001+999999999GF100991001001999999001001MA1999999089471MD1110041+9999REMSYN070AAXX  08211 40785 42960 00000 10296 20035 38947 49967 51004 92052 333;
0183407850999992000060900004+33980+051450FM-12+0982OIFK V0209999C000012200019N0100001N1+02641+00171099671ADDAA199000091GA1001+999999999GF100991001001999999001001MA1999999089471MD1410001+9999REMSYN070AAXX  09001 40785 32960 00000 10264 20017 38947 49967 54000 92350 333;EQDQ01  00002PRCP99
0172407850999992000060903004+33980+051450FM-12+0982OIFK V0209999C000012200019N0150001N1+02541+00021099801ADDGA1001+999999999GF100991001001999999001001KA1999N+02301MA1999999089551MD1210081+9999REMSYN076AAXX  09031 40785 42965 00000 10254 20002 38955 49980 52008 90250 333 20230;
0201407850999992000060906004+33980+051450FM-12+0982OIFK V0203001N006012200019N0150001N1+03221-00081099851ADDAA124000091GA1001+999999999GF100991001001999999001001MA1999999089591MD1110041+9999REMSYN088AAXX  09061 40785 32965 03006 10322 21008 38959 49985 51004 90546 333 30019 51261 70000;EQDQ01  00002PRCP24
0153407850999992000060909004+33980+051450FM-12+0982OIFK V0209999C000012200019N0150001N1+03741-00421099621ADDGA1001+999999999GF100991001001999999001001MA1999999089441MD1710151+9999REMSYN070AAXX  09091 40785 42965 00000 10374 21042 38944 49962 57015 90845 333;
0183407850999992000060912004+33980+051450FM-12+0982OIFK V0209999C000012200019N0150001N1+04041-00191099321ADDAA199000091GA1001+999999999GF100991001001999999001001MA1999999089181MD1710261+9999REMSYN070AAXX  09121 40785 32965 00000 10404 21019 38918 49932 57026 91146 333;EQDQ01  00002PRCP99
0172407850999992000060915004+33980+051450FM-12+0982OIFK V0209999C000012200019N0150001N1+03901-00101099241ADDGA1001+999999999GF100991001001999999001001KA1999M+04101MA1999999089071MD1710111+9999REMSYN076AAXX  09151 40785 42965 00000 10390 21010 38907 49924 57011 91446 333 10410;
0189407850999992000060918004+33980+051450FM-12+0982OIFK V0209999C000012200019N0150001N1+03421+00231099371ADDAA199000091GA1001+999999999GF100991001001999999001001MA1999999089191MD1210121+9999REMSYN076AAXX  09181 40785 32965 00000 10342 20023 38919 49937 52012 91748 333 55122;EQDQ01  00002PRCP99
0183407850999992000061000004+33980+051450FM-12+0982OIFK V0209999C000012200019N0150001N1+02781+00211099731ADDAA199000091GA1001+999999999GF100991001001999999001001MA1999999089471MD1210241+9999REMSYN070AAXX  10001 40785 32965 00000 10278 20021 38947 49973 52024 92346 333;EQDQ01  00002PRCP99
0172407850999992000061003004+33980+051450FM-12+0982OIFK V0209999C000012200019N0150001N1+02361+00611100031ADDGA1001+999999999GF100991001001999999001001KA1999N+02321MA1999999089741MD1210271+9999REMSYN076AAXX  10031 40785 42965 00000 10236 20061 38974 40003 52027 90246 333 20232;
0201407850999992000061006004+33980+051450FM-12+0982OIFK V0209999C000012200019N0100001N1+02881+00861100091ADDAA124000091GA1001+999999999GF100991001001999999001001MA1999999089811MD1110071+9999REMSYN088AAXX  10061 40785 32960 00000 10288 20086 38981 40009 51007 90550 333 30020 51181 70000;EQDQ01  00002PRCP24
0153407850999992000061009004+33980+051450FM-12+0982OIFK V0209999C000012200019N0150001N1+03301+00721100021ADDGA1001+999999999GF100991001001999999001001MA1999999089731MD1810081+9999REMSYN070AAXX  10091 40785 42965 00000 10330 20072 38973 40002 58008 90850 333;
0183407850999992000061012004+33980+051450FM-12+0982OIFK V0209999C000012200019N0150001N1+03621+00641099751ADDAA199000091GA1001+999999999GF100991001001999999001001MA1999999089511MD1710221+9999REMSYN070AAXX  10121 40785 32965 00000 10362 20064 38951 49975 57022 91150 333;EQDQ01  00002PRCP99
0111407850999992000061021004+33980+051450FM-12+0982OIFK V0209999C000019999999N0100001N1+02781+00861100111ADDMA1999999089811MD1210211+9999REMSYN070AAXX  10211 40785 42960 /0000 10278 20086 38981 40011 52021 92050 333;
0183407850999992000061100004+33980+051450FM-12+0982OIFK V0209999C000012200019N0100001N1+02541+00791100131ADDAA199000091GA1001+999999999GF100991001001999999001001MA1999999089811MD1410001+9999REMSYN070AAXX  11001 40785 32960 00000 10254 20079 38981 40013 54000 92350 333;EQDQ01  00002PRCP99
0172407850999992000061103004+33980+051450FM-12+0982OIFK V0209999C000012200019N0100001N1+02201+01051100311ADDGA1001+999999999GF100991001001999999001001KA1999N+02121MA1999999089971MD1210161+9999REMSYN076AAXX  11031 40785 42960 00000 10220 20105 38997 40031 52016 90250 333 20212;
0201407850999992000061106004+33980+051450FM-12+0982OIFK V0209999C000012200019N0120001N1+02581+00951100501ADDAA124000091GA1001+999999999GF100991001001999999001001MA1999999090041MD1010071+9999REMSYN088AAXX  11061 40785 32962 00000 10258 20095 39004 40050 50007 90550 333 30019 51201 70000;EQDQ01  00002PRCP24
0153407850999992000061109004+33980+051450FM-12+0982OIFK V0209999C000012200019N0120001N1+02981+00931100051ADDGA1001+999999999GF100991001001999999001001MA1999999089911MD1810131+9999REMSYN070AAXX  11091 40785 42962 00000 10298 20093 38991 40005 58013 90850 333;
0183407850999992000061112004+33980+051450FM-12+0982OIFK V0209999C000012200019N0120001N1+03341+00821100091ADDAA199000091GA1001+999999999GF100991001001999999001001MA1999999089701MD1710211+9999REMSYN070AAXX  11121 40785 32962 00000 10334 20082 38970 40009 57021 91150 333;EQDQ01  00002PRCP99
0172407850999992000061115004+33980+051450FM-12+0982OIFK V0209999C000012200019N0120001N1+03401+00931100041ADDGA1001+999999999GF100991001001999999001001KA1999M+03501MA1999999089621MD1610081+9999REMSYN076AAXX  11151 40785 42962 00000 10340 20093 38962 40004 56008 91450 333 10350;
0189407850999992000061118004+33980+051450FM-12+0982OIFK V0209999C000012200019N0120001N1+02921+00891100171ADDAA199000091GA1001+999999999GF100991001001999999001001MA1999999089721MD1310101+9999REMSYN076AAXX  11181 40785 32962 00000 10292 20089 38972 40017 53010 91750 333 55115;EQDQ01  00002PRCP99
0153407850999992000061121004+33980+051450FM-12+0982OIFK V0209999C000012200019N0150001N1+02621+00571100261ADDGA1001+999999999GF100991001001999999001001MA1999999089831MD1210111+9999REMSYN070AAXX  11211 40785 42965 00000 10262 20057 38983 40026 52011 92050 333;
0183407850999992000061200004+33980+051450FM-12+0982OIFK V0209999C000012200019N0150001N1+02161+00741100291ADDAA199000091GA1001+999999999GF100991001001999999001001MA1999999089831MD1410001+9999REMSYN070AAXX  12001 40785 32965 00000 10216 20074 38983 40029 54000 92350 333;EQDQ01  00002PRCP99
0172407850999992000061203004+33980+051450FM-12+0982OIFK V0209999C000012200019N0150001N1+01921+00861100481ADDGA1001+999999999GF100991001001999999001001KA1999N+01901MA1999999089961MD1210131+9999REMSYN076AAXX  12031 40785 42965 00000 10192 20086 38996 40048 52013 90250 333 20190;
0201407850999992000061206004+33980+051450FM-12+0982OIFK V0209999C000012200019N0100001N1+02501+00761100481ADDAA124000091GA1001+999999999GF100991001001999999001001MA1999999090021MD1310061+9999REMSYN088AAXX  12061 40785 32960 00000 10250 20076 39002 40048 53006 90550 333 30017 51021 70000;EQDQ01  00002PRCP24
0153407850999992000061209004+33980+051450FM-12+0982OIFK V0209999C000012200019N0150001N1+03041+00641100241ADDGA1001+999999999GF100991001001999999001001MA1999999089841MD1710181+9999REMSYN070AAXX  12091 40785 42965 00000 10304 20064 38984 40024 57018 90852 333;
0183407850999992000061212004+33980+051450FM-12+0982OIFK V0209999C000012200019N0100001N1+03421+00681099911ADDAA199000091GA1001+999999999GF100991001001999999001001MA1999999089541MD1710301+9999REMSYN070AAXX  12121 40785 32960 00000 10342 20068 38954 49991 57030 91150 333;EQDQ01  00002PRCP99
0172407850999992000061215004+33980+051450FM-12+0982OIFK V0209999C000012200019N0040001N1+03401+00741099841ADDGA1001+999999999GF100991001001999999001001KA1999M+03501MA1999999089431MD1610111+9999REMSYN076AAXX  12151 40785 44296 00000 10340 20074 38943 49984 56011 91452 333 10350;
0189407850999992000061218004+33980+051450FM-12+0982OIFK V0202101N005012200019N0100001N1+02741+00721100191ADDAA199000091GA1001+999999999GF100991001001999999001001MA1999999089731MD1310301+9999REMSYN076AAXX  12181 40785 32960 02105 10274 20072 38973 40019 53030 91750 333 55115;EQDQ01  00002PRCP99
0183407850999992000061300004+33980+051450FM-12+0982OIFK V0209999C000012200019N0100001N1+02121+00591100451ADDAA199000091GA1001+999999999GF100991001001999999001001MA1999999090001MD1110041+9999REMSYN070AAXX  13001 40785 32960 00000 10212 20059 39000 40045 51004 92350 333;EQDQ01  00002PRCP99
0201407850999992000061306004+33980+051450FM-12+0982OIFK V0201501N002012200019N0120001N1+02101-00041101031ADDAA124000091GA1001+999999999GF100991001001999999001001MA1999999090371MD1110121+9999REMSYN088AAXX  13061 40785 32962 01502 10210 21004 39037 40103 51012 90545 333 30015 51201 70000;EQDQ01  00002PRCP24
0165407850999992000061309004+33980+051450FM-12+0982OIFK V0209999C000012200019N0100001N1+02541+00021100861ADDGA1011+012009059GF101991011041012501001001MA1999999090241MD1710131+9999REMSYN082AAXX  13091 40785 42660 10000 10254 20002 39024 40086 57013 81400 90846 333 81640;
0172407850999992000061315004+33980+051450FM-12+0982OIFK V0209999C000012200019N0120001N1+02761+00391100661ADDGA1001+999999999GF100991001001999999001001KA1999M+02901MA1999999090021MD1610051+9999REMSYN076AAXX  13151 40785 42962 00000 10276 20039 39002 40066 56005 91447 333 10290;
0189407850999992000061318004+33980+051450FM-12+0982OIFK V0209999C000012200019N0120001N1+02381+00471100891ADDAA199000091GA1001+999999999GF100991001001999999001001MA1999999090191MD1210171+9999REMSYN076AAXX  13181 40785 32962 00000 10238 20047 39019 40089 52017 91746 333 55110;EQDQ01  00002PRCP99
0183407850999992000061400004+33980+051440FM-12+0982OIFK V0209999C000012200019N0150001N1+01841+00311100991ADDAA199000091GA1001+999999999GF100991001001999999001001MA1999999090321MD1410001+9999REMSYN070AAXX  14001 40785 32965 00000 10184 20031 39032 40099 54000 92346 333;EQDQ01  00002PRCP99
0172407850999992000061403004+33980+051440FM-12+0982OIFK V0209999C000012200019N0150001N1+01621-00061101171ADDGA1001+999999999GF100991001001999999001001KA1999N+01601MA1999999090421MD1310101+9999REMSYN076AAXX  14031 40785 42965 00000 10162 21006 39042 40117 53010 90246 333 20160;
0209407850999992000061418004+33980+051440FM-12+0982OIFK V0209999C000012200019N0150001N1+02561+00161100411ADDAA199000091GA1031+030009079GF103991031001999999031001GJ107149MA1999999089821MD1310061+9999REMSYN088AAXX  14181 40785 32965 30000 10256 20016 38982 40041 53006 83030 91750 333 55119 83360;EQDQ01  00002PRCP99
0165407850999992000061421004+33980+051440FM-12+0982OIFK V0209999C000012200019N0150001N1+02241+00401100371ADDGA1021+030009079GF102991021001999999031001MA1999999089821MD1410001+9999REMSYN082AAXX  14211 40785 42965 20000 10224 20040 38982 40037 54000 82030 92050 333 82360;
0195407850999992000061500004+33980+051440FM-12+0982OIFK V0209999C000012200019N0100001N1+02001-00121100471ADDAA199000091GA1041+030009079GF104991041001999999031001MA1999999089901MD1110081+9999REMSYN082AAXX  15001 40785 32960 40000 10200 21012 38990 40047 51008 84030 92350 333 84360;EQDQ01  00002PRCP99
0184407850999992000061503004+33980+051440FM-12+0982OIFK V0209999C000012200019N0150001N1+02841+00051100621ADDGA1031+030009079GF103991031001999999031001KA1120N+01701MA1999999090041MD1210141+9999REMSYN088AAXX  15031 40785 42965 30000 10284 20005 39004 40062 52014 83030 90250 333 20170 83360;
0172407850999992000061506004+33980+051440FM-12+0982OIFK V0209999C000012200019N0150001N1+02481-00041100731ADDAA124999999GF102991021001999999031001MA1999999090161MD1110111+9999REMSYN094AAXX  15061 40785 32965 20000 10248 21004 39016 40073 51011 82030 90550 333 30015 51021 7000/;
0184407850999992000061515004+33980+051440FM-12+0982OIFK V0200401N004012200019N0150001N1+03261+00101100281ADDGA1011+012009059GF101991011041012501001001KA1120M+03551MA1999999089761MD1610041+9999REMSYN088AAXX  15151 40785 42665 10404 10326 20010 38976 40028 56004 81400 91450 333 10355 81640;
0215407850999992000061518004+33980+051440FM-12+0982OIFK V0209999C000012200019N0150001N1+02761+00041100491ADDAA199000091GA1011+012009069GF103991031041012501031001GJ106789MA1999999089991MD1210211+9999REMSYN094AAXX  15181 40785 32665 30000 10276 20004 38999 40049 52021 83430 91750 333 55113 81640 83360;EQDQ01  00002PRCP99
0159407850999992000061521004+33980+051440FM-12+0982OIFK V0201001N002012200019N0150001N1+02681-00031100481ADDGA1021+030009079GF102991021001999999031001MA1999999090041MD1110051+9999REMSYN076AAXX  15211 40785 42965 21002 10268 21003 39004 40048 51005 82030 333 82360;
0195407850999992000061600004+33980+051440FM-12+0982OIFK V0209999C000012200019N0150001N1+02221-00061100641ADDAA199000091GA1031+030009079GF103991031001999999031001MA1999999090161MD1310121+9999REMSYN082AAXX  16001 40785 32965 30000 10222 21006 39016 40064 53012 83030 92350 333 83360;EQDQ01  00002PRCP99
0187407850999992000061603004+33980+051440FM-12+0982OIFK V0209999C000012200019N0150001N1+02081+00191100401ADDAA112302091GA1031+012009069GF104991011041012501031001KA1120N+02041MA1999999090381REMSYN094AAXX  16031 40785 42665 40000 10208 20019 39038 4004/ 63022 81430 90250 333 20204 83640 84360;
0235407850999992000061606004+33980+051440FM-12+0982OIFK V0209999C000012200019N0150001N1+02601+00261101052ADDAA124000091GA1011+012009069GF104991011041012501031001MA1999999090901MD1210291+9999REMSYN106AAXX  16061 40785 32665 40000 10260 20026 39090 40105 52029 81430 90552 333 30018 51221 70000 81640 84360;EQDQ01+101053APOSLPQ02  00002PRCP24
0195407850999992000061612004+33980+051440FM-12+0982OIFK V0200901N003012200019N0100001N1+03261+00261100591ADDAA199000091GA1031+012009059GF103991031041012501001001MA1999999090111MD1710281+9999REMSYN082AAXX  16121 40785 32660 30903 10326 20026 39011 40059 57028 83400 91150 333 83640;EQDQ01  00002PRCP99
0184407850999992000061615004+33980+051440FM-12+0982OIFK V0200901N002012200019N0150001N1+03241+00141100621ADDGA1031+012009059GF103991031041012501001001KA1120M+03351MA1999999090101MD1610011+9999REMSYN088AAXX  16151 40785 42665 30902 10324 20014 39010 40062 56001 83400 91450 333 10335 83640;
0215407850999992000061618004+33980+051440FM-12+0982OIFK V0209999C000012200019N0150001N1+02821-00301100591ADDAA199000091GA1021+012009069GF104991021041012501031001GJ105469MA1999999090141MD1310041+9999REMSYN094AAXX  16181 40785 32665 40000 10282 21030 39014 40059 53004 82430 91750 333 55091 82640 84360;EQDQ01  00002PRCP99
0171407850999992000061621004+33980+051440FM-12+0982OIFK V0202701N002012200019N0150001N1+02701+00221100741ADDGA1021+012009069GF104991021041012501051001MA1999999090261MD1110121+9999REMSYN088AAXX  16211 40785 42665 42702 10270 20022 39026 40074 51012 82450 92052 333 82640 84360;
0201407850999992000061700004+33980+051440FM-12+0982OIFK V0209999C000012200019N0100001N1+02461+00191100761ADDAA199000091GA1011+012009069GF103991011041012501031001MA1999999090261MD1410001+9999REMSYN088AAXX  17001 40785 32660 30000 10246 20019 39026 40076 54000 81430 92350 333 81640 83360;EQDQ01  00002PRCP99
0172407850999992000061703004+33980+051440FM-12+0982OIFK V0209999C000012200019N0100001N1+02201+00221100761ADDGA1001+999999999GF100991001001999999001001KA1999N+02161MA1999999090271MD1210071+9999REMSYN076AAXX  17031 40785 42960 00000 10220 20022 39027 40076 52007 90250 333 20216;
0201407850999992000061706004+33980+051440FM-12+0982OIFK V0209999C000012200019N0150001N1+02761+00391100921ADDAA124000091GA1001+999999999GF100991001001999999001001MA1999999090381MD1110111+9999REMSYN088AAXX  17061 40785 32965 00000 10276 20039 39038 40092 51011 90546 333 30019 51101 70000;EQDQ01  00002PRCP24
0189407850999992000061718004+33980+051440FM-12+0982OIFK V0209999C000012200019N0150001N1+02761+00331100561ADDAA199000091GA1001+999999999GF100991001001999999001001MA1999999090061MD1210141+9999REMSYN076AAXX  17181 40785 32965 00000 10276 20033 39006 40056 52014 91745 333 55122;EQDQ01  00002PRCP99
0153407850999992000061721004+33980+051440FM-12+0982OIFK V0209999C000012200019N0150001N1+02581+00041100481ADDGA1001+999999999GF100991001001999999001001MA1999999090061MD1410001+9999REMSYN070AAXX  17211 40785 42965 00000 10258 20004 39006 40048 54000 92040 333;
0183407850999992000061800004+33980+051440FM-12+0982OIFK V0209999C000012200019N0150001N1+02161+00381100421ADDAA199000091GA1001+999999999GF100991001001999999001001MA1999999089971MD1810091+9999REMSYN070AAXX  18001 40785 32965 00000 10216 20038 38997 40042 58009 92347 333;EQDQ01  00002PRCP99
0172407850999992000061803004+33980+051440FM-12+0982OIFK V0209999C000012200019N0150001N1+02181+00151100541ADDGA1001+999999999GF100991001001999999001001KA1999N+02001MA1999999090051MD1310081+9999REMSYN076AAXX  18031 40785 42965 00000 10218 20015 39005 40054 53008 90245 333 20200;
0165407850999992000061809004+33980+051440FM-12+0982OIFK V0209999C000012200019N0150001N1+03441+00021100321ADDGA1021+010509029GF102991021011012501001001MA1999999089951MD1710161+9999REMSYN082AAXX  18091 40785 42665 20000 10344 20002 38995 40032 57016 82100 90850 333 82835;
0195407850999992000061812004+33980+051440FM-12+0982OIFK V0209999C000012200019N0150001N1+03661-00021100131ADDAA199000091GA1011+010509029GF101991011011012501001001MA1999999089761MD1710191+9999REMSYN082AAXX  18121 40785 32665 10000 10366 21002 38976 40013 57019 81100 91150 333 81835;EQDQ01  00002PRCP99
0172407850999992000061815004+33980+051440FM-12+0982OIFK V0209999C000012200019N0150001N1+03561+00161100051ADDGA1001+999999999GF100991001001999999001001KA1999M+03751MA1999999089671MD1610091+9999REMSYN076AAXX  18151 40785 42965 00000 10356 20016 38967 40005 56009 91452 333 10375;
0189407850999992000061818004+33980+051440FM-12+0982OIFK V0209999C000012200019N0150001N1+03021+00251100041ADDAA199000091GA1001+999999999GF100991001001999999001001MA1999999089721MD1110051+9999REMSYN076AAXX  18181 40785 32965 00000 10302 20025 38972 40004 51005 91750 333 55123;EQDQ01  00002PRCP99
0153407850999992000061821004+33980+051440FM-12+0982OIFK V0209999C000012200019N0150001N1+02741+00091100021ADDGA1001+999999999GF100991001001999999001001MA1999999089721MD1410001+9999REMSYN070AAXX  18211 40785 42965 00000 10274 20009 38972 40002 54000 92050 333;
0153407850999992000061900004+33980+051440FM-12+0982OIFK V0209999C000012200019N0100001N1+02381+00381099981ADDGA1001+999999999GF100991001001999999001001MA1999999089671MD1810081+9999REMSYN070AAXX  19001 40785 42960 00000 10238 20038 38967 49998 58008 92350 333;
0172407850999992000061903004+33980+051440FM-12+0982OIFK V0209999C000012200019N0150001N1+02221+00381100041ADDGA1001+999999999GF100991001001999999001001KA1999N+02101MA1999999089671MD1010001+9999REMSYN076AAXX  19031 40785 42965 00000 10222 20038 38967 40004 50000 90250 333 20210;
0201407850999992000061906004+33980+051440FM-12+0982OIFK V0209999C000012200019N0150001N1+03161-00021100121ADDAA124000091GA1001+999999999GF100991001001999999001001MA1999999089771MD1110101+9999REMSYN088AAXX  19061 40785 32965 00000 10316 21002 38977 40012 51010 90550 333 30018 51201 70000;EQDQ01  00002PRCP24
0153407850999992000061909004+33980+051440FM-12+0982OIFK V0209999C000012200019N0100001N1+03561+00181099931ADDGA1001+999999999GF100991001001999999001001MA1999999089641MD1710131+9999REMSYN070AAXX  19091 40785 42960 00000 10356 20018 38964 49993 57013 90850 333;
0183407850999992000061912004+33980+051440FM-12+0982OIFK V0209999C000012200019N0150001N1+03921-00111099661ADDAA199000091GA1001+999999999GF100991001001999999001001MA1999999089401MD1710241+9999REMSYN070AAXX  19121 40785 32965 00000 10392 21011 38940 49966 57024 91150 333;EQDQ01  00002PRCP99
0184407850999992000061915004+33980+051440FM-12+0982OIFK V0209999C000012200019N0150001N1+03781+00081099611ADDGA1011+012009059GF101991011041012501001001KA1120M+04001MA1999999089311MD1610091+9999REMSYN088AAXX  19151 40785 42665 10000 10378 20008 38931 49961 56009 81400 91450 333 10400 81640;
0209407850999992000061918004+33980+051440FM-12+0982OIFK V0209999C000012200019N0150001N1+03061+00501099831ADDAA199000091GA1011+012009059GF101991011041012501001001GJ107509MA1999999089541MD1210231+9999REMSYN088AAXX  19181 40785 32665 10000 10306 20050 38954 49983 52023 81400 91750 333 55125 81640;EQDQ01  00002PRCP99
0153407850999992000061921004+33980+051440FM-12+0982OIFK V0209999C000012200019N0150001N1+02721+00301099821ADDGA1001+999999999GF100991001001999999001001MA1999999089541MD1410001+9999REMSYN070AAXX  19211 40785 42965 00000 10272 20030 38954 49982 54000 92050 333;
0183407850999992000062000004+33980+051440FM-12+0982OIFK V0209999C000012200019N0150001N1+02521+00381099781ADDAA199000091GA1001+999999999GF100991001001999999001001MA1999999089541MD1410001+9999REMSYN070AAXX  20001 40785 32965 00000 10252 20038 38954 49978 54000 92350 333;EQDQ01  00002PRCP99
0172407850999992000062003004+33980+051440FM-12+0982OIFK V0209999C000012200019N0150001N1+02501-00021100001ADDGA1001+999999999GF100991001001999999001001KA1999N+02301MA1999999089691MD1210151+9999REMSYN076AAXX  20031 40785 42965 00000 10250 21002 38969 40000 52015 90250 333 20230;
0201407850999992000062006004+33980+051440FM-12+0982OIFK V0209999C000012200019N0150001N1+03141-00261100121ADDAA124000091GA1001+999999999GF100991001001999999001001MA1999999089801MD1110111+9999REMSYN088AAXX  20061 40785 32965 00000 10314 21026 38980 40012 51011 90550 333 30019 51061 70000;EQDQ01  00002PRCP24
0153407850999992000062009004+33980+051440FM-12+0982OIFK V0209999C000012200019N0100001N1+03721-00101099931ADDGA1001+999999999GF100991001001999999001001MA1999999089671MD1810131+9999REMSYN070AAXX  20091 40785 42960 00000 10372 21010 38967 49993 58013 90850 333;
0183407850999992000062012004+33980+051440FM-12+0982OIFK V0209999C000012200019N0100001N1+04041+00141099651ADDAA199000091GA1001+999999999GF100991001001999999001001MA1999999089431MD1710241+9999REMSYN070AAXX  20121 40785 32960 00000 10404 20014 38943 49965 57024 91150 333;EQDQ01  00002PRCP99
0172407850999992000062015004+33980+051440FM-12+0982OIFK V0209999C000012200019N0100001N1+04041+00141099581ADDGA1001+999999999GF100991001001999999001001KA1999M+04151MA1999999089381MD1610051+9999REMSYN076AAXX  20151 40785 42960 00000 10404 20014 38938 49958 56005 91452 333 10415;
0189407850999992000062018004+33980+051440FM-12+0982OIFK V0202401N003012200019N0100001N1+03541-00241099761ADDAA199000091GA1001+999999999GF100991001001999999001001MA1999999089561MD1310181+9999REMSYN076AAXX  20181 40785 32960 02403 10354 21024 38956 49976 53018 91750 333 55127;EQDQ01  00002PRCP99
0153407850999992000062021004+33980+051440FM-12+0982OIFK V0209999C000012200019N0100001N1+03181+00121099821ADDGA1001+999999999GF100991001001999999001001MA1999999089621MD1110081+9999REMSYN070AAXX  20211 40785 42960 00000 10318 20012 38962 49982 51008 92050 333;
0183407850999992000062100004+33980+051440FM-12+0982OIFK V0209999C000012200019N0100001N1+02861+00111099861ADDAA199000091GA1001+999999999GF100991001001999999001001MA1999999089621MD1410001+9999REMSYN070AAXX  21001 40785 32960 00000 10286 20011 38962 49986 54000 92350 333;EQDQ01  00002PRCP99
0172407850999992000062103004+33980+051440FM-12+0982OIFK V0209999C000012200019N0150001N1+02321+00471100091ADDGA1001+999999999GF100991001001999999001001KA1999N+02221MA1999999089841MD1210221+9999REMSYN076AAXX  21031 40785 42965 00000 10232 20047 38984 40009 52022 90252 333 20222;
0201407850999992000062106004+33980+051440FM-12+0982OIFK V0209999C000012200019N0150001N1+03261-00041100281ADDAA124000091GA1001+999999999GF100991001001999999001001MA1999999090031MD1110191+9999REMSYN088AAXX  21061 40785 32965 00000 10326 21004 39003 40028 51019 90546 333 30019 51321 70000;EQDQ01  00002PRCP24
0153407850999992000062109004+33980+051440FM-12+0982OIFK V0209999C000012200019N0150001N1+03781+00241100131ADDGA1001+999999999GF100991001001999999001001MA1999999089921MD1810111+9999REMSYN070AAXX  21091 40785 42965 00000 10378 20024 38992 40013 58011 90847 333;
0183407850999992000062112004+33980+051440FM-12+0982OIFK V0209999C000012200019N0150001N1+04181+00221099821ADDAA199000091GA1001+999999999GF100991001001999999001001MA1999999089671MD1710251+9999REMSYN070AAXX  21121 40785 32965 00000 10418 20022 38967 49982 57025 91146 333;EQDQ01  00002PRCP99
0172407850999992000062115004+33980+051440FM-12+0982OIFK V0209999C000012200019N0150001N1+04041-00011099831ADDGA1001+999999999GF100991001001999999001001KA1999M+04251MA1999999089581MD1610091+9999REMSYN076AAXX  21151 40785 42965 00000 10404 21001 38958 49983 56009 91447 333 10425;
0189407850999992000062118004+33980+051440FM-12+0982OIFK V0209999C000012200019N0150001N1+03541+00061100021ADDAA199000091GA1001+999999999GF100991001001999999001001MA1999999089811MD1210231+9999REMSYN076AAXX  21181 40785 32965 00000 10354 20006 38981 40002 52023 91747 333 55123;EQDQ01  00002PRCP99
0183407850999992000062200004+33980+051440FM-12+0982OIFK V0209999C000012200019N0150001N1+02641-00251100221ADDAA199000091GA1001+999999999GF100991001001999999001001MA1999999089891MD1410001+9999REMSYN070AAXX  22001 40785 32965 00000 10264 21025 38989 40022 54000 92350 333;EQDQ01  00002PRCP99
0172407850999992000062203004+33980+051440FM-12+0982OIFK V0209999C000012200019N0150001N1+02561+00211100281ADDGA1001+999999999GF100991001001999999001001KA1999N+02301MA1999999090021MD1210131+9999REMSYN076AAXX  22031 40785 42965 00000 10256 20021 39002 40028 52013 90250 333 20230;
0201407850999992000062206004+33980+051440FM-12+0982OIFK V0209999C000012200019N0150001N1+03281+00181100351ADDAA124000091GA1001+999999999GF100991001001999999001001MA1999999090101MD1110081+9999REMSYN088AAXX  22061 40785 32965 00000 10328 20018 39010 40035 51008 90550 333 30020 51461 70000;EQDQ01  00002PRCP24
0153407850999992000062209004+33980+051440FM-12+0982OIFK V0209999C000012200019N0150001N1+04001-00051100061ADDGA1001+999999999GF100991001001999999001001MA1999999089891MD1710211+9999REMSYN070AAXX  22091 40785 42965 00000 10400 21005 38989 40006 57021 90850 333;
0183407850999992000062212004+33980+051440FM-12+0982OIFK V0209999C000012200019N0150001N1+04161-00321099791ADDAA199000091GA1001+999999999GF100991001001999999001001MA1999999089591MD1710301+9999REMSYN070AAXX  22121 40785 32965 00000 10416 21032 38959 49979 57030 91150 333;EQDQ01  00002PRCP99
0130407850999992000062215004+33980+051440FM-12+0982OIFK V0209999C000019999999N0150001N1+04021+00281099671ADDKA1999M+04241MA1999999089451MD1710141+9999REMSYN076AAXX  22151 40785 42965 /0000 10402 20028 38945 49967 57014 91450 333 10424;
0189407850999992000062218004+33980+051440FM-12+0982OIFK V0209999C000012200019N0150001N1+03261+00251099861ADDAA199000091GA1001+999999999GF100991001001999999001001MA1999999089601MD1310151+9999REMSYN076AAXX  22181 40785 32965 00000 10326 20025 38960 49986 53015 91750 333 55124;EQDQ01  00002PRCP99
0132407850999992000062221004+33980+051440FM-12+0982OIFK V0209999C000012200019N0015001N1+99999+99999099851ADDGA1001+999999999GF100991001001999999001001MD1110061+9999REMSYN064AAXX  22211 40785 42915 00000 20035 38/66 49985 51006 92050 333;
0183407850999992000062300004+33980+051440FM-12+0982OIFK V0209999C000012200019N0150001N1+02541+00221099881ADDAA199000091GA1001+999999999GF100991001001999999001001MA1999999089661MD1410001+9999REMSYN070AAXX  23001 40785 32965 00000 10254 20022 38966 49988 54000 92350 333;EQDQ01  00002PRCP99
0172407850999992000062303004+33980+051440FM-12+0982OIFK V0209999C000012200019N0150001N1+02541+00021100001ADDGA1001+999999999GF100991001001999999001001KA1999N+02201MA1999999089731MD1310071+9999REMSYN076AAXX  23031 40785 42965 00000 10254 20002 38973 40000 53007 90250 333 20220;
0201407850999992000062306004+33980+051440FM-12+0982OIFK V0209999C000012200019N0150001N1+03221+00321100011ADDAA124000091GA1001+999999999GF100991001001999999001001MA1999999089771MD1110041+9999REMSYN088AAXX  23061 40785 32965 00000 10322 20032 38977 40001 51004 90550 333 30020 51521 70000;EQDQ01  00002PRCP24
0183407850999992000062312004+33980+051440FM-12+0982OIFK V0200501N003012200019N0150001N1+04221-00281099421ADDAA199000091GA1001+999999999GF100991001001999999001001MA1999999089271MD1710281+9999REMSYN070AAXX  23121 40785 32965 00503 10422 21028 38927 49942 57028 91150 333;EQDQ01  00002PRCP99
0189407850999992000062318004+33980+051440FM-12+0982OIFK V0209999C000012200019N0150001N1+03501+00021099411ADDAA199000091GA1001+999999999GF100991001001999999001001MA1999999089261MD1310121+9999REMSYN076AAXX  23181 40785 32965 00000 10350 20002 38926 49941 53012 91750 333 55123;EQDQ01  00002PRCP99
0153407850999992000062321004+33980+051440FM-12+0982OIFK V0209999C000012200019N0100001N1+03261-00041099271ADDGA1001+999999999GF100991001001999999001001MA1999999089211MD1810051+9999REMSYN070AAXX  23211 40785 42960 00000 10326 21004 38921 49927 58005 92050 333;
0183407850999992000062400004+33980+051440FM-12+0982OIFK V0209999C000012200019N0150001N1+02561+00131099271ADDAA199000091GA1001+999999999GF100991001001999999001001MA1999999089171MD1610041+9999REMSYN070AAXX  24001 40785 32965 00000 10256 20013 38917 49927 56004 92350 333;EQDQ01  00002PRCP99
0201407850999992000062406004+33980+051440FM-12+0982OIFK V0209999C000012200019N0100001N1+03261-00161099531ADDAA124000091GA1001+999999999GF100991001001999999001001MA1999999089361MD1110101+9999REMSYN088AAXX  24061 40785 32960 00000 10326 21016 38936 49953 51010 90550 333 30020 51641 70000;EQDQ01  00002PRCP24
0183407850999992000062412004+33980+051440FM-12+0982OIFK V0209999C000012200019N0150001N1+04161-00141099081ADDAA199000091GA1001+999999999GF100991001001999999001001MA1999999088971MD1710241+9999REMSYN070AAXX  24121 40785 32965 00000 10416 21014 38897 49908 57024 91150 333;EQDQ01  00002PRCP99
0172407850999992000062415004+33980+051440FM-12+0982OIFK V0209999C000012200019N0100001N1+03981-00071098881ADDGA1001+999999999GF100991001001999999001001KA1999M+04201MA1999999088811MD1610161+9999REMSYN076AAXX  24151 40785 42960 00000 10398 21007 38881 49888 56016 91450 333 10420;
0189407850999992000062418004+33980+051440FM-12+0982OIFK V0209999C000012200019N0100001N1+03461-00021099051ADDAA199000091GA1001+999999999GF100991001001999999001001MA1999999088921MD1110111+9999REMSYN076AAXX  24181 40785 32960 00000 10346 21002 38892 49905 51011 91750 333 55122;EQDQ01  00002PRCP99
0153407850999992000062421004+33980+051440FM-12+0982OIFK V0209999C000012200019N0100001N1+02981+00211099221ADDGA1001+999999999GF100991001001999999001001MA1999999089111MD1210191+9999REMSYN070AAXX  24211 40785 42960 00000 10298 20021 38911 49922 52019 92052 333;
0183407850999992000062500004+33980+051440FM-12+0982OIFK V0209999C000012200019N0100001N1+02481+00101099301ADDAA199000091GA1001+999999999GF100991001001999999001001MA1999999089151MD1110041+9999REMSYN070AAXX  25001 40785 32960 00000 10248 20010 38915 49930 51004 92350 333;EQDQ01  00002PRCP99
0191407850999992000062503004+33980+051440FM-12+0982OIFK V0209999C000012200019N0100001N1+02261+00371099551ADDGA1001+999999999GF100991001001999999001001KA1999N+02181MA1999999083912MD1210161+9999REMSYN076AAXX  25031 40785 42960 00000 10226 20037 38391 49955 52016 90250 333 20218;EQDQ01+083913APOSP 
0202407850999992000062506004+33980+051440FM-12+0982OIFK V0209999C000012200019N0150001N1+02941+00561099841ADDAA124000091GA1001+999999999GF100991001001999999001001MD1110261+9999REMSYN088AAXX  25061 40785 32965 00000 10294 20056 38957 49984 51026 90546 333 30019 51501 70000;EQDQ01+089573APOSP Q02  00002PRCP24
0215407850999992000062512004+33980+051440FM-12+0982OIFK V0202701N006012200019N0150001N1+03641-00891999999ADDAA199000091GA1001+999999999GF100991001001999999001001MA1999999999999MD1610201+9999REMSYN070AAXX  25121 40785 32965 02706 10364 21089 38060 49764 56020 91146 333;EQDQ01+097643APOSLPQ02  00002PRCP99Q03 080603APOSP 
0205407850999992000062518004+33980+051440FM-12+0982OIFK V0209999C000012200019N0150001N1+03101+00231099451ADDAA199000091GA1001+999999999GF100991001001999999001001MA1999999089182MD1310061+9999REMSYN076AAXX  25181 40785 32965 00000 10310 20023 38918 49945 53006 91748 333 55122;EQDQ01+089183APOSP Q02  00002PRCP99
0183407850999992000062600004+33980+051440FM-12+0982OIFK V0209999C000012200019N0150001N1+02341+00491099461ADDAA199000091GA1001+999999999GF100991001001999999001001MA1999999089181MD1410001+9999REMSYN070AAXX  26001 40785 32965 00000 10234 20049 38918 49946 54000 92346 333;EQDQ01  00002PRCP99
0172407850999992000062603004+33980+051440FM-12+0982OIFK V0209999C000012200019N0150001N1+02181+00611099661ADDGA1001+999999999GF100991001001999999001001KA1999N+02101MA1999999089321MD1310141+9999REMSYN076AAXX  26031 40785 42965 00000 10218 20061 38932 49966 53014 90247 333 20210;
0201407850999992000062606004+33980+051440FM-12+0982OIFK V0209999C000012200019N0150001N1+03041+00561099701ADDAA124000091GA1001+999999999GF100991001001999999001001MA1999999089431MD1110111+9999REMSYN088AAXX  26061 40785 32965 00000 10304 20056 38943 49970 51011 90550 333 30018 51451 70000;EQDQ01  00002PRCP24
0153407850999992000062609004+33980+051440FM-12+0982OIFK V0200101N002012200019N0150001N1+03481+00341099511ADDGA1001+999999999GF100991001001999999001001MA1999999089271MD1710161+9999REMSYN070AAXX  26091 40785 42965 00102 10348 20034 38927 49951 57016 90850 333;
0183407850999992000062612004+33980+051440FM-12+0982OIFK V0209999C000012200019N0150001N1+03841+00621099341ADDAA199000091GA1001+999999999GF100991001001999999001001MA1999999089101MD1710171+9999REMSYN070AAXX  26121 40785 32965 00000 10384 20062 38910 49934 57017 91150 333;EQDQ01  00002PRCP99
0172407850999992000062615004+33980+051440FM-12+0982OIFK V0209999C000012200019N0150001N1+03781+00761099271ADDGA1001+999999999GF100991001001999999001001KA1999M+03901MA1999999089011MD1610091+9999REMSYN076AAXX  26151 40785 42965 00000 10378 20076 38901 49927 56009 91450 333 10390;
0189407850999992000062618004+33980+051440FM-12+0982OIFK V0209999C000012200019N0150001N1+03261+00941099331ADDAA199000091GA1001+999999999GF100991001001999999001001MA1999999089141MD1210131+9999REMSYN076AAXX  26181 40785 32965 00000 10326 20094 38914 49933 52013 91750 333 55115;EQDQ01  00002PRCP99
0105407850999992000062621004+33980+051440FM-12+0982OIFK V02099999999999999999N0150001N1+99999+99999099371ADDMA1999999089211MD1110071+9999REMSYN064AAXX  26211 40785 42965 //708 20079 38921 49937 51007 92050 333;
0183407850999992000062700004+33980+051440FM-12+0982OIFK V0209999C000012200019N0150001N1+02761+00661099351ADDAA199000091GA1001+999999999GF100991001001999999001001MA1999999089441MD1210231+9999REMSYN070AAXX  27001 40785 32965 00000 10276 20066 38944 49935 52023 92350 333;EQDQ01  00002PRCP99
0172407850999992000062703004+33980+051440FM-12+0982OIFK V0209999C000012200019N0150001N1+02381+00711099811ADDGA1001+999999999GF100991001001999999001001KA1999N+02341MA1999999089561MD1310121+9999REMSYN076AAXX  27031 40785 42965 00000 10238 20071 38956 49981 53012 90250 333 20234;
0201407850999992000062706004+33980+051440FM-12+0982OIFK V0203001N002012200019N0150001N1+02881+00851099961ADDAA124000091GA1001+999999999GF100991001001999999001001MA1999999089681MD1110121+9999REMSYN088AAXX  27061 40785 32965 03002 10288 20085 38968 49996 51012 90547 333 30020 51321 70000;EQDQ01  00002PRCP24
0153407850999992000062709004+33980+051440FM-12+0982OIFK V0209999C000012200019N0150001N1+03341+00751099781ADDGA1001+999999999GF100991001001999999001001MA1999999089551MD1710131+9999REMSYN070AAXX  27091 40785 42965 00000 10334 20075 38955 49978 57013 90847 333;
0183407850999992000062712004+33980+051440FM-12+0982OIFK V0209999C000012200019N0150001N1+03721+00891099511ADDAA199000091GA1001+999999999GF100991001001999999001001MA1999999089301MD1710251+9999REMSYN070AAXX  27121 40785 32965 00000 10372 20089 38930 49951 57025 91147 333;EQDQ01  00002PRCP99
0172407850999992000062715004+33980+051440FM-12+0982OIFK V0209999C000012200019N0150001N1+03741+00721099431ADDGA1001+999999999GF100991001001999999001001KA1999M+03801MA1999999089211MD1610091+9999REMSYN076AAXX  27151 40785 42965 00000 10374 20072 38921 49943 56009 91447 333 10380;
0189407850999992000062718004+33980+051440FM-12+0982OIFK V0209999C000012200019N0150001N1+03341+00671099551ADDAA199000091GA1001+999999999GF100991001001999999001001MA1999999089321MD1310101+9999REMSYN076AAXX  27181 40785 32965 00000 10334 20067 38932 49955 53010 91747 333 55112;EQDQ01  00002PRCP99
0183407850999992000062800004+33980+051440FM-12+0982OIFK V0209999C000012200019N0150001N1+02701+00681099551ADDAA199000091GA1001+999999999GF100991001001999999001001MA1999999089361MD1410001+9999REMSYN070AAXX  28001 40785 32965 00000 10270 20068 38936 49955 54000 92346 333;EQDQ01  00002PRCP99
0201407850999992000062806004+33980+051440FM-12+0982OIFK V0200201N002012200019N0100001N1+03181+00681099891ADDAA124000091GA1001+999999999GF100991001001999999001001MA1999999089671MD1110101+9999REMSYN088AAXX  28061 40785 32960 00202 10318 20068 38967 49989 51010 90550 333 30023 51101 70000;EQDQ01  00002PRCP24
0153407850999992000062809004+33980+051440FM-12+0982OIFK V0209999C000012200019N0150001N1+03681+00861099751ADDGA1001+999999999GF100991001001999999001001MA1999999089551MD1810121+9999REMSYN070AAXX  28091 40785 42965 00000 10368 20086 38955 49975 58012 90850 333;
0183407850999992000062812004+33980+051440FM-12+0982OIFK V0209999C000012200019N0150001N1+04001+00521099681ADDAA199000091GA1001+999999999GF100991001001999999001001MA1999999089401MD1710151+9999REMSYN070AAXX  28121 40785 32965 00000 10400 20052 38940 49968 57015 91150 333;EQDQ01  00002PRCP99
0172407850999992000062815004+33980+051440FM-12+0982OIFK V0209999C000012200019N0150001N1+04021+00751099441ADDGA1001+999999999GF100991001001999999001001KA1999M+04101MA1999999089281MD1610121+9999REMSYN076AAXX  28151 40785 42965 00000 10402 20075 38928 49944 56012 91450 333 10410;
0159407850999992000062818004+33980+051440FM-12+0982OIFK V0202401N003012200019N0100001N1+03561+00381999999ADDAA199000091GA1001+999999999GF100991001001999999001001REMSYN075AAXX  28181 40785 32960 02403 10356 20038 3845 49963 53017 91750 333 55115;EQDQ01  00002PRCP99
0153407850999992000062821004+33980+051440FM-12+0982OIFK V0209999C000012200019N0100001N1+03301+00401099681ADDGA1001+999999999GF100991001001999999001001MA1999999089531MD1110081+9999REMSYN070AAXX  28211 40785 42960 00000 10330 20040 38953 49968 51008 92052 333;
0183407850999992000062900004+33980+051440FM-12+0982OIFK V0209999C000012200019N0100001N1+02921+00361099661ADDAA199000091GA1001+999999999GF100991001001999999001001MA1999999089531MD1410001+9999REMSYN070AAXX  29001 40785 32960 00000 10292 20036 38953 49966 54000 92352 333;EQDQ01  00002PRCP99
0172407850999992000062903004+33980+051440FM-12+0982OIFK V0209999C000012200019N0100001N1+02801+00481100011ADDGA1001+999999999GF100991001001999999001001KA1999N+02741MA1999999089831MD1210301+9999REMSYN076AAXX  29031 40785 42960 00000 10280 20048 38983 40001 52030 90250 333 20274;
0201407850999992000062906004+33980+051440FM-12+0982OIFK V0203201N005012200019N0150001N1+03521+00561100161ADDAA124000091GA1001+999999999GF100991001001999999001001MA1999999089961MD1210131+9999REMSYN088AAXX  29061 40785 32965 03205 10352 20056 38996 40016 52013 90545 333 30024 51201 70000;EQDQ01  00002PRCP24
0153407850999992000062909004+33980+051440FM-12+0982OIFK V0203201N002012200019N0150001N1+03981+00501100061ADDGA1001+999999999GF100991001001999999001001MA1999999089901MD1710061+9999REMSYN070AAXX  29091 40785 42965 03202 10398 20050 38990 40006 57006 90846 333;
0183407850999992000062912004+33980+051440FM-12+0982OIFK V0209999C000012200019N0150001N1+04261+00461099811ADDAA199000091GA1001+999999999GF100991001001999999001001MA1999999089681MD1710221+9999REMSYN070AAXX  29121 40785 32965 00000 10426 20046 38968 49981 57022 91147 333;EQDQ01  00002PRCP99
0184407850999992000062915004+33980+051440FM-12+0982OIFK V0209999C000012200019N0150001N1+04081+01091099801ADDGA1031+012009059GF103991031041012501001001KA1120M+04301MA1999999089601MD1610081+9999REMSYN088AAXX  29151 40785 42665 30000 10408 20109 38960 49980 56008 83400 91447 333 10430 83640;
0209407850999992000062918004+33980+051440FM-12+0982OIFK V0209999C000012200019N0150001N1+03541+00581099951ADDAA199000091GA1041+012009059GF104991041041012501001001GJ106669MA1999999089771MD1210171+9999REMSYN088AAXX  29181 40785 32665 40000 10354 20058 38977 49995 52017 84400 91746 333 55111 84640;EQDQ01  00002PRCP99
0165407850999992000062921004+33980+051440FM-12+0982OIFK V0201301N002012200019N0120001N1+03601+00221099921ADDGA1041+012009059GF104991041041012501001001MA1999999089811MD1110041+9999REMSYN082AAXX  29211 40785 42662 41302 10360 20022 38981 49992 51004 84400 92042 333 84640;
0195407850999992000063000004+33980+051440FM-12+0982OIFK V0209999C000012200019N0150001N1+03061+00641099951ADDAA199000091GA1041+012009059GF104991041041012501001001MA1999999089811MD1410001+9999REMSYN082AAXX  30001 40785 32665 40000 10306 20064 38981 49995 54000 84400 92346 333 84640;EQDQ01  00002PRCP99
0190407850999992000063003004+33980+051440FM-12+0982OIFK V0209999C00001036001CN0150001N1+03001+00531100211ADDGA1021+012009069GF106991021041012501031001KA1120N+02901MA1999999090001MD1210191+9999REMSYN094AAXX  30031 40785 42665 60000 10300 20053 39000 40021 52019 82430 90245 333 20290 82640 86360;
0213407850999992000063006004+33980+051440FM-12+0982OIFK V0209999C000012200019N0150001N1+03501+00631100281ADDAA124000091GA1021+030009079GF102991021001999999031001MA1999999090091MD1110091+9999REMSYN100AAXX  30061 40785 32965 20000 10350 20063 39009 40028 51009 82030 90550 333 30027 51561 70000 82360;EQDQ01  00002PRCP24
0153407850999992000063009004+33980+051440FM-12+0982OIFK V0209999C000012200019N0150001N1+04041+00441100061ADDGA1001+999999999GF100991001001999999001001MA1999999089971MD1810041+9999REMSYN070AAXX  30091 40785 42965 00000 10404 20044 38997 40006 58004 90850 333;
0195407850999992000063012004+33980+051440FM-12+0982OIFK V0209999C000012200019N0150001N1+04321+00521099811ADDAA199000091GA1011+012009059GF101991011041012501001001MA1999999089731MD1710241+9999REMSYN082AAXX  30121 40785 32665 10000 10432 20052 38973 49981 57024 81400 91150 333 81640;EQDQ01  00002PRCP99
0190407850999992000063015004+33980+051440FM-12+0982OIFK V0209999C000012200019N0150001N1+04061+00521099781ADDGA1021+012009069GF104991021041012501031001KA1120M+04351MA1999999089641MD1710091+9999REMSYN094AAXX  30151 40785 42665 40000 10406 20052 38964 49978 57009 82430 91450 333 10435 82640 83360;
0209407850999992000063018004+33980+051440FM-12+0982OIFK V0209999C000012200019N0150001N1+03661+00461099931ADDAA199000091GA1021+030009079GF102991021001999999031001GJ104509MA1999999089781MD1310141+9999REMSYN088AAXX  30181 40785 32965 20000 10366 20046 38978 49993 53014 82030 91750 333 55075 82360;EQDQ01  00002PRCP99
0111407850999992000063021004+33980+051440FM-12+0982OIFK V0209999C000019999999N0150001N1+03441+00521099791ADDMA1999999089731MD1810051+9999REMSYN070AAXX  30211 40785 42965 /0000 10344 20052 38973 49979 58005 92050 333;
0195407850999992000070100004+33980+051440FM-12+0982OIFK V0209999C000012200019N0150001N1+03041+00571099831ADDAA199000091GA1031+030009079GF103991031001999999031001MA1999999089731MD1410001+9999REMSYN082AAXX  01001 40785 32965 30000 10304 20057 38973 49983 54000 83030 92350 333 83360;EQDQ01  00002PRCP99
0184407850999992000070103004+33980+051440FM-12+0982OIFK V0209999C000012200019N0150001N1+02881+00641100061ADDGA1041+030009079GF104991041001999999031001KA1120N+02641MA1999999089881MD1310151+9999REMSYN088AAXX  01031 40785 42965 40000 10288 20064 38988 40006 53015 84030 90550 333 20264 84360;
0213407850999992000070106004+33980+051440FM-12+0982OIFK V0209999C000012200019N0150001N1+03381+00441100131ADDAA124000091GA1021+030009079GF102991021001999999031001MA1999999089951MD1110071+9999REMSYN100AAXX  01061 40785 32965 20000 10338 20044 38995 40013 51007 82030 90550 333 30024 51441 70000 82360;EQDQ01  00002PRCP24
0165407850999992000070109004+33980+051440FM-12+0982OIFK V0203201N002012200019N0150001N1+03981+00521099971ADDGA1031+030009079GF103991031001999999031001MA1999999089881MD1810021+9999REMSYN082AAXX  01091 40785 42965 33202 10398 20052 38988 49997 58002 83030 90850 333 83360;
0195407850999992000070112004+33980+051440FM-12+0982OIFK V0200301N003012200019N0150001N1+04261+00301099751ADDAA199000091GA1041+030009079GF104991041001999999031001MA1999999089501MD1710231+9999REMSYN082AAXX  01121 40785 32965 40303 10426 20030 38950 49975 57023 84030 91150 333 84360;EQDQ01  00002PRCP99
0184407850999992000070115004+33980+051440FM-12+0982OIFK V0200901N002012200019N0150001N1+04101+00461099721ADDGA1031+030009079GF103991031001999999031001KA1120M+04301MA1999999089581MD1610071+9999REMSYN088AAXX  01151 40785 42965 30902 10410 20046 38958 49972 56007 83030 91450 333 10430 83360;
0189407850999992000070118004+33980+051440FM-12+0982OIFK V0201201N002012200019N0150001N1+03561+00381099881ADDAA199000091GA1001+999999999GF100991001001999999001001MA1999999089711MD1210131+9999REMSYN076AAXX  01181 40785 32965 01202 10356 20038 38971 49988 52013 91750 333 55112;EQDQ01  00002PRCP99
0153407850999992000070121004+33980+051440FM-12+0982OIFK V0209999C000012200019N0150001N1+03321+00421099811ADDGA1001+999999999GF100991001001999999001001MA1999999089711MD1410001+9999REMSYN070AAXX  01211 40785 42965 00000 10332 20042 38971 49981 54000 92050 333;
0183407850999992000070200004+33980+051440FM-12+0982OIFK V0209999C000012200019N0150001N1+02961+00341099861ADDAA199000091GA1001+999999999GF100991001001999999001001MA1999999089711MD1410001+9999REMSYN070AAXX  02001 40785 32965 00000 10296 20034 38971 49986 54000 92350 333;EQDQ01  00002PRCP99
0184407850999992000070203004+33980+051440FM-12+0982OIFK V0201201N002010300019N0150001N1+02841+00091099951ADDGA1061+030009079GF106991061001999999031001KA1120N+02581MA1999999089781MD1310131+9999REMSYN088AAXX  02031 40785 42965 61202 10284 20009 38978 49995 53013 86030 90250 333 20258 86360;
0213407850999992000070206004+33980+051440FM-12+0982OIFK V0209999C000012200019N0100001N1+03341+00131100121ADDAA124000091GA1021+030009079GF102991021001012501031001MA1999999089901MD1210121+9999REMSYN100AAXX  02061 40785 32660 20000 10334 20013 38990 40012 52012 82030 90552 333 30023 51421 70000 82360;EQDQ01  00002PRCP24
0165407850999992000070209004+33980+051440FM-12+0982OIFK V0209999C000012200019N0100001N1+03961+00361099851ADDGA1011+030009079GF101991011001999999031001MA1999999089751MD1710151+9999REMSYN082AAXX  02091 40785 42960 10000 10396 20036 38975 49985 57015 81030 90850 333 81360;
0195407850999992000070212004+33980+051440FM-12+0982OIFK V0203601N002012200019N0100001N1+04281+00161099601ADDAA199000091GA1011+030009079GF101991011001999999031001MA1999999089501MD1710251+9999REMSYN082AAXX  02121 40785 32960 13602 10428 20016 38950 49960 57025 81030 91152 333 81360;EQDQ01  00002PRCP99
0190407850999992000070215004+33980+051440FM-12+0982OIFK V0209999C000012200019N0150001N1+04081+00461099481ADDGA1011+012009069GF103991011041012501031001KA1120M+04351MA1999999089331MD1610171+9999REMSYN094AAXX  02151 40785 42665 30000 10408 20046 38933 49948 56017 81430 91450 333 10435 81640 83360;
0215407850999992000070218004+33980+051440FM-12+0982OIFK V0209999C000012200019N0100001N1+03661+00471099601ADDAA199000091GA1011+012009069GF103991011041999999031001GJ106249MA1999999089461MD1210131+9999REMSYN094AAXX  02181 40785 32960 30000 10366 20047 38946 49960 52013 81430 91750 333 55104 81640 83360;EQDQ01  00002PRCP99
0171407850999992000070221004+33980+051440FM-12+0982OIFK V0200901N003012200019N0150001N1+03501+00141099591ADDGA1011+012009069GF103991011041012501031001MA1999999089511MD1110051+9999REMSYN088AAXX  02211 40785 42665 30903 10350 20014 38951 49959 51005 81430 92052 333 81640 83360;
0195407850999992000070300004+33980+051440FM-12+0982OIFK V0209999C000012200019N0150001N1+03221+00141099591ADDAA199000091GA1031+030009079GF103991031001999999031001MA1999999089511MD1410001+9999REMSYN082AAXX  03001 40785 32965 30000 10322 20014 38951 49959 54000 83030 92352 333 83360;EQDQ01  00002PRCP99
0190407850999992000070303004+33980+051440FM-12+0982OIFK V0209999C000012200019N0150001N1+02941+00111099791ADDGA1011+012009069GF104991011041012501031001KA1120N+02901MA1999999089621MD1210111+9999REMSYN094AAXX  03031 40785 42665 40000 10294 20011 38962 49979 52011 81430 90250 333 20290 81640 83360;
0213407850999992000070306004+33980+051440FM-12+0982OIFK V0203001N004012200019N0150001N1+03281+00361099921ADDAA124000091GA1031+030009079GF103991031001999999031001MA1999999089751MD1810131+9999REMSYN100AAXX  03061 40785 32965 33004 10328 20036 38975 49992 58013 83030 90546 333 30027 51561 70000 83360;EQDQ01  00002PRCP24
0190407850999992000070315004+33980+051440FM-12+0982OIFK V0209999C000012200019N0150001N1+04061+00761099261ADDGA1021+012009069GF104991021041012501031001KA1120M+04261MA1999999089171MD1710201+9999REMSYN094AAXX  03151 40785 42665 40000 10406 20076 38917 49926 57020 82430 91450 333 10426 82640 83360;
0209407850999992000070318004+33980+051440FM-12+0982OIFK V0209999C000012200019N0150001N1+03621+00201099551ADDAA199000091GA1031+030009079GF103991031001999999031001GJ106009MA1999999089411MD1210231+9999REMSYN088AAXX  03181 40785 32965 30000 10362 20020 38941 49955 52023 83030 91750 333 55100 83360;EQDQ01  00002PRCP99
0184407850999992000070403004+33980+051440FM-12+0982OIFK V0209999C000012200019N0150001N1+02841+00541099871ADDGA1021+030009079GF102991021001999999031001KA1120N+02801MA1999999089701MD1210181+9999REMSYN088AAXX  04031 40785 42965 20000 10284 20054 38970 49987 52018 82030 90250 333 20280 82360;
0213407850999992000070406004+33980+051440FM-12+0982OIFK V0209999C000012200019N0150001N1+03141+00691100021ADDAA124000091GA1021+030009079GF102991021001999999031001MA1999999089811MD1110111+9999REMSYN100AAXX  04061 40785 32965 20000 10314 20069 38981 40002 51011 82030 90550 333 30026 51501 70000 82360;EQDQ01  00002PRCP24
0165407850999992000070409004+33980+051440FM-12+0982OIFK V0203101N003012200019N0150001N1+03641+00441099861ADDGA1011+030009079GF101991011001999999031001MA1999999089701MD1810111+9999REMSYN082AAXX  04091 40785 42965 13103 10364 20044 38970 49986 58011 81030 90850 333 81360;
0201407850999992000070412004+33980+051440FM-12+0982OIFK V0209999C000012200019N0150001N1+03961+00481099551ADDAA199000091GA1011+012009069GF103991011041012501031001MA1999999089421MD1710281+9999REMSYN088AAXX  04121 40785 32665 30000 10396 20048 38942 49955 57028 81430 91150 333 81640 83360;EQDQ01  00002PRCP99
0190407850999992000070415004+33980+051440FM-12+0982OIFK V0209999C000019999999N0150001N1+03821+00401099491ADDGA1021+012009069GF106991021041012501001001KA1120M+04061MA1999999089321MD1110101+9999REMSYN094AAXX  04151 40785 42665 60000 10382 20040 38932 49949 51010 82400 91450 333 10406 82640 86360;
0215407850999992000070418004+33980+051440FM-12+0982OIFK V0209999C000012200019N0150001N1+03541+00391099651ADDAA199000091GA1011+012009069GF103991011041012501031001GJ106129MA1999999089471MD1310151+9999REMSYN094AAXX  04181 40785 32665 30000 10354 20039 38947 49965 53015 81430 91750 333 55102 81640 83360;EQDQ01  00002PRCP99
0183407850999992000070500004+33980+051440FM-12+0982OIFK V0209999C000012200019N0150001N1+02921+00491099821ADDAA199000091GA1001+999999999GF100991001001999999001001MA1999999089661MD1210131+9999REMSYN070AAXX  05001 40785 32965 00000 10292 20049 38966 49982 52013 92350 333;EQDQ01  00002PRCP99
0190407850999992000070503004+33980+051440FM-12+0982OIFK V0209999C000012200019N0150001N1+02781+00481100041ADDGA1011+012009069GF104991011041012501031001KA1120N+02701MA1999999089791MD1210131+9999REMSYN094AAXX  05031 40785 42665 40000 10278 20048 38979 40004 52013 81430 90250 333 20270 81640 84360;
0219407850999992000070506004+33980+051440FM-12+0982OIFK V0203001N003012200019N0150001N1+03181+00871100121ADDAA124000091GA1011+012009069GF104991011041012501031001MA1999999089861MD1110071+9999REMSYN106AAXX  05061 40785 32665 43003 10318 20087 38986 40012 51007 81430 90550 333 30005 51461 70000 81640 83360;EQDQ01  00002PRCP24
0162407850999992000070515004+33980+051440FM-12+0982OIFK V0209999C000010360019N0150001N1+03901+00661099431ADDGF105991011041012501031001MA1999999999999MD1710131+9999REMSYN076AAXX  05151 40785 42665 50000 10390 20066 38125 49943 57013 81430 91450 333;EQDQ01 081253APOSP 
0231407850999992000070518004+33980+051440FM-12+0982OIFK V0200901N00301036001CN0150001N1+03621+00551099581ADDAA199000091GA1011+012009069GF105991011041012501031001GJ105589MA1999999089412MD1310161+9999REMSYN094AAXX  05181 40785 32665 50903 10362 20055 38941 49958 53016 81430 91750 333 55093 81640 85360;EQDQ01+089413APOSP Q02  00002PRCP99
0195407850999992000070600004+33980+051440FM-12+0982OIFK V0209999C000012200019N0150001N1+02961+00351099681ADDAA199000091GA1031+030009079GF103991031001999999031001MA1999999089511MD1410001+9999REMSYN082AAXX  06001 40785 32965 30000 10296 20035 38951 49968 54000 83030 92350 333 83360;EQDQ01  00002PRCP99
0184407850999992000070603004+33980+051440FM-12+0982OIFK V0202701N002012200019N0150001N1+02941+00681099851ADDGA1031+030009079GF103991031001999999031001KA1120N+02801MA1999999089651MD1210141+9999REMSYN088AAXX  06031 40785 42965 32702 10294 20068 38965 49985 52014 83030 90250 333 20280 83360;
0219407850999992000070606004+33980+051440FM-12+0982OIFK V0209999C000012200019N0150001N1+03301+00921099911ADDAA124000091GA1011+012009069GF103991011041012501031001MA1999999089741MD1110091+9999REMSYN106AAXX  06061 40785 32665 30000 10330 20092 38974 49991 51009 81430 90552 333 30025 51521 70000 81640 83360;EQDQ01  00002PRCP24
0165407850999992000070609004+33980+051440FM-12+0982OIFK V0209999C000012200019N0100001N1+03741+00701099761ADDGA1021+030009079GF102991021001999999031001MA1999999089651MD1810091+9999REMSYN082AAXX  06091 40785 42960 20000 10374 20070 38965 49976 58009 82030 90850 333 82360;
0195407850999992000070612004+33980+051440FM-12+0982OIFK V0209999C000012200019N0150001N1+04101+00441099511ADDAA199000091GA1031+030009079GF103991031001999999031001MA1999999089381MD1710271+9999REMSYN082AAXX  06121 40785 32965 30000 10410 20044 38938 49951 57027 83030 91150 333 83360;EQDQ01  00002PRCP99
0190407850999992000070615004+33980+051440FM-12+0982OIFK V0200601N00501036001CN0120001N1+03901+00481099381ADDGA1021+012009069GF107991021041012501031001KA1120M+04151MA1999999089061MD1610121+9999REMSYN094AAXX  06151 40785 42662 70605 10390 20048 38906 49938 56012 82430 91452 333 10415 82640 85360;
0215407850999992000070618004+33980+051440FM-12+0982OIFK V0209999C000012200019N0120001N1+03461+00211099711ADDAA199000091GA1011+012009069GF103991011041012501031001GJ104989MA1999999089511MD1310251+9999REMSYN094AAXX  06181 40785 32662 30000 10346 20021 38951 49971 53025 81430 91750 333 55083 81640 83360;EQDQ01  00002PRCP99
0165407850999992000070621004+33980+051440FM-12+0982OIFK V0209999C000012200019N0120001N1+03241+00341099721ADDGA1021+030009079GF102991021001999999031001MA1999999089591MD1110081+9999REMSYN082AAXX  06211 40785 42962 20000 10324 20034 38959 49972 51008 82030 92050 333 82360;
0184407850999992000070703004+33980+051440FM-12+0982OIFK V0209999C000012200019N0120001N1+02781+00761099981ADDGA1031+030009079GF103991031001999999031001KA1120N+02701MA1999999089781MD1310191+9999REMSYN088AAXX  07031 40785 42962 30000 10278 20076 38978 49998 53019 83030 90252 333 20270 83360;
0213407850999992000070706004+33980+051440FM-12+0982OIFK V0203301N002012200019N0150001N1+03261+00931100031ADDAA124000091GA1041+030009079GF104991041001999999031001MA1999999089831MD1110051+9999REMSYN100AAXX  07061 40785 32965 43302 10326 20093 38983 40003 51005 84030 90545 333 30024 51681 70000 84360;EQDQ01  00002PRCP24
0153407850999992000070709004+33980+051440FM-12+0982OIFK V0202801N003012200019N0120001N1+03601+00941099811ADDGA1001+999999999GF100991001001999999001001MA1999999089651MD1810181+9999REMSYN070AAXX  07091 40785 42962 02803 10360 20094 38965 49981 58018 90846 333;
0195407850999992000070712004+33980+051440FM-12+0982OIFK V0200501N006012200019N0120001N1+03981+00521099481ADDAA199000091GA1011+012009029GF101991011011012501001001MA1999999089351MD1710301+9999REMSYN082AAXX  07121 40785 32662 10506 10398 20052 38935 49948 57030 81100 91146 333 81840;EQDQ01  00002PRCP99
0184407850999992000070715004+33980+051440FM-12+0982OIFK V0200801N002012200019N0120001N1+03881+00641099351ADDGA1021+012009059GF102991021041012501001001KA1120M+04051MA1999999089201MD1710151+9999REMSYN088AAXX  07151 40785 42662 20802 10388 20064 38920 49935 57015 82400 91445 333 10405 82640;
0215407850999992000070718004+33980+051440FM-12+0982OIFK V0209999C000012200019N0120001N1+03481+00781099511ADDAA199000091GA1011+012009069GF103991011041012501031001GJ106429MA1999999089361MD1310161+9999REMSYN094AAXX  07181 40785 32662 30000 10348 20078 38936 49951 53016 81430 91747 333 55107 81640 83360;EQDQ01  00002PRCP99
0153407850999992000070721004+33980+051440FM-12+0982OIFK V0209999C000012200019N0120001N1+03061+00701099591ADDGA1001+999999999GF100991001001999999001001MA1999999089431MD1110071+9999REMSYN070AAXX  07211 40785 42962 00000 10306 20070 38943 49959 51007 92040 333;
0183407850999992000070800004+33980+051440FM-12+0982OIFK V0209999C000012200019N0150001N1+02861+00691099611ADDAA199000091GA1001+999999999GF100991001001999999001001MA1999999089431MD1410001+9999REMSYN070AAXX  08001 40785 32965 00000 10286 20069 38943 49961 54000 92345 333;EQDQ01  00002PRCP99
0184407850999992000070803004+33980+051440FM-12+0982OIFK V0209999C000012200019N0150001N1+02781+00601099611ADDGA1021+030009079GF102991021001999999031001KA1120N+02521MA1999999089451MD1310021+9999REMSYN088AAXX  08031 40785 42965 20000 10278 20060 38945 49961 53002 82030 90245 333 20252 82360;
0201407850999992000070806004+33980+051440FM-12+0982OIFK V0203001N002012200019N0150001N1+03381+00531099721ADDAA124000091GA1001+999999999GF100991001001999999001001MA1999999089551MD1110101+9999REMSYN088AAXX  08061 40785 32965 03002 10338 20053 38955 49972 51010 90550 333 30022 51401 70000;EQDQ01  00002PRCP24
0201407850999992000070812004+33980+051440FM-12+0982OIFK V0202601N002012200019N0150001N1+04101+00601099401ADDAA199000091GA1011+012009069GF103991011041012501031001MA1999999089241MD1710211+9999REMSYN088AAXX  08121 40785 32665 32602 10410 20060 38924 49940 57021 81430 91150 333 81640 83360;EQDQ01  00002PRCP99
0190407850999992000070815004+33980+051440FM-12+0982OIFK V0209999C000012200019N0150001N1+04101+00601099321ADDGA1021+012009069GF104991021041012501031001KA1120M+04201MA1999999089181MD1610061+9999REMSYN094AAXX  08151 40785 42665 40000 10410 20060 38918 49932 56006 82430 91450 333 10420 82640 83360;
0215407850999992000070818004+33980+051440FM-12+0982OIFK V0209999C000012200019N0150001N1+03481+00991099471ADDAA199000091GA1011+012009069GF104991011041012501031001GJ106549MA1999999089311MD1210131+9999REMSYN094AAXX  08181 40785 32665 40000 10348 20099 38931 49947 52013 81430 91750 333 55109 81640 84360;EQDQ01  00002PRCP99
0165407850999992000070821004+33980+051440FM-12+0982OIFK V0209999C000012200019N0150001N1+03301+00711099461ADDGA1031+030009079GF103991031001999999031001MA1999999089341MD1110031+9999REMSYN082AAXX  08211 40785 42965 30000 10330 20071 38934 49946 51003 83030 92050 333 83360;
0195407850999992000070900004+33980+051440FM-12+0982OIFK V0209999C000012200019N0150001N1+03101+00801099441ADDAA199000091GA1031+030009079GF103991031001999999031001MA1999999089341MD1410001+9999REMSYN082AAXX  09001 40785 32965 30000 10310 20080 38934 49944 54000 83030 92350 333 83360;EQDQ01  00002PRCP99
0184407850999992000070903004+33980+051440FM-12+0982OIFK V0209999C000012200019N0150001N1+02961+00961099751ADDGA1031+030009079GF103991031001999999031001KA1120N+02651MA1999999089581MD1210241+9999REMSYN088AAXX  09031 40785 42965 30000 10296 20096 38958 49975 52024 83030 90250 333 20265 83360;
0213407850999992000070906004+33980+051440FM-12+0982OIFK V0202401N003012200019N0150001N1+03401+01061099761ADDAA124000091GA1031+030009079GF103991031001999999031001MA1999999089621MD1110041+9999REMSYN100AAXX  09061 40785 32965 32403 10340 20106 38962 49976 51004 83030 90546 333 30024 51401 70000 83360;EQDQ01  00002PRCP24
0165407850999992000070909004+33980+051440FM-12+0982OIFK V0209999C000012200019N0150001N1+03801+00861099591ADDGA1021+012009029GF102991021011012501001001MA1999999089491MD1710131+9999REMSYN082AAXX  09091 40785 42665 20000 10380 20086 38949 49959 57013 82100 90845 333 82840;
0195407850999992000070912004+33980+051440FM-12+0982OIFK V0209999C000012200019N0150001N1+04081+00801099341ADDAA199000091GA1021+012009059GF102991021041012501001001MA1999999089281MD1710211+9999REMSYN082AAXX  09121 40785 32665 20000 10408 20080 38928 49934 57021 82400 91147 333 82640;EQDQ01  00002PRCP99
0184407850999992000070915004+33980+051440FM-12+0982OIFK V0203601N003012200019N0150001N1+04001+00261099291ADDGA1031+012009059GF103991031041012501001001KA1120M+04201MA1999999089181MD1610101+9999REMSYN088AAXX  09151 40785 42665 33603 10400 20026 38918 49929 56010 83400 91446 333 10420 83640;
0215407850999992000070918004+33980+051440FM-12+0982OIFK V0209999C000012200019N0150001N1+03441+00581099401ADDAA199000091GA1021+012009069GF104991021041012501031001GJ106729MA1999999089291MD1310111+9999REMSYN094AAXX  09181 40785 32665 40000 10344 20058 38929 49940 53011 82430 91746 333 55112 82640 84360;EQDQ01  00002PRCP99
0165407850999992000070921004+33980+051440FM-12+0982OIFK V0209999C000012200019N0150001N1+03101+00741099371ADDGA1031+030009079GF103991031001999999031001MA1999999089291MD1410001+9999REMSYN082AAXX  09211 40785 42965 30000 10310 20074 38929 49937 54000 83030 92041 333 83360;
0195407850999992000071000004+33980+051440FM-12+0982OIFK V0209999C000012200019N0150001N1+02961+00661099351ADDAA199000091GA1021+030009079GF102991021001999999031001MA1999999089291MD1410001+9999REMSYN082AAXX  10001 40785 32965 20000 10296 20066 38929 49935 54000 82030 92346 333 82360;EQDQ01  00002PRCP99
0219407850999992000071006004+33980+051440FM-12+0982OIFK V0203201N003012200019N0150001N1+03381+01161099661ADDAA124000091GA1021+012009069GF104991021041012501031001MA1999999089521MD1110041+9999REMSYN106AAXX  10061 40785 32665 43203 10338 20116 38952 49966 51004 82430 90550 333 30026 51651 70000 82640 84360;EQDQ01  00002PRCP24
0165407850999992000071009004+33980+051440FM-12+0982OIFK V0209999C000012200019N0100001N1+03821+01041099451ADDGA1021+012009059GF102991021041012501001001MA1999999089331MD1810191+9999REMSYN082AAXX  10091 40785 42660 20000 10382 20104 38933 49945 58019 82400 90852 333 82640;
0195407850999992000071012004+33980+051440FM-12+0982OIFK V0200601N002010360019N0120001N1+04181+00521099091ADDAA199000091GA1031+012009059GF105991031041012501031001MA1999999089051MD1710281+9999REMSYN082AAXX  10121 40785 32662 50602 10418 20052 38905 49909 57028 83430 91152 333 83640;EQDQ01  00002PRCP99
0209407850999992000071018004+33980+051440FM-12+0982OIFK V0201201N003012200019N0150001N1+03701+00521099201ADDAA199000091GA1041+030009079GF104991041001999999031001GJ106369MA1999999089141MD1310201+9999REMSYN088AAXX  10181 40785 32965 41203 10370 20052 38914 49920 53020 84030 91750 333 55106 84360;EQDQ01  00002PRCP99
0195407850999992000071100004+33980+051440FM-12+0982OIFK V0209999C000012200019N0150001N1+03461+00391099371ADDAA199000091GA1021+030009079GF102991021001012501031001MA1999999089141MD1410001+9999REMSYN082AAXX  11001 40785 32665 20000 10346 20039 38914 49937 54000 82030 92352 333 82360;EQDQ01  00002PRCP99
0160407850999992000071103004+33980+051440FM-12+0982OIFK V0209999C000010360019N0150001N1+02901+00521099231ADDGF106991031041012501031001MA1999999089161MD1310021+9999REMSYN093AAXX  11031 40785 42665 60000 10290 20052 38916 49923 53002 83430 90250 33 20284 83640 86360;
0218407850999992000071106004+33980+051440FM-12+0982OIFK V0209999C000012200019N0150001N1+03341+00511099351ADDAA199000091GA1011+012009069GF104991011041012501031001MA1999999089241MD1110081+9999REMSYN105AAXX  11061 40785 32665 40000 10334 20051 38924 49935 51008 81430 90545 333 30024 51601 7000 81640 83360;EQDQ01  00002PRCP99
0153407850999992000071109004+33980+051440FM-12+0982OIFK V0203301N002012200019N0150001N1+03981+00501099141ADDGA1001+999999999GF100991001001999999001001MA1999999089111MD1810131+9999REMSYN070AAXX  11091 40785 42965 03302 10398 20050 38911 49914 58013 90845 333;
0201407850999992000071112004+33980+051440FM-12+0982OIFK V0209999C000012200019N0150001N1+04361+00651098831ADDAA199000091GA1011+012009069GF103991011041012501031001MA1999999088871MD1710341+9999REMSYN088AAXX  11121 40785 32665 30000 10436 20065 38887 49883 57034 81430 91147 333 81640 83360;EQDQ01  00002PRCP99
0190407850999992000071115004+33980+051440FM-12+0982OIFK V0201001N00501036001CN0150001N1+04161+00221098821ADDGA1021+012009069GF105991021041012501031001KA1120M+04421MA1999999088771MD1610101+9999REMSYN094AAXX  11151 40785 42665 51005 10416 20022 38877 49882 56010 82430 91446 333 10442 82640 84360;
0215407850999992000071118004+33980+051440FM-12+0982OIFK V0201101N00201036001CN0150001N1+03681+00481099091ADDAA199000091GA1021+012009069GF105991021041012501031001GJ105409MA1999999089001MD1210231+9999REMSYN094AAXX  11181 40785 32665 51102 10368 20048 38900 49909 52023 82430 91745 333 55090 82640 84360;EQDQ01  00002PRCP99
0171407850999992000071121004+33980+051440FM-12+0982OIFK V0201001N00401036001CN0150001N1+03541+00081099151ADDGA1021+012009069GF105991021041012501031001MA1999999089121MD1210121+9999REMSYN088AAXX  11211 40785 42665 51004 10354 20008 38912 49915 52012 82430 92041 333 82640 84360;
0195407850999992000071200004+33980+051440FM-12+0982OIFK V0209999C000012200019N0150001N1+02841+00181099181ADDAA199000091GA1011+030009079GF101991011001999999031001MA1999999089121MD1410001+9999REMSYN082AAXX  12001 40785 32965 10000 10284 20018 38912 49918 54000 81030 92347 333 81360;EQDQ01  00002PRCP99
0219407850999992000071206004+33980+051440FM-12+0982OIFK V0209999C000012200019N0150001N1+03321+00871099511ADDAA124000091GA1011+012009069GF103991011041012501031001MA1999999089401MD1210171+9999REMSYN106AAXX  12061 40785 32665 30000 10332 20087 38940 49951 52017 81430 90550 333 30025 51521 70000 81640 83360;EQDQ01  00002PRCP24
0165407850999992000071209004+33980+051440FM-12+0982OIFK V0209999C000012200019N0150001N1+03841+00621099361ADDGA1021+030009079GF102991021001999999031001MA1999999089311MD1810091+9999REMSYN082AAXX  12091 40785 42965 20000 10384 20062 38931 49936 58009 82030 91150 333 82360;
0195407850999992000071212004+33980+051440FM-12+0982OIFK V0202101N002012200019N0150001N1+04201+00541099061ADDAA199000091GA1011+030009079GF101991011001999999031001MA1999999089001MD1710311+9999REMSYN082AAXX  12121 40785 32965 12102 10420 20054 38900 49906 57031 81030 91150 333 81360;EQDQ01  00002PRCP99
0190407850999992000071215004+33980+051440FM-12+0982OIFK V0200601N007012200019N0150001N1+03901+00681099161ADDGA1011+012009069GF103991011041012501031001KA1120M+04251MA1999999089051MD1310051+9999REMSYN094AAXX  12151 40785 42665 30607 10390 20068 38905 49916 53005 81430 91450 333 10425 81640 83360;
0209407850999992000071218004+33980+051440FM-12+0982OIFK V0209999C000012200019N0150001N1+03501+00721099441ADDAA199000091GA1021+030009079GF102991021001999999031001GJ106129MA1999999089321MD1210271+9999REMSYN088AAXX  12181 40785 32965 20000 10350 20072 38932 49944 52027 82030 91750 333 55102 82360;EQDQ01  00002PRCP99
0195407850999992000071300004+33980+051440FM-12+0982OIFK V0209999C000012200019N0150001N1+03121+00671099611ADDAA199000091GA1021+030009079GF102991021001999999031001MA1999999089531MD1110151+9999REMSYN082AAXX  13001 40785 32965 20000 10312 20067 38953 49961 51015 82030 92350 333 82360;EQDQ01  00002PRCP99
0165407850999992000071309004+33980+051440FM-12+0982OIFK V0209999C000012200019N0150001N1+03541+00981099971ADDGA1011+030009079GF101991011001999999031001MA1999999089801MD1810111+9999REMSYN082AAXX  13091 40785 42965 10000 10354 20098 38980 49997 58011 81030 90850 333 81360;
0201407850999992000071312004+33980+051440FM-12+0982OIFK V0201001N003012200019N0150001N1+03761+00101099701ADDAA199000091GA1011+012009069GF103991011041012501031001MA1999999089381MD1710221+9999REMSYN088AAXX  13121 40785 32665 31003 10376 20010 38938 49970 57022 81430 91150 333 81640 83360;EQDQ01  00002PRCP99
0153407850999992000071321004+33980+051440FM-12+0982OIFK V0209999C000012200019N0150001N1+03121+00861099881ADDGA1001+999999999GF100991001001999999001001MA1999999089681MD1410001+9999REMSYN070AAXX  13211 40785 42965 00000 10312 20086 38968 49988 54000 92050 333;
0183407850999992000071400004+33980+051440FM-12+0982OIFK V0209999C000012200019N0150001N1+02821+01051099891ADDAA199000091GA1001+999999999GF100991001001999999001001MA1999999089681MD1410001+9999REMSYN070AAXX  14001 40785 32965 00000 10282 20105 38968 49989 54000 92350 333;EQDQ01  00002PRCP99
0172407850999992000071403004+33980+051440FM-12+0982OIFK V0209999C000012200019N0150001N1+02701+00871100091ADDGA1001+999999999GF100991001001999999001001KA1999N+02681MA1999999089781MD1310101+9999REMSYN076AAXX  14031 40785 42965 00000 10270 20087 38978 40009 53010 90250 333 20268;
0213407850999992000071406004+33980+051440FM-12+0982OIFK V0209999C000012200019N0150001N1+03161+01181100151ADDAA124000091GA1011+030009079GF101991011001999999031001MA1999999089861MD1110081+9999REMSYN100AAXX  14061 40785 32965 10000 10316 20118 38986 40015 51008 81030 90550 333 30023 51601 70000 81360;EQDQ01  00002PRCP24
0165407850999992000071409004+33980+051440FM-12+0982OIFK V0209999C000012200019N0100001N1+03581+00781099921ADDGA1011+030009079GF101991011001999999031001MA1999999089681MD1710181+9999REMSYN082AAXX  14091 40785 42960 10000 10358 20078 38968 49992 57018 81030 90850 333 81360;
0195407850999992000071412004+33980+051440FM-12+0982OIFK V0200601N004012200019N0150001N1+03961+00811099591ADDAA199000091GA1011+012009029GF102991011041012501031001MA1999999089401MD1710281+9999REMSYN082AAXX  14121 40785 32665 20604 10396 20081 38940 49959 57028 81430 91152 333 81840;EQDQ01  00002PRCP99
0237407850999992000071418004+33980+051440FM-12+0982OIFK V0209999C00001036001CN0100001N1+03501+01011099681ADDAA199000091GA1011+010509099GA2031+012009069GF106991021031012501031001GJ105829MA1999999089471MD1210121+9999REMSYN100AAXX  14181 40785 32660 60000 10350 20101 38947 49968 52012 82330 91750 333 55097 81935 83640 84360;EQDQ01  00002PRCP99
0193407850999992000071421004+33980+051440FM-12+0982OIFK V0202401N00301036001CN0150001N1+03421+00811099621ADDGA1011+010509099GA2031+012009069GF106991031031012501031001MA1999999089471MD1410001+9999REMSYN094AAXX  14211 40785 42665 62403 10342 20081 38947 49962 54000 83330 92050 333 81935 83640 84360;
0201407850999992000071500004+33980+051440FM-12+0982OIFK V0209999C000012200019N0150001N1+03101+00681099621ADDAA199000091GA1021+012009069GF104991021041012501031001MA1999999089471MD1410001+9999REMSYN088AAXX  15001 40785 32665 40000 10310 20068 38947 49962 54000 82430 92350 333 82640 83360;EQDQ01  00002PRCP99
0184407850999992000071503004+33980+051440FM-12+0982OIFK V0209999C000012200019N0150001N1+02841+00601099721ADDGA1031+030009079GF103991031001999999031001KA1120N+02801MA1999999089591MD1210121+9999REMSYN088AAXX  15031 40785 42965 30000 10284 20060 38959 49972 52012 83030 90250 333 20280 83360;
0201407850999992000071506004+33980+051440FM-12+0982OIFK V0203401N002012200019N0150001N1+03381+00921099831ADDAA124000091GA1001+999999999GF100991001001999999001001MA1999999089681MD1110091+9999REMSYN088AAXX  15061 40785 32965 03402 10338 20092 38968 49983 51009 90546 333 30027 51571 70000;EQDQ01  00002PRCP24
0165407850999992000071509004+33980+051440FM-12+0982OIFK V0200301N002012200019N0150001N1+03861+00921099731ADDGA1021+012009029GF102991021011012501001001MA1999999089641MD1810041+9999REMSYN082AAXX  15091 40785 42665 20302 10386 20092 38964 49973 58004 82100 90845 333 82840;
0201407850999992000071512004+33980+051440FM-12+0982OIFK V0209999C000012200019N0150001N1+04001+00941099551ADDAA199000091GA1021+012009069GF104991021041012501031001MA1999999089451MD1710191+9999REMSYN088AAXX  15121 40785 32665 40000 10400 20094 38945 49955 57019 82430 91146 333 82640 84360;EQDQ01  00002PRCP99
0190407850999992000071515004+33980+051440FM-12+0982OIFK V0209999C00001036001CN0150001N1+03981+01121099541ADDGA1031+012009069GF106991031041012501031001KA1120M+04141MA1999999089401MD1610051+9999REMSYN094AAXX  15151 40785 42665 60000 10398 20112 38940 49954 56005 83430 91446 333 10414 83640 86360;
0215407850999992000071518004+33980+051440FM-12+0982OIFK V0209999C00001036001CN0150001N1+03601+01161099581ADDAA199000091GA1041+012009069GF107991041041012501031001GJ105109MA1999999089461MD1110061+9999REMSYN094AAXX  15181 40785 32665 70000 10360 20116 38946 49958 51006 84430 91746 333 55085 84640 87360;EQDQ01  00002PRCP99
0195407850999992000071600004+33980+051440FM-12+0982OIFK V0201201N005012200019N0150001N1+03261+00781099641ADDAA199000091GA1021+030009079GF102991021001999999031001MA1999999089581MD1310051+9999REMSYN082AAXX  16001 40785 32965 21205 10326 20078 38958 49964 53005 82030 92346 333 82360;EQDQ01  00002PRCP99
0172407850999992000071603004+33980+051440FM-12+0982OIFK V0203201N003012200019N0150001N1+02741+00781100051ADDGA1001+999999999GF100991001001999999001001KA1999N+02701MA1999999089861MD1210281+9999REMSYN076AAXX  16031 40785 42965 03203 10274 20078 38986 40005 52028 90246 333 20270;
0201407850999992000071606004+33980+051440FM-12+0982OIFK V0203201N002012200019N0150001N1+03241+00521100151ADDAA124000091GA1001+999999999GF100991001001999999001001MA1999999089951MD1110091+9999REMSYN088AAXX  16061 40785 32965 03202 10324 20052 38995 40015 51009 90550 333 30026 51461 70000;EQDQ01  00002PRCP24
0165407850999992000071609004+33980+051440FM-12+0982OIFK V0200401N004012200019N0150001N1+03701+00511100121ADDGA1011+012009029GF101991011011012501001001MA1999999089951MD1410001+9999REMSYN082AAXX  16091 40785 42665 10404 10370 20051 38995 40012 54000 81100 90850 333 81840;
0195407850999992000071612004+33980+051440FM-12+0982OIFK V0201201N002012200019N0150001N1+03961+00911099821ADDAA199000091GA1011+012009029GF101991011011012501001001MA1999999089751MD1710201+9999REMSYN082AAXX  16121 40785 32665 11202 10396 20091 38975 49982 57020 81100 91150 333 81840;EQDQ01  00002PRCP99
0172407850999992000071615004+33980+051440FM-12+0982OIFK V0203601N004012200019N0150001N1+03861+00621099861ADDGA1001+999999999GF100991001001999999001001KA1999M+04051MA1999999089631MD1610121+9999REMSYN076AAXX  16151 40785 42965 03604 10386 20062 38963 49986 56012 91450 333 10405;
0215407850999992000071618004+33980+051440FM-12+0982OIFK V0209999C000012200019N0150001N1+03461+00521100081ADDAA199000091GA1021+012009069GF103991021041012501031001GJ106969MA1999999089861MD1310231+9999REMSYN094AAXX  16181 40785 32665 30000 10346 20052 38986 40008 53023 82430 91750 333 55116 82640 83360;EQDQ01  00002PRCP99
0171407850999992000071621004+33980+051440FM-12+0982OIFK V0209999C000012200019N0150001N1+03261+00521100071ADDGA1021+012009069GF104991021041012501031001MA1999999089891MD1110031+9999REMSYN088AAXX  16211 40785 42665 40000 10326 20052 38989 40007 51003 82430 92050 333 82640 84360;
0195407850999992000071700004+33980+051440FM-12+0982OIFK V0209999C000012200019N0150001N1+03041+00561100051ADDAA199000091GA1041+030009079GF104991041001999999031001MA1999999089891MD1410001+9999REMSYN082AAXX  17001 40785 32965 40000 10304 20056 38989 40005 54000 84030 92350 333 84360;EQDQ01  00002PRCP99
0184407850999992000071703004+33980+051440FM-12+0982OIFK V0209999C000012200019N0150001N1+02801+00601100161ADDGA1031+030009079GF103991031001999999031001KA1120N+02741MA1999999089941MD1210051+9999REMSYN088AAXX  17031 40785 42965 30000 10280 20060 38994 40016 52005 83030 90250 333 20274 83360;
0201407850999992000071706004+33980+051440FM-12+0982OIFK V0202901N002012200019N0150001N1+03141+00271100381ADDAA124000091GA1001+999999999GF100991001001999999001001MA1999999090101MD1210161+9999REMSYN088AAXX  17061 40785 32965 02902 10314 20027 39010 40038 52016 90550 333 30026 51421 70000;EQDQ01  00002PRCP24
0201407850999992000071709004+33980+051440FM-12+0982OIFK V0202901N002012200019N0150001N1+03141+00271100381ADDAA124000091GA1001+999999999GF100991001001999999001001MA1999999090101MD1210161+9999REMSYN088AAXX  17091 40785 32965 02902 10314 20027 39010 40038 52016 90550 333 30026 51421 70000;EQDQ01  00002PRCP24
0183407850999992000071712004+33980+051440FM-12+0982OIFK V0209999C000012200019N0150001N1+04001+00521099981ADDAA199000091GA1001+999999999GF100991001001999999001001MA1999999089791MD1710281+9999REMSYN070AAXX  17121 40785 32965 00000 10400 20052 38979 49998 57028 91150 333;EQDQ01  00002PRCP99
0172407850999992000071715004+33980+051440FM-12+0982OIFK V0200401N003012200019N0150001N1+03801+00101099931ADDGA1001+999999999GF100991001001999999001001KA1999M+04101MA1999999089681MD1610111+9999REMSYN076AAXX  17151 40785 42965 00403 10380 20010 38968 49993 56011 91450 333 10410;
0189407850999992000071718004+33980+051440FM-12+0982OIFK V0209999C000012200019N0150001N1+03101+00611100171ADDAA199000091GA1001+999999999GF100991001001999999001001MA1999999089841MD1210161+9999REMSYN076AAXX  17181 40785 32965 00000 10310 20061 38984 40017 52016 91750 333 55122;EQDQ01  00002PRCP99
0183407850999992000071800004+33980+051440FM-12+0982OIFK V0209999C000012200019N0150001N1+02661+00111100091ADDAA199000091GA1001+999999999GF100991001001999999001001MA1999999089841MD1410001+9999REMSYN070AAXX  18001 40785 32965 00000 10266 20011 38984 40009 54000 92350 333;EQDQ01  00002PRCP99
0172407850999992000071803004+33980+051440FM-12+0982OIFK V0209999C000012200019N0150001N1+02361-00071100301ADDGA1001+999999999GF100991001001999999001001KA1999N+02301MA1999999089921MD1310081+9999REMSYN076AAXX  18031 40785 42965 00000 10236 21007 38992 40030 53008 90250 333 20230;
0183407850999992000071812004+33980+051440FM-12+0982OIFK V0209999C000012200019N0150001N1+03821+00161099861ADDAA199000091GA1001+999999999GF100991001001999999001001MA1999999089621MD1710281+9999REMSYN070AAXX  18121 40785 32965 00000 10382 20016 38962 49986 57028 91150 333;EQDQ01  00002PRCP99
0189407850999992000071818004+33980+051440FM-12+0982OIFK V0202301N002012200019N0150001N1+03261-00061100031ADDAA199000091GA1001+999999999GF100991001001999999001001MA1999999089691MD1210161+9999REMSYN076AAXX  18181 40785 32965 02302 10326 21006 38969 40003 52016 91750 333 55121;EQDQ01  00002PRCP99
0217407850999992000071906004+33980+051440FM-12+0982OIFK V0209999C000012200019N0150001N1+03081+00291100281ADDAA124000091GA1001+999999999GF100991001001999999001001MA1999999999999MD1210131+9999REMSYN088AAXX  19061 40785 32965 00000 10308 20029 38195 40028 52013 90550 333 30019 51401 70000;EQDQ01  00002PRCP24Q02 081953APOSP 
0172407850999992000071909004+33980+051440FM-12+0982OIFK V0200601N003012200019N0150001N1+03401-00061100271ADDGA1001+999999999GF100991001001999999001001MA1999999089942MD1610011+9999REMSYN070AAXX  19091 40785 42965 00603 10340 21006 38994 40027 56001 90850 333;EQDQ01+089943APOSP 
0183407850999992000071912004+33980+051440FM-12+0982OIFK V0209999C000012200019N0150001N1+03701+00181100051ADDAA199000091GA1001+999999999GF100991001001999999001001MA1999999089741MD1710201+9999REMSYN070AAXX  19121 40785 32965 00000 10370 20018 38974 40005 57020 91150 333;EQDQ01  00002PRCP99
0172407850999992000071915004+33980+051440FM-12+0982OIFK V0200601N006012200019N0150001N1+03521+00041100071ADDGA1001+999999999GF100991001001999999001001KA1999M+03741MA1999999089681MD1610061+9999REMSYN076AAXX  19151 40785 42965 00606 10352 20004 38968 40007 56006 91450 333 10374;
0189407850999992000071918004+33980+051440FM-12+0982OIFK V0201001N003012200019N0150001N1+02981-00651100201ADDAA199000091GA1001+999999999GF100991001001999999001001MA1999999089841MD1210161+9999REMSYN076AAXX  19181 40785 32965 01003 10298 21065 38984 40020 52016 91750 333 55125;EQDQ01  00002PRCP99
0153407850999992000071921004+33980+051440FM-12+0982OIFK V0209999C000012200019N0150001N1+02741-00441100281ADDGA1001+999999999GF100991001001999999001001MA1999999089901MD1210061+9999REMSYN070AAXX  19211 40785 42965 00000 10274 21044 38990 40028 52006 92050 333;
0183407850999992000072000004+33980+051440FM-12+0982OIFK V0209999C000012200019N0150001N1+02601-00351100241ADDAA199000091GA1001+999999999GF100991001001999999001001MA1999999089901MD1410001+9999REMSYN070AAXX  20001 40785 32965 00000 10260 21035 38990 40024 54000 92350 333;EQDQ01  00002PRCP99
0172407850999992000072003004+33980+051440FM-12+0982OIFK V0209999C000012200019N0150001N1+01921+00171100531ADDGA1001+999999999GF100991001001999999001001KA1999N+01801MA1999999090041MD1210141+9999REMSYN076AAXX  20031 40785 42965 00000 10192 20017 39004 40053 52014 90250 333 20180;
0201407850999992000072006004+33980+051440FM-12+0982OIFK V0209999C000012200019N0150001N1+02941-00541100481ADDAA124000091GA1001+999999999GF100991001001999999001001MA1999999090091MD1110051+9999REMSYN088AAXX  20061 40785 32965 00000 10294 21054 39009 40048 51005 90545 333 30022 51361 70000;EQDQ01  00002PRCP24
0183407850999992000072012004+33980+051440FM-12+0982OIFK V0203301N003012200019N0150001N1+03781-00181100131ADDAA199000091GA1001+999999999GF100991001001999999001001MA1999999089831MD1710191+9999REMSYN070AAXX  20121 40785 32965 03303 10378 21018 38983 40013 57019 91147 333;EQDQ01  00002PRCP99
0172407850999992000072015004+33980+051440FM-12+0982OIFK V0209999C000012200019N0150001N1+03681+00041100151ADDGA1001+999999999GF100991001001999999001001KA1999M+03851MA1999999089721MD1710111+9999REMSYN076AAXX  20151 40785 42965 00000 10368 20004 38972 40015 57011 91447 333 10385;
0189407850999992000072018004+33980+051440FM-12+0982OIFK V0209999C000012200019N0150001N1+03081+00201100231ADDAA199000091GA1001+999999999GF100991001001999999001001MA1999999089891MD1310171+9999REMSYN076AAXX  20181 40785 32965 00000 10308 20020 38989 40023 53017 91746 333 55127;EQDQ01  00002PRCP99
0183407850999992000072100004+33980+051440FM-12+0982OIFK V0209999C000012200019N0150001N1+02361+00461100261ADDAA199000091GA1001+999999999GF100991001001999999001001MA1999999089891MD1410001+9999REMSYN070AAXX  21001 40785 32965 00000 10236 20046 38989 40026 54000 92346 333;EQDQ01  00002PRCP99
0201407850999992000072106004+33980+051440FM-12+0982OIFK V0209999C000012200019N0150001N1+02921+00001100471ADDAA124000091GA1001+999999999GF100991001001999999001001MA1999999090141MD1210151+9999REMSYN088AAXX  21061 40785 32965 00000 10292 20000 39014 40047 52015 90550 333 30022 51321 70000;EQDQ01  00002PRCP24
0189407850999992000072118004+33980+051440FM-12+0982OIFK V0209999C000012200019N0150001N1+03101+00221100321ADDAA199000091GA1001+999999999GF100991001001999999001001MA1999999089961MD1310161+9999REMSYN076AAXX  21181 40785 32965 00000 10310 20022 38996 40032 53016 91750 333 55124;EQDQ01  00002PRCP99
0183407850999992000072212004+33980+051440FM-12+0982OIFK V0201801N005012200019N0150001N1+03681+00781100471ADDAA199000091GA1001+999999999GF100991001001999999001001MA1999999090151MD1710171+9999REMSYN070AAXX  22121 40785 32965 01805 10368 20078 39015 40047 57017 91150 333;EQDQ01  00002PRCP99
0153407850999992000072221004+33980+051440FM-12+0982OIFK V0209999C000012200019N0150001N1+02641+00361100651ADDGA1001+999999999GF100991001001999999001001MA1999999090231MD1410001+9999REMSYN070AAXX  22211 40785 42965 00000 10264 20036 39023 40065 54000 92050 333;
0183407850999992000072300004+33980+051440FM-12+0982OIFK V0209999C000012200019N0150001N1+02501+00421100681ADDAA199000091GA1001+999999999GF100991001001999999001001MA1999999090231MD1410001+9999REMSYN070AAXX  23001 40785 32965 00000 10250 20042 39023 40068 54000 92350 333;EQDQ01  00002PRCP99
0201407850999992000072406004+33980+051440FM-12+0982OIFK V0203001N002012200019N0150001N1+03041+00431100461ADDAA124000091GA1001+999999999GF100991001001999999001001MA1999999090101MD1210111+9999REMSYN088AAXX  24061 40785 32965 03002 10304 20043 39010 40046 52011 90550 333 30017 51141 70000;EQDQ01  00002PRCP24
0183407850999992000072412004+33980+051440FM-12+0982OIFK V0209999C000012200019N0150001N1+03861+00641100121ADDAA199000091GA1001+999999999GF100991001001999999001001MA1999999089791MD1710191+9999REMSYN070AAXX  24121 40785 32965 00000 10386 20064 38979 40012 57019 91150 333;EQDQ01  00002PRCP99
0172407850999992000072415004+33980+051440FM-12+0982OIFK V0209999C000012200019N0150001N1+03641+00241100221ADDGA1001+999999999GF100991001001999999001001KA1999M+03901MA1999999089881MD1310091+9999REMSYN076AAXX  24151 40785 42965 00000 10364 20024 38988 40022 53009 91450 333 10390;
0189407850999992000072418004+33980+051440FM-12+0982OIFK V0209999C000012200019N0150001N1+03021+00551100401ADDAA199000091GA1001+999999999GF100991001001999999001001MA1999999090041MD1210161+9999REMSYN076AAXX  24181 40785 32965 00000 10302 20055 39004 40040 52016 91750 333 55121;EQDQ01  00002PRCP99
0183407850999992000072500004+33980+051440FM-12+0982OIFK V0209999C000012200019N0150001N1+02241+00491100391ADDAA199000091GA1001+999999999GF100991001001999999001001MA1999999090041MD1410001+9999REMSYN070AAXX  25001 40785 32965 00000 10224 20049 39004 40039 54000 92350 333;EQDQ01  00002PRCP99
0172407850999992000072503004+33980+051440FM-12+0982OIFK V0209999C000012200019N0150001N1+02301+00471100571ADDGA1001+999999999GF100991001001999999001001KA1999N+02161MA1999999090171MD1310131+9999REMSYN076AAXX  25031 40785 42965 00000 10230 20047 39017 40057 53013 90250 333 20216;
0201407850999992000072506004+33980+051440FM-12+0982OIFK V0209999C000012200019N0150001N1+02961+00021100781ADDAA124000091GA1001+999999999GF100991001001999999001001MA1999999090371MD1210201+9999REMSYN088AAXX  25061 40785 32965 00000 10296 20002 39037 40078 52020 90550 333 30021 51401 70000;EQDQ01  00002PRCP24
0183407850999992000072512004+33980+051440FM-12+0982OIFK V0209999C000012200019N0150001N1+03741+00201100441ADDAA199000091GA1001+999999999GF100991001001999999001001MA1999999090061MD1710131+9999REMSYN070AAXX  25121 40785 32965 00000 10374 20020 39006 40044 57013 91150 333;EQDQ01  00002PRCP99
0172407850999992000072515004+33980+051440FM-12+0982OIFK V0209999C000012200019N0150001N1+03581+00381100101ADDGA1001+999999999GF100991001001999999001001KA1999M+03851MA1999999090001MD1210061+9999REMSYN076AAXX  25151 40785 42965 00000 10358 20038 39000 40010 52006 91450 333 10385;
0189407850999992000072518004+33980+051440FM-12+0982OIFK V0209999C000012200019N0150001N1+02901+00181100541ADDAA199000091GA1001+999999999GF100991001001999999001001MA1999999090141MD1210141+9999REMSYN076AAXX  25181 40785 32965 00000 10290 20018 39014 40054 52014 91750 333 55124;EQDQ01  00002PRCP99
0183407850999992000072600004+33980+051440FM-12+0982OIFK V0209999C000012200019N0150001N1+02221-00071100551ADDAA199000091GA1001+999999999GF100991001001999999001001MA1999999090141MD1410001+9999REMSYN070AAXX  26001 40785 32965 00000 10222 21007 39014 40055 54000 92350 333;EQDQ01  00002PRCP99
0172407850999992000072603004+33980+051440FM-12+0982OIFK V0209999C000012200019N0150001N1+02241-00041100641ADDGA1001+999999999GF100991001001999999001001KA1999N+01981MA1999999090221MD1310081+9999REMSYN076AAXX  26031 40785 42965 00000 10224 21004 39022 40064 53008 90250 333 20198;
0201407850999992000072606004+33980+051440FM-12+0982OIFK V0209999C000012200019N0150001N1+02921+00001100901ADDAA124000091GA1001+999999999GF100991001001999999001001MA1999999090421MD1210201+9999REMSYN088AAXX  26061 40785 32965 00000 10292 20000 39042 40090 52020 90552 333 30019 51451 70000;EQDQ01  00002PRCP24
0153407850999992000072609004+33980+051440FM-12+0982OIFK V0209999C000012200019N0100001N1+03361+00021100741ADDGA1001+999999999GF100991001001999999001001MA1999999090301MD1710121+9999REMSYN070AAXX  26091 40785 42960 00000 10336 20002 39030 40074 57012 90852 333;
0183407850999992000072612004+33980+051440FM-12+0982OIFK V0209999C000012200019N0100001N1+03741-00061100431ADDAA199000091GA1001+999999999GF100991001001999999001001MA1999999090021MD1710281+9999REMSYN070AAXX  26121 40785 32960 00000 10374 21006 39002 40043 57028 91150 333;EQDQ01  00002PRCP99
0172407850999992000072615004+33980+051440FM-12+0982OIFK V0200501N003012200019N0150001N1+03621+00241100381ADDGA1001+999999999GF100991001001999999001001KA1999M+03821MA1999999089951MD1610071+9999REMSYN076AAXX  26151 40785 42965 00503 10362 20024 38995 40038 56007 91450 333 10382;
0189407850999992000072618004+33980+051440FM-12+0982OIFK V0209999C000012200019N0150001N1+02921+00251100561ADDAA199000091GA1001+999999999GF100991001001999999001001MA1999999090121MD1210171+9999REMSYN076AAXX  26181 40785 32965 00000 10292 20025 39012 40056 52017 91750 333 55125;EQDQ01  00002PRCP99
0153407850999992000072621004+33980+051440FM-12+0982OIFK V0201501N002012200019N0100001N1+02881-00041100551ADDGA1001+999999999GF100991001001999999001001MA1999999090171MD1110051+9999REMSYN070AAXX  26211 40785 42960 01502 10288 21004 39017 40055 51005 92050 333;
0183407850999992000072700004+33980+051440FM-12+0982OIFK V0209999C000012200019N0100001N1+02421-00081100571ADDAA199000091GA1001+999999999GF100991001001999999001001MA1999999090171MD1410001+9999REMSYN070AAXX  27001 40785 32960 00000 10242 21008 39017 40057 54000 92352 333;EQDQ01  00002PRCP99
0172407850999992000072703004+33980+051440FM-12+0982OIFK V0209999C000012200019N0100001N1+02181-00101100701ADDGA1001+999999999GF100991001001999999001001KA1999N+02001MA1999999090251MD1310081+9999REMSYN076AAXX  27031 40785 42960 00000 10218 21010 39025 40070 53008 90252 333 20200;
0201407850999992000072706004+33980+051440FM-12+0982OIFK V0202801N003012200019N0150001N1+02961-00081100691ADDAA124000091GA1001+999999999GF100991001001999999001001MA1999999090261MD1110011+9999REMSYN088AAXX  27061 40785 32965 02803 10296 21008 39026 40069 51001 90546 333 30016 51221 70000;EQDQ01  00002PRCP24
0153407850999992000072709004+33980+051440FM-12+0982OIFK V0209999C000012200019N0150001N1+03441-00091100421ADDGA1001+999999999GF100991001001999999001001MA1999999090081MD1710181+9999REMSYN070AAXX  27091 40785 42965 00000 10344 21009 39008 40042 57018 90845 333;
0183407850999992000072712004+33980+051440FM-12+0982OIFK V0209999C000012200019N0150001N1+03741+00071100211ADDAA199000091GA1001+999999999GF100991001001999999001001MA1999999089881MD1710201+9999REMSYN070AAXX  27121 40785 32965 00000 10374 20007 38988 40021 57020 91146 333;EQDQ01  00002PRCP99
0184407850999992000072715004+33980+051440FM-12+0982OIFK V0200201N003012200019N0150001N1+03561-00111100221ADDGA1021+030009079GF102991021001999999031001KA1120M+03801MA1999999089811MD1610071+9999REMSYN088AAXX  27151 40785 42965 20203 10356 21011 38981 40022 56007 82030 91445 333 10380 82360;
0189407850999992000072718004+33980+051440FM-12+0982OIFK V0209999C000012200019N0150001N1+02881+00311100361ADDAA199000091GA1001+999999999GF100991001001999999001001MA1999999089971MD1210161+9999REMSYN076AAXX  27181 40785 32965 00000 10288 20031 38997 40036 52016 91747 333 55120;EQDQ01  00002PRCP99
0153407850999992000072721004+33980+051440FM-12+0982OIFK V0209999C000012200019N0150001N1+02661+00171100321ADDGA1001+999999999GF100991001001999999001001MA1999999089971MD1410001+9999REMSYN070AAXX  27211 40785 42965 00000 10266 20017 38997 40032 54000 92040 333;
0183407850999992000072800004+33980+051440FM-12+0982OIFK V0209999C000012200019N0150001N1+02521+00001100281ADDAA199000091GA1001+999999999GF100991001001999999001001MA1999999089961MD1610011+9999REMSYN070AAXX  28001 40785 32965 00000 10252 20000 38996 40028 56001 92346 333;EQDQ01  00002PRCP99
0172407850999992000072803004+33980+051440FM-12+0982OIFK V0209999C000012200019N0150001N1+02241-00041100511ADDGA1001+999999999GF100991001001999999001001KA1999N+01981MA1999999090091MD1310131+9999REMSYN076AAXX  28031 40785 42965 00000 10224 21004 39009 40051 53013 90247 333 20198;
0201407850999992000072806004+33980+051440FM-12+0982OIFK V0209999C000012200019N0150001N1+03001-00141100671ADDAA124000091GA1001+999999999GF100991001001999999001001MA1999999090241MD1210151+9999REMSYN088AAXX  28061 40785 32965 00000 10300 21014 39024 40067 52015 90550 333 30017 51261 70000;EQDQ01  00002PRCP24
0153407850999992000072809004+33980+051440FM-12+0982OIFK V0209999C000012200019N0150001N1+03541-00231100451ADDGA1001+999999999GF100991001001999999001001MA1999999090091MD1810151+9999REMSYN070AAXX  28091 40785 42965 00000 10354 21023 39009 40045 58015 90850 333;
0195407850999992000072812004+33980+051440FM-12+0982OIFK V0209999C000012200019N0150001N1+03221+00051100151ADDAA199000091GA1021+012009029GF102991021011012501001001MA1999999089881MD1710211+9999REMSYN082AAXX  28121 40785 32665 20000 10322 20005 38988 40015 57021 82100 91150 333 82840;EQDQ01  00002PRCP99
0184407850999992000072815004+33980+051440FM-12+0982OIFK V0209999C000012200019N0150001N1+03741+00081100161ADDGA1021+012009029GF102991021011012501001001KA1120M+03961MA1999999089801MD1610081+9999REMSYN088AAXX  28151 40785 42665 20000 10374 20008 38980 40016 56008 82100 91450 333 10396 82840;
0147407850999992000072818004+33980+051440FM-12+0982OIFK V0209999C000019999999N0150001N1+03001+00461100431ADDAA199000091MA1999999090061MD1210261+9999REMSYN076AAXX  28181 40785 32965 /0000 10300 20046 39006 40043 52026 91750 333 55126;EQDQ01  00002PRCP99
0153407850999992000072821004+33980+051440FM-12+0982OIFK V0209999C000012200019N0150001N1+02821+00371100371ADDGA1001+999999999GF100991001001999999001001MA1999999090061MD1410001+9999REMSYN070AAXX  28211 40785 42965 00000 10282 20037 39006 40037 54000 92050 333;
0183407850999992000072900004+33980+051440FM-12+0982OIFK V0209999C000012200019N0150001N1+02661+00461100391ADDAA199000091GA1001+999999999GF100991001001999999001001MA1999999090061MD1410001+9999REMSYN070AAXX  29001 40785 32965 00000 10266 20046 39006 40039 54000 92350 333;EQDQ01  00002PRCP99
0172407850999992000072903004+33980+051440FM-12+0982OIFK V0209999C000012200019N0100001N1+02281+00091100541ADDGA1001+999999999GF100991001001999999001001KA1999N+02101MA1999999090101MD1310041+9999REMSYN076AAXX  29031 40785 42960 00000 10228 20009 39010 40054 53004 90250 333 20210;
0201407850999992000072906004+33980+051440FM-12+0982OIFK V0209999C000012200019N0150001N1+03181+00451100731ADDAA124000091GA1001+999999999GF100991001001999999001001MA1999999090311MD1110211+9999REMSYN088AAXX  29061 40785 32965 00000 10318 20045 39031 40073 51021 90545 333 30018 51301 70000;EQDQ01  00002PRCP24
0153407850999992000072909004+33980+051440FM-12+0982OIFK V0209999C000012200019N0150001N1+03641+00261100541ADDGA1001+999999999GF100991001001999999001001MA1999999090211MD1810101+9999REMSYN070AAXX  29091 40785 42965 00000 10364 20026 39021 40054 58010 90845 333;
0183407850999992000072912004+33980+051440FM-12+0982OIFK V0209999C000012200019N0150001N1+03921+00201100371ADDAA199000091GA1001+999999999GF100991001001999999001001MA1999999090061MD1710151+9999REMSYN070AAXX  29121 40785 32965 00000 10392 20020 39006 40037 57015 91146 333;EQDQ01  00002PRCP99
0172407850999992000072915004+33980+051440FM-12+0982OIFK V0200401N004012200019N0150001N1+03761+00201100401ADDGA1001+999999999GF100991001001999999001001KA1999M+04001MA1999999090021MD1610041+9999REMSYN076AAXX  29151 40785 42965 00404 10376 20020 39002 40040 56004 91447 333 10400;
0153407850999992000072921004+33980+051440FM-12+0982OIFK V0209999C000012200019N0150001N1+02941+00491100641ADDGA1001+999999999GF100991001001999999001001MA1999999090291MD1310051+9999REMSYN070AAXX  29211 40785 42965 00000 10294 20049 39029 40064 53005 92040 333;
0183407850999992000073000004+33980+051440FM-12+0982OIFK V0209999C000012200019N0150001N1+02601+00061100711ADDAA199000091GA1001+999999999GF100991001001999999001001MA1999999090361MD1310071+9999REMSYN070AAXX  30001 40785 32965 00000 10260 20006 39036 40071 53007 92345 333;EQDQ01  00002PRCP99
0172407850999992000073003004+33980+051440FM-12+0982OIFK V0209999C000012200019N0150001N1+02461+00321100951ADDGA1001+999999999GF100991001001999999001001KA1999N+02201MA1999999090531MD1210271+9999REMSYN076AAXX  30031 40785 42965 00000 10246 20032 39053 40095 52027 90245 333 20220;
0201407850999992000073006004+33980+051440FM-12+0982OIFK V0209999C000012200019N0100001N1+03241+00321101061ADDAA124000091GA1001+999999999GF100991001001999999001001MA1999999090651MD1110121+9999REMSYN088AAXX  30061 40785 32960 00000 10324 20032 39065 40106 51012 90552 333 30019 51251 70000;EQDQ01  00002PRCP24
0153407850999992000073009004+33980+051440FM-12+0982OIFK V0201201N005012200019N0150001N1+03601+00181100891ADDGA1001+999999999GF100991001001999999001001MA1999999090531MD1810121+9999REMSYN070AAXX  30091 40785 42965 01205 10360 20018 39053 40089 58012 90850 333;
0172407850999992000073015004+33980+051440FM-12+0982OIFK V0202201N003012200019N0150001N1+03661-00021100731ADDGA1001+999999999GF100991001001999999001001KA1999M+03901MA1999999090331MD1410001+9999REMSYN076AAXX  30151 40785 42965 02203 10366 21002 39033 40073 54000 91450 333 10390;
0189407850999992000073018004+33980+051440FM-12+0982OIFK V0209999C000012200019N0100001N1+03041+00131100831ADDAA199000091GA1001+999999999GF100991001001999999001001MA1999999090461MD1210131+9999REMSYN076AAXX  30181 40785 32960 00000 10304 20013 39046 40083 52013 91750 333 55120;EQDQ01  00002PRCP99
0153407850999992000073021004+33980+051440FM-12+0982OIFK V0209999C000012200019N0100001N1+02641+00351100851ADDGA1001+999999999GF100991001001999999001001MA1999999090461MD1410001+9999REMSYN070AAXX  30211 40785 42960 00000 10264 20035 39046 40085 54000 92052 333;
0183407850999992000073100004+33980+051440FM-12+0982OIFK V0209999C000012200019N0100001N1+02521+00141100841ADDAA199000091GA1001+999999999GF100991001001999999001001MA1999999090461MD1410001+9999REMSYN070AAXX  31001 40785 32960 00000 10252 20014 39046 40084 54000 92350 333;EQDQ01  00002PRCP99
0172407850999992000073103004+33980+051440FM-12+0982OIFK V0209999C000012200019N0100001N1+02401+00241100971ADDGA1001+999999999GF100991001001999999001001KA1999N+02301MA1999999090541MD1310081+9999REMSYN076AAXX  31031 40785 42960 00000 10240 20024 39054 40097 53008 90250 333 20230;
0201407850999992000073106004+33980+051440FM-12+0982OIFK V0200901N003012200019N0150001N1+03321+00291100971ADDAA124000091GA1001+999999999GF100991001001999999001001MA1999999090581MD1110041+9999REMSYN088AAXX  31061 40785 32965 00903 10332 20029 39058 40097 51004 90546 333 30020 51291 70000;EQDQ01  00002PRCP24
0153407850999992000073109004+33980+051440FM-12+0982OIFK V0200601N002012200019N0150001N1+03581+00081100831ADDGA1001+999999999GF100991001001999999001001MA1999999090431MD1810151+9999REMSYN070AAXX  31091 40785 42965 00602 10358 20008 39043 40083 58015 90845 333;
0183407850999992000073112004+33980+051440FM-12+0982OIFK V0209999C000012200019N0150001N1+03801+00261100451ADDAA199000091GA1001+999999999GF100991001001999999001001MA1999999090211MD1710221+9999REMSYN070AAXX  31121 40785 32965 00000 10380 20026 39021 40045 57022 91146 333;EQDQ01  00002PRCP99
0189407850999992000073118004+33980+051440FM-12+0982OIFK V0201801N002012200019N0150001N1+02961+00641100471ADDAA199000091GA1001+999999999GF100991001001999999001001MA1999999090141MD1310041+9999REMSYN076AAXX  31181 40785 32965 01802 10296 20064 39014 40047 53004 91745 333 55123;EQDQ01  00002PRCP99
0153407850999992000073121004+33980+051440FM-12+0982OIFK V0209999C000012200019N0150001N1+02761+00181100461ADDGA1001+999999999GF100991001001999999001001MA1999999090141MD1410001+9999REMSYN070AAXX  31211 40785 42965 00000 10276 20018 39014 40046 54000 92040 333;
0183407850999992000080100004+33980+051440FM-12+0982OIFK V0209999C000012200019N0150001N1+02541+00171100501ADDAA199000091GA1001+999999999GF100991001001999999001001MA1999999090141MD1410001+9999REMSYN070AAXX  01001 40785 32965 00000 10254 20017 39014 40050 54000 92347 333;EQDQ01  00002PRCP99
0172407850999992000080103004+33980+051440FM-12+0982OIFK V0209999C000012200019N0150001N1+02401+00591100501ADDGA1001+999999999GF100991001001999999001001KA1999N+02321MA1999999090161MD1310021+9999REMSYN076AAXX  01031 40785 42965 00000 10240 20059 39016 40050 53002 90246 333 20232;
0201407850999992000080106004+33980+051440FM-12+0982OIFK V0209999C000012200019N0150001N1+03281+00451100591ADDAA124000091GA1001+999999999GF100991001001999999001001MA1999999090211MD1110051+9999REMSYN088AAXX  01061 40785 32965 00000 10328 20045 39021 40059 51005 90550 333 30020 51501 70000;EQDQ01  00002PRCP24
0183407850999992000080112004+33980+051440FM-12+0982OIFK V0209999C000012200019N0150001N1+03861+00141100081ADDAA199000091GA1001+999999999GF100991001001999999001001MA1999999089791MD1710251+9999REMSYN070AAXX  01121 40785 32965 00000 10386 20014 38979 40008 57025 91150 333;EQDQ01  00002PRCP99
0189407850999992000080118004+33980+051440FM-12+0982OIFK V0209999C000012200019N0150001N1+03041+00641100101ADDAA199000091GA1001+999999999GF100991001001999999001001MA1999999089791MD1310091+9999REMSYN076AAXX  01181 40785 32965 00000 10304 20064 38979 40010 53009 91750 333 55123;EQDQ01  00002PRCP99
0153407850999992000080121004+33980+051440FM-12+0982OIFK V0209999C000012200019N0150001N1+03001+00391100031ADDGA1001+999999999GF100991001001999999001001MA1999999089791MD1410001+9999REMSYN070AAXX  01211 40785 42965 00000 10300 20039 38979 40003 54000 92050 333;
0183407850999992000080200004+33980+051440FM-12+0982OIFK V0209999C000012200019N0150001N1+02741+00321100051ADDAA199000091GA1001+999999999GF100991001001999999001001MA1999999089791MD1410001+9999REMSYN070AAXX  02001 40785 32965 00000 10274 20032 38979 40005 54000 92350 333;EQDQ01  00002PRCP99
0172407850999992000080203004+33980+051440FM-12+0982OIFK V0209999C000012200019N0150001N1+02281+00431100201ADDGA1001+999999999GF100991001001999999001001KA1999N+02151MA1999999089851MD1310061+9999REMSYN076AAXX  02031 40785 42965 00000 10228 20043 38985 40020 53006 90250 333 20215;
0201407850999992000080206004+33980+051440FM-12+0982OIFK V0209999C000012200019N0150001N1+03381+00461099671ADDAA124000091GA1001+999999999GF100991001001999999001001MA1999999089901MD1410001+9999REMSYN088AAXX  02061 40785 32965 00000 10338 20046 38990 49967 54000 90550 333 30019 51461 70000;EQDQ01  00002PRCP24
0153407850999992000080209004+33980+051440FM-12+0982OIFK V0209999C000012200019N0150001N1+03941-00041099931ADDGA1001+999999999GF100991001001999999001001MA1999999089751MD1710151+9999REMSYN070AAXX  02091 40785 42965 00000 10394 21004 38975 49993 57015 90850 333;
0172407850999992000080215004+33980+051440FM-12+0982OIFK V0209999C000012200019N0150001N1+04001+00111099771ADDGA1001+999999999GF100991001001999999001001KA1999M+04151MA1999999089511MD1610071+9999REMSYN076AAXX  02151 40785 42965 00000 10400 20011 38951 49977 56007 91450 333 10415;
0189407850999992000080218004+33980+051440FM-12+0982OIFK V0209999C000012200019N0150001N1+03241+00511099861ADDAA199000091GA1001+999999999GF100991001001999999001001MA1999999089651MD1210141+9999REMSYN076AAXX  02181 40785 32965 00000 10324 20051 38965 49986 52014 91750 333 55120;EQDQ01  00002PRCP99
0153407850999992000080221004+33980+051440FM-12+0982OIFK V0209999C000012200019N0150001N1+02781+00481099781ADDGA1001+999999999GF100991001001999999001001MA1999999089591MD1810061+9999REMSYN070AAXX  02211 40785 42965 00000 10278 20048 38959 49978 58006 92050 333;
0183407850999992000080300004+33980+051440FM-12+0982OIFK V0209999C000012200019N0150001N1+02221+00511099801ADDAA199000091GA1001+999999999GF100991001001999999001001MA1999999089551MD1610041+9999REMSYN070AAXX  03001 40785 32965 00000 10222 20051 38955 49980 56004 92350 333;EQDQ01  00002PRCP99
0172407850999992000080303004+33980+051440FM-12+0982OIFK V0209999C000012200019N0150001N1+02401+00301099841ADDGA1001+999999999GF100991001001999999001001KA1999N+02161MA1999999089591MD1310041+9999REMSYN076AAXX  03031 40785 42965 00000 10240 20030 38959 49984 53004 90250 333 20216;
0201407850999992000080306004+33980+051440FM-12+0982OIFK V0209999C000012200019N0100001N1+03241+00161099961ADDAA124000091GA1001+999999999GF100991001001999999001001MA1999999089691MD1210101+9999REMSYN088AAXX  03061 40785 32960 00000 10324 20016 38969 49996 52010 90550 333 30018 51451 70000;EQDQ01  00002PRCP24
0153407850999992000080309004+33980+051440FM-12+0982OIFK V0209999C000012200019N0100001N1+03821+00381099851ADDGA1001+999999999GF100991001001999999001001MA1999999089581MD1710111+9999REMSYN070AAXX  03091 40785 42960 00000 10382 20038 38958 49985 57011 90850 333;
0183407850999992000080312004+33980+051440FM-12+0982OIFK V0209999C000012200019N0100001N1+04261+00141099571ADDAA199000091GA1001+999999999GF100991001001999999001001MA1999999089331MD1710251+9999REMSYN070AAXX  03121 40785 32960 00000 10426 20014 38933 49957 57025 91150 333;EQDQ01  00002PRCP99
0172407850999992000080315004+33980+051440FM-12+0982OIFK V0209999C000012200019N0100001N1+04161+00371099411ADDGA1001+999999999GF100991001001999999001001KA1999M+04301MA1999999089211MD1710121+9999REMSYN076AAXX  03151 40785 42960 00000 10416 20037 38921 49941 57012 91450 333 10430;
0189407850999992000080318004+33980+051440FM-12+0982OIFK V0209999C000012200019N0100001N1+03341+00421099541ADDAA199000091GA1001+999999999GF100991001001999999001001MA1999999089331MD1310121+9999REMSYN076AAXX  03181 40785 32960 00000 10334 20042 38933 49954 53012 91750 333 55124;EQDQ01  00002PRCP99
0153407850999992000080321004+33980+051440FM-12+0982OIFK V0209999C000012200019N0100001N1+03301-00021099481ADDGA1001+999999999GF100991001001999999001001MA1999999089361MD1110031+9999REMSYN070AAXX  03211 40785 42960 00000 10330 21002 38936 49948 51003 92050 333;
0183407850999992000080400004+33980+051440FM-12+0982OIFK V0209999C000012200019N0100001N1+02921+00001099661ADDAA199000091GA1001+999999999GF100991001001999999001001MA1999999089361MD1410001+9999REMSYN070AAXX  04001 40785 32960 00000 10292 20000 38936 49966 54000 92350 333;EQDQ01  00002PRCP99
0172407850999992000080403004+33980+051440FM-12+0982OIFK V0209999C000012200019N0150001N1+02821+00091099771ADDGA1001+999999999GF100991001001999999001001KA1999N+02501MA1999999089581MD1210221+9999REMSYN076AAXX  04031 40785 42965 00000 10282 20009 38958 49977 52022 90250 333 20250;
0201407850999992000080406004+33980+051440FM-12+0982OIFK V0202701N003012200019N0100001N1+03381+00531099951ADDAA124000091GA1001+999999999GF100991001001999999001001MA1999999089731MD1210151+9999REMSYN088AAXX  04061 40785 32960 02703 10338 20053 38973 49995 52015 90550 333 30020 51281 70000;EQDQ01  00002PRCP24
0153407850999992000080409004+33980+051440FM-12+0982OIFK V0202901N003012200019N0150001N1+03801+00481099821ADDGA1001+999999999GF100991001001999999001001MA1999999089651MD1810081+9999REMSYN070AAXX  04091 40785 42965 02903 10380 20048 38965 49982 58008 90850 333;
0183407850999992000080412004+33980+051440FM-12+0982OIFK V0200101N003012200019N0150001N1+04141+00381099541ADDAA199000091GA1001+999999999GF100991001001999999001001MA1999999089421MD1710231+9999REMSYN070AAXX  04121 40785 32965 00103 10414 20038 38942 49954 57023 91150 333;EQDQ01  00002PRCP99
0172407850999992000080415004+33980+051440FM-12+0982OIFK V0209999C000012200019N0150001N1+04061+00561099451ADDGA1001+999999999GF100991001001999999001001KA1999M+04201MA1999999089321MD1710101+9999REMSYN076AAXX  04151 40785 42965 00000 10406 20056 38932 49945 57010 91450 333 10420;
0189407850999992000080418004+33980+051440FM-12+0982OIFK V0209999C000012200019N0150001N1+03461+00321099841ADDAA199000091GA1001+999999999GF100991001001999999001001MA1999999089561MD1310241+9999REMSYN076AAXX  04181 40785 32965 00000 10346 20032 38956 49984 53024 91750 333 55118;EQDQ01  00002PRCP99
0165407850999992000080421004+33980+051440FM-12+0982OIFK V0203101N002012200019N0150001N1+03461+00321099641ADDGA1031+030009079GF103991031001999999031001MA1999999089561MD1410001+9999REMSYN082AAXX  04211 40785 42965 33102 10346 20032 38956 49964 54000 83030 92050 333 83360;
0195407850999992000080500004+33980+051440FM-12+0982OIFK V0209999C000012200019N0150001N1+03161+00381099691ADDAA199000091GA1021+030009079GF102991021001999999031001MA1999999089561MD1410001+9999REMSYN082AAXX  05001 40785 32965 20000 10316 20038 38956 49969 54000 82030 92350 333 82360;EQDQ01  00002PRCP99
0190407850999992000080503004+33980+051440FM-12+0982OIFK V0202201N002012200019N0150001N1+02681+00441100161ADDGA1011+012009069GF103991011041012501031001KA1120N+02641MA1999999089941MD1210381+9999REMSYN094AAXX  05031 40785 42665 32202 10268 20044 38994 40016 52038 81430 90250 333 20264 81640 83360;
0213407850999992000080506004+33980+051440FM-12+0982OIFK V0209999C000012200019N0150001N1+03341+00951100311ADDAA124000091GA1021+030009079GF102991021001999999031001MA1999999090091MD1210151+9999REMSYN100AAXX  05061 40785 32965 20000 10334 20095 39009 40031 52015 82030 90546 333 30022 51301 70000 82360;EQDQ01  00002PRCP24
0165407850999992000080509004+33980+051440FM-12+0982OIFK V0200501N002012200019N0150001N1+03661+00821100111ADDGA1011+030009079GF101991011001999999031001MA1999999089951MD1810141+9999REMSYN082AAXX  05091 40785 42965 10502 10366 20082 38995 40011 58014 81030 90846 333 81360;
0195407850999992000080512004+33980+051440FM-12+0982OIFK V0201001N004012200019N0150001N1+04021+00661099851ADDAA199000091GA1011+012009059GF101991011041012501001001MA1999999089681MD1710271+9999REMSYN082AAXX  05121 40785 32665 11004 10402 20066 38968 49985 57027 81400 91146 333 81640;EQDQ01  00002PRCP99
0184407850999992000080515004+33980+051440FM-12+0982OIFK V0201101N002012200019N0150001N1+03841+00161099861ADDGA1031+012009059GF103991031041012501001001KA1120M+04061MA1999999089621MD1610061+9999REMSYN088AAXX  05151 40785 42665 31102 10384 20016 38962 49986 56006 83400 91446 333 10406 83640;
0209407850999992000080518004+33980+051440FM-12+0982OIFK V0209999C000012200019N0150001N1+03461+00311100151ADDAA199000091GA1021+012009059GF102991021041012501001001GJ106429MA1999999089911MD1210291+9999REMSYN088AAXX  05181 40785 32665 20000 10346 20031 38991 40015 52029 82400 91746 333 55107 82640;EQDQ01  00002PRCP99
0171407850999992000080521004+33980+051440FM-12+0982OIFK V0201201N005012200019N0150001N1+03301+00711100001ADDGA1011+012009069GF104991011041012501031001MA1999999089831MD1810081+9999REMSYN088AAXX  05211 40785 42665 41205 10330 20071 38983 40000 58008 81430 92040 333 81640 83360;
0195407850999992000080600004+33980+051440FM-12+0982OIFK V0209999C000012200019N0150001N1+02901+00651100141ADDAA199000091GA1021+030009079GF102991021001999999031001MA1999999089941MD1310111+9999REMSYN082AAXX  06001 40785 32965 20000 10290 20065 38994 40014 53011 82030 92347 333 82360;EQDQ01  00002PRCP99
0184407850999992000080603004+33980+051440FM-12+0982OIFK V0209999C000012200019N0150001N1+02741+00381100391ADDGA1031+030009079GF103991031001999999031001KA1120N+02601MA1999999090111MD1210171+9999REMSYN088AAXX  06031 40785 42965 30000 10274 20038 39011 40039 52017 83030 90246 333 20260 83360;
0213407850999992000080606004+33980+051440FM-12+0982OIFK V0203201N002012200019N0150001N1+03221+01021100461ADDAA124000091GA1031+030009079GF103991031001999999031001MA1999999090201MD1110091+9999REMSYN100AAXX  06061 40785 32965 33202 10322 20102 39020 40046 51009 83030 90550 333 30025 51461 70000 83360;EQDQ01  00002PRCP24
0165407850999992000080609004+33980+051440FM-12+0982OIFK V0200101N003012200019N0150001N1+03681+01021100261ADDGA1021+012009029GF102991021011012501001001MA1999999090071MD1810131+9999REMSYN082AAXX  06091 40785 42665 20103 10368 20102 39007 40026 58013 82100 90850 333 82840;
0175407850999992000080612004+33980+051440FM-12+0982OIFK V0201701N002012200019N0150001N1+03961+00101100071ADDAA199000091GA1021+012009059GF102991021041012501001001MA1999999089881REMSYN076AAXX  06121 40785 32665 21702 10396 20010 38988 40007 82400 91150 333 82640;EQDQ01  00002PRCP99
0184407850999992000080615004+33980+051440FM-12+0982OIFK V0209999C000012200019N0150001N1+03801+00941099991ADDGA1021+012009059GF102991021041012501001001KA1120M+04161MA1999999089741MD1710141+9999REMSYN088AAXX  06151 40785 42665 20000 10380 20094 38974 49999 57014 82400 91450 333 10416 82640;
0189407850999992000080618004+33980+051440FM-12+0982OIFK V0209999C000012200019N0100001N1+03161+01041100121ADDAA199000091GA1001+999999999GF100991001001999999001001MA1999999089881MD1610141+9999REMSYN076AAXX  06181 40785 32960 00000 10316 20104 38988 40012 56014 91750 333 55114;EQDQ01  00002PRCP99
0153407850999992000080621004+33980+051440FM-12+0982OIFK V0209999C000012200019N0150001N1+03121+00561100121ADDGA1001+999999999GF100991001001999999001001MA1999999089881MD1410001+9999REMSYN070AAXX  06211 40785 42965 00000 10312 20056 38988 40012 54000 92050 333;
0183407850999992000080700004+33980+051440FM-12+0982OIFK V0209999C000012200019N0150001N1+02861+00621100141ADDAA199000091GA1001+999999999GF100991001001999999001001MA1999999089881MD1410001+9999REMSYN070AAXX  07001 40785 32965 00000 10286 20062 38988 40014 54000 92350 333;EQDQ01  00002PRCP99
0172407850999992000080703004+33980+051440FM-12+0982OIFK V0209999C000012200019N0150001N1+02421+00781100261ADDGA1001+999999999GF100991001001999999001001KA1999N+02421MA1999999089981MD1310101+9999REMSYN076AAXX  07031 40785 42965 00000 10242 20078 38998 40026 53010 90250 333 20242;
0213407850999992000080706004+33980+051440FM-12+0982OIFK V0203001N003012200019N0100001N1+03341+00411100371ADDAA124000091GA1031+030009079GF103991031001999999031001MA1999999090081MD1210101+9999REMSYN100AAXX  07061 40785 32960 33003 10334 20041 39008 40037 52010 83030 90552 333 30021 51401 70000 83360;EQDQ01  00002PRCP24
0143407850999992000080709004+33980+051440FM-12+0982OIFK V0200201N002012200019N0150001N1+04061+00891099991ADDGF103991031041012501001001MA1999999089861MD1710221+9999REMSYN076AAXX  07091 40785 42665 30202 10406 20089 38986 49999 57022 83400 90850 333;
0251407850999992000080712004+33980+051440FM-12+0982OIFK V0202601N015010105019N0100001N1+03901-00121099861ADDAA199000091AY121061AY221061GA1011+009009099GA2041+010509069GF106991051031008001071001MA1999999089641MD1610221+9999MW1071REMSYN100AAXX  07121 40785 31560 62615 10390 21012 38964 49986 56022 70722 85370 91152 333 81930 84635 86360;EQDQ01  00002PRCP99
0215407850999992000080718004+33980+051440FM-12+0982OIFK V0209999C00001036001CN0120001N1+03581+00401099931ADDAA199000091GA1031+012009069GF105991031041012501031001GJ104989MA1999999089761MD1310101+9999REMSYN094AAXX  07181 40785 32662 50000 10358 20040 38976 49993 53010 83430 91750 333 55083 83640 85360;EQDQ01  00002PRCP99
0171407850999992000080721004+33980+051440FM-12+0982OIFK V0200101N002012200019N0150001N1+03241+00361099861ADDGA1031+012009069GF104991031041012501031001MA1999999089761MD1410001+9999REMSYN088AAXX  07211 40785 42665 40102 10324 20036 38976 49986 54000 83430 92050 333 83640 84360;
0195407850999992000080800004+33980+051440FM-12+0982OIFK V0209999C000012200019N0150001N1+02861+00661099941ADDAA199000091GA1021+012009069GF104991999999012501999999MA1999999089761MD1410001+9999REMSYN082AAXX  08001 40785 32665 40000 10286 20066 38976 49994 54000 92352 333 82640 84360;EQDQ01  00002PRCP99
0214407850999992000080803004+33980+051440FM-12+0982OIFK V0209999C000012200019N0150001N1+02601+00541100041ADDAA199000091GA1031+030009079GF103991031001999999031001KA1120N+02461MA1999999089821MD1310061+9999REMSYN088AAXX  08031 40785 32965 30000 10260 20054 38982 40004 53006 83030 90252 333 20246 83360;EQDQ01  00002PRCP99
0213407850999992000080806004+33980+051440FM-12+0982OIFK V0209999C000012200019N0150001N1+02981+00821100271ADDAA124000091GA1011+030009079GF101991011001999999031001MA1999999090061MD1210241+9999REMSYN100AAXX  08061 40785 32965 10000 10298 20082 39006 40027 52024 81030 90546 333 30022 51301 70000 81360;EQDQ01  00002PRCP24
0195407850999992000080812004+33980+051440FM-12+0982OIFK V0209999C000012200019N0150001N1+03741+00721099971ADDAA199000091GA1021+012009059GF102991021041012501001001MA1999999089761MD1710221+9999REMSYN082AAXX  08121 40785 32665 20000 10374 20072 38976 49997 57022 82400 91146 333 82640;EQDQ01  00002PRCP99
0215407850999992000080818004+33980+051440FM-12+0982OIFK V0203301N005012200019N0150001N1+03341+00751100131ADDAA199000091GA1011+009009049GF103991011041012501031001GJ105529MA1999999089851MD1210201+9999REMSYN094AAXX  08181 40785 32665 33305 10334 20075 38985 40013 52020 81430 91747 333 55092 81640 83360;EQDQ01  00002PRCP99
0183407850999992000080900004+33980+051440FM-12+0982OIFK V0201001N002012200019N0150001N1+02821+00921100381ADDAA199000091GA1001+999999999GF100991001001999999001001MA1999999090101MD1310081+9999REMSYN070AAXX  09001 40785 32965 01002 10282 20092 39010 40038 53008 92345 333;EQDQ01  00002PRCP99
0190407850999992000080903004+33980+051440FM-12+0982OIFK V0209999C000012200019N0150001N1+02601+00981100611ADDGA1011+012009069GF103991011041012501031001KA1120N+02381MA1999999090261MD1210161+9999REMSYN094AAXX  09031 40785 42665 30000 10260 20098 39026 40061 52016 81430 90247 333 20238 81640 83360;
0229407850999992000080906004+33980+051440FM-12+0982OIFK V0203001N003012200019N0120001N1+02981+01081100641ADDAA124000091GA1021+030009079GF102991999001999999031001MA1999999090301MD1110041+9999REMSYN100AAXX  09061 40785 32962 23003 10298 20108 39030 40064 51004 83030 90550 333 30021 51361 70000 82360;EQDQ01+000032SCOTLCQ02  00002PRCP24
0165407850999992000080909004+33980+051440FM-12+0982OIFK V0209999C000012200019N0120001N1+03421+01031100401ADDGA1011+030009079GF101991011001999999031001MA1999999090101MD1710201+9999REMSYN082AAXX  09091 40785 42962 10000 10342 20103 39010 40040 57020 81030 90850 333 81360;
0195407850999992000080912004+33980+051440FM-12+0982OIFK V0202001N002012200019N0120001N1+03761+01081100041ADDAA199000091GA1031+030009079GF103991031001999999031001MA1999999089821MD1710281+9999REMSYN082AAXX  09121 40785 32962 32002 10376 20108 38982 40004 57028 83030 91150 333 83360;EQDQ01  00002PRCP99
0209407850999992000080918004+33980+051440FM-12+0982OIFK V0209999C000012200019N0120001N1+03381+00991100061ADDAA199000091GA1011+030009079GF101991011001999999031001GJ105109MA1999999089791MD1310101+9999REMSYN088AAXX  09181 40785 32962 10000 10338 20099 38979 40006 53010 81030 91750 333 55085 81360;EQDQ01  00002PRCP99
0153407850999992000080921004+33980+051440FM-12+0982OIFK V0209999C000012200019N0150001N1+02941+01121100141ADDGA1001+999999999GF100991001001999999001001MA1999999089881MD1110091+9999REMSYN070AAXX  09211 40785 42965 00000 10294 20112 38988 40014 51009 92050 333;
0195407850999992000081000004+33980+051440FM-12+0982OIFK V0201301N003012200019N0120001N1+03101+00651100071ADDAA199000091GA1031+030009079GF103991031001999999031001MA1999999089881MD1410001+9999REMSYN082AAXX  10001 40785 32962 31303 10310 20065 38988 40007 54000 83030 92350 333 83360;EQDQ01  00002PRCP99
0190407850999992000081003004+33980+051440FM-12+0982OIFK V0209999C000012200019N0120001N1+02741+00821100341ADDGA1011+012009069GF104991011041012501031001KA1120N+02701MA1999999090031MD1210151+9999REMSYN094AAXX  10031 40785 42662 40000 10274 20082 39003 40034 52015 81430 90250 333 20270 81640 84360;
0219407850999992000081006004+33980+051440FM-12+0982OIFK V0209999C000012200019N0150001N1+03141+00901100421ADDAA124000091GA1011+012009069GF103991011041012501031001MA1999999090101MD1110071+9999REMSYN106AAXX  10061 40785 32665 30000 10314 20090 39010 40042 51007 81430 90547 333 30023 51351 70000 81640 83360;EQDQ01  00002PRCP24
0190407850999992000081015004+33980+051440FM-12+0982OIFK V0209999C000012200019N0150001N1+03641+00911099931ADDGA1011+012009069GF104991011041012501031001KA1120M+03851MA1999999089641MD1610061+9999REMSYN094AAXX  10151 40785 42665 40000 10364 20091 38964 49993 56006 81430 91447 333 10385 81640 84360;
0215407850999992000081018004+33980+051440FM-12+0982OIFK V0209999C000012200019N0150001N1+03261+00661100071ADDAA199000091GA1011+012009069GF103991011041012501031001GJ105949MA1999999089781MD1210141+9999REMSYN094AAXX  10181 40785 32665 30000 10326 20066 38978 40007 52014 81430 91745 333 55099 81640 83360;EQDQ01  00002PRCP99
0171407850999992000081021004+33980+051440FM-12+0982OIFK V0209999C000012200019N0150001N1+02981+00701100041ADDGA1011+012009069GF103991011041012501031001MA1999999089781MD1410001+9999REMSYN088AAXX  10211 40785 42665 30000 10298 20070 38978 40004 54000 81430 92041 333 81640 83360;
0201407850999992000081100004+33980+051440FM-12+0982OIFK V0209999C000012200019N0150001N1+02641+00481100071ADDAA199000091GA1011+012009069GF103991011041012501031001MA1999999089781MD1410001+9999REMSYN088AAXX  11001 40785 32665 30000 10264 20048 38978 40007 54000 81430 92347 333 81640 83360;EQDQ01  00002PRCP99
0190407850999992000081103004+33980+051440FM-12+0982OIFK V0209999C000012200019N0150001N1+02541+00511100301ADDGA1011+012009069GF104991011041012501031001KA1120N+02501MA1999999089941MD1210161+9999REMSYN094AAXX  11031 40785 42665 40000 10254 20051 38994 40030 52016 81430 90245 333 20250 81640 84360;
0171407850999992000081109004+33980+051440FM-12+0982OIFK V0209999C000012200019N0150001N1+03441-00261100261ADDGA1011+012009069GF103991011041012501031001MA1999999089961MD1810131+9999REMSYN088AAXX  11091 40785 42665 30000 10344 21026 38996 40026 58013 81430 90852 333 81640 83360;
0211407850999992000081112004+33980+051440FM-12+0982OIFK V0209999C000012200019N0150001N1+03701+00161100041ADDAA199000091GA1031+012009059GF199999011041012501001001MA1999999089751MD1710211+9999REMSYN082AAXX  11121 40785 32665 10000 10370 20016 38975 40004 57021 81400 91150 333 83640;EQDQ01+000012SCOTCVQ02  00002PRCP99
0184407850999992000081115004+33980+051440FM-12+0982OIFK V0209999C000012200019N0150001N1+03581+00161099991ADDGA1021+012009059GF102991021041012501001001KA1120M+03801MA1999999089681MD1610071+9999REMSYN088AAXX  11151 40785 42665 20000 10358 20016 38968 49999 56007 82400 91450 333 10380 82640;
0209407850999992000081118004+33980+051440FM-12+0982OIFK V0209999C000012200019N0150001N1+03141+00341100121ADDAA199000091GA1011+012009059GF101991011041012501001001GJ105229MA1999999089831MD1210151+9999REMSYN088AAXX  11181 40785 32665 10000 10314 20034 38983 40012 52015 81400 91752 333 55087 81640;EQDQ01  00002PRCP99
0153407850999992000081121004+33980+051440FM-12+0982OIFK V0209999C000012200019N0150001N1+02841+00541100101ADDGA1001+999999999GF100991001001999999001001MA1999999089831MD1410001+9999REMSYN070AAXX  11211 40785 42965 00000 10284 20054 38983 40010 54000 92052 333;
0183407850999992000081200004+33980+051440FM-12+0982OIFK V0209999C000012200019N0100001N1+02761+00521100081ADDAA199000091GA1001+999999999GF100991001001999999001001MA1999999089831MD1410001+9999REMSYN070AAXX  12001 40785 32960 00000 10276 20052 38983 40008 54000 92352 333;EQDQ01  00002PRCP99
0184407850999992000081203004+33980+051440FM-12+0982OIFK V0209999C000012200019N0150001N1+02341+00061100411ADDGA1021+030009079GF102991021001999999031001KA1120N+02281MA1999999090011MD1210181+9999REMSYN088AAXX  12031 40785 42965 20000 10234 20006 39001 40041 52018 82030 90252 333 20228 82360;
0153407850999992000081209004+33980+051440FM-12+0982OIFK V0201001N004012200019N0150001N1+03421-00041100461ADDGA1001+999999999GF100991001001999999001001MA1999999090091MD1810111+9999REMSYN070AAXX  12091 40785 42965 01004 10342 21004 39009 40046 58011 90845 333;
0195407850999992000081212004+33980+051440FM-12+0982OIFK V0209999C000012200019N0150001N1+03621+00241100241ADDAA199000091GA1011+030009079GF101991011001999999031001MA1999999089911MD1710181+9999REMSYN082AAXX  12121 40785 32965 10000 10362 20024 38991 40024 57018 81030 91145 333 81360;EQDQ01  00002PRCP99
0184407850999992000081215004+33980+051440FM-12+0982OIFK V0209999C000012200019N0150001N1+03581+00511100231ADDGA1031+030009079GF103991031001999999031001KA1120M+03701MA1999999089851MD1610061+9999REMSYN088AAXX  12151 40785 42965 30000 10358 20051 38985 40023 56006 83030 91447 333 10370 83360;
0209407850999992000081218004+33980+051440FM-12+0982OIFK V0209999C000012200019N0150001N1+03021+00251100431ADDAA199000091GA1011+030009079GF101991011001999999031001GJ107089MA1999999090041MD1310191+9999REMSYN088AAXX  12181 40785 32965 10000 10302 20025 39004 40043 53019 81030 91747 333 55118 81360;EQDQ01  00002PRCP99
0165407850999992000081221004+33980+051440FM-12+0982OIFK V0209999C000012200019N0150001N1+02841+00191100431ADDGA1011+030009079GF101991011001999999031001MA1999999090071MD1110031+9999REMSYN082AAXX  12211 40785 42965 10000 10284 20019 39007 40043 51003 81030 92041 333 81360;
0195407850999992000081300004+33980+051440FM-12+0982OIFK V0209999C000012200019N0150001N1+02241+00491100501ADDAA199000091GA1011+030009079GF101991011001999999031001MA1999999090071MD1410001+9999REMSYN082AAXX  13001 40785 32965 10000 10224 20049 39007 40050 54000 81030 92346 333 81360;EQDQ01  00002PRCP99
0172407850999992000081303004+33980+051440FM-12+0982OIFK V0202701N002012200019N0150001N1+02381-00051100641ADDGA1001+999999999GF100991001001999999001001KA1999N+02151MA1999999090211MD1210141+9999REMSYN076AAXX  13031 40785 42965 02702 10238 21005 39021 40064 52014 90246 333 20215;
0201407850999992000081306004+33980+051440FM-12+0982OIFK V0209999C000012200019N0150001N1+02881+00131100771ADDAA124000091GA1001+999999999GF100991001001999999001001MA1999999090321MD1110111+9999REMSYN088AAXX  13061 40785 32965 00000 10288 20013 39032 40077 51011 90550 333 30017 51301 70000;EQDQ01  00002PRCP24
0153407850999992000081309004+33980+051440FM-12+0982OIFK V0209999C000012200019N0150001N1+03541+00391100591ADDGA1001+999999999GF100991001001999999001001MA1999999090231MD1710091+9999REMSYN070AAXX  13091 40785 42965 00000 10354 20039 39023 40059 57009 90850 333;
0183407850999992000081312004+33980+051440FM-12+0982OIFK V0209999C000012200019N0150001N1+03901+00321100381ADDAA199000091GA1001+999999999GF100991001001999999001001MA1999999090001MD1710231+9999REMSYN070AAXX  13121 40785 32965 00000 10390 20032 39000 40038 57023 91150 333;EQDQ01  00002PRCP99
0189407850999992000081318004+33980+051440FM-12+0982OIFK V0209999C000012200019N0150001N1+03081+00371100501ADDAA199000091GA1001+999999999GF100991001001999999001001MA1999999090081MD1310171+9999REMSYN076AAXX  13181 40785 32965 00000 10308 20037 39008 40050 53017 91750 333 55118;EQDQ01  00002PRCP99
0165407850999992000081321004+33980+051440FM-12+0982OIFK V0209999C000012200019N0150001N1+02701+00691100451ADDGA1011+030009079GF101991011001999999031001MA1999999090081MD1410001+9999REMSYN082AAXX  13211 40785 42965 10000 10270 20069 39008 40045 54000 81030 92050 333 81360;
0184407850999992000081403004+33980+051440FM-12+0982OIFK V0209999C000012200019N0150001N1+02541-00061100321ADDGA1011+030009079GF101991011001999999031001KA1120N+02101MA1999999090081MD1310061+9999REMSYN088AAXX  14031 40785 42965 10000 10254 21006 39008 40032 53006 81030 90250 333 20210 81360;
0201407850999992000081406004+33980+051440FM-12+0982OIFK V0209999C000012200019N0150001N1+03161+00061100521ADDAA124000091GA1001+999999999GF100991001001999999001001MA1999999090161MD1110081+9999REMSYN088AAXX  14061 40785 32965 00000 10316 20006 39016 40052 51008 90550 333 30017 51261 70000;EQDQ01  00002PRCP24
0189407850999992000081418004+33980+051440FM-12+0982OIFK V0209999C000012200019N0150001N1+03121+00121100101ADDAA199000091GA1001+999999999GF100991001001999999001001MA1999999089811MD1310111+9999REMSYN076AAXX  14181 40785 32965 00000 10312 20012 38981 40010 53011 91750 333 55118;EQDQ01  00002PRCP99
0153407850999992000081421004+33980+051440FM-12+0982OIFK V0209999C000012200019N0150001N1+02701+00591100071ADDGA1001+999999999GF100991001001999999001001MA1999999089811MD1410001+9999REMSYN070AAXX  14211 40785 42965 00000 10270 20059 38981 40007 54000 92050 333;
0183407850999992000081500004+33980+051440FM-12+0982OIFK V0209999C000012200019N0150001N1+02341+00541099991ADDAA199000091GA1001+999999999GF100991001001999999001001MA1999999089711MD1810101+9999REMSYN070AAXX  15001 40785 32965 00000 10234 20054 38971 49999 58010 92350 333;EQDQ01  00002PRCP99
0201407850999992000081506004+33980+051440FM-12+0982OIFK V0209999C000012200019N0100001N1+03261+00341100201ADDAA124000091GA1001+999999999GF100991001001999999001001MA1999999089901MD1110051+9999REMSYN088AAXX  15061 40785 32960 00000 10326 20034 38990 40020 51005 90550 333 30019 51181 70000;EQDQ01  00002PRCP24
0165407850999992000081509004+33980+051440FM-12+0982OIFK V0203601N002012200019N0150001N1+03881+00301100071ADDGA1011+012009029GF101991011011012501001001MA1999999089811MD1810091+9999REMSYN082AAXX  15091 40785 42665 13602 10388 20030 38981 40007 58009 81100 90850 333 81840;
0195407850999992000081512004+33980+051440FM-12+0982OIFK V0201201N002012200019N0100001N1+04061+00141099871ADDAA199000091GA1021+012009059GF102991021041999999001001MA1999999089601MD1710211+9999REMSYN082AAXX  15121 40785 32960 21202 10406 20014 38960 49987 57021 82400 91150 333 82640;EQDQ01  00002PRCP99
0190407850999992000081515004+33980+051440FM-12+0982OIFK V0200301N002012200019N0150001N1+03881+00301099741ADDGA1021+012009069GF103991021041012501031001KA1120M+04101MA1999999089501MD1610101+9999REMSYN094AAXX  15151 40785 42665 30302 10388 20030 38950 49974 56010 82430 91450 333 10410 82640 83360;
0201407850999992000081518004+33980+051440FM-12+0982OIFK V0201201N002012200019N0100001N1+03221+00061099801ADDAA199000091GA1031+030009079GF103991031001999999031001MA1999999089581MD1310081+9999REMSYN088AAXX  15181 40785 32960 31202 10322 20006 38958 49980 53008 83030 91752 333 5518/ 83360;EQDQ01  00002PRCP99
0165407850999992000081521004+33980+051440FM-12+0982OIFK V0209999C000012200019N0100001N1+02941+00101099741ADDGA1031+030009079GF103991031001999999031001MA1999999089581MD1410001+9999REMSYN082AAXX  15211 40785 42960 30000 10294 20010 38958 49974 54000 83030 92050 333 83360;
0195407850999992000081600004+33980+051440FM-12+0982OIFK V0209999C000012200019N0100001N1+02681+00131099781ADDAA199000091GA1021+030009079GF102991021001999999031001MA1999999089581MD1410001+9999REMSYN082AAXX  16001 40785 32960 20000 10268 20013 38958 49978 54000 82030 92352 333 82360;EQDQ01  00002PRCP99
0190407850999992000081603004+33980+051440FM-12+0982OIFK V0209999C00001036001CN0150001N1+02741+00201100181ADDGA1031+012009069GF107991031041012501031001KA1120N+02641MA1999999089931MD1210351+9999REMSYN094AAXX  16031 40785 42665 70000 10274 20020 38993 40018 52035 83430 90250 333 20264 83640 87360;
0219407850999992000081606004+33980+051440FM-12+0982OIFK V0203301N00301036001CN0150001N1+03121+00331100341ADDAA124000091GA1031+012009069GF107991031041012501031001MA1999999090001MD1210071+9999REMSYN106AAXX  16061 40785 32665 73303 10312 20033 39000 40034 52007 83430 90547 333 30025 51201 70000 83640 87360;EQDQ01  00002PRCP24
0171407850999992000081609004+33980+051440FM-12+0982OIFK V0209999C00001036001CN0150001N1+03441+00311100221ADDGA1011+012009069GF105991011041012501031001MA1999999089891MD1710211+9999REMSYN088AAXX  16091 40785 42665 50000 10344 20031 38989 40022 57021 81430 90845 333 81640 85360;
0201407850999992000081612004+33980+051440FM-12+0982OIFK V0209999C000012200019N0150001N1+03961-00091099871ADDAA199000091GA1011+012009069GF104991011041012501031001MA1999999089651MD1710241+9999REMSYN088AAXX  16121 40785 32665 40000 10396 21009 38965 49987 57024 81430 91147 333 81640 84360;EQDQ01  00002PRCP99
0184407850999992000081615004+33980+051440FM-12+0982OIFK V0209999C000012200019N0150001N1+03721+00201099761ADDGA1011+030009079GF101991011001999999031001KA1120M+04001MA1999999089511MD1710141+9999REMSYN088AAXX  16151 40785 42965 10000 10372 20020 38951 49976 57014 81030 91446 333 10400 81360;
0209407850999992000081618004+33980+051440FM-12+0982OIFK V0209999C000012200019N0150001N1+03121+00491100001ADDAA199000091GA1011+030009079GF101991011001999999031001GJ104809MA1999999089671MD1310161+9999REMSYN088AAXX  16181 40785 32965 10000 10312 20049 38967 40000 53016 81030 91745 333 55080 81360;EQDQ01  00002PRCP99
0165407850999992000081621004+33980+051440FM-12+0982OIFK V0202601N004010300019N0150001N1+03121-00271100121ADDGA1061+030009079GF106991061001999999031001MA1999999089841MD1210171+9999REMSYN082AAXX  16211 40785 42965 62604 10312 21027 38984 40012 52017 86030 92040 333 86360;
0190407850999992000081703004+33980+051440FM-12+0982OIFK V0209999C00001036001CN0150001N1+02641+01011100321ADDGA1011+012009069GF107991011041012501031001KA1120N+02601MA1999999090081MD1310161+9999REMSYN094AAXX  17031 40785 42665 70000 10264 20101 39008 40032 53016 81430 90245 333 20260 81640 87360;
0213407850999992000081706004+33980+051440FM-12+0982OIFK V0209999C00001036001CN0150001N1+03081+01111100581ADDAA124000091GA1021+012009069GF106991021041012501031001MA1999999090211MD1110131+9999REMSYN100AAXX  17061 40785 32665 60000 10308 20111 39021 40058 51013 82430 90550 333 30025 70000 82640 86360;EQDQ01  00002PRCP24
0171407850999992000081709004+33980+051440FM-12+0982OIFK V0200301N004012200019N0150001N1+03401+00641100401ADDGA1011+012009069GF104991011041012501031001MA1999999090101MD1810111+9999REMSYN088AAXX  17091 40785 42665 40304 10340 20064 39010 40040 58011 81430 90850 333 81640 84360;
0201407850999992000081712004+33980+051440FM-12+0982OIFK V0200601N004012200019N0150001N1+03681+00601100121ADDAA199000091GA1011+012009069GF103991011041012501031001MA1999999089871MD1710231+9999REMSYN088AAXX  17121 40785 32665 30604 10368 20060 38987 40012 57023 81430 91150 333 81640 83360;EQDQ01  00002PRCP99
0190407850999992000081715004+33980+051440FM-12+0982OIFK V0200101N003012200019N0150001N1+03641+00661100041ADDGA1011+012009069GF103991011041012501031001KA1120M+03761MA1999999089751MD1710121+9999REMSYN094AAXX  17151 40785 42665 30103 10364 20066 38975 40004 57012 81430 91450 333 10376 81640 83360;
0215407850999992000081718004+33980+051440FM-12+0982OIFK V0209999C00001036001CN0150001N1+03201+00821100211ADDAA199000091GA1021+012009069GF105991021041012501031001GJ105829MA1999999089901MD1310151+9999REMSYN094AAXX  17181 40785 32665 50000 10320 20082 38990 40021 53015 82430 91750 333 55097 82640 85360;EQDQ01  00002PRCP99
0165407850999992000081721004+33980+051440FM-12+0982OIFK V0209999C000012200019N0150001N1+03041+00811100251ADDGA1031+030009079GF103991031001999999031001MA1999999089971MD1110071+9999REMSYN082AAXX  17211 40785 42965 30000 10304 20081 38997 40025 51007 83030 92050 333 83360;
0211407850999992000081800004+33980+051440FM-12+0982OIFK V0209999C000012200019N0150001N1+02861+00691100311ADDAA199000091GA1021+030009079GF102991999001999999031001MA1999999089971MD1410001+9999REMSYN082AAXX  18001 40785 32965 20000 10286 20069 38997 40031 54000 83030 92350 333 82360;EQDQ01+000032SCOTLCQ02  00002PRCP99
0190407850999992000081803004+33980+051440FM-12+0982OIFK V0209999C00001036001CN0150001N1+02681+00771100431ADDGA1021+012009069GF107991021041012501031001KA1120N+02641MA1999999090131MD1210161+9999REMSYN094AAXX  18031 40785 42665 70000 10268 20077 39013 40043 52016 82430 90250 333 20264 82640 87360;
0219407850999992000081806004+33980+051440FM-12+0982OIFK V0209999C00001036001CN0150001N1+03141+00781100531ADDAA124000091GA1021+012009069GF105991021041012501031001MA1999999090201MD1210071+9999REMSYN106AAXX  18061 40785 32665 50000 10314 20078 39020 40053 52007 82430 90546 333 30026 51081 70000 82640 85360;EQDQ01  00002PRCP24
0201407850999992000081812004+33980+051440FM-12+0982OIFK V0200501N003012200019N0150001N1+03781+00481100161ADDAA199000091GA1011+012009069GF104991011041012501031001MA1999999089901MD1710221+9999REMSYN088AAXX  18121 40785 32665 40503 10378 20048 38990 40016 57022 81430 91146 333 81640 84360;EQDQ01  00002PRCP99
0215407850999992000081818004+33980+051440FM-12+0982OIFK V0200901N00201036001CN0150001N1+03341+00321100321ADDAA199000091GA1021+012009069GF105991021041012501031001GJ105169MA1999999090031MD1310151+9999REMSYN094AAXX  18181 40785 32665 50902 10334 20032 39003 40032 53015 82430 91747 333 55086 82640 85360;EQDQ01  00002PRCP99
0171407850999992000081821004+33980+051440FM-12+0982OIFK V0209999C000012200019N0150001N1+03061+00581100391ADDGA1021+012009069GF104991021041012501031001MA1999999090101MD1110071+9999REMSYN088AAXX  18211 40785 42665 40000 10306 20058 39010 40039 51007 82430 92040 333 82640 84360;
0201407850999992000081900004+33980+051440FM-12+0982OIFK V0209999C000012200019N0150001N1+02861+00601100421ADDAA199000091GA1021+012009069GF103991021041012501031001MA1999999090101MD1410001+9999REMSYN088AAXX  19001 40785 32665 30000 10286 20060 39010 40042 54000 82430 92346 333 82640 83360;EQDQ01  00002PRCP99
0190407850999992000081903004+33980+051440FM-12+0982OIFK V0209999C00001036001CN0150001N1+02401+00761100581ADDGA1021+012009069GF105991021041012501031001KA1120N+02401MA1999999090241MD1210141+9999REMSYN094AAXX  19031 40785 42665 50000 10240 20076 39024 40058 52014 82430 90245 333 20240 82640 85360;
0213407850999992000081906004+33980+051440FM-12+0982OIFK V0209999C000012200019N0150001N1+03061+00431100711ADDAA124000091GA1021+030009079GF102991021001999999031001MA1999999090351MD1210111+9999REMSYN100AAXX  19061 40785 32965 20000 10306 20043 39035 40071 52011 82030 90552 333 30022 51101 70000 82360;EQDQ01  00002PRCP24
0165407850999992000081909004+33980+051440FM-12+0982OIFK V0200501N004012200019N0150001N1+03601-00031100521ADDGA1011+030009079GF101991011001999999031001MA1999999090221MD1710131+9999REMSYN082AAXX  19091 40785 42965 10504 10360 21003 39022 40052 57013 81030 90850 333 81360;
0183407850999992000081912004+33980+051440FM-12+0982OIFK V0209999C000012200019N0150001N1+03801+00241100281ADDAA199000091GA1001+999999999GF100991001001999999001001MA1999999089961MD1710261+9999REMSYN070AAXX  19121 40785 32965 00000 10380 20024 38996 40028 57026 91152 333;EQDQ01  00002PRCP99
0172407850999992000081915004+33980+051440FM-12+0982OIFK V0200801N002012200019N0150001N1+03701+00301100291ADDGA1001+999999999GF100991001001999999001001KA1999M+03901MA1999999089921MD1710041+9999REMSYN076AAXX  19151 40785 42965 00802 10370 20030 38992 40029 57004 91450 333 10390;
0153407850999992000081921004+33980+051440FM-12+0982OIFK V0209999C000012200019N0100001N1+03061-00101100411ADDGA1001+999999999GF100991001001999999001001MA1999999090121MD1210061+9999REMSYN070AAXX  19211 40785 42960 00000 10306 21010 39012 40041 52006 92050 333;
0200407850999992000082000004+33980+051440FM-12+0982OIFK V0209999C000012200019N0100001N1+01822-00261999999ADDAA199000091GA1001+999999999GF100991001001999999001001MD1810041+9999REMSYN070AAXX  20001 40785 32960 00000 10182 21026 37722 49970 58004 92352 333;EQDQ01+077223APOSP Q02+099703APOSLPQ03  00002PRCP99
0172407850999992000082003004+33980+051440FM-12+0982OIFK V0209999C000012200019N0150001N1+02081+00201100771ADDGA1001+999999999GF100991001001999999001001KA1999N+02001MA1999999090281MD1210161+9999REMSYN076AAXX  20031 40785 42965 00000 10208 20020 39028 40077 52016 90252 333 20200;
0201407850999992000082006004+33980+051440FM-12+0982OIFK V0209999C000012200019N0150001N1+03041+00101100811ADDAA124000091GA1001+999999999GF100991001001999999001001MA1999999090431MD1210151+9999REMSYN088AAXX  20061 40785 32965 00000 10304 20010 39043 40081 52015 90546 333 30017 51361 70000;EQDQ01  00002PRCP24
0153407850999992000082009004+33980+051440FM-12+0982OIFK V0202101N002012200019N0150001N1+03561-00111100651ADDGA1001+999999999GF100991001001999999001001MA1999999090341MD1710091+9999REMSYN070AAXX  20091 40785 42965 02102 10356 21011 39034 40065 57009 90846 333;
0183407850999992000082012004+33980+051440FM-12+0982OIFK V0209999C000012200019N0150001N1+03821-00161100471ADDAA199000091GA1001+999999999GF100991001001999999001001MA1999999090171MD1710171+9999REMSYN070AAXX  20121 40785 32965 00000 10382 21016 39017 40047 57017 91146 333;EQDQ01  00002PRCP99
0172407850999992000082015004+33980+051440FM-12+0982OIFK V0209999C000012200019N0150001N1+03581-00241100491ADDGA1001+999999999GF100991001001999999001001KA1999M+03851MA1999999090051MD1610121+9999REMSYN076AAXX  20151 40785 42965 00000 10358 21024 39005 40049 56012 91446 333 10385;
0189407850999992000082018004+33980+051440FM-12+0982OIFK V0209999C000012200019N0150001N1+02901+00241100671ADDAA199000091GA1001+999999999GF100991001001999999001001MA1999999090261MD1210211+9999REMSYN076AAXX  20181 40785 32965 00000 10290 20024 39026 40067 52021 91747 333 55118;EQDQ01  00002PRCP99
0153407850999992000082021004+33980+051440FM-12+0982OIFK V0209999C000012200019N0150001N1+02781+00061100571ADDGA1001+999999999GF100991001001999999001001MA1999999090261MD1410001+9999REMSYN070AAXX  20211 40785 42965 00000 10278 20006 39026 40057 54000 92041 333;
0183407850999992000082100004+33980+051440FM-12+0982OIFK V0209999C000012200019N0150001N1+02301+00451100581ADDAA199000091GA1001+999999999GF100991001001999999001001MA1999999090211MD1810051+9999REMSYN070AAXX  21001 40785 32965 00000 10230 20045 39021 40058 58005 92346 333;EQDQ01  00002PRCP99
0172407850999992000082103004+33980+051440FM-12+0982OIFK V0209999C000012200019N0150001N1+02181+00241100771ADDGA1001+999999999GF100991001001999999001001KA1999N+02001MA1999999090301MD1310091+9999REMSYN076AAXX  21031 40785 42965 00000 10218 20024 39030 40077 53009 90247 333 20200;
0201407850999992000082106004+33980+051440FM-12+0982OIFK V0209999C000012200019N0150001N1+03181+00291100781ADDAA124000091GA1001+999999999GF100991001001999999001001MA1999999090351MD1110051+9999REMSYN088AAXX  21061 40785 32965 00000 10318 20029 39035 40078 51005 90550 333 30017 51321 70000;EQDQ01  00002PRCP24
0183407850999992000082112004+33980+051440FM-12+0982OIFK V0200901N004012200019N0150001N1+03861-00011100341ADDAA199000091GA1001+999999999GF100991001001999999001001MA1999999089961MD1710221+9999REMSYN070AAXX  21121 40785 32965 00904 10386 21001 38996 40034 57022 91150 333;EQDQ01  00002PRCP99
0172407850999992000082115004+33980+051440FM-12+0982OIFK V0200501N002012200019N0150001N1+03681+00281100291ADDGA1001+999999999GF100991001001999999001001KA1999M+03901MA1999999089881MD1610081+9999REMSYN076AAXX  21151 40785 42965 00502 10368 20028 38988 40029 56008 91450 333 10390;
0189407850999992000082118004+33980+051440FM-12+0982OIFK V0209999C000012200019N0150001N1+03081+00371100421ADDAA199000091GA1001+999999999GF100991001001999999001001MA1999999090061MD1210181+9999REMSYN076AAXX  21181 40785 32965 00000 10308 20037 39006 40042 52018 92050 333 55118;EQDQ01  00002PRCP99
0153407850999992000082121004+33980+051440FM-12+0982OIFK V0200901N002012200019N0150001N1+03001+00151100351ADDGA1001+999999999GF100991001001999999001001MA1999999090061MD1410001+9999REMSYN070AAXX  21211 40785 42965 00902 10300 20015 39006 40035 54000 92050 333;
0183407850999992000082200004+33980+051440FM-12+0982OIFK V0209999C000012200019N0100001N1+02401+00591100371ADDAA199000091GA1001+999999999GF100991001001999999001001MA1999999089991MD1810071+9999REMSYN070AAXX  22001 40785 32960 00000 10240 20059 38999 40037 58007 92350 333;EQDQ01  00002PRCP99
0172407850999992000082203004+33980+051440FM-12+0982OIFK V0209999C000012200019N0100001N1+02501+00051100481ADDGA1001+999999999GF100991001001999999001001KA1999N+02201MA1999999090101MD1310111+9999REMSYN076AAXX  22031 40785 42960 00000 10250 20005 39010 40048 53011 90250 333 20220;
0201407850999992000082206004+33980+051440FM-12+0982OIFK V0209999C000012200019N0150001N1+03241+00261100561ADDAA124000091GA1001+999999999GF100991001001999999001001MA1999999090201MD1210101+9999REMSYN088AAXX  22061 40785 32965 00000 10324 20026 39020 40056 52010 90545 333 30019 51301 70000;EQDQ01  00002PRCP24
0165407850999992000082209004+33980+051440FM-12+0982OIFK V0203201N003012200019N0150001N1+03561+00181100521ADDGA1011+012009059GF101991011041012501001001MA1999999090201MD1410001+9999REMSYN082AAXX  22091 40785 42665 13203 10356 20018 39020 40052 54000 81400 90845 333 81640;
0184407850999992000082215004+33980+051440FM-12+0982OIFK V0200901N002012200019N0150001N1+03681+00491100281ADDGA1011+012009059GF101991011041012501001001KA1120M+03951MA1999999089921MD1610031+9999REMSYN088AAXX  22151 40785 42665 10902 10368 20049 38992 40028 56003 81400 91446 333 10395 81640;
0189407850999992000082218004+33980+051440FM-12+0982OIFK V0209999C000012200019N0150001N1+03041+00271100461ADDAA199000091GA1001+999999999GF100991001001999999001001MA1999999090101MD1310181+9999REMSYN076AAXX  22181 40785 32965 00000 10304 20027 39010 40046 53018 91745 333 55115;EQDQ01  00002PRCP99
0183407850999992000082300004+33980+051440FM-12+0982OIFK V0209999C000012200019N0150001N1+02461+00081100491ADDAA199000091GA1001+999999999GF100991001001999999001001MA1999999090141MD1310081+9999REMSYN070AAXX  23001 40785 32965 00000 10246 20008 39014 40049 53008 92347 333;EQDQ01  00002PRCP99
0172407850999992000082303004+33980+051440FM-12+0982OIFK V0209999C000012200019N0150001N1+02321+00371100751ADDGA1001+999999999GF100991001001999999001001KA1999N+02251MA1999999090331MD1210191+9999REMSYN076AAXX  23031 40785 42965 00000 10232 20037 39033 40075 52019 90247 333 20225;
0201407850999992000082306004+33980+051440FM-12+0982OIFK V0209999C000012200019N0150001N1+03081+00691100871ADDAA124000091GA1001+999999999GF100991001001999999001001MA1999999090471MD1210141+9999REMSYN088AAXX  23061 40785 32965 00000 10308 20069 39047 40087 52014 90552 333 30020 51231 70000;EQDQ01  00002PRCP24
0153407850999992000082309004+33980+051440FM-12+0982OIFK V0209999C000012200019N0100001N1+03521+00561100681ADDGA1001+999999999GF100991001001999999001001MA1999999090371MD1810101+9999REMSYN070AAXX  23091 40785 42960 00000 10352 20056 39037 40068 58010 90852 333;
0195407850999992000082312004+33980+051440FM-12+0982OIFK V0209999C000012200019N0150001N1+03901+00361100371ADDAA199000091GA1011+012009059GF101991011011012501001001MA1999999090051MD1710321+9999REMSYN082AAXX  23121 40785 32665 10000 10390 20036 39005 40037 57032 81100 91150 333 81640;EQDQ01  00002PRCP99
0184407850999992000082315004+33980+051440FM-12+0982OIFK V0209999C000012200019N0100001N1+03381+00261100331ADDGA1021+030009079GF102991021001999999031001KA1120M+03951MA1999999089961MD1610091+9999REMSYN088AAXX  23151 40785 42960 20000 10338 20026 38996 40033 56009 82030 91450 333 10395 82360;
0209407850999992000082318004+33980+051440FM-12+0982OIFK V0209999C000012200019N0100001N1+03301+00381100451ADDAA199000091GA1031+030009079GF103991031001999999031001GJ106909MA1999999090141MD1210181+9999REMSYN088AAXX  23181 40785 32960 30000 10330 20038 39014 40045 52018 83030 91752 333 55115 83360;EQDQ01  00002PRCP99
0165407850999992000082321004+33980+051440FM-12+0982OIFK V0209999C000012200019N0100001N1+03141+00321100471ADDGA1021+030009079GF102991021001999999031001MA1999999090151MD1110051+9999REMSYN082AAXX  23211 40785 42960 20000 10314 20032 39015 40047 51005 82030 92050 333 82360;
0195407850999992000082400004+33980+051440FM-12+0982OIFK V0209999C000012200019N0100001N1+02721+00701100461ADDAA199000091GA1031+030009079GF103991031001999999031001MA1999999090191MD1410001+9999REMSYN082AAXX  24001 40785 32960 30000 10272 20070 39019 40046 54000 83030 92352 333 83360;EQDQ01  00002PRCP99
0190407850999992000082403004+33980+051440FM-12+0982OIFK V0209999C000012200019N0150001N1+02501+00771100611ADDGA1011+012009069GF104991011041012501031001KA1120N+02461MA1999999090261MD1310071+9999REMSYN094AAXX  24031 40785 42665 40000 10250 20077 39026 40061 53007 81430 90252 333 20246 81640 84360;
0219407850999992000082406004+33980+051440FM-12+0982OIFK V0203001N002012200019N0150001N1+03081+00521100611ADDAA124000091GA1011+012009069GF103991011041012501031001MA1999999090281MD1110021+9999REMSYN106AAXX  24061 40785 32665 33002 10308 20052 39028 40061 51002 81430 90545 333 30022 51441 70000 81640 83360;EQDQ01  00002PRCP24
0165407850999992000082409004+33980+051440FM-12+0982OIFK V0200901N002012200019N0150001N1+03561+00181100331ADDGA1011+012009059GF101991011041012501001001MA1999999090071MD1710211+9999REMSYN082AAXX  24091 40785 42665 10902 10356 20018 39007 40033 57021 81400 90845 333 81640;
0195407850999992000082412004+33980+051440FM-12+0982OIFK V0200801N002012200019N0150001N1+03921+00581100041ADDAA199000091GA1021+012009059GF102991021041012501001001MA1999999089801MD1710271+9999REMSYN082AAXX  24121 40785 32665 20802 10392 20058 38980 40004 57027 82400 91146 333 82640;EQDQ01  00002PRCP99
0189407850999992000082418004+33980+051440FM-12+0982OIFK V0209999C000012200019N0150001N1+03061+00881100081ADDAA199000091GA1001+999999999GF100991001001999999001001MA1999999089791MD1110091+9999REMSYN076AAXX  24181 40785 32965 00000 10306 20088 38979 40008 51009 91745 333 55114;EQDQ01  00002PRCP99
0153407850999992000082421004+33980+051440FM-12+0982OIFK V0201001N002012200019N0150001N1+02961+00641100001ADDGA1001+999999999GF100991001001999999001001MA1999999089771MD1810021+9999REMSYN070AAXX  24211 40785 42965 01002 10296 20064 38977 40000 58002 92040 333;
0183407850999992000082500004+33980+051440FM-12+0982OIFK V0209999C000012200019N0150001N1+02781+00761100061ADDAA199000091GA1001+999999999GF100991001001999999001001MA1999999089771MD1410001+9999REMSYN070AAXX  25001 40785 32965 00000 10278 20076 38977 40006 54000 92345 333;EQDQ01  00002PRCP99
0184407850999992000082503004+33980+051440FM-12+0982OIFK V0202701N003012200019N0150001N1+02541+00211100111ADDGA1041+030009079GF104991041001999999031001KA1120N+02481MA1999999089821MD1310051+9999REMSYN088AAXX  25031 40785 42965 42703 10254 20021 38982 40011 53005 84030 90246 333 20248 84360;
0213407850999992000082506004+33980+051440FM-12+0982OIFK V0203301N002012200019N0150001N1+03181+00601100221ADDAA124000091GA1021+030009079GF102991021001999999031001MA1999999089901MD1310081+9999REMSYN100AAXX  25061 40785 32965 23302 10318 20060 38990 40022 53008 82030 90550 333 30022 51101 70000 82360;EQDQ01  00002PRCP24
0165407850999992000082509004+33980+051440FM-12+0982OIFK V0203001N002012200019N0150001N1+03681+00481100021ADDGA1021+030009079GF102991021001999999031001MA1999999089791MD1810111+9999REMSYN082AAXX  25091 40785 42965 23002 10368 20048 38979 40002 58011 82030 90850 333 82360;
0195407850999992000082512004+33980+051440FM-12+0982OIFK V0200301N003012200019N0150001N1+03941+00361099721ADDAA199000091GA1011+012009029GF101991011011012501001001MA1999999089531MD1710261+9999REMSYN082AAXX  25121 40785 32665 10303 10394 20036 38953 49972 57026 81100 91150 333 81840;EQDQ01  00002PRCP99
0189407850999992000082518004+33980+051440FM-12+0982OIFK V0209999C000012200019N0150001N1+03201+00681099961ADDAA199000091GA1001+999999999GF100991001001999999001001MA1999999089711MD1110181+9999REMSYN076AAXX  25181 40785 32965 00000 10320 20068 38971 49996 51018 91750 333 55115;EQDQ01  00002PRCP99
0183407850999992000082600004+33980+051440FM-12+0982OIFK V0209999C000012200019N0150001N1+02841+00581099861ADDAA199000091GA1001+999999999GF100991001001999999001001MA1999999089711MD1410001+9999REMSYN070AAXX  26001 40785 32965 00000 10284 20058 38971 49986 54000 92350 333;EQDQ01  00002PRCP99
0201407850999992000082606004+33980+051440FM-12+0982OIFK V0203601N002012200019N0150001N1+03221+00401100331ADDAA124000091GA1001+999999999GF100991001001999999001001MA1999999090031MD1210121+9999REMSYN088AAXX  26061 40785 32965 03602 10322 20040 39003 40033 52012 90550 333 30021 51001 70000;EQDQ01  00002PRCP24
0195407850999992000082612004+33980+051440FM-12+0982OIFK V0203601N002012200019N0150001N1+04101+00701099961ADDAA199000091GA1021+012009059GF102991021011012501001001MA1999999089771MD1710231+9999REMSYN082AAXX  26121 40785 32665 23602 10410 20070 38977 49996 57023 82100 91150 333 82640;EQDQ01  00002PRCP99
0189407850999992000082618004+33980+051440FM-12+0982OIFK V0209999C000012200019N0150001N1+03241+00601100151ADDAA199000091GA1001+999999999GF100991001001999999001001MA1999999089891MD1310121+9999REMSYN076AAXX  26181 40785 32965 00000 10324 20060 38989 40015 53012 91750 333 55113;EQDQ01  00002PRCP99
0165407850999992000082621004+33980+051440FM-12+0982OIFK V0200301N002012200019N0150001N1+03261+00461100051ADDGA1021+030009079GF102991021001999999031001MA1999999089891MD1410001+9999REMSYN082AAXX  26211 40785 42965 20302 10326 20046 38989 40005 54000 82030 92050 333 82360;
0195407850999992000082700004+33980+051440FM-12+0982OIFK V0209999C000012200019N0150001N1+02961+00301100011ADDAA199000091GA1031+030009079GF103991031001999999031001MA1999999089891MD1410001+9999REMSYN082AAXX  27001 40785 32965 30000 10296 20030 38989 40001 54000 83030 92350 333 83360;EQDQ01  00002PRCP99
0172407850999992000082703004+33980+051440FM-12+0982OIFK V0202901N002012200019N0150001N1+02621+00221100341ADDGA1001+999999999GF100991001001999999001001KA1999N+02601MA1999999090061MD1210101+9999REMSYN076AAXX  27031 40785 42965 02902 10262 20022 39006 40034 52010 90250 333 20260;
0165407850999992000082709004+33980+051440FM-12+0982OIFK V0209999C000012200019N0150001N1+03901+00681100221ADDGA1021+030009079GF102991021001999999031001MA1999999090031MD1710101+9999REMSYN082AAXX  27091 40785 42965 20000 10390 20068 39003 40022 57010 82030 90850 333 82360;
0183407850999992000082712004+33980+051440FM-12+0982OIFK V0209999C000012200019N0150001N1+04121+00581099911ADDAA199000091GA1001+999999999GF100991001001999999001001MA1999999089731MD1710301+9999REMSYN070AAXX  27121 40785 32965 00000 10412 20058 38973 49991 57030 91150 333;EQDQ01  00002PRCP99
0172407850999992000082715004+33980+051440FM-12+0982OIFK V0209999C000012200019N0100001N1+03941+00521099861ADDGA1001+999999999GF100991001001999999001001KA1999M+04201MA1999999089621MD1610111+9999REMSYN076AAXX  27151 40785 42960 00000 10394 20052 38962 49986 56011 91452 333 10420;
0189407850999992000082718004+33980+051440FM-12+0982OIFK V0209999C000012200019N0100001N1+03241+00581099961ADDAA199000091GA1001+999999999GF100991001001999999001001MA1999999089751MD1310111+9999REMSYN076AAXX  27181 40785 32960 00000 10324 20058 38975 49996 53011 91750 333 55115;EQDQ01  00002PRCP99
0153407850999992000082721004+33980+051440FM-12+0982OIFK V0209999C000012200019N0150001N1+02941+00441099911ADDGA1001+999999999GF100991001001999999001001MA1999999089731MD1410001+9999REMSYN070AAXX  27211 40785 42965 00000 10294 20044 38973 49991 54000 92050 333;
0183407850999992000082800004+33980+051440FM-12+0982OIFK V0209999C000012200019N0100001N1+02761+00461099911ADDAA199000091GA1001+999999999GF100991001001999999001001MA1999999089731MD1410001+9999REMSYN070AAXX  28001 40785 32960 00000 10276 20046 38973 49991 54000 92350 333;EQDQ01  00002PRCP99
0184407850999992000082803004+33980+051440FM-12+0982OIFK V0209999C000012200019N0150001N1+02541+00401100051ADDGA1031+030009079GF103991031001999999031001KA1120N+02421MA1999999089811MD1310081+9999REMSYN088AAXX  28031 40785 42965 30000 10254 20040 38981 40005 53008 83030 90252 333 20242 83360;
0201407850999992000082806004+33980+051440FM-12+0982OIFK V0209999C000012200019N0150001N1+03561+00761100071ADDAA124000091GA1001+999999999GF100991001001999999001001MA1999999089861MD1110051+9999REMSYN088AAXX  28061 40785 32965 00000 10356 20076 38986 40007 51005 90546 333 30021 51341 70000;EQDQ01  00002PRCP24
0153407850999992000082809004+33980+051440FM-12+0982OIFK V0209999C000012200019N0150001N1+03821+00261099991ADDGA1001+999999999GF100991001001999999001001MA1999999089751MD1710111+9999REMSYN070AAXX  28091 40785 42965 00000 10382 20026 38975 49999 57011 90845 333;
0183407850999992000082812004+33980+051440FM-12+0982OIFK V0203501N003012200019N0150001N1+04101+00601099681ADDAA199000091GA1001+999999999GF100991001001999999001001MA1999999089511MD1710241+9999REMSYN070AAXX  28121 40785 32965 03503 10410 20060 38951 49968 57024 91146 333;EQDQ01  00002PRCP99
0172407850999992000082815004+33980+051440FM-12+0982OIFK V0209999C000012200019N0150001N1+03881+00641099701ADDGA1001+999999999GF100991001001999999001001KA1999M+04201MA1999999089461MD1710051+9999REMSYN076AAXX  28151 40785 42965 00000 10388 20064 38946 49970 57005 91446 333 10420;
0189407850999992000082818004+33980+051440FM-12+0982OIFK V0209999C000012200019N0150001N1+03241+00591099701ADDAA199000091GA1001+999999999GF100991001001999999001001MA1999999089521MD1310061+9999REMSYN076AAXX  28181 40785 32965 00000 10324 20059 38952 49970 53006 91747 333 55114;EQDQ01  00002PRCP99
0153407850999992000082821004+33980+051440FM-12+0982OIFK V0209999C000012200019N0150001N1+02961+00351099711ADDGA1001+999999999GF100991001001999999001001MA1999999089521MD1410001+9999REMSYN070AAXX  28211 40785 42965 00000 10296 20035 38952 49971 54000 92040 333;
0183407850999992000082900004+33980+051440FM-12+0982OIFK V0209999C000012200019N0150001N1+02481+00601099691ADDAA199000091GA1001+999999999GF100991001001999999001001MA1999999089461MD1810061+9999REMSYN070AAXX  29001 40785 32965 00000 10248 20060 38946 49969 58006 92350 333;EQDQ01  00002PRCP99
0172407850999992000082903004+33980+051440FM-12+0982OIFK V0209999C000012200019N0150001N1+02421+00751099811ADDGA1001+999999999GF100991001001999999001001KA1999N+02351MA1999999089541MD1310081+9999REMSYN076AAXX  29031 40785 42965 00000 10242 20075 38954 49981 53008 90245 333 20235;
0201407850999992000082906004+33980+051440FM-12+0982OIFK V0209999C000012200019N0150001N1+03261+00591099881ADDAA124000091GA1001+999999999GF100991001001999999001001MA1999999089641MD1210101+9999REMSYN088AAXX  29061 40785 32965 00000 10326 20059 38964 49988 52010 90550 333 30019 51401 70000;EQDQ01  00002PRCP24
0153407850999992000082909004+33980+051440FM-12+0982OIFK V0209999C000012200019N0150001N1+03741+00521099681ADDGA1001+999999999GF100991001001999999001001MA1999999089491MD1810151+9999REMSYN070AAXX  29091 40785 42965 00000 10374 20052 38949 49968 58015 90850 333;
0183407850999992000082912004+33980+051440FM-12+0982OIFK V0209999C000012200019N0150001N1+04041+00561099431ADDAA199000091GA1001+999999999GF100991001001999999001001MA1999999089251MD1710241+9999REMSYN070AAXX  29121 40785 32965 00000 10404 20056 38925 49943 57024 91150 333;EQDQ01  00002PRCP99
0184407850999992000082915004+33980+051440FM-12+0982OIFK V0209999C000012200019N0150001N1+03761+00841099391ADDGA1011+012009059GF101991011041012501001001KA1120M+04101MA1999999089161MD1610091+9999REMSYN088AAXX  29151 40785 42665 10000 10376 20084 38916 49939 56009 81400 91450 333 10410 81640;
0209407850999992000082918004+33980+051440FM-12+0982OIFK V0209999C000012200019N0150001N1+03181+00261099441ADDAA199000091GA1011+012009059GF101991011041012501001001GJ106489MA1999999089261MD1110101+9999REMSYN088AAXX  29181 40785 32665 10000 10318 20026 38926 49944 51010 81400 91750 333 55108 81640;EQDQ01  00002PRCP99
0153407850999992000082921004+33980+051440FM-12+0982OIFK V0209999C000012200019N0150001N1+02861+00501099521ADDGA1001+999999999GF100991001001999999001001MA1999999089341MD1310081+9999REMSYN070AAXX  29211 40785 42965 00000 10286 20050 38934 49952 53008 92050 333;
0183407850999992000083000004+33980+051440FM-12+0982OIFK V0209999C000012200019N0150001N1+02641+00211099511ADDAA199000091GA1001+999999999GF100991001001999999001001MA1999999089341MD1410001+9999REMSYN070AAXX  30001 40785 32965 00000 10264 20021 38934 49951 54000 92350 333;EQDQ01  00002PRCP99
0201407850999992000083006004+33980+051440FM-12+0982OIFK V0203301N002012200019N0150001N1+03001+00721099791ADDAA124000091GA1001+999999999GF100991001001999999001001MA1999999089531MD1110051+9999REMSYN088AAXX  30061 40785 32965 03302 10300 20072 38953 49979 51005 90550 333 30019 51201 70000;EQDQ01  00002PRCP24
0183407850999992000083012004+33980+051440FM-12+0982OIFK V0209999C000012200019N0150001N1+03921+00571099311ADDAA199000091GA1001+999999999GF100991001001999999001001MA1999999089141MD1710241+9999REMSYN070AAXX  30121 40785 32965 00000 10392 20057 38914 49931 57024 91150 333;EQDQ01  00002PRCP99
0130407850999992000083015004+33980+051440FM-12+0982OIFK V0209999C000019999999N0150001N1+03821+01201099221ADDKA1999M+04101MA1999999089601MD1610141+9999REMSYN076AAXX  30151 40785 42965 /0000 10382 20120 38960 49922 56014 91450 333 10410;
0189407850999992000083018004+33980+051440FM-12+0982OIFK V0201801N003012200019N0150001N1+03321+00301099311ADDAA199000091GA1001+999999999GF100991001001999999001001MA1999999089101MD1310101+9999REMSYN076AAXX  30181 40785 32965 01803 10332 20030 38910 49931 53010 91750 333 55110;EQDQ01  00002PRCP99
0183407850999992000083100004+33980+051440FM-12+0982OIFK V0201001N002012200019N0150001N1+03081+00181099281ADDAA199000091GA1001+999999999GF100991001001999999001001MA1999999089201MD1410001+9999REMSYN070AAXX  31001 40785 32965 01002 10308 20018 38920 49928 54000 92350 333;EQDQ01  00002PRCP99
0172407850999992000083103004+33980+051440FM-12+0982OIFK V0209999C000012200019N0150001N1+02621+00221099431ADDGA1001+999999999GF100991001001999999001001KA1999N+02481MA1999999089291MD1110091+9999REMSYN076AAXX  31031 40785 42965 00000 10262 20022 38929 49943 51009 90250 333 20248;
0201407850999992000083106004+33980+051440FM-12+0982OIFK V0203601N002012200019N0150001N1+03061+00501099641ADDAA124000091GA1001+999999999GF100991001001999999001001MA1999999089411MD1210121+9999REMSYN088AAXX  31061 40785 32965 03602 10306 20050 38941 49964 52012 90550 333 30021 51131 70000;EQDQ01  00002PRCP24
0183407850999992000083112004+33980+051440FM-12+0982OIFK V0209999C000012200019N0150001N1+03981+00931099621ADDAA199000091GA1001+999999999GF100991001001999999001001MA1999999089101MD1710201+9999REMSYN070AAXX  31121 40785 32965 00000 10398 20093 38910 49962 57020 91150 333;EQDQ01  00002PRCP99
0172407850999992000083115004+33980+051440FM-12+0982OIFK V0209999C000012200019N0150001N1+03721+01041099241ADDGA1001+999999999GF100991001001999999001001KA1999M+04101MA1999999089051MD1610051+9999REMSYN076AAXX  31151 40785 42965 00000 10372 20104 38905 49924 56005 91450 333 10410;
0189407850999992000083118004+33980+051440FM-12+0982OIFK V0209999C000012200019N0100001N1+03201+00561099391ADDAA199000091GA1001+999999999GF100991001001999999001001MA1999999089181MD1310131+9999REMSYN076AAXX  31181 40785 32960 00000 10320 20056 38918 49939 53013 91750 333 55106;EQDQ01  00002PRCP99
0183407850999992000090100004+33980+051440FM-12+0982OIFK V0209999C000012200019N0150001N1+02361+00541099311ADDAA199000091GA1001+999999999GF100991001001999999001001MA1999999089201MD1410001+9999REMSYN070AAXX  01001 40785 32965 00000 10236 20054 38920 49931 54000 92350 333;EQDQ01  00002PRCP99
0172407850999992000090103004+33980+051440FM-12+0982OIFK V0209999C000012200019N0150001N1+02561+00401099491ADDGA1001+999999999GF100991001001999999001001KA1999N+02241MA1999999089291MD1310091+9999REMSYN076AAXX  01031 40785 42965 00000 10256 20040 38929 49949 53009 90250 333 20224;
0201407850999992000090106004+33980+051440FM-12+0982OIFK V0209999C000012200019N0150001N1+02901+00641099751ADDAA124000091GA1001+999999999GF100991001001999999001001MA1999999089481MD1210191+9999REMSYN088AAXX  01061 40785 32965 00000 10290 20064 38948 49975 52019 90546 333 30019 51181 70000;EQDQ01  00002PRCP24
0153407850999992000090109004+33980+051440FM-12+0982OIFK V0203301N003012200019N0150001N1+03381+00461099551ADDGA1001+999999999GF100991001001999999001001MA1999999089331MD1810151+9999REMSYN070AAXX  01091 40785 42965 03303 10338 20046 38933 49955 58015 90846 333;
0183407850999992000090112004+33980+051440FM-12+0982OIFK V0209999C000012200019N0150001N1+03741+00421099391ADDAA199000091GA1001+999999999GF100991001001999999001001MA1999999089151MD1710181+9999REMSYN070AAXX  01121 40785 32965 00000 10374 20042 38915 49939 57018 91145 333;EQDQ01  00002PRCP99
0172407850999992000090115004+33980+051440FM-12+0982OIFK V0209999C000012200019N0150001N1+03501+00631099351ADDGA1001+999999999GF100991001001999999001001KA1999M+03801MA1999999089121MD1610031+9999REMSYN076AAXX  01151 40785 42965 00000 10350 20063 38912 49935 56003 91446 333 10380;
0189407850999992000090118004+33980+051440FM-12+0982OIFK V0209999C000012200019N0150001N1+02821+00691099661ADDAA199000091GA1001+999999999GF100991001001999999001001MA1999999089331MD1110211+9999REMSYN076AAXX  01181 40785 32965 00000 10282 20069 38933 49966 51021 91747 333 55111;EQDQ01  00002PRCP99
0153407850999992000090121004+33980+051440FM-12+0982OIFK V0209999C000012200019N0150001N1+02681+00491099581ADDGA1001+999999999GF100991001001999999001001MA1999999089331MD1410001+9999REMSYN070AAXX  01211 40785 42965 00000 10268 20049 38933 49958 54000 92040 333;
0183407850999992000090200004+33980+051440FM-12+0982OIFK V0209999C000012200019N0150001N1+02241+00811099691ADDAA199000091GA1001+999999999GF100991001001999999001001MA1999999089411MD1110081+9999REMSYN070AAXX  02001 40785 32965 00000 10224 20081 38941 49969 51008 92347 333;EQDQ01  00002PRCP99
0172407850999992000090203004+33980+051440FM-12+0982OIFK V0209999C000012200019N0150001N1+02021+00891099931ADDGA1001+999999999GF100991001001999999001001KA1999N+01981MA1999999089561MD1310151+9999REMSYN076AAXX  02031 40785 42965 00000 10202 20089 38956 49993 53015 90246 333 20198;
0201407850999992000090206004+33980+051440FM-12+0982OIFK V0209999C000012200019N0150001N1+02701+01021100151ADDAA124000091GA1001+999999999GF100991001001999999001001MA1999999089701MD1210151+9999REMSYN088AAXX  02061 40785 32965 00000 10270 20102 38970 40015 52015 90550 333 30017 51101 70000;EQDQ01  00002PRCP24
0153407850999992000090209004+33980+051440FM-12+0982OIFK V0209999C000012200019N0150001N1+03141+01171099901ADDGA1001+999999999GF100991001001999999001001MA1999999089541MD1710161+9999REMSYN070AAXX  02091 40785 42965 00000 10314 20117 38954 49990 57016 90850 333;
0195407850999992000090212004+33980+051440FM-12+0982OIFK V0209999C000012200019N0150001N1+03481+01301099691ADDAA199000091GA1011+012009059GF101991011041012501001001MA1999999089331MD1710211+9999REMSYN082AAXX  02121 40785 32665 10000 10348 20130 38933 49969 57021 81400 91150 333 81640;EQDQ01  00002PRCP99
0172407850999992000090215004+33980+051440FM-12+0982OIFK V0209999C000012200019N0150001N1+03441+01281099641ADDGA1001+999999999GF100991001001999999001001KA1999M+03551MA1999999089251MD1710081+9999REMSYN076AAXX  02151 40785 42965 00000 10344 20128 38925 49964 57008 91450 333 10355;
0165407850999992000090221004+33980+051440FM-12+0982OIFK V0209999C000012200019N0150001N1+02881+01231099801ADDGA1011+012009059GF101991011041012501001001MA1999999089381MD1110031+9999REMSYN082AAXX  02211 40785 42665 10000 10288 20123 38938 49980 51003 81400 92050 333 81640;
0195407850999992000090300004+33980+051440FM-12+0982OIFK V0209999C000012200019N0150001N1+02521+01101099701ADDAA199000091GA1011+012009059GF101991011041012501001001MA1999999089391MD1410001+9999REMSYN082AAXX  03001 40785 32665 10000 10252 20110 38939 49970 54000 81400 90250 333 81640;EQDQ01  00002PRCP99
0219407850999992000090306004+33980+051440FM-12+0982OIFK V0203301N002012200019N0150001N1+02661+00701100041ADDAA124000091GA1021+012009069GF104991021041012501031001MA1999999089671MD1110101+9999REMSYN106AAXX  03061 40785 32665 43302 10266 20070 38967 40004 51010 82430 90546 333 30018 51101 70000 82640 84360;EQDQ01  00002PRCP24
0165407850999992000090309004+33980+051440FM-12+0982OIFK V0209999C000012200019N0150001N1+03141+01271099871ADDGA1021+012009059GF102991021041012501001001MA1999999089571MD1810081+9999REMSYN082AAXX  03091 40785 42665 20000 10314 20127 38957 49987 58008 82400 90846 333 82640;
0195407850999992000090312004+33980+051440FM-12+0982OIFK V0200401N002012200019N0150001N1+03521+01031099621ADDAA199000091GA1031+012009059GF103991031041012501001001MA1999999089361MD1710211+9999REMSYN082AAXX  03121 40785 32665 30402 10352 20103 38936 49962 57021 83400 91146 333 83640;EQDQ01  00002PRCP99
0184407850999992000090315004+33980+051440FM-12+0982OIFK V0209999C000012200019N0150001N1+03461+01161099661ADDGA1031+012009059GF103991031041012501001001KA1120M+03601MA1999999089301MD1610061+9999REMSYN088AAXX  03151 40785 42665 30000 10346 20116 38930 49966 56006 83400 91447 333 10360 83640;
0189407850999992000090318004+33980+051440FM-12+0982OIFK V0203101N005012200019N0150001N1+02921+00321099781ADDAA199000091GA1001+999999999GF100991001001999999001001MA1999999089411MD1310111+9999REMSYN076AAXX  03181 40785 32965 03105 10292 20032 38941 49978 53011 91747 333 55089;EQDQ01  00002PRCP99
0153407850999992000090321004+33980+051440FM-12+0982OIFK V0202701N005012200019N0150001N1+02801+00491099821ADDGA1001+999999999GF100991001001999999001001MA1999999089511MD1210101+9999REMSYN070AAXX  03211 40785 42965 02705 10280 20049 38951 49982 52010 92041 333;
0183407850999992000090400004+33980+051440FM-12+0982OIFK V0209999C000012200019N0150001N1+02361+00731099921ADDAA199000091GA1001+999999999GF100991001001999999001001MA1999999089501MD1110091+9999REMSYN070AAXX  04001 40785 32965 00000 10236 20073 38950 49992 51009 92345 333;EQDQ01  00002PRCP99
0184407850999992000090403004+33980+051440FM-12+0982OIFK V0209999C000012200019N0150001N1+02181+00801100101ADDGA1021+012009059GF102991021041012501001001KA1120N+02101MA1999999089711MD1310111+9999REMSYN088AAXX  04031 40785 42665 20000 10218 20080 38971 40010 53011 82400 90245 333 20210 82640;
0219407850999992000090406004+33980+051440FM-12+0982OIFK V0209999C000012200019N0150001N1+02901+01031100231ADDAA124000091GA1011+012009069GF103991011041012501031001MA1999999089881MD1210171+9999REMSYN106AAXX  04061 40785 32665 30000 10290 20103 38988 40023 52017 81430 90550 333 30017 51201 70000 81640 83360;EQDQ01  00002PRCP24
0159407850999992000090409004+33980+051440FM-12+0982OIFK V0209999C000012200019N0150001N1+03301+00441100041ADDGA1011+012009059GF101991999999012501999999MA1999999089751MD1810131+9999REMSYN076AAXX  04091 40785 42665 10000 10330 20044 38975 40004 58013 90850 333 81640;
0195407850999992000090412004+33980+051440FM-12+0982OIFK V0209999C000012200019N0150001N1+03561+00941099881ADDAA199000091GA1031+012009059GF103991031041012501001001MA1999999089571MD1710171+9999REMSYN082AAXX  04121 40785 32665 30000 10356 20094 38957 49988 57017 83400 91150 333 83640;EQDQ01  00002PRCP99
0184407850999992000090415004+33980+051440FM-12+0982OIFK V0209999C000012200019N0150001N1+03441+00891099861ADDGA1021+012009059GF102991021041012501001001KA1120M+03601MA1999999089501MD1610071+9999REMSYN088AAXX  04151 40785 42665 20000 10344 20089 38950 49986 56007 82400 91450 333 10360 82640;
0215407850999992000090418004+33980+051440FM-12+0982OIFK V0202701N003012200019N0150001N1+03181+00981099941ADDAA199000091GA1021+012009069GF104991021041012501031001GJ104809MA1999999089641MD1210141+9999REMSYN094AAXX  04181 40785 32665 42703 10318 20098 38964 49994 52014 82430 91750 333 55080 82640 84360;EQDQ01  00002PRCP99
0171407850999992000090421004+33980+051440FM-12+0982OIFK V0209999C000012200019N0150001N1+02961+01011099901ADDGA1011+012009069GF103991011041012501031001MA1999999089641MD1410001+9999REMSYN088AAXX  04211 40785 42665 30000 10296 20101 38964 49990 54000 81430 92050 333 81640 83360;
0201407850999992000090500004+33980+051440FM-12+0982OIFK V0209999C000012200019N0150001N1+02881+00911100021ADDAA199000091GA1021+012009069GF104991021041012501031001MA1999999089781MD1810141+9999REMSYN088AAXX  05001 40785 32665 40000 10288 20091 38978 40002 58014 82430 90250 333 82640 84360;EQDQ01  00002PRCP99
0219407850999992000090506004+33980+051440FM-12+0982OIFK V0209999C000019999999N0150001N1+02881+01181100341ADDAA124000091GA1021+012009069GF105991021041012501001001MA1999999090011MD1110101+9999REMSYN106AAXX  05061 40785 32665 50000 10288 20118 39001 40034 51010 82400 90545 333 30025 51161 70000 82640 85360;EQDQ01  00002PRCP24
0201407850999992000090512004+33980+051440FM-12+0982OIFK V0201001N00501036001CN0150001N1+03541+01051099911ADDAA199000091GA1031+012009069GF106991031041012501031001MA1999999089671MD1710241+9999REMSYN088AAXX  05121 40785 32665 61005 10354 20105 38967 49991 57024 83430 91145 333 83640 86360;EQDQ01  00002PRCP99
0215407850999992000090518004+33980+051440FM-12+0982OIFK V0209999C00001036001CN0150001N1+03121+01051100191ADDAA199000091GA1031+012009069GF106991031041012501031001GJ103489MA1999999089881MD1210241+9999REMSYN094AAXX  05181 40785 32665 60000 10312 20105 38988 40019 52024 83430 91747 333 55058 83640 86360;EQDQ01  00002PRCP99
0171407850999992000090521004+33980+051440FM-12+0982OIFK V0209999C00001036001CN0150001N1+02861+01171100151ADDGA1031+012009069GF106991031041012501031001MA1999999089881MD1410001+9999REMSYN088AAXX  05211 40785 42665 60000 10286 20117 38988 40015 54000 83430 92040 333 83640 86360;
0201407850999992000090600004+33980+051440FM-12+0982OIFK V0209999C00001036001CN0150001N1+02601+01141100181ADDAA199000091GA1021+012009069GF105991021041012501031001MA1999999089881MD1410001+9999REMSYN088AAXX  06001 40785 32665 50000 10260 20114 38988 40018 54000 82430 92347 333 82640 85360;EQDQ01  00002PRCP99
0190407850999992000090603004+33980+051440FM-12+0982OIFK V0209999C00001036001CN0150001N1+02421+01221100421ADDGA1021+012009069GF105991021041012501031001KA1120N+02401MA1999999090031MD1310151+9999REMSYN094AAXX  06031 40785 42665 50000 10242 20122 39003 40042 53015 82430 90246 333 20240 82640 85360;
0229407850999992000090606004+33980+051440FM-12+0982OIFK V0209999C000012200019N0150001N1+03041+01171100361ADDAA124000091GA1021+012009059GF102991999041012501001001MA1999999090031MD1410001+9999REMSYN100AAXX  06061 40785 32665 20000 10304 20117 39003 40036 54000 84400 90550 333 30023 50931 70000 82640;EQDQ01+000042SCOTLCQ02  00002PRCP24
0165407850999992000090609004+33980+051440FM-12+0982OIFK V0209999C000012200019N0150001N1+03461+01231100131ADDGA1021+012009059GF102991021041012501001001MA1999999089851MD1810181+9999REMSYN082AAXX  06091 40785 42665 20000 10346 20123 38985 40013 58018 82400 90850 333 82640;
0223407850999992000090612004+33980+051440FM-12+0982OIFK V0202701N004010120019N0150001N1+03201+01221100171ADDAA199000091GA1011+010509099GA2041+012009069GF107991051031012501011001MA1999999089781MD1510071+9999REMSYN094AAXX  06121 40785 32665 72704 10320 20122 38978 40017 55007 85310 91150 333 81935 84640 87460;EQDQ01  00002PRCP99
0190407850999992000090615004+33980+051440FM-12+0982OIFK V0209999C000012200019N0150001N1+03161+01381100111ADDGA1031+012009069GF104991031041012501031001KA1120M+03641MA1999999089701MD1610081+9999REMSYN094AAXX  06151 40785 42665 40000 10316 20138 38970 40011 56008 83430 91450 333 10364 83640 84360;
0215407850999992000090618004+33980+051440FM-12+0982OIFK V0203001N00301036001CN0150001N1+03141+01121099991ADDAA199000091GA1031+012009069GF106991031041012501071001GJ103669MA1999999089701MD1410001+9999REMSYN094AAXX  06181 40785 32665 63003 10314 20112 38970 49999 54000 83470 91750 333 55061 83640 86360;EQDQ01  00002PRCP99
0201407850999992000090700004+33980+051440FM-12+0982OIFK V0209999C000012200019N0150001N1+02861+01181099851ADDAA199000091GA1021+012009069GF104991021041012501031001MA1999999089701MD1410001+9999REMSYN088AAXX  07001 40785 32665 40000 10286 20118 38970 49985 54000 82430 92350 333 82640 84360;EQDQ01  00002PRCP99
0191407850999992000090706004+33980+051440FM-12+0982OIFK V0209999C000012200019N0150001N1+03001+01051100191ADDAA124000091GF102991021041012501001001MA1999999089891MD1210191+9999REMSYN094AAXX  07061 40785 32665 20000 10300 20105 38989 40019 52019 82400 90550 333 30021 51031 70000;EQDQ01  00002PRCP24
0171407850999992000090709004+33980+051440FM-12+0982OIFK V0200301N002012200019N0150001N1+03441+01161100021ADDGA1021+012009069GF104991021041012501031001MA1999999089781MD1810111+9999REMSYN088AAXX  07091 40785 42665 40302 10344 20116 38978 40002 58011 82430 90850 333 82640 84536;
0201407850999992000090712004+33980+051440FM-12+0982OIFK V0209999C00001036001CN0150001N1+03801+01241099751ADDAA199000091GA1041+012009069GF105991041041012501031001MA1999999089591MD1710191+9999REMSYN088AAXX  07121 40785 32665 50000 10380 20124 38959 49975 57019 84430 91150 333 84640 85360;EQDQ01  00002PRCP99
0190407850999992000090715004+33980+051440FM-12+0982OIFK V0209999C000012200019N0150001N1+03521+01271099821ADDGA1011+012009069GF103991011041012501031001KA1120M+03901MA1999999089551MD1610031+9999REMSYN094AAXX  07151 40785 42665 30000 10352 20127 38955 49982 56003 81430 91450 333 10390 81640 83360;
0201407850999992000090718004+33980+051440FM-12+0982OIFK V0209999C00001036001CN0150001N1+03201+01111099931ADDAA199000091GA1031+012009069GF106991031041012501031001MA1999999089671MD1210121+9999REMSYN088AAXX  07181 40785 32665 60000 10320 20111 38967 49993 52012 83430 91750 333 83640 86360;EQDQ01  00002PRCP99
0195407850999992000090800004+33980+051440FM-12+0982OIFK V0209999C000012200019N0150001N1+02921+00981099921ADDAA199000091GA1021+012009059GF102991021021012501001001MA1999999089671MD1410001+9999REMSYN082AAXX  08001 40785 32665 20000 10292 20098 38967 49992 54000 82200 92350 333 82640;EQDQ01  00002PRCP99
0213407850999992000090806004+33980+051440FM-12+0982OIFK V0200201N002012200019N0150001N1+03161+00791100481ADDAA124000091GA1011+012009059GF101991011041012501001001MA1999999090171MD1210211+9999REMSYN100AAXX  08061 40785 32665 10202 10316 20079 39017 40048 52021 81400 90550 333 30022 51101 70000 81640;EQDQ01  00002PRCP24
0195407850999992000090812004+33980+051440FM-12+0982OIFK V0209999C000012200019N0150001N1+03921+01221100171ADDAA199000091GA1021+012009059GF102991021041012501001001MA1999999089941MD1710181+9999REMSYN082AAXX  08121 40785 32665 20000 10392 20122 38994 40017 57018 82400 91150 333 82640;EQDQ01  00002PRCP99
0189407850999992000090818004+33980+051440FM-12+0982OIFK V0209999C000012200019N0150001N1+03081+01011100361ADDAA199000091GA1001+999999999GF100991001001999999001001MA1999999090041MD1310101+9999REMSYN076AAXX  08181 40785 32965 00000 10308 20101 39004 40036 53010 91750 333 55103;EQDQ01  00002PRCP99
0183407850999992000090900004+33980+051440FM-12+0982OIFK V0209999C000012200019N0150001N1+02801+01081100291ADDAA199000091GA1001+999999999GF100991001001999999001001MA1999999090041MD1410001+9999REMSYN070AAXX  09001 40785 32965 00000 10280 20108 39004 40029 54000 92350 333;EQDQ01  00002PRCP99
0172407850999992000090903004+33980+051440FM-12+0982OIFK V0209999C000012200019N0150001N1+02421+00741100731ADDGA1001+999999999GF100991001001999999001001KA1999N+02221MA1999999090361MD1210321+9999REMSYN076AAXX  09031 40785 42965 00000 10242 20074 39036 40073 52032 90250 333 20222;
0201407850999992000090906004+33980+051440FM-12+0982OIFK V0200101N002012200019N0150001N1+03241+00801100851ADDAA124000091GA1001+999999999GF100991001001999999001001MA1999999090461MD1210101+9999REMSYN088AAXX  09061 40785 32965 00102 10324 20080 39046 40085 52010 90546 333 30020 51161 70000;EQDQ01  00002PRCP24
0153407850999992000090909004+33980+051440FM-12+0982OIFK V0209999C000012200019N0150001N1+03661+01061100651ADDGA1001+999999999GF100991001001999999001001MA1999999090331MD1810131+9999REMSYN070AAXX  09091 40785 42965 00000 10366 20106 39033 40065 58013 90845 333;
0172407850999992000090915004+33980+051440FM-12+0982OIFK V0209999C000012200019N9999999N1+03701+01101100391ADDGA1001+999999999GF100991001001999999001001KA1999M+04101MA1999999090011MD1710101+9999REMSYN076AAXX  09151 40785 2/65/ 00000 10370 20110 39001 40039 57010 91446 333 10410;
0189407850999992000090918004+33980+051440FM-12+0982OIFK V0201201N002012200019N0150001N1+03181+00681100531ADDAA199000091GA1001+999999999GF100991001001999999001001MA1999999090171MD1210161+9999REMSYN076AAXX  09181 40785 32965 01202 10318 20068 39017 40053 52016 91745 333 55107;EQDQ01  00002PRCP99
0153407850999992000090921004+33980+051440FM-12+0982OIFK V0209999C000012200019N0150001N1+02961+00681100411ADDGA1001+999999999GF100991001001999999001001MA1999999090111MD1810061+9999REMSYN070AAXX  09211 40785 42965 00000 10296 20068 39011 40041 58006 92040 333;
0183407850999992000091000004+33980+051440FM-12+0982OIFK V0209999C000012200019N0150001N1+02281+00661100421ADDAA199000091GA1001+999999999GF100991001001999999001001MA1999999090071MD1710041+9999REMSYN070AAXX  10001 40785 32965 00000 10228 20066 39007 40042 57004 92346 333;EQDQ01  00002PRCP99
0172407850999992000091003004+33980+051440FM-12+0982OIFK V0209999C000012200019N0150001N1+02161+00631100551ADDGA1001+999999999GF100991001001999999001001KA1999N+02051MA1999999090131MD1310061+9999REMSYN076AAXX  10031 40785 42965 00000 10216 20063 39013 40055 53006 90245 333 20205;
0201407850999992000091006004+33980+051440FM-12+0982OIFK V0209999C000012200019N0150001N1+02921+00531100591ADDAA124000091GA1001+999999999GF100991001001999999001001MA1999999090211MD1210081+9999REMSYN088AAXX  10061 40785 32965 00000 10292 20053 39021 40059 52008 90550 333 30018 51101 70000;EQDQ01  00002PRCP24
0153407850999992000091009004+33980+051440FM-12+0982OIFK V0209999C000012200019N0150001N1+03421+01011100311ADDGA1001+999999999GF100991001001999999001001MA1999999090021MD1710191+9999REMSYN070AAXX  10091 40785 42965 00000 10342 20101 39002 40031 57019 90850 333;
0183407850999992000091012004+33980+051440FM-12+0982OIFK V0209999C000012200019N0150001N1+03901+01201099921ADDAA199000091GA1001+999999999GF100991001001999999001001MA1999999089661MD1710361+9999REMSYN070AAXX  10121 40785 32965 00000 10390 20120 38966 49992 57036 91150 333;EQDQ01  00002PRCP99
0184407850999992000091015004+33980+051440FM-12+0982OIFK V0209999C000012200019N0150001N1+03641+01031099841ADDGA1021+030009079GF102991021001999999031001KA1120M+04001MA1999999089511MD1610151+9999REMSYN088AAXX  10151 40785 42965 20000 10364 20103 38951 49984 56015 82030 91450 333 10400 82360;
0189407850999992000091018004+33980+051440FM-12+0982OIFK V0202601N003012200019N0150001N1+03041+00701099981ADDAA199000091GA1001+999999999GF100991001001999999001001MA1999999089651MD1310141+9999REMSYN076AAXX  10181 40785 32965 02603 10304 20070 38965 49998 53014 91750 333 55105;EQDQ01  00002PRCP99
0153407850999992000091021004+33980+051440FM-12+0982OIFK V0202701N002012200019N0150001N1+02861+00481099961ADDGA1001+999999999GF100991001001999999001001MA1999999089651MD1410001+9999REMSYN070AAXX  10211 40785 42965 02702 10286 20048 38965 49996 54000 92050 333;
0183407850999992000091100004+33980+051440FM-12+0982OIFK V0209999C000012200019N0150001N1+02541+00511100091ADDAA199000091GA1001+999999999GF100991001001999999001001MA1999999089841MD1210101+9999REMSYN070AAXX  11001 40785 32965 00000 10254 20051 38984 40009 52010 92350 333;EQDQ01  00002PRCP99
0172407850999992000091103004+33980+051440FM-12+0982OIFK V0209999C000012200019N0150001N1+01981+00761100341ADDGA1001+999999999GF100991001001999999001001KA1999N+01981MA1999999089921MD1210081+9999REMSYN076AAXX  11031 40785 42965 00000 10198 20076 38992 40034 52008 90250 333 20198;
0201407850999992000091106004+33980+051440FM-12+0982OIFK V0203601N004012200019N0150001N1+02641+00971100501ADDAA124000091GA1001+999999999GF100991001001999999001001MA1999999090091MD1210171+9999REMSYN088AAXX  11061 40785 32965 03604 10264 20097 39009 40050 52017 90550 333 30016 51001 70000;EQDQ01  00002PRCP24
0153407850999992000091109004+33980+051440FM-12+0982OIFK V0209999C000012200019N0150001N1+03061+00891100381ADDGA1001+999999999GF100991001001999999001001MA1999999090011MD1810081+9999REMSYN070AAXX  11091 40785 42965 00000 10306 20089 39001 40038 58008 90850 333;
0183407850999992000091112004+33980+051440FM-12+0982OIFK V0209999C000012200019N0150001N1+03401+01061100071ADDAA199000091GA1001+999999999GF100991001001999999001001MA1999999089721MD1710291+9999REMSYN070AAXX  11121 40785 32965 00000 10340 20106 38972 40007 57029 91150 333;EQDQ01  00002PRCP99
0172407850999992000091115004+33980+051440FM-12+0982OIFK V0209999C000012200019N0150001N1+03281+01141100061ADDGA1001+999999999GF100991001001999999001001KA1999M+03461MA1999999089631MD1710091+9999REMSYN076AAXX  11151 40785 42965 00000 10328 20114 38963 40006 57009 91450 333 10346;
0209407850999992000091118004+33980+051440FM-12+0982OIFK V0201201N003012200019N0150001N1+02981+00731100201ADDAA199000091GA1021+030009079GF102991021001999999031001GJ106309MA1999999089801MD1310171+9999REMSYN088AAXX  11181 40785 32965 21203 10298 20073 38980 40020 53017 82030 91750 333 55105 82360;EQDQ01  00002PRCP99
0153407850999992000091121004+33980+051440FM-12+0982OIFK V0200201N003012200019N0150001N1+02661+00481100191ADDGA1001+999999999GF100991001001999999001001MA1999999089801MD1410001+9999REMSYN070AAXX  11211 40785 42965 00203 10266 20048 38980 40019 54000 92050 333;
0183407850999992000091200004+33980+051440FM-12+0982OIFK V0209999C000012200019N0150001N1+02241+00701100281ADDAA199000091GA1001+999999999GF100991001001999999001001MA1999999089891MD1110091+9999REMSYN070AAXX  12001 40785 32965 00000 10224 20070 38989 40028 51009 92350 333;EQDQ01  00002PRCP99
0201407850999992000091206004+33980+051440FM-12+0982OIFK V0209999C000012200019N0150001N1+02561+01201100621ADDAA124000091GA1001+999999999GF100991001001999999001001MA1999999090121MD1310091+9999REMSYN088AAXX  12061 40785 32965 00000 10256 20120 39012 40062 53009 90550 333 30018 51021 70000;EQDQ01  00002PRCP24
0153407850999992000091209004+33980+051440FM-12+0982OIFK V0209999C000012200019N0150001N1+03041+01281100391ADDGA1001+999999999GF100991001001999999001001MA1999999089941MD1710181+9999REMSYN070AAXX  12091 40785 42965 00000 10304 20128 38994 40039 57018 90850 333;
0183407850999992000091212004+33980+051440FM-12+0982OIFK V0209999C000012200019N0150001N1+03421+01081100091ADDAA199000091GA1001+999999999GF100991001001999999001001MA1999999089661MD1710281+9999REMSYN070AAXX  12121 40785 32965 00000 10342 20108 38966 40009 57028 91150 333;EQDQ01  00002PRCP99
0189407850999992000091218004+33980+051440FM-12+0982OIFK V0209999C000012200019N0150001N1+02781+01131100241ADDAA199000091GA1001+999999999GF100991001001999999001001MA1999999089761MD1210151+9999REMSYN076AAXX  12181 40785 32965 00000 10278 20113 38976 40024 52015 91750 333 55106;EQDQ01  00002PRCP99
0153407850999992000091221004+33980+051440FM-12+0982OIFK V0209999C000012200019N0150001N1+02541+01161100251ADDGA1001+999999999GF100991001001999999001001MA1999999089791MD1110031+9999REMSYN070AAXX  12211 40785 42965 00000 10254 20116 38979 40025 51003 92050 333;
0183407850999992000091300004+33980+051440FM-12+0982OIFK V0209999C000012200019N0150001N1+02141+00951100251ADDAA199000091GA1001+999999999GF100991001001999999001001MA1999999089791MD1410001+9999REMSYN070AAXX  13001 40785 32965 00000 10214 20095 38979 40025 54000 92350 333;EQDQ01  00002PRCP99
0172407850999992000091303004+33980+051440FM-12+0982OIFK V0209999C000012200019N0150001N1+01941+00881100441ADDGA1001+999999999GF100991001001999999001001KA1999N+01901MA1999999089911MD1210121+9999REMSYN076AAXX  13031 40785 42965 00000 10194 20088 38991 40044 52012 90250 333 20190;
0201407850999992000091306004+33980+051440FM-12+0982OIFK V0209999C000012200019N0150001N1+02901+00931100471ADDAA124000091GA1001+999999999GF100991001001999999001001MA1999999090061MD1210151+9999REMSYN088AAXX  13061 40785 32965 00000 10290 20093 39006 40047 52015 90546 333 30016 50941 70000;EQDQ01  00002PRCP24
0201407850999992000091406004+33980+051440FM-12+0982OIFK V0209999C000012200019N0100001N1+03061+01011100651ADDAA124000091GA1001+999999999GF100991001001999999001001MA1999999090261MD1210171+9999REMSYN088AAXX  14061 40785 32960 00000 10306 20101 39026 40065 52017 90550 333 30016 51021 70000;EQDQ01  00002PRCP24
0153407850999992000091409004+33980+051440FM-12+0982OIFK V0209999C000012200019N0150001N1+03461+00831100511ADDGA1001+999999999GF100991001001999999001001MA1999999090151MD1810111+9999REMSYN070AAXX  14091 40785 42965 00000 10346 20083 39015 40051 58011 90850 333;
0183407850999992000091412004+33980+051440FM-12+0982OIFK V0209999C000012200019N0150001N1+03781+00951100321ADDAA199000091GA1001+999999999GF100991001001999999001001MA1999999089951MD1710201+9999REMSYN070AAXX  14121 40785 32965 00000 10378 20095 38995 40032 57020 91150 333;EQDQ01  00002PRCP99
0189407850999992000091418004+33980+051440FM-12+0982OIFK V0209999C000012200019N0150001N1+02841-00111100351ADDAA199000091GA1001+999999999GF100991001001999999001001MA1999999089981MD1110101+9999REMSYN076AAXX  14181 40785 32965 00000 10284 21011 38998 40035 51010 91750 333 55105;EQDQ01  00002PRCP99
0177407850999992000091500004+33980+051440FM-12+0982OIFK V0209999C000012200019N0150001N1+02321+00611999999ADDAA199000091GA1001+999999999GF100991001001999999001001MA1999999089961MD1410001+9999REMSYN064AAXX  15001 40785 32965 00000 10232 20061 38996 54000 92350 333;EQDQ01  00002PRCP99
0172407850999992000091503004+33980+051440FM-12+0982OIFK V0209999C000012200019N0150001N1+01901+00561100581ADDGA1001+999999999GF100991001001999999001001KA1999N+01861MA1999999090071MD1310111+9999REMSYN076AAXX  15031 40785 42965 00000 10190 20056 39007 40058 53011 90250 333 20186;
0201407850999992000091506004+33980+051440FM-12+0982OIFK V0209999C000012200019N0150001N1+02921+00781100761ADDAA124000091GA1001+999999999GF100991001001999999001001MA1999999090271MD1210201+9999REMSYN088AAXX  15061 40785 32965 00000 10292 20078 39027 40076 52020 90550 333 30017 51041 70000;EQDQ01  00002PRCP24
0153407850999992000091509004+33980+051440FM-12+0982OIFK V0209999C000012200019N0150001N1+03381+00911100491ADDGA1001+999999999GF100991001001999999001001MA1999999090071MD1710201+9999REMSYN070AAXX  15091 40785 42965 00000 10338 20091 39007 40049 57020 90850 333;
0172407850999992000091515004+33980+051440FM-12+0982OIFK V0209999C000012200019N0150001N1+03381+01041100161ADDGA1001+999999999GF100991001001999999001001KA1999M+03721MA1999999089671MD1710121+9999REMSYN076AAXX  15151 40785 42965 00000 10338 20104 38967 40016 57012 91450 333 10372;
0189407850999992000091518004+33980+051440FM-12+0982OIFK V0209999C000012200019N0150001N1+02741+00671100251ADDAA199000091GA1001+999999999GF100991001001999999001001MA1999999089821MD1210151+9999REMSYN076AAXX  15181 40785 32965 00000 10274 20067 38982 40025 52015 91750 333 55105;EQDQ01  00002PRCP99
0153407850999992000091521004+33980+051440FM-12+0982OIFK V0201201N003012200019N0150001N1+03081+00451100141ADDGA1001+999999999GF100991001001999999001001MA1999999089861MD1110041+9999REMSYN070AAXX  15211 40785 42965 01203 10308 20045 38986 40014 51004 92050 333;
0183407850999992000091600004+33980+051440FM-12+0982OIFK V0209999C000012200019N0150001N1+02821+00521100141ADDAA199000091GA1001+999999999GF100991001001999999001001MA1999999089861MD1410001+9999REMSYN070AAXX  16001 40785 32965 00000 10282 20052 38986 40014 54000 92350 333;EQDQ01  00002PRCP99
0172407850999992000091603004+33980+051440FM-12+0982OIFK V0209999C000012200019N0150001N1+02121+00291100521ADDGA1001+999999999GF100991001001999999001001KA1999N+02001MA1999999090031MD1210171+9999REMSYN076AAXX  16031 40785 42965 00000 10212 20029 39003 40052 52017 90250 333 20200;
0201407850999992000091606004+33980+051440FM-12+0982OIFK V0202201N002012200019N0150001N1+02961+00621100611ADDAA124000091GA1001+999999999GF100991001001999999001001MA1999999090171MD1210141+9999REMSYN088AAXX  16061 40785 32965 02202 10296 20062 39017 40061 52014 90550 333 30016 51061 70000;EQDQ01  00002PRCP24
0153407850999992000091609004+33980+051440FM-12+0982OIFK V0209999C000012200019N0150001N1+03301+00641100271ADDGA1001+999999999GF100991001001999999001001MA1999999089981MD1710191+9999REMSYN070AAXX  16091 40785 42965 00000 10330 20064 38998 40027 57019 90850 333;
0183407850999992000091612004+33980+051440FM-12+0982OIFK V0209999C000012200019N0150001N1+03561+00731100001ADDAA199000091GA1001+999999999GF100991001001999999001001MA1999999089751MD1710231+9999REMSYN070AAXX  16121 40785 32965 00000 10356 20073 38975 40000 57023 91150 333;EQDQ01  00002PRCP99
0172407850999992000091615004+33980+051440FM-12+0982OIFK V0209999C000012200019N0150001N1+03221+00631100161ADDGA1001+999999999GF100991001001999999001001KA1999M+03601MA1999999089701MD1610051+9999REMSYN076AAXX  16151 40785 42965 00000 10322 20063 38970 40016 56005 91450 333 10360;
0183407850999992000091700004+33980+051440FM-12+0982OIFK V0209999C000012200019N0150001N1+02201+00741100461ADDAA199000091GA1001+999999999GF100991001001999999001001MA1999999090041MD1310081+9999REMSYN070AAXX  17001 40785 32965 00000 10220 20074 39004 40046 53008 92350 333;EQDQ01  00002PRCP99
0172407850999992000091703004+33980+051440FM-12+0982OIFK V0209999C000012200019N0150001N1+02061+00631100671ADDGA1001+999999999GF100991001001999999001001KA1999N+02001MA1999999090161MD1210121+9999REMSYN076AAXX  17031 40785 42965 00000 10206 20063 39016 40067 52012 90250 333 20200;
0201407850999992000091706004+33980+051440FM-12+0982OIFK V0203201N002012200019N0150001N1+02781+00711100811ADDAA124000091GA1001+999999999GF100991001001999999001001MA1999999090331MD1210171+9999REMSYN088AAXX  17061 40785 32965 03202 10278 20071 39033 40081 52017 90546 333 30017 51001 70000;EQDQ01  00002PRCP24
0195407850999992000091712004+33980+051440FM-12+0982OIFK V0203201N003012200019N0150001N1+03721+00901100231ADDAA199000091GA1011+012009029GF101991011011012501001001MA1999999089871MD1710311+9999REMSYN082AAXX  17121 40785 32665 13203 10372 20090 38987 40023 57031 81100 91147 333 81840;EQDQ01  00002PRCP99
0172407850999992000091715004+33980+051440FM-12+0982OIFK V0200601N003012200019N0150001N1+03421+00661100241ADDGA1001+999999999GF100991001001999999001001KA1999M+03761MA1999999089801MD1610071+9999REMSYN076AAXX  17151 40785 42965 00603 10342 20066 38980 40024 56007 91446 333 10376;
0189407850999992000091718004+33980+051440FM-12+0982OIFK V0209999C000012200019N0150001N1+02841+00801100441ADDAA199000091GA1001+999999999GF100991001001999999001001MA1999999090001MD1210201+9999REMSYN076AAXX  17181 40785 32965 00000 10284 20080 39000 40044 52020 91747 333 55101;EQDQ01  00002PRCP99
0153407850999992000091721004+33980+051440FM-12+0982OIFK V0201501N003012200019N0150001N1+02881+00561100331ADDGA1001+999999999GF100991001001999999001001MA1999999090001MD1410001+9999REMSYN070AAXX  17211 40785 42965 01503 10288 20056 39000 40033 54000 92040 333;
0183407850999992000091800004+33980+051440FM-12+0982OIFK V0209999C000012200019N0150001N1+02761+00621100361ADDAA199000091GA1001+999999999GF100991001001999999001001MA1999999090001MD1410001+9999REMSYN070AAXX  18001 40785 32965 00000 10276 20062 39000 40036 54000 92345 333;EQDQ01  00002PRCP99
0172407850999992000091803004+33980+051440FM-12+0982OIFK V0209999C000012200019N0150001N1+01901+00481100681ADDGA1001+999999999GF100991001001999999001001KA1999N+01881MA1999999090191MD1210191+9999REMSYN076AAXX  18031 40785 42965 00000 10190 20048 39019 40068 52019 90247 333 20188;
0201407850999992000091806004+33980+051440FM-12+0982OIFK V0209999C000012200019N0150001N1+02901+00761100821ADDAA124000091GA1001+999999999GF100991001001999999001001MA1999999090331MD1210141+9999REMSYN088AAXX  18061 40785 32965 00000 10290 20076 39033 40082 52014 90550 333 30017 51021 70000;EQDQ01  00002PRCP24
0183407850999992000091812004+33980+051440FM-12+0982OIFK V0209999C000012200019N0150001N1+03561+00671100341ADDAA199000091GA1001+999999999GF100991001001999999001001MA1999999089961MD1710211+9999REMSYN070AAXX  18121 40785 32965 00000 10356 20067 38996 40034 57021 91150 333;EQDQ01  00002PRCP99
0189407850999992000091818004+33980+051440FM-12+0982OIFK V0209999C000012200019N0150001N1+02601+00551100451ADDAA199000091GA1001+999999999GF100991001001999999001001MA1999999090061MD1210161+9999REMSYN076AAXX  18181 40785 32965 00000 10260 20055 39006 40045 52016 91750 333 55103;EQDQ01  00002PRCP99
0153407850999992000091821004+33980+051440FM-12+0982OIFK V0209999C000012200019N0100001N1+02661+00421100481ADDGA1001+999999999GF100991001001999999001001MA1999999090641MD1410001+9999REMSYN070AAXX  18211 40785 42960 00000 10266 20042 39064 40048 54000 92050 333;
0183407850999992000091900004+33980+051440FM-12+0982OIFK V0209999C000012200019N0150001N1+02261+00481100591ADDAA199000091GA1001+999999999GF100991001001999999001001MA1999999090131MD1310071+9999REMSYN070AAXX  19001 40785 32965 00000 10226 20048 39013 40059 53007 92350 333;EQDQ01  00002PRCP99
0191407850999992000091903004+33980+051440FM-12+0982OIFK V0209999C000012200019N0150001N1+02161+00911100741ADDGA1001+999999999GF100991001001999999001001KA1999N+02141MA1999999999999MD1210161+9999REMSYN076AAXX  19031 40785 42965 00000 10216 20091 39166 40074 52016 90250 333 20214;EQDQ01 091663APOSP 
0217407850999992000091906004+33980+051440FM-12+0982OIFK V0209999C000012200019N0150001N1+02601+00881100911ADDAA124000091GA1001+999999999GF100991001001999999001001MA1999999090372MD1110101+9999REMSYN088AAXX  19061 40785 32965 00000 10260 20088 39037 40091 51010 90550 333 30015 50971 70000;EQDQ01+090373APOSP Q02  00002PRCP24
0183407850999992000091912004+33980+051440FM-12+0982OIFK V0200101N002012200019N0150001N1+03481+01131100451ADDAA199000091GA1001+999999999GF100991001001999999001001MA1999999090031MD1710241+9999REMSYN070AAXX  19121 40785 32965 00102 10348 20113 39003 40045 57024 91150 333;EQDQ01  00002PRCP99
0189407850999992000091918004+33980+051440FM-12+0982OIFK V0203601N002012200019N0150001N1+02861+01161100591ADDAA199000091GA1001+999999999GF100991001001999999001001MA1999999090131MD1310121+9999REMSYN076AAXX  19181 40785 32965 03602 10286 20116 39013 40059 53012 91750 333 55103;EQDQ01  00002PRCP99
0153407850999992000091921004+33980+051440FM-12+0982OIFK V0209999C000012200019N0150001N1+02661+01021100541ADDGA1001+999999999GF100991001001999999001001MA1999999090131MD1410001+9999REMSYN070AAXX  19211 40785 42965 00000 10266 20102 39013 40054 54000 92050 333;
0183407850999992000092000004+33980+051440FM-12+0982OIFK V0209999C000012200019N0150001N1+02421+01131100581ADDAA199000091GA1001+999999999GF100991001001999999001001MA1999999090131MD1410001+9999REMSYN070AAXX  20001 40785 32965 00000 10242 20113 39013 40058 54000 92350 333;EQDQ01  00002PRCP99
0184407850999992000092003004+33980+051440FM-12+0982OIFK V0209999C000012200019N0150001N1+02121+01031100981ADDGA1021+030009079GF102991021001999999031001KA1120N+02061MA1999999090471MD1210341+9999REMSYN088AAXX  20031 40785 42965 20000 10212 20103 39047 40098 52034 82030 90250 333 20206 82360;
0201407850999992000092006004+33980+051440FM-12+0982OIFK V0200101N002012200019N0150001N1+02661+01021101011ADDAA124000091GA1001+999999999GF100991001001999999001001MA1999999090521MD1110051+9999REMSYN088AAXX  20061 40785 32965 00102 10266 20102 39052 40101 51005 90550 333 30015 51001 70000;EQDQ01  00002PRCP24
0153407850999992000092009004+33980+051440FM-12+0982OIFK V0200601N005012200019N0150001N1+03041+01041100831ADDGA1001+999999999GF100991001001999999001001MA1999999090381MD1810141+9999REMSYN070AAXX  20091 40785 42965 00605 10304 20104 39038 40083 58014 90850 333;
0183407850999992000092012004+33980+051440FM-12+0982OIFK V0209999C000012200019N0150001N1+03281+01241100591ADDAA199000091GA1001+999999999GF100991001001999999001001MA1999999090171MD1710201+9999REMSYN070AAXX  20121 40785 32965 00000 10328 20124 39017 40059 57020 91150 333;EQDQ01  00002PRCP99
0184407850999992000092015004+33980+051440FM-12+0982OIFK V0209999C000012200019N0150001N1+03081+01171100541ADDGA1021+030009079GF102991021001999999031001KA1120M+03321MA1999999090041MD1610141+9999REMSYN088AAXX  20151 40785 42965 20000 10308 20117 39004 40054 56014 82030 91450 333 10332 82360;
0206407850999992000092018004+33980+051440FM-12+0982OIFK V0209999C000012200019N0100001N1+01762+99999100291ADDAA199000091GA1001+999999999GF100991001001999999001001MD1110031+9999REMSYN076AAXX  20181 40785 32960 00000 10176 21093 37723 40029 51003 91750 333 55094;EQDQ01-000933ATOD  Q02+077233APOSP Q03  00002PRCP99
0137407850999992000092021004+33980+051440FM-12+0982OIFK V0209999C000012200019N0150001N1+02641+01001100691ADDGF101991999999999999999999MA1999999090251MD1110101+9999REMSYN070AAXX  20211 40785 42965 10000 10264 20100 39025 40069 51010 92050 333;
0172407850999992000092103004+33980+051440FM-12+0982OIFK V0209999C000012200019N0150001N1+02061+00801100791ADDGA1001+999999999GF100991001001999999001001KA1999N+02001MA1999999090241MD1310081+9999REMSYN076AAXX  21031 40785 42965 00000 10206 20080 39024 40079 53008 90250 333 20200;
0201407850999992000092106004+33980+051440FM-12+0982OIFK V0209999C000012200019N0150001N1+02641+01091100821ADDAA124000091GA1001+999999999GF100991001001999999001001MA1999999090321MD1210081+9999REMSYN088AAXX  21061 40785 32965 00000 10264 20109 39032 40082 52008 90546 333 30018 50911 70000;EQDQ01  00002PRCP24
0153407850999992000092109004+33980+051440FM-12+0982OIFK V0209999C000012200019N0150001N1+03141+01101100541ADDGA1001+999999999GF100991001001999999001001MA1999999090151MD1710171+9999REMSYN070AAXX  21091 40785 42965 00000 10314 20110 39015 40054 57017 90845 333;
0195407850999992000092112004+33980+051440FM-12+0982OIFK V0209999C000012200019N0150001N1+03441+01151100331ADDAA199000091GA1031+012009059GF103991031041012501001001MA1999999089951MD1710201+9999REMSYN082AAXX  21121 40785 32665 30000 10344 20115 38995 40033 57020 83400 91146 333 83640;EQDQ01  00002PRCP99
0184407850999992000092115004+33980+051440FM-12+0982OIFK V0209999C000012200019N0150001N1+03161+01241100401ADDGA1031+012009059GF103991031041012501001001KA1120M+03501MA1999999089921MD1610031+9999REMSYN088AAXX  21151 40785 42665 30000 10316 20124 38992 40040 56003 83400 91445 333 10350 83640;
0209407850999992000092118004+33980+051440FM-12+0982OIFK V0202501N004012200019N0150001N1+02861+00931100401ADDAA199000091GA1031+012009059GF103991031041012501001001GJ105649MA1999999089961MD1310041+9999REMSYN088AAXX  21181 40785 32665 32504 10286 20093 38996 40040 53004 83400 91747 333 55094 83640;EQDQ01  00002PRCP99
0165407850999992000092121004+33980+051440FM-12+0982OIFK V0202601N002012200019N0150001N1+02561+00861100441ADDGA1031+012009059GF103991031041012501001001MA1999999090021MD1110061+9999REMSYN082AAXX  21211 40785 42665 32602 10256 20086 39002 40044 51006 83400 92040 333 83640;
0195407850999992000092200004+33980+051440FM-12+0982OIFK V0202801N002012200019N0150001N1+02261+00761100441ADDAA199000091GA1021+012009059GF102991021041012501001001MA1999999090021MD1410001+9999REMSYN082AAXX  22001 40785 32665 22802 10226 20076 39002 40044 54000 82400 92346 333 82640;EQDQ01  00002PRCP99
0172407850999992000092203004+33980+051440FM-12+0982OIFK V0209999C000012200019N0150001N1+02021+00951100721ADDGA1001+999999999GF100991001001999999001001KA1999N+02001MA1999999090201MD1310181+9999REMSYN076AAXX  22031 40785 42965 00000 10202 20095 39020 40072 53018 90246 333 20200;
0201407850999992000092206004+33980+051440FM-12+0982OIFK V0209999C000012200019N0150001N1+02761+00991100851ADDAA124000091GA1001+999999999GF100991001001999999001001MA1999999090371MD1210171+9999REMSYN088AAXX  22061 40785 32965 00000 10276 20099 39037 40085 52017 90550 333 30016 50861 70000;EQDQ01  00002PRCP24
0165407850999992000092209004+33980+051440FM-12+0982OIFK V0209999C000012200019N0150001N1+03201+01011100661ADDGA1011+012009029GF101991011011012501001001MA1999999090241MD1810131+9999REMSYN082AAXX  22091 40785 42665 10000 10320 20101 39024 40066 58013 81100 90850 333 81840;
0195407850999992000092212004+33980+051440FM-12+0982OIFK V0209999C000012200019N0150001N1+03401+01011100481ADDAA199000091GA1011+012009029GF101991011011012501001001MA1999999090061MD1710181+9999REMSYN082AAXX  22121 40785 32665 10000 10340 20101 39006 40048 57018 81100 91150 333 81840;EQDQ01  00002PRCP99
0190407850999992000092215004+33980+051440FM-12+0982OIFK V0209999C000012200019N0150001N1+03081+01041100561ADDGA1011+012009069GF103991011041012501031001KA1120M+03461MA1999999090041MD1610021+9999REMSYN094AAXX  22151 40785 42665 30000 10308 20104 39004 40056 56002 81430 91450 333 10346 81640 83360;
0209407850999992000092218004+33980+051440FM-12+0982OIFK V0209999C000012200019N0150001N1+02621+01031100631ADDAA199000091GA1021+030009079GF102991021001999999031001GJ106009MA1999999090161MD1110121+9999REMSYN088AAXX  22181 40785 32965 20000 10262 20103 39016 40063 51012 82030 91750 333 55100 82360;EQDQ01  00002PRCP99
0165407850999992000092221004+33980+051440FM-12+0982OIFK V0209999C000012200019N0150001N1+02541+00971100591ADDGA1021+030009079GF102991021001999999031001MA1999999090161MD1410001+9999REMSYN082AAXX  22211 40785 42965 20000 10254 20097 39016 40059 54000 82030 92050 333 82360;
0195407850999992000092300004+33980+051440FM-12+0982OIFK V0209999C000012200019N0150001N1+02481+00831100651ADDAA199000091GA1031+030009079GF103991031001999999031001MA1999999090261MD1810101+9999REMSYN082AAXX  23001 40785 32965 30000 10248 20083 39026 40065 58010 83030 92350 333 83360;EQDQ01  00002PRCP99
0184407850999992000092303004+33980+051440FM-12+0982OIFK V0209999C000012200019N0150001N1+02261+00551100921ADDGA1011+030009079GF101991011001999999031001KA1120N+02181MA1999999090371MD1310111+9999REMSYN088AAXX  23031 40785 42965 10000 10226 20055 39037 40092 53011 81030 90250 333 20218 81360;
0213407850999992000092306004+33980+051440FM-12+0982OIFK V0209999C000012200019N0150001N1+02601+00621101021ADDAA199000091GF101991999001999999031001IA1019IA2999+01909MA1999999090501MD1210131+9999REMSYN082AAXX  23061 40785 32965 10000 10260 20062 39050 40102 52013 83030 90550 333 30019;EQDQ01+000032SCOTLCQ02  00002PRCP99
0195407850999992000092312004+33980+051440FM-12+0982OIFK V0209999C000012200019N0150001N1+03441+01671100681ADDAA199000091GA1021+012009029GF102991021011012501001001MA1999999090151MD1710201+9999REMSYN082AAXX  23121 40785 32665 20000 10344 20167 39015 40068 57020 82100 91150 333 82840;EQDQ01  00002PRCP99
0172407850999992000092315004+33980+051440FM-12+0982OIFK V0209999C000012200019N0150001N1+03021+00911100661ADDGA1001+999999999GF100991001001999999001001KA1999M+03461MA1999999090151MD1410001+9999REMSYN076AAXX  23151 40785 42965 00000 10302 20091 39015 40066 54000 91450 333 10346;
0189407850999992000092318004+33980+051440FM-12+0982OIFK V0209999C000012200019N0150001N1+02621+00621100711ADDAA199000091GA1001+999999999GF100991001001999999001001MA1999999090231MD1310081+9999REMSYN076AAXX  23181 40785 32965 00000 10262 20062 39023 40071 53008 91750 333 55101;EQDQ01  00002PRCP99
0183407850999992000092400004+33980+051440FM-12+0982OIFK V0209999C000012200019N0150001N1+02261+00561100791ADDAA199000091GA1001+999999999GF100991001001999999001001MA1999999090231MD1410001+9999REMSYN070AAXX  24001 40785 32965 00000 10226 20056 39023 40079 54000 92350 333;EQDQ01  00002PRCP99
0172407850999992000092403004+33980+051440FM-12+0982OIFK V0209999C000012200019N0150001N1+02081+00511100891ADDGA1001+999999999GF100991001001999999001001KA1999N+01921MA1999999090331MD1310051+9999REMSYN076AAXX  24031 40785 42965 00000 10208 20051 39033 40089 53005 90250 333 20192;
0201407850999992000092406004+33980+051440FM-12+0982OIFK V0209999C000012200019N0150001N1+02541+00971101091ADDAA124000091GA1001+999999999GF100991001001999999001001MA1999999090471MD1210141+9999REMSYN088AAXX  24061 40785 32965 00000 10254 20097 39047 40109 52014 90550 333 30016 51021 70000;EQDQ01  00002PRCP24
0195407850999992000092412004+33980+051440FM-12+0982OIFK V0209999C000012200019N0150001N1+03401+00791100521ADDAA199000091GA1011+012009059GF101991011041012501001001MA1999999090051MD1710261+9999REMSYN082AAXX  24121 40785 32665 10000 10340 20079 39005 40052 57026 81400 91150 333 81640;EQDQ01  00002PRCP99
0184407850999992000092415004+33980+051440FM-12+0982OIFK V0209999C000012200019N0150001N1+03061+01191100561ADDGA1031+012009059GF103991031041012501001001KA1120M+03451MA1999999090001MD1610051+9999REMSYN088AAXX  24151 40785 42665 30000 10306 20119 39000 40056 56005 83400 91450 333 10345 83640;
0209407850999992000092418004+33980+051440FM-12+0982OIFK V0209999C000012200019N0150001N1+02521+00991100781ADDAA199000091GA1031+012009059GF103991031041012501001001GJ105709MA1999999090181MD1210181+9999REMSYN088AAXX  24181 40785 32665 30000 10252 20099 39018 40078 52018 83400 91750 333 55095 83640;EQDQ01  00002PRCP99
0165407850999992000092421004+33980+051440FM-12+0982OIFK V0209999C000012200019N0100001N1+02401+00771100701ADDGA1021+012009059GF102991021041012501001001MA1999999090181MD1410001+9999REMSYN082AAXX  24211 40785 42660 20000 10240 20077 39018 40070 54000 82400 92050 333 82640;
0183407850999992000092500004+33980+051440FM-12+0982OIFK V0209999C000012200019N0150001N1+02281+00961100821ADDAA199000091GA1001+999999999GF100991001001999999001001MA1999999090321MD1310141+9999REMSYN070AAXX  25001 40785 32965 00000 10228 20096 39032 40082 53014 92350 333;EQDQ01  00002PRCP99
0201407850999992000092506004+33980+051440FM-12+0982OIFK V0209999C000012200019N0150001N1+02421+01161101261ADDAA124000091GA1001+999999999GF100991001001999999001001MA1999999090631MD1110131+9999REMSYN088AAXX  25061 40785 32965 00000 10242 20116 39063 40126 51013 90550 333 30013 50931 70000;EQDQ01  00002PRCP24
0153407850999992000092509004+33980+051440FM-12+0982OIFK V0202201N002012200019N0150001N1+02801+00981101111ADDGA1001+999999999GF100991001001999999001001MA1999999090541MD1810091+9999REMSYN070AAXX  25091 40785 42965 02202 10280 20098 39054 40111 58009 90850 333;
0183407850999992000092512004+33980+051440FM-12+0982OIFK V0209999C000012200019N0150001N1+03141+01101100911ADDAA199000091GA1001+999999999GF100991001001999999001001MA1999999090401MD1710141+9999REMSYN070AAXX  25121 40785 32965 00000 10314 20110 39040 40091 57014 91150 333;EQDQ01  00002PRCP99
0189407850999992000092518004+33980+051440FM-12+0982OIFK V0209999C000012200019N0150001N1+02401+00861101151ADDAA199000091GA1001+999999999GF100991001001999999001001MA1999999090531MD1210161+9999REMSYN076AAXX  25181 40785 32965 00000 10240 20086 39053 40115 52016 91747 333 55095;EQDQ01  00002PRCP99
0153407850999992000092521004+33980+051440FM-12+0982OIFK V0209999C000012200019N0150001N1+02081+00831101161ADDGA1001+999999999GF100991001001999999001001MA1999999090531MD1410001+9999REMSYN070AAXX  25211 40785 42965 00000 10208 20083 39053 40116 54000 92040 333;
0183407850999992000092600004+33980+051440FM-12+0982OIFK V0209999C000012200019N0150001N1+02041+00781101121ADDAA199000091GA1001+999999999GF100991001001999999001001MA1999999090501MD1810031+9999REMSYN070AAXX  26001 40785 32965 00000 10204 20078 39050 40112 58003 92347 333;EQDQ01  00002PRCP99
0172407850999992000092603004+33980+051440FM-12+0982OIFK V0209999C000012200019N0150001N1+01701+00761101261ADDGA1001+999999999GF100991001001999999001001KA1999N+01641MA1999999090571MD1310071+9999REMSYN076AAXX  26031 40785 42965 00000 10170 20076 39057 40126 53007 90246 333 20164;
0201407850999992000092606004+33980+051440FM-12+0982OIFK V0209999C000012200019N0150001N1+02301+00831101291ADDAA124000091GA1001+999999999GF100991001001999999001001MA1999999090621MD1110051+9999REMSYN088AAXX  26061 40785 32965 00000 10230 20083 39062 40129 51005 90550 333 30013 50941 70000;EQDQ01  00002PRCP24
0165407850999992000092609004+33980+051440FM-12+0982OIFK V0200901N002012200019N0150001N1+02921+00981100951ADDGA1011+012009029GF101991011011012501001001MA1999999090361MD1710261+9999REMSYN082AAXX  26091 40785 42665 10902 10292 20098 39036 40095 57026 81100 90850 333 81840;
0195407850999992000092612004+33980+051440FM-12+0982OIFK V0209999C000012200019N0150001N1+03161+01021100581ADDAA199000091GA1011+012009029GF101991011011012501001001MA1999999090071MD1710291+9999REMSYN082AAXX  26121 40785 32665 10000 10316 20102 39007 40058 57029 81100 91150 333 81840;EQDQ01  00002PRCP99
0189407850999992000092618004+33980+051440FM-12+0982OIFK V0209999C000012200019N0150001N1+02301+01011100741ADDAA199000091GA1001+999999999GF100991001001999999001001MA1999999090121MD1110091+9999REMSYN076AAXX  26181 40785 32965 00000 10230 20101 39012 40074 51009 91750 333 55100;EQDQ01  00002PRCP99
0153407850999992000092621004+33980+051440FM-12+0982OIFK V0209999C000012200019N0150001N1+02181+00861100651ADDGA1001+999999999GF100991001001999999001001MA1999999090121MD1410001+9999REMSYN070AAXX  26211 40785 42965 00000 10218 20086 39012 40065 54000 92050 333;
0183407850999992000092700004+33980+051440FM-12+0982OIFK V0209999C000012200019N0150001N1+01921+00891100711ADDAA199000091GA1001+999999999GF100991001001999999001001MA1999999090221MD1410001+9999REMSYN070AAXX  27001 40785 32965 00000 10192 20089 39022 40071 54000 92350 333;EQDQ01  00002PRCP99
0172407850999992000092703004+33980+051440FM-12+0982OIFK V0209999C000012200019N0150001N1+01601+00611100911ADDGA1001+999999999GF100991001001999999001001KA1999N+01541MA1999999090261MD1210141+9999REMSYN076AAXX  27031 40785 42965 00000 10160 20061 39026 40091 52014 90250 333 20154;
0201407850999992000092706004+33980+051440FM-12+0982OIFK V0203601N002012200019N0150001N1+02501+00981101011ADDAA124000091GA1001+999999999GF100991001001999999001001MA1999999090391MD1210181+9999REMSYN088AAXX  27061 40785 32965 03602 10250 20098 39039 40101 52018 90550 333 30012 50731 70000;EQDQ01  00002PRCP24
0183407850999992000092712004+33980+051440FM-12+0982OIFK V0209999C000012200019N0150001N1+03421+00951100551ADDAA199000091GA1001+999999999GF100991001001999999001001MA1999999090061MD1710161+9999REMSYN070AAXX  27121 40785 32965 00000 10342 20095 39006 40055 57016 91150 333;EQDQ01  00002PRCP99
0184407850999992000092715004+33980+051440FM-12+0982OIFK V0209999C000019999999N0150001N1+02881+01041100671ADDGA1011+012009059GF105991011041012501001001KA1120M+03461MA1999999090021MD1610041+9999REMSYN088AAXX  27151 40785 42665 50000 10288 20104 39002 40067 56004 81400 91450 333 10346 81640;
0189407850999992000092718004+33980+051440FM-12+0982OIFK V0209999C000012200019N0150001N1+02441+00381100771ADDAA199000091GA1001+999999999GF100991001001999999001001MA1999999090181MD1210161+9999REMSYN076AAXX  27181 40785 32965 00000 10244 20038 39018 40077 52016 91750 333 55102;EQDQ01  00002PRCP99
0153407850999992000092721004+33980+051440FM-12+0982OIFK V0209999C000012200019N0150001N1+02301+00811100671ADDGA1001+999999999GF100991001001999999001001MA1999999090181MD1410001+9999REMSYN070AAXX  27211 40785 42965 00000 10230 20081 39018 40067 54000 92050 333;
0183407850999992000092800004+33980+051440FM-12+0982OIFK V0209999C000012200019N0150001N1+02061+00861100691ADDAA199000091GA1001+999999999GF100991001001999999001001MA1999999090381MD1410001+9999REMSYN070AAXX  28001 40785 32965 00000 10206 20086 39038 40069 54000 92350 333;EQDQ01  00002PRCP99
0190407850999992000092803004+33980+051440FM-12+0982OIFK V0209999C00001220001CN0150001N1+01961+00611100861ADDGA1021+012009089GF106991021011012501001011KA1120N+01961MA1999999090281MD1210101+9999REMSYN094AAXX  28031 40785 42665 60000 10196 20061 39028 40086 52010 82101 90250 333 20196 82840 86070;
0219407850999992000092806004+33980+051440FM-12+0982OIFK V0209999C000012200019N0150001N1+02821+00951100951ADDAA124000091GA1011+012009069GF103991011041012501031001MA1999999090411MD1210131+9999REMSYN106AAXX  28061 40785 32665 30000 10282 20095 39041 40095 52013 81430 90546 333 30018 50861 70000 81640 83360;EQDQ01  00002PRCP24
0171407850999992000092809004+33980+051440FM-12+0982OIFK V0209999C000012200019N0150001N1+03381+00931100671ADDGA1011+010509099GF104991041031012501001001MA1999999090231MD1810181+9999REMSYN088AAXX  28091 40785 42665 40000 10338 20093 39023 40067 58018 84300 90846 333 81935 83640;
0223407850999992000092812004+33980+051440FM-12+0982OIFK V0202401N00401036001CN0150001N1+03341+00821100501ADDAA199000091GA1011+010509099GA2021+012009069GF106991031031012501031001MA1999999090051MD1710181+9999REMSYN094AAXX  28121 40785 32665 62404 10334 20082 39005 40050 57018 83330 91147 333 81935 82640 86360;EQDQ01  00002PRCP99
0190407850999992000092815004+33980+051440FM-12+0982OIFK V0201701N003012200019N0150001N1+03201+00751100681ADDGA1021+012009069GF104991021041012501031001KA1120M+03451MA1999999090141MD1310091+9999REMSYN094AAXX  28151 40785 42665 41703 10320 20075 39014 40068 53009 82430 91450 333 10345 82640 83360;
0209407850999992000092818004+33980+051440FM-12+0982OIFK V0203101N003012200019N0150001N1+02781+00911100961ADDAA199000091GA1031+012009059GF103991031041012501001001GJ102649MA1999999090471MD1210331+9999REMSYN088AAXX  28181 40785 32665 33103 10278 20091 39047 40096 52033 83400 91750 333 55044 83640;EQDQ01  00002PRCP99
0165407850999992000092821004+33980+051440FM-12+0982OIFK V0203301N004012200019N0150001N1+02641+00921100981ADDGA1021+012009059GF102991021041012501001001MA1999999090561MD1110091+9999REMSYN082AAXX  28211 40785 42665 23304 10264 20092 39056 40098 51009 82400 92050 333 82640;
0183407850999992000092900004+33980+051440FM-12+0982OIFK V0209999C000012200019N0150001N1+02101+01041101071ADDAA199000091GA1001+999999999GF100991001001999999001001MA1999999090561MD1410001+9999REMSYN070AAXX  29001 40785 32965 00000 10210 20104 39056 40107 54000 92350 333;EQDQ01  00002PRCP99
0162407850999992000092903004+33980+051440FM-12+0982OIFK V0209999C000012200019N0150001N1+01821+00771101311ADDGF102991021001999999031001KA1999N+01761MA1999999090691MD1310131+9999REMSYN082AAXX  29031 40785 42965 20000 10182 20077 39069 40131 53013 82030 90250 333 20176;
0219407850999992000092906004+33980+051440FM-12+0982OIFK V0209999C00001036001CN0150001N1+02541+01111101361ADDAA124000091GA1031+012009069GF107991031041012501071001MA1999999090791MD1210101+9999REMSYN106AAXX  29061 40785 32665 70000 10254 20111 39079 40136 52010 83470 90550 333 30015 51001 70000 83640 87360;EQDQ01  00002PRCP24
0171407850999992000092909004+33980+051440FM-12+0982OIFK V0203301N00301036001CN0150001N1+03021+01141101211ADDGA1031+012009069GF105991031041012501031001MA1999999090691MD1810101+9999REMSYN088AAXX  29091 40785 42665 53303 10302 20114 39069 40121 58010 83430 90850 333 83640 85360;
0195407850999992000092912004+33980+051440FM-12+0982OIFK V0203001N002012200019N0150001N1+03101+01121101201ADDAA199000091GA1031+012009059GF103991031041012501001001MA1999999090611MD1610081+9999REMSYN082AAXX  29121 40785 32665 33002 10310 20112 39061 40120 56008 83400 91150 333 83640;EQDQ01  00002PRCP99
0212407850999992000092915004+33980+051440FM-12+0982OIFK V0203101N006012200019N0080001N1+02681+01081101431ADDAY121031AY221031GA1041+012009059GF104991041041012501001001KA1120M+03201MA1999999090741MD1310131+9999MW1071REMSYN094AAXX  29151 40785 41658 43106 10268 20108 39074 40143 53013 70722 84400 91447 333 10320 84640;
0189407850999992000092918004+33980+051440FM-12+0982OIFK V0209999C000012200019N0150001N1+02361+01201101571ADDAA199000091GA1001+999999999GF100991001001999999001001MA1999999090951MD1210211+9999REMSYN076AAXX  29181 40785 32965 00000 10236 20120 39095 40157 52021 91746 333 55063;EQDQ01  00002PRCP99
0153407850999992000092921004+33980+051440FM-12+0982OIFK V0209999C000012200019N0150001N1+02181+01011101411ADDGA1001+999999999GF100991001001999999001001MA1999999090811MD1710141+9999REMSYN070AAXX  29211 40785 42965 00000 10218 20101 39081 40141 57014 92040 333;
0183407850999992000093000004+33980+051440FM-12+0982OIFK V0209999C000012200019N0150001N1+02021+01061101461ADDAA199000091GA1001+999999999GF100991001001999999001001MA1999999090761MD1610051+9999REMSYN070AAXX  30001 40785 32965 00000 10202 20106 39076 40146 56005 92345 333;EQDQ01  00002PRCP99
0172407850999992000093003004+33980+051440FM-12+0982OIFK V0209999C000012200019N0150001N1+01841+00861101331ADDGA1001+999999999GF100991001001999999001001KA1999N+01721MA1999999090621MD1410001+9999REMSYN076AAXX  30031 40785 42965 00000 10184 20086 39062 40133 54000 90246 333 20172;
0213407850999992000093006004+33980+051440FM-12+0982OIFK V0209999C000012200019N0150001N1+02441+01121101331ADDAA124000091GA1021+030009079GF102991021001999999031001MA1999999090641MD1110021+9999REMSYN100AAXX  30061 40785 32965 20000 10244 20112 39064 40133 51002 82030 90550 333 30015 50981 70000 82360;EQDQ01  00002PRCP24
0171407850999992000093009004+33980+051440FM-12+0982OIFK V0209999C000012200019N0150001N1+02981+01041100981ADDGA1011+012009069GF104991011041012501031001MA1999999090371MD1710271+9999REMSYN088AAXX  30091 40785 42665 40000 10298 20104 39037 40098 57027 81430 90850 333 81640 83360;
0201407850999992000093012004+33980+051440FM-12+0982OIFK V0209999C000012200019N0120001N1+02841+01111100941ADDAA199000091GA1021+012009069GF104991021041012501031001MA1999999090271MD1810101+9999REMSYN088AAXX  30121 40785 32662 40000 10284 20111 39027 40094 58010 82430 91150 333 82640 83360;EQDQ01  00002PRCP99
0190407850999992000093015004+33980+051440FM-12+0982OIFK V0209999C00001036001CN0120001N1+02621+01181101001ADDGA1021+012009069GF105991021041012501021001KA1120M+03101MA1999999090321MD1310051+9999REMSYN094AAXX  30151 40785 42662 50000 10262 20118 39032 40100 53005 82420 91450 333 10310 82640 84360;
0215407850999992000093018004+33980+051440FM-12+0982OIFK V0209999C00001036001CN0120001N1+02281+01151100991ADDAA199000091GA1021+012009069GF107991021041012501051001GJ103729MA1999999090321MD1410001+9999REMSYN094AAXX  30181 40785 32662 70000 10228 20115 39032 40099 54000 82450 91750 333 55062 82640 86360;EQDQ01  00002PRCP99
0183407850999992000100100004+33980+051440FM-12+0982OIFK V0209999C000012200019N0150001N1+01901+00981100681ADDAA199000091GA1001+999999999GF100991001001999999001001MA1999999090051MD1710081+9999REMSYN070AAXX  01001 40785 32965 00000 10190 20098 39005 40068 57008 92350 333;EQDQ01  00002PRCP99
0172407850999992000100103004+33980+051440FM-12+0982OIFK V0209999C000012200019N0150001N1+01701+01011100931ADDGA1001+999999999GF100991001001999999001001KA1999N+01551MA1999999090201MD1310151+9999REMSYN076AAXX  01031 40785 42965 00000 10170 20101 39020 40093 53015 90250 333 20155;
0201407850999992000100106004+33980+051440FM-12+0982OIFK V0209999C000012200019N0150001N1+02141+01131101061ADDAA124000091GA1001+999999999GF100991001001999999001001MA1999999090381MD1110081+9999REMSYN088AAXX  01061 40785 32965 00000 10214 20113 39038 40106 51008 90550 333 30013 50921 70000;EQDQ01  00002PRCP24
0195407850999992000100112004+33980+051440FM-12+0982OIFK V0209999C000012200019N0150001N1+02801+01271100631ADDAA199000091GA1011+012009029GF101991011011012501001001MA1999999090051MD1710161+9999REMSYN082AAXX  01121 40785 32665 10000 10280 20127 39005 40063 57016 81100 91150 333 81840;EQDQ01  00002PRCP99
0190407850999992000100115004+33980+051440FM-12+0982OIFK V0209999C000012200019N0150001N1+02601+01111100691ADDGA1021+012009069GF104991021041012501001011KA1120M+02851MA1999999090021MD1610031+9999REMSYN094AAXX  01151 40785 42665 40000 10260 20111 39002 40069 56003 82401 91450 333 10285 82640 83070;
0209407850999992000100118004+33980+051440FM-12+0982OIFK V0209999C000012200019N0150001N1+02141+00951100911ADDAA199000091GA1031+060009019GF103991001001999999001011GJ105889MA1999999090221MD1210201+9999REMSYN088AAXX  01181 40785 32965 30000 10214 20095 39022 40091 52020 80001 91750 333 55098 83070;EQDQ01  00002PRCP99
0165407850999992000100121004+33980+051440FM-12+0982OIFK V0209999C000012200019N0150001N1+01921+00871101051ADDGA1021+060009019GF102991001001999999001011MA1999999090371MD1110151+9999REMSYN082AAXX  01211 40785 42965 20000 10192 20087 39037 40105 51015 80001 92050 333 82070;
0183407850999992000100200004+33980+051440FM-12+0982OIFK V0209999C000012200019N0150001N1+01641+00621101001ADDAA199000091GA1001+999999999GF100991001001999999001001MA1999999090301MD1610071+9999REMSYN070AAXX  02001 40785 32965 00000 10164 20062 39030 40100 56007 92350 333;EQDQ01  00002PRCP99
0172407850999992000100203004+33980+051440FM-12+0982OIFK V0209999C000012200019N0150001N1+01421+00591101191ADDGA1001+999999999GF100991001001999999001001KA1999N+01341MA1999999090421MD1310121+9999REMSYN076AAXX  02031 40785 42965 00000 10142 20059 39042 40119 53012 90250 333 20134;
0213407850999992000100206004+33980+051440FM-12+0982OIFK V0209999C000012200019N0150001N1+01901+00681101371ADDAA124000091GA1021+060009019GF102991001001999999001011MA1999999090591MD1210171+9999REMSYN100AAXX  02061 40785 32965 20000 10190 20068 39059 40137 52017 80001 90547 333 30011 50871 70000 82070;EQDQ01  00002PRCP24
0165407850999992000100209004+33980+051440FM-12+0982OIFK V0200901N002012200019N0150001N1+02121+00471101201ADDGA1031+012009059GF103991031041012501001001MA1999999090411MD1710181+9999REMSYN082AAXX  02091 40785 42665 30902 10212 20047 39041 40120 57018 83400 90846 333 83640;
0195407850999992000100212004+33980+051440FM-12+0982OIFK V0209999C000012200019N0150001N1+02401+00481101001ADDAA199000091GA1041+012009059GF104991041041012501001001MA1999999090251MD1710161+9999REMSYN082AAXX  02121 40785 32665 40000 10240 20048 39025 40100 57016 84400 91147 333 84640;EQDQ01  00002PRCP99
0190407850999992000100215004+33980+051440FM-12+0982OIFK V0200401N00301036001CN0150001N1+02381+00561101061ADDGA1031+012009069GF105991031041012501071001KA1120M+02461MA1999999090251MD1410001+9999REMSYN094AAXX  02151 40785 42665 50403 10238 20056 39025 40106 54000 83470 91450 333 10246 83640 85360;
0215407850999992000100218004+33980+051440FM-12+0982OIFK V0200801N00201036001CN0150001N1+02241+00541101161ADDAA199000091GA1031+012009069GF105991031041012501031001GJ105829MA1999999090391MD1210141+9999REMSYN094AAXX  02181 40785 32665 50802 10224 20054 39039 40116 52014 83430 91750 333 55097 83640 85360;EQDQ01  00002PRCP99
0153407850999992000100221004+33980+051440FM-12+0982OIFK V0202101N002012200019N0150001N1+02001+00521101141ADDGA1001+999999999GF100991001001999999001001MA1999999090391MD1410001+9999REMSYN070AAXX  02211 40785 42965 02102 10200 20052 39039 40114 54000 92050 333;
0184407850999992000100303004+33980+051440FM-12+0982OIFK V0209999C000010300019N0150001N1+01501+00301101371ADDGA1061+030009079GF106991061001999999031001KA1120N+01551MA1999999090571MD1210151+9999REMSYN088AAXX  03031 40785 42965 60000 10150 20030 39057 40137 52015 86030 90250 333 20155 86360;
0213407850999992000100306004+33980+051440FM-12+0982OIFK V0203501N002012200019N0150001N1+01821+00591101661ADDAA124000091GA1031+030009079GF103991031001999999031001MA1999999090811MD1210241+9999REMSYN100AAXX  03061 40785 32965 33502 10182 20059 39081 40166 52024 83030 90550 333 30013 50891 70000 83360;EQDQ01  00002PRCP24
0171407850999992000100309004+33980+051440FM-12+0982OIFK V0209999C00001090001CN0150001N1+02221+00611101451ADDGA1021+012009069GF105991021041012501031061MA1999999090641MD1710171+9999REMSYN088AAXX  03091 40785 42665 50000 10222 20061 39064 40145 57017 82436 90850 333 82640 84270;
0240407850999992000100315004+33980+051440FM-12+0982OIFK V0209999C00001036001CN0100001N1+01881+01191101541ADDAY181031AY221031GA1011+010509099GA2031+012009069GF107991041031012501031071KA1120M+02421MA1999999090541MD1110071+9999MW1021REMSYN106AAXX  03151 40785 41660 70000 10188 20119 39054 40154 51007 70282 84337 91441 333 10242 81935 83640 87270;
0252407850999992000100318004+33980+051440FM-12+0982OIFK V0209999C000010120019N0070001N1+01501+01141101751ADDAA106004191AY181061AY221061GA1031+010509099GA2031+012009069GF108991061091012501001071GJ103729MA1999999090721MD1310181+9999MW1811REMSYN112AAXX  03181 40785 11657 80000 10150 20114 39072 40175 53018 60041 78182 86907 91745 333 55062 83935 83640 88270;
0221407850999992000100321004+33980+051440FM-12+0982OIFK V0209999C000010120019N0060001N1+01381+01061101711ADDAY181031AY221031GA1041+010509099GA2031+012009069GF107991061091012501001071MA1999999090761MD1310041+9999MW1811REMSYN100AAXX  03211 40785 41656 70000 10138 20106 39076 40171 53004 78182 86907 92042 333 84935 83640 87270;
0238407850999992000100400004+33980+051440FM-12+0982OIFK V0209999C000010120019N0070001N1+01341+01161101671ADDAA106014091AY181061AY221061GA1031+010509099GA2031+012009069GF107991051091012501001071MA1999999090761MD1410001+9999MW1801REMSYN106AAXX  04001 40785 11657 70000 10134 20116 39076 40167 54000 60141 78082 85907 92347 333 83935 83640 87270;
0240407850999992000100403004+33980+051440FM-12+0982OIFK V0203501N003010120019N0060001N1+01161+01081101981ADDAY181031AY221031GA1031+010509099GA2031+012009069GF108991061091012501001071KA1120N+01101MA1999999090901MD1310141+9999MW1811REMSYN106AAXX  04031 40785 41656 83503 10116 20108 39090 40198 53014 78182 86907 90245 333 20110 83935 83640 88270;
0256407850999992000100406004+33980+051440FM-12+0982OIFK V0209999C000010120019N0070001N1+01181+01071102171ADDAA106007991AY181061AY221061GA1031+010509099GA2031+012009069GF107991061091012501001071MA1999999091061MD1210161+9999MW1801REMSYN124AAXX  04061 40785 11657 70000 10118 20107 39106 40217 52016 60081 78082 86907 90550 333 32011 50451 70025 83935 83640 87270;
0221407850999992000100409004+33980+051440FM-12+0982OIFK V0209999C00001220001CN0120001N1+01381+00991102151ADDAY181031AY221031GA1011+010509099GA2031+012009069GF106991041031012501001061MA1999999091051MD1810011+9999MW1021REMSYN100AAXX  04091 40785 41662 60000 10138 20099 39105 40215 58001 70282 84306 90850 333 81935 83640 86270;
0188407850999992000100412004+33980+051440FM-12+0982OIFK V0209999C00001220001CN0120001N1+01441+00931102061ADDAA106002091GA1041+010509069GF106991041041012501001061MA1999999090981MD1610071+9999REMSYN094AAXX  04121 40785 12662 60000 10144 20093 39098 40206 56007 60021 84406 91150 333 84635 86270;
0184407850999992000100415004+33980+051440FM-12+0982OIFK V0209999C000012200019N0120001N1+01401+00941102211ADDGA1041+012009059GF104991041041012501001001KA1120M+01951MA1999999091051MD1110071+9999REMSYN088AAXX  04151 40785 42662 40000 10140 20094 39105 40221 51007 84400 91450 333 10195 84640;
0190407850999992000100418004+33980+051440FM-12+0982OIFK V0209999C000012200019N0120001N1+01181+00991102401ADDAA199000021GA1011+012009059GF101991011041012501001001GJ100189MA1999999091191MD1210141+9999REMSYN088AAXX  04181 40785 32662 10000 10118 20099 39119 40240 52014 81400 91750 333 55003 81640;
0153407850999992000100421004+33980+051440FM-12+0982OIFK V0209999C000012200019N0120001N1+01061+00871102381ADDGA1001+999999999GF100991001001999999001001MA1999999091191MD1410001+9999REMSYN070AAXX  04211 40785 42962 00000 10106 20087 39119 40238 54000 92050 333;
0183407850999992000100500004+33980+051440FM-12+0982OIFK V0209999C000012200019N0150001N1+01021+00861102231ADDAA199000091GA1001+999999999GF100991001001999999001001MA1999999091071MD1810121+9999REMSYN070AAXX  05001 40785 32965 00000 10102 20086 39107 40223 58012 92350 333;EQDQ01  00002PRCP99
0194407850999992000100506004+33980+051440FM-12+0982OIFK V0209999C000012200019N0150001N1+01361+00961102351ADDAA124001591GA1021+012009029GF102991021011012501001001MA1999999091201MD1110071+9999REMSYN100AAXX  05061 40785 32665 20000 10136 20096 39120 40235 51007 82100 90550 333 30003 50281 70016 82840;
0165407850999992000100509004+33980+051440FM-12+0982OIFK V0200201N003012200019N0150001N1+01681+00871102201ADDGA1041+012009059GF104991041041012501001001MA1999999091091MD1810111+9999REMSYN082AAXX  05091 40785 42665 40203 10168 20087 39109 40220 58011 84400 90850 333 84640;
0195407850999992000100512004+33980+051440FM-12+0982OIFK V0209999C000012200019N0100001N1+01841+00781102101ADDAA199000091GA1041+012009059GF104991041041012501001001MA1999999091001MD1610091+9999REMSYN082AAXX  05121 40785 32660 40000 10184 20078 39100 40210 56009 84400 91150 333 84640;EQDQ01  00002PRCP99
0184407850999992000100515004+33980+051440FM-12+0982OIFK V0209999C000012200019N0150001N1+01741+00981102061ADDGA1021+012009059GF102991021041012501001001KA1120M+02001MA1999999090951MD1610051+9999REMSYN088AAXX  05151 40785 42665 20000 10174 20098 39095 40206 56005 82400 91450 333 10200 82640;
0215407850999992000100518004+33980+051440FM-12+0982OIFK V0209999C000012200019N0150001N1+01481+01041102151ADDAA199000091GA1021+012009069GF104991021041012501001011GJ105169MA1999999091071MD1310121+9999REMSYN094AAXX  05181 40785 32665 40000 10148 20104 39107 40215 53012 82401 91750 333 55086 82640 84070;EQDQ01  00002PRCP99
0153407850999992000100521004+33980+051440FM-12+0982OIFK V0209999C000012200019N0040001N1+01361+01041102101ADDGA1001+999999999GF100991001001999999001001MA1999999091071MD1410001+9999REMSYN070AAXX  05211 40785 /4296 00000 10136 20104 39107 40210 54000 92050 333;
0183407850999992000100600004+33980+051440FM-12+0982OIFK V0209999C000012200019N0150001N1+01221+01061102081ADDAA199000091GA1001+999999999GF100991001001999999001001MA1999999091071MD1410001+9999REMSYN070AAXX  06001 40785 32965 00000 10122 20106 39107 40208 54000 92350 333;EQDQ01  00002PRCP99
0172407850999992000100603004+33980+051440FM-12+0982OIFK V0209999C000012200019N0150001N1+01101+00751102191ADDGA1001+999999999GF100991001001999999001001KA1999N+01081MA1999999091101MD1310031+9999REMSYN076AAXX  06031 40785 42965 00000 10110 20075 39110 40219 53003 90250 333 20108;
0201407850999992000100606004+33980+051440FM-12+0982OIFK V0209999C000012200019N0150001N1+01621+00861102081ADDAA124000091GA1001+999999999GF100991001001999999001001MA1999999091181MD1210081+9999REMSYN088AAXX  06061 40785 32965 00000 10162 20086 39118 40208 52008 90546 333 30009 50301 70000;EQDQ01  00002PRCP24
0195407850999992000100612004+33980+051440FM-12+0982OIFK V0209999C000012200019N0150001N1+02161+00701101831ADDAA199000091GA1011+060009019GF101991001001999999001011MA1999999090851MD1710201+9999REMSYN082AAXX  06121 40785 32965 10000 10216 20070 39085 40183 57020 80001 91146 333 81070;EQDQ01  00002PRCP99
0172407850999992000100615004+33980+051440FM-12+0982OIFK V0209999C000012200019N0150001N1+02021+00761101881ADDGA1001+999999999GF100991001001999999001001KA1999M+02241MA1999999090841MD1610011+9999REMSYN076AAXX  06151 40785 42965 00000 10202 20076 39084 40188 56001 91450 333 10224;
0189407850999992000100618004+33980+051440FM-12+0982OIFK V0209999C000012200019N0100001N1+01561+01061102001ADDAA199000091GA1001+999999999GF100991001001999999001001MA1999999090951MD1110111+9999REMSYN076AAXX  06181 40785 32960 00000 10156 20106 39095 40200 51011 91750 333 55104;EQDQ01  00002PRCP99
0153407850999992000100621004+33980+051440FM-12+0982OIFK V0209999C000012200019N0150001N1+01561+00901101921ADDGA1001+999999999GF100991001001999999001001MA1999999090951MD1410001+9999REMSYN070AAXX  06211 40785 42965 00000 10156 20090 39095 40192 54000 92050 333;
0183407850999992000100700004+33980+051440FM-12+0982OIFK V0209999C000012200019N0150001N1+01281+00871101941ADDAA199000091GA1001+999999999GF100991001001999999001001MA1999999090951MD1410001+9999REMSYN070AAXX  07001 40785 32965 00000 10128 20087 39095 40194 54000 92350 333;EQDQ01  00002PRCP99
0201407850999992000100706004+33980+051440FM-12+0982OIFK V0209999C000012200019N0150001N1+01641+00701102171ADDAA124000091GA1001+999999999GF100991001001999999001001MA1999999091131MD1210091+9999REMSYN088AAXX  07061 40785 32965 00000 10164 20070 39113 40217 52009 90550 333 30008 50381 70000;EQDQ01  00002PRCP24
0153407850999992000100709004+33980+051440FM-12+0982OIFK V0209999C000012200019N0150001N1+02161+00731101941ADDGA1001+999999999GF100991001001999999001001MA1999999091021MD1710111+9999REMSYN070AAXX  07091 40785 42965 00000 10216 20073 39102 40194 57011 90850 333;
0183407850999992000100712004+33980+051440FM-12+0982OIFK V0209999C000012200019N0150001N1+02401+00651101761ADDAA199000091GA1001+999999999GF100991001001999999001001MA1999999090861MD1710161+9999REMSYN070AAXX  07121 40785 32965 00000 10240 20065 39086 40176 57016 91150 333;EQDQ01  00002PRCP99
0172407850999992000100715004+33980+051440FM-12+0982OIFK V0209999C000012200019N0150001N1+02201+00771101741ADDGA1001+999999999GF100991001001999999001001KA1999M+02501MA1999999090811MD1610051+9999REMSYN076AAXX  07151 40785 42965 00000 10220 20077 39081 40174 56005 91446 333 10250;
0189407850999992000100718004+33980+051440FM-12+0982OIFK V0209999C000012200019N0150001N1+01821+00851101881ADDAA199000091GA1001+999999999GF100991001001999999001001MA1999999090941MD1110131+9999REMSYN076AAXX  07181 40785 32965 00000 10182 20085 39094 40188 51013 91747 333 55105;EQDQ01  00002PRCP99
0153407850999992000100721004+33980+051440FM-12+0982OIFK V0209999C000012200019N0150001N1+01481+01001101851ADDGA1001+999999999GF100991001001999999001001MA1999999090941MD1410001+9999REMSYN070AAXX  07211 40785 42965 00000 10148 20100 39094 40185 54000 92041 333;
0183407850999992000100800004+33980+051440FM-12+0982OIFK V0209999C000012200019N0150001N1+01281+00871101731ADDAA199000091GA1001+999999999GF100991001001999999001001MA1999999090851MD1810091+9999REMSYN070AAXX  08001 40785 32965 00000 10128 20087 39085 40173 58009 92347 333;EQDQ01  00002PRCP99
0172407850999992000100803004+33980+051440FM-12+0982OIFK V0209999C000012200019N0150001N1+01241+00811101911ADDGA1001+999999999GF100991001001999999001001KA1999N+01141MA1999999090971MD1310121+9999REMSYN076AAXX  08031 40785 42965 00000 10124 20081 39097 40191 53012 90247 333 20114;
0183407850999992000100812004+33980+051440FM-12+0982OIFK V0200301N002012200019N0150001N1+02561+00101101541ADDAA199000091GA1001+999999999GF100991001001999999001001MA1999999090671MD1710251+9999REMSYN070AAXX  08121 40785 32965 00302 10256 20010 39067 40154 57025 91150 333;EQDQ01  00002PRCP99
0172407850999992000100815004+33980+051440FM-12+0982OIFK V0209999C000012200019N0150001N1+02381+00461101541ADDGA1001+999999999GF100991001001999999001001KA1999M+02661MA1999999090641MD1610031+9999REMSYN076AAXX  08151 40785 42965 00000 10238 20046 39064 40154 56003 91450 333 10266;
0183407850999992000100900004+33980+051440FM-12+0982OIFK V0209999C000012200019N0150001N1+01261+00921101461ADDAA199000091GA1001+999999999GF100991001001999999001001MA1999999090601MD1810041+9999REMSYN070AAXX  09001 40785 32965 00000 10126 20092 39060 40146 58004 92350 333;EQDQ01  00002PRCP99
0184407850999992000100903004+33980+051440FM-12+0982OIFK V0209999C000012200019N0150001N1+01181+00521101521ADDGA1021+030009079GF102991021001999999031001KA1120N+01161MA1999999090631MD1310041+9999REMSYN088AAXX  09031 40785 42965 20000 10118 20052 39063 40152 53004 82030 90250 333 20116 82360;
0153407850999992000100909004+33980+051440FM-12+0982OIFK V0209999C000012200019N0150001N1+02381+00141101401ADDGA1001+999999999GF100991001001999999001001MA1999999090521MD1710201+9999REMSYN070AAXX  09091 40785 42965 00000 10238 20014 39052 40140 57020 90850 333;
0195407850999992000100912004+33980+051440FM-12+0982OIFK V0209999C000012200019N0150001N1+02621+00081101181ADDAA199000091GA1011+012009059GF101991011041012501001001MA1999999090351MD1710171+9999REMSYN082AAXX  09121 40785 32665 10000 10262 20008 39035 40118 57017 81400 91150 333 81640;EQDQ01  00002PRCP99
0172407850999992000100915004+33980+051440FM-12+0982OIFK V0209999C000012200019N0150001N1+02301+00911101201ADDGA1001+999999999GF100991001001999999001001KA1999M+02701MA1999999090301MD1610051+9999REMSYN076AAXX  09151 40785 42965 00000 10230 20091 39030 40120 56005 91450 333 10270;
0189407850999992000100918004+33980+051440FM-12+0982OIFK V0209999C000012200019N0150001N1+01921+00351101261ADDAA199000091GA1001+999999999GF100991001001999999001001MA1999999090421MD1110121+9999REMSYN076AAXX  09181 40785 32965 00000 10192 20035 39042 40126 51012 91750 333 55104;EQDQ01  00002PRCP99
0183407850999992000101000004+33980+051440FM-12+0982OIFK V0209999C000012200019N0150001N1+01421+00531101231ADDAA199000091GA1001+999999999GF100991001001999999001001MA1999999090421MD1410001+9999REMSYN070AAXX  10001 40785 32965 00000 10142 20053 39042 40123 54000 92350 333;EQDQ01  00002PRCP99
0172407850999992000101003004+33980+051440FM-12+0982OIFK V0209999C000012200019N0150001N1+01341+00461101381ADDGA1001+999999999GF100991001001999999001001KA1999N+01201MA1999999090471MD1310061+9999REMSYN076AAXX  10031 40785 42965 00000 10134 20046 39047 40138 53006 90250 333 20120;
0201407850999992000101006004+33980+051440FM-12+0982OIFK V0209999C000012200019N0150001N1+02081+00241101341ADDAA124000091GA1001+999999999GF100991001001999999001001MA1999999090581MD1110101+9999REMSYN088AAXX  10061 40785 32965 00000 10208 20024 39058 40134 51010 90546 333 30009 50651 70000;EQDQ01  00002PRCP24
0153407850999992000101009004+33980+051440FM-12+0982OIFK V0209999C000012200019N0150001N1+02541-00061101201ADDGA1001+999999999GF100991001001999999001001MA1999999090431MD1710151+9999REMSYN070AAXX  10091 40785 42965 00000 10254 21006 39043 40120 57015 90846 333;
0183407850999992000101012004+33980+051440FM-12+0982OIFK V0209999C000012200019N0150001N1+02801+00081101061ADDAA199000091GA1001+999999999GF100991001001999999001001MA1999999090321MD1710111+9999REMSYN070AAXX  10121 40785 32965 00000 10280 20008 39032 40106 57011 91146 333;EQDQ01  00002PRCP99
0172407850999992000101015004+33980+051440FM-12+0982OIFK V0209999C000012200019N0150001N1+02361+00461101161ADDGA1001+999999999GF100991001001999999001001KA1999M+02851MA1999999090321MD1410001+9999REMSYN076AAXX  10151 40785 42965 00000 10236 20046 39032 40116 54000 91450 333 10285;
0189407850999992000101018004+33980+051440FM-12+0982OIFK V0209999C000012200019N0150001N1+01941+00491101231ADDAA199000091GA1001+999999999GF100991001001999999001001MA1999999090451MD1110131+9999REMSYN076AAXX  10181 40785 32965 00000 10194 20049 39045 40123 51013 91750 333 55102;EQDQ01  00002PRCP99
0153407850999992000101021004+33980+051440FM-12+0982OIFK V0209999C000012200019N0100001N1+01721+00641101131ADDGA1001+999999999GF100991001001999999001001MA1999999090401MD1810051+9999REMSYN070AAXX  10211 40785 42960 00000 10172 20064 39040 40113 58005 92050 333;
0183407850999992000101100004+33980+051440FM-12+0982OIFK V0209999C000012200019N0150001N1+01641+00231101131ADDAA199000091GA1001+999999999GF100991001001999999001001MA1999999090421MD1110021+9999REMSYN070AAXX  11001 40785 32965 00000 10164 20023 39042 40113 51002 92350 333;EQDQ01  00002PRCP99
0172407850999992000101103004+33980+051440FM-12+0982OIFK V0209999C000012200019N0150001N1+01421+00221101361ADDGA1001+999999999GF100991001001999999001001KA1999N+01301MA1999999090511MD1310091+9999REMSYN076AAXX  11031 40785 42965 00000 10142 20022 39051 40136 53009 90250 333 20130;
0201407850999992000101106004+33980+051440FM-12+0982OIFK V0209999C000012200019N0150001N1+02281+00081101431ADDAA124000091GA1001+999999999GF100991001001999999001001MA1999999090641MD1210131+9999REMSYN088AAXX  11061 40785 32965 00000 10228 20008 39064 40143 52013 90550 333 30009 50761 70000;EQDQ01  00002PRCP24
0195407850999992000101112004+33980+051440FM-12+0982OIFK V0209999C000012200019N0150001N1+02801-00171101101ADDAA199000091GA1021+012009059GF103991021041012501001011MA1999999090381MD1710121+9999REMSYN082AAXX  11121 40785 32665 30000 10280 21017 39038 40110 57012 82401 91150 333 82640;EQDQ01  00002PRCP99
0184407850999992000101115004+33980+051440FM-12+0982OIFK V0209999C000012200019N0150001N1+02301+00381101311ADDGA1021+012009059GF102991021041012501001001KA1120M+02951MA1999999090461MD1310081+9999REMSYN088AAXX  11151 40785 42665 20000 10230 20038 39046 40131 53008 82400 91446 333 10295 82640;
0192407850999992000101118004+33980+051440FM-12+0982OIFK V0209999C000012200019N0150001N1+02001+00321101301ADDAA199000091GF101991011041012501001001GJ105529MA1999999090541MD1110081+9999REMSYN087AAXX  11181 40785 32665 10000 10200 20032 39054 40130 51008 81400 1747 333 55092 81640;EQDQ01  00002PRCP99
0153407850999992000101121004+33980+051440FM-12+0982OIFK V0209999C000012200019N0150001N1+01921+00331101281ADDGA1001+999999999GF100991001001999999001001MA1999999090501MD1810041+9999REMSYN070AAXX  11211 40785 42965 00000 10192 20033 39050 40128 58004 92042 333;
0183407850999992000101200004+33980+051440FM-12+0982OIFK V0209999C000012200019N0100001N1+01541+00531101191ADDAA199000091GA1001+999999999GF100991001001999999001001MA1999999090451MD1610051+9999REMSYN070AAXX  12001 40785 32960 00000 10154 20053 39045 40119 56005 92346 333;EQDQ01  00002PRCP99
0172407850999992000101203004+33980+051440FM-12+0982OIFK V0209999C000012200019N0150001N1+01501+00551101341ADDGA1001+999999999GF100991001001999999001001KA1999N+01401MA1999999090501MD1310051+9999REMSYN076AAXX  12031 40785 42965 00000 10150 20055 39050 40134 53005 90247 333 20140;
0153407850999992000101209004+33980+051440FM-12+0982OIFK V0209999C000012200019N0150001N1+02801+00491100991ADDGA1001+999999999GF100991001001999999001001MA1999999090341MD1710191+9999REMSYN070AAXX  12091 40785 42965 00000 10280 20049 39034 40099 57019 90850 333;
0183407850999992000101212004+33980+051440FM-12+0982OIFK V0203401N005012200019N0150001N1+03001+00061100771ADDAA199000091GA1001+999999999GF100991001001999999001001MA1999999090111MD1710231+9999REMSYN070AAXX  12121 40785 32965 03405 10300 20006 39011 40077 57023 91150 333;EQDQ01  00002PRCP99
0172407850999992000101215004+33980+051440FM-12+0982OIFK V0209999C000012200019N0150001N1+02521+00261100831ADDGA1001+999999999GF100991001001999999001001KA1999M+03051MA1999999090091MD1610021+9999REMSYN076AAXX  12151 40785 42965 00000 10252 20026 39009 40083 56002 91450 333 10305;
0189407850999992000101218004+33980+051440FM-12+0982OIFK V0209999C000012200019N0150001N1+02261+00211100831ADDAA199000091GA1001+999999999GF100991001001999999001001MA1999999090251MD1210161+9999REMSYN076AAXX  12181 40785 32965 00000 10226 20021 39025 40083 52016 91750 333 55096;EQDQ01  00002PRCP99
0153407850999992000101221004+33980+051440FM-12+0982OIFK V0209999C000012200019N0150001N1+02041-00141100871ADDGA1001+999999999GF100991001001999999001001MA1999999090251MD1410001+9999REMSYN070AAXX  12211 40785 42965 00000 10204 21014 39025 40087 54000 92050 333;
0183407850999992000101300004+33980+051440FM-12+0982OIFK V0209999C000012200019N0150001N1+01701+00221101061ADDAA199000091GA1001+999999999GF100991001001999999001001MA1999999090401MD1210151+9999REMSYN070AAXX  13001 40785 32965 00000 10170 20022 39040 40106 52015 92350 333;EQDQ01  00002PRCP99
0191407850999992000101306004+33980+051440FM-12+0982OIFK V0209999C000012200019N0150001N1+02201+00361101241ADDAA124000091GF102991001001999999001011MA1999999090531MD1210131+9999REMSYN094AAXX  13061 40785 32965 20000 10220 20036 39053 40124 52013 80001 90550 333 30011 50721 70000;EQDQ01  00002PRCP24
0165407850999992000101309004+33980+051440FM-12+0982OIFK V0209999C000012200019N0150001N1+02521+00261101101ADDGA1011+060009019GF101991001001999999001011MA1999999090401MD1710131+9999REMSYN082AAXX  13091 40785 42965 10000 10252 20026 39040 40110 57013 80001 90850 333 81070;
0183407850999992000101312004+33980+051440FM-12+0982OIFK V0209999C000012200019N0150001N1+02781+00351100871ADDAA199000091GA1001+999999999GF100991001001999999001001MA1999999090201MD1710201+9999REMSYN070AAXX  13121 40785 32965 00000 10278 20035 39020 40087 57020 91150 333;EQDQ01  00002PRCP99
0203407850999992000101318004+33980+051440FM-12+0982OIFK V0209999C000012200019N0150001N1+01961+00561100961ADDAA199000091GA1021+060009019GF102991999999999999999999GJ105349MA1999999090221MD1110071+9999REMSYN082AAXX  13181 40785 32965 20000 10196 20056 39022 40096 51007 91750 333 55089 82070;EQDQ01  00002PRCP99
0165407850999992000101321004+33980+051440FM-12+0982OIFK V0209999C000012200019N0150001N1+01701+00641100931ADDGA1031+060009019GF103991001001999999001011MA1999999090221MD1410001+9999REMSYN082AAXX  13211 40785 42965 30000 10170 20064 39022 40093 54000 80001 92050 333 83070;
0195407850999992000101400004+33980+051440FM-12+0982OIFK V0209999C000012200019N0150001N1+01541+00421100991ADDAA199000091GA1021+060009019GF102991001001999999001011MA1999999090281MD1110061+9999REMSYN082AAXX  14001 40785 32965 20000 10154 20042 39028 40099 51006 80001 92350 333 82070;EQDQ01  00002PRCP99
0172407850999992000101403004+33980+051440FM-12+0982OIFK V0209999C000012200019N0150001N1+01241+00561101231ADDGA1001+999999999GF100991001001999999001001KA1999N+01201MA1999999090371MD1310091+9999REMSYN076AAXX  14031 40785 42965 00000 10124 20056 39037 40123 53009 90250 333 20120;
0207407850999992000101406004+33980+051440FM-12+0982OIFK V0200601N003012200019N0150001N1+01881+00461101301ADDAA124000091GA1021+060009019GF102991001001999999001011MA1999999090481MD1110111+9999REMSYN094AAXX  14061 40785 32965 20603 10188 20046 39048 40130 51011 80001 333 30009 50611 70000 82070;EQDQ01  00002PRCP24
0223407850999992000101412004+33980+051440FM-12+0982OIFK V0209999C00001036001CN0120001N1+02181+00441101291ADDAA199000091GA1011+010509099GA2031+012009069GF108991041031012501011999MA1999999090441MD1610021+9999REMSYN094AAXX  14121 40785 32662 80000 10218 20044 39044 40129 56002 8431/ 91146 333 81935 83640 88460;EQDQ01  00002PRCP99
0190407850999992000101415004+33980+051440FM-12+0982OIFK V0209999C00001036001CN0100001N1+01781+01041101501ADDGA1031+012009069GF105991031041012501031001KA1120M+02341MA1999999090521MD1110081+9999REMSYN094AAXX  14151 40785 42660 50000 10178 20104 39052 40150 51008 83430 91450 333 10234 83640 85360;
0202407850999992000101418004+33980+051440FM-12+0982OIFK V0202701N002012200019N0100001N1+01601+00721101521ADDAA106000191GA1011+012009069GF103991011041012501031001GJ103249MA1999999090621MD1310101+9999REMSYN100AAXX  14181 40785 12660 32702 10160 20072 39062 40152 53010 69911 81430 91750 333 55054 81640 83360;
0171407850999992000101421004+33980+051440FM-12+0982OIFK V0209999C000012200019N0100001N1+01421+00721101491ADDGA1021+012009069GF103991021041012501031001MA1999999090621MD1410001+9999REMSYN088AAXX  14211 40785 42660 30000 10142 20072 39062 40149 54000 82430 92050 333 82640 83360;
0240407850999992000101503004+33980+051440FM-12+0982OIFK V0209999C00001036001CN0080001N1+01381+00741101721ADDAY151031AY221031GA1011+009009099GA2031+010509069GF108991041031008001021999KA1120N+01281MA1999999090741MD1310121+9999MW1511REMSYN106AAXX  15031 40785 41558 80000 10138 20074 39074 40172 53012 75152 8432/ 90250 333 20128 81930 83635 88559;
0193407850999992000101509004+33980+051440FM-12+0982OIFK V0203401N002010120019N0100001N1+01361+00811102131ADDGA1021+010509099GA2031+012009069GF107991051031012501011001MA1999999090981MD1410001+9999REMSYN094AAXX  15091 40785 42660 73402 10136 20081 39098 40213 54000 85310 90850 333 82935 83640 87460;
0190407850999992000101515004+33980+051440FM-12+0982OIFK V0209999C00001036001CN0100001N1+01181+00961102431ADDGA1041+012009069GF108991041041012501011999KA1120M+01441MA1999999091121MD1110071+9999REMSYN094AAXX  15151 40785 42660 80000 10118 20096 39112 40243 51007 8441/ 91445 333 10144 84640 88460;
0230407850999992000101518004+33980+051440FM-12+0982OIFK V0209999C00001036001CN0100001N1+01161+00971102501ADDAA106001091AY161061AY221061GA1041+012009069GF108991041041012501011999GJ100189MA1999999091271MD1210151+9999MW1021REMSYN106AAXX  15181 40785 11660 80000 10116 20097 39127 40250 52015 60011 70262 8441/ 91748 333 55003 84640 88460;
0171407850999992000101521004+33980+051440FM-12+0982OIFK V0209999C00001036001CN0100001N1+01201+01011102301ADDGA1041+012009069GF108991041041012501011999MA1999999091271MD1410001+9999REMSYN088AAXX  15211 40785 42660 80000 10120 20101 39127 40230 54000 8441/ 92041 333 84640 88460;
0201407850999992000101600004+33980+051440FM-12+0982OIFK V0209999C00001036001CN0100001N1+01201+01011102381ADDAA199000091GA1041+012009069GF108991041041012501011999MA1999999091141MD1710131+9999REMSYN088AAXX  16001 40785 32660 80000 10120 20101 39114 40238 57013 8441/ 92345 333 84640 88460;EQDQ01  00002PRCP99
0190407850999992000101603004+33980+051440FM-12+0982OIFK V0209999C00001036001CN0100001N1+01181+00991102501ADDGA1031+012009069GF108991031041012501011999KA1120N+01101MA1999999091251MD1310111+9999REMSYN094AAXX  16031 40785 42660 80000 10118 20099 39125 40250 53011 8341/ 90245 333 20110 83640 88460;
0200407850999992000101606004+33980+051440FM-12+0982OIFK V0209999C00001036001CN0100001N1+01301+01001102571ADDAA124001091GA1041+012009069GF108991041041012501011999MA1999999091381MD1210131+9999REMSYN106AAXX  16061 40785 32660 80000 10130 20100 39138 40257 52013 8441/ 90550 333 30010 50241 70011 84640 88460;
0193407850999992000101609004+33980+051440FM-12+0982OIFK V0209999C00001036001CN0100001N1+01441+01081102381ADDGA1011+010509099GA2031+012009069GF108991041031012501011999MA1999999091241MD1710141+9999REMSYN094AAXX  16091 40785 42660 80000 10144 20108 39124 40238 57014 8431/ 90850 333 81935 83640 88460;
0201407850999992000101612004+33980+051440FM-12+0982OIFK V0209999C00001036001CN0100001N1+01461+01101102271ADDAA199000091GA1031+012009069GF107991031041012501011001MA1999999091151MD1710091+9999REMSYN088AAXX  16121 40785 32660 70000 10146 20110 39115 40227 57009 83410 91150 333 83640 87460;EQDQ01  00002PRCP99
0218407850999992000101615004+33980+051440FM-12+0982OIFK V0209999C00001036001CN0100001N1+01341+01161102201ADDAY161031AY221031GA1021+012009069GF106991021041012501011001KA1120M+01601MA1999999091061MD1810091+9999MW1011REMSYN100AAXX  16151 40785 41660 60000 10134 20116 39106 40220 58009 70162 82410 91450 333 10160 82640 86460;
0202407850999992000101618004+33980+051440FM-12+0982OIFK V0209999C00001036001CN0100001N1+01341+01191102281ADDAA106000591GA1021+012009069GF105991021041012501031001GJ100009MA1999999091181MD1110121+9999REMSYN100AAXX  16181 40785 12660 50000 10134 20119 39118 40228 51012 69951 82430 91750 333 55000 82640 84360;
0171407850999992000101621004+33980+051440FM-12+0982OIFK V0209999C00001036001CN0100001N1+01281+01131102171ADDGA1021+012009069GF106991021041012501011001MA1999999091061MD1610121+9999REMSYN088AAXX  16211 40785 42660 60000 10128 20113 39106 40217 56012 82410 92050 333 82640 86460;
0201407850999992000101700004+33980+051440FM-12+0982OIFK V0209999C00001036001CN0100001N1+01301+01121102001ADDAA199000091GA1031+012009069GF107991031041012501011001MA1999999090931MD1710131+9999REMSYN088AAXX  17001 40785 32660 70000 10130 20112 39093 40200 57013 83410 92350 333 83640 87460;EQDQ01  00002PRCP99
0190407850999992000101703004+33980+051440FM-12+0982OIFK V0209999C00001036001CN0100001N1+01261+01071102091ADDGA1031+012009069GF108991031041012501011999KA1120N+01241MA1999999090981MD1710051+9999REMSYN094AAXX  17031 40785 42660 80000 10126 20107 39098 40209 57005 8341/ 90250 333 20124 83640 88460;
0201407850999992000101712004+33980+051440FM-12+0982OIFK V0209999C00001220001CN0100001N1+01921+01031101421ADDAA199000091GA1011+012009069GF105991021041012501001011MA1999999090491MD1710261+9999REMSYN088AAXX  17121 40785 32660 50000 10192 20103 39049 40142 57026 82401 91150 333 81640 85070;EQDQ01  00002PRCP99
0212407850999992000101715004+33980+051440FM-12+0982OIFK V0203501N003010300019N0120001N1+01541+01221101691ADDGA1041+012009069GA2051+030009039GF107991041041012501071011KA1120M+02041MA1999999090651MD1210161+9999REMSYN100AAXX  17151 40785 42662 73503 10154 20122 39065 40169 52016 84471 91450 333 10204 84640 85360 87070;
0209407850999992000101718004+33980+051440FM-12+0982OIFK V0209999C000012200019N0120001N1+01401+01181101571ADDAA199000091GA1041+012009059GF104991041041012501001001GJ101869MA1999999090551MD1810101+9999REMSYN088AAXX  17181 40785 32662 40000 10140 20118 39055 40157 58010 84400 91150 333 55031 84640;EQDQ01  00002PRCP99
0171407850999992000101721004+33980+051440FM-12+0982OIFK V0209999C00001036001CN0120001N1+01421+01171101491ADDGA1041+012009069GF105991031041012501031001MA1999999090551MD1410001+9999REMSYN088AAXX  17211 40785 42662 50000 10142 20117 39055 40149 54000 83430 91450 333 84640 85360;
0201407850999992000101800004+33980+051440FM-12+0982OIFK V0209999C00001036001CN0100001N1+01301+01181101501ADDAA199000091GA1031+012009069GF105991031041012501031001MA1999999090551MD1410001+9999REMSYN088AAXX  18001 40785 32660 50000 10130 20118 39055 40150 54000 83430 92350 333 83640 85360;EQDQ01  00002PRCP99
0190407850999992000101803004+33980+051440FM-12+0982OIFK V0202601N002012200019N0120001N1+01241+00941101571ADDGA1011+012009069GF104991011041012501001011KA1120N+01161MA1999999090551MD1410001+9999REMSYN094AAXX  18031 40785 42662 42602 10124 20094 39055 40157 54000 81401 90250 333 20116 81640 84070;
0201407850999992000101806004+33980+051440FM-12+0982OIFK V0209999C000012200019N0150001N1+01821+01031101701ADDAA124000091GA1001+999999999GF100991001001999999001001MA1999999090671MD1310121+9999REMSYN088AAXX  18061 40785 32965 00000 10182 20103 39067 40170 53012 90546 333 30009 50241 70000;EQDQ01  00002PRCP24
0165407850999992000101809004+33980+051440FM-12+0982OIFK V0209999C000012200019N0150001N1+02141+00731101481ADDGA1011+012009059GF101991011041012501001001MA1999999090561MD1710111+9999REMSYN082AAXX  18091 40785 42665 10000 10214 20073 39056 40148 57011 81400 90846 333 81640;
0195407850999992000101812004+33980+051440FM-12+0982OIFK V0209999C000012200019N0150001N1+02281+00781101351ADDAA199000091GA1011+012009059GF101991011041012501001001MA1999999090441MD1710121+9999REMSYN082AAXX  18121 40785 32665 10000 10228 20078 39044 40135 57012 81400 91146 333 81640;EQDQ01  00002PRCP99
0184407850999992000101815004+33980+051440FM-12+0982OIFK V0209999C000012200019N0150001N1+02001+00961101461ADDGA1011+012009059GF101991011041012501001001KA1120M+02321MA1999999090481MD1110041+9999REMSYN088AAXX  18151 40785 42665 10000 10200 20096 39048 40146 51004 81400 91450 333 10232 81640;
0189407850999992000101818004+33980+051440FM-12+0982OIFK V0209999C000012200019N0100001N1+01701+00971101521ADDAA199000091GA1001+999999999GF100991001001999999001001MA1999999090581MD1110101+9999REMSYN076AAXX  18181 40785 32960 00000 10170 20097 39058 40152 51010 91750 333 55098;EQDQ01  00002PRCP99
0153407850999992000101821004+33980+051440FM-12+0982OIFK V0209999C000012200019N0150001N1+01501+00961101441ADDGA1001+999999999GF100991001001999999001001MA1999999090551MD1810031+9999REMSYN070AAXX  18211 40785 42965 00000 10150 20096 39055 40144 58003 92050 333;
0183407850999992000101900004+33980+051440FM-12+0982OIFK V0209999C000012200019N0150001N1+01201+00941101481ADDAA199000091GA1001+999999999GF100991001001999999001001MA1999999090551MD1410001+9999REMSYN070AAXX  19001 40785 32965 00000 10120 20094 39055 40148 54000 92350 333;EQDQ01  00002PRCP99
0172407850999992000101903004+33980+051440FM-12+0982OIFK V0209999C000012200019N0150001N1+01281+00661101611ADDGA1001+999999999GF100991001001999999001001KA1999N+01101MA1999999090621MD1310071+9999REMSYN076AAXX  19031 40785 42965 00000 10128 20066 39062 40161 53007 90250 333 20110;
0201407850999992000101906004+33980+051440FM-12+0982OIFK V0209999C000012200019N0150001N1+01921+00771101651ADDAA124000091GA1001+999999999GF100991001001999999001001MA1999999090771MD1210151+9999REMSYN088AAXX  19061 40785 32965 00000 10192 20077 39077 40165 52015 90550 333 30009 50521 70000;EQDQ01  00002PRCP24
0138407850999992000101909004+33980+051440FM-12+0982OIFK V0209999C000012200019N0150001N1+02241+00661101491ADDGA1001+999999999GF100991001001999999001001MA1999999090631REMSYN069AAXX  19091 40785 42965 00000 10224 20066 39063 40149 5714 90850 333;
0183407850999992000101912004+33980+051440FM-12+0982OIFK V0209999C000012200019N0150001N1+02481+00601101331ADDAA199000091GA1001+999999999GF100991001001999999001001MA1999999090481MD1710151+9999REMSYN070AAXX  19121 40785 32965 00000 10248 20060 39048 40133 57015 91150 333;EQDQ01  00002PRCP99
0172407850999992000101915004+33980+051440FM-12+0982OIFK V0209999C000012200019N0150001N1+02081+00891101391ADDGA1001+999999999GF100991001001999999001001KA1999M+02501MA1999999090481MD1410001+9999REMSYN076AAXX  19151 40785 42965 00000 10208 20089 39048 40139 54000 91450 333 10250;
0189407850999992000101918004+33980+051440FM-12+0982OIFK V0209999C000012200019N0150001N1+01681+00921101471ADDAA199000091GA1001+999999999GF100991001001999999001001MA1999999090591MD1110111+9999REMSYN076AAXX  19181 40785 32965 00000 10168 20092 39059 40147 51011 91750 333 55100;EQDQ01  00002PRCP99
0183407850999992000102000004+33980+051440FM-12+0982OIFK V0209999C000012200019N0150001N1+01401+00811101381ADDAA199000091GA1001+999999999GF100991001001999999001001MA1999999090571MD1810021+9999REMSYN070AAXX  20001 40785 32965 00000 10140 20081 39057 40138 58002 92355 333;EQDQ01  00002PRCP99
0172407850999992000102003004+33980+051440FM-12+0982OIFK V0209999C000012200019N0150001N1+01361+00781101591ADDGA1001+999999999GF100991001001999999001001KA1999N+01171MA1999999090671MD1310101+9999REMSYN076AAXX  20031 40785 42965 00000 10136 20078 39067 40159 53010 90250 333 20117;
0201407850999992000102006004+33980+051440FM-12+0982OIFK V0209999C000012200019N0150001N1+01901+00741101711ADDAA124000091GA1001+999999999GF100991001001999999001001MA1999999090801MD1110131+9999REMSYN088AAXX  20061 40785 32965 00000 10190 20074 39080 40171 51013 90550 333 30010 50481 70000;EQDQ01  00002PRCP24
0153407850999992000102009004+33980+051440FM-12+0982OIFK V0203501N002012200019N0150001N1+02301+00681101531ADDGA1001+999999999GF100991001001999999001001MA1999999090641MD1710161+9999REMSYN070AAXX  20091 40785 42965 03502 10230 20068 39064 40153 57016 90850 333;
0183407850999992000102012004+33980+051440FM-12+0982OIFK V0209999C000012200019N0150001N1+02481+00661101291ADDAA199000091GA1001+999999999GF100991001001999999001001MA1999999090471MD1710171+9999REMSYN070AAXX  20121 40785 32965 00000 10248 20066 39047 40129 57017 91150 333;EQDQ01  00002PRCP99
0172407850999992000102015004+33980+051440FM-12+0982OIFK V0209999C000012200019N0150001N1+02141+00761101441ADDGA1001+999999999GF100991001001999999001001KA1999M+02641MA1999999090541MD1310071+9999REMSYN076AAXX  20151 40785 42965 00000 10214 20076 39054 40144 53007 91450 333 10264;
0189407850999992000102018004+33980+051440FM-12+0982OIFK V0209999C000012200019N0150001N1+01801+00801101521ADDAA199000091GA1001+999999999GF100991001001999999001001MA1999999090651MD1210111+9999REMSYN076AAXX  20181 40785 32965 00000 10180 20080 39065 40152 52011 91750 333 55099;EQDQ01  00002PRCP99
0153407850999992000102021004+33980+051440FM-12+0982OIFK V0209999C000012200019N0150001N1+01561+00851101471ADDGA1001+999999999GF100991001001999999001001MA1999999090651MD1410001+9999REMSYN070AAXX  20211 40785 42965 00000 10156 20085 39065 40147 54000 92045 333;
0183407850999992000102100004+33980+051440FM-12+0982OIFK V0209999C000012200019N0150001N1+01381+00801101491ADDAA199000091GA1001+999999999GF100991001001999999001001MA1999999090651MD1410001+9999REMSYN070AAXX  21001 40785 32965 00000 10138 20080 39065 40149 54000 92350 333;EQDQ01  00002PRCP99
0172407850999992000102103004+33980+051440FM-12+0982OIFK V0209999C000012200019N0150001N1+01241+00691101821ADDGA1001+999999999GF100991001001999999001001KA1999N+01161MA1999999090871MD1210221+9999REMSYN076AAXX  21031 40785 42965 00000 10124 20069 39087 40182 52022 90250 333 20116;
0201407850999992000102106004+33980+051440FM-12+0982OIFK V0209999C000012200019N0150001N1+01961+00641101881ADDAA124000091GA1001+999999999GF100991001001999999001001MA1999999090981MD1110111+9999REMSYN088AAXX  21061 40785 32965 00000 10196 20064 39098 40188 51011 90550 333 30008 50501 70000;EQDQ01  00002PRCP24
0183407850999992000102112004+33980+051440FM-12+0982OIFK V0209999C000012200019N0100001N1+02481+00501101601ADDAA199000091GA1001+999999999GF100991001001999999001001MA1999999090721MD1710181+9999REMSYN070AAXX  21121 40785 32960 00000 10248 20050 39072 40160 57018 91150 333;EQDQ01  00002PRCP99
0172407850999992000102115004+33980+051440FM-12+0982OIFK V0209999C000012200019N0150001N1+01921+00861101751ADDGA1001+999999999GF100991001001999999001001KA1999M+02551MA1999999090721MD1410001+9999REMSYN076AAXX  21151 40785 42965 00000 10192 20086 39072 40175 54000 91444 333 10255;
0189407850999992000102118004+33980+051440FM-12+0982OIFK V0209999C000012200019N0150001N1+01621+00691101751ADDAA199000091GA1001+999999999GF100991001001999999001001MA1999999090791MD1110071+9999REMSYN076AAXX  21181 40785 32965 00000 10162 20069 39079 40175 51007 91745 333 55099;EQDQ01  00002PRCP99
0153407850999992000102121004+33980+051440FM-12+0982OIFK V0209999C000012200019N0150001N1+01461+00691101631ADDGA1001+999999999GF100991001001999999001001MA1999999090711MD1810081+9999REMSYN070AAXX  21211 40785 42965 00000 10146 20069 39071 40163 58008 92041 333;
0183407850999992000102200004+33980+051440FM-12+0982OIFK V0209999C000012200019N0150001N1+01461+00341101941ADDAA199000091GA1001+999999999GF100991001001999999001001MA1999999090711MD1410001+9999REMSYN070AAXX  22001 40785 32965 00000 10146 20034 39071 40194 54000 92345 333;EQDQ01  00002PRCP99
0172407850999992000102203004+33980+051440FM-12+0982OIFK V0209999C000012200019N0150001N1+01381+00441101701ADDGA1001+999999999GF100991001001999999001001KA1999N+01301MA1999999090711MD1410001+9999REMSYN076AAXX  22031 40785 42965 00000 10138 20044 39071 40170 54000 90245 333 20130;
0213407850999992000102206004+33980+051440FM-12+0982OIFK V0209999C000012200019N0150001N1+02081+00421101741ADDAA124000091GA1021+012009059GF102991021041012501001001MA1999999090841MD1110131+9999REMSYN100AAXX  22061 40785 32665 20000 10208 20042 39084 40174 51013 82400 90545 333 30010 50521 70000 82640;EQDQ01  00002PRCP24
0165407850999992000102209004+33980+051440FM-12+0982OIFK V0209999C000012200019N0150001N1+02501+00361101491ADDGA1011+012009029GF101991011011012501001001MA1999999090671MD1810171+9999REMSYN082AAXX  22091 40785 42665 10000 10250 20036 39067 40149 58017 81100 90845 333 81840;
0183407850999992000102212004+33980+051440FM-12+0982OIFK V0209999C000012200019N0150001N1+02761+00261101181ADDAA199000091GA1001+999999999GF100991001001999999001001MA1999999090431MD1710241+9999REMSYN070AAXX  22121 40785 32665 00000 10276 20026 39043 40118 57024 91147 333;EQDQ01  00002PRCP99
0189407850999992000102218004+33980+051440FM-12+0982OIFK V0209999C000012200019N0150001N1+01841+00691101201ADDAA199000091GA1001+999999999GF100991001001999999001001MA1999999090411MD1110041+9999REMSYN076AAXX  22181 40785 32965 00000 10184 20069 39041 40120 51004 91750 333 55097;EQDQ01  00002PRCP99
0153407850999992000102221004+33980+051440FM-12+0982OIFK V0209999C000012200019N0100001N1+01561+00681101171ADDGA1001+999999999GF100991001001999999001001MA1999999090411MD1410001+9999REMSYN070AAXX  22211 40785 42960 00000 10156 20068 39041 40117 54000 92050 333;
0183407850999992000102300004+33980+051440FM-12+0982OIFK V0209999C000012200019N0150001N1+01481+00611101031ADDAA199000091GA1001+999999999GF100991001001999999001001MA1999999090301MD1810111+9999REMSYN070AAXX  23001 40785 32965 00000 10148 20061 39030 40103 58011 92350 333;EQDQ01  00002PRCP99
0172407850999992000102303004+33980+051440FM-12+0982OIFK V0209999C000012200019N0150001N1+01401+00471101201ADDGA1001+999999999GF100991001001999999001001KA1999N+01341MA1999999090361MD1310061+9999REMSYN076AAXX  23031 40785 42965 00000 10140 20047 39036 40120 53006 90250 333 20134;
0201407850999992000102306004+33980+051440FM-12+0982OIFK V0209999C000012200019N0150001N1+01921+00341101311ADDAA124000091GA1001+999999999GF100991001001999999001001MA1999999090471MD1210111+9999REMSYN088AAXX  23061 40785 32965 00000 10192 20034 39047 40131 52011 90550 333 30009 50571 70000;EQDQ01  00002PRCP24
0183407850999992000102312004+33980+051440FM-12+0982OIFK V0209999C000012200019N0150001N1+02581+00251100991ADDAA199000091GA1001+999999999GF100991001001999999001001MA1999999090221MD1610081+9999REMSYN070AAXX  23121 40785 32965 00000 10258 20025 39022 40099 56008 91150 333;EQDQ01  00002PRCP99
0172407850999992000102315004+33980+051440FM-12+0982OIFK V0209999C000012200019N0150001N1+02101+00401101141ADDGA1001+999999999GF100991001001999999001001KA1999M+02701MA1999999090221MD1410001+9999REMSYN076AAXX  23151 40785 42965 00000 10210 20040 39022 40114 54000 91450 333 10270;
0189407850999992000102318004+33980+051440FM-12+0982OIFK V0209999C000012200019N0150001N1+01741+00261101081ADDAA199000091GA1001+999999999GF100991001001999999001001MA1999999090251MD1310031+9999REMSYN076AAXX  23181 40785 32965 00000 10174 20026 39025 40108 53003 91745 333 55099;EQDQ01  00002PRCP99
0153407850999992000102321004+33980+051440FM-12+0982OIFK V0209999C000012200019N0150001N1+01601+00241101051ADDGA1001+999999999GF100991001001999999001001MA1999999090301MD1110051+9999REMSYN070AAXX  23211 40785 42965 00000 10160 20024 39030 40105 51005 92041 333;
0183407850999992000102400004+33980+051440FM-12+0982OIFK V0209999C000012200019N0150001N1+01481+00361101081ADDAA199000091GA1001+999999999GF100991001001999999001001MA1999999090301MD1410001+9999REMSYN070AAXX  24001 40785 32965 00000 10148 20036 39030 40108 54000 92347 333;EQDQ01  00002PRCP99
0172407850999992000102403004+33980+051440FM-12+0982OIFK V0209999C000012200019N0150001N1+01361+00161101381ADDGA1001+999999999GF100991001001999999001001KA1999N+01121MA1999999090481MD1210181+9999REMSYN076AAXX  24031 40785 42965 00000 10136 20016 39048 40138 52018 90246 333 20112;
0201407850999992000102406004+33980+051440FM-12+0982OIFK V0209999C000012200019N0150001N1+02041+00231101381ADDAA124000091GA1001+999999999GF100991001001999999001001MA1999999090621MD1210141+9999REMSYN088AAXX  24061 40785 32965 00000 10204 20023 39062 40138 52014 90550 333 30008 50601 70000;EQDQ01  00002PRCP24
0153407850999992000102409004+33980+051440FM-12+0982OIFK V0209999C000012200019N0150001N1+02281+00381101351ADDGA1001+999999999GF100991001001999999001001MA1999999090491MD1710131+9999REMSYN070AAXX  24091 40785 42965 00000 10228 20038 39049 40135 57013 90850 333;
0183407850999992000102412004+33980+051440FM-12+0982OIFK V0209999C000012200019N0150001N1+02581+00361101201ADDAA199000091GA1001+999999999GF100991001001999999001001MA1999999090391MD1710101+9999REMSYN070AAXX  24121 40785 32965 00000 10258 20036 39039 40120 57010 91150 333;EQDQ01  00002PRCP99
0172407850999992000102415004+33980+051440FM-12+0982OIFK V0209999C000012200019N0150001N1+02141+00571101261ADDGA1001+999999999GF100991001001999999001001KA1999M+02621MA1999999090471MD1210081+9999REMSYN076AAXX  24151 40785 42965 00000 10214 20057 39047 40126 52008 91450 333 10262;
0189407850999992000102418004+33980+051440FM-12+0982OIFK V0209999C000012200019N0150001N1+01841+00181101401ADDAA199000091GA1001+999999999GF100991001001999999001001MA1999999090551MD1210081+9999REMSYN076AAXX  24181 40785 32965 00000 10184 20018 39055 40140 52008 91750 333 55098;EQDQ01  00002PRCP99
0172407850999992000102503004+33980+051440FM-12+0982OIFK V0209999C000012200019N0150001N1+01201+00101101541ADDGA1001+999999999GF100991001001999999001001KA1999N+01141MA1999999090651MD1310081+9999REMSYN076AAXX  25031 40785 42965 00000 10120 2001/ 39065 40154 53008 90250 333 20114;
0183407850999992000102512004+33980+051440FM-12+0982OIFK V0209999C000012200019N0150001N1+02761+00191101171ADDAA199000091GA1001+999999999GF100991001001999999001001MA1999999090451MD1710221+9999REMSYN070AAXX  25121 40785 32965 00000 10276 20019 39045 40117 57022 91150 333;EQDQ01  00002PRCP99
0144407850999992000102515004+33980+051440FM-12+0982OIFK V0209999C000012200019N0150001N1+02241+00661999999ADDGA1001+999999999GF100991001001999999001001MA1999999090411REMSYN075AAXX  25151 40785 42965 00000 10224 20066 39041 4030 56004 91450 333 10280;
0189407850999992000102518004+33980+051440FM-12+0982OIFK V0209999C000012200019N0150001N1+01861+00101101391ADDAA199000091GA1001+999999999GF100991001001999999001001MA1999999090551MD1210141+9999REMSYN076AAXX  25181 40785 32965 00000 10186 20010 39055 40139 52014 91750 333 55098;EQDQ01  00002PRCP99
0153407850999992000102521004+33980+051440FM-12+0982OIFK V0209999C000012200019N0150001N1+01501+00281101381ADDGA1001+999999999GF100991001001999999001001MA1999999090551MD1410001+9999REMSYN070AAXX  25211 40785 42965 00000 10150 20028 39055 40138 54000 92050 333;
0183407850999992000102600004+33980+051440FM-12+0982OIFK V0209999C000012200019N0150001N1+01421+00341101391ADDAA199000091GA1001+999999999GF100991001001999999001001MA1999999090551MD1410001+9999REMSYN070AAXX  26001 40785 32965 00000 10142 20034 39055 40139 54000 92350 333;EQDQ01  00002PRCP99
0201407850999992000102606004+33980+051440FM-12+0982OIFK V0209999C000012200019N0150001N1+02001+00241101661ADDAA124000091GA1001+999999999GF100991001001999999001001MA1999999090791MD1110121+9999REMSYN088AAXX  26061 40785 32965 00000 10200 20024 39079 40166 51012 90546 333 30008 50681 70000;EQDQ01  00002PRCP24
0153407850999992000102609004+33980+051440FM-12+0982OIFK V0209999C000012200019N0150001N1+02481-00181101451ADDGA1001+999999999GF100991001001999999001001MA1999999090601MD1710191+9999REMSYN070AAXX  26091 40785 42965 00000 10248 21018 39060 40145 57019 90845 333;
0195407850999992000102612004+33980+051440FM-12+0982OIFK V0209999C000012200019N0150001N1+02861-00061101151ADDAA199000091GA1021+060009019GF102991001001999999001011MA1999999090401MD1710201+9999REMSYN082AAXX  26121 40785 32965 20000 10286 21006 39040 40115 57020 80001 91146 333 82070;EQDQ01  00002PRCP99
0156407850999992000102615004+33980+051440FM-12+0982OIFK V0209999C000019999999N0150001N1+02221+00121101311ADDGF105991999999999999999999KA1999M+03001MA1999999090401MD1410001+9999REMSYN076AAXX  26151 40785 42965 50000 10222 20012 39040 40131 54000 91450 333 10300;
0209407850999992000102618004+33980+051440FM-12+0982OIFK V0209999C000012200019N0150001N1+01901-00101101281ADDAA199000091GA1041+060009019GF104991001001999999001011GJ105829MA1999999090451MD1110051+9999REMSYN088AAXX  26181 40785 32965 40000 10190 21010 39045 40128 51005 80001 91750 333 55097 84070;EQDQ01  00002PRCP99
0153407850999992000102621004+33980+051440FM-12+0982OIFK V0209999C000012200019N0150001N1+01741+00081101211ADDGA1001+999999999GF100991001001999999001001MA1999999090451MD1410001+9999REMSYN070AAXX  26211 40785 42965 00000 10174 20008 39045 40121 54000 92050 333;
0183407850999992000102700004+33980+051440FM-12+0982OIFK V0209999C000012200019N0150001N1+01521+00121101181ADDAA199000091GA1001+999999999GF100991001001999999001001MA1999999090451MD1410001+9999REMSYN070AAXX  27001 40785 32965 00000 10152 20012 39045 40118 54000 92350 333;EQDQ01  00002PRCP99
0184407850999992000102703004+33980+051440FM-12+0982OIFK V0209999C000012200019N0150001N1+01181+00181101541ADDGA1031+060009019GF103991001001999999001011KA1120N+01181MA1999999090611MD1210111+9999REMSYN088AAXX  27031 40785 42965 30000 10118 20018 39061 40154 52011 80001 90250 333 20118 83070;
0213407850999992000102706004+33980+051440FM-12+0982OIFK V0209999C000012200019N0150001N1+02241+00021101621ADDAA124000091GA1041+060009019GF104991001001999999001021MA1999999090771MD1210161+9999REMSYN100AAXX  27061 40785 32965 40000 10224 20002 39077 40162 52016 80002 90550 333 30008 50501 70000 84070;EQDQ01  00002PRCP24
0165407850999992000102709004+33980+051440FM-12+0982OIFK V0209999C000012200019N0150001N1+02521+00001101501ADDGA1011+060009019GF101991001001999999001011MA1999999090691MD1810081+9999REMSYN082AAXX  27091 40785 42965 10000 10252 20000 39069 40150 58008 80001 90850 333 81070;
0223407850999992000102712004+33980+051440FM-12+0982OIFK V0209999C000010300019N0150001N1+02661-00051101371ADDAA199000091GA1011+012009069GA2041+030009039GF106991011041012501031021MA1999999090571MD1610121+9999REMSYN094AAXX  27121 40785 32665 60000 10266 21005 39057 40137 56012 81432 91150 333 81640 84360 84070;EQDQ01  00002PRCP99
0212407850999992000102715004+33980+051440FM-12+0982OIFK V0209999C000010300019N0150001N1+02241+00491101531ADDGA1011+012009069GA2051+030009049GF106991011041012501031061KA1120M+02801MA1999999090571MD1410001+9999REMSYN100AAXX  27151 40785 42665 60000 10224 20049 39057 40153 54000 81436 91450 333 10280 81640 85460 86270;
0215407850999992000102718004+33980+051440FM-12+0982OIFK V0202401N002012200019N0150001N1+02081+00131101431ADDAA199000091GA1011+012009069GF103991011041012501031001GJ104629MA1999999090641MD1310071+9999REMSYN094AAXX  27181 40785 32665 32402 10208 20013 39064 40143 53007 81430 91745 333 55077 81640 83360;EQDQ01  00002PRCP99
0165407850999992000102721004+33980+051440FM-12+0982OIFK V0201101N002012200019N0150001N1+01621+00321101471ADDGA1011+012009059GF101991011041012501001001MA1999999090641MD1410001+9999REMSYN082AAXX  27211 40785 42665 11102 10162 20032 39064 40147 54000 81400 92041 333 81640;
0195407850999992000102800004+33980+051440FM-12+0982OIFK V0209999C000012200019N0150001N1+01961+00281101371ADDAA199000091GA1021+012009059GF102991021041012501001001MA1999999090641MD1410001+9999REMSYN082AAXX  28001 40785 32665 20000 10196 20028 39064 40137 54000 82400 92347 333 82640;EQDQ01  00002PRCP99
0184407850999992000102803004+33980+051440FM-12+0982OIFK V0209999C000012200019N0150001N1+01481+00581101601ADDGA1021+012009059GF103991021041012501001011KA1120N+01401MA1999999090691MD1310051+9999REMSYN088AAXX  28031 40785 42665 30000 10148 20058 39069 40160 53005 82401 90247 333 20140 82640;
0207407850999992000102806004+33980+051440FM-12+0982OIFK V0209999C000012200019N0150001N1+02141+00431101621ADDAA124000091GA1021+012009059GF102991999999012501999999MA1999999090821MD1210131+9999REMSYN094AAXX  28061 40785 32665 20000 10214 20043 39082 40162 52013 90550 333 30012 50571 70000 82640;EQDQ01  00002PRCP24
0165407850999992000102809004+33980+051440FM-12+0982OIFK V0200301N002012200019N0150001N1+02481+00341101351ADDGA1021+012009059GF102991021041012501001001MA1999999090571MD1710251+9999REMSYN082AAXX  28091 40785 42665 20302 10248 20034 39057 40135 57025 82400 90850 333 82640;
0184407850999992000102815004+33980+051440FM-12+0982OIFK V0209999C000012200019N0150001N1+02241+00451101151ADDGA1011+012009059GF101991011041012501001001KA1120M+02701MA1999999090311MD1610061+9999REMSYN088AAXX  28151 40785 42665 10000 10224 20045 39031 40115 56006 81400 91450 333 10270 81640;
0189407850999992000102818004+33980+051440FM-12+0982OIFK V0209999C000012200019N0150001N1+01921+00361101271ADDAA199000091GA1001+999999999GF100991001001999999001001MA1999999090481MD1210171+9999REMSYN076AAXX  28181 40785 32965 00000 10192 20036 39048 40127 52017 91750 333 55080;EQDQ01  00002PRCP99
0153407850999992000102821004+33980+051440FM-12+0982OIFK V0209999C000012200019N0150001N1+01681+00081101361ADDGA1001+999999999GF100991001001999999001001MA1999999090571MD1110091+9999REMSYN070AAXX  28211 40785 42965 00000 10168 20008 39057 40136 51009 92050 333;
0183407850999992000102900004+33980+051440FM-12+0982OIFK V0201201N002012200019N0150001N1+01341-00291101601ADDAA199000091GA1001+999999999GF100991001001999999001001MA1999999090751MD1210181+9999REMSYN070AAXX  29001 40785 32965 01202 10134 21029 39075 40160 52018 92350 333;EQDQ01  00002PRCP99
0172407850999992000102903004+33980+051440FM-12+0982OIFK V0209999C000012200019N0150001N1+01341-00331101791ADDGA1001+999999999GF100991001001999999001001KA1999N+01121MA1999999090851MD1210101+9999REMSYN076AAXX  29031 40785 42965 00000 10134 21033 39085 40179 52010 90250 333 20112;
0213407850999992000102906004+33980+051440FM-12+0982OIFK V0209999C000012200019N0150001N1+01881-00221101931ADDAA124000091GA1011+030009079GF101991011001999999031001MA1999999091001MD1210151+9999REMSYN100AAXX  29061 40785 32965 10000 10188 21022 39100 40193 52015 81030 90550 333 30009 50521 70000 81360;EQDQ01  00002PRCP24
0153407850999992000102909004+33980+051440FM-12+0982OIFK V0200901N003012200019N0100001N1+02201-00581101741ADDGA1001+999999999GF100991001001999999001001MA1999999090851MD1710151+9999REMSYN070AAXX  29091 40785 42960 00903 10220 21058 39085 40174 57015 90850 333;
0183407850999992000102912004+33980+051440FM-12+0982OIFK V0209999C000012200019N0100001N1+02401-00341101611ADDAA199000091GA1001+999999999GF100991001001999999001001MA1999999090701MD1710151+9999REMSYN070AAXX  29121 40785 32960 00000 10240 21034 39070 40161 57015 91152 333;EQDQ01  00002PRCP99
0172407850999992000102915004+33980+051440FM-12+0982OIFK V0209999C000012200019N0150001N1+01841+00271101771ADDGA1001+999999999GF100991001001999999001001KA1999M+02501MA1999999090741MD1310041+9999REMSYN076AAXX  29151 40785 42965 00000 10184 20027 39074 40177 53004 91450 333 10250;
0189407850999992000102918004+33980+051440FM-12+0982OIFK V0209999C000012200019N0150001N1+01421-00171101811ADDAA199000091GA1001+999999999GF100991001001999999001001MA1999999090801MD1110061+9999REMSYN076AAXX  29181 40785 32965 00000 10142 21017 39080 40181 51006 91750 333 55097;EQDQ01  00002PRCP99
0153407850999992000102921004+33980+051440FM-12+0982OIFK V0209999C000012200019N0100001N1+01181-00211101801ADDGA1001+999999999GF100991001001999999001001MA1999999090801MD1410001+9999REMSYN070AAXX  29211 40785 42960 00000 10118 21021 39080 40180 54000 92050 333;
0183407850999992000103000004+33980+051440FM-12+0982OIFK V0209999C000012200019N0150001N1+01281-00391101811ADDAA199000091GA1001+999999999GF100991001001999999001001MA1999999090871MD1310071+9999REMSYN070AAXX  30001 40785 32965 00000 10128 21039 39087 40181 53007 92350 333;EQDQ01  00002PRCP99
0184407850999992000103003004+33980+051440FM-12+0982OIFK V0209999C000012200019N0150001N1+00941-00071102061ADDGA1031+030009079GF103991031001999999031001KA1120N+00901MA1999999090931MD1310061+9999REMSYN088AAXX  30031 40785 42965 30000 10094 21007 39093 40206 53006 83030 90250 333 20090 83360;
0241407850999992000103006004+33980+051440FM-12+0982OIFK V0203001N002010300019N0150001N1+01681-00461102121ADDAA124000091GA1011+012009069GA2041+030009039GF106991011051012501071011MA1999999091061MD1110131+9999REMSYN112AAXX  30061 40785 32665 63002 10168 21046 39106 40212 51013 81571 90546 333 30006 50781 70000 81640 84360 86070;EQDQ01  00002PRCP24
0223407850999992000103012004+33980+051440FM-12+0982OIFK V0203101N002010300019N0150001N1+02141-00621101921ADDAA199000091GA1031+012009069GA2051+030009039GF107991031051012501071011MA1999999090931MD1610051+9999REMSYN094AAXX  30121 40785 32665 73102 10214 21062 39093 40192 56005 83571 91145 333 83640 85360 87070;EQDQ01  00002PRCP99
0212407850999992000103015004+33980+051440FM-12+0982OIFK V0209999C000010120019N0150001N1+01981-00201101981ADDGA1011+010509099GA2041+012009069GF107991051031012501021001KA1120M+02321MA1999999090901MD1110061+9999REMSYN100AAXX  30151 40785 42665 70000 10198 21020 39090 40198 51006 85320 91450 333 10232 81935 84640 87459;
0215407850999992000103018004+33980+051440FM-12+0982OIFK V0209999C00001036001CN0150001N1+01741+00091101891ADDAA199000091GA1041+012009069GF106991041051012501071001GJ103669MA1999999090921MD1110021+9999REMSYN094AAXX  30181 40785 32665 60000 10174 20009 39092 40189 51002 84570 91750 333 55061 84640 86359;EQDQ01  00002PRCP99
0165407850999992000103021004+33980+051440FM-12+0982OIFK V0209999C000012200019N0120001N1+01381+00041101881ADDGA1031+012009059GF103991031041012501001001MA1999999090921MD1410001+9999REMSYN082AAXX  30211 40785 42662 30000 10138 20004 39092 40188 54000 83400 92052 333 83640;
0195407850999992000103100004+33980+051440FM-12+0982OIFK V0209999C000012200019N0100001N1+01201+00091101841ADDAA199000091GA1021+012009059GF102991021051012501001001MA1999999090921MD1410001+9999REMSYN082AAXX  31001 40785 32660 20000 10120 20009 39092 40184 54000 82500 92350 333 82640;EQDQ01  00002PRCP99
0203407850999992000103103004+33980+051440FM-12+0982OIFK V0209999C000012200019N0150001N1+01041+00121101881ADDGA1021+012009059GF199999021051012501001001KA1120N+01041MA1999999090851MD1410001+9999REMSYN088AAXX  31031 40785 42665 10000 10104 20012 39085 40188 54000 82500 90252 333 20104 82640;EQDQ01+000012SCOTCV
0219407850999992000103106004+33980+051440FM-12+0982OIFK V0209999C00001090001CN0150001N1+01881+00291101741ADDAA124000091GA1021+012009069GF106991021041012501001021MA1999999090821MD1810031+9999REMSYN106AAXX  31061 40785 32665 60000 10188 20029 39082 40174 58003 82402 90550 333 30007 50561 70000 82640 86070;EQDQ01  00002PRCP24
0171407850999992000103109004+33980+051440FM-12+0982OIFK V0209999C00001090001CN0150001N1+02161+00171101581ADDGA1021+012009069GF105991021041012501001021MA1999999090671MD1710151+9999REMSYN088AAXX  31091 40785 42665 50000 10216 20017 39067 40158 57015 82402 90850 333 82640 85070;
0201407850999992000103112004+33980+051440FM-12+0982OIFK V0209999C00001090001CN0150001N1+02241-00171101321ADDAA199000091GA1021+012009069GF105991021041012501001021MA1999999090411MD1710261+9999REMSYN088AAXX  31121 40785 32665 50000 10224 21017 39041 40132 57026 82402 91150 333 82640 85070;EQDQ01  00002PRCP99
0259407850999992000103115004+33980+051440FM-12+0982OIFK V0209999C00001036001CN0100001N1+01521+01042101751ADDAY181031AY221031GA1011+010509099GA2021+012009069GF105991031031012501011001KA1120M+02351MA1999999090651MD1310241+9999MW1011REMSYN106AAXX  31151 40785 41660 50000 10152 20104 39065 40175 53024 70182 83310 91446 333 10235 81935 82640 85460;EQDQ01+001043ATOD  
0196407850999992000103118004+33980+051440FM-12+0982OIFK V0209999C000012200019N0120001N1+01281+01061101771ADDAA106002091GA1031+030009079GF103991031001999999031001GJ103189MA1999999090781MD1110131+9999REMSYN094AAXX  31181 40785 12962 30000 10128 20106 39078 40177 51013 60021 83030 91746 333 55053 83360;
0153407850999992000103121004+33980+051440FM-12+0982OIFK V0209999C000012200019N0120001N1+01121+01061101601ADDGA1001+999999999GF100991001001999999001001MA1999999090661MD1810121+9999REMSYN070AAXX  31211 40785 42962 00000 10112 20106 39066 40160 58012 92040 333;
0195407850999992000110100004+33980+051440FM-12+0982OIFK V0209999C000012200019N0150001N1+01041+00801101631ADDAA199000091GA1031+060009019GF103991001001999999001011MA1999999090681MD1110021+9999REMSYN082AAXX  01001 40785 32965 30000 10104 20080 39068 40163 51002 80001 92346 333 83070;EQDQ01  00002PRCP99
0190407850999992000110103004+33980+051440FM-12+0982OIFK V0209999C000012200019N0150001N1+01101+00791101821ADDGA1011+012009069GF104991011041012501031001KA1120N+00941MA1999999090741MD1310061+9999REMSYN094AAXX  01031 40785 42665 40000 10110 20079 39074 40182 53006 81430 90247 333 20094 81640 83360;
0200407850999992000110106004+33980+051440FM-12+0982OIFK V0209999C00001036001CN0150001N1+01561+00811101831ADDAA124002091GA1031+012009069GF105991031041012501031001MA1999999090781MD1110041+9999REMSYN106AAXX  01061 40785 32665 50000 10156 20081 39078 40183 51004 83430 90550 333 31007 50421 70020 83640 85360;
0165407850999992000110109004+33980+051440FM-12+0982OIFK V0209999C000012200019N0150001N1+01981+00761101621ADDGA1031+012009059GF103991031041012501001001MA1999999090621MD1810161+9999REMSYN082AAXX  01091 40785 42665 30000 10198 20076 39062 40162 58016 83400 90850 333 83640;
0201407850999992000110112004+33980+051440FM-12+0982OIFK V0209999C000012200019N0150001N1+02101+00621101471ADDAA199000091GA1031+012009069GF104991031041012501001011MA1999999090521MD1610101+9999REMSYN088AAXX  01121 40785 32665 40000 10210 20062 39052 40147 56010 83401 91150 333 83640 84070;EQDQ01  00002PRCP99
0190407850999992000110115004+33980+051440FM-12+0982OIFK V0209999C00001220001CN0120001N1+01961+00721101491ADDGA1031+012009069GF105991031041012501001011KA1120M+02201MA1999999090501MD1610021+9999REMSYN094AAXX  01151 40785 42662 50000 10196 20072 39050 40149 56002 83401 91450 333 10220 83640 85070;
0215407850999992000110118004+33980+051440FM-12+0982OIFK V0209999C000012200019N0150001N1+01581+00871101481ADDAA199000091GA1021+012009069GF104991021041012501001011GJ105229MA1999999090521MD1110021+9999REMSYN094AAXX  01181 40785 32665 40000 10158 20087 39052 40148 51002 82401 91750 333 55087 82640 84070;EQDQ01  00002PRCP99
0183407850999992000110200004+33980+051440FM-12+0982OIFK V0209999C000012200019N0150001N1+01181+00861101461ADDAA199000091GA1001+999999999GF100991001001999999001001MA1999999090521MD1410001+9999REMSYN070AAXX  02001 40785 32965 00000 10118 20086 39052 40146 54000 92350 333;EQDQ01  00002PRCP99
0184407850999992000110203004+33980+051440FM-12+0982OIFK V0209999C000012200019N0150001N1+01021+00621101611ADDGA1021+012009059GF102991021051012501001001KA1120N+01001MA1999999090581MD1110061+9999REMSYN088AAXX  02031 40785 42665 20000 10102 20062 39058 40161 51006 82500 90250 333 20100 82640;
0201407850999992000110206004+33980+051440FM-12+0982OIFK V0209999C000012200019N0150001N1+01561+00521101701ADDAA124000091GA1001+999999999GF100991001001999999001001MA1999999090701MD1210121+9999REMSYN088AAXX  02061 40785 32965 00000 10156 20052 39070 40170 52012 90550 333 30007 50361 70000;EQDQ01  00002PRCP24
0153407850999992000110209004+33980+051440FM-12+0982OIFK V0209999C000012200019N0150001N1+01861+00471101531ADDGA1001+999999999GF100991001001999999001001MA1999999090571MD1810131+9999REMSYN070AAXX  02091 40785 42965 00000 10186 20047 39057 40153 58013 90850 333;
0183407850999992000110212004+33980+051440FM-12+0982OIFK V0209999C000012200019N0100001N1+02161+00421101341ADDAA199000091GA1001+999999999GF100991001001999999001001MA1999999090431MD1710141+9999REMSYN070AAXX  02121 40785 32960 00000 10216 20042 39043 40134 57014 91152 333;EQDQ01  00002PRCP99
0172407850999992000110215004+33980+051440FM-12+0982OIFK V0209999C000012200019N0150001N1+01861+00361101541ADDGA1001+999999999GF100991001001999999001001KA1999M+02201MA1999999090431MD1410001+9999REMSYN076AAXX  02151 40785 42965 00000 10186 20036 39043 40154 54000 91450 333 10220;
0189407850999992000110218004+33980+051440FM-12+0982OIFK V0209999C000012200019N0150001N1+01741+00361101361ADDAA199000091GA1001+999999999GF100991001001999999001001MA1999999090431MD1410001+9999REMSYN076AAXX  02181 40785 32965 00000 10174 20036 39043 40136 54000 91750 333 55093;EQDQ01  00002PRCP99
0165407850999992000110221004+33980+051440FM-12+0982OIFK V0209999C000012200019N0150001N1+01661+00461101381ADDGA1031+060009019GF103991001001999999001011MA1999999090491MD1110061+9999REMSYN082AAXX  02211 40785 42965 30000 10166 20046 39049 40138 51006 80001 92050 333 83070;
0183407850999992000110300004+33980+051440FM-12+0982OIFK V0209999C000012200019N0150001N1+01361+00331101371ADDAA199000091GA1001+999999999GF100991001001999999001001MA1999999090491MD1410001+9999REMSYN070AAXX  03001 40785 32965 00000 10136 20033 39049 40137 54000 92350 333;EQDQ01  00002PRCP99
0172407850999992000110303004+33980+051440FM-12+0982OIFK V0209999C000012200019N0150001N1+01161+00241101591ADDGA1001+999999999GF100991001001999999001001KA1999N+01101MA1999999090581MD1310091+9999REMSYN076AAXX  03031 40785 42965 00000 10116 20024 39058 40159 53009 90250 333 20110;
0201407850999992000110306004+33980+051440FM-12+0982OIFK V0209999C000012200019N0150001N1+01861+00261101611ADDAA124000091GA1001+999999999GF100991001001999999001001MA1999999090691MD1110111+9999REMSYN088AAXX  03061 40785 32965 00000 10186 20026 39069 40161 51011 90550 333 30008 50461 70000;EQDQ01  00002PRCP24
0153407850999992000110309004+33980+051440FM-12+0982OIFK V0209999C000012200019N0100001N1+02141+00041101411ADDGA1001+999999999GF100991001001999999001001MA1999999090571MD1810121+9999REMSYN070AAXX  03091 40785 42960 00000 10214 20004 39057 40141 58012 90850 333;
0195407850999992000110312004+33980+051440FM-12+0982OIFK V0209999C000012200019N0150001N1+02301+00141101381ADDAA199000091GA1021+012009029GF102991021011012501001001MA1999999090511MD1610061+9999REMSYN082AAXX  03121 40785 32665 20000 10230 20014 39051 40138 56006 82100 91150 333 82840;EQDQ01  00002PRCP99
0189407850999992000110318004+33980+051440FM-12+0982OIFK V0209999C000012200019N0100001N1+01501+00381101701ADDAA199000091GA1001+999999999GF100991001001999999001001MA1999999090741MD1210101+9999REMSYN076AAXX  03181 40785 32960 00000 10150 20038 39074 40170 52010 91752 333 55094;EQDQ01  00002PRCP99
0183407850999992000110400004+33980+051440FM-12+0982OIFK V0209999C000012200019N0100001N1+01241+00281101681ADDAA199000091GA1001+999999999GF100991001001999999001001MA1999999090741MD1410001+9999REMSYN070AAXX  04001 40785 32960 00000 10124 20028 39074 40168 54000 92350 333;EQDQ01  00002PRCP99
0201407850999992000110406004+33980+051440FM-12+0982OIFK V0209999C000012200019N0150001N1+01861+00441102111ADDAA124000091GA1001+999999999GF100991001001999999001001MA1999999091091MD1210211+9999REMSYN088AAXX  04061 40785 32965 00000 10186 20044 39109 40211 52021 90550 333 30005 50521 70000;EQDQ01  00002PRCP24
0195407850999992000110412004+33980+051440FM-12+0982OIFK V0209999C000012200019N0150001N1+02241+00191101761ADDAA199000091GA1021+012009059GF104991021041012501001011MA1999999090821MD1710151+9999REMSYN082AAXX  04121 40785 32665 40000 10224 20019 39082 40176 57015 82401 91150 333 82640;EQDQ01  00002PRCP99
0215407850999992000110418004+33980+051440FM-12+0982OIFK V0209999C00001090001CN0150001N1+01601+00291101821ADDAA199000091GA1031+012009069GF105991031041012501001021GJ105229MA1999999090881MD1410001+9999REMSYN094AAXX  04181 40785 32665 50000 10160 20029 39088 40182 54000 83402 91747 333 55087 83640 84070;EQDQ01  00002PRCP99
0171407850999992000110421004+33980+051440FM-12+0982OIFK V0209999C000012200019N0150001N1+01541+00391101761ADDGA1021+012009069GF104991021041012501001021MA1999999090821MD1810061+9999REMSYN088AAXX  04211 40785 42665 40000 10154 20039 39082 40176 58006 82402 92041 333 82640 84070;
0201407850999992000110500004+33980+051440FM-12+0982OIFK V0209999C00001036001CN0120001N1+01421+00711101701ADDAA199000091GA1031+012009069GF106991031041012501011001MA1999999090811MD1610011+9999REMSYN088AAXX  05001 40785 32662 60000 10142 20071 39081 40170 56001 83410 92350 333 83640 86460;EQDQ01  00002PRCP99
0190407850999992000110503004+33980+051440FM-12+0982OIFK V0209999C00001036001CN0120001N1+01381+00501101821ADDGA1031+012009069GF107991031041012501011001KA1120N+01341MA1999999090841MD1110031+9999REMSYN094AAXX  05031 40785 42662 70000 10138 20050 39084 40182 51003 83410 90246 333 20134 83640 87460;
0219407850999992000110506004+33980+051440FM-12+0982OIFK V0209999C00001036001CN0120001N1+01521+00401101931ADDAA124000091GA1041+012009069GF108991041041012501011999MA1999999090881MD1110041+9999REMSYN106AAXX  05061 40785 32662 80000 10152 20040 39088 40193 51004 8441/ 90550 333 30011 50501 70000 84640 88460;EQDQ01  00002PRCP24
0221407850999992000110509004+33980+051440FM-12+0982OIFK V0209999C000010120019N0080001N1+01441+00791101911ADDAY121031AY221031GA1021+010509099GA2031+012009069GF108991051091012501021999MA1999999090841MD1510041+9999MW1611REMSYN100AAXX  05091 40785 41658 80000 10144 20079 39084 40191 55004 76122 8592/ 90850 333 82935 83640 88559;
0238407850999992000110512004+33980+051440FM-12+0982OIFK V0209999C000010120019N0060001N1+01141+00951101351ADDAA106007191AY161061AY221061GA1021+010509099GA2031+012009069GF108991051091012501021999MA1999999090701MD1810141+9999MW1631REMSYN106AAXX  05121 40785 11656 80000 10114 20095 39070 40135 58014 60071 76362 8592/ 91150 333 82935 83640 88559;
0240407850999992000110515004+33980+051440FM-12+0982OIFK V0209999C000010120019N0060001N1+01061+00951101851ADDAY161031AY221031GA1011+010509099GA2041+012009069GF108991061091012501021999KA1120M+01621MA1999999090701MD1410001+9999MW1631REMSYN106AAXX  05151 40785 41656 80000 10106 20095 39070 40185 54000 76362 8692/ 91450 333 10162 81935 84640 88558;
0230407850999992000110518004+33980+051440FM-12+0982OIFK V0209999C00001036001CN0060001N1+01061+00951101811ADDAA106011991AY161061AY221061GA1031+012009069GF108991031041012501021999GJ100009MA1999999090681MD1810021+9999MW1631REMSYN106AAXX  05181 40785 11656 80000 10106 20095 39068 40181 58002 60121 76362 8342/ 91750 333 55000 83640 88558;
0199407850999992000110521004+33980+051440FM-12+0982OIFK V0209999C00001036001CN0070001N1+01061+00981101681ADDAY161031AY221031GA1041+012009069GF108991041041012501021999MA1999999090561MD1710121+9999MW1611REMSYN094AAXX  05211 40785 41657 80000 10106 20098 39056 40168 57012 76162 8442/ 92050 333 84640 88558;
0216407850999992000110600004+33980+051440FM-12+0982OIFK V0209999C00001036001CN0070001N1+00961+00881101721ADDAA106003091AY161061AY221061GA1041+012009069GF108991041041012501021999MA1999999090521MD1710041+9999MW1611REMSYN100AAXX  06001 40785 11657 80000 10096 20088 39052 40172 57004 60031 76162 8442/ 92350 333 84640 88558;
0218407850999992000110603004+33980+051440FM-12+0982OIFK V0209999C00001036001CN0060001N1+00921+00841101731ADDAY161031AY221031GA1041+012009069GF108991041041012501021999KA1120N+00901MA1999999090491MD1610031+9999MW1631REMSYN100AAXX  06031 40785 41656 80000 10092 20084 39049 40173 56003 76362 8442/ 90250 333 20090 84640 88558;
0256407850999992000110606004+33980+051440FM-12+0982OIFK V0209999C000010105019N0060001N1+00981+00871101831ADDAA106006191AY161061AY221061GA1011+009009099GA2041+010509069GF108991051031008001021999MA1999999090631MD1210141+9999MW1631REMSYN124AAXX  06061 40785 11556 80000 10098 20087 39063 40183 52014 60061 76362 8532/ 90550 333 30209 50261 70274 81930 84635 88558;
0238407850999992000110612004+33980+051440FM-12+0982OIFK V0209999C000010105019N0080001N1+01021+00831101691ADDAA106004191AY161061AY261061GA1011+009009099GA2041+010509069GF108991051031008001021999MA1999999090501MD1610071+9999MW1621REMSYN106AAXX  06121 40785 11558 80000 10102 20083 39050 40169 56007 60041 76266 8532/ 91150 333 81930 84635 88558;
0240407850999992000110615004+33980+051440FM-12+0982OIFK V0209999C000010105019N0080001N1+01021+00831101711ADDAY161031AY261031GA1011+009009099GA2041+010509069GF108991051031008001021999KA1120M+01141MA1999999090501MD1410001+9999MW1621REMSYN106AAXX  06151 40785 41558 80000 10102 20083 39050 40171 54000 76266 8532/ 91450 333 10114 81930 84635 88558;
0202407850999992000110618004+33980+051440FM-12+0982OIFK V0209999C00001036001CN0100001N1+01081+00921101761ADDAA106001091GA1041+010509069GF108991041041012501021999GJ100009MA1999999090581MD1110081+9999REMSYN100AAXX  06181 40785 12660 80000 10108 20092 39058 40176 51008 60011 8442/ 91750 333 55000 84635 88459;
0171407850999992000110621004+33980+051440FM-12+0982OIFK V0209999C00001036001CN0100001N1+01121+00711101741ADDGA1031+012009069GF105991031041012501071001MA1999999090581MD1410001+9999REMSYN088AAXX  06211 40785 42660 50000 10112 20071 39058 40174 54000 83470 92050 333 83640 85360;
0182407850999992000110700004+33980+051440FM-12+0982OIFK V0209999C00001036001CN0100001N1+01081+00691101791ADDAA199000021GA1031+012009069GF106991031041012501031001MA1999999090581MD1410001+9999REMSYN088AAXX  07001 40785 32660 60000 10108 20069 39058 40179 54000 83430 92350 333 83640 86360;
0184407850999992000110703004+33980+051440FM-12+0982OIFK V0209999C000012200019N0100001N1+00601+00461101481ADDGA1021+012009059GF102991021041012501001001KA1120N+00561MA1999999090581MD1410001+9999REMSYN088AAXX  07031 40785 42660 20000 10060 20046 39058 40148 54000 82400 90250 333 20056 82640;
0200407850999992000110706004+33980+051440FM-12+0982OIFK V0209999C000012200019N0150001N1+01181+00381101871ADDAA124004891GA1021+012009069GF103991021041012501031001MA1999999090691MD1210111+9999REMSYN106AAXX  07061 40785 32665 30000 10118 20038 39069 40187 52011 82430 90546 333 30209 50121 70048 82640 83360;
0171407850999992000110709004+33980+051440FM-12+0982OIFK V0200301N00301036001CN0150001N1+01281+00451101781ADDGA1031+012009069GF105991031041012501031001MA1999999090641MD1810051+9999REMSYN088AAXX  07091 40785 42665 50303 10128 20045 39064 40178 58005 83430 90846 333 83640 85360;
0190407850999992000110715004+33980+051440FM-12+0982OIFK V0209999C00001036001CN0150001N1+01201+00821101961ADDGA1041+012009069GF106991041041012501031001KA1120M+01401MA1999999090701MD1310101+9999REMSYN094AAXX  07151 40785 42665 60000 10120 20082 39070 40196 53010 84430 91452 333 10140 84640 86360;
0215407850999992000110718004+33980+051440FM-12+0982OIFK V0209999C000010360019N0150001N1+01141+00741101971ADDAA199000091GA1021+009009099GF107991041041012501071001GJ103129MA1999999090811MD1210111+9999REMSYN094AAXX  07181 40785 32665 70000 10114 20074 39081 40197 52011 84470 91752 333 55052 82930 84635;EQDQ01  00002PRCP99
0190407850999992000110721004+33980+051440FM-12+0982OIFK V0209999C00001036001CN0150001N1+01001+00761999999ADDGA1031+012009069GF105991031041012501031001MA1999999090851MD1110041+9999REMSYN088AAXX  07211 40785 42665 50000 10100 20076 39085 40020 51004 83430 92050 333 83640 85360;EQDQ01+100203APOSLP
0201407850999992000110800004+33980+051440FM-12+0982OIFK V0209999C000012200019N0150001N1+00921+00811102021ADDAA199000091GA1011+012009069GF103991011041012501031001MA1999999090851MD1410001+9999REMSYN088AAXX  08001 40785 32665 30000 10092 20081 39085 40202 54000 81430 92350 333 81640 83360;EQDQ01  00002PRCP99
0234407850999992000110806004+33980+051440FM-12+0982OIFK V0209999C00001007501CN0100001N1+00981+00651102381ADDAA106000191AY151061AY221061GA1011+009009099GF107991051031008001011001MA1999999091101MD1110131+9999MW1021REMSYN118AAXX  08061 40785 11560 70000 10098 20065 39110 40238 51013 69911 70252 85310 90550 333 30007 50121 70001 81930 87459;
0193407850999992000110809004+33980+051440FM-12+0982OIFK V0209999C000010105019N0100001N1+01081+00681102381ADDGA1021+009009099GA2041+010509069GF108991051031008001011999MA1999999091101MD1410001+9999REMSYN094AAXX  08091 40785 42560 80000 10108 20068 39110 40238 54000 8531/ 90850 333 82930 84635 88459;
0201407850999992000110812004+33980+051440FM-12+0982OIFK V0209999C00001036001CN0100001N1+01221+00711102291ADDAA199000091GA1041+010509069GF107991041041012501011001MA1999999091021MD1610081+9999REMSYN088AAXX  08121 40785 32660 70000 10122 20071 39102 40229 56008 84410 91150 333 84635 87459;EQDQ01  00002PRCP99
0212407850999992000110815004+33980+051440FM-12+0982OIFK V0209999C000010270019N0100001N1+01201+00691102291ADDGA1031+010509069GA2051+027009049GF107991031041012501011071KA1120M+01251MA1999999091021MD1410001+9999REMSYN100AAXX  08151 40785 42660 70000 10120 20069 39102 40229 54000 83417 91445 333 10125 83635 85459 87270;
0237407850999992000110818004+33980+051440FM-12+0982OIFK V0209999C000010270019N0100001N1+01021+00691102411ADDAA199000091GA1031+010509069GA2051+027009049GF107991031041012501011071GJ100189MA1999999091121MD1210101+9999REMSYN100AAXX  08181 40785 32660 70000 10102 20069 39112 40241 52010 83417 91748 333 55003 83635 85459 87270;EQDQ01  00002PRCP99
0171407850999992000110821004+33980+051440FM-12+0982OIFK V0209999C00001036001CN0100001N1+01121+00811102301ADDGA1041+010509069GF107991041041012501011001MA1999999091021MD1810101+9999REMSYN088AAXX  08211 40785 42660 70000 10112 20081 39102 40230 58010 84410 92041 333 84635 86459;
0201407850999992000110900004+33980+051440FM-12+0982OIFK V0209999C00001036001CN0100001N1+01001+00671102221ADDAA199000091GA1041+012009069GF107991041041012501011001MA1999999090981MD1610041+9999REMSYN088AAXX  09001 40785 32660 70000 10100 20067 39098 40222 56004 84410 92347 333 84640 86460;EQDQ01  00002PRCP99
0241407850999992000110906004+33980+051440FM-12+0982OIFK V0209999C000010120019N0100001N1+01061+00471102321ADDAA124000091GA1011+010509099GA2041+012009069GF107991051031012501011001MA1999999091071MD1210091+9999REMSYN112AAXX  09061 40785 32660 70000 10106 20047 39107 40232 52009 85310 90550 333 31008 50101 70000 81935 84640 87460;EQDQ01  00002PRCP24
0171407850999992000110909004+33980+051440FM-12+0982OIFK V0209999C00001036001CN0100001N1+01141+00461102141ADDGA1041+012009069GF107991041041012501071001MA1999999090951MD1810121+9999REMSYN088AAXX  09091 40785 42660 70000 10114 20046 39095 40214 58012 84470 90850 333 84640 87360;
0201407850999992000110912004+33980+051440FM-12+0982OIFK V0209999C00001036001CN0100001N1+01161+00401102081ADDAA199000091GA1031+012009069GF106991031041012501071001MA1999999090871MD1610081+9999REMSYN088AAXX  09121 40785 32660 60000 10116 20040 39087 40208 56008 83470 91150 333 83640 86360;EQDQ01  00002PRCP99
0190407850999992000110915004+33980+051440FM-12+0982OIFK V0209999C00001036001CN0100001N1+01101+00421102061ADDGA1031+012009069GF106991031041012501031001KA1120M+01251MA1999999090851MD1610021+9999REMSYN094AAXX  09151 40785 42660 60000 10110 20042 39085 40206 56002 83430 91450 333 10125 83640 86360;
0215407850999992000110918004+33980+051440FM-12+0982OIFK V0209999C00001036001CN0100001N1+00961+00561102141ADDAA199000091GA1041+012009069GF106991041041012501031001GJ100009MA1999999090911MD1110061+9999REMSYN094AAXX  09181 40785 32660 60000 10096 20056 39091 40214 51006 84430 91750 333 55000 84640 86360;EQDQ01  00002PRCP99
0171407850999992000110921004+33980+051440FM-12+0982OIFK V0209999C00001036001CN0100001N1+00921+00551102131ADDGA1031+012009069GF105991031041012501031001MA1999999090911MD1410001+9999REMSYN088AAXX  09211 40785 42660 50000 10092 20055 39091 40213 54000 83430 92050 333 83640 85360;
0201407850999992000111000004+33980+051440FM-12+0982OIFK V0209999C00001036001CN0120001N1+00901+00711102111ADDAA199000091GA1031+012009069GF107991031041012501031001MA1999999090881MD1810031+9999REMSYN088AAXX  10001 40785 32662 70000 10090 20071 39088 40211 58003 83430 92350 333 83640 86360;EQDQ01  00002PRCP99
0190407850999992000111003004+33980+051440FM-12+0982OIFK V0209999C00001036001CN0120001N1+00801+00491102201ADDGA1041+012009069GF107991041041012501011001KA1120N+00781MA1999999090941MD1310061+9999REMSYN094AAXX  10031 40785 42662 70000 10080 20049 39094 40220 53006 84410 90250 333 20078 84640 87460;
0219407850999992000111006004+33980+051440FM-12+0982OIFK V0209999C00001036001CN0100001N1+00821+00421102401ADDAA124000091GA1041+010509069GF108991041041012501021999MA1999999091091MD1210151+9999REMSYN106AAXX  10061 40785 32660 80000 10082 20042 39109 40240 52015 8442/ 90550 333 31008 50141 70000 84635 88459;EQDQ01  00002PRCP24
0171407850999992000111009004+33980+051440FM-12+0982OIFK V0209999C00001036001CN0100001N1+01281+00401102281ADDGA1031+010509069GF105991031041012501071001MA1999999091041MD1810051+9999REMSYN088AAXX  10091 40785 42660 50000 10128 20040 39104 40228 58005 83470 90850 333 83635 85360;
0195407850999992000111012004+33980+051440FM-12+0982OIFK V0209999C000012200019N0100001N1+01241+00381102141ADDAA199000091GA1041+010509059GF104991041041012501001001MA1999999090921MD1710121+9999REMSYN082AAXX  10121 40785 32660 40000 10124 20038 39092 40214 57012 84400 91150 333 84635;EQDQ01  00002PRCP99
0184407850999992000111015004+33980+051440FM-12+0982OIFK V0209999C000012200019N0100001N1+01021+00521102211ADDGA1031+012009059GF103991031041012501001001KA1120M+01441MA1999999090921MD1410001+9999REMSYN088AAXX  10151 40785 42660 30000 10102 20052 39092 40221 54000 83400 91450 333 10144 83640;
0206407850999992000111018004+33980+051440FM-12+0982OIFK V0209999C000012200019N0100001N1+00801+99999101961ADDAA199000091GA1001+999999999GF100991001001999999001001MD1210201+9999REMSYN076AAXX  10181 40785 32960 00000 10080 21074 37739 40196 52020 91750 333 55079;EQDQ01-000743ATOD  Q02+077393APOSP Q03  00002PRCP99
0153407850999992000111021004+33980+051440FM-12+0982OIFK V0209999C000012200019N0100001N1+00721+00441102311ADDGA1001+999999999GF100991001001999999001001MA1999999091151MD1410001+9999REMSYN070AAXX  10211 40785 42960 00000 10072 20044 39115 40231 54000 92050 333;
0183407850999992000111100004+33980+051440FM-12+0982OIFK V0209999C000012200019N0100001N1+00601+00461102361ADDAA199000091GA1001+999999999GF100991001001999999001001MA1999999091151MD1410001+9999REMSYN070AAXX  11001 40785 32960 00000 10060 20046 39115 40236 54000 92350 333;EQDQ01  00002PRCP99
0207407850999992000111103004+33980+051440FM-12+0982OIFK V0209999C000012200019N0100001N1+00581+00401999999ADDGA1001+999999999GF100991001001999999001001KA1999N+00561MA1999999091201MD1210051+9999REMSYN076AAXX  11031 40785 42660 00000 10058 20040 39120 40136 52005 90250 333 20056;EQDQ01+101363APOSLPQ02 101363APOSLP
0217407850999992000111106004+33980+051440FM-12+0982OIFK V0209999C000012200019N0100001N1+00721+00421102842ADDAA124000091GA1001+999999999GF100991001001999999001001MA1999999091401MD1210201+9999REMSYN088AAXX  11061 40785 32960 00000 10072 20042 39140 40284 52020 90546 333 31006 50101 70000;EQDQ01+102843APOSLPQ02  00002PRCP24
0153407850999992000111109004+33980+051440FM-12+0982OIFK V0209999C000012200019N0100001N1+01181+00481102691ADDGA1001+999999999GF100991001001999999001001MA1999999091341MD1810061+9999REMSYN070AAXX  11091 40785 42960 00000 10118 20048 39134 40269 58006 90846 333;
0183407850999992000111112004+33980+051440FM-12+0982OIFK V0209999C000012200019N0100001N1+01381+00381102611ADDAA199000091GA1001+999999999GF100991001001999999001001MA1999999091261MD1610081+9999REMSYN070AAXX  11121 40785 32960 00000 10138 20038 39126 40261 56008 91145 333;EQDQ01  00002PRCP99
0172407850999992000111115004+33980+051440FM-12+0982OIFK V0209999C000012200019N0100001N1+01121+00441102791ADDGA1001+999999999GF100991001001999999001001KA1999M+01441MA1999999091351MD1210091+9999REMSYN076AAXX  11151 40785 42960 00000 10112 20044 39135 40279 52009 91446 333 10144;
0189407850999992000111118004+33980+051440FM-12+0982OIFK V0209999C000012200019N0100001N1+00721+00441102901ADDAA199000091GA1001+999999999GF100991001001999999001001MA1999999091451MD1210101+9999REMSYN076AAXX  11181 40785 32960 00000 10072 20044 39145 40290 52010 91746 333 55091;EQDQ01  00002PRCP99
0153407850999992000111121004+33980+051440FM-12+0982OIFK V0209999C000012200019N0100001N1+00681+00371102751ADDGA1001+999999999GF100991001001999999001001MA1999999091381MD1810071+9999REMSYN070AAXX  11211 40785 42960 00000 10068 20037 39138 40275 58007 92040 333;
0183407850999992000111200004+33980+051440FM-12+0982OIFK V0209999C000012200019N0100001N1+00581+00261102741ADDAA199000091GA1001+999999999GF100991001001999999001001MA1999999091381MD1410001+9999REMSYN070AAXX  12001 40785 32960 00000 10058 20026 39138 40274 54000 92347 333;EQDQ01  00002PRCP99
0172407850999992000111203004+33980+051440FM-12+0982OIFK V0209999C000012200019N0100001N1+00441+00191102821ADDGA1001+999999999GF100991001001999999001001KA1999N+00401MA1999999091381MD1410001+9999REMSYN076AAXX  12031 40785 42960 00000 10044 20019 39138 40282 54000 90246 333 20040;
0201407850999992000111206004+33980+051440FM-12+0982OIFK V0209999C000012200019N0120001N1+01021+00481102811ADDAA124000091GA1001+999999999GF100991001001999999001001MA1999999091441MD1110061+9999REMSYN088AAXX  12061 40785 32962 00000 10102 20048 39144 40281 51006 90550 333 30001 50141 70000;EQDQ01  00002PRCP24
0153407850999992000111209004+33980+051440FM-12+0982OIFK V0209999C000012200019N0120001N1+01201+00341102581ADDGA1001+999999999GF100991001001999999001001MA1999999091271MD1810171+9999REMSYN070AAXX  12091 40785 42962 00000 10120 20034 39127 40258 58017 90850 333;
0195407850999992000111212004+33980+051440FM-12+0982OIFK V0209999C000012200019N0120001N1+01341+00351102411ADDAA199000091GA1021+060009019GF102991001001999999001011MA1999999091121MD1710151+9999REMSYN082AAXX  12121 40785 32962 20000 10134 20035 39112 40241 57015 80001 91150 333 82070;EQDQ01  00002PRCP99
0172407850999992000111215004+33980+051440FM-12+0982OIFK V0209999C000012200019N0120001N1+01041+00541102451ADDGA1001+999999999GF100991001001999999001001KA1999M+01451MA1999999091071MD1610051+9999REMSYN076AAXX  12151 40785 42962 00000 10104 20054 39107 40245 56005 91450 333 10145;
0189407850999992000111218004+33980+051440FM-12+0982OIFK V0209999C000012200019N0120001N1+00761+00461102271ADDAA199000091GA1001+999999999GF100991001001999999001001MA1999999090981MD1610091+9999REMSYN076AAXX  12181 40785 32962 00000 10076 20046 39098 40227 56009 91750 333 55087;EQDQ01  00002PRCP99
0153407850999992000111221004+33980+051440FM-12+0982OIFK V0209999C000012200019N0120001N1+00601+00331102201ADDGA1001+999999999GF100991001001999999001001MA1999999090911MD1810071+9999REMSYN070AAXX  12211 40785 42962 00000 10060 20033 39091 40220 58007 92050 333;
0183407850999992000111300004+33980+051440FM-12+0982OIFK V0209999C000012200019N0120001N1+00501+00271102141ADDAA199000091GA1001+999999999GF100991001001999999001001MA1999999090871MD1810041+9999REMSYN070AAXX  13001 40785 32962 00000 10050 20027 39087 40214 58004 92350 333;EQDQ01  00002PRCP99
0172407850999992000111303004+33980+051440FM-12+0982OIFK V0209999C000012200019N0120001N1+00541+00261102281ADDGA1001+999999999GF100991001001999999001001KA1999N+00381MA1999999090951MD1310081+9999REMSYN076AAXX  13031 40785 42962 00000 10054 20026 39095 40228 53008 90250 333 20038;
0213407850999992000111306004+33980+051440FM-12+0982OIFK V0209999C000012200019N0120001N1+00881+00301102301ADDAA124000091GA1021+060009019GF102991001001999999001011MA1999999090981MD1110031+9999REMSYN100AAXX  13061 40785 32962 20000 10088 20030 39098 40230 51003 80001 90550 333 30001 50201 70000 82070;EQDQ01  00002PRCP24
0165407850999992000111309004+33980+051440FM-12+0982OIFK V0203001N002012200019N0120001N1+01221+00241102111ADDGA1041+060009019GF104991001001999999001011MA1999999090831MD1810151+9999REMSYN082AAXX  13091 40785 42962 43002 10122 20024 39083 40211 58015 80001 90850 333 84070;
0211407850999992000111312004+33980+051440FM-12+0982OIFK V0209999C000010600019N0150001N1+01341+00081999999ADDAA199000091GA1051+060009019GF105991001001999999001011MA1999999090731MD1710101+9999REMSYN082AAXX  13121 40785 32965 50000 10134 20008 39073 40121 57010 80001 91150 333 85070;EQDQ01+101213APOSLPQ02  00002PRCP99
0209407850999992000111318004+33980+051440FM-12+0982OIFK V0209999C000012200019N0150001N1+00761+00421102071ADDAA199000091GA1041+060009019GF104991001001999999001011GJ105589MA1999999090771MD1110041+9999REMSYN088AAXX  13181 40785 32965 40000 10076 20042 39077 40207 51004 80001 91750 333 55093 84070;EQDQ01  00002PRCP99
0184407850999992000111321004+33980+051440FM-12+0982OIFK V0209999C000010600019N0150001N1+00701+00341999999ADDGA1051+060009019GF105991001001999999001011MA1999999090771MD1410001+9999REMSYN082AAXX  13211 40785 42965 50000 10070 20034 39077 40785 54000 80001 92050 333 85070;EQDQ01+107853APOSLP
0195407850999992000111400004+33980+051440FM-12+0982OIFK V0209999C000012200019N0150001N1+00581+00361102061ADDAA199000091GA1041+060009019GF104991001001999999001011MA1999999090771MD1410001+9999REMSYN082AAXX  14001 40785 32965 40000 10058 20036 39077 40206 54000 80001 92350 333 84070;EQDQ01  00002PRCP99
0184407850999992000111403004+33980+051440FM-12+0982OIFK V0209999C000012200019N0150001N1+00561+00131102071ADDGA1031+060009019GF103991001001999999001011KA1120N+00501MA1999999090771MD1410001+9999REMSYN088AAXX  14031 40785 42965 30000 10056 20013 39077 40207 54000 80001 90250 333 20050 83070;
0213407850999992000111406004+33980+051440FM-12+0982OIFK V0209999C000010600019N0150001N1+00861+00191102311ADDAA124000091GA1051+060009019GF105991001001999999001011MA1999999090951MD1210181+9999REMSYN100AAXX  14061 40785 32965 50000 10086 20019 39095 40231 52018 80001 90550 333 30002 50221 70000 85070;EQDQ01  00002PRCP24
0165407850999992000111409004+33980+051440FM-12+0982OIFK V0209999C000010600019N0150001N1+01241+00291102091ADDGA1051+060009019GF105991001001999999001011MA1999999090811MD1810141+9999REMSYN082AAXX  14091 40785 42965 50000 10124 20029 39081 40209 58014 80001 90852 333 85070;
0189407850999992000111412004+33980+051440FM-12+0982OIFK V0209999C000010600019N0150001N1+99999+99999101941ADDAA199000091GA1061+060009019GF106991001001999999001011MA1999999090681MD1710131+9999REMSYN076AAXX  14121 40785 32965 60000 20002 39068 40194 57013 80001 91150 333 86070;EQDQ01  00002PRCP99
0184407850999992000111415004+33980+051440FM-12+0982OIFK V0209999C000010600019N0150001N1+01121+00221102061ADDGA1061+060009019GF106991001001999999001011KA1120M+01441MA1999999090741MD1310061+9999REMSYN088AAXX  14151 40785 42965 60000 10112 20022 39074 40206 53006 80001 91450 333 10144 86070;
0231407850999992000111418004+33980+051440FM-12+0982OIFK V0209999C000019999999N0150001N1+00881+00261102121ADDAA199000091GA1021+030009039GF105991999001999999031001GJ105289MA1999999090801MD1110061+9999REMSYN094AAXX  14181 40785 32965 50000 10088 20026 39080 40212 51006 82030 91750 333 55088 82360 85070;EQDQ01+000022SCOTLCQ02  00002PRCP99
0165407850999992000111421004+33980+051440FM-12+0982OIFK V0209999C000012200019N0150001N1+00761+00271102061ADDGA1031+060009019GF103991011001999999031021MA1999999090801MD1410001+9999REMSYN082AAXX  14211 40785 42965 30000 10076 20027 39080 40206 54000 81032 92050 333 83070;
0211407850999992000111500004+33980+051440FM-12+0982OIFK V0209999C000010600019N0150001N1+00781+00291102041ADDAA199000091GA1071+060009089GF107991999001999999071999MA1999999090801MD1410001+9999REMSYN082AAXX  15001 40785 32965 70000 10078 20029 39080 40204 54000 8007/ 92350 333 87270;EQDQ01+000002SCOTLCQ02  00002PRCP99
0190407850999992000111503004+33980+051440FM-12+0982OIFK V0209999C000019999999N0150001N1+00781+00351102141ADDGA1031+030009039GF106991031031999999071001KA1120N+00651MA1999999090861MD1710061+9999REMSYN094AAXX  15031 40785 42965 60000 10078 20035 39086 40214 57006 83370 90250 333 20065 83360 86270;
0219407850999992000111506004+33980+051440FM-12+0982OIFK V0209999C00001036001CN0120001N1+01101+00421102291ADDAA124000091GA1021+012009069GF107991021041012501071001MA1999999091021MD1210161+9999REMSYN106AAXX  15061 40785 32662 70000 10110 20042 39102 40229 52016 82470 90546 333 30003 50201 70000 82640 87360;EQDQ01  00002PRCP24
0171407850999992000111509004+33980+051440FM-12+0982OIFK V0209999C00001036001CN0120001N1+01341+00211102091ADDGA1021+012009069GF106991021041012501031001MA1999999090961MD1810061+9999REMSYN088AAXX  15091 40785 42662 60000 10134 20021 39096 40209 58006 82430 90846 333 82640 86360;
0201407850999992000111512004+33980+051440FM-12+0982OIFK V0209999C00001036001CN0120001N1+01381+00121102141ADDAA199000091GA1021+012009069GF107991021041012501031001MA1999999090901MD1610061+9999REMSYN088AAXX  15121 40785 32662 70000 10138 20012 39090 40214 56006 82430 91146 333 82640 86360;EQDQ01  00002PRCP99
0190407850999992000111515004+33980+051440FM-12+0982OIFK V0209999C00001036001CN0120001N1+01241+00181102271ADDGA1011+012009069GF106991011041012501031001KA1120M+01501MA1999999091001MD1310101+9999REMSYN094AAXX  15151 40785 42662 60000 10124 20018 39100 40227 53010 81430 91450 333 10150 81640 86360;
0223407850999992000111612004+33980+051440FM-12+0982OIFK V0209999C000010300019N0120001N1+01161+00031102721ADDAA199000091GA1021+012009069GA2041+030009039GF107991021041012501031061MA1999999091411MD1610041+9999REMSYN094AAXX  16121 40785 32662 70000 10116 20003 39141 40272 56004 82436 91150 333 82640 84360 86270;EQDQ01  00002PRCP99
0215407850999992000111618004+33980+051440FM-12+0982OIFK V0209999C00001220001CN0120001N1+00981+00121103051ADDAA199000091GA1011+012009069GF105991011041012501001011GJ101149MA1999999091691MD1210141+9999REMSYN094AAXX  16181 40785 32662 50000 10098 20012 39169 40305 52014 81401 91746 333 55019 81640 85070;EQDQ01  00002PRCP99
0219407850999992000111706004+33980+051440FM-12+0982OIFK V0209999C000019999999N0120001N1+00741+00061103361ADDAA124000091GA1031+030009039GF105991031001999999031061MA1999999091901MD1110111+9999REMSYN106AAXX  17061 40785 32962 50000 10074 20006 39190 40336 51011 83036 90550 333 30003 50221 70000 83360 85270;EQDQ01  00002PRCP24
0171407850999992000111709004+33980+051440FM-12+0982OIFK V0209999C00001036001CN0120001N1+00981-00011103261ADDGA1011+012009069GF107991011041012501011061MA1999999091851MD1810051+9999REMSYN088AAXX  17091 40785 42662 70000 10098 21001 39185 40326 58005 81416 90850 333 81640 85460;
0203407850999992000111712004+33980+051440FM-12+0982OIFK V0203001N00301012001CN0120001N1+01081-00041103081ADDAA199000091GA1021+010509099GA2031+012009069GF107991021031012501011001MA1999999091681REMSYN088AAXX  17121 40785 32662 73003 10108 21004 39168 40308 82310 91150 333 82935 83640 87460;EQDQ01  00002PRCP99
0215407850999992000111718004+33980+051440FM-12+0982OIFK V0209999C00001036001CN0150001N1+00941-00441103081ADDAA199000091GA1031+012009069GF108991031041012501011999GJ100309MA1999999091651MD1410001+9999REMSYN094AAXX  17181 40785 32665 80000 10094 21044 39165 40308 54000 8341/ 91750 333 55005 83640 88460;EQDQ01  00002PRCP99
0201407850999992000111800004+33980+051440FM-12+0982OIFK V0209999C00001036001CN0120001N1+00781-00171102801ADDAA199000091GA1041+012009069GF108991041041012501011999MA1999999091431MD1710101+9999REMSYN088AAXX  18001 40785 32662 80000 10078 21017 39143 40280 57010 8441/ 92350 333 84640 88460;EQDQ01  00002PRCP99
0195407850999992000111900004+33980+051440FM-12+0982OIFK V0209999C000012200019N0120001N1+00381-00071102511ADDAA199000091GA1031+030009079GF103991031001999999031001MA1999999091101MD1810011+9999REMSYN082AAXX  19001 40785 32962 30000 10038 21007 39110 40251 58001 83030 92350 333 83360;EQDQ01  00002PRCP99
0219407850999992000111906004+33980+051440FM-12+0982OIFK V0209999C000012200019N0150001N1+01061-00551102621ADDAA124000091GA1021+012009069GF104991021041012501031001MA1999999091271MD1110151+9999REMSYN106AAXX  19061 40785 32665 40000 10106 21055 39127 40262 51015 82430 90546 333 30001 50201 70000 82640 84360;EQDQ01  00002PRCP24
0201407850999992000111912004+33980+051440FM-12+0982OIFK V0209999C00001036001CN0150001N1+01241-00771102331ADDAA199000091GA1031+012009069GF105991031041012501031001MA1999999090991MD1710111+9999REMSYN088AAXX  19121 40785 32665 50000 10124 21077 39099 40233 57011 83430 91146 333 83640 85360;EQDQ01  00002PRCP99
0162407850999992000111915004+33980+051440FM-12+0982OIFK V0209999C000012200019N0150001N1+01041-00201102371ADDGF104991021041012501031001KA1999M+01401MA1999999090991MD1410001+9999REMSYN082AAXX  19151 40785 42665 40000 10104 21020 39099 40237 54000 82430 91450 333 10140;
0189407850999992000111918004+33980+051440FM-12+0982OIFK V0209999C000012200019N0150001N1+00561+00041102401ADDAA199000091GA1001+999999999GF100991001001999999001001MA1999999091061MD1110071+9999REMSYN076AAXX  19181 40785 32965 00000 10056 20004 39106 40240 51007 91750 333 55049;EQDQ01  00002PRCP99
0153407850999992000111921004+33980+051440FM-12+0982OIFK V0209999C000012200019N0150001N1+00361+00011102411ADDGA1001+999999999GF100991001001999999001001MA1999999091061MD1410001+9999REMSYN070AAXX  19211 40785 42965 00000 10036 20001 39106 40241 54000 92050 333;
0183407850999992000112000004+33980+051440FM-12+0982OIFK V0209999C000012200019N0150001N1+00301-00071102481ADDAA199000091GA1001+999999999GF100991001001999999001001MA1999999091021MD1810041+9999REMSYN070AAXX  20001 40785 32965 00000 10030 21007 39102 40248 58004 92050 333;EQDQ01  00002PRCP99
0190407850999992000112003004+33980+051440FM-12+0982OIFK V0209999C00001036001CN0150001N1+00621+00031102351ADDGA1021+012009069GF105991021051012501071001KA1120N+00341MA1999999091001MD1410001+9999REMSYN094AAXX  20031 40785 42665 50000 10062 20003 39100 40235 54000 82570 90250 333 20034 82640 85360;
0206407850999992000112006004+33980+051440FM-12+0982OIFK V0209999C000012200019N0100001N1+01021-00091102441ADDAA106000191GA1021+012009069GF104991021051012501031001MA1999999091071MD1110071+9999REMSYN112AAXX  20061 40785 12660 40000 10102 21009 39107 40244 51007 69911 82530 90550 333 30001 50141 70001 82640 84360;
0171407850999992000112009004+33980+051440FM-12+0982OIFK V0209999C00001036001CN0150001N1+01221-00241102371ADDGA1031+012009069GF106991031051012501031001MA1999999091001MD1810071+9999REMSYN088AAXX  20091 40785 42665 60000 10122 21024 39100 40237 58007 83530 90850 333 83640 86360;
0201407850999992000112012004+33980+051440FM-12+0982OIFK V0209999C00001036001CN0150001N1+01341-00301102111ADDAA199000091GA1031+012009069GF105991021051012501031001MA1999999090801MD1710201+9999REMSYN088AAXX  20121 40785 32665 50000 10134 21030 39080 40211 57020 82530 91150 333 83640 85360;EQDQ01  00002PRCP99
0184407850999992000112015004+33980+051440FM-12+0982OIFK V0209999C000012200019N0150001N1+01021-00161102131ADDGA1021+012009059GF104991021051012501031001KA1120M+01421MA1999999090801MD1410001+9999REMSYN088AAXX  20151 40785 42665 40000 10102 21016 39080 40213 54000 82530 91450 333 10142 82640;
0202407850999992000112018004+33980+051440FM-12+0982OIFK V0209999C00001036001CN0100001N1+00821+00331102001ADDAA106000591GA1031+012009069GF105991031051012501071001GJ103669MA1999999090741MD1810061+9999REMSYN100AAXX  20181 40785 12660 50000 10082 20033 39074 40200 58006 69941 83570 91746 333 55061 83640 85360;
0171407850999992000112021004+33980+051440FM-12+0982OIFK V0209999C00001036001CN0100001N1+00801+00271101891ADDGA1031+012009069GF105991031051012501031001MA1999999090671MD1710071+9999REMSYN088AAXX  20211 40785 42660 50000 10080 20027 39067 40189 57007 83530 92043 333 83640 85360;
0201407850999992000112100004+33980+051440FM-12+0982OIFK V0209999C000012200019N0100001N1+00721+00301101861ADDAA199000091GA1021+012009069GF104991021051012501031001MA1999999090641MD1610031+9999REMSYN088AAXX  21001 40785 32660 40000 10072 20030 39064 40186 56003 82530 92347 333 82640 84360;EQDQ01  00002PRCP99
0190407850999992000112103004+33980+051440FM-12+0982OIFK V0209999C000012200019N0100001N1+00541+00311101941ADDGA1021+012009069GF104991021051012501031001KA1120N+00541MA1999999090641MD1410001+9999REMSYN094AAXX  21031 40785 42660 40000 10054 20031 39064 40194 54000 82530 90246 333 20054 82640 84360;
0213407850999992000112106004+33980+051440FM-12+0982OIFK V0209999C000012200019N0150001N1+01061+00231101891ADDAA124000591GA1021+012009059GF102991999041012501001001MA1999999090661MD1110021+9999REMSYN100AAXX  21061 40785 32665 20000 10106 20023 39066 40189 51002 83400 90550 333 31003 50121 70004 82640;EQDQ01+000032SCOTLC
0165407850999992000112109004+33980+051440FM-12+0982OIFK V0209999C000012200019N0150001N1+01501+00221101541ADDGA1021+012009059GF102991021041012501001001MA1999999090411MD1710251+9999REMSYN082AAXX  21091 40785 42665 20000 10150 20022 39041 40154 57025 82400 90850 333 82640;
0195407850999992000112112004+33980+051440FM-12+0982OIFK V0209999C000012200019N0120001N1+01601+00191101441ADDAA199000091GA1021+012009059GF102991021041012501001001MA1999999090311MD1610101+9999REMSYN082AAXX  21121 40785 32662 20000 10160 20019 39031 40144 56010 82400 91150 333 82640;EQDQ01  00002PRCP99
0209407850999992000112118004+33980+051440FM-12+0982OIFK V0209999C000012200019N0150001N1+01061+00531101621ADDAA199000091GA1031+030009079GF103991031001999999031001GJ105229MA1999999090451MD1110081+9999REMSYN088AAXX  21181 40785 32965 30000 10106 20053 39045 40162 51008 83030 91750 333 55087 83360;EQDQ01  00002PRCP99
0171407850999992000112121004+33980+051440FM-12+0982OIFK V0209999C000012200019N0150001N1+01021+00321101541ADDGA1011+012009069GF104991011041012501031001MA1999999090451MD1410001+9999REMSYN088AAXX  21211 40785 42665 40000 10102 20032 39045 40154 54000 81430 92050 333 81640 84360;
0238407850999992000112200004+33980+051440FM-12+0982OIFK V0209999C00001036001CN0100001N1+01001+00671101511ADDAA106000591AY161061AY221061GA1011+010509099GA2031+012009069GF106991041031012501011001MA1999999090451MD1410001+9999MW1211REMSYN106AAXX  22001 40785 11660 60000 10100 20067 39045 40151 54000 69951 72162 84310 92350 333 81935 83640 86460;
0240407850999992000112203004+33980+051440FM-12+0982OIFK V0209999C00001036001CN0100001N1+00861+00621101681ADDAY161031AY221031GA1011+010509099GA2031+012009069GF107991041031012501011001KA1120N+00821MA1999999090501MD1310051+9999MW1021REMSYN106AAXX  22031 40785 41660 70000 10086 20062 39050 40168 53005 70262 84310 90250 333 20082 81935 83640 87460;
0206407850999992000112206004+33980+051440FM-12+0982OIFK V0209999C00001036001CN0100001N1+01081+00641101791ADDAA106003091GA1031+012009069GF105991021041012501031001MA1999999090611MD1210111+9999REMSYN112AAXX  22061 40785 12660 50000 10108 20064 39061 40179 52011 60031 82430 90550 333 31008 50101 70032 83640 85360;
0165407850999992000112209004+33980+051440FM-12+0982OIFK V0200601N002012200019N0120001N1+01381+00491101641ADDGA1031+012009059GF103991031041012501001001MA1999999090511MD1810101+9999REMSYN082AAXX  22091 40785 42662 30602 10138 20049 39051 40164 58010 83400 90852 333 83640;
0182407850999992000112212004+33980+051440FM-12+0982OIFK V0209999C000012200019N0120001N1+01441+00241101451ADDAA199000021GA1021+012009069GF104991021041012501031001MA1999999090351MD1610161+9999REMSYN088AAXX  22121 40785 32662 40000 10144 20024 39035 40145 56016 82430 91152 333 82640 84360;
0177407850999992000112215004+33980+051440FM-12+0982OIFK V0209999C00001220001CN0150001N1+01221+00501101651ADDGA1021+012009069GF105991031041012501001061MA1999999090481MD1210131+9999REMSYN094AAXX  22151 40785 42665 50000 10122 20050 39048 40165 52013 83406 91450 333 1016/ 82640 85360;
0215407850999992000112218004+33980+051440FM-12+0982OIFK V0209999C000012200019N0120001N1+00801+00541101761ADDAA199000091GA1011+012009069GF103991011041012501031001GJ103789MA1999999090551MD1210071+9999REMSYN094AAXX  22181 40785 32662 30000 10080 20054 39055 40176 52007 81430 91750 333 55063 81640 83360;EQDQ01  00002PRCP99
0139407850999992000112221004+33980+051440FM-12+0982OIFK V0209999C000012200019N0150001N1+00701+00531101791ADDGF102991021001999999031001MA1999999090601MD1110051+9999REMSYN072AAXX  22211 40785 42965 20000 10070 20053 39060 40179 51005 82030 92050;
0183407850999992000112300004+33980+051440FM-12+0982OIFK V0209999C000012200019N0150001N1+00581+00471101821ADDAA199000091GA1001+999999999GF100991001001999999001001MA1999999090601MD1410001+9999REMSYN070AAXX  23001 40785 32965 00000 10058 20047 39060 40182 54000 92350 333;EQDQ01  00002PRCP99
0172407850999992000112303004+33980+051440FM-12+0982OIFK V0209999C000012200019N0150001N1+00501+00001101891ADDGA1001+999999999GF100991001001999999001001KA1999N+00401MA1999999090621MD1310021+9999REMSYN076AAXX  23031 40785 42965 00000 10050 20000 39062 40189 53002 90250 333 20040;
0201407850999992000112306004+33980+051440FM-12+0982OIFK V0209999C000012200019N0150001N1+01021+00331102061ADDAA124000091GA1001+999999999GF100991001001999999001001MA1999999090791MD1210171+9999REMSYN088AAXX  23061 40785 32965 00000 10102 20033 39079 40206 52017 90546 333 30001 50261 70000;EQDQ01  00002PRCP24
0165407850999992000112309004+33980+051440FM-12+0982OIFK V0209999C000012200019N0150001N1+01301+00371101951ADDGA1021+012009029GF102991021011012501001001MA1999999090711MD1810081+9999REMSYN082AAXX  23091 40785 42665 20000 10130 20037 39071 40195 58008 82100 90846 333 82840;
0195407850999992000112312004+33980+051440FM-12+0982OIFK V0200501N003012200019N0150001N1+01501+00281101811ADDAA199000091GA1021+012009059GF102991021041012501001001MA1999999090611MD1710101+9999REMSYN082AAXX  23121 40785 32665 20503 10150 20028 39061 40181 57010 82400 91147 333 82640;EQDQ01  00002PRCP99
0172407850999992000112315004+33980+051440FM-12+0982OIFK V0209999C000012200019N0150001N1+01161+00501101901ADDGA1001+999999999GF100991001001999999001001KA1999M+01561MA1999999090611MD1410001+9999REMSYN076AAXX  23151 40785 42965 00000 10116 20050 39061 40190 54000 91452 333 10156;
0189407850999992000112318004+33980+051440FM-12+0982OIFK V0209999C000012200019N0150001N1+00861+00441102021ADDAA199000091GA1001+999999999GF100991001001999999001001MA1999999090761MD1210121+9999REMSYN076AAXX  23181 40785 32965 00000 10086 20044 39076 40202 52012 91752 333 55090;EQDQ01  00002PRCP99
0153407850999992000112321004+33980+051440FM-12+0982OIFK V0209999C000012200019N0100001N1+00801+00401101971ADDGA1001+999999999GF100991001001999999001001MA1999999090761MD1410001+9999REMSYN070AAXX  23211 40785 42960 00000 10080 20040 39076 40197 54000 92050 333;
0183407850999992000112400004+33980+051440FM-12+0982OIFK V0209999C000012200019N0100001N1+00541+00301101961ADDAA199000091GA1001+999999999GF100991001001999999001001MA1999999090761MD1410001+9999REMSYN070AAXX  24001 40785 32960 00000 10054 20030 39076 40196 54000 92350 333;EQDQ01  00002PRCP99
0184407850999992000112403004+33980+051440FM-12+0982OIFK V0209999C000012200019N0150001N1+00481+00251102381ADDGA1021+030009079GF102991021001999999031001KA1120N+00401MA1999999091041MD1310281+9999REMSYN088AAXX  24031 40785 42965 20000 10048 20025 39104 40238 53028 82030 90252 333 20040 82360;
0213407850999992000112406004+33980+051440FM-12+0982OIFK V0209999C000012200019N0150001N1+01061+00381102441ADDAA124000091GA1011+060009019GF101991001001999999001011MA1999999091141MD1210101+9999REMSYN100AAXX  24061 40785 32965 10000 10106 20038 39114 40244 52010 80001 90550 333 30002 50121 70000 81070;EQDQ01  00002PRCP24
0171407850999992000112409004+33980+051440FM-12+0982OIFK V0209999C000012200019N0150001N1+01401+00361102261ADDGA1011+012009089GF103991011011012501001011MA1999999091031MD1710111+9999REMSYN088AAXX  24091 40785 42665 30000 10140 20036 39103 40226 57011 81101 90850 333 81840 83070;
0195407850999992000112412004+33980+051440FM-12+0982OIFK V0209999C000012200019N0150001N1+01561+00321102111ADDAA199000091GA1021+012009029GF102991021011012501001001MA1999999090891MD1710141+9999REMSYN082AAXX  24121 40785 32665 20000 10156 20032 39089 40211 57014 82100 91150 333 82840;EQDQ01  00002PRCP99
0172407850999992000112415004+33980+051440FM-12+0982OIFK V0209999C000012200019N0150001N1+01101+00501102201ADDGA1001+999999999GF100991001001999999001001KA1999M+01651MA1999999090891MD1410001+9999REMSYN076AAXX  24151 40785 42965 00000 10110 20050 39089 40220 54000 91450 333 10165;
0189407850999992000112418004+33980+051440FM-12+0982OIFK V0209999C000012200019N0150001N1+00781+00471102291ADDAA199000091GA1001+999999999GF100991001001999999001001MA1999999091001MD1110111+9999REMSYN076AAXX  24181 40785 32965 00000 10078 20047 39100 40229 51011 91750 333 55088;EQDQ01  00002PRCP99
0153407850999992000112421004+33980+051440FM-12+0982OIFK V0209999C000012200019N0150001N1+00661+00351102171ADDGA1001+999999999GF100991001001999999001001MA1999999090941MD1810061+9999REMSYN070AAXX  24211 40785 42965 00000 10066 20035 39094 40217 58006 92050 333;
0203407850999992000112503004+33980+051440FM-12+0982OIFK V0209999C000012200019N0150001N1+00761+00271102301ADDGA1031+030009079GF103991999001999999001011KA1120N+00601MA1999999091011MD1310041+9999REMSYN088AAXX  25031 40785 42965 30000 10076 20027 39101 40230 53004 80001 90250 333 20060 83360;EQDQ01+000002SCOTLC
0201407850999992000112506004+33980+051440FM-12+0982OIFK V0209999C000012200019N0150001N1+01141+00141102441ADDAA124000091GA1001+999999999GF100991001001999999001001MA1999999091121MD1210111+9999REMSYN088AAXX  25061 40785 32965 00000 10114 20014 39112 40244 52011 90550 333 30004 50111 70000;EQDQ01  00002PRCP24
0165407850999992000112509004+33980+051440FM-12+0982OIFK V0209999C000012200019N0150001N1+01461+00241102271ADDGA1031+012009059GF103991031041012501001001MA1999999091001MD1810121+9999REMSYN082AAXX  25091 40785 42665 30000 10146 20024 39100 40227 58012 83400 90850 333 83640;
0201407850999992000112512004+33980+051440FM-12+0982OIFK V0209999C00001090001CN0150001N1+01521+00171102121ADDAA199000091GA1031+012009069GF105991031041012501001021MA1999999090891MD1710111+9999REMSYN088AAXX  25121 40785 32665 50000 10152 20017 39089 40212 57011 83402 91150 333 83640 84070;EQDQ01  00002PRCP99
0190407850999992000112515004+33980+051440FM-12+0982OIFK V0209999C00001220001CN0150001N1+01301+00371102301ADDGA1031+012009069GF105991031041012501001061KA1120M+01561MA1999999091021MD1210131+9999REMSYN094AAXX  25151 40785 42665 50000 10130 20037 39102 40230 52013 83406 91450 333 10156 83640 84270;
0215407850999992000112518004+33980+051440FM-12+0982OIFK V0209999C000012200019N0150001N1+00961+00501102421ADDAA199000091GA1021+012009069GF104991021041012501001061GJ103969MA1999999091141MD1110121+9999REMSYN094AAXX  25181 40785 32665 40000 10096 20050 39114 40242 51012 82406 91750 333 55066 82640 84270;EQDQ01  00002PRCP99
0165407850999992000112521004+33980+051440FM-12+0982OIFK V0209999C000012200019N0150001N1+00861+00441102381ADDGA1011+012009059GF101991011041012501001001MA1999999091141MD1410001+9999REMSYN082AAXX  25211 40785 42665 10000 10086 20044 39114 40238 54000 81400 92050 333 81640;
0183407850999992000112600004+33980+051440FM-12+0982OIFK V0209999C000012200019N0150001N1+00661+00301102271ADDAA199000091GA1001+999999999GF100991001001999999001001MA1999999091001MD1710141+9999REMSYN070AAXX  26001 40785 32965 00000 10066 20030 39100 40227 57014 92350 333;EQDQ01  00002PRCP99
0184407850999992000112603004+33980+051440FM-12+0982OIFK V0209999C000012200019N0150001N1+00601+00281102241ADDGA1021+030009079GF102991021001999999031001KA1120N+00501MA1999999090951MD1610051+9999REMSYN088AAXX  26031 40785 42965 20000 10060 20028 39095 40224 56005 82030 90250 333 20050 82360;
0219407850999992000112606004+33980+051440FM-12+0982OIFK V0209999C000012200019N0150001N1+01101+00371102431ADDAA124000091GA1011+012009069GF103991011041012501031001MA1999999091141MD1210191+9999REMSYN106AAXX  26061 40785 32665 30000 10110 20037 39114 40243 52019 81430 90550 333 30003 50141 70000 81640 83360;EQDQ01  00002PRCP24
0165407850999992000112609004+33980+051440FM-12+0982OIFK V0209999C000012200019N0150001N1+01581+00221102441ADDGA1021+012009059GF102991021041012501001001MA1999999091031MD1810111+9999REMSYN082AAXX  26091 40785 42665 20000 10158 20022 39103 40244 58011 82400 90852 333 82640;
0172407850999992000112615004+33980+051440FM-12+0982OIFK V0209999C000012200019N0100001N1+01221+00091102291ADDGA1001+999999999GF100991001001999999001001KA1999M+01741MA1999999090961MD1310071+9999REMSYN076AAXX  26151 40785 42960 00000 10122 20009 39096 40229 53007 91450 333 10174;
0189407850999992000112618004+33980+051440FM-12+0982OIFK V0209999C000012200019N0150001N1+00941+00151102311ADDAA199000091GA1001+999999999GF100991001001999999001001MA1999999091031MD1210071+9999REMSYN076AAXX  26181 40785 32965 00000 10094 20015 39103 40231 52007 91750 333 55086;EQDQ01  00002PRCP99
0183407850999992000112621004+33980+051440FM-12+0982OIFK V0209999C000012200019N0150001N1+00781+00081102261ADDAA199000091GA1001+999999999GF100991001001999999001001MA1999999091031MD1410001+9999REMSYN070AAXX  26211 40785 32965 00000 10078 20008 39103 40226 54000 92050 333;EQDQ01  00002PRCP99
0183407850999992000112700004+33980+051440FM-12+0982OIFK V0209999C000012200019N0150001N1+00501+00061102271ADDAA199000091GA1001+999999999GF100991001001999999001001MA1999999091031MD1410001+9999REMSYN070AAXX  27001 40785 32965 00000 10050 20006 39103 40227 54000 92350 333;EQDQ01  00002PRCP99
0172407850999992000112703004+33980+051440FM-12+0982OIFK V0209999C000012200019N0150001N1+00341-00031102421ADDGA1001+999999999GF100991001001999999001001KA1999N+00301MA1999999091031MD1410001+9999REMSYN076AAXX  27031 40785 42965 00000 10034 21003 39103 40242 54000 92050 333 20030;
0201407850999992000112706004+33980+051440FM-12+0982OIFK V0209999C000012200019N0150001N1+01141-00051102411ADDAA124000091GA1001+999999999GF100991001001999999001001MA1999999091141MD1310111+9999REMSYN088AAXX  27061 40785 32965 00000 10114 21005 39114 40241 53011 90546 333 30001 50231 70000;EQDQ01  00002PRCP24
0195407850999992000112712004+33980+051440FM-12+0982OIFK V0209999C000012200019N0150001N1+01561+00001102041ADDAA199000091GA1041+060009019GF104991001001999999001011MA1999999090821MD1710141+9999REMSYN082AAXX  27121 40785 32965 40000 10156 20000 39082 40204 57014 80001 91146 333 84070;EQDQ01  00002PRCP99
0184407850999992000112715004+33980+051440FM-12+0982OIFK V0209999C000012200019N0150001N1+01101+00271102161ADDGA1021+060009019GF102991001001999999001011KA1120M+01601MA1999999090801MD1610021+9999REMSYN088AAXX  27151 40785 42965 20000 10110 20027 39080 40216 56002 80001 91452 333 10160 82070;
0189407850999992000112718004+33980+051440FM-12+0982OIFK V0209999C000012200019N0100001N1+00761+00271102121ADDAA199000091GA1001+999999999GF100991001001999999001001MA1999999090861MD1110061+9999REMSYN076AAXX  27181 40785 32960 00000 10076 20027 39086 40212 51006 91750 333 55089;EQDQ01  00002PRCP99
0153407850999992000112721004+33980+051440FM-12+0982OIFK V0209999C000012200019N0150001N1+00681+00171101961ADDGA1001+999999999GF100991001001999999001001MA1999999090751MD1810111+9999REMSYN070AAXX  27211 40785 42965 00000 10068 20017 39075 40196 58011 92050 333;
0183407850999992000112800004+33980+051440FM-12+0982OIFK V0209999C000012200019N0150001N1+00521+00191101931ADDAA199000091GA1001+999999999GF100991001001999999001001MA1999999090721MD1610031+9999REMSYN070AAXX  28001 40785 32965 00000 10052 20019 39072 40193 56003 92352 333;EQDQ01  00002PRCP99
0172407850999992000112803004+33980+051440FM-12+0982OIFK V0209999C000012200019N0150001N1+00441-00131102161ADDGA1001+999999999GF100991001001999999001001KA1999N+00341MA1999999090801MD1310081+9999REMSYN076AAXX  28031 40785 42965 00000 10044 21013 39080 40216 53008 90250 333 20034;
0201407850999992000112806004+33980+051440FM-12+0982OIFK V0209999C000012200019N0150001N1+01221-00101102121ADDAA124000091GA1001+999999999GF100991001001999999001001MA1999999090851MD1110051+9999REMSYN088AAXX  28061 40785 32965 00000 10122 21010 39085 40212 51005 90550 333 30001 50361 70000;EQDQ01  00002PRCP24
0153407850999992000112809004+33980+051440FM-12+0982OIFK V0209999C000012200019N0150001N1+01461-00191102011ADDGA1001+999999999GF100991001001999999001001MA1999999090791MD1810061+9999REMSYN070AAXX  28091 40785 42965 00000 10146 21019 39079 40201 58006 90850 333;
0183407850999992000112812004+33980+051440FM-12+0982OIFK V0209999C000012200019N0150001N1+01721-00061101941ADDAA199000091GA1001+999999999GF100991001001999999001001MA1999999090751MD1610041+9999REMSYN070AAXX  28121 40785 32965 00000 10172 21006 39075 40194 56004 91150 333;EQDQ01  00002PRCP99
0172407850999992000112815004+33980+051440FM-12+0982OIFK V0209999C000012200019N0150001N1+01121+00001102121ADDGA1001+999999999GF100991001001999999001001KA1999M+01841MA1999999090791MD1310041+9999REMSYN076AAXX  28151 40785 42965 00000 10112 20000 39079 40212 53004 91445 333 10184;
0188407850999992000112818004+33980+051440FM-12+0982OIFK V0209999C000012200019N0150001N1+01041-00141102151ADDAA199000091GA1001+999999999GF100991001001999999001001MA1999999090941MD1210151+9999REMSYN075AAXX  28181 40785 32965 00000 10104 21014 39094 40215 52015 91746 333 5092;EQDQ01  00002PRCP99
0153407850999992000112821004+33980+051440FM-12+0982OIFK V0202701N002012200019N0150001N1+00841-00321102261ADDGA1001+999999999GF100991001001999999001001MA1999999091041MD1210101+9999REMSYN070AAXX  28211 40785 42965 02702 10084 21032 39104 40226 52010 92041 333;
0183407850999992000112900004+33980+051440FM-12+0982OIFK V0209999C000012200019N0150001N1+00721-00301102281ADDAA199000091GA1001+999999999GF100991001001999999001001MA1999999091041MD1410001+9999REMSYN070AAXX  29001 40785 32965 00000 10072 21030 39104 40228 54000 92345 333;EQDQ01  00002PRCP99
0172407850999992000112903004+33980+051440FM-12+0982OIFK V0209999C000012200019N0150001N1+00321-00211102541ADDGA1001+999999999GF100991001001999999001001KA1999N+00321MA1999999091151MD1210111+9999REMSYN076AAXX  29031 40785 42965 00000 10032 21021 39115 40254 52011 90246 333 20032;
0229407850999992000112906004+33980+051440FM-12+0982OIFK V0209999C000012200019N0150001N1+00961-00441102741ADDAA124000091GA1041+060009019GF199999001001999999001011MA1999999091401MD1210251+9999REMSYN100AAXX  29061 40785 32965 10000 10096 21044 39140 40274 52025 80001 90550 333 30101 50281 70000 84070;EQDQ01+000012SCOTCVQ02  00002PRCP24
0165407850999992000112909004+33980+051440FM-12+0982OIFK V0209999C000012200019N0150001N1+01261-00361102651ADDGA1031+060009019GF103991001001999999001011MA1999999091341MD1810061+9999REMSYN082AAXX  29091 40785 42965 30000 10126 21036 39134 40265 58006 80001 90850 333 83070;
0195407850999992000112912004+33980+051440FM-12+0982OIFK V0209999C000012200019N0150001N1+01461-00281102581ADDAA199000091GA1011+060009019GF101991001001999999001011MA1999999091251MD1710091+9999REMSYN082AAXX  29121 40785 32965 10000 10146 21028 39125 40258 57009 80001 91150 333 81070;EQDQ01  00002PRCP99
0184407850999992000112915004+33980+051440FM-12+0982OIFK V0209999C000012200019N0150001N1+01081-00101102771ADDGA1021+060009019GF102991001001999999001011KA1120M+01541MA1999999091321MD1310071+9999REMSYN088AAXX  29151 40785 42965 20000 10108 21010 39132 40277 53007 80001 91450 333 10154 82070;
0189407850999992000112918004+33980+051440FM-12+0982OIFK V0209999C000012200019N0150001N1+00701-00021102631ADDAA199000091GA1001+999999999GF100991001001999999001001MA1999999091251MD1610071+9999REMSYN076AAXX  29181 40785 32965 00000 10070 21002 39125 40263 56007 91750 333 55091;EQDQ01  00002PRCP99
0153407850999992000112921004+33980+051440FM-12+0982OIFK V0209999C000012200019N0150001N1+00801-00261102551ADDGA1001+999999999GF100991001001999999001001MA1999999091251MD1410001+9999REMSYN070AAXX  29211 40785 42965 00000 10080 21026 39125 40255 54000 92050 333;
0195407850999992000113000004+33980+051440FM-12+0982OIFK V0209999C000012200019N0150001N1+00741-00181102641ADDAA199000091GA1041+030009079GF104991041001999999031001MA1999999091351MD1310101+9999REMSYN082AAXX  30001 40785 32965 40000 10074 21018 39135 40264 53010 84030 92350 333 84360;EQDQ01  00002PRCP99
0190407850999992000113003004+33980+051440FM-12+0982OIFK V0209999C00001036001CN0150001N1+00621-00031102831ADDGA1011+012009069GF105991011041012501031001KA1120N+00501MA1999999091411MD1110061+9999REMSYN094AAXX  30031 40785 42665 50000 10062 21003 39141 40283 51006 81430 90250 333 20050 81640 85360;
0211407850999992000113006004+33980+051440FM-12+0982OIFK V0209999C00001030001CN0150001N1+00841+99999999999ADDAA199000091GA1021+012009069GA2041+030009039GF107991999999012501999999REMSYN111AAXX  30061 40785 32665 70000 10084 2102 39150 40294 53009 82436 90550 333 30003 50321 70000 82640 84360 87270;EQDQ01  00002PRCP99
0171407850999992000113009004+33980+051440FM-12+0982OIFK V0209999C00001036001CN0150001N1+01121-00281102821ADDGA1031+012009069GF105991031041012501031001MA1999999091471MD1810031+9999REMSYN088AAXX  30091 40785 42665 50000 10112 21028 39147 40282 58003 83430 90850 333 83640 85360;
0201407850999992000113012004+33980+051440FM-12+0982OIFK V0203001N00201220001CN0150001N1+01161-00301102721ADDAA199000091GA1021+012009069GF105991021041012501001011MA1999999091291MD1610181+9999REMSYN088AAXX  30121 40785 32665 53002 10116 21030 39129 40272 56018 82401 91150 333 82640 85070;EQDQ01  00002PRCP99
0184407850999992000113015004+33980+051440FM-12+0982OIFK V0209999C000012200019N0150001N1+00901+00001102761ADDGA1021+012009059GF102991021041012501001001KA1120M+01261MA1999999091341MD1310051+9999REMSYN088AAXX  30151 40785 42665 20000 10090 20000 39134 40276 53005 82400 91450 333 10126 82640;
0209407850999992000113018004+33980+051440FM-12+0982OIFK V0209999C000012200019N0150001N1+00761+00051102511ADDAA199000091GA1031+060009019GF103991001001999999001011GJ102769MA1999999091141MD1710201+9999REMSYN088AAXX  30181 40785 32965 30000 10076 20005 39114 40251 57020 80001 91750 333 55046 83070;EQDQ01  00002PRCP99
0165407850999992000113021004+33980+051440FM-12+0982OIFK V0209999C000012200019N0150001N1+00541+00081102431ADDGA1041+060009019GF104991001001999999001011MA1999999091091MD1710051+9999REMSYN082AAXX  30211 40785 42965 40000 10054 20008 39109 40243 57005 80001 92050 333 84070;
0195407850999992000120100004+33980+051440FM-12+0982OIFK V0209999C000012200019N0150001N1+00461+00121102461ADDAA199000091GA1031+060009019GF103991001001999999001011MA1999999091051MD1610041+9999REMSYN082AAXX  01001 40785 32965 30000 10046 20012 39105 40246 56004 80001 92350 333 83070;EQDQ01  00002PRCP99
0241407850999992000120106004+33980+051440FM-12+0982OIFK V0209999C000010300019N0150001N1+00861+00291102391ADDAA124000091GA1031+012009069GA2051+030009039GF107991031041012501031061MA1999999091051MD1410001+9999REMSYN112AAXX  01061 40785 32665 70000 10086 20029 39105 40239 54000 83436 90550 333 30004 50201 70000 83640 85360 87270;EQDQ01  00002PRCP24
0221407850999992000120109004+33980+051440FM-12+0982OIFK V0209999C00001036001CN0060001N1+00761+00501102451ADDAY161031AY221031GA1011+009009099GA2031+010509069GF108991041031008001021999MA1999999091031MD1810021+9999MW1631REMSYN100AAXX  01091 40785 41556 80000 10076 20050 39103 40245 58002 76362 8432/ 90850 333 81930 83635 88559;
0238407850999992000120112004+33980+051440FM-12+0982OIFK V0209999C00001036001CN0060001N1+00741+00621102311ADDAA106007191AY161061AY261061GA1011+009009099GA2031+010509069GF108991041031008001021999MA1999999090901MD1610131+9999MW1631REMSYN106AAXX  01121 40785 11556 80000 10074 20062 39090 40231 56013 60071 76366 8432/ 91150 333 81930 83635 88559;
0240407850999992000120115004+33980+051440FM-12+0982OIFK V0209999C00001036001CN0100001N1+00741+00651102381ADDAY161031AY261031GA1011+009009099GA2031+010509069GF108991031041008001021999KA1120M+00961MA1999999090991MD1110091+9999MW1211REMSYN106AAXX  01151 40785 41560 80000 10074 20065 39099 40238 51009 72166 8342/ 91450 333 10096 81930 83635 88459;
0202407850999992000120118004+33980+051440FM-12+0982OIFK V0209999C000012200019N0100001N1+00681+00591102211ADDAA106002091GA1011+010509069GF103991011041012501001011GJ100189MA1999999090891MD1610101+9999REMSYN100AAXX  01181 40785 12660 30000 10068 20059 39089 40221 56010 60021 81401 91750 333 55003 81635 83070;
0199407850999992000120121004+33980+051440FM-12+0982OIFK V0209999C000012200019N0070001N1+00521+00481102301ADDAY161031AY221031GA1021+010509069GF104991021041012501001011MA1999999090911MD1110021+9999MW1101REMSYN094AAXX  01211 40785 41657 40000 10052 20048 39091 40230 51002 71062 82401 92050 333 82635 84070;
0164407850999992000120200004+33980+051440FM-12+0982OIFK V0209999C000012200019N0150001N1+00481+00361102361ADDAA199000021GA1001+999999999GF100991001001999999001001MA1999999090911MD1410001+9999REMSYN070AAXX  02001 40785 32965 00000 10048 20036 39091 40236 54000 92350 333;
0190407850999992000120203004+33980+051440FM-12+0982OIFK V0209999C00001220001CN0100001N1+00621+00531102301ADDGA1021+012009069GF106991021051012501001061KA1120N+00501MA1999999090911MD1410001+9999REMSYN094AAXX  02031 40785 42660 60000 10062 20053 39091 40230 54000 82506 90250 333 20050 82640 86270;
0200407850999992000120206004+33980+051440FM-12+0982OIFK V0209999C00001036001CN0100001N1+00741+00571102471ADDAA124009191GA1031+012009069GF108991031041012501011999MA1999999091051MD1310141+9999REMSYN106AAXX  02061 40785 32660 80000 10074 20057 39105 40247 53014 8341/ 90550 333 31004 50081 70091 83640 88460;
0171407850999992000120209004+33980+051440FM-12+0982OIFK V0209999C00001036001CN0100001N1+00941+00611102401ADDGA1041+012009069GF108991041041012501011999MA1999999090991MD1810061+9999REMSYN088AAXX  02091 40785 42660 80000 10094 20061 39099 40240 58006 8441/ 90850 333 84640 88460;
0201407850999992000120212004+33980+051440FM-12+0982OIFK V0209999C00001036001CN0100001N1+00981+00611102301ADDAA199000091GA1031+012009069GF108991031041012501011999MA1999999090931MD1610061+9999REMSYN088AAXX  02121 40785 32660 80000 10098 20061 39093 40230 56006 8341/ 91150 333 83640 88460;EQDQ01  00002PRCP99
0190407850999992000120215004+33980+051440FM-12+0982OIFK V0209999C00001036001CN0100001N1+00921+00681102451ADDGA1041+012009069GF108991041041012501011999KA1120M+01041MA1999999091051MD1210121+9999REMSYN094AAXX  02151 40785 42660 80000 10092 20068 39105 40245 52012 8441/ 91450 333 10104 84640 88460;
0215407850999992000120218004+33980+051440FM-12+0982OIFK V0209999C000012200019N0100001N1+00801+00591102451ADDAA199000091GA1021+012009069GF104991021041012501011001GJ100009MA1999999091051MD1410001+9999REMSYN094AAXX  02181 40785 32660 40000 10080 20059 39105 40245 54000 82410 91750 333 55000 82640 84460;EQDQ01  00002PRCP99
0183407850999992000120300004+33980+051440FM-12+0982OIFK V0209999C000012200019N0120001N1+00381+00241102451ADDAA199000091GA1001+999999999GF100991001001999999001001MA1999999091011MD1410001+9999REMSYN070AAXX  03001 40785 32962 00000 10038 20024 39101 40245 54000 92350 333;EQDQ01  00002PRCP99
0172407850999992000120303004+33980+051440FM-12+0982OIFK V0209999C000012200019N0120001N1+00301+00151102471ADDGA1001+999999999GF100991001001999999001001KA1999N+00281MA1999999091011MD1410001+9999REMSYN076AAXX  03031 40785 42962 00000 10030 20015 39101 40247 54000 90250 333 20028;
0229407850999992000120306004+33980+051440FM-12+0982OIFK V0209999C000010600019N0120001N1+00661+00151102471ADDAA124000091GA1061+060009089GF106991999001999999001061MA1999999091081MD1310071+9999REMSYN100AAXX  03061 40785 32962 60000 10066 20015 39108 40247 53007 80006 90550 333 31000 50051 70000 86270;EQDQ01+000002SCOTLCQ02  00002PRCP24
0171407850999992000120309004+33980+051440FM-12+0982OIFK V0209999C00001090001CN0120001N1+00921+00411102431ADDGA1021+012009069GF107991021041012501001071MA1999999091051MD1810031+9999REMSYN088AAXX  03091 40785 42662 70000 10092 20041 39105 40243 58003 82407 90850 333 82640 87270;
0201407850999992000120312004+33980+051440FM-12+0982OIFK V0209999C00001090001CN0120001N1+00861+00351102431ADDAA199000091GA1031+012009069GF107991031041012501001071MA1999999091001MD1610051+9999REMSYN088AAXX  03121 40785 32662 70000 10086 20035 39100 40243 56005 83407 91150 333 83640 87270;EQDQ01  00002PRCP99
0190407850999992000120315004+33980+051440FM-12+0982OIFK V0209999C00001220001CN0120001N1+00721+00361102561ADDGA1011+012009069GF105991011041012501001011KA1120M+01001MA1999999091091MD1310091+9999REMSYN094AAXX  03151 40785 42662 50000 10072 20036 39109 40256 53009 81401 91450 333 10100 81640 84070;
0209407850999992000120318004+33980+051440FM-12+0982OIFK V0209999C000012200019N0120001N1+00501+00361102681ADDAA199000091GA1031+060009019GF103991001001999999001011GJ100069MA1999999091211MD1210121+9999REMSYN088AAXX  03181 40785 32962 30000 10050 20036 39121 40268 52012 80001 91750 333 55001 83070;EQDQ01  00002PRCP99
0165407850999992000120321004+33980+051440FM-12+0982OIFK V0209999C000012200019N0120001N1+00421+00281102641ADDGA1021+060009019GF102991001001999999001011MA1999999091211MD1410001+9999REMSYN082AAXX  03211 40785 42962 20000 10042 20028 39121 40264 54000 80001 92050 333 82070;
0229407850999992000120400004+33980+051440FM-12+0982OIFK V0209999C00001220001CN0070001N1+00381+00241102711ADDAA199000091AY101061AY201061GA1021+012009069GF105991021041012501001011MA1999999091341MD1310131+9999MW1101REMSYN094AAXX  04001 40785 31657 50000 10038 20024 39134 40271 53013 71000 82401 92350 333 82640 85070;EQDQ01  00002PRCP99
0218407850999992000120403004+33980+051440FM-12+0982OIFK V0209999C000012200019N0060001N1+00441+00351102921ADDAY101031AY201031GA1011+012009069GF104991011041012501001011KA1120N+00341MA1999999091421MD1210081+9999MW1101REMSYN100AAXX  04031 40785 41656 40000 10044 20035 39142 40292 52008 71000 81401 90250 333 20034 81640 84070;
0213407850999992000120406004+33980+051440FM-12+0982OIFK V0209999C000012200019N0100001N1+00401+00211103131ADDAA124000091GA1041+060009019GF104991001001999999001011MA1999999091571MD1210131+9999REMSYN100AAXX  04061 40785 32960 40000 10040 20021 39157 40313 52013 80001 90552 333 31000 50061 70000 84070;EQDQ01  00002PRCP24
0171407850999992000120409004+33980+051440FM-12+0982OIFK V0209999C00001090001CN0100001N1+00561+00291103011ADDGA1031+012009069GF107991031041012501001071MA1999999091481MD1810091+9999REMSYN088AAXX  04091 40785 42660 70000 10056 20029 39148 40301 58009 83407 90852 333 83640 87270;
0201407850999992000120412004+33980+051440FM-12+0982OIFK V0209999C00001036001CN0100001N1+00601+00281102871ADDAA199000091GA1031+012009069GF108991031041012501011999MA1999999091351MD1710181+9999REMSYN088AAXX  04121 40785 32660 80000 10060 20028 39135 40287 57018 8341/ 91150 333 83640 88460;EQDQ01  00002PRCP99
0171407850999992000120421004+33980+051440FM-12+0982OIFK V0209999C00001036001CN0100001N1+00501+00411102801ADDGA1031+012009069GF107991031041012501011001MA1999999091301MD1610041+9999REMSYN088AAXX  04211 40785 42660 70000 10050 20041 39130 40280 56004 83410 92050 333 83640 87460;
0201407850999992000120500004+33980+051440FM-12+0982OIFK V0209999C00001036001CN0100001N1+00541+00401102721ADDAA199000091GA1021+012009069GF106991021041012501011001MA1999999091241MD1810051+9999REMSYN088AAXX  05001 40785 32660 60000 10054 20040 39124 40272 58005 82410 92350 333 82640 86460;EQDQ01  00002PRCP99
0218407850999992000120503004+33980+051440FM-12+0982OIFK V0209999C00001036001CN0100001N1+00541+00451102761ADDAY161031AY221031GA1031+012009069GF107991031041012501011001KA1120N+00441MA1999999091271MD1110021+9999MW1201REMSYN100AAXX  05031 40785 41660 70000 10054 20045 39127 40276 51002 72062 83410 90250 333 20044 83640 87460;
0206407850999992000120506004+33980+051440FM-12+0982OIFK V0209999C00001036001CN0100001N1+00641+00461102871ADDAA106000191GA1021+012009069GF107991021041012501011001MA1999999091351MD1210081+9999REMSYN112AAXX  05061 40785 12660 70000 10064 20046 39135 40287 52008 69911 82410 90546 333 31000 50021 70001 82640 87460;
0193407850999992000120509004+33980+051440FM-12+0982OIFK V0209999C000010300019N0100001N1+00921+00441102671ADDGA1031+012009069GA2051+030009049GF107991031041012501011071MA1999999091231MD1810121+9999REMSYN094AAXX  05091 40785 42660 70000 10092 20044 39123 40267 58012 83417 90847 333 83640 85460 87270;
0204407850999992000120512004+33980+051440FM-12+0982OIFK V0209999C000010300019N0100001N1+00961+00501102461ADDAA199000021GA1041+012009069GA2051+030009049GF107991041041012501011071MA1999999091051MD1710181+9999REMSYN094AAXX  05121 40785 32660 70000 10096 20050 39105 40246 57018 84417 91146 333 84640 85460 87270;
0212407850999992000120515004+33980+051440FM-12+0982OIFK V0209999C000010300019N0100001N1+00901+00571102411ADDGA1041+012009069GA2061+030009049GF107991041041012501011081KA1120M+01041MA1999999091001MD1610051+9999REMSYN100AAXX  05151 40785 42660 70000 10090 20057 39100 40241 56005 84418 91450 333 10104 84640 86460 87270;
0216407850999992000120600004+33980+051440FM-12+0982OIFK V0209999C00001036001CN0100001N1+00701+00611102261ADDAA106007991AY161061AY221061GA1041+012009069GF108991041041012501011999MA1999999090921MD1410001+9999MW1021REMSYN100AAXX  06001 40785 11660 80000 10070 20061 39092 40226 54000 60081 70262 8441/ 92350 333 84640 88459;
0218407850999992000120603004+33980+051440FM-12+0982OIFK V0209999C00001036001CN0080001N1+00701+00611102261ADDAY121031AY221031GA1031+012009069GF108991031041012501021999KA1120N+00651MA1999999090921MD1410001+9999MW1611REMSYN100AAXX  06031 40785 41658 80000 10070 20061 39092 40226 54000 76122 8342/ 90250 333 20065 83640 88559;
0206407850999992000120606004+33980+051440FM-12+0982OIFK V0209999C00001036001CN0100001N1+00781+00611102361ADDAA106000391GA1031+012009069GF108991031041012501011999MA1999999091001MD1310071+9999REMSYN112AAXX  06061 40785 12660 80000 10078 20061 39100 40236 53007 69931 8341/ 90550 333 32006 50031 70084 83640 88459;
0171407850999992000120609004+33980+051440FM-12+0982OIFK V0209999C00001036001CN0100001N1+00961+00561102241ADDGA1031+012009069GF106991031041012501011999MA1999999090951MD1810051+9999REMSYN088AAXX  06091 40785 42660 60000 10096 20056 39095 40224 58005 8341/ 90850 333 83640 86460;
0182407850999992000120612004+33980+051440FM-12+0982OIFK V0209999C00001036001CN0100001N1+01121+00631102081ADDAA199000021GA1031+012009069GF106991031041012501031001MA1999999090821MD1710131+9999REMSYN088AAXX  06121 40785 32660 60000 10112 20063 39082 40208 57013 83430 91150 333 83640 86360;
0172407850999992000120615004+33980+051440FM-12+0982OIFK V0209999C000012200019N0100001N1+00821+00481102261ADDGA1001+999999999GF100991001001999999001001KA1999M+01151MA1999999090911MD1310091+9999REMSYN076AAXX  06151 40785 42960 00000 10082 20048 39091 40226 53009 91446 333 10115;
0153407850999992000120621004+33980+051440FM-12+0982OIFK V0209999C000012200019N0100001N1+00481+00251102231ADDGA1001+999999999GF100991001001999999001001MA1999999090861MD1810051+9999REMSYN070AAXX  06211 40785 42960 00000 10048 20025 39086 40223 58005 92041 333;
0183407850999992000120700004+33980+051440FM-12+0982OIFK V0209999C000012200019N0120001N1+00341+00191102211ADDAA199000091GA1001+999999999GF100991001001999999001001MA1999999090861MD1410001+9999REMSYN070AAXX  07001 40785 32962 00000 10034 20019 39086 40221 54000 92346 333;EQDQ01  00002PRCP99
0172407850999992000120703004+33980+051440FM-12+0982OIFK V0209999C000012200019N0120001N1+00241+00021102261ADDGA1001+999999999GF100991001001999999001001KA1999N+00201MA1999999090821MD1810041+9999REMSYN076AAXX  07031 40785 42962 00000 10024 20002 39082 40226 58004 90246 333 20020;
0213407850999992000120706004+33980+051440FM-12+0982OIFK V0209999C000012200019N0120001N1+00661+00301102351ADDAA124999999GA1041+060009089GF104991999001999999001061MA1999999090931MD1210111+9999REMSYN100AAXX  07061 40785 32962 40000 10066 20030 39093 40235 52011 80006 90550 333 31000 50051 7000/ 84270;EQDQ01+000002SCOTLC
0184407850999992000120709004+33980+051440FM-12+0982OIFK V0209999C000012200019N0120001N1+00941+00421102171ADDGA1041+060009089GF104991999001999999001061MA1999999090791MD1710141+9999REMSYN082AAXX  07091 40785 42962 40000 10094 20042 39079 40217 57014 80006 90850 333 84270;EQDQ01+000002SCOTLC
0211407850999992000120712004+33980+051440FM-12+0982OIFK V0209999C000010600019N0120001N1+00921+00591102091ADDAA199000091GA1061+060009089GF106991999001999999001061MA1999999090681MD1610111+9999REMSYN082AAXX  07121 40785 32962 60000 10092 20059 39068 40209 56011 80006 91150 333 86270;EQDQ01+000002SCOTLCQ02  00002PRCP99
0131407850999992000120715004+33980+051440FM-12+0982OIFK V0209999C000019999999N0100001N1+00881+00641999999ADDGF107991999999012501999999REMSYN093AAXX  07151 40785 42660 70000 10088 20064 3072 40216 53004 84407 91450 333 10104 84640 87270;
0237407850999992000120718004+33980+051440FM-12+0982OIFK V0209999C000010300019N0100001N1+00841+00631102151ADDAA199000091GA1031+012009069GA2051+030009049GF107991031041012501011071GJ102769MA1999999090791MD1110071+9999REMSYN100AAXX  07181 40785 32660 70000 10084 20063 39079 40215 51007 83417 91750 333 55046 83640 85460 87270;EQDQ01  00002PRCP99
0193407850999992000120721004+33980+051440FM-12+0982OIFK V0209999C000010300019N0100001N1+00821+00611102111ADDGA1031+012009069GA2051+030009049GF107991031041012501011071MA1999999090791MD1410001+9999REMSYN094AAXX  07211 40785 42660 70000 10082 20061 39079 40211 54000 83417 92050 333 83640 85460 87270;
0223407850999992000120800004+33980+051440FM-12+0982OIFK V0209999C000010300019N0100001N1+00741+00571102021ADDAA199000091GA1031+012009069GA2061+030009049GF107991031041012501011071MA1999999090701MD1610091+9999REMSYN094AAXX  08001 40785 32660 70000 10074 20057 39070 40202 56009 83417 92350 333 83640 86460 87270;EQDQ01  00002PRCP99
0212407850999992000120803004+33980+051440FM-12+0982OIFK V0209999C000010300019N0100001N1+00741+00521102131ADDGA1031+012009069GA2061+030009049GF107991031041012501011071KA1120N+00701MA1999999090791MD1310091+9999REMSYN100AAXX  08031 40785 42660 70000 10074 20052 39079 40213 53009 83417 90250 333 20070 83640 86460 87270;
0219407850999992000120806004+33980+051440FM-12+0982OIFK V0209999C00001036001CN0100001N1+00841+00581102251ADDAA124000091GA1031+012009069GF107991031041012501011001MA1999999090941MD1210151+9999REMSYN106AAXX  08061 40785 32660 70000 10084 20058 39094 40225 52015 83410 90552 333 31006 50101 70000 83640 87460;EQDQ01  00002PRCP24
0171407850999992000120809004+33980+051440FM-12+0982OIFK V0209999C00001036001CN0100001N1+00941+00561102221ADDGA1041+012009069GF107991041041012501011001MA1999999090921MD1810021+9999REMSYN088AAXX  08091 40785 42660 70000 10094 20056 39092 40222 58002 84410 90850 333 84640 87460;
0223407850999992000120812004+33980+051440FM-12+0982OIFK V0209999C000010120019N0100001N1+00941+00561102081ADDAA199000091GA1011+010509099GA2041+012009069GF108991051031012501021999MA1999999090791MD1610131+9999REMSYN094AAXX  08121 40785 32660 80000 10094 20056 39079 40208 56013 8532/ 91150 333 81935 84640 88460;EQDQ01  00002PRCP99
0190407850999992000120815004+33980+051440FM-12+0982OIFK V0209999C00001036001CN0100001N1+00901+00611102001ADDGA1041+012009069GF108991041041012501021999KA1120M+01021MA1999999090791MD1410001+9999REMSYN094AAXX  08151 40785 42660 80000 10090 20061 39079 40200 54000 8442/ 91450 333 10102 84640 88460;
0252407850999992000120818004+33980+051440FM-12+0982OIFK V0209999C000010120019N0100001N1+00901+00691102131ADDAA106000791AY121061AY221061GA1011+010509099GA2041+012009069GF108991051031012501021999GJ100189MA1999999090831MD1110041+9999MW1211REMSYN112AAXX  08181 40785 11660 80000 10090 20069 39083 40213 51004 69901 72122 8532/ 91750 333 55003 81935 84640 88459;
0221407850999992000120821004+33980+051440FM-12+0982OIFK V0209999C00001036001CN0080001N1+00881+00591102091ADDAY161031AY221031GA1011+009009099GA2031+010509069GF108991031091008001021999MA1999999090831MD1410001+9999MW1611REMSYN100AAXX  08211 40785 41558 80000 10088 20059 39083 40209 54000 76162 8392/ 92050 333 81930 83635 88559;
0238407850999992000120900004+33980+051440FM-12+0982OIFK V0209999C000010105019N0070001N1+00741+00571102121ADDAA106000891AY161061AY261061GA1011+009009099GA2041+010509069GF108991051031008001021999MA1999999090831MD1410001+9999MW1611REMSYN106AAXX  09001 40785 11557 80000 10074 20057 39083 40212 54000 69971 76166 8532/ 92350 333 81930 84635 88557;
0240407850999992000120903004+33980+051440FM-12+0982OIFK V0209999C000010105019N0100001N1+00661+00571102171ADDAY161031AY261031GA1011+009009099GA2041+010509069GF108991051031008001021999KA1120N+00641MA1999999090851MD1310021+9999MW1211REMSYN106AAXX  09031 40785 41560 80000 10066 20057 39085 40217 53002 72166 8532/ 90250 333 20064 81930 84635 88457;
0206407850999992000120906004+33980+051440FM-12+0982OIFK V0209999C00001036001CN0100001N1+00701+00581102381ADDAA106002091GA1041+012009069GF108991041041012501011999MA1999999091041MD1110191+9999REMSYN112AAXX  09061 40785 12660 80000 10070 20058 39104 40238 51019 60021 8441/ 90545 333 31007 50041 70023 84640 88460;
0193407850999992000120909004+33980+051440FM-12+0982OIFK V0209999C000010105019N0100001N1+00761+00551102281ADDGA1011+009009099GA2041+010509069GF108991051031008001011999MA1999999090971MD1810071+9999REMSYN094AAXX  09091 40785 42560 80000 10076 20055 39097 40228 58007 8531/ 90847 333 81930 84635 88459;
0204407850999992000120912004+33980+051440FM-12+0982OIFK V0209999C00001036001CN0100001N1+00701+00531102301ADDAA199000021GA1011+009009099GA2031+010509069GF108991041031008001021999MA1999999090941MD1610031+9999REMSYN094AAXX  09121 40785 32560 80000 10070 20053 39094 40230 56003 8432/ 91146 333 81930 83635 88459;
0190407850999992000120915004+33980+051440FM-12+0982OIFK V0209999C00001036001CN0100001N1+00741+00521102341ADDGA1031+010509069GF108991031041012501011999KA1120M+00801MA1999999091031MD1310091+9999REMSYN094AAXX  09151 40785 42660 80000 10074 20052 39103 40234 53009 8341/ 91452 333 10080 83635 88459;
0252407850999992000120918004+33980+051440FM-12+0982OIFK V0209999C000010105019N0060001N1+00701+00531102511ADDAA106000891AY161061AY221061GA1011+009009099GA2041+010509069GF108991051031008001021999GJ100009MA1999999091111MD1110081+9999MW1611REMSYN112AAXX  09181 40785 11556 80000 10070 20053 39111 40251 51008 69981 76162 8532/ 91752 333 55000 81930 84635 88559;
0216407850999992000121000004+33980+051440FM-12+0982OIFK V0209999C00001036001CN0100001N1+00581+00441102421ADDAA106004191AY161061AY221061GA1041+010509069GF108991041041012501021999MA1999999091001MD1810111+9999MW1211REMSYN100AAXX  10001 40785 11660 80000 10058 20044 39100 40242 58011 60041 72162 8442/ 92352 333 84635 87459;
0240407850999992000121003004+33980+051440FM-12+0982OIFK V0209999C000010105019N0080001N1+00541+00451102361ADDAY161031AY261031GA1011+009009099GA2041+010509069GF108991051031008001021999KA1120N+00521MA1999999090961MD1810041+9999MW1211REMSYN106AAXX  10031 40785 41558 80000 10054 20045 39096 40236 58004 72166 8532/ 90250 333 20052 81930 84635 88559;
0228407850999992000121006004+33980+051440FM-12+0982OIFK V0209999C000010105019N0100001N1+00581+00441102471ADDAA106002091GA1011+009009099GA2041+010509069GF108991051031008001021999MA1999999091051MD1210091+9999REMSYN118AAXX  10061 40785 12560 80000 10058 20044 39105 40247 52009 60021 8532/ 90550 333 32006 50021 70062 81930 84635 88459;
0221407850999992000121009004+33980+051440FM-12+0982OIFK V0209999C000010105019N0060001N1+00621+00441102431ADDAY151031AY221031GA1011+009009099GA2041+010509069GF108991051031008001021999MA1999999091001MD1810051+9999MW1511REMSYN100AAXX  10091 40785 41556 80000 10062 20044 39100 40243 58005 75152 8532/ 90850 333 81930 84635 88559;
0238407850999992000121012004+33980+051440FM-12+0982OIFK V0209999C000010105019N0060001N1+00641+00551102311ADDAA106001091AY161061AY261061GA1021+009009099GA2041+010509069GF108991061031008001021999MA1999999090901MD1610101+9999MW1611REMSYN106AAXX  10121 40785 11556 80000 10064 20055 39090 40231 56010 60011 76166 8632/ 91150 333 82930 84635 88559;
0240407850999992000121015004+33980+051440FM-12+0982OIFK V0209999C000010105019N0060001N1+00601+00511102281ADDAY151031AY261031GA1011+009009099GA2041+010509069GF108991051031008001021999KA1120M+00801MA1999999090831MD1610071+9999MW1511REMSYN106AAXX  10151 40785 41556 80000 10060 20051 39083 40228 56007 75156 8532/ 91450 333 10080 81930 84635 88559;
0252407850999992000121018004+33980+051440FM-12+0982OIFK V0209999C000010105019N0060001N1+00621+00581102101ADDAA106004191AY161061AY261061GA1011+009009099GA2041+010509069GF108991051031008001021999GJ100009MA1999999090701MD1810131+9999MW1631REMSYN112AAXX  10181 40785 11556 80000 10062 20058 39070 40210 58013 60041 76366 8532/ 91746 333 55000 81930 84635 88557;
0221407850999992000121021004+33980+051440FM-12+0982OIFK V0209999C000010105019N0060001N1+00601+00561101861ADDAY161031AY261031GA1011+009009099GA2041+010509069GF108991051031008001021999MA1999999090501MD1710201+9999MW1631REMSYN100AAXX  10211 40785 41556 80000 10060 20056 39050 40186 57020 76366 8532/ 92040 333 81930 84635 88557;
0240407850999992000121103004+33980+051440FM-12+0982OIFK V0209999C000010105019N0100001N1+00561+00471101431ADDAY161031AY261031GA1011+009009099GA2041+010509069GF108991051031008001021999KA1120N+00521MA1999999090101MD1710201+9999MW1211REMSYN106AAXX  11031 40785 41560 80000 10056 20047 39010 40143 57020 72166 8532/ 90246 333 20052 81930 84635 88459;
0256407850999992000121106004+33980+051440FM-12+0982OIFK V0209999C000010105019N0100001N1+00581+00491101361ADDAA106001091AY161061AY221061GA1011+009009099GA2041+010509069GF108991051031008001011999MA1999999090031MD1610071+9999MW1021REMSYN124AAXX  11061 40785 11560 80000 10058 20049 39003 40136 56007 60011 70262 8531/ 90550 333 32006 50021 70131 81930 84635 88459;
0193407850999992000121109004+33980+051440FM-12+0982OIFK V0203501N002010105019N0100001N1+00641+00461101341ADDGA1021+009009099GA2041+010509069GF108991051031008001011999MA1999999090031MD1410001+9999REMSYN094AAXX  11091 40785 42560 83502 10064 20046 39003 40134 54000 8531/ 90850 333 82930 84635 88459;
0204407850999992000121112004+33980+051440FM-12+0982OIFK V0203501N002010105019N0100001N1+00641+00461101421ADDAA199000021GA1021+009009099GA2041+010509069GF108991051031008001011999MA1999999090091MD1310061+9999REMSYN094AAXX  11121 40785 32560 83502 10064 20046 39009 40142 53006 8531/ 91150 333 82930 84635 88468;
0240407850999992000121115004+33980+051440FM-12+0982OIFK V0209999C000010105019N0100001N1+00581+00441101551ADDAY161031AY221031GA1011+009009099GA2041+010509069GF108991051031008001011999KA1120M+00741MA1999999090181MD1210091+9999MW1211REMSYN106AAXX  11151 40785 41560 80000 10058 20044 39018 40155 52009 72162 8531/ 91450 333 10074 81930 84635 88458;
0202407850999992000121118004+33980+051440FM-12+0982OIFK V0209999C00001036001CN0100001N1+00561+00381101551ADDAA106000391GA1041+010509069GF108991041041012501011999GJ100009MA1999999090181MD1410001+9999REMSYN100AAXX  11181 40785 12660 80000 10056 20038 39018 40155 54000 69931 8441/ 91750 333 55000 84635 88458;
0171407850999992000121121004+33980+051440FM-12+0982OIFK V0209999C00001036001CN0100001N1+00521+00291101561ADDGA1031+010509069GF108991031041012501011999MA1999999090181MD1410001+9999REMSYN088AAXX  11211 40785 42660 80000 10052 20029 39018 40156 54000 8341/ 92050 333 83635 88458;
0182407850999992000121200004+33980+051440FM-12+0982OIFK V0209999C00001036001CN0100001N1+00501+00271101611ADDAA199000021GA1031+012009069GF107991031041012501011001MA1999999090241MD1310061+9999REMSYN088AAXX  12001 40785 32660 70000 10050 20027 39024 40161 53006 83410 92350 333 83640 87459;
0190407850999992000121203004+33980+051440FM-12+0982OIFK V0209999C00001036001CN0100001N1+00401+00311101701ADDGA1011+012009069GF105991011041012501031001KA1120N+00351MA1999999090281MD1210041+9999REMSYN094AAXX  12031 40785 42660 50000 10040 20031 39028 40170 52004 81430 90250 333 20035 81640 84359;
0200407850999992000121206004+33980+051440FM-12+0982OIFK V0209999C000012200019N0120001N1+00661+00301101751ADDAA124000391GA1021+012009069GF104991021041012501031001MA1999999090401MD1210121+9999REMSYN106AAXX  12061 40785 32662 40000 10066 20030 39040 40175 52012 82430 90552 333 32003 50101 70003 82640 84359;
0195407850999992000121212004+33980+051440FM-12+0982OIFK V0209999C000012200019N0120001N1+01161+00401101561ADDAA199000091GA1031+010509059GF103991031041012501001001MA1999999090321MD1310041+9999REMSYN082AAXX  12121 40785 32662 30000 10116 20040 39032 40156 53004 83400 91152 333 83635;EQDQ01  00002PRCP99
0184407850999992000121215004+33980+051440FM-12+0982OIFK V0209999C000012200019N0120001N1+00841+00531101881ADDGA1011+010509059GF101991011041012501001001KA1120M+01301MA1999999090521MD1210201+9999REMSYN088AAXX  12151 40785 42662 10000 10084 20053 39052 40188 52020 81400 91450 333 10130 81635;
0189407850999992000121218004+33980+051440FM-12+0982OIFK V0209999C000012200019N0120001N1+00541+00401101891ADDAA199000091GA1001+999999999GF100991001001999999001001MA1999999090521MD1410001+9999REMSYN076AAXX  12181 40785 32962 00000 10054 20040 39052 40189 54000 91750 333 55053;EQDQ01  00002PRCP99
0172407850999992000121221004+33980+051440FM-12+0982OIFK V0209999C000012200019N0120001N1+00481+00341999999ADDGA1001+999999999GF100991001001999999001001MA1999999090611MD1110091+9999REMSYN070AAXX  12211 40785 42962 00000 10048 20034 39061 4010/ 51009 92050 333;EQDQ01+101003APOSLP
0183407850999992000121300004+33980+051440FM-12+0982OIFK V0209999C000012200019N0120001N1+00361+00161101931ADDAA199000091GA1001+999999999GF100991001001999999001001MA1999999090611MD1410001+9999REMSYN070AAXX  13001 40785 32962 00000 10036 20016 39061 40193 54000 92350 333;EQDQ01  00002PRCP99
0172407850999992000121303004+33980+051440FM-12+0982OIFK V0209999C000012200019N0120001N1+00421+00011102051ADDGA1001+999999999GF100991001001999999001001KA1999N+00281MA1999999090671MD1310061+9999REMSYN076AAXX  13031 40785 42962 00000 10042 20001 39067 40205 53006 90250 333 20028;
0201407850999992000121306004+33980+051440FM-12+0982OIFK V0209999C000012200019N0120001N1+00881+00311102201ADDAA124000091GA1001+999999999GF100991001001999999001001MA1999999090831MD1210161+9999REMSYN088AAXX  13061 40785 32962 00000 10088 20031 39083 40220 52016 90550 333 31101 50071 70000;EQDQ01  00002PRCP24
0153407850999992000121309004+33980+051440FM-12+0982OIFK V0209999C000012200019N0120001N1+01201+00131101971ADDGA1001+999999999GF100991001001999999001001MA1999999090681MD1810151+9999REMSYN070AAXX  13091 40785 42962 00000 10120 20013 39068 40197 58015 90846 333;
0195407850999992000121312004+33980+051440FM-12+0982OIFK V0209999C000012200019N0120001N1+01261+00131101931ADDAA199000091GA1021+010509059GF103991021041012501001011MA1999999090631MD1610051+9999REMSYN082AAXX  13121 40785 32662 30000 10126 20013 39063 40193 56005 82401 91146 333 82635;EQDQ01  00002PRCP99
0215407850999992000121318004+33980+051440FM-12+0982OIFK V0209999C00001220001CN0120001N1+00701+00391101911ADDAA199000091GA1011+012009069GF105991011041012501001011GJ104989MA1999999090611MD1810041+9999REMSYN094AAXX  13181 40785 32662 50000 10070 20039 39061 40191 58004 81401 91750 333 55083 81640 85070;EQDQ01  00002PRCP99
0171407850999992000121321004+33980+051440FM-12+0982OIFK V0209999C00001220001CN0120001N1+00621+00351101791ADDGA1021+012009069GF106991021041012501001061MA1999999090571MD1610041+9999REMSYN088AAXX  13211 40785 42662 60000 10062 20035 39057 40179 56004 82406 92050 333 82640 86270;
0201407850999992000121400004+33980+051440FM-12+0982OIFK V0209999C00001036001CN0120001N1+00701+00341101711ADDAA199000091GA1021+012009069GF107991021041012501031001MA1999999090491MD1710091+9999REMSYN088AAXX  14001 40785 32662 70000 10070 20034 39049 40171 57009 82430 92350 333 82640 87360;EQDQ01  00002PRCP99
0190407850999992000121403004+33980+051440FM-12+0982OIFK V0209999C00001036001CN0120001N1+00541+00211101841ADDGA1031+012009069GF106991031041012501031001KA1120N+00241MA1999999090531MD1310041+9999REMSYN094AAXX  14031 40785 42662 60000 10054 20021 39053 40184 53004 83430 90250 333 20024 83640 86360;
0241407850999992000121406004+33980+051440FM-12+0982OIFK V0209999C000010300019N0120001N1+00581+00121101961ADDAA124000091GA1011+012009069GA2061+030009039GF107991011041012501031071MA1999999090571MD1110051+9999REMSYN112AAXX  14061 40785 32662 70000 10058 20012 39057 40196 51005 81437 90550 333 31004 50101 70000 81640 86360 87270;EQDQ01  00002PRCP24
0193407850999992000121409004+33980+051440FM-12+0982OIFK V0209999C000010300019N0100001N1+00761+00161101721ADDGA1011+012009069GA2051+030009039GF106991011041012501031061MA1999999090361MD1710211+9999REMSYN094AAXX  14091 40785 42660 60000 10076 20016 39036 40172 57021 81436 90850 333 81640 85360 86270;
0223407850999992000121412004+33980+051440FM-12+0982OIFK V0209999C00001090001CN0100001N1+00861+00281101551ADDAA199000091GA1021+012009069GA2031+030009039GF105991021041012501031061MA1999999090261MD1610101+9999REMSYN094AAXX  14121 40785 32660 50000 10086 20028 39026 40155 56010 82436 91150 333 82640 83360 84270;EQDQ01  00002PRCP99
0212407850999992000121415004+33980+051440FM-12+0982OIFK V0209999C00001090001CN0100001N1+00761+00411101601ADDGA1011+010509099GA2031+012009069GF107991041031012501001071KA1120M+00901MA1999999090261MD1410001+9999REMSYN100AAXX  14151 40785 42660 70000 10076 20041 39026 40160 54000 84307 91450 333 10090 81935 83640 87270;
0237407850999992000121418004+33980+051440FM-12+0982OIFK V0209999C000010120019N0100001N1+00721+00371101571ADDAA199000091GA1021+010509099GA2031+012009069GF108991051031012501011999GJ100969MA1999999090241MD1810021+9999REMSYN100AAXX  14181 40785 32660 80000 10072 20037 39024 40157 58002 8531/ 91745 333 55016 82935 83640 88460;EQDQ01  00002PRCP99
0221407850999992000121421004+33980+051440FM-12+0982OIFK V0209999C000010120019N0060001N1+00641+00461101471ADDAY161031AY221031GA1021+010509099GA2031+012009069GF108991051031012501021999MA1999999090171MD1710071+9999MW1631REMSYN100AAXX  14211 40785 41656 80000 10064 20046 39017 40147 57007 76362 8532/ 92042 333 82935 83640 88559;
0216407850999992000121500004+33980+051440FM-12+0982OIFK V0209999C00001036001CN0100001N1+00601+00461101391ADDAA106004191AY161061AY221061GA1041+012009069GF108991041041012501011999MA1999999090091MD1710081+9999MW1021REMSYN100AAXX  15001 40785 11660 80000 10060 20046 39009 40139 57008 60041 70262 8441/ 92346 333 84640 88459;
0190407850999992000121503004+33980+051440FM-12+0982OIFK V0209999C00001036001CN0100001N1+00581+00441101341ADDGA1041+012009069GF108991041041012501011999KA1120N+00551MA1999999090031MD1710061+9999REMSYN094AAXX  15031 40785 42660 80000 10058 20044 39003 40134 57006 8441/ 90245 333 20055 84640 88459;
0200407850999992000121506004+33980+051440FM-12+0982OIFK V0209999C00001036001CN0100001N1+00621+00501101411ADDAA124004391GA1031+012009069GF108991031041012501021999MA1999999090121MD1310091+9999REMSYN106AAXX  15061 40785 32660 80000 10062 20050 39012 40141 53009 8342/ 90550 333 32005 50061 70043 83640 88459;
0171407850999992000121509004+33980+051440FM-12+0982OIFK V0209999C00001036001CN0100001N1+00801+00461101211ADDGA1041+012009069GF108991041041012501011999MA1999999089961MD1710161+9999REMSYN088AAXX  15091 40785 42660 80000 10080 20046 38996 40121 57016 8441/ 90850 333 84640 88459;
0238407850999992000121512004+33980+051440FM-12+0982OIFK V0209999C00001036001CN0100001N1+00801+00461101201ADDAA106000191AY161061AY221061GA1011+009009099GA2031+010509069GF108991031041008001021999MA1999999089941MD1510021+9999MW1021REMSYN106AAXX  15121 40785 11560 80000 10080 20046 38994 40120 55002 69911 70262 8342/ 91150 333 81930 83635 88458;
0240407850999992000121515004+33980+051440FM-12+0982OIFK V0202701N002010105019N0060001N1+00581+00411101461ADDAY121031AY221031GA1021+009009099GA2041+010509069GF108991061031008001021999KA1120M+00901MA1999999090131MD1210191+9999MW1631REMSYN106AAXX  15151 40785 41556 82702 10058 20041 39013 40146 52019 76322 8632/ 91450 333 10090 82930 84635 88558;
0202407850999992000121518004+33980+051440FM-12+0982OIFK V0209999C00001220001CN0100001N1+00501+00361101451ADDAA106006191GA1031+010509069GF107991031041012501001011GJ100009MA1999999090131MD1410001+9999REMSYN100AAXX  15181 40785 12660 70000 10050 20036 39013 40145 54000 60061 83401 91750 333 55000 83635 87459;
0171407850999992000121521004+33980+051440FM-12+0982OIFK V0209999C00001036001CN0100001N1+00481+00341101371ADDGA1031+010509069GF106991031041012501011001MA1999999090081MD1810051+9999REMSYN088AAXX  15211 40785 42660 60000 10048 20034 39008 40137 58005 83410 92050 333 83635 86460;
0176407850999992000121600004+33980+051440FM-12+0982OIFK V0202501N007012200019N0100001N1+00841-00541101311ADDAA199000021GA1031+030009079GF103991031001999999031001MA1999999090081MD1410001+9999REMSYN082AAXX  16001 40785 32960 32507 10084 21054 39008 40131 54000 83030 92350 333 83360;
0172407850999992000121603004+33980+051440FM-12+0982OIFK V0202501N006012200019N0100001N1+00721-00421101461ADDGA1001+999999999GF100991001001999999001001KA1999N+00441MA1999999090241MD1310161+9999REMSYN076AAXX  16031 40785 42960 02506 10072 21042 39024 40146 53016 90250 333 20044;
0200407850999992000121606004+33980+051440FM-12+0982OIFK V0209999C000012200019N0100001N1+01001+00091101741ADDAA124006691GA1021+150009069GF104991021011012501001011MA1999999090431MD1210191+9999REMSYN106AAXX  16061 40785 32660 40000 10100 20009 39043 40174 52019 82101 90552 333 32002 50041 70065 82684 84070;
0195407850999992000121612004+33980+051440FM-12+0982OIFK V0202401N009012200019N0120001N1+01161-00541101701ADDAA199000091GA1031+012009059GF103991031041012501001001MA1999999090491MD1310091+9999REMSYN082AAXX  16121 40785 32662 32409 10116 21054 39049 40170 53009 83400 91150 333 83640;EQDQ01  00002PRCP99
0184407850999992000121615004+33980+051440FM-12+0982OIFK V0202401N002012200019N0120001N1+00741-00331102031ADDGA1021+012009059GF102991021041012501001001KA1120M+01281MA1999999090691MD1210161+9999REMSYN088AAXX  16151 40785 42662 22402 10074 21033 39069 40203 52016 82400 91450 333 10128 82640;
0189407850999992000121618004+33980+051440FM-12+0982OIFK V0209999C000012200019N0120001N1+00401-00121102241ADDAA199000091GA1001+999999999GF100991001001999999001001MA1999999090871MD1210181+9999REMSYN076AAXX  16181 40785 32962 00000 10040 21012 39087 40224 52018 91750 333 55086;EQDQ01  00002PRCP99
0153407850999992000121621004+33980+051440FM-12+0982OIFK V0209999C000012200019N0120001N1+00321-00271102331ADDGA1001+999999999GF100991001001999999001001MA1999999090951MD1110081+9999REMSYN070AAXX  16211 40785 42962 00000 10032 21027 39095 40233 51008 92050 333;
0183407850999992000121700004+33980+051440FM-12+0982OIFK V0209999C000012200019N0150001N1+00261-00181102761ADDAA199000091GA1001+999999999GF100991001001999999001001MA1999999090951MD1410001+9999REMSYN070AAXX  17001 40785 32965 00000 10026 21018 39095 40276 54000 92350 333;EQDQ01  00002PRCP99
0172407850999992000121703004+33980+051440FM-12+0982OIFK V0209999C000012200019N0150001N1+00021-00321102611ADDGA1001+999999999GF100991001001999999001001KA1999N+00001MA1999999091071MD1310121+9999REMSYN076AAXX  17031 40785 42965 00000 10002 21032 39107 40261 53012 92050 333 20000;
0195407850999992000121706004+33980+051440FM-12+0982OIFK V0209999C000012200019N0150001N1+00521-00491102831ADDAA124000091GA1001+999999999GF100991001001999999001001MA1999999091271MD1210201+9999REMSYN082AAXX  17061 40785 32965 00000 10052 21049 39127 40283 52020 90547 333 31103 70000;EQDQ01  00002PRCP24
0165407850999992000121709004+33980+051440FM-12+0982OIFK V0209999C000012200019N0150001N1+00921-00301102561ADDGA1021+060009019GF102991001001999999001011MA1999999091101MD1810171+9999REMSYN082AAXX  17091 40785 42965 20000 10092 21030 39110 40256 58017 80001 90845 333 82070;
0195407850999992000121712004+33980+051440FM-12+0982OIFK V0209999C000012200019N0150001N1+01201-00121102471ADDAA199000091GA1041+060009019GF104991001001999999001011MA1999999091031MD1610071+9999REMSYN082AAXX  17121 40785 32965 40000 10120 21012 39103 40247 56007 80001 91145 333 84070;EQDQ01  00002PRCP99
0184407850999992000121715004+33980+051440FM-12+0982OIFK V0209999C000012200019N0150001N1+00701+00131102721ADDGA1041+060009019GF104991001001999999001011KA1120M+01241MA1999999091151MD1210121+9999REMSYN088AAXX  17151 40785 42965 40000 10070 20013 39115 40272 52012 80001 91452 333 10124 84070;
0189407850999992000121718004+33980+051440FM-12+0982OIFK V0209999C000012200019N0150001N1+00501+00001102761ADDAA199000091GA1001+999999999GF100991001001999999001001MA1999999091231MD1110081+9999REMSYN076AAXX  17181 40785 32965 00000 10050 20000 39123 40276 51008 91750 333 55088;EQDQ01  00002PRCP99
0153407850999992000121721004+33980+051440FM-12+0982OIFK V0209999C000012200019N0150001N1+00361+00061102631ADDGA1001+999999999GF100991001001999999001001MA1999999091161MD1610071+9999REMSYN070AAXX  17211 40785 42965 00000 10036 20006 39116 40263 56007 92050 333;
0183407850999992000121800004+33980+051440FM-12+0982OIFK V0209999C000012200019N0150001N1+00221-00161102641ADDAA199000091GA1001+999999999GF100991001001999999001001MA1999999091211MD1310051+9999REMSYN070AAXX  18001 40785 32965 00000 10022 21016 39121 40264 53005 92352 333;EQDQ01  00002PRCP99
0172407850999992000121803004+33980+051440FM-12+0982OIFK V0209999C000012200019N0100001N1+00101-00171102861ADDGA1001+999999999GF100991001001999999001001KA1999N+00051MA1999999091281MD1210071+9999REMSYN076AAXX  18031 40785 42960 00000 10010 21017 39128 40286 52007 90250 333 20005;
0303407850999992000121806004+33980+051440FM-12+0982OIFK V0209999C000012200019N0150001N1+00661+00151102871ADDAA124000091GF100991001001999999001001KA1120M+99999KA2120N-00451MA1999999091371MD1210091+9999REMSYN164AAXX  18061 40785 32965 00000 10066 20015 39137 40287 52009 90550 333 31103 70000 40809 32965 10000 10024 21045 38601 40313 52012 80001 90550 333 31106 70000 81070;EQDQ01  00002PRCP24Q02 +00002ATMX  
0153407850999992000121809004+33980+051440FM-12+0982OIFK V0209999C000012200019N0150001N1+01041-00081102681ADDGA1001+999999999GF100991001001999999001001MA1999999091251MD1810121+9999REMSYN070AAXX  18091 40785 42965 00000 10104 21008 39125 40268 58012 90850 333;
0183407850999992000121812004+33980+051440FM-12+0982OIFK V0209999C000012200019N0150001N1+01201+00001102641ADDAA199000091GA1001+999999999GF100991001001999999001001MA1999999091201MD1610051+9999REMSYN070AAXX  18121 40785 32965 00000 10120 20000 39120 40264 56005 91150 333;EQDQ01  00002PRCP99
0184407850999992000121815004+33980+051440FM-12+0982OIFK V0209999C000012200019N0150001N1+00861+00031102731ADDGA1031+060009019GF103991001001999999001011KA1120M+01301MA1999999091201MD1410001+9999REMSYN088AAXX  18151 40785 42965 30000 10086 20003 39120 40273 54000 80001 91450 333 10130 83070;
0189407850999992000121818004+33980+051440FM-12+0982OIFK V0209999C000012200019N0150001N1+00481+00091102581ADDAA199000091GA1001+999999999GF100991001001999999001001MA1999999091121MD1810081+9999REMSYN076AAXX  18181 40785 32965 00000 10048 20009 39112 40258 58008 91750 333 55088;EQDQ01  00002PRCP99
0153407850999992000121821004+33980+051440FM-12+0982OIFK V0209999C000012200019N0150001N1+00341+00031102531ADDGA1001+999999999GF100991001001999999001001MA1999999091121MD1410001+9999REMSYN070AAXX  18211 40785 42965 00000 10034 20003 39112 40253 54000 92050 333;
0183407850999992000121900004+33980+051440FM-12+0982OIFK V0209999C000012200019N0150001N1+00261-00401102561ADDAA199000091GA1001+999999999GF100991001001999999001001MA1999999091121MD1410001+9999REMSYN070AAXX  19001 40785 32965 00000 10026 21040 39112 40256 54000 92350 333;EQDQ01  00002PRCP99
0213407850999992000121906004+33980+051440FM-12+0982OIFK V0209999C000012200019N0150001N1+00501+00111102521ADDAA124000091GA1031+060009019GF103991001001999999001011MA1999999091031MD1110101+9999REMSYN100AAXX  19061 40785 32965 30000 10050 20011 39103 40252 51010 80001 90550 333 30103 50061 70000 83070;EQDQ01  00002PRCP24
0223407850999992000121912004+33980+051440FM-12+0982OIFK V0203301N002010300019N0150001N1+00861+00341102131ADDAA199000091GA1021+012009069GA2041+030009039GF105991031041012501031011MA1999999090701MD1810071+9999REMSYN094AAXX  19121 40785 32665 53302 10086 20034 39070 40213 58007 83431 91150 333 82640 84360 85070;EQDQ01  00002PRCP99
0190407850999992000121915004+33980+051440FM-12+0982OIFK V0209999C00001036001CN0150001N1+00741+00291102181ADDGA1031+012009069GF107991031041012501071001KA1120M+01201MA1999999090701MD1410001+9999REMSYN094AAXX  19151 40785 42665 70000 10074 20029 39070 40218 54000 83470 91450 333 10120 83640 87360;
0215407850999992000121918004+33980+051440FM-12+0982OIFK V0209999C000012200019N0150001N1+00601+00331102091ADDAA199000091GA1021+012009069GF104991021041012501031001GJ104389MA1999999090681MD1810021+9999REMSYN094AAXX  19181 40785 32665 40000 10060 20033 39068 40209 58002 82430 91750 333 55073 82640 84360;EQDQ01  00002PRCP99
0171407850999992000121921004+33980+051440FM-12+0982OIFK V0209999C000012200019N0150001N1+00501+00251101851ADDGA1021+012009069GF104991021041012501031001MA1999999090551MD1710171+9999REMSYN088AAXX  19211 40785 42665 40000 10050 20025 39055 40185 57017 82430 92050 333 82640 84360;
0201407850999992000122000004+33980+051440FM-12+0982OIFK V0209999C000012200019N0150001N1+00381+00211101881ADDAA199000091GA1011+012009069GF103991011041012501031001MA1999999090551MD1410001+9999REMSYN088AAXX  20001 40785 32665 30000 10038 20021 39055 40188 54000 81430 92350 333 81640 83360;EQDQ01  00002PRCP99
0184407850999992000122003004+33980+051440FM-12+0982OIFK V0209999C000012200019N0150001N1+00341+00091102031ADDGA1031+012009059GF103991031041012501001001KA1120N+00301MA1999999090611MD1410001+9999REMSYN088AAXX  20031 40785 42665 30000 10034 20009 39061 40203 54000 83400 90250 333 20030 83640;
0201407850999992000122012004+33980+051440FM-12+0982OIFK V0203301N00201036001CN0120001N1+00941+00201101801ADDAA199000091GA1031+012009069GF106991031041012501071001MA1999999090441MD1710111+9999REMSYN088AAXX  20121 40785 32662 63302 10094 20020 39044 40180 57011 83470 91150 333 83640 86360;EQDQ01  00002PRCP99
0209407850999992000122018004+33980+051440FM-12+0982OIFK V0209999C000012200019N0120001N1+00421+00171101941ADDAA199000091GA1011+012009059GF101991011041012501001001GJ101209MA1999999090491MD1410001+9999REMSYN088AAXX  20181 40785 32662 10000 10042 20017 39049 40194 54000 81400 91750 333 55020 81640;EQDQ01  00002PRCP99
0153407850999992000122021004+33980+051440FM-12+0982OIFK V0209999C000012200019N0150001N1+00341+00141101851ADDGA1001+999999999GF100991001001999999001001MA1999999090451MD1710041+9999REMSYN070AAXX  20211 40785 42965 00000 10034 20014 39045 40185 57004 92050 333;
0183407850999992000122100004+33980+051440FM-12+0982OIFK V0209999C000012200019N0150001N1+00141-00021101861ADDAA199000091GA1001+999999999GF100991001001999999001001MA1999999090451MD1410001+9999REMSYN070AAXX  21001 40785 32965 00000 10014 21002 39045 40186 54000 92350 333;EQDQ01  00002PRCP99
0172407850999992000122103004+33980+051440FM-12+0982OIFK V0209999C000012200019N0150001N1+00201-00061101781ADDGA1001+999999999GF100991001001999999001001KA1999N+00001MA1999999090351MD1810101+9999REMSYN076AAXX  21031 40785 42965 00000 10020 21006 39035 40178 58010 90250 333 20000;
0201407850999992000122106004+33980+051440FM-12+0982OIFK V0209999C000012200019N0150001N1+00521+00131101941ADDAA124000091GA1001+999999999GF100991001001999999001001MA1999999090521MD1310171+9999REMSYN088AAXX  21061 40785 32965 00000 10052 20013 39052 40194 53017 90546 333 30102 50101 70000;EQDQ01  00002PRCP24
0165407850999992000122109004+33980+051440FM-12+0982OIFK V0209999C000012200019N0150001N1+00981+00291101761ADDGA1011+012009029GF101991011011012501001001MA1999999090431MD1810091+9999REMSYN082AAXX  21091 40785 42665 10000 10098 20029 39043 40176 58009 81100 90847 333 81840;
0183407850999992000122112004+33980+051440FM-12+0982OIFK V0209999C000012200019N0150001N1+01041+00281101681ADDAA199000091GA1001+999999999GF100991001001999999001001MA1999999090331MD1710101+9999REMSYN070AAXX  21121 40785 32965 00000 10104 20028 39033 40168 57010 91146 333;EQDQ01  00002PRCP99
0172407850999992000122115004+33980+051440FM-12+0982OIFK V0209999C000012200019N0150001N1+00741+00311101781ADDGA1001+999999999GF100991001001999999001001KA1999M+01101MA1999999090381MD1310051+9999REMSYN076AAXX  21151 40785 42965 00000 10074 20031 39038 40178 53005 91450 333 10110;
0189407850999992000122118004+33980+051440FM-12+0982OIFK V0209999C000012200019N0150001N1+00581+00251101891ADDAA199000091GA1001+999999999GF100991001001999999001001MA1999999090511MD1210131+9999REMSYN076AAXX  21181 40785 32965 00000 10058 20025 39051 40189 52013 91750 333 55085;EQDQ01  00002PRCP99
0153407850999992000122121004+33980+051440FM-12+0982OIFK V0209999C000012200019N0150001N1+00441+00241101841ADDGA1001+999999999GF100991001001999999001001MA1999999090511MD1410001+9999REMSYN070AAXX  21211 40785 42965 00000 10044 20024 39051 40184 54000 92050 333;
0183407850999992000122200004+33980+051440FM-12+0982OIFK V0209999C000012200019N0150001N1+00241-00021101871ADDAA199000091GA1001+999999999GF100991001001999999001001MA1999999090511MD1410001+9999REMSYN070AAXX  22001 40785 32965 00000 10024 21002 39051 40187 54000 92352 333;EQDQ01  00002PRCP99
0172407850999992000122203004+33980+051440FM-12+0982OIFK V0209999C000012200019N0100001N1+00161-00061102011ADDGA1001+999999999GF100991001001999999001001KA1999N+00121MA1999999090581MD1310071+9999REMSYN076AAXX  22031 40785 42960 00000 10016 21006 39058 40201 53007 90250 333 20012;
0201407850999992000122206004+33980+051440FM-12+0982OIFK V0209999C000012200019N0120001N1+00561+00291102201ADDAA124000091GA1001+999999999GF100991001001999999001001MA1999999090751MD1210171+9999REMSYN088AAXX  22061 40785 32962 00000 10056 20029 39075 40220 52017 90550 333 30102 50101 70000;EQDQ01  00002PRCP24
0165407850999992000122209004+33980+051440FM-12+0982OIFK V0209999C000012200019N0120001N1+01121+00391102071ADDGA1021+012009059GF102991021041012501001001MA1999999090711MD1810041+9999REMSYN082AAXX  22091 40785 42662 20000 10112 20039 39071 40207 58004 82400 90850 333 82640;
0195407850999992000122212004+33980+051440FM-12+0982OIFK V0209999C000012200019N0120001N1+01281+00081101991ADDAA199000091GA1021+012009029GF102991021041012501001001MA1999999090631MD1610081+9999REMSYN082AAXX  22121 40785 32662 20000 10128 20008 39063 40199 56008 82400 91150 333 82840;EQDQ01  00002PRCP99
0172407850999992000122215004+33980+051440FM-12+0982OIFK V0209999C000012200019N0120001N1+00841+00201102281ADDGA1001+999999999GF100991001001999999001001KA1999M+01351MA1999999090821MD1210191+9999REMSYN076AAXX  22151 40785 42962 00000 10084 20020 39082 40228 52019 91445 333 10135;
0189407850999992000122218004+33980+051440FM-12+0982OIFK V0209999C000012200019N0120001N1+00581+00121102301ADDAA199000091GA1001+999999999GF100991001001999999001001MA1999999090851MD1110031+9999REMSYN076AAXX  22181 40785 32962 00000 10058 20012 39085 40230 51003 91745 333 55083;EQDQ01  00002PRCP99
0153407850999992000122221004+33980+051440FM-12+0982OIFK V0209999C000012200019N0120001N1+00461+00021102181ADDGA1001+999999999GF100991001001999999001001MA1999999090821MD1810031+9999REMSYN070AAXX  22211 40785 42962 00000 10046 20002 39082 40218 58003 92040 333;
0183407850999992000122300004+33980+051440FM-12+0982OIFK V0209999C000012200019N0150001N1+00381-00081102221ADDAA199000091GA1001+999999999GF100991001001999999001001MA1999999090881MD1310061+9999REMSYN070AAXX  23001 40785 32965 00000 10038 21008 39088 40222 53006 92345 333;EQDQ01  00002PRCP99
0172407850999992000122303004+33980+051440FM-12+0982OIFK V0209999C000012200019N0150001N1+00161-00051102361ADDGA1001+999999999GF100991001001999999001001KA1999N+00101MA1999999090881MD1410001+9999REMSYN076AAXX  23031 40785 42965 00000 10016 21005 39088 40236 54000 90245 333 20010;
0165407850999992000122309004+33980+051440FM-12+0982OIFK V0209999C000010600019N0150001N1+01081+00001102211ADDGA1051+060009019GF105991001001999999001011MA1999999090871MD1810101+9999REMSYN082AAXX  23091 40785 42965 50000 10108 20000 39087 40221 58010 80001 90848 333 85070;
0223407850999992000122312004+33980+051440FM-12+0982OIFK V0209999C00001036001CN0150001N1+01141+00061102011ADDAA199000091GA1011+010509099GA2031+012009069GF108991041031012501011999MA1999999090671MD1610201+9999REMSYN094AAXX  23121 40785 32665 80000 10114 20006 39067 40201 56020 8431/ 91147 333 81935 83640 88460;EQDQ01  00002PRCP99
0212407850999992000122315004+33980+051440FM-12+0982OIFK V0209999C000010300019N0150001N1+00821+00331102121ADDGA1031+012009069GA2051+030009039GF106991031061012501071061KA1120M+01201MA1999999090671MD1410001+9999REMSYN100AAXX  23151 40785 42665 60000 10082 20033 39067 40212 54000 83676 91450 333 10120 83640 85360 86270;
0215407850999992000122318004+33980+051440FM-12+0982OIFK V0209999C00001036001CN0150001N1+00741+00321101991ADDAA199000091GA1031+012009069GF106991021041012501071001GJ102469MA1999999090671MD1410001+9999REMSYN094AAXX  23181 40785 32665 60000 10074 20032 39067 40199 54000 82470 91750 333 55041 83640 86360;EQDQ01  00002PRCP99
0171407850999992000122321004+33980+051440FM-12+0982OIFK V0209999C00001036001CN0150001N1+00601+00211101831ADDGA1031+012009069GF105991031041012501031001MA1999999090571MD1810101+9999REMSYN088AAXX  23211 40785 42665 50000 10060 20021 39057 40183 58010 83430 92050 333 83640 85360;
0201407850999992000122400004+33980+051440FM-12+0982OIFK V0209999C000012200019N0150001N1+00481+00161101861ADDAA199000091GA1011+012009069GF103991011041012501031001MA1999999090571MD1410001+9999REMSYN088AAXX  24001 40785 32665 30000 10048 20016 39057 40186 54000 81430 92350 333 81640 83360;EQDQ01  00002PRCP99
0240407850999992000122403004+33980+051440FM-12+0982OIFK V0209999C00001036001CN0080001N1+00541+00361101791ADDAY161031AY221031GA1011+009009099GA2031+010509069GF108991041031008001021999KA1120N+00401MA1999999090471MD1610101+9999MW1611REMSYN106AAXX  24031 40785 41558 80000 10054 20036 39047 40179 56010 76162 8432/ 90250 333 20040 81930 83635 88559;
0200407850999992000122406004+33980+051440FM-12+0982OIFK V0209999C000012200019N0100001N1+00761+00421101871ADDAA106002091GA1021+012009059GF102991021041012501001001MA1999999090571MD1110101+9999REMSYN106AAXX  24061 40785 12660 20000 10076 20042 39057 40187 51010 60021 82400 90550 333 31001 50101 70020 82640;
0171407850999992000122409004+33980+051440FM-12+0982OIFK V0209999C00001220001CN0120001N1+01001+00311101731ADDGA1021+012009069GF105991021041012501001011MA1999999090461MD1810111+9999REMSYN088AAXX  24091 40785 42662 50000 10100 20031 39046 40173 58011 82401 90850 333 82640 84070;
0182407850999992000122412004+33980+051440FM-12+0982OIFK V0209999C00001220001CN0120001N1+01161+00261101701ADDAA199000021GA1031+012009069GF106991031041012501001061MA1999999090421MD1610041+9999REMSYN088AAXX  24121 40785 32662 60000 10116 20026 39042 40170 56004 83406 91152 333 83640 86270;
0184407850999992000122415004+33980+051440FM-12+0982OIFK V0209999C000012200019N0120001N1+00821+00421101791ADDGA1021+012009059GF102991021041012501001001KA1120M+01251MA1999999090461MD1310041+9999REMSYN088AAXX  24151 40785 42662 20000 10082 20042 39046 40179 53004 82400 91450 333 10125 82640;
0147407850999992000122418004+33980+051440FM-12+0982OIFK V0209999C000019999999N0120001N1+00641+00311101871ADDAA199000091MA1999999090541MD1110081+9999REMSYN076AAXX  24181 40785 32962 /0000 10064 20031 39054 40187 51008 91750 333 55064;EQDQ01  00002PRCP99
0153407850999992000122421004+33980+051440FM-12+0982OIFK V0209999C000012200019N0120001N1+00481+00301101691ADDGA1001+999999999GF100991001001999999001001MA1999999090391MD1710151+9999REMSYN070AAXX  24211 40785 42962 00000 10048 20030 39039 40169 57015 92050 333;
0183407850999992000122500004+33980+051440FM-12+0982OIFK V0209999C000012200019N0120001N1+00341+00091101701ADDAA199000091GA1001+999999999GF100991001001999999001001MA1999999090391MD1410001+9999REMSYN070AAXX  25001 40785 32962 00000 10034 20009 39039 40170 54000 92350 333;EQDQ01  00002PRCP99
0172407850999992000122503004+33980+051440FM-12+0982OIFK V0209999C000012200019N0120001N1+00381+00181101811ADDGA1001+999999999GF100991001001999999001001KA1999N+00261MA1999999090441MD1310051+9999REMSYN076AAXX  25031 40785 42962 00000 10038 20018 39044 40181 53005 90250 333 20026;
0201407850999992000122506004+33980+051440FM-12+0982OIFK V0209999C000012200019N0150001N1+00681+00271101861ADDAA124000091GA1001+999999999GF100991001001999999001001MA1999999090511MD1110071+9999REMSYN088AAXX  25061 40785 32965 00000 10068 20027 39051 40186 51007 90550 333 30000 50081 70000;EQDQ01  00002PRCP24
0153407850999992000122509004+33980+051440FM-12+0982OIFK V0209999C000012200019N0150001N1+01061+00331101661ADDGA1001+999999999GF100991001001999999001001MA1999999090381MD1810131+9999REMSYN070AAXX  25091 40785 42965 00000 10106 20033 39038 40166 58013 90850 333;
0211407850999992000122512004+33980+051440FM-12+0982OIFK V0209999C000012200019N0150001N1+01121+00391101601ADDAA199000091GA1041+012009059GF199999041041012501001001MA1999999090801MD1610081+9999REMSYN082AAXX  25121 40785 32665 10000 10112 20039 39080 40160 56008 84400 91150 333 84640;EQDQ01+000012SCOTCVQ02  00002PRCP99
0184407850999992000122515004+33980+051440FM-12+0982OIFK V0209999C000012200019N0150001N1+00801+00401101801ADDGA1021+012009059GF102991021041012501001001KA1120M+01241MA1999999090441MD1310141+9999REMSYN088AAXX  25151 40785 42665 20000 10080 20040 39044 40180 53014 82400 91450 333 10124 82640;
0215407850999992000122518004+33980+051440FM-12+0982OIFK V0209999C00001036001CN0150001N1+00701+00251101801ADDAA199000091GA1021+012009069GF105991021041012501031001GJ104869MA1999999090481MD1110041+9999REMSYN094AAXX  25181 40785 32665 50000 10070 20025 39048 40180 51004 82430 91752 333 55081 82640 85360;EQDQ01  00002PRCP99
0171407850999992000122521004+33980+051440FM-12+0982OIFK V0209999C00001036001CN0150001N1+00561+00191101811ADDGA1031+012009069GF105991031041012501031001MA1999999090541MD1110061+9999REMSYN088AAXX  25211 40785 42665 50000 10056 20019 39054 40181 51006 83430 92052 333 83640 85360;
0201407850999992000122600004+33980+051440FM-12+0982OIFK V0209999C000012200019N0150001N1+00421+00211101861ADDAA199000091GA1021+012009069GF104991021041012501031001MA1999999090541MD1410001+9999REMSYN088AAXX  26001 40785 32665 40000 10042 20021 39054 40186 54000 82430 92352 333 82640 84360;EQDQ01  00002PRCP99
0190407850999992000122603004+33980+051440FM-12+0982OIFK V0209999C000012200019N0150001N1+00641+00371101901ADDGA1031+012009069GF104991031041012501031001KA1120N+00541MA1999999090581MD1310041+9999REMSYN094AAXX  26031 40785 42665 40000 10064 20037 39058 40190 53004 83430 90250 333 20054 83640 85360;
0241407850999992000122606004+33980+051440FM-12+0982OIFK V0209999C00001036001CN0120001N1+00841+00401102041ADDAA124000091GA1011+010509099GA2031+012009069GF108991041031012501011999MA1999999090681MD1210101+9999REMSYN112AAXX  26061 40785 32662 80000 10084 20040 39068 40204 52010 8431/ 90550 333 30003 50071 70000 81935 83640 88460;EQDQ01  00002PRCP24
0193407850999992000122609004+33980+051440FM-12+0982OIFK V0202001N003010120019N0120001N1+01161-00091101881ADDGA1021+010509099GA2031+012009069GF107991051031012501011001MA1999999090571MD1710111+9999REMSYN094AAXX  26091 40785 42662 72003 10116 21009 39057 40188 57011 85310 90850 333 82935 83640 87460;
0201407850999992000122612004+33980+051440FM-12+0982OIFK V0209999C00001036001CN0150001N1+01181-00011101771ADDAA199000091GA1031+012009069GF105991031041012501011001MA1999999090491MD1610081+9999REMSYN088AAXX  26121 40785 32665 50000 10118 21001 39049 40177 56008 83410 91150 333 83640 85460;EQDQ01  00002PRCP99
0196407850999992000122618004+33980+051440FM-12+0982OIFK V0209999C000012200019N0120001N1+00561+00191102221ADDAA106000391GA1031+012009059GF103991031041012501001001GJ100069MA1999999090841MD1410001+9999REMSYN094AAXX  26181 40785 12662 30000 10056 20019 39084 40222 54000 69931 83400 91745 333 55001 83640;
0165407850999992000122621004+33980+051440FM-12+0982OIFK V0209999C000012200019N0120001N1+00381+00031102201ADDGA1011+012009059GF101991011041012501001001MA1999999090841MD1410001+9999REMSYN082AAXX  26211 40785 42662 10000 10038 20003 39084 40220 54000 81400 92040 333 81640;
0183407850999992000122700004+33980+051440FM-12+0982OIFK V0209999C000012200019N0150001N1+00261-00211102311ADDAA199000091GA1001+999999999GF100991001001999999001001MA1999999090931MD1210091+9999REMSYN070AAXX  27001 40785 32965 00000 10026 21021 39093 40231 52009 92345 333;EQDQ01  00002PRCP99
0182407850999992000122706004+33980+051440FM-12+0982OIFK V0209999C000012200019N0150001N1+00741-00051102511ADDAA124000391GA1001+999999999GF100991001001999999001001MA1999999091081MD1310051+9999REMSYN088AAXX  27061 40785 32965 00000 10074 21005 39108 40251 53005 90550 333 30103 50061 70003;
0153407850999992000122709004+33980+051440FM-12+0982OIFK V0209999C000012200019N0150001N1+01141-00321102421ADDGA1001+999999999GF100991001001999999001001MA1999999091041MD1810041+9999REMSYN070AAXX  27091 40785 42965 00000 10114 21032 39104 40242 58004 90850 333;
0183407850999992000122712004+33980+051440FM-12+0982OIFK V0209999C000012200019N0150001N1+01261-00211102281ADDAA199000091GA1001+999999999GF100991001001999999001001MA1999999090921MD1710121+9999REMSYN070AAXX  27121 40785 32965 00000 10126 21021 39092 40228 57012 91150 333;EQDQ01  00002PRCP99
0172407850999992000122715004+33980+051440FM-12+0982OIFK V0209999C000012200019N0150001N1+00801-00201102481ADDGA1001+999999999GF100991001001999999001001KA1999M+01301MA1999999090981MD1310061+9999REMSYN076AAXX  27151 40785 42965 00000 10080 21020 39098 40248 53006 91450 333 10130;
0189407850999992000122718004+33980+051440FM-12+0982OIFK V0209999C000012200019N0150001N1+00541+00101102541ADDAA199000091GA1001+999999999GF100991001001999999001001MA1999999091101MD1110121+9999REMSYN076AAXX  27181 40785 32965 00000 10054 20010 39110 40254 51012 91750 333 55088;EQDQ01  00002PRCP99
0153407850999992000122721004+33980+051440FM-12+0982OIFK V0209999C000012200019N0150001N1+00421+00121102371ADDGA1001+999999999GF100991001001999999001001MA1999999091001MD1810101+9999REMSYN070AAXX  27211 40785 42965 00000 10042 20012 39100 40237 58010 92050 333;
0172407850999992000122803004+33980+051440FM-12+0982OIFK V0209999C000012200019N0150001N1+00041-00251102521ADDGA1001+999999999GF100991001001999999001001KA1999N+00001MA1999999091001MD1310041+9999REMSYN076AAXX  28031 40785 42965 00000 10004 21025 39100 40252 53004 90250 333 20000;
0207407850999992000122806004+33980+051440FM-12+0982OIFK V0209999C000012200019N0150001N1+00501+00001102561ADDAA124000091GA1041+060009019GF104991001001999999001011MA1999999091081MD1210081+9999REMSYN094AAXX  28061 40785 32965 40000 10050 20000 39108 40256 52008 80001 90552 333 30104 70000 84070;EQDQ01  00002PRCP24
0171407850999992000122809004+33980+051440FM-12+0982OIFK V0209999C000012200019N0150001N1+00941-00201102541ADDGA1011+012009069GF104991011051012501001021MA1999999091031MD1810051+9999REMSYN088AAXX  28091 40785 42665 40000 10094 21020 39103 40254 58005 81502 90852 333 81640 84070;
0201407850999992000122812004+33980+051440FM-12+0982OIFK V0209999C000012200019N0150001N1+01161-00191102371ADDAA199000091GA1011+012009069GF104991011051012501001021MA1999999090951MD1610081+9999REMSYN088AAXX  28121 40785 32665 40000 10116 21019 39095 40237 56008 81502 91150 333 81640 84070;EQDQ01  00002PRCP99
0189407850999992000122818004+33980+051440FM-12+0982OIFK V0209999C000012200019N0100001N1+00501-00061102651ADDAA199000091GA1001+999999999GF100991001001999999001001MA1999999091151MD1110111+9999REMSYN076AAXX  28181 40785 32960 00000 10050 21006 39115 40265 51011 91750 333 55069;EQDQ01  00002PRCP99
0172407850999992000122903004+33980+051440FM-12+0982OIFK V0209999C000012200019N0150001N1+00001-00461102761ADDGA1001+999999999GF100991001001999999001001KA1999N-00061MA1999999091211MD1410001+9999REMSYN076AAXX  29031 40785 42965 00000 10000 21046 39121 40276 54000 90250 333 21006;
0183407850999992000122912004+33980+051440FM-12+0982OIFK V0209999C000012200019N0150001N1+01301-00101102491ADDAA199000091GA1001+999999999GF100991001001999999001001MA1999999091081MD1610111+9999REMSYN070AAXX  29121 40785 32965 00000 10130 21010 39108 40249 56011 91150 333;EQDQ01  00002PRCP99
0189407850999992000122918004+33980+051440FM-12+0982OIFK V0209999C000012200019N0150001N1+00361-00151102741ADDAA199000091GA1001+999999999GF100991001001999999001001MA1999999091201MD1110121+9999REMSYN076AAXX  29181 40785 32965 00000 10036 21015 39120 40274 51012 91750 333 55089;EQDQ01  00002PRCP99
0153407850999992000122921004+33980+051440FM-12+0982OIFK V0209999C000012200019N0150001N1+00321-00101102591ADDGA1001+999999999GF100991001001999999001001MA1999999091131MD1810071+9999REMSYN070AAXX  29211 40785 42965 00000 10032 21010 39113 40259 58007 92050 333;
0183407850999992000123000004+33980+051440FM-12+0982OIFK V0209999C000012200019N0150001N1+00281-00311102531ADDAA199000091GA1001+999999999GF100991001001999999001001MA1999999091131MD1410001+9999REMSYN070AAXX  30001 40785 32965 00000 10028 21031 39113 40253 54000 92350 333;EQDQ01  00002PRCP99
0172407850999992000123003004+33980+051440FM-12+0982OIFK V0209999C000012200019N0150001N1+00101-00201102671ADDGA1001+999999999GF100991001001999999001001KA1999N+00001MA1999999091131MD1410001+9999REMSYN076AAXX  30031 40785 42965 00000 10010 21020 39113 40267 54000 90250 333 20000;
0207407850999992000123006004+33980+051440FM-12+0982OIFK V0209999C000012200019N0150001N1+00541-00271102771ADDAA124000091GA1021+060009019GF102991001001999999001011MA1999999091241MD1210111+9999REMSYN094AAXX  30061 40785 32965 20000 10054 21027 39124 40277 52011 80001 90550 333 30103 70000 82070;EQDQ01  00002PRCP24
0165407850999992000123009004+33980+051440FM-12+0982OIFK V0209999C000012200019N0150001N1+00941-00211102471ADDGA1031+060009019GF103991001001999999001011MA1999999091031MD1810211+9999REMSYN082AAXX  30091 40785 42965 30000 10094 21021 39103 40247 58021 80001 90850 333 83070;
0195407850999992000123012004+33980+051440FM-12+0982OIFK V0209999C000012200019N0150001N1+01141-00191102241ADDAA199000091GA1041+060009019GF104991001001999999001021MA1999999090871MD1710161+9999REMSYN082AAXX  30121 40785 32965 40000 10114 21019 39087 40224 57016 80002 91150 333 84070;EQDQ01  00002PRCP99
0184407850999992000123015004+33980+051440FM-12+0982OIFK V0209999C000012200019N0150001N1+00701+00081102491ADDGA1021+060009019GF102991001001999999001011KA1120M+01201MA1999999090981MD1210111+9999REMSYN088AAXX  30151 40785 42965 20000 10070 20008 39098 40249 52011 80001 91447 333 10120 82070;
0189407850999992000123018004+33980+051440FM-12+0982OIFK V0209999C000012200019N0150001N1+00361-00041102471ADDAA199000091GA1001+999999999GF100991001001999999001001MA1999999090981MD1510001+9999REMSYN076AAXX  30181 40785 32965 00000 10036 21004 39098 40247 55000 91747 333 55080;EQDQ01  00002PRCP99
0153407850999992000123021004+33980+051440FM-12+0982OIFK V0209999C000012200019N0150001N1+00301-00121102401ADDGA1001+999999999GF100991001001999999001001MA1999999090981MD1410001+9999REMSYN070AAXX  30211 40785 42965 00000 10030 21012 39098 40240 54000 92043 333;
0172407850999992000123103004+33980+051440FM-12+0982OIFK V0209999C000012200019N0150001N1-00061-00121102201ADDGA1001+999999999GF100991001001999999001001KA1999N-00121MA1999999090841MD1310021+9999REMSYN076AAXX  31031 40785 42965 00000 11006 21012 39084 40220 53002 90247 333 21012;
0195407850999992000123106004+33980+051440FM-12+0982OIFK V0209999C000012200019N0150001N1+00521-00291102451ADDAA124000091GA1001+999999999GF100991001001999999001001MA1999999090951MD1110111+9999REMSYN082AAXX  31061 40785 32965 00000 10052 21029 39095 40245 51011 90550 333 30104 70000;EQDQ01  00002PRCP24
0183407850999992000123112004+33980+051440FM-12+0982OIFK V0209999C000012200019N0150001N1+01121-00061101961ADDAA199000091GA1001+999999999GF100991001001999999001001MA1999999090581MD1710221+9999REMSYN070AAXX  31121 40785 32965 00000 10112 21006 39058 40196 57022 91150 333;EQDQ01  00002PRCP99
0172407850999992000123115004+33980+051440FM-12+0982OIFK V0209999C000012200019N0150001N1+00781+00031102131ADDGA1001+999999999GF100991001001999999001001KA1999M+01241MA1999999090621MD1310041+9999REMSYN076AAXX  31151 40785 42965 00000 10078 20003 39062 40213 53004 91450 333 10124;
