0147413960999992000010109004+15980+048950FM-12+070099999V0209999C000012200019N0200001N1+02441+00571101871ADDGA1001+999999999GF100991001001999999001001MA1999999094281MD1999999-0141REMSYN064AAXX  01094 41396 42970 00000 10244 20057 39428 40187 333 59014;
0177413960999992000010112004+15980+048950FM-12+070099999V0200201N002612200019N0200001N1+02701+00661101551ADDAA106000091GA1001+999999999GF100991001001999999001001MA1999999093981MD1999999-0301REMSYN064AAXX  01124 41396 32970 00205 10270 20066 39398 40155 333 59030;EQDQ01  00002PRCP06
0166413960999992000010118004+15980+048950FM-12+070099999V0209999C000012200019N0200001N1+01751+00441101851ADDGA1001+999999999GF100991001001999999001001KA1120M+02751MA1999999094261MD1999999-0061REMSYN070AAXX  01184 41396 42970 00000 10175 20044 39426 40185 333 10275 59006;
0147413960999992000010206004+15980+048950FM-12+070099999V0209999C000012200019N0250001N1+02421+00351101891ADDGA1001+999999999GF100991001001999999001001MA1999999094301MD1999999+0021REMSYN064AAXX  02064 41396 42975 00000 10242 20035 39430 40189 333 58002;
0166413960999992000010218004+15980+048950FM-12+070099999V0209999C000012200019N0250001N1+01341+00351101821ADDGA1001+999999999GF100991001001999999001001KA1120M+02741MA1999999094231MD1999999-0031REMSYN070AAXX  02184 41396 42975 00000 10134 20035 39423 40182 333 10274 59003;
0166413960999992000010306004+15980+048950FM-12+070099999V0209999C000012200019N0250001N1+01651+00021102061ADDGA1001+999999999GF100991001001999999001001KA1120N+00571MA1999999094461MD1999999-0021REMSYN070AAXX  03064 41396 42975 00000 10165 20002 39446 40206 333 20057 59002;
0177413960999992000010312004+15980+048950FM-12+070099999V0209999C000012200019N0100001N1+02701-00121101571ADDAA106000091GA1001+999999999GF100991001001999999001001MA1999999093981MD1999999-0021REMSYN064AAXX  03124 41396 34297 00000 10270 21012 39398 40157 333 59002;EQDQ01  00002PRCP06
0166413960999992000010318004+15980+048950FM-12+070099999V0209999C000012200019N0200001N1+01341+00431101721ADDGA1001+999999999GF100991001001999999001001KA1120M+02751MA1999999094131MD1999999-0101REMSYN070AAXX  03184 41396 42970 00000 10134 20043 39413 40172 333 10275 59010;
0177413960999992000010400004+15980+048950FM-12+070099999V0209999C000012200019N0200001N1+00841+00001101721ADDAA106000091GA1001+999999999GF100991001001999999001001MA1999999094131MD1999999+0001REMSYN064AAXX  04004 41396 32970 00000 10084 20000 39413 40172 333 58000;EQDQ01  00002PRCP06
0147413960999992000010421004+15980+048950FM-12+070099999V0209999C000012200019N0200001N1+01051+00371101691ADDGA1001+999999999GF100991001001999999001001MA1999999094081MD1999999-0101REMSYN064AAXX  04214 41396 42970 00000 10105 20037 39408 40169 333 59010;
0147413960999992000010518004+15980+048950FM-12+070099999V0209999C000012200019N0250001N1+01951+00791101671ADDGA1001+999999999GF100991001001999999001001MA1999999094071MD1999999+0031REMSYN064AAXX  05184 41396 42975 00000 10195 20079 39407 40167 333 58003;
0177413960999992000010600004+15980+048950FM-12+070099999V0209999C000012200019N0250001N1+01251+01061101691ADDAA106000091GA1001+999999999GF100991001001999999001001MA1999999094081MD1999999-0011REMSYN064AAXX  06004 41396 32975 00000 10125 20106 39408 40169 333 59001;EQDQ01  00002PRCP06
0147413960999992000010621004+15980+048950FM-12+070099999V0209999C000012200019N0200001N1+01701+00781101621ADDGA1001+999999999GF100991001001999999001001MA1999999094031MD1999999-0071REMSYN064AAXX  06214 41396 42970 00000 10170 20078 39403 40162 333 59007;
0177413960999992000010712004+15980+048950FM-12+070099999V0209999C000012200019N0200001N1+02741+01171101481ADDAA106000091GA1001+999999999GF100991001001999999001001MA1999999093891MD1999999+0021REMSYN064AAXX  07124 41396 32970 00000 10274 20117 39389 40148 333 58002;EQDQ01  00002PRCP06
0147413960999992000010715004+15980+048950FM-12+070099999V0209999C000012200019N0200001N1+02351+01221101551ADDGA1001+999999999GF100991001001999999001001MA1999999093951MD1999999+0051REMSYN064AAXX  07154 41396 42970 00000 10235 20122 39395 40155 333 58005;
0151413960999992000011509004+15980+048950FM-12+070099999V0200201N002612200019N0250001N1+02471+01111102041ADDGA1001+999999999GF100991001001999999001001MA1999999094451MD1999999+0151REMSYN068    AAXX  15094 41396 42975 00205 10247 20111 39445 40204 333 58015;
0187413960999992000011712004+15980+048950FM-12+070099999V0201601N004112200019N0200001N1+99999+99999101071ADDAA199000091GA1011+060009019GF101991001001999999001011MA1999999093201MD1999999-0361REMSYN074    AAXX  17124 41396 32970 11608 20086 3932/ 40107 80001 333 59036 81070;EQDQ01  00002PRCP99
0137413960999992000011909004+15980+048950FM-12+070099999V0209999C000012200019N0150001N1+02531+01591101371ADDGA1001+999999999GF100991001001999999001001MA1999999094401REMSYN068    AAXX  19094 41396 42965 00000 10253 20159 39440 40137 333 5803/;
0181413960999992000011912004+15980+048950FM-12+070099999V0200601N003612200019N0200001N1+02911+01521101661ADDAA199000091GA1001+999999999GF100991001001999999001001MA1999999094111MD1999999+0271REMSYN068    AAXX  19124 41396 32970 00607 10291 20152 39411 40166 333 58027;EQDQ01  00002PRCP99
0166413960999992000012006004+15980+048950FM-12+070099999V0209999C000012200019N0250001N1+02201+01441102111ADDGA1001+999999999GF100991001001999999001001KA1120N+01051MA1999999094521MD1999999-0101REMSYN070AAXX  20064 41396 42975 00000 10220 20144 39452 40211 333 20105 59010;
0147413960999992000012209004+15980+048950FM-12+070099999V0209999C000012200019N0200001N1+02901+01321101831ADDGA1001+999999999GF100991001001999999001001MA1999999094261MD1999999+0031REMSYN064AAXX  22094 41396 42970 00000 10290 20132 39426 40183 333 58003;
0177413960999992000012212004+15980+048950FM-12+070099999V0209999C000012200019N0200001N1+03351+01221101481ADDAA199000091GA1001+999999999GF100991001001999999001001MA1999999093941MD1999999+0011REMSYN064AAXX  22124 41396 32970 00000 10335 20122 39394 40148 333 58001;EQDQ01  00002PRCP99
0166413960999992000012306004+15980+048950FM-12+070099999V0209999C000012200019N0250001N1+02001+00861102131ADDGA1001+999999999GF100991001001999999001001KA1120N+00801MA1999999094521MD1999999+0111REMSYN070AAXX  23064 41396 42975 00000 10200 20086 39452 40213 333 20080 58011;
0147413960999992000012309004+15980+048950FM-12+070099999V0209999C000012200019N0250001N1+02801+00631101861ADDGA1001+999999999GF100991001001999999001001MA1999999094291MD1999999+0031REMSYN064AAXX  23094 41396 42975 00000 10280 20063 39429 40186 333 58003;
0166413960999992000012406004+15980+048950FM-12+070099999V0209999C000012200019N0150001N1+01901+00731102281ADDGA1001+999999999GF100991001001999999001001KA1120N+00701MA1999999094651MD1999999+0131REMSYN070AAXX  24064 41396 42965 00000 10190 20073 39465 40228 333 20070 58013;
0147413960999992000012409004+15980+048950FM-12+070099999V0209999C000012200019N0250001N1+02751-00491102011ADDGA1001+999999999GF100991001001999999001001MA1999999094441MD1999999+0151REMSYN064AAXX  24094 41396 42975 00000 10275 21049 39444 40201 333 58015;
0177413960999992000012412004+15980+048950FM-12+070099999V0209999C000012200019N0250001N1+03121-00541101741ADDAA199000091GA1001+999999999GF100991001001999999001001MA1999999094191MD1999999+0181REMSYN064AAXX  24124 41396 32975 00000 10312 21054 39419 40174 333 58018;EQDQ01  00002PRCP99
0147413960999992000012415004+15980+048950FM-12+070099999V0209999C000012200019N0200001N1+02701+00211101811ADDGA1001+999999999GF100991001001999999001001MA1999999094261MD1999999+0141REMSYN064AAXX  24154 41396 42970 00000 10270 20021 39426 40181 333 58014;
0166413960999992000012418004+15980+048950FM-12+070099999V0209999C000012200019N0200001N1+01711-00261102041ADDGA1001+999999999GF100991001001999999001001KA1120M+03201MA1999999094471MD1999999+0101REMSYN070AAXX  24184 41396 42970 00000 10171 21026 39447 40204 333 10320 58010;
0147413960999992000012421004+15980+048950FM-12+070099999V0200601N004612200019N0150001N1+01111+00191102131ADDGA1001+999999999GF100991001001999999001001MA1999999094651MD1999999+0291REMSYN064AAXX  24214 41396 42965 00609 10111 20019 39465 40213 333 58029;
0153413960999992000012509004+15980+048950FM-12+070099999V0209999C000012200019N0090001N1+02621+00401102311ADDGA1001+999999999GF100991001001999999001001MA1999999094751MD1999999+0311REMSYN070AAXX  25094 41396 41959 00000 10262 20040 39475 40231 7/600 333 58031;
0206413960999992000012606004+15980+048950FM-12+070099999V0209999C000012200019N0080001N1+01901+00451102411ADDAY101061AY201061GA1031+060009019GF103991001001999999001011KA1120N+00951MA1999999094801MD1999999-0111MW1061REMSYN088AAXX  26064 41396 41958 30000 10190 20045 39480 40241 70600 80001 333 20095 59011 83070;
0138413960999992000012615004+15980+048950FM-12+070099999V0209999C000010600019N0100001N1+02541+00161101921ADDGA1051+060009019GF105991001001999999001011MD1999999-0121REMSYN070AAXX  26154 41396 42960 50000 10254 20016 40192 80001 333 59012 85070;
0166413960999992000012706004+15980+048950FM-12+070099999V0209999C000012200019N0150001N1+01951+00671102231ADDGA1001+999999999GF100991001001999999001001KA1120N+00761MA1999999094581MD1999999-0221REMSYN070AAXX  27064 41396 42965 00000 10195 20067 39458 40223 333 20076 59022;
0147413960999992000012709004+15980+048950FM-12+070099999V0200801N002112200019N0150001N1+02751+00611101821ADDGA1001+999999999GF100991001001999999001001MA1999999094251MD1999999-0351REMSYN064AAXX  27094 41396 42965 00804 10275 20061 39425 40182 333 59035;
0177413960999992000012712004+15980+048950FM-12+070099999V0209999C000012200019N0200001N1+03101-00111101531ADDAA199000091GA1001+999999999GF100991001001999999001001MA1999999093961MD1999999-0371REMSYN064AAXX  27124 41396 32970 00000 10310 21011 39396 40153 333 59037;EQDQ01  00002PRCP99
0147413960999992000012715004+15980+048950FM-12+070099999V0209999C000012200019N0200001N1+02751+00381101581ADDGA1001+999999999GF100991001001999999001001MA1999999094011MD1999999-0341REMSYN064AAXX  27154 41396 42970 00000 10275 20038 39401 40158 333 59034;
0153413960999992000012809004+15980+048950FM-12+070099999V0201701N002112200019N0200001N1+02821+00801101591ADDGA1011+060009019GF101991999999999999999999MA1999999094281MD1999999-0231REMSYN070AAXX  28094 41396 42970 11704 10282 2008/ 39428 40159 333 59023 81070;
0189413960999992000012812004+15980+048950FM-12+070099999V0201801N002612200019N0200001N1+03151+00551101321ADDAA199000091GA1011+060009019GF101991999001999999001011MA1999999093751MD1999999-0211REMSYN076AAXX  28124 41396 32970 11805 10315 20055 39375 40132 8/001 333 59021 81070;EQDQ01  00002PRCP99
0166413960999992000012906004+15980+048950FM-12+070099999V0209999C000012200019N0200001N1+01951+01131101961ADDGA1001+999999999GF100991001001999999001001KA1120N+01051MA1999999094331MD1999999+0051REMSYN070AAXX  29064 41396 42970 00000 10195 20113 39433 40196 333 20105 58005;
0159413960999992000012915004+15980+048950FM-12+070099999V0209999C000012200019N0200001N1+02751+01091101581ADDGA1021+060009019GF102991001001999999001011MA1999999094031MD1999999+0221REMSYN076AAXX  29154 41396 42970 20000 10275 20109 39403 40158 80001 333 58022 82070;
0194413960999992000013018004+15980+048950FM-12+070099999V0200101N005112200019N0050001N1+01941+01441102521ADDAY101061AY201061GA1001+999999999GF100991001001999999001001KA1120M+02641MA1999999094951MD1999999+0641MW1061REMSYN076AAXX  30184 41396 41950 00110 10194 20144 39495 40252 70600 333 10264 58064;
0166413960999992000013118004+15980+048950FM-12+070099999V0200901N001512200019N0150001N1+01781+00881102321ADDGA1001+999999999GF100991001001999999001001KA1120M+02601MA1999999094751MD1999999-0201REMSYN070AAXX  31184 41396 42965 00903 10178 20088 39475 40232 333 10260 59020;
0147413960999992000020109004+15980+048950FM-12+070099999V0209999C000012200019N0150001N1+02451+01011102181ADDGA1001+999999999GF100991001001999999001001MA1999999094591MD1999999-0371REMSYN064AAXX  01094 41396 42965 00000 10245 20101 39459 40218 333 59037;
0166413960999992000020206004+15980+048950FM-12+070099999V0209999C000012200019N0100001N1+01951+00921102101ADDGA1001+999999999GF100991001001999999001001KA1120N+00801MA1999999094461MD1999999-0431REMSYN070AAXX  02064 41396 42960 00000 10195 20092 39446 40210 333 20080 59043;
0166413960999992000020218004+15980+048950FM-12+070099999V0209999C000012200019N0150001N1+01751+00821101731ADDGA1001+999999999GF100991001001999999001001KA1120M+03001MA1999999094161MD1999999-0181REMSYN070AAXX  02184 41396 42965 00000 10175 20082 39416 40173 333 10300 59018;
0178413960999992000020306004+15980+048950FM-12+070099999V0209999C000012200019N0150001N1+01971+00891102201ADDGA1041+060009019GF104991001001999999001011KA1120N+00791MA1999999094571MD1999999+0111REMSYN082AAXX  03064 41396 42965 40000 10197 20089 39457 40220 80001 333 20079 58011 84070;
0159413960999992000020309004+15980+048950FM-12+070099999V0209999C000012200019N0150001N1+02801+01411101961ADDGA1041+060009019GF104991001001999999001011MA1999999094391MD1999999+0091REMSYN076AAXX  03094 41396 42965 40000 10280 20141 39439 40196 80001 333 58009 84070;
0189413960999992000020312004+15980+048950FM-12+070099999V0200101N003610600019N0150001N1+03081+01391101741ADDAA199000091GA1051+060009019GF105991001001999999001011MA1999999094171MD1999999+0181REMSYN076AAXX  03124 41396 32965 50107 10308 20139 39417 40174 80001 333 58018 85070;EQDQ01  00002PRCP99
0159413960999992000020315004+15980+048950FM-12+070099999V0209999C000010600019N0150001N1+02601+01221101761ADDGA1051+060009019GF105991001001999999001011MA1999999094191MD1999999+0211REMSYN076AAXX  03154 41396 42965 50000 10260 20122 39419 40176 80001 333 58021 85070;
0172413960999992000020406004+15980+048950FM-12+070099999V0209999C000012200019N0150001N1+01951+00981102321ADDGA1011+060009019GF101991999999999999999999KA1120N+00991MA1999999094741MD1999999+0171REMSYN076AAXX  04064 41396 42965 10000 10195 20098 39474 40232 333 20099 58017 81070;
0178413960999992000020506004+15980+048950FM-12+070099999V0209999C000012200019N0200001N1+02041+01021102071ADDGA1011+002109029GF101991001001999999001011KA1120N+00951MA1999999094501MD1999999-0241REMSYN082AAXX  05064 41396 42970 10000 10204 20102 39450 40207 80001 333 20095 59024 81807;
0177413960999992000020512004+15980+048950FM-12+070099999V0200301N002612200019N0200001N1+03101+01691101541ADDAA199000091GA1001+999999999GF100991001001999999001001MA1999999093991MD1999999-0221REMSYN064AAXX  05124 41396 32970 00305 10310 20169 39399 40154 333 59022;EQDQ01  00002PRCP99
0147413960999992000020515004+15980+048950FM-12+070099999V0209999C000012200019N0200001N1+02651+01491101581ADDGA1001+999999999GF100991001001999999001001MA1999999094011MD1999999-0201REMSYN064AAXX  05154 41396 42970 00000 10265 20149 39401 40158 333 59020;
0166413960999992000020518004+15980+048950FM-12+070099999V0209999C000012200019N0200001N1+02151+01171101681ADDGA1001+999999999GF100991001001999999001001KA1120M+03131MA1999999094111MD1999999-0241REMSYN070AAXX  05184 41396 42970 00000 10215 20117 39411 40168 333 10313 59024;
0166413960999992000020606004+15980+048950FM-12+070099999V0209999C000012200019N0150001N1+02151+01621101911ADDGA1001+999999999GF100991001001999999001001KA1120N+01201MA1999999094341MD1999999-0161REMSYN070AAXX  06064 41396 42965 00000 10215 20162 39434 40191 333 20120 59016;
0147413960999992000020609004+15980+048950FM-12+070099999V0209999C000012200019N0150001N1+02931+01601101651ADDGA1001+999999999GF100991001001999999001001MA1999999094101MD1999999-0211REMSYN064AAXX  06094 41396 42965 00000 10293 20160 39410 40165 333 59021;
0124413960999992000020618004+15980+048950FM-12+070099999V0209999C000019999999N0150001N1+02551+01491101601ADDKA1120M+03501MA1999999094051MD1999999-0061REMSYN070AAXX  06184 41396 42965 /0000 10255 20149 39405 40160 333 10350 59006;
0147413960999992000020821004+15980+048950FM-12+070099999V0209999C000012200019N0200001N1+02031+01541101511ADDGA1001+999999999GF100991001001999999001001MA1999999093981MD1999999+0081REMSYN064AAXX  08214 41396 42970 00000 10203 20154 39398 40151 333 58008;
0177413960999992000020912004+15980+048950FM-12+070099999V0202401N002612200019N0120001N1+03521+01551101331ADDAA199000091GA1001+999999999GF100991001001999999001001MA1999999093101MD1999999+0051REMSYN064AAXX  09124 41396 32962 02405 10352 20155 3931/ 40133 333 58005;EQDQ01  00002PRCP99
0194413960999992000021006004+15980+048950FM-12+070099999V0200301N002612200019N0030001N1+01851+00701102431ADDAY101061AY201061GA1001+999999999GF100991001001999999001001KA1120N+01481MA1999999094841MD1999999+0561MW1061REMSYN076AAXX  10064 41396 41930 00305 10185 20070 39484 40243 70600 333 20148 58056;
0175413960999992000021009004+15980+048950FM-12+070099999V0209999C000012200019N0035001N1+02401+01061102171ADDAY101031AY201031GA1001+999999999GF100991001001999999001001MA1999999094621MD1999999+0521MW1061REMSYN070AAXX  10094 41396 41935 00000 10240 20106 39462 40217 70600 333 58052;
0159413960999992000021012004+15980+048950FM-12+070099999V0201901N020612200019N0040001N1+02751+01361101871ADDAY101061AY201061GF103991999999002501999999MA1999999094331MD1999999+0521MW1061REMSYN070AAXX  10124 41396 41396 31940 10275 20136 39433 40187 70600 333 58052;
0205413960999992000021112004+15980+048950FM-12+070099999V0209999C000012200019N0070001N1+02701+01141101921ADDAA199000091AY141061AY241061GA1001+999999999GF100991001001999999001001MA1999999094371MD1999999+0041MW1061REMSYN070AAXX  11124 41396 31957 00000 10270 20114 39437 40192 70644 333 58004;EQDQ01  00002PRCP99
0091413960999992000021115004+15980+048950FM-12+070099999V0209999C000019999999N0100001N1+02501+01131101981ADDMA1999999094431REMSYN064AAXX  11154 41396 42960 /0000 10250 20113 39443 40198 333 58/01;
0177413960999992000021312004+15980+048950FM-12+070099999V0209999C000012200019N0200001N1+02941+01161101471ADDAA199000091GA1001+999999999GF100991001001999999001001MA1999999093921MD1999999-0161REMSYN064AAXX  13124 41396 32970 00000 10294 20116 39392 40147 333 59016;EQDQ01  00002PRCP99
0147413960999992000021406004+15980+048950FM-12+070099999V0209999C000012200019N0200001N1+02041+00861102031ADDGA1001+999999999GF100991001001999999001001MA1999999054421MD1999999-0121REMSYN064AAXX  14064 41396 42970 00000 10204 20086 35442 40203 333 59012;
0193413960999992000021412004+15980+048950FM-12+070099999V0200601N002612200019N0200001N1+03261+01581101381ADDAA199000091GA1001+999999999GF100991001001999999001001MA1999999093832MD1999999-0091REMSYN064AAXX  14124 41396 32970 00605 10326 20158 39383 40138 333 59009;EQDQ01+093833APOSP Q02  00002PRCP99
0147413960999992000021415004+15980+048950FM-12+070099999V0200901N002612200019N0200001N1+02881+01441101441ADDGA1001+999999999GF100991001001999999001001MA1999999093891MD1999999-0011REMSYN064AAXX  14154 41396 42970 00905 10288 20144 39389 40144 333 59001;
0166413960999992000021418004+15980+048950FM-12+070099999V0209999C000012200019N0200001N1+02241+01091101641ADDGA1001+999999999GF100991001001999999001001KA1120M+03311MA1999999094091MD1999999-0091REMSYN070AAXX  14184 41396 42970 00000 10224 20109 39409 40164 333 10331 59009;
0177413960999992000021512004+15980+048950FM-12+070099999V0200901N002612200019N0150001N1+03151+01551101561ADDAA199000091GA1001+999999999GF100991001001999999001001MA1999999094011MD1999999+0161REMSYN064AAXX  15124 41396 32965 00905 10315 20155 39401 40156 333 58016;EQDQ01  00002PRCP99
0166413960999992000021518004+15980+048950FM-12+070099999V0209999C000012200019N0150001N1+02291+01261101771ADDGA1001+999999999GF100991001001999999001001KA1120M+03201MA1999999094221MD1999999+0131REMSYN070AAXX  15184 41396 42965 00000 10229 20126 39422 40177 333 10320 58013;
0166413960999992000021606004+15980+048950FM-12+070099999V0209999C000012200019N0150001N1+02301+01611102131ADDGA1001+999999999GF100991001001999999001001KA1120N+01441MA1999999094551MD1999999+0161REMSYN070AAXX  16064 41396 42965 00000 1023/ 20161 39455 40213 333 20144 58016;
0147413960999992000021609004+15980+048950FM-12+070099999V0209999C000012200019N0150001N1+02901+01621101911ADDGA1001+999999999GF100991001001999999001001MA1999999094381MD1999999+0091REMSYN064AAXX  16094 41396 42965 00000 10290 20162 39438 40191 333 58009;
0177413960999992000021612004+15980+048950FM-12+070099999V0200501N002612200019N0150001N1+03201+01411101591ADDAA199000091GA1001+999999999GF100991001001999999001001MA1999999094071MD1999999+0061REMSYN064AAXX  16124 41396 32965 00505 10320 20141 39407 40159 333 58006;EQDQ01  00002PRCP99
0172413960999992000021706004+15980+048950FM-12+070099999V0209999C000012200019N0200001N1+02141+01831102181ADDGA1021+060009019GF102991999999999999999999KA1120N+01181MA1999999094461MD1999999-0091REMSYN076AAXX  17064 41396 42970 20000 10214 20183 39446 40218 333 20118 59009 82070;
0147413960999992000021709004+15980+048950FM-12+070099999V0209999C000012200019N0200001N1+03031+01601101811ADDGA1001+999999999GF100991001001999999001001MA1999999094281MD1999999-0101REMSYN064AAXX  17094 41396 42970 00000 10303 20160 39428 40181 333 59010;
0177413960999992000021712004+15980+048950FM-12+070099999V0200901N002612200019N0200001N1+03301+01701101521ADDAA199000091GA1001+999999999GF100991001001999999001001MA1999999094011MD1999999-0061REMSYN064AAXX  17124 41396 32970 00905 1033/ 20170 39401 40152 333 59006;EQDQ01  00002PRCP99
0147413960999992000021721004+15980+048950FM-12+070099999V0209999C000012200019N0200001N1+01721+00851101741ADDGA1001+999999999GF100991001001999999001001MA1999999094191MD1999999-0071REMSYN064AAXX  17214 41396 42970 00000 10172 20085 39419 40174 333 59007;
0166413960999992000021806004+15980+048950FM-12+070099999V0209999C000012200019N0200001N1+02381+01231102051ADDGA1001+999999999GF100991001001999999001001KA1120N+01261MA1999999094431MD1999999+0021REMSYN070AAXX  18064 41396 42970 00000 10238 20123 39443 40205 333 20126 58002;
0147413960999992000021809004+15980+048950FM-12+070099999V0201201N002612200019N0200001N1+03121+01621101841ADDGA1001+999999999GF100991001001999999001001MA1999999094301MD1999999+0021REMSYN064AAXX  18094 41396 42970 01205 10312 20162 39430 40184 333 58002;
0158413960999992000021812004+15980+048950FM-12+070099999V0200901N003612200019N0200001N1+99999+99999999999ADDAA199000091GF101991999999999999999999MD1999999+0031REMSYN076AAXX  18124 41396 32970 10907 1033= 20172 39404 40157 80001 333 58003 81070;EQDQ01  00002PRCP99
0159413960999992000021815004+15980+048950FM-12+070099999V0209999C000012200019N0200001N1+03081+01611101591ADDGA1011+060009019GF101991001001999999001011MA1999999094061MD1999999+0061REMSYN076AAXX  18154 41396 42970 10000 10308 20161 39406 40159 80001 333 58006 81070;
0166413960999992000021818004+15980+048950FM-12+070099999V0209999C000012200019N0200001N1+02131+01191101731ADDGA1001+999999999GF100991001001999999001001KA1120M+03401MA1999999094191MD1999999+0031REMSYN070AAXX  18184 41396 42970 00000 10213 20119 39419 40173 333 10340 58003;
0178413960999992000021906004+15980+048950FM-12+070099999V0209999C000012200019N0200001N1+02401+01171102091ADDGA1011+060009019GF101991001001999999001011KA1120N+01361MA1999999094521MD1999999+0041REMSYN082AAXX  19064 41396 42970 10000 10240 20117 39452 40209 80001 333 20136 58004 81070;
0147413960999992000021915004+15980+048950FM-12+070099999V0209999C000012200019N0200001N1+03151+01331101571ADDGA1001+999999999GF100991001001999999001001MA1999999094061MD1999999+0001REMSYN064AAXX  19154 41396 42970 00000 10315 20133 39406 40157 333 58000;
0166413960999992000022106004+15980+048950FM-12+070099999V0209999C000012200019N0200001N1+02251+00941101951ADDGA1001+999999999GF100991001001999999001001KA1120N+01141MA1999999094381MD1999999-0111REMSYN070AAXX  21064 41396 42970 00000 10225 20094 39438 40195 333 20114 59011;
0147413960999992000022109004+15980+048950FM-12+070099999V0209999C000012200019N9999999N1+03071+01401101711ADDGA1001+999999999GF100991001001999999001001MA1999999094181MD1999999-0101REMSYN064AAXX  21094 41396 2/70/ 00000 10307 20140 39418 40171 333 59010;
0177413960999992000022112004+15980+048950FM-12+070099999V0209999C000012200019N0200001N1+03501+00321101371ADDAA199000091GA1001+999999999GF100991001001999999001001MA1999999093851MD1999999-0111REMSYN064AAXX  21124 41396 32970 00000 10350 20032 39385 40137 333 59011;EQDQ01  00002PRCP99
0147413960999992000022115004+15980+048950FM-12+070099999V0209999C000012200019N0200001N1+03031+00401101361ADDGA1001+999999999GF100991001001999999001001MA1999999093841MD1999999-0101REMSYN064AAXX  21154 41396 42970 00000 10303 20040 39384 40136 333 59010;
0146413960999992000022118004+15980+048950FM-12+070099999V0201001N002612200019N0150001N1+02431+00331999999ADDGA1001+999999999GF100991001001999999001001KA1120M+03521MA1999999094031REMSYN064AAXX  21184 41396 42965 01005 10243 20033 39403 333 10352 99004;
0178413960999992000022206004+15980+048950FM-12+070099999V0209999C000010600019N0150001N1+02401+00501101811ADDGA1051+060009019GF105991001001999999001011KA1120N+01351MA1999999094241MD1999999-0141REMSYN082AAXX  22064 41396 42965 50000 10240 20050 39424 40181 80001 333 20135 59014 85070;
0172413960999992000022209004+15980+048950FM-12+070099999V0202901N999992200019N0150001N1+99999+99999101611ADDGA1021+060009019GF104991001001999999001011MA1999999094081MD1999999-0101REMSYN070AAXX  22094 41396 42965 42965 2000/ 39408 40161 80001 333 59010 82070;EQDQ01+003343WOSPD 
0168413960999992000022212004+15980+048950FM-12+070099999V0209999C000012200019N0150001N1+03301+00551101301ADDAA199000091GA1011+060009019GF101991001001999999001011MD1999999-0071REMSYN070AAXX  22124 41396 32965 10000 10330 20055 40130 80001 333 59007 81070;EQDQ01  00002PRCP99
0159413960999992000022215004+15980+048950FM-12+070099999V0200601N002612200019N0150001N1+02951+00251101301ADDGA1011+060009019GF101991001001999999001011MA1999999093781MD1999999-0061REMSYN076AAXX  22154 41396 42965 10605 10295 20025 39378 40130 80001 333 59006 81070;
0147413960999992000022309004+15980+048950FM-12+070099999V0209999C000012200019N0150001N1+03091+01271101571ADDGA1001+999999999GF100991001001999999001001MA1999999094061MD1999999-0021REMSYN064AAXX  23094 41396 42965 00000 10309 20127 39406 40157 333 59002;
0177413960999992000022312004+15980+048950FM-12+070099999V0201001N002612200019N0200001N1+03361+01001101231ADDAA199000091GA1001+999999999GF100991001001999999001001MA1999999093721MD1999999-0061REMSYN064AAXX  23124 41396 32970 01005 10336 20100 39372 40123 333 59006;EQDQ01  00002PRCP99
0172413960999992000022315004+15980+048950FM-12+070099999V0209999C000012200019N0200001N1+99999+99999101221ADDGA1011+002109029GF101991001001999999001011MA1999999053712MD1999999-0071REMSYN070AAXX  23154 41396 42970 10000 20098 35371 40122 80001 333 59007 81807;EQDQ01+053713APOSP 
0166413960999992000022406004+15980+048950FM-12+070099999V0209999C000012200019N0150001N1+02271+01701101931ADDGA1001+999999999GF100991001001999999001001KA1120N+01501MA1999999094391MD1999999+0201REMSYN070AAXX  24064 41396 42965 00000 10227 20170 39439 40193 333 20150 58020;
0147413960999992000022409004+15980+048950FM-12+070099999V0201301N003612200019N0150001N1+03011+01441101711ADDGA1001+999999999GF100991001001999999001001MA1999999094201MD1999999+0141REMSYN064AAXX  24094 41396 42965 01307 10301 20144 39420 40171 333 58014;
0189413960999992000022412004+15980+048950FM-12+070099999V0201301N002612200019N0150001N1+03351+00751101371ADDAA199000091GA1021+060009019GF102991001001999999001011MA1999999093851MD1999999+0141REMSYN076AAXX  24124 41396 32965 21305 10335 20075 39385 40137 80001 333 58014 82070;EQDQ01  00002PRCP99
0178413960999992000022506004+15980+048950FM-12+070099999V0209999C000012200019N0250001N1+02301+00911102051ADDGA1011+060009019GF101991001001999999001011KA1120N+01331MA1999999094461MD1999999+0071REMSYN082AAXX  25064 41396 42975 10000 10230 20091 39446 40205 80001 333 20133 58007 81070;
0177413960999992000022512004+15980+048950FM-12+070099999V0201001N002612200019N0250001N1+03371+00731101441ADDAA199000091GA1001+999999999GF100991001001999999001001MA1999999093921MD1999999+0061REMSYN064AAXX  25124 41396 32975 01005 10337 20073 39392 40144 333 58006;EQDQ01  00002PRCP99
0159413960999992000022515004+15980+048950FM-12+070099999V0209999C000012200019N0250001N1+02921+01171101371ADDGA1021+060009019GF102991001001999999001011MA1999999093861MD1999999-0081REMSYN076AAXX  25154 41396 42975 20000 10292 20117 39386 40137 80001 333 59008 82070;
0178413960999992000022606004+15980+048950FM-12+070099999V0209999C000012200019N0200001N1+02351+01081101871ADDGA1021+060009019GF102991001001999999001011KA1120N+01401MA1999999094301MD1999999-0161REMSYN082AAXX  26064 41396 42970 20000 10235 20108 39430 40187 80001 333 20140 59016 82070;
0147413960999992000022609004+15980+048950FM-12+070099999V0209999C000012200019N0200001N1+03111+01501101611ADDGA1001+999999999GF100991001001999999001001MA1999999094101MD1999999-0141REMSYN064AAXX  26094 41396 42970 00000 10311 20150 39410 40161 333 59014;
0177413960999992000022612004+15980+048950FM-12+070099999V0200501N002612200019N0200001N1+03401+01561101241ADDAA199000091GA1001+999999999GF100991001001999999001001MA1999999093751MD1999999-0171REMSYN064AAXX  26124 41396 32970 00505 10340 20156 39375 40124 333 59017;EQDQ01  00002PRCP99
0166413960999992000022618004+15980+048950FM-12+070099999V0209999C000012200019N0200001N1+02381+01011101471ADDGA1001+999999999GF100991001001999999001001KA1120M+03441MA1999999093961MD1999999-0201REMSYN070AAXX  26184 41396 42970 00000 10238 20101 39396 40147 333 10344 59020;
0147413960999992000022621004+15980+048950FM-12+070099999V0209999C000012200019N0200001N1+02301+01361101521ADDGA1001+999999999GF100991001001999999001001MA1999999094011MD1999999-0151REMSYN064AAXX  26214 41396 42970 00000 10230 20136 39401 40152 333 59015;
0147413960999992000022709004+15980+048950FM-12+070099999V0200901N002112200019N0150001N1+02201+01181101571ADDGA1001+999999999GF100991001001999999001001MA1999999094041MD1999999-0061REMSYN064AAXX  27094 41396 42965 00904 10220 20118 39404 40157 333 59006;
0177413960999992000022712004+15980+048950FM-12+070099999V0200901N002612200019N0150001N1+03452+01211101211ADDAA199000091GA1001+999999999GF100991001001999999001001MA1999999093701MD1999999-0051REMSYN064AAXX  27124 41396 32965 00905 10345 20121 39370 40121 333 59005;EQDQ01  00002PRCP99
0159413960999992000022715004+15980+048950FM-12+070099999V0200901N001512200019N0150001N1+03031+00811101211ADDGA1021+060009019GF102991001001999999001011MA1999999093701MD1999999-0061REMSYN076AAXX  27154 41396 42965 20903 10303 20081 39370 40121 80001 333 59006 82070;
0178413960999992000022718004+15980+048950FM-12+070099999V0201201N001512200019N0150001N1+02481+00861101491ADDGA1021+060009019GF102991001001999999001011KA1120M+03471MA1999999093981MD1999999+0021REMSYN082AAXX  27184 41396 42965 21203 10248 20086 39398 40149 80001 333 10347 58002 82070;
0156413960999992000022806004+15980+048950FM-12+070099999V0209999C000012200019N0200001N1+02351+01061101801ADDGF102991001001999999001011KA1120N+01251MA1999999094211MD1999999+0051REMSYN076AAXX  28064 41396 42970 20000 10235 20106 39421 40180 80001 333 20125 58005;
0189413960999992000022812004+15980+048950FM-12+070099999V0201501N002612200019N0200001N1+03451+01071101331ADDAA199000091GA1011+060009019GF101991001001999999001011MA1999999093821MD1999999+0111REMSYN076AAXX  28124 41396 32970 11505 10345 20107 39382 40133 80001 333 58011 81070;EQDQ01  00002PRCP99
0159413960999992000022815004+15980+048950FM-12+070099999V0200801N003112200019N0200001N1+02851+00921101341ADDGA1021+060009019GF102991001001999999001011MA1999999093831MD1999999+0131REMSYN076AAXX  28154 41396 42970 20806 10285 20092 39383 40134 80001 333 58013 82070;
0166413960999992000022906004+15980+048950FM-12+070099999V0209999C000012200019N0200001N1+02301+01361102031ADDGA1001+999999999GF100991001001999999001001KA1120N+01191MA1999999094481MD1999999+0271REMSYN070AAXX  29064 41396 42970 00000 10230 20136 39448 40203 333 20119 58027;
0147413960999992000022909004+15980+048950FM-12+070099999V0200501N005112200019N0200001N1+03001+01101101841ADDGA1001+999999999GF100991001001999999001001MA1999999094331MD1999999+0301REMSYN064AAXX  29094 41396 42970 00510 10300 20110 39433 40184 333 58030;
0177413960999992000022912004+15980+048950FM-12+070099999V0200901N002612200019N0200001N1+03291+01431101511ADDAA199000091GA1001+999999999GF100991001001999999001001MA1999999094001MD1999999+0181REMSYN064AAXX  29124 41396 32970 00905 10329 20143 39400 40151 333 58018;EQDQ01  00002PRCP99
0166413960999992000022918004+15980+048950FM-12+070099999V0200601N002612200019N0200001N1+02301+01151101751ADDGA1001+999999999GF100991001001999999001001KA1120M+03301MA1999999094231MD1999999+0171REMSYN070AAXX  29184 41396 42970 00605 10230 20115 39423 40175 333 10330 58017;
0166413960999992000030106004+15980+048950FM-12+070099999V0209999C000012200019N0150001N1+02401+01241102071ADDGA1001+999999999GF100991001001999999001001KA1120N+01401MA1999999094531MD1999999+0051REMSYN070AAXX  01064 41396 42965 00000 10240 20124 39453 40207 333 20140 58005;
0147413960999992000030109004+15980+048950FM-12+070099999V0201201N002112200019N0150001N1+02901+01421101811ADDGA1001+999999999GF100991001001999999001001MA1999999094301MD1999999-0031REMSYN064AAXX  01094 41396 42965 01204 10290 20142 39430 40181 333 59003;
0177413960999992000030112004+15980+048950FM-12+070099999V0209999C000012200019N0150001N1+03221+01351101521ADDAA199000091GA1001+999999999GF100991001001999999001001MA1999999094011MD1999999+0011REMSYN064AAXX  01124 41396 32965 00000 10322 20135 39401 40152 333 58001;EQDQ01  00002PRCP99
0138413960999992000030115004+15980+048950FM-12+070099999V0209999C000012200019N0150001N1+02901+01421101521ADDGA1011+060009019GF101991001001999999001011MD1999999+0011REMSYN070AAXX  01154 41396 42965 10000 10290 20142 40152 80001 333 58001 81070;
0157413960999992000030118004+15980+048950FM-12+070099999V0209999C000012200019N0150001N1+01901+01031101631ADDGA1011+060009019GF101991001001999999001011KA1120M+03221MD1999999-0111REMSYN076AAXX  01184 41396 42965 10000 10190 20103 40163 80001 333 10322 59011 81070;
0189413960999992000030212004+15980+048950FM-12+070099999V0209999C000012200019N0200001N1+03221+00421101501ADDAA199000091GA1021+060009019GF102991001001999999001011MA1999999094001MD1999999-0011REMSYN076AAXX  02124 41396 32970 20000 10322 20042 39400 40150 80001 333 59001 82070;EQDQ01  00002PRCP99
0159413960999992000030215004+15980+048950FM-12+070099999V0209999C000012200019N0200001N1+02901+00951101511ADDGA1011+060009019GF103991001001999999001011MA1999999094021MD1999999+0011REMSYN076AAXX  02154 41396 42970 30000 10290 20095 39402 40151 80001 333 58001 81070;
0175413960999992000030409004+15980+048950FM-12+070099999V0209999C000012200019N0060001N1+02601+00671102121ADDAY101031AY201031GA1001+999999999GF100991001001999999001001MA1999999094591MD1999999+0101MW1061REMSYN070AAXX  04094 41396 41956 00000 10260 20067 39459 40212 70600 333 58010;
0206413960999992000030506004+15980+048950FM-12+070099999V0209999C000012200019N0050001N1+02101+00061102061ADDAY101061AY201061GA1011+060009019GF101991001001999999001011KA1120N+01061MA1999999094471MD1999999-0321MW1061REMSYN088AAXX  05064 41396 41950 10000 10210 20006 39447 40206 70600 80001 333 20106 59032 81070;
0194413960999992000030606004+15980+048950FM-12+070099999V0209999C000012200019N0070001N1+02371+01361101931ADDAY101061AY201061GA1001+999999999GF100991001001999999001001KA1120N+01371MA1999999094381MD1999999-0091MW1061REMSYN076AAXX  06064 41396 42957 00000 10237 20136 39438 40193 70600 333 20137 59009;
0175413960999992000030609004+15980+048950FM-12+070099999V0209999C000012200019N0080001N1+03101+01371101711ADDAY101031AY201031GA1001+999999999GF100991001001999999001001MA1999999094201MD1999999-0051MW1061REMSYN070AAXX  06094 41396 42958 00000 10310 20137 39420 40171 70600 333 59005;
0171413960999992000030612004+15980+048950FM-12+070099999V0209999C000012200019N0100001N1+03321+99999101391ADDAA199000091GA1001+999999999GF100991001001999999001001MA1999999093901MD1999999-0011REMSYN058AAXX  06124 41396 32960 00000 10332 39390 40139 333 59001;EQDQ01  00002PRCP99
0147413960999992000030615004+15980+048950FM-12+070099999V0200901N002612200019N9999999N1+03001+01561101391ADDGA1001+999999999GF100991001001999999001001MA1999999093901MD1999999+0001REMSYN064AAXX  06154 41396 2/60/ 00905 10300 20156 39390 40139 333 58000;
0157413960999992000030618004+15980+048950FM-12+070099999V0200901N002612200019N0100001N1+02551+00991101601ADDGA1001+999999999GF100991001001999999001001MD1999999+0071REMSYN070AAXX  06184 41396 42960 00905 10255 20099 35409 40160 333 1034/ 58007;EQDQ01+054093APOSP 
0147413960999992000030621004+15980+048950FM-12+070099999V0209999C000012200019N0100001N1+02201+00771101651ADDGA1001+999999999GF100991001001999999001001MA1999999094141MD1999999+0051REMSYN064AAXX  06214 41396 42960 00000 10220 20077 39414 40165 333 58005;
0194413960999992000030706004+15980+048950FM-12+070099999V0200901N002112200019N0060001N1+02351+00991101891ADDAY101061AY201061GA1001+999999999GF100991001001999999001001KA1120N+01401MA1999999094321MD1999999-0061MW1061REMSYN076AAXX  07064 41396 41956 00904 10235 20099 39432 40189 70600 333 20140 59006;
0175413960999992000030709004+15980+048950FM-12+070099999V0200901N002612200019N0070001N1+03081+01431101641ADDAY101031AY201031GA1001+999999999GF100991001001999999001001MA1999999094131MD1999999-0071MW1061REMSYN070AAXX  07094 41396 41957 00905 10308 20143 39413 40164 70600 333 59007;
0153413960999992000030712004+15980+048950FM-12+070099999V0200201N002612200019N9999999N1+03301+01551101341ADDGA1001+999999999GF100991001001999999001001MA1999999093851MD1999999-0051REMSYN070AAXX  07124 41396 1/57/ 00205 10330 20155 39385 40134 70600 333 59005;
0105413960999992000030715004+15980+048950FM-12+070099999V0200901N002619999999N0120001N1+03031+01391101351ADDMA1999999093871MD1999999-0031REMSYN064AAXX  07154 41396 42962 /0905 10303 20139 39387 40135 333 59003;
0177413960999992000030812004+15980+048950FM-12+070099999V0201301N002612200019N0100001N1+03371+01261101241ADDAA199000091GA1001+999999999GF100991001001999999001001MA1999999093971MD1999999-0101REMSYN064AAXX  08124 41396 32960 01305 10337 20126 39397 40124 333 59010;EQDQ01  00002PRCP99
0194413960999992000030906004+15980+048950FM-12+070099999V0209999C000012200019N0090001N1+02201+01711101851ADDAY101061AY201061GA1001+999999999GF100991001001999999001001KA1120N+01261MA1999999094321MD1999999+0121MW1061REMSYN076AAXX  09064 41396 41959 00000 10220 20171 39432 40185 70600 333 20126 58012;
0175413960999992000030909004+15980+048950FM-12+070099999V0209999C000012200019N0090001N1+02791+01051101601ADDAY101031AY201031GA1001+999999999GF100991001001999999001001MA1999999094101MD1999999+0051MW1061REMSYN070AAXX  09094 41396 41959 00000 10279 20105 39410 40160 70600 333 58005;
0177413960999992000030912004+15980+048950FM-12+070099999V0200801N002612200019N0150001N1+03301+00491101311ADDAA199000091GA1001+999999999GF100991001001999999001001MA1999999093821MD1999999+0071REMSYN064AAXX  09124 41396 32965 00805 10330 20049 39382 40131 333 58007;EQDQ01  00002PRCP99
0147413960999992000030915004+15980+048950FM-12+070099999V0200501N004112200019N0100001N1+03011+00051101311ADDGA1001+999999999GF100991001001999999001001MA1999999093821MD1999999+0041REMSYN064AAXX  09154 41396 42960 00508 10301 20005 39382 40131 333 58004;
0175413960999992000031006004+15980+048950FM-12+070099999V0209999C000012200019N0150001N1+02421+01161101811ADDAJ100049199999999GA1001+999999999GF100991001001999999001001IA1299KA1120N+01301MA1999999094281REMSYN070AAXX  10064 41396 42965 00000 10242 20116 39428 40181 333 20130 49004;
0126413960999992000031009004+15980+048950FM-12+070099999V0200901N002112200019N0150001N1+03031+00781101651ADDGA1001+999999999GF100991001001999999001001MD1999999+0041REMSYN058AAXX  10094 41396 42965 00904 10303 20078 40165 333 58004;
0166413960999992000031018004+15980+048950FM-12+070099999V0200901N002612200019N0200001N1+02501+01041101641ADDGA1001+999999999GF100991001001999999001001KA1120M+03381MA1999999094131MD1999999+0101REMSYN070AAXX  10184 41396 42970 00905 10250 20104 39413 40164 333 10338 58010;
0178413960999992000031106004+15980+048950FM-12+070099999V0209999C000012200019N0200001N1+02401+00941101941ADDGA1011+060009019GF101991001001999999001011KA1120N+01581MA1999999094411MD1999999+0131REMSYN082AAXX  11064 41396 42970 10000 10240 20094 39441 40194 80001 333 20158 58013 81070;
0147413960999992000031109004+15980+048950FM-12+070099999V0209999C000012200019N0100001N1+02921+00931101741ADDGA1001+999999999GF100991001001999999001001MA1999999094251MD1999999+0111REMSYN064AAXX  11094 41396 42960 00000 10292 20093 39425 40174 333 58011;
0189413960999992000031112004+15980+048950FM-12+070099999V0200301N002612200019N0200001N1+03201+00601101541ADDAA199000091GA1021+060009019GF102991001001999999001011MA1999999094061MD1999999+0171REMSYN076AAXX  11124 41396 32970 20305 10320 20060 39406 40154 80001 333 58017 82070;EQDQ01  00002PRCP99
0159413960999992000031115004+15980+048950FM-12+070099999V0200801N003612200019N0200001N1+02801+00841101571ADDGA1021+060009019GF102991001001999999001011MA1999999094091MD1999999+0061REMSYN076AAXX  11154 41396 42970 20807 10280 20084 39409 40157 80001 333 58006 82070;
0166413960999992000031206004+15980+048950FM-12+070099999V0209999C000012200019N0150001N1+02471+00841101951ADDGA1001+999999999GF100991001001999999001001KA1120N+01411MA1999999094431MD1999999+0021REMSYN070AAXX  12064 41396 42965 00000 10247 20084 39443 40195 333 20141 58002;
0147413960999992000031215004+15980+048950FM-12+070099999V0209999C000012200019N0150001N1+02991+01261101481ADDGA1001+999999999GF100991001001999999001001MA1999999094011MD1999999-0081REMSYN064AAXX  12154 41396 42965 00000 10299 20126 39401 40148 333 59008;
0166413960999992000031218004+15980+048950FM-12+070099999V0200201N007712200019N0150001N1+02741+00561101681ADDGA1001+999999999GF100991001001999999001001KA1120M+03351MA1999999094191MD1999999-0071REMSYN070AAXX  12184 41396 42965 00215 10274 20056 39419 40168 333 10335 59007;
0177413960999992000031412004+15980+048950FM-12+070099999V0201001N002612200019N0120001N1+03351+00101101111ADDAA199000091GA1001+999999999GF100991001001999999001001MA1999999093621MD1999999-0101REMSYN064AAXX  14124 41396 32962 01005 10335 20010 39362 40111 333 59010;EQDQ01  00002PRCP99
0165413960999992000031418004+15980+048950FM-12+070099999V0200601N002612200019N0120001N1+02251+00421101351ADDGA1001+999999999GF100991001001999999001001KA1999M+99999MA1999999093851REMSYN064AAXX  14184 41396 42962 00605 10225 20042 39385 40135 333 19019;EQDQ01 +00192ATMX  
0166413960999992000031506004+15980+048950FM-12+070099999V0209999C000012200019N0120001N1+02301+01131101441ADDGA1001+999999999GF100991001001999999001001KA1120N+01151MA1999999094231MD1999999+0041REMSYN070AAXX  15064 41396 42962 00000 10230 20113 39423 40144 333 20115 58004;
0147413960999992000031509004+15980+048950FM-12+070099999V0200701N002612200019N0150001N1+03051+00611101541ADDGA1001+999999999GF100991001001999999001001MA1999999094051MD1999999+0121REMSYN064AAXX  15094 41396 42965 00705 10305 20061 39405 40154 333 58012;
0177413960999992000031512004+15980+048950FM-12+070099999V0200301N004112200019N0150001N1+03341+00211101311ADDAA199000091GA1001+999999999GF100991001001999999001001MA1999999093821MD1999999+0201REMSYN064AAXX  15124 41396 32965 00308 10334 20021 39382 40131 333 58020;EQDQ01  00002PRCP99
0147413960999992000031515004+15980+048950FM-12+070099999V0200801N002612200019N0150001N1+03051+00021101271ADDGA1001+999999999GF100991001001999999001001MA1999999093781MD1999999+0091REMSYN064AAXX  15154 41396 42965 00805 10305 20002 39378 40127 333 58009;
0166413960999992000031518004+15980+048950FM-12+070099999V0209999C000012200019N0150001N1+02111+00141101421ADDGA1001+999999999GF100991001001999999001001KA1120M+03351MA1999999093931MD1999999+0081REMSYN070AAXX  15184 41396 42965 00000 10211 20014 39393 40142 333 10335 58008;
0147413960999992000031521004+15980+048950FM-12+070099999V0209999C000012200019N0150001N1+01701+00351101511ADDGA1001+999999999GF100991001001999999001001MA1999999094001MD1999999+0091REMSYN064AAXX  15214 41396 42965 00000 10170 20035 39400 40151 333 58009;
0189413960999992000031612004+15980+048950FM-12+070099999V0201801N002612200019N0150001N1+03331+00051101291ADDAA199000091GA1011+060009029GF101991001001999999001011MA1999999093801MD1999999-0021REMSYN076AAXX  16124 41396 32965 11805 10333 20005 39380 40129 80001 333 59002 81870;EQDQ01  00002PRCP99
0147413960999992000031615004+15980+048950FM-12+070099999V0209999C000012200019N0150001N1+02931+00471101281ADDGA1001+999999999GF100991001001999999001001MA1999999093791MD1999999+0011REMSYN064AAXX  16154 41396 42965 00000 10293 20047 39379 40128 333 58001;
0166413960999992000031618004+15980+048950FM-12+070099999V0209999C000012200019N0150001N1+02121+00301101471ADDGA1001+999999999GF100991001001999999001001KA1120M+03361MA1999999093961MD1999999+0031REMSYN070AAXX  16184 41396 42965 00000 10212 20030 39396 40147 333 10336 58003;
0166413960999992000031706004+15980+048950FM-12+070099999V0209999C000012200019N0200001N1+02321-00171101661ADDGA1001+999999999GF100991001001999999001001KA1120N+01041MA1999999094111MD1999999-0241REMSYN070AAXX  17064 41396 42970 00000 10232 21017 39411 40166 333 20104 59024;
0189413960999992000031712004+15980+048950FM-12+070099999V0209999C000012200019N0200001N1+03501+00201101071ADDAA199000091GA1021+060009019GF102991001001999999001011MA1999999093561MD1999999-0241REMSYN076AAXX  17124 41396 32970 20000 10350 20020 39356 40107 80001 333 59024 82070;EQDQ01  00002PRCP99
0147413960999992000031809004+15980+048950FM-12+070099999V0209999C000012200019N0200001N1+03131+01061101381ADDGA1001+999999999GF100991001001999999001001MA1999999093871MD1999999-0021REMSYN064AAXX  18094 41396 42970 00000 10313 20106 39387 40138 333 59002;
0147413960999992000031815004+15980+048950FM-12+070099999V0200301N004112200019N0200001N1+03151+00511101041ADDGA1001+999999999GF100991001001999999001001MA1999999093571MD1999999+0021REMSYN064AAXX  18154 41396 42970 00308 10315 20051 39357 40104 333 58002;
0166413960999992000031906004+15980+048950FM-12+070099999V0209999C000012200019N0250001N1+02351+00621101761ADDGA1001+999999999GF100991001001999999001001KA1120N+01241MA1999999094231MD1999999+0201REMSYN070AAXX  19064 41396 42975 00000 10235 20062 39423 40176 333 20124 58020;
0159413960999992000031909004+15980+048950FM-12+070099999V0209999C000012200019N0250001N1+03001+00981101591ADDGA1011+060009019GF101991001001999999001011MA1999999094081MD1999999+0211REMSYN076AAXX  19094 41396 42975 10000 10300 20098 39408 40159 80001 333 58021 81070;
0159413960999992000031915004+15980+048950FM-12+070099999V0209999C000012200019N9999999N1+03161+01091101221ADDGA1031+075009019GF103991001001999999001011MA1999999093731MD1999999+0161REMSYN076AAXX  19154 41396 4297/ 30000 10316 20109 39373 40122 80001 333 58016 83075;
0166413960999992000032106004+15980+048950FM-12+070099999V0209999C000012200019N0200001N1+02601+01061101921ADDGA1001+999999999GF100991001001999999001001KA1120N+01221MA1999999094411MD1999999+0181REMSYN070AAXX  21064 41396 42970 00000 10260 20106 39441 40192 333 20122 58018;
0166413960999992000032109004+15980+048950FM-12+070099999V0200101N003612200019N0200001N1+03201+01171101741ADDGA1001+999999999GF100991001001999999001001MA1999999092272MD1999999+0201REMSYN064AAXX  21094 41396 42970 00107 10320 20117 39227 40174 333 58020;EQDQ01+092273APOSP 
0147413960999992000032121004+15980+048950FM-12+070099999V0209999C000012200019N0200001N1+01951+01061101671ADDGA1001+999999999GF100991001001999999001001MA1999999094181MD1999999+0031REMSYN064AAXX  21214 41396 42970 00000 10195 20106 39418 40167 333 58003;
0166413960999992000032206004+15980+048950FM-12+070099999V0209999C000012200019N0200001N1+02601+01321101891ADDGA1001+999999999GF100991001001999999001001KA1120N+01371MA1999999094361MD1999999-0051REMSYN070AAXX  22064 41396 42970 00000 10260 20132 39436 40189 333 20137 59005;
0194413960999992000032209004+15980+048950FM-12+070099999V0201301N004112200019N0200001N1+03301+01331101631ADDGA1021+060009019GF199999001001999999001999MA1999999094141MD1999999-0071REMSYN076AAXX  22094 41396 42970 01308 10330 20133 39414 40163 80001 333 59007 82070;EQDQ01+000002SCOTCVQ02+000002SCOHCG
0189413960999992000032212004+15980+048950FM-12+070099999V0201401N003612200019N0200001N1+03581+01441101311ADDAA199000091GA1031+060009019GF103991001001999999001011MA1999999093821MD1999999-0071REMSYN076AAXX  22124 41396 32970 31407 10358 20144 39382 40131 80001 333 59007 83070;EQDQ01  00002PRCP99
0166413960999992000032306004+15980+048950FM-12+070099999V0209999C000012200019N0250001N1+02501+00841101761ADDGA1001+999999999GF100991001001999999001001KA1120N+01041MA1999999094161MD1999999-0201REMSYN070AAXX  23064 41396 42975 00000 10250 20084 39416 40176 333 20104 59020;
0147413960999992000032315004+15980+048950FM-12+070099999V0201801N005112200019N0250001N1+03101+01371101041ADDGA1001+999999999GF100991001001999999001001MA1999999095561MD1999999-0221REMSYN064AAXX  23154 41396 42975 01810 10310 20137 39556 40104 333 59022;
0166413960999992000032318004+15980+048950FM-12+070099999V0200301N002612200019N0200001N1+02501+01311101381ADDGA1001+999999999GF100991001001999999001001MA1999999093892MD1999999-0101REMSYN064AAXX  23184 41396 42970 00305 10250 20131 39389 40138 333 59010;EQDQ01+093893APOSP 
0166413960999992000032406004+15980+048950FM-12+070099999V0209999C000012200019N0250001N1+02401+00941101581ADDGA1001+999999999GF100991001001999999001001KA1120N+01001MA1999999094051MD1999999-0051REMSYN070AAXX  24064 41396 42975 00000 10240 20094 39405 40158 333 20100 59005;
0177413960999992000032412004+15980+048950FM-12+070099999V0201701N005112200019N0150001N1+03551+01661100971ADDAA199000091GA1001+999999999GF100991001001999999001001MA1999999093501MD1999999-0051REMSYN064AAXX  24124 41396 32965 01710 10355 20166 39350 40097 333 59005;EQDQ01  00002PRCP99
0147413960999992000032415004+15980+048950FM-12+070099999V0201701N004112200019N0150001N1+03021+01641101081ADDGA1001+999999999GF100991001001999999001001MA1999999093611MD1999999+0051REMSYN064AAXX  24154 41396 42965 01708 10302 20164 39361 40108 333 58005;
0147413960999992000032421004+15980+048950FM-12+070099999V0209999C000012200019N0150001N1+02171+01461101391ADDGA1001+999999999GF100991001001999999001001MA1999999093901MD1999999-0011REMSYN064AAXX  24214 41396 42965 00000 10217 20146 39390 40139 333 59001;
0178413960999992000032506004+15980+048950FM-12+070099999V0200901N001512200019N0200001N1+02501+01371101511ADDGA1011+060009019GF101991001001999999001011KA1120N+01551MA1999999094001MD1999999-0051REMSYN082AAXX  25064 41396 42970 10903 10250 20137 39400 40151 80001 333 20155 59005 81070;
0189413960999992000032512004+15980+048950FM-12+070099999V0201801N004112200019N0200001N1+03621+01861101021ADDAA199000091GA1011+060009019GF101991001001999999001011MA1999999093531MD1999999+0031REMSYN076AAXX  25124 41396 32970 11808 10362 20186 39353 40102 80001 333 58003 81070;EQDQ01  00002PRCP99
0178413960999992000032515004+15980+048950FM-12+070099999V0201701N003612200019N0200001N1+03171+01931101091ADDGA1021+060009019GF199999001001999999001011MA1999999093621MD1999999+0011REMSYN076AAXX  25154 41396 42970 11707 10317 20193 39362 40109 80001 333 58001 82070;EQDQ01+000012SCOTCV
0178413960999992000032606004+15980+048950FM-12+070099999V0209999C000012200019N0200001N1+02501+01271101721ADDGA1011+060009019GF101991001001999999001011KA1120N+01401MA1999999094181MD1999999+0121REMSYN082AAXX  26064 41396 42970 10000 10250 20127 39418 40172 80001 333 20140 58012 81070;
0189413960999992000032612004+15980+048950FM-12+070099999V0209999C000012200019N0150001N1+03501+01831101161ADDAA199000091GA1021+060009019GF102991001001999999001011MA1999999093691MD1999999+0161REMSYN076AAXX  26124 41396 32965 20000 10350 20183 39369 40116 80001 333 58016 82070;EQDQ01  00002PRCP99
0159413960999992000032615004+15980+048950FM-12+070099999V0209999C000012200019N0200001N1+03101+01781101151ADDGA1021+060009019GF102991001001999999001011MA1999999093681MD1999999+0061REMSYN076AAXX  26154 41396 42970 20000 10310 20178 39368 40115 80001 333 58006 82070;
0178413960999992000032706004+15980+048950FM-12+070099999V0209999C000012200019N0150001N1+02631+01421101741ADDGA1011+060009019GF101991001001999999001011KA1120N+01151MA1999999094231MD1999999-0051REMSYN082AAXX  27064 41396 42965 10000 10263 20142 39423 40174 80001 333 20115 59005 81070;
0147413960999992000032709004+15980+048950FM-12+070099999V0209999C000012200019N0150001N1+03501+02021101211ADDGA1001+999999999GF100991001001999999001001MA1999999093761MD1999999+0071REMSYN064AAXX  27094 41396 42965 00000 10350 20202 39376 40121 333 58007;
0147413960999992000032715004+15980+048950FM-12+070099999V0209999C000012200019N0150001N1+03241+01681101201ADDGA1001+999999999GF100991001001999999001001MA1999999093751MD1999999+0071REMSYN064AAXX  27154 41396 42965 00000 10324 20168 39375 40120 333 58007;
0147413960999992000032809004+15980+048950FM-12+070099999V0202901N002112200019N0200001N1+03151+01721101561ADDGA1001+999999999GF100991001001999999001001MA1999999094091MD1999999+0011REMSYN064AAXX  28094 41396 42970 02904 10315 20172 39409 40156 333 58001;
0159413960999992000032815004+15980+048950FM-12+070099999V0200901N002612200019N0250001N1+03161+00601101281ADDGA1021+060009019GF102991001001999999001011MA1999999093811MD1999999+0061REMSYN076AAXX  28154 41396 42975 20905 10316 20060 39381 40128 80001 333 58006 82070;
0189413960999992000032912004+15980+048950FM-12+070099999V0200201N002612200019N0200001N1+03301+00301101291ADDAA199000091GA1031+060009019GF103991001001999999001011MA1999999093841MD1999999+0041REMSYN076AAXX  29124 41396 32970 30205 10330 20030 39384 40129 80001 333 58004 83070;EQDQ01  00002PRCP99
0159413960999992000032915004+15980+048950FM-12+070099999V0200601N002612200019N0200001N1+03051+00301101301ADDGA1031+060009019GF103991001001999999001011MA1999999093851MD1999999+0011REMSYN076AAXX  29154 41396 42970 30605 10305 20030 39385 40130 80001 333 58001 83070;
0147413960999992000033009004+15980+048950FM-12+070099999V0209999C000012200019N0150001N1+03191+00631101681ADDGA1001+999999999GF100991001001999999001001MA1999999094211MD1999999+0081REMSYN064AAXX  30094 41396 42465 00000 10319 20063 39421 40168 333 58008;
0178413960999992000033106004+15980+048950FM-12+070099999V0209999C000012200019N0200001N1+02601+01101101761ADDGA1021+060009019GF102991001001999999001011KA1120N+01541MA1999999094271MD1999999-0071REMSYN082AAXX  31064 41396 42970 20000 10260 20110 39427 40176 80001 333 20154 59007 82070;
0189413960999992000033112004+15980+048950FM-12+070099999V0201801N003612200019N0150001N1+03471-00151101161ADDAA199000091GA1031+060009019GF103991001001999999001011MA1999999093701MD1999999-0201REMSYN076AAXX  31124 41396 32965 31807 10347 21015 39370 40116 80001 333 59020 83070;EQDQ01  00002PRCP99
0178413960999992000033118004+15980+048950FM-12+070099999V0201501N003612200019N0150001N1+02671+00521101441ADDGA1031+060009019GF103991001001999999001011KA1120M+03481MA1999999093971MD1999999+0131REMSYN082AAXX  31184 41396 42965 31507 10267 20052 39397 40144 80001 333 10348 58013 83070;
0178413960999992000040206004+15980+048950FM-12+070099999V0209999C000012200019N0150001N1+02601+00581101741ADDGA1011+060009019GF101991001001999999001011KA1120N+01351MA1999999094261MD1999999+0051REMSYN082AAXX  02064 41396 42965 10000 10260 20058 39426 40174 80001 333 20135 58005 81070;
0172413960999992000040212004+15980+048950FM-12+070099999V02099999999992200019N0150001N1+02601+99999101741ADDGA1011+060009019GF101991001001999999001011KA1120N+01351MA1999999094261MD1999999+0051REMSYN076AAXX  02124 41396 42965 1/080 10260 39426 40174 80001 333 20135 58005 81070;
0177413960999992000040312004+15980+048950FM-12+070099999V0200601N006212200019N0150001N1+03541+00761101181ADDAA199000091GA1001+999999999GF100991001001999999001001MA1999999093731MD1999999+0021REMSYN064AAXX  03124 41396 32965 00612 10354 20076 39373 40118 333 58002;EQDQ01  00002PRCP99
0178413960999992000040406004+15980+048950FM-12+070099999V0209999C000012200019N0150001N1+02801+00991101651ADDGA1021+045009079GF102991021001999999031001KA1120N+01601MA1999999094211MD1999999-0021REMSYN082AAXX  04064 41396 42965 20000 10280 20099 39421 40165 82030 333 20160 59002 82365;
0159413960999992000040409004+15980+048950FM-12+070099999V0200601N002612200019N0150001N1+03421+00361101511ADDGA1011+060009019GF101991001001999999001011MA1999999094061MD1999999-0021REMSYN076AAXX  04094 41396 42965 10605 10342 20036 39406 40151 80001 333 59002 81070;
0217413960999992000040412004+15980+048950FM-12+070099999V0201201N007712200019N0080001N1+03601+00631101181ADDAA199000091AY101061AY201061GA1011+060009019GF101991001001999999001011MA1999999093731MD1999999+0001MW1071REMSYN082AAXX  04124 41396 31958 11215 10360 20063 39373 40118 70700 80001 333 59000 81070;EQDQ01  00002PRCP99
0178413960999992000040418004+15980+048950FM-12+070099999V0200901N002112200019N0150001N1+02821+00641101281ADDGA1011+060009019GF101991001001999999001011KA1120M+03681MA1999999093821MD1999999-0091REMSYN082AAXX  04184 41396 42965 10904 10282 20064 39382 40128 80001 333 10368 59009 81070;
0178413960999992000040506004+15980+048950FM-12+070099999V0209999C000012200019N0150001N1+02911+01011101661ADDGA1031+075009019GF103991001001999999001011KA1120N+01581MA1999999094171MD1999999-0041REMSYN082AAXX  05064 41396 42965 30000 10291 20101 39417 40166 80001 333 20158 59004 83075;
0187413960999992000040509004+15980+048950FM-12+070099999V0200601N006212200019N0080001N1+03461+00791101451ADDAY101031AY201031GA1021+060009019GF102991001001999999001011MA1999999094001MD1999999+0001MW1061REMSYN082AAXX  05094 41396 41958 20612 10346 20079 39400 40145 70600 80001 333 58000 82070;
0189413960999992000040512004+15980+048950FM-12+070099999V0200901N002612200019N0120001N1+03691+00691101171ADDAA199000091GA1021+060009019GF102991001001999999001011MA1999999093721MD1999999-0011REMSYN076AAXX  05124 41396 32962 20905 10369 20069 39372 40117 80001 333 59001 82070;EQDQ01  00002PRCP99
0162413960999992000040518004+15980+048950FM-12+070099999V0200301N006212200019N0120001N1+03201+00621101341ADDGF102991001001999999001011KA1120M+03701MA1999999093891MD1999999+0071REMSYN082AAXX  05184 41396 42962 20312 10320 20062 39389 40134 80001 333 10370 58007 92070;
0147413960999992000040521004+15980+048950FM-12+070099999V0209999C000012200019N0120001N1+02451+00891101391ADDGA1001+999999999GF100991001001999999001001MA1999999093941MD1999999+0051REMSYN064AAXX  05214 41396 42962 00000 10245 20089 39394 40139 333 58005;
0178413960999992000040606004+15980+048950FM-12+070099999V0209999C000012200019N0120001N1+02901+01291101741ADDGA1011+060009019GF101991001001999999001011KA1120N+01661MA1999999094251MD1999999+0081REMSYN082AAXX  06064 41396 42962 10000 10290 20129 39425 40174 80001 333 20166 58008 81070;
0159413960999992000040615004+15980+048950FM-12+070099999V0209999C000012200019N0120001N1+03431+01321101071ADDGA1031+060009019GF103991001001999999001011MA1999999093621MD1999999-0051REMSYN076AAXX  06154 41396 42962 30000 10343 20132 39362 40107 80001 333 59005 83070;
0164413960999992000040706004+15980+048950FM-12+070099999V0209999C000012200019N0100001N1+02871+01271101641ADDGA1031+060009019GF103991001001999999001011KA1120N+01721MA1999999094171REMSYN082AAXX  07064 41396 4/960 30000 10287 20127 39417 40164 80001 333 20172 5900/ 83070;
0206413960999992000040806004+15980+048950FM-12+070099999V0209999C000012200019N0080001N1+02951+00891101761ADDAY101061AY201061GA1021+060009019GF102991001001999999001011KA1120N+01751MA1999999094271MD1999999+0101MW1061REMSYN088AAXX  08064 41396 41958 20000 10295 20089 39427 40176 70600 80001 333 20175 58010 82070;
0175413960999992000040809004+15980+048950FM-12+070099999V0209999C000012200019N0090001N1+03601+00791101521ADDAY101031AY201031GA1001+999999999GF100991001001999999001001MA1999999094071MD1999999+0111MW1061REMSYN070AAXX  08094 41396 41959 00000 10360 20079 39407 40152 70600 333 58011;
0177413960999992000040812004+15980+048950FM-12+070099999V0200301N003112200019N0100001N1+03751+00611101221ADDAA199000091GA1001+999999999GF100991001001999999001001MA1999999093771MD1999999+0071REMSYN064AAXX  08124 41396 32960 00306 10375 20061 39377 40122 333 58007;EQDQ01  00002PRCP99
0150413960999992000040815004+15980+048950FM-12+070099999V0209999C025712200019N0100001N1+03351+00691101181ADDGF101991999999999999999999MA1999999099752MD1999999+0061REMSYN064AAXX  08154 41396 42960 10050 10335 20069 39975 40118 333 58006;EQDQ01+099753APOSP 
0194413960999992000040906004+15980+048950FM-12+070099999V0209999C000012200019N0080001N1+02951+00761101591ADDAY101061AY201061GA1001+999999999GF100991001001999999001001KA1120N+01661MA1999999094131MD1999999-0141MW1061REMSYN076AAXX  09064 41396 41958 00000 10295 20076 39413 40159 70600 333 20166 59014;
0147413960999992000040909004+15980+048950FM-12+070099999V0209999C000012200019N0150001N1+03601+00251101371ADDGA1001+999999999GF100991001001999999001001MA1999999093941MD1999999-0131REMSYN064AAXX  09094 41396 42965 00000 10360 20025 39394 40137 333 59013;
0177413960999992000040912004+15980+048950FM-12+070099999V0200801N004112200019N0150001N1+03701+00491101121ADDAA199000091GA1001+999999999GF100991001001999999001001MA1999999093701MD1999999-0071REMSYN064AAXX  09124 41396 32965 00808 10370 20049 39370 40112 333 59007;EQDQ01  00002PRCP99
0178413960999992000040918004+15980+048950FM-12+070099999V0200501N003612200019N0150001N1+03131+01061101331ADDGA1011+030009079GF101991011001999999031001KA1120M+03801MA1999999093901MD1999999-0031REMSYN082AAXX  09184 41396 42965 10507 10313 20106 39390 40133 81030 333 10380 59003 81360;
0178413960999992000041006004+15980+048950FM-12+070099999V0209999C000012200019N0150001N1+02981+01031101601ADDGA1021+036009079GF102991021001999999031001KA1120N+01761MA1999999094101MD1999999-0021REMSYN082AAXX  10064 41396 42965 20000 10298 20103 39410 40160 82030 333 20176 59002 82362;
0159413960999992000041009004+15980+048950FM-12+070099999V0200901N003612200019N0150001N1+03651+01031101331ADDGA1011+045009079GF101991011001999999031001MA1999999093911MD1999999-0031REMSYN076AAXX  10094 41396 42965 10907 10365 20103 39391 40133 81030 333 59003 81365;
0172413960999992000041018004+15980+048950FM-12+070099999V0201801N003112200019N0150001N1+03151+01601999999ADDGA1011+009009029GF101991011011008001001001KA1120M+03831MA1999999093851MD1999999-0051REMSYN076AAXX  10184 41396 42565 11806 10315 20160 39385 81100 333 10383 59005 81830;
0223413960999992000041112004+15980+048950FM-12+070099999V0200801N006212200019N0090001N1+03751+01071101001ADDAA199000091AY101061AY201061GA1011+009009089GF102991011011008001001011MA1999999093611MD1999999+0001MW1061REMSYN088AAXX  11124 41396 31559 20812 10375 20107 39361 40100 70600 81101 333 58000 81830 82070;EQDQ01  00002PRCP99
0165413960999992000041115004+15980+048950FM-12+070099999V0200901N003112200019N0150001N1+03471+01381100981ADDGA1011+009009089GF103991011011012501031001MA1999999093591MD1999999-0061REMSYN082AAXX  11154 41396 42665 30906 10347 20138 39359 40098 81130 333 59006 81830 83358;
0178413960999992000041118004+15980+048950FM-12+070099999V0209999C000012200019N0150001N1+03251+01791101201ADDGA1011+060009019GF101991001001999999001011KA1120M+03851MA1999999093791MD1999999-0061REMSYN082AAXX  11184 41396 42965 10000 10325 20179 39379 40120 80001 333 10385 59006 81070;
0147413960999992000041121004+15980+048950FM-12+070099999V0209999C000012200019N0150001N1+02641+01811101331ADDGA1001+999999999GF100991001001999999001001MA1999999093881MD1999999+0031REMSYN064AAXX  11214 41396 42965 00000 10264 20181 39388 40133 333 58003;
0178413960999992000041206004+15980+048950FM-12+070099999V0209999C000012200019N0150001N1+03091+01881101641ADDGA1011+060009019GF101991001001999999001011KA1120N+02101MA1999999094191MD1999999+0121REMSYN082AAXX  12064 41396 42965 10000 10309 20188 39419 40164 80001 333 20210 58012 81070;
0166413960999992000041318004+15980+048950FM-12+070099999V0200901N005112200019N0100001N1+03181-00391101231ADDGA1001+999999999GF100991001001999999001001KA1120M+03831MA1999999093821MD1999999-0041REMSYN070AAXX  13184 41396 42960 00910 10318 21039 39382 40123 333 10383 59004;
0206413960999992000041406004+15980+048950FM-12+070099999V0209999C000012200019N0090001N1+03011+00501101451ADDAY101061AY201061GA1011+060009019GF101991001001999999001011KA1120N+01731MA1999999094021MD1999999-0141MW1061REMSYN088AAXX  14064 41396 41959 10000 10301 20050 39402 40145 70600 80001 333 20173 59014 81070;
0187413960999992000041409004+15980+048950FM-12+070099999V0209999C000012200019N0090001N1+03561+00501101231ADDAY101031AY201031GA1011+060009019GF101991001001999999001011MA1999999093801MD1999999-0101MW1061REMSYN082AAXX  14094 41396 41959 10000 10356 20050 39380 40123 70600 80001 333 59010 81070;
0166413960999992000041418004+15980+048950FM-12+070099999V0200801N002612200019N0150001N1+02891+00851101091ADDGA1001+999999999GF100991001001999999001001KA1120M+03861MA1999999093641MD1999999-0181REMSYN070AAXX  14184 41396 42965 00805 10289 20085 39364 40109 333 10386 59018;
0159413960999992000041509004+15980+048950FM-12+070099999V0209999C000012200019N0100001N1+03701+00841101131ADDGA1021+060009019GF102991001001999999001011MA1999999093701MD1999999-0101REMSYN076AAXX  15094 41396 42960 20000 10370 20084 39370 40113 80001 333 59010 82070;
0205413960999992000041512004+15980+048950FM-12+070099999V0201501N002612200019N0100001N1+03801+00541100901ADDAA199000091GA1041+060009019GF104991001001999999001011MA1999999094702MD1999999-0041REMSYN076AAXX  15124 41396 32960 41505 10380 20054 39470 40090 80001 333 59004 84070;EQDQ01+094703APOSP Q02  00002PRCP99
0178413960999992000041606004+15980+048950FM-12+070099999V0209999C000012200019N0100001N1+03051+01391101421ADDGA1021+060009019GF102991001001999999001011KA1120N+01851MA1999999093971MD1999999+0011REMSYN082AAXX  16064 41396 42960 20000 10305 20139 39397 40142 80001 333 20185 58001 82070;
0147413960999992000041609004+15980+048950FM-12+070099999V0209999C000012200019N0100001N1+03651+01031101131ADDGA1001+999999999GF100991001001999999001001MA1999999093721MD1999999+0021REMSYN064AAXX  16094 41396 42960 00000 10365 20103 39372 40113 333 58002;
0177413960999992000041612004+15980+048950FM-12+070099999V0203301N005112200019N0150001N1+03901+00601100811ADDAA199000091GA1001+999999999GF100991001001999999001001MA1999999093401MD1999999-0071REMSYN064AAXX  16124 41396 32965 03310 10390 20060 39340 40081 333 59007;EQDQ01  00002PRCP99
0147413960999992000041615004+15980+048950FM-12+070099999V0209999C000012200019N0150001N1+03501+00141100821ADDGA1001+999999999GF100991001001999999001001MA1999999093411MD1999999-0021REMSYN064AAXX  16154 41396 42965 00000 10350 20014 39341 40082 333 59002;
0178413960999992000041706004+15980+048950FM-12+070099999V0209999C000012200019N0150001N1+03101+01141101351ADDGA1011+060009019GF101991001001999999001011KA1120N+01921MA1999999093901MD1999999-0071REMSYN082AAXX  17064 41396 42965 10000 10310 20114 39390 40135 80001 333 20192 59007 81070;
0205413960999992000041712004+15980+048950FM-12+070099999V0201501N003112200019N0100001N1+03871+00701999999ADDAA199000091GA1021+060009019GF102991001001999999001011MA1999999093451MD1999999+0051REMSYN076AAXX  17124 41396 32960 21506 10387 20070 39345 40008 80001 333 58005 82070;EQDQ01+100083APOSLPQ02  00002PRCP99
0159413960999992000041715004+15980+048950FM-12+070099999V0209999C000012200019N0120001N1+03521+01151100791ADDGA1031+060009019GF103991001001999999001011MA1999999093401MD1999999-0011REMSYN076AAXX  17154 41396 42962 30000 10352 20115 39340 40079 80001 333 59001 83070;
0215413960999992000041718004+15980+048950FM-12+070099999V0201201N003612200019N0150001N1+03191+01451101011ADDGA1091+001209009GF109991091001999999001011KA1120M+03951MA1999999093601REMSYN082AAXX  17184 41396 42965 21207 10319 20145 39360 40101 80001 333 10395 89004 82070;EQDQ01+000022SCOTCVQ02+000002SCOTLCQ03+000012SCOHCG
0166413960999992000041721004+15980+048950FM-12+070099999V0209999C000012200019N0150001N1+02651+01641101171ADDGA1001+999999999GF100991001001999999001001MA1999999093002MD1999999+0001REMSYN064AAXX  17214 41396 42965 00000 10265 20164 39300 40117 333 58000;EQDQ01+093003APOSP 
0178413960999992000041806004+15980+048950FM-12+070099999V0209999C000012200019N0150001N1+03101+01591101331ADDGA1041+060009019GF104991001001999999001011KA1120N+02001MA1999999093861MD1999999-0041REMSYN082AAXX  18064 41396 42965 40000 10310 20159 39386 40133 80001 333 20200 59004 84070;
0159413960999992000041809004+15980+048950FM-12+070099999V0209999C000012200019N0150001N1+03641+01301101171ADDGA1041+060009019GF104991001001999999001011MA1999999093761MD1999999+0021REMSYN076AAXX  18094 41396 42965 40000 10364 20130 39376 40117 80001 333 58002 84070;
0189413960999992000041812004+15980+048950FM-12+070099999V0200301N002612200019N0150001N1+03901+01071100921ADDAA199000091GA1021+060009019GF103991001001999999001011MA1999999093511MD1999999+0061REMSYN076AAXX  18124 41396 32965 30305 10390 20107 39351 40092 80001 333 58006 82070;EQDQ01  00002PRCP99
0178413960999992000041818004+15980+048950FM-12+070099999V0201801N003612200019N0150001N1+03241+01681101081ADDGA1031+060009019GF104991001001999999001011KA1120M+03901MA1999999093671MD1999999+0071REMSYN082AAXX  18184 41396 42965 41807 10324 20168 39367 40108 80001 333 10390 58007 83070;
0159413960999992000041909004+15980+048950FM-12+070099999V0209999C000012200019N0150001N1+03651+01471101191ADDGA1031+060009019GF103991001001999999001011MA1999999093781MD1999999-0021REMSYN076AAXX  19094 41396 42965 30000 10365 20147 39378 40119 80001 333 59002 83070;
0159413960999992000041915004+15980+048950FM-12+070099999V0200901N003112200019N0150001N1+03531+01451100861ADDGA1021+009009029GF102991021081012501001001MA1999999093471MD1999999-0051REMSYN076AAXX  19154 41396 42665 20906 10353 20145 39347 40086 82800 333 59005 82830;
0159413960999992000042009004+15980+048950FM-12+070099999V0200901N003612200019N0150001N1+03861+01211101171ADDGA1011+060009019GF101991001001999999001011MA1999999093721MD1999999-0061REMSYN076AAXX  20094 41396 42965 10907 10386 20121 39372 40117 80001 333 59006 81070;
0189413960999992000042012004+15980+048950FM-12+070099999V0209999C000012200019N0150001N1+03951+01421100931ADDAA199000091GA1011+009009029GF101991011011008001001001MA1999999093461MD1999999-0061REMSYN076AAXX  20124 41396 32565 10000 10395 20142 39346 40093 81100 333 59006 81830;EQDQ01  00002PRCP99
0159413960999992000042015004+15980+048950FM-12+070099999V0200901N003612200019N0150001N1+03571+01581100891ADDGA1011+009009029GF101991011011008001001001MA1999999093401MD1999999-0071REMSYN076AAXX  20154 41396 42565 10907 10357 20158 39340 40089 81100 333 59007 81830;
0166413960999992000042018004+15980+048950FM-12+070099999V0201201N002612200019N0150001N1+03291+01741101031ADDGA1001+999999999GF100991001001999999001001KA1120M+04051MA1999999093561MD1999999-0091REMSYN070AAXX  20184 41396 42965 01205 10329 20174 39356 40103 333 10405 59009;
0166413960999992000042106004+15980+048950FM-12+070099999V0209999C000012200019N0150001N1+03181+01911101351ADDGA1001+999999999GF100991001001999999001001KA1120N+02101MA1999999093881MD1999999-0021REMSYN070AAXX  21064 41396 42965 00000 10318 20191 39388 40135 333 20210 59002;
0147413960999992000042115004+15980+048950FM-12+070099999V0201301N003612200019N0200001N1+03601+01671100831ADDGA1001+999999999GF100991001001999999001001MA1999999093401MD1999999+0001REMSYN064AAXX  21154 41396 42970 01307 10360 20167 39340 40083 333 58000;
0166413960999992000042206004+15980+048950FM-12+070099999V0209999C000012200019N0200001N1+03171+01251101371ADDGA1001+999999999GF100991001001999999001001KA1120N+01871MA1999999093941MD1999999+0061REMSYN070AAXX  22064 41396 42970 00000 10317 20125 39394 40137 333 20187 58006;
0166413960999992000042209004+15980+048950FM-12+070099999V0200901N002612200019N0200001N1+03801-00162101171ADDGA1001+999999999GF100991001001999999001001MA1999999093771MD1999999+0051REMSYN064AAXX  22094 41396 42970 00905 10380 21016 39377 40117 333 58005;EQDQ01-000163ATOD  
0147413960999992000042309004+15980+048950FM-12+070099999V0201901N003112200019N0200001N1+03851+00481101161ADDGA1001+999999999GF100991001001999999001001MA1999999093731MD1999999-0041REMSYN064AAXX  23094 41396 42970 01906 10385 20048 39373 40116 333 59004;
0147413960999992000042315004+15980+048950FM-12+070099999V0200901N002612200019N0150001N1+03601+01071100871ADDGA1001+999999999GF100991001001999999001001MA1999999093401MD1999999-0111REMSYN064AAXX  23154 41396 42965 00905 10360 20107 39340 40087 333 59011;
0166413960999992000042406004+15980+048950FM-12+070099999V0209999C000012200019N0150001N1+03201+01911101321ADDGA1001+999999999GF100991001001999999001001KA1120N+02271MA1999999093871MD1999999-0061REMSYN070AAXX  24064 41396 42965 00000 10320 20191 39387 40132 333 20227 59006;
0147413960999992000042421004+15980+048950FM-12+070099999V0209999C000012200019N0200001N1+02541+01581101161ADDGA1001+999999999GF100991001001999999001001MA1999999093671MD1999999+0041REMSYN064AAXX  24214 41396 42970 00000 10254 20158 39367 40116 333 58004;
0166413960999992000042706004+15980+048950FM-12+070099999V0200101N002612200019N0250001N1+03041+01801101231ADDGA1001+999999999GF100991001001999999001001KA1120N+02101MA1999999093761MD1999999+0021REMSYN070AAXX  27064 41396 42975 00105 10304 20180 39376 40123 333 20210 58002;
0166413960999992000042806004+15980+048950FM-12+070099999V0209999C000012200019N0200001N1+03071+01981101221ADDGA1001+999999999GF100991001001999999001001KA1120N+02151MA1999999093811MD1999999+0051REMSYN070AAXX  28064 41396 42970 00000 10307 20198 39381 40122 333 20215 58005;
0184413960999992000042815004+15980+048950FM-12+070099999V0201501N048322200019N0250001N1+99999+99999100781ADDGA1031+007509089GF104991031081008001001011MA1999999093381MD1999999+0101REMSYN082AAXX  28154 41396 42575 41594 19353 29129 39338 40078 83801 333 58010 83825 84070;EQDQ01+004833WOSPD 
0159413960999992000042909004+15980+048950FM-12+070099999V0209999C000012200019N0250001N1+03551+01661101251ADDGA1011+007509029GF102991011011008001001011MA1999999093761MD1999999+0121REMSYN076AAXX  29094 41396 42575 20000 10355 20166 39376 40125 81101 333 58012 81825;
0189413960999992000042912004+15980+048950FM-12+070099999V0203601N002612200019N0250001N1+03751+00611101051ADDAA199000091GA1021+007509029GF102991021011008001001001MA1999999093541MD1999999+0221REMSYN076AAXX  29124 41396 32575 23605 10375 20061 39354 40105 82100 333 58022 82825;EQDQ01  00002PRCP99
0165413960999992000042915004+15980+048950FM-12+070099999V0200901N002612200019N0250001N1+03501+01161101021ADDGA1011+007509089GF102991011011008001001011MA1999999093491MD1999999+0111REMSYN082AAXX  29154 41396 42575 20905 10350 20116 39349 40102 81101 333 58011 81825 82070;
0178413960999992000042918004+15980+048950FM-12+070099999V0201601N003612200019N0250001N1+03171+01541101211ADDGA1011+010509029GF101991011011999999001001KA1120M+03821MA1999999093761MD1999999+0151REMSYN082AAXX  29184 41396 42975 11607 10317 20154 39376 40121 81100 333 10382 58015 81835;
0147413960999992000042921004+15980+048950FM-12+070099999V0201501N003112200019N0250001N1+02851+02021101371ADDGA1001+999999999GF100991001001999999001001MA1999999093861MD1999999+0071REMSYN064AAXX  29214 41396 42575 01506 10285 20202 39386 40137 333 58007;
0203413960999992000043012004+15980+048950FM-12+070099999V0200901N007712200019N0080001N1+03681+01191100981ADDAA199000091AY101061AY201061GA1031+007509029GF104991031011008001001011MA1999999093561MW1071REMSYN082AAXX  30124 41396 31558 40915 10368 20119 39356 40098 70700 83101 333 5800/ 83825;EQDQ01  00002PRCP99
0178413960999992000050106004+15980+048950FM-12+070099999V0201801N003112200019N0250001N1+02971+01851101471ADDGA1021+009009029GF103991021011008001001011KA1120N+02421MA1999999094041MD1999999-0011REMSYN082AAXX  01064 41396 42575 31806 10297 20185 39404 40147 82101 333 20242 59001 82830;
0178413960999992000050206004+15980+048950FM-12+070099999V0209999C000012200019N0200001N1+03001+01841101551ADDGA1021+060009019GF102991001001999999001011KA1120N+02261MA1999999094101MD1999999+0061REMSYN082AAXX  02064 41396 42970 20000 10300 20184 39410 40155 80001 333 20226 58006 82070;
0159413960999992000050209004+15980+048950FM-12+070099999V0209999C000012200019N0200001N1+03451+01561101361ADDGA1021+009009029GF102991021011008001001001MA1999999093891MD1999999+0071REMSYN076AAXX  02094 41396 42570 20000 10345 20156 39389 40136 82100 333 58007 82830;
0147413960999992000050221004+15980+048950FM-12+070099999V0209999C000012200019N0200001N1+02561+01471101551ADDGA1001+999999999GF100991001001999999001001MA1999999094001MD1999999+0161REMSYN064AAXX  02214 41396 42970 00000 10256 20147 39400 40155 333 58016;
0178413960999992000050306004+15980+048950FM-12+070099999V0209999C000012200019N0200001N1+02951+01031101641ADDGA1011+030009079GF102991011001999999031011KA1120N+01851MA1999999094171MD1999999+0071REMSYN082AAXX  03064 41396 42970 20000 10295 20103 39417 40164 81031 333 20185 58007 81360;
0159413960999992000050309004+15980+048950FM-12+070099999V0209999C000012200019N0150001N1+03461+00721101481ADDGA1031+060009019GF103991001001999999001011MA1999999094051MD1999999+0161REMSYN076AAXX  03094 41396 42965 30000 10346 20072 39405 40148 80001 333 58016 83070;
0189413960999992000050312004+15980+048950FM-12+070099999V0200201N002612200019N0200001N1+03721+00651101191ADDAA199000091GA1021+060009019GF102991001001999999001011MA1999999093781MD1999999+0151REMSYN076AAXX  03124 41396 32970 20205 10372 20065 39378 40119 80001 333 58015 82070;EQDQ01  00002PRCP99
0145413960999992000050315004+15980+048950FM-12+070099999V0201801N003612200019N0200001N1+03421+00501101131ADDGA1021+060009019GF102991001001999999001011MA1999999093721REMSYN076AAXX  03154 41396 42970 21807 10342 20050 39372 40113 80001 333 50009 82070;
0166413960999992000050318004+15980+048950FM-12+070099999V0209999C000012200019N0200001N1+03001+00701101461ADDGA1001+999999999GF100991001001999999001001KA1120M+03771MA1999999094011MD1999999+0041REMSYN070AAXX  03184 41396 42970 00000 10300 20070 39401 40146 333 10377 58004;
0166413960999992000050406004+15980+048950FM-12+070099999V0202401N002612200019N0200001N1+02831+01471101621ADDGA1001+999999999GF100991001001999999001001KA1120N+01901MA1999999094221MD1999999+0051REMSYN070AAXX  04064 41396 42970 02405 10283 20147 39422 40162 333 20190 58005;
0147413960999992000050409004+15980+048950FM-12+070099999V0201701N002612200019N0200001N1+03481+00222101451ADDGA1001+999999999GF100991001001999999001001MA1999999094021MD1999999-0031REMSYN064AAXX  04094 41396 42970 01705 10348 20022 39402 40145 333 59003;
0177413960999992000050412004+15980+048950FM-12+070099999V0200901N002612200019N0200001N1+03701+00301101121ADDAA199000091GA1001+999999999GF100991001001999999001001MA1999999093711MD1999999-0071REMSYN064AAXX  04124 41396 32970 00905 10370 20030 39371 40112 333 59007;EQDQ01  00002PRCP99
0166413960999992000050506004+15980+048950FM-12+070099999V0209999C000012200019N0250001N1+02901+01071101521ADDGA1001+999999999GF100991001001999999001001KA1120N+01651MA1999999094051MD1999999-0171REMSYN070AAXX  05064 41396 42975 00000 10290 20107 39405 40152 333 20165 59017;
0177413960999992000050512004+15980+048950FM-12+070099999V0201401N002612200019N0200001N1+03641+00111101041ADDAA199000091GA1001+999999999GF100991001001999999001001MA1999999093611MD1999999-0101REMSYN064AAXX  05124 41396 32970 01405 10364 20011 39361 40104 333 59010;EQDQ01  00002PRCP99
0175413960999992000050518004+15980+048950FM-12+070099999V0209999C000012200019N0250001N1+02871+01201101311ADDAJ100009199999999GA1001+999999999GF100991001001999999001001IA1249KA1120M+03701MA1999999093861REMSYN070AAXX  05184 41396 42975 00000 10287 2012/ 39386 40131 333 10370 48000;
0166413960999992000050606004+15980+048950FM-12+070099999V0209999C000012200019N0250001N1+02801+01501101551ADDGA1001+999999999GF100991001001999999001001KA1120N+01901MA1999999094081MD1999999+0031REMSYN070AAXX  06064 41396 42975 00000 10280 20150 39408 40155 333 20190 58003;
0182413960999992000050618004+15980+048950FM-12+070099999V0201701N002612200019N0200001N1+03021+01041101371ADDAA199000091GA1001+999999999GF100991001001999999001001KA1120M+03671MA1999999093901REMSYN070AAXX  06184 41396 32970 01705 10302 20104 39390 40137 333 10367 5880=;EQDQ01  00002PRCP99
0159413960999992000050709004+15980+048950FM-12+070099999V0201801N005112200019N0250001N1+99999+99999101291ADDGA1011+009009029GF101991011001008001001001MA1999999093861MD1999999-0041REMSYN076AAXX  07094 41396 42575 11810 10/// 20/// 39386 40129 81000 333 59004 81830;
0189413960999992000050712004+15980+048950FM-12+070099999V0201701N004112200019N0250001N1+99999+99999101161ADDAA199000091GA1021+009009029GF102991021011008001001001MA1999999093631MD1999999-0031REMSYN076AAXX  07124 41396 32575 21708 10/// 20/// 39363 40116 82100 333 59003 82830;EQDQ01  00002PRCP99
0159413960999992000050715004+15980+048950FM-12+070099999V0201501N004112200019N0250001N1+99999+99999101181ADDGA1011+009009029GF101991011011008001001001MA1999999093681MD1999999-0031REMSYN076AAXX  07154 41396 42575 11508 10/// 2//// 39368 40118 81100 333 59003 81830;
0166413960999992000050806004+15980+048950FM-12+070099999V0209999C000012200019N0250001N1+99999+99999101451ADDGA1001+999999999GF100991001001999999001001KA1120N+01761MA1999999093981MD1999999-0141REMSYN070AAXX  08064 41396 42975 00000 10/// 20/// 39398 40145 333 20176 59014;
0171413960999992000050812004+15980+048950FM-12+070099999V0201601N003612200019N0200001N1+99999+99999999999ADDAA199000091GA1001+999999999GF100991001001999999001001MA1999999093501MD1999999-0131REMSYN058AAXX  08124 41396 32970 01607 10/// 20/// 39350 333 59013;EQDQ01  00002PRCP99
0177413960999992000050912004+15980+048950FM-12+070099999V0200901N005112200019N0150001N1+03951-00491100921ADDAA199000091GA1001+999999999GF100991001001999999001001MA1999999093491MD1999999-0011REMSYN064AAXX  09124 41396 32965 00910 10395 21049 39349 40092 333 59001;EQDQ01  00002PRCP99
0177413960999992000051012004+15980+048950FM-12+070099999V0200801N002612200019N0150001N1+03931+00471100941ADDAA199000091GA1001+999999999GF100991001001999999001001MA1999999093491MD1999999+0001REMSYN064AAXX  10124 41396 32965 00805 10393 20047 39349 40094 333 58000;EQDQ01  00002PRCP99
0159413960999992000051015004+15980+048950FM-12+070099999V0201401N002612200019N0150001N1+03601-00451100931ADDGA1011+009009029GF101991011011008001001001MA1999999093471MD1999999-0011REMSYN076AAXX  10154 41396 42565 11405 10360 21045 39347 40093 81100 333 59001 81830;
0145413960999992000051106004+15980+048950FM-12+070099999V0209999C000012200019N0250001N1+03101+00741101461ADDGA1001+999999999GF100991001001999999001001KA1120N+01841MD1999999+0061REMSYN064AAXX  11064 41396 42975 00000 10310 20074 40146 333 20184 58006;
0177413960999992000051112004+15980+048950FM-12+070099999V0200501N005112200019N0200001N1+04051+00391100911ADDAA199000091GA1001+999999999GF100991001001999999001001MA1999999093501MD1999999+0011REMSYN064AAXX  11124 41396 32970 00510 10405 20039 39350 40091 333 58001;EQDQ01  00002PRCP99
0166413960999992000051118004+15980+048950FM-12+070099999V0201501N002612200019N0200001N1+03301+00801101141ADDGA1001+999999999GF100991001001999999001001KA1120M+04101MA1999999093671MD1999999-0031REMSYN070AAXX  11184 41396 42970 01505 10330 20080 39367 40114 333 10410 59003;
0166413960999992000051206004+15980+048950FM-12+070099999V0209999C000012200019N0200001N1+03201+00911101401ADDGA1001+999999999GF100991001001999999001001KA1120N+01951MA1999999093931MD1999999-0051REMSYN070AAXX  12064 41396 42970 00000 10320 20091 39393 40140 333 20195 59005;
0147413960999992000051209004+15980+048950FM-12+070099999V0201301N004112200019N0120001N1+03901+00411101191ADDGA1001+999999999GF100991001001999999001001MA1999999093741MD1999999-0021REMSYN064AAXX  12094 41396 42962 01308 10390 20041 39374 40119 333 59002;
0177413960999992000051212004+15980+048950FM-12+070099999V0200901N003612200019N0120001N1+04001+00431100921ADDAA199000091GA1001+999999999GF100991001001999999001001MA1999999093491MD1999999-0011REMSYN064AAXX  12124 41396 32962 00907 10400 20043 39349 40092 333 59001;EQDQ01  00002PRCP99
0147413960999992000051215004+15980+048950FM-12+070099999V0200301N003612200019N0120001N1+03831+00501100841ADDGA1001+999999999GF100991001001999999001001MA1999999093431MD1999999-0071REMSYN064AAXX  12154 41396 42962 00307 10383 20050 39343 40084 333 59007;
0166413960999992000051218004+15980+048950FM-12+070099999V0209999C000012200019N0120001N1+03151+00521101031ADDGA1001+999999999GF100991001001999999001001KA1120M+04051MA1999999093601MD1999999-0071REMSYN070AAXX  12184 41396 42962 00000 10315 20052 39360 40103 333 10405 59007;
0194413960999992000051306004+15980+048950FM-12+070099999V0209999C000012200019N0060001N1+03301+01261101361ADDAY101061AY201061GA1001+999999999GF100991001001999999001001KA1120N+02001MA1999999093931MD1999999+0001MW1061REMSYN076AAXX  13064 41396 41956 00000 10330 20126 39393 40136 70600 333 20200 58000;
0175413960999992000051409004+15980+048950FM-12+070099999V0200301N002612200019N0070001N1+03901+00631101171ADDAY101031AY201031GA1001+999999999GF100991001001999999001001MA1999999093781MD1999999-0021MW1061REMSYN070AAXX  14094 41396 41957 00305 10390 20063 39378 40117 70600 333 59002;
0215413960999992000051412004+15980+048950FM-12+070099999V0209999C000012200019N0090001N1+04101+00541100961ADDAA199000091AY101061AY201061GA1001+999999999GF100991001001999999001001MA1999999093531MD1999999+0011REMSYN070AAXX  14124 41396 31959 00000 10410 20054 39353 40096 76600 333 58001;EQDQ01+000662PRSWM1Q02  00002PRCP99
0159413960999992000051415004+15980+048950FM-12+070099999V0209999C000012200019N0100001N1+03671+01391100931ADDGA1011+009009029GF101991011011999999001001MA1999999093461MD1999999-0031REMSYN076AAXX  14154 41396 42960 10000 10367 20139 39346 40093 81100 333 59003 81830;
0166413960999992000051418004+15980+048950FM-12+070099999V0200301N002612200019N0120001N1+03281+01201101141ADDGA1001+999999999GF100991001001999999001001KA1120M+04171MA1999999093631MD1999999-0091REMSYN070AAXX  14184 41396 42962 00305 10328 20120 39363 40114 333 10417 59009;
0147413960999992000051421004+15980+048950FM-12+070099999V0209999C000012200019N0120001N1+02691+01211101211ADDGA1001+999999999GF100991001001999999001001MA1999999093731MD1999999-0031REMSYN064AAXX  14214 41396 42962 00000 10269 20121 39373 40121 333 59003;
0177413960999992000051512004+15980+048950FM-12+070099999V0200501N002612200019N0100001N1+04151+00821100881ADDAA199000091GA1001+999999999GF100991001001999999001001MA1999999093471MD1999999-0061REMSYN064AAXX  15124 41396 32960 00505 10415 20082 39347 40088 333 59006;EQDQ01  00002PRCP99
0166413960999992000051606004+15980+048950FM-12+070099999V0202301N001512200019N0090001N1+03331+01061101261ADDGA1001+999999999GF100991001001999999001001KA1120N+01961MA1999999093811MD1999999-0151REMSYN070AAXX  16064 41396 42959 02303 10333 20106 39381 40126 333 20196 59015;
0175413960999992000051609004+15980+048950FM-12+070099999V0200301N005112200019N0090001N1+04101+00861101041ADDAY101031AY201031GA1001+999999999GF100991001001999999001001MA1999999093631MD1999999-0101MW1061REMSYN070AAXX  16094 41396 41959 00310 10410 20086 39363 40104 70600 333 59010;
0159413960999992000051612004+15980+048950FM-12+070099999V0200901N003612200019N0150001N1+04101+01061100821ADDAA199000091GA1001+999999999GF100991001001999999001001MA1999999093381REMSYN060AAXX  16124 41396 32965 00907 10410 20106 39338 40082 59009;EQDQ01  00002PRCP99
0166413960999992000051618004+15980+048950FM-12+070099999V0209999C000012200019N0150001N1+02871+01561100931ADDGA1001+999999999GF100991001001999999001001KA1120M+04201MA1999999093501MD1999999-0021REMSYN070AAXX  16184 41396 42965 00000 10287 20156 39350 40093 333 10420 59002;
0166413960999992000051706004+15980+048950FM-12+070099999V0209999C000012200019N0100001N1+03301+00951101201ADDGA1001+999999999GF100991001001999999001001KA1120N+02011MA1999999093751MD1999999-0061REMSYN070AAXX  17064 41396 42960 00000 10330 20095 39375 40120 333 20201 59006;
0175413960999992000051709004+15980+048950FM-12+070099999V0203601N002612200019N0090001N1+04011+00961101001ADDAY101031AY201031GA1001+999999999GF100991001001999999001001MA1999999093571MD1999999-0161MW1061REMSYN070AAXX  17094 41396 41959 03605 10401 20096 39357 40100 70600 333 59016;
0177413960999992000051712004+15980+048950FM-12+070099999V0209999C000012200019N0120001N1+04271+01291100621ADDAA199000091GA1001+999999999GF100991001001999999001001MA1999999093231MD1999999-0151REMSYN064AAXX  17124 41396 32962 00000 10427 20129 39323 40062 333 59015;EQDQ01  00002PRCP99
0166413960999992000051806004+15980+048950FM-12+070099999V0209999C000012200019N0150001N1+03431+00961101031ADDGA1001+999999999GF100991001001999999001001KA1120N+02201MA1999999093601MD1999999-0151REMSYN070AAXX  18064 41396 42965 00000 10343 20096 39360 40103 333 20220 59015;
0147413960999992000051809004+15980+048950FM-12+070099999V0202801N003612200019N0130001N1+04101+01021100891ADDGA1001+999999999GF100991001001999999001001MA1999999093511MD1999999-0061REMSYN064AAXX  18094 41396 42963 02807 10410 20102 39351 40089 333 59006;
0177413960999992000051812004+15980+048950FM-12+070099999V0209999C000012200019N0130001N1+04261+01431100591ADDAA199000091GA1001+999999999GF100991001001999999001001MA1999999093201MD1999999-0031REMSYN064AAXX  18124 41396 32963 00000 10426 20143 39320 40059 333 59003;EQDQ01  00002PRCP99
0150413960999992000051818004+15980+048950FM-12+070099999V0200801N002612200019N0130001N1+03641+01531100701ADDGF102991999999999999999999KA1120M+04341MA1999999093311MD1999999-0141REMSYN070AAXX  18184 41396 42963 20805 10364 20153 39331 40070 333 10434 59014;
0178413960999992000051906004+15980+048950FM-12+070099999V0202701N001512200019N0130001N1+03421+01281100931ADDGA1041+075009019GF104991001001999999001011KA1120N+02291MA1999999093511MD1999999-0091REMSYN082AAXX  19064 41396 42963 42703 10342 20128 39351 40093 80001 333 20229 59009 84075;
0189413960999992000051912004+15980+048950FM-12+070099999V0201401N001512200019N0130001N1+04331+01851100481ADDAA199000091GA1021+012009029GF102991021011012501001001MA1999999093051MD1999999-0151REMSYN076AAXX  19124 41396 32663 21403 10433 20185 39305 40048 82100 333 59015 82840;EQDQ01  00002PRCP99
0165413960999992000051915004+15980+048950FM-12+070099999V0201301N001512200019N0150001N1+04131+01711100531ADDGA1031+012009089GF104991031081012501001011MA1999999093061MD1999999-0011REMSYN082AAXX  19154 41396 42665 41303 10413 20171 39306 40053 83801 333 59001 83840 84075;
0215413960999992000052006004+15980+048950FM-12+070099999V0209999C000012200019N0100001N1+03641+01741100911ADDGA1091+000309009GF109991091001999999001011KA1120N+02401MA1999999093501REMSYN082AAXX  20064 41396 42960 20000 10364 20174 39350 40091 80001 333 20240 89001 82070;EQDQ01+000022SCOTCVQ02+000002SCOTLCQ03+000012SCOHCG
0159413960999992000052009004+15980+048950FM-12+070099999V0209999C000012200019N0100001N1+04201+01341100731ADDGA1011+060009019GF101991001001999999001011MA1999999093301MD1999999-0071REMSYN076AAXX  20094 41396 42960 10000 10420 20134 39330 40073 80001 333 59007 81070;
0189413960999992000052012004+15980+048950FM-12+070099999V0200901N003112200019N0100001N1+04341+02592100571ADDAA199000091GA1021+009009029GF102991021011008001001001MA1999999093101MD1999999+0001REMSYN076AAXX  20124 41396 32560 20906 10434 20259 39310 40057 82100 333 59000 82830;EQDQ01  00002PRCP99
0165413960999992000052015004+15980+048950FM-12+070099999V0209999C000012200019N0150001N1+03971+01851100521ADDGA1011+009009089GF102991011011008001001011MA1999999093071MD1999999+0011REMSYN082AAXX  20154 41396 42565 20000 10397 20185 39307 40052 81101 333 58001 81830 82070;
0178413960999992000052018004+15980+048950FM-12+070099999V0200801N007712200019N0150001N1+03901+00771100661ADDGA1021+060009019GF102991001001999999001011KA1120M+04401MA1999999093251MD1999999+0051REMSYN082AAXX  20184 41396 42965 20815 10390 20077 39325 40066 80001 333 10440 58005 82070;
0189413960999992000052112004+15980+048950FM-12+070099999V0200501N004112200019N0150001N1+04401+01241100561ADDAA199000091GA1041+060009019GF104991001001999999001011MA1999999093171MD1999999+0071REMSYN076AAXX  21124 41396 32965 40508 10440 20124 39317 40056 80001 333 58007 84070;EQDQ01  00002PRCP99
0169413960999992000052118004+15980+048950FM-12+070099999V0202901N999992200019N0040001N1+03801+00901100801ADDGF104991999999002501999999KA1120M+04441MA1999999093351MD1999999+0101REMSYN070AAXX  21184 41396 41396 42965 10380 20090 39335 40080 333 10444 58010;EQDQ01+003343WOSPD 
0153413960999992000052121004+15980+048950FM-12+070099999V0200301N002612200019N0250001N1+99999+99999100791ADDGA1011+060009019GF101991001001999999001011MA1999999093361MD1999999+0021REMSYN070AAXX  21214 41396 42975 10305 20132 39336 40079 80001 333 58002 81070;
0169413960999992000052209004+15980+048950FM-12+070099999V0201201N004612200019N0090001N1+04081+01161999999ADDAY101031AY201031GA1001+999999999GF100991001001999999001001MA1999999093461MD1999999+0101MW1061REMSYN064AAXX  22094 41396 41959 01209 10408 20116 39346 70600 333 58010;
0177413960999992000052212004+15980+048950FM-12+070099999V0209999C000012200019N0100001N1+04251+01301100601ADDAA199000091GA1001+999999999GF100991001001999999001001MA1999999093181MD1999999+0011REMSYN064AAXX  22124 41396 32960 00000 10425 20130 39318 40060 333 58001;EQDQ01  00002PRCP99
0147413960999992000052215004+15980+048950FM-12+070099999V0200501N006212200019N0150001N1+04081+01131100631ADDGA1001+999999999GF100991001001999999001001MA1999999093201MD1999999+0031REMSYN064AAXX  22154 41396 42965 00512 10408 20113 39320 40063 333 58003;
0147413960999992000052303004+15980+048950FM-12+070099999V0209999C000012200019N0150001N1+02331+01521101021ADDGA1001+999999999GF100991001001999999001001MA1999999093551MD1999999+0021REMSYN064AAXX  23034 41396 42965 00000 10233 20152 39355 40102 333 58002;
0175413960999992000052309004+15980+048950FM-12+070099999V0200901N003612200019N0080001N1+04021+01241100931ADDAY101031AY201031GA1001+999999999GF100991001001999999001001MA1999999093541MD1999999+0081MW1061REMSYN070AAXX  23094 41396 41958 00907 10402 20124 39354 40093 70600 333 58008;
0205413960999992000052312004+15980+048950FM-12+070099999V0203601N005112200019N0090001N1+04251+01311100711ADDAA199000091AY101061AY201061GA1001+999999999GF100991001001999999001001MA1999999093261MD1999999+0081MW1061REMSYN070AAXX  23124 41396 31959 03610 10425 20131 39326 40071 70600 333 58008;EQDQ01  00002PRCP99
0194413960999992000052406004+15980+048950FM-12+070099999V0209999C000012200019N0040001N1+03401+01481101031ADDAY101061AY201061GA1001+999999999GF100991001001999999001001KA1120N+02211MA1999999093601MD1999999-0121MW1061REMSYN076AAXX  24064 41396 41940 00000 10340 20148 39360 40103 70600 333 20221 59012;
0177413960999992000052512004+15980+048950FM-12+070099999V0209999C000012200019N0130001N1+04201+01251100541ADDAA199000091GA1001+999999999GF100991001001999999001001MA1999999093131MD1999999-0071REMSYN064AAXX  25124 41396 32963 00000 10420 20125 39313 40054 333 59007;EQDQ01  00002PRCP99
0147413960999992000052521004+15980+048950FM-12+070099999V0209999C000012200019N0150001N1+03171+01201100801ADDGA1001+999999999GF100991001001999999001001MA1999999093331MD1999999-0041REMSYN064AAXX  25214 41396 42965 00000 10317 20120 39333 40080 333 59004;
0206413960999992000052606004+15980+048950FM-12+070099999V0209999C000012200019N0080001N1+03351+00351100831ADDAY101061AY201061GA1021+000159019GF102991001001999999001011KA1120N+02151MA1999999093401MD1999999-0181MW1061REMSYN088AAXX  26064 41396 41958 20000 10335 20035 39340 40083 70600 80001 333 20215 59018 82000;
0175413960999992000052609004+15980+048950FM-12+070099999V0209999C000012200019N0090001N1+04061+00091100581ADDAY101031AY201031GA1001+999999999GF100991001001999999001001MA1999999093191MD1999999-0191MW1061REMSYN070AAXX  26094 41396 41959 00000 10406 20009 39319 40058 70600 333 59019;
0147413960999992000052615004+15980+048950FM-12+070099999V0200301N005112200019N0100001N1+04011+00641100451ADDGA1001+999999999GF100991001001999999001001MA1999999092941MD1999999-0161REMSYN064AAXX  26154 41396 42960 00310 10401 20064 39294 40045 333 59016;
0166413960999992000052618004+15980+048950FM-12+070099999V0209999C000012200019N0100001N1+03391+00361100561ADDGA1001+999999999GF100991001001999999001001KA1120M+04281MA1999999093111MD1999999-0171REMSYN070AAXX  26184 41396 42960 00000 10339 20036 39311 40056 333 10428 59017;
0147413960999992000052621004+15980+048950FM-12+070099999V0209999C000012200019N0100001N1+03161+00661100611ADDGA1001+999999999GF100991001001999999001001MA1999999093161MD1999999-0171REMSYN064AAXX  26214 41396 42960 00000 10316 20066 39316 40061 333 59017;
0151413960999992000052706004+15980+048950FM-12+070099999V0209999C000012200019N0080001N1+03401+01801100801ADDAY101061AY201061GA1001+999999999GF100991001001999999001001MA1999999093351MW1061REMSYN060AAXX  27064 41396 41958 00000 10340 20180 39335 40080 70600;
0147413960999992000052709004+15980+048950FM-12+070099999V0200801N002612200019N0100001N1+04121+01451100581ADDGA1001+999999999GF100991001001999999001001MA1999999093171MD1999999-0021REMSYN064AAXX  27094 41396 42960 00805 10412 20145 39317 40058 333 59002;
0177413960999992000052712004+15980+048950FM-12+070099999V0200901N002612200019N0120001N1+04251+01781100351ADDAA199000091GA1001+999999999GF100991001001999999001001MA1999999092861MD1999999-0101REMSYN064AAXX  27124 41396 32962 00905 10425 20178 39286 40035 333 59010;EQDQ01  00002PRCP99
0147413960999992000052715004+15980+048950FM-12+070099999V0200401N007712200019N0150001N1+04001+01381100421ADDGA1001+999999999GF100991001001999999001001MA1999999092941MD1999999+0001REMSYN064AAXX  27154 41396 42965 00415 10400 20138 39294 40042 333 58000;
0178413960999992000052809004+15980+048950FM-12+070099999V0201201N002612200019N0150001N1+03951+99999100691ADDGA1021+060009019GF102991001001999999001011MA1999999093301MD1999999+0131REMSYN076AAXX  28094 41396 42965 21205 10395 20395 39330 40069 80001 333 58013 82070;EQDQ01+003951ATOD  
0145413960999992000052815004+15980+048950FM-12+070099999V0200801N006212200019N0200001N1+03951+01761100541ADDGA1021+075009019GF102991001001999999001011MA1999999093061REMSYN076AAXX  28154 41396 42970 20812 10395 20176 39306 40054 80001 333 57012 82075;
0197413960999992000052818004+15980+048950FM-12+070099999V0209999C000012200019N9999999N1+03201+01821100751ADDGA1021+060009019GF102991001001999999001011KA1120M+04241MA1999999093311MD1999999+0141REMSYN082AAXX  28184 41396 4/70/ 20000 10320 20182 39331 40075 80001 333 10424 58014 82070;EQDQ01+017502SCOLCB
0159413960999992000052915004+15980+048950FM-12+070099999V0200301N006712200019N0100001N1+03991+01291100581ADDGA1021+060009019GF102991001001999999001011MA1999999093081MD1999999+0021REMSYN076AAXX  29154 41396 42960 20313 10399 20129 39308 40058 80001 333 58002 82070;
0147413960999992000052921004+15980+048950FM-12+070099999V0209999C000012200019N0100001N1+03221+01811100831ADDGA1001+999999999GF100991001001999999001001MA1999999093361MD1999999-0051REMSYN064AAXX  29214 41396 42960 00000 10322 20181 39336 40083 333 59005;
0166413960999992000053006004+15980+048950FM-12+070099999V0209999C000012200019N0120001N1+03341+01931100971ADDGA1001+999999999GF100991001001999999001001KA1120N+02161MA1999999093521MD1999999-0061REMSYN070AAXX  30064 41396 42962 00000 10334 20193 39352 40097 333 20216 59006;
0175413960999992000053009004+15980+048950FM-12+070099999V0201001N002612200019N0060001N1+03951+02281100761ADDAY101031AY201031GA1001+999999999GF100991001001999999001001MA1999999093371MD1999999+0021MW1061REMSYN070AAXX  30094 41396 41956 01005 10395 20228 39337 40076 70600 333 58002;
0181413960999992000053012004+15980+048950FM-12+070099999V0200901N003612200019N0150001N1+04151+00811100661ADDAA199000091AY101061AY201061GA1001+999999999GF100991001001999999001001MA1999999093121MW1061REMSYN060AAXX  30124 41396 31965 00907 10415 20081 39312 40066 70600;EQDQ01  00002PRCP99
0147413960999992000053015004+15980+048950FM-12+070099999V0203301N003612200019N0150001N1+03881+00441100601ADDGA1001+999999999GF100991001001999999001001MA1999999093131MD1999999+0051REMSYN064AAXX  30154 41396 42965 03307 10388 20044 39313 40060 333 58005;
0194413960999992000053106004+15980+048950FM-12+070099999V0209999C000012200019N0090001N1+03281+00741100961ADDAY101061AY201061GA1001+999999999GF100991001001999999001001KA1120N+01901MA1999999093531MD1999999+0011MW1061REMSYN076AAXX  31064 41396 41959 00000 10328 20074 39353 40096 70600 333 20190 58001;
0189413960999992000053112004+15980+048950FM-12+070099999V0201601N002612200019N0150001N1+03951-00351100591ADDAA199000091GA1031+045009079GF103991021001999999031001MA1999999093151MD1999999+0031REMSYN076AAXX  31124 41396 32965 31605 10395 21035 39315 40059 82030 333 58003 83365;EQDQ01  00002PRCP99
0165413960999992000053115004+15980+048950FM-12+070099999V0209999C000012200019N0150001N1+03721-00201100601ADDGA1021+045009039GF104991021001999999031011MA1999999093131MD1999999+0001REMSYN082AAXX  31154 41396 42965 40000 10372 21020 39313 40060 82031 333 58000 82365 83070;
0172413960999992000060106004+15980+048950FM-12+070099999V0209999C000012200019N0150001N1+03311+01541100961ADDGA1011+060009019GF101991999999999999999999KA1120N+02251MA1999999093511MD1999999-0021REMSYN076AAXX  01064 41396 42965 10000 10331 20154 39351 40096 333 20225 59002 81070;
0147413960999992000060109004+15980+048950FM-12+070099999V0209999C000012200019N0150001N1+03871+00981100741ADDGA1001+999999999GF100991001001999999001001MA1999999093321MD1999999-0101REMSYN064AAXX  01094 41396 42965 00000 10387 20098 39332 40074 333 59010;
0167413960999992000060112004+15980+048950FM-12+070099999V0209999C000012200019N0150001N1+04061+00381100551ADDAA199000091GF101991011011008001001001MA1999999093081MD1999999-0071REMSYN070AAXX  01124 41396 32565 10000 10406 20038 39308 40055 81100 333 59007;EQDQ01  00002PRCP99
0178413960999992000060115004+15980+048950FM-12+070099999V0209999C000012200019N0150001N1+03901+01201100561ADDGA1021+024009079GF102991021999999999031001MA1999999093071MD1999999-0061REMSYN076AAXX  01154 41396 42965 20000 10390 20120 39307 40056 82030 333 59006 82358;EQDQ01    003SCOLCG
0197413960999992000060206004+15980+048950FM-12+070099999V0209999C000012200019N0150001N1+03461+01691100751ADDGA1011+024009079GF101991011999999999031001KA1120N+02401MA1999999093321MD1999999-0091REMSYN082AAXX  02064 41396 42965 10000 10346 20169 39332 40075 81030 333 20240 59009 81358;EQDQ01    003SCOLCG
0150413960999992000060218004+15980+048950FM-12+070099999V0203401N003612200019N0150001N1+03631+01541100531ADDGF104991999999999999999999KA1120M+04201MA1999999093101MD1999999-0081REMSYN070AAXX  02184 41396 42965 43407 10363 20154 39310 40053 333 10420 59008;
0150413960999992000060306004+15980+048950FM-12+070099999V0209999C000012200019N0100001N1+03601+01791100751ADDGF103991999999999999999999KA1120N+02501MA1999999093321MD1999999+0001REMSYN070AAXX  03064 41396 42960 30000 10360 20179 39332 40075 333 20250 59000;
0165413960999992000060315004+15980+048950FM-12+070099999V0209999C00001220001CN0150001N1+04001+01081100441ADDGA1031+009009089GF105991031081008001001011MA1999999092951MD1999999+0041REMSYN082AAXX  03154 41396 42565 50000 10400 20108 39295 40044 83801 333 58004 83830 85070;
0178413960999992000060406004+15980+048950FM-12+070099999V0209999C000012200019N0150001N1+03471+01541100831ADDGA1041+060009019GF104991001001999999001011KA1120N+02281MA1999999093391MD1999999+0071REMSYN082AAXX  04064 41396 42965 40000 10347 20154 39339 40083 80001 333 20228 58007 84070;
0159413960999992000060409004+15980+048950FM-12+070099999V0200601N007712200019N0100001N1+04291+00661100651ADDGA1031+060009019GF103991001001999999001011MA1999999093201MD1999999+0001REMSYN076AAXX  04094 41396 42960 30615 10429 20066 39320 40065 80001 333 58000 83070;
0189413960999992000060412004+15980+048950FM-12+070099999V0203601N007712200019N0120001N1+04341+00281100491ADDAA199000091GA1021+060009019GF102991001001999999001011MA1999999093001MD1999999+0051REMSYN076AAXX  04124 41396 32962 23615 10434 20028 39300 40049 80001 333 58005 82070;EQDQ01  00002PRCP99
0159413960999992000060415004+15980+048950FM-12+070099999V0200301N005112200019N0120001N1+04061+00791100471ADDGA1041+060009019GF104991001001999999001011MA1999999092971MD1999999+0021REMSYN076AAXX  04154 41396 42962 40310 10406 20079 39297 40047 80001 333 58002 84070;
0151413960999992000060418004+15980+048950FM-12+070099999V0209999C000012200019N0120001N1+03301+00551100621ADDGA1001+999999999GF100991001001999999001001MD1999999+0031REMSYN064AAXX  04184 41396 42962 00000 10330 20055 39217 40062 333 58003;EQDQ01+092173APOSP 
0147413960999992000060421004+15980+048950FM-12+070099999V0209999C000012200019N0120001N1+02801+01051100721ADDGA1001+999999999GF100991001001999999001001MA1999999093211MD1999999-0041REMSYN064AAXX  04214 41396 42962 00000 10280 20105 39321 40072 333 59004;
0166413960999992000060506004+15980+048950FM-12+070099999V0209999C000012200019N0150001N1+03481+00851100701ADDGA1001+999999999GF100991001001999999001001KA1120N+02201MA1999999093231MD1999999-0161REMSYN070AAXX  05064 41396 42965 00000 10348 20085 39323 40070 333 20220 59016;
0159413960999992000060515004+15980+048950FM-12+070099999V0209999C000010600019N0150001N1+04001+01621100371ADDGA1051+060009019GF105991001001999999001011MA1999999092871MD1999999-0101REMSYN076AAXX  05154 41396 42965 50000 10400 20162 39287 40037 80001 333 59010 85070;
0166413960999992000060606004+15980+048950FM-12+070099999V0209999C000012200019N0150001N1+03421+01021100671ADDGA1001+999999999GF100991001001999999001001KA1120N+02001MA1999999093221MD1999999-0011REMSYN070AAXX  06064 41396 42965 00000 10342 20102 39322 40067 333 20200 59001;
0147413960999992000060609004+15980+048950FM-12+070099999V0200301N002612200019N0150001N1+04101+00651100601ADDGA1001+999999999GF100991001001999999001001MA1999999093131MD1999999+0051REMSYN064AAXX  06094 41396 42965 00305 10410 20065 39313 40060 333 58005;
0189413960999992000060612004+15980+048950FM-12+070099999V0203601N002612200019N0150001N1+04281-00552100361ADDAA199000091GA1031+060009019GF103991001001999999001011MA1999999092871MD1999999+0031REMSYN076AAXX  06124 41396 32965 33605 10428 21055 39287 40036 80001 333 58003 83070;EQDQ01  00002PRCP99
0159413960999992000060615004+15980+048950FM-12+070099999V0203601N004112200019N0150001N1+04041-00431100381ADDGA1031+060009019GF103991001001999999001011MA1999999092871MD1999999+0001REMSYN076AAXX  06154 41396 42965 33608 10404 21043 39287 40038 80001 333 58000 83070;
0178413960999992000060618004+15980+048950FM-12+070099999V0209999C000012200019N0150001N1+03551-00131100531ADDGA1021+060009019GF102991001001999999001011KA1120M+04341MA1999999093171MD1999999+0011REMSYN082AAXX  06184 41396 42965 20000 10355 21013 39317 40053 80001 333 10434 58001 82070;
0178413960999992000060706004+15980+048950FM-12+070099999V0209999C000012200019N0060001N1+03451+01211100661ADDGA1011+060009019GF101991001001999999001011KA1120N+02211MA1999999093321MD1999999+0101REMSYN082AAXX  07064 41396 41956 10000 10345 20121 39332 40066 80001 333 20221 58010 81070;
0187413960999992000060709004+15980+048950FM-12+070099999V0201501N002612200019N0050001N1+04051+00761100541ADDAY101031AY201031GA1011+060009019GF101991001001999999001011MA1999999093151MD1999999+0021MW1061REMSYN082AAXX  07094 41396 41950 11505 10405 20076 39315 40054 70600 80001 333 58002 81070;
0161413960999992000060712004+15980+048950FM-12+070099999V0209999C022112200019N0100001N1+04351+00431100321ADDAA199000091GF102991999999999999999999MA1999999092931MD1999999-0061REMSYN064AAXX  07124 41396 32960 20043 10435 20043 39293 40032 333 59006;EQDQ01  00002PRCP99
0175413960999992000060715004+15980+048950FM-12+070099999V0200201N009312200019N0090001N1+04021+00321100401ADDAY101031AY201031GA1001+999999999GF100991001001999999001001MA1999999092951MD1999999+0081MW1061REMSYN070AAXX  07154 41396 41959 00218 10402 20032 39295 40040 70600 333 58008;
0166413960999992000060718004+15980+048950FM-12+070099999V0203601N004612200019N0100001N1+03601+00511100571ADDGA1001+999999999GF100991001001999999001001KA1120M+04411MA1999999093161MD1999999+0061REMSYN070AAXX  07184 41396 42960 03609 10360 20051 39316 40057 333 10441 58006;
0147413960999992000060721004+15980+048950FM-12+070099999V0209999C000012200019N0100001N1+02931+01261100691ADDGA1001+999999999GF100991001001999999001001MA1999999093241MD1999999+0051REMSYN064AAXX  07214 41396 42960 00000 10293 20126 39324 40069 333 58005;
0206413960999992000060809004+15980+048950FM-12+070099999V0209999C000010600019N0050001N1+03951+01021100481ADDAY101031AY201031GA1061+060009019GF106991001001999999001011MA1999999093081MD1999999-0061MW1061REMSYN082AAXX  08094 41396 41550 60000 10395 20102 39308 40048 70600 80001 333 59006 86070;EQDQ01+008002SCOLCB
0223413960999992000060812004+15980+048950FM-12+070099999V0200201N010319999999N0060001N1+04201+00401100401ADDAA199000091AY101061AY201061GA1021+030009039GF105991051001008001031011MA1999999093011MD1999999+0081MW1061REMSYN088AAXX  08124 41396 31556 50220 10420 20040 39301 40040 70600 85031 333 58008 82360 85070;EQDQ01  00002PRCP99
0206413960999992000060818004+15980+048950FM-12+070099999V0200101N005110600019N0080001N1+03641+00511100671ADDAY101061AY201061GA1051+060009019GF105991001001999999001011KA1120M+04311MA1999999093261MD1999999+0101MW1061REMSYN088AAXX  08184 41396 41958 50110 10364 20051 39326 40067 70600 80001 333 10431 58010 85070;
0200413960999992000060906004+15980+048950FM-12+070099999V0209999C000012200019N0060001N1+03331+01311100831ADDAY101061AY201061GA1041+060009019GF104991999999999999999999KA1120N+02231MA1999999093401MD1999999+0111MW1061REMSYN082AAXX  09064 41396 41956 40000 10333 20131 39340 40083 70600 333 20223 58011 84070;
0205413960999992000060912004+15980+048950FM-12+070099999V0201301N002610600019N0150001N1+03951+00531100581ADDAA199000091GA1061+060009089GF106991999001999999001081MA1999999093141MD1999999+0231REMSYN076AAXX  09124 41396 32965 61305 10395 20053 39314 40058 80008 333 58023 86270;EQDQ01+000002SCOTLCQ02  00002PRCP99
0159413960999992000060915004+15980+048950FM-12+070099999V0209999C000012200019N0150001N1+03681+01001100471ADDGA1041+060009019GF104991001001999999011011MA1999999093051MD1999999+0021REMSYN076AAXX  09154 41396 42965 40000 10368 20100 39305 40047 80011 333 58002 84070;
0178413960999992000060918004+15980+048950FM-12+070099999V0209999C000012200019N0150001N1+02941+00831100631ADDGA1021+060009019GF102991001001999999001011KA1120M+04061MA1999999093221MD1999999-0041REMSYN082AAXX  09184 41396 42965 20000 10294 20083 39322 40063 80001 333 10406 59004 82070;
0197413960999992000061018004+15980+048950FM-12+070099999V0209999C000012200019N0100001N1+03351+01041100851ADDGA1011+060009019GF101991999031999999031011KA1120M+04161MA1999999093341MD1999999+0121REMSYN082AAXX  10184 41396 42960 10000 10335 20104 39334 40085 83331 333 10416 58012 81070;EQDQ01+000032SCOTLC
0187413960999992000061109004+15980+048950FM-12+070099999V0201201N002612200019N0060001N1+03941+01661100861ADDAY101031AY201031GA1031+060009019GF103991001001999999001011MA1999999093471MD1999999+0041MW1061REMSYN082AAXX  11094 41396 41956 31205 10394 20166 39347 40086 70600 80001 333 58004 83070;
0217413960999992000061112004+15980+048950FM-12+070099999V0209999C000010600019N0070001N1+04051+02101100651ADDAA199000091AY101061AY201061GA1051+060009019GF105991001001999999001011MA1999999093201MD1999999+0041MW1061REMSYN082AAXX  11124 41396 31957 50000 10405 20210 39320 40065 70600 80001 333 58004 85070;EQDQ01  00002PRCP99
0159413960999992000061115004+15980+048950FM-12+070099999V0200101N002612200019N0100001N1+03901+01791100681ADDGA1041+060009019GF104991001001999999001011MA1999999093191MD1999999+0021REMSYN076AAXX  11154 41396 42960 40105 10390 20179 39319 40068 80001 333 58002 84070;
0178413960999992000061118004+15980+048950FM-12+070099999V0209999C000012200019N0100001N1+02951+01381100771ADDGA1021+060009019GF102991001001999999001011KA1120M+04151MA1999999093321MD1999999+0021REMSYN082AAXX  11184 41396 42960 20000 10295 20138 39332 40077 80001 333 10415 58002 82070;
0178413960999992000061306004+15980+048950FM-12+070099999V0209999C000012200019N0120001N1+03321+01741100961ADDGA1021+060009019GF102991001001999999001011KA1120N+02231MA1999999093511MD1999999-0091REMSYN082AAXX  13064 41396 42962 20000 10332 20174 39351 40096 80001 333 20223 59009 82070;
0217413960999992000061312004+15980+048950FM-12+070099999V0209999C000012200019N0090001N1+04191+00761100481ADDAA199000091AY101061AY201061GA1031+060009019GF103991001001999999001011MA1999999093051MD1999999-0121MW1061REMSYN082AAXX  13124 41396 31959 30000 10419 20076 39305 40048 70600 80001 333 59012 83070;EQDQ01  00002PRCP99
0178413960999992000061318004+15980+048940FM-12+070099999V0209999C000012200019N0120001N1+03521+00931100641ADDGA1021+060009019GF102991001001999999001011KA1120M+04241MA1999999093211MD1999999-0091REMSYN082AAXX  13184 41396 42962 20000 10352 20093 39321 40064 80001 333 10424 59009 82070;
0159413960999992000061321004+15980+048940FM-12+070099999V0209999C000012200019N0120001N1+02851+01761100851ADDGA1021+060009019GF102991001001999999001011MA1999999093381MD1999999+0001REMSYN076AAXX  13214 41396 42962 20000 10285 20176 39338 40085 80001 333 58000 82070;
0178413960999992000061406004+15980+048940FM-12+070099999V0209999C000012200019N0150001N1+03201+01621100931ADDGA1011+060009019GF101991001001999999001011KA1120N+02231MA1999999093501MD1999999-0011REMSYN082AAXX  14064 41396 42965 10000 10320 20162 39350 40093 80001 333 20223 59001 81070;
0159413960999992000061409004+15980+048940FM-12+070099999V0200601N002612200019N0150001N1+03801+00831100821ADDGA1031+060009019GF103991001001999999001011MA1999999093331MD1999999+0001REMSYN076AAXX  14094 41396 42965 30605 10380 20083 39333 40082 80001 333 58000 83070;
0159413960999992000061415004+15980+048940FM-12+070099999V0209999C000010600019N0100001N1+03781+01311100521ADDGA1051+060009019GF105991001001999999001011MA1999999093031MD1999999-0031REMSYN076AAXX  14154 41396 42960 50000 10378 20131 39303 40052 80001 333 59003 85070;
0159413960999992000061515004+15980+048940FM-12+070099999V0201301N002612200019N0150001N1+03801+01271100611ADDGA1011+009009029GF101991011081999999001001MA1999999093121MD1999999+0091REMSYN076AAXX  15154 41396 42965 11305 10380 20127 39312 40061 81800 333 58009 81830;
0166413960999992000061518004+15980+048940FM-12+070099999V0209999C000012200019N0150001N1+03351+01921100781ADDGA1001+999999999GF100991001001999999001001KA1120M+04151MA1999999093351MD1999999+0121REMSYN070AAXX  15184 41396 42965 00000 10335 20192 39335 40078 333 10415 58012;
0147413960999992000061609004+15980+048940FM-12+070099999V0201501N002612200019N0150001N1+03801+01271100911ADDGA1001+999999999GF100991001001999999001001MA1999999093461MD1999999+0111REMSYN064AAXX  16094 41396 42965 01505 10380 20127 39346 40091 333 58011;
0177413960999992000061612004+15980+048940FM-12+070099999V0201001N003612200019N0150001N1+04041+01091100721ADDAA199000091GA1001+999999999GF100991001001999999001001MA1999999093211MD1999999+0131REMSYN064AAXX  16124 41396 32965 01007 10404 20109 39321 40072 333 58013;EQDQ01  00002PRCP99
0147413960999992000061615004+15980+048940FM-12+070099999V0201701N004612200019N0150001N1+03691+01601100781ADDGA1001+999999999GF100991001001999999001001MA1999999093251MD1999999+0131REMSYN064AAXX  16154 41396 42965 01709 10369 20160 39325 40078 333 58013;
0159413960999992000061621004+15980+048940FM-12+070099999V0209999C000012200019N0150001N1+02901+01821101061ADDGA1021+060009019GF102991001001999999001011MA1999999093591MD1999999+0121REMSYN076AAXX  16214 41396 42965 20000 10290 20182 39359 40106 80001 333 58012 82070;
0166413960999992000061706004+15980+048940FM-12+070099999V0209999C000012200019N0150001N1+03171+01641101181ADDGA1001+999999999GF100991001001999999001001KA1120N+02281MA1999999093751MD1999999+0141REMSYN070AAXX  17064 41396 42965 00000 10317 20164 39375 40118 333 20228 58014;
0147413960999992000061709004+15980+048940FM-12+070099999V0209999C000012200019N0150001N1+03801+01641100991ADDGA1001+999999999GF100991001001999999001001MA1999999093581MD1999999+0121REMSYN064AAXX  17094 41396 42965 00000 10380 20164 39358 40099 333 58012;
0189413960999992000061712004+15980+048940FM-12+070099999V0200901N004112200019N0150001N1+04121+01461100741ADDAA199000091GA1011+009009029GF101991011081999999001001MA1999999093271MD1999999+0061REMSYN076AAXX  17124 41396 32965 10908 10412 20146 39327 40074 81800 333 58006 81830;EQDQ01  00002PRCP99
0166413960999992000061806004+15980+048940FM-12+070099999V0203401N001512200019N0150001N1+03301+01241101011ADDGA1001+999999999GF100991001001999999001001KA1120N+02251MA1999999093591MD1999999-0161REMSYN070AAXX  18064 41396 42965 03403 10330 20124 39359 40101 333 20225 59016;
0175413960999992000061809004+15980+048940FM-12+070099999V0202101N003112200019N0090001N1+03121+01551100731ADDAY101031AY201031GA1001+999999999GF100991001001999999001001MA1999999093441MD1999999-0141MW1061REMSYN070AAXX  18094 41396 41959 02106 10312 20155 39344 40073 70600 333 59014;
0189413960999992000061812004+15980+048940FM-12+070099999V0202701N003112200019N0150001N1+04131+01941100681ADDAA199000091GA1021+009009029GF102991021011999999001001MA1999999093251MD1999999-0021REMSYN076AAXX  18124 41396 32965 22706 10413 20194 39325 40068 82100 333 59002 82830;EQDQ01  00002PRCP99
0178413960999992000061818004+15980+048940FM-12+070099999V0209999C000012200019N0150001N1+03531+01451100641ADDGA1021+027009079GF102991021001999999031001KA1120M+04231MA1999999093231MD1999999-0211REMSYN082AAXX  18184 41396 42965 20000 10353 20145 39323 40064 82030 333 10423 59021 82359;
0197413960999992000061906004+15980+048940FM-12+070099999V0209999C000012200019N0120001N1+01641+01641100901ADDGA1011+027009079GF101991011001999999031001KA1120N+99999MA1999999093461MD1999999-0131REMSYN082AAXX  19064 41396 42962 10000 10164 20164 39346 40090 81030 333 20239 59013 81359;EQDQ01 +02392ATMN  
0166413960999992000061909004+15980+048940FM-12+070099999V0201501N002612200019N0150001N1+03992+01511100751ADDGA1001+999999999GF100991001001999999001001MA1999999093281MD1999999-0161REMSYN064AAXX  19094 41396 42965 01505 10399 20151 39328 40075 333 59016;EQDQ01+003993ATOT  
0177413960999992000061912004+15980+048940FM-12+070099999V0203501N007212200019N0150001N1+04261+01411100481ADDAA199000091GA1001+999999999GF100991001001999999001001MA1999999093011MD1999999-0251REMSYN064AAXX  19124 41396 32965 03514 10426 20141 39301 40048 333 59025;EQDQ01  00002PRCP99
0147413960999992000061915004+15980+048940FM-12+070099999V0203401N007712200019N0150001N1+04001+00282100481ADDGA1001+999999999GF100991001001999999001001MA1999999093011MD1999999-0171REMSYN064AAXX  19154 41396 42965 03415 10400 20028 39301 40048 333 59017;
0166413960999992000061918004+15980+048940FM-12+070099999V0203301N004112200019N0150001N1+03551+00671100601ADDGA1001+999999999GF100991001001999999001001KA1120M+04311MA1999999093171MD1999999-0061REMSYN070AAXX  19184 41396 42965 03308 10355 20067 39317 40060 333 10431 59006;
0126413960999992000061921004+15980+048940FM-12+070099999V0209999C000012200019N0150001N1+02701+00661100691ADDGA1001+999999999GF100991001001999999001001MD1999999-0141REMSYN058AAXX  19214 41396 42965 00000 10270 20066 40069 333 59014;
0166413960999992000062006004+15980+048940FM-12+070099999V0209999C000012200019N0150001N1+03231+01021100821ADDGA1001+999999999GF100991001001999999001001KA1120N+01751MA1999999093351MD1999999-0111REMSYN070AAXX  20064 41396 42965 00000 10323 20102 39335 40082 333 20175 59011;
0147413960999992000062009004+15980+048940FM-12+070099999V0209999C000012200019N0150001N1+04001+01031100641ADDGA1001+999999999GF100991001001999999001001MA1999999093191MD1999999-0091REMSYN064AAXX  20094 41396 42965 00000 10400 20103 39319 40064 333 59009;
0166413960999992000062018004+15980+048940FM-12+070099999V0209999C000012200019N0150001N1+03181+01151100471ADDGA1001+999999999GF100991001001999999001001KA1120M+04141MA1999999093021MD1999999-0151REMSYN070AAXX  20184 41396 42965 00000 10318 20115 39302 40047 333 10414 59015;
0178413960999992000062106004+15980+048940FM-12+070099999V0209999C000012200019N0150001N1+03321+01611100781ADDGA1021+030009079GF102991021001999999031001KA1120N+02351MA1999999093341MD1999999-0011REMSYN082AAXX  21064 41396 42965 20000 10332 20161 39334 40078 82030 333 20235 59001 82360;
0195413960999992000062112004+15980+048940FM-12+070099999V0201601N007712200019N0080001N1+04051+00461100421ADDAA199000091GA1021+009009089GF104991021081012501031001MA1999999093021MD1999999+0051REMSYN082AAXX  21124 41396 32658 41615 10405 20046 39302 40042 82830 333 58005 82830 84359;EQDQ01  00002PRCP99
0178413960999992000062118004+15980+048940FM-12+070099999V0209999C000012200019N0150001N1+03401+01631100571ADDGA1021+027009079GF102991021001999999031001KA1120M+04241MA1999999093401MD1999999+0111REMSYN082AAXX  21184 41396 42965 20000 10340 20163 39340 40057 82030 333 10424 58011 82359;
0159413960999992000062215004+15980+048940FM-12+070099999V0209999C000012200019N0150001N1+03791+00881100481ADDGA1011+009009029GF102991011011008001031001MA1999999093031MD1999999-0011REMSYN076AAXX  22154 41396 42565 20000 10379 20088 39303 40048 81130 333 59001 81830;
0166413960999992000062306004+15980+048940FM-12+070099999V0209999C000012200019N0150001N1+03371+01391100811ADDGA1001+999999999GF100991001001999999001001KA1120N+02201MA1999999093381MD1999999-0101REMSYN070AAXX  23064 41396 42965 00000 10337 20139 39338 40081 333 20220 59010;
0177413960999992000062312004+15980+048940FM-12+070099999V0203601N004112200019N0100001N1+04201+00761100381ADDAA199000091GA1001+999999999GF100991001001999999001001MA1999999092931MD1999999-0141REMSYN064AAXX  23124 41396 32960 03608 10420 20076 39293 40038 333 59014;EQDQ01  00002PRCP99
0147413960999992000062315004+15980+048940FM-12+070099999V0209999C000012200019N0100001N1+03941+00721100351ADDGA1001+999999999GF100991001001999999001001MA1999999092881MD1999999-0151REMSYN064AAXX  23154 41396 42960 00000 10394 20072 39288 40035 333 59015;
0197413960999992000062406004+15980+048940FM-12+070099999V0202901N003110600019N0120001N1+03421+01641100671ADDGA1071+060009089GF107991999001999999001081KA1120N+02601MA1999999093231MD1999999-0151REMSYN082AAXX  24064 41396 42962 72906 10342 20164 39323 40067 80008 333 20260 59015 87270;EQDQ01+000002SCOTLC
0206413960999992000062409004+15980+048940FM-12+070099999V0202801N003610600019N0030001N1+03901+00931100531ADDAY101031AY201031GA1071+060009089GF107991999001999999001081MA1999999093071MD1999999-0151MW1061REMSYN082AAXX  24094 41396 41930 72807 10390 20093 39307 40053 70600 80008 333 59015 87270;EQDQ01+000002SCOTLC
0187413960999992000062509004+15980+048940FM-12+070099999V0209999C000012200019N0050001N1+03851+01251100481ADDAY101031AY201031GA1011+060009019GF101991001001999999001011MA1999999093091MD1999999+0021MW1061REMSYN082AAXX  25094 41396 41950 10000 10385 20125 39309 40048 70600 80001 333 58002 81070;
0217413960999992000062512004+15980+048940FM-12+070099999V0209999C000012200019N0050001N1+04101+00871100331ADDAA199000091AY101061AY201061GA1011+060009019GF101991001001999999001011MA1999999092861MD1999999-0011MW1061REMSYN082AAXX  25124 41396 31950 10000 10410 20087 39286 40033 70600 80001 333 59001 81070;EQDQ01  00002PRCP99
0187413960999992000062515004+15980+048940FM-12+070099999V0209999C000012200019N0050001N1+03951+00341100331ADDAY101031AY201031GA1041+060009019GF104991001001999999001011MA1999999092841MD1999999+0001MW1061REMSYN082AAXX  25154 41396 41950 40000 10395 20034 39284 40033 70600 80001 333 58000 84070;
0206413960999992000062518004+15980+048940FM-12+070099999V0209999C000012200019N0070001N1+03201+00921100441ADDAY101061AY201061GA1021+060009019GF102991001001999999001011KA1120M+04141MA1999999093011MD1999999+0081MW1061REMSYN088AAXX  25184 41396 41957 20000 10320 20092 39301 40044 70600 80001 333 10414 58008 82070;
0175413960999992000062609004+15980+048940FM-12+070099999V0209999C000012200019N0080001N1+03801+01531100641ADDAY101031AY201031GA1001+999999999GF100991001001999999001001MA1999999093131MD1999999+0041MW1061REMSYN070AAXX  26094 41396 41958 00000 10380 20153 39313 40064 70600 333 58004;
0217413960999992000062612004+15980+048940FM-12+070099999V0209999C000012200019N0060001N1+04131+00841100401ADDAA199000091AY101061AY201061GA1021+010509029GF102991021011008001001001MA1999999092931MD1999999+0071MW1061REMSYN082AAXX  26124 41396 31556 20000 10413 20084 39293 40040 70600 82100 333 58007 82835;EQDQ01  00002PRCP99
0193413960999992000062615004+15980+048940FM-12+070099999V0209999C00001220001CN0080001N1+03801+01291100321ADDAY101031AY201031GA1021+010509089GF106991021011012501001011MA1999999092901MD1999999+0061MW1061REMSYN088AAXX  26154 41396 41658 60000 10380 20129 39290 40032 70600 82101 333 58006 82835 86070;
0160413960999992000062618004+15980+048940FM-12+070099999V0201801N002612200019N0100001N1+03451+01861100501ADDGF103991001001999999011999IA1079IA2999+00809KA1120M+04151MA1999999093091REMSYN076AAXX  26184 41396 42960 31805 10345 20186 39309 40050 8001/ 333 10415 38008;
0166413960999992000062706004+15980+048940FM-12+070099999V0209999C000012200019N0100001N1+03401+01981100781ADDGA1001+999999999GF100991001001999999001001KA1120N+02661MA1999999093351MD1999999+0051REMSYN070AAXX  27064 41396 42960 00000 10340 20198 39335 40078 333 20266 58005;
0147413960999992000062709004+15980+048940FM-12+070099999V0209999C000012200019N0100001N1+03941+01231100601ADDGA1001+999999999GF100991001001999999001001MA1999999093131MD1999999+0001REMSYN064AAXX  27094 41396 42960 00000 10394 20123 39313 40060 333 58000;
0159413960999992000062715004+15980+048940FM-12+070099999V0209999C000012200019N0120001N1+03821+01001100351ADDGA1031+009009029GF104991031081012501031001MA1999999092881MD1999999-0021REMSYN076AAXX  27154 41396 42662 40000 10382 20100 39288 40035 83830 333 59002 83830;
0178413960999992000062718004+15980+048940FM-12+070099999V0201001N002612200019N0120001N1+03551+01701100481ADDGA1031+012009029GF104991031081012501031001KA1120M+04251MA1999999093051MD1999999+0041REMSYN082AAXX  27184 41396 42662 41005 10355 20170 39305 40048 83830 333 10425 58004 83840;
0206413960999992000062806004+15980+048940FM-12+070099999V0209999C000012200019N0080001N1+03251+02151100701ADDAY101061AY201061GA1031+060009019GF103991001001999999001011KA1120N+02611MA1999999093271MD1999999-0081MW1061REMSYN088AAXX  28064 41396 41958 30000 10325 20215 39327 40070 70600 80001 333 20261 59008 83070;
0165413960999992000062815004+15980+048940FM-12+070099999V0201701N004110090019N0100001N1+03741+01291100441ADDGA1061+009009089GF106991061091012501001001MA1999999092991MD1999999+0111REMSYN082AAXX  28154 41396 42660 61708 10374 20129 39299 40044 86900 333 58011 86830 81935;
0188413960999992000062818004+15980+048940FM-12+070099999V0201701N00411045001CN0100001N1+03291+01521100601ADDGA1021+010509089GF105991021081012501031001KA1120M+04151MD1999999+0131REMSYN088AAXX  28184 41396 42660 51708 10329 20152 38318 40060 82830 333 10415 58013 82835 85360;EQDQ01+083183APOSP 
0159413960999992000062821004+15980+048940FM-12+070099999V0209999C000012200019N0100001N1+02901+01601100651ADDGA1031+030009079GF103991031001999999031001MA1999999093181MD1999999+0051REMSYN076AAXX  28214 41396 42960 30000 10290 20160 39318 40065 83030 333 58005 83360;
0194413960999992000062906004+15980+048940FM-12+070099999V0200201N003612200019N0070001N1+03301+01761100741ADDAY101061AY201061GA1001+999999999GF100991001001999999001001KA1120N+02451MA1999999093331MD1999999+0061MW1061REMSYN076AAXX  29064 41396 41957 00207 10330 20176 39333 40074 70600 333 20245 58006;
0147413960999992000062909004+15980+048940FM-12+070099999V0202101N002612200019N0090001N1+03851+01601100631ADDGA1001+999999999GF100991001001999999001001MA1999999093161MD1999999+0051REMSYN064AAXX  29094 41396 41959 02105 10385 20160 39316 40063 333 58005;
0167413960999992000062912004+15980+048940FM-12+070099999V0209999C000012200019N0100001N1+04051+01461100441ADDAA199000091GF102991021011012501001001MA1999999092971MD1999999+0051REMSYN070AAXX  29124 41396 32660 20000 10405 20146 39297 40044 82100 333 58005;EQDQ01  00002PRCP99
0159413960999992000062915004+15980+048940FM-12+070099999V0203401N007710090019N0100001N1+03701+01121100491ADDGA1071+009009029GF107991071081012501001001MA1999999093001MD1999999+0011REMSYN076AAXX  29154 41396 42660 73415 10370 20112 39300 40049 87800 333 58001 87830;
0178413960999992000063006004+15980+048940FM-12+070099999V0201801N004112200019N0100001N1+03331+01851100771ADDGA1041+030009079GF104991041001999999031001KA1120N+02551MA1999999093351MD1999999+0021REMSYN082AAXX  30064 41396 42960 41808 10333 20185 39335 40077 84030 333 20255 58002 84360;
0184413960999992000063018004+15980+048940FM-12+070099999V0201801N00511045001CN0150001N1+03451+01331100561ADDGA1031+010509089GF106991031081012501071001KA1120M+04051MA1999999093141MD1999999+0011REMSYN088AAXX  30184 41396 42665 61810 10345 20133 39314 40056 83870 333 10405 58001 83835 86458;
0178413960999992000070106004+15980+048940FM-12+070099999V0209999C000012200019N0150001N1+03471+01091100561ADDGA1021+000159019GF102991001001999999001011KA1120N+02461MA1999999093131MD1999999-0221REMSYN082AAXX  01064 41396 42965 20000 10347 20109 39313 40056 80001 333 20246 59022 82000;
0195413960999992000070112004+15980+048940FM-12+070099999V0209999C00001045001CN0150001N1+04141+00851100241ADDAA199000091GA1011+010509089GF107991011011012501071001MA1999999092771MD1999999-0171REMSYN082AAXX  01124 41396 32665 70000 10414 20085 39277 40024 81170 333 59017 81835 87458;EQDQ01  00002PRCP99
0210413960999992000070115004+15980+048940FM-12+070099999V0209999C000012200019N0150001N1+03801+99999100221ADDGA1021+010509089GF199999999999999999001001MA1999999092711MD1999999-0231REMSYN076AAXX  01154 41396 42665 00000 10380 39271 40022 82876 333 59023 82835 87458;EQDQ01+000002SCOTCVQ02+000002SCOTLCQ03+000002SCOLCG
0159413960999992000070121004+15980+048940FM-12+070099999V0209999C000012200019N0200001N1+03201+01621100391ADDGA1021+060009019GF102991001001999999001011MA1999999092901MD1999999-0231REMSYN076AAXX  01214 41396 42970 20000 10320 20162 39290 40039 80001 333 59023 82070;
0147413960999992000070209004+15980+048940FM-12+070099999V0202101N002612200019N0130001N1+04051+01071100181ADDGA1001+999999999GF100991001001999999001001MA1999999092811MD1999999-0161REMSYN064AAXX  02094 41396 42963 02105 10405 20107 39281 40018 333 59016;
0159413960999992000070215004+15980+048940FM-12+070099999V0209999C000012200019N0150001N1+04081+01321099971ADDGA1011+009009029GF104991011081012501031001MA1999999092461MD1999999-0251REMSYN076AAXX  02154 41396 42665 40000 10408 20132 39246 49997 81830 333 59025 81830;
0178413960999992000070218004+15980+048940FM-12+070099999V0209999C000012200019N0150001N1+03701+02001100051ADDGA1041+030009079GF104991041001999999031001KA1120M+04351MA1999999092601MD1999999-0251REMSYN082AAXX  02184 41396 42965 40000 10370 20200 39260 40005 84030 333 10435 59025 84360;
0189413960999992000070412004+15980+048940FM-12+070099999V0209999C000012200019N0100001N1+04171+01721100201ADDAA199000091GA1021+009009029GF102991021011008001001001MA1999999092731MD1999999+0271REMSYN076AAXX  04124 41396 32560 20000 10417 20172 39273 40020 82100 333 58027 82830;EQDQ01  00002PRCP99
0193413960999992000070415004+15980+048940FM-12+070099999V0203401N010312200019N0060001N1+03751+01691100231ADDAY191031AY291031GA1041+009009089GF104991041091012501001001MA1999999092741MD1999999+0291MW1071REMSYN088AAXX  04154 41396 41656 43420 10375 20169 39274 40023 70799 84900 333 58029 84830 81935;
0167413960999992000070509004+15980+048940FM-12+070099999V0202101N004112200019N0060001N1+03931+01971100451ADDAY101031AY201031GA1011+000159019GF101991999999012501999999MA1999999093061MW1061REMSYN076AAXX  05094 41396 41656 12108 10393 20197 39306 40045 70600 333 81100 81830;
0232413960999992000070512004+15980+048940FM-12+070099999V0203101N00511007501CN0070001N1+03421+02061100411ADDAA112000791AY191061AY261061GA1021+007509089GA2011+012009099GF107991071091008001999999MA1999999092941MD1999999+0211MW1171REMSYN100AAXX  05124 41396 11557 73110 10342 20206 39294 40041 69902 71796 879// 333 58021 82825 81940 87650;
0193413960999992000070515004+15980+048940FM-12+070099999V0209999C00001015001CN0080001N1+03501+01991100321ADDAY101031AY201031GA1021+009009089GF107991071081012501071001MA1999999092831MD1999999+0091MW1061REMSYN088AAXX  05154 41396 41658 70000 10350 20199 39283 40032 70600 87870 333 58009 82830 87458;
0197413960999992000070706004+15980+048940FM-12+070099999V0209999C000010300019N0150001N1+03371+01721100611ADDGA1051+030009019GF105991051001999999071999KA1120N+02981MA1999999093201MD1999999-0021REMSYN082AAXX  07064 41396 42965 50000 10337 20172 39320 40061 85070 333 20298 59002 85460;EQDQ01+000002SCOHCG
0159413960999992000070709004+15980+048940FM-12+070099999V0201001N003612200019N0120001N1+03871+01741100401ADDGA1021+030009079GF102991021001999999031001MA1999999092991MD1999999-0041REMSYN076AAXX  07094 41396 42962 21007 10387 20174 39299 40040 82030 333 59004 82360;
0234413960999992000070718004+15980+048940FM-12+070099999V0201401N00361045001CN0150001N1+03551+01901100441ADDAY101061AY201061GA1021+010509089GA2011+012009099GF105991021091012501071001KA1120M+04241MA1999999093031MD1999999-0031MW1601REMSYN100AAXX  07184 41396 41665 51407 10355 20190 39303 40044 76000 82970 333 10424 59003 82835 81940 85460;
0147413960999992000070809004+15980+048940FM-12+070099999V0202701N002612200019N0120001N1+04101+01771100361ADDGA1001+999999999GF100991001001999999001001MA1999999092951MD1999999-0041REMSYN064AAXX  08094 41396 42962 02705 10410 20177 39295 40036 333 59004;
0195413960999992000070812004+15980+048940FM-12+070099999V0201701N002612200019N0120001N1+04301+01861100191ADDAA199000091GA1031+007509089GF104991031091008001041001MA1999999092741MD1999999-0021REMSYN082AAXX  08124 41396 32562 41705 10430 20186 39274 40019 83940 333 59002 83825 81940;EQDQ01  00002PRCP99
0159413960999992000070909004+15980+048940FM-12+070099999V0202401N002612200019N0250001N1+03831+02061100331ADDGA1031+060009019GF103991001001999999001011MA1999999092971MD1999999+0021REMSYN076AAXX  09094 41396 42975 32405 10383 20206 39297 40033 80001 333 58002 83070;
0195413960999992000070912004+15980+048940FM-12+070099999V0209999C00001220001CN0150001N1+04231+01191100111ADDAA199000091GA1011+012009089GF105991011011012501001011MA1999999092701MD1999999-0041REMSYN082AAXX  09124 41396 32665 50000 10423 20119 39270 40011 81101 333 59004 81840 85070;EQDQ01  00002PRCP99
0165413960999992000070915004+15980+048940FM-12+070099999V0209999C000010450019N0150001N1+03891+01421100081ADDGA1031+012009089GF105991031081012501031001MA1999999092651MD1999999-0201REMSYN082AAXX  09154 41396 42665 50000 10389 20142 39265 40008 83830 333 59020 83840 84365;
0178413960999992000070918004+15980+048940FM-12+070099999V0209999C000012200019N0150001N1+03351+01761100191ADDGA1041+045009079GF104991031081999999031001KA1120M+04311MA1999999092781MD1999999-0431REMSYN082AAXX  09184 41396 42965 40000 10335 20176 39278 40019 83830 333 10431 59043 84365;
0165413960999992000071015004+15980+048940FM-12+070099999V0209999C00001045001CN0100001N1+04001+01501100081ADDGA1021+012009089GF105991021081012501071001MA1999999092631MD1999999-0021REMSYN082AAXX  10154 41396 42660 50000 10400 20150 39263 40008 82870 333 59002 82840 85458;
0178413960999992000071018004+15980+048940FM-12+070099999V0200901N004110240019N0100001N1+03791+01541100251ADDGA1061+024009019GF106991061001999999071001KA1120M+04361MA1999999092861MD1999999+0081REMSYN082AAXX  10184 41396 42960 60908 10379 20154 39286 40025 86070 333 10436 58008 86458;
0159413960999992000071021004+15980+048940FM-12+070099999V0202101N003610240019N0100001N1+03541+01441100361ADDGA1051+024009019GF105991051001999999071001MA1999999092911MD1999999-0011REMSYN076AAXX  10214 41396 42960 52107 10354 20144 39291 40036 85070 333 59001 85458;
0194413960999992000071106004+15980+048940FM-12+070099999V0202701N003612200019N0040001N1+03441+01671100461ADDAY101061AY201061GA1001+999999999GF100991001001999999001001KA1120N+02981MA1999999093071MD1999999+0101MW1061REMSYN076AAXX  11064 41396 41940 02707 10344 20167 39307 40046 70600 333 20298 58010;
0187413960999992000071109004+15980+048940FM-12+070099999V0202401N002612200019N0040001N1+04001+01611100331ADDAY101031AY201031GA1011+060009019GF101991001001999999001011MA1999999092941MD1999999+0051MW1061REMSYN082AAXX  11094 41396 41940 12405 10400 20161 39294 40033 70600 80001 333 58005 81070;
0175413960999992000071209004+15980+048940FM-12+070099999V0202901N003612200019N0050001N1+04051+01471100321ADDAY101031AY201031GA1001+999999999GF100991001001999999001001MA1999999092911MD1999999-0031MW1061REMSYN070AAXX  12094 41396 41950 02907 10405 20147 39291 40032 70600 333 59003;
0206413960999992000071218004+15980+048940FM-12+070099999V0209999C000012200019N0050001N1+03541+01681100111ADDAY101061AY201061GA1041+027009079GF104991031001999999031001KA1120M+04441MA1999999092701MD1999999-0081MW1061REMSYN088AAXX  12184 41396 41950 40000 10354 20168 39270 40011 70600 83030 333 10444 59008 84359;
0147413960999992000071309004+15980+048940FM-12+070099999V0209999C000012200019N0050001N1+04101+01431100231ADDGA1001+999999999GF100991001001999999001001MA1999999092821MD1999999-0091REMSYN064AAXX  13094 41396 41950 00000 10410 20143 39282 40023 333 59009;
0181413960999992000071409004+15980+048940FM-12+070099999V0203001N003612200019N0070001N1+03921+01771999999ADDAY101031AY201031GA1011+060009019GF101991001001999999001011MA1999999092971MD1999999+0151MW1061REMSYN076AAXX  14094 41396 41957 13007 10392 20177 39297 70600 80001 333 58015 81070;
0215413960999992000071415004+15980+048940FM-12+070099999V0203301N00771045001CN0080001N1+04001+00971100111ADDAY161031AY261031GA1021+009009089GA2011+012009099GF106991031091012501071001MA1999999092761MD1999999+0141MW1071REMSYN094AAXX  14154 41396 41658 63315 10400 20097 39276 40011 70766 83970 333 58014 82830 81940 85459;
0197413960999992000071506004+15980+048940FM-12+070099999V0202601N004612200019N0050001N1+03451+01881100491ADDGA1011+060009019GF101991001001999999001011KA1120N+02561MA1999999093121MD1999999+0001REMSYN082AAXX  15064 41396 41550 12609 10345 20188 39312 40049 80001 333 20256 58000 81070;EQDQ01+008002SCOLCB
0193413960999992000071515004+15980+048940FM-12+070099999V0209999C00001220001CN0060001N1+04141+00701100131ADDAY101031AY201031GA1011+009009089GF106991011081012501001011MA1999999092701MD1999999-0061MW1061REMSYN088AAXX  15154 41396 41656 60000 10414 20070 39270 40013 70600 81801 333 59006 81830 86070;
0159413960999992000071615004+15980+048940FM-12+070099999V0209999C000012200019N0100001N1+04201+00761100191ADDGA1031+010509029GF103991031081012501001001MA1999999092741MD1999999+0041REMSYN076AAXX  16154 41396 42660 30000 10420 20076 39274 40019 83800 333 58004 83835;
0178413960999992000071706004+15980+048940FM-12+070099999V0202701N003612200019N0100001N1+03551+01781100561ADDGA1011+036009079GF101991011001999999031001KA1120N+02801MA1999999093151MD1999999+0031REMSYN082AAXX  17064 41396 42960 12707 10355 20178 39315 40056 81030 333 20280 58003 81362;
0147413960999992000071709004+15980+048940FM-12+070099999V0202301N002612200019N0100001N1+04101+01431100321ADDGA1001+999999999GF100991001001999999001001MA1999999092951MD1999999-0031REMSYN064AAXX  17094 41396 42960 02305 10410 20143 39295 40032 333 59003;
0189413960999992000071712004+15980+048940FM-12+070099999V0209999C000012200019N0100001N1+04361+01101100151ADDAA199000091GA1021+009009029GF102991021011012501001001MA1999999092741MD1999999+0001REMSYN076AAXX  17124 41396 32660 20000 10436 20110 39274 40015 82100 333 58000 82830;EQDQ01  00002PRCP99
0113413960999992000071715004+15980+048940FM-12+070099999V0209999C000012200019N0120001N1+04241+01151999999ADDGF104991999999012501999999REMSYN075AAXX  17154 41396 42662 40000 10424 20115 3926 40007 82130 333 59012 82835;
0178413960999992000071718004+15980+048940FM-12+070099999V0209999C000012200019N0120001N1+03581+01371100191ADDGA1031+030009079GF103991031001999999031001KA1120M+04491MA1999999092781MD1999999-0111REMSYN082AAXX  17184 41396 42962 30000 10358 20137 39278 40019 83030 333 10449 59011 83360;
0159413960999992000071721004+15980+048940FM-12+070099999V0209999C000012200019N0120001N1+03341+01411100281ADDGA1031+060009019GF103991001001999999001011MA1999999092891MD1999999-0061REMSYN076AAXX  17214 41396 42962 30000 10334 20141 39289 40028 80001 333 59006 83070;
0195413960999992000071812004+15980+048940FM-12+070099999V0200301N002612200019N0150001N1+04481+01231099931ADDAA199000091GA1011+012009089GF104991011011012501031001MA1999999092501MD1999999-0241REMSYN082AAXX  18124 41396 32665 40305 10448 20123 39250 49993 81130 333 59024 81840 83362;EQDQ01  00002PRCP99
0206413960999992000071906004+15980+048940FM-12+070099999V0209999C000012200019N0050001N1+03531+02001100261ADDAY101061AY201061GA1021+060009019GF102991001001999999001011KA1120N+02751MA1999999092871MD1999999-0021MW1061REMSYN088AAXX  19064 41396 41950 20000 10353 20200 39287 40026 70600 80001 333 20275 59002 82070;
0206413960999992000071909004+15980+048940FM-12+070099999V0209999C000012200019N0050001N1+04141+01641100211ADDAY101031AY201031GA1021+060009019GF102991001001999999001011MA1999999092761MD1999999+0011MW1071REMSYN082AAXX  19094 41396 41550 20000 10414 20164 39276 40021 70700 80001 333 58001 82070;EQDQ01+008002SCOLCB
0233413960999992000071912004+15980+048940FM-12+070099999V0209999C000012200019N0050001N1+04401+01181999999ADDAA199000091AY101061AY201061GA1011+009009029GF102991999081012501001001MA1999999092501MD1999999+0001MW1061REMSYN082AAXX  19124 41396 31650 20000 10440 20118 39250 40999 70600 81800 333 58000 81830;EQDQ01+000012SCOTLCQ02  00002PRCP99
0193413960999992000071915004+15980+048940FM-12+070099999V0209999C000012200019N0050001N1+04101+01431999999ADDAY101031AY201031GA1021+009009089GF103991021011012501001011MA1999999092471MD1999999+0011MW1061REMSYN088AAXX  19154 41396 41650 30000 10410 20143 39247 40999 70600 82101 333 58001 82830 81070;
0206413960999992000071918004+15980+048940FM-12+070099999V0209999C000012200019N0080001N1+03601+01331100171ADDAY101061AY201061GA1021+060009019GF102991001001999999001011KA1120M+04451MA1999999092661MD1999999+0021MW1061REMSYN088AAXX  19184 41396 41958 20000 10360 20133 39266 40017 70600 80001 333 10445 58002 82070;
0187413960999992000071921004+15980+048940FM-12+070099999V0209999C000012200019N0080001N1+03331+01951100301ADDAY101031AY201031GA1021+060009019GF102991001001999999001011MA1999999092831MD1999999+0121MW1061REMSYN082AAXX  19214 41396 41958 20000 10333 20195 39283 40030 70600 80001 333 58012 82070;
0206413960999992000072006004+15980+048940FM-12+070099999V0209999C000012200019N0070001N1+03441+01831100341ADDAY101061AY201061GA1021+060009019GF102991001001999999001011KA1120N+02641MA1999999092931MD1999999+0061MW1061REMSYN088AAXX  20064 41396 41957 20000 10344 20183 39293 40034 70600 80001 333 20264 58006 82070;
0175413960999992000072015004+15980+048940FM-12+070099999V0203301N006712200019N0040001N1+04101+01021100001ADDAY101031AY201031GA1001+999999999GF100991001001999999001001MA1999999092531MD1999999+0061MW1061REMSYN070AAXX  20154 41396 41940 03313 10410 20102 39253 40000 70600 333 58006;
0225413960999992000072106004+15980+048940FM-12+070099999V0209999C000012200019N0080001N1+03371+01891100401ADDAY101061AY201061GA1021+024009079GF102991021999999999031001KA1120N+02671MA1999999093011MD1999999+0081MW1061REMSYN088AAXX  21064 41396 41958 20000 10337 20189 39301 40040 70600 82030 333 20267 58008 82358;EQDQ01    003SCOLCG
0217413960999992000072112004+15980+048940FM-12+070099999V0209999C000012200019N0035001N1+04241+01231100101ADDAA199000091AY101061AY201061GA1011+009009029GF101991011011012501001001MA1999999092651MD1999999+0061MW1061REMSYN082AAXX  21124 41396 31635 10000 10424 20123 39265 40010 70600 81100 333 58006 81830;EQDQ01  00002PRCP99
0215413960999992000072115004+15980+048940FM-12+070099999V0201701N00511105001CN0040001N1+03551+01591100221ADDAY191031AY291031GA1031+012009089GA2011+015009099GF106991031091012501001031MA1999999092771MD1999999+0241MW1291REMSYN094AAXX  21154 41396 41640 61710 10355 20159 39277 40022 72999 83903 333 58024 83840 81950 85270;
0225413960999992000072118004+15980+048940FM-12+070099999V0209999C000012200019N0050001N1+03401+01591100411ADDAY101061AY201061GA1021+060009019GF102991001001999999001011KA1120M+04251MA1999999093001MD1999999+0241MW1061REMSYN088AAXX  21184 41396 41550 20000 10340 20159 39300 40041 70600 80001 333 10425 58024 82070;EQDQ01+008002SCOLCB
0206413960999992000072206004+15980+048940FM-12+070099999V0209999C000012200019N0080001N1+03251+01981100731ADDAY101061AY201061GA1021+060009019GF102991001001999999001011KA1120N+02611MA1999999093301MD1999999+0291MW1061REMSYN088AAXX  22064 41396 41958 20000 10325 20198 39330 40073 70600 80001 333 20261 58029 82070;
0187413960999992000072209004+15980+048940FM-12+070099999V0200901N005112200019N0090001N1+03851+01611100611ADDAY101031AY201031GA1011+060009019GF101991001001999999001011MA1999999093141MD1999999+0261MW1061REMSYN082AAXX  22094 41396 41959 10910 10385 20161 39314 40061 70600 80001 333 58026 81070;
0178413960999992000072218004+15980+048940FM-12+070099999V0200901N002612200019N0150001N1+03351+01821100511ADDGA1021+030009079GF102991021001999999031001KA1120M+04131MA1999999093081MD1999999+0081REMSYN082AAXX  22184 41396 42965 20905 10335 20182 39308 40051 82030 333 10413 58008 82360;
0147413960999992000072221004+15980+048940FM-12+070099999V0209999C000012200019N0150001N1+03111+01881100671ADDGA1001+999999999GF100991001001999999001001MA1999999093221MD1999999+0121REMSYN064AAXX  22214 41396 42965 00000 10311 20188 39322 40067 333 58012;
0166413960999992000072306004+15980+048940FM-12+070099999V0203401N003112200019N0150001N1+03151+01851100831ADDGA1001+999999999GF100991001001999999001001KA1120N+02501MA1999999093401MD1999999+0101REMSYN070AAXX  23064 41396 42965 03406 10315 20185 39340 40083 333 20250 58010;
0147413960999992000072309004+15980+048940FM-12+070099999V0202601N002612200019N0150001N1+03801+01291100521ADDGA1001+999999999GF100991001001999999001001MA1999999093131MD1999999-0011REMSYN064AAXX  23094 41396 42965 02605 10380 20129 39313 40052 333 59001;
0169413960999992000072312004+15980+048940FM-12+070099999V0209999C000012200019N0150001N1+04011+00781100391ADDAA199000091GA1011+999999019GF101991999999012501999999MA1999999093001REMSYN070AAXX  23124 41396 32665 10000 10401 20078 39300 40039 333 811/0 81830;EQDQ01  00002PRCP99
0113413960999992000072415004+15980+048940FM-12+070099999V0200901N002612200019N0150001N1+03771+01001100221ADDGF101991011011012501001001MA1999999092751REMSYN060AAXX  24154 41396 42665 10905 10377 20100 39275 40022 81100;
0166413960999992000072506004+15980+048940FM-12+070099999V0209999C000012200019N0120001N1+03241+01921100441ADDGA1001+999999999GF100991001001999999001001KA1120N+02451MA1999999093291MD1999999+0021REMSYN070AAXX  25064 41396 42962 00000 10324 20192 39329 40044 333 20245 58002;
0147413960999992000072509004+15980+048940FM-12+070099999V0203301N003112200019N0120001N1+03801+01601100561ADDGA1001+999999999GF100991001001999999001001MA1999999093111MD1999999+0031REMSYN064AAXX  25094 41396 42962 03306 10380 20160 39311 40056 333 58003;
0177413960999992000072512004+15980+048940FM-12+070099999V0209999C000012200019N0120001N1+04121+01531100391ADDAA199000091GA1001+999999999GF100991001001999999001001MA1999999092901MD1999999+0081REMSYN064AAXX  25124 41396 32962 00000 10412 20153 39290 40039 333 58008;EQDQ01  00002PRCP99
0147413960999992000072515004+15980+048940FM-12+070099999V0201701N006212200019N0150001N1+03751+01451100341ADDGA1001+999999999GF100991001001999999001001MA1999999092961MD1999999+0211REMSYN064AAXX  25154 41396 42965 01712 10375 20145 39296 40034 333 58021;
0166413960999992000072518004+15980+048940FM-12+070099999V0201601N005112200019N0120001N1+03101+01971100681ADDGA1001+999999999GF100991001001999999001001KA1120M+04241MA1999999093261MD1999999+0281REMSYN070AAXX  25184 41396 42962 01610 10310 20197 39326 40068 333 10424 58028;
0147413960999992000072521004+15980+048940FM-12+070099999V0209999C000012200019N0120001N1+02851+02101100821ADDGA1001+999999999GF100991001001999999001001MA1999999093371MD1999999+0201REMSYN064AAXX  25214 41396 42962 00000 10285 20210 39337 40082 333 58020;
0159413960999992000072603004+15980+048940FM-12+070099999V0209999C000012200019N0120001N1+02501+02021100831ADDGA1021+060009029GF102991001001999999001011MA1999999093361MD1999999+0101REMSYN076AAXX  26034 41396 42962 20000 10250 20202 39336 40083 80001 333 58010 82870;
0194413960999992000072606004+15980+048940FM-12+070099999V0209999C000012200019N0070001N1+03151+02031100761ADDAY101061AY201061GA1001+999999999GF100991001001999999001001KA1120N+02451MA1999999093341MD1999999+0051MW1061REMSYN076AAXX  26064 41396 42957 00000 10315 20203 39334 40076 70600 333 20245 58005;
0187413960999992000072609004+15980+048940FM-12+070099999V0201801N005112200019N0070001N1+03561+01991100641ADDAY101031AY201031GA1031+007509029GF103991031011008001001001MA1999999093261MD1999999+0151MW1061REMSYN082AAXX  26094 41396 41557 31810 10356 20199 39326 40064 70600 83100 333 58015 83825;
0165413960999992000072615004+15980+048940FM-12+070099999V0201901N00411045001CN0100001N1+03451+01951100531ADDGA1031+009009089GF105991031011012501031001MA1999999093021MD1999999+0161REMSYN082AAXX  26154 41396 42660 51908 10345 20195 39302 40053 83130 333 58016 83830 84070;
0194413960999992000072706004+15980+048940FM-12+070099999V0202101N002112200019N0050001N1+03241+02021100911ADDAY101061AY201061GA1001+999999999GF100991001001999999001001KA1120N+02441MA1999999093481MD1999999+0041MW1061REMSYN076AAXX  27064 41396 41950 02104 10324 20202 39348 40091 70600 333 20244 58004;
0166413960999992000072806004+15980+048940FM-12+070099999V0209999C000012200019N0150001N1+03251+01791100821ADDGA1001+999999999GF100991001001999999001001KA1120N+02491MA1999999093371MD1999999-0111REMSYN070AAXX  28064 41396 42965 00000 10325 20179 39337 40082 333 20249 59011;
0159413960999992000072809004+15980+048940FM-12+070099999V0209999C000012200019N0120001N1+03851+01611100611ADDGA1021+007509029GF102991021011008001001001MA1999999093201MD1999999-0101REMSYN076AAXX  28094 41396 42562 20000 10385 20161 39320 40061 82100 333 59010 82825;
0189413960999992000072812004+15980+048940FM-12+070099999V0200901N002612200019N0200001N1+04051+00591100401ADDAA199000091GA1031+007509029GF103991031081008001001001MA1999999092931MD1999999-0101REMSYN076AAXX  28124 41396 32570 30905 10405 20059 39293 40040 83800 333 59010 83825;EQDQ01  00002PRCP99
0159413960999992000072815004+15980+048940FM-12+070099999V0209999C000012200019N0200001N1+03831+01021100421ADDGA1021+007509029GF104991021081008001001011MA1999999092941MD1999999-0061REMSYN076AAXX  28154 41396 42570 40000 10383 20102 39294 40042 82801 333 59006 82825;
0189413960999992000072912004+15980+048940FM-12+070099999V0200801N005112200019N0150001N1+04051+00921100481ADDAA199000091GA1021+007509029GF103991021081008001001091MA1999999092981MD1999999+0051REMSYN076AAXX  29124 41396 32565 30810 10405 20092 39298 40048 82809 333 58005 82825;EQDQ01  00002PRCP99
0178413960999992000072918004+15980+048940FM-12+070099999V0209999C000010240019N0150001N1+03481+01841100701ADDGA1061+024009019GF106991061001999999071001KA1120M+04161MA1999999093251MD1999999+0011REMSYN082AAXX  29184 41396 42965 60000 10348 20184 39325 40070 86070 333 10416 58001 86458;
0164413960999992000072921004+15980+048940FM-12+070099999V0209999C000012200019N0150001N1+03151+02031100731ADDGA1031+010809079GF103991031999999999031001MA1999999093301REMSYN076AAXX  29214 41396 42965 30000 10315 20203 39330 40073 83030 333 5800/ 83336;EQDQ01+000002SCOLCG
0178413960999992000073018004+15980+048940FM-12+070099999V0209999C000012200019N0100001N1+03221+01201100571ADDGA1021+012009029GF102991021081999999001001KA1120M+04181MA1999999093141MD1999999+0111REMSYN082AAXX  30184 41396 42960 20000 10322 20120 39314 40057 82800 333 10418 58011 82840;
0159413960999992000073115004+15980+048940FM-12+070099999V0209999C000012200019N0250001N1+03921+01241100311ADDGA1021+010509029GF102991021081012501001001MA1999999092841MD1999999-0161REMSYN076AAXX  31154 41396 42675 20000 10392 20124 39284 40031 82800 333 59016 82835;
0166413960999992000073118004+15980+048940FM-12+070099999V0201001N003112200019N0250001N1+03201+01071100361ADDGA1001+999999999GF100991001001999999001001KA1120M+04221MA1999999092951MD1999999-0191REMSYN070AAXX  31184 41396 42975 01006 10320 20107 39295 40036 333 10422 59019;
0147413960999992000073121004+15980+048940FM-12+070099999V0209999C000012200019N0250001N1+03301+01951100551ADDGA1001+999999999GF100991001001999999001001MA1999999093101MD1999999-0151REMSYN064AAXX  31214 41396 42975 00000 10330 20195 39310 40055 333 59015;
0178413960999992000080215004+15980+048940FM-12+070099999V0200901N002619999999N0250001N1+04051+01081100201ADDGA1021+007509029GF105991999011008001001001MA1999999092751MD1999999+0231REMSYN076AAXX  02154 41396 42575 50905 10405 20108 39275 40020 82100 333 58023 82825;EQDQ01+000022SCOTLC
0166413960999992000080218004+15980+048940FM-12+070099999V0200201N005112200019N0200001N1+03541+01891100371ADDGA1001+999999999GF100991001001999999001001MA1999999093922MD1999999+0061REMSYN064AAXX  02184 41396 42970 00210 10354 20189 39392 40037 333 58006;EQDQ01+093923APOSP 
0159413960999992000080609004+15980+048940FM-12+070099999V0201001N003612200019N0120001N1+03851+01921100541ADDGA1011+007509029GF101991011011008001001001MA1999999093111MD1999999+0041REMSYN076AAXX  06094 41396 42562 11007 10385 20192 39311 40054 81100 333 58004 81825;
0205413960999992000080612004+15980+048940FM-12+070099999V0209999C000012200019N0120001N1+99999+01161100241ADDAA199000091GA1031+009009029GF103991031081008001001011MA1999999092871MD1999999+0031REMSYN076AAXX  06124 41396 32562 30000 10211 20116 39287 40024 83801 333 58003 83830;EQDQ01+002113ATOT  Q02  00002PRCP99
0159413960999992000080615004+15980+048940FM-12+070099999V0209999C000012200019N0150001N1+03851+01521100291ADDGA1021+009009029GF102991021011012501001001MA1999999092821MD1999999-0041REMSYN076AAXX  06154 41396 42665 20000 10385 20152 39282 40029 82100 333 59004 82830;
0166413960999992000080618004+15980+048940FM-12+070099999V02099999999992200019N0150001N1+03501+02001100481ADDGA1001+999999999GF100991001001999999001001KA1120M+04181MA1999999093051MD1999999-0031REMSYN070AAXX  06184 41396 42965 09008 10350 20200 39305 40048 333 10418 59003;
0150413960999992000080706004+15980+048940FM-12+070099999V0209999C000012200019N0120001N1+03301+01891100731ADDGF102991999999999999999999KA1120N+02461MA1999999093301MD1999999+0021REMSYN070AAXX  07064 41396 42962 20000 10330 20189 39330 40073 333 20246 58002;
0147413960999992000080709004+15980+048940FM-12+070099999V0200201N002612200019N0120001N1+03861+01691100571ADDGA1001+999999999GF100991001001999999001001MA1999999093121MD1999999+0011REMSYN064AAXX  07094 41396 42962 00205 10386 20169 39312 40057 333 58001;
0178413960999992000080806004+15980+048940FM-12+070099999V0209999C000012200019N0150001N1+03271+02341100691ADDGA1011+036009079GF101991011001999999031001KA1120N+02561MA1999999093281MD1999999+0021REMSYN082AAXX  08064 41396 42965 10000 10327 20234 39328 40069 81030 333 20256 58002 81362;
0189413960999992000080812004+15980+048940FM-12+070099999V0200701N004112200019N0150001N1+04031+00781100401ADDAA199000091GA1021+009009029GF102991021011012501001001MA1999999092931MD1999999+0071REMSYN076AAXX  08124 41396 32665 20708 10403 20078 39293 40040 82100 333 58007 82830;EQDQ01  00002PRCP99
0194413960999992000080906004+15980+048940FM-12+070099999V0209999C000012200019N0080001N1+03231+02241100881ADDAY101061AY201061GA1001+999999999GF100991001001999999001001KA1120N+02421MA1999999093451MD1999999+0171MW1061REMSYN076AAXX  09064 41396 41958 00000 10323 20224 39345 40088 70600 333 20242 58017;
0147413960999992000080909004+15980+048940FM-12+070099999V0209999C000012200019N0100001N1+03801+01271100651ADDGA1001+999999999GF100991001001999999001001MA1999999093221MD1999999+0051REMSYN064AAXX  09094 41396 42960 00000 10380 20127 39322 40065 333 58005;
0189413960999992000080912004+15980+048940FM-12+070099999V0200701N002612200019N0120001N1+04051+01261100421ADDAA199000091GA1011+009009029GF101991011011012501001001MA1999999093001MD1999999+0071REMSYN076AAXX  09124 41396 32662 10705 10405 20126 39300 40042 81100 333 58007 81830;EQDQ01  00002PRCP99
0142413960999992000080915004+15980+048940FM-12+070099999V0209999C000012200019N0120001N1+03801+01411999999ADDGF101991999999012501999999MA1999999092951MD1999999-0041REMSYN075AAXX  09154 41396 42662 10000 10380 20141 39295 4002 81100 333 59004 81830;
0165413960999992000081015004+15980+048940FM-12+070099999V0200401N006212200019N0100001N1+03781+01701100451ADDGA1041+009009089GF104991041091008001001001MA1999999092981MD1999999+0031REMSYN082AAXX  10154 41396 42560 40412 10378 20170 39298 40045 84900 333 58003 84830 81935;
0165413960999992000081115004+15980+048940FM-12+070099999V0209999C00001220001CN0035001N1+03951+01751100001ADDGA1021+009009089GF105991021081012501001011MA1999999092531MD1999999-0451REMSYN082AAXX  11154 41396 42635 50000 10395 20175 39253 40000 82801 333 59045 82830 85070;
0178413960999992000081206004+15980+048940FM-12+070099999V0209999C000012200019N0120001N1+03481+02121100461ADDGA1021+060009019GF102991001001999999001011KA1120N+02711MA1999999093041MD1999999-0081REMSYN082AAXX  12064 41396 42962 20000 10348 20212 39304 40046 80001 333 20271 59008 82070;
0147413960999992000081209004+15980+048940FM-12+070099999V0209999C000012200019N0150001N1+04001+01681100311ADDGA1001+999999999GF100991001001999999001001MA1999999092841MD1999999+0061REMSYN064AAXX  12094 41396 42965 00000 10400 20168 39284 40031 333 58006;
0189413960999992000081212004+15980+048940FM-12+070099999V0209999C000012200019N0150001N1+04201+01221100151ADDAA199000091GA1021+009009029GF102991021011008001001011MA1999999092661MD1999999+0061REMSYN076AAXX  12124 41396 32565 20000 10420 20122 39266 40015 82101 333 58006 82830;EQDQ01  00002PRCP99
0178413960999992000081218004+15980+048940FM-12+070099999V0209999C000012200019N0150001N1+03591+01691100331ADDGA1031+060009019GF103991001001999999001011KA1120M+04361MA1999999092901MD1999999+0111REMSYN082AAXX  12184 41396 42965 30000 10359 20169 39290 40033 80001 333 10436 58011 83070;
0147413960999992000081221004+15980+048940FM-12+070099999V0209999C000012200019N0150001N1+03291+02181100441ADDGA1001+999999999GF100991001001999999001001MA1999999092991MD1999999+0191REMSYN064AAXX  12214 41396 42965 00000 10329 20218 39299 40044 333 58019;
0159413960999992000081309004+15980+048940FM-12+070099999V0209999C000012200019N0100001N1+03901+02121100511ADDGA1021+060009019GF102991001001999999001011MA1999999093121MD1999999+0281REMSYN076AAXX  13094 41396 42960 20000 10390 20212 39312 40051 80001 333 58028 82070;
0195413960999992000081312004+15980+048940FM-12+070099999V0209999C00001220001CN0120001N1+04041+01681100401ADDAA199000091GA1021+009009089GF105991021081012501001011MA1999999092931MD1999999+0271REMSYN082AAXX  13124 41396 32662 50000 10404 20168 39293 40040 82801 333 58027 82830 84070;EQDQ01  00002PRCP99
0216413960999992000081315004+15980+048940FM-12+070099999V0209999C000012200019N0120001N1+03631+01941100501ADDGA1021+010509089GF199999999999999999001001MA1999999093051MD1999999+0381REMSYN082AAXX  13154 41396 42662 00000 10363 20194 39305 40050 82861 333 58038 82835 84556;EQDQ01+000002SCOTCVQ02+000002SCOTLCQ03+000002SCOLCG
0178413960999992000081406004+15980+048940FM-12+070099999V0202101N003112200019N0100001N1+03201+02131100931ADDGA1021+030009079GF102991021001999999031001KA1120N+02401MA1999999093501MD1999999+0231REMSYN082AAXX  14064 41396 42960 22106 10320 20213 39350 40093 82030 333 20240 58023 82360;
0189413960999992000081412004+15980+048940FM-12+070099999V0209999C000012200019N0150001N1+04101+01621100511ADDAA199000091GA1021+009009029GF102991021011008001001001MA1999999093051MD1999999+0121REMSYN076AAXX  14124 41396 32565 20000 10410 20162 39305 40051 82100 333 58012 82830;EQDQ01  00002PRCP99
0159413960999992000081415004+15980+048940FM-12+070099999V0209999C000012200019N0150001N1+03901+01571100421ADDGA1011+009009029GF103991011021008001001011MA1999999092981MD1999999+0071REMSYN076AAXX  14154 41396 42565 30000 10390 20157 39298 40042 81201 333 58007 81830;
0166413960999992000081506004+15980+048940FM-12+070099999V0209999C000012200019N0120001N1+03341+02021100841ADDGA1001+999999999GF100991001001999999001001KA1120N+02551MA1999999093391MD1999999-0011REMSYN070AAXX  15064 41396 42962 00000 10334 20202 39339 40084 333 20255 59001;
0147413960999992000081509004+15980+048940FM-12+070099999V0209999C000012200019N0120001N1+03851+01721100701ADDGA1001+999999999GF100991001001999999001001MA1999999093251MD1999999-0081REMSYN064AAXX  15094 41396 42962 00000 10385 20172 39325 40070 333 59008;
0189413960999992000081512004+15980+048940FM-12+070099999V0209999C000012200019N0150001N1+04051+01461100441ADDAA199000091GA1031+010509029GF103991031081012501001001MA1999999092951MD1999999-0101REMSYN076AAXX  15124 41396 32665 30000 10405 20146 39295 40044 83800 333 59010 83835;EQDQ01  00002PRCP99
0159413960999992000081515004+15980+048940FM-12+070099999V0209999C000012200019N0150001N1+03861+01621100371ADDGA1031+010509029GF103991031081012501001001MA1999999092881MD1999999-0101REMSYN076AAXX  15154 41396 42665 30000 10386 20162 39288 40037 83800 333 59010 83835;
0159413960999992000081609004+15980+048940FM-12+070099999V0202201N002612200019N0130001N1+03901+01451100621ADDGA1011+009009029GF102991011011012501001011MA1999999093151MD1999999-0101REMSYN076AAXX  16094 41396 42663 22205 10390 20145 39315 40062 81101 333 59010 81830;
0193413960999992000081615004+15980+048940FM-12+070099999V0209999C00001045001CN0150001N1+03781+01021100211ADDAY191031AY261031GA1031+009009089GF106991031081012501061011MA1999999092821MD1999999+0061MW1291REMSYN088AAXX  16154 41396 41665 60000 10378 20102 39282 40021 72996 83861 333 58006 83830 84359;
0166413960999992000081706004+15980+048940FM-12+070099999V0201801N002612200019N0100001N1+03151+02421100811ADDGA1001+999999999GF100991001001999999001001KA1120N+02721MA1999999093411MD1999999+0041REMSYN070AAXX  17064 41396 42960 01805 10315 20242 39341 40081 333 20272 58004;
0183413960999992000081712004+15980+048940FM-12+070099999V0209999C000012200019N0100001N1+04051+01371100321ADDAA199000091GA1021+007509029GF102991999999008001999999MA1999999092871MD1999999+0041REMSYN070AAXX  17124 41396 32560 20000 10405 20137 39287 40032 333 58004 82825;EQDQ01  00002PRCP99
0166413960999992000081806004+15980+048940FM-12+070099999V0209999C000012200019N0200001N1+03421+01621100771ADDGA1001+999999999GF100991001001999999001001KA1120N+02751MA1999999093331MD1999999-0081REMSYN070AAXX  18064 41396 42970 00000 10342 20162 39333 40077 333 20275 59008;
0147413960999992000081809004+15980+048940FM-12+070099999V0203601N002612200019N0200001N1+03901+01441100671ADDGA1001+999999999GF100991001001999999001001MA1999999093181MD1999999-0021REMSYN064AAXX  18094 41396 42970 03605 10390 20144 39318 40067 333 59002;
0189413960999992000081812004+15980+048940FM-12+070099999V0209999C000012200019N0200001N1+04181+01891100421ADDAA199000091GA1031+009009029GF103991031081008001001001MA1999999092931MD1999999-0061REMSYN076AAXX  18124 41396 32570 30000 10418 20189 39293 40042 83800 333 59006 83830;EQDQ01  00002PRCP99
0193413960999992000081815004+15980+048940FM-12+070099999V0209999C000010105019N0150001N1+03641+01681100421ADDAY191031AY261031GA1051+010509089GF105991051091012501001001MA1999999092911MD1999999+0051MW1021REMSYN088AAXX  18154 41396 42665 50000 10364 20168 39291 40042 70296 85900 333 58005 85835 81940;
0212413960999992000081818004+15980+048940FM-12+070099999V0202401N002612200019N0100001N1+03461+01501100631ADDAY161061AY261061GA1021+010509089GF104991021081012501031001KA1120M+04201MA1999999093141MD1999999-0041MW1011REMSYN094AAXX  18184 41396 42660 42405 10346 20150 39314 40063 70166 82830 333 10420 59004 82835 85358;
0159413960999992000081821004+15980+048940FM-12+070099999V0209999C000012200019N0120001N1+03111+01581100691ADDGA1021+030009079GF102991021001999999031001MA1999999093181MD1999999-0051REMSYN076AAXX  18214 41396 42962 20000 10311 20158 39318 40069 82030 333 59005 82360;
0178413960999992000081906004+15980+048940FM-12+070099999V0209999C000012200019N0150001N1+03371+01761100791ADDGA1021+030009079GF102991021001999999031001KA1120N+02421MA1999999093341MD1999999+0011REMSYN082AAXX  19064 41396 42965 20000 10337 20176 39334 40079 82030 333 20242 58001 82360;
0189413960999992000081912004+15980+048940FM-12+070099999V0209999C000012200019N0120001N1+04271+01421100331ADDAA199000091GA1031+010509029GF103991031011012501001001MA1999999092871MD1999999+0001REMSYN076AAXX  19124 41396 32662 30000 10427 20142 39287 40033 83100 333 59000 83835;EQDQ01  00002PRCP99
0159413960999992000081915004+15980+048940FM-12+070099999V0200301N004112200019N0150001N1+04101+01161100301ADDGA1031+010509029GF103991031081012501031001MA1999999092831MD1999999-0081REMSYN076AAXX  19154 41396 42665 30308 10410 20116 39283 40030 83830 333 59008 83835;
0166413960999992000081918004+15980+048940FM-12+070099999V0209999C000012200019N0150001N1+03501+01891100401ADDGA1001+999999999GF100991001001999999001001KA1120M+04331MA1999999093001MD1999999-0141REMSYN070AAXX  19184 41396 42965 00000 10350 20189 39300 40040 333 10433 59014;
0178413960999992000082006004+15980+048940FM-12+070099999V0209999C000012200019N0150001N1+03611+01961100631ADDGA1021+060009019GF102991001001999999001011KA1120N+02741MA1999999093221MD1999999-0121REMSYN082AAXX  20064 41396 42965 20000 10361 20196 39322 40063 80001 333 20274 59012 82070;
0205413960999992000082012004+15980+048940FM-12+070099999V0201701N004112200019N0200001N1+04201+01521100271ADDAA199000091GA1031+007509029GF104991999999008001999011MA1999999092801MD1999999-0071REMSYN076AAXX  20124 41396 32570 41708 10420 20152 39280 40027 89//1 333 59007 83825;EQDQ01+000092SCOTLCQ02  00002PRCP99
0193413960999992000082015004+15980+048940FM-12+070099999V0201701N006211050019N0100001N1+03001+01831100501ADDAY191031AY291031GA1041+009009089GF106991041091008001001031MA1999999093001MD1999999+0171MW1291REMSYN088AAXX  20154 41396 42560 61712 10300 20183 39300 40050 72999 84903 333 58017 84830 81940;
0234413960999992000082018004+15980+048940FM-12+070099999V0202101N002110120019N0080001N1+02681+02081100891ADDAY191061AY291061GA1041+009009089GA2021+012009099GF106991051091008001071001KA1120M+04291MA1999999093481MD1999999+0481MW1951REMSYN100AAXX  20184 41396 42558 62104 10268 20208 39348 40089 79599 85970 333 10429 58048 84830 82940 85460;
0159413960999992000082109004+15980+048940FM-12+070099999V0203301N003612200019N0150001N1+03541+01881100741ADDGA1011+030009079GF101991011001999999031001MA1999999093331MD1999999+0341REMSYN076AAXX  21094 41396 42965 13307 10354 20188 39333 40074 81030 333 58034 81360;
0165413960999992000082115004+15980+048940FM-12+070099999V0209999C00001105001CN0150001N1+03761+00721100421ADDGA1021+009009089GF105991021081008001031011MA1999999092971MD1999999-0031REMSYN082AAXX  21154 41396 42565 50000 10376 20072 39297 40042 82831 333 59003 82830 83360;
0178413960999992000082118004+15980+048940FM-12+070099999V0209999C000012200019N0150001N1+03401+01361100661ADDGA1031+030009079GF103991031001999999031001KA1120M+04061MA1999999093251MD1999999-0231REMSYN082AAXX  21184 41396 42965 30000 10340 20136 39325 40066 83030 333 10406 59023 83360;
0178413960999992000082206004+15980+048940FM-12+070099999V0209999C000010270019N0150001N1+03141+00891100831ADDGA1051+027009019GF105991051001999999071001KA1120N+02451MA1999999093401MD1999999-0081REMSYN082AAXX  22064 41396 42965 50000 10314 20089 39340 40083 85070 333 20245 59008 85459;
0189413960999992000082212004+15980+048940FM-12+070099999V0209999C000012200019N0150001N1+04031+01171100421ADDAA199000091GA1021+009009029GF104991021081012501031001MA1999999092951MD1999999-0031REMSYN076AAXX  22124 41396 32665 40000 10403 20117 39295 40042 82830 333 59003 82830;EQDQ01  00002PRCP99
0166413960999992000082306004+15980+048940FM-12+070099999V0202701N001012200019N0150001N1+03501+01691100711ADDGA1001+999999999GF100991001001999999001001KA1120N+02691MA1999999093301MD1999999-0101REMSYN070AAXX  23064 41396 42965 02702 10350 20169 39330 40071 333 20269 59010;
0147413960999992000082309004+15980+048940FM-12+070099999V0202601N005112200019N0150001N1+04041+01301100481ADDGA1001+999999999GF100991001001999999001001MA1999999093091MD1999999-0111REMSYN064AAXX  23094 41396 42965 02610 10404 20130 39309 40048 333 59011;
0165413960999992000082315004+15980+048940FM-12+070099999V0202101N00261045001CN0150001N1+04001+01351100361ADDGA1021+009009089GF105991021011008001071001MA1999999092891MD1999999-0111REMSYN082AAXX  23154 41396 42565 52105 10400 20135 39289 40036 82170 333 59011 82830 85460;
0178413960999992000082406004+15980+048940FM-12+070099999V0209999C000012200019N0150001N1+03451+01511100731ADDGA1031+030009079GF103991031001999999031001KA1120N+02851MA1999999093311MD1999999+0011REMSYN082AAXX  24064 41396 42965 30000 10345 20151 39331 40073 83030 333 20285 58001 83360;
0159413960999992000082409004+15980+048940FM-12+070099999V0203001N002612200019N0200001N1+04001+01191100471ADDGA1011+036009079GF101991011001999999031001MA1999999093041MD1999999-0051REMSYN076AAXX  24094 41396 42970 13005 10400 20119 39304 40047 81030 333 59005 81362;
0189413960999992000082412004+15980+048940FM-12+070099999V0203001N002610090019N0200001N1+04101+01031100211ADDAA199000091GA1051+009009029GF105991051081008001001001MA1999999092761MD1999999-0061REMSYN076AAXX  24124 41396 32570 53005 10410 20103 39276 40021 85800 333 59006 85830;EQDQ01  00002PRCP99
0165413960999992000082415004+15980+048940FM-12+070099999V0202801N00311015001CN0150001N1+03801+01111100291ADDGA1021+009009089GF107991071081012501999999MA1999999092281MD1999999-0071REMSYN082AAXX  24154 41396 42665 72806 10380 20111 39228 40029 878// 333 59007 82830 87640;
0203413960999992000082418004+15980+048940FM-12+070099999V0200901N002612200019N0150001N1+03501+01621100531ADDGA1021+009009089GF104991021011012501031001KA1120M+04251MA1999999093102MD1999999-0011REMSYN088AAXX  24184 41396 42665 40905 10350 20162 39310 40053 82130 333 10425 59001 82830 84358;EQDQ01+093103APOSP 
0159413960999992000082509004+15980+048940FM-12+070099999V0209999C000012200019N0200001N1+03901+01501100411ADDGA1021+007509029GF102991021081008001001001MA1999999093021MD1999999-0021REMSYN076AAXX  25094 41396 42570 20000 10390 20150 39302 40041 82800 333 59002 82825;
0175413960999992000082512004+15980+048940FM-12+070099999V0201001N002612200019N0200001N1+04121+01411100191ADDAA199000091GA1031+007509029GF103991031081008001001001MA1999999092761REMSYN076AAXX  25124 41396 32570 31005 10412 20141 39276 40019 83800 333 50000 83825;EQDQ01  00002PRCP99
0178413960999992000082518004+15980+048940FM-12+070099999V0202001N004112200019N0200001N1+03501+01631100471ADDGA1021+036009079GF102991021001999999031001KA1120M+04181MA1999999093041MD1999999-0061REMSYN082AAXX  25184 41396 42970 22008 10350 20163 39304 40047 82030 333 10418 59006 82362;
0178413960999992000082606004+15980+048940FM-12+070099999V0209999C000012200019N0150001N1+03391+01821100691ADDGA1021+060009019GF102991001001999999001011KA1120N+02541MA1999999093321MD1999999+0111REMSYN082AAXX  26064 41396 42965 20000 10339 20182 39332 40069 80001 333 20254 58011 82070;
0178413960999992000082706004+15980+048940FM-12+070099999V0209999C000012200019N0150001N1+03451+00331100861ADDGA1011+060009019GF101991001001999999001011KA1120N+02341MA1999999093361MD1999999+0041REMSYN082AAXX  27064 41396 42965 10000 10345 20033 39336 40086 80001 333 20234 58004 81070;
0147413960999992000082709004+15980+048940FM-12+070099999V0202601N004112200019N0150001N1+03951+00941100601ADDGA1001+999999999GF100991001001999999001001MA1999999093171MD1999999+0091REMSYN064AAXX  27094 41396 42565 02608 10395 20094 39317 40060 333 58009;
0189413960999992000082712004+15980+048940FM-12+070099999V0209999C000012200019N0000001N1+04241+00741100311ADDAA199000091GA1021+010509029GF102991021011012501001001MA1999999092921MD1999999+0051REMSYN076AAXX  27124 41396 32600 20000 10424 20074 39292 40031 82100 333 58005 82835;EQDQ01  00002PRCP99
0147413960999992000082809004+15980+048940FM-12+070099999V0202601N005112200019N0150001N1+04001+01251100481ADDGA1001+999999999GF100991001001999999001001MA1999999093031MD1999999-0141REMSYN064AAXX  28094 41396 42965 02610 10400 20125 39303 40048 333 59014;
0159413960999992000082815004+15980+048940FM-12+070099999V0209999C000012200019N0200001N1+03951+01651100241ADDGA1011+027009079GF101991011001999999031001MA1999999092751MD1999999-0121REMSYN076AAXX  28154 41396 42970 10000 10395 20165 39275 40024 81030 333 59012 81359;
0166413960999992000082818004+15980+048940FM-12+070099999V0209999C000012200019N0200001N1+03551+01861100451ADDGA1001+999999999GF100991001001999999001001KA1120M+04291MA1999999093001MD1999999-0041REMSYN070AAXX  28184 41396 42970 00000 10355 20186 39300 40045 333 10429 59004;
0159413960999992000082915004+15980+048940FM-12+070099999V0200701N001512200019N0000001N1+04021+01421100211ADDGA1031+012009029GF103991031081012501001001MA1999999092741MD1999999-0011REMSYN076AAXX  29154 41396 42600 30703 10402 20142 39274 40021 83800 333 59001 83840;
0178413960999992000083006004+15980+048940FM-12+070099999V0209999C000012200019N0200001N1+03561+01451100611ADDGA1031+030009079GF103991031001999999031001KA1120N+03081MA1999999093161MD1999999-0041REMSYN082AAXX  30064 41396 42970 30000 10356 20145 39316 40061 83030 333 20308 59004 83360;
0159413960999992000083009004+15980+048940FM-12+070099999V0209999C000012200019N0150001N1+03991+01571100511ADDGA1011+007509029GF101991011011008001001001MA1999999093061MD1999999+0101REMSYN076AAXX  30094 41396 42565 10000 10399 20157 39306 40051 81100 333 58010 81825;
0189413960999992000083012004+15980+048940FM-12+070099999V0209999C000012200019N0150001N1+04271+00292100231ADDAA199000091GA1021+009009029GF102991021011008001001001MA1999999092761MD1999999+0041REMSYN076AAXX  30124 41396 32565 20000 10427 20029 39276 40023 82100 333 58004 82830;EQDQ01  00002PRCP99
0165413960999992000083015004+15980+048940FM-12+070099999V0209999C00001045001CN0150001N1+04081+00861100281ADDGA1031+009009089GF106991031081012501071001MA1999999092791MD1999999+0051REMSYN082AAXX  30154 41396 42665 60000 10408 20086 39279 40028 83870 333 58005 83830 85459;
0147413960999992000083021004+15980+048940FM-12+070099999V0209999C000012200019N0150001N1+03301+01551100561ADDGA1001+999999999GF100991001001999999001001MA1999999093071MD1999999+0071REMSYN064AAXX  30214 41396 42965 00000 10330 20155 39307 40056 333 58007;
0147413960999992000083109004+15980+048940FM-12+070099999V0209999C000012200019N0150001N1+04051+01461100611ADDGA1001+999999999GF100991001001999999001001MA1999999093181MD1999999+0121REMSYN064AAXX  31094 41396 42965 00000 10405 20146 39318 40061 333 58012;
0195413960999992000083112004+15980+048940FM-12+070099999V0200901N00261012001CN0150001N1+04221+01051100431ADDAA199000091GA1021+007509089GF105991051081008001001001MA1999999092941MD1999999+0181REMSYN082AAXX  31124 41396 32565 50905 10422 20105 39294 40043 85800 333 58018 82825 84656;EQDQ01  00002PRCP99
0165413960999992000083115004+15980+048940FM-12+070099999V0200501N00261045001CN0150001N1+04001+01251100401ADDGA1021+012009069GF106991021051012501031001MA1999999092931MD1999999+0141REMSYN082AAXX  31154 41396 42665 60505 10400 20125 39293 40040 82530 333 58014 82640 85359;
0159413960999992000083121004+15980+048940FM-12+070099999V0209999C000012200019N0150001N1+03271+02021100631ADDGA1031+030009079GF103991031001999999031001MA1999999093221MD1999999+0151REMSYN076AAXX  31214 41396 42965 30000 10327 20202 39322 40063 83030 333 58015 83360;
0178413960999992000090106004+15980+048940FM-12+070099999V0209999C000012200019N0200001N1+03481+01921100811ADDGA1021+060009019GF102991001001999999001011KA1120N+02521MA1999999093391MD1999999+0091REMSYN082AAXX  01064 41396 42970 20000 10348 20192 39339 40081 80001 333 20252 58009 82070;
0189413960999992000090112004+15980+048940FM-12+070099999V0203001N005112200019N0100001N1+03241+01221999999ADDAA199000091GA1031+009009029GF103991031021008001031001IA1019MD1999999-0031ME1314229REMSYN076AAXX  01124 41396 32560 33010 10324 20122 48422 83230 333 30/// 59003 83830;EQDQ01  00002PRCP99
0178413960999992000090118004+15980+048940FM-12+070099999V0200301N005110105019N0200001N1+03851+00651100521ADDGA1061+010509029GF106991061081012501001001KA1120M+04381MA1999999093041MD1999999-0141REMSYN082AAXX  01184 41396 42670 60310 10385 20065 39304 40052 86800 333 10438 59014 86835;
0184413960999992000090206004+15980+048940FM-12+070099999V0209999C000012200019N0150001N1+03411+01361100721ADDGA1011+010509099GF103991011011012501031001KA1120N+02791MA1999999093311MD1999999-0081REMSYN088AAXX  02064 41396 42665 30000 10341 20136 39331 40072 81130 333 20279 59008 81935 83360;
0159413960999992000090209004+15980+048940FM-12+070099999V0202701N003112200019N0150001N1+04141+00991100531ADDGA1021+060009019GF102991001001999999001011MA1999999093141MD1999999+0041REMSYN076AAXX  02094 41396 42965 22706 10414 20099 39314 40053 80001 333 58004 82070;
0190413960999992000090212004+15980+048940FM-12+070099999V0201801N003612200019N0150001N1+04361+00761100351ADDAA199000091GA1031+009009029GF103991031081008001001001MD1999999-0011REMSYN076AAXX  02124 41396 32565 31807 10436 20076 39390 40035 83800 333 59001 83830;EQDQ01+093903APOSP Q02  00002PRCP99
0159413960999992000090215004+15980+048940FM-12+070099999V0209999C000012200019N0150001N1+04001+00501100391ADDGA1041+010509029GF104991041081012501001001MA1999999092901MD1999999-0021REMSYN076AAXX  02154 41396 42665 40000 10400 20050 39290 40039 84800 333 59002 84835;
0166413960999992000090306004+15980+048940FM-12+070099999V0209999C000012200019N0150001N1+03701+01301100691ADDGA1001+999999999GF100991001001999999001001KA1120N+02991MA1999999093281MD1999999-0031REMSYN070AAXX  03064 41396 42965 00000 10370 20130 39328 40069 333 20299 59003;
0147413960999992000090309004+15980+048940FM-12+070099999V0203001N002612200019N0150001N1+04101+00921100491ADDGA1001+999999999GF100991001001999999001001MA1999999093141MD1999999+0001REMSYN064AAXX  03094 41396 42965 03005 10410 20092 39314 40049 333 58000;
0195413960999992000090312004+15980+048940FM-12+070099999V0203601N01031012001CN0100001N1+04251+00141100451ADDAA199000091GA1031+007509089GF105991051081008001001001MA1999999093001MD1999999+0101REMSYN082AAXX  03124 41396 32560 53620 10425 20014 39300 40045 85800 333 58010 83825 84650;EQDQ01  00002PRCP99
0165413960999992000090315004+15980+048940FM-12+070099999V0209999C00001045001CN0100001N1+03751+01251100431ADDGA1041+012009069GF106991041051012501031001MA1999999092961MD1999999+0061REMSYN082AAXX  03154 41396 42660 60000 10375 20125 39296 40043 84530 333 58006 84640 85358;
0178413960999992000090318004+15980+048940FM-12+070099999V0209999C000010270019N0100001N1+03601+01451100591ADDGA1051+027009079GF105991051001999999031001KA1120M+04311MA1999999093181MD1999999+0061REMSYN082AAXX  03184 41396 42960 50000 10360 20145 39318 40059 85030 333 10431 58006 85359;
0207413960999992000090406004+15980+048940FM-12+070099999V0209999C000012200019N0130001N1+03641+01411100861ADDGA1051+009009059GF199999999001999999001001KA1120N+02941MA1999999093471MD1999999+0061REMSYN076AAXX  04064 41396 42963 00000 10364 20141 39347 40086 333 20294 58006 85630;EQDQ01+000002SCOTCVQ02+000002SCOTLC
0159413960999992000090409004+15980+048940FM-12+070099999V0209999C000012200019N0120001N1+04081+01181100641ADDGA1031+060009019GF103991001001999999001011MA1999999093211MD1999999+0061REMSYN076AAXX  04094 41396 42962 30000 10408 20118 39321 40064 80001 333 58006 83070;
0178413960999992000090418004+15980+048940FM-12+070099999V0209999C000010240019N0150001N1+03461+01541100811ADDGA1061+024009019GF106991061001999999071001KA1120M+04201MA1999999093361MD1999999+0181REMSYN082AAXX  04184 41396 42965 60000 10346 20154 39336 40081 86070 333 10420 58018 86458;
0178413960999992000090506004+15980+048940FM-12+070099999V0209999C000012200019N0150001N1+03371+01951100901ADDGA1041+075009019GF104991001001999999001011KA1120N+02401MA1999999093471MD1999999+0001REMSYN082AAXX  05064 41396 42965 40000 10337 20195 39347 40090 80001 333 20240 58000 84075;
0165413960999992000090509004+15980+048940FM-12+070099999V0200701N002112200019N0150001N1+03771+01661100761ADDGA1011+009009089GF104991011011008001001011MA1999999093291MD1999999+0081REMSYN082AAXX  05094 41396 42565 40704 10377 20166 39329 40076 81101 333 58008 81830 84070;
0143413960999992000090512004+15980+048940FM-12+070099999V0200301N012910120019N0060001N1+03501+01631100601ADDAA199000091GF107991071081008001999999MA1999999093131REMSYN060AAXX  05124 41396 31556 70325 10350 20163 39313 40060 878//;EQDQ01  00002PRCP99
0165413960999992000090515004+15980+048940FM-12+070099999V0209999C00001045001CN0120001N1+03201+01501100561ADDGA1011+010509089GF107991011011012501071001MA1999999093131MD1999999+0061REMSYN082AAXX  05154 41396 42662 70000 10320 20150 39313 40056 81170 333 58006 81835 84458;
0170413960999992000090606004+15980+048940FM-12+070099999V0209999C000012200019N0200001N1+03201+01521100901ADDGA1001+999999999GF100991001001999999001001IA1029IA2999+00209KA1120N+02161MA1999999093451REMSYN070AAXX  06064 41396 42970 00000 10320 20152 39345 40090 333 20216 39002;
0147413960999992000090609004+15980+048940FM-12+070099999V0200901N002612200019N0130001N1+03781+00901100691ADDGA1001+999999999GF100991001001999999001001MA1999999093281MD1999999-0011REMSYN064AAXX  06094 41396 42963 00905 10378 20090 39328 40069 333 59001;
0189413960999992000090612004+15980+048940FM-12+070099999V0209999C000012200019N0130001N1+04001-00231100421ADDAA199000091GA1021+007509029GF102991021081008001001001MA1999999093011MD1999999-0121REMSYN076AAXX  06124 41396 32563 20000 10400 21023 39301 40042 82800 333 59012 82825;EQDQ01  00002PRCP99
0159413960999992000090615004+15980+048940FM-12+070099999V0203401N003112200019N0150001N1+03741-00601100381ADDGA1021+060009019GF102991001001999999001011MA1999999092951MD1999999-0181REMSYN076AAXX  06154 41396 42965 23406 10374 21060 39295 40038 80001 333 59018 82070;
0185413960999992000090618004+15980+048940FM-12+070099999V0202001N003612200019N0150001N1+03331+01532100601ADDGA1001+999999999GF100991001001999999001001KA1120M+04171MA1999999093211MD1999999-0161REMSYN070AAXX  06184 41396 42965 02007 10333 20153 39321 40060 333 10417 59016;EQDQ01+001533ATOD  
0178413960999992000090806004+15980+048940FM-12+070099999V0209999C000012200019N0200001N1+03181+01681101001ADDGA1021+060009019GF102991001001999999001011KA1120N+02081MA1999999093571MD1999999+0131REMSYN082AAXX  08064 41396 42970 20000 10318 20168 39357 40100 80001 333 20208 58013 82070;
0153413960999992000090809004+15980+048940FM-12+070099999V0209999C000012200019N0200001N1+03801+00841999999ADDGA1011+010509029GF102991011011012501001011MA1999999093361MD1999999+0041REMSYN070AAXX  08094 41396 42670 20000 10380 20084 39336 81101 333 58004 81835;
0181413960999992000090812004+15980+048940FM-12+070099999V0202901N005112200019N0200001N1+03911-00272100541ADDAA199000091GA1021+060009009GF102991001001999999001011MA1999999093151REMSYN082AAXX  08124 41396 32970 22910 10391 21027 39315 40054 80001 333 50018 82070 9)414;EQDQ01  00002PRCP99
0159413960999992000090815004+15980+048940FM-12+070099999V0203401N004112200019N0200001N1+03701-00201100551ADDGA1041+060009019GF104991001001999999001011MA1999999093201MD1999999+0181REMSYN076AAXX  08154 41396 42970 43408 10370 21020 39320 40055 80001 333 58018 84070;
0166413960999992000090821004+15980+048940FM-12+070099999V0209999C000012200019N0200001N1+02901+01672100991ADDGA1001+999999999GF100991001001999999001001MA1999999093541MD1999999+0241REMSYN064AAXX  08214 41396 42970 00000 10290 20167 39354 40099 333 58024;EQDQ01+001673ATOD  
0166413960999992000090906004+15980+048940FM-12+070099999V0209999C000012200019N0120001N1+03101+01881101221ADDGA1001+999999999GF100991001001999999001001KA1120N+02351MA1999999093791MD1999999+0221REMSYN070AAXX  09064 41396 42962 00000 10310 20188 39379 40122 333 20235 58022;
0195413960999992000090912004+15980+048940FM-12+070099999V0200501N00261045001CN0130001N1+03901+00801100811ADDAA199000091GA1021+007509089GF105991021081008001031001MA1999999093391MD1999999+0241REMSYN082AAXX  09124 41396 32563 50505 10390 20080 39339 40081 82830 333 58024 82825 84358;EQDQ01  00002PRCP99
0184413960999992000090915004+15980+048940FM-12+070099999V0203301N002619999999N0130001N1+03521+01481100851ADDGA1041+010509089GF105991041999999999031011MA1999999093401MD1999999+0201REMSYN082AAXX  09154 41396 42963 53305 10352 20148 39340 40085 84031 333 58020 84835 83070;EQDQ01+000002SCOLCG
0178413960999992000091006004+15980+048940FM-12+070099999V0209999C000012200019N0130001N1+03051+02021101211ADDGA1041+030009079GF104991041001999999031001KA1120N+02341MA1999999093801MD1999999+0011REMSYN082AAXX  10064 41396 42963 40000 10305 20202 39380 40121 84030 333 20234 58001 84360;
0159413960999992000091009004+15980+048940FM-12+070099999V0209999C000012200019N0130001N1+03601+01561100981ADDGA1021+007509029GF102991021011008001001001MA1999999093531MD1999999-0081REMSYN076AAXX  10094 41396 42563 20000 10360 20156 39353 40098 82100 333 59008 82825;
0189413960999992000091012004+15980+048940FM-12+070099999V0209999C000012200019N0150001N1+03841+01111100751ADDAA199000091GA1031+009009029GF103991031081012501001001MA1999999093281MD1999999-0111REMSYN076AAXX  10124 41396 32665 30000 10384 20111 39328 40075 83800 333 59011 83830;EQDQ01  00002PRCP99
0159413960999992000091015004+15980+048940FM-12+070099999V0203301N003612200019N0150001N1+99999+99999100771ADDGA1031+009009029GF103991031081012501001001MA1999999093321MD1999999-0081REMSYN076AAXX  10154 41396 42665 33307 10/65 20158 39332 40077 83800 333 59008 83830;
0178413960999992000091018004+15980+048940FM-12+070099999V0203501N002612200019N0150001N1+03201+02011100971ADDGA1031+012009029GF103991031081012501001001KA1120M+03901MA1999999093541MD1999999-0081REMSYN082AAXX  10184 41396 42665 33505 10320 20201 39354 40097 83800 333 10390 59008 83840;
0172413960999992000091106004+15980+048940FM-12+070099999V0209999C000012200019N0150001N1+03101+02031999999ADDGA1011+060009019GF101991001001999999001011KA1120N+02471MA1999999093741MD1999999-0061REMSYN076AAXX  11064 41396 42965 10000 10310 20203 39374 80001 333 20247 59006 81070;
0159413960999992000091109004+15980+048940FM-12+070099999V0201801N002612200019N0150001N1+03771+01591100971ADDGA1021+007509029GF102991021011008001001001MA1999999093541MD1999999+0011REMSYN076AAXX  11094 41396 42565 21805 10377 20159 39354 40097 82100 333 58001 82825;
0189413960999992000091112004+15980+048940FM-12+070099999V0200801N003112200019N0150001N1+03921+00741100721ADDAA199000091GA1021+007509029GF102991021011008001001001MA1999999093431MD1999999-0051REMSYN076AAXX  11124 41396 32565 20806 10392 20074 39343 40072 82100 333 59005 82825;EQDQ01  00002PRCP99
0165413960999992000091115004+15980+048940FM-12+070099999V0209999C000012200019N0150001N1+03691+01261100601ADDGA1021+012009069GF103991021051012501031001MA1999999093171MD1999999-0151REMSYN082AAXX  11154 41396 42665 30000 10369 20126 39317 40060 82530 333 59015 82640 81359;
0159413960999992000091206004+15980+048940FM-12+070099999V0209999C000012200019N0150001N1+03841+01471100791ADDGA1011+009009029GF101991011011012501001001MA1999999093401MD1999999-0141REMSYN076AAXX  12064 41396 42665 10000 10384 20147 39340 40079 81100 333 59014 81830;
0178413960999992000091218004+15980+048940FM-12+070099999V0202201N002610270019N0150001N1+03481+01421100791ADDGA1051+027009019GF105991051001999999061001KA1120M+03971MA1999999093401MD1999999-0011REMSYN082AAXX  12184 41396 42965 52205 10348 20142 39340 40079 85060 333 10397 59001 85459;
0159413960999992000091221004+15980+048940FM-12+070099999V0209999C000010270019N0150001N1+03051+01621100911ADDGA1051+027009079GF105991051001999999031001MA1999999093481MD1999999+0081REMSYN076AAXX  12214 41396 42965 50000 10305 20162 39348 40091 85030 333 58008 85359;
0166413960999992000091306004+15980+048940FM-12+070099999V0209999C000012200019N0100001N1+03321+01501101041ADDGA1001+999999999GF100991001001999999001001KA1120N+02401MA1999999093631MD1999999+0031REMSYN070AAXX  13064 41396 42960 00000 10332 20150 39363 40104 333 20240 58003;
0159413960999992000091315004+15980+048940FM-12+070099999V0209999C000012200019N0150001N1+03571+00591100731ADDGA1011+010509029GF102991011011012501031001MA1999999093231MD1999999+0081REMSYN076AAXX  13154 41396 42665 20000 10357 20059 39323 40073 81130 333 58008 81835;
0166413960999992000091318004+15980+048940FM-12+070099999V0202401N003112200019N0150001N1+03291+01341100921ADDGA1001+999999999GF100991001001999999001001KA1120M+04031MA1999999093481MD1999999+0081REMSYN070AAXX  13184 41396 42965 02406 10329 20134 39348 40092 333 10403 58008;
0166413960999992000091406004+15980+048940FM-12+070099999V0202501N001512200019N0150001N1+03181+01221101171ADDGA1001+999999999GF100991001001999999001001KA1120N+02031MA1999999093731MD1999999+0101REMSYN070AAXX  14064 41396 42965 02503 10318 20122 39373 40117 333 20203 58010;
0159413960999992000091409004+15980+048940FM-12+070099999V0209999C000012200019N0150001N1+03901+00411100931ADDGA1011+060009019GF101991001001999999001011MA1999999093501MD1999999+0081REMSYN076AAXX  14094 41396 42965 10000 10390 20041 39350 40093 80001 333 58008 81070;
0159413960999992000091415004+15980+048940FM-12+070099999V0200901N002612200019N0200001N1+03501+00401100651ADDGA1021+012009059GF102991021051012501001011MA1999999093241MD1999999+0011REMSYN076AAXX  14154 41396 42670 20905 10350 20040 39324 40065 82501 333 58001 82640;
0197413960999992000091418004+15980+048940FM-12+070099999V0202101N002612200019N0200001N1+03321+00761100831ADDGA1041+024009079GF104991041999022501031001KA1120M+04041MA1999999093421MD1999999-0061REMSYN082AAXX  14184 41396 42870 42105 10332 20076 39342 40083 84030 333 10404 59006 84358;EQDQ01    003SCOLCG
0159413960999992000091421004+15980+048940FM-12+070099999V0209999C000012200019N0200001N1+02901+01781100991ADDGA1021+036009079GF102991021001999999031001MA1999999093541MD1999999+0011REMSYN076AAXX  14214 41396 42970 20000 10290 20178 39354 40099 82030 333 58001 82362;
0147413960999992000091509004+15980+048940FM-12+070099999V0200601N005112200019N0100001N1+03801+00321100971ADDGA1001+999999999GF100991001001999999001001MA1999999093551MD1999999+0051REMSYN064AAXX  15094 41396 42960 00610 10380 20032 39355 40097 333 58005;
0159413960999992000091512004+15980+048940FM-12+070099999V0200801N004112200019N0150001N1+03861+00461100701ADDGA1011+009009029GF101991011011008001001001MA1999999093291MD1999999+0051REMSYN076AAXX  15124 41396 42565 10808 10386 20046 39329 40070 81100 333 58005 81830;
0159413960999992000091515004+15980+048940FM-12+070099999V0209999C000012200019N0150001N1+03521+00301100681ADDGA1011+060009019GF101991001001999999001011MA1999999093271MD1999999+0031REMSYN076AAXX  15154 41396 42965 10000 10352 20030 39327 40068 80001 333 58003 81070;
0159413960999992000091615004+15980+048940FM-12+070099999V0209999C000012200019N0150001N1+03451+01271100781ADDGA1031+009009029GF103991031081012501001001MA1999999093301MD1999999+0031REMSYN076AAXX  16154 41396 42665 30000 10345 20127 39330 40078 83800 333 58003 83830;
0178413960999992000091706004+15980+048940FM-12+070099999V0201801N002612200019N0150001N1+03301+01141102171ADDGA1031+045009079GF103991031001004501031001KA1120N+02381MA1999999093721MD1999999-0101REMSYN082AAXX  17064 41396 42465 31805 10330 20114 39372 40217 83030 333 20238 59010 83365;
0184413960999992000091709004+15980+048940FM-12+070099999V0201401N004112200019N0150001N1+03891+00901100932ADDGA1021+009009089GF103991021011008001031001MA1999999093501MD1999999-0031REMSYN082AAXX  17094 41396 42565 31408 10389 20090 39350 40093 82130 333 59003 82830 83365;EQDQ01+100933APOSLP
0195413960999992000091712004+15980+048940FM-12+070099999V0200901N00261045001CN0150001N1+03901+01041100771ADDAA199000091GA1021+009009089GF105991021011008001071001MA1999999093281MD1999999-0031REMSYN082AAXX  17124 41396 32565 50905 10390 20104 39328 40077 82170 333 59003 82830 85957;EQDQ01  00002PRCP99
0159413960999992000091715004+15980+048940FM-12+070099999V0201401N001512200019N0150001N1+03601+00941100741ADDGA1021+009009029GF102991021011008001001001MA1999999093291MD1999999-0011REMSYN076AAXX  17154 41396 42565 21403 10360 20094 39329 40074 82100 333 59001 82830;
0178413960999992000091718004+15980+048940FM-12+070099999V0203601N004112200019N0150001N1+03601+00481100851ADDGA1031+009009029GF103991031081008001021001KA1120M+03991MA1999999093421MD1999999+0001REMSYN082AAXX  17184 41396 42565 33608 10360 20048 39342 40085 83820 333 10399 58000 83830;
0159413960999992000091721004+15980+048940FM-12+070099999V0209999C000010120019N0150001N1+03201+01301100921ADDGA1051+012009059GF105991051051012501001001MA1999999093451MD1999999-0011REMSYN076AAXX  17214 41396 42665 50000 10320 20130 39345 40092 85500 333 59001 85640;
0166413960999992000091806004+15980+048940FM-12+070099999V0209999C000012200019N0150001N1+03381+01901101071ADDGA1001+999999999GF100991001001999999001001KA1120N+02551MA1999999093641MD1999999-0081REMSYN070AAXX  18064 41396 42965 00000 10338 20190 39364 40107 333 20255 59008;
0159413960999992000091809004+15980+048940FM-12+070099999V0201401N002612200019N0150001N1+03701+01251100891ADDGA1011+009009029GF101991011011012501001001MA1999999093481MD1999999-0021REMSYN076AAXX  18094 41396 42665 11405 10370 20125 39348 40089 81100 333 59002 81830;
0189413960999992000091812004+15980+048940FM-12+070099999V0203501N009312200019N0150001N1+04081+00551100571ADDAA199000091GA1021+012009029GF102991021011008001001001MA1999999093221MD1999999-0061REMSYN076AAXX  18124 41396 32565 23518 10408 20055 39322 40057 82100 333 59006 82840;EQDQ01  00002PRCP99
0166413960999992000091818004+15980+048940FM-12+070099999V0203601N007712200019N0150001N1+03481+01241100861ADDGA1001+999999999GF100991001001999999001001KA1120M+04101MA1999999093471MD1999999+0051REMSYN070AAXX  18184 41396 42965 03615 10348 20124 39347 40086 333 10410 58005;
0147413960999992000091821004+15980+048940FM-12+070099999V0200201N005112200019N0150001N1+03201+01301100911ADDGA1001+999999999GF100991001001999999001001MA1999999093521MD1999999+0071REMSYN064AAXX  18214 41396 42965 00210 10320 20130 39352 40091 333 58007;
0136413960999992000091906004+15980+048940FM-12+070099999V0209999C000012200019N0100001N1+03201+01301101151ADDGF100991001001999999001001KA1120N+02201MA1999999093441REMSYN070AAXX  19064 41396 42960 00000 10320 20130 39344 40115 333 20220 8010/;
0166413960999992000091918004+15980+048940FM-12+070099999V0200901N005112200019N0150001N1+03251+00851100831ADDGA1001+999999999GF100991001001999999001001KA1120M+03901MA1999999093401MD1999999-0071REMSYN070AAXX  19184 41396 42965 00910 10325 20085 39340 40083 333 10390 59007;
0147413960999992000092009004+15980+048940FM-12+070099999V0201401N004112200019N0200001N1+03581+01201100841ADDGA1001+999999999GF100991001001999999001001MA1999999093421MD1999999-0071REMSYN064AAXX  20094 41396 42970 01408 10358 20120 39342 40084 333 59007;
0159413960999992000092015004+15980+048940FM-12+070099999V0209999C000012200019N0200001N1+03451+01441100551ADDGA1011+010509029GF101991011011012501001001MA1999999093151MD1999999-0121REMSYN076AAXX  20154 41396 42670 10000 10345 20144 39315 40055 81100 333 59012 81835;
0159413960999992000092115004+15980+048940FM-12+070099999V0200701N005112200019N0200001N1+03441+00771100741ADDGA1021+060009019GF102991001001999999001011MA1999999093331MD1999999+0181REMSYN076AAXX  21154 41396 42970 20710 10344 20077 39333 40074 80001 333 58018 82070;
0166413960999992000092306004+15980+048940FM-12+070099999V0209999C000012200019N0200001N1+03221+01571101431ADDGA1001+999999999GF100991001001999999001001KA1120N+02101MA1999999093991MD1999999+0001REMSYN070AAXX  23064 41396 42970 00000 10322 20157 39399 40143 333 20210 58000;
0147413960999992000092309004+15980+048940FM-12+070099999V0209999C000012200019N0200001N1+03721+01241101141ADDGA1001+999999999GF100991001001999999001001MA1999999093731MD1999999+0021REMSYN064AAXX  23094 41396 42970 00000 10372 20124 39373 40114 333 58002;
0205413960999992000092312004+15980+048940FM-12+070099999V0200901N003112200019N0200001N1+03801+00821100831ADDAA199000091GA1041+009009029GF104991999081008001001001MA1999999093431MD1999999-0091REMSYN076AAXX  23124 41396 32570 40906 10380 20082 39343 40083 83800 333 59009 84830;EQDQ01+000032SCOTLCQ02  00002PRCP99
0165413960999992000092315004+15980+048940FM-12+070099999V0209999C000019999999N0000001N1+03531+01131100841ADDGA1011+010509089GF105991021011012501001001MA1999999093451MD1999999-0121REMSYN082AAXX  23154 41396 42600 50000 10353 20113 39345 40084 82100 333 59012 81835 85460;
0159413960999992000092415004+15980+048940FM-12+070099999V0200101N005112200019N0200001N1+03601+01331100761ADDGA1041+027009079GF104991041001999999031001MA1999999093371MD1999999-0081REMSYN076AAXX  24154 41396 42970 40110 10360 20133 39337 40076 84030 333 59008 84359;
0166413960999992000092418004+15980+048940FM-12+070099999V0200501N003612200019N0200001N1+03261+01241100941ADDGA1001+999999999GF100991001001999999001001KA1120M+03911MA1999999093551MD1999999-0071REMSYN070AAXX  24184 41396 42970 00507 10326 20124 39355 40094 333 10391 59007;
0129413960999992000092506004+15980+048940FM-12+070099999V0200901N002612200019N0200001N1+03121+01961101241ADDGA1001+999999999GF100991001001999999001001MA1999999093831REMSYN060AAXX  25064 41396 42970 00905 10312 20196 39383 40124 59002;
0189413960999992000092512004+15980+048940FM-12+070099999V0200601N002612200019N0200001N1+03751+00401100801ADDAA199000091GA1021+009009029GF102991021011012501001001MA1999999093331MD1999999-0041REMSYN076AAXX  25124 41396 32670 20605 10375 20040 39333 40080 82100 333 59004 82830;EQDQ01  00002PRCP99
0178413960999992000092515004+15980+048940FM-12+070099999V0200501N003112200019N0200001N1+03451+00071100781ADDGA1021+060009019GF102991001001999999001011MA1999999093351MD1999999-0021REMSYN076AAXX  25154 41396 42270 20506 10345 20007 39335 40078 80001 333 59002 82070;EQDQ01+001502SCOLCB
0195413960999992000092712004+15980+048940FM-12+070099999V0201001N002612200019N0200001N1+03551+01701100761ADDAA199000091GA1011+006009089GF104991041081008001001001MA1999999093351MD1999999-0091REMSYN082AAXX  27124 41396 32570 41005 10355 20170 39335 40076 84800 333 59009 81820 83830;EQDQ01  00002PRCP99
0165413960999992000092715004+15980+048940FM-12+070099999V0200901N003612200019N0200001N1+03381+01711100741ADDGA1031+000309099GF104991031091012501001011MA1999999093331MD1999999-0091REMSYN082AAXX  27154 41396 42670 40907 10338 20171 39333 40074 83901 333 59009 83830 81935;
0147413960999992000092721004+15980+048940FM-12+070099999V0209999C000012200019N0200001N1+02681+02031101151ADDGA1001+999999999GF100991001001999999001001MA1999999093741MD1999999+0071REMSYN064AAXX  27214 41396 42970 00000 10268 20203 39374 40115 333 58007;
0165413960999992000092815004+15980+048940FM-12+070099999V0200501N002612200019N0250001N1+03401+01301100711ADDGA1021+009009089GF104991021011012501001011MA1999999093311MD1999999-0021REMSYN082AAXX  28154 41396 42675 40505 10340 20130 39331 40071 82101 333 59002 82830 84070;
0197413960999992000092818004+15980+048940FM-12+070099999V0200901N002612200019N0015001N1+03101+01661100921ADDGA1041+030009019GF104991041001999999071999KA1120M+03701MA1999999093521MD1999999-0121REMSYN082AAXX  28184 41396 42915 40905 1031/ 20166 39352 40092 84070 333 10370 59012 84460;EQDQ01+000002SCOHCG
0178413960999992000092906004+15980+048940FM-12+070099999V0209999C000012200019N0250001N1+02951+01881101411ADDGA1021+060009019GF102991001001999999001011KA1120N+02121MA1999999093981MD1999999+0111REMSYN082AAXX  29064 41396 42975 20000 10295 20188 39398 40141 80001 333 20212 58011 82070;
0159413960999992000092909004+15980+048940FM-12+070099999V0209999C000012200019N0250001N1+03451+01081101191ADDGA1021+060009019GF102991001001999999001011MA1999999093781MD1999999+0131REMSYN076AAXX  29094 41396 42975 20000 10345 20108 39378 40119 80001 333 58013 82070;
0177413960999992000092912004+15980+048940FM-12+070099999V0200701N005712200019N0250001N1+03601+00931100981ADDAA199000091GA1001+999999999GF100991001001999999001001MA1999999093531MD1999999+0161REMSYN064AAXX  29124 41396 32975 00711 10360 20093 39353 40098 333 58016;EQDQ01  00002PRCP99
0165413960999992000092915004+15980+048940FM-12+070099999V0200801N004612200019N0250001N1+03301+01331101011ADDGA1011+007509089GF103991011011008001001011MA1999999093541MD1999999+0231REMSYN082AAXX  29154 41396 42575 30809 10330 20133 39354 40101 81101 333 58023 81825 83070;
0147413960999992000092921004+15980+048940FM-12+070099999V0209999C000012200019N0250001N1+02641+01881101291ADDGA1001+999999999GF100991001001999999001001MA1999999093861MD1999999+0191REMSYN064AAXX  29214 41396 42975 00000 10264 20188 39386 40129 333 58019;
0178413960999992000093006004+15980+048940FM-12+070099999V0209999C000012200019N0200001N1+03051+01601101571ADDGA1011+060009019GF101991001001999999001011KA1120N+02001MA1999999094121MD1999999+0141REMSYN082AAXX  30064 41396 42970 10000 10305 20160 39412 40157 80001 333 20200 58014 81070;
0159413960999992000093015004+15980+048940FM-12+070099999V0201001N003112200019N0200001N1+03461+00841999999ADDGA1021+027009079GF104991021001999999031011MA1999999093581MD1999999+0041REMSYN076AAXX  30154 41396 42970 41006 10346 20084 39358 82031 333 58004 82759 83070;
0197413960999992000093018004+15980+048940FM-12+070099999V0209999C000012200019N0200001N1+03101+01261101181ADDGA1041+024009079GF104991041999999999031001KA1120M+03791MA1999999093771MD1999999-0051REMSYN082AAXX  30184 41396 42970 40000 10310 20126 39377 40118 84030 333 10379 59005 84358;EQDQ01    003SCOLCG
0178413960999992000093021004+15980+048940FM-12+070099999V0209999C000012200019N0200001N1+01702+01531101221ADDGA1021+027009079GF102991021001999999031001MA1999999093801MD1999999-0061REMSYN076AAXX  30214 41396 42970 20000 10170 20153 39380 40122 82030 333 59006 82359;EQDQ01+001703ATOT  
0157413960999992000100106004+15980+048940FM-12+070099999V0209999C000012200019N0200001N1+03201+01401101381ADDGA1021+030009079GF102991021001999999031001KA1120N+02001MD1999999-0191REMSYN076AAXX  01064 41396 42970 20000 10320 20140 40138 82030 333 20200 59019 82360;
0189413960999992000100112004+15980+048940FM-12+070099999V0209999C000012200019N0200001N1+03751+01321100901ADDAA199000091GA1041+009009029GF104991041081012501001001MA1999999093471MD1999999-0131REMSYN076AAXX  01124 41396 32670 40000 10375 20132 39347 40090 84800 333 59013 84830;EQDQ01  00002PRCP99
0178413960999992000100206004+15980+048940FM-12+070099999V0209999C000012200019N0150001N1+03431+01151101201ADDGA1031+030009079GF103991031001999999031001KA1120N+02381MA1999999093771MD1999999-0161REMSYN082AAXX  02064 41396 42965 30000 10343 20115 39377 40120 83030 333 20238 59016 83360;
0165413960999992000100209004+15980+048940FM-12+070099999V0201101N005112200019N0150001N1+03801+01291100991ADDGA1011+010509089GF104991011011012501001011MA1999999093601MD1999999-0031REMSYN082AAXX  02094 41396 42665 41110 10380 20129 39360 40099 81101 333 59003 81835 84070;
0195413960999992000100212004+15980+048940FM-12+070099999V0200901N002612200019N0150001N1+03901+01551100731ADDAA199000091GA1021+010509089GF103991021011012501031001MA1999999093321MD1999999-0151REMSYN082AAXX  02124 41396 32665 30905 10390 20155 39332 40073 82130 333 59015 82835 83357;EQDQ01  00002PRCP99
0165413960999992000100215004+15980+048940FM-12+070099999V0200401N00361045001CN0200001N1+03641+01441100801ADDGA1031+012009089GF106991031081012501071001MA1999999093351MD1999999-0151REMSYN082AAXX  02154 41396 42670 60407 10364 20144 39335 40080 83870 333 59015 83840 85457;
0172413960999992000100218004+15980+048940FM-12+070099999V0201501N003112200019N0200001N1+03301+01701100981ADDGA1041+027009079GF104991999999999999999999KA1120M+03961MA1999999093551MD1999999-0021REMSYN076AAXX  02184 41396 42970 41506 10330 20170 39355 40098 333 10396 59002 84359;
0159413960999992000100221004+15980+048940FM-12+070099999V0209999C000012200019N0200001N1+03021+01721101161ADDGA1021+036009079GF102991021001999999031001MA1999999093671MD1999999+0101REMSYN076AAXX  02214 41396 42970 20000 10302 20172 39367 40116 82030 333 58010 82362;
0178413960999992000100306004+15980+048940FM-12+070099999V0209999C000012200019N0150001N1+03331+01531101251ADDGA1011+030009079GF101991011001999999031001KA1120N+02451MA1999999093811MD1999999+0041REMSYN082AAXX  03064 41396 42965 10000 10333 20153 39381 40125 81030 333 20245 58004 81360;
0159413960999992000100309004+15980+048940FM-12+070099999V0209999C000012200019N0150001N1+03701+00801101021ADDGA1011+009009029GF101991011011012501001001MA1999999093611MD1999999+0011REMSYN076AAXX  03094 41396 42665 10000 10370 20080 39361 40102 81100 333 58001 81830;
0195413960999992000100312004+15980+048940FM-12+070099999V0200401N00671045001CN0150001N1+03751+00931100751ADDAA199000091GA1031+009009089GF105991031081012501031001MA1999999093351MD1999999+0031REMSYN082AAXX  03124 41396 32665 50413 10375 20093 39335 40075 83830 333 58003 83830 83358;EQDQ01  00002PRCP99
0178413960999992000100315004+15980+048940FM-12+070099999V0200201N005112200019N0150001N1+03511+00821100761ADDGA1031+024009079GF103991031999999999031011MA1999999093371MD1999999+0021REMSYN076AAXX  03154 41396 42965 30210 10351 20082 39337 40076 83031 333 58002 83358;EQDQ01    003SCOLCG
0166413960999992000100406004+15980+048940FM-12+070099999V0209999C000012200019N0150001N1+03201+01911101241ADDGA1001+999999999GF100991001001999999001001KA1120N+02001MA1999999093831MD1999999+0081REMSYN070AAXX  04064 41396 42965 00000 10320 20191 39383 40124 333 20200 58008;
0159413960999992000100409004+15980+048940FM-12+070099999V0209999C000012200019N0150001N1+03551+01701100961ADDGA1011+009009029GF101991011011012501001001MA1999999093571MD1999999-0041REMSYN076AAXX  04094 41396 42665 10000 10355 20170 39357 40096 81100 333 59004 81830;
0159413960999992000100415004+15980+048940FM-12+070099999V0200301N005112200019N0150001N1+03451+00801100771ADDGA1011+010509029GF101991011011012501001001MA1999999093401MD1999999+0031REMSYN076AAXX  04154 41396 42665 10310 10345 20080 39340 40077 81100 333 58003 81835;
0166413960999992000100506004+15980+048940FM-12+070099999V0209999C000012200019N0150001N1+03011+01741101381ADDGA1001+999999999GF100991001001999999001001KA1120N+02301MA1999999093951MD1999999+0121REMSYN070AAXX  05064 41396 42965 00000 10301 20174 39395 40138 333 20230 58012;
0159413960999992000100509004+15980+048940FM-12+070099999V0209999C000012200019N0120001N1+03411+01501101121ADDGA1021+009009029GF102991021011008001001001MA1999999093711MD1999999+0141REMSYN076AAXX  05094 41396 42562 20000 10341 20150 39371 40112 82100 333 58014 82830;
0195413960999992000100512004+15980+048940FM-12+070099999V0209999C00001012001CN0120001N1+03541+01521100781ADDAA199000091GA1021+009009089GF105991051081008001001001MA1999999093411MD1999999+0101REMSYN082AAXX  05124 41396 32562 50000 10354 20152 39341 40078 85800 333 58010 82830 85835;EQDQ01  00002PRCP99
0165413960999992000100515004+15980+048940FM-12+070099999V0209999C000010120019N0200001N1+02951+01691100931ADDGA1011+009009089GF105991051081008001001001MA1999999093541MD1999999+0151REMSYN082AAXX  05154 41396 42570 50000 10295 20169 39354 40093 85800 333 58015 81830 85640;
0191413960999992000100518004+15980+048940FM-12+070099999V0200401N00671012001CN0150001N1+02751+01631101431ADDAY101061AY201061GA1031+009009089GF107991071081008001999999KA1120M+03651MD1999999+0371MW1631REMSYN088AAXX  05184 41396 41565 70413 10275 20163 40143 76300 878// 333 10365 58037 83830 86645;
0184413960999992000100606004+15980+048940FM-12+070099999V0209999C000012200019N0200001N1+02671+02121101631ADDGA1021+007509089GF104991021011008001031001KA1120N+02181MA1999999094201MD1999999+0251REMSYN088AAXX  06064 41396 42570 40000 10267 20212 39420 40163 82130 333 20218 58025 82825 83358;
0143413960999992000100612004+15980+048940FM-12+070099999V0200201N002610450019N0100001N1+03181+01741101121ADDAA199000091GF105991021011008001031001MA1999999093711REMSYN060AAXX  06124 41396 32560 50205 10318 20174 39371 40112 82130;EQDQ01  00002PRCP99
0184413960999992000100618004+15980+048940FM-12+070099999V0209999C00001045001CN0200001N1+02901+01991101381ADDGA1021+007509089GF106991021011008001031001KA1120M+03211MA1999999093951MD1999999-0051REMSYN088AAXX  06184 41396 42570 60000 10290 20199 39395 40138 82130 333 10321 59005 82825 85357;
0178413960999992000100706004+15980+048940FM-12+070099999V0209999C000012200019N0250001N1+02951+01781101661ADDGA1041+060009019GF104991001001999999001011KA1120N+02151MA1999999094241MD1999999+0041REMSYN082AAXX  07064 41396 42975 40000 10295 20178 39424 40166 80001 333 20215 58004 84070;
0159413960999992000100715004+15980+048940FM-12+070099999V0209999C000010075019N0200001N1+03101+01761101191ADDGA1051+007509029GF105991051081008001001001MA1999999093781MD1999999+0021REMSYN076AAXX  07154 41396 42570 50000 10310 20176 39378 40119 85800 333 58002 85825;
0178413960999992000100806004+15980+048940FM-12+070099999V0209999C000012200019N0150001N1+03011+01261101721ADDGA1021+060009019GF102991001001999999001011KA1120N+02111MA1999999094271MD1999999+0031REMSYN082AAXX  08064 41396 42965 20000 10301 20126 39427 40172 80001 333 20211 58003 82070;
0147413960999992000100809004+15980+048940FM-12+070099999V0209999C000012200019N0150001N1+03371+01021101431ADDGA1001+999999999GF100991001001999999001001MA1999999094001MD1999999-0081REMSYN064AAXX  08094 41396 42965 00000 10337 20102 39400 40143 333 59008;
0177413960999992000100812004+15980+048940FM-12+070099999V0209999C000012200019N0100001N1+03481+01191101101ADDAA199000091GA1001+999999999GF100991001001999999001001MA1999999093691MD1999999-0051REMSYN064AAXX  08124 41396 32960 00000 10348 20119 39369 40110 333 59005;EQDQ01  00002PRCP99
0159413960999992000100815004+15980+048940FM-12+070099999V0209999C000012200019N0200001N1+03391+01471101121ADDGA1021+060009019GF102991001001999999001011MA1999999093711MD1999999-0071REMSYN076AAXX  08154 41396 42970 20000 10339 20147 39371 40112 80001 333 59007 82070;
0178413960999992000100818004+15980+048940FM-12+070099999V0209999C000012200019N0200001N1+02721+01111101311ADDGA1041+060009019GF104991001001999999001011KA1120M+03551MA1999999093901MD1999999-0071REMSYN082AAXX  08184 41396 42970 40000 10272 20111 39390 40131 80001 333 10355 59007 84070;
0159413960999992000100821004+15980+048940FM-12+070099999V0209999C000012200019N0200001N1+02401+00941101411ADDGA1031+060009019GF103991001001999999001011MA1999999093921MD1999999-0081REMSYN076AAXX  08214 41396 42970 30000 10240 20094 39392 40141 80001 333 59008 83070;
0147413960999992000100909004+15980+048940FM-12+070099999V0209999C000012200019N0200001N1+03311+00581101251ADDGA1001+999999999GF100991001001999999001001MA1999999093811MD1999999-0191REMSYN064AAXX  09094 41396 42970 00000 10331 20058 39381 40125 333 59019;
0177413960999992000100912004+15980+048940FM-12+070099999V0209999C000012200019N0150001N1+03501+00841101051ADDAA199000091GA1001+999999999GF100991001001999999001001MA1999999093621MD1999999-0071REMSYN064AAXX  09124 41396 32965 00000 10350 20084 39362 40105 333 59007;EQDQ01  00002PRCP99
0147413960999992000100915004+15980+048940FM-12+070099999V0209999C000012200019N0150001N1+02981+01071101031ADDGA1001+999999999GF100991001001999999001001MA1999999093601MD1999999-0111REMSYN064AAXX  09154 41396 42965 00000 10298 20107 39360 40103 333 59011;
0189413960999992000101012004+15980+048940FM-12+070099999V0200901N002612200019N0150001N1+03551+01251101071ADDAA199000091GA1031+060009019GF103991001001999999001011MA1999999093661MD1999999+0041REMSYN076AAXX  10124 41396 32965 30905 10355 20125 39366 40107 80001 333 58004 83070;EQDQ01  00002PRCP99
0178413960999992000101106004+15980+048940FM-12+070099999V0209999C000012200019N0150001N1+02941+01391101751ADDGA1011+060009019GF101991001001999999001011KA1120N+01851MA1999999094301MD1999999+0181REMSYN082AAXX  11064 41396 42965 10000 10294 20139 39430 40175 80001 333 20185 58018 81070;
0147413960999992000101109004+15980+048940FM-12+070099999V0209999C000012200019N0150001N1+03471+01191101551ADDGA1001+999999999GF100991001001999999001001MA1999999094121MD1999999+0221REMSYN064AAXX  11094 41396 42965 00000 10347 20119 39412 40155 333 58022;
0177413960999992000101112004+15980+048940FM-12+070099999V0201501N002612200019N0150001N1+03561+00861101301ADDAA199000091GA1001+999999999GF100991001001999999001001MA1999999093891MD1999999+0231REMSYN064AAXX  11124 41396 32965 01505 10356 20086 39389 40130 333 58023;EQDQ01  00002PRCP99
0159413960999992000101115004+15980+048940FM-12+070099999V0209999C000012200019N0150001N1+03211+00981101301ADDGA1011+009009029GF101991011011012501001001MA1999999093891MD1999999+0181REMSYN076AAXX  11154 41396 42665 10000 10321 20098 39389 40130 81100 333 58018 81830;
0166413960999992000101118004+15980+048940FM-12+070099999V0209999C000012200019N0150001N1+02531+01261101431ADDGA1001+999999999GF100991001001999999001001KA1120M+03621MA1999999094011MD1999999+0111REMSYN070AAXX  11184 41396 42965 00000 10253 20126 39401 40143 333 10362 58011;
0150413960999992000101121004+15980+048940FM-12+070099999V0209999C000012200019N0150001N1+02301+01361999999ADDAJ100149199999999GA1001+999999999GF100991001001999999001001IA1249MA1999999094101REMSYN058AAXX  11214 41396 42965 00000 10230 20136 39410 333 48014;
0166413960999992000101206004+15980+048940FM-12+070099999V0209999C000012200019N0150001N1+02881+01091101221ADDGA1001+999999999GF100991001001999999001001KA1120N+01681MA1999999094251MD1999999-0051REMSYN070AAXX  12064 41396 42965 00000 10288 20109 39425 40122 333 20168 59005;
0166413960999992000101218004+15980+048940FM-12+070099999V0203401N005112200019N0200001N1+03101+00461101371ADDGA1001+999999999GF100991001001999999001001KA1120M+03701MA1999999093941MD1999999-0071REMSYN070AAXX  12184 41396 42970 03410 10310 20046 39394 40137 333 10370 59007;
0189413960999992000101312004+15980+048940FM-12+070099999V0209999C000012200019N0200001N1+03521+01201101011ADDAA199000091GA1021+009009029GF102991021011012501001001MA1999999093591MD1999999-0101REMSYN076AAXX  13124 41396 32670 20000 10352 20120 39359 40101 82100 333 59010 82830;EQDQ01  00002PRCP99
0159413960999992000101315004+15980+048940FM-12+070099999V0209999C000012200019N0200001N1+03151+01341101021ADDGA1021+009009029GF102991021011012501001001MA1999999093611MD1999999-0081REMSYN076AAXX  13154 41396 42670 20000 10315 20134 39361 40102 82100 333 59008 82830;
0147413960999992000101409004+15980+048940FM-12+070099999V0209999C000012200019N0200001N1+03401-00081101261ADDGA1001+999999999GF100991001001999999001001MA1999999093831MD1999999-0071REMSYN064AAXX  14094 41396 42970 00000 10340 21008 39383 40126 333 59007;
0177413960999992000101412004+15980+048940FM-12+070099999V0209999C000012200019N0200001N1+03451+00291101001ADDAA199000091GA1001+999999999GF100991001001999999001001MA1999999093591MD1999999+0001REMSYN064AAXX  14124 41396 32970 00000 10345 20029 39359 40100 333 58000;EQDQ01  00002PRCP99
0147413960999992000101415004+15980+048940FM-12+070099999V0200701N002612200019N0200001N1+03061+00531101031ADDGA1001+999999999GF100991001001999999001001MA1999999093621MD1999999+0011REMSYN064AAXX  14154 41396 42970 00705 10306 20053 39362 40103 333 58001;
0166413960999992000101418004+15980+048940FM-12+070099999V0201901N003112200019N0200001N1+02721+00551101181ADDGA1001+999999999GF100991001001999999001001KA1120M+03541MA1999999093751MD1999999-0011REMSYN070AAXX  14184 41396 42970 01906 10272 20055 39375 40118 333 10354 59001;
0147413960999992000101421004+15980+048940FM-12+070099999V0209999C000012200019N0200001N1+02461+00751101281ADDGA1001+999999999GF100991001001999999001001MA1999999093831MD1999999+0011REMSYN064AAXX  14214 41396 42970 00000 10246 20075 39383 40128 333 58001;
0159413960999992000101509004+15980+048940FM-12+070099999V0209999C000012200019N0100001N1+03451+00701101271ADDGA1011+075009019GF101991001001999999001011MA1999999093821MD1999999-0011REMSYN076AAXX  15094 41396 42960 10000 10345 20070 39382 40127 80001 333 59001 81075;
0177413960999992000101512004+15980+048940FM-12+070099999V0203501N002612200019N0200001N1+03551+00811100991ADDAA199000091GA1001+999999999GF100991001001999999001001MA1999999093581MD1999999-0011REMSYN064AAXX  15124 41396 32970 03505 10355 20081 39358 40099 333 59001;EQDQ01  00002PRCP99
0113413960999992000101515004+15980+048940FM-12+070099999V0209999C000012200019N0200001N1+03181+00941101101ADDGF101991001001999999001011MA1999999093671REMSYN060AAXX  15154 41396 42970 10000 10318 20094 39367 40110 80001;
0166413960999992000101518004+15980+048940FM-12+070099999V0202001N002612200019N0200001N1+02661+00801101281ADDGA1001+999999999GF100991001001999999001001KA1120M+03641MA1999999093851MD1999999+0101REMSYN070AAXX  15184 41396 42970 02005 10266 20080 39385 40128 333 10364 58010;
0166413960999992000101606004+15980+048940FM-12+070099999V0209999C000012200019N0200001N1+02871+01741101651ADDGA1001+999999999GF100991001001999999001001KA1120N+01851MA1999999094301MD1999999+0091REMSYN070AAXX  16064 41396 42970 00000 10287 20174 39430 40165 333 20185 58009;
0131413960999992000101609004+15980+048940FM-12+070099999V0209999C000012200019N0200001N1+03371+02041101381ADDGF102991999999999999999999MA1999999093951MD1999999+0131REMSYN064AAXX  16094 41396 42970 20000 10337 20204 39395 40138 333 58013;
0178413960999992000101615004+15980+048940FM-12+070099999V0209999C000012200019N0200001N1+03201+01371101201ADDGA1021+009009029GF102991999011012501001001MA1999999093771MD1999999+0101REMSYN076AAXX  16154 41396 42670 20000 10320 20137 39377 40120 81100 333 58010 82830;EQDQ01+000012SCOTLC
0178413960999992000101706004+15980+048940FM-12+070099999V0201401N001512200019N0200001N1+03001+01941101631ADDGA1011+009009029GF101991011011008001001001KA1120N+02101MA1999999094201MD1999999+0001REMSYN082AAXX  17064 41396 42570 11403 10300 20194 39420 40163 81100 333 20210 58000 81830;
0159413960999992000101709004+15980+048940FM-12+070099999V0209999C000012200019N0250001N1+03341+01831101371ADDGA1011+009009029GF101991011011008001001001MA1999999093951MD1999999+0001REMSYN076AAXX  17094 41396 42575 10000 10334 20183 39395 40137 81100 333 58000 81830;
0159413960999992000101715004+15980+048940FM-12+070099999V0209999C000012200019N0250001N1+03211+01401101141ADDGA1021+009009029GF102991021011008001001001MA1999999093721MD1999999-0041REMSYN076AAXX  17154 41396 42575 20000 10321 20140 39372 40114 82100 333 59004 82830;
0178413960999992000101718004+15980+048940FM-12+070099999V0201701N005112200019N0200001N1+03001+01991101281ADDGA1021+009009029GF102991021011008001001001KA1120M+03521MA1999999093871MD1999999-0051REMSYN082AAXX  17184 41396 42570 21710 10300 20199 39387 40128 82100 333 10352 59005 82830;
0159413960999992000101721004+15980+048940FM-12+070099999V0201701N002112200019N0250001N1+02711+02101101451ADDGA1021+009009029GF102991021011008001001001MA1999999093981MD1999999-0011REMSYN076AAXX  17214 41396 42575 21704 10271 20210 39398 40145 82100 333 59001 82830;
0209413960999992000101806004+15980+048940FM-12+070099999V0209999C000012200019N0200001N1+02851+02021101651ADDGA1011+010509089GF103991011999012501001011KA1120N+02151MA1999999094191MD1999999-0011REMSYN094AAXX  18064 41396 42670 30000 10285 20202 39419 40165 81001 81801 333 20215 59001 81835 83070;EQDQ01+000002SCOLCG
0165413960999992000101809004+15980+048940FM-12+070099999V0200701N002612200019N0200001N1+03301+01861101341ADDGA1021+009009089GF104991021011012501001011MA1999999093911MD1999999-0041REMSYN082AAXX  18094 41396 42670 40705 10330 20186 39391 40134 82101 333 59004 82830 83070;
0177413960999992000101912004+15980+048940FM-12+070099999V0200601N005112200019N0150001N1+03431+01101101121ADDAA199000091GA1001+999999999GF100991001001999999001001MA1999999093711MD1999999+0011REMSYN064AAXX  19124 41396 32965 00610 10343 20110 39371 40112 333 58001;EQDQ01  00002PRCP99
0147413960999992000101915004+15980+048940FM-12+070099999V0200601N006212200019N0150001N1+03151+01221101191ADDGA1001+999999999GF100991001001999999001001MA1999999093781MD1999999+0051REMSYN064AAXX  19154 41396 42965 00612 10315 20122 39378 40119 333 58005;
0166413960999992000102006004+15980+048940FM-12+070099999V0200801N002612200019N0150001N1+03001+01341101721ADDGA1001+999999999GF100991001001999999001001KA1120N+02091MA1999999094281MD1999999+0081REMSYN070AAXX  20064 41396 42965 00805 10300 20134 39428 40172 333 20209 58008;
0147413960999992000102009004+15980+048940FM-12+070099999V0200701N006212200019N0150001N1+03401+01481101461ADDGA1001+999999999GF100991001001999999001001MA1999999094041MD1999999+0061REMSYN064AAXX  20094 41396 42965 00712 10340 20148 39404 40146 333 58006;
0156413960999992000102012004+15980+048940FM-12+070099999V0200901N007712200019N0150001N1+03401+01591101201ADDAA199000091GA1001+999999999GF100991001001999999001001MD1999999+0101REMSYN058AAXX  20124 41396 32965 00915 10340 20159 40120 333 58010;EQDQ01  00002PRCP99
0147413960999992000102015004+15980+048940FM-12+070099999V0200801N005112200019N0200001N1+03141+01521101311ADDGA1001+999999999GF100991001001999999001001MA1999999093901MD1999999+0121REMSYN064AAXX  20154 41396 42970 00810 10314 20152 39390 40131 333 58012;
0166413960999992000102018004+15980+048940FM-12+070099999V0200701N007712200019N0200001N1+02931+01581101491ADDGA1001+999999999GF100991001001999999001001KA1120M+03461MA1999999094081MD1999999+0091REMSYN070AAXX  20184 41396 42970 00715 10293 20158 39408 40149 333 10346 58009;
0166413960999992000102106004+15980+048940FM-12+070099999V0209999C000012200019N0150001N1+02751+01251101831ADDGA1001+999999999GF100991001001999999001001KA1120N+01541MA1999999094361MD1999999+0081REMSYN070AAXX  21064 41396 42965 00000 10275 20125 39436 40183 333 20154 58008;
0147413960999992000102109004+15980+048940FM-12+070099999V0200901N002612200019N0150001N1+03101+01351101571ADDGA1001+999999999GF100991001001999999001001MA1999999094131MD1999999+0091REMSYN064AAXX  21094 41396 42965 00905 10310 20135 39413 40157 333 58009;
0177413960999992000102112004+15980+048940FM-12+070099999V0209999C000012200019N0200001N1+03371+01501101311ADDAA199000091GA1001+999999999GF100991001001999999001001MA1999999093901MD1999999+0091REMSYN064AAXX  21124 41396 32970 00000 10337 20150 39390 40131 333 58009;EQDQ01  00002PRCP99
0147413960999992000102115004+15980+048940FM-12+070099999V0209999C000012200019N0200001N1+03001+01451101331ADDGA1001+999999999GF100991001001999999001001MA1999999093901MD1999999+0001REMSYN064AAXX  21154 41396 42970 00000 10300 20145 39390 40133 333 58000;
0166413960999992000102118004+15980+048940FM-12+070099999V0209999C000012200019N0200001N1+02301+00971101501ADDGA1001+999999999GF100991001001999999001001KA1120M+03391MA1999999094071MD1999999-0011REMSYN070AAXX  21184 41396 42970 00000 10230 20097 39407 40150 333 10339 59001;
0147413960999992000102215004+15980+048940FM-12+070099999V0209999C000012200019N0200001N1+02861+01571101211ADDGA1001+999999999GF100991001001999999001001MA1999999093781MD1999999-0121REMSYN064AAXX  22154 41396 42970 00000 10286 20157 39378 40121 333 59012;
0166413960999992000102218004+15980+048940FM-12+070099999V0209999C000012200019N0200001N1+02101+01171101371ADDGA1001+999999999GF100991001001999999001001KA1120M+03431MA1999999093921MD1999999-0151REMSYN070AAXX  22184 41396 42970 00000 10210 20117 39392 40137 333 10343 59015;
0166413960999992000102306004+15980+048940FM-12+070099999V0209999C000012200019N0200001N1+02601+01461101651ADDGA1001+999999999GF100991001001999999001001KA1120N+01441MA1999999094141MD1999999-0141REMSYN070AAXX  23064 41396 42970 00000 10260 20146 39414 40165 333 20144 59014;
0147413960999992000102309004+15980+048940FM-12+070099999V0209999C000012200019N0200001N1+03351+01821101331ADDGA1001+999999999GF100991001001999999001001MA1999999093861MD1999999-0161REMSYN064AAXX  23094 41396 42970 00000 10335 20182 39386 40133 333 59016;
0177413960999992000102312004+15980+048940FM-12+070099999V0209999C000012200019N0200001N1+03491+01881101081ADDAA199000091GA1001+999999999GF100991001001999999001001MA1999999093631MD1999999-0141REMSYN064AAXX  23124 41396 32970 00000 10349 20188 39363 40108 333 59014;EQDQ01  00002PRCP99
0147413960999992000102315004+15980+048940FM-12+070099999V0200901N003112200019N0200001N1+03161+01751101141ADDGA1001+999999999GF100991001001999999001001MA1999999093711MD1999999+0061REMSYN064AAXX  23154 41396 42970 00906 10316 20175 39371 40114 333 58006;
0166413960999992000102318004+15980+048940FM-12+070099999V0209999C000012200019N0200001N1+02701+01561101311ADDGA1001+999999999GF100991001001999999001001KA1120M+03511MA1999999093881MD1999999-0041REMSYN070AAXX  23184 41396 42970 00000 10270 20156 39388 40131 333 10351 59004;
0178413960999992000102406004+15980+048940FM-12+070099999V0209999C000012200019N0200001N1+03101+01751101571ADDGA1011+010509029GF101991011011012501031001KA1120N+02001MA1999999094121MD1999999-0021REMSYN082AAXX  24064 41396 42670 10000 10310 20175 39412 40157 81130 333 20200 59002 81835;
0159413960999992000102409004+15980+048940FM-12+070099999V0209999C000012200019N0200001N1+03401+02081101311ADDGA1031+010509029GF103991031081012501001001MA1999999093881MD1999999+0021REMSYN076AAXX  24094 41396 42670 30000 10340 20208 39388 40131 83800 333 58002 83835;
0189413960999992000102412004+15980+048940FM-12+070099999V0200501N002612200019N0200001N1+03471+02021101121ADDAA199000091GA1031+009009029GF103991031011012501001001MA1999999093691MD1999999+0061REMSYN076AAXX  24124 41396 32670 30505 10347 20202 39369 40112 83100 333 58006 83830;EQDQ01  00002PRCP99
0159413960999992000102415004+15980+048940FM-12+070099999V0209999C000012200019N0200001N1+03101+01781101131ADDGA1011+010509029GF102991011011999999031001MA1999999093701MD1999999-0011REMSYN076AAXX  24154 41396 42970 20000 10310 20178 39370 40113 81130 333 59001 81835;
0178413960999992000102418004+15980+048940FM-12+070099999V0209999C000012200019N0200001N1+02731+01701101311ADDGA1011+030009079GF101991011001999999031001KA1120M+03491MA1999999093881MD1999999+0001REMSYN082AAXX  24184 41396 42970 10000 10273 20170 39388 40131 81030 333 10349 58000 81360;
0166413960999992000102506004+15980+048940FM-12+070099999V0209999C000012200019N0200001N1+02901+01991101671ADDGA1001+999999999GF100991001001999999001001KA1120N+01921MA1999999094231MD1999999+0111REMSYN070AAXX  25064 41396 42970 00000 10290 20199 39423 40167 333 20192 58011;
0159413960999992000102509004+15980+048940FM-12+070099999V0209999C000012200019N0200001N1+03301+01951101381ADDGA1011+009009029GF101991011011999999001001MA1999999093951MD1999999+0071REMSYN076AAXX  25094 41396 42970 10000 10330 20195 39395 40138 81100 333 58007 81830;
0166413960999992000102606004+15980+048940FM-12+070099999V0209999C000012200019N0200001N1+02791+02001101681ADDGA1001+999999999GF100991001001999999001001KA1120N+02041MA1999999094251MD1999999+0021REMSYN070AAXX  26064 41396 42970 00000 10279 20200 39425 40168 333 20204 58002;
0147413960999992000102609004+15980+048940FM-12+070099999V0209999C000012200019N0200001N1+03341+02021101421ADDGA1001+999999999GF100991001001999999001001MA1999999093991MD1999999+0041REMSYN064AAXX  26094 41396 42970 00000 10334 20202 39399 40142 333 58004;
0189413960999992000102612004+15980+048940FM-12+070099999V0209999C000012200019N0200001N1+03401+01891101181ADDAA199000091GA1021+007509029GF102991021011008001001001MA1999999093751MD1999999+0031REMSYN076AAXX  26124 41396 32570 20000 10340 20189 39375 40118 82100 333 58003 82825;EQDQ01  00002PRCP99
0159413960999992000102615004+15980+048940FM-12+070099999V0209999C000012200019N0200001N1+03001+01871101201ADDGA1011+007509029GF101991011011008001001001MA1999999093771MD1999999+0031REMSYN076AAXX  26154 41396 42570 10000 10300 20187 39377 40120 81100 333 58003 81825;
0166413960999992000102618004+15980+048940FM-12+070099999V0200901N003612200019N0200001N1+02851+02191101351ADDGA1001+999999999GF100991001001999999001001KA1120M+03461MA1999999093941MD1999999-0061REMSYN070AAXX  26184 41396 42970 00907 10285 20219 39394 40135 333 10346 59006;
0147413960999992000102621004+15980+048940FM-12+070099999V0209999C000012200019N0200001N1+02521+02121101441ADDGA1001+999999999GF100991001001999999001001MA1999999094031MD1999999+0041REMSYN064AAXX  26214 41396 42970 00000 10252 20212 39403 40144 333 58004;
0152413960999992000102706004+15980+048940FM-12+070099999V0209999C000012200019N0200001N1+02821+02071101611ADDGA1001+999999999GF100991001001999999001001KA1120N+02051MA1999999094161REMSYN070AAXX  27064 41396 42970 00000 10282 20207 39416 40161 333 20205 55009;
0205413960999992000102712004+15980+048940FM-12+070099999V0200901N002612200019N0200001N1+03361+01911101171ADDAA199000091GA1011+009009029GF101991011011012501001001MA1999999092762MD1999999-0011REMSYN076AAXX  27124 41396 32670 10905 10336 20191 39276 40117 81100 333 59001 81830;EQDQ01+092763APOSP Q02  00002PRCP99
0166413960999992000102806004+15980+048940FM-12+070099999V0209999C000012200019N0200001N1+02771+01931101751ADDGA1001+999999999GF100991001001999999001001KA1120N+01921MA1999999094301MD1999999+0141REMSYN070AAXX  28064 41396 42970 00000 10277 20193 39430 40175 333 20192 58014;
0177413960999992000102812004+15980+048940FM-12+070099999V0200901N005112200019N0100001N1+03351+01401101301ADDAA199000091GA1001+999999999GF100991001001999999001001MA1999999093871MD1999999+0111REMSYN064AAXX  28124 41396 32960 00910 10335 20140 39387 40130 333 58011;EQDQ01  00002PRCP99
0147413960999992000102815004+15980+048940FM-12+070099999V0200501N005112200019N0200001N1+03041+01201101361ADDGA1001+999999999GF100991001001999999001001MA1999999093931MD1999999+0061REMSYN064AAXX  28154 41396 42970 00510 10304 20120 39393 40136 333 58006;
0166413960999992000102906004+15980+048940FM-12+070099999V0209999C000012200019N0200001N1+02701+01251101881ADDGA1001+999999999GF100991001001999999001001KA1120N+01491MA1999999094411MD1999999+0111REMSYN070AAXX  29064 41396 42970 00000 10270 20125 39441 40188 333 20149 58011;
0147413960999992000102909004+15980+048940FM-12+070099999V0200801N004612200019N0200001N1+03301+01451101621ADDGA1001+999999999GF100991001001999999001001MA1999999094171MD1999999+0171REMSYN064AAXX  29094 41396 42970 00809 10330 20145 39417 40162 333 58017;
0166413960999992000103006004+15980+048940FM-12+070099999V0209999C000012200019N0120001N1+99999+99999101761ADDGA1001+999999999GF100991001001999999001001KA1120N+01851MA1999999094311MD1999999-0101REMSYN070AAXX  30064 41396 42962 00000 1095/ 20166 39431 40176 333 20185 59010;
0147413960999992000103009004+15980+048940FM-12+070099999V0200701N002612200019N0150001N1+03281+00681101551ADDGA1001+999999999GF100991001001999999001001MA1999999094111MD1999999-0061REMSYN064AAXX  30094 41396 42965 00705 10328 20068 39411 40155 333 59006;
0147413960999992000103015004+15980+048940FM-12+070099999V0209999C000012200019N0100001N1+02901+01001101331ADDGA1001+999999999GF100991001001999999001001MA1999999093901MD1999999-0081REMSYN064AAXX  30154 41396 42960 00000 10290 20100 39390 40133 333 59008;
0166413960999992000103018004+15980+048940FM-12+070099999V0209999C000012200019N0150001N1+02601+00841101511ADDGA1001+999999999GF100991001001999999001001KA1120M+03361MA1999999094081MD1999999-0041REMSYN070AAXX  30184 41396 42965 00000 10260 20084 39408 40151 333 10336 59004;
0147413960999992000103021004+15980+048940FM-12+070099999V0209999C000012200019N0150001N1+02271+01671101571ADDGA1001+999999999GF100991001001999999001001MA1999999094121MD1999999-0021REMSYN064AAXX  30214 41396 42965 00000 10227 20167 39412 40157 333 59002;
0166413960999992000103106004+15980+048940FM-12+070099999V0209999C000012200019N0150001N1+02641+01781101811ADDGA1001+999999999GF100991001001999999001001KA1120N+01851MA1999999094361MD1999999+0051REMSYN070AAXX  31064 41396 42965 00000 10264 20178 39436 40181 333 20185 58005;
0177413960999992000103112004+15980+048940FM-12+070099999V0200901N002612200019N0150001N1+03201+01031101281ADDAA199000091GA1001+999999999GF100991001001999999001001MA1999999093851MD1999999-0031REMSYN064AAXX  31124 41396 32965 00905 10320 20103 39385 40128 333 59003;EQDQ01  00002PRCP99
0147413960999992000110109004+15980+048940FM-12+070099999V0209999C000012200019N0200001N1+03041+00941101501ADDGA1001+999999999GF100991001001999999001001MA1999999094051MD1999999-0051REMSYN064AAXX  01094 41396 42970 00000 10304 20094 39405 40150 333 59005;
0177413960999992000110112004+15980+048940FM-12+070099999V0209999C000012200019N0200001N1+03151+00971101291ADDAA199000091GA1001+999999999GF100991001001999999001001MA1999999093841MD1999999-0011REMSYN064AAXX  01124 41396 32970 00000 10315 20097 39384 40129 333 59001;EQDQ01  00002PRCP99
0126413960999992000110115004+15980+048940FM-12+070099999V0209999C000012200019N0200001N1+02691+01151101341ADDGA1001+999999999GF100991001001999999001001MD1999999-0011REMSYN058AAXX  01154 41396 42970 00000 10269 20115 40134 333 59001;
0166413960999992000110118004+15980+048940FM-12+070099999V0209999C000012200019N0200001N1+02191+01301101431ADDGA1001+999999999GF100991001001999999001001KA1120M+03171MA1999999093981MD1999999-0071REMSYN070AAXX  01184 41396 42970 00000 10219 20130 39398 40143 333 10317 59007;
0147413960999992000110121004+15980+048940FM-12+070099999V0209999C000012200019N0200001N1+02191+01451101481ADDGA1001+999999999GF100991001001999999001001MA1999999093991MD1999999-0091REMSYN064AAXX  01214 41396 42970 00000 10219 20145 39399 40148 333 59009;
0166413960999992000110206004+15980+048940FM-12+070099999V0209999C000012200019N0200001N1+02551+01661101641ADDGA1001+999999999GF100991001001999999001001KA1120N+01351MA1999999094131MD1999999-0131REMSYN070AAXX  02064 41396 42970 00000 10255 20166 39413 40164 333 20135 59013;
0147413960999992000110209004+15980+048940FM-12+070099999V0209999C000012200019N0200001N1+03071+00861101401ADDGA1001+999999999GF100991001001999999001001MA1999999093931MD1999999-0121REMSYN064AAXX  02094 41396 42970 00000 10307 20086 39393 40140 333 59012;
0147413960999992000110215004+15980+048940FM-12+070099999V0209999C000012200019N0200001N1+02841+01111101251ADDGA1001+999999999GF100991001001999999001001MA1999999093801MD1999999-0091REMSYN064AAXX  02154 41396 42970 00000 10284 20111 39380 40125 333 59009;
0166413960999992000110218004+15980+048940FM-12+070099999V0209999C000012200019N0200001N1+02301+01341101371ADDGA1001+999999999GF100991001001999999001001KA1120M+03241MA1999999093921MD1999999-0061REMSYN070AAXX  02184 41396 42970 00000 10230 20134 39392 40137 333 10324 59006;
0166413960999992000110306004+15980+048940FM-12+070099999V0209999C000012200019N0200001N1+02601+01821101771ADDGA1001+999999999GF100991001001999999001001KA1120N+01601MA1999999094281MD1999999+0151REMSYN070AAXX  03064 41396 42970 00000 10260 20182 39428 40177 333 20160 58015;
0147413960999992000110315004+15980+048940FM-12+070099999V0209999C000012200019N0200001N1+02851+01101101401ADDGA1001+999999999GF100991001001999999001001MA1999999093951MD1999999+0151REMSYN064AAXX  03154 41396 42970 00000 10285 20110 39395 40140 333 58015;
0177413960999992000110412004+15980+048940FM-12+070099999V0209999C000012200019N0200001N1+03071+00901101491ADDAA199000091GA1001+999999999GF100991001001999999001001MA1999999094041MD1999999+0131REMSYN064AAXX  04124 41396 32970 00000 10307 20090 39404 40149 333 58013;EQDQ01  00002PRCP99
0159413960999992000110415004+15980+048940FM-12+070099999V0200901N002112200019N0000001N1+02771+01191101521ADDGA1011+009009029GF101991011011012501001001MA1999999094071MD1999999+0121REMSYN076AAXX  04154 41396 42600 10904 10277 20119 39407 40152 81100 333 58012 81830;
0166413960999992000110506004+15980+048940FM-12+070099999V0209999C000012200019N0200001N1+02501+01851101911ADDGA1001+999999999GF100991001001999999001001KA1120N+01441MA1999999094421MD1999999+0041REMSYN070AAXX  05064 41396 42970 00000 10250 20185 39442 40191 333 20144 58004;
0159413960999992000110509004+15980+048940FM-12+070099999V0209999C000012200019N0200001N1+03001+01661101571ADDGA1011+030009079GF101991011001999999031001MA1999999094101MD1999999-0141REMSYN076AAXX  05094 41396 42970 10000 10300 20166 39410 40157 81030 333 59014 81360;
0166413960999992000110518004+15980+048940FM-12+070099999V0209999C000012200019N0200001N1+02721+01821101451ADDGA1001+999999999GF100991001001999999001001KA1120M+03231MA1999999093981MD1999999-0301REMSYN070AAXX  05184 41396 42970 00000 10272 20182 39398 40145 333 10323 59030;
0178413960999992000110606004+15980+048940FM-12+070099999V0209999C000012200019N0200001N1+02651+01691101601ADDGA1011+060009019GF101991001001999999001011KA1120N+01621MA1999999094131MD1999999-0291REMSYN082AAXX  06064 41396 42970 10000 10265 20169 39413 40160 80001 333 20162 59029 81070;
0153413960999992000110609004+15980+048940FM-12+070099999V0209999C000012200019N0200001N1+99999+99999101291ADDGA1021+009009029GF102991021011012501001001MA1999999093841MD1999999-0261REMSYN070AAXX  06094 41396 42670 20000 20186 39384 40129 82100 333 59026 82830;
0189413960999992000110612004+15980+048940FM-12+070099999V0200901N002612200019N0200001N1+03201+01911101071ADDAA199000091GA1031+009009029GF103991031081012501001001MA1999999093621MD1999999-0191REMSYN076AAXX  06124 41396 32670 30905 10320 20191 39362 40107 83800 333 59019 83830;EQDQ01  00002PRCP99
0159413960999992000110615004+15980+048940FM-12+070099999V0209999C000012200019N0200001N1+02901+01821101071ADDGA1021+009009029GF102991021011012501001001MA1999999093621MD1999999-0251REMSYN076AAXX  06154 41396 42670 20000 10290 20182 39362 40107 82100 333 59025 82830;
0178413960999992000110618004+15980+048940FM-12+070099999V0209999C000012200019N0200001N1+02501+01791101271ADDGA1021+027009079GF102991021001999999031001KA1120M+03231MA1999999093871MD1999999-0111REMSYN082AAXX  06184 41396 42970 20000 10250 20179 39387 40127 82030 333 10323 59011 82359;
0138413960999992000110709004+15980+048940FM-12+070099999V0209999C000012200019N0200001N1+03101+01881101291ADDGA1021+009009029GF102991021011004501001001MD1999999+0001REMSYN070AAXX  07094 41396 42470 20000 10310 20188 40129 82100 333 58000 82830;
0189413960999992000110712004+15980+048940FM-12+070099999V0200901N005112200019N0200001N1+03301+01441101071ADDAA199000091GA1021+009009029GF102991021011012501001001MA1999999093601MD1999999-0021REMSYN076AAXX  07124 41396 32670 20910 10330 20144 39360 40107 82100 333 59002 82830;EQDQ01  00002PRCP99
0178413960999992000110718004+15980+048940FM-12+070099999V0209999C000012200019N0200001N1+02631+01881101311ADDGA1011+027009079GF101991011001999999031001KA1120M+03321MA1999999093861MD1999999-0011REMSYN082AAXX  07184 41396 42970 10000 10263 20188 39386 40131 81030 333 10332 59001 81359;
0158413960999992000110806004+15980+048940FM-12+070099999V0209999C000012200019N0150001N1+02651+02061101631ADDGA1011+030009079GF101991011001999999031001KA1120N+01741MA1999999094161REMSYN076AAXX  08064 41396 42965 10000 10265 20206 39416 40163 81030 333 20174 81360;
0159413960999992000110809004+15980+048940FM-12+070099999V0201201N002612200019N0150001N1+03151+01611101351ADDGA1011+009009029GF101991011011012501001001MA1999999093901MD1999999+0061REMSYN076AAXX  08094 41396 42665 11205 10315 20161 39390 40135 81100 333 58006 81830;
0189413960999992000110812004+15980+048940FM-12+070099999V0200901N002612200019N0150001N1+03251+01371101191ADDAA199000091GA1011+009009029GF102991011011012501001011MA1999999093741MD1999999+0141REMSYN076AAXX  08124 41396 32665 20905 10325 20137 39374 40119 81101 333 58014 81830;EQDQ01  00002PRCP99
0159413960999992000110815004+15980+048940FM-12+070099999V0209999C000012200019N0150001N1+02881+01401101171ADDGA1011+009009029GF103991011011012501001011MA1999999093721MD1999999+0021REMSYN076AAXX  08154 41396 42665 30000 10288 20140 39372 40117 81101 333 58002 81830;
0184413960999992000110818004+15980+048940FM-12+070099999V0201101N003612200019N0150001N1+02621+01891101331ADDGA1011+030009039GF103991011001999999031011KA1120M+03311MA1999999093901MD1999999+0041REMSYN088AAXX  08184 41396 42965 31107 10262 20189 39390 40133 81031 333 10331 58004 81360 83070;
0159413960999992000110821004+15980+048940FM-12+070099999V0209999C000012200019N0150001N1+02401+02001101471ADDGA1011+027009079GF101991011001999999031011MA1999999094021MD1999999+0131REMSYN076AAXX  08214 41396 42965 10000 10240 20200 39402 40147 81031 333 58013 81359;
0206413960999992000111118004+15980+048940FM-12+070099999V0203501N006212200019N0100001N1+02451+01821101921ADDAY161061AY261061GA1011+030009079GF101991011001999999031001KA1120M+03071MA1999999094451MD1999999+0141MW1021REMSYN088AAXX  11184 41396 41960 13512 10245 20182 39445 40192 70266 81030 333 10307 58014 81360;
0159413960999992000111121004+15980+048940FM-12+070099999V0200601N005112200019N0100001N1+02241+01831102041ADDGA1021+027009079GF102991021001999999031001MA1999999094551MD1999999+0181REMSYN076AAXX  11214 41396 42960 20610 10224 20183 39455 40204 82030 333 58018 82359;
0184413960999992000111206004+15980+048940FM-12+070099999V0200501N00261045001CN0150001N1+02401+01901102131ADDGA1021+007509069GF108991021051008001071999KA1120N+02151MA1999999094661MD1999999+0061REMSYN088AAXX  12064 41396 41565 80505 10240 20190 39466 40213 8257/ 333 20215 58006 82625 88458;
0165413960999992000111209004+15980+048940FM-12+070099999V0209999C000010090019N0150001N1+02801+01981101881ADDGA1051+009009089GF105991051081012501031001MA1999999094411MD1999999+0021REMSYN082AAXX  12094 41396 42665 50000 10280 20198 39441 40188 85830 333 58002 85830 82358;
0165413960999992000111215004+15980+048940FM-12+070099999V0209999C00001045001CN0150001N1+02701+01761101621ADDGA1031+009009089GF107991031081012501071999MA1999999094171MD1999999-0061REMSYN082AAXX  12154 41396 42665 70000 10270 20176 39417 40162 8387/ 333 59006 83830 87458;
0178413960999992000111218004+15980+048940FM-12+070099999V0200301N007212200019N0150001N1+02501+01611101781ADDGA1021+030009079GF102991021001999999031001KA1120M+02851MA1999999094321MD1999999-0131REMSYN082AAXX  12184 41396 42965 20314 10250 20161 39432 40178 82030 333 10285 59013 82360;
0159413960999992000111309004+15980+048940FM-12+070099999V0200901N002612200019N0150001N1+02751+01331101661ADDGA1041+060009019GF104991001001999999001011MA1999999094171MD1999999-0241REMSYN076AAXX  13094 41396 42965 40905 10275 20133 39417 40166 80001 333 59024 84070;
0156413960999992000111318004+15980+048940FM-12+070099999V0209999C000012200019N0150001N1+02281+01061101591ADDGF102991001001999999001011KA1120M+02901MA1999999094121MD1999999-0201REMSYN076AAXX  13184 41396 42965 20000 10228 20106 39412 40159 80001 333 10290 59020;
0178413960999992000111406004+15980+048940FM-12+070099999V0209999C000012200019N0200001N1+02401+00941101801ADDGA1011+030009079GF101991011001999999031001KA1120N+01231MA1999999094291MD1999999-0141REMSYN082AAXX  14064 41396 42970 10000 10240 20094 39429 40180 81030 333 20123 59014 81360;
0159413960999992000111409004+15980+048940FM-12+070099999V0209999C000012200019N0200001N1+02941+01341101491ADDGA1011+036009079GF101991011001999999031001MA1999999094001MD1999999-0171REMSYN076AAXX  14094 41396 42970 10000 10294 20134 39400 40149 81030 333 59017 81362;
0166413960999992000111418004+15980+048940FM-12+070099999V0209999C000012200019N0200001N1+02271+01121101501ADDGA1001+999999999GF100991001001999999001001KA1120M+03071MA1999999094021MD1999999-0101REMSYN070AAXX  14184 41396 42970 00000 10227 20112 39402 40150 333 10307 59010;
0166413960999992000111506004+15980+048940FM-12+070099999V0209999C000012200019N0150001N1+02601+01621101721ADDGA1001+999999999GF100991001001999999001001KA1120N+01461MA1999999094211MD1999999-0081REMSYN070AAXX  15064 41396 42965 00000 10260 20162 39421 40172 333 20146 59008;
0147413960999992000111509004+15980+048940FM-12+070099999V0200901N002612200019N0150001N1+02901+01621101471ADDGA1001+999999999GF100991001001999999001001MA1999999093981MD1999999-0021REMSYN064AAXX  15094 41396 42965 00905 10290 20162 39398 40147 333 59002;
0147413960999992000111515004+15980+048940FM-12+070099999V0200901N002612200019N0150001N1+02751+01431101301ADDGA1001+999999999GF100991001001999999001001MA1999999093881MD1999999-0081REMSYN064AAXX  15154 41396 42965 00905 10275 20143 39388 40130 333 59008;
0160413960999992000111518004+15980+048940FM-12+070099999V0209999C000012200019N0150001N1+02501+01881999999ADDGA1001+999999999GF100991001001999999001001KA1120M+03121MA1999999094031MD1999999+0011REMSYN064AAXX  15184 41396 42965 00000 10250 20188 39403 333 10312 58001;
0166413960999992000111606004+15980+048940FM-12+070099999V0209999C000012200019N0150001N1+02541+01881101661ADDGA1001+999999999GF100991001001999999001001KA1120N+01681MA1999999094261MD1999999+0051REMSYN070AAXX  16064 41396 42965 00000 10254 20188 39426 40166 333 20168 58005;
0147413960999992000111609004+15980+048940FM-12+070099999V0200901N003612200019N0200001N1+02951+01791101421ADDGA1001+999999999GF100991001001999999001001MA1999999093951MD1999999-0031REMSYN064AAXX  16094 41396 42970 00907 10295 20179 39395 40142 333 59003;
0177413960999992000111612004+15980+048940FM-12+070099999V0209999C000012200019N0200001N1+03101+01681101201ADDAA199000091GA1001+999999999GF100991001001999999001001MA1999999093731MD1999999-0051REMSYN064AAXX  16124 41396 32970 00000 10310 20168 39373 40120 333 59005;EQDQ01  00002PRCP99
0117413960999992000111618004+15980+048940FM-12+070099999V0209999C000012200019N0200001N1+02401+99999999999ADDGA1001+999999999GF100991001001999999001001REMSYN063AAXX  16184 41396 42970 00000 10240 2068 39397 40140 333 18006;
0147413960999992000111621004+15980+048940FM-12+070099999V0209999C000012200019N0200001N1+02051+01641101481ADDGA1001+999999999GF100991001001999999001001MA1999999094011MD1999999-0021REMSYN064AAXX  16214 41396 42970 00000 10205 20164 39401 40148 333 59002;
0205413960999992000111712004+15980+048940FM-12+070099999V0209999C000012200019N0200001N1+03051+01621101281ADDAA199000091GA1011+024009079GF101991011999999999031001MA1999999093781MD1999999+0051REMSYN076AAXX  17124 41396 32970 10000 10305 20162 39378 40128 81030 333 58005 81358;EQDQ01  00002PRCP99Q02    003SCOLCG
0147413960999992000111715004+15980+048940FM-12+070099999V0200901N002612200019N0200001N1+02801+01691101331ADDGA1001+999999999GF100991001001999999001001MA1999999093861MD1999999+0061REMSYN064AAXX  17154 41396 42970 00905 10280 20169 39386 40133 333 58006;
0153413960999992000111718004+15980+048940FM-12+070099999V0203401N002612200019N0200001N1+02511+01601101471ADDGA1001+999999999GF100991001001999999001001MA1999999094001MD1999999+0031REMSYN070AAXX  17184 41396 42970 03405 10251 20160 39400 40147 333 10/07 58003;
0159413960999992000111809004+15980+048940FM-12+070099999V0209999C000012200019N0150001N1+02951+01871101421ADDGA1021+009009029GF102991021011012501001001MA1999999093951MD1999999-0011REMSYN076AAXX  18094 41396 42665 20000 10295 20187 39395 40142 82100 333 59001 82830;
0189413960999992000111812004+15980+048940FM-12+070099999V0209999C000012200019N0150001N1+03201+01821101181ADDAA199000091GA1011+009009029GF101991011011012501001001MA1999999093711MD1999999-0071REMSYN076AAXX  18124 41396 32665 10000 10320 20182 39371 40118 81100 333 59007 81830;EQDQ01  00002PRCP99
0165413960999992000111815004+15980+048940FM-12+070099999V0201801N002612200019N0150001N1+02701+01821101251ADDGA1011+009009089GF102991011011012501001011MA1999999093781MD1999999-0081REMSYN082AAXX  18154 41396 42665 21805 10270 20182 39378 40125 81101 333 59008 81830 82070;
0197413960999992000111818004+15980+048940FM-12+070099999V0201801N002612200019N0150001N1+02501+01881101491ADDGA1031+024009099GF103991031999999999031001KA1120M+03201MA1999999094021MD1999999+0021REMSYN082AAXX  18184 41396 42965 31805 10250 20188 39402 40149 83030 333 10320 58002 83158;EQDQ01    003SCOLCG
0166413960999992000111906004+15980+048940FM-12+070099999V0209999C000012200019N0150001N1+02541+01961101791ADDGA1001+999999999GF100991001001999999001001KA1120N+01651MA1999999094301MD1999999+0041REMSYN070AAXX  19064 41396 42965 00000 10254 20196 39430 40179 333 20165 58004;
0126413960999992000111909004+15980+048940FM-12+070099999V0200301N003612200019N0150001N1+02941+01981101511ADDGA1001+999999999GF100991001001999999001001MD1999999+0091REMSYN058AAXX  19094 41396 42965 00307 10294 20198 40151 333 58009;
0138413960999992000111915004+15980+048940FM-12+070099999V0209999C000012200019N0200001N1+02701+01661101401ADDGA1011+010509029GF101991011011012501001001MD1999999+0151REMSYN070AAXX  19154 41396 42670 10000 10270 20166 40140 81100 333 58015 81835;
0166413960999992000111918004+15980+048940FM-12+070099999V0209999C000012200019N0200001N1+02281+01581101601ADDGA1001+999999999GF100991001001999999001001KA1120M+03121MA1999999094131MD1999999+0101REMSYN070AAXX  19184 41396 42970 00000 10228 20158 39413 40160 333 10312 58010;
0178413960999992000112006004+15980+048940FM-12+070099999V0209999C000012200019N0120001N1+02501+01981101881ADDGA1031+013509059GF103991031051012501001001KA1120N+01651MA1999999094371MD1999999+0071REMSYN082AAXX  20064 41396 42662 30000 10250 20198 39437 40188 83500 333 20165 58007 83645;
0159413960999992000112009004+15980+048940FM-12+070099999V0200501N002612200019N0150001N1+02921+01861101711ADDGA1011+009009029GF101991011011012501001001MA1999999094221MD1999999+0181REMSYN076AAXX  20094 41396 42665 10505 10292 20186 39422 40171 81100 333 58018 81830;
0147413960999992000112015004+15980+048940FM-12+070099999V0209999C000012200019N0150001N1+02641+01551101481ADDGA1001+999999999GF100991001001999999001001MA1999999094011MD1999999+0081REMSYN064AAXX  20154 41396 42965 00000 10264 20155 39401 40148 333 58008;
0166413960999992000112018004+15980+048940FM-12+070099999V0209999C000012200019N0150001N1+02141+01491101671ADDGA1001+999999999GF100991001001999999001001KA1120M+03071MA1999999094201MD1999999+0071REMSYN070AAXX  20184 41396 42965 00000 10214 20149 39420 40167 333 10307 58007;
0166413960999992000112106004+15980+048940FM-12+070099999V0200901N002612200019N0150001N1+02521+01801101851ADDGA1001+999999999GF100991001001999999001001KA1120N+01401MA1999999094341MD1999999-0031REMSYN070AAXX  21064 41396 42965 00905 10252 20180 39434 40185 333 20140 59003;
0147413960999992000112109004+15980+048940FM-12+070099999V0200701N003612200019N0100001N1+03001+02031101591ADDGA1001+999999999GF100991001001999999001001MA1999999094101MD1999999-0121REMSYN064AAXX  21094 41396 42960 00707 10300 20203 39410 40159 333 59012;
0147413960999992000112115004+15980+048940FM-12+070099999V0209999C000012200019N0150001N1+02751+01521101381ADDGA1001+999999999GF100991001001999999001001MA1999999093911MD1999999-0101REMSYN064AAXX  21154 41396 42965 00000 10275 20152 39391 40138 333 59010;
0182413960999992000112121004+15980+048940FM-12+070099999V0209999C000012200019N0150001N1+01901+01371101571ADDGA1001+999999999GF100991001001999999001001MA1999999999999MD1999999-0011REMSYN064AAXX  21214 41396 42965 00000 10190 20137 39049 40157 333 59001;EQDQ01+090493APOSP Q02 090493APOSP 
0147413960999992000112209004+15980+048940FM-12+070099999V0200301N005112200019N0150001N1+03061+01121101571ADDGA1001+999999999GF100991001001999999001001MA1999999094101MD1999999+0001REMSYN064AAXX  22094 41396 42965 00310 10306 20112 39410 40157 333 58000;
0177413960999992000112212004+15980+048940FM-12+070099999V0203601N002612200019N0150001N1+03251+01521101341ADDAA199000091GA1001+999999999GF100991001001999999001001MA1999999093871MD1999999+0011REMSYN064AAXX  22124 41396 32965 03605 10325 20152 39387 40134 333 58001;EQDQ01  00002PRCP99
0131413960999992000112215004+15980+048940FM-12+070099999V0209999C000012200019N0150001N1+02601+01641101431ADDGF101991999999999999999999MA1999999093961MD1999999+0051REMSYN064AAXX  22154 41396 42965 10000 10260 20164 39396 40143 333 58005;
0166413960999992000112218004+15980+048940FM-12+070099999V0209999C000012200019N0150001N1+02251+01301101651ADDGA1001+999999999GF100991001001999999001001KA1120M+03261MA1999999094181MD1999999+0101REMSYN070AAXX  22184 41396 42965 00000 10225 20130 39418 40165 333 10326 58010;
0147413960999992000112221004+15980+048940FM-12+070099999V0209999C000012200019N0150001N1+01821+01371101721ADDGA1001+999999999GF100991001001999999001001MA1999999094211MD1999999+0121REMSYN064AAXX  22214 41396 42965 00000 10182 20137 39421 40172 333 58012;
0178413960999992000112306004+15980+048940FM-12+070099999V0209999C000012200019N0200001N1+02481+01711101971ADDGA1011+060009019GF101991001001999999001011KA1120N+01401MA1999999094461MD1999999+0161REMSYN082AAXX  23064 41396 42970 10000 10248 20171 39446 40197 80001 333 20140 58016 81070;
0159413960999992000112309004+15980+048940FM-12+070099999V0209999C000012200019N0200001N1+03051+01721101781ADDGA1021+060009019GF102991001001999999001011MA1999999094291MD1999999+0191REMSYN076AAXX  23094 41396 42970 20000 10305 20172 39429 40178 80001 333 58019 82070;
0183413960999992000112312004+15980+048940FM-12+070099999V0200501N002612200019N0200001N1+03281+01521101481ADDAA199000091GA1021+060009019GF102991999999999999999999MA1999999094011MD1999999+0141REMSYN070AAXX  23124 41396 32970 20505 10328 20152 39401 40148 333 58014 82070;EQDQ01  00002PRCP99
0166413960999992000112318004+15980+048940FM-12+070099999V0209999C000012200019N0200001N1+02421+01421101761ADDGA1001+999999999GF100991001001999999001001KA1120M+03301MA1999999094291MD1999999+0111REMSYN070AAXX  23184 41396 42970 00000 10242 20142 39429 40176 333 10330 58011;
0147413960999992000112321004+15980+048940FM-12+070099999V0209999C000012200019N0200001N1+01911+01521101861ADDGA1001+999999999GF100991001001999999001001MA1999999094351MD1999999+0141REMSYN064AAXX  23214 41396 42970 00000 10191 20152 39435 40186 333 58014;
0166413960999992000112406004+15980+048940FM-12+070099999V0209999C000012200019N0150001N1+02401+01761102151ADDGA1001+999999999GF100991001001999999001001KA1120N+01531MA1999999094651MD1999999+0191REMSYN070AAXX  24064 41396 42965 00000 10240 20176 39465 40215 333 20153 58019;
0147413960999992000112409004+15980+048940FM-12+070099999V0200901N002612200019N0200001N1+03021+01781101771ADDGA1001+999999999GF100991001001999999001001MA1999999094301MD1999999+0011REMSYN064AAXX  24094 41396 42970 00905 10302 20178 39430 40177 333 58001;
0177413960999992000112412004+15980+048940FM-12+070099999V0200901N002612200019N0200001N1+03201+01621101571ADDAA199000091GA1001+999999999GF100991001001999999001001MA1999999094091MD1999999+0081REMSYN064AAXX  24124 41396 32970 00905 10320 20162 39409 40157 333 58008;EQDQ01  00002PRCP99
0147413960999992000112415004+15980+048940FM-12+070099999V0200701N002612200019N0200001N1+02751+01351101671ADDGA1001+999999999GF100991001001999999001001MA1999999094201MD1999999+0091REMSYN064AAXX  24154 41396 42970 00705 10275 20135 39420 40167 333 58009;
0166413960999992000112506004+15980+048940FM-12+070099999V0209999C000012200019N0200001N1+02391+01771102151ADDGA1001+999999999GF100991001001999999001001KA1120N+01291MA1999999094641MD1999999-0011REMSYN070AAXX  25064 41396 42970 00000 10239 20177 39464 40215 333 20129 59001;
0126413960999992000112509004+15980+048940FM-12+070099999V0209999C000012200019N0200001N1+02951+01491101951ADDGA1001+999999999GF100991001001999999001001MD1999999+0151REMSYN058AAXX  25094 41396 42970 00000 10295 20149 40195 333 58015;
0168413960999992000112512004+15980+048940FM-12+070099999V0209999C000012200019N0200001N1+03161+01211101731ADDAA199000091GA1011+060009019GF101991001001999999001011MD1999999+0221REMSYN070AAXX  25124 41396 32970 10000 10316 20121 40173 80001 333 58022 81070;EQDQ01  00002PRCP99
0138413960999992000112515004+15980+048940FM-12+070099999V0200601N002612200019N0200001N1+02571+01231101771ADDGA1011+060009019GF101991001001999999001011MD1999999+0151REMSYN070AAXX  25154 41396 42970 10605 10257 20123 40177 80001 333 58015 81070;
0166413960999992000112606004+15980+048940FM-12+070099999V0209999C000012200019N0200001N1+02341+01141102181ADDGA1001+999999999GF100991001001999999001001KA1120N+01061MA1999999094631MD1999999-0011REMSYN070AAXX  26064 41396 42970 00000 10234 20114 39463 40218 333 20106 59001;
0147413960999992000112609004+15980+048940FM-12+070099999V0200501N003612200019N0200001N1+03001+01701101931ADDGA1001+999999999GF100991001001999999001001MA1999999094421MD1999999-0031REMSYN064AAXX  26094 41396 42970 00507 10300 20170 39442 40193 333 59003;
0177413960999992000112612004+15980+048940FM-12+070099999V0201201N002612200019N0200001N1+03171+01821101751ADDAA199000091GA1001+999999999GF100991001001999999001001MA1999999094251MD1999999+0011REMSYN064AAXX  26124 41396 32970 01205 10317 20182 39425 40175 333 58001;EQDQ01  00002PRCP99
0147413960999992000112615004+15980+048940FM-12+070099999V0209999C000012200019N0200001N1+02701+01661101791ADDGA1001+999999999GF100991001001999999001001MA1999999094291MD1999999+0001REMSYN064AAXX  26154 41396 42970 00000 10270 20166 39429 40179 333 58000;
0166413960999992000112618004+15980+048940FM-12+070099999V0209999C000012200019N0200001N1+01981+01321101931ADDGA1001+999999999GF100991001001999999001001KA1120M+03181MA1999999094441MD1999999+0011REMSYN070AAXX  26184 41396 42970 00000 10198 20132 39444 40193 333 10318 58001;
0147413960999992000112621004+15980+048940FM-12+070099999V0209999C000012200019N0200001N1+01671+01181101941ADDGA1001+999999999GF100991001001999999001001MA1999999094431MD1999999+0001REMSYN064AAXX  26214 41396 42970 00000 10167 20118 39443 40194 333 58000;
0141413960999992000112709004+15980+048940FM-12+070099999V0200501N005112200019N0200001N1+02951+01751999999ADDGA1001+999999999GF100991001001999999001001MA1999999094561MD1999999+0141REMSYN058AAXX  27094 41396 42970 00510 10295 20175 39456 333 58014;
0177413960999992000112712004+15980+048940FM-12+070099999V0200801N002612200019N0200001N1+03051+01571101841ADDAA199000091GA1001+999999999GF100991001001999999001001MA1999999094371MD1999999+0101REMSYN064AAXX  27124 41396 32970 00805 10305 20157 39437 40184 333 58010;EQDQ01  00002PRCP99
0147413960999992000112721004+15980+048940FM-12+070099999V0209999C000012200019N0200001N1+01841+01231102041ADDGA1001+999999999GF100991001001999999001001MA1999999094551MD1999999+0121REMSYN064AAXX  27214 41396 42970 00000 10184 20123 39455 40204 333 58012;
0159413960999992000112809004+15980+048940FM-12+070099999V0201001N003612200019N0250001N1+02951+01791101971ADDGA1021+030009079GF102991021001999999031001MA1999999094461MD1999999-0101REMSYN076AAXX  28094 41396 42975 21007 10295 20179 39446 40197 82030 333 59010 82360;
0189413960999992000112812004+15980+048940FM-12+070099999V0200901N004112200019N0250001N1+03061+01701101711ADDAA199000091GA1021+030009079GF102991021001999999031001MA1999999094231MD1999999-0121REMSYN076AAXX  28124 41396 32975 20908 10306 20170 39423 40171 82030 333 59012 82360;EQDQ01  00002PRCP99
0166413960999992000112818004+15980+048940FM-12+070099999V0209999C000012200019N0250001N1+02021+01481101921ADDGA1001+999999999GF100991001001999999001001KA1120M+03071MA1999999094431MD1999999-0101REMSYN070AAXX  28184 41396 42975 00000 10202 20148 39443 40192 333 10307 59010;
0147413960999992000112821004+15980+048940FM-12+070099999V0209999C000012200019N0250001N1+02041+01521101901ADDGA1001+999999999GF100991001001999999001001MA1999999094411MD1999999-0141REMSYN064AAXX  28214 41396 42975 00000 10204 20152 39441 40190 333 59014;
0178413960999992000112903004+15980+048940FM-12+070099999V0200501N002112200019N0200001N1+01731+01221102031ADDGA1021+024009079GF102991021999999999031001MA1999999094541MD1999999-0071REMSYN076AAXX  29034 41396 42970 20504 10173 20122 39454 40203 82030 333 59007 82358;EQDQ01    003SCOLCG
0178413960999992000112906004+15980+048940FM-12+070099999V0200601N003112200019N0200001N1+02451+01601102161ADDGA1031+060009019GF103991001001999999001011KA1120N+01691MA1999999094611MD1999999-0031REMSYN082AAXX  29064 41396 42970 30606 10245 20160 39461 40216 80001 333 20169 59003 83070;
0147413960999992000112909004+15980+048940FM-12+070099999V0200301N006212200019N0200001N1+02811+01511101901ADDGA1001+999999999GF100991001001999999001001MA1999999094411MD1999999-0051REMSYN064AAXX  29094 41396 42970 00312 10281 20151 39441 40190 333 59005;
0166413960999992000112918004+15980+048940FM-12+070099999V0209999C000012200019N0100001N1+02001+01091101941ADDGA1001+999999999GF100991001001999999001001KA1120M+02961MA1999999094451MD1999999+0021REMSYN070AAXX  29184 41396 42960 00000 10200 20109 39445 40194 333 10296 58002;
0147413960999992000112921004+15980+048940FM-12+070099999V0209999C000012200019N0200001N1+01501+00921101941ADDGA1001+999999999GF100991001001999999001001MA1999999094431MD1999999+0021REMSYN064AAXX  29214 41396 42970 00000 10150 20092 39443 40194 333 58002;
0143413960999992000113009004+15980+048940FM-12+070099999V0200801N004112200019N0200001N1+02781+01511101991ADDGA1001+999999999GF100991001001999999001001MA1999999094481MD1810071+9999REMSYN060AAXX  30094 41396 42970 00808 10278 20151 39448 40199 58007;
0166413960999992000113018004+15980+048940FM-12+070099999V0209999C000012200019N0200001N1+01961+01321101931ADDGA1001+999999999GF100991001001999999001001KA1120M+02941MA1999999094441MD1999999-0011REMSYN070AAXX  30184 41396 42970 00000 10196 20132 39444 40193 333 10294 59001;
0147413960999992000113021004+15980+048940FM-12+070099999V0209999C000012200019N0200001N1+01621+01221101951ADDGA1001+999999999GF100991001001999999001001MA1999999094461MD1999999+0031REMSYN064AAXX  30214 41396 42970 00000 10162 20122 39446 40195 333 58003;
0159413960999992000120109004+15980+048940FM-12+070099999V0201401N002612200019N0200001N1+02781+01681101901ADDGA1021+060009019GF102991001001999999001011MA1999999094391MD1999999-0091REMSYN076AAXX  01094 41396 42970 21405 10278 20168 39439 40190 80001 333 59009 82070;
0189413960999992000120112004+15980+048940FM-12+070099999V0209999C000012200019N0250001N1+03001+01661101671ADDAA199000091GA1021+060009019GF102991001001999999001011MA1999999094161MD1999999-0091REMSYN076AAXX  01124 41396 32975 20000 10300 20166 39416 40167 80001 333 59009 82070;EQDQ01  00002PRCP99
0166413960999992000120118004+15980+048940FM-12+070099999V0200801N002112200019N0250001N1+02121+01461101841ADDGA1001+999999999GF100991001001999999001001KA1120M+03001MA1999999094331MD1999999-0111REMSYN070AAXX  01184 41396 42975 00804 10212 20146 39433 40184 333 10300 59011;
0147413960999992000120121004+15980+048940FM-12+070099999V0209999C000012200019N0250001N1+01691+01261101841ADDGA1001+999999999GF100991001001999999001001MA1999999094331MD1999999-0131REMSYN064AAXX  01214 41396 42975 00000 10169 20126 39433 40184 333 59013;
0166413960999992000120206004+15980+048940FM-12+070099999V0209999C000012200019N9999999N1+02201+01561102051ADDGA1001+999999999GF100991001001999999001001KA1120N+01181MA1999999094541MD1999999-0111REMSYN070AAXX  02064 41396 42955 00000 10220 20156 39454 40205 333 20118 59011;
0147413960999992000120209004+15980+048940FM-12+070099999V0209999C000012200019N9999999N1+02731+01791101821ADDGA1001+999999999GF100991001001999999001001MA1999999094311MD1999999-0081REMSYN064AAXX  02094 41396 42955 00000 10273 20179 39431 40182 333 59008;
0177413960999992000120212004+15980+048940FM-12+070099999V0200901N002612200019N0250001N1+02991+01561101611ADDAA199000091GA1001+999999999GF100991001001999999001001MA1999999094101MD1999999-0061REMSYN064AAXX  02124 41396 32975 00905 10299 20156 39410 40161 333 59006;EQDQ01  00002PRCP99
0166413960999992000120306004+15980+048940FM-12+070099999V0209999C000012200019N0200001N1+02331+01811102101ADDGA1001+999999999GF100991001001999999001001KA1120N+01061MA1999999094571MD1999999+0031REMSYN070AAXX  03064 41396 42970 00000 10233 20181 39457 40210 333 20106 58003;
0147413960999992000120309004+15980+048940FM-12+070099999V0200601N002612200019N0200001N1+02781+01781101861ADDGA1001+999999999GF100991001001999999001001MA1999999094351MD1999999+0041REMSYN064AAXX  03094 41396 42970 00605 10278 20178 39435 40186 333 58004;
0161413960999992000120312004+15980+048940FM-12+070099999V0200501N003612200019N0200001N1+02901+01621101671ADDAA199000091GF101991999999999999999999MA1999999094161MD1999999+0061REMSYN064AAXX  03124 41396 32970 10507 10290 20162 39416 40167 333 58006;EQDQ01  00002PRCP99
0166413960999992000120318004+15980+048940FM-12+070099999V0209999C000012200019N0200001N1+01911+01371101911ADDGA1001+999999999GF100991001001999999001001KA1120M+02941MA1999999094401MD1999999+0041REMSYN070AAXX  03184 41396 42970 00000 10191 20137 39440 40191 333 10294 58004;
0194413960999992000120321004+15980+048940FM-12+070099999V0209999C000012200019N0200001N1+01651+01191101881ADDGA1031+060009019GF199999001001999999001999MA1999999094371MD1999999+0011REMSYN076AAXX  03214 41396 42970 00000 10165 20119 39437 40188 80001 333 58001 83070;EQDQ01+000002SCOTCVQ02+000002SCOHCG
0178413960999992000120406004+15980+048940FM-12+070099999V0209999C000012200019N0200001N1+02281+01701102061ADDGA1011+060009019GF101991001001999999001011KA1120N+01181MA1999999094551MD1999999-0021REMSYN082AAXX  04064 41396 42970 10000 10228 20170 39455 40206 80001 333 20118 59002 81070;
0159413960999992000120409004+15980+048940FM-12+070099999V0200301N003612200019N0200001N1+02711+01661101861ADDGA1011+060009019GF101991001001999999001011MA1999999094351MD1999999+0001REMSYN076AAXX  04094 41396 42970 10307 10271 20166 39435 40186 80001 333 58000 81070;
0189413960999992000120412004+15980+048940FM-12+070099999V0200901N002612200019N0100001N1+02951+01591101621ADDAA199000091GA1011+060009019GF101991001001999999001011MA1999999094111MD1999999-0051REMSYN076AAXX  04124 41396 32960 10905 10295 20159 39411 40162 80001 333 59005 81070;EQDQ01  00002PRCP99
0166413960999992000120418004+15980+048940FM-12+070099999V0209999C000012200019N0250001N1+02091+01431101881ADDGA1001+999999999GF100991001001999999001001KA1120M+02951MA1999999094371MD1999999-0031REMSYN070AAXX  04184 41396 42975 00000 10209 20143 39437 40188 333 10295 59003;
0182413960999992000120421004+15980+048940FM-12+070099999V0209999C000012200019N0250001N1+01671+01221999999ADDGA1001+999999999GF100991001001999999001001MA1999999094351MD1999999-0011REMSYN064AAXX  04214 41396 42975 00000 10167 20122 39435 49186 333 59001;EQDQ01+091863APOSLPQ02 091863APOSLP
0178413960999992000120506004+15980+048940FM-12+070099999V0209999C000012200019N0200001N1+02491+01701102101ADDGA1011+030009079GF101991011001999999031001KA1120N+01351MA1999999094571MD1999999+0021REMSYN082AAXX  05064 41396 42970 10000 10249 20170 39457 40210 81030 333 20135 58002 81360;
0159413960999992000120509004+15980+048940FM-12+070099999V0209999C000012200019N0200001N1+02941+01791101851ADDGA1011+012009029GF101991011011999999001011MA1999999094331MD1999999-0021REMSYN076AAXX  05094 41396 42970 10000 10294 20179 39433 40185 81101 333 59002 81840;
0166413960999992000120606004+15980+048940FM-12+070099999V0203601N002112200019N0200001N1+02551+01491102091ADDGA1001+999999999GF100991001001999999001001KA1120N+01491MA1999999094571MD1999999+0001REMSYN070AAXX  06064 41396 42970 03604 10255 20149 39457 40209 333 20149 58000;
0159413960999992000120609004+15980+048940FM-12+070099999V0209999C000012200019N0200001N1+03001+02061101771ADDGA1011+030009079GF102991011001999999031011MA1999999094261MD1999999-0071REMSYN076AAXX  06094 41396 42970 20000 10300 20206 39426 40177 81031 333 59007 81360;
0184413960999992000120618004+15980+048940FM-12+070099999V0201301N003612200019N0200001N1+02341+01681101821ADDGA1011+010509089GF103991011011012501031001KA1120M+03131MA1999999094331MD1999999+0031REMSYN088AAXX  06184 41396 42670 31307 10234 20168 39433 40182 81130 333 10313 58003 81835 83362;
0159413960999992000120621004+15980+048940FM-12+070099999V0200901N002612200019N0100001N1+02301+01261101841ADDGA1031+036009079GF103991031001999999031001MA1999999094351MD1999999+0061REMSYN076AAXX  06214 41396 42960 30905 10230 20126 39435 40184 83030 333 58006 83362;
0184413960999992000120706004+15980+048940FM-12+070099999V0209999C000012200019N0250001N1+02501+01451102021ADDGA1011+010509089GF103991011081012501001011KA1120N+01461MA1999999094511MD1999999-0061REMSYN088AAXX  07064 41396 42675 30000 10250 20145 39451 40202 81801 333 20146 59006 81835 83070;
0195413960999992000120712004+15980+048940FM-12+070099999V0209999C000012200019N0200001N1+03001+01971101501ADDAA199000091GA1021+009009089GF106991021081012501001011MA1999999094011MD1999999-0041REMSYN082AAXX  07124 41396 32670 60000 10300 20197 39401 40150 82801 333 59004 82830 86030;EQDQ01  00002PRCP99
0178413960999992000120718004+15980+048940FM-12+070099999V0200601N002612200019N0200001N1+02401+01851101701ADDGA1031+060009019GF103991001001999999001011KA1120M+03071MA1999999094211MD1999999-0121REMSYN082AAXX  07184 41396 42970 30605 10240 20185 39421 40170 80001 333 10307 59012 83070;
0195413960999992000120812004+15980+048940FM-12+070099999V0200301N00461220001CN0200001N1+03161+01841101381ADDAA199000091GA1011+009009089GF105991011011012501001011MA1999999093891MD1999999-0121REMSYN082AAXX  08124 41396 32670 50309 10316 20184 39389 40138 81101 333 59012 81830 85070;EQDQ01  00002PRCP99
0166413960999992000120818004+15980+048940FM-12+070099999V0209999C000012200019N0200001N1+02511+01801101641ADDGA1001+999999999GF100991001001999999001001KA1120M+03221MA1999999094151MD1999999-0061REMSYN070AAXX  08184 41396 42970 00000 10251 20180 39415 40164 333 10322 59006;
0147413960999992000120821004+15980+048940FM-12+070099999V0209999C000012200019N0200001N1+02001+01401101661ADDGA1001+999999999GF100991001001999999001001MA1999999094161MD1999999-0101REMSYN064AAXX  08214 41396 42970 00000 10200 20140 39416 40166 333 59010;
0178413960999992000120906004+15980+048940FM-12+070099999V0209999C000012200019N0200001N1+02401+01381101761ADDGA1011+060009019GF101991001001999999001011KA1120N+01551MA1999999094271MD1999999-0141REMSYN082AAXX  09064 41396 42970 10000 10240 20138 39427 40176 80001 333 20155 59014 81070;
0159413960999992000120909004+15980+048940FM-12+070099999V0209999C000012200019N0200001N1+03001+01341101441ADDGA1011+060009019GF101991001001999999001011MA1999999093951MD1999999-0211REMSYN076AAXX  09094 41396 42970 10000 10300 20134 39395 40144 80001 333 59021 81070;
0189413960999992000120912004+15980+048940FM-12+070099999V0200501N002612200019N0200001N1+03271+00841101121ADDAA199000091GA1011+060009019GF101991001001999999001011MA1999999093651MD1999999-0241REMSYN076AAXX  09124 41396 32970 10505 10327 20084 39365 40112 80001 333 59024 81070;EQDQ01  00002PRCP99
0178413960999992000120918004+15980+048940FM-12+070099999V0209999C000012200019N0200001N1+02421+01111101581ADDGA1011+060009019GF101991001001999999001011KA1120M+03291MA1999999094091MD1999999-0061REMSYN082AAXX  09184 41396 42970 10000 10242 20111 39409 40158 80001 333 10329 59006 81070;
0147413960999992000120921004+15980+048940FM-12+070099999V0209999C000012200019N0200001N1+01851+01121101501ADDGA1001+999999999GF100991001001999999001001MA1999999094011MD1999999-0051REMSYN064AAXX  09214 41396 42970 00000 10185 20112 39401 40150 333 59005;
0159413960999992000121009004+15980+048940FM-12+070099999V0200901N001512200019N0200001N1+02891+01091101421ADDGA1031+060009019GF103991001001999999001011MA1999999093931MD1999999-0021REMSYN076AAXX  10094 41396 42970 30903 10289 20109 39393 40142 80001 333 59002 83070;
0189413960999992000121012004+15980+048940FM-12+070099999V0200901N002612200019N0200001N1+03301+00801101171ADDAA199000091GA1021+060009019GF102991001001999999001011MA1999999093681MD1999999+0031REMSYN076AAXX  10124 41396 32970 20905 10330 20080 39368 40117 80001 333 58003 82070;EQDQ01  00002PRCP99
0178413960999992000121015004+15980+048940FM-12+070099999V0201801N002612200019N0200001N1+02951+99999101241ADDGA1031+060009019GF103991001001999999001011MA1999999093751MD1999999-0101REMSYN076AAXX  10154 41396 42970 31805 10295 20295 39375 40124 80001 333 59010 83070;EQDQ01+002953ATOD  
0156413960999992000121018004+15980+048940FM-12+070099999V0209999C000012200019N0200001N1+02401+01391101521ADDGF102991001001999999001011KA1120M+03301MA1999999094031MD1999999-0061REMSYN076AAXX  10184 41396 42970 20000 10240 20139 39403 40152 80001 333 10330 59006;
0147413960999992000121021004+15980+048940FM-12+070099999V0209999C000012200019N0200001N1+01991+01501101491ADDGA1001+999999999GF100991001001999999001001MA1999999094001MD1999999-0011REMSYN064AAXX  10214 41396 42970 00000 10199 20150 39400 40149 333 59001;
0178413960999992000121106004+15980+048940FM-12+070099999V0209999C000012200019N0250001N1+02371+01681101821ADDGA1021+060009019GF102991001001999999001011KA1120N+01381MA1999999094311MD1999999+0121REMSYN082AAXX  11064 41396 42975 20000 10237 20168 39431 40182 80001 333 20138 58012 82070;
0159413960999992000121109004+15980+048940FM-12+070099999V0209999C000012200019N0250001N1+02851+01751101621ADDGA1011+060009019GF101991001001999999001011MA1999999094111MD1999999+0171REMSYN076AAXX  11094 41396 42975 10000 10285 20175 39411 40162 80001 333 58017 81070;
0167413960999992000121112004+15980+048940FM-12+070099999V0209999C000012200019N0250001N1+03121+01781101401ADDAA199000091GF101991001001999999001011MA1999999093911MD1999999-0231REMSYN070AAXX  11124 41396 32975 10000 10312 20178 39391 40140 80001 333 59023;EQDQ01  00002PRCP99
0147413960999992000121209004+15980+048940FM-12+070099999V0200601N002612200019N0100001N1+02561+01531101821ADDGA1001+999999999GF100991001001999999001001MA1999999094331MD1999999+0221REMSYN064AAXX  12094 41396 42960 00605 10256 20153 39433 40182 333 58022;
0147413960999992000121221004+15980+048940FM-12+070099999V0209999C000012200019N0150001N1+02001+01331101791ADDGA1001+999999999GF100991001001999999001001MA1999999094301MD1999999+0071REMSYN064AAXX  12214 41396 42965 00000 10200 20133 39430 40179 333 58007;
0178413960999992000121306004+15980+048940FM-12+070099999V0200701N003612200019N0200001N1+02271+01561101971ADDGA1021+045009079GF102991021001999999031001KA1120N+01431MA1999999094441MD1999999-0151REMSYN082AAXX  13064 41396 42970 20707 10227 20156 39444 40197 82030 333 20143 59015 82365;
0147413960999992000121309004+15980+048940FM-12+070099999V0200701N003612200019N0200001N1+02671+01871101711ADDGA1001+999999999GF100991001001999999001001MA1999999094201MD1999999-0131REMSYN064AAXX  13094 41396 42970 00707 10267 20187 39420 40171 333 59013;
0177413960999992000121312004+15980+048940FM-12+070099999V0200901N002612200019N0100001N1+02901+01851101491ADDAA199000091GA1001+999999999GF100991001001999999001001MA1999999094001MD1999999-0151REMSYN064AAXX  13124 41396 32960 00905 10290 20185 39400 40149 333 59015;EQDQ01  00002PRCP99
0166413960999992000121318004+15980+048940FM-12+070099999V0209999C000012200019N0200001N1+02441+01981101711ADDGA1001+999999999GF100991001001999999001001KA1120M+02921MA1999999094221MD1999999-0091REMSYN070AAXX  13184 41396 42970 00000 10244 20198 39422 40171 333 10292 59009;
0147413960999992000121321004+15980+048940FM-12+070099999V0209999C000012200019N0200001N1+01971+01711101701ADDGA1001+999999999GF100991001001999999001001MA1999999094211MD1999999-0091REMSYN064AAXX  13214 41396 42970 00000 10197 20171 39421 40170 333 59009;
0166413960999992000121406004+15980+048940FM-12+070099999V0209999C000012200019N0150001N1+02331+01671101871ADDGA1001+999999999GF100991001001999999001001KA1120N+01501MA1999999094361MD1999999-0081REMSYN070AAXX  14064 41396 42965 00000 10233 20167 39436 40187 333 20150 59008;
0159413960999992000121509004+15980+048940FM-12+070099999V0209999C000012200019N0200001N1+02851+01421101431ADDGA1021+075009019GF102991001001999999001011MA1999999093931MD1999999-0091REMSYN076AAXX  15094 41396 42970 20000 10285 20142 39393 40143 80001 333 59009 82075;
0205413960999992000121512004+15980+048940FM-12+070099999V0209999C000012200019N0200001N1+03201+01521101321ADDAA199000091GA1031+060009019GF103991001001999999001011MA1999999093831MD1999999+0071REMSYN076AAXX  15124 41396 32470 30000 10320 20152 39383 40132 80001 333 58007 83070;EQDQ01+004502SCOLCBQ02  00002PRCP99
0178413960999992000121518004+15980+048940FM-12+070099999V0200301N006212200019N0200001N1+02631+01791101771ADDGA1031+060009019GF103991001001999999001011KA1120M+03271MA1999999094281MD1999999+0191REMSYN082AAXX  15184 41396 42970 30312 10263 20179 39428 40177 80001 333 10327 58019 83070;
0178413960999992000121521004+15980+048940FM-12+070099999V0200301N005112200019N0200001N1+02201+01721101811ADDGA1051+060009019GF199999001001999999001011MA1999999094321MD1999999+0191REMSYN076AAXX  15214 41396 42970 40310 10220 20172 39432 40181 80001 333 58019 85070;EQDQ01+000042SCOTCV
0184413960999992000121606004+15980+048940FM-12+070099999V0200101N004612200019N0120001N1+02151+01751102251ADDGA1011+007509089GF104991011011008001001011KA1120N+01871MA1999999094701MD1999999+0581REMSYN088AAXX  16064 41396 42562 40109 10215 20175 39470 40225 81101 333 20187 58058 81825 84075;
0165413960999992000121609004+15980+048940FM-12+070099999V0200901N00621220001CN0120001N1+02481+01731102041ADDGA1011+009009089GF105991011011008001001081MA1999999094521MD1999999+0591REMSYN082AAXX  16094 41396 42562 50912 10248 20173 39452 40204 81108 333 58059 81830 85075;
0159413960999992000121703004+15980+048940FM-12+070099999V0200301N003612200019N0200001N1+02281+01371102371ADDGA1041+060009019GF104991001001999999001011MA1999999094831MD1999999+0311REMSYN076AAXX  17034 41396 42970 40307 10228 20137 39483 40237 80001 333 58031 84070;
0159413960999992000121709004+15980+048940FM-12+070099999V0200301N003612200019N0200001N1+02281+01371102371ADDGA1041+060009019GF104991001001999999001011MA1999999094831MD1999999+0311REMSYN076AAXX  17094 41396 42970 40307 10228 20137 39483 40237 80001 333 58031 84070;
0178413960999992000121718004+15980+048940FM-12+070099999V0200701N004112200019N0200001N1+01841+01231102421ADDGA1011+060009019GF101991001001999999001011KA1120M+02541MA1999999094891MD1999999+0041REMSYN082AAXX  17184 41396 42970 10708 10184 20123 39489 40242 80001 333 10254 58004 81070;
0147413960999992000121721004+15980+048940FM-12+070099999V0200501N003112200019N0200001N1+01601+00861102481ADDGA1001+999999999GF100991001001999999001001MA1999999094831MD1999999+0081REMSYN064AAXX  17214 41396 42970 00506 10160 20086 39483 40248 333 58008;
0166413960999992000121806004+15980+048940FM-12+070099999V0209999C000012200019N0200001N1+01721+00921102631ADDGA1001+999999999GF100991001001999999001001KA1120N+00801MA1999999095081MD1999999-0041REMSYN070AAXX  18064 41396 42970 00000 10172 20092 39508 40263 333 20080 59004;
0147413960999992000121809004+15980+048940FM-12+070099999V0209999C000012200019N0200001N1+02181+01251102311ADDGA1001+999999999GF100991001001999999001001MA1999999094761MD1999999-0071REMSYN064AAXX  18094 41396 42970 00000 10218 20125 39476 40231 333 59007;
0147413960999992000121821004+15980+048940FM-12+070099999V0200901N002612200019N0200001N1+01401+00681102151ADDGA1001+999999999GF100991001001999999001001MA1999999094621MD1999999-0311REMSYN064AAXX  18214 41396 42970 00905 10140 20068 39462 40215 333 59031;
0147413960999992000121909004+15980+048940FM-12+070099999V0200901N001512200019N0250001N1+02301+01341102041ADDGA1001+999999999GF100991001001999999001001MA1999999094471MD1999999-0291REMSYN064AAXX  19094 41396 42975 00903 10230 20134 39447 40204 333 59029;
0166413960999992000122018004+15980+048940FM-12+070099999V0209999C000012200019N0200001N1+02051+01321101841ADDGA1001+999999999GF100991001001999999001001KA1120M+02911MA1999999094291MD1999999-0101REMSYN070AAXX  20184 41396 42970 00000 10205 20132 39429 40184 333 10291 59010;
0147413960999992000122021004+15980+048940FM-12+070099999V0209999C000012200019N0200001N1+01371+00941101841ADDGA1001+999999999GF100991001001999999001001MA1999999094281MD1999999-0071REMSYN064AAXX  20214 41396 42970 00000 10137 20094 39428 40184 333 59007;
0166413960999992000122106004+15980+048940FM-12+070099999V0209999C000012200019N0200001N1+02101+01151102051ADDGA1001+999999999GF100991001001999999001001KA1120N+00901MA1999999094501MD1999999-0071REMSYN070AAXX  21064 41396 42970 00000 10210 20115 39450 40205 333 20090 59007;
0177413960999992000122112004+15980+048940FM-12+070099999V0200901N002612200019N0200001N1+02901+01961101601ADDAA199000091GA1001+999999999GF100991001001999999001001MA1999999094051MD1999999+0001REMSYN064AAXX  21124 41396 32970 00905 10290 20196 39405 40160 333 58000;EQDQ01  00002PRCP99
0166413960999992000122118004+15980+048940FM-12+070099999V0209999C000012200019N0200001N1+02041+01271101821ADDGA1001+999999999GF100991001001999999001001KA1120M+02921MA1999999094271MD1999999-0021REMSYN070AAXX  21184 41396 42970 00000 10204 20127 39427 40182 333 10292 59002;
0166413960999992000122218004+15980+048940FM-12+070099999V0209999C000012200019N0250001N1+02021+01361101781ADDGA1001+999999999GF100991001001999999001001KA1120M+02891MA1999999094331MD1999999+0061REMSYN070AAXX  22184 41396 42975 00000 10202 20136 39433 40178 333 10289 58006;
0147413960999992000122221004+15980+048940FM-12+070099999V0209999C000012200019N0200001N1+01881+01301101841ADDGA1001+999999999GF100991001001999999001001MA1999999094291MD1999999-0011REMSYN064AAXX  22214 41396 42970 00000 10188 20130 39429 40184 333 59001;
0145413960999992000122306004+15980+048940FM-12+070099999V0209999C000012200019N0250001N1+02241+01391102041ADDGA1001+999999999GF100991001001999999001001KA1120N+00991MD1999999-0111REMSYN064AAXX  23064 41396 42975 00000 10224 20139 40204 333 20099 59011;
0126413960999992000122309004+15980+048940FM-12+070099999V0209999C000012200019N0200001N1+02691+01941101861ADDGA1001+999999999GF100991001001999999001001MD1999999-0081REMSYN058AAXX  23094 41396 42970 00000 10269 20194 40186 333 59008;
0147413960999992000122312004+15980+048940FM-12+070099999V0200301N002612200019N0250001N1+02871+01941101611ADDGA1001+999999999GF100991001001999999001001MA1999999094081MD1999999-0061REMSYN064AAXX  23124 41396 42975 00305 10287 20194 39408 40161 333 59006;
0178413960999992000122418004+15980+048940FM-12+070099999V0209999C000012200019N0200001N1+02121+01141101791ADDGA1041+060009019GF104991001001999999001011KA1120M+03041MA1999999094241MD1999999-0011REMSYN082AAXX  24184 41396 42970 40000 10212 20114 39424 40179 80001 333 10304 59001 84070;
0189413960999992000122512004+15980+048940FM-12+070099999V0209999C000012200019N0250001N1+03081+01701101531ADDAA199000091GA1021+060009019GF102991001001999999001011MA1999999094001MD1999999-0011REMSYN076AAXX  25124 41396 32975 20000 10308 20170 39400 40153 80001 333 59001 82070;EQDQ01  00002PRCP99
0166413960999992000122518004+15980+048940FM-12+070099999V0209999C000012200019N0250001N1+01881+00971101991ADDGA1001+999999999GF100991001001999999001001KA1120M+03101MA1999999094251MD1999999+0011REMSYN070AAXX  25184 41396 42975 00000 10188 20097 39425 40199 333 10310 58001;
0147413960999992000122521004+15980+048940FM-12+070099999V0209999C000012200019N0250001N1+01441+00861101841ADDGA1001+999999999GF100991001001999999001001MA1999999094271MD1999999+0051REMSYN064AAXX  25214 41396 42975 00000 10144 20086 39427 40184 333 58005;
0135413960999992000122612004+15980+048940FM-12+070099999V0209999C000019999999N0250001N1+03051+01521101651ADDAA199000091MA1999999094101MD1999999+0101REMSYN064AAXX  26124 41396 32975 /0000 10305 20152 39410 40165 333 58010;EQDQ01  00002PRCP99
0126413960999992000122621004+15980+048940FM-12+070099999V0209999C000012200019N0200001N1+01891+00741101961ADDGA1001+999999999GF100991001001999999001001MD1999999+0141REMSYN058AAXX  26214 41396 42970 00000 10189 20074 40196 333 58014;
0166413960999992000122706004+15980+048940FM-12+070099999V0209999C000012200019N0250001N1+02241+01171102301ADDGA1001+999999999GF100991001001999999001001KA1120N+00791MA1999999094751MD1999999+0201REMSYN070AAXX  27064 41396 42975 00000 10224 20117 39475 40230 333 20079 58020;
0147413960999992000122709004+15980+048940FM-12+070099999V0200901N003112200019N0250001N1+02621+01091102111ADDGA1001+999999999GF100991001001999999001001MA1999999094561MD1999999+0201REMSYN064AAXX  27094 41396 42975 00906 10262 20109 39456 40211 333 58020;
0177413960999992000122712004+15980+048940FM-12+070099999V0209999C000012200019N0250001N1+02901+01421101931ADDAA199000091GA1001+999999999GF100991001001999999001001MA1999999094381MD1999999+0281REMSYN064AAXX  27124 41396 32975 00000 10290 20142 39438 40193 333 58028;EQDQ01  00002PRCP99
0159413960999992000122718004+15980+048940FM-12+070099999V0209999C000012200019N0250001N1+02131+01191102151ADDGA1021+060009019GF102991001001999999001011MA1999999094601MD1999999+0211REMSYN076AAXX  27184 41396 42975 20000 10213 20119 39460 40215 80001 333 58021 82070;
0147413960999992000122809004+15980+048940FM-12+070099999V0209999C000012200019N0150001N1+02401+01481102181ADDGA1001+999999999GF100991001001999999001001MA1999999094611MD1999999+0051REMSYN064AAXX  28094 41396 42965 00000 10240 20148 39461 40218 333 58005;
0177413960999992000122812004+15980+048940FM-12+070099999V0201501N002612200019N0150001N1+02651+01511101911ADDAA199000091GA1001+999999999GF100991001001999999001001MA1999999094361MD1999999-0021REMSYN064AAXX  28124 41396 32965 01505 10265 20151 39436 40191 333 59002;EQDQ01  00002PRCP99
0147413960999992000122815004+15980+048940FM-12+070099999V0209999C000012200019N0200001N1+02221+01321101931ADDGA1001+999999999GF100991001001999999001001MA1999999094391MD1999999-0071REMSYN064AAXX  28154 41396 42970 00000 10222 20132 39439 40193 333 59007;
0159413960999992000122909004+15980+048940FM-12+070099999V0209999C000012200019N0200001N1+02301+01041102281ADDGA1021+060009019GF102991001001999999001011MA1999999094691MD1999999+0081REMSYN076AAXX  29094 41396 42970 20000 10230 20104 39469 40228 80001 333 58008 82070;
0138413960999992000123009004+15980+048940FM-12+070099999V0209999C000012200019N0200001N1+02191+01181102191ADDGA1021+060009019GF102991001001999999001011MD1999999-0071REMSYN070AAXX  30094 41396 42970 20000 10219 20118 40219 80001 333 59007 82070;
0168413960999992000123012004+15980+048940FM-12+070099999V0203601N004112200019N0200001N1+02351+01111101961ADDAA199000091GA1011+060009019GF101991001001999999001011MD1999999+0011REMSYN070AAXX  30124 41396 32970 13608 10235 20111 40196 80001 333 58001 81070;EQDQ01  00002PRCP99
0138413960999992000123015004+15980+048940FM-12+070099999V0200901N002612200019N0200001N1+02001+01101101971ADDGA1031+060009019GF103991001001999999001011MD1999999-0061REMSYN070AAXX  30154 41396 42970 30905 10200 20110 40197 80001 333 59006 83070;
0178413960999992000123106004+15980+048940FM-12+070099999V0209999C000012200019N0250001N1+01551+00501102431ADDGA1031+060009019GF103991001001999999001011KA1120N+00241MA1999999094841MD1999999+0001REMSYN082AAXX  31064 41396 42975 30000 10155 20050 39484 40243 80001 333 20024 58000 83070;
0147413960999992000123115004+15980+048940FM-12+070099999V0209999C000012200019N0250001N1+01711+00801102051ADDGA1001+999999999GF100991001001999999001001MA1999999094461MD1999999+0061REMSYN064AAXX  31154 41396 42975 00000 10171 20080 39446 40205 333 58006;
0197413960999992000123118004+15980+048940FM-12+070099999V0209999C000012200019N0250001N1+01031+00431101272ADDGA1021+060009019GF102991001001999999001011KA1120M+02271MA1999999094581MD1999999-0021REMSYN082AAXX  31184 41396 42975 20000 10103 20043 39458 40127 80001 333 10227 59002 82070;EQDQ01+101273APOSLP
