0218417590999992000011712004+25270+063480FM-12+000699999V0200901N004112200019N0100001N1+02201+00641101621ADDAA199000091GA1041+060009019GF104991001001999999001011KA1120M+02401MA1999999101561MD1999999+0001REMSYN092    AAXX  17124 41759 32997 40908 10220 20064 30156 40162 80001 333 10240 56009 58000 84070;EQDQ01  00002PRCP99
0178417590999992000011718004+25270+063480FM-12+000699999V0200901N003112200019N9999999N1+01601+00431101821ADDAA199000091GA1031+060009019GF103991001001999999001011MD1999999-0081REMSYN080    AAXX  17184 41759 329// 30906 10160 20043 40182 80001 333 56009 59008 83070;EQDQ01  00002PRCP99
0160417590999992000011806004+25270+063480FM-12+000699999V0200901N001512200019N0100001N1+02151+00701102031ADDAA199000091GA1001+999999999GF100991001001999999001001MD1999999+0051REMSYN062    AAXX  18064 41759 32997 00903 10215 20070 40203 333 58005;EQDQ01  00002PRCP99
0160417590999992000011818004+25270+063480FM-12+000699999V0209999C000012200019N9999999N1+01501+00691101951ADDAA199000091GA1001+999999999GF100991001001999999001001MD1999999+0131REMSYN062    AAXX  18184 41759 329// 00000 10150 20069 40195 333 58013;EQDQ01  00002PRCP99
0130417590999992000011912004+25270+063480FM-12+000699999V0201801N003112200019N0100001N1+02501+99999999999ADDAA199000091GA1001+999999999GF100991001001999999001001REMSYN046    AAXX  19124 41759 32997 01806 10250 59025;EQDQ01  00002PRCP99
0177417590999992000012000004+25270+063480FM-12+000699999V0203601N002112200019N9999999N1+01451+01071101571ADDAA199000091GA1001+999999999GF100991001001999999001001MA1999999101511MD1999999-0151REMSYN064AAXX  20004 41759 329// 03604 10145 20107 30151 40157 333 59015;EQDQ01  00002PRCP99
0177417590999992000012004004+25270+063480FM-12+000699999V0203601N002112200019N9999999N1+01451+01071101571ADDAA199000091GA1001+999999999GF100991001001999999001001MA1999999101511MD1999999-0151REMSYN064AAXX  20044 41759 329// 03604 10145 20107 30151 40157 333 59015;EQDQ01  00002PRCP99
0156417590999992000012006004+25270+063480FM-12+000699999V0203601N001512200019N0100001N1+02301+01651101431ADDAA199000091GA1001+999999999GF100991001001999999001001MD1999999-0571REMSYN058AAXX  20064 41759 32997 03603 10230 20165 40143 333 59057;EQDQ01  00002PRCP99
0156417590999992000012018004+25270+063480FM-12+000699999V0202701N004112200019N9999999N1+02201+01801101041ADDAA199000091GA1001+999999999GF100991001001999999001001MD1999999-0461REMSYN058AAXX  20184 41759 329// 02708 1022/ 20180 40104 333 59046;EQDQ01  00002PRCP99
0177417590999992000012100004+25270+063480FM-12+000699999V0202701N002112200019N9999999N1+01901+99999101051ADDAA199000091GA1001+999999999GF100991001001999999001001MA1999999100991MD1999999-0151REMSYN064AAXX  21004 41759 329// 02704 10190 201/7 30099 40105 333 59015;EQDQ01  00002PRCP99
0156417590999992000012106004+25270+063480FM-12+000699999V0202701N005112200019N0100001N1+02501+01701101211ADDAA199000091GA1001+999999999GF100991001001999999001001MD1999999-0221REMSYN058AAXX  21064 41759 32997 02710 10250 20170 40121 333 59022;EQDQ01  00002PRCP99
0196417590999992000012112004+25270+063480FM-12+000699999V02099999999992200019N0100001N1+02501+01671100881ADDAA199000091GA1001+999999999GF100991001001999999001001KA1120M+02701MA1999999100821MD1999999-0021REMSYN070AAXX  21124 41759 32997 09010 10250 20167 30082 40088 333 10270 59002;EQDQ01  00002PRCP99
0156417590999992000012206004+25270+063480FM-12+000699999V0202701N003112200019N0100001N1+02501+01511101501ADDAA199000091GA1001+999999999GF100991001001999999001001MD1999999+0251REMSYN058AAXX  22064 41759 32997 02706 10250 20151 40150 333 58025;EQDQ01  00002PRCP99
0224417590999992000012212004+25270+063480FM-12+000699999V0201801N013412200019N0002001N1+02601+01691101071ADDAA199000091AY101061AY201061GA1001+999999999GF100991001001999999001001KA1120M+02801MA1999999101011MD1999999+0121MW1071REMSYN076AAXX  22124 41759 31992 01826 10260 20169 30101 40107 70700 333 10280 58012;EQDQ01  00002PRCP99
0156417590999992000012218004+25270+063480FM-12+000699999V0209999C000012200019N9999999N1+02101+01781101281ADDAA199000091GA1001+999999999GF100991001001999999001001MD1999999+0341REMSYN058AAXX  22184 41759 329// 00000 10210 20178 40128 333 58034;EQDQ01  00002PRCP99
0177417590999992000012300004+25270+063480FM-12+000699999V0202701N001012200019N9999999N1+01601+01141101301ADDAA199000091GA1001+999999999GF100991001001999999001001MA1999999101261MD1999999+0021REMSYN064AAXX  23004 41759 329// 02702 10160 20114 30126 40130 333 58002;EQDQ01  00002PRCP99
0128417590999992000012306004+25270+063480FM-12+000699999V0209999C000019999999N0040001N1+02301+01741101611ADDAA199000091AY141061AY201061MW1051REMSYN064AAXX  23064 41759 31996 /0000 10230 20174 40161 70540 333 56015;EQDQ01  00002PRCP99
0196417590999992000012312004+25270+063480FM-12+000699999V0201801N003112200019N0100001N1+02551+01571101271ADDAA199000091GA1001+999999999GF100991001001999999001001KA1120M+02601MA1999999101211MD1999999+0201REMSYN070AAXX  23124 41759 32997 01806 10255 20157 30121 40127 333 10260 58020;EQDQ01  00002PRCP99
0156417590999992000012318004+25270+063480FM-12+000699999V0209999C000012200019N9999999N1+02051+01731101381ADDAA199000091GA1001+999999999GF100991001001999999001001MD1999999+0101REMSYN058AAXX  23184 41759 329// 00000 10205 20173 40138 333 58010;EQDQ01  00002PRCP99
0177417590999992000012400004+25270+063480FM-12+000699999V0200901N001012200019N9999999N1+01701+01441101521ADDAA199000091GA1001+999999999GF100991001001999999001001MA1999999101461MD1999999+0111REMSYN064AAXX  24004 41759 329// 00902 10170 20144 30146 40152 333 58011;EQDQ01  00002PRCP99
0177417590999992000012500004+25270+063480FM-12+000699999V0202701N001512200019N9999999N1+01551+01281101441ADDAA199000091GA1001+999999999GF100991001001999999001001MA1999999101381MD1999999+0031REMSYN064AAXX  25004 41759 329// 02703 10155 20128 30138 40144 333 58003;EQDQ01  00002PRCP99
0156417590999992000012506004+25270+063480FM-12+000699999V0203601N008212200019N0100001N1+99999+99999101761ADDAA199000091GA1001+999999999GF100991001001999999001001MD1999999+0101REMSYN058AAXX  25064 41759 32997 03616 14024 21106 40176 333 58010;EQDQ01  00002PRCP99
0196417590999992000012512004+25270+063480FM-12+000699999V0201801N002112200019N0100001N1+02601+00251101461ADDAA199000091GA1001+999999999GF100991001001999999001001KA1120M+02751MA1999999101381MD1999999+0161REMSYN070AAXX  25124 41759 32997 01804 10260 20025 30138 40146 333 10275 58016;EQDQ01  00002PRCP99
0156417590999992000012518004+25270+063480FM-12+000699999V0203601N001512200019N9999999N1+01701-00741101611ADDAA199000091GA1001+999999999GF100991001001999999001001MD1999999+0211REMSYN058AAXX  25184 41759 329// 03603 10170 21074 40161 333 58021;EQDQ01  00002PRCP99
0156417590999992000030618004+25270+063480FM-12+000699999V0209999C000012200019N9999999N1+02001+01361101181ADDAA199000091GA1001+999999999GF100991001001999999001001MD1999999+0021REMSYN058AAXX  06184 41759 329// 00000 10200 20136 40118 333 58002;EQDQ01  00002PRCP99
0184417590999992000030706004+25270+063480FM-12+000699999V0203601N003112200019N0040001N1+02651-01201101471ADDAA199000091AY101061AY201061GA1001+999999999GF100991001001999999001001MD1999999+0271MW1051REMSYN064AAXX  07064 41759 31696 03606 10265 21120 40147 70500 333 58027;EQDQ01  00002PRCP99
0210417590999992000030712004+25270+063480FM-12+000699999V0201801N003112200019N0040001N1+02701+00281101161ADDAA199000091AY101061AY201061GA1001+999999999GF100991001001999999001001KA1120M+02801MA1999999101101MW1051REMSYN076AAXX  07124 41759 31996 01806 10270 20028 30110 40116 70500 333 10280 56035;EQDQ01  00002PRCP99
0156417590999992000030718004+25270+063480FM-12+000699999V0209999C000012200019N9999999N1+02001+01091101501ADDAA199000091GA1001+999999999GF100991001001999999001001MD1999999+0421REMSYN058AAXX  07184 41759 329// 00000 10200 20109 40150 333 58042;EQDQ01  00002PRCP99
0196417590999992000030812004+25270+063480FM-12+000699999V0209999C000012200019N0100001N1+02701+00751101481ADDAA199000091GA1001+999999999GF100991001001999999001001KA1120M+03051MA1999999101421MD1999999+0321REMSYN070AAXX  08124 41759 32997 01400 10270 20075 30142 40148 333 10305 58032;EQDQ01  00002PRCP99
0142417590999992000030818004+25270+063480FM-12+000699999V0209999C000012200019N9999999N1+01901+01381101481ADDAA199000091GA1001+999999999GF100991001001999999001001REMSYN058AAXX  08184 41759 326// 00000 10190 20138 40148 333 5002/;EQDQ01  00002PRCP99
0156417590999992000030918004+25270+063480FM-12+000699999V0203601N001012200019N9999999N1+02101+01601101141ADDAA199000091GA1001+999999999GF100991001001999999001001MD1999999-0341REMSYN058AAXX  09184 41759 329// 03602 10210 20160 40114 333 59034;EQDQ01  00002PRCP99
0177417590999992000031000004+25270+063480FM-12+000699999V0209999C000012200019N9999999N1+01701+00701101211ADDAA199000091GA1001+999999999GF100991001001999999001001MA1999999101191MD1999999-0161REMSYN064AAXX  10004 41759 329// 00000 10170 20070 30119 40121 333 59016;EQDQ01  00002PRCP99
0156417590999992000031004004+25270+063480FM-12+000699999V0202701N004112200019N9999999N1+02501+01881101131ADDAA199000091GA1001+999999999GF100991001001999999001001MD1999999-0341REMSYN058AAXX  10044 41759 3257/ 02708 10250 20188 40113 333 59034;EQDQ01  00002PRCP99
0240417590999992000031012004+25270+063480FM-12+000699999V0202701N008212200019N9999999N1+02701+02101100731ADDAA199000091AY131061AY201061GA1001+999999999GF100991001001999999001001KA1120M+02851MA1999999100671MD1999999-0401MW1001REMSYN076AAXX  10124 41759 31996 02716 10270 20210 30067 40073 70030 333 10285 59040;EQDQ01+040002VODIS Q02  00002PRCP99
0156417590999992000031018004+25270+063480FM-12+000699999V0202701N002112200019N9999999N1+02201+01631100871ADDAA199000091GA1001+999999999GF100991001001999999001001MD1999999-0271REMSYN058AAXX  10184 41759 329// 02704 10220 20163 40087 333 59027;EQDQ01  00002PRCP99
0177417590999992000031100004+25270+063480FM-12+000699999V0209999C000012200019N9999999N1+01801+01271100821ADDAA199000091GA1001+999999999GF100991001001999999001001MA1999999100781MD1999999-0371REMSYN064AAXX  11004 41759 329// 00000 10180 20127 30078 40082 333 59037;EQDQ01  00002PRCP99
0156417590999992000031106004+25270+063480FM-12+000699999V0202701N001012200019N0100001N1+02601+01501101031ADDAA199000091GA1001+999999999GF100991001001999999001001MD1999999-0101REMSYN058AAXX  11064 41759 32997 02702 10260 20150 40103 333 59010;EQDQ01  00002PRCP99
0156417590999992000031118004+25270+063480FM-12+000699999V0202701N005112200019N9999999N1+02101+01651100691ADDAA199000091GA1001+999999999GF100991001001999999001001MD1999999-0181REMSYN058AAXX  11184 41759 329// 02710 10210 20165 40069 333 59018;EQDQ01  00002PRCP99
0184417590999992000031206004+25270+063480FM-12+000699999V0203601N001012200019N0040001N1+01401+01021100781ADDAA199000091AY101061AY201061GA1001+999999999GF100991001001999999001001MD1999999-0251MW1051REMSYN064AAXX  12064 41759 31996 03602 10140 20102 40078 70500 333 59025;EQDQ01  00002PRCP99
0224417590999992000031212004+25270+063480FM-12+000699999V0202701N005112200019N0040001N1+02901+01191100451ADDAA199000091AY101061AY201061GA1001+999999999GF100991001001999999001001KA1120M+03251MA1999999100351MD1999999-0091MW1091REMSYN076AAXX  12124 41759 31996 02710 10290 20119 30035 40045 70900 333 10325 59009;EQDQ01  00002PRCP99
0150417590999992000031218004+25270+063480FM-12+000699999V0202701N007212200019N9999999N1+02201+00901999999ADDAA199000091GA1001+999999999GF100991001001999999001001MD1999999+0071REMSYN052AAXX  12184 41759 329// 02714 10220 20090 333 58007;EQDQ01  00002PRCP99
0177417590999992000031300004+25270+063480FM-12+000699999V0209999C000012200019N9999999N1+02001-00041100611ADDAA199000091GA1001+999999999GF100991001001999999001001MA1999999100551MD1999999+0011REMSYN064AAXX  13004 41759 329// 00000 10200 21004 30055 40061 333 58001;EQDQ01  00002PRCP99
0163417590999992000031400004+25270+063480FM-12+000699999V0209999C000012200019N9999999N1+01921+01381100851ADDAA199000091GA1001+999999999GF100991001001999999001001MA1999999100801REMSYN064AAXX  14004 41759 329// 00000 10192 20138 30080 40085 333 56025;EQDQ01  00002PRCP99
0182417590999992000031412004+25270+063480FM-12+000699999V0202301N002112200019N0100001N1+02651+01601101091ADDAA199000091GA1001+999999999GF100991001001999999001001KA1120M+03201MA1999999101031REMSYN070AAXX  14124 41759 32997 02304 10265 20160 30103 40109 333 10320 50047;EQDQ01  00002PRCP99
0156417590999992000031418004+25270+063480FM-12+000699999V0209999C000012200019N9999999N1+02101+01601101351ADDAA199000091GA1001+999999999GF100991001001999999001001MD1999999+0481REMSYN058AAXX  14184 41759 329// 00000 10210 20160 40135 333 58048;EQDQ01  00002PRCP99
0177417590999992000031500004+25270+063480FM-12+000699999V0209999C000012200019N9999999N1+01501+01321101171ADDAA199000091GA1001+999999999GF100991001001999999001001MA1999999101111MD1999999+0311REMSYN064AAXX  15004 41759 329// 00000 10150 20132 30111 40117 333 58031;EQDQ01  00002PRCP99
0184417590999992000031506004+25270+063480FM-12+000699999V0203201N001012200019N0040001N1+02401+01231101421ADDAA199000091AY101061AY201061GA1001+999999999GF100991001001999999001001MD1999999+0261MW1051REMSYN064AAXX  15064 41759 32996 03202 10240 20123 40142 70500 333 58026;EQDQ01  00002PRCP99
0156417590999992000031518004+25270+063480FM-12+000699999V0202701N001012200019N9999999N1+02101+01691101201ADDAA199000091GA1001+999999999GF100991001001999999001001MD1999999-0151REMSYN058AAXX  15184 41759 329// 02702 10210 20169 40120 333 59015;EQDQ01  00002PRCP99
0156417590999992000031606004+25270+063480FM-12+000699999V0203601N003112200019N0100001N1+02501+01701101231ADDAA199000091GA1001+999999999GF100991001001999999001001MD1999999-0191REMSYN058AAXX  16064 41759 32997 03606 10250 20170 40123 333 59019;EQDQ01  00002PRCP99
0224417590999992000031612004+25270+063480FM-12+000699999V0202301N006212200019N0040001N1+02701+02111100821ADDAA199000091AY101061AY201061GA1001+999999999GF100991001001999999001001KA1120M+02851MA1999999100781MD1999999-0271MW1051REMSYN076AAXX  16124 41759 31996 02312 10270 20211 30078 40082 70500 333 10285 59027;EQDQ01  00002PRCP99
0156417590999992000031618004+25270+063480FM-12+000699999V0202701N002112200019N9999999N1+02301+01991100941ADDAA199000091GA1001+999999999GF100991001001999999001001MD1999999-0261REMSYN058AAXX  16184 41759 329// 02704 10230 20199 40094 333 59026;EQDQ01  00002PRCP99
0184417590999992000031706004+25270+063480FM-12+000699999V0203601N002112200019N0040001N1+03001-00261101051ADDAA199000091AY101061AY201061GA1001+999999999GF100991001001999999001001MD1999999-0151MW1051REMSYN064AAXX  17064 41759 31996 03604 10300 21026 40105 70500 333 59015;EQDQ01  00002PRCP99
0224417590999992000031712004+25270+063480FM-12+000699999V0201801N005112200019N0040001N1+03051+00101100741ADDAA199000091AY101061AY201061GA1001+999999999GF100991001001999999001001KA1120M+03251MA1999999100691MD1999999-0081MW1051REMSYN076AAXX  17124 41759 31996 01810 10305 20010 30069 40074 70500 333 10325 59008;EQDQ01  00002PRCP99
0177417590999992000031800004+25270+063480FM-12+000699999V0209999C000012200019N9999999N1+01801-00051100921ADDAA199000091GA1001+999999999GF100991001001999999001001MA1999999100861MD1999999+0031REMSYN064AAXX  18004 41759 329// 00000 10180 21005 30086 40092 333 58003;EQDQ01  00002PRCP99
0126417590999992000031806004+25270+063480FM-12+000699999V0201301N002112200019N0100001N1+03001-00861999999ADDAA199000091GA1001+999999999GF100991001001999999001001REMSYN042AAXX  18064 41759 32997 01304 10300 21086;EQDQ01  00002PRCP99
0196417590999992000031812004+25270+063480FM-12+000699999V0201801N004112200019N0100001N1+02901-00571101011ADDAA199000091GA1001+999999999GF100991001001999999001001KA1120M+03201MA1999999100961MD1999999+0271REMSYN070AAXX  18124 41759 32997 01808 10290 21057 30096 40101 333 10320 58027;EQDQ01  00002PRCP99
0256417590999992000031906004+25270+063480FM-12+000699999V0209999C000012200019N0040001N1+02501+01151101431ADDAA199000091AY101061AY201061GA1031+010509089GF199999999999999999001001MD1999999+0171MW1051REMSYN088AAXX  19064 41759 31996 00000 10250 20115 40143 70500 83430 333 56990 58017 83835 83360;EQDQ01+000002SCOTCVQ02+000002SCOTLCQ03+000002SCOLCGQ04  00002PRCP99
0156417590999992000031918004+25270+063480FM-12+000699999V0202301N002112200019N9999999N1+02301+01991101121ADDAA199000091GA1001+999999999GF100991001001999999001001MD1999999-0111REMSYN058AAXX  19184 41759 329// 02304 10230 20199 40112 333 59011;EQDQ01  00002PRCP99
0224417590999992000032012004+25270+063480FM-12+000699999V0201801N004112200019N0040001N1+02751+02081100661ADDAA199000091AY101061AY201061GA1001+999999999GF100991001001999999001001KA1120M+03201MA1999999100611MD1999999-0261MW1051REMSYN076AAXX  20124 41759 31996 01808 10275 20208 30061 40066 70500 333 10320 59026;EQDQ01  00002PRCP99
0156417590999992000032018004+25270+063480FM-12+000699999V0201801N002112200019N9999999N1+02351+02201100681ADDAA199000091GA1001+999999999GF100991001001999999001001MD1999999-0431REMSYN058AAXX  20184 41759 329// 01804 10235 20220 40068 333 59043;EQDQ01  00002PRCP99
0156417590999992000032100004+25270+063480FM-12+000699999V0201801N001012200019N9999999N1+01901+01561100651ADDAA199000091GA1001+999999999GF100991001001999999001001MD1999999-0351REMSYN058AAXX  21004 41759 329// 01802 10190 20156 40065 333 59035;EQDQ01  00002PRCP99
0150417590999992000032118004+25270+063480FM-12+000699999V0209999C000512200019N9999999N1+99999+99999101061ADDAA199000091GA1001+999999999GF100991001001999999001001MD1999999+0431REMSYN052AAXX  21184 41759 329// 00001 20186 40106 333 58043;EQDQ01  00002PRCP99
0177417590999992000032200004+25270+063480FM-12+000699999V0209999C000012200019N9999999N1+01301+99999100491ADDAA199000091GA1001+999999999GF100991001001999999001001MA1999999100931MD1999999+0321REMSYN064AAXX  22004 41759 329// 00000 10130 20133 30093 40049 333 58032;EQDQ01  00002PRCP99
0200417590999992000032206004+25270+063480FM-12+000699999V0203601N002112200019N0040001N1+03002-00261101261ADDAA199000091AY101061AY201061GA1001+999999999GF100991001001999999001001MD1999999+0701MW1051REMSYN064AAXX  22064 41759 31996 03604 10300 21026 40126 70500 333 58070;EQDQ01+003003ATOT  Q02  00002PRCP99
0156417590999992000032218004+25270+063480FM-12+000699999V0209999C000012200019N9999999N1+02301-00701101241ADDAA199000091GA1001+999999999GF100991001001999999001001MD1999999+0181REMSYN058AAXX  22184 41759 329// 00000 10230 21070 40124 333 58018;EQDQ01  00002PRCP99
0156417590999992000032318004+25270+063480FM-12+000699999V0202701N003112200019N9999999N1+02301+01911101341ADDAA199000091GA1001+999999999GF100991001001999999001001MD1999999+0101REMSYN058AAXX  23184 41759 329// 02706 10230 20191 40134 333 58010;EQDQ01  00002PRCP99
0177417590999992000032400004+25270+063480FM-12+000699999V0209999C000012200019N9999999N1+01701+01441101351ADDAA199000091GA1001+999999999GF100991001001999999001001MA1999999101291MD1999999+0041REMSYN064AAXX  24004 41759 329// 00000 10170 20144 30129 40135 333 58004;EQDQ01  00002PRCP99
0150417590999992000032418004+25270+063480FM-12+000699999V0209999C000012200019N9999999N1+99999+99999101411ADDAA199000091GA1001+999999999GF100991001001999999001001MD1999999+0081REMSYN052AAXX  24184 41759 329// 00000 20172 40141 333 58008;EQDQ01  00002PRCP99
0156417590999992000032506004+25270+063480FM-12+000699999V0209999C000012200019N0100001N1+03001+00841101501ADDAA199000091GA1001+999999999GF100991001001999999001001MD1999999+0021REMSYN058AAXX  25064 41759 32997 00000 10300 20084 40150 333 58002;EQDQ01  00002PRCP99
0224417590999992000032512004+25270+063480FM-12+000699999V0202301N001012200019N0040001N1+02951+01271101191ADDAA199000091AY101061AY201061GA1001+999999999GF100991001001999999001001KA1120M+03401MA1999999101141MD1999999-0261MW1051REMSYN076AAXX  25124 41759 31996 02302 10295 20127 30114 40119 70500 333 10340 59026;EQDQ01  00002PRCP99
0156417590999992000032518004+25270+063480FM-12+000699999V0209999C000012200019N9999999N1+02301+01831101411ADDAA199000091GA1001+999999999GF100991001001999999001001MD1999999-0011REMSYN058AAXX  25184 41759 329// 00000 10230 20183 40141 333 59001;EQDQ01  00002PRCP99
0177417590999992000032600004+25270+063480FM-12+000699999V0209999C000012200019N9999999N1+01601+01331101341ADDAA199000091GA1001+999999999GF100991001001999999001001MA1999999101281MD1999999-0111REMSYN064AAXX  26004 41759 329// 00000 10160 20133 30128 40134 333 59011;EQDQ01  00002PRCP99
0156417590999992000032606004+25270+063480FM-12+000699999V0203601N001012200019N0100001N1+03051+00101101401ADDAA199000091GA1001+999999999GF100991001001999999001001MD1999999-0101REMSYN058AAXX  26064 41759 32997 03602 10305 20010 40140 333 59010;EQDQ01  00002PRCP99
0140417590999992000032700004+25270+063480FM-12+000699999V02099999999992200019N9999999N1+01651+00991101181ADDAA199000091GF103991999999999999999999MD1999999-0161REMSYN058AAXX  27004 41759 329// 329// 10165 20099 40118 333 59016;EQDQ01  00002PRCP99
0210417590999992000032712004+25270+063480FM-12+000699999V0202301N004112200019N0040001N1+03151+00961100971ADDAA199000091AY101061AY201061GA1001+999999999GF100991001001999999001001KA1120M+03451MA1999999100921MW1051REMSYN076AAXX  27124 41759 31996 02308 10315 20096 30092 40097 70500 333 10345 5008/;EQDQ01  00002PRCP99
0156417590999992000032718004+25270+063480FM-12+000699999V0209999C000012200019N9999999N1+02251+01301101141ADDAA199000091GA1001+999999999GF100991001001999999001001MD1999999-0271REMSYN058AAXX  27184 41759 329// 00000 10225 20130 40114 333 59027;EQDQ01  00002PRCP99
0156417590999992000032800004+25270+063480FM-12+000699999V0209999C000012200019N9999999N1+01701+01251101121ADDAA199000091GA1001+999999999GF100991001001999999001001MD1999999-0061REMSYN058AAXX  28004 41759 329// 00000 10170 20125 40112 333 59006;EQDQ01  00002PRCP99
0168417590999992000032806004+25270+063480FM-12+000699999V0209999C000012200019N0100001N1+02801+00921101261ADDAA199000091GA1041+009009059GF104991041051999999001001MD1999999-0051REMSYN070AAXX  28064 41759 32997 40000 10280 20092 40126 84500 333 59005 84630;EQDQ01  00002PRCP99
0242417590999992000032812004+25270+063480FM-12+000699999V0202701N003112200019N0040001N1+03001+01111999999ADDAA199000091AY101061AY201061GA1031+030009079GF104991041001999999031001KA1120M+03251MA1999999100801MD1999999-0061MW1051REMSYN094AAXX  28124 41759 31996 42706 10300 20111 30080 44009 70500 84030 333 10325 56090 59006 83360;EQDQ01  00002PRCP99
0156417590999992000032818004+25270+063480FM-12+000699999V0209999C000012200019N9999999N1+02451+02071101191ADDAA199000091GA1001+999999999GF100991001001999999001001MD1999999-0051REMSYN058AAXX  28184 41759 329// 00000 10245 20207 40119 333 59005;EQDQ01  00002PRCP99
0195417590999992000032900004+25270+063480FM-12+000699999V0209999C000012200019N9999999N1+02151+01831101021ADDAA199000091GA1041+009009059GF104991041051999999001001MA1999999100961MD1999999-0011REMSYN082AAXX  29004 41759 329// 40000 10215 20183 30096 40102 84500 333 56900 59001 84630;EQDQ01  00002PRCP99
0156417590999992000032918004+25270+063480FM-12+000699999V0203101N001012200019N9999999N1+02001+01861101131ADDAA199000091GA1001+999999999GF100991001001999999001001MD1999999-0061REMSYN058AAXX  29184 41759 329// 03102 1020/ 20186 40113 333 59006;EQDQ01  00002PRCP99
0140417590999992000033018004+25270+063480FM-12+000699999V0200301N002112200019N9999999N1+02451+01911101051ADDAA199000091GF102991999999999999999999MD1999999-0081REMSYN058AAXX  30184 41759 329// 20304 10245 20191 40105 333 59008;EQDQ01  00002PRCP99
0142417590999992000033100004+25270+063480FM-12+000699999V0209999C000012200019N9999999N1+02051+99999999999ADDAA199000091GA1001+999999999GF100991001001999999001001REMSYN058AAXX  31004 41759 329// 00000 10205 2014= 40103 333 59014;EQDQ01  00002PRCP99
0202417590999992000033112004+25270+063480FM-12+000699999V0202701N003112200019N0040001N1+03051+00931100931ADDAA199000091AY101061AY201061GA1031+060009019GF103991001001999999001011MD1999999-0161MW1051REMSYN082AAXX  31124 41759 31996 32706 10305 20093 40093 70500 80001 333 56009 59016 83070;EQDQ01  00002PRCP99
0156417590999992000040118004+25270+063480FM-12+000699999V0209999C000012200019N9999999N1+02301+01461101131ADDAA199000091GA1001+999999999GF100991001001999999001001MD1999999+0071REMSYN058AAXX  01184 41759 329// 00000 10230 20146 40113 333 58007;EQDQ01  00002PRCP99
0177417590999992000040121004+25270+063480FM-12+000699999V0209999C000012200019N9999999N1+01851+00901100931ADDAA199000091GA1001+999999999GF100991001001999999001001MA1999999100871MD1999999-0011REMSYN064AAXX  01214 41759 329// 00000 10185 20090 30087 40093 333 59001;EQDQ01  00002PRCP99
0196417590999992000040312004+25270+063480FM-12+000699999V0202301N003112200019N0100001N1+03401+01251100571ADDAA199000091GA1001+999999999GF100991001001999999001001KA1120M+03651MA1999999100521MD1999999-0121REMSYN070AAXX  03124 41759 32997 02306 10340 20125 30052 40057 333 10365 59012;EQDQ01  00002PRCP99
0156417590999992000040406004+25270+063480FM-12+000699999V0203601N003112200019N0100001N1+03551-00121100941ADDAA199000091GA1001+999999999GF100991001001999999001001MD1999999+0021REMSYN058AAXX  04064 41759 32997 03606 10355 21012 40094 333 58002;EQDQ01  00002PRCP99
0196417590999992000040412004+25270+063480FM-12+000699999V0201801N005112200019N0100001N1+03551+00511100611ADDAA199000091GA1001+999999999GF100991001001999999001001KA1120M+03851MA1999999100461MD1999999+0021REMSYN070AAXX  04124 41759 32997 01810 10355 20051 30046 40061 333 10385 58002;EQDQ01  00002PRCP99
0156417590999992000040418004+25270+063480FM-12+000699999V0202301N002112200019N9999999N1+02751+00841100741ADDAA199000091GA1001+999999999GF100991001001999999001001MD1999999+0011REMSYN058AAXX  04184 41759 329// 02304 10275 20084 40074 333 58001;EQDQ01  00002PRCP99
0196417590999992000040512004+25270+063480FM-12+000699999V0202301N004112200019N0100001N1+03451+01441100591ADDAA199000091GA1001+999999999GF100991001001999999001001KA1120M+03901MA1999999100541MD1999999-0021REMSYN070AAXX  05124 41759 32997 02308 10345 20144 30054 40059 333 10390 59002;EQDQ01  00002PRCP99
0156417590999992000040518004+25270+063480FM-12+000699999V0202301N003112200019N9999999N1+02551+02021100701ADDAA199000091GA1001+999999999GF100991001001999999001001MD1999999-0041REMSYN058AAXX  05184 41759 329// 02306 10255 20202 40070 333 59004;EQDQ01  00002PRCP99
0177417590999992000040600004+25270+063480FM-12+000699999V0209999C000012200019N9999999N1+02051+00681100651ADDAA199000091GA1001+999999999GF100991001001999999001001MA1999999100591MD1999999-0081REMSYN064AAXX  06004 41759 329// 00000 10205 20068 30059 40065 333 59008;EQDQ01  00002PRCP99
0174417590999992000040606004+25270+063480FM-12+000699999V0202701N003112200019N0100001N1+03201+00621100881ADDAA199000091GA1041+060009019GF104991001001999999001011MD1999999+0021REMSYN076AAXX  06064 41759 32997 42706 10320 20062 40088 80001 333 56009 58002 84070;EQDQ01  00002PRCP99
0214417590999992000040612004+25270+063480FM-12+000699999V0202301N005110600019N0100001N1+03101+01691100581ADDAA199000091GA1051+060009019GF105991001001999999001011KA1120M+03551MA1999999100531MD1999999-0011REMSYN088AAXX  06124 41759 32997 52310 10310 20169 30053 40058 80001 333 10355 56009 59001 85070;EQDQ01  00002PRCP99
0156417590999992000040618004+25270+063480FM-12+000699999V0209999C000012200019N9999999N1+02401+02101100711ADDAA199000091GA1001+999999999GF100991001001999999001001MD1999999-0051REMSYN058AAXX  06184 41759 329// 00000 10240 20210 40071 333 59005;EQDQ01  00002PRCP99
0177417590999992000040700004+25270+063480FM-12+000699999V0209999C000012200019N9999999N1+02201+01971100751ADDAA199000091GA1001+999999999GF100991001001999999001001MA1999999100691MD1999999+0101REMSYN064AAXX  07004 41759 329// 00000 10220 20197 30069 40075 333 58010;EQDQ01  00002PRCP99
0196417590999992000040712004+25270+063480FM-12+000699999V0201801N002112200019N0100001N1+03001+02111100771ADDAA199000091GA1001+999999999GF100991001001999999001001KA1120M+03201MA1999999100711MD1999999+0181REMSYN070AAXX  07124 41759 32997 01804 10300 20211 30071 40077 333 10320 58018;EQDQ01  00002PRCP99
0156417590999992000040718004+25270+063480FM-12+000699999V0209999C000012200019N9999999N1+02501+02351100981ADDAA199000091GA1001+999999999GF100991001001999999001001MD1999999+0251REMSYN058AAXX  07184 41759 329// 00000 10250 20235 40098 333 58025;EQDQ01  00002PRCP99
0177417590999992000040800004+25270+063480FM-12+000699999V0209999C000012200019N9999999N1+02051+01731101001ADDAA199000091GA1001+999999999GF100991001001999999001001MA1999999100941MD1999999+0251REMSYN064AAXX  08004 41759 329// 00000 10205 20173 30094 40100 333 58025;EQDQ01  00002PRCP99
0174417590999992000040806004+25270+063480FM-12+000699999V0202701N003112200019N0100001N1+03151+00961101231ADDAA199000091GA1021+060009019GF102991001001999999001011MD1999999+0271REMSYN076AAXX  08064 41759 32997 22706 10315 20096 40123 80001 333 56009 58027 82070;EQDQ01  00002PRCP99
0242417590999992000040812004+25270+063480FM-12+000699999V0202001N005112200019N0040001N1+03001+02111100891ADDAA199000091AY111061AY211061GA1031+060009019GF103991001001999999001011KA1120M+03601MA1999999100861MD1999999+0121MW1051REMSYN094AAXX  08124 41759 31996 32010 10300 20211 30086 40089 70511 80001 333 10360 56009 58012 83070;EQDQ01  00002PRCP99
0174417590999992000040906004+25270+063480FM-12+000699999V0201801N003112200019N0040001N1+03201+01411101131ADDAA199000091GA1021+060009019GF102991001001999999001011MD1999999-0111REMSYN076AAXX  09064 41759 32996 21806 10320 20141 40113 80001 333 56009 59011 82070;EQDQ01  00002PRCP99
0242417590999992000040912004+25270+063480FM-12+000699999V0202401N005112200019N0040001N1+03501+01291100911ADDAA199000091AY101061AY201061GA1021+060009019GF102991001001999999001011KA1120M+03501MA1999999100851MD1999999+0021MW1051REMSYN094AAXX  09124 41759 31996 22410 1035/ 20129 30085 40091 70500 80001 333 10350 56009 58002 82070;EQDQ01  00002PRCP99
0156417590999992000040918004+25270+063480FM-12+000699999V0202701N003112200019N9999999N1+02501+02051100971ADDAA199000091GA1001+999999999GF100991001001999999001001MD1999999-0061REMSYN058AAXX  09184 41759 329// 02706 10250 20205 40097 333 59006;EQDQ01  00002PRCP99
0184417590999992000041006004+25270+063480FM-12+000699999V0202701N003112200019N0040001N1+02951+02141100991ADDAA199000091AY101061AY201061GA1001+999999999GF100991001001999999001001MD1999999-0141MW1051REMSYN064AAXX  10064 41759 31996 02706 10295 20214 40099 70500 333 59014;EQDQ01  00002PRCP99
0224417590999992000041012004+25270+063480FM-12+000699999V02099999999992200019N0010001N1+03151+01851100511ADDAA199000091AY101061AY201061GA1001+999999999GF100991001001999999001001KA1120M+03271MA1999999100461MD1999999-0391MW1071REMSYN076AAXX  10124 41759 31994 0232/ 10315 20185 30046 40051 70700 333 10327 59039;EQDQ01  00002PRCP99
0156417590999992000041018004+25270+063480FM-12+000699999V0201801N004112200019N9999999N1+02501+01791100661ADDAA199000091GA1001+999999999GF100991001001999999001001MD1999999-0311REMSYN058AAXX  10184 41759 329// 01808 10250 20179 40066 333 59031;EQDQ01  00002PRCP99
0177417590999992000041100004+25270+063480FM-12+000699999V0202701N001012200019N9999999N1+01901+01691100621ADDAA199000091GA1001+999999999GF100991001001999999001001MA1999999100561MD1999999-0211REMSYN064AAXX  11004 41759 329// 02702 10190 20169 30056 40062 333 59021;EQDQ01  00002PRCP99
0214417590999992000041112004+25270+063480FM-12+000699999V0202401N005112200019N0100001N1+03251+01691100331ADDAA199000091GA1021+030009079GF102991021001999999031001KA1120M+03401MA1999999100271MD1999999-0211REMSYN088AAXX  11124 41759 32997 22410 10325 20169 30027 40033 82030 333 10340 56090 59021 82360;EQDQ01  00002PRCP99
0144417590999992000041118004+25270+063480FM-12+000699999V0202401N003112200019N9999999N1+02551+02291100481ADDGA1021+030009079GF102991021001001501031001MD1999999-0181REMSYN076AAXX  11184 41759 /329/ 22406 10255 20229 40048 82030 333 56090 59018 82360;
0196417590999992000041212004+25270+063480FM-12+000699999V0201801N003112200019N0100001N1+03001+02431100221ADDAA199000091GA1001+999999999GF100991001001999999001001KA1120M+03401MA1999999100171MD1999999-0101REMSYN070AAXX  12124 41759 32997 01806 10300 20243 30017 40022 333 10340 59010;EQDQ01  00002PRCP99
0177417590999992000041300004+25270+063480FM-12+000699999V0209999C000012200019N9999999N1+02401+02151100341ADDAA199000091GA1001+999999999GF100991001001999999001001MA1999999100281MD1999999-0091REMSYN064AAXX  13004 41759 329// 00000 10240 20215 30028 40034 333 59009;EQDQ01  00002PRCP99
0184417590999992000041306004+25270+063480FM-12+000699999V0201301N003112200019N0040001N1+03001+02281100461ADDAA199000091AY101061AY201061GA1001+999999999GF100991001001999999001001MD1999999-0051MW1051REMSYN064AAXX  13064 41759 31996 01306 10300 20228 40046 70500 333 59005;EQDQ01  00002PRCP99
0224417590999992000041312004+25270+063480FM-12+000699999V0201801N003112200019N0040001N1+03051+02331100201ADDAA199000091AY101061AY201061GA1001+999999999GF100991001001999999001001KA1120M+03301MA1999999100141MD1999999-0031MW1051REMSYN076AAXX  13124 41759 31996 01806 10305 20233 30014 40020 70500 333 10330 59003;EQDQ01  00002PRCP99
0177417590999992000041400004+25270+063480FM-12+000699999V0202701N002112200019N9999999N1+02201+01891100301ADDAA199000091GA1001+999999999GF100991001001999999001001MA1999999100241MD1999999-0041REMSYN064AAXX  14004 41759 329// 02704 10220 20189 30024 40030 333 59004;EQDQ01  00002PRCP99
0184417590999992000041406004+25270+063480FM-12+000699999V0203601N005112200019N0040001N1+03952-00762100471ADDAA199000091AY101061AY201061GA1001+999999999GF100991001001999999001001MD1999999+0001MW1051REMSYN064AAXX  14064 41759 31996 03610 10395 21076 40047 70500 333 59000;EQDQ01  00002PRCP99
0177417590999992000041500004+25270+063480FM-12+000699999V0209999C000012200019N9999999N1+02451+00621100551ADDAA199000091GA1001+999999999GF100991001001999999001001MA1999999100491MD1999999+0251REMSYN064AAXX  15004 41759 329// 00000 10245 20062 30049 40055 333 58025;EQDQ01  00002PRCP99
0184417590999992000041506004+25270+063480FM-12+000699999V0201801N003112200019N0040001N1+03801+00151100671ADDAA199000091AY101061AY201061GA1001+999999999GF100991001001999999001001MD1999999+0201MW1051REMSYN064AAXX  15064 41759 31996 01806 10380 20015 40067 70500 333 58020;EQDQ01  00002PRCP99
0224417590999992000041512004+25270+063480FM-12+000699999V0202701N014412200019N0010001N1+03351+01731100331ADDAA199000091AY101061AY201061GA1001+999999999GF100991001001999999001001KA1120M+03901MA1999999100281MD1999999+0101MW1071REMSYN076AAXX  15124 41759 31994 02728 10335 20173 30028 40033 70700 333 10390 58010;EQDQ01  00002PRCP99
0156417590999992000041518004+25270+063480FM-12+000699999V0202401N004112200019N9999999N1+02601+02311100621ADDAA199000091GA1001+999999999GF100991001001999999001001MD1999999+0071REMSYN058AAXX  15184 41759 329// 02408 10260 20231 40062 333 58007;EQDQ01  00002PRCP99
0224417590999992000041612004+25270+063480FM-12+000699999V0202401N009312200019N0040001N1+03201+02181100471ADDAA199000091AY101061AY201061GA1001+999999999GF100991001001999999001001KA1120M+03301MA1999999100411MD1999999+0161MW1051REMSYN076AAXX  16124 41759 31996 02418 10320 20218 30041 40047 70500 333 10330 58016;EQDQ01  00002PRCP99
0156417590999992000041618004+25270+063480FM-12+000699999V0202701N004112200019N9999999N1+02501+02181100711ADDAA199000091GA1001+999999999GF100991001001999999001001MD1999999+0091REMSYN058AAXX  16184 41759 329// 02708 10250 20218 40071 333 58009;EQDQ01  00002PRCP99
0171417590999992000041700004+25270+063480FM-12+000699999V0202701N002112200019N9999999N1+02051+99999100631ADDAA199000091GA1001+999999999GF100991001001999999001001MA1999999100571MD1999999+0041REMSYN058AAXX  17004 41759 329// 02704 10205 30057 40063 333 58004;EQDQ01  00002PRCP99
0184417590999992000041706004+25270+063480FM-12+000699999V0202701N002612200019N0040001N1+03201+02001100801ADDAA199000091AY101061AY201061GA1001+999999999GF100991001001999999001001MD1999999+0001MW1051REMSYN064AAXX  17064 41759 31996 02705 10320 20200 40080 70500 333 58000;EQDQ01  00002PRCP99
0224417590999992000041712004+25270+063480FM-12+000699999V0202701N014412200019N0020001N1+03101+02541100501ADDAA199000091AY101061AY201061GA1001+999999999GF100991001001999999001001KA1120M+03301MA1999999100441MD1999999+0031MW1071REMSYN076AAXX  17124 41759 31995 02728 10310 20254 30044 40050 70700 333 10330 58003;EQDQ01  00002PRCP99
0205417590999992000041800004+25270+063480FM-12+000699999V0202701N002112200019N9999999N1+02101+02101100661ADDAA199000091AY101061AY201061GA1001+999999999GF100991001001999999001001MA1999999100601MD1999999+0031MW1461REMSYN070AAXX  18004 41759 319// 02704 10210 20210 30060 40066 74600 333 58003;EQDQ01  00002PRCP99
0184417590999992000041806004+25270+063480FM-12+000699999V0202301N003112200019N0040001N1+03001+02281100831ADDAA199000091AY101061AY201061GA1001+999999999GF100991001001999999001001MD1999999+0041MW1051REMSYN064AAXX  18064 41759 31996 02306 10300 20228 40083 70500 333 58004;EQDQ01  00002PRCP99
0174417590999992000041818004+25270+063480FM-12+000699999V0202401N003110060019N9999999N1+02561+02441100841ADDAA199000091GA1061+006009069GF106991061061008001001001MD1999999+0171REMSYN076AAXX  18184 41759 325// 62406 10256 20244 40084 86600 333 56900 58017 86720;EQDQ01  00002PRCP99
0202417590999992000041906004+25270+063480FM-12+000699999V0202701N003110600019N0040001N1+02951+02221100961ADDAA199000091AY121061AY221061GA1061+060009019GF106991001001999999001011MD1999999+0131MW1051REMSYN082AAXX  19064 41759 31996 62706 10295 20222 40096 70522 80001 333 56009 58013 86070;EQDQ01  00002PRCP99
0214417590999992000041912004+25270+063480FM-12+000699999V0202301N005110600019N0100001N1+03001+02281100721ADDAA199000091GA1051+060009019GF105991001001999999001011KA1120M+03181MA1999999100671MD1999999+0121REMSYN088AAXX  19124 41759 32997 52310 10300 20228 30067 40072 80001 333 10318 56009 58012 85070;EQDQ01  00002PRCP99
0180417590999992000041918004+25270+063480FM-12+000699999V0202701N00311220001CN9999999N1+02651+02361100901ADDAA199000091GA1031+006009079GF106991021061008001001011MD1999999+0061REMSYN082AAXX  19184 41759 325// 62706 10265 20236 40090 82601 333 56090 58006 83720 83070;EQDQ01  00002PRCP99
0208417590999992000042006004+25270+063480FM-12+000699999V0202701N00311007501CN0040001N1+02951+02141100801ADDAA199000091AY101061AY201061GA1031+006009079GF107991061061008001001011MD1999999-0161MW1051REMSYN088AAXX  20064 41759 31596 72706 10295 20214 40080 70500 86601 333 56909 59016 83720 83370;EQDQ01  00002PRCP99
0242417590999992000042012004+25270+063480FM-12+000699999V0201801N005112200019N0040001N1+03001+02281100551ADDAA199000091AY111061AY211061GA1031+009009059GF103991031051012501001001KA1120M+03181MA1999999100501MD1999999-0171MW1051REMSYN094AAXX  20124 41759 31696 31810 10300 20228 30050 40055 70511 83500 333 10318 56900 59017 83630;EQDQ01  00002PRCP99
0202417590999992000042106004+25270+063480FM-12+000699999V0202401N004110090019N0040001N1+03101+02311100371ADDAA199000091AY101061AY201061GA1051+009009059GF105991051051012501001001MD1999999-0121MW1051REMSYN082AAXX  21064 41759 31696 52408 10310 20231 40037 70500 85500 333 56900 59012 85630;EQDQ01  00002PRCP99
0144417590999992000042306004+25270+063480FM-12+000699999V0201801N003112200019N0100001N1+03101+02601100751ADDAA199000091GF104991041051012501001001REMSYN076AAXX  23064 41759 32697 41806 10310 2026/ 40075 84500 333 56900 59/03 8463/;EQDQ01  00002PRCP99
0201417590999992000042400004+25270+063480FM-12+000699999V0209999C000012200019N9999999N1+02451+02381100581ADDAA199000091GF103991999021999999021001MA1999999100521MD1999999-0021REMSYN088AAXX  24004 41759 319// 30000 10245 20238 30052 40058 84220 83600 333 56090 59002 83720;EQDQ01+000042SCOTLCQ02  00002PRCP99
0184417590999992000042406004+25270+063480FM-12+000699999V0209999C000012200019N0100001N1+03101+02391100721ADDAA199000091AY101061AY201061GA1001+999999999GF100991001001999999001001MD1999999-0031MW1091REMSYN064AAXX  24064 41759 31997 00000 10310 20239 40072 70900 333 59003;EQDQ01  00002PRCP99
0156417590999992000042418004+25270+063480FM-12+000699999V0202701N002112200019N9999999N1+02701+02491100571ADDAA199000091GA1001+999999999GF100991001001999999001001MD1999999-0051REMSYN058AAXX  24184 41759 329// 02704 10270 20249 40057 333 59005;EQDQ01  00002PRCP99
0177417590999992000042500004+25270+063480FM-12+000699999V0202701N001012200019N9999999N1+02501+02351100491ADDAA199000091GA1001+999999999GF100991001001999999001001MA1999999100431MD1999999-0091REMSYN064AAXX  25004 41759 329// 02702 10250 20235 30043 40049 333 59009;EQDQ01  00002PRCP99
0196417590999992000042506004+25270+063480FM-12+000699999V0202401N005112200019N0040001N1+03151+02521100591ADDAA199000091AY101061AY201061GA1021+009009059GF102991021051008001001001MD1999999-0131MW1051REMSYN076AAXX  25064 41759 31596 22410 10315 20252 40059 70500 82500 333 59013 82630;EQDQ01  00002PRCP99
0177417590999992000042600004+25270+063480FM-12+000699999V0202701N002112200019N9999999N1+02401+02251100291ADDAA199000091GA1001+999999999GF100991001001999999001001MA1999999100231MD1999999-0201REMSYN064AAXX  26004 41759 329// 02704 10240 20225 30023 40029 333 59020;EQDQ01  00002PRCP99
0202417590999992000042606004+25270+063480FM-12+000699999V0202301N002112200019N0040001N1+03101+02541100461ADDAA199000091AY101061AY201061GA1021+009009059GF102991021051012501001001MD1999999-0131MW1051REMSYN082AAXX  26064 41759 31696 22304 10310 20254 40046 70500 82500 333 56900 59013 82630;EQDQ01  00002PRCP99
0224417590999992000042612004+25270+063480FM-12+000699999V0202301N007212200019N0040001N1+03151+02531100231ADDAA199000091AY101061AY201061GA1001+999999999GF100991001001999999001001KA1120M+03351MA1999999100181MD1999999-0081MW1051REMSYN076AAXX  26124 41759 31996 02314 10315 20253 30018 40023 70500 333 10335 59008;EQDQ01  00002PRCP99
0156417590999992000042618004+25270+063480FM-12+000699999V0202701N004112200019N9999999N1+02801+02521100461ADDAA199000091GA1001+999999999GF100991001001999999001001MD1999999+0071REMSYN058AAXX  26184 41759 329// 02708 10280 20252 40046 333 58007;EQDQ01  00002PRCP99
0205417590999992000042700004+25270+063480FM-12+000699999V0209999C000012200019N9999999N1+02501+02351100371ADDAA199000091AY101061AY201061GA1001+999999999GF100991001001999999001001MA1999999100311MD1999999+0081MW1421REMSYN070AAXX  27004 41759 319// 00000 10250 20235 30031 40037 74200 333 58008;EQDQ01  00002PRCP99
0156417590999992000042706004+25270+063480FM-12+000699999V0202301N002112200019N0100001N1+03201+02581100561ADDAA199000091GA1001+999999999GF100991001001999999001001MD1999999+0101REMSYN058AAXX  27064 41759 32997 02304 10320 20258 40056 333 58010;EQDQ01  00002PRCP99
0196417590999992000042712004+25270+063480FM-12+000699999V0202301N005112200019N0100001N1+03201+02501100311ADDAA199000091GA1001+999999999GF100991001001999999001001KA1120M+03321MA1999999100261MD1999999+0081REMSYN070AAXX  27124 41759 32997 02310 10320 20250 30026 40031 333 10332 58008;EQDQ01  00002PRCP99
0156417590999992000042718004+25270+063480FM-12+000699999V0202701N003112200019N9999999N1+02801+02591100471ADDAA199000091GA1001+999999999GF100991001001999999001001MD1999999+0011REMSYN058AAXX  27184 41759 329// 02706 10280 20259 40047 333 58001;EQDQ01  00002PRCP99
0156417590999992000042818004+25270+063480FM-12+000699999V0209999C000012200019N9999999N1+02801+02591100621ADDAA199000091GA1001+999999999GF100991001001999999001001MD1999999+0121REMSYN058AAXX  28184 41759 329// 00000 10280 20259 40062 333 58012;EQDQ01  00002PRCP99
0223417590999992000042900004+25270+063480FM-12+000699999V0202701N001012200019N9999999N1+02451+02381100551ADDAA199000091AY121061AY221061GA1041+006009069GF104991041061008001001001MA1999999100491MD1999999-0121MW1101REMSYN088AAXX  29004 41759 315// 42702 10245 20238 30049 40055 71022 84600 333 56900 59012 84720;EQDQ01  00002PRCP99
0174417590999992000042906004+25270+063480FM-12+000699999V0202301N003112200019N0100001N1+03101+02541100771ADDAA199000091GA1021+006009069GF102991021061008001001001MD1999999+0151REMSYN076AAXX  29064 41759 32597 22306 10310 20254 40077 82600 333 56900 58015 82720;EQDQ01  00002PRCP99
0202417590999992000043006004+25270+063480FM-12+000699999V0202401N004110090019N0040001N1+03151+02521100981ADDAA199000091AY101061AY201061GA1051+009009059GF105991051051012501001999MD1999999+0211MW1051REMSYN082AAXX  30064 41759 31696 52408 10315 20252 40098 70500 8550/ 333 56900 58021 85630;EQDQ01  00002PRCP99
0156417590999992000043018004+25270+063480FM-12+000699999V0202701N001012200019N9999999N1+02751+02471100811ADDAA199000091GA1001+999999999GF100991001001999999001001MD1999999+0061REMSYN058AAXX  30184 41759 329// 02702 10275 20247 40081 333 58006;EQDQ01  00002PRCP99
0135417590999992000050100004+25270+063480FM-12+000699999V0209999C000019999999N9999999N1+02601+02461100721ADDAA199000091MA1999999100761MD1999999+0041REMSYN064AAXX  01004 41759 329// /0000 10260 20246 30076 40072 333 58004;EQDQ01  00002PRCP99
0258417590999992000050112004+25270+063480FM-12+000699999V0202401N002112200019N0040001N1+03051+02171100551ADDAA199000091AY101061AY201061GA1041+009009059GF199999041061012501031001KA1120M+03251MA1999999100491MD1999999-0141MW1051REMSYN094AAXX  01124 41759 31696 22404 10305 20217 30049 40055 70500 84630 333 10325 56900 59014 84630;EQDQ01+000022SCOTCVQ02  00002PRCP99
0177417590999992000050200004+25270+063480FM-12+000699999V0209999C000012200019N9999999N1+02601+02381100571ADDAA199000091GA1001+999999999GF100991001001999999001001MA1999999100511MD1999999-0161REMSYN064AAXX  02004 41759 329// 00000 10260 20238 30051 40057 333 59016;EQDQ01  00002PRCP99
0196417590999992000050212004+25270+063480FM-12+000699999V0201801N005112200019N0100001N1+03101+02391100541ADDAA199000091GA1001+999999999GF100991001001999999001001KA1120M+03201MA1999999100491MD1999999+0001REMSYN070AAXX  02124 41759 32997 01810 10310 20239 30049 40054 333 10320 58000;EQDQ01  00002PRCP99
0156417590999992000050218004+25270+063480FM-12+000699999V0202301N001012200019N9999999N1+02801+02441100731ADDAA199000091GA1001+999999999GF100991001001999999001001MD1999999+0061REMSYN058AAXX  02184 41759 329// 02302 10280 20244 40073 333 58006;EQDQ01  00002PRCP99
0177417590999992000050300004+25270+063480FM-12+000699999V0209999C000012200019N9999999N1+02651+02361100641ADDAA199000091GA1001+999999999GF100991001001999999001001MA1999999100581MD1999999+0071REMSYN064AAXX  03004 41759 329// 00000 10265 20236 30058 40064 333 58007;EQDQ01  00002PRCP99
0156417590999992000050306004+25270+063480FM-12+000699999V02099999999992200019N0100001N1+03201+02181100791ADDAA199000091GA1001+999999999GF100991001001999999001001MD1999999-0051REMSYN058AAXX  03064 41759 32997 00/// 10320 20218 40079 333 59005;EQDQ01  00002PRCP99
0196417590999992000050312004+25270+063480FM-12+000699999V0201801N005112200019N0100001N1+03051+02411100551ADDAA199000091GA1001+999999999GF100991001001999999001001KA1120M+03251MA1999999100501MD1999999+0011REMSYN070AAXX  03124 41759 32997 01810 10305 20241 30050 40055 333 10325 58001;EQDQ01  00002PRCP99
0110417590999992000050318004+25270+063480FM-12+000699999V02099999999992200019N0090001N1+02801+02521100661ADDGF103991999999017501999999MD1999999-0071REMSYN058AAXX  03184 41759 41759 329// 10280 20252 40066 333 59007;
0177417590999992000050400004+25270+063480FM-12+000699999V0209999C000012200019N9999999N1+02551+02331100581ADDAA199000091GA1001+999999999GF100991001001999999001001MA1999999100521MD1999999+0061REMSYN064AAXX  04004 41759 329// 00000 10255 20233 30052 40058 333 58006;EQDQ01  00002PRCP99
0156417590999992000050406004+25270+063480FM-12+000699999V0201801N001012200019N0100001N1+03251+02321100601ADDAA199000091GA1001+999999999GF100991001001999999001001MD1999999-0191REMSYN058AAXX  04064 41759 32997 01802 10325 20232 40060 333 59019;EQDQ01  00002PRCP99
0224417590999992000050412004+25270+063480FM-12+000699999V0202301N004112200019N0040001N1+03301+02611100261ADDAA199000091AY101061AY201061GA1001+999999999GF100991001001999999001001KA1120M+03521MA1999999100211MD1999999-0291MW1051REMSYN076AAXX  04124 41759 31996 02308 10330 20261 30021 40026 70500 333 10352 59029;EQDQ01  00002PRCP99
0156417590999992000050418004+25270+063480FM-12+000699999V0202401N003112200019N9999999N1+02951+02751100401ADDAA199000091GA1001+999999999GF100991001001999999001001MD1999999+0161REMSYN058AAXX  04184 41759 329// 02406 10295 20275 40040 333 58016;EQDQ01  00002PRCP99
0156417590999992000050506004+25270+063480FM-12+000699999V0202701N002112200019N0100001N1+03401+02331100531ADDAA199000091GA1001+999999999GF100991001001999999001001MD1999999-0071REMSYN058AAXX  05064 41759 32997 02704 10340 20233 40053 333 59007;EQDQ01  00002PRCP99
0196417590999992000050512004+25270+063480FM-12+000699999V0201801N006212200019N0100001N1+03501+02201100361ADDAA199000091GA1001+999999999GF100991001001999999001001KA1120M+03551MA1999999100311MD1999999+0121REMSYN070AAXX  05124 41759 32997 01812 10350 20220 30031 40036 333 10355 58012;EQDQ01  00002PRCP99
0114417590999992000050518004+25270+063480FM-12+000699999V0209999C000019999999N9999999N1+02951+02301100611ADDAA199000091MD1999999+0211REMSYN058AAXX  05184 41759 329// /0000 10295 20230 40061 333 58021;EQDQ01  00002PRCP99
0135417590999992000050600004+25270+063480FM-12+000699999V0209999C000019999999N9999999N1+02551+02411100551ADDAA199000091MA1999999100491MD1999999+0171REMSYN064AAXX  06004 41759 329// /0000 10255 20241 30049 40055 333 58017;EQDQ01  00002PRCP99
0156417590999992000050606004+25270+063480FM-12+000699999V0202701N003112200019N0100001N1+03501+02021100621ADDAA199000091GA1001+999999999GF100991001001999999001001MD1999999+0091REMSYN058AAXX  06064 41759 32997 02706 10350 20202 40062 333 58009;EQDQ01  00002PRCP99
0224417590999992000050612004+25270+063480FM-12+000699999V0202301N009312200019N0010001N1+03401+02411100291ADDAA199000091AY101061AY201061GA1001+999999999GF100991001001999999001001KA1120M+03751MA1999999100241MD1999999-0071MW1071REMSYN076AAXX  06124 41759 31994 02318 10340 20241 30024 40029 70700 333 10375 59007;EQDQ01  00002PRCP99
0156417590999992000050618004+25270+063480FM-12+000699999V0202701N002112200019N9999999N1+02901+02081100411ADDAA199000091GA1001+999999999GF100991001001999999001001MD1999999-0201REMSYN058AAXX  06184 41759 329// 02704 10290 20208 40041 333 59020;EQDQ01  00002PRCP99
0163417590999992000050700004+25270+063480FM-12+000699999V0209999C000012200019N9999999N1+02501+01961100361ADDAA199000091GA1001+999999999GF100991001001999999001001MA1999999100301REMSYN064AAXX  07004 41759 329// 00000 10250 20196 30030 40036 333 5901/;EQDQ01  00002PRCP99
0196417590999992000050712004+25270+063480FM-12+000699999V0202401N004112200019N0100001N1+03201+02501100241ADDAA199000091GA1001+999999999GF100991001001999999001001KA1120M+03651MA1999999100191MD1999999-0051REMSYN070AAXX  07124 41759 32997 02408 10320 20250 30019 40024 333 10365 59005;EQDQ01  00002PRCP99
0156417590999992000050718004+25270+063480FM-12+000699999V0202301N002112200019N9999999N1+02901+02481100361ADDAA199000091GA1001+999999999GF100991001001999999001001MD1999999-0051REMSYN058AAXX  07184 41759 329// 02304 10290 20248 40036 333 59005;EQDQ01  00002PRCP99
0177417590999992000050800004+25270+063480FM-12+000699999V0209999C000012200019N9999999N1+02551+02411100351ADDAA199000091GA1001+999999999GF100991001001999999001001MA1999999100291MD1999999-0011REMSYN064AAXX  08004 41759 329// 00000 10255 20241 30029 40035 333 59001;EQDQ01  00002PRCP99
0142417590999992000050806004+25270+063480FM-12+000699999V0202401N004112200019N0100001N1+03501+02021100001ADDAA199000091GA1001+999999999GF100991001001999999001001REMSYN058AAXX  08064 41759 32997 02408 10350 20202 4000/ 333 56007;EQDQ01  00002PRCP99
0196417590999992000050812004+25270+063480FM-12+000699999V0202401N003112200019N0100001N1+03301+02611100251ADDAA199000091GA1001+999999999GF100991001001999999001001KA1120M+03451MA1999999100201MD1999999-0011REMSYN070AAXX  08124 41759 32997 02406 10330 20261 30020 40025 333 10345 59001;EQDQ01  00002PRCP99
0174417590999992000050818004+25270+063480FM-12+000699999V0202301N002110060019N9999999N1+02901+02691100451ADDAA199000091GA1051+006009069GF105991051061008001001001MD1999999+0091REMSYN076AAXX  08184 41759 325// 52304 10290 20269 40045 85600 333 56990 58009 85720;EQDQ01  00002PRCP99
0177417590999992000050900004+25270+063480FM-12+000699999V0209999C000012200019N9999999N1+02601+02381100471ADDAA199000091GA1001+999999999GF100991001001999999001001MA1999999100411MD1999999+0061REMSYN064AAXX  09004 41759 329// 00000 10260 20238 30041 40047 333 58006;EQDQ01  00002PRCP99
0242417590999992000050912004+25270+063480FM-12+000699999V0202301N006212200019N0040001N1+03151+02601100381ADDAA199000091AY101061AY201061GA1031+009009059GF103991031051999999001001KA1120M+03301MA1999999100331MD1999999-0131MW1051REMSYN094AAXX  09124 41759 31996 32312 10315 20260 30033 40038 70500 83500 333 10330 56900 59013 83630;EQDQ01  00002PRCP99
0156417590999992000050918004+25270+063480FM-12+000699999V0202301N002112200019N9999999N1+02851+02471100471ADDAA199000091GA1001+999999999GF100991001001999999001001MD1999999+0021REMSYN058AAXX  09184 41759 329// 02304 10285 20247 40047 333 58002;EQDQ01  00002PRCP99
0177417590999992000051000004+25270+063480FM-12+000699999V0209999C000012200019N9999999N1+02601+02461100371ADDAA199000091GA1001+999999999GF100991001001999999001001MA1999999100311MD1999999-0101REMSYN064AAXX  10004 41759 329// 00000 10260 20246 30031 40037 333 59010;EQDQ01  00002PRCP99
0114417590999992000051018004+25270+063480FM-12+000699999V0209999C000019999999N9999999N1+03851+02641100261ADDAA199000091MD1999999-0211REMSYN058AAXX  10184 41759 329// /0000 10385 20264 40026 333 59021;EQDQ01  00002PRCP99
0184417590999992000051106004+25270+063480FM-12+000699999V0201301N006212200019N0040001N1+03201+02501100351ADDAA199000091AY101061AY201061GA1001+999999999GF100991001001999999001001MD1999999-0161MW1051REMSYN064AAXX  11064 41759 31996 01312 10320 20250 40035 70500 333 59016;EQDQ01  00002PRCP99
0242417590999992000051112004+25270+063480FM-12+000699999V0202401N005112200019N0040001N1+03101+02541100101ADDAA199000091AY101061AY201061GA1031+009009029GF103991031051012501001001KA1120M+03301MA1999999100051MD1999999-0091MW1051REMSYN094AAXX  11124 41759 31696 32410 10310 20254 30005 40010 70500 83500 333 10330 56900 59009 83830;EQDQ01  00002PRCP99
0174417590999992000051118004+25270+063480FM-12+000699999V0201801N003112200019N9999999N1+02901+02621100281ADDAA199000091GA1021+009009059GF102991021051012501001001MD1999999+0021REMSYN076AAXX  11184 41759 326// 21806 10290 20262 40028 82500 333 56900 58002 82630;EQDQ01  00002PRCP99
0195417590999992000051200004+25270+063480FM-12+000699999V0200901N002110090019N9999999N1+02801+02661100211ADDAA199000091GA1061+009009059GF106991061051012501001001MA1999999100161MD1999999-0071REMSYN082AAXX  12004 41759 326// 60904 10280 20266 30016 40021 86500 333 56900 59007 86630;EQDQ01  00002PRCP99
0194417590999992000051212004+25270+063480FM-12+000699999V0201801N005112200019N0100001N1+03151+02521100141ADDAA199000091GA1041+060009019GF104991001001999999001011KA1120M+03321MA1999999100091REMSYN082AAXX  12124 41759 32997 41810 10315 20252 30009 40014 80001 333 10332 56009 84070;EQDQ01  00002PRCP99
0174417590999992000051218004+25270+063480FM-12+000699999V0201301N004112200019N9999999N1+02901+02621100441ADDAA199000091GA1041+009009059GF104991041051012501001001MD1999999+0161REMSYN076AAXX  12184 41759 326// 41308 10290 20262 40044 84500 333 56900 58016 84630;EQDQ01  00002PRCP99
0195417590999992000051300004+25270+063480FM-12+000699999V0209999C000010300019N9999999N1+02701+02491100311ADDAA199000091GA1051+030009079GF105991051001999999031001MA1999999100261MD1999999+0101REMSYN082AAXX  13004 41759 329// 50000 10270 20249 30026 40031 85030 333 56090 58010 85360;EQDQ01  00002PRCP99
0248417590999992000051303004+25270+063480FM-12+000699999V0201301N002112200019N0040001N1+02901+02621100411ADDAA199000091AY111031AY211031GA1021+009009069GF104991021051012501001011KA1120N+02651MA1999999100361MD1999999+0081MW1051REMSYN100AAXX  13034 41759 31696 41304 10290 20262 30036 40041 70511 82501 333 20265 56909 58008 82630 83070;EQDQ01  00002PRCP99
0206417590999992000051318004+25270+063480FM-12+000699999V0201801N002112200019N9999999N1+02951+02601100431ADDAA199000091GA1041+006009069GF104991999999999999001011MD1999999-0011REMSYN076AAXX  13184 41759 329// 41804 10295 20260 40043 80001 333 56009 59001 84720;EQDQ01+000002SCOTLCQ02+000002SCOLCGQ03  00002PRCP99
0195417590999992000051400004+25270+063480FM-12+000699999V0209999C000012200019N9999999N1+02801+02521100451ADDAA199000091GA1021+009009059GF102991021051012501001001MA1999999100401MD1999999+0141REMSYN082AAXX  14004 41759 326// 20000 10280 20252 30040 40045 82500 333 56900 58014 82630;EQDQ01  00002PRCP99
0202417590999992000051406004+25270+063480FM-12+000699999V0201301N001012200019N0040001N1+03301+02381100551ADDAA199000091AY101061AY201061GA1021+009009059GF102991021051999999001001MD1999999+0021MW1051REMSYN082AAXX  14064 41759 31996 21302 10330 20238 40055 70500 82500 333 56900 58002 82630;EQDQ01  00002PRCP99
0230417590999992000051412004+25270+063480FM-12+000699999V0201801N005112200019N0040001N1+03201+02501100271ADDAA199000091AY101061AY201061GA1001+999999999GF100991001001999999001001KA1120M+03351MA1999999100221MD1999999+0131MW1051REMSYN082AAXX  14124 41759 31996 01810 10320 20250 30022 40027 70500 333 10335 58013 58001;EQDQ01  00002PRCP99
0202417590999992000051506004+25270+063480FM-12+000699999V0202701N001012200019N0040001N1+03401+02571100431ADDAA199000091AY101061AY201061GA1041+009009059GF104991041051012501001001MD1999999-0111MW1051REMSYN082AAXX  15064 41759 31696 42702 10340 20257 40043 70500 84500 333 56900 59011 84630;EQDQ01  00002PRCP99
0208417590999992000051512004+25270+063480FM-12+000699999V0203001N005112200019N0040001N1+03301+02581100171ADDAA199000091AY101061AY201061GF102991999999999999999999KA1120M+03501MA1999999100121MD1999999-0101MW1051REMSYN076AAXX  15124 41759 31996 23010 10330 20258 30012 40017 70500 333 10350 59010;EQDQ01  00002PRCP99
0156417590999992000051518004+25270+063480FM-12+000699999V0202701N004112200019N9999999N1+03001+02951100371ADDAA199000091GA1001+999999999GF100991001001999999001001MD1999999-0071REMSYN058AAXX  15184 41759 329// 02708 10300 20295 40037 333 59007;EQDQ01  00002PRCP99
0202417590999992000051606004+25270+063480FM-12+000699999V0202701N002612200019N0040001N1+03301+02131100311ADDAA199000091AY101061AY201061GA1041+009009059GF104991041051012501001001MD1999999-0121MW1051REMSYN082AAXX  16064 41759 31696 42705 10330 20213 40031 70500 84500 333 56900 59012 84630;EQDQ01  00002PRCP99
0224417590999992000051612004+25270+063480FM-12+000699999V0202301N006212200019N0040001N1+03401+02571100061ADDAA199000091AY101061AY201061GA1001+999999999GF100991001001999999001001KA1120M+03451MA1999999100011MD1999999-0111MW1051REMSYN076AAXX  16124 41759 31996 02312 10340 20257 30001 40006 70500 333 10345 59011;EQDQ01  00002PRCP99
0156417590999992000051618004+25270+063480FM-12+000699999V0202701N005112200019N9999999N1+02951+02671100161ADDAA199000091GA1001+999999999GF100991001001999999001001MD1999999-0211REMSYN058AAXX  16184 41759 329// 02710 10295 20267 40016 333 59021;EQDQ01  00002PRCP99
0224417590999992000051712004+25270+063480FM-12+000699999V0202301N015912200019N0040001N1+03301+02461099831ADDAA199000091AY101061AY201061GA1001+999999999GF100991001001999999001001KA1120M+03401MA1999999099781MD1999999-0231MW1051REMSYN076AAXX  17124 41759 31996 02331 10330 20246 39978 49983 70500 333 10340 59023;EQDQ01  00002PRCP99
0174417590999992000051718004+25270+063480FM-12+000699999V0209999C000010090019N9999999N1+03001+02581100021ADDAA199000091GA1061+009009069GF106991061051012501001001MD1999999-0091REMSYN076AAXX  17184 41759 326// 60000 10300 20258 40002 86500 333 56900 59009 86730;EQDQ01  00002PRCP99
0184417590999992000051806004+25270+063480FM-12+000699999V0202301N001012200019N0040001N1+03351+02481100021ADDAA199000091AY101061AY201061GA1001+999999999GF100991001001999999001001MD1999999-0151MW1051REMSYN064AAXX  18064 41759 31996 02302 10335 20248 40002 70500 333 59015;EQDQ01  00002PRCP99
0224417590999992000051812004+25270+063480FM-12+000699999V0202301N004112200019N0040001N1+03401+02411099721ADDAA199000091AY101061AY201061GA1001+999999999GF100991001001999999001001KA1120M+03901MA1999999099671MD1999999-0111MW1051REMSYN076AAXX  18124 41759 31996 02308 10340 20241 39967 49972 70500 333 10390 59011;EQDQ01  00002PRCP99
0177417590999992000051900004+25270+063480FM-12+000699999V0209999C000012200019N9999999N1+02801+02521100011ADDAA199000091GA1001+999999999GF100991001001999999001001MA1999999099961MD1999999+0041REMSYN064AAXX  19004 41759 329// 00000 10280 20252 39996 40001 333 58004;EQDQ01  00002PRCP99
0224417590999992000051912004+25270+063480FM-12+000699999V0202301N006212200019N0040001N1+03501+02201099701ADDAA199000091AY101061AY201061GA1001+999999999GF100991001001999999001001KA1120M+03601MA1999999099651MD1999999-0061MW1051REMSYN076AAXX  19124 41759 31996 02312 10350 20220 39965 49970 70500 333 10360 59006;EQDQ01  00002PRCP99
0156417590999992000051918004+25270+063480FM-12+000699999V0202301N003112200019N9999999N1+03001+02731099841ADDAA199000091GA1001+999999999GF100991001001999999001001MD1999999+0051REMSYN058AAXX  19184 41759 329// 02306 10300 20273 49984 333 58005;EQDQ01  00002PRCP99
0177417590999992000052000004+25270+063480FM-12+000699999V0209999C000012200019N9999999N1+02901+02761099961ADDAA199000091GA1001+999999999GF100991001001999999001001MA1999999099911MD1999999-0051REMSYN064AAXX  20004 41759 329// 00000 10290 20276 39991 49996 333 59005;EQDQ01  00002PRCP99
0184417590999992000052006004+25270+063480FM-12+000699999V0209999C000012200019N0040001N1+03401+02721100131ADDAA199000091AY101061AY201061GA1001+999999999GF100991001001999999001001MD1999999+0091MW1051REMSYN064AAXX  20064 41759 31996 00000 10340 20272 40013 70500 333 58009;EQDQ01  00002PRCP99
0114417590999992000052018004+25270+063480FM-12+000699999V0209999C000019999999N9999999N1+03001+02801100001ADDAA199000091MD1999999+0161REMSYN058AAXX  20184 41759 329// /0000 10300 20280 40000 333 58016;EQDQ01  00002PRCP99
0177417590999992000052100004+25270+063480FM-12+000699999V0209999C000012200019N9999999N1+02701+02561100151ADDAA199000091GA1001+999999999GF100991001001999999001001MA1999999100101MD1999999+0191REMSYN064AAXX  21004 41759 329// 00000 10270 20256 30010 40015 333 58019;EQDQ01  00002PRCP99
0194417590999992000052106004+25270+063480FM-12+000699999V0202301N002112200019N0040001N1+03201+02651100261ADDAA199000091AY101061GA1041+009009059GF104991041051012501001001MD1999999+0131MW1051REMSYN082AAXX  21064 41759 31696 42304 10320 20265 40026 7050/ 84500 333 56900 58013 84630;EQDQ01  00002PRCP99
0224417590999992000052112004+25270+063480FM-12+000699999V0202301N004112200019N0040001N1+03301+02611100001ADDAA199000091AY101061AY201061GA1001+999999999GF100991001001999999001001KA1120M+03401MA1999999099951MD1999999+0191MW1051REMSYN076AAXX  21124 41759 31996 02308 10330 20261 39995 40000 70500 333 10340 58019;EQDQ01  00002PRCP99
0156417590999992000052118004+25270+063480FM-12+000699999V0202301N002112200019N9999999N1+02951+02751100081ADDAA199000091GA1001+999999999GF100991001001999999001001MD1999999+0081REMSYN058AAXX  21184 41759 329// 02304 10295 20275 40008 333 58008;EQDQ01  00002PRCP99
0177417590999992000052200004+25270+063480FM-12+000699999V0209999C000012200019N9999999N1+02701+02521100121ADDAA199000091GA1001+999999999GF100991001001999999001001MA1999999100071MD1999999-0031REMSYN064AAXX  22004 41759 329// 00000 10270 20252 30007 40012 333 59003;EQDQ01  00002PRCP99
0192417590999992000052206004+25270+063480FM-12+000699999V0209999C000012200019N0040001N1+03301+99999100281ADDAA199000091AY101061GA1001+999999999GF100991001001999999001001MD1999999+0021MW1051REMSYN064AAXX  22064 41759 31996 00000 10330 20000 40028 7050/ 333 58002;EQDQ01  00002PRCP99Q02 +00003ATOD  
0230417590999992000052212004+25270+063480FM-12+000699999V0201801N005112200019N0100001N1+03201+02652099991ADDAA199000091GA1021+010209029GF102991021011012501001001KA1120M+03301MA1999999099361MD1999999+0021REMSYN088AAXX  22124 41759 32697 21810 10320 20265 39936 49999 82100 333 10330 56900 58002 82834;EQDQ01+002653ATOD  Q02  00002PRCP99
0156417590999992000052218004+25270+063480FM-12+000699999V0201301N001012200019N9999999N1+03551+02201099091ADDAA199000091GA1001+999999999GF100991001001999999001001MD1999999-0081REMSYN058AAXX  22184 41759 329// 01302 10355 20220 49909 333 59008;EQDQ01  00002PRCP99
0177417590999992000052300004+25270+063480FM-12+000699999V0209999C000012200019N9999999N1+02751+02541100031ADDAA199000091GA1001+999999999GF100991001001999999001001MA1999999099881MD1999999-0041REMSYN064AAXX  23004 41759 329// 00000 10275 20254 39988 40003 333 59004;EQDQ01  00002PRCP99
0224417590999992000052312004+25270+063480FM-12+000699999V0202301N002112200019N0040001N1+03301+02441100111ADDAA199000091AY101061AY201061GA1001+999999999GF100991001001999999001001KA1120M+03401MA1999999100001MD1999999+0061MW1051REMSYN076AAXX  23124 41759 31996 02304 10330 20244 30000 40011 70500 333 10340 58006;EQDQ01  00002PRCP99
0156417590999992000052318004+25270+063480FM-12+000699999V0209999C000012200019N9999999N1+03001+02581100231ADDAA199000091GA1001+999999999GF100991001001999999001001MD1999999+0031REMSYN058AAXX  23184 41759 329// 00000 10300 20258 40023 333 58003;EQDQ01  00002PRCP99
0177417590999992000052400004+25270+063480FM-12+000699999V0209999C000012200019N9999999N1+03001+02581100231ADDAA199000091GA1001+999999999GF100991001001999999001001MA1999999100181MD1999999+0301REMSYN064AAXX  24004 41759 329// 00000 10300 20258 30018 40023 333 58030;EQDQ01  00002PRCP99
0224417590999992000052412004+25270+063480FM-12+000699999V0202301N005112200019N0040001N1+03351+02451100101ADDAA199000091AY101061AY201061GA1001+999999999GF100991001001999999001001KA1120M+03451MA1999999100051MD1999999-0011MW1051REMSYN076AAXX  24124 41759 31996 02310 10335 20245 30005 40010 70500 333 10345 59001;EQDQ01  00002PRCP99
0156417590999992000052418004+25270+063480FM-12+000699999V0202301N003112200019N9999999N1+03001+02261100161ADDAA199000091GA1001+999999999GF100991001001999999001001MD1999999-0071REMSYN058AAXX  24184 41759 329// 02306 10300 20226 40016 333 59007;EQDQ01  00002PRCP99
0177417590999992000052500004+25270+063480FM-12+000699999V0209999C000012200019N9999999N1+02951+02621100161ADDAA199000091GA1001+999999999GF100991001001999999001001MA1999999100111MD1999999-0071REMSYN064AAXX  25004 41759 329// 00000 10295 20262 30011 40016 333 59007;EQDQ01  00002PRCP99
0202417590999992000052506004+25270+063480FM-12+000699999V0202701N001012200019N0040001N1+03401+02331100361ADDAA199000091AY101061AY201061GA1041+009009059GF104991041051999999001001MD1999999+0031MW1051REMSYN082AAXX  25064 41759 31996 42702 10340 20233 40036 70500 84500 333 56900 58003 84630;EQDQ01  00002PRCP99
0156417590999992000052518004+25270+063480FM-12+000699999V0209999C000012200019N9999999N1+02951+02641100111ADDAA199000091GA1001+999999999GF100991001001999999001001MD1999999-0051REMSYN058AAXX  25184 41759 329// 00000 10295 20264 40011 333 59005;EQDQ01  00002PRCP99
0202417590999992000052606004+25270+063480FM-12+000699999V0202701N002112200019N0040001N1+03301+02441100121ADDAA199000091AY101061AY201061GA1021+009009059GF102991021051999999001001MD1999999-0241MW1051REMSYN082AAXX  26064 41759 31996 22704 10330 20244 40012 70500 82500 333 56900 59024 82630;EQDQ01  00002PRCP99
0224417590999992000052612004+25270+063480FM-12+000699999V0201301N007212200019N0020001N1+03201+02651099781ADDAA199000091AY101061AY201061GA1001+999999999GF100991001001999999001001KA1120M+03451MA1999999099731MD1999999-0271MW1071REMSYN076AAXX  26124 41759 31995 01314 10320 20265 39973 49978 70700 333 10345 59027;EQDQ01  00002PRCP99
0177417590999992000052700004+25270+063480FM-12+000699999V0209999C000012200019N9999999N1+02701+02561099851ADDAA199000091GA1001+999999999GF100991001001999999001001MA1999999099801MD1999999-0311REMSYN064AAXX  27004 41759 329// 00000 10270 20256 39980 49985 333 59031;EQDQ01  00002PRCP99
0184417590999992000052706004+25270+063480FM-12+000699999V0202301N002112200019N0040001N1+03301+02601100081ADDAA199000091AY101061AY201061GA1001+999999999GF100991001001999999001001MD1999999-0051MW1051REMSYN064AAXX  27064 41759 31996 02304 10330 20260 40008 70500 333 59005;EQDQ01  00002PRCP99
0224417590999992000052712004+25270+063480FM-12+000699999V0201801N003112200019N0040001N1+03301+02611099721ADDAA199000091AY101061AY201061GA1001+999999999GF100991001001999999001001KA1120M+03501MA1999999099671MD1999999-0061MW1051REMSYN076AAXX  27124 41759 31996 01806 10330 20261 39967 49972 70500 333 10350 59006;EQDQ01  00002PRCP99
0156417590999992000052718004+25270+063480FM-12+000699999V0201801N001012200019N9999999N1+02951+02751099831ADDAA199000091GA1001+999999999GF100991001001999999001001MD1999999-0011REMSYN058AAXX  27184 41759 329// 01802 10295 20275 49983 333 59001;EQDQ01  00002PRCP99
0177417590999992000052800004+25270+063480FM-12+000699999V0209999C000012200019N9999999N1+02751+02611100011ADDAA199000091GA1001+999999999GF100991001001999999001001MA1999999099961MD1999999+0161REMSYN064AAXX  28004 41759 329// 00000 10275 20261 39996 40001 333 58016;EQDQ01  00002PRCP99
0174417590999992000052806004+25270+063480FM-12+000699999V0209999C000012200019N0100001N1+03101+02541100181ADDAA199000091GA1041+009009059GF104991041051012501001001MD1999999+0051REMSYN076AAXX  28064 41759 32697 40000 10310 20254 40018 84500 333 56900 58005 84630;EQDQ01  00002PRCP99
0156417590999992000052818004+25270+063480FM-12+000699999V0201301N001012200019N9999999N1+03001+02651100181ADDAA199000091GA1001+999999999GF100991001001999999001001MD1999999+0251REMSYN058AAXX  28184 41759 329// 01302 10300 20265 40018 333 58025;EQDQ01  00002PRCP99
0177417590999992000052900004+25270+063480FM-12+000699999V0209999C000012200019N9999999N1+02801+02591100291ADDAA199000091GA1001+999999999GF100991001001999999001001MA1999999100241MD1999999+0281REMSYN064AAXX  29004 41759 329// 00000 10280 20259 30024 40029 333 58028;EQDQ01  00002PRCP99
0242417590999992000052912004+25270+063480FM-12+000699999V0201301N003112200019N0040001N1+03251+02481100171ADDAA199000091AY101061AY201061GA1031+009009059GF103991031041012501001001KA1120M+03351MA1999999100121MD1999999+0311MW1051REMSYN094AAXX  29124 41759 31696 31306 10325 20248 30012 40017 70500 83400 333 10335 56900 58031 83630;EQDQ01  00002PRCP99
0156417590999992000052918004+25270+063480FM-12+000699999V0209999C000012200019N9999999N1+03001+02561100331ADDAA199000091GA1001+999999999GF100991001001999999001001MD1999999+0151REMSYN058AAXX  29184 41759 329// 00000 10300 20256 40033 333 58015;EQDQ01  00002PRCP99
0196417590999992000053006004+25270+063480FM-12+000699999V0209999C000012200019N0100001N1+03301+02611999999ADDAA199000091GA1011+006009079GF104991041061008001001001MD1999999+0131REMSYN082AAXX  30064 41759 32597 40000 10330 20261 40500 84600 333 56900 58013 81720 83630;EQDQ01  00002PRCP99Q02 105003APOSLP
0240417590999992000053012004+25270+063480FM-12+000699999V0201801N004112200019N0040001N1+03201+02581100242ADDAA199000091AY101061AY201061GA1001+999999999GF100991001001999999001001KA1120M+03501MA1999999100191MD1999999+0071MW1051REMSYN076AAXX  30124 41759 31996 01808 10320 20258 30019 40024 70500 333 10350 58007;EQDQ01+100243APOSLPQ02  00002PRCP99
0156417590999992000053018004+25270+063480FM-12+000699999V0209999C000012200019N9999999N1+03001+02731100321ADDAA199000091GA1001+999999999GF100991001001999999001001MD1999999+0141REMSYN058AAXX  30184 41759 329// 00000 10300 20273 40032 333 58014;EQDQ01  00002PRCP99
0202417590999992000053106004+25270+063480FM-12+000699999V0202301N001012200019N0040001N1+03251+02421100461ADDAA199000091AY101061AY201061GA1031+009009059GF103991031051999999001001MD1999999+0021MW1051REMSYN082AAXX  31064 41759 31996 32302 10325 20242 40046 70500 83500 333 56900 58002 83630;EQDQ01  00002PRCP99
0224417590999992000053112004+25270+063480FM-12+000699999V0202301N005112200019N0040001N1+03301+02461100171ADDAA199000091AY101061AY201061GA1001+999999999GF100991001001999999001001KA1120M+03501MA1999999100121MD1999999-0071MW1051REMSYN076AAXX  31124 41759 31996 02310 10330 20246 30012 40017 70500 333 10350 59007;EQDQ01  00002PRCP99
0156417590999992000053118004+25270+063480FM-12+000699999V0202301N001012200019N9999999N1+03001+02511100231ADDAA199000091GA1001+999999999GF100991001001999999001001MD1999999+0011REMSYN058AAXX  31184 41759 329// 02302 10300 20251 40023 333 58001;EQDQ01  00002PRCP99
0156417590999992000060106004+25270+063480FM-12+000699999V0209999C000012200019N0040001N1+03521+02531100311ADDAA199000091GA1001+999999999GF100991001001999999001001MD1999999+0151REMSYN058AAXX  01064 41759 32996 00000 10352 20253 40031 333 58015;EQDQ01  00002PRCP99
0196417590999992000060112004+25270+063480FM-12+000699999V0202301N004112200019N0040001N1+03351+02451100111ADDAA199000091GA1001+999999999GF100991001001999999001001KA1120M+03401MA1999999100061MD1999999-0141REMSYN070AAXX  01124 41759 31996 02308 10335 20245 30006 40011 333 10340 59014;EQDQ01  00002PRCP99
0156417590999992000060118004+25270+063480FM-12+000699999V0202301N001012200019N9999999N1+03001+02621100071ADDAA199000091GA1001+999999999GF100991001001999999001001MD1999999-0161REMSYN058AAXX  01184 41759 329// 02302 10300 20262 40007 333 59016;EQDQ01  00002PRCP99
0177417590999992000060200004+25270+063480FM-12+000699999V0209999C000012200019N9999999N1+02801+02591100141ADDAA199000091GA1001+999999999GF100991001001999999001001MA1999999100091MD1999999-0111REMSYN064AAXX  02004 41759 329// 00000 10280 20259 30009 40014 333 59011;EQDQ01  00002PRCP99
0180417590999992000060206004+25270+063480FM-12+000699999V0203201N002119999999N0100001N1+03201+02581100701ADDAA199000091GA1031+006009079GF108991031061008001001001MD1999999+0111REMSYN082AAXX  02064 41759 32597 83204 10320 20258 40070 83600 333 56900 58011 83720 85630;EQDQ01  00002PRCP99
0224417590999992000060212004+25270+063480FM-12+000699999V0201801N008212200019N0040001N1+03301+02611099911ADDAA199000091AY101061AY201061GA1001+999999999GF100991001001999999001001KA1120M+03451MA1999999099461MD1999999-0101MW1051REMSYN076AAXX  02124 41759 31996 01816 10330 20261 39946 49991 70500 333 10345 59010;EQDQ01  00002PRCP99
0156417590999992000060218004+25270+063480FM-12+000699999V0209999C000012200019N9999999N1+03001+02651100131ADDAA199000091GA1001+999999999GF100991001001999999001001MD1999999+0061REMSYN058AAXX  02184 41759 329// 00000 10300 20265 40013 333 58006;EQDQ01  00002PRCP99
0177417590999992000060300004+25270+063480FM-12+000699999V0209999C000012200019N9999999N1+02801+02591100101ADDAA199000091GA1001+999999999GF100991001001999999001001MA1999999100051MD1999999-0041REMSYN064AAXX  03004 41759 329// 00000 10280 20259 30005 40010 333 59004;EQDQ01  00002PRCP99
0224417590999992000060312004+25270+063480FM-12+000699999V0202301N009312200019N0040001N1+03251+02431099931ADDAA199000091AY101061AY201061GA1001+999999999GF100991001001999999001001KA1120M+03401MA1999999099881MD1999999+0021MW1071REMSYN076AAXX  03124 41759 31996 02318 10325 20243 39988 49993 70700 333 10340 58002;EQDQ01  00002PRCP99
0184417590999992000060406004+25270+063480FM-12+000699999V0209999C000012200019N0040001N1+03451+02561100081ADDAA199000091AY101061AY201061GA1001+999999999GF100991001001999999001001MD1999999-0061MW1051REMSYN064AAXX  04064 41759 31996 00000 10345 20256 40008 70500 333 59006;EQDQ01  00002PRCP99
0224417590999992000060412004+25270+063480FM-12+000699999V0202301N012912200019N0010001N1+03451+02631999999ADDAA199000091AY101061AY201061GA1001+999999999GF100991001001999999001001KA1120M+03651MA1999999099711MD1999999-0171MW1071REMSYN076AAXX  04124 41759 31994 02325 10345 20263 30971 40976 70700 333 10365 59017;EQDQ01  00002PRCP99
0156417590999992000060418004+25270+063480FM-12+000699999V0209999C000012200019N9999999N1+02951+02741999999ADDAA199000091GA1001+999999999GF100991001001999999001001MD1999999-0011REMSYN058AAXX  04184 41759 329// 00000 10295 20274 40996 333 59001;EQDQ01  00002PRCP99
0156417590999992000060506004+25270+063480FM-12+000699999V0202701N002112200019N0100001N1+03501+02451999999ADDAA199000091GA1001+999999999GF100991001001999999001001MD1999999-0181REMSYN058AAXX  05064 41759 32997 02704 10350 20245 40998 333 59018;EQDQ01  00002PRCP99
0224417590999992000060512004+25270+063480FM-12+000699999V0202701N007212200019N0020001N1+03301+02611099531ADDAA199000091AY101061AY201061GA1001+999999999GF100991001001999999001001KA1120M+03701MA1999999099481MD1999999-0231MW1071REMSYN076AAXX  05124 41759 31995 02714 10330 20261 39948 49953 70700 333 10370 59023;EQDQ01  00002PRCP99
0156417590999992000060518004+25270+063480FM-12+000699999V0202701N005112200019N9999999N1+02901+02551099791ADDAA199000091GA1001+999999999GF100991001001999999001001MD1999999-0121REMSYN058AAXX  05184 41759 329// 02710 10290 20255 49979 333 59012;EQDQ01  00002PRCP99
0156417590999992000060600004+25270+063480FM-12+000699999V0209999C000012200019N9999999N1+02701+02561099821ADDAA199000091GA1001+999999999GF100991001001999999001001MD1999999-0061REMSYN058AAXX  06004 41759 329// 00000 10270 20256 49982 333 59006;EQDQ01  00002PRCP99
0156417590999992000060618004+25270+063480FM-12+000699999V0209999C000012200019N9999999N1+02901+02621099611ADDAA199000091GA1001+999999999GF100991001001999999001001MD1999999-0131REMSYN058AAXX  06184 41759 329// 00000 10290 20262 49961 333 59013;EQDQ01  00002PRCP99
0224417590999992000060712004+25270+063480FM-12+000699999V0202301N012912200019N0010001N1+03301+02561099451ADDAA199000091AY101061AY201061GA1001+999999999GF100991001001999999001001KA1120M+03341MA1999999099401MD1999999-0221MW1071REMSYN076AAXX  07124 41759 31994 02325 10330 20256 39940 49945 70700 333 10334 59022;EQDQ01  00002PRCP99
0184417590999992000060806004+25270+063480FM-12+000699999V0202301N004112200019N0040001N1+03301+02611099831ADDAA199000091AY101061AY201061GA1001+999999999GF100991001001999999001001MD1999999+0031MW1051REMSYN064AAXX  08064 41759 31996 02308 10330 20261 49983 70500 333 58003;EQDQ01  00002PRCP99
0230417590999992000060812004+25270+063480FM-12+000699999V0202301N005112200019N0040001N1+03401+02571099581ADDAA199000091AY101061AY201061GA1001+999999999GF100991001001999999001001KA1120M+03501MA1999999099521MD1999999+0121MW1051REMSYN082AAXX  08124 41759 31996 02310 10340 20257 39952 49958 70500 333 10350 58012 58012;EQDQ01  00002PRCP99
0156417590999992000060818004+25270+063480FM-12+000699999V0209999C000012200019N9999999N1+02901+02621099711ADDAA199000091GA1001+999999999GF100991001001999999001001MD1999999+0061REMSYN058AAXX  08184 41759 329// 00000 10290 20262 49971 333 58006;EQDQ01  00002PRCP99
0156417590999992000060900004+25270+063480FM-12+000699999V0209999C000012200019N9999999N1+02751+02611099741ADDAA199000091GA1001+999999999GF100991001001999999001001MD1999999+0161REMSYN058AAXX  09004 41759 329// 00000 10275 20261 49974 333 58016;EQDQ01  00002PRCP99
0184417590999992000060906004+25270+063480FM-12+000699999V0202301N004112200019N0040001N1+03401+02571099891ADDAA199000091AY101061AY201061GA1001+999999999GF100991001001999999001001MD1999999+0111MW1051REMSYN064AAXX  09064 41759 31996 02308 10340 20257 49989 70500 333 58011;EQDQ01  00002PRCP99
0224417590999992000060912004+25270+063480FM-12+000699999V0202301N004112200019N0100001N1+03301+02611099701ADDAA199000091AY101061AY201061GA1001+999999999GF100991001001999999001001KA1120M+03501MA1999999099651MD1999999+0121MW1051REMSYN076AAXX  09124 41759 31997 02308 10330 20261 39965 49970 70500 333 10350 58012;EQDQ01  00002PRCP99
0184417590999992000061006004+25270+063480FM-12+000699999V0209999C000012200019N0040001N1+03301+02611100111ADDAA199000091AY101061AY201061GA1001+999999999GF100991001001999999001001MD1999999+0221MW1051REMSYN064AAXX  10064 41759 31996 00000 10330 20261 40011 70500 333 58022;EQDQ01  00002PRCP99
0224417590999992000061012004+25270+063480FM-12+000699999V0202301N009312200019N0040001N1+03301+02611099941ADDAA199000091AY101061AY201061GA1001+999999999GF100991001001999999001001KA1120M+03401MA1999999099891MD1999999+0241MW1051REMSYN076AAXX  10124 41759 31996 02318 10330 20261 39989 49994 70500 333 10340 58024;EQDQ01  00002PRCP99
0156417590999992000061018004+25270+063480FM-12+000699999V0209999C000012200019N9999999N1+03001+02731100161ADDAA199000091GA1001+999999999GF100991001001999999001001MD1999999+0231REMSYN058AAXX  10184 41759 329// 00000 10300 20273 40016 333 58023;EQDQ01  00002PRCP99
0171417590999992000061100004+25270+063480FM-12+000699999V0209999C000012200019N9999999N1+99999+99999100111ADDAA199000091GA1001+999999999GF100991001001999999001001MA1999999100061MD1999999+0151REMSYN058AAXX  11004 41759 329// 00000 20266 30006 40011 333 58015;EQDQ01  00002PRCP99
0202417590999992000061106004+25270+063480FM-12+000699999V0202701N001512200019N0040001N1+03551+02531100201ADDAA199000091AY101061AY201061GA1021+009009059GF102991021051012501001001MD1999999+0091MW1051REMSYN082AAXX  11064 41759 32696 22703 10355 20253 40020 70500 82500 333 56900 58009 82630;EQDQ01  00002PRCP99
0224417590999992000061112004+25270+063480FM-12+000699999V0202301N004112200019N0040001N1+03301+02611099881ADDAA199000091AY101061AY201061GA1001+999999999GF100991001001999999001001KA1120M+03401MA1999999099831MD1999999-0061MW1051REMSYN076AAXX  11124 41759 31996 02308 10330 20261 39983 49988 70500 333 10340 59006;EQDQ01  00002PRCP99
0156417590999992000061118004+25270+063480FM-12+000699999V0202301N004112200019N9999999N1+03001+02731100091ADDAA199000091GA1001+999999999GF100991001001999999001001MD1999999+0031REMSYN058AAXX  11184 41759 329// 02308 10300 20273 40009 333 58003;EQDQ01  00002PRCP99
0202417590999992000061206004+25270+063480FM-12+000699999V0202701N004112200019N0040001N1+03201+02651100151ADDAA199000091AY101061AY201061GA1031+009009059GF103991031051012501001001MD1999999-0051MW1051REMSYN082AAXX  12064 41759 32696 32708 10320 20265 40015 70500 83500 333 56900 59005 83630;EQDQ01  00002PRCP99
0224417590999992000061212004+25270+063480FM-12+000699999V0202701N003112200019N0020001N1+03251+02531099761ADDAA199000091AY131061AY201061GA1001+999999999GF100991001001999999001001KA1120M+03351MA1999999099711MD1999999-0121MW1091REMSYN076AAXX  12124 41759 32995 02706 10325 20253 39971 49976 70930 333 10335 59012;EQDQ01  00002PRCP99
0184417590999992000061306004+25270+063480FM-12+000699999V0202401N004112200019N0040001N1+03201+02551100111ADDAA199000091AY101061AY201061GA1001+999999999GF100991001001999999001001MD1999999-0041MW1051REMSYN064AAXX  13064 41759 32996 02408 10320 20255 40011 70500 333 59004;EQDQ01  00002PRCP99
0224417590999992000061312004+25270+063480FM-12+000699999V0202401N014412200019N0010001N1+03151+02541099921ADDAA199000091AY131061AY201061GA1001+999999999GF100991001001999999001001KA1120M+03251MA1999999099871MD1999999+0161MW1091REMSYN076AAXX  13124 41759 32994 02428 10315 20254 39987 49992 70930 333 10325 58016;EQDQ01  00002PRCP99
0156417590999992000061318004+25270+063480FM-12+000699999V0202701N003112200019N9999999N1+02801+02521100131ADDAA199000091GA1001+999999999GF100991001001999999001001MD1999999-0271REMSYN058AAXX  13184 41759 329// 02706 10280 20252 40013 333 59027;EQDQ01  00002PRCP99
0184417590999992000061406004+25260+063480FM-12+000699999V0202701N003112200019N0020001N1+03101+02541100331ADDAA199000091AY101061AY201061GA1001+999999999GF100991001001999999001001MD1999999+0221MW1051REMSYN064AAXX  14064 41759 32995 02706 10310 20254 40033 70500 333 58022;EQDQ01  00002PRCP99
0224417590999992000061412004+25260+063480FM-12+000699999V0202401N004112200019N0020001N1+03001+02581100071ADDAA199000091AY101061AY201061GA1001+999999999GF100991001001999999001001KA1120M+03201MA1999999100021MD1999999+0151MW1051REMSYN076AAXX  14124 41759 32995 02408 10300 20258 30002 40007 70500 333 10320 58015;EQDQ01  00002PRCP99
0163417590999992000061502004+25260+063480FM-12+000699999V0209999C000012200019N9999999N1+02701+02561100641ADDAA199000091GA1001+999999999GF100991001001999999001001MA1999999100151REMSYN064AAXX  15024 41759 329// 00000 10270 20256 30015 40064 333 56026;EQDQ01  00002PRCP99
0224417590999992000061512004+25260+063480FM-12+000699999V0202701N010312200019N0040001N1+03051+02561100091ADDAA199000091AY101061AY201061GA1001+999999999GF100991001001999999001001KA1120M+03201MA1999999100041MD1999999+0021MW1081REMSYN076AAXX  15124 41759 32996 02720 10305 20256 30004 40009 70800 333 10320 58002;EQDQ01  00002PRCP99
0156417590999992000061518004+25260+063480FM-12+000699999V0202701N004112200019N9999999N1+02801+02521100161ADDAA199000091GA1001+999999999GF100991001001999999001001MD1999999-0031REMSYN058AAXX  15184 41759 329// 02708 10280 20252 40016 333 59003;EQDQ01  00002PRCP99
0180417590999992000061606004+25260+063480FM-12+000699999V0202701N003112200019N0020001N1+03551+02491100341ADDAA199000091AY101061AY201061GF103991031051999999001001MD1999999+0021MW1051REMSYN076AAXX  16064 41759 32995 32706 10355 20249 40034 70500 83500 333 56900 58002;EQDQ01  00002PRCP99
0177417590999992000061700004+25260+063480FM-12+000699999V0202701N003112200019N9999999N1+03701+02561100081ADDAA199000091GA1001+999999999GF100991001001999999001001MA1999999100031MD1999999-0081REMSYN064AAXX  17004 41759 329// 02706 10370 20256 30003 40008 333 59008;EQDQ01  00002PRCP99
0184417590999992000061706004+25260+063480FM-12+000699999V0202701N004112200019N0040001N1+03251+02551100261ADDAA199000091AY101061AY201061GA1001+999999999GF100991001001999999001001MD1999999-0091MW1051REMSYN064AAXX  17064 41759 31996 02708 10325 20255 40026 70500 333 59009;EQDQ01  00002PRCP99
0224417590999992000061712004+25260+063480FM-12+000699999V0202401N003112200019N0040001N1+03251+02401099871ADDAA199000091AY101061AY201061GA1001+999999999GF100991001001999999001001KA1120M+03351MA1999999099821MD1999999-0231MW1051REMSYN076AAXX  17124 41759 32996 02406 10325 20240 39982 49987 70500 333 10335 59023;EQDQ01  00002PRCP99
0156417590999992000061718004+25260+063480FM-12+000699999V0202701N003112200019N9999999N1+02851+02351100061ADDAA199000091GA1001+999999999GF100991001001999999001001MD1999999-0051REMSYN058AAXX  17184 41759 329// 02706 10285 20235 40006 333 59005;EQDQ01  00002PRCP99
0184417590999992000061806004+25260+063480FM-12+000699999V0202701N002112200019N0040001N1+03251+02461100061ADDAA199000091AY101061AY201061GA1001+999999999GF100991001001999999001001MD1999999+0101MW1051REMSYN064AAXX  18064 41759 32996 02704 10325 20246 40006 70500 333 58010;EQDQ01  00002PRCP99
0156417590999992000061818004+25260+063480FM-12+000699999V0209999C000012200019N9999999N1+02801+02531099871ADDAA199000091GA1001+999999999GF100991001001999999001001MD1999999-0161REMSYN058AAXX  18184 41759 329// 00000 10280 20253 49987 333 59016;EQDQ01  00002PRCP99
0177417590999992000061900004+25260+063480FM-12+000699999V0202701N001012200019N9999999N1+02601+02431099911ADDAA199000091GA1001+999999999GF100991001001999999001001MA1999999099431MD1999999-0081REMSYN064AAXX  19004 41759 329// 02702 10260 20243 39943 49991 333 59008;EQDQ01  00002PRCP99
0156417590999992000061906004+25260+063480FM-12+000699999V0202701N002112200019N0020001N1+03251+02481099971ADDAA199000091GA1001+999999999GF100991001001999999001001MD1999999-0081REMSYN058AAXX  19064 41759 32995 02704 10325 20248 49997 333 59008;EQDQ01  00002PRCP99
0135417590999992000062000004+25260+063480FM-12+000699999V0209999C000019999999N9999999N1+02601+02531099881ADDAA199000091MA1999999099831MD1999999-0031REMSYN064AAXX  20004 41759 329// /0000 10260 20253 39983 49988 333 59003;EQDQ01  00002PRCP99
0184417590999992000062006004+25260+063480FM-12+000699999V0202401N003112200019N0020001N1+03251+02481099961ADDAA199000091AY101061AY201061GA1001+999999999GF100991001001999999001001MD1999999-0011MW1051REMSYN064AAXX  20064 41759 31995 02406 10325 20248 49996 70500 333 59001;EQDQ01  00002PRCP99
0224417590999992000062012004+25260+063480FM-12+000699999V0202401N010312200019N0040001N1+03151+02671099781ADDAA199000091AY101061AY201061GA1001+999999999GF100991001001999999001001KA1120M+03401MA1999999099731MD1999999+0121MW1071REMSYN076AAXX  20124 41759 31996 02420 10315 20267 39973 49978 70700 333 10340 58012;EQDQ01  00002PRCP99
0156417590999992000062018004+25260+063480FM-12+000699999V0209999C000012200019N9999999N1+02801+02721100021ADDAA199000091GA1001+999999999GF100991001001999999001001MD1999999+0151REMSYN058AAXX  20184 41759 329// 00000 10280 20272 40002 333 58015;EQDQ01  00002PRCP99
0177417590999992000062100004+25260+063480FM-12+000699999V0209999C000012200019N9999999N1+02701+02491100031ADDAA199000091GA1001+999999999GF100991001001999999001001MA1999999099981MD1999999+0051REMSYN064AAXX  21004 41759 329// 00000 10270 20249 39998 40003 333 58005;EQDQ01  00002PRCP99
0202417590999992000062106004+25260+063480FM-12+000699999V0202601N999992200019N0010001N1+99999+99999100151ADDAA199000091GA1031+009009059GF103991031051999999001001REMSYN070AAXX  21064 41759 32994 32697 32706 40015 83500 333 56900 56019 83630;EQDQ01+004993WOSPD Q02+027061APOSP Q03  00002PRCP99Q040004993WOSPD 
0214417590999992000062112004+25260+063480FM-12+000699999V0202701N003112200019N0100001N1+03201+02501099971ADDAA199000091GA1031+009009059GF103991031051012501001001KA1120M+03251MA1999999099921MD1999999+0191REMSYN088AAXX  21124 41759 32697 32706 10320 20250 39992 49997 83500 333 10325 56900 58019 83630;EQDQ01  00002PRCP99
0177417590999992000062200004+25260+063480FM-12+000699999V0209999C000012200019N9999999N1+02701+02411100061ADDAA199000091GA1001+999999999GF100991001001999999001001MA1999999100011MD1999999+0031REMSYN064AAXX  22004 41759 329// 00000 10270 20241 30001 40006 333 58003;EQDQ01  00002PRCP99
0218417590999992000062206004+25260+063480FM-12+000699999V0209999C000012200019N0040001N1+03101+02391100071ADDAA199000091AY101061AY201061GA1031+009009059GF199999031061012501001001MD1999999-0081MW1051REMSYN082AAXX  22064 41759 31696 20000 10310 20239 40007 70500 83600 333 56900 59008 83630;EQDQ01+000022SCOTCVQ02  00002PRCP99
0242417590999992000062212004+25260+063480FM-12+000699999V0202701N005112200019N0040001N1+03201+02501099721ADDAA199000091AY101061AY201061GA1021+009009059GF102991021001012501061001KA1120M+03301MA1999999099671MD1999999-0251MW1051REMSYN094AAXX  22124 41759 31696 22710 10320 20250 39967 49972 70500 82060 333 10330 56990 59025 82630;EQDQ01  00002PRCP99
0156417590999992000062218004+25260+063480FM-12+000699999V0202701N002112200019N9999999N1+02851+02501099911ADDAA199000091GA1001+999999999GF100991001001999999001001MD1999999-0211REMSYN058AAXX  22184 41759 329// 02704 10285 20250 49991 333 59021;EQDQ01  00002PRCP99
0177417590999992000062300004+25260+063480FM-12+000699999V0209999C000012200019N0100001N1+02751+02471100051ADDAA199000091GA1001+999999999GF100991001001999999001001MA1999999100001MD1999999-0011REMSYN064AAXX  23004 41759 32997 00000 10275 20247 30000 40005 333 59001;EQDQ01  00002PRCP99
0160417590999992000062312004+25260+063480FM-12+000699999V0201801N005110090019N0040001N1+03201+02501099941ADDAA199000091GA1051+009009059GF105991051061012501001001REMSYN076AAXX  23124 41759 31696 51810 10320 20250 49994 85600 333 56900 56011 85630;EQDQ01  00002PRCP99
0156417590999992000062318004+25260+063480FM-12+000699999V0209999C000012200019N9999999N1+02951+02451100071ADDAA199000091GA1001+999999999GF100991001001999999001001MD1999999-0161REMSYN058AAXX  23184 41759 329// 00000 10295 20245 40007 333 59016;EQDQ01  00002PRCP99
0177417590999992000062400004+25260+063480FM-12+000699999V0209999C000012200019N9999999N1+02851+02421100071ADDAA199000091GA1001+999999999GF100991001001999999001001MA1999999100021MD1999999+0081REMSYN064AAXX  24004 41759 329// 00000 10285 20242 30002 40007 333 58008;EQDQ01  00002PRCP99
0202417590999992000062406004+25260+063480FM-12+000699999V0202701N004119999999N0040001N1+03201+02341100181ADDAA199000091AY101061AY201061GA1041+009009059GF107991041061012501001001MD1999999+0171MW1051REMSYN082AAXX  24064 41759 31696 72708 10320 20234 40018 70500 84600 333 56900 58017 84630;EQDQ01  00002PRCP99
0174417590999992000062506004+25260+063480FM-12+000699999V0202401N003110090019N0100001N1+03101+02391100091ADDAA199000091GA1061+009009059GF106991061061012501001001MD1999999-0111REMSYN076AAXX  25064 41759 31697 62406 10310 20239 40009 86600 333 56900 59011 86630;EQDQ01  00002PRCP99
0177417590999992000062600004+25260+063480FM-12+000699999V0209999C000012200019N9999999N1+02531+02521100051ADDAA199000091GA1001+999999999GF100991001001999999001001MA1999999100001MD1999999+0051REMSYN064AAXX  26004 41759 329// 00000 10253 20252 30000 40005 333 58005;EQDQ01  00002PRCP99
0188417590999992000062606004+25260+063480FM-12+000699999V0202401N003112200019N0040001N1+03151+02361100111ADDAA199000091AY101061AY201061GA1031+009009059GF103991031061012501001001MW1051REMSYN082AAXX  26064 41759 31696 32406 10315 20236 40011 70500 83600 333 56900 5802/ 83630;EQDQ01  00002PRCP99
0221417590999992000062612004+25260+063480FM-12+000699999V0202401N005112200019N0040001N1+03201+02501099921ADDAA199000091AY101061AY201061GA1041+009009059GF104991041061999999001001KA1120M+03251MD1999999-0071MW1051REMSYN088AAXX  26124 41759 31/96 42410 10320 2025/ 49992 70500 84600 333 10325 56900 59007 84630;EQDQ01  00002PRCP99
0156417590999992000062618004+25260+063480FM-12+000699999V0209999C000012200019N9999999N1+02851+02501100031ADDAA199000091GA1001+999999999GF100991001001999999001001MD1999999-0041REMSYN058AAXX  26184 41759 329// 00000 10285 20250 40003 333 59004;EQDQ01  00002PRCP99
0202417590999992000062806004+25260+063480FM-12+000699999V0202401N003112200019N0040001N1+03101+02391100101ADDAA199000091AY101061AY201061GA1041+009009059GF104991011061012501001001MD1999999-0011MW1051REMSYN082AAXX  28064 41759 31696 42406 10310 20239 40010 70500 81600 333 56900 59001 84630;EQDQ01  00002PRCP99
0228417590999992000062812004+25260+063480FM-12+000699999V0201801N006212200019N0040001N1+03151+02441099931ADDAA199000091AY101061AY201061GA1021+009009059GF102991021061012501001001KA1120M+03301MA1999999099881MW1051REMSYN094AAXX  28124 41759 31696 21812 10315 20244 39988 49993 70500 82600 333 10330 56900 56012 82630;EQDQ01  00002PRCP99
0148417590999992000062900004+25260+063480FM-12+000699999V0209999C000012200019N9999999N1+02851+99999100081ADDAA199000091GA1001+999999999GF100991001001999999001001REMSYN064AAXX  29004 41759 329// 00000 10285 2/25/ 3/003 40008 333 58//0;EQDQ01  00002PRCP99
0114417590999992000062918004+25260+063480FM-12+000699999V0209999C000019999999N9999999N1+02951+02601099921ADDAA199000091MD1999999-0081REMSYN058AAXX  29184 41759 329// /0000 10295 20260 49992 333 59008;EQDQ01  00002PRCP99
0135417590999992000063000004+25260+063480FM-12+000699999V0209999C000019999999N9999999N1+02901+02551099861ADDAA199000091MA1999999099811MD1999999-0221REMSYN064AAXX  30004 41759 329// /0000 10290 20255 39981 49986 333 59022;EQDQ01  00002PRCP99
0242417590999992000063012004+25260+063480FM-12+000699999V0202401N006210090019N0040001N1+03151+02521099581ADDAA199000091AY101061AY201061GA1051+009009059GF105991051061012501001001KA1120M+03301MA1999999099531MD1999999-0251MW1051REMSYN094AAXX  30124 41759 31696 52412 10315 20252 39953 49958 70500 85600 333 10330 56900 59025 85630;EQDQ01  00002PRCP99
0224417590999992000070112004+25260+063480FM-12+000699999V0201801N004112200019N0040001N1+03151+02601099701ADDAA199000091AY101061AY201061GA1001+999999999GF100991001001999999001001KA1120M+03351MA1999999099651MD1999999+0121MW1051REMSYN076AAXX  01124 41759 31996 01808 10315 20260 39965 49970 70500 333 10335 58012;EQDQ01  00002PRCP99
0156417590999992000070118004+25260+063480FM-12+000699999V0209999C000012200019N9999999N1+03001+02581099981ADDAA199000091GA1001+999999999GF100991001001999999001001MD1999999+0161REMSYN058AAXX  01184 41759 329// 00000 10300 20258 49998 333 58016;EQDQ01  00002PRCP99
0177417590999992000070200004+25260+063480FM-12+000699999V0209999C000012200019N9999999N1+02901+02621100021ADDAA199000091GA1001+999999999GF100991001001999999001001MA1999999099971MD1999999-0211REMSYN064AAXX  02004 41759 329// 00000 10290 20262 39997 40002 333 59021;EQDQ01  00002PRCP99
0202417590999992000070206004+25260+063480FM-12+000699999V0201801N004112200019N0040001N1+03151+02601100061ADDAA199000091AY101061AY201061GA1041+030009079GF104991041001999999031001MD1999999+0191MW1051REMSYN082AAXX  02064 41759 31996 41808 10315 20260 40006 70500 84030 333 56090 58019 84360;EQDQ01  00002PRCP99
0242417590999992000070212004+25260+063480FM-12+000699999V0202301N003119999999N0040001N1+03301+02531099841ADDAA199000091AY101061AY201061GA1041+030009079GF108991041001999999031001KA1120M+03401MA1999999099791MD1999999+0341MW1051REMSYN094AAXX  02124 41759 31996 82306 10330 20253 39979 49984 70500 84030 333 10340 56090 58034 84360;EQDQ01  00002PRCP99
0174417590999992000070306004+25260+063480FM-12+000699999V0202301N002112200019N0100001N1+03251+02481100091ADDAA199000091GA1041+009009059GF104991041051012501001001MD1999999+0031REMSYN076AAXX  03064 41759 32697 42304 10325 20248 40009 84500 333 56900 58003 84630;EQDQ01  00002PRCP99
0224417590999992000070312004+25260+063480FM-12+000699999V0202301N007212200019N0040001N1+03201+02501099821ADDAA199000091AY101061AY201061GA1001+999999999GF100991001001999999001001KA1120M+03401MA1999999099771MD1999999-0021MW1071REMSYN076AAXX  03124 41759 31996 02314 10320 20250 39977 49982 70700 333 10340 59002;EQDQ01  00002PRCP99
0174417590999992000070406004+25260+063480FM-12+000699999V0202301N003112200019N0100001N1+03201+02421100151ADDAA199000091GA1041+009009059GF104991041051012501001001MD1999999+0061REMSYN076AAXX  04064 41759 32697 42306 10320 20242 40015 84500 333 56900 58006 84630;EQDQ01  00002PRCP99
0242417590999992000070412004+25260+063480FM-12+000699999V0202301N005112200019N0040001N1+03151+02521099881ADDAA199000091AY101061AY201061GA1031+060009019GF103991001001999999001011KA1120M+03381MA1999999099831MD1999999+0061MW1051REMSYN094AAXX  04124 41759 31996 32310 10315 20252 39983 49988 70500 80001 333 10338 56009 58006 83070;EQDQ01  00002PRCP99
0156417590999992000070418004+25260+063480FM-12+000699999V0202301N003112200019N9999999N1+02901+02551100191ADDAA199000091GA1001+999999999GF100991001001999999001001MD1999999+0161REMSYN058AAXX  04184 41759 329// 02306 10290 20255 40019 333 58016;EQDQ01  00002PRCP99
0195417590999992000070700004+25260+063480FM-12+000699999V0202701N002112200019N9999999N1+02801+02371099941ADDAA199000091GA1031+009009059GF103991031051012501001001MA1999999099891MD1999999-0101REMSYN082AAXX  07004 41759 326// 32704 10280 20237 39989 49994 83500 333 56900 59010 83630;EQDQ01  00002PRCP99
0156417590999992000070718004+25260+063480FM-12+000699999V0202301N003112200019N9999999N1+02851+02501099831ADDAA199000091GA1001+999999999GF100991001001999999001001MD1999999-0091REMSYN058AAXX  07184 41759 329// 02306 10285 20250 49983 333 59009;EQDQ01  00002PRCP99
0174417590999992000070806004+25260+063480FM-12+000699999V0202701N001512200019N0100001N1+03201+02421099851ADDAA199000091GA1041+009009059GF104991041051012501001001MD1999999-0101REMSYN076AAXX  08064 41759 32697 42703 10320 20242 49985 84500 333 56900 59010 84630;EQDQ01  00002PRCP99
0164417590999992000070900004+25260+063480FM-12+000699999V0209999C000012200019N9999999N1+02701+02411099611ADDAA199000091GF104991001001999999001011MD1999999-0201REMSYN082AAXX  09004 41759 329// 40000 10270 20241 49961 80001 333 56009 59020 80/33 84070;EQDQ01  00002PRCP99
0157417590999992000070906004+25260+063480FM-12+000699999V0201801N002119999999N0100001N1+03201+99999999999ADDAA199000091GF105991999999012501999999MD1999999-0221REMSYN075AAXX  09064 41759 32697 51804 10320 0250 49967 85500 333 56900 59022 85630;EQDQ01  00002PRCP99
0196417590999992000070918004+25260+063480FM-12+000699999V0209999C000019999999N9999999N1+02901+02551099561ADDAA199000091GA1031+006009079GF106991999061008001001001MD1999999-0131REMSYN082AAXX  09184 41759 325// 60000 10290 20255 49956 87600 333 56900 59013 83720 84630;EQDQ01+000072SCOTLCQ02  00002PRCP99
0217417590999992000071000004+25260+063480FM-12+000699999V0209999C000019999999N9999999N1+02851+02571099521ADDAA199000091GA1031+006009019GF106991999061008001001001MA1999999099471MD1999999-0091REMSYN088AAXX  10004 41759 325// 60000 10285 20257 39947 49952 87600 333 56900 59009 83120 84630;EQDQ01+000072SCOTLCQ02  00002PRCP99
0249417590999992000071100004+25260+063480FM-12+000699999V0201801N002112200019N9999999N1+02901+02551099561ADDAA199000091GA1031+006009079GF199999999999999999001001MA1999999099511MD1999999+0041REMSYN088AAXX  11004 41759 325// 01804 10290 20255 39951 49956 88600 333 56900 58004 83720 85630;EQDQ01+000002SCOTCVQ02+000002SCOTLCQ03+000002SCOLCGQ04  00002PRCP99
0196417590999992000071118004+25260+063480FM-12+000699999V0201801N005119999999N9999999N1+02901+02481099511ADDAA199000091GA1031+006009079GF106991999061008001001001MD1999999-0021REMSYN082AAXX  11184 41759 325// 61810 10290 20248 49951 87600 333 56900 59002 83720 84630;EQDQ01+000072SCOTLCQ02  00002PRCP99
0217417590999992000071200004+25260+063480FM-12+000699999V0201301N004119999999N9999999N1+02501+02501099561ADDAA199000091GA1031+006009079GF106991999061008001001001MA1999999099511MD1999999+0001REMSYN088AAXX  12004 41759 325// 61308 1025/ 20250 39951 49956 87600 333 56900 58000 83720 84630;EQDQ01+000072SCOTLCQ02  00002PRCP99
0214417590999992000071212004+25260+063480FM-12+000699999V0201801N006212200019N0100001N1+03101+02461099431ADDAA199000091GA1031+009009059GF103991031051012501001001KA1120M+03271MA1999999099381MD1999999+0111REMSYN088AAXX  12124 41759 31697 31812 10310 20246 39938 49943 83500 333 10327 56900 58011 83630;EQDQ01  00002PRCP99
0174417590999992000071306004+25260+063480FM-12+000699999V0201801N004112200019N0100001N1+03201+02421099761ADDAA199000091GA1041+009009059GF104991041001012501051001MD1999999+0141REMSYN076AAXX  13064 41759 32697 41808 10320 20242 49976 84050 333 56900 58014 84630;EQDQ01  00002PRCP99
0180417590999992000071318004+25260+063480FM-12+000699999V0202301N00411036001CN9999999N1+02901+02481099871ADDAA199000091GA1031+009009069GF106991031051012501031001MD1999999+0141REMSYN082AAXX  13184 41759 326// 62308 10290 20248 49987 83530 333 56990 58014 83630 84360;EQDQ01  00002PRCP99
0217417590999992000071400004+25260+063480FM-12+000699999V0202301N005119999999N9999999N1+02801+02521099771ADDAA199000091GA1031+006009079GF105991999061008001001001MA1999999099721MD1999999+0111REMSYN088AAXX  14004 41759 325// 52310 10280 20252 39972 49977 86600 333 56900 58011 83720 83630;EQDQ01+000062SCOTLCQ02  00002PRCP99
0168417590999992000071418004+25260+063480FM-12+000699999V0202301N005119999999N9999999N1+02851+02501099811ADDAA199000091GF105991999071008001001001MD1999999-0061REMSYN070AAXX  14184 41759 325// 52310 10285 20250 49981 87700 333 56900 59006;EQDQ01+000072SCOTLCQ02  00002PRCP99
0217417590999992000071600004+25260+063480FM-12+000699999V0202301N003119999999N9999999N1+02801+02371099671ADDAA199000091GA1031+006009079GF107991999061008001001001MA1999999099621MD1999999-0091REMSYN088AAXX  16004 41759 325// 72306 10280 20237 39962 49967 88600 333 56900 59009 83720 85630;EQDQ01+000082SCOTLCQ02  00002PRCP99
0217417590999992000071700004+25260+063480FM-12+000699999V0202301N003119999999N9999999N1+02801+02441099661ADDAA199000091GA1031+006009079GF106991999061008001001001MA1999999099611MD1999999-0011REMSYN088AAXX  17004 41759 325// 62306 10280 20244 39961 49966 87600 333 56900 59001 83720 84630;EQDQ01+000072SCOTLCQ02  00002PRCP99
0242417590999992000071712004+25260+063480FM-12+000699999V02099999999992200019N0040001N1+03101+02541099471ADDAA199000091AY101061AY201061GA1021+009009059GF102991021051012501001001KA1120M+03271MA1999999099421MD1999999-0061MW1071REMSYN094AAXX  17124 41759 31696 231/6 10310 20254 39942 49947 70700 82500 333 10327 56900 59006 82630;EQDQ01  00002PRCP99
0196417590999992000071718004+25260+063480FM-12+000699999V0202301N004119999999N9999999N1+02901+02551099761ADDAA199000091GA1031+006009079GF106991999061008001001001MD1999999+0071REMSYN082AAXX  17184 41759 325// 62308 10290 20255 49976 87600 333 56900 58007 83720 84630;EQDQ01+000072SCOTLCQ02  00002PRCP99
0224417590999992000071912004+25260+063480FM-12+000699999V0202301N010312200019N0020001N1+03101+02391099651ADDAA199000091AY101061AY201061GA1001+999999999GF100991001001999999001001KA1120M+03231MA1999999099601MD1999999+0091MW1071REMSYN076AAXX  19124 41759 31995 02320 10310 20239 39960 49965 70700 333 10323 58009;EQDQ01  00002PRCP99
0174417590999992000071918004+25260+063480FM-12+000699999V0202301N005112200019N9999999N1+02801+02371099891ADDAA199000091GA1041+009009059GF104991021051012501001001MD1999999+0121REMSYN076AAXX  19184 41759 326// 42310 10280 20237 49989 82500 333 56900 58012 84630;EQDQ01  00002PRCP99
0195417590999992000072000004+25260+063480FM-12+000699999V0202701N003112200019N9999999N1+02551+02261099871ADDAA199000091GA1031+009009059GF103991031051012501001001MA1999999099821MD1999999+0131REMSYN082AAXX  20004 41759 326// 32706 10255 20226 39982 49987 83500 333 56900 58013 83630;EQDQ01  00002PRCP99
0224417590999992000072012004+25260+063480FM-12+000699999V0202301N010312200019N0040001N1+03001+02431099821ADDAA199000091AY101061AY201061GA1001+999999999GF100991001001999999001001KA1120M+03221MA1999999099771MD1999999+0171MW1071REMSYN076AAXX  20124 41759 31996 02320 10300 20243 39977 49982 70700 333 10322 58017;EQDQ01  00002PRCP99
0156417590999992000072018004+25260+063480FM-12+000699999V0202701N005112200019N9999999N1+02701+02411100061ADDAA199000091GA1001+999999999GF100991001001999999001001MD1999999+0171REMSYN058AAXX  20184 41759 329// 02710 10270 20241 40006 333 58017;EQDQ01  00002PRCP99
0195417590999992000072100004+25260+063480FM-12+000699999V0202701N002112200019N9999999N1+02551+02181099991ADDAA199000091GA1031+060009019GF103991001001999999001011MA1999999099941MD1999999+0121REMSYN082AAXX  21004 41759 329// 32704 10255 20218 39994 49999 80001 333 56009 58012 83070;EQDQ01  00002PRCP99
0202417590999992000072106004+25260+063480FM-12+000699999V0202701N007212200019N0040001N1+03051+02331100101ADDAA199000091AY101061AY201061GA1021+060009019GF104991001001999999001011MD1999999+0061MW1051REMSYN082AAXX  21064 41759 31996 42714 10305 20233 40010 70500 80001 333 56009 58006 82070;EQDQ01  00002PRCP99
0156417590999992000072118004+25260+063480FM-12+000699999V0202701N006212200019N9999999N1+02591+02311100121ADDAA199000091GA1001+999999999GF100991001001999999001001MD1999999+0061REMSYN058AAXX  21184 41759 329// 02712 10259 20231 40012 333 58006;EQDQ01  00002PRCP99
0174417590999992000072206004+25260+063480FM-12+000699999V0202301N005112200019N0100001N1+03001+02281100271ADDAA199000091GA1041+009009059GF104991041051012501001001MD1999999+0171REMSYN076AAXX  22064 41759 32697 42310 10300 20228 40027 84500 333 56900 58017 84630;EQDQ01  00002PRCP99
0122417590999992000072306004+25260+063480FM-12+000699999V0202301N005112200019N0100001N1+03001+02281100421ADDAA199000091GF103991031051012501001001REMSYN054AAXX  23064 41759 32697 32310 10300 20228 40042 83500;EQDQ01  00002PRCP99
0217417590999992000072400004+25260+063480FM-12+000699999V0209999C000019999999N9999999N1+02701+02491100181ADDAA199000091GA1031+006009079GF107991999061008001001001MA1999999100131MD1999999-0111REMSYN088AAXX  24004 41759 325// 70000 10270 20249 30013 40018 88600 333 56900 59011 83720 85630;EQDQ01+000082SCOTLCQ02  00002PRCP99
0174417590999992000072406004+25260+063480FM-12+000699999V0202301N004110090019N0100001N1+03001+02201100651ADDAA199000091GA1061+009009059GF106991061051012501001001MD1999999-0171REMSYN076AAXX  24064 41759 32697 62308 10300 20220 40065 86500 333 56900 59017 86630;EQDQ01  00002PRCP99
0217417590999992000072500004+25260+063480FM-12+000699999V0209999C000019999999N9999999N1+02651+02291100181ADDAA199000091GA1031+006009079GF107991999061008001001001MA1999999100131MD1999999+0001REMSYN088AAXX  25004 41759 325// 70000 10265 20229 30013 40018 88600 333 56900 58000 83720 85630;EQDQ01+000082SCOTLCQ02  00002PRCP99
0195417590999992000072600004+25260+063480FM-12+000699999V0200901N002110300019N9999999N1+02651+02361100211ADDAA199000091GA1051+030009079GF105991051001999999031001MA1999999100161MD1999999+0031REMSYN082AAXX  26004 41759 329// 50904 10265 20236 30016 40021 85030 333 56090 58003 85360;EQDQ01  00002PRCP99
0174417590999992000072606004+25260+063480FM-12+000699999V0200901N003112200019N0100001N1+03101+02391100341ADDAA199000091GA1021+009009059GF102991021051012501001001MD1999999+0021REMSYN076AAXX  26064 41759 32697 20906 10310 20239 40034 82500 333 56900 58002 82630;EQDQ01  00002PRCP99
0174417590999992000072806004+25260+063480FM-12+000699999V0201801N002112200019N0100001N1+03051+02491100121ADDAA199000091GA1031+009009059GF103991031051012501001001MD1999999-0111REMSYN076AAXX  28064 41759 32697 31804 10305 20249 40012 83500 333 56900 59011 83630;EQDQ01  00002PRCP99
0236417590999992000072912004+25260+063480FM-12+000699999V0202301N004112200019N0100001N1+03851+02441099961ADDAA199000091GA1011+009009069GF104991011051012501001011KA1120M+99999MA1999999099911MD1999999+0081REMSYN094AAXX  29124 41759 32697 42308 10385 20244 39991 49996 81501 333 10335 56909 58008 81630 84070;EQDQ01  00002PRCP99Q02 +03352ATMX  
0144417590999992000072918004+25260+063480FM-12+000699999V0202301N004112200019N9999999N1+02801+02371100301ADDGA1031+009009059GF103991031051999999001001MD1999999+0291REMSYN076AAXX  29184 41759 26/// 32308 10280 20237 40030 83500 333 56900 58029 83630;
0217417590999992000073000004+25260+063480FM-12+000699999V0202301N002119999999N9999999N1+02901+02261100171ADDAA199000091GA1041+006009079GF105991999061999999001001MA1999999100121MD1999999+0101REMSYN088AAXX  30004 41759 32/// 52304 10290 20226 30012 40017 88600 333 56900 58010 84720 82630;EQDQ01+000082SCOTLCQ02  00002PRCP99
0174417590999992000073018004+25260+063480FM-12+000699999V0202301N001012200019N9999999N1+02751+02311100271ADDAA199000091GA1021+009009059GF103991031051012501001001MD1999999-0031REMSYN076AAXX  30184 41759 326// 32302 10275 20231 40027 83500 333 56900 59003 82630;EQDQ01  00002PRCP99
0217417590999992000080100004+25260+063480FM-12+000699999V0209999C000019999999N9999999N1+02701+02261099881ADDAA199000091GA1031+006009079GF107991999061008001001001MA1999999099831MD1999999-0241REMSYN088AAXX  01004 41759 325// 70000 10270 20226 39983 49988 88600 333 56900 59024 83720 85630;EQDQ01+000082SCOTLCQ02  00002PRCP99
0196417590999992000080106004+25260+063480FM-12+000699999V0201801N003119999999N0100001N1+02901+02321100001ADDAA199000091GA1031+006009079GF107991999061008001001001MD1999999-0151REMSYN082AAXX  01064 41759 32597 71806 10290 20232 40000 88600 333 56900 59015 83720 85630;EQDQ01+000082SCOTLCQ02  00002PRCP99
0190417590999992000080206004+25260+063480FM-12+000699999V0202301N006210090019N0100001N1+02951+02301100201ADDAA199000091GA1051+009009059GF105991999061012501001001MD1999999+0191REMSYN076AAXX  02064 41759 32697 52312 10295 20230 40020 86600 333 56900 58019 85630;EQDQ01+000062SCOTLCQ02  00002PRCP99
0196417590999992000080212004+25260+063480FM-12+000699999V0202301N004112200019N0100001N1+02901+02241100061ADDAA199000091GA1001+999999999GF100991001001999999001001KA1120M+03051MA1999999100011MD1999999+0291REMSYN070AAXX  02124 41759 32997 02308 10290 20224 30001 40006 333 10305 58029;EQDQ01  00002PRCP99
0131417590999992000080300004+25260+063480FM-12+000699999V0209999C000019999999N9999999N1+02651+02211999999ADDAA199000091GF106991999999008001999999MA1999999100001REMSYN048AAXX  03004 41759 325// 60000 10265 20221 3000/;EQDQ01  00002PRCP99
0220417590999992000080312004+25260+063480FM-12+000699999V0201801N00621007501CN0100001N1+02901+02321100141ADDAA199000091GA1041+006009079GF107991071061008001001001KA1120M+03001MA1999999100091MD1999999+0081REMSYN094AAXX  03124 41759 32597 71812 10290 20232 30009 40014 87600 333 10300 56900 58008 84720 83630;EQDQ01  00002PRCP99
0201417590999992000080400004+25260+063480FM-12+000699999V0209999C00001007501CN9999999N1+02651+02291100291ADDAA199000091GA1031+006009079GF107991071061008001001001MA1999999100241MD1999999+0231REMSYN088AAXX  04004 41759 325// 70000 10265 20229 30024 40029 87600 333 56900 58023 83720 84360;EQDQ01  00002PRCP99
0220417590999992000080412004+25260+063480FM-12+000699999V0201801N00411007501CN0100001N1+02901+02321100431ADDAA199000091GA1041+006009079GF107991071061008001001001KA1120M+02951MA1999999100381MD1999999+0291REMSYN094AAXX  04124 41759 32597 71808 10290 20232 30038 40043 87600 333 10295 56900 58029 84720 83630;EQDQ01  00002PRCP99
0156417590999992000080418004+25260+063480FM-12+000699999V0209999C000012200019N9999999N1+02751+02311100601ADDAA199000091GA1001+999999999GF100991001001999999001001MD1999999+0331REMSYN058AAXX  04184 41759 329// 00000 10275 20231 40060 333 58033;EQDQ01  00002PRCP99
0201417590999992000080500004+25260+063480FM-12+000699999V0209999C00001007501CN9999999N1+02651+02291100491ADDAA199000091GA1031+006009079GF106991061061008001001001MA1999999100441MD1999999+0201REMSYN088AAXX  05004 41759 325// 60000 10265 20229 30044 40049 86600 333 56900 58020 83720 83630;EQDQ01  00002PRCP99
0156417590999992000080618004+25260+063480FM-12+000699999V0209999C000012200019N9999999N1+02751+02311100171ADDAA199000091GA1001+999999999GF100991001001999999001001MD1999999-0291REMSYN058AAXX  06184 41759 329// 00000 10275 20231 40017 333 59029;EQDQ01  00002PRCP99
0156417590999992000080806004+25260+063480FM-12+000699999V0209999C000012200019N0100001N1+03001+02281100321ADDAA199000091GA1001+999999999GF100991001001999999001001MD1999999+0051REMSYN058AAXX  08064 41759 32997 00000 10300 20228 40032 333 58005;EQDQ01  00002PRCP99
0114417590999992000080818004+25260+063480FM-12+000699999V0209999C000019999999N9999999N1+02701+02261100231ADDAA199000091MD1999999-0021REMSYN058AAXX  08184 41759 329// /0000 10270 20226 40023 333 59002;EQDQ01  00002PRCP99
0180417590999992000080906004+25260+063480FM-12+000699999V0209999C00001007501CN0100001N1+02851+02351100261ADDAA199000091GA1031+006009079GF108991061061008001001001MD1999999-0061REMSYN082AAXX  09064 41759 32597 80000 10285 20235 40026 86600 333 56900 59006 83720 82630;EQDQ01  00002PRCP99
0180417590999992000081006004+25260+063480FM-12+000699999V0209999C00001007501CN0100001N1+02901+02401099831ADDAA199000091GA1031+006009079GF106991061061008001001001MD1999999-0431REMSYN082AAXX  10064 41759 32597 60000 10290 20240 49983 86600 333 56900 59043 83720 82630;EQDQ01  00002PRCP99
0196417590999992000081012004+25260+063480FM-12+000699999V0202301N004112200019N0100001N1+03001+02431099521ADDAA199000091GA1001+999999999GF100991001001999999001001KA1120M+03101MA1999999099471MD1999999-0211REMSYN070AAXX  10124 41759 32997 02308 10300 20243 39947 49952 333 10310 59021;EQDQ01  00002PRCP99
0156417590999992000081106004+25260+063480FM-12+000699999V0209999C000012200019N0100001N1+03001+02431100021ADDAA199000091GA1001+999999999GF100991001001999999001001MD1999999+0191REMSYN058AAXX  11064 41759 32997 00000 10300 20243 40002 333 58019;EQDQ01  00002PRCP99
0224417590999992000081112004+25260+063480FM-12+000699999V0202301N004112200019N0040001N1+03001+02431099831ADDAA199000091AY101061AY201061GA1001+999999999GF100991001001999999001001KA1120M+03201MA1999999099781MD1999999+0311MW1051REMSYN076AAXX  11124 41759 31996 02308 10300 20243 39978 49983 70500 333 10320 58031;EQDQ01  00002PRCP99
0156417590999992000081118004+25260+063480FM-12+000699999V0209999C000012200019N9999999N1+02701+02261100101ADDAA199000091GA1001+999999999GF100991001001999999001001MD1999999-0231REMSYN058AAXX  11184 41759 329// 00000 10270 20226 40010 333 59023;EQDQ01  00002PRCP99
0177417590999992000081200004+25260+063480FM-12+000699999V0209999C000012200019N9999999N1+02601+02461100111ADDAA199000091GA1001+999999999GF100991001001999999001001MA1999999100061MD1999999+0251REMSYN064AAXX  12004 41759 329// 00000 10260 20246 30006 40011 333 58025;EQDQ01  00002PRCP99
0184417590999992000081206004+25260+063480FM-12+000699999V0209999C000012200019N0040001N1+03201+02261100271ADDAA199000091AY101061AY201061GA1001+999999999GF100991001001999999001001MD1999999+0251MW1051REMSYN064AAXX  12064 41759 31996 00000 10320 20226 40027 70500 333 58025;EQDQ01  00002PRCP99
0156417590999992000081218004+25260+063480FM-12+000699999V0209999C000012200019N9999999N1+02801+02371100381ADDAA199000091GA1001+999999999GF100991001001999999001001MD1999999-0281REMSYN058AAXX  12184 41759 329// 00000 10280 20237 40038 333 59028;EQDQ01  00002PRCP99
0156417590999992000081406004+25260+063480FM-12+000699999V0202301N004112200019N0100001N1+03001+02431100531ADDAA199000091GA1001+999999999GF100991001001999999001001MD1999999+0011REMSYN058AAXX  14064 41759 32997 02308 10300 20243 40053 333 58001;EQDQ01  00002PRCP99
0156417590999992000081518004+25260+063480FM-12+000699999V0209999C000012200019N9999999N1+02001+99999100271ADDAA199000091GA1001+999999999GF100991001001999999001001MD1999999-0081REMSYN058AAXX  15184 41759 329// 00000 1020/ 20241 40027 333 59008;EQDQ01  00002PRCP99
0180417590999992000081606004+25260+063480FM-12+000699999V0202301N00311007501CN0100001N1+02901+02321100351ADDAA199000091GA1031+009009079GF106991061061008001001001MD1999999+0021REMSYN082AAXX  16064 41759 32597 62306 10290 20232 40035 86600 333 56900 58002 83730 82630;EQDQ01  00002PRCP99
0156417590999992000081615004+25260+063480FM-12+000699999V0209999C000012200019N9999999N1+02801+02371100171ADDAA199000091GA1001+999999999GF100991001001999999001001MD1999999+0021REMSYN058AAXX  16154 41759 329// 00000 10280 20237 40017 333 58002;EQDQ01  00002PRCP99
0156417590999992000081618004+25260+063480FM-12+000699999V0209999C000012200019N9999999N1+02701+02401100291ADDAA199000091GA1001+999999999GF100991001001999999001001MD1999999+0021REMSYN058AAXX  16184 41759 329// 00000 10270 20240 40029 333 58002;EQDQ01  00002PRCP99
0156417590999992000081706004+25260+063480FM-12+000699999V0209999C000012200019N0100001N1+02951+02301100331ADDAA199000091GA1001+999999999GF100991001001999999001001MD1999999+0021REMSYN058AAXX  17064 41759 32997 00000 10295 20230 40033 333 58002;EQDQ01  00002PRCP99
0156417590999992000081718004+25260+063480FM-12+000699999V0209999C000012200019N9999999N1+02701+02411100011ADDAA199000091GA1001+999999999GF100991001001999999001001MD1999999-0281REMSYN058AAXX  17184 41759 329// 00000 10270 20241 40001 333 59028;EQDQ01  00002PRCP99
0224417590999992000081812004+25260+063480FM-12+000699999V0202301N010312200019N0040001N1+03101+02541099741ADDAA199000091AY101061AY201061GA1001+999999999GF100991001001999999001001KA1120M+03301MA1999999099691MD1999999-0251MW1051REMSYN076AAXX  18124 41759 31996 02320 10310 20254 39969 49974 70500 333 10330 59025;EQDQ01  00002PRCP99
0177417590999992000081900004+25260+063480FM-12+000699999V0209999C000012200019N9999999N1+02701+02561100111ADDAA199000091GA1001+999999999GF100991001001999999001001MA1999999100061MD1999999-0161REMSYN064AAXX  19004 41759 329// 00000 10270 20256 30006 40011 333 59016;EQDQ01  00002PRCP99
0224417590999992000081912004+25260+063480FM-12+000699999V0202301N003112200019N0040001N1+03001+02431100041ADDAA199000091AY101061AY201061GA1001+999999999GF100991001001999999001001KA1120M+03101MA1999999099991MD1999999+0301MW1051REMSYN076AAXX  19124 41759 31996 02306 10300 20243 39999 40004 70500 333 10310 58030;EQDQ01  00002PRCP99
0177417590999992000082000004+25260+063480FM-12+000699999V0209999C000012200019N9999999N1+02601+02151100321ADDAA199000091GA1001+999999999GF100991001001999999001001MA1999999100271MD1999999+0211REMSYN064AAXX  20004 41759 329// 00000 10260 20215 30027 40032 333 58021;EQDQ01  00002PRCP99
0184417590999992000082006004+25260+063480FM-12+000699999V0209999C000012200019N0040001N1+03001+02281100411ADDAA199000091AY101061AY201061GA1001+999999999GF100991001001999999001001MD1999999+0251MW1051REMSYN064AAXX  20064 41759 31996 00000 10300 20228 40041 70500 333 58025;EQDQ01  00002PRCP99
0224417590999992000082012004+25260+063480FM-12+000699999V0202301N006212200019N0040001N1+02901+02321100131ADDAA199000091AY101061AY201061GA1001+999999999GF100991001001999999001001KA1120M+03101MA1999999100081MD1999999-0101MW1051REMSYN076AAXX  20124 41759 31996 02312 10290 20232 30008 40013 70500 333 10310 59010;EQDQ01  00002PRCP99
0177417590999992000082100004+25260+063480FM-12+000699999V0209999C000012200019N9999999N1+02401+02251100231ADDAA199000091GA1001+999999999GF100991001001999999001001MA1999999100181MD1999999-0091REMSYN064AAXX  21004 41759 329// 00000 10240 20225 30018 40023 333 59009;EQDQ01  00002PRCP99
0184417590999992000082106004+25260+063480FM-12+000699999V0202301N003112200019N0040001N1+03001+02281100211ADDAA199000091AY101061AY201061GA1001+999999999GF100991001001999999001001MD1999999-0201MW1051REMSYN064AAXX  21064 41759 31996 02306 10300 20228 40021 70500 333 59020;EQDQ01  00002PRCP99
0184417590999992000082206004+25260+063480FM-12+000699999V0202301N002112200019N0040001N1+03001+02431100101ADDAA199000091AY101061AY201061GA1001+999999999GF100991001001999999001001MD1999999-0111MW1051REMSYN064AAXX  22064 41759 31996 02304 10300 20243 40010 70500 333 59011;EQDQ01  00002PRCP99
0156417590999992000082218004+25260+063480FM-12+000699999V0209999C000012200019N9999999N1+02701+02411100131ADDAA199000091GA1001+999999999GF100991001001999999001001MD1999999+0201REMSYN058AAXX  22184 41759 329// 00000 10270 20241 40013 333 58020;EQDQ01  00002PRCP99
0177417590999992000082300004+25260+063480FM-12+000699999V0209999C000012200019N9999999N1+02451+02201100241ADDAA199000091GA1001+999999999GF100991001001999999001001MA1999999100151MD1999999+0361REMSYN064AAXX  23004 41759 329// 00000 10245 20220 30015 40024 333 58036;EQDQ01  00002PRCP99
0184417590999992000082306004+25260+063480FM-12+000699999V0202301N003112200019N0040001N1+02901+02161100441ADDAA199000091AY101061AY201061GA1001+999999999GF100991001001999999001001MD1999999+0341MW1051REMSYN064AAXX  23064 41759 31996 02306 10290 20216 40044 70500 333 58034;EQDQ01  00002PRCP99
0196417590999992000082312004+25260+063480FM-12+000699999V0202301N005112200019N0100001N1+03001+02281100131ADDAA199000091GA1001+999999999GF100991001001999999001001KA1120M+03101MA1999999100081MD1999999+0311REMSYN070AAXX  23124 41759 32997 02310 10300 20228 30008 40013 333 10310 58031;EQDQ01  00002PRCP99
0224417590999992000082512004+25260+063480FM-12+000699999V0202301N005112200019N0040001N1+03101+02541099771ADDAA199000091AY101061AY201061GA1001+999999999GF100991001001999999001001KA1120M+03301MA1999999099721MD1999999+0081MW1051REMSYN076AAXX  25124 41759 31996 02310 10310 20254 39972 49977 70500 333 10330 58008;EQDQ01  00002PRCP99
0142417590999992000082606004+25260+063480FM-12+000699999V0209999C000019999999N0040001N1+03551+01701099041ADDAA199000091AY101061AY201061MD1999999-0181MW1051REMSYN064AAXX  26064 41759 31996 /0000 10355 20170 49904 70500 333 59018;EQDQ01  00002PRCP99
0156417590999992000082618004+25260+063480FM-12+000699999V0209999C000012200019N9999999N1+03001+02731100061ADDAA199000091GA1001+999999999GF100991001001999999001001MD1999999+0011REMSYN058AAXX  26184 41759 329// 00000 10300 20273 40006 333 58001;EQDQ01  00002PRCP99
0184417590999992000082706004+25260+063480FM-12+000699999V0209999C000012200019N0040001N1+03401+02411100161ADDAA199000091AY101061AY201061GA1001+999999999GF100991001001999999001001MD1999999+0221MW1051REMSYN064AAXX  27064 41759 31996 00000 10340 20241 40016 70500 333 58022;EQDQ01  00002PRCP99
0224417590999992000082712004+25260+063480FM-12+000699999V0202301N006212200019N0040001N1+03401+02571099871ADDAA199000091AY101061AY201061GA1001+999999999GF100991001001999999001001KA1120M+03601MA1999999099821MD1999999+0111MW1051REMSYN076AAXX  27124 41759 31996 02312 10340 20257 39982 49987 70500 333 10360 58011;EQDQ01  00002PRCP99
0184417590999992000082809004+25260+063480FM-12+000699999V0202301N007212200019N0040001N1+03201+02501100061ADDAA199000091AY101031AY201031GA1001+999999999GF100991001001999999001001MD1999999+0051MW1051REMSYN064AAXX  28094 41759 31996 02314 10320 20250 40006 70500 333 58005;EQDQ01  00002PRCP99
0240417590999992000082812004+25260+063480FM-12+000699999V0202301N008212200019N0040001N1+03001+02431999999ADDAA199000091AY101061AY201061GA1001+999999999GF100991001001999999001001KA1120M+03201MA1999999099881MD1999999+0061MW1051REMSYN076AAXX  28124 41759 31996 02316 10300 20243 39988 49913 70500 333 10320 58006;EQDQ01+099133APOSLPQ02  00002PRCP99
0156417590999992000082818004+25260+063480FM-12+000699999V0209999C000012200019N9999999N1+02701+02411100151ADDAA199000091GA1001+999999999GF100991001001999999001001MD1999999-0021REMSYN058AAXX  28184 41759 329// 00000 10270 20241 40015 333 59002;EQDQ01  00002PRCP99
0177417590999992000082900004+25260+063480FM-12+000699999V0209999C000012200019N9999999N1+02801+02371100071ADDAA199000091GA1001+999999999GF100991001001999999001001MA1999999100021MD1999999+0001REMSYN064AAXX  29004 41759 329// 00000 10280 20237 30002 40007 333 58000;EQDQ01  00002PRCP99
0224417590999992000082912004+25260+063480FM-12+000699999V0202301N005112200019N0040001N1+03001+02431099901ADDAA199000091AY101061AY201061GA1001+999999999GF100991001001999999001001KA1120M+03101MA1999999099851MD1999999-0031MW1051REMSYN076AAXX  29124 41759 31996 02310 10300 20243 39985 49990 70500 333 10310 59003;EQDQ01  00002PRCP99
0156417590999992000082918004+25260+063480FM-12+000699999V0209999C000012200019N9999999N1+02701+02411100051ADDAA199000091GA1001+999999999GF100991001001999999001001MD1999999-0121REMSYN058AAXX  29184 41759 329// 00000 10270 20241 40005 333 59012;EQDQ01  00002PRCP99
0177417590999992000083000004+25260+063480FM-12+000699999V0209999C000012200019N9999999N1+02701+02411100021ADDAA199000091GA1001+999999999GF100991001001999999001001MA1999999099971MD1999999-0051REMSYN064AAXX  30004 41759 329// 00000 10270 20241 39997 40002 333 59005;EQDQ01  00002PRCP99
0156417590999992000083006004+25260+063480FM-12+000699999V0202301N004112200019N0100001N1+03001+02481100121ADDAA199000091GA1001+999999999GF100991001001999999001001MD1999999-0021REMSYN058AAXX  30064 41759 32997 02308 10300 20248 40012 333 59002;EQDQ01  00002PRCP99
0224417590999992000083012004+25260+063480FM-12+000699999V0202301N004112200019N0040001N1+03101+02391099821ADDAA199000091AY101061AY201061GA1001+999999999GF100991001001999999001001KA1120M+03201MA1999999099771MD1999999-0081MW1051REMSYN076AAXX  30124 41759 31996 02308 10310 20239 39977 49982 70500 333 10320 59008;EQDQ01  00002PRCP99
0156417590999992000083018004+25260+063480FM-12+000699999V0209999C000012200019N9999999N1+02701+02411099921ADDAA199000091GA1001+999999999GF100991001001999999001001MD1999999-0131REMSYN058AAXX  30184 41759 329// 00000 10270 20241 49992 333 59013;EQDQ01  00002PRCP99
0168417590999992000090112004+25260+063480FM-12+000699999V0200301N007212200019N0040001N1+03101+02391099931ADDAA199000091AY101061AY201061GF102991999999999999999999MD1999999+0061MW1051REMSYN064AAXX  01124 41759 31996 20314 10310 20239 49993 70500 333 58006;EQDQ01  00002PRCP99
0177417590999992000090200004+25260+063480FM-12+000699999V0209999C000012200019N9999999N1+02801+02371100011ADDAA199000091GA1001+999999999GF100991001001999999001001MA1999999099961MD1999999-0131REMSYN064AAXX  02004 41759 329// 00000 10280 20237 39996 40001 333 59013;EQDQ01  00002PRCP99
0135417590999992000090300004+25260+063480FM-12+000699999V0209999C000019999999N9999999N1+02701+02261100111ADDAA199000091MA1999999100061MD1999999+0101REMSYN064AAXX  03004 41759 329// /0000 10270 20226 30006 40011 333 58010;EQDQ01  00002PRCP99
0196417590999992000091312004+25260+063480FM-12+000699999V0202301N009312200019N0100001N1+03001+02111100621ADDAA199000091GA1001+999999999GF100991001001999999001001KA1120M+03201MA1999999100571MD1999999+0231REMSYN070AAXX  13124 41759 32997 02318 10300 20211 30057 40062 333 10320 58023;EQDQ01  00002PRCP99
0156417590999992000091318004+25260+063480FM-12+000699999V0209999C000012200019N9999999N1+02601+02311100871ADDAA199000091GA1001+999999999GF100991001001999999001001MD1999999+0241REMSYN058AAXX  13184 41759 329// 00000 10260 20231 40087 333 58024;EQDQ01  00002PRCP99
0159417590999992000100812004+25260+063480FM-12+000699999V0201801N003112200019N0100001N1+03601+00781100631ADDAA199000091GA1001+999999999GF100991001001999999001001MA1999999100581REMSYN060AAXX  08124 41759 32997 01806 10360 20078 30058 40063 59007;EQDQ01  00002PRCP99
0156417590999992000100818004+25260+063480FM-12+000699999V0209999C000012200019N9999999N1+02701+00611100711ADDAA199000091GA1001+999999999GF100991001001999999001001MD1999999-0131REMSYN058AAXX  08184 41759 329// 00000 10270 20061 40071 333 59013;EQDQ01  00002PRCP99
0177417590999992000100900004+25260+063480FM-12+000699999V0203601N002112200019N9999999N1+02151+00071100741ADDAA199000091GA1001+999999999GF100991001001999999001001MA1999999100691MD1999999-0231REMSYN064AAXX  09004 41759 329// 03604 10215 20007 30069 40074 333 59023;EQDQ01  00002PRCP99
0156417590999992000100918004+25260+063480FM-12+000699999V0202701N002112200019N9999999N1+02601+00991100711ADDAA199000091GA1001+999999999GF100991001001999999001001MD1999999+0001REMSYN058AAXX  09184 41759 329// 02704 10260 20099 40071 333 58000;EQDQ01  00002PRCP99
0156417590999992000101006004+25260+063480FM-12+000699999V0200401N003112200019N0100001N1+03401-00071100921ADDAA199000091GA1001+999999999GF100991001001999999001001MD1999999+0061REMSYN058AAXX  10064 41759 32997 00406 10340 21007 40092 333 58006;EQDQ01  00002PRCP99
0156417590999992000101018004+25260+063480FM-12+000699999V0202701N004112200019N9999999N1+02501+01311100891ADDAA199000091GA1001+999999999GF100991001001999999001001MD1999999+0181REMSYN058AAXX  10184 41759 329// 02708 10250 20131 40089 333 58018;EQDQ01  00002PRCP99
0156417590999992000101021004+25260+063480FM-12+000699999V0202701N002112200019N9999999N1+02201+00901100941ADDAA199000091GA1001+999999999GF100991001001999999001001MD1999999+0151REMSYN058AAXX  10214 41759 329// 02704 10220 20090 40094 333 58015;EQDQ01  00002PRCP99
0177417590999992000101100004+25260+063480FM-12+000699999V0209999C000012200019N9999999N1+01901+00851100861ADDAA199000091GA1001+999999999GF100991001001999999001001MA1999999100811MD1999999+0121REMSYN064AAXX  11004 41759 329// 00000 10190 20085 30081 40086 333 58012;EQDQ01  00002PRCP99
0224417590999992000101112004+25260+063480FM-12+000699999V0202301N009312200019N0040001N1+03351+00901100761ADDAA199000091AY101061AY201061GA1001+999999999GF100991001001999999001001KA1120M+03931MA1999999100711MD1999999+0111MW1071REMSYN076AAXX  11124 41759 31996 02318 10335 20090 30071 40076 70700 333 10393 58011;EQDQ01  00002PRCP99
0156417590999992000101206004+25260+063480FM-12+000699999V0203601N004112200019N0100001N1+03501-00281101101ADDAA199000091GA1001+999999999GF100991001001999999001001MD1999999+0071REMSYN058AAXX  12064 41759 32997 03608 10350 21028 40110 333 58007;EQDQ01  00002PRCP99
0224417590999992000101212004+25260+063480FM-12+000699999V02099999999992200019N0040001N1+03451+00621100691ADDAA199000091AY101061AY201061GA1001+999999999GF100991001001999999001001KA1120M+03961MA1999999100641MD1999999-0071MW1071REMSYN076AAXX  12124 41759 31996 03/// 10345 20062 30064 40069 70700 333 10396 59007;EQDQ01  00002PRCP99
0156417590999992000101306004+25260+063480FM-12+000699999V0201801N003112200019N0100001N1+03301+00651100961ADDAA199000091GA1001+999999999GF100991001001999999001001MD1999999-0141REMSYN058AAXX  13064 41759 32997 01806 10330 20065 40096 333 59014;EQDQ01  00002PRCP99
0224417590999992000101312004+25260+063480FM-12+000699999V0202301N008212200019N0040001N1+03001+01341100651ADDAA199000091AY101061AY201061GA1001+999999999GF100991001001999999001001KA1120M+03401MA1999999100601MD1999999-0041MW1071REMSYN076AAXX  13124 41759 31996 02316 10300 20134 30060 40065 70700 333 10340 59004;EQDQ01  00002PRCP99
0156417590999992000101318004+25260+063480FM-12+000699999V0202301N002112200019N9999999N1+02501+02051100761ADDAA199000091GA1001+999999999GF100991001001999999001001MD1999999-0121REMSYN058AAXX  13184 41759 329// 02304 10250 20205 40076 333 59012;EQDQ01  00002PRCP99
0177417590999992000101400004+25260+063480FM-12+000699999V0202701N002112200019N9999999N1+02001+01671100731ADDAA199000091GA1001+999999999GF100991001001999999001001MA1999999100681MD1999999-0111REMSYN064AAXX  14004 41759 329// 02704 10200 20167 30068 40073 333 59011;EQDQ01  00002PRCP99
0196417590999992000101412004+25260+063480FM-12+000699999V0202301N006212200019N0100001N1+03201+02341100691ADDAA199000091GA1001+999999999GF100991001001999999001001KA1120M+03451MA1999999100641MD1999999+0041REMSYN070AAXX  14124 41759 32997 02312 10320 20234 30064 40069 333 10345 58004;EQDQ01  00002PRCP99
0156417590999992000101418004+25260+063480FM-12+000699999V0202301N002112200019N9999999N1+02501+02201100811ADDAA199000091GA1001+999999999GF100991001001999999001001MD1999999+0051REMSYN058AAXX  14184 41759 329// 02304 10250 20220 40081 333 58005;EQDQ01  00002PRCP99
0205417590999992000101500004+25260+063480FM-12+000699999V0209999C000012200019N9999999N1+02001+01921100861ADDAA199000091AY101061AY201061GA1001+999999999GF100991001001999999001001MA1999999100811MD1999999+0131MW1461REMSYN070AAXX  15004 41759 319// 00000 10200 20192 30081 40086 74600 333 58013;EQDQ01  00002PRCP99
0196417590999992000101612004+25260+063480FM-12+000699999V0202301N004112200019N0100001N1+03251+02181100871ADDAA199000091GA1001+999999999GF100991001001999999001001KA1120M+03381MA1999999100821MD1999999-0031REMSYN070AAXX  16124 41759 32997 02308 10325 20218 30082 40087 333 10338 59003;EQDQ01  00002PRCP99
0132417590999992000101706004+25260+063480FM-12+000699999V0201301N003112200019N0100001N1+02951+02301101091ADDAA199000091GA1001+999999999GF100991001001999999001001REMSYN048AAXX  17064 41759 32997 01306 10295 20230 40109;EQDQ01  00002PRCP99
0196417590999992000101712004+25260+063480FM-12+000699999V0201801N004112200019N0100001N1+02851+02451100791ADDAA199000091GA1001+999999999GF100991001001999999001001KA1120M+03211MA1999999100741MD1999999-0081REMSYN070AAXX  17124 41759 32997 01808 10285 20245 30074 40079 333 10321 59008;EQDQ01  00002PRCP99
0163417590999992000101800004+25260+063480FM-12+000699999V0209999C000019999999N9999999N1+02251+02181100851ADDAA199000091AY101061AY201061MA1999999100801MD1999999-0101MW1461REMSYN070AAXX  18004 41759 319// /0000 10225 20218 30080 40085 74600 333 59010;EQDQ01  00002PRCP99
0152417590999992000101806004+25260+063480FM-12+000699999V0201301N002112200019N0100001N1+02801+02291101021ADDAA199000091GF103991031051012501001001MD1999999-0071REMSYN070AAXX  18064 41759 32697 31304 10280 20229 40102 83500 333 56900 59007;EQDQ01  00002PRCP99
0156417590999992000101818004+25260+063480FM-12+000699999V0209999C000012200019N9999999N1+02651+02441100881ADDAA199000091GA1001+999999999GF100991001001999999001001MD1999999-0101REMSYN058AAXX  18184 41759 329// 00000 10265 20244 40088 333 59010;EQDQ01  00002PRCP99
0156417590999992000101918004+25260+063480FM-12+000699999V0202301N001512200019N9999999N1+02651+02361100951ADDAA199000091GA1001+999999999GF100991001001999999001001MD1999999+0041REMSYN058AAXX  19184 41759 329// 02303 10265 20236 40095 333 58004;EQDQ01  00002PRCP99
0156417590999992000102106004+25260+063480FM-12+000699999V0203201N003112200019N0100001N1+03051+01911101101ADDAA199000091GA1001+999999999GF100991001001999999001001MD1999999-0041REMSYN058AAXX  21064 41759 32997 03206 10305 20191 40110 333 59004;EQDQ01  00002PRCP99
0224417590999992000102112004+25260+063480FM-12+000699999V0202301N009312200019N0020001N1+03401+02351100651ADDAA199000091AY101061AY201061GA1001+999999999GF100991001001999999001001KA1120M+03471MA1999999100601MD1999999-0161MW1071REMSYN076AAXX  21124 41759 31995 02318 10340 20235 30060 40065 70700 333 10347 59016;EQDQ01  00002PRCP99
0177417590999992000102200004+25260+063480FM-12+000699999V0202701N001012200019N9999999N1+02201+01801100731ADDAA199000091GA1001+999999999GF100991001001999999001001MA1999999100681MD1999999-0171REMSYN064AAXX  22004 41759 329// 02702 10220 20180 30068 40073 333 59017;EQDQ01  00002PRCP99
0156417590999992000102206004+25260+063480FM-12+000699999V0203201N004112200019N0100001N1+03151+01851100861ADDAA199000091GA1001+999999999GF100991001001999999001001MD1999999-0241REMSYN058AAXX  22064 41759 32997 03208 10315 20185 40086 333 59024;EQDQ01  00002PRCP99
0196417590999992000102212004+25260+063480FM-12+000699999V0202701N008212200019N0100001N1+03151+02361100501ADDAA199000091GA1001+999999999GF100991001001999999001001KA1120M+03751MA1999999100451MD1999999-0151REMSYN070AAXX  22124 41759 32997 02716 10315 20236 30045 40050 333 10375 59015;EQDQ01  00002PRCP99
0114417590999992000102218004+25260+063480FM-12+000699999V0209999C000019999999N9999999N1+02551+02181100571ADDAA199000091MD1999999-0281REMSYN058AAXX  22184 41759 329// /0000 10255 20218 40057 333 59028;EQDQ01  00002PRCP99
0156417590999992000102306004+25260+063480FM-12+000699999V0200401N003112200019N0100001N1+03501-00281100801ADDAA199000091GA1001+999999999GF100991001001999999001001MD1999999-0061REMSYN058AAXX  23064 41759 32997 00406 10350 21028 40080 333 59006;EQDQ01  00002PRCP99
0177417590999992000102400004+25260+063480FM-12+000699999V0202701N002112200019N9999999N1+02001-03001100751ADDAA199000091GA1001+999999999GF100991001001999999001001MA1999999100701MD1999999+0121REMSYN064AAXX  24004 41759 329// 02704 10200 2130/ 30070 40075 333 58012;EQDQ01  00002PRCP99
0184417590999992000102515004+25260+063480FM-12+000699999V0202301N002112200019N9999999N1+02451+02301101121ADDAA199000091AY141031AY201031GA1001+999999999GF100991001001999999001001MD1999999+0251MW1101REMSYN064AAXX  25154 41759 319// 02304 10245 20230 40112 71040 333 58025;EQDQ01  00002PRCP99
0184417590999992000102518004+25260+063480FM-12+000699999V0209999C000012200019N9999999N1+02301+02231101231ADDAA199000091AY141061AY241061GA1001+999999999GF100991001001999999001001MD1999999+0221MW1461REMSYN064AAXX  25184 41759 319// 00000 10230 20223 40123 74644 333 58022;EQDQ01  00002PRCP99
0114417590999992000102718004+25260+063480FM-12+000699999V0209999C000019999999N9999999N1+02501+02351101171ADDAA199000091MD1999999+0151REMSYN058AAXX  27184 41759 329// /0000 10250 20235 40117 333 58015;EQDQ01  00002PRCP99
0156417590999992000102806004+25260+063480FM-12+000699999V0209999C000012200019N0100001N1+02851+02191101391ADDAA199000091GA1001+999999999GF100991001001999999001001MD1999999+0171REMSYN058AAXX  28064 41759 32997 00000 10285 20219 40139 333 58017;EQDQ01  00002PRCP99
0156417590999992000102818004+25260+063480FM-12+000699999V0209999C000012200019N9999999N1+02401+02251101291ADDAA199000091GA1001+999999999GF100991001001999999001001MD1999999+0121REMSYN058AAXX  28184 41759 329// 00000 10240 20225 40129 333 58012;EQDQ01  00002PRCP99
0196417590999992000102912004+25260+063480FM-12+000699999V0202701N003112200019N0100001N1+03001+02111101171ADDAA199000091GA1001+999999999GF100991001001999999001001KA1120M+03201MA1999999101121MD1999999+0081REMSYN070AAXX  29124 41759 32997 02706 10300 20211 30112 40117 333 10320 58008;EQDQ01  00002PRCP99
0156417590999992000103006004+25260+063480FM-12+000699999V0202701N003112200019N0100001N1+02901+02081101481ADDAA199000091GA1001+999999999GF100991001001999999001001MD1999999-0011REMSYN058AAXX  30064 41759 32997 02706 10290 20208 40148 333 59001;EQDQ01  00002PRCP99
0156417590999992000103018004+25260+063480FM-12+000699999V0209999C000012200019N9999999N1+02501+02051101121ADDAA199000091GA1001+999999999GF100991001001999999001001MD1999999-0211REMSYN058AAXX  30184 41759 329// 00000 10250 20205 40112 333 59021;EQDQ01  00002PRCP99
0196417590999992000103112004+25260+063480FM-12+000699999V0202701N007212200019N0100001N1+02901+02321100761ADDAA199000091GA1001+999999999GF100991001001999999001001KA1120M+03151MA1999999100711MD1999999-0321REMSYN070AAXX  31124 41759 32997 02714 10290 20232 30071 40076 333 10315 59032;EQDQ01  00002PRCP99
0171417590999992000110112004+25260+063480FM-12+000699999V0201301N003112200019N0100001N1+02901+02161100921ADDAA199000091GF102991021061012501001001KA1120M+03051MD1999999+0161REMSYN076AAXX  01124 41759 32697 21306 10290 20216 40092 82600 333 10305 56900 58016;EQDQ01  00002PRCP99
0135417590999992000110200004+25260+063480FM-12+000699999V0209999C000019999999N9999999N1+02201+01671101221ADDAA199000091MA1999999101171MD1999999+0261REMSYN064AAXX  02004 41759 329// /0000 10220 20167 30117 40122 333 58026;EQDQ01  00002PRCP99
0196417590999992000110212004+25260+063480FM-12+000699999V0202701N002112200019N0100001N1+02901+01991101171ADDAA199000091GA1001+999999999GF100991001001999999001001KA1120M+03051MA1999999101121MD1999999+0251REMSYN070AAXX  02124 41759 32997 02704 10290 20199 30112 40117 333 10305 58025;EQDQ01  00002PRCP99
0156417590999992000110218004+25260+063480FM-12+000699999V0209999C000012200019N9999999N1+02501+02051101401ADDAA199000091GA1001+999999999GF100991001001999999001001MD1999999+0251REMSYN058AAXX  02184 41759 329// 00000 10250 20205 40140 333 58025;EQDQ01  00002PRCP99
0156417590999992000110306004+25260+063480FM-12+000699999V0202701N003112200019N0100001N1+02801+01881101641ADDAA199000091GA1001+999999999GF100991001001999999001001MD1999999+0201REMSYN058AAXX  03064 41759 32997 02706 10280 20188 40164 333 58020;EQDQ01  00002PRCP99
0196417590999992000110312004+25260+063480FM-12+000699999V0202701N002112200019N0100001N1+03201+01411101361ADDAA199000091GA1001+999999999GF100991001001999999001001KA1120M+03451MA1999999101311MD1999999+0191REMSYN070AAXX  03124 41759 32997 02704 10320 20141 30131 40136 333 10345 58019;EQDQ01  00002PRCP99
0156417590999992000110318004+25260+063480FM-12+000699999V0209999C000012200019N9999999N1+02401+01851101631ADDAA199000091GA1001+999999999GF100991001001999999001001MD1999999+0231REMSYN058AAXX  03184 41759 329// 00000 10240 20185 40163 333 58023;EQDQ01  00002PRCP99
0156417590999992000110406004+25260+063480FM-12+000699999V0203601N003112200019N0100001N1+03001+01061101731ADDAA199000091GA1001+999999999GF100991001001999999001001MD1999999+0121REMSYN058AAXX  04064 41759 32997 03606 10300 20106 40173 333 58012;EQDQ01  00002PRCP99
0196417590999992000110412004+25260+063480FM-12+000699999V0201801N006212200019N0100001N1+03101+01261101411ADDAA199000091GA1001+999999999GF100991001001999999001001KA1120M+03501MA1999999101361MD1999999+0051REMSYN070AAXX  04124 41759 32997 01812 10310 20126 30136 40141 333 10350 58005;EQDQ01  00002PRCP99
0177417590999992000110500004+25260+063480FM-12+000699999V0209999C000012200019N9999999N1+01951+01141101451ADDAA199000091GA1001+999999999GF100991001001999999001001MA1999999101391MD1999999-0181REMSYN064AAXX  05004 41759 329// 00000 10195 20114 30139 40145 333 59018;EQDQ01  00002PRCP99
0156417590999992000110506004+25260+063480FM-12+000699999V0209999C000012200019N0100001N1+02901+01081101551ADDAA199000091GA1001+999999999GF100991001001999999001001MD1999999-0211REMSYN058AAXX  05064 41759 32997 00000 10290 20108 40155 333 59021;EQDQ01  00002PRCP99
0196417590999992000110512004+25260+063480FM-12+000699999V0202701N007212200019N0100001N1+03101+01261101061ADDAA199000091GA1001+999999999GF100991001001999999001001KA1120M+03301MA1999999101011MD1999999-0351REMSYN070AAXX  05124 41759 32997 02714 10310 20126 30101 40106 333 10330 59035;EQDQ01  00002PRCP99
0156417590999992000110518004+25260+063480FM-12+000699999V0202701N004112200019N9999999N1+02451+01731101171ADDAA199000091GA1001+999999999GF100991001001999999001001MD1999999-0341REMSYN058AAXX  05184 41759 329// 02708 10245 20173 40117 333 59034;EQDQ01  00002PRCP99
0163417590999992000110600004+25260+063480FM-12+000699999V0209999C000012200019N9999999N1+02101+01861101041ADDAA199000091GA1001+999999999GF100991001001999999001001MA1999999100981REMSYN064AAXX  06004 41759 329// 00000 10210 20186 30098 40104 333 5941/;EQDQ01  00002PRCP99
0156417590999992000110618004+25260+063480FM-12+000699999V0202701N002112200019N9999999N1+02501+02281100921ADDAA199000091GA1001+999999999GF100991001001999999001001MD1999999-0251REMSYN058AAXX  06184 41759 329// 02704 10250 20228 40092 333 59025;EQDQ01  00002PRCP99
0214417590999992000110712004+25260+063480FM-12+000699999V0202701N003112200019N0100001N1+03001+02101100911ADDAA199000091GA1041+009009059GF104991041051012501001001KA1120M+03101MA1999999100861MD1999999+0161REMSYN088AAXX  07124 41759 32697 42706 10300 20210 30086 40091 84500 333 10310 56900 58016 84630;EQDQ01  00002PRCP99
0196417590999992000110812004+25260+063480FM-12+000699999V0202401N003112200019N0100001N1+03201+01411101741ADDAA199000091GA1001+999999999GF100991001001999999001001KA1120M+03201MA1999999101091MD1999999+0231REMSYN070AAXX  08124 41759 32997 02406 10320 20141 30109 40174 333 10320 58023;EQDQ01  00002PRCP99
0214417590999992000110912004+25260+063480FM-12+000699999V0209999C000012200019N0100001N1+03101+00731101201ADDAA199000091GA1041+060009019GF104991001001999999001011KA1120M+03351MA1999999101151MD1999999+0061REMSYN088AAXX  09124 41759 32997 40000 10310 20073 30115 40120 80001 333 10335 56009 58006 84070;EQDQ01  00002PRCP99
0156417590999992000110918004+25260+063480FM-12+000699999V0209999C000012200019N9999999N1+02401+01581101351ADDAA199000091GA1001+999999999GF100991001001999999001001MD1999999-0041REMSYN058AAXX  09184 41759 329// 00000 10240 20158 40135 333 59004;EQDQ01  00002PRCP99
0177417590999992000111000004+25260+063480FM-12+000699999V0209999C000012200019N9999999N1+01901+01181101351ADDAA199000091GA1001+999999999GF100991001001999999001001MA1999999101291MD1999999+0011REMSYN064AAXX  10004 41759 329// 00000 10190 20118 30129 40135 333 58001;EQDQ01  00002PRCP99
0156417590999992000111006004+25260+063480FM-12+000699999V0209999C000012200019N0100001N1+03101+01011101471ADDAA199000091GA1001+999999999GF100991001001999999001001MD1999999-0011REMSYN058AAXX  10064 41759 32997 00000 10310 20101 40147 333 59001;EQDQ01  00002PRCP99
0140417590999992000111106004+25260+063480FM-12+000699999V0203201N003112200019N0100001N1+02901+01991101611ADDAA199000091GF102991999999999999999999MD1999999+0141REMSYN058AAXX  11064 41759 32997 23206 10290 20199 40161 333 58014;EQDQ01  00002PRCP99
0204417590999992000111112004+25260+063480FM-12+000699999V0202401N005112200019N0070001N1+02901+02321101231ADDAA199000091GF104991001001999999001011KA1120M+03201MA1999999101181MD1999999-0021REMSYN094AAXX  11124 41759 32957 42410 10290 20232 30118 40123 80001 333 10320 56009 59002 56009 84070;EQDQ01  00002PRCP99
0156417590999992000111206004+25260+063480FM-12+000699999V0200401N008212200019N0100001N1+03001+00841101501ADDAA199000091GA1001+999999999GF100991001001999999001001MD1999999-0161REMSYN058AAXX  12064 41759 32997 00416 10300 20084 40150 333 59016;EQDQ01  00002PRCP99
0196417590999992000111212004+25260+063480FM-12+000699999V0203601N008212200019N0100001N1+03201+00911101071ADDAA199000091GA1001+999999999GF100991001001999999001001KA1120M+03301MA1999999101021MD1999999-0161REMSYN070AAXX  12124 41759 32997 03616 10320 20091 30102 40107 333 10330 59016;EQDQ01  00002PRCP99
0156417590999992000111218004+25260+063480FM-12+000699999V0203601N006212200019N9999999N1+02401+01031101381ADDAA199000091GA1001+999999999GF100991001001999999001001MD1999999+0021REMSYN058AAXX  12184 41759 329// 03612 10240 20103 40138 333 58002;EQDQ01  00002PRCP99
0156417590999992000111300004+25260+063480FM-12+000699999V0203601N005112200019N9999999N1+02001+00311101261ADDAA199000091GA1001+999999999GF100991001001999999001001MD1999999-0031REMSYN058AAXX  13004 41759 319// 03610 10200 20031 40126 333 59003;EQDQ01  00002PRCP99
0196417590999992000111312004+25260+063480FM-12+000699999V0201301N003112200019N0100001N1+03051+00791100971ADDAA199000091GA1001+999999999GF100991001001999999001001KA1120M+03101MA1999999100921MD1999999+0101REMSYN070AAXX  13124 41759 32997 01306 10305 20079 30092 40097 333 10310 58010;EQDQ01  00002PRCP99
0156417590999992000111318004+25260+063480FM-12+000699999V0203601N003112200019N9999999N1+01801+01171101251ADDAA199000091GA1001+999999999GF100991001001999999001001MD1999999-0081REMSYN058AAXX  13184 41759 329// 03606 10180 20117 40125 333 59008;EQDQ01  00002PRCP99
0177417590999992000111400004+25260+063480FM-12+000699999V0203601N004112200019N9999999N1+01801+01631101241ADDAA199000091GA1001+999999999GF100991001001999999001001MA1999999101181MD1999999-0021REMSYN064AAXX  14004 41759 329// 03608 10180 20163 30118 40124 333 59002;EQDQ01  00002PRCP99
0156417590999992000111518004+25260+063480FM-12+000699999V0209999C000012200019N9999999N1+02001+01091101411ADDAA199000091GA1001+999999999GF100991001001999999001001MD1999999-0011REMSYN058AAXX  15184 41759 329// 00000 10200 20109 40141 333 59001;EQDQ01  00002PRCP99
0156417590999992000111606004+25260+063480FM-12+000699999V0209999C000012200019N0100001N1+02401+01631101611ADDAA199000091GA1001+999999999GF100991001001999999001001MD1999999+0031REMSYN058AAXX  16064 41759 32997 00000 10240 20163 40161 333 58003;EQDQ01  00002PRCP99
0156417590999992000111618004+25260+063480FM-12+000699999V0209999C000012200019N9999999N1+02301+01831101241ADDAA199000091GA1001+999999999GF100991001001999999001001MD1999999-0091REMSYN058AAXX  16184 41759 329// 00000 10230 20183 40124 333 59009;EQDQ01  00002PRCP99
0152417590999992000111706004+25260+063480FM-12+000699999V0200401N002112200019N0200001N1+02651+00171101701ADDAA199000091GA1001+999999999GF100991001001999999001001MD1810091+9999REMSYN054AAXX  17064 41759 32998 00404 10265 20017 40170 58009;EQDQ01  00002PRCP99
0177417590999992000111900004+25260+063480FM-12+000699999V0209999C000012200019N9999999N1+01601+00281101451ADDAA199000091GA1001+999999999GF100991001001999999001001MA1999999101401MD1999999-0061REMSYN064AAXX  19004 41759 329// 00000 10160 20028 30140 40145 333 59006;EQDQ01  00002PRCP99
0156417590999992000111906004+25260+063480FM-12+000699999V0209999C000012200019N0100001N1+02401+00681100871ADDAA199000091GA1001+999999999GF100991001001999999001001MD1999999-0741REMSYN058AAXX  19064 41759 32997 00000 10240 20068 40087 333 59074;EQDQ01  00002PRCP99
0156417590999992000111918004+25260+063480FM-12+000699999V0209999C000012200019N9999999N1+02051+01361101451ADDAA199000091GA1001+999999999GF100991001001999999001001MD1999999+0181REMSYN058AAXX  19184 41759 329// 00000 10205 20136 40145 333 58018;EQDQ01  00002PRCP99
0156417590999992000112006004+25260+063480FM-12+000699999V0209999C000012200019N0100001N1+02451+00121101511ADDAA199000091GA1001+999999999GF100991001001999999001001MD1999999+0641REMSYN058AAXX  20064 41759 32997 00000 10245 20012 40151 333 58064;EQDQ01  00002PRCP99
0156417590999992000112018004+25260+063480FM-12+000699999V0209999C000012200019N9999999N1+01901+01381101151ADDAA199000091GA1001+999999999GF100991001001999999001001MD1999999-0031REMSYN058AAXX  20184 41759 329// 00000 10190 20138 40115 333 59003;EQDQ01  00002PRCP99
0156417590999992000112106004+25260+063480FM-12+000699999V0209999C000012200019N0040001N1+02401+00381101151ADDAA199000091GA1001+999999999GF100991001001999999001001MD1999999+0041REMSYN058AAXX  21064 41759 32996 00000 10240 20038 40115 333 58004;EQDQ01  00002PRCP99
0156417590999992000112118004+25260+063480FM-12+000699999V0209999C000012200019N9999999N1+02001+99999101051ADDAA199000091GA1001+999999999GF100991001001999999001001MD1999999-0011REMSYN058AAXX  21184 41759 329// 00000 10200 20249 40105 333 59001;EQDQ01  00002PRCP99
0177417590999992000112200004+25260+063480FM-12+000699999V0209999C000012200019N9999999N1+01301+01111101021ADDAA199000091GA1001+999999999GF100991001001999999001001MA1999999100961MD1999999-0021REMSYN064AAXX  22004 41759 329// 00000 10130 20111 30096 40102 333 59002;EQDQ01  00002PRCP99
0114417590999992000112206004+25260+063480FM-12+000699999V0209999C000019999999N0100001N1+02701+02101101261ADDAA199000091MD1999999+0111REMSYN058AAXX  22064 41759 32997 /0000 10270 20210 40126 333 58011;EQDQ01  00002PRCP99
0224417590999992000112312004+25260+063480FM-12+000699999V0201301N006212200019N0040001N1+02801+02051101371ADDAA199000091AY101061AY201061GA1001+999999999GF100991001001999999001001KA1120M+02901MA1999999101321MD1999999+0321MW1051REMSYN076AAXX  23124 41759 31996 01312 10280 20205 30132 40137 70500 333 10290 58032;EQDQ01  00002PRCP99
0156417590999992000112318004+25260+063480FM-12+000699999V0209999C000012200019N9999999N1+02401+02101101701ADDAA199000091GA1001+999999999GF100991001001999999001001MD1999999-0391REMSYN058AAXX  23184 41759 329// 00000 10240 20210 40170 333 59039;EQDQ01  00002PRCP99
0177417590999992000112400004+25260+063480FM-12+000699999V0209999C000012200019N9999999N1+02101+01841101761ADDAA199000091GA1001+999999999GF100991001001999999001001MA1999999101621MD1999999+0421REMSYN064AAXX  24004 41759 329// 00000 10210 20184 30162 40176 333 58042;EQDQ01  00002PRCP99
0184417590999992000112406004+25260+063480FM-12+000699999V0201301N004112200019N0040001N1+02601+01821101901ADDAA199000091AY101061AY201061GA1001+999999999GF100991001001999999001001MD1999999-0251MW1051REMSYN064AAXX  24064 41759 31996 01308 10260 20182 40190 70500 333 59025;EQDQ01  00002PRCP99
0224417590999992000112412004+25260+063480FM-12+000699999V0201301N006212200019N0040001N1+02701+02101101511ADDAA199000091AY101061AY201061GA1001+999999999GF100991001001999999001001KA1120M+03001MA1999999101461MD1999999+0141MW1051REMSYN076AAXX  24124 41759 31996 01312 10270 20210 30146 40151 70500 333 10300 58014;EQDQ01  00002PRCP99
0156417590999992000112418004+25260+063480FM-12+000699999V0209999C000012200019N9999999N1+02401+02101101691ADDAA199000091GA1001+999999999GF100991001001999999001001MD1999999-0011REMSYN058AAXX  24184 41759 329// 00000 10240 20210 40169 333 59001;EQDQ01  00002PRCP99
0177417590999992000112500004+25260+063480FM-12+000699999V0209999C000012200019N9999999N1+02001+01841101561ADDAA199000091GA1001+999999999GF100991001001999999001001MA1999999101501MD1999999-0201REMSYN064AAXX  25004 41759 329// 00000 10200 20184 30150 40156 333 59020;EQDQ01  00002PRCP99
0184417590999992000112506004+25260+063480FM-12+000699999V0209999C000012200019N0040001N1+02501+01881101711ADDAA199000091AY101061AY201061GA1001+999999999GF100991001001999999001001MD1999999-0191MW1051REMSYN064AAXX  25064 41759 31996 00000 10250 20188 40171 70500 333 59019;EQDQ01  00002PRCP99
0224417590999992000112512004+25260+063480FM-12+000699999V0201301N008212200019N0040001N1+02701+01931101331ADDAA199000091AY101061AY201061GA1001+999999999GF100991001001999999001001KA1120M+03001MA1999999101281MD1999999-0181MW1051REMSYN076AAXX  25124 41759 31996 01316 10270 20193 30128 40133 70500 333 10300 59018;EQDQ01  00002PRCP99
0156417590999992000112518004+25260+063480FM-12+000699999V0209999C000012200019N9999999N1+02401+02101101541ADDAA199000091GA1001+999999999GF100991001001999999001001MD1999999-0151REMSYN058AAXX  25184 41759 329// 00000 10240 20210 40154 333 59015;EQDQ01  00002PRCP99
0177417590999992000112600004+25260+063480FM-12+000699999V0209999C000012200019N9999999N1+02001+01841101381ADDAA199000091GA1001+999999999GF100991001001999999001001MA1999999101321MD1999999-0181REMSYN064AAXX  26004 41759 329// 00000 10200 20184 30132 40138 333 59018;EQDQ01  00002PRCP99
0170417590999992000112606004+25260+063480FM-12+000699999V0201301N003112200019N0040001N1+02601+01821101481ADDAA199000091AY101061AY201061GA1001+999999999GF100991001001999999001001MW1051REMSYN064AAXX  26064 41759 31996 01306 10260 20182 40148 70500 333 5902/;EQDQ01  00002PRCP99
0224417590999992000112612004+25260+063480FM-12+000699999V0201301N007212200019N0040001N1+02801+02051101111ADDAA199000091AY101061AY201061GA1001+999999999GF100991001001999999001001KA1120M+03001MA1999999101061MD1999999-0221MW1051REMSYN076AAXX  26124 41759 31996 01314 10280 20205 30106 40111 70500 333 10300 59022;EQDQ01  00002PRCP99
0177417590999992000112700004+25260+063480FM-12+000699999V0209999C000012200019N9999999N1+01601+00281101531ADDAA199000091GA1001+999999999GF100991001001999999001001MA1999999101471MD1999999+0151REMSYN064AAXX  27004 41759 329// 00000 10160 20028 30147 40153 333 58015;EQDQ01  00002PRCP99
0184417590999992000112706004+25260+063480FM-12+000699999V0201301N008212200019N0040001N1+02701+00281101771ADDAA199000091AY101061AY201061GA1001+999999999GF100991001001999999001001MD1999999+0391MW1051REMSYN064AAXX  27064 41759 31996 01316 10270 20028 40177 70500 333 58039;EQDQ01  00002PRCP99
0224417590999992000112712004+25260+063480FM-12+000699999V0201301N007212200019N0040001N1+03001+00841101371ADDAA199000091AY101061AY201061GA1001+999999999GF100991001001999999001001KA1120M+03101MA1999999100131MD1999999+0261MW1051REMSYN076AAXX  27124 41759 31996 01314 10300 20084 30013 40137 70500 333 10310 58026;EQDQ01  00002PRCP99
0156417590999992000112718004+25260+063480FM-12+000699999V0209999C000012200019N9999999N1+02401+02251101601ADDAA199000091GA1001+999999999GF100991001001999999001001MD1999999-0271REMSYN058AAXX  27184 41759 329// 00000 10240 20225 40160 333 59027;EQDQ01  00002PRCP99
0184417590999992000112809004+25260+063480FM-12+000699999V0201301N004112200019N0040001N1+02091+00241101611ADDAA199000091AY101031AY201031GA1001+999999999GF100991001001999999001001MD1999999+0011MW1051REMSYN064AAXX  28094 41759 31996 01308 10209 20024 40161 70500 333 58001;EQDQ01  00002PRCP99
0224417590999992000112812004+25260+063480FM-12+000699999V0201301N006212200019N0040001N1+02601+00731101491ADDAA199000091AY101061AY201061GA1001+999999999GF100991001001999999001001KA1120M+02901MA1999999101441MD1999999+0121MW1051REMSYN076AAXX  28124 41759 31996 01312 10260 20073 30144 40149 70500 333 10290 58012;EQDQ01  00002PRCP99
0156417590999992000112818004+25260+063480FM-12+000699999V0209999C000012200019N9999999N1+01701+00941101731ADDAA199000091GA1001+999999999GF100991001001999999001001MD1999999+0081REMSYN058AAXX  28184 41759 329// 00000 10170 20094 40173 333 58008;EQDQ01  00002PRCP99
0156417590999992000112906004+25260+063480FM-12+000699999V0200301N001512200019N0100001N1+02501+00591101841ADDAA199000091GA1001+999999999GF100991001001999999001001MD1999999-0061REMSYN058AAXX  29064 41759 32997 00303 10250 20059 40184 333 59006;EQDQ01  00002PRCP99
0224417590999992000112912004+25260+063480FM-12+000699999V0209999C000012200019N0040001N1+02801+00781101511ADDAA199000091AY101061AY201061GA1001+999999999GF100991001001999999001001KA1120M+03001MA1999999101461MD1999999+0021MW1051REMSYN076AAXX  29124 41759 31996 00000 10280 20078 30146 40151 70500 333 10300 58002;EQDQ01  00002PRCP99
0156417590999992000112918004+25260+063480FM-12+000699999V0209999C000012200019N9999999N1+01801+01061101551ADDAA199000091GA1001+999999999GF100991001001999999001001MD1999999-0141REMSYN058AAXX  29184 41759 329// 00000 10180 20106 40155 333 59014;EQDQ01  00002PRCP99
0177417590999992000113000004+25260+063480FM-12+000699999V0209999C000012200019N9999999N1+01201+00561101761ADDAA199000091GA1001+999999999GF100991001001999999001001MA1999999101701MD1999999+0121REMSYN064AAXX  30004 41759 329// 00000 10120 20056 30170 40176 333 58012;EQDQ01  00002PRCP99
0224417590999992000113012004+25260+063480FM-12+000699999V0203101N002112200019N0040001N1+02901+00671101621ADDAA199000091AY101061AY201061GA1001+999999999GF100991001001999999001001KA1120M+02901MA1999999101571MD1999999+0111MW1051REMSYN076AAXX  30124 41759 31996 03104 10290 20067 30157 40162 70500 333 10290 58011;EQDQ01  00002PRCP99
0156417590999992000113018004+25260+063480FM-12+000699999V0209999C000012200019N9999999N1+02081+01091101921ADDAA199000091GA1001+999999999GF100991001001999999001001MD1999999+0331REMSYN058AAXX  30184 41759 329// 00000 10208 20109 40192 333 58033;EQDQ01  00002PRCP99
0177417590999992000120100004+25260+063480FM-12+000699999V0209999C000012200019N9999999N1+01401+00281101901ADDAA199000091GA1001+999999999GF100991001001999999001001MA1999999101841MD1999999+0141REMSYN064AAXX  01004 41759 329// 00000 10140 20028 30184 40190 333 58014;EQDQ01  00002PRCP99
0156417590999992000120106004+25260+063480FM-12+000699999V0201301N004112200019N0100001N1+02501-00691102071ADDAA199000091GA1001+999999999GF100991001001999999001001MD1999999-0031REMSYN058AAXX  01064 41759 32997 01308 10250 21069 40207 333 59003;EQDQ01  00002PRCP99
0181417590999992000120112004+25260+063480FM-12+000699999V0201301N004112200019N0040001N1+02601+00991101561ADDAA199000091AY101061AY201061GA1001+999999999GF100991001001999999001001MA1999999101511MW1051REMSYN060AAXX  01124 41759 31996 01308 10260 20099 30151 40156 70500;EQDQ01  00002PRCP99
0156417590999992000120118004+25260+063480FM-12+000699999V0209999C000012200019N9999999N1+01701+00941101761ADDAA199000091GA1001+999999999GF100991001001999999001001MD1999999-0161REMSYN058AAXX  01184 41759 329// 00000 10170 20094 40176 333 59016;EQDQ01  00002PRCP99
0135417590999992000120200004+25260+063480FM-12+000699999V0209999C000019999999N9999999N1+01301+00681101701ADDAA199000091MA1999999101641MD1999999-0201REMSYN064AAXX  02004 41759 329// /0000 10130 20068 30164 40170 333 59020;EQDQ01  00002PRCP99
0184417590999992000120206004+25260+063480FM-12+000699999V0209999C000012200019N0040001N1+02301+00791101901ADDAA199000091AY101061AY201061GA1001+999999999GF100991001001999999001001MD1999999-0151MW1051REMSYN064AAXX  02064 41759 31996 00000 10230 20079 40190 70500 333 59015;EQDQ01  00002PRCP99
0224417590999992000120212004+25260+063480FM-12+000699999V0209999C000012200019N0040001N1+02601+01221101541ADDAA199000091AY101061AY201061GA1001+999999999GF100991001001999999001001KA1120M+02901MA1999999101491MD1999999-0021MW1051REMSYN076AAXX  02124 41759 31996 00000 10260 20122 30149 40154 70500 333 10290 59002;EQDQ01  00002PRCP99
0184417590999992000120306004+25260+063480FM-12+000699999V0209999C000012200019N0040001N1+02301+01261101921ADDAA199000091AY101061AY201061GA1001+999999999GF100991001001999999001001MD1999999+0001MW1041REMSYN064AAXX  03064 41759 31996 00000 10230 20126 40192 70400 333 58000;EQDQ01  00002PRCP99
0224417590999992000120312004+25260+063480FM-12+000699999V0201801N007212200019N0040001N1+02601+01441101561ADDAA199000091AY101061AY201061GA1001+999999999GF100991001001999999001001KA1120M+02901MA1999999101511MD1999999+0021MW1051REMSYN076AAXX  03124 41759 31996 01814 10260 20144 30151 40156 70500 333 10290 58002;EQDQ01  00002PRCP99
0156417590999992000120318004+25260+063480FM-12+000699999V0209999C000012200019N9999999N1+01601+01241101821ADDAA199000091GA1001+999999999GF100991001001999999001001MD1999999-0031REMSYN058AAXX  03184 41759 329// 00000 10160 20124 40182 333 59003;EQDQ01  00002PRCP99
0177417590999992000120400004+25260+063480FM-12+000699999V0209999C000012200019N9999999N1+01501+00921101731ADDAA199000091GA1001+999999999GF100991001001999999001001MA1999999101671MD1999999-0051REMSYN064AAXX  04004 41759 329// 00000 10150 20092 30167 40173 333 59005;EQDQ01  00002PRCP99
0184417590999992000120406004+25260+063480FM-12+000699999V0201301N003112200019N0040001N1+02401+01581101851ADDAA199000091AY101061AY201061GA1001+999999999GF100991001001999999001001MD1999999-0071MW1051REMSYN064AAXX  04064 41759 31996 01306 10240 20158 40185 70500 333 59007;EQDQ01  00002PRCP99
0156417590999992000120418004+25260+063480FM-12+000699999V0209999C000012200019N9999999N1+01901+01561101661ADDAA199000091GA1001+999999999GF100991001001999999001001MD1999999-0161REMSYN058AAXX  04184 41759 329// 00000 10190 20156 40166 333 59016;EQDQ01  00002PRCP99
0177417590999992000120500004+25260+063480FM-12+000699999V0209999C000012200019N9999999N1+01501+01301101561ADDAA199000091GA1001+999999999GF100991001001999999001001MA1999999101501MD1999999-0171REMSYN064AAXX  05004 41759 329// 00000 10150 20130 30150 40156 333 59017;EQDQ01  00002PRCP99
0194417590999992000120512004+25260+063480FM-12+000699999V0201301N004112200019N0040001N1+02901+02391101361ADDAY101061AY201061GA1001+999999999GF100991001001999999001001KA1120M+03301MA1999999101311MD1999999-0141MW1051REMSYN076AAXX  05124 41759 /1996 01308 10290 20239 30131 40136 70500 333 10330 59014;
0156417590999992000120518004+25260+063480FM-12+000699999V0209999C000012200019N9999999N1+01801+01271101501ADDAA199000091GA1001+999999999GF100991001001999999001001MD1999999-0161REMSYN058AAXX  05184 41759 329// 00000 10180 20127 40150 333 59016;EQDQ01  00002PRCP99
0184417590999992000120606004+25260+063480FM-12+000699999V0209999C000012200019N0040001N1+02601+01441101551ADDAA199000091AY101061AY201061GA1001+999999999GF100991001001999999001001MD1999999-0131MW1051REMSYN064AAXX  06064 41759 31996 00000 10260 20144 40155 70500 333 59013;EQDQ01  00002PRCP99
0224417590999992000120612004+25260+063480FM-12+000699999V0201301N004112200019N0040001N1+02801+02051101211ADDAA199000091AY101061AY201061GA1001+999999999GF100991001001999999001001KA1120M+03201MA1999999101161MD1999999-0151MW1051REMSYN076AAXX  06124 41759 31996 01308 10280 20205 30116 40121 70500 333 10320 59015;EQDQ01  00002PRCP99
0156417590999992000120618004+25260+063480FM-12+000699999V0209999C000012200019N9999999N1+02101+01781101471ADDAA199000091GA1001+999999999GF100991001001999999001001MD1999999-0031REMSYN058AAXX  06184 41759 329// 00000 10210 20178 40147 333 59003;EQDQ01  00002PRCP99
0177417590999992000120700004+25260+063480FM-12+000699999V0209999C000012200019N9999999N1+01701+01701101481ADDAA199000091GA1001+999999999GF100991001001999999001001MA1999999101421MD1999999+0011REMSYN064AAXX  07004 41759 329// 00000 10170 20170 30142 40148 333 58001;EQDQ01  00002PRCP99
0184417590999992000120706004+25260+063480FM-12+000699999V0209999C000012200019N0040001N1+02301+01991101711ADDAA199000091AY101061AY201061GA1001+999999999GF100991001001999999001001MD1999999+0161MW1051REMSYN064AAXX  07064 41759 31996 00000 10230 20199 40171 70500 333 58016;EQDQ01  00002PRCP99
0224417590999992000120712004+25260+063480FM-12+000699999V0209999C000012200019N0040001N1+02701+02101101261ADDAA199000091AY101061AY201061GA1001+999999999GF100991001001999999001001KA1120M+02801MA1999999101211MD1999999+0051MW1051REMSYN076AAXX  07124 41759 31996 00000 10270 20210 30121 40126 70500 333 10280 58005;EQDQ01  00002PRCP99
0154417590999992000120806004+25260+063480FM-12+000699999V0209999C000012200019N0040001N1+02401+01761101711ADDAY101061AY201061GA1001+999999999GF100991001001999999001001MD1999999+0001MW1051REMSYN064AAXX  08064 41759 /1996 00000 10240 20176 40171 70500 333 58000;
0224417590999992000120812004+25260+063480FM-12+000699999V0201801N007212200019N0040001N1+02701+01931101311ADDAA199000091AY101061AY201061GA1001+999999999GF100991001001999999001001KA1120M+03001MA1999999101261MD1999999+0051MW1051REMSYN076AAXX  08124 41759 31996 01814 10270 20193 30126 40131 70500 333 10300 58005;EQDQ01  00002PRCP99
0119417590999992000120906004+25260+063480FM-12+000699999V0209999C000019999999N0100001N1+01501+01321101681ADDAA199000091MA1999999101621REMSYN062AAXX  09064 41759 32997 /0000 10150 20132 30162 40168 333 COR;EQDQ01  00002PRCP99
0196417590999992000120912004+25260+063480FM-12+000699999V0201301N004112200019N0100001N1+02701+02101101261ADDAA199000091GA1001+999999999GF100991001001999999001001KA1120M+03001MA1999999101211MD1999999-0051REMSYN070AAXX  09124 41759 32997 01308 10270 20210 30121 40126 333 10300 59005;EQDQ01  00002PRCP99
0156417590999992000120918004+25260+063480FM-12+000699999V0209999C000012200019N9999999N1+02001+01271101501ADDAA199000091GA1001+999999999GF100991001001999999001001MD1999999-0071REMSYN058AAXX  09184 41759 329// 00000 10200 20127 40150 333 59007;EQDQ01  00002PRCP99
0184417590999992000121006004+25260+063480FM-12+000699999V0203601N007212200019N0040001N1+02601+01821101551ADDAA199000091AY101061AY201061GA1001+999999999GF100991001001999999001001MD1999999-0011MW1051REMSYN064AAXX  10064 41759 31996 03614 10260 20182 40155 70500 333 59001;EQDQ01  00002PRCP99
0177417590999992000121100004+25260+063480FM-12+000699999V0209999C000012200019N9999999N1+01501+00691101471ADDAA199000091GA1001+999999999GF100991001001999999001001MA1999999101411MD1999999-0041REMSYN064AAXX  11004 41759 329// 00000 10150 20069 30141 40147 333 59004;EQDQ01  00002PRCP99
0184417590999992000121206004+25260+063480FM-12+000699999V0201301N003112200019N0040001N1+02501+02051101701ADDAA199000091AY101061AY201061GA1001+999999999GF100991001001999999001001MD1999999-0111MW1051REMSYN064AAXX  12064 41759 31996 01306 10250 20205 40170 70500 333 59011;EQDQ01  00002PRCP99
0230417590999992000121212004+25260+063480FM-12+000699999V0201301N004112200019N0040001N1+02501+02201101441ADDAA199000091AY101061AY201061GA1001+999999999GF100991001001999999001001KA1120M+02701MA1999999101391MD1999999+0141MW1051REMSYN082AAXX  12124 41759 31996 01308 10250 20220 30139 40144 70500 333 10270 5/033 58014;EQDQ01  00002PRCP99
0156417590999992000121218004+25260+063480FM-12+000699999V0209999C000012200019N9999999N1+01901+01741101621ADDAA199000091GA1001+999999999GF100991001001999999001001MD1999999+0091REMSYN058AAXX  12184 41759 329// 00000 10190 20174 40162 333 58009;EQDQ01  00002PRCP99
0177417590999992000121303004+25260+063480FM-12+000699999V0209999C000012200019N9999999N1+01601+01431101631ADDAA199000091GA1001+999999999GF100991001001999999001001MA1999999101571MD1999999+0111REMSYN064AAXX  13034 41759 329// 00000 10160 20143 30157 40163 333 58011;EQDQ01  00002PRCP99
0138417590999992000121306004+25260+063480FM-12+000699999V02099999999992200019N0040001N1+02501+01881101711ADDAY101061AY201061GF101991999999999999999999MD1999999+0011MW1051REMSYN064AAXX  13064 41759 /1996 1//// 10250 20188 40171 70500 333 58001;
0224417590999992000121312004+25260+063480FM-12+000699999V0202301N005112200019N0040001N1+02701+02261101321ADDAA199000091AY101061AY201061GA1001+999999999GF100991001001999999001001KA1120M+02801MA1999999101271MD1999999-0121MW1051REMSYN076AAXX  13124 41759 31996 02310 10270 20226 30127 40132 70500 333 10280 59012;EQDQ01  00002PRCP99
0156417590999992000121318004+25260+063480FM-12+000699999V0209999C000012200019N9999999N1+02201+02051101461ADDAA199000091GA1001+999999999GF100991001001999999001001MD1999999-0161REMSYN058AAXX  13184 41759 329// 00000 10220 20205 40146 333 59016;EQDQ01  00002PRCP99
0177417590999992000121400004+25260+063480FM-12+000699999V0209999C000012200019N9999999N1+01901+01241101491ADDAA199000091GA1001+999999999GF100991001001999999001001MA1999999101431MD1999999-0141REMSYN064AAXX  14004 41759 3299/ 00000 10190 20124 30143 40149 333 59014;EQDQ01  00002PRCP99
0184417590999992000121406004+25260+063480FM-12+000699999V0201301N003112200019N0040001N1+02301+01651101571ADDAA199000091AY101061AY201061GA1001+999999999GF100991001001999999001001MD1999999-0141MW1051REMSYN064AAXX  14064 41759 31996 01306 10230 20165 40157 70500 333 59014;EQDQ01  00002PRCP99
0224417590999992000121412004+25260+063480FM-12+000699999V0202301N005112200019N0040001N1+02701+02101101211ADDAA199000091AY101061AY201061GA1001+999999999GF100991001001999999001001KA1120M+02801MA1999999101161MD1999999-0111MW1051REMSYN076AAXX  14124 41759 31996 02310 10270 20210 30116 40121 70500 333 10280 59011;EQDQ01  00002PRCP99
0156417590999992000121418004+25260+063480FM-12+000699999V0209999C000012200019N9999999N1+02001+01671101381ADDAA199000091GA1001+999999999GF100991001001999999001001MD1999999-0081REMSYN058AAXX  14184 41759 329// 00000 10200 20167 40138 333 59008;EQDQ01  00002PRCP99
0177417590999992000121500004+25260+063480FM-12+000699999V0209999C000012200019N9999999N1+01701+01531101471ADDAA199000091GA1001+999999999GF100991001001999999001001MA1999999101411MD1999999-0021REMSYN064AAXX  15004 41759 329// 00000 10170 20153 30141 40147 333 59002;EQDQ01  00002PRCP99
0224417590999992000121512004+25260+063480FM-12+000699999V0202301N004112200019N0040001N1+02601+02151101271ADDAA199000091AY101061AY201061GA1001+999999999GF100991001001999999001001KA1120M+02701MA1999999101211MD1999999+0061MW1051REMSYN076AAXX  15124 41759 31996 02308 10260 20215 30121 40127 70500 333 10270 58006;EQDQ01  00002PRCP99
0156417590999992000121606004+25260+063480FM-12+000699999V0202301N005112200019N0100001N1+02601+02151101701ADDAA199000091GA1001+999999999GF100991001001999999001001MD1999999+0131REMSYN058AAXX  16064 41759 32997 02310 10260 20215 40170 333 58013;EQDQ01  00002PRCP99
0196417590999992000121612004+25260+063480FM-12+000699999V0201301N004112200019N0100001N1+02501+02351101371ADDAA199000091GA1001+999999999GF100991001001999999001001KA1120M+02601MA1999999101311MD1999999+0101REMSYN070AAXX  16124 41759 32997 01308 10250 20235 30131 40137 333 10260 58010;EQDQ01  00002PRCP99
0177417590999992000121700004+25260+063480FM-12+000699999V0209999C000012200019N9999999N1+01501+01501101811ADDAA199000091GA1001+999999999GF100991001001999999001001MA1999999101751MD1999999+0321REMSYN064AAXX  17004 41759 329// 00000 10150 20150 30175 40181 333 58032;EQDQ01  00002PRCP99
0184417590999992000121706004+25260+063480FM-12+000699999V0203601N004112200019N0040001N1+02001+01671101501ADDAA199000091AY101061AY201061GA1001+999999999GF100991001001999999001001MD1999999-0201MW1051REMSYN064AAXX  17064 41759 31996 03608 10200 20167 40150 70500 333 59020;EQDQ01  00002PRCP99
0196417590999992000121712004+25260+063480FM-12+000699999V0200401N003112200019N0100001N1+02501+02351101691ADDAA199000091GA1001+999999999GF100991001001999999001001KA1120M+02501MA1999999101631MD1999999+0321REMSYN070AAXX  17124 41759 32997 00406 10250 20235 30163 40169 333 10250 58032;EQDQ01  00002PRCP99
0177417590999992000121800004+25260+063480FM-12+000699999V0209999C000012200019N9999999N1+01401+99999102001ADDAA199000091GA1001+999999999GF100991001001999999001001MA1999999101941MD1999999+0191REMSYN064AAXX  18004 41759 329// 00000 10140 20162 30194 40200 333 58019;EQDQ01  00002PRCP99
0172417590999992000121806004+25260+063480FM-12+000699999V0200401N005112200019N0100001N1+02101+99999102091ADDAA199000091GA1001+999999999GF100991001001999999001001MD1999999+0591REMSYN058AAXX  18064 41759 32997 00410 10210 21094 40209 333 58059;EQDQ01  00002PRCP99Q02 -00943ATOD  
0240417590999992000121812004+25260+063480FM-12+000699999V0209999C000012200019N0040001N1+02601+02312101671ADDAA199000091AY101061AY201061GA1001+999999999GF100991001001999999001001KA1120M+02601MA1999999101611MD1999999-0021MW1051REMSYN076AAXX  18124 41759 31996 00000 10260 20231 30161 40167 70500 333 10260 59002;EQDQ01+002313ATOD  Q02  00002PRCP99
0156417590999992000121918004+25260+063480FM-12+000699999V0209999C000012200019N9999999N1+01501+00921101671ADDAA199000091GA1001+999999999GF100991001001999999001001MD1999999-0171REMSYN058AAXX  19184 41759 329// 00000 10150 20092 40167 333 59017;EQDQ01  00002PRCP99
0196417590999992000122012004+25260+063480FM-12+000699999V0209999C000012200019N0100001N1+02401+00681101531ADDAA199000091GA1001+999999999GF100991001001999999001001KA1120M+02601MA1999999101471MD1999999-0021REMSYN070AAXX  20124 41759 32997 00000 10240 20068 30147 40153 333 10260 59002;EQDQ01  00002PRCP99
0162417590999992000122018004+25260+063480FM-12+000699999V0209999C000012200019N9999999N1+01501+00921101741ADDAA199000091GA1001+999999999GF100991001001999999001001MD1999999+0731REMSYN064AAXX  20184 41759 329// 00000 10150 20092 40174 333 58073 58007;EQDQ01  00002PRCP99
0130417590999992000122106004+25260+063480FM-12+000699999V0200401N003112200019N0100001N1+99999+99999101971ADDAA199000091GA1001+999999999GF100991001001999999001001REMSYN046AAXX  21064 41759 32997 00406 40197 333 5801/;EQDQ01  00002PRCP99
0196417590999992000122112004+25260+063480FM-12+000699999V0209999C000012200019N0100001N1+02401+00941101551ADDAA199000091GA1001+999999999GF100991001001999999001001KA1120M+02601MA1999999101481MD1999999+0021REMSYN070AAXX  21124 41759 32997 00000 10240 20094 30148 40155 333 10260 58002;EQDQ01  00002PRCP99
0100417590999992000122118004+25260+063480FM-12+000699999V0209999C000019999999N9999999N1+01501+01131101741ADDAA199000091REMSYN058AAXX  21184 41759 329// /0000 10150 20113 40174 333 5800/;EQDQ01  00002PRCP99
0177417590999992000122200004+25260+063480FM-12+000699999V0209999C000012200019N9999999N1+01201+00791101831ADDAA199000091GA1001+999999999GF100991001001999999001001MA1999999101771MD1999999+0021REMSYN064AAXX  22004 41759 329// 00000 10120 20079 30177 40183 333 58002;EQDQ01  00002PRCP99
0184417590999992000122206004+25260+063480FM-12+000699999V0209999C000012200019N0040001N1+02101+00751101981ADDAA199000091AY101061AY201061GA1001+999999999GF100991001001999999001001MD1999999+0021MW1051REMSYN064AAXX  22064 41759 31996 00000 10210 20075 40198 70500 333 58002;EQDQ01  00002PRCP99
0196417590999992000122212004+25260+063480FM-12+000699999V0202301N003112200019N0100001N1+01501+00841101551ADDAA199000091GA1001+999999999GF100991001001999999001001KA1120M+02601MA1999999101491MD1999999+0001REMSYN070AAXX  22124 41759 32997 02306 10150 20084 30149 40155 333 10260 58000;EQDQ01  00002PRCP99
0156417590999992000122218004+25260+063480FM-12+000699999V0209999C000012200019N9999999N1+01601+01041101651ADDAA199000091GA1001+999999999GF100991001001999999001001MD1999999-0091REMSYN058AAXX  22184 41759 329// 00000 10160 20104 40165 333 59009;EQDQ01  00002PRCP99
0156417590999992000122306004+25260+063480FM-12+000699999V0209999C000012200019N0100001N1+02001+01091101671ADDAA199000091GA1001+999999999GF100991001001999999001001MD1999999-0211REMSYN058AAXX  23064 41759 32997 00000 10200 20109 40167 333 59021;EQDQ01  00002PRCP99
0224417590999992000122312004+25260+063480FM-12+000699999V0202301N005112200019N0040001N1+02501+01311101271ADDAA199000091AY101061AY201061GA1001+999999999GF100991001001999999001001KA1120M+02701MA1999999101211MD1999999-0281MW1051REMSYN076AAXX  23124 41759 31996 02310 10250 20131 30121 40127 70500 333 10270 59028;EQDQ01  00002PRCP99
0156417590999992000122314004+25260+063480FM-12+000699999V0209999C000012200019N9999999N1+01701+01351101461ADDAA199000091GA1001+999999999GF100991001001999999001001MD1999999-0191REMSYN058AAXX  23144 41759 329// 00000 10170 20135 40146 333 59019;EQDQ01  00002PRCP99
0156417590999992000122406004+25260+063480FM-12+000699999V0209999C000012200019N0100001N1+02701+01601101621ADDAA199000091GA1001+999999999GF100991001001999999001001MD1999999-0051REMSYN058AAXX  24064 41759 32997 00000 10270 20160 40162 333 59005;EQDQ01  00002PRCP99
0156417590999992000122418004+25260+063480FM-12+000699999V0209999C000012200019N9999999N1+01901+01561101571ADDAA199000091GA1001+999999999GF100991001001999999001001MD1999999+0111REMSYN058AAXX  24184 41759 329// 00000 10190 20156 40157 333 58011;EQDQ01  00002PRCP99
0177417590999992000122500004+25260+063480FM-12+000699999V0209999C000012200019N9999999N1+01401+01221101551ADDAA199000091GA1001+999999999GF100991001001999999001001MA1999999101491MD1999999+0171REMSYN064AAXX  25004 41759 329// 00000 10140 20122 30149 40155 333 58017;EQDQ01  00002PRCP99
0224417590999992000122512004+25260+063480FM-12+000699999V0201801N004112200019N0040001N1+02401+01761101411ADDAA199000091AY101061AY201061GA1001+999999999GF100991001001999999001001KA1120M+02701MA1999999101351MD1999999+0101MW1051REMSYN076AAXX  25124 41759 31996 01808 10240 20176 30135 40141 70500 333 10270 58010;EQDQ01  00002PRCP99
0156417590999992000122518004+25260+063480FM-12+000699999V0209999C000012200019N9999999N1+01701+01351101571ADDAA199000091GA1001+999999999GF100991001001999999001001MD1999999+0001REMSYN058AAXX  25184 41759 329// 00000 10170 20135 40157 333 58000;EQDQ01  00002PRCP99
0177417590999992000122600004+25260+063480FM-12+000699999V0209999C000012200019N9999999N1+01401+01221101591ADDAA199000091GA1001+999999999GF100991001001999999001001MA1999999101531MD1999999+0041REMSYN064AAXX  26004 41759 329// 00000 10140 20122 30153 40159 333 58004;EQDQ01  00002PRCP99
0175417590999992000122606004+25260+063480FM-12+000699999V0209999C000012200019N0100001N1+02101+01061999999ADDAA199000091GA1001+999999999GF100991001001999999001001KA1120N+01601MD1999999+0071REMSYN064AAXX  26064 41759 32997 00000 10210 20106 333 20160 40180 58007;EQDQ01  00002PRCP99
0224417590999992000122612004+25260+063480FM-12+000699999V0201801N001512200019N0040001N1+02401+01941101431ADDAA199000091AY101061AY201061GA1001+999999999GF100991001001999999001001KA1120M+02701MA1999999101371MD1999999+0511MW1051REMSYN076AAXX  26124 41759 31996 01803 10240 20194 30137 40143 70500 333 10270 58051;EQDQ01  00002PRCP99
0156417590999992000122618004+25260+063480FM-12+000699999V0209999C000012200019N9999999N1+01901+01741101591ADDAA199000091GA1001+999999999GF100991001001999999001001MD1999999+0021REMSYN058AAXX  26184 41759 329// 00000 10190 20174 40159 333 58002;EQDQ01  00002PRCP99
0156417590999992000122706004+25260+063480FM-12+000699999V0209999C000012200019N0100001N1+02201+01891101601ADDAA199000091GA1001+999999999GF100991001001999999001001MD1999999-0201REMSYN058AAXX  27064 41759 32997 00000 10220 20189 40160 333 59020;EQDQ01  00002PRCP99
0196417590999992000122712004+25260+063480FM-12+000699999V0201301N002112200019N0100001N1+02601+02151101221ADDAA199000091GA1001+999999999GF100991001001999999001001KA1120M+02701MA1999999101161MD1999999-0211REMSYN070AAXX  27124 41759 32997 01304 10260 20215 30116 40122 333 10270 59021;EQDQ01  00002PRCP99
0156417590999992000122718004+25260+063480FM-12+000699999V0209999C000012200019N9999999N1+01801+01271101391ADDAA199000091GA1001+999999999GF100991001001999999001001MD1999999-0201REMSYN058AAXX  27184 41759 329// 00000 10180 20127 40139 333 59020;EQDQ01  00002PRCP99
0156417590999992000122806004+25260+063480FM-12+000699999V0203601N006212200019N0100001N1+02201+01131101671ADDAA199000091GA1001+999999999GF100991001001999999001001MD1999999+0071REMSYN058AAXX  28064 41759 32997 03612 10220 20113 40167 333 58007;EQDQ01  00002PRCP99
0154417590999992000122812004+25260+063480FM-12+000699999V0200101N004119999999N0100001N1+02501+02201101311ADDAA199000091KA1120M+02601MA1999999101251MD1999999+0091REMSYN070AAXX  28124 41759 32997 /0108 10250 20220 30125 40131 333 10260 58009;EQDQ01  00002PRCP99
0156417590999992000122906004+25260+063480FM-12+000699999V0200401N004112200019N0040001N1+02201+01891101721ADDAA199000091GA1001+999999999GF100991001001999999001001MD1999999+0051REMSYN058AAXX  29064 41759 31996 00408 10220 20189 40172 333 58005;EQDQ01  00002PRCP99
0156417590999992000122918004+25260+063480FM-12+000699999V0209999C000012200019N9999999N1+02101+01221101561ADDAA199000091GA1001+999999999GF100991001001999999001001MD1999999+0011REMSYN058AAXX  29184 41759 329// 00000 10210 20122 40156 333 58001;EQDQ01  00002PRCP99
0156417590999992000123006004+25260+063480FM-12+000699999V0203601N004112200019N0100001N1+02001-00041101701ADDAA199000091GA1001+999999999GF100991001001999999001001MD1999999-0021REMSYN058AAXX  30064 41759 32997 03608 10200 21004 40170 333 59002;EQDQ01  00002PRCP99
0212417590999992000123012004+25260+063480FM-12+000699999V0203601N005112200019N0100001N1+02401+01762101901ADDAA199000091GA1001+999999999GF100991001001999999001001KA1120M+02401MA1999999101231MD1999999-0151REMSYN070AAXX  30124 41759 32997 03610 10240 20176 30123 4019/ 333 10240 59015;EQDQ01+001763ATOD  Q02  00002PRCP99
0156417590999992000123106004+25260+063480FM-12+000699999V0203601N004112200019N0100001N1+02001+01091101751ADDAA199000091GA1001+999999999GF100991001001999999001001MD1999999+0051REMSYN058AAXX  31064 41759 32997 03608 10200 20109 40175 333 58005;EQDQ01  00002PRCP99
0156417590999992000123118004+25260+063480FM-12+000699999V0209999C000012200019N9999999N1+01401+00801101581ADDAA199000091GA1001+999999999GF100991001001999999001001MD1999999+0041REMSYN058AAXX  31184 41759 329// 00000 10140 20080 40158 333 58004;EQDQ01  00002PRCP99
