0177421110999992000010100004+30320+078030FM-12+068299999V0203201N000512200019N0040001N1+00641+00511101841ADDAA106000091GA1001+999999999GF100991001001999999001001MA1999999093801MD1999999+0231REMSYN064AAXX  01004 42111 32996 03201 10064 20051 39380 40184 333 58023;EQDQ01  00002PRCP06
0177421110999992000010109004+30320+078030FM-12+068299999V0202301N000512200019N0040001N1+02921+00861101531ADDAA106000091GA1001+999999999GF100991001001999999001001MA1999999093861MD1999999+0131REMSYN064AAXX  01094 42111 32996 02301 10292 20086 39386 40153 333 58013;EQDQ01  00002PRCP06
0177421110999992000010118004+30320+078030FM-12+068299999V0200501N001012200019N0040001N1+01001+00721101881ADDAA106000091GA1001+999999999GF100991001001999999001001MA1999999093921MD1999999-0061REMSYN064AAXX  01184 42111 32996 00502 10100 20072 39392 40188 333 59006;EQDQ01  00002PRCP06
0177421110999992000010206004+30320+078030FM-12+068299999V0203201N001012200019N0040001N1+01801+00791101771ADDAA106000091GA1001+999999999GF100991001001999999001001MA1999999094031MD1999999+0001REMSYN064AAXX  02064 42111 32996 03202 10180 20079 39403 40177 333 58000;EQDQ01  00002PRCP06
0236421110999992000010212004+30320+078030FM-12+068299999V0202701N000512200019N0020001N1+01601+00941101561ADDAA106000091AY111061AY211061GA1021+030009079GF102991021001999999031001KA1120M+02161MA1999999093791MD1999999+0001MW1051REMSYN088AAXX  02124 42111 31995 22701 10160 20094 39379 40156 70511 82030 333 10216 58000 82360;EQDQ01  00002PRCP06
0177421110999992000010215004+30320+078030FM-12+068299999V0200501N000512200019N0040001N1+01181+00791101731ADDAA106000091GA1001+999999999GF100991001001999999001001MA1999999093841MD1999999-0071REMSYN064AAXX  02154 42111 32996 00501 10118 20079 39384 40173 333 59007;EQDQ01  00002PRCP06
0133421110999992000010300004+30320+078030FM-12+068299999V0200501N000512200019N0040001N1+00601+00511101741ADDGA1001+999999999GF100991001001999999001001MA1999999093691REMSYN064AAXX  03004 42111 42996 00501 10060 20051 39369 40174 333 9014/;
0196421110999992000010303004+30320+078030FM-12+068299999V0203201N000512200019N0040001N1+00681+00641101811ADDAA106000091GA1001+999999999GF100991001001999999001001KA1120M+02161MA1999999093771MD1999999-0091REMSYN070AAXX  03034 42111 32996 03201 10068 20064 39377 40181 333 10216 59009;EQDQ01  00002PRCP06
0177421110999992000010309004+30320+078030FM-12+068299999V0203201N001012200019N0040001N1+02101+00961101291ADDAA106000091GA1001+999999999GF100991001001999999001001MA1999999093671MD1999999-0151REMSYN064AAXX  03094 42111 32996 03202 10210 20096 39367 40129 333 59015;EQDQ01  00002PRCP06
0224421110999992000010312004+30320+078030FM-12+068299999V0209999C000012200019N0020001N1+01601+01021101331ADDAA106000091AY101061AY201061GA1001+999999999GF100991001001999999001001KA1120M+02141MA1999999093571MD1999999-0221MW1051REMSYN076AAXX  03124 42111 31995 00000 10160 20102 39357 40133 70500 333 10214 59022;EQDQ01  00002PRCP06
0205421110999992000010315004+30320+078030FM-12+068299999V0200501N001012200019N0020001N1+01001+00721101541ADDAA106000091AY101031AY201031GA1001+999999999GF100991001001999999001001MA1999999093611MD1999999-0231MW1051REMSYN070AAXX  03154 42111 31995 00502 10100 20072 39361 40154 70500 333 59023;EQDQ01  00002PRCP06
0177421110999992000010318004+30320+078030FM-12+068299999V0200501N000512200019N0040001N1+00841+00631101551ADDAA106000091GA1001+999999999GF100991001001999999001001MA1999999093591MD1999999-0271REMSYN064AAXX  03184 42111 32996 00501 10084 20063 39359 40155 333 59027;EQDQ01  00002PRCP06
0153421110999992000010406004+30320+078030FM-12+068299999V0201801N001012200019N0040001N1+99999+99999101521ADDAA106000091GA1001+999999999GF100991001001999999001001MA1999999093801REMSYN054AAXX  04064 42111 32996 01802 20183 39380 40152 59003;EQDQ01  00002PRCP06
0205421110999992000010409004+30320+078030FM-12+068299999V0201801N001012200019N0020001N1+01881+01111101321ADDAA106000091AY101031AY201031GA1001+999999999GF100991001001999999001001MA1999999093641MD1999999-0031MW1051REMSYN070AAXX  04094 42111 31995 01802 10188 20111 39364 40132 70500 333 59003;EQDQ01  00002PRCP06
0177421110999992000010418004+30320+078030FM-12+068299999V0200501N000512200019N0040001N1+00881+00801101741ADDAA106000091GA1001+999999999GF100991001001999999001001MA1999999093761MD1999999+0171REMSYN064AAXX  04184 42111 32996 00501 10088 20080 39376 40174 333 58017;EQDQ01  00002PRCP06
0189421110999992000010606004+30320+078030FM-12+068299999V0203601N001012200019N0040001N1+01601+00631101571ADDAA106000091GA1031+075009019GF103991001001999999001011MA1999999093801MD1999999-0071REMSYN076AAXX  06064 42111 32996 33602 10160 20063 39380 40157 80001 333 59007 83075;EQDQ01  00002PRCP06
0189421110999992000010609004+30320+078030FM-12+068299999V0202301N000512200019N0040001N1+01941+00701101131ADDAA106000091GA1041+075009019GF104991001001999999001011MA1999999093501MD1999999-0151REMSYN076AAXX  06094 42111 32996 42301 10194 20070 39350 40113 80001 333 59015 84075;EQDQ01  00002PRCP06
0196421110999992000010612004+30320+078030FM-12+068299999V0209999C000012200019N0040001N1+01581+00741999999ADDAA106000091GA1021+075009019GF102991999999999999999999KA1120M+02071MA1999999093501MD1999999-0111REMSYN070AAXX  06124 42111 32996 20000 10158 20074 39350 333 10207 59011 82075;EQDQ01  00002PRCP06
0205421110999992000010615004+30320+078030FM-12+068299999V0209999C000012200019N0020001N1+00881+00631101451ADDAA106000091AY101031AY201031GA1001+999999999GF100991001001999999001001MA1999999093501MD1999999-0221MW1051REMSYN070AAXX  06154 42111 31995 00000 10088 20063 39350 40145 70500 333 59022;EQDQ01  00002PRCP06
0177421110999992000010700004+30320+078030FM-12+068299999V0209999C000012200019N0040001N1+00441+00351101501ADDAA106000091GA1001+999999999GF100991001001999999001001MA1999999093441MD1999999-0161REMSYN064AAXX  07004 42111 32996 00000 10044 20035 39344 40150 333 59016;EQDQ01  00002PRCP06
0217421110999992000010709004+30320+078030FM-12+068299999V0201801N000512200019N0020001N1+01541+01031101311ADDAA106000091AY111031AY201031GA1011+030009079GF102991011001999999051011MA1999999093551MD1999999+0051MW1051REMSYN082AAXX  07094 42111 31995 21801 10154 20103 39355 40131 70510 81051 333 58005 81360;EQDQ01  00002PRCP06
0242421110999992000010712004+30320+078030FM-12+068299999V0201801N000512200019N0020001N1+01101+00871101391ADDAA106000091AY111061AY211061GA1011+030009039GF103991011001999999031011KA1120M+01551MA1999999093501MD1999999+0001MW1051REMSYN094AAXX  07124 42111 31995 31801 10110 20087 39350 40139 70511 81031 333 10155 58000 81360 83075;EQDQ01  00002PRCP06
0205421110999992000010715004+30320+078030FM-12+068299999V0209999C000012200019N0010001N1+00841+00801101681ADDAA106000091AY101031AY201031GA1001+999999999GF100991001001999999001001MA1999999093681MD1999999+0181MW1101REMSYN070AAXX  07154 42111 31994 00000 10084 20080 39368 40168 71000 333 58018;EQDQ01  00002PRCP06
0205421110999992000010718004+30320+078030FM-12+068299999V0200501N001012200019N0020001N1+00821+00741101621ADDAA106000091AY101061AY201061GA1001+999999999GF100991001001999999001001MA1999999093661MD1999999+0071MW1051REMSYN070AAXX  07184 42111 31995 00502 10082 20074 39366 40162 70500 333 58007;EQDQ01  00002PRCP06
0217421110999992000010800004+30320+078030FM-12+068299999V0203201N000512200019N0020001N1+00741+00661101511ADDAA106000091AY111061AY211061GA1031+030009079GF103991031001999999031001MA1999999093511MD1999999+0071MW1051REMSYN082AAXX  08004 42111 31995 33201 10074 20066 39351 40151 70511 83030 333 58007 83360;EQDQ01  00002PRCP06
0245421110999992000010806004+30320+078030FM-12+068299999V0201401N000510300019N0020001N1+01321+00781101561ADDAA106000091AY121061AY221061GA1041+010509069GA2041+030009039GF107991041051012501051011MA1999999093741MD1999999-0031MW1051REMSYN094AAXX  08064 42111 31695 71401 10132 20078 39374 40156 70522 84551 333 59003 84635 84360 86075;EQDQ01  00002PRCP06
0223421110999992000010809004+30320+078030FM-12+068299999V0202301N00051036001CN0020001N1+01681+00731101271ADDAA106000091AY121031AY221031GA1011+012009089GF106991011011012501071001MA1999999093541MD1999999-0011MW1051REMSYN088AAXX  08094 42111 31695 62301 10168 20073 39354 40127 70522 81170 333 59001 81840 85360;EQDQ01  00002PRCP06
0214421110999992000010812004+30320+078030FM-12+068299999V0209999C000010105019N0040001N1+01381+00891101211ADDAA106000091GA1051+010509069GF107991051081012501071001KA1120M+01751MA1999999093411MD1999999-0091REMSYN088AAXX  08124 42111 32696 70000 10138 20089 39341 40121 85870 333 10175 59009 85635 86760;EQDQ01  00002PRCP06
0195421110999992000010909004+30320+078030FM-12+068299999V0201401N00101036001CN0040001N1+01701+00511101251ADDAA106000091GA1021+010509069GF106991021051012501031011MA1999999093531MD1999999-0021REMSYN082AAXX  09094 42111 32696 61402 10170 20051 39353 40125 82531 333 59002 82635 85360;EQDQ01  00002PRCP06
0223421110999992000010915004+30320+078030FM-12+068299999V0209999C00001036001CN0020001N1+01181+00791101321ADDAA106000091AY121031AY221031GA1041+010509069GF107991041051012501021001MA1999999093551MD1999999+0071MW1051REMSYN088AAXX  09154 42111 31695 70000 10118 20079 39355 40132 70522 84520 333 58007 84635 84460;EQDQ01  00002PRCP06
0195421110999992000010918004+30320+078030FM-12+068299999V0200501N001019999999N0040001N1+01201+00601101341ADDAA106000091GA1031+030009039GF105991031001999999051021MA1999999093571MD1999999+0031REMSYN082AAXX  09184 42111 32996 50502 10120 20060 39357 40134 83052 333 58003 83360 84075;EQDQ01  00002PRCP06
0223421110999992000011000004+30320+078030FM-12+068299999V0200501N001019999999N0040001N1+00881+00501101391ADDAA106000091AY121061AY221061GA1031+030009039GF105991031001999999051021MA1999999093451MD1999999+0091MW1051REMSYN088AAXX  10004 42111 32996 50502 10088 20050 39345 40139 70522 83052 333 58009 83360 84075;EQDQ01  00002PRCP06
0236421110999992000011003004+30320+078030FM-12+068299999V0200501N000510300019N0040001N1+01041+00771101471ADDAA106000091GA1021+010509069GA2031+030009039GF107991021051012501031011KA1120M+01831MA1999999093571MD1999999+0081REMSYN094AAXX  10034 42111 32696 70501 10104 20077 39357 40147 82531 333 10183 58008 82635 83360 85075;EQDQ01  00002PRCP06
0223421110999992000011006004+30320+078030FM-12+068299999V0203201N00051036001CN0020001N1+01521+00761101501ADDAA106000091AY121061AY221061GA1041+010509069GF107991041051012501071001MA1999999093731MD1999999+0141MW1051REMSYN088AAXX  10064 42111 31695 73201 10152 20076 39373 40150 70522 84570 333 58014 84635 86360;EQDQ01  00002PRCP06
0214421110999992000011012004+30320+078030FM-12+068299999V0209999C00001036001CN0040001N1+01561+01021101121ADDAA106000091GA1041+010509069GF106991041051012501071001KA1120M+01811MA1999999093381MD1999999-0021REMSYN088AAXX  10124 42111 32696 60000 10156 20102 39338 40112 84570 333 10181 59002 84635 85360;EQDQ01  00002PRCP06
0189421110999992000011018004+30320+078030FM-12+068299999V0200501N000512200019N0040001N1+01141+00991101531ADDAA106000091GA1041+030009079GF104991041001999999031001MA1999999093661MD1999999+0091REMSYN076AAXX  10184 42111 32996 40501 10114 20099 39366 40153 84030 333 58009 84360;EQDQ01  00002PRCP06
0240421110999992000011103004+30320+078030FM-12+068299999V0209999C000010105019N0040001N1+01281+00861101591ADDAA100000791AA224999929AY161031AY221031GA1051+010509069GF108991051051012501021999KA1120N+01071MA1999999093731MD1999999+0161MW1211REMSYN100AAXX  11034 42111 21696 80000 10128 20086 39373 40159 72162 8552/ 333 20107 58016 6990/ 85635 88460;
0212421110999992000011112004+30320+078030FM-12+068299999V0203201N00051036001CN0040001N1+99999+99999101211ADDAA100000791AA209999929GA1041+010509069GF107991041051012501071001KA1120M+01841MA1999999093491MD1999999+0111REMSYN094AAXX  11124 42111 22696 73201 101/2 20109 39349 40121 84570 333 10184 58011 6990/ 84635 86360;
0193421110999992000011115004+30320+078030FM-12+068299999V0200501N00051036001CN0040001N1+01301+00971101431ADDAA100000791AA212999929GA1021+010509069GF105991021051012501031001MA1999999093591MD1999999+0071REMSYN088AAXX  11154 42111 22696 50501 10130 20097 39359 40143 82530 333 58007 6990/ 82635 85360;
0193421110999992000011118004+30320+078030FM-12+068299999V0200501N000512200019N0040001N1+01161+00851101481ADDAA100000791AA215999929GA1021+010509069GF104991021051012501031001MA1999999093611MD1999999-0051REMSYN088AAXX  11184 42111 22696 40501 10116 20085 39361 40148 82530 333 59005 6990/ 82635 84360;
0243421110999992000011200004+30320+078030FM-12+068299999V0203201N000510090019N0040001N1+01241+00821101241ADDAA100000791AA221999929AY191061AY261061GA1051+009009069GA2011+011409099GF108991061091008001021999MA1999999093411MD1999999-0251MW1171REMSYN100AAXX  12004 42111 21596 83201 10124 20082 39341 40124 71796 8692/ 333 59025 6990/ 85630 81938 87458;
0240421110999992000011203004+30320+078030FM-12+068299999V0209999C000010090019N0020001N1+01281+00981101441ADDAA100000191AA224000291AY191031AY261031GA1051+009009069GF108991061051008001021999KA1120N+01041MA1999999093601MD1999999-0131MW1611REMSYN100AAXX  12034 42111 21595 80000 10128 20098 39360 40144 76196 8652/ 333 20104 59013 6992/ 85630 87458;
0243421110999992000011206004+30320+078030FM-12+068299999V0200501N001010105019N0020001N1+01401+01261101491ADDAA100000891AA203000891AY191061AY261061GA1041+009009069GA2031+010509089GF108991061081008001021999MA1999999093671MD1999999-0231MW1601REMSYN100AAXX  12064 42111 21595 80502 10140 20126 39367 40149 76096 8682/ 333 59023 6998/ 84630 83835 88460;
0227421110999992000011209004+30320+078030FM-12+068299999V0200501N00051060001CN0040001N1+01601+01021101071ADDAA100004192AA206004092AY161031AY221031GA1051+060009089GF107991051081012501071001MA1999999093331MD1999999-0321MW1211REMSYN100AAXX  12094 42111 21696 70501 10160 20102 39333 40107 72162 85870 333 59032 6004/ 83635 83840 86360;
0265421110999992000011215004+30320+078030FM-12+068299999V0201401N001010114019N0020001N1+01201+01161101571ADDAA100015091AA212015091AY191031AY261031GA1041+009009069GA2031+011409089GA3011+012009099GF108991061091008001021999MA1999999093701MD1999999+0111MW1611REMSYN106AAXX  12154 42111 21595 81402 10120 20116 39370 40157 76196 8692/ 333 58011 6015/ 84630 83838 81940 88458;
0221421110999992000011218004+30320+078030FM-12+068299999V0203601N00051036001CN0040001N1+01041+00961101451ADDAA100020192AA215020092AY191061AY261061GA1021+010509069GF105991021051012501071001MA1999999093551MD1999999-0061MW1291REMSYN094AAXX  12184 42111 21696 53601 10104 20096 39355 40145 72996 82570 333 59006 6020/ 82635 84360;
0193421110999992000011300004+30320+078030FM-12+068299999V0209999C00001036001CN0040001N1+01041+01001101291ADDAA100020192AA221020092GA1031+010509069GF106991031051012501071001MA1999999093391MD1999999-0021REMSYN088AAXX  13004 42111 22696 60000 10104 20100 39339 40129 83570 333 59002 6020/ 83635 85360;
0234421110999992000011303004+30320+078030FM-12+068299999V0200901N000510360019N0040001N1+01021+00981101451ADDAA100020192AA224020092GA1021+010509069GA2021+999999069GF106991031081012501071001KA1120M+01721MA1999999093551MD1999999-0051REMSYN100AAXX  13034 42111 22696 60901 10102 20098 39355 40145 83870 333 10172 59005 6020/ 8262/ 82635 85360;
0195421110999992000011306004+30320+078030FM-12+068299999V0202301N00051036001CN0040001N1+01421+00901101361ADDAA106000091GA1031+010509069GF107991041081012501071001MA1999999093571MD1999999-0101REMSYN082AAXX  13064 42111 32696 72301 10142 20090 39357 40136 84870 333 59010 83635 86360;EQDQ01  00002PRCP06
0195421110999992000011309004+30320+078030FM-12+068299999V0203201N00151012001CN0040001N1+01441+01081101191ADDAA106000091GA1041+009009069GF107991051081008001021001MA1999999093421MD1999999+0091REMSYN082AAXX  13094 42111 32596 73203 10144 20108 39342 40119 85820 333 58009 84630 86458;EQDQ01  00002PRCP06
0240421110999992000011312004+30320+078030FM-12+068299999V0209999C00001036001CN0040001N1+01201+01051101171ADDAA100000791AA209999929AY161061AY221061GA1021+010509069GF106991031081012501031001KA1120M+01571MA1999999093311MD1999999-0081MW1211REMSYN100AAXX  13124 42111 21696 60000 10120 20105 39331 40117 72162 83830 333 10157 59008 6990/ 82635 85360;
0243421110999992000011315004+30320+078030FM-12+068299999V0203601N000510090019N0020001N1+01101+00991101351ADDAA100005192AA212005092AY191031AY261031GA1051+009009069GA2031+010509099GF108991061091008001021999MA1999999093461MD1999999-0241MW1951REMSYN100AAXX  13154 42111 21595 83601 10110 20099 39346 40135 79596 8692/ 333 59024 6005/ 85630 83935 87458;
0199421110999992000011406004+30320+078030FM-12+068299999V0201401N002112200019N0040001N1+01501+01071101401ADDAA199000091GA1021+010509069GF104991031081012501031001MA1999999093611MD1999999+0041REMSYN086    AAXX  14064 42111 32696 41404 10150 20107 39361 40140 83830 333 58004 82635 83360;EQDQ01  00002PRCP99
0216421110999992000011415004+30320+078030FM-12+068299999V0200501N000512200019N0040001N1+01141+00791101401ADDAA100000791AA212999999GA1011+010509059GF104991011051012501071001MA1999999093551MD1999999+0091REMSYN092    AAXX  14154 42111 22696 40501 10114 20079 39355 40140 81570 333 58009 6990/ 81535 83360;EQDQ01  99992PRCP12
0254421110999992000011418004+30320+078030FM-12+068299999V0200501N000512200019N0020001N1+00901+00741101511ADDAA100000791AA215999999AY121061AY221061GA1031+030009019GF104991041001999999071999MA1999999093551MD1999999+0111MW1051REMSYN092    AAXX  14184 42111 21995 40501 10090 20074 39355 40151 70522 84070 333 58011 6990/ 83460;EQDQ01+000002SCOHCGQ02  99992PRCP15
0210421110999992000011500004+30320+078030FM-12+068299999V0200501N000512200019N0040001N1+00701+00391101491ADDAA100000791AA221999999GA1021+030009079GF102991021001999999031001MA1999999093491MD1999999+0181REMSYN086    AAXX  15004 42111 22996 20501 10070 20039 39349 40149 82030 333 58018 6990/ 82360;EQDQ01  99992PRCP21
0181421110999992000011506004+30320+078030FM-12+068299999V0200501N000512200019N0040001N1+01421+00431101461ADDAA199000091GA1001+999999999GF100991001001999999001001MA1999999093671MD1999999+0061REMSYN068    AAXX  15064 42111 32996 00501 10142 20043 39367 40146 333 58006;EQDQ01  00002PRCP99
0193421110999992000011509004+30320+078030FM-12+068299999V0202301N001012200019N0040001N1+01701+00661101271ADDAA199000091GA1021+012009029GF102991021021999999001001MA1999999093541MD1999999+0111REMSYN080    AAXX  15094 42111 32996 22302 10170 20066 39354 40127 82200 333 58011 82840;EQDQ01  00002PRCP99
0181421110999992000011515004+30320+078030FM-12+068299999V0209999C000012200019N0040001N1+00681+00421101761ADDAA199000091GA1001+999999999GF100991001001999999001001MA1999999093721MD1999999+0171REMSYN068    AAXX  15154 42111 32996 00000 10068 20042 39372 40176 333 58017;EQDQ01  00002PRCP99
0200421110999992000011603004+30320+078030FM-12+068299999V0200501N000512200019N0040001N1+00261+00111102101ADDAA199000091GA1001+999999999GF100991001001999999001001KA1120M+01761MA1999999093931MD1999999+0381REMSYN074    AAXX  16034 42111 32996 00501 10026 20011 39393 40210 333 10176 58038;EQDQ01  00002PRCP99
0209421110999992000011606004+30320+078030FM-12+068299999V0203201N001012200019N0040001N1+01381+00221101392ADDAA199000091GA1011+075009019GF101991001001999999001011MA1999999093571MD1999999-0101REMSYN080    AAXX  16064 42111 32996 13202 10138 20022 39357 40139 80001 333 59010 81075;EQDQ01+101393APOSLPQ02  00002PRCP99
0181421110999992000011609004+30320+078030FM-12+068299999V0203201N002112200019N0040001N1+01681+00321101751ADDAA199000091GA1001+999999999GF100991001001999999001001MA1999999093981MD1999999+0441REMSYN068    AAXX  16094 42111 32996 03204 10168 20032 39398 40175 333 58044;EQDQ01  00002PRCP99
0226421110999992000011612004+30320+078030FM-12+068299999V0200101N016412200019N9999999N1+99999+99999999999ADDAA199000091GF101991999011999999061051KA1120M+01711MA1999999999999MD1999999+0321REMSYN068    AAXX  16124 42111 3//// 10132 20046 35382 80165 333 10171 58032;EQDQ01+000002SCOTLCQ02+053823APOSP Q03  00002PRCP99Q04 053823APOSP 
0181421110999992000011700004+30320+078030FM-12+068299999V0200501N000512200019N0040001N1+00401+00161101951ADDAA199000091GA1001+999999999GF100991001001999999001001MA1999999093821MD1999999+0031REMSYN068    AAXX  17004 42111 32996 00501 10040 20016 39382 40195 333 58003;EQDQ01  00002PRCP99
0212421110999992000011703004+30320+078030FM-12+068299999V0209999C000012200019N0040001N1+00501+00271102131ADDAA199000091GA1011+012009099GF101991011011012501001001KA1120M+01711MA1999999094021MD1999999+0091REMSYN086    AAXX  17034 42111 32696 10000 10050 20027 39402 40213 81100 333 10171 58009 81140;EQDQ01  00002PRCP99
0193421110999992000011706004+30320+078030FM-12+068299999V0203201N000512200019N0040001N1+01461+00441101961ADDAA199000091GA1021+030009079GF104991021001999999031021MA1999999094121MD1999999+0551REMSYN080    AAXX  17064 42111 32996 43201 10146 20044 39412 40196 82032 333 58055 82360;EQDQ01  00002PRCP99
0181421110999992000011709004+30320+078030FM-12+068299999V0200501N000512200019N0040001N1+02001+00301101581ADDAA199000091GA1001+999999999GF100991001001999999001001MA1999999093901MD1999999-0081REMSYN068    AAXX  17094 42111 32996 00501 10200 20030 39390 40158 333 59008;EQDQ01  00002PRCP99
0181421110999992000011715004+30320+078030FM-12+068299999V0200501N001012200019N0040001N1+01001+00761101921ADDAA199000091GA1001+999999999GF100991001001999999001001MA1999999093961MD1999999+0081REMSYN068    AAXX  17154 42111 32996 00502 10100 20076 39396 40192 333 58008;EQDQ01  00002PRCP99
0181421110999992000011718004+30320+078030FM-12+068299999V0200501N001012200019N0040001N1+00501+00401101981ADDAA199000091GA1001+999999999GF100991001001999999001001MA1999999093891MD1999999-0011REMSYN068    AAXX  17184 42111 32996 00502 10050 20040 39389 40198 333 59001;EQDQ01  00002PRCP99
0181421110999992000011800004+30320+078030FM-12+068299999V0200501N001012200019N0040001N1+00641+00421101751ADDAA199000091GA1001+999999999GF100991001001999999001001MA1999999093711MD1999999-0111REMSYN068    AAXX  18004 42111 32996 00502 10064 20042 39371 40175 333 59011;EQDQ01  00002PRCP99
0231421110999992000011803004+30320+078030FM-12+068299999V0200501N000512200019N0040001N1+00661+00491101871ADDAA199000091GA1021+030009079GF102991021001999999031001KA1120M+02111KA2120N+00561MA1999999093831MD1999999-0191REMSYN092    AAXX  18034 42111 32996 20501 10066 20049 39383 40187 82030 333 10211 20056 59019 82360;EQDQ01  00002PRCP99
0199421110999992000011806004+30320+078030FM-12+068299999V0202301N001012200019N0040001N1+01901+00791101631ADDAA199000091GA1011+012009089GF104991011011012501001011MA1999999093921MD1999999-0201REMSYN086    AAXX  18064 42111 32696 42302 10190 20079 39392 40163 81101 333 59020 81840 83075;EQDQ01  00002PRCP99
0193421110999992000011809004+30320+078030FM-12+068299999V0203201N000512200019N0040001N1+02181+00481101311ADDAA199000091GA1031+030009079GF103991031001999999031001MA1999999093701MD1999999-0201REMSYN080    AAXX  18094 42111 32996 33201 10218 20048 39370 40131 83030 333 59020 83360;EQDQ01  00002PRCP99
0209421110999992000011818004+30320+078030FM-12+068299999V0209999C000019999999N0040001N1+01081+00851101631ADDAA199000091GA1041+030009019GF105991051001999999071999MA1999999093711MD1999999-0181REMSYN080    AAXX  18184 42111 32996 50000 10108 20085 39371 40163 85070 333 59018 84460;EQDQ01+000002SCOHCGQ02  00002PRCP99
0231421110999992000011903004+30320+078030FM-12+068299999V0200501N000512200019N0040001N1+01041+00681101411ADDAA199000091GA1021+030009079GF103991021001999999031011KA1120M+02401KA2120N+00901MA1999999093511MD1999999-0221REMSYN092    AAXX  19034 42111 32996 30501 10104 20068 39351 40141 82031 333 10240 20090 59022 82360;EQDQ01  00002PRCP99
0193421110999992000011906004+30320+078030FM-12+068299999V0201401N000519999999N0040001N1+02041+00791101271ADDAA199000091GA1041+030009079GF105991051071999999001001MA1999999093651MD1999999-0271REMSYN080    AAXX  19064 42111 32996 51401 10204 20079 39365 40127 85700 333 59027 84360;EQDQ01  00002PRCP99
0215421110999992000011909004+30320+078030FM-12+068299999V0202601N999992200019N9999999N1+02281+01111100931ADDAA199000091GA1031+012009089GF103991031021999999051001MA1999999093371MD1999999-0331REMSYN086    AAXX  19094 42111 3299/ 32696 10228 20111 39337 40093 83250 333 59033 83840 85360;EQDQ01+004933WOSPD Q02  00002PRCP99
0240421110999992000011912004+30320+078030FM-12+068299999V0203201N000512200019N0020001N1+01761+00921101011ADDAA199000091AY121061AY211061GA1031+030009079GF103991031001999999031001KA1120M+02341MA1999999093321MD1999999-0321MW1051REMSYN092    AAXX  19124 42111 31995 33201 10176 20092 39332 40101 70521 83030 333 10234 59032 83360;EQDQ01  00002PRCP99
0195421110999992000011915004+30320+078030FM-12+068299999V0200501N00051036001CN0040001N1+01101+00831101311ADDAA199000091GA1021+010509069GF105991021051012501031001MA1999999093421MD1999999-0301REMSYN082AAXX  19154 42111 32696 50501 10110 20083 39342 40131 82530 333 59030 82635 85360;EQDQ01  00002PRCP99
0177421110999992000011918004+30320+078030FM-12+068299999V0200501N000512200019N0040001N1+00921+00801101201ADDAA199000091GA1001+999999999GF100991001001999999001001MA1999999093301MD1999999-0411REMSYN064AAXX  19184 42111 32996 00501 10092 20080 39330 40120 333 59041;EQDQ01  00002PRCP99
0189421110999992000012000004+30320+078030FM-12+068299999V0203201N000512200019N0040001N1+00701+00621101051ADDAA199000091GA1021+030009079GF102991021001999999031001MA1999999093081MD1999999-0401REMSYN076AAXX  20004 42111 32996 23201 10070 20062 39308 40105 82030 333 59040 82360;EQDQ01  00002PRCP99
0217421110999992000012006004+30320+078030FM-12+068299999V0202301N001012200019N0020001N1+01781+00901100771ADDAA199000091AY101061AY201061GA1011+012009029GF102991011011012501001011MA1999999093101MD1999999-0551MW1051REMSYN082AAXX  20064 42111 31695 22302 10178 20090 39310 40077 70500 81101 333 59055 81840;EQDQ01  00002PRCP99
0195421110999992000012009004+30320+078030FM-12+068299999V0202301N001012200019N0040001N1+02061+00911100471ADDAA199000091GA1011+030009039GF104991011001999999031011MA1999999092901MD1999999-0471REMSYN082AAXX  20094 42111 32996 42302 10206 20091 39290 40047 81031 333 59047 81360 83075;EQDQ01  00002PRCP99
0236421110999992000012012004+30320+078030FM-12+068299999V0209999C000012200019N0020001N1+01601+01141100661ADDAA199000091AY121061AY221061GA1041+030009079GF104991041001999999031001KA1120M+02111MA1999999092951MD1999999-0371MW1051REMSYN088AAXX  20124 42111 31995 40000 10160 20114 39295 40066 70522 84030 333 10211 59037 84360;EQDQ01  00002PRCP99
0217421110999992000012015004+30320+078030FM-12+068299999V0209999C000012200019N0020001N1+01161+00971100901ADDAA199000091AY121031AY221031GA1031+030009079GF103991031001999999031001MA1999999093081MD1999999-0341MW1051REMSYN082AAXX  20154 42111 32995 30000 10116 20097 39308 40090 70522 83030 333 59034 83360;EQDQ01  00002PRCP99
0217421110999992000012018004+30320+078030FM-12+068299999V0209999C000010300019N0020001N1+01021+00911101091ADDAA199000091AY101061AY201061GA1051+030009079GF105991051001999999031001MA1999999093221MD1999999-0081MW1051REMSYN082AAXX  20184 42111 32995 50000 10102 20091 39322 40109 70500 85030 333 59008 85360;EQDQ01  00002PRCP99
0189421110999992000012100004+30320+078030FM-12+068299999V0203201N000512200019N0040001N1+00801+00781101171ADDAA199000091GA1031+030009079GF103991031001999999031001MA1999999093221MD1999999+0141REMSYN076AAXX  21004 42111 32996 33201 10080 20078 39322 40117 83030 333 58014 83360;EQDQ01  00002PRCP99
0137421110999992000012103004+30320+078030FM-12+068299999V0209999C000019999999N0020001N1+00901+00841101421ADDAA199000091GF106991999999999999999999MA1999999093481REMSYN054AAXX  21034 42111 32995 60000 10090 20084 39348 40142;EQDQ01  00002PRCP99
0189421110999992000012109004+30320+078030FM-12+068299999V0202301N001512200019N0040001N1+02001+01051101171ADDAA199000091GA1011+012009029GF101991011011012501001001MA1999999093521MD1999999+0621REMSYN076AAXX  21094 42111 32696 12303 10200 20105 39352 40117 81100 333 58062 81840;EQDQ01  00002PRCP99
0230421110999992000012112004+30320+078030FM-12+068299999V0209999C000012200019N0020001N1+01661+01211101201ADDAA199000091AY111061AY211061GA1021+030009079GF102991999999999999999999KA1120M+02011MA1999999093481MD1999999+0531MW1051REMSYN082AAXX  21124 42111 31995 20000 10166 20121 39348 40120 70511 333 10201 58053 82360;EQDQ01  00002PRCP99
0223421110999992000012115004+30320+078030FM-12+068299999V0200501N000510105019N0020001N1+01361+01151101561ADDAA199000091AY121031AY221031GA1061+010509069GF108991061051012501021999MA1999999093731MD1999999+0651MW1051REMSYN088AAXX  21154 42111 31695 80501 10136 20115 39373 40156 70522 8652/ 333 58065 86635 87460;EQDQ01  00002PRCP99
0223421110999992000012118004+30320+078030FM-12+068299999V0200501N00101036001CN0020001N1+01241+01061101591ADDAA199000091AY121061AY221061GA1041+010509069GF106991041051012501021001MA1999999093731MD1999999+0511MW1051REMSYN088AAXX  21184 42111 31695 60502 10124 20106 39373 40159 70522 84520 333 58051 84635 85460;EQDQ01  00002PRCP99
0171421110999992000012200004+30320+078030FM-12+068299999V0200501N000512200019N0020001N1+00941+00821101541ADDAA199000091AY121061AY221061GF103991011051012501031011MA1999999093611MW1051REMSYN066AAXX  22004 42111 31695 30501 10094 20082 39361 40154 70522 81531;EQDQ01  00002PRCP99
0223421110999992000012206004+30320+078030FM-12+068299999V0202301N00101036001CN0020001N1+01501+00951101601ADDAA199000091AY121061AY221061GA1031+010509069GF106991031051012501031001MA1999999093801MD1999999+0131MW1051REMSYN088AAXX  22064 42111 31695 62302 10150 20095 39380 40160 70522 83530 333 58013 83635 85360;EQDQ01  00002PRCP99
0242421110999992000012212004+30320+078030FM-12+068299999V0202701N00051036001CN0020001N1+01641+01151101321ADDAA199000091AY121061AY221061GA1011+010509069GF105991011051012501031001KA1120M+01731MA1999999093591MD1999999+0111MW1051REMSYN094AAXX  22124 42111 31695 52701 10164 20115 39359 40132 70522 81530 333 10173 58011 81635 85360;EQDQ01  00002PRCP99
0205421110999992000012215004+30320+078030FM-12+068299999V0200501N000512200019N0020001N1+01141+00951101581ADDAA199000091AY121031AY201031GA1001+999999999GF100991001001999999001001MA1999999093701MD1999999-0031MW1051REMSYN070AAXX  22154 42111 31995 00501 10114 20095 39370 40158 70520 333 59003;EQDQ01  00002PRCP99
0177421110999992000012218004+30320+078030FM-12+068299999V0200501N000512200019N0040001N1+00981+00781101661ADDAA199000091GA1001+999999999GF100991001001999999001001MA1999999093711MD1999999-0021REMSYN064AAXX  22184 42111 31996 00501 10098 20078 39371 40166 333 59002;EQDQ01  00002PRCP99
0177421110999992000012300004+30320+078030FM-12+068299999V0200501N000512200019N0040001N1+00761+00591101591ADDAA199000091GA1001+999999999GF100991001001999999001001MA1999999093601MD1999999-0011REMSYN064AAXX  23004 42111 32996 00501 10076 20059 39360 40159 333 59001;EQDQ01  00002PRCP99
0177421110999992000012315004+30320+078030FM-12+068299999V0200501N000512200019N0040001N1+01161+00971101541ADDAA199000091GA1001+999999999GF100991001001999999001001MA1999999093671MD1999999-0031REMSYN064AAXX  23154 42111 32996 00501 10116 20097 39367 40154 333 59003;EQDQ01  00002PRCP99
0177421110999992000012318004+30320+078030FM-12+068299999V0200501N000512200019N0040001N1+01021+00871101651ADDAA199000091GA1001+999999999GF100991001001999999001001MA1999999093731MD1999999-0021REMSYN064AAXX  23184 42111 32996 00501 10102 20087 39373 40165 333 59002;EQDQ01  00002PRCP99
0177421110999992000012400004+30320+078030FM-12+068299999V0200501N000512200019N0040001N1+00801+00641101631ADDAA199000091GA1001+999999999GF100991001001999999001001MA1999999093641MD1999999+0041REMSYN064AAXX  24004 42111 32996 00501 10080 20064 39364 40163 333 58004;EQDQ01  00002PRCP99
0217421110999992000012406004+30320+078030FM-12+068299999V0201801N001012200019N0020001N1+01901+00841101611ADDAA199000091AY101061AY201061GA1011+012009029GF101991011011012501001001MA1999999093891MD1999999+0131MW1051REMSYN082AAXX  24064 42111 31695 11802 1019/ 20084 39389 40161 70500 81100 333 58013 81840;EQDQ01  00002PRCP99
0186421110999992000012409004+30320+078030FM-12+068299999V0202301N000512200019N0020001N1+02081+00941101311ADDAA124052191GA1021+009009019GF103991021011012501031001MA1999999093691MD1999999+0111REMSYN092AAXX  24094 42111 31695 32301 10208 20094 39369 40131 82130 333 70521 82130 555 58011 82840;
0236421110999992000012412004+30320+078030FM-12+068299999V0203201N000512200019N0020001N1+01741+01061101441ADDAA199000091AY111061AY211061GA1021+030009079GF102991021001999999031001KA1120M+02111MA1999999093721MD1999999+0151MW1051REMSYN088AAXX  24124 42111 31995 23201 10174 20106 39372 40144 70511 82030 333 10211 58015 82360;EQDQ01  00002PRCP99
0177421110999992000012415004+30320+078030FM-12+068299999V0200501N000512200019N0040001N1+01181+00921101861ADDAA199000091GA1001+999999999GF100991001001999999001001MA1999999093951MD1999999+0281REMSYN064AAXX  24154 42111 32996 00501 10118 20092 39395 40186 333 58028;EQDQ01  00002PRCP99
0177421110999992000012418004+30320+078030FM-12+068299999V0200501N000512200019N0040001N1+01021+00871101931ADDAA199000091GA1001+999999999GF100991001001999999001001MA1999999093991MD1999999+0261REMSYN064AAXX  24184 42111 32996 00501 10102 20087 39399 40193 333 58026;EQDQ01  00002PRCP99
0189421110999992000012500004+30320+078030FM-12+068299999V0200501N000512200019N0040001N1+00821+00571101871ADDAA199000091GA1031+030009079GF103991031001999999031001MA1999999093891MD1999999+0251REMSYN076AAXX  25004 42111 32996 30501 10082 20057 39389 40187 83030 333 58025 83360;EQDQ01  00002PRCP99
0240421110999992000012503004+30320+078030FM-12+068299999V0209999C00001036001CN0020001N1+01061+00791102011ADDAA199000091AY121031AY211031GA1021+010509069GF108991021051012501071999KA1120M+02111KA2120N+00771MD1999999+0271MW1051REMSYN094AAXX  25034 42111 31695 80000 10106 20079 40201 70521 8257/ 333 10211 20077 58027 82635 86360;EQDQ01  00002PRCP99
0223421110999992000012506004+30320+078030FM-12+068299999V0209999C00001036001CN0020001N1+01421+00981101911ADDAA199000091AY121061AY211061GA1021+010509069GF107991021051012501071001MA1999999094091MD1999999+0201MW1051REMSYN088AAXX  25064 42111 31695 70000 10142 20098 39409 40191 70521 82570 333 58020 82635 86460;EQDQ01  00002PRCP99
0221421110999992000012509004+30320+078030FM-12+068299999V0203201N001010090019N0040001N1+01441+00791101771ADDAA100000791AA206999929AY151031AY221031GA1051+009009069GF108991051051008001021999MA1999999093951MD1999999+0261MW1501REMSYN094AAXX  25094 42111 21596 83202 10144 20079 39395 40177 75052 8552/ 333 58026 6990/ 85630 87458;
0240421110999992000012512004+30320+078030FM-12+068299999V0200501N001010090019N0020001N1+01141+01071101871ADDAA100002091AA209002091AY161061AY251061GA1051+009009069GF108991051051008001021999KA1120M+01561MA1999999093961MD1999999+0241MW1601REMSYN100AAXX  25124 42111 21595 80502 10114 20107 39396 40187 76065 8552/ 333 10156 58024 6002/ 85630 88458;
0221421110999992000012515004+30320+078030FM-12+068299999V0201401N000510090019N0020001N1+01021+00981102211ADDAA100008991AA212009091AY161031AY261031GA1061+009009069GF108991061051008001021999MA1999999094161MD1999999+0211MW1611REMSYN094AAXX  25154 42111 21595 81401 10102 20098 39416 40221 76166 8652/ 333 58021 6009/ 86630 87458;
0259421110999992000012603004+30320+078030FM-12+068299999V0203201N00101036001CN0040001N1+01021+00981102071ADDAA100023192AA224023092AY161031AY221031GA1041+009009069GF107991041051008001071001KA1120M+01561KA2120N+00851MA1999999094121MD1999999+0051MW1021REMSYN106AAXX  26034 42111 21596 73202 10102 20098 39412 40207 70262 84570 333 10156 20085 58005 6023/ 84630 86458;
0221421110999992000012606004+30320+078030FM-12+068299999V0202301N001010090019N0020001N1+01101+01061102301ADDAA100000892AA203000792AY161061AY221061GA1051+009009069GF108991051051008001021999MA1999999094331MD1999999+0241MW1601REMSYN094AAXX  26064 42111 21595 82302 10110 20106 39433 40230 76062 8552/ 333 58024 6997/ 85630 88456;
0240421110999992000012612004+30320+078030FM-12+068299999V0203201N00051036001CN0100001N1+01281+01211101881ADDAA100002091AA209002091AY161061AY221061GA1031+009009069GF107991041081008001071001KA1120M+01401MA1999999094001MD1999999+0041MW1021REMSYN100AAXX  26124 42111 21597 73201 10128 20121 3940/ 40188 70262 84870 333 10140 58004 6002/ 83630 86458;
0221421110999992000012615004+30320+078030FM-12+068299999V0202301N00051036001CN0040001N1+01121+01081101991ADDAA100002091AA212002091AY161031AY221031GA1021+009009069GF107991021051008001071001MA1999999094081MD1999999-0081MW1021REMSYN094AAXX  26154 42111 21596 72301 10112 20108 39408 40199 70262 82570 333 59008 6002/ 82630 86460;
0221421110999992000012618004+30320+078030FM-12+068299999V0200501N00261036001CN0040001N1+01201+00811101981ADDAA100003091AA215003091AY161061AY221061GA1021+009009069GF108991021051008001071999MA1999999094071MD1999999-0161MW1211REMSYN094AAXX  26184 42111 21596 80505 10120 20081 39407 40198 72162 8257/ 333 59016 6003/ 82630 88458;
0215421110999992000012700004+30320+078030FM-12+068299999V0209999C000012200019N0040001N1+00861+00821101821ADDAA100003091AA221003091AY161061AY221061GA1021+030009079GF102991021001999999031001MA1999999093841MD1999999-0271MW1011REMSYN088AAXX  27004 42111 21996 20000 10086 20082 39384 40182 70162 82030 333 59027 6003/ 82360;
0225421110999992000012703004+30320+078030FM-12+068299999V0203201N000512200019N0040001N1+00901+00821101941ADDAA100003091AA224003091GA1011+010509059GF103991021081012501031001KA1120M+01401KA2120N+00781MA1999999093951MD1999999-0171REMSYN094AAXX  27034 42111 22696 33201 10090 20082 39395 40194 82830 333 10140 20078 59017 6003/ 81635;
0170421110999992000012706004+30320+078030FM-12+068299999V0202701N001012200019N0040001N1+01741+01021101781ADDAA199000021GA1021+012009029GF102991021021012501001001MA1999999094041MD1999999-0291REMSYN076AAXX  27064 42111 32696 22702 10174 20102 39404 40178 82200 333 59029 82840;
0223421110999992000012709004+30320+078030FM-12+068299999V0202301N001010096019N0040001N1+01981+00941101561ADDAA199000091AY191031AY221031GA1051+009609069GF107991071091012501001001MA1999999093891MD1999999-0221MW1171REMSYN088AAXX  27094 42111 31696 72302 10198 20094 39389 40156 71792 87900 333 59022 85632 83940;EQDQ01  00002PRCP99
0223421110999992000012712004+30320+078030FM-12+068299999V0203201N000512200019N0040001N1+01661+01131101571ADDAA199000091AY191061AY221061GA1011+030009079GF101991011001999999031001MA1999999093821MD1999999-0181MW1011REMSYN088AAXX  27124 42111 31996 13201 10166 20113 39382 40157 70192 81030 333 1026/ 59018 81360;EQDQ01  00002PRCP99
0177421110999992000012715004+30320+078030FM-12+068299999V0200501N002112200019N0040001N1+01141+00571101771ADDAA199000091GA1001+999999999GF100991001001999999001001MA1999999093961MD1999999-0121REMSYN064AAXX  27154 42111 32996 00504 10114 20057 39396 40177 333 59012;EQDQ01  00002PRCP99
0177421110999992000012718004+30320+078030FM-12+068299999V0200501N001512200019N0040001N1+00941+00521101941ADDAA199000091GA1001+999999999GF100991001001999999001001MA1999999093981MD1999999-0091REMSYN064AAXX  27184 42111 32996 00503 10094 20052 39398 40194 333 59009;EQDQ01  00002PRCP99
0177421110999992000012721004+30320+078030FM-12+068299999V0200501N001012200019N0040001N1+00741+00481101921ADDAA199000091GA1001+999999999GF100991001001999999001001MA1999999093901MD1999999-0061REMSYN064AAXX  27214 42111 32996 00502 10074 20048 39390 40192 333 59006;EQDQ01  00002PRCP99
0177421110999992000012800004+30320+078030FM-12+068299999V0209999C000012200019N0040001N1+00581+00401101901ADDAA199000091GA1001+999999999GF100991001001999999001001MA1999999093831MD1999999-0011REMSYN064AAXX  28004 42111 32996 00000 10058 20040 39383 40190 333 59001;EQDQ01  00002PRCP99
0215421110999992000012803004+30320+078030FM-12+068299999V0209999C000012200019N0040001N1+00701+00531101881ADDAA199000091GA1001+999999999GF100991001001999999001001KA1120M+02061KA2120N+00511MA1999999093841MD1999999-0111REMSYN076AAXX  28034 42111 32996 00000 10070 20053 39384 40188 333 10206 20051 59011;EQDQ01  00002PRCP99
0189421110999992000012806004+30320+078030FM-12+068299999V0209999C000012200019N0040001N1+01721+00691101711ADDAA199000091GA1011+012009029GF101991011011012501001001MA1999999093971MD1999999-0071REMSYN076AAXX  28064 42111 32696 10000 10172 20069 39397 40171 81100 333 59007 81840;EQDQ01  00002PRCP99
0189421110999992000012809004+30320+078030FM-12+068299999V0203201N004112200019N0040001N1+02001+00421101461ADDAA199000091GA1011+012009029GF101991011011012501001001MA1999999093791MD1999999-0101REMSYN076AAXX  28094 42111 32696 13208 10200 20042 39379 40146 81100 333 59010 81840;EQDQ01  00002PRCP99
0196421110999992000012812004+30320+078030FM-12+068299999V0202701N001012200019N0040001N1+01681+00781101471ADDAA199000091GA1001+999999999GF100991001001999999001001KA1120M+02061MA1999999093721MD1999999-0101REMSYN070AAXX  28124 42111 32996 02702 10168 20078 39372 40147 333 10206 59010;EQDQ01  00002PRCP99
0177421110999992000012815004+30320+078030FM-12+068299999V0200501N000512200019N0040001N1+01141+00871101691ADDAA199000091GA1001+999999999GF100991001001999999001001MA1999999093801MD1999999+0041REMSYN064AAXX  28154 42111 32996 00501 10114 20087 39380 40169 333 58004;EQDQ01  00002PRCP99
0177421110999992000012818004+30320+078030FM-12+068299999V0200501N000512200019N0040001N1+00961+00721101691ADDAA199000091GA1001+999999999GF100991001001999999001001MA1999999093741MD1999999-0241REMSYN064AAXX  28184 42111 32996 00501 10096 20072 39374 40169 333 59024;EQDQ01  00002PRCP99
0177421110999992000012900004+30320+078030FM-12+068299999V0203201N000512200019N0040001N1+00641+00511101591ADDAA199000091GA1001+999999999GF100991001001999999001001MA1999999093571MD1999999-0261REMSYN064AAXX  29004 42111 32996 03201 10064 20051 39357 40159 333 59026;EQDQ01  00002PRCP99
0173421110999992000012903004+30320+078030FM-12+068299999V0200501N000512200019N0040001N1+00781+00611101641ADDAA124307691GF103991001001999999001011KA1120M+02061MA1999999093651MD1999999-0191REMSYN082AAXX  29034 42111 32996 30501 10078 20061 39365 40164 80001 333 10206 59019 73075;
0189421110999992000012906004+30320+078030FM-12+068299999V0201801N001012200019N0040001N1+01801+00721101441ADDAA199000091GA1041+075009019GF104991001001999999001021MA1999999093721MD1999999-0251REMSYN076AAXX  29064 42111 32996 41802 10180 20072 39372 40144 80002 333 59025 84075;EQDQ01  00002PRCP99
0205421110999992000012909004+30320+078030FM-12+068299999V0203201N001012200019N0040001N1+02041+00641101151ADDAA199000091GA1031+075009019GF103991001001999999001011MA1999999093531MD1999999-0261REMSYN076AAXX  29094 42111 32996 33202 10204 20064 39353 40115 83001 333 59026 83075;EQDQ01+000032SCOTLCQ02  00002PRCP99
0189421110999992000013006004+30320+078030FM-12+068299999V0201401N001012200019N0040001N1+01721+00831101571ADDAA199000091GA1021+075009019GF102991001001999999001011MA1999999093851MD1999999+0131REMSYN076AAXX  30064 42111 32996 21402 10172 20083 39385 40157 80001 333 58013 82075;EQDQ01  00002PRCP99
0208421110999992000013012004+30320+078030FM-12+068299999V0201801N000512200019N0040001N1+01741+01221101321ADDAA199000091GA1011+030009079GF101991011001999999031001KA1120M+02181MA1999999093611MD1999999+0071REMSYN082AAXX  30124 42111 32996 11801 10174 20122 39361 40132 81030 333 10218 58007 81360;EQDQ01  00002PRCP99
0243421110999992000013103004+30320+078030FM-12+068299999V0200501N000512200019N0020001N1+01001+00811101801ADDAA199000091AY101031AY201031GA1001+999999999GF100991001001999999001001KA1120M+02181KA2120N+00841MA1999999093851MD1999999+0151MW1051REMSYN082AAXX  31034 42111 31995 00501 10100 20081 39385 40180 70500 333 10218 20084 58015;EQDQ01  00002PRCP99
0217421110999992000013106004+30320+078030FM-12+068299999V0201401N000512200019N0020001N1+01781+00991101651ADDAA199000091AY101061AY201061GA1011+030009079GF101991011001999999031001MA1999999093911MD1999999+0061MW1051REMSYN082AAXX  31064 42111 31995 11401 10178 20099 39391 40165 70500 81030 333 58006 81360;EQDQ01  00002PRCP99
0223421110999992000013109004+30320+078030FM-12+068299999V0201801N00051036001CN0020001N1+02101+01051101181ADDAA199000091AY121031AY221031GA1021+012009089GF105991021021012501051001MA1999999093561MD1999999-0041MW1051REMSYN088AAXX  31094 42111 31695 51801 10210 20105 39356 40118 70522 82250 333 59004 82840 84360;EQDQ01  00002PRCP99
0264421110999992000013112004+30320+078030FM-12+068299999V0201401N00051012001CN0020001N1+01801+01101101121ADDAA199000091AY121061AY221061GA1021+010509069GA2031+012009089GF106991041081012501031001KA1120M+02141MA1999999093421MD1999999-0191MW1051REMSYN100AAXX  31124 42111 31695 61401 10180 20110 39342 40112 70522 84830 333 10214 59019 82635 83840 85360;EQDQ01  00002PRCP99
0217421110999992000013115004+30320+078030FM-12+068299999V0200501N000510300019N0020001N1+01401+01111101511ADDAA199000091AY121031AY221031GA1051+030009079GF105991051001999999031001MA1999999093691MD1999999-0011MW1051REMSYN082AAXX  31154 42111 31995 50501 10140 20111 39369 40151 70522 85030 333 59001 85360;EQDQ01  00002PRCP99
0189421110999992000013118004+30320+078030FM-12+068299999V0200501N000512200019N0040001N1+01261+00881101461ADDAA199000091GA1031+030009079GF103991031001999999031001MA1999999093621MD1999999-0081REMSYN076AAXX  31184 42111 32996 30501 10126 20088 39362 40146 83030 333 59008 83360;EQDQ01  00002PRCP99
0193421110999992000020100004+30320+078030FM-12+068299999V0202301N001510090019N0020001N1+01161+01051101051ADDAY161061AY221061GA1051+009009069GF108991051051008001021999MA1999999093211MD1999999-0491MW1611REMSYN088AAXX  01004 42111 21595 82303 10116 20105 39321 40105 76162 8552/ 333 59049 85630 88456;
0219421110999992000020103004+30320+078030FM-12+068299999V0200501N00051015001CN0040001N1+01301+01041101051ADDAA100000892AA224000792AY161031AY221031GA1041+009009069GF107991051081012501071001KA1120N+01101MD1999999-0611MW1201REMSYN094AAXX  01034 42111 21696 70501 10130 20104 40105 72062 85870 333 20110 59061 6997/ 84630 86460;
0221421110999992000020106004+30320+078030FM-12+068299999V0200501N00101012001CN0020001N1+01161+01121101341ADDAA100004192AA203004092AY191061AY261061GA1041+007509069GF108991051081008001021999MA1999999093481MD1999999-0431MW1911REMSYN094AAXX  01064 42111 21595 80502 10116 20112 39348 40134 79196 8582/ 333 59043 6004/ 84625 88460;
0221421110999992000020109004+30320+078030FM-12+068299999V0209999C00001012001CN0020001N1+01301+01161101011ADDAA100004192AA206004092AY161031AY221031GA1041+009009069GF107991051081008001021001MA1999999093201MD1999999-0361MW1211REMSYN094AAXX  01094 42111 21595 70000 10130 20116 39320 40101 72162 85820 333 59036 6004/ 84630 86460;
0262421110999992000020112004+30320+078030FM-12+068299999V0209999C000010090019N0020001N1+01361+01251100911ADDAA100005192AA209005092AY161061AY221061GA1021+006009079GA2041+009009069GF107991051071004501021001KA1120M+01361MA1999999093131MD1999999-0291MW1051REMSYN106AAXX  01124 42111 21495 70000 10136 20125 39313 40091 70562 85720 333 10136 59029 6005/ 82720 84630 87460;
0243421110999992000020115004+30320+078030FM-12+068299999V0200501N000510120019N0040001N1+01221+01181101101ADDAA100005192AA212005092AY191031AY221031GA1041+009009069GA2011+012009099GF107991051091008001021001MA1999999093291MD1999999-0401MW1171REMSYN100AAXX  01154 42111 21596 70501 10122 20118 39329 40110 71792 85920 333 59040 6005/ 84630 81940 86460;
0243421110999992000020118004+30320+078030FM-12+068299999V0209999C000010120019N0020001N1+01061+01021101321ADDAA100007192AA215007092AY191061AY261061GA1041+008409069GA2011+012009099GF108991051091008001021999MA1999999093431MD1999999-0191MW1951REMSYN100AAXX  01184 42111 21595 80000 10106 20102 39343 40132 79596 8592/ 333 59019 6007/ 84628 81940 86460;
0256421110999992000020121004+30320+078030FM-12+068299999V0200501N99999036001CN0040001N1+00981+00941101311ADDAA100007192AA218007092AY191031AY261031GA1021+010509069GF105991021051012501071001MA1999999093401MD1999999+0011MW1011REMSYN094AAXX  01214 42111 21696 50596 10098 20094 39340 40131 70196 82570 333 58001 6007/ 82635 84460;EQDQ01+004933WOSPD Q020004933WOSPD 
0211421110999992000020200004+30320+078030FM-12+068299999V0200501N999992200019N0040001N1+00801+00641101351ADDAA100007191AY191061AY261061GA1001+999999999GF100991001001999999001001MA1999999093381MD1999999+0171MW1021REMSYN076AAXX  02004 42111 21996 00591 10080 20064 39338 40135 70296 333 58017 6007/;EQDQ01+004683WOSPD 
0202421110999992000020203004+30320+078030FM-12+068299999V0202301N000512200019N0040001N1+00841+00761101651ADDAA100007191GA1001+999999999GF100991001001999999001001KA1120M+01361KA2120N+00661MA1999999093691MD1999999+0451REMSYN082AAXX  02034 42111 22996 02301 10084 20076 39369 40165 333 10136 20066 58045 6007/;
0176421110999992000020206004+30320+078030FM-12+068299999V0202301N00051036001CN0040001N1+01521+01011101621ADDAA199000021GA1011+012009089GF107991011011012501071001MA1999999093851MD1999999+0371REMSYN082AAXX  02064 42111 32696 72301 10152 20101 39385 40162 81170 333 58037 81840 85460;
0195421110999992000020209004+30320+078030FM-12+068299999V0202701N00101015001CN0040001N1+01721+00961101421ADDAA199000091GA1041+010509069GF107991051081012501071001MA1999999093701MD1999999+0501REMSYN082AAXX  02094 42111 32696 72702 10172 20096 39370 40142 85870 333 58050 84635 86360;EQDQ01  00002PRCP99
0214421110999992000020212004+30320+078030FM-12+068299999V0209999C000010105019N0040001N1+01561+01101101351ADDAA199000091GA1051+010509069GF107991051051012501071001KA1120M+01721MA1999999093591MD1999999+0461REMSYN088AAXX  02124 42111 32696 70000 10156 20110 39359 40135 85570 333 10172 58046 85635 86360;EQDQ01  00002PRCP99
0217421110999992000020215004+30320+078030FM-12+068299999V0203201N000512200019N0020001N1+01241+01061101691ADDAA199000091AY121031AY221031GA1041+075009019GF104991001001999999001021MA1999999093831MD1999999+0541MW1051REMSYN082AAXX  02154 42111 31995 43201 10124 20106 39383 40169 70522 80002 333 58054 84075;EQDQ01  00002PRCP99
0217421110999992000020218004+30320+078030FM-12+068299999V0203201N001012200019N0020001N1+01161+00971101841ADDAA199000091AY121061AY221061GA1041+075009019GF104991001001999999001021MA1999999093931MD1999999+0501MW1051REMSYN082AAXX  02184 42111 31995 43202 10116 20097 39393 40184 70522 80002 333 58050 84075;EQDQ01  00002PRCP99
0177421110999992000020300004+30320+078030FM-12+068299999V0203201N001012200019N0040001N1+00661+00531101951ADDAA199000091GA1001+999999999GF100991001001999999001001MA1999999093901MD1999999+0521REMSYN064AAXX  03004 42111 32996 03202 10066 20053 39390 40195 333 58052;EQDQ01  00002PRCP99
0147421110999992000020303004+30320+078030FM-12+068299999V0209999C000012200019N0040001N1+00741+00571101951ADDAA199000091GF102991001001999999001011MA1999999093931REMSYN064AAXX  03034 42111 32996 20000 10074 20057 39393 40195 80001 333;EQDQ01  00002PRCP99
0189421110999992000020306004+30320+078030FM-12+068299999V0202301N001012200019N0040001N1+01801+00551101871ADDAA199000091GA1021+075009019GF102991001001999999001011MA1999999094111MD1999999+0261REMSYN076AAXX  03064 42111 32996 22302 10180 20055 39411 40187 80001 333 58026 82075;EQDQ01  00002PRCP99
0189421110999992000020309004+30320+078030FM-12+068299999V0203201N000512200019N0040001N1+02121+00441101421ADDAA199000091GA1011+012009029GF101991011011012501001001MA1999999093811MD1999999+0111REMSYN076AAXX  03094 42111 32696 13201 10212 20044 39381 40142 81100 333 58011 81840;EQDQ01  00002PRCP99
0214421110999992000020312004+30320+078030FM-12+068299999V0203201N001012200019N0040001N1+01821+00731101381ADDAA199000091GA1011+010509069GF103991011051012501031001KA1120M+02141MA1999999093701MD1999999+0111REMSYN088AAXX  03124 42111 32696 33202 10182 20073 39370 40138 81530 333 10214 58011 81635 83360;EQDQ01  00002PRCP99
0177421110999992000020315004+30320+078030FM-12+068299999V0200501N001012200019N0040001N1+01281+00861101641ADDAA199000091GA1001+999999999GF100991001001999999001001MA1999999093781MD1999999-0051REMSYN064AAXX  03154 42111 32996 00502 10128 20086 39378 40164 333 59005;EQDQ01  00002PRCP99
0177421110999992000020318004+30320+078030FM-12+068299999V0200501N001012200019N0040001N1+01121+00771101701ADDAA199000091GA1001+999999999GF100991001001999999001001MA1999999093811MD1999999-0121REMSYN064AAXX  03184 42111 32996 00502 10112 20077 39381 40170 333 59012;EQDQ01  00002PRCP99
0177421110999992000020400004+30320+078030FM-12+068299999V0200501N000512200019N0040001N1+00801+00551101521ADDAA199000091GA1001+999999999GF100991001001999999001001MA1999999093531MD1999999-0371REMSYN064AAXX  04004 42111 32996 00501 10080 20055 39353 40152 333 59037;EQDQ01  00002PRCP99
0259421110999992000020403004+30320+078030FM-12+068299999V0209999C000012200019N0040001N1+00801+00541101601ADDAA199000091GA1021+009009059GF199999999001999999001001KA1120M+02511KA2120N+00691MA1999999093611MD1999999-0321REMSYN088AAXX  04034 42111 32996 00000 10080 20054 39361 40160 82030 333 10251 20069 59032 82630;EQDQ01+000002SCOTCVQ02+000002SCOTLCQ03  00002PRCP99
0195421110999992000020406004+30320+078030FM-12+068299999V0202301N000519999999N0040001N1+01701+00761101371ADDAA199000091GA1021+010509069GF108991021051999999061999MA1999999093641MD1999999-0211REMSYN082AAXX  04064 42111 32996 82301 10170 20076 39364 40137 8256/ 333 59021 82635 88460;EQDQ01  00002PRCP99
0223421110999992000020409004+30320+078030FM-12+068299999V0202301N00101036001CN0020001N1+01621+00921101141ADDAA199000091AY121031AY221031GA1041+009009069GF108991041051012501021999MA1999999093421MD1999999-0391MW1051REMSYN088AAXX  04094 42111 31695 82302 10162 20092 39342 40114 70522 8452/ 333 59039 84630 87460;EQDQ01  00002PRCP99
0240421110999992000020412004+30320+078030FM-12+068299999V0203201N001510090019N0040001N1+01401+00741100921ADDAA100000791AA209999929AY161061AY221061GA1061+009009069GF108991061051008001071999KA1120M+01711MA1999999093141MD1999999-0561MW1601REMSYN100AAXX  04124 42111 21596 83203 10140 20074 39314 40092 76062 8657/ 333 10171 59056 6990/ 86630 87460;
0221421110999992000020415004+30320+078030FM-12+068299999V0209999C000010075019N0020001N1+01141+00991101281ADDAA100003091AA212003091AY161031AY261031GA1051+007509069GF108991051051008001031999MA1999999093421MD1999999-0361MW1631REMSYN094AAXX  04154 42111 21595 80000 10114 20099 39342 40128 76366 8553/ 333 59036 6003/ 85625 88458;
0221421110999992000020500004+30320+078030FM-12+068299999V0200501N000510084019N0020001N1+00941+00821101021ADDAA100021192AA221021092AY161061AY261061GA1061+008409069GF108991061051008001021999MA1999999093121MD1999999-0411MW1611REMSYN094AAXX  05004 42111 21595 80501 10094 20082 39312 40102 76166 8652/ 333 59041 6021/ 86628 88458;
0259421110999992000020503004+30320+078030FM-12+068299999V0200901N000510090019N0040001N1+00941+00861101011ADDAA100023192AA224023092AY161031AY261031GA1061+009009069GF108991061051008001021999KA1120M+01711KA2120N+00891MA1999999093111MD1999999-0501MW1211REMSYN106AAXX  05034 42111 21596 80901 10094 20086 39311 40101 72166 8652/ 333 10171 20089 59050 6023/ 86630 87458;
0227421110999992000020506004+30320+078030FM-12+068299999V0202301N00101004201CN0020001N1+00901+00821101271ADDAA100005192AA203005092AY161061AY261061GA1061+999999079GF108991061071004501021999MA1999999093331MD1999999-0311MW1611REMSYN100AAXX  05064 42111 21495 82302 10090 20082 39333 40127 76166 8672/ 333 59031 6005/ 83720 86628 87456;
0221421110999992000020512004+30320+078030FM-12+068299999V0201401N000510096019N0100001N1+01141+00991101041ADDAA100015091AA209015091AY161061AY221061GA1051+009609069GF107991051051012501021001MA1999999093201MD1999999+0061MW1021REMSYN094AAXX  05124 42111 21697 71401 10114 20099 39320 40104 70262 85520 333 58006 6015/ 85632 86460;
0221421110999992000020515004+30320+078030FM-12+068299999V0203201N000510090019N0020001N1+01021+00981101391ADDAA100015091AA212015091AY161031AY221031GA1051+009009069GF108991051051008001021999MA1999999093401MD1999999-0021MW1601REMSYN094AAXX  05154 42111 21595 83201 10102 20098 39340 40139 76062 8552/ 333 59002 6015/ 85630 88456;
0221421110999992000020518004+30320+078030FM-12+068299999V0209999C00001036001CN0100001N1+01001+00921101441ADDAA100015091AA215015091AY161061AY221061GA1041+009609069GF108991041051012501021999MA1999999093511MD1999999+0211MW1021REMSYN094AAXX  05184 42111 21697 80000 10100 20092 39351 40144 70262 8452/ 333 58021 6015/ 84632 88458;
0193421110999992000020600004+30320+078030FM-12+068299999V0209999C00001036001CN0100001N1+00941+00901101361ADDAA100015091AA221015091GA1021+010509069GF106991021051012501071001MA1999999093451MD1999999+0331REMSYN088AAXX  06004 42111 22697 60000 10094 20090 39345 40136 82570 333 58033 6015/ 82635 85460;
0231421110999992000020603004+30320+078030FM-12+068299999V0209999C00001036001CN0040001N1+01001+00961101611ADDAA100015091AA224015091GA1021+010509069GF106991021051012501071001KA1120M+01191KA2120N+00861MA1999999093681MD1999999+0571REMSYN100AAXX  06034 42111 22696 60000 10100 20096 39368 40161 82570 333 10119 20086 58057 6015/ 82635 85460;
0195421110999992000020606004+30320+078030FM-12+068299999V0203201N00051036001CN0040001N1+01341+00891101641ADDAA199000091GA1021+010509069GF106991021051012501071001MA1999999093811MD1999999+0481REMSYN082AAXX  06064 42111 32696 63201 10134 20089 39381 40164 82570 333 58048 82635 85360;EQDQ01  00002PRCP99
0201421110999992000020609004+30320+078030FM-12+068299999V0203201N00151012001CN0040001N1+01581+00921999999ADDAA199000091GA1021+009009069GA2031+012009089GF106991999999008001999999MD1999999+0431REMSYN087AAXX  06094 42111 32596 63203 10158 20092 3936 40143 84870 333 58043 82630 83840 85360;EQDQ01  00002PRCP99
0236421110999992000020612004+30320+078030FM-12+068299999V0203201N00101012001CN0040001N1+01301+01011101441ADDAA199000091GA1021+009009069GA2031+012009089GF105991041081008001031001KA1120M+01621MA1999999093601MD1999999+0401REMSYN094AAXX  06124 42111 32596 53202 10130 20101 39360 40144 84830 333 10162 58040 82630 83840 85360;EQDQ01  00002PRCP99
0177421110999992000020615004+30320+078030FM-12+068299999V0200501N000512200019N0040001N1+00981+00901101581ADDAA199000091GA1001+999999999GF100991001001999999001001MA1999999093651MD1999999+0251REMSYN064AAXX  06154 42111 32996 00501 10098 20090 39365 40158 333 58025;EQDQ01  00002PRCP99
0177421110999992000020621004+30320+078030FM-12+068299999V0200501N001012200019N0040001N1+00721+00641101581ADDAA199000091GA1001+999999999GF100991001001999999001001MA1999999093591MD1999999+0141REMSYN064AAXX  06214 42111 32996 00502 10072 20064 39359 40158 333 58014;EQDQ01  00002PRCP99
0177421110999992000020700004+30320+078030FM-12+068299999V0203201N000512200019N0040001N1+00641+00561101541ADDAA199000091GA1001+999999999GF100991001001999999001001MA1999999093521MD1999999+0071REMSYN064AAXX  07004 42111 32996 03201 10064 20056 39352 40154 333 58007;EQDQ01  00002PRCP99
0205421110999992000020702004+30320+078030FM-12+068299999V0202301N001512200019N0040001N1+01661+00801101551ADDAA199000091GA1021+012009029GF103991999021012501001001MA1999999093801MD1999999-0011REMSYN076AAXX  07024 42111 32696 32303 10166 20080 39380 40155 82200 333 59001 82840;EQDQ01+000022SCOTLCQ02  00002PRCP99
0196421110999992000020703004+30320+078030FM-12+068299999V0203201N000512200019N0040001N1+00742+00701101661ADDAA199000091GA1001+999999999GF100991001001999999001001KA1120N+00611MA1999999093671MD1999999-0011REMSYN070AAXX  07034 42111 32996 03201 10074 20070 39367 40166 333 20061 59001;EQDQ01  00002PRCP99
0205421110999992000020706004+30320+078030FM-12+068299999V0202301N001512200019N0040001N1+01661+00801101551ADDAA199000091GA1021+012009029GF103991999021012501001001MA1999999093801MD1999999-0011REMSYN076AAXX  07064 42111 32696 32303 10166 20080 39380 40155 82200 333 59001 82840;EQDQ01+000022SCOTLCQ02  00002PRCP99
0189421110999992000020709004+30320+078030FM-12+068299999V0209999C000012200019N0040001N1+02001+00781101211ADDAA199000091GA1041+012009029GF104991041021012501001001MA1999999093561MD1999999-0111REMSYN076AAXX  07094 42111 32696 40000 10200 20078 39356 40121 84200 333 59011 84840;EQDQ01  00002PRCP99
0136421110999992000020715004+30320+078030FM-12+068299999V0209999C000019999999N0040001N1+01241+01021101421ADDAA100000591GF106991051031999999061001MA1999999093581REMSYN072AAXX  07154 42111 22996 60000 10124 20102 39358 40142 59007 6994/ 85360;
0164421110999992000020718004+30320+078030FM-12+068299999V0202301N000512200019N0040001N1+01001+00851101481ADDAA100000591GA1001+999999999GF100991001001999999001001MA1999999093581MD1999999-0121REMSYN070AAXX  07184 42111 22996 02301 1010/ 20085 39358 40148 333 59012 6994/;
0146421110999992000020800004+30320+078030FM-12+068299999V0200501N000512200019N0040001N1+00781+00701101341ADDAA100000591GA1001+999999999GF100991001001999999001001MA1999999093371REMSYN066AAXX  08004 42111 22996 00501 10078 20070 39337 40134 59015 6994/;
0219421110999992000020803004+30320+078030FM-12+068299999V0203201N000512200019N0040001N1+00781+99999101441ADDAA100000592AA224000492GA1011+012009029GF101991011011012501001001KA1120M+02041KA2120N+00681MA1999999093511MD1999999-0161REMSYN088AAXX  08034 42111 22696 13201 10078 39351 40144 81100 333 10204 20068 59016 6994/ 81840;
0189421110999992000020806004+30320+078030FM-12+068299999V0203201N000512200019N0040001N1+01741+00811101321ADDAA199000091GA1011+012009029GF101991011011012501001001MA1999999093611MD1999999-0191REMSYN076AAXX  08064 42111 32696 13201 10174 20081 39361 40132 81100 333 59019 81840;EQDQ01  00002PRCP99
0189421110999992000020809004+30320+078030FM-12+068299999V0202301N000510120019N0040001N1+01881+00901101071ADDAA199000091GA1051+012009029GF105991051021012501001001MA1999999093411MD1999999-0151REMSYN076AAXX  08094 42111 32696 52301 10188 20090 39341 40107 85200 333 59015 85840;EQDQ01  00002PRCP99
0221421110999992000020815004+30320+078030FM-12+068299999V0209999C000012200019N0010001N1+01201+00981101451ADDAA100002091AA212002091AY121031AY221031GA1021+010509069GF104991021051012501031001MA1999999093581MD1999999+0001MW1101REMSYN094AAXX  08154 42111 21694 40000 10120 20098 39358 40145 71022 82530 333 58000 6002/ 82635 83360;
0164421110999992000020818004+30320+078030FM-12+068299999V0200501N001512200019N0040001N1+01001+00811101581ADDAA100002091GA1001+999999999GF100991001001999999001001MA1999999093651MD1999999+0071REMSYN070AAXX  08184 42111 22996 00503 10100 20081 39365 40158 333 58007 6002/;
0164421110999992000020821004+30320+078030FM-12+068299999V0200501N001012200019N0040001N1+00881+00681101561ADDAA100002091GA1001+999999999GF100991001001999999001001MA1999999093601MD1999999+0161REMSYN070AAXX  08214 42111 22996 00502 10088 20068 39360 40156 333 58016 6002/;
0164421110999992000020900004+30320+078030FM-12+068299999V0200501N001012200019N0040001N1+00801+00591101481ADDAA100002091GA1001+999999999GF100991001001999999001001MA1999999093501MD1999999+0131REMSYN070AAXX  09004 42111 22996 00502 10080 20059 39350 40148 333 58013 6002/;
0166421110999992000020903004+30320+078030FM-12+068299999V0209999C000012200019N0040001N1+00901+00661101491ADDGA1001+999999999GF100991001001999999001001KA1120M+01991MA1999999093531MD1999999+0021REMSYN070AAXX  09034 42111 22996 00000 10090 20066 39353 40149 333 10199 58002;
0189421110999992000020909004+30320+078030FM-12+068299999V0202701N000512200019N0040001N1+02001+00531101041ADDAA199000091GA1021+012009029GF102991021011012501001001MA1999999093431MD1999999+0021REMSYN076AAXX  09094 42111 32696 22701 10200 20053 39343 40104 82100 333 58002 82840;EQDQ01  00002PRCP99
0214421110999992000020912004+30320+078030FM-12+068299999V0203201N001012200019N0040001N1+01761+00831101051ADDAA199000091GA1011+012009089GF103991011011012501031001KA1120M+02051MA1999999093361MD1999999-0021REMSYN088AAXX  09124 42111 32696 33202 10176 20083 39336 40105 81130 333 10205 59002 81840 83360;EQDQ01  00002PRCP99
0177421110999992000021000004+30320+078030FM-12+068299999V0200501N000512200019N0040001N1+01001+00891101161ADDAA199000091GA1001+999999999GF100991001001999999001001MA1999999093261MD1999999-0241REMSYN064AAXX  10004 42111 32996 00501 10100 20089 39326 40116 333 59024;EQDQ01  00002PRCP99
0233421110999992000021003004+30320+078030FM-12+068299999V0200501N00051036001CN0040001N1+01141+00951101391ADDAA199000091GA1031+010509069GF107991041081012501071001KA1120M+02051KA2120N+00951MA1999999093521MD1999999-0011REMSYN094AAXX  10034 42111 32696 70501 10114 20095 39352 40139 84870 333 10205 20095 59001 83635 86360;EQDQ01  00002PRCP99
0195421110999992000021006004+30320+078030FM-12+068299999V0200501N00051036001CN0040001N1+01521+00971101361ADDAA199000091GA1041+010509069GF107991041051012501071001MA1999999093601MD1999999-0081REMSYN082AAXX  10064 42111 32696 70501 10152 20097 39360 40136 84570 333 59008 84635 86460;EQDQ01  00002PRCP99
0195421110999992000021009004+30320+078030FM-12+068299999V0201401N00051015001CN0040001N1+01701+00981101111ADDAA199000091GA1041+010509069GF107991051081012501071001MA1999999093391MD1999999-0041REMSYN082AAXX  10094 42111 32696 71401 10170 20098 39339 40111 85870 333 59004 84635 86458;EQDQ01  00002PRCP99
0240421110999992000021012004+30320+078030FM-12+068299999V0209999C00001012001CN0020001N1+01601+01181101001ADDAA100000791AA209999929AY121061AY221061GA1041+009009069GF108991051081008001071999KA1120M+01701MA1999999093281MD1999999-0081MW1601REMSYN100AAXX  10124 42111 21595 80000 10160 20118 39328 40100 76022 8587/ 333 10170 59008 6990/ 84630 87460;
0259421110999992000021103004+30320+078030FM-12+068299999V0202701N000510090019N0020001N1+00841+00801101311ADDAA100027991AA224028091AY161031AY261031GA1051+009009069GF108991051051008001021999KA1120M+01701KA2120N+00771MA1999999093371MD1999999-0151MW1601REMSYN106AAXX  11034 42111 21595 82701 10084 20080 39337 40131 76066 8552/ 333 10170 20077 59015 6028/ 85630 88960;
0245421110999992000021209004+30320+078030FM-12+068299999V0201401N001010114019N0020001N1+01641+00821101421ADDAA199000091AY191031AY221031GA1041+009009069GA2021+011409099GF107991061091012501021001MA1999999093691MD1999999+0361MW1171REMSYN094AAXX  12094 42111 31695 71402 10164 20082 39369 40142 71792 86920 333 58036 84630 82938 86460;EQDQ01  00002PRCP99
0262421110999992000021212004+30320+078030FM-12+068299999V0200501N001010105019N0020001N1+01101+00991101631ADDAA100002091AA209002091AY191061AY261061GA1041+008409069GA2021+010509099GF108991061091008001021999KA1120M+01711MA1999999093711MD1999999+0431MW1951REMSYN106AAXX  12124 42111 21595 80502 10110 20099 39371 40163 79596 8692/ 333 10171 58043 6002/ 84628 82935 87458;
0221421110999992000021218004+30320+078030FM-12+068299999V0201401N000512200019N0040001N1+00801+00721101891ADDAA100003091AA215003091AY191061AY261061GA1021+010509069GF103991021051012501031001MA1999999093881MD1999999+0321MW1021REMSYN094AAXX  12184 42111 21696 31401 10080 20072 39388 40189 70296 82530 333 58032 6003/ 82635 83360;
0164421110999992000021221004+30320+078030FM-12+068299999V0200501N001012200019N0040001N1+00601+00511101811ADDAA100003091GA1001+999999999GF100991001001999999001001MA1999999093741MD1999999+0181REMSYN070AAXX  12214 42111 22996 00502 10060 20051 39374 40181 333 58018 6003/;
0164421110999992000021300004+30320+078030FM-12+068299999V0200501N000512200019N0040001N1+00461+00371101701ADDAA100003091GA1001+999999999GF100991001001999999001001MA1999999093621MD1999999+0141REMSYN070AAXX  13004 42111 22996 00501 10046 20037 39362 40170 333 58014 6003/;
0225421110999992000021303004+30320+078030FM-12+068299999V0202701N000512200019N0040001N1+00661+00531101711ADDAA100003091AA224003091GA1011+012009029GF102991011011012501031001KA1120M+01711KA2120N+00391MA1999999093691MD1999999-0131REMSYN094AAXX  13034 42111 22696 22701 10066 20053 39369 40171 81130 333 10171 20039 59013 6003/ 81840;
0173421110999992000021306004+30320+078030FM-12+068299999V0202701N000512200019N0040001N1+01561+00671101541ADDAA199000091GF102991011011012501001011MA1999999093771MD1999999-0051REMSYN076AAXX  13064 42111 32696 22701 10156 20067 39377 40154 81101 333 59005 8140/;EQDQ01  00002PRCP99
0217421110999992000021309004+30320+078030FM-12+068299999V0201401N00051012001CN0040001N1+01761+00881101331ADDAA199000091GA1021+010509069GA2031+012009089GF107991041081012501071001MA1999999093621MD1999999-0071REMSYN088AAXX  13094 42111 32696 71401 10176 20088 39362 40133 84870 333 59007 82635 83840 85360;EQDQ01  00002PRCP99
0240421110999992000021312004+30320+078030FM-12+068299999V0202701N00051036001CN0040001N1+01561+00891101321ADDAA100000592AA209000492AY161061AY221061GA1031+009009069GF106991041081008001071001KA1120M+01821MA1999999093591MD1999999-0121MW1211REMSYN100AAXX  13124 42111 21596 62701 10156 20089 39359 40132 72162 84870 333 10182 59012 6994/ 83630 85460;
0187421110999992000021318004+30320+078030FM-12+068299999V0200501N000512200019N0040001N1+00861+00741101771ADDAA100000592AA215000492GA1031+030009079GF103991031001999999031001MA1999999093981MD1999999-0091REMSYN082AAXX  13184 42111 22996 30501 10086 20074 39398 40177 83030 333 59009 6994/ 83360;
0164421110999992000021321004+30320+078030FM-12+068299999V0203201N000512200019N0040001N1+00741+00621101811ADDAA100000591GA1001+999999999GF100991001001999999001001MA1999999093801MD1999999+0061REMSYN070AAXX  13214 42111 22996 03201 10074 20062 39380 40181 333 58006 6994/;
0164421110999992000021400004+30320+078030FM-12+068299999V0209999C000012200019N0040001N1+00641+00561101761ADDAA100000591GA1001+999999999GF100991001001999999001001MA1999999093721MD1999999+0101REMSYN070AAXX  14004 42111 22996 00000 10064 20056 39372 40176 333 58010 6994/;
0202421110999992000021403004+30320+078030FM-12+068299999V0209999C000012200019N0040001N1+00821+00701101801ADDAA100000591GA1001+999999999GF100991001001999999001001KA1120M+01821KA2120N+00591MA1999999093821MD1999999+0131REMSYN082AAXX  14034 42111 22996 00000 10082 20070 39382 40180 333 10182 20059 58013 6994/;
0189421110999992000021409004+30320+078030FM-12+068299999V0203201N001512200019N0040001N1+01901+00591101491ADDAA199000091GA1021+012009029GF102991021021012501001001MA1999999093801MD1999999+0181REMSYN076AAXX  14094 42111 32696 23203 10190 20059 39380 40149 82200 333 58018 82840;EQDQ01  00002PRCP99
0196421110999992000021412004+30320+078030FM-12+068299999V0203201N001012200019N0040001N1+01781+00861101471ADDAA199000091GA1001+999999999GF100991001001999999001001KA1120M+01981MA1999999093751MD1999999+0161REMSYN070AAXX  14124 42111 32996 03202 10178 20086 39375 40147 333 10198 58016;EQDQ01  00002PRCP99
0177421110999992000021415004+30320+078030FM-12+068299999V0200501N001012200019N0040001N1+01161+00851101711ADDAA199000091GA1001+999999999GF100991001001999999001001MA1999999093821MD1999999+0051REMSYN064AAXX  14154 42111 32996 00502 10116 20085 39382 40171 333 58005;EQDQ01  00002PRCP99
0189421110999992000021418004+30320+078030FM-12+068299999V0200501N000512200019N0040001N1+01001+00811101801ADDAA199000091GA1011+075009019GF101991001001999999001011MA1999999093851MD1999999+0061REMSYN076AAXX  14184 42111 32996 10501 10100 20081 39385 40180 80001 333 58006 81075;EQDQ01  00002PRCP99
0177421110999992000021421004+30320+078030FM-12+068299999V0200501N001012200019N0040001N1+00941+00781101781ADDAA199000091GA1001+999999999GF100991001001999999001001MA1999999093831MD1999999+0031REMSYN064AAXX  14214 42111 32996 00502 10094 20078 39383 40178 333 58003;EQDQ01  00002PRCP99
0177421110999992000021500004+30320+078030FM-12+068299999V0203201N001012200019N0040001N1+00961+00551101511ADDAA199000091GA1001+999999999GF100991001001999999001001MA1999999093581MD1999999-0031REMSYN064AAXX  15004 42111 32996 03202 10096 20055 39358 40151 333 59003;EQDQ01  00002PRCP99
0195421110999992000021506004+30320+078030FM-12+068299999V0203201N00101036001CN0040001N1+01781+00571101801ADDAA199000091GA1031+010509069GF107991031051012501071001MA1999999093881MD1999999-0031REMSYN082AAXX  15064 42111 32696 73202 10178 20057 39388 40180 83570 333 59003 83635 85360;EQDQ01  00002PRCP99
0195421110999992000021509004+30320+078030FM-12+068299999V0202301N00051036001CN0040001N1+01821+00771101321ADDAA199000091GA1021+010509069GF107991021051012501071001MA1999999093641MD1999999-0161REMSYN082AAXX  15094 42111 32696 72301 10182 20077 39364 40132 82570 333 59016 82635 85360;EQDQ01  00002PRCP99
0214421110999992000021512004+30320+078030FM-12+068299999V0201401N00051036001CN0040001N1+01701+01061101271ADDAA199000091GA1031+010509069GF106991041081012501071001KA1120M+01911MA1999999093541MD1999999-0211REMSYN088AAXX  15124 42111 32696 61401 10170 20106 39354 40127 84870 333 10191 59021 83635 85360;EQDQ01  00002PRCP99
0195421110999992000021515004+30320+078030FM-12+068299999V0209999C00001036001CN0040001N1+01201+00901101481ADDAA199000091GA1011+010509069GF105991011051012501031001MA1999999093611MD1999999+0001REMSYN082AAXX  15154 42111 32696 50000 10120 20090 39361 40148 81530 333 58000 81635 85360;EQDQ01  00002PRCP99
0189421110999992000021521004+30320+078030FM-12+068299999V0200501N000512200019N0040001N1+00841+00591101501ADDAA199000091GA1011+030009079GF102991011001999999031001MA1999999093541MD1999999-0291REMSYN076AAXX  15214 42111 32996 20501 10084 20059 39354 40150 81030 333 59029 81360;EQDQ01  00002PRCP99
0189421110999992000021600004+30320+078030FM-12+068299999V0200501N000512200019N0040001N1+00801+00411101461ADDAA199000091GA1011+030009079GF101991011001999999031001MA1999999093491MD1999999-0091REMSYN076AAXX  16004 42111 32996 10501 10080 20041 39349 40146 81030 333 59009 81360;EQDQ01  00002PRCP99
0233421110999992000021603004+30320+078030FM-12+068299999V0203201N00051036001CN0040001N1+01081+00641101501ADDAA199000091GA1011+010509069GF106991011051012501071001KA1120M+01911KA2120N+00761MA1999999093601MD1999999-0091REMSYN094AAXX  16034 42111 32696 63201 10108 20064 39360 40150 81570 333 10191 20076 59009 81635 84360;EQDQ01  00002PRCP99
0177421110999992000021606004+30320+078030FM-12+068299999V0202301N001012200019N0040001N1+01901+00831101381ADDAA199000091GA1001+999999999GF100991001001999999001001MA1999999093701MD1999999-0181REMSYN064AAXX  16064 42111 32996 02302 10190 20083 39370 40138 333 59018;EQDQ01  00002PRCP99
0236421110999992000021612004+30320+078030FM-12+068299999V0202301N001012200019N0020001N1+01741+00671101061ADDAA199000091AY121061AY221061GA1021+012009029GF102991021011012501001001KA1120M+02011MA1999999093371MD1999999-0171MW1051REMSYN088AAXX  16124 42111 31695 22302 10174 20067 39337 40106 70522 82100 333 10201 59017 82840;EQDQ01  00002PRCP99
0217421110999992000021615004+30320+078030FM-12+068299999V0209999C000012200019N0020001N1+01161+00811101341ADDAA199000091AY121031AY221031GA1011+075009019GF103991001001999999001011MA1999999093481MD1999999-0131MW1051REMSYN082AAXX  16154 42111 31995 30000 10116 20081 39348 40134 70522 80001 333 59013 81075;EQDQ01  00002PRCP99
0195421110999992000021618004+30320+078030FM-12+068299999V0200501N00051036001CN0040001N1+01001+00681101441ADDAA199000091GA1021+010509069GF105991021051012501031001MA1999999093511MD1999999-0091REMSYN082AAXX  16184 42111 32696 50501 10100 20068 39351 40144 82530 333 59009 82635 85360;EQDQ01  00002PRCP99
0189421110999992000021621004+30320+078030FM-12+068299999V0200501N001012200019N0040001N1+00901+00611101311ADDAA199000091GA1021+030009079GF102991021001999999031001MA1999999093371MD1999999-0171REMSYN076AAXX  16214 42111 32996 20502 10090 20061 39337 40131 82030 333 59017 82360;EQDQ01  00002PRCP99
0177421110999992000021700004+30320+078030FM-12+068299999V0200501N000512200019N0040001N1+00761+00411101241ADDAA199000091GA1001+999999999GF100991001001999999001001MA1999999093291MD1999999-0201REMSYN064AAXX  17004 42111 32996 00501 10076 20041 39329 40124 333 59020;EQDQ01  00002PRCP99
0181421110999992000021706004+30320+078030FM-12+068299999V0201801N001012200019N0040001N1+01741+00461101171ADDAA199000091AY101061AY201061GF102991021011012501001001MA1999999093481MW1051REMSYN076AAXX  17064 42111 31696 21802 10174 20046 39348 40117 70500 82100 333 590//;EQDQ01  00002PRCP99
0217421110999992000021709004+30320+078030FM-12+068299999V0201401N00051012001CN0040001N1+02001+00361100861ADDAA199000091GA1021+010509069GA2031+012009089GF105991041081012501071001MA1999999093241MD1999999-0241REMSYN088AAXX  17094 42111 32696 51401 10200 20036 39324 40086 84870 333 59024 82635 83840 85360;EQDQ01  00002PRCP99
0262421110999992000021712004+30320+078030FM-12+068299999V0200501N00101036001CN0020001N1+01501+00491100941ADDAA100000791AA209999929AY161061AY221061GA1031+009009069GA2011+012009069GF106991041091008001071001KA1120M+02011MA1999999093191MD1999999-0181MW1951REMSYN106AAXX  17124 42111 21595 60502 10150 20049 39319 40094 79562 84970 333 10201 59018 6990/ 83630 81640 85460;
0215421110999992000021715004+30320+078030FM-12+068299999V0200501N001012200019N0100001N1+01161+00401101221ADDAA100001091AA212001091AY191031AY261031GA1011+075009019GF101991001001999999001011MA1999999093361MD1999999-0121MW1011REMSYN088AAXX  17154 42111 21997 10502 10116 20040 39336 40122 70196 80001 333 59012 6001/ 81075;
0192421110999992000021718004+30320+078030FM-12+068299999V0200501N001012200019N0040001N1+00881+00451101321ADDAA100001091AY191061AY261061GA1001+999999999GF100991001001999999001001MA1999999093381MD1999999-0131MW1011REMSYN076AAXX  17184 42111 21996 00502 10088 20045 39338 40132 70196 333 59013 6001/;
0164421110999992000021800004+30320+078030FM-12+068299999V0200501N000512200019N0040001N1+00461+00371101351ADDAA100001091GA1001+999999999GF100991001001999999001001MA1999999093301MD1999999+0011REMSYN070AAXX  18004 42111 22996 00501 10046 20037 39330 40135 333 58001 6001/;
0189421110999992000021806004+30320+078030FM-12+068299999V0202301N001012200019N0040001N1+01681+00321101381ADDAA199000091GA1011+012009029GF101991011011012501001001MA1999999093651MD1999999+0171REMSYN076AAXX  18064 42111 32696 12302 10168 20032 39365 40138 81100 333 58017 81840;EQDQ01  00002PRCP99
0189421110999992000021809004+30320+078030FM-12+068299999V0203201N001512200019N0040001N1+01941-00301101121ADDAA199000091GA1021+012009029GF102991021021012501001001MA1999999093491MD1999999+0251REMSYN076AAXX  18094 42111 32696 23203 10194 21030 39349 40112 82200 333 58025 82840;EQDQ01  00002PRCP99
0177421110999992000021815004+30320+078030FM-12+068299999V0200501N001012200019N0040001N1+01001+00451101421ADDAA199000091GA1001+999999999GF100991001001999999001001MA1999999093501MD1999999+0141REMSYN064AAXX  18154 42111 32996 00502 10100 20045 39350 40142 333 58014;EQDQ01  00002PRCP99
0177421110999992000021818004+30320+078030FM-12+068299999V0200501N001012200019N0040001N1+00861+00331101501ADDAA199000091GA1001+999999999GF100991001001999999001001MA1999999093541MD1999999+0161REMSYN064AAXX  18184 42111 32996 00502 10086 20033 39354 40150 333 58016;EQDQ01  00002PRCP99
0177421110999992000021900004+30320+078030FM-12+068299999V0200501N000512200019N0040001N1+00621+00211101391ADDAA199000091GA1001+999999999GF100991001001999999001001MA1999999093391MD1999999+0091REMSYN064AAXX  19004 42111 32996 00501 10062 20021 39339 40139 333 58009;EQDQ01  00002PRCP99
0189421110999992000021906004+30320+078030FM-12+068299999V0203201N001012200019N0040001N1+01741+00181101381ADDAA199000091GA1021+012009029GF102991021011012501001001MA1999999093671MD1999999+0021REMSYN076AAXX  19064 42111 32696 23202 10174 20018 39367 40138 82100 333 58002 82840;EQDQ01  00002PRCP99
0183421110999992000021909004+30320+078030FM-12+068299999V0202301N001012200019N0040001N1+02041+00371102062ADDAA199000091GF102991021021012501001001MA1999999093451MD1999999-0041REMSYN070AAXX  19094 42111 32696 22302 10204 20037 39345 40206 82200 333 59004;EQDQ01+102063APOSLPQ02  00002PRCP99
0177421110999992000021915004+30320+078030FM-12+068299999V0200501N000512200019N0040001N1+01021+00571101491ADDAA199000091GA1001+999999999GF100991001001999999001001MA1999999093601MD1999999+0191REMSYN064AAXX  19154 42111 32996 00501 10102 20057 39360 40149 333 58019;EQDQ01  00002PRCP99
0177421110999992000021918004+30320+078030FM-12+068299999V0200501N000512200019N0040001N1+00861+00381101551ADDAA199000091GA1001+999999999GF100991001001999999001001MA1999999093591MD1999999+0051REMSYN064AAXX  19184 42111 32996 00501 10086 20038 39359 40155 333 58005;EQDQ01  00002PRCP99
0189421110999992000022000004+30320+078030FM-12+068299999V0209999C000012200019N0040001N1+00501+00271101461ADDAA199000091GA1011+075009019GF102991001001999999001011MA1999999093361MD1999999-0031REMSYN076AAXX  20004 42111 32996 20000 10050 20027 39336 40146 80001 333 59003 81075;EQDQ01  00002PRCP99
0189421110999992000022006004+30320+078030FM-12+068299999V0202701N000519999999N0040001N1+01661+00111101351ADDAA199000091GA1041+030009079GF106991061001999999071001MA1999999093621MD1999999-0051REMSYN076AAXX  20064 42111 32996 62701 10166 20011 39362 40135 86070 333 59005 84360;EQDQ01  00002PRCP99
0214421110999992000022012004+30320+078030FM-12+068299999V0202701N00051036001CN0040001N1+01761+00151101011ADDAA199000091GA1021+010509069GF107991021051012501071011KA1120M+01961MA1999999093321MD1999999-0101REMSYN088AAXX  20124 42111 32696 72701 10176 20015 39332 40101 82571 333 10196 59010 82635 86360;EQDQ01  00002PRCP99
0221421110999992000022015004+30320+078030FM-12+068299999V0200901N001010090019N0040001N1+01361+00511101491ADDAA100000791AA212999929AY121031AY221031GA1051+009009069GF108991051051008001021999MA1999999093671MD1999999+0071MW1501REMSYN094AAXX  20154 42111 21596 80902 10136 20051 39367 40149 75022 8552/ 333 58007 6990/ 85630 88458;
0221421110999992000022018004+30320+078030FM-12+068299999V0200501N001010090019N0040001N1+01201+00351101591ADDAA100000791AA215999929AY151061AY221061GA1051+009009069GF107991051051008001021001MA1999999093721MD1999999+0131MW1021REMSYN094AAXX  20184 42111 21596 70502 10120 20035 39372 40159 70252 85520 333 58013 6990/ 85630 87458;
0187421110999992000022100004+30320+078030FM-12+068299999V0209999C000012200019N0040001N1+00721+00421101511ADDAA100000791AA221999929GA1021+030009079GF102991021001999999031001MA1999999093521MD1999999+0161REMSYN082AAXX  21004 42111 22996 20000 10072 20042 39352 40151 82030 333 58016 6990/ 82360;
0189421110999992000022103004+30320+078030FM-12+068299999V0200501N000512200019N0020001N1+00901+00331101711ADDAA100000791GA1001+999999999GF100991001001999999001001KA1120M+01961MA1999999093731MD1999999+0231REMSYN082AAXX  21034 42111 22995 00501 10090 20033 39373 40171 333 0049/ 10196 58023 6990/;
0189421110999992000022109004+30320+078030FM-12+068299999V0203201N001012200019N0040001N1+02081-00161101331ADDAA199000091GA1021+012009029GF102991021011012501001001MA1999999093701MD1999999+0301REMSYN076AAXX  21094 42111 32696 23202 10208 21016 39370 40133 82100 333 58030 82840;EQDQ01  00002PRCP99
0208421110999992000022112004+30320+078030FM-12+068299999V0203201N001012200019N0040001N1+01961+00241101261ADDAA199000091GA1011+012009029GF101991011011012501001001KA1120M+02181MA1999999093611MD1999999+0291REMSYN082AAXX  21124 42111 32696 13202 10196 20024 39361 40126 81100 333 10218 58029 81840;EQDQ01  00002PRCP99
0177421110999992000022115004+30320+078030FM-12+068299999V0200501N000512200019N0040001N1+01341+00221101611ADDAA199000091GA1001+999999999GF100991001001999999001001MA1999999093781MD1999999+0111REMSYN064AAXX  21154 42111 32996 00501 10134 20022 39378 40161 333 58011;EQDQ01  00002PRCP99
0177421110999992000022121004+30320+078030FM-12+068299999V0200501N000512200019N0040001N1+00841+00311101731ADDAA199000091GA1001+999999999GF100991001001999999001001MA1999999093751MD1999999+0151REMSYN064AAXX  21214 42111 32996 00501 10084 20031 39375 40173 333 58015;EQDQ01  00002PRCP99
0215421110999992000022203004+30320+078030FM-12+068299999V0209999C000012200019N0040001N1+00941+00281101821ADDAA199000091GA1001+999999999GF100991001001999999001001KA1120M+02121KA2120N+00561MA1999999093871MD1999999+0141REMSYN076AAXX  22034 42111 32996 00000 10094 20028 39387 40182 333 10212 20056 58014;EQDQ01  00002PRCP99
0177421110999992000022206004+30320+078030FM-12+068299999V0202701N000512200019N0040001N1+01941+00201101741ADDAA199000091GA1001+999999999GF100991001001999999001001MA1999999094061MD1999999+0201REMSYN064AAXX  22064 42111 32996 02701 10194 20020 39406 40174 333 58020;EQDQ01  00002PRCP99
0189421110999992000022209004+30320+078030FM-12+068299999V0203201N001012200019N0040001N1+02101-00051101521ADDAA199000091GA1011+012009029GF101991011011012501001001MA1999999093881MD1999999+0181REMSYN076AAXX  22094 42111 32696 13202 10210 21005 39388 40152 81100 333 58018 81840;EQDQ01  00002PRCP99
0196421110999992000022212004+30320+078030FM-12+068299999V0202301N001012200019N0040001N1+01881+00281101361ADDAA199000091GA1001+999999999GF100991001001999999001001KA1120M+02161MA1999999093681MD1999999+0071REMSYN070AAXX  22124 42111 32996 02302 10188 20028 39368 40136 333 10216 58007;EQDQ01  00002PRCP99
0177421110999992000022218004+30320+078030FM-12+068299999V0200501N001012200019N0040001N1+00981+00381101741ADDAA199000091GA1001+999999999GF100991001001999999001001MA1999999093791MD1999999-0041REMSYN064AAXX  22184 42111 32996 00502 10098 20038 39379 40174 333 59004;EQDQ01  00002PRCP99
0177421110999992000022221004+30320+078030FM-12+068299999V0200501N001012200019N0040001N1+00841+00361101621ADDAA199000091GA1001+999999999GF100991001001999999001001MA1999999093661MD1999999-0091REMSYN064AAXX  22214 42111 32996 00502 10084 20036 39366 40162 333 59009;EQDQ01  00002PRCP99
0177421110999992000022300004+30320+078030FM-12+068299999V0200501N001012200019N0040001N1+00581+00311101641ADDAA199000091GA1001+999999999GF100991001001999999001001MA1999999093591MD1999999-0131REMSYN064AAXX  23004 42111 32996 00502 10058 20031 39359 40164 333 59013;EQDQ01  00002PRCP99
0215421110999992000022303004+30320+078030FM-12+068299999V0202701N000512200019N0040001N1+00941+00481101771ADDAA199000091GA1001+999999999GF100991001001999999001001KA1120M+02161KA2120N+00511MA1999999093821MD1999999+0091REMSYN076AAXX  23034 42111 32996 02701 10094 20048 39382 40177 333 10216 20051 58009;EQDQ01  00002PRCP99
0189421110999992000022306004+30320+078030FM-12+068299999V0202301N000512200019N0040001N1+01961+00361101581ADDAA199000091GA1011+012009029GF101991011011012501001001MA1999999093901MD1999999-0161REMSYN076AAXX  23064 42111 32696 12301 10196 20036 39390 40158 81100 333 59016 81840;EQDQ01  00002PRCP99
0189421110999992000022309004+30320+078030FM-12+068299999V0203201N000512200019N0040001N1+02201+00071101341ADDAA199000091GA1011+012009029GF101991011011012501001001MA1999999093731MD1999999-0151REMSYN076AAXX  23094 42111 32696 13201 10220 20007 39373 40134 81100 333 59015 81840;EQDQ01  00002PRCP99
0196421110999992000022312004+30320+078030FM-12+068299999V0203201N001512200019N0040001N1+01921+00521101271ADDAA199000091GA1001+999999999GF100991001001999999001001KA1120M+02231MA1999999093621MD1999999-0061REMSYN070AAXX  23124 42111 32996 03203 10192 20052 39362 40127 333 10223 59006;EQDQ01  00002PRCP99
0177421110999992000022318004+30320+078030FM-12+068299999V0200501N000512200019N0040001N1+01001+00591101701ADDAA199000091GA1001+999999999GF100991001001999999001001MA1999999093751MD1999999-0041REMSYN064AAXX  23184 42111 32996 00501 10100 20059 39375 40170 333 59004;EQDQ01  00002PRCP99
0177421110999992000022400004+30320+078030FM-12+068299999V0209999C000012200019N0040001N1+00721+00321101581ADDAA199000091GA1001+999999999GF100991001001999999001001MA1999999093591MD1999999+0001REMSYN064AAXX  24004 42111 32996 00000 10072 20032 39359 40158 333 58000;EQDQ01  00002PRCP99
0215421110999992000022403004+30320+078030FM-12+068299999V0209999C000012200019N0040001N1+00861+00481101651ADDAA199000091GA1001+999999999GF100991001001999999001001KA1120M+02231KA2120N+00571MA1999999093691MD1999999-0131REMSYN076AAXX  24034 42111 32996 00000 10086 20048 39369 40165 333 10223 20057 59013;EQDQ01  00002PRCP99
0177421110999992000022406004+30320+078030FM-12+068299999V0201801N000512200019N0040001N1+01881+00761101491ADDAA199000091GA1001+999999999GF100991001001999999001001MA1999999093801MD1999999-0101REMSYN064AAXX  24064 42111 32996 01801 10188 20076 39380 40149 333 59010;EQDQ01  00002PRCP99
0177421110999992000022418004+30320+078030FM-12+068299999V0200501N000512200019N0040001N1+00941+00661101541ADDAA199000091GA1001+999999999GF100991001001999999001001MA1999999093581MD1999999-0171REMSYN064AAXX  24184 42111 32996 00501 10094 20066 39358 40154 333 59017;EQDQ01  00002PRCP99
0177421110999992000022500004+30320+078030FM-12+068299999V0203201N001012200019N0040001N1+00721+00511101301ADDAA199000091GA1001+999999999GF100991001001999999001001MA1999999093331MD1999999-0261REMSYN064AAXX  25004 42111 32996 03202 10072 20051 39333 40130 333 59026;EQDQ01  00002PRCP99
0217421110999992000022506004+30320+078030FM-12+068299999V0202301N001012200019N0040001N1+01741+00571101331ADDAA199000091AY101061AY201061GA1011+012009029GF101991011011012501001001MA1999999093621MD1999999-0181MW1051REMSYN082AAXX  25064 42111 31696 12302 10174 20057 39362 40133 70500 81100 333 59018 81840;EQDQ01  00002PRCP99
0189421110999992000022509004+30320+078030FM-12+068299999V0202301N000512200019N0040001N1+02001+00531100951ADDAA199000091GA1021+012009029GF103991011011012501031001MA1999999093321MD1999999-0311REMSYN076AAXX  25094 42111 32696 32301 10200 20053 39332 40095 81130 333 59031 82840;EQDQ01  00002PRCP99
0208421110999992000022512004+30320+078030FM-12+068299999V0202301N001512200019N0040001N1+01761+00381100931ADDAA199000091GA1011+012009029GF101991011011012501001001KA1120M+02071MA1999999093261MD1999999-0221REMSYN082AAXX  25124 42111 32696 12303 10176 20038 39326 40093 81100 333 10207 59022 81840;EQDQ01  00002PRCP99
0177421110999992000022515004+30320+078030FM-12+068299999V0203201N000512200019N0040001N1+01121+00591101231ADDAA199000091GA1001+999999999GF100991001001999999001001MA1999999093371MD1999999-0201REMSYN064AAXX  25154 42111 32996 03201 10112 20059 39337 40123 333 59020;EQDQ01  00002PRCP99
0177421110999992000022518004+30320+078030FM-12+068299999V0200501N000512200019N0040001N1+00921+00591101271ADDAA199000091GA1001+999999999GF100991001001999999001001MA1999999093361MD1999999-0221REMSYN064AAXX  25184 42111 32996 00501 10092 20059 39336 40127 333 59022;EQDQ01  00002PRCP99
0177421110999992000022600004+30320+078030FM-12+068299999V0200501N000512200019N0040001N1+00741+00441101111ADDAA199000091GA1001+999999999GF100991001001999999001001MA1999999093161MD1999999-0171REMSYN064AAXX  26004 42111 32996 00501 10074 20044 39316 40111 333 59017;EQDQ01  00002PRCP99
0215421110999992000022603004+30320+078030FM-12+068299999V0200501N000512200019N0040001N1+01021+00521101241ADDAA199000091GA1001+999999999GF100991001001999999001001KA1120M+02071KA2120N+00641MA1999999093351MD1999999-0161REMSYN076AAXX  26034 42111 32996 00501 10102 20052 39335 40124 333 10207 20064 59016;EQDQ01  00002PRCP99
0208421110999992000022612004+30320+078030FM-12+068299999V0203201N001012200019N0040001N1+01821+00361100901ADDAA199000091GA1011+012009029GF101991011011012501001001KA1120M+02051MA1999999093251MD1999999-0011REMSYN082AAXX  26124 42111 32696 13202 10182 20036 39325 40090 81100 333 10205 59001 81840;EQDQ01  00002PRCP99
0193421110999992000022615004+30320+078030FM-12+068299999V0200501N001012200019N0040001N1+01181+00711101522ADDAA199000091GA1001+999999999GF100991001001999999001001MA1999999093461MD1999999+0091REMSYN064AAXX  26154 42111 32996 00502 10118 20071 39346 40152 333 58009;EQDQ01+101523APOSLPQ02  00002PRCP99
0177421110999992000022618004+30320+078030FM-12+068299999V0200501N001012200019N0040001N1+01101+00611101361ADDAA199000091GA1001+999999999GF100991001001999999001001MA1999999093471MD1999999+0111REMSYN064AAXX  26184 42111 32996 00502 10110 20061 39347 40136 333 58011;EQDQ01  00002PRCP99
0177421110999992000022621004+30320+078030FM-12+068299999V0200501N001012200019N0040001N1+00981+00521101281ADDAA199000091GA1001+999999999GF100991001001999999001001MA1999999093371MD1999999+0131REMSYN064AAXX  26214 42111 32996 00502 10098 20052 39337 40128 333 58013;EQDQ01  00002PRCP99
0177421110999992000022700004+30320+078030FM-12+068299999V0200501N001012200019N0040001N1+00921+00451101171ADDAA199000091GA1001+999999999GF100991001001999999001001MA1999999093271MD1999999+0111REMSYN064AAXX  27004 42111 32996 00502 10092 20045 39327 40117 333 58011;EQDQ01  00002PRCP99
0215421110999992000022703004+30320+078030FM-12+068299999V0200501N001012200019N0040001N1+01201+00501101351ADDAA199000091GA1001+999999999GF100991001001999999001001KA1120M+02051KA2120N+00811MA1999999093491MD1999999+0141REMSYN076AAXX  27034 42111 32996 00502 10120 20050 39349 40135 333 10205 20081 58014;EQDQ01  00002PRCP99
0177421110999992000022706004+30320+078030FM-12+068299999V0202701N000512200019N0040001N1+01901+00641101211ADDAA199000091GA1001+999999999GF100991001001999999001001MA1999999093531MD1999999+0041REMSYN064AAXX  27064 42111 32996 02701 10190 20064 39353 40121 333 58004;EQDQ01  00002PRCP99
0161421110999992000022709004+30320+078030FM-12+068299999V0202301N001012200019N0040001N1+02181+00421100901ADDAA199000091GF101991999999999999999999MA1999999093321MD1999999-0031REMSYN064AAXX  27094 42111 32996 12302 10218 20042 39332 40090 333 59003;EQDQ01  00002PRCP99
0196421110999992000022712004+30320+078030FM-12+068299999V0202701N000512200019N0040001N1+02001+00731100921ADDAA199000091GA1001+999999999GF100991001001999999001001KA1120M+02271MA1999999093301MD1999999+0051REMSYN070AAXX  27124 42111 32996 02701 10200 20073 39330 40092 333 10227 58005;EQDQ01  00002PRCP99
0177421110999992000022715004+30320+078030FM-12+068299999V0200501N000512200019N0040001N1+01341+00811101201ADDAA199000091GA1001+999999999GF100991001001999999001001MA1999999093401MD1999999-0061REMSYN064AAXX  27154 42111 32996 00501 10134 20081 39340 40120 333 59006;EQDQ01  00002PRCP99
0177421110999992000022800004+30320+078030FM-12+068299999V0200501N000512200019N0040001N1+00861+00521101271ADDAA199000091GA1001+999999999GF100991001001999999001001MA1999999093331MD1999999+0061REMSYN064AAXX  28004 42111 32996 00501 10086 20052 39333 40127 333 58006;EQDQ01  00002PRCP99
0208421110999992000022803004+30320+078030FM-12+068299999V0200901N000512200019N0040001N1+01141+00571101391ADDAA199000091GA1011+030009079GF101991011001999999031001KA1120N+00741MA1999999093521MD1999999+0031REMSYN082AAXX  28034 42111 32996 10901 10114 20057 39352 40139 81030 333 20074 58003 81360;EQDQ01  00002PRCP99
0177421110999992000022809004+30320+078030FM-12+068299999V0202301N001012200019N0040001N1+02421+00901100901ADDAA199000091GA1001+999999999GF100991001001999999001001MA1999999093401MD1999999+0081REMSYN064AAXX  28094 42111 32996 02302 10242 20090 39340 40090 333 58008;EQDQ01  00002PRCP99
0177421110999992000022815004+30320+078030FM-12+068299999V0200501N000512200019N0040001N1+01541+01071101191ADDAA199000091GA1001+999999999GF100991001001999999001001MA1999999093451MD1999999-0031REMSYN064AAXX  28154 42111 32996 00501 10154 20107 39345 40119 333 59003;EQDQ01  00002PRCP99
0177421110999992000022818004+30320+078030FM-12+068299999V0200501N001012200019N0040001N1+01361+00911101331ADDAA199000091GA1001+999999999GF100991001001999999001001MA1999999093511MD1999999+0031REMSYN064AAXX  28184 42111 32996 00502 10136 20091 39351 40133 333 58003;EQDQ01  00002PRCP99
0177421110999992000022900004+30320+078030FM-12+068299999V0209999C000012200019N0040001N1+01101+00751101121ADDAA199000091GA1001+999999999GF100991001001999999001001MA1999999093251MD1999999-0081REMSYN064AAXX  29004 42111 32996 00000 10110 20075 39325 40112 333 59008;EQDQ01  00002PRCP99
0255421110999992000022903004+30320+078030FM-12+068299999V0209999C000019999999N0040001N1+01641+00731101191ADDAA199000091GA1011+010509069GA2031+030009039GF106991011051999999031011KA1120M+02561KA2120N+00941MA1999999093471MD1999999-0051REMSYN100AAXX  29034 42111 32996 60000 10164 20073 39347 40119 81531 333 10256 20094 59005 81635 83360 85075;EQDQ01  00002PRCP99
0223421110999992000022909004+30320+078030FM-12+068299999V0209999C00001036001CN0020001N1+02321+01161100781ADDAA199000091AY121031AY221031GA1031+010509069GF107991041081012501071001MA1999999093271MD1999999-0131MW1051REMSYN088AAXX  29094 42111 31695 70000 10232 20116 39327 40078 70522 84870 333 59013 83635 86460;EQDQ01  00002PRCP99
0242421110999992000022912004+30320+078030FM-12+068299999V0202301N001012200019N0020001N1+02141+01261100801ADDAA199000091AY121061AY211061GA1011+010509069GF103991011051012501031001KA1120M+02361MA1999999093241MD1999999-0041MW1051REMSYN094AAXX  29124 42111 31695 32302 10214 20126 39324 40080 70521 81530 333 10236 59004 81635 83360;EQDQ01  00002PRCP99
0177421110999992000022915004+30320+078030FM-12+068299999V0200501N000512200019N0040001N1+01621+01241101081ADDAA199000091GA1001+999999999GF100991001001999999001001MA1999999093361MD1999999-0091REMSYN064AAXX  29154 42111 32996 00501 10162 20124 39336 40108 333 59009;EQDQ01  00002PRCP99
0177421110999992000022918004+30320+078030FM-12+068299999V0200501N000512200019N0040001N1+01441+01121101111ADDAA199000091GA1001+999999999GF100991001001999999001001MA1999999093341MD1999999-0171REMSYN064AAXX  29184 42111 32996 00501 10144 20112 39334 40111 333 59017;EQDQ01  00002PRCP99
0243421110999992000030103004+30320+078030FM-12+068299999V0203201N000512200019N0020001N1+01521+01051101131ADDAA199000091AY101031AY201031GA1001+999999999GF100991001001999999001001KA1120M+02361KA2120N+01101MA1999999093391MD1999999-0081MW1051REMSYN082AAXX  01034 42111 31995 03201 10152 20105 39339 40113 70500 333 10236 20110 59008;EQDQ01  00002PRCP99
0236421110999992000030112004+30320+078030FM-12+068299999V0202301N001012200019N0020001N1+02221+01161100491ADDAA199000091AY121061AY211061GA1021+012009029GF102991021021012501001001KA1120M+02431MA1999999092971MD1999999-0271MW1051REMSYN088AAXX  01124 42111 31695 22302 10222 20116 39297 40049 70521 82200 333 10243 59027 82840;EQDQ01  00002PRCP99
0163421110999992000030115004+30320+078030FM-12+068299999V02099999999999999999N0040001N1+01741+01221100781ADDAA199000091GA1011+030009079MA1999999093111MD1999999-0221REMSYN076AAXX  01154 42111 32996 ///// 10174 20122 39311 40078 81030 333 59022 81360;EQDQ01  00002PRCP99
0223421110999992000030118004+30320+078030FM-12+068299999V0200501N001010120019N0040001N1+01661+01011100911ADDAA199000091AY111061AY231061GA1031+010509069GF105991051091012501001001MA1999999093211MD1999999-0131MW1171REMSYN088AAXX  01184 42111 31696 50502 10166 20101 39321 40091 71713 85900 333 59013 83635 82940;EQDQ01  00002PRCP99
0221421110999992000030121004+30320+078030FM-12+068299999V0200501N001012200019N9999999N1+01461+00561100901ADDAA199000091AY191031AY221031GA1001+999999999GF100991001001999999001001MA1999999093151MD1999999-0131MW1001REMSYN070AAXX  01214 42111 31996 00502 10146 20056 39315 40090 70092 333 59013;EQDQ01+040002VODIS Q02  00002PRCP99
0177421110999992000030200004+30320+078030FM-12+068299999V0203201N001012200019N0040001N1+01161+00641100881ADDAA199000091GA1001+999999999GF100991001001999999001001MA1999999093061MD1999999-0161REMSYN064AAXX  02004 42111 32996 03202 10116 20064 39306 40088 333 59016;EQDQ01  00002PRCP99
0215421110999992000030203004+30320+078030FM-12+068299999V02099999999992200019N0040001N1+01321+00821100941ADDAA199000091GA1001+999999999GF100991001001999999001001KA1120M+02431KA2120N+01041MA1999999093161MD1999999-0231REMSYN076AAXX  02034 42111 32996 0050/ 10132 20082 39316 40094 333 10243 20104 59023;EQDQ01  00002PRCP99
0217421110999992000030206004+30320+078030FM-12+068299999V0202301N001012200019N0020001N1+02181+00981100941ADDAA199000091AY111061AY211061GA1011+012009029GF101991011011012501001001MA1999999093361MD1999999-0051MW1051REMSYN082AAXX  02064 42111 31695 12302 10218 20098 39336 40094 70511 81100 333 59005 81840;EQDQ01  00002PRCP99
0236421110999992000030212004+30320+078030FM-12+068299999V0203201N001512200019N0040001N1+02181+00891100591ADDAA199000091AY111061AY211061GA1021+012009029GF102991021011012501001001KA1120M+02421MA1999999093041MD1999999+0071MW1051REMSYN088AAXX  02124 42111 31696 23203 10218 20089 39304 40059 70511 82100 333 10242 58007 82840;EQDQ01  00002PRCP99
0205421110999992000030215004+30320+078030FM-12+068299999V0200501N000512200019N0020001N1+01601+01101100921ADDAA199000091AY101031AY201031GA1001+999999999GF100991001001999999001001MA1999999093201MD1999999+0091MW1051REMSYN070AAXX  02154 42111 31995 00501 10160 20110 39320 40092 70500 333 58009;EQDQ01  00002PRCP99
0177421110999992000030218004+30320+078030FM-12+068299999V0200501N001012200019N0040001N1+01461+01021101021ADDAA199000091GA1001+999999999GF100991001001999999001001MA1999999093271MD1999999+0061REMSYN064AAXX  02184 42111 32996 00502 10146 20102 39327 40102 333 58006;EQDQ01  00002PRCP99
0177421110999992000030300004+30320+078030FM-12+068299999V0209999C000012200019N0040001N1+01141+00831100891ADDAA199000091GA1001+999999999GF100991001001999999001001MA1999999093071MD1999999+0011REMSYN064AAXX  03004 42111 32996 00000 10114 20083 39307 40089 333 58001;EQDQ01  00002PRCP99
0243421110999992000030303004+30320+078030FM-12+068299999V0209999C000012200019N0020001N1+01421+00851101081ADDAA199000091AY101031AY201031GA1001+999999999GF100991001001999999001001KA1120M+02421KA2120N+00981MA1999999093311MD1999999+0151MW1051REMSYN082AAXX  03034 42111 31995 00000 10142 20085 39331 40108 70500 333 10242 20098 58015;EQDQ01  00002PRCP99
0205421110999992000030306004+30320+078030FM-12+068299999V0202301N000512200019N0020001N1+02241+00631101001ADDAA199000091AY101061AY201061GA1001+999999999GF100991001001999999001001MA1999999093441MD1999999+0081MW1051REMSYN070AAXX  03064 42111 31995 02301 10224 20063 39344 40100 70500 333 58008;EQDQ01  00002PRCP99
0177421110999992000030315004+30320+078030FM-12+068299999V0200501N001512200019N0040001N1+01601+00671100991ADDAA199000091GA1001+999999999GF100991001001999999001001MA1999999093271MD1999999+0071REMSYN064AAXX  03154 42111 32996 00503 10160 20067 39327 40099 333 58007;EQDQ01  00002PRCP99
0177421110999992000030318004+30320+078030FM-12+068299999V0200501N001012200019N0040001N1+01401+00611101121ADDAA199000091GA1001+999999999GF100991001001999999001001MA1999999093321MD1999999+0051REMSYN064AAXX  03184 42111 32996 00502 10140 20061 39332 40112 333 58005;EQDQ01  00002PRCP99
0233421110999992000030403004+30320+078030FM-12+068299999V0203201N001012200019N0040001N1+01501+00691101001ADDAA199000091GA1021+010509069GF104991031081012501031001KA1120M+02481KA2120N+01051MA1999999093251MD1999999-0061REMSYN094AAXX  04034 42111 32696 43202 10150 20069 39325 40100 83830 333 10248 20105 59006 82635 84360;EQDQ01  00002PRCP99
0195421110999992000030406004+30320+078030FM-12+068299999V0201401N00101015001CN0040001N1+02241+00731100911ADDAA199000091GA1041+010509069GF107991051081012501021001MA1999999093351MD1999999-0091REMSYN082AAXX  04064 42111 32696 71402 10224 20073 39335 40091 85820 333 59009 84635 86460;EQDQ01  00002PRCP99
0243421110999992000030409004+30320+078030FM-12+068299999V0200501N001510120019N0040001N1+02261+00761100661ADDAA100000391AA206000391AY161031AY221031GA1021+010509069GA2031+012009089GF107991051081012501071001MA1999999093121MD1999999-0091MW1211REMSYN100AAXX  04094 42111 21696 70503 10226 20076 39312 40066 72162 85870 333 59009 6993/ 82635 83840 85360;
0240421110999992000030412004+30320+078030FM-12+068299999V0201801N00051036001CN0020001N1+02121+01241100731ADDAA100000391AA209000391AY161061AY221061GA1021+010509069GF107991031081012501071001KA1120M+02381MA1999999092981MD1999999-0111MW1051REMSYN100AAXX  04124 42111 21695 71801 10212 20124 39298 40073 70562 83870 333 10238 59011 6993/ 82635 85460;
0187421110999992000030415004+30320+078030FM-12+068299999V0200501N000512200019N0040001N1+01661+01091100871ADDAA100000391AA212000391GA1031+030009079GF104991041001999999071001MA1999999093171MD1999999-0101REMSYN082AAXX  04154 42111 22996 40501 10166 20109 39317 40087 84070 333 59010 6993/ 83360;
0221421110999992000030500004+30320+078030FM-12+068299999V0200501N001010105019N0040001N1+01301+01121102061ADDAA100005192AA221005092AY191061AY261061GA1051+010509069GF108991051051012501021999MA1999999093251MD1999999+0261MW1291REMSYN094AAXX  05004 42111 21696 80502 10130 20112 39325 40206 72996 8552/ 333 58026 6005/ 85635 88460;
0245421110999992000030506004+30320+078030FM-12+068299999V0201401N00101012001CN0040001N1+02061+01041101091ADDAA199000091AY161061AY221061GA1021+010509069GA2031+012009089GF107991041081012501071001MA1999999093481MD1999999+0131MW1021REMSYN094AAXX  05064 42111 32696 71402 10206 20104 39348 40109 70262 84870 333 58013 82635 83840 86460;EQDQ01  00002PRCP99
0236421110999992000030512004+30320+078030FM-12+068299999V0202301N00051012001CN0040001N1+02201+01051100791ADDAA199000091GA1021+009009069GA2031+012009089GF105991041081008001031001KA1120M+02311MA1999999093231MD1999999+0251REMSYN094AAXX  05124 42111 32596 52301 10220 20105 39323 40079 84830 333 10231 58025 82630 83840 85360;EQDQ01  00002PRCP99
0177421110999992000030518004+30320+078030FM-12+068299999V0200501N001012200019N0040001N1+01421+01001101081ADDAA199000091GA1001+999999999GF100991001001999999001001MA1999999093311MD1999999+0261REMSYN064AAXX  05184 42111 32996 00502 10142 20100 39331 40108 333 58026;EQDQ01  00002PRCP99
0177421110999992000030521004+30320+078030FM-12+068299999V0200501N001012200019N0040001N1+01281+00901101101ADDAA199000091GA1001+999999999GF100991001001999999001001MA1999999093291MD1999999+0091REMSYN064AAXX  05214 42111 32996 00502 10128 20090 39329 40110 333 58009;EQDQ01  00002PRCP99
0177421110999992000030600004+30320+078030FM-12+068299999V0200501N001012200019N0040001N1+01141+00831101121ADDAA199000091GA1001+999999999GF100991001001999999001001MA1999999093281MD1999999+0031REMSYN064AAXX  06004 42111 32996 00502 10114 20083 39328 40112 333 58003;EQDQ01  00002PRCP99
0215421110999992000030603004+30320+078030FM-12+068299999V0202301N000512200019N0040001N1+01441+01041101021ADDAA199000091GA1001+999999999GF100991001001999999001001KA1120M+02311KA2120N+01061MA1999999093271MD1999999-0131REMSYN076AAXX  06034 42111 32996 02301 10144 20104 39327 40102 333 10231 20106 59013;EQDQ01  00002PRCP99
0177421110999992000030606004+30320+078030FM-12+068299999V0202301N001012200019N0040001N1+02261+00811100911ADDAA199000091GA1001+999999999GF100991001001999999001001MA1999999093361MD1999999-0131REMSYN064AAXX  06064 42111 32996 02302 10226 20081 39336 40091 333 59013;EQDQ01  00002PRCP99
0208421110999992000030612004+30320+078030FM-12+068299999V0202301N001512200019N0040001N1+02361+01261100531ADDAA199000091GA1021+012009029GF102991021011012501001001KA1120M+02661MA1999999093041MD1999999-0191REMSYN082AAXX  06124 42111 32696 22303 10236 20126 39304 40053 82100 333 10266 59019 82840;EQDQ01  00002PRCP99
0217421110999992000030621004+30320+078030FM-12+068299999V0200501N000512200019N0020001N1+01441+01231101021ADDAA199000091AY121031AY211031GA1031+030009079GF103991031001999999031001MA1999999093271MD1999999-0021MW1051REMSYN082AAXX  06214 42111 32995 30501 10144 20123 39327 40102 70521 83030 333 59002 83360;EQDQ01  00002PRCP99
0217421110999992000030700004+30320+078030FM-12+068299999V0200501N000512200019N0020001N1+01361+01181101011ADDAA199000091AY101061AY201061GA1011+030009079GF101991011001999999031001MA1999999093231MD1999999-0051MW1051REMSYN082AAXX  07004 42111 32995 10501 10136 20118 39323 40101 70500 81030 333 59005 81360;EQDQ01  00002PRCP99
0261421110999992000030703004+30320+078030FM-12+068299999V0200501N000512200019N0020001N1+01601+01141101151ADDAA199000091AY111031AY211031GA1011+012009089GF103991011011012501031001KA1120M+02661KA2120N+01291MA1999999093411MD1999999+0141MW1051REMSYN100AAXX  07034 42111 31695 30501 10160 20114 39341 40115 70511 81130 333 10266 20129 58014 81840 83360;EQDQ01  00002PRCP99
0217421110999992000030709004+30320+078030FM-12+068299999V0202301N001012200019N0020001N1+02441+00391100871ADDAA199000091AY111031AY201031GA1021+012009029GF102991021021012501001001MA1999999093371MD1999999+0231MW1051REMSYN082AAXX  07094 42111 31695 22302 10244 20039 39337 40087 70510 82200 333 58023 82840;EQDQ01  00002PRCP99
0236421110999992000030712004+30320+078030FM-12+068299999V0202301N001012200019N0020001N1+02101+00581101011ADDAA199000091AY111061AY211061GA1021+012009029GF102991021021012501001001KA1120M+02451MA1999999093401MD1999999+0361MW1051REMSYN088AAXX  07124 42111 31695 22302 10210 20058 39340 40101 70511 82200 333 10245 58036 82840;EQDQ01  00002PRCP99
0135421110999992000030715004+30320+078030FM-12+068299999V02099999999999999999N0040001N1+01521+00931101211ADDAA199000091MA1999999093451MD1999999+0181REMSYN064AAXX  07154 42111 32996 /05/2 10152 20093 39345 40121 333 58018;EQDQ01  00002PRCP99
0177421110999992000030718004+30320+078030FM-12+068299999V0200501N002112200019N0040001N1+01361+00651101331ADDAA199000091GA1001+999999999GF100991001001999999001001MA1999999093511MD1999999+0131REMSYN064AAXX  07184 42111 32996 00504 10136 20065 39351 40133 333 58013;EQDQ01  00002PRCP99
0177421110999992000030800004+30320+078030FM-12+068299999V0203201N000512200019N0040001N1+00861+00571101291ADDAA199000091GA1001+999999999GF100991001001999999001001MA1999999093351MD1999999+0121REMSYN064AAXX  08004 42111 32996 03201 10086 20057 39335 40129 333 58012;EQDQ01  00002PRCP99
0196421110999992000030803004+30320+078030FM-12+068299999V0203201N000512200019N0040001N1+01241+00451101311ADDAA199000091GA1001+999999999GF100991001001999999001001KA1120N+00801MA1999999093481MD1999999+0071REMSYN070AAXX  08034 42111 32996 03201 10124 20045 39348 40131 333 20080 58007;EQDQ01  00002PRCP99
0217421110999992000030806004+30320+078030FM-12+068299999V0202301N001012200019N0020001N1+02041+00481101161ADDAA199000091AY101061AY201061GA1011+012009029GF101991011011012501001001MA1999999093541MD1999999+0001MW1051REMSYN082AAXX  08064 42111 31695 12302 10204 20048 39354 40116 70500 81100 333 58000 81840;EQDQ01  00002PRCP99
0177421110999992000030818004+30320+078030FM-12+068299999V0200501N000512200019N0040001N1+01201+00731100971ADDAA199000091GA1001+999999999GF100991001001999999001001MA1999999093131MD1999999-0381REMSYN064AAXX  08184 42111 32996 00501 10120 20073 39313 40097 333 59038;EQDQ01  00002PRCP99
0177421110999992000030821004+30320+078030FM-12+068299999V0200501N000512200019N0040001N1+01041+00681100841ADDAA199000091GA1001+999999999GF100991001001999999001001MA1999999092991MD1999999-0441REMSYN064AAXX  08214 42111 32996 00501 10104 20068 39299 40084 333 59044;EQDQ01  00002PRCP99
0177421110999992000030900004+30320+078030FM-12+068299999V0203201N000512200019N0040001N1+00901+00611100801ADDAA199000091GA1001+999999999GF100991001001999999001001MA1999999092901MD1999999-0451REMSYN064AAXX  09004 42111 32996 03201 10090 20061 39290 40080 333 59045;EQDQ01  00002PRCP99
0177421110999992000030906004+30320+078030FM-12+068299999V0203201N001012200019N0040001N1+02041+00251100701ADDAA199000091GA1001+999999999GF100991001001999999001001MA1999999093111MD1999999-0431REMSYN064AAXX  09064 42111 32996 03202 10204 20025 39311 40070 333 59043;EQDQ01  00002PRCP99
0177421110999992000030909004+30320+078030FM-12+068299999V0202301N001012200019N0040001N1+02381+00521100441ADDAA199000091GA1001+999999999GF100991001001999999001001MA1999999092951MD1999999-0311REMSYN064AAXX  09094 42111 32996 02302 10238 20052 39295 40044 333 59031;EQDQ01  00002PRCP99
0196421110999992000030912004+30320+078030FM-12+068299999V0202301N001012200019N0040001N1+02221+00541100381ADDAA199000091GA1001+999999999GF100991001001999999001001KA1120M+02431MA1999999092871MD1999999-0291REMSYN070AAXX  09124 42111 32996 02302 10222 20054 39287 40038 333 10243 59029;EQDQ01  00002PRCP99
0177421110999992000030918004+30320+078030FM-12+068299999V0201401N001012200019N0040001N1+01341+00721100841ADDAA199000091GA1001+999999999GF100991001001999999001001MA1999999093071MD1999999-0061REMSYN064AAXX  09184 42111 32996 01402 10134 20072 39307 40084 333 59006;EQDQ01  00002PRCP99
0221421110999992000031000004+30320+078030FM-12+068299999V0200501N001012200019N0040001N1+01101+00661100941ADDAA199000091GA1011+075009019GF199999001001999999001999MA1999999092991MD1999999+0091REMSYN076AAXX  10004 42111 32996 00502 10110 20066 39299 40094 80001 333 58009 81075;EQDQ01+000002SCOTCVQ02+000002SCOHCGQ03  00002PRCP99
0227421110999992000031003004+30320+078030FM-12+068299999V0209999C000012200019N0040001N1+01481+00611100771ADDAA199000091GA1011+075009019GF101991001001999999001011KA1120M+02431KA2120N+00891MA1999999093031MD1999999+0051REMSYN088AAXX  10034 42111 32996 10000 10148 20061 39303 40077 80001 333 10243 20089 58005 81075;EQDQ01  00002PRCP99
0177421110999992000031006004+30320+078030FM-12+068299999V0202301N001512200019N0040001N1+02301+00621100661ADDAA199000091GA1001+999999999GF100991001001999999001001MA1999999093121MD1999999+0011REMSYN064AAXX  10064 42111 32996 02303 10230 20062 39312 40066 333 58001;EQDQ01  00002PRCP99
0208421110999992000031012004+30320+078030FM-12+068299999V0200201N017519999999N0040001N1+99999+99999100361ADDAA199000091GA1021+030009039GF107991021001999999031011KA1120M+02641MA1999999092881MD1999999+0011REMSYN082AAXX  10124 42111 32996 70234 20106 39288 40036 82031 333 10264 58001 82360 85075;EQDQ01  00002PRCP99
0189421110999992000031018004+30320+078030FM-12+068299999V0200501N000510300019N0040001N1+01701+01101100961ADDAA199000091GA1051+030009079GF106991061001999999071001MA1999999093011MD1999999-0061REMSYN076AAXX  10184 42111 32996 60501 10170 20110 39301 40096 86070 333 59006 85360;EQDQ01  00002PRCP99
0189421110999992000031100004+30320+078030FM-12+068299999V0200501N001012200019N0040001N1+01541+00911100471ADDAA199000091GA1041+030009079GF104991041001999999031001MA1999999092781MD1999999-0211REMSYN076AAXX  11004 42111 32996 40502 10154 20091 39278 40047 84030 333 59021 84360;EQDQ01  00002PRCP99
0227421110999992000031103004+30320+078030FM-12+068299999V0209999C000012200019N0040001N1+01941+00931100621ADDAA199000091GA1031+030009079GF103991031001999999031001KA1120M+02641KA2120N+01421MA1999999093021MD1999999-0011REMSYN088AAXX  11034 42111 32996 30000 10194 20093 39302 40062 83030 333 10264 20142 59001 83360;EQDQ01  00002PRCP99
0189421110999992000031106004+30320+078030FM-12+068299999V0202301N001012200019N0040001N1+02521+00951100571ADDAA199000091GA1011+012009029GF101991011011012501001001MA1999999093111MD1999999-0011REMSYN076AAXX  11064 42111 32696 12302 10252 20095 39311 40057 81100 333 59001 81840;EQDQ01  00002PRCP99
0217421110999992000031109004+30320+078030FM-12+068299999V0202301N001012200019N0020001N1+02661+00921100371ADDAA199000091AY101031AY201031GA1011+012009029GF101991011021012501001001MA1999999092951MD1999999+0041MW1051REMSYN082AAXX  11094 42111 31695 12302 10266 20092 39295 40037 70500 81200 333 58004 81840;EQDQ01  00002PRCP99
0236421110999992000031112004+30320+078030FM-12+068299999V0202301N000512200019N0040001N1+02461+00861100291ADDAA199000091AY111061AY211061GA1011+012009029GF101991011011012501001001KA1120M+02721MA1999999092841MD1999999-0041MW1051REMSYN088AAXX  11124 42111 31696 12301 10246 20086 39284 40029 70511 81100 333 10272 59004 81840;EQDQ01  00002PRCP99
0189421110999992000031115004+30320+078030FM-12+068299999V0200501N000512200019N0040001N1+01861+00631100631ADDAA199000091GA1021+030009079GF102991021001999999031001MA1999999093001MD1999999+0051REMSYN076AAXX  11154 42111 32996 20501 10186 20063 39300 40063 82030 333 58005 82360;EQDQ01  00002PRCP99
0195421110999992000031121004+30320+078030FM-12+068299999V0200501N001012200019N0040001N1+01521+00761100631ADDAA199000091GA1011+010509069GF103991011051012501031001MA1999999092921MD1999999+0091REMSYN082AAXX  11214 42111 32696 30502 10152 20076 39292 40063 81530 333 58009 81635 83360;EQDQ01  00002PRCP99
0195421110999992000031200004+30320+078030FM-12+068299999V0200501N00051036001CN0040001N1+01461+00681100581ADDAA199000091GA1031+010509069GF105991031051012501031001MA1999999092861MD1999999+0081REMSYN082AAXX  12004 42111 32696 50501 10146 20068 39286 40058 83530 333 58008 83635 85360;EQDQ01  00002PRCP99
0170421110999992000031203004+30320+078030FM-12+068299999V0200501N001010900019N0020001N1+01841+00851100501ADDAY161031AY221031GF105991031081012501001021KA1999N+01371MA1999999092971MW1051REMSYN082AAXX  12034 42111 21695 50502 10184 20085 39297 40050 70562 83802 333 132// 20137;
0223421110999992000031206004+30320+078030FM-12+068299999V0202301N00101015001CN0040001N1+02341+00831100481ADDAA199000091AY161061AY221061GA1041+010509069GF106991051081012501001021MA1999999092991MD1999999-0121MW1051REMSYN088AAXX  12064 42111 31696 62302 10234 20083 39299 40048 70562 85802 333 59012 84635 86075;EQDQ01  00002PRCP99
0245421110999992000031209004+30320+078030FM-12+068299999V0202301N001010120019N0020001N1+02601+00771100101ADDAA199000091AY121031AY221031GA1021+010509069GA2031+012009089GF106991051081012501031001MA1999999092691MD1999999-0261MW1051REMSYN094AAXX  12094 42111 31695 62302 10260 20077 39269 40010 70522 85830 333 59026 82635 83840 85360;EQDQ01  00002PRCP99
0256421110999992000031212004+30320+078030FM-12+068299999V0200501N001510120019N0020001N1+01521+00711100601ADDAA100000791AA209999929AY191061AY261061GA1041+010509069GA2011+012009099GF107991999999012501999999KA1120M+01671MA1999999092891MD1999999+0051MW1951REMSYN100AAXX  12124 42111 21695 70503 10152 20071 39289 40060 79596 333 10167 58005 6990/ 84635 81940 86460;
0243421110999992000031215004+30320+078030FM-12+068299999V0203201N002110120019N0020001N1+01201+01051101051ADDAA100002091AA212002091AY191031AY261031GA1041+008409069GA2021+012009099GF108991061091008001021999MA1999999093211MD1999999+0211MW1951REMSYN100AAXX  12154 42111 21595 83204 10120 20105 39321 40105 79596 8692/ 333 58021 6002/ 84628 82940 87458;
0221421110999992000031218004+30320+078030FM-12+068299999V0200501N00151036001CN0020001N1+01181+00961100861ADDAA100006192AA215006092AY191061AY261061GA1041+008409069GF108991041051008001021999MA1999999093041MD1999999-0091MW1601REMSYN094AAXX  12184 42111 21595 80503 10118 20096 39304 40086 76096 8452/ 333 59009 6006/ 84628 88458;
0215421110999992000031221004+30320+078030FM-12+068299999V0200501N000512200019N0040001N1+01081+00931100661ADDAA100006192AA218006092AY161031AY201031GA1021+030009079GF102991021001999999031001MA1999999092851MD1999999-0071MW1011REMSYN088AAXX  12214 42111 21996 20501 10108 20093 39285 40066 70160 82030 333 59007 6006/ 82360;
0192421110999992000031300004+30320+078030FM-12+068299999V0200501N000512200019N0040001N1+00961+00841100661ADDAA100006191AY161061AY201061GA1001+999999999GF100991001001999999001001MA1999999092801MD1999999-0061MW1011REMSYN076AAXX  13004 42111 21996 00501 10096 20084 39280 40066 70160 333 59006 6006/;
0202421110999992000031303004+30320+078030FM-12+068299999V0203201N000512200019N0040001N1+01361+00871100811ADDAA100006191GA1001+999999999GF100991001001999999001001KA1120M+02671KA2120N+00881MA1999999093041MD1999999+0071REMSYN082AAXX  13034 42111 22996 03201 10136 20087 39304 40081 333 10267 20088 58007 6006/;
0170421110999992000031306004+30320+078030FM-12+068299999V0202301N000512200019N0040001N1+02121+00881100621ADDAA199000021GA1011+012009029GF101991011011012501001001MA1999999093071MD1999999+0081REMSYN076AAXX  13064 42111 32696 12301 10212 20088 39307 40062 81100 333 58008 81840;
0164421110999992000031321004+30320+078030FM-12+068299999V0209999C000012200019N0040001N1+01001+00681101241ADDAA100001091GA1001+999999999GF100991001001999999001001MA1999999093331MD1999999+0481REMSYN070AAXX  13214 42111 22996 00000 10100 20068 39333 40124 333 58048 6001/;
0202421110999992000031403004+30320+078030FM-12+068299999V0203201N000512200019N0040001N1+01281+00601101321ADDAA100001091GA1001+999999999GF100991001001999999001001KA1120M+02471KA2120N+00711MA1999999093491MD1999999+0451REMSYN082AAXX  14034 42111 22996 03201 10128 20060 39349 40132 333 10247 20071 58045 6001/;
0189421110999992000031406004+30320+078030FM-12+068299999V0202301N000512200019N0040001N1+02001+00421101191ADDAA199000091GA1011+012009029GF101991011011012501001001MA1999999093541MD1999999+0471REMSYN076AAXX  14064 42111 32696 12301 10200 20042 39354 40119 81100 333 58047 81840;EQDQ01  00002PRCP99
0189421110999992000031409004+30320+078030FM-12+068299999V0203201N000512200019N0040001N1+02361+00431100921ADDAA199000091GA1011+012009029GF101991011011012501001001MA1999999093651MD1999999+0441REMSYN076AAXX  14094 42111 32696 13201 10236 20043 39365 40092 81100 333 58044 81840;EQDQ01  00002PRCP99
0196421110999992000031412004+30320+078030FM-12+068299999V0203201N000512200019N0040001N1+02261+00551100821ADDAA199000091GA1001+999999999GF100991001001999999001001KA1120M+02421MA1999999093281MD1999999+0271REMSYN070AAXX  14124 42111 32996 03201 10226 20055 39328 40082 333 10242 58027;EQDQ01  00002PRCP99
0177421110999992000031415004+30320+078030FM-12+068299999V0200501N000512200019N0040001N1+01541+00991101201ADDAA199000091GA1001+999999999GF100991001001999999001001MA1999999093461MD1999999+0251REMSYN064AAXX  14154 42111 32996 00501 10154 20099 39346 40120 333 58025;EQDQ01  00002PRCP99
0177421110999992000031418004+30320+078030FM-12+068299999V0200501N000512200019N0040001N1+01341+01051101251ADDAA199000091GA1001+999999999GF100991001001999999001001MA1999999093451MD1999999+0111REMSYN064AAXX  14184 42111 32996 00501 10134 20105 39345 40125 333 58011;EQDQ01  00002PRCP99
0177421110999992000031421004+30320+078030FM-12+068299999V0200501N000512200019N0040001N1+01221+00921101031ADDAA199000091GA1001+999999999GF100991001001999999001001MA1999999093221MD1999999-0111REMSYN064AAXX  14214 42111 32996 00501 10122 20092 39322 40103 333 59011;EQDQ01  00002PRCP99
0177421110999992000031500004+30320+078030FM-12+068299999V0200501N000512200019N0040001N1+01001+00721101091ADDAA199000091GA1001+999999999GF100991001001999999001001MA1999999093191MD1999999-0121REMSYN064AAXX  15004 42111 32996 00501 10100 20072 39319 40109 333 59012;EQDQ01  00002PRCP99
0215421110999992000031503004+30320+078030FM-12+068299999V0202301N000512200019N0040001N1+01501+00861101081ADDAA199000091GA1001+999999999GF100991001001999999001001KA1120M+02421KA2120N+00931MA1999999093311MD1999999-0181REMSYN076AAXX  15034 42111 32996 02301 10150 20086 39331 40108 333 10242 20093 59018;EQDQ01  00002PRCP99
0177421110999992000031506004+30320+078030FM-12+068299999V0202301N000512200019N0040001N1+02281+00841100891ADDAA199000091GA1001+999999999GF100991001001999999001001MA1999999093331MD1999999-0211REMSYN064AAXX  15064 42111 32996 02301 10228 20084 39333 40089 333 59021;EQDQ01  00002PRCP99
0189421110999992000031509004+30320+078030FM-12+068299999V0203201N001012200019N0040001N1+02501+00721100701ADDAA199000091GA1011+012009029GF101991011011012501001001MA1999999093221MD1999999-0171REMSYN076AAXX  15094 42111 32696 13202 10250 20072 39322 40070 81100 333 59017 81840;EQDQ01  00002PRCP99
0252421110999992000031512004+30320+078030FM-12+068299999V0203201N001512200019N0040001N1+02801+00431100461ADDAA199000091AY111061AY211061GA1011+012009029GF101991011011012501001001KA1120M+99999MA1999999093071MD1999999-0211MW1051REMSYN088AAXX  15124 42111 31696 13203 10280 20043 39307 40046 70511 81100 333 10252 59021 81840;EQDQ01  00002PRCP99Q02 +02522ATMX  
0177421110999992000031515004+30320+078030FM-12+068299999V0209999C000012200019N0040001N1+01601+01061100941ADDAA199000091GA1001+999999999GF100991001001999999001001MA1999999093221MD1999999-0241REMSYN064AAXX  15154 42111 32996 00000 10160 20106 39322 40094 333 59024;EQDQ01  00002PRCP99
0177421110999992000031518004+30320+078030FM-12+068299999V0200501N001012200019N0040001N1+01421+00981100991ADDAA199000091GA1001+999999999GF100991001001999999001001MA1999999093241MD1999999-0211REMSYN064AAXX  15184 42111 32996 00502 10142 20098 39324 40099 333 59021;EQDQ01  00002PRCP99
0177421110999992000031521004+30320+078030FM-12+068299999V0200501N000512200019N0040001N1+01241+00861100881ADDAA199000091GA1001+999999999GF100991001001999999001001MA1999999093091MD1999999-0131REMSYN064AAXX  15214 42111 32996 00501 10124 20086 39309 40088 333 59013;EQDQ01  00002PRCP99
0177421110999992000031600004+30320+078030FM-12+068299999V0200501N001012200019N0040001N1+01021+00741100861ADDAA199000091GA1001+999999999GF100991001001999999001001MA1999999093011MD1999999-0181REMSYN064AAXX  16004 42111 32996 00502 10102 20074 39301 40086 333 59018;EQDQ01  00002PRCP99
0215421110999992000031603004+30320+078030FM-12+068299999V0200501N000512200019N0040001N1+01601+00581100811ADDAA199000091GA1001+999999999GF100991001001999999001001KA1120M+02521KA2120N+00931MA1999999093101MD1999999-0211REMSYN076AAXX  16034 42111 32996 00501 10160 20058 39310 40081 333 10252 20093 59021;EQDQ01  00002PRCP99
0177421110999992000031615004+30320+078030FM-12+068299999V0200501N000512200019N0040001N1+01801+00701100791ADDAA199000091GA1001+999999999GF100991001001999999001001MA1999999093121MD1999999-0101REMSYN064AAXX  16154 42111 32996 00501 10180 20070 39312 40079 333 59010;EQDQ01  00002PRCP99
0189421110999992000031700004+30320+078030FM-12+068299999V0203201N000512200019N0040001N1+01301+00711100711ADDAA199000091GA1011+030009079GF101991011001999999031001MA1999999092941MD1999999-0071REMSYN076AAXX  17004 42111 32996 13201 10130 20071 39294 40071 81030 333 59007 81360;EQDQ01  00002PRCP99
0227421110999992000031703004+30320+078030FM-12+068299999V0200501N000512200019N0040001N1+01741+00761100751ADDAA199000091GA1011+030009079GF101991011001999999031001KA1120M+02651KA2120N+01211MA1999999093091MD1999999-0011REMSYN088AAXX  17034 42111 32996 10501 10174 20076 39309 40075 81030 333 10265 20121 59001 81360;EQDQ01  00002PRCP99
0189421110999992000031706004+30320+078030FM-12+068299999V0202301N000512200019N0040001N1+02501+00671100641ADDAA199000091GA1021+030009079GF102991021001999999031001MA1999999093161MD1999999-0041REMSYN076AAXX  17064 42111 32996 22301 10250 20067 39316 40064 82030 333 59004 82360;EQDQ01  00002PRCP99
0189421110999992000031709004+30320+078030FM-12+068299999V0203201N000512200019N0040001N1+02801+00301100401ADDAA199000091GA1021+012009029GF102991021021012501001001MA1999999093011MD1999999-0061REMSYN076AAXX  17094 42111 32696 23201 10280 20030 39301 40040 82200 333 59006 82840;EQDQ01  00002PRCP99
0214421110999992000031712004+30320+078030FM-12+068299999V0202301N00101090001CN0040001N1+02661+00821100271ADDAA199000091GA1011+012009089GF105991011011012501031011KA1120M+02861MA1999999092871MD1999999-0091REMSYN088AAXX  17124 42111 32696 52302 10266 20082 39287 40027 81131 333 10286 59009 81840 85075;EQDQ01  00002PRCP99
0195421110999992000031715004+30320+078030FM-12+068299999V0200501N001012200019N0040001N1+01841+00851100601ADDAA199000091GA1021+012009089GF104991031081012501051001MA1999999092971MD1999999-0151REMSYN082AAXX  17154 42111 32696 40502 10184 20085 39297 40060 83850 333 59015 82840 83360;EQDQ01  00002PRCP99
0245421110999992000031718004+30320+078030FM-12+068299999V0200501N001010105019N0040001N1+01841+00801100711ADDAA199000091AY191061AY221061GA1051+010509069GA2031+012009099GF108991061091012501021999MA1999999093081MD1999999-0131MW1171REMSYN094AAXX  17184 42111 31696 80502 10184 20080 39308 40071 71792 8692/ 333 59013 85635 83940 87460;EQDQ01  00002PRCP99
0192421110999992000031800004+30320+078030FM-12+068299999V0203201N001012200019N0040001N1+01341+00931100791ADDAA100003091AY191061AY261061GA1001+999999999GF100991001001999999001001MA1999999093021MD1999999+0081MW1001REMSYN076AAXX  18004 42111 21996 03202 10134 20093 39302 40079 70096 333 58008 6003/;
0189421110999992000031809004+30320+078030FM-12+068299999V0203201N001512200019N0040001N1+02561+00811100631ADDAA199000091GA1041+012009029GF104991041021012501001001MA1999999093171MD1999999+0161REMSYN076AAXX  18094 42111 32696 43203 10256 20081 39317 40063 84200 333 58016 84840;EQDQ01  00002PRCP99
0214421110999992000031812004+30320+078030FM-12+068299999V0200501N00151036001CN0040001N1+02121+00501100761ADDAA199000091GA1031+012009089GF105991031021012501071001KA1120M+02601MA1999999093201MD1999999+0331REMSYN088AAXX  18124 42111 32696 50503 10212 20050 39320 40076 83270 333 10260 58033 83840 85360;EQDQ01  00002PRCP99
0189421110999992000031815004+30320+078030FM-12+068299999V0209999C000012200019N0040001N1+01701+00561101031ADDAA199000091GA1011+030009079GF101991011001999999031001MA1999999093311MD1999999+0341REMSYN076AAXX  18154 42111 32996 10000 10170 20056 39331 40103 81030 333 58034 81360;EQDQ01  00002PRCP99
0177421110999992000031818004+30320+078030FM-12+068299999V0200501N000512200019N0040001N1+01281+00691101221ADDAA199000091GA1001+999999999GF100991001001999999001001MA1999999093421MD1999999+0441REMSYN064AAXX  18184 42111 32996 00501 10128 20069 39342 40122 333 58044;EQDQ01  00002PRCP99
0177421110999992000031821004+30320+078030FM-12+068299999V0200501N000512200019N0040001N1+00951+00611101351ADDAA199000091GA1001+999999999GF100991001001999999001001MA1999999093341MD1999999+0241REMSYN064AAXX  18214 42111 32996 00501 10095 20061 39334 40135 333 58024;EQDQ01  00002PRCP99
0177421110999992000031900004+30320+078030FM-12+068299999V0209999C000012200019N0040001N1+00821+00611101261ADDAA199000091GA1001+999999999GF100991001001999999001001MA1999999093321MD1999999+0201REMSYN064AAXX  19004 42111 32996 00000 10082 20061 39332 40126 333 58020;EQDQ01  00002PRCP99
0215421110999992000031903004+30320+078030FM-12+068299999V0202301N001012200019N0040001N1+01401+00561101371ADDAA199000091GA1001+999999999GF100991001001999999001001KA1120M+02601KA2120N+00741MA1999999093551MD1999999+0251REMSYN076AAXX  19034 42111 32996 02302 10140 20056 39355 40137 333 10260 20074 58025;EQDQ01  00002PRCP99
0189421110999992000031909004+30320+078030FM-12+068299999V0202701N001012200019N0040001N1+02441+00131100951ADDAA199000091GA1011+012009029GF102991011011012501001011MA1999999093451MD1999999+0281REMSYN076AAXX  19094 42111 32696 22702 10244 20013 39345 40095 81101 333 58028 81840;EQDQ01  00002PRCP99
0196421110999992000031912004+30320+078030FM-12+068299999V0202701N001012200019N0040001N1+02401+00261100901ADDAA199000091GA1001+999999999GF100991001001999999001001KA1120M+02501MA1999999093371MD1999999+0171REMSYN070AAXX  19124 42111 32996 02702 10240 20026 39337 40090 333 10250 58017;EQDQ01  00002PRCP99
0177421110999992000031915004+30320+078030FM-12+068299999V0200501N001012200019N0040001N1+01521+00711101061ADDAA199000091GA1001+999999999GF100991001001999999001001MA1999999093321MD1999999+0011REMSYN064AAXX  19154 42111 32996 00502 10152 20071 39332 40106 333 58001;EQDQ01  00002PRCP99
0177421110999992000031918004+30320+078030FM-12+068299999V0200501N001512200019N0040001N1+01341+00431101241ADDAA199000091GA1001+999999999GF100991001001999999001001MA1999999093441MD1999999+0021REMSYN064AAXX  19184 42111 32996 00503 10134 20043 39344 40124 333 58002;EQDQ01  00002PRCP99
0177421110999992000031921004+30320+078030FM-12+068299999V0200501N000512200019N0040001N1+01161+00451101211ADDAA199000091GA1001+999999999GF100991001001999999001001MA1999999093351MD1999999+0011REMSYN064AAXX  19214 42111 32996 00501 10116 20045 39335 40121 333 58001;EQDQ01  00002PRCP99
0177421110999992000032000004+30320+078030FM-12+068299999V0200501N001012200019N0040001N1+01021+00431101131ADDAA199000091GA1001+999999999GF100991001001999999001001MA1999999093261MD1999999+0041REMSYN064AAXX  20004 42111 32996 00502 10102 20043 39326 40113 333 58004;EQDQ01  00002PRCP99
0227421110999992000032003004+30320+078030FM-12+068299999V0209999C000012200019N0040001N1+01601+00531101121ADDAA199000091GA1021+090009019GF102991001001999999001021KA1120M+02501KA2120N+00851MA1999999093381MD1999999-0171REMSYN088AAXX  20034 42111 32996 20000 10160 20053 39338 40112 80002 333 10250 20085 59017 82080;EQDQ01  00002PRCP99
0189421110999992000032006004+30320+078030FM-12+068299999V0200901N000512200019N0040001N1+02321+00541100981ADDAA199000091GA1021+030009079GF102991021001999999031001MA1999999093451MD1999999+0051REMSYN076AAXX  20064 42111 32996 20901 10232 20054 39345 40098 82030 333 58005 82360;EQDQ01  00002PRCP99
0195421110999992000032009004+30320+078030FM-12+068299999V0203201N000519999999N0040001N1+02621+00641100731ADDAA199000091GA1021+030009039GF105991021001999999031011MA1999999093301MD1999999-0151REMSYN082AAXX  20094 42111 32996 53201 10262 20064 39330 40073 82031 333 59015 82360 85075;EQDQ01  00002PRCP99
0214421110999992000032012004+30320+078030FM-12+068299999V0202301N000512200019N0040001N1+02341+00271100681ADDAA199000091GA1011+010509069GF104991011051012501031001KA1120M+02661MA1999999093171MD1999999-0201REMSYN088AAXX  20124 42111 32696 42301 10234 20027 39317 40068 81530 333 10266 59020 81635 84360;EQDQ01  00002PRCP99
0195421110999992000032015004+30320+078030FM-12+068299999V0209999C00001036001CN0040001N1+01801+00971100811ADDAA199000091GA1031+010509069GF106991031051012501071001MA1999999093241MD1999999-0201REMSYN082AAXX  20154 42111 32696 60000 10180 20097 39324 40081 83570 333 59020 83635 85360;EQDQ01  00002PRCP99
0195421110999992000032018004+30320+078030FM-12+068299999V0200501N00051036001CN0040001N1+01741+00721101081ADDAA199000091GA1041+010509069GF107991041051012501071001MA1999999093391MD1999999-0041REMSYN082AAXX  20184 42111 32696 70501 10174 20072 39339 40108 84570 333 59004 84635 86460;EQDQ01  00002PRCP99
0196421110999992000032100004+30320+078030FM-12+068299999V0203601N00051036001CN0040001N1+01821+00531100931ADDAA199000091GA1031+010509069GF105991031051012501031001MD1999999+0021REMSYN082AAXX  21004 42111 32696 53601 10182 20053 38328 40093 83530 333 58002 83635 85360;EQDQ01+083283APOSP Q02  00002PRCP99
0233421110999992000032103004+30320+078030FM-12+068299999V0209999C00001036001CN0040001N1+01881+01111101131ADDAA199000091GA1021+010509069GF106991021051012501031001KA1120M+02661KA2120N+01651MA1999999093471MD1999999+0091REMSYN094AAXX  21034 42111 32696 60000 10188 20111 39347 40113 82530 333 10266 20165 58009 82635 85360;EQDQ01  00002PRCP99
0195421110999992000032106004+30320+078030FM-12+068299999V0209999C00001036001CN0040001N1+02281+01031101121ADDAA199000091GA1031+010509069GF108991041081012501011999MA1999999093551MD1999999+0101REMSYN082AAXX  21064 42111 32696 80000 10228 20103 39355 40112 8481/ 333 58010 83635 88460;EQDQ01  00002PRCP99
0195421110999992000032109004+30320+078030FM-12+068299999V0202301N001010090019N0040001N1+02241+00931101291ADDAA199000091GA1051+009009069GF108991051051008001071001MA1999999093521MD1999999+0221REMSYN082AAXX  21094 42111 32596 82302 10224 20093 39352 40129 85570 333 58022 85630 87360;EQDQ01  00002PRCP99
0182421110999992000032112004+30320+078030FM-12+068299999V0202301N000512200019N0040001N1+02341+00271100682ADDAA199000091GF104991011051012501031001KA1999M+02661MA1999999093171REMSYN070AAXX  21124 42111 32696 42301 10234 20027 39317 40068 81530 333 10266;EQDQ01+100683APOSLPQ02  00002PRCP99
0245421110999992000032115004+30320+078030FM-12+068299999V0200501N001010120019N0040001N1+01921+00721101261ADDAA199000091AY191031AY221031GA1041+010509069GA2021+012009099GF108991061081012501021999MA1999999093611MD1999999+0371MW1171REMSYN094AAXX  21154 42111 31696 80502 10192 20072 39361 40126 71792 8682/ 333 58037 84635 82940 87460;EQDQ01  00002PRCP99
0221421110999992000032118004+30320+078030FM-12+068299999V0200501N00151036001CN0040001N1+01721+00741101271ADDAA100001091AA215001091AY191061AY261061GA1041+010509069GF108991041051012501021999MA1999999093561MD1999999+0171MW1021REMSYN094AAXX  21184 42111 21696 80503 10172 20074 39356 40127 70296 8452/ 333 58017 6001/ 84635 86460;
0193421110999992000032121004+30320+078030FM-12+068299999V0200501N00101036001CN0040001N1+01641+00771101281ADDAA100001091AA218001091GA1041+010509069GF108991041051012501021999MA1999999093551MD1999999+0261REMSYN088AAXX  21214 42111 22696 80502 10164 20077 39355 40128 8452/ 333 58026 6001/ 84635 87460;
0221421110999992000032200004+30320+078030FM-12+068299999V0200501N001010090019N0040001N1+01321+00991101341ADDAA100004192AA221004092AY161061AY221061GA1051+009009069GF108991051051012501021999MA1999999093521MD1999999+0241MW1211REMSYN094AAXX  22004 42111 21696 80502 10132 20099 39352 40134 72162 8552/ 333 58024 6004/ 85630 87458;
0212421110999992000032203004+30320+078030FM-12+068299999V0200501N00151012001CN0040001N1+01701+00981101261ADDAA100004192AA224004092GA1041+009009069GF107991051081008001071001KA1120N+01261MA1999999093531MD1999999+0061REMSYN094AAXX  22034 42111 22596 70503 10170 20098 39353 40126 85870 333 20126 58006 6004/ 84630 85360;
0243421110999992000032206004+30320+078030FM-12+068299999V0200501N002610120019N0040001N1+02001+00921101201ADDAA100000592AA203000492AY191061AY261061GA1031+009009069GA2031+012009089GF107991051081008001021001MA1999999093551MD1999999+0001MW1291REMSYN100AAXX  22064 42111 21596 70505 10200 20092 39355 40120 72996 85820 333 58000 6994/ 83630 83840 86458;
0262421110999992000032212004+30320+078030FM-12+068299999V0200501N00211007501CN0020001N1+01681+00991100991ADDAA100001091AA209001091AY191061AY261061GA1041+009009069GA2021+012509039GF108991061091008001021999KA1120M+02641MA1999999093291MD1999999-0151MW1951REMSYN106AAXX  22124 42111 21595 80504 10168 20099 39329 40099 79596 8692/ 333 10264 59015 6001/ 84630 82396 88456;
0256421110999992000032300004+30320+078030FM-12+068299999V0200501N000510360019N0020001N1+01061+00951999999ADDAA100021192AA221021092AY121061AY221061GA1021+010509069GA2011+012009099GF106991031091012501031001KA1120N+01051MA1999999093181MD1999999-0341MW1131REMSYN100AAXX  23004 42111 21695 60501 10106 20095 39318 71322 83930 333 20105 59034 6021/ 82635 81940 85630;
0221421110999992000032306004+30320+078030FM-12+068299999V0209999C000010090019N0040001N1+01381+01281101491ADDAA100002091AA203002091AY161061AY221061GA1051+009009069GF108991061081008001021999MA1999999093761MD1999999+0211MW1211REMSYN094AAXX  23064 42111 21596 80000 10138 20128 39376 40149 72162 8682/ 333 58021 6002/ 85630 88460;
0221421110999992000032309004+30320+078030FM-12+068299999V0209999C000010084019N0020001N1+01501+01221101471ADDAA100002091AA206002091AY161031AY221031GA1051+008409069GF108991051051008001021999MA1999999093681MD1999999+0351MW1601REMSYN094AAXX  23094 42111 21595 80000 10150 20122 39368 40147 76062 8552/ 333 58035 6002/ 85628 88458;
0240421110999992000032312004+30320+078030FM-12+068299999V0200501N00051090001CN0040001N1+01641+01221101371ADDAA100002091AA209002091AY161061AY221061GA1021+010509069GF105991021051012501031011KA1120M+01651MA1999999093641MD1999999+0351MW1021REMSYN100AAXX  23124 42111 21696 50501 10164 20122 39364 40137 70262 82531 333 10165 58035 6002/ 82635 84360;
0193421110999992000032318004+30320+078030FM-12+068299999V0200501N001012200019N0040001N1+01041+00891101851ADDAA100002091AA215002091GA1011+010509069GF103991011051012501031001MA1999999093911MD1999999+0411REMSYN088AAXX  23184 42111 22696 30502 10104 20089 39391 40185 81530 333 58041 6002/ 81635 83360;
0187421110999992000032321004+30320+078030FM-12+068299999V0200501N001012200019N0040001N1+00961+00841101841ADDAA100002091AA218002091GA1021+030009079GF102991021001999999031001MA1999999093881MD1999999+0591REMSYN082AAXX  23214 42111 22996 20502 10096 20084 39388 40184 82030 333 58059 6002/ 82360;
0193421110999992000032400004+30320+078030FM-12+068299999V0209999C000019999999N0040001N1+00901+00781101931ADDAA100002091AA221002091GA1031+030009039GF105991031001999999031011MA1999999093941MD1999999+0761REMSYN088AAXX  24004 42111 22996 50000 10090 20078 39394 40193 83031 333 58076 6002/ 83360 85075;
0225421110999992000032403004+30320+078030FM-12+068299999V0209999C000012200019N0040001N1+01501+00841101851ADDAA100002091AA224002091GA1021+075009019GF102991001001999999001021KA1120M+01651KA2120N+00881MA1999999094061MD1999999+0421REMSYN094AAXX  24034 42111 22996 20000 10150 20084 39406 40185 80002 333 10165 20088 58042 6002/ 82075;
0189421110999992000032406004+30320+078030FM-12+068299999V0209999C000012200019N0040001N1+02061+01001101861ADDAA199000091GA1011+012009029GF101991011021012501001001MA1999999094191MD1999999+0431REMSYN076AAXX  24064 42111 32696 10000 10206 20100 39419 40186 81200 333 58043 81840;EQDQ01  00002PRCP99
0189421110999992000032409004+30320+078030FM-12+068299999V0203201N001012200019N0040001N1+02341+00831101501ADDAA199000091GA1021+012009029GF102991021021012501001001MA1999999093921MD1999999+0241REMSYN076AAXX  24094 42111 32696 23202 10234 20083 39392 40150 82200 333 58024 82840;EQDQ01  00002PRCP99
0208421110999992000032412004+30320+078030FM-12+068299999V0203201N001012200019N0040001N1+02321+01081101301ADDAA199000091GA1011+012009029GF101991011011012501001001KA1120M+02421MA1999999093741MD1999999+0101REMSYN082AAXX  24124 42111 32696 13202 10232 20108 39374 40130 81100 333 10242 58010 81840;EQDQ01  00002PRCP99
0177421110999992000032415004+30320+078030FM-12+068299999V0200501N001012200019N0040001N1+01621+01201101801ADDAA199000091GA1001+999999999GF100991001001999999001001MA1999999093851MD1999999+0051REMSYN064AAXX  24154 42111 32996 00502 10162 20120 39385 40180 333 58005;EQDQ01  00002PRCP99
0177421110999992000032421004+30320+078030FM-12+068299999V0200501N001012200019N0040001N1+01281+00981101511ADDAA199000091GA1001+999999999GF100991001001999999001001MA1999999093671MD1999999-0211REMSYN064AAXX  24214 42111 32996 00502 10128 20098 39367 40151 333 59021;EQDQ01  00002PRCP99
0177421110999992000032500004+30320+078030FM-12+068299999V0200501N000512200019N0040001N1+01161+00931101451ADDAA199000091GA1001+999999999GF100991001001999999001001MA1999999093581MD1999999-0361REMSYN064AAXX  25004 42111 32996 00501 10116 20093 39358 40145 333 59036;EQDQ01  00002PRCP99
0215421110999992000032503004+30320+078030FM-12+068299999V0209999C000012200019N0040001N1+01561+01211101461ADDAA199000091GA1001+999999999GF100991001001999999001001KA1120M+02421KA2120N+01031MA1999999093691MD1999999-0371REMSYN076AAXX  25034 42111 32996 00000 10156 20121 39369 40146 333 10242 20103 59037;EQDQ01  00002PRCP99
0177421110999992000032506004+30320+078030FM-12+068299999V0202301N000512200019N0040001N1+02481+01251101311ADDAA199000091GA1001+999999999GF100991001001999999001001MA1999999093781MD1999999-0411REMSYN064AAXX  25064 42111 32996 02301 10248 20125 39378 40131 333 59041;EQDQ01  00002PRCP99
0189421110999992000032509004+30320+078030FM-12+068299999V0201401N001012200019N0040001N1+02801+01171101051ADDAA199000091GA1011+012009029GF101991011011012501001001MA1999999093611MD1999999-0311REMSYN076AAXX  25094 42111 32696 11402 10280 20117 39361 40105 81100 333 59031 81840;EQDQ01  00002PRCP99
0153421110999992000032515004+30320+078030FM-12+068299999V0200501N001012200019N0040001N1+01981+01341999999ADDAA199000091GA1001+999999999GF100991001001999999001001MA1999999093721REMSYN054AAXX  25154 42111 32996 00502 10198 20134 39372 59013;EQDQ01  00002PRCP99
0177421110999992000032600004+30320+078030FM-12+068299999V0200501N001012200019N0040001N1+01281+00981101461ADDAA199000091GA1001+999999999GF100991001001999999001001MA1999999093621MD1999999+0091REMSYN064AAXX  26004 42111 32996 00502 10128 20098 39362 40146 333 58009;EQDQ01  00002PRCP99
0215421110999992000032603004+30320+078030FM-12+068299999V0201401N000512200019N0040001N1+01881+01151101411ADDAA199000091GA1001+999999999GF100991001001999999001001KA1120M+02841KA2120N+01171MA1999999093721MD1999999+0031REMSYN076AAXX  26034 42111 32996 01401 10188 20115 39372 40141 333 10284 20117 58003;EQDQ01  00002PRCP99
0177421110999992000032609004+30320+078030FM-12+068299999V0209999C000012200019N0040001N1+02961+01561101011ADDAA199000091GA1001+999999999GF100991001001999999001001MA1999999093621MD1999999+0011REMSYN064AAXX  26094 42111 32996 00000 10296 20156 39362 40101 333 58001;EQDQ01  00002PRCP99
0196421110999992000032612004+30320+078030FM-12+068299999V0202301N000512200019N0040001N1+02721+01401100991ADDAA199000091GA1001+999999999GF100991001001999999001001KA1120M+02971MA1999999093551MD1999999-0021REMSYN070AAXX  26124 42111 32996 02301 10272 20140 39355 40099 333 10297 59002;EQDQ01  00002PRCP99
0177421110999992000032615004+30320+078030FM-12+068299999V0200501N000512200019N0040001N1+02041+01411101211ADDAA199000091GA1001+999999999GF100991001001999999001001MA1999999093691MD1999999-0031REMSYN064AAXX  26154 42111 32996 00501 10204 20141 39369 40121 333 59003;EQDQ01  00002PRCP99
0177421110999992000032618004+30320+078030FM-12+068299999V0200501N000512200019N0040001N1+01761+01321101471ADDAA199000091GA1001+999999999GF100991001001999999001001MA1999999093751MD1999999+0001REMSYN064AAXX  26184 42111 32996 00501 10176 20132 39375 40147 333 58000;EQDQ01  00002PRCP99
0177421110999992000032700004+30320+078030FM-12+068299999V0200501N000512200019N0040001N1+01481+01161101341ADDAA199000091GA1001+999999999GF100991001001999999001001MA1999999093551MD1999999-0071REMSYN064AAXX  27004 42111 32996 00501 10148 20116 39355 40134 333 59007;EQDQ01  00002PRCP99
0224421110999992000032703004+30320+078030FM-12+068299999V0200501N000512200019N0040001N1+02021+01241999999ADDAA199000091GA1001+999999999GF100991001001999999001001KA1120M+02971KA2120N+01351MA1999999093701MD1999999-0021ME1100339REMSYN076AAXX  27034 42111 32996 00501 10202 20124 39370 41033 333 10297 20135 59002;EQDQ01  00002PRCP99
0177421110999992000032706004+30320+078030FM-12+068299999V0201401N001012200019N0040001N1+02641+01491101281ADDAA199000091GA1001+999999999GF100991001001999999001001MA1999999093801MD1999999-0021REMSYN064AAXX  27064 42111 32996 01402 10264 20149 39380 40128 333 59002;EQDQ01  00002PRCP99
0189421110999992000032709004+30320+078030FM-12+068299999V0201401N001012200019N0040001N1+02881+01611101041ADDAA199000091GA1011+012009029GF101991011011012501001001MA1999999093631MD1999999+0011REMSYN076AAXX  27094 42111 32696 11402 10288 20161 39363 40104 81100 333 58001 81840;EQDQ01  00002PRCP99
0162421110999992000032800004+30320+078030FM-12+068299999V0200501N000512200019N0040001N1+01601+01331101351ADDAA199000091GA1001+999999999GF100991001001999999001001MD1999999+0041REMSYN064AAXX  28004 42111 32996 00501 10160 20133 395// 40135 333 58004;EQDQ01  00002PRCP99
0255421110999992000032803004+30320+078030FM-12+068299999V0209999C000012200019N0020001N1+02181+01501101391ADDAA199000091AY111031AY201031GA1011+030009079GF101991011001999999031001KA1120M+02901KA2120N+01571MA1999999093781MD1999999+0081MW1051REMSYN094AAXX  28034 42111 31995 10000 10218 20150 39378 40139 70510 81030 333 10290 20157 58008 81360;EQDQ01  00002PRCP99
0217421110999992000032806004+30320+078030FM-12+068299999V0201401N001012200019N0020001N1+02761+01611101281ADDAA199000091AY101061AY201061GA1011+012009029GF102991011011012501001011MA1999999093831MD1999999+0031MW1051REMSYN082AAXX  28064 42111 31695 21402 10276 20161 39383 40128 70500 81101 333 58003 81840;EQDQ01  00002PRCP99
0242421110999992000032812004+30320+078030FM-12+068299999V0203201N000512200019N0020001N1+02801+01661100851ADDAA199000091AY121061AY211061GA1011+012009089GF103991011011012501031001KA1120M+02921MA1999999093431MD1999999-0111MW1051REMSYN094AAXX  28124 42111 31695 33201 10280 20166 39343 40085 70521 81130 333 10292 59011 81840 83360;EQDQ01  00002PRCP99
0189421110999992000032815004+30320+078030FM-12+068299999V0200501N000512200019N0040001N1+02341+01651101231ADDAA199000091GA1021+030009079GF102991021001999999031001MA1999999093691MD1999999+0011REMSYN076AAXX  28154 42111 32996 20501 10234 20165 39369 40123 82030 333 58001 82360;EQDQ01  00002PRCP99
0243421110999992000032903004+30320+078030FM-12+068299999V0201901N048822200019N0020001N1+02081+01571101361ADDAA199000091AY101031AY201031GF103991999999999999999999KA1120M+02921KA2120N+01681MA1999999093721MD1999999-0061MW1051REMSYN082AAXX  29034 42111 31995 31995 10208 20157 39372 40136 70500 333 10292 20168 59006;EQDQ01+004883WOSPD Q02  00002PRCP99
0177421110999992000033000004+30320+078030FM-12+068299999V0200501N001012200019N0040001N1+01721+01421101041ADDAA199000091GA1001+999999999GF100991001001999999001001MA1999999093351MD1999999-0211REMSYN064AAXX  30004 42111 32996 00502 10172 20142 39335 40104 333 59021;EQDQ01  00002PRCP99
0215421110999992000033003004+30320+078030FM-12+068299999V0201801N000512200019N0040001N1+02121+01501101061ADDAA199000091GA1001+999999999GF100991001001999999001001KA1120M+03111KA2120N+01601MA1999999093481MD1999999-0241REMSYN076AAXX  30034 42111 32996 01801 10212 20150 39348 40106 333 10311 20160 59024;EQDQ01  00002PRCP99
0177421110999992000033006004+30320+078030FM-12+068299999V0201401N001012200019N0040001N1+02901+01591100981ADDAA199000091GA1001+999999999GF100991001001999999001001MA1999999093571MD1999999-0171REMSYN064AAXX  30064 42111 32996 01402 10290 20159 39357 40098 333 59017;EQDQ01  00002PRCP99
0189421110999992000033009004+30320+078030FM-12+068299999V0202301N000512200019N0040001N1+03141+01431100561ADDAA199000091GA1041+075009019GF104991001001999999001011MA1999999093251MD1999999-0281REMSYN076AAXX  30094 42111 32996 42301 10314 20143 39325 40056 80001 333 59028 84075;EQDQ01  00002PRCP99
0236421110999992000033012004+30320+078030FM-12+068299999V0203201N000512200019N0020001N1+03021+01351100551ADDAA199000091AY111061AY211061GA1031+075009019GF103991001001999999001011KA1120M+03171MA1999999093221MD1999999-0191MW1051REMSYN088AAXX  30124 42111 31995 33201 10302 20135 39322 40055 70511 80001 333 10317 59019 83075;EQDQ01  00002PRCP99
0209421110999992000033015004+30320+078030FM-12+068299999V0200501N000512200019N0040001N1+99999+99999999999ADDAA199000091GA1001+999999999GF100991001001999999001001MA1999999093271MD1999999-0311REMSYN064AAXX  30154 42111 32996 00501 11230 20149 39327 40181 333 59031;EQDQ01-002303ATOT  Q02+101813APOSLPQ03  00002PRCP99
0177421110999992000033018004+30320+078030FM-12+068299999V0200501N000512200019N0040001N1+02201+01181100821ADDAA199000091GA1001+999999999GF100991001001999999001001MA1999999093261MD1999999-0271REMSYN064AAXX  30184 42111 32996 00501 10220 20118 39326 40082 333 59027;EQDQ01  00002PRCP99
0177421110999992000033021004+30320+078030FM-12+068299999V0200501N000512200019N0040001N1+01841+01411100801ADDAA199000091GA1001+999999999GF100991001001999999001001MA1999999093151MD1999999-0281REMSYN064AAXX  30214 42111 32996 00501 10184 20141 39315 40080 333 59028;EQDQ01  00002PRCP99
0177421110999992000033100004+30320+078030FM-12+068299999V0209999C000012200019N0040001N1+01521+01171100791ADDAA199000091GA1001+999999999GF100991001001999999001001MA1999999093091MD1999999-0261REMSYN064AAXX  31004 42111 32996 00000 10152 20117 39309 40079 333 59026;EQDQ01  00002PRCP99
0227421110999992000033103004+30320+078030FM-12+068299999V0203201N000512200019N0040001N1+02281+01241100831ADDAA199000091GA1021+075009019GF102991001001999999001011KA1120M+03171KA2120N+01601MA1999999093291MD1999999-0191REMSYN088AAXX  31034 42111 32996 23201 10228 20124 39329 40083 80001 333 10317 20160 59019 82075;EQDQ01  00002PRCP99
0189421110999992000033106004+30320+078030FM-12+068299999V0202301N000512200019N0040001N1+03061+01321100711ADDAA199000091GA1021+075009019GF102991001001999999001011MA1999999093361MD1999999-0211REMSYN076AAXX  31064 42111 32996 22301 10306 20132 39336 40071 80001 333 59021 82075;EQDQ01  00002PRCP99
0189421110999992000033109004+30320+078030FM-12+068299999V0203201N001012200019N0040001N1+03381+00961100411ADDAA199000091GA1011+012009029GF102991011011012501001011MA1999999093151MD1999999-0101REMSYN076AAXX  31094 42111 32696 23202 10338 20096 39315 40041 81101 333 59010 81840;EQDQ01  00002PRCP99
0214421110999992000033112004+30320+078030FM-12+068299999V0203201N001012200019N0040001N1+03201+01021100311ADDAA199000091GA1011+012009089GF103991011011012501001011KA1120M+03411MA1999999093051MD1999999-0171REMSYN088AAXX  31124 42111 32696 33202 10320 20102 39305 40031 81101 333 10341 59017 81840 83075;EQDQ01  00002PRCP99
0177421110999992000033115004+30320+078030FM-12+068299999V0200501N000512200019N0040001N1+02481+01161100651ADDAA199000091GA1001+999999999GF100991001001999999001001MA1999999093171MD1999999-0101REMSYN064AAXX  31154 42111 32996 00501 10248 20116 39317 40065 333 59010;EQDQ01  00002PRCP99
0161421110999992000040100004+30320+078030FM-12+068299999V0200501N001012200019N0040001N1+01741+00851100721ADDAA199000091GF102991999999999999999999MA1999999093061MD1999999-0031REMSYN064AAXX  01004 42111 32996 20502 10174 20085 39306 40072 333 59003;EQDQ01  00002PRCP99
0196421110999992000040103004+30320+078030FM-12+068299999V0209999C000012200019N0040001N1+02341+01191100771ADDAA199000091GA1001+999999999GF100991001001999999001001KA1120N+01571MA1999999093261MD1999999-0031REMSYN070AAXX  01034 42111 32996 00000 10234 20119 39326 40077 333 20157 59003;EQDQ01  00002PRCP99
0189421110999992000040109004+30320+078030FM-12+068299999V0203201N001012200019N0040001N1+03241+00991100351ADDAA199000091GA1011+012009029GF101991011011012501001001MA1999999093091MD1999999-0061REMSYN076AAXX  01094 42111 32696 13202 10324 20099 39309 40035 81100 333 59006 81840;EQDQ01  00002PRCP99
0177421110999992000040115004+30320+078030FM-12+068299999V0200501N000512200019N0040001N1+02221+01321100661ADDAA199000091GA1001+999999999GF100991001001999999001001MA1999999093121MD1999999-0051REMSYN064AAXX  01154 42111 32996 00501 10222 20132 39312 40066 333 59005;EQDQ01  00002PRCP99
0177421110999992000040118004+30320+078030FM-12+068299999V0200501N000512200019N0040001N1+01881+01271100781ADDAA199000091GA1001+999999999GF100991001001999999001001MA1999999093131MD1999999-0041REMSYN064AAXX  01184 42111 32996 00501 10188 20127 39313 40078 333 59004;EQDQ01  00002PRCP99
0177421110999992000040121004+30320+078030FM-12+068299999V0200501N000512200019N0040001N1+01741+01221100611ADDAA199000091GA1001+999999999GF100991001001999999001001MA1999999092951MD1999999-0151REMSYN064AAXX  01214 42111 32996 00501 10174 20122 39295 40061 333 59015;EQDQ01  00002PRCP99
0126421110999992000040200004+30320+078030FM-12+068299999V0209999C000012200019N0040001N1+01581+01231999999ADDAA199000091GA1001+999999999GF100991001001999999001001REMSYN042AAXX  02004 42111 32996 00000 10158 20123;EQDQ01  00002PRCP99
0177421110999992000040206004+30320+078030FM-12+068299999V0202301N000512200019N0040001N1+02881+01531100381ADDAA199000091GA1001+999999999GF100991001001999999001001MA1999999093011MD1999999-0291REMSYN064AAXX  02064 42111 32996 02301 10288 20153 39301 40038 333 59029;EQDQ01  00002PRCP99
0214421110999992000040212004+30320+078030FM-12+068299999V0203201N001512200019N0040001N1+02861+01211100091ADDAA199000091GA1011+010509069GF103991011051012501001011KA1120M+03131MA1999999092741MD1999999-0251REMSYN088AAXX  02124 42111 32696 33203 10286 20121 39274 40009 81501 333 10313 59025 81635 83075;EQDQ01  00002PRCP99
0177421110999992000040215004+30320+078030FM-12+068299999V0200501N000512200019N0040001N1+02101+01331100431ADDAA199000091GA1001+999999999GF100991001001999999001001MA1999999092871MD1999999-0251REMSYN064AAXX  02154 42111 32996 00501 10210 20133 39287 40043 333 59025;EQDQ01  00002PRCP99
0177421110999992000040218004+30320+078030FM-12+068299999V0200501N000512200019N0040001N1+01841+01181100521ADDAA199000091GA1001+999999999GF100991001001999999001001MA1999999092901MD1999999-0231REMSYN064AAXX  02184 42111 32996 00501 10184 20118 39290 40052 333 59023;EQDQ01  00002PRCP99
0177421110999992000040221004+30320+078030FM-12+068299999V0200501N001012200019N0040001N1+01701+01141100511ADDAA199000091GA1001+999999999GF100991001001999999001001MA1999999092841MD1999999-0111REMSYN064AAXX  02214 42111 32996 00502 10170 20114 39284 40051 333 59011;EQDQ01  00002PRCP99
0177421110999992000040300004+30320+078030FM-12+068299999V0200501N001012200019N0040001N1+01601+01101100501ADDAA199000091GA1001+999999999GF100991001001999999001001MA1999999092811MD1999999-0031REMSYN064AAXX  03004 42111 32996 00502 10160 20110 39281 40050 333 59003;EQDQ01  00002PRCP99
0215421110999992000040303004+30320+078030FM-12+068299999V0203201N000512200019N0040001N1+02101+01051100561ADDAA199000091GA1001+999999999GF100991001001999999001001KA1120M+03131KA2120N+01531MA1999999092991MD1999999+0051REMSYN076AAXX  03034 42111 32996 03201 10210 20105 39299 40056 333 10313 20153 58005;EQDQ01  00002PRCP99
0177421110999992000040306004+30320+078030FM-12+068299999V0202301N001512200019N0040001N1+02781+01231100441ADDAA199000091GA1001+999999999GF100991001001999999001001MA1999999093051MD1999999+0041REMSYN064AAXX  03064 42111 32996 02303 10278 20123 39305 40044 333 58004;EQDQ01  00002PRCP99
0196421110999992000040312004+30320+078030FM-12+068299999V0202301N001012200019N0040001N1+03041+00811100061ADDAA199000091GA1001+999999999GF100991001001999999001001KA1120M+03211MA1999999092761MD1999999+0021REMSYN070AAXX  03124 42111 32996 02302 10304 20081 39276 40006 333 10321 58002;EQDQ01  00002PRCP99
0177421110999992000040315004+30320+078030FM-12+068299999V0200501N000512200019N0040001N1+02161+00911100511ADDAA199000091GA1001+999999999GF100991001001999999001001MA1999999092961MD1999999-0091REMSYN064AAXX  03154 42111 32996 00501 10216 20091 39296 40051 333 59009;EQDQ01  00002PRCP99
0177421110999992000040318004+30320+078030FM-12+068299999V0200501N000512200019N0040001N1+01941+00891100611ADDAA199000091GA1001+999999999GF100991001001999999001001MA1999999093011MD1999999+0111REMSYN064AAXX  03184 42111 32996 00501 10194 20089 39301 40061 333 58011;EQDQ01  00002PRCP99
0177421110999992000040321004+30320+078030FM-12+068299999V0200501N000512200019N0040001N1+01741+00811100631ADDAA199000091GA1001+999999999GF100991001001999999001001MA1999999092971MD1999999+0131REMSYN064AAXX  03214 42111 32996 00501 10174 20081 39297 40063 333 58013;EQDQ01  00002PRCP99
0177421110999992000040400004+30320+078030FM-12+068299999V0209999C000012200019N0040001N1+01481+00661100611ADDAA199000091GA1001+999999999GF100991001001999999001001MA1999999092891MD1999999+0081REMSYN064AAXX  04004 42111 32996 00000 10148 20066 39289 40061 333 58008;EQDQ01  00002PRCP99
0215421110999992000040403004+30320+078030FM-12+068299999V0203201N000512200019N0040001N1+02121+00901100621ADDAA199000091GA1001+999999999GF100991001001999999001001KA1120M+03211KA2120N+01361MA1999999093071MD1999999+0081REMSYN076AAXX  04034 42111 32996 03201 10212 20090 39307 40062 333 10321 20136 58008;EQDQ01  00002PRCP99
0177421110999992000040415004+30320+078030FM-12+068299999V0200501N001512200019N0040001N1+02301+00771100541ADDAA199000091GA1001+999999999GF100991001001999999001001MA1999999093021MD1999999+0061REMSYN064AAXX  04154 42111 32996 00503 10230 20077 39302 40054 333 58006;EQDQ01  00002PRCP99
0178421110999992000040418004+30320+078030FM-12+068299999V0200501N001512200019N0040001N1+02061+00771100631ADDAA199000091GA1001+999999999GF100991001001999999001001MD1999999+0051REMSYN064AAXX  04184 42111 32996 00503 10206 20077 30306 40063 333 58005;EQDQ01+103063APOSP Q02  00002PRCP99
0177421110999992000040421004+30320+078030FM-12+068299999V0200501N001012200019N0040001N1+01801+00751100621ADDAA199000091GA1001+999999999GF100991001001999999001001MA1999999092961MD1999999-0011REMSYN064AAXX  04214 42111 32996 00502 10180 20075 39296 40062 333 59001;EQDQ01  00002PRCP99
0177421110999992000040500004+30320+078030FM-12+068299999V0200501N001012200019N0040001N1+01621+00701100541ADDAA199000091GA1001+999999999GF100991001001999999001001MA1999999092871MD1999999-0021REMSYN064AAXX  05004 42111 32996 00502 10162 20070 39287 40054 333 59002;EQDQ01  00002PRCP99
0215421110999992000040503004+30320+078030FM-12+068299999V0203201N000512200019N0040001N1+02141+00881100591ADDAA199000091GA1001+999999999GF100991001001999999001001KA1120M+03221KA2120N+01451MA1999999093041MD1999999-0031REMSYN076AAXX  05034 42111 32996 03201 10214 20088 39304 40059 333 10322 20145 59003;EQDQ01  00002PRCP99
0189421110999992000040509004+30320+078030FM-12+068299999V0202301N001012200019N0040001N1+03221+00431100221ADDAA199000091GA1011+012009029GF101991011011012501001001MA1999999092961MD1999999-0071REMSYN076AAXX  05094 42111 32696 12302 10322 20043 39296 40022 81100 333 59007 81840;EQDQ01  00002PRCP99
0196421110999992000040512004+30320+078030FM-12+068299999V0203201N001012200019N0040001N1+03041+00581100121ADDAA199000091GA1001+999999999GF100991001001999999001001KA1120M+03261MA1999999092821MD1999999-0051REMSYN070AAXX  05124 42111 32996 03202 10304 20058 39282 40012 333 10326 59005;EQDQ01  00002PRCP99
0177421110999992000040515004+30320+078030FM-12+068299999V0209999C000012200019N0040001N1+02141+00831100571ADDAA199000091GA1001+999999999GF100991001001999999001001MA1999999093021MD1999999+0001REMSYN064AAXX  05154 42111 32996 00000 10214 20083 39302 40057 333 58000;EQDQ01  00002PRCP99
0177421110999992000040518004+30320+078030FM-12+068299999V0200501N000512200019N0040001N1+01901+00541100651ADDAA199000091GA1001+999999999GF100991001001999999001001MA1999999093021MD1999999-0041REMSYN064AAXX  05184 42111 32996 00501 10190 20054 39302 40065 333 59004;EQDQ01  00002PRCP99
0189421110999992000040600004+30320+078030FM-12+068299999V0200501N000512200019N0040001N1+01641+00581100541ADDAA199000091GA1011+075009019GF101991001001999999001011MA1999999092871MD1999999+0001REMSYN076AAXX  06004 42111 32996 10501 10164 20058 39287 40054 80001 333 58000 81075;EQDQ01  00002PRCP99
0205421110999992000040606004+30320+078030FM-12+068299999V0202301N001012200019N0020001N1+02941+00751100421ADDAA199000091AY101061AY201061GA1001+999999999GF100991001001999999001001MA1999999093081MD1999999-0061MW1051REMSYN070AAXX  06064 42111 31995 02302 10294 20075 39308 40042 70500 333 59006;EQDQ01  00002PRCP99
0177421110999992000040609004+30320+078030FM-12+068299999V0202301N001012200019N0040001N1+03141+00711100261ADDAA199000091GA1001+999999999GF100991001001999999001001MA1999999092971MD1999999+0011REMSYN064AAXX  06094 42111 32996 02302 10314 20071 39297 40026 333 58001;EQDQ01  00002PRCP99
0214421110999992000040612004+30320+078030FM-12+068299999V0202301N001512200019N0040001N1+03001+00681100141ADDAA199000091GA1011+030009039GF103991011001999999031011KA1120M+03181MA1999999092821MD1999999+0001REMSYN088AAXX  06124 42111 32996 32303 10300 20068 39282 40014 81031 333 10318 58000 81360 83075;EQDQ01  00002PRCP99
0177421110999992000040615004+30320+078030FM-12+068299999V0209999C000012200019N0040001N1+02101+00961100591ADDAA199000091GA1001+999999999GF100991001001999999001001MA1999999093021MD1999999+0001REMSYN064AAXX  06154 42111 32996 00000 10210 20096 39302 40059 333 58000;EQDQ01  00002PRCP99
0177421110999992000040618004+30320+078030FM-12+068299999V0200501N001012200019N0040001N1+01841+00891100721ADDAA199000091GA1001+999999999GF100991001001999999001001MA1999999093091MD1999999+0071REMSYN064AAXX  06184 42111 32996 00502 10184 20089 39309 40072 333 58007;EQDQ01  00002PRCP99
0177421110999992000040621004+30320+078030FM-12+068299999V0200501N000512200019N0040001N1+01701+00891100741ADDAA199000091GA1001+999999999GF100991001001999999001001MA1999999093061MD1999999+0151REMSYN064AAXX  06214 42111 32996 00501 10170 20089 39306 40074 333 58015;EQDQ01  00002PRCP99
0177421110999992000040700004+30320+078030FM-12+068299999V0200501N000512200019N0040001N1+01561+00851100641ADDAA199000091GA1001+999999999GF100991001001999999001001MA1999999092931MD1999999+0061REMSYN064AAXX  07004 42111 32996 00501 10156 20085 39293 40064 333 58006;EQDQ01  00002PRCP99
0215421110999992000040703004+30320+078030FM-12+068299999V0203201N000512200019N0040001N1+02161+00911100851ADDAA199000091GA1001+999999999GF100991001001999999001001KA1120M+03181KA2120N+01481MA1999999093291MD1999999+0331REMSYN076AAXX  07034 42111 32996 03201 10216 20091 39329 40085 333 10318 20148 58033;EQDQ01  00002PRCP99
0177421110999992000040706004+30320+078030FM-12+068299999V0203201N001012200019N0040001N1+02961+00891100751ADDAA199000091GA1001+999999999GF100991001001999999001001MA1999999093381MD1999999+0301REMSYN064AAXX  07064 42111 32996 03202 10296 20089 39338 40075 333 58030;EQDQ01  00002PRCP99
0177421110999992000040718004+30320+078030FM-12+068299999V0200501N000512200019N0040001N1+02081+00841100951ADDAA199000091GA1001+999999999GF100991001001999999001001MA1999999093341MD1999999+0251REMSYN064AAXX  07184 42111 32996 00501 10208 20084 39334 40095 333 58025;EQDQ01  00002PRCP99
0177421110999992000040800004+30320+078030FM-12+068299999V0209999C000012200019N0040001N1+01661+01131100941ADDAA199000091GA1001+999999999GF100991001001999999001001MA1999999093211MD1999999+0281REMSYN064AAXX  08004 42111 32996 00000 10166 20113 39321 40094 333 58028;EQDQ01  00002PRCP99
0215421110999992000040803004+30320+078030FM-12+068299999V0203201N000512200019N0040001N1+02261+00811101001ADDAA199000091GA1001+999999999GF100991001001999999001001KA1120M+03361KA2120N+01591MA1999999093441MD1999999+0151REMSYN076AAXX  08034 42111 32996 03201 10226 20081 39344 40100 333 10336 20159 58015;EQDQ01  00002PRCP99
0189421110999992000040809004+30320+078030FM-12+068299999V0202701N001012200019N0040001N1+03441+00351100291ADDAA199000091GA1011+012009029GF101991011011012501001001MA1999999093071MD1999999-0111REMSYN076AAXX  08094 42111 32696 12702 10344 20035 39307 40029 81100 333 59011 81840;EQDQ01  00002PRCP99
0177421110999992000040818004+30320+078030FM-12+068299999V0200501N000512200019N0040001N1+02081+00801100561ADDAA199000091GA1001+999999999GF100991001001999999001001MA1999999092991MD1999999-0351REMSYN064AAXX  08184 42111 32996 00501 10208 20080 39299 40056 333 59035;EQDQ01  00002PRCP99
0177421110999992000040821004+30320+078030FM-12+068299999V0200501N001012200019N0040001N1+01741+00851100501ADDAA199000091GA1001+999999999GF100991001001999999001001MA1999999092861MD1999999-0431REMSYN064AAXX  08214 42111 32996 00502 10174 20085 39286 40050 333 59043;EQDQ01  00002PRCP99
0177421110999992000040900004+30320+078030FM-12+068299999V0200501N000512200019N0040001N1+01541+00831100471ADDAA199000091GA1001+999999999GF100991001001999999001001MA1999999092781MD1999999-0431REMSYN064AAXX  09004 42111 32996 00501 10154 20083 39278 40047 333 59043;EQDQ01  00002PRCP99
0196421110999992000040903004+30320+078030FM-12+068299999V0209999C000012200019N0040001N1+02201+00871100481ADDAA199000091GA1001+999999999GF100991001001999999001001KA1120N+01471MA1999999092931MD1999999-0511REMSYN070AAXX  09034 42111 32996 00000 10220 20087 39293 40048 333 20147 59051;EQDQ01  00002PRCP99
0168421110999992000040909004+30320+078030FM-12+068299999V0202701N001012200019N0040001N1+03201+00451100071ADDAA199000091GA1011+012009029GF101991011011012501001001MD1999999-0281REMSYN070AAXX  09094 42111 32696 12702 10320 20045 40007 81100 333 59028 81840;EQDQ01  00002PRCP99
0217421110999992000041006004+30320+078030FM-12+068299999V0203201N000512200019N0020001N1+03081+00821100351ADDAA199000091AY101061AY201061GA1011+012009029GF101991011011012501001001MA1999999093031MD1999999+0081MW1051REMSYN082AAXX  10064 42111 31695 13201 10308 20082 39303 40035 70500 81100 333 58008 81840;EQDQ01  00002PRCP99
0214421110999992000041012004+30320+078030FM-12+068299999V0203201N001012200019N0040001N1+03141+01121100111ADDAA199000091GA1011+012009089GF103991011011999999031001KA1120M+03321MA1999999092831MD1999999+0081REMSYN088AAXX  10124 42111 32996 33202 10314 20112 39283 40011 81130 333 10332 58008 81840 83360;EQDQ01  00002PRCP99
0177421110999992000041100004+30320+078030FM-12+068299999V0200501N001012200019N0040001N1+01781+00901100571ADDAA199000091GA1001+999999999GF100991001001999999001001MA1999999092911MD1999999+0121REMSYN064AAXX  11004 42111 32996 00502 10178 20090 39291 40057 333 58012;EQDQ01  00002PRCP99
0185421110999992000041103004+30320+078030FM-12+068299999V0202701N001012200019N0040001N1+02401+01141999999ADDAA199000091GF100991001001999999001001KA1120M+03321KA2120N+01651MA1999999093081REMSYN076AAXX  11034 42111 32996 02702 10240 20114 39308 4//// 333 10332 20165 8015/;EQDQ01  00002PRCP99
0177421110999992000041106004+30320+078030FM-12+068299999V0202301N001012200019N0040001N1+03181+01091100531ADDAA199000091GA1001+999999999GF100991001001999999001001MA1999999093221MD1999999+0191REMSYN064AAXX  11064 42111 32996 02302 10318 20109 39322 40053 333 58019;EQDQ01  00002PRCP99
0177421110999992000041109004+30320+078030FM-12+068299999V0202301N000512200019N0040001N1+03441+01171100151ADDAA199000091GA1001+999999999GF100991001001999999001001MA1999999092931MD1999999+0031REMSYN064AAXX  11094 42111 32996 02301 10344 20117 39293 40015 333 58003;EQDQ01  00002PRCP99
0177421110999992000041115004+30320+078030FM-12+068299999V0200501N000512200019N0040001N1+02561+01191100411ADDAA199000091GA1001+999999999GF100991001001999999001001MA1999999092971MD1999999-0041REMSYN064AAXX  11154 42111 32996 00501 10256 20119 39297 40041 333 59004;EQDQ01  00002PRCP99
0177421110999992000041118004+30320+078030FM-12+068299999V0200501N000512200019N0040001N1+02281+01071100511ADDAA199000091GA1001+999999999GF100991001001999999001001MA1999999092991MD1999999+0011REMSYN064AAXX  11184 42111 32996 00501 10228 20107 39299 40051 333 58001;EQDQ01  00002PRCP99
0177421110999992000041200004+30320+078030FM-12+068299999V0209999C000012200019N0040001N1+01861+00961100551ADDAA199000091GA1001+999999999GF100991001001999999001001MA1999999092921MD1999999+0011REMSYN064AAXX  12004 42111 32996 00000 10186 20096 39292 40055 333 58001;EQDQ01  00002PRCP99
0225421110999992000041203004+30320+078030FM-12+068299999V0209999C000012200019N0040001N1+02501+01101100621ADDAA199000091GA1001+999999999GF100991001001999999001001KA1120M+03481KA2120N+01681MA1999999093141MD1999999+0061REMSYN086AAXX  12034 42111 32996 00000 10250 20110 39314 40062 333 10348 20168 58006 555 10044;EQDQ01  00002PRCP99
0177421110999992000041206004+30320+078030FM-12+068299999V0201801N000512200019N0040001N1+03261+01211100491ADDAA199000091GA1001+999999999GF100991001001999999001001MA1999999093211MD1999999-0011REMSYN064AAXX  12064 42111 32996 01801 10326 20121 39321 40049 333 59001;EQDQ01  00002PRCP99
0189421110999992000041209004+30320+078030FM-12+068299999V0202701N001012200019N0040001N1+03441+00621100221ADDAA199000091GA1011+012009029GF101991011011012501001001MA1999999093001MD1999999+0071REMSYN076AAXX  12094 42111 32696 12702 10344 20062 39300 40022 81100 333 58007 81840;EQDQ01  00002PRCP99
0208421110999992000041212004+30320+078030FM-12+068299999V0201801N000512200019N0040001N1+03181+01321100171ADDAA199000091GA1011+012009029GF101991011011999999001001KA1120M+03461MA1999999092891MD1999999+0041REMSYN082AAXX  12124 42111 32996 11801 10318 20132 39289 40017 81100 333 10346 58004 81840;EQDQ01  00002PRCP99
0177421110999992000041215004+30320+078030FM-12+068299999V0200501N001012200019N0040001N1+02561+01011100431ADDAA199000091GA1001+999999999GF100991001001999999001001MA1999999093011MD1999999+0041REMSYN064AAXX  12154 42111 32996 00502 10256 20101 39301 40043 333 58004;EQDQ01  00002PRCP99
0177421110999992000041221004+30320+078030FM-12+068299999V0200501N001512200019N0040001N1+02081+00981100531ADDAA199000091GA1001+999999999GF100991001001999999001001MA1999999092961MD1999999+0061REMSYN064AAXX  12214 42111 32996 00503 10208 20098 39296 40053 333 58006;EQDQ01  00002PRCP99
0177421110999992000041300004+30320+078030FM-12+068299999V0200501N001012200019N0040001N1+01961+00961100461ADDAA199000091GA1001+999999999GF100991001001999999001001MA1999999092881MD1999999-0041REMSYN064AAXX  13004 42111 32996 00502 10196 20096 39288 40046 333 59004;EQDQ01  00002PRCP99
0205421110999992000041306004+30320+078030FM-12+068299999V0202701N001012200019N0020001N1+03221+01051100301ADDAA199000091AY101061AY201061GA1001+999999999GF100991001001999999001001MA1999999093041MD1999999-0171MW1061REMSYN070AAXX  13064 42111 31995 02702 10322 20105 39304 40030 70600 333 59017;EQDQ01  00002PRCP99
0205421110999992000041309004+30320+078030FM-12+068299999V0201401N000512200019N0020001N1+03421+01181099901ADDAA199000091AY101031AY201031GA1001+999999999GF100991001001999999001001MA1999999092701MD1999999-0301MW1051REMSYN070AAXX  13094 42111 31995 01401 10342 20118 39270 49990 70500 333 59030;EQDQ01  00002PRCP99
0236421110999992000041312004+30320+078030FM-12+068299999V0203201N001012200019N0040001N1+03361+01131099781ADDAA199000091AY111061AY201061GA1011+030009079GF101991011001999999031001KA1120M+03471MA1999999092571MD1999999-0311MW1051REMSYN088AAXX  13124 42111 31996 13202 10336 20113 39257 49978 70510 81030 333 10347 59031 81360;EQDQ01  00002PRCP99
0177421110999992000041321004+30320+078030FM-12+068299999V0200501N000512200019N0040001N1+02081+00981100201ADDAA199000091GA1001+999999999GF100991001001999999001001MA1999999092661MD1999999-0301REMSYN064AAXX  13214 42111 32996 00501 10208 20098 39266 40020 333 59030;EQDQ01  00002PRCP99
0177421110999992000041400004+30320+078030FM-12+068299999V0200501N000512200019N0040001N1+02001+01011100221ADDAA199000091GA1001+999999999GF100991001001999999001001MA1999999092651MD1999999-0231REMSYN064AAXX  14004 42111 32996 00501 10200 20101 39265 40022 333 59023;EQDQ01  00002PRCP99
0243421110999992000041403004+30320+078030FM-12+068299999V0203201N000512200019N0020001N1+02701+01161100311ADDAA199000091AY101031AY201031GA1001+999999999GF100991001001999999001001KA1120M+03471KA2120N+01851MA1999999092901MD1999999-0221MW1051REMSYN082AAXX  14034 42111 31995 03201 10270 20116 39290 40031 70500 333 10347 20185 59022;EQDQ01  00002PRCP99
0233421110999992000041406004+30320+078030FM-12+068299999V0201801N000512200019N0020001N1+03261+01481100141ADDAA199000091AY111061AY201061GA1011+075009019GF102991001001999999001011MA1999999092991MD1999999-0051MW1051REMSYN082AAXX  14064 42111 31995 21801 10326 20148 39299 40014 70510 82001 333 59005 81075;EQDQ01+000022SCOTLCQ02  00002PRCP99
0195421110999992000041409004+30320+078030FM-12+068299999V0201401N001012200019N0040001N1+03361+01491099811ADDAA199000091GA1011+012009089GF102991011021012501031001MA1999999092601MD1999999-0101REMSYN082AAXX  14094 42111 32696 21402 10336 20149 39260 49981 81230 333 59010 81840 82360;EQDQ01  00002PRCP99
0245421110999992000041415004+30320+078030FM-12+068299999V0200501N001010120019N0040001N1+02601+00871100241ADDAA199000091AY191031AY221031GA1041+009609069GA2021+012009099GF108991051091012501021999MA1999999092811MD1999999+0141MW1171REMSYN094AAXX  14154 42111 31696 80502 10260 20087 39281 40024 71792 8592/ 333 58014 84632 82940 86460;EQDQ01  00002PRCP99
0243421110999992000041418004+30320+078030FM-12+068299999V0200501N001010120019N0040001N1+02381+01161100671ADDAA100000791AA215999929AY191061AY261061GA1041+009609069GA2021+012009099GF108991061091012501021999MA1999999093161MD1999999+0491MW1951REMSYN100AAXX  14184 42111 21696 80502 10238 20116 39316 40067 79596 8692/ 333 58049 6990/ 84632 82940 87460;
0215421110999992000041421004+30320+078030FM-12+068299999V0200501N001012200019N0040001N1+02241+01021101141ADDAA100000791AA218999929AY191031AY261031GA1011+010509059GF102991011051012501031001MA1999999092651MD1999999-0011MW1011REMSYN088AAXX  14214 42111 21696 20502 10224 20102 39265 40114 70196 81530 333 59001 6990/ 81635;
0192421110999992000041500004+30320+078030FM-12+068299999V0209999C000012200019N0040001N1+01801+01211101441ADDAA100000791AY191061AY261061GA1001+999999999GF100991001001999999001001MA1999999092801MD1999999+0151MW1001REMSYN076AAXX  15004 42111 21996 00000 10180 20121 39280 40144 70096 333 58015 6990/;
0195421110999992000041509004+30320+078030FM-12+068299999V0201401N00051220001CN0040001N1+03041+01381100311ADDAA199000091GA1011+012009089GF106991011011012501001011MA1999999092991MD1999999+0391REMSYN082AAXX  15094 42111 32696 61401 10304 20138 39299 40031 81101 333 58039 81840 85075;EQDQ01  00002PRCP99
0208421110999992000041512004+30320+078030FM-12+068299999V0203201N000512200019N0040001N1+02981+01211100201ADDAA199000091GA1021+075009019GF102991001001999999001011KA1120M+03111MA1999999092881MD1999999+0501REMSYN082AAXX  15124 42111 32996 23201 10298 20121 39288 40020 80001 333 10311 58050 82075;EQDQ01  00002PRCP99
0177421110999992000041518004+30320+078030FM-12+068299999V0200501N000512200019N0040001N1+02161+01441100671ADDAA199000091GA1001+999999999GF100991001001999999001001MA1999999093111MD1999999-0051REMSYN064AAXX  15184 42111 32996 00501 10216 20144 39311 40067 333 59005;EQDQ01  00002PRCP99
0177421110999992000041521004+30320+078030FM-12+068299999V0200501N000512200019N0040001N1+02001+01291100631ADDAA199000091GA1001+999999999GF100991001001999999001001MA1999999093031MD1999999+0411REMSYN064AAXX  15214 42111 32996 00501 10200 20129 39303 40063 333 58041;EQDQ01  00002PRCP99
0177421110999992000041600004+30320+078030FM-12+068299999V0200501N000512200019N0040001N1+01941+01301100621ADDAA199000091GA1001+999999999GF100991001001999999001001MA1999999093021MD1999999+0221REMSYN064AAXX  16004 42111 32996 00501 10194 20130 39302 40062 333 58022;EQDQ01  00002PRCP99
0215421110999992000041603004+30320+078030FM-12+068299999V0202301N000512200019N0040001N1+02421+01491100791ADDAA199000091GA1001+999999999GF100991001001999999001001KA1120M+03111KA2120N+01841MA1999999093301MD1999999+0161REMSYN076AAXX  16034 42111 32996 02301 10242 20149 39330 40079 333 10311 20184 58016;EQDQ01  00002PRCP99
0217421110999992000041609004+30320+078030FM-12+068299999V0202701N001012200019N0020001N1+03081+01521100411ADDAA199000091AY121031AY211031GA1041+012009029GF104991041021012501001001MA1999999093091MD1999999+0101MW1061REMSYN082AAXX  16094 42111 31695 42702 10308 20152 39309 40041 70621 84200 333 58010 84840;EQDQ01  00002PRCP99
0252421110999992000041612004+30320+078030FM-12+068299999V0202701N001512200019N0020001N1+03101+01421100181ADDAA199000091AY121061AY211061GA1021+012009029GF102991021021012501001001KA1120M+03181MA1999999093882MD1999999+0001MW1061REMSYN088AAXX  16124 42111 31695 22703 10310 20142 39388 40018 70621 82200 333 10318 58000 82840;EQDQ01+093883APOSP Q02  00002PRCP99
0177421110999992000041621004+30320+078030FM-12+068299999V0200501N001012200019N0040001N1+01821+01351100581ADDAA199000091GA1001+999999999GF100991001001999999001001MA1999999092951MD1999999-0081REMSYN064AAXX  16214 42111 32996 00502 10182 20135 39295 40058 333 59008;EQDQ01  00002PRCP99
0194421110999992000041703004+30320+078030FM-12+068299999V0209999C000012200019N0040001N1+02821+01471100501ADDAA199000091GA1001+999999999GF100991001001999999001001KA1120M+04171KA2120N+02331MD1999999-0191REMSYN070AAXX  17034 42111 32996 00000 10282 20147 40050 333 10417 20233 59019;EQDQ01  00002PRCP99
0205421110999992000041706004+30320+078030FM-12+068299999V0201801N000512200019N0020001N1+03041+01461100481ADDAA199000091AY101061AY201061GA1001+999999999GF100991001001999999001001MA1999999093151MD1999999-0221MW1061REMSYN070AAXX  17064 42111 31995 01801 10304 20146 39315 40048 70600 333 59022;EQDQ01  00002PRCP99
0217421110999992000041709004+30320+078030FM-12+068299999V0209999C000012200019N0020001N1+03161+01421100171ADDAA199000091AY111031AY201031GA1011+012009029GF101991011011012501001001MA1999999092891MD1999999-0201MW1051REMSYN082AAXX  17094 42111 31695 10000 10316 20142 39289 40017 70510 81100 333 59020 81840;EQDQ01  00002PRCP99
0177421110999992000041715004+30320+078030FM-12+068299999V0200501N000512200019N0040001N1+02421+01601100331ADDAA199000091GA1001+999999999GF100991001001999999001001MA1999999092881MD1999999-0131REMSYN064AAXX  17154 42111 32996 00501 10242 20160 39288 40033 333 59013;EQDQ01  00002PRCP99
0177421110999992000041718004+30320+078030FM-12+068299999V0200501N000512200019N0040001N1+02241+01271100431ADDAA199000091GA1001+999999999GF100991001001999999001001MA1999999092911MD1999999-0151REMSYN064AAXX  17184 42111 32996 00501 10224 20127 39291 40043 333 59015;EQDQ01  00002PRCP99
0177421110999992000041721004+30320+078030FM-12+068299999V0200501N000512200019N0040001N1+02041+01101100411ADDAA199000091GA1001+999999999GF100991001001999999001001MA1999999092851MD1999999-0101REMSYN064AAXX  17214 42111 32996 00501 10204 20110 39285 40041 333 59010;EQDQ01  00002PRCP99
0177421110999992000041800004+30320+078030FM-12+068299999V0200501N000512200019N0040001N1+01901+01011100491ADDAA199000091GA1001+999999999GF100991001001999999001001MA1999999092881MD1999999-0111REMSYN064AAXX  18004 42111 32996 00501 10190 20101 39288 40049 333 59011;EQDQ01  00002PRCP99
0205421110999992000041806004+30320+078030FM-12+068299999V0202301N000512200019N0020001N1+03221+01381100531ADDAA199000091AY101061AY201061GA1001+999999999GF100991001001999999001001MA1999999093201MD1999999+0051MW1051REMSYN070AAXX  18064 42111 31995 02301 10322 20138 39320 40053 70500 333 58005;EQDQ01  00002PRCP99
0214421110999992000041812004+30320+078030FM-12+068299999V0202701N00051220001CN0040001N1+03121+01651100121ADDAA199000091GA1011+012009089GF105991011011012501001011KA1120M+03521MA1999999092841MD1999999+0041REMSYN088AAXX  18124 42111 32696 52701 10312 20165 39284 40012 81101 333 10352 58004 81840 84075;EQDQ01  00002PRCP99
0177421110999992000041815004+30320+078030FM-12+068299999V0200501N001012200019N0040001N1+02761+01371100371ADDAA199000091GA1001+999999999GF100991001001999999001001MA1999999092981MD1999999+0101REMSYN064AAXX  18154 42111 32996 00502 10276 20137 39298 40037 333 58010;EQDQ01  00002PRCP99
0217421110999992000041821004+30320+078030FM-12+068299999V0200501N001012200019N0020001N1+02121+01121100521ADDAA199000091AY101031AY201031GA1021+075009019GF102991001001999999001011MA1999999092971MD1999999+0091MW1051REMSYN082AAXX  18214 42111 31995 20502 10212 20112 39297 40052 70500 80001 333 58009 82075;EQDQ01  00002PRCP99
0271421110999992000041903004+30320+078030FM-12+068299999V0209999C000012200019N0040001N1+02701+01681100581ADDAA199000091AY111031AY211031GA1051+075009019GF199999001001999999001011KA1120M+03521KA2120N+02081MA1999999093151MD1999999+0051MW1051REMSYN094AAXX  19034 42111 31996 40000 10270 20168 39315 40058 70511 80001 333 10352 20208 58005 85075;EQDQ01+000042SCOTCVQ02  00002PRCP99
0223421110999992000041906004+30320+078030FM-12+068299999V0201401N001019999999N0020001N1+03341+01511100491ADDAA199000091AY121061AY211061GA1021+030009039GF105991021001999999031011MA1999999093231MD1999999+0031MW1051REMSYN088AAXX  19064 42111 31995 51402 10334 20151 39323 40049 70521 82031 333 58003 82360 84075;EQDQ01  00002PRCP99
0217421110999992000041909004+30320+078030FM-12+068299999V0201801N000512200019N0020001N1+03501+01651100191ADDAA199000091AY111031AY211031GA1011+012009029GF101991011011012501001001MA1999999093001MD1999999-0011MW1051REMSYN082AAXX  19094 42111 31695 11801 10350 20165 39300 40019 70511 81100 333 59001 81840;EQDQ01  00002PRCP99
0242421110999992000041912004+30320+078030FM-12+068299999V0203201N001012200019N0020001N1+03441+01531099991ADDAA199000091AY111061AY211061GA1021+030009039GF103991021001999999031011KA1120M+03611MA1999999092791MD1999999-0051MW1051REMSYN094AAXX  19124 42111 31995 33202 10344 20153 39279 49999 70511 82031 333 10361 59005 82360 83075;EQDQ01  00002PRCP99
0217421110999992000041918004+30320+078030FM-12+068299999V0209999C000012200019N0020001N1+02421+01491100391ADDAA199000091AY121061AY211061GA1021+075009019GF102991001001999999001011MA1999999092921MD1999999-0111MW1051REMSYN082AAXX  19184 42111 31995 20000 10242 20149 39292 40039 70521 80001 333 59011 82075;EQDQ01  00002PRCP99
0189421110999992000042000004+30320+078030FM-12+068299999V0209999C000012200019N0040001N1+02181+01271100391ADDAA199000091GA1031+075009019GF103991001001999999001011MA1999999092861MD1999999-0111REMSYN076AAXX  20004 42111 32996 30000 10218 20127 39286 40039 80001 333 59011 83075;EQDQ01  00002PRCP99
0243421110999992000042003004+30320+078030FM-12+068299999V0203201N000512200019N0020001N1+02821+01451100551ADDAA199000091AY111031AY201031GA1001+999999999GF100991001001999999001001KA1120M+03611KA2120N+02121MA1999999093171MD1999999+0071MW1051REMSYN082AAXX  20034 42111 31995 03201 10282 20145 39317 40055 70510 333 10361 20212 58007;EQDQ01  00002PRCP99
0217421110999992000042009004+30320+078030FM-12+068299999V0202701N001012200019N0020001N1+03641+00891099911ADDAA199000091AY101031AY201031GA1011+012009029GF102991011011012501001011MA1999999092761MD1999999-0241MW1061REMSYN082AAXX  20094 42111 31695 22702 10364 20089 39276 49991 70600 81101 333 59024 81840;EQDQ01  00002PRCP99
0189421110999992000042015004+30320+078030FM-12+068299999V0200501N001012200019N0040001N1+02901+00681100101ADDAA199000091GA1021+075009019GF102991001001999999001011MA1999999092751MD1999999-0061REMSYN076AAXX  20154 42111 32996 20502 10290 20068 39275 40010 80001 333 59006 82075;EQDQ01  00002PRCP99
0177421110999992000042115004+30320+078030FM-12+068299999V0200501N000512200019N0040001N1+02561+01431100231ADDAA199000091GA1001+999999999GF100991001001999999001001MA1999999092801MD1999999+0051REMSYN064AAXX  21154 42111 32996 00501 10256 20143 39280 40023 333 58005;EQDQ01  00002PRCP99
0195421110999992000042118004+30320+078030FM-12+068299999V0200501N000519999999N0040001N1+02561+01311100301ADDAA199000091GA1021+030009039GF105991021001999999031011MA1999999092871MD1999999-0101REMSYN082AAXX  21184 42111 32996 50501 10256 20131 39287 40030 82031 333 59010 82360 85075;EQDQ01  00002PRCP99
0195421110999992000042200004+30320+078030FM-12+068299999V0200501N000519999999N0040001N1+02501+01271100361ADDAA199000091GA1041+030009039GF106991041001999999031011MA1999999092901MD1999999-0201REMSYN082AAXX  22004 42111 32996 60501 10250 20127 39290 40036 84031 333 59020 84360 86075;EQDQ01  00002PRCP99
0233421110999992000042203004+30320+078030FM-12+068299999V0209999C00001036001CN0040001N1+02701+01371100431ADDAA199000091GA1031+010509069GF108991031051012501021999KA1120M+03471KA2120N+02251MA1999999093011MD1999999+0031REMSYN094AAXX  22034 42111 32696 80000 10270 20137 39301 40043 8352/ 333 10347 20225 58003 83635 88460;EQDQ01  00002PRCP99
0195421110999992000042206004+30320+078030FM-12+068299999V0202301N00051090001CN0040001N1+03141+01071100331ADDAA199000091GA1011+012009089GF105991011011012501001021MA1999999093041MD1999999+0131REMSYN082AAXX  22064 42111 32696 52301 10314 20107 39304 40033 81102 333 58013 81840 85075;EQDQ01  00002PRCP99
0178421110999992000042209004+30320+078030FM-12+068299999V0201401N001012200019N0040001N1+03421+01411100051ADDAA199000091GF104991021021012501031001MA1999999092851MD1999999+0121REMSYN081AAXX  22094 42111 32696 41402 10342 20141 39285 40005 82230 333 58012 8840 83360;EQDQ01  00002PRCP99
0223421110999992000042218004+30320+078030FM-12+068299999V0209999C00001090001CN0040001N1+02481+01031100471ADDAA199000091AY191061AY221061GA1021+010509069GF105991021051012501001021MA1999999093001MD1999999-0131MW1021REMSYN088AAXX  22184 42111 31696 50000 10248 20103 39300 40047 70292 82502 333 59013 82635 84075;EQDQ01  00002PRCP99
0223421110999992000042221004+30320+078030FM-12+068299999V0209999C00001036001CN0020001N1+02341+01021100471ADDAA199000091AY121031AY221031GA1021+010509069GF105991021051012501071001MA1999999092981MD1999999+0061MW1051REMSYN088AAXX  22214 42111 31695 50000 10234 20102 39298 40047 70522 82570 333 58006 82635 84460;EQDQ01  00002PRCP99
0245421110999992000042300004+30320+078030FM-12+068299999V0209999C000010120019N0020001N1+02261+01001100471ADDAA199000091AY191061AY221061GA1041+009609069GA2011+012009099GF107991051091012501021001MA1999999092951MD1999999+0051MW1131REMSYN094AAXX  23004 42111 31695 70000 10226 20100 39295 40047 71392 85920 333 58005 84632 81940 85460;EQDQ01  00002PRCP99
0221421110999992000042306004+30320+078030FM-12+068299999V0202301N00051036001CN0040001N1+02161+01651100781ADDAA100002091AA203002091AY191061AY261061GA1031+010509069GF105991031051012501071001MA1999999093221MD1999999+0181MW1021REMSYN094AAXX  23064 42111 21696 52301 10216 20165 39322 40078 70296 83570 333 58018 6002/ 83635 85360;
0187421110999992000042309004+30320+078030FM-12+068299999V0201401N000512200019N0040001N1+03101+00961100121ADDAA100002091AA206002091GA1031+030009079GF103991031001999999031001MA1999999092821MD1999999-0031REMSYN082AAXX  23094 42111 22996 31401 10310 20096 39282 40012 83030 333 59003 6002/ 83360;
0212421110999992000042312004+30320+078030FM-12+068299999V0202301N00051036001CN0040001N1+02901+01711100021ADDAA100002091AA209002091GA1031+010509069GF106991031051012501071001KA1120M+03181MA1999999092681MD1999999-0081REMSYN094AAXX  23124 42111 22696 62301 10290 20171 39268 40002 83570 333 10318 59008 6002/ 83635 85360;
0206421110999992000042318004+30320+078030FM-12+068299999V0203201N000510300019N0040001N1+02201+01241100471ADDAA100002091AA215002091GA1061+030009019GF107991071001999999071999MA1999999092921MD1999999-0081REMSYN082AAXX  23184 42111 22996 73201 10220 20124 39292 40047 87070 333 59008 6002/ 86460;EQDQ01+000002SCOHCG
0215421110999992000042321004+30320+078030FM-12+068299999V0203201N001010360019N0040001N1+01821+01491100381ADDAA100002091AA218002091AY161031AY221031GA1021+010509059GF105991021051012501071001MA1999999092771MD1999999-0211MW1011REMSYN088AAXX  23214 42111 21696 53202 10182 20149 39277 40038 70162 82570 333 59021 6002/ 82635;
0192421110999992000042400004+30320+078030FM-12+068299999V0209999C000012200019N0040001N1+01781+01411100391ADDAA100002091AY161061AY201061GA1001+999999999GF100991001001999999001001MA1999999092751MD1999999-0201MW1011REMSYN076AAXX  24004 42111 21996 00000 10178 20141 39275 40039 70160 333 59020 6002/;
0202421110999992000042403004+30320+078030FM-12+068299999V0201401N000512200019N0040001N1+02001+01401100421ADDAA100002091GA1001+999999999GF100991001001999999001001KA1120M+03181KA2120N+01721MA1999999092951MD1999999-0361REMSYN082AAXX  24034 42111 22996 01401 10200 20140 39295 40042 333 10318 20172 59036 6002/;
0189421110999992000042406004+30320+078030FM-12+068299999V0201401N000512200019N0040001N1+03001+01371100191ADDAA199000091GA1011+012009029GF101991011011012501001001MA1999999092871MD1999999-0351REMSYN076AAXX  24064 42111 32696 11401 10300 20137 39287 40019 81100 333 59035 81840;EQDQ01  00002PRCP99
0177421110999992000042415004+30320+078030FM-12+068299999V0200501N000512200019N0040001N1+02541+01451099821ADDAA199000091GA1001+999999999GF100991001001999999001001MA1999999092421MD1999999-0371REMSYN064AAXX  24154 42111 32996 00501 10254 20145 39242 49982 333 59037;EQDQ01  00002PRCP99
0177421110999992000042418004+30320+078030FM-12+068299999V0200501N001012200019N0040001N1+02201+01411099891ADDAA199000091GA1001+999999999GF100991001001999999001001MA1999999092391MD1999999-0531REMSYN064AAXX  24184 42111 32996 00502 10220 20141 39239 49989 333 59053;EQDQ01  00002PRCP99
0177421110999992000042421004+30320+078030FM-12+068299999V0200501N001012200019N0040001N1+02041+01211099901ADDAA199000091GA1001+999999999GF100991001001999999001001MA1999999092381MD1999999-0391REMSYN064AAXX  24214 42111 32996 00502 10204 20121 39238 49990 333 59039;EQDQ01  00002PRCP99
0177421110999992000042500004+30320+078030FM-12+068299999V0200501N001512200019N0040001N1+01961+01041099961ADDAA199000091GA1001+999999999GF100991001001999999001001MA1999999092411MD1999999-0341REMSYN064AAXX  25004 42111 32996 00503 10196 20104 39241 49996 333 59034;EQDQ01  00002PRCP99
0215421110999992000042503004+30320+078030FM-12+068299999V0203201N000512200019N0040001N1+02781+01271099911ADDAA199000091GA1001+999999999GF100991001001999999001001KA1120M+03311KA2120N+01891MA1999999092551MD1999999-0401REMSYN076AAXX  25034 42111 32996 03201 10278 20127 39255 49991 333 10331 20189 59040;EQDQ01  00002PRCP99
0177421110999992000042509004+30320+078030FM-12+068299999V0201801N001012200019N0040001N1+03301+01571099511ADDAA199000091GA1001+999999999GF100991001001999999001001MA1999999092301MD1999999-0291REMSYN064AAXX  25094 42111 32996 01802 10330 20157 39230 49951 333 59029;EQDQ01  00002PRCP99
0177421110999992000042518004+30320+078030FM-12+068299999V0200501N000512200019N0040001N1+02361+01531099941ADDAA199000091GA1001+999999999GF100991001001999999001001MA1999999092491MD1999999+0101REMSYN064AAXX  25184 42111 32996 00501 10236 20153 39249 49994 333 58010;EQDQ01  00002PRCP99
0177421110999992000042521004+30320+078030FM-12+068299999V0200501N000512200019N0040001N1+02161+01441099981ADDAA199000091GA1001+999999999GF100991001001999999001001MA1999999092481MD1999999+0101REMSYN064AAXX  25214 42111 32996 00501 10216 20144 39248 49998 333 58010;EQDQ01  00002PRCP99
0177421110999992000042600004+30320+078030FM-12+068299999V0209999C000012200019N0040001N1+02001+01441100121ADDAA199000091GA1001+999999999GF100991001001999999001001MA1999999092551MD1999999+0141REMSYN064AAXX  26004 42111 32996 00000 10200 20144 39255 40012 333 58014;EQDQ01  00002PRCP99
0243421110999992000042603004+30320+078030FM-12+068299999V0209999C000012200019N0020001N1+02481+01741100221ADDAA199000091AY101031AY201031GA1001+999999999GF100991001001999999001001KA1120M+03381KA2120N+01921MA1999999092771MD1999999+0221MW1051REMSYN082AAXX  26034 42111 31995 00000 10248 20174 39277 40022 70500 333 10338 20192 58022;EQDQ01  00002PRCP99
0205421110999992000042606004+30320+078030FM-12+068299999V0203201N001012200019N0020001N1+02981+01791100031ADDAA199000091AY101061AY201061GA1001+999999999GF100991001001999999001001MA1999999092711MD1999999+0211MW1051REMSYN070AAXX  26064 42111 31995 03202 10298 20179 39271 40003 70500 333 58021;EQDQ01  00002PRCP99
0177421110999992000042609004+30320+078030FM-12+068299999V0209999V001012200019N0040001N1+03241+01651099731ADDAA199000091GA1001+999999999GF100991001001999999001001MA1999999092501MD1999999+0201REMSYN064AAXX  26094 42111 32996 09902 10324 20165 39250 49973 333 58020;EQDQ01  00002PRCP99
0242421110999992000042612004+30320+078030FM-12+068299999V0203201N001512200019N0040001N1+03181+01951099661ADDAA199000091AY111061AY201061GA1011+012009089GF103991011011012501031001KA1120M+03341MA1999999092421MD1999999+0181MW1051REMSYN094AAXX  26124 42111 31696 33203 10318 20195 39242 49966 70510 81130 333 10334 58018 81840 83360;EQDQ01  00002PRCP99
0209421110999992000042615004+30320+078030FM-12+068299999V0200501N001012200019N0040001N1+02741+01831100011ADDAA199000091GA1001+999999999GF100991001001999999001001MA1999999999999MD1999999+0271REMSYN064AAXX  26154 42111 32996 00502 10274 20183 35265 40001 333 58027;EQDQ01+052653APOSP Q02  00002PRCP99Q03 052653APOSP 
0189421110999992000042700004+30320+078030FM-12+068299999V0209999C000012200019N0040001N1+02221+01551100261ADDAA199000091GA1011+075009019GF101991001001999999001011MA1999999092751MD1999999+0201REMSYN076AAXX  27004 42111 32996 10000 10222 20155 39275 40026 80001 333 58020 81075;EQDQ01  00002PRCP99
0233421110999992000042703004+30320+078030FM-12+068299999V0203201N001512200019N0020001N1+02701+01891100231ADDAA199000091AY111031AY211031GF102991001001999999001011KA1120M+03341KA2120N+02181MA1999999092831MD1999999+0061MW1051REMSYN088AAXX  27034 42111 31995 23203 10270 20189 39283 40023 70511 80001 333 10334 20218 58006;EQDQ01  00002PRCP99
0171421110999992000042709004+30320+078030FM-12+068299999V0202301N001012200019N0020001N1+03361+02061099751ADDAA199000091AY121031AY221031GF104991021011012501031041MA1999999092541MW1051REMSYN066AAXX  27094 42111 31695 42302 10336 20206 39254 49975 70522 82134;EQDQ01  00002PRCP99
0242421110999992000042712004+30320+078030FM-12+068299999V0202301N00051015001CN0020001N1+03161+01961099611ADDAA199000091AY121061AY221061GA1041+010509069GF108991061081012501071999KA1120M+03381MA1999999092371MD1999999-0051MW1051REMSYN094AAXX  27124 42111 31695 82301 10316 20196 39237 49961 70522 8687/ 333 10338 59005 84635 86360;EQDQ01  00002PRCP99
0243421110999992000042718004+30320+078030FM-12+068299999V0200501N00261036001CN0020001N1+01961+01361100381ADDAA100007192AA215007092AY191061AY261061GA1021+009009069GA2011+012009099GF106991031091008001071001MA1999999092801MD1999999+0071MW1611REMSYN100AAXX  27184 42111 21595 60505 10196 20136 39280 40038 76196 83970 333 58007 6007/ 82630 81940 85458;
0192421110999992000042721004+30320+078030FM-12+068299999V0200501N001012200019N0040001N1+01921+01351100061ADDAA100007191AY161031AY221031GA1001+999999999GF100991001001999999001001MA1999999092501MD1999999-0241MW1021REMSYN076AAXX  27214 42111 21996 00502 10192 20135 39250 40006 70262 333 59024 6007/;
0202421110999992000042803004+30320+078030FM-12+068299999V0209999C000012200019N0040001N1+02381+01361100191ADDAA100007191GA1001+999999999GF100991001001999999001001KA1120M+03371KA2120N+01681MA1999999092711MD1999999-0121REMSYN082AAXX  28034 42111 22996 00000 10238 20136 39271 40019 333 10337 20168 59012 6007/;
0158421110999992000042806004+30320+078030FM-12+068299999V0202301N000512200019N0040001N1+02941+02101100131ADDAA199000021GA1001+999999999GF100991001001999999001001MA1999999092811MD1999999+0011REMSYN064AAXX  28064 42111 32996 02301 10294 20210 39281 40013 333 58001;
0177421110999992000042818004+30320+078030FM-12+068299999V0200501N001012200019N0040001N1+02261+01371100121ADDAA199000091GA1001+999999999GF100991001001999999001001MA1999999092631MD1999999-0171REMSYN064AAXX  28184 42111 32996 00502 10226 20137 39263 40012 333 59017;EQDQ01  00002PRCP99
0177421110999992000042821004+30320+078030FM-12+068299999V0200501N000512200019N0040001N1+02121+01321100101ADDAA199000091GA1001+999999999GF100991001001999999001001MA1999999092581MD1999999+0081REMSYN064AAXX  28214 42111 32996 00501 10212 20132 39258 40010 333 58008;EQDQ01  00002PRCP99
0195421110999992000042900004+30320+078030FM-12+068299999V0200501N000512200019N0040001N1+02001+01291100171ADDAA199000091GA1011+010509069GF103991011051012501031001MA1999999092601MD1999999+0111REMSYN082AAXX  29004 42111 32696 30501 10200 20129 39260 40017 81530 333 58011 81635 83360;EQDQ01  00002PRCP99
0189421110999992000042909004+30320+078030FM-12+068299999V0200501N000512200019N0040001N1+03521+00771099831ADDAA199000091GA1031+012009029GF104991031021012501031001MA1999999092671MD1999999+0091REMSYN076AAXX  29094 42111 32696 40501 10352 20077 39267 49983 83230 333 58009 83840;EQDQ01  00002PRCP99
0177421110999992000042918004+30320+078030FM-12+068299999V0200501N001012200019N0040001N1+02241+00731100441ADDAA199000091GA1001+999999999GF100991001001999999001001MA1999999092921MD1999999+0291REMSYN064AAXX  29184 42111 32996 00502 10224 20073 39292 40044 333 58029;EQDQ01  00002PRCP99
0177421110999992000042921004+30320+078030FM-12+068299999V0200501N001012200019N0040001N1+02161+00811100311ADDAA199000091GA1001+999999999GF100991001001999999001001MA1999999092781MD1999999+0201REMSYN064AAXX  29214 42111 32996 00502 10216 20081 39278 40031 333 58020;EQDQ01  00002PRCP99
0177421110999992000043000004+30320+078030FM-12+068299999V0200501N000512200019N0040001N1+01961+00871100361ADDAA199000091GA1001+999999999GF100991001001999999001001MA1999999092781MD1999999+0181REMSYN064AAXX  30004 42111 32996 00501 10196 20087 39278 40036 333 58018;EQDQ01  00002PRCP99
0215421110999992000043003004+30320+078030FM-12+068299999V0202301N000512200019N0040001N1+02621+00751100431ADDAA199000091GA1001+999999999GF100991001001999999001001KA1120M+03541KA2120N+01861MA1999999093011MD1999999+0241REMSYN076AAXX  30034 42111 32996 02301 10262 20075 39301 40043 333 10354 20186 58024;EQDQ01  00002PRCP99
0177421110999992000043009004+30320+078030FM-12+068299999V0203601N000512200019N0040001N1+03621+00901099941ADDAA199000091GA1001+999999999GF100991001001999999001001MA1999999092791MD1999999+0121REMSYN064AAXX  30094 42111 32996 03601 10362 20090 39279 49994 333 58012;EQDQ01  00002PRCP99
0196421110999992000043012004+30320+078030FM-12+068299999V0202301N001012200019N0040001N1+03501+00681099821ADDAA199000091GA1001+999999999GF100991001001999999001001KA1120M+03691MA1999999092631MD1999999-0071REMSYN070AAXX  30124 42111 32996 02302 10350 20068 39263 49982 333 10369 59007;EQDQ01  00002PRCP99
0177421110999992000043015004+30320+078030FM-12+068299999V0200501N001012200019N0040001N1+02601+00821100241ADDAA199000091GA1001+999999999GF100991001001999999001001MA1999999092811MD1999999+0001REMSYN064AAXX  30154 42111 32996 00502 10260 20082 39281 40024 333 58000;EQDQ01  00002PRCP99
0177421110999992000043018004+30320+078030FM-12+068299999V0200501N001012200019N0040001N1+02361+00761100321ADDAA199000091GA1001+999999999GF100991001001999999001001MA1999999092841MD1999999-0081REMSYN064AAXX  30184 42111 32996 00502 10236 20076 39284 40032 333 59008;EQDQ01  00002PRCP99
0177421110999992000050100004+30320+078030FM-12+068299999V0209999C000012200019N0040001N1+01861+00831100281ADDAA199000091GA1001+999999999GF100991001001999999001001MA1999999092681MD1999999-0101REMSYN064AAXX  01004 42111 32996 00000 10186 20083 39268 40028 333 59010;EQDQ01  00002PRCP99
0196421110999992000050103004+30320+078030FM-12+068299999V0203201N000512200019N0040001N1+02681+01221100171ADDAA199000091GA1001+999999999GF100991001001999999001001KA1120N+01741MA1999999092771MD1999999-0241REMSYN070AAXX  01034 42111 32996 03201 10268 20122 39277 40017 333 20174 59024;EQDQ01  00002PRCP99
0177421110999992000050109004+30320+078030FM-12+068299999V0202301N000512200019N0040001N1+03681+01011099731ADDAA199000091GA1001+999999999GF100991001001999999001001MA1999999092591MD1999999-0201REMSYN064AAXX  01094 42111 32996 02301 10368 20101 39259 49973 333 59020;EQDQ01  00002PRCP99
0208421110999992000050112004+30320+078030FM-12+068299999V0203201N001012200019N0040001N1+03561+01121099581ADDAA199000091GA1011+030009079GF101991011001999999031001KA1120M+03721MA1999999092431MD1999999-0201REMSYN082AAXX  01124 42111 32996 13202 10356 20112 39243 49958 81030 333 10372 59020 81360;EQDQ01  00002PRCP99
0177421110999992000050118004+30320+078030FM-12+068299999V0200501N000512200019N0040001N1+02361+00931100051ADDAA199000091GA1001+999999999GF100991001001999999001001MA1999999092591MD1999999-0251REMSYN064AAXX  01184 42111 32996 00501 10236 20093 39259 40005 333 59025;EQDQ01  00002PRCP99
0177421110999992000050121004+30320+078030FM-12+068299999V0200501N000512200019N0040001N1+99999+99999100011ADDAA199000091GA1001+999999999GF100991001001999999001001MA1999999092521MD1999999-0211REMSYN064AAXX  01214 42111 32996 00501 19222 20080 39252 40001 333 59021;EQDQ01  00002PRCP99
0177421110999992000050200004+30320+078030FM-12+068299999V0200501N000512200019N0040001N1+02081+00841100051ADDAA199000091GA1001+999999999GF100991001001999999001001MA1999999092511MD1999999-0171REMSYN064AAXX  02004 42111 32996 00501 10208 20084 39251 40005 333 59017;EQDQ01  00002PRCP99
0177421110999992000050206004+30320+078030FM-12+068299999V0202301N000512200019N0040001N1+03421+01321100221ADDAA199000091GA1001+999999999GF100991001001999999001001MA1999999093001MD1999999+0201REMSYN064AAXX  02064 42111 32996 02301 10342 20132 39300 40022 333 58020;EQDQ01  00002PRCP99
0205421110999992000050209004+30320+078030FM-12+068299999V0202301N001012200019N0020001N1+03641+01991099961ADDAA199000091AY101031AY201031GA1001+999999999GF100991001001999999001001MA1999999092811MD1999999+0141MW1061REMSYN070AAXX  02094 42111 31995 02302 10364 20199 39281 49996 70600 333 58014;EQDQ01  00002PRCP99
0236421110999992000050212004+30320+078030FM-12+068299999V0201401N001012200019N0020001N1+03441+01071099921ADDAA199000091AY111061AY201061GA1011+012009029GF101991011011012501001001KA1120M+03661MA1999999092721MD1999999+0291MW1051REMSYN088AAXX  02124 42111 31695 11402 10344 20107 39272 49992 70510 81100 333 10366 58029 81840;EQDQ01  00002PRCP99
0177421110999992000050215004+30320+078030FM-12+068299999V0200501N000512200019N0040001N1+02621+01391100261ADDAA199000091GA1001+999999999GF100991001001999999001001MA1999999092861MD1999999+0281REMSYN064AAXX  02154 42111 32996 00501 10262 20139 39286 40026 333 58028;EQDQ01  00002PRCP99
0177421110999992000050218004+30320+078030FM-12+068299999V0200501N001012200019N0040001N1+02541+00881100391ADDAA199000091GA1001+999999999GF100991001001999999001001MA1999999092951MD1999999+0361REMSYN064AAXX  02184 42111 32996 00502 10254 20088 39295 40039 333 58036;EQDQ01  00002PRCP99
0177421110999992000050221004+30320+078030FM-12+068299999V0200501N001012200019N0040001N1+02341+01421100321ADDAA199000091GA1001+999999999GF100991001001999999001001MA1999999092841MD1999999+0321REMSYN064AAXX  02214 42111 32996 00502 10234 20142 39284 40032 333 58032;EQDQ01  00002PRCP99
0177421110999992000050300004+30320+078030FM-12+068299999V0200501N001012200019N0040001N1+02201+01051100511ADDAA199000091GA1001+999999999GF100991001001999999001001MA1999999092961MD1999999+0451REMSYN064AAXX  03004 42111 32996 00502 10220 20105 39296 40051 333 58045;EQDQ01  00002PRCP99
0243421110999992000050303004+30320+078030FM-12+068299999V0209999C000012200019N0020001N1+02841+01401100621ADDAA199000091AY101031AY201031GA1001+999999999GF100991001001999999001001KA1120M+03661KA2120N+02161MA1999999093241MD1999999+0451MW1061REMSYN082AAXX  03034 42111 31995 00000 10284 20140 39324 40062 70600 333 10366 20216 58045;EQDQ01  00002PRCP99
0217421110999992000050306004+30320+078030FM-12+068299999V0201401N001012200019N0020001N1+03241+01321100551ADDAA199000091AY101061AY201061GA1011+075009019GF101991001001999999001011MA1999999093271MD1999999+0271MW1061REMSYN082AAXX  03064 42111 31995 11402 10324 20132 39327 40055 70600 80001 333 58027 81075;EQDQ01  00002PRCP99
0165421110999992000050309004+30320+078030FM-12+068299999V0203601N000512200019N0020001N1+03461+01791100211ADDAA199000091AY101031AY201031GF104991999999999999999999MA1999999092991MW1061REMSYN060AAXX  03094 42111 31995 43601 10346 20179 39299 40021 70600;EQDQ01  00002PRCP99
0242421110999992000050312004+30320+078030FM-12+068299999V0209999C000019999999N0020001N1+03321+01721100111ADDAA199000091AY121061AY201061GA1011+030009039GF105991011001999999071011KA1120M+03481MA1999999092881MD1999999+0161MW1061REMSYN094AAXX  03124 42111 31995 50000 10332 20172 39288 40011 70620 81071 333 10348 58016 81360 85075;EQDQ01  00002PRCP99
0177421110999992000050318004+30320+078030FM-12+068299999V0202301N000512200019N0040001N1+02541+01811100521ADDAA199000091GA1001+999999999GF100991001001999999001001MA1999999093081MD1999999+0131REMSYN064AAXX  03184 42111 32996 02301 10254 20181 39308 40052 333 58013;EQDQ01  00002PRCP99
0177421110999992000050321004+30320+078030FM-12+068299999V0200501N000512200019N0040001N1+02381+01801100671ADDAA199000091GA1001+999999999GF100991001001999999001001MA1999999093161MD1999999+0321REMSYN064AAXX  03214 42111 32996 00501 10238 20180 39316 40067 333 58032;EQDQ01  00002PRCP99
0189421110999992000050400004+30320+078030FM-12+068299999V0200501N000512200019N0040001N1+02341+01851100711ADDAA199000091GA1011+030009079GF101991011001999999031001MA1999999093201MD1999999+0241REMSYN076AAXX  04004 42111 32996 10501 10234 20185 39320 40071 81030 333 58024 81360;EQDQ01  00002PRCP99
0261421110999992000050403004+30320+078030FM-12+068299999V0200501N00051036001CN0020001N1+02801+01971100641ADDAA199000091AY121031AY211031GA1021+010509069GF106991021051012501031001KA1120M+03481KA2120N+02311MA1999999093231MD1999999-0011MW1051REMSYN100AAXX  04034 42111 31695 60501 10280 20197 39323 40064 70521 82530 333 10348 20231 59001 82635 85360;EQDQ01  00002PRCP99
0245421110999992000050406004+30320+078030FM-12+068299999V0202301N00051036001CN0020001N1+03061+02011100551ADDAA199000091AY121061AY221061GA1011+010509069GA2031+012009089GF107991031081012501071001MA1999999093221MD1999999-0051MW1051REMSYN094AAXX  04064 42111 31695 72301 10306 20201 39322 40055 70522 83870 333 59005 81635 83840 85460;EQDQ01  00002PRCP99
0223421110999992000050409004+30320+078030FM-12+068299999V0202301N00101015001CN0020001N1+03161+02091100431ADDAA199000091AY121031AY221031GA1031+010509069GF106991061081012501001001MA1999999093121MD1999999+0131MW1051REMSYN088AAXX  04094 42111 31695 62302 10316 20209 39312 40043 70522 86800 333 58013 83635 84840;EQDQ01  00002PRCP99
0236421110999992000050412004+30320+078030FM-12+068299999V0202301N001010105019N0020001N1+03081+02061100311ADDAA199000091AY121061AY221061GA1051+010509059GF106991061081012501001001KA1120M+03211MA1999999092991MD1999999+0111MW1051REMSYN088AAXX  04124 42111 31695 62302 10308 20206 39299 40031 70522 86800 333 10321 58011 85635;EQDQ01  00002PRCP99
0223421110999992000050415004+30320+078030FM-12+068299999V0202301N000510120019N0020001N1+02741+02001100561ADDAA199000091AY191031AY221031GA1041+010509069GF105991051091012501001001MA1999999093151MD1999999+0151MW1131REMSYN088AAXX  04154 42111 31695 52301 10274 20200 39315 40056 71392 85900 333 58015 84635 81940;EQDQ01  00002PRCP99
0223421110999992000050418004+30320+078030FM-12+068299999V0200501N00051090001CN0020001N1+02601+02011100631ADDAA199000091AY191061AY221061GA1031+010509069GF105991031051012501001021MA1999999093171MD1999999+0091MW1021REMSYN088AAXX  04184 42111 31695 50501 10260 20201 39317 40063 70292 83502 333 58009 83635 85075;EQDQ01  00002PRCP99
0243421110999992000050421004+30320+078030FM-12+068299999V0202301N001510096019N0020001N1+02081+01771100971ADDAA100009991AA218010091AY191031AY261031GA1051+009609069GA2031+012009099GF108991061091008001021999MA1999999093361MD1999999+0201MW1951REMSYN100AAXX  04214 42111 21595 82303 10208 20177 39336 40097 79596 8692/ 333 58020 6010/ 85632 83940 87460;
0221421110999992000050500004+30320+078030FM-12+068299999V0202701N00101090001CN0040001N1+02201+01561100621ADDAA100014091AA221014091AY191061AY261061GA1031+010509069GF106991031051012501001021MA1999999093071MD1999999-0171MW1291REMSYN094AAXX  05004 42111 21696 62702 10220 20156 39307 40062 72996 83502 333 59017 6014/ 83635 85075;
0253421110999992000050503004+30320+078030FM-12+068299999V0202301N00151036001CN0040001N1+02301+01781100921ADDAA100014091AA224014091GA1011+012009089GA2031+030009039GF106991011011012501031011KA1120M+03211KA2120N+01941MA1999999093361MD1999999+0131REMSYN106AAXX  05034 42111 22696 62303 10230 20178 39336 40092 81131 333 10321 20194 58013 6014/ 81840 83360 85075;
0176421110999992000050506004+30320+078030FM-12+068299999V0201401N001019999999N0040001N1+02801+01731100911ADDAA199000021GA1021+030009049GF106991031001999999071011MA1999999093491MD1999999+0271REMSYN082AAXX  05064 42111 32996 61402 10280 20173 39349 40091 83071 333 58027 82460 85075;
0170421110999992000050509004+30320+078030FM-12+068299999V0202301N000512200019N0040001N1+03081+01821100581ADDAA199000021GA1011+012009029GF101991011011012501001001MA1999999093251MD1999999+0131REMSYN076AAXX  05094 42111 32696 12301 10308 20182 39325 40058 81100 333 58013 81840;
0214421110999992000050512004+30320+078030FM-12+068299999V0201401N00051036001CN0040001N1+03001+02001100471ADDAA199000091GA1021+012009089GF105991031081012501031001KA1120M+03161MA1999999093111MD1999999+0121REMSYN088AAXX  05124 42111 32696 51401 10300 20200 39311 40047 83830 333 10316 58012 82840 85360;EQDQ01  00002PRCP99
0262421110999992000050515004+30320+078030FM-12+068299999V0203201N00211007501CN0020001N1+01902+01781101272ADDAA100008991AA212009091AY191031AY261031GA1031+009009069GA2011+012009099GF108991051091008001021999MA1999999093591MD1999999+0441MW1951REMSYN100AAXX  05154 42111 21595 83204 10190 20178 39359 40127 79596 8592/ 333 58044 6009/ 83630 81940 88458;EQDQ01+101273APOSLP
0221421110999992000050518004+30320+078030FM-12+068299999V0201401N00051012001CN0020001N1+02061+01711100791ADDAA100015091AA215015091AY191061AY261061GA1041+009009069GF108991051081008001021999MA1999999093201MD1999999+0031MW1601REMSYN094AAXX  05184 42111 21595 81401 10206 20171 39320 40079 76096 8582/ 333 58003 6015/ 84630 88450;
0243421110999992000050521004+30320+078030FM-12+068299999V0209999C000010120019N0020001N1+02001+01681100821ADDAA100016091AA218016091AY191031AY261031GA1041+009009059GA2011+012009099GF108991061091008001021999MA1999999093201MD1999999-0161MW1951REMSYN100AAXX  05214 42111 21595 80000 1020/ 20168 39320 40082 79596 8692/ 333 59016 6016/ 84530 81940 88460;
0221421110999992000050600004+30320+078030FM-12+068299999V0209999C000010360019N0020001N1+01901+01811100891ADDAA100018091AA221018091AY191061AY261061GA1041+999999039GF108991041051008001021999MA1999999093271MD1999999+0201MW1611REMSYN094AAXX  06004 42111 21595 80000 10190 20181 39327 40089 76196 8452/ 333 58020 6018/ 8430/ 88460;
0259421110999992000050603004+30320+078030FM-12+068299999V0203201N00101036001CN0020001N1+02041+01821101141ADDAA100018091AA224018091AY161031AY261031GA1031+008409069GF108991031051008001021999KA1120M+03161KA2120N+01861MA1999999093521MD1999999+0161MW1611REMSYN106AAXX  06034 42111 21595 83202 10204 20182 39352 40114 76166 8352/ 333 10316 20186 58016 6018/ 83628 88458;
0240421110999992000050612004+30320+078030FM-12+068299999V0209999C00001015001CN0040001N1+02241+02061100641ADDAA100007192AA209007092AY161061AY221061GA1041+009009069GF107991051081012501071001KA1120M+02311MA1999999093121MD1999999+0011MW1211REMSYN100AAXX  06124 42111 21696 70000 10224 20206 39312 40064 72162 85870 333 10231 58001 6007/ 84630 86460;
0187421110999992000050615004+30320+078030FM-12+068299999V0200501N000512200019N0040001N1+02101+01951100741ADDAA100007192AA212007092GA1021+030009079GF102991021001999999031001MA1999999093151MD1999999-0441REMSYN082AAXX  06154 42111 22996 20501 10210 20195 39315 40074 82030 333 59044 6007/ 82360;
0187421110999992000050618004+30320+078030FM-12+068299999V0200501N000512200019N0040001N1+01881+01721100951ADDAA100007192AA215007092GA1031+030009079GF103991031001999999031001MA1999999093301MD1999999+0101REMSYN082AAXX  06184 42111 22996 30501 10188 20172 39330 40095 83030 333 58010 6007/ 83360;
0193421110999992000050621004+30320+078030FM-12+068299999V0209999C00001036001CN0040001N1+01881+01751100901ADDAA100007192AA218007092GA1011+009009069GF105991011051012501071001MA1999999093251MD1999999+0051REMSYN088AAXX  06214 42111 22696 50000 10188 20175 39325 40090 81570 333 58005 6007/ 81630 84460;
0243421110999992000050700004+30320+078030FM-12+068299999V0200501N00051012001CN0040001N1+01861+01771100891ADDAA100007192AA221007092AY161061AY221061GA1021+009009069GA2031+012009089GF106991041081008001071001MA1999999093241MD1999999-0031MW1021REMSYN100AAXX  07004 42111 21596 60501 10186 20177 39324 40089 70262 84870 333 59003 6007/ 82630 83840 85460;
0281421110999992000050703004+30320+078030FM-12+068299999V0202701N001010120019N0040001N1+02361+01771101001ADDAA100007192AA224007092AY191031AY261031GA1041+009009069GA2011+012009099GF107991051091012501071001KA1120M+03331KA2120N+01761MA1999999093471MD1999999-0051MW1171REMSYN112AAXX  07034 42111 21696 72702 10236 20177 39347 40100 71796 85970 333 10333 20176 59005 6007/ 84630 81940 86460;
0223421110999992000050706004+30320+078030FM-12+068299999V0209999C00001036001CN0040001N1+02401+01681101171ADDAA199000091AY191061AY261061GA1031+012009089GF105991031021012501031011MA1999999093631MD1999999+0111MW1051REMSYN088AAXX  07064 42111 31696 50000 10240 20168 39363 40117 70596 83231 333 58011 83840 84075;EQDQ01  00002PRCP99
0217421110999992000050709004+30320+078030FM-12+068299999V0201401N00051036001CN0040001N1+02881+01751100611ADDAA199000091GA1011+012009089GA2031+030009039GF106991011021012501071011MA1999999093231MD1999999-0181REMSYN088AAXX  07094 42111 32696 61401 10288 20175 39323 40061 81271 333 59018 81840 83360 85075;EQDQ01  00002PRCP99
0214421110999992000050712004+30320+078030FM-12+068299999V0200501N000512200019N0040001N1+02861+01621100461ADDAA199000091GA1011+012009089GF103991011021012501031001KA1120M+02951MA1999999093091MD1999999-0031REMSYN088AAXX  07124 42111 32696 30501 10286 20162 39309 40046 81230 333 10295 59003 81840 83360;EQDQ01  00002PRCP99
0189421110999992000050715004+30320+078030FM-12+068299999V0200501N000512200019N0040001N1+02321+01901100681ADDAA199000091GA1021+030009079GF102991021001999999031001MA1999999093171MD1999999+0021REMSYN076AAXX  07154 42111 32996 20501 10232 20190 39317 40068 82030 333 58002 82360;EQDQ01  00002PRCP99
0177421110999992000050718004+30320+078030FM-12+068299999V0200501N000512200019N0040001N1+02181+01911100761ADDAA199000091GA1001+999999999GF100991001001999999001001MA1999999093201MD1999999-0101REMSYN064AAXX  07184 42111 32996 00501 10218 20191 39320 40076 333 59010;EQDQ01  00002PRCP99
0195421110999992000050721004+30320+078030FM-12+068299999V0200501N000512200019N0040001N1+02041+01761100781ADDAA199000091GA1011+010509069GF104991011051012501031001MA1999999093191MD1999999-0061REMSYN082AAXX  07214 42111 32696 40501 10204 20176 39319 40078 81530 333 59006 81635 83360;EQDQ01  00002PRCP99
0195421110999992000050800004+30320+078030FM-12+068299999V0200501N00051220001CN0040001N1+01941+01691100861ADDAA199000091GA1021+010509059GF106991021051012501001011MA1999999093241MD1999999+0001REMSYN082AAXX  08004 42111 32696 60501 10194 20169 39324 40086 82501 333 58000 82535 85075;EQDQ01  00002PRCP99
0227421110999992000050803004+30320+078030FM-12+068299999V0203201N000512200019N0040001N1+02641+01921100761ADDAA199000091GA1011+012009029GF101991011011012501001001KA1120M+02951KA2120N+01911MA1999999093311MD1999999-0161REMSYN088AAXX  08034 42111 32696 13201 10264 20192 39331 40076 81100 333 10295 20191 59016 81840;EQDQ01  00002PRCP99
0208421110999992000050812004+30320+078030FM-12+068299999V0201401N000512200019N0040001N1+03061+01941100371ADDAA199000091GA1021+012009029GF102991021021012501001001KA1120M+03181MA1999999093051MD1999999-0041REMSYN082AAXX  08124 42111 32696 21401 10306 29194 39305 40037 82200 333 10318 59004 82840;EQDQ01  00002PRCP99
0189421110999992000050818004+30320+078030FM-12+068299999V0200501N000512200019N0040001N1+02421+01941100721ADDAA199000091GA1031+030009079GF103991031001999999051001MA1999999093241MD1999999+0041REMSYN076AAXX  08184 42111 32996 30501 10242 20194 39324 40072 83050 333 58004 83360;EQDQ01  00002PRCP99
0177421110999992000050821004+30320+078030FM-12+068299999V0200501N000512200019N0040001N1+02341+01821100731ADDAA199000091GA1001+999999999GF100991001001999999001001MA1999999093221MD1999999+0031REMSYN064AAXX  08214 42111 32996 00501 10234 20182 39322 40073 333 58003;EQDQ01  00002PRCP99
0189421110999992000050900004+30320+078030FM-12+068299999V0200501N000512200019N0040001N1+02141+01701100761ADDAA199000091GA1011+012009029GF101991011011012501001001MA1999999093201MD1999999-0041REMSYN076AAXX  09004 42111 32696 10501 10214 20170 39320 40076 81100 333 59004 81840;EQDQ01  00002PRCP99
0231421110999992000050903004+30320+078030FM-12+068299999V0202301N000512200019N0040001N1+01781+99999100661ADDAA199000091GA1001+999999999GF100991001001999999001001KA1120M+03181KA2120N+99999MA1999999093251MD1999999-0061REMSYN076AAXX  09034 42111 32996 02301 10178 20185 39325 40066 333 10318 20216 59006;EQDQ01  00002PRCP99Q02 +02162ATMN  
0189421110999992000050906004+30320+078030FM-12+068299999V0202701N000512200019N0040001N1+03161+01991100561ADDAA199000091GA1021+012009029GF102991021011012501001001MA1999999093251MD1999999-0041REMSYN076AAXX  09064 42111 32696 22701 10316 20199 39325 40056 82100 333 59004 82840;EQDQ01  00002PRCP99
0189421110999992000050909004+30320+078030FM-12+068299999V0202701N000512200019N0040001N1+03281+02001100331ADDAA199000091GA1031+012009029GF103991031021012501001001MA1999999093071MD1999999-0051REMSYN076AAXX  09094 42111 32696 32701 10328 20200 39307 40033 83200 333 59005 83840;EQDQ01  00002PRCP99
0214421110999992000050912004+30320+078030FM-12+068299999V0201801N001012200019N0040001N1+03201+01901100161ADDAA199000091GA1011+012009089GF103991011011012501031001KA1120M+03371MA1999999092881MD1999999-0171REMSYN088AAXX  09124 42111 32696 31802 10320 20190 39288 40016 81130 333 10337 59017 81840 83360;EQDQ01  00002PRCP99
0195421110999992000050915004+30320+078030FM-12+068299999V0209999C00001036001CN0040001N1+02661+02141100361ADDAA199000091GA1021+010509069GF106991021051012501031001MA1999999092941MD1999999-0131REMSYN082AAXX  09154 42111 32696 60000 10266 20214 39294 40036 82530 333 59013 82635 86360;EQDQ01  00002PRCP99
0189421110999992000050921004+30320+078030FM-12+068299999V0200501N001012200019N0040001N1+02381+01931100471ADDAA199000091GA1031+030009079GF103991031001999999031001MA1999999092981MD1999999-0241REMSYN076AAXX  09214 42111 32996 30502 10238 20193 39298 40047 83030 333 59024 83360;EQDQ01  00002PRCP99
0195421110999992000051000004+30320+078030FM-12+068299999V0200501N000512200019N0040001N1+02301+01841100531ADDAA199000091GA1011+010509069GF104991011051012501031001MA1999999093011MD1999999-0191REMSYN082AAXX  10004 42111 32696 40501 10230 20184 39301 40053 81530 333 59019 81635 83360;EQDQ01  00002PRCP99
0233421110999992000051003004+30320+078030FM-12+068299999V0200501N000512200019N0040001N1+03041+01951100481ADDAA199000091GA1011+012009089GF103991011011012501031001KA1120M+03371KA2120N+02281MA1999999093151MD1999999-0101REMSYN094AAXX  10034 42111 32696 30501 10304 20195 39315 40048 81130 333 10337 20228 59010 81840 83360;EQDQ01  00002PRCP99
0189421110999992000051006004+30320+078030FM-12+068299999V0202301N000512200019N0040001N1+03241+01881100401ADDAA199000091GA1021+012009029GF102991021011012501001001MA1999999093121MD1999999-0131REMSYN076AAXX  10064 42111 32696 22301 10324 20188 39312 40040 82100 333 59013 82840;EQDQ01  00002PRCP99
0242421110999992000051012004+30320+078030FM-12+068299999V0203201N000512200019N0020001N1+03301+02091100091ADDAA199000091AY111061AY211061GA1011+012009089GF103991011011012501001011KA1120M+03451MA1999999092841MD1999999-0041MW1051REMSYN094AAXX  10124 42111 31695 33201 10330 20209 39284 40009 70511 81101 333 10345 59004 81840 83075;EQDQ01  00002PRCP99
0195421110999992000051015004+30320+078030FM-12+068299999V0209999C000019999999N0040001N1+02861+02231100191ADDAA199000091GA1021+030009039GF106991021001999999031011MA1999999092841MD1999999-0101REMSYN082AAXX  10154 42111 32996 60000 10286 20223 39284 40019 82031 333 59010 82360 85075;EQDQ01  00002PRCP99
0195421110999992000051018004+30320+078030FM-12+068299999V0200501N001019999999N0040001N1+02741+02001100281ADDAA199000091GA1021+030009039GF106991021001999999031011MA1999999092901MD1999999-0141REMSYN082AAXX  10184 42111 32996 60502 10274 20200 39290 40028 82031 333 59014 82360 85075;EQDQ01  00002PRCP99
0189421110999992000051021004+30320+078030FM-12+068299999V0200501N000510360019N0040001N1+02601+02041100271ADDAA199000091GA1021+010509059GF105991021051012501071001MA1999999092841MD1999999-0141REMSYN076AAXX  10214 42111 32696 50501 10260 20204 39284 40027 82570 333 59014 82635;EQDQ01  00002PRCP99
0195421110999992000051100004+30320+078030FM-12+068299999V0200501N00051036001CN0040001N1+02501+02031100311ADDAA199000091GA1021+010509069GF106991021051012501071001MA1999999092861MD1999999-0151REMSYN082AAXX  11004 42111 32696 60501 10250 20203 39286 40031 82570 333 59015 82635 85460;EQDQ01  00002PRCP99
0261421110999992000051103004+30320+078030FM-12+068299999V0203201N000512200019N0040001N1+02901+02151100351ADDAA199000091AY121031AY211031GA1011+010509069GF103991011051012501031001KA1120M+03441KA2120N+02481MA1999999092981MD1999999-0171MW1051REMSYN100AAXX  11034 42111 31696 33201 10290 20215 39298 40035 70521 81530 333 10344 20248 59017 81635 83360;EQDQ01  00002PRCP99
0217421110999992000051106004+30320+078030FM-12+068299999V0202301N001012200019N0020001N1+03321+01981100201ADDAA199000091AY111061AY201061GA1011+012009029GF101991011011012501001001MA1999999092961MD1999999-0161MW1051REMSYN082AAXX  11064 42111 31695 12302 10332 20198 39296 40020 70510 81100 333 59016 81840;EQDQ01  00002PRCP99
0217421110999992000051109004+30320+078030FM-12+068299999V0209999C000019999999N0020001N1+03501+02161099901ADDAA199000091AY121031AY211031GA1021+012009089GF105991999999012501999999MA1999999092701MD1999999-0191MW1061REMSYN082AAXX  11094 42111 31695 50000 10350 20216 39270 49990 70621 333 59019 82840 85075;EQDQ01  00002PRCP99
0177421110999992000051121004+30320+078030FM-12+068299999V0200501N000512200019N0040001N1+02581+02051100121ADDAA199000091GA1001+999999999GF100991001001999999001001MA1999999092701MD1999999-0141REMSYN064AAXX  11214 42111 32996 00501 10258 20205 39270 40012 333 59014;EQDQ01  00002PRCP99
0186421110999992000051200004+30320+078030FM-12+068299999V0200501N000512200019N0040001N1+02561+02061999999ADDAA199000091GA1001+999999999GF100991001001999999001001MA1999999092721MD1999999-0141ME1100159REMSYN064AAXX  12004 42111 32996 00501 10256 20206 39272 41015 333 59014;EQDQ01  00002PRCP99
0217421110999992000051206004+30320+078030FM-12+068299999V0202301N000512200019N0020001N1+03401+02081100171ADDAA199000091AY111061AY211061GA1031+075009019GF103991001001999999001011MA1999999092931MD1999999-0031MW1051REMSYN082AAXX  12064 42111 31995 32301 10340 20208 39293 40017 70511 80001 333 59003 83075;EQDQ01  00002PRCP99
0221421110999992000051218004+30320+078030FM-12+068299999V0200501N00101036001CN0040001N1+02321+01991100451ADDAA100040991AA215041091AY191061AY261061GA1041+010509069GF107991041051012501021001MA1999999092961MD1999999+0231MW1021REMSYN094AAXX  12184 42111 21696 70502 10232 20199 39296 40045 70296 84520 333 58023 6041/ 84635 86460;
0193421110999992000051221004+30320+078030FM-12+068299999V0200501N00101036001CN0040001N1+02281+02011100541ADDAA100040991AA218041091GA1041+009609069GF108991041051012501021999MA1999999092921MD1999999+0221REMSYN088AAXX  12214 42111 22696 80502 10228 20201 39292 40054 8452/ 333 58022 6041/ 84632 87460;
0193421110999992000051300004+30320+078030FM-12+068299999V0200501N001010096019N0040001N1+02221+02041100381ADDAA100040991AA221041091GA1061+009609069GF108991061051012501021999MA1999999092871MD1999999+0151REMSYN088AAXX  13004 42111 22696 80502 10222 20204 39287 40038 8652/ 333 58015 6041/ 86632 87460;
0259421110999992000051303004+30320+078030FM-12+068299999V0202701N00051036001CN0040001N1+02361+02131100491ADDAA100040991AA224041091AY121031AY221031GA1041+009009069GF107991041051012501071999KA1120M+03561KA2120N+01981MA1999999093001MD1999999+0111MW1501REMSYN106AAXX  13034 42111 21696 72701 10236 20213 39300 40049 75022 8457/ 333 10356 20198 58011 6041/ 84630 86460;
0204421110999992000051306004+30320+078030FM-12+068299999V0202301N00051036001CN0040001N1+02901+02281100501ADDAA199000021AY151061AY221061GA1031+010509069GF106991041081012501031001MA1999999093121MD1999999+0191MW1021REMSYN088AAXX  13064 42111 31696 62301 10290 20228 39312 40050 70252 84830 333 58019 83635 85360;
0223421110999992000051312004+30320+078030FM-12+068299999V0209999C00001036001CN0040001N1+02801+02231100201ADDAA199000021AY121061AY221061GA1031+010509069GF106991031061012501071001KA1120M+02961MA1999999092831MD1999999+0001MW1051REMSYN094AAXX  13124 42111 31696 60000 10280 20223 39283 40020 70522 83670 333 10296 58000 83635 85460;
0170421110999992000051315004+30320+078030FM-12+068299999V0200501N000512200019N0040001N1+02521+01981100321ADDAA199000021GA1031+030009079GF103991031001999999031001MA1999999092891MD1999999+0301REMSYN076AAXX  13154 42111 32996 30501 10252 20198 39289 40032 83030 333 58030 83360;
0189421110999992000051318004+30320+078030FM-12+068299999V0209999C000012200019N0040001N1+02381+02151100361ADDAA199000091GA1021+030009079GF102991021001999999031001MA1999999092881MD1999999-0121REMSYN076AAXX  13184 42111 32996 20000 10238 20215 39288 40036 82030 333 59012 82360;EQDQ01  00002PRCP99
0189421110999992000051321004+30320+078030FM-12+068299999V0203201N000512200019N0040001N1+02241+02001100311ADDAA199000091GA1011+030009079GF101991011001999999031001MA1999999092801MD1999999-0121REMSYN076AAXX  13214 42111 32996 13201 10224 20200 39280 40031 81030 333 59012 81360;EQDQ01  00002PRCP99
0189421110999992000051400004+30320+078030FM-12+068299999V0209999C000012200019N0040001N1+02161+01981100291ADDAA199000091GA1011+030009079GF101991011001999999031001MA1999999092731MD1999999-0141REMSYN076AAXX  14004 42111 32996 10000 10216 20198 39273 40029 81030 333 59014 81360;EQDQ01  00002PRCP99
0227421110999992000051403004+30320+078030FM-12+068299999V0203201N000512200019N0040001N1+02781+02011100171ADDAA199000091GA1021+030009079GF102991021001999999031001KA1120M+02961KA2120N+02141MA1999999092801MD1999999-0201REMSYN088AAXX  14034 42111 32996 23201 10278 20201 39280 40017 82030 333 10296 20214 59020 82360;EQDQ01  00002PRCP99
0189421110999992000051409004+30320+078030FM-12+068299999V0202701N000512200019N0040001N1+03421+02031099761ADDAA199000091GA1021+012009029GF102991021021012501001001MA1999999092571MD1999999-0441REMSYN076AAXX  14094 42111 32696 22701 10342 29203 39257 49976 82200 333 59044 82840;EQDQ01  00002PRCP99
0223421110999992000051412004+30320+078030FM-12+068299999V0202701N00051036001CN0020001N1+03281+02231099671ADDAA199000091AY121061AY211061GA1021+012009089GF105991021021012501031001MA1999999092451MD1999999-0381MW1051REMSYN088AAXX  14124 42111 31695 52701 10328 20223 39245 49967 70521 82230 333 59038 82840 85360;EQDQ01  00002PRCP99
0245421110999992000051415004+30320+078030FM-12+068299999V0209999C00001036001CN0040001N1+02921+02421099971ADDAA199000091AY121031AY221031GA1031+009009069GA2011+011409099GF106991041091008001031001MA1999999092661MD1999999-0231MW1131REMSYN094AAXX  14154 42111 31596 60000 10292 20242 39266 49997 71322 84930 333 59023 83630 81938 85360;EQDQ01  00002PRCP99
0223421110999992000051418004+30320+078030FM-12+068299999V0209999C000012200019N0020001N1+02721+02381100051ADDAA199000091AY191061AY221061GA1021+030009039GF104991021001999999031011MA1999999092691MD1999999-0191MW1021REMSYN088AAXX  14184 42111 31995 40000 10272 20238 39269 40005 70292 82031 333 59019 82360 83075;EQDQ01  00002PRCP99
0239421110999992000051500004+30320+078030FM-12+068299999V0203201N000512200019N0020001N1+02501+02211100021ADDAA199000091AY111061AY211061GA1021+030009039GF103991999001999999031001MA1999999092581MD1999999-0151MW1051REMSYN088AAXX  15004 42111 31995 33201 10250 20221 39258 40002 70511 82030 333 59015 82360 83075;EQDQ01+000022SCOTLCQ02  00002PRCP99
0255421110999992000051503004+30320+078030FM-12+068299999V0209999C000012200019N0020001N1+02801+02291100101ADDAA199000091AY111031AY211031GA1031+075009019GF103991001001999999001011KA1120M+03481KA2120N+02451MA1999999092731MD1999999-0071MW1051REMSYN094AAXX  15034 42111 31995 30000 10280 20229 39273 40010 70511 80001 333 10348 20245 59007 83075;EQDQ01  00002PRCP99
0217421110999992000051506004+30320+078030FM-12+068299999V0202301N001010750019N0020001N1+03141+02291099921ADDAA199000091AY111061AY211061GA1051+075009019GF105991001001999999001011MA1999999092661MD1999999-0101MW1051REMSYN082AAXX  15064 42111 31995 52302 10314 20229 39266 49992 70511 80001 333 59010 85075;EQDQ01  00002PRCP99
0221421110999992000051509004+30320+078030FM-12+068299999V0209999C000010360019N0020001N1+03161+02621099781ADDAA100000191AA206000291AY191031AY261031GA1021+010509069GF107991041081012501071001MA1999999092521MD1999999-0051MW1291REMSYN094AAXX  15094 42111 21695 70000 10316 20262 39252 49978 72996 84870 333 59005 6992/ 82635 82840;
0221421110999992000051515004+30320+078030FM-12+068299999V0209999C000012200019N0040001N1+02281+02131100131ADDAA100005192AA212005092AY191031AY261031GA1011+009609069GF104991021081012501031001MA1999999092641MD1999999-0021MW1021REMSYN094AAXX  15154 42111 21696 40000 10228 20213 39264 40013 70296 82830 333 59002 6005/ 81632 83360;
0265421110999992000051518004+30320+078030FM-12+068299999V0209999C00001012001CN0040001N1+02241+02061100241ADDAA100005192AA215005092AY191061AY261061GA1011+010509069GA2011+012009099GA3031+012009089GF106991041091012501031001MA1999999092731MD1999999+0041MW1131REMSYN106AAXX  15184 42111 21696 60000 10224 20206 39273 40024 71396 84930 333 58004 6005/ 81635 83840 81940 85360;
0243421110999992000051521004+30320+078030FM-12+068299999V0200501N00101036001CN0040001N1+02121+01911100001ADDAA100007192AA218007092AY191031AY261031GA1021+010509069GA2011+012009099GF107991031091012501071001MA1999999092481MD1999999-0151MW1291REMSYN100AAXX  15214 42111 21696 70502 10212 20191 39248 40000 72996 83970 333 59015 6007/ 82635 81940 86460;
0215421110999992000051600004+30320+078030FM-12+068299999V0209999C000012200019N0040001N1+02001+01721099981ADDAA100007192AA221007092AY191061AY261061GA1021+030009079GF102991021001999999031001MA1999999092481MD1999999-0101MW1021REMSYN088AAXX  16004 42111 21996 20000 10200 20172 39248 49998 70296 82030 333 59010 6007/ 82360;
0243421110999992000051609004+30320+078030FM-12+068299999V0209999C000010360019N0020001N1+03161+02621099781ADDAA100000191AA206000291AY191031AY261031GA1021+010509069GA2021+999999049GF107991041081012501071001MA1999999092501MD1999999-0051MW1291REMSYN100AAXX  16094 42111 21695 70000 10316 20262 3925/ 49978 72996 84870 333 59005 6992/ 82635 8240/ 86460;
0177421110999992000051615004+30320+078030FM-12+068299999V0200501N001012200019N0040001N1+02721+01881099781ADDAA199000091GA1001+999999999GF100991001001999999001001MA1999999092441MD1999999-0201REMSYN064AAXX  16154 42111 32996 00502 10272 20188 39244 49978 333 59020;EQDQ01  00002PRCP99
0177421110999992000051621004+30320+078030FM-12+068299999V0200501N001012200019N0040001N1+02221+01581099921ADDAA199000091GA1001+999999999GF100991001001999999001001MA1999999092451MD1999999-0031REMSYN064AAXX  16214 42111 32996 00502 10222 20158 39245 49992 333 59003;EQDQ01  00002PRCP99
0177421110999992000051700004+30320+078030FM-12+068299999V0200501N001012200019N0040001N1+02181+01541099921ADDAA199000091GA1001+999999999GF100991001001999999001001MA1999999092421MD1999999-0061REMSYN064AAXX  17004 42111 32996 00502 10218 20154 39242 49992 333 59006;EQDQ01  00002PRCP99
0243421110999992000051703004+30320+078030FM-12+068299999V0209999C000012200019N0040001N1+03041+01721099831ADDAA199000091AY101031AY201031GA1001+999999999GF100991001001999999001001KA1120M+03451KA2120N+02121MA1999999092551MD1999999-0141MW1051REMSYN082AAXX  17034 42111 31996 00000 10304 20172 39255 49983 70500 333 10345 20212 59014;EQDQ01  00002PRCP99
0217421110999992000051706004+30320+078030FM-12+068299999V0203201N001012200019N0020001N1+03261+02111099801ADDAA199000091AY111061AY211061GA1011+012009029GF101991011011999999001001MA1999999092551MD1999999-0131MW1051REMSYN082AAXX  17064 42111 31995 13202 10326 20211 39255 49980 70511 81100 333 59013 81840;EQDQ01  00002PRCP99
0217421110999992000051709004+30320+078030FM-12+068299999V0201801N001012200019N0020001N1+03381+02221099541ADDAA199000091AY121031AY221031GA1021+012009029GF102991021011012501001001MA1999999092341MD1999999-0231MW1051REMSYN082AAXX  17094 42111 31695 21802 10338 20222 39234 49954 70522 82100 333 59023 82840;EQDQ01  00002PRCP99
0242421110999992000051712004+30320+078030FM-12+068299999V0209999C00001036001CN0020001N1+03301+02471099321ADDAA199000091AY121061AY211061GA1021+010509069GF106991021051012501071001KA1120M+03451MA1999999092111MD1999999-0311MW1051REMSYN094AAXX  17124 42111 31695 60000 10330 20247 39211 49932 70521 82570 333 10345 59031 82635 85360;EQDQ01  00002PRCP99
0205421110999992000051715004+30320+078030FM-12+068299999V0200501N000512200019N0020001N1+02861+02321099471ADDAA199000091AY121031AY221031GA1001+999999999GF100991001001999999001001MA1999999092171MD1999999-0271MW1051REMSYN070AAXX  17154 42111 32995 00501 10286 20232 39217 49947 70522 333 59027;EQDQ01  00002PRCP99
0177421110999992000051718004+30320+078030FM-12+068299999V0209999C000012200019N0040001N1+02621+01831099591ADDAA199000091GA1001+999999999GF100991001001999999001001MA1999999092241MD1999999-0231REMSYN064AAXX  17184 42111 32996 00000 10262 20183 39224 49959 333 59023;EQDQ01  00002PRCP99
0177421110999992000051721004+30320+078030FM-12+068299999V0200501N000512200019N0040001N1+02421+01741099661ADDAA199000091GA1001+999999999GF100991001001999999001001MA1999999092261MD1999999-0191REMSYN064AAXX  17214 42111 32996 00501 10242 20174 39226 49966 333 59019;EQDQ01  00002PRCP99
0209421110999992000051800004+30320+078030FM-12+068299999V0209999C000012200019N0040001N1+02261+01801999999ADDAA199000091GA1001+999999999GF100991001001999999001001MA1999999092241MD1999999-0181REMSYN064AAXX  18004 42111 32996 00000 10226 20180 39224 40070 333 59018;EQDQ01+100703APOSLPQ02  00002PRCP99Q03 100703APOSLP
0227421110999992000051803004+30320+078030FM-12+068299999V0202301N000512200019N0040001N1+02961+01851099671ADDAA199000091GA1011+030009079GF101991011001999999031001KA1120M+03441KA2120N+02251MA1999999092381MD1999999-0171REMSYN088AAXX  18034 42111 31996 12301 10296 20185 39238 49967 81030 333 10344 20225 59017 81360;EQDQ01  00002PRCP99
0217421110999992000051806004+30320+078030FM-12+068299999V0201401N000512200019N0020001N1+03381+02471099631ADDAA199000091AY121061AY221061GA1011+012009029GF101991011011012501001001MA1999999092431MD1999999-0121MW1051REMSYN082AAXX  18064 42111 31695 11401 10338 20247 39243 49963 70522 81100 333 59012 81840;EQDQ01  00002PRCP99
0217421110999992000051809004+30320+078030FM-12+068299999V0202301N001012200019N0020001N1+03501+01881099401ADDAA199000091AY101031AY201031GA1011+012009029GF101991011011012501001001MA1999999092241MD1999999-0101MW1051REMSYN082AAXX  18094 42111 31695 12302 10350 20188 39224 49940 70500 81100 333 59010 81840;EQDQ01  00002PRCP99
0242421110999992000051812004+30320+078030FM-12+068299999V0201401N000512200019N0040001N1+03421+01741099211ADDAA199000091AY111061AY211061GA1011+012009089GF103991011011012501031001KA1120M+03551MA1999999092071MD1999999-0041MW1051REMSYN094AAXX  18124 42111 31696 31401 10342 20174 39207 49921 70511 81130 333 10355 59004 81840 83360;EQDQ01  00002PRCP99
0245421110999992000051815004+30320+078030FM-12+068299999V0200501N001012200019N0040001N1+02901+01391099461ADDAA199000091AY121031AY221031GA1021+010509069GA2011+011709099GF104991031091012501031001MA1999999092161MD1999999-0011MW1131REMSYN094AAXX  18154 42111 31696 40502 10290 20139 39216 49946 71322 83930 333 59001 82635 81939 83360;EQDQ01  00002PRCP99
0195421110999992000051900004+30320+078030FM-12+068299999V0203201N001012200019N0040001N1+02321+01661099711ADDAA199000091GA1021+010509069GF103991021051012501031001MA1999999092281MD1999999+0041REMSYN082AAXX  19004 42111 32696 33202 10232 20166 39228 49971 82530 333 58004 82635 83360;EQDQ01  00002PRCP99
0255421110999992000051903004+30320+078030FM-12+068299999V0202701N000512200019N0040001N1+02941+02001099711ADDAA199000091AY111031AY211031GA1021+030009079GF102991021001999999031001KA1120M+03551KA2120N+02271MA1999999092421MD1999999-0041MW1051REMSYN094AAXX  19034 42111 31996 22701 10294 20200 39242 49971 70511 82030 333 10355 20227 59004 82360;EQDQ01  00002PRCP99
0217421110999992000051909004+30320+078030FM-12+068299999V0203201N000512200019N0020001N1+03721+01761099241ADDAA199000091AY121031AY201031GA1031+012009029GF103991031021012501001001MA1999999092161MD1999999-0081MW1051REMSYN082AAXX  19094 42111 31695 33201 10372 20176 39216 49924 70520 83200 333 59008 83840;EQDQ01  00002PRCP99
0236421110999992000051912004+30320+078030FM-12+068299999V0202301N001012200019N0040001N1+03601+01551099081ADDAA199000091AY111061AY211061GA1011+012009029GF101991011011012501001001KA1120M+03721MA1999999091961MD1999999-0111MW1051REMSYN088AAXX  19124 42111 31696 12302 10360 20155 39196 49908 70511 81100 333 10372 59011 81840;EQDQ01  00002PRCP99
0177421110999992000051915004+30320+078030FM-12+068299999V0200501N000512200019N0040001N1+02901+01951099361ADDAA199000091GA1001+999999999GF100991001001999999001001MA1999999092071MD1999999-0091REMSYN064AAXX  19154 42111 32996 00501 10290 20195 39207 49936 333 59009;EQDQ01  00002PRCP99
0193421110999992000051918004+30320+078030FM-12+068299999V0203201N000512200019N0040001N1+02741+01691100532ADDAA199000091GA1001+999999999GF100991001001999999001001MA1999999092201MD1999999-0061REMSYN064AAXX  19184 42111 32996 03201 10274 20169 39220 40053 333 59006;EQDQ01+100533APOSLPQ02  00002PRCP99
0161421110999992000052000004+30320+078030FM-12+068299999V0200501N000512200019N0040001N1+02481+01521099741ADDAA199000091GF101991999999999999999999MA1999999092321MD1999999-0041REMSYN064AAXX  20004 42111 32996 10501 10248 20152 39232 49974 333 59004;EQDQ01  00002PRCP99
0243421110999992000052003004+30320+078030FM-12+068299999V0209999C000012200019N0020001N1+03141+01931099721ADDAA199000091AY101031AY201031GA1001+999999999GF100991001001999999001001KA1120M+03721KA2120N+02321MA1999999092481MD1999999+0061MW1051REMSYN082AAXX  20034 42111 31995 00000 10314 20193 39248 49972 70500 333 10372 20232 58006;EQDQ01  00002PRCP99
0245421110999992000052009004+30320+078030FM-12+068299999V0201801N001010114019N0040001N1+03401+02241099541ADDAA199000091AY121031AY211031GA1041+009009069GA2011+011409099GF107991051091008001071001MA1999999092341MD1999999+0181MW1171REMSYN094AAXX  20094 42111 31596 71802 10340 20224 39234 49954 71721 85970 333 58018 84630 81938 86360;EQDQ01  00002PRCP99
0192421110999992000052018004+30320+078030FM-12+068299999V0202701N001012200019N0040001N1+02221+01961099981ADDAA100005191AY191061AY261061GA1001+999999999GF100991001001999999001001MA1999999092501MD1999999+0301MW1001REMSYN076AAXX  20184 42111 21996 02702 10222 20196 39250 49998 70096 333 58030 6005/;
0187421110999992000052021004+30320+078030FM-12+068299999V0202301N000512200019N0040001N1+02201+01961100041ADDAA100005192AA218005092GA1011+010509059GF103991021081012501031001MA1999999092521MD1999999+0301REMSYN082AAXX  20214 42111 22696 32301 10220 20196 39252 40004 82830 333 58030 6005/ 81635;
0187421110999992000052100004+30320+078030FM-12+068299999V0209999C000012200019N0040001N1+02101+01891100071ADDAA100005192AA221005092GA1011+012009029GF102991011011012501031001MA1999999092531MD1999999+0211REMSYN082AAXX  21004 42111 22696 20000 10210 20189 39253 40007 81130 333 58021 6005/ 81840;
0202421110999992000052103004+30320+078030FM-12+068299999V0201401N000512200019N0040001N1+02821+01761100081ADDAA100005191GA1001+999999999GF100991001001999999001001KA1120M+03501KA2120N+02081MA1999999092711MD1999999+0231REMSYN082AAXX  21034 42111 22996 01401 10282 20176 39271 40008 333 10350 20208 58023 6005/;
0195421110999992000052109004+30320+078030FM-12+068299999V0202301N001012200019N0040001N1+03141+02231099681ADDAA199000091GA1011+010509069GF103991031081012501001001MA1999999092441MD1999999+0101REMSYN082AAXX  21094 42111 32696 32302 10314 20223 39244 49968 83800 333 58010 81635 83840;EQDQ01  00002PRCP99
0214421110999992000052112004+30320+078030FM-12+068299999V0202301N001012200019N0040001N1+03021+02221099591ADDAA199000091GA1011+010509069GF103991031081012501001001KA1120M+03161MA1999999092321MD1999999-0141REMSYN088AAXX  21124 42111 32696 32302 10302 20222 39232 49959 83800 333 10316 59014 81635 83840;EQDQ01  00002PRCP99
0177421110999992000052115004+30320+078030FM-12+068299999V0209999C000012200019N0040001N1+02661+02231099691ADDAA199000091GA1001+999999999GF100991001001999999001001MA1999999092311MD1999999+0051REMSYN064AAXX  21154 42111 32996 00000 10266 20223 39231 49969 333 58005;EQDQ01  00002PRCP99
0177421110999992000052118004+30320+078030FM-12+068299999V0200501N000512200019N0040001N1+02401+02011099911ADDAA199000091GA1001+999999999GF100991001001999999001001MA1999999092461MD1999999-0041REMSYN064AAXX  21184 42111 32996 00501 10240 20201 39246 49991 333 59004;EQDQ01  00002PRCP99
0189421110999992000052121004+30320+078030FM-12+068299999V0200501N000512200019N0040001N1+02401+02141099931ADDAA199000091GA1021+030009079GF102991021001999999031001MA1999999092481MD1999999-0041REMSYN076AAXX  21214 42111 32996 20501 10240 20214 39248 49993 82030 333 59004 82360;EQDQ01  00002PRCP99
0195421110999992000052200004+30320+078030FM-12+068299999V0203201N00051036001CN0040001N1+02421+02221099901ADDAA199000091GA1011+010509069GF105991011051012501071001MA1999999092401MD1999999-0051REMSYN082AAXX  22004 42111 32696 53201 10242 20222 39240 49990 81570 333 59005 81635 84460;EQDQ01  00002PRCP99
0261421110999992000052203004+30320+078030FM-12+068299999V0202301N000510105019N0020001N1+02561+02271100051ADDAA199000091AY121031AY221031GA1051+010509069GF108991051051012501071999KA1120M+03161KA2120N+02391MA1999999092641MD1999999-0071MW1051REMSYN100AAXX  22034 42111 31695 82301 10256 20227 39264 40005 70522 8557/ 333 10316 20239 59007 85635 87460;EQDQ01  00002PRCP99
0195421110999992000052206004+30320+078030FM-12+068299999V0200501N00051036001CN0040001N1+02621+02281100161ADDAA199000091GA1031+010509069GF108991031051012501021999MA1999999092761MD1999999+0141REMSYN082AAXX  22064 42111 32696 80501 10262 20228 39276 40016 8352/ 333 58014 83635 87460;EQDQ01  00002PRCP99
0223421110999992000052209004+30320+078030FM-12+068299999V0201801N001019999999N0020001N1+03001+02291099921ADDAA199000091AY121031AY221031GA1031+012009089GF105991999999012501999999MA1999999092611MD1999999+0171MW1051REMSYN088AAXX  22094 42111 31695 51802 10300 20229 39261 49992 70522 93201 333 58017 83840 84075;EQDQ01  00002PRCP99
0242421110999992000052212004+30320+078030FM-12+068299999V0201401N000510360019N0020001N1+02901+02311099791ADDAA199000091AY121061AY221061GA1021+010509069GF105991041081012501031001KA1120M+03031MA1999999092471MD1999999+0151MW1051REMSYN094AAXX  22124 42111 31695 51401 10290 20231 39247 49979 70522 84830 333 10303 58015 82635 83840;EQDQ01  00002PRCP99
0189421110999992000052215004+30320+078030FM-12+068299999V0200501N000512200019N0040001N1+02581+02271099861ADDAA199000091GA1021+075009019GF102991001001999999001011MA1999999092461MD1999999+0151REMSYN076AAXX  22154 42111 32996 20501 10258 20227 39246 49986 80001 333 58015 82075;EQDQ01  00002PRCP99
0195421110999992000052221004+30320+078030FM-12+068299999V0201401N000512200019N0040001N1+02421+02221100091ADDAA199000091GA1011+010509069GF103991011051012501031001MA1999999092651MD1999999+0171REMSYN082AAXX  22214 42111 32696 31401 10242 20222 39265 40009 81530 333 58017 81635 83360;EQDQ01  00002PRCP99
0223421110999992000052300004+30320+078030FM-12+068299999V0201801N00051036001CN0020001N1+02401+02201100151ADDAA199000091AY121061AY221061GA1031+010509069GF106991031051012501071001MA1999999092691MD1999999+0211MW1051REMSYN088AAXX  23004 42111 31695 61801 10240 20220 39269 40015 70522 83570 333 58021 83635 85360;EQDQ01  00002PRCP99
0209421110999992000052309004+30320+078030FM-12+068299999V0209999C000012200019N0040001N1+02961+02311999999ADDAA100002091AA206002091AY121031AY221031GA1031+012009029GF103991031021012501001001MA1999999092681MD1999999+0071MW1051REMSYN082AAXX  23094 42111 21696 30000 10296 20231 39268 70522 83200 333 58007 6002/ 83840;
0187421110999992000052315004+30320+078030FM-12+068299999V0209999C000012200019N0040001N1+02641+02391099911ADDAA100002091AA212002091GA1021+030009079GF103991031001999999071001MA1999999092521MD1999999+0061REMSYN082AAXX  23154 42111 22996 30000 10264 20239 39252 49991 83070 333 58006 6002/ 82360;
0187421110999992000052318004+30320+078030FM-12+068299999V0209999C000019999999N0040001N1+02521+02321099981ADDAA100002091AA215002091GA1041+030009079GF106991061001999999071001MA1999999092571MD1999999-0021REMSYN082AAXX  23184 42111 22996 60000 10252 20232 39257 49998 86070 333 59002 6002/ 84360;
0193421110999992000052321004+30320+078030FM-12+068299999V0203201N000510105019N0040001N1+02501+02301100011ADDAA100002091AA218002091GA1051+010509069GF108991051051012501021999MA1999999092571MD1999999-0081REMSYN088AAXX  23214 42111 22696 83201 10250 20230 39257 40001 8552/ 333 59008 6002/ 85635 87460;
0193421110999992000052400004+30320+078030FM-12+068299999V0200501N000510105019N0040001N1+02461+02261100021ADDAA100002091AA221002091GA1051+010509069GF108991051051012501021999MA1999999092581MD1999999-0111REMSYN088AAXX  24004 42111 32696 80501 10246 20226 39258 40002 8552/ 333 59011 6002/ 85635 87460;
0245421110999992000052403004+30320+078030FM-12+068299999V0203201N00051036001CN0020001N1+02661+02231100001ADDAA100002091AA224002091AY121031AY221031GA1041+010509069GF107991041051012501071001KA1120M+03011KA2120N+02411MA1999999092611MW1051REMSYN106AAXX  24034 42111 21695 73201 10266 20223 39261 40000 70522 84570 333 10301 20241 5901/ 6002/ 84635 86460;
0245421110999992000052406004+30320+078030FM-12+068299999V0203201N00101036001CN0020001N1+03041+02341099851ADDAA199000091AY121061AY221061GA1021+010509069GA2021+012009089GF106991031081012501031001MA1999999092571MD1999999-0081MW1051REMSYN094AAXX  24064 42111 31695 63202 10304 20234 39257 49985 70522 83830 333 59008 82635 82840 85360;EQDQ01  00002PRCP99
0245421110999992000052409004+30320+078030FM-12+068299999V0203201N00101012001CN0020001N1+03301+02351099581ADDAA199000091AY121031AY221031GA1021+010509069GA2031+012009089GF105991041081012501031001MA1999999092361MD1999999-0321MW1051REMSYN094AAXX  24094 42111 31695 53202 10330 20235 39236 49958 70522 84830 333 59032 82635 83840 85360;EQDQ01  00002PRCP99
0242421110999992000052412004+30320+078030FM-12+068299999V0202301N00051015001CN0020001N1+03201+02451099441ADDAA199000091AY121061AY221061GA1041+010509069GF106991051081012501031001KA1120M+03321MA1999999092211MD1999999-0281MW1051REMSYN094AAXX  24124 42111 31695 62301 10320 20245 39221 49944 70522 85830 333 10332 59028 84635 86360;EQDQ01  00002PRCP99
0177421110999992000052415004+30320+078030FM-12+068299999V0200501N000512200019N0040001N1+02941+02441099491ADDAA199000091GA1001+999999999GF100991001001999999001001MA1999999092211MD1999999-0311REMSYN064AAXX  24154 42111 32996 00501 10294 20244 39221 49949 333 59031;EQDQ01  00002PRCP99
0223421110999992000052500004+30320+078030FM-12+068299999V0209999C00001090001CN0020001N1+02581+02351099641ADDAA199000091AY121061AY221061GA1031+010509069GF106991031051012501001021MA1999999092261MD1999999-0321MW1051REMSYN088AAXX  25004 42111 31695 60000 10258 20235 39226 49964 70522 83502 333 59032 83635 85075;EQDQ01  00002PRCP99
0261421110999992000052503004+30320+078030FM-12+068299999V0202301N00101036001CN0020001N1+02861+02471099671ADDAA199000091AY121031AY221031GA1031+010509069GF106991031051012501071001KA1120M+03321KA2120N+02531MA1999999092351MD1999999-0261MW1051REMSYN100AAXX  25034 42111 31695 62302 10286 20247 39235 49967 70522 83570 333 10332 20253 59026 83635 85360;EQDQ01  00002PRCP99
0245421110999992000052506004+30320+078030FM-12+068299999V0202301N001010120019N0020001N1+03121+02551099521ADDAA199000091AY121061AY221061GA1031+009009069GA2031+012009089GF106991051081008001031001MA1999999092291MD1999999-0281MW1051REMSYN094AAXX  25064 42111 31595 62302 10312 20255 39229 49952 70522 85830 333 59028 83630 83840 85360;EQDQ01  00002PRCP99
0245421110999992000052509004+30320+078030FM-12+068299999V0203201N000510120019N0020001N1+03241+02531099331ADDAA199000091AY121031AY221031GA1031+009609069GA2031+012009089GF107991051081012501071001MA1999999092121MD1999999-0241MW1051REMSYN094AAXX  25094 42111 31695 73201 10324 20253 39212 49933 70522 85870 333 59024 83632 83840 86460;EQDQ01  00002PRCP99
0240421110999992000052512004+30320+078030FM-12+068299999V0209999C00001036001CN0020001N1+02481+02341099431ADDAA100011991AA209012091AY191061AY261061GA1031+010509069GF106991031051012501071001KA1120M+03301MA1999999092041MD1999999-0171MW1291REMSYN100AAXX  25124 42111 21695 60000 10248 20234 39204 49943 72996 83570 333 10330 59017 6012/ 83635 85460;
0243421110999992000052515004+30320+078030FM-12+068299999V0209999C000010105019N0040001N1+02621+02451099501ADDAA100011991AA212012091AY191031AY261031GA1041+009009069GA2021+010509099GF108991061091008001021999MA1999999092151MD1999999-0061MW1951REMSYN100AAXX  25154 42111 21596 80000 10262 20245 39215 49950 79596 8692/ 333 59006 6012/ 84630 82935 87458;
0209421110999992000052518004+30320+078030FM-12+068299999V0200501N00101009001CN0040001N1+02361+02061099671ADDAA115014091GA1051+009009069GA2011+010509099GF108991999999008001999999MA1999999092241MD1999999+0011REMSYN099AAXX  25184 42111 21596 80502 10236 20206 39224 49967 7956 8692/ 333 58001 6014/ 85630 81935 87460;
0164421110999992000052521004+30320+078030FM-12+068299999V0200501N000512200019N0040001N1+02201+01931099501ADDAA100014091GA1001+999999999GF100991001001999999001001MA1999999092031MD1999999-0211REMSYN070AAXX  25214 42111 22996 00501 10220 20193 39203 49950 333 59021 6014/;
0192421110999992000052600004+30320+078030FM-12+068299999V0209999C000012200019N0020001N1+02161+01921099451ADDAA100014091AY101061AY201061GA1001+999999999GF100991001001999999001001MA1999999091981MD1999999-0281MW1051REMSYN076AAXX  26004 42111 21995 00000 10216 20192 39198 49945 70500 333 59028 6014/;
0230421110999992000052603004+30320+078030FM-12+068299999V0201801N000512200019N0020001N1+02721+01701099511ADDAA100014091AY101031AY201031GA1001+999999999GF100991001001999999001001KA1120M+03301KA2120N+02061MA1999999092181MD1999999-0171MW1051REMSYN088AAXX  26034 42111 21995 01801 10272 20170 39218 49951 70500 333 10330 20206 59017 6014/;
0205421110999992000052606004+30320+078030FM-12+068299999V0200501N000512200019N0020001N1+03081+02471099481ADDAA199000091AY101061AY201061GA1001+999999999GF100991001001999999001001MA1999999092201MD1999999-0091MW1051REMSYN070AAXX  26064 42111 31995 00501 10308 20247 39220 49948 70500 333 59009;EQDQ01  00002PRCP99
0205421110999992000052609004+30320+078030FM-12+068299999V0201401N000512200019N0020001N1+03441+01991099161ADDAA199000091AY101031AY201031GA1001+999999999GF100991001001999999001001MA1999999092021MD1999999-0101MW1051REMSYN070AAXX  26094 42111 31995 01401 10344 20199 39202 49916 70500 333 59010;EQDQ01  00002PRCP99
0224421110999992000052612004+30320+078030FM-12+068299999V0201401N000512200019N0020001N1+03421+02361099081ADDAA199000091AY101061AY201061GA1001+999999999GF100991001001999999001001KA1120M+03511MA1999999091941MD1999999-0101MW1051REMSYN076AAXX  26124 42111 31995 01401 10342 20236 39194 49908 70500 333 10351 59010;EQDQ01  00002PRCP99
0205421110999992000052615004+30320+078030FM-12+068299999V0200501N001012200019N0020001N1+02961+02061099331ADDAA199000091AY101031AY201031GA1001+999999999GF100991001001999999001001MA1999999092071MD1999999-0081MW1051REMSYN070AAXX  26154 42111 31995 00502 10296 20206 39207 49933 70500 333 59008;EQDQ01  00002PRCP99
0177421110999992000052618004+30320+078030FM-12+068299999V0200501N001012200019N0040001N1+02701+01821099491ADDAA199000091GA1001+999999999GF100991001001999999001001MA1999999092141MD1999999-0101REMSYN064AAXX  26184 42111 32996 00502 10270 20182 39214 49949 333 59010;EQDQ01  00002PRCP99
0177421110999992000052700004+30320+078030FM-12+068299999V0200501N001012200019N0040001N1+02401+01611099631ADDAA199000091GA1001+999999999GF100991001001999999001001MA1999999092201MD1999999+0221REMSYN064AAXX  27004 42111 32996 00502 10240 20161 39220 49963 333 58022;EQDQ01  00002PRCP99
0243421110999992000052703004+30320+078030FM-12+068299999V0209999C000012200019N0020001N1+02981+02111099711ADDAA199000091AY101031AY201031GA1001+999999999GF100991001001999999001001KA1120M+03511KA2120N+02351MA1999999092421MD1999999+0241MW1051REMSYN082AAXX  27034 42111 31995 00000 10298 20211 39242 49971 70500 333 10351 20235 58024;EQDQ01  00002PRCP99
0205421110999992000052706004+30320+078030FM-12+068299999V0202301N000512200019N0020001N1+03341+02301099661ADDAA199000091AY101061AY201061GA1001+999999999GF100991001001999999001001MA1999999092461MD1999999+0261MW1051REMSYN070AAXX  27064 42111 31995 02301 10334 20230 39246 49966 70500 333 58026;EQDQ01  00002PRCP99
0205421110999992000052709004+30320+078030FM-12+068299999V0201401N000512200019N0020001N1+03541+02281099421ADDAA199000091AY101031AY201031GA1001+999999999GF100991001001999999001001MA1999999092291MD1999999+0271MW1051REMSYN070AAXX  27094 42111 31995 01401 10354 20228 39229 49942 70500 333 58027;EQDQ01  00002PRCP99
0262421110999992000052712004+30320+078030FM-12+068299999V0201801N00051036001CN0020001N1+03461+02471099321ADDAA100000791AA209999929AY191061AY261061GA1021+010509069GA2011+012009099GF105991031091012501071001KA1120M+03561MA1999999092161MD1999999+0221MW1951REMSYN106AAXX  27124 42111 21695 51801 10346 20247 39216 49932 79596 83970 333 10356 58022 6990/ 82635 81940 84460;
0243421110999992000052715004+30320+078030FM-12+068299999V0200501N00051036001CN0020001N1+03021+02371099521ADDAA100000592AA212000492AY191031AY261031GA1021+010509069GA2011+012009099GF105991031091012501071001MA1999999092271MD1999999+0201MW1131REMSYN100AAXX  27154 42111 21695 50501 10302 20237 39227 49952 71396 83970 333 58020 6994/ 82635 81940 84460;
0233421110999992000052803004+30320+078030FM-12+068299999V0201401N000512200019N0020001N1+02621+01831100051ADDAA100002091AA224002091AY101031AY211031GA1021+030009079GF102991021001999999031001KA1120M+03561KA2120N+02171MA1999999092661MW1051REMSYN094AAXX  28034 42111 21995 21401 10262 20183 39266 40005 70501 82030 333 10356 20217 6002/ 82360;
0205421110999992000052806004+30320+078030FM-12+068299999V0203201N000512200019N0020001N1+03281+01511099821ADDAA199000091AY101061AY201061GA1001+999999999GF100991001001999999001001MA1999999092581MD1999999+0121MW1051REMSYN070AAXX  28064 42111 31995 03201 10328 20151 39258 49982 70500 333 58012;EQDQ01  00002PRCP99
0205421110999992000052809004+30320+078030FM-12+068299999V0202301N001012200019N0020001N1+03501+01771099611ADDAA199000091AY101031AY201031GA1001+999999999GF100991001001999999001001MA1999999092441MD1999999+0151MW1051REMSYN070AAXX  28094 42111 31995 02302 10350 20177 39244 49961 70500 333 58015;EQDQ01  00002PRCP99
0224421110999992000052812004+30320+078030FM-12+068299999V0201401N000512200019N0020001N1+03441+02291099391ADDAA199000091AY101061AY201061GA1001+999999999GF100991001001999999001001KA1120M+03561MA1999999092231MD1999999+0071MW1051REMSYN076AAXX  28124 42111 31995 01401 10344 20229 39223 49939 70500 333 10356 58007;EQDQ01  00002PRCP99
0177421110999992000052818004+30320+078030FM-12+068299999V0209999C000012200019N0040001N1+02561+01821099841ADDAA199000091GA1001+999999999GF100991001001999999001001MA1999999092441MD1999999+0001REMSYN064AAXX  28184 42111 32996 00000 10256 20182 39244 49984 333 58000;EQDQ01  00002PRCP99
0217421110999992000052900004+30320+078030FM-12+068299999V0200501N000512200019N0020001N1+02401+01611099971ADDAA199000091AY101061AY201061GA1011+030009079GF102991011001999999031011MA1999999092511MD1999999+0251MW1051REMSYN082AAXX  29004 42111 31995 20501 10240 20161 39251 49997 70500 81031 333 58025 81360;EQDQ01  00002PRCP99
0261421110999992000052903004+30320+078030FM-12+068299999V0201401N00101036001CN0020001N1+02881+02001100061ADDAA199000091AY121031AY211031GA1031+010509069GF105991041081012501031001KA1120M+03561KA2120N+02351MA1999999092711MD1999999+0051MW1051REMSYN100AAXX  29034 42111 31695 51402 10288 20200 39271 40006 70521 84830 333 10356 20235 58005 83635 85360;EQDQ01  00002PRCP99
0223421110999992000052909004+30320+078030FM-12+068299999V0201401N00051036001CN0020001N1+03401+02341099731ADDAA199000091AY121031AY221031GA1021+010509069GF107991031081012501071001MA1999999092521MD1999999+0081MW1051REMSYN088AAXX  29094 42111 31695 71401 10340 20234 39252 49973 70522 83870 333 58008 82635 85360;EQDQ01  00002PRCP99
0262421110999992000052915004+30320+078030FM-12+068299999V0200501N00151036001CN0020001N1+02921+01431099711ADDAA100000791AA212999999AY161031AY221031GA1031+009009069GA2011+012009099GF107991041091008001071001MA1999999092421MD1999999+0071MW1131REMSYN100AAXX  29154 42111 21595 70503 10292 20143 39242 49971 71362 84970 333 58007 6990/ 83630 81940 86460;EQDQ01  99992PRCP12
0243421110999992000052918004+30320+078030FM-12+068299999V0203201N001010096019N0020001N1+02801+01581100061ADDAA100001091AA215001091AY191061AY261061GA1051+009609069GA2021+012009099GF108991061091012501021999MA1999999092701MD1999999+0261MW1951REMSYN100AAXX  29184 42111 21695 83202 10280 20158 39270 40006 79596 8692/ 333 58026 6001/ 85632 82940 87458;
0221421110999992000052921004+30320+078030FM-12+068299999V0200501N00051036001CN0040001N1+02321+02181099811ADDAA100001091AA218001091AY191031AY261031GA1021+010509069GF105991021051012501071001MA1999999092551MD1999999+0101MW1011REMSYN094AAXX  29214 42111 21696 50501 10232 20218 39255 49981 70196 82570 333 58010 6001/ 82635 85360;
0215421110999992000053000004+30320+078030FM-12+068299999V0209999C000012200019N0040001N1+02181+01741100141ADDAA100001091AA221001091AY191061AY261061GA1021+030009079GF102991021001999999031001MA1999999092621MD1999999+0111MW1021REMSYN088AAXX  30004 42111 21996 20000 10218 20174 39262 40014 70296 82030 333 58011 6001/ 82360;
0225421110999992000053003004+30320+078030FM-12+068299999V0202301N000512200019N0040001N1+02741+01761100171ADDAA100001091AA224001091GA1011+030009079GF101991011001999999031001KA1120M+03511KA2120N+02131MA1999999092801MD1999999+0091REMSYN094AAXX  30034 42111 22996 12301 10274 20176 39280 40017 81030 333 10351 20213 58009 6001/ 81360;
0158421110999992000053006004+30320+078030FM-12+068299999V0202301N000512200019N0040001N1+03201+01831100081ADDAA199000021GA1001+999999999GF100991001001999999001001MA1999999092801MD1999999+0091REMSYN064AAXX  30064 42111 32996 02301 10320 20183 39280 40008 333 58009;
0205421110999992000053009004+30320+078030FM-12+068299999V0202301N001012200019N0020001N1+03381+01871099861ADDAA199000091AY101031AY201031GA1001+999999999GF100991001001999999001001MA1999999092651MD1999999+0131MW1051REMSYN070AAXX  30094 42111 31995 02302 10338 20187 39265 49986 70500 333 58013;EQDQ01  00002PRCP99
0224421110999992000053012004+30320+078030FM-12+068299999V0203201N001012200019N0020001N1+03401+01831099661ADDAA199000091AY101061AY201061GA1001+999999999GF100991001001999999001001KA1120M+03491MA1999999092461MD1999999+0191MW1051REMSYN076AAXX  30124 42111 31995 03202 10340 20183 39246 49966 70500 333 10349 58019;EQDQ01  00002PRCP99
0177421110999992000053015004+30320+078030FM-12+068299999V0200501N000512200019N0040001N1+02801+02171099851ADDAA199000091GA1001+999999999GF100991001001999999001001MA1999999092501MD1999999+0081REMSYN064AAXX  30154 42111 32996 00501 10280 20217 39250 49985 333 58008;EQDQ01  00002PRCP99
0177421110999992000053018004+30320+078030FM-12+068299999V0200501N001012200019N0040001N1+02581+01821099981ADDAA199000091GA1001+999999999GF100991001001999999001001MA1999999092571MD1999999-0131REMSYN064AAXX  30184 42111 32996 00502 10258 20182 39257 49998 333 59013;EQDQ01  00002PRCP99
0243421110999992000053100004+30320+078030FM-12+068299999V0201401N001510114019N0020001N1+01921+01831100191ADDAA100030091AA221030091AY191061AY261061GA1041+000909069GA2011+011409099GF108991051091008001021999MA1999999092621MD1999999+0001MW1951REMSYN100AAXX  31004 42111 21595 81403 10192 20183 39262 40019 79596 8592/ 333 58000 6030/ 84603 81938 88456;
0281421110999992000053103004+30320+078030FM-12+068299999V0209999C000010300019N0040001N1+02281+01921099311ADDAA100030091AA224030091AY191031AY261031GA1011+010509069GA2041+030009039GF107991011051012501051021KA1120M+03491KA2120N+01911MA1999999092801MD1999999+0001MW1021REMSYN112AAXX  31034 42111 21696 70000 10228 20192 39280 49931 70296 81552 333 10349 20191 58000 6030/ 81635 84360 86075;
0204421110999992000053106004+30320+078030FM-12+068299999V0202301N000519999999N0040001N1+03341+01671099141ADDAA199000021AY191061AY261061GA1021+030009039GF105991021001999999031021MA1999999092901MD1999999+0101MW1021REMSYN088AAXX  31064 42111 31996 52301 10334 20167 39290 49914 70296 82032 333 58010 82360 84075;
0195421110999992000053109004+30320+078030FM-12+068299999V0202301N000512200019N0040001N1+03121+01721099942ADDAA199000021GA1021+010509069GF104991031081012501031001MA1999999092681MD1999999+0031REMSYN082AAXX  31094 42111 32696 42301 10312 20172 39268 49994 83830 333 58003 82635 83360;EQDQ01+099943APOSLP
0177421110999992000053115004+30320+078030FM-12+068299999V0200501N000512200019N0040001N1+02541+02041099861ADDAA199000091GA1001+999999999GF100991001001999999001001MA1999999092461MD1999999-0041REMSYN064AAXX  31154 42111 32996 00501 10254 20204 39246 49986 333 59004;EQDQ01  00002PRCP99
0177421110999992000053118004+30320+078030FM-12+068299999V0209999C000012200019N0040001N1+02321+01991099881ADDAA199000091GA1001+999999999GF100991001001999999001001MA1999999092431MD1999999-0141REMSYN064AAXX  31184 42111 32996 00000 10232 20199 39243 49988 333 59014;EQDQ01  00002PRCP99
0161421110999992000060100004+30320+078030FM-12+068299999V0200501N000519999999N0040001N1+02281+01891100071ADDAA199000091GF106991999999012501999999MA1999999092581MD1999999-0031REMSYN064AAXX  01004 42111 32696 60501 10228 20189 39258 40007 333 59003;EQDQ01  00002PRCP99
0217421110999992000060109004+30320+078030FM-12+068299999V0202301N00151012001CN0040001N1+03121+02241099681ADDAA199000091GA1021+010509069GA2031+012009089GF106991041081012501031001MA1999999092441MD1999999-0241REMSYN088AAXX  01094 42111 32696 62303 10312 20224 39244 49968 84830 333 59024 82635 83840 85360;EQDQ01  00002PRCP99
0137421110999992000060112004+30320+078030FM-12+068299999V0203201N000512200019N0020001N1+03101+02251999999ADDAA199000091GF104991999999012501999999MA1999999092211REMSYN054AAXX  01124 42111 31695 43201 10310 20225 39221 44///;EQDQ01  00002PRCP99
0249421110999992000060115004+30320+078030FM-12+068299999V0209999C000012200019N0020001N1+02741+02311099681ADDAA199000091AY121031AY211031GA1031+075009019GF199999001001999999001999MA1999999092341MD1999999-0121MW1051REMSYN082AAXX  01154 42111 31995 00000 10274 20231 39234 49968 70521 80001 333 59012 83075;EQDQ01+000002SCOTCVQ02+000002SCOHCGQ03  00002PRCP99
0195421110999992000060118004+30320+078030FM-12+068299999V0200501N000512200019N0020001N1+02561+02181099831ADDAA199000091AY121061AY221061GF104991031051012501031001MA1999999092431MD1999999+0001MW1051REMSYN076AAXX  01184 42111 31695 40501 10256 20218 39243 49983 70522 83530 333 58000;EQDQ01  00002PRCP99
0223421110999992000060200004+30320+078030FM-12+068299999V0209999C00001036001CN0020001N1+02461+02201100001ADDAA199000091AY121061AY221061GA1041+010509069GF107991041051012501021001MA1999999092561MD1999999-0021MW1051REMSYN088AAXX  02004 42111 31695 70000 10246 20220 39256 40000 70522 84520 333 59002 84635 86460;EQDQ01  00002PRCP99
0261421110999992000060203004+30320+078030FM-12+068299999V0202301N000512200019N0020001N1+02761+02251100031ADDAA199000091AY121031AY211031GA1021+012009089GF103991021011012501031001KA1120M+03161KA2120N+02421MA1999999092671MD1999999+0031MW1051REMSYN100AAXX  02034 42111 31695 32301 10276 20225 39267 40003 70521 82130 333 10316 20242 58003 82840 83360;EQDQ01  00002PRCP99
0223421110999992000060209004+30320+078030FM-12+068299999V0201401N001010360019N0020001N1+03221+02421099771ADDAA199000091AY121031AY221031GA1021+010509069GF105991041081012501031001MA1999999092531MD1999999+0091MW1051REMSYN088AAXX  02094 42111 31695 51402 10322 20242 39253 49977 70522 84830 333 58009 82635 83840;EQDQ01  00002PRCP99
0236421110999992000060212004+30320+078030FM-12+068299999V0201401N000512200019N0020001N1+03241+02381099501ADDAA199000091AY121061AY211061GA1021+012009029GF103991031081012501001001KA1120M+03311MA1999999092291MD1999999+0081MW1051REMSYN088AAXX  02124 42111 31695 31401 10324 20238 39229 49950 70521 83800 333 10331 58008 82840;EQDQ01  00002PRCP99
0243421110999992000060221004+30320+078030FM-12+068299999V0202301N002110120019N0020001N1+02301+02121100121ADDAA100000891AA218000891AY191031AY261031GA1031+009609069GA2021+012009099GF108991051091012501021999MA1999999092631MD1999999+0141MW1171REMSYN100AAXX  02214 42111 21695 82304 10230 20212 39263 40012 71796 8592/ 333 58014 6998/ 83632 82940 87458;
0281421110999992000060303004+30320+078030FM-12+068299999V0209999C00001036001CN0040001N1+02641+02361100231ADDAA100000891AA224000891AY121031AY221031GA1031+009609069GA2031+012009089GF107991041081012501071001KA1120M+03311KA2120N+02161MA1999999092831MD1999999+0161MW1061REMSYN112AAXX  03034 42111 21696 70000 10264 20236 39283 40023 70622 84870 333 10331 20216 58016 6998/ 83632 83840 86460;
0217421110999992000060306004+30320+078030FM-12+068299999V0201401N00101012001CN0040001N1+03161+02321100141ADDAA199000091GA1021+010509069GA2031+012009089GF106991041081012501031001MA1999999092861MD1999999+0201REMSYN088AAXX  03064 42111 32696 61402 10316 20232 39286 40014 84830 333 58020 82635 83840 85360;EQDQ01  00002PRCP99
0242421110999992000060312004+30320+078030FM-12+068299999V0202301N00151015001CN0020001N1+03161+02381099691ADDAA199000091AY191061AY221061GA1041+010509069GF107991051081012501071001KA1120M+03251MA1999999092451MD1999999+0161MW1051REMSYN094AAXX  03124 42111 31695 72303 10316 20238 39245 49969 70592 85870 333 10325 58016 84635 86460;EQDQ01  00002PRCP99
0223421110999992000060318004+30320+078030FM-12+068299999V0201401N000512200019N0040001N1+02641+02331099951ADDAA199000091AY191061AY221061GA1021+010509069GF104991021051012501031001MA1999999092561MD1999999+0001MW1021REMSYN088AAXX  03184 42111 31696 41401 10264 20233 39256 49995 70292 82530 333 58000 82635 83360;EQDQ01  00002PRCP99
0217421110999992000060400004+30320+078030FM-12+068299999V0200501N00101012001CN0040001N1+02561+02091100071ADDAA199000091GA1021+010509069GA2031+012009089GF106991041081012501071001MA1999999092661MD1999999+0001REMSYN088AAXX  04004 42111 32696 60502 10256 20209 39266 40007 84870 333 58000 82635 83840 85360;EQDQ01  00002PRCP99
0259421110999992000060403004+30320+078030FM-12+068299999V0202301N001010090019N0040001N1+02281+01981100301ADDAA100002091AA224002091AY191031AY261031GA1051+009009069GF107991051081012501071001KA1120M+03251KA2120N+02031MA1999999092791MD1999999-0041MW1951REMSYN106AAXX  04034 42111 21696 72302 10228 20198 39279 40030 79596 85870 333 10325 20203 59004 6002/ 85630 86460;
0215421110999992000060406004+30320+078030FM-12+068299999V0202301N000510300019N0040001N1+02621+02091100171ADDAY191061AY261061GA1041+009609069GA2041+030009049GF107991041051012501071011MA1999999092771MD1999999-0091MW1021REMSYN094AAXX  04064 42111 21696 72301 10262 20209 39277 40017 70296 84571 333 59009 84632 84460 85075;
0221421110999992000060409004+30320+078030FM-12+068299999V0200501N002110096019N0040001N1+02281+02071100281ADDAA100003091AA206003091AY161031AY221031GA1051+009609069GF108991051051012501021999MA1999999092771MD1999999+0161MW1211REMSYN094AAXX  04094 42111 21696 80504 10228 20207 39277 40028 72162 8552/ 333 58016 6003/ 85632 88460;
0240421110999992000060412004+30320+078030FM-12+068299999V0209999C00001036001CN0040001N1+02761+02031099811ADDAA100003091AA209003091AY161061AY221061GA1011+010509069GF107991021081012501071001KA1120M+02961MA1999999092471MD1999999+0021MW1021REMSYN100AAXX  04124 42111 21696 70000 10276 20203 39247 49981 70262 82870 333 10296 58002 6003/ 81635 86460;
0164421110999992000060418004+30320+078030FM-12+068299999V0200501N000512200019N0100001N1+02101+01621100171ADDAA100003091GA1001+999999999GF100991001001999999001001MA1999999092631MD1999999+0071REMSYN070AAXX  04184 42111 22997 00501 10210 20162 39263 40017 333 58007 6003/;
0187421110999992000060500004+30320+078030FM-12+068299999V0200501N000512200019N0040001N1+01921+01671100301ADDAA100003091AA221003091GA1011+010509059GF101991011051012501001001MA1999999092721MD1999999+0061REMSYN082AAXX  05004 42111 22696 10501 10192 20167 39272 40030 81500 333 58006 6003/ 81635;
0206421110999992000060503004+30320+078030FM-12+068299999V0203201N001012200019N0040001N1+02721+01951100131ADDAA100003091AA224003091GA1011+030009079GF101991011001999999031001KA1120N+01881MA1999999092761MD1999999-0031REMSYN088AAXX  05034 42111 22996 13202 10272 20195 39276 40013 81030 333 20188 59003 6003/ 81360;
0189421110999992000060509004+30320+078030FM-12+068299999V0202301N001512200019N0040001N1+03341+02041099761ADDAA199000091GA1021+012009029GF102991021021012501001001MA1999999092551MD1999999-0221REMSYN076AAXX  05094 42111 32696 22303 10334 20204 39255 49976 82200 333 59022 82840;EQDQ01  00002PRCP99
0208421110999992000060512004+30320+078030FM-12+068299999V0202301N001512200019N0040001N1+03181+02211099341ADDAA199000091GA1021+012009029GF103991031081012501001001KA1120M+03361MA1999999092111MD1999999-0361REMSYN082AAXX  05124 42111 32696 32303 10318 20221 39211 49934 83800 333 10336 59036 82840;EQDQ01  00002PRCP99
0223421110999992000060515004+30320+078030FM-12+068299999V0201401N001012200019N0040001N1+02721+02261099901ADDAA199000091AY191031AY221031GA1021+011409089GF103991031091012501001001MA1999999092541MD1999999+0021MW1131REMSYN088AAXX  05154 42111 31696 31402 10272 20226 39254 49990 71392 83900 333 58002 82838 81940;EQDQ01  00002PRCP99
0223421110999992000060518004+30320+078030FM-12+068299999V0200501N001012200019N0040001N1+02581+02141100051ADDAA199000091AY191061AY211061GA1011+011409089GF103991021091012501031001MA1999999092641MD1999999+0011MW1131REMSYN088AAXX  05184 42111 31696 30502 10258 20214 39264 40005 71391 82930 333 58001 81838 81940;EQDQ01  00002PRCP99
0223421110999992000060521004+30320+078030FM-12+068299999V0200501N00101036001CN0040001N1+02501+02031100061ADDAA199000091AY191031AY221031GA1031+010509069GF105991031051012501021001MA1999999092621MD1999999-0031MW1021REMSYN088AAXX  05214 42111 31696 50502 10250 20203 39262 40006 70292 83520 333 59003 83635 83360;EQDQ01  00002PRCP99
0223421110999992000060600004+30320+078030FM-12+068299999V0200501N00101036001CN0040001N1+02401+01921100031ADDAA199000091AY191061AY221061GA1031+010509069GF105991031051012501031011MA1999999092571MD1999999-0151MW1021REMSYN088AAXX  06004 42111 31696 50502 10240 20192 39257 40003 70292 83531 333 59015 83635 83360;EQDQ01  00002PRCP99
0255421110999992000060603004+30320+078030FM-12+068299999V0202301N001012200019N0040001N1+02901+02091100031ADDAA199000091GA1011+010509069GA2021+012009089GF104991031081012501031001KA1120M+03361KA2120N+02321MA1999999092691MD1999999-0071REMSYN100AAXX  06034 42111 32696 42302 10290 20209 39269 40003 83830 333 10336 20232 59007 81635 82840 83360;EQDQ01  00002PRCP99
0217421110999992000060606004+30320+078030FM-12+068299999V0203201N00051012001CN0040001N1+02961+02151099971ADDAA199000091GA1021+010509069GA2031+012009089GF105991031081012501031001MA1999999092661MD1999999-0031REMSYN088AAXX  06064 42111 32696 53201 10296 20215 39266 49997 83830 333 59003 82635 83840 85360;EQDQ01  00002PRCP99
0217421110999992000060609004+30320+078030FM-12+068299999V0202301N00101012001CN0040001N1+02921+02171099881ADDAA199000091GA1021+010509069GA2031+012009089GF105991031081012501031001MA1999999092571MD1999999+0021REMSYN088AAXX  06094 42111 32696 52302 10292 20217 39257 49988 83830 333 58002 82635 83840 85360;EQDQ01  00002PRCP99
0214421110999992000060612004+30320+078030FM-12+068299999V0202301N00101036001CN0040001N1+02821+02061099811ADDAA199000091GA1031+010509069GF106991041081012501031001KA1120M+03091MA1999999092491MD1999999+0081REMSYN088AAXX  06124 42111 32696 62302 10282 20206 39249 49981 84830 333 10309 58008 83635 85360;EQDQ01  00002PRCP99
0195421110999992000060615004+30320+078030FM-12+068299999V0209999C000012200019N0040001N1+02481+02001099981ADDAA199000091GA1011+010509069GF104991011051012501031001MA1999999092541MD1999999+0001REMSYN082AAXX  06154 42111 32696 40000 10248 20200 39254 49998 81530 333 58000 81635 83360;EQDQ01  00002PRCP99
0189421110999992000060618004+30320+078030FM-12+068299999V0202301N000512200019N0040001N1+02561+02181099991ADDAA199000091GA1031+000159019GF104991041001999999071001MA1999999092581MD1999999-0061REMSYN076AAXX  06184 42111 32996 42301 10256 20218 39258 49999 84070 333 59006 83400;EQDQ01  00002PRCP99
0221421110999992000060621004+30320+078030FM-12+068299999V0202301N00051036001CN0020001N1+02441+02211100031ADDAA100001091AA218001091AY161031AY221031GA1041+009609069GF108991041051012501021999MA1999999092591MD1999999-0031MW1611REMSYN094AAXX  06214 42111 21695 82301 10244 20221 39259 40003 76162 8452/ 333 59003 6001/ 84632 88460;
0221421110999992000060700004+30320+078030FM-12+068299999V0203201N000510096019N0020001N1+02201+02141100081ADDAA100006192AA221006092AY161061AY221061GA1051+009609069GF108991051051012501021999MA1999999092561MD1999999-0011MW1611REMSYN094AAXX  07004 42111 21695 83201 10220 20214 39256 40008 76162 8552/ 333 59001 6006/ 85632 88460;
0259421110999992000060703004+30320+078030FM-12+068299999V0200501N000510090019N0020001N1+02221+02161100071ADDAA100010991AA224011091AY161031AY261031GA1051+009009069GF108991051051012501021999KA1120M+03091KA2120N+02121MA1999999092581MD1999999-0111MW1611REMSYN106AAXX  07034 42111 21695 80501 10222 20216 39258 40007 76166 8552/ 333 10309 20212 59011 6011/ 85630 88460;
0240421110999992000060712004+30320+078030FM-12+068299999V0203201N001010090019N0020001N1+02341+02251099721ADDAA100005192AA209005092AY161061AY251061GA1061+009009069GF108991061051008001021999KA1120M+02381MA1999999092291MD1999999-0201MW1601REMSYN100AAXX  07124 42111 21595 83202 10234 20225 39229 49972 76065 8652/ 333 10238 59020 6005/ 86630 88460;
0259421110999992000060803004+30320+078030FM-12+068299999V0209999C000010075019N0020001N1+02161+02101099691ADDAA100014091AA224014091AY161031AY261031GA1061+999999069GF108991061051008001021999KA1120M+02381KA2120N+02091MA1999999092211MD1999999-0371MW1611REMSYN106AAXX  08034 42111 21595 80000 10216 20210 39221 49969 76166 8652/ 333 10238 20209 59037 6014/ 8663/ 88460;
0221421110999992000060806004+30320+078030FM-12+068299999V0202701N000510090019N0020001N1+02181+02151099641ADDAA100005192AA203005092AY161061AY261061GA1051+009009069GF108991051051008001021999MA1999999092161MD1999999-0401MW1611REMSYN094AAXX  08064 42111 21595 82701 10218 20215 39216 49964 76166 8552/ 333 59040 6005/ 85630 88458;
0240421110999992000060809004+30320+078030FM-12+068299999V0209999C000010090019N0020001N1+02161+02131100702ADDAA100039192AA206039092AY161031AY261031GA1061+009009069GF108991061051008001021999MA1999999092221MD1999999-0261MW1631REMSYN094AAXX  08094 42111 21595 80000 10216 20213 39222 40070 76366 8652/ 333 59026 6039/ 86630 88458;EQDQ01+100703APOSLP
0221421110999992000060900004+30320+078030FM-12+068299999V0209999C000010090019N0100001N1+02141+02111100171ADDAA100061091AA221061091AY191061AY261061GA1061+009009069GF108991061051012501021999MA1999999092651MD1999999+0511MW1021REMSYN094AAXX  09004 42111 21697 80000 10214 20211 39265 40017 70296 8652/ 333 58051 6061/ 86630 88458;
0259421110999992000060903004+30320+078030FM-12+068299999V0203201N000512200019N0100001N1+02301+02241100091ADDAA100062091AA224062091AY161031AY221031GA1011+009609069GF103991011051012501031001KA1120M+02281KA2120N+02111MA1999999092601MD1999999+0391MW1021REMSYN106AAXX  09034 42111 21697 33201 10230 20224 39260 40009 70262 81530 333 10228 20211 58039 6062/ 81632 83360;
0271421110999992000060906004+30320+078030FM-12+068299999V0202301N001010105019N0100001N1+02701+02271100101ADDAA199000091AY161061AY221061GA1091+010509069GF109991091081012501031011MA1999999092701MD1999999+0541MW1021REMSYN088AAXX  09064 42111 31697 72302 10270 20227 39270 40010 70262 82831 333 58054 89635 85360;EQDQ01+000072SCOTCVQ02+000022SCOTLCQ03+000012SCOHCGQ04  00002PRCP99
0243421110999992000060909004+30320+078030FM-12+068299999V0201401N001010120019N0020001N1+02961+02371100001ADDAA100000791AA206999929AY161031AY221031GA1031+009009069GA2031+012009089GF107991051081008001021001MA1999999092691MD1999999+0471MW1621REMSYN100AAXX  09094 42111 21595 71402 10296 20237 39269 40000 76262 85820 333 58047 6990/ 83630 83840 86458;
0262421110999992000060912004+30320+078030FM-12+068299999V0201801N000510120019N0040001N1+02501+02061099911ADDAA100008991AA209009091AY191061AY261061GA1031+009609069GA2031+012009089GF107991051081012501071001KA1120M+02961MA1999999092491MD1999999+0311MW1021REMSYN106AAXX  09124 42111 21696 71801 10250 20206 39249 49991 70296 85870 333 10296 58031 6009/ 83632 83840 86360;
0164421110999992000060915004+30320+078030FM-12+068299999V0209999C000012200019N0040001N1+02321+02201099961ADDAA100008991GA1001+999999999GF100991001001999999001001MA1999999092501MD1999999+0071REMSYN070AAXX  09154 42111 22996 00000 10232 20220 39250 49996 333 58007 6009/;
0187421110999992000060918004+30320+078030FM-12+068299999V0200501N000512200019N0040001N1+02141+01991100171ADDAA100008991AA215009091GA1011+030009079GF102991011001999999031011MA1999999092651MD1999999-0071REMSYN082AAXX  09184 42111 22996 20501 10214 20199 39265 40017 81031 333 59007 6009/ 81360;
0158421110999992000060921004+30320+078030FM-12+068299999V0200501N000512200019N0040001N1+02001+99999100211ADDAA100008991GA1001+999999999GF100991001001999999001001MA1999999092641MD1999999+0071REMSYN064AAXX  09214 42111 22996 00501 10200 39264 40021 333 58007 6009/;
0164421110999992000061000004+30320+078030FM-12+068299999V0209999C000012200019N0040001N1+01941+01821100181ADDAA100008991GA1001+999999999GF100991001001999999001001MA1999999092611MD1999999-0041REMSYN070AAXX  10004 42111 22996 00000 10194 20182 39261 40018 333 59004 6009/;
0202421110999992000061003004+30320+078030FM-12+068299999V0203201N000512200019N0040001N1+02661+02071100131ADDAA100008991GA1001+999999999GF100991001001999999001001KA1120M+02961KA2120N+01911MA1999999092731MD1999999+0131REMSYN082AAXX  10034 42111 22996 03201 10266 20207 39273 40013 333 10296 20191 58013 6009/;
0189421110999992000061006004+30320+078030FM-12+068299999V0203201N001512200019N0040001N1+02901+02181100121ADDAA199000091GA1031+012009029GF103991031021012501001001MA1999999092771MD1999999+0071REMSYN076AAXX  10064 42111 32696 33203 10290 20218 39277 40012 83200 333 58007 83840;EQDQ01  00002PRCP99
0189421110999992000061009004+30320+078030FM-12+068299999V0200501N001012200019N0040001N1+03021+02281099851ADDAA199000091GA1031+012009029GF104991031021012501031001MA1999999092571MD1999999-0121REMSYN076AAXX  10094 42111 32696 40502 10302 20228 39257 49985 83230 333 59012 83840;EQDQ01  00002PRCP99
0234421110999992000061015004+30320+078030FM-12+068299999V0200501N001012200019N0040001N1+02461+02011099791ADDAA100000791AA212999999AY191031AY261031GA1031+030009079GF104991041001999999071001MA1999999092371MD1999999-0131MW1021REMSYN088AAXX  10154 42111 21996 40502 10246 20201 39237 49979 70296 84070 333 59013 6990/ 83360;EQDQ01  99992PRCP12
0234421110999992000061018004+30320+078030FM-12+068299999V0209999C000012200019N0040001N1+02341+02041099911ADDAA100000791AA215999999AY191061AY261061GA1031+030009079GF103991031001999999031001MA1999999092461MD1999999-0191MW1011REMSYN088AAXX  10184 42111 21996 30000 10234 20204 39246 49991 70196 83030 333 59019 6990/ 83360;EQDQ01  99992PRCP15
0164421110999992000061021004+30320+078030FM-12+068299999V0200501N000512200019N0040001N1+02121+01781099941ADDAA100000791GA1001+999999999GF100991001001999999001001MA1999999092441MD1999999-0201REMSYN070AAXX  10214 42111 22996 00501 10212 20178 39244 49994 333 59020 6990/;
0164421110999992000061100004+30320+078030FM-12+068299999V0209999C000012200019N0040001N1+02001+01751100021ADDAA100000791GA1001+999999999GF100991001001999999001001MA1999999092471MD1999999-0141REMSYN070AAXX  11004 42111 22996 00000 10200 20175 39247 40002 333 59014 6990/;
0205421110999992000061106004+30320+078030FM-12+068299999V0203201N000512200019N0020001N1+03101+01921099871ADDAA199000091AY101061AY201061GA1001+999999999GF100991001001999999001001MA1999999092591MD1999999-0181MW1051REMSYN070AAXX  11064 42111 31995 03201 10310 20192 39259 49987 70500 333 59018;EQDQ01  00002PRCP99
0189421110999992000061109004+30320+078030FM-12+068299999V0202701N001012200019N0040001N1+03201+02071099681ADDAA199000091GA1011+012009029GF101991011011012501001001MA1999999092441MD1999999-0131REMSYN076AAXX  11094 42111 32696 12702 10320 20207 39244 49968 81100 333 59013 81840;EQDQ01  00002PRCP99
0208421110999992000061112004+30320+078030FM-12+068299999V0202701N001012200019N0040001N1+03121+01841099501ADDAA199000091GA1011+012009029GF101991011011012501001001KA1120M+03261MA1999999092271MD1999999-0171REMSYN082AAXX  11124 42111 32696 12702 10312 20184 39227 49950 81100 333 10326 59017 81840;EQDQ01  00002PRCP99
0177421110999992000061115004+30320+078030FM-12+068299999V0209999C000012200019N0040001N1+02681+02101099731ADDAA199000091GA1001+999999999GF100991001001999999001001MA1999999092361MD1999999-0011REMSYN064AAXX  11154 42111 32996 00000 10268 20210 39236 49973 333 59001;EQDQ01  00002PRCP99
0177421110999992000061118004+30320+078030FM-12+068299999V0200501N001012200019N0040001N1+02441+02061099821ADDAA199000091GA1001+999999999GF100991001001999999001001MA1999999092401MD1999999-0061REMSYN064AAXX  11184 42111 32996 00502 10244 20206 39240 49982 333 59006;EQDQ01  00002PRCP99
0243421110999992000061203004+30320+078030FM-12+068299999V0203201N000512200019N0020001N1+02801+02171099871ADDAA199000091AY101031AY201031GA1001+999999999GF100991001001999999001001KA1120M+03261KA2120N+02191MA1999999092511MD1999999-0061MW1051REMSYN082AAXX  12034 42111 31995 03201 10280 20217 39251 49987 70500 333 10326 20219 59006;EQDQ01  00002PRCP99
0217421110999992000061206004+30320+078030FM-12+068299999V0202301N001012200019N0020001N1+03101+01991099751ADDAA199000091AY101061AY201061GA1011+012009029GF101991011011012501001001MA1999999092481MD1999999-0111MW1051REMSYN082AAXX  12064 42111 31695 12302 10310 20199 39248 49975 70500 81100 333 59011 81840;EQDQ01  00002PRCP99
0223421110999992000061209004+30320+078030FM-12+068299999V0209999C00001036001CN0020001N1+03221+02131099591ADDAA199000091AY121031AY201031GA1011+010509069GF105991031081012501031001MA1999999092371MD1999999-0071MW1051REMSYN088AAXX  12094 42111 31695 50000 10322 20213 39237 49959 70520 83830 333 59007 81635 83360;EQDQ01  00002PRCP99
0242421110999992000061212004+30320+078030FM-12+068299999V0202701N000512200019N0020001N1+03181+02151099461ADDAA199000091AY121061AY221061GA1011+012009089GF104991011011012501031001KA1120M+03291MA1999999092251MD1999999-0041MW1051REMSYN094AAXX  12124 42111 31695 42701 10318 20215 39225 49946 70522 81130 333 10329 59004 81840 83360;EQDQ01  00002PRCP99
0189421110999992000061215004+30320+078030FM-12+068299999V0209999C000012200019N0040001N1+02801+02411099591ADDAA199000091GA1041+030009079GF104991041001999999031001MA1999999092261MD1999999-0101REMSYN076AAXX  12154 42111 32996 40000 10280 20241 39226 49959 84030 333 59010 84360;EQDQ01  00002PRCP99
0189421110999992000061218004+30320+078030FM-12+068299999V0201401N000512200019N0040001N1+02581+02271099781ADDAA199000091GA1011+030009079GF101991011001999999031001MA1999999092381MD1999999-0021REMSYN076AAXX  12184 42111 32996 11401 10258 20227 39238 49978 81030 333 59002 81360;EQDQ01  00002PRCP99
0177421110999992000061221004+30320+078030FM-12+068299999V0200501N000512200019N0040001N1+02501+02151099781ADDAA199000091GA1001+999999999GF100991001001999999001001MA1999999092361MD1999999-0101REMSYN064AAXX  12214 42111 32996 00501 10250 20215 39236 49978 333 59010;EQDQ01  00002PRCP99
0205421110999992000061300004+30320+078030FM-12+068299999V0200501N000512200019N0020001N1+02441+02091099791ADDAA199000091AY101061AY201061GA1001+999999999GF100991001001999999001001MA1999999092371MD1999999-0131MW1051REMSYN070AAXX  13004 42111 31995 00501 10244 20209 39237 49979 70500 333 59013;EQDQ01  00002PRCP99
0224421110999992000061303004+30320+078030FM-12+068299999V0209999C000012200019N0020001N1+02921+02171099711ADDAA199000091AY101031AY201031GA1001+999999999GF100991001001999999001001KA1120N+02401MA1999999092411MD1999999-0101MW1051REMSYN076AAXX  13034 42111 31995 00000 10292 20217 39241 49971 70500 333 20240 59010;EQDQ01  00002PRCP99
0217421110999992000061306004+30320+078030FM-12+068299999V0203201N000512200019N0020001N1+03261+02341099631ADDAA199000091AY111061AY201061GA1021+012009029GF103991021011012501031001MA1999999092411MD1999999-0071MW1051REMSYN082AAXX  13064 42111 31695 33201 10326 20234 39241 49963 70510 82130 333 59007 82840;EQDQ01  00002PRCP99
0217421110999992000061309004+30320+078030FM-12+068299999V0203201N001012200019N0020001N1+03321+02181099491ADDAA199000091AY111031AY211031GA1021+012009029GF102991021021012501001001MA1999999092301MD1999999-0071MW1051REMSYN082AAXX  13094 42111 31695 23202 10332 20218 39230 49949 70511 82200 333 59007 82840;EQDQ01  00002PRCP99
0236421110999992000061312004+30320+078030FM-12+068299999V0202301N001012200019N0020001N1+03281+02331099361ADDAA199000091AY111061AY211061GA1011+012009029GF101991011011012501001001KA1120M+03361MA1999999092151MD1999999-0081MW1051REMSYN088AAXX  13124 42111 31695 12302 10328 20233 39215 49936 70511 81100 333 10336 59008 81840;EQDQ01  00002PRCP99
0205421110999992000061318004+30320+078030FM-12+068299999V0209999C000012200019N0020001N1+02801+02521099681ADDAA199000091AY101061AY201061GA1001+999999999GF100991001001999999001001MA1999999092341MD1999999-0041MW1051REMSYN070AAXX  13184 42111 31995 00000 10280 20252 39234 49968 70500 333 59004;EQDQ01  00002PRCP99
0205421110999992000061321004+30310+078300FM-12+068299999V0209999C000012200019N0020001N1+02641+02421099631ADDAA199000091AY101031AY201031GA1001+999999999GF100991001001999999001001MA1999999092281MD1999999-0151MW1051REMSYN070AAXX  13214 42111 31995 00000 10264 20242 39228 49963 70500 333 59015;EQDQ01  00002PRCP99
0223421110999992000061400004+30310+078300FM-12+068299999V0200501N000512200019N0020001N1+02561+02301099741ADDAA199000091AY121061AY201061GA1021+030009039GF104991021001999999031021MA1999999092341MD1999999-0031MW1051REMSYN088AAXX  14004 42111 31995 40501 10256 20230 39234 49974 70520 82032 333 59003 82360 83075;EQDQ01  00002PRCP99
0255421110999992000061403004+30310+078300FM-12+068299999V0201401N000512200019N0020001N1+02901+02491099731ADDAA199000091AY111031AY211031GA1031+075009019GF103991001001999999001011KA1120M+03361KA2120N+02511MA1999999092411MD1999999+0001MW1051REMSYN094AAXX  14034 42111 31995 31401 10290 20249 39241 49973 70511 80001 333 10336 20251 58000 83075;EQDQ01  00002PRCP99
0245421110999992000061406004+30310+078300FM-12+068299999V0202301N00051036001CN0020001N1+03201+02421099641ADDAA199000091AY121061AY211061GA1011+010509069GA2021+012009089GF105991031081012501031001MA1999999092401MD1999999-0011MW1051REMSYN094AAXX  14064 42111 31695 52301 10320 20242 39240 49964 70521 83830 333 59001 81635 82840 83360;EQDQ01  00002PRCP99
0223421110999992000061409004+30310+078300FM-12+068299999V0202301N000512200019N0020001N1+03421+02551099431ADDAA199000091AY121031AY221031GA1021+012009089GF104991021011012501031001MA1999999092271MD1999999-0031MW1051REMSYN088AAXX  14094 42111 31695 42301 10342 20255 39227 49943 70522 82130 333 59003 82840 83360;EQDQ01  00002PRCP99
0242421110999992000061412004+30310+078300FM-12+068299999V0202301N00101015001CN0020001N1+03261+02491099261ADDAA199000091AY121061AY221061GA1041+010509069GF107991051081012501071001KA1120M+03361MA1999999092091MD1999999-0061MW1051REMSYN094AAXX  14124 42111 31695 72302 10326 20249 39209 49926 70522 85870 333 10336 59006 84635 86360;EQDQ01  00002PRCP99
0195421110999992000061415004+30310+078300FM-12+068299999V0209999C000012200019N0020001N1+02961+02611099451ADDAA199000091AY121031AY211031GF102991001001999999001011MA1999999092171MD1999999-0091MW1051REMSYN076AAXX  14154 42111 31995 20000 10296 20261 39217 49945 70521 80001 333 59009;EQDQ01  00002PRCP99
0223421110999992000061418004+30310+078300FM-12+068299999V0209999C000012200019N0020001N1+02821+02521099571ADDAA199000091AY121061AY211061GA1011+030009039GF103991011001999999031011MA1999999092271MD1999999-0071MW1051REMSYN088AAXX  14184 42111 31995 30000 10282 20252 39227 49957 70521 81031 333 59007 81360 83075;EQDQ01  00002PRCP99
0217421110999992000061421004+30310+078300FM-12+068299999V0200501N000512200019N0020001N1+02721+02351099531ADDAA199000091AY121031AY211031GA1021+030009079GF103991031001999999071001MA1999999092201MD1999999-0081MW1051REMSYN082AAXX  14214 42111 31995 30501 10272 20235 39220 49953 70521 83070 333 59008 82360;EQDQ01  00002PRCP99
0223421110999992000061500004+30310+078300FM-12+068299999V0200501N00051036001CN0020001N1+02661+02321099531ADDAA199000091AY121061AY221061GA1021+010509069GF106991021051012501071001MA1999999092181MD1999999-0161MW1051REMSYN088AAXX  15004 42111 31695 60501 10266 20232 39218 49953 70522 82570 333 59016 82635 85460;EQDQ01  00002PRCP99
0255421110999992000061503004+30310+078300FM-12+068299999V0202301N000512200019N0020001N1+03001+02531099551ADDAA199000091AY121031AY211031GA1031+075009019GF103991001001999999001011KA1120M+03361KA2120N+02621MA1999999092271MD1999999-0141MW1051REMSYN094AAXX  15034 42111 31995 32301 10300 20253 39227 49955 70521 80001 333 10336 20262 59014 83075;EQDQ01  00002PRCP99
0267421110999992000061506004+30310+078300FM-12+068299999V0202301N00101012001CN0040001N1+03201+02451099551ADDAA199000091AY121061AY221061GA1011+009009069GA2011+012009099GA3031+012009089GF106991031091012501071001MA1999999092311MD1999999-0091MW1171REMSYN100AAXX  15064 42111 31696 62302 10320 20245 39231 49955 71722 83970 333 59009 81630 83840 81940 85460;EQDQ01  00002PRCP99
0284421110999992000061509004+30310+078300FM-12+068299999V0200501N00151012001CN0020001N1+03081+02471099481ADDAA100000791AA206999999AY191031AY261031GA1031+009609069GA2021+012009099GA3021+012009099GF107991041091012501021001MA1999999092231MD1999999-0041MW1171REMSYN106AAXX  15094 42111 21695 70503 10308 20247 39223 49948 71796 84920 333 59004 6990/ 82940 83632 82940 86460;EQDQ01  99992PRCP06
0262421110999992000061512004+30310+078300FM-12+068299999V0200501N001510090019N0020001N1+02461+02291099451ADDAA100010991AA209011091AY191061AY261061GA1051+009009069GA2031+011409099GF108991061091008001021999KA1120M+03311MA1999999092061MD1999999-0031MW1951REMSYN106AAXX  15124 42111 21595 80503 10246 20229 39206 49945 79596 8692/ 333 10331 59003 6011/ 85630 83938 87458;
0265421110999992000061515004+30310+078300FM-12+068299999V0209999V003110075019N0020001N1+02341+01951099761ADDAA100016091AA212016091AY191031AY261031GA1021+006009079GA2041+007509069GA3011+010509099GF108991061091004501021999MA1999999092311MD1999999+0141MW1951REMSYN106AAXX  15154 42111 21495 89906 10234 20195 39231 49976 79596 8692/ 333 58014 6016/ 82720 84625 81935 88456;
0243421110999992000061518004+30310+078300FM-12+068299999V0201401N001010090019N0020001N1+02401+02201099831ADDAA106017091AA215017091AY191061AY261061GA1051+009009069GA2011+010509099GF108991061091008001021999MA1999999092381MD1999999+0111MW1951REMSYN100AAXX  15184 42111 21595 81402 10240 20220 39238 49983 79596 8692/ 333 58011 60171 85630 81935 88456;
0243421110999992000061521004+30310+078300FM-12+068299999V0201401N001010090019N0040001N1+02341+02221099781ADDAA100017091AA218017091AY191031AY261031GA1051+009009069GA2011+010509099GF108991061091008001021999MA1999999092331MD1999999+0131MW1171REMSYN100AAXX  15214 42111 21596 81402 10234 20222 39233 49978 71796 8692/ 333 58013 6017/ 85630 81935 88458;
0243421110999992000061600004+30310+078300FM-12+068299999V0202301N000510090019N0020001N1+02301+02241099851ADDAA100019192AA221019092AY191061AY261061GA1051+009009069GA2011+010509099GF108991061091008001021999MA1999999092381MD1999999+0201MW1951REMSYN100AAXX  16004 42111 21595 82301 10230 20224 39238 49985 79596 8692/ 333 58020 6019/ 85630 81935 88456;
0259421110999992000061603004+30310+078300FM-12+068299999V0209999C000010090019N0020001N1+02341+02251099951ADDAA100024991AA224025091AY191031AY261031GA1051+009009069GF108991051051008001021999KA1120M+03311KA2120N+02251MA1999999092501MD1999999+0231MW1911REMSYN106AAXX  16034 42111 21595 80000 10234 20225 39250 49995 79196 8552/ 333 10331 20225 58023 6025/ 85630 83460;
0221421110999992000061606004+30310+078300FM-12+068299999V0209999C000010060019N0040001N1+02521+02351100021ADDAA100000391AA203000391AY191061AY261061GA1051+006009069GF108991061081008001021999MA1999999092611MD1999999+0301MW1021REMSYN094AAXX  16064 42111 21596 80000 10252 20235 39261 40002 70296 8682/ 333 58030 6993/ 85620 88460;
0131421110999992000061609004+30310+078300FM-12+068299999V0201401N002112200019N0020001N1+03301+02511099711ADDAA199000021AY101031AY201031GF103991031001999999071051MW1061REMSYN060AAXX  16094 42111 32995 31404 10330 20251 49971 70600 83075;
0240421110999992000061612004+30310+078300FM-12+068299999V0201401N000510105019N0020001N1+02841+02391099671ADDAA100000391AA209000391AY121061AY221061GA1051+010509069GF108991051051012501071999KA1120M+02891MA1999999092351MD1999999+0291MW1051REMSYN100AAXX  16124 42111 21695 81401 10284 20239 39235 49967 70522 8557/ 333 10289 58029 6993/ 85635 87460;
0193421110999992000061615004+30310+078300FM-12+068299999V0200501N00051036001CN0040001N1+02621+02391099701ADDAA100000391AA212000391GA1021+009009069GF107991021051012501071001MA1999999092331MD1999999+0021REMSYN088AAXX  16154 42111 22696 70501 10262 20239 39233 49970 82570 333 58002 6993/ 82630 86460;
0193421110999992000061618004+30310+078300FM-12+068299999V0200501N00051036001CN0040001N1+02521+02291099811ADDAA100000391AA215000391GA1011+009009069GF106991011051012501071001MA1999999092411MD1999999+0031REMSYN088AAXX  16184 42111 22696 60501 10252 20229 39241 49981 81570 333 58003 6993/ 81630 85460;
0193421110999992000061621004+30310+078300FM-12+068299999V0200501N00051036001CN0040001N1+02481+02281099711ADDAA100000391AA218000391GA1031+009009069GF108991031051012501021999MA1999999092391MD1999999+0061REMSYN088AAXX  16214 42111 22696 80501 10248 20228 39239 49971 8352/ 333 58006 6993/ 83630 88460;
0193421110999992000061700004+30310+078300FM-12+068299999V0209999C00001036001CN0040001N1+02461+02321099851ADDAA100000391AA221000391GA1031+009009069GF108991031051012501021999MA1999999092431MD1999999-0051REMSYN088AAXX  17004 42111 22696 80000 10246 20232 39243 49985 8352/ 333 59005 6993/ 83630 88460;
0240421110999992000061703004+30310+078300FM-12+068299999V0201401N00051036001CN0020001N1+02741+02431099891ADDAA100000391AA224000391AY121031AY221031GA1041+010509069GF108991041051012501021999KA1120N+02431MA1999999092531MD1999999+0031MW1051REMSYN100AAXX  17034 42111 21695 81401 10274 20243 39253 49989 70522 8452/ 333 20243 58003 6993/ 84635 88260;
0223421110999992000061706004+30310+078300FM-12+068299999V0202301N00051036001CN0020001N1+03001+02451099931ADDAA199000091AY121061AY221061GA1031+010509069GF108991041081012501081021MA1999999092611MD1999999+0001MW1051REMSYN088AAXX  17064 42111 31695 82301 10300 20245 39261 49993 70522 84882 333 58000 83635 87460;EQDQ01  00002PRCP99
0242421110999992000061712004+30310+078300FM-12+068299999V0201401N00051012001CN0020001N1+02901+02511099561ADDAA199000091AY121061AY221061GA1041+009009069GF107991051081008001071001KA1120M+03071MA1999999092261MD1999999-0111MW1051REMSYN094AAXX  17124 42111 31595 71401 10290 20251 39226 49956 70522 85870 333 10307 59011 84630 86458;EQDQ01  00002PRCP99
0270421110999992000061803004+30310+078300FM-12+068299999V0200501N00101036001CN0020001N1+02881+02351099911ADDAA199000091AY121031AY221031GA1021+010509069GA2021+012009089GF105991031081012501031001KA1120M+03071MA1999999092571MD1999999+0041MW1051REMSYN106AAXX  18034 42111 31695 50502 10288 20235 39257 49991 70522 83830 333 10307 20/// 58004 82635 82840 83360;EQDQ01  00002PRCP99
0245421110999992000061806004+30310+078300FM-12+068299999V0201801N00101036001CN0020001N1+03101+02491099851ADDAA199000091AY121061AY221061GA1011+010509069GA2031+012009089GF105991041081012501031001MA1999999092571MD1999999+0041MW1051REMSYN094AAXX  18064 42111 31695 51802 10310 20249 39257 49985 70522 84830 333 58004 81635 83840 85360;EQDQ01  00002PRCP99
0262421110999992000061812004+30310+078300FM-12+068299999V0201401N00101036001CN0040001N1+02961+02521099611ADDAA100000791AA209999999AY161061AY221061GA1031+009609069GA2031+012009089GF107991041081012501071001MA1999999092321MD1999999+0061MW1021REMSYN100AAXX  18124 42111 21696 71402 10296 20252 39232 49961 70262 84870 333 58006 6990/ 83632 83840 85360;EQDQ01  99992PRCP09
0243421110999992000061815004+30310+078300FM-12+068299999V0200501N000510120019N0020001N1+02521+02381099891ADDAA100005192AA212005092AY161031AY231031GA1041+006609069GA2011+012009099GF108991061091008001021999MA1999999092491MD1999999+0231MW1131REMSYN100AAXX  18154 42111 21595 80501 10252 20238 39249 49989 71363 8692/ 333 58023 6005/ 84622 81940 87458;
0221421110999992000061818004+30310+078300FM-12+068299999V0209999C00001036001CN0040001N1+02521+02381099881ADDAA100005192AA215005092AY161061AY221061GA1041+010509059GF107991041051012501071001MA1999999092481MD1999999+0131MW1021REMSYN094AAXX  18184 42111 21696 70000 10252 20238 39248 49988 70262 84570 333 58013 6005/ 84535 85460;
0193421110999992000061821004+30310+078300FM-12+068299999V0209999C000010090019N0040001N1+02541+02281099931ADDAA100005192AA218005092GA1051+009009069GF107991051051012501071001MA1999999092521MD1999999+0251REMSYN088AAXX  18214 42111 22696 70000 10254 20228 39252 49993 85570 333 58025 6005/ 85630 86360;
0193421110999992000061900004+30310+078300FM-12+068299999V0200501N00051036001CN0040001N1+02541+02251099941ADDAA100005192AA221005092GA1041+009009059GF107991041051012501071001MA1999999092531MD1999999+0091REMSYN088AAXX  19004 42111 22696 70501 10254 20225 39253 49994 84570 333 58009 6005/ 84530 85360;
0231421110999992000061903004+30310+078300FM-12+068299999V0209999C00001036001CN0040001N1+02681+02371100071ADDAA100005192AA224005092GA1031+009609069GF106991041081012501071001KA1120M+03161KA2120N+02461MA1999999092671MD1999999+0101REMSYN100AAXX  19034 42111 22696 60000 10268 20237 39267 40007 84870 333 10316 20246 58010 6005/ 83632 85460;
0217421110999992000061906004+30310+078300FM-12+068299999V0201401N00051012001CN0040001N1+03081+02441099971ADDAA199000091GA1021+009609069GA2031+012009089GF106991041081012501031001MA1999999092691MD1999999+0121REMSYN088AAXX  19064 42111 32696 61401 10308 20244 39269 49997 84830 333 58012 82632 83840 85360;EQDQ01  00002PRCP99
0243421110999992000061909004+30310+078300FM-12+068299999V0201401N000510060019N0010001N1+02421+02251100021ADDAA100043991AA206044091AY191031AY261031GA1051+006009069GA2021+012009099GF108991061091008001021999MA1999999092581MD1999999+0141MW1951REMSYN100AAXX  19094 42111 21594 81401 10242 20225 39258 40002 79596 8692/ 333 58014 6044/ 85620 82940 88458;
0240421110999992000061912004+30310+078300FM-12+068299999V0202301N00051036001CN0040001N1+02701+02561099811ADDAA100051192AA209051092AY191061AY261061GA1021+010509069GF106991021051012501071001KA1120M+03131MA1999999092441MD1999999+0121MW1211REMSYN100AAXX  19124 42111 21696 62301 10270 20256 39244 49981 72196 82570 333 10313 58012 6051/ 82635 85360;
0193421110999992000061915004+30310+078300FM-12+068299999V0200501N00051036001CN0040001N1+02641+02531099921ADDAA100051192AA212051092GA1041+010509069GF107991041051012501071001MA1999999092531MD1999999+0041REMSYN088AAXX  19154 42111 22696 70501 10264 20253 39253 49992 84570 333 58004 6051/ 84635 86458;
0243421110999992000061918004+30310+078300FM-12+068299999V0200501N00051036001CN0040001N1+02521+02411100061ADDAA100051192AA215051092AY121061AY221061GA1031+010509069GA2011+011409099GF106991041091012501071001MA1999999092651MD1999999+0171MW1131REMSYN100AAXX  19184 42111 21696 60501 10252 20241 39265 40006 71322 84970 333 58017 6051/ 83635 81938 85360;
0193421110999992000061921004+30310+078300FM-12+068299999V0200501N00051036001CN0040001N1+02461+02351100111ADDAA100051192AA218051092GA1031+010509069GF105991031051012501071001MA1999999092671MD1999999+0151REMSYN088AAXX  19214 42111 22696 50501 10246 20235 39267 40011 83570 333 58015 6051/ 83635 85360;
0193421110999992000062000004+30310+078300FM-12+068299999V0202301N00051036001CN0040001N1+02421+02311100061ADDAA100051192AA221051092GA1041+010509069GF106991041051012501071001MA1999999092621MD1999999+0091REMSYN088AAXX  20004 42111 22696 62301 10242 20231 39262 40006 84570 333 58009 6051/ 84635 86458;
0281421110999992000062003004+30310+078300FM-12+068299999V0209999C000010114019N0020001N1+02721+02381100031ADDAA100051192AA224051092AY121031AY221031GA1041+010509069GA2031+011409089GF107991051081012501021001KA1120M+03131KA2120N+02391MA1999999092671MD1999999+0001MW1051REMSYN112AAXX  20034 42111 21695 70000 10272 20238 39267 40003 70522 85820 333 10313 20239 58000 6051/ 84635 83838 86460;
0243421110999992000062006004+30310+078300FM-12+068299999V0201401N000510120019N0020001N1+02561+02391100171ADDAA100030091AA203030091AY191061AY261061GA1041+009609069GA2011+012009099GF107991051091012501071001MA1999999092741MD1999999+0051MW1171REMSYN100AAXX  20064 42111 21695 71401 10256 20239 39274 40017 71796 85970 333 58005 6030/ 84632 81940 86460;
0243421110999992000062009004+30310+078300FM-12+068299999V0201401N00101036001CN0040001N1+02881+02401099971ADDAA100030091AA206030091AY191031AY221031GA1011+010509069GA2031+012009089GF106991041081012501071001MA1999999092631MD1999999+0051MW1021REMSYN100AAXX  20094 42111 21696 61402 10288 20240 39263 49997 70292 84870 333 58005 6030/ 81635 83840 85360;
0234421110999992000062012004+30310+078300FM-12+068299999V0201401N000512200019N0040001N1+02901+02401099751ADDAA100030091AA209030091AY191061AY221061GA1011+010509059GF102991021081012501001001KA1120M+02981MA1999999092431MD1999999-0011MW1011REMSYN094AAXX  20124 42111 21696 21401 10290 20240 39243 49975 70192 82800 333 10298 59001 6030/ 81635;
0187421110999992000062015004+30310+078300FM-12+068299999V0200501N000512200019N0040001N1+02661+02381099931ADDAA100030091AA212030091GA1021+010509059GF103991021051012501031001MA1999999092541MD1999999+0011REMSYN082AAXX  20154 42111 22696 30501 10266 20238 39254 49993 82530 333 58001 6030/ 82635;
0187421110999992000062018004+30310+078300FM-12+068299999V0209999C000010360019N0040001N1+02581+02351100031ADDAA100030091AA215030091GA1031+010509059GF105991031051012501031001MA1999999092621MD1999999-0031REMSYN082AAXX  20184 42111 22696 50000 10258 20235 39262 40003 83530 333 59003 6030/ 83635;
0187421110999992000062021004+30310+078300FM-12+068299999V0200501N000510360019N0040001N1+02521+02381100041ADDAA100030091AA218030091GA1031+010509059GF105991031051012501031001MA1999999092531MD1999999-0141REMSYN082AAXX  20214 42111 22696 50501 10252 20238 39253 40004 83530 333 59014 6030/ 83635;
0193421110999992000062100004+30310+078300FM-12+068299999V0209999C00001036001CN0040001N1+02501+02361100001ADDAA100030091AA221030091GA1031+010509069GF106991041081012501071001MA1999999092561MD1999999-0061REMSYN088AAXX  21004 42111 22696 60000 10250 20236 39256 40000 84870 333 59006 6030/ 83635 85360;
0231421110999992000062103004+30310+078300FM-12+068299999V0201401N000512200019N0040001N1+02701+02301100011ADDAA100030091AA224030091GA1021+010509069GF104991041081012501001001KA1120M+02981KA2120N+02471MA1999999092621MD1999999-0051REMSYN100AAXX  21034 42111 22696 41401 10270 20230 39262 40001 84800 333 10298 20247 59005 6030/ 82635 83840;
0217421110999992000062106004+30310+078300FM-12+068299999V0201401N00051012001CN0040001N1+02961+02341099851ADDAA199000091GA1021+010509069GA2031+012009089GF106991041081012501031001MA1999999092541MD1999999-0201REMSYN088AAXX  21064 42111 32696 61401 10296 20234 39254 49985 84830 333 59020 82635 83840 85360;EQDQ01  00002PRCP99
0217421110999992000062109004+30310+078300FM-12+068299999V0201401N00151036001CN0040001N1+03061+02451099701ADDAA199000091GA1031+009009069GA2031+012009089GF106991041081008001071001MA1999999092431MD1999999-0201REMSYN088AAXX  21094 42111 32596 61403 10306 20245 39243 49970 84870 333 59020 83630 83840 85360;EQDQ01  00002PRCP99
0262421110999992000062112004+30310+078300FM-12+068299999V0200501N001010114019N0020001N1+02701+02391099501ADDAA100007192AA209007092AY191061AY261061GA1041+009009069GA2021+011409099GF107991051091008001021001KA1120M+03141MA1999999092251MD1999999-0181MW1951REMSYN106AAXX  21124 42111 21595 70502 10270 20239 39225 49950 79596 85920 333 10314 59018 6007/ 84630 82938 87456;
0215421110999992000062121004+30310+078300FM-12+068299999V0200501N001012200019N0020001N1+02261+02171099891ADDAA100061091AA218061091AY111031AY211031GA1031+030009079GF103991031001999999031001MA1999999092421MD1999999-0111MW1051REMSYN088AAXX  21214 42111 21995 30502 10226 20217 39242 49989 70511 83030 333 59011 6061/ 83360;
0259421110999992000062203004+30310+078300FM-12+068299999V0209999C00001015001CN0020001N1+02601+02401099811ADDAA100061091AA224061091AY121031AY221031GA1041+009609069GF107991051081012501071001KA1120M+03141KA2120N+02231MA1999999092411MD1999999-0211MW1051REMSYN106AAXX  22034 42111 21695 70000 10260 20240 39241 49981 70522 85870 333 10314 20223 59021 6061/ 84632 86460;
0245421110999992000062206004+30310+078300FM-12+068299999V0201401N00151012001CN0020001N1+03001+02421099761ADDAA199000091AY101061AY201061GA1021+009009069GA2031+012009089GF105991041081008001031001MA1999999092471MD1999999-0071MW1051REMSYN094AAXX  22064 42111 31595 51403 10300 20242 39247 49976 70500 84830 333 59007 82630 83840 85360;EQDQ01  00002PRCP99
0223421110999992000062209004+30310+078300FM-12+068299999V0200501N00101036001CN0040001N1+02601+02261099881ADDAA199000091AY191031AY221031GA1041+009609069GF107991041051012501071001MA1999999092481MD1999999+0051MW1021REMSYN088AAXX  22094 42111 31696 70502 10260 20226 39248 49988 70292 84570 333 58005 84632 86460;EQDQ01  00002PRCP99
0195421110999992000062215004+30310+078300FM-12+068299999V0209999C00001090001CN0040001N1+02561+02331099811ADDAA199000091GA1011+010509069GF105991011051012501031011MA1999999092411MD1999999+0031REMSYN082AAXX  22154 42111 32696 50000 10256 20233 39241 49981 81531 333 58003 81635 84075;EQDQ01  00002PRCP99
0195421110999992000062218004+30310+078300FM-12+068299999V0201401N00051036001CN0040001N1+02421+02191099951ADDAA199000091GA1021+010509069GF106991021051012501071001MA1999999092511MD1999999+0031REMSYN082AAXX  22184 42111 32696 61401 10242 20219 39251 49995 82570 333 58003 82635 85360;EQDQ01  00002PRCP99
0195421110999992000062221004+30310+078300FM-12+068299999V0201401N00051036001CN0040001N1+02381+02181099941ADDAA199000091GA1041+010509069GF107991041051012501071001MA1999999092491MD1999999+0071REMSYN082AAXX  22214 42111 32696 71401 10238 20218 39249 49994 84570 333 58007 84635 86460;EQDQ01  00002PRCP99
0243421110999992000062300004+30310+078300FM-12+068299999V0209999C000010120019N0020001N1+02341+02131100061ADDAA100000791AA221999929AY161061AY221061GA1041+006609069GA2041+012009089GF108991061081008001021999MA1999999092601MD1999999+0211MW1601REMSYN100AAXX  23004 42111 21595 80000 10234 20213 39260 40006 76062 8682/ 333 58021 6990/ 84622 84840 87458;
0259421110999992000062303004+30310+078300FM-12+068299999V0202301N00051036001CN0040001N1+02501+02151100161ADDAA100000791AA224999929AY161031AY221031GA1031+008409069GF108991031051008001021999KA1120M+03081KA2120N+02251MA1999999092731MD1999999+0321MW1021REMSYN106AAXX  23034 42111 21596 82301 10250 20215 39273 40016 70262 8352/ 333 10308 20225 58032 6990/ 83628 88458;
0198421110999992000062306004+30310+078300FM-12+068299999V0202701N000512200019N0040001N1+02821+02121099991ADDAA199000021AY161061AY221061GA1021+012009029GF103991021011012501031001MA1999999092641MD1999999+0171MW1021REMSYN082AAXX  23064 42111 31696 32701 10282 20212 39264 49999 70262 82130 333 58017 82840;
0204421110999992000062309004+30310+078300FM-12+068299999V0201401N00051036001CN0020001N1+03021+02251099751ADDAA199000021AY121031AY221031GA1031+010509069GF107991041081012501071001MA1999999092481MD1999999+0001MW1051REMSYN088AAXX  23094 42111 31695 71401 10302 20225 39248 49975 70522 84870 333 58000 83635 85460;
0245421110999992000062312004+30310+078300FM-12+068299999V0202701N00151012001CN0020001N1+02921+02361099671ADDAA199000021AY121061AY221061GA1021+010509069GA2031+012009089GF106991041081012501071001KA1120M+03071MA1999999092381MD1999999+0161MW1051REMSYN100AAXX  23124 42111 31695 62703 10292 20236 39238 49967 70522 84870 333 10307 58016 82635 83840 85360;
0223421110999992000062315004+30310+078300FM-12+068299999V0201401N00051036001CN0020001N1+02641+02241099881ADDAA199000091AY121031AY221031GA1031+010509069GF105991031051012501031001MA1999999092501MD1999999+0091MW1051REMSYN088AAXX  23154 42111 31695 51401 10264 20224 39250 49988 70522 83530 333 58009 83635 85360;EQDQ01  00002PRCP99
0217421110999992000062400004+30310+078300FM-12+068299999V0209999C000012200019N0040001N1+02281+02101099861ADDAA199000091GA1021+010509069GA2021+012009089GF104991031081012501031001MA1999999092391MD1999999-0211REMSYN088AAXX  24004 42111 32696 40000 10228 20210 39239 49986 83830 333 59021 82635 82840 83360;EQDQ01  00002PRCP99
0283421110999992000062403004+30310+078300FM-12+068299999V0200501N00101012001CN0020001N1+02501+02181099861ADDAA199000091AY191031AY221031GA1031+010509069GA2011+012009099GF107991051091012501071001KA1120M+03071KA2120N+02271MA1999999092441MD1999999-0291MW1171REMSYN106AAXX  24034 42111 31695 70502 10250 20218 39244 49986 71792 85970 333 10307 20227 59029 83635 81940 85460;EQDQ01  00002PRCP99
0245421110999992000062406004+30310+078300FM-12+068299999V0201401N001010300019N0020001N1+02941+02201099681ADDAA199000091AY191061AY221061GA1011+010509069GA2041+030009039GF106991021081012501051011MA1999999092391MD1999999-0251MW1051REMSYN094AAXX  24064 42111 31695 61402 10294 20220 39239 49968 70592 82851 333 59025 81635 84360 85075;EQDQ01  00002PRCP99
0223421110999992000062409004+30310+078300FM-12+068299999V0203201N00051036001CN0020001N1+03041+02181099511ADDAA199000091AY121031AY221031GA1011+010509069GF107991021081012501071001MA1999999092261MD1999999-0221MW1051REMSYN088AAXX  24094 42111 31695 73201 10304 20218 39226 49951 70522 82870 333 59022 81635 86460;EQDQ01  00002PRCP99
0281421110999992000062412004+30310+078300FM-12+068299999V0203201N00051036001CN0020001N1+02901+02241099401ADDAA100000791AA209999999AY191061AY261061GA1031+009009069GA2031+012009089GF107991041081008001071001KA1120M+03081MA1999999092101MD1999999-0281MW1291REMSYN106AAXX  24124 42111 21595 73201 10290 20224 39210 49940 72996 84870 333 10308 59028 6990/ 83630 83840 86460;EQDQ01  99992PRCP09
0212421110999992000062415004+30310+078300FM-12+068299999V0200501N000512200019N0040001N1+02641+02271099501ADDAA100000791AA212999999GA1011+010509069GF103991011051012501031001MA1999999092151MD1999999-0351REMSYN088AAXX  24154 42111 22696 30501 10264 20227 39215 49950 81530 333 59035 6990/ 81635 83360;EQDQ01  99992PRCP12
0200421110999992000062418004+30310+078300FM-12+068299999V0200501N001012200019N0040001N1+02481+02131099601ADDAA100000791AA215999999GA1021+030009079GF102991999999999999999999MA1999999092201MD1999999-0291REMSYN076AAXX  24184 42111 22996 20502 10248 20213 39220 49960 333 59029 6990/ 82360;EQDQ01  99992PRCP15
0206421110999992000062421004+30310+078300FM-12+068299999V0200501N000512200019N0040001N1+02401+02111099611ADDAA100000791AA218999999GA1011+030009079GF101991011001999999031001MA1999999092181MD1999999-0251REMSYN082AAXX  24214 42111 22996 10501 10240 20211 39218 49961 81030 333 59025 6990/ 81360;EQDQ01  99992PRCP18
0212421110999992000062500004+30310+078300FM-12+068299999V0200501N001012200019N0040001N1+02341+02071099621ADDAA100000791AA221999999GA1021+010509069GF103991021051012501031001MA1999999092191MD1999999-0201REMSYN088AAXX  25004 42111 22696 30502 10234 20207 39219 49962 82530 333 59020 6990/ 82635 83360;EQDQ01  99992PRCP21
0253421110999992000062503004+30310+078300FM-12+068299999V0202301N000512200019N0020001N1+02821+02311099581ADDAA100000791AA224999999AY111031AY211031GA1011+030009079GF101991011001999999031001KA1120N+02311MA1999999092281MD1999999-0161MW1051REMSYN094AAXX  25034 42111 21995 12301 10282 20231 39228 49958 70511 81030 333 20231 59016 6990/ 81360;EQDQ01  99992PRCP24
0245421110999992000062506004+30310+078300FM-12+068299999V0200501N00101220001CN0020001N1+03121+02181099511ADDAA199000091AY121061AY211061GA1011+010509069GA2031+012009089GF106991041081012501001011MA1999999092281MD1999999-0111MW1051REMSYN094AAXX  25064 42111 31695 60502 10312 20218 39228 49951 70521 84801 333 59011 81635 83840 85075;EQDQ01  00002PRCP99
0245421110999992000062509004+30310+078300FM-12+068299999V0201401N00101036001CN0020001N1+03001+02201099571ADDAA199000091AY121031AY221031GA1031+010509069GA2011+011409099GF106991041091012501031001MA1999999092291MD1999999+0031MW1171REMSYN094AAXX  25094 42111 31695 61402 10300 20220 39229 49957 71722 84930 333 58003 83635 81938 85360;EQDQ01  00002PRCP99
0240421110999992000062512004+30310+078300FM-12+068299999V0200501N00151036001CN0040001N1+02761+02181099541ADDAA100000191AA209000191AY191061AY261061GA1021+010509069GF105991031081012501031001KA1120M+03261MA1999999092211MD1999999+0111MW1021REMSYN100AAXX  25124 42111 21696 50503 10276 20218 39221 49954 70296 83830 333 10326 58011 6991/ 82635 85360;
0192421110999992000062515004+30310+078300FM-12+068299999V0200501N001012200019N0020001N1+02661+02351099581ADDAA100000191AY121031AY201031GA1001+999999999GF100991001001999999001001MA1999999092231MD1999999+0081MW1051REMSYN076AAXX  25154 42111 21995 00502 10266 20235 39223 49958 70520 333 58008 6991/;
0221421110999992000062518004+30310+078300FM-12+068299999V0200501N00101036001CN0020001N1+02581+02111099721ADDAA100000191AA215000191AY121061AY221061GA1041+010509069GF107991041051012501021001MA1999999092321MD1999999+0121MW1051REMSYN094AAXX  25184 42111 21695 70502 10258 20211 39232 49972 70522 84520 333 58012 6991/ 84635 86460;
0221421110999992000062521004+30310+078300FM-12+068299999V0200501N001010090019N0020001N1+02561+02121099691ADDAA100000191AA218000191AY121031AY221031GA1061+009009069GF108991061051012501021999MA1999999092301MD1999999+0121MW1051REMSYN094AAXX  25214 42111 21695 80502 10256 20212 39230 49969 70522 8652/ 333 58012 6991/ 86630 87460;
0243421110999992000062600004+30310+078300FM-12+068299999V0203201N001010090019N0020001N1+02521+02171099641ADDAA100000191AA221000191AY191061AY261061GA1051+009009069GA2021+012009099GF108991061091008001021999MA1999999092261MD1999999+0071MW1951REMSYN100AAXX  26004 42111 21595 83202 10252 20217 39226 49964 79596 8692/ 333 58007 6991/ 85630 82940 87460;
0243421110999992000062606004+30310+078300FM-12+068299999V0201401N000510060019N0020001N1+02461+02351099911ADDAA100001091AA203001091AY191061AY261061GA1031+003009079GA2051+006009069GF108991061071004501021999MA1999999092491MD1999999+0211MW1291REMSYN100AAXX  26064 42111 21495 81401 10246 20235 39249 49991 72996 8672/ 333 58021 6001/ 83710 85620 88460;
0240421110999992000062612004+30310+078300FM-12+068299999V0202701N00051036001CN0020001N1+02981+02451099521ADDAA100001091AA209001091AY121061AY221061GA1021+010509069GF108991021051012501071999KA1120M+03031MA1999999092241MD1999999+0031MW1051REMSYN100AAXX  26124 42111 21695 82701 10298 20245 39224 49952 70522 8257/ 333 10303 58003 6001/ 82635 86360;
0221421110999992000062615004+30310+078300FM-12+068299999V0209999C00001036001CN0020001N1+02741+02551099651ADDAA100001091AA212001091AY121031AY221031GA1021+010509069GF107991021051012501071001MA1999999092311MD1999999+0081MW1051REMSYN094AAXX  26154 42111 21695 70000 10274 20255 39231 49965 70522 82570 333 58008 6001/ 82635 86460;
0221421110999992000062621004+30310+078300FM-12+068299999V0201401N00051036001CN0020001N1+02701+02511099781ADDAA100001091AA218001091AY121031AY221031GA1031+009009069GF108991031051008001071999MA1999999092411MD1999999+0111MW1051REMSYN094AAXX  26214 42111 21595 81401 10270 20251 39241 49978 70522 8357/ 333 58011 6001/ 83630 87460;
0243421110999992000062700004+30310+078300FM-12+068299999V0209999C000010075019N0020001N1+02201+02141100071ADDAA100015091AA221015091AY191061AY261061GA1051+007509069GA2011+012009099GF108991061091008001021999MA1999999092551MD1999999+0291MW1951REMSYN100AAXX  27004 42111 21595 80000 10220 20214 39255 40007 79596 8692/ 333 58029 6015/ 85625 81940 88458;
0221421110999992000062706004+30310+078300FM-12+068299999V0202301N00051036001CN0040001N1+02501+02301100011ADDAA100002091AA203002091AY191061AY261061GA1031+008409069GF108991031051008001021999MA1999999092571MD1999999+0081MW1021REMSYN094AAXX  27064 42111 21596 82301 10250 20230 39257 40001 70296 8352/ 333 58008 6002/ 83628 88458;
0193421110999992000062709004+30310+078300FM-12+068299999V0209999C000010060019N0040001N1+02741+02311099881ADDAA100002091AA206002091GA1051+006009069GF108991061081008001021999MA1999999092521MD1999999+0141REMSYN088AAXX  27094 42111 22596 80000 10274 20231 39252 49988 8682/ 333 58014 6002/ 85620 88460;
0240421110999992000062712004+30310+078300FM-12+068299999V0202701N00051220001CN0020001N1+02821+02311099671ADDAA100002091AA209002091AY121061AY221061GA1021+004509079GF107991031071004501001011KA1120M+02911MA1999999092351MD1999999+0111MW1051REMSYN100AAXX  27124 42111 21495 72701 10282 20231 39235 49967 70522 83701 333 10291 58011 6002/ 82715 86075;
0187421110999992000062715004+30310+078300FM-12+068299999V0209999C000012200019N0040001N1+02621+02391099861ADDAA100002091AA212002091GA1031+030009079GF103991031001999999031001MA1999999092491MD1999999+0181REMSYN082AAXX  27154 42111 22996 30000 10262 20239 39249 49986 83030 333 58018 6002/ 83360;
0187421110999992000062718004+30310+078300FM-12+068299999V0209999C000012200019N0040001N1+02501+02301100001ADDAA100002091AA215002091GA1031+030009079GF104991031001999999031011MA1999999092561MD1999999+0131REMSYN082AAXX  27184 42111 22996 40000 10250 20230 39256 40000 83031 333 58013 6002/ 83360;
0193421110999992000062721004+30310+078300FM-12+068299999V0209999C000010084019N0040001N1+02481+02321100001ADDAA100002091AA218002091GA1051+008409069GF108991051051008001021999MA1999999092561MD1999999+0151REMSYN088AAXX  27214 42111 22596 80000 10248 20232 39256 40000 8552/ 333 58015 6002/ 85628 88458;
0193421110999992000062800004+30310+078300FM-12+068299999V0209999C000010084019N0040001N1+02461+02351100131ADDAA100002091AA221002091GA1061+008409069GF108991061051008001021999MA1999999092691MD1999999+0141REMSYN088AAXX  28004 42111 22596 80000 10246 20235 39269 40013 8652/ 333 58014 6002/ 86628 88458;
0221421110999992000062806004+30310+078300FM-12+068299999V0201401N001010090019N0020001N1+02961+02341100181ADDAA100000591AA203000691AY161061AY221061GA1051+009009069GF108991051051012501021999MA1999999092861MD1999999+0291MW1051REMSYN094AAXX  28064 42111 21695 81402 10296 20234 39286 40018 70562 8552/ 333 58029 6996/ 85630 88460;
0265421110999992000062809004+30310+078300FM-12+068299999V0200501N00101011401CN0020001N1+02861+02411100011ADDAA100002091AA206002091AY191031AY261031GA1021+009009069GA2031+011409089GA3011+012009099GF107991041091012501071001MA1999999092671MD1999999+0151MW1171REMSYN106AAXX  28094 42111 21695 70502 10286 20241 39267 40001 71796 84970 333 58015 6002/ 82630 83838 81940 85460;
0240421110999992000062812004+30310+078300FM-12+068299999V0201401N00051012001CN0020001N1+03001+02561099771ADDAA100002091AA209002091AY191061AY261061GA1041+009009069GF107991051081008001071001KA1120M+03091MA1999999092481MD1999999+0131MW1211REMSYN100AAXX  28124 42111 21595 71401 10300 20256 39248 49977 72196 85870 333 10309 58013 6002/ 84630 86460;
0164421110999992000062815004+30310+078300FM-12+068299999V0202301N000512200019N0040001N1+02701+02481099971ADDAA100002091GA1001+999999999GF100991001001999999001001MA1999999092581MD1999999+0091REMSYN070AAXX  28154 42111 22996 02301 10270 20248 39258 49997 333 58009 6002/;
0243421110999992000062818004+30310+078300FM-12+068299999V0209999C000012200019N0040001N1+02601+02401100081ADDAA100002091AA215002091AY101061AY221061GA1021+009009069GA2011+012009099GF104991021091012501031001MA1999999092671MD1999999+0111MW1131REMSYN100AAXX  28184 42111 21696 40000 10260 20240 39267 40008 71302 82930 333 58011 6002/ 82630 81940 83360;
0215421110999992000062821004+30310+078300FM-12+068299999V0200501N000510120019N0040001N1+02501+02381100081ADDAA100002091AA218002091GA1031+007509069GA2031+012009089GF107991051081008001021001MA1999999092641MD1999999+0081REMSYN094AAXX  28214 42111 22596 70501 10250 20238 39264 40008 85820 333 58008 6002/ 83625 83840 86460;
0265421110999992000062900004+30310+078300FM-12+068299999V0200501N001510075019N0020001N1+02381+02271100211ADDAA100005192AA221005092AY191061AY261061GA1041+003009079GA2051+007509069GA3011+010509099GF108991061091004501021999MA1999999092731MD1999999+0041MW1951REMSYN106AAXX  29004 42111 21495 80503 10238 20227 39273 40021 79596 8692/ 333 58004 6005/ 84710 85625 81935 87458;
0226421110999992000062906004+30310+078300FM-12+068299999V0209999C00001006001CN0020001N1+02501+02331100311ADDAA199000021AY191061AY261061GA1021+003009079GA2031+006009069GF107991041071004501071001MA1999999092861MD1999999+0001MW1021REMSYN094AAXX  29064 42111 31495 70000 10250 20233 39286 40031 70296 84770 333 58000 82710 83620 87460;
0198421110999992000062909004+30310+078300FM-12+068299999V0201401N00101012001CN0040001N1+02921+02421100071ADDAA199000021GA1021+009009069GA2031+012009089GF107991041081008001071001MA1999999092751MD1999999+0081REMSYN088AAXX  29094 42111 32596 71402 10292 20242 39275 40007 84870 333 58008 82630 83840 85460;
0223421110999992000062912004+30310+078300FM-12+068299999V0201401N00051036001CN0020001N1+02861+02441099941ADDAA199000021AY121061AY221061GA1021+012009089GF107991031081012501071001KA1120M+02931MA1999999092601MD1999999+0121MW1051REMSYN094AAXX  29124 42111 31695 71401 10286 20244 39260 49994 70522 83870 333 10293 58012 82840 86460;
0177421110999992000062915004+30310+078300FM-12+068299999V0209999C000012200019N0040001N1+02621+02371100071ADDAA199000091GA1001+999999999GF100991001001999999001001MA1999999092681MD1999999+0101REMSYN064AAXX  29154 42111 32996 00000 10262 20237 39268 40007 333 58010;EQDQ01  00002PRCP99
0177421110999992000062918004+30310+078300FM-12+068299999V0209999C000012200019N0040001N1+02501+02301100131ADDAA199000091GA1001+999999999GF100991001001999999001001MA1999999092681MD1999999+0011REMSYN064AAXX  29184 42111 32996 00000 10250 20230 39268 40013 333 58001;EQDQ01  00002PRCP99
0195421110999992000062921004+30310+078300FM-12+068299999V0209999C00001036001CN0040001N1+02421+02221100101ADDAA199000091GA1031+009009069GF106991031051012501071001MA1999999092661MD1999999+0021REMSYN082AAXX  29214 42111 32696 60000 10242 20222 39266 40010 83570 333 58002 83630 85460;EQDQ01  00002PRCP99
0223421110999992000063000004+30310+078300FM-12+068299999V0200501N00051015001CN0020001N1+02401+02201100091ADDAA199000091AY121061AY221061GA1041+009009069GF107991051081012501071001MA1999999092631MD1999999-0101MW1051REMSYN088AAXX  30004 42111 31695 70501 10240 20220 39263 40009 70522 85870 333 59010 84630 86460;EQDQ01  00002PRCP99
0291421110999992000063003004+30310+078300FM-12+068299999V0203201N000510300019N0040001N1+02581+02381100251ADDAA100001091AA224001091AY161031AY221031GA1041+009609069GA2061+030009049GF107991051081012501071001KA1120M+02931KA2120N+02361MA1999999092821MD1999999-0021MW1021REMSYN122AAXX  30034 42111 21696 73201 10258 20238 39282 40025 70262 85870 333 10293 20236 59002 6001/ 84632 86460 555 00010 10309;
0217421110999992000063006004+30310+078300FM-12+068299999V0202301N000519999999N0040001N1+02881+02281100141ADDAA199000091AY161061AY221061GA1021+012009089GF105991999999012501999999MA1999999092791MD1999999-0071MW1021REMSYN082AAXX  30064 42111 31696 52301 10288 20228 39279 40014 70262 333 59007 82840 84360;EQDQ01  00002PRCP99
0195421110999992000063009004+30310+078300FM-12+068299999V0203201N00101036001CN0040001N1+03001+02351100001ADDAA199000091GA1031+012009089GF107991031021012501071001MA1999999092691MD1999999-0061REMSYN082AAXX  30094 42111 32696 73202 10300 20235 39269 40000 83270 333 59006 83840 86360;EQDQ01  00002PRCP99
0214421110999992000063012004+30310+078300FM-12+068299999V0203201N00051036001CN0040001N1+02801+02321099931ADDAA199000091GA1021+012009089GF107991031081012501071001KA1120M+03031MA1999999092571MD1999999-0031REMSYN088AAXX  30124 42111 32696 73201 10280 20232 39257 49993 83870 333 10303 59003 82840 86360;EQDQ01  00002PRCP99
0189421110999992000063015004+30310+078300FM-12+068299999V0209999C000012200019N0040001N1+02621+02371099911ADDAA199000091GA1021+030009079GF102991021001999999031001MA1999999092541MD1999999-0141REMSYN076AAXX  30154 42111 32996 20000 10262 20237 39254 49991 82030 333 59014 82360;EQDQ01  00002PRCP99
0177421110999992000063018004+30310+078300FM-12+068299999V0209999C000012200019N0040001N1+02421+02361100091ADDAA199000091GA1001+999999999GF100991001001999999001001MA1999999092651MD1999999-0031REMSYN064AAXX  30184 42111 32996 00000 10242 20236 39265 40009 333 59003;EQDQ01  00002PRCP99
0195421110999992000070100004+30310+078300FM-12+068299999V0209999C00001036001CN0040001N1+02381+02211100061ADDAA199000091GA1011+010509069GF105991021081012501031001MA1999999092601MD1999999-0031REMSYN082AAXX  01004 42111 32696 50000 10238 20221 39260 40006 82830 333 59003 81635 84360;EQDQ01  00002PRCP99
0233421110999992000070103004+30310+078300FM-12+068299999V0202301N00051036001CN0040001N1+02781+02271100101ADDAA199000091GA1021+009609069GF106991031081012501071001KA1120M+03031KA2120N+02361MA1999999092731MD1999999-0091REMSYN094AAXX  01034 42111 32696 62301 10278 20227 39273 40010 83870 333 10303 20236 59009 82632 85360;EQDQ01  00002PRCP99
0245421110999992000070109004+30310+078300FM-12+068299999V0202301N00101036001CN0020001N1+03001+02291099941ADDAA199000091AY121031AY221031GA1041+009009069GA2031+012009089GF107991041081012501071001MA1999999092631MD1999999-0061MW1051REMSYN094AAXX  01094 42111 31695 72302 10300 20229 39263 49994 70522 84870 333 59006 84630 83840 86460;EQDQ01  00002PRCP99
0242421110999992000070112004+30310+078300FM-12+068299999V0203201N00101036001CN0020001N1+02901+02341099851ADDAA199000091AY191061AY221061GA1031+012009089GF106991041081012501031011KA1120M+03051MA1999999092511MD1999999-0061MW1051REMSYN094AAXX  01124 42111 31695 63202 10290 20234 39251 49985 70592 84831 333 10305 59006 83840 84360;EQDQ01  00002PRCP99
0195421110999992000070115004+30310+078300FM-12+068299999V0201401N000512200019N0040001N1+02601+02291099921ADDAA199000091GA1011+010509069GF103991011051012501031001MA1999999092511MD1999999-0031REMSYN082AAXX  01154 42111 32696 31401 10260 20229 39251 49992 81530 333 59003 81635 83360;EQDQ01  00002PRCP99
0189421110999992000070121004+30310+078300FM-12+068299999V0200501N001012200019N0040001N1+02441+02211100101ADDAA199000091GA1021+030009079GF102991021001999999031001MA1999999092661MD1999999+0031REMSYN076AAXX  01214 42111 32996 20502 10244 20221 39266 40010 82030 333 58003 82360;EQDQ01  00002PRCP99
0261421110999992000070203004+30310+078300FM-12+068299999V0202701N00101036001CN0020001N1+02761+02391099961ADDAA199000091AY121031AY221031GA1031+012009089GF106991031021012501031011KA1120M+03051KA2120N+02361MA1999999092601MD1999999-0131MW1051REMSYN100AAXX  02034 42111 31695 62702 10276 20239 39260 49996 70522 83231 333 10305 20236 59013 83840 83360;EQDQ01  00002PRCP99
0262421110999992000070209004+30310+078300FM-12+068299999V0202301N00101012001CN0040001N1+03041+01661099831ADDAA100000791AA206999999AY191031AY261031GA1021+009009069GA2031+012009089GF106991041081012501071001MA1999999092551MD1999999-0081MW1021REMSYN100AAXX  02094 42111 21696 62302 10304 20166 39255 49983 70296 84870 333 59008 6990/ 82630 83840 85360;EQDQ01  99992PRCP06
0253421110999992000070212004+30310+078300FM-12+068299999V0201401N001012200019N0020001N1+02941+02351099661ADDAA100000791AA209999999AY191061AY261061GA1031+012009029GF104991031011012501031001KA1120M+03081MA1999999092371MD1999999-0141MW1051REMSYN094AAXX  02124 42111 21695 41402 10294 20235 39237 49966 70596 83130 333 10308 59014 6990/ 83840;EQDQ01  99992PRCP09
0206421110999992000070218004+30310+078300FM-12+068299999V0202301N000512200019N0040001N1+02501+02271100081ADDAA100000791AA215999999GA1031+030009079GF103991031001999999031001MA1999999092641MD1999999-0031REMSYN082AAXX  02184 42111 22996 32301 10250 20227 39264 40008 83030 333 59003 6990/ 83360;EQDQ01  99992PRCP15
0221421110999992000070300004+30310+078300FM-12+068299999V0209999C00001036001CN0040001N1+02381+02211100111ADDAA100003091AA221003091AY191061AY261061GA1031+010509069GF107991031051012501071001MA1999999092651MD1999999+0011MW1021REMSYN094AAXX  03004 42111 21696 70000 10238 20221 39265 40011 70296 83570 333 58001 6003/ 83635 86460;
0212421110999992000070303004+30310+078300FM-12+068299999V0202301N000512200019N0040001N1+02681+02281100141ADDAA100003091AA224003091GA1011+012009089GF103991011011012501031001KA1120N+02321MA1999999092741MD1999999+0141REMSYN094AAXX  03034 42111 22696 32301 10268 20228 39274 40014 81130 333 20232 58014 6003/ 81840 83360;
0195421110999992000070306004+30310+078300FM-12+068299999V0201401N000512200019N0040001N1+03041+02211100071ADDAA199000091GA1011+010509069GF104991031081012501031001MA1999999092771MD1999999+0031REMSYN082AAXX  03064 42111 32696 41401 10304 20221 39277 40007 83830 333 58003 81635 83840;EQDQ01  00002PRCP99
0217421110999992000070309004+30310+078300FM-12+068299999V0203201N00101012001CN0040001N1+03161+02351099871ADDAA199000091GA1021+010509069GA2031+012009089GF105991041081012501031001MA1999999092611MD1999999+0061REMSYN088AAXX  03094 42111 32696 53202 10316 20235 39261 49987 84830 333 58006 82635 83840 85360;EQDQ01  00002PRCP99
0242421110999992000070312004+30310+078300FM-12+068299999V0201401N00051015001CN0020001N1+03001+02471099671ADDAA199000091AY121061AY221061GA1031+010509069GF106991061081012501001001KA1120M+03161MA1999999092381MD1999999+0011MW1051REMSYN094AAXX  03124 42111 31695 61401 10300 20247 39238 49967 70522 86800 333 10316 58001 83635 85840;EQDQ01  00002PRCP99
0221421110999992000070315004+30310+078300FM-12+068299999V0200901N00051036001CN0020001N1+02621+02451099951ADDAA100004192AA212004092AY161031AY221031GA1031+009009069GF106991031051012501071001MA1999999092561MD1999999+0101MW1611REMSYN094AAXX  03154 42111 21695 60901 10262 20245 39256 49995 76162 83570 333 58010 6004/ 83630 85460;
0243421110999992000070318004+30310+078300FM-12+068299999V0200901N001010075019N0020001N1+02541+02221100071ADDAA100004192AA215004092AY191061AY261061GA1031+006009079GA2041+007509069GF108991061071004501021999MA1999999092661MD1999999+0021MW1951REMSYN100AAXX  03184 42111 21495 80902 10254 20222 39266 40007 79596 8672/ 333 58002 6004/ 83720 84625 87458;
0221421110999992000070400004+30310+078300FM-12+068299999V0200901N00051012001CN0020001N1+02341+02251100091ADDAA100062091AA221062091AY191061AY261061GA1041+007509069GF107991051081008001021001MA1999999092631MD1999999-0021MW1611REMSYN094AAXX  04004 42111 21595 70901 10234 20225 39263 40009 76196 85820 333 59002 6062/ 84625 85458;
0259421110999992000070403004+30310+078300FM-12+068299999V0209999C00001036001CN0040001N1+02601+02371100121ADDAA100063091AA224063091AY191031AY261031GA1021+012009089GF105991021021012501031001KA1120M+03161KA2120N+02151MA1999999092701MD1999999-0041MW1021REMSYN106AAXX  04034 42111 21696 50000 10260 20237 39270 40012 70296 82230 333 10316 20215 59004 6063/ 82840 85360;
0226421110999992000070406004+30310+078300FM-12+068299999V0202301N00101012001CN0040001N1+02901+02431100031ADDAA199000021AY191061AY261061GA1021+009009069GA2031+012009089GF106991041081008001031001MA1999999092691MD1999999-0081MW1021REMSYN094AAXX  04064 42111 31596 62302 10290 20243 39269 40003 70296 84830 333 59008 82630 83840 85360;
0215421110999992000070415004+30310+078300FM-12+068299999V0209999C000012200019N0040001N1+02761+02481099771ADDAA100001091AA212001091AY161031AY221031GA1021+030009079GF102991021001999999031001MA1999999092431MD1999999-0131MW1011REMSYN088AAXX  04154 42111 21996 20000 10276 20248 39243 49977 70162 82030 333 59013 6001/ 82360;
0243421110999992000070418004+30310+078300FM-12+068299999V0209999C000012200019N0020001N1+02641+02441099941ADDAA100001091AA215001091AY161061AY221061GA1011+009009069GA2011+012009099GF104991021091012501071001MA1999999092551MD1999999-0111MW1131REMSYN100AAXX  04184 42111 21695 40000 10264 20244 39255 49994 71362 82970 333 59011 6001/ 81630 81940 83360;
0198421110999992000070500004+30310+078300FM-12+068299999V0200501N000510090019N0020001N1+02521+02351099961ADDAA100001091AA221001091GA1031+008409069GF108991061081004501021999MA1999999092551MD1999999-0081REMSYN093AAXX  05004 42111 22495 80501 10252 20235 39255 49996 8682/ 333 59008 6001/ 8212 83628 87260;
0253421110999992000070503004+30310+078300FM-12+068299999V0209999C000012200019N0040001N1+02641+02421100051ADDAA100001091AA224001091AY191031AY221031GA1011+012009029GF103991011011012501031001KA1120M+03211KA2120N+02501MA1999999092661MD1999999-0041MW1021REMSYN100AAXX  05034 42111 21696 30000 10264 20242 39266 40005 70292 81130 333 10321 20250 59004 6001/ 81840;
0223421110999992000070506004+30310+078300FM-12+068299999V0201401N00101015001CN0040001N1+03041+02491099881ADDAA199000091AY191061AY221061GA1031+010509069GF105991051081012501001001MA1999999092601MD1999999-0091MW1021REMSYN088AAXX  05064 42111 31696 51402 10304 20249 39260 49988 70292 85800 333 59009 83635 83840;EQDQ01  00002PRCP99
0264421110999992000070512004+30310+078300FM-12+068299999V0203201N00101012001CN0020001N1+03101+02551099501ADDAA199000091AY121061AY221061GA1021+009009069GA2031+012009089GF105991041081008001031001KA1120M+03231MA1999999092251MD1999999-0101MW1051REMSYN100AAXX  05124 42111 31595 53202 10310 20255 39225 49950 70522 84830 333 10323 59010 82630 83840 85360;EQDQ01  00002PRCP99
0245421110999992000070515004+30310+078300FM-12+068299999V0201401N000510360019N0020001N1+02841+02591099581ADDAA199000091AY121031AY221031GA1031+010509069GA2031+010809069GF106991031051012501031001MA1999999092281MD1999999-0151MW1051REMSYN094AAXX  05154 42111 31695 61401 10284 20259 39228 49958 70522 83530 333 59015 83636 83635 85360;EQDQ01  00002PRCP99
0223421110999992000070518004+30310+078300FM-12+068299999V0201401N00051036001CN0020001N1+02781+02561099701ADDAA199000091AY121061AY221061GA1031+010509069GF106991031051012501031001MA1999999092361MD1999999-0191MW1051REMSYN088AAXX  05184 42111 31695 61401 10278 20256 39236 49970 70522 83530 333 59019 83635 85360;EQDQ01  00002PRCP99
0245421110999992000070600004+30310+078300FM-12+068299999V0202301N000510120019N0020001N1+02561+02391099691ADDAA199000091AY121061AY221061GA1031+010509069GA2031+012009089GF107991051081012501031001MA1999999092301MD1999999-0251MW1051REMSYN094AAXX  06004 42111 31695 72301 10256 20239 39230 49969 70522 85830 333 59025 83635 83840 85360;EQDQ01  00002PRCP99
0261421110999992000070603004+30310+078300FM-12+068299999V0201401N00051090001CN0020001N1+02901+02571099691ADDAA199000091AY121031AY221031GA1021+010809069GF106991031081012501001021KA1120M+03231KA2120N+02531MA1999999092371MD1999999-0291MW1051REMSYN100AAXX  06034 42111 31695 61401 10290 20257 39237 49969 70522 83802 333 10323 20253 59029 82636 85075;EQDQ01  00002PRCP99
0223421110999992000070606004+30310+078300FM-12+068299999V0201401N00051036001CN0020001N1+03041+02581099631ADDAA199000091AY121061AY221061GA1031+009609069GF107991041081012501021001MA1999999092361MD1999999-0241MW1051REMSYN088AAXX  06064 42111 31695 71401 10304 20258 39236 49963 70522 84820 333 59024 83632 86460;EQDQ01  00002PRCP99
0243421110999992000070609004+30310+078300FM-12+068299999V0209999C00001036001CN0020001N1+03001+02701099511ADDAA100003091AA206003091AY191031AY261031GA1031+009009069GA2011+012009099GF107991041091008001071001MA1999999092231MD1999999-0211MW1171REMSYN100AAXX  06094 42111 21595 70000 10300 20270 39223 49951 71796 84970 333 59021 6003/ 83630 81940 86458;
0193421110999992000070615004+30310+078300FM-12+068299999V0209999C000010084019N0040001N1+02721+02501099421ADDAA100003091AA212003091GA1051+008409069GF108991051051008001021999MA1999999092101MD1999999-0181REMSYN088AAXX  06154 42111 22596 80000 10272 20250 39210 49942 8552/ 333 59018 6003/ 85628 87456;
0243421110999992000070618004+30310+078300FM-12+068299999V0200501N001010084019N0040001N1+02721+02531099581ADDAA100003091AA215003091AY191061AY261061GA1051+008409069GA2011+011409099GF108991061091008001021999MA1999999092251MD1999999-0111MW1171REMSYN100AAXX  06184 42111 21596 80502 10272 20253 39225 49958 71796 8692/ 333 59011 6003/ 85628 81938 87458;
0243421110999992000070700004+30310+078300FM-12+068299999V0200501N000510084019N0020001N1+02341+02311099761ADDAA100071192AA221071092AY191061AY261061GA1051+008409069GA2011+011409099GF108991061091008001021999MA1999999092311MD1999999+0011MW1951REMSYN100AAXX  07004 42111 21595 80501 10234 20231 39231 49976 79596 8692/ 333 58001 6071/ 85628 81938 87458;
0240421110999992000070703004+30310+078300FM-12+068299999V0209999C000010090019N0020001N1+02481+02421099811ADDAA100110091AA224110091AY191031AY261031GA1061+009009069GF108991061051008001071999KA1120N+02281MA1999999092391MD1999999+0021MW1021REMSYN100AAXX  07034 42111 21595 80000 10248 20242 39239 49981 70296 8657/ 333 20228 58002 6110/ 86630 87460;
0265421110999992000070706004+30310+078300FM-12+068299999V0201401N000510066019N0020001N1+02361+02331099951ADDAA100023192AA203023092AY191061AY261061GA1031+003009079GA2031+006609069GA3011+012009099GF108991061091004501021999MA1999999092561MD1999999+0201MW1951REMSYN106AAXX  07064 42111 21495 81401 10236 20233 39256 49995 79596 8692/ 333 58020 6023/ 83710 83622 81940 88458;
0221421110999992000070709004+30310+078300FM-12+068299999V0202301N001010090019N0020001N1+02501+02361099951ADDAA100024991AA206025091AY191031AY261031GA1051+009009069GF108991061081008001021999MA1999999092511MD1999999+0281MW1601REMSYN094AAXX  07094 42111 21595 82302 10250 20236 39251 49995 76096 8682/ 333 58028 6025/ 85630 88458;
0240421110999992000070712004+30310+078300FM-12+068299999V0201401N00051036001CN0020001N1+02521+02351099631ADDAA100024991AA209025091AY191061AY261061GA1031+009009069GF106991031051008001071001KA1120M+02521MA1999999092251MD1999999+0201MW1051REMSYN100AAXX  07124 42111 21595 61401 10252 20235 39225 49963 70596 83570 333 10252 58020 6025/ 83630 85460;
0221421110999992000070715004+30310+078300FM-12+068299999V0201401N00101036001CN0020001N1+02441+02331099811ADDAA100024991AA212025091AY121031AY221031GA1041+009009069GF107991041051008001021001MA1999999092391MD1999999+0291MW1051REMSYN094AAXX  07154 42111 21595 71402 10244 20233 39239 49981 70522 84520 333 58029 6025/ 84630 86460;
0243421110999992000070718004+30310+078300FM-12+068299999V0209999C000010090019N0020001N1+02461+02381099911ADDAA100024991AA215025091AY121061AY221061GA1031+006009079GA2051+009009069GF108991061071004501021999MA1999999092491MD1999999+0241MW1051REMSYN100AAXX  07184 42111 21495 80000 10246 20238 39249 49991 70522 8672/ 333 58024 6025/ 83720 85630 87458;
0262421110999992000070721004+30310+078300FM-12+068299999V0209999C000010090019N0020001N1+02401+02341999999ADDAA100024991AA218025091AY161031AY221031GA1031+006009079GA2051+009009069GF108991061071004501021999MA1999999092391MD1999999+0151MW1611REMSYN100AAXX  07214 42111 21495 80000 10240 20234 39239 40084 76162 8672/ 333 58015 6025/ 83720 85630 87458;EQDQ01+100843APOSLP
0243421110999992000070800004+30310+078300FM-12+068299999V0209999C000010090019N0020001N1+02361+02301099821ADDAA100024991AA221025091AY161061AY261061GA1021+006009079GA2051+009009069GF108991061071004501021999MA1999999092371MD1999999+0061MW1611REMSYN100AAXX  08004 42111 21495 80000 10236 20230 39237 49982 76166 8672/ 333 58006 6025/ 82720 85630 87458;
0281421110999992000070803004+30310+078300FM-12+068299999V0203601N000510066019N0040001N1+02401+02341099931ADDAA100030091AA224030091AY161031AY221031GA1021+004509079GA2041+006609069GF108991061071004501021999KA1120M+02521KA2120N+02331MA1999999092481MD1999999+0091MW1211REMSYN112AAXX  08034 42111 21496 83601 10240 20234 39248 49993 72162 8672/ 333 10252 20233 58009 6030/ 82715 84622 88454;
0226421110999992000070806004+30310+078300FM-12+068299999V0202301N000510066019N0040001N1+02501+02331099911ADDAA199000021AY161061AY221061GA1021+004509079GA2041+006609069GF108991061081004501021999MA1999999092491MD1999999-0071MW1021REMSYN094AAXX  08064 42111 31496 82301 10250 20233 39249 49991 70262 8682/ 333 59007 82715 84622 88456;
0221421110999992000070809004+30310+078300FM-12+068299999V0201401N000510075019N0040001N1+02561+02391099771ADDAA100000892AA206000792AY161031AY221031GA1061+007509069GF108991061051008001021999MA1999999092371MD1999999-0141MW1211REMSYN094AAXX  08094 42111 21596 81401 10256 20239 39237 49977 72162 8652/ 333 59014 6997/ 86625 88456;
0240421110999992000070812004+30310+078300FM-12+068299999V0200501N00051036001CN0040001N1+02541+02371099551ADDAA100002091AA209002091AY161061AY221061GA1041+008409069GF107991041051012501071001KA1120M+02561MA1999999092171MD1999999-0081MW1021REMSYN100AAXX  08124 42111 21696 70501 10254 20237 39217 49955 70262 84570 333 10256 59008 6002/ 84628 86460;
0187421110999992000070815004+30310+078300FM-12+068299999V0209999C000012200019N0040001N1+02381+02351099601ADDAA100002091AA212002091GA1021+030009079GF102991021001999999031001MA1999999092171MD1999999-0221REMSYN082AAXX  08154 42111 22996 20000 10238 20235 39217 49960 82030 333 59022 6002/ 82360;
0193421110999992000070818004+30310+078300FM-12+068299999V0200501N000512200019N0040001N1+02361+02271099601ADDAA100002091AA215002091GA1011+010509069GF103991011051012501031001MA1999999092271MD1999999-0221REMSYN088AAXX  08184 42111 22696 30501 10236 20227 39227 49960 81530 333 59022 6002/ 81635 83360;
0215421110999992000070821004+30310+078300FM-12+068299999V0200501N00051004201CN0020001N1+02401+02341099641ADDAA100002091AA218002091GA1031+006609079GA2031+006609069GF108991051071004501021999MA1999999092211MD1999999-0181REMSYN094AAXX  08214 42111 22495 80501 10240 20234 39221 49964 8572/ 333 59018 6002/ 83722 83622 88458;
0243421110999992000070900004+30310+078300FM-12+068299999V0209999C000010060019N0020001N1+02381+02321099621ADDAA100003091AA221003091AY161061AY221061GA1031+003009079GA2041+006009069GF108991061071004501021999MA1999999092191MD1999999-0181MW1201REMSYN100AAXX  09004 42111 21495 80000 10238 20232 39219 49962 72062 8672/ 333 59018 6003/ 83710 84620 88456;
0259421110999992000070903004+30310+078300FM-12+068299999V0209999C00001036001CN0020001N1+02561+02421099641ADDAA100003091AA224003091AY161031AY221031GA1021+010509069GF107991031081012501071001KA1120M+02561KA2120N+02311MA1999999092261MD1999999-0221MW1021REMSYN106AAXX  09034 42111 21695 70000 10256 20242 39226 49964 70262 83870 333 10256 20231 59022 6003/ 82635 86460;
0240421110999992000070909004+30310+078300FM-12+068299999V0202701N00101015001CN0020001N1+02801+02441099501ADDAA100000791AA206999999AY161031AY221031GA1041+009609069GF107991051081012501071001MA1999999092171MD1999999-0201MW1051REMSYN094AAXX  09094 42111 21695 72702 10280 20244 39217 49950 70562 85870 333 59020 6990/ 84632 86460;EQDQ01  99992PRCP06
0253421110999992000070912004+30310+078300FM-12+068299999V0209999C000012200019N0020001N1+02941+02501099081ADDAA100000791AA209999999AY161061AY221061GA1031+012009029GF103991031081012501001001KA1120M+03001MA1999999091831MD1999999-0341MW1051REMSYN094AAXX  09124 42111 21695 30000 10294 20250 39183 49908 70562 83800 333 10300 59034 6990/ 83840;EQDQ01  99992PRCP09
0212421110999992000070915004+30310+078300FM-12+068299999V0201401N000512200019N0040001N1+02641+02391099331ADDAA100000791AA212999999GA1021+009009069GF103991021051008001031001MA1999999091991MD1999999-0181REMSYN088AAXX  09154 42111 22596 31401 10264 20239 39199 49933 82530 333 59018 6990/ 82630 83360;EQDQ01  99992PRCP12
0212421110999992000070918004+30310+078300FM-12+068299999V0201401N00051036001CN0040001N1+02501+02301099581ADDAA100000791AA215999999GA1041+007509069GF107991041051008001071001MA1999999092181MD1999999-0091REMSYN088AAXX  09184 42111 22596 71401 10250 20230 39218 49958 84570 333 59009 6990/ 84625 86458;EQDQ01  99992PRCP15
0212421110999992000070921004+30310+078300FM-12+068299999V0200501N000512200019N0040001N1+02461+02291099461ADDAA100000791AA218999999GA1031+007509069GF104991031051008001031001MA1999999092071MD1999999-0141REMSYN088AAXX  09214 42111 22596 40501 10246 20229 39207 49946 83530 333 59014 6990/ 83625 84360;EQDQ01  99992PRCP18
0234421110999992000071000004+30310+078300FM-12+068299999V0200901N00101011401CN0040001N1+02421+02281099381ADDAA100000791AA221999999GA1021+007509069GA2031+011409089GF105991041081008001031001MA1999999091991MD1999999-0201REMSYN094AAXX  10004 42111 22596 50902 10242 20228 39199 49938 84830 333 59020 6990/ 82625 83838 85360;EQDQ01  99992PRCP21
0221421110999992000071006004+30310+078300FM-12+068299999V0209999C000010096019N0020001N1+02541+02311099621ADDAA100000191AA203000291AY161061AY221061GA1051+009609069GF107991051051012501071001MA1999999092241MD1999999-0101MW1211REMSYN094AAXX  10064 42111 21695 70000 10254 20231 39224 49962 72162 85570 333 59010 6992/ 85632 86460;
0193421110999992000071009004+30310+078300FM-12+068299999V0201401N00051036001CN0040001N1+02841+02361099451ADDAA100000191AA206000291GA1041+010509069GF107991041051012501071001MA1999999092151MD1999999-0021REMSYN088AAXX  10094 42111 22696 71401 10284 20236 39215 49945 84570 333 59002 6992/ 84635 86360;
0240421110999992000071012004+30310+078300FM-12+068299999V0202301N000512200019N0020001N1+02881+02351099261ADDAA100000191AA209000291AY121061AY221061GA1011+012009089GF104991021081012501031001KA1120M+02981MA1999999091971MD1999999+0141MW1051REMSYN100AAXX  10124 42111 21695 42301 10288 20235 39197 49926 70522 82830 333 10298 58014 6992/ 81840 83360;
0215421110999992000071018004+30310+078300FM-12+068299999V0201401N00051011401CN0040001N1+02581+02381099641ADDAA100000191AA215000291GA1021+007809069GA2031+011409089GF106991031081008001071001MA1999999092261MD1999999+0081REMSYN094AAXX  10184 42111 22596 61401 10258 20238 39226 49964 83870 333 58008 6992/ 82626 83838 85358;
0193421110999992000071021004+30310+078300FM-12+068299999V0209999C00001036001CN0040001N1+02541+02341099591ADDAA100000191AA218000291GA1031+007509069GF107991031051008001071001MA1999999092211MD1999999+0141REMSYN088AAXX  10214 42111 22596 70000 10254 20234 39221 49959 83570 333 58014 6992/ 83625 85358;
0193421110999992000071100004+30310+078300FM-12+068299999V0209999C00001036001CN0040001N1+02501+02391099591ADDAA100000191AA221000291GA1041+007509069GF108991041051008001021999MA1999999092211MD1999999+0221REMSYN088AAXX  11004 42111 22596 80000 10250 20239 39221 49959 8452/ 333 58022 6992/ 84625 87458;
0212421110999992000071103004+30310+078300FM-12+068299999V0209999C00001036001CN0040001N1+02601+02351099761ADDAA100000191AA224000291GA1041+009009069GF107991041051008001071001KA1120N+02411MA1999999092361MD1999999+0161REMSYN094AAXX  11034 42111 22596 70000 10260 20235 39236 49976 84570 333 20241 58016 6992/ 84630 86460;
0195421110999992000071106004+30310+078300FM-12+068299999V0202301N00101015001CN0040001N1+02921+02361099661ADDAA199000091GA1031+010509069GF106991051081012501031001MA1999999092361MD1999999+0131REMSYN082AAXX  11064 42111 32696 62302 10292 20236 39236 49966 85830 333 58013 83635 84840;EQDQ01  00002PRCP99
0265421110999992000071109004+30310+078300FM-12+068299999V0202301N001010069019N0020001N1+02621+02281099751ADDAA100000791AA206999929AY191031AY261031GA1021+004509079GA2041+006909069GA3011+010509099GF108991061091004501021999MA1999999092381MD1999999+0231MW1951REMSYN106AAXX  11094 42111 21495 82302 10262 20228 39238 49975 79596 8692/ 333 58023 6990/ 82715 84623 81935 88456;
0262421110999992000071112004+30310+078300FM-12+068299999V0203201N00101090001CN0040001N1+02841+02301099461ADDAA100000191AA209000191AY191061AY261061GA1021+010509069GA2031+030009039GF105991021051012501031011KA1120M+03081MA1999999092161MD1999999+0191MW1021REMSYN106AAXX  11124 42111 21696 53202 10284 20230 39216 49946 70296 82531 333 10308 58019 6991/ 82635 83360 85075;
0193421110999992000071121004+30310+078300FM-12+068299999V0209999C000010090019N0040001N1+02501+02271099851ADDAA100000191AA218000191GA1051+009009069GF107991051051012501051001MA1999999092431MD1999999+0221REMSYN088AAXX  11214 42111 22696 70000 10250 20227 39243 49985 85550 333 58022 6991/ 85630 87360;
0193421110999992000071200004+30310+078300FM-12+068299999V0209999C000010090019N0040001N1+02501+02331099911ADDAA100000191AA221000191GA1061+009009059GF108991061051012501021999MA1999999092491MD1999999+0281REMSYN088AAXX  12004 42111 22696 80000 10250 20233 39249 49991 8652/ 333 58028 6991/ 86530 87460;
0231421110999992000071203004+30310+078300FM-12+068299999V0201401N000510075019N0040001N1+02621+02341099861ADDAA100000191AA224000191GA1051+007509069GF107991051051004501071001KA1120M+03081KA2120N+02451MA1999999092491MD1999999+0131REMSYN100AAXX  12034 42111 22496 71401 10262 20234 39249 49986 85570 333 10308 20245 58013 6991/ 85625 86456;
0240421110999992000071206004+30310+078300FM-12+068299999V0202301N000510075019N0040001N1+02741+02401099941ADDAA100000791AA203999999AY161061AY221061GA1051+007509069GF108991051051004501021999MA1999999092581MD1999999+0211MW1021REMSYN094AAXX  12064 42111 21496 82301 10274 20240 39258 49994 70262 8552/ 333 58021 6990/ 85625 87456;EQDQ01  99992PRCP03
0240421110999992000071209004+30310+078300FM-12+068299999V0203201N00051036001CN0040001N1+02801+02351099771ADDAA100000791AA206999999AY161031AY221031GA1041+007509069GF108991041051004501021999MA1999999092431MD1999999+0051MW1021REMSYN094AAXX  12094 42111 21496 83201 10280 20235 39243 49977 70262 8452/ 333 58005 6990/ 84625 88456;EQDQ01  99992PRCP06
0212421110999992000071215004+30310+078300FM-12+068299999V0200501N00051036001CN0040001N1+02701+02481099751ADDAA100000791AA212999999GA1031+007509069GF108991031051004501021999MA1999999092381MD1999999+0091REMSYN088AAXX  12154 42111 22496 80501 10270 20248 39238 49975 8352/ 333 58009 6990/ 83625 87458;EQDQ01  99992PRCP12
0212421110999992000071300004+30310+078300FM-12+068299999V0203201N00051036001CN0040001N1+02441+02181099791ADDAA100000791AA221999999GA1031+009009069GF106991031051008001071001MA1999999092371MD1999999-0121REMSYN088AAXX  13004 42111 22596 63201 10244 20218 39237 49979 83570 333 59012 6990/ 83630 85360;EQDQ01  99992PRCP21
0189421110999992000071306004+30310+078300FM-12+068299999V0202301N001012200019N0040001N1+03201+02301099691ADDAA199000091GA1021+012009029GF104991021011012501031011MA1999999092451MD1999999-0131REMSYN076AAXX  13064 42111 32696 42302 10320 20230 39245 49969 82131 333 59013 82840;EQDQ01  00002PRCP99
0240421110999992000071312004+30310+078300FM-12+068299999V0201401N00051012001CN0040001N1+02841+02591099471ADDAA100002091AA209002091AY191061AY261061GA1041+009009069GF107991051081008001071001KA1120M+03311MA1999999092171MD1999999-0091MW1611REMSYN100AAXX  13124 42111 21596 71401 10284 20259 39217 49947 76196 85870 333 10331 59009 6002/ 84630 86460;
0221421110999992000071318004+30310+078300FM-12+068299999V0200501N00051036001CN0040001N1+02641+02501099831ADDAA100019192AA215019092AY191061AY261061GA1031+007509069GF106991041081008001071001MA1999999092461MD1999999+0011MW1021REMSYN094AAXX  13184 42111 21596 60501 10264 20250 39246 49983 70296 84870 333 58001 6019/ 83625 85458;
0221421110999992000071321004+30310+078300FM-12+068299999V0201401N00051036001CN0040001N1+02501+02361099831ADDAA100019192AA218019092AY191031AY221031GA1041+007509069GF106991041051008001071001MA1999999092411MD1999999+0061MW1021REMSYN094AAXX  13214 42111 21596 61401 10250 20236 39241 49983 70292 84570 333 58006 6019/ 84625 86458;
0221421110999992000071400004+30310+078300FM-12+068299999V0203201N00101012001CN0020001N1+02401+02261099871ADDAA100020192AA221020092AY191061AY221061GA1041+007509069GF107991051081008001021001MA1999999092421MD1999999+0051MW1601REMSYN094AAXX  14004 42111 21595 73202 10240 20226 39242 49987 76092 85820 333 58005 6020/ 84625 86456;
0259421110999992000071403004+30310+078300FM-12+068299999V0202301N00051036001CN0020001N1+02621+02391099781ADDAA100020192AA224020092AY161031AY221031GA1021+010509069GF106991031081012501071001KA1120M+03311KA2120N+02361MA1999999092411MD1999999-0021MW1021REMSYN106AAXX  14034 42111 21695 62301 10262 20239 39241 49978 70262 83870 333 10331 20236 59002 6020/ 82635 85360;
0221421110999992000071406004+30310+078300FM-12+068299999V0201401N00101007501CN0020001N1+02701+02361099821ADDAA100000791AA203999929AY161061AY221061GA1041+009009069GF108991061051008001021999MA1999999092451MD1999999+0001MW1511REMSYN094AAXX  14064 42111 21595 81402 10270 20236 39245 49982 75162 8652/ 333 58000 6990/ 84630 87458;
0265421110999992000071409004+30310+078300FM-12+068299999V0200501N001010084019N0020001N1+02481+02391099811ADDAA100015091AA206015091AY161031AY251031GA1021+003009079GA2031+008409069GA3011+012009099GF107991051091004501071001MA1999999092391MD1999999+0061MW1951REMSYN106AAXX  14094 42111 21495 70502 10248 20239 39239 49981 79565 85970 333 58006 6015/ 82710 83628 81940 86456;
0240421110999992000071412004+30310+078300FM-12+068299999V0203201N00051036001CN0040001N1+02881+02521099461ADDAA100017091AA209017091AY191061AY261061GA1021+010509069GF105991031081012501071001KA1120M+02881MA1999999092161MD1999999-0011MW1021REMSYN100AAXX  14124 42111 21696 53201 10288 20252 39216 49946 70296 83870 333 10288 59001 6017/ 82635 84360;
0187421110999992000071415004+30310+078300FM-12+068299999V0200501N000512200019N0100001N1+02641+02471099601ADDAA100017091AA212017091GA1011+009009059GF103991021081012501031001MA1999999092251MD1999999-0071REMSYN082AAXX  14154 42111 22697 30501 10264 20247 39225 49960 82830 333 59007 6017/ 81630;
0193421110999992000071418004+30310+078300FM-12+068299999V0203201N00051036001CN0040001N1+02541+02311099781ADDAA100017091AA215017091GA1021+009009069GF106991021051008001071001MA1999999092381MD1999999-0081REMSYN088AAXX  14184 42111 22596 63201 10254 20231 39238 49978 82570 333 59008 6017/ 82630 83360;
0193421110999992000071421004+30310+078300FM-12+068299999V0200501N00051036001CN0040001N1+02521+02321099711ADDAA100017091AA218017091GA1031+008409069GF107991031051008001071001MA1999999092311MD1999999-0101REMSYN088AAXX  14214 42111 22596 70501 10252 20232 39231 49971 83570 333 59010 6017/ 83628 85360;
0215421110999992000071500004+30310+078300FM-12+068299999V0200501N000510078019N0040001N1+02501+02361099721ADDAA100017091AA221017091GA1021+004509079GA2041+007809069GF108991051071004501021999MA1999999092261MD1999999-0161REMSYN094AAXX  15004 42111 22496 80501 10250 20236 39226 49972 8572/ 333 59016 6017/ 82715 84626 87458;
0212421110999992000071503004+30310+078300FM-12+068299999V0202701N00051036001CN0040001N1+02721+02441099671ADDAA100017091AA224017091GA1011+010509069GF106991021081012501071001KA1120N+02461MA1999999092331MD1999999-0081REMSYN094AAXX  15034 42111 22696 62701 10272 20244 39233 49967 82870 333 20246 59008 6017/ 81635 85360;
0217421110999992000071506004+30310+078300FM-12+068299999V0200501N00051036001CN0040001N1+03001+02391099581ADDAA199000091GA1011+010509069GA2031+012009089GF106991031081012501071001MA1999999092301MD1999999-0151REMSYN088AAXX  15064 42111 32696 60501 10300 20239 39230 49958 83870 333 59015 81635 83840 85360;EQDQ01  00002PRCP99
0217421110999992000071509004+30310+078300FM-12+068299999V0202301N001510114019N0040001N1+03081+02531099321ADDAA199000091GA1031+009009069GA2031+011409089GF106991051081008001071001MA1999999092081MD1999999-0311REMSYN088AAXX  15094 42111 32596 62303 10308 20253 39208 49932 85870 333 59031 83630 83838 85360;EQDQ01  00002PRCP99
0262421110999992000071512004+30310+078300FM-12+068299999V0209999C000010108019N0020001N1+02581+02441099371ADDAA100001091AA209001091AY191061AY261061GA1031+006609069GA2031+010809089GF107991051081008001021001KA1120M+03171MA1999999092011MD1999999-0151MW1601REMSYN106AAXX  15124 42111 21595 70000 10258 20244 39201 49937 76096 85820 333 10317 59015 6001/ 83622 83836 87456;
0265421110999992000071515004+30310+078300FM-12+068299999V0200501N001010075019N0020001N1+02481+02391099551ADDAA100042991AA212043091AY191031AY261031GA1031+004509079GA2051+007509069GA3021+010509099GF108991061091004501021999MA1999999092151MD1999999-0101MW1951REMSYN106AAXX  15154 42111 21495 80502 10248 20239 39215 49955 79596 8692/ 333 59010 6043/ 83715 85625 82935 87456;
0265421110999992000071518004+30310+078300FM-12+068299999V0200501N001010075019N0020001N1+02381+02281099701ADDAA100068192AA215068092AY191061AY261061GA1031+004509079GA2051+007509069GA3031+010509099GF108991061091004501021999MA1999999092271MD1999999-0111MW1951REMSYN106AAXX  15184 42111 21495 80502 10238 20228 39227 49970 79596 8692/ 333 59011 6068/ 83715 85625 83935 87458;
0265421110999992000071521004+30310+078300FM-12+068299999V0200501N001010090019N0020001N1+02401+02311099611ADDAA100073991AA218074091AY191031AY261031GA1031+006009079GA2051+009009069GA3021+010509099GF108991061091004501021999MA1999999092181MD1999999-0131MW1951REMSYN106AAXX  15214 42111 21495 80502 10240 20231 39218 49961 79596 8692/ 333 59013 6074/ 83720 85630 82935 87458;
0221421110999992000071600004+30310+078300FM-12+068299999V0209999C000010075019N0040001N1+02521+02311099541ADDAA100073991AA221074091AY191061AY261061GA1061+007509069GF108991061051008001021999MA1999999092141MD1999999-0121MW1611REMSYN094AAXX  16004 42111 21596 80000 10252 20231 39214 49954 76196 8652/ 333 59012 6074/ 86625 87458;
0259421110999992000071603004+30310+078300FM-12+068299999V0209999C00001036001CN0040001N1+02561+02451099671ADDAA100073991AA224074091AY161031AY251031GA1031+009009069GF107991041081012501071001KA1120M+03171KA2120N+02311MA1999999092291MD1999999-0041MW1021REMSYN106AAXX  16034 42111 21696 70000 10256 20245 39229 49967 70265 84870 333 10317 20231 59004 6074/ 83630 85460;
0243421110999992000071606004+30310+078300FM-12+068299999V0202301N001010066019N0020001N1+02621+02481099741ADDAA100000592AA203000492AY161061AY251061GA1021+004509079GA2041+006609069GF108991061081004501021999MA1999999092371MD1999999+0071MW1601REMSYN100AAXX  16064 42111 21495 82302 10262 20248 39237 49974 76065 8682/ 333 58007 6994/ 82715 84622 88454;
0221421110999992000071609004+30310+078300FM-12+068299999V0203201N000510090019N0040001N1+02601+02431099691ADDAA100001091AA206001091AY191031AY261031GA1061+009009069GF108991061051008001021999MA1999999092301MD1999999+0221MW1291REMSYN094AAXX  16094 42111 21596 83201 10260 20243 39230 49969 72996 8652/ 333 58022 6001/ 86630 88458;
0221421110999992000071615004+30310+078300FM-12+068299999V0200501N00101036001CN0020001N1+02481+02221099781ADDAA100005192AA212005092AY191031AY261031GA1041+008409069GF107991041051008001071001MA1999999092361MD1999999+0211MW1611REMSYN094AAXX  16154 42111 21595 70502 10248 20222 39236 49978 76196 84570 333 58021 6005/ 84628 86458;
0221421110999992000071618004+30310+078300FM-12+068299999V0200501N00051036001CN0100001N1+02541+02281099871ADDAA100006192AA215006092AY191061AY261061GA1031+008409069GF107991031051008001071001MA1999999092471MD1999999+0201MW1021REMSYN094AAXX  16184 42111 21597 70501 10254 20228 39247 49987 70296 83570 333 58020 6006/ 83628 85458;
0221421110999992000071700004+30310+078300FM-12+068299999V0209999C00001036001CN0040001N1+02401+02291099621ADDAA100009991AA221010091AY161061AY221061GA1031+008409069GF106991031051008001071001MA1999999092291MD1999999+0151MW1021REMSYN094AAXX  17004 42111 21596 60000 10240 20229 39229 49962 70262 83570 333 58015 6010/ 83628 86458;
0231421110999992000071703004+30310+078300FM-12+068299999V0200501N00051012001CN0040001N1+02501+02391099731ADDAA100009991AA224010091GA1041+009009069GF107991051081008001071001KA1120M+02741KA2120N+02341MA1999999092311MD1999999+0021REMSYN100AAXX  17034 42111 22596 70501 10250 20239 39231 49973 85870 333 10274 20234 58002 6010/ 84630 86460;
0195421110999992000071706004+30310+078300FM-12+068299999V0202301N00051012001CN0040001N1+02661+02411099721ADDAA199000091GA1041+007509069GF108991051081008001021999MA1999999092351MD1999999-0021REMSYN082AAXX  17064 42111 32596 82301 10266 20241 39235 49972 8582/ 333 59002 84625 87458;EQDQ01  00002PRCP99
0262421110999992000071709004+30310+078300FM-12+068299999V0209999C000010090019N0200001N1+02881+02351099461ADDAA100000791AA206999999AY151031AY221031GA1021+006009079GA2041+009009069GF107991051071004501021001MA1999999092161MD1999999-0141MW1021REMSYN100AAXX  17094 42111 21498 70000 10288 20235 39216 49946 70252 85720 333 59014 6990/ 82720 84630 86460;EQDQ01  99992PRCP06
0262421110999992000071712004+30310+078300FM-12+068299999V0200501N000510090019N0020001N1+02441+02331099471ADDAA100007192AA209007092AY161061AY261061GA1021+006009079GA2041+009009069GF108991051071004501021999KA1120M+02911MA1999999092081MD1999999-0061MW1611REMSYN106AAXX  17124 42111 21495 80501 10244 20233 39208 49947 76166 8572/ 333 10291 59006 6007/ 82720 84630 88460;
0221421110999992000071715004+30310+078300FM-12+068299999V0201401N00051036001CN0040001N1+02441+02351099521ADDAA100007991AA212008091AY161031AY221031GA1041+007509069GF107991041051008001071001MA1999999092121MD1999999-0241MW1021REMSYN094AAXX  17154 42111 21596 71401 10244 20235 39212 49952 70262 84570 333 59024 6008/ 84625 86456;
0221421110999992000071718004+30310+078300FM-12+068299999V0200501N000510075019N0040001N1+02421+02311099681ADDAA100008991AA215009091AY161061AY221061GA1051+007509069GF108991061081008001021999MA1999999092281MD1999999-0191MW1211REMSYN094AAXX  17184 42111 21596 80501 10242 20231 39228 49968 72162 8682/ 333 59019 6009/ 85625 88456;
0193421110999992000071721004+30310+078020FM-12+068299999V0201401N000510075019N0040001N1+02401+02291099631ADDAA100008991AA218009091GA1051+007509069GF107991051051008001071001MA1999999092201MD1999999-0141REMSYN088AAXX  17214 42111 22596 71401 10240 20229 39220 49963 85570 333 59014 6009/ 85625 86458;
0243421110999992000071800004+30310+078020FM-12+068299999V0200501N000510066019N0020001N1+02381+02291099611ADDAA100014091AA221014091AY161061AY221061GA1021+004509079GA2051+006609069GF108991061071004501021999MA1999999092181MD1999999-0111MW1611REMSYN100AAXX  18004 42111 21495 80501 10238 20229 39218 49961 76162 8672/ 333 59011 6014/ 82715 85622 88454;
0222421110999992000071806004+30310+078020FM-12+068299999V0201401N001010075019N0020001N1+02501+02421099711ADDAA100005192AA203005092AY161061AY261061GA1031+003009079GA2051+007509069GF108991061071004501021999MD1999999-0051MW1611REMSYN094AAXX  18064 42111 21495 81402 10250 20242 49971 76166 8672/ 333 59005 6005/ 83710 85625 88460;
0262421110999992000071812004+30310+078020FM-12+068299999V0201401N00051012001CN0040001N1+02741+02431099341ADDAA100007192AA209007092AY161061AY221061GA1021+009009069GA2031+012009089GF107991041081012501071001KA1120M+02741MA1999999092031MD1999999-0051MW1021REMSYN106AAXX  18124 42111 21696 71401 10274 20243 39203 49934 70262 84870 333 10274 59005 6007/ 82630 83840 86460;
0193421110999992000071815004+30310+078020FM-12+068299999V0209999C000012200019N0040001N1+02581+02441099471ADDAA100007192AA212007092GA1021+007809069GF104991021051008001031001MA1999999092101MD1999999-0021REMSYN088AAXX  18154 42111 22596 40000 10258 20244 39210 49947 82530 333 59002 6007/ 82626 83358;
0193421110999992000071818004+30310+078020FM-12+068299999V0200501N00051036001CN0020001N1+02501+02391099651ADDAA100007192AA215007092GA1031+008409069GF107991031051008001071001MA1999999092271MD1999999-0011REMSYN088AAXX  18184 42111 22595 70501 10250 20239 39227 49965 83570 333 59001 6007/ 83628 85458;
0193421110999992000071821004+30310+078020FM-12+068299999V0200501N00051036001CN0040001N1+02401+02291099581ADDAA100007192AA218007092GA1031+007509069GF108991031051008001021999MA1999999092151MD1999999-0051REMSYN088AAXX  18214 42111 22596 80501 10240 20229 39215 49958 8352/ 333 59005 6007/ 83625 88456;
0221421110999992000071900004+30310+078020FM-12+068299999V0209999C00001036001CN0020001N1+02381+02271099591ADDAA100035192AA221035092AY161061AY221061GA1041+007509069GF108991041051008001021999MA1999999092161MD1999999-0021MW1631REMSYN094AAXX  19004 42111 21595 80000 10238 20227 39216 49959 76362 8452/ 333 59002 6035/ 84625 88456;
0281421110999992000071903004+30310+078020FM-12+068299999V0209999C000010060019N0020001N1+02481+02371099621ADDAA100039192AA224039092AY161031AY221031GA1031+003009079GA2041+006009069GF108991061071004501021999KA1120M+02741KA2120N+02301MA1999999092221MD1999999-0011MW1211REMSYN112AAXX  19034 42111 21495 80000 10248 20237 39222 49962 72162 8672/ 333 10274 20230 59001 6039/ 83710 84620 88456;
0243421110999992000071906004+30310+078020FM-12+068299999V0209999C000010060019N0020001N1+02421+02281099611ADDAA100009991AA203010091AY161061AY221061GA1021+003609079GA2051+006009069GF108991061071004501021999MA1999999092391MD1999999+0091MW1611REMSYN100AAXX  19064 42111 21495 80000 10242 20228 39239 49961 76162 8672/ 333 58009 6010/ 82712 85620 88456;
0240421110999992000071912004+30310+078020FM-12+068299999V0203201N000510090019N0040001N1+02621+02481099721ADDAA100025991AA209026091AY161061AY221061GA1051+009009069GF108991051051008001071999KA1120M+02671MA1999999092261MD1999999+0231MW1501REMSYN100AAXX  19124 42111 21596 83201 10262 20248 39226 49972 75062 8557/ 333 10267 58023 6026/ 85630 88460;
0221421110999992000071915004+30310+078020FM-12+068299999V0209999C000010090019N0040001N1+02501+02361099601ADDAA100025991AA212026091AY161031AY251031GA1051+009009069GF108991051051008001021999MA1999999092201MD1999999+0101MW1021REMSYN094AAXX  19154 42111 21596 80000 10250 20236 39220 49960 70265 8552/ 333 58010 6026/ 85630 87460;
0221421110999992000071921004+30310+078020FM-12+068299999V0200501N000510090019N0040001N1+02301+02181099741ADDAA100025991AA218026091AY161031AY221031GA1051+009009069GF108991051051008001021999MA1999999092281MD1999999+0131MW1021REMSYN094AAXX  19214 42111 21596 80501 10230 20218 39228 49974 70262 8552/ 333 58013 6026/ 85630 87460;
0193421110999992000072000004+30310+078020FM-12+068299999V0200501N00051036001CN0040001N1+02281+02161099771ADDAA100025991AA221026091GA1041+009009069GF107991041051008001071001MA1999999092311MD1999999+0151REMSYN088AAXX  20004 42111 22596 70501 10228 20216 39231 49977 84570 333 58015 6026/ 84630 86460;
0217421110999992000072006004+30310+078020FM-12+068299999V0202301N001010114019N0040001N1+02781+02471099881ADDAA199000091GA1031+006609069GA2031+011409089GF107991051081008001071001MA1999999092521MD1999999+0131REMSYN088AAXX  20064 42111 32596 72302 10278 20247 39252 49988 85870 333 58013 83622 83838 86456;EQDQ01  00002PRCP99
0234421110999992000072012004+30310+078020FM-12+068299999V0203201N001012200019N0040001N1+02881+02251099581ADDAA100000592AA209000492AY161061AY211061GA1011+010509059GF103991021081012501031001KA1120M+02951MA1999999092281MD1999999+0111MW1021REMSYN094AAXX  20124 42111 21696 33202 10288 20225 39228 49958 70261 82830 333 10295 58011 6994/ 81635;
0193421110999992000072015004+30310+078020FM-12+068299999V0209999C00001036001CN0040001N1+02661+02411099741ADDAA100000592AA212000492GA1031+010509069GF106991031051012501071001MA1999999092411MD1999999+0271REMSYN088AAXX  20154 42111 22696 60000 10266 20241 39241 49974 83570 333 58027 6994/ 83635 85360;
0193421110999992000072100004+30310+078020FM-12+068299999V0203201N00051036001CN0040001N1+02501+02331099961ADDAA100000592AA221000492GA1031+009009069GF107991031051008001071001MA1999999092521MD1999999+0211REMSYN088AAXX  21004 42111 22596 73201 10250 20233 39252 49996 83570 333 58021 6994/ 83630 85458;
0221421110999992000072109004+30310+078020FM-12+068299999V0200501N001010075019N0020001N1+02461+02381099301ADDAA100029091AA206029091AY191031AY261031GA1051+007509069GF108991061091008001021999MA1999999092501MD1999999+0061MW1951REMSYN094AAXX  21094 42111 21595 80502 10246 20238 39250 4993/ 79596 8692/ 333 58006 6029/ 85625 87456;
0240421110999992000072112004+30310+078020FM-12+068299999V0203201N00051036001CN0040001N1+02521+02441099771ADDAA100042991AA209043091AY191061AY261061GA1031+009009069GF107991041081008001071001KA1120M+02951MA1999999092371MD1999999+0091MW1291REMSYN100AAXX  21124 42111 21596 73201 10252 20244 39237 49977 72996 84870 333 10295 58009 6043/ 83630 86460;
0253421110999992000072203004+30310+078020FM-12+068299999V0201801N000510090019N0040001N1+02321+02231999999ADDAA100065091AA224065091AY161031AY221031GA1051+009009069GF108991051021008001999999KA1120M+02451KA2120N+02261MA1999999092761MD1999999+0211MW1021REMSYN100AAXX  22034 42111 21596 81801 10232 20223 39276 70262 852// 333 10245 20226 58021 6065/ 85630 88460;
0223421110999992000072206004+30310+078020FM-12+068299999V0202301N00101012001CN0020001N1+02521+02291100261ADDAA199000091AY161061AY221061GA1041+009009069GF108991051081008001999999MA1999999092831MD1999999+0261MW1051REMSYN088AAXX  22064 42111 31595 82302 10252 20229 39283 40026 70562 858// 333 58026 84630 87458;EQDQ01  00002PRCP99
0223421110999992000072209004+30310+078020FM-12+068299999V0202301N00051012001CN0020001N1+02761+02341100111ADDAA199000091AY121031AY221031GA1041+009009069GF108991051081008001021999MA1999999092741MD1999999+0241MW1051REMSYN088AAXX  22094 42111 31595 82301 10276 20234 39274 40011 70522 8582/ 333 58024 84630 87458;EQDQ01  00002PRCP99
0214421110999992000072212004+30310+078020FM-12+068299999V0209999C00001036001CN0040001N1+02721+02351100001ADDAA199000091GA1031+010509069GF107991041081012501071001KA1120M+02771MA1999999092641MD1999999+0271REMSYN088AAXX  22124 42111 32696 70000 10272 20235 39264 40000 84870 333 10277 58027 83635 86460;EQDQ01  00002PRCP99
0189421110999992000072215004+30310+078020FM-12+068299999V0209999C000012200019N0040001N1+02561+02391100171ADDAA199000091GA1031+030009079GF103991031031999999001001MA1999999092741MD1999999+0171REMSYN076AAXX  22154 42111 32996 30000 10256 20239 39274 40017 83300 333 58017 83360;EQDQ01  00002PRCP99
0195421110999992000072218004+30310+078020FM-12+068299999V0209999C00001036001CN0040001N1+02501+02301100261ADDAA199000091GA1031+008409069GF107991031051008001071001MA1999999092781MD1999999+0121REMSYN082AAXX  22184 42111 32596 70000 10250 20230 39278 40026 83570 333 58012 83628 84358;EQDQ01  00002PRCP99
0195421110999992000072221004+30310+078020FM-12+068299999V0200501N00051036001CN0040001N1+02441+02301100091ADDAA199000091GA1031+008409069GF107991031051008001071001MA1999999092651MD1999999+0011REMSYN082AAXX  22214 42111 32596 70501 10244 20230 39265 40009 83570 333 58001 83628 84458;EQDQ01  00002PRCP99
0195421110999992000072300004+30310+078020FM-12+068299999V0209999C00001036001CN0040001N1+02401+02261100071ADDAA199000091GA1031+009009069GF107991031051008001071001MA1999999092611MD1999999-0021REMSYN082AAXX  23004 42111 32596 70000 10240 20226 39261 40007 83570 333 59002 83630 84458;EQDQ01  00002PRCP99
0259421110999992000072303004+30310+078020FM-12+068299999V0209999C000010090019N0020001N1+02481+02341100071ADDAA100000591AA224000691AY161031AY221031GA1051+009009069GF108991051051008001071999KA1120M+02771KA2120N+02341MA1999999092631MD1999999-0131MW1021REMSYN106AAXX  23034 42111 21595 80000 10248 20234 39263 40007 70262 8557/ 333 10277 20234 59013 6996/ 85630 87460;
0245421110999992000072306004+30310+078020FM-12+068299999V0201401N00051012001CN0040001N1+02781+02361099981ADDAA199000091AY161061AY221061GA1021+010509069GA2031+012009089GF107991041081012501071001MA1999999092621MD1999999-0211MW1021REMSYN094AAXX  23064 42111 31696 71401 10278 20236 39262 49998 70262 84870 333 59021 82635 83840 85460;EQDQ01  00002PRCP99
0217421110999992000072309004+30310+078020FM-12+068299999V0202301N00101011401CN0040001N1+03001+02391099731ADDAA199000091GA1021+007509069GA2031+011409089GF106991041081008001071001MA1999999092441MD1999999-0301REMSYN088AAXX  23094 42111 32596 62302 10300 20239 39244 49973 84870 333 59030 82625 83838 85360;EQDQ01  00002PRCP99
0243421110999992000072312004+30310+078020FM-12+068299999V0201401N001010114019N0040001N1+02701+02451099751ADDAA100002091AA209002091AY161061AY221061GA1031+007509069GA2031+011409089GF107991061081008001021001MA1999999092381MD1999999-0261MW1211REMSYN100AAXX  23124 42111 21596 71402 10270 20245 39238 49975 72162 86820 333 59026 6002/ 83625 83838 86456;
0221421110999992000072321004+30310+078020FM-12+068299999V0200501N000510075019N0020001N1+02341+02281099831ADDAA100029091AA218029091AY161031AY221031GA1061+007509069GF108991061051008001021999MA1999999092381MD1999999-0231MW1611REMSYN094AAXX  23214 42111 21595 80501 10234 20228 39238 49983 76162 8652/ 333 59023 6029/ 86625 87556;
0281421110999992000072403004+30310+078020FM-12+068299999V0201401N000510066019N0020001N1+02461+02321099931ADDAA100029091AA224029091AY161031AY221031GA1021+004509079GA2041+006609069GF108991061071004501021999KA1120M+03031KA2120N+02311MA1999999092501MD1999999-0131MW1021REMSYN112AAXX  24034 42111 21495 81401 10246 20232 39250 49993 70262 8672/ 333 10303 20231 59013 6029/ 82715 84622 88456;
0262421110999992000072406004+30310+078020FM-12+068299999V0201401N00151011401CN0040001N1+02841+02421099941ADDAA100000791AA203999999AY151061AY221061GA1021+007509069GA2031+011409089GF106991041081008001031001MA1999999092601MD1999999-0021MW1021REMSYN100AAXX  24064 42111 21596 61403 10284 20242 39260 49994 70252 84830 333 59002 6990/ 82625 83838 85360;EQDQ01  99992PRCP03
0284421110999992000072412004+30310+078020FM-12+068299999V0209999C000010090019N0020001N1+02541+02371099791ADDAA100005192AA209005092AY191061AY261061GA1031+006009079GA2051+009009069GA3021+012009099GF108991061091004501021999KA1120M+03061MA1999999092391MD1999999+0011MW1951REMSYN112AAXX  24124 42111 21495 80000 10254 20237 39239 49979 79596 8692/ 333 10306 58001 6005/ 83720 85630 82940 88459;
0243421110999992000072415004+30310+078020FM-12+068299999V0209999C000010075019N0020001N1+02421+02311099911ADDAA100007991AA212008091AY161031AY221031GA1021+003009079GA2041+007509069GF107991051071004501071001MA1999999092491MD1999999+0021MW1021REMSYN100AAXX  24154 42111 21495 70000 10242 20231 39249 49991 70262 85770 333 58002 6008/ 82710 84625 86456;
0221421110999992000072418004+30310+078020FM-12+068299999V0209999C00001036001CN0040001N1+02401+02341100011ADDAA100007991AA215008091AY161061AY221061GA1021+007509069GF106991021051008001071001MA1999999092551MD1999999+0051MW1021REMSYN094AAXX  24184 42111 21596 60000 10240 20234 39255 40001 70262 82570 333 58005 6008/ 82625 85458;
0215421110999992000072421004+30310+078020FM-12+068299999V0200501N000510075019N0020001N1+02361+02291099951ADDAA100007991AA218008091GA1031+003609079GA2031+007509069GF107991051071004501071001MA1999999092501MD1999999+0071REMSYN094AAXX  24214 42111 22495 70501 10236 20229 39250 49995 85770 333 58007 6008/ 83712 83625 86458;
0193421110999992000072500004+30310+078020FM-12+068299999V0209999C00001036001CN0040001N1+02361+02271099971ADDAA100007991AA221008091GA1021+007509069GF106991021051012501071001MA1999999092511MD1999999+0131REMSYN088AAXX  25004 42111 25696 60000 10236 20227 39251 49997 82570 333 58013 6008/ 82625 85358;
0253421110999992000072503004+30310+078020FM-12+068299999V0201401N001010090019N0020001N1+02461+02321100101ADDAA100007991AA224008091GA1021+006009079GA2041+009009069GF108991051071004501071999KA1120M+03061KA2120N+02321MA1999999092661MD1999999+0161REMSYN106AAXX  25034 42111 22495 81402 10246 20232 39266 40010 8577/ 333 10306 20232 58016 6008/ 82720 84630 87460;
0240421110999992000072509004+30310+078020FM-12+068299999V0201401N001012200019N9999999N1+02541+02341100041ADDAA100000591AA206000691AY161031AY221031GA1051+009009069GF199999051051008001021999MA1999999092631MD1999999+0171MW1051REMSYN094AAXX  25094 42111 21555 11402 10254 20234 39263 40004 70562 8552/ 333 58017 6996/ 85630 86460;EQDQ01+000012SCOTCV
0240421110999992000072512004+30310+078020FM-12+068299999V0202301N00051015001CN0020001N1+02601+02371099901ADDAA100000591AA209000691AY161061AY221061GA1041+009609069GF107991051081012501071001KA1120M+02611MA1999999092501MD1999999+0111MW1051REMSYN100AAXX  25124 42111 21695 72301 10260 20237 39250 49990 70562 85870 333 10261 58011 6996/ 84632 85460;
0193421110999992000072515004+30310+078020FM-12+068299999V0201401N00051012001CN0040001N1+02501+02361100041ADDAA100000591AA212000691GA1041+007509069GF107991051081008001071001MA1999999092601MD1999999+0111REMSYN088AAXX  25154 42111 22596 71401 10250 20236 39260 40004 85870 333 58011 6996/ 84625 86458;
0243421110999992000072518004+30310+078020FM-12+068299999V0202301N001010108019N0040001N1+02441+02301100091ADDAA100000591AA215000691AY121061AY221061GA1041+007509069GA2011+010809099GF107991051091008001071001MA1999999092651MD1999999+0101MW1131REMSYN100AAXX  25184 42111 21596 72302 10244 20230 39265 40009 71322 85970 333 58010 6996/ 84625 81936 86456;
0193421110999992000072521004+30310+078020FM-12+068299999V0201401N00051036001CN0040001N1+02401+02291100091ADDAA100000591AA218000691GA1041+007509069GF106991041051008001071001MA1999999092631MD1999999+0131REMSYN088AAXX  25214 42111 22596 61401 10240 20229 39263 40009 84570 333 58013 6996/ 84625 85360;
0193421110999992000072600004+30310+078020FM-12+068299999V0200501N00051036001CN0040001N1+02381+02271100061ADDAA100000591AA221000691GA1041+007509069GF107991041051008001071001MA1999999092601MD1999999+0091REMSYN088AAXX  26004 42111 22596 70501 10238 20227 39260 40006 84570 333 58009 6996/ 84625 86360;
0281421110999992000072603004+30310+078020FM-12+068299999V0203201N000510120019N0040001N1+02641+02391099981ADDAA100000591AA224000691AY151031AY221031GA1021+009009069GA2031+012009089GF107991051081008001071001KA1120M+02611KA2120N+02351MA1999999092591MD1999999-0071MW1021REMSYN112AAXX  26034 42111 21596 73201 10264 20239 39259 49998 70252 85870 333 10261 20235 59007 6996/ 82630 83840 86360;
0245421110999992000072606004+30310+078020FM-12+068299999V0201401N000510300019N0020001N1+02881+02311099941ADDAA199000091AY151061AY221061GA1031+009609069GA2051+030009039GF106991041081012501031011MA1999999092601MD1999999-0111MW1051REMSYN094AAXX  26064 42111 31695 61401 10288 20231 39260 49994 70552 84831 333 59011 83632 85360 85075;EQDQ01  00002PRCP99
0262421110999992000072612004+30310+078020FM-12+068299999V0209999C00001012001CN0040001N1+02781+02471099811ADDAA100000191AA209000191AY161061AY251061GA1021+009009069GA2031+012009089GF107991041081008001071001KA1120M+02901MA1999999092471MD1999999-0031MW1211REMSYN106AAXX  26124 42111 21596 70000 10278 20247 39247 49981 72165 84870 333 10290 59003 6991/ 82630 83840 86460;
0193421110999992000072615004+30310+078020FM-12+068299999V0202301N000510090019N0040001N1+02681+02511099991ADDAA100000191AA212000191GA1051+009009069GF108991051051008001021999MA1999999092601MD1999999+0001REMSYN088AAXX  26154 42111 22596 82301 10268 20251 39260 49999 8552/ 333 58000 6991/ 85630 87458;
0221421110999992000072618004+30310+078020FM-12+068299999V0202301N00051036001CN0040001N1+02541+02431100041ADDAA100005192AA215005092AY161061AY221061GA1041+009009069GF107991041051008001071001MA1999999092631MD1999999-0021MW1021REMSYN094AAXX  26184 42111 21596 72301 10254 20243 39263 40004 70262 84570 333 59002 6005/ 84630 86458;
0236421110999992000072621004+30310+078020FM-12+068299999V0201401N000510360019N0020001N1+02501+02421099991ADDAA100010991AA218011091AY161031AY221031GA1041+007509069GA2071+999999049GF108991041051008001021999MA1999999092551MD1999999-0081MW1611REMSYN093AAXX  26214 42111 21595 81401 10250 20242 39255 49999 76162 8452/ 333 59008 6011/ 84625 8745;
0221421110999992000072700004+30310+078020FM-12+068299999V0209999C00001036001CN0040001N1+02361+02271099991ADDAA100045091AA221045091AY161061AY221061GA1031+008409069GF107991031051008001071001MA1999999092541MD1999999-0061MW1211REMSYN094AAXX  27004 42111 21596 70000 10236 20227 39254 49999 72162 83570 333 59006 6045/ 83628 86458;
0281421110999992000072703004+30310+078020FM-12+068299999V0201801N000510090019N0020001N1+02541+02431100091ADDAA100046091AA224046091AY161031AY221031GA1021+006009079GA2041+009009069GF108991051071004501071999KA1120M+02901KA2120N+02311MA1999999092681MD1999999+0091MW1211REMSYN112AAXX  27034 42111 21495 81801 10254 20243 39268 40009 72162 8577/ 333 10290 20231 58009 6046/ 82720 84630 87460;
0243421110999992000072706004+30310+078020FM-12+068299999V0202301N000510060019N0020001N1+02501+02441100201ADDAA100000191AA203000291AY161061AY221061GA1031+003009079GA2041+006009069GF108991061071004501021999MA1999999092751MD1999999+0151MW1511REMSYN100AAXX  27064 42111 21495 82301 10250 20244 39275 40020 75162 8672/ 333 58015 6992/ 83710 84620 88456;
0243421110999992000072709004+30310+078020FM-12+068299999V0202301N001010066019N0020001N1+02601+02401100031ADDAA100000591AA206000591AY151031AY221031GA1021+004509079GA2041+006609069GF107991051081004501021001MA1999999092621MD1999999+0121MW1501REMSYN100AAXX  27094 42111 21495 72302 10260 20240 39262 40003 75052 85820 333 58012 6995/ 82715 84622 87456;
0221421110999992000072715004+30310+078020FM-12+068299999V0209999C00001036001CN0020001N1+02501+02331100071ADDAA100000591AA212000591AY121031AY221031GA1041+009609069GF106991041051012501021001MA1999999092631MD1999999+0031MW1051REMSYN094AAXX  27154 42111 21695 60000 10250 20233 39263 40007 70522 84520 333 58003 6995/ 84632 85460;
0221421110999992000072718004+30310+078020FM-12+068299999V0200501N000510090019N0020001N1+02441+02301100121ADDAA100000591AA215000691AY151061AY221061GA1051+009009069GF108991051051008001021999MA1999999092681MD1999999+0051MW1511REMSYN094AAXX  27184 42111 21595 80501 10244 20230 39268 40012 75152 8552/ 333 58005 6996/ 85630 87458;
0221421110999992000072721004+30310+078020FM-12+068299999V0200501N000510090019N0020001N1+02401+02291100111ADDAA100000591AA218000691AY151031AY221031GA1051+009009069GF108991051051008001021999MA1999999092651MD1999999+0101MW1051REMSYN094AAXX  27214 42111 21595 80501 10240 20229 39265 40011 70552 8552/ 333 58010 6996/ 85630 87458;
0259421110999992000072803004+30310+078020FM-12+068299999V0209999C000010075019N0020001N1+02381+02291100261ADDAA100006192AA224006092AY161031AY261031GA1061+007509069GF108991061051008001021999KA1120M+02731KA2120N+02281MA1999999092781MD1999999+0101MW1611REMSYN106AAXX  28034 42111 21595 80000 10238 20229 39278 40026 76166 8652/ 333 10273 20228 58010 6006/ 86625 88456;
0221421110999992000072806004+30310+078020FM-12+068299999V0200501N000510066019N0020001N1+02401+02261100421ADDAA100003091AA203003091AY161061AY261061GA1051+006609069GF108991061081008001021999MA1999999092931MD1999999+0181MW1601REMSYN094AAXX  28064 42111 21595 80501 10240 20226 39293 40042 76066 8682/ 333 58018 6003/ 85622 88456;
0187421110999992000072815004+30310+078020FM-12+068299999V0209999C000019999999N0040001N1+02581+02381100151ADDAA100003091AA212003091GA1041+030009079GF105991051001999999071001MA1999999092721MD1999999+0041REMSYN082AAXX  28154 42111 22996 50000 10258 20238 39272 40015 85070 333 58004 6003/ 84360;
0187421110999992000072818004+30310+078020FM-12+068299999V0209999C000012200019N0040001N1+02461+02351100191ADDAA100003091AA215003091GA1031+030009079GF103991031001999999031001MA1999999092741MD1999999+0061REMSYN082AAXX  28184 42111 22996 30000 10246 20235 39274 40019 83030 333 58006 6003/ 83360;
0193421110999992000072821004+30310+078020FM-12+068299999V0209999C00001036001CN0040001N1+02441+02301100111ADDAA100003091AA218003091GA1021+010509069GF105991021051012501031001MA1999999092671MD1999999+0021REMSYN088AAXX  28214 42111 22696 50000 10244 20230 39267 40011 82530 333 58002 6003/ 82635 85360;
0221421110999992000072900004+30310+078020FM-12+068299999V0209999C000010075019N0020001N1+02421+02281100131ADDAA100003091AA221003091AY121061AY221061GA1051+007509069GF108991051051008001021999MA1999999092691MD1999999+0081MW1051REMSYN094AAXX  29004 42111 21595 80000 10242 20228 39269 40013 70522 8552/ 333 58008 6003/ 85625 88458;
0259421110999992000072903004+30310+078020FM-12+068299999V0200501N000510075019N0020001N1+02441+02331100331ADDAA100004192AA224004092AY161031AY221031GA1051+007509069GF108991051051008001021999KA1120M+02821KA2120N+02331MA1999999092881MD1999999+0101MW1611REMSYN106AAXX  29034 42111 21595 80501 10244 20233 39288 40033 76162 8552/ 333 10282 20233 58010 6004/ 85625 88458;
0243421110999992000072906004+30310+078020FM-12+068299999V0209999C000010066019N0020001N1+02501+02331100431ADDAA100000892AA203000792AY161061AY221061GA1021+003609079GA2041+006609069GF108991061071004501021999MA1999999092961MD1999999+0031MW1501REMSYN100AAXX  29064 42111 21495 80000 10250 20233 39296 40043 75062 8672/ 333 58003 6997/ 82712 84622 88456;
0262421110999992000072912004+30310+078020FM-12+068299999V0209999C000010300019N0020001N1+02881+02191099991ADDAA100000591AA209000591AY121061AY221061GA1041+009609069GA2051+030009039GF107991051081012501051011KA1120M+02891MA1999999092651MD1999999+0081MW1051REMSYN106AAXX  29124 42111 21695 70000 10288 20219 39265 49999 70522 85851 333 10289 58008 6995/ 84632 85360 86075;
0221421110999992000072915004+30310+078020FM-12+068299999V0209999C00001012001CN0020001N1+02661+02441100221ADDAA100000591AA212000591AY121031AY221031GA1041+007509069GF107991051081008001021001MA1999999092821MD1999999+0101MW1051REMSYN094AAXX  29154 42111 21595 70000 10266 20244 39282 40022 70522 85820 333 58010 6995/ 84625 86458;
0243421110999992000072918004+30310+078020FM-12+068299999V0201401N000510066019N0020001N1+02561+02421100301ADDAA100007991AA215008091AY161061AY221061GA1021+003609079GA2051+006609069GF108991061071004501021999MA1999999092871MD1999999+0131MW1611REMSYN100AAXX  29184 42111 21495 81401 10256 20242 39287 40030 76162 8672/ 333 58013 6008/ 82712 85622 88454;
0243421110999992000072921004+30310+078020FM-12+068299999V0201401N000510060019N0020001N1+02381+02351100291ADDAA100052192AA218052092AY161031AY261031GA1031+003009079GA2051+006009069GF108991061071004501021999MA1999999092811MD1999999+0141MW1631REMSYN100AAXX  29214 42111 21495 81401 10238 20235 39281 40029 76366 8672/ 333 58014 6052/ 83710 85620 88454;
0243421110999992000073000004+30310+078020FM-12+068299999V0201401N001010060019N0020001N1+02301+02271100271ADDAA100149192AA221149092AY161061AY261061GA1031+003009079GA2051+006009069GF108991061071004501021999MA1999999092761MD1999999+0071MW1621REMSYN100AAXX  30004 42111 21495 81402 10230 20227 39276 40027 76266 8672/ 333 58007 6149/ 83710 85620 88454;
0281421110999992000073003004+30310+078020FM-12+068299999V0209999C000010075019N0020001N1+02361+02271100351ADDAA100185992AA224186091AY161031AY261031GA1031+004509079GA2061+007509069GF108991061071004501021999KA1120M+02891KA2120N+02281MA1999999092871MD1999999-0011MW1621REMSYN112AAXX  30034 42111 21495 80000 10236 20227 39287 40035 76266 8672/ 333 10289 20228 59001 6186/ 83715 86625 87456;
0221421110999992000073006004+30310+078020FM-12+068299999V0201401N000510075019N0020001N1+02481+02421100381ADDAA100003091AA203003091AY161061AY221061GA1061+007509069GF108991061051008001021999MA1999999092911MD1999999-0051MW1211REMSYN094AAXX  30064 42111 21595 81401 10248 20242 39291 40038 72162 8652/ 333 59005 6003/ 86625 87458;
0215421110999992000073009004+30310+078020FM-12+068299999V0201401N000510075019N0040001N1+02501+02421100211ADDAA100003091AA206003091GA1011+003609079GA2041+007509069GF108991051071004501021999MA1999999092761MD1999999-0061REMSYN094AAXX  30094 42111 22496 81401 10250 20242 39276 40021 8572/ 333 59006 6003/ 81712 84625 88458;
0221421110999992000073012004+30310+078020FM-12+068299999V0209999C000010075019N0020001N1+02561+02451100051ADDAA100003091AA209003091AY151061AY221061GA1051+007509069GF108991051051008001021999MA1999999092641MD1999999-0011MW1021REMSYN094AAXX  30124 42111 21595 80000 10256 20245 39264 40005 70252 8552/ 333 59001 6003/ 85625 88458;
0193421110999992000073015004+30310+078020FM-12+068299999V0201401N00051036001CN0040001N1+02481+02421100091ADDAA100003091AA212003091GA1041+008409069GF107991041051008001071001MA1999999092651MD1999999-0171REMSYN088AAXX  30154 42111 22596 71401 10248 20242 39265 40009 84570 333 59017 6003/ 84628 86458;
0221421110999992000073021004+30310+078020FM-12+068299999V0209999C000010075019N0020001N1+02381+02321100261ADDAA100004192AA218004092AY161031AY221031GA1051+007509069GF108991051051008001021999MA1999999092781MD1999999-0031MW1631REMSYN094AAXX  30214 42111 21595 80000 10238 20232 39278 40026 76362 8552/ 333 59003 6004/ 85625 88458;
0221421110999992000073100004+30310+078020FM-12+068299999V0209999C000010075019N0040001N1+02321+02231100231ADDAA100005192AA221005092AY161061AY221061GA1051+007509069GF108991051051008001021999MA1999999092751MD1999999-0011MW1021REMSYN094AAXX  31004 42111 21596 80000 10232 20223 39275 40023 70262 8552/ 333 59001 6005/ 85625 88458;
0231421110999992000073103004+30310+078020FM-12+068299999V0203201N000510075019N0020001N1+02421+02331100021ADDAA100005192AA224005092GA1051+007509069GF108991051051008001071999KA1120M+02561KA2120N+02281MA1999999092581MD1999999-0291REMSYN100AAXX  31034 42111 22595 83201 10242 20233 39258 40002 8557/ 333 10256 20228 59029 6005/ 85625 87458;
0243421110999992000073109004+30310+078020FM-12+068299999V0201401N000510075019N0020001N1+02421+02331100041ADDAA100005192AA206005092AY161031AY221031GA1031+004509079GA2051+007509069GF108991061071004501021999MA1999999092601MD1999999-0061MW1611REMSYN100AAXX  31094 42111 21495 81401 10242 20233 39260 40004 76162 8672/ 333 59006 6005/ 83715 85625 87456;
0262421110999992000073112004+30310+078020FM-12+068299999V0202301N000510075019N0020001N1+02461+02401099891ADDAA100006192AA209006092AY161061AY221061GA1021+004509079GA2051+007509069GF108991061071004501021999KA1120M+02441MA1999999092471MD1999999-0171MW1601REMSYN106AAXX  31124 42111 21495 82301 10246 20240 39247 49989 76062 8672/ 333 10244 59017 6006/ 82715 85625 88456;
0243421110999992000073115004+30310+078020FM-12+068299999V0209999C000010075019N0020001N1+02381+02291100081ADDAA100006192AA212006092AY161031AY221031GA1021+004509079GA2051+007509069GF108991061071004501021999MA1999999092621MD1999999-0031MW1051REMSYN100AAXX  31154 42111 21495 80000 10238 20229 39262 40008 70562 8672/ 333 59003 6006/ 82715 85625 87458;
0221421110999992000073118004+30310+078020FM-12+068299999V0209999C000010075019N0020001N1+02341+02281100041ADDAA100006192AA215006092AY161061AY221061GA1061+007509069GF108991061051008001021999MA1999999092581MD1999999-0141MW1051REMSYN094AAXX  31184 42111 21595 80000 10234 20228 39258 40004 70562 8652/ 333 59014 6006/ 86625 87458;
0221421110999992000080100004+30310+078020FM-12+068299999V0209999C000010075019N0020001N1+02321+02231099781ADDAA100006192AA221006092AY121061AY221061GA1061+007509069GF108991061051008001021999MA1999999092351MD1999999-0401MW1051REMSYN094AAXX  01004 42111 21595 80000 10232 20223 39235 49978 70522 8652/ 333 59040 6006/ 86625 87458;
0259421110999992000080103004+30310+078020FM-12+068299999V0209999C000010105019N0020001N1+02401+02311099921ADDAA100007192AA224007092AY161031AY221031GA1061+010509069GF108991061051008001021999KA1120M+02461KA2120N+02281MA1999999092471MD1999999-0111MW1211REMSYN106AAXX  01034 42111 21595 80000 10240 20231 39247 49992 72162 8652/ 333 10246 20228 59011 6007/ 86635 88458;
0204421110999992000080106004+30310+078020FM-12+068299999V0201401N000512200019N0040001N1+02801+02381099821ADDAA199000021AY161061AY221061GA1011+010509069GF103991031081012501001001MA1999999092481MD1999999-0221MW1021REMSYN088AAXX  01064 42111 31696 31401 10280 20238 39248 49982 70262 83800 333 59022 81635 83840;
0176421110999992000080109004+30310+078020FM-12+068299999V0202301N001012200019N0040001N1+03001+02451099651ADDAA199000021GA1011+009609069GF104991031081008001031001MA1999999092361MD1999999-0241REMSYN082AAXX  01094 42111 32596 42302 10300 20245 39236 49965 83830 333 59024 81632 83840;
0221421110999992000080118004+30310+078020FM-12+068299999V0209999C00001036001CN0040001N1+02281+99999099961ADDAA100027991AA215028091AY191061AY261061GA1021+007509069GF105991021051008001031001MA1999999092491MD1999999-0091MW1021REMSYN094AAXX  01184 42111 21596 50000 10228 20229 39249 49996 70296 82530 333 59009 6028/ 82625 85360;
0193421110999992000080200004+30310+078020FM-12+068299999V0209999C00001036001CN0040001N1+02101+02041099861ADDAA100027991AA221028091GA1021+010509069GF107991021051012501071001MA1999999092361MD1999999+0011REMSYN088AAXX  02004 42111 22696 70000 10210 20204 39236 49986 82570 333 58001 6028/ 82635 85360;
0259421110999992000080203004+30310+078020FM-12+068299999V0209999C00001036001CN0020001N1+02421+02331099971ADDAA100027991AA224028091AY121031AY221031GA1031+009009069GF107991041081012501071001KA1120M+03011KA2120N+02081MA1999999092531MD1999999+0061MW1051REMSYN106AAXX  02034 42111 21695 70000 10242 20233 39253 49997 70522 84870 333 10301 20208 58006 6028/ 83630 85360;
0217421110999992000080206004+30310+078020FM-12+068299999V0202301N00101012001CN0040001N1+02941+02291099951ADDAA199000091GA1021+008409069GA2031+012009089GF106991031081008001071001MA1999999092641MD1999999+0161REMSYN088AAXX  02064 42111 32596 62302 10294 20229 39264 49995 83870 333 58016 82628 83840 85358;EQDQ01  00002PRCP99
0215421110999992000080209004+30310+078020FM-12+068299999V0201801N000512200019N0020001N1+02841+02271099851ADDAA100002091AA206002091AY161031AY221031GA1011+012009029GF102991011021012501051001MA1999999092511MD1999999+0151MW1051REMSYN088AAXX  02094 42111 21695 21801 10284 20227 39251 49985 70562 81250 333 58015 6002/ 81840;
0234421110999992000080212004+30310+078020FM-12+068299999V0202701N000512200019N0020001N1+02901+02241099791ADDAA100002091AA209002091AY161061AY221061GA1021+012009029GF103991021021012501031001KA1120M+02981MA1999999092471MD1999999+0201MW1051REMSYN094AAXX  02124 42111 21695 32701 10290 20224 39247 49979 70562 82230 333 10298 58020 6002/ 82840;
0187421110999992000080215004+30310+078020FM-12+068299999V0209999C000012200019N0040001N1+02601+02351100021ADDAA100002091AA212002091GA1011+009609059GF101991011051012501001001MA1999999092611MD1999999+0181REMSYN082AAXX  02154 42111 22696 10000 10260 20235 39261 40002 81500 333 58018 6002/ 81632;
0193421110999992000080218004+30310+078020FM-12+068299999V0200501N000512200019N0040001N1+02481+02251100121ADDAA100002091AA215002091GA1011+009009069GF104991011051008001031001MA1999999092681MD1999999+0191REMSYN088AAXX  02184 42111 22596 40501 10248 20225 39268 40012 81530 333 58019 6002/ 81630 83360;
0165421110999992000080221004+30310+078020FM-12+068299999V0200501N000512200019N0040001N1+02301+02121100031ADDGA1011+010509069GF103991011051012501031001MA1999999092541MD1999999+0161REMSYN082AAXX  02214 42111 22696 30501 10230 20212 39254 40003 81530 333 58016 81635 83360;
0159421110999992000080300004+30310+078020FM-12+068299999V0209999C000012200019N0040001N1+02201+02051099941ADDGA1011+010509059GF102991011051012501031001MA1999999092441MD1999999+0081REMSYN076AAXX  03004 42111 22696 20000 10220 20205 39244 49994 81530 333 58008 81635;
0206421110999992000080303004+30310+078020FM-12+068299999V0203201N000512200019N0040001N1+02561+02121099961ADDAA100002091AA224002091GA1011+030009079GF101991011001999999031001KA1120N+02161MA1999999092551MD1999999+0021REMSYN088AAXX  03034 42111 22996 13201 10256 20212 39255 49996 81030 333 20216 58002 6002/ 81360;
0195421110999992000080309004+30310+078020FM-12+068299999V0201801N001010360019N0040001N1+03101+02191099951ADDAA199000091GA1021+007509069GF106991041081008001031001MA1999999092651MD1999999+0141REMSYN082AAXX  03094 42111 32596 61802 10310 20219 39265 49995 84830 333 58014 82625 84840;EQDQ01  00002PRCP99
0252421110999992000080312004+30310+078020FM-12+068299999V0200501N001012200019N0040001N1+02761+01961099851ADDAA199000091AY191061AY221061GA1021+024009079GF102991021999999999031001KA1120M+03111MA1999999092501MD1999999+0031MW1291REMSYN088AAXX  03124 42111 31996 20502 10276 20196 39250 49985 72992 82030 333 10311 58003 82358;EQDQ01  00002PRCP99Q02    003SCOLCG
0189421110999992000080400004+30310+078020FM-12+068299999V0202301N000512200019N0040001N1+02081+01901100141ADDAA199000091GA1011+010509059GF101991011051012501001001MA1999999092601MD1999999+0161REMSYN076AAXX  04004 42111 32696 12301 10208 20190 39260 40014 81500 333 58016 81635;EQDQ01  00002PRCP99
0195421110999992000080406004+30310+078020FM-12+068299999V0201401N000512200019N0040001N1+02881+02351100161ADDAA199000091GA1011+010509069GF103991031081012501001001MA1999999092811MD1999999+0151REMSYN082AAXX  04064 42111 32696 31401 10288 20235 39281 40016 83800 333 58015 81635 83840;EQDQ01  00002PRCP99
0195421110999992000080409004+30310+078020FM-12+068299999V0203201N001512200019N0040001N1+03101+02151100061ADDAA199000091GA1011+009009069GF103991031081008001001001MA1999999092761MD1999999+0111REMSYN082AAXX  04094 42111 32596 33203 10310 20215 39276 40006 83800 333 58011 81630 83840;EQDQ01  00002PRCP99
0236421110999992000080412004+30310+078020FM-12+068299999V0202301N00101012001CN0040001N1+02941+02261099991ADDAA199000091GA1021+009009069GA2031+012009089GF106991041081008001031001KA1120M+03151MA1999999092681MD1999999+0181REMSYN094AAXX  04124 42111 32596 62302 10294 20226 39268 49999 84830 333 10315 58018 82630 83840 85360;EQDQ01  00002PRCP99
0177421110999992000080415004+30310+078020FM-12+068299999V0209999C000012200019N0040001N1+02621+02221100061ADDAA199000091GA1001+999999999GF100991001001999999001001MA1999999092671MD1999999+0071REMSYN064AAXX  04154 42111 32996 00000 10262 20222 39267 40006 333 58007;EQDQ01  00002PRCP99
0177421110999992000080418004+30310+078020FM-12+068299999V0209999C000012200019N0040001N1+02441+02241100131ADDAA199000091GA1001+999999999GF100991001001999999001001MA1999999092691MD1999999-0011REMSYN064AAXX  04184 42111 32996 00000 10244 20224 39269 40013 333 59001;EQDQ01  00002PRCP99
0177421110999992000080500004+30310+078020FM-12+068299999V0200501N001012200019N0040001N1+02161+01921100121ADDAA199000091GA1001+999999999GF100991001001999999001001MA1999999092601MD1999999+0001REMSYN064AAXX  05004 42111 32996 00502 10216 20192 39260 40012 333 58000;EQDQ01  00002PRCP99
0243421110999992000080503004+30310+078020FM-12+068299999V0203201N000512200019N0020001N1+02641+02151100071ADDAA199000091AY101031AY201031GA1001+999999999GF100991001001999999001001KA1120M+03151KA2120N+02121MA1999999092681MD1999999+0011MW1051REMSYN082AAXX  05034 42111 31995 03201 10264 20215 39268 40007 70500 333 10315 20212 58001;EQDQ01  00002PRCP99
0195421110999992000080506004+30310+078020FM-12+068299999V0203201N001012200019N0040001N1+03041+02181100011ADDAA199000091GA1011+009009069GF104991041081008001001001MA1999999092711MD1999999-0101REMSYN082AAXX  05064 42111 32596 43202 10304 20218 39271 40001 84800 333 59010 81630 83840;EQDQ01  00002PRCP99
0195421110999992000080509004+30310+078020FM-12+068299999V0202301N001010360019N0040001N1+03061+02271099901ADDAA199000091GA1021+009009069GF105991041081008001031001MA1999999092621MD1999999-0141REMSYN082AAXX  05094 42111 32596 52302 10306 20227 39262 49990 84830 333 59014 82630 83840;EQDQ01  00002PRCP99
0195421110999992000080515004+30310+078020FM-12+068299999V0201801N00101036001CN0040001N1+02741+02261099901ADDAA199000091GA1031+009009069GF105991031051008001031001MA1999999092541MD1999999-0131REMSYN082AAXX  05154 42111 32596 51802 10274 20226 39254 49990 83530 333 59013 83630 83360;EQDQ01  00002PRCP99
0205421110999992000080518004+30310+078020FM-12+068299999V0200501N001012200019N0040001N1+02541+02281100021ADDAA199000091GA1021+000159079GF102991021999999999031001MA1999999092611MD1999999-0081REMSYN076AAXX  05184 42111 32996 20502 10254 20228 39261 40002 82030 333 59008 82300;EQDQ01+000002SCOLCGQ02  00002PRCP99
0195421110999992000080521004+30310+078020FM-12+068299999V0200501N00101036001CN0040001N1+02401+02171099921ADDAA199000091GA1031+009009069GF105991031051008001031001MA1999999092471MD1999999-0191REMSYN082AAXX  05214 42111 32596 50502 10240 20217 39247 49992 83530 333 59019 83630 83360;EQDQ01  00002PRCP99
0195421110999992000080600004+30310+078020FM-12+068299999V0200501N00101036001CN0040001N1+02341+02161100011ADDAA199000091GA1031+009009069GF107991041081008001031001MA1999999092551MD1999999-0051REMSYN082AAXX  06004 42111 32596 70502 10234 20216 39255 40001 84830 333 59005 83630 85360;EQDQ01  00002PRCP99
0215421110999992000080603004+30310+078020FM-12+068299999V0202301N000512200019N0040001N1+02661+02511100041ADDAA199000091GA1001+999999999GF100991001001999999001001KA1120M+03121KA2120N+02361MA1999999092651MD1999999-0031REMSYN076AAXX  06034 42111 32996 02301 10266 20251 39265 40004 333 10312 20236 59003;EQDQ01  00002PRCP99
0195421110999992000080606004+30310+078020FM-12+068299999V0202301N001012200019N0040001N1+03081+02381099941ADDAA199000091GA1011+009009069GF103991031081008001001001MA1999999092661MD1999999-0051REMSYN082AAXX  06064 42111 32596 32302 10308 20238 39266 49994 83800 333 59005 81630 83840;EQDQ01  00002PRCP99
0243421110999992000080609004+30310+078020FM-12+068299999V0209999C000010120019N0020001N1+03001+02451099891ADDAA100000791AA206999929AY161031AY221031GA1031+009609069GA2041+012009089GF107991051081012501021001MA1999999092581MD1999999-0041MW1611REMSYN100AAXX  06094 42111 21695 70000 10300 20245 39258 49989 76162 85820 333 59004 6990/ 83632 84840 86460;
0240421110999992000080612004+30310+078020FM-12+068299999V0203201N00051012001CN0020001N1+03001+02531099741ADDAA100001091AA209001091AY161061AY221061GA1031+008409069GF106991051081008001021001KA1120M+03181MA1999999092451MD1999999-0071MW1211REMSYN100AAXX  06124 42111 21595 63201 10300 20253 39245 49974 72162 85820 333 10318 59007 6001/ 83628 85458;
0221421110999992000080615004+30310+078020FM-12+068299999V0209999C00001036001CN0040001N1+02741+02521099881ADDAA100005192AA212005092AY161031AY221031GA1041+009009069GF106991041051008001021001MA1999999092501MD1999999-0041MW1021REMSYN094AAXX  06154 42111 21596 60000 10274 20252 39250 49988 70262 84520 333 59004 6005/ 84630 86458;
0193421110999992000080621004+30310+078020FM-12+068299999V0201401N00051036001CN0040001N1+02481+02341100071ADDAA100005192AA218005092GA1031+009009069GF105991031051008001031001MA1999999092631MD1999999+0161REMSYN088AAXX  06214 42111 22596 51401 10248 20234 39263 40007 83530 333 58016 6005/ 83630 85360;
0193421110999992000080700004+30310+078020FM-12+068299999V0200501N000512200019N0020001N1+02401+02261100041ADDAA100005192AA221005092GA1021+009009069GF104991021051008001031001MA1999999092581MD1999999+0031REMSYN088AAXX  07004 42111 22595 40501 10240 20226 39258 40004 82530 333 58003 6005/ 82630 83360;
0223421110999992000080706004+30310+078020FM-12+068299999V0201401N000512200019N0020001N1+03141+02631100031ADDAA199000091AY111061AY211061GA1011+010509069GF103991031081012501001001MA1999999092751MD1999999+0091MW1051REMSYN088AAXX  07064 42111 31695 31401 10314 20263 39275 40003 70511 83800 333 58009 81635 83840;EQDQ01  00002PRCP99
0245421110999992000080709004+30310+078020FM-12+068299999V0202301N001010120019N0020001N1+03141+02541099861ADDAA199000091AY121031AY211031GA1031+010509069GA2041+012009089GF107991061081008001031001MA1999999092601MD1999999+0021MW1051REMSYN094AAXX  07094 42111 31595 72302 10314 20254 39260 49986 70521 86830 333 58002 83635 84840 85360;EQDQ01  00002PRCP99
0262421110999992000080712004+30310+078020FM-12+068299999V0203201N001010078019N0020001N1+02881+02581099761ADDAA100003091AA209003091AY161061AY221061GA1021+004509079GA2051+007809069GF108991061071004501021999KA1120M+03241MA1999999092441MD1999999-0211MW1611REMSYN106AAXX  07124 42111 21495 83202 10288 20258 39244 49976 76162 8672/ 333 10324 59021 6003/ 82715 85626 88456;
0243421110999992000080715004+30310+078020FM-12+068299999V0200501N001510120019N0040001N1+02661+02491099831ADDAA100010991AA212011091AY161031AY221031GA1041+009009069GA2011+012009099GF107991051091008001071001MA1999999092461MD1999999-0041MW1131REMSYN100AAXX  07154 42111 21596 70503 10266 20249 39246 49983 71362 85970 333 59004 6011/ 84630 81940 85358;
0221421110999992000080718004+30310+078020FM-12+068299999V0209999C00001036001CN0040001N1+02601+02461099711ADDAA100013091AA215013091AY161061AY221061GA1041+009009069GF107991041051008001071001MA1999999092561MD1999999-0071MW1021REMSYN094AAXX  07184 42111 21596 70000 10260 20246 39256 49971 70262 84570 333 59007 6013/ 84630 85360;
0193421110999992000080721004+30310+078020FM-12+068299999V0209999C00001036001CN0040001N1+02601+02461099961ADDAA100013091AA218013091GA1041+008409069GF107991041051008001071001MA1999999092551MD1999999-0081REMSYN088AAXX  07214 42111 22596 70000 10260 20246 39255 49996 84570 333 59008 6013/ 84628 85458;
0193421110999992000080800004+30310+078020FM-12+068299999V0209999C00001036001CN0040001N1+02581+02471099941ADDAA100013091AA221013091GA1041+007509069GF107991041051008001071001MA1999999092531MD1999999-0051REMSYN088AAXX  08004 42111 22596 70000 10258 20247 39253 49994 84570 333 59005 6013/ 84625 85458;
0259421110999992000080803004+30310+078020FM-12+068299999V0201401N000510075019N0040001N1+02661+02551100001ADDAA100013091AA224013091AY151031AY221031GA1051+007509069GF108991051051008001021999KA1120M+03241KA2120N+02511MA1999999092611MD1999999-0111MW1201REMSYN106AAXX  08034 42111 21596 81401 10266 20255 39261 40000 72052 8552/ 333 10324 20251 59011 6013/ 85625 88456;
0226421110999992000080806004+30310+078020FM-12+068299999V0201801N001010075019N0040001N1+02981+02661099971ADDAA199000021AY151061AY221061GA1021+004509079GA2041+007509069GF107991051081004501021001MA1999999092661MD1999999-0091MW1021REMSYN094AAXX  08064 42111 31496 71802 10298 20266 39266 49997 70252 85820 333 59009 82715 84625 87456;
0243421110999992000080809004+30310+078020FM-12+068299999V0202301N000510075019N0020001N1+03001+02621099871ADDAA100000791AA206999929AY161031AY221031GA1021+003609079GA2041+007509069GF107991051081004501021001MA1999999092561MD1999999-0041MW1601REMSYN100AAXX  08094 42111 21495 72301 10300 20262 39256 49987 76062 85820 333 59004 6990/ 82712 84625 86456;
0240421110999992000080812004+30310+078020FM-12+068299999V0202301N00051012001CN0020001N1+02921+02591099711ADDAA100001091AA209001091AY161061AY221061GA1041+008409069GF107991051081008001021001KA1120M+03021MA1999999092421MD1999999-0021MW1021REMSYN100AAXX  08124 42111 21595 72301 10292 20259 39242 49971 70262 85820 333 10302 59002 6001/ 84628 86456;
0221421110999992000080818004+30310+078020FM-12+068299999V0209999C000010090019N0020001N1+02501+02361100061ADDAA100005192AA215005092AY191061AY261061GA1061+009009069GF108991051051008001021999MA1999999092621MD1999999+0061MW1051REMSYN094AAXX  08184 42111 21595 80000 10250 20236 39262 40006 70596 8552/ 333 58006 6005/ 86630 87458;
0221421110999992000080821004+30310+078020FM-12+068299999V0209999C000010090019N0020001N1+02481+02371100081ADDAA100005192AA218005092AY121031AY221031GA1051+009009069GF108991051051008001021999MA1999999092641MD1999999+0091MW1051REMSYN094AAXX  08214 42111 21595 80000 10248 20237 39264 40008 70522 8552/ 333 58009 6005/ 85630 87458;
0221421110999992000080900004+30310+078020FM-12+068299999V0201801N000510090019N0020001N1+02461+02381100081ADDAA100005192AA221005092AY121061AY221061GA1061+009009069GF108991061051008001021999MA1999999092641MD1999999+0111MW1051REMSYN094AAXX  09004 42111 21595 81801 10246 20238 39264 40008 70522 8652/ 333 58011 6005/ 86630 87458;
0259421110999992000080903004+30310+078020FM-12+068299999V0201801N00051036001CN0020001N1+02581+02411100171ADDAA100005192AA224005092AY121031AY221031GA1041+008409069GF107991041051008001071001KA1120M+03021KA2120N+02411MA1999999092741MD1999999+0131MW1051REMSYN106AAXX  09034 42111 21595 71801 10258 20241 39274 40017 70522 84570 333 10302 20241 58013 6005/ 84628 86458;
0245421110999992000080906004+30310+078020FM-12+068299999V0201401N00101012001CN0020001N1+02901+02341100051ADDAA199000091AY121061AY221061GA1021+009009069GA2031+012009089GF105991041081008001031001MA1999999092701MD1999999-0041MW1051REMSYN094AAXX  09064 42111 31595 51402 10290 20234 39270 40005 70522 84830 333 59004 82630 83840 85360;EQDQ01  00002PRCP99
0223421110999992000080909004+30310+078020FM-12+068299999V0200501N001010120019N0020001N1+03021+02441099781ADDAA199000091AY101031AY201031GA1031+009009069GF105991051081008001001001MA1999999092501MD1999999-0061MW1051REMSYN088AAXX  09094 42111 31595 50502 10302 20244 39250 49978 70500 85800 333 59006 83630 85840;EQDQ01  00002PRCP99
0262421110999992000080912004+30310+078020FM-12+068299999V0202301N000510120019N0020001N1+02541+02431099761ADDAA100021192AA209021092AY191061AY261061GA1041+008409069GA2021+012009099GF107991051091008001021001KA1120M+03071MA1999999092361MD1999999-0061MW1951REMSYN106AAXX  09124 42111 21595 72301 10254 20243 39236 49976 79596 85920 333 10307 59006 6021/ 84628 82940 87458;
0243421110999992000080915004+30310+078020FM-12+068299999V0201401N001010075019N0020001N1+02401+02261100021ADDAA100022192AA212022092AY191031AY261031GA1021+003609079GA2051+007509069GF108991061071004501021999MA1999999092561MD1999999+0031MW1601REMSYN100AAXX  09154 42111 21495 81402 10240 20226 39256 40002 76096 8672/ 333 58003 6022/ 82712 85625 88456;
0243421110999992000080918004+30310+078020FM-12+068299999V0201401N000510075019N0040001N1+02441+02351100091ADDAA100022192AA215022092AY191061AY261061GA1051+007509069GA2011+011409099GF107991051091008001021001MA1999999092651MD1999999+0031MW1131REMSYN100AAXX  09184 42111 21596 71401 10244 20235 39265 40009 71396 85920 333 58003 6022/ 85625 81938 87456;
0221421110999992000080921004+30310+078020FM-12+068299999V0200501N000510075019N0020001N1+02281+02271100061ADDAA100042991AA218043091AY161031AY261031GA1051+007509069GF108991051051008001021999MA1999999092571MD1999999-0071MW1611REMSYN094AAXX  09214 42111 21595 80501 10228 20227 39257 40006 76166 8552/ 333 59007 6043/ 85625 88456;
0221421110999992000081000004+30310+078020FM-12+068299999V0209999C000010075019N0020001N1+02261+02201100051ADDAA100071192AA221071092AY161061AY261061GA1051+007509069GF108991051051008001021999MA1999999092561MD1999999-0081MW1631REMSYN094AAXX  10004 42111 21595 80000 10226 20220 39256 40005 76366 8552/ 333 59008 6071/ 85625 88456;
0215421110999992000081006004+30310+078020FM-12+068299999V0201401N00051036001CN0020001N1+02361+99999100331ADDAA100001091AA203001091AY161061AY221061GA1031+007509059GF108991031051008001021999MA1999999092851MD1999999+0151MW1601REMSYN088AAXX  10064 42111 21595 81401 10236 39285 40033 76062 8352/ 333 58015 6001/ 83525 88458;
0221421110999992000081009004+30310+078020FM-12+068299999V0202301N000510075019N0020001N1+02501+02331100211ADDAA100002091AA206002091AY161031AY221031GA1051+007509069GF108991051051008001071999MA1999999092761MD1999999+0261MW1211REMSYN094AAXX  10094 42111 21595 82301 10250 20233 39276 40021 72162 8557/ 333 58026 6002/ 85625 87460;
0240421110999992000081012004+30310+078020FM-12+068299999V0202301N00051036001CN0020001N1+02521+02291100071ADDAA100002091AA209002091AY161061AY221061GA1041+008409069GF107991041051008001071001KA1120M+02551MA1999999092661MD1999999+0301MW1021REMSYN100AAXX  10124 42111 21595 72301 10252 20229 39266 40007 70262 84570 333 10255 58030 6002/ 84628 86458;
0193421110999992000081018004+30310+078020FM-12+068299999V0200501N000510084019N0040001N1+02381+02271100371ADDAA100002091AA215002091GA1051+008409069GF107991051051008001071001MA1999999092891MD1999999+0241REMSYN088AAXX  10184 42111 22596 70501 10238 20227 39289 40037 85570 333 58024 6002/ 85628 87456;
0193421110999992000081021004+30310+078020FM-12+068299999V0201401N000510084019N0040001N1+02281+02161100341ADDAA100002091AA218002091GA1051+008409069GF108991051051008001021999MA1999999092831MD1999999+0251REMSYN088AAXX  10214 42111 22596 81401 10228 20216 39283 40034 8552/ 333 58025 6002/ 85628 88456;
0217421110999992000081109004+30310+078020FM-12+068299999V0202301N000510120019N0040001N1+02921+02241100021ADDAA199000091GA1031+009009069GA2031+012009089GF107991051081012501071001MA1999999092701MD1999999-0061REMSYN088AAXX  11094 42111 32696 72301 10292 20224 39270 40002 85870 333 59006 83630 83840 86360;EQDQ01  00002PRCP99
0214421110999992000081112004+30310+078020FM-12+068299999V0202301N000510084019N0040001N1+02861+02381099921ADDAA199000091GA1051+008409069GF107991061081008001071001KA1120M+02951MA1999999092581MD1999999-0081REMSYN088AAXX  11124 42111 32596 72301 10286 20238 39258 49992 86870 333 10295 59008 85628 86460;EQDQ01  00002PRCP99
0221421110999992000081115004+30310+078020FM-12+068299999V0200501N00051036001CN0040001N1+02381+02291100151ADDAA100003091AA212003091AY191031AY261031GA1021+009009069GF105991021051008001031001MA1999999092691MD1999999-0081MW1021REMSYN094AAXX  11154 42111 21596 50501 10238 20229 39269 40015 70296 82530 333 59008 6003/ 82630 84358;
0193421110999992000081121004+30310+078020FM-12+068299999V0200501N00051036001CN0040001N1+02361+02241100141ADDAA100003091AA218003091GA1041+008409069GF107991041051008001071001MA1999999092691MD1999999-0141REMSYN088AAXX  11214 42111 22596 70501 10236 20224 39269 40014 84570 333 59014 6003/ 84628 85358;
0193421110999992000081200004+30310+078020FM-12+068299999V0200501N00051036001CN0040001N1+02361+02241100171ADDAA100003091AA221003091GA1041+008409069GF107991041051008001071001MA1999999092701MD1999999-0101REMSYN088AAXX  12004 42111 22596 70501 10236 20224 39270 40017 84570 333 59010 6003/ 84628 85358;
0281421110999992000081203004+30310+078020FM-12+068299999V0202301N00051012001CN0040001N1+02581+02381100371ADDAA100003091AA224003091AY161031AY251031GA1021+010509069GA2031+012009089GF107991041081012501071001KA1120M+02951KA2120N+02291MA1999999092931MD1999999+0071MW1021REMSYN112AAXX  12034 42111 21696 72301 10258 20238 39293 40037 70265 84870 333 10295 20229 58007 6003/ 82635 83840 86360;
0245421110999992000081206004+30310+078020FM-12+068299999V0203201N00101036001CN0040001N1+02821+02341100351ADDAA199000091AY161061AY251061GA1031+009009069GA2011+012009099GF107991041081008001071001MA1999999092981MD1999999+0081MW1021REMSYN094AAXX  12064 42111 32596 73202 10282 20234 39298 40035 70265 84870 333 58008 83630 81940 86460;EQDQ01  00002PRCP99
0221421110999992000081209004+30310+078020FM-12+068299999V0200501N00101012001CN0020001N1+02721+02501100231ADDAA100001091AA206001091AY191031AY261031GA1041+007509069GF107991051081008001021001MA1999999092881MD1999999+0181MW1611REMSYN094AAXX  12094 42111 21595 70502 10272 20250 39288 40023 76196 85820 333 58018 6001/ 84625 86456;
0262421110999992000081212004+30310+078020FM-12+068299999V0203201N00051036001CN0040001N1+02741+02371100121ADDAA100001091AA209001091AY191061AY261061GA1021+009009069GA2021+012009089GF106991041081008001031001KA1120M+02821MA1999999092751MD1999999+0171MW1021REMSYN106AAXX  12124 42111 21596 63201 10274 20237 39275 40012 70296 84830 333 10282 58017 6001/ 82630 82840 85360;
0193421110999992000081218004+30310+078020FM-12+068299999V0200501N000510090019N0040001N1+02421+02221100521ADDAA100001091AA215001091GA1051+009009069GF108991051051012501071999MA1999999093051MD1999999+0291REMSYN088AAXX  12184 42111 22696 80501 10242 20222 39305 40052 8557/ 333 58029 6001/ 85630 87460;
0193421110999992000081221004+30310+078020FM-12+068299999V0200501N001010090019N0040001N1+02421+02221100511ADDAA100001091AA218001091GA1061+009009069GF108991061051012501021999MA1999999093041MD1999999+0351REMSYN088AAXX  12214 42111 22696 80502 10242 20222 39304 40051 8652/ 333 58035 6001/ 86630 87460;
0193421110999992000081300004+30310+078020FM-12+068299999V0203201N00051036001CN0040001N1+02421+02251100501ADDAA100001091AA221001091GA1041+009009069GF107991041051012501071001MA1999999093031MD1999999+0331REMSYN088AAXX  13004 42111 22696 73201 10242 20225 39303 40050 84570 333 58033 6001/ 84630 85460;
0253421110999992000081303004+30310+078020FM-12+068299999V0203201N000512200019N0040001N1+02601+02321100501ADDAA100001091AA224001091GA1011+009009069GA2021+012009089GF104991031081008001031001KA1120M+02821KA2120N+02371MA1999999093061MD1999999+0131REMSYN106AAXX  13034 42111 22596 43201 10260 20232 39306 40050 83830 333 10282 20237 58013 6001/ 81630 82840 83360;
0217421110999992000081306004+30310+078020FM-12+068299999V0200501N000510114019N0040001N1+02821+02461100441ADDAA199000091GA1031+008409069GA2031+011409089GF107991051081008001071001MA1999999093071MD1999999+0091REMSYN088AAXX  13064 42111 32596 70501 10282 20246 39307 40044 85870 333 58009 83628 83838 86456;EQDQ01  00002PRCP99
0221421110999992000081309004+30310+078020FM-12+068299999V0200501N00051036001CN0040001N1+02821+02461100221ADDAA100046091AA206046091AY161031AY221031GA1031+009009069GF106991031061008001071001MA1999999092871MD1999999-0011MW1021REMSYN094AAXX  13094 42111 21596 60501 10282 20246 39287 40022 70262 83670 333 59001 6046/ 83630 85360;
0262421110999992000081312004+30310+078020FM-12+068299999V0201401N00051011401CN0040001N1+02901+02431099981ADDAA100046091AA209046091AY161061AY221061GA1021+008409069GA2031+011409089GF107991041081008001071001KA1120M+02971MA1999999092641MD1999999-0191MW1021REMSYN106AAXX  13124 42111 21596 71401 10290 20243 39264 49998 70262 84870 333 10297 59019 6046/ 82628 83838 86358;
0243421110999992000081318004+30310+078020FM-12+068299999V0203601N000510060019N0020001N1+02461+02321100461ADDAA100064091AA215064091AY191061AY261061GA1051+006009069GA2011+012009099GF108991061091008001021999MA1999999092991MD1999999-0061MW1951REMSYN100AAXX  13184 42111 21595 83601 10246 20232 39299 40046 79596 8692/ 333 59006 6064/ 85620 81940 88456;
0243421110999992000081321004+30310+078020FM-12+068299999V0200501N000510090019N0020001N1+02361+02241100391ADDAA100075991AA218076091AY191031AY261031GA1051+009009069GA2011+012009099GF108991061091008001021999MA1999999092901MD1999999-0141MW1021REMSYN100AAXX  13214 42111 21595 80501 10236 20224 39290 40039 70296 8692/ 333 59014 6076/ 85630 81940 88456;
0259421110999992000081403004+30310+078020FM-12+068299999V0202701N000510084019N0020001N1+02481+02391100291ADDAA100075991AA224076091AY191031AY221031GA1051+008409069GF108991051051008001071999KA1120M+02971KA2120N+02261MA1999999092841MD1999999-0221MW1021REMSYN106AAXX  14034 42111 21595 82701 10248 20239 39284 40029 70292 8557/ 333 10297 20226 59022 6076/ 85628 86458;
0283421110999992000081412004+30310+078020FM-12+068299999V0201401N00051012001CN0020001N1+02861+02501099831ADDAA199000091AY121061AY221061GA1021+011409069GA2031+012009089GF105991041081008001031001KA1120M+02911KA2120N+02421MA1999999092501MD1999999-0141MW1051REMSYN106AAXX  14124 42111 31595 51401 10286 20250 39250 49983 70522 84830 333 10291 20242 59014 82638 83840 85358;EQDQ01  00002PRCP99
0245421110999992000081415004+30310+078020FM-12+068299999V0201401N000510075019N0040001N1+02641+02471100031ADDAA199000091AY121031AY221031GA1051+007509069GA2011+010509099GF108991061091008001021999MA1999999092641MD1999999+0231MW1131REMSYN094AAXX  14154 42111 31596 81401 10264 20247 39264 40003 71322 8692/ 333 58023 85625 81935 88456;EQDQ01  00002PRCP99
0243421110999992000081418004+30310+078020FM-12+068299999V0201401N001010075019N0040001N1+02501+02361100151ADDAA100001091AA215001091AY191061AY261061GA1051+007509069GA2011+010509099GF108991061091008001021999MA1999999092701MD1999999-0291MW1171REMSYN100AAXX  14184 42111 21596 81402 10250 20236 39270 40015 71796 8692/ 333 59029 6001/ 85625 81935 88454;
0265421110999992000081421004+30310+078020FM-12+068299999V0201401N001010060019N0020001N1+02341+02311100081ADDAA100081091AA218081091AY191031AY261031GA1021+003009079GA2041+006009069GA3021+010209099GF108991061091004501021999MA1999999092621MD1999999-0281MW1951REMSYN106AAXX  14214 42111 21495 81402 10234 20231 39262 40008 79596 8692/ 333 59028 6081/ 82710 84620 82934 88454;
0265421110999992000081500004+30310+078020FM-12+068299999V0201401N000510066019N0020001N1+02281+02251100081ADDAA100103991AA221104091AY191061AY261061GA1021+003609079GA2041+006609069GA3011+010509099GF108991061091004501021999MA1999999092591MD1999999-0211MW1951REMSYN106AAXX  15004 42111 21495 81401 10228 20225 39259 40008 79596 8692/ 333 59021 6104/ 82712 84622 81935 88454;
0259421110999992000081503004+30310+078020FM-12+068299999V0200901N000510084019N0020001N1+02361+02301100201ADDAA100108091AA224108091AY191031AY261031GA1051+008409069GF108991051051008001021999KA1120M+02911KA2120N+02231MA1999999092721MD1999999-0121MW1611REMSYN106AAXX  15034 42111 21595 80901 10236 20230 39272 40020 76196 8552/ 333 10291 20223 59012 6108/ 85628 88458;
0284421110999992000081512004+30310+078020FM-12+068299999V0203201N001010084019N0020001N1+02661+02351099831ADDAA100003091AA209003091AY191061AY261061GA1021+003009079GA2031+008409069GA3011+011409099GF108991061091004501021999KA1120M+03021MA1999999092461MD1999999-0041MW1951REMSYN112AAXX  15124 42111 21495 83202 10266 20235 39246 49983 79596 8692/ 333 10302 59004 6003/ 82710 83628 81938 88456;
0265421110999992000081515004+30310+078020FM-12+068299999V0200501N001010066019N0020001N1+02301+02211100091ADDAA100016091AA212016091AY191031AY261031GA1021+003609079GA2041+006609069GA3011+010509099GF108991061091004501021999MA1999999092601MD1999999-0041MW1951REMSYN106AAXX  15154 42111 21495 80502 10230 20221 39260 40009 79596 8692/ 333 59004 6016/ 82712 84622 81935 88454;
0221421110999992000081518004+30310+078020FM-12+068299999V0209999C000010075019N0040001N1+02281+02221100141ADDAA100017091AA215017091AY191061AY261061GA1051+007509069GF108991051051008001021999MA1999999092651MD1999999-0051MW1021REMSYN094AAXX  15184 42111 21596 80000 10228 20222 39265 40014 70296 8552/ 333 59005 6017/ 85625 88456;
0193421110999992000081521004+30310+078020FM-12+068299999V0201401N000510075019N0040001N1+02281+02221100111ADDAA100017091AA218017091GA1051+007509069GF108991051051008001021999MA1999999092621MD1999999+0001REMSYN088AAXX  15214 42111 21596 81401 10228 20222 39262 40011 8552/ 333 58000 6017/ 85625 88458;
0221421110999992000081600004+30310+078020FM-12+068299999V0202301N000510075019N0020001N1+02261+02201100101ADDAA100025991AA221026091AY161061AY221061GA1051+007509069GF108991051051008001021999MA1999999092611MD1999999+0021MW1611REMSYN094AAXX  16004 42111 21595 82301 10226 20220 39261 40010 76162 8552/ 333 58002 6026/ 85625 88454;
0240421110999992000081603004+30310+078020FM-12+068299999V0202301N000510078019N0020001N1+02341+02251100121ADDAA100026991AA224027091AY161031AY221031GA1051+007809069GF108991051051008001021999KA1120N+02231MA1999999092661MD1999999-0061MW1021REMSYN100AAXX  16034 42111 21595 82301 10234 20225 39266 40012 70262 8552/ 333 20223 59006 6027/ 85626 88456;
0204421110999992000081606004+30310+078020FM-12+068299999V0209999C000010084019N0020001N1+02561+02271100161ADDAA199000021AY161061AY221061GA1051+008409069GF107991051051008001071001MA1999999092731MD1999999+0021MW1021REMSYN088AAXX  16064 42111 31595 70000 10256 20227 39273 40016 70262 85570 333 58002 85628 86458;
0198421110999992000081609004+30310+078020FM-12+068299999V0202301N001010114019N0040001N1+02741+02351099921ADDAA199000021GA1021+007509069GA2031+011409089GF106991051081008001071001MA1999999092561MD1999999+0041REMSYN088AAXX  16094 42111 32596 62302 10274 20235 39256 49992 85870 333 58004 82625 83838 86458;
0161421110999992000081612004+30310+078020FM-12+068299999V0203201N00101012001CN0040001N1+02861+02411999999ADDAA199000021GA1031+007809059GF106991051081008001021001KA1120M+02931MD1999999-0101REMSYN069AAXX  16124 4211132596 63202 10286 20241 85820 333 10293 59010 83626;
0243421110999992000081618004+30310+078020FM-12+068299999V0209999C000010075019N0020001N1+02441+02351099901ADDAA100022192AA215022092AY191061AY261061GA1041+004509079GA2061+007509069GF108991061071004501021999MA1999999092481MD1999999-0171MW1921REMSYN100AAXX  16184 42111 21495 80000 10244 20235 39248 49990 79296 8672/ 333 59017 6022/ 84715 86625 87456;
0221421110999992000081621004+30310+078020FM-12+068299999V0209999C00001004201CN0020001N1+02421+02331099841ADDAA100032091AA218032091AY161031AY221031GA1031+004509079GF108991061071004501021999MA1999999092421MD1999999-0201MW1051REMSYN094AAXX  16214 42111 21495 80000 10242 20233 39242 49984 70562 8672/ 333 59020 6032/ 83715 87458;
0243421110999992000081700004+30310+078020FM-12+068299999V0209999C000010075019N0020001N1+02381+02321099801ADDAA100032091AA221032091AY161061AY221061GA1021+004509079GA2051+007509069GF108991051071004501021999MA1999999092351MD1999999-0261MW1051REMSYN100AAXX  17004 42111 21495 80000 10238 20232 39235 49980 70562 8572/ 333 59026 6032/ 82715 85625 87458;
0259421110999992000081703004+30310+078020FM-12+068299999V0209999C000010084019N0020001N1+02541+02431099891ADDAA100032091AA224032091AY121031AY221031GA1061+008409069GF108991061051008001021999KA1120M+02931KA2120N+02351MA1999999092491MD1999999-0171MW1051REMSYN106AAXX  17034 42111 21595 80000 10254 20243 39249 49989 70522 8652/ 333 10293 20235 59017 6032/ 86628 88456;
0259421110999992000081712004+30310+078020FM-12+068299999V0200901N000510084019N0020001N1+02781+02501099541ADDAA100000791AA209999999AY191061AY261061GA1051+008409069GF107991061081008001021001KA1120M+02931MA1999999092211MD1999999-0151MW1021REMSYN100AAXX  17124 42111 21595 70901 10278 20250 39221 49954 70296 86820 333 10293 59015 6990/ 85628 86458;EQDQ01  99992PRCP09
0243421110999992000081715004+30310+078020FM-12+068299999V0200501N00051036001CN0020001N1+02421+02331099651ADDAA100019192AA212019092AY191031AY261031GA1031+008409069GA2011+012009099GF106991041091008001071001MA1999999092251MD1999999-0171MW1171REMSYN100AAXX  17154 42111 21595 60501 10242 20233 39225 49965 71796 84970 333 59017 6019/ 83628 81940 85360;
0243421110999992000081718004+30310+078020FM-12+068299999V0209999C000010075019N0020001N1+02481+02311099821ADDAA100031091AA215031091AY191061AY261061GA1051+007509069GA2011+012009099GF108991061091008001021999MA1999999092401MD1999999-0081MW1951REMSYN100AAXX  17184 42111 21595 80000 10248 20231 39240 49982 79596 8692/ 333 59008 6031/ 85625 81940 88456;
0243421110999992000081800004+30310+078020FM-12+068299999V0209999C000010066019N0020001N1+02441+02341099831ADDAA100035192AA221035092AY191061AY261061GA1031+003009079GA2031+006609069GF108991051071008001081999MA1999999092411MD1999999+0061MW1021REMSYN100AAXX  18004 42111 21595 80000 10244 20234 39241 49983 70296 8578/ 333 58006 6035/ 83710 83622 88458;
0231421110999992000081803004+30310+078020FM-12+068299999V0209999C00001036001CN0020001N1+02601+02461099961ADDAA100035192AA224035092GA1031+009009069GF106991031051008001071001KA1120M+02931KA2120N+02391MA1999999092551MD1999999+0061REMSYN100AAXX  18034 42111 22595 60000 10260 20246 39255 49996 83570 333 10293 20239 58006 6035/ 83630 85358;
0204421110999992000081806004+30310+078020FM-12+068299999V0201401N00101004201CN0020001N1+02701+02511100091ADDAA199000021AY121061AY221061GA1031+003009079GF108991061071004501021999MA1999999092701MD1999999+0171MW1051REMSYN088AAXX  18064 42111 31495 81402 10270 20251 39270 40009 70522 8672/ 333 58017 83710 85620;
0193421110999992000081818004+30310+078020FM-12+068299999V0202301N00101036001CN0040001N1+02401+02291100301ADDAA100004192AA215004092GA1041+007509069GF106991041051008001071001MA1999999092821MD1999999+0421REMSYN088AAXX  18184 42111 22596 62302 10240 20229 39282 40030 84570 333 58042 6004/ 84625 85458;
0193421110999992000081821004+30310+078020FM-12+068299999V0201401N00051036001CN0040001N1+02361+02301100251ADDAA100004192AA218004092GA1041+007509069GF106991041051008001071001MA1999999092771MD1999999+0411REMSYN088AAXX  18214 42111 22596 61401 10236 20230 39277 40025 84570 333 58041 6004/ 84625 86458;
0259421110999992000081903004+30310+078020FM-12+068299999V0203201N000510078019N0040001N1+02501+02331100331ADDAA100004192AA224004092AY121031AY221031GA1051+007809069GF107991051051008001071001KA1120M+02821KA2120N+02301MA1999999092881MD1999999+0331MW1601REMSYN106AAXX  19034 42111 21596 73201 10250 20233 39288 40033 76022 85570 333 10282 20230 58033 6004/ 85626 86456;
0209421110999992000081906004+30310+078020FM-12+068299999V0209999C000010075019N0020001N1+99999+99999100401ADDAA100002091AA203002091GA1021+004509079GA2051+007509069GF108991999999004501999999MA1999999092961MD1999999+0261REMSYN088AAXX  19064 42111 21495 80000 1/2/8 2//// 39296 40040 333 58026 6002/ 82715 85625 87495;
0141421110999992000081909004+30310+078020FM-12+068299999V0203201N001010360019N0020001N1+02641+02331100231ADDAY161031AY221031GF108991041051008001021999MA1999999092831MW1601REMSYN066AAXX  19094 42111 21595 83202 10264 20233 39283 40023 76062 8452/;
0137421110999992000081915004+30310+078020FM-12+068299999V0209999C000010360019N0040001N1+02501+02361100111ADDGF105991021051012501051001MA1999999092671MD1999999-0081REMSYN070AAXX  19154 42111 22696 50000 10250 20236 39267 40011 82550 333 59008;
0193421110999992000081918004+30310+078020FM-12+068299999V0200501N00051036001CN0040001N1+02341+02161100261ADDAA100002091AA215002091GA1031+009609069GF107991031051012501051001MA1999999092781MD1999999-0041REMSYN088AAXX  19184 42111 22696 70501 10234 20216 39278 40026 83550 333 59004 6002/ 83632 86360;
0206421110999992000081921004+30310+078020FM-12+068299999V0209999C000010300019N0040001N1+02321+02171100191ADDAA100002091AA218002091GA1061+030009019GF107991041051012501071999MA1999999092731MD1999999-0041REMSYN082AAXX  19214 42111 22696 70000 10232 20217 39273 40019 84570 333 59004 6002/ 86460;EQDQ01+000002SCOHCG
0231421110999992000082003004+30310+078020FM-12+068299999V0209999C000010090019N0040001N1+02521+02351100341ADDAA100002091AA224002091GA1051+009009069GF108991051051008001021999KA1120M+02671KA2120N+02261MA1999999092861MD1999999-0021REMSYN100AAXX  20034 42111 22596 80000 10252 20235 39286 40034 8552/ 333 10267 20226 59002 6002/ 85630 88460;
0214421110999992000082012004+30310+078020FM-12+068299999V0202301N00101012001CN0040001N1+02841+02541099881ADDAA199000091GA1041+007809069GF107991051081008001071001KA1120M+03011MA1999999092541MD1999999-0091REMSYN088AAXX  20124 42111 32596 72302 10284 20254 39254 49988 85870 333 10301 59009 84626 86456;EQDQ01  00002PRCP99
0217421110999992000082015004+30310+078020FM-12+068299999V0209999C00001015001CN0040001N1+02521+02291100051ADDAA199000091AY121031AY221031GA1041+009609059GF105991051081012501001001MA1999999092641MD1999999-0031MW1051REMSYN082AAXX  20154 42111 31696 50000 10252 20229 39264 40005 70522 85800 333 59003 84632;EQDQ01  00002PRCP99
0223421110999992000082018004+30310+078020FM-12+068299999V0209999C000010090019N0020001N1+02481+02311100121ADDAA199000091AY121061AY221061GA1051+009009069GF108991051051012501021999MA1999999092681MD1999999-0101MW1051REMSYN088AAXX  20184 42111 31695 80000 10248 20231 39268 40012 70522 8552/ 333 59010 85630 87458;EQDQ01  00002PRCP99
0223421110999992000082021004+30310+078020FM-12+068299999V0209999C000010090019N0020001N1+02481+02311100091ADDAA199000091AY121031AY221031GA1061+009009069GF108991061051012501021999MA1999999092651MD1999999-0081MW1051REMSYN088AAXX  20214 42111 32695 80000 10248 20231 39265 40009 70522 8652/ 333 59008 86630 87458;EQDQ01  00002PRCP99
0223421110999992000082100004+30310+078020FM-12+068299999V0209999C000010090019N0020001N1+02481+02311100041ADDAA199000091AY121061AY221061GA1061+009009069GF108991061051012501021999MA1999999092601MD1999999-0101MW1051REMSYN088AAXX  21004 42111 32695 80000 10248 20231 39260 40004 70522 8652/ 333 59010 86630 87458;EQDQ01  00002PRCP99
0281421110999992000082103004+30310+078020FM-12+068299999V0200901N000510078019N0020001N1+02461+02321100121ADDAA100002091AA224002091AY161031AY221031GA1011+004509079GA2041+007809069GF108991061081004501071999KA1120M+03011KA2120N+02411MA1999999092681MD1999999-0181MW1601REMSYN112AAXX  21034 42111 21495 80901 10246 20232 39268 40012 76062 8687/ 333 10301 20241 59018 6002/ 81715 84626 88456;
0221421110999992000082106004+30310+078020FM-12+068299999V0203201N001012200019N0040001N1+02841+02391100021ADDAA100000791AA203999929AY161061AY221061GA1031+012009089GF104991031021012501031001MA1999999092681MD1999999-0211MW1021REMSYN094AAXX  21064 42111 21696 43202 10284 20239 39268 40002 70262 83230 333 59021 6990/ 83840 84360;
0193421110999992000082109004+30310+078020FM-12+068299999V0202301N00101036001CN0020001N1+03101+02401099721ADDAA100000791AA206999929GA1031+010509069GF106991041081012501031001MA1999999092451MD1999999-0211REMSYN088AAXX  21094 42111 22695 62302 10310 20240 39245 49972 84830 333 59021 6990/ 83635 85360;
0212421110999992000082112004+30310+078020FM-12+068299999V0200501N000510090019N0040001N1+02881+02431099681ADDAA100000791AA209999929GA1051+009009069GF108991051051008001021999KA1120M+03131MA1999999092361MD1999999-0181REMSYN094AAXX  21124 42111 22596 80501 10288 20243 39236 49968 8552/ 333 10313 59018 6990/ 85630 88458;
0243421110999992000082115004+30310+078020FM-12+068299999V0209999C000010078019N0020001N1+02501+02271099981ADDAA100008991AA212009091AY161031AY221031GA1051+007809069GA2011+012009099GF108991061091008001021999MA1999999092541MD1999999-0101MW1611REMSYN100AAXX  21154 42111 21595 80000 10250 20227 39254 49998 76162 8692/ 333 59010 6009/ 85626 81940 88456;
0221421110999992000082118004+30310+078020FM-12+068299999V0209999C000010360019N0020001N1+02461+02321100091ADDAA100017091AA215017091AY161061AY261061GA1021+009009069GF105991031091008001071999MA1999999092651MD1999999-0031MW1211REMSYN094AAXX  21184 42111 21595 50000 10246 20232 39265 40009 72166 8397/ 333 59003 6017/ 82630 81940;
0243421110999992000082121004+30310+078020FM-12+068299999V0200501N000510066019N0020001N1+02321+02261100061ADDAA100017091AA218017091AY161031AY221031GA1051+006609069GA2011+012009099GF108991061091008001021999MA1999999092601MD1999999-0051MW1601REMSYN100AAXX  21214 42111 21595 80501 10232 20226 39260 40006 76062 8692/ 333 59005 6017/ 85622 81940 88456;
0221421110999992000082200004+30310+078020FM-12+068299999V0209999C000010066019N0020001N1+02281+02221100171ADDAA100027991AA221028091AY161061AY261061GA1061+006609069GF108991061051008001021999MA1999999092681MD1999999+0081MW1211REMSYN094AAXX  22004 42111 21595 80000 10228 20222 39268 40017 72166 8652/ 333 58008 6028/ 86622 88458;
0221421110999992000082206004+30310+078020FM-12+068299999V0200501N00051012001CN0020001N1+02381+02241100431ADDAA100005192AA203005092AY161061AY261061GA1041+009609069GF107991051081008001071001MA1999999092941MD1999999+0261MW1611REMSYN094AAXX  22064 42111 21595 70501 10238 20224 39294 40043 76166 85870 333 58026 6005/ 84632 86458;
0243421110999992000082209004+30310+078020FM-12+068299999V0200501N001010075019N0020001N1+02421+02331100341ADDAA100014091AA206014091AY161031AY261031GA1031+004509079GA2051+007509069GF108991061071004501021999MA1999999092891MD1999999-0441MW1611REMSYN100AAXX  22094 42111 21495 80502 10242 20233 39289 40034 76166 8672/ 333 59044 6014/ 83715 85625 87456;
0262421110999992000082212004+30310+078020FM-12+068299999V0209999C000010300019N0040001N1+02581+02471100001ADDAA100015091AA209015091AY161061AY221061GA1031+009609069GA2051+030009039GF107991031051012501051021KA1120M+02591MA1999999092591MD1999999+0231MW1021REMSYN106AAXX  22124 42111 21696 70000 10258 20247 39259 40000 70262 83552 333 10259 58023 6015/ 83632 85360 86075;
0221421110999992000082215004+30310+078020FM-12+068299999V0201401N00051036001CN0020001N1+02421+02311100191ADDAA100015091AA212015091AY121031AY221031GA1031+007509069GF106991031051008001071001MA1999999092741MD1999999+0201MW1051REMSYN094AAXX  22154 42111 21595 61401 10242 20231 39274 40019 70522 83570 333 58020 6015/ 83625 85360;
0193421110999992000082218004+30310+078020FM-12+068299999V0201401N00051036001CN0040001N1+02301+02211100431ADDAA100015091AA215015091GA1041+007509069GF107991041051008001071001MA1999999092911MD1999999+0261REMSYN088AAXX  22184 42111 22596 71401 10230 20221 39291 40043 84570 333 58026 6015/ 84625 86458;
0193421110999992000082221004+30310+078020FM-12+068299999V0201401N00101036001CN0040001N1+02281+02221100361ADDAA100015091AA218015091GA1031+007509069GF106991031051008001071001MA1999999092851MD1999999+0251REMSYN088AAXX  22214 42111 22596 61402 10228 20222 39285 40036 83570 333 58025 6015/ 83625 86458;
0193421110999992000082300004+30310+078020FM-12+068299999V0201401N00051036001CN0040001N1+02261+02201100331ADDAA100015091AA221015091GA1041+007509069GF107991041051008001071001MA1999999092821MD1999999+0141REMSYN088AAXX  23004 42111 22596 71401 10226 20220 39282 40033 84570 333 58014 6015/ 84625 86458;
0291421110999992000082303004+30310+078020FM-12+068299999V0209999C000010096019N0020001N1+02461+02321100391ADDAA100015092AA224014892AY161031AY221031GA1051+009609069GA2071+030009049GF107991051051012501021001KA1120M+02591KA2120N+02241MA1999999092921MD1999999+0101MW1051REMSYN122AAXX  23034 42111 21695 70000 10246 20232 39292 40039 70562 85520 333 10259 20224 58010 6015/ 85632 87460 555 00148 11556;
0223421110999992000082306004+30310+078020FM-12+068299999V0202701N00051015001CN0040001N1+02781+02331100371ADDAA199000091AY161061AY221061GA1041+009609069GF108991051081012501021999MA1999999092981MD1999999+0041MW1021REMSYN088AAXX  23064 42111 31696 82701 10278 20233 39298 40037 70262 8582/ 333 58004 84632 87460;EQDQ01  00002PRCP99
0195421110999992000082309004+30310+078020FM-12+068299999V0209999C000010078019N0040001N1+02821+02431100241ADDAA199000091GA1051+007809069GF107991061081008001071001MA1999999092891MD1999999+0001REMSYN082AAXX  23094 42111 32596 70000 10282 20243 39289 40024 86870 333 58000 85626 86458;EQDQ01  00002PRCP99
0240421110999992000082312004+30310+078020FM-12+068299999V0209999C00001015001CN0040001N1+02481+02371100171ADDAA100050091AA209050091AY191061AY261061GA1041+010509069GF107991051081012501021001KA1120M+02851MA1999999092721MD1999999+0131MW1211REMSYN100AAXX  23124 42111 21696 70000 10248 20237 39272 40017 72196 85820 333 10285 58013 6050/ 84635 86460;
0192421110999992000082315004+30310+078020FM-12+068299999V0209999C000012200019N0100001N1+02381+02291100251ADDAA100050091AY191031AY261031GA1001+999999999GF100991001001999999001001MA1999999092771MD1999999+0031MW1021REMSYN076AAXX  23154 42111 21997 00000 10238 20229 39277 40025 70296 333 58003 6050/;
0192421110999992000082318004+30310+078020FM-12+068299999V0209999C000012200019N0100001N1+02221+02161100301ADDAA100050091AY191061AY261061GA1001+999999999GF100991001001999999001001MA1999999092791MD1999999-0121MW1021REMSYN076AAXX  23184 42111 21997 00000 10222 20216 39279 40030 70296 333 59012 6050/;
0187421110999992000082321004+30310+078020FM-12+068299999V0200501N000512200019N0040001N1+02161+02131100311ADDAA100050091AA218050091GA1011+009609059GF101991011051008001001001MA1999999092781MD1999999-0071REMSYN082AAXX  23214 42111 22596 10501 10216 20213 39278 40031 81500 333 59007 6050/ 81632;
0187421110999992000082400004+30310+078020FM-12+068299999V0200501N000512200019N0040001N1+02121+02081100301ADDAA100050091AA221050091GA1011+009609059GF103991011051008001031001MA1999999092771MD1999999-0051REMSYN082AAXX  24004 42111 22596 30501 10212 20208 39277 40030 81530 333 59005 6050/ 81632;
0225421110999992000082403004+30310+078020FM-12+068299999V0209999C000012200019N0040001N1+02581+02271100241ADDAA100050091AA224050091GA1011+011409029GF101991011011012501001001KA1120M+02851KA2120N+02091MA1999999092811MD1999999-0111REMSYN094AAXX  24034 42111 22696 10000 10258 20227 39281 40024 81100 333 10285 20209 59011 6050/ 81838;
0195421110999992000082406004+30310+078020FM-12+068299999V0203201N00051015001CN0040001N1+02881+02431100151ADDAA199000091GA1011+010509069GF105991051081012501001001MA1999999092801MD1999999-0181REMSYN082AAXX  24064 42111 32696 53201 10288 20243 39280 40015 85800 333 59018 81635 85840;EQDQ01  00002PRCP99
0187421110999992000082421004+30310+078020FM-12+068299999V0209999C000012200019N0040001N1+02381+02241100231ADDAA100000892AA218000792GA1011+009609059GF101991011051012501001001MA1999999092751MD1999999-0031REMSYN082AAXX  24214 42111 22696 10000 10238 20224 39275 40023 81500 333 59003 6997/ 81632;
0215421110999992000082500004+30310+078020FM-12+068299999V0209999C000012200019N0020001N1+02341+02221100201ADDAA100000892AA221000792AY101061AY201061GA1011+009609059GF102991021081012501001001MA1999999092721MD1999999-0051MW1051REMSYN088AAXX  25004 42111 21695 20000 10234 20222 39272 40020 70500 82800 333 59005 6997/ 81632;
0259421110999992000082503004+30310+078020FM-12+068299999V0200901N00051036001CN0020001N1+02581+02441100361ADDAA100000892AA224000792AY121031AY211031GA1021+008409069GF106991031081008001071001KA1120M+03311KA2120N+02301MA1999999092921MD1999999+0111MW1051REMSYN106AAXX  25034 42111 21595 60901 10258 20244 39292 40036 70521 83870 333 10331 20230 58011 6997/ 82628 85360;
0217421110999992000082506004+30310+078020FM-12+068299999V0201401N001010114019N0040001N1+03001+02531100341ADDAA199000091GA1021+007509069GA2031+011409089GF107991051081008001071001MA1999999093001MD1999999+0201REMSYN088AAXX  25064 42111 32596 71402 10300 20253 39300 40034 85870 333 58020 82625 83838 85360;EQDQ01  00002PRCP99
0217421110999992000082509004+30310+078020FM-12+068299999V0201401N000510114019N0040001N1+03041+02581100081ADDAA199000091GA1021+007509069GA2031+011409089GF107991051081008001071001MA1999999092781MD1999999+0161REMSYN088AAXX  25094 42111 32596 71401 10304 20258 39278 40008 85870 333 58016 82625 83838 85360;EQDQ01  00002PRCP99
0221421110999992000082515004+30310+078020FM-12+068299999V0202301N000510075019N0020001N1+02561+02391100271ADDAA100000791AA212999929AY121031AY221031GA1051+007509069GF108991051051008001021999MA1999999092841MD1999999+0221MW1601REMSYN094AAXX  25154 42111 21595 82301 10256 20239 39284 40027 76022 8552/ 333 58022 6990/ 85625 88458;
0243421110999992000082518004+30310+078020FM-12+068299999V0209999C000010075019N0020001N1+02481+02341100321ADDAA100001091AA215001091AY161061AY221061GA1021+003009079GA2051+007509069GF108991061071004501021999MA1999999092871MD1999999+0121MW1021REMSYN100AAXX  25184 42111 21495 80000 10248 20234 39287 40032 70262 8672/ 333 58012 6001/ 82710 85625 88458;
0215421110999992000082600004+30310+078020FM-12+068299999V0203601N000510120019N0040001N1+02441+02331100321ADDAA100001091AA221001091GA1031+007509069GA2031+012009089GF108991051081008001021999MA1999999092871MD1999999+0151REMSYN094AAXX  26004 42111 22596 83601 10244 20233 39287 40032 8582/ 333 58015 6001/ 83625 83840 88456;
0231421110999992000082603004+30310+078020FM-12+068299999V0200501N000510075019N0040001N1+02501+02331100551ADDAA100001091AA224001091GA1051+007509069GF108991051051008001021999KA1120M+03051KA2120N+02421MA1999999093081MD1999999+0161REMSYN100AAXX  26034 42111 22596 80501 10250 20233 39308 40055 8552/ 333 10305 20242 58016 6001/ 85625 86456;
0223421110999992000082609004+30310+078020FM-12+068299999V0209999C00001015001CN0020001N1+02841+02361100261ADDAA199000091AY121031AY221031GA1041+009609069GF108991051081012501021999MA1999999092901MD1999999+0351MW1051REMSYN088AAXX  26094 42111 31695 80000 10284 20236 39290 40026 70522 8582/ 333 58035 84632 87460;EQDQ01  00002PRCP99
0221421110999992000082700004+30310+078020FM-12+068299999V0200501N000510075019N0040001N1+02421+02281100201ADDAA100001091AA221001091AY161061AY221061GA1051+007509069GF108991051051008001021999MA1999999092751MD1999999-0121MW1021REMSYN094AAXX  27004 42111 21596 80501 10242 20228 39275 40020 70262 8552/ 333 59012 6001/ 85625 88456;
0240421110999992000082703004+30310+078020FM-12+068299999V0200501N000510090019N0020001N1+02481+02311100321ADDAA100001091AA224001091AY161031AY221031GA1051+009009069GF108991051051008001021999KA1120N+02401MA1999999092871MD1999999-0211MW1601REMSYN100AAXX  27034 42111 21595 80501 10248 20231 39287 40032 76062 8552/ 333 20240 59021 6001/ 85630 87458;
0221421110999992000082706004+30310+078020FM-12+068299999V0200501N00101012001CN0020001N1+02801+02321100171ADDAA100000592AA203000492AY161061AY221061GA1041+009609069GF107991051051012501021001MA1999999092801MD1999999-0291MW1051REMSYN094AAXX  27064 42111 21695 70502 10280 20232 39280 40017 70562 85520 333 59029 6994/ 84632 85460;
0221421110999992000082709004+30310+078020FM-12+068299999V0202301N000510060019N0020001N1+02701+02511100011ADDAA100005192AA206005092AY161031AY221031GA1051+006009069GF108991061081008001021999MA1999999092621MD1999999-0131MW1601REMSYN094AAXX  27094 42111 21595 82301 10270 20251 39262 40001 76062 8682/ 333 59013 6005/ 85620 88456;
0240421110999992000082806004+30310+078020FM-12+068299999V0200901N000510060019N0020001N1+02821+02541100801ADDAA100000791AA203999999AY161061AY221061GA1051+006009069GF107991051051008001071001MA1999999092481MD1999999-0321MW1051REMSYN094AAXX  28064 42111 21595 70901 10282 20254 39248 40080 70562 85570 333 59032 6990/ 85620 86458;EQDQ01  99992PRCP03
0256421110999992000082809004+30310+078020FM-12+068299999V0201401N00051012001CN0040001N1+02841+02511099702ADDAA100000791AA206999999AY161031AY221031GA1041+007509069GF107991051081008001071001MA1999999092381MD1999999-0241MW1021REMSYN094AAXX  28094 42111 21596 71401 10284 20251 39238 49970 70262 85870 333 59024 6990/ 84625 86456;EQDQ01+099703APOSLPQ02  99992PRCP06
0243421110999992000082815004+30310+078020FM-12+068299999V0209999C000010075019N0020001N1+02561+02421099801ADDAA100007991AA212008091AY161031AY221031GA1041+004509079GA2051+007509069GF108991061071004501021999MA1999999092401MD1999999-0151MW1611REMSYN100AAXX  28154 42111 21495 80000 10256 20242 39240 49980 76162 8672/ 333 59015 6008/ 84715 85625 87456;
0281421110999992000082903004+30310+078020FM-12+068299999V0202301N000510075019N0020001N1+02441+02381099861ADDAA100061091AA224061091AY161031AY221031GA1031+004509079GA2051+007509069GF108991061071004501021999KA1120M+02861KA2120N+02371MA1999999092441MD1999999-0081MW1601REMSYN112AAXX  29034 42111 21495 82301 10244 20238 39244 49986 76062 8672/ 333 10286 20237 59008 6061/ 83715 85625 88456;
0221421110999992000082906004+30310+078020FM-12+068299999V0202301N001010001519N0002001N1+02401+02371099991ADDAA100004192AA203004092AY161061AY261061GA1051+000159079GF108991061071999999021999MA1999999092531MD1999999+0041MW1621REMSYN094AAXX  29064 42111 21992 82302 10240 20237 39253 49999 76266 8672/ 333 58004 6004/ 85700 88452;
0221421110999992000082909004+30310+078020FM-12+068299999V0201401N00051012001CN0040001N1+02601+02461099781ADDAA100022192AA206022092AY161031AY221031GA1041+007509069GF108991051081008001071001MA1999999092371MD1999999-0011MW1021REMSYN094AAXX  29094 42111 21596 81401 10260 20246 39237 49978 70262 85870 333 59001 6022/ 84625 87458;
0234421110999992000082912004+30310+078020FM-12+068299999V0202301N000510360019N0040001N1+02581+02441099571ADDAA100022192AA209022092AY161061AY221061GA1021+007509059GF105991031081008001031001KA1120M+02621MA1999999092191MD1999999-0041MW1021REMSYN094AAXX  29124 42111 21596 52301 10258 20244 39219 49957 70262 83830 333 10262 59004 6022/ 82625;
0193421110999992000082915004+30310+078020FM-12+068299999V0209999C00001036001CN0040001N1+02481+02371099651ADDAA100022192AA212022092GA1021+010509069GF107991021051012501071001MA1999999092251MD1999999-0151REMSYN088AAXX  29154 42111 22696 70000 10248 20237 39225 49965 82570 333 59015 6022/ 82635 86460;
0215421110999992000082918004+30310+078020FM-12+068299999V0201401N000510300019N0020001N1+02441+02331099751ADDAA100022192AA215022092AY121061AY221061GA1051+030009079GF106991061001999999071001MA1999999092331MD1999999-0151MW1051REMSYN088AAXX  29184 42111 21995 61401 10244 20233 39233 49975 70522 86070 333 59015 6022/ 85360;
0193421110999992000082921004+30310+078020FM-12+068299999V0209999C00001036001CN0020001N1+02401+02291099691ADDAA100022192AA218022092GA1031+009009059GF108991031051008001021999MA1999999092261MD1999999-0191REMSYN088AAXX  29214 42111 21595 80000 10240 20229 39226 49969 8352/ 333 59019 6022/ 83530 88460;
0215421110999992000083000004+30310+078020FM-12+068299999V0201401N00051036001CN0020001N1+02381+99999099771ADDAA100022192AA221022092AY151061AY221061GA1041+008409069GF108991041051008001071999MA1999999092241MD1999999-0121MW1501REMSYN088AAXX  30004 42111 21595 81401 10238 39224 49977 75052 8457/ 333 59012 6022/ 84628 88458;
0259421110999992000083003004+30310+078020FM-12+068299999V0200901N000510078019N0020001N1+02381+02361099801ADDAA100035192AA224035092AY161031AY251031GA1051+007809069GF108991051051008001021999KA1120M+02621KA2120N+02331MA1999999092351MD1999999-0091MW1611REMSYN106AAXX  30034 42111 21595 80901 10238 20236 39235 49980 76165 8552/ 333 10262 20233 59009 6035/ 85626 88456;
0243421110999992000083006004+30310+078020FM-12+068299999V0202301N000510114019N0040001N1+02701+02421099761ADDAA100000892AA203000792AY161061AY221061GA1031+007509069GA2041+011409089GF107991051081008001021001MA1999999092391MD1999999-0141MW1021REMSYN100AAXX  30064 42111 21596 72301 10270 20242 39239 49976 70262 85820 333 59014 6997/ 83625 84838 86458;
0221421110999992000083009004+30310+078020FM-12+068299999V0201401N000510096019N0020001N1+02801+02471099481ADDAA100000892AA206000792AY121031AY221031GA1051+009609069GF108991061081012501021999MA1999999092151MD1999999-0221MW1051REMSYN094AAXX  30094 42111 21695 81401 10280 20247 39215 49948 70522 8682/ 333 59022 6997/ 85632 87460;
0265421110999992000083106004+30310+078020FM-12+068299999V0201401N001010075019N0020001N1+02361+02271099811ADDAA100000592AA203000492AY191061AY261061GA1031+003609079GA2061+007509069GA3011+009609099GF108991071091004501021999MA1999999092361MD1999999-0031MW1951REMSYN106AAXX  31064 42111 21495 81402 10236 20227 39236 49981 79596 8792/ 333 59003 6994/ 83712 86625 81932 88456;
0243421110999992000083109004+30310+078020FM-12+068299999V0203201N000510066019N0020001N1+02361+02221099771ADDAA100011991AA206012091AY191031AY261031GA1021+003009079GA2041+006609069GF108991061071004501021999MA1999999092341MD1999999+0191MW1611REMSYN100AAXX  31094 42111 21495 83201 10236 20222 39234 49977 76196 8672/ 333 58019 6012/ 82710 84622 88456;
0187421110999992000090100004+30310+078020FM-12+068299999V0200501N000510900019N0040001N1+02121+02091099811ADDAA100015091AA221015091GA1021+008409059GF105991021051008001031081MA1999999092311MD1999999+0211REMSYN082AAXX  01004 42111 22596 50501 10212 20209 39231 49981 82538 333 58021 6015/ 82628;
0231421110999992000090103004+30310+078020FM-12+068299999V0202301N00051036001CN0040001N1+02401+02261999999ADDAA106015091AA224015091GA1031+007509069GF106991041081008001031001KA1120M+02501KA2120N+02111MA1999999092551MD1999999+0271REMSYN100AAXX  01034 42111 22596 62301 10240 20226 39255 60001 84830 333 10250 20211 58027 60151 83625 85360;
0195421110999992000090106004+30310+078020FM-12+068299999V0203201N00101036001CN0040001N1+02721+02351099811ADDAA199000091GA1021+012009089GF105991021011012501031001MA1999999092471MD1999999+0111REMSYN082AAXX  01064 42111 32696 53202 10272 20235 39247 49981 82130 333 58011 82840 84360;EQDQ01  00002PRCP99
0195421110999992000090109004+30310+078020FM-12+068299999V0202301N00101015001CN0040001N1+03001+02341099631ADDAA199000091GA1021+010509069GF105991051081012501001001MA1999999092341MD1999999+0001REMSYN082AAXX  01094 42111 32696 52302 10300 20234 39234 49963 85800 333 58000 82635 84840;EQDQ01  00002PRCP99
0208421110999992000090112004+30310+078020FM-12+068299999V0202301N00101012001CN0040001N1+02861+02351099551ADDAA199000091GA1041+008409059GF106991051081008001031001KA1120M+03061MA1999999092251MD1999999+0061REMSYN082AAXX  01124 42111 32596 62302 10286 20235 39225 49955 85830 333 10306 58006 84628;EQDQ01  00002PRCP99
0189421110999992000090200004+30310+078020FM-12+068299999V0209999C000012200019N0040001N1+02201+02051099881ADDAA199000091GA1011+090009019GF101991001001999999001011MA1999999092381MD1999999+0071REMSYN076AAXX  02004 42111 32996 10000 10220 20205 39238 49988 80001 333 58007 81080;EQDQ01  00002PRCP99
0215421110999992000090203004+30310+078020FM-12+068299999V0209999C000012200019N0040001N1+02481+02161099891ADDAA199000091GA1001+999999999GF100991001001999999001001KA1120M+03061KA2120N+02161MA1999999092471MD1999999-0081REMSYN076AAXX  02034 42111 32996 00000 10248 20216 39247 49989 333 10306 20216 59008;EQDQ01  00002PRCP99
0231421110999992000090303004+30310+078020FM-12+068299999V0203201N000512200019N0040001N1+02541+02311100001ADDAA100018091AA224018091GA1011+009009069GF104991011051008001031001KA1120M+03161KA2120N+02301MA1999999092501MD1999999+0031REMSYN100AAXX  03034 42111 22596 43201 10254 20231 39250 40000 81530 333 10316 20230 58003 6018/ 81630 83360;
0164421110999992000090315004+30310+078020FM-12+068299999V0200501N000512200019N0100001N1+02381+02271100131ADDAA100007991GA1001+999999999GF100991001001999999001001MA1999999092671MD1999999+0281REMSYN070AAXX  03154 42111 22997 00501 10238 20227 39267 40013 333 58028 6008/;
0164421110999992000090318004+30310+078020FM-12+068299999V0200501N001012200019N0100001N1+02241+02181100251ADDAA100007991GA1001+999999999GF100991001001999999001001MA1999999092741MD1999999+0201REMSYN070AAXX  03184 42111 22997 00502 10224 20218 39274 40025 333 58020 6008/;
0164421110999992000090321004+30310+078020FM-12+068299999V0200501N000512200019N0100001N1+02221+02161100211ADDAA100007991GA1001+999999999GF100991001001999999001001MA1999999092701MD1999999+0221REMSYN070AAXX  03214 42111 22997 00501 10222 20216 39270 40021 333 58022 6008/;
0164421110999992000090400004+30310+078020FM-12+068299999V0200501N000512200019N0100001N1+02181+02091100241ADDAA100007991GA1001+999999999GF100991001001999999001001MA1999999092701MD1999999+0211REMSYN070AAXX  04004 42111 22997 00501 10218 20209 39270 40024 333 58021 6008/;
0189421110999992000090406004+30310+078020FM-12+068299999V0200501N001012200019N0040001N1+03081+02351100171ADDAA199000091GA1021+012009029GF102991021021012501001001MA1999999092871MD1999999+0191REMSYN076AAXX  04064 42111 32696 20502 10308 20235 39287 40017 82200 333 58019 82840;EQDQ01  00002PRCP99
0195421110999992000090409004+30310+078020FM-12+068299999V0202301N000510360019N0040001N1+03101+02341099971ADDAA199000091GA1021+009009069GF106991041081008001031001MA1999999092691MD1999999+0101REMSYN082AAXX  04094 42111 32596 62301 10310 20234 39269 49997 84830 333 58010 82630 83840;EQDQ01  00002PRCP99
0203421110999992000090412004+30310+078020FM-12+068299999V0203201N00101012001CN0040001N1+03001+02451099871ADDAA199000091GA1021+008409069GA2031+012009089GF106991041081008001071001MA1999999092561REMSYN088AAXX  04124 42111 32596 63202 10300 20245 39256 49987 84870 333 10/// 82628 83840 85360;EQDQ01  00002PRCP99
0221421110999992000090500004+30310+078020FM-12+068299999V0201401N000510075019N0040001N1+02281+02221100661ADDAA100097091AA221097091AY191061AY261061GA1061+007509069GF108991061051008001021999MA1999999092751MD1999999+0041MW1021REMSYN094AAXX  05004 42111 21596 81401 10228 20222 39275 40066 70296 8652/ 333 58004 6097/ 86625 88456;
0224421110999992000090506004+30310+078020FM-12+068299999V0201401N001010300019N0020001N1+02761+02511100181ADDAA199000091AY161061AY221061GA1021+009609069GA2041+030009039GF107991031081008001071011MD1999999-0061MW1051REMSYN088AAXX  05064 42111 31595 71402 10276 20251 40018 70562 83871 333 59006 82632 84360 86070;EQDQ01  00002PRCP99
0243421110999992000090515004+30310+078020FM-12+068299999V0200901N000510075019N0020001N1+02441+02351100051ADDAA100039192AA212039092AY161031AY221031GA1031+004509079GA2051+007509069GF108991061071004501021999MA1999999092611MD1999999-0121MW1601REMSYN100AAXX  05154 42111 21495 80901 10244 20235 39261 40005 76062 8672/ 333 59012 6039/ 83715 85625 87456;
0265421110999992000090518004+30310+078020FM-12+068299999V0200501N000510075019N0020001N1+02381+02321100371ADDAA100075991AA215076091AY191061AY261061GA1031+004509079GA2051+007509069GA3021+009009099GF108991061091004501021999MA1999999092701MD1999999-0151MW1951REMSYN106AAXX  05184 42111 21495 80501 10238 20232 39270 40037 79596 8692/ 333 59015 6076/ 83715 85625 82930 87456;
0265421110999992000090521004+30310+078020FM-12+068299999V0209999C000010075019N0020001N1+02361+02301100131ADDAA100090991AA218091091AY191031AY261031GA1031+004509079GA2051+007509069GA3021+009009099GF108991061091004501021999MA1999999092671MD1999999-0051MW1951REMSYN106AAXX  05214 42111 21495 80000 10236 20230 39267 40013 79596 8692/ 333 59005 6091/ 83715 85625 82930 87456;
0243421110999992000090600004+30310+078020FM-12+068299999V0209999C000010075019N0020001N1+02341+02281100071ADDAA100091991AA221092091AY191061AY261061GA1031+004509079GA2051+007509069GF108991061071004501021999MA1999999092611MD1999999-0141MW1291REMSYN100AAXX  06004 42111 21495 80000 10234 20228 39261 40007 72996 8672/ 333 59014 6092/ 83715 85625 87456;
0281421110999992000090603004+30310+078020FM-12+068299999V0201401N000510075019N0020001N1+02401+02341100151ADDAA100091991AA224092091AY121031AY221031GA1021+004509079GA2041+007509069GF108991061071004501021999KA1120M+02811KA2120N+02301MA1999999092691MD1999999-0131MW1051REMSYN112AAXX  06034 42111 21495 81401 10240 20234 39269 40015 70522 8672/ 333 10281 20230 59013 6092/ 82715 84625 87456;
0221421110999992000090606004+30310+078020FM-12+068299999V0201401N000510060019N0020001N1+02381+02271100241ADDAA100000592AA203000492AY151061AY221061GA1051+006009069GF108991051051008001021999MA1999999092761MD1999999-0041MW1601REMSYN094AAXX  06064 42111 21595 81401 10238 20227 39276 40024 76052 8552/ 333 59004 6994/ 85620 88454;
0221421110999992000090609004+30310+078020FM-12+068299999V0209999C000010066019N0040001N1+02441+02301099891ADDAA100000892AA206000792AY161031AY221031GA1051+006609069GF108991051051008001021999MA1999999092471MD1999999-0151MW1021REMSYN094AAXX  06094 42111 21596 80000 10244 20230 39247 49989 70262 8552/ 333 59015 6997/ 85622 88455;
0240421110999992000090612004+30310+078020FM-12+068299999V0203201N000510075019N0040001N1+02521+02351099841ADDAA100000892AA209000792AY161061AY221061GA1051+007509069GF108991051051008001021999KA1120M+02521MA1999999092441MD1999999-0091MW1021REMSYN100AAXX  06124 42111 21596 83201 10252 20235 39244 49984 70262 8552/ 333 10252 59009 6997/ 85625 88456;
0259421110999992000090703004+30310+078020FM-12+068299999V0203201N00051036001CN0040001N1+02421+02331100191ADDAA100046091AA224046091AY161031AY221031GA1041+008409069GF106991041051008001071001KA1120M+02521KA2120N+02191MA1999999092741MD1999999+0051MW1021REMSYN106AAXX  07034 42111 21596 63201 10242 20233 39274 40019 70262 84570 333 10252 20219 58005 6046/ 84628 85356;
0262421110999992000090712004+30310+078020FM-12+068299999V0203201N000510114019N0040001N1+02521+02441100031ADDAA100021192AA209021092AY191061AY261061GA1031+007809069GA2021+011409089GF106991051081008001071001KA1120M+02801MA1999999092541MD1999999+0101MW1021REMSYN106AAXX  07124 42111 21596 63201 10252 20244 39254 40003 70296 85870 333 10280 58010 6021/ 83626 82838 85456;
0243421110999992000090800004+30310+078020FM-12+068299999V0209999C000010069019N0020001N1+02321+02261100261ADDAA100021192AA221021092AY121061AY221061GA1021+004509079GA2041+006909069GF108991061071004501021999MA1999999092781MD1999999+0161MW1051REMSYN100AAXX  08004 42111 21495 80000 10232 20226 39278 40026 70522 8672/ 333 58016 6021/ 82715 84623 88456;
0259421110999992000090803004+30310+078020FM-12+068299999V0201401N00051036001CN0020001N1+02461+02321100311ADDAA100021192AA224021092AY121031AY221031GA1031+008409069GF106991041081008001071001KA1120M+02801KA2120N+02291MA1999999092861MD1999999+0121MW1051REMSYN106AAXX  08034 42111 21595 61401 10246 20232 39286 40031 70522 84870 333 10280 20229 58012 6021/ 83628 85458;
0217421110999992000090806004+30310+078020FM-12+068299999V0202301N00101011401CN0040001N1+02841+02301100301ADDAA199000091GA1021+007509069GA2031+011409089GF106991041081008001071001MA1999999092931MD1999999+0171REMSYN088AAXX  08064 42111 32596 62302 10284 20230 39293 40030 84870 333 58017 82625 83838 85458;EQDQ01  00002PRCP99
0195421110999992000090809004+30310+078020FM-12+068299999V0200501N00101036001CN0040001N1+02921+02301100041ADDAA199000091GA1021+008409069GF106991031081008001071001MA1999999092721MD1999999+0121REMSYN082AAXX  08094 42111 32596 60502 10292 20230 39272 40004 83870 333 58012 82628 85458;EQDQ01  00002PRCP99
0177421110999992000090815004+30310+078020FM-12+068299999V0200501N000512200019N0040001N1+02361+02131100351ADDAA199000091GA1001+999999999GF100991001001999999001001MA1999999092871MD1999999+0121REMSYN064AAXX  08154 42111 32996 00501 10236 20213 39287 40035 333 58012;EQDQ01  00002PRCP99
0189421110999992000090818004+30310+078020FM-12+068299999V0200501N000512200019N0040001N1+02241+02001100471ADDAA199000091GA1011+030009079GF101991011001999999031001MA1999999092951MD1999999+0121REMSYN076AAXX  08184 42111 32996 10501 10224 20200 39295 40047 81030 333 58012 81360;EQDQ01  00002PRCP99
0189421110999992000090821004+30310+078020FM-12+068299999V0200501N000512200019N0040001N1+02201+02021100211ADDAA199000091GA1031+030009079GF103991031001999999031001MA1999999092781MD1999999-0011REMSYN076AAXX  08214 42111 32996 30501 10220 20202 39278 40021 83030 333 59001 83360;EQDQ01  00002PRCP99
0195421110999992000090900004+30310+078020FM-12+068299999V0200501N000519999999N0040001N1+02181+02001100331ADDAA199000091GA1021+009009069GF105991021051999999031001MA1999999092801MD1999999+0021REMSYN082AAXX  09004 42111 32996 50501 10218 20200 39280 40033 82530 333 58002 82630 83358;EQDQ01  00002PRCP99
0233421110999992000090903004+30310+078020FM-12+068299999V0209999C00001036001CN0040001N1+02401+02141100371ADDAA199000091GA1021+009009069GF105991021051008001031001KA1120M+02991KA2120N+02191MA1999999092891MD1999999+0031REMSYN094AAXX  09034 42111 32596 50000 10240 20214 39289 40037 82530 333 10299 20219 58003 82630 85360;EQDQ01  00002PRCP99
0177421110999992000090915004+30310+078020FM-12+068299999V0209999C000012200019N0040001N1+02501+02211100201ADDAA199000091GA1001+999999999GF100991001001999999001001MA1999999092751MD1999999-0121REMSYN064AAXX  09154 42111 32996 00000 10250 20221 39275 40020 333 59012;EQDQ01  00002PRCP99
0177421110999992000091000004+30310+078020FM-12+068299999V0209999C000012200019N0040001N1+02041+01921100191ADDAA199000091GA1001+999999999GF100991001001999999001001MA1999999092651MD1999999-0151REMSYN064AAXX  10004 42111 32996 00000 10204 20192 39265 40019 333 59015;EQDQ01  00002PRCP99
0233421110999992000091003004+30310+078020FM-12+068299999V0201401N000512200019N0040001N1+02321+02141100251ADDAA199000091GA1021+009009069GF103991021051012501031001KA1120M+03051KA2120N+01981MA1999999092751MD1999999-0141REMSYN094AAXX  10034 42111 32696 31401 10232 20214 39275 40025 82530 333 10305 20198 59014 82630 83360;EQDQ01  00002PRCP99
0233421110999992000091206004+30310+078020FM-12+068299999V0202701N001012200019N0020001N1+02941+02031100271ADDAA199000091AY101061AY201061GA1021+012009029GF199999021021012501001001MA1999999092931MD1999999+0191MW1051REMSYN082AAXX  12064 42111 31695 12702 10294 20203 39293 40027 70500 82200 333 58019 82840;EQDQ01+000012SCOTCVQ02  00002PRCP99
0208421110999992000091303004+30310+078020FM-12+068299999V0209999C000012200019N0040001N1+02531+02051100521ADDAA199000091GA1011+012009029GF101991011011012501001001KA1120N+02101MA1999999093081MD1999999+0221REMSYN082AAXX  13034 42111 32696 10000 10253 20205 39308 40052 81100 333 20210 58022 81840;EQDQ01  00002PRCP99
0195421110999992000091309004+30310+078020FM-12+068299999V0203201N001012200019N0040001N1+03201+02141100251ADDAA199000091GA1031+012009089GF104991031021012501031001MA1999999092961MD1999999+0121REMSYN082AAXX  13094 42111 32696 43202 10320 20214 39296 40025 83230 333 58012 83840 84360;EQDQ01  00002PRCP99
0264421110999992000091312004+30310+078020FM-12+068299999V0203201N000510114019N0040001N1+02981+02271100201ADDAA199000091AY121061AY211061GA1031+008409069GA2031+011409089GF107991051081008001071001KA1120M+03271MA1999999092881MD1999999+0181MW1291REMSYN100AAXX  13124 42111 31596 73201 10298 20227 39288 40020 72921 85870 333 10327 58018 83628 83838 85358;EQDQ01  00002PRCP99
0212421110999992000091321004+30310+078020FM-12+068299999V0209999C00001036001CN0040001N1+02421+02191100461ADDAA100000791AA218999999GA1041+010509069GF106991041051012501071001MA1999999092991MD1999999+0021REMSYN088AAXX  13214 42111 22696 60000 10242 20219 39299 40046 84570 333 58002 6990/ 84635 85460;EQDQ01  99992PRCP18
0206421110999992000091400004+30310+078020FM-12+068299999V0200501N000512200019N0040001N1+02321+02081100471ADDAA100000791AA221999999GA1011+010509059GF102991021081012501001001MA1999999092981MD1999999+0041REMSYN082AAXX  14004 42111 22696 20501 10232 20208 39298 40047 82800 333 58004 6990/ 81635;EQDQ01  99992PRCP21
0250421110999992000091403004+30310+078020FM-12+068299999V0209999C00001015001CN0040001N1+02601+02261100601ADDAA100000791AA224999999GA1021+009009069GF105991051081012501001001KA1120M+03271KA2120N+02271MA1999999093141MD1999999+0061REMSYN100AAXX  14034 42111 22696 50000 10260 20226 39314 40060 85800 333 10327 20227 58006 6990/ 82630 83840;EQDQ01  99992PRCP24
0189421110999992000091406004+30310+078020FM-12+068299999V0202301N001012200019N0040001N1+03161+02321100491ADDAA199000091GA1031+012009029GF103991031021012501001001MA1999999093181MD1999999+0071REMSYN076AAXX  14064 42111 32696 32302 10316 20232 39318 40049 83200 333 58007 83840;EQDQ01  00002PRCP99
0240421110999992000091412004+30310+078020FM-12+068299999V0200501N001012200019N0040001N1+02841+02241100141ADDAA100001091AA209001091AY191061AY261061GA1021+010509069GF104991031081012501031001KA1120M+03351MA1999999092791MD1999999-0091MW1291REMSYN100AAXX  14124 42111 21696 40502 10284 20224 39279 40014 72996 83830 333 10335 59009 6001/ 82635 83840;
0193421110999992000091418004+30310+078020FM-12+068299999V0200501N00051036001CN0040001N1+02461+02351100391ADDAA100001091AA215001091GA1011+010509069GF105991011051012501071001MA1999999092921MD1999999-0121REMSYN088AAXX  14184 42111 22696 50501 10246 20235 39292 40039 81570 333 59012 6001/ 81635 84360;
0215421110999992000091421004+30310+078020FM-12+068299999V0200501N000512200019N0020001N1+02361+02061100351ADDAA100001091AA218001091AY111031AY211031GA1021+030009079GF102991021001999999031001MA1999999092871MD1999999-0121MW1051REMSYN088AAXX  14214 42111 21995 20501 10236 20206 39287 40035 70511 82030 333 59012 6001/ 82360;
0193421110999992000091500004+30310+078020FM-12+068299999V0200501N00051036001CN0040001N1+02221+02101100411ADDAA100001091AA221001091GA1021+010509069GF105991021051012501031001MA1999999092901MD1999999-0081REMSYN088AAXX  15004 42111 22696 50501 10222 20210 39290 40041 82530 333 59008 6001/ 82635 85360;
0259421110999992000091503004+30310+078020FM-12+068299999V0209999C000012200019N0020001N1+02601+02321100481ADDAA100001091AA224001091AY121031AY211031GA1011+009009069GF103991031081012501001001KA1120M+03351KA2120N+02251MA1999999093041MD1999999-0101MW1051REMSYN106AAXX  15034 42111 21695 30000 10260 20232 39304 40048 70521 83800 333 10335 20225 59010 6001/ 81630 83840;
0221421110999992000091509004+30310+078020FM-12+068299999V0200501N00051036001CN0020001N1+02501+02241100491ADDAA100005192AA206005092AY191031AY261031GA1031+009609069GF106991041081012501071001MA1999999093021MD1999999+0091MW1051REMSYN094AAXX  15094 42111 21695 60501 10250 20224 39302 40049 70596 84870 333 58009 6005/ 83632 85458;
0234421110999992000091512004+30310+078020FM-12+068299999V0202301N000512200019N0040001N1+02941+02381100131ADDAA100005192AA209005092AY191061AY261061GA1011+012009029GF102991011011012501001011KA1120M+03051MA1999999092811MD1999999+0021MW1011REMSYN094AAXX  15124 42111 21696 22301 10294 20238 39281 40013 70196 81101 333 10305 58002 6005/ 81840;
0193421110999992000091515004+30310+078020FM-12+068299999V0200501N000512200019N0040001N1+02501+02301100391ADDAA100005192AA212005092GA1011+010509069GF103991011051012501031001MA1999999092921MD1999999+0061REMSYN088AAXX  15154 42111 22696 30501 10250 20230 39292 40039 81530 333 58006 6005/ 81635 83360;
0265421110999992000091518004+30310+078020FM-12+068299999V0203201N000510114019N0040001N1+02441+02211100451ADDAA100005192AA215005092AY121061AY221061GA1021+007509069GA2011+010509099GA3031+011409089GF106991051091008001071001MA1999999092981MD1999999+0061MW1171REMSYN106AAXX  15184 42111 21596 63201 10244 20221 39298 40045 71722 85970 333 58006 6005/ 82625 81935 83838 85458;
0243421110999992000091521004+30310+078020FM-12+068299999V0202301N00051036001CN0040001N1+02341+02201100391ADDAA100005192AA218005092AY191031AY221031GA1021+009009069GA2021+012009089GF105991041081008001031001MA1999999092901MD1999999+0031MW1021REMSYN100AAXX  15214 42111 21596 52301 10234 20220 39290 40039 70292 84830 333 58003 6005/ 82630 82840 85360;
0243421110999992000091600004+30310+078020FM-12+068299999V0200501N00051036001CN0040001N1+02301+02151100441ADDAA100005192AA221005092AY191061AY221061GA1021+009009069GA2021+012009089GF106991041081008001031001MA1999999092921MD1999999+0021MW1021REMSYN100AAXX  16004 42111 21596 60501 10230 20215 39292 40044 70292 84830 333 58002 6005/ 82630 82840 85360;
0223421110999992000091606004+30310+078020FM-12+068299999V0202301N00101015001CN0020001N1+03001+02421100411ADDAA199000091AY121061AY221061GA1041+009609069GF106991061081012501001001MA1999999093071MD1999999-0021MW1051REMSYN088AAXX  16064 42111 31695 62302 10300 20242 39307 40041 70522 86800 333 59002 84632 84840;EQDQ01  00002PRCP99
0223421110999992000091609004+30310+078020FM-12+068299999V0202301N000510096019N0020001N1+02881+02401100241ADDAA199000091AY121031AY221031GA1051+009609069GF107991061081008001071001MA1999999092891MD1999999-0331MW1051REMSYN088AAXX  16094 42111 31595 72301 10288 20240 39289 40024 70522 86870 333 59033 85632 86458;EQDQ01  00002PRCP99
0281421110999992000091612004+30310+078020FM-12+068299999V0203201N00051036001CN0020001N1+02801+02381100141ADDAA100000791AA209999999AY161061AY221061GA1031+009009069GA2031+011409089GF106991041081008001071001KA1120M+03041MA1999999092771MD1999999-0041MW1051REMSYN106AAXX  16124 42111 21595 63201 10280 20238 39277 40014 70562 84870 333 10304 59004 6990/ 83630 83838 85456;EQDQ01  99992PRCP09
0212421110999992000091615004+30310+078020FM-12+068299999V0209999C00001036001CN0040001N1+02621+02421100331ADDAA100000791AA212999999GA1021+009609069GF106991021051008001071001MA1999999092911MD1999999+0101REMSYN088AAXX  16154 42111 22596 60000 10262 20242 39291 40033 82570 333 58010 6990/ 82632 84458;EQDQ01  99992PRCP12
0212421110999992000091618004+30310+078020FM-12+068299999V0200501N00051036001CN0040001N1+02481+02371100491ADDAA100000791AA215999999GA1011+009609069GF106991021081008001071001MA1999999093021MD1999999+0041REMSYN088AAXX  16184 42111 22596 60501 10248 20237 39302 40049 82870 333 58004 6990/ 81632 85358;EQDQ01  99992PRCP15
0212421110999992000091621004+30310+078020FM-12+068299999V0200501N000512200019N0040001N1+02381+02241100451ADDAA100000791AA218999999GA1011+010509069GF104991011051012501071001MA1999999092951MD1999999+0051REMSYN088AAXX  16214 42111 22696 40501 10238 20224 39295 40045 81570 333 58005 6990/ 81635 83360;EQDQ01  99992PRCP18
0212421110999992000091700004+30310+078020FM-12+068299999V0200501N000512200019N0040001N1+02241+02061100541ADDAA100000791AA221999999GA1011+010509069GF104991011051012501071001MA1999999093021MD1999999+0101REMSYN088AAXX  17004 42111 22696 40501 10224 20206 39302 40054 81570 333 58010 6990/ 81635 83360;EQDQ01  99992PRCP21
0278421110999992000091703004+30310+078020FM-12+068299999V0202301N00051036001CN0020001N1+02521+02111100571ADDAA100000791AA224999999AY121031AY221031GA1031+009009069GF107991031051008001071001KA1120M+03041KA2120N+02211MA1999999093111MD1999999+0061MW1051REMSYN106AAXX  17034 42111 21595 72301 10252 20211 39311 40057 70522 83570 333 10304 20221 58006 6990/ 83630 86458;EQDQ01  99992PRCP24
0245421110999992000091706004+30310+078020FM-12+068299999V0201401N00051012001CN0020001N1+02881+02351100511ADDAA199000091AY121061AY221061GA1021+009009069GA2031+012009089GF106991031081008001071001MA1999999093131MD1999999+0061MW1051REMSYN094AAXX  17064 42111 31595 61401 10288 20235 39313 40051 70522 83870 333 58006 82630 83840 85360;EQDQ01  00002PRCP99
0195421110999992000091709004+30310+078020FM-12+068299999V0202301N00101036001CN0040001N1+03061+02141100261ADDAA199000091GA1031+012009089GF105991041081012501031001MA1999999092941MD1999999+0031REMSYN082AAXX  17094 42111 32696 52302 10306 20214 39294 40026 84830 333 58003 83840 85360;EQDQ01  00002PRCP99
0214421110999992000091712004+30310+078020FM-12+068299999V0202301N00051015001CN0040001N1+02901+02401100171ADDAA199000091GA1041+009609069GF106991051081012501031001KA1120M+03111MA1999999092821MD1999999+0051REMSYN088AAXX  17124 42111 32696 62301 10290 20240 39282 40017 85830 333 10311 58005 84632 85360;EQDQ01  00002PRCP99
0223421110999992000091715004+30310+078020FM-12+068299999V0200901N000512200019N0040001N1+02541+02281100381ADDAA199000091AY191031AY221031GA1021+010509069GF103991021051012501001011MA1999999092941MD1999999+0031MW1011REMSYN088AAXX  17154 42111 31696 30901 10254 20228 39294 40038 70192 82501 333 58003 82635 83075;EQDQ01  00002PRCP99
0223421110999992000091718004+30310+078020FM-12+068299999V0200501N00051036001CN0040001N1+02481+02221100431ADDAA199000091AY191061AY221061GA1031+010509069GF105991031051012501071001MA1999999092961MD1999999-0061MW1021REMSYN088AAXX  17184 42111 31696 50501 10248 20222 39296 40043 70292 83570 333 59006 83635 84460;EQDQ01  00002PRCP99
0177421110999992000091721004+30310+078020FM-12+068299999V0209999C000012200019N0040001N1+02381+02151100401ADDAA199000091GA1001+999999999GF100991001001999999001001MA1999999092911MD1999999-0041REMSYN064AAXX  17214 42111 32996 00000 10238 20215 39291 40040 333 59004;EQDQ01  00002PRCP99
0245421110999992000091806004+30310+078020FM-12+068299999V0201401N001010120019N0020001N1+02801+02291100351ADDAA199000091AY121061AY221061GA1021+009009069GA2031+012009089GF107991051081012501031001MA1999999092801MD1999999-0071MW1051REMSYN094AAXX  18064 42111 31695 71402 10280 20229 39280 40035 70522 85830 333 59007 82630 83840 85360;EQDQ01  00002PRCP99
0242421110999992000091812004+30310+078020FM-12+068299999V0209999C00001036001CN0020001N1+02801+02321100161ADDAA199000091AY191061AY221061GA1031+008409069GF106991041081008001071001KA1120M+03011MA1999999092791MD1999999-0031MW1051REMSYN094AAXX  18124 42111 31595 60000 10280 20232 39279 40016 70592 84870 333 10301 59003 83628 85360;EQDQ01  00002PRCP99
0223421110999992000091818004+30310+078020FM-12+068299999V0200501N00051036001CN0040001N1+02361+02061100421ADDAA199000091AY191061AY221061GA1041+010509069GF106991041051012501031001MA1999999092931MD1999999-0031MW1021REMSYN088AAXX  18184 42111 31696 60501 10236 20206 39293 40042 70292 84530 333 59003 84635 85360;EQDQ01  00002PRCP99
0223421110999992000091821004+30310+078020FM-12+068299999V0209999C00001036001CN0020001N1+02341+02071100381ADDAA199000091AY121031AY221031GA1031+009009069GF107991041081008001071001MA1999999092891MD1999999-0021MW1051REMSYN088AAXX  18214 42111 31595 70000 10234 20207 39289 40038 70522 84870 333 59002 83630 86458;EQDQ01  00002PRCP99
0221421110999992000091900004+30310+078020FM-12+068299999V0209999C000010084019N0020001N1+02361+02061100491ADDAA100001092AA221000992AY191061AY221061GA1051+008409069GF108991061081008001021999MA1999999093001MD1999999+0081MW1611REMSYN094AAXX  19004 42111 21595 80000 10236 20206 39300 40049 76192 8682/ 333 58008 6999/ 85628 88456;
0303421110999992000091903004+30310+078020FM-12+068299999V0201401N001010108019N0020001N1+02261+02171100751ADDAA100023991AA224024091AY191031AY261031GA1031+007809069GA2031+010809089GA3011+012009099GF108991061091008001021999KA1120M+03011KA2120N+02251MA1999999093211MD1999999+0221MW1951REMSYN118AAXX  19034 42111 21595 81402 10226 20217 39321 40075 79596 8692/ 333 10301 20225 58022 6024/ 83626 83836 81940 87458;
0243421110999992000091906004+30310+078020FM-12+068299999V0201401N000510120019N0020001N1+02241+02181100831ADDAA100019192AA203019092AY191061AY261061GA1041+008409069GA2021+012009099GF108991051091008001021999MA1999999093291MD1999999+0231MW1951REMSYN100AAXX  19064 42111 21595 81401 10224 20218 39329 40083 79596 8592/ 333 58023 6019/ 84628 82940 87458;
0272421110999992000091909004+30310+078020FM-12+068299999V0209999C000012200019N0020001N1+02381+02211100631ADDAA100020192AA206020092AY191031AY261031GA1051+009009069GF199999999999999999001001MA1999999093121MD1999999+0231MW1601REMSYN094AAXX  19094 42111 21595 00000 10238 20221 39312 40063 76096 86820 333 58023 6020/ 85630 86458;EQDQ01+000002SCOTCVQ02+000002SCOTLCQ03+000002SCOLCG
0240421110999992000091912004+30310+078020FM-12+068299999V0209999C00001015001CN0020001N1+02321+02171100511ADDAA100020192AA209020092AY191061AY261061GA1041+009609069GF107991051081012501071001KA1120M+02391MA1999999093021MD1999999+0231MW1051REMSYN100AAXX  19124 42111 21695 70000 10232 20217 39302 40051 70596 85870 333 10239 58023 6020/ 84632 86460;
0215421110999992000091918004+30310+078020FM-12+068299999V0201401N000510090019N0020001N1+02241+02151100801ADDAA100021192AA215021092AY161061AY221061GA1051+009009069GF108991999999008001999999MA1999999093261MD1999999+0431MW1051REMSYN088AAXX  19184 42111 21595 81401 10224 20215 39326 40080 70562 333 58043 6021/ 85630 87458;
0221421110999992000092000004+30310+078020FM-12+068299999V0202301N000510084019N0020001N1+02201+02141100871ADDAA100021192AA221021092AY121061AY221061GA1051+008409069GF108991061081008001021999MA1999999093301MD1999999+0301MW1051REMSYN094AAXX  20004 42111 21595 82301 10220 20214 39330 40087 70522 8682/ 333 58030 6021/ 85628 88456;
0221421110999992000092006004+30310+078020FM-12+068299999V0202301N00101012001CN0020001N1+02521+02141100961ADDAA100000791AA203999929AY161061AY221061GA1041+008409069GF108991051081008001021999MA1999999093481MD1999999+0191MW1611REMSYN094AAXX  20064 42111 21595 82302 10252 20214 39348 40096 76162 8582/ 333 58019 6990/ 84628 87456;
0221421110999992000092015004+30310+078020FM-12+068299999V0200501N00051036001CN0100001N1+02141+02021100941ADDAA100010991AA212011091AY191031AY261031GA1011+009009069GF105991011051008001031001MA1999999093361MD1999999+0181MW1021REMSYN094AAXX  20154 42111 21597 50501 10214 20202 39336 40094 70296 81530 333 58018 6011/ 81630 84360;
0192421110999992000092018004+30310+078020FM-12+068299999V0200501N000512200019N0100001N1+02001+01911101081ADDAA100010991AY191061AY261061GA1001+999999999GF100991001001999999001001MA1999999093451MD1999999+0191MW1021REMSYN076AAXX  20184 42111 21997 00501 10200 20191 39345 40108 70296 333 58019 6011/;
0187421110999992000092021004+30310+078020FM-12+068299999V0200501N000512200019N0040001N1+01961+01871101121ADDAA100010991AA218011091GA1031+030009079GF103991031001999999031001MA1999999093491MD1999999+0241REMSYN082AAXX  20214 42111 22996 30501 10196 20187 39349 40112 83030 333 58024 6011/ 83360;
0187421110999992000092100004+30310+078020FM-12+068299999V0200501N000512200019N0040001N1+01941+01851101121ADDAA100010991AA221011091GA1011+010509059GF103991011051012501031001MA1999999093491MD1999999+0191REMSYN082AAXX  21004 42111 21696 30501 10194 20185 39349 40112 81530 333 58019 6011/ 81635;
0225421110999992000092103004+30310+078020FM-12+068299999V0209999C000012200019N0040001N1+02401+01981101071ADDAA100010991AA224011091GA1011+012009029GF101991011011012501001001KA1120M+02581KA2120N+01901MA1999999093531MD1999999+0121REMSYN094AAXX  21034 42111 21696 10000 10240 20198 39353 40107 81100 333 10258 20190 58012 6011/ 81840;
0217421110999992000092106004+30310+078020FM-12+068299999V0202301N001010120019N0040001N1+02761+01991101051ADDAA199000091GA1021+010509069GA2041+012009089GF106991051081012501071001MA1999999093611MD1999999+0131REMSYN088AAXX  21064 42111 32696 62302 10276 20199 39361 40105 85870 333 58013 82635 84840 85460;EQDQ01  00002PRCP99
0265421110999992000092109004+30310+078020FM-12+068299999V0202301N000510114019N0040001N1+02461+02171100931ADDAA100000591AA206000691AY191031AY261031GA1021+009009069GA2011+010509099GA3031+011409089GF106991051091008001071001MA1999999093431MD1999999+0011MW1171REMSYN106AAXX  21094 42111 21596 62301 10246 20217 39343 40093 71796 85970 333 58001 6996/ 82630 81935 83838 86458;
0240421110999992000092112004+30310+078020FM-12+068299999V0209999C00001036001CN0040001N1+02441+02121100861ADDAA100000591AA209000691AY191061AY261061GA1031+009009069GF106991041081008001071001KA1120M+02791MA1999999093361MD1999999+0111MW1021REMSYN100AAXX  21124 42111 21596 60000 10244 20212 39336 40086 70296 84870 333 10279 58011 6996/ 83630 85360;
0187421110999992000092115004+30310+078020FM-12+068299999V0200501N000512200019N0040001N1+02261+02051101171ADDAY191031AY221031GA1021+030009079GF102991021001999999031001MA1999999093451MD1999999+0091MW1011REMSYN082AAXX  21154 42111 21996 20501 10226 20205 39345 40117 70192 82030 333 58009 82360;
0192421110999992000092118004+30310+078020FM-12+068299999V0200501N001012200019N0040001N1+02101+01921101081ADDAA100000591AY191061AY221061GA1001+999999999GF100991001001999999001001MA1999999093471MD1999999+0021MW1001REMSYN076AAXX  21184 42111 21996 00502 10210 20192 39347 40108 70092 333 58002 6996/;
0193421110999992000092121004+30310+078020FM-12+068299999V0209999C00001036001CN0040001N1+02141+01961101121ADDAA100000591AA218000691GA1041+009609069GF107991041051012501071001MA1999999093521MD1999999+0031REMSYN088AAXX  21214 42111 22696 70000 10214 20196 39352 40112 84570 333 58003 6996/ 84632 86460;
0243421110999992000092200004+30310+078020FM-12+068299999V0202301N001010075019N0020001N1+01981+01861101281ADDAA100018091AA221018091AY191061AY261061GA1051+007509069GA2031+010509099GF108991061091008001021999MA1999999093631MD1999999+0141MW1951REMSYN100AAXX  22004 42111 21595 82302 10198 20186 39363 40128 79596 8692/ 333 58014 6018/ 85625 83935 88456;
0259421110999992000092203004+30310+078020FM-12+068299999V0200901N00051012001CN0040001N1+02101+01981101401ADDAA100020192AA224020092AY191031AY261031GA1041+009009069GF106991051081008001071001KA1120M+02791KA2120N+01901MA1999999093761MD1999999+0231MW1021REMSYN106AAXX  22034 42111 21596 60901 10210 20198 39376 40140 70296 85870 333 10279 20190 58023 6020/ 84630 85360;
0223421110999992000092206004+30310+078020FM-12+068299999V0203201N001012200019N0040001N1+02541+01941100252ADDAA199000021AY191061AY261061GA1031+012009089GF104991031021012501031001MA1999999093741MD1999999+0131MW1021REMSYN088AAXX  22064 42111 31696 43202 10254 20194 39374 40025 70296 83230 333 58013 83840 84360;EQDQ01+100253APOSLP
0189421110999992000092212004+30310+078020FM-12+068299999V0209999C00001015001CN0040001N1+02541+02161100851ADDAA199000021GA1041+009009059GF105991051081012501001001KA1120M+02861MA1999999093371MD1999999+0011REMSYN082AAXX  22124 42111 32696 50000 10254 20216 39337 40085 85800 333 10286 58001 84630;
0223421110999992000092215004+30310+078020FM-12+068299999V0209999C00001036001CN0020001N1+02381+02181100911ADDAA199000091AY121031AY221031GA1021+009609069GF106991021051008001071001MA1999999093381MD1999999+0071MW1051REMSYN088AAXX  22154 42111 31595 60000 10238 20218 39338 40091 70522 82570 333 58007 82632 85458;EQDQ01  00002PRCP99
0217421110999992000092218004+30310+078020FM-12+068299999V0200501N000512200019N0020001N1+02241+02031100931ADDAA199000091AY121061AY211061GA1021+030009079GF102991021001999999031001MA1999999093371MD1999999-0101MW1051REMSYN082AAXX  22184 42111 31995 20501 10224 20203 39337 40093 70521 82030 333 59010 82360;EQDQ01  00002PRCP99
0223421110999992000092300004+30310+078020FM-12+068299999V0200501N000512200019N0020001N1+01921+01921101001ADDAA199000091AY101061AY201061GA1011+010509069GF103991021081012501051001MA1999999093391MD1999999-0241MW1051REMSYN088AAXX  23004 42111 31695 30501 10192 20192 39339 40100 70500 82850 333 59024 81635 83360;EQDQ01  00002PRCP99
0255421110999992000092303004+30310+078020FM-12+068299999V0209999C000012200019N0020001N1+02341+01981101091ADDAA199000091AY121031AY221031GA1031+030009079GF103991031001999999031001KA1120M+02861KA2120N+02021MA1999999093551MD1999999-0211MW1051REMSYN094AAXX  23034 42111 31995 30000 10234 20198 39355 40109 70522 83030 333 10286 20202 59021 83360;EQDQ01  00002PRCP99
0195421110999992000092306004+30310+078020FM-12+068299999V0202301N000512200019N0040001N1+02761+02341101001ADDAA199000091GA1011+010509069GF103991031091012501001001MA1999999093561MD1999999-0181REMSYN082AAXX  23064 42111 32696 32301 10276 20234 39356 40100 83900 333 59018 81635 83840;EQDQ01  00002PRCP99
0209421110999992000092309004+30310+078020FM-12+068299999V0209999C00001015001CN0020001N1+02861+02171100641ADDAA199000091AY121031AY221031GA1031+009609069GF106991061081012501001001MA1999999093261MW1051REMSYN088AAXX  23094 42111 31695 60000 10286 20217 39326 40064 70522 86800 333 5//24 83632 85840;EQDQ01  00002PRCP99
0262421110999992000092312004+30310+078020FM-12+068299999V0201401N000510114019N0020001N1+02661+02231100541ADDAA100000791AA209999929AY121061AY221061GA1041+009609069GA2061+011409089GF107991071091012501001001KA1120M+02911MA1999999093111MD1999999-0261MW1951REMSYN106AAXX  23124 42111 21695 71401 10266 20223 39311 40054 79522 87900 333 10291 59026 6990/ 84632 86838 82940;
0215421110999992000092315004+30310+078020FM-12+068299999V0200501N000512200019N0040001N1+02381+02121100731ADDAA100000791AA212999929AY191031AY261031GA1021+030009079GF102991021001999999031001MA1999999093221MD1999999-0161MW1011REMSYN088AAXX  23154 42111 21996 20501 10238 20212 39322 40073 70196 82030 333 59016 6990/ 82360;
0192421110999992000092318004+30310+078020FM-12+068299999V0200501N000512200019N0040001N1+02201+01991100851ADDAA100000791AY191061AY261061GA1001+999999999GF100991001001999999001001MA1999999093291MD1999999-0081MW1001REMSYN076AAXX  23184 42111 21996 00501 10220 20199 39329 40085 70096 333 59008 6990/;
0164421110999992000092321004+30310+078020FM-12+068299999V0200501N001012200019N0040001N1+02101+01891100851ADDAA100000791GA1001+999999999GF100991001001999999001001MA1999999093261MD1999999-0091REMSYN070AAXX  23214 42111 22996 00502 10210 20189 39326 40085 333 59009 6990/;
0164421110999992000092400004+30310+078020FM-12+068299999V02099999999992200019N0040001N1+02001+01811100871ADDAA100000791GA1001+999999999GF100991001001999999001001MA1999999093251MD1999999-0141REMSYN070AAXX  24004 42111 22996 005/2 10200 20181 39325 40087 333 59014 6990/;
0272421110999992000092403004+30310+078020FM-12+068299999V0209999C000012200019N0020001N1+02401+01981100941ADDAA100999999AA224699092AY101031AY201031GA1011+012009029GF101991011011012501001001KA1120M+02911KA2120N+01951MA1999999093411MD1999999-0141MW1051REMSYN100AAXX  24034 42111 21695 10000 10240 20198 39341 40094 70500 81100 333 10291 20195 59014 6699/ 81840;EQDQ01  69902PRCP00
0189421110999992000092409004+30310+078020FM-12+068299999V0203201N001512200019N0040001N1+02941+01931100571ADDAA199000091GA1021+012009029GF102991021021012501001001MA1999999093211MD1999999-0051REMSYN076AAXX  24094 42111 32696 23203 10294 20193 39321 40057 82200 333 59005 82840;EQDQ01  00002PRCP99
0208421110999992000092412004+30310+078020FM-12+068299999V0203201N000512200019N0040001N1+02741+02131100451ADDAA199000091GA1021+012009029GF102991021021012501001001KA1120M+02981MA1999999093061MD1999999-0051REMSYN082AAXX  24124 42111 32696 23201 10274 20213 39306 40045 82200 333 10298 59005 82840;EQDQ01  00002PRCP99
0168421110999992000092415004+30310+078020FM-12+068299999V0201401N000512200019N0020001N1+02381+02091100551ADDAA199000091GA1001+999999999GF100991001001999999001001MD1999999-0161REMSYN070AAXX  24154 42111 3//95 01401 10238 20209 393/6 40055 7/500 333 59016;EQDQ01  00002PRCP99
0205421110999992000092418004+30310+078020FM-12+068299999V0200501N000512200019N0020001N1+02241+01911100721ADDAA199000091AY101061AY201061GA1001+999999999GF100991001001999999001001MA1999999093161MD1999999-0131MW1051REMSYN070AAXX  24184 42111 31995 00501 10224 20191 39316 40072 70500 333 59013;EQDQ01  00002PRCP99
0205421110999992000092421004+30310+078020FM-12+068299999V0200501N000512200019N0020001N1+02121+01941100741ADDAA199000091AY101031AY201031GA1001+999999999GF100991001001999999001001MA1999999093181MD1999999-0081MW1051REMSYN070AAXX  24214 42111 31995 00501 10212 20194 39318 40074 70500 333 59008;EQDQ01  00002PRCP99
0243421110999992000092503004+30310+078020FM-12+068299999V0203201N000512200019N0020001N1+02341+01921100851ADDAA199000091AY101031AY201031GA1001+999999999GF100991001001999999001001KA1120M+02981KA2120N+01921MA1999999093321MD1999999-0091MW1051REMSYN082AAXX  25034 42111 31995 03201 10234 20192 39332 40085 70500 333 10298 20192 59009;EQDQ01  00002PRCP99
0209421110999992000092506004+30310+078020FM-12+068299999V0202301N001012200019N0020001N1+02821+01991100751ADDAA199000091AY101061GA1031+012009029GF103991031011012501001001MA1999999093351MD1999999-0031MW1051REMSYN082AAXX  25064 42111 31695 32302 10282 20199 39335 40075 7050/ 83100 333 59003 83840;EQDQ01  00002PRCP99
0189421110999992000092509004+30310+078020FM-12+068299999V0202301N001012200019N0040001N1+03001+01941100551ADDAA199000091GA1031+012009029GF103991031021012501001001MA1999999093191MD1999999-0021REMSYN076AAXX  25094 42111 32696 32302 10300 20194 39319 40055 83200 333 59002 83840;EQDQ01  00002PRCP99
0208421110999992000092512004+30310+078020FM-12+068299999V0203201N000512200019N0040001N1+02821+02031100411ADDAA199000091GA1021+012009999GF102991021011012501001001KA1120M+03051MA1999999093041MD1999999-0021REMSYN082AAXX  25124 42111 32696 23201 10282 20203 39304 40041 82100 333 10305 59002 82/40;EQDQ01  00002PRCP99
0177421110999992000092515004+30310+078020FM-12+068299999V0200501N001012200019N0040001N1+02381+02021100601ADDAA199000091GA1001+999999999GF100991001001999999001001MA1999999093101MD1999999-0041REMSYN064AAXX  25154 42111 32996 00502 10238 20202 39310 40060 333 59004;EQDQ01  00002PRCP99
0243421110999992000092600004+30310+078020FM-12+068299999V0201401N001010084019N0020001N1+01921+01761101251ADDAA100001091AA221001091AY191061AY261061GA1051+008409069GA2021+010509099GF108991061091008001021999MA1999999093601MD1999999+0391MW1951REMSYN100AAXX  26004 42111 21595 81402 10192 20176 39360 40125 79596 8692/ 333 58039 6001/ 85628 82935 88458;
0259421110999992000092603004+30310+078020FM-12+068299999V0200501N001010084019N0020001N1+02001+01751101141ADDAA100002091AA224002091AY191031AY261031GA1051+008409069GF108991051051008001021999KA1120M+03051KA2120N+01871MA1999999093501MD1999999+0181MW1601REMSYN106AAXX  26034 42111 21595 80502 10200 20175 39350 40114 76096 8552/ 333 10305 20187 58018 6002/ 85628 88456;
0221421110999992000092606004+30310+078020FM-12+068299999V0201401N000510090019N0040001N1+02361+01841101121ADDAA100000592AA203000492AY191061AY261061GA1051+009009069GF108991051051008001071999MA1999999093581MD1999999+0231MW1021REMSYN094AAXX  26064 42111 /1596 81401 10236 20184 39358 40112 70296 8557/ 333 58023 6994/ 85630 87458;
0215421110999992000092609004+30310+078020FM-12+068299999V0201401N00051036001CN0040001N1+02641+01751100691ADDAA100000592AA206000492GA1011+009609069GA2031+011409089GF106991031081008001071001MA1999999093261MD1999999+0071REMSYN094AAXX  26094 42111 22596 61401 10264 20175 39326 40069 83870 333 58007 6994/ 81632 83838 85358;
0183421110999992000092612004+30310+078020FM-12+068299999V0203201N000512200019N0040001N1+02541+01971100631ADDAA100000591GA1001+999999999GF100991001001999999001001KA1120M+02751MA1999999093171MD1999999+0131REMSYN076AAXX  26124 42111 22996 03201 10254 20197 39317 40063 333 10275 58013 6994/;
0164421110999992000092618004+30310+078020FM-12+068299999V0200501N000512200019N0040001N1+02061+01581100861ADDAA100000591GA1001+999999999GF100991001001999999001001MA1999999093271MD1999999-0081REMSYN070AAXX  26184 42111 22996 00501 10206 20158 39327 40086 333 59008 6994/;
0164421110999992000092621004+30310+078020FM-12+068299999V0200501N000512200019N0040001N1+02001+01621100871ADDAA100000591GA1001+999999999GF100991001001999999001001MA1999999093251MD1999999+0081REMSYN070AAXX  26214 42111 22996 00501 10200 20162 39325 40087 333 58008 6994/;
0164421110999992000092700004+30310+078020FM-12+068299999V0209999C000012200019N0040001N1+01821+01561101011ADDAA100000591GA1001+999999999GF100991001001999999001001MA1999999093351MD1999999-0251REMSYN070AAXX  27004 42111 22996 00000 10182 20156 39335 40101 333 59025 6994/;
0202421110999992000092703004+30310+078020FM-12+068299999V0202301N000512200019N0040001N1+02181+01681101131ADDAA100000591GA1001+999999999GF100991001001999999001001KA1120M+02751KA2120N+01761MA1999999093531MD1999999+0031REMSYN082AAXX  27034 42111 22996 02301 10218 20168 39353 40113 333 10275 20176 58003 6994/;
0205421110999992000092706004+30310+078020FM-12+068299999V0202301N001012200019N0020001N1+02881+01571100821ADDAA199000091AY101061AY201061GA1001+999999999GF100991001001999999001001MA1999999093421MD1999999-0161MW1051REMSYN070AAXX  27064 42111 31995 02302 10288 20157 39342 40082 70500 333 59016;EQDQ01  00002PRCP99
0189421110999992000092709004+30310+078020FM-12+068299999V0202701N001012200019N0040001N1+03041+01581100581ADDAA199000091GA1011+012009029GF101991011011012501001001MA1999999093251MD1999999-0011REMSYN076AAXX  27094 42111 32696 12702 10304 20158 39325 40058 81100 333 59001 81840;EQDQ01  00002PRCP99
0208421110999992000092712004+30310+078020FM-12+068299999V0203201N001012200019N0040001N1+02761+01931100471ADDAA199000091GA1011+012009029GF101991011011012501001001KA1120M+03061MA1999999093081MD1999999-0091REMSYN082AAXX  27124 42111 32696 13202 10276 20193 39308 40047 81100 333 10306 59009 81840;EQDQ01  00002PRCP99
0177421110999992000092715004+30310+078020FM-12+068299999V0200501N001512200019N0040001N1+02241+01781100721ADDAA199000091GA1001+999999999GF100991001001999999001001MA1999999093181MD1999999-0051REMSYN064AAXX  27154 42111 32996 00503 10224 20178 39318 40072 333 59005;EQDQ01  00002PRCP99
0177421110999992000092718004+30310+078020FM-12+068299999V0200501N001012200019N0040001N1+02061+01651100811ADDAA199000091GA1001+999999999GF100991001001999999001001MA1999999093221MD1999999-0051REMSYN064AAXX  27184 42111 32996 00502 10206 20165 39322 40081 333 59005;EQDQ01  00002PRCP99
0177421110999992000092721004+30310+078020FM-12+068299999V0200501N001512200019N0040001N1+01941+01551100861ADDAA199000091GA1001+999999999GF100991001001999999001001MA1999999093241MD1999999-0011REMSYN064AAXX  27214 42111 32996 00503 10194 20155 39324 40086 333 59001;EQDQ01  00002PRCP99
0177421110999992000092800004+30310+078020FM-12+068299999V0200501N000512200019N0040001N1+01841+01511100901ADDAA199000091GA1001+999999999GF100991001001999999001001MA1999999093251MD1999999-0101REMSYN064AAXX  28004 42111 32996 00501 10184 20151 39325 40090 333 59010;EQDQ01  00002PRCP99
0215421110999992000092803004+30310+078020FM-12+068299999V0209999C000012200019N0040001N1+02481+01711100851ADDAA199000091GA1001+999999999GF100991001001999999001001KA1120M+03061KA2120N+01781MA1999999093351MD1999999-0181REMSYN076AAXX  28034 42111 32996 00000 10248 20171 39335 40085 333 10306 20178 59018;EQDQ01  00002PRCP99
0189421110999992000092806004+30310+078020FM-12+068299999V0202301N001012200019N0040001N1+02901+01741100701ADDAA199000091GA1011+012009029GF101991011011012501001001MA1999999093331MD1999999-0091REMSYN076AAXX  28064 42111 32696 12302 10290 20174 39333 40070 81100 333 59009 81840;EQDQ01  00002PRCP99
0189421110999992000092809004+30310+078020FM-12+068299999V0202301N000512200019N0040001N1+03041+01841100411ADDAA199000091GA1011+010509059GF103991021081012501031001MA1999999093091MD1999999-0161REMSYN076AAXX  28094 42111 32696 32301 10304 20184 39309 40041 82830 333 59016 81635;EQDQ01  00002PRCP99
0214421110999992000092812004+30310+078020FM-12+068299999V0202301N00051036001CN0040001N1+02741+01911100411ADDAA199000091GA1021+010509069GF105991031081012501031001KA1120M+03081MA1999999093021MD1999999-0061REMSYN088AAXX  28124 42111 32696 52301 10274 20191 39302 40041 83830 333 10308 59006 82635 85360;EQDQ01  00002PRCP99
0177421110999992000092815004+30310+078020FM-12+068299999V0200501N000512200019N0040001N1+02301+01941100671ADDAA199000091GA1001+999999999GF100991001001999999001001MA1999999093131MD1999999-0051REMSYN064AAXX  28154 42111 32996 00501 10230 20194 39313 40067 333 59005;EQDQ01  00002PRCP99
0177421110999992000092818004+30310+078020FM-12+068299999V0200501N000512200019N0040001N1+02161+01851100681ADDAA199000091GA1001+999999999GF100991001001999999001001MA1999999093141MD1999999-0081REMSYN064AAXX  28184 42111 32996 00501 10216 20185 39314 40068 333 59008;EQDQ01  00002PRCP99
0215421110999992000092903004+30310+078020FM-12+068299999V0209999C000012200019N0040001N1+02261+01661100941ADDAA199000091GA1001+999999999GF100991001001999999001001KA1120M+03081KA2120N+01851MA1999999093381MD1999999+0031REMSYN076AAXX  29034 42111 32996 00000 10226 20166 39338 40094 333 10308 20185 58003;EQDQ01  00002PRCP99
0223421110999992000092906004+30310+078020FM-12+068299999V0209999C000012200019N0020001N1+02781+01851100831ADDAA199000091AY101061AY201061GA1021+012009089GF103991021011012501031001MA1999999093411MD1999999+0081MW1051REMSYN088AAXX  29064 42111 31695 30000 10278 20185 39341 40083 70500 82130 333 58008 82840 83360;EQDQ01  00002PRCP99
0189421110999992000092909004+30310+078020FM-12+068299999V0203201N001512200019N0040001N1+03001+01831100581ADDAA199000091GA1031+012009029GF103991031021012501001001MA1999999093221MD1999999+0131REMSYN076AAXX  29094 42111 32696 33203 10300 20183 39322 40058 83200 333 58013 83840;EQDQ01  00002PRCP99
0208421110999992000092912004+30310+078020FM-12+068299999V0200501N001012200019N0040001N1+02701+01681100611ADDAA199000091GA1021+012009029GF102991021011012501001001KA1120M+03041MA1999999093181MD1999999+0161REMSYN082AAXX  29124 42111 32696 20502 10270 20168 39318 40061 82100 333 10304 58016 82840;EQDQ01  00002PRCP99
0177421110999992000092915004+30310+078020FM-12+068299999V0200501N001012200019N0040001N1+02241+01711100711ADDAA199000091GA1001+999999999GF100991001001999999001001MA1999999093171MD1999999+0041REMSYN064AAXX  29154 42111 32996 00502 10224 20171 39317 40071 333 58004;EQDQ01  00002PRCP99
0177421110999992000092921004+30310+078020FM-12+068299999V0200501N001012200019N0040001N1+01921+01501100691ADDAA199000091GA1001+999999999GF100991001001999999001001MA1999999093091MD1999999-0061REMSYN064AAXX  29214 42111 32996 00502 10192 20150 39309 40069 333 59006;EQDQ01  00002PRCP99
0177421110999992000093000004+30310+078020FM-12+068299999V0200501N001012200019N0040001N1+01881+01491100821ADDAA199000091GA1001+999999999GF100991001001999999001001MA1999999093171MD1999999+0001REMSYN064AAXX  30004 42111 32996 00502 10188 20149 39317 40082 333 58000;EQDQ01  00002PRCP99
0215421110999992000093003004+30310+078020FM-12+068299999V0203201N000512200019N0040001N1+02361+01671100881ADDAA199000091GA1001+999999999GF100991001001999999001001KA1120M+03041KA2120N+01811MA1999999093351MD1999999-0031REMSYN076AAXX  30034 42111 32996 03201 10236 20167 39335 40088 333 10304 20181 59003;EQDQ01  00002PRCP99
0189421110999992000093006004+30310+078020FM-12+068299999V0201401N001012200019N0040001N1+02801+01841100831ADDAA199000091GA1021+012009029GF102991021021012501001001MA1999999093411MD1999999+0001REMSYN076AAXX  30064 42111 32696 21402 10280 20184 39341 40083 82200 333 58000 82840;EQDQ01  00002PRCP99
0189421110999992000093009004+30310+078020FM-12+068299999V0201401N000512200019N0040001N1+02881+01861100561ADDAA199000091GA1011+012009029GF101991011011012501001001MA1999999093181MD1999999-0041REMSYN076AAXX  30094 42111 32696 11401 10288 20186 39318 40056 81100 333 59004 81840;EQDQ01  00002PRCP99
0236421110999992000093012004+30310+078020FM-12+068299999V0202301N000512200019N0020001N1+02781+01881100571ADDAA199000091AY121061AY221061GA1011+012009029GF102991011011012501031001KA1120M+02971MA1999999093161MD1999999-0021MW1051REMSYN088AAXX  30124 42111 31695 22301 10278 20188 39316 40057 70522 81130 333 10297 59002 81840;EQDQ01  00002PRCP99
0177421110999992000100100004+30310+078020FM-12+068299999V0200501N000512200019N0040001N1+01921+01501100891ADDAA199000091GA1001+999999999GF100991001001999999001001MA1999999093271MD1999999+0101REMSYN064AAXX  01004 42111 32996 00501 10192 20150 39327 40089 333 58010;EQDQ01  00002PRCP99
0231421110999992000100103004+30310+078020FM-12+068299999V0200501N000512200019N0040001N1+02481+01741999999ADDAA199000091GA1001+999999999GF100991001001999999001001KA1120M+02971KA2120N+01861MA1999999093501MD1999999+0171REMSYN076AAXX  01034 42111 32996 00501 10248 20174 39350 40201 333 10297 20186 58017;EQDQ01+102013APOSLPQ02  00002PRCP99
0189421110999992000100106004+30310+078020FM-12+068299999V0201401N001012200019N0040001N1+02861+01801100931ADDAA199000091GA1011+012009029GF101991011011012501001001MA1999999093521MD1999999+0111REMSYN076AAXX  01064 42111 32696 11402 10286 20180 39352 40093 81100 333 58011 81840;EQDQ01  00002PRCP99
0189421110999992000100109004+30310+078020FM-12+068299999V0202701N001012200019N0040001N1+03041+01771100581ADDAA199000091GA1011+012009029GF101991011011012501001001MA1999999093251MD1999999+0071REMSYN076AAXX  01094 42111 32696 12702 10304 20177 39325 40058 81100 333 58007 81840;EQDQ01  00002PRCP99
0208421110999992000100112004+30310+078020FM-12+068299999V0203201N001012200019N0040001N1+02741+01941100611ADDAA199000091GA1011+012009029GF101991011011012501001001KA1120M+03121MA1999999093201MD1999999+0041REMSYN082AAXX  01124 42111 32696 13202 10274 20194 39320 40061 81100 333 10312 58004 81840;EQDQ01  00002PRCP99
0177421110999992000100115004+30310+078020FM-12+068299999V0200501N001012200019N0040001N1+02341+02011100851ADDAA199000091GA1001+999999999GF100991001001999999001001MA1999999093321MD1999999+0101REMSYN064AAXX  01154 42111 32996 00502 10234 20201 39332 40085 333 58010;EQDQ01  00002PRCP99
0177421110999992000100118004+30310+078020FM-12+068299999V0200501N001512200019N0040001N1+02041+01631100991ADDAA199000091GA1001+999999999GF100991001001999999001001MA1999999093381MD1999999+0151REMSYN064AAXX  01184 42111 32996 00503 10204 20163 39338 40099 333 58015;EQDQ01  00002PRCP99
0177421110999992000100121004+30310+078020FM-12+068299999V0200501N001512200019N0040001N1+01901+01401101041ADDAA199000091GA1001+999999999GF100991001001999999001001MA1999999093381MD1999999+0151REMSYN064AAXX  01214 42111 32996 00503 10190 20140 39338 40104 333 58015;EQDQ01  00002PRCP99
0177421110999992000100200004+30310+078020FM-12+068299999V0200501N001012200019N0040001N1+01841+01181101151ADDAA199000091GA1001+999999999GF100991001001999999001001MA1999999093491MD1999999+0221REMSYN064AAXX  02004 42111 32996 00502 10184 20118 39349 40115 333 58022;EQDQ01  00002PRCP99
0215421110999992000100203004+30310+078020FM-12+068299999V0200501N000512200019N0040001N1+02401+01391101161ADDAA199000091GA1001+999999999GF100991001001999999001001KA1120M+03121KA2120N+01781MA1999999093621MD1999999+0121REMSYN076AAXX  02034 42111 32996 00501 10240 20139 39362 40116 333 10312 20178 58012;EQDQ01  00002PRCP99
0189421110999992000100206004+30310+078020FM-12+068299999V0209999C000012200019N0040001N1+02841+01851100961ADDAA199000091GA1011+012009029GF101991011011012501001001MA1999999093551MD1999999+0031REMSYN076AAXX  02064 42111 32696 10000 10284 20185 39355 40096 81100 333 58003 81840;EQDQ01  00002PRCP99
0189421110999992000100209004+30310+078020FM-12+068299999V0203201N000512200019N0040001N1+02961+01741100721ADDAA199000091GA1011+012009029GF101991011011012501001001MA1999999093351MD1999999+0101REMSYN076AAXX  02094 42111 32696 13201 10296 20174 39335 40072 81100 333 58010 81840;EQDQ01  00002PRCP99
0214421110999992000100212004+30310+078020FM-12+068299999V0209999C000012200019N0040001N1+02661+01941100611ADDAA199000091GA1011+010509069GF103991021081012501031001KA1120M+02991MA1999999093181MD1999999-0021REMSYN088AAXX  02124 42111 32696 30000 10266 20194 39318 40061 82830 333 10299 59002 81635 83360;EQDQ01  00002PRCP99
0189421110999992000100215004+30310+078020FM-12+068299999V0200501N001012200019N0040001N1+02341+01921100841ADDAA199000091GA1021+030009079GF102991021001999999031001MA1999999093311MD1999999-0011REMSYN076AAXX  02154 42111 32996 20502 10234 20192 39331 40084 82030 333 59001 82360;EQDQ01  00002PRCP99
0177421110999992000100218004+30310+078020FM-12+068299999V0200501N000512200019N0040001N1+02161+01821100941ADDAA199000091GA1001+999999999GF100991001001999999001001MA1999999093361MD1999999-0021REMSYN064AAXX  02184 42111 32996 00501 10216 20182 39336 40094 333 59002;EQDQ01  00002PRCP99
0177421110999992000100221004+30310+078020FM-12+068299999V0200501N000512200019N0040001N1+02081+01801100951ADDAA199000091GA1001+999999999GF100991001001999999001001MA1999999093341MD1999999-0041REMSYN064AAXX  02214 42111 32996 00501 10208 20180 39334 40095 333 59004;EQDQ01  00002PRCP99
0177421110999992000100300004+30310+078020FM-12+068299999V0200501N000512200019N0040001N1+02001+01781101021ADDAA199000091GA1001+999999999GF100991001001999999001001MA1999999093391MD1999999-0101REMSYN064AAXX  03004 42111 32996 00501 10200 20178 39339 40102 333 59010;EQDQ01  00002PRCP99
0243421110999992000100303004+30310+078020FM-12+068299999V0200501N000512200019N0020001N1+02381+01901101081ADDAA199000091AY101031AY201031GA1001+999999999GF100991001001999999001001KA1120M+02991KA2120N+01961MA1999999093541MD1999999-0081MW1051REMSYN082AAXX  03034 42111 31995 00501 10238 20190 39354 40108 70500 333 10299 20196 59008;EQDQ01  00002PRCP99
0217421110999992000100306004+30310+078020FM-12+068299999V0202301N000512200019N0020001N1+02841+02021100901ADDAA199000091AY101061AY201061GA1021+012009029GF103991021011012501031001MA1999999093501MD1999999-0051MW1051REMSYN082AAXX  03064 42111 31695 32301 10284 20202 39350 40090 70500 82130 333 59005 82840;EQDQ01  00002PRCP99
0205421110999992000100309004+30310+078020FM-12+068299999V0202301N001012200019N0040001N1+02961+01891100581ADDAA199000091GA1021+012009029GF102991999011012501001001MA1999999093221MD1999999-0131REMSYN076AAXX  03094 42111 32696 22302 10296 20189 39322 40058 81100 333 59013 82840;EQDQ01+000012SCOTLCQ02  00002PRCP99
0214421110999992000100312004+30310+078020FM-12+068299999V0203201N00051036001CN0040001N1+02721+02141100561ADDAA199000091GA1021+012009089GF105991021011012501031001KA1120M+03031MA1999999093151MD1999999-0031REMSYN088AAXX  03124 42111 32696 53201 10272 20214 39315 40056 82130 333 10303 59003 82840 85360;EQDQ01  00002PRCP99
0195421110999992000100400004+30310+078020FM-12+068299999V0209999C000010090019N0040001N1+02241+01971100921ADDAA199000091GA1061+009009069GF108991061051012501021999MA1999999093361MD1999999-0031REMSYN082AAXX  04004 42111 32696 80000 10224 20197 39336 40092 8652/ 333 59003 86630 87460;EQDQ01  00002PRCP99
0261421110999992000100403004+30310+078020FM-12+068299999V0202301N00051036001CN0020001N1+02441+02031100951ADDAA199000091AY121031AY221031GA1021+010509069GF105991021051012501031001KA1120M+03031KA2120N+02171MA1999999093451MD1999999-0091MW1051REMSYN100AAXX  04034 42111 32695 52301 10244 20203 39345 40095 70522 82530 333 10303 20217 59009 82635 85360;EQDQ01  00002PRCP99
0223421110999992000100406004+30310+078020FM-12+068299999V0203201N000512200019N0020001N1+02701+02121100861ADDAA199000091AY121061AY221061GA1031+012009089GF104991031021012501031001MA1999999093411MD1999999-0091MW1051REMSYN088AAXX  04064 42111 31695 43201 10270 20212 39341 40086 70522 83230 333 59009 83840 84360;EQDQ01  00002PRCP99
0195421110999992000100409004+30310+078020FM-12+068299999V0203201N000519999999N0040001N1+02921+02421100511ADDAA199000091GA1031+010509069GF105991051081999999001001MA1999999093151MD1999999-0071REMSYN082AAXX  04094 42111 32996 53201 10292 20242 39315 40051 85800 333 59007 83635 84840;EQDQ01  00002PRCP99
0242421110999992000100412004+30310+078020FM-12+068299999V0203201N000510120019N0020001N1+02761+02181100541ADDAA199000091AY121061AY221061GA1031+009009069GF107991051081008001031001KA1120M+03001MA1999999093131MD1999999-0021MW1051REMSYN094AAXX  04124 42111 31595 73201 10276 20218 39313 40054 70522 85830 333 10300 59002 83630 83840;EQDQ01  00002PRCP99
0217421110999992000100415004+30310+078020FM-12+068299999V0209999C000012200019N0020001N1+02561+02181100731ADDAA199000091AY121031AY201031GA1011+030009079GF101991011001999999031001MA1999999093271MD1999999+0001MW1051REMSYN082AAXX  04154 42111 31995 10000 10256 20218 39327 40073 70520 81030 333 58000 81360;EQDQ01  00002PRCP99
0217421110999992000100418004+30310+078020FM-12+068299999V0200501N000512200019N0020001N1+02341+02071100831ADDAA199000091AY121061AY201061GA1031+030009079GF103991031001999999031001MA1999999093311MD1999999+0011MW1051REMSYN082AAXX  04184 42111 31995 30501 10234 20207 39331 40083 70520 83030 333 58001 83360;EQDQ01  00002PRCP99
0217421110999992000100421004+30310+078020FM-12+068299999V0209999C000012200019N0020001N1+02241+01971100851ADDAA199000091AY101031AY201031GA1031+030009079GF103991031001999999031001MA1999999093301MD1999999+0051MW1051REMSYN082AAXX  04214 42111 31995 30000 10224 20197 39330 40085 70500 83030 333 58005 83360;EQDQ01  00002PRCP99
0223421110999992000100500004+30310+078020FM-12+068299999V0209999C00001036001CN0020001N1+02281+02071100951ADDAA199000091AY121061AY201061GA1021+010509069GF106991021051012501071001MA1999999093391MD1999999+0031MW1051REMSYN088AAXX  05004 42111 31695 60000 10228 20207 39339 40095 70520 82570 333 58003 82635 85460;EQDQ01  00002PRCP99
0175421110999992000100503004+30310+078020FM-12+068299999V0200501N000510360019N0020001N1+02501+02151101151ADDAA199000091AY101031AY201031GF107991031051012501071001MA1999999093631MW1051REMSYN070AAXX  05034 42111 31695 70501 10250 20215 39363 40115 70500 83570 333;EQDQ01  00002PRCP99
0223421110999992000100506004+30310+078020FM-12+068299999V0202701N00051015001CN0020001N1+02781+02141100981ADDAA199000091AY101061AY201061GA1031+010509069GF106991051081012501999001MA1999999093541MD1999999+0131MW1051REMSYN088AAXX  05064 42111 31695 62701 10278 20214 39354 40098 70500 858/0 333 58013 83635 83840;EQDQ01  00002PRCP99
0223421110999992000100509004+30310+078020FM-12+068299999V0202301N001012200019N0020001N1+02881+02161100751ADDAA199000091AY121031AY221031GA1021+010509069GF104991041081012501001001MA1999999093351MD1999999+0201MW1051REMSYN088AAXX  05094 42111 31695 42302 10288 20216 39335 40075 70522 84800 333 58020 82635 83840;EQDQ01  00002PRCP99
0259421110999992000100512004+30310+078020FM-12+068299999V0209999C00001036001CN0020001N1+02721+02351100661ADDAA100000791AA209999999AY121061AY221061GA1031+009009069GF106991041081012501071001KA1120M+02941MA1999999093251MD1999999+0121MW1051REMSYN100AAXX  05124 42111 21695 60000 10272 20235 39325 40066 70522 84870 333 10294 58012 6990/ 83630 85460;EQDQ01  99992PRCP09
0240421110999992000100515004+30310+078020FM-12+068299999V0209999C00001036001CN0020001N1+02541+02251100881ADDAA100000791AA212999999AY121031AY221031GA1041+009009069GF106991041051008001071001MA1999999093401MD1999999+0131MW1051REMSYN094AAXX  05154 42111 21595 60000 10254 20225 39340 40088 70522 84570 333 58013 6990/ 84630 85360;EQDQ01  99992PRCP12
0206421110999992000100518004+30310+078020FM-12+068299999V0200501N000512200019N0040001N1+02301+02031100951ADDAA100000791AA215999999GA1021+030009079GF102991021001999999031001MA1999999093391MD1999999+0081REMSYN082AAXX  05184 42111 22996 20501 10230 20203 39339 40095 82030 333 58008 6990/ 82360;EQDQ01  99992PRCP15
0212421110999992000100521004+30310+078020FM-12+068299999V0200501N001012200019N0040001N1+02221+01951100941ADDAA100000791AA218999999GA1011+010509069GF103991011051012501031001MA1999999093381MD1999999+0081REMSYN088AAXX  05214 42111 22696 30502 10222 20195 39338 40094 81530 333 58008 6990/ 81635 83360;EQDQ01  99992PRCP18
0240421110999992000100600004+30310+078020FM-12+068299999V0200501N000512200019N0020001N1+02121+01911101041ADDAA100000791AA221999999AY111061AY211061GA1021+010509069GF103991021051012501031001MA1999999093461MD1999999+0071MW1051REMSYN094AAXX  06004 42111 21695 30501 10212 20191 39346 40104 70511 82530 333 58007 6990/ 82635 83360;EQDQ01  99992PRCP21
0278421110999992000100603004+30310+078020FM-12+068299999V0209999C00001036001CN0020001N1+02381+02051101251ADDAA100000791AA224999999AY121031AY211031GA1041+010509069GF107991041051012501071001KA1120M+02931KA2120N+02101MA1999999093701MD1999999+0071MW1051REMSYN106AAXX  06034 42111 21695 70000 10238 20205 39370 40125 70521 84570 333 10293 20210 58007 6990/ 84635 86360;EQDQ01  99992PRCP24
0223421110999992000100606004+30310+078020FM-12+068299999V0201401N00051015001CN0020001N1+02881+02221101071ADDAA199000091AY121061AY221061GA1021+010509069GF105991051081012501001001MA1999999093661MD1999999+0121MW1051REMSYN088AAXX  06064 42111 31695 51401 10288 20222 39366 40107 70522 85800 333 58012 82635 84840;EQDQ01  00002PRCP99
0245421110999992000100609004+30310+078020FM-12+068299999V0202301N000510120019N0020001N1+02961+02251100791ADDAA199000091AY121031AY221031GA1031+010509069GA2031+012009089GF107991051081012501071001MA1999999093421MD1999999+0071MW1051REMSYN094AAXX  06094 42111 31695 72301 10296 20225 39342 40079 70522 85870 333 58007 83635 83840 85460;EQDQ01  00002PRCP99
0242421110999992000100612004+30310+078020FM-12+068299999V0202701N00051015001CN0020001N1+02781+02271999999ADDAA199000091AY121061AY221061GA1041+010509069GF107991051081012501071001KA1120M+03011MA1999999093321MD1999999+0071MW1051REMSYN094AAXX  06124 42111 31695 72701 10278 20227 39332 400// 70522 85870 333 10301 58007 84635 86360;EQDQ01  00002PRCP99
0205421110999992000100618004+30310+078020FM-12+068299999V0200501N000512200019N0020001N1+02341+01981100971ADDAA199000091AY111061AY211061GA1001+999999999GF100991001001999999001001MA1999999093441MD1999999+0051MW1051REMSYN070AAXX  06184 42111 31995 00501 10234 20198 39344 40097 70511 333 58005;EQDQ01  00002PRCP99
0223421110999992000100700004+30310+078020FM-12+068299999V0200501N00051036001CN0020001N1+02241+01941100971ADDAA199000091AY121061AY221061GA1011+010509069GF106991011051012501071001MA1999999093411MD1999999-0051MW1051REMSYN088AAXX  07004 42111 31695 60501 10224 20194 39341 40097 70522 81570 333 59005 81635 85360;EQDQ01  00002PRCP99
0283421110999992000100703004+30310+078020FM-12+068299999V0200501N00051090001CN0020001N1+02441+02031101051ADDAA199000091AY121031AY221031GA1011+010509069GA2031+030009039GF105991011051012501031021KA1120M+03011KA2120N+02141MA1999999093541MD1999999-0161MW1051REMSYN106AAXX  07034 42111 31695 50501 10244 20203 39354 40105 70522 81532 333 10301 20214 59016 81635 83360 85075;EQDQ01  00002PRCP99
0245421110999992000100706004+30310+078020FM-12+068299999V0202301N00101036001CN0020001N1+02861+02171100991ADDAA199000091AY121061AY221061GA1011+010509069GA2031+012009089GF106991031081012501031001MA1999999093581MD1999999-0081MW1051REMSYN094AAXX  07064 42111 31695 62302 10286 20217 39358 40099 70522 83830 333 59008 81635 83840 86360;EQDQ01  00002PRCP99
0245421110999992000100709004+30310+078020FM-12+068299999V0202301N00151012001CN0020001N1+02981+02241100731ADDAA199000091AY121031AY221031GA1021+009009069GA2031+012009089GF106991041081008001031001MA1999999093361MD1999999-0061MW1051REMSYN094AAXX  07094 42111 31595 62303 10298 20224 39336 40073 70522 84830 333 59006 82630 83840 85360;EQDQ01  00002PRCP99
0262421110999992000100712004+30310+078020FM-12+068299999V0201401N001010105019N0020001N1+02661+02231100711ADDAA100000791AA209999929AY191061AY261061GA1041+009009069GA2011+010509099GF107991051091008001071001KA1120M+03061MA1999999093281MD1999999-0041MW1951REMSYN106AAXX  07124 42111 21595 71402 10266 20223 39328 40071 79596 85970 333 10306 59004 6990/ 84630 81935 86456;
0192421110999992000100715004+30310+078020FM-12+068299999V0200501N000512200019N0020001N1+02401+02141100981ADDAA100000191AY101031AY201031GA1001+999999999GF100991001001999999001001MA1999999093451MD1999999+0031MW1051REMSYN076AAXX  07154 42111 21995 00501 10240 20214 39345 40098 70500 333 58003 6992/;
0192421110999992000100718004+30310+078020FM-12+068299999V0200501N001012200019N0020001N1+02281+02011100911ADDAA100000191AY101061AY201061GA1001+999999999GF100991001001999999001001MA1999999093351MD1999999-0091MW1051REMSYN076AAXX  07184 42111 21995 00502 10228 20201 39335 40091 70500 333 59009 6992/;
0164421110999992000100721004+30310+078020FM-12+068299999V0200501N001012200019N0040001N1+02161+01921100871ADDAA100000191GA1001+999999999GF100991001001999999001001MA1999999093301MD1999999-0091REMSYN070AAXX  07214 42111 22996 00502 10216 20192 39330 40087 333 59009 6992/;
0192421110999992000100800004+30310+078020FM-12+068299999V0200501N001012200019N0020001N1+02121+01811100931ADDAA100000191AY101061AY201061GA1001+999999999GF100991001001999999001001MA1999999093351MD1999999-0061MW1051REMSYN076AAXX  08004 42111 21995 00502 10212 20181 39335 40093 70500 333 59006 6992/;
0259421110999992000100803004+30310+078020FM-12+068299999V0200501N001012200019N0020001N1+02401+01891100941ADDAA100000191AA224000291AY121031AY211031GA1021+012009089GF104991021011012501031001KA1120M+03061KA2120N+02051MA1999999093411MD1999999-0131MW1051REMSYN106AAXX  08034 42111 21695 40502 10240 20189 39341 40094 70521 82130 333 10306 20205 59013 6992/ 82840 83360;
0101421110999992000100806004+30310+078020FM-12+068299999V0202301N001012200019N0020001N1+02901+02151999999ADDGF103991999999012501999999MA1999999093411REMSYN048AAXX  08064 42111 /1695 32302 10290 20215 39341;
0217421110999992000100809004+30310+078020FM-12+068299999V0203201N000512200019N0020001N1+02981+02241100491ADDAA199000091AY121031AY221031GA1031+012009029GF103991031021012501001001MA1999999093131MD1999999-0231MW1051REMSYN082AAXX  08094 42111 31695 33201 10298 20224 39313 40049 70522 83200 333 59023 83840;EQDQ01  00002PRCP99
0242421110999992000100812004+30310+078020FM-12+068299999V0203201N000512200019N0020001N1+02801+02171100471ADDAA199000091AY191061AY221061GA1011+012009089GF103991011021012501031001KA1120M+03071MA1999999093081MD1999999-0201MW1051REMSYN094AAXX  08124 42111 31695 33201 10280 20217 39308 40047 70592 81230 333 10307 59020 81840 83360;EQDQ01  00002PRCP99
0205421110999992000100815004+30310+078020FM-12+068299999V0209999C000012200019N0020001N1+02401+02171100521ADDAA199000091AY101031AY201031GA1001+999999999GF100991001001999999001001MA1999999093031MD1999999-0421MW1051REMSYN070AAXX  08154 42111 31995 00000 10240 20217 39303 40052 70500 333 59042;EQDQ01  00002PRCP99
0205421110999992000100818004+30310+078020FM-12+068299999V0200501N000512200019N0020001N1+02261+01961100591ADDAA199000091AY101061AY201061GA1001+999999999GF100991001001999999001001MA1999999093071MD1999999-0291MW1051REMSYN070AAXX  08184 42111 31995 00501 10226 20196 39307 40059 70500 333 59029;EQDQ01  00002PRCP99
0205421110999992000100821004+30310+078020FM-12+068299999V0200501N000512200019N0020001N1+02161+01851100581ADDAA199000091AY101031AY201031GA1001+999999999GF100991001001999999001001MA1999999093031MD1999999-0271MW1051REMSYN070AAXX  08214 42111 31995 00501 10216 20185 39303 40058 70500 333 59027;EQDQ01  00002PRCP99
0205421110999992000100900004+30310+078020FM-12+068299999V0200501N000512200019N0020001N1+02061+01911100691ADDAA199000091AY101061AY201061GA1001+999999999GF100991001001999999001001MA1999999093041MD1999999-0321MW1051REMSYN070AAXX  09004 42111 31995 00501 10206 20191 39304 40069 70500 333 59032;EQDQ01  00002PRCP99
0243421110999992000100903004+30310+078020FM-12+068299999V0209999C000012200019N0020001N1+02481+01911100661ADDAA199000091AY101031AY201031GA1001+999999999GF100991001001999999001001KA1120M+03071KA2120N+02011MA1999999093181MD1999999-0231MW1051REMSYN082AAXX  09034 42111 31995 00000 10248 20191 39318 40066 70500 333 10307 20201 59023;EQDQ01  00002PRCP99
0217421110999992000100906004+30310+078020FM-12+068299999V0203201N000512200019N0020001N1+02801+02071100561ADDAA199000091AY121061AY211061GA1011+012009029GF101991011011012501001001MA1999999093151MD1999999-0261MW1051REMSYN082AAXX  09064 42111 31695 13201 10280 20207 39315 40056 70521 81100 333 59026 81840;EQDQ01  00002PRCP99
0236421110999992000100912004+30310+078020FM-12+068299999V0202701N000512200019N0020001N1+02741+02001100321ADDAA199000091AY121061AY211061GA1011+012009029GF101991011011012501001001KA1120M+03031MA1999999092931MD1999999-0151MW1051REMSYN088AAXX  09124 42111 31695 12701 10274 20200 39293 40032 70521 81100 333 10303 59015 81840;EQDQ01  00002PRCP99
0177421110999992000100915004+30310+078020FM-12+068299999V0200501N001012200019N0040001N1+02301+01911100561ADDAA199000091GA1001+999999999GF100991001001999999001001MA1999999093041MD1999999+0011REMSYN064AAXX  09154 42111 32996 00502 10230 20191 39304 40056 333 58001;EQDQ01  00002PRCP99
0177421110999992000100918004+30310+078020FM-12+068299999V0200501N001512200019N0040001N1+02041+01381100641ADDAA199000091GA1001+999999999GF100991001001999999001001MA1999999093471MD1999999+0001REMSYN064AAXX  09184 42111 32996 00503 10204 20138 39347 40064 333 58000;EQDQ01  00002PRCP99
0177421110999992000100921004+30310+078020FM-12+068299999V0200501N001012200019N0040001N1+01901+01091100721ADDAA199000091GA1001+999999999GF100991001001999999001001MA1999999093091MD1999999+0061REMSYN064AAXX  09214 42111 32996 00502 10190 20109 39309 40072 333 58006;EQDQ01  00002PRCP99
0177421110999992000101000004+30310+078020FM-12+068299999V0200501N000512200019N0040001N1+01801+01051100811ADDAA199000091GA1001+999999999GF100991001001999999001001MA1999999093141MD1999999+0101REMSYN064AAXX  10004 42111 32996 00501 10180 20105 39314 40081 333 58010;EQDQ01  00002PRCP99
0261421110999992000101003004+30310+078020FM-12+068299999V0209999C000012200019N0020001N1+02401+01351100871ADDAA199000091AY121031AY211031GA1011+010509069GF104991011051012501001021KA1120M+03031KA2120N+01761MA1999999093341MD1999999+0161MW1051REMSYN100AAXX  10034 42111 31695 40000 10240 20135 39334 40087 70521 81502 333 10303 20176 58016 81635 84075;EQDQ01  00002PRCP99
0223421110999992000101006004+30310+078020FM-12+068299999V0202301N001012200019N0020001N1+02901+01561100731ADDAA199000091AY121061AY221061GA1011+009609009GF104991011001999999031021MA1999999093331MD1999999+0181MW1051REMSYN088AAXX  10064 42111 31995 42302 10290 20156 39333 40073 70522 81032 333 58018 81360 84075;EQDQ01  00002PRCP99
0195421110999992000101009004+30310+078020FM-12+068299999V0203201N00051090001CN0040001N1+03021+01591100421ADDAA199000091GA1011+012009089GF105991011021012501031021MA1999999093101MD1999999+0101REMSYN082AAXX  10094 42111 32696 53201 10302 20159 39310 40042 81232 333 58010 81840 85075;EQDQ01  00002PRCP99
0208421110999992000101012004+30310+078020FM-12+068299999V0203201N000512200019N0040001N1+02861+01541100461ADDAA199000091GA1011+075009019GF101991001001999999001011KA1120M+03111MA1999999093091MD1999999+0161REMSYN082AAXX  10124 42111 32996 13201 10286 20154 39309 40046 80001 333 10311 58016 81075;EQDQ01  00002PRCP99
0177421110999992000101015004+30310+078020FM-12+068299999V0200501N001012200019N0040001N1+02201+01631100741ADDAA199000091GA1001+999999999GF100991001001999999001001MA1999999093181MD1999999+0141REMSYN064AAXX  10154 42111 32996 00502 10220 20163 39318 40074 333 58014;EQDQ01  00002PRCP99
0177421110999992000101018004+30310+078020FM-12+068299999V0200501N000512200019N0040001N1+02001+01291100791ADDAA199000091GA1001+999999999GF100991001001999999001001MA1999999093171MD1999999+0101REMSYN064AAXX  10184 42111 32996 00501 10200 20129 39317 40079 333 58010;EQDQ01  00002PRCP99
0143421110999992000101100004+30310+078020FM-12+068299999V0200501N000512200019N0040001N1+01801+01181100911ADDAA199000091GF103991011051012501031001MA1999999093241REMSYN060AAXX  11004 42111 32696 30501 10180 20118 39324 40091 81530;EQDQ01  00002PRCP99
0233421110999992000101103004+30310+078020FM-12+068299999V0209999C000012200019N0040001N1+02221+01511101021ADDAA199000091GA1011+012009089GF103991011011012501031001KA1120M+03111KA2120N+01711MA1999999093461MD1999999+0121REMSYN094AAXX  11034 42111 32696 30000 10222 20151 39346 40102 81130 333 10311 20171 58012 81840 83360;EQDQ01  00002PRCP99
0195421110999992000101106004+30310+078020FM-12+068299999V0201401N000510900019N0040001N1+02801+01421100991ADDAA199000091GA1011+010509069GF105991011051012501031011MA1999999093491MD1999999+0161REMSYN082AAXX  11064 42111 32696 51401 10280 20142 39349 40099 81531 333 58016 81635 83360;EQDQ01  00002PRCP99
0214421110999992000101112004+30310+078020FM-12+068299999V0202301N000512200019N0040001N1+02601+01881100671ADDAA199000091GA1011+010509069GF103991011051012501031001KA1120M+03061MA1999999093211MD1999999+0121REMSYN088AAXX  11124 42111 32696 32301 10260 20188 39321 40067 81530 333 10306 58012 81635 83360;EQDQ01  00002PRCP99
0177421110999992000101115004+30310+078020FM-12+068299999V0200501N001012200019N0040001N1+02141+01531100871ADDAA199000091GA1001+999999999GF100991001001999999001001MA1999999093301MD1999999+0121REMSYN064AAXX  11154 42111 32996 00502 10214 20153 39330 40087 333 58012;EQDQ01  00002PRCP99
0215421110999992000101203004+30310+078020FM-12+068299999V0209999C000012200019N0040001N1+02381+01241101001ADDAA199000091GA1001+999999999GF100991001001999999001001KA1120M+03061KA2120N+01571MA1999999093471MD1999999+0011REMSYN076AAXX  12034 42111 32996 00000 10238 20124 39347 40100 333 10306 20157 58001;EQDQ01  00002PRCP99
0177421110999992000101206004+30310+078020FM-12+068299999V0202301N001012200019N0040001N1+02801+01461100931ADDAA199000091GA1001+999999999GF100991001001999999001001MA1999999093501MD1999999+0011REMSYN064AAXX  12064 42111 32996 02302 10280 20146 39350 40093 333 58001;EQDQ01  00002PRCP99
0196421110999992000101212004+30310+078020FM-12+068299999V0209999C000012200019N0040001N1+02621+01691100591ADDAA199000091GA1001+999999999GF100991001001999999001001KA1120M+03051MA1999999093161MD1999999-0051REMSYN070AAXX  12124 42111 32696 00000 10262 20169 39316 40059 333 10305 59005;EQDQ01  00002PRCP99
0177421110999992000101215004+30310+078020FM-12+068299999V0200501N000512200019N0040001N1+02141+01561100781ADDAA199000091GA1001+999999999GF100991001001999999001001MA1999999093221MD1999999-0081REMSYN064AAXX  12154 42111 32996 00501 10214 20156 39322 40078 333 59008;EQDQ01  00002PRCP99
0171421110999992000101218004+30310+078020FM-12+068299999V0200501N000512200019N0040001N1+01941+99999100781ADDAA199000091GA1001+999999999GF100991001001999999001001MA1999999093151MD1999999-0121REMSYN058AAXX  12184 42111 32996 00501 10194 39315 40078 333 59012;EQDQ01  00002PRCP99
0177421110999992000101221004+30310+078020FM-12+068299999V0200501N001012200019N0040001N1+01821+01161100701ADDAA199000091GA1001+999999999GF100991001001999999001001MA1999999093071MD1999999-0191REMSYN064AAXX  12214 42111 32996 00502 10182 20116 39307 40070 333 59019;EQDQ01  00002PRCP99
0177421110999992000101300004+30310+078020FM-12+068299999V0209999C000012200019N0040001N1+01621+01241100741ADDAA199000091GA1001+999999999GF100991001001999999001001MA1999999093061MD1999999-0241REMSYN064AAXX  13004 42111 32996 00000 10162 20124 39306 40074 333 59024;EQDQ01  00002PRCP99
0209421110999992000101303004+30310+078020FM-12+068299999V0209999C000012200019N0040001N1+99999+99999100751ADDAA199000091GA1001+999999999GF100991001001999999001001KA1120M+03051KA2120N+01541MA1999999093191MD1999999-0281REMSYN070AAXX  13034 42111 32996 00000 20123 39319 40075 333 10305 20154 59028;EQDQ01  00002PRCP99
0181421110999992000101306004+30310+078020FM-12+068299999V0202301N000512200019N0020001N1+02741+01451100611ADDAA199000091AY101061AY201061GA1001+999999999GF100991001001999999001001MA1999999093201MW1051REMSYN060AAXX  13064 42111 31995 02301 10274 20145 39320 40061 70500;EQDQ01  00002PRCP99
0196421110999992000101312004+30310+078020FM-12+068299999V0200501N000512200019N0040001N1+02661+01741100341ADDAA199000091GA1001+999999999GF100991001001999999001001KA1120M+03011MA1999999092921MD1999999-0241REMSYN070AAXX  13124 42111 32996 00501 10266 20174 39292 40034 333 10301 59024;EQDQ01  00002PRCP99
0177421110999992000101315004+30310+078020FM-12+068299999V0200501N001012200019N0040001N1+02101+01371100551ADDAA199000091GA1001+999999999GF100991001001999999001001MA1999999092981MD1999999-0241REMSYN064AAXX  13154 42111 32996 00502 10210 20137 39298 40055 333 59024;EQDQ01  00002PRCP99
0177421110999992000101321004+30310+078020FM-12+068299999V0200501N001512200019N0040001N1+01741+01061100641ADDAA199000091GA1001+999999999GF100991001001999999001001MA1999999092931MD1999999-0141REMSYN064AAXX  13214 42111 32996 00503 10174 20106 39293 40064 333 59014;EQDQ01  00002PRCP99
0199421110999992000101403004+30310+078020FM-12+068299999V0202001N015912200019N0040001N1+02221+01121100711ADDAA199000091GF101991999999999999999999KA1120M+03011KA2120N+01461MA1999999093171MD1999999-0021REMSYN076AAXX  14034 42111 32996 12031 10222 20112 39317 40071 333 10301 20146 59002;EQDQ01  00002PRCP99
0183421110999992000101406004+30310+078020FM-12+068299999V0202301N000512200019N0040001N1+02801+01341100601ADDAA199000091GA1011+012009029GF101991999999012501999999MA1999999093191MD1999999-0011REMSYN070AAXX  14064 42111 32696 12301 10280 20134 39319 40060 333 59001 81840;EQDQ01  00002PRCP99
0189421110999992000101409004+30310+078020FM-12+068299999V0203201N001012200019N0040001N1+02941+01151100371ADDAA199000091GA1011+012009029GF101991011021012501001001MA1999999093031MD1999999+0031REMSYN076AAXX  14094 42111 32696 13202 10294 20115 39303 40037 81200 333 58003 81840;EQDQ01  00002PRCP99
0220421110999992000101412004+30310+078020FM-12+068299999V0209999C000012200019N0040001N1+02581+99999999999ADDAA199000091AJ199999999999999GA1001+999999999GF100991001001999999001001IA1029KA1120M+02981MD1999999+0061REMSYN070AAXX  14124 42111 32996 00000 10258 80175 333 10298 39298 40042 58006;EQDQ01  00002PRCP99Q02  00422SNDP  
0173421110999992000101415004+30310+078020FM-12+068299999V0200501N000512200019N0040001N1+02121+01391100681ADDAA199000091GA1001+999999999GF100991001001999999001001MA1999999093121MD1810141+9999REMSYN060AAXX  14154 42111 32996 00501 10212 20139 39312 40068 58014;EQDQ01  00002PRCP99
0173421110999992000101418004+30310+078020FM-12+068299999V0200501N000512200019N0040001N1+01901+01291100761ADDAA199000091GA1001+999999999GF100991001001999999001001MA1999999093111MD1810111+9999REMSYN060AAXX  14184 42111 32996 00501 10190 20129 39311 40076 58011;EQDQ01  00002PRCP99
0177421110999992000101500004+30310+078020FM-12+068299999V0200501N000512200019N0040001N1+01701+01291100931ADDAA199000091GA1001+999999999GF100991001001999999001001MA1999999093231MD1999999+0271REMSYN064AAXX  15004 42111 32996 00501 10170 20129 39323 40093 333 58027;EQDQ01  00002PRCP99
0215421110999992000101503004+30310+078020FM-12+068299999V0209999C000012200019N0040001N1+02201+01301100951ADDAA199000091GA1001+999999999GF100991001001999999001001KA1120M+02981KA2120N+01551MA1999999093371MD1999999+0201REMSYN076AAXX  15034 42111 32996 00000 10220 20130 39337 40095 333 10298 20155 58020;EQDQ01  00002PRCP99
0163421110999992000101506004+30310+078020FM-12+068299999V0209999C000012200019N0040001N1+02721+01231100981ADDAA199000091GA1001+999999999GF100991001001999999001001MA1999999093541REMSYN064AAXX  15064 42111 32996 00000 10272 20123 39354 40098 333 5805/;EQDQ01  00002PRCP99
0177421110999992000101509004+30310+078020FM-12+068299999V0203201N001512200019N0040001N1+02921+01301100681ADDAA199000091GA1001+999999999GF100991001001999999001001MA1999999093311MD1999999+0281REMSYN064AAXX  15094 42111 32996 03203 10292 20130 39331 40068 333 58028;EQDQ01  00002PRCP99
0196421110999992000101512004+30310+078020FM-12+068299999V0203201N000512200019N0040001N1+02601+01631999999ADDAA199000091GA1001+999999999GF100991001001999999001001KA1120M+02951MA1999999093301MD1999999+0321REMSYN070AAXX  15124 42111 32996 03201 10260 20163 39330 400// 333 10295 58032;EQDQ01  00002PRCP99
0177421110999992000101515004+30310+078020FM-12+068299999V0200501N001012200019N0040001N1+02081+01381100991ADDAA199000091GA1001+999999999GF100991001001999999001001MA1999999093381MD1999999+0261REMSYN064AAXX  15154 42111 32996 00502 10208 20138 39338 40099 333 58026;EQDQ01  00002PRCP99
0156421110999992000101521004+30310+078020FM-12+068299999V0200501N001012200019N0040001N1+01881+01271101061ADDAA199000091GA1001+999999999GF100991001001999999001001MD1999999+0271REMSYN058AAXX  15214 42111 32996 00502 10188 20127 40106 333 58027;EQDQ01  00002PRCP99
0177421110999992000101600004+30310+078020FM-12+068299999V0200501N001012200019N0040001N1+01681+01301101111ADDAA199000091GA1001+999999999GF100991001001999999001001MA1999999093391MD1999999+0101REMSYN064AAXX  16004 42111 32996 00502 10168 20130 39339 40111 333 58010;EQDQ01  00002PRCP99
0215421110999992000101603004+30310+078020FM-12+068299999V0209999C000012200019N0040001N1+02221+01441101141ADDAA199000091GA1001+999999999GF100991001001999999001001KA1120M+02951KA2120N+01561MA1999999093571MD1999999+0201REMSYN076AAXX  16034 42111 32996 00000 10222 20144 39357 40114 333 10295 20156 58020;EQDQ01  00002PRCP99
0177421110999992000101606004+30310+078020FM-12+068299999V0202701N001012200019N0040001N1+02761+01411101041ADDAA199000091GA1001+999999999GF100991001001999999001001MA1999999093601MD1999999+0061REMSYN064AAXX  16064 42111 32996 02702 10276 20141 39360 40104 333 58006;EQDQ01  00002PRCP99
0177421110999992000101609004+30310+078020FM-12+068299999V0203201N000512200019N0040001N1+02921+01541100821ADDAA199000091GA1001+999999999GF100991001001999999001001MA1999999093451MD1999999+0141REMSYN064AAXX  16094 42111 32996 03201 10292 20154 39345 40082 333 58014;EQDQ01  00002PRCP99
0196421110999992000101612004+30310+078020FM-12+068299999V0209999C000012200019N0040001N1+02701+01921100841ADDAA199000091GA1001+999999999GF100991001001999999001001KA1120M+03021MA1999999093391MD1999999+0091REMSYN070AAXX  16124 42111 32996 00000 10270 20192 39339 40084 333 10302 58009;EQDQ01  00002PRCP99
0177421110999992000101615004+30310+078020FM-12+068299999V0200501N001012200019N0040001N1+02181+01641101151ADDAA199000091GA1001+999999999GF100991001001999999001001MA1999999093551MD1999999-0031REMSYN064AAXX  16154 42111 32996 00502 10218 20164 39355 40115 333 59003;EQDQ01  00002PRCP99
0177421110999992000101700004+30310+078020FM-12+068299999V0200501N000512200019N0040001N1+01581+01191101231ADDAA199000091GA1001+999999999GF100991001001999999001001MA1999999093491MD1999999+0101REMSYN064AAXX  17004 42111 32996 00501 10158 20119 39349 40123 333 58010;EQDQ01  00002PRCP99
0215421110999992000101703004+30310+078020FM-12+068299999V0203201N000512200019N0040001N1+02081+01351101151ADDAA199000091GA1001+999999999GF100991001001999999001001KA1120M+03021KA2120N+01561MA1999999093531MD1999999-0041REMSYN076AAXX  17034 42111 32996 03201 10208 20135 39353 40115 333 10302 20156 59004;EQDQ01  00002PRCP99
0177421110999992000101706004+30310+078020FM-12+068299999V0202301N000512200019N0040001N1+02861+01461100951ADDAA199000091GA1001+999999999GF100991001001999999001001MA1999999093541MD1999999-0061REMSYN064AAXX  17064 42111 32996 02301 10286 20146 39354 40095 333 59006;EQDQ01  00002PRCP99
0177421110999992000101709004+30310+078020FM-12+068299999V0202301N001012200019N0040001N1+03081+01561100761ADDAA199000091GA1001+999999999GF100991001001999999001001MA1999999093411MD1999999-0041REMSYN064AAXX  17094 42111 32996 02302 10308 20156 39341 40076 333 59004;EQDQ01  00002PRCP99
0196421110999992000101712004+30310+078020FM-12+068299999V0209999C000012200019N0040001N1+02721+01841100751ADDAA199000091GA1001+999999999GF100991001001999999001001KA1120M+03141MA1999999093331MD1999999-0061REMSYN070AAXX  17124 42111 32996 00000 10272 20184 39333 40075 333 10314 59006;EQDQ01  00002PRCP99
0177421110999992000101715004+30310+078020FM-12+068299999V0200501N001012200019N0040001N1+02201+01661101011ADDAA199000091GA1001+999999999GF100991001001999999001001MA1999999093431MD1999999-0121REMSYN064AAXX  17154 42111 32996 00502 10220 20166 39343 40101 333 59012;EQDQ01  00002PRCP99
0177421110999992000101718004+30310+078020FM-12+068299999V0200501N001012200019N0040001N1+02001+01581101021ADDAA199000091GA1001+999999999GF100991001001999999001001MA1999999093391MD1999999-0181REMSYN064AAXX  17184 42111 32996 00502 10200 20158 39339 40102 333 59018;EQDQ01  00002PRCP99
0177421110999992000101721004+30310+078020FM-12+068299999V0200501N001012200019N0040001N1+01881+01521100971ADDAA199000091GA1001+999999999GF100991001001999999001001MA1999999093311MD1999999-0191REMSYN064AAXX  17214 42111 32996 00502 10188 20152 39331 40097 333 59019;EQDQ01  00002PRCP99
0177421110999992000101800004+30310+078020FM-12+068299999V0200501N001512200019N0040001N1+01761+01431100881ADDAA199000091GA1001+999999999GF100991001001999999001001MA1999999093211MD1999999-0281REMSYN064AAXX  18004 42111 32996 00503 10176 20143 39321 40088 333 59028;EQDQ01  00002PRCP99
0215421110999992000101803004+30310+078020FM-12+068299999V0209999C000012200019N0040001N1+02161+01591100831ADDAA199000091GA1001+999999999GF100991001001999999001001KA1120M+03141KA2120N+01641MA1999999093271MD1999999-0261REMSYN076AAXX  18034 42111 32996 00000 10216 20159 39327 40083 333 10314 20164 59026;EQDQ01  00002PRCP99
0177421110999992000101806004+30310+078020FM-12+068299999V0202201N000512200019N0040001N1+02861+01691100621ADDAA199000091GA1001+999999999GF100991001001999999001001MA1999999093241MD1999999-0301REMSYN064AAXX  18064 42111 32996 02201 10286 20169 39324 40062 333 59030;EQDQ01  00002PRCP99
0189421110999992000101809004+30310+078020FM-12+068299999V0201801N000512200019N0040001N1+02981+01771100411ADDAA199000091GA1011+012009029GF101991011011012501001001MA1999999093071MD1999999-0341REMSYN076AAXX  18094 42111 32696 11801 10298 20177 39307 40041 81100 333 59034 81840;EQDQ01  00002PRCP99
0236421110999992000101812004+30310+078020FM-12+068299999V0209999C000012200019N0020001N1+02701+01961100501ADDAA199000091AY111061AY211061GA1011+012009029GF101991011011012501001001KA1120M+03121MA1999999093081MD1999999-0251MW1051REMSYN088AAXX  18124 42111 31695 10000 10270 20196 39308 40050 70511 81100 333 10312 59025 81840;EQDQ01  00002PRCP99
0177421110999992000101815004+30310+078020FM-12+068299999V0200501N000512200019N0040001N1+02221+01821100781ADDAA199000091GA1001+999999999GF100991001001999999001001MA1999999093241MD1999999-0191REMSYN064AAXX  18154 42111 32996 00501 10222 20182 39324 40078 333 59019;EQDQ01  00002PRCP99
0177421110999992000101818004+30310+078020FM-12+068299999V0200501N000512200019N0040001N1+01691+99999100801ADDAA199000091GA1001+999999999GF100991001001999999001001MA1999999093211MD1999999-0181REMSYN064AAXX  18184 42111 32996 00501 10169 20210 39321 40080 333 59018;EQDQ01  00002PRCP99
0177421110999992000101821004+30310+078020FM-12+068299999V0200501N000512200019N0040001N1+01961+01771100671ADDAA199000091GA1001+999999999GF100991001001999999001001MA1999999093071MD1999999-0241REMSYN064AAXX  18214 42111 32996 00501 10196 20177 39307 40067 333 59024;EQDQ01  00002PRCP99
0177421110999992000101900004+30310+078020FM-12+068299999V0200501N000512200019N0040001N1+01861+01501100671ADDAA199000091GA1001+999999999GF100991001001999999001001MA1999999093041MD1999999-0271REMSYN064AAXX  19004 42111 32996 00501 10186 20150 39304 40067 333 59027;EQDQ01  00002PRCP99
0243421110999992000101903004+30310+078020FM-12+068299999V0200501N000512200019N0020001N1+02161+01621100771ADDAA199000091AY101031AY201031GA1001+999999999GF100991001001999999001001KA1120M+03121KA2120N+01751MA1999999093211MD1999999-0061MW1051REMSYN082AAXX  19034 42111 31995 00501 10216 20162 39321 40077 70500 333 10312 20175 59006;EQDQ01  00002PRCP99
0217421110999992000101909004+30310+078020FM-12+068299999V0201401N001010750019N0020001N1+02761+01991100541ADDAA199000091AY111031AY211031GA1051+075009019GF105991001001999999001011MA1999999093131MD1999999+0061MW1051REMSYN082AAXX  19094 42111 31995 51402 10276 20199 39313 40054 70511 80001 333 58006 85075;EQDQ01  00002PRCP99
0236421110999992000101912004+30310+078020FM-12+068299999V0201401N000512200019N0020001N1+02561+02031100511ADDAA199000091AY121061AY221061GA1041+075009019GF104991001001999999001011KA1120M+02831MA1999999093071MD1999999-0011MW1051REMSYN088AAXX  19124 42111 31995 41401 10256 20203 39307 40051 70522 80001 333 10283 59001 84075;EQDQ01  00002PRCP99
0177421110999992000101915004+30310+078020FM-12+068299999V0200501N001012200019N0040001N1+02181+01911100791ADDAA199000091GA1001+999999999GF100991001001999999001001MA1999999093231MD1999999-0011REMSYN064AAXX  19154 42111 32996 00502 10218 20191 39323 40079 333 59001;EQDQ01  00002PRCP99
0205421110999992000101918004+30310+078020FM-12+068299999V0200501N000512200019N0020001N1+02001+01781100941ADDAA199000091AY101061AY201061GA1001+999999999GF100991001001999999001001MA1999999093311MD1999999+0101MW1051REMSYN070AAXX  19184 42111 31995 00501 10200 20178 39331 40094 70500 333 58010;EQDQ01  00002PRCP99
0205421110999992000101921004+30310+078020FM-12+068299999V0200501N000512200019N0020001N1+01941+01641100861ADDAA199000091AY101031AY201031GA1001+999999999GF100991001001999999001001MA1999999093241MD1999999+0231MW1051REMSYN070AAXX  19214 42111 32995 00501 10194 20164 39324 40086 70500 333 58023;EQDQ01  00002PRCP99
0205421110999992000102000004+30310+078020FM-12+068299999V0200501N000512200019N0020001N1+01781+01411100841ADDAA199000091AY101061AY201061GA1001+999999999GF100991001001999999001001MA1999999093171MD1999999+0131MW1051REMSYN070AAXX  20004 42111 31995 00501 10178 20141 39317 40084 70500 333 58013;EQDQ01  00002PRCP99
0243421110999992000102003004+30310+078020FM-12+068299999V0203201N000512200019N0020001N1+02141+99999100871ADDAA199000091AY101031AY201031GA1001+999999999GF100991001001999999001001KA1120M+02831KA2120N+01711MA1999999093301MD1999999+0091MW1051REMSYN082AAXX  20034 42111 31995 03201 10214 201// 39330 40087 70500 333 10283 20171 58009;EQDQ01  00002PRCP99
0173421110999992000102006004+30310+078020FM-12+068299999V0202301N000512200019N0020001N1+02661+01741100721ADDAA199000091GA1001+999999999GF100991001001999999001001MA1999999093291MD1810011+9999REMSYN060AAXX  20064 42111 31995 02301 10266 20174 39329 40072 58001;EQDQ01  00002PRCP99
0195421110999992000102009004+30310+078020FM-12+068299999V0201401N000512200019N0020001N1+02781+01911100531ADDAA199000091AY121031AY221031GF103991031001999999031001MA1999999093121MD1999999-0011MW1051REMSYN076AAXX  20094 42111 31995 31401 10278 20191 39312 40053 70522 83030 333 59001;EQDQ01  00002PRCP99
0223421110999992000102103004+30310+078020FM-12+068299999V0209999C000012200019N0020001N1+02121+01641100761ADDAA199000091AY101031AY201031GA1001+999999999GF100991001001999999001001KA1120M+02881KA2999N+01761MA1999999093201MW1051REMSYN076AAXX  21034 42111 31995 00000 10212 20164 39320 40076 70500 333 10288 20176;EQDQ01  00002PRCP99
0217421110999992000102106004+30310+078020FM-12+068299999V0201401N000512200019N0020001N1+02681+01871100601ADDAA199000091AY121061AY221061GA1011+012009029GF101991011011012501001001MA1999999093171MD1999999-0121MW1051REMSYN082AAXX  21064 42111 31695 11401 10268 20187 39317 40060 70522 81100 333 59012 81840;EQDQ01  00002PRCP99
0236421110999992000102112004+30310+078020FM-12+068299999V0201401N000512200019N0020001N1+02541+02071100471ADDAA199000091AY121061AY221061GA1031+075009019GF103991031031999999031021KA1120M+02881MA1999999093031MD1999999-0091MW1051REMSYN088AAXX  21124 42111 31995 31401 10254 20207 39303 40047 70522 83332 333 10288 59009 83075;EQDQ01  00002PRCP99
0177421110999992000102115004+30310+078020FM-12+068299999V0200501N001012200019N0020001N1+02181+01841100721ADDAA199000091GA1001+999999999GF100991001001999999001001MA1999999093161MD1999999-0091REMSYN064AAXX  21154 42111 31995 00502 10218 20184 39316 40072 333 59009;EQDQ01  00002PRCP99
0205421110999992000102118004+30310+078020FM-12+068299999V0200501N001012200019N0020001N1+02021+01711100761ADDAA199000091AY101061AY201061GA1001+999999999GF100991001001999999001001MA1999999093171MD1999999-0051MW1051REMSYN070AAXX  21184 42111 31995 00502 10202 20171 39317 40076 70500 333 59005;EQDQ01  00002PRCP99
0223421110999992000102121004+30310+078020FM-12+068299999V0200501N001012200019N0020001N1+01981+01731100751ADDAA199000091AY111031AY211031GA1021+010509069GF103991021051012501031001MA1999999093131MD1999999+0001MW1051REMSYN088AAXX  21214 42111 31695 30502 10198 20173 39313 40075 70511 82530 333 58000 82635 83360;EQDQ01  00002PRCP99
0223421110999992000102200004+30310+078020FM-12+068299999V0200501N00101036001CN0020001N1+01921+01671100761ADDAA199000091AY121061AY211061GA1031+010509069GF105991031051012501031001MA1999999093141MD1999999+0091MW1051REMSYN088AAXX  22004 42111 31695 50502 10192 20167 39314 40076 70521 83530 333 58009 83635 85360;EQDQ01  00002PRCP99
0261421110999992000102203004+30310+078020FM-12+068299999V0209999C00001090001CN0020001N1+02061+01751100941ADDAA199000091AY121031AY221031GA1021+000609059GF105991021051012501001021KA1120M+02881KA2120N+01851MA1999999093331MD1999999+0131MW1051REMSYN100AAXX  22034 42111 31695 50000 10206 20175 39333 40094 70522 82502 333 10288 20185 58013 82635 85075;EQDQ01  00002PRCP99
0223421110999992000102206004+30310+078020FM-12+068299999V0202301N00101090001CN0020001N1+02581+01951100821ADDAA199000091AY121061AY221061GA1021+012009089GF105991021011012501001021MA1999999093341MD1999999+0171MW1051REMSYN088AAXX  22064 42111 31695 52302 10258 20195 39334 40082 70522 82102 333 58017 82840 85075;EQDQ01  00002PRCP99
0223421110999992000102209004+30310+078020FM-12+068299999V0202301N001012200019N0020001N1+02801+01731100451ADDAA199000091AY121031AY221031GA1011+010509069GF104991031081012501031001MA1999999093061MD1999999+0061MW1051REMSYN088AAXX  22094 42111 31695 42302 10280 20173 39306 40045 70522 83830 333 58006 81635 83840;EQDQ01  00002PRCP99
0236421110999992000102212004+30310+078020FM-12+068299999V0209999C000012200019N0020001N1+02541+02011100461ADDAA199000091AY121061AY211061GA1021+010509059GF103991031081012501001001KA1120M+02861MA1999999093021MD1999999-0011MW1051REMSYN088AAXX  22124 42111 31695 30000 10254 20201 39302 40046 70521 83800 333 10286 59001 82635;EQDQ01  00002PRCP99
0205421110999992000102215004+30310+078020FM-12+068299999V0200501N000512200019N0020001N1+02141+01671100641ADDAA199000091AY101031AY201031GA1001+999999999GF100991001001999999001001MA1999999093081MD1999999-0081MW1051REMSYN070AAXX  22154 42111 31995 00501 10214 20167 39308 40064 70500 333 59008;EQDQ01  00002PRCP99
0205421110999992000102300004+30310+078020FM-12+068299999V0200501N000512200019N0020001N1+01701+01251100741ADDAA199000091AY101061AY201061GA1001+999999999GF100991001001999999001001MA1999999093061MD1999999-0081MW1051REMSYN070AAXX  23004 42111 31995 00501 10170 20125 39306 40074 70500 333 59008;EQDQ01  00002PRCP99
0217421110999992000102306004+30310+078020FM-12+068299999V0202701N001012200019N0020001N1+02601+01111100731ADDAA199000091AY101061AY201061GA1021+010509059GF102991021051012501001001MA1999999093271MD1999999-0071MW1051REMSYN082AAXX  23064 42111 31695 22702 10260 20111 39327 40073 70500 82500 333 59007 82635;EQDQ01  00002PRCP99
0177421110999992000102400004+30310+078020FM-12+068299999V0209999C000012200019N0040001N1+01581+01121100931ADDAA199000091GA1001+999999999GF100991001001999999001001MA1999999093211MD1999999+0251REMSYN064AAXX  24004 42111 32996 00000 10158 20112 39321 40093 333 58025;EQDQ01  00002PRCP99
0243421110999992000102403004+30310+078020FM-12+068299999V0200501N000512200019N0020001N1+02001+01251101101ADDAA199000091AY101031AY201031GA1001+999999999GF100991001001999999001001KA1120M+02861KA2120N+01511MA1999999093471MD1999999+0221MW1051REMSYN082AAXX  24034 42111 31995 00501 10200 20125 39347 40110 70500 333 10286 20151 58022;EQDQ01  00002PRCP99
0217421110999992000102406004+30310+078020FM-12+068299999V0202301N001512200019N0020001N1+02761+01611100971ADDAA199000091AY111061AY211061GA1011+012009029GF101991011011012501001001MA1999999093531MD1999999+0261MW1051REMSYN082AAXX  24064 42111 31695 12303 10276 20161 39353 40097 70511 81100 333 58026 81840;EQDQ01  00002PRCP99
0217421110999992000102409004+30310+078020FM-12+068299999V0202301N000512200019N0020001N1+02941+01611100661ADDAA199000091AY121031AY221031GA1011+012009029GF101991011011012501001001MA1999999093301MD1999999+0271MW1051REMSYN082AAXX  24094 42111 31695 12301 10294 20161 39330 40066 70522 81100 333 58027 81840;EQDQ01  00002PRCP99
0224421110999992000102412004+30310+078020FM-12+068299999V0209999C000012200019N0020001N1+02601+01981100731ADDAA199000091AY111061AY201061GA1001+999999999GF100991001001999999001001KA1120M+03021MA1999999093271MD1999999+0271MW1051REMSYN076AAXX  24124 42111 31995 00000 10260 20198 39327 40073 70510 333 10302 58027;EQDQ01  00002PRCP99
0205421110999992000102500004+30310+078020FM-12+068299999V0200501N000512200019N0020001N1+01621+01351101011ADDAA199000091AY101061AY201061GA1001+999999999GF100991001001999999001001MA1999999093301MD1999999+0091MW1051REMSYN070AAXX  25004 42111 31995 00501 10162 20135 39330 40101 70500 333 58009;EQDQ01  00002PRCP99
0243421110999992000102503004+30310+078020FM-12+068299999V0209999C000012200019N0020001N1+01941+01371101191ADDAA199000091AY101031AY201031GA1001+999999999GF100991001001999999001001KA1120M+03021KA2120N+01471MA1999999093541MD1999999+0071MW1051REMSYN082AAXX  25034 42111 31995 00000 10194 20137 39354 40119 70500 333 10302 20147 58007;EQDQ01  00002PRCP99
0205421110999992000102506004+30310+078020FM-12+068299999V0201401N000512200019N0020001N1+02641+01611101051ADDAA199000091AY101061AY201061GA1001+999999999GF100991001001999999001001MA1999999093581MD1999999+0051MW1051REMSYN070AAXX  25064 42111 31995 01401 10264 20161 39358 40105 70500 333 58005;EQDQ01  00002PRCP99
0217421110999992000102509004+30310+078020FM-12+068299999V0201401N001012200019N0020001N1+02701+01611100891ADDAA199000091AY101031AY201031GA1021+012009029GF102991021021012501001001MA1999999093441MD1999999+0141MW1051REMSYN082AAXX  25094 42111 31695 21402 10270 20161 39344 40089 70500 82200 333 58014 82840;EQDQ01  00002PRCP99
0236421110999992000102512004+30310+078020FM-12+068299999V0209999C000012200019N0020001N1+02481+01941100941ADDAA199000091AY111061AY201061GA1011+012009089GF103991999999012501999999KA1120M+02811MA1999999093441MD1999999+0171MW1051REMSYN088AAXX  25124 42111 31695 30000 10248 20194 39344 40094 70510 333 10281 58017 81840 83360;EQDQ01  00002PRCP99
0205421110999992000102515004+30310+078020FM-12+068299999V0200501N001012200019N0020001N1+02101+01661101181ADDAA199000091AY101031AY201031GA1001+999999999GF100991001001999999001001MA1999999093561MD1999999+0111MW1051REMSYN070AAXX  25154 42111 31995 00502 10210 20166 39356 40118 70500 333 58011;EQDQ01  00002PRCP99
0205421110999992000102518004+30310+078020FM-12+068299999V0200501N001512200019N0020001N1+01921+01531101231ADDAA199000091AY101061AY201061GA1001+999999999GF100991001001999999001001MA1999999093581MD1999999+0141MW1051REMSYN070AAXX  25184 42111 31995 00503 10192 20153 39358 40123 70500 333 58014;EQDQ01  00002PRCP99
0205421110999992000102521004+30310+078020FM-12+068299999V0200501N001012200019N0020001N1+01761+01461101251ADDAA199000091AY101031AY201031GA1001+999999999GF100991001001999999001001MA1999999093541MD1999999+0221MW1051REMSYN070AAXX  25214 42111 31995 00502 10176 20146 39354 40125 70500 333 58022;EQDQ01  00002PRCP99
0205421110999992000102600004+30310+078020FM-12+068299999V0200501N001012200019N0020001N1+01681+01381101231ADDAA199000091AY101061AY201061GA1001+999999999GF100991001001999999001001MA1999999093501MD1999999+0201MW1051REMSYN070AAXX  26004 42111 31995 00502 10168 20138 39350 40123 70500 333 58020;EQDQ01  00002PRCP99
0243421110999992000102603004+30310+078020FM-12+068299999V0209999C000012200019N0020001N1+02021+01461101351ADDAA199000091AY101031AY201031GA1001+999999999GF100991001001999999001001KA1120M+02811KA2120N+01611MA1999999093711MD1999999+0171MW1051REMSYN082AAXX  26034 42111 31995 00000 10202 20146 39371 40135 70500 333 10281 20161 58017;EQDQ01  00002PRCP99
0217421110999992000102606004+30310+078020FM-12+068299999V0202701N001012200019N0020001N1+02561+01621101221ADDAA199000091AY101061AY201061GA1011+012009029GF101991011011012501001001MA1999999093711MD1999999+0131MW1051REMSYN082AAXX  26064 42111 31695 12702 10256 20162 39371 40122 70500 81100 333 58013 81840;EQDQ01  00002PRCP99
0217421110999992000102609004+30310+078020FM-12+068299999V0200501N001012200019N0020001N1+02681+01691100911ADDAA199000091AY101031AY201031GA1011+030009079GF101991011001999999031001MA1999999093461MD1999999+0021MW1051REMSYN082AAXX  26094 42111 31995 10502 10268 20169 39346 40091 70500 81030 333 58002 81360;EQDQ01  00002PRCP99
0236421110999992000102612004+30310+078020FM-12+068299999V0209999C000012200019N0020001N1+02481+01941100881ADDAA199000091AY101061AY201061GA1021+010509059GF103991031081999999001001KA1120M+02811MA1999999093381MD1999999-0061MW1051REMSYN088AAXX  26124 42111 31995 30000 10248 20194 39338 40088 70500 83800 333 10281 59006 82635;EQDQ01  00002PRCP99
0205421110999992000102615004+30310+078020FM-12+068299999V0200501N001012200019N0020001N1+02061+01711101091ADDAA199000091AY101031AY201031GA1001+999999999GF100991001001999999001001MA1999999093481MD1999999-0081MW1041REMSYN070AAXX  26154 42111 31995 00502 10206 20171 39348 40109 70400 333 59008;EQDQ01  00002PRCP99
0205421110999992000102618004+30310+078020FM-12+068299999V0200501N001012200019N0020001N1+01921+01561101091ADDAA199000091AY101061AY201061GA1001+999999999GF100991001001999999001001MA1999999093461MD1999999-0121MW1041REMSYN070AAXX  26184 42111 31995 00502 10192 20156 39346 40109 70400 333 59012;EQDQ01  00002PRCP99
0205421110999992000102621004+30310+078020FM-12+068299999V0200501N001012200019N0020001N1+01781+01521101121ADDAA199000091AY101031AY201031GA1001+999999999GF100991001001999999001001MA1999999093431MD1999999-0111MW1051REMSYN070AAXX  26214 42111 31995 00502 10178 20152 39343 40112 70500 333 59011;EQDQ01  00002PRCP99
0205421110999992000102700004+30310+078020FM-12+068299999V0200501N000512200019N0020001N1+01701+01471101121ADDAA199000091AY101061AY201061GA1001+999999999GF100991001001999999001001MA1999999093401MD1999999-0101MW1051REMSYN070AAXX  27004 42111 31995 00501 10170 20147 39340 40112 70500 333 59010;EQDQ01  00002PRCP99
0243421110999992000102703004+30310+078020FM-12+068299999V0209999C000012200019N0020001N1+01981+01561101241ADDAA199000091AY101031AY201031GA1001+999999999GF100991001001999999001001KA1120M+02811KA2120N+01651MA1999999093591MD1999999-0121MW1051REMSYN082AAXX  27034 42111 31995 00000 10198 20156 39359 40124 70500 333 10281 20165 59012;EQDQ01  00002PRCP99
0205421110999992000102706004+30310+078020FM-12+068299999V0202301N000512200019N0020001N1+02481+01751101171ADDAA199000091AY101061AY201061GA1001+999999999GF100991001001999999001001MA1999999093651MD1999999-0061MW1051REMSYN070AAXX  27064 42111 31995 02301 10248 20175 39365 40117 70500 333 59006;EQDQ01  00002PRCP99
0236421110999992000102712004+30310+078020FM-12+068299999V0209999C000012200019N0020001N1+02441+01961100931ADDAA199000091AY111061AY211061GA1011+010509059GF101991011051012501001001KA1120M+02761MA1999999093431MD1999999+0051MW1051REMSYN088AAXX  27124 42111 31695 10000 10244 20196 39343 40093 70511 81500 333 10276 58005 81635;EQDQ01  00002PRCP99
0163421110999992000102715004+30310+078020FM-12+068299999V0200501N000512200019N9999999N1+02081+01741101221ADDAA199000091GA1001+999999999GF100991001001999999001001MA1999999093601REMSYN064AAXX  27154 42111 31/// 00501 10208 20174 39360 40122 333 58/12;EQDQ01  00002PRCP99
0173421110999992000102718004+30310+078020FM-12+068299999V0200501N000512200019N0020001N1+01921+01521101231ADDAA199000091GA1001+999999999GF100991001001999999001001MA1999999093581MD1810121+9999REMSYN060AAXX  27184 42111 31995 00501 10192 20152 39358 40123 58012;EQDQ01  00002PRCP99
0205421110999992000102721004+30310+078020FM-12+068299999V0200501N001012200019N0020001N1+01761+01411101251ADDAA199000091AY101031AY201031GA1001+999999999GF100991001001999999001001MA1999999093541MD1999999+0111MW1051REMSYN070AAXX  27214 42111 31995 00502 10176 20141 39354 40125 70500 333 58011;EQDQ01  00002PRCP99
0205421110999992000102800004+30310+078020FM-12+068299999V0200501N001012200019N0020001N1+01661+01321101261ADDAA199000091AY101061AY201061GA1001+999999999GF100991001001999999001001MA1999999093531MD1999999+0131MW1051REMSYN070AAXX  28004 42111 31995 00502 10166 20132 39353 40126 70500 333 58013;EQDQ01  00002PRCP99
0243421110999992000102803004+30310+078020FM-12+068299999V0201401N000512200019N0020001N1+02001+01441101401ADDAA199000091AY101031AY201031GA1001+999999999GF100991001001999999001001KA1120M+02761KA2120N+01601MA1999999093731MD1999999+0141MW1051REMSYN082AAXX  28034 42111 31995 01401 10200 20144 39373 40140 70500 333 10276 20160 58014;EQDQ01  00002PRCP99
0181421110999992000102806004+30310+078020FM-12+068299999V0202301N001012200019N0020001N1+02601+01771101271ADDAA199000091AY101061AY201061GA1001+999999999GF100991001001999999001001MA1999999093761MW1051REMSYN060AAXX  28064 42111 31995 02302 10260 20177 39376 40127 70500;EQDQ01  00002PRCP99
0223421110999992000102809004+30310+078020FM-12+068299999V0202301N001012200019N0020001N1+02801+01871100911ADDAA199000091AY111031AY211031GA1021+012009089GF103991021011012501031001MA1999999093491MD1999999+0041MW1051REMSYN088AAXX  28094 42111 31695 32302 10280 20187 39349 40091 70511 82130 333 58004 82840 83360;EQDQ01  00002PRCP99
0224421110999992000102812004+30310+078020FM-12+068299999V0209999C000012200019N0020001N1+02421+01811100901ADDAA199000091AY101061AY201061GA1001+999999999GF100991001001999999001001KA1120M+02861MA1999999093401MD1999999-0041MW1051REMSYN076AAXX  28124 42111 31995 00000 10242 20181 39340 40090 70500 333 10286 59004;EQDQ01  00002PRCP99
0205421110999992000102815004+30310+078020FM-12+068299999V0200501N001012200019N0020001N1+02001+01681101141ADDAA199000091AY101031AY201031GA1001+999999999GF100991001001999999001001MA1999999093501MD1999999+0101MW1051REMSYN070AAXX  28154 42111 31995 00502 10200 20168 39350 40114 70500 333 58010;EQDQ01  00002PRCP99
0205421110999992000102818004+30310+078020FM-12+068299999V0200501N001012200019N0020001N1+01901+01511101201ADDAA199000091AY101061AY201061GA1001+999999999GF100991001001999999001001MA1999999093521MD1999999+0061MW1051REMSYN070AAXX  28184 42111 31995 00502 10190 20151 39352 40120 70500 333 58006;EQDQ01  00002PRCP99
0205421110999992000102821004+30310+078020FM-12+068299999V0200501N001012200019N0020001N1+01781+01301101221ADDAA199000091AY101031AY201031GA1001+999999999GF100991001001999999001001MA1999999093511MD1999999-0031MW1051REMSYN070AAXX  28214 42111 31995 00502 10178 20130 39351 40122 70500 333 59003;EQDQ01  00002PRCP99
0261421110999992000102903004+30310+078020FM-12+068299999V0200501N00101036001CN0020001N1+01921+01531101551ADDAA199000091AY121031AY211031GA1021+010509069GF105991021051012501031001KA1120M+02861KA2120N+01601MA1999999093881MD1999999+0151MW1051REMSYN100AAXX  29034 42111 31695 50502 10192 20153 39388 40155 70521 82530 333 10286 20160 58015 82635 83360;EQDQ01  00002PRCP99
0245421110999992000102906004+30310+078020FM-12+068299999V0200501N00101090001CN0020001N1+02501+01801101511ADDAA199000091AY121061AY221061GA1021+012009089GA2031+030009039GF105991021011012501031011MA1999999093881MD1999999+0141MW1051REMSYN094AAXX  29064 42111 31695 50502 10250 20180 39388 40151 70522 82131 333 58014 82840 83360 85075;EQDQ01  00002PRCP99
0223421110999992000102909004+30310+078020FM-12+068299999V0209999C00001015001CN0020001N1+02541+01881101131ADDAA199000091AY121031AY221031GA1031+010509069GF105991051081012501001001MA1999999093641MD1999999+0151MW1051REMSYN088AAXX  29094 42111 31695 50000 10254 20188 39364 40113 70522 85800 333 58015 83635 83840;EQDQ01  00002PRCP99
0236421110999992000102912004+30310+078020FM-12+068299999V0200501N00051015001CN0020001N1+02341+01891101171ADDAA199000091AY121061AY221061GA1041+010509059GF105991051081012501001001KA1120M+02671MA1999999093631MD1999999+0231MW1051REMSYN088AAXX  29124 42111 31695 50501 10234 20189 39363 40117 70522 85800 333 10267 58023 84635;EQDQ01  00002PRCP99
0223421110999992000102915004+30310+078020FM-12+068299999V0200501N00151036001CN0020001N1+02121+01711101351ADDAA199000091AY121031AY221031GA1041+009009069GF107991041051008001071001MA1999999093741MD1999999+0241MW1051REMSYN088AAXX  29154 42111 31595 70503 10212 20171 39374 40135 70522 84570 333 58024 84630 86458;EQDQ01  00002PRCP99
0223421110999992000102918004+30310+078020FM-12+068299999V0200501N001512200019N0020001N1+01941+01651101411ADDAA199000091AY121061AY221061GA1021+010509069GF104991021051012501031001MA1999999093741MD1999999+0221MW1051REMSYN088AAXX  29184 42111 31695 40503 10194 20165 39374 40141 70522 82530 333 58022 82635 83360;EQDQ01  00002PRCP99
0223421110999992000102921004+30310+078020FM-12+068299999V0200501N001012200019N0020001N1+01761+01461101431ADDAA199000091AY121031AY211031GA1021+010509069GF103991021051012501031001MA1999999093711MD1999999+0201MW1051REMSYN088AAXX  29214 42111 31695 30502 10176 20146 39371 40143 70521 82530 333 58020 82635 83360;EQDQ01  00002PRCP99
0223421110999992000103000004+30310+078020FM-12+068299999V0202301N00051036001CN0020001N1+01841+01621101391ADDAA199000091AY121061AY221061GA1041+009009069GF106991041051008001071001MA1999999093701MD1999999+0061MW1051REMSYN088AAXX  30004 42111 31595 62301 10184 20162 39370 40139 70522 84570 333 58006 84630 85360;EQDQ01  00002PRCP99
0261421110999992000103003004+30310+078020FM-12+068299999V0209999C000010096019N0020001N1+02001+01781101531ADDAA199000091AY121031AY221031GA1051+009609069GF108991051051012501021999KA1120M+02671KA2120N+01731MA1999999093861MD1999999-0021MW1051REMSYN100AAXX  30034 42111 31695 80000 10200 20178 39386 40153 70522 8552/ 333 10267 20173 59002 85632 86460;EQDQ01  00002PRCP99
0223421110999992000103006004+30310+078020FM-12+068299999V0202701N00101015001CN0020001N1+02401+01891101351ADDAA199000091AY121061AY221061GA1041+010509069GF106991061081012501001001MA1999999093791MD1999999-0091MW1051REMSYN088AAXX  30064 42111 31695 62702 10240 20189 39379 40135 70522 86800 333 59009 84635 84840;EQDQ01  00002PRCP99
0245421110999992000103009004+30310+078020FM-12+068299999V0209999C000010120019N0020001N1+02481+01741101061ADDAA199000091AY121031AY221031GA1031+010509069GA2031+012009089GF107991051081012501071001MA1999999093541MD1999999-0101MW1051REMSYN094AAXX  30094 42111 31695 70000 10248 20174 39354 40106 70522 85870 333 59010 83635 83840 86360;EQDQ01  00002PRCP99
0236421110999992000103012004+30310+078020FM-12+068299999V0209999C00001015001CN0020001N1+02301+01841101001ADDAA199000091AY121061AY221061GA1041+010509059GF105991051081012501001001KA1120M+02601MA1999999093441MD1999999-0191MW1051REMSYN088AAXX  30124 42111 31695 50000 10230 20184 39344 40100 70522 85800 333 10260 59019 84635;EQDQ01  00002PRCP99
0221421110999992000103015004+30310+078020FM-12+068299999V0200501N000512200019N0020001N1+01961+01571999999ADDAA199000091AY121031AY201031GA1001+999999999GF100991001001999999001001MA1999999093441MD1999999-0301MW1051REMSYN070AAXX  30154 42111 31995 00501 10196 20157 39344 40007 70520 333 59030;EQDQ01+100073APOSLPQ02  00002PRCP99
0205421110999992000103021004+30310+078020FM-12+068299999V0200501N000512200019N0020001N1+01701+01291101061ADDAA199000091AY101031AY201031GA1001+999999999GF100991001001999999001001MA1999999093341MD1999999-0371MW1051REMSYN070AAXX  30214 42111 31995 00501 10170 20129 39334 40106 70500 333 59037;EQDQ01  00002PRCP99
0205421110999992000103100004+30310+078020FM-12+068299999V0209999C000012200019N0020001N1+01601+01291101011ADDAA199000091AY101061AY201061GA1001+999999999GF100991001001999999001001MA1999999093291MD1999999-0411MW1051REMSYN070AAXX  31004 42111 31995 00000 10160 20129 39329 40101 70500 333 59041;EQDQ01  00002PRCP99
0243421110999992000103103004+30310+078020FM-12+068299999V0209999C000012200019N0020001N1+01881+01521101191ADDAA199000091AY101031AY201031GA1001+999999999GF100991001001999999001001KA1120M+02601KA2120N+01511MA1999999093511MD1999999-0351MW1051REMSYN082AAXX  31034 42111 31995 00000 10188 20152 39351 40119 70500 333 10260 20151 59035;EQDQ01  00002PRCP99
0223421110999992000103106004+30310+078020FM-12+068299999V0209999C000019999999N0020001N1+02441+01761101051ADDAA199000091AY121061AY201061GA1021+030009039GF105991021001999999031011MA1999999093531MD1999999-0261MW1051REMSYN088AAXX  31064 42111 31995 50000 10244 20176 39353 40105 70520 82031 333 59026 82360 85075;EQDQ01  00002PRCP99
0223421110999992000103109004+30310+078020FM-12+068299999V0209999C000012200019N0020001N1+02601+01671100831ADDAA199000091AY121031AY211031GA1021+012009089GF103991021021012501001011MA1999999093351MD1999999-0191MW1051REMSYN088AAXX  31094 42111 31695 30000 10260 20167 39335 40083 70521 82201 333 59019 82840 83075;EQDQ01  00002PRCP99
0242421110999992000103112004+30310+078020FM-12+068299999V0209999C00001090001CN0020001N1+02301+01841100911ADDAA199000091AY121061AY221061GA1031+010509069GF105991031051012501001021KA1120M+02661MA1999999093351MD1999999-0091MW1051REMSYN094AAXX  31124 42111 31695 50000 10230 20184 39335 40091 70522 83502 333 10266 59009 83635 85075;EQDQ01  00002PRCP99
0217421110999992000103115004+30310+078020FM-12+068299999V0200501N000512200019N0020001N1+02001+01721101161ADDAA199000091AY121031AY201031GA1021+075009019GF102991001001999999001011MA1999999093511MD1999999+0071MW1051REMSYN082AAXX  31154 42111 32995 20501 10200 20172 39351 40116 70520 80001 333 58007 82075;EQDQ01  00002PRCP99
0205421110999992000103118004+30310+078020FM-12+068299999V0200501N001012200019N0020001N1+01881+01591101071ADDAA199000091AY101061AY201061GA1001+999999999GF100991001001999999001001MA1999999093411MD1999999+0041MW1051REMSYN070AAXX  31184 42111 31995 00502 10188 20159 39341 40107 70500 333 58004;EQDQ01  00002PRCP99
0205421110999992000110100004+30310+078020FM-12+068299999V0200501N001012200019N0020001N1+01721+01451101221ADDAA199000091AY101061AY201061GA1001+999999999GF100991001001999999001001MA1999999093511MD1999999+0221MW1051REMSYN070AAXX  01004 42111 31995 00502 10172 20145 39351 40122 70500 333 58022;EQDQ01  00002PRCP99
0243421110999992000110103004+30310+078020FM-12+068299999V0200501N000512200019N0020001N1+01901+01581101481ADDAA199000091AY101031AY201031GA1001+999999999GF100991001001999999001001KA1120M+02661KA2120N+01641MA1999999093791MD1999999+0281MW1051REMSYN082AAXX  01034 42111 31995 00501 10190 20158 39379 40148 70500 333 10266 20164 58028;EQDQ01  00002PRCP99
0217421110999992000110106004+30310+078020FM-12+068299999V0202301N000512200019N0020001N1+02461+01791101321ADDAA199000091AY111061AY211061GA1021+030009079GF102991021001999999031001MA1999999093791MD1999999+0261MW1051REMSYN082AAXX  01064 42111 31995 22301 10246 20179 39379 40132 70511 82030 333 58026 82360;EQDQ01  00002PRCP99
0195421110999992000110200004+30310+078020FM-12+068299999V0200501N00051036001CN0040001N1+01581+01411101541ADDAA199000091GA1011+010509069GF105991011051012501031001MA1999999093771MD1999999+0261REMSYN082AAXX  02004 42111 32696 50501 10158 20141 39377 40154 81530 333 58026 81635 85360;EQDQ01  00002PRCP99
0261421110999992000110203004+30310+078020FM-12+068299999V0200501N00051036001CN0020001N1+01781+01551101701ADDAA199000091AY121031AY221031GA1011+010509069GF105991021081012501031001KA1120M+02621KA2120N+01541MA1999999093961MD1999999+0171MW1051REMSYN100AAXX  02034 42111 31695 50501 10178 20155 39396 40170 70522 82830 333 10262 20154 58017 81635 85360;EQDQ01  00002PRCP99
0217421110999992000110206004+30310+078020FM-12+068299999V0200501N001012200019N0020001N1+02401+01721101571ADDAA199000091AY101061AY201061GA1021+010509059GF103991031081012501001001MA1999999093991MD1999999+0201MW1051REMSYN082AAXX  02064 42111 31695 30502 10240 20172 39399 40157 70500 83800 333 58020 82635;EQDQ01  00002PRCP99
0223421110999992000110209004+30310+078020FM-12+068299999V0201401N00051015001CN0020001N1+02681+01761101291ADDAA199000091AY121031AY211031GA1021+010509069GF105991051081012501001001MA1999999093811MD1999999+0211MW1051REMSYN088AAXX  02094 42111 31695 51401 10268 20176 39381 40129 70521 85800 333 58021 82635 83840;EQDQ01  00002PRCP99
0236421110999992000110212004+30310+078020FM-12+068299999V0209999C00001015001CN0020001N1+02301+01871101391ADDAA199000091AY121061AY221061GA1041+010509059GF105991051081012501001001KA1120M+02681MA1999999093801MD1999999+0211MW1051REMSYN088AAXX  02124 42111 31695 50000 10230 20187 39380 40139 70522 85800 333 10268 58021 84635;EQDQ01  00002PRCP99
0217421110999992000110215004+30310+078020FM-12+068299999V0200501N000512200019N0020001N1+02001+01621101581ADDAA199000091AY111031AY211031GA1021+030009079GF102991021001999999031001MA1999999093901MD1999999+0081MW1051REMSYN082AAXX  02154 42111 31995 20501 10200 20162 39390 40158 70511 82030 333 58008 82360;EQDQ01  00002PRCP99
0205421110999992000110218004+30310+078020FM-12+068299999V0200501N001012200019N0020001N1+01761+01431101681ADDAA199000091AY101061AY201061GA1001+999999999GF100991001001999999001001MA1999999093941MD1999999+0201MW1051REMSYN070AAXX  02184 42111 31995 00502 10176 20143 39394 40168 70500 333 58020;EQDQ01  00002PRCP99
0205421110999992000110221004+30310+078020FM-12+068299999V0200501N001012200019N0020001N1+01641+01331101661ADDAA199000091AY101031AY201031GA1001+999999999GF100991001001999999001001MA1999999093901MD1999999+0201MW1051REMSYN070AAXX  02214 42111 31995 00502 10164 20133 39390 40166 70500 333 58020;EQDQ01  00002PRCP99
0205421110999992000110300004+30310+078020FM-12+068299999V0200501N001012200019N0020001N1+01561+01281101651ADDAA199000091AY101061AY201061GA1001+999999999GF100991001001999999001001MA1999999093881MD1999999+0111MW1051REMSYN070AAXX  03004 42111 31995 00502 10156 20128 39388 40165 70500 333 58011;EQDQ01  00002PRCP99
0243421110999992000110303004+30310+078020FM-12+068299999V0209999C000012200019N0020001N1+01841+01441101721ADDAA199000091AY101031AY201031GA1001+999999999GF100991001001999999001001KA1120M+02681KA2120N+01471MA1999999094011MD1999999+0051MW1051REMSYN082AAXX  03034 42111 31995 00000 10184 20144 39401 40172 70500 333 10268 20147 58005;EQDQ01  00002PRCP99
0205421110999992000110306004+30310+078020FM-12+068299999V0203201N000512200019N0020001N1+02441+01591101591ADDAA199000091AY101061AY201061GA1001+999999999GF100991001001999999001001MA1999999094041MD1999999+0051MW1051REMSYN070AAXX  03064 42111 31995 03201 10244 20159 39404 40159 70500 333 58005;EQDQ01  00002PRCP99
0223421110999992000110309004+30310+078020FM-12+068299999V0202301N00051036001CN0020001N1+02541+01741101431ADDAA199000091AY121031AY201031GA1011+010509069GF105991021081012501031001MA1999999093911MD1999999+0101MW1051REMSYN088AAXX  03094 42111 31695 52301 10254 20174 39391 40143 70520 82830 333 58010 81635 84360;EQDQ01  00002PRCP99
0224421110999992000110312004+30310+078020FM-12+068299999V0202301N000512200019N0020001N1+02281+01791101391ADDAA199000091AY111061AY201061GA1001+999999999GF100991001001999999001001KA1120M+02571MA1999999093801MD1999999+0001MW1051REMSYN076AAXX  03124 42111 31995 02301 10228 20179 39380 40139 70510 333 10257 58000;EQDQ01  00002PRCP99
0205421110999992000110315004+30310+078020FM-12+068299999V0209999C000012200019N0020001N1+01921+01631101561ADDAA199000091AY101031AY201031GA1001+999999999GF100991001001999999001001MA1999999093891MD1999999-0011MW1051REMSYN070AAXX  03154 42111 31995 00000 10192 20163 39389 40156 70500 333 59001;EQDQ01  00002PRCP99
0205421110999992000110318004+30310+078020FM-12+068299999V0200501N000512200019N0020001N1+01841+01511101661ADDAA199000091AY101061AY201061GA1001+999999999GF100991001001999999001001MA1999999093951MD1999999+0011MW1051REMSYN070AAXX  03184 42111 31995 00501 10184 20151 39395 40166 70500 333 58001;EQDQ01  00002PRCP99
0205421110999992000110400004+30310+078020FM-12+068299999V0200501N000512200019N0020001N1+01681+01381101611ADDAA199000091AY101061AY201061GA1001+999999999GF100991001001999999001001MA1999999093861MD1999999-0021MW1051REMSYN070AAXX  04004 42111 31995 00501 10168 20138 39386 40161 70500 333 59002;EQDQ01  00002PRCP99
0243421110999992000110403004+30310+078020FM-12+068299999V0209999C000012200019N0020001N1+01841+01511101371ADDAA199000091AY101031AY201031GA1001+999999999GF100991001001999999001001KA1120M+02571KA2120N+01601MA1999999094021MD1999999+0011MW1051REMSYN082AAXX  04034 42111 31995 00000 10184 20151 39402 40137 70500 333 10257 20160 58001;EQDQ01  00002PRCP99
0233421110999992000110406004+30310+078020FM-12+068299999V0209999C000012200019N0020001N1+02401+01751999999ADDAA199000091AY111061AY201061GA1031+075009019GF103991001001999999001011MA1999999094051MD1999999+0011MW1051REMSYN082AAXX  04064 42111 31995 30000 10240 20175 39405 40263 70510 80001 333 58001 83075;EQDQ01+102633APOSLPQ02  00002PRCP99
0223421110999992000110409004+30310+078020FM-12+068299999V0201401N00101036001CN0020001N1+02561+01761101361ADDAA199000091AY121031AY221031GA1031+012009089GF106991041081012501031001MA1999999093851MD1999999-0061MW1051REMSYN088AAXX  04094 42111 31695 61402 10256 20176 39385 40136 70522 84830 333 59006 83840 85360;EQDQ01  00002PRCP99
0242421110999992000110412004+30310+078020FM-12+068299999V0200501N000510090019N0020001N1+02261+01901101381ADDAA199000091AY121061AY221061GA1051+009009069GF108991061081008001071999KA1120M+02611MA1999999093791MD1999999-0011MW1051REMSYN094AAXX  04124 42111 31595 80501 10226 20190 39379 40138 70522 8687/ 333 10261 59001 85630 86460;EQDQ01  00002PRCP99
0205421110999992000110415004+30310+078020FM-12+068299999V0209999C000012200019N0020001N1+02001+01751101531ADDAA199000091AY101031AY201031GA1001+999999999GF100991001001999999001001MA1999999093861MD1999999-0031MW1051REMSYN070AAXX  04154 42111 31995 00000 10200 20175 39386 40153 70500 333 59003;EQDQ01  00002PRCP99
0205421110999992000110418004+30310+078020FM-12+068299999V0200501N001012200019N0020001N1+01821+01561101561ADDAA199000091AY101061AY201061GA1001+999999999GF100991001001999999001001MA1999999093871MD1999999-0081MW1051REMSYN070AAXX  04184 42111 31995 00502 10182 20156 39387 40156 70500 333 59008;EQDQ01  00002PRCP99
0205421110999992000110421004+30310+078020FM-12+068299999V0200501N001012200019N0020001N1+01741+01441101401ADDAA199000091AY101031AY201031GA1001+999999999GF100991001001999999001001MA1999999093691MD1999999-0141MW1051REMSYN070AAXX  04214 42111 31995 00502 10174 20144 39369 40140 70500 333 59014;EQDQ01  00002PRCP99
0205421110999992000110500004+30310+078020FM-12+068299999V0209999C000012200019N0020001N1+01681+01411101401ADDAA199000091AY101061AY201061GA1001+999999999GF100991001001999999001001MA1999999093671MD1999999-0191MW1051REMSYN070AAXX  05004 42111 31995 00000 10168 20141 39367 40140 70500 333 59019;EQDQ01  00002PRCP99
0223421110999992000110506004+30310+078020FM-12+068299999V0202301N001019999999N0020001N1+02301+01781101371ADDAA199000091AY121061AY211061GA1021+030009039GF105991021001999999031011MA1999999093781MD1999999-0271MW1051REMSYN088AAXX  05064 42111 31995 52302 10230 20178 39378 40137 70521 82031 333 59027 82360 85075;EQDQ01  00002PRCP99
0223421110999992000110509004+30310+078020FM-12+068299999V0203201N00101220001CN0020001N1+02501+01691101031ADDAA199000091AY121031AY221031GA1031+012009089GF105991031021012501001011MA1999999093511MD1999999-0341MW1051REMSYN088AAXX  05094 42111 31695 53202 10250 20169 39351 40103 70522 83201 333 59034 83840 85075;EQDQ01  00002PRCP99
0242421110999992000110512004+30310+078020FM-12+068299999V0209999C000010105019N0020001N1+02201+01771101011ADDAA199000091AY121061AY221061GA1051+010509069GF107991051051012501071001KA1120M+02551MA1999999093431MD1999999-0361MW1051REMSYN094AAXX  05124 42111 31695 70000 10220 20177 39343 40101 70522 85570 333 10255 59036 85635 86460;EQDQ01  00002PRCP99
0217421110999992000110518004+30310+078020FM-12+068299999V0200501N000512200019N0020001N1+01781+01521101131ADDAA199000091AY111061AY201061GA1021+075009019GF102991001001999999001011MA1999999093451MD1999999-0421MW1051REMSYN082AAXX  05184 42111 31995 20501 10178 20152 39345 40113 70510 80001 333 59042 82075;EQDQ01  00002PRCP99
0205421110999992000110521004+30310+078020FM-12+068299999V0200501N000512200019N0020001N1+01661+01321101071ADDAA199000091AY101031AY201031GA1001+999999999GF100991001001999999001001MA1999999093351MD1999999-0341MW1051REMSYN070AAXX  05214 42111 31995 00501 10166 20132 39335 40107 70500 333 59034;EQDQ01  00002PRCP99
0205421110999992000110600004+30310+078020FM-12+068299999V0200501N000512200019N0020001N1+01561+99999100971ADDAA199000091AY101061AY201061GA1001+999999999GF100991001001999999001001MA1999999093251MD1999999-0421MW1051REMSYN070AAXX  06004 42111 31995 00501 10156 2016/ 39325 40097 70500 333 59042;EQDQ01  00002PRCP99
0243421110999992000110603004+30310+078020FM-12+068299999V0209999C000012200019N0020001N1+01761+01461101141ADDAA199000091AY101031AY201031GA1001+999999999GF100991001001999999001001KA1120M+02551KA2120N+01511MA1999999093451MD1999999-0381MW1051REMSYN082AAXX  06034 42111 31995 00000 10176 20146 39345 40114 70500 333 10255 20151 59038;EQDQ01  00002PRCP99
0223421110999992000110606004+30310+078020FM-12+068299999V0203201N000519999999N0020001N1+02361+01641100971ADDAA199000091AY121061AY201061GA1011+030009039GF105991011001999999031011MA1999999093441MD1999999-0341MW1051REMSYN088AAXX  06064 42111 31995 53201 10236 20164 39344 40097 70520 81031 333 59034 81360 85075;EQDQ01  00002PRCP99
0223421110999992000110609004+30310+078020FM-12+068299999V0202701N000512200019N0020001N1+02441+01591100761ADDAA199000091AY121031AY221031GA1021+010509069GF104991041081012501001001MA1999999093281MD1999999-0231MW1051REMSYN088AAXX  06094 42111 31695 42701 10244 20159 39328 40076 70522 84800 333 59023 82635 83840;EQDQ01  00002PRCP99
0236421110999992000110612004+30310+078020FM-12+068299999V0209999C000012200019N0020001N1+02261+01801999999ADDAA199000091AY121061AY221061GA1021+010509059GF103991031081012501001001KA1120M+02561MA1999999093261MD1999999-0171MW1051REMSYN088AAXX  06124 42111 31695 30000 10226 20180 39326 4/080 70522 83800 333 10256 59017 82635;EQDQ01  00002PRCP99
0223421110999992000110615004+30310+078020FM-12+068299999V0200501N001012200019N0020001N1+01861+01571101061ADDAA199000091AY111031AY211031GA1021+030009039GF103991021001999999031011MA1999999093401MD1999999-0061MW1051REMSYN088AAXX  06154 42111 31995 30502 10186 20157 39340 40106 70511 82031 333 59006 82360 83075;EQDQ01  00002PRCP99
0205421110999992000110618004+30310+078020FM-12+068299999V0200501N001012200019N0020001N1+01741+01441101171ADDAA199000091AY101061AY201061GA1001+999999999GF100991001001999999001001MA1999999093481MD1999999+0031MW1051REMSYN070AAXX  06184 42111 31995 00502 10174 20144 39348 40117 70500 333 58003;EQDQ01  00002PRCP99
0205421110999992000110621004+30310+078020FM-12+068299999V0200501N001012200019N0020001N1+01621+01381101161ADDAA199000091AY101031AY201031GA1001+999999999GF100991001001999999001001MA1999999093441MD1999999+0091MW1051REMSYN070AAXX  06214 42111 31995 00502 10162 20138 39344 40116 70500 333 58009;EQDQ01  00002PRCP99
0171421110999992000110700004+30310+078020FM-12+068299999V0200501N000512200019N0020001N1+01501+01331101261ADDAA199000091AY111061AY211061GF102991021001017501031001MA1999999093491MW1051REMSYN066AAXX  07004 42111 31795 20501 10150 20133 39349 40126 70511 82030;EQDQ01  00002PRCP99
0243421110999992000110703004+30310+078020FM-12+068299999V0209999C000012200019N0020001N1+01761+01461101311ADDAA199000091AY101031AY201031GA1001+999999999GF100991001001999999001001KA1120M+02561KA2120N+01461MA1999999093601MD1999999+0151MW1051REMSYN082AAXX  07034 42111 31995 00000 10176 20146 39360 40131 70500 333 10256 20146 58015;EQDQ01  00002PRCP99
0205421110999992000110706004+30310+078020FM-12+068299999V0201801N000512200019N0020001N1+02421+01601101201ADDAA199000091AY101061AY201061GA1001+999999999GF100991001001999999001001MA1999999093681MD1999999+0241MW1051REMSYN070AAXX  07064 42111 31995 01801 10242 20160 39368 40120 70500 333 58024;EQDQ01  00002PRCP99
0217421110999992000110709004+30310+078020FM-12+068299999V0202301N000512200019N0020001N1+02581+01461100951ADDAA199000091AY111031AY201031GA1031+075009019GF103991001001999999001011MA1999999093471MD1999999+0211MW1051REMSYN082AAXX  07094 42111 31995 32301 10258 20146 39347 40095 70510 80001 333 58021 83075;EQDQ01  00002PRCP99
0224421110999992000110712004+30310+078020FM-12+068299999V0209999C000012200019N0020001N1+02221+01581101021ADDAA199000091AY111061AY201061GA1001+999999999GF100991001001999999001001KA1120M+02671MA1999999093461MD1999999+0201MW1051REMSYN076AAXX  07124 42111 31995 00000 10222 20158 39346 40102 70510 333 10267 58020;EQDQ01  00002PRCP99
0205421110999992000110715004+30310+078020FM-12+068299999V0200501N000512200019N0020001N1+01821+01491101301ADDAA199000091AY101031AY201031GA1001+999999999GF100991001001999999001001MA1999999093621MD1999999+0221MW1051REMSYN070AAXX  07154 42111 31995 00501 10182 20149 39362 40130 70500 333 58022;EQDQ01  00002PRCP99
0205421110999992000110718004+30310+078020FM-12+068299999V0200501N000512200019N0020001N1+01701+01361101401ADDAA199000091AY101061AY201061GA1001+999999999GF100991001001999999001001MA1999999093671MD1999999-0191MW1051REMSYN070AAXX  07184 42111 31995 00501 10170 20136 39367 40140 70500 333 59019;EQDQ01  00002PRCP99
0205421110999992000110721004+30310+078020FM-12+068299999V0200501N000512200019N0020001N1+01601+01251101371ADDAA199000091AY101031AY201031GA1001+999999999GF100991001001999999001001MA1999999093641MD1999999+0201MW1051REMSYN070AAXX  07214 42111 31995 00501 10160 20125 39364 40137 70500 333 58020;EQDQ01  00002PRCP99
0205421110999992000110800004+30310+078020FM-12+068299999V0200501N000512200019N0020001N1+01521+01251101391ADDAA199000091AY101061AY201061GA1001+999999999GF100991001001999999001001MA1999999093631MD1999999+0141MW1051REMSYN070AAXX  08004 42111 31995 00501 10152 20125 39363 40139 70500 333 58014;EQDQ01  00002PRCP99
0217421110999992000110806004+30310+078020FM-12+068299999V0202301N001012200019N0020001N1+02581+01611101311ADDAA199000091AY121061AY211061GA1041+075009019GF104991001001999999001021MA1999999093801MD1999999+0121MW1051REMSYN082AAXX  08064 42111 31995 42302 10258 20161 39380 40131 70521 80002 333 58012 84075;EQDQ01  00002PRCP99
0245421110999992000110809004+30310+078020FM-12+068299999V0203201N001010300019N0020001N1+02701+01411101111ADDAA199000091AY121031AY221031GA1021+012009089GA2031+030009039GF106991021011012501031011MA1999999093641MD1999999+0171MW1051REMSYN094AAXX  08094 42111 31695 63202 10270 20141 39364 40111 70522 82131 333 58017 82840 83360 85075;EQDQ01  00002PRCP99
0264421110999992000110812004+30310+078020FM-12+068299999V0203601N00051090001CN0020001N1+02301+01531101121ADDAA199000091AY121061AY221061GA1011+012009089GA2031+030009039GF105991011011012501031011KA1120M+02761MA1999999093551MD1999999+0091MW1051REMSYN100AAXX  08124 42111 31695 53601 10230 20153 39355 40112 70522 81131 333 10276 58009 81840 83360 85075;EQDQ01  00002PRCP99
0223421110999992000110815004+30310+078020FM-12+068299999V0200501N001019999999N0020001N1+01901+01211101361ADDAA199000091AY121031AY221031GA1021+030009039GF105991021001999999031021MA1999999093681MD1999999+0061MW1051REMSYN088AAXX  08154 42111 31995 50502 10190 20121 39368 40136 70522 82032 333 58006 82360 84075;EQDQ01  00002PRCP99
0195421110999992000110818004+30310+078020FM-12+068299999V0200501N001019999999N0040001N1+01721+01081101371ADDAA199000091GA1031+030009039GF106991031001999999051021MA1999999093661MD1999999-0011REMSYN082AAXX  08184 42111 32996 60502 10172 20108 39366 40137 83052 333 59001 83360 86075;EQDQ01  00002PRCP99
0177421110999992000110900004+30310+078020FM-12+068299999V0200501N000512200019N0040001N1+01421+00941101331ADDAA199000091GA1001+999999999GF100991001001999999001001MA1999999093541MD1999999-0091REMSYN064AAXX  09004 42111 32996 00501 10142 20094 39354 40133 333 59009;EQDQ01  00002PRCP99
0215421110999992000110903004+30310+078020FM-12+068299999V0203201N000512200019N0040001N1+01841+01181101371ADDAA199000091GA1001+999999999GF100991001001999999001001KA1120M+02761KA2120N+01371MA1999999093691MD1999999-0191REMSYN076AAXX  09034 42111 32996 03201 10184 20118 39369 40137 333 10276 20137 59019;EQDQ01  00002PRCP99
0177421110999992000110906004+30310+078020FM-12+068299999V0202301N001012200019N0040001N1+02621+01221101121ADDAA199000091GA1001+999999999GF100991001001999999001001MA1999999093651MD1999999-0151REMSYN064AAXX  09064 42111 32996 02302 10262 20122 39365 40112 333 59015;EQDQ01  00002PRCP99
0177421110999992000110909004+30310+078020FM-12+068299999V0203201N001012200019N0040001N1+02761+01111100891ADDAA199000091GA1001+999999999GF100991001001999999001001MA1999999093471MD1999999-0171REMSYN064AAXX  09094 42111 32996 03202 10276 20111 39347 40089 333 59017;EQDQ01  00002PRCP99
0196421110999992000110912004+30310+078020FM-12+068299999V0203201N000512200019N0040001N1+02261+01451100981ADDAA199000091GA1001+999999999GF100991001001999999001001KA1120M+02781MA1999999093421MD1999999-0131REMSYN070AAXX  09124 42111 32996 03201 10226 20145 39342 40098 333 10278 59013;EQDQ01  00002PRCP99
0162421110999992000110915004+30310+078020FM-12+068299999V0200501N001012200019N0040001N1+01841+01181101251ADDAA199000091GA1001+999999999GF100991001001999999001001MA1999999093571REMSYN063AAXX  09154 42111 32996 00502 10184 20118 39357 40125 333 5901;EQDQ01  00002PRCP99
0177421110999992000110918004+30310+078020FM-12+068299999V0200501N000512200019N0040001N1+01641+01111101191ADDAA199000091GA1001+999999999GF100991001001999999001001MA1999999093471MD1999999-0191REMSYN064AAXX  09184 42111 32996 00501 10164 20111 39347 40119 333 59019;EQDQ01  00002PRCP99
0177421110999992000110921004+30310+078020FM-12+068299999V0203201N000512200019N0040001N1+01401+00921101221ADDAA199000091GA1001+999999999GF100991001001999999001001MA1999999093421MD1999999-0161REMSYN064AAXX  09214 42111 32996 03201 10140 20092 39342 40122 333 59016;EQDQ01  00002PRCP99
0177421110999992000111000004+30310+078020FM-12+068299999V0209999C000012200019N0040001N1+01381+01011101191ADDAA199000091GA1001+999999999GF100991001001999999001001MA1999999093391MD1999999-0151REMSYN064AAXX  10004 42111 32996 00000 10138 20101 39339 40119 333 59015;EQDQ01  00002PRCP99
0195421110999992000111003004+30310+078020FM-12+068299999V0209999C000012200019N0040001N1+01701+01221101221ADDAA199000091GA1001+999999999GF100991001001999999001001KA1120M+02781KA2999N+01221MA1999999093501REMSYN070AAXX  10034 42111 32996 00000 10170 20122 39350 40122 333 10278 20122;EQDQ01  00002PRCP99
0205421110999992000111006004+30310+078020FM-12+068299999V0201401N000512200019N0020001N1+02501+01151101071ADDAA199000091AY101061AY201061GA1001+999999999GF100991001001999999001001MA1999999093581MD1999999-0071MW1051REMSYN070AAXX  10064 42111 31995 01401 10250 20115 39358 40107 70500 333 59007;EQDQ01  00002PRCP99
0189421110999992000111009004+30310+078020FM-12+068299999V0202301N001012200019N0040001N1+02661+01011100881ADDAA199000091GA1021+075009019GF102991001001999999001011MA1999999093431MD1999999-0041REMSYN076AAXX  10094 42111 32996 22302 10266 20101 39343 40088 80001 333 59004 82075;EQDQ01  00002PRCP99
0214421110999992000111012004+30310+078020FM-12+068299999V0209999C000012200019N0040001N1+02141+01341101051ADDAA199000091GA1011+030009039GF104991011001999999031011KA1120M+02751MA1999999093471MD1999999+0051REMSYN088AAXX  10124 42111 32996 40000 10214 20134 39347 40105 81031 333 10275 58005 81360 83075;EQDQ01  00002PRCP99
0195421110999992000111015004+30310+078020FM-12+068299999V0200501N001012200019N0040001N1+01721+01271101311ADDAA199000091GA1021+030009039GF103991021001999999031011MA1999999093601MD1999999+0031REMSYN082AAXX  10154 42111 32996 30502 10172 20127 39360 40131 82031 333 58003 82360 83075;EQDQ01  00002PRCP99
0217421110999992000111018004+30310+078020FM-12+068299999V0200501N00051090001CN0040001N1+01601+01061101441ADDAA199000091GA1021+010509069GA2031+030009039GF105991021051012501031011MA1999999093681MD1999999+0211REMSYN088AAXX  10184 42111 32696 50501 10160 20106 39368 40144 82531 333 58021 82635 83360 85075;EQDQ01  00002PRCP99
0195421110999992000111100004+30310+078020FM-12+068299999V0200501N000512200019N0040001N1+01301+01081101581ADDAA199000091GA1021+030009039GF104991021001999999031011MA1999999093721MD1999999+0331REMSYN082AAXX  11004 42111 32996 40501 10130 20108 39372 40158 82031 333 58033 82360 84075;EQDQ01  00002PRCP99
0205421110999992000111103004+30310+078020FM-12+068299999V0209999C000012200019N0040001N1+01721+01121101531ADDAA199000091GF102991001001999999001011KA1120M+02751KA2120N+01201MA1999999093811MD1999999+0311REMSYN082AAXX  11034 42111 32996 20000 10172 20112 39381 40153 80001 333 10275 20120 58031;EQDQ01  00002PRCP99
0217421110999992000111106004+30310+078020FM-12+068299999V0202301N001012200019N0020001N1+02421+01131101381ADDAA199000091AY111061AY201061GA1021+075009019GF102991001001999999001021MA1999999093851MD1999999+0271MW1051REMSYN082AAXX  11064 42111 31995 22302 10242 20113 39385 40138 70510 80002 333 58027 82075;EQDQ01  00002PRCP99
0195421110999992000111109004+30310+078020FM-12+068299999V0202001N015419999999N0040001N1+02601+01241101141ADDAA199000091GA1011+030009039GF105991011001999999031021MA1999999093651MD1999999+0221REMSYN082AAXX  11094 42111 32996 52030 10260 20124 39365 40114 81032 333 58022 81360 85075;EQDQ01  00002PRCP99
0202421110999992000111112004+30310+078020FM-12+068299999V0209999C000019999999N0020001N1+02121+01321101181ADDAA199000091AY121061AY221061GA1021+030009039GF105991021001999999031021MD1999999+0111MW1051REMSYN082AAXX  11124 42111 31995 50000 10212 20132 40118 70522 82032 333 58011 82360 85075;EQDQ01  00002PRCP99
0195421110999992000111115004+30310+078020FM-12+068299999V0200501N000519999999N0040001N1+01721+01311101361ADDAA199000091GA1021+030009039GF105991021001999999031011MA1999999093651MD1999999+0051REMSYN082AAXX  11154 42111 32996 50501 10172 20131 39365 40136 82031 333 58005 82360 85075;EQDQ01  00002PRCP99
0233421110999992000111203004+30310+078020FM-12+068299999V0200501N00051036001CN0040001N1+01721+01381101261ADDAA199000091GA1021+010509069GF107991021051012501071001KA1120M+01721KA2120N+01471MA1999999093551MD1999999-0271REMSYN094AAXX  12034 42111 32696 70501 10172 20138 39355 40126 82570 333 10172 20147 59027 82635 86460;EQDQ01  00002PRCP99
0233421110999992000111206004+30310+078020FM-12+068299999V0209999C000010300019N0020001N1+02181+01461101201ADDAA199000091AY121061AY221061GA1061+030009019GF107991071001999999071999MA1999999093601MD1999999-0211MW1051REMSYN082AAXX  12064 42111 31995 70000 10218 20146 39360 40120 70522 87070 333 59021 86460;EQDQ01+000002SCOHCGQ02  00002PRCP99
0223421110999992000111209004+30310+078020FM-12+068299999V0202301N00051036001CN0020001N1+02161+01441101041ADDAA199000091AY121031AY221031GA1031+010509069GF106991031051012501031001MA1999999093461MD1999999-0191MW1051REMSYN088AAXX  12094 42111 31695 62301 10216 20144 39346 40104 70522 83530 333 59019 83635 85360;EQDQ01  00002PRCP99
0214421110999992000111212004+30310+078020FM-12+068299999V0203201N00051036001CN0040001N1+01921+01531100681ADDAA199000091GA1041+010509069GF107991041051012501071001KA1120M+02181MA1999999093321MD1999999-0261REMSYN088AAXX  12124 42111 32696 73201 10192 20153 39332 40068 84570 333 10218 59026 84635 86460;EQDQ01  00002PRCP99
0256421110999992000111215004+30310+078020FM-12+068299999V0200501N001010090019N0040001N1+01801+01471101322ADDAA100000791AA212999999AY161031AY221031GA1061+009009069GF108991061051008001021999MA1999999093611MD1999999-0041MW1021REMSYN094AAXX  12154 42111 21596 80502 10180 20147 39361 40132 70262 8652/ 333 59004 6990/ 86630 87460;EQDQ01+101323APOSLPQ02  99992PRCP12
0220421110999992000111218004+30310+078020FM-12+068299999V0200501N00101036001CN0040001N1+01521+01171101231ADDAA100000791AA215999999AY161061AY221061GA1021+009609069GF107991021051012501051001MA1999999093491MW1021REMSYN088AAXX  12184 42111 21696 70502 10152 20117 39349 40123 70262 82550 333 6990/ 82632 86360;EQDQ01  99992PRCP15
0212421110999992000111221004+30310+078020FM-12+068299999V0200501N001012200019N0040001N1+01301+00971101261ADDAA102000791AA218999999GA1011+010509069GF103991011051012501051001MA1999999093461MD1999999-0021REMSYN088AAXX  12214 42111 22696 30502 10130 20097 39346 40126 81550 333 59002 69906 81635 83360;EQDQ01  99992PRCP18
0206421110999992000111300004+30310+078020FM-12+068299999V0200501N000512200019N0040001N1+01261+00921101221ADDAA100000791AA221999999GA1021+030009079GF102991021001999999051001MA1999999093351MD1999999-0031REMSYN082AAXX  13004 42111 22996 20501 10126 20092 39335 40122 82050 333 59003 6990/ 82360;EQDQ01  99992PRCP21
0203421110999992000111303004+30310+078020FM-12+068299999V0200701N000512200019N0040001N1+01701+00891101281ADDGA1011+012009089GF104991021081012501031001KA1120M+02181KA2120N+01221MA1999999093551MD1999999+0001REMSYN094AAXX  13034 42111 22696 40701 10170 20089 39355 40128 82830 333 10218 20122 58000 81840 83360;
0149421110999992000111306004+30310+078020FM-12+068299999V0209999C000012200019N0040001N1+02341+01271101131ADDAA199000091GF102991021081012501041001MA1999999093591REMSYN066AAXX  13064 42111 32696 20000 10234 20127 39359 40113 59001 82840;EQDQ01  00002PRCP99
0189421110999992000111309004+30310+078020FM-12+068299999V0203201N001012200019N0040001N1+02541+01291100851ADDAA199000091GA1021+012009029GF102991021021012501001001MA1999999093371MD1999999+0051REMSYN076AAXX  13094 42111 32696 23202 10254 20129 39337 40085 82200 333 58005 82840;EQDQ01  00002PRCP99
0214421110999992000111312004+30310+078020FM-12+068299999V0209999C000012200019N0040001N1+02141+01531100921ADDAA199000091GA1021+012009089GF104991021021012501031001KA1120M+02631MA1999999093341MD1999999+0021REMSYN088AAXX  13124 42111 32696 40000 10214 20153 39334 40092 82230 333 10263 58002 82840 83360;EQDQ01  00002PRCP99
0189421110999992000111318004+30310+078020FM-12+068299999V0203201N000512200019N0040001N1+01461+00901101341ADDAA199000091GA1041+030009079GF104991041001999999031001MA1999999093551MD1999999+0061REMSYN076AAXX  13184 42111 31996 43201 10146 20090 39355 40134 84030 333 58006 84360;EQDQ01  00002PRCP99
0177421110999992000111400004+30310+078020FM-12+068299999V0200501N000512200019N0040001N1+01161+00891101441ADDAA199000091GA1001+999999999GF100991001001999999001001MA1999999093571MD1999999+0181REMSYN064AAXX  14004 42111 32996 00501 10116 20089 39357 40144 333 58018;EQDQ01  00002PRCP99
0215421110999992000111403004+30310+078020FM-12+068299999V0209999C000012200019N0040001N1+01481+01201101441ADDAA199000091GA1001+999999999GF100991001001999999001001KA1120M+02631KA2120N+01121MA1999999093651MD1999999+0101REMSYN076AAXX  14034 42111 32996 00000 10148 20120 39365 40144 333 10263 20112 58010;EQDQ01  00002PRCP99
0177421110999992000111406004+30310+078020FM-12+068299999V0201401N000512200019N0040001N1+02341+01111101151ADDAA199000091GA1001+999999999GF100991001001999999001001MA1999999093611MD1999999+0021REMSYN064AAXX  14064 42111 32996 01401 10234 20111 39361 40115 333 58002;EQDQ01  00002PRCP99
0177421110999992000111409004+30310+078020FM-12+068299999V0203201N001012200019N0040001N1+02621+00701100941ADDAA199000091GA1001+999999999GF100991001001999999001001MA1999999093491MD1999999+0121REMSYN064AAXX  14094 42111 32996 03202 10262 20070 39349 40094 333 58012;EQDQ01  00002PRCP99
0196421110999992000111412004+30310+078020FM-12+068299999V0209999C000012200019N0040001N1+02101+01221101141ADDAA199000091GA1001+999999999GF100991001001999999001001KA1120M+02661MA1999999093521MD1999999+0181REMSYN070AAXX  14124 42111 32996 00000 10210 20122 39352 40114 333 10266 58018;EQDQ01  00002PRCP99
0177421110999992000111415004+30310+078020FM-12+068299999V0200501N001512200019N0040001N1+01581+01001101361ADDAA199000091GA1001+999999999GF100991001001999999001001MA1999999093601MD1999999+0111REMSYN064AAXX  14154 42111 32996 00503 10158 20100 39360 40136 333 58011;EQDQ01  00002PRCP99
0177421110999992000111418004+30310+078020FM-12+068299999V0200501N001012200019N0040001N1+01421+00851101391ADDAA199000091GA1001+999999999GF100991001001999999001001MA1999999093601MD1999999+0051REMSYN064AAXX  14184 42111 32996 00502 10142 20085 39360 40139 333 58005;EQDQ01  00002PRCP99
0177421110999992000111421004+30310+078020FM-12+068299999V0200501N001012200019N0040001N1+01301+00841101371ADDAA199000091GA1001+999999999GF100991001001999999001001MA1999999093531MD1999999+0001REMSYN064AAXX  14214 42111 32996 00502 10130 20084 39353 40137 333 58000;EQDQ01  00002PRCP99
0177421110999992000111500004+30310+078020FM-12+068299999V0200501N000512200019N0040001N1+01201+00811101351ADDAA199000091GA1001+999999999GF100991001001999999001001MA1999999093491MD1999999-0081REMSYN064AAXX  15004 42111 32996 00501 10120 20081 39349 40135 333 59008;EQDQ01  00002PRCP99
0215421110999992000111503004+30310+078020FM-12+068299999V0202301N000512200019N0040001N1+01461+01201101431ADDAA199000091GA1001+999999999GF100991001001999999001001KA1120M+02661KA2120N+01051MA1999999093641MD1999999-0011REMSYN076AAXX  15034 42111 32996 02301 10146 20120 39364 40143 333 10266 20105 59001;EQDQ01  00002PRCP99
0177421110999992000111509004+30310+078020FM-12+068299999V0209999C000012200019N0040001N1+02561+01271101021ADDAA199000091GA1001+999999999GF100991001001999999001001MA1999999093531MD1999999+0041REMSYN064AAXX  15094 42111 32996 00000 10256 20127 39353 40102 333 58004;EQDQ01  00002PRCP99
0208421110999992000111512004+30310+078020FM-12+068299999V0209999C000012200019N0040001N1+02061+01291101201ADDAA199000091GA1021+075009019GF102991001001999999001011KA1120M+02661MA1999999093581MD1999999+0061REMSYN082AAXX  15124 42111 32996 20000 10206 20129 39358 40120 80001 333 10266 58006 82075;EQDQ01  00002PRCP99
0177421110999992000111515004+30310+078020FM-12+068299999V0200501N000512200019N0040001N1+01621+01161101461ADDAA199000091GA1001+999999999GF100991001001999999001001MA1999999093711MD1999999+0111REMSYN064AAXX  15154 42111 32996 00501 10162 20116 39371 40146 333 58011;EQDQ01  00002PRCP99
0177421110999992000111518004+30310+078020FM-12+068299999V0200501N000512200019N0040001N1+01481+01091101561ADDAA199000091GA1001+999999999GF100991001001999999001001MA1999999093761MD1999999+0161REMSYN064AAXX  15184 42111 32996 00501 10148 20109 39376 40156 333 58016;EQDQ01  00002PRCP99
0189421110999992000111521004+30310+078020FM-12+068299999V0200501N000512200019N0040001N1+01321+00991101491ADDAA199000091GA1021+030009079GF102991021001999999031001MA1999999093671MD1999999+0141REMSYN076AAXX  15214 42111 32996 20501 10132 20099 39367 40149 82030 333 58014 82360;EQDQ01  00002PRCP99
0189421110999992000111600004+30310+078020FM-12+068299999V0200501N000512200019N0040001N1+01241+00981101581ADDAA199000091GA1011+030009079GF101991011001999999031001MA1999999093721MD1999999+0231REMSYN076AAXX  16004 42111 32996 10501 10124 20098 39372 40158 81030 333 58023 81360;EQDQ01  00002PRCP99
0227421110999992000111603004+30310+078020FM-12+068299999V0209999C000012200019N0040001N1+01621+00961101711ADDAA199000091GA1011+030009079GF101991011001999999031001KA1120M+02661KA2120N+01181MA1999999093941MD1999999+0301REMSYN088AAXX  16034 42111 32996 10000 10162 20096 39394 40171 81030 333 10266 20118 58030 81360;EQDQ01  00002PRCP99
0177421110999992000111606004+30310+078020FM-12+068299999V0201401N000512200019N0040001N1+02361+01181101571ADDAA199000091GA1001+999999999GF100991001001999999001001MA1999999093991MD1999999+0301REMSYN064AAXX  16064 42111 32996 01401 10236 20118 39399 40157 333 58030;EQDQ01  00002PRCP99
0189421110999992000111609004+30310+078020FM-12+068299999V0202301N000512200019N0040001N1+02521+01261101321ADDAA199000091GA1031+075009019GF103991001001999999001011MA1999999093811MD1999999+0281REMSYN076AAXX  16094 42111 32996 32301 10252 20126 39381 40132 80001 333 58028 83075;EQDQ01  00002PRCP99
0208421110999992000111612004+30310+078020FM-12+068299999V0209999C000012200019N0040001N1+02041+01341101311ADDAA199000091GA1021+075009019GF102991001001999999001011KA1120M+02621MA1999999093691MD1999999+0111REMSYN082AAXX  16124 42111 32996 20000 10204 20134 39369 40131 80001 333 10262 58011 82075;EQDQ01  00002PRCP99
0177421110999992000111615004+30310+078020FM-12+068299999V0209999C000012200019N0040001N1+01601+01221101541ADDAA199000091GA1001+999999999GF100991001001999999001001MA1999999093771MD1999999+0061REMSYN064AAXX  16154 42111 32996 00000 10160 20122 39377 40154 333 58006;EQDQ01  00002PRCP99
0177421110999992000111618004+30310+078020FM-12+068299999V0200501N000512200019N0040001N1+01501+01111101591ADDAA199000091GA1001+999999999GF100991001001999999001001MA1999999093791MD1999999+0031REMSYN064AAXX  16184 42111 32996 00501 10150 20111 39379 40159 333 58003;EQDQ01  00002PRCP99
0177421110999992000111621004+30310+078020FM-12+068299999V0200501N000512200019N0040001N1+01341+01051101491ADDAA199000091GA1001+999999999GF100991001001999999001001MA1999999093671MD1999999+0001REMSYN064AAXX  16214 42111 32996 00501 10134 20105 39367 40149 333 58000;EQDQ01  00002PRCP99
0177421110999992000111700004+30310+078020FM-12+068299999V0200501N000512200019N0040001N1+01161+00891101471ADDAA199000091GA1001+999999999GF100991001001999999001001MA1999999093601MD1999999-0121REMSYN064AAXX  17004 42111 32996 00501 10116 20089 39360 40147 333 59012;EQDQ01  00002PRCP99
0255421110999992000111703004+30310+078020FM-12+068299999V0209999C000012200019N0040001N1+01301+01041101701ADDAA199000091GA1011+012009089GA2021+030009039GF104991011011012501031011KA1120M+02621KA2120N+01161MA1999999093841MD1999999-0101REMSYN100AAXX  17034 42111 32696 40000 10130 20104 39384 40170 81131 333 10262 20116 59010 81840 82360 84075;EQDQ01  00002PRCP99
0217421110999992000111706004+30310+078020FM-12+068299999V0200501N00051090001CN0040001N1+02441+01151101441ADDAA199000091GA1021+012009089GA2031+030009039GF105991021011012501031011MA1999999093851MD1999999-0141REMSYN088AAXX  17064 42111 32696 50501 10244 20115 39385 40144 82131 333 59014 82840 83360 85075;EQDQ01  00002PRCP99
0195421110999992000111709004+30310+078020FM-12+068299999V0201401N000519999999N0040001N1+02601+00921101071ADDAA199000091GA1021+030009039GF106991021001999999031011MA1999999093581MD1999999-0231REMSYN082AAXX  17094 42111 32996 61401 10260 20092 39358 40107 82031 333 59023 82360 85075;EQDQ01  00002PRCP99
0214421110999992000111712004+30310+078020FM-12+068299999V0200501N000519999999N0040001N1+02061+01291101161ADDAA199000091GA1031+030009039GF106991031001999999031011KA1120M+02621MA1999999093541MD1999999-0151REMSYN088AAXX  17124 42111 32996 60501 10206 20129 39354 40116 83031 333 10262 59015 83360 85075;EQDQ01  00002PRCP99
0195421110999992000111715004+30310+078020FM-12+068299999V0200501N000519999999N0040001N1+01761+01131101271ADDAA199000091GA1031+030009039GF107991031001999999031011MA1999999093561MD1999999-0211REMSYN082AAXX  17154 42111 32996 70501 10176 20113 39356 40127 83031 333 59021 83360 86075;EQDQ01  00002PRCP99
0195421110999992000111718004+30310+078020FM-12+068299999V0200501N000519999999N0040001N1+01681+00951101281ADDAA199000091GA1031+030009039GF107991051001999999071011MA1999999093551MD1999999-0241REMSYN082AAXX  17184 42111 32996 70501 10168 20095 39355 40128 85071 333 59024 83360 86075;EQDQ01  00002PRCP99
0189421110999992000111721004+30310+078020FM-12+068299999V0200501N000510300019N0040001N1+01501+00951101241ADDAA199000091GA1061+030009079GF107991061001999999031001MA1999999093471MD1999999-0201REMSYN076AAXX  17214 42111 32996 70501 10150 20095 39347 40124 86030 333 59020 86360;EQDQ01  00002PRCP99
0189421110999992000111800004+30310+078020FM-12+068299999V0203601N000510300019N0040001N1+01521+00891101171ADDAA199000091GA1061+030009079GF106991061001999999031001MA1999999093431MD1999999-0171REMSYN076AAXX  18004 42111 32996 63601 10152 20089 39343 40117 86030 333 59017 86360;EQDQ01  00002PRCP99
0243421110999992000111803004+30310+078020FM-12+068299999V0200501N000510300019N0040001N1+01161+00991101311ADDAA199000091GA1051+030009079GF105991051001999999031001KA1120M+02621KA2120N+99999MA1999999093581MD1999999-0261REMSYN088AAXX  18034 42111 32996 50501 10116 20099 39358 40131 85030 333 10262 20135 59026 85360;EQDQ01  00002PRCP99Q02 +01352ATMN  
0189421110999992000111806004+30310+078020FM-12+068299999V0202301N001012200019N0040001N1+02401+01101101121ADDAA199000091GA1031+075009019GF103991001001999999001011MA1999999093581MD1999999-0271REMSYN076AAXX  18064 42111 32996 32302 10240 20110 39358 40112 80001 333 59027 83075;EQDQ01  00002PRCP99
0189421110999992000111809004+30310+078020FM-12+068299999V0201401N000512200019N0040001N1+02481+01331100821ADDAA199000091GA1021+030009079GF102991021001999999031001MA1999999093321MD1999999-0261REMSYN076AAXX  18094 42111 32996 21401 10248 20133 39332 40082 82030 333 59026 82360;EQDQ01  00002PRCP99
0236421110999992000111812004+30310+078020FM-12+068299999V0209999C000012200019N0040001N1+02041+01411100901ADDAA199000091AY111061AY211061GA1011+012009029GF102991011011012501031001KA1120M+02561MA1999999093301MD1999999-0241MW1051REMSYN088AAXX  18124 42111 31696 20000 10204 20141 39330 40090 70511 81130 333 10256 59024 81840;EQDQ01  00002PRCP99
0177421110999992000111815004+30310+078020FM-12+068299999V0200501N001012200019N0040001N1+01741+01261101131ADDAA199000091GA1001+999999999GF100991001001999999001001MA1999999093441MD1999999-0121REMSYN064AAXX  18154 42111 32996 00502 10174 20126 39344 40113 333 59012;EQDQ01  00002PRCP99
0177421110999992000111818004+30310+078020FM-12+068299999V0200501N001012200019N0040001N1+01581+01081101181ADDAA199000091GA1001+999999999GF100991001001999999001001MA1999999093441MD1999999-0111REMSYN064AAXX  18184 42111 32996 00502 10158 20108 39344 40118 333 59011;EQDQ01  00002PRCP99
0177421110999992000111821004+30310+078020FM-12+068299999V0200501N001012200019N0040001N1+01521+00971101091ADDAA199000091GA1001+999999999GF100991001001999999001001MA1999999093351MD1999999-0121REMSYN064AAXX  18214 42111 32996 00502 10152 20097 39335 40109 333 59012;EQDQ01  00002PRCP99
0177421110999992000111900004+30310+078020FM-12+068299999V0209999C000012200019N0040001N1+01341+00891101151ADDAA199000091GA1001+999999999GF100991001001999999001001MA1999999093351MD1999999-0061REMSYN064AAXX  19004 42111 32996 00000 10134 20089 39335 40115 333 59006;EQDQ01  00002PRCP99
0233421110999992000111903004+30310+078020FM-12+068299999V0209999C000012200019N0040001N1+01421+00901101231ADDAA199000091GA1011+010509069GF103991011051012501031001KA1120M+02561KA2120N+01231MA1999999093461MD1999999-0121REMSYN094AAXX  19034 42111 32696 30000 10142 20090 39346 40123 81530 333 10256 20123 59012 81635 83360;EQDQ01  00002PRCP99
0215421110999992000112003004+30310+078020FM-12+068299999V0209999C000012200019N0040001N1+01421+00941101211ADDAA199000091GA1001+999999999GF100991001001999999001001KA1120M+02621KA2120N+01051MA1999999093441MD1999999-0021REMSYN076AAXX  20034 42111 32996 00000 10142 20094 39344 40121 333 10262 20105 59002;EQDQ01  00002PRCP99
0177421110999992000112018004+30310+078020FM-12+068299999V0200501N001012200019N0040001N1+01461+00941101281ADDAA199000091GA1001+999999999GF100991001001999999001001MA1999999093501MD1999999+0161REMSYN064AAXX  20184 42111 32996 00502 10146 20094 39350 40128 333 58016;EQDQ01  00002PRCP99
0177421110999992000112100004+30310+078020FM-12+068299999V0209999C000012200019N0040001N1+01281+00601101321ADDAA199000091GA1001+999999999GF100991001001999999001001MA1999999093491MD1999999+0171REMSYN064AAXX  21004 42111 32996 00000 10128 20060 39349 40132 333 58017;EQDQ01  00002PRCP99
0227421110999992000112103004+30310+078020FM-12+068299999V0200501N000512200019N0040001N1+01421+00771101551ADDAA199000091GA1011+012009029GF102991011011999999001011KA1120M+02711KA2120N+01201MA1999999093751MD1999999+0311REMSYN088AAXX  21034 42111 32996 20501 10142 20077 39375 40155 81101 333 10271 20120 58031 81840;EQDQ01  00002PRCP99
0189421110999992000112106004+30310+078020FM-12+068299999V0202301N001012200019N0040001N1+02281+01071101411ADDAA199000091GA1021+075009019GF102991001001999999001011MA1999999093821MD1999999+0301REMSYN076AAXX  21064 42111 32996 22302 10228 20107 39382 40141 80001 333 58030 82075;EQDQ01  00002PRCP99
0189421110999992000112109004+30310+078020FM-12+068299999V0201401N000512200019N0040001N1+02481+01161101121ADDAA199000091GA1011+012009029GF102991011011012501031001MA1999999093601MD1999999+0271REMSYN076AAXX  21094 42111 32696 21401 10248 20116 39360 40112 81130 333 58027 81840;EQDQ01  00002PRCP99
0208421110999992000112112004+30310+078020FM-12+068299999V0209999C000012200019N0040001N1+02021+01431101171ADDAA199000091GA1011+012009029GF101991011011999999001001KA1120M+02631MA1999999093551MD1999999+0251REMSYN082AAXX  21124 42111 32996 10000 10202 20143 39355 40117 81100 333 10263 58025 81840;EQDQ01  00002PRCP99
0177421110999992000112115004+30310+078020FM-12+068299999V0200501N000512200019N0040001N1+01561+01141101441ADDAA199000091GA1001+999999999GF100991001001999999001001MA1999999093681MD1999999+0181REMSYN064AAXX  21154 42111 32996 00501 10156 20114 39368 40144 333 58018;EQDQ01  00002PRCP99
0177421110999992000112118004+30310+078020FM-12+068299999V0200501N001012200019N0040001N1+01461+01021101441ADDAA199000091GA1001+999999999GF100991001001999999001001MA1999999093681MD1999999+0181REMSYN064AAXX  21184 42111 32996 00502 10146 20102 39368 40144 333 58018;EQDQ01  00002PRCP99
0177421110999992000112121004+30310+078020FM-12+068299999V0200501N001012200019N0040001N1+01361+00911101481ADDAA199000091GA1001+999999999GF100991001001999999001001MA1999999093661MD1999999+0161REMSYN064AAXX  21214 42111 32996 00502 10136 20091 39366 40148 333 58016;EQDQ01  00002PRCP99
0189421110999992000112200004+30310+078020FM-12+068299999V0200501N001012200019N0040001N1+01241+00861101471ADDAA199000091GA1011+075009019GF101991001001999999001011MA1999999093631MD1999999+0141REMSYN076AAXX  22004 42111 32996 10502 10124 20086 39363 40147 80001 333 58014 81075;EQDQ01  00002PRCP99
0189421110999992000112206004+30310+078020FM-12+068299999V0201401N000519999999N0040001N1+02261+01171101531ADDAA199000091GA1031+030009079GF105991051001999999031001MA1999999093931MD1999999+0111REMSYN076AAXX  22064 42111 32996 51401 10226 20117 39393 40153 85030 333 58011 83360;EQDQ01  00002PRCP99
0195421110999992000112209004+30310+078020FM-12+068299999V0201401N001019999999N0040001N1+02861+00831101141ADDAA199000091GA1021+010509069GF107991021051999999001021MA1999999093711MD1999999+0111REMSYN082AAXX  22094 42111 32996 71402 10286 20083 39371 40114 82502 333 58011 82635 86075;EQDQ01  00002PRCP99
0242421110999992000112212004+30310+078020FM-12+068299999V0209999C00001036001CN0040001N1+02041+01411101401ADDAA199000091AY121061AY221061GA1021+010509069GF105991031081012501031001KA1120M+02461MA1999999093761MD1999999+0211MW1051REMSYN094AAXX  22124 42111 31696 50000 10204 20141 39376 40140 70522 83830 333 10246 58021 82635 85360;EQDQ01  00002PRCP99
0169421110999992000112215004+30310+078020FM-12+068299999V0200501N001012200019N0040001N1+01661+01211101721ADDAA199000091GA1021+030009079GF102991021001999999031001MA1999999093951REMSYN070AAXX  22154 42111 32996 20502 10166 20121 39395 40172 82030 333 82360;EQDQ01  00002PRCP99
0177421110999992000112218004+30310+078020FM-12+068299999V0200501N001012200019N0040001N1+01501+00991101821ADDAA199000091GA1001+999999999GF100991001001999999001001MA1999999094001MD1999999+0321REMSYN064AAXX  22184 42111 32996 00502 10150 20099 39400 40182 333 58032;EQDQ01  00002PRCP99
0211421110999992000112221004+30310+078020FM-12+068299999V0200501N001012200019N0040001N1+01461+00981101801ADDAA199000091GA1021+010509069GA2021+030009039GF103991999999012501999999MA1999999093981MD1999999+0321REMSYN082AAXX  22214 42111 32696 30502 10146 20098 39398 40180 333 58032 82360 82635 83360;EQDQ01  00002PRCP99
0195421110999992000112300004+30310+078020FM-12+068299999V0200501N00051036001CN0040001N1+01441+00961101781ADDAA199000091GA1031+010509069GF105991031051012501031001MA1999999093961MD1999999+0331REMSYN082AAXX  23004 42111 32696 50501 10144 20096 39396 40178 83530 333 58033 83635 85360;EQDQ01  00002PRCP99
0283421110999992000112303004+30310+078020FM-12+068299999V0209999C000010300019N0040001N1+01601+00811101881ADDAA199000091AY121031AY221031GA1031+010509069GA2041+030009049GF106991031051012501071011KA1120M+02461KA2120N+01391MA1999999094091MD1999999+0231MW1051REMSYN106AAXX  23034 42111 31696 60000 10160 20081 39409 40188 70522 83571 333 10246 20139 58023 83635 84460 86075;EQDQ01  00002PRCP99
0223421110999992000112306004+30310+078020FM-12+068299999V0202301N00101036001CN0040001N1+02181+01311101831ADDAA199000091AY121061AY221061GA1031+010509069GF106991031051012501051001MA1999999094181MD1999999+0251MW1051REMSYN088AAXX  23064 42111 31696 62302 10218 20131 39418 40183 70522 83550 333 58025 83635 85360;EQDQ01  00002PRCP99
0195421110999992000112309004+30310+078020FM-12+068299999V0202301N001012200019N0040001N1+02361+01221101541ADDAA199000091GA1011+012009089GF104991011011012501031001MA1999999093961MD1999999+0251REMSYN082AAXX  23094 42111 32696 42302 10236 20122 39396 40154 81130 333 58025 81840 83360;EQDQ01  00002PRCP99
0236421110999992000112312004+30310+078020FM-12+068299999V0203201N001012200019N0040001N1+02001+01401101541ADDAA199000091AY121061AY211061GA1011+012009029GF101991011011012501001001KA1120M+02421MA1999999093381MD1999999+0111MW1051REMSYN088AAXX  23124 42111 31696 13202 10200 20140 39338 40154 70521 81100 333 10242 58011 81840;EQDQ01  00002PRCP99
0177421110999992000112315004+30310+078020FM-12+068299999V0200501N001012200019N0040001N1+01581+01271101741ADDAA199000091GA1001+999999999GF100991001001999999001001MA1999999093951MD1999999+0001REMSYN064AAXX  23154 42111 32996 00502 10158 20127 39395 40174 333 58000;EQDQ01  00002PRCP99
0177421110999992000112318004+30310+078020FM-12+068299999V0200501N000512200019N0040001N1+01481+01091101761ADDAA199000091GA1001+999999999GF100991001001999999001001MA1999999093941MD1999999-0061REMSYN064AAXX  23184 42111 32996 00501 10148 20109 39394 40176 333 59006;EQDQ01  00002PRCP99
0177421110999992000112321004+30310+078020FM-12+068299999V0200501N000512200019N0040001N1+01141+00951101691ADDAA199000091GA1001+999999999GF100991001001999999001001MA1999999093801MD1999999-0181REMSYN064AAXX  23214 42111 32996 00501 10114 20095 39380 40169 333 59018;EQDQ01  00002PRCP99
0177421110999992000112400004+30310+078020FM-12+068299999V0200501N000512200019N9999999N1+01121+99999999999ADDAA199000091GA1001+999999999GF100991001001999999001001MA1999999093831MD1999999-0131REMSYN064AAXX  24004 42111 3/6// 00501 10112 200/3 39383 70173 333 59013;EQDQ01  00002PRCP99
0215421110999992000112403004+30310+078020FM-12+068299999V0200501N000512200019N0040001N1+01361+00991101771ADDAA199000091GA1001+999999999GF100991001001999999001001KA1120M+02421KA2120N+01051MA1999999093921MD1999999-0171REMSYN076AAXX  24034 42111 32996 00501 10136 20099 39392 40177 333 10242 20105 59017;EQDQ01  00002PRCP99
0177421110999992000112406004+30310+078020FM-12+068299999V0202701N000512200019N0040001N1+02441+01191101561ADDAA199000091GA1001+999999999GF100991001001999999001001MA1999999093941MD1999999-0221REMSYN064AAXX  24064 42111 32996 02701 10244 20119 39394 40156 333 59022;EQDQ01  00002PRCP99
0189421110999992000112409004+30310+078020FM-12+068299999V0203201N001012200019N0040001N1+02501+00821101211ADDAA199000091GA1021+012009029GF102991021021012501001001MA1999999093691MD1999999-0271REMSYN076AAXX  24094 42111 32696 23202 10250 20082 39369 40121 82200 333 59027 82840;EQDQ01  00002PRCP99
0196421110999992000112412004+30310+078020FM-12+068299999V0203201N000512200019N0040001N1+01941+01221101241ADDAA199000091GA1001+999999999GF100991001001999999001001KA1120M+02571MA1999999093591MD1999999-0281REMSYN070AAXX  24124 42111 32996 03201 10194 20122 39359 40124 333 10257 59028;EQDQ01  00002PRCP99
0177421110999992000112415004+30310+078020FM-12+068299999V0200501N001012200019N0040001N1+01581+00961101361ADDAA199000091GA1001+999999999GF100991001001999999001001MA1999999093601MD1999999-0351REMSYN064AAXX  24154 42111 32996 00502 10158 20096 39360 40136 333 59035;EQDQ01  00002PRCP99
0177421110999992000112418004+30310+078020FM-12+068299999V0200501N001012200019N0040001N1+01441+00751101401ADDAA199000091GA1001+999999999GF100991001001999999001001MA1999999093611MD1999999-0331REMSYN064AAXX  24184 42111 32996 00502 10144 20075 39361 40140 333 59033;EQDQ01  00002PRCP99
0177421110999992000112421004+30310+078020FM-12+068299999V0200501N000512200019N0040001N1+01301+00761101411ADDAA199000091GA1001+999999999GF100991001001999999001001MA1999999093571MD1999999-0231REMSYN064AAXX  24214 42111 32996 00501 10130 20076 39357 40141 333 59023;EQDQ01  00002PRCP99
0177421110999992000112500004+30310+078020FM-12+068299999V0200501N000512200019N0040001N1+01101+00831101421ADDAA199000091GA1001+999999999GF100991001001999999001001MA1999999093521MD1999999-0311REMSYN064AAXX  25004 42111 32996 00501 10110 20083 39352 40142 333 59031;EQDQ01  00002PRCP99
0215421110999992000112503004+30310+078020FM-12+068299999V0209999C000012200019N0040001N1+01261+00881101431ADDAA199000091GA1001+999999999GF100991001001999999001001KA1120M+02571KA2120N+01001MA1999999093591MD1999999-0331REMSYN076AAXX  25034 42111 32996 00000 10126 20088 39359 40143 333 10257 20100 59033;EQDQ01  00002PRCP99
0177421110999992000112506004+30310+078020FM-12+068299999V0203201N000512200019N0040001N1+02241+01061101191ADDAA199000091GA1001+999999999GF100991001001999999001001MA1999999093621MD1999999-0341REMSYN064AAXX  25064 42111 32996 03201 10224 20106 39362 40119 333 59034;EQDQ01  00002PRCP99
0177421110999992000112509004+30310+078020FM-12+068299999V0202701N001012200019N0040001N1+02381+01281101011ADDAA199000091GA1001+999999999GF100991001001999999001001MA1999999093481MD1999999-0211REMSYN064AAXX  25094 42111 32996 02702 10238 20128 39348 40101 333 59021;EQDQ01  00002PRCP99
0208421110999992000112512004+30310+078020FM-12+068299999V0203201N000512200019N0040001N1+01881+01271101131ADDAA199000091GA1011+030009079GF101991011001999999031001KA1120M+02471MA1999999093471MD1999999-0121REMSYN082AAXX  25124 42111 32996 13201 10188 20127 39347 40113 81030 333 10247 59012 81360;EQDQ01  00002PRCP99
0177421110999992000112515004+30310+078020FM-12+068299999V0200501N000512200019N0040001N1+01461+01141101361ADDAA199000091GA1001+999999999GF100991001001999999001001MA1999999093571MD1999999-0031REMSYN064AAXX  25154 42111 32996 00501 10146 20114 39357 40136 333 59003;EQDQ01  00002PRCP99
0177421110999992000112518004+30310+078020FM-12+068299999V0200501N000512200019N0040001N1+01261+00961101461ADDAA199000091GA1001+999999999GF100991001001999999001001MA1999999093621MD1999999+0011REMSYN064AAXX  25184 42111 32996 00501 10126 20096 39362 40146 333 58001;EQDQ01  00002PRCP99
0177421110999992000112521004+30310+078020FM-12+068299999V0209999C000012200019N0040001N1+01141+00751101371ADDAA199000091GA1001+999999999GF100991001001999999001001MA1999999093501MD1999999-0071REMSYN064AAXX  25214 42111 32996 00000 10114 20075 39350 40137 333 59007;EQDQ01  00002PRCP99
0177421110999992000112600004+30310+078020FM-12+068299999V0200501N000512200019N0040001N1+01161+00731101431ADDAA199000091GA1001+999999999GF100991001001999999001001MA1999999093561MD1999999+0041REMSYN064AAXX  26004 42111 32996 00501 10116 20073 39356 40143 333 58004;EQDQ01  00002PRCP99
0227421110999992000112603004+30310+078020FM-12+068299999V0209999C000010300019N0040001N1+01221+00961101671ADDAA199000091GA1051+030009079GF106991061001999999071001KA1120M+02471KA2120N+01051MA1999999093811MD1999999+0221REMSYN088AAXX  26034 42111 32996 60000 10122 20096 39381 40167 86070 333 10247 20105 58022 85360;EQDQ01  00002PRCP99
0189421110999992000112606004+30310+078020FM-12+068299999V0202301N000510300019N0040001N1+01941+01021101551ADDAA199000091GA1051+030009079GF106991061001999999071001MA1999999093881MD1999999+0261REMSYN076AAXX  26064 42111 32996 62301 10194 20102 39388 40155 86070 333 58026 85360;EQDQ01  00002PRCP99
0195421110999992000112609004+30310+078020FM-12+068299999V0203201N00051036001CN0040001N1+02181+01231101311ADDAA199000091GA1031+010509069GF107991041081012501051001MA1999999093701MD1999999+0221REMSYN082AAXX  26094 42111 32696 73201 10218 20123 39370 40131 84850 333 58022 83635 86360;EQDQ01  00002PRCP99
0242421110999992000112612004+30310+078020FM-12+068299999V0203201N000512200019N0040001N1+01781+01341101351ADDAA199000091AY121061AY211061GA1011+010509069GF103991011051012501031001KA1120M+02211MA1999999093641MD1999999+0171MW1051REMSYN094AAXX  26124 42111 31696 33201 10178 20134 39364 40135 70521 81530 333 10221 58017 81635 83360;EQDQ01  00002PRCP99
0195421110999992000112615004+30310+078020FM-12+068299999V0200501N001012200019N0040001N1+01421+01131999999ADDAA199000091GA1011+010509069GF103991011051012501031001MA1999999093721MD1999999+0151REMSYN082AAXX  26154 42111 32696 30502 10142 20113 39372 401/2 81530 333 58015 81635 83360;EQDQ01  00002PRCP99
0195421110999992000112618004+30310+078020FM-12+068299999V0200501N00051036001CN0040001N1+01401+01041101541ADDAA199000091GA1041+009009069GF106991041051008001031001MA1999999093711MD1999999+0091REMSYN082AAXX  26184 42111 32596 60501 10140 20104 39371 40154 84530 333 58009 84630 85360;EQDQ01  00002PRCP99
0195421110999992000112621004+30310+078020FM-12+068299999V0200501N00101036001CN0040001N1+01341+00971101481ADDAA199000091GA1021+010509069GF105991021051012501031001MA1999999093661MD1999999+0161REMSYN082AAXX  26214 42111 32696 50502 10134 20097 39366 40148 82530 333 58016 82635 85360;EQDQ01  00002PRCP99
0195421110999992000112700004+30310+078020FM-12+068299999V0200501N00051036001CN0040001N1+01281+00901101601ADDAA199000091GA1041+010509069GF106991041051012501031001MA1999999093741MD1999999+0181REMSYN082AAXX  27004 42111 32696 60501 10128 20090 39374 40160 84530 333 58018 84635 85360;EQDQ01  00002PRCP99
0259421110999992000112703004+30310+078020FM-12+068299999V0201401N00051012001CN0040001N1+01441+01131101711ADDAA100000791AA224999929AY121031AY221031GA1041+009009069GF108991061081008001071999KA1120M+02211KA2120N+01231MA1999999093901MD1999999+0091MW1601REMSYN106AAXX  27034 42111 21596 81401 10144 20113 39390 40171 76022 8687/ 333 10221 20123 58009 6990/ 84630 87460;
0226421110999992000112706004+30310+078020FM-12+068299999V0202301N001010300019N0020001N1+01921+01141101681ADDAA199000021AY161061AY221061GA1021+009609069GA2041+030009039GF106991031081012501051011MA1999999094001MD1999999+0121MW1051REMSYN094AAXX  27064 42111 31695 62302 10192 20114 39400 40168 70562 83851 333 58012 82632 84360 85075;
0226421110999992000112709004+30310+078020FM-12+068299999V0201401N000519999999N0020001N1+01981+01191101391ADDAA199000021AY121031AY221031GA1021+010509069GA2031+030009039GF107991031081999999031011MA1999999093721MD1999999+0021MW1051REMSYN094AAXX  27094 42111 31/95 71401 10198 20119 39372 40139 70522 83831 333 58002 82635 83360 86075;
0223421110999992000112712004+30310+078020FM-12+068299999V0209999C00001036001CN0020001N1+01701+01101101391ADDAA199000021AY121061AY221061GA1021+012009089GF106991031081012501071001KA1120M+02071MA1999999093681MD1999999+0041MW1051REMSYN094AAXX  27124 42111 31695 60000 10170 20110 39368 40139 70522 83870 333 10207 58004 82840 85360;
0204421110999992000112715004+30310+078020FM-12+068299999V0200501N00051036001CN0020001N1+01321+01101101621ADDAA199000021AY121031AY221031GA1021+012009089GF105991021011012501071001MA1999999093791MD1999999+0071MW1051REMSYN088AAXX  27154 42111 31695 50501 10132 20110 39379 40162 70522 82170 333 58007 82840 85360;
0217421110999992000112718004+30310+078020FM-12+068299999V0200501N000519999999N0020001N1+01281+01061101671ADDAA199000091AY121061AY221061GA1041+030009079GF105991051001999999071001MA1999999093811MD1999999+0101MW1051REMSYN082AAXX  27184 42111 31995 50501 10128 20106 39381 40167 70522 85070 333 58010 84360;EQDQ01  00002PRCP99
0177421110999992000112721004+30310+078020FM-12+068299999V0200501N000512200019N0040001N1+01101+00871101641ADDAA199000091GA1001+999999999GF100991001001999999001001MA1999999093721MD1999999+0061REMSYN064AAXX  27214 42111 32996 00501 10110 20087 39372 40164 333 58006;EQDQ01  00002PRCP99
0177421110999992000112800004+30310+078020FM-12+068299999V0200501N000512200019N0040001N1+00961+00761101711ADDAA199000091GA1001+999999999GF100991001001999999001001MA1999999093761MD1999999+0021REMSYN064AAXX  28004 42111 32996 00501 10096 20076 39376 40171 333 58002;EQDQ01  00002PRCP99
0215421110999992000112803004+30310+078020FM-12+068299999V0209999C000012200019N0040001N1+01181+00831101841ADDAA199000091GA1001+999999999GF100991001001999999001001KA1120M+02071KA2120N+00851MA1999999093931MD1999999+0031REMSYN076AAXX  28034 42111 32996 00000 10118 20083 39393 40184 333 10207 20085 58003;EQDQ01  00002PRCP99
0189421110999992000112806004+30310+078020FM-12+068299999V0202301N000512200019N0040001N1+02001+00871101711ADDAA199000091GA1021+012009029GF102991021021012501001001MA1999999094031MD1999999+0031REMSYN076AAXX  28064 42111 32696 22301 10200 20087 39403 40171 82200 333 58003 82840;EQDQ01  00002PRCP99
0189421110999992000112809004+30310+078020FM-12+068299999V0203201N001012200019N0040001N1+02201+00961101431ADDAA199000091GA1021+012009029GF102991021021012501001001MA1999999093821MD1999999+0101REMSYN076AAXX  28094 42111 32696 23202 10220 20096 39382 40143 82200 333 58010 82840;EQDQ01  00002PRCP99
0214421110999992000112812004+30310+078020FM-12+068299999V0203201N000512200019N0040001N1+01701+01021101521ADDAA199000091GA1011+012009089GF104991021081012501031001KA1120M+02251MA1999999093771MD1999999+0091REMSYN088AAXX  28124 42111 32696 43201 10170 20102 39377 40152 82830 333 10225 58009 81840 83360;EQDQ01  00002PRCP99
0177421110999992000112815004+30310+078020FM-12+068299999V0209999C000012200019N0040001N1+01281+00741101691ADDAA199000091GA1001+999999999GF100991001001999999001001MA1999999093831MD1999999+0041REMSYN064AAXX  28154 42111 32996 00000 10128 20074 39383 40169 333 58004;EQDQ01  00002PRCP99
0177421110999992000112818004+30310+078020FM-12+068299999V0200501N000512200019N0040001N1+01161+00641101681ADDAA199000091GA1001+999999999GF100991001001999999001001MA1999999093791MD1999999-0021REMSYN064AAXX  28184 42111 32996 00501 10116 20064 39379 40168 333 59002;EQDQ01  00002PRCP99
0177421110999992000112821004+30310+078020FM-12+068299999V0200501N000512200019N0040001N1+00961+00611101551ADDAA199000091GA1001+999999999GF100991001001999999001001MA1999999093621MD1999999-0101REMSYN064AAXX  28214 42111 32996 00501 10096 20061 39362 40155 333 59010;EQDQ01  00002PRCP99
0177421110999992000112900004+30310+078020FM-12+068299999V0200501N000512200019N0040001N1+00801+00551101611ADDAA199000091GA1001+999999999GF100991001001999999001001MA1999999093621MD1999999-0141REMSYN064AAXX  29004 42111 32996 00501 10080 20055 39362 40161 333 59014;EQDQ01  00002PRCP99
0215421110999992000112903004+30310+078020FM-12+068299999V0203201N000512200019N0100001N1+01101+00611101761ADDAA199000091GA1001+999999999GF100991001001999999001001KA1120M+02251KA2120N+00751MA1999999093841MD1999999-0091REMSYN076AAXX  29034 42111 32997 03201 10110 20061 39384 40176 333 10225 20075 59009;EQDQ01  00002PRCP99
0177421110999992000112906004+30310+078020FM-12+068299999V0202301N001012200019N0040001N1+02001+00921101521ADDAA199000091GA1001+999999999GF100991001001999999001001MA1999999093851MD1999999-0181REMSYN064AAXX  29064 42111 32996 02302 10200 20092 39385 40152 333 59018;EQDQ01  00002PRCP99
0189421110999992000112909004+30310+078020FM-12+068299999V0203201N001012200019N0040001N1+02321+00481101111ADDAA199000091GA1011+012009029GF101991011011012501001001MA1999999093571MD1999999-0251REMSYN076AAXX  29094 42111 32696 13202 10232 20048 39357 40111 81100 333 59025 81840;EQDQ01  00002PRCP99
0196421110999992000112912004+30310+078020FM-12+068299999V0203201N000512200019N0040001N1+01801+00931101341ADDAA199000091GA1001+999999999GF100991001001999999001001KA1120M+02411MA1999999093551MD1999999-0221REMSYN070AAXX  29124 42111 32996 03201 10180 20093 39355 40134 333 10241 59022;EQDQ01  00002PRCP99
0177421110999992000112915004+30310+078020FM-12+068299999V0203601N000512200019N0040001N1+01221+00881101521ADDAA199000091GA1001+999999999GF100991001001999999001001MA1999999093681MD1999999-0151REMSYN064AAXX  29154 42111 32996 03601 10122 20088 39368 40152 333 59015;EQDQ01  00002PRCP99
0177421110999992000112918004+30310+078020FM-12+068299999V0200501N000512200019N0040001N1+01161+00771101611ADDAA199000091GA1001+999999999GF100991001001999999001001MA1999999093721MD1999999-0071REMSYN064AAXX  29184 42111 32996 00501 10116 20077 39372 40161 333 59007;EQDQ01  00002PRCP99
0177421110999992000112921004+30310+078020FM-12+068299999V0209999C000012200019N0040001N1+01061+00661101531ADDAA199000091GA1001+999999999GF100991001001999999001001MA1999999093631MD1999999+0011REMSYN064AAXX  29214 42111 32996 00000 10106 20066 39363 40153 333 58001;EQDQ01  00002PRCP99
0177421110999992000113000004+30310+078020FM-12+068299999V0200501N000512200019N0040001N1+00881+00451101571ADDAA199000091GA1001+999999999GF100991001001999999001001MA1999999093611MD1999999-0011REMSYN064AAXX  30004 42111 32996 00501 10088 20045 39361 40157 333 59001;EQDQ01  00002PRCP99
0215421110999992000113003004+30310+078020FM-12+068299999V0209999C000012200019N0040001N1+01061+00661101711ADDAA199000091GA1001+999999999GF100991001001999999001001KA1120M+02411KA2120N+00811MA1999999093791MD1999999-0051REMSYN076AAXX  30034 42111 32996 00000 10106 20066 39379 40171 333 10241 20081 59005;EQDQ01  00002PRCP99
0189421110999992000113006004+30310+078020FM-12+068299999V0203201N000512200019N0040001N1+01961+00681101521ADDAA199000091GA1011+012009029GF101991011011012501001001MA1999999093851MD1999999+0001REMSYN076AAXX  30064 42111 32696 13201 10196 20068 39385 40152 81100 333 58000 81840;EQDQ01  00002PRCP99
0189421110999992000113009004+30310+078020FM-12+068299999V0202301N001012200019N0040001N1+02221+00701101271ADDAA199000091GA1021+012009029GF102991021021012501001001MA1999999093681MD1999999+0111REMSYN076AAXX  30094 42111 32696 22302 10222 20070 39368 40127 82200 333 58011 82840;EQDQ01  00002PRCP99
0208421110999992000113012004+30310+078020FM-12+068299999V0203201N000512200019N0040001N1+01701+00891101391ADDAA199000091GA1011+012009029GF101991011011012501001001KA1120M+02261MA1999999093661MD1999999+0111REMSYN082AAXX  30124 42111 32696 13201 10170 20089 39366 40139 81100 333 10226 58011 81840;EQDQ01  00002PRCP99
0177421110999992000113015004+30310+078020FM-12+068299999V0200501N001012200019N0040001N1+01141+00791101681ADDAA199000091GA1001+999999999GF100991001001999999001001MA1999999093791MD1999999+0111REMSYN064AAXX  30154 42111 32996 00502 10114 20079 39379 40168 333 58011;EQDQ01  00002PRCP99
0177421110999992000113018004+30310+078020FM-12+068299999V0200501N000512200019N0040001N1+01001+00641101721ADDAA199000091GA1001+999999999GF100991001001999999001001MA1999999093771MD1999999+0051REMSYN064AAXX  30184 42111 32996 00501 10100 20064 39377 40172 333 58005;EQDQ01  00002PRCP99
0177421110999992000120100004+30310+078020FM-12+068299999V0203201N000512200019N0040001N1+00761+00551101731ADDAA199000091GA1001+999999999GF100991001001999999001001MA1999999093721MD1999999+0111REMSYN064AAXX  01004 42111 32996 03201 10076 20055 39372 40173 333 58011;EQDQ01  00002PRCP99
0196421110999992000120103004+30310+078020FM-12+068299999V0209999C000012200019N0040001N1+01101+00701101781ADDAA199000091GA1001+999999999GF100991001001999999001001KA1120M+02261MA1999999093861MD1999999+0071REMSYN070AAXX  01034 42111 32996 00000 10110 20070 39386 40178 333 10226 58007;EQDQ01  00002PRCP99
0217421110999992000120106004+30310+078020FM-12+068299999V0202301N001012200019N0040001N1+01961+00631101521ADDAA199000091AY101061AY201061GA1011+012009029GF101991011011012501001001MA1999999093851MD1999999+0001MW1051REMSYN082AAXX  01064 42111 31696 12302 10196 20063 39385 40152 70500 81100 333 58000 81840;EQDQ01  00002PRCP99
0189421110999992000120109004+30310+078020FM-12+068299999V0203201N001012200019N0040001N1+02141+00361101341ADDAA199000091GA1011+012009029GF101991011021012501001001MA1999999093731MD1999999+0051REMSYN076AAXX  01094 42111 32696 13202 10214 20036 39373 40134 81200 333 58005 81840;EQDQ01  00002PRCP99
0196421110999992000120112004+30310+078020FM-12+068299999V0209999C000012200019N0040001N1+01641+00731101371ADDAA199000091GA1001+999999999GF100991001001999999001001KA1120M+02181MA1999999093641MD1999999-0021REMSYN070AAXX  01124 42111 32996 00000 10164 20073 39364 40137 333 10218 59002;EQDQ01  00002PRCP99
0177421110999992000120115004+30310+078020FM-12+068299999V0200501N000512200019N0040001N1+01101+00611101671ADDAA199000091GA1001+999999999GF100991001001999999001001MA1999999093751MD1999999-0041REMSYN064AAXX  01154 42111 32996 00501 10110 20061 39375 40167 333 59004;EQDQ01  00002PRCP99
0177421110999992000120118004+30310+078020FM-12+068299999V0200501N000512200019N0040001N1+00941+00521101721ADDAA199000091GA1001+999999999GF100991001001999999001001MA1999999093771MD1999999+0001REMSYN064AAXX  01184 42111 32996 00501 10094 20052 39377 40172 333 58000;EQDQ01  00002PRCP99
0177421110999992000120121004+30310+078020FM-12+068299999V0200501N000512200019N0040001N1+00881+00451101691ADDAA199000091GA1001+999999999GF100991001001999999001001MA1999999093711MD1999999-0021REMSYN064AAXX  01214 42111 32996 00501 10088 20045 39371 40169 333 59002;EQDQ01  00002PRCP99
0171421110999992000120200004+30310+078020FM-12+068299999V0200501N000512200019N0040001N1+00821+00391999999ADDAA199000091GA1001+999999999GF100991001001999999001001MA1999999093781MD1999999-0061REMSYN058AAXX  02004 42111 32996 00501 10082 20039 39378 333 59006;EQDQ01  00002PRCP99
0215421110999992000120203004+30310+078020FM-12+068299999V0209999C000012200019N0040001N1+01061+00521101951ADDAA199000091GA1001+999999999GF100991001001999999001001KA1120M+02181KA2120N+00641MA1999999094011MD1999999+0151REMSYN076AAXX  02034 42111 32996 00000 10106 20052 39401 40195 333 10218 20064 58015;EQDQ01  00002PRCP99
0177421110999992000120206004+30310+078020FM-12+068299999V0202301N000512200019N0040001N1+01921+00411101701ADDAA199000091GA1001+999999999GF100991001001999999001001MA1999999094021MD1999999+0171REMSYN064AAXX  02064 42111 32996 02301 10192 20041 39402 40170 333 58017;EQDQ01  00002PRCP99
0177421110999992000120209004+30310+078020FM-12+068299999V0202301N001012200019N0040001N1+02161+00391101561ADDAA199000091GA1001+999999999GF100991001001999999001001MA1999999093931MD1999999+0201REMSYN064AAXX  02094 42111 32996 02302 10216 20039 39393 40156 333 58020;EQDQ01  00002PRCP99
0196421110999992000120212004+30310+078020FM-12+068299999V0203201N000512200019N0040001N1+01541+00741101601ADDAA199000091GA1001+999999999GF100991001001999999001001KA1120M+02221MA1999999093831MD1999999+0211REMSYN070AAXX  02124 42111 32996 03201 10154 20074 39383 40160 333 10222 58021;EQDQ01  00002PRCP99
0177421110999992000120215004+30310+078020FM-12+068299999V0200501N000512200019N0040001N1+01161+00591101921ADDAA199000091GA1001+999999999GF100991001001999999001001MA1999999094011MD1999999+0261REMSYN064AAXX  02154 42111 32996 00501 10116 20059 39401 40192 333 58026;EQDQ01  00002PRCP99
0177421110999992000120218004+30310+078020FM-12+068299999V0200501N000512200019N0040001N1+01001+00591101971ADDAA199000091GA1001+999999999GF100991001001999999001001MA1999999094011MD1999999+0241REMSYN064AAXX  02184 42111 32996 00501 10100 20059 39401 40197 333 58024;EQDQ01  00002PRCP99
0227421110999992000120303004+30310+078020FM-12+068299999V0200501N000512200019N0040001N1+01041+00451102111ADDAA199000091GA1021+075009019GF102991001001999999001011KA1120M+02221KA2120N+00751MA1999999094161MD1999999+0151REMSYN088AAXX  03034 42111 32996 20501 10104 20045 39416 40211 80001 333 10222 20075 58015 82075;EQDQ01  00002PRCP99
0177421110999992000120306004+30310+078020FM-12+068299999V0202301N001012200019N0040001N1+01901+00741102011ADDAA199000091GA1001+999999999GF100991001001999999001001MA1999999094281MD1999999+0261REMSYN064AAXX  03064 42111 32996 02302 10190 20074 39428 40201 333 58026;EQDQ01  00002PRCP99
0177421110999992000120309004+30310+078020FM-12+068299999V0201401N001012200019N0040001N1+02041+00881101671ADDAA199000091GA1001+999999999GF100991001001999999001001MA1999999094021MD1999999+0091REMSYN064AAXX  03094 42111 32996 01402 10204 20088 39402 40167 333 58009;EQDQ01  00002PRCP99
0196421110999992000120312004+30310+078020FM-12+068299999V0209999C000012200019N0040001N1+01601+00981101771ADDAA199000091GA1001+999999999GF100991001001999999001001KA1120M+02161MA1999999093981MD1999999+0151REMSYN070AAXX  03124 42111 32996 00000 10160 20098 39398 40177 333 10216 58015;EQDQ01  00002PRCP99
0177421110999992000120315004+30310+078020FM-12+068299999V0200501N000512200019N0040001N1+01221+00841101871ADDAA199000091GA1001+999999999GF100991001001999999001001MA1999999093991MD1999999-0021REMSYN064AAXX  03154 42111 32996 00501 10122 20084 39399 40187 333 59002;EQDQ01  00002PRCP99
0177421110999992000120318004+30310+078020FM-12+068299999V0200501N000512200019N0040001N1+01041+00771101941ADDAA199000091GA1001+999999999GF100991001001999999001001MA1999999094001MD1999999-0011REMSYN064AAXX  03184 42111 32996 00501 10104 20077 39400 40194 333 59001;EQDQ01  00002PRCP99
0177421110999992000120321004+30310+078020FM-12+068299999V0200501N000512200019N0040001N1+00941+00611101871ADDAA199000091GA1001+999999999GF100991001001999999001001MA1999999093881MD1999999-0141REMSYN064AAXX  03214 42111 32996 00501 10094 20061 39388 40187 333 59014;EQDQ01  00002PRCP99
0177421110999992000120400004+30310+078020FM-12+068299999V0200501N000512200019N0040001N1+00901+00611101691ADDAA199000091GA1001+999999999GF100991001001999999001001MA1999999093741MD1999999-0291REMSYN064AAXX  04004 42111 32996 00501 10090 20061 39374 40169 333 59029;EQDQ01  00002PRCP99
0215421110999992000120403004+30310+078020FM-12+068299999V0200501N000512200019N0040001N1+01061+00611101691ADDAA199000091GA1001+999999999GF100991001001999999001001KA1120M+02161KA2120N+00831MA1999999093771MD1999999-0391REMSYN076AAXX  04034 42111 32996 00501 10106 20061 39377 40169 333 10216 20083 59039;EQDQ01  00002PRCP99
0205421110999992000120406004+30310+078020FM-12+068299999V0200501N000512200019N0020001N1+01941+00931101421ADDAA199000091AY101061AY201061GA1001+999999999GF100991001001999999001001MA1999999093751MD1999999-0531MW1051REMSYN070AAXX  04064 42111 31995 00501 10194 20093 39375 40142 70500 333 59053;EQDQ01  00002PRCP99
0205421110999992000120409004+30310+078020FM-12+068299999V0202701N001012200019N0020001N1+02221+00901101091ADDAA199000091AY101031AY201031GA1001+999999999GF100991001001999999001001MA1999999093521MD1999999-0051MW1051REMSYN070AAXX  04094 42111 31995 02702 10222 20090 39352 40109 70500 333 59005;EQDQ01  00002PRCP99
0196421110999992000120412004+30310+078020FM-12+068299999V0209999C000012200019N0040001N1+01681+01031101171ADDAA199000091GA1001+999999999GF100991001001999999001001KA1120M+02311MA1999999093451MD1999999-0531REMSYN070AAXX  04124 42111 32996 00000 10168 20103 39345 40117 333 10231 59053;EQDQ01  00002PRCP99
0177421110999992000120415004+30310+078020FM-12+068299999V0200501N001012200019N0040001N1+01201+00941101441ADDAA199000091GA1001+999999999GF100991001001999999001001MA1999999093571MD1999999-0421REMSYN064AAXX  04154 42111 32996 00502 10120 20094 39357 40144 333 59042;EQDQ01  00002PRCP99
0177421110999992000120418004+30310+078020FM-12+068299999V0200501N001512200019N0040001N1+01081+00771101521ADDAA199000091GA1001+999999999GF100991001001999999001001MA1999999093621MD1999999-0381REMSYN064AAXX  04184 42111 32996 00503 10108 20077 39362 40152 333 59038;EQDQ01  00002PRCP99
0177421110999992000120421004+30310+078020FM-12+068299999V0200501N001012200019N0040001N1+00921+00681101471ADDAA199000091GA1001+999999999GF100991001001999999001001MA1999999093541MD1999999-0341REMSYN064AAXX  04214 42111 32996 00502 10092 20068 39354 40147 333 59034;EQDQ01  00002PRCP99
0177421110999992000120500004+30310+078020FM-12+068299999V0200501N000512200019N0040001N1+00801+00591101431ADDAA199000091GA1001+999999999GF100991001001999999001001MA1999999093461MD1999999-0281REMSYN064AAXX  05004 42111 32996 00501 10080 20059 39346 40143 333 59028;EQDQ01  00002PRCP99
0215421110999992000120503004+30310+078020FM-12+068299999V0209999C000012200019N0040001N1+01101+00521101531ADDAA199000091GA1001+999999999GF100991001001999999001001KA1120M+02311KA2120N+00701MA1999999093631MD1999999-0141REMSYN076AAXX  05034 42111 32996 00000 10110 20052 39363 40153 333 10231 20070 59014;EQDQ01  00002PRCP99
0215421110999992000120506004+30310+078020FM-12+068299999V0200501N000512200019N0020001N1+01981+00661101311ADDAA199000091AY101061AY201061GA1001+999999999GF100991001001999999001001MA1999999093661MD1999999-0091REMSYN070AAXX  05064 42111 31995 00501 10198 20066 39366 40131 78500 333 59009;EQDQ01+000852PRSWM1Q02  00002PRCP99
0205421110999992000120509004+30310+078020FM-12+068299999V0202301N000512200019N0020001N1+02261+00951101031ADDAA199000091AY101031AY201031GA1001+999999999GF100991001001999999001001MA1999999093471MD1999999-0051MW1051REMSYN070AAXX  05094 42111 31995 02301 10226 20095 39347 40103 70500 333 59005;EQDQ01  00002PRCP99
0224421110999992000120512004+30310+078020FM-12+068299999V0209999C000012200019N0020001N1+01661+01051101221ADDAA199000091AY101061AY201061GA1001+999999999GF100991001001999999001001KA1120M+02361MA1999999093501MD1999999+0051MW1051REMSYN076AAXX  05124 42111 31995 00000 10166 20105 39350 40122 70500 333 10236 58005;EQDQ01  00002PRCP99
0205421110999992000120515004+30310+078020FM-12+068299999V0200501N000512200019N0020001N1+01201+00811101581ADDAA199000091AY101031AY201031GA1001+999999999GF100991001001999999001001MA1999999093701MD1999999+0131MW1051REMSYN070AAXX  05154 42111 31995 00501 10120 20081 39370 40158 70500 333 58013;EQDQ01  00002PRCP99
0205421110999992000120518004+30310+078020FM-12+068299999V0200501N000512200019N0020001N1+01081+00681101631ADDAA199000091AY101061AY201061GA1001+999999999GF100991001001999999001001MA1999999093711MD1999999+0091MW1051REMSYN070AAXX  05184 42111 31995 00501 10108 20068 39371 40163 70500 333 58009;EQDQ01  00002PRCP99
0199421110999992000120521004+30310+078020FM-12+068299999V0200501N000512200019N0020001N1+00881+99999101641ADDAA199000091AY101031AY201031GA1001+999999999GF100991001001999999001001MA1999999093681MD1999999+0141MW1051REMSYN064AAXX  05214 42111 31995 00501 10088 39368 40164 70500 333 58014;EQDQ01  00002PRCP99
0205421110999992000120600004+30310+078020FM-12+068299999V0200501N000512200019N0020001N1+00821+00611101551ADDAA199000091AY101061AY201061GA1001+999999999GF100991001001999999001001MA1999999093591MD1999999+0131MW1051REMSYN070AAXX  06004 42111 31995 00501 10082 20061 39359 40155 70500 333 58013;EQDQ01  00002PRCP99
0243421110999992000120603004+30310+078020FM-12+068299999V0203201N000512200019N0020001N1+00921+00591101641ADDAA199000091AY101031AY201031GA1001+999999999GF100991001001999999001001KA1120M+02351KA2120N+00751MA1999999093701MD1999999+0071MW1051REMSYN082AAXX  06034 42111 31995 03201 10092 20059 39370 40164 70500 333 10235 20075 58007;EQDQ01  00002PRCP99
0205421110999992000120606004+30310+078020FM-12+068299999V0202301N000512200019N0020001N1+01941+00551101451ADDAA199000091AY101061AY201061GA1001+999999999GF100991001001999999001001MA1999999093781MD1999999+0121MW1051REMSYN070AAXX  06064 42111 31995 02301 10194 20055 39378 40145 70500 333 58012;EQDQ01  00002PRCP99
0205421110999992000120609004+30310+078020FM-12+068299999V0201401N001012200019N0020001N1+02201+00721101221ADDAA199000091AY101031AY201031GA1001+999999999GF100991001001999999001001MA1999999093621MD1999999+0151MW1051REMSYN070AAXX  06094 42111 31995 01402 10220 20072 39362 40122 70500 333 58015;EQDQ01  00002PRCP99
0224421110999992000120612004+30310+078020FM-12+068299999V0209999C000012200019N0020001N1+01641+00951101361ADDAA199000091AY101061AY201061GA1001+999999999GF100991001001999999001001KA1120M+02281MA1999999093631MD1999999+0131MW1051REMSYN076AAXX  06124 42111 31995 00000 10164 20095 39363 40136 70500 333 10228 58013;EQDQ01  00002PRCP99
0205421110999992000120615004+30310+078020FM-12+068299999V0200501N001012200019N0020001N1+01241+00771101671ADDAA199000091AY101031AY201031GA1001+999999999GF100991001001999999001001MA1999999093811MD1999999+0111MW1051REMSYN070AAXX  06154 42111 31995 00502 10124 20077 39381 40167 70500 333 58011;EQDQ01  00002PRCP99
0177421110999992000120618004+30310+078020FM-12+068299999V0200501N000512200019N0040001N1+01101+00701101701ADDAA199000091GA1001+999999999GF100991001001999999001001MA1999999093781MD1999999+0071REMSYN064AAXX  06184 42111 32996 00501 10110 20070 39378 40170 333 58007;EQDQ01  00002PRCP99
0177421110999992000120621004+30310+078020FM-12+068299999V0200501N000512200019N0040001N1+00921+00551101741ADDAA199000091GA1001+999999999GF100991001001999999001001MA1999999093791MD1999999+0111REMSYN064AAXX  06214 42111 32996 00501 10092 20055 39379 40174 333 58011;EQDQ01  00002PRCP99
0177421110999992000120700004+30310+078020FM-12+068299999V0200501N000512200019N0040001N1+00841+00501101761ADDAA199000091GA1001+999999999GF100991001001999999001001MA1999999093781MD1999999+0191REMSYN064AAXX  07004 42111 32996 00501 10084 20050 39378 40176 333 58019;EQDQ01  00002PRCP99
0215421110999992000120703004+30310+078020FM-12+068299999V0209999C000012200019N0040001N1+00801+00591101961ADDAA199000091GA1001+999999999GF100991001001999999001001KA1120M+02281KA2120N+00661MA1999999093941MD1999999+0241REMSYN076AAXX  07034 42111 32996 00000 10080 20059 39394 40196 333 10228 20066 58024;EQDQ01  00002PRCP99
0177421110999992000120709004+30310+078020FM-12+068299999V0203201N000512200019N0040001N1+02201+00871101311ADDAA199000091GA1001+999999999GF100991001001999999001001MA1999999093701MD1999999+0081REMSYN064AAXX  07094 42111 32996 03201 10220 20087 39370 40131 333 58008;EQDQ01  00002PRCP99
0196421110999992000120712004+30310+078020FM-12+068299999V0209999C000012200019N0040001N1+01661+00931101381ADDAA199000091GA1001+999999999GF100991001001999999001001KA1120M+02291MA1999999093651MD1999999+0001REMSYN070AAXX  07124 42111 32996 00000 10166 20093 39365 40138 333 10229 58000;EQDQ01  00002PRCP99
0195421110999992000120715004+30310+078020FM-12+068299999V0200501N001019999999N0040001N1+01241+00821101671ADDAA199000091GA1031+030009039GF105991031001999999031011MA1999999093811MD1999999+0001REMSYN082AAXX  07154 42111 32996 50502 10124 20082 39381 40167 83031 333 58000 83360 85075;EQDQ01  00002PRCP99
0195421110999992000120718004+30310+078020FM-12+068299999V0200501N00051036001CN0040001N1+01161+00771101731ADDAA199000091GA1011+010509069GF107991021081012501071001MA1999999093841MD1999999+0061REMSYN082AAXX  07184 42111 32696 70501 10116 20077 39384 40173 82870 333 58006 81635 85360;EQDQ01  00002PRCP99
0177421110999992000120721004+30310+078020FM-12+068299999V0209999C000012200019N0040001N1+01081+00551101671ADDAA199000091GA1001+999999999GF100991001001999999001001MA1999999093751MD1999999-0021REMSYN064AAXX  07214 42111 32996 00000 10108 20055 39375 40167 333 59002;EQDQ01  00002PRCP99
0189421110999992000120800004+30310+078020FM-12+068299999V0200501N001012200019N0040001N1+00981+00481101661ADDAA199000091GA1021+075009019GF102991001001999999001011MA1999999093711MD1999999-0071REMSYN076AAXX  08004 42111 32996 20502 10098 20048 39371 40166 80001 333 59007 82075;EQDQ01  00002PRCP99
0215421110999992000120803004+30310+078020FM-12+068299999V0202301N000512200019N0040001N1+01041+00681101851ADDAA199000091GA1001+999999999GF100991001001999999001001KA1120M+02281KA2120N+00861MA1999999093911MD1999999-0031REMSYN076AAXX  08034 42111 32996 02301 10104 20068 39391 40185 333 10228 20086 59003;EQDQ01  00002PRCP99
0189421110999992000120806004+30310+078020FM-12+068299999V0201401N000512200019N0040001N1+02041+00691101611ADDAA199000091GA1011+012009029GF101991011011012501001001MA1999999093961MD1999999+0071REMSYN076AAXX  08064 42111 32696 11401 10204 20069 39396 40161 81100 333 58007 81840;EQDQ01  00002PRCP99
0189421110999992000120809004+30310+078020FM-12+068299999V0202301N001012200019N0040001N1+02421+00751101211ADDAA199000091GA1011+030009079GF101991011001999999031001MA1999999093691MD1999999-0011REMSYN076AAXX  08094 42111 32996 12302 10242 20075 39369 40121 81030 333 59001 81360;EQDQ01  00002PRCP99
0208421110999992000120812004+30310+078020FM-12+068299999V0209999C000012200019N0040001N1+01801+01011101381ADDAA199000091GA1011+030009079GF101991011001999999031001KA1120M+02461MA1999999093671MD1999999+0021REMSYN082AAXX  08124 42111 32996 10000 10180 20101 39367 40138 81030 333 10246 58002 81360;EQDQ01  00002PRCP99
0177421110999992000120815004+30310+078020FM-12+068299999V0200501N001012200019N0040001N1+01261+00711101521ADDAA199000091GA1001+999999999GF100991001001999999001001MA1999999093681MD1999999-0131REMSYN064AAXX  08154 42111 32996 00502 10126 20071 39368 40152 333 59013;EQDQ01  00002PRCP99
0189421110999992000120818004+30310+078020FM-12+068299999V0200501N000512200019N0040001N1+01101+00571101561ADDAA199000091GA1011+030009079GF101991011001999999031001MA1999999093661MD1999999-0181REMSYN076AAXX  08184 42111 32996 10501 10110 20057 39366 40156 81030 333 59018 81360;EQDQ01  00002PRCP99
0177421110999992000120821004+30310+078020FM-12+068299999V0200501N001012200019N0040001N1+01021+00521101481ADDAA199000091GA1001+999999999GF100991001001999999001001MA1999999093581MD1999999-0171REMSYN064AAXX  08214 42111 32996 00502 10102 20052 39358 40148 333 59017;EQDQ01  00002PRCP99
0215421110999992000120903004+30310+078020FM-12+068299999V0209999C000012200019N0040001N1+00961+00781101501ADDAA199000091GA1001+999999999GF100991001001999999001001KA1120M+02461KA2120N+00731MA1999999093571MD1999999-0371REMSYN076AAXX  09034 42111 32996 00000 10096 20078 39357 40150 333 10246 20073 59037;EQDQ01  00002PRCP99
0205421110999992000120906004+30310+078020FM-12+068299999V0209999C000012200019N0020001N1+02001+00631101251ADDAA199000091AY101061AY201061GA1001+999999999GF100991001001999999001001MA1999999093601MD1999999-0361MW1051REMSYN070AAXX  09064 42111 31995 00000 10200 20063 39360 40125 70500 333 59036;EQDQ01  00002PRCP99
0205421110999992000120909004+30310+078020FM-12+068299999V0202301N001012200019N0040001N1+02221+00801100831ADDAA199000091AY101031AY201031GA1001+999999999GF100991001001999999001001MA1999999093291MD1999999-0401MW1051REMSYN070AAXX  09094 42111 31996 02302 10222 20080 39329 40083 70500 333 59040;EQDQ01  00002PRCP99
0236421110999992000120912004+30310+078020FM-12+068299999V0209999C000012200019N0040001N1+01621+00831101141ADDAA199000091AY101061AY201061GA1011+075009019GF101991001001999999001011KA1120M+02261MA1999999093421MD1999999-0251MW1051REMSYN088AAXX  09124 42111 31996 10000 10162 20083 39342 40114 70500 80001 333 10226 59025 81075;EQDQ01  00002PRCP99
0189421110999992000120915004+30310+078020FM-12+068299999V0200501N000512200019N0040001N1+01121+00681101431ADDAA199000091GA1021+075009019GF102991001001999999001011MA1999999093561MD1999999-0121REMSYN076AAXX  09154 42111 32996 20501 10112 20068 39356 40143 80001 333 59012 82075;EQDQ01  00002PRCP99
0189421110999992000120918004+30310+078020FM-12+068299999V0200501N000512200019N0040001N1+01041+00681101531ADDAA199000091GA1021+030009079GF103991021001999999031011MA1999999093631MD1999999-0031REMSYN076AAXX  09184 42111 32996 30501 10104 20068 39363 40153 82031 333 59003 82360;EQDQ01  00002PRCP99
0189421110999992000120921004+30310+078020FM-12+068299999V0200501N000512200019N0040001N1+00921+00591101511ADDAA199000091GA1011+075009019GF101991001001999999001011MA1999999093581MD1999999+0001REMSYN076AAXX  09214 42111 32996 10501 10092 20059 39358 40151 80001 333 58000 81075;EQDQ01  00002PRCP99
0177421110999992000121000004+30310+078020FM-12+068299999V0200501N000512200019N0040001N1+00861+00571101561ADDAA199000091GA1001+999999999GF100991001001999999001001MA1999999093601MD1999999+0081REMSYN064AAXX  10004 42111 32996 00501 10086 20057 39360 40156 333 58008;EQDQ01  00002PRCP99
0227421110999992000121003004+30310+078020FM-12+068299999V0209999C000012200019N0040001N1+00881+00631101701ADDAA199000091GA1021+075009019GF102991001001999999001011KA1120M+02261KA2120N+00771MA1999999093721MD1999999+0151REMSYN088AAXX  10034 42111 32996 20000 10088 20063 39372 40170 80001 333 10226 20077 58015 82075;EQDQ01  00002PRCP99
0175421110999992000121006004+30310+078020FM-12+068299999V0209999C000019999999N0020001N1+01861+00681101451ADDAA199000091AY121061AY211061GF105991999999999999999999MA1999999093761MW1051REMSYN070AAXX  10064 42111 31995 50000 10186 20068 39376 40145 70521 333 58///;EQDQ01  00002PRCP99
0217421110999992000121009004+30310+078020FM-12+068299999V0201401N001010300019N0040001N1+02001+00631101251ADDAA199000091GA1021+010509069GA2031+030009039GF106991021051012501031011MA1999999093601MD1999999+0311REMSYN088AAXX  10094 42111 32696 61402 10200 20063 39360 40125 82531 333 58031 82635 83360 85075;EQDQ01  00002PRCP99
0223421110999992000121015004+30310+078020FM-12+068299999V0209999C00001036001CN0020001N1+01261+00961101601ADDAA199000091AY121031AY221031GA1031+010509069GF105991031051012501051001MA1999999093741MD1999999+0181MW1051REMSYN088AAXX  10154 42111 31695 50000 10126 20096 39374 40160 70522 83550 333 58018 83635 85360;EQDQ01  00002PRCP99
0189421110999992000121018004+30310+078020FM-12+068299999V0200501N001012200019N0040001N1+01161+00771101691ADDAA199000091GA1021+030009079GF102991021001999999051001MA1999999093801MD1999999+0171REMSYN076AAXX  10184 42111 32996 20502 10116 20077 39380 40169 82050 333 58017 82360;EQDQ01  00002PRCP99
0177421110999992000121021004+30310+078020FM-12+068299999V0209999C000012200019N0040001N1+00901+00521101741ADDAA199000091GA1001+999999999GF100991001001999999001001MA1999999093761MD1999999+0181REMSYN064AAXX  10214 42111 32996 00000 10090 20052 39376 40174 333 58018;EQDQ01  00002PRCP99
0177421110999992000121100004+30310+078020FM-12+068299999V0200501N000512200019N0040001N1+00801+00461101681ADDAA199000091GA1001+999999999GF100991001001999999001001MA1999999093691MD1999999+0091REMSYN064AAXX  11004 42111 32996 00501 10080 20046 39369 40168 333 58009;EQDQ01  00002PRCP99
0215421110999992000121103004+30310+078020FM-12+068299999V0209999C000012200019N0040001N1+01021+00481101761ADDAA199000091GA1001+999999999GF100991001001999999001001KA1120M+02021KA2120N+00621MA1999999093841MD1999999+0121REMSYN076AAXX  11034 42111 32996 00000 10102 20048 39384 40176 333 10202 20062 58012;EQDQ01  00002PRCP99
0205421110999992000121106004+30310+078020FM-12+068299999V0202301N000512200019N0040001N1+01841+00751101541ADDAA199000091AY101061AY201061GA1001+999999999GF100991001001999999001001MA1999999093851MD1999999+0091MW1051REMSYN070AAXX  11064 42111 31996 02301 10184 20075 39385 40154 70500 333 58009;EQDQ01  00002PRCP99
0196421110999992000121112004+30310+078020FM-12+068299999V0202301N000512200019N0040001N1+01641+00951101341ADDAA199000091GA1001+999999999GF100991001001999999001001KA1120M+02141MA1999999093621MD1999999+0051REMSYN070AAXX  11124 42111 32996 02301 10164 20095 39362 40134 333 10214 58005;EQDQ01  00002PRCP99
0177421110999992000121115004+30310+078020FM-12+068299999V0200501N001012200019N0040001N1+01121+00851101501ADDAA199000091GA1001+999999999GF100991001001999999001001MA1999999093631MD1999999-0111REMSYN064AAXX  11154 42111 32996 00502 10112 20085 39363 40150 333 59011;EQDQ01  00002PRCP99
0243421110999992000121203004+30310+078020FM-12+068299999V0203201N000512200019N0020001N1+00841+00591101581ADDAA199000091AY101031AY201031GA1001+999999999GF100991001001999999001001KA1120M+02141KA2120N+00641MA1999999093621MD1999999-0221MW1051REMSYN082AAXX  12034 42111 31995 03201 10084 20059 39362 40158 70500 333 10214 20064 59022;EQDQ01  00002PRCP99
0217421110999992000121206004+30310+078020FM-12+068299999V0203201N000512200019N0020001N1+01821+01161101451ADDAA199000091AY101061AY201061GA1011+075009019GF101991001001999999001011MA1999999093761MD1999999+0091MW1051REMSYN082AAXX  12064 42111 31995 13201 10182 20116 39376 40145 70500 80001 333 58009 81075;EQDQ01  00002PRCP99
0217421110999992000121209004+30310+078020FM-12+068299999V0201401N000512200019N0020001N1+02101+00961101241ADDAA199000091AY101031AY201031GA1011+075009019GF101991001001999999001011MA1999999093621MD1999999-0031MW1051REMSYN082AAXX  12094 42111 31995 11401 10210 20096 39362 40124 70500 80001 333 59003 81075;EQDQ01  00002PRCP99
0236421110999992000121212004+30310+078020FM-12+068299999V0209999C000012200019N0040001N1+01581+00961101481ADDAA199000091AY111061AY211061GA1021+075009019GF102991001001999999001011KA1120M+02171MA1999999093711MD1999999+0091MW1051REMSYN088AAXX  12124 42111 31996 20000 10158 20096 39371 40148 70511 80001 333 10217 58009 82075;EQDQ01  00002PRCP99
0205421110999992000121215004+30310+078020FM-12+068299999V0200501N001512200019N0020001N1+01141+00791101731ADDAA199000091AY101031AY201031GA1001+999999999GF100991001001999999001001MA1999999093861MD1999999+0231MW1051REMSYN070AAXX  12154 42111 31995 00503 10114 20079 39386 40173 70500 333 58023;EQDQ01  00002PRCP99
0205421110999992000121218004+30310+078020FM-12+068299999V0200501N001012200019N0020001N1+01001+00761101821ADDAA199000091AY101061AY201061GA1001+999999999GF100991001001999999001001MA1999999093871MD1999999+0121MW1051REMSYN070AAXX  12184 42111 31995 00502 10100 20076 39387 40182 70500 333 58012;EQDQ01  00002PRCP99
0205421110999992000121221004+30310+078020FM-12+068299999V0200501N001012200019N0020001N1+00861+00661101781ADDAA199000091AY101031AY201031GA1001+999999999GF100991001001999999001001MA1999999093801MD1999999+0211MW1051REMSYN070AAXX  12214 42111 31995 00502 10086 20066 39380 40178 70500 333 58021;EQDQ01  00002PRCP99
0205421110999992000121300004+30310+078020FM-12+068299999V0200501N000512200019N0020001N1+00781+00611101731ADDAA199000091AY101061AY201061GA1001+999999999GF100991001001999999001001MA1999999093721MD1999999+0151MW1051REMSYN070AAXX  13004 42111 31995 00501 10078 20061 39372 40173 70500 333 58015;EQDQ01  00002PRCP99
0243421110999992000121303004+30310+078020FM-12+068299999V0209999C000012200019N0020001N1+00941+00741101861ADDAA199000091AY101031AY201031GA1001+999999999GF100991001001999999001001KA1120M+02171KA2120N+00731MA1999999093901MD1999999+0211MW1051REMSYN082AAXX  13034 42111 31995 00000 10094 20074 39390 40186 70500 333 10217 20073 58021;EQDQ01  00002PRCP99
0205421110999992000121306004+30310+078020FM-12+068299999V0201801N000512200019N0020001N1+01741+00901101551ADDAA199000091AY101061AY201061GA1001+999999999GF100991001001999999001001MA1999999093831MD1999999+0071MW1051REMSYN070AAXX  13064 42111 31995 01801 10174 20090 39383 40155 70500 333 58007;EQDQ01  00002PRCP99
0205421110999992000121309004+30310+078020FM-12+068299999V0203201N000512200019N0020001N1+02061+00771101211ADDAA199000091AY101031AY201031GA1001+999999999GF100991001001999999001001MA1999999093591MD1999999-0031MW1051REMSYN070AAXX  13094 42111 31995 03201 10206 20077 39359 40121 70500 333 59003;EQDQ01  00002PRCP99
0224421110999992000121312004+30310+078020FM-12+068299999V0209999C000012200019N0020001N1+01541+01031101331ADDAA199000091AY101061AY201061GA1001+999999999GF100991001001999999001001KA1120M+02061MA1999999093571MD1999999-0141MW1051REMSYN076AAXX  13124 42111 31995 00000 10154 20103 39357 40133 70500 333 10206 59014;EQDQ01  00002PRCP99
0205421110999992000121315004+30310+078020FM-12+068299999V0200501N000512200019N0020001N1+01081+00851101591ADDAA199000091AY101031AY201031GA1001+999999999GF100991001001999999001001MA1999999093661MD1999999-0201MW1051REMSYN070AAXX  13154 42111 31995 00501 10108 20085 39366 40159 70500 333 59020;EQDQ01  00002PRCP99
0205421110999992000121318004+30310+078020FM-12+068299999V0200501N000512200019N0020001N1+01021+00781101571ADDAA199000091AY101061AY201061GA1001+999999999GF100991001001999999001001MA1999999093641MD1999999-0231MW1051REMSYN070AAXX  13184 42111 31995 00501 10102 20078 39364 40157 70500 333 59023;EQDQ01  00002PRCP99
0205421110999992000121321004+30310+078020FM-12+068299999V0200501N000512200019N0020001N1+00921+00801101491ADDAA199000091AY101031AY201031GA1001+999999999GF100991001001999999001001MA1999999093561MD1999999-0241MW1051REMSYN070AAXX  13214 42111 31995 00501 10092 20080 39356 40149 70500 333 59024;EQDQ01  00002PRCP99
0205421110999992000121400004+30310+078020FM-12+068299999V0200501N000512200019N0020001N1+00821+00721101501ADDAA199000091AY101061AY201061GA1001+999999999GF100991001001999999001001MA1999999093501MD1999999-0221MW1051REMSYN070AAXX  14004 42111 31995 00501 10082 20072 39350 40150 70500 333 59022;EQDQ01  00002PRCP99
0215421110999992000121403004+30310+078020FM-12+068299999V0209999C000012200019N0040001N1+00961+00761101491ADDAA199000091GA1001+999999999GF100991001001999999001001KA1120M+02061KA2120N+00731MA1999999093561MD1999999-0371REMSYN076AAXX  14034 42111 32996 00000 10096 20076 39356 40149 333 10206 20073 59037;EQDQ01  00002PRCP99
0205421110999992000121406004+30310+078020FM-12+068299999V0202301N001012200019N0020001N1+01881+00901101251ADDAA199000091AY101061AY201061GA1001+999999999GF100991001001999999001001MA1999999093571MD1999999-0261MW1051REMSYN070AAXX  14064 42111 31995 02302 10188 20090 39357 40125 70500 333 59026;EQDQ01  00002PRCP99
0205421110999992000121409004+30310+078020FM-12+068299999V0202301N001012200019N0020001N1+02141+01141101071ADDAA199000091AY101031AY201031GA1001+999999999GF100991001001999999001001MA1999999093491MD1999999-0101MW1051REMSYN070AAXX  14094 42111 31995 02302 10214 20114 39349 40107 70500 333 59010;EQDQ01  00002PRCP99
0224421110999992000121412004+30310+078020FM-12+068299999V0209999C000012200019N0020001N1+01641+01151101291ADDAA199000091AY101061AY201061GA1001+999999999GF100991001001999999001001KA1120M+02171MA1999999093561MD1999999-0011MW1051REMSYN076AAXX  14124 42111 31995 00000 10164 20115 39356 40129 70500 333 10217 59001;EQDQ01  00002PRCP99
0177421110999992000121418004+30310+078020FM-12+068299999V0200501N001012200019N0040001N1+01061+00911101711ADDAA199000091GA1001+999999999GF100991001001999999001001MA1999999093791MD1999999+0151REMSYN064AAXX  14184 42111 32996 00502 10106 20091 39379 40171 333 58015;EQDQ01  00002PRCP99
0177421110999992000121500004+30310+078020FM-12+068299999V0200501N000512200019N0040001N1+00941+00701101591ADDAA199000091GA1001+999999999GF100991001001999999001001MA1999999093661MD1999999+0161REMSYN064AAXX  15004 42111 32996 00501 10094 20070 39366 40159 333 58016;EQDQ01  00002PRCP99
0261421110999992000121503004+30310+078020FM-12+068299999V0200501N000512200019N0020001N1+00981+00741101821ADDAA199000091AY111031AY211031GA1021+030009039GF104991021001999999031011KA1120M+02171KA2120N+00851MA1999999093871MD1999999+0311MW1051REMSYN100AAXX  15034 42111 31995 40501 10098 20074 39387 40182 70511 82031 333 10217 20085 58031 82360 83075;EQDQ01  00002PRCP99
0217421110999992000121506004+30310+078020FM-12+068299999V0202301N000510750019N0020001N1+01841+00981101571ADDAA199000091AY121061AY221061GA1051+075009019GF105991001001999999001011MA1999999093881MD1999999+0311MW1051REMSYN082AAXX  15064 42111 31995 52301 10184 20098 39388 40157 70522 80001 333 58031 85075;EQDQ01  00002PRCP99
0189421110999992000121509004+30310+078020FM-12+068299999V0202301N000512200019N0020001N1+02101+00961101271ADDAA199000091GA1021+030009079GF102991021001999999031001MA1999999093651MD1999999+0161REMSYN076AAXX  15094 42111 31995 22301 10210 20096 39365 40127 82030 333 58016 82360;EQDQ01  00002PRCP99
0264421110999992000121512004+30310+078020FM-12+068299999V0209999C000010300019N0020001N1+01701+01181101411ADDAA199000091AY121061AY211061GA1021+010509069GA2041+030009039GF107991021021999999031011KA1120M+02191MA1999999093681MD1999999+0121MW1051REMSYN100AAXX  15124 42111 31995 70000 10170 20118 39368 40141 70521 82231 333 10219 58012 82635 84360 85075;EQDQ01  00002PRCP99
0217421110999992000121515004+30310+078020FM-12+068299999V0200501N000512200019N0020001N1+01241+01021101731ADDAA199000091AY121031AY211031GA1011+075009019GF102991001001999999001011MA1999999093871MD1999999+0191MW1051REMSYN082AAXX  15154 42111 31995 20501 10124 20102 39387 40173 70521 80001 333 58019 81075;EQDQ01  00002PRCP99
0217421110999992000121518004+30310+078020FM-12+068299999V0200501N000512200019N0020001N1+01161+00971101711ADDAA199000091AY111061AY211061GA1011+075009019GF101991001001999999001011MA1999999093821MD1999999+0031MW1051REMSYN082AAXX  15184 42111 31995 10501 10116 20097 39382 40171 70511 80001 333 58003 81075;EQDQ01  00002PRCP99
0196421110999992000121521004+30310+078020FM-12+068299999V0200501N000512200019N0040001N1+01121+00811101691ADDAA199000091GA1011+030009039GF104991011001999999031011MD1999999+0031REMSYN082AAXX  15214 42111 32996 40501 10112 20081 38380 40169 81031 333 58003 81360 84075;EQDQ01+083803APOSP Q02  00002PRCP99
0195421110999992000121600004+30310+078020FM-12+068299999V0209999C000019999999N0040001N1+01081+00811101691ADDAA199000091GA1031+030009039GF105991031001999999031011MA1999999093771MD1999999+0111REMSYN082AAXX  16004 42111 32996 50000 10108 20081 39377 40169 83031 333 58011 83360 85075;EQDQ01  00002PRCP99
0315421110999992000121603004+30310+078020FM-12+068299999V0200501N00051030001CN0040001N1+01041+00891101811ADDAA199000091AY121031AY221031GA1021+010509069GA2041+030009039GA3061+075009009GF107991021051012501031011KA1120M+02191KA2120N+00991MA1999999094101MD1999999+0991MW1051REMSYN122AAXX  16034 42111 31696 70501 10104 20089 39410 40181 70522 82531 333 10219 20099 58099 5823/ 82635 84360 86075 555 10000;EQDQ01  00002PRCP99
0223421110999992000121606004+30310+078020FM-12+068299999V0202301N00101036001CN0020001N1+01821+01001101731ADDAA199000091AY121061AY221061GA1021+010509069GF107991021051012501071011MA1999999094021MD1999999+0141MW1051REMSYN088AAXX  16064 42111 31695 72302 10182 20100 39402 40173 70522 82571 333 58014 82635 85360;EQDQ01  00002PRCP99
0245421110999992000121609004+30310+078020FM-12+068299999V0202301N001010300019N0020001N1+02101+00961101471ADDAA199000091AY121031AY221031GA1021+010509069GA2031+030009039GF106991021051012501031011MA1999999093851MD1999999+0201MW1051REMSYN094AAXX  16094 42111 31695 62302 10210 20096 39385 40147 70522 82531 333 58020 82635 83360 85075;EQDQ01  00002PRCP99
0242421110999992000121612004+30310+078020FM-12+068299999V0209999C00001036001CN0020001N1+01641+01151101701ADDAA199000091AY121061AY221061GA1021+010509069GF105991021051012501031001KA1120M+02131MA1999999093931MD1999999+0251MW1051REMSYN094AAXX  16124 42111 31695 50000 10164 20115 39393 40170 70522 82530 333 10213 58025 82635 85360;EQDQ01  00002PRCP99
0217421110999992000121615004+30310+078020FM-12+068299999V0200501N000512200019N0020001N1+01221+00961101901ADDAA199000091AY121031AY221031GA1011+030009079GF103991011001999999031011MA1999999094021MD1999999+0321MW1051REMSYN082AAXX  16154 42111 31995 30501 10122 20096 39402 40190 70522 81031 333 58032 81360;EQDQ01  00002PRCP99
0177421110999992000121618004+30310+078020FM-12+068299999V0200501N000512200019N0040001N1+01161+00811101981ADDAA199000091GA1001+999999999GF100991001001999999001001MA1999999094071MD1999999+0251REMSYN064AAXX  16184 42111 32996 00501 10116 20081 39407 40198 333 58025;EQDQ01  00002PRCP99
0177421110999992000121621004+30310+078020FM-12+068299999V0200501N000512200019N0040001N1+01041+00681101871ADDAA199000091GA1001+999999999GF100991001001999999001001MA1999999093931MD1999999+0131REMSYN064AAXX  16214 42111 32996 00501 10104 20068 39393 40187 333 58013;EQDQ01  00002PRCP99
0177421110999992000121700004+30310+078020FM-12+068299999V0200501N000512200019N0040001N1+00921+00631101571ADDAA199000091GA1001+999999999GF100991001001999999001001MA1999999093911MD1999999+0141REMSYN064AAXX  17004 42111 32996 00501 10092 20063 39391 40157 333 58014;EQDQ01  00002PRCP99
0249421110999992000121703004+30310+078020FM-12+068299999V0209999C000019999999N0040001N1+01041+00721102071ADDAA199000091GA1021+030009039GF105991021031999999999011KA1120M+02131KA2120N+00891MA1999999094121MD1999999+0231REMSYN094AAXX  17034 42111 32996 50000 10104 20072 39412 40207 82301 333 10213 20089 58023 82360 85075;EQDQ01+000002SCOMCGQ02  00002PRCP99
0217421110999992000121706004+30310+078020FM-12+068299999V0201401N000512200019N0020001N1+01941+01061101841ADDAA199000091AY121061AY221061GA1041+075009019GF104991001001999999001011MA1999999094141MD1999999+0121MW1051REMSYN082AAXX  17064 42111 31995 41401 10194 20106 39414 40184 70522 80001 333 58012 84075;EQDQ01  00002PRCP99
0189421110999992000121709004+30310+078020FM-12+068299999V0202301N001012200019N0040001N1+02221+00801101561ADDAA199000091GA1021+075009019GF102991001001999999001011MA1999999093961MD1999999+0111REMSYN076AAXX  17094 42111 32996 22302 10222 20080 39396 40156 80001 333 58011 82075;EQDQ01  00002PRCP99
0214421110999992000121712004+30310+078020FM-12+068299999V0209999C000012200019N0040001N1+01701+01061101551ADDAA199000091GA1011+010509069GF104991011051012501031011KA1120M+02311MA1999999093801MD1999999-0131REMSYN088AAXX  17124 42111 32696 40000 10170 20106 39380 40155 81531 333 10231 59013 81635 83075;EQDQ01  00002PRCP99
0177421110999992000121715004+30310+078020FM-12+068299999V0200501N001012200019N0040001N1+01301+00931101751ADDAA199000091GA1001+999999999GF100991001001999999001001MA1999999093891MD1999999-0131REMSYN064AAXX  17154 42111 32996 00502 10130 20093 39389 40175 333 59013;EQDQ01  00002PRCP99
0177421110999992000121718004+30310+078020FM-12+068299999V0200501N001012200019N0040001N1+01181+00791101771ADDAA199000091GA1001+999999999GF100991001001999999001001MA1999999093881MD1999999-0191REMSYN064AAXX  17184 42111 32996 00502 10118 20079 39388 40177 333 59019;EQDQ01  00002PRCP99
0177421110999992000121721004+30310+078020FM-12+068299999V0200501N001012200019N0040001N1+01021+00701101661ADDAA199000091GA1001+999999999GF100991001001999999001001MA1999999093741MD1999999-0191REMSYN064AAXX  17214 42111 32996 00502 10102 20070 39374 40166 333 59019;EQDQ01  00002PRCP99
0177421110999992000121800004+30310+078020FM-12+068299999V0200501N000512200019N0040001N1+00901+00661101631ADDAA199000091GA1001+999999999GF100991001001999999001001MA1999999093671MD1999999-0241REMSYN064AAXX  18004 42111 32996 00501 10090 20066 39367 40163 333 59024;EQDQ01  00002PRCP99
0215421110999992000121803004+30310+078020FM-12+068299999V0203601N000512200019N0040001N1+00921+00761101901ADDAA199000091GA1001+999999999GF100991001001999999001001KA1120M+02311KA2120N+00801MA1999999093851MD1999999-0271REMSYN076AAXX  18034 42111 32996 03601 10092 20076 39385 40190 333 10231 20080 59027;EQDQ01  00002PRCP99
0126421110999992000121806004+30310+078020FM-12+068299999V0200201N015912200019N0020001N1+02201+00771999999ADDAA199000091GA1001+999999999GF100991001001999999001001REMSYN042AAXX  18064 42111 31995 00231 10220 20077;EQDQ01  00002PRCP99
0150421110999992000121809004+30310+078020FM-12+068299999V0202301N001012200019N0040001N1+02411+99999999999ADDAA199000091GA1011+012009029GF101991999999012501999999MD1999999-0241REMSYN052AAXX  18094 42111 32696 12302 10241 333 59024 81840;EQDQ01  00002PRCP99
0224421110999992000121812004+30310+078020FM-12+068299999V0203201N000512200019N0020001N1+01901+01251101271ADDAA199000091AY101061AY201061GA1001+999999999GF100991001001999999001001KA1120M+02421MA1999999093591MD1999999-0211MW1051REMSYN076AAXX  18124 42111 31995 03201 10190 20125 39359 40127 70500 333 10242 59021;EQDQ01  00002PRCP99
0177421110999992000121815004+30310+078020FM-12+068299999V0200501N001012200019N0040001N1+01361+01111101571ADDAA199000091GA1001+999999999GF100991001001999999001001MA1999999093741MD1999999-0151REMSYN064AAXX  18154 42111 32996 00502 10136 20111 39374 40157 333 59015;EQDQ01  00002PRCP99
0177421110999992000121818004+30310+078020FM-12+068299999V0200501N001012200019N0040001N1+01221+01001101661ADDAA199000091GA1001+999999999GF100991001001999999001001MA1999999093771MD1999999-0111REMSYN064AAXX  18184 42111 32996 00502 10122 20100 39377 40166 333 59011;EQDQ01  00002PRCP99
0177421110999992000121821004+30310+078020FM-12+068299999V0200501N001012200019N0040001N1+01061+00911101501ADDAA199000091GA1001+999999999GF100991001001999999001001MA1999999093601MD1999999-0141REMSYN064AAXX  18214 42111 32996 00502 10106 20091 39360 40150 333 59014;EQDQ01  00002PRCP99
0177421110999992000121900004+30310+078020FM-12+068299999V0200501N001012200019N0040001N1+00941+00821101441ADDAA199000091GA1001+999999999GF100991001001999999001001MA1999999093511MD1999999-0161REMSYN064AAXX  19004 42111 32996 00502 10094 20082 39351 40144 333 59016;EQDQ01  00002PRCP99
0205421110999992000121906004+30310+078020FM-12+068299999V0202301N001012200019N0020001N1+01841+01061101391ADDAA199000091AY101061AY201061GA1001+999999999GF100991001001999999001001MA1999999093701MD1999999-0191MW1051REMSYN070AAXX  19064 42111 31995 02302 10184 20106 39370 40139 70500 333 59019;EQDQ01  00002PRCP99
0205421110999992000121909004+30310+078020FM-12+068299999V0203201N001012200019N0020001N1+02261+00911101011ADDAA199000091AY101031AY201031GA1001+999999999GF100991001001999999001001MA1999999093451MD1999999-0271MW1051REMSYN070AAXX  19094 42111 31995 03202 10226 20091 39345 40101 70500 333 59027;EQDQ01  00002PRCP99
0224421110999992000121912004+30310+078020FM-12+068299999V0203201N000512200019N0020001N1+01661+01251101161ADDAA199000091AY101061AY201061GA1001+999999999GF100991001001999999001001KA1120M+02261MA1999999093441MD1999999-0151MW1051REMSYN076AAXX  19124 42111 31995 03201 10166 20125 39344 40116 70500 333 10226 59015;EQDQ01  00002PRCP99
0205421110999992000121915004+30310+078020FM-12+068299999V0200501N000512200019N0020001N1+01181+00991101391ADDAA199000091AY101031AY201031GA1001+999999999GF100991001001999999001001MA1999999093521MD1999999-0221MW1051REMSYN070AAXX  19154 42111 31995 00501 10118 20099 39352 40139 70500 333 59022;EQDQ01  00002PRCP99
0177421110999992000121918004+30310+078020FM-12+068299999V0209999C000012200019N0040001N1+00941+00861101441ADDAA199000091GA1001+999999999GF100991001001999999001001MA1999999093511MD1999999-0261REMSYN064AAXX  19184 42111 32996 00000 10094 20086 39351 40144 333 59026;EQDQ01  00002PRCP99
0177421110999992000121921004+30310+078020FM-12+068299999V0200501N000512200019N0040001N1+00901+00521101511ADDAA199000091GA1001+999999999GF100991001001999999001001MA1999999093551MD1999999-0051REMSYN064AAXX  19214 42111 32996 00501 10090 20052 39355 40151 333 59005;EQDQ01  00002PRCP99
0177421110999992000122000004+30310+078020FM-12+068299999V0209999C000012200019N0040001N1+00741+00571101531ADDAA199000091GA1001+999999999GF100991001001999999001001MA1999999093541MD1999999+0031REMSYN064AAXX  20004 42111 32996 00000 10074 20057 39354 40153 333 58003;EQDQ01  00002PRCP99
0215421110999992000122003004+30310+078020FM-12+068299999V0209999C000012200019N0040001N1+00821+00521101711ADDAA199000091GA1001+999999999GF100991001001999999001001KA1120M+02261KA2120N+00611MA1999999093731MD1999999+0101REMSYN076AAXX  20034 42111 32996 00000 10082 20052 39373 40171 333 10226 20061 58010;EQDQ01  00002PRCP99
0177421110999992000122006004+30310+078020FM-12+068299999V0202701N000512200019N0040001N1+01941+00381101501ADDAA199000091GA1001+999999999GF100991001001999999001001MA1999999093831MD1999999+0131REMSYN064AAXX  20064 42111 32996 02701 10194 20038 39383 40150 333 58013;EQDQ01  00002PRCP99
0177421110999992000122009004+30310+078020FM-12+068299999V0202301N001012200019N0040001N1+02321+00701101211ADDAA199000091GA1001+999999999GF100991001001999999001001MA1999999093671MD1999999+0221REMSYN064AAXX  20094 42111 32996 02302 10232 20070 39367 40121 333 58022;EQDQ01  00002PRCP99
0224421110999992000122012004+30310+078020FM-12+068299999V0202301N000512200019N0020001N1+01701+01141101401ADDAA199000091AY101061AY201061GA1001+999999999GF100991001001999999001001KA1120M+02381MA1999999093671MD1999999+0231MW1051REMSYN076AAXX  20124 42111 31995 02301 10170 20114 39367 40140 70500 333 10238 58023;EQDQ01  00002PRCP99
0177421110999992000122015004+30310+078020FM-12+068299999V0200501N000512200019N0040001N1+01181+00921101681ADDAA199000091GA1001+999999999GF100991001001999999001001MA1999999093791MD1999999+0271REMSYN064AAXX  20154 42111 32996 00501 10118 20092 39379 40168 333 58027;EQDQ01  00002PRCP99
0177421110999992000122018004+30310+078020FM-12+068299999V0200501N001012200019N0040001N1+01021+00741101721ADDAA199000091GA1001+999999999GF100991001001999999001001MA1999999093781MD1999999+0271REMSYN064AAXX  20184 42111 32996 00502 10102 20074 39378 40172 333 58027;EQDQ01  00002PRCP99
0177421110999992000122021004+30310+078020FM-12+068299999V0200501N001012200019N0040001N1+00921+00591101731ADDAA199000091GA1001+999999999GF100991001001999999001001MA1999999093781MD1999999+0231REMSYN064AAXX  20214 42111 32996 00502 10092 20059 39378 40173 333 58023;EQDQ01  00002PRCP99
0177421110999992000122100004+30310+078020FM-12+068299999V0200501N001012200019N0040001N1+00801+00501101771ADDAA199000091GA1001+999999999GF100991001001999999001001MA1999999093761MD1999999+0221REMSYN064AAXX  21004 42111 32996 00502 10080 20050 39376 40177 333 58022;EQDQ01  00002PRCP99
0243421110999992000122103004+30310+078020FM-12+068299999V0200501N000512200019N0040001N1+00941+00611101931ADDAA199000091AY101031AY201031GA1001+999999999GF100991001001999999001001KA1120M+02381KA2120N+00751MA1999999093971MD1999999+0241MW1051REMSYN082AAXX  21034 42111 31996 00501 10094 20061 39397 40193 70500 333 10238 20075 58024;EQDQ01  00002PRCP99
0205421110999992000122106004+30310+078020FM-12+068299999V0201401N000512200019N0020001N1+01801+00881101741ADDAA199000091AY101061AY201061GA1001+999999999GF100991001001999999001001MA1999999094001MD1999999+0171MW1051REMSYN070AAXX  21064 42111 32995 01401 10180 20088 39400 40174 70500 333 58017;EQDQ01  00002PRCP99
0205421110999992000122109004+30310+078020FM-12+068299999V0202301N001012200019N0020001N1+02141+00691101401ADDAA199000091AY101031AY201031GA1001+999999999GF100991001001999999001001MA1999999093791MD1999999+0121MW1051REMSYN070AAXX  21094 42111 31995 02302 10214 20069 39379 40140 70500 333 58012;EQDQ01  00002PRCP99
0224421110999992000122112004+30310+078020FM-12+068299999V0209999C000012200019N0020001N1+01641+01111101491ADDAA199000091AY101061AY201061GA1001+999999999GF100991001001999999001001KA1120M+02141MA1999999093741MD1999999+0071MW1051REMSYN076AAXX  21124 42111 31995 00000 10164 20111 39374 40149 70500 333 10214 58007;EQDQ01  00002PRCP99
0205421110999992000122115004+30310+078020FM-12+068299999V0200501N000512200019N0020001N1+01121+00931101671ADDAA199000091AY101031AY201031GA1001+999999999GF100991001001999999001001MA1999999093781MD1999999-0011MW1051REMSYN070AAXX  21154 42111 31995 00501 10112 20093 39378 40167 70500 333 59001;EQDQ01  00002PRCP99
0205421110999992000122118004+30310+078020FM-12+068299999V0200501N000512200019N0020001N1+01001+00811101731ADDAA199000091AY101061AY201061GA1001+999999999GF100991001001999999001001MA1999999093781MD1999999+0001MW1051REMSYN070AAXX  21184 42111 31995 00501 10100 20081 39378 40173 70500 333 58000;EQDQ01  00002PRCP99
0205421110999992000122121004+30310+078020FM-12+068299999V0200501N000512200019N0020001N1+00881+00631101771ADDAA199000091AY101031AY201031GA1001+999999999GF100991001001999999001001MA1999999093791MD1999999+0011MW1051REMSYN070AAXX  21214 42111 31995 00501 10088 20063 39379 40177 70500 333 58001;EQDQ01  00002PRCP99
0205421110999992000122200004+30310+078020FM-12+068299999V0200501N000512200019N0020001N1+00841+00631101791ADDAA199000091AY101061AY201061GA1001+999999999GF100991001001999999001001MA1999999093811MD1999999+0051MW1051REMSYN070AAXX  22004 42111 31995 00501 10084 20063 39381 40179 70500 333 58005;EQDQ01  00002PRCP99
0255421110999992000122203004+30310+078020FM-12+068299999V0200501N000512200019N0020001N1+00961+00631101961ADDAA199000091AY111031AY201031GA1031+075009019GF103991001001999999001011KA1120M+02141KA2120N+00731MA1999999094011MD1999999+0041MW1051REMSYN094AAXX  22034 42111 31995 30501 10096 20063 39401 40196 70510 80001 333 10214 20073 58004 83075;EQDQ01  00002PRCP99
0217421110999992000122206004+30310+078020FM-12+068299999V0200501N000512200019N0020001N1+01741+00851101781ADDAA199000091AY101061AY201061GA1021+075009019GF102991001001999999001011MA1999999094041MD1999999+0041MW1051REMSYN082AAXX  22064 42111 31995 20501 10174 20085 39404 40178 70500 80001 333 58004 82075;EQDQ01  00002PRCP99
0217421110999992000122209004+30310+078020FM-12+068299999V0202701N000512200019N0020001N1+02001+00921101521ADDAA199000091AY101031AY201031GA1021+075009019GF102991001001999999001011MA1999999093851MD1999999+0061MW1051REMSYN082AAXX  22094 42111 31995 22701 10200 20092 39385 40152 70500 80001 333 58006 82075;EQDQ01  00002PRCP99
0236421110999992000122212004+30310+078020FM-12+068299999V0209999C000012200019N0020001N1+01641+01071101461ADDAA199000091AY111061AY211061GA1011+075009019GF101991001001999999001011KA1120M+02061MA1999999093711MD1999999-0031MW1051REMSYN088AAXX  22124 42111 31995 10000 10164 20107 39371 40146 70511 80001 333 10206 59003 81075;EQDQ01  00002PRCP99
0205421110999992000122215004+30310+078020FM-12+068299999V0200501N000512200019N0020001N1+01181+00921101701ADDAA199000091AY101031AY201031GA1001+999999999GF100991001001999999001001MA1999999093811MD1999999+0031MW1051REMSYN070AAXX  22154 42111 31995 00501 10118 20092 39381 40170 70500 333 58003;EQDQ01  00002PRCP99
0205421110999992000122218004+30310+078020FM-12+068299999V0200501N001012200019N0020001N1+01061+00831101681ADDAA199000091AY101061AY201061GA1001+999999999GF100991001001999999001001MA1999999093761MD1999999-0021MW1051REMSYN070AAXX  22184 42111 31995 00502 10106 20083 39376 40168 70500 333 59002;EQDQ01  00002PRCP99
0205421110999992000122221004+30310+078020FM-12+068299999V0200501N001012200019N0020001N1+00921+00681101681ADDAA199000091AY101031AY201031GA1001+999999999GF100991001001999999001001MA1999999093731MD1999999-0061MW1051REMSYN070AAXX  22214 42111 31995 00502 10092 20068 39373 40168 70500 333 59006;EQDQ01  00002PRCP99
0205421110999992000122300004+30310+078020FM-12+068299999V0200501N000512200019N0020001N1+00841+00591101641ADDAA199000091AY101061AY201061GA1001+999999999GF100991001001999999001001MA1999999093681MD1999999-0131MW1051REMSYN070AAXX  23004 42111 31995 00501 10084 20059 39368 40164 70500 333 59013;EQDQ01  00002PRCP99
0255421110999992000122303004+30310+078020FM-12+068299999V0200501N000512200019N0020001N1+00961+00631101811ADDAA199000091AY111031AY211031GA1031+075009019GF103991001001999999001011KA1120M+02061KA2120N+00711MA1999999093861MD1999999-0151MW1051REMSYN094AAXX  23034 42111 31995 30501 10096 20063 39386 40181 70511 80001 333 10206 20071 59015 83075;EQDQ01  00002PRCP99
0217421110999992000122306004+30310+078020FM-12+068299999V0203201N000512200019N0020001N1+01801+00881101691ADDAA199000091AY111061AY211061GA1021+075009019GF102991001001999999001011MA1999999093951MD1999999-0091MW1051REMSYN082AAXX  23064 42111 31995 23201 10180 20088 39395 40169 70511 80001 333 59009 82075;EQDQ01  00002PRCP99
0208421110999992000122312004+30310+078020FM-12+068299999V0209999C000012200019N0040001N1+01721+01081101401ADDAA199000091GA1011+030009079GF101991011001999999031001KA1120M+02261MA1999999093721MD1999999+0011REMSYN082AAXX  23124 42111 32996 10000 10172 20108 39372 40140 81030 333 10226 58001 81360;EQDQ01  00002PRCP99
0177421110999992000122315004+30310+078020FM-12+068299999V0200501N001012200019N0040001N1+01281+00821101651ADDAA199000091GA1001+999999999GF100991001001999999001001MA1999999093791MD1999999-0021REMSYN064AAXX  23154 42111 32996 00502 10128 20082 39379 40165 333 59002;EQDQ01  00002PRCP99
0177421110999992000122318004+30310+078020FM-12+068299999V0200501N001012200019N0040001N1+01161+00771101691ADDAA199000091GA1001+999999999GF100991001001999999001001MA1999999093801MD1999999+0041REMSYN064AAXX  23184 42111 32996 00502 10116 20077 39380 40169 333 58004;EQDQ01  00002PRCP99
0177421110999992000122321004+30310+078020FM-12+068299999V0200501N000512200019N0040001N1+01021+00781101701ADDAA199000091GA1001+999999999GF100991001001999999001001MA1999999093781MD1999999+0051REMSYN064AAXX  23214 42111 32996 00501 10102 20078 39378 40170 333 58005;EQDQ01  00002PRCP99
0177421110999992000122400004+30310+078020FM-12+068299999V0209999C000012200019N0040001N1+00901+00701101711ADDAA199000091GA1001+999999999GF100991001001999999001001MA1999999093731MD1999999+0051REMSYN064AAXX  24004 42111 32996 00000 10090 20070 39373 40171 333 58005;EQDQ01  00002PRCP99
0233421110999992000122403004+30310+078020FM-12+068299999V0209999C000012200019N0040001N1+00921+00681101841ADDAA199000091GA1021+012009089GF104991021011012501031001KA1120M+02261KA2120N+00861MA1999999093891MD1999999+0031REMSYN094AAXX  24034 42111 32696 40000 10092 20068 39389 40184 82130 333 10226 20086 58003 82840 83360;EQDQ01  00002PRCP99
0217421110999992000122406004+30310+078020FM-12+068299999V0203201N000512200019N0020001N1+01961+00771101641ADDAA199000091AY121061AY221061GA1021+030009079GF102991021001999999031001MA1999999093961MD1999999+0011MW1051REMSYN082AAXX  24064 42111 31995 23201 10196 20077 39396 40164 70522 82030 333 58001 82360;EQDQ01  00002PRCP99
0177421110999992000122409004+30310+078020FM-12+068299999V0203201N000512200019N0040001N1+02241+00781101261ADDAA199000091GA1001+999999999GF100991001001999999001001MA1999999093691MD1999999-0071REMSYN064AAXX  24094 42111 31996 03201 10224 20078 39369 40126 333 59007;EQDQ01  00002PRCP99
0224421110999992000122412004+30310+078020FM-12+068299999V0209999C000012200019N0020001N1+01741+01061101361ADDAA199000091AY101061AY201061GA1001+999999999GF100991001001999999001001KA1120M+02371MA1999999093651MD1999999-0071MW1051REMSYN076AAXX  24124 42111 31995 00000 10174 20106 39365 40136 70500 333 10237 59007;EQDQ01  00002PRCP99
0177421110999992000122415004+30310+078020FM-12+068299999V0200501N001012200019N0040001N1+01281+00861101631ADDAA199000091GA1001+999999999GF100991001001999999001001MA1999999093771MD1999999-0021REMSYN064AAXX  24154 42111 32996 00502 10128 20086 39377 40163 333 59002;EQDQ01  00002PRCP99
0177421110999992000122418004+30310+078020FM-12+068299999V0200501N001012200019N0040001N1+01181+00751101691ADDAA199000091GA1001+999999999GF100991001001999999001001MA1999999093801MD1999999+0001REMSYN064AAXX  24184 42111 32996 00502 10118 20075 39380 40169 333 58000;EQDQ01  00002PRCP99
0177421110999992000122421004+30310+078020FM-12+068299999V0200501N001012200019N0040001N1+01041+00721101661ADDAA199000091GA1001+999999999GF100991001001999999001001MA1999999093741MD1999999-0041REMSYN064AAXX  24214 42111 32996 00502 10104 20072 39374 40166 333 59004;EQDQ01  00002PRCP99
0177421110999992000122500004+30310+078020FM-12+068299999V0200501N000512200019N0040001N1+00921+00681101621ADDAA199000091GA1001+999999999GF100991001001999999001001MA1999999093691MD1999999-0041REMSYN064AAXX  25004 42111 32996 00501 10092 20068 39369 40162 333 59004;EQDQ01  00002PRCP99
0243421110999992000122503004+30310+078020FM-12+068299999V0209999C000012200019N0020001N1+00961+00721101741ADDAA199000091AY101031AY201031GA1001+999999999GF100991001001999999001001KA1120M+02371KA2120N+00791MA1999999093791MD1999999-0101MW1051REMSYN082AAXX  25034 42111 31995 00000 10096 20072 39379 40174 70500 333 10237 20079 59010;EQDQ01  00002PRCP99
0205421110999992000122506004+30310+078020FM-12+068299999V0203201N001012200019N0020001N1+01881+00761101601ADDAA199000091AY101061AY201061GA1001+999999999GF100991001001999999001001MA1999999093891MD1999999-0071MW1051REMSYN070AAXX  25064 42111 31995 03202 10188 20076 39389 40160 70500 333 59007;EQDQ01  00002PRCP99
0205421110999992000122509004+30310+078020FM-12+068299999V0203201N001012200019N0020001N1+02161+00771101371ADDAA199000091AY101031AY201031GA1001+999999999GF100991001001999999001001MA1999999093761MD1999999+0071MW1051REMSYN070AAXX  25094 42111 31995 03202 10216 20077 39376 40137 70500 333 58007;EQDQ01  00002PRCP99
0224421110999992000122512004+30310+078020FM-12+068299999V0209999C000012200019N0020001N1+01661+00931101381ADDAA199000091AY101061AY201061GA1001+999999999GF100991001001999999001001KA1120M+02211MA1999999093651MD1999999+0001MW1051REMSYN076AAXX  25124 42111 31995 00000 10166 20093 39365 40138 70500 333 10221 58000;EQDQ01  00002PRCP99
0205421110999992000122600004+30310+078020FM-12+068299999V0200501N000512200019N0020001N1+00881+00591101721ADDAA199000091AY101061AY201061GA1001+999999999GF100991001001999999001001MA1999999093741MD1999999+0051MW1051REMSYN070AAXX  26004 42111 32995 00501 10088 20059 39374 40172 70500 333 58005;EQDQ01  00002PRCP99
0220421110999992000122603004+30310+078020FM-12+068299999V0209999C000012200019N0020001N1+00941+00661101851ADDAA199000091AY101031AY201031GA1001+999999999GF100991001001999999001001KA1999N+99999MA1999999093901MW1051REMSYN070AAXX  26034 42111 31995 00000 10094 20066 39390 40185 70500 333 20221;EQDQ01  00002PRCP99Q02 +02212ATMN  
0205421110999992000122606004+30310+078020FM-12+068299999V0201401N000512200019N0020001N1+01781+00811101731ADDAA199000091AY101061AY201061GA1001+999999999GF100991001001999999001001MA1999999093991MD1999999+0101MW1051REMSYN070AAXX  26064 42111 31995 01401 10178 20081 39399 40173 70500 333 58010;EQDQ01  00002PRCP99
0205421110999992000122609004+30310+078020FM-12+068299999V0202301N000512200019N0020001N1+02081+00751101491ADDAA199000091AY101031AY201031GA1001+999999999GF100991001001999999001001MA1999999093851MD1999999+0091MW1051REMSYN070AAXX  26094 42111 31995 02301 10208 20075 39385 40149 70500 333 58009;EQDQ01  00002PRCP99
0224421110999992000122612004+30310+078020FM-12+068299999V0209999C000012200019N0020001N1+01641+01031101561ADDAA199000091AY101061AY201061GA1001+999999999GF100991001001999999001001KA1120M+02101MA1999999093811MD1999999+0161MW1051REMSYN076AAXX  26124 42111 31995 00000 10164 20103 39381 40156 70500 333 10210 58016;EQDQ01  00002PRCP99
0177421110999992000122618004+30310+078020FM-12+068299999V0200501N001012200019N0040001N1+01101+00751101771ADDAA199000091GA1001+999999999GF100991001001999999001001MA1999999093851MD1999999+0061REMSYN064AAXX  26184 42111 32996 00502 10110 20075 39385 40177 333 58006;EQDQ01  00002PRCP99
0177421110999992000122621004+30310+078020FM-12+068299999V0200501N001012200019N0040001N1+00881+00631101751ADDAA199000091GA1001+999999999GF100991001001999999001001MA1999999093771MD1999999+0031REMSYN064AAXX  26214 42111 32996 00502 10088 20063 39377 40175 333 58003;EQDQ01  00002PRCP99
0177421110999992000122700004+30310+078020FM-12+068299999V0203201N000512200019N0040001N1+00781+00571101761ADDAA199000091GA1001+999999999GF100991001001999999001001MA1999999093751MD1999999+0011REMSYN064AAXX  27004 42111 32996 03201 10078 20057 39375 40176 333 58001;EQDQ01  00002PRCP99
0243421110999992000122703004+30310+078020FM-12+068299999V0209999C000012200019N0020001N1+00781+00661101901ADDAA199000091AY101031AY201031GA1001+999999999GF100991001001999999001001KA1120M+02101KA2120N+00711MA1999999093891MD1999999-0011MW1051REMSYN082AAXX  27034 42111 31995 00000 10078 20066 39389 40190 70500 333 10210 20071 59001;EQDQ01  00002PRCP99
0205421110999992000122706004+30310+078020FM-12+068299999V0202301N000512200019N0020001N1+01781+00861101761ADDAA199000091AY101061AY201061GA1001+999999999GF100991001001999999001001MA1999999094021MD1999999+0031MW1051REMSYN070AAXX  27064 42111 31995 02301 10178 20086 39402 40176 70500 333 58003;EQDQ01  00002PRCP99
0205421110999992000122709004+30310+078020FM-12+068299999V0202301N000512200019N0020001N1+02061+00821101481ADDAA199000091AY101031AY201031GA1001+999999999GF100991001001999999001001MA1999999093841MD1999999-0011MW1051REMSYN070AAXX  27094 42111 31995 02301 10206 20082 39384 40148 70500 333 59001;EQDQ01  00002PRCP99
0224421110999992000122712004+30310+078020FM-12+068299999V0209999C000012200019N0020001N1+01561+00981101601ADDAA199000091AY101061AY201061GA1001+999999999GF100991001001999999001001KA1120M+02141MA1999999093831MD1999999+0021MW1051REMSYN076AAXX  27124 42111 31995 00000 10156 20098 39383 40160 70500 333 10214 58002;EQDQ01  00002PRCP99
0205421110999992000122715004+30310+078020FM-12+068299999V0200501N000512200019N0020001N1+01221+00841101711ADDAA199000091AY101031AY201031GA1001+999999999GF100991001001999999001001MA1999999093851MD1999999-0011MW1051REMSYN070AAXX  27154 42111 31995 00501 10122 20084 39385 40171 70500 333 59001;EQDQ01  00002PRCP99
0177421110999992000122718004+30310+078020FM-12+068299999V0200501N001012200019N0040001N1+01061+00791101791ADDAA199000091GA1001+999999999GF100991001001999999001001MA1999999093841MD1999999-0011REMSYN064AAXX  27184 42111 32996 00502 10106 20079 39384 40179 333 59001;EQDQ01  00002PRCP99
0177421110999992000122800004+30310+078020FM-12+068299999V0209999C000012200019N0040001N1+00821+00521101741ADDAA199000091GA1001+999999999GF100991001001999999001001MA1999999093761MD1999999+0011REMSYN064AAXX  28004 42111 32996 00000 10082 20052 39376 40174 333 58001;EQDQ01  00002PRCP99
0205421110999992000122806004+30310+078020FM-12+068299999V0203201N001012200019N0020001N1+01801+00791101811ADDAA199000091AY101061AY201061GA1001+999999999GF100991001001999999001001MA1999999094071MD1999999+0051MW1051REMSYN070AAXX  28064 42111 31995 03202 10180 20079 39407 40181 70500 333 58005;EQDQ01  00002PRCP99
0217421110999992000122809004+30310+078020FM-12+068299999V0202301N000512200019N0020001N1+02101+00731101501ADDAA199000091AY101031AY201031GA1011+012009029GF101991011011012501001001MA1999999093861MD1999999+0021MW1051REMSYN082AAXX  28094 42111 31695 12301 10210 20073 39386 40150 70500 81100 333 58002 81840;EQDQ01  00002PRCP99
0177421110999992000122818004+30310+078020FM-12+068299999V0200501N001012200019N0040001N1+01041+00721101901ADDAA199000091GA1001+999999999GF100991001001999999001001MA1999999093961MD1999999+0121REMSYN064AAXX  28184 42111 32996 00502 10104 20072 39396 40190 333 58012;EQDQ01  00002PRCP99
0177421110999992000122900004+30310+078020FM-12+068299999V0200501N000512200019N0040001N1+00761+00551101801ADDAA199000091GA1001+999999999GF100991001001999999001001MA1999999093791MD1999999+0031REMSYN064AAXX  29004 42111 32996 00501 10076 20055 39379 40180 333 58003;EQDQ01  00002PRCP99
0215421110999992000122903004+30310+078020FM-12+068299999V0203201N000512200019N0040001N1+00841+00681101911ADDAA199000091GA1001+999999999GF100991001001999999001001KA1120M+02201KA2120N+00701MA1999999093921MD1999999-0021REMSYN076AAXX  29034 42111 32996 03201 10084 20068 39392 40191 333 10220 20070 59002;EQDQ01  00002PRCP99
0205421110999992000122906004+30310+078020FM-12+068299999V0202701N001012200019N0040001N1+01781+00671101711ADDAA199000091AY101061AY201061GA1001+999999999GF100991001001999999001001MA1999999093971MD1999999-0101MW1051REMSYN070AAXX  29064 42111 31996 02702 10178 20067 39397 40171 70500 333 59010;EQDQ01  00002PRCP99
0205421110999992000122909004+30310+078020FM-12+068299999V0202701N000512200019N0040001N1+02161+00451101361ADDAA199000091AY101031AY201031GA1001+999999999GF100991001001999999001001MA1999999093751MD1999999-0111MW1051REMSYN070AAXX  29094 42111 31996 02701 10216 20045 39375 40136 70500 333 59011;EQDQ01  00002PRCP99
0196421110999992000122912004+30310+078020FM-12+068299999V0209999C000012200019N0040001N1+01641+00861101481ADDAA199000091GA1001+999999999GF100991001001999999001001KA1120M+02261MA1999999093731MD1999999-0031REMSYN070AAXX  29124 42111 32996 00000 10164 20086 39373 40148 333 10226 59003;EQDQ01  00002PRCP99
0205421110999992000122915004+30310+078020FM-12+068299999V0200501N000512200019N0020001N1+01141+00751101651ADDAA199000091AY101031AY201031GA1001+999999999GF100991001001999999001001MA1999999093761MD1999999-0191MW1051REMSYN070AAXX  29154 42111 31995 00501 10114 20075 39376 40165 70500 333 59019;EQDQ01  00002PRCP99
0176421110999992000122918004+30310+078020FM-12+068299999V0200501N000512200019N0040001N1+01001+00591101671ADDAA199000091GA1001+999999999GF100991001001999999001001MA1999999093721MD1999999-0241REMSYN063AAXX  29184 42111 3299600501 10100 20059 39372 40167 333 59024;EQDQ01  00002PRCP99
0177421110999992000122921004+30310+078020FM-12+068299999V0200501N000512200019N0040001N1+00861+00521101471ADDAA199000091GA1001+999999999GF100991001001999999001001MA1999999093511MD1999999-0331REMSYN064AAXX  29214 42111 32996 00501 10086 20052 39351 40147 333 59033;EQDQ01  00002PRCP99
0177421110999992000123000004+30310+078020FM-12+068299999V0200501N000512200019N0040001N1+00741+00441101541ADDAA199000091GA1001+999999999GF100991001001999999001001MA1999999093551MD1999999-0241REMSYN064AAXX  30004 42111 32996 00501 10074 20044 39355 40154 333 59024;EQDQ01  00002PRCP99
0233421110999992000123003004+30310+078020FM-12+068299999V0200501N000519999999N0040001N1+00701+00441101651ADDAA199000091GA1031+030009039GF105991031001999999031021KA1120M+02261KA2120N+00681MA1999999093631MD1999999-0291REMSYN094AAXX  30034 42111 32996 50501 10070 20044 39363 40165 83032 333 10226 20068 59029 83360 85075;EQDQ01  00002PRCP99
0195421110999992000123006004+30310+078020FM-12+068299999V0209999C000019999999N0040001N1+01781+00471101441ADDAA199000091GA1041+030009049GF107991051001999999071011MA1999999093721MD1999999-0251REMSYN082AAXX  30064 42111 32996 70000 10178 20047 39372 40144 85071 333 59025 84460 86075;EQDQ01  00002PRCP99
0223421110999992000123009004+30310+078020FM-12+068299999V0209999C00001036001CN0020001N1+01801+00701101371ADDAA199000091AY121031AY221031GA1031+010509069GF107991031051012501031001MA1999999093661MD1999999-0091MW1051REMSYN088AAXX  30094 42111 31695 70000 10180 20070 39366 40137 70522 83530 333 59009 83635 85360;EQDQ01  00002PRCP99
0242421110999992000123012004+30310+078020FM-12+068299999V0200501N00101036001CN0020001N1+01501+00011101461ADDAA199000091AY121061AY221061GA1031+010509069GF107991031051012501031001KA1120M+01861MA1999999093671MD1999999-0061MW1051REMSYN094AAXX  30124 42111 31695 70502 10150 20001 39367 40146 70522 83530 333 10186 59006 83635 85360;EQDQ01  00002PRCP99
0195421110999992000123015004+30310+078020FM-12+068299999V0200501N000510360019N0020001N1+01201+00811101931ADDAA199000091AY121031AY221031GF108991041051012501021999MA1999999093841MD1999999+0081MW1051REMSYN076AAXX  30154 42111 31695 80501 10120 20081 39384 40193 70522 8452/ 333 58008;EQDQ01  00002PRCP99
0195421110999992000123100004+30310+078020FM-12+068299999V0209999C000010090019N0040001N1+01201+00601101421ADDAA199000091GA1061+009009069GF108991061051012501021999MA1999999093551MD1999999+0001REMSYN082AAXX  31004 42111 32696 80000 10120 20060 39355 40142 8652/ 333 58000 86630 87460;EQDQ01  00002PRCP99
0233421110999992000123103004+30310+078020FM-12+068299999V0200501N00051036001CN0040001N1+01101+00751101631ADDAA199000091GA1031+009009069GF107991031051012501071001KA1120M+01861KA2120N+00971MA1999999093711MD1999999+0081REMSYN094AAXX  31034 42111 32696 70501 10110 20075 39371 40163 83570 333 10186 20097 58008 83630 85360;EQDQ01  00002PRCP99
0195421110999992000123106004+30310+078020FM-12+068299999V0200501N00051036001CN0040001N1+01641+00821101621ADDAA199000091GA1041+010509069GF107991041051012501071001MA1999999093871MD1999999+0151REMSYN082AAXX  31064 42111 32696 70501 10164 20082 39387 40162 84570 333 58015 84635 85360;EQDQ01  00002PRCP99
