0195444740999992000012012004+27350+087670FM-12+1732VNTJ V0200901N002110060019N0060001N1+00981+00381999999ADDAA199000091GF108991051081000251071999KA1120M+01181MA1999999082001MD1999999-0091ME1314339REMSYN076AAXX  20124 44474 32056 80904 10098 20038 38200 48433 8587/ 333 10118 59009;EQDQ01  00002PRCP99
0146444740999992000012106004+27350+087670FM-12+1732VNTJ V0209999C000012200019N0100001N1+01061+00591999999ADDGF104991041021000251001001MA1999999082601MD1999999+0421ME1314969REMSYN070AAXX  21064 44474 42060 40000 10106 20059 38260 48496 84200 333 58042;
0195444740999992000012112004+27350+087670FM-12+1732VNTJ V0201201N001010060019N0100001N1+01001+00471999999ADDAA199000091GF106991061081000251001001KA1120M+01351MA1999999082421MD1999999+0421ME1314769REMSYN076AAXX  21124 44474 32060 61202 10100 20047 38242 48476 86800 333 10135 58042;EQDQ01  00002PRCP99
0184444740999992000012206004+27350+087670FM-12+1732VNTJ V0202101N000510006019N0006001N1+00961+00541999999ADDAY141061AY241061GA1091+999999999GF109991091999999999999999MA1999999082601MD1999999+0001ME1314949MW1421REMSYN070AAXX  22064 44474 41/06 92101 10096 20054 38260 48494 74244 333 58000;
0146444740999992000012406004+27350+087670FM-12+1732VNTJ V0202701N000510060019N0060001N1+00741+00421999999ADDGF108991051081000251071999MA1999999082761MD1999999+0271ME1315119REMSYN070AAXX  24064 44474 42056 82701 10074 20042 38276 48511 8587/ 333 58027;
0195444740999992000012412004+27350+087670FM-12+1732VNTJ V0209999C000010060019N0060001N1+00761+00411999999ADDAA199000091GF106991061081000251001001KA1120M+00841MA1999999082661MD1999999+0311ME1315029REMSYN076AAXX  24124 44474 32056 60000 10076 20041 38266 48502 86800 333 10084 58031;EQDQ01  00002PRCP99
0146444740999992000012606004+27350+087670FM-12+1732VNTJ V0209999C000012200019N0150001N1+01201+00491999999ADDGF102991021021004501011001MA1999999082971MD1999999+0021ME1316339REMSYN070AAXX  26064 44474 42465 20000 10120 20049 38297 48633 82210 333 58002;
0195444740999992000012612004+27350+087670FM-12+1732VNTJ V0201201N002110003019N0100001N1+01121+00331999999ADDAA199000091GF105991051041000251001001KA1120M+01401MA1999999082731MD1999999-0121ME1315089REMSYN076AAXX  26124 44474 32060 51204 10112 20033 38273 48508 85400 333 10140 59012;EQDQ01  00002PRCP99
0165444740999992000012706004+27350+087670FM-12+1732VNTJ V0201601N000512200019N0160001N1+01241+00461999999ADDGF102991999021004501001001MA1999999082731MD1999999-0241ME1315079REMSYN070AAXX  27064 44474 42466 21601 10124 20046 38273 48507 83200 333 59024;EQDQ01+000032SCOTLC
0195444740999992000012712004+27350+087670FM-12+1732VNTJ V0201801N003110060019N0060001N1+01061+00341999999ADDAA199000091GF106991061081000251001001KA1120M+01381MA1999999082621MD1999999-0111ME1314979REMSYN076AAXX  27124 44474 32056 61806 10106 20034 38262 48497 86800 333 10138 59011;EQDQ01  00002PRCP99
0146444740999992000012806004+27350+087670FM-12+1732VNTJ V0202101N000512200019N0160001N1+01221+00361999999ADDGF102991021011002501001001MA1999999082631MD1999999-0101ME1314999REMSYN070AAXX  28064 44474 42366 22101 10122 20036 38263 48499 82100 333 59010;
0167444740999992000012812004+27350+087670FM-12+1732VNTJ V0200901N002112200019N0120001N1+01101+00221999999ADDAA199000091GF103991031021002501001001MA1999999082421ME1314769REMSYN075AAXX  28124 44474 32362 30904 10110 20022 38242 48476 83200 333 1043 59020;EQDQ01  00002PRCP99
0146444740999992000012909004+27350+087670FM-12+1732VNTJ V0203401N000519999999N0120001N1+01321+00451999999ADDGF105991051061999999001001MA1999999083371MD1999999-0551ME1314629REMSYN070AAXX  29094 44474 42/62 53401 10132 20045 38337 48462 85600 333 59055;
0174444740999992000013103004+27350+087670FM-12+1732VNTJ V0209999C000010060019N0100001N1+00641+00381999999ADDAA199000091GF105991051081000251001001KA1120N+00401MD1999999+0031ME1315169REMSYN070AAXX  31034 44474 32060 50000 10064 20038 48516 85800 333 20040 58003;EQDQ01  00002PRCP99
0151444740999992000013106004+27350+087670FM-12+1732VNTJ V02099999999992200019N0300001N1+01141+00381999999ADDGF101991999051000751001001MA1999999082831ME1315189REMSYN070AAXX  31064 44474 /2180 1//// 10114 20038 38283 48518 83500 333 90008;EQDQ01+000032SCOTLC
0181444740999992000020103004+27350+087670FM-12+1732VNTJ V0209999C000010060019N0080001N1+00561+00301999999ADDAA199000091GF106991061081000251001001KA1120N+00301MA1999999082781ME1315139REMSYN076AAXX  01034 44474 32058 60000 10056 20030 38278 48513 86800 333 20030 99003;EQDQ01  00002PRCP99
0146444740999992000020106004+27350+087670FM-12+1732VNTJ V0202701N001510060019N0002001N1+01081+00391999999ADDGF105991051081000251001001MA1999999082751MD1999999-0081ME1315109REMSYN070AAXX  01064 44474 42092 52703 10108 20039 38275 48510 85800 333 59008;
0146444740999992000020809004+27350+087670FM-12+1732VNTJ V0200901N003110042019N0150001N1+01321+00471999999ADDGF105991051021004501001001MA1999999082321MD1999999-0081ME1314679REMSYN070AAXX  08094 44474 42465 50906 10132 20047 38232 48467 85200 333 59008;
0195444740999992000020812004+27350+087670FM-12+1732VNTJ V0201201N002110042019N0120001N1+01121+00361999999ADDAA199000091GF107991071041004501001001KA1120M+01361MA1999999082271MD1999999-0081ME1314629REMSYN076AAXX  08124 44474 32462 71204 10112 20036 38227 48462 87400 333 10136 59008;EQDQ01  00002PRCP99
0195444740999992000021103004+27350+087670FM-12+1732VNTJ V0209999C000012200019N0180001N1+00501+00271999999ADDAA199000091GF102991021011000251001001KA1120N+00361MA1999999082581MD1999999+0171ME1314949REMSYN076AAXX  11034 44474 32068 20000 10050 20027 38258 48494 82100 333 20036 58017;EQDQ01  00002PRCP99
0180444740999992000021412004+27350+087670FM-12+1732VNTJ V0201201N004112200019N0140001N1+01321+00261999999ADDAA199000091GF102991021021008001001001KA1120M+01521MA1999999082411MD1999999+0021REMSYN070AAXX  14124 44474 32564 21208 10132 20026 38241 82200 333 10152 58002;EQDQ01  00002PRCP99
0195444740999992000021512004+27350+087670FM-12+1732VNTJ V02099999999992200019N0150001N1+01461+00201999999ADDAA199000091GF103991011021008001001011KA1120M+01641MA1999999082421MD1999999+0011ME1314759REMSYN076AAXX  15124 44474 32565 30/02 10146 2002/ 38242 48475 81201 333 10164 58001;EQDQ01  00002PRCP99
0195444740999992000021803004+27350+087670FM-12+1732VNTJ V0209999C000012200019N0180001N1+00441+00111999999ADDAA199000091GF102991021011004501001001KA1120N+00271MA1999999082281MD1999999-0071ME1314639REMSYN076AAXX  18034 44474 32468 20000 10044 20011 38228 48463 82100 333 20027 59007;EQDQ01  00002PRCP99
0146444740999992000021806004+27350+087670FM-12+1732VNTJ V0202701N001012200019N0180001N1+01141+00091999999ADDGF102991021021004501001001MA1999999082341MD1999999-0031ME1314699REMSYN070AAXX  18064 44474 42468 22702 10114 20009 38234 48469 82200 333 59003;
0146444740999992000021809004+27350+087670FM-12+1732VNTJ V0200901N002112200019N0160001N1+01301-00181999999ADDGF102991021021008001001001MA1999999082151MD1999999+0121ME1314499REMSYN070AAXX  18094 44474 42566 20904 10130 21018 38215 48449 82200 333 58012;
0146444740999992000021906004+27350+087670FM-12+1732VNTJ V0201801N001512200019N0140001N1+01161+00181999999ADDGF101991011021004501001001MA1999999082331MD1999999-0011ME1314689REMSYN070AAXX  19064 44474 42464 11803 10116 20018 38233 48468 81200 333 59001;
0184444740999992000022103004+27350+087670FM-12+1732VNTJ V0209999C000012200019N0200001N1+00321+00001999999ADDAA199000091GA1001+999999999GF100991001001999999001001KA1120N+00051MD1999999+0201ME1314859REMSYN064AAXX  21034 44474 32970 00000 10032 20000 48485 333 20005 58020;EQDQ01  00002PRCP99
0146444740999992000022106004+27350+087670FM-12+1732VNTJ V0202701N000512200019N9999999N1+01141+00221999999ADDGF101991011011999999001001MA1999999082451MD1999999+0061ME1314829REMSYN070AAXX  21064 44474 42/// 12701 10114 20022 38245 48482 81100 333 58006;
0171444740999992000022203004+27350+087670FM-12+1732VNTJ V0209999C000012200019N0200001N1+00481+00051999999ADDAA199000091GA1001+999999999GF100991001001999999001001MD1999999+0051ME1314899REMSYN064AAXX  22034 44474 32/70 00000 10048 20005 48489 333 20/13 58005;EQDQ01  00002PRCP99
0146444740999992000022209004+27350+087670FM-12+1732VNTJ V0203401N000512200019N0160001N1+01301+00421999999ADDGF104991041021002501031001MA1999999082421MD1999999+0101ME1314789REMSYN070AAXX  22094 44474 42366 43401 10130 20042 38242 48478 84230 333 58010;
0195444740999992000022212004+27350+087670FM-12+1732VNTJ V0201801N002110060019N0100001N1+01101+00261999999ADDAA199000091GF105991051081000251001001KA1120M+01381MA1999999082421MD1999999+0101ME1314779REMSYN076AAXX  22124 44474 32060 51804 10110 20026 38242 48477 85800 333 10138 58010;EQDQ01  00002PRCP99
0195444740999992000030912004+27350+087670FM-12+1732VNTJ V0202201N000510060019N0100001N1+01241+00251999999ADDAA199000091GF107991071081000251001001KA1120M+01761MA1999999081791MD1999999-0171ME1314099REMSYN076AAXX  09124 44474 32060 72201 10124 20025 38179 48409 87800 333 10176 59017;EQDQ01  00002PRCP99
0174444740999992000031309004+27350+087670FM-12+1732VNTJ V0202401N000512200019N0150001N1+01841+00471999999ADDAY121031AY261031GF104991021021004501001021MA1999999082151MD1999999+0261ME1314469MW1021REMSYN076AAXX  13094 44474 41465 42401 10184 20047 38215 48446 70226 82202 333 58026;
0156444740999992000031403004+27350+087670FM-12+1732VNTJ V0209999C000012200019N0150001N1+99999+99999999999ADDAA124000591GF104991021021000251001061KA1120N+00741MA1999999082271ME1314589REMSYN070AAXX  14034 44474 22065 40000 10/18 38227 48458 82206 333 20074 69954;
0146444740999992000031406004+27350+087670FM-12+1732VNTJ V0200901N001010360019N0180001N1+01581+00401999999ADDGF105991031051002501031001MA1999999082291MD1999999+0091ME1314609REMSYN070AAXX  14064 44474 42368 50902 10158 20040 38229 48460 83530 333 58009;
0146444740999992000031409004+27350+087670FM-12+1732VNTJ V0202801N000519999999N0120001N1+01641+00371999999ADDGF107991071041999999001001MA1999999082081MD1999999-0071ME1314389REMSYN070AAXX  14094 44474 /2962 72801 10164 20037 38208 48438 87400 333 59007;
0146444740999992000031509004+27350+087670FM-12+1732VNTJ V0200501N000512200019N0120001N1+01581+00301999999ADDGF104991041051001501001001MA1999999081981MD1999999-0101ME1314309REMSYN070AAXX  15094 44474 42262 40501 10158 2003/ 38198 48430 84500 333 59010;
0210444740999992000031512004+27350+087670FM-12+1732VNTJ V0200901N001010012019N0060001N1+01141+00571999999ADDAA109001091AY121061AY221061GF107991061091001501001021KA1120M+01671MA1999999082081MD1999999-0061ME1314409MW1601REMSYN088AAXX  15124 44474 21256 70902 10114 20057 38208 48440 76022 86902 333 10167 59006 60018;
0147444740999992000031603004+27350+087670FM-12+1732VNTJ V0209999C000010360019N0110001N1+01021+00561999999ADDAA124004191GF105991031021000251031001KA1120N+00051MA1999999082251REMSYN070AAXX  16034 44474 22061 50000 10102 20056 38225 83230 333 20005 60044;
0146444740999992000031609004+27350+087670FM-12+1732VNTJ V0203201N000510060019N0080001N1+01441+00621999999ADDGF107991071081000251001001MA1999999082091MD1999999+0111ME1314419REMSYN070AAXX  16094 44474 42058 73201 10144 20062 38209 48441 87800 333 58011;
0210444740999992000031612004+27350+087670FM-12+1732VNTJ V0202701N000510012019N0060001N1+01281+00581999999ADDAA109000791AY121061AY221061GF107991061091001501001021KA1120M+01601MA1999999082171MD1999999+0091ME1314499MW1601REMSYN088AAXX  16124 44474 21256 72701 10128 20058 38217 48449 76022 86902 333 10160 58009 69908;
0146444740999992000031706004+27350+087670FM-12+1732VNTJ V0200201N000510900019N0100001N1+01441+00571999999ADDGF106991041041000251001051MA1999999082211MD1999999+0061ME1314549REMSYN070AAXX  17064 44474 42060 60201 10144 20057 38221 48454 84405 333 58006;
0146444740999992000031709004+27350+087670FM-12+1732VNTJ V0200401N000510012019N0120001N1+01601+00421999999ADDGF105991051041001501001021MA1999999082081MD1999999-0011ME1314409REMSYN070AAXX  17094 44474 42262 50401 10160 20042 38208 48440 85402 333 59001;
0210444740999992000031712004+27350+087670FM-12+1732VNTJ V0200901N002110012019N0060001N1+01361+00391999999ADDAA109000791AY121061AY221061GF107991061091001501001021KA1120M+01681MA1999999082021MD1999999-0151ME1314349MW1501REMSYN088AAXX  17124 44474 21256 70904 10136 20039 38202 48434 75022 86902 333 10168 59015 69908;
0146444740999992000031806004+27350+087670FM-12+1732VNTJ V0202101N001012200019N0180001N1+01641+00431999999ADDGF101991011021004501001001MA1999999082381MD1999999+0171ME1314709REMSYN070AAXX  18064 44474 42468 12102 10164 20043 38238 48470 81200 333 58017;
0146444740999992000031809004+27350+087670FM-12+1732VNTJ V0201801N001012200019N0160001N1+01861+00261999999ADDGF102991021021004501001001MA1999999082321MD1999999+0241ME1314649REMSYN070AAXX  18094 44474 42466 21802 10186 20026 38232 48464 82200 333 58024;
0195444740999992000031812004+27350+087670FM-12+1732VNTJ V0201801N002110021019N0080001N1+01541+00431999999ADDAA199000091GF107991061091002501001021KA1120M+01941MA1999999082211MD1999999+0191ME1314529REMSYN076AAXX  18124 44474 32358 71804 10154 20043 38221 48452 86902 333 10194 58019;EQDQ01  00002PRCP99
0146444740999992000031909004+27350+087670FM-12+1732VNTJ V0200901N001010042019N0150001N1+01801+00401999999ADDGF107991061031004501001021MA1999999082321MD1999999+0001ME1314639REMSYN070AAXX  19094 44474 42465 70902 10180 20040 38232 48463 86302 333 58000;
0195444740999992000031912004+27350+087670FM-12+1732VNTJ V0201801N002110042019N0100001N1+01561+00481999999ADDAA199000091GF107991061091004501001021KA1120M+01941MA1999999082231MD1999999+0021ME1314549REMSYN076AAXX  19124 44474 32460 71804 10156 20048 38223 48454 86902 333 10194 58002;EQDQ01  00002PRCP99
0146444740999992000032006004+27350+087670FM-12+1732VNTJ V0200201N000512200019N0160001N1+01661+00451999999ADDGF102991021011004501001001MA1999999082431MD1999999-0051ME1314749REMSYN070AAXX  20064 44474 42466 20201 10166 20045 38243 48474 82100 333 59005;
0165444740999992000032009004+27350+087670FM-12+1732VNTJ V0200901N001012200019N0160001N1+01941+00381999999ADDGF102991999051004501001001MA1999999082231MD1999999-0091ME1314509REMSYN070AAXX  20094 44474 42466 20902 10194 20038 38223 4845/ 84500 333 59009;EQDQ01+000042SCOTLC
0195444740999992000032012004+27350+087670FM-12+1732VNTJ V0200201N003110021019N0100001N1+01621+00451999999ADDAA199000091GF106991061041002501001001KA1120M+02041MA1999999082241MD1999999+0011ME1314559REMSYN076AAXX  20124 44474 32360 60206 10162 20045 38224 48455 86400 333 10204 58001;EQDQ01  00002PRCP99
0195444740999992000032112004+27350+087670FM-12+1732VNTJ V0200301N001012200019N0120001N1+01821+00181999999ADDAA199000091GF103991021021002501001011KA1120M+02041MA1999999082501MD1999999+0261ME1314809REMSYN076AAXX  21124 44474 32362 30302 10182 20018 38250 48480 82201 333 10204 58026;EQDQ01  00002PRCP99
0195444740999992000100312004+27340+087670FM-12+1732VNTJ V0201201N001510021019N0100001N1+02061+01561999999ADDAA199000091GF106991051041002501001011KA1120M+02361MA1999999082361MD1999999-0121ME1314629REMSYN076AAXX  03124 44474 32360 61203 10206 20156 38236 48462 85401 333 10236 59012;EQDQ01  00002PRCP99
0195444740999992000100403004+27340+087670FM-12+1732VNTJ V0209999C000012200019N0200001N1+01881+01471999999ADDAA199000091GF101991011021004501001001KA1120N+01501MA1999999082691MD1999999+0091ME1314989REMSYN076AAXX  04034 44474 32470 10000 10188 20147 38269 48498 81200 333 20150 58009;EQDQ01  00002PRCP99
0146444740999992000100409004+27340+087670FM-12+1732VNTJ V0201801N001010042019N0140001N1+02321+01671999999ADDGF106991051031004501001021MA1999999082511MD1999999+0061ME1314769REMSYN070AAXX  04094 44474 42464 61802 10232 20167 38251 48476 85302 333 58006;
0195444740999992000100412004+27340+087670FM-12+1732VNTJ V0209999C000010021019N0100001N1+02001+01621999999ADDAA199000091GF105991051041002501001001KA1120M+02401MA1999999082481MD1999999+0121ME1314739REMSYN076AAXX  04124 44474 32360 50000 10200 20162 38248 48473 85400 333 10240 58012;EQDQ01  00002PRCP99
0233444740999992000100503004+27340+087670FM-12+1732VNTJ V0209999C000010006019N0008001N1+02021+01641999999ADDAA199000091AY121031AY221031GA1091+999999999GF109991091999999999999999KA1120N+01631MA1999999082791MD1999999+0101ME1315009MW1431REMSYN076AAXX  05034 44474 31/08 90000 10202 20164 38279 48500 74322 333 20163 58010;EQDQ01  00002PRCP99
0146444740999992000100509004+27340+087670FM-12+1732VNTJ V0209999C000010012019N0150001N1+02301+01671999999ADDGF105991051041001501001001MA1999999082601MD1999999+0091ME1314869REMSYN070AAXX  05094 44474 42265 50000 10230 20167 38260 48486 85400 333 58009;
0220444740999992000100603004+27340+087670FM-12+1732VNTJ V0200201N000510001519N0000001N1+01821+01531999999ADDAA124000891AY121031AY261031GA1091+999999999GF109991091999999999999999KA1120N+01671MA1999999082781MD1999999-0011ME1315029MW1451REMSYN082AAXX  06034 44474 21/00 90201 10182 20153 38278 48502 74526 333 20167 59001 69974;
0146444740999992000100609004+27340+087670FM-12+1732VNTJ V0200901N002112200019N0150001N1+02401+01761999999ADDGF104991031021004501001011MA1999999082531MD1999999-0071ME1314779REMSYN070AAXX  06094 44474 42465 40904 10240 20176 38253 48477 83201 333 59007;
0195444740999992000100612004+27340+087670FM-12+1732VNTJ V0209999C000010042019N0100001N1+02201+01621999999ADDAA199000091GF106991051041004501001011KA1120M+02471MA1999999082601MD1999999+0151ME1314849REMSYN076AAXX  06124 44474 32460 60000 10220 20162 38260 48484 85401 333 10247 58015;EQDQ01  00002PRCP99
0195444740999992000100903004+27340+087670FM-12+1732VNTJ V0209999C000012200019N0160001N1+01841+01551999999ADDAA199000091GF102991021021004501011001KA1120N+01451MA1999999082501MD1999999-0091ME1314759REMSYN076AAXX  09034 44474 32466 20000 10184 20155 38250 48475 82210 333 20145 59009;EQDQ01  00002PRCP99
0182444740999992000101003004+27340+087670FM-12+1732VNTJ V0209999C000012200019N0160001N1+01781+01291999999ADDAA124018091GF101991011021004501001001KA1120N+01151MA1999999082521MD1999999+0021ME1314779REMSYN082AAXX  10034 44474 22466 10000 10178 20129 38252 48477 81200 333 20115 58002 60184;
0195444740999992000101012004+27340+087670FM-12+1732VNTJ V0201201N001012200019N0100001N1+02041+01251999999ADDAA199000091GF104991031021004501001011KA1120M+02351MA1999999082361MD1999999+0211ME1314629REMSYN076AAXX  10124 44474 32460 41202 10204 20125 38236 48462 83201 333 10235 58021;EQDQ01  00002PRCP99
0195444740999992000101103004+27340+087670FM-12+1732VNTJ V0202701N000512200019N0120001N1+01781+01551999999ADDAA199000091GF104991041031002501001001KA1120N+01271MA1999999082621MD1999999+0101ME1314909REMSYN076AAXX  11034 44474 32362 42701 10178 20155 38262 48490 84300 333 20127 58010;EQDQ01  00002PRCP99
0146444740999992000101109004+27340+087670FM-12+1732VNTJ V0201801N001012200019N0140001N1+02241+01551999999ADDGF104991031021002501001011MA1999999082461MD1999999+0061ME1314729REMSYN070AAXX  11094 44474 42364 41802 10224 20155 38246 48472 83201 333 58006;
0182444740999992000101203004+27340+087670FM-12+1732VNTJ V0209999C000010003019N0120001N1+01831+01671999999ADDAA124013091GF105991051041000251021001KA1120N+01531MA1999999082701MD1999999+0081ME1314959REMSYN082AAXX  12034 44474 22062 50000 10183 20167 38270 48495 85420 333 20153 58008 60134;
0195444740999992000101303004+27340+087670FM-12+1732VNTJ V0209999C000012200019N0200001N1+01761+01491999999ADDAA199000091GF101991011021004501001001KA1120N+01331MA1999999082401MD1999999-0301ME1314659REMSYN076AAXX  13034 44474 32470 10000 10176 20149 38240 48465 81200 333 20133 59030;EQDQ01  00002PRCP99
0146444740999992000101306004+27340+087670FM-12+1732VNTJ V0200901N001012200019N0200001N1+02201+01361999999ADDGF102991021021004501001001MA1999999082371MD1999999-0271ME1314639REMSYN070AAXX  13064 44474 42470 20902 10220 20136 38237 48463 82200 333 59027;
0146444740999992000101309004+27340+087670FM-12+1732VNTJ V0201801N001012200019N0180001N1+02261+01301999999ADDGF102991021021004501001001MA1999999082161MD1999999-0251ME1314419REMSYN070AAXX  13094 44474 42468 21802 10226 20130 38216 48441 82200 333 59025;
0195444740999992000101312004+27340+087670FM-12+1732VNTJ V0201201N001012200019N0100001N1+01981+01411999999ADDAA199000091GF103991031021004501001001KA1120M+02341MA1999999082111MD1999999-0231ME1314369REMSYN076AAXX  13124 44474 32460 31202 10198 20141 38211 48436 83200 333 10234 59023;EQDQ01  00002PRCP99
0195444740999992000101903004+27340+087670FM-12+1732VNTJ V0209999C000012200019N0160001N1+01641+01241999999ADDAA199000091GF102991021031004501001001KA1120N+01071MA1999999082531MD1999999+0011ME1314809REMSYN076AAXX  19034 44474 32466 20000 10164 20124 38253 48480 82300 333 20107 58001;EQDQ01  00002PRCP99
0146444740999992000101909004+27340+087670FM-12+1732VNTJ V0202801N000510042019N0150001N1+02101+01551999999ADDGF107991071041004501001001MA1999999082411MD1999999+0051ME1314689REMSYN070AAXX  19094 44474 42465 72801 10210 20155 38241 48468 87400 333 58005;
0195444740999992000102003004+27340+087670FM-12+1732VNTJ V0203401N000510060019N9999999N1+01581+01461999999ADDAA199000091GF107991071081000251001001KA1120N+01251MA1999999082631MD1999999+0101ME1314919REMSYN076AAXX  20034 44474 32054 73401 10158 20146 38263 48491 87800 333 20125 58010;EQDQ01  00002PRCP99
0195444740999992000102012004+27340+087670FM-12+1732VNTJ V0209999C000010060019N0080001N1+01801+01501999999ADDAA199000091GF107991071081000251001001KA1120M+02001MA1999999082441MD1999999+0041ME1314729REMSYN076AAXX  20124 44474 32058 70000 10180 20150 38244 48472 87800 333 10200 58004;EQDQ01  00002PRCP99
0195444740999992000102103004+27340+087670FM-12+1732VNTJ V0209999C000012200019N0150001N1+01461+01311999999ADDAA199000091GF103991031031000251011001KA1120N+01161MA1999999082531MD1999999-0101ME1314819REMSYN076AAXX  21034 44474 32065 30000 10146 20131 38253 48481 83310 333 20116 59010;EQDQ01  00002PRCP99
0210444740999992000102212004+27340+087670FM-12+1732VNTJ V0209999C000010060019N0060001N1+01561+01441999999ADDAA109000191AY121061AY261061GF108991081081000251999999KA1120M+02101MA1999999082881MD1999999-0021ME1314559MW1021REMSYN088AAXX  22124 44474 21056 80000 10156 20144 38288 48455 70226 888// 333 10210 59002 69928;
0220444740999992000102303004+27340+087670FM-12+1732VNTJ V0209999C000010001519N0000001N1+01461+01341999999ADDAA124007191AY121031AY221031GA1091+999999999GF109991091999999999999999KA1120N+01231MA1999999082451MD1999999-0101ME1314729MW1451REMSYN082AAXX  23034 44474 21/00 90000 10146 20134 38245 48472 74522 333 20123 59010 60074;
0165444740999992000102309004+27340+087670FM-12+1732VNTJ V0203601N001010060019N0100001N1+01921+01541999999ADDGF108991999081000251001001MA1999999082401MD1999999+0031ME1314669REMSYN070AAXX  23094 44474 42060 83602 10192 20154 38240 48466 87800 333 58003;EQDQ01+000072SCOTLC
0195444740999992000102312004+27340+087670FM-12+1732VNTJ V0209999C000010060019N0100001N1+01741+01471999999ADDAA199000091GF106991061081000251001001KA1120M+01971MA1999999082271MD1999999-0011ME1314559REMSYN076AAXX  23124 44474 32060 60000 10174 20147 38227 48455 86800 333 10197 59001;EQDQ01  00002PRCP99
0182444740999992000102403004+27340+087670FM-12+1732VNTJ V0209999C000012200019N0120001N1+01481+01261999999ADDAA124001091GF103991031041000251001001KA1120N+01221MA1999999082651MD1999999+0101ME1314939REMSYN082AAXX  24034 44474 22062 30000 10148 20126 38265 48493 83400 333 20122 58010 60014;
0146444740999992000102409004+27340+087670FM-12+1732VNTJ V0202701N002110900019N0150001N1+02041+01441999999ADDGF105991031021004501001021MA1999999082501MD1999999+0101ME1314779REMSYN070AAXX  24094 44474 42465 52704 10204 20144 38250 48477 83202 333 58010;
0210444740999992000102412004+27340+087670FM-12+1732VNTJ V0209999C000010060019N0050001N1+01401+01341999999ADDAA109005191AY121061AY221061GF107991071081001501001001KA1120M+02081MA1999999082511MD1999999+0251ME1314789MW1601REMSYN088AAXX  24124 44474 21250 70000 10140 20134 38251 48478 76022 87800 333 10208 58025 60058;
0182444740999992000102503004+27340+087670FM-12+1732VNTJ V0209999C000010060019N0100001N1+01541+01101999999ADDAA124006191GF105991051081000251001001KA1120N+01081MA1999999082851MD1999999+0201ME1315149REMSYN082AAXX  25034 44474 22060 50000 10154 20110 38285 48514 85800 333 20108 58020 60064;
0195444740999992000102512004+27340+087670FM-12+1732VNTJ V0209999C000010021019N0100001N1+01661+01451999999ADDAA199000091GF107991071041002501001001KA1120M+02111MA1999999082631MD1999999+0121ME1314929REMSYN076AAXX  25124 44474 32360 70000 10166 20145 38263 48492 87400 333 10211 58012;EQDQ01  00002PRCP99
0195444740999992000102603004+27340+087670FM-12+1732VNTJ V0209999C000012200019N0160001N1+01621+01121999999ADDAA199000091GF102991021041002501001001KA1120N+00981MA1999999082751MD1999999-0101ME1315039REMSYN076AAXX  26034 44474 32366 20000 10162 20112 38275 48503 82400 333 20098 59010;EQDQ01  00002PRCP99
0146444740999992000102606004+27340+087670FM-12+1732VNTJ V0202701N000512200019N0180001N1+01921+01281999999ADDGF102991021021004501001001MA1999999082851MD1999999+0081ME1315129REMSYN070AAXX  26064 44474 42468 22701 10192 20128 38285 48512 82200 333 58008;
0146444740999992000102609004+27340+087670FM-12+1732VNTJ V0203601N001012200019N0160001N1+02141+01261999999ADDGF102991021021000251001001MA1999999082601MD1999999-0051ME1314889REMSYN070AAXX  26094 44474 42066 23602 10214 20126 38260 48488 82200 333 59005;
0195444740999992000102712004+27340+087670FM-12+1732VNTJ V0200901N001012200019N0100001N1+01881+01371999999ADDAA199000091GF101991011021008001001001KA1120M+02151MA1999999082601MD1999999-0021ME1314989REMSYN076AAXX  27124 44474 32560 10902 10188 20137 38260 48498 81200 333 10215 59002;EQDQ01  00002PRCP99
0195444740999992000102803004+27340+087670FM-12+1732VNTJ V0209999C000012200019N0200001N1+01461+01141999999ADDAA199000091GF101991011011012501001001KA1120N+00981MA1999999082731MD1999999-0121ME1315019REMSYN076AAXX  28034 44474 32670 10000 10146 20114 38273 48501 81100 333 20098 59012;EQDQ01  00002PRCP99
0146444740999992000102809004+27340+087670FM-12+1732VNTJ V0202701N000512200019N0150001N1+01961+01361999999ADDGF102991021041004501001001MA1999999082401MD1999999-0251ME1314679REMSYN070AAXX  28094 44474 42465 22701 10196 20136 38240 48467 82400 333 59025;
0223444740999992000102903004+27340+087670FM-12+1732VNTJ V0209999C000012200019N9999999N1+01421+01271999999ADDAA199000091AY121031AY221031GF103991031061000251001001KA1120N+00861MA1999999082751MD1999999+0021ME1315049MW1401REMSYN082AAXX  29034 44474 31053 30000 10142 20127 38275 48504 74022 83600 333 20086 58002;EQDQ01  00002PRCP99
0211444740999992000102912004+27340+087670FM-12+1732VNTJ V0209999C000012200019N0100001N1+01601+01261999999ADDAA199000091GF101991999021004501001001KA1120M+02001MA1999999082631MD1999999+0211ME1314949REMSYN076AAXX  29124 44474 32460 10000 10160 20126 38263 48494 82200 333 10200 58021;EQDQ01+000022SCOTLCQ02  00002PRCP99
0195444740999992000103003004+27340+087670FM-12+1732VNTJ V0200901N000512200019N0200001N1+01481+00991999999ADDAA199000091GF101991011011012501001001KA1120N+00991MA1999999082851MD1999999+0121ME1315159REMSYN076AAXX  30034 44474 32670 10901 10148 20099 38285 48515 81100 333 20099 58012;EQDQ01  00002PRCP99
0195444740999992000103103004+27340+087670FM-12+1732VNTJ V0209999C000012200019N0200001N1+01401+01011999999ADDAA199000091GF101991011011012501001001KA1120N+00851MA1999999082761MD1999999-0091ME1315059REMSYN076AAXX  31034 44474 32670 10000 10140 20101 38276 48505 81100 333 20085 59009;EQDQ01  00002PRCP99
0146444740999992000103109004+27340+087670FM-12+1732VNTJ V0201801N000512200019N0200001N1+02101+01321999999ADDGF101991011011008001001001MA1999999082551MD1999999+0001ME1314849REMSYN070AAXX  31094 44474 42570 11801 10210 20132 38255 48484 81100 333 58000;
0195444740999992000103112004+27340+087670FM-12+1732VNTJ V0201801N000512200019N0120001N1+01901+01231999999ADDAA199000091GF101991011011008001001001KA1120M+02171MA1999999082551MD1999999+0011ME1314849REMSYN076AAXX  31124 44474 32562 11801 10190 20123 38255 48484 81100 333 10217 58001;EQDQ01  00002PRCP99
0195444740999992000110103004+27340+087670FM-12+1732VNTJ V0209999C000012200019N0160001N1+01501+01011999999ADDAA199000091GF102991021021004501001001KA1120N+01031MA1999999082961MD1999999+0201ME1315259REMSYN076AAXX  01034 44474 32466 20000 10150 20101 38296 48525 82200 333 20103 58020;EQDQ01  00002PRCP99
0146444740999992000110109004+27340+087670FM-12+1732VNTJ V0202601N001012200019N0200001N1+02001+01051999999ADDGF101991011021008001001001MA1999999082721MD1999999+0171ME1315009REMSYN070AAXX  01094 44474 42570 12602 10200 20105 38272 48500 81200 333 58017;
0195444740999992000110112004+27340+087670FM-12+1732VNTJ V0201801N001012200019N0120001N1+01721+01081999999ADDAA199000091GF101991011021004501001001KA1120M+02081MA1999999082701MD1999999+0151ME1314989REMSYN076AAXX  01124 44474 32462 11802 10172 20108 38270 48498 81200 333 10208 58015;EQDQ01  00002PRCP99
0195444740999992000110203004+27340+087670FM-12+1732VNTJ V0209999C000012200019N0160001N1+01221+01131999999ADDAA199000091GF102991021021004501001001KA1120N+01101MA1999999083061MD1999999+0101ME1315369REMSYN076AAXX  02034 44474 32466 20000 10122 20113 38306 48536 82200 333 20110 58010;EQDQ01  00002PRCP99
0150444740999992000110206004+27340+087670FM-12+1732VNTJ V0202301N001012200019N0200001N1+02532+01851999999ADDGF101991011011008001001001MD1999999+0121ME1315679REMSYN070AAXX  02064 44474 42570 12302 10253 20185 38857 48567 81100 333 58012;EQDQ01+088573APOSP 
0146444740999992000110209004+27340+087670FM-12+1732VNTJ V0200801N002112200019N0200001N1+02021+01041999999ADDGF102991021021008001001001MA1999999082851MD1999999+0131ME1315149REMSYN070AAXX  02094 44474 42570 20804 10202 20104 38285 48514 82200 333 58013;
0195444740999992000110212004+27340+087670FM-12+1732VNTJ V0201201N001012200019N0120001N1+01761+00871999999ADDAA199000091GF103991031021008001001001KA1120M+02071MA1999999082821MD1999999+0121ME1315119REMSYN076AAXX  02124 44474 32562 31202 10176 20087 38282 48511 83200 333 10207 58012;EQDQ01  00002PRCP99
0195444740999992000110303004+27340+087670FM-12+1732VNTJ V0209999C000012200019N0180001N1+01421+01061999999ADDAA199000091GF102991021011001501001001KA1120N+00941MA1999999083051MD1999999+0041ME1315369REMSYN076AAXX  03034 44474 32268 20000 10142 20106 38305 48536 82100 333 20094 58004;EQDQ01  00002PRCP99
0146444740999992000110306004+27340+087670FM-12+1732VNTJ V0203601N001012200019N0200001N1+01981+01071999999ADDGF101991011021004501001001MA1999999083081MD1999999+0051ME1315399REMSYN070AAXX  03064 44474 42470 13602 10198 20107 38308 48539 81200 333 58005;
0146444740999992000110309004+27340+087670FM-12+1732VNTJ V0201801N001012200019N0150001N1+02041+00911999999ADDGF104991041021004501001001MA1999999082801MD1999999-0051ME1315109REMSYN070AAXX  03094 44474 42465 41802 10204 20091 38280 48510 84200 333 59005;
0195444740999992000110312004+27340+087670FM-12+1732VNTJ V0200901N002110042019N0120001N1+01761+00841999999ADDAA199000091GF105991051021004501001001KA1120M+02101MA1999999082821MD1999999+0001ME1315129REMSYN076AAXX  03124 44474 32462 50904 10176 20084 38282 48512 85200 333 10210 58000;EQDQ01  00002PRCP99
0195444740999992000110403004+27340+087670FM-12+1732VNTJ V0209999C000012200019N0200001N1+01381+00911999999ADDAA199000091GF101991011011004501001001KA1120N+00861MA1999999083131MD1999999+0081ME1315439REMSYN076AAXX  04034 44474 32470 10000 10138 20091 38313 48543 81100 333 20086 58008;EQDQ01  00002PRCP99
0146444740999992000110406004+27340+087670FM-12+1732VNTJ V0203401N001012200019N0200001N1+01801+01171999999ADDGF102991021011004501001001MA1999999083051MD1999999-0031ME1315469REMSYN070AAXX  04064 44474 42470 23402 10180 20117 38305 48546 82100 333 59003;
0146444740999992000110409004+27340+087670FM-12+1732VNTJ V0200901N001012200019N0180001N1+01981+01141999999ADDGF104991031021008001031001MA1999999082861MD1999999+0061ME1315169REMSYN070AAXX  04094 44474 42568 40902 10198 20114 38286 48516 83230 333 58006;
0195444740999992000110412004+27340+087670FM-12+1732VNTJ V0201801N001010360019N0120001N1+01801+01071999999ADDAA199000091GF105991031021004501031001KA1120M+02061MA1999999082821MD1999999+0001ME1315129REMSYN076AAXX  04124 44474 32462 51802 10180 20107 38282 48512 83230 333 10206 58000;EQDQ01  00002PRCP99
0195444740999992000110503004+27340+087670FM-12+1732VNTJ V0209999C000012200019N0180001N1+01201+01041999999ADDAA199000091GF102991021011004501001001KA1120N+01051MA1999999082881MD1999999-0251ME1315179REMSYN076AAXX  05034 44474 32468 20000 10120 20104 38288 48517 82100 333 20105 59025;EQDQ01  00002PRCP99
0146444740999992000110509004+27340+087670FM-12+1732VNTJ V0209999C000010060019N0100001N1+01741+01211999999ADDGF107991071081000251001001MA1999999082531MD1999999-0361ME1314819REMSYN070AAXX  05094 44474 42060 70000 10174 20121 38253 48481 87800 333 59036;
0195444740999992000110512004+27340+087670FM-12+1732VNTJ V0209999C000010060019N0100001N1+01661+01291999999ADDAA199000091GF107991071081000251001001KA1120M+01991MA1999999082531MD1999999-0291ME1314819REMSYN076AAXX  05124 44474 32060 70000 10166 20129 38253 48481 87800 333 10199 59029;EQDQ01  00002PRCP99
0195444740999992000110603004+27340+087670FM-12+1732VNTJ V0209999C000010060019N0100001N1+01341+01221999999ADDAA199000091GF106991061081000251001001KA1120N+01061MA1999999082551MD1999999-0331ME1314859REMSYN076AAXX  06034 44474 32060 60000 10134 20122 38255 48485 86800 333 20106 59033;EQDQ01  00002PRCP99
0146444740999992000110606004+27340+087670FM-12+1732VNTJ V0202701N001012200019N0120001N1+01681+01381999999ADDGF104991041021002501001001MA1999999082551MD1999999-0301ME1314859REMSYN070AAXX  06064 44474 42362 42702 10168 20138 38255 48485 84200 333 59030;
0146444740999992000110609004+27340+087670FM-12+1732VNTJ V0200201N001012200019N0150001N1+01901+01121999999ADDGF104991041021002501001001MA1999999082421MD1999999-0111ME1314719REMSYN070AAXX  06094 44474 42365 40202 10190 20112 38242 48471 84200 333 59011;
0195444740999992000110703004+27340+087670FM-12+1732VNTJ V0209999C000010360019N0120001N1+01281+01121999999ADDAA199000091GF105991031021002501031001KA1120N+01041MA1999999082761MD1999999+0211ME1315069REMSYN076AAXX  07034 44474 32362 50000 10128 20112 38276 48506 83230 333 20104 58021;EQDQ01  00002PRCP99
0146444740999992000110709004+27340+087670FM-12+1732VNTJ V0201801N002112200019N0120001N1+01961+01291999999ADDGF104991041021002501001001MA1999999082571MD1999999+0151ME1314879REMSYN070AAXX  07094 44474 42362 41804 10196 20129 38257 48487 84200 333 58015;
0146444740999992000110906004+27340+087670FM-12+1732VNTJ V0200201N001012200019N0180001N1+01801+01251999999ADDGF102991021011012501001001MA1999999082651MD1999999-0181ME1314969REMSYN070AAXX  09064 44474 42668 20202 10180 20125 38265 48496 82100 333 59018;
0146444740999992000110909004+27340+087670FM-12+1732VNTJ V0200901N000512200019N0100001N1+01861+01251999999ADDGF104991041051002501001001MA1999999082401MD1999999-0241ME1314699REMSYN070AAXX  09094 44474 42360 40901 10186 20125 38240 48469 84500 333 59024;
0195444740999992000110912004+27340+087670FM-12+1732VNTJ V0209999C000012200019N0120001N1+01641+01171999999ADDAA199000091GF105991041041002501001011KA1120M+01991MA1999999082351MD1999999-0271ME1314699REMSYN076AAXX  09124 44474 32362 50000 10164 20117 38235 48469 84401 333 10199 59027;EQDQ01  00002PRCP99
0194444740999992000111003004+27340+087670FM-12+1732VNTJ V0209999C000012200019N0080001N1+01281+01151999999ADDAA124000791GF106991041021000251001061KA1120N+01081MA1999999082761MD1999999+0101ME1315069MW1021REMSYN088AAXX  10034 44474 21058 60000 10128 20115 38276 48506 702/5 84206 333 20108 58010 69904;
0146444740999992000111006004+27340+087670FM-12+1732VNTJ V0201801N001012200019N0120001N1+01761+01331999999ADDGF103991031021002501001001MA1999999082751MD1999999+0101ME1315059REMSYN070AAXX  10064 44474 42362 31802 10176 20133 38275 48505 83200 333 58010;
0195444740999992000111012004+27340+087670FM-12+1732VNTJ V0200901N000512200019N0100001N1+01641+01111999999ADDAA199000091GF104991041051001501001001KA1120M+01851MA1999999082531MD1999999+0181ME1314729REMSYN076AAXX  10124 44474 32260 40901 10164 20111 38253 48472 84500 333 10185 58018;EQDQ01  00002PRCP99
0233444740999992000111103004+27340+087670FM-12+1732VNTJ V0209999C000010001519N0000001N1+01341+99999999999ADDAA199000091AY141031AY241031GA1091+999999999GF109991091999999999999999KA1120N+01181MA1999999082961MD1999999+0201ME1315279MW1451REMSYN076AAXX  11034 44474 31/00 90000 10134 20138 38296 48527 74544 333 20118 58020;EQDQ01  00002PRCP99
0184444740999992000111106004+27340+087670FM-12+1732VNTJ V0200201N001010003019N0002001N1+01521+01371999999ADDAY141061AY241061GA1091+999999999GF109991091999999999999999MA1999999082951MD1999999+0201ME1315269MW1451REMSYN070AAXX  11064 44474 41/02 90202 10152 20137 38295 48526 74544 333 58020;
0220444740999992000111203004+27340+087670FM-12+1732VNTJ V0209999C000010001519N0000001N1+01281+01251999999ADDAA124005191AY141031AY241031GA1091+999999999GF109991091999999999999999KA1120N+01181MA1999999082761MD1999999-0201ME1315079MW1451REMSYN082AAXX  12034 44474 21/00 90000 10128 20125 38276 48507 74544 333 20118 59020 60054;
0184444740999992000111206004+27340+087670FM-12+1732VNTJ V0209999C000010001519N0000001N1+01561+01441999999ADDAY141061AY241061GA1091+999999999GF109991091999999999999999MA1999999082761MD1999999-0191ME1315079MW1451REMSYN070AAXX  12064 44474 41900 90000 10156 20144 38276 48507 74544 333 59019;
0174444740999992000111209004+27340+087670FM-12+1732VNTJ V0200901N001510060019N0100001N1+01601+01131999999ADDAY141031AY221031GF107991071081000251001001MA1999999082531MD1999999-0121ME1314839MW1021REMSYN076AAXX  12094 44474 41060 70903 10160 20113 38253 48483 70242 87800 333 59012;
0188444740999992000111303004+27340+087670FM-12+1732VNTJ V0209999C000010060019N0020001N1+01221+01131999999ADDAA199000021GF108991081081000251999999KA1120N+01051MA1999999082681MD1999999-0081ME1314999MW1501REMSYN082AAXX  13034 44474 31020 80000 10122 20113 38268 48499 750/0 888// 333 20105 59008;
0146444740999992000111309004+27340+087670FM-12+1732VNTJ V0202701N000510360019N0080001N1+01741+01141999999ADDGF106991041041000251031001MA1999999082451MD1999999-0081ME1314759REMSYN070AAXX  13094 44474 42058 62701 10174 20114 38245 48475 84430 333 59008;
0195444740999992000111403004+27340+087670FM-12+1732VNTJ V0202701N001010360019N0080001N1+01181+01051999999ADDAA199000091GF106991041051000251031001KA1120N+00901MA1999999082691MD1999999+0011ME1315009REMSYN076AAXX  14034 44474 32058 62702 10118 20105 38269 48500 84530 333 20090 58001;EQDQ01  00002PRCP99
0146444740999992000111406004+27340+087670FM-12+1732VNTJ V0201801N002112200019N0120001N1+01621+01151999999ADDGF104991041021000251001001MA1999999082661MD1999999-0021ME1314979REMSYN070AAXX  14064 44474 42062 41804 10162 20115 38266 48497 84200 333 59002;
0195444740999992000111412004+27340+087670FM-12+1732VNTJ V0202001N001010021019N0080001N1+01461+00961999999ADDAA199000091GF107991071041002501001001KA1120M+01801MA1999999082461MD1999999+0131ME1314769REMSYN076AAXX  14124 44474 32358 72002 10146 20096 38246 48476 87400 333 10180 58013;EQDQ01  00002PRCP99
0220444740999992000111503004+27340+087670FM-12+1732VNTJ V0209999C000010001519N0000001N1+01161+01131999999ADDAA124002091AY161031AY241031GA1091+999999999GF109991091999999999999999KA1120N+01101MA1999999082871MD1999999+0181ME1315179MW1451REMSYN082AAXX  15034 44474 21/00 90000 10116 20113 38287 48517 74564 333 20110 58018 60024;
0174444740999992000111506004+27340+087670FM-12+1732VNTJ V0209999C000010060019N0100001N1+01501+01251999999ADDAY141061AY241061GF106991061081000251001001MA1999999082901MD1999999+0241ME1315209MW1021REMSYN076AAXX  15064 44474 41060 60000 10150 20125 38290 48520 70244 86800 333 58024;
0195444740999992000111512004+27340+087670FM-12+1732VNTJ V0201801N001010360019N0080001N1+01461+00961999999ADDAA199000091GF106991041051000251031001KA1120M+01851MA1999999082661MD1999999+0201ME1314989REMSYN076AAXX  15124 44474 32058 61802 10146 20096 38266 48498 84530 333 10185 58020;EQDQ01  00002PRCP99
0195444740999992000111603004+27340+087670FM-12+1732VNTJ V0209999C000012200019N0200001N1+01061+00781999999ADDAA199000091GF101991011011012501001001KA1120N+00741MA1999999082891MD1999999+0021ME1315209REMSYN076AAXX  16034 44474 32670 10000 10106 20078 38289 48520 81100 333 20074 58002;EQDQ01  00002PRCP99
0146444740999992000111609004+27340+087670FM-12+1732VNTJ V0202701N001012200019N0180001N1+01861+00891999999ADDGF103991021021004501031001MA1999999082631MD1999999-0131ME1314959REMSYN070AAXX  16094 44474 42468 32702 10186 20089 38263 48495 82230 333 59013;
0195444740999992000111703004+27340+087670FM-12+1732VNTJ V0209999C000012200019N0150001N1+01181+01051999999ADDAA199000091GF102991021011002501001001KA1120N+00881MA1999999082891MD1999999+0001ME1315209REMSYN076AAXX  17034 44474 32365 20000 10118 20105 38289 48520 82100 333 20088 58000;EQDQ01  00002PRCP99
0195444740999992000111712004+27340+087670FM-12+1732VNTJ V0209999C000010060019N0060001N1+01481+01061999999ADDAA199000091GF108991081081000251999999KA1120M+01721MA1999999082661MD1999999+0031ME1314989REMSYN076AAXX  17124 44474 32056 80000 10148 20106 38266 48498 888// 333 10172 58003;EQDQ01  00002PRCP99
0195444740999992000111803004+27340+087670FM-12+1732VNTJ V0209999C000012200019N0100001N1+01281+01051999999ADDAA199000091GF103991031041001501001001KA1120N+00901MA1999999082681MD1999999-0211ME1315009REMSYN076AAXX  18034 44474 32260 30000 10128 20105 38268 48500 83400 333 20090 59021;EQDQ01  00002PRCP99
0146444740999992000111806004+27340+087670FM-12+1732VNTJ V0202201N000512200019N0140001N1+01741+01001999999ADDGF104991041051000251001001MA1999999082651MD1999999-0211ME1314979REMSYN070AAXX  18064 44474 42064 42201 10174 20100 38265 48497 84500 333 59021;
0146444740999992000111809004+27340+087670FM-12+1732VNTJ V0200901N001512200019N0150001N1+01741+00771999999ADDGF103991031021002501001001MA1999999082451MD1999999-0111ME1314769REMSYN070AAXX  18094 44474 42365 30903 10174 20077 38245 48476 83200 333 59011;
0195444740999992000111812004+27340+087670FM-12+1732VNTJ V0201801N003112200019N0120001N1+01521+00851999999ADDAA199000091GF103991031021004501001001KA1120M+01831MA1999999082451MD1999999-0211ME1314759REMSYN076AAXX  18124 44474 32462 31806 10152 20085 38245 48475 83200 333 10183 59021;EQDQ01  00002PRCP99
0146444740999992000111906004+27340+087670FM-12+1732VNTJ V0202701N002112200019N0150001N1+01601+01131999999ADDGF103991031021002501001001MA1999999082581MD1999999-0071ME1314909REMSYN070AAXX  19064 44474 42365 32704 10160 20113 38258 48490 83200 333 59007;
0146444740999992000111909004+27340+087670FM-12+1732VNTJ V0202101N000512200019N0140001N1+01641+00951999999ADDGF104991041021000251001001MA1999999082251MD1999999-0201ME1314569REMSYN070AAXX  19094 44474 42064 42101 10164 20095 38225 48456 84200 333 59020;
0195444740999992000111912004+27340+087670FM-12+1732VNTJ V0200901N002610060019N0100001N1+01441+00841999999ADDAA199000091GF106991061081000251001001KA1120M+01741MA1999999082151MD1999999-0301ME1314459REMSYN076AAXX  19124 44474 32060 60905 10144 20084 38215 48445 86800 333 10174 59030;EQDQ01  00002PRCP99
0174444740999992000112006004+27340+087670FM-12+1732VNTJ V0209999C000010060019N0050001N1+01201+01041999999ADDAY101061AY201061GF108991081081000251999999MA1999999082691MD1999999+0111ME1315019MW1051REMSYN076AAXX  20064 44474 41050 80000 10120 20104 38269 48501 70500 888// 333 58011;
0146444740999992000112009004+27340+087670FM-12+1732VNTJ V0209999C000010060019N0100001N1+01421+01041999999ADDGF107991071081000251001001MA1999999082561MD1999999+0281ME1314849REMSYN070AAXX  20094 44474 42060 70000 10142 20104 38256 48484 87800 333 58028;
0195444740999992000112012004+27340+087670FM-12+1732VNTJ V0200501N000510060019N0080001N1+01261+01001999999ADDAA199000091GF106991061081000251001001KA1120M+01481MA1999999082581MD1999999+0431ME1314899REMSYN076AAXX  20124 44474 32058 60501 10126 20100 38258 48489 86800 333 10148 58043;EQDQ01  00002PRCP99
0195444740999992000112103004+27340+087670FM-12+1732VNTJ V0209999C000012200019N0120001N1+01021+00911999999ADDAA199000091GF102991021021000251001001KA1120N+00841MA1999999082801MD1999999+0111ME1315129REMSYN076AAXX  21034 44474 32062 20000 10102 20091 38280 48512 82200 333 20084 58011;EQDQ01  00002PRCP99
0146444740999992000112109004+27340+087670FM-12+1732VNTJ V0202601N001512200019N0120001N1+01721+00941999999ADDGF104991041041004501001001MA1999999082611MD1999999+0081ME1314939REMSYN070AAXX  21094 44474 42462 42603 10172 20094 38261 48493 84400 333 58008;
0195444740999992000112112004+27340+087670FM-12+1732VNTJ V0201801N002112200019N0120001N1+01441+00841999999ADDAA199000091GF104991041021004501001001KA1120M+01771MA1999999082561MD1999999-0021ME1314889REMSYN076AAXX  21124 44474 32462 41804 10144 20084 38256 48488 84200 333 10177 59002;EQDQ01  00002PRCP99
0195444740999992000112203004+27340+087670FM-12+1732VNTJ V0209999C000010360019N0080001N1+01061+00161999999ADDAA199000091GF106991041021000251031001KA1120N+00071MA1999999082891MD1999999+0091ME1315209REMSYN076AAXX  22034 44474 32058 60000 10106 20016 38289 48520 84230 333 20007 58009;EQDQ01  00002PRCP99
0146444740999992000112209004+27340+087670FM-12+1732VNTJ V0209999C000010042019N0100001N1+01561+01081999999ADDGF107991071041004501001001MA1999999082811MD1999999+0201ME1315129REMSYN070AAXX  22094 44474 42460 70000 10156 20108 38281 48512 87400 333 58020;
0195444740999992000112212004+27340+087670FM-12+1732VNTJ V0209999C000010042019N0080001N1+01401+00711999999ADDAA199000091GF107991071041004501001001KA1120M+01701MA1999999082801MD1999999+0241ME1315119REMSYN076AAXX  22124 44474 32458 70000 10140 20071 38280 48511 87400 333 10170 58024;EQDQ01  00002PRCP99
0176444740999992000112303004+27340+087670FM-12+1732VNTJ V0209999C000012200019N0120001N1+00981+00741999999ADDAA199000091GF102991021021004501001001MA1999999083071MD1999999+0281ME1315409REMSYN070AAXX  23034 44474 32462 20000 10098 20074 38307 48540 82200 333 58028;EQDQ01  00002PRCP99
0150444740999992000112306004+27340+087670FM-12+1732VNTJ V0201801N001012200019N0150001N1+01481+00891999999ADDGF102991021021004501001001MD1999999+0111ME1315329REMSYN070AAXX  23064 44474 42465 21802 10148 20089 39299 48532 82200 333 58011;EQDQ01+092993APOSP 
0146444740999992000112309004+27340+087670FM-12+1732VNTJ V0200901N002112200019N0140001N1+01721+00821999999ADDGF101991011021008001001001MA1999999082781MD1999999-0031ME1315099REMSYN070AAXX  23094 44474 42564 10904 10172 20082 38278 48509 81200 333 59003;
0195444740999992000112312004+27340+087670FM-12+1732VNTJ V0201801N001012200019N0080001N1+01461+00741999999ADDAA199000091GF103991031021004501001001KA1120M+01761MA1999999082661MD1999999-0141ME1314989REMSYN076AAXX  23124 44474 32458 31802 10146 20074 38266 48498 83200 333 10176 59014;EQDQ01  00002PRCP99
0233444740999992000112403004+27340+087670FM-12+1732VNTJ V0209999C000010003019N0002001N1+01041+00981999999ADDAA199000091AY141031AY241031GA1091+999999999GF109991091999999999999999KA1120N+00841MA1999999082891MD1999999-0181ME1315199MW1451REMSYN076AAXX  24034 44474 31/02 90000 10104 20098 38289 48519 74544 333 20084 59018;EQDQ01  00002PRCP99
0174444740999992000112406004+27340+087670FM-12+1732VNTJ V0209999C000012200019N0100001N1+01401+01081999999ADDAY141061AY241061GF103991031021000251001001MA1999999082891MD1999999-0101ME1315199MW1021REMSYN076AAXX  24064 44474 41060 30000 10140 20108 38289 48519 70244 83200 333 59010;
0146444740999992000112409004+27340+087670FM-12+1732VNTJ V0203601N000512200019N0100001N1+01621+01081999999ADDGF103991031021004501001001MA1999999082591MD1999999-0191ME1314909REMSYN070AAXX  24094 44474 42460 33601 10162 20108 38259 48490 83200 333 59019;
0174444740999992000112412004+27340+087670FM-12+1732VNTJ V0209999C000012200019N0080001N1+01361+00741999999ADDAA199000091GF103991031021004501001001KA1120M+01721MD1999999-0181ME1314799REMSYN070AAXX  24124 44474 32458 30000 10136 20074 48479 83200 333 10172 59018;EQDQ01  00002PRCP99
0233444740999992000112503004+27340+087670FM-12+1732VNTJ V0209999C000010001519N0000001N1+01121+00991999999ADDAA199000091AY141031AY241031GA1091+999999999GF109991091999999999999999KA1120N+00921MA1999999082791MD1999999-0101ME1315109MW1451REMSYN076AAXX  25034 44474 31/00 90000 10112 20099 38279 48510 74544 333 20092 59010;EQDQ01  00002PRCP99
0146444740999992000112509004+27340+087670FM-12+1732VNTJ V0200201N000510060019N0100001N1+01721+01051999999ADDGF106991061081000251001001MA1999999082351MD1999999-0241ME1314669REMSYN070AAXX  25094 44474 42060 60201 10172 20105 38235 48466 86800 333 59024;
0195444740999992000112512004+27340+087670FM-12+1732VNTJ V0200901N000512200019N0120001N1+01641+00991999999ADDAA199000091GF104991041031000251021001KA1120M+01821MA1999999082451MD1999999-0031ME1314779REMSYN076AAXX  25124 44474 32062 40901 10164 20099 38245 48477 84320 333 10182 59003;EQDQ01  00002PRCP99
0195444740999992000112603004+27340+087670FM-12+1732VNTJ V0209999C000012200019N0120001N1+00941+00771999999ADDAA199000091GF102991021021000251001001KA1120N+00801MA1999999082901MD1999999+0111ME1315219REMSYN076AAXX  26034 44474 32062 20000 10094 20077 38290 48521 82200 333 20080 58011;EQDQ01  00002PRCP99
0146444740999992000112606004+27340+087670FM-12+1732VNTJ V0209999C000012200019N0180001N1+01561+00901999999ADDGF102991021021004501001001MA1999999082881MD1999999+0321ME1315199REMSYN070AAXX  26064 44474 42468 20000 10156 20090 38288 48519 82200 333 58032;
0146444740999992000112609004+27340+087670FM-12+1732VNTJ V0201101N000512200019N0160001N1+01601+00721999999ADDGF102991021021004501001001MA1999999082581MD1999999+0261ME1314899REMSYN070AAXX  26094 44474 42466 21101 10160 20072 38258 48489 82200 333 58026;
0195444740999992000112612004+27340+087670FM-12+1732VNTJ V0202701N000512200019N0150001N1+01601+00711999999ADDAA199000091GF102991021021004501011001KA1120M+01881MA1999999082551MD1999999+0101ME1314869REMSYN076AAXX  26124 44474 32465 22701 10160 20071 38255 48486 82210 333 10188 58010;EQDQ01  00002PRCP99
0195444740999992000112703004+27340+087670FM-12+1732VNTJ V0201101N000512200019N0160001N1+00941+00881999999ADDAA199000091GF101991011011012501001001KA1120N+00761MA1999999082921MD1999999+0021ME1315239REMSYN076AAXX  27034 44474 32666 11101 10094 20088 38292 48523 81100 333 20076 58002;EQDQ01  00002PRCP99
0195444740999992000112712004+27340+087670FM-12+1732VNTJ V0201801N000512200019N0120001N1+01581+00741999999ADDAA199000091GF103991031021004501001001KA1120M+01921MA1999999082651MD1999999+0101ME1314979REMSYN076AAXX  27124 44474 32462 31801 10158 20074 38265 48497 83200 333 10192 58010;EQDQ01  00002PRCP99
0195444740999992000112803004+27340+087670FM-12+1732VNTJ V0201201N000512200019N0160001N1+00921+00781999999ADDAA199000091GF101991011011012501001001KA1120N+00731MA1999999082821MD1999999-0101ME1315139REMSYN076AAXX  28034 44474 32666 11201 10092 20078 38282 48513 81100 333 20073 59010;EQDQ01  00002PRCP99
0146444740999992000112806004+27340+087670FM-12+1732VNTJ V0203401N000512200019N0140001N1+01601+00951999999ADDGF102991021041002501001001MA1999999082681MD1999999+0001ME1315009REMSYN070AAXX  28064 44474 42364 23401 10160 20095 38268 48500 82400 333 58000;
0146444740999992000112809004+27340+087670FM-12+1732VNTJ V0202601N000510042019N0120001N1+01761+00751999999ADDGF106991051041004501031001MA1999999082581MD1999999-0071ME1314899REMSYN070AAXX  28094 44474 42462 62601 10176 20075 38258 48489 85430 333 59007;
0195444740999992000112812004+27340+087670FM-12+1732VNTJ V0209999C000012200019N0100001N1+01601+00751999999ADDAA199000091GF104991031021004501031001KA1120M+01821MA1999999082561MD1999999-0091ME1314879REMSYN076AAXX  28124 44474 32460 40000 10160 20075 38256 48487 83230 333 10182 59009;EQDQ01  00002PRCP99
0195444740999992000112903004+27340+087670FM-12+1732VNTJ V0209999C000012200019N0150001N1+00801+00621999999ADDAA199000091GF103991031011000251001001KA1120N+00551MA1999999082721MD1999999-0101ME1315039REMSYN076AAXX  29034 44474 32065 30000 10080 20062 38272 48503 83100 333 20055 59010;EQDQ01  00002PRCP99
0146444740999992000112906004+27340+087670FM-12+1732VNTJ V0200201N001012200019N0180001N1+01401+00711999999ADDGF103991031021002501001001MA1999999082691MD1999999+0011ME1315019REMSYN070AAXX  29064 44474 42368 30202 10140 20071 38269 48501 83200 333 58001;
0195444740999992000112912004+27340+087670FM-12+1732VNTJ V0201801N000512200019N0100001N1+01441+00721999999ADDAA199000091GF102991021021004501001001KA1120M+01631MA1999999082481MD1999999-0081ME1314809REMSYN076AAXX  29124 44474 32460 21801 10144 20072 38248 48480 82200 333 10163 59008;EQDQ01  00002PRCP99
0195444740999992000113003004+27340+087670FM-12+1732VNTJ V0209999C000012200019N0120001N1+00921+00891999999ADDAA199000091GF103991031021000251001001KA1120N+00781MA1999999082701MD1999999-0021ME1315029REMSYN076AAXX  30034 44474 32062 30000 10092 20089 38270 48502 83200 333 20078 59002;EQDQ01  00002PRCP99
0146444740999992000113006004+27340+087670FM-12+1732VNTJ V0200201N001012200019N0150001N1+01301+00981999999ADDGF103991031021002501001001MA1999999082741MD1999999+0051ME1315069REMSYN070AAXX  30064 44474 42365 30202 10130 20098 38274 48506 83200 333 58005;
0195444740999992000120103004+27340+087670FM-12+1732VNTJ V0209999C000012200019N0200001N1+00541+00341999999ADDAA199000091GF101991011011008001001001KA1120N+00421MA1999999082711MD1999999+0011ME1315049REMSYN076AAXX  01034 44474 32570 10000 10054 20034 38271 48504 81100 333 20042 58001;EQDQ01  00002PRCP99
0146444740999992000120109004+27340+087670FM-12+1732VNTJ V0201801N002112200019N0250001N1+01481+00301999999ADDGF102991021011008001001001MA1999999082481MD1999999+0021ME1314819REMSYN070AAXX  01094 44474 42575 21804 10148 20030 38248 48481 82100 333 58002;
0195444740999992000120203004+27340+087670FM-12+1732VNTJ V0209999C000012200019N0180001N1+00721+00381999999ADDAA199000091GF101991011011004501001001KA1120N+00221MA1999999082901MD1999999+0191ME1315249REMSYN076AAXX  02034 44474 32468 10000 10072 20038 38290 48524 81100 333 20022 58019;EQDQ01  00002PRCP99
0146444740999992000120206004+27340+087670FM-12+1732VNTJ V0202701N000512200019N0200001N1+01261+00511999999ADDGF101991011011008001001001MA1999999082901MD1999999+0201ME1315249REMSYN070AAXX  02064 44474 42570 12701 10126 20051 38290 48524 81100 333 58020;
0205444740999992000120303004+27340+087670FM-12+1732VNTJ V0209999C000012200019N0200001N1+00421+00211999999ADDAA199000091GA1001+999999999GF100991001001999999001001KA1120N+00221MA1999999083051MD1999999+0151ME1315419REMSYN070AAXX  03034 44474 32970 00000 10042 20021 38305 48541 333 20022 58015;EQDQ01  00002PRCP99
0156444740999992000120306004+27340+087670FM-12+1732VNTJ V0209999C000012200019N0200001N1+01401+00511999999ADDGA1001+999999999GF100991001001999999001001MA1999999083071MD1999999+0171ME1315439REMSYN064AAXX  03064 44474 42970 00000 10140 20051 38307 48543 333 58017;
0156444740999992000120309004+27340+087670FM-12+1732VNTJ V0209999C000012200019N0200001N1+01601+00541999999ADDGA1001+999999999GF100991001001999999001001MA1999999082701MD1999999+0061ME1315059REMSYN064AAXX  03094 44474 42970 00000 10160 20054 38270 48505 333 58006;
0205444740999992000120403004+27340+087670FM-12+1732VNTJ V0209999C000012200019N0200001N1+00541+00091999999ADDAA199000091GA1001+999999999GF100991001001999999001001KA1120N+00361MA1999999082761MD1999999-0291ME1315109REMSYN070AAXX  04034 44474 32970 00000 10054 20009 38276 48510 333 20036 59029;EQDQ01  00002PRCP99
0156444740999992000120406004+27340+087670FM-12+1732VNTJ V0201801N001012200019N0200001N1+01321+00271999999ADDGA1001+999999999GF100991001001999999001001MA1999999082721MD1999999-0251ME1315059REMSYN064AAXX  04064 44474 42970 01802 10132 20027 38272 48505 333 59025;
0205444740999992000120412004+27340+087670FM-12+1732VNTJ V0201601N000512200019N0180001N1+01441+00091999999ADDAA199000091GA1001+999999999GF100991001001999999001001KA1120M+01761MA1999999082291MD1999999-0401ME1314639REMSYN070AAXX  04124 44474 32968 01601 10144 20009 38229 48463 333 10176 59040;EQDQ01  00002PRCP99
0146444740999992000120506004+27340+087670FM-12+1732VNTJ V0209999C000012200019N0200001N1+01201+00481999999ADDGF101991011011012501001001MA1999999082631MD1999999-0091ME1314029REMSYN070AAXX  05064 44474 42670 10000 10120 20048 38263 48402 81100 333 59009;
0146444740999992000120509004+27340+087670FM-12+1732VNTJ V02099999999992200019N0160001N1+01461+00171999999ADDGF102991021021004501001001MA1999999082391MD1999999+0001ME1314739REMSYN070AAXX  05094 44474 42466 2/901 10146 20017 38239 48473 82200 333 58000;
0195444740999992000120603004+27340+087670FM-12+1732VNTJ V0209999C000012200019N0150001N1+00621+00391999999ADDAA199000091GF103991031021002501001001KA1120N+00351MA1999999082691MD1999999+0031ME1315039REMSYN076AAXX  06034 44474 32365 30000 10062 20039 38269 48503 83200 333 20035 58003;EQDQ01  00002PRCP99
0146444740999992000120606004+27340+087670FM-12+1732VNTJ V0209999C000012200019N0150001N1+01361+00231999999ADDGF103991031021002501001001MA1999999082721MD1999999+0091ME1315059REMSYN070AAXX  06064 44474 42365 30000 10136 20023 38272 48505 83200 333 58009;
0195444740999992000120612004+27340+087670FM-12+1732VNTJ V0201601N000510003019N0140001N1+01281+00391999999ADDAA199000091GF105991051061000251001001KA1120M+01481MA1999999082401MD1999999+0051ME1314749REMSYN076AAXX  06124 44474 32064 51601 10128 20039 38240 48474 85600 333 10148 58005;EQDQ01  00002PRCP99
0211444740999992000120703004+27340+087670FM-12+1732VNTJ V0209999C000012200019N0160001N1+01401+00411999999ADDAA199000091GA1001+999999999GF100991001001999999001001KA1120N+00341MA1999999082811MD1999999+0051ME1315159REMSYN076AAXX  07034 44474 32966 00000 10140 20041 38281 48515 82100 333 20034 58005;EQDQ01  00002PRCP99
0146444740999992000120706004+27340+087670FM-12+1732VNTJ V0202701N001012200019N0200001N1+01301+00591999999ADDGF102991021011004501001001MA1999999082831MD1999999+0111ME1315179REMSYN070AAXX  07064 44474 42470 22702 10130 20059 38283 48517 82100 333 58011;
0165444740999992000120709004+27340+087670FM-12+1732VNTJ V0201801N000519999999N0140001N1+01441+00481999999ADDGF105991999021000251001001MA1999999082591MD1999999+0281ME1314939REMSYN070AAXX  07094 44474 42064 51801 10144 20048 38259 48493 84200 333 58028;EQDQ01+000042SCOTLC
0195444740999992000120712004+27340+087670FM-12+1732VNTJ V0200901N000512200019N0140001N1+01241+00341999999ADDAA199000091GF104991041051000251001001KA1120M+01541MA1999999082571MD1999999+0171ME1314919REMSYN076AAXX  07124 44474 32064 40901 10124 20034 38257 48491 84500 333 10154 58017;EQDQ01  00002PRCP99
0146444740999992000120806004+27340+087670FM-12+1732VNTJ V0200201N001012200019N0150001N1+01341+00431999999ADDGF103991031021002501001001MA1999999082821MD1999999-0011ME1315169REMSYN070AAXX  08064 44474 42365 30202 10134 20043 38282 48516 83200 333 59001;
0146444740999992000120809004+27340+087670FM-12+1732VNTJ V0201801N001012200019N0150001N1+01521+00391999999ADDGF104991041041004501001001MA1999999082531MD1999999-0061ME1314869REMSYN070AAXX  08094 44474 42465 41802 10152 20039 38253 48486 84400 333 59006;
0195444740999992000120903004+27340+087670FM-12+1732VNTJ V0209999C000012200019N0150001N1+00681+00501999999ADDAA199000091GF102991021021001501001001KA1120N+00421MA1999999082601MD1999999-0231ME1314949REMSYN076AAXX  09034 44474 32265 20000 10068 20050 38260 48494 82200 333 20042 59023;EQDQ01  00002PRCP99
0146444740999992000120909004+27340+087670FM-12+1732VNTJ V0203401N000510060019N0120001N1+01241+00611999999ADDGF106991061081000251001001MA1999999082321MD1999999-0211ME1314669REMSYN070AAXX  09094 44474 42062 63401 10124 20061 38232 48466 86800 333 59021;
0195444740999992000121003004+27340+087670FM-12+1732VNTJ V0209999C000010360019N0150001N1+00741+00511999999ADDAA199000091GF105991031051004501031001KA1120N+00481MA1999999082631MD1999999+0031ME1314989REMSYN076AAXX  10034 44474 32465 50000 10074 20051 38263 48498 83530 333 20048 58003;EQDQ01  00002PRCP99
0146444740999992000121006004+27340+087670FM-12+1732VNTJ V0202701N001012200019N0120001N1+01181+00751999999ADDGF104991041021002501001001MA1999999082721MD1999999+0101ME1315069REMSYN070AAXX  10064 44474 42362 42702 10118 20075 38272 48506 84200 333 58010;
0146444740999992000121009004+27340+087670FM-12+1732VNTJ V0209999C000012200019N0150001N1+01301+00511999999ADDGF104991041041004501001001MA1999999082541MD1999999+0221ME1314889REMSYN070AAXX  10094 44474 42465 40000 10130 20051 38254 48488 84400 333 58022;
0195444740999992000121012004+27340+087670FM-12+1732VNTJ V0200901N000510042019N0100001N1+01161+00511999999ADDAA199000091GF106991061041004501001001KA1120M+01441MA1999999082501MD1999999+0101ME1314839REMSYN076AAXX  10124 44474 32460 60901 10116 20051 38250 48483 86400 333 10144 58010;EQDQ01  00002PRCP99
0195444740999992000121103004+27340+087670FM-12+1732VNTJ V0209999C000012200019N0150001N1+00761+00581999999ADDAA199000091GF103991031021000251001001KA1120N+00441MA1999999082751MD1999999+0121ME1315099REMSYN076AAXX  11034 44474 32065 30000 10076 20058 38275 48509 83200 333 20044 58012;EQDQ01  00002PRCP99
0146444740999992000121106004+27340+087670FM-12+1732VNTJ V0209999C000012200019N0150001N1+01161+00781999999ADDGF103991031021002501001001MA1999999082731MD1999999+0011ME1315079REMSYN070AAXX  11064 44474 42365 30000 10116 20078 38273 48507 83200 333 58001;
0210444740999992000121112004+27340+087670FM-12+1732VNTJ V0201801N000510060019N0120001N1+00981+00591999999ADDAA109000791AY121061AY251061GF107991071081000251001001KA1120M+01341MA1999999082421MD1999999-0081ME1314769MW1021REMSYN088AAXX  11124 44474 31062 71801 10098 20059 38242 48476 70225 87800 333 10134 59008 69908;
0182444740999992000121203004+27340+087670FM-12+1732VNTJ V0209999C000012200019N0120001N1+00701+00561999999ADDAA124002091GF103991031021000251001001KA1120N+00561MA1999999082751MD1999999+0001ME1315099REMSYN082AAXX  12034 44474 22062 30000 10070 20056 38275 48509 83200 333 20056 58000 60024;
0146444740999992000121206004+27340+087670FM-12+1732VNTJ V0202701N002112200019N0150001N1+01241+00721999999ADDGF103991031021002501001001MA1999999082781MD1999999+0051ME1315129REMSYN070AAXX  12064 44474 42365 32704 10124 20072 38278 48512 83200 333 58005;
0195444740999992000121212004+27340+087670FM-12+1732VNTJ V0201801N002112200019N0120001N1+01141+00611999999ADDAA199000091GF102991021011008001001001KA1120M+01431MA1999999082601MD1999999+0181ME1314949REMSYN076AAXX  12124 44474 32562 21804 10114 20061 38260 48494 82100 333 10143 58018;EQDQ01  00002PRCP99
0205444740999992000121303004+27340+087670FM-12+1732VNTJ V0209999C000012200019N0200001N1+00521+00321999999ADDAA199000091GA1001+999999999GF100991001001999999001001KA1120N+00401MA1999999082771MD1999999+0021ME1315119REMSYN070AAXX  13034 44474 32970 00000 10052 20032 38277 48511 333 20040 58002;EQDQ01  00002PRCP99
0146444740999992000121309004+27340+087670FM-12+1732VNTJ V0201801N003112200019N0250001N1+01581+00361999999ADDGF102991021011012501001001MA1999999082561MD1999999-0031ME1314919REMSYN070AAXX  13094 44474 42675 21806 10158 20036 38256 48491 82100 333 59003;
0195444740999992000121403004+27340+087670FM-12+1732VNTJ V0201801N001012200019N0200001N1+00641+00451999999ADDAA199000091GF101991011011004501001001KA1120N+00441MA1999999082651MD1999999-0121ME1314999REMSYN076AAXX  14034 44474 32470 11802 10064 20045 38265 48499 81100 333 20044 59012;EQDQ01  00002PRCP99
0146444740999992000121406004+27340+087670FM-12+1732VNTJ V0200201N001012200019N0200001N1+01221+00701999999ADDGF102991021011004501001001MA1999999082621MD1999999-0171ME1314969REMSYN070AAXX  14064 44474 42470 20202 10122 20070 38262 48496 82100 333 59017;
0146444740999992000121409004+27340+087670FM-12+1732VNTJ V0201101N000512200019N0100001N1+01541+00511999999ADDGF103991031031000251011001MA1999999082421MD1999999-0141ME1314759REMSYN070AAXX  14094 44474 42060 31101 10154 20051 38242 48475 83310 333 59014;
0195444740999992000121412004+27340+087670FM-12+1732VNTJ V0201201N000510900019N0140001N1+01381+00451999999ADDAA199000091GF105991041041000251001021KA1120M+01621MA1999999082391MD1999999-0101ME1314739REMSYN076AAXX  14124 44474 32064 51201 10138 20045 38239 48473 84402 333 10162 59010;EQDQ01  00002PRCP99
0195444740999992000121503004+27340+087670FM-12+1732VNTJ V0209999C000012200019N0200001N1+00661+00481999999ADDAA199000091GF101991011011012501001001KA1120N+00461MA1999999082751MD1999999+0101ME1315099REMSYN076AAXX  15034 44474 32670 10000 10066 20048 38275 48509 81100 333 20046 58010;EQDQ01  00002PRCP99
0146444740999992000121509004+27340+087670FM-12+1732VNTJ V0202601N001012200019N0100001N1+01441+00431999999ADDGF101991011021008001001001MA1999999082551MD1999999+0131ME1314889REMSYN070AAXX  15094 44474 42560 12602 10144 20043 38255 48488 81200 333 58013;
0195444740999992000121512004+27340+087670FM-12+1732VNTJ V0200901N001012200019N0100001N1+01261+00321999999ADDAA199000091GF104991041041004501001001KA1120M+01561MA1999999082571MD1999999-0011ME1314909REMSYN076AAXX  15124 44474 32460 40902 10126 20032 38257 48490 84400 333 10156 59001;EQDQ01  00002PRCP99
0195444740999992000121603004+27340+087670FM-12+1732VNTJ V0209999C000010360019N0120001N1+00881+00591999999ADDAA199000091GF105991031051002501031001KA1120N+00571MA1999999083031MD1999999+0281ME1315079REMSYN076AAXX  16034 44474 32362 50000 10088 20059 38303 48507 83530 333 20057 58028;EQDQ01  00002PRCP99
0146444740999992000121606004+27340+087670FM-12+1732VNTJ V0201801N001012200019N0150001N1+01301+00561999999ADDGF105991031021002501001061MA1999999083021MD1999999+0301ME1315369REMSYN070AAXX  16064 44474 42365 51802 10130 20056 38302 48536 83206 333 58030;
0146444740999992000121609004+27340+087670FM-12+1732VNTJ V0201801N001012200019N0160001N1+01501+00381999999ADDGF103991031041001501001001MA1999999082661MD1999999+0131ME1315019REMSYN070AAXX  16094 44474 42266 31802 10150 20038 38266 48501 83400 333 58013;
0205444740999992000121703004+27340+087670FM-12+1732VNTJ V0209999C000012200019N0150001N1+00581+00391999999ADDAA199000091GA1001+999999999GF100991001001999999001001KA1120N+00431MA1999999083031MD1999999+0001ME1315379REMSYN070AAXX  17034 44474 32965 00000 10058 20039 38303 48537 333 20043 58000;EQDQ01  00002PRCP99
0146444740999992000121706004+27340+087670FM-12+1732VNTJ V0209999C000012200019N0200001N1+01361+00741999999ADDGF101991011011012501001001MA1999999082971MD1999999-0051ME1315319REMSYN070AAXX  17064 44474 42670 10000 10136 20074 38297 48531 81100 333 59005;
0205444740999992000121803004+27340+087670FM-12+1732VNTJ V0209999C000012200019N0200001N1+00641+00411999999ADDAA199000091GA1001+999999999GF100991001001999999001001KA1120N+00421MA1999999082801MD1999999-0231ME1315139REMSYN070AAXX  18034 44474 32970 00000 10064 20041 38280 48513 333 20042 59023;EQDQ01  00002PRCP99
0146444740999992000121809004+27340+087670FM-12+1732VNTJ V0201401N000512200019N0160001N1+01641+00641999999ADDGF101991011011012501001001MA1999999082431MD1999999-0151ME1314769REMSYN070AAXX  18094 44474 42666 11401 10164 20064 38243 48476 81100 333 59015;
0195444740999992000121812004+27340+087670FM-12+1732VNTJ V0201801N001012200019N0100001N1+01401+00561999999ADDAA199000091GF101991011011008001001001KA1120M+01671MA1999999082401MD1999999-0161ME1314739REMSYN076AAXX  18124 44474 32560 11802 10140 20056 38240 48473 81100 333 10167 59016;EQDQ01  00002PRCP99
0205444740999992000121903004+27340+087670FM-12+1732VNTJ V0209999C000012200019N0200001N1+00581+00431999999ADDAA199000091GA1001+999999999GF100991001001999999001001KA1120N+00381MA1999999082451MD1999999-0351ME1314789REMSYN070AAXX  19034 44474 32970 00000 10058 20043 38245 48478 333 20038 59035;EQDQ01  00002PRCP99
0195444740999992000122003004+27340+087670FM-12+1732VNTJ V0209999C000010003019N0080001N1+00821+00641999999ADDAA199000091GF106991061041000251001001KA1120N+00621MA1999999082731MD1999999+0281ME1315059REMSYN076AAXX  20034 44474 32058 60000 10082 20064 38273 48505 86400 333 20062 58028;EQDQ01  00002PRCP99
0146444740999992000122009004+27340+087670FM-12+1732VNTJ V0201801N001012200019N0150001N1+01461+00781999999ADDGF101991011021004501001001MA1999999082551MD1999999+0261ME1314879REMSYN070AAXX  20094 44474 42465 11802 10146 20078 38255 48487 81200 333 58026;
0195444740999992000122012004+27340+087670FM-12+1732VNTJ V0209999C000012200019N0100001N1+01281+00611999999ADDAA199000091GF102991021021004501001001KA1120M+01541MA1999999082571MD1999999+0371ME1314899REMSYN076AAXX  20124 44474 32460 20000 10128 20061 38257 48489 82200 333 10154 58037;EQDQ01  00002PRCP99
0195444740999992000122103004+27340+087670FM-12+1732VNTJ V0209999C000012200019N0120001N1+00721+00611999999ADDAA199000091GF102991021021000251001001KA1120N+00581MA1999999082851MD1999999+0121ME1315189REMSYN076AAXX  21034 44474 32062 20000 10072 20061 38285 48518 82200 333 20058 58012;EQDQ01  00002PRCP99
0146444740999992000122106004+27340+087670FM-12+1732VNTJ V0209999C000012200019N0200001N1+01361+00741999999ADDGF101991011011012501001001MA1999999082821MD1999999+0111ME1315159REMSYN070AAXX  21064 44474 42670 10000 10136 20074 38282 48515 81100 333 58011;
0205444740999992000122203004+27340+087670FM-12+1732VNTJ V0209999C000012200019N0200001N1+00641+00381999999ADDAA199000091GA1001+999999999GF100991001001999999001001KA1120N+00501MA1999999082951MD1999999+0101ME1315299REMSYN070AAXX  22034 44474 32970 00000 10064 20038 38295 48529 333 20050 58010;EQDQ01  00002PRCP99
0156444740999992000122206004+27340+087670FM-12+1732VNTJ V0201801N001012200019N0250001N1+01641+00771999999ADDGA1001+999999999GF100991001001999999001001MA1999999082901MD1999999+0081ME1315159REMSYN064AAXX  22064 44474 42975 01802 10164 20077 38290 48515 333 58008;
0195444740999992000122503004+27340+087670FM-12+1732VNTJ V0200201N000512200019N0200001N1+00641+00501999999ADDAA199000091GF101991011011012501001001KA1120N+00481MA1999999082651MD1999999-0041ME1314989REMSYN076AAXX  25034 44474 32670 10201 10064 20050 38265 48498 81100 333 20048 59004;EQDQ01  00002PRCP99
0146444740999992000122509004+27340+087670FM-12+1732VNTJ V0200901N001012200019N0180001N1+01521+00821999999ADDGF101991011011008001001001MA1999999082481MD1999999-0081ME1314809REMSYN070AAXX  25094 44474 42568 10902 10152 20082 38248 48480 81100 333 59008;
0205444740999992000122603004+27340+087670FM-12+1732VNTJ V0209999C000012200019N0180001N1+00661+00431999999ADDAA199000091GA1001+999999999GF100991001001999999001001KA1120N+00541MA1999999082761MD1999999+0111ME1315099REMSYN070AAXX  26034 44474 32968 00000 10066 20043 38276 48509 333 20054 58011;EQDQ01  00002PRCP99
0146444740999992000122606004+27340+087670FM-12+1732VNTJ V0209999C000012200019N0200001N1+01361+00711999999ADDGF101991011011012501001001MA1999999082871MD1999999+0311ME1315209REMSYN070AAXX  26064 44474 42670 10000 10136 20071 38287 48520 81100 333 58031;
0195444740999992000122612004+27340+087670FM-12+1732VNTJ V0201801N003112200019N0120001N1+01361+00501999999ADDAA199000091GF103991031021004501001001KA1120M+01681MA1999999082681MD1999999+0231ME1315019REMSYN076AAXX  26124 44474 32462 31806 10136 20050 38268 48501 83200 333 10168 58023;EQDQ01  00002PRCP99
0205444740999992000122703004+27340+087670FM-12+1732VNTJ V0209999C000012200019N0200001N1+00521+00321999999ADDAA199000091GA1001+999999999GF100991001001999999001001KA1120N+00321MA1999999082961MD1999999+0201ME1315309REMSYN070AAXX  27034 44474 32970 00000 10052 20032 38296 48530 333 20032 58020;EQDQ01  00002PRCP99
0195444740999992000122803004+27340+087670FM-12+1732VNTJ V0209999C000012200019N0200001N1+00581+00431999999ADDAA199000091GF101991011011012501001001KA1120N+00371MA1999999082851MD1999999-0111ME1315199REMSYN076AAXX  28034 44474 32670 10000 10058 20043 38285 48519 81100 333 20037 59011;EQDQ01  00002PRCP99
0146444740999992000122806004+27340+087670FM-12+1732VNTJ V0202701N001012200019N0250001N1+01221+00811999999ADDGF102991021011004501001001MA1999999082831MD1999999-0101ME1315179REMSYN070AAXX  28064 44474 42475 22702 10122 20081 38283 48517 82100 333 59010;
0146444740999992000122809004+27340+087670FM-12+1732VNTJ V0200901N001012200019N0200001N1+01421+00651999999ADDGF101991011021004501001001MA1999999082641MD1999999-0051ME1314989REMSYN070AAXX  28094 44474 42470 10902 10142 20065 38264 48498 81200 333 59005;
0195444740999992000122903004+27340+087670FM-12+1732VNTJ V0209999C000010060019N0080001N1+00681+00581999999ADDAA199000091GF105991051081000251001001KA1120N+00501MA1999999082751MD1999999-0101ME1315099REMSYN076AAXX  29034 44474 32058 50000 10068 20058 38275 48509 85800 333 20050 59010;EQDQ01  00002PRCP99
0146444740999992000122909004+27340+087670FM-12+1732VNTJ V0209999C000010090019N0150001N1+01161+00821999999ADDGF106991061081004501001001MA1999999082571MD1999999-0071ME1314909REMSYN070AAXX  29094 44474 42465 60000 10116 20082 38257 48490 86800 333 59007;
0195444740999992000122912004+27340+087670FM-12+1732VNTJ V0209999C000010090019N0100001N1+01161+00741999999ADDAA199000091GF106991061081004501001001KA1120M+01251MA1999999082571MD1999999-0031ME1314919REMSYN076AAXX  29124 44474 32460 60000 10116 20074 38257 48491 86800 333 10125 59003;EQDQ01  00002PRCP99
0195444740999992000123003004+27340+087670FM-12+1732VNTJ V0209999C000010360019N0080001N1+00761+00651999999ADDAA199000091GF106991041051000251031001KA1120N+00501MA1999999082731MD1999999-0021ME1315079REMSYN076AAXX  30034 44474 32058 60000 10076 20065 38273 48507 84530 333 20050 59002;EQDQ01  00002PRCP99
0146444740999992000123009004+27340+087670FM-12+1732VNTJ V0202001N001512200019N0140001N1+99999+99999999999ADDGF101991011021004501001001MA1999999082541MD1999999-0031ME1314889REMSYN070AAXX  30094 44474 42464 12003 10/50 20059 38254 48488 81200 333 59003;
0195444740999992000123012004+27340+087670FM-12+1732VNTJ V0202601N001012200019N0100001N1+01281+00391999999ADDAA199000091GF104991031021004501001011KA1120M+01521MA1999999082531MD1999999-0061ME1314849REMSYN076AAXX  30124 44474 32460 42602 10128 20039 38253 48484 83201 333 10152 59006;EQDQ01  00002PRCP99
0195444740999992000123103004+27340+087670FM-12+1732VNTJ V0209999C000012200019N0100001N1+00781+00591999999ADDAA199000091GF104991041081000251001001KA1120N+00581MA1999999082731MD1999999+0001ME1315059REMSYN076AAXX  31034 44474 32060 40000 10078 20059 38273 48505 84800 333 20058 58000;EQDQ01  00002PRCP99
0146444740999992000123106004+27340+087670FM-12+1732VNTJ V0209999C000010360019N0150001N1+01361+00771999999ADDGF105991031051004501031001MA1999999082731MD1999999-0011ME1315049REMSYN070AAXX  31064 44474 42465 50000 10136 20077 38273 48504 83530 333 59001;
0146444740999992000123109004+27340+087670FM-12+1732VNTJ V0202701N000512200019N0150001N1+01521+00701999999ADDGF102991021021004501001001MA1999999082391MD1999999-0151ME1314739REMSYN070AAXX  31094 44474 42465 22701 10152 20070 38239 48473 82200 333 59015;
