0107467360999992000010113004+24430+118370FM-15+0009RCBS V0200301N002112200019N0112651N1+01601+01001999999ADDGA1021+002409999GF104991999999999999999999MW1001REMMET047RCBS 1300Z 03004KT 9999 SCT008 16/10 RMK A3001;
0396467360999992000010900004+24430+118370SY-MT+0009RCBS V0203201N00101021001CN0032001N1+01561+01491101661ADDAA106000091AY121061AY221061GA1021+002409999GA2071+021009999GF199999031061002501031001KA1120N+01401MA1101591101511MD1510181+9999MW1101REMSYN122AAXX  09004 46736 31332 63202 10156 20149 30151 40166 55018 71022 83630 333 20140 555 83708 86357 00000 24000 10206 14141;MET072RCBS 0000Z 32002KT 3200 BR SCT008 BKN070 16/15 Q1016 RMK A3002 -2- SMTH;EQDQ01+000062SCOTCVQ02  00002PRCP06Q03    003PRSWM1
0143467360999992000010902004+24430+118370FM-15+0009RCBS V0209999C000012200019N0040001N1+01901+01501999999ADDMA1101691999999MW1051REMMET075RCBS 0200Z 00000KT 4000 HZMSCT008 KN060 19/15 Q1017 RMK A3006 -2.1/2- SMTM;EQDQ01+000003PRSWM1Q02    003PRSWM1
0359467360999992000011118004+24430+118370SY-MT+0009RCBS V0209999C000012200019N0080001N1+01611+01431101491ADDAA106000091AY111061AY211061GA1021+002409999GA2071+015009999GF199999061051002501051001MA1101391101341MD1710101+9999MW1101REMSYN094AAXX  11184 46736 31358 40000 10161 20143 30134 40149 57010 71011 86550 555 83708 86650 00000;MET060RCBS 1800Z 00000KT 8000 SCT008 BKN050 16/14 Q1014 RMK A2997;EQDQ01+000042SCOTCVQ02+000000PRSWM2Q03  00002PRCP06Q04    003PRSWM1
0169467360999992000011404004+24430+118370FM-15+0009RCBS V0200501N005110048019N0080001N1+01401+00901999999ADDGA1021+001809999GA2071+004809999GF107991999999999999999999MW1001REMMET074RCBS 0400Z 05010KT 8000 SCT006 BKN016 14/09.Q1018 RMK A3007 -5- SLGT (RS);EQDQ01+000000PRSWM2
0272467360999992000011412004+24430+118370FM-12+000999999V0200701N00461006301CN0080001N1+01391+00881101801ADDAA199000091AY121061AY221061GA1031+001809079GA2081+006309069GF108991081051002501999999KA1120M+01441MA1999999101651MD1110071+9999MW1051REMSYN108    AAXX  14124 46736 31358 80709 10139 20088 30165 40180 51007 70522 885// 333 10144 555 83706 88621 00000;EQDQ01  00002PRCP99
0385467360999992000011500004+24430+118370SY-MT+000999999V0200401N00151006301CN0080001N1+01501+01121999999ADDAA199000091AY121061AY221061GA1021+001809999GA2081+006309999GF108991081051002501999999KA1120N+01321MA1101801101711MD1510101+9999MW1101REMSYN114    AAXX  15004 46736 31358 80403 10150 20112 30171 55010 71022 885// 333 20132 555 88621 00000 24000 10144 20110;MET069RCBS 0000Z 04003KT 8000 SCT006 OVC021 15/11 Q1018 RMK A3008 -5- SMTH;EQDQ01+000000PRSWM2Q02  00002PRCP99Q03    003PRSWM1
0347467360999992000012406004+24430+118370SY-MT+0009RCBS V0200801N00461006301CN0070001N1+01601+01301102131ADDAA106002091AY161061AY221061GA1021+001809999GA2081+006309999GF108991081051002501999999MA1102101101981MD1810241+9999MW1601MW2611REMSYN100AAXX  24064 46736 11357 80809 12157 20128 30198 40213 58024 60021 76062 885// 555 83706 88621 00002;MET084RCBS 0600Z 08009KT 7000 -RA SCT006 OVC021 16/13 Q1021.RMK A3012 -4 3/8-.XLG VTM(RS);EQDQ01    003PRSWM1
0427467360999992000012500004+24430+118370SY-MT+0009RCBS V0200601N00671003601CN0100001N1+01051+00741102681ADDAA112004191AY161061AY261061GA1021+001509999GA2071+003609999GA3081+009009999GF108991081051001501999999KA1120N+01051MA1102611102531MD1210241+9999MW1601REMSYN134AAXX  25004 46736 12260 80613 10105 20074 30253 40268 52024 60042 76066 885// 333 20105 555 83705 85712 88630 00000 24994 10159 20117;MET091RCBS 0000Z 06013KT 9000 MRA SCT005 BKN012 OVC030 11/07 Q1026 RMK A3032 RAIN AMT T -6- SLGT;EQDQ01+000000PRSWM2Q02    003PRSWM1
0375467360999992000021300004+24430+118370SY-MT+0009RCBS V0200401N00211012001CN0032001N1+01401+01171101691ADDAA199000091AY111061AY211061GA1021+002409999GA2071+012009999GF107991071051002501001001KA1120M+02111MA1101591101541MD1310041+9999MW1101REMSYN117AAXX  13004 46736 31332 70404 1014/ 20117 30154 40169 53004 71011 87500 333 555 83708 876<0 00000. 2<000 10211 20114;MET072RCBS 0000Z 04004KT 3200 BR SCT008 BKN040 14/12 Q1016 RMK A3003 -2- SMTH;EQDQ01  00002PRCP99Q02    003PRSWM1
0393467360999992000021600004+24430+118370SY-MT+0009RCBS V0200501N004610180019N0080001N1+01281+00531102271ADDAA199000091AY121061AY221061GA1021+002409999GA2071+018009999GF107991051051004501001001KA1120N+01021MA1102201101211MD1310071+9999MW1051REMSYN122AAXX  16004 46736 31458 50509 10128 20053 30121 40227 53007 70522 85500 333 20102 555 83708 85656 00000 24000 10158 20102;MET069RCBS 0000Z 05009KT 8000 SCT008 BKN060 13/05 Q1022 RMK A3020 -5- SLGT;EQDQ01+000000PRSWM2Q02  00002PRCP99Q03    003PRSWM1
0202467360999992000021601004+24430+118370FM-15+0009RCBS V0200401N005110096019N0080001N1+01301+00301999999ADDGA1021+002409999GA2071+009609999GA3081+018009999GF108991999999999999999999MA1102301999999MW1001REMMET076RCBS 0100Z 04010KT 8000 SCT008 BKN032 OVC060 13/03 Q1023 RMK A3021 -5- SLGT;EQDQ01+000000PRSWM2
0202467360999992000021602004+24430+118370FM-15+0009RCBS V0200501N004610096019N0080001N1+01401+00501999999ADDGA1021+002409999GA2071+009609999GA3081+018009999GF108991999999999999999999MA1102301999999MW1001REMMET076RCBS 0200Z 05009KT 8000 SCT008 BKN032 OVC060 14/05 Q1023 RMK A3021 -5- SLGT;EQDQ01+000000PRSWM2
0210467360999992000021701004+24430+118370FM-15+0009RCBS V0200401N005710120019N0070001N1+01001+00601999999ADDGA1021+002409999GA2021+007509999GA3081+012009999GF108991999999999999999999MA1102401999999MW1001REMMET084RCBS 0100Z 04011KT 7000 SCT008 SCT025 OVC040 10/06 Q1024 RMK A3025 -4 3/8- SLGT(RS);EQDQ01+000000PRSWM2
0199467360999992000021704004+24430+118370FM-15+0009RCBS V0200501N004110150019N9999999N1+01501+00801999999ADDGA1021+002409999GA2081+015009999GF108991999999999999999999MA1102201999999MW1001REMMET073RCBS 0400Z 05008KT 7000 SCT008 OVC050 15/08 Q1022 RMK A3021 -4 3/8- SLGT;EQDQ01+070002VODIS Q02+000000PRSWM2
0170467360999992000021719004+24430+118370FM-15+0009RCBS V0200601N005110120019N0070001N1+01201+00901999999ADDGA1021+002409999GA2071+012009999GF107991999999999999999999MA1102101999999MW1001REMMET060RCBS 1900Z 06010KT 7000 SCT008 BKN040 12/09 Q1021 RMK A3015;EQDQ01+000000PRSWM2
0237467360999992000022008004+24430+118370FM-15+0009RCBS V0200601N004610030019N0060001N1+01101+00801999999ADDGA1021+001209999GA2071+003009999GA3081+007509999GF108991999999999999999999MA1101391999999MW1611REMMET095RCBS 0800Z 06009KT 6000 -RA SCT004 BKN010 OVC025 11/08 Q1014 RMK RAIN AMT T A2996 -4- SLGT(RS);EQDQ01+000003PRSWM1Q02    003PRSWM1
0202467360999992000032310004+24430+118370FM-15+0009RCBS V0200801N003610120019N0040001N1+01901+01601999999ADDGA1021+002409999GA2071+012009999GF107991999999999999999999MA1101591999999MW1101REMMET076RCBS 1000Z 08007KT 4000 BR SCT008 BKN040 19/16 Q1016 RMK A3002 -2 1/2- SLGT;EQDQ01+000003PRSWM1Q02    003PRSWM1
0206467360999992000040201004+24430+118370FM-15+0009RCBS V0200201N002110120019N0070001N1+01901+01601999999ADDGA1021+002409999GA2071+012009999GA3071+024009999GF107991999999999999999999MA1101391999999MW1001REMMET080RCBS 0100Z 02004KT 7000 SCT008 BKN040 BKN080 19/16 Q1014 RMK A2997 -4 3/8- SMTH;EQDQ01+000000PRSWM2
0222467360999992000040323004+24430+118370FM-15+0009RCBS V0200901N001010063019N0032001N1+01601+01501999999ADDGA1021+002409999GA2071+006309999GA3081+012009999GF108991999999999999999999MA1101081999999MW1101REMMET080RCBS 2300Z 09002KT 3200 BR SCT008 BKN021 OVC040 16/15 Q1011 RMK A2988 -2- S MTH;EQDQ01+000003PRSWM1Q02    003PRSWM1
0240467360999992000051510004+24430+118370FM-15+0009RCBS V0201301N001512200019N9999999N1+02601+02001999999ADDGA1021+003009999GF102991999999999999999999MA1100711999999MW1051REMMET130RCBS 151000Z 13003KT V5000 HZ FEW010 26/20 Q1007 RMK 2974 --8 --88 -8-- :> 00000KT 7000 SCT012 BKN050 28/21 Q1007 NOSIG RMK A2974;EQDQ01+000003PRSWM1Q02    003PRSWM1
0149467360999992000051611004+24430+118370FM-15+0009RCBS V0200901N002112200019N0060001N1+02601+02301999999ADDGA1021+003009999GF102991999999999999999999MA1100611999999MW1001REMMET055RCBS 161100Z 09004KT 6000 FEW010 26/23 Q1006 RMK A2971;EQDQ01+000000PRSWM2
0191467360999992000051708004+24430+118370FM-15+0009RCBS V0200801N004612200019N0112651N1+02701+02301999999ADDGA1021+003009999GA2021+018009999GF104991999999999999999999MA1100611999999MW1001OC101031REMMET073RCBS 170800Z 08009G20KT 9999 SCT010 SCT060 27/23 Q1006 RMK A2973 -7- MDT;EQDQ01+000000PRSWM2
0317467360999992000062706004+24430+118360SY-MT+0009RCBS V0202101N002610750019N0250001N1+03071+02631101111ADDAA199000091GA1021+003609999GA2071+075009999GF106991011011004501001011MA1101021100161MD1710141+9999MW1001REMSYN088AAXX  27064 46736 32475 62105 10307 20263 30016 40111 57014 81101 555 81812 86075 00000;MET072RCBS 270600Z 21005KTM170V240 9999 FEW012 BKN250 31/21 Q1010 A2985 NOSIG;EQDQ01+000000PRSWM2Q02  00002PRCP99
0168467360999992000062708004+24430+118360FM-15+0009RCBS V0202101N002610900019N0112651N1+03101+02601999999ADDGA1021+004509999GA2071+090009999GF107991999999999999999999MA1101021999999MW1001REMMET058RCBS 270800Z 21005KT 9999 FEW015 BKN300 31/26 Q1010 A2983;EQDQ01+000000PRSWM2
0168467360999992000062709004+24430+118360FM-15+0009RCBS V0202201N003110900019N0112651N1+03101+02601999999ADDGA1021+006009999GA2071+090009999GF107991999999999999999999MA1101021999999MW1001REMMET058RCBS 270900Z 22006KT 9999 FEW020 BKN300 31/26 Q1010 A2983;EQDQ01+000000PRSWM2
0174467360999992000062902004+24430+118360FM-15+0009RCBS V0202101N002612200019N0112651N1+03001+02601999999ADDGA1021+003609999GA2021+090009999GF104991999999999999999999MA1100811999999MW1001REMMET064RCBS 290200Z 21005KT 9999 FEW012 SCT300 30/26 Q1008 A2977 NOSIG;EQDQ01+000000PRSWM2
0182467360999992000070405004+24430+118360FM-15+0009RCBS V0200601N006212200019N0112651N1+03301+02201999999ADDGA1021+006009999GA2021+021009999GF104991999999999999999999MA1100311999999MW1001REMMET072RCBS 040500Z 06012KT 030V100 9999 FEW020 SCT070 33/22 Q1003 A2962 NOSIG;EQDQ01+000000PRSWM2
0268467360999992000071500004+24430+118360FM-12+0009RCBS V0202701N001512200019N0010001N1+02981+02471100711ADDAA199000091AY101061AY201061GA1011+003609089GF103991031051004501001001KA1120N+02441MA1999999100261MD1210101+9999REMSYN110AAXX  15004 46736 32410 32703 10298 20247 30026 40071 52010 73800 83500 333 20244 555 81812 8YWT PPPPPM 24000;EQDQ01+000382PRSWM1Q02  00002PRCP99
0229467360999992000071622004+24430+118360FM-15+0009RCBS V0201801N00151004501CN0112651N1+02701+02501999999ADDGA1021+001509999GA2021+002409999GA3021+004509099GA4071+021009999GF107991999999999999999999MA1100611999999MW1001REMMET087RCBS 162200Z 18003KT 9999 SCT005 SCT008 FEW015CB BKN070 27/25 Q1006 A2973 CB NNW NOSIG;EQDQ01+000000PRSWM2
0214467360999992000071818004+24430+118360FM-15+0009RCBS V0201901N005110180019N0090001N1+02801+02501999999ADDGA1021+002409999GA2021+004209999GA3071+018009999GF107991999999999999999999MA1100511999999MW1801REMMET072RCBS 181800Z 19010 KT 9000 -SHRA FEW008 SCT014 BKN060 28/25 Q1005 A2970;EQDQ01+000003PRSWM1Q02    003PRSWM1
0214467360999992000071820004+24430+118360FM-15+0009RCBS V0201901N005110180019N0090001N1+02801+02501999999ADDGA1021+002409999GA2021+004209999GA3071+018009999GF107991999999999999999999MA1100511999999MW1801REMMET072RCBS 182000Z 19010 KT 9000 -SHRA FEW008 SCT014 BKN060 28/25 Q1005 A2970;EQDQ01+000003PRSWM1Q02    003PRSWM1
0191467360999992000071823004+24430+118360FM-15+0009RCBS V0201601N002110450019N0112651N1+02801+02501999999ADDGA1021+004209999GA2021+021009999GA3071+045009999GF107991999999999999999999MA1100101999999MW1001REMMET065RCBS 182300Z 16004KT 9999 FEW014 SCT070 BKN150 28/25 Q1001 Q2972;EQDQ01+000000PRSWM2
0191467360999992000071900004+24430+118360FM-15+0009RCBS V0201901N004610360019N0100001N1+02801+02501999999ADDGA1021+004209999GA2021+005409999GA3071+036009999GF107991999999999999999999MA1100611999999MW1001REMMET065RCBS 190000Z 19009KTM9999 FEW014 SCT018 BKN120 28/25 Q1006 A2973;EQDQ01+000000PRSWM2
0170467360999992000071901004+24430+118360FM-15+0009RCBS V0201801N003110066019N0090001N1+99999+99999999999ADDGA1021+004209999GA2071+006609999GF107991999999999999999999MW1001MW2511REMMET069RCBS 190100Z 18006KT 9000 -DZ FEW014 BKN022.BKN120 28/26 Q1007 A2974;EQDQ01+000003PRSWM1
0210467360999992000071902004+24430+118360FM-15+0009RCBS V0202801N001510030019N0090001N1+02601+02401999999ADDGA1021+001809999GA2071+003009999GA3071+030009999GF107991999999999999999999MA1100711999999MW1511REMMET068RCBS 190200Z 28003KT 9000-DZ FEW006 BKN010 BKN100 26/24 Q1007 A2976;EQDQ01+000003PRSWM1Q02    003PRSWM1
0185467360999992000071910004+24430+118360FM-15+0009RCBS V0203301N000510042019N0070001N1+99999+99999999999ADDGA1021+001509999GA2071+004209999GA3071+015009999GF107991999999999999999999MW1001MW2611REMMET068RCBS 191000Z 33001KT 7000-RA SCT005 BKN014 BKN050.27/25 Q1007 A2974;EQDQ01+000003PRSWM1
0136467360999992000071912004+24430+118360FM-15+0009RCBS V0203001N001012200019N0090001N1+99999+99999999999ADDGA1021+002409999GF102991999999999999999999MW1001REMMET057RCBS 191200Z 30002KT 9000 FEW008 KN070 26/25 Q1008 A2979;EQDQ01+000000PRSWM2
0144467360999992000071921004+24430+118360FM-15+0009RCBS V0201301N002112200019N0112651N1+99999+99999999999ADDGA1021+002409999GF102991999999999999999999MW1001REMMET065RCBS 192100Z 13004KT 9999 FEW008 UCT028 BKN080 27/25 Q1008 A2978;EQDQ01+000000PRSWM2
0191467360999992000071922004+24430+118360FM-15+0009RCBS V0201401N001010300019N0112651N1+02701+02501999999ADDGA1021+002409999GA2021+012009999GA3071+030009999GF107991999999999999999999MA1100911999999MW1001REMMET065RCBS 192200Z 14002KT 9999 FEW008 SCT040 BKN100 27/25 Q1009 A2982;EQDQ01+000000PRSWM2
0175467360999992000072001004+24430+118360FM-15+0009RCBS V0201101N002110750019N0160931N1+02901+02601999999ADDGA1021+030009999GA2071+075009999GF107991999999999999999999MA1101081999999MW1001REMMET065RCBS 200100Z 11004KTM9999.KEW010 SCT100 BKN250 29/26 Q1011 A2986;EQDQ01+000000PRSWM2
0167467360999992000072203004+24430+118360FM-15+0009RCBS V0202101N002612200019N9999999N1+03101+02501999999ADDGA1021+009009999GF102991999999999999999999MA1100911999999MW1001REMMET057RCBS 220300Z 21005KT 7000 FEW030 31/25 Q1009 A2980 NOSIG;EQDQ01+070002VODIS Q02+000000PRSWM2
0174467360999992000073010004+24430+118360FM-15+0009RCBS V0202101N003110360019N0090001N1+02901+02501999999ADDGA1021+004509999GA2071+036009999GF107991999999999999999999MA1100611999999MW1001REMMET064RCBS 310100Z 21006KT 9000 FEW015 BKN120 29/25 Q1006 A2971 NOSIG;EQDQ01+000000PRSWM2
0168467360999992000080121004+24430+118360FM-15+0009RCBS V0202501N002110360019N0112651N1+02601+02301999999ADDGA1021+007509999GA2071+036009999GF107991999999999999999999MA1100711999999MW1001REMMET058RCBS 012100Z 25004KT 9999 FEW025 BKN120 26/23 Q1007 A2975;EQDQ01+000000PRSWM2
0152467360999992000080122004+24430+118360FM-15+0009RCBS V0202601N002110300019N0112651N1+02601+02301999999ADDGA1071+030009999GF107991999999999999999999MA1100711999999MW1001REMMET058RCBS 012200Z 26004KT 9999 KEW020 BKN100 26/23 Q1007 A2976;EQDQ01+000000PRSWM2
0168467360999992000080200004+24430+118360FM-15+0009RCBS V0202101N001510900019N0112651N1+02801+02301999999ADDGA1021+008409999GA2071+090009999GF107991999999999999999999MA1100711999999MW1001REMMET058RCBS 020000Z 21003KT 9999 FEW028 BKN300 28/23 Q1007 A2975;EQDQ01+000000PRSWM2
0191467360999992000080201004+24430+118360FM-15+0009RCBS V0201901N002610900019N0112651N1+02901+02401999999ADDGA1021+005409999GA2021+045009999GA3071+090009999GF107991999999999999999999MA1100711999999MW1001REMMET065RCBS 020100Z 19005KT 9999 FEW018 SCT150 BKN300 29/24 Q1007 A2975;EQDQ01+000000PRSWM2
0180467360999992000080204004+24430+118360FM-15+0009RCBS V0201601N002110135019N0112651N1+02901+02401999999ADDGA1071+013509999GA2071+024009999GF107991999999999999999999MA1100711999999MW1001REMMET070RCBS 020400Z 16004KT 9999 FW012 BKN045 BKN080 29/24 Q1007 A2975 NOSIG;EQDQ01+000000PRSWM2
0179467360999992000080205004+24430+118360FM-15+0009RCBS V0201901N003110135019N0112651N1+02901+02501999999ADDGA1071+013509999GA2071+021009999GF107991999999999999999999MA1100611999999MW1001REMMET069RCBS 020500Z 19006KT 9999 FW012 BKN045 BKN070 29/25 Q1006 A297 NOSIG;EQDQ01+000000PRSWM2
0197467360999992000080212004+24430+118360FM-15+0009RCBS V0202101N003110030019N0112651N1+02701+02401999999ADDGA1021+001809999GA2071+003009999GA3071+015009999GF107991999999999999999999MA1100611999999MW1001REMMET071RCBS 021200Z 21006KT 9999 SCT006 BKN010 BKN050 27/24 Q1006 A2973 NOSIG;EQDQ01+000000PRSWM2
0161467360999992000080900004+24430+118360FM-15+0009RCBS V0201501N001512200019N9999999N1+03001+02301999999ADDGA1021+003009999GF102991999999999999999999MA1101021999999MW1001REMMET051RCBS 090100Z 15003KT 5000 FEW010 30/23 Q1010 A2985;EQDQ01+050002VODIS Q02+000000PRSWM2
0161467360999992000080901004+24430+118360FM-15+0009RCBS V0201501N001512200019N9999999N1+03001+02301999999ADDGA1021+003009999GF102991999999999999999999MA1101021999999MW1001REMMET051RCBS 090100Z 15003KT 5000 FEW010 30/23 Q1010 A2985;EQDQ01+050002VODIS Q02+000000PRSWM2
0161467360999992000080903004+24430+118360FM-15+0009RCBS V0202101N002612200019N9999999N1+03001+02301999999ADDGA1021+002409999GF102991999999999999999999MA1101021999999MW1001REMMET051RCBS 090300Z 21005KT 7000 FEW008 30/23 Q1010 A2983;EQDQ01+070002VODIS Q02+000000PRSWM2
0193467360999992000081212004+24430+118360FM-15+0009RCBS V0202101N003112200019N0050001N1+02801+02501999999ADDGA1021+003609999GA2021+024009999GF104991999999999999999999MA1100611999999MW1051REMMET067RCBS 121200Z 21006KT 5000 HZ FEW012 SCT080 28/25 Q1006 A2972 NOSIG;EQDQ01+000003PRSWM1Q02    003PRSWM1
0197467360999992000100605004+24430+118360FM-15+0009RCBS V0201101N002610036019N0112651N1+02801+02301999999ADDGA1021+002409999GA2071+003609999GA3071+024009999GF107991999999999999999999MA1101491999999MW1001REMMET071RCBS 060500Z 11005KT 9999 FEW008 BKN012 BKN080 28/23 Q1015 A2998 NOSIG;EQDQ01+000000PRSWM2
0191467360999992000110922004+24430+118360FM-15+0009RCBS V0200301N002610150019N0112651N1+02101+01701999999ADDGA1021+004809999GA2021+009009999GA3081+015009999GF108991999999999999999999MA1102001999999MW1001REMMET065RCBS 092200Z 03005KT 9999 FEW016 SCT030 OVC050 21/17 Q1020 A3012;EQDQ01+000000PRSWM2
0191467360999992000110923004+24430+118360FM-15+0009RCBS V0200301N004110150019N0112651N1+02101+01601999999ADDGA1021+004809999GA2021+009009999GA3081+015009999GF108991999999999999999999MA1102001999999MW1001REMMET065RCBS 092300Z 03008KT 9999 FEW016 SCT030 OVC050 21/16 Q1020 A3014;EQDQ01+000000PRSWM2
0191467360999992000111000004+24430+118360FM-15+0009RCBS V0200401N005710120019N0112651N1+02201+01601999999ADDGA1021+005409999GA2071+012009999GA3081+018009999GF108991999999999999999999MA1102101999999MW1001REMMET065RCBS 100000Z 04011KT 9999 FEW018 BKN040 OVC060 22/16 Q1021 A3016;EQDQ01+000000PRSWM2
0191467360999992000111001004+24430+118360FM-15+0009RCBS V0200401N004610135019N0112651N1+02201+01701999999ADDGA1021+006009999GA2071+013509999GA3071+021009999GF107991999999999999999999MA1102201999999MW1001REMMET065RCBS 100100Z 04009KT 9999 FEW020 BKN045 BKN070 22/17 Q1022 A3018;EQDQ01+000000PRSWM2
0191467360999992000111002004+24430+118360FM-15+0009RCBS V0200401N004610135019N0112651N1+02201+01701999999ADDGA1021+006009999GA2071+013509999GA3071+021009999GF107991999999999999999999MA1102201999999MW1001REMMET065RCBS 100200Z 04009KT 9999 FEW020 BKN045 BKN070 22/17 Q1022 A3018;EQDQ01+000000PRSWM2
0185467360999992000111003004+24430+118360FM-15+0009RCBS V0200501N005710144019N0112651N1+02401+01701999999ADDGA1021+006009999GA2021+009909999GA3071+014409999GF107991999999999999999999MA1102101999999MW1001REMMET059RCBS 100300Z 05011KT 9999 FEW020 SCT033 BKN048 24/17 Q1021;EQDQ01+000000PRSWM2
0168467360999992000111010004+24430+118360FM-15+0009RCBS V0200501N005710180019N0112651N1+02201+01601999999ADDGA1021+008409999GA2071+018009999GF107991999999999999999999MA1102001999999MW1001REMMET058RCBS 101000Z 05011KT 9999 FEW028 BKN060 22/16 Q1020 A3013;EQDQ01+000000PRSWM2
0168467360999992000111011004+24430+118360FM-15+0009RCBS V0200501N005710180019N0112651N1+02201+01601999999ADDGA1021+008409999GA2071+018009999GF107991999999999999999999MA1102001999999MW1001REMMET058RCBS 101100Z 05011KT 9999 FEW028 BKN060 22/16 Q1020 A3013;EQDQ01+000000PRSWM2
0168467360999992000111012004+24430+118360FM-15+0009RCBS V0200401N005710150019N0112651N1+02201+01601999999ADDGA1021+006609999GA2071+015009999GF107991999999999999999999MA1102101999999MW1001REMMET058RCBS 101200Z 04011KT 9999 FEW022 BKN050 22/16 Q1021 A3017;EQDQ01+000000PRSWM2
0179467360999992000111015004+24430+118360FM-15+0009RCBS V0200501N006710180019N0112651N1+02101+01601999999ADDGA1021+006009999GA2071+018009999GF107991999999999999999999MA1102201999999MW1001OC101181REMMET061RCBS 101500Z 05013G23KT 9999 FEW020 BKN060 21/16 Q1022 A3019;EQDQ01+000000PRSWM2
0179467360999992000111018004+24430+118360FM-15+0009RCBS V0200501N007710180019N0112651N1+02101+01501999999ADDGA1021+006009999GA2071+018009999GF107991999999999999999999MA1102101999999MW1001OC101341REMMET061RCBS 101800Z 05015G26KT 9999 FEW020 BKN060 21/15 Q1021 A3017;EQDQ01+000000PRSWM2
0173467360999992000111021004+24430+118360FM-15+0009RCBS V0200401N008710180019N0112651N1+02001+01501999999ADDGA1021+006009999GA2071+018009999GF107991999999999999999999MA1102131999999MW1001OC101391REMMET055RCBS 102100Z 04017G27KT 9999 FEW020 BKN060 20/15 A3016;EQDQ01+000000PRSWM2
0179467360999992000111022004+24430+118360FM-15+0009RCBS V0200401N008710180019N0112651N1+02001+01501999999ADDGA1021+006009999GA2071+018009999GF107991999999999999999999MA1102101999999MW1001OC101491REMMET061RCBS 102200Z 04017G29KT 9999 FEW020 BKN060 20/15 Q1021 A3017;EQDQ01+000000PRSWM2
0191467360999992000111100004+24430+118360FM-15+0009RCBS V0200501N007710150019N0112651N1+01901+01501999999ADDGA1021+004809999GA2021+006009999GA3071+015009999GF107991999999999999999999MA1102301999999MW1001REMMET065RCBS 110000Z 05015KT 9999 FEW016 SCT020 BKN050 19/15 Q1023 A3021;EQDQ01+000000PRSWM2
0202467360999992000111101004+24430+118360FM-15+0009RCBS V0200401N009310150019N0112651N1+02001+01401999999ADDGA1021+005409999GA2021+009909999GA3071+015009999GF107991999999999999999999MA1102301999999MW1001OC101591REMMET068RCBS 110100Z 04018G31KT 9999 FEW018 SCT033 BKN050 20/14 Q1023 A3023;EQDQ01+000000PRSWM2
0179467360999992000111105004+24430+118360FM-15+0009RCBS V0200501N006710240019N0112651N1+02101+01401999999ADDGA1021+007509999GA2071+024009999GF107991999999999999999999MA1102101999999MW1001OC101181REMMET061RCBS 110500Z 05013/23KT 9999 FEW025 BKN080 21/14 Q1021 A3016;EQDQ01+000000PRSWM2
0191467360999992000111108004+24430+118360FM-15+0009RCBS V0200501N006710240019N0112651N1+02101+01401999999ADDGA1021+007509999GA2021+012009999GA3071+024009999GF107991999999999999999999MA1101901999999MW1001REMMET065RCBS 110800Z 05013KT 9999 FEW025 SCT040 BKN080 21/14 Q1019 A3010;EQDQ01+000000PRSWM2
0191467360999992000111109004+24430+118360FM-15+0009RCBS V0200401N005710240019N0112651N1+02101+01401999999ADDGA1021+007509999GA2021+013509999GA3071+024009999GF107991999999999999999999MA1101691999999MW1001REMMET065RCBS 110900Z 04011KT 9999 FEW025 SCT045 BKN080 21/14 Q1017 A3011;EQDQ01+000000PRSWM2
0211467360999992000111205004+24430+118360FM-15+0009RCBS V0200401N005710066019N0090001N1+01901+01601999999ADDGA1021+003009999GA2071+006609999GA3081+015009999GF108991999999999999999999MA1102101999999MW1611REMMET069RCBS 120500Z 04011KT 9000 -RA SCT010 BKN022 OVC050 19/16 Q1021 A3015;EQDQ01+000003PRSWM1Q02    003PRSWM1
0210467360999992000111206004+24430+118360FM-15+0009RCBS V0200401N005110084019N0112651N1+01901+01601999999ADDGA1021+003009999GA2071+008409999GA3081+015009999GF108991999999999999999999MA1102001999999MW1511REMMET068RCBS 120600Z 04010KT 9999-DZ SCT010 BKN028 OVC050 19/16 Q1020 A3014;EQDQ01+000003PRSWM1Q02    003PRSWM1
0210467360999992000111207004+24430+118360FM-15+0009RCBS V0200601N005110084019N0112651N1+01801+01601999999ADDGA1021+003009999GA2071+008409999GA3081+015009999GF108991999999999999999999MA1101901999999MW1611REMMET068RCBS 120700Z 06010KT 9999-RA SCT010 BKN028 OVC050 18/16 Q1019 A3011;EQDQ01+000003PRSWM1Q02    003PRSWM1
0205467360999992000112114004+24430+118360FM-15+0009RCBS V0200501N005710111019N0112651N1+01701+01601999999ADDGA1021+001809999GA2021+006609999GA3071+011109999GF107991999999999999999999MA1102101999999MW1511REMMET063RCBS 211400Z 05011KT 9999 -DZ FEW006 SCT022 BKN037 17/16 Q1021;EQDQ01+000003PRSWM1Q02    003PRSWM1
0112467360999992000120607004+24430+118360FM-15+0009RCBS V0200501N00771220001CN0099001N1+02101+01301999999ADDMA1101901999999MW1001REMMET060RCBS 060700Z 05015KT 020V080 CAVOK 21/13 Q1019(A3010) NOSIG;EQDQ01+000000PRSWM2
0325467360999992000121000004+24430+118360SY-MT+0009RCBS V0203401N002612200019N0030001N1+01751+01461102101ADDAA199000091AY101061AY201061GF100991001001999999001001KA1120N+01411MA1102001101971MD1210171+9999MW1051REMSYN104AAXX  10004 46736 31930 03405 10175 20146 30197 40210 52017 70500 333 20141 555 00000 24000 10000 20990;MET067RCBS 100000Z 34005KT 290V010 3000 HZ SKC 18/15 Q1020( A3014) NOSIG;EQDQ01  00002PRCP99Q02    003PRSWM1
0254467360999992000121203004+24430+118360FM-15+0009RCBS V0200301N007710042019N0045001N1+01301+01101999999ADDGA1021+001809999GA2071+004209999GA3081+013509999GF108991999999999999999999MA1102401999999MW1611OC101341REMMET104RCBS 120300Z 03015G26KT 360V070 4500 -RA SCT006 BKN014 OVC045 13/11 Q1024(A3024) NOSIG RMK RA AMT 1.5MM;EQDQ01+000003PRSWM1Q02    003PRSWM1
0230467360999992000121310004+24430+118360FM-15+0009RCBS V0200501N003610060019N0060001N1+01301+01201999999ADDGA1021+001509999GA2071+006009999GA3071+015009999GF107991999999999999999999MW1611REMMET103RCBS 131000Z 05007KT 010V100 6000 -RA SCT005 BKN020 BKN050 13/12 . Q1019(APQQL NOSIG RMK RA AMT 1.50MM;EQDQ01+000003PRSWM1Q02    003PRSWM1
0168467360999992000121608004+24430+118360FM-15+0009RCBS V0200501N003110180019N0112651N1+02301+01401999999ADDGA1021+006009999GA2071+018009999GF107991999999999999999999MA1102001999999MW1001REMMET058RCBS 160800Z 05006KT 9999 FEW020 BKN060 23/14 Q1020 A3012;EQDQ01+000000PRSWM2
0145467360999992000123015004+24430+118360FM-15+0009RCBS V0200501N006712200019N0112651N1+01501+01001999999ADDGA1021+007509999GF102991999999999999999999MA1101801999999MW1001REMMET051RCBS 301500Z 05013KT 9999 FEW025 15/10 Q1018 A3006;EQDQ01+000000PRSWM2
0097467360999992000123107004+24430+118360FM-15+0009RCBS V0200601N00721220001CN0099001N1+01801+00801999999ADDMA1101591999999MW1001REMMET045RCBS 310700Z 06014KT CAVOK 18/08 Q1016 A3003;EQDQ01+000000PRSWM2
0132467360999992000123109294+24430+118360FM-16+0009RCBS V0200501N005112200019N0070001N1+01501+00901999999ADDGF100991999999999999999999MA1101801999999MW1001REMMET054RCBS 0929 05010KT 010V080 7000 SKC 15/09 Q1018(A3006);EQDQ01+000000PRSWM2
0187467360999992000123110004+24430+118360FM-15+0009RCBS V0200501N004112200019N9999999N1+01501+00901999999ADDGA1021+007509999GF104991999999999999999999MA1101801999999MW1001OC100931REMMET069RCBS 311000Z 05008G18KT 010V100 6000 SCT025 15/09 Q1018(A3008) NOSIG;EQDQ01+060002VODIS Q02+000000PRSWM2
0141467360999992000123116004+24430+118360FM-15+0009RCBS V0200401N004112200019N0090001N1+01301+00801999999ADDGF100991999999999999999999MA1102201999999MW1001REMMET063RCBS 311600Z 04008KT 360V100 9000 SKC 13/08 Q1022(A3018) NOSIG;EQDQ01+000000PRSWM2
0133467360999992000123121004+24430+118360FM-15+0009RCBS V0200501N006212200019N0090001N1+01101+00601999999ADDGF100991999999999999999999MA1102101999999MW1001REMMET055RCBS 312100Z 05012KT 9000 SKC 11/06 Q1021(A3015) NOSIG;EQDQ01+000000PRSWM2
