0156480770999992000010106004+18800+095220FM-12+0060VBPR V0200401N001012200019N0100001N1+02741+01331101531ADDAA106000091GA1001+999999999GF100991001001999999001001MD1999999+0031REMSYN058AAXX  01064 48077 32960 00402 10274 20133 40153 333 58003;EQDQ01  00002PRCP06
0156480770999992000010109004+18800+095220FM-12+0060VBPR V0200401N001512200019N0110001N1+03001+01241101181ADDAA106000091GA1001+999999999GF100991001001999999001001MD1999999-0061REMSYN058AAXX  01094 48077 32961 00403 10300 20124 40118 333 59006;EQDQ01  00002PRCP06
0175480770999992000010112004+18800+095220FM-12+0060VBPR V0209999C000012200019N0070001N1+02541+01501101301ADDAA106000091GA1001+999999999GF100991001001999999001001KA1120M+03001MD1999999+0031REMSYN064AAXX  01124 48077 32957 00000 10254 20150 40130 333 10300 58003;EQDQ01  00002PRCP06
0156480770999992000010203004+18800+095220FM-12+0060VBPR V0200401N002612200019N0100001N1+02251+01111101571ADDAA106000091GA1001+999999999GF100991001001999999001001MD1999999-0051REMSYN058AAXX  02034 48077 32960 00405 10225 20111 40157 333 59005;EQDQ01  00002PRCP06
0156480770999992000010206004+18800+095220FM-12+0060VBPR V0200401N001512200019N0100001N1+02701+01331101481ADDAA106000091GA1001+999999999GF100991001001999999001001MD1999999-0051REMSYN058AAXX  02064 48077 32960 00403 10270 20133 40148 333 59005;EQDQ01  00002PRCP06
0156480770999992000010209004+18800+095220FM-12+0060VBPR V0200401N001012200019N0100001N1+02951+01241101131ADDAA106000091GA1001+999999999GF100991001001999999001001MD1999999-0051REMSYN058AAXX  02094 48077 32960 00402 10295 20124 40113 333 59005;EQDQ01  00002PRCP06
0171480770999992000010300004+18800+095220FM-12+0060VBPR V0200401N001512200019N0070001N1+01741+01351101341ADDAA106000091GF102991001001999999001011KA1120N+01721MD1999999-0051REMSYN076AAXX  03004 48077 31957 20403 10174 20135 40134 80001 333 20172 56009 59005;EQDQ01  00002PRCP06
0152480770999992000010306004+18800+095220FM-12+0060VBPR V0200401N001012200019N0110001N1+02801+01461101381ADDAA106000091GF102991001001999999001011MD1999999-0101REMSYN070AAXX  03064 48077 32961 20402 10280 20146 40138 80001 333 56009 59010;EQDQ01  00002PRCP06
0184480770999992000010309004+18800+095220FM-12+0060VBPR V0200401N001012200019N0100001N1+03061+01461101041ADDAA106000091AY101031AY201031GA1001+999999999GF100991001001999999001001MD1999999-0091MW1051REMSYN064AAXX  03094 48077 31960 00402 10306 20146 40104 70500 333 59009;EQDQ01  00002PRCP06
0215480770999992000010312004+18800+095220FM-12+0060VBPR V0209999C000012200019N0080001N1+02701+01721101031ADDAA106000091AY101061AY201061GA1001+999999999GF100991001001999999001001KA1120M+03071MD1999999-0131MW1051REMSYN082AAXX  03124 48077 31558 00000 10270 20172 40103 70500 81200 333 10307 56900 59013;EQDQ01  00002PRCP06
0175480770999992000010400004+18800+095220FM-12+0060VBPR V0200401N000512200019N0080001N1+01801+01471101201ADDAA106000091GA1001+999999999GF100991001001999999001001KA1120N+01751MD1999999-0141REMSYN064AAXX  04004 48077 32958 00401 10180 20147 40120 333 20175 59014;EQDQ01  00002PRCP06
0156480770999992000010403004+18800+095220FM-12+0060VBPR V0200101N002112200019N0100001N1+02201+01561101361ADDAA106000091GA1001+999999999GF100991001001999999001001MD1999999-0081REMSYN058AAXX  04034 48077 32960 00104 10220 20156 40136 333 59008;EQDQ01  00002PRCP06
0156480770999992000010406004+18800+095220FM-12+0060VBPR V0200401N000512200019N0110001N1+02801+01591101361ADDAA106000091GA1001+999999999GF100991001001999999001001MD1999999-0041REMSYN058AAXX  04064 48077 32961 00401 10280 20159 40136 333 59004;EQDQ01  00002PRCP06
0156480770999992000010409004+18800+095220FM-12+0060VBPR V0203601N000512200019N0150001N1+03171+01631101781ADDAA106000091GA1001+999999999GF100991001001999999001001MD1999999+0041REMSYN058AAXX  04094 48077 32965 03601 10317 20163 40178 333 58004;EQDQ01  00002PRCP06
0191480770999992000010412004+18800+095220FM-12+0060VBPR V0209999C000012200019N0080001N1+02701+01731101082ADDAA106000091GA1001+999999999GF100991001001999999001001KA1120M+03181MD1999999+0051REMSYN064AAXX  04124 48077 32958 00000 10270 20173 40108 333 10318 58005;EQDQ01+101083APOSLPQ02  00002PRCP06
0175480770999992000010500004+18800+095220FM-12+0060VBPR V0200401N001012200019N0080001N1+01801+01471101311ADDAA106000091GA1001+999999999GF100991001001999999001001KA1120N+01731MD1999999+0111REMSYN064AAXX  05004 48077 32958 00402 10180 20147 40131 333 20173 58011;EQDQ01  00002PRCP06
0156480770999992000010503004+18800+095220FM-12+0060VBPR V0200401N001012200019N0100001N1+02271+01631101451ADDAA106000091GA1001+999999999GF100991001001999999001001MD1999999+0101REMSYN058AAXX  05034 48077 32960 00402 10227 20163 40145 333 58010;EQDQ01  00002PRCP06
0156480770999992000010506004+18800+095220FM-12+0060VBPR V0200401N001512200019N0100001N1+02901+01591101401ADDAA106000091GA1001+999999999GF100991001001999999001001MD1999999+0051REMSYN058AAXX  05064 48077 32960 00403 10290 20159 40140 333 58005;EQDQ01  00002PRCP06
0156480770999992000010509004+18800+095220FM-12+0060VBPR V0200401N001012200019N0090001N1+03161+01631101061ADDAA106000091GA1001+999999999GF100991001001999999001001MD1999999-0031REMSYN058AAXX  05094 48077 32959 00402 10316 20163 40106 333 59003;EQDQ01  00002PRCP06
0171480770999992000010512004+18800+095220FM-12+0060VBPR V0209999C000012200019N0080001N1+02701+01721101051ADDAA106000091GF102991001001999999001011KA1120M+03161MD1999999-0031REMSYN076AAXX  05124 48077 32958 20000 10270 20172 40105 80001 333 10316 56009 59003;EQDQ01  00002PRCP06
0156480770999992000010603004+18800+095220FM-12+0060VBPR V0203601N000512200019N0100001N1+02251+01561101381ADDAA106000091GA1001+999999999GF100991001001999999001001MD1999999-0081REMSYN058AAXX  06034 48077 32960 03601 10225 20156 40138 333 59008;EQDQ01  00002PRCP06
0152480770999992000010606004+18800+095220FM-12+0060VBPR V0203601N001012200019N0110001N1+02901+01591101281ADDAA106000091GF104991001001999999031011MD1999999-0111REMSYN070AAXX  06064 48077 32961 43602 10290 20159 40128 80031 333 56099 59011;EQDQ01  00002PRCP06
0171480770999992000010612004+18800+095220FM-12+0060VBPR V0209999C000012200019N0080001N1+02671+01721101001ADDAA106000091GF101991001001999999001011KA1120M+03221MD1999999-0051REMSYN076AAXX  06124 48077 32958 10000 10267 20172 40100 80001 333 10322 56009 59005;EQDQ01  00002PRCP06
0171480770999992000010700004+18800+095220FM-12+0060VBPR V0209999C000010450019N0060001N1+02001+01681101161ADDAA106000091GF108991041081008001071001KA1120N+01901MD1999999-0031REMSYN076AAXX  07004 48077 32556 80000 10200 20168 40116 84870 333 20190 56590 59003;EQDQ01  00002PRCP06
0152480770999992000010703004+18800+095220FM-12+0060VBPR V0200401N000510450019N0090001N1+02201+01731101311ADDAA106000091GF108991041081008001071001MD1999999-0061REMSYN070AAXX  07034 48077 32559 80401 10220 20173 40131 84870 333 56590 59006;EQDQ01  00002PRCP06
0168480770999992000010706004+18800+095220FM-12+0060VBPR V0203601N000512200019N0100001N1+02701+01921101271ADDAA106000091GF102991999081008001071001MD1999999-0011REMSYN070AAXX  07064 48077 32560 23601 10270 20192 40127 84870 333 56590 59001;EQDQ01+000042SCOTLCQ02  00002PRCP06
0152480770999992000010709004+18800+095220FM-12+0060VBPR V0209999C000010450019N0100001N1+02861+01791101081ADDAA106000091GF107991041081022501031001MD1999999+0081REMSYN070AAXX  07094 48077 32860 70000 10286 20179 40108 84830 333 56590 58008;EQDQ01  00002PRCP06
0171480770999992000010712004+18800+095220FM-12+0060VBPR V0209999C000010450019N0060001N1+02701+01911101071ADDAA106000091GF106991031081008001031011KA1120M+03301MD1999999-0071REMSYN076AAXX  07124 48077 32556 60000 10270 20191 40107 83831 333 10330 56999 59007;EQDQ01  00002PRCP06
0171480770999992000010800004+18800+095220FM-12+0060VBPR V0200401N001012200019N0080001N1+01701+01351101251ADDAA106000091GF102991001001999999001011KA1120N+01661MD1999999+0091REMSYN076AAXX  08004 48077 32958 20402 10170 20135 40125 80001 333 20166 56009 58009;EQDQ01  00002PRCP06
0168480770999992000010803004+18800+095220FM-12+0060VBPR V0203601N000512200019N0100001N1+02201+01961101391ADDAA106000091GF102991999081999999001001MD1999999+0081REMSYN070AAXX  08034 48077 32960 23601 10220 20196 40139 83800 333 56090 58008;EQDQ01+000032SCOTLCQ02  00002PRCP06
0152480770999992000010806004+18800+095220FM-12+0060VBPR V0209999C000019999999N0110001N1+02901+01591101341ADDAA106000091GF105991001001999999031011MD1999999+0061REMSYN070AAXX  08064 48077 32961 50000 10290 20159 40134 80031 333 56099 58006;EQDQ01  00002PRCP06
0171480770999992000010812004+18800+095220FM-12+0060VBPR V0209999C000012200019N0070001N1+02621+01601101031ADDAA106000091GF101991001001999999001011KA1120M+03161MD1999999-0041REMSYN076AAXX  08124 48077 32957 10000 10262 20160 40103 80001 333 10316 56009 59004;EQDQ01  00002PRCP06
0187480770999992000010900004+18800+095220FM-12+0060VBPR V0200401N001012200019N0070001N1+01631+01441101201ADDAA106000091GF102991999001999999031001KA1120N+01601MD1999999-0051REMSYN076AAXX  09004 48077 32957 20402 10163 20144 40120 80030 333 20160 56090 59005;EQDQ01+000002SCOTLCQ02  00002PRCP06
0152480770999992000010909004+18800+095220FM-12+0060VBPR V0209999C000012200019N0110001N1+03101+00681101011ADDAA106000091GF103991001001999999031011MD1999999-0031REMSYN070AAXX  09094 48077 32961 30000 10310 20068 40101 80031 333 56090 59003;EQDQ01  00002PRCP06
0187480770999992000010912004+18800+095220FM-12+0060VBPR V0209999C000012200019N0080001N1+02711+01331101011ADDAA106000091GF102991999001999999031001KA1120M+03201MD1999999-0021REMSYN076AAXX  09124 48077 32958 20000 10271 20133 40101 80030 333 10320 56090 59002;EQDQ01+000002SCOTLCQ02  00002PRCP06
0175480770999992000011000004+18800+095220FM-12+0060VBPR V0209999C000012200019N0060001N1+01401+01241101181ADDAA106000091GA1001+999999999GF100991001001999999001001KA1120N+01381MD1999999-0021REMSYN064AAXX  10004 48077 32956 00000 10140 20124 40118 333 20138 59002;EQDQ01  00002PRCP06
0140480770999992000011003004+18800+095220FM-12+0060VBPR V0203601N001012200019N0100001N1+02001+01301101321ADDAA106000091GF102991999999999999999999MD1999999-0131REMSYN058AAXX  10034 48077 32960 23602 10200 20130 40132 333 59013;EQDQ01  00002PRCP06
0156480770999992000011006004+18800+095220FM-12+0060VBPR V0200401N001012200019N0001001N1+02501+00981101271ADDAA106000091GA1001+999999999GF100991001001999999001001MD1999999+0041REMSYN058AAXX  10064 48077 32901 00402 10250 20098 40127 333 58004;EQDQ01  00002PRCP06
0156480770999992000011009004+18800+095220FM-12+0060VBPR V0209999C000012200019N0110001N1+03301+00761101001ADDAA106000091GA1001+999999999GF100991001001999999001001MD1999999-0011REMSYN058AAXX  10094 48077 32961 00000 10330 20076 40100 333 59001;EQDQ01  00002PRCP06
0175480770999992000011100004+18800+095220FM-12+0060VBPR V0209999C000012200019N0060001N1+01411+01241101221ADDAA106000091GA1001+999999999GF100991001001999999001001KA1120N+01391MD1999999+0041REMSYN064AAXX  11004 48077 32956 00000 10141 20124 40122 333 20139 58004;EQDQ01  00002PRCP06
0156480770999992000011103004+18800+095220FM-12+0060VBPR V0200401N001012200019N0100001N1+02001+01301101431ADDAA106000091GA1001+999999999GF100991001001999999001001MD1999999+0101REMSYN058AAXX  11034 48077 32960 00402 10200 20130 40143 333 58010;EQDQ01  00002PRCP06
0156480770999992000011106004+18800+095220FM-12+0060VBPR V0203601N000512200019N0110001N1+02901+01591101321ADDAA106000091GA1001+999999999GF100991001001999999001001MD1999999+0041REMSYN058AAXX  11064 48077 32961 03601 10290 20159 40132 333 58004;EQDQ01  00002PRCP06
0175480770999992000011112004+18800+095220FM-12+0060VBPR V0209999C000012200019N0080001N1+02701+01721101021ADDAA106000091GA1001+999999999GF100991001001999999001001KA1120M+03281MD1999999-0061REMSYN064AAXX  11124 48077 32958 00000 10270 20172 40102 333 10328 59006;EQDQ01  00002PRCP06
0175480770999992000011200004+18800+095220FM-12+0060VBPR V0209999C000012200019N0060001N1+01721+01541101201ADDAA106000091GA1001+999999999GF100991001001999999001001KA1120N+01701MD1999999-0021REMSYN064AAXX  12004 48077 32956 00000 10172 20154 40120 333 20170 59002;EQDQ01  00002PRCP06
0156480770999992000011203004+18800+095220FM-12+0060VBPR V0203601N000512200019N0100001N1+02101+01601101411ADDAA106000091GA1001+999999999GF100991001001999999001001MD1999999-0011REMSYN058AAXX  12034 48077 32960 03601 10210 20160 40141 333 59001;EQDQ01  00002PRCP06
0156480770999992000011206004+18800+095220FM-12+0060VBPR V0202301N000512200019N0110001N1+02901+01791101321ADDAA106000091GA1001+999999999GF100991001001999999001001MD1999999+0001REMSYN058AAXX  12064 48077 32961 02301 10290 20179 40132 333 58000;EQDQ01  00002PRCP06
0156480770999992000011209004+18800+095220FM-12+0060VBPR V0209999C000012200019N0110001N1+03361+01641101001ADDAA106000091GA1001+999999999GF100991001001999999001001MD1999999-0051REMSYN058AAXX  12094 48077 32961 00000 10336 20164 40100 333 59005;EQDQ01  00002PRCP06
0175480770999992000011212004+18800+095220FM-12+0060VBPR V0209999C000012200019N0080001N1+02801+01841101121ADDAA106000091GA1001+999999999GF100991001001999999001001KA1120M+03361MD1999999+0111REMSYN064AAXX  12124 48077 32958 00000 10280 20184 40112 333 10336 58011;EQDQ01  00002PRCP06
0175480770999992000011300004+18800+095220FM-12+0060VBPR V0200401N000512200019N0080001N1+01701+01541101111ADDAA106000091GA1001+999999999GF100991001001999999001001KA1120N+01671MD1999999-0101REMSYN064AAXX  13004 48077 32958 00401 10170 20154 40111 333 20167 59010;EQDQ01  00002PRCP06
0156480770999992000011303004+18800+095220FM-12+0060VBPR V0200401N001012200019N0100001N1+02101+01601101261ADDAA106000091GA1001+999999999GF100991001001999999001001MD1999999-0161REMSYN058AAXX  13034 48077 32960 00402 10210 20160 40126 333 59016;EQDQ01  00002PRCP06
0156480770999992000011306004+18800+095220FM-12+0060VBPR V0203601N000512200019N0110001N1+03001+01661101191ADDAA106000091GA1001+999999999GF100991001001999999001001MD1999999-0121REMSYN058AAXX  13064 48077 32961 03601 10300 20166 40119 333 59012;EQDQ01  00002PRCP06
0156480770999992000011309004+18800+095220FM-12+0060VBPR V0209999C000012200019N0100001N1+03401+01841100941ADDAA106000091GA1001+999999999GF100991001001999999001001MD1999999-0061REMSYN058AAXX  13094 48077 32960 00000 10340 20184 40094 333 59006;EQDQ01  00002PRCP06
0175480770999992000011312004+18800+095220FM-12+0060VBPR V0209999C000012200019N0070001N1+02841+01581100901ADDAA106000091GA1001+999999999GF100991001001999999001001KA1120M+03401MD1999999-0221REMSYN064AAXX  13124 48077 32957 00000 10284 20158 40090 333 10340 59022;EQDQ01  00002PRCP06
0179480770999992000011400004+18800+095220FM-12+006099999V0209999C000012200019N0060001N1+01661+01541101061ADDAA199000091GA1001+999999999GF100991001001999999001001KA1120N+01621MD1999999-0051REMSYN068    AAXX  14004 48077 32956 00000 10166 20154 40106 333 20162 59005;EQDQ01  00002PRCP99
0160480770999992000011403004+18800+095220FM-12+006099999V0200401N000512200019N0100001N1+02101+01601101161ADDAA199000091GA1001+999999999GF100991001001999999001001MD1999999-0101REMSYN062    AAXX  14034 48077 32960 00401 10210 20160 40116 333 59010;EQDQ01  00002PRCP99
0160480770999992000011406004+18800+095220FM-12+006099999V0209999C000012200019N0110001N1+02801+01461101141ADDAA199000091GA1001+999999999GF100991001001999999001001MD1999999-0041REMSYN062    AAXX  14064 48077 32961 00000 10280 20146 40114 333 59004;EQDQ01  00002PRCP99
0179480770999992000011412004+18800+095220FM-12+006099999V0209999C000012200019N0080001N1+02851+01461100841ADDAA199000091GA1001+999999999GF100991001001999999001001KA1120M+03301MD1999999-0061REMSYN068    AAXX  14124 48077 32958 00000 10285 20146 40084 333 10330 59006;EQDQ01  00002PRCP99
0207480770999992000011500004+18800+095220FM-12+006099999V0209999C000012200019N0050001N1+01621+01441101081ADDAA199000091AY101061AY201061GA1001+999999999GF100991001001999999001001KA1120N+01591MD1999999+0021MW1101REMSYN074    AAXX  15004 48077 31950 00000 10162 20144 40108 71000 333 20159 58002;EQDQ01  00002PRCP99
0160480770999992000011503004+18800+095220FM-12+006099999V0209999C000012200019N0100001N1+02201+01561101281ADDAA199000091GA1001+999999999GF100991001001999999001001MD1999999+0121REMSYN062    AAXX  15034 48077 32960 00000 10220 20156 40128 333 58012;EQDQ01  00002PRCP99
0160480770999992000011506004+18800+095220FM-12+006099999V0203601N000512200019N0110001N1+02941+01591101191ADDAA199000091GA1001+999999999GF100991001001999999001001MD1999999+0041REMSYN062    AAXX  15064 48077 32961 03601 10294 20159 40119 333 58004;EQDQ01  00002PRCP99
0160480770999992000011509004+18800+095220FM-12+006099999V0209999C000012200019N0110001N1+03401+01251100951ADDAA199000091GA1001+999999999GF100991001001999999001001MD1999999+0111REMSYN062    AAXX  15094 48077 32961 00000 10340 20125 40095 333 58011;EQDQ01  00002PRCP99
0179480770999992000011512004+18800+095220FM-12+006099999V0209999C000012200019N0070001N1+02861+01591100931ADDAA199000091GA1001+999999999GF100991001001999999001001KA1120M+03401MD1999999+0091REMSYN068    AAXX  15124 48077 32957 00000 10286 20159 40093 333 10340 58009;EQDQ01  00002PRCP99
0179480770999992000011600004+18800+095220FM-12+006099999V0200401N000512200019N0060001N1+01601+01441101281ADDAA199000091GA1001+999999999GF100991001001999999001001KA1120N+01551MD1999999+0201REMSYN068    AAXX  16004 48077 32956 00401 10160 20144 40128 333 20155 58020;EQDQ01  00002PRCP99
0160480770999992000011609004+18800+095220FM-12+006099999V0200401N000512200019N0110001N1+03431+01451101131ADDAA199000091GA1001+999999999GF100991001001999999001001MD1999999+0181REMSYN062    AAXX  16094 48077 32961 00401 10343 20145 40113 333 58018;EQDQ01  00002PRCP99
0179480770999992000011612004+18800+095220FM-12+006099999V0209999C000012200019N0060001N1+02751+01461101051ADDAA199000091GA1001+999999999GF100991001001999999001001KA1120M+03431MD1999999+0121REMSYN068    AAXX  16124 48077 32956 00000 10275 20146 40105 333 10343 58012;EQDQ01  00002PRCP99
0179480770999992000011700004+18800+095220FM-12+006099999V0200401N000512200019N0060001N1+01771+01471101261ADDAA199000091GA1001+999999999GF100991001001999999001001KA1120N+01741MD1999999-0021REMSYN068    AAXX  17004 48077 32956 00401 10177 20147 40126 333 20174 59002;EQDQ01  00002PRCP99
0160480770999992000011703004+18800+095220FM-12+006099999V0200401N000512200019N0100001N1+02201+01561101421ADDAA199000091GA1001+999999999GF100991001001999999001001MD1999999-0121REMSYN062    AAXX  17034 48077 32960 00401 10220 20156 40142 333 59012;EQDQ01  00002PRCP99
0160480770999992000011706004+18800+095220FM-12+006099999V0209999C000012200019N0110001N1+03101+01691101351ADDAA199000091GA1001+999999999GF100991001001999999001001MD1999999+0021REMSYN062    AAXX  17064 48077 32961 00000 10310 20169 40135 333 58002;EQDQ01  00002PRCP99
0160480770999992000011709004+18800+095220FM-12+006099999V0200401N000512200019N0110001N1+03501+01581101041ADDAA199000091GA1001+999999999GF100991001001999999001001MD1999999-0081REMSYN062    AAXX  17094 48077 32961 00401 10350 20158 40104 333 59008;EQDQ01  00002PRCP99
0179480770999992000011712004+18800+095220FM-12+006099999V0209999C000012200019N0070001N1+02901+01791101031ADDAA199000091GA1001+999999999GF100991001001999999001001KA1120M+03501MD1999999-0021REMSYN068    AAXX  17124 48077 32957 00000 10290 20179 40103 333 10350 59002;EQDQ01  00002PRCP99
0179480770999992000011800004+18800+095220FM-12+006099999V0209999C000012200019N0060001N1+01671+01541101281ADDAA199000091GA1001+999999999GF100991001001999999001001KA1120N+01611MD1999999+0011REMSYN068    AAXX  18004 48077 32956 00000 10167 20154 40128 333 20161 58001;EQDQ01  00002PRCP99
0160480770999992000011803004+18800+095220FM-12+006099999V0200401N001012200019N0100001N1+02201+01561101431ADDAA199000091GA1001+999999999GF100991001001999999001001MD1999999+0011REMSYN062    AAXX  18034 48077 32960 00402 10220 20156 40143 333 58001;EQDQ01  00002PRCP99
0160480770999992000011806004+18800+095220FM-12+006099999V0200401N000512200019N0110001N1+03001+01661101331ADDAA199000091GA1001+999999999GF100991001001999999001001MD1999999-0021REMSYN062    AAXX  18064 48077 31961 00401 10300 20166 40133 333 59002;EQDQ01  00002PRCP99
0160480770999992000011809004+18800+095220FM-12+006099999V0209999C000012200019N0110001N1+03301+01261101041ADDAA199000091GA1001+999999999GF100991001001999999001001MD1999999-0011REMSYN062    AAXX  18094 48077 32961 00000 10330 20126 40104 333 59001;EQDQ01  00002PRCP99
0195480770999992000011812004+18800+095220FM-12+006099999V0209999C000012200019N0080001N1+01872+01791101001ADDAA199000091GA1001+999999999GF100991001001999999001001KA1120M+03401MD1999999-0031REMSYN068    AAXX  18124 48077 32958 00000 10187 20179 40100 333 10340 59003;EQDQ01+001873ATOT  Q02  00002PRCP99
0207480770999992000011900004+18800+095220FM-12+006099999V0209999C000012200019N0050001N1+01701+01351101211ADDAA199000091AY101061AY201061GA1001+999999999GF100991001001999999001001KA1120N+01661MD1999999-0071MW1101REMSYN074    AAXX  19004 48077 31950 00000 10170 20135 40121 71000 333 20166 59007;EQDQ01  00002PRCP99
0160480770999992000011903004+18800+095220FM-12+006099999V0203601N001012200019N0090001N1+02201+01561101361ADDAA199000091GA1001+999999999GF100991001001999999001001MD1999999-0071REMSYN062    AAXX  19034 48077 32959 03602 10220 20156 40136 333 59007;EQDQ01  00002PRCP99
0188480770999992000011909004+18800+095220FM-12+006099999V0209999C000012200019N0070001N1+03201+01401100961ADDAA199000091AY101031AY201031GA1001+999999999GF100991001001999999001001MD1999999-0021MW1051REMSYN068    AAXX  19094 48077 31957 00000 10320 20140 40096 70500 333 59002;EQDQ01  00002PRCP99
0207480770999992000011912004+18800+095220FM-12+006099999V0209999C000012200019N0060001N1+02701+01541100921ADDAA199000091AY101061AY201061GA1001+999999999GF100991001001999999001001KA1120M+03201MD1999999-0081MW1051REMSYN074    AAXX  19124 48077 31956 00000 10270 20154 40092 70500 333 10320 59008;EQDQ01  00002PRCP99
0156480770999992000012003004+18800+095220FM-12+0060VBPR V0202301N000512200019N0060001N1+02101+01431101231ADDAA199000091GA1001+999999999GF100991001001999999001001MD1999999-0131REMSYN058AAXX  20034 48077 32956 02301 10210 20143 40123 333 59013;EQDQ01  00002PRCP99
0156480770999992000012006004+18800+095220FM-12+0060VBPR V0202301N001012200019N0100001N1+02801+00981101161ADDAA199000091GA1001+999999999GF100991001001999999001001MD1999999-0131REMSYN058AAXX  20064 48077 32960 02302 10280 20098 40116 333 59013;EQDQ01  00002PRCP99
0156480770999992000012009004+18800+095220FM-12+0060VBPR V0201301N001012200019N0110001N1+03201+00891100941ADDAA199000091GA1001+999999999GF100991001001999999001001MD1999999-0021REMSYN058AAXX  20094 48077 32961 01302 10320 20089 40094 333 59002;EQDQ01  00002PRCP99
0175480770999992000012012004+18800+095220FM-12+0060VBPR V0209999C000012200019N0080001N1+02801+01261100921ADDAA199000091GA1001+999999999GF100991001001999999001001KA1120M+03201MD1999999+0011REMSYN064AAXX  20124 48077 32958 00000 10280 20126 40092 333 10320 58001;EQDQ01  00002PRCP99
0203480770999992000012100004+18800+095220FM-12+0060VBPR V0209999C000012200019N0050001N1+01541+01341101361ADDAA199000091AY101061AY201061GA1001+999999999GF100991001001999999001001KA1120N+01501MD1999999+0221MW1101REMSYN070AAXX  21004 48077 31950 00000 10154 20134 40136 71000 333 20150 58022;EQDQ01  00002PRCP99
0184480770999992000012103004+18800+095220FM-12+0060VBPR V0202301N000512200019N0090001N1+01951+01501101481ADDAA199000091AY101031AY201031GA1001+999999999GF100991001001999999001001MD1999999+0251MW1101REMSYN064AAXX  21034 48077 31959 02301 10195 20150 40148 71000 333 58025;EQDQ01  00002PRCP99
0184480770999992000012106004+18800+095220FM-12+0060VBPR V0209999C000012200019N0100001N1+02801+01461101481ADDAA199000091AY101061AY201061GA1001+999999999GF100991001001999999001001MD1999999+0361MW1051REMSYN064AAXX  21064 48077 31960 00000 10280 20146 40148 70500 333 58036;EQDQ01  00002PRCP99
0184480770999992000012109004+18800+095220FM-12+0060VBPR V0202701N000512200019N0090001N1+03241+01161101261ADDAA199000091AY101031AY201031GA1001+999999999GF100991001001999999001001MD1999999+0321MW1051REMSYN064AAXX  21094 48077 31959 02701 10324 20116 40126 70500 333 58032;EQDQ01  00002PRCP99
0203480770999992000012112004+18800+095220FM-12+0060VBPR V0209999C000012200019N0060001N1+02861+01401101251ADDAA199000091AY101061AY201061GA1001+999999999GF100991001001999999001001KA1120M+03241MD1999999+0321MW1051REMSYN070AAXX  21124 48077 31956 00000 10286 20140 40125 70500 333 10324 58032;EQDQ01  00002PRCP99
0203480770999992000012200004+18800+095220FM-12+0060VBPR V0209999C000012200019N0050001N1+01411+01241101431ADDAA199000091AY101061AY201061GA1001+999999999GF100991001001999999001001KA1120N+01401MD1999999+0071MW1101REMSYN070AAXX  22004 48077 31950 00000 10141 20124 40143 71000 333 20140 58007;EQDQ01  00002PRCP99
0184480770999992000012203004+18800+095220FM-12+0060VBPR V0209999C000012200019N0070001N1+02001+01501101571ADDAA199000091AY101031AY201031GA1001+999999999GF100991001001999999001001MD1999999+0091MW1051REMSYN064AAXX  22034 48077 31957 00000 10200 20150 40157 70500 333 58009;EQDQ01  00002PRCP99
0156480770999992000012206004+18800+095220FM-12+0060VBPR V0200401N000512200019N0110001N1+02901+01151101461ADDAA199000091GA1001+999999999GF100991001001999999001001MD1999999+0001REMSYN058AAXX  22064 48077 32961 00401 10290 20115 40146 333 59000;EQDQ01  00002PRCP99
0156480770999992000012209004+18800+095220FM-12+0060VBPR V0209999C000012200019N0110001N1+03341+01251101201ADDAA199000091GA1001+999999999GF100991001001999999001001MD1999999-0051REMSYN058AAXX  22094 48077 32961 00000 10334 20125 40120 333 59005;EQDQ01  00002PRCP99
0203480770999992000012212004+18800+095220FM-12+0060VBPR V0209999C000012200019N0070001N1+02821+01461101181ADDAA199000091AY101061AY201061GA1001+999999999GF100991001001999999001001KA1120M+03341MD1999999-0061MW1051REMSYN070AAXX  22124 48077 31957 00000 10282 20146 40118 70500 333 10334 59006;EQDQ01  00002PRCP99
0203480770999992000012300004+18800+095220FM-12+0060VBPR V0209999C000012200019N0050001N1+01521+01341101361ADDAA199000091AY101061AY201061GA1001+999999999GF100991001001999999001001KA1120N+01501MD1999999-0061MW1101REMSYN070AAXX  23004 48077 31950 00000 10152 20134 40136 71000 333 20150 59006;EQDQ01  00002PRCP99
0156480770999992000012303004+18800+095220FM-12+0060VBPR V0203601N000512200019N0100001N1+02001+01501101571ADDAA199000091GA1001+999999999GF100991001001999999001001MD1999999+0001REMSYN058AAXX  23034 48077 32960 03601 10200 20150 40157 333 58000;EQDQ01  00002PRCP99
0156480770999992000012306004+18800+095220FM-12+0060VBPR V0200401N000512200019N0110001N1+02901+01151101431ADDAA199000091GA1001+999999999GF100991001001999999001001MD1999999-0041REMSYN058AAXX  23064 48077 32961 00401 10290 20115 40143 333 59004;EQDQ01  00002PRCP99
0156480770999992000012309004+18800+095220FM-12+0060VBPR V0200401N000512200019N0110001N1+03401+00631101181ADDAA199000091GA1001+999999999GF100991001001999999001001MD1999999-0031REMSYN058AAXX  23094 48077 32961 00401 10340 20063 40118 333 59003;EQDQ01  00002PRCP99
0203480770999992000012312004+18800+095220FM-12+0060VBPR V0209999C000012200019N0070001N1+02901+01401101181ADDAA199000091AY101061AY201061GA1001+999999999GF100991001001999999001001KA1120M+03401MD1999999-0011MW1051REMSYN070AAXX  23124 48077 31957 00000 10290 20140 40118 70500 333 10340 59001;EQDQ01  00002PRCP99
0203480770999992000012400004+18800+095220FM-12+0060VBPR V0209999C000012200019N0060001N1+01581+01231101421ADDAA199000091AY101061AY201061GA1001+999999999GF100991001001999999001001KA1120N+01531MD1999999+0031MW1101REMSYN070AAXX  24004 48077 31956 00000 10158 20123 40142 71000 333 20153 58003;EQDQ01  00002PRCP99
0184480770999992000012403004+18800+095220FM-12+0060VBPR V0209999C000012200019N0090001N1+02001+01301101591ADDAA199000091AY101031AY201031GA1001+999999999GF100991001001999999001001MD1999999-0021MW1051REMSYN064AAXX  24034 48077 31959 00000 10200 20130 40159 70500 333 59002;EQDQ01  00002PRCP99
0184480770999992000012406004+18800+095220FM-12+0060VBPR V0209999C000012200019N0100001N1+02901+01561101541ADDAA199000091AY101061AY201061GA1001+999999999GF100991001001999999001001MD1999999+0111MW1051REMSYN064AAXX  24064 48077 31960 00000 10290 20156 40154 70500 333 58011;EQDQ01  00002PRCP99
0184480770999992000012409004+18800+095220FM-12+0060VBPR V0209999C000012200019N0100001N1+03271+01261101291ADDAA199000091AY101031AY201031GA1001+999999999GF100991001001999999001001MD1999999+0121MW1051REMSYN064AAXX  24094 48077 31960 00000 10327 20126 40129 70500 333 58012;EQDQ01  00002PRCP99
0203480770999992000012412004+18800+095220FM-12+0060VBPR V0209999C000012200019N0070001N1+02771+01461101181ADDAA199000091AY101061AY201061GA1001+999999999GF100991001001999999001001KA1120M+03301MD1999999+0001MW1051REMSYN070AAXX  24124 48077 31957 00000 10277 20146 40118 70500 333 10330 58000;EQDQ01  00002PRCP99
0175480770999992000012500004+18800+095220FM-12+0060VBPR V0200401N000512200019N0070001N1+01901+01391101471ADDAA199000091GA1001+999999999GF100991001001999999001001KA1120N+01741MD1999999+0051REMSYN064AAXX  25004 48077 32957 00401 10190 20139 40147 333 20174 58005;EQDQ01  00002PRCP99
0156480770999992000012503004+18800+095220FM-12+0060VBPR V0200401N001012200019N0100001N1+02271+01631101711ADDAA199000091GA1001+999999999GF100991001001999999001001MD1999999+0111REMSYN058AAXX  25034 48077 32960 00402 10227 20163 40171 333 58011;EQDQ01  00002PRCP99
0184480770999992000012506004+18800+095220FM-12+0060VBPR V0203601N001012200019N0100001N1+02851+01681101621ADDAA199000091AY101061AY201061GA1001+999999999GF100991001001999999001001MD1999999+0071MW1051REMSYN064AAXX  25064 48077 31960 03602 10285 20168 40162 70500 333 58007;EQDQ01  00002PRCP99
0184480770999992000012509004+18800+095220FM-12+0060VBPR V0200401N000512200019N0090001N1+03201+01631101371ADDAA199000091AY101031AY201031GA1001+999999999GF100991001001999999001001MD1999999+0081MW1051REMSYN064AAXX  25094 48077 31959 00401 10320 20163 40137 70500 333 58008;EQDQ01  00002PRCP99
0215480770999992000012512004+18800+095220FM-12+0060VBPR V0209999C000012200019N0060001N1+02701+02541101301ADDAA199000091AY101061AY201061GF101991999001999999031001KA1120M+03201MD1999999+0131MW1051REMSYN082AAXX  25124 48077 31956 10000 10270 20254 40130 70500 80030 333 10320 56099 58013;EQDQ01+000002SCOTLCQ02  00002PRCP99
0158480770999992000012600004+18800+095220FM-12+0060VBPR V0200401N000512200019N0060001N1+01861+01591101581ADDAA199000091GF102991001001999999001011MD1999999+0121REMSYN076AAXX  26004 48077 32956 20401 10186 20159 40158 80001 333 20/// 56009 58012;EQDQ01  00002PRCP99
0156480770999992000012603004+18800+095220FM-12+0060VBPR V0200401N000512200019N0100001N1+02361+01551101731ADDAA199000091GA1001+999999999GF100991001001999999001001MD1999999+0021REMSYN058AAXX  26034 48077 32960 00401 10236 20155 40173 333 58002;EQDQ01  00002PRCP99
0180480770999992000012606004+18800+095220FM-12+0060VBPR V0200401N001012200019N0110001N1+02941+01591101581ADDAA199000091AY101061AY201061GF101991001001999999001011MD1999999-0031MW1051REMSYN076AAXX  26064 48077 31961 10402 10294 20159 40158 70500 80001 333 56009 59003;EQDQ01  00002PRCP99
0184480770999992000012609004+18800+095220FM-12+0060VBPR V0209999C000012200019N0110001N1+03201+01631101351ADDAA199000091AY101031AY201031GA1001+999999999GF100991001001999999001001MD1999999+0041MW1051REMSYN064AAXX  26094 48077 31961 00000 10320 20163 40135 70500 333 58004;EQDQ01  00002PRCP99
0171480770999992000012700004+18800+095220FM-12+0060VBPR V0200401N000519999999N0070001N1+01901+01591101471ADDAA199000091GF108991001001999999031011KA1120N+01871MD1999999-0121REMSYN076AAXX  27004 48077 32957 80401 10190 20159 40147 80031 333 20187 56099 59012;EQDQ01  00002PRCP99
0152480770999992000012703004+18800+095220FM-12+0060VBPR V0203601N001012200019N0100001N1+02301+01431101651ADDAA199000091GF102991001001999999001011MD1999999+0081REMSYN070AAXX  27034 48077 32960 23602 10230 20143 40165 80001 333 56009 58008;EQDQ01  00002PRCP99
0156480770999992000012706004+18800+095220FM-12+0060VBPR V0200401N000512200019N0110001N1+02951+01661101521ADDAA199000091GA1001+999999999GF100991001001999999001001MD1999999-0061REMSYN058AAXX  27064 48077 32961 00401 10295 20166 40152 333 59006;EQDQ01  00002PRCP99
0184480770999992000012709004+18800+095220FM-12+0060VBPR V0209999C000012200019N0090001N1+03361+01641101241ADDAA199000091AY101031AY201031GA1001+999999999GF100991001001999999001001MD1999999-0111MW1051REMSYN064AAXX  27094 48077 31959 00000 10336 20164 40124 70500 333 59011;EQDQ01  00002PRCP99
0215480770999992000012712004+18800+095220FM-12+0060VBPR V0209999C000012200019N0080001N1+02901+01591101251ADDAA199000091AY101061AY201061GF102991999081999999001001KA1120M+03361MD1999999-0051MW1051REMSYN082AAXX  27124 48077 31958 20000 10290 20159 40125 70500 83800 333 10336 56900 59005;EQDQ01+000032SCOTLCQ02  00002PRCP99
0175480770999992000012800004+18800+095220FM-12+0060VBPR V0209999C000012200019N0060001N1+01901+01591101411ADDAA199000091GA1001+999999999GF100991001001999999001001KA1120N+01871MD1999999-0061REMSYN064AAXX  28004 48077 32956 00000 10190 20159 40141 333 20187 59006;EQDQ01  00002PRCP99
0156480770999992000012803004+18800+095220FM-12+0060VBPR V0200401N000512200019N0100001N1+02201+01761101651ADDAA199000091GA1001+999999999GF100991001001999999001001MD1999999+0001REMSYN058AAXX  28034 48077 32960 00401 10220 20176 40165 333 58000;EQDQ01  00002PRCP99
0152480770999992000012806004+18800+095220FM-12+0060VBPR V0209999C000012200019N0110001N1+02901+01591101531ADDAA199000091GF103991011021008001031001MD1999999+0011REMSYN070AAXX  28064 48077 32561 30000 10290 20159 40153 81230 333 56990 58001;EQDQ01  00002PRCP99
0152480770999992000012809004+18800+095220FM-12+0060VBPR V0202301N000512200019N0110001N1+03371+01451101121ADDAA199000091GF102991021081008001001001MD1999999-0121REMSYN070AAXX  28094 48077 32561 22301 10337 20145 40112 82800 333 56900 59012;EQDQ01  00002PRCP99
0171480770999992000012812004+18800+095220FM-12+0060VBPR V0203201N001012200019N0070001N1+02801+01461101181ADDAA199000091GF102991021081008001001001KA1120M+03371MD1999999-0071REMSYN076AAXX  28124 48077 32557 23202 10280 20146 40118 82800 333 10337 56900 59007;EQDQ01  00002PRCP99
0184480770999992000012903004+18800+095220FM-12+0060VBPR V0203601N001012200019N0070001N1+02171+01731101611ADDAA199000091AY101031AY201031GA1001+999999999GF100991001001999999001001MD1999999-0041MW1051REMSYN064AAXX  29034 48077 31957 03602 10217 20173 40161 70500 333 59004;EQDQ01  00002PRCP99
0184480770999992000012906004+18800+095220FM-12+0060VBPR V0203601N000512200019N0090001N1+03001+01661101491ADDAA199000091AY101061AY201061GA1001+999999999GF100991001001999999001001MD1999999-0041MW1051REMSYN064AAXX  29064 48077 31959 03601 10300 20166 40149 70500 333 59004;EQDQ01  00002PRCP99
0180480770999992000012909004+18800+095220FM-12+0060VBPR V0202301N002612200019N0090001N1+03141+01461101241ADDAA199000091AY101031AY201031GF104991041081008001001001MD1999999+0121MW1051REMSYN076AAXX  29094 48077 31559 42305 10314 20146 40124 70500 84800 333 56600 58012;EQDQ01  00002PRCP99
0199480770999992000012912004+18800+095220FM-12+0060VBPR V0202701N002610120019N0070001N1+02921+01401101201ADDAA199000091AY121061AY221061GF105991051081008001001001KA1120M+03211MD1999999+0021MW1051REMSYN082AAXX  29124 48077 31557 52705 10292 20140 40120 70522 85800 333 10321 56600 58002;EQDQ01  00002PRCP99
0187480770999992000013000004+18800+095220FM-12+0060VBPR V0209999C000012200019N0060001N1+01801+01551101591ADDAA199000091GF101991999001999999031001KA1120N+01751MD1999999+0181REMSYN076AAXX  30004 48077 32956 10000 10180 20155 40159 80030 333 20175 56090 58018;EQDQ01+000002SCOTLCQ02  00002PRCP99
0168480770999992000013003004+18800+095220FM-12+0060VBPR V0203601N002112200019N0100001N1+02101+01201101811ADDAA199000091GF102991999001999999031001MD1999999+0211REMSYN070AAXX  30034 48077 32960 23604 10210 20120 40181 80030 333 56090 58021;EQDQ01+000002SCOTLCQ02  00002PRCP99
0156480770999992000013009004+18800+095220FM-12+0060VBPR V0209999C000012200019N0110001N1+03001+01241101441ADDAA199000091GA1001+999999999GF100991001001999999001001MD1999999+0201REMSYN058AAXX  30094 48077 32961 00000 10300 20124 40144 333 58020;EQDQ01  00002PRCP99
0175480770999992000013100004+18800+095220FM-12+0060VBPR V0200401N002612200019N0070001N1+01811+01291101701ADDAA199000091GA1001+999999999GF100991001001999999001001KA1120N+01771MD1999999+0111REMSYN064AAXX  31004 48077 32957 00405 10181 20129 40170 333 20177 58011;EQDQ01  00002PRCP99
0156480770999992000013103004+18800+095220FM-12+0060VBPR V0200401N001012200019N0100001N1+02101+01431101861ADDAA199000091GA1001+999999999GF100991001001999999001001MD1999999+0041REMSYN058AAXX  31034 48077 32960 00402 10210 20143 40186 333 58004;EQDQ01  00002PRCP99
0156480770999992000013106004+18800+095220FM-12+0060VBPR V0200401N000512200019N0110001N1+02701+01331101741ADDAA199000091GA1001+999999999GF100991001001999999001001MD1999999+0081REMSYN058AAXX  31064 48077 32961 00401 10270 20133 40174 333 58008;EQDQ01  00002PRCP99
0184480770999992000013109004+18800+095220FM-12+0060VBPR V0209999C000012200019N9999999N1+03101+01461101521ADDAA199000091AY101031AY201031GA1001+999999999GF100991001001999999001001MD1999999+0071MW1051REMSYN064AAXX  31094 48077 31952 00000 10310 20146 40152 70500 333 58007;EQDQ01  00002PRCP99
0187480770999992000020100004+18800+095220FM-12+0060VBPR V0200401N001512200019N0060001N1+01801+01471101561ADDAA199000091GF101991999001999999031001KA1120N+01781MD1999999-0131REMSYN076AAXX  01004 48077 32956 10403 10180 20147 40156 80030 333 20178 56090 59013;EQDQ01+000002SCOTLCQ02  00002PRCP99
0152480770999992000020103004+18800+095220FM-12+0060VBPR V0200401N001012200019N0100001N1+02151+01561101721ADDAA199000091GF101991001001999999001011MD1999999-0141REMSYN070AAXX  01034 48077 32960 10402 10215 20156 40172 80001 333 56004 59014;EQDQ01  00002PRCP99
0152480770999992000020106004+18800+095220FM-12+0060VBPR V0202301N000519999999N0110001N1+02801+01461101621ADDAA199000091GF105991001001999999031011MD1999999-0111REMSYN070AAXX  01064 48077 32961 52301 10280 20146 40162 80031 333 56099 59011;EQDQ01  00002PRCP99
0180480770999992000020109004+18800+095220FM-12+0060VBPR V0209999C000012200019N0090001N1+03101+01241101331ADDAA199000091AY101031AY201031GF102991001001999999001011MD1999999-0191MW1051REMSYN076AAXX  01094 48077 32959 20000 10310 20124 40133 70500 80001 333 56009 59019;EQDQ01  00002PRCP99
0199480770999992000020112004+18800+095220FM-12+0060VBPR V0209999C000012200019N0080001N1+02801+01461101301ADDAA199000091AY101061AY201061GF102991001001999999031011KA1120M+03301MD1999999-0181MW1051REMSYN082AAXX  01124 48077 31958 20000 10280 20146 40130 70500 80031 333 10330 56099 59018;EQDQ01  00002PRCP99
0203480770999992000020200004+18800+095220FM-12+0060VBPR V0209999C000012200019N0080001N1+01801+01551101441ADDAA199000091AY101061AY201061GA1001+999999999GF100991001001999999001001KA1120N+01761MD1999999-0121MW1101REMSYN070AAXX  02004 48077 31958 00000 10180 20155 40144 71000 333 20176 59012;EQDQ01  00002PRCP99
0196480770999992000020203004+18800+095220FM-12+0060VBPR V0200401N000512200019N0090001N1+02151+01761101681ADDAA199000091AY101031AY201031GF104991999001999999031001MD1999999-0041MW1101REMSYN076AAXX  02034 48077 31959 40401 10215 20176 40168 71000 80030 333 56090 59004;EQDQ01+000002SCOTLCQ02  00002PRCP99
0184480770999992000020206004+18800+095220FM-12+0060VBPR V0209999C000012200019N0100001N1+03001+01491101571ADDAA199000091AY101061AY201061GA1001+999999999GF100991001001999999001001MD1999999-0061MW1051REMSYN064AAXX  02064 48077 31960 00000 10300 20149 40157 70500 333 59006;EQDQ01  00002PRCP99
0184480770999992000020209004+18800+095220FM-12+0060VBPR V0200401N001012200019N0090001N1+03201+01401101341ADDAA199000091AY101031AY201031GA1001+999999999GF100991001001999999001001MD1999999+0021MW1051REMSYN064AAXX  02094 48077 31959 00402 10320 20140 40134 70500 333 58002;EQDQ01  00002PRCP99
0199480770999992000020212004+18800+095220FM-12+0060VBPR V0209999C000012200019N0060001N1+02901+01401101311ADDAA199000091AY101061AY201061GF103991031081008001001001KA1120M+03201MD1999999+0001MW1051REMSYN082AAXX  02124 48077 31556 30000 10290 20140 40131 70500 83800 333 10320 56900 58000;EQDQ01  00002PRCP99
0184480770999992000020303004+18800+095220FM-12+0060VBPR V0209999C000012200019N0080001N1+02201+01701101981ADDAA199000091AY101031AY201031GA1001+999999999GF100991001001999999001001MD1999999+0101MW1101REMSYN064AAXX  03034 48077 31958 00000 10220 20170 40198 71000 333 58010;EQDQ01  00002PRCP99
0156480770999992000020306004+18800+095220FM-12+0060VBPR V0200401N003112200019N0110001N1+03001+01241101661ADDAA199000091GA1001+999999999GF100991001001999999001001MD1999999+0091REMSYN058AAXX  03064 48077 32961 00406 10300 20124 40166 333 58009;EQDQ01  00002PRCP99
0184480770999992000020309004+18800+095220FM-12+0060VBPR V0209999C000012200019N0070001N1+03341+01261101341ADDAA199000091AY101031AY201031GA1001+999999999GF100991001001999999001001MD1999999+0001MW1051REMSYN064AAXX  03094 48077 31957 00000 10334 20126 40134 70500 333 58000;EQDQ01  00002PRCP99
0215480770999992000020312004+18800+095220FM-12+0060VBPR V0209999C000012200019N0060001N1+02901+01591101301ADDAA199000091AY101061AY201061GF103991999001999999031001KA1120M+03361MD1999999-0011MW1051REMSYN082AAXX  03124 48077 31956 30000 10290 20159 40130 70500 80030 333 10336 56009 59001;EQDQ01+000002SCOTLCQ02  00002PRCP99
0199480770999992000020400004+18800+095220FM-12+0060VBPR V0209999C000012200019N0050001N1+01701+01541101371ADDAA199000091AY101061AY201061GF102991001001999999001011KA1120N+01661MD1999999-0231MW1101REMSYN082AAXX  04004 48077 31950 20000 10170 20154 40137 71000 80001 333 20166 56009 59023;EQDQ01  00002PRCP99
0184480770999992000020403004+18800+095220FM-12+0060VBPR V0200401N000512200019N0080001N1+02151+01731101491ADDAA199000091AY101031AY201031GA1001+999999999GF100991001001999999001001MD1999999-0281MW1101REMSYN064AAXX  04034 48077 31958 00401 10215 20173 40149 71000 333 59028;EQDQ01  00002PRCP99
0184480770999992000020406004+18800+095220FM-12+0060VBPR V0209999C000012200019N0100001N1+02901+01541101411ADDAA199000091AY101061AY201061GA1001+999999999GF100991001001999999001001MD1999999-0251MW1051REMSYN064AAXX  04064 48077 31960 00000 10290 20154 40141 70500 333 59025;EQDQ01  00002PRCP99
0199480770999992000020412004+18800+095220FM-12+0060VBPR V0209999C000012200019N0080001N1+02931+01591101111ADDAA199000091AY111061AY211061GF104991001001999999001011KA1120M+03461MD1999999-0241MW1051REMSYN082AAXX  04124 48077 31958 40000 10293 20159 40111 70511 80001 333 10346 56009 59024;EQDQ01  00002PRCP99
0199480770999992000020500004+18800+095220FM-12+0060VBPR V0209999C000012200019N0080001N1+01761+01471101311ADDAA199000091AY111061AY211061GF102991001001999999001011KA1120N+01701MD1999999-0061MW1101REMSYN082AAXX  05004 48077 31958 20000 10176 20147 40131 71011 80001 333 20170 56009 59006;EQDQ01  00002PRCP99
0184480770999992000020503004+18800+095220FM-12+0060VBPR V0209999C000012200019N0100001N1+02201+01561101471ADDAA199000091AY101031AY201031GA1001+999999999GF100991001001999999001001MD1999999-0031MW1051REMSYN064AAXX  05034 48077 31960 00000 10220 20156 40147 70500 333 59003;EQDQ01  00002PRCP99
0184480770999992000020506004+18800+095220FM-12+0060VBPR V0209999C000012200019N0100001N1+03121+01691101351ADDAA199000091AY101061AY201061GA1001+999999999GF100991001001999999001001MD1999999-0061MW1051REMSYN064AAXX  05064 48077 31960 00000 10312 20169 40135 70500 333 59006;EQDQ01  00002PRCP99
0184480770999992000020509004+18800+095220FM-12+0060VBPR V0200401N000512200019N0150001N1+03371+01451101141ADDAA199000091AY101031AY201031GA1001+999999999GF100991001001999999001001MD1999999+0061MW1051REMSYN064AAXX  05094 48077 31965 00401 10337 20145 40114 70500 333 58006;EQDQ01  00002PRCP99
0199480770999992000020512004+18800+095220FM-12+0060VBPR V0209999C000012200019N0080001N1+03001+01491100971ADDAA199000091AY101061AY201061GF102991001001999999001011KA1120M+03401MD1999999-0141MW1051REMSYN082AAXX  05124 48077 31958 20000 10300 20149 40097 70500 80001 333 10340 56009 59014;EQDQ01  00002PRCP99
0203480770999992000020600004+18800+095220FM-12+0060VBPR V0209999C000012200019N0050001N1+01801+01471101211ADDAA199000091AY101061AY201061GA1001+999999999GF100991001001999999001001KA1120N+01761MD1999999-0101MW1101REMSYN070AAXX  06004 48077 31950 00000 10180 20147 40121 71000 333 20176 59010;EQDQ01  00002PRCP99
0190480770999992000020603004+18800+095220FM-12+0060VBPR V0200401N000512200019N0100001N1+02201+01731101421ADDAA199000091AY101031AY201031GA1001+999999999GF100991001001999999001001MD1999999-0051MW1051REMSYN070AAXX  06034 48077 31960 00401 10220 20173 40142 70500 333 56000 59005;EQDQ01  00002PRCP99
0180480770999992000020609004+18800+095220FM-12+0060VBPR V0209999C000012200019N0090001N1+03501+01581100981ADDAA199000091AY101031AY201031GF101991001001999999001011MD1999999-0161MW1051REMSYN076AAXX  06094 48077 31959 10000 10350 20158 40098 70500 80001 333 56009 59016;EQDQ01  00002PRCP99
0199480770999992000020612004+18800+095220FM-12+0060VBPR V0209999C000012200019N0060001N1+03001+01761100921ADDAA199000091AY101061AY201061GF102991001001999999001011KA1120M+03501MD1999999-0051MW1051REMSYN082AAXX  06124 48077 31956 20000 10300 20176 40092 70500 80001 333 10350 56009 59005;EQDQ01  00002PRCP99
0156480770999992000020703004+18800+095220FM-12+0060VBPR V0203601N001012200019N0100001N1+02401+01741101621ADDAA199000091GA1001+999999999GF100991001001999999001001MD1999999-0101REMSYN058AAXX  07034 48077 32960 03602 10240 20174 40162 333 59010;EQDQ01  00002PRCP99
0156480770999992000020706004+18800+095220FM-12+0060VBPR V0209999C000012200019N0110001N1+02951+01661101241ADDAA199000091GA1001+999999999GF100991001001999999001001MD1999999-0041REMSYN058AAXX  07064 48077 32961 00000 10295 20166 40124 333 59004;EQDQ01  00002PRCP99
0156480770999992000020709004+18800+095220FM-12+0060VBPR V0209999C000012200019N0110001N1+03321+01261100951ADDAA199000091GA1001+999999999GF100991001001999999001001MD1999999-0021REMSYN058AAXX  07094 48077 32961 00000 10332 20126 40095 333 59002;EQDQ01  00002PRCP99
0171480770999992000020712004+18800+095220FM-12+0060VBPR V0202701N001512200019N0080001N1+02911+01401100931ADDAA199000091GF102991021041008001001001KA1120M+03371MD1999999+0011REMSYN076AAXX  07124 48077 32558 22703 10291 20140 40093 82400 333 10337 56900 58001;EQDQ01  00002PRCP99
0209480770999992000020800004+18800+095220FM-12+0060VBPR V0209999C000012200019N0050001N1+01701+01351101111ADDAA199000091AY101061AY201061GA1001+999999999GF100991001001999999001001KA1120N+01691MD1999999-0111MW1101REMSYN076AAXX  08004 48077 31950 00000 10170 20135 40111 71000 333 20169 56000 59011;EQDQ01  00002PRCP99
0156480770999992000020803004+18800+095220FM-12+0060VBPR V0200401N000512200019N0100001N1+02201+01561101291ADDAA199000091GA1001+999999999GF100991001001999999001001MD1999999-0031REMSYN058AAXX  08034 48077 32960 00401 10220 20156 40129 333 59003;EQDQ01  00002PRCP99
0180480770999992000020806004+18800+095220FM-12+0060VBPR V0203201N000519999999N0110001N1+02901+01791101261ADDAA199000091AY101061AY201061GF105991001001999999041011MD1999999-0021MW1051REMSYN076AAXX  08064 48077 32961 53201 10290 20179 40126 70500 80041 333 56099 59002;EQDQ01  00002PRCP99
0196480770999992000020809004+18800+095220FM-12+0060VBPR V0209999C000012200019N0100001N1+03241+01401101021ADDAA199000091AY101031AY201031GF101991999001999999031001MD1999999+0071MW1051REMSYN076AAXX  08094 48077 31960 10000 10324 20140 40102 70500 80030 333 56090 58007;EQDQ01+000002SCOTLCQ02  00002PRCP99
0199480770999992000020812004+18800+095220FM-12+0060VBPR V0203201N003112200019N0080001N1+02591+01801101001ADDAA199000091AY121061AY221061GF103991021031999999001021KA1120M+02901MD1999999+0021MW1051REMSYN082AAXX  08124 48077 31958 33206 10259 20180 40100 70522 82302 333 10290 56709 58002;EQDQ01  00002PRCP99
0156480770999992000020900004+18800+095220FM-12+0060VBPR V0203601N000512200019N0090001N1+02101+01601101281ADDAA199000091GA1001+999999999GF100991001001999999001001MD1999999-0011REMSYN058AAXX  09004 48077 32959 03601 10210 20160 40128 333 59001;EQDQ01  00002PRCP99
0152480770999992000020906004+18800+095220FM-12+0060VBPR V0203601N000512200019N0110001N1+03101+01461101191ADDAA199000091GF103991001001999999001011MD1999999-0061REMSYN070AAXX  09064 48077 32961 33601 10310 20146 40119 80001 333 56009 59006;EQDQ01  00002PRCP99
0184480770999992000020909004+18800+095220FM-12+0060VBPR V0209999C000012200019N0100001N1+03401+00981100901ADDAA199000091AY101031AY201031GA1001+999999999GF100991001001999999001001MD1999999-0121MW1051REMSYN064AAXX  09094 48077 31960 00000 10340 20098 40090 70500 333 59012;EQDQ01  00002PRCP99
0203480770999992000020912004+18800+095220FM-12+0060VBPR V0202701N002612200019N0070001N1+02901+00921100871ADDAA199000091AY101061AY201061GA1001+999999999GF100991001001999999001001KA1120M+03401MD1999999-0101MW1051REMSYN070AAXX  09124 48077 31957 02705 10290 20092 40087 70500 333 10340 59010;EQDQ01  00002PRCP99
0215480770999992000021000004+18800+095220FM-12+0060VBPR V0209999C000012200019N0060001N1+01901+01391101171ADDAA199000091AY101061AY201061GF104991999001999999031001KA1120N+01701MD1999999-0031MW1101REMSYN082AAXX  10004 48077 31956 40000 10190 20139 40117 71000 80030 333 20170 56090 59003;EQDQ01+000002SCOTLCQ02  00002PRCP99
0180480770999992000021003004+18800+095220FM-12+0060VBPR V0209999C000019999999N0080001N1+02201+01561101291ADDAA199000091AY101031AY201031GF107991031081999999031001MD1999999+0011MW1051REMSYN076AAXX  10034 48077 31958 70000 10220 20156 40129 70500 83830 333 56990 58001;EQDQ01  00002PRCP99
0184480770999992000021006004+18800+095220FM-12+0060VBPR V0203601N000512200019N0100001N1+02901+01151101311ADDAA199000091AY101061AY201061GA1001+999999999GF100991001001999999001001MD1999999+0111MW1051REMSYN064AAXX  10064 48077 31960 03601 10290 20115 40131 70500 333 58011;EQDQ01  00002PRCP99
0184480770999992000021009004+18800+095220FM-12+0060VBPR V0209999C000012200019N0090001N1+03361+01451101061ADDAA199000091AY101031AY201031GA1001+999999999GF100991001001999999001001MD1999999+0161MW1051REMSYN064AAXX  10094 48077 31959 00000 10336 20145 40106 70500 333 58016;EQDQ01  00002PRCP99
0187480770999992000021012004+18800+095220FM-12+0060VBPR V0209999C000012200019N0070001N1+02741+01841101091ADDAA199000091AY101061AY201061GF102991999999999999999999KA1120M+03401MD1999999+0221MW1051REMSYN070AAXX  10124 48077 31957 20000 10274 20184 40109 70500 333 10340 58022;EQDQ01  00002PRCP99
0184480770999992000021106004+18800+095220FM-12+0060VBPR V0209999C000012200019N0100001N1+03121+01241101211ADDAA199000091AY101061AY201061GA1001+999999999GF100991001001999999001001MD1999999-0101MW1051REMSYN064AAXX  11064 48077 31960 00000 10312 20124 40121 70500 333 59010;EQDQ01  00002PRCP99
0184480770999992000021109004+18800+095220FM-12+0060VBPR V0209999C000012200019N0090001N1+03521+01121100951ADDAA199000091AY101031AY201031GA1001+999999999GF100991001001999999001001MD1999999-0121MW1051REMSYN064AAXX  11094 48077 31959 00000 10352 20112 40095 70500 333 59012;EQDQ01  00002PRCP99
0215480770999992000021112004+18800+095220FM-12+0060VBPR V0209999C000012200019N0060001N1+03021+01491100921ADDAA199000091AY101061AY201061GF101991001001999999001011KA1120M+99999MD1999999-0171MW1051REMSYN082AAXX  11124 48077 31956 10000 10302 20149 40092 70500 80001 333 10253 56009 59017;EQDQ01  00002PRCP99Q02 +02532ATMX  
0199480770999992000021200004+18800+095220FM-12+0060VBPR V0203601N000519999999N0070001N1+01801+01291101121ADDAA199000091AY101061AY201061GF106991001001999999001011KA1120N+01751MD1999999-0041MW1101REMSYN082AAXX  12004 48077 31957 63601 10180 20129 40112 71000 80001 333 20175 56009 59004;EQDQ01  00002PRCP99
0184480770999992000021203004+18800+095220FM-12+0060VBPR V0200401N001012200019N0100001N1+02301+01431101331ADDAA199000091AY101031AY201031GA1001+999999999GF100991001001999999001001MD1999999+0041MW1051REMSYN064AAXX  12034 48077 31960 00402 10230 20143 40133 70500 333 58004;EQDQ01  00002PRCP99
0184480770999992000021206004+18800+095220FM-12+0060VBPR V0200401N000512200019N0090001N1+03071+01461101241ADDAA199000091AY101061AY201061GA1001+999999999GF100991001001999999001001MD1999999+0041MW1051REMSYN064AAXX  12064 48077 31959 00401 10307 20146 40124 70500 333 58004;EQDQ01  00002PRCP99
0184480770999992000021209004+18800+095220FM-12+0060VBPR V0209999C000012200019N0080001N1+03541+01431100941ADDAA199000091AY101031AY201031GA1001+999999999GF100991001001999999001001MD1999999-0011MW1051REMSYN064AAXX  12094 48077 31958 00000 10354 20143 40094 70500 333 59001;EQDQ01  00002PRCP99
0199480770999992000021212004+18800+095220FM-12+0060VBPR V0209999C000012200019N0070001N1+02801+01691100961ADDAA199000091AY101061AY201061GF102991001001999999001011KA1120M+03541MD1999999+0011MW1051REMSYN082AAXX  12124 48077 31957 20000 10280 20169 40096 70500 80001 333 10354 56009 58001;EQDQ01  00002PRCP99
0203480770999992000021300004+18800+095220FM-12+0060VBPR V0209999C000012200019N0050001N1+01901+01391101061ADDAA199000091AY101061AY201061GA1001+999999999GF100991001001999999001001KA1120N+01851MD1999999-0161MW1101REMSYN070AAXX  13004 48077 31950 00000 10190 20139 40106 71000 333 20185 59016;EQDQ01  00002PRCP99
0156480770999992000021303004+18800+095220FM-12+0060VBPR V0200401N000512200019N0100001N1+02611+01981101241ADDAA199000091GA1001+999999999GF100991001001999999001001MD1999999-0081REMSYN058AAXX  13034 48077 32960 00401 10261 20198 40124 333 59008;EQDQ01  00002PRCP99
0156480770999992000021306004+18800+095220FM-12+0060VBPR V0203601N001012200019N0100001N1+03301+01511101141ADDAA199000091GA1001+999999999GF100991001001999999001001MD1999999-0141REMSYN058AAXX  13064 48077 32960 03602 10330 20151 40114 333 59014;EQDQ01  00002PRCP99
0184480770999992000021309004+18800+095220FM-12+0060VBPR V0209999C000012200019N0100001N1+03601+01561100851ADDAA199000091AY101031AY201031GA1001+999999999GF100991001001999999001001MD1999999-0111MW1051REMSYN064AAXX  13094 48077 31960 00000 10360 20156 40085 70500 333 59011;EQDQ01  00002PRCP99
0215480770999992000021312004+18800+095220FM-12+0060VBPR V0209999C000012200019N0080001N1+03221+01631100781ADDAA199000091AY141061AY241061GF101991999001999999031001KA1120M+03631MD1999999-0151MW1051REMSYN082AAXX  13124 48077 31958 10000 10322 20163 40078 70544 80030 333 10363 56090 59015;EQDQ01+000002SCOTLCQ02  00002PRCP99
0175480770999992000021400004+18800+095220FM-12+0060VBPR V0200401N001012200019N0080001N1+02201+01561101041ADDAA199000091GA1001+999999999GF100991001001999999001001KA1120N+02181MD1999999-0021REMSYN064AAXX  14004 48077 32958 00402 10220 20156 40104 333 20218 59002;EQDQ01  00002PRCP99
0162480770999992000021403004+18800+095220FM-12+0060VBPR V0200401N002612200019N0100001N1+02701+01541101191ADDAA199000091GA1001+999999999GF100991001001999999001001MD1999999-0061REMSYN064AAXX  14034 48077 32960 00405 10270 20154 40119 333 56000 59006;EQDQ01  00002PRCP99
0156480770999992000021406004+18800+095220FM-12+0060VBPR V0200401N002612200019N0100001N1+03341+01511101141ADDAA199000091GA1001+999999999GF100991001001999999001001MD1999999+0001REMSYN058AAXX  14064 48077 32960 00405 10334 20151 40114 333 58000;EQDQ01  00002PRCP99
0184480770999992000021409004+18800+095220FM-12+0060VBPR V0203601N000512200019N0060001N1+03701+01481100861ADDAA199000091AY101031AY201031GA1001+999999999GF100991001001999999001001MD1999999+0021MW1051REMSYN064AAXX  14094 48077 31956 03601 10370 20148 40086 70500 333 58002;EQDQ01  00002PRCP99
0203480770999992000021412004+18800+095220FM-12+0060VBPR V0209999C000012200019N0080001N1+03121+01461100851ADDAA199000091AY101061AY201061GA1001+999999999GF100991001001999999001001KA1120M+03701MD1999999+0081MW1051REMSYN070AAXX  14124 48077 31958 00000 10312 20146 40085 70500 333 10370 58008;EQDQ01  00002PRCP99
0219480770999992000021500004+18800+095220FM-12+0060VBPR V0209999C000012200019N0050001N1+01201+99999100991ADDAA199000091AY101061AY201061GA1001+999999999GF100991001001999999001001KA1120N+99999MD1999999-0061MW1101REMSYN070AAXX  15004 48077 31950 00000 10120 20150 40099 71000 333 20202 59006;EQDQ01  00002PRCP99Q02 +02022ATMN  
0156480770999992000021506004+18800+095220FM-12+0060VBPR V0209999C000012200019N0110001N1+03401+01641101071ADDAA199000091GA1001+999999999GF100991001001999999001001MD1999999-0071REMSYN058AAXX  15064 48077 32961 00000 10340 20164 40107 333 59007;EQDQ01  00002PRCP99
0184480770999992000021509004+18800+095220FM-12+0060VBPR V0209999C000012200019N0100001N1+03701+01711100761ADDAA199000091AY101031AY201031GA1001+999999999GF100991001001999999001001MD1999999-0101MW1051REMSYN064AAXX  15094 48077 31960 00000 10370 20171 40076 70500 333 59010;EQDQ01  00002PRCP99
0215480770999992000021512004+18800+095220FM-12+0060VBPR V0209999C000012200019N0080001N1+03301+01911100731ADDAA199000091AY101061AY201061GF102991001001999999001011KA1120M+03701MD1999999-0121MW1051REMSYN082AAXX  15124 48077 31058 20000 10330 20191 40073 70500 80001 333 10370 56999 59012;EQDQ01+000252SCOLCBQ02  00002PRCP99
0181480770999992000021600004+18800+095220FM-12+0060VBPR V0209999C000012200019N0070001N1+02101+01751100971ADDAA199000091GA1001+999999999GF100991001001999999001001KA1120N+02071MD1999999-0021REMSYN070AAXX  16004 48077 32957 00000 10210 20175 40097 333 20207 56000 59002;EQDQ01  00002PRCP99
0168480770999992000021603004+18800+095220FM-12+0060VBPR V0203201N001012200019N0100001N1+02651+01191101131ADDAA199000091GF102991999001999999031001MD1999999-0031REMSYN070AAXX  16034 48077 32960 23202 10265 20119 40113 80030 333 56090 59003;EQDQ01+000002SCOTLCQ02  00002PRCP99
0152480770999992000021606004+18800+095220FM-12+0060VBPR V0200401N000510450019N0110001N1+03301+01261101111ADDAA199000091GF105991031081008001031011MD1999999+0041REMSYN070AAXX  16064 48077 32561 50401 10330 20126 40111 83831 333 56599 58004;EQDQ01  00002PRCP99
0184480770999992000021609004+18800+095220FM-12+0060VBPR V0203601N000512200019N0090001N1+03601+01721100871ADDAA199000091AY101031AY201031GA1001+999999999GF100991001001999999001001MD1999999+0111MW1051REMSYN064AAXX  16094 48077 31959 03601 10360 20172 40087 70500 333 58011;EQDQ01  00002PRCP99
0184480770999992000021612004+18800+095220FM-12+0060VBPR V0209999C000012200019N0080001N1+03201+01841100791ADDAA199000091AY101061AY201061GF102991001001999999001011KA1120M+03651MW1051REMSYN081AAXX  16124 48077 31958 20000 10320 20184 40079 70500 80001 333 10365 5906 58006;EQDQ01  00002PRCP99
0199480770999992000021700004+18800+095220FM-12+0060VBPR V0209999C000010450019N0050001N1+02171+01851100951ADDAA199000091AY101061AY201061GF107991031081008001031001KA1120N+02101MD1999999-0021MW1101REMSYN082AAXX  17004 48077 31550 70000 10217 20185 40095 71000 83830 333 20210 56590 59002;EQDQ01  00002PRCP99
0150480770999992000021703004+18800+095220FM-12+0060VBPR V0209999C000010450019N0080001N1+02351+01911101081ADDAA199000091AY101031AY201031GF105991031081008001031001MW1051REMSYN060AAXX  17034 48077 31558 50000 10235 20191 40108 70500 83830;EQDQ01  00002PRCP99
0180480770999992000021706004+18800+095220FM-12+0060VBPR V0202301N000512200019N0100001N1+03151+02001100991ADDAA199000091AY101061AY201061GF102991001001999999001011MD1999999-0121MW1051REMSYN076AAXX  17064 48077 31960 22301 10315 20200 40099 70500 80001 333 56009 59012;EQDQ01  00002PRCP99
0180480770999992000021709004+18800+095220FM-12+0060VBPR V0202301N000512200019N0100001N1+03581+01561100641ADDAA199000091AY101031AY201031GF102991011021008001031001MD1999999-0231MW1051REMSYN076AAXX  17094 48077 31560 22301 10358 20156 40064 70500 81230 333 56590 59023;EQDQ01  00002PRCP99
0199480770999992000021712004+18800+095220FM-12+0060VBPR V0209999C000012200019N0060001N1+03171+02001100591ADDAA199000091AY111061AY211061GF105991021081008001001011KA1120M+03591MD1999999-0201MW1051REMSYN082AAXX  17124 48077 31556 50000 10317 20200 40059 70511 82801 333 10359 56909 59020;EQDQ01  00002PRCP99
0171480770999992000021800004+18800+095220FM-12+0060VBPR V0202301N000510075019N0070001N1+02301+01811100831ADDAA199000091GF105991051071008001031001KA1120N+02311MD1999999-0051REMSYN076AAXX  18004 48077 32557 52301 10230 20181 40083 85730 333 20231 56499 59005;EQDQ01  00002PRCP99
0180480770999992000021806004+18800+095220FM-12+0060VBPR V0202301N000510120019N0100001N1+03001+01661101001ADDAA199000091AY121061AY221061GF106991051081008001031021MD1999999+0011MW1051REMSYN076AAXX  18064 48077 31560 62301 10300 20166 40100 70522 85832 333 56590 58001;EQDQ01  00002PRCP99
0180480770999992000021809004+18800+095220FM-12+0060VBPR V0202301N002110450019N0090001N1+03401+01451100751ADDAA199000091AY121031AY221031GF106991041081008001031001MD1999999+0111MW1051REMSYN076AAXX  18094 48077 31559 62304 10340 20145 40075 70522 84830 333 56590 58011;EQDQ01  00002PRCP99
0171480770999992000021900004+18800+095220FM-12+0060VBPR V0209999C000010450019N0080001N1+02301+01241100971ADDAA199000091GF108991031081008001071001KA1120N+02251MD1999999+0141REMSYN076AAXX  19004 48077 32558 80000 10230 20124 40097 83870 333 20225 56490 58014;EQDQ01  00002PRCP99
0152480770999992000021903004+18800+095220FM-12+0060VBPR V0203601N000510450019N0100001N1+02501+01501101111ADDAA199000091GF107991041011008001031001MD1999999+0111REMSYN070AAXX  19034 48077 32560 73601 10250 20150 40111 84130 333 56590 58011;EQDQ01  00002PRCP99
0199480770999992000021912004+18800+095220FM-12+0060VBPR V0209999C000010450019N0080001N1+02731+01581100901ADDAA199000091AY121061AY221061GF108991041081008001071001KA1120M+02921MD1999999+0151MW1051REMSYN082AAXX  19124 48077 31558 80000 10273 20158 40090 70522 84870 333 10292 56590 58015;EQDQ01  00002PRCP99
0171480770999992000022000004+18800+095220FM-12+0060VBPR V0209999C000010450019N0070001N1+02241+01851100421ADDAA199000091GF107991031081008001031001KA1120N+02221MD1999999+0051REMSYN076AAXX  20004 48077 32557 70000 10224 20185 40042 83830 333 20222 56590 58005;EQDQ01  00002PRCP99
0180480770999992000022006004+18800+095220FM-12+0060VBPR V0209999C000010450019N0100001N1+03171+01401101081ADDAA199000091AY121061AY221061GF108991041081008001071001MD1999999-0081MW1051REMSYN076AAXX  20064 48077 31560 80000 10317 20140 40108 70522 84870 333 56590 59008;EQDQ01  00002PRCP99
0180480770999992000022009004+18800+095220FM-12+0060VBPR V0202301N000510075019N0070001N1+03361+00981100801ADDAA199000091AY121031AY221031GF108991051091008001031001MD1999999-0031MW1051REMSYN076AAXX  20094 48077 31557 82301 10336 20098 40080 70522 85930 333 56590 59003;EQDQ01  00002PRCP99
0171480770999992000022100004+18800+095220FM-12+0060VBPR V0200401N000510450019N0080001N1+02241+01111101111ADDAA199000091GF108991041081008001071001KA1120N+02221MD1999999+0191REMSYN076AAXX  21004 48077 32558 80401 10224 20111 40111 84870 333 20222 56590 58019;EQDQ01  00002PRCP99
0180480770999992000022103004+18800+095220FM-12+0060VBPR V0202301N000510450019N0090001N1+02501+00681101291ADDAA199000091AY121031AY221031GF107991041081008001031001MD1999999+0121MW1051REMSYN076AAXX  21034 48077 31559 72301 10250 20068 40129 70522 84830 333 56590 58012;EQDQ01  00002PRCP99
0180480770999992000022106004+18800+095220FM-12+0060VBPR V0203401N000510450019N0100001N1+03251+01161101241ADDAA199000091AY121061AY221061GF106991031081008001031001MD1999999+0261MW1051REMSYN076AAXX  21064 48077 31560 63401 10325 20116 40124 70522 83830 333 56550 58026;EQDQ01  00002PRCP99
0180480770999992000022109004+18800+095220FM-12+0060VBPR V0203601N000510450019N0080001N1+03401+01251100961ADDAA199000091AY121031AY221031GF107991041081008001031001MD1999999-0111MW1051REMSYN076AAXX  21094 48077 31558 73601 10340 20125 40096 70522 84830 333 56540 59011;EQDQ01  00002PRCP99
0199480770999992000022112004+18800+095220FM-12+0060VBPR V0209999C000010450019N0080001N1+02991+01241100901ADDAA199000091AY121061AY221061GF108991041081008001071001KA1120M+03511MD1999999+0141MW1051REMSYN082AAXX  21124 48077 31558 80000 10299 20124 40090 70522 84870 333 10351 56590 58014;EQDQ01  00002PRCP99
0171480770999992000022200004+18800+095220FM-12+0060VBPR V0203601N001510450019N0080001N1+02401+00661101101ADDAA199000091GF108991041081008001031001KA1120N+02371MD1999999-0011REMSYN076AAXX  22004 48077 32558 83603 10240 20066 40110 84830 333 20237 56590 59001;EQDQ01  00002PRCP99
0180480770999992000022206004+18800+095220FM-12+0060VBPR V0200401N000512200019N0110001N1+03301+01061101001ADDAA199000091AY101061AY201061GF103991001001999999031011MD1999999-0041MW1051REMSYN076AAXX  22064 48077 31961 30401 10330 20106 40100 70500 80031 333 56099 59004;EQDQ01  00002PRCP99
0196480770999992000022209004+18800+095220FM-12+0060VBPR V0203601N001012200019N0090001N1+03601+01061100921ADDAA199000091AY121031AY221031GF104991999001999999031001MD1999999-0051MW1051REMSYN076AAXX  22094 48077 31959 43602 10360 20106 40092 70522 80030 333 56090 59005;EQDQ01+000002SCOTLCQ02  00002PRCP99
0235480770999992000022212004+18800+095220FM-12+0060VBPR V0209999C000012200019N0080001N1+99999+99999100871ADDAA199000091AY101061AY201061GA1001+999999999GF100991001001999999001001KA1120M+03211MD1999999-0031MW1051REMSYN070AAXX  22124 48077 31958 00000 11310 20169 40087 70500 333 10321 59003;EQDQ01-003103ATOT  Q02  00002PRCP99Q03 -03103ATOT  
0215480770999992000022300004+18800+095220FM-12+0060VBPR V0200401N000512200019N0050001N1+02101+01201101091ADDAA199000091AY101061AY201061GF103991999001999999031001KA1120N+01901MD1999999-0021MW1101REMSYN082AAXX  23004 48077 31950 30401 10210 20120 40109 71000 80030 333 20190 56090 59002;EQDQ01+000002SCOTLCQ02  00002PRCP99
0196480770999992000022303004+18800+095220FM-12+0060VBPR V0200401N000512200019N0090001N1+02651+01021101201ADDAA199000091AY101031AY201031GF104991999001999999031001MD1999999-0131MW1051REMSYN076AAXX  23034 48077 31959 40401 10265 20102 40120 70500 80030 333 56090 59013;EQDQ01+000002SCOTLCQ02  00002PRCP99
0184480770999992000022306004+18800+095220FM-12+0060VBPR V0200401N001012200019N0100001N1+03401+01251101191ADDAA199000091AY101061AY201061GA1001+999999999GF100991001001999999001001MD1999999-0021MW1051REMSYN064AAXX  23064 48077 31960 00402 10340 20125 40119 70500 333 59002;EQDQ01  00002PRCP99
0215480770999992000022312004+18800+095220FM-12+0060VBPR V0209999C000019999999N0060001N1+03201+01401100891ADDAA199000091AY101061AY201061GF106991001001999999031011KA1120M+99999MD1999999-0021MW1051REMSYN082AAXX  23124 48077 31956 60000 10320 20140 40089 70500 80031 333 10264 56900 59002;EQDQ01  00002PRCP99Q02 +02642ATMX  
0179480770999992000022400004+18800+095220FM-12+0060VBPR V0209999C000012200019N0060001N1+02001+01501101081ADDAY101061AY201061GA1001+999999999GF100991001001999999001001KA1120N+01941MD1999999-0011MW1101REMSYN076AAXX  24004 48077 21956 00000 10200 20150 40108 71000 333 20194 56000 59001;
0156480770999992000022403004+18800+095220FM-12+0060VBPR V0200401N001012200019N0100001N1+02601+01081101251ADDAA199000091GA1001+999999999GF100991001001999999001001MD1999999+0051REMSYN058AAXX  24034 48077 32960 00402 10260 20108 40125 333 58005;EQDQ01  00002PRCP99
0184480770999992000022406004+18800+095220FM-12+0060VBPR V0203601N000512200019N0100001N1+03401+01451101171ADDAA199000091AY101061AY201061GA1001+999999999GF100991001001999999001001MD1999999-0011MW1051REMSYN064AAXX  24064 48077 31960 03601 10340 20145 40117 70500 333 59001;EQDQ01  00002PRCP99
0180480770999992000022409004+18800+095220FM-12+0060VBPR V0209999C000012200019N0090001N1+03761+01401100871ADDAA199000091AY101031AY201031GF102991001001999999001011MD1999999-0021MW1051REMSYN076AAXX  24094 48077 31959 20000 10376 20140 40087 70500 80001 333 56009 59002;EQDQ01  00002PRCP99
0199480770999992000022412004+18800+095220FM-12+0060VBPR V0209999C000012200019N0080001N1+03221+01401100801ADDAA199000091AY111061AY211061GF102991001001999999001011KA1120M+03761MD1999999-0091MW1051REMSYN082AAXX  24124 48077 31958 20000 10322 20140 40080 70511 80001 333 10376 56009 59009;EQDQ01  00002PRCP99
0184480770999992000022503004+18800+095220FM-12+0060VBPR V0200401N000512200019N0100001N1+02711+01331101181ADDAA199000091AY101031AY201031GA1001+999999999GF100991001001999999001001MD1999999-0071MW1051REMSYN064AAXX  25034 48077 31960 00401 10271 20133 40118 70500 333 59007;EQDQ01  00002PRCP99
0184480770999992000022506004+18800+095220FM-12+0060VBPR V0209999C000012200019N0100001N1+03481+01481101091ADDAA199000091AY101061AY201061GA1001+999999999GF100991001001999999001001MD1999999-0081MW1051REMSYN064AAXX  25064 48077 31960 00000 10348 20148 40109 70500 333 59008;EQDQ01  00002PRCP99
0184480770999992000022509004+18800+095220FM-12+0060VBPR V0209999C000012200019N0100001N1+03801+01401100821ADDAA199000091AY101031AY201031GA1001+999999999GF100991001001999999001001MD1999999-0041MW1051REMSYN064AAXX  25094 48077 31960 00000 10380 20140 40082 70500 333 59004;EQDQ01  00002PRCP99
0163480770999992000022512004+18800+095220FM-12+0060VBPR V0209999C000012200019N0080001N1+03411+01801100891ADDAA199000091GF102991021051999999001001KA1120M+03801REMSYN082AAXX  25124 48077 31958 20000 10341 20180 40089 82500 80001 333 10380 56009 59011;EQDQ01  00002PRCP99
0203480770999992000022600004+18800+095220FM-12+0060VBPR V0209999C000012200019N0060001N1+02121+01601100881ADDAA199000091AY101061AY201061GA1001+999999999GF100991001001999999001001KA1120N+02101MD1999999-0131MW1101REMSYN070AAXX  26004 48077 31956 00000 10212 20160 40088 71000 333 20210 59013;EQDQ01  00002PRCP99
0184480770999992000022603004+18800+095220FM-12+0060VBPR V0209999C000012200019N0100001N1+02601+01601101061ADDAA199000091AY101031AY201031GA1001+999999999GF100991001001999999001001MD1999999-0121MW1051REMSYN064AAXX  26034 48077 31960 00000 10260 20160 40106 70500 333 59012;EQDQ01  00002PRCP99
0184480770999992000022606004+18800+095220FM-12+0060VBPR V0201801N000512200019N0090001N1+03201+01631101001ADDAA199000091AY101061AY201061GA1001+999999999GF100991001001999999001001MD1999999-0091MW1051REMSYN064AAXX  26064 48077 31959 01801 10320 20163 40100 70500 333 59009;EQDQ01  00002PRCP99
0190480770999992000022609004+18800+095220FM-12+0060VBPR V0209999C000012200019N0090001N1+03741+01481100661ADDAA199000091AY101031AY201031GA1001+999999999GF100991001001999999001001MD1999999-0161MW1051REMSYN070AAXX  26094 48077 31959 00000 10374 20148 40066 70500 333 56000 59016;EQDQ01  00002PRCP99
0199480770999992000022612004+18800+095220FM-12+0060VBPR V0209999C000012200019N0080001N1+03321+01911100611ADDAA199000091AY101061AY201061GF103991021031999999031001KA1120M+03741MD1999999+0081MW1051REMSYN082AAXX  26124 48077 31958 30000 10332 20191 40061 70500 82330 333 10374 56090 58008;EQDQ01  00002PRCP99
0187480770999992000022700004+18800+095220FM-12+0060VBPR V0209999C000012200019N0080001N1+02181+01561101091ADDAA199000091GF102991999001999999031001KA1120N+02151MD1999999+0211REMSYN076AAXX  27004 48077 32958 20000 10218 20156 40109 80030 333 20215 56090 58021;EQDQ01+000002SCOTLCQ02  00002PRCP99
0168480770999992000022703004+18800+095220FM-12+0060VBPR V0200401N000519999999N0100001N1+02601+01381101311ADDAA199000091GF107991999001999999031001MD1999999+0251REMSYN070AAXX  27034 48077 32960 70401 10260 20138 40131 80030 333 56090 58025;EQDQ01+000002SCOTLCQ02  00002PRCP99
0196480770999992000022706004+18800+095220FM-12+0060VBPR V0200401N001012200019N0100001N1+03021+01661101251ADDAA199000091AY111061AY211061GF101991999001008001031001MD1999999+0251MW1051REMSYN076AAXX  27064 48077 31560 10402 10302 20166 40125 70511 80030 333 56790 58025;EQDQ01+000002SCOTLCQ02  00002PRCP99
0196480770999992000022709004+18800+095220FM-12+0060VBPR V0200901N000512200019N0100001N1+03211+01401100981ADDAA199000091AY111031AY211031GF101991999001999999031001MD1999999+0321MW1051REMSYN076AAXX  27094 48077 31960 10901 10321 20140 40098 70511 80030 333 56090 58032;EQDQ01+000002SCOTLCQ02  00002PRCP99
0187480770999992000022712004+18800+095220FM-12+0060VBPR V0200401N000519999999N0080001N1+02801+01461101001ADDAA199000091GF108991999001999999031001KA1120M+03241MD1999999+0391REMSYN076AAXX  27124 48077 31958 80401 10280 20146 40100 80030 333 10324 56050 58039;EQDQ01+000002SCOTLCQ02  00002PRCP99
0171480770999992000022800004+18800+095220FM-12+0060VBPR V0209999C000019999999N0080001N1+02321+01631101171ADDAA199000091GF107991041081999999031001KA1120N+02301MD1999999+0081REMSYN076AAXX  28004 48077 32958 70000 10232 20163 40117 84830 333 20230 56590 58008;EQDQ01  00002PRCP99
0152480770999992000022803004+18800+095220FM-12+0060VBPR V0200401N000512200019N0100001N1+02601+01601101321ADDAA199000091GF104991031081008001031001MD1999999+0011REMSYN070AAXX  28034 48077 32560 40401 10260 20160 40132 83830 333 56590 58001;EQDQ01  00002PRCP99
0180480770999992000022806004+18800+095220FM-12+0060VBPR V0203601N001010450019N0090001N1+03101+01691101251ADDAA199000091AY121061AY221061GF105991041081008001031001MD1999999+0001MW1051REMSYN076AAXX  28064 48077 31559 53602 10310 20169 40125 70522 84830 333 56590 58000;EQDQ01  00002PRCP99
0199480770999992000022812004+18800+095220FM-12+0060VBPR V0209999C000010450019N0080001N1+03061+01891100941ADDAA199000091AY121061AY221061GF106991031081008001031001KA1120M+03361MD1999999-0061MW1051REMSYN082AAXX  28124 48077 31558 60000 10306 20189 40094 70522 83830 333 10336 56690 59006;EQDQ01  00002PRCP99
0215480770999992000022900004+18800+095220FM-12+0060VBPR V0209999C000012200019N0080001N1+01851+01401101181ADDAA199000091AY101061AY201061GF101991999001999999031001KA1120N+01841MD1999999+0011MW1101REMSYN082AAXX  29004 48077 31958 10000 10185 20140 40118 71000 80030 333 20184 56090 58001;EQDQ01+000002SCOTLCQ02  00002PRCP99
0156480770999992000022903004+18800+095220FM-12+0060VBPR V0200401N000512200019N0100001N1+02401+01361101281ADDAA199000091GA1001+999999999GF100991001001999999001001MD1999999-0041REMSYN058AAXX  29034 48077 32960 00401 10240 20136 40128 333 59004;EQDQ01  00002PRCP99
0156480770999992000022906004+18800+095220FM-12+0060VBPR V0209999C000012200019N0110001N1+03201+00891101191ADDAA199000091GA1001+999999999GF100991001001999999001001MD1999999-0061REMSYN058AAXX  29064 48077 32961 00000 10320 20089 40119 333 59006;EQDQ01  00002PRCP99
0184480770999992000022909004+18800+095220FM-12+0060VBPR V0209999C000012200019N0100001N1+03501+00801100851ADDAA199000091AY101031AY201031GA1001+999999999GF100991001001999999001001MD1999999-0161MW1051REMSYN064AAXX  29094 48077 31960 00000 10350 20080 40085 70500 333 59016;EQDQ01  00002PRCP99
0203480770999992000022912004+18800+095220FM-12+0060VBPR V0203601N002112200019N0060001N1+02981+00891100831ADDAA199000091AY121061AY221061GA1001+999999999GF100991001001999999001001KA1120M+03501MD1999999-0111MW1051REMSYN070AAXX  29124 48077 31256 03604 10298 20089 40083 70522 333 10350 59011;EQDQ01  00002PRCP99
0199480770999992000030100004+18800+095220FM-12+0060VBPR V0209999C000012200019N0060001N1+01701+00091101111ADDAA199000091AY101061AY201061GF103991001001999999001011KA1120N+01701MD1999999-0071MW1101REMSYN082AAXX  01004 48077 31956 30000 10170 20009 40111 71000 80001 333 20170 56009 59007;EQDQ01  00002PRCP99
0200480770999992000030103004+18800+095220FM-12+0060VBPR V0209999C000012200019N9999999N1+02461+01262101221ADDAA199000091AY101031AY201031GA1001+999999999GF100991001001999999001001MD1999999-0061MW1051REMSYN064AAXX  01034 48077 31952 00000 10246 20126 40122 70500 333 59006;EQDQ01+001263ATOD  Q02  00002PRCP99
0184480770999992000030106004+18800+095220FM-12+0060VBPR V0209999C000012200019N0100001N1+02501+01241101181ADDAA199000091AY101061AY201061GA1001+999999999GF100991001001999999001001MD1999999-0021MW1151REMSYN064AAXX  01064 48077 31560 00000 10250 20124 40118 71500 333 59002;EQDQ01  00002PRCP99
0184480770999992000030109004+18800+095220FM-12+0060VBPR V0203201N000512200019N0100001N1+03602+01061100831ADDAA199000091AY101031AY201031GA1001+999999999GF100991001001999999001001MD1999999-0021MW1051REMSYN064AAXX  01094 48077 31597 03201 10360 20106 40083 70500 333 59002;EQDQ01  00002PRCP99
0203480770999992000030112004+18800+095220FM-12+0060VBPR V0201801N000512200019N0080001N1+03101+01241100801ADDAA199000091AY101061AY201061GA1001+999999999GF100991001001999999001001KA1120M+03601MD1999999-0031MW1051REMSYN070AAXX  01124 48077 32958 01801 10310 20124 40080 70500 333 10360 59003;EQDQ01  00002PRCP99
0203480770999992000030200004+18800+095220FM-12+0060VBPR V0209999C000012200019N0060001N1+01801+01471101131ADDAA199000091AY101061AY201061GA1001+999999999GF100991001001999999001001KA1120N+01751MD1999999-0021MW1101REMSYN070AAXX  02004 48077 31956 00000 10180 20147 40113 71000 333 20175 59002;EQDQ01  00002PRCP99
0184480770999992000030203004+18800+095220FM-12+0060VBPR V0209999C000012200019N0080001N1+02201+01561101261ADDAA199000091AY101031AY201031GA1001+999999999GF100991001001999999001001MD1999999+0041MW1051REMSYN064AAXX  02034 48077 31958 00000 10220 20156 40126 70500 333 58004;EQDQ01  00002PRCP99
0184480770999992000030206004+18800+095220FM-12+0060VBPR V0201801N000512200019N0100001N1+03301+01161101181ADDAA199000091AY101061AY201061GA1001+999999999GF100991001001999999001001MD1999999+0051MW1051REMSYN064AAXX  02064 48077 31960 01801 10330 20116 40118 70500 333 58005;EQDQ01  00002PRCP99
0184480770999992000030209004+18800+095220FM-12+0060VBPR V0202301N001012200019N0100001N1+03501+01131100961ADDAA199000091AY101031AY201031GA1001+999999999GF100991001001999999001001MD1999999+0141MW1051REMSYN064AAXX  02094 48077 31960 02302 10350 20113 40096 70500 333 58014;EQDQ01  00002PRCP99
0209480770999992000030212004+18800+095220FM-12+0060VBPR V0209999C000012200019N0080001N1+03121+01241100811ADDAA199000091AY101061AY201061GA1001+999999999GF100991001001999999001001KA1120M+03501MD1999999+0001MW1051REMSYN076AAXX  02124 48077 31958 00000 10312 20124 40081 70500 333 10350 56000 58000;EQDQ01  00002PRCP99
0190480770999992000030303004+18800+095220FM-12+0060VBPR V0202601N000512200019N0080001N1+02251+01561101341ADDAA199000091AY101031AY201031GA1001+999999999GF100991001001999999001001MD1999999+0081MW1051REMSYN070AAXX  03034 48077 31958 02601 10225 20156 40134 70500 333 56000 58008;EQDQ01  00002PRCP99
0184480770999992000030306004+18800+095220FM-12+0060VBPR V0209999C000012200019N0100001N1+03201+01401101241ADDAA199000091AY101061AY201061GA1001+999999999GF100991001001999999001001MD1999999+0061MW1051REMSYN064AAXX  03064 48077 31960 00000 10320 20140 40124 70500 333 58006;EQDQ01  00002PRCP99
0184480770999992000030309004+18800+095220FM-12+0060VBPR V0200401N000512200019N0090001N1+03521+01431101051ADDAA199000091AY101031AY201031GA1001+999999999GF100991001001999999001001MD1999999+0091MW1051REMSYN064AAXX  03094 48077 31959 00401 10352 20143 40105 70500 333 58009;EQDQ01  00002PRCP99
0199480770999992000030312004+18800+095220FM-12+0060VBPR V0202301N002612200019N0080001N1+03221+00891100921ADDAA199000091AY101061AY201061GF102991001001999999001011KA1120M+03621MD1999999+0111MW1051REMSYN082AAXX  03124 48077 31958 22305 10322 20089 40092 70500 80001 333 10362 56009 58011;EQDQ01  00002PRCP99
0203480770999992000030400004+18800+095220FM-12+0060VBPR V0209999C000012200019N0060001N1+01941+01591101191ADDAA199000091AY101061AY201061GA1001+999999999GF100991001001999999001001KA1120N+01901MD1999999+0061MW1101REMSYN070AAXX  04004 48077 31956 00000 10194 20159 40119 71000 333 20190 58006;EQDQ01  00002PRCP99
0184480770999992000030403004+18800+095220FM-12+0060VBPR V0209999C000012200019N0090001N1+02421+01741101371ADDAA199000091AY101031AY201031GA1001+999999999GF100991001001999999001001MD1999999+0031MW1051REMSYN064AAXX  04034 48077 31959 00000 10242 20174 40137 70500 333 58003;EQDQ01  00002PRCP99
0184480770999992000030406004+18800+095220FM-12+0060VBPR V0209999C000012200019N0080001N1+03221+01401101251ADDAA199000091AY101061AY201061GA1001+999999999GF100991001001999999001001MD1999999+0011MW1051REMSYN064AAXX  04064 48077 31958 00000 10322 20140 40125 70500 333 58001;EQDQ01  00002PRCP99
0203480770999992000030412004+18800+095220FM-12+0060VBPR V0202701N002112200019N0090001N1+03301+00761100871ADDAA199000091AY101061AY201061GA1001+999999999GF100991001001999999001001KA1120M+03661MD1999999-0051MW1051REMSYN070AAXX  04124 48077 31959 02704 10330 20076 40087 70500 333 10366 59005;EQDQ01  00002PRCP99
0209480770999992000030500004+18800+095220FM-12+0060VBPR V0209999C000012200019N0060001N1+01901+01591101081ADDAA199000091AY101061AY201061GA1001+999999999GF100991001001999999001001KA1120N+01861MD1999999-0111MW1001REMSYN076AAXX  05004 48077 31956 00000 10190 20159 40108 70000 333 20186 56000 59011;EQDQ01  00002PRCP99
0190480770999992000030503004+18800+095220FM-12+0060VBPR V0200401N000512200019N0100001N1+02621+01381101271ADDAA199000091AY101031AY201031GA1001+999999999GF100991001001999999001001MD1999999-0101MW1051REMSYN070AAXX  05034 48077 31960 00401 10262 20138 40127 70500 333 56000 59010;EQDQ01  00002PRCP99
0190480770999992000030506004+18800+095220FM-12+0060VBPR V0209999C000012200019N0100001N1+03321+01061101151ADDAA199000091AY101061AY201061GA1001+999999999GF100991001001999999001001MD1999999-0101MW1051REMSYN070AAXX  05064 48077 31960 00000 10332 20106 40115 70500 333 56000 59010;EQDQ01  00002PRCP99
0184480770999992000030509004+18800+095220FM-12+0060VBPR V0200401N001012200019N0090001N1+03321+01251100771ADDAA199000091AY101031AY201031GA1001+999999999GF100991001001999999001001MD1999999-0131MW1051REMSYN064AAXX  05094 48077 31959 00402 10332 20125 40077 70500 333 59013;EQDQ01  00002PRCP99
0203480770999992000030512004+18800+095220FM-12+0060VBPR V0203201N002112200019N0080001N1+03281+01061100721ADDAA199000091AY101061AY201061GA1001+999999999GF100991001001999999001001KA1120M+03721MD1999999-0151MW1051REMSYN070AAXX  05124 48077 31958 03204 10328 20106 40072 70500 333 10372 59015;EQDQ01  00002PRCP99
0209480770999992000030600004+18800+095220FM-12+0060VBPR V0209999C000012200019N0060001N1+01901+01391100931ADDAA199000091AY101061AY201061GA1001+999999999GF100991001001999999001001KA1120N+01851MD1999999-0151MW1101REMSYN076AAXX  06004 48077 31956 00000 10190 20139 40093 71000 333 20185 56000 59015;EQDQ01  00002PRCP99
0184480770999992000030603004+18800+095220FM-12+0060VBPR V0200401N000512200019N0090001N1+02401+01361101111ADDAA199000091AY101031AY201031GA1001+999999999GF100991001001999999001001MD1999999-0161MW1051REMSYN064AAXX  06034 48077 31959 00401 10240 20136 40111 70500 333 59016;EQDQ01  00002PRCP99
0184480770999992000030606004+18800+095220FM-12+0060VBPR V0209999C000012200019N0100001N1+03501+01131101061ADDAA199000091AY101061AY201061GA1001+999999999GF100991001001999999001001MD1999999-0091MW1051REMSYN064AAXX  06064 48077 31960 00000 10350 20113 40106 70500 333 59009;EQDQ01  00002PRCP99
0184480770999992000030609004+18800+095220FM-12+0060VBPR V0209999C000012200019N0100001N1+03801+01121100771ADDAA199000091AY101031AY201031GA1001+999999999GF100991001001999999001001MD1999999+0001MW1051REMSYN064AAXX  06094 48077 31960 00000 10380 20112 40077 70500 333 58000;EQDQ01  00002PRCP99
0209480770999992000030612004+18800+095220FM-12+0060VBPR V0209999C000012200019N0080001N1+03301+01261100701ADDAA199000091AY101061AY201061GA1001+999999999GF100991001001999999001001KA1120M+03801MD1999999-0021MW1051REMSYN076AAXX  06124 48077 31958 00000 10330 20126 40070 70500 333 10380 56000 59002;EQDQ01  00002PRCP99
0209480770999992000030700004+18800+095220FM-12+0060VBPR V0209999C000012200019N0060001N1+01961+01681100991ADDAA199000091AY101061AY201061GA1001+999999999GF100991001001999999001001KA1120N+01931MD1999999+0061MW1101REMSYN076AAXX  07004 48077 31956 00000 10196 20168 40099 71000 333 20193 56000 58006;EQDQ01  00002PRCP99
0184480770999992000030703004+18800+095220FM-12+0060VBPR V0209999C000012200019N0080001N1+02501+01671101211ADDAA199000091AY101031AY201031GA1001+999999999GF100991001001999999001001MD1999999+0101MW1051REMSYN064AAXX  07034 48077 31958 00000 10250 20167 40121 70500 333 58010;EQDQ01  00002PRCP99
0184480770999992000030706004+18800+095220FM-12+0060VBPR V0200401N000512200019N0100001N1+03501+02191101111ADDAA199000091AY101061AY201061GA1001+999999999GF100991001001999999001001MD1999999+0051MW1051REMSYN064AAXX  07064 48077 31960 00401 10350 20219 40111 70500 333 58005;EQDQ01  00002PRCP99
0184480770999992000030709004+18800+095220FM-12+0060VBPR V0203601N000512200019N0090001N1+03841+01121100781ADDAA199000091AY101031AY201031GA1001+999999999GF100991001001999999001001MD1999999+0011MW1051REMSYN064AAXX  07094 48077 31959 03601 10384 20112 40078 70500 333 58001;EQDQ01  00002PRCP99
0209480770999992000030712004+18800+095220FM-12+0060VBPR V0209999C000012200019N0080001N1+03321+01511100711ADDAA199000091AY101061AY201061GA1001+999999999GF100991001001999999001001KA1120M+03841MD1999999+0011MW1051REMSYN076AAXX  07124 48077 31958 00000 10332 20151 40071 70500 333 10384 56000 58001;EQDQ01  00002PRCP99
0209480770999992000030800004+18800+095220FM-12+0060VBPR V0209999C000012200019N0060001N1+02001+01501100921ADDAA199000091AY101061AY201061GA1001+999999999GF100991001001999999001001KA1120N+01991MD1999999-0071MW1101REMSYN076AAXX  08004 48077 31956 00000 10200 20150 40092 71000 333 20199 56000 59007;EQDQ01  00002PRCP99
0184480770999992000030803004+18800+095220FM-12+0060VBPR V0209999C000012200019N0080001N1+02501+01671101091ADDAA199000091AY101031AY201031GA1001+999999999GF100991001001999999001001MD1999999-0121MW1051REMSYN064AAXX  08034 48077 31958 00000 10250 20167 40109 70500 333 59012;EQDQ01  00002PRCP99
0184480770999992000030806004+18800+095220FM-12+0060VBPR V0202301N000512200019N0100001N1+03401+01251101021ADDAA199000091AY101061AY201061GA1001+999999999GF100991001001999999001001MD1999999-0081MW1051REMSYN064AAXX  08064 48077 32960 02301 10340 20125 40102 70500 333 59008;EQDQ01  00002PRCP99
0190480770999992000030809004+18800+095220FM-12+0060VBPR V0202301N002112200019N0090001N1+03621+01061100811ADDAA199000091AY101031AY201031GA1001+999999999GF100991001001999999001001MD1999999-0171MW1051REMSYN070AAXX  08094 48077 31959 02304 10362 20106 40081 70500 333 56000 59017;EQDQ01  00002PRCP99
0203480770999992000030812004+18800+095220FM-12+0060VBPR V02099999999992200019N0080001N1+03201+01161100591ADDAA199000091AY101061AY201061GA1001+999999999GF100991001001999999001001KA1120M+03721MD1999999-0221MW1051REMSYN070AAXX  08124 48077 31958 03705 10320 20116 40059 70500 333 10372 59022;EQDQ01  00002PRCP99
0203480770999992000030900004+18800+095220FM-12+0060VBPR V0209999C000012200019N0060001N1+01881+01591100861ADDAA199000091AY101061AY201061GA1001+999999999GF100991001001999999001001KA1120N+01821MD1999999-0061MW1101REMSYN070AAXX  09004 48077 31956 00000 10188 20159 40086 71000 333 20182 59006;EQDQ01  00002PRCP99
0156480770999992000030903004+18800+095220FM-12+0060VBPR V0202301N000512200019N0100001N1+02401+01741101021ADDAA199000091GA1001+999999999GF100991001001999999001001MD1999999-0071REMSYN058AAXX  09034 48077 32960 02301 10240 20174 40102 333 59007;EQDQ01  00002PRCP99
0172480770999992000030906004+18800+095220FM-12+0060VBPR V0202301N000512200019N0110001N1+03401+99999101011ADDAA199000091GA1001+999999999GF100991001001999999001001MD1999999-0011REMSYN058AAXX  09064 48077 32961 02301 10340 20288 40101 333 59001;EQDQ01+002883ATOD  Q02  00002PRCP99
0162480770999992000030909004+18800+095220FM-12+0060VBPR V0202601N001012200019N0110001N1+03581+01061100721ADDAA199000091GA1001+999999999GF100991001001999999001001MD1999999+0121REMSYN064AAXX  09094 48077 32961 02602 10358 20106 40072 333 56000 58012;EQDQ01  00002PRCP99
0120480770999992000030912004+18800+095220FM-12+0060VBPR V0202301N000512200019N0080001N1+03201+99999999999ADDAA199000091GA1001+999999999GF100991001001999999001001REMSYN036AAXX  09124 48077 32958 02301 10320;EQDQ01  00002PRCP99
0215480770999992000031000004+18800+095220FM-12+0060VBPR V0209999C000012200019N0060001N1+01961+01501100941ADDAA199000091AY101061AY201061GF102991999001999999031001KA1120N+01921MD1999999+0181MW1101REMSYN082AAXX  10004 48077 31956 20000 10196 20150 40094 71000 80030 333 20192 56090 58018;EQDQ01+000002SCOTLCQ02  00002PRCP99
0152480770999992000031003004+18800+095220FM-12+0060VBPR V0202301N000512200019N0100001N1+02301+01631101181ADDAA199000091GF103991001001999999031011MD1999999+0071REMSYN070AAXX  10034 48077 32960 32301 10230 20163 40118 80031 333 56099 58007;EQDQ01  00002PRCP99
0152480770999992000031006004+18800+095220FM-12+0060VBPR V0202301N000512200019N0110001N1+03301+01511101081ADDAA199000091GF104991031081008001031001MD1999999+0071REMSYN070AAXX  10064 48077 32561 42301 10330 20151 40108 83830 333 56990 58007;EQDQ01  00002PRCP99
0152480770999992000031009004+18800+095220FM-12+0060VBPR V0202301N002112200019N0100001N1+03501+01581100781ADDAA199000091GF104991031081008001031001MD1999999+0061REMSYN070AAXX  10094 48077 32560 42304 10350 20158 40078 83830 333 56990 58006;EQDQ01  00002PRCP99
0171480770999992000031012004+18800+095220FM-12+0060VBPR V0202701N003112200019N0090001N1+03121+01461100751ADDAA199000091GF103991021021008001031001KA1120M+03561MD1999999+0081REMSYN076AAXX  10124 48077 32559 32706 10312 20146 40075 82230 333 10356 56990 58008;EQDQ01  00002PRCP99
0209480770999992000031100004+18800+095220FM-12+0060VBPR V0209999C000012200019N0060001N1+02101+01751100961ADDAA199000091AY101061AY201061GA1001+999999999GF100991001001999999001001KA1120N+02051MD1999999+0021MW1101REMSYN076AAXX  11004 48077 31956 00000 10210 20175 40096 71000 333 20205 56000 58002;EQDQ01  00002PRCP99
0180480770999992000031106004+18800+095220FM-12+0060VBPR V0200401N001012200019N0100001N1+03371+01641101121ADDAA199000091AY101061AY201061GF102991021021008001001001MD1999999+0041MW1051REMSYN076AAXX  11064 48077 31560 20402 10337 20164 40112 70500 82200 333 56900 58004;EQDQ01  00002PRCP99
0180480770999992000031109004+18800+095220FM-12+0060VBPR V0209999C000012200019N0100001N1+03411+01641100781ADDAA199000091AY121031AY221031GF104991041091008001001001MD1999999-0011MW1051REMSYN076AAXX  11094 48077 31560 40000 10341 20164 40078 70522 84900 333 56600 59001;EQDQ01  00002PRCP99
0171480770999992000031112004+18800+095220FM-12+0060VBPR V0202701N003112200019N0080001N1+03101+01691100781ADDAA199000091GF104991041081008001001001KA1120M+03601MD1999999+0031REMSYN076AAXX  11124 48077 32558 42706 10310 20169 40078 84800 333 10360 56900 58003;EQDQ01  00002PRCP99
0181480770999992000031200004+18800+095220FM-12+0060VBPR V0209999C000012200019N0080001N1+02101+01751100941ADDAA199000091GA1001+999999999GF100991001001999999001001KA1120N+02051MD1999999-0021REMSYN070AAXX  12004 48077 32958 00000 10210 20175 40094 333 20205 56000 59002;EQDQ01  00002PRCP99
0146480770999992000031203004+18800+095220FM-12+0060VBPR V0209999C000012200019N0060001N1+02701+01911101071ADDAA199000091GF101991999999999999999999MD1999999-0061REMSYN064AAXX  12034 48077 32956 10000 10270 20191 40107 333 56000 59006;EQDQ01  00002PRCP99
0156480770999992000031206004+18800+095220FM-12+0060VBPR V0209999C000012200019N0110001N1+03301+01511101031ADDAA199000091GA1001+999999999GF100991001001999999001001MD1999999-0101REMSYN058AAXX  12064 48077 32961 00000 10330 20151 40103 333 59010;EQDQ01  00002PRCP99
0162480770999992000031209004+18800+095220FM-12+0060VBPR V0209999C000012200019N0100001N1+03601+01061100661ADDAA199000091GA1001+999999999GF100991001001999999001001MD1999999-0111REMSYN064AAXX  12094 48077 32960 00000 10360 20106 40066 333 56000 59011;EQDQ01  00002PRCP99
0171480770999992000031212004+18800+095220FM-12+0060VBPR V0209999C000010450019N0080001N1+03361+01641100571ADDAA199000091GF105991041081008001031001KA1120M+03671MD1999999-0211REMSYN076AAXX  12124 48077 32558 50000 10336 20164 40057 84830 333 10367 56690 59021;EQDQ01  00002PRCP99
0203480770999992000031300004+18800+095220FM-12+0060VBPR V0200401N000512200019N0080001N1+02201+01851100921ADDAA199000091AY101061AY201061GA1001+999999999GF100991001001999999001001KA1120N+02191MD1999999+0001MW1101REMSYN070AAXX  13004 48077 31958 00401 10220 20185 40092 71000 333 20219 59000;EQDQ01  00002PRCP99
0162480770999992000031303004+18800+095220FM-12+0060VBPR V0202301N000512200019N0100001N1+02601+02151101181ADDAA199000091GA1001+999999999GF100991001001999999001001MD1999999+0111REMSYN064AAXX  13034 48077 32960 02301 10260 20215 40118 333 56000 58011;EQDQ01  00002PRCP99
0199480770999992000031312004+18800+095220FM-12+0060VBPR V0209999C000012200019N0060001N1+03271+01911100721ADDAA199000091AY101061AY201061GF103991021011008001031001KA1120M+03601MD1999999+0101MW1051REMSYN082AAXX  13124 48077 31556 30000 10327 20191 40072 70500 82130 333 10360 56990 58010;EQDQ01  00002PRCP99
0203480770999992000031400004+18800+095220FM-12+0060VBPR V0209999C000012200019N0080001N1+02201+01851101031ADDAA199000091AY101061AY201061GA1001+999999999GF100991001001999999001001KA1120N+02151MD1999999+0111MW1101REMSYN070AAXX  14004 48077 31958 00000 10220 20185 40103 71000 333 20215 58011;EQDQ01  00002PRCP99
0162480770999992000031403004+18800+095220FM-12+0060VBPR V0200401N000512200019N0100001N1+02661+01601101201ADDAA199000091GA1001+999999999GF100991001001999999001001MD1999999+0021REMSYN064AAXX  14034 48077 32960 00401 10266 20160 40120 333 56000 58002;EQDQ01  00002PRCP99
0140480770999992000031406004+18800+095220FM-12+0060VBPR V0203201N000512200019N0110001N1+03401+01451101111ADDAA199000091GF101991999999999999999999MD1999999+0021REMSYN058AAXX  14064 48077 32961 13201 10340 20145 40111 333 58002;EQDQ01  00002PRCP99
0190480770999992000031409004+18800+095220FM-12+0060VBPR V0209999C000012200019N0090001N1+03801+01121100761ADDAA199000091AY101031AY201031GA1001+999999999GF100991001001999999001001MD1999999+0021MW1051REMSYN070AAXX  14094 48077 31959 00000 10380 20112 40076 70500 333 56000 58002;EQDQ01  00002PRCP99
0209480770999992000031412004+18800+095220FM-12+0060VBPR V0202301N002112200019N0080001N1+03401+01641100681ADDAA199000091AY101061AY201061GA1001+999999999GF100991001001999999001001KA1120M+03811MD1999999-0041MW1051REMSYN076AAXX  14124 48077 31958 02304 10340 20164 40068 70500 333 10381 56000 59004;EQDQ01  00002PRCP99
0209480770999992000031500004+18800+095220FM-12+0060VBPR V0209999C000012200019N0080001N1+02201+01851100981ADDAA199000091AY101061AY201061GA1001+999999999GF100991001001999999001001KA1120N+02151MD1999999-0041MW1101REMSYN076AAXX  15004 48077 31958 00000 10220 20185 40098 71000 333 20215 56000 59004;EQDQ01  00002PRCP99
0190480770999992000031503004+18800+095220FM-12+0060VBPR V0209999C000012200019N0100001N1+02601+01791101101ADDAA199000091AY101031AY201031GA1001+999999999GF100991001001999999001001MD1999999-0101MW1051REMSYN070AAXX  15034 48077 31597 00000 10260 20179 40110 70500 333 56000 59010;EQDQ01  00002PRCP99
0184480770999992000031506004+18800+095220FM-12+0060VBPR V0200401N000512200019N0100001N1+03601+01321101041ADDAA199000091AY101061AY201061GA1001+999999999GF100991001001999999001001MD1999999-0061MW1051REMSYN064AAXX  15064 48077 31960 00401 10360 20132 40104 70500 333 59006;EQDQ01  00002PRCP99
0196480770999992000031509004+18800+095220FM-12+0060VBPR V0209999C000012200019N0100001N1+03801+01401100631ADDAA199000091AY101031AY201031GF102991999001999999031001MD1999999-0131MW1051REMSYN076AAXX  15094 48077 31960 20000 10380 20140 40063 70500 80030 333 56090 59013;EQDQ01+000002SCOTLCQ02  00002PRCP99
0203480770999992000031512004+18800+095220FM-12+0060VBPR V0200401N000512200019N0080001N1+03371+00981100591ADDAA199000091AY101061AY201061GA1001+999999999GF100991001001999999001001KA1120M+03821MD1999999-0091MW1051REMSYN070AAXX  15124 48077 31958 00401 10337 20098 40059 70500 333 10382 59009;EQDQ01  00002PRCP99
0175480770999992000031600004+18800+095220FM-12+0060VBPR V0209999C000012200019N0060001N1+02141+01601100851ADDAA199000091GA1001+999999999GF100991001001999999001001KA1120N+02121MD1999999-0131REMSYN064AAXX  16004 48077 32956 00000 10214 20160 40085 333 20212 59013;EQDQ01  00002PRCP99
0156480770999992000031603004+18800+095220FM-12+0060VBPR V0209999C000012200019N0100001N1+02701+01911101071ADDAA199000091GA1001+999999999GF100991001001999999001001MD1999999-0031REMSYN058AAXX  16034 48077 32960 00000 10270 20191 40107 333 59003;EQDQ01  00002PRCP99
0162480770999992000031606004+18800+095220FM-12+0060VBPR V0200401N000512200019N0110001N1+03401+01251101011ADDAA199000091GA1001+999999999GF100991001001999999001001MD1999999-0031REMSYN064AAXX  16064 48077 32961 00401 10340 20125 40101 333 56000 59003;EQDQ01  00002PRCP99
0162480770999992000031609004+18800+095220FM-12+0060VBPR V0202301N001012200019N0100001N1+03801+01401100611ADDAA199000091GA1001+999999999GF100991001001999999001001MD1999999-0021REMSYN064AAXX  16094 48077 32960 02302 10380 20140 40061 333 56000 59002;EQDQ01  00002PRCP99
0175480770999992000031612004+18800+095220FM-12+0060VBPR V0202301N001512200019N0090001N1+03341+01261100581ADDAA199000091GA1001+999999999GF100991001001999999001001KA1120M+03821MD1999999-0011REMSYN064AAXX  16124 48077 32959 02303 10334 20126 40058 333 10382 59001;EQDQ01  00002PRCP99
0203480770999992000031700004+18800+095220FM-12+0060VBPR V0209999C000012200019N0060001N1+02211+01851100791ADDAA199000091AY101061AY201061GA1001+999999999GF100991001001999999001001KA1120N+02181MD1999999-0061MW1101REMSYN070AAXX  17004 48077 31956 00000 10221 20185 40079 71000 333 20218 59006;EQDQ01  00002PRCP99
0184480770999992000031703004+18800+095220FM-12+0060VBPR V0209999C000012200019N0100001N1+02701+02111101071ADDAA199000091AY101031AY201031GA1001+999999999GF100991001001999999001001MD1999999-0011MW1051REMSYN064AAXX  17034 48077 31960 00000 10270 20211 40107 70500 333 59001;EQDQ01  00002PRCP99
0180480770999992000031706004+18800+095220FM-12+0060VBPR V0202701N001012200019N0100001N1+03401+01641100871ADDAA199000091AY101061AY201061GF102991021021008001001001MD1999999-0141MW1051REMSYN076AAXX  17064 48077 31560 22702 10340 20164 40087 70500 82200 333 56600 59014;EQDQ01  00002PRCP99
0203480770999992000031712004+18800+095220FM-12+0060VBPR V0202301N002112200019N0080001N1+03541+01261100551ADDAA199000091AY101061AY201061GA1001+999999999GF100991001001999999001001KA1120M+03721MD1999999-0041MW1051REMSYN070AAXX  17124 48077 31958 02304 10354 20126 40055 70500 333 10372 59004;EQDQ01  00002PRCP99
0181480770999992000031800004+18800+095220FM-12+0060VBPR V0209999C000012200019N0080001N1+02101+01751100821ADDAA199000091GA1001+999999999GF100991001001999999001001KA1120N+02051MD1999999-0251REMSYN070AAXX  18004 48077 32958 00000 10210 20175 40082 333 20205 56000 59025;EQDQ01  00002PRCP99
0156480770999992000031806004+18800+095220FM-12+0060VBPR V0202301N000512200019N0110001N1+03401+01451101001ADDAA199000091GA1001+999999999GF100991001001999999001001MD1999999+0141REMSYN058AAXX  18064 48077 32961 02301 10340 20145 40100 333 58014;EQDQ01  00002PRCP99
0184480770999992000031809004+18800+095220FM-12+0060VBPR V0209999C000012200019N0100001N1+03701+01481100641ADDAA199000091AY101031AY201031GA1001+999999999GF100991001001999999001001MD1999999+0151MW1051REMSYN064AAXX  18094 48077 31960 00000 10370 20148 40064 70500 333 58015;EQDQ01  00002PRCP99
0203480770999992000031812004+18800+095220FM-12+0060VBPR V0209999C000012200019N0090001N1+03321+01261100621ADDAA199000091AY101061AY201061GA1001+999999999GF100991001001999999001001KA1120M+03721MD1999999-0081MW1051REMSYN070AAXX  18124 48077 31959 00000 10332 20126 40062 70500 333 10372 59008;EQDQ01  00002PRCP99
0199480770999992000031900004+18800+095220FM-12+0060VBPR V0209999C000012200019N0060001N1+02101+01201100891ADDAA199000091AY101061AY201061GF103991001001999999001011KA1120N+02081MD1999999+0071MW1101REMSYN082AAXX  19004 48077 31956 30000 10210 20120 40089 71000 80001 333 20208 56009 58007;EQDQ01  00002PRCP99
0190480770999992000031903004+18800+095220FM-12+0060VBPR V0209999C000012200019N0100001N1+02701+01331101141ADDAA199000091AY101031AY201031GA1001+999999999GF100991001001999999001001MD1999999+0061MW1051REMSYN070AAXX  19034 48077 31960 00000 10270 20133 40114 70500 333 56000 58006;EQDQ01  00002PRCP99
0184480770999992000031906004+18800+095220FM-12+0060VBPR V0209999C000012200019N0150001N1+03611+01321101001ADDAA199000091AY101061AY201061GA1001+999999999GF100991001001999999001001MD1999999+0001MW1051REMSYN064AAXX  19064 48077 31965 00000 10361 20132 40100 70500 333 58000;EQDQ01  00002PRCP99
0184480770999992000031909004+18800+095220FM-12+0060VBPR V0209999C000012200019N0110001N1+03911+01541100741ADDAA199000091AY101031AY201031GA1001+999999999GF100991001001999999001001MD1999999+0101MW1051REMSYN064AAXX  19094 48077 31961 00000 10391 20154 40074 70500 333 58010;EQDQ01  00002PRCP99
0193480770999992000031912004+18800+095220FM-12+0060VBPR V0209999C000012200019N0080001N1+03311+01591999999ADDAA199000091AY101061AY201061GF103991001001999999001011KA1120M+03961MD1999999+0011MW1051REMSYN076AAXX  19124 48077 31958 30000 10331 20159 70500 80001 333 10396 56009 58001;EQDQ01  00002PRCP99
0203480770999992000032000004+18800+095220FM-12+0060VBPR V0209999C000012200019N0060001N1+02101+01951100851ADDAA199000091AY101061AY201061GA1001+999999999GF100991001001999999001001KA1120N+01921MD1999999-0041MW1101REMSYN070AAXX  20004 48077 31956 00000 10210 20195 40085 71000 333 20192 59004;EQDQ01  00002PRCP99
0184480770999992000032003004+18800+095220FM-12+0060VBPR V0209999C000012200019N0080001N1+02651+02031101021ADDAA199000091AY101031AY201031GA1001+999999999GF100991001001999999001001MD1999999-0121MW1051REMSYN064AAXX  20034 48077 31958 00000 10265 20203 40102 70500 333 59012;EQDQ01  00002PRCP99
0190480770999992000032006004+18800+095220FM-12+0060VBPR V0203201N000512200019N0020001N1+02401+01641101011ADDAA199000091AY101061AY201061GA1001+999999999GF100991001001999999001001MD1999999+0001MW1051REMSYN070AAXX  20064 48077 31595 03201 10240 20164 40101 70500 333 56000 58000;EQDQ01  00002PRCP99
0203480770999992000032012004+18800+095220FM-12+0060VBPR V0209999C000012200019N0070001N1+03501+01821100591ADDAA199000091AY101061AY201061GA1001+999999999GF100991001001999999001001KA1120M+03771MD1999999-0041MW1051REMSYN070AAXX  20124 48077 31957 00000 10350 20182 40059 70500 333 10377 59004;EQDQ01  00002PRCP99
0184480770999992000032103004+18800+095220FM-12+0060VBPR V0209999C000012200019N0080001N1+02601+02031101111ADDAA199000091AY101031AY201031GA1001+999999999GF100991001001999999001001MD1999999+0091MW1051REMSYN064AAXX  21034 48077 31958 00000 10260 20203 40111 70500 333 58009;EQDQ01  00002PRCP99
0184480770999992000032106004+18800+095220FM-12+0060VBPR V0209999C000012200019N0090001N1+03501+01821101041ADDAA199000091AY101061AY201061GA1001+999999999GF100991001001999999001001MD1999999+0031MW1051REMSYN064AAXX  21064 48077 31959 00000 10350 20182 40104 70500 333 58003;EQDQ01  00002PRCP99
0184480770999992000032109004+18800+095220FM-12+0060VBPR V0202301N000512200019N0100001N1+03901+01541100891ADDAA199000091AY101031AY201031GA1001+999999999GF100991001001999999001001MD1999999+0191MW1051REMSYN064AAXX  21094 48077 31960 02301 10390 20154 40089 70500 333 58019;EQDQ01  00002PRCP99
0209480770999992000032112004+18800+095220FM-12+0060VBPR V0209999C000012200019N0200001N1+03421+01641100651ADDAA199000091AY101061AY201061GA1001+999999999GF100991001001999999001001KA1120M+03901MD1999999+0061MW1051REMSYN076AAXX  21124 48077 31598 00000 10342 20164 40065 70500 333 10390 56000 58006;EQDQ01  00002PRCP99
0203480770999992000032200004+18800+095220FM-12+0060VBPR V0209999C000012200019N0060001N1+02141+01891100901ADDAA199000091AY101061AY201061GA1001+999999999GF100991001001999999001001KA1120N+02121MD1999999-0031MW1101REMSYN070AAXX  22004 48077 31956 00000 10214 20189 40090 71000 333 20212 59003;EQDQ01  00002PRCP99
0184480770999992000032203004+18800+095220FM-12+0060VBPR V0209999C000012200019N0080001N1+02701+01911101061ADDAA199000091AY101031AY201031GA1001+999999999GF100991001001999999001001MD1999999-0041MW1051REMSYN064AAXX  22034 48077 31958 00000 10270 20191 40106 70500 333 59004;EQDQ01  00002PRCP99
0184480770999992000032206004+18800+095220FM-12+0060VBPR V0209999C000012200019N0090001N1+03601+01561100981ADDAA199000091AY101061AY201061GA1001+999999999GF100991001001999999001001MD1999999-0051MW1051REMSYN064AAXX  22064 48077 31959 00000 10360 20156 40098 70500 333 59005;EQDQ01  00002PRCP99
0184480770999992000032209004+18800+095220FM-12+0060VBPR V0209999C000012200019N0060001N1+03941+01541100671ADDAA199000091AY101031AY201031GA1001+999999999GF100991001001999999001001MD1999999-0171MW1051REMSYN064AAXX  22094 48077 31956 00000 10394 20154 40067 70500 333 59017;EQDQ01  00002PRCP99
0203480770999992000032212004+18800+095220FM-12+0060VBPR V0209999C000012200019N0060001N1+03441+01841100611ADDAA199000091AY101061AY201061GA1001+999999999GF100991001001999999001001KA1120M+03941MD1999999-0041MW1051REMSYN070AAXX  22124 48077 31956 00000 10344 20184 40061 70500 333 10394 59004;EQDQ01  00002PRCP99
0187480770999992000032300004+18800+095220FM-12+0060VBPR V0202301N000512200019N0060001N1+02311+01811100931ADDAA199000091AY101061AY201061GF102991999999002501999999KA1120N+02301MD1999999+0031MW1101REMSYN070AAXX  23004 48077 31356 22301 10231 20181 40093 71000 333 20230 58003;EQDQ01  00002PRCP99
0184480770999992000032303004+18800+095220FM-12+0060VBPR V0200401N000512200019N0080001N1+02651+02031101161ADDAA199000091AY101031AY201031GA1001+999999999GF100991001001999999001001MD1999999+0101MW1051REMSYN064AAXX  23034 48077 31958 00401 10265 20203 40116 70500 333 58010;EQDQ01  00002PRCP99
0184480770999992000032306004+18800+095220FM-12+0060VBPR V0202301N000512200019N0090001N1+03601+01561101071ADDAA199000091AY101061AY201061GA1001+999999999GF100991001001999999001001MD1999999+0101MW1051REMSYN064AAXX  23064 48077 31959 02301 10360 20156 40107 70500 333 58010;EQDQ01  00002PRCP99
0215480770999992000032312004+18800+095220FM-12+0060VBPR V0209999C000012200019N0080001N1+03481+01581100671ADDAA199000091AY101061AY201061GF103991999001999999031001KA1120M+04071MD1999999+0071MW1051REMSYN082AAXX  23124 48077 31958 30000 10348 20158 40067 70500 80030 333 10407 56090 58007;EQDQ01+000002SCOTLCQ02  00002PRCP99
0175480770999992000032400004+18800+095220FM-12+0060VBPR V0209999C000012200019N0080001N1+02501+01261101021ADDAA199000091GA1001+999999999GF100991001001999999001001KA1120N+02351MD1999999+0091REMSYN064AAXX  24004 48077 32958 00000 10250 20126 40102 333 20235 58009;EQDQ01  00002PRCP99
0180480770999992000032403004+18800+095220FM-12+0060VBPR V0200401N000512200019N0080001N1+02901+01401101221ADDAA199000091AY101031AY201031GF103991001001999999001031MD1999999-0051MW1051REMSYN076AAXX  24034 48077 31958 30401 10290 20140 40122 70500 80003 333 56090 59005;EQDQ01  00002PRCP99
0205480770999992000032406004+18800+095220FM-12+0060VBPR V0200401N001012200019N0080001N1+03701+99999101231ADDAA199000091AY101061AY201061GA1001+999999999GF100991001001999999001001MA1999999100481MD1999999-0051MW1051REMSYN070AAXX  24064 48077 31958 00402 10370 30048 40123 70500 333 56000 59005;EQDQ01  00002PRCP99
0180480770999992000032409004+18800+095220FM-12+0060VBPR V0209999C000010450019N0080001N1+03901+01771100751ADDAA199000091AY121031AY221031GF108991041081008001031001MD1999999+0071MW1051REMSYN076AAXX  24094 48077 32558 80000 10390 20177 40075 70522 84830 333 56990 58007;EQDQ01  00002PRCP99
0199480770999992000032412004+18800+095220FM-12+0060VBPR V0202301N001010450019N0060001N1+03321+01261100751ADDAA199000091AY121061AY221061GF107991041081008001071001KA1120M+03941MD1999999+0081MW1051REMSYN082AAXX  24124 48077 31556 72302 10332 20126 40075 70522 84870 333 10394 56990 58008;EQDQ01  00002PRCP99
0215480770999992000032500004+18800+095220FM-12+0060VBPR V0209999C000012200019N0060001N1+02451+02091101051ADDAA199000091AY101061AY201061GA1001+999999999GF100991001001999999001001KA1120N+02401MD1999999+0031MW1101REMSYN082AAXX  25004 48077 31956 00000 10245 20209 40105 71000 80030 333 20240 56090 58003;EQDQ01  00002PRCP99
0184480770999992000032503004+18800+095220FM-12+0060VBPR V0209999C000012200019N0090001N1+02871+02201101251ADDAA199000091AY101031AY201031GA1001+999999999GF100991001001999999001001MD1999999+0131MW1051REMSYN064AAXX  25034 48077 31959 00000 10287 20220 40125 70500 333 58013;EQDQ01  00002PRCP99
0190480770999992000032506004+18800+095220FM-12+0060VBPR V0202301N000512200019N0100001N1+03261+02181101131ADDAA199000091AY101061AY201061GA1001+999999999GF100991001001999999001001MD1999999+0101MW1051REMSYN070AAXX  25064 48077 31960 02301 10326 20218 40113 70500 333 56000 58010;EQDQ01  00002PRCP99
0231480770999992000032512004+18800+095220FM-12+0060VBPR V0209999C000010450019N0080001N1+03141+02031999999ADDAA199000091AY121061AY221061GF105991031081008001071001KA1120M+03541MD1999999+0101MW1051REMSYN082AAXX  25124 48077 31558 50000 10314 20203 4085/ 70522 83870 333 10354 56490 58010;EQDQ01+108503APOSLPQ02  00002PRCP99Q03 108503APOSLP
0199480770999992000032600004+18800+095220FM-12+0060VBPR V0209999C000010450019N0060001N1+02561+02151101011ADDAA199000091AY121061AY221061GF106991031081008001031001KA1120N+01241MD1999999-0041MW1101REMSYN082AAXX  26004 48077 31556 60000 10256 20215 40101 71022 83830 333 20124 56990 59004;EQDQ01  00002PRCP99
0180480770999992000032603004+18800+095220FM-12+0060VBPR V0209999C000012200019N0090001N1+03001+02071101241ADDAA199000091AY121031AY221031GF104991021021999999031001MD1999999-0011MW1051REMSYN076AAXX  26034 48077 31959 40000 10300 20207 40124 70522 82230 333 56090 59001;EQDQ01  00002PRCP99
0180480770999992000032606004+18800+095220FM-12+0060VBPR V0202301N001010450019N0090001N1+03301+02241101161ADDAA199000091AY121061AY221061GF105991021081008001031001MD1999999+0031MW1051REMSYN076AAXX  26064 48077 31559 52302 10330 20224 40116 70522 82830 333 56990 58003;EQDQ01  00002PRCP99
0180480770999992000032609004+18800+095220FM-12+0060VBPR V0202301N001010450019N0090001N1+03201+02151100871ADDAA199000091AY121031AY221031GF106991031081008001031001MD1999999+0021MW1051REMSYN076AAXX  26094 48077 31559 62302 10320 20215 40087 70522 83830 333 56990 58002;EQDQ01  00002PRCP99
0199480770999992000032612004+18800+095220FM-12+0060VBPR V0201801N001010450019N0080001N1+03101+02031100891ADDAA199000091AY121061AY221061GF106991021081008001031001KA1120M+03401MD1999999+0041MW1051REMSYN082AAXX  26124 48077 31558 61802 10310 20203 40089 70522 82830 333 10340 56990 58004;EQDQ01  00002PRCP99
0180480770999992000032706004+18800+095220FM-12+0060VBPR V0209999C000010450019N0090001N1+03001+02071101251ADDAA199000091AY101061AY201061GF108991041081008001071001MD1999999+0091MW1051REMSYN076AAXX  27064 48077 31559 80000 10300 20207 40125 70500 84870 333 56490 58009;EQDQ01  00002PRCP99
0180480770999992000032709004+18800+095220FM-12+0060VBPR V0209999C000010450019N0080001N1+03241+02151100951ADDAA199000091AY121031AY221031GF108991041081008001071001MD1999999+0081MW1051REMSYN076AAXX  27094 48077 31558 80000 10324 20215 40095 70522 84870 333 56590 58008;EQDQ01  00002PRCP99
0199480770999992000032712004+18800+095220FM-12+0060VBPR V0209999C000012200019N0060001N1+03001+02231100991ADDAA199000091AY121061AY221061GF103991001001999999031011KA1120M+03261MD1999999+0111MW1051REMSYN082AAXX  27124 48077 31956 30000 10300 20223 40099 70522 80031 333 10326 56099 58011;EQDQ01  00002PRCP99
0199480770999992000032800004+18800+095220FM-12+0060VBPR V0209999C000010450019N0070001N1+02601+02291101031ADDAA199000091AY121061AY221061GF107991041081008001031001KA1120N+02571MD1999999-0201MW1101REMSYN082AAXX  28004 48077 31557 70000 10260 20229 40103 71022 84830 333 20257 56490 59020;EQDQ01  00002PRCP99
0180480770999992000032803004+18800+095220FM-12+0060VBPR V0200401N000510450019N0080001N1+02901+02151101181ADDAA199000091AY111031AY211031GF105991031081008001031001MD1999999-0111MW1051REMSYN076AAXX  28034 48077 31558 50401 10290 20215 40118 70511 83830 333 56990 59011;EQDQ01  00002PRCP99
0180480770999992000032806004+18800+095220FM-12+0060VBPR V0203601N000510450019N0090001N1+03351+02251101141ADDAA199000091AY121061AY221061GF107991031081008001071001MD1999999-0101MW1051REMSYN076AAXX  28064 48077 31559 73601 10335 20225 40114 70522 83870 333 56990 59010;EQDQ01  00002PRCP99
0161480770999992000032809004+18800+095220FM-12+0060VBPR V0202301N003110075019N0070001N1+02901+02151100941ADDAA199000021AY191031AY261031GF108991051091008001071001MD1999999-0011MW1601REMSYN076AAXX  28094 48077 31557 82306 10290 20215 40094 76096 85970 333 56490 59001;
0180480770999992000032812004+18800+095220FM-12+0060VBPR V0209999C000010075019N0070001N1+02701+02111101061ADDAA199000021AY191061AY251061GF108991051091008001071001KA1120M+03501MD1999999+0071MW1501REMSYN082AAXX  28124 48077 31557 80000 10270 20211 40106 75095 85970 333 10350 56590 58007;
0180480770999992000032900004+18800+095220FM-12+0060VBPR V0209999C000010450019N0060001N1+02451+02091101221ADDAA199000021AY151061AY221061GF108991041091008001071001KA1120N+02431MD1999999+0191MW1101REMSYN082AAXX  29004 48077 31556 80000 10245 20209 40122 71052 84970 333 20243 56490 58019;
0161480770999992000032903004+18800+095220FM-12+0060VBPR V0209999C000010450019N0080001N1+02301+02141101441ADDAA199000021AY161031AY251031GF108991041091004501021001MD1999999+0261MW1611REMSYN076AAXX  29034 48077 31458 80000 10230 20214 40144 76165 84920 333 56490 58026;
0150480770999992000032906004+18800+095220FM-12+0060VBPR V0209999C000010450019N0080001N1+02301+02141101441ADDAY151061AY211061GF108991041091004501061001MD1999999+0291MW1051REMSYN076AAXX  29064 48077 21458 80000 10230 20214 40144 70551 84960 333 56490 58029;
0161480770999992000032909004+18800+095220FM-12+0060VBPR V0201301N001010450019N0080001N1+02721+02111101141ADDAA199000021AY151031AY221031GF108991041091008001071001MD1999999+0201MW1021REMSYN076AAXX  29094 48077 31558 81302 10272 20211 40114 70252 84970 333 56499 58020;
0113480770999992000032912004+18800+095220FM-12+0060VBPR V0200401N001019999999N0060001N1+02561+02151101161ADDGF108991999999008001999999REMSYN075AAXX  29124 48077 22556 80402 10256 20215 40116 8470 333 10280 56490 58010;
0199480770999992000033000004+18800+095220FM-12+0060VBPR V0203601N000510450019N0070001N1+02201+02051101281ADDAA199000091AY151061AY221061GF107991041081008001031001KA1120N+02161MD1999999-0061MW1011REMSYN082AAXX  30004 48077 31557 73601 10220 20205 40128 70152 84830 333 20216 56890 59006;EQDQ01  00002PRCP99
0122480770999992000033003004+18800+095220FM-12+0060VBPR V0200401N001010450019N0090001N1+02401+01911101361ADDGF107991041081008001031001MD1999999+0071REMSYN070AAXX  30034 48077 22559 70402 10240 20191 40136 84830 333 56890 58007;
0152480770999992000033006004+18800+095220FM-12+0060VBPR V0200401N001010450019N0100001N1+02851+01841101291ADDAA199000091GF106991031081008001031011MD1999999-0141REMSYN070AAXX  30064 48077 32560 60402 10285 20184 40129 83831 333 56899 59014;EQDQ01  00002PRCP99
0152480770999992000033009004+18800+095220FM-12+0060VBPR V0203201N001010450019N0100001N1+03001+01851101041ADDAA199000091GF107991041091008001031001MD1999999-0101REMSYN070AAXX  30094 48077 32560 73202 10300 20185 40104 84930 333 56690 59010;EQDQ01  00002PRCP99
0171480770999992000033012004+18800+095220FM-12+0060VBPR V0200401N000510450019N0060001N1+02801+02031100941ADDAA199000091GF107991041081008001031001KA1120M+03061MD1999999-0221REMSYN076AAXX  30124 48077 32556 70401 10280 20203 40094 84830 333 10306 56590 59022;EQDQ01  00002PRCP99
0171480770999992000033100004+18800+095220FM-12+0060VBPR V0209999C000019999999N0080001N1+02531+01861101001ADDAA199000091GF107991001001999999031011KA1120N+02301MD1999999-0281REMSYN076AAXX  31004 48077 32958 70000 10253 20186 40100 80031 333 20230 56099 59028;EQDQ01  00002PRCP99
0152480770999992000033103004+18800+095220FM-12+0060VBPR V0203601N000519999999N0100001N1+02601+02031101181ADDAA199000091GF106991001001999999031011MD1999999-0181REMSYN070AAXX  31034 48077 32960 63601 10260 20203 40118 80031 333 56099 59018;EQDQ01  00002PRCP99
0152480770999992000033106004+18800+095220FM-12+0060VBPR V0209999C000011050019N0110001N1+03101+02031101091ADDAA199000091GF105991011021008001031011MD1999999-0201REMSYN070AAXX  31064 48077 32561 50000 10310 20203 40109 81231 333 56999 59020;EQDQ01  00002PRCP99
0152480770999992000033109004+18800+095220FM-12+0060VBPR V0209999C000010450019N0100001N1+03441+02061100651ADDAA199000091GF106991031081008001031011MD1999999-0391REMSYN070AAXX  31094 48077 32560 60000 10344 20206 40065 83831 333 56499 59039;EQDQ01  00002PRCP99
0171480770999992000033112004+18800+095220FM-12+0060VBPR V0209999C000010450019N0080001N1+03261+02241100561ADDAA199000091GF106991031081008001071011KA1120M+03541MD1999999-0381REMSYN076AAXX  31124 48077 32558 60000 10326 20224 40056 83871 333 10354 56699 59038;EQDQ01  00002PRCP99
0171480770999992000040100004+18800+095220FM-12+0060VBPR V0202301N000512200019N0080001N1+02501+02191100781ADDAA199000091GF104991001001999999001011KA1120N+02451MD1999999-0221REMSYN076AAXX  01004 48077 32958 42301 10250 20219 40078 80001 333 20245 56009 59022;EQDQ01  00002PRCP99
0152480770999992000040103004+18800+095220FM-12+0060VBPR V0209999C000012200019N0110001N1+02921+01921100901ADDAA199000091GF103991001001999999001011MD1999999-0291REMSYN070AAXX  01034 48077 32961 30000 10292 20192 40090 80001 333 56009 59029;EQDQ01  00002PRCP99
0152480770999992000040106004+18800+095220FM-12+0060VBPR V0202301N000512200019N0110001N1+03501+02021100781ADDAA199000091GF102991021021008001001001MD1999999-0311REMSYN070AAXX  01064 48077 32561 22301 10350 20202 40078 82200 333 56900 59031;EQDQ01  00002PRCP99
0152480770999992000040109004+18800+095220FM-12+0060VBPR V0201801N002112200019N0110001N1+03661+02071100411ADDAA199000091GF104991031081008001031001MD1999999-0241REMSYN070AAXX  01094 48077 32561 41804 10366 20207 40041 83830 333 56590 59024;EQDQ01  00002PRCP99
0187480770999992000040112004+18800+095220FM-12+0060VBPR V0202301N003612200019N0100001N1+02462+01821100381ADDAA199000091GF103991011021008001001011KA1120M+03761MD1999999-0201REMSYN076AAXX  01124 48077 32560 32307 10246 20182 40038 81201 333 10376 56909 59020;EQDQ01+002463ATOT  Q02  00002PRCP99
0187480770999992000040200004+18800+095220FM-12+0060VBPR V0209999C000012200019N0080001N1+02361+01981100941ADDAA199000091GF103991001001999999001011KA1120M+99999MD1999999-0031REMSYN076AAXX  02004 48077 32958 30000 10236 20198 40094 80001 333 10230 56009 59003;EQDQ01  00002PRCP99Q02 +02302ATMX  
0152480770999992000040203004+18800+095220FM-12+0060VBPR V0209999C000012200019N0100001N1+02851+02031100941ADDAA199000091GF102991001001999999001011MD1999999+0061REMSYN070AAXX  02034 48077 32960 20000 10285 20203 40094 80001 333 56009 58006;EQDQ01  00002PRCP99
0156480770999992000040209004+18800+095220FM-12+0060VBPR V0209999C000012200019N0110001N1+03801+01591100461ADDAA199000091GA1001+999999999GF100991001001999999001001MD1999999+0051REMSYN058AAXX  02094 48077 32961 00000 10380 20159 40046 333 58005;EQDQ01  00002PRCP99
0171480770999992000040212004+18800+095220FM-12+0060VBPR V0202301N002112200019N0080001N1+03401+02061100381ADDAA199000091GF102991001001999999001011KA1120M+03801MD1999999+0021REMSYN076AAXX  02124 48077 32958 22304 10340 20206 40038 80001 333 10380 56009 58002;EQDQ01  00002PRCP99
0171480770999992000040300004+18800+095220FM-12+0060VBPR V0209999C000012200019N0080001N1+02401+02091100831ADDAA199000091GF102991001001999999001011KA1120N+02351MD1999999+0081REMSYN076AAXX  03004 48077 32958 20000 10240 20209 40083 80001 333 20235 56009 58008;EQDQ01  00002PRCP99
0156480770999992000040303004+18800+095220FM-12+0060VBPR V0202301N000512200019N0100001N1+02801+02031101041ADDAA199000091GA1001+999999999GF100991001001999999001001MD1999999+0101REMSYN058AAXX  03034 48077 32960 02301 10280 20203 40104 333 58010;EQDQ01  00002PRCP99
0162480770999992000040306004+18800+095220FM-12+0060VBPR V0201301N000512200019N0050001N1+03401+01841101011ADDAA199000091GA1001+999999999GF100991001001999999001001MD1999999+0161REMSYN064AAXX  03064 48077 31950 01301 10340 20184 40101 333 56000 58016;EQDQ01  00002PRCP99
0162480770999992000040309004+18800+095220FM-12+0060VBPR V0202301N000512200019N0110001N1+03801+01591100571ADDAA199000091GA1001+999999999GF100991001001999999001001MD1999999+0111REMSYN064AAXX  03094 48077 32961 02301 10380 20159 40057 333 56000 58011;EQDQ01  00002PRCP99
0175480770999992000040312004+18800+095220FM-12+0060VBPR V0202301N002112200019N0090001N1+03441+02061100541ADDAA199000091GA1001+999999999GF100991001001999999001001KA1120M+03801MD1999999+0161REMSYN064AAXX  03124 48077 32959 02304 10344 20206 40054 333 10380 58016;EQDQ01  00002PRCP99
0175480770999992000040400004+18800+095220FM-12+0060VBPR V0209999C000012200019N0060001N1+02501+02191100711ADDAA199000091GA1001+999999999GF100991001001999999001001KA1120N+02451MD1999999+0121REMSYN064AAXX  04004 48077 32956 00000 10250 20219 40071 333 20245 58012;EQDQ01  00002PRCP99
0162480770999992000040403004+18800+095220FM-12+0060VBPR V0202301N000512200019N0100001N1+02801+02331100941ADDAA199000091GA1001+999999999GF100991001001999999001001MD1999999-0101REMSYN064AAXX  04034 48077 32560 02301 10280 20233 40094 333 56000 59010;EQDQ01  00002PRCP99
0162480770999992000040406004+18800+095220FM-12+0060VBPR V0202301N000512200019N0110001N1+03401+02061100881ADDAA199000091GA1001+999999999GF100991001001999999001001MD1999999-0131REMSYN064AAXX  04064 48077 32961 02301 10340 20206 40088 333 56000 59013;EQDQ01  00002PRCP99
0162480770999992000040409004+18800+095220FM-12+0060VBPR V0201801N000512200019N0110001N1+03901+02541100401ADDAA199000091GA1001+999999999GF100991001001999999001001MD1999999-0101REMSYN064AAXX  04094 48077 32961 01801 10390 20254 40040 333 56000 59010;EQDQ01  00002PRCP99
0133480770999992000040500004+18800+095220FM-12+0060VBPR V0209999C000019999999N0080001N1+02501+02191100661ADDAA199000091KA1120N+02481MD1999999-0051REMSYN064AAXX  05004 48077 32958 /0000 10250 20219 40066 333 20248 59005;EQDQ01  00002PRCP99
0162480770999992000040503004+18800+095220FM-12+0060VBPR V0200401N000512200019N0100001N1+02801+02201100891ADDAA199000091GA1001+999999999GF100991001001999999001001MD1999999-0051REMSYN064AAXX  05034 48077 32960 00401 10280 20220 40089 333 56000 59005;EQDQ01  00002PRCP99
0156480770999992000040506004+18800+095220FM-12+0060VBPR V0202301N000512200019N0110001N1+03501+02191100841ADDAA199000091GA1001+999999999GF100991001001999999001001MD1999999-0041REMSYN058AAXX  05064 48077 32961 02301 10350 20219 40084 333 59004;EQDQ01  00002PRCP99
0152480770999992000040509004+18800+095220FM-12+0060VBPR V0202201N001512200019N0110001N1+03901+01771100491ADDAA199000091GF103991001001999999001011MD1999999+0021REMSYN070AAXX  05094 48077 32961 32203 10390 20177 40049 80001 333 56009 58002;EQDQ01  00002PRCP99
0171480770999992000040512004+18800+095220FM-12+0060VBPR V0202301N003612200019N0090001N1+03521+01581100361ADDAA199000091GF103991031021008001001001KA1120M+03901MD1999999-0031REMSYN076AAXX  05124 48077 32559 32307 10352 20158 40036 83200 333 10390 56900 59003;EQDQ01  00002PRCP99
0175480770999992000040600004+18800+095220FM-12+0060VBPR V0201801N000512200019N0060001N1+02551+02291100791ADDAA199000091GA1001+999999999GF100991001001999999001001KA1120N+02541MD1999999+0111REMSYN064AAXX  06004 48077 32956 01801 10255 20229 40079 333 20254 58011;EQDQ01  00002PRCP99
0156480770999992000040603004+18800+095220FM-12+0060VBPR V0201801N000512200019N0100001N1+02801+02201100991ADDAA199000091GA1001+999999999GF100991001001999999001001MD1999999+0101REMSYN058AAXX  06034 48077 32960 01801 10280 20220 40099 333 58010;EQDQ01  00002PRCP99
0156480770999992000040606004+18800+095220FM-12+0060VBPR V0203201N000512200019N0110001N1+03341+02241100941ADDAA199000091GA1001+999999999GF100991001001999999001001MD1999999+0101REMSYN058AAXX  06064 48077 32961 03201 10334 20224 40094 333 58010;EQDQ01  00002PRCP99
0156480770999992000040609004+18800+095220FM-12+0060VBPR V0201801N000512200019N0110001N1+03861+01541100581ADDAA199000091GA1001+999999999GF100991001001999999001001MD1999999+0091REMSYN058AAXX  06094 48077 32961 01801 10386 20154 40058 333 58009;EQDQ01  00002PRCP99
0171480770999992000040612004+18800+095220FM-12+0060VBPR V0202301N001519999999N0080001N1+03601+01771100501ADDAA199000091GF106991001001999999001061KA1120M+03861MD1999999+0151REMSYN076AAXX  06124 48077 32958 62303 10360 20177 40050 80006 333 10386 56009 58015;EQDQ01  00002PRCP99
0171480770999992000040700004+18800+095220FM-12+0060VBPR V0202301N000512200019N0080001N1+02541+02191100931ADDAA199000091GF102991001001999999001011KA1120N+02521MD1999999+0141REMSYN076AAXX  07004 48077 32958 22301 10254 20219 40093 80001 333 20252 56009 58014;EQDQ01  00002PRCP99
0140480770999992000040703004+18800+095220FM-12+0060VBPR V0200201N015412200019N0100001N1+02801+02201101301ADDAA199000091GF101991999999999999999999MD1999999+0311REMSYN058AAXX  07034 48077 32960 10230 10280 20220 40130 333 58031;EQDQ01  00002PRCP99
0168480770999992000040709004+18800+095220FM-12+0060VBPR V0209999C000012200019N0110001N1+03801+01871100801ADDAA199000091GF102991999001999999031001MD1999999+0211REMSYN070AAXX  07094 48077 32961 20000 10380 20187 40080 80030 333 56090 58021;EQDQ01+000002SCOTLCQ02  00002PRCP99
0171480770999992000040712004+18800+095220FM-12+0060VBPR V0202301N001512200019N0090001N1+03501+01821100751ADDAA199000091GF102991001001999999001011KA1120M+03811MD1999999+0201REMSYN076AAXX  07124 48077 32959 22303 10350 20182 40075 80001 333 10381 56009 58020;EQDQ01  00002PRCP99
0171480770999992000040800004+18800+095220FM-12+0060VBPR V0209999C000019999999N0080001N1+02401+02091100831ADDAA199000091GF105991001001999999001061KA1120N+02371MD1999999-0101REMSYN076AAXX  08004 48077 32958 50000 10240 20209 40083 80006 333 20237 56009 59010;EQDQ01  00002PRCP99
0190480770999992000040803004+18800+095220FM-12+0060VBPR V0202301N001012200019N0100001N1+02881+02151101091ADDAA199000091AY101031AY201031GA1001+999999999GF100991001001999999001001MD1999999-0211MW1051REMSYN070AAXX  08034 48077 31960 02302 10288 20215 40109 70500 333 56000 59021;EQDQ01  00002PRCP99
0190480770999992000040806004+18800+095220FM-12+0060VBPR V0209999C000012200019N0100001N1+03601+01771100831ADDAA199000091AY101061AY201061GA1001+999999999GF100991001001999999001001MD1999999-0231MW1051REMSYN070AAXX  08064 48077 31960 00000 10360 20177 40083 70500 333 56000 59023;EQDQ01  00002PRCP99
0190480770999992000040809004+18800+095220FM-12+0060VBPR V0209999C000012200019N0100001N1+04021+01201100511ADDAA199000091AY101031AY201031GA1001+999999999GF100991001001999999001001MD1999999-0291MW1051REMSYN070AAXX  08094 48077 31960 00000 10402 20120 40051 70500 333 56000 59029;EQDQ01  00002PRCP99
0209480770999992000040812004+18800+095220FM-12+0060VBPR V0202701N001512200019N0080001N1+03641+01561100491ADDAA199000091AY101061AY201061GA1001+999999999GF100991001001999999001001KA1120M+04021MD1999999-0231MW1051REMSYN076AAXX  08124 48077 31958 02703 10364 20156 40049 70500 333 10402 56000 59023;EQDQ01  00002PRCP99
0156480770999992000040903004+18800+095220FM-12+0060VBPR V0202301N000512200019N0110001N1+02821+02031100831ADDAA199000091GA1001+999999999GF100991001001999999001001MD1999999-0061REMSYN058AAXX  09034 48077 32961 02301 10282 20203 40083 333 59006;EQDQ01  00002PRCP99
0184480770999992000040909004+18800+095220FM-12+0060VBPR V0202301N000512200019N0100001N1+03901+01981100441ADDAA199000091AY101031AY201031GA1001+999999999GF100991001001999999001001MD1999999-0061MW1051REMSYN064AAXX  09094 48077 31960 02301 10390 20198 40044 70500 333 59006;EQDQ01  00002PRCP99
0231480770999992000040912004+18800+095220FM-12+0060VBPR V0200301N000512200019N0080001N1+03701+02071100221ADDAA199000091AY101061AY201061GA1001+999999999GF100991001001999999001001KA1120M+99999MD1999999-0181MW1051REMSYN082AAXX  09124 48077 31958 00301 10370 20207 40022 70500 80001 333 10358 56009 59018;EQDQ01  00002PRCP99Q02 +03582ATMX  
0199480770999992000041000004+18800+095220FM-12+0060VBPR V0209999C000012200019N0080001N1+02601+02291100701ADDAA199000091AY101061AY201061GF102991001001999999001011KA1120N+02551MD1999999+0031MW1051REMSYN082AAXX  10004 48077 31958 20000 10260 20229 40070 70500 80001 333 20255 56009 58003;EQDQ01  00002PRCP99
0146480770999992000041003004+18800+095220FM-12+0060VBPR V0202301N000519999999N0100001N1+02851+02331100891ADDAA199000091GF107991999999999999999999MD1999999+0021REMSYN064AAXX  10034 48077 32960 72301 10285 20233 40089 333 56000 58002;EQDQ01  00002PRCP99
0162480770999992000041006004+18800+095220FM-12+0060VBPR V0201801N000512200019N0110001N1+03501+02371100821ADDAA199000091GA1001+999999999GF100991001001999999001001MD1999999+0051REMSYN064AAXX  10064 48077 31961 01801 10350 20237 40082 333 56000 58005;EQDQ01  00002PRCP99
0199480770999992000041012004+18800+095220FM-12+0060VBPR V0209999C000010450019N0080001N1+03471+02371100341ADDAA199000091AY121061AY221061GF106991041091008001071001KA1120M+03851MD1999999-0031MW1051REMSYN082AAXX  10124 48077 31558 60000 10347 20237 40034 70522 84970 333 10385 56990 59003;EQDQ01  00002PRCP99
0171480770999992000041100004+18800+095220FM-12+0060VBPR V0202301N001012200019N0080001N1+02701+02401100731ADDAA199000091GF104991001001999999031011KA1120N+02651MD1999999+0061REMSYN076AAXX  11004 48077 32958 42302 10270 20240 40073 80031 333 20265 56099 58006;EQDQ01  00002PRCP99
0174480770999992000041103004+18800+095220FM-12+0060VBPR V0202301N001011050019N0090001N1+02901+02481100951ADDAA199000091AY121031AY221031GF105991011021008001031011MD1999999+0061MW1051REMSYN070AAXX  11034 48077 31559 52302 10290 20248 40095 70522 81231 333 58006;EQDQ01  00002PRCP99
0196480770999992000041106004+18800+095220FM-12+0060VBPR V0202301N001012200019N0100001N1+03401+02401100881ADDAA199000091AY121061AY221061GF104991999001999999031001MD1999999+0071MW1051REMSYN076AAXX  11064 48077 31960 42302 10340 20240 40088 70522 80030 333 56090 58007;EQDQ01+000002SCOTLCQ02  00002PRCP99
0171480770999992000041200004+18800+095220FM-12+0060VBPR V0209999C000012200019N0080001N1+02621+02151100941ADDAA199000091GF104991001001999999031011KA1120N+02591MD1999999+0211REMSYN076AAXX  12004 48077 32958 40000 10262 20215 40094 80031 333 20259 56099 58021;EQDQ01  00002PRCP99
0152480770999992000041203004+18800+095220FM-12+0060VBPR V0202301N000512200019N0100001N1+03001+02231101031ADDAA199000091GF104991001001999999031011MD1999999+0071REMSYN070AAXX  12034 48077 32960 42301 10300 20223 40103 80031 333 56099 58007;EQDQ01  00002PRCP99
0152480770999992000041206004+18800+095220FM-12+0060VBPR V0202301N000510450019N0110001N1+03501+02021100921ADDAA199000091GF105991031081008001031001MD1999999+0041REMSYN070AAXX  12064 48077 32561 52301 10350 20202 40092 83830 333 56590 58004;EQDQ01  00002PRCP99
0180480770999992000041209004+18800+095220FM-12+0060VBPR V0209999C000010450019N0090001N1+03701+02271100591ADDAA199000091AY121031AY221031GF106991041081008001031001MD1999999+0081MW1051REMSYN076AAXX  12094 48077 31559 60000 10370 20227 40059 70522 84830 333 56690 58008;EQDQ01  00002PRCP99
0171480770999992000041212004+18800+095220FM-12+0060VBPR V0202301N002119999999N0080001N1+02921+02151100601ADDAA199000091GF107991001001999999001011KA1120M+03751MD1999999+0081REMSYN076AAXX  12124 48077 32958 72304 10292 20215 40060 80001 333 10375 56009 58008;EQDQ01  00002PRCP99
0199480770999992000041300004+18800+095220FM-12+0060VBPR V0209999C000019999999N0080001N1+02401+02261100641ADDAA199000091AY121061AY221061GF105991001001999999031011KA1120N+02401MD1999999-0301MW1051REMSYN082AAXX  13004 48077 31958 50000 10240 20226 40064 70522 80031 333 20240 56099 59030;EQDQ01  00002PRCP99
0184480770999992000041303004+18800+095220FM-12+0060VBPR V0203201N000512200019N0090001N1+02751+02331100871ADDAA199000091AY101031AY201031GA1001+999999999GF100991001001999999001001MD1999999-0191MW1051REMSYN064AAXX  13034 48077 31959 03201 10275 20233 40087 70500 333 59019;EQDQ01  00002PRCP99
0156480770999992000041306004+18800+095220FM-12+0060VBPR V0202301N000512200019N0110001N1+03321+02121100761ADDAA199000091GA1001+999999999GF100991001001999999001001MD1999999-0161REMSYN058AAXX  13064 48077 32961 02301 10332 20212 40076 333 59016;EQDQ01  00002PRCP99
0152480770999992000041309004+18800+095220FM-12+0060VBPR V0202301N001012200019N0110001N1+03701+01901100351ADDAA199000091GF103991021021008001031001MD1999999-0241REMSYN070AAXX  13094 48077 32561 32302 10370 20190 40035 82230 333 56990 59024;EQDQ01  00002PRCP99
0199480770999992000041312004+18800+095220FM-12+0060VBPR V0202301N002610450019N0090001N1+03341+01911100251ADDAA199000091AY191061AY251061GF107991041081008001031001KA1120M+03701MD1999999-0341MW1171REMSYN082AAXX  13124 48077 31559 72305 10334 20191 40025 71795 84830 333 10370 56590 59034;EQDQ01  00002PRCP99
0156480770999992000041403004+18800+095220FM-12+0060VBPR V0209999C000012200019N0110001N1+03041+02391100691ADDAA199000091GA1001+999999999GF100991001001999999001001MD1999999-0151REMSYN058AAXX  14034 48077 32961 00000 10304 20239 40069 333 59015;EQDQ01  00002PRCP99
0152480770999992000041406004+18800+095220FM-12+0060VBPR V0201801N000512200019N0110001N1+03401+02061100571ADDAA199000091GF102991021091008001001001MD1999999-0191REMSYN070AAXX  14064 48077 32561 21801 10340 20206 40057 82900 333 56900 59019;EQDQ01  00002PRCP99
0152480770999992000041409004+18800+095220FM-12+0060VBPR V0202701N002610450019N0110001N1+03401+02061100261ADDAA199000091GF107991041081008001031001MD1999999-0091REMSYN070AAXX  14094 48077 32561 72705 10340 20206 40026 84830 333 56990 59009;EQDQ01  00002PRCP99
0171480770999992000041500004+18800+095220FM-12+0060VBPR V0209999C000019999999N0080001N1+02501+02191100671ADDAA199000091GF107991001001999999031011KA1120N+02451MD1999999+0101REMSYN076AAXX  15004 48077 32958 70000 10250 20219 40067 80031 333 20245 56099 58010;EQDQ01  00002PRCP99
0156480770999992000041503004+18800+095220FM-12+0060VBPR V0209999C000012200019N0110001N1+02961+02391100861ADDAA199000091GA1001+999999999GF100991001001999999001001MD1999999+0171REMSYN058AAXX  15034 48077 32961 00000 10296 20239 40086 333 58017;EQDQ01  00002PRCP99
0156480770999992000041506004+18800+095220FM-12+0060VBPR V0202301N000512200019N0130001N1+03501+02021100821ADDAA199000091GA1001+999999999GF100991001001999999001001MD1999999+0241REMSYN058AAXX  15064 48077 32963 02301 10350 20202 40082 333 58024;EQDQ01  00002PRCP99
0156480770999992000041509004+18800+095220FM-12+0060VBPR V0202301N000512200019N0100001N1+03741+01901100481ADDAA199000091GA1001+999999999GF100991001001999999001001MD1999999+0181REMSYN058AAXX  15094 48077 32960 02301 10374 20190 40048 333 58018;EQDQ01  00002PRCP99
0171480770999992000041512004+18800+095220FM-12+0060VBPR V0209999C000012200019N0080001N1+03401+02061100291ADDAA199000091GF102991001001999999031011KA1120M+03741MD1999999+0101REMSYN076AAXX  15124 48077 32958 20000 10340 20206 40029 80031 333 10374 56099 58010;EQDQ01  00002PRCP99
0171480770999992000041600004+18800+095220FM-12+0060VBPR V0200901N000519999999N0060001N1+02541+02051100811ADDAA199000091GF107991001001999999001011KA1120N+02511MD1999999+0141REMSYN076AAXX  16004 48077 32956 70901 10254 20205 40081 80001 333 20251 56009 58014;EQDQ01  00002PRCP99
0180480770999992000041606004+18800+095220FM-12+0060VBPR V0202301N000512200019N0150001N1+03551+02141100841ADDAA199000091AY121061AY221061GF107991011091008001001011MD1999999+0021MW1051REMSYN076AAXX  16064 48077 31565 72301 10355 20214 40084 70522 81901 333 56909 58002;EQDQ01  00002PRCP99
0180480770999992000041609004+18800+095220FM-12+0060VBPR V0209999C000012200019N0110001N1+03781+01591100431ADDAA199000091AY111031AY211031GF103991021091008001001011MD1999999+0001MW1051REMSYN076AAXX  16094 48077 31561 30000 10378 20159 40043 70511 82901 333 56909 58000;EQDQ01  00002PRCP99
0187480770999992000041612004+18800+095220FM-12+0060VBPR V0202301N002619999999N0080001N1+03421+01801100371ADDAA199000091GF107991999001004501031011KA1120M+03781MD1999999+0081REMSYN076AAXX  16124 48077 32458 72305 10342 20180 40037 80031 333 10378 56099 58008;EQDQ01+000002SCOTLCQ02  00002PRCP99
0171480770999992000041700004+18800+095220FM-12+0060VBPR V0200901N000512200019N0080001N1+02661+02401100811ADDAA199000091GF107991031081008001001011KA1120N+02631MD1999999+0001REMSYN076AAXX  17004 48077 32558 70901 10266 20240 40081 83801 333 20263 56409 58000;EQDQ01  00002PRCP99
0180480770999992000041703004+18800+095220FM-12+0060VBPR V0202301N001019999999N0090001N1+02901+02301100941ADDAA199000091AY121031AY221031GF105991001001999999031011MD1999999+0041MW1051REMSYN076AAXX  17034 48077 31959 52302 10290 20230 40094 70522 80031 333 56299 58004;EQDQ01  00002PRCP99
0152480770999992000041706004+18800+095220FM-12+0060VBPR V0201801N000519999999N0110001N1+03501+02151100861ADDAA199000091GF106991001001999999031011MD1999999+0021REMSYN070AAXX  17064 48077 32961 61801 10350 20215 40086 80031 333 56099 58002;EQDQ01  00002PRCP99
0152480770999992000041709004+18800+095220FM-12+0060VBPR V0202301N000512200019N0110001N1+03791+01871100451ADDAA199000091GF106991031081008001001011MD1999999+0011REMSYN070AAXX  17094 48077 32561 62301 10379 20187 40045 83801 333 56909 58001;EQDQ01  00002PRCP99
0171480770999992000041712004+18800+095220FM-12+0060VBPR V0202301N002110450019N0090001N1+03141+02301100441ADDAA199000091GF108991021081008001031011KA1120M+03791MD1999999+0071REMSYN076AAXX  17124 48077 32559 82304 10314 2023/ 40044 82831 333 10379 56999 58007;EQDQ01  00002PRCP99
0209480770999992000041800004+18800+095220FM-12+0060VBPR V0209999C000012200019N0080001N1+02621+02481100921ADDAA199000091AY101061AY201061GA1001+999999999GF100991001001999999001001KA1120N+02601MD1999999+0111MW1051REMSYN076AAXX  18004 48077 31958 00000 10262 20248 40092 70500 333 20260 56000 58011;EQDQ01  00002PRCP99
0152480770999992000041803004+18800+095220FM-12+0060VBPR V0201801N000512200019N0100001N1+03001+02391101081ADDAA199000091GF103991011021008001001011MD1999999+0131REMSYN070AAXX  18034 48077 32560 31801 10300 20239 40108 81201 333 56909 58013;EQDQ01  00002PRCP99
0152480770999992000041806004+18800+095220FM-12+0060VBPR V0202301N000512200019N0110001N1+03501+02191101031ADDAA199000091GF103991031021008001001001MD1999999+0171REMSYN070AAXX  18064 48077 32561 32301 10350 20219 40103 83200 333 56900 58017;EQDQ01  00002PRCP99
0180480770999992000041809004+18800+095220FM-12+0060VBPR V0202301N001510450019N0110001N1+03711+01901100651ADDAA199000091AY121031AY221031GF106991021091008001071011MD1999999+0201MW1051REMSYN076AAXX  18094 48077 31561 62303 10371 20190 40065 70522 82971 333 56999 58020;EQDQ01  00002PRCP99
0199480770999992000041812004+18800+095220FM-12+0060VBPR V0201801N001010450019N0080001N1+03251+02361100721ADDAA199000091AY121061AY221061GF108991011041008001071011KA1120M+03741MD1999999+0281MW1051REMSYN082AAXX  18124 48077 31558 81802 10325 20236 40072 70522 81471 333 10374 56999 58028;EQDQ01  00002PRCP99
0171480770999992000041900004+18800+095220FM-12+0060VBPR V0201801N000512200019N0080001N1+02841+02291100861ADDAA199000091GF102991001001999999001011KA1120N+02811MD1999999-0061REMSYN076AAXX  19004 48077 32958 21801 10284 20229 40086 80001 333 20281 56009 59006;EQDQ01  00002PRCP99
0156480770999992000041903004+18800+095220FM-12+0060VBPR V0202301N000512200019N0100001N1+03001+02391101061ADDAA199000091GA1001+999999999GF100991001001999999001001MD1999999-0011REMSYN058AAXX  19034 48077 32960 02301 10300 20239 40106 333 59001;EQDQ01  00002PRCP99
0180480770999992000042109004+18800+095220FM-12+0060VBPR V0202301N001012200019N0100001N1+03901+01961100441ADDAA199000091AY121031AY221031GF104991021021008001001011MD1999999+0071MW1051REMSYN076AAXX  21094 48077 31560 42302 10390 20196 40044 70522 82201 333 56909 58007;EQDQ01  00002PRCP99
0199480770999992000042112004+18800+095220FM-12+0060VBPR V0202701N001012200019N0090001N1+03561+02351100681ADDAA199000091AY121061AY221061GF104991001001999999031011KA1120M+03901MD1999999-0091MW1051REMSYN082AAXX  21124 48077 31959 42702 10356 20235 40068 70522 80031 333 10390 56099 59009;EQDQ01  00002PRCP99
0209480770999992000042200004+18800+095220FM-12+0060VBPR V0209999C000012200019N0080001N1+02731+02401100701ADDAA199000091AY101061AY201061GA1001+999999999GF100991001001999999001001KA1120N+02701MD1999999+0071MW1051REMSYN076AAXX  22004 48077 31958 00000 10273 20240 40070 70500 333 20270 56000 58007;EQDQ01  00002PRCP99
0190480770999992000042203004+18800+095220FM-12+0060VBPR V0209999C000012200019N0070001N1+03101+02541100871ADDAA199000091AY101031AY201031GA1001+999999999GF100991001001999999001001MD1999999+0181MW1051REMSYN070AAXX  22034 48077 31557 00000 10310 20254 40087 70500 333 56000 58018;EQDQ01  00002PRCP99
0184480770999992000042206004+18800+095220FM-12+0060VBPR V0202301N000512200019N0100001N1+03551+02491100821ADDAA199000091AY101061AY201061GA1001+999999999GF100991001001999999001001MD1999999+0051MW1051REMSYN064AAXX  22064 48077 31960 02301 10355 20249 40082 70500 333 58005;EQDQ01  00002PRCP99
0171480770999992000042300004+18800+095220FM-12+0060VBPR V0209999C000019999999N0090001N1+02701+02401100721ADDAA199000091GF106991001001999999031011KA1120N+02651MD1999999+0021REMSYN076AAXX  23004 48077 32959 60000 10270 20240 40072 80031 333 20265 56099 58002;EQDQ01  00002PRCP99
0156480770999992000042303004+18800+095220FM-12+0060VBPR V0202301N001012200019N0110001N1+03071+02071100861ADDAA199000091GA1001+999999999GF100991001001999999001001MD1999999-0011REMSYN058AAXX  23034 48077 32961 02302 10307 20207 40086 333 59001;EQDQ01  00002PRCP99
0156480770999992000042306004+18800+095220FM-12+0060VBPR V0202301N002612200019N0110001N1+03601+02141100821ADDAA199000091GA1001+999999999GF100991001001999999001001MD1999999+0001REMSYN058AAXX  23064 48077 32961 02305 10360 20214 40082 333 58000;EQDQ01  00002PRCP99
0152480770999992000042309004+18800+095220FM-12+0060VBPR V0202301N002112200019N0100001N1+03831+02211100451ADDAA199000091GF103991021021008001031001MD1999999+0071REMSYN070AAXX  23094 48077 32560 32304 10383 20221 40045 82230 333 56990 58007;EQDQ01  00002PRCP99
0199480770999992000042312004+18800+095220FM-12+0060VBPR V0202301N000512200019N0100001N1+03301+02121100401ADDAA199000091AY191061AY221061GF103991031031008001001011KA1120M+03831MD1999999+0051MW1171REMSYN082AAXX  23124 48077 31560 32301 10330 20212 40040 71792 83301 333 10383 56990 58005;EQDQ01  00002PRCP99
0171480770999992000042400004+18800+095220FM-12+0060VBPR V0209999C000019999999N0080001N1+02671+02561100761ADDAA199000091GF108991001001999999001011KA1120N+02611MD1999999+0031REMSYN076AAXX  24004 48077 32958 80000 10267 20256 40076 80001 333 20261 56009 58003;EQDQ01  00002PRCP99
0156480770999992000042403004+18800+095220FM-12+0060VBPR V0200401N000512200019N0100001N1+03001+02331100881ADDAA199000091GA1001+999999999GF100991001001999999001001MD1999999+0021REMSYN058AAXX  24034 48077 32960 00401 10300 20233 40088 333 58002;EQDQ01  00002PRCP99
0156480770999992000042406004+18800+095220FM-12+0060VBPR V0202301N000512200019N0110001N1+03501+02191100841ADDAA199000091GA1001+999999999GF100991001001999999001001MD1999999+0021REMSYN058AAXX  24064 48077 32961 02301 10350 20219 40084 333 58002;EQDQ01  00002PRCP99
0171480770999992000042500004+18800+095220FM-12+0060VBPR V0209999C000012200019N0090001N1+02621+02291100691ADDAA199000091GF103991001001999999031011KA1120N+02601MD1999999-0041REMSYN076AAXX  25004 48077 32959 30000 10262 20229 40069 80031 333 20260 56099 59004;EQDQ01  00002PRCP99
0180480770999992000042503004+18800+095220FM-12+0060VBPR V0209999C000010450019N0090001N1+03001+02231100961ADDAA199000091AY121031AY221031GF107991041081008001031001MD1999999-0101MW1051REMSYN076AAXX  25034 48077 31559 70000 10300 20223 40096 70522 84830 333 56990 59010;EQDQ01  00002PRCP99
0152480770999992000042506004+18800+095220FM-12+0060VBPR V0202301N000519999999N0100001N1+03451+02251100771ADDAA199000091GF105991001001999999031011MD1999999-0071REMSYN070AAXX  25064 48077 32960 52301 10345 20225 40077 80031 333 56099 59007;EQDQ01  00002PRCP99
0171480770999992000042512004+18800+095220FM-12+0060VBPR V0209999C000010450019N0090001N1+03501+02021100271ADDAA199000091GF105991031091008001031001KA1120M+03751MD1999999-0111REMSYN076AAXX  25124 48077 32559 50000 10350 20202 40027 83930 333 10375 56990 59011;EQDQ01  00002PRCP99
0171480770999992000042600004+18800+095220FM-12+0060VBPR V0209999C000010450019N0080001N1+02801+02501100551ADDAA199000091GF105991021021008001031001KA1120N+02061MD1999999-0181REMSYN076AAXX  26004 48077 32558 50000 10280 20250 40055 82230 333 20206 56690 59018;EQDQ01  00002PRCP99
0152480770999992000042603004+18800+095220FM-12+0060VBPR V0201801N000512200019N0100001N1+03101+02371100681ADDAA199000091GF104991001001999999031011MD1999999-0091REMSYN070AAXX  26034 48077 32960 41801 10310 20237 40068 80031 333 56099 59009;EQDQ01  00002PRCP99
0180480770999992000042606004+18800+095220FM-12+0060VBPR V0201801N000510450019N0090001N1+03451+02251100661ADDAA199000091AY121061AY221061GF106991031081008001031001MD1999999-0111MW1051REMSYN076AAXX  26064 48077 31559 61801 10345 20225 40066 70522 83830 333 56690 59011;EQDQ01  00002PRCP99
0199480770999992000042612004+18800+095220FM-12+0060VBPR V0201801N004110450019N0060001N1+03221+02151100421ADDAA199000091AY121061AY221061GF108991041091004501071001KA1120M+03651MD1999999+0151MW1051REMSYN082AAXX  26124 48077 31456 81808 10322 20215 40042 70522 84970 333 10365 56490 58015;EQDQ01  00002PRCP99
0169480770999992000042700004+18800+095220FM-12+0060VBPR V0202301N000512200019N0090001N1+02601+02461100701ADDAY191061AY261061GF105991041081008001001011KA1120N+02401MD1999999+0181MW1011REMSYN082AAXX  27004 48077 21559 52301 10260 20246 40070 70196 84801 333 20240 56409 58018;
0141480770999992000042703004+18800+095220FM-12+0060VBPR V0202301N000512200019N0100001N1+02901+02591100781ADDGF103991999081008001001001MD1999999+0101REMSYN070AAXX  27034 48077 22560 32301 10290 20259 40078 82800 333 56400 58010;EQDQ01+000022SCOTLC
0152480770999992000050109004+18800+095220FM-12+0060VBPR V0202301N001012200019N0110001N1+03641+02351100681ADDAA199000091GF104991031081008001001011MD1999999-0031REMSYN070AAXX  01094 48077 32561 42302 10364 20235 40068 83801 333 56409 59003;EQDQ01  00002PRCP99
0171480770999992000050112004+18800+095220FM-12+0060VBPR V0202301N003610075019N0090001N1+02931+02151100601ADDAA199000091GF107991051091008001071001KA1120M+03651MD1999999-0111REMSYN076AAXX  01124 48077 32559 72307 10293 20215 40060 85970 333 10365 56490 59011;EQDQ01  00002PRCP99
0152480770999992000050203004+18800+095220FM-12+0060VBPR V0202301N000510090019N0100001N1+02981+02391101131ADDAA199000091GF106991051081004501001011MD1999999+0081REMSYN070AAXX  02034 48077 32460 62301 10298 20239 40113 85801 333 56409 58008;EQDQ01  00002PRCP99
0152480770999992000050206004+18800+095220FM-12+0060VBPR V0202301N000512200019N0110001N1+03371+02571101091ADDAA199000091GF106991041091008001001011MD1999999+0081REMSYN070AAXX  02064 48077 32561 62301 10337 20257 40109 84901 333 56509 58008;EQDQ01  00002PRCP99
0180480770999992000050209004+18800+095220FM-12+0060VBPR V0209999C000010042019N0090001N1+03601+02491100771ADDAA199000091AY191031AY281031GF108991051091004501071001MD1999999+0041MW1171REMSYN076AAXX  02094 48077 31459 80000 10360 20249 40077 71798 85970 333 56690 58004;EQDQ01  00002PRCP99
0199480770999992000050212004+18800+095220FM-12+0060VBPR V0209999C000010450019N0080001N1+02811+02331100891ADDAA199000091AY191061AY251061GF108991041091008001071001KA1120M+03621MD1999999+0291MW1171REMSYN082AAXX  02124 48077 31558 80000 10281 20233 40089 71795 84970 333 10362 56590 58029;EQDQ01  00002PRCP99
0152480770999992000050306004+18800+095220FM-12+0060VBPR V0209999C000010075019N0090001N1+03151+02481101191ADDAA199000091GF108991051091008001071001MD1999999+0111REMSYN070AAXX  03064 48077 32559 80000 10315 20248 40119 85970 333 56590 58011;EQDQ01  00002PRCP99
0152480770999992000050309004+18800+095220FM-12+0060VBPR V0203201N001010450019N0110001N1+03301+02241100771ADDAA199000091GF105991021021008001031001MD1999999+0001REMSYN070AAXX  03094 48077 32561 53202 10330 20224 40077 82230 333 56490 58000;EQDQ01  00002PRCP99
0171480770999992000050312004+18800+095220FM-12+0060VBPR V0202301N001019999999N0090001N1+03201+02361100711ADDAA199000091GF105991001001999999031011KA1120M+03321MD1999999-0181REMSYN076AAXX  03124 48077 32959 52302 10320 20236 40071 80031 333 10332 56099 59018;EQDQ01  00002PRCP99
0152480770999992000050403004+18800+095220FM-12+0060VBPR V0202301N000510450019N0090001N1+02801+02331101101ADDAA199000091GF108991041081004501031001MD1999999-0141REMSYN070AAXX  04034 48077 32459 82301 10280 20233 40110 84830 333 56490 59014;EQDQ01  00002PRCP99
0152480770999992000050406004+18800+095220FM-12+0060VBPR V0202301N000510450019N0100001N1+03251+02441101061ADDAA199000091GF106991031081008001031011MD1999999-0141REMSYN070AAXX  04064 48077 32560 62301 10325 20244 40106 83831 333 56499 59014;EQDQ01  00002PRCP99
0161480770999992000050409004+18800+095220FM-12+0060VBPR V0202301N001010075019N0100001N1+03601+02361100781ADDAA199000021AY151031AY221031GF107991051091008001031001MD1999999+0011MW1201REMSYN076AAXX  04094 48077 31560 72302 10360 20236 40078 72052 85930 333 5649/ 58001;
0180480770999992000050412004+18800+095220FM-12+0060VBPR V0209999C000010450019N0080001N1+03001+02231100721ADDAA199000021AY151061AY221061GF107991031091008001071001KA1120M+03241MD1999999+0021MW1021REMSYN082AAXX  04124 48077 31558 70000 10300 20223 40072 70252 83970 333 10324 56590 58002;
0157480770999992000050500004+18800+095220FM-12+0060VBPR V0209999C000010075019N0090001N1+02631+02461101061ADDAA101999999GF107991051091008001031001KA1120N+02601REMSYN076AAXX  05004 48077 32559 70000 10263 20246 40106 85930 333 20260 56590 68015;EQDQ01  80112PRCP01
0150480770999992000050503004+18800+095220FM-12+0060VBPR V0209999C000010075019N0100001N1+02541+02331101191ADDAY161031AY221031GF107991051091008001031001MD1999999+0001MW1011REMSYN076AAXX  05034 48077 21560 70000 10254 20233 40119 70162 85930 333 56890 58000;
0190480770999992000050506004+18800+095220FM-12+0060VBPR V0209999C000010075019N0100001N1+03001+02281101121ADDAA199000091AY191061AY261061GF107991051091008001071001MD1999999+0051REMSYN076AAXX  05064 48077 31560 70000 10300 20228 40112 75796 85970 333 56690 58005;EQDQ01+000572PRSWM1Q02  00002PRCP99
0161480770999992000050509004+18800+095220FM-12+0060VBPR V0202301N001010075019N0100001N1+02901+02481100951ADDAA199000021AY191031AY251031GF107991051091008001031001MD1999999+0131MW1201REMSYN076AAXX  05094 48077 31560 72302 10290 20248 40095 72095 85930 333 56590 58013;
0152480770999992000050512004+18800+095220FM-12+0060VBPR V0202301N000510450019N0100001N1+02861+02301100911ADDAA199000021GF106991041081008001031001KA1120M+03041MD1999999+0181REMSYN076AAXX  05124 48077 32560 62301 10286 20230 40091 84830 333 10304 56990 58018;
0171480770999992000050600004+18800+095220FM-12+0060VBPR V0209999C000512200019N0100001N1+02481+02331101131ADDAA199000091GF104991021021008001001011KA1120N+02421MD1999999+0071REMSYN076AAXX  06004 48077 32560 40001 10248 20233 40113 82201 333 20242 56409 58007;EQDQ01  00002PRCP99
0152480770999992000050603004+18800+095220FM-12+0060VBPR V0202301N000510075019N0100001N1+02951+02331101191ADDAA199000091GF106991051091008001031001MD1999999+0011REMSYN070AAXX  06034 48077 32560 62301 10295 20233 40119 85930 333 56490 58001;EQDQ01  00002PRCP99
0152480770999992000050606004+18800+095220FM-12+0060VBPR V0202301N000510450019N0110001N1+03201+02481101161ADDAA199000091GF105991031081008001031011MD1999999+0051REMSYN070AAXX  06064 48077 32561 52301 10320 20248 40116 83831 333 56499 58005;EQDQ01  00002PRCP99
0199480770999992000050612004+18800+095220FM-12+0060VBPR V0202301N001510450019N0080001N1+02901+02301100911ADDAA199000091AY151061AY221061GF107991031091004501071011KA1120M+03351MD1999999+0001MW1021REMSYN082AAXX  06124 48077 31458 72303 10290 20230 40091 70252 83971 333 10335 56499 58000;EQDQ01  00002PRCP99
0171480770999992000050700004+18800+095220FM-12+0060VBPR V0209999C000010042019N0080001N1+02581+02461101141ADDAA199000091GF108991051091004501071001KA1120N+02581MD1999999+0011REMSYN076AAXX  07004 48077 32458 80000 10258 20246 40114 85970 333 20258 56490 58001;EQDQ01  00002PRCP99
0152480770999992000050703004+18800+095220FM-12+0060VBPR V0209999C000010450019N0100001N1+02811+02501101261ADDAA199000091GF108991031081004501071001MD1999999+0081REMSYN070AAXX  07034 48077 32460 80000 10281 20250 40126 83870 333 56490 58008;EQDQ01  00002PRCP99
0152480770999992000050706004+18800+095220FM-12+0060VBPR V0202301N001510450019N0100001N1+03111+02371101171ADDAA199000091GF107991041091004501071001MD1999999+0021REMSYN070AAXX  07064 48077 32460 72303 10311 20237 40117 84970 333 56590 58002;EQDQ01  00002PRCP99
0171480770999992000050712004+18800+095220FM-12+0060VBPR V0202301N002610450019N0100001N1+03101+02251100861ADDAA199000091GF106991041091008001031001KA1120M+03221MD1999999+0061REMSYN076AAXX  07124 48077 32560 62305 10310 20225 40086 84930 333 10322 56990 58006;EQDQ01  00002PRCP99
0152480770999992000050803004+18800+095220FM-12+0060VBPR V0202301N000511050019N0100001N1+02901+02481101041ADDAA199000091GF105991011021008001031011MD1999999-0111REMSYN070AAXX  08034 48077 32560 52301 10290 20248 40104 81231 333 56999 59011;EQDQ01  00002PRCP99
0150480770999992000050806004+18800+095220FM-12+0060VBPR V0201301N000510042019N0100001N1+02651+02461101031ADDAY121061AY221061GF107991051091004501071001MD1999999-0141MW1601REMSYN076AAXX  08064 48077 21460 71301 10265 20246 40103 76022 85970 333 56590 59014;
0150480770999992000050809004+18800+095220FM-12+0060VBPR V0202301N001010042019N0100001N1+03401+02401100671ADDAY161031AY261031GF107991051091004501061001MD1999999-0281MW1021REMSYN076AAXX  08094 48077 21460 72302 10340 20240 40067 70266 85960 333 56590 59028;
0141480770999992000050812004+18800+095220FM-12+0060VBPR V0209999C000010450019N0060001N1+03001+02391100721ADDGF108991041091004501071001KA1120M+03401MD1999999-0131REMSYN076AAXX  08124 48077 22456 80000 10300 20239 40072 84970 333 10340 56590 59013;
0141480770999992000050900004+18800+095220FM-12+0060VBPR V0209999C000012200019N0100001N1+02601+02461100831ADDGF108991011021008001001011KA1120N+02551MD1999999-0161REMSYN076AAXX  09004 48077 22560 80000 10260 20246 40083 81201 333 20255 56409 59016;
0152480770999992000050906004+18800+095220FM-12+0060VBPR V0209999C000012200019N0110001N1+03301+02441100861ADDAA199000091GF104991041081008001001001MD1999999-0161REMSYN070AAXX  09064 48077 32561 40000 10330 20244 40086 84800 333 56400 59016;EQDQ01  00002PRCP99
0152480770999992000050909004+18800+095220FM-12+0060VBPR V0209999C000010450019N0110001N1+03641+02351100481ADDAA199000091GF105991041091008001031001MD1999999-0191REMSYN070AAXX  09094 48077 32561 50000 10364 20235 40048 84930 333 56490 59019;EQDQ01  00002PRCP99
0171480770999992000050912004+18800+095220FM-12+0060VBPR V0202301N001010450019N0100001N1+03121+02371100441ADDAA199000091GF105991041091008001031001KA1120M+03641MD1999999+0281REMSYN076AAXX  09124 48077 32560 52302 10312 20237 40044 84930 333 10364 56490 58028;EQDQ01  00002PRCP99
0152480770999992000051003004+18800+095220FM-12+0060VBPR V0209999C000019999999N0100001N1+03151+02651100731ADDAA199000091GF105991001001999999031011MD1999999-0201REMSYN070AAXX  10034 48077 32960 50000 10315 20265 40073 80031 333 56099 59020;EQDQ01  00002PRCP99
0152480770999992000051006004+18800+095220FM-12+0060VBPR V0202301N000510450019N0110001N1+03501+02401100661ADDAA199000091GF106991021021008001031011MD1999999-0201REMSYN070AAXX  10064 48077 32561 62301 10350 20240 40066 82231 333 56599 59020;EQDQ01  00002PRCP99
0152480770999992000051009004+18800+095220FM-12+0060VBPR V0209999C000010075019N0110001N1+03601+02351100251ADDAA199000091GF107991051091008001031001MD1999999-0231REMSYN070AAXX  10094 48077 32561 70000 10360 20235 40025 85930 333 56590 59023;EQDQ01  00002PRCP99
0171480770999992000051012004+18800+095220FM-12+0060VBPR V0202301N001510450019N0090001N1+03401+02401100221ADDAA199000091GF106991031091008001031011KA1120M+03601MD1999999-0231REMSYN076AAXX  10124 48077 32559 62303 10340 20240 40022 83931 333 10360 56999 59023;EQDQ01  00002PRCP99
0171480770999992000051100004+18800+095220FM-12+0060VBPR V0209999C000012200019N0100001N1+02731+02401100441ADDAA199000091GF104991021021008001001011KA1120N+02701MD1999999-0221REMSYN076AAXX  11004 48077 32560 40000 10273 20240 40044 82201 333 20270 56909 59022;EQDQ01  00002PRCP99
0152480770999992000051103004+18800+095220FM-12+0060VBPR V0202301N000512200019N0100001N1+03121+02541100521ADDAA199000091GF102991001001999999001011MD1999999-0211REMSYN070AAXX  11034 48077 32960 22301 10312 20254 40052 80001 333 56009 59021;EQDQ01  00002PRCP99
0152480770999992000051106004+18800+095220FM-12+0060VBPR V0202301N000510075019N0110001N1+03501+02401100461ADDAA199000091GF105991051091008001001001MD1999999-0211REMSYN070AAXX  11064 48077 32561 52301 10350 20240 40046 85900 333 56590 59021;EQDQ01  00002PRCP99
0180480770999992000051109004+18800+095220FM-12+0060VBPR V0202301N001010450019N0110001N1+03601+02351100081ADDAA199000091AY151031AY221031GF106991031091008001031001MD1999999-0171MW1021REMSYN076AAXX  11094 48077 31561 62302 10360 20235 40008 70252 83930 333 56590 59017;EQDQ01  00002PRCP99
0171480770999992000051112004+18800+095220FM-12+0060VBPR V0202301N001010120019N0100001N1+03201+02481100041ADDAA199000091GF105991051081008001031001KA1120M+03601MD1999999-0181REMSYN076AAXX  11124 48077 32560 52302 10320 20248 40004 85830 333 10360 56990 59018;EQDQ01  00002PRCP99
0171480770999992000051200004+18800+095220FM-12+0060VBPR V0201801N005110450019N0080001N1+02701+02401100351ADDAA199000091GF106991031091008001071011KA1120N+02651MD1999999-0091REMSYN076AAXX  12004 48077 32558 61810 10270 20240 40035 83971 333 20265 56499 59009;EQDQ01  00002PRCP99
0146480770999992000051203004+18800+095220FM-12+0060VBPR V0201801N000519999999N0100001N1+03001+99999999999ADDAA199000091GF105991001001999999031011MD1999999-0011REMSYN064AAXX  12034 48077 32960 51801 10300 23905 80031 333 56099 59001;EQDQ01  00002PRCP99
0152480770999992000051206004+18800+095220FM-12+0060VBPR V0202301N000512200019N0110001N1+03051+02671100371ADDAA199000091GF106991021021008001001011MD1999999-0081REMSYN070AAXX  12064 48077 32561 62301 10305 20267 40037 82201 333 56909 59008;EQDQ01  00002PRCP99
0168480770999992000051209004+18800+095220FM-12+0060VBPR V0202301N000510450019N0100001N1+03501+02371099682ADDAA199000091GF107991041091004501071001MD1999999-0341REMSYN070AAXX  12094 48077 32460 72301 10350 20237 49968 84970 333 56490 59034;EQDQ01+099683APOSLPQ02  00002PRCP99
0199480770999992000051212004+18800+095220FM-12+0060VBPR V0200401N003110450019N0080001N1+02801+02331100101ADDAA199000091AY151061AY221061GF108991041091004501071001KA1120M+03651MD1999999+0061MW1031REMSYN082AAXX  12124 48077 31458 80406 10280 20233 40010 70352 84970 333 10365 56890 58006;EQDQ01  00002PRCP99
0171480770999992000051300004+18800+095220FM-12+0060VBPR V0209999C000010075019N0100001N1+02501+02331100461ADDAA199000091GF107991051091008001031001KA1120N+02481MD1999999+0111REMSYN076AAXX  13004 48077 32560 70000 10250 20233 40046 85930 333 20248 56890 58011;EQDQ01  00002PRCP99
0152480770999992000051303004+18800+095220FM-12+0060VBPR V0200401N000510075019N0100001N1+02821+02201100601ADDAA199000091GF108991051091008001071001MD1999999+0091REMSYN070AAXX  13034 48077 32560 80401 10282 20220 40060 85970 333 56990 58009;EQDQ01  00002PRCP99
0154480770999992000051306004+18800+095220FM-12+0060VBPR V0209999C000010048019N0110001N1+03101+02371100531ADDAA199000091GA1051+004809019GF107991051091008001031001REMSYN070AAXX  13064 48077 32561 70000 10310 20237 40053 85930 333 56890 85016;EQDQ01  00002PRCP99
0152480770999992000051309004+18800+095220FM-12+0060VBPR V0203601N000510075019N0110001N1+03521+02481100181ADDAA199000091GF107991051091008001031001MD1999999+0201REMSYN070AAXX  13094 48077 32561 73601 10352 20248 40018 85930 333 56590 58020;EQDQ01  00002PRCP99
0187480770999992000051312004+18800+095220FM-12+0060VBPR V0209999C000010075019N0100001N1+03241+02361100131ADDAA199000091GF106991999091008001001001KA1120M+03501MD1999999+0031REMSYN076AAXX  13124 48077 32560 60000 10324 20236 40013 85900 333 10350 56990 58003;EQDQ01+000052SCOTLCQ02  00002PRCP99
0169480770999992000051400004+18800+095220FM-12+0060VBPR V0209999C000010450019N0060001N1+02541+02331100381ADDAY161061AY221061GF106991021081008001031001KA1120N+02501MD1999999+0281MW1021REMSYN082AAXX  14004 48077 21556 60000 10254 20233 40038 70262 82830 333 20250 56990 58028;
0122480770999992000051403004+18800+095220FM-12+0060VBPR V0202301N000510450019N0100001N1+02821+02501100441ADDGF107991041091008001071011MD1999999-0161REMSYN070AAXX  14034 48077 22560 72301 10282 20250 40044 84971 333 56499 59016;
0152480770999992000051406004+18800+095220FM-12+0060VBPR V0202301N000510042019N0100001N1+03111+02371100521ADDAA199000091GF107991051091004501071001MD1999999-0011REMSYN070AAXX  14064 48077 32460 72301 10311 20237 40052 85970 333 56400 59001;EQDQ01  00002PRCP99
0152480770999992000051409004+18800+095220FM-12+0060VBPR V0202701N000510450019N0100001N1+03311+02241100241ADDAA199000091GF107991041091008001071001MD1999999+0061REMSYN070AAXX  14094 48077 32560 72701 10331 20224 40024 84970 333 56390 58006;EQDQ01  00002PRCP99
0199480770999992000051412004+18800+095220FM-12+0060VBPR V0202301N001510042019N0060001N1+02921+02151100241ADDAA199000091AY121061AY221061GF108991051091004501071001KA1120M+03371MD1999999+0111MW1151REMSYN082AAXX  14124 48077 31456 82303 10292 20215 40024 71522 85970 333 10337 56390 58011;EQDQ01  00002PRCP99
0169480770999992000051500004+18800+095220FM-12+0060VBPR V0209999C000010042019N0060001N1+02601+02461100331ADDAY161061AY251061GF108991051091004501071001KA1120N+02501MD1999999-0051MW1011REMSYN082AAXX  15004 48077 21456 80000 10260 20246 40033 70165 85970 333 20250 56790 59005;
0150480770999992000051503004+18800+095220FM-12+0060VBPR V0209999C000010042019N0070001N1+02701+02401100481ADDAY161031AY221031GF108991051091004501071001MD1999999+0051MW1501REMSYN076AAXX  15034 48077 22457 80000 10270 20240 40048 75062 85970 333 56390 58005;
0152480770999992000051506004+18800+095220FM-12+0060VBPR V0200401N000510075019N0100001N1+03101+02541100441ADDAA199000021GF107991999091008001001001MD1999999-0081REMSYN070AAXX  15064 48077 32560 70401 10310 20254 40044 85900 333 56390 59008;EQDQ01+000052SCOTLC
0161480770999992000051509004+18800+095220FM-12+0060VBPR V0202301N000510075019N0100001N1+03061+02541100231ADDAA199000021AY151031AY221031GF108991051091008001071001MD1999999-0021MW1031REMSYN076AAXX  15094 48077 31560 82301 10306 20254 40023 70352 85970 333 56390 59002;
0169480770999992000051512004+18800+095220FM-12+0060VBPR V0200401N000510075019N0070001N1+02741+02561100231ADDAY161061AY251061GF108991051091008001071001KA1120M+03161MD1999999-0011MW1211REMSYN082AAXX  15124 48077 21557 80401 10274 20256 40023 72165 85970 333 10316 56190 59001;
0169480770999992000051600004+18800+095220FM-12+0060VBPR V0209999C000010042019N0050001N1+02501+02331100401ADDAY161061AY251061GF108991051091004501071001KA1120N+02451MD1999999+0081MW1611REMSYN082AAXX  16004 48077 21450 80000 10250 20233 40040 76165 85970 333 20245 56490 58008;
0150480770999992000051603004+18800+095220FM-12+0060VBPR V0201301N000510042019N0080001N1+02651+02461100481ADDAY161031AY251031GF108991051091004501021001MD1999999-0011MW1501REMSYN076AAXX  16034 48077 21458 81301 10265 20246 40048 75065 85920 333 56490 59001;
0133480770999992000051606004+18800+095220FM-12+0060VBPR V0201801N000510075019N0100001N1+02901+02401100461ADDAA199000021GF107991051091008001071001MD1999999+0021REMSYN070AAXX  16064 48077 32560 71801 10290 20240 40046 85970 333 56690 58002;
0169480770999992000051612004+18800+095220FM-12+0060VBPR V0209999C000010075019N0100001N1+02801+02691100181ADDAY161061AY251061GF107991051091008001071001KA1120M+02931MD1999999-0101MW1021REMSYN082AAXX  16124 48077 21560 70000 10280 20269 40018 70265 85970 333 10293 56690 59010;
0141480770999992000051700004+18800+095220FM-12+0060VBPR V0209999C000010450019N0090001N1+02501+02331100301ADDGF106991041081008001031011KA1120N+02481MD1999999-0111REMSYN076AAXX  17004 48077 22559 60000 10250 20233 40030 84831 333 20248 56999 59011;
0122480770999992000051703004+18800+095220FM-12+0060VBPR V0202301N000519999999N0100001N1+02901+02481100411ADDGF105991001001999999041011MD1999999-0061REMSYN070AAXX  17034 48077 22960 52301 10290 20248 40041 80041 333 56099 59006;
0141480770999992000051712004+18800+095220FM-12+0060VBPR V0209999C000010450019N0100001N1+03001+02661100091ADDGF107991041091008001031011KA1120M+03361MD1999999-0041REMSYN076AAXX  17124 48077 22560 70000 10300 20266 40009 84931 333 10336 56599 59004;
0171480770999992000051800004+18800+095220FM-12+0060VBPR V0209999C000010042019N0060001N1+02601+02461100281ADDAA199000091GF108991051091004501071001KA1120N+02371MD1999999-0011REMSYN076AAXX  18004 48077 32456 80000 10260 20246 40028 85970 333 20237 56490 59001;EQDQ01  00002PRCP99
0122480770999992000051803004+18800+095220FM-12+0060VBPR V0203201N000510042019N0080001N1+02701+02401100431ADDGF108991051091004501071001MD1999999+0021REMSYN070AAXX  18034 48077 22458 83201 10270 20240 40043 85970 333 56490 58002;
0161480770999992000051806004+18800+095220FM-12+0060VBPR V0202301N000510042019N0100001N1+03001+02561100401ADDAA199000021AY121061AY221061GF108991051091004501071001MD1999999+0071MW1501REMSYN076AAXX  18064 48077 31460 82301 10300 20256 40040 75022 85970 333 56990 58007;
0150480770999992000051809004+18800+095220FM-12+0060VBPR V0209999C000010042019N0070001N1+02601+02501100161ADDAY161031AY251031GF108991051091004501071001MD1999999+0051MW1601REMSYN076AAXX  18094 48077 21457 80000 10260 20250 40016 76065 85970 333 56490 58005;
0119480770999992000051812004+18800+095220FM-12+0060VBPR V0209999C000019999999N0080001N1+02871+02481999999ADDGF108991999999004501999999REMSYN081AAXX  18124 48077 22458 80000 10287 20248 4000 70356 83971 333 10310 56699 58000;
0169480770999992000051900004+18800+095220FM-12+0060VBPR V0209999C000010042019N0070001N1+02601+02461100251ADDAY151061AY251061GF108991051091004501071001KA1120N+02591MD1999999-0031MW1501REMSYN082AAXX  19004 48077 21457 80000 10260 20246 40025 75055 85970 333 20259 56490 59003;
0150480770999992000051903004+18800+095220FM-12+0060VBPR V0201801N000510042019N0080001N1+02701+02501100411ADDAY151031AY251031GF108991051091004501071001MD1999999+0071MW1501REMSYN076AAXX  19034 48077 22458 81801 10270 20250 40041 75055 85970 333 56550 58007;
0180480770999992000051912004+18800+095220FM-12+0060VBPR V0201801N000510042019N0100001N1+02921+02481100131ADDAA199000021AY151061AY251061GF108991051091004501071001KA1120M+03061MD1999999+0041MW1021REMSYN082AAXX  19124 48077 31460 81801 10292 20248 40013 70255 85970 333 10306 56490 58004;
0169480770999992000052000004+18800+095220FM-12+0060VBPR V0200401N001010042019N0090001N1+02461+02331100531ADDAY161061AY251061GF108991051091004501071001KA1120N+02301MD1999999+0281MW1021REMSYN082AAXX  20004 48077 21459 80402 10246 20233 40053 70265 85970 333 20230 56890 58028;
0152480770999992000052006004+18800+095220FM-12+0060VBPR V0200401N001010450019N0110001N1+03021+02391100611ADDAA199000091GF108991041091004501071001MD1999999+0231REMSYN070AAXX  20064 48077 32461 80402 10302 20239 40061 84970 333 56890 58023;EQDQ01  00002PRCP99
0152480770999992000052009004+18800+095220FM-12+0060VBPR V0200401N001010450019N0110001N1+03181+02361100401ADDAA199000091GF108991041091004501071001MD1999999+0171REMSYN070AAXX  20094 48077 32461 80402 10318 20236 40040 84970 333 56890 58017;EQDQ01  00002PRCP99
0199480770999992000052012004+18800+095220FM-12+0060VBPR V0200401N000510450019N0048001N1+02911+02301100371ADDAA199000091AY151061AY221061GF106991021091004501031011KA1120M+03221MD1999999+0241MW1011REMSYN082AAXX  20124 48077 31448 60401 10291 20230 40037 70152 82931 333 10322 56994 58024;EQDQ01  00002PRCP99
0171480770999992000052100004+18800+095220FM-12+0060VBPR V0200401N000512200019N0100001N1+02541+02191100581ADDAA199000091GF105991021081008001001011KA1120N+02501MD1999999+0051REMSYN076AAXX  21004 48077 32560 50401 10254 20219 40058 82801 333 20250 56909 58005;EQDQ01  00002PRCP99
0168480770999992000052103004+18800+095220FM-12+0060VBPR V0200401N000519999999N0110001N1+03001+02391100701ADDAA199000091GF106991999001008001031011MD1999999+0091REMSYN070AAXX  21034 48077 32561 60401 10300 20239 40070 80031 333 56999 58009;EQDQ01+000002SCOTLCQ02  00002PRCP99
0152480770999992000052106004+18800+095220FM-12+0060VBPR V0209999C000010450019N0150001N1+03171+02361100661ADDAA199000091GF108991041091004501071001MD1999999+0061REMSYN070AAXX  21064 48077 32465 80000 10317 20236 40066 84970 333 56690 58006;EQDQ01  00002PRCP99
0152480770999992000052109004+18800+095220FM-12+0060VBPR V0202301N003110042019N0110001N1+03071+02371100551ADDAA199000091GF108991051091004501071001MD1999999+0151REMSYN070AAXX  21094 48077 32461 82306 10307 20237 40055 85970 333 56590 58015;EQDQ01  00002PRCP99
0171480770999992000052112004+18800+095220FM-12+0060VBPR V0202301N000512200019N0100001N1+02801+02331100461ADDAA199000091GF106991041081008001001011KA1120M+03261MD1999999+0091REMSYN076AAXX  21124 48077 32560 62301 10280 20233 40046 84801 333 10326 56909 58009;EQDQ01  00002PRCP99
0171480770999992000052200004+18800+095220FM-12+0060VBPR V0209999C000010450019N0060001N1+02501+02331100651ADDAA199000091GF108991041091004501071001KA1120N+02461MD1999999+0061REMSYN076AAXX  22004 48077 32456 80000 10250 20233 40065 84970 333 20246 56490 58006;EQDQ01  00002PRCP99
0152480770999992000052203004+18800+095220FM-12+0060VBPR V0201801N000510450019N0090001N1+02751+02331100821ADDAA199000091GF107991041091004501071001MD1999999+0121REMSYN070AAXX  22034 48077 32459 71801 10275 20233 40082 84970 333 56490 58012;EQDQ01  00002PRCP99
0152480770999992000052206004+18800+095220FM-12+0060VBPR V0202301N000510450019N0100001N1+03101+02541100781ADDAA199000091GF107991041091004501031001MD1999999+0121REMSYN070AAXX  22064 48077 32460 72301 10310 20254 40078 84930 333 56490 58012;EQDQ01  00002PRCP99
0152480770999992000052209004+18800+095220FM-12+0060VBPR V0202301N003610075019N0100001N1+03141+02541100631ADDAA199000091GF107991051091008001031001MD1999999+0071REMSYN070AAXX  22094 48077 32560 72307 10314 20254 40063 85930 333 56590 58007;EQDQ01  00002PRCP99
0171480770999992000052212004+18800+095220FM-12+0060VBPR V0202301N002610075019N0100001N1+02801+02501100641ADDAA199000091GF107991051091008001021001KA1120M+03251MD1999999+0161REMSYN076AAXX  22124 48077 32560 72305 10280 20250 40064 85920 333 10325 56490 58016;EQDQ01  00002PRCP99
0171480770999992000052300004+18800+095220FM-12+0060VBPR V0201801N001010042019N0090001N1+02641+02461100801ADDAA199000091GF108991051091004501071001KA1120N+02581MD1999999+0141REMSYN076AAXX  23004 48077 32459 81802 10264 20246 40080 85970 333 20258 56490 58014;EQDQ01  00002PRCP99
0161480770999992000052303004+18800+095220FM-12+0060VBPR V0201801N001010042019N0090001N1+02801+02501100841ADDAA199000021AY121031AY221031GF108991051091004501071001MD1999999+0031MW1501REMSYN076AAXX  23034 48077 31459 81802 10280 20250 40084 75022 85970 333 56490 58003;
0133480770999992000052306004+18800+095220FM-12+0060VBPR V0202301N001010450019N0100001N1+03001+02391100801ADDAA199000021GF108991041091004501071001MD1999999+0011REMSYN070AAXX  23064 48077 32460 82302 10300 20239 40080 84970 333 56490 58001;
0133480770999992000052309004+18800+095220FM-12+0060VBPR V0202301N000510075019N0100001N1+03121+02541100691ADDAA199000021GF106991051091008001071001MD1999999+0071REMSYN070AAXX  23094 48077 32560 62301 10312 20254 40069 85970 333 56490 58007;
0152480770999992000052312004+18800+095220FM-12+0060VBPR V0209999C000010075019N0100001N1+03061+02541100541ADDAA199000021GF107991051091008001031001KA1120M+03161MD1999999-0101REMSYN076AAXX  23124 48077 32560 70000 10306 20254 40054 85930 333 10316 56490 59010;
0171480770999992000052400004+18800+095220FM-12+0060VBPR V0202301N000510042019N0060001N1+02701+02401100771ADDAA199000091GF108991051091004501021001KA1120N+02601MD1999999-0031REMSYN076AAXX  24004 48077 32456 82301 10270 20240 40077 85920 333 20260 56490 59003;EQDQ01  00002PRCP99
0152480770999992000052406004+18800+095220FM-12+0060VBPR V0201801N001010450019N0110001N1+03101+02541100681ADDAA199000091GF107991041091004501031001MD1999999-0121REMSYN070AAXX  24064 48077 32461 71802 10310 20254 40068 84930 333 56499 59012;EQDQ01  00002PRCP99
0141480770999992000052412004+18800+095220FM-12+0060VBPR V0202701N001010450019N0060001N1+02901+02481100501ADDGF108991041091004501071001KA1120M+03201MD1999999-0041REMSYN076AAXX  24124 48077 22456 82702 10290 20248 40050 84970 333 10320 56669 59004;
0169480770999992000052500004+18800+095220FM-12+0060VBPR V0201801N000510042019N0080001N1+02601+02461100541ADDAY191061AY261061GF108991051091004501021999KA1120N+02521MD1999999-0221MW1021REMSYN082AAXX  25004 48077 21458 81801 10260 20246 40054 70296 8592/ 333 20252 56490 59022;
0150480770999992000052503004+18800+095220FM-12+0060VBPR V0201801N001010042019N0100001N1+02731+02561100681ADDAY161031AY261031GF108991051091004501071001MD1999999-0061MW1021REMSYN076AAXX  25034 48077 21460 81802 10273 20256 40068 70266 85970 333 56490 59006;
0161480770999992000052506004+18800+095220FM-12+0060VBPR V0202301N001010042019N0100001N1+03001+02531100571ADDAA199000021AY121061AY221061GF108991051091004501071001MD1999999-0111MW1501REMSYN076AAXX  25064 48077 31460 82302 10300 20253 40057 75022 85970 333 56490 59011;
0161480770999992000052509004+18800+095220FM-12+0060VBPR V0201201N000510042019N0100001N1+02901+02591100431ADDAA199000021AY151031AY251031GF108991051091004501071001MD1999999-0051MW1021REMSYN076AAXX  25094 48077 31460 81201 10290 20259 40043 70255 85970 333 56590 59005;
0169480770999992000052512004+18800+095220FM-12+0060VBPR V0202301N001010075019N0100001N1+02761+02331100421ADDAY151061AY251061GF108991051091008001071001KA1120M+03041MD1999999-0081MW1021REMSYN082AAXX  25124 48077 21560 82302 10276 20233 40042 70255 85970 333 10304 56490 59008;
0169480770999992000052600004+18800+095220FM-12+0060VBPR V0209999C000010042019N0060001N1+02601+02601100501ADDAY191061AY261061GF108991051091004501031001KA1120N+02521MD1999999-0041MW1511REMSYN082AAXX  26004 48077 21456 80000 10260 20260 40050 75196 85930 333 20252 56490 59004;
0150480770999992000052603004+18800+095220FM-12+0060VBPR V0201301N000510042019N0070001N1+02601+02601100631ADDAY151031AY251031GF108991051091004501021001MD1999999-0051MW1611REMSYN076AAXX  26034 48077 21457 81301 10260 20260 40063 76155 85920 333 56590 59005;
0150480770999992000052606004+18800+095220FM-12+0060VBPR V0200401N000510042019N0060001N1+02301+02301100821ADDAY161061AY251061GF108991051091004501021001MD1999999+0241MW1611REMSYN076AAXX  26064 48077 21456 80401 10230 20230 40082 76165 85920 333 56590 58024;
0150480770999992000052609004+18800+095220FM-12+0060VBPR V0201201N000510042019N0070001N1+02401+02261100721ADDAY191031AY261031GF108991051091004501021001MD1999999+0291MW1601REMSYN076AAXX  26094 48077 21457 81201 10240 20226 40072 76096 85920 333 56490 58029;
0169480770999992000052612004+18800+095220FM-12+0060VBPR V0209999C000010042019N0050001N1+02311+02301100721ADDAY161061AY261061GF108991051091004501021001KA1120M+02641MD1999999+0311MW1611REMSYN082AAXX  26124 48077 21450 80000 10231 20230 40072 76166 85920 333 10264 56690 58031;
0169480770999992000052700004+18800+095220FM-12+0060VBPR V0209999C000010042019N0070001N1+02401+02401100681ADDAY161061AY261061GF108991051091004501021001KA1120N+02211MD1999999+0181MW1021REMSYN082AAXX  27004 48077 21457 80000 10240 20240 40068 70266 85920 333 20221 56490 58018;
0122480770999992000052703004+18800+095220FM-12+0060VBPR V0201801N001010042019N0100001N1+02601+02461100801ADDGF108991051091004501071001MD1999999+0171REMSYN070AAXX  27034 48077 22460 81802 10260 20246 40080 85970 333 56490 58017;
0161480770999992000053103004+18800+095220FM-12+0060VBPR V0201801N000510042019N0070001N1+02771+02681100621ADDAA199000021AY121031AY221031GF108991051091004501021001MD1999999-0111MW1501REMSYN076AAXX  31034 48077 31457 81801 10277 20268 40062 75022 85920 333 56499 59011;
0133480770999992000053106004+18800+095220FM-12+0060VBPR V0202301N000510450019N0100001N1+03101+02671100631ADDAA199000021GF106991041091004501031001MD1999999-0051REMSYN070AAXX  31064 48077 32460 62301 10310 20267 40063 84930 333 56490 59005;
0133480770999992000053109004+18800+095220FM-12+0060VBPR V0202301N001010075019N0100001N1+03481+02571100241ADDAA199000021GF106991051091008001051001MD1999999-0031REMSYN070AAXX  31094 48077 32560 62302 10348 20257 40024 85950 333 56490 59003;
0171480770999992000060100004+18800+095220FM-12+0060VBPR V0209999C000010042019N0060001N1+02711+02561100301ADDAA199000091GF108991051091004501071001KA1120N+02601MD1999999-0191REMSYN076AAXX  01004 48077 32456 80000 10271 20256 40030 85970 333 20260 56490 59019;EQDQ01  00002PRCP99
0152480770999992000060103004+18800+095220FM-12+0060VBPR V0202301N000510450019N0090001N1+02901+02591100471ADDAA199000091GF107991041081004501031001MD1999999-0151REMSYN070AAXX  01034 48077 32459 72301 10290 20259 40047 84830 333 56490 59015;EQDQ01  00002PRCP99
0152480770999992000060106004+18800+095220FM-12+0060VBPR V0209999C000010450019N0100001N1+03301+02751100451ADDAA199000091GF107991041091008001031001MD1999999-0161REMSYN070AAXX  01064 48077 32560 70000 10330 20275 40045 84930 333 56690 59016;EQDQ01  00002PRCP99
0152480770999992000060109004+18800+095220FM-12+0060VBPR V0201801N001010042019N0080001N1+02941+02591100311ADDAA199000091GF108991051091004501021001MD1999999+0071REMSYN070AAXX  01094 48077 32458 81802 10294 20259 40031 85920 333 56690 58007;EQDQ01  00002PRCP99
0169480770999992000060112004+18800+095220FM-12+0060VBPR V0202301N000510042019N0060001N1+02841+02501100161ADDAY161061AY251061GF108991051091004501021001KA1120M+03271MD1999999-0011MW1501REMSYN082AAXX  01124 48077 21456 82301 10284 20250 40016 75065 85920 333 10327 56459 59001;
0169480770999992000060200004+18800+095220FM-12+0060VBPR V0209999C000010042019N0080001N1+02801+02461100421ADDAY151061AY251061GF108991051091004501071001KA1120N+02581MD1999999+0081MW1021REMSYN082AAXX  02004 48077 21458 80000 10280 20246 40042 70255 85970 333 20258 56490 58008;
0122480770999992000060203004+18800+095220FM-12+0060VBPR V0201801N001010450019N0100001N1+02901+02591100471ADDGF106991031081004501031011MD1999999+0001REMSYN070AAXX  02034 48077 22460 61802 10290 20259 40047 83831 333 56499 58000;
0152480770999992000060206004+18800+095220FM-12+0060VBPR V0202301N000510450019N0110001N1+03151+02651100461ADDAA199000091GF106991041081004501031091MD1999999+0011REMSYN070AAXX  02064 48077 32461 62301 10315 20265 40046 84839 333 56499 58001;EQDQ01  00002PRCP99
0152480770999992000060209004+18800+095220FM-12+0060VBPR V0202301N000510042019N0110001N1+03241+02481100201ADDAA199000091GF106991051091004501031001MD1999999-0111REMSYN070AAXX  02094 48077 32461 62301 10324 20248 40020 85930 333 56490 59011;EQDQ01  00002PRCP99
0171480770999992000060212004+18800+095220FM-12+0060VBPR V0209999C000010450019N0100001N1+03221+02481100201ADDAA199000091GF106991041091008001031001KA1120M+03461MD1999999+0041REMSYN076AAXX  02124 48077 32560 60000 10322 20248 40020 84930 333 10346 56990 58004;EQDQ01  00002PRCP99
0171480770999992000060300004+18800+095220FM-12+0060VBPR V0209999C000010450019N0080001N1+02701+02401100291ADDAA199000091GF107991021091008001071001KA1120N+02641MD1999999-0121REMSYN076AAXX  03004 48077 32558 70000 10270 20240 40029 82970 333 20264 56990 59012;EQDQ01  00002PRCP99
0152480770999992000060303004+18800+095220FM-12+0060VBPR V0202301N000510042019N0100001N1+03011+02661100431ADDAA199000091GF108991051091004501071001MD1999999-0041REMSYN070AAXX  03034 48077 32460 82301 10301 20266 40043 85970 333 56490 59004;EQDQ01  00002PRCP99
0152480770999992000060306004+18800+095220FM-12+0060VBPR V0201801N000510042019N0110001N1+03201+02481100351ADDAA199000091GF108991051091004501031001MD1999999-0111REMSYN070AAXX  03064 48077 32461 81801 10320 20248 40035 85930 333 56490 59011;EQDQ01  00002PRCP99
0180480770999992000060309004+18800+095220FM-12+0060VBPR V0202301N000510042019N0090001N1+03001+02531100191ADDAA199000091AY191031AY261031GF108991051091004501071001MD1999999-0011MW1171REMSYN076AAXX  03094 48077 31459 82301 10300 20253 40019 71796 85970 333 56490 59001;EQDQ01  00002PRCP99
0169480770999992000060312004+18800+095220FM-12+0060VBPR V0202301N000510042019N0090001N1+02701+02561100071ADDAY191061AY261061GF108991051091004501071001KA1120M+03201MD1999999-0121MW1021REMSYN082AAXX  03124 48077 21459 82301 10270 20256 40007 70296 85970 333 10320 56490 59012;
0169480770999992000060400004+18800+095220FM-12+0060VBPR V0209999C000010042019N0090001N1+02701+02561100211ADDAY191061AY261061GF108991051091004501071001KA1120N+02651MD1999999+0001MW1021REMSYN082AAXX  04004 48077 21459 80000 10270 20256 40021 70296 85970 333 20265 56490 59000;
0150480770999992000060403004+18800+095220FM-12+0060VBPR V0209999C000010042019N0090001N1+02801+02681100461ADDAY161031AY261031GF108991051091004501071001MD1999999+0021MW1601REMSYN076AAXX  04034 48077 21459 80000 10280 20268 40046 76066 85970 333 56490 58002;
0122480770999992000060406004+18800+095220FM-12+0060VBPR V0202301N000510042019N0100001N1+02901+02461100791ADDGF108991051091004501071001MD1999999-0051REMSYN070AAXX  04064 48077 21460 82301 10290 20246 40079 85970 333 56490 59005;
0169480770999992000060412004+18800+095220FM-12+0060VBPR V0201801N000510042019N0090001N1+02701+02401100261ADDAY151061AY251061GF108991051091004501071001KA1120M+03061MD1999999+0181MW1501REMSYN082AAXX  04124 48077 21459 81801 10270 20240 40026 75055 85970 333 10306 56480 58018;
0169480770999992000060500004+18800+095220FM-12+0060VBPR V0209999C000010450019N0060001N1+02501+02331100501ADDAY161061AY251061GF108991041091004501071001KA1120N+02451MD1999999+0221MW1501REMSYN082AAXX  05004 48077 21456 80000 10250 20233 40050 75065 84970 333 20245 56490 58022;
0133480770999992000060506004+18800+095220FM-12+0060VBPR V0202301N000510450019N0100001N1+03031+02391100571ADDAA199000021GF108991041091004501031001MD1999999+0121REMSYN070AAXX  05064 48077 32460 82301 10303 20239 40057 84930 333 56490 58012;
0169480770999992000060512004+18800+095220FM-12+0060VBPR V0201301N002110450019N0080001N1+02771+02301100461ADDAY161061AY251061GF107991041091004501071001KA1120M+03081MD1999999+0201MW1031REMSYN082AAXX  05124 48077 21458 71304 10277 20230 40046 70365 84970 333 10308 56490 58020;
0169480770999992000060600004+18800+095220FM-12+0060VBPR V0209999C000010042019N0080001N1+02541+02331100681ADDAY161061AY261061GF108991051091004501071001KA1120N+02501MD1999999+0171MW1031REMSYN082AAXX  06004 48077 21458 80000 10254 20233 40068 70366 85970 333 20250 56490 58017;
0150480770999992000060603004+18800+095220FM-12+0060VBPR V0209999C000010450019N0090001N1+02801+02291100801ADDAY151031AY261031GF108991041091004501021001MD1999999+0211MW1501REMSYN076AAXX  06034 48077 22459 80000 10280 20229 40080 75056 84920 333 56490 58021;
0150480770999992000060609004+18800+095220FM-12+0060VBPR V0201801N000510042019N0080001N1+02501+02331100791ADDAY161031AY261031GF108991051091004501021001MD1999999+0301MW1601REMSYN076AAXX  06094 48077 21458 81801 10250 20233 40079 76066 85920 333 56490 58030;
0169480770999992000060612004+18800+095220FM-12+0060VBPR V0209999C000010450019N0060001N1+02601+02461100761ADDAY151061AY221061GF108991041091004501071001KA1120M+02871MD1999999+0301MW1021REMSYN082AAXX  06124 48077 22456 80000 10260 20246 40076 70252 84970 333 10287 56490 58030;
0141480770999992000060700004+18800+095220FM-12+0060VBPR V0201801N000510042019N0060001N1+02501+02331100861ADDGF108991051091004501071001KA1120N+02461MD1999999+0401REMSYN076AAXX  07004 48077 22456 81801 10250 20233 40086 85970 333 20246 56490 58040;
0150480770999992000060703004+18800+095220FM-12+0060VBPR V0201801N000510042019N0100001N1+02701+02561100991ADDAY151031AY221031GF108991051091004501071001MD1999999+0191MW1021REMSYN076AAXX  07034 48077 21460 81801 10270 20256 40099 70252 85970 333 56490 58019;
0150480770999992000060706004+18800+095220FM-12+0060VBPR V0202301N001010042019N0100001N1+03001+02531100971ADDAY161061AY221061GF106991051091004501031001MD1999999+0071MW1051REMSYN076AAXX  07064 48077 21460 62302 10300 20253 40097 70562 85930 333 56340 58007;
0122480770999992000060709004+18800+095220FM-12+0060VBPR V0202301N001010042019N0100001N1+03201+02651100801ADDGF107991051091004501031001MD1999999+0011REMSYN070AAXX  07094 48077 22460 72302 10320 20265 40080 85930 333 56490 58001;
0169480770999992000060712004+18800+095220FM-12+0060VBPR V0202301N000510042019N0070001N1+02541+02501100841ADDAY191061AY261061GF108991051091004501071001KA1120M+03221MD1999999+0081MW1601REMSYN082AAXX  07124 48077 21457 82301 10254 20250 40084 76096 85970 333 10322 56490 58008;
0169480770999992000060800004+18800+095220FM-12+0060VBPR V0209999C000010450019N0060001N1+02501+02461100851ADDAY161061AY221061GF108991041091004501021001KA1120N+02451MD1999999-0011MW1021REMSYN082AAXX  08004 48077 21456 80000 10250 20246 40085 70262 84920 333 20245 56490 59001;
0122480770999992000060803004+18800+095220FM-12+0060VBPR V0202301N000510042019N0100001N1+02801+02501100961ADDGF108991051091004501071001MD1999999-0031REMSYN070AAXX  08034 48077 22460 82301 10280 20250 40096 85970 333 56490 59003;
0196480770999992000060806004+18800+095220FM-12+0060VBPR V0201401N001012200019N0100001N1+02871+02591100961ADDAA199000091AY151061AY221061GF104991999091004501071001MD1999999-0011MW1021REMSYN076AAXX  08064 48077 31460 41402 10287 20259 40096 70252 85970 333 56490 59001;EQDQ01+000052SCOTLCQ02  00002PRCP99
0161480770999992000060809004+18800+095220FM-12+0060VBPR V0209999C000010042019N0100001N1+02701+02561100841ADDAA199000021AY151031AY251031GF108991051091004501071001MD1999999-0041MW1501REMSYN076AAXX  08094 48077 31460 80000 10270 20256 40084 75055 85970 333 56490 59004;
0169480770999992000060812004+18800+095220FM-12+0060VBPR V0202301N002110450019N0200001N1+02801+02331100741ADDAY151061AY221061GF108991041091004501071001KA1120M+03001MD1999999-0091MW1021REMSYN082AAXX  08124 48077 21498 82304 10280 20233 40074 70252 84970 333 10300 56690 59009;
0171480770999992000060900004+18800+095220FM-12+0060VBPR V0202301N001010042019N0080001N1+02601+02461100801ADDAA199000091GF108991051091004501071001KA1120N+02551MD1999999-0051REMSYN076AAXX  09004 48077 32458 82302 10260 20246 40080 85970 333 20255 56490 59005;EQDQ01  00002PRCP99
0152480770999992000060906004+18800+095220FM-12+0060VBPR V0202301N000510450019N0110001N1+03101+02371100791ADDAA199000091GF107991041091004501031001MD1999999-0161REMSYN070AAXX  09064 48077 32461 72301 10310 20237 40079 84930 333 56490 59016;EQDQ01  00002PRCP99
0152480770999992000060909004+18800+095220FM-12+0060VBPR V0202301N002110450019N0110001N1+03201+02361100541ADDAA199000091GF107991041091004501031001MD1999999-0211REMSYN070AAXX  09094 48077 32461 72304 10320 20236 40054 84930 333 56690 59021;EQDQ01  00002PRCP99
0182480770999992000060912004+18800+095220FM-12+0060VBPR V0201801N000510042019N0090001N1+02701+02561100511ADDAY191061AY261061GF108991051091004501071001KA1120M+99999MD1999999-0231MW1171REMSYN076AAXX  09124 48077 21459 81801 10270 20256 40051 71796 85970 333 10220 59023;EQDQ01 +02202ATMX  
0141480770999992000061000004+18800+095220FM-12+0060VBPR V0201801N000510042019N0050001N1+02561+02441100671ADDGF108991051071004501071999KA1120N+02321MD1999999-0201REMSYN076AAXX  10004 48077 22450 81801 10256 20244 40067 8577/ 333 20232 56499 59020;
0122480770999992000061003004+18800+095220FM-12+0060VBPR V0202501N000510450019N0100001N1+02821+02501100781ADDGF107991041091004501071001MD1999999-0061REMSYN070AAXX  10034 48077 22460 72501 10282 20250 40078 84970 333 56490 59006;
0152480770999992000061006004+18800+095220FM-12+0060VBPR V0202301N001010450019N0100001N1+03141+02541100721ADDAA199000091GF107991041091004501071001MD1999999-0081REMSYN070AAXX  10064 48077 32460 72302 10314 20254 40072 84970 333 56690 59008;EQDQ01  00002PRCP99
0161480770999992000061009004+18800+095220FM-12+0060VBPR V0202301N002110450019N0090001N1+02971+02481100511ADDAA199000021AY151031AY261031GF108991041091004501071001MD1999999+0021MW1501REMSYN076AAXX  10094 48077 31459 82304 10297 20248 40051 75056 84970 333 56590 58002;
0180480770999992000061012004+18800+095220FM-12+0060VBPR V0202301N000510042019N0090001N1+02941+02591100471ADDAA199000021AY151061AY251061GF108991051091004501071001KA1120M+03251MD1999999-0041MW1021REMSYN082AAXX  10124 48077 31459 82301 10294 20259 40047 70255 85970 333 10325 56490 59004;
0171480770999992000061100004+18800+095220FM-12+0060VBPR V0209999C000010450019N0100001N1+02571+02461100571ADDAA199000091GF106991041081008001031001KA1120N+02541MD1999999-0091REMSYN076AAXX  11004 48077 32560 60000 10257 20246 40057 84830 333 20254 56990 59009;EQDQ01  00002PRCP99
0152480770999992000061103004+18800+095220FM-12+0060VBPR V0201801N000510120019N0180001N1+02701+02401100741ADDAA199000091GF107991051081008001031001MD1999999-0051REMSYN070AAXX  11034 48077 32568 71801 10270 20240 40074 85830 333 56490 59005;EQDQ01  00002PRCP99
0161480770999992000061106004+18800+095220FM-12+0060VBPR V0202301N001010075019N0060001N1+02991+02391100671ADDAA199000021AY151061AY251061GF108991051091008001071001MD1999999-0051MW1501REMSYN076AAXX  11064 48077 31556 82302 10299 20239 40067 75055 85970 333 56490 59005;
0161480770999992000061109004+18800+095220FM-12+0060VBPR V0202301N002110450019N0080001N1+02841+02331100601ADDAA199000021AY151031AY251031GF108991041091004501071001MD1999999+0091MW1501REMSYN076AAXX  11094 48077 31458 82304 10284 20233 40060 75055 84970 333 56490 58009;
0180480770999992000061112004+18800+095220FM-12+0060VBPR V0202301N002110450019N0100001N1+02921+02301100481ADDAA199000021AY151061AY251061GF106991041081008001031001KA1120M+03061MD1999999+0011MW1011REMSYN082AAXX  11124 48077 31560 62304 10292 20230 40048 70155 84830 333 10306 56990 58001;
0169480770999992000061200004+18800+095220FM-12+0060VBPR V0209999C000010450019N0060001N1+02501+02501100541ADDAY161061AY251061GF108991041091004501021001KA1120N+02471MD1999999-0031MW1511REMSYN082AAXX  12004 48077 21456 80000 10250 20250 40054 75165 84920 333 20247 56490 59003;
0150480770999992000061203004+18800+095220FM-12+0060VBPR V0201401N001010042019N0100001N1+02701+02561100661ADDAY151031AY251031GF108991051091004501071001MD1999999-0081MW1501REMSYN076AAXX  12034 48077 22460 81402 10270 20256 40066 75055 85970 333 56590 59008;
0133480770999992000061206004+18800+095220FM-12+0060VBPR V0200401N000510450019N0100001N1+03001+02391100631ADDAA199000021GF108991041091004501031001MD1999999-0041REMSYN070AAXX  12064 48077 32460 80401 10300 20239 40063 84930 333 56490 59004;
0169480770999992000061212004+18800+095220FM-12+0060VBPR V0202301N001010450019N0060001N1+02581+02331100581ADDAY161061AY261061GF108991041091004501031001KA1120M+03001MD1999999+0091MW1601REMSYN082AAXX  12124 48077 21456 82302 10258 20233 40058 76066 84930 333 10300 56490 58009;
0169480770999992000061300004+18800+095220FM-12+0060VBPR V0202301N000510042019N0060001N1+02501+02331100591ADDAY161061AY251061GF108991051091004501021001KA1120N+02431MD1999999+0051MW1501REMSYN082AAXX  13004 48077 21456 82301 10250 20233 40059 75065 85920 333 20243 56490 58005;
0150480770999992000061303004+18800+095220FM-12+0060VBPR V0202301N000510042019N0070001N1+02301+02161100711ADDAY151031AY251031GF108991051091004501021001MD1999999+0061MW1501REMSYN076AAXX  13034 48077 22457 82301 10230 20216 40071 75055 85920 333 56490 58006;
0133480770999992000061306004+18800+095220FM-12+0060VBPR V0202301N000510042019N0100001N1+03001+02531100651ADDAA199000021GF107991051091004501031001MD1999999+0021REMSYN070AAXX  13064 48077 32460 72301 10300 20253 40065 85930 333 56490 58002;
0169480770999992000061312004+18800+095220FM-12+0060VBPR V0202301N000510042019N0060001N1+02501+02501100491ADDAY161061AY261061GF108991051091004501021001KA1120M+03041MD1999999-0081MW1601REMSYN082AAXX  13124 48077 21456 82301 10250 20250 40049 76066 85920 333 10304 56490 59008;
0169480770999992000061400004+18790+095220FM-12+0060VBPR V0209999C000010450019N0050001N1+02521+02501100511ADDAY161061AY251061GF108991041091004501021001KA1120N+02441MD1999999-0081MW1501REMSYN082AAXX  14004 48077 21450 80000 10252 20250 40051 75065 84920 333 20244 56490 59008;
0150480770999992000061403004+18790+095220FM-12+0060VBPR V0202301N001010042019N0080001N1+02701+02501100571ADDAY151031AY251031GF108991051091004501071001MD1999999-0141MW1501REMSYN076AAXX  14034 48077 21458 82302 10270 20250 40057 75055 85970 333 56490 59014;
0150480770999992000061406004+18790+095220FM-12+0060VBPR V0202301N001010042019N0080001N1+02601+02461100561ADDAY161061AY251061GF108991051091004501021001MD1999999-0081MW1011REMSYN076AAXX  14064 48077 21458 82302 10260 20246 40056 70165 85920 333 56490 59008;
0150480770999992000061409004+18790+095220FM-12+0060VBPR V0209999C000010042019N0080001N1+02571+02461100401ADDAY161031AY261031GF108991051091004501021001MD1999999-0091MW1611REMSYN076AAXX  14094 48077 21458 80000 10257 20246 40040 76166 85920 333 56490 59009;
0169480770999992000061412004+18790+095220FM-12+0060VBPR V0209999C000010450019N0060001N1+02601+02601100341ADDAY161061AY251061GF108991041091004501071001KA1120M+02701MD1999999-0151MW1021REMSYN082AAXX  14124 48077 22456 80000 10260 20260 40034 70265 84970 333 10270 56490 59015;
0169480770999992000061500004+18790+095220FM-12+0060VBPR V0209999C000010042019N0090001N1+02561+02461100421ADDAY161061AY261061GF108991051091004501021001KA1120N+02491MD1999999-0091MW1501REMSYN082AAXX  15004 48077 21459 80000 10256 20246 40042 75066 85920 333 20249 56490 59009;
0133480770999992000061506004+18790+095220FM-12+0060VBPR V0200401N000510450019N0100001N1+03001+02331100461ADDAA199000021GF106991041091004501031001MD1999999-0101REMSYN070AAXX  15064 48077 32460 60401 10300 20233 40046 84930 333 56490 59010;
0150480770999992000061509004+18790+095220FM-12+0060VBPR V0209999C000010012019N0060001N1+02601+02461100381ADDAY191031AY261031GF108991051091001501071001MD1999999-0121MW1171REMSYN076AAXX  15094 48077 21256 80000 10260 20246 40038 71796 85970 333 56490 59012;
0171480770999992000061600004+18790+095220FM-12+0060VBPR V0209999C000010450019N0080001N1+02601+02461100361ADDAA199000091GF108991041091004501071001KA1120N+02551MD1999999-0101REMSYN076AAXX  16004 48077 32458 80000 10260 20246 40036 84970 333 20255 56490 59010;EQDQ01  00002PRCP99
0150480770999992000061603004+18790+095220FM-12+0060VBPR V0202301N000510042019N0090001N1+02801+02501100311ADDAY121031AY221031GF108991051091004501071001MD1999999-0161MW1501REMSYN076AAXX  16034 48077 22459 82301 10280 20250 40031 75022 85970 333 56490 59016;
0150480770999992000061606004+18790+095220FM-12+0060VBPR V0202301N000510042019N0070001N1+02651+02461100341ADDAY161061AY251061GF108991051091004501071001MD1999999-0111MW1211REMSYN076AAXX  16064 48077 21457 82301 10265 20246 40034 72165 85970 333 56490 59011;
0150480770999992000061609004+18790+095220FM-12+0060VBPR V0202301N000510042019N0080001N1+02801+02681100181ADDAY161031AY251031GF108991051091004501071001MD1999999-0201MW1501REMSYN076AAXX  16094 48077 21458 82301 10280 20268 40018 75065 85970 333 56490 59020;
0169480770999992000061612004+18790+095220FM-12+0060VBPR V0202301N000510042019N0040001N1+02641+02561100101ADDAY151061AY251061GF108991051091004501071001KA1120M+02821MD1999999-0151MW1501REMSYN082AAXX  16124 48077 21496 82301 10264 20256 40010 75055 85970 333 10282 56490 59015;
0150480770999992000061703004+18790+095220FM-12+0060VBPR V0202301N000510042019N0060001N1+02841+02461100391ADDAY151031AY251031GF108991051091004501071001MD1999999+0081MW1501REMSYN076AAXX  17034 48077 21456 82301 10284 20246 40039 75055 85970 333 56490 58008;
0122480770999992000061709004+18790+095220FM-12+0060VBPR V0209999C000010450019N0100001N1+02991+02531100221ADDGF108991041091004501071001MD1999999+0051REMSYN070AAXX  17094 48077 22460 80000 10299 20253 40022 84970 333 56690 58005;
0141480770999992000061712004+18790+095220FM-12+0060VBPR V0209999C000010450019N0080001N1+02791+02591100281ADDGF107991031091004501071001KA1120M+03001MD1999999+0201REMSYN076AAXX  17124 48077 22458 70000 10279 20259 40028 83970 333 10300 56490 58020;
0141480770999992000061800004+18790+095220FM-12+0060VBPR V0201801N001519999999N0060001N1+02541+02331100401ADDGF108991999999004501999999KA1120N+02501MD1999999+0091REMSYN076AAXX  18004 48077 22456 81803 10254 20233 40040 94920 333 20250 56490 58009;
0122480770999992000061803004+18790+095220FM-12+0060VBPR V0201301N001010450019N0080001N1+02651+02291100541ADDGF108991041091004501021001MD1999999+0151REMSYN070AAXX  18034 48077 22458 81302 10265 20229 40054 84920 333 56490 58015;
0152480770999992000061806004+18790+095220FM-12+0060VBPR V0201801N001510450019N0100001N1+02851+02501100521ADDAA199000091GF108991041091004501071001MD1999999+0141REMSYN070AAXX  18064 48077 32460 81803 10285 20250 40052 84970 333 56490 58014;EQDQ01  00002PRCP99
0152480770999992000061809004+18790+095220FM-12+0060VBPR V0201801N001510450019N0100001N1+03111+02541100401ADDAA199000091GF107991041091004501071001MD1999999+0181REMSYN070AAXX  18094 48077 32460 71803 10311 20254 40040 84970 333 56490 58018;EQDQ01  00002PRCP99
0171480770999992000061812004+18790+095220FM-12+0060VBPR V0201801N000510450019N0080001N1+02871+02481100331ADDAA199000091GF107991031091004501071011KA1120M+03101MD1999999+0151REMSYN076AAXX  18124 48077 32458 71801 10287 20248 40033 83971 333 10310 56499 58015;EQDQ01  00002PRCP99
0171480770999992000061900004+18790+095220FM-12+0060VBPR V0201201N001010042019N0070001N1+02541+02331100581ADDAA199000091GF108991051091004501071001KA1120N+02501MD1999999+0181REMSYN076AAXX  19004 48077 32457 81202 10254 20233 40058 85970 333 20250 56490 58018;EQDQ01  00002PRCP99
0152480770999992000061903004+18790+095220FM-12+0060VBPR V0209999C000010042019N0090001N1+02701+02401100681ADDAA199000091GF108991051091004501071001MD1999999+0141REMSYN070AAXX  19034 48077 32459 80000 10270 20240 40068 85970 333 56490 58014;EQDQ01  00002PRCP99
0152480770999992000061906004+18790+095220FM-12+0060VBPR V0202301N002110120019N0100001N1+03101+02671100671ADDAA199000091GF106991051081008001031001MD1999999+0151REMSYN070AAXX  19064 48077 32560 62304 10310 20267 40067 85830 333 56490 58015;EQDQ01  00002PRCP99
0180480770999992000061909004+18790+095220FM-12+0060VBPR V0209999C000010042019N0090001N1+03301+02751100431ADDAA199000091AY151031AY221031GF108991051091004501071001MD1999999+0031MW1021REMSYN076AAXX  19094 48077 31459 80000 10330 20275 40043 70252 85970 333 56490 58003;EQDQ01  00002PRCP99
0169480770999992000061912004+18790+095220FM-12+0060VBPR V0209999C000010042019N0090001N1+02761+02501100421ADDAY161061AY251061GF106991051091004501071001KA1120M+03421MD1999999+0091MW1021REMSYN082AAXX  19124 48077 21459 60000 10276 20250 40042 70265 85970 333 10342 56490 58009;
0122480770999992000062003004+18790+095220FM-12+0060VBPR V0201801N000510450019N0100001N1+02801+02331100681ADDGF107991041081008001071001MD1999999-0011REMSYN070AAXX  20034 48077 22560 71801 10280 20233 40068 84870 333 56490 59001;
0152480770999992000062006004+18790+095220FM-12+0060VBPR V0202301N000510450019N0100001N1+03001+02391100651ADDAA199000091GF108991041081004501031001MD1999999-0021REMSYN070AAXX  20064 48077 32460 82301 10300 20239 40065 84830 333 56490 59002;EQDQ01  00002PRCP99
0152480770999992000062009004+18790+095220FM-12+0060VBPR V0201801N000510450019N0100001N1+03201+02481100491ADDAA199000091GF107991041091004501071001MD1999999+0061REMSYN070AAXX  20094 48077 32460 71801 10320 20248 40049 84970 333 56490 58006;EQDQ01  00002PRCP99
0169480770999992000062012004+18790+095220FM-12+0060VBPR V0209999C000010450019N0060001N1+02501+02501100551ADDAY161061AY251061GF108991041091004501031001KA1120M+03201MD1999999+0131MW1511REMSYN082AAXX  20124 48077 21456 80000 10250 20250 40055 75165 84930 333 10320 56590 58013;
0169480770999992000062100004+18790+095220FM-12+0060VBPR V0202301N000510042019N0070001N1+02501+02331100661ADDAY161061AY251061GF108991051091004501021001KA1120N+02471MD1999999+0061MW1021REMSYN082AAXX  21004 48077 21457 82301 10250 20233 40066 70265 85920 333 20247 56490 58006;
0122480770999992000062103004+18790+095220FM-12+0060VBPR V0202301N000510042019N0100001N1+02751+02501100781ADDGF107991051091004501031001MD1999999+0111REMSYN070AAXX  21034 48077 22460 72301 10275 20250 40078 85930 333 56490 58011;
0171480770999992000062200004+18790+095220FM-12+0060VBPR V0201801N000510042019N0060001N1+02541+02461100821ADDAA199000091GF108991051091004501021001KA1120N+02551MD1999999+0161REMSYN076AAXX  22004 48077 32456 81801 10254 20246 40082 85920 333 20255 56490 58016;EQDQ01  00002PRCP99
0152480770999992000062203004+18790+095220FM-12+0060VBPR V0202301N000510042019N0080001N1+02701+02561100941ADDAA199000091GF108991051091004501071001MD1999999+0151REMSYN070AAXX  22034 48077 32458 82301 10270 20256 40094 85970 333 56490 58015;EQDQ01  00002PRCP99
0171480770999992000062212004+18790+095220FM-12+0060VBPR V0209999C000010450019N0080001N1+02901+02591100641ADDAA199000091GF106991041091004501071001KA1120M+03221MD1999999-0021REMSYN076AAXX  22124 48077 32458 60000 10290 20259 40064 84970 333 10322 56590 59002;EQDQ01  00002PRCP99
0171480770999992000062300004+18790+095220FM-12+0060VBPR V0209999C000010450019N0090001N1+02601+02461100851ADDAA199000091GF107991041081008001031001KA1120N+02561MD1999999+0021REMSYN076AAXX  23004 48077 32559 70000 10260 20246 40085 84830 333 20256 56490 58002;EQDQ01  00002PRCP99
0152480770999992000062303004+18790+095220FM-12+0060VBPR V0202301N000510450019N0100001N1+02801+02501100881ADDAA199000091GF106991021021008001031011MD1999999-0061REMSYN070AAXX  23034 48077 32560 62301 10280 20250 40088 82231 333 56499 59006;EQDQ01  00002PRCP99
0161480770999992000062306004+18790+095220FM-12+0060VBPR V0202301N001010042019N0080001N1+03001+02391100821ADDAA199000021AY121061AY221061GF108991051091004501071001MD1999999-0101MW1501REMSYN076AAXX  23064 48077 31458 82302 10300 20239 40082 75022 85970 333 56490 59010;
0150480770999992000062309004+18790+095220FM-12+0060VBPR V0202301N002110042019N0090001N1+02671+02561100731ADDAY161031AY251031GF108991051091004501071001MD1999999+0001MW1211REMSYN076AAXX  23094 48077 21459 82304 10267 20256 40073 72165 85970 333 56490 59000;
0169480770999992000062312004+18790+095220FM-12+0060VBPR V0209999C000010042019N0090001N1+02671+02561100691ADDAY161061AY261061GF107991051091004501021001KA1120M+03071MD1999999+0051MW1011REMSYN082AAXX  23124 48077 21459 70000 10267 20256 40069 70166 85920 333 10307 56490 58005;
0150480770999992000062406004+18790+095220FM-12+0060VBPR V0209999C000010450019N0090001N1+02501+02331100601ADDAY161061AY251061GF108991041091004501071001MD1999999-0211MW1501REMSYN076AAXX  24064 48077 21459 80000 10250 20233 40060 75065 84970 333 56690 59021;
0150480770999992000062409004+18790+095220FM-12+0060VBPR V0209999C000010450019N0100001N1+02761+02501100401ADDAY151031AY221031GF106991031091004501031011MD1999999-0321MW1011REMSYN076AAXX  24094 48077 22460 60000 10276 20250 40040 70152 83931 333 56999 59032;
0169480770999992000062412004+18790+095220FM-12+0060VBPR V0202301N000510042019N0060001N1+02571+02461100471ADDAY161061AY251061GF108991051091004501021001KA1120M+02881MD1999999-0291MW1611REMSYN082AAXX  24124 48077 21456 82301 10257 20246 40047 76165 85920 333 10288 56590 59029;
0169480770999992000062500004+18790+095220FM-12+0060VBPR V0209999C000010042019N0070001N1+02501+02501100431ADDAY161061AY261061GF108991051091004501071001KA1120N+02451MD1999999-0171MW1021REMSYN082AAXX  25004 48077 21457 80000 10250 20250 40043 70266 85970 333 20245 56490 59017;
0122480770999992000062503004+18790+095220FM-12+0060VBPR V0202301N002110042019N0100001N1+02761+02501100461ADDGF107991051091004501031001MD1999999-0201REMSYN070AAXX  25034 48077 22460 72304 10276 20250 40046 85930 333 56490 59020;
0152480770999992000062506004+18790+095220FM-12+0060VBPR V0202301N001010450019N0100001N1+03001+02391100461ADDAA199000091GF107991041081004501031001MD1999999-0251REMSYN070AAXX  25064 48077 32460 72302 10300 20239 40046 84830 333 56490 59025;EQDQ01  00002PRCP99
0152480770999992000062509004+18790+095220FM-12+0060VBPR V0202301N003110042019N0100001N1+03001+02641100341ADDAA199000091GF108991051091004501031001MD1999999-0051REMSYN070AAXX  25094 48077 32460 82306 10300 20264 40034 85930 333 56590 59005;EQDQ01  00002PRCP99
0171480770999992000062512004+18790+095220FM-12+0060VBPR V0202301N001010450019N0090001N1+02901+02151100331ADDAA199000091GF107991041081008001031001KA1120M+03101MD1999999-0071REMSYN076AAXX  25124 48077 32559 72302 10290 20215 40033 84830 333 10310 56590 59007;EQDQ01  00002PRCP99
0171480770999992000062600004+18790+095220FM-12+0060VBPR V0201801N000510042019N0060001N1+02601+02461100481ADDAA199000091GF108991051091004501021001KA1120N+02541MD1999999+0051REMSYN076AAXX  26004 48077 32456 81801 10260 20246 40048 85920 333 20254 56490 58005;EQDQ01  00002PRCP99
0152480770999992000062603004+18790+095220FM-12+0060VBPR V0201801N000510042019N0100001N1+02801+02501100541ADDAA199000091GF107991051091004501031001MD1999999+0081REMSYN070AAXX  26034 48077 32460 71801 10280 20250 40054 85930 333 56490 58008;EQDQ01  00002PRCP99
0152480770999992000062606004+18790+095220FM-12+0060VBPR V0200401N000510450019N0110001N1+03051+02541100501ADDAA199000091GF106991031081008001031001MD1999999+0041REMSYN070AAXX  26064 48077 32561 60401 10305 20254 40050 83830 333 56490 58004;EQDQ01  00002PRCP99
0161480770999992000062609004+18790+095220FM-12+0060VBPR V0202301N001010042019N0100001N1+03121+02541100361ADDAA199000021AY121031AY221031GF107991051091004501031001MD1999999-0011MW1501REMSYN076AAXX  26094 48077 31460 72302 10312 20254 40036 75022 85930 333 56490 59001;
0180480770999992000062612004+18790+095220FM-12+0060VBPR V0209999C000010450019N0080001N1+02901+02481100291ADDAA199000021AY151061AY251061GF107991041091004501071001KA1120M+03171MD1999999-0041MW1501REMSYN082AAXX  26124 48077 31458 70000 10290 20248 40029 75055 84970 333 10317 56490 59004;
0169480770999992000062700004+18790+095220FM-12+0060VBPR V0201801N001010042019N0080001N1+02481+02331100491ADDAY161061AY251061GF108991051091004501071001KA1120N+02431MD1999999+0011MW1031REMSYN082AAXX  27004 48077 21458 81802 10248 20233 40049 70365 85970 333 20243 56490 58001;
0150480770999992000062703004+18790+095220FM-12+0060VBPR V0201301N004610042019N0090001N1+02601+02461100591ADDAY101031AY221031GF108991051091004501021001MD1999999+0051MW1051REMSYN076AAXX  27034 48077 22459 81309 10260 20246 40059 70502 85920 333 56490 58005;
0152480770999992000062706004+18790+095220FM-12+0060VBPR V0202301N001010042019N0100001N1+02901+02481100581ADDAA199000091GF107991051091004501031001MD1999999+0071REMSYN070AAXX  27064 48077 32460 72302 10290 20248 40058 85930 333 56490 58007;EQDQ01  00002PRCP99
0161480770999992000062709004+18790+095220FM-12+0060VBPR V0202301N001010042019N0060001N1+02771+02501100441ADDAA199000021AY151031AY221031GF107991051091004501071001MD1999999+0081MW1501REMSYN076AAXX  27094 48077 31456 72302 10277 20250 40044 75052 85970 333 56490 58008;
0155480770999992000062712004+18790+095220FM-12+0060VBPR V0202301N001010042019N0090001N1+02701+02401100421ADDAY151061AY251061GF108991051091004501071001KA1120M+02901MW1031REMSYN082AAXX  27124 48077 21459 82302 10270 20240 40042 70355 85970 333 10290 56490 56013;
0171480770999992000062800004+18790+095220FM-12+0060VBPR V0209999C000010450019N0080001N1+02541+02331100601ADDAA199000091GF108991041091004501071001KA1120N+02481MD1999999+0111REMSYN076AAXX  28004 48077 32458 80000 10254 20233 40060 84970 333 20248 56490 58011;EQDQ01  00002PRCP99
0152480770999992000062803004+18790+095220FM-12+0060VBPR V0202301N000510450019N0100001N1+02751+02501100781ADDAA199000091GF107991041081004501031011MD1999999+0181REMSYN070AAXX  28034 48077 32460 72301 10275 20250 40078 84831 333 56490 58018;EQDQ01  00002PRCP99
0152480770999992000062806004+18790+095220FM-12+0060VBPR V0201301N001010042019N0100001N1+03001+02531100731ADDAA199000091GF108991051091004501071001MD1999999+0161REMSYN070AAXX  28064 48077 32460 81302 10300 20253 40073 85970 333 56490 58016;EQDQ01  00002PRCP99
0161480770999992000062809004+18790+095220FM-12+0060VBPR V0201801N002110042019N0080001N1+03001+02531100581ADDAA199000021AY151031AY221031GF108991051091004501071001MD1999999+0141MW1501REMSYN076AAXX  28094 48077 31458 81804 10300 20253 40058 75052 85970 333 56590 58014;
0152480770999992000062903004+18790+095220FM-12+0060VBPR V0202301N000510450019N0100001N1+02801+02501100741ADDAA199000091GF105991031081004501031001MD1999999-0041REMSYN070AAXX  29034 48077 32460 52301 10280 20250 40074 83830 333 56490 59004;EQDQ01  00002PRCP99
0152480770999992000062906004+18790+095220FM-12+0060VBPR V0209999C000010450019N0100001N1+03101+02541100711ADDAA199000091GF108991041091004501061001MD1999999-0021REMSYN070AAXX  29064 48077 32460 80000 10310 20254 40071 84960 333 56490 59002;EQDQ01  00002PRCP99
0152480770999992000062909004+18790+095220FM-12+0060VBPR V0202301N000510042019N0100001N1+03371+02701100441ADDAA199000091GF106991051091004501031001MD1999999-0151REMSYN070AAXX  29094 48077 32460 62301 10337 20270 40044 85930 333 56490 59015;EQDQ01  00002PRCP99
0171480770999992000062912004+18790+095220FM-12+0060VBPR V0202301N000510450019N0080001N1+03281+02441100391ADDAA199000091GF107991021091008001031011KA1120M+03421MD1999999-0071REMSYN076AAXX  29124 48077 32558 72301 10328 20244 40039 82931 333 10342 56999 59007;EQDQ01  00002PRCP99
0171480770999992000063000004+18790+095220FM-12+0060VBPR V0209999C000019999999N0060001N1+02611+02461100531ADDAA199000091GF107991001001999999021011KA1120N+02571MD1999999-0171REMSYN076AAXX  30004 48077 32956 70000 10261 20246 40053 80021 333 20257 56799 59017;EQDQ01  00002PRCP99
0152480770999992000063003004+18790+095220FM-12+0060VBPR V0202301N000510450019N0100001N1+02951+02661100671ADDAA199000091GF107991031091004501071999MD1999999-0071REMSYN070AAXX  30034 48077 32460 72301 10295 20266 40067 8397/ 333 56499 59007;EQDQ01  00002PRCP99
0152480770999992000063006004+18790+095220FM-12+0060VBPR V0201801N000510450019N0110001N1+03121+02541100601ADDAA199000091GF107991031091004501071001MD1999999-0131REMSYN070AAXX  30064 48077 32461 71801 10312 20254 40060 83970 333 56690 59013;EQDQ01  00002PRCP99
0152480770999992000063009004+18790+095220FM-12+0060VBPR V0209999C000010450019N0120001N1+03311+02441100361ADDAA199000091GF107991031091004501031011MD1999999-0081REMSYN070AAXX  30094 48077 32462 70000 10331 20244 40036 83931 333 56999 59008;EQDQ01  00002PRCP99
0199480770999992000063012004+18790+095220FM-12+0060VBPR V0202701N001010450019N0060001N1+03101+02541100371ADDAA199000091AY191061AY261061GF108991041091004501071001KA1120M+03501MD1999999-0021MW1171REMSYN082AAXX  30124 48077 31456 82702 10310 20254 40037 71796 84970 333 10350 56490 59002;EQDQ01  00002PRCP99
0199480770999992000070100004+18790+095220FM-12+0060VBPR V0209999C000010042019N0080001N1+02661+02561100531ADDAA199000091AY191061AY221061GF108991051091004501071001KA1120N+02621MD1999999+0001MW1021REMSYN082AAXX  01004 48077 31458 80000 10266 20256 40053 70292 85970 333 20262 56490 58000;EQDQ01  00002PRCP99
0152480770999992000070103004+18790+095220FM-12+0060VBPR V0209999C000010450019N0100001N1+03011+02661100581ADDAA199000091GF106991041081008001031001MD1999999-0091REMSYN070AAXX  01034 48077 32560 60000 10301 20266 40058 84830 333 56990 59009;EQDQ01  00002PRCP99
0152480770999992000070106004+18790+095220FM-12+0060VBPR V0202301N001010450019N0110001N1+03221+02651100541ADDAA199000091GF106991041081008001031001MD1999999-0061REMSYN070AAXX  01064 48077 32561 62302 10322 20265 40054 84830 333 56490 59006;EQDQ01  00002PRCP99
0161480770999992000070109004+18790+095220FM-12+0060VBPR V0202301N000510075019N0100001N1+02971+02661100401ADDAA199000021AY151031AY221031GF107991051091008001071001MD1999999+0041MW1501REMSYN076AAXX  01094 48077 31560 72301 10297 20266 40040 75052 85970 333 56490 58004;
0169480770999992000070112004+18790+095220FM-12+0060VBPR V0209999C000010075019N0100001N1+03201+02651100321ADDAY151061AY251061GF107991051091008001031001KA1120M+03271MD1999999-0051MW1021REMSYN082AAXX  01124 48077 21560 70000 10320 20265 40032 70255 85930 333 10327 56990 59005;
0171480770999992000070200004+18790+095220FM-12+0060VBPR V0209999C000012200019N0080001N1+02601+02461100561ADDAA199000091GF104991021081008001031011KA1120N+02561MD1999999+0031REMSYN076AAXX  02004 48077 32558 40000 10260 20246 40056 82831 333 20256 56499 58003;EQDQ01  00002PRCP99
0168480770999992000070206004+18790+095220FM-12+0060VBPR V0209999C000010120019N0150001N1+03151+02651100561ADDAA199000091GF108991999081008001001001MD1999999-0031REMSYN070AAXX  02064 48077 32565 80000 10315 20265 40056 86800 333 56400 59003;EQDQ01+000062SCOTLCQ02  00002PRCP99
0152480770999992000070209004+18790+095220FM-12+0060VBPR V0209999C000012200019N0120001N1+03371+02571100231ADDAA199000091GF103991021091008001031001MD1999999-0171REMSYN070AAXX  02094 48077 32562 30000 10337 20257 40023 82930 333 56990 59017;EQDQ01  00002PRCP99
0203480770999992000070300004+18790+095220FM-12+0060VBPR V0209999C000019999999N0080001N1+02701+02561100281ADDAA199000091GF108991999999008001999999KA1120N+02381MD1999999-0271REMSYN076AAXX  03004 48077 32558 80000 10270 20256 40028 58930 333 20238 56990 59027;EQDQ01+000087APCTENQ02+009307APC3  Q03  00002PRCP99
0152480770999992000070303004+18790+095220FM-12+0060VBPR V0202301N000519999999N0120001N1+03001+02531100421ADDAA199000091GF106991001001999999031011MD1999999-0161REMSYN070AAXX  03034 48077 32962 62301 10300 20253 40042 80031 333 56099 59016;EQDQ01  00002PRCP99
0152480770999992000070306004+18790+095220FM-12+0060VBPR V0202301N000510450019N0150001N1+03201+02351100391ADDAA199000091GF107991021021008001031011MD1999999-0121REMSYN070AAXX  03064 48077 32565 72301 10320 20235 40039 82231 333 56499 59012;EQDQ01  00002PRCP99
0152480770999992000070309004+18790+095220FM-12+0060VBPR V0209999C000012200019N0110001N1+03401+02571100171ADDAA199000091GF106991041081008001001011MD1999999-0061REMSYN070AAXX  03094 48077 32561 60000 10340 20257 40017 84801 333 56409 59006;EQDQ01  00002PRCP99
0171480770999992000070312004+18790+095220FM-12+0060VBPR V0209999C000010450019N0100001N1+03301+02561100071ADDAA199000091GF108991021021008001031011KA1120M+03401MD1999999-0041REMSYN076AAXX  03124 48077 32560 80000 10330 20256 40007 82231 333 10340 56999 59004;EQDQ01  00002PRCP99
0171480770999992000070400004+18790+095220FM-12+0060VBPR V0209999C000019999999N0090001N1+02721+02401100271ADDAA199000091GF106991001001999999001061KA1120N+02641MD1999999-0021REMSYN076AAXX  04004 48077 32959 60000 10272 20240 40027 80006 333 20264 56009 59002;EQDQ01  00002PRCP99
0152480770999992000070403004+18790+095220FM-12+0060VBPR V0202301N000519999999N0100001N1+03001+02531100381ADDAA199000091GF107991001001999999031061MD1999999-0041REMSYN070AAXX  04034 48077 32960 72301 10300 20253 40038 80036 333 56099 59004;EQDQ01  00002PRCP99
0152480770999992000070406004+18790+095220FM-12+0060VBPR V0202301N000510450019N0110001N1+03001+02581100341ADDAA199000091GF106991021021008001031011MD1999999-0051REMSYN070AAXX  04064 48077 32561 62301 10300 20258 40034 82231 333 56499 59005;EQDQ01  00002PRCP99
0152480770999992000070409004+18790+095220FM-12+0060VBPR V0202301N000512200019N0110001N1+03401+02571100131ADDAA199000091GF105991031091004501001011MD1999999-0041REMSYN070AAXX  04094 48077 32461 52301 10340 20257 40013 83901 333 56409 59004;EQDQ01  00002PRCP99
0171480770999992000070412004+18790+095220FM-12+0060VBPR V0209999C000010450019N0100001N1+03201+02481100101ADDAA199000091GF106991041081008001031001KA1120M+03401MD1999999+0031REMSYN076AAXX  04124 48077 32560 60000 10320 20248 40010 84830 333 10340 56990 58003;EQDQ01  00002PRCP99
0171480770999992000070500004+18790+095220FM-12+0060VBPR V0209999C000010075019N0100001N1+02801+02681100311ADDAA199000091GF108991051091008001031001KA1120N+02751MD1999999+0041REMSYN076AAXX  05004 48077 32560 80000 10280 20268 40031 85930 333 20275 56490 58004;EQDQ01  00002PRCP99
0152480770999992000070503004+18790+095220FM-12+0060VBPR V0202301N000510450019N0100001N1+03101+02541100661ADDAA199000091GF107991031081008001031001MD1999999-0011REMSYN070AAXX  05034 48077 32560 72301 10310 20254 40066 83830 333 56490 59001;EQDQ01  00002PRCP99
0152480770999992000070506004+18790+095220FM-12+0060VBPR V0209999C000010075019N0100001N1+03101+02671100351ADDAA199000091GF107991051091008001061001MD1999999+0001REMSYN070AAXX  05064 48077 32560 70000 10310 20267 40035 85960 333 56490 59000;EQDQ01  00002PRCP99
0152480770999992000070509004+18790+095220FM-12+0060VBPR V0202301N001010075019N0100001N1+03301+02521100201ADDAA199000091GF106991051091008001031001MD1999999+0071REMSYN070AAXX  05094 48077 32560 62302 10330 20252 40020 85930 333 56990 58007;EQDQ01  00002PRCP99
0171480770999992000070512004+18790+095220FM-12+0060VBPR V0202301N001010075019N0090001N1+03001+02491100161ADDAA199000091GF108991051091008001071001KA1120M+03301MD1999999+0061REMSYN076AAXX  05124 48077 32559 82302 10300 20249 40016 85970 333 10330 56490 58006;EQDQ01  00002PRCP99
0169480770999992000070600004+18790+095220FM-12+0060VBPR V0209999C000010450019N0060001N1+02641+02601100401ADDAY161061AY221061GF106991041091004501071001KA1120N+02501MD1999999+0091MW1021REMSYN082AAXX  06004 48077 21456 60000 10264 20260 40040 70262 84970 333 20250 56490 58009;
0122480770999992000070603004+18790+095220FM-12+0060VBPR V0202301N000510450019N0090001N1+02851+02501100441ADDGF106991041081004501031001MD1999999+0071REMSYN070AAXX  06034 48077 22459 62301 10285 20250 40044 84830 333 56490 58007;
0150480770999992000070606004+18790+095220FM-12+0060VBPR V0209999C000010450019N0100001N1+02851+02501100451ADDAY161061AY251061GF107991041091004501071001MD1999999+0111MW1501REMSYN076AAXX  06064 48077 21460 70000 10285 20250 40045 75065 84970 333 56490 58011;
0161480770999992000070609004+18790+095220FM-12+0060VBPR V0202301N002110042019N0080001N1+02601+02601100401ADDAA199000021AY161031AY251031GF108991051091004501021999MD1999999+0111MW1651REMSYN076AAXX  06094 48077 32458 82304 10260 20260 40040 76565 8592/ 333 56490 58011;
0169480770999992000071112004+18790+095220FM-12+0060VBPR V0201301N002110042019N0060001N1+02701+02401100201ADDAY161061AY251061GF108991051091004501021001KA1120M+02961MD1999999+0211MW1501REMSYN082AAXX  11124 48077 21456 81304 10270 20240 40020 75065 85920 333 10296 56490 58021;
0152480770999992000071409004+18790+095220FM-12+0060VBPR V0202301N000510450019N0110001N1+03171+02811100331ADDAA199000091GF108991041091004501071001MD1999999-0291REMSYN070AAXX  14094 48077 32461 82301 10317 20281 40033 84970 333 56490 59029;EQDQ01  00002PRCP99
0199480770999992000071412004+18790+095220FM-12+0060VBPR V0202301N000510450019N0080001N1+02901+02481100261ADDAA199000091AY151061AY221061GF107991041091004501071001KA1120M+03171MD1999999-0331MW1031REMSYN082AAXX  14124 48077 31458 72301 10290 20248 40026 70352 84970 333 10317 56490 59033;EQDQ01  00002PRCP99
0180480770999992000071500004+18790+095220FM-12+0060VBPR V0209999C000010042019N0060001N1+02601+02461100351ADDAA199000021AY151061AY251061GF108991051091004501071001KA1120N+02561MD1999999-0321MW1201REMSYN082AAXX  15004 48077 31456 80000 10260 20246 40035 72055 85970 333 20256 56490 59032;
0133480770999992000071503004+18790+095220FM-12+0060VBPR V0201601N001010042019N0100001N1+02701+02561100371ADDAA199000021GF108991051091004501071001MD1999999-0341REMSYN070AAXX  15034 48077 32460 81602 10270 20256 40037 85970 333 56490 59034;
0133480770999992000071506004+18790+095220FM-12+0060VBPR V0202301N001010120019N0100001N1+03001+02561100321ADDAA199000021GF107991051081008001031001MD1999999-0341REMSYN070AAXX  15064 48077 32560 72302 10300 20256 40032 85830 333 56490 59034;
0161480770999992000071509004+18790+095220FM-12+0060VBPR V0202301N002112200019N0100001N1+03241+02481100061ADDAA199000021AY151031AY221031GF108991031091008001001011MD1999999-0281MW1011REMSYN076AAXX  15094 48077 31560 82304 10324 20248 40006 70152 83901 333 56409 59028;
0133480770999992000071512004+18790+095220FM-12+0060VBPR V0202301N002610075019N0090001N1+03001+02391100011ADDAA199000021GF108991051091008001071001MD1999999-0261REMSYN070AAXX  15124 48077 32559 82305 10300 20239 40001 85970 333 56490 59026;
0180480770999992000071600004+18790+095220FM-12+0060VBPR V0209999C000010042019N0060001N1+02621+02461100121ADDAA199000021AY121061AY221061GF108991051091004501021001KA1120N+02601MD1999999-0231MW1501REMSYN082AAXX  16004 48077 31456 80000 10262 20246 40012 75022 85920 333 20260 56590 59023;
0161480770999992000071603004+18790+095220FM-12+0060VBPR V0202301N000510450019N0100001N1+02901+02591100241ADDAA199000021AY151031AY261031GF106991041091004501071001MD1999999-0131MW1011REMSYN076AAXX  16034 48077 31460 62301 10290 20259 40024 70156 84970 333 56490 59013;
0133480770999992000071606004+18790+095220FM-12+0060VBPR V0202301N000510450019N0100001N1+03111+02541100231ADDAA199000021GF106991041091004501071999MD1999999-0101REMSYN070AAXX  16064 48077 32460 62301 10311 20254 40023 8497/ 333 56449 59010;
0150480770999992000071609004+18790+095220FM-12+0060VBPR V0202301N000510450019N0100001N1+02901+02591100021ADDAY191031AY261031GF108991041091004501071001MD1999999-0031MW1501REMSYN076AAXX  16094 48077 21460 82301 10290 20259 40002 75096 84970 333 56490 59003;
0180480770999992000071612004+18790+095220FM-12+0060VBPR V0209999C000010450019N0080001N1+02901+02591100111ADDAA199000021AY151061AY261061GF108991041091004501071001KA1120M+03121MD1999999+0111MW1021REMSYN082AAXX  16124 48077 31458 80000 10290 20259 40011 70256 84970 333 10312 56590 58011;
0150480770999992000071703004+18790+095220FM-12+0060VBPR V0202301N000510042019N0090001N1+03201+02461100461ADDAY161031AY251031GF108991051091004501031001MD1999999+0231MW1601REMSYN076AAXX  17034 48077 21459 82301 10320 20246 40046 76065 85930 333 56490 58023;
0161480770999992000071706004+18790+095220FM-12+0060VBPR V0202301N001010042019N0100001N1+02801+02501100481ADDAA199000021AY121061AY221061GF108991051091004501071001MD1999999+0251MW1501REMSYN076AAXX  17064 48077 31460 82302 10280 20250 40048 75022 85970 333 56490 58025;
0150480770999992000071709004+18790+095220FM-12+0060VBPR V0202301N001010042019N0070001N1+02701+02561100401ADDAY161031AY251031GF108991051091004501071001MD1999999+0291MW1501REMSYN076AAXX  17094 48077 21457 82302 10270 20256 40040 75065 85970 333 56490 58029;
0169480770999992000071712004+18790+095220FM-12+0060VBPR V0202301N000510042019N0070001N1+02701+02561100341ADDAY151061AY251061GF108991051091004501071001KA1120M+02831MD1999999+0221MW1501REMSYN082AAXX  17124 48077 21457 82301 10270 20256 40034 75055 85970 333 10283 56490 58022;
0166480770999992000071800004+18790+095220FM-12+0060VBPR V0209999C000010450019N0080001N1+02481+02331100461ADDGF108991041091004501071001KA1120N+02451MD1710652+0141REMSYN082AAXX  18004 48077 21458 80000 10248 20233 40046 57065 84970 333 20245 56590 58014;EQDQ01+000652APC3  
0122480770999992000071803004+18790+095220FM-12+0060VBPR V0203201N000510042019N0090001N1+02701+02401100551ADDGF108991051091004501031001MD1999999+0081REMSYN070AAXX  18034 48077 22459 83201 10270 20240 40055 85930 333 56590 58008;
0161480770999992000071806004+18790+095220FM-12+0060VBPR V0201801N000510042019N0100001N1+02801+02501100561ADDAA199000021AY161061AY261061GF108991051091004501071001MD1999999+0091MW1501REMSYN076AAXX  18064 48077 31460 81801 10280 20250 40056 75066 85970 333 56490 58009;
0120480770999992000071809004+18790+095220FM-12+0060VBPR V0201801N000510450019N0030001N1+02881+02741100441ADDAY161031AY251031GF108991041091004501071001MW1501REMSYN060AAXX  18094 48077 21430 81801 10288 20274 40044 75065 84970;
0169480770999992000071812004+18790+095220FM-12+0060VBPR V0209999C000010450019N0060001N1+02801+02681100401ADDAY151061AY221061GF108991041091004501071001KA1120M+02881MD1999999+0071MW1021REMSYN082AAXX  18124 48077 21456 80000 10280 20268 40040 70252 84970 333 10288 56490 58007;
0169480770999992000071900004+18790+095220FM-12+0060VBPR V0201301N000510042019N0060001N1+02401+02401100491ADDAY161061AY261061GF108991051091004501021001KA1120N+02361MD1999999+0021MW1601REMSYN082AAXX  19004 48077 21456 81301 10240 20240 40049 76066 85920 333 20236 56490 58002;
0150480770999992000071903004+18790+095220FM-12+0060VBPR V0202301N000510042019N0080001N1+02601+02461100541ADDAY161031AY251031GF108991051091004501021999MD1999999-0011MW1501REMSYN076AAXX  19034 48077 21458 82301 10260 20246 40054 75065 8592/ 333 56490 59001;
0133480770999992000071906004+18790+095220FM-12+0060VBPR V0201801N000510450019N0100001N1+02921+02591100491ADDAA199000021GF108991041091004501071001MD1999999-0071REMSYN070AAXX  19064 48077 32460 81801 10292 20259 40049 84970 333 56490 59007;
0133480770999992000071909004+18790+095220FM-12+0060VBPR V0202301N001010450019N0100001N1+03101+02141100411ADDAA199000021GF107991041081004501071001MD1999999-0041REMSYN070AAXX  19094 48077 32460 72302 10310 20214 40041 84870 333 56590 59004;
0171480770999992000071912004+18790+095220FM-12+0060VBPR V0202301N000510450019N0090001N1+02002+99999100311ADDAA199000021GF107991041081008001031011KA1120M+02101MD1999999-0101REMSYN076AAXX  19124 48077 32559 72301 10200 20253 40031 84831 333 10210 56999 59010;EQDQ01+002003ATOT  
0171480770999992000072000004+18790+095220FM-12+0060VBPR V0201801N000510450019N0060001N1+02611+02461100541ADDAA199000091GF106991041091004501071001KA1120N+02551MD1999999+0101REMSYN076AAXX  20004 48077 32456 61801 10261 20246 40054 84970 333 20255 56490 58010;EQDQ01  00002PRCP99
0152480770999992000072003004+18790+095220FM-12+0060VBPR V0202301N000510450019N0090001N1+02701+02401100641ADDAA199000091GF107991041091004501031001MD1999999+0101REMSYN070AAXX  20034 48077 32459 72301 10270 20240 40064 84930 333 56490 58010;EQDQ01  00002PRCP99
0152480770999992000072006004+18790+095220FM-12+0060VBPR V0202301N000510450019N0100001N1+03001+02391100621ADDAA199000091GF107991041081004501031001MD1999999+0131REMSYN070AAXX  20064 48077 32460 72301 10300 20239 40062 84830 333 56490 58013;EQDQ01  00002PRCP99
0152480770999992000072009004+18790+095220FM-12+0060VBPR V0201801N000510450019N0100001N1+03111+02541100541ADDAA199000091GF108991041091004501071001MD1999999+0141REMSYN070AAXX  20094 48077 32460 81801 10311 20254 40054 84970 333 56490 58014;EQDQ01  00002PRCP99
0171480770999992000072012004+18790+095220FM-12+0060VBPR V0209999C000010450019N0080001N1+03021+02531100501ADDAA199000091GF107991031091004501071001KA1120M+03121MD1999999+0201REMSYN076AAXX  20124 48077 32458 70000 10302 20253 40050 83970 333 10312 56990 58020;EQDQ01  00002PRCP99
0171480770999992000072100004+18790+095220FM-12+0060VBPR V0201301N000510042019N0080001N1+02641+02461100661ADDAA199000091GF108991051091004501031001KA1120N+02601MD1999999+0111REMSYN076AAXX  21004 48077 32458 81301 10264 20246 40066 85930 333 20260 56490 58011;EQDQ01  00002PRCP99
0152480770999992000072103004+18790+095220FM-12+0060VBPR V0202301N000510042019N0080001N1+02801+02501100731ADDAA199000091GF108991051091004501071001MD1999999+0081REMSYN070AAXX  21034 48077 32458 82301 10280 20250 40073 85970 333 56490 58008;EQDQ01  00002PRCP99
0152480770999992000072106004+18790+095220FM-12+0060VBPR V0202301N000510450019N0100001N1+03101+02541100671ADDAA199000091GF105991031081004501031001MD1999999+0051REMSYN070AAXX  21064 48077 32460 52301 10310 20254 40067 83830 333 56590 58005;EQDQ01  00002PRCP99
0152480770999992000072109004+18790+095220FM-12+0060VBPR V0200901N001010042019N0100001N1+03101+02371100551ADDAA199000091GF107991051091004501031001MD1999999+0011REMSYN070AAXX  21094 48077 32460 70902 10310 20237 40055 85930 333 56590 58001;EQDQ01  00002PRCP99
0169480770999992000072112004+18790+095220FM-12+0060VBPR V0202301N001010042019N0100001N1+02741+02401100531ADDAY161061AY221061GF107991051091004501031001KA1120M+03141MD1999999+0021MW1021REMSYN082AAXX  21124 48077 21460 72302 10274 20240 40053 70262 85930 333 10314 56590 58002;
0141480770999992000072200004+18790+095220FM-12+0060VBPR V0209999C000010450019N0060001N1+02541+02331100601ADDGF108991041091004501071001KA1120N+02461MD1999999-0051REMSYN076AAXX  22004 48077 22456 80000 10254 20233 40060 84970 333 20246 56490 59005;
0122480770999992000072203004+18790+095220FM-12+0060VBPR V0209999C000010450019N0100001N1+02761+02501100691ADDGF108991041091004501071001MD1999999-0031REMSYN070AAXX  22034 48077 22460 80000 10276 20250 40069 84970 333 56690 59003;
0152480770999992000072206004+18790+095220FM-12+0060VBPR V0201801N001010450019N0110001N1+02911+02481100681ADDAA199000091GF107991041091004501071001MD1999999+0001REMSYN070AAXX  22064 48077 32461 71802 10291 20248 40068 84970 333 56490 58000;EQDQ01  00002PRCP99
0152480770999992000072209004+18790+095220FM-12+0060VBPR V0202301N000510042019N0100001N1+03051+02391100491ADDAA199000091GF108991051091004501071001MD1999999-0051REMSYN070AAXX  22094 48077 32460 82301 10305 20239 40049 85970 333 56490 59005;EQDQ01  00002PRCP99
0171480770999992000072212004+18790+095220FM-12+0060VBPR V0202301N002110450019N0070001N1+02721+02261100501ADDAA199000091GF108991031091004501071001KA1120M+03161MD1999999-0021REMSYN076AAXX  22124 48077 32457 82304 10272 20226 40050 83970 333 10316 56590 59002;EQDQ01  00002PRCP99
0171480770999992000072300004+18790+095220FM-12+0060VBPR V0209999C000010042019N0070001N1+02531+02331100531ADDAA199000091GF108991051091004501031001KA1120N+02501MD1999999-0071REMSYN076AAXX  23004 48077 32457 80000 10253 20233 40053 85930 333 20250 56490 59007;EQDQ01  00002PRCP99
0152480770999992000072303004+18790+095220FM-12+0060VBPR V0201801N002610042019N0100001N1+02801+02501100541ADDAA199000091GF108991051091004501031001MD1999999-0161REMSYN070AAXX  23034 48077 32460 81805 10280 20250 40054 85930 333 56590 59016;EQDQ01  00002PRCP99
0180480770999992000072306004+18790+095220FM-12+0060VBPR V0201801N002110042019N0100001N1+02781+02331100571ADDAA199000091AY151061AY221061GF108991051091004501071001MD1999999-0101MW1021REMSYN076AAXX  23064 48077 31460 81804 10278 20233 40057 70252 85970 333 56590 59010;EQDQ01  00002PRCP99
0152480770999992000072309004+18790+095220FM-12+0060VBPR V0201801N002110450019N0100001N1+03061+02371100351ADDAA199000091GF107991041091004501031001MD1999999-0141REMSYN070AAXX  23094 48077 32460 71804 10306 20237 40035 84930 333 56590 59014;EQDQ01  00002PRCP99
0171480770999992000072312004+18790+095220FM-12+0060VBPR V0201801N002110450019N0100001N1+02841+02331100331ADDAA199000091GF107991041081004501031001KA1120M+03071MD1999999-0181REMSYN076AAXX  23124 48077 32460 71804 10284 20233 40033 84830 333 10307 56099 59018;EQDQ01  00002PRCP99
0171480770999992000072400004+18790+095220FM-12+0060VBPR V0209999C000010450019N0080001N1+02581+02461100401ADDAA199000091GF107991031081004501071001KA1120N+02541MD1999999-0121REMSYN076AAXX  24004 48077 32458 70000 10258 20246 40040 83870 333 20254 56990 59012;EQDQ01  00002PRCP99
0150480770999992000072403004+18790+095220FM-12+0060VBPR V0202301N001010042019N0080001N1+02511+02461100611ADDAY161031AY221031GF108991051091004501021001MD1999999-0081MW1611REMSYN076AAXX  24034 48077 21458 82302 10251 20246 40061 76162 85920 333 56490 59008;
0133480770999992000072406004+18790+095220FM-12+0060VBPR V0202301N001010450019N0100001N1+02801+02501100331ADDAA199000021GF107991041081004501031001MD1999999+0051REMSYN070AAXX  24064 48077 32460 72302 10280 20250 40033 84830 333 56490 58005;
0133480770999992000072409004+18790+095220FM-12+0060VBPR V0202301N000510450019N0110001N1+02921+02481100461ADDAA199000021GF108991041091004501071001MD1999999+0101REMSYN070AAXX  24094 48077 32461 82301 10292 20248 40046 84970 333 56490 58010;
0152480770999992000072412004+18790+095220FM-12+0060VBPR V0209999C000010450019N0080001N1+02881+02481100451ADDAA199000021GF107991041091004501071001KA1120M+03001MD1999999+0121REMSYN076AAXX  24124 48077 32458 70000 10288 20248 40045 84970 333 10300 56490 58012;
0141480770999992000072500004+18790+095220FM-12+0060VBPR V0202301N001010042019N0080001N1+02641+02461100541ADDGF108991051091004501071001KA1120N+02561MD1999999+0141REMSYN076AAXX  25004 48077 21458 82302 10264 20246 40054 85970 333 20256 56490 58014;
0152480770999992000072503004+18790+095220FM-12+0060VBPR V0202301N000510042019N0090001N1+02801+02501100711ADDAA199000091GF108991051091004501031001MD1999999+0091REMSYN070AAXX  25034 48077 32459 82301 10280 20250 40071 85930 333 56490 58009;EQDQ01  00002PRCP99
0152480770999992000072506004+18790+095220FM-12+0060VBPR V0201801N000510450019N0100001N1+03001+02531100691ADDAA199000091GF108991041081004501031001MD1999999+0061REMSYN070AAXX  25064 48077 32460 81801 10300 20253 40069 84830 333 56490 58006;EQDQ01  00002PRCP99
0152480770999992000072509004+18790+095220FM-12+0060VBPR V0202301N011310042019N0100001N1+03101+02541100561ADDAA199000091GF107991051091004501061001MD1999999+0081REMSYN070AAXX  25094 48077 32460 72322 10310 20254 40056 85960 333 56490 58008;EQDQ01  00002PRCP99
0169480770999992000072512004+18790+095220FM-12+0060VBPR V0209999C000010042019N0060001N1+02501+02331100541ADDAY191061AY261061GF108991051091004501021001KA1120M+03121MD1999999-0091MW1501REMSYN082AAXX  25124 48077 21456 80000 10250 20233 40054 75096 85920 333 10312 56490 59009;
0141480770999992000072600004+18790+095220FM-12+0060VBPR V0209999C000010042019N0060001N1+02501+02331100691ADDGF108991051091004501021001KA1120N+02441MD1999999+0151REMSYN076AAXX  26004 48077 22456 80000 10250 20233 40069 85920 333 20244 56490 58015;
0122480770999992000072603004+18790+095220FM-12+0060VBPR V0202301N001010450019N0100001N1+02751+02501100771ADDGF106991031081004501031001MD1999999+0061REMSYN070AAXX  26034 48077 22460 62302 10275 20250 40077 83830 333 56490 58006;
0152480770999992000072606004+18790+095220FM-12+0060VBPR V0202301N000510450019N0100001N1+03001+02391100741ADDAA199000091GF108991041081004501031001MD1999999+0041REMSYN070AAXX  26064 48077 32460 82301 10300 20239 40074 84830 333 56490 58004;EQDQ01  00002PRCP99
0152480770999992000072609004+18790+095220FM-12+0060VBPR V0209999C000010450019N0110001N1+03001+02391100611ADDAA199000091GF107991031081008001031011MD1999999+0081REMSYN070AAXX  26094 48077 32561 70000 10300 20239 40061 83831 333 56699 58008;EQDQ01  00002PRCP99
0171480770999992000072612004+18790+095220FM-12+0060VBPR V0202301N000510450019N0080001N1+02901+02301100581ADDAA199000091GF107991031091008001031011KA1120M+03001MD1999999+0011REMSYN076AAXX  26124 48077 32558 72301 10290 20230 40058 83931 333 10300 56999 58001;EQDQ01  00002PRCP99
0171480770999992000072700004+18790+095220FM-12+0060VBPR V0209999C000010075019N0080001N1+02581+02461100601ADDAA199000091GF108991051091008001031001KA1120N+02541MD1999999-0091REMSYN076AAXX  27004 48077 32558 80000 10258 20246 40060 85930 333 20254 56490 59009;EQDQ01  00002PRCP99
0152480770999992000072703004+18790+095220FM-12+0060VBPR V0202301N000510042019N0090001N1+02801+02501100661ADDAA199000091GF107991051091004501031001MD1999999-0111REMSYN070AAXX  27034 48077 32459 72301 10280 20250 40066 85930 333 56490 59011;EQDQ01  00002PRCP99
0152480770999992000072706004+18790+095220FM-12+0060VBPR V0202301N000510450019N0100001N1+03101+02671100641ADDAA199000091GF106991041081004501031001MD1999999-0101REMSYN070AAXX  27064 48077 32460 62301 10310 20267 40064 84830 333 56590 59010;EQDQ01  00002PRCP99
0169480770999992000072712004+18790+095220FM-12+0060VBPR V0209999C000010075019N0100001N1+02801+02501100371ADDAY161061AY221061GF107991051091008001031001KA1120M+03121MD1999999-0181MW1021REMSYN082AAXX  27124 48077 21560 70000 10280 20250 40037 70262 85930 333 10312 56990 59018;
0141480770999992000072800004+18790+095220FM-12+0060VBPR V0209999C000012200019N0080001N1+02551+02291100521ADDGF103991001001999999031011KA1120N+02471MD1999999-0081REMSYN076AAXX  28004 48077 22958 30000 10255 20229 40052 80031 333 20247 56099 59008;
0122480770999992000072803004+18790+095220FM-12+0060VBPR V0202301N000519999999N0100001N1+02801+02331100641ADDGF105991001001999999031061MD1999999-0031REMSYN070AAXX  28034 48077 22960 52301 10280 20233 40064 80036 333 56099 59003;
0152480770999992000072806004+18790+095220FM-12+0060VBPR V0202301N000512200019N0110001N1+03201+02481100591ADDAA199000091GF104991021021008001001011MD1999999-0041REMSYN070AAXX  28064 48077 32561 42301 10320 20248 40059 82201 333 56699 59004;EQDQ01  00002PRCP99
0152480770999992000072809004+18790+095220FM-12+0060VBPR V0209999C000012200019N0110001N1+03481+02401100331ADDAA199000091GF103991021091008001031001MD1999999-0141REMSYN070AAXX  28094 48077 32561 30000 10348 20240 40033 82930 333 56909 59014;EQDQ01  00002PRCP99
0171480770999992000072812004+18790+095220FM-12+0060VBPR V0209999C000010450019N0080001N1+03201+02481100301ADDAA199000091GF106991031091008001031011KA1120M+03481MD1999999-0061REMSYN076AAXX  28124 48077 32558 60000 10320 20248 40030 83931 333 10348 56699 59006;EQDQ01  00002PRCP99
0171480770999992000072900004+18790+095220FM-12+0060VBPR V0209999C000012200019N0080001N1+02561+02461100531ADDAA199000091GF103991001001999999031011KA1120N+02561MD1999999+0011REMSYN076AAXX  29004 48077 32958 30000 10256 20246 40053 80031 333 20256 56099 58001;EQDQ01  00002PRCP99
0152480770999992000072903004+18790+095220FM-12+0060VBPR V0209999C000012200019N0100001N1+03001+02531100711ADDAA199000091GF102991001001999999001011MD1999999+0071REMSYN070AAXX  29034 48077 32960 20000 10300 20253 40071 80001 333 56009 58007;EQDQ01  00002PRCP99
0152480770999992000072906004+18790+095220FM-12+0060VBPR V0209999C000012200019N0100001N1+02171+99999100681ADDAA199000091GF104991021021008001001011MD1999999+0091REMSYN070AAXX  29064 48077 32560 40000 10217 20246 40068 82201 333 56609 58009;EQDQ01  00002PRCP99
0152480770999992000072909004+18790+095220FM-12+0060VBPR V0202301N001012200019N0100001N1+03372+02401100461ADDAA199000091GF106991041081008001001011MD1999999+0131REMSYN070AAXX  29094 48077 32560 62302 10337 20240 40046 84801 333 56609 58013;EQDQ01  00002PRCP99
0169480770999992000072912004+18790+095220FM-12+0060VBPR V0209999C000010075019N0090001N1+02901+02481100501ADDAY151061AY221061GF107991051091008001031001KA1120M+03401MD1999999+0201MW1201REMSYN082AAXX  29124 48077 21559 70000 10290 20248 40050 72052 85930 333 10340 56990 58020;
0152480770999992000073000004+18790+095220FM-12+0060VBPR V0209999C000010450019N0080001N1+02621+02291100681ADDAA199000021GF106991011091008001031011KA1120N+02591MD1999999+0151REMSYN076AAXX  30004 48077 32558 60000 10262 20229 40068 81931 333 20259 56999 58015;
0152480770999992000073003004+18790+095220FM-12+0060VBPR V0209999C000010450019N0110001N1+02481+02481100811ADDAA199000091GF108991011021008001031011MD1999999+0101REMSYN070AAXX  30034 48077 32561 80000 10248 20248 40081 81231 333 56999 58010;EQDQ01  00002PRCP99
0152480770999992000073006004+18790+095220FM-12+0060VBPR V0201801N000512200019N0110001N1+03151+02651100801ADDAA199000091GF104991021021008001031001MD1999999+0141REMSYN070AAXX  30064 48077 32561 41801 10315 20265 40080 82230 333 56590 58014;EQDQ01  00002PRCP99
0180480770999992000073009004+18790+095220FM-12+0060VBPR V0202301N001010450019N0110001N1+03401+02571100631ADDAA199000091AY191031AY221031GF107991041091008001071001MD1999999+0171MW1031REMSYN076AAXX  30094 48077 31561 72302 10340 20257 40063 70392 84970 333 56790 58017;EQDQ01  00002PRCP99
0171480770999992000073012004+18790+095220FM-12+0060VBPR V0209999C000010450019N0080001N1+03041+02391100591ADDAA199000091GF107991031041008001071001KA1120M+03401MD1999999+0091REMSYN076AAXX  30124 48077 32558 70000 10304 20239 40059 83470 333 10340 56590 58009;EQDQ01  00002PRCP99
0171480770999992000073100004+18790+095220FM-12+0060VBPR V0209999C000010450019N0060001N1+02601+02461100731ADDAA199000091GF106991031081008001031011KA1120N+02571MD1999999+0051REMSYN076AAXX  31004 48077 32556 60000 10260 20246 40073 83831 333 20257 56999 58005;EQDQ01  00002PRCP99
0152480770999992000073103004+18790+095220FM-12+0060VBPR V0202301N000512200019N0100001N1+02901+02481100851ADDAA199000091GF104991011021008001031011MD1999999+0041REMSYN070AAXX  31034 48077 32560 42301 10290 20248 40085 81231 333 56999 58004;EQDQ01  00002PRCP99
0152480770999992000073106004+18790+095220FM-12+0060VBPR V0201801N000510450019N0110001N1+03201+02481100811ADDAA199000091GF106991041081004501031001MD1999999-0011REMSYN070AAXX  31064 48077 32461 61801 10320 20248 40081 84830 333 56590 59001;EQDQ01  00002PRCP99
0150480770999992000073109004+18790+095220FM-12+0060VBPR V0209999C000010042019N0090001N1+02801+02501100721ADDAY191031AY261031GF108991051091004501071001MD1999999+0091MW1171REMSYN076AAXX  31094 48077 21459 80000 10280 20250 40072 71796 85970 333 56690 58009;
0169480770999992000073112004+18790+095220FM-12+0060VBPR V0209999C000010450019N0090001N1+02901+02591100611ADDAY191061AY251061GF108991041091004501071001KA1120M+03241MD1999999+0021MW1021REMSYN082AAXX  31124 48077 21459 80000 10290 20259 40061 70295 84970 333 10324 56990 58002;
0122480770999992000080103004+18790+095220FM-12+0060VBPR V0201801N000512200019N0100001N1+02821+02331100801ADDGF102991001001999999031011MD1999999-0051REMSYN070AAXX  01034 48077 22960 21801 10282 20233 40080 80031 333 56099 59005;
0152480770999992000080106004+18790+095220FM-12+0060VBPR V0201301N000512200019N0110001N1+03101+02251100811ADDAA199000091GF106991011021008001001011MD1999999+0001REMSYN070AAXX  01064 48077 32561 61301 10310 20225 40081 81201 333 56909 59000;EQDQ01  00002PRCP99
0152480770999992000080109004+18790+095220FM-12+0060VBPR V0202301N000512200019N0110001N1+03401+02401100701ADDAA199000091GF104991031091008001031001MD1999999-0021REMSYN070AAXX  01094 48077 32561 42301 10340 20240 40070 83930 333 56550 59002;EQDQ01  00002PRCP99
0171480770999992000080112004+18790+095220FM-12+0060VBPR V0203201N000512200019N0080001N1+03121+02541100581ADDAA199000091GF104991011061008001031001KA1120M+03401MD1999999-0031REMSYN076AAXX  01124 48077 32558 43201 10312 20254 40058 81630 333 10340 56590 59003;EQDQ01  00002PRCP99
0171480770999992000080200004+18790+095220FM-12+0060VBPR V0209999C000010450019N0090001N1+02621+02461100731ADDAA199000091GF106991021021008001031001KA1120N+02571MD1999999+0071REMSYN076AAXX  02004 48077 32559 60000 10262 20246 40073 82230 333 20257 56990 58007;EQDQ01  00002PRCP99
0152480770999992000080203004+18790+095220FM-12+0060VBPR V0202301N000510450019N0100001N1+03001+02561100791ADDAA199000091GF106991031081008001031011MD1999999-0011REMSYN070AAXX  02034 48077 32560 62301 10300 20256 40079 83831 333 56599 59001;EQDQ01  00002PRCP99
0152480770999992000080206004+18790+095220FM-12+0060VBPR V0202301N000510450019N0110001N1+03001+02361100781ADDAA199000091GF107991031081008001031011MD1999999-0031REMSYN070AAXX  02064 48077 32561 72301 10300 20236 40078 83831 333 56799 59003;EQDQ01  00002PRCP99
0180480770999992000080209004+18790+095220FM-12+0060VBPR V0202301N000510450019N0100001N1+03301+02441100621ADDAA199000091AY151031AY221031GF107991041091008001031001MD1999999-0081MW1021REMSYN076AAXX  02094 48077 31560 72301 10330 20244 40062 70252 84930 333 56790 59008;EQDQ01  00002PRCP99
0171480770999992000080212004+18790+095220FM-12+0060VBPR V0202301N001010075019N0100001N1+03201+02651100571ADDAA199000091GF107991051091008001031001KA1120M+03341MD1999999-0011REMSYN076AAXX  02124 48077 32560 72302 10320 20265 40057 85930 333 10334 56590 59001;EQDQ01  00002PRCP99
0171480770999992000080300004+18790+095220FM-12+0060VBPR V0209999C000012200019N0080001N1+02651+02291100661ADDAA199000091GF104991011021008001031011KA1120N+02601MD1999999-0071REMSYN076AAXX  03004 48077 32558 40000 10265 20229 40066 81231 333 20260 56999 59007;EQDQ01  00002PRCP99
0152480770999992000080303004+18790+095220FM-12+0060VBPR V0202301N000512200019N0110001N1+02901+02481100771ADDAA199000091GF104991011021008001031011MD1999999-0021REMSYN070AAXX  03034 48077 32561 42301 10290 20248 40077 81231 333 56499 59002;EQDQ01  00002PRCP99
0152480770999992000080306004+18790+095220FM-12+0060VBPR V0202301N000510450019N0110001N1+03151+02481100741ADDAA199000091GF107991031091008001031011MD1999999-0041REMSYN070AAXX  03064 48077 32561 72301 10315 20248 40074 83931 333 56499 59004;EQDQ01  00002PRCP99
0152480770999992000080309004+18790+095220FM-12+0060VBPR V0201801N000510450019N0110001N1+03251+02361100501ADDAA199000091GF106991031081008001051061MD1999999-0121REMSYN070AAXX  03094 48077 32561 61801 10325 20236 40050 83856 333 56599 59012;EQDQ01  00002PRCP99
0199480770999992000080312004+18790+095220FM-12+0060VBPR V0209999C000010450019N0080001N1+03021+02531100431ADDAA199000091AY151061AY261061GF106991031091008001071001KA1120M+03281MD1999999-0121MW1021REMSYN082AAXX  03124 48077 31558 60000 10302 20253 40043 70256 83970 333 10328 56899 59012;EQDQ01  00002PRCP99
0169480770999992000080400004+18790+095220FM-12+0060VBPR V0209999C000010450019N0080001N1+02701+02561100601ADDAY161061AY251061GF107991041081008001031001KA1120N+02641MD1999999-0061MW1031REMSYN082AAXX  04004 48077 21558 70000 10270 20256 40060 70365 84830 333 20264 56499 59006;
0122480770999992000080403004+18790+095220FM-12+0060VBPR V0202301N000510450019N0100001N1+02951+02531100641ADDGF106991021081008001041001MD1999999-0121REMSYN070AAXX  04034 48077 22560 62301 10295 20253 40064 82840 333 56490 59012;
0152480770999992000080406004+18790+095220FM-12+0060VBPR V0209999C000010450019N0100001N1+03201+02361100621ADDAA199000091GF107991031081004501031011MD1999999-0121REMSYN070AAXX  04064 48077 32460 70000 10320 20236 40062 83831 333 56599 59012;EQDQ01  00002PRCP99
0199480770999992000080412004+18790+095220FM-12+0060VBPR V0209999C000010075019N0090001N1+02801+02331100411ADDAA199000091AY151061AY221061GF108991051091008001031001KA1120M+03361MD1999999-0021MW1031REMSYN082AAXX  04124 48077 31559 80000 10280 20233 40041 70352 85930 333 10336 56590 59002;EQDQ01  00002PRCP99
0171480770999992000080500004+18790+095220FM-12+0060VBPR V0209999C000010450019N0080001N1+02621+02461100471ADDAA199000091GF107991021081008001071001KA1120N+02601MD1999999-0131REMSYN076AAXX  05004 48077 32558 70000 10262 20246 40047 82870 333 20260 56490 59013;EQDQ01  00002PRCP99
0152480770999992000080503004+18790+095220FM-12+0060VBPR V0202301N000510450019N0100001N1+02891+02481100561ADDAA199000091GF107991031081008001071001MD1999999-0081REMSYN070AAXX  05034 48077 32560 72301 10289 20248 40056 83870 333 56490 59008;EQDQ01  00002PRCP99
0152480770999992000080506004+18790+095220FM-12+0060VBPR V0201801N000510450019N0110001N1+03101+02541100541ADDAA199000091GF108991031091008001071011MD1999999-0081REMSYN070AAXX  05064 48077 32561 81801 10310 20254 40054 83971 333 56799 59008;EQDQ01  00002PRCP99
0152480770999992000080509004+18790+095220FM-12+0060VBPR V0201801N000510450019N0110001N1+03111+02371100361ADDAA199000091GF107991041091008001071011MD1999999-0071REMSYN070AAXX  05094 48077 32561 71801 10311 20237 40036 84971 333 56799 59007;EQDQ01  00002PRCP99
0171480770999992000080512004+18790+095220FM-12+0060VBPR V0202301N002610450019N0080001N1+02911+02301100271ADDAA199000091GF108991031091008001071001KA1120M+03211MD1999999-0141REMSYN076AAXX  05124 48077 32558 82305 10291 20230 40027 83970 333 10321 56690 59014;EQDQ01  00002PRCP99
0171480770999992000080600004+18790+095220FM-12+0060VBPR V0201801N001010075019N0080001N1+02601+02461100441ADDAA199000091GF108991051091008001071001KA1120N+02521MD1999999-0021REMSYN076AAXX  06004 48077 32558 81802 10260 20246 40044 85970 333 20252 56490 59002;EQDQ01  00002PRCP99
0152480770999992000080603004+18790+095220FM-12+0060VBPR V0201801N000510075019N0100001N1+02741+02401100551ADDAA199000091GF108991051091008001071001MD1999999-0011REMSYN070AAXX  06034 48077 32560 81801 10274 20240 40055 85970 333 56490 59001;EQDQ01  00002PRCP99
0161480770999992000080606004+18790+095220FM-12+0060VBPR V0201801N000510075019N0100001N1+02901+02481100561ADDAA199000021AY151061AY261061GF108991051091008001071001MD1999999-0021MW1201REMSYN076AAXX  06064 48077 31560 81801 10290 20248 40056 72056 85970 333 56490 59002;
0150480770999992000080609004+18790+095220FM-12+0060VBPR V0201801N000510042019N0080001N1+02701+02561100351ADDAY161031AY251031GF108991051091004501021001MD1999999-0011MW1601REMSYN076AAXX  06094 48077 21458 81801 10270 20256 40035 76065 85920 333 56490 59001;
0188480770999992000080612004+18790+095220FM-12+0060VBPR V0202301N001010042019N0060001N1+03701+02561100331ADDAY161061AY261061GF108991051091004501021001KA1120M+99999MD1999999+0061MW1601REMSYN082AAXX  06124 48077 21456 82302 10370 20256 40033 76066 85920 333 10316 56490 58006;EQDQ01 +03162ATMX  
0122480770999992000080703004+18790+095220FM-12+0060VBPR V0201801N000510042019N0090001N1+02801+02501100611ADDGF106991051091004501031001MD1999999+0061REMSYN070AAXX  07034 48077 22459 61801 10280 20250 40061 85930 333 56490 58006;
0161480770999992000080706004+18790+095220FM-12+0060VBPR V0201301N000510042019N0080001N1+03001+02531100581ADDAA199000021AY121061AY221061GF108991051091004501021001MD1999999+0061MW1601REMSYN076AAXX  07064 48077 31458 81301 10300 20253 40058 76022 85920 333 56490 58006;
0150480770999992000080709004+18790+095220FM-12+0060VBPR V0209999C000010450019N0090001N1+02701+02401100421ADDAY161031AY221031GF108991041091004501071001MD1999999+0061MW1021REMSYN076AAXX  07094 48077 21459 80000 10270 20240 40042 70262 84970 333 56490 58006;
0141480770999992000080712004+18790+095220FM-12+0060VBPR V0209999C000010450019N0080001N1+02801+02501100261ADDGF108991041091008001071001KA1120M+03001MD1999999-0071REMSYN076AAXX  07124 48077 22558 80000 10280 20250 40026 84970 333 10300 56390 59007;
0141480770999992000080800004+18790+095220FM-12+0060VBPR V0209999C000010075019N0080001N1+02561+02461100521ADDGF108991051091008001071001KA1120N+02521MD1999999-0051REMSYN076AAXX  08004 48077 22558 80000 10256 20246 40052 85970 333 20252 56490 59005;
0122480770999992000080803004+18790+095220FM-12+0060VBPR V0200901N000510042019N0100001N1+02801+02501100641ADDGF107991051091004501031001MD1999999+0031REMSYN070AAXX  08034 48077 22460 70901 10280 20250 40064 85930 333 56490 58003;
0161480770999992000080806004+18790+095220FM-12+0060VBPR V0202301N001010042019N0080001N1+02751+02531100611ADDAA199000021AY121061AY221061GF108991051091004501071001MD1999999-0051MW1601REMSYN076AAXX  08064 48077 31458 82302 10275 20253 40061 76022 85970 333 56490 59005;
0150480770999992000080809004+18790+095220FM-12+0060VBPR V0202301N002110075019N0100001N1+03161+02481100341ADDAY161031AY261031GF107991051091008001031001MD1999999-0071MW1011REMSYN076AAXX  08094 48077 21560 72304 10316 20248 40034 70166 85930 333 56490 59007;
0169480770999992000080812004+18790+095220FM-12+0060VBPR V0209999C000010075019N0090001N1+02601+02461100331ADDAY161061AY261061GF105991051091008001031001KA1120M+03161MD1999999+0071MW1021REMSYN082AAXX  08124 48077 21559 50000 10260 20246 40033 70266 85930 333 10316 56490 58007;
0141480770999992000080900004+18790+095220FM-12+0060VBPR V0209999C000010450019N0080001N1+02511+02331100541ADDGF107991031091004501071001KA1120N+02491MD1999999+0031REMSYN076AAXX  09004 48077 22458 70000 10251 20233 40054 83970 333 20249 56490 58003;
0122480770999992000080903004+18790+095220FM-12+0060VBPR V0202301N000510450019N0090001N1+02801+02501100641ADDGF106991041091004501031001MD1999999+0001REMSYN070AAXX  09034 48077 22459 62301 10280 20250 40064 84930 333 56490 58000;
0161480770999992000080906004+18790+095220FM-12+0060VBPR V0200901N000510450019N0100001N1+02851+02501100611ADDAA199000021AY121061AY221061GF107991041091004501071001MD1999999+0001MW1501REMSYN076AAXX  09064 48077 31460 70901 10285 20250 40061 75022 84970 333 56490 59000;
0150480770999992000080909004+18790+095220FM-12+0060VBPR V0201801N001010450019N0100001N1+02851+02501100341ADDAY161031AY251031GF107991041091004501071001MD1999999-0011MW1501REMSYN076AAXX  09094 48077 21460 71802 10285 20250 40034 75065 84970 333 56490 59001;
0169480770999992000080912004+18790+095220FM-12+0060VBPR V0209999C000010450019N0060001N1+02781+02501100421ADDAY161061AY251061GF108991031091004501071011KA1120M+02971MD1999999+0091MW1501REMSYN082AAXX  09124 48077 21456 80000 10278 20250 40042 75065 83971 333 10297 56499 58009;
0169480770999992000081000004+18790+095220FM-12+0060VBPR V0209999C000010075019N0060001N1+02501+02501100701ADDAY161061AY251061GF108991051091008001021001KA1120N+02481MD1999999+0161MW1601REMSYN082AAXX  10004 48077 21556 80000 10250 20250 40070 76065 85920 333 20248 56490 58016;
0150480770999992000081003004+18790+095220FM-12+0060VBPR V0201801N001010042019N0070001N1+02501+02501100871ADDAY161031AY251031GF108991051091004501021001MD1999999+0141MW1611REMSYN076AAXX  10034 48077 21457 81802 10250 20250 40087 76165 85920 333 56490 58014;
0150480770999992000081006004+18790+095220FM-12+0060VBPR V0201801N000510042019N0090001N1+02801+02501100891ADDAY161061AY251061GF108991051091004501071001MD1999999+0281MW1021REMSYN076AAXX  10064 48077 21459 81801 10280 20250 40089 70265 85970 333 56490 58028;
0141480770999992000081012004+18790+095220FM-12+0060VBPR V0209999C000010075019N0090001N1+02801+02501100671ADDGF107991051091008001031001KA1120M+02921MD1999999+0151REMSYN076AAXX  10124 48077 22559 70000 10280 20250 40067 85930 333 10292 56490 58015;
0152480770999992000081106004+18790+095220FM-12+0060VBPR V0201301N000510042019N0100001N1+02901+02481100861ADDAA199000091GF108991051091004501071001MD1999999-0041REMSYN070AAXX  11064 48077 32460 81301 10290 20248 40086 85970 333 56490 59004;EQDQ01  00002PRCP99
0199480770999992000081200004+18790+095220FM-12+0060VBPR V0209999C000010450019N0080001N1+02601+02461100781ADDAA199000091AY191061AY221061GF107991041091008001071001KA1120N+02511MD1999999+0041MW1011REMSYN082AAXX  12004 48077 31558 70000 10260 20246 40078 70192 84970 333 20251 56490 58004;EQDQ01  00002PRCP99
0152480770999992000081203004+18790+095220FM-12+0060VBPR V0209999C000010450019N0100001N1+02791+02501100941ADDAA199000091GF108991041091004501071001MD1999999+0071REMSYN070AAXX  12034 48077 32460 80000 10279 20250 40094 84970 333 56490 58007;EQDQ01  00002PRCP99
0152480770999992000081206004+18790+095220FM-12+0060VBPR V0201801N000510450019N0110001N1+03021+02531100901ADDAA199000091GF108991041091004501071001MD1999999+0041REMSYN070AAXX  12064 48077 32461 81801 10302 20253 40090 84970 333 56490 58004;EQDQ01  00002PRCP99
0152480770999992000081209004+18790+095220FM-12+0060VBPR V0201801N001010042019N0110001N1+03271+02581100751ADDAA199000091GF107991051091004501031001MD1999999-0051REMSYN070AAXX  12094 48077 32461 71802 10327 20258 40075 85930 333 56490 59005;EQDQ01  00002PRCP99
0169480770999992000081212004+18790+095220FM-12+0060VBPR V0209999C000010042019N0060001N1+02601+02461100791ADDAY161061AY251061GF108991051091004501021001KA1120M+03271MD1999999+0191MW1601REMSYN082AAXX  12124 48077 21456 80000 10260 20246 40079 76065 85920 333 10327 56490 58019;
0161480770999992000081306004+18790+095220FM-12+0060VBPR V0202301N000510042019N0100001N1+02941+02591101091ADDAA199000021AY151061AY221061GF108991051091004501031001MD1999999+0181MW1501REMSYN076AAXX  13064 48077 31460 82301 10294 20259 40109 75052 85930 333 56490 58018;
0150480770999992000081309004+18790+095220FM-12+0060VBPR V0202701N002610042019N0100001N1+03001+02391100871ADDAY161031AY251031GF108991051091004501031001MD1999999+0121MW1021REMSYN076AAXX  13094 48077 21460 82705 10300 20239 40087 70265 85930 333 56590 58012;
0141480770999992000081312004+18790+095220FM-12+0060VBPR V0209999C000010042019N0090001N1+02801+02201100831ADDGF108991051091004501031001KA1120M+03021MD1999999+0041REMSYN076AAXX  13124 48077 22459 80000 10280 20220 40083 85930 333 10302 56490 58004;
0141480770999992000081400004+18790+095220FM-12+0060VBPR V0209999C000010075019N0090001N1+02541+02331101011ADDGF108991051091008001031001KA1120N+02501MD1999999+0031REMSYN076AAXX  14004 48077 22559 80000 10254 20233 40101 85930 333 20250 56490 58003;
0122480770999992000081403004+18790+095220FM-12+0060VBPR V0201801N000510042019N0090001N1+02731+02561101021ADDGF108991051091004501031001MD1999999+0081REMSYN070AAXX  14034 48077 22459 81801 10273 20256 40102 85930 333 56490 58008;
0152480770999992000081409004+18790+095220FM-12+0060VBPR V0202301N001010042019N0100001N1+03001+02231100821ADDAA199000091GF107991051091004501031001MD1999999-0051REMSYN070AAXX  14094 48077 32460 72302 10300 20223 40082 85930 333 56490 59005;EQDQ01  00002PRCP99
0171480770999992000081412004+18790+095220FM-12+0060VBPR V0202301N001010075019N0090001N1+02901+02481100731ADDAA199000091GF107991051091008001031001KA1120M+03061MD1999999-0101REMSYN076AAXX  14124 48077 32559 72302 10290 20248 40073 85930 333 10306 56490 59010;EQDQ01  00002PRCP99
0171480770999992000081500004+18790+095220FM-12+0060VBPR V0209999C000010075019N0090001N1+02541+02331100851ADDAA199000091GF108991051091008001031001KA1120N+02511MD1999999-0171REMSYN076AAXX  15004 48077 32559 80000 10254 20233 40085 85930 333 20251 56490 59017;EQDQ01  00002PRCP99
0152480770999992000081503004+18790+095220FM-12+0060VBPR V0202301N001010075019N0100001N1+02771+02331100981ADDAA199000091GF108991051091008001031001MD1999999-0091REMSYN070AAXX  15034 48077 32560 82302 10277 20233 40098 85930 333 56490 59009;EQDQ01  00002PRCP99
0152480770999992000081506004+18790+095220FM-12+0060VBPR V0202301N000510075019N0100001N1+02901+02301100921ADDAA199000091GF108991051091008001031001MD1999999-0101REMSYN070AAXX  15064 48077 32560 82301 10290 20230 40092 85930 333 56490 59010;EQDQ01  00002PRCP99
0152480770999992000081509004+18790+095220FM-12+0060VBPR V0209999C000010075019N0100001N1+03201+02481100731ADDAA199000091GF108991051071008001021001MD1999999-0091REMSYN070AAXX  15094 48077 32560 80000 10320 20248 40073 85720 333 56490 59009;EQDQ01  00002PRCP99
0171480770999992000081512004+18790+095220FM-12+0060VBPR V0202301N000510075019N0080001N1+03001+02391100521ADDAA199000091GF108991051091008001031001KA1120M+03201MD1999999-0211REMSYN076AAXX  15124 48077 32558 82301 10300 20239 40052 85930 333 10320 56990 59021;EQDQ01  00002PRCP99
0152480770999992000081603004+18790+095220FM-12+0060VBPR V0201801N000510450019N0100001N1+02801+02501100741ADDAA199000091GF108991041091004501071001MD1999999-0181REMSYN070AAXX  16034 48077 32460 81801 10280 20250 40074 84970 333 56690 59018;EQDQ01  00002PRCP99
0171480770999992000081612004+18790+095220FM-12+0060VBPR V0202301N000510450019N0080001N1+02961+02391100311ADDAA199000091GF107991031091004501071001KA1120M+03241MD1999999-0201REMSYN076AAXX  16124 48077 32458 72301 10296 20239 40031 83970 333 10324 56790 59020;EQDQ01  00002PRCP99
0171480770999992000081700004+18790+095220FM-12+0060VBPR V0202301N001010042019N0060001N1+02601+02461100381ADDAA199000091GF107991051091004501031001KA1120N+02561MD1999999-0251REMSYN076AAXX  17004 48077 32456 72302 10260 20246 40038 85930 333 20256 56490 59025;EQDQ01  00002PRCP99
0152480770999992000081703004+18790+095220FM-12+0060VBPR V0202301N000510450019N0100001N1+02841+02501100421ADDAA199000091GF105991021021008001031001MD1999999-0331REMSYN070AAXX  17034 48077 32560 52301 10284 20250 40042 82230 333 56990 59033;EQDQ01  00002PRCP99
0152480770999992000081706004+18790+095220FM-12+0060VBPR V0202301N001010075019N0100001N1+03101+02541100401ADDAA199000091GF107991051091008001031001MD1999999-0291REMSYN070AAXX  17064 48077 32560 72302 10310 20254 40040 85930 333 56590 59029;EQDQ01  00002PRCP99
0171480770999992000081712004+18790+095220FM-12+0060VBPR V0209999C000010450019N0100001N1+02971+02391100131ADDAA199000091GF108991021021008001031011KA1120M+03121MD1999999-0181REMSYN076AAXX  17124 48077 32560 80000 10297 20239 40013 82231 333 10312 56999 59018;EQDQ01  00002PRCP99
0171480770999992000081800004+18790+095220FM-12+0060VBPR V0209999C000010042019N0060001N1+02621+02461100471ADDAA199000091GF108991051091004501071001KA1120N+02551MD1999999+0081REMSYN076AAXX  18004 48077 32456 80000 10262 20246 40047 85970 333 20255 56490 58008;EQDQ01  00002PRCP99
0152480770999992000081803004+18790+095220FM-12+0060VBPR V0209999C000010042019N0100001N1+02771+02501100651ADDAA199000091GF108991051091004501071001MD1999999+0241REMSYN070AAXX  18034 48077 32460 80000 10277 20250 40065 85970 333 56490 58024;EQDQ01  00002PRCP99
0122480770999992000081809004+18790+095220FM-12+0060VBPR V0202301N000510450019N0110001N1+03221+02361100451ADDGF106991031091004501031011MD1999999+0241REMSYN070AAXX  18094 48077 22461 62301 10322 20236 40045 83931 333 56499 58024;
0150480770999992000081903004+18790+095220FM-12+0060VBPR V0209999C000010042019N0080001N1+02721+02561100741ADDAY151031AY221031GF108991051091004501071001MD1999999-0091MW1501REMSYN076AAXX  19034 48077 21458 80000 10272 20256 40074 75052 85970 333 56490 59009;
0122480770999992000081906004+18790+095220FM-12+0060VBPR V0209999C000010450019N0100001N1+02771+02681100741ADDGF108991041091004501071001MD1999999+0111REMSYN070AAXX  19064 48077 21460 80000 10277 20268 40074 84970 333 56490 58011;
0141480770999992000081912004+18790+095220FM-12+0060VBPR V0209999C000010450019N0080001N1+02901+02591100441ADDGF108991031091004501071001KA1120M+03001MD1999999-0041REMSYN076AAXX  19124 48077 22458 80000 10290 20259 40044 83970 333 10300 56690 59004;
0141480770999992000082000004+18790+095220FM-12+0060VBPR V0209999C000010042019N0070001N1+02521+02331100601ADDGF108991051091004501071001KA1120N+02481MD1999999-0051REMSYN076AAXX  20004 48077 22457 80000 10252 20233 40060 85970 333 20248 56490 59005;
0122480770999992000082003004+18790+095220FM-12+0060VBPR V0209999C000010450019N0100001N1+02801+02331100631ADDGF106991041081008001031011MD1999999-0111REMSYN070AAXX  20034 48077 22560 60000 10280 20233 40063 84831 333 56499 59011;
0152480770999992000082006004+18790+095220FM-12+0060VBPR V0209999C000010075019N0100001N1+03061+02541100611ADDAA199000091GF108991051091008001071001MD1999999-0131REMSYN070AAXX  20064 48077 32560 80000 10306 20254 40061 85970 333 56490 59013;EQDQ01  00002PRCP99
0152480770999992000082009004+18790+095220FM-12+0060VBPR V0200301N001010075019N0100001N1+03161+02481100341ADDAA199000091GF108991051091008001031011MD1999999-0121REMSYN070AAXX  20094 48077 32560 80302 10316 20248 40034 85931 333 56499 59012;EQDQ01  00002PRCP99
0171480770999992000082012004+18790+095220FM-12+0060VBPR V0202301N001010450019N0100001N1+03001+02391100251ADDAA199000091GF106991031081008001031011KA1120M+03321MD1999999-0191REMSYN076AAXX  20124 48077 32560 62302 10300 20239 40025 83831 333 10332 56999 59019;EQDQ01  00002PRCP99
0171480770999992000082100004+18790+095220FM-12+0060VBPR V0209999C000010042019N0060001N1+02601+02461100391ADDAA199000091GF108991051091004501071001KA1120N+02571MD1999999-0221REMSYN076AAXX  21004 48077 32456 80000 10260 20246 40039 85970 333 20257 56490 59022;EQDQ01  00002PRCP99
0152480770999992000082103004+18790+095220FM-12+0060VBPR V0202301N000510042019N0100001N1+02801+02501100461ADDAA199000091GF107991051091004501031001MD1999999-0171REMSYN070AAXX  21034 48077 32460 72301 10280 20250 40046 85930 333 56490 59017;EQDQ01  00002PRCP99
0152480770999992000082106004+18790+095220FM-12+0060VBPR V0202301N000510042019N0100001N1+03001+02531100441ADDAA199000091GF107991051091004501031001MD1999999-0161REMSYN070AAXX  21064 48077 32460 72301 10300 20253 40044 85930 333 56490 59016;EQDQ01  00002PRCP99
0152480770999992000082109004+18790+095220FM-12+0060VBPR V0202301N001010450019N0100001N1+03301+02581100191ADDAA199000091GF106991041091004501031001MD1999999-0151REMSYN070AAXX  21094 48077 32460 62302 10330 20258 40019 84930 333 56490 59015;EQDQ01  00002PRCP99
0171480770999992000082112004+18790+095220FM-12+0060VBPR V0209999C000012200019N0100001N1+03121+02541100091ADDAA199000091GF104991021081008001001011KA1120M+03341MD1999999-0161REMSYN076AAXX  21124 48077 32560 40000 10312 20254 40009 82801 333 10334 56909 59016;EQDQ01  00002PRCP99
0171480770999992000082200004+18790+095220FM-12+0060VBPR V0209999C000012200019N0700001N1+02621+02461100421ADDAA199000091GF107991031081008001001011KA1120N+02601MD1999999+0031REMSYN076AAXX  22004 48077 32588 70000 10262 20246 40042 83801 333 20260 56409 58003;EQDQ01  00002PRCP99
0152480770999992000082203004+18790+095220FM-12+0060VBPR V0202301N000510450019N0090001N1+02831+02501100551ADDAA199000091GF107991041091004501031011MD1999999+0091REMSYN070AAXX  22034 48077 32459 72301 10283 20250 40055 84931 333 56499 58009;EQDQ01  00002PRCP99
0152480770999992000082206004+18790+095220FM-12+0060VBPR V0209999C000010042019N0100001N1+03201+02481100481ADDAA199000091GF107991051091004501031001MD1999999+0041REMSYN070AAXX  22064 48077 32460 70000 10320 20248 40048 85930 333 56490 58004;EQDQ01  00002PRCP99
0152480770999992000082209004+18790+095220FM-12+0060VBPR V0209999C000010450019N0110001N1+03411+02701100251ADDAA199000091GF107991031091004501031011MD1999999+0061REMSYN070AAXX  22094 48077 32461 70000 10341 20270 40025 83931 333 56499 58006;EQDQ01  00002PRCP99
0171480770999992000082300004+18790+095220FM-12+0060VBPR V0209999C000010450019N0060001N1+02601+02461100491ADDAA199000091GF106991041081008001031011KA1120N+02561MD1999999+0071REMSYN076AAXX  23004 48077 32556 60000 10260 20246 40049 84831 333 20256 56999 58007;EQDQ01  00002PRCP99
0152480770999992000082303004+18790+095220FM-12+0060VBPR V0202301N000510450019N0090001N1+02851+02331100571ADDAA199000091GF107991041081008001031001MD1999999+0021REMSYN070AAXX  23034 48077 32559 72301 10285 20233 40057 84830 333 56990 58002;EQDQ01  00002PRCP99
0152480770999992000082306004+18790+095220FM-12+0060VBPR V0202301N000510450019N0110001N1+03201+02481100531ADDAA199000091GF107991021021008001031001MD1999999+0041REMSYN070AAXX  23064 48077 32561 72301 10320 20248 40053 82230 333 56990 58004;EQDQ01  00002PRCP99
0152480770999992000082309004+18790+095220FM-12+0060VBPR V0202301N000510450019N0110001N1+03161+02481100351ADDAA199000091GF107991041081008001031001MD1999999-0101REMSYN070AAXX  23094 48077 32561 72301 10316 20248 40035 84830 333 56990 59010;EQDQ01  00002PRCP99
0171480770999992000082312004+18790+095220FM-12+0060VBPR V0202301N001010075019N0100001N1+03001+02531100281ADDAA199000091GF107991051091008001031001KA1120M+03201MD1999999+0121REMSYN076AAXX  23124 48077 32560 72302 10300 20253 40028 85930 333 10320 56990 58012;EQDQ01  00002PRCP99
0171480770999992000082400004+18790+095220FM-12+0060VBPR V0209999C000010450019N0060001N1+02601+02461100471ADDAA199000091GF108991041091004501071001KA1120N+02591MD1999999-0021REMSYN076AAXX  24004 48077 32456 80000 10260 20246 40047 84970 333 20259 56490 59002;EQDQ01  00002PRCP99
0152480770999992000082403004+18790+095220FM-12+0060VBPR V0209999C000010450019N0090001N1+02801+02501100541ADDAA199000091GF106991041081004501031001MD1999999-0031REMSYN070AAXX  24034 48077 32459 60000 10280 20250 40054 84830 333 56590 59003;EQDQ01  00002PRCP99
0152480770999992000082406004+18790+095220FM-12+0060VBPR V0202301N000510450019N0100001N1+03101+02541100491ADDAA199000091GF106991041081004501031001MD1999999-0031REMSYN070AAXX  24064 48077 32460 62301 10310 20254 40049 84830 333 56490 59003;EQDQ01  00002PRCP99
0152480770999992000082409004+18790+095220FM-12+0060VBPR V0209999C000010450019N0110001N1+03241+02481100251ADDAA199000091GF106991031091004501031011MD1999999-0101REMSYN070AAXX  24094 48077 32461 60000 10324 20248 40025 83931 333 56499 59010;EQDQ01  00002PRCP99
0171480770999992000082412004+18790+095220FM-12+0060VBPR V0209999C000012200019N0080001N1+03141+02371100661ADDAA199000091GF103991021091008001031001KA1120M+03361MD1999999-0061REMSYN076AAXX  24124 48077 32558 30000 10314 20237 40066 82930 333 10336 56990 59006;EQDQ01  00002PRCP99
0171480770999992000082500004+18790+095220FM-12+0060VBPR V0209999C000010042019N0080001N1+02601+02461100511ADDAA199000091GF108991051091004501071001KA1120N+02551MD1999999+0041REMSYN076AAXX  25004 48077 32458 80000 10260 20246 40051 85970 333 20255 56490 58004;EQDQ01  00002PRCP99
0152480770999992000082503004+18790+095220FM-12+0060VBPR V0202301N000510450019N0100001N1+02801+02331100631ADDAA199000091GF107991041091004501031011MD1999999+0091REMSYN070AAXX  25034 48077 32460 72301 10280 20233 40063 84931 333 56490 58009;EQDQ01  00002PRCP99
0152480770999992000082506004+18790+095220FM-12+0060VBPR V0202301N000510450019N0110001N1+03101+02371100621ADDAA199000091GF106991031081004501031001MD1999999+0121REMSYN070AAXX  25064 48077 32461 62301 10310 20237 40062 83830 333 56490 58012;EQDQ01  00002PRCP99
0152480770999992000082509004+18790+095220FM-12+0060VBPR V0202301N000510075019N0110001N1+03271+02581100391ADDAA199000091GF107991051091008001031001MD1999999+0141REMSYN070AAXX  25094 48077 32561 72301 10327 20258 40039 85930 333 56590 58014;EQDQ01  00002PRCP99
0171480770999992000082512004+18790+095220FM-12+0060VBPR V0209999C000010075019N0100001N1+03161+02651100341ADDAA199000091GF107991051091008001031001KA1120M+03271MD1999999+0011REMSYN076AAXX  25124 48077 32560 70000 10316 20265 40034 85930 333 10327 56590 58001;EQDQ01  00002PRCP99
0169480770999992000082600004+18790+095220FM-12+0060VBPR V0209999C000010450019N0060001N1+02601+02461100571ADDAY161061AY221061GF108991041091004501071001KA1120N+02561MD1999999+0061MW1031REMSYN082AAXX  26004 48077 21456 80000 10260 20246 40057 70362 84970 333 20256 56490 58006;
0122480770999992000082603004+18790+095220FM-12+0060VBPR V0209999C000010042019N0100001N1+02841+02501100731ADDGF107991051091004501001011MD1999999+0101REMSYN070AAXX  26034 48077 22460 70000 10284 20250 40073 85901 333 56409 58010;
0152480770999992000082606004+18790+095220FM-12+0060VBPR V0209999C000010042019N0110001N1+03201+02651100681ADDAA199000091GF107991051091004501031011MD1999999+0071REMSYN070AAXX  26064 48077 32461 70000 10320 20265 40068 85931 333 56699 58007;EQDQ01  00002PRCP99
0152480770999992000082609004+18790+095220FM-12+0060VBPR V0209999C000010042019N0110001N1+03481+02401100401ADDAA199000091GF106991051091004501001011MD1999999+0011REMSYN070AAXX  26094 48077 32461 60000 10348 20240 40040 85901 333 56509 58001;EQDQ01  00002PRCP99
0171480770999992000082612004+18790+095220FM-12+0060VBPR V0202301N001010450019N0080001N1+03211+02591100341ADDAA199000091GF107991021091008001071061KA1120M+03481MD1999999-0041REMSYN076AAXX  26124 48077 32558 72302 10321 20259 40034 82976 333 10348 56999 59004;EQDQ01  00002PRCP99
0171480770999992000082700004+18790+095220FM-12+0060VBPR V0209999C000010042019N0060001N1+02601+02461100521ADDAA199000091GF108991051091004501071001KA1120N+02591MD1999999-0051REMSYN076AAXX  27004 48077 32456 80000 10260 20246 40052 85970 333 20259 56490 59005;EQDQ01  00002PRCP99
0152480770999992000082703004+18790+095220FM-12+0060VBPR V0202301N000510075019N0100001N1+02861+02591100621ADDAA199000091GF107991051091008001031001MD1999999-0111REMSYN070AAXX  27034 48077 32560 72301 10286 20259 40062 85930 333 56490 59011;EQDQ01  00002PRCP99
0180480770999992000082709004+18790+095220FM-12+0060VBPR V0202301N000510075019N0100001N1+03161+02651100331ADDAA199000091AY151031AY221031GF107991051091008001031001MD1999999-0071MW1021REMSYN076AAXX  27094 48077 31560 72301 10316 20265 40033 70252 85930 333 56490 59007;EQDQ01  00002PRCP99
0171480770999992000082712004+18790+095220FM-12+0060VBPR V0202301N001010075019N0100001N1+02801+02481100281ADDAA199000091GF108991051091008001001011KA1120M+03221MD1999999-0091REMSYN076AAXX  27124 48077 32560 82302 10280 20248 40028 85901 333 10322 56999 59009;EQDQ01  00002PRCP99
0171480770999992000082800004+18790+095220FM-12+0060VBPR V0202301N002110450019N0080001N1+02591+02461100381ADDAA199000091GF108991031091008001071001KA1120N+02551MD1999999-0181REMSYN076AAXX  28004 48077 32558 82304 10259 20246 40038 83970 333 20255 56690 59018;EQDQ01  00002PRCP99
0161480770999992000082803004+18790+095220FM-12+0060VBPR V0202301N001010450019N0090001N1+02751+02501100561ADDAA199000021AY161031AY261031GF108991041091004501071001MD1999999-0051MW1501REMSYN076AAXX  28034 48077 31459 82302 10275 20250 40056 75066 84970 333 56490 59005;
0161480770999992000082806004+18790+095220FM-12+0060VBPR V0202301N001510042019N0080001N1+02651+02501100581ADDAA199000021AY151061AY251061GF108991051091004501071001MD1999999-0011MW1501REMSYN076AAXX  28064 48077 31458 82303 10265 20250 40058 75055 85970 333 56490 59001;
0133480770999992000082809004+18790+095220FM-12+0060VBPR V0202301N003610450019N0100001N1+03011+02391100351ADDAA199000021GF108991041091004501071001MD1999999+0021REMSYN070AAXX  28094 48077 32460 82307 10301 20239 40035 84970 333 56690 58002;
0152480770999992000082812004+18790+095220FM-12+0060VBPR V0202301N003110450019N0060001N1+02841+02201100351ADDAA199000021GF108991041091004501071001KA1120M+03011MD1999999+0061REMSYN076AAXX  28124 48077 32456 82306 10284 20220 40035 84970 333 10301 56690 58006;
0180480770999992000082900004+18790+095220FM-12+0060VBPR V0202301N003110021019N0040001N1+02651+02601100141ADDAA199000021AY161061AY261061GF108991061091002501021999KA1120N+02451MD1999999-0071MW1631REMSYN082AAXX  29004 48077 31340 82306 10265 20260 40014 76366 8692/ 333 20245 5649/ 59007;
0150480770999992000082903004+18790+095220FM-12+0060VBPR V0202301N000510042019N0060001N1+02661+02561100641ADDAY161031AY261031GF108991051091004501021001MD1999999+0071MW1601REMSYN076AAXX  29034 48077 21456 82301 10266 20256 40064 76066 85920 333 56490 58007;
0161480770999992000082906004+18790+095220FM-12+0060VBPR V0202301N000510042019N0080001N1+02901+02591100321ADDAA199000021AY161061AY261061GF108991051091004501071001MD1999999+0041MW1501REMSYN076AAXX  29064 48077 31458 82301 10290 20259 40032 75066 85970 333 56490 58004;
0161480770999992000082909004+18790+095220FM-12+0060VBPR V0209999C000010042019N0090001N1+03001+02531100311ADDAA199000021AY151031AY251031GF108991051091004501071001MD1999999-0041MW1021REMSYN076AAXX  29094 48077 31459 80000 10300 20253 40031 70255 85970 333 56490 59004;
0169480770999992000082912004+18790+095220FM-12+0060VBPR V0209999C000010042019N0060001N1+02671+02561100311ADDAY161061AY261061GF108991051091004501071001KA1120M+03201MD1999999-0041MW1021REMSYN082AAXX  29124 48077 21456 80000 10267 20256 40031 70266 85970 333 10320 56590 59004;
0169480770999992000083000004+18790+095220FM-12+0060VBPR V0201801N000510042019N0060001N1+02601+02461100361ADDAY161061AY221061GF108991051091004501021001KA1120N+02541MD1999999-0171MW1021REMSYN082AAXX  30004 48077 21456 81801 10260 20246 40036 70262 85920 333 20254 56490 59017;
0122480770999992000083003004+18790+095220FM-12+0060VBPR V0202301N000510042019N0080001N1+02701+02561100461ADDGF108991051091004501071001MD1999999-0181REMSYN070AAXX  30034 48077 21458 82301 10270 20256 40046 85970 333 56490 59018;
0152480770999992000083006004+18790+095220FM-12+0060VBPR V0201801N000510042019N0100001N1+02901+02481100481ADDAA199000091GF108991051091004501031001MD1999999-0141REMSYN070AAXX  30064 48077 32460 81801 10290 20248 40048 85930 333 56490 59014;EQDQ01  00002PRCP99
0152480770999992000083009004+18790+095220FM-12+0060VBPR V0201801N000510450019N0110001N1+03141+02541100171ADDAA199000091GF108991041091004501071011MD1999999-0141REMSYN070AAXX  30094 48077 32461 81801 10314 20254 40017 84971 333 56699 59014;EQDQ01  00002PRCP99
0180480770999992000083012004+18790+095220FM-12+0060VBPR V0209999C000010450019N0060001N1+02801+02501100131ADDAA199000021AY121061AY221061GF108991041091004501071001KA1120M+03171MD1999999-0181MW1511REMSYN082AAXX  30124 48077 31456 80000 10280 20250 40013 75122 84970 333 10317 56490 59018;
0169480770999992000083100004+18790+095220FM-12+0060VBPR V0202301N001010042019N0070001N1+02561+02461100161ADDAY161061AY251061GF108991051091004501021001KA1120N+02461MD1999999-0201MW1021REMSYN082AAXX  31004 48077 21457 82302 10256 20246 40016 70265 85920 333 20246 56490 59020;
0150480770999992000083103004+18790+095220FM-12+0060VBPR V0202301N001010042019N0090001N1+02741+02561100311ADDAY161031AY251031GF108991051091004501021001MD1999999-0151MW1501REMSYN076AAXX  31034 48077 21459 82302 10274 20256 40031 75065 85920 333 56490 59015;
0161480770999992000083106004+18790+095220FM-12+0060VBPR V0202301N002110042019N0090001N1+02921+02591100291ADDAA199000021AY151061AY251061GF108991051091004501071001MD1999999-0191MW1061REMSYN076AAXX  31064 48077 31459 82304 10292 20259 40029 70655 85970 333 56450 59019;
0150480770999992000083109004+18790+095220FM-12+0060VBPR V0209999C000010042019N0100001N1+02901+02591100131ADDAY161031AY251031GF108991051091004501071001MD1999999-0041MW1601REMSYN076AAXX  31094 48077 21460 80000 10290 20259 40013 76065 85970 333 56290 59004;
0169480770999992000083112004+18790+095220FM-12+0060VBPR V0202301N001010042019N0090001N1+02801+02331100101ADDAY161061AY261061GF108991051091004501071001KA1120M+03001MD1999999-0031MW1021REMSYN082AAXX  31124 48077 21459 82302 10280 20233 40010 70266 85970 333 10300 56490 59003;
0169480770999992000090100004+18790+095220FM-12+0060VBPR V0209999C000010042019N0060001N1+02501+02501100201ADDAY161061AY251061GF108991051091004501021001KA1120N+02481MD1999999+0031MW1501REMSYN082AAXX  01004 48077 21456 80000 10250 20250 40020 75065 85920 333 20248 56490 58003;
0150480770999992000090103004+18790+095220FM-12+0060VBPR V0202301N000510042019N0090001N1+02601+02601100351ADDAY161031AY261031GF108991051091004501021001MD1999999+0001MW1611REMSYN076AAXX  01034 48077 21459 82301 10260 20260 40035 76166 85920 333 56490 59000;
0150480770999992000090106004+18790+095220FM-12+0060VBPR V0201801N001510042019N0090001N1+02741+02561100291ADDAY161061AY261061GF108991051091004501021001MD1999999+0001MW1611REMSYN076AAXX  01064 48077 21459 81803 10274 20256 40029 76166 85920 333 56490 58000;
0150480770999992000090109004+18790+095220FM-12+0060VBPR V0201801N001010450019N0100001N1+03001+02261100081ADDAY161031AY221031GF108991041091004501071001MD1999999-0051MW1021REMSYN076AAXX  01094 48077 21460 81802 10300 20226 40008 70262 84970 333 56690 59005;
0188480770999992000090112004+18790+095220FM-12+0060VBPR V0201801N000510450019N0060001N1+02701+02561100992ADDAY161061AY251061GF108991041091004501071001KA1120M+03001MD1999999-0011MW1501REMSYN082AAXX  01124 48077 21456 81801 10270 20256 40099 75065 84970 333 10300 56490 59001;EQDQ01+100993APOSLP
0169480770999992000090200004+18790+095220FM-12+0060VBPR V0209999C000010042019N0070001N1+02561+02461100261ADDAY161061AY251061GF108991051091004501071001KA1120N+02491MD1999999+0071MW1021REMSYN082AAXX  02004 48077 21457 80000 10256 20246 40026 70265 85970 333 20249 56990 58007;
0150480770999992000090203004+18790+095220FM-12+0060VBPR V0209999C000010042019N0100001N1+02741+02421100421ADDAY151031AY251031GF108991051091004501071001MD1999999-0071MW1021REMSYN076AAXX  02034 48077 21460 80000 10274 20242 40042 70255 85970 333 56490 59007;
0152480770999992000090206004+18790+095220FM-12+0060VBPR V0202301N001010042019N0100001N1+03001+02531100281ADDAA199000091GF107991051091004501031001MD1999999+0091REMSYN070AAXX  02064 48077 32460 72302 10300 20253 40028 85930 333 56690 58009;EQDQ01  00002PRCP99
0150480770999992000090209004+18790+095220FM-12+0060VBPR V0202301N001010042019N0100001N1+02801+02681100251ADDAY161031AY261031GF108991051091004501071001MD1999999+0161MW1031REMSYN076AAXX  02094 48077 21460 82302 10280 20268 40025 70366 85970 333 56590 58016;
0141480770999992000090212004+18790+095220FM-12+0060VBPR V0209999C000010450019N0080001N1+02801+02331100201ADDGF108991041071004501031001KA1120M+03101MD1999999-0111REMSYN076AAXX  02124 48077 22458 80000 10280 20233 40020 84730 333 10310 56590 59011;
0141480770999992000090300004+18790+095220FM-12+0060VBPR V0209999C000010042019N0080001N1+02501+02331100421ADDGF108991051091004501021001KA1120N+02451MD1999999+0161REMSYN076AAXX  03004 48077 22458 80000 10250 20233 40042 85920 333 20245 56490 58016;
0122480770999992000090303004+18790+095220FM-12+0060VBPR V0201801N001510450019N0090001N1+02701+02561100601ADDGF108991041091004501071001MD1999999+0181REMSYN070AAXX  03034 48077 22459 81803 10270 20256 40060 84970 333 56490 58018;
0152480770999992000090306004+18790+095220FM-12+0060VBPR V0201801N000510450019N0100001N1+02901+02481100601ADDAA199000091GF108991041091004501071001MD1999999+0211REMSYN070AAXX  03064 48077 32460 81801 10290 20248 40060 84970 333 56490 58021;EQDQ01  00002PRCP99
0150480770999992000090309004+18790+095220FM-12+0060VBPR V0201801N001510042019N0090001N1+02701+02401100431ADDAY161031AY251031GF108991051071004501021001MD1999999+0181MW1501REMSYN076AAXX  03094 48077 21459 81803 10270 20240 40043 75065 85720 333 56490 58018;
0169480770999992000090312004+18790+095220FM-12+0060VBPR V0201801N000510450019N0060001N1+02661+02401100661ADDAY161061AY251061GF108991041091004501071001KA1120M+03071MD1999999+0281MW1501REMSYN082AAXX  03124 48077 21456 81801 10266 20240 40066 75065 84970 333 10307 56490 58028;
0169480770999992000090400004+18790+095220FM-12+0060VBPR V0209999C000010042019N0070001N1+02501+02331100721ADDAY161061AY251061GF108991051091004501071001KA1120N+02451MD1999999+0301MW1021REMSYN082AAXX  04004 48077 21457 80000 10250 20233 40072 70265 85970 333 20245 56490 58030;
0122480770999992000090403004+18790+095220FM-12+0060VBPR V0201801N000510042019N0090001N1+02701+02401100841ADDGF108991051091004501071001MD1999999+0241REMSYN070AAXX  04034 48077 22459 81801 10270 20240 40084 85970 333 56490 58024;
0180480770999992000090406004+18790+095220FM-12+0060VBPR V0201801N000510042019N0100001N1+02901+02481100811ADDAA199000091AY121061AY221061GF108991051091004501071001MD1999999+0211MW1051REMSYN076AAXX  04064 48077 31460 81801 10290 20248 40081 70522 85970 333 56490 58021;EQDQ01  00002PRCP99
0169480770999992000090412004+18790+095220FM-12+0060VBPR V0203201N001010042019N0080001N1+02701+02401100621ADDAY161061AY251061GF108991051091004501071001KA1120M+03061MD1999999+0141MW1501REMSYN082AAXX  04124 48077 21458 83202 10270 20240 40062 75065 85970 333 10306 56490 58014;
0141480770999992000090500004+18790+095220FM-12+0060VBPR V0209999C000010450019N0060001N1+02581+02461100711ADDGF108991041091004501071001KA1120N+02531MD1999999-0011REMSYN076AAXX  05004 48077 22456 80000 10258 20246 40071 84970 333 20253 56490 59001;
0122480770999992000090503004+18790+095220FM-12+0060VBPR V0202301N000510042019N0090001N1+02701+02401100781ADDGF108991051091004501071001MD1999999-0061REMSYN070AAXX  05034 48077 22459 82301 10270 20240 40078 85970 333 56490 59006;
0152480770999992000090506004+18790+095220FM-12+0060VBPR V0201801N000510450019N0100001N1+03001+02391100691ADDAA199000091GF106991031081008001031011MD1999999-0111REMSYN070AAXX  05064 48077 32560 61801 10300 20239 40069 83831 333 56599 59011;EQDQ01  00002PRCP99
0152480770999992000090509004+18790+095220FM-12+0060VBPR V0202701N000510450019N0110001N1+03101+02541100421ADDAA199000091GF107991041091004501071011MD1999999-0221REMSYN070AAXX  05094 48077 32461 72701 10310 20254 40042 84971 333 56599 59022;EQDQ01  00002PRCP99
0171480770999992000090512004+18790+095220FM-12+0060VBPR V0202301N000510450019N0060001N1+02801+02201100441ADDAA199000091GF108991041091004501071001KA1120M+03101MD1999999-0191REMSYN076AAXX  05124 48077 32456 82301 10280 20220 40044 84970 333 10310 56999 59019;EQDQ01  00002PRCP99
0171480770999992000090600004+18790+095220FM-12+0060VBPR V0209999C000010075019N0090001N1+02501+02331100651ADDAA199000091GF107991051091008001031001KA1120N+02451MD1999999-0061REMSYN076AAXX  06004 48077 32559 70000 10250 20233 40065 85930 333 20245 56410 59006;EQDQ01  00002PRCP99
0152480770999992000090603004+18790+095220FM-12+0060VBPR V0202301N000510450019N0100001N1+02701+02401100711ADDAA199000091GF106991041081008001031001MD1999999-0071REMSYN070AAXX  06034 48077 32560 62301 10270 20240 40071 84830 333 56490 59007;EQDQ01  00002PRCP99
0152480770999992000090606004+18790+095220FM-12+0060VBPR V0200401N000510042019N0080001N1+02951+02531100691ADDAA199000091GF108991051091004501071001MD1999999+0001REMSYN070AAXX  06064 48077 32458 80401 10295 20253 40069 85970 333 56490 59000;EQDQ01  00002PRCP99
0171480770999992000090612004+18790+095220FM-12+0060VBPR V0209999C000010075019N0060001N1+02741+02401100461ADDAA199000091GF107991051091008001031001KA1120M+02961MD1999999+0021REMSYN076AAXX  06124 48077 32556 70000 10274 20240 40046 85930 333 10296 56990 58002;EQDQ01  00002PRCP99
0169480770999992000090700004+18790+095220FM-12+0060VBPR V0209999C000010450019N0060001N1+02481+02331100721ADDAY161061AY221061GF108991041091004501021001KA1120N+02451MD1999999+0071MW1031REMSYN082AAXX  07004 48077 21456 80000 10248 20233 40072 70362 84920 333 20245 56490 58007;
0122480770999992000090703004+18790+095220FM-12+0060VBPR V0202301N000510042019N0080001N1+02701+02401100881ADDGF108991051091004501071001MD1999999+0171REMSYN070AAXX  07034 48077 22458 82301 10270 20240 40088 85970 333 56490 58017;
0146480770999992000090706004+18790+095220FM-12+0060VBPR V0202301N000510042019N0100001N1+99999+99999100851ADDAA199000091GF108991051091004501071001MD1999999+0161REMSYN064AAXX  07064 48077 32460 82301 20253 40085 85970 333 56490 58016;EQDQ01  00002PRCP99
0150480770999992000090709004+18790+095220FM-12+0060VBPR V0209999C000010450019N0090001N1+02701+02561100711ADDAY161031AY251031GF108991041091004501071001MD1999999+0161MW1501REMSYN076AAXX  07094 48077 21459 80000 10270 20256 40071 75065 84970 333 56490 58016;
0169480770999992000090712004+18790+095220FM-12+0060VBPR V0209999C000010450019N0080001N1+02711+02401100661ADDAY151061AY221061GF108991041091004501071001KA1120M+03011MD1999999+0211MW1021REMSYN082AAXX  07124 48077 22458 80000 10271 20240 40066 70252 84970 333 10301 56490 58021;
0141480770999992000090800004+18790+095220FM-12+0060VBPR V0209999C000010450019N0080001N1+02531+02501100901ADDGF108991041091004501071001KA1120N+02521MD1999999+0181REMSYN076AAXX  08004 48077 22458 80000 10253 20250 40090 84970 333 20252 56490 58018;
0122480770999992000090803004+18790+095220FM-12+0060VBPR V0202301N000510042019N0090001N1+02701+02401101011ADDGF108991051091004501071001MD1999999+0121REMSYN070AAXX  08034 48077 22459 82301 10270 20240 40101 85970 333 56490 58012;
0152480770999992000090806004+18790+095220FM-12+0060VBPR V0201801N000510450019N0100001N1+03101+02541100971ADDAA199000091GF106991041081008001031001MD1999999+0111REMSYN070AAXX  08064 48077 32560 61801 10310 20254 40097 84830 333 56490 58011;EQDQ01  00002PRCP99
0152480770999992000090809004+18790+095220FM-12+0060VBPR V0209999C000010450019N0100001N1+03101+02371100721ADDAA199000091GF106991041081008001031001MD1999999+0061REMSYN070AAXX  08094 48077 32560 60000 10310 20237 40072 84830 333 56990 58006;EQDQ01  00002PRCP99
0171480770999992000090812004+18790+095220FM-12+0060VBPR V0209999C000010075019N0090001N1+03001+02561100631ADDAA199000091GF107991051091008001031001KA1120M+03191MD1999999-0031REMSYN076AAXX  08124 48077 32559 70000 10300 20256 40063 85930 333 10319 56590 59003;EQDQ01  00002PRCP99
0152480770999992000090903004+18790+095220FM-12+0060VBPR V0209999C000010450019N0100001N1+02801+02501100941ADDAA199000091GF108991021081008001031001MD1999999-0071REMSYN070AAXX  09034 48077 32560 80000 10280 20250 40094 82830 333 56490 59007;EQDQ01  00002PRCP99
0152480770999992000090906004+18790+095220FM-12+0060VBPR V0202301N000510450019N0110001N1+03101+02541100851ADDAA199000091GF106991041031008001071001MD1999999-0121REMSYN070AAXX  09064 48077 32561 62301 10310 20254 40085 84370 333 56790 59012;EQDQ01  00002PRCP99
0199480770999992000090912004+18790+095220FM-12+0060VBPR V0209999C000010450019N0080001N1+02871+02481100571ADDAA199000091AY151061AY281061GF106991021081008001031001KA1120M+03301MD1999999-0061MW1031REMSYN082AAXX  09124 48077 31558 60000 10287 20248 40057 70358 82830 333 10330 56990 59006;EQDQ01  00002PRCP99
0171480770999992000091000004+18790+095220FM-12+0060VBPR V0209999C000010450019N0100001N1+02501+02331100601ADDAA199000091GF106991021081008001031011KA1120N+02451MD1999999-0211REMSYN076AAXX  10004 48077 32560 60000 10250 20233 40060 82831 333 20245 56999 59021;EQDQ01  00002PRCP99
0152480770999992000091003004+18790+095220FM-12+0060VBPR V0209999C000010450019N0100001N1+02801+02331100701ADDAA199000091GF105991021021008001031001MD1999999-0241REMSYN070AAXX  10034 48077 32560 50000 10280 20233 40070 82230 333 56990 59024;EQDQ01  00002PRCP99
0152480770999992000091006004+18790+095220FM-12+0060VBPR V0202301N000510075019N0100001N1+03161+02481100651ADDAA199000091GF107991051091008001031001MD1999999-0201REMSYN070AAXX  10064 48077 32560 72301 10316 20248 40065 85930 333 56690 59020;EQDQ01  00002PRCP99
0171480770999992000091100004+18790+095220FM-12+0060VBPR V0209999C000010450019N0080001N1+02611+02461100291ADDAA199000091GF106991011021008001031011KA1120N+02601MD1999999-0401REMSYN076AAXX  11004 48077 32558 60000 10261 20246 40029 81231 333 20260 56999 59040;EQDQ01  00002PRCP99
0146480770999992000091103004+18790+095220FM-12+0060VBPR V0202301N000519999999N0100001N1+02901+02481100341ADDAA199000091GF106991999999008001999999MD1999999-0351REMSYN064AAXX  11034 48077 32560 62301 10290 20248 40034 333 56999 59035;EQDQ01  00002PRCP99
0152480770999992000091106004+18790+095220FM-12+0060VBPR V0209999C000010450019N0110001N1+03201+02651100341ADDAA199000091GF107991031081008001031011MD1999999-0321REMSYN070AAXX  11064 48077 32561 70000 10320 20265 40034 83831 333 56499 59032;EQDQ01  00002PRCP99
0152480770999992000091109004+18790+095220FM-12+0060VBPR V0209999C000010450019N0110001N1+03481+02641100001ADDAA199000091GF106991041091008001071001MD1999999-0321REMSYN070AAXX  11094 48077 32561 60000 10348 20264 40000 84970 333 56690 59032;EQDQ01  00002PRCP99
0171480770999992000091112004+18790+095220FM-12+0060VBPR V0209999C000010450019N0080001N1+03171+02651099991ADDAA199000091GF107991041091008001071011KA1120M+03501MD1999999-0291REMSYN076AAXX  11124 48077 32558 70000 10317 20265 49999 84971 333 10350 56999 59029;EQDQ01  00002PRCP99
0180480770999992000091200004+18790+095220FM-12+0060VBPR V0209999C000010075019N0070001N1+02701+02561100261ADDAA199000021AY151061AY221061GF108991051091008001021001KA1120N+02671MD1999999-0031MW1501REMSYN082AAXX  12004 48077 31557 80000 10270 20256 40026 75052 85920 333 20267 56490 59003;
0150480770999992000091203004+18790+095220FM-12+0060VBPR V0209999C000010042019N0060001N1+02801+02401100461ADDAY161031AY251031GF108991051091004501021001MD1999999-0091MW1611REMSYN076AAXX  12034 48077 21456 80000 10280 20240 40046 76165 85920 333 56490 59009;
0133480770999992000091206004+18790+095220FM-12+0060VBPR V0209999C000010042019N0090001N1+03001+02531100441ADDAA199000021GF108991051091004501071001MD1999999+0111REMSYN070AAXX  12064 48077 32459 80000 10300 20253 40044 85970 333 56590 58011;
0150480770999992000091209004+18790+095220FM-12+0060VBPR V0209999C000010042019N0090001N1+02901+02591100211ADDAY161031AY251031GF108991051091004501071001MD1999999+0211MW1501REMSYN076AAXX  12094 48077 21459 80000 10290 20259 40021 75065 85970 333 56490 58021;
0169480770999992000091212004+18790+095220FM-12+0060VBPR V0202301N001510042019N0060001N1+02601+02461100221ADDAY161061AY251061GF108991051091004501021001KA1120M+03001MD1999999+0231MW1601REMSYN082AAXX  12124 48077 21456 82303 10260 20246 40022 76065 85920 333 10300 56490 58023;
0169480770999992000091300004+18790+095220FM-12+0060VBPR V0201801N000510042019N0060001N1+02501+02331100561ADDAY161061AY251061GF108991051091004501021001KA1120N+02471MD1999999+0301MW1021REMSYN082AAXX  13004 48077 21456 81801 10250 20233 40056 70265 85920 333 20247 56490 58030;
0122480770999992000091303004+18790+095220FM-12+0060VBPR V0209999C000010450019N0100001N1+02501+99999100761ADDGF108991031091004501071001MD1999999+0331REMSYN070AAXX  13034 48077 22460 80000 10250 20253 40076 83970 333 56490 58033;
0152480770999992000091306004+18790+095220FM-12+0060VBPR V0202301N000510042019N0100001N1+03001+02531100751ADDAA199000091GF108991051091004501071001MD1999999+0311REMSYN070AAXX  13064 48077 32460 82301 10300 20253 40075 85970 333 56490 58031;EQDQ01  00002PRCP99
0161480770999992000091309004+18790+095220FM-12+0060VBPR V0201801N000510450019N0090001N1+02901+02591100581ADDAA199000021AY151031AY221031GF108991041091004501021001MD1999999+0361MW1501REMSYN076AAXX  13094 48077 31459 81801 10290 20259 40058 75052 84920 333 56490 58036;
0150480770999992000091312004+18790+095220FM-12+0060VBPR V0201301N000510450019N0090001N1+02761+02401100531ADDAY161061AY251061GF107991041091004501071999MD1999999+0371MW1501REMSYN076AAXX  13124 48077 21459 71301 10276 20240 40053 75065 8497/ 333 56499 58037;
0124480770999992000091400004+18790+095220FM-12+0060VBPR V0209999C000010042019N0060001N1+02501+02501100761ADDAY161061AY251061GF108991051091004501071001MW1601REMSYN064AAXX  14004 48077 21456 80000 10250 20250 40076 76065 85970 333;
0122480770999992000091403004+18790+095220FM-12+0060VBPR V0200401N000510450019N0090001N1+02801+02501100941ADDGF106991041081004501031001MD1999999+0181REMSYN070AAXX  14034 48077 22459 60401 10280 20250 40094 84830 333 56490 58018;
0133480770999992000091406004+18790+095220FM-12+0060VBPR V0202301N000510042019N0090001N1+03001+02391100911ADDAA199000021GF108991051091004501071001MD1999999+0161REMSYN070AAXX  14064 48077 32459 82301 10300 20239 40091 85970 333 56490 58016;
0150480770999992000091409004+18790+095220FM-12+0060VBPR V0209999C000010075019N0090001N1+03001+02561100751ADDAY161031AY221031GF107991051091008001031001MD1999999+0121MW1211REMSYN076AAXX  14094 48077 21559 70000 10300 20256 40075 72162 85930 333 56490 58012;
0169480770999992000091412004+18790+095220FM-12+0060VBPR V0209999C000010450019N0060001N1+02841+02461100641ADDAY161061AY261061GF106991041081008001031001KA1120M+03101MD1999999-0161MW1601REMSYN082AAXX  14124 48077 21556 60000 10284 20246 40064 76066 84830 333 10310 56990 59016;
0141480770999992000091500004+18790+095220FM-12+0060VBPR V0209999C000010042019N0060001N1+02541+02331100781ADDGF108991051091004501071001KA1120N+02501MD1999999+0021REMSYN076AAXX  15004 48077 22456 80000 10254 20233 40078 85970 333 20250 56490 58002;
0122480770999992000091503004+18790+095220FM-12+0060VBPR V0203201N000510450019N0100001N1+02751+02501100921ADDGF106991041021004501031011MD1999999-0031REMSYN070AAXX  15034 48077 22460 63201 10275 20250 40092 84231 333 56490 59003;
0152480770999992000091506004+18790+095220FM-12+0060VBPR V0201901N000510450019N0110001N1+03101+02541100881ADDAA199000091GF106991041091004501061001MD1999999-0061REMSYN070AAXX  15064 48077 32461 61901 10310 20254 40088 84960 333 56490 59006;EQDQ01  00002PRCP99
0152480770999992000091509004+18790+095220FM-12+0060VBPR V0209999C000010450019N0150001N1+03421+02401100591ADDAA199000091GF107991041091004501071001MD1999999-0121REMSYN070AAXX  15094 48077 32465 70000 10342 20240 40059 84970 333 56490 59012;EQDQ01  00002PRCP99
0171480770999992000091512004+18790+095220FM-12+0060VBPR V0209999C000010450019N0080001N1+02911+02591100561ADDAA199000091GF108991041091004501071001KA1120M+03421MD1999999-0081REMSYN076AAXX  15124 48077 32458 80000 10291 20259 40056 84970 333 10342 56990 59008;EQDQ01  00002PRCP99
0171480770999992000091600004+18790+095220FM-12+0060VBPR V0209999C000010042019N0080001N1+02661+02561100791ADDAA199000091GF108991051091004501031001KA1120N+02601MD1999999+0001REMSYN076AAXX  16004 48077 32458 80000 10266 20256 40079 85930 333 20260 56490 58000;EQDQ01  00002PRCP99
0152480770999992000091606004+18790+095220FM-12+0060VBPR V0202301N001010075019N0100001N1+03071+02541100951ADDAA199000091GF108991051091008001031001MD1999999+0071REMSYN070AAXX  16064 48077 32560 82302 10307 20254 40095 85930 333 56496 58007;EQDQ01  00002PRCP99
0171480770999992000091612004+18790+095220FM-12+0060VBPR V0202301N001010075019N0060001N1+02701+02111100741ADDAA199000091GF107991051091008001031001KA1120M+03171MD1999999+0181REMSYN076AAXX  16124 48077 32556 72302 10270 20211 40074 85930 333 10317 56490 58018;EQDQ01  00002PRCP99
0171480770999992000091700004+18790+095220FM-12+0060VBPR V0209999C000010450019N0060001N1+02691+02561101001ADDAA199000091GF108991041091004501071001KA1120N+02641MD1999999+0211REMSYN076AAXX  17004 48077 32456 80000 10269 20256 40100 84970 333 20264 56490 58021;EQDQ01  00002PRCP99
0152480770999992000091706004+18790+095220FM-12+0060VBPR V0200401N000510042019N0110001N1+03121+02541101061ADDAA199000091GF107991051091004501071001MD1999999+0211REMSYN070AAXX  17064 48077 32461 70401 10312 20254 40106 85970 333 56490 58021;EQDQ01  00002PRCP99
0152480770999992000091709004+18790+095220FM-12+0060VBPR V0209999C000010450019N0110001N1+03301+02011100771ADDAA199000091GF106991041091004501031011MD1999999+0001REMSYN070AAXX  17094 48077 32461 60000 10330 20201 40077 84931 333 56499 58000;EQDQ01  00002PRCP99
0161480770999992000091712004+18790+095220FM-12+0060VBPR V0202701N000510042019N0050001N1+03751+02501100861ADDAA199000091GF108991051091004501071001KA1999M+99999REMSYN064AAXX  17124 48077 32450 82701 10375 20250 40086 85970 333 10330;EQDQ01  00002PRCP99Q02 +03302ATMX  
0169480770999992000091800004+18790+095220FM-12+0060VBPR V0209999C000010042019N0070001N1+02801+02461100981ADDAY161061AY221061GF108991051091004501071001KA1120N+02551MD1999999-0011MW1021REMSYN082AAXX  18004 48077 21457 80000 10280 20246 40098 70262 85970 333 20255 56490 59001;
0122480770999992000091803004+18790+095220FM-12+0060VBPR V0202301N000510042019N0090001N1+02801+02501101031ADDGF107991051091004501071001MD1999999-0091REMSYN070AAXX  18034 48077 22459 72301 10280 20250 40103 85970 333 56490 59009;
0152480770999992000091806004+18790+095220FM-12+0060VBPR V0202301N000510450019N0100001N1+03151+02651100961ADDAA199000091GF106991031081008001031011MD1999999-0101REMSYN070AAXX  18064 48077 32560 62301 10315 20265 40096 83831 333 56499 59010;EQDQ01  00002PRCP99
0150480770999992000091809004+18790+095220FM-12+0060VBPR V0209999C000010450019N0080001N1+02961+02531100751ADDAY121031AY261031GF108991041091004501071001MD1999999-0021MW1951REMSYN076AAXX  18094 48077 21458 80000 10296 20253 40075 79526 84970 333 56490 59002;
0169480770999992000091812004+18790+095220FM-12+0060VBPR V0202301N002110042019N0070001N1+02641+02461100831ADDAY191061AY261061GF108991051091004501021001KA1120M+03351MD1999999-0031MW1501REMSYN082AAXX  18124 48077 21457 82304 10264 20246 40083 75096 85920 333 10335 56490 59003;
0169480770999992000091900004+18790+095220FM-12+0060VBPR V0209999C000012200019N0080001N1+02581+02481100941ADDAY151061AY221061GF103991021081008001031001KA1120N+02551MD1999999+0051MW1101REMSYN082AAXX  19004 48077 22558 30000 10258 20248 40094 71052 82830 333 20255 56990 58005;
0122480770999992000091903004+18790+095220FM-12+0060VBPR V0202301N000510450019N0090001N1+02801+02501101141ADDGF106991041081008001031001MD1999999+0181REMSYN070AAXX  19034 48077 22559 62301 10280 20250 40114 84830 333 56490 58018;
0152480770999992000091906004+18790+095220FM-12+0060VBPR V0201801N000512200019N0100001N1+03151+02651101161ADDAA199000091GF104991021021008001031011MD1999999+0191REMSYN070AAXX  19064 48077 32560 41801 10315 20265 40116 82231 333 56499 58019;EQDQ01  00002PRCP99
0152480770999992000091909004+18790+095220FM-12+0060VBPR V0209999C000012200019N0100001N1+03401+02571100751ADDAA100000091AY121031GF103991999999008001999999MW1051REMSYN070AAXX  19094 48077 31560 30000 10340 20257 40075 7052/ 99118 333 69///;EQDQ01  00002PRCP00
0199480770999992000091912004+18790+095220FM-12+0060VBPR V0209999C000010450019N0060001N1+03061+02531100761ADDAA199000091AY121061AY221061GF108991031091008001031011KA1120M+03411MD1999999-0061MW1051REMSYN082AAXX  19124 48077 31556 80000 10306 20253 40076 70522 83931 333 10341 56499 59006;EQDQ01  00002PRCP99
0199480770999992000092000004+18790+095220FM-12+0060VBPR V0209999C000010450019N0060001N1+02601+02461101071ADDAA199000091AY121061AY221061GF107991041081008001031001KA1120N+02561MD1999999+0101MW1101REMSYN082AAXX  20004 48077 31556 70000 10260 20246 40107 71022 84830 333 20256 56890 58010;EQDQ01  00002PRCP99
0152480770999992000092003004+18790+095220FM-12+0060VBPR V0203601N000510450019N0100001N1+02901+02591101161ADDAA199000091GF105991041081008001031001MD1999999+0011REMSYN070AAXX  20034 48077 32560 53601 10290 20259 40116 84830 333 56490 58001;EQDQ01  00002PRCP99
0180480770999992000092006004+18790+095220FM-12+0060VBPR V0209999C000010450019N0090001N1+03301+02751101101ADDAA199000091AY121061AY221061GF106991041081008001031001MD1999999+0001MW1051REMSYN076AAXX  20064 48077 31559 60000 10330 20275 40110 70522 84830 333 56190 59000;EQDQ01  00002PRCP99
0180480770999992000092009004+18790+095220FM-12+0060VBPR V0209999C000010450019N0060001N1+03501+02661100861ADDAA199000091AY121031AY221031GF108991031081008001031011MD1999999+0121MW1051REMSYN076AAXX  20094 48077 31556 80000 10350 20266 40086 70522 83831 333 56999 58012;EQDQ01  00002PRCP99
0199480770999992000092012004+18790+095220FM-12+0060VBPR V0209999C000012200019N0070001N1+03101+02541100861ADDAA199000091AY121061AY221061GF104991021081008001031011KA1120M+03511MD1999999+0121MW1051REMSYN082AAXX  20124 48077 32557 40000 10310 20254 40086 70522 82831 333 10351 56999 58012;EQDQ01  00002PRCP99
0193480770999992000092100004+18790+095220FM-12+0060VBPR V0209999C000019999999N0060001N1+99999+99999101101ADDAA199000091AY121061AY221061GF108991001001999999031011KA1120M+02651MD1999999+0051MW1101REMSYN076AAXX  21004 48077 31956 80000 20256 40110 71022 80031 333 10265 56099 58005;EQDQ01  00002PRCP99
0152480770999992000092103004+18790+095220FM-12+0060VBPR V0203601N000512200019N0100001N1+02951+02561101181ADDAA199000091GF104991011021008001031011MD1999999+0031REMSYN070AAXX  21034 48077 32560 43601 10295 20256 40118 81231 333 56999 58003;EQDQ01  00002PRCP99
0152480770999992000092106004+18790+095220FM-12+0060VBPR V0209999C000011050019N0060001N1+03301+02751101141ADDAA199000091GF105991021081004501031011MD1999999+0031REMSYN070AAXX  21064 48077 32456 50000 10330 20275 40114 82831 333 56499 58003;EQDQ01  00002PRCP99
0152480770999992000092109004+18790+095220FM-12+0060VBPR V0209999C000010450019N0110001N1+03511+02661100861ADDAA199000091GF105991031091008001031011MD1999999+0001REMSYN070AAXX  21094 48077 32561 50000 10351 20266 40086 83931 333 56199 58000;EQDQ01  00002PRCP99
0169480770999992000092112004+18790+095220FM-12+0060VBPR V0202701N001510042019N0050001N1+02801+02331100881ADDAY191061AY261061GF106991051091004501021001KA1120M+03301MD1999999+0021MW1951REMSYN082AAXX  21124 48077 21450 62703 10280 20233 40088 79596 85920 333 10330 56690 58002;
0169480770999992000092200004+18790+095220FM-12+0060VBPR V0209999C000010450019N0060001N1+02601+02461101151ADDAY191061AY251061GF108991041081008001031001KA1120N+02551MD1999999+0001MW1011REMSYN082AAXX  22004 48077 21556 80000 10260 20246 40115 70195 84830 333 20255 56990 58000;
0122480770999992000092203004+18790+095220FM-12+0060VBPR V0200401N000510450019N0090001N1+02801+02501101211ADDGF106991011021008001031011MD1999999+0031REMSYN070AAXX  22034 48077 22559 60401 10280 20250 40121 81231 333 56999 58003;
0168480770999992000092206004+18790+095220FM-12+0060VBPR V0209999C000010024019N0100001N1+03101+02541101191ADDAA199000091GA1091+999999999GF109991091999999999999999MD1999999+0061REMSYN070AAXX  22064 48077 32460 90000 10310 20254 40119 84931 333 56339 58006;EQDQ01  00002PRCP99
0152480770999992000092209004+18790+095220FM-12+0060VBPR V0202301N000510450019N0100001N1+03501+02401100921ADDAA199000091GF106991041091008001031001MD1999999+0011REMSYN070AAXX  22094 48077 32560 62301 10350 20240 40092 84930 333 56990 58001;EQDQ01  00002PRCP99
0180480770999992000092212004+18790+095220FM-12+0060VBPR V0209999C000010042019N0060001N1+02901+02481100931ADDAA199000021AY191061AY251061GF108991051091004501071001KA1120M+03501MD1999999+0061MW1951REMSYN082AAXX  22124 48077 31456 80000 10290 20248 40093 79595 85970 333 10350 56990 58006;
0152480770999992000092300004+18790+095220FM-12+0060VBPR V0209999C000019999999N0060001N1+02581+02461101091ADDAA199000021GF105991001001999999031011KA1120N+02551MD1999999-0061REMSYN076AAXX  23004 48077 32956 50000 10258 20246 40109 80031 333 20255 56099 59006;
0152480770999992000092303004+18790+095220FM-12+0060VBPR V0201801N000510450019N0100001N1+02841+02501101261ADDAA199000091GF107991011021008001031001MD1999999-0041REMSYN070AAXX  23034 48077 32560 71801 10284 20250 40126 81230 333 56490 59004;EQDQ01  00002PRCP99
0152480770999992000092306004+18790+095220FM-12+0060VBPR V0209999C000012200019N0110001N1+03211+02651101151ADDAA199000091GF103991031091008001001001MD1999999-0041REMSYN070AAXX  23064 48077 32561 30000 10321 20265 40115 83900 333 56400 59004;EQDQ01  00002PRCP99
0171480770999992000092312004+18790+095220FM-12+0060VBPR V0209999C000010450019N0060001N1+03021+02531100741ADDAA199000091GF107991021091008001031001KA1120M+03451MD1999999-0201REMSYN076AAXX  23124 48077 32556 70000 10302 20253 40074 82930 333 10345 56990 59020;EQDQ01  00002PRCP99
0171480770999992000092400004+18790+095220FM-12+0060VBPR V0209999C000012200019N0080001N1+02601+02461101011ADDAA199000091GF105991031081008001001011KA1120N+02551MD1999999-0081REMSYN076AAXX  24004 48077 32558 50000 10260 20246 40101 83801 333 20255 56909 59008;EQDQ01  00002PRCP99
0152480770999992000092403004+18790+095220FM-12+0060VBPR V0209999C000010450019N0120001N1+02801+02501101171ADDAA199000091GF106991031021008001031011MD1999999-0101REMSYN070AAXX  24034 48077 32562 60000 10280 20250 40117 83231 333 56999 59010;EQDQ01  00002PRCP99
0152480770999992000092406004+18790+095220FM-12+0060VBPR V0202301N000510450019N0100001N1+03071+02541101101ADDAA199000091GF106991021021008001031011MD1999999+0051REMSYN070AAXX  24064 48077 32560 62301 10307 20254 40110 82231 333 56999 58005;EQDQ01  00002PRCP99
0152480770999992000092409004+18790+095220FM-12+0060VBPR V0202301N000510075019N0100001N1+03071+02561100791ADDAA199000091GF106991051091008001031001MD1999999-0021REMSYN070AAXX  24094 48077 32560 62301 10307 20256 40079 85930 333 56690 59002;EQDQ01  00002PRCP99
0171480770999992000092412004+18790+095220FM-12+0060VBPR V0202301N001010075019N0060001N1+02801+02501100791ADDAA199000091GF107991051091008001031001KA1120M+03401MD1999999+0061REMSYN076AAXX  24124 48077 32556 72302 10280 20250 40079 85930 333 10340 56990 58006;EQDQ01  00002PRCP99
0171480770999992000092500004+18790+095220FM-12+0060VBPR V0209999C000010450019N0080001N1+02601+02461101091ADDAA199000091GF107991021081008001031011KA1120N+02521MD1999999+0081REMSYN076AAXX  25004 48077 32558 70000 10260 20246 40109 82831 333 20252 56499 58008;EQDQ01  00002PRCP99
0152480770999992000092503004+18790+095220FM-12+0060VBPR V0202301N000510450019N0100001N1+02851+02501101191ADDAA199000091GF106991031081008001031001MD1999999-0061REMSYN070AAXX  25034 48077 32560 62301 10285 20250 40119 83830 333 56490 59006;EQDQ01  00002PRCP99
0152480770999992000092506004+18790+095220FM-12+0060VBPR V0202701N000510450019N0110001N1+03131+02541101141ADDAA199000091GF106991031091008001031011MD1999999-0031REMSYN070AAXX  25064 48077 32561 62701 10313 20254 40114 83931 333 56690 59003;EQDQ01  00002PRCP99
0196480770999992000092509004+18790+095220FM-12+0060VBPR V0202301N000510042019N0100001N1+02391+99999100851ADDAA199000091AY191031AY221031GF108991051091004501071001MD1999999+0061MW1171REMSYN076AAXX  25094 48077 31460 82301 10239 20085 40085 71792 85970 333 56690 58006;EQDQ01+000853ATOD  Q02  00002PRCP99
0180480770999992000092512004+18790+095220FM-12+0060VBPR V0209999C000010450019N0060001N1+02701+02401100901ADDAA199000021AY191061AY251061GF108991041091004501071001KA1120M+03321MD1999999+0111MW1501REMSYN082AAXX  25124 48077 31456 80000 10270 20240 40090 75095 84970 333 10332 56490 58011;
0180480770999992000092600004+18790+095220FM-12+0060VBPR V0209999C000012200019N0080001N1+02501+02331101041ADDAA199000021AY191061AY251061GF108991041081008001001011KA1120N+02481MD1999999-0051MW1011REMSYN082AAXX  26004 48077 31558 80000 10250 20233 40104 70195 84801 333 20248 56909 59005;
0152480770999992000092606004+18790+095220FM-12+0060VBPR V0202301N000512200019N0110001N1+03101+02541101131ADDAA199000091GF104991011021008001031011MD1999999-0011REMSYN070AAXX  26064 48077 32561 42301 10310 20254 40113 81231 333 56999 59001;EQDQ01  00002PRCP99
0180480770999992000092609004+18790+095220FM-12+0060VBPR V0202301N002110450019N0110001N1+03341+02581100871ADDAA199000091AY191031AY221031GF106991041091008001031001MD1999999+0021MW1171REMSYN076AAXX  26094 48077 31561 62304 10334 20258 40087 71792 84930 333 56390 58002;EQDQ01  00002PRCP99
0169480770999992000092612004+18790+095220FM-12+0060VBPR V0209999C000010450019N0060001N1+02701+02401100891ADDAY191061AY221061GF106991041081008001031001KA1120M+03481MD1999999-0011MW1021REMSYN082AAXX  26124 48077 21556 60000 10270 20240 40089 70292 84830 333 10348 56590 59001;
0171480770999992000092700004+18790+095220FM-12+0060VBPR V0209999C000010450019N0080001N1+02501+02331100911ADDAA199000091GF107991011021008001031011KA1120N+02451MD1999999-0121REMSYN076AAXX  27004 48077 32558 70000 10250 20233 40091 81231 333 20245 56999 59012;EQDQ01  00002PRCP99
0152480770999992000092703004+18790+095220FM-12+0060VBPR V0202301N000512200019N0100001N1+02801+02501101021ADDAA199000091GF106991021021008001001011MD1999999-0161REMSYN070AAXX  27034 48077 32560 62301 10280 20250 40102 82201 333 56909 59016;EQDQ01  00002PRCP99
0152480770999992000092706004+18790+095220FM-12+0060VBPR V0202301N000511050019N0190001N1+03201+02651100981ADDAA199000091GF105991021091008001031011MD1999999-0141REMSYN070AAXX  27064 48077 32569 52301 10320 20265 40098 82931 333 56899 59014;EQDQ01  00002PRCP99
0152480770999992000092709004+18790+095220FM-12+0060VBPR V0209999C000012200019N0110001N1+03551+02781100621ADDAA199000091GF106991041081008001001011MD1999999-0261REMSYN070AAXX  27094 48077 32561 60000 10355 20278 40062 84801 333 56709 59026;EQDQ01  00002PRCP99
0171480770999992000092712004+18790+095220FM-12+0060VBPR V0202701N000510450019N0080001N1+02901+02591100591ADDAA199000091GF106991021091008001031011KA1120M+03551MD1999999-0291REMSYN076AAXX  27124 48077 32558 62701 10290 20259 40059 82931 333 10355 56999 59029;EQDQ01  00002PRCP99
0171480770999992000092800004+18790+095220FM-12+0060VBPR V0209999C000012200019N0080001N1+02571+02461100781ADDAA199000091GF105991021021008001001011KA1120N+02551MD1999999-0121REMSYN076AAXX  28004 48077 32558 50000 10257 20246 40078 82201 333 20255 56909 59012;EQDQ01  00002PRCP99
0152480770999992000092803004+18790+095220FM-12+0060VBPR V0209999C000019999999N0100001N1+02851+02661100861ADDAA199000091GF105991001001999999001011MD1999999+0161REMSYN070AAXX  28034 48077 32960 50000 10285 20266 40086 80001 333 56099 58016;EQDQ01  00002PRCP99
0152480770999992000092809004+18790+095220FM-12+0060VBPR V0209999C000012200019N0110001N1+03501+02661100411ADDAA199000091GF107991041081008001001011MD1999999-0171REMSYN070AAXX  28094 48077 32561 70000 10350 20266 40041 84801 333 56209 59017;EQDQ01  00002PRCP99
0199480770999992000092812004+18790+095220FM-12+0060VBPR V0209999C000010075019N0080001N1+03141+02541100391ADDAA199000091AY191061AY221061GF107991051091008001031011KA1120M+03641MD1999999-0241MW1171REMSYN082AAXX  28124 48077 31558 70000 10314 20254 40039 71792 85931 333 10364 56199 59024;EQDQ01  00002PRCP99
0150480770999992000092903004+18790+095220FM-12+0060VBPR V0200401N000510042019N0060001N1+02501+02331101021ADDAY161031AY251031GF108991051091004501021001MD1999999+0161MW1611REMSYN076AAXX  29034 48077 21456 80401 10250 20233 40102 76165 85920 333 56490 58016;
0150480770999992000092906004+18790+095220FM-12+0060VBPR V0209999C000010450019N0100001N1+02801+02501100941ADDAY161061AY221061GF107991041091004501071001MD1999999+0131MW1011REMSYN076AAXX  29064 48077 21460 70000 10280 20250 40094 70162 84970 333 56490 58013;
0169480770999992000092912004+18790+095220FM-12+0060VBPR V0209999C000010450019N0060001N1+02571+02461100701ADDAY161061AY251061GF108991041091004501071001KA1120M+03001MD1999999+0351MW1501REMSYN082AAXX  29124 48077 21456 80000 10257 20246 40070 75065 84970 333 10300 56490 58035;
0169480770999992000093000004+18790+095220FM-12+0060VBPR V0209999C000010042019N0060001N1+02461+02331100861ADDAY161061AY251061GF108991051091004501071001KA1120N+02421MD1999999+0081MW1021REMSYN082AAXX  30004 48077 21456 80000 10246 20233 40086 70265 85970 333 20242 56490 58008;
0122480770999992000093003004+18790+095220FM-12+0060VBPR V0202301N000510042019N0100001N1+02641+02461100981ADDGF108991051091004501031001MD1999999-0061REMSYN070AAXX  30034 48077 22460 82301 10264 20246 40098 85930 333 56490 59006;
0152480770999992000093006004+18790+095220FM-12+0060VBPR V0201301N002110042019N0100001N1+02831+02331100921ADDAA199000091GF108991051091004501031001MD1999999+0001REMSYN070AAXX  30064 48077 32460 81304 10283 20233 40092 85930 333 56490 59000;EQDQ01  00002PRCP99
0169480770999992000100100004+18790+095220FM-12+0060VBPR V0201301N001010450019N0100001N1+02501+02331101001ADDAY161061AY221061GF108991041091004501071001KA1120N+02471MD1999999+0141MW1021REMSYN082AAXX  01004 48077 21460 81302 10250 20233 40100 70262 84970 333 20247 56490 58014;
0122480770999992000100103004+18790+095220FM-12+0060VBPR V0201301N001510450019N0080001N1+02701+02401101121ADDGF108991041091004501071001MD1999999+0161REMSYN070AAXX  01034 48077 22458 81303 10270 20240 40112 84970 333 56490 58016;
0150480770999992000100106004+18790+095220FM-12+0060VBPR V0201301N002110450019N0100001N1+02971+02391101091ADDAY161061AY221061GF108991041091004501071001MD1999999+0141MW1031REMSYN076AAXX  01064 48077 21460 81304 10297 20239 40109 70362 84970 333 56490 58014;
0150480770999992000100109004+18790+095220FM-12+0060VBPR V0209999C000010042019N0060001N1+02701+02401100991ADDAY161031AY251031GF108991051091004501021001MD1999999+0261MW1601REMSYN076AAXX  01094 48077 21456 80000 10270 20240 40099 76065 85920 333 56490 58026;
0169480770999992000100112004+18790+095220FM-12+0060VBPR V0209999C000010042019N0050001N1+02601+02461100981ADDAY161061AY261061GF108991051091004501021001KA1120M+02941MD1999999+0281MW1601REMSYN082AAXX  01124 48077 21450 80000 10260 20246 40098 76066 85920 333 10294 56490 58028;
0169480770999992000100200004+18790+095220FM-12+0060VBPR V0201301N000510042019N0060001N1+02501+02501101141ADDAY161061AY221061GF108991051091004501021001KA1120N+02471MD1999999+0141MW1021REMSYN082AAXX  02004 48077 21456 81301 10250 20250 40114 70262 85920 333 20247 56490 58014;
0152480770999992000100206004+18790+095220FM-12+0060VBPR V0202201N000510450019N0110001N1+03061+02671101161ADDAA199000091GF108991041091004501071001MD1999999+0071REMSYN070AAXX  02064 48077 32461 82201 10306 20267 40116 84970 333 56490 58007;EQDQ01  00002PRCP99
0169480770999992000100212004+18790+095220FM-12+0060VBPR V0209999C000010042019N0050001N1+02451+02401101011ADDAY161061AY221061GF108991051091004501021001KA1120M+03151MD1999999+0021MW1031REMSYN082AAXX  02124 48077 21450 80000 10245 20240 40101 70362 85920 333 10315 56490 58002;
0141480770999992000100300004+18790+095220FM-12+0060VBPR V0209999C000010042019N0060001N1+02451+02231101101ADDGF108991051091004501021001KA1120N+02421MD1999999-0041REMSYN076AAXX  03004 48077 22456 80000 10245 20223 40110 85920 333 20242 56490 59004;
0122480770999992000100303004+18790+095220FM-12+0060VBPR V0202301N001010450019N0100001N1+02701+02561101261ADDGF106991041091004501031001MD1999999+0011REMSYN070AAXX  03034 48077 22460 62302 10270 20256 40126 84930 333 56490 58001;
0152480770999992000100306004+18790+095220FM-12+0060VBPR V0202301N001010450019N0100001N1+03001+02531101181ADDAA199000091GF106991041081004501031001MD1999999+0021REMSYN070AAXX  03064 48077 32460 62302 10300 20253 40118 84830 333 56490 58002;EQDQ01  00002PRCP99
0152480770999992000100309004+18790+095220FM-12+0060VBPR V0202301N001010042019N0100001N1+03141+02541100901ADDAA199000091GF108991051091004501071001MD1999999-0041REMSYN070AAXX  03094 48077 32460 82302 10314 20254 40090 85970 333 56590 59004;EQDQ01  00002PRCP99
0169480770999992000100312004+18790+095220FM-12+0060VBPR V0202301N000510450019N0070001N1+02701+02401100901ADDAY161061AY221061GF106991031081004501031011KA1120M+03211MD1999999-0111MW1011REMSYN082AAXX  03124 48077 21457 62301 10270 20240 40090 70162 83831 333 10321 56599 59011;
0169480770999992000100400004+18790+095220FM-12+0060VBPR V0202301N000510450019N0060001N1+02501+02331100981ADDAY121061AY221061GF106991021081004501041011KA1120N+02471MD1999999-0121MW1101REMSYN082AAXX  04004 48077 22456 62301 10250 20233 40098 71022 82841 333 20247 56499 59012;
0122480770999992000100403004+18790+095220FM-12+0060VBPR V0202301N000510042019N0090001N1+02701+02561101161ADDGF107991051091004501031001MD1999999-0101REMSYN070AAXX  04034 48077 22459 72301 10270 20256 40116 85930 333 56490 59010;
0152480770999992000100406004+18790+095220FM-12+0060VBPR V0202301N000510450019N0100001N1+03161+02811101071ADDAA199000091GF108991041081008001031001MD1999999-0111REMSYN070AAXX  04064 48077 32560 82301 10316 20281 40107 84830 333 56490 59011;EQDQ01  00002PRCP99
0152480770999992000100409004+18790+095220FM-12+0060VBPR V0202301N000510450019N0100001N1+03301+02581100781ADDAA199000091GF105991041081008001031001MD1999999-0101REMSYN070AAXX  04094 48077 32560 52301 10330 20258 40078 84830 333 56490 59010;EQDQ01  00002PRCP99
0171480770999992000100412004+18790+095220FM-12+0060VBPR V0209999C000010450019N0080001N1+03021+02531100731ADDAA199000091GF106991031081008001031011KA1120M+03301MD1999999-0171REMSYN076AAXX  04124 48077 32558 60000 10302 20253 40073 83831 333 10330 56569 59017;EQDQ01  00002PRCP99
0171480770999992000100500004+18790+095220FM-12+0060VBPR V0209999C000012200019N0090001N1+02531+02331100991ADDAA199000091GF104991001001999999031011KA1120N+02501MD1999999+0011REMSYN076AAXX  05004 48077 32959 40000 10253 20233 40099 80031 333 20250 56099 58001;EQDQ01  00002PRCP99
0152480770999992000100503004+18790+095220FM-12+0060VBPR V0209999C000011050019N0100001N1+02901+02481101201ADDAA199000091GF105991011021008001031011MD1999999+0041REMSYN070AAXX  05034 48077 32560 50000 10290 20248 40120 81231 333 56999 58004;EQDQ01  00002PRCP99
0152480770999992000100506004+18790+095220FM-12+0060VBPR V0202101N000510450019N0110001N1+03311+02751101051ADDAA199000091GF105991031091004501031011MD1999999-0021REMSYN070AAXX  05064 48077 32461 52101 10331 20275 40105 83931 333 56499 59002;EQDQ01  00002PRCP99
0152480770999992000100509004+18790+095220FM-12+0060VBPR V0209999C000010450019N0110001N1+03331+02441100721ADDAA199000091GF106991041091004501031011MD1999999-0061REMSYN070AAXX  05094 48077 32461 60000 10333 20244 40072 84931 333 56999 59006;EQDQ01  00002PRCP99
0171480770999992000100512004+18790+095220FM-12+0060VBPR V0209999C000010450019N0100001N1+03181+02651100781ADDAA199000091GF106991041091008001031011KA1120M+03421MD1999999+0061REMSYN076AAXX  05124 48077 32560 60000 10318 20265 40078 84931 333 10342 56499 58006;EQDQ01  00002PRCP99
0171480770999992000100600004+18790+095220FM-12+0060VBPR V0209999C000010450019N0070001N1+02601+02461101081ADDAA199000091GF107991041091004501031001KA1120N+02551MD1999999+0091REMSYN076AAXX  06004 48077 32457 70000 10260 20246 40108 84930 333 20255 56490 58009;EQDQ01  00002PRCP99
0161480770999992000100603004+18790+095220FM-12+0060VBPR V0209999C000010042019N0090001N1+02561+02291101281ADDAA199000021AY151031AY221031GF108991051091004501071001MD1999999+0071MW1501REMSYN076AAXX  06034 48077 31459 80000 10256 20229 40128 75052 85970 333 56099 58007;
0150480770999992000100606004+18790+095220FM-12+0060VBPR V0209999C000010042019N0070001N1+02601+02461101261ADDAY161061AY251061GF108991051091004501071001MD1999999+0211MW1601REMSYN076AAXX  06064 48077 21457 80000 10260 20246 40126 76065 85970 333 56490 58021;
0150480770999992000100609004+18790+095220FM-12+0060VBPR V0209999C000010450019N0100001N1+02801+02501101001ADDAY161031AY261031GF106991041081004501031001MD1999999+0281MW1011REMSYN076AAXX  06094 48077 21460 60000 10280 20250 40100 70166 84830 333 56990 58028;
0141480770999992000100612004+18790+095220FM-12+0060VBPR V0209999C000019999999N0070001N1+02801+02501100881ADDGF107991001001999999031011KA1120M+02901MD1999999+0111REMSYN076AAXX  06124 48077 22957 70000 10280 20250 40088 80031 333 10290 56099 58011;
0141480770999992000100700004+18790+095220FM-12+0060VBPR V0209999C000010450019N0080001N1+02501+02331101071ADDGF108991041081004501031001KA1120N+02501MD1999999+0011REMSYN076AAXX  07004 48077 22458 80000 10250 20233 40107 84830 333 20250 56490 58001;
0122480770999992000100703004+18790+095220FM-12+0060VBPR V0209999C000010042019N0100001N1+02741+02401101421ADDGF108991051091004501071001MD1999999-0041REMSYN070AAXX  07034 48077 22460 80000 10274 20240 40142 85970 333 56490 59004;
0152480770999992000100706004+18790+095220FM-12+0060VBPR V0209999C000010042019N0110001N1+03101+02671101191ADDAA199000091GF106991051091004501071001MD1999999-0081REMSYN070AAXX  07064 48077 32461 60000 10310 20267 40119 85970 333 56290 59008;EQDQ01  00002PRCP99
0152480770999992000100709004+18790+095220FM-12+0060VBPR V0209999C000010042019N0110001N1+03081+02371100861ADDAA199000091GF105991051091004501001001MD1999999-0131REMSYN070AAXX  07094 48077 32461 50000 10308 20237 40086 85900 333 56900 59013;EQDQ01  00002PRCP99
0171480770999992000100712004+18790+095220FM-12+0060VBPR V0209999C000010450019N0080001N1+02901+02591100961ADDAA199000091GF106991011021008001031011KA1120M+03351MD1999999+0081REMSYN076AAXX  07124 48077 32558 60000 10290 20259 40096 81231 333 10335 56999 58008;EQDQ01  00002PRCP99
0171480770999992000100800004+18790+095220FM-12+0060VBPR V0209999C000010042019N0070001N1+02501+02331101031ADDAA199000091GF108991051091004501031001KA1120N+02471MD1999999-0041REMSYN076AAXX  08004 48077 32457 80000 10250 20233 40103 85930 333 20247 56490 59004;EQDQ01  00002PRCP99
0152480770999992000100803004+18790+095220FM-12+0060VBPR V0209999C000010120019N0120001N1+02701+02401101141ADDAA199000091GF106991051081008001031001MD1999999-0101REMSYN070AAXX  08034 48077 32562 60000 10270 20240 40114 85830 333 56290 59010;EQDQ01  00002PRCP99
0152480770999992000100806004+18790+095220FM-12+0060VBPR V0202301N000510075019N0100001N1+03201+02651101041ADDAA199000091GF106991051091008001001011MD1999999-0151REMSYN070AAXX  08064 48077 32560 62301 10320 20265 40104 85901 333 56209 59015;EQDQ01  00002PRCP99
0152480770999992000100809004+18790+095220FM-12+0060VBPR V0209999C000010075019N0100001N1+03261+02581100701ADDAA199000091GF106991051091008001031001MD1999999-0161REMSYN070AAXX  08094 48077 32560 60000 10326 20258 40070 85930 333 56290 59016;EQDQ01  00002PRCP99
0171480770999992000100812004+18790+095220FM-12+0060VBPR V0209999C000012200019N0060001N1+02951+02391100651ADDAA199000091GF104991021081008001051011KA1120M+03321MD1999999-0201REMSYN076AAXX  08124 48077 32556 40000 10295 20239 40065 82851 333 10332 56999 59020;EQDQ01  00002PRCP99
0171480770999992000100900004+18790+095220FM-12+0060VBPR V0209999C000012200019N0080001N1+02501+02331100711ADDAA199000091GF102991021021008001001001KA1120N+02451MD1999999-0311REMSYN076AAXX  09004 48077 32558 20000 10250 20233 40071 82200 333 20245 56400 59031;EQDQ01  00002PRCP99
0152480770999992000100903004+18790+095220FM-12+0060VBPR V0202301N000510450019N0100001N1+02871+02591100981ADDAA199000091GF106991041091004501031001MD1999999-0171REMSYN070AAXX  09034 48077 32460 62301 10287 20259 40098 84930 333 56490 59017;EQDQ01  00002PRCP99
0152480770999992000100906004+18790+095220FM-12+0060VBPR V0202301N000510042019N0100001N1+03201+02811100871ADDAA199000091GF106991051091004501031001MD1999999-0171REMSYN070AAXX  09064 48077 32460 62301 10320 20281 40087 85930 333 56290 59017;EQDQ01  00002PRCP99
0152480770999992000100909004+18790+095220FM-12+0060VBPR V0202301N000510042019N0100001N1+03301+02441100521ADDAA199000091GF106991051091004501031001MD1999999-0191REMSYN070AAXX  09094 48077 32460 62301 10330 20244 40052 85930 333 56390 59019;EQDQ01  00002PRCP99
0171480770999992000100912004+18790+095220FM-12+0060VBPR V0209999C000010450019N0060001N1+03101+02371100541ADDAA199000091GF106991011021008001031001KA1120M+03301MD1999999-0111REMSYN076AAXX  09124 48077 32556 60000 10310 20237 40054 81230 333 10330 56990 59011;EQDQ01  00002PRCP99
0171480770999992000101000004+18790+095220FM-12+0060VBPR V0209999C000012200019N0100001N1+02561+02461100741ADDAA199000091GF104991001001999999001011KA1120N+02541MD1999999+0081REMSYN076AAXX  10004 48077 32960 40000 10256 20246 40074 80001 333 20254 56009 58008;EQDQ01  00002PRCP99
0152480770999992000101003004+18790+095220FM-12+0060VBPR V0202301N000510450019N0110001N1+02801+02681100981ADDAA199000091GF106991041081008001031001MD1999999+0001REMSYN070AAXX  10034 48077 32561 62301 10280 20268 40098 84830 333 56290 58000;EQDQ01  00002PRCP99
0152480770999992000101006004+18790+095220FM-12+0060VBPR V0209999C000012200019N0110001N1+03261+02751100871ADDAA199000091GF106991041091008001001011MD1999999+0001REMSYN070AAXX  10064 48077 32561 60000 10326 20275 40087 84901 333 56209 58000;EQDQ01  00002PRCP99
0152480770999992000101009004+18790+095220FM-12+0060VBPR V0209999C000019999999N0110001N1+03001+02481100571ADDAA199000091GF106991021081022501001999MD1999999-0051REMSYN070AAXX  10094 48077 32861 60000 1030/ 20248 40057 8280/ 333 56907 59005;EQDQ01  00002PRCP99
0171480770999992000101012004+18790+095220FM-12+0060VBPR V0209999C000012200019N0090001N1+03061+02671100571ADDAA199000091GF106991021081008001001011KA1120M+03451MD1999999+0021REMSYN076AAXX  10124 48077 32559 60000 10306 20267 40057 82801 333 10345 56909 58002;EQDQ01  00002PRCP99
0199480770999992000101100004+18790+095220FM-12+0060VBPR V0209999C000010450019N0060001N1+02651+02461100771ADDAA199000091AY121061AY221061GF105991021081008001071001KA1120N+02451MD1999999+0071MW1171REMSYN082AAXX  11004 48077 31556 50000 10265 20246 40077 71722 82870 333 20245 56990 58007;EQDQ01  00002PRCP99
0152480770999992000101103004+18790+095220FM-12+0060VBPR V0209999C000010450019N0100001N1+02801+02681100881ADDAA199000091GF108991041091004501071001MD1999999+0001REMSYN070AAXX  11034 48077 32460 80000 10280 20268 40088 84970 333 56490 58000;EQDQ01  00002PRCP99
0152480770999992000101106004+18790+095220FM-12+0060VBPR V0209999C000010450019N0110001N1+03201+02811100891ADDAA199000091GF106991021081004501031011MD1999999+0031REMSYN070AAXX  11064 48077 32461 60000 10320 20281 40089 82831 333 56499 58003;EQDQ01  00002PRCP99
0152480770999992000101109004+18790+095220FM-12+0060VBPR V0209999C000010450019N0110001N1+03101+02541100591ADDAA199000091GF105991031091008001031011MD1999999+0021REMSYN070AAXX  11094 48077 32561 50000 10310 20254 40059 83931 333 56999 58002;EQDQ01  00002PRCP99
0171480770999992000101112004+18790+095220FM-12+0060VBPR V0209999C000011050019N0070001N1+03051+02671100581ADDAA199000091GF105991021081008001031011KA1120M+03451MD1999999+0021REMSYN076AAXX  11124 48077 32557 50000 10305 20267 40058 82831 333 10345 56999 58002;EQDQ01  00002PRCP99
0171480770999992000101200004+18790+095220FM-12+0060VBPR V0209999C000019999999N0080001N1+02601+02461100831ADDAA199000091GF106991001001999999031011KA1120N+02571MD1999999+0041REMSYN076AAXX  12004 48077 32958 60000 10260 20246 40083 80031 333 20257 56099 58004;EQDQ01  00002PRCP99
0152480770999992000101203004+18790+095220FM-12+0060VBPR V0209999C000012200019N0100001N1+02861+02591100971ADDAA199000091GF106991021021008001001011MD1999999+0101REMSYN070AAXX  12034 48077 32560 60000 10286 20259 40097 82201 333 56909 58010;EQDQ01  00002PRCP99
0168480770999992000101206004+18790+095220FM-12+0060VBPR V0202301N000519999999N0110001N1+03301+02751100861ADDAA199000091GF105991999081004501031001MD1999999-0041REMSYN070AAXX  12064 48077 32461 52301 10330 20275 40086 86830 333 56590 59004;EQDQ01+000062SCOTLCQ02  00002PRCP99
0152480770999992000101209004+18790+095220FM-12+0060VBPR V0209999C000010450019N0110001N1+03241+02651100491ADDAA199000091GF106991041081004501031001MD1999999-0101REMSYN070AAXX  12094 48077 32461 60000 10324 20265 40049 84830 333 56290 59010;EQDQ01  00002PRCP99
0199480770999992000101212004+18790+095220FM-12+0060VBPR V0209999C000010042019N0070001N1+02761+02501100461ADDAA199000091AY151061AY221061GF107991051091004501071001KA1120M+03401MD1999999-0121MW1031REMSYN082AAXX  12124 48077 31457 70000 10276 29250 40046 70352 85970 333 10340 56990 59012;EQDQ01  00002PRCP99
0171480770999992000101300004+18790+095220FM-12+0060VBPR V0209999C000012200019N0080001N1+02501+02331100661ADDAA199000091GF104991001001999999031011KA1120N+02501MD1999999-0161REMSYN076AAXX  13004 48077 32958 40000 10250 20233 40066 80031 333 20250 56099 59016;EQDQ01  00002PRCP99
0152480770999992000101303004+18790+095220FM-12+0060VBPR V0209999C000012200019N0110001N1+02901+02591100801ADDAA199000091GF104991021021008001031011MD1999999+0171REMSYN070AAXX  13034 48077 32561 40000 10290 20259 40080 82231 333 56499 58017;EQDQ01  00002PRCP99
0152480770999992000101306004+18790+095220FM-12+0060VBPR V0209999C000012200019N0150001N1+03191+02391100651ADDAA199000091GF103991021081008001031001MD1999999-0251REMSYN070AAXX  13064 48077 32565 30000 10319 20239 40065 82830 333 56990 59025;EQDQ01  00002PRCP99
0171480770999992000101312004+18790+095220FM-12+0060VBPR V0209999C000011050019N0070001N1+03301+02581100271ADDAA199000091GF105991011021008001031011KA1120M+03301MD1999999-0191REMSYN076AAXX  13124 48077 32557 50000 10330 20258 40027 81231 333 10330 56999 59019;EQDQ01  00002PRCP99
0169480770999992000101400004+18790+095220FM-12+0060VBPR V0209999C000010075019N0080001N1+02521+02331100541ADDAY191061AY261061GF107991051091008001031001KA1120N+02491MD1999999-0121MW1021REMSYN082AAXX  14004 48077 21558 70000 10252 20233 40054 70296 85930 333 20249 56490 59012;
0122480770999992000101403004+18790+095220FM-12+0060VBPR V0209999C000010075019N0100001N1+02901+02491100701ADDGF107991051091008001031001MD1999999-0101REMSYN070AAXX  14034 48077 22560 70000 10290 20249 40070 85930 333 56490 59010;
0152480770999992000101406004+18790+095220FM-12+0060VBPR V0209999C000010075019N0100001N1+03101+02541100671ADDAA199000091GF107991051091008001031001MD1999999+0061REMSYN070AAXX  14064 48077 32560 70000 10310 20254 40067 85930 333 56490 58006;EQDQ01  00002PRCP99
0152480770999992000101409004+18790+095220FM-12+0060VBPR V0209999C000012200019N0110001N1+03451+02701100661ADDAA199000091GF104991041091008001001001MD1999999-0031REMSYN070AAXX  14094 48077 32561 40000 10345 20270 40066 84900 333 56400 59003;EQDQ01  00002PRCP99
0187480770999992000101412004+18790+095220FM-12+0060VBPR V0209999C000012200019N0100001N1+03201+02651100291ADDAA199000091GF104991999001008001031011KA1120M+03451MD1999999+0021REMSYN076AAXX  14124 48077 32597 40000 10320 20265 40029 80031 333 10345 56099 58002;EQDQ01+000002SCOTLCQ02  00002PRCP99
0169480770999992000101500004+18790+095220FM-12+0060VBPR V0209999C000010450019N0080001N1+02441+02261100681ADDAY161061AY281061GF106991031081004501031011KA1120N+02421MD1999999+0141MW1031REMSYN082AAXX  15004 48077 21458 60000 10244 20226 40068 70368 83831 333 20242 56299 58014;
0122480770999992000101503004+18790+095220FM-12+0060VBPR V0209999C000012200019N0110001N1+02801+02501100881ADDGF102991021081008001001001MD1999999+0181REMSYN070AAXX  15034 48077 22561 20000 10280 20250 40088 82800 333 56400 58018;
0168480770999992000101506004+18790+095220FM-12+0060VBPR V0209999C000012200019N0060001N1+02991+02391100821ADDAA199000091GF103991999091004501031001MD1999999+0151REMSYN070AAXX  15064 48077 32456 30000 10299 20239 40082 85930 333 56290 58015;EQDQ01+000052SCOTLCQ02  00002PRCP99
0152480770999992000101509004+18790+095220FM-12+0060VBPR V0209999C000010075019N0110001N1+03401+02571100501ADDAA199000091GF106991051091008001031001MD1999999+0311REMSYN070AAXX  15094 48077 32561 60000 10340 20257 40050 85930 333 56290 58031;EQDQ01  00002PRCP99
0171480770999992000101512004+18790+095220FM-12+0060VBPR V0209999C000010075019N0090001N1+03101+02541100521ADDAA199000091GF106991051091008001031001KA1120M+03411MD1999999+0221REMSYN076AAXX  15124 48077 32559 60000 10310 20254 40052 85930 333 10341 56290 58022;EQDQ01  00002PRCP99
0169480770999992000101600004+18790+095220FM-12+0060VBPR V0209999C000010075019N0080001N1+02531+02331100941ADDAY191061AY261061GF107991051091008001031001KA1120N+02501MD1999999+0261MW1031REMSYN082AAXX  16004 48077 21558 70000 10253 20233 40094 70396 85930 333 20250 56390 58026;
0122480770999992000101603004+18790+095220FM-12+0060VBPR V0202301N000510075019N0100001N1+02701+02401101131ADDGF107991051091008001031001MD1999999+0301REMSYN070AAXX  16034 48077 22560 72301 10270 20240 40113 85930 333 56490 58030;
0147480770999992000101606004+18790+095220FM-12+0060VBPR V0202301N000510042019N0090001N1+02901+02591101031ADDAA199000021AY151061AY221061GF108991051091004501071001MW1501REMSYN076AAXX  16064 48077 31459 82301 10290 20259 40103 75052 85970 333 56990 59802;
0161480770999992000101609004+18790+095220FM-12+0060VBPR V0202301N000510075019N0100001N1+03201+02481100841ADDAA199000021AY151031AY221031GF107991051091008001031001MD1999999+0311MW1011REMSYN076AAXX  16094 48077 31560 72301 10320 20248 40084 70152 85930 333 56390 58031;
0141480770999992000101612004+18790+095220FM-12+0060VBPR V0202301N001010450019N0060001N1+02641+02461100831ADDGF107991031091008001031001KA1120M+03311MD1999999+0311REMSYN076AAXX  16124 48077 21556 72302 10264 20246 40083 83930 333 10331 56390 58031;
0199480770999992000101700004+18790+095220FM-12+0060VBPR V0209999C000010450019N0060001N1+02591+02461100981ADDAA199000091AY121061AY221061GF105991021081008001031001KA1120N+02551MD1999999+0041MW1101REMSYN082AAXX  17004 48077 31556 50000 10259 20246 40098 71022 82830 333 20255 56990 58004;EQDQ01  00002PRCP99
0152480770999992000101703004+18790+095220FM-12+0060VBPR V0209999C000010042019N0100001N1+02801+02501101081ADDAA199000091GF107991051091004501071001MD1999999-0051REMSYN070AAXX  17034 48077 32460 70000 10280 20250 40108 85970 333 56490 59005;EQDQ01  00002PRCP99
0171480770999992000101712004+18790+095220FM-12+0060VBPR V0209999C000010042019N0060001N1+02951+02391100791ADDAA199000091GF107991051031004501071001KA1120M+03351MD1999999-0041REMSYN076AAXX  17124 48077 32456 70000 10295 20239 40079 85370 333 10335 56400 59004;EQDQ01  00002PRCP99
0171480770999992000101800004+18790+095220FM-12+0060VBPR V0209999C000012200019N0070001N1+02601+02461100851ADDAA199000091GF106991041081008001001011KA1120N+02551MD1999999-0141REMSYN076AAXX  18004 48077 32557 60000 10260 20246 40085 84801 333 20255 56909 59014;EQDQ01  00002PRCP99
0152480770999992000101803004+18790+095220FM-12+0060VBPR V0209999C000010075019N0100001N1+02501+02501100941ADDAA199000091GF105991051091008001071001MD1999999-0121REMSYN070AAXX  18034 48077 32560 50000 10250 20250 40094 85970 333 56290 59012;EQDQ01  00002PRCP99
0150480770999992000101806004+18790+095220FM-12+0060VBPR V0202301N001010075019N0100001N1+02921+02591100881ADDAY161061AY221061GF107991051091008001031001MD1999999-0091MW1021REMSYN076AAXX  18064 48077 21560 72302 10292 20259 40088 70262 85930 333 56490 59009;
0122480770999992000101809004+18790+095220FM-12+0060VBPR V0209999C000012200019N0100001N1+03111+02541100561ADDGF104991021091008001031001MD1999999-0161REMSYN070AAXX  18094 48077 22560 40000 10311 20254 40056 82930 333 56490 59016;
0141480770999992000101812004+18790+095220FM-12+0060VBPR V0209999C000010450019N0060001N1+03061+02641100581ADDGF107991041081008001031001KA1120M+03221MD1999999-0221REMSYN076AAXX  18124 48077 22556 70000 10306 20264 40058 84830 333 10322 56990 59022;
0141480770999992000101900004+18790+095220FM-12+0060VBPR V0209999C000010042019N0060001N1+02601+02461100781ADDGF108991051091004501071001KA1120N+02521MD1999999-0061REMSYN076AAXX  19004 48077 22456 80000 10260 20246 40078 85970 333 20252 56490 59006;
0122480770999992000101903004+18790+095220FM-12+0060VBPR V0209999C000010450019N0090001N1+02801+02501100941ADDGF107991041091004501071001MD1999999+0001REMSYN070AAXX  19034 48077 22459 70000 10280 20250 40094 84970 333 56490 59000;
0152480770999992000101906004+18790+095220FM-12+0060VBPR V0209999C000012200019N0110001N1+03251+02481100841ADDAA199000091GF104991041091008001031001MD1999999-0031REMSYN070AAXX  19064 48077 32561 40000 10325 20248 40084 84930 333 56490 59003;EQDQ01  00002PRCP99
0152480770999992000101909004+18790+095220FM-12+0060VBPR V0209999C000010450019N0110001N1+03341+02581100571ADDAA199000091GF106991041091004501071001MD1999999+0011REMSYN070AAXX  19094 48077 32461 60000 10334 20258 40057 84970 333 56490 58001;EQDQ01  00002PRCP99
0171480770999992000101912004+18790+095220FM-12+0060VBPR V0209999C000010450019N0060001N1+02901+02481100601ADDAA199000091GF107991041091008001071001KA1120M+03501MD1999999+0021REMSYN076AAXX  19124 48077 32556 70000 10290 20248 40060 84970 333 10350 56690 58002;EQDQ01  00002PRCP99
0171480770999992000102000004+18790+095220FM-12+0060VBPR V0209999C000010450019N0070001N1+02601+02461100651ADDAA199000091GF106991021081008001031001KA1120N+02561MD1999999+0061REMSYN076AAXX  20004 48077 32557 60000 10260 20246 40065 82830 333 20256 56990 58006;EQDQ01  00002PRCP99
0152480770999992000102003004+18790+095220FM-12+0060VBPR V0209999C000012200019N0110001N1+03001+02531101021ADDAA199000091GF105991021021008001001011MD1999999+0071REMSYN070AAXX  20034 48077 32561 50000 10300 20253 40102 82201 333 56909 58007;EQDQ01  00002PRCP99
0152480770999992000102006004+18790+095220FM-12+0060VBPR V0202701N000512200019N0110001N1+03401+02701100901ADDAA199000091GF105991031021008001001011MD1999999+0061REMSYN070AAXX  20064 48077 32561 52701 10340 20270 40090 83201 333 56909 58006;EQDQ01  00002PRCP99
0152480770999992000102009004+18790+095220FM-12+0060VBPR V0202301N000510450019N0110001N1+03521+02661100641ADDAA199000091GF105991031091008001031001MD1999999+0061REMSYN070AAXX  20094 48077 32561 52301 10352 20266 40064 83930 333 56290 58006;EQDQ01  00002PRCP99
0171480770999992000102012004+18790+095220FM-12+0060VBPR V0209999C000011050019N0060001N1+03201+02651100621ADDAA199000091GF105991021081008001031011KA1120M+03501MD1999999+0021REMSYN076AAXX  20124 48077 32556 50000 10320 20265 40062 82831 333 10350 56999 58002;EQDQ01  00002PRCP99
0199480770999992000102100004+18790+095220FM-12+0060VBPR V0209999C000012200019N0070001N1+02601+02461100831ADDAA199000091AY121061AY221061GF104991001001999999031011KA1120N+02251MD1999999-0021MW1101REMSYN082AAXX  21004 48077 32957 40000 10260 20246 40083 71022 80031 333 20225 56099 59002;EQDQ01  00002PRCP99
0152480770999992000102103004+18790+095220FM-12+0060VBPR V0209999C000011050019N0110001N1+03001+02531101001ADDAA199000091GF105991011021008001031011MD1999999-0021REMSYN070AAXX  21034 48077 32561 50000 10300 20253 40100 81231 333 56999 59002;EQDQ01  00002PRCP99
0152480770999992000102106004+18790+095220FM-12+0060VBPR V0202301N000510450019N0110001N1+03341+02581100851ADDAA199000091GF105991031081008001031011MD1999999-0051REMSYN070AAXX  21064 48077 32561 52301 10334 20258 40085 83831 333 56499 59005;EQDQ01  00002PRCP99
0152480770999992000102109004+18790+095220FM-12+0060VBPR V0209999C000010450019N0110001N1+03441+02701100551ADDAA199000091GF106991041081008001031011MD1999999-0101REMSYN070AAXX  21094 48077 32561 60000 10344 20270 40055 84831 333 56999 59010;EQDQ01  00002PRCP99
0187480770999992000102112004+18790+095220FM-12+0060VBPR V0209999C000012200019N0080001N1+03101+02671100551ADDAA199000091GF102991999091008001061001KA1120M+03501MD1999999-0091REMSYN076AAXX  21124 48077 32558 20000 10310 20267 40055 84960 333 10350 56990 59009;EQDQ01+000042SCOTLCQ02  00002PRCP99
0171480770999992000102200004+18790+095220FM-12+0060VBPR V0209999C000010450019N0080001N1+02601+02461100791ADDAA199000091GF106991021081008001031011KA1120N+02571MD1999999-0041REMSYN076AAXX  22004 48077 32558 60000 10260 20246 40079 82831 333 20257 56999 59004;EQDQ01  00002PRCP99
0152480770999992000102203004+18790+095220FM-12+0060VBPR V0209999C000012200019N0110001N1+03001+02531100951ADDAA199000091GF106991041081008001001011MD1999999-0051REMSYN070AAXX  22034 48077 32561 60000 10300 20253 40095 84801 333 56909 59005;EQDQ01  00002PRCP99
0152480770999992000102206004+18790+095220FM-12+0060VBPR V0202301N000510450019N0110001N1+03021+02701100861ADDAA199000091GF106991041081008001031001MD1999999+0001REMSYN070AAXX  22064 48077 32561 62301 10302 20270 40086 84830 333 56990 58000;EQDQ01  00002PRCP99
0152480770999992000102209004+18790+095220FM-12+0060VBPR V0202301N000510450019N0110001N1+03531+02371100511ADDAA199000091GF106991041081008001071001MD1999999-0041REMSYN070AAXX  22094 48077 32561 62301 10353 20237 40051 84870 333 56990 59004;EQDQ01  00002PRCP99
0171480770999992000102212004+18790+095220FM-12+0060VBPR V0209999C000012200019N9999999N1+03301+02581100581ADDAA199000091GF106991021081008001001011KA1120M+03571MD1999999-0041REMSYN076AAXX  22124 48077 32552 60000 10330 20258 40058 82801 333 10357 56109 59004;EQDQ01  00002PRCP99
0171480770999992000102300004+18790+095220FM-12+0060VBPR V0209999C000012200019N0060001N1+02641+02461100711ADDAA199000091GF104991021021008001001011KA1120N+02601MD1999999-0081REMSYN076AAXX  23004 48077 32556 40000 10264 20246 40071 82201 333 20260 56909 59008;EQDQ01  00002PRCP99
0152480770999992000102303004+18790+095220FM-12+0060VBPR V0203601N000511050019N0100001N1+02951+02531100921ADDAA199000091GF105991021021008001031011MD1999999-0031REMSYN070AAXX  23034 48077 32560 53601 10295 20253 40092 82231 333 56499 59003;EQDQ01  00002PRCP99
0152480770999992000102306004+18790+095220FM-12+0060VBPR V0209999C000010042019N0100001N1+03401+02571100781ADDAA199000091GF106991051091004501001011MD1999999-0101REMSYN070AAXX  23064 48077 32460 60000 10340 20257 40078 85901 333 56509 59010;EQDQ01  00002PRCP99
0152480770999992000102309004+18790+095220FM-12+0060VBPR V0200401N000510042019N0090001N1+03301+02441100531ADDAA199000091GF108991051091004501031001MD1999999+0021REMSYN070AAXX  23094 48077 32459 80401 10330 20244 40053 85930 333 56290 58002;EQDQ01  00002PRCP99
0171480770999992000102312004+18790+095220FM-12+0060VBPR V0209999C000010450019N0060001N1+02901+02481100591ADDAA199000091GF108991021081008001031011KA1120M+03401MD1999999+0081REMSYN076AAXX  23124 48077 32556 80000 10290 20248 40059 82831 333 10340 56999 58008;EQDQ01  00002PRCP99
0199480770999992000102400004+18790+095220FM-12+0060VBPR V0209999C000010450019N0060001N1+02521+02331100861ADDAA199000091AY121061AY221061GF106991041081008001031011KA1120N+02501MD1999999+0151MW1101REMSYN082AAXX  24004 48077 31556 60000 10252 20233 40086 71022 84831 333 20250 56499 58015;EQDQ01  00002PRCP99
0152480770999992000102403004+18790+095220FM-12+0060VBPR V0202301N000510450019N0090001N1+02801+02501101071ADDAA199000091GF106991041091008001031001MD1999999+0141REMSYN070AAXX  24034 48077 32559 62301 10280 20250 40107 84930 333 56590 58014;EQDQ01  00002PRCP99
0152480770999992000102406004+18790+095220FM-12+0060VBPR V0203201N005110450019N0100001N1+03201+02481101021ADDAA199000091GF106991031081004501031011MD1999999+0231REMSYN070AAXX  24064 48077 32460 63210 10320 20248 40102 83831 333 56399 58023;EQDQ01  00002PRCP99
0152480770999992000102409004+18790+095220FM-12+0060VBPR V0209999C000012200019N0110001N1+03501+02661100681ADDAA199000091GF104991021021008001031001MD1999999+0151REMSYN070AAXX  24094 48077 32561 40000 10350 20266 40068 82230 333 56990 58015;EQDQ01  00002PRCP99
0169480770999992000102412004+18790+095220FM-12+0060VBPR V0202301N001010042019N0060001N1+02601+02461100891ADDAY191061AY261061GF108991051091004501021001KA1120M+03501MD1999999+0201MW1961REMSYN082AAXX  24124 48077 21456 82302 10260 20246 40089 79696 85920 333 10350 56490 58020;
0169480770999992000102500004+18790+095220FM-12+0060VBPR V0200401N001010450019N0080001N1+02471+02331101051ADDAY111061AY261061GF107991041081004501031001KA1120N+02401MD1999999+0201MW1021REMSYN082AAXX  25004 48077 21458 70402 10247 20233 40105 70216 84830 333 20240 56890 58020;
0141480770999992000102503004+18790+095220FM-12+0060VBPR V0203601N000519999999N0100001N1+02801+02501101161ADDGF105991999001008001031011MD1999999+0101REMSYN070AAXX  25034 48077 22560 53601 10280 20250 40116 80031 333 56099 58010;EQDQ01+000002SCOTLC
0152480770999992000102506004+18790+095220FM-12+0060VBPR V0200401N000510450019N0100001N1+03101+02541101151ADDAA199000091GF106991031081008001031001MD1999999+0141REMSYN070AAXX  25064 48077 32560 60401 10310 20254 40115 83830 333 56990 58014;EQDQ01  00002PRCP99
0150480770999992000102509004+18790+095220FM-12+0060VBPR V0209999C000010450019N0080001N1+02951+02661100861ADDAY161031AY251031GF107991041091004501071001MD1999999+0181MW1611REMSYN076AAXX  25094 48077 21458 70000 10295 20266 40086 76165 84970 333 56290 58018;
0169480770999992000102512004+18790+095220FM-12+0060VBPR V0209999C000010042019N0060001N1+02501+02331100961ADDAY191061AY261061GF108991051091004501021001KA1120M+03251MD1999999+0061MW1951REMSYN082AAXX  25124 48077 21456 80000 10250 20233 40096 79596 85920 333 10325 56390 58006;
0169480770999992000102600004+18790+095220FM-12+0060VBPR V0209999C000010042019N0070001N1+02401+02401101111ADDAY191061AY251061GF108991051091004501071001KA1120N+02391MD1999999+0071MW1021REMSYN082AAXX  26004 48077 21457 80000 10240 20240 40111 70295 85970 333 20239 56490 58007;
0122480770999992000102603004+18790+095220FM-12+0060VBPR V0203601N000510450019N0100001N1+02701+02561101161ADDGF105991021021008001031001MD1999999+0001REMSYN070AAXX  26034 48077 22560 53601 10270 20256 40116 82230 333 56980 59000;
0152480770999992000102606004+18790+095220FM-12+0060VBPR V0209999C000010450019N0100001N1+03101+02541101131ADDAA199000091GF106991041081004501031001MD1999999-0021REMSYN070AAXX  26064 48077 32460 60000 10310 20254 40113 84830 333 56490 59002;EQDQ01  00002PRCP99
0152480770999992000102609004+18790+095220FM-12+0060VBPR V0209999C000010042019N0090001N1+03101+02541100881ADDAA199000091GF107991051091004501071001MD1999999+0011REMSYN070AAXX  26094 48077 32459 70000 10310 20254 40088 85970 333 56490 58001;EQDQ01  00002PRCP99
0169480770999992000102612004+18790+095220FM-12+0060VBPR V0209999C000010042019N0100001N1+02501+02331100951ADDAY161061AY221061GF108991051091004501071001KA1120M+03301MD1999999-0011MW1211REMSYN082AAXX  26124 48077 21497 80000 10250 20233 40095 72162 85970 333 10330 56480 59001;
0169480770999992000102700004+18790+095220FM-12+0060VBPR V0202301N000510042019N0070001N1+02501+02331101141ADDAY161061AY221061GF108991051091004501071001KA1120N+02451MD1999999+0021MW1211REMSYN082AAXX  27004 48077 21457 82301 10250 20233 40114 72162 85970 333 20245 56490 58002;
0150480770999992000102703004+18790+095220FM-12+0060VBPR V0209999C000010042019N0100001N1+02501+02501101261ADDAY161031AY261031GF108991051091004501071001MD1999999+0101MW1211REMSYN076AAXX  27034 48077 21460 80000 10250 20250 40126 72166 85970 333 56490 58010;
0122480770999992000102706004+18790+095220FM-12+0060VBPR V0201801N003110450019N0100001N1+03001+02401100911ADDGF108991031031008001031061MD1999999-0021REMSYN070AAXX  27064 48077 /2560 81806 10300 20240 40091 83336 333 56499 59002;
0169480770999992000102712004+18790+095220FM-12+0060VBPR V0202301N000510042019N0060001N1+02501+02331101041ADDAY191061AY261061GF108991051091004501021001KA1120M+03201MD1999999+0101MW1961REMSYN082AAXX  27124 48077 21456 82301 10250 20233 40104 79696 85920 333 10320 56490 58010;
0169480770999992000102800004+18790+095220FM-12+0060VBPR V0209999C000010042019N0080001N1+02401+02401101161ADDAY191061AY261061GF108991051091004501031001KA1120N+02311MD1999999-0061MW1021REMSYN082AAXX  28004 48077 21458 80000 10240 20240 40116 70296 85930 333 20231 56499 59006;
0152480770999992000102806004+18790+095220FM-12+0060VBPR V0202301N000510450019N0100001N1+03101+02541101211ADDAA199000091GF105991031081004501031001MD1999999+0041REMSYN070AAXX  28064 48077 32460 52301 10310 20254 40121 83830 333 56490 58004;EQDQ01  00002PRCP99
0171480770999992000102812004+18790+095220FM-12+0060VBPR V0209999C000010450019N0060001N1+03001+02531100951ADDAA199000091GF105991041091008001031001KA1120M+03361MD1999999+0091REMSYN076AAXX  28124 48077 32556 50000 10300 20253 40095 84930 333 10336 56490 58009;EQDQ01  00002PRCP99
0152480770999992000103009004+18790+095220FM-12+0060VBPR V0200401N000510450019N0090001N1+03101+02251100881ADDAA199000091GF105991031081008001031001MD1999999-0161REMSYN070AAXX  30094 48077 32559 50401 10310 20225 40088 83830 333 56890 59016;EQDQ01  00002PRCP99
0171480770999992000103012004+18790+095220FM-12+0060VBPR V0209999C000010450019N0060001N1+02771+02331100861ADDAA199000091GF105991031081008001031001KA1120M+03101MD1999999-0121REMSYN076AAXX  30124 48077 32556 50000 10277 20233 40086 83830 333 10310 56990 59012;EQDQ01  00002PRCP99
0171480770999992000103100004+18790+095220FM-12+0060VBPR V0200401N001012200019N0090001N1+02401+02261101051ADDAA199000091GF104991021021999999031011KA1120N+02351MD1999999-0071REMSYN076AAXX  31004 48077 32959 40402 10240 20226 40105 82231 333 20235 56099 59007;EQDQ01  00002PRCP99
0152480770999992000103103004+18790+095220FM-12+0060VBPR V0203601N000512200019N0100001N1+02801+02331101171ADDAA199000091GF102991021021008001001001MD1999999-0061REMSYN070AAXX  31034 48077 32560 23601 10280 20233 40117 82200 333 56890 59006;EQDQ01  00002PRCP99
0152480770999992000103106004+18790+095220FM-12+0060VBPR V0200401N000510450019N0100001N1+03101+02371101101ADDAA199000091GF108991041091004501061001MD1999999-0081REMSYN070AAXX  31064 48077 32460 80401 10310 20237 40110 84960 333 56890 59008;EQDQ01  00002PRCP99
0152480770999992000103109004+18790+095220FM-12+0060VBPR V0200401N000512200019N0090001N1+03301+02441100881ADDAA199000091GF104991021021008001031001MD1999999+0001REMSYN070AAXX  31094 48077 32559 40401 10330 20244 40088 82230 333 56890 58000;EQDQ01  00002PRCP99
0187480770999992000103112004+18790+095220FM-12+0060VBPR V0209999C000012200019N0060001N1+02901+02301100861ADDAA199000091GF102991001001999999001031KA1120M+03251MD1999999+0001REMSYN076AAXX  31124 48077 32956 20000 10290 20230 40086 83003 333 10325 56090 58000;EQDQ01+000032SCOTLCQ02  00002PRCP99
0187480770999992000110100004+18790+095220FM-12+0060VBPR V0200401N001512200019N0090001N1+02301+02141101161ADDAA199000091GF102991999001999999031001KA1120N+02301MD1999999-0111REMSYN076AAXX  01004 48077 32959 20403 10230 20214 40116 80030 333 20230 56090 59011;EQDQ01+000002SCOTLCQ02  00002PRCP99
0152480770999992000110106004+18790+095220FM-12+0060VBPR V0200401N000512200019N0110001N1+03101+02251101611ADDAA199000091GF103991031081008001001001MD1999999+0111REMSYN070AAXX  01064 48077 32561 30401 10310 20225 40161 83800 333 56800 58011;EQDQ01  00002PRCP99
0152480770999992000110109004+18790+095220FM-12+0060VBPR V0209999C000012200019N0100001N1+03301+02121101041ADDAA199000091GF104991041081008001001001MD1999999+0151REMSYN070AAXX  01094 48077 32560 40000 10330 20212 40104 84800 333 56100 58015;EQDQ01  00002PRCP99
0171480770999992000110112004+18790+095220FM-12+0060VBPR V0209999C000012200019N0080001N1+02801+02201101041ADDAA199000091GF101991001001999999001011KA1120M+03301MD1999999+0181REMSYN076AAXX  01124 48077 32958 10000 10280 20220 40104 80001 333 10330 56009 58018;EQDQ01  00002PRCP99
0175480770999992000110200004+18790+095220FM-12+0060VBPR V0200401N001012200019N0090001N1+02201+02051101211ADDAA199000091GA1001+999999999GF100991001001999999001001KA1120N+02181MD1999999+0121REMSYN064AAXX  02004 48077 32959 00402 10220 20205 40121 333 20218 58012;EQDQ01  00002PRCP99
0162480770999992000110203004+18790+095220FM-12+0060VBPR V0200401N000512200019N0100001N1+02701+02261101441ADDAA199000091GA1001+999999999GF100991001001999999001001MD1999999+0121REMSYN064AAXX  02034 48077 32960 00401 10270 20226 40144 333 56000 58012;EQDQ01  00002PRCP99
0152480770999992000110206004+18790+095220FM-12+0060VBPR V0200401N000512200019N0100001N1+03051+01851101341ADDAA199000091GF101991011021008001001001MD1999999+0131REMSYN070AAXX  02064 48077 32560 10401 10305 20185 40134 81200 333 56900 58013;EQDQ01  00002PRCP99
0180480770999992000110209004+18790+095220FM-12+0060VBPR V0200401N001012200019N0090001N1+03201+02001101141ADDAA199000091AY101031AY201031GF102991001001999999031011MD1999999+0111MW1051REMSYN076AAXX  02094 48077 31959 20402 10320 20200 40114 70500 80031 333 56099 58011;EQDQ01  00002PRCP99
0199480770999992000110212004+18790+095220FM-12+0060VBPR V0209999C000012200019N0070001N1+02701+99999101161ADDAA199000091AY101061AY201061GF101991001001999999001011KA1120M+03231MD1999999+0121MW1051REMSYN082AAXX  02124 48077 31957 10000 10270 20411 40116 70500 80001 333 10323 56009 58012;EQDQ01  00002PRCP99
0193480770999992000110300004+18790+095220FM-12+0060VBPR V0200401N000512200019N0050001N1+02201+01851101321ADDAA199000091AY101061AY201061GF103991999999999999999999KA1120N+02191MD1999999+0031MW1101REMSYN076AAXX  03004 48077 31950 30401 10220 20185 40132 71000 333 20219 56000 58003;EQDQ01  00002PRCP99
0190480770999992000110306004+18790+095220FM-12+0060VBPR V0200401N000512200019N0100001N1+03031+02071101461ADDAA199000091AY101061AY201061GA1001+999999999GF100991001001999999001001MD1999999+0131MW1051REMSYN070AAXX  03064 48077 32960 00401 10303 20207 40146 70500 333 56000 58013;EQDQ01  00002PRCP99
0173480770999992000110312004+18790+095220FM-12+0060VBPR V0209999C000012200019N0080001N1+02901+02151101051ADDAY101061AY201061GA1001+999999999GF100991001001999999001001KA1120M+03301MD1999999+0091MW1051REMSYN070AAXX  03124 48077 21958 00000 10290 20215 40105 70500 333 10330 58009;
0203480770999992000110400004+18790+095220FM-12+0060VBPR V0209999C000012200019N0070001N1+02041+01851101341ADDAA199000091AY101061AY201061GA1001+999999999GF100991001001999999001001KA1120N+02001MD1999999+0021MW1101REMSYN070AAXX  04004 48077 31957 00000 10204 20185 40134 71000 333 20200 58002;EQDQ01  00002PRCP99
0156480770999992000110403004+18790+095220FM-12+0060VBPR V0200401N001012200019N0100001N1+02601+02161101631ADDAA199000091GA1001+999999999GF100991001001999999001001MD1999999+0091REMSYN058AAXX  04034 48077 32960 00402 10260 20216 40163 333 58009;EQDQ01  00002PRCP99
0156480770999992000110406004+18790+095220FM-12+0060VBPR V0200401N001012200019N0100001N1+03001+02071101501ADDAA199000091GA1001+999999999GF100991001001999999001001MD1999999+0031REMSYN058AAXX  04064 48077 32960 00402 10300 20207 40150 333 58003;EQDQ01  00002PRCP99
0184480770999992000110409004+18790+095220FM-12+0060VBPR V0209999C000012200019N9999999N1+03241+02001101261ADDAA199000091AY101031AY201031GA1001+999999999GF100991001001999999001001MD1999999+0031MW1051REMSYN064AAXX  04094 48077 31952 00000 10324 20200 40126 70500 333 58003;EQDQ01  00002PRCP99
0203480770999992000110412004+18790+095220FM-12+0060VBPR V0209999C000012200019N0100001N1+02901+02151101261ADDAA199000091AY101061AY201061GA1001+999999999GF100991001001999999001001KA1120M+03241MD1999999+0011MW1051REMSYN070AAXX  04124 48077 31597 00000 10290 20215 40126 70500 333 10324 58001;EQDQ01  00002PRCP99
0209480770999992000110500004+18790+095220FM-12+0060VBPR V0209999C000012200019N0060001N1+02141+01851101301ADDAA199000091AY101061AY201061GA1001+999999999GF100991001001999999001001KA1120N+02101MD1999999+0001MW1101REMSYN076AAXX  05004 48077 31956 00000 10214 20185 40130 71000 333 20210 56000 59000;EQDQ01  00002PRCP99
0156480770999992000110503004+18790+095220FM-12+0060VBPR V0200401N000512200019N0090001N1+02621+02151101381ADDAA199000091GA1001+999999999GF100991001001999999001001MD1999999-0251REMSYN058AAXX  05034 48077 32959 00401 10262 20215 40138 333 59025;EQDQ01  00002PRCP99
0156480770999992000110506004+18790+095220FM-12+0060VBPR V0209999C000012200019N0100001N1+03051+02251101321ADDAA199000091GA1001+999999999GF100991001001999999001001MD1999999-0181REMSYN058AAXX  05064 48077 32960 00000 10305 20225 40132 333 59018;EQDQ01  00002PRCP99
0184480770999992000110509004+18790+095220FM-12+0060VBPR V0209999C000012200019N0090001N1+03221+02001101031ADDAA199000091AY101031AY201031GA1001+999999999GF100991001001999999001001MD1999999-0221MW1051REMSYN064AAXX  05094 48077 31959 00000 10322 20200 40103 70500 333 59022;EQDQ01  00002PRCP99
0171480770999992000110512004+18790+095220FM-12+0060VBPR V0209999C000012200019N0060001N1+02901+02301101021ADDAA199000091GF101991001001999999001011KA1120M+03321MD1999999-0231REMSYN076AAXX  05124 48077 32956 10000 10290 20230 40102 80001 333 10332 56009 59023;EQDQ01  00002PRCP99
0203480770999992000110600004+18790+095220FM-12+0060VBPR V0209999C000012200019N0080001N1+02001+01851101091ADDAA199000091AY101061AY201061GA1001+999999999GF100991001001999999001001KA1120N+02001MD1999999-0221MW1101REMSYN070AAXX  06004 48077 32158 00000 10200 20185 40109 71000 333 20200 59022;EQDQ01  00002PRCP99
0156480770999992000110603004+18790+095220FM-12+0060VBPR V0209999C000012200019N0100001N1+02501+02191101241ADDAA199000091GA1001+999999999GF100991001001999999001001MD1999999-0161REMSYN058AAXX  06034 48077 32960 00000 10250 20219 40124 333 59016;EQDQ01  00002PRCP99
0168480770999992000110606004+18790+095220FM-12+0060VBPR V0202701N000512200019N0046001N1+03001+02231100592ADDAA199000091GF102991021021008001001001MD1999999-0121REMSYN070AAXX  06064 48077 32546 22701 10300 20223 40059 82200 333 56600 59012;EQDQ01+100593APOSLPQ02  00002PRCP99
0154480770999992000110609004+18790+095220FM-12+0060VBPR V0202801N000512200019N0060001N1+03251+02441100961ADDAY101031AY201031GA1001+999999999GF100991001001999999001001MD1999999-0071MW1051REMSYN064AAXX  06094 48077 23956 02801 10325 20244 40096 70500 333 59007;
0181480770999992000110612004+18790+095220FM-12+0060VBPR V0209999C000012200019N0060001N1+02801+02031100991ADDAA199000091GA1001+999999999GF100991001001999999001001KA1120M+03301MD1999999-0031REMSYN070AAXX  06124 48077 32956 00000 10280 20203 40099 333 10330 56000 59003;EQDQ01  00002PRCP99
0181480770999992000110700004+18790+095220FM-12+0060VBPR V0209999C000012200019N0080001N1+01901+01751101121ADDAA199000091GA1001+999999999GF100991001001999999001001KA1120N+01901MD1999999+0041REMSYN070AAXX  07004 48077 32958 00000 10190 20175 40112 333 20190 56000 58004;EQDQ01  00002PRCP99
0184480770999992000110709004+18790+095220FM-12+0060VBPR V0209999C000012200019N0090001N1+03201+02001101021ADDAA199000091AY101031AY201031GA1001+999999999GF100991001001999999001001MD1999999+0071MW1051REMSYN064AAXX  07094 48077 32959 00000 10320 20200 40102 70500 333 58007;EQDQ01  00002PRCP99
0171480770999992000110712004+18790+095220FM-12+0060VBPR V0209999C000012200019N0060001N1+02901+02151101071ADDAA199000091GF101991001001999999001011KA1120M+03301MD1999999+0081REMSYN076AAXX  07124 48077 32956 10000 10290 20215 40107 80001 333 10330 56009 58008;EQDQ01  00002PRCP99
0187480770999992000110800004+18790+095220FM-12+0060VBPR V0209999C000012200019N0040001N1+02161+01851101191ADDAA199000091GF104991001001999999001011KA1120N+02101MD1999999+0071REMSYN076AAXX  08004 48077 32596 40000 10216 20185 40119 80001 333 20210 56009 58007;EQDQ01+008002SCOLCBQ02  00002PRCP99
0156480770999992000110806004+18790+095220FM-12+0060VBPR V0203601N000512200019N0110001N1+03201+02151101191ADDAA199000091GA1001+999999999GF100991001001999999001001MD1999999-0061REMSYN058AAXX  08064 48077 32961 03601 10320 20215 40119 333 59006;EQDQ01  00002PRCP99
0184480770999992000110809004+18790+095220FM-12+0060VBPR V0209999C000012200019N0110001N1+03371+02061100971ADDAA199000091AY101031AY201031GA1001+999999999GF100991001001999999001001MD1999999-0061MW1051REMSYN064AAXX  08094 48077 31961 00000 10337 20206 40097 70500 333 59006;EQDQ01  00002PRCP99
0175480770999992000110812004+18790+095220FM-12+0060VBPR V0209999C000012200019N0060001N1+03081+02251100941ADDAA199000091GA1001+999999999GF100991001001999999001001KA1120M+03371MD1999999-0131REMSYN064AAXX  08124 48077 32956 00000 10308 20225 40094 333 10337 59013;EQDQ01  00002PRCP99
0209480770999992000110900004+18790+095220FM-12+0060VBPR V0209999C000012200019N0200001N1+02651+02051101131ADDAA199000091AY101061AY201061GA1001+999999999GF100991001001999999001001KA1120N+02141MD1999999-0061MW1101REMSYN076AAXX  09004 48077 31598 00000 10265 20205 40113 71000 333 20214 56000 59006;EQDQ01  00002PRCP99
0156480770999992000110903004+18790+095220FM-12+0060VBPR V0209999C000012200019N0110001N1+02701+02111101261ADDAA199000091GA1001+999999999GF100991001001999999001001MD1999999-0081REMSYN058AAXX  09034 48077 32561 00000 10270 20211 40126 333 59008;EQDQ01  00002PRCP99
0162480770999992000110906004+18790+095220FM-12+0060VBPR V0209999C000012200019N0110001N1+03171+02361101191ADDAA199000091GA1001+999999999GF100991001001999999001001MD1999999+0001REMSYN064AAXX  09064 48077 32961 00000 10317 20236 40119 333 56000 59000;EQDQ01  00002PRCP99
0184480770999992000110909004+18790+095220FM-12+0060VBPR V0209999C000012200019N0100001N1+03361+02251100931ADDAA199000091AY101031AY201031GA1001+999999999GF100991001001999999001001MD1999999-0051MW1051REMSYN064AAXX  09094 48077 31960 00000 10336 20225 40093 70500 333 59005;EQDQ01  00002PRCP99
0199480770999992000111000004+18790+095220FM-12+0060VBPR V0209999C000012200019N0080001N1+02201+02051101231ADDAA199000091AY101061AY201061GF101991001001999999001011KA1120N+02151MD1999999+0101MW1101REMSYN082AAXX  10004 48077 31958 10000 10220 20205 40123 71000 80001 333 20215 56779 58010;EQDQ01  00002PRCP99
0140480770999992000111003004+18790+095220FM-12+0060VBPR V0203601N000512200019N0090001N1+02601+02291101381ADDAA199000091GF102991999999999999999999MD1999999+0121REMSYN058AAXX  10034 48077 32959 23601 10260 20229 40138 333 58012;EQDQ01  00002PRCP99
0152480770999992000111006004+18790+095220FM-12+0060VBPR V0209999C000012200019N0100001N1+03201+02361101311ADDAA199000091GF101991011021008001001001MD1999999+0121REMSYN070AAXX  10064 48077 32560 10000 10320 20236 40131 81200 333 56900 58012;EQDQ01  00002PRCP99
0180480770999992000111009004+18790+095220FM-12+0060VBPR V0209999C000012200019N0090001N1+03351+02121101031ADDAA199000091AY101031AY201031GF102991021021008001001001MD1999999+0101MW1051REMSYN076AAXX  10094 48077 31559 20000 10335 20212 40103 70500 82200 333 56900 58010;EQDQ01  00002PRCP99
0187480770999992000111012004+18790+095220FM-12+0060VBPR V0209999C000012200019N0060001N1+03021+02391101141ADDAA199000091GF101991999001999999031001KA1120M+03421MD1999999+0231REMSYN076AAXX  10124 48077 32956 10000 10302 20239 40114 80030 333 10342 56090 58023;EQDQ01+000002SCOTLCQ02  00002PRCP99
0187480770999992000111100004+18790+095220FM-12+0060VBPR V0200401N000519999999N0080001N1+02321+02141101651ADDAA199000091GF107991999021008001001001KA1120N+02301MD1999999+0121REMSYN076AAXX  11004 48077 32558 70401 10232 20214 40165 82200 333 20230 56330 58012;EQDQ01+000022SCOTLCQ02  00002PRCP99
0168480770999992000111103004+18790+095220FM-12+0060VBPR V0209999C000012200019N0150001N1+02701+02111101551ADDAA199000091GF102991999001999999031001MD1999999+0171REMSYN070AAXX  11034 48077 32965 20000 10270 20211 40155 80030 333 56090 58017;EQDQ01+000002SCOTLCQ02  00002PRCP99
0152480770999992000111106004+18790+095220FM-12+0060VBPR V0209999C000012200019N0110001N1+03201+02151101371ADDAA199000091GF102991021021008001001001MD1999999+0061REMSYN070AAXX  11064 48077 32561 20000 10320 20215 40137 82200 333 56900 58006;EQDQ01  00002PRCP99
0190480770999992000111109004+18790+095220FM-12+0060VBPR V0209999C000012200019N0100001N1+03301+02121101161ADDAA199000091AY101031AY201031GA1001+999999999GF100991001001999999001001MD1999999+0141MW1051REMSYN070AAXX  11094 48077 31960 00000 10330 20212 40116 70500 333 56000 58014;EQDQ01  00002PRCP99
0187480770999992000111112004+18790+095220FM-12+0060VBPR V0209999C000012200019N0060001N1+02801+02021101121ADDAA199000091GA1001+999999999GF100991001001999999001001KA1120M+03401MD1999999-0011REMSYN076AAXX  11124 48077 32956 00000 10280 20202 40112 80030 333 10340 56090 59001;EQDQ01  00002PRCP99
0187480770999992000111200004+18790+095220FM-12+0060VBPR V0209999C000012200019N0080001N1+02141+01951101281ADDAA199000091GF102991999001999999031001KA1120M+02101MD1999999-0121REMSYN076AAXX  12004 48077 32958 20000 10214 20195 40128 80030 333 10210 56090 59012;EQDQ01+000002SCOTLCQ02  00002PRCP99
0168480770999992000111203004+18790+095220FM-12+0060VBPR V0200401N000512200019N0110001N1+02791+01841101391ADDAA199000091GF101991999001999999031001MD1999999-0181REMSYN070AAXX  12034 48077 32961 10401 10279 20184 40139 80030 333 56090 59018;EQDQ01+000002SCOTLCQ02  00002PRCP99
0156480770999992000111206004+18790+095220FM-12+0060VBPR V0209999C000012200019N0110001N1+03201+02151101241ADDAA199000091GA1001+999999999GF100991001001999999001001MD1999999-0131REMSYN058AAXX  12064 48077 32961 00000 10320 20215 40124 333 59013;EQDQ01  00002PRCP99
0175480770999992000111212004+18790+095220FM-12+0060VBPR V0209999C000012200019N0080001N1+02901+02151101051ADDAA199000091GA1001+999999999GF100991001001999999001001KA1120M+03501MD1999999-0081REMSYN064AAXX  12124 48077 32958 00000 10290 20215 40105 333 10350 59008;EQDQ01  00002PRCP99
0187480770999992000111300004+18790+095220FM-12+0060VBPR V0209999C000019999999N0060001N1+02051+01851101191ADDAA199000091AY101061AY201061GF106991999999999999999999KA1120N+02001MD1999999-0031MW1101REMSYN070AAXX  13004 48077 31956 60000 10205 20185 40119 71000 333 20200 59003;EQDQ01  00002PRCP99
0156480770999992000111303004+18790+095220FM-12+0060VBPR V0200401N000512200019N0110001N1+02601+02151101251ADDAA199000091GA1001+999999999GF100991001001999999001001MD1999999-0161REMSYN058AAXX  13034 48077 32961 00401 10260 20215 40125 333 59016;EQDQ01  00002PRCP99
0156480770999992000111306004+18790+095220FM-12+0060VBPR V0202301N000512200019N0110001N1+03101+02251101181ADDAA199000091GA1001+999999999GF100991001001999999001001MD1999999-0061REMSYN058AAXX  13064 48077 32961 02301 10310 20225 40118 333 59006;EQDQ01  00002PRCP99
0152480770999992000111309004+18790+095220FM-12+0060VBPR V0209999C000012200019N0100001N1+03401+02061100901ADDAA199000091GF102991021021008001001001MD1999999-0121REMSYN070AAXX  13094 48077 32560 20000 10340 20206 40090 82200 333 56900 59012;EQDQ01  00002PRCP99
0175480770999992000111400004+18790+095220FM-12+0060VBPR V0200401N001012200019N0090001N1+02101+01951101161ADDAA199000091GA1001+999999999GF100991001001999999001001KA1120N+02061MD1999999-0031REMSYN064AAXX  14004 48077 32959 00402 10210 20195 40116 333 20206 59003;EQDQ01  00002PRCP99
0152480770999992000111403004+18790+095220FM-12+0060VBPR V0203601N000512200019N0100001N1+02551+02151101341ADDAA199000091GF102991011051999999001011MD1999999-0041REMSYN070AAXX  14034 48077 32960 23601 10255 20215 40134 81501 333 56909 59004;EQDQ01  00002PRCP99
0156480770999992000111406004+18790+095220FM-12+0060VBPR V0200401N000512200019N0110001N1+03151+02361101211ADDAA199000091GA1001+999999999GF100991001001999999001001MD1999999+0041REMSYN058AAXX  14064 48077 32961 00401 10315 20236 40121 333 58004;EQDQ01  00002PRCP99
0184480770999992000111409004+18790+095220FM-12+0060VBPR V0209999C000012200019N0090001N1+03401+02061101001ADDAA199000091AY101031AY201031GA1001+999999999GF100991001001999999001001MD1999999+0101MW1051REMSYN064AAXX  14094 48077 31959 00000 10340 20206 40100 70500 333 58010;EQDQ01  00002PRCP99
0203480770999992000111412004+18790+095220FM-12+0060VBPR V0209999C000012200019N0070001N1+02871+02151101011ADDAA199000091AY101061AY201061GA1001+999999999GF100991001001999999001001KA1120M+03401MD1999999+0101MW1051REMSYN070AAXX  14124 48077 31957 00000 10287 20215 40101 70500 333 10340 58010;EQDQ01  00002PRCP99
0171480770999992000111500004+18790+095220FM-12+0060VBPR V0200401N000519999999N0080001N1+02181+02051101191ADDAA199000091GF107991001001999999031011KA1120N+02151MD1999999+0031REMSYN076AAXX  15004 48077 32958 70401 10218 20205 40119 80031 333 20215 56049 58003;EQDQ01  00002PRCP99
0156480770999992000111503004+18790+095220FM-12+0060VBPR V0200401N000512200019N0100001N1+02631+02031101361ADDAA199000091GA1001+999999999GF100991001001999999001001MD1999999+0081REMSYN058AAXX  15034 48077 32960 00401 10263 20203 40136 333 58008;EQDQ01  00002PRCP99
0156480770999992000111506004+18790+095220FM-12+0060VBPR V0203201N000512200019N0110001N1+99999+99999101261ADDAA199000091GA1001+999999999GF100991001001999999001001MD1999999+0051REMSYN058AAXX  15064 48077 32961 03201 19320 20215 40126 333 58005;EQDQ01  00002PRCP99
0180480770999992000111509004+18790+095220FM-12+0060VBPR V0203601N000512200019N0090001N1+03301+02011101041ADDAA199000091AY101031AY201031GF101991011021008001001001MD1999999+0031MW1051REMSYN076AAXX  15094 48077 31559 13601 10330 20201 40104 70500 81200 333 56900 58003;EQDQ01  00002PRCP99
0175480770999992000111512004+18790+095220FM-12+0060VBPR V0209999C000012200019N0040001N1+02781+02031101051ADDAA199000091GA1001+999999999GF100991001001999999001001KA1120M+03351MD1999999+0051REMSYN064AAXX  15124 48077 32596 00000 10278 20203 40105 333 10335 58005;EQDQ01  00002PRCP99
0175480770999992000111600004+18790+095220FM-12+0060VBPR V0200401N002612200019N0090001N1+02301+01811101231ADDAA199000091GA1001+999999999GF100991001001999999001001KA1120N+02291MD1999999+0041REMSYN064AAXX  16004 48077 32959 00405 10230 20181 40123 333 20229 58004;EQDQ01  00002PRCP99
0156480770999992000111603004+18790+095220FM-12+0060VBPR V0200401N001012200019N0100001N1+02701+01911101321ADDAA199000091GA1001+999999999GF100991001001999999001001MD1999999-0041REMSYN058AAXX  16034 48077 32960 00402 10270 20191 40132 333 59004;EQDQ01  00002PRCP99
0156480770999992000111606004+18790+095220FM-12+0060VBPR V0200401N001512200019N0110001N1+03101+02031101231ADDAA199000091GA1001+999999999GF100991001001999999001001MD1999999-0031REMSYN058AAXX  16064 48077 32961 00403 10310 20203 40123 333 59003;EQDQ01  00002PRCP99
0184480770999992000111609004+18790+095220FM-12+0060VBPR V0203201N000512200019N0090001N1+03301+02011100961ADDAA199000091AY101031AY201031GA1001+999999999GF100991001001999999001001MD1999999+0011MW1051REMSYN064AAXX  16094 48077 32959 03201 10330 20201 40096 70500 333 58001;EQDQ01  00002PRCP99
0175480770999992000111612004+18790+095220FM-12+0060VBPR V0209999C000012200019N0060001N1+02801+02031101071ADDAA199000091GA1001+999999999GF100991001001999999001001KA1120M+03301MD1999999+0021REMSYN064AAXX  16124 48077 32956 00000 10280 20203 40107 333 10330 58002;EQDQ01  00002PRCP99
0171480770999992000111700004+18790+095220FM-12+0060VBPR V0203601N000512200019N0060001N1+02301+01981101241ADDAA199000091GF104991001001999999031011KA1120N+02251MD1999999+0011REMSYN076AAXX  17004 48077 32956 43601 10230 20198 40124 80031 333 20225 56099 58001;EQDQ01  00002PRCP99
0156480770999992000111706004+18790+095220FM-12+0060VBPR V0200401N000512200019N0110001N1+03051+02071101201ADDAA199000091GA1001+999999999GF100991001001999999001001MD1999999+0131REMSYN058AAXX  17064 48077 32961 00401 10305 20207 40120 333 58013;EQDQ01  00002PRCP99
0156480770999992000111709004+18790+095220FM-12+0060VBPR V0200401N001012200019N0110001N1+03301+02011101001ADDAA199000091GA1001+999999999GF100991001001999999001001MD1999999+0051REMSYN058AAXX  17094 48077 32961 00402 10330 20201 40100 333 58005;EQDQ01  00002PRCP99
0171480770999992000111712004+18790+095220FM-12+0060VBPR V0209999C000012200019N0060001N1+02911+02151100991ADDAA199000091GF101991001001999999001011KA1120M+03321MD1999999-0081REMSYN076AAXX  17124 48077 32956 10000 10291 20215 40099 80001 333 10332 56009 59008;EQDQ01  00002PRCP99
0154480770999992000111800004+18790+095220FM-12+0060VBPR V0200201N010312200019N0002001N1+99999+99999101141ADDGF101991999001004501031011KA1120N+02161MD1999999-0101REMSYN070AAXX  18004 48077 4/402 10220 20205 40114 80031 333 20216 56099 59010;EQDQ01+000002SCOTLC
0156480770999992000111803004+18790+095220FM-12+0060VBPR V0200401N000512200019N0110001N1+02801+02111101241ADDAA199000091GA1001+999999999GF100991001001999999001001MD1999999-0121REMSYN058AAXX  18034 48077 32961 00401 10280 20211 40124 333 59012;EQDQ01  00002PRCP99
0156480770999992000111806004+18790+095220FM-12+0060VBPR V0200401N001012200019N0110001N1+03271+02241101171ADDAA199000091GA1001+999999999GF100991001001999999001001MD1999999-0031REMSYN058AAXX  18064 48077 32961 00402 10327 20224 40117 333 59003;EQDQ01  00002PRCP99
0156480770999992000111809004+18790+095220FM-12+0060VBPR V0200401N000512200019N0110001N1+03501+02191100901ADDAA199000091GA1001+999999999GF100991001001999999001001MD1999999-0111REMSYN058AAXX  18094 48077 32961 00401 10350 20219 40090 333 59011;EQDQ01  00002PRCP99
0181480770999992000111812004+18790+095220FM-12+0060VBPR V0209999C000012200019N0080001N1+03061+02331100901ADDAA199000091GA1001+999999999GF100991001001999999001001KA1120M+03501MD1999999-0091REMSYN070AAXX  18124 48077 32958 00000 10306 20233 40090 333 10350 56000 59009;EQDQ01  00002PRCP99
0171480770999992000111900004+18790+095220FM-12+0060VBPR V0202301N000510450019N0090001N1+02471+02191101101ADDAA199000091GF106991021081008001031001KA1120N+02451MD1999999-0041REMSYN076AAXX  19004 48077 32559 62301 10247 20219 40110 82830 333 20245 56990 59004;EQDQ01  00002PRCP99
0122480770999992000111903004+18790+095220FM-12+0060VBPR V0203601N001512200019N0160001N1+02701+02111101251ADDAA199000091GF102991001001999999001061REMSYN054AAXX  19034 48077 32966 23603 10270 20211 40125 80006;EQDQ01  00002PRCP99
0152480770999992000111906004+18790+095220FM-12+0060VBPR V0209999C000012200019N0110001N1+03221+02461101181ADDAA199000091GF103991031091008001001021MD1999999+0021REMSYN070AAXX  19064 48077 32561 30000 10322 20246 40118 83902 333 56190 58002;EQDQ01  00002PRCP99
0152480770999992000111909004+18790+095220FM-12+0060VBPR V0209999C000012200019N0110001N1+03601+02351100901ADDAA199000091GF102991021021008001001001MD1999999+0001REMSYN070AAXX  19094 48077 32561 20000 10360 20235 40090 82200 333 56900 58000;EQDQ01  00002PRCP99
0171480770999992000111912004+18790+095220FM-12+0060VBPR V0209999C000012200019N0060001N1+03051+02031100961ADDAA199000091GF101991011041008001001001KA1120M+03601MD1999999+0011REMSYN076AAXX  19124 48077 32556 10000 10305 20203 40096 81400 333 10360 56900 58001;EQDQ01  00002PRCP99
0152480770999992000112006004+18790+095220FM-12+0060VBPR V0202701N000512200019N0110001N1+03301+02441101141ADDAA199000091GF101991011021008001001001MD1999999-0041REMSYN070AAXX  20064 48077 32561 12701 10330 20244 40114 81200 333 56900 59004;EQDQ01  00002PRCP99
0180480770999992000112009004+18790+095220FM-12+0060VBPR V0209999C000012200019N0090001N1+03601+02141100881ADDAA199000091AY101031AY201031GF103991031021008001001001MD1999999-0021MW1051REMSYN076AAXX  20094 48077 31559 30000 10360 20214 40088 70500 83200 333 56600 59002;EQDQ01  00002PRCP99
0187480770999992000112012004+18790+095220FM-12+0060VBPR V0209999C000012200019N0070001N1+03201+02481100881ADDAA199000091GF102991999081008001001001KA1120M+03621MD1999999-0041REMSYN076AAXX  20124 48077 32557 20000 10320 20248 40088 83800 333 10362 56900 59004;EQDQ01+000032SCOTLCQ02  00002PRCP99
0152480770999992000112103004+18790+095220FM-12+0060VBPR V0209999C000019999999N0050001N1+02801+02331101301ADDAA199000091GF106991001001999999001011MD1999999+0051REMSYN070AAXX  21034 48077 32950 60000 10280 20233 40130 80001 333 56009 58005;EQDQ01  00002PRCP99
0152480770999992000112106004+18790+095220FM-12+0060VBPR V0200901N000512200019N0110001N1+03201+02151101181ADDAA199000091GF105991021021008001001011MD1999999+0041REMSYN070AAXX  21064 48077 32561 50901 10320 20215 40118 82201 333 56909 58004;EQDQ01  00002PRCP99
0180480770999992000112109004+18790+095220FM-12+0060VBPR V0200401N000512200019N0090001N1+03401+02251100981ADDAA199000091AY111031AY211031GF105991021021008001001011MD1999999+0101MW1051REMSYN076AAXX  21094 48077 31559 50401 10340 20225 40098 70511 82201 333 56909 58010;EQDQ01  00002PRCP99
0171480770999992000112112004+18790+095220FM-12+0060VBPR V0209999C000010450019N0060001N1+02901+02301100961ADDAA199000091GF106991031091008001031001KA1120M+03401MD1999999+0091REMSYN076AAXX  21124 48077 32556 60000 10290 20230 40096 83930 333 10340 56690 58009;EQDQ01  00002PRCP99
0171480770999992000112200004+18790+095220FM-12+0060VBPR V0200401N000510450019N0080001N1+02401+02091101191ADDAA199000091GF106991021021008001031001KA1120N+02351MD1999999+0031REMSYN076AAXX  22004 48077 32558 60401 10240 20209 40119 82230 333 20235 56990 58003;EQDQ01  00002PRCP99
0152480770999992000112206004+18790+095220FM-12+0060VBPR V0203201N000519999999N0100001N1+03101+02031101381ADDAA199000091GF106991001001999999031011MD1999999+0201REMSYN070AAXX  22064 48077 32960 63201 10310 20203 40138 80031 333 56099 58020;EQDQ01  00002PRCP99
0180480770999992000112209004+18790+095220FM-12+0060VBPR V0203601N000510450019N0090001N1+03301+02121101131ADDAA199000091AY111031AY211031GF106991011021008001031011MD1999999-0151MW1051REMSYN076AAXX  22094 48077 31559 63601 10330 20212 40113 70511 81231 333 56999 59015;EQDQ01  00002PRCP99
0171480770999992000112212004+18790+095220FM-12+0060VBPR V0209999C000012200019N0070001N1+02901+02151101181ADDAA199000091GF102991001001999999001011KA1120M+03351MD1999999+0221REMSYN076AAXX  22124 48077 32957 20000 10290 20215 40118 80001 333 10335 56009 58022;EQDQ01  00002PRCP99
0181480770999992000112300004+18790+095220FM-12+0060VBPR V0203601N001512200019N0060001N1+02281+01851101421ADDAA199000091GA1001+999999999GF100991001001999999001001KA1120N+02201MD1999999+0221REMSYN070AAXX  23004 48077 32956 03603 10228 20185 40142 333 20220 56000 58022;EQDQ01  00002PRCP99
0152480770999992000112303004+18790+095220FM-12+0060VBPR V0200401N001012200019N0100001N1+02701+01911101571ADDAA199000091GF103991001001999999031011MD1999999-0141REMSYN070AAXX  23034 48077 32960 30402 10270 20191 40157 80031 333 56499 59014;EQDQ01  00002PRCP99
0168480770999992000112306004+18790+095220FM-12+0060VBPR V0209999C000019999999N0150001N1+03101+02031101481ADDAA199000091GF108991999001999999031001MD1999999+0081REMSYN070AAXX  23064 48077 32965 80000 10310 20203 40148 80030 333 56090 58008;EQDQ01+000002SCOTLCQ02  00002PRCP99
0180480770999992000112309004+18790+095220FM-12+0060VBPR V0203201N000519999999N0080001N1+03301+02011101241ADDAA199000091AY101031AY201031GF105991001001999999031011MD1999999+0121MW1051REMSYN076AAXX  23094 48077 32958 53201 10330 20201 40124 70500 80031 333 56099 58012;EQDQ01  00002PRCP99
0171480770999992000112312004+18790+095220FM-12+0060VBPR V0209999C000012200019N0060001N1+02851+02031101231ADDAA199000091GF103991001001999999031011KA1120M+03301MD1999999+0051REMSYN076AAXX  23124 48077 32956 30000 10285 20203 40123 80031 333 10330 56099 58005;EQDQ01  00002PRCP99
0175480770999992000112400004+18790+095220FM-12+0060VBPR V0200401N001012200019N0060001N1+02121+01951101341ADDAA199000091GA1001+999999999GF100991001001999999001001KA1120N+02101MD1999999-0071REMSYN064AAXX  24004 48077 32956 00402 10212 20195 40134 333 20210 59007;EQDQ01  00002PRCP99
0152480770999992000112403004+18790+095220FM-12+0060VBPR V0200401N000519999999N0100001N1+02401+01341101461ADDAA199000091GF106991001001999999031011MD1999999-0101REMSYN070AAXX  24034 48077 32960 60401 10240 20134 40146 80031 333 56009 59010;EQDQ01  00002PRCP99
0152480770999992000112406004+18790+095220FM-12+0060VBPR V0200401N000519999999N0110001N1+03001+02071101331ADDAA199000091GF108991031031999999031011MD1999999-0151REMSYN070AAXX  24064 48077 32961 80401 10300 20207 40133 83331 333 56900 59015;EQDQ01  00002PRCP99
0180480770999992000112409004+18790+095220FM-12+0060VBPR V0209999C000019999999N0060001N1+03121+01891101031ADDAA199000091AY111031AY211031GF106991001001999999031011MD1999999-0221MW1051REMSYN076AAXX  24094 48077 31956 60000 10312 20189 40103 70511 80031 333 56099 59022;EQDQ01  00002PRCP99
0171480770999992000112412004+18790+095220FM-12+0060VBPR V0209999C000012200019N0080001N1+02721+02031101261ADDAA199000091GF102991001001999999001011KA1120M+03201MD1999999-0211REMSYN076AAXX  24124 48077 32958 20000 10272 20203 40126 80001 333 10320 56009 59021;EQDQ01  00002PRCP99
0146480770999992000112503004+18790+095220FM-12+0060VBPR V0203601N001519999999N0100001N1+02361+01341101371ADDAA199000091GF108991001001999999001011MD1999999-0081REMSYN064AAXX  25034 48077 32960 83603 10236 20134 40137 80001 333 59008;EQDQ01  00002PRCP99
0152480770999992000112506004+18790+095220FM-12+0060VBPR V0200401N001019999999N0110001N1+03001+01851101351ADDAA199000091GF107991001001999999031051MD1999999+0021REMSYN070AAXX  25064 48077 32961 70402 10300 20185 40135 80035 333 56099 58002;EQDQ01  00002PRCP99
0180480770999992000112509004+18790+095220FM-12+0060VBPR V0209999C000019999999N0110001N1+03101+01891101001ADDAA199000091AY121031AY221031GF105991001001999999031011MD1999999-0031MW1051REMSYN076AAXX  25094 48077 31961 50000 10310 20189 40100 70522 80031 333 56099 59003;EQDQ01  00002PRCP99
0171480770999992000112512004+18790+095220FM-12+0060VBPR V0209999C000019999999N0060001N1+02701+01911101001ADDAA199000091GF106991001001999999001011KA1120M+03171MD1999999-0011REMSYN076AAXX  25124 48077 32956 60000 10270 20191 40100 80001 333 10317 56009 59001;EQDQ01  00002PRCP99
0171480770999992000112600004+18790+095220FM-12+0060VBPR V0200401N001012200019N0080001N1+02101+01751101221ADDAA199000091GF104991001001999999001011KA1120N+02061MD1999999+0061REMSYN076AAXX  26004 48077 32958 40402 10210 20175 40122 80001 333 20206 56009 58006;EQDQ01  00002PRCP99
0152480770999992000112603004+18790+095220FM-12+0060VBPR V0200401N002612200019N0110001N1+02401+01911101421ADDAA199000091GF102991001001999999001011MD1999999-0041REMSYN070AAXX  26034 48077 32961 20405 10240 20191 40142 80001 333 56009 59004;EQDQ01  00002PRCP99
0152480770999992000112609004+18790+095220FM-12+0060VBPR V0200401N000512200019N0110001N1+03201+01851101201ADDAA199000091GF102991001001999999001011MD1999999+0201REMSYN070AAXX  26094 48077 32961 20401 10320 20185 40120 80001 333 56009 58020;EQDQ01  00002PRCP99
0171480770999992000112612004+18790+095220FM-12+0060VBPR V0209999C000012200019N0080001N1+02771+02031101181ADDAA199000091GF104991001001999999001011KA1120M+03201MD1999999+0181REMSYN076AAXX  26124 48077 32958 40000 10277 20203 40118 80001 333 10320 56009 58018;EQDQ01  00002PRCP99
0171480770999992000112700004+18790+095220FM-12+0060VBPR V0203601N000519999999N0080001N1+02201+01851101361ADDAA199000091GF107991001001999999071011KA1120N+02151MD1999999+0141REMSYN076AAXX  27004 48077 32958 73601 10220 20185 40136 80071 333 20215 56099 58014;EQDQ01  00002PRCP99
0180480770999992000112703004+18790+095220FM-12+0060VBPR V0200401N000519999999N0090001N1+02451+01341101521ADDAA199000091AY121031AY221031GF107991001001999999071011MD1999999+0101MW1051REMSYN076AAXX  27034 48077 31959 70401 10245 20134 40152 70522 80071 333 56009 58010;EQDQ01  00002PRCP99
0152480770999992000112706004+18790+095220FM-12+0060VBPR V0203601N000519999999N0100001N1+02851+01841101461ADDAA199000091GF106991001001999999031011MD1999999+0101REMSYN070AAXX  27064 48077 32960 63601 10285 20184 40146 80031 333 56099 58010;EQDQ01  00002PRCP99
0180480770999992000112709004+18790+095220FM-12+0060VBPR V0200401N001019999999N0060001N1+03051+02031101261ADDAA199000091AY121031AY221031GF107991001001999999071011MD1999999+0061MW1051REMSYN076AAXX  27094 48077 31956 70402 10305 20203 40126 70522 80071 333 56099 58006;EQDQ01  00002PRCP99
0187480770999992000112712004+18790+095220FM-12+0060VBPR V0209999C000012200019N0060001N1+02721+02111101201ADDAA199000091GF103991999001999999031001KA1120M+03151MD1999999+0021REMSYN076AAXX  27124 48077 32956 30000 10272 20211 40120 80030 333 10315 56090 58002;EQDQ01+000002SCOTLCQ02  00002PRCP99
0152480770999992000112806004+18790+095220FM-12+0060VBPR V0209999C000019999999N0110001N1+03201+02001101331ADDAA199000091GF106991001001999999001011MD1999999-0101REMSYN070AAXX  28064 48077 32961 60000 10320 20200 40133 80001 333 56009 59010;EQDQ01  00002PRCP99
0180480770999992000112809004+18790+095220FM-12+0060VBPR V0209999C000012200019N0080001N1+03351+02251101081ADDAA199000091AY101031AY201031GF102991021021008001001001MD1999999-0181MW1051REMSYN076AAXX  28094 48077 31558 20000 10335 20225 40108 70500 82200 333 56900 59018;EQDQ01  00002PRCP99
0175480770999992000112812004+18790+095220FM-12+0060VBPR V0209999C000012200019N0060001N1+02901+02151101161ADDAA199000091GA1001+999999999GF100991001001999999001001KA1120M+03361MD1999999-0051REMSYN064AAXX  28124 48077 32956 00000 10290 20215 40116 333 10336 59005;EQDQ01  00002PRCP99
0171480770999992000112900004+18790+095220FM-12+0060VBPR V0203601N001010450019N0080001N1+02271+01981101311ADDAA199000091GF108991041071008001071001KA1120N+02221MD1999999+0011REMSYN076AAXX  29004 48077 32558 83602 10227 20198 40131 84770 333 20222 56490 58001;EQDQ01  00002PRCP99
0152480770999992000112903004+18790+095220FM-12+0060VBPR V0200401N001010450019N0100001N1+02501+01861101481ADDAA199000091GF106991031081008001031001MD1999999+0081REMSYN070AAXX  29034 48077 32560 60402 10250 20186 40148 83830 333 56590 58008;EQDQ01  00002PRCP99
0152480770999992000112906004+18790+095220FM-12+0060VBPR V0200401N001010450019N0100001N1+02701+01911101451ADDAA199000091GF106991041081008001031001MD1999999+0121REMSYN070AAXX  29064 48077 32560 60402 10270 20191 40145 84830 333 56890 58012;EQDQ01  00002PRCP99
0180480770999992000112909004+18790+095220FM-12+0060VBPR V0200401N001511050019N0090001N1+02801+01841101281ADDAA199000091AY121031AY221031GF105991021021008001031011MD1999999+0211MW1051REMSYN076AAXX  29094 48077 31559 50403 10280 20184 40128 70522 82231 333 56899 58021;EQDQ01  00002PRCP99
0171480770999992000112912004+18790+095220FM-12+0060VBPR V0203601N001510450019N0060001N1+02401+01341101361ADDAA199000091GF108991041091004501071001KA1120M+02901MD1999999+0201REMSYN076AAXX  29124 48077 32456 83603 10240 20134 40136 84970 333 10290 56690 58020;EQDQ01  00002PRCP99
0171480770999992000113000004+18790+095220FM-12+0060VBPR V0200401N001512200019N0080001N1+01941+01751101481ADDAA199000091GF104991041081008001031001KA1120N+01921MD1999999+0171REMSYN076AAXX  30004 48077 32558 40403 10194 20175 40148 84830 333 20192 56990 58017;EQDQ01  00002PRCP99
0156480770999992000113003004+18790+095220FM-12+0060VBPR V0200401N000512200019N0100001N1+02501+01341101541ADDAA199000091GA1001+999999999GF100991001001999999001001MD1999999+0051REMSYN058AAXX  30034 48077 32960 00401 10250 20134 40154 333 58005;EQDQ01  00002PRCP99
0146480770999992000120106004+18790+095220FM-12+0060VBPR V0203201N000512200019N0110001N1+03001+01851101891ADDAA199000091GF104991999999999999999999MD1999999-0091REMSYN064AAXX  01064 48077 32961 43201 10300 20185 40189 333 56000 59009;EQDQ01  00002PRCP99
0152480770999992000120206004+18790+095220FM-12+0060VBPR V0200401N002612200019N0110001N1+03001+01851101421ADDAA199000091GF102991021081008001001001MD1999999+0031REMSYN070AAXX  02064 48077 32561 20405 10300 20185 40142 82800 333 56900 58003;EQDQ01  00002PRCP99
0184480770999992000120209004+18790+095220FM-12+0060VBPR V0200401N001012200019N0100001N1+03101+01891101271ADDAA199000091AY101031AY201031GA1001+999999999GF100991001001999999001001MD1999999+0121MW1051REMSYN064AAXX  02094 48077 31960 00402 10310 20189 40127 70500 333 58012;EQDQ01  00002PRCP99
0187480770999992000120212004+18790+095220FM-12+0060VBPR V0209999C000012200019N0080001N1+02701+01911101241ADDAA199000091GF102991999001999999031001KA1120M+03141MD1999999+0131REMSYN076AAXX  02124 48077 32958 20000 10270 20191 40124 80030 333 10314 56090 58013;EQDQ01+000002SCOTLCQ02  00002PRCP99
0171480770999992000120300004+18790+095220FM-12+0060VBPR V0209999C000012200019N0060001N1+02141+01751101391ADDAA199000091GF101991001001999999001011KA1120N+02101MD1999999+0051REMSYN076AAXX  03004 48077 32956 10000 10214 20175 40139 80001 333 20210 56009 58005;EQDQ01  00002PRCP99
0156480770999992000120303004+18790+095220FM-12+0060VBPR V0200401N003112200019N0100001N1+02421+01841101591ADDAA199000091GA1001+999999999GF100991001001999999001001MD1999999+0031REMSYN058AAXX  03034 48077 32960 00406 10242 20184 40159 333 58003;EQDQ01  00002PRCP99
0156480770999992000120306004+18790+095220FM-12+0060VBPR V0200401N001512200019N0110001N1+02911+01791101441ADDAA199000091GA1001+999999999GF100991001001999999001001MD1999999+0011REMSYN058AAXX  03064 48077 32961 00403 10291 20179 40144 333 58001;EQDQ01  00002PRCP99
0156480770999992000120309004+18790+095220FM-12+0060VBPR V0200401N001012200019N0110001N1+03021+01491101251ADDAA199000091GA1001+999999999GF100991001001999999001001MD1999999-0021REMSYN058AAXX  03094 48077 32961 00402 10302 20149 40125 333 59002;EQDQ01  00002PRCP99
0171480770999992000120312004+18790+095220FM-12+0060VBPR V0209999C000012200019N0060001N1+02651+01601101241ADDAA199000091GF101991001001999999001011KA1120M+03071MD1999999-0061REMSYN076AAXX  03124 48077 32956 10000 10265 20160 40124 80001 333 10307 56009 59006;EQDQ01  00002PRCP99
0175480770999992000120400004+18790+095220FM-12+0060VBPR V0200401N000512200019N0080001N1+01761+01471101341ADDAA199000091GA1001+999999999GF100991001001999999001001KA1120N+01741MD1999999-0051REMSYN064AAXX  04004 48077 32958 00401 10176 20147 40134 333 20174 59005;EQDQ01  00002PRCP99
0156480770999992000120403004+18790+095220FM-12+0060VBPR V0200401N001012200019N0100001N1+02801+01431101541ADDAA199000091GA1001+999999999GF100991001001999999001001MD1999999-0051REMSYN058AAXX  04034 48077 32960 00402 10280 20143 40154 333 59005;EQDQ01  00002PRCP99
0156480770999992000120406004+18790+095220FM-12+0060VBPR V0209999C000012200019N0110001N1+02901+01591101441ADDAA199000091GA1001+999999999GF100991001001999999001001MD1999999+0011REMSYN058AAXX  04064 48077 32961 00000 10290 20159 40144 333 58001;EQDQ01  00002PRCP99
0184480770999992000120409004+18790+095220FM-12+0060VBPR V0200401N000512200019N0080001N1+03201+01631101181ADDAA199000091AY121031AY221031GA1001+999999999GF100991001001999999001001MD1999999-0061MW1051REMSYN064AAXX  04094 48077 31958 00401 10320 20163 40118 70522 333 59006;EQDQ01  00002PRCP99
0175480770999992000120412004+18790+095220FM-12+0060VBPR V0209999C000012200019N0080001N1+02601+01601101161ADDAA199000091GA1001+999999999GF100991001001999999001001KA1120M+03201MD1999999-0081REMSYN064AAXX  04124 48077 32958 00000 10260 20160 40116 333 10320 59008;EQDQ01  00002PRCP99
0156480770999992000120503004+18790+095220FM-12+0060VBPR V0201301N000512200019N0100001N1+02301+01631101431ADDAA199000091GA1001+999999999GF100991001001999999001001MD1999999-0111REMSYN058AAXX  05034 48077 32960 01301 10230 20163 40143 333 59011;EQDQ01  00002PRCP99
0175480770999992000120512004+18790+095220FM-12+0060VBPR V0209999C000012200019N0060001N1+02611+01791101091ADDAA199000091GA1001+999999999GF100991001001999999001001KA1120M+03261MD1999999-0071REMSYN064AAXX  05124 48077 32956 00000 10261 20179 40109 333 10326 59007;EQDQ01  00002PRCP99
0175480770999992000120600004+18790+095220FM-12+0060VBPR V0200401N001012200019N0060001N1+01901+01751101211ADDAA199000091GA1001+999999999GF100991001001999999001001KA1120N+01261MD1999999-0011REMSYN064AAXX  06004 48077 32956 00402 10190 20175 40121 333 20126 59001;EQDQ01  00002PRCP99
0156480770999992000120603004+18790+095220FM-12+0060VBPR V0200401N001512200019N0100001N1+02301+01631101491ADDAA199000091GA1001+999999999GF100991001001999999001001MD1999999+0061REMSYN058AAXX  06034 48077 32960 00403 10230 20163 40149 333 58006;EQDQ01  00002PRCP99
0152480770999992000120606004+18790+095220FM-12+0060VBPR V0200401N001012200019N0110001N1+02901+01791101411ADDAA199000091GF103991001001999999031011MD1999999+0051REMSYN070AAXX  06064 48077 32961 30402 10290 20179 40141 80031 333 56099 58005;EQDQ01  00002PRCP99
0184480770999992000120609004+18790+095220FM-12+0060VBPR V0209999C000012200019N0090001N1+03201+01841101141ADDAA199000091AY101031AY201031GA1001+999999999GF100991001001999999001001MD1999999+0091MW1051REMSYN064AAXX  06094 48077 31959 00000 10320 20184 40114 70500 333 58009;EQDQ01  00002PRCP99
0181480770999992000120612004+18790+095220FM-12+0060VBPR V0209999C000012200019N0070001N1+02541+01671101111ADDAA199000091GA1001+999999999GF100991001001999999001001KA1120M+03201MD1999999+0021REMSYN070AAXX  06124 48077 32957 00000 10254 20167 40111 333 10320 56002 58002;EQDQ01  00002PRCP99
0162480770999992000120703004+18790+095220FM-12+0060VBPR V0203601N001512200019N0100001N1+02351+01341101561ADDAA199000091GA1001+999999999GF100991001001999999001001MD1999999+0061REMSYN064AAXX  07034 48077 32960 03603 10235 20134 40156 333 56000 58006;EQDQ01  00002PRCP99
0156480770999992000120706004+18790+095220FM-12+0060VBPR V0200401N000512200019N0150001N1+02901+01791101491ADDAA199000091GA1001+999999999GF100991001001999999001001MD1999999+0091REMSYN058AAXX  07064 48077 32965 00401 10290 20179 40149 333 58009;EQDQ01  00002PRCP99
0180480770999992000120709004+18790+095220FM-12+0060VBPR V0209999C000012200019N0090001N1+03151+01631101211ADDAA199000091AY101031AY201031GF101991001001999999001011MD1999999+0061MW1051REMSYN076AAXX  07094 48077 31959 10000 10315 20163 40121 70500 80001 333 56009 58006;EQDQ01  00002PRCP99
0181480770999992000120712004+18790+095220FM-12+0060VBPR V0209999C000012200019N0060001N1+02601+01601101201ADDAA199000091GA1001+999999999GF100991001001999999001001KA1120M+03151MD1999999+0091REMSYN070AAXX  07124 48077 32956 00000 10260 20160 40120 333 10315 56000 58009;EQDQ01  00002PRCP99
0181480770999992000120800004+18790+095220FM-12+0060VBPR V0200401N001012200019N0070001N1+01801+01551101381ADDAA199000091GA1001+999999999GF100991001001999999001001KA1120N+01761MD1999999-0031REMSYN070AAXX  08004 48077 32957 00402 10180 20155 40138 333 20176 56000 59003;EQDQ01  00002PRCP99
0156480770999992000120803004+18790+095220FM-12+0060VBPR V0200401N001012200019N0100001N1+02301+01631101491ADDAA199000091GA1001+999999999GF100991001001999999001001MD1999999-0061REMSYN058AAXX  08034 48077 32960 00402 10230 20163 40149 333 59006;EQDQ01  00002PRCP99
0152480770999992000120806004+18790+095220FM-12+0060VBPR V0201301N000512200019N0110001N1+02901+01591101411ADDAA199000091GF102991001001999999001011MD1999999-0091REMSYN070AAXX  08064 48077 32961 21301 10290 20159 40141 80001 333 56009 59009;EQDQ01  00002PRCP99
0180480770999992000120809004+18790+095220FM-12+0060VBPR V0200401N000512200019N0080001N1+03101+01461101161ADDAA199000091AY101031AY201031GF104991001001999999001011MD1999999-0051MW1051REMSYN076AAXX  08094 48077 31958 40401 10310 20146 40116 70500 80001 333 56009 59005;EQDQ01  00002PRCP99
0171480770999992000120812004+18790+095220FM-12+0060VBPR V0209999C000012200019N0080001N1+02601+01601101141ADDAA199000091GF102991001001999999001011KA1120M+03101MD1999999-0061REMSYN076AAXX  08124 48077 32958 20000 10260 20160 40114 80001 333 10310 56009 59006;EQDQ01  00002PRCP99
0175480770999992000120900004+18790+095220FM-12+0060VBPR V0200401N001012200019N0080001N1+01861+01751101221ADDAA199000091GA1001+999999999GF100991001001999999001001KA1120N+01841MD1999999-0051REMSYN064AAXX  09004 48077 32958 00402 10186 20175 40122 333 20184 59005;EQDQ01  00002PRCP99
0156480770999992000120903004+18790+095220FM-12+0060VBPR V0200401N001012200019N0110001N1+02301+01621101361ADDAA199000091GA1001+999999999GF100991001001999999001001MD1999999-0141REMSYN058AAXX  09034 48077 32961 00402 10230 20162 40136 333 59014;EQDQ01  00002PRCP99
0156480770999992000120906004+18790+095220FM-12+0060VBPR V0200401N001012200019N0110001N1+03001+01661101291ADDAA199000091GA1001+999999999GF100991001001999999001001MD1999999-0121REMSYN058AAXX  09064 48077 32961 00402 10300 20166 40129 333 59012;EQDQ01  00002PRCP99
0156480770999992000120909004+18790+095220FM-12+0060VBPR V0200401N000512200019N0100001N1+03201+01631100991ADDAA199000091GA1001+999999999GF100991001001999999001001MD1999999-0171REMSYN058AAXX  09094 48077 31597 00401 10320 20163 40099 333 59017;EQDQ01  00002PRCP99
0181480770999992000120912004+18790+095220FM-12+0060VBPR V0209999C000012200019N0080001N1+02601+01791100961ADDAA199000091GA1001+999999999GF100991001001999999001001KA1120M+03241MD1999999-0181REMSYN070AAXX  09124 48077 32958 00000 10260 20179 40096 333 10324 56000 59018;EQDQ01  00002PRCP99
0171480770999992000121000004+18790+095220FM-12+0060VBPR V0200401N000512200019N0080001N1+01801+01551101281ADDAA199000091GF104991001001999999001061KA1120N+01761MD1999999+0061REMSYN076AAXX  10004 48077 32958 40401 10180 20155 40128 80006 333 20176 56009 58006;EQDQ01  00002PRCP99
0152480770999992000121003004+18790+095220FM-12+0060VBPR V0200401N001512200019N0100001N1+02301+01631101491ADDAA199000091GF104991001001999999001011MD1999999+0141REMSYN070AAXX  10034 48077 32960 40403 10230 20163 40149 80001 333 56009 58014;EQDQ01  00002PRCP99
0187480770999992000121012004+18790+095220FM-12+0060VBPR V0209999C000012200019N0060001N1+02601+01671101121ADDAA199000091GA1001+999999999GF100991001001999999001001KA1120M+03201MD1999999+0131REMSYN076AAXX  10124 48077 32956 00000 10260 20167 40112 80001 333 10320 56009 58013;EQDQ01  00002PRCP99
0175480770999992000121100004+18790+095220FM-12+0060VBPR V0200401N001012200019N0070001N1+01801+01581101341ADDAA199000091GA1001+999999999GF100991001001999999001001KA1120N+01761MD1999999+0061REMSYN064AAXX  11004 48077 32957 00402 10180 20158 40134 333 20176 58006;EQDQ01  00002PRCP99
0156480770999992000121106004+18790+095220FM-12+0060VBPR V0200401N000512200019N0110001N1+03001+01661101451ADDAA199000091GA1001+999999999GF100991001001999999001001MD1999999+0161REMSYN058AAXX  11064 48077 32961 00401 10300 20166 40145 333 58016;EQDQ01  00002PRCP99
0175480770999992000121112004+18790+095220FM-12+0060VBPR V0209999C000012200019N0080001N1+02801+01561101141ADDAA199000091GA1001+999999999GF100991001001999999001001KA1120M+03301MD1999999+0041REMSYN064AAXX  11124 48077 32958 00000 10280 20156 40114 333 10330 58004;EQDQ01  00002PRCP99
0171480770999992000121200004+18790+095220FM-12+0060VBPR V0200401N000519999999N0080001N1+01921+01751101321ADDAA199000091GF107991001001999999031011KA1120N+01901MD1999999-0021REMSYN076AAXX  12004 48077 32958 70401 10192 20175 40132 80031 333 20190 56009 59002;EQDQ01  00002PRCP99
0146480770999992000121203004+18790+095220FM-12+0060VBPR V0200401N000512200019N0100001N1+02301+01631101511ADDAA199000091GF102991999999999999999999MD1999999-0051REMSYN064AAXX  12034 48077 32960 20401 10230 20163 40151 333 56090 59005;EQDQ01  00002PRCP99
0168480770999992000121206004+18790+095220FM-12+0060VBPR V0209999C000012200019N0110001N1+02951+01661101381ADDAA199000091GF101991999001999999031001MD1999999-0041REMSYN070AAXX  12064 48077 32961 10000 10295 20166 40138 80030 333 56090 59004;EQDQ01+000002SCOTLCQ02  00002PRCP99
0184480770999992000121209004+18790+095220FM-12+0060VBPR V0200401N001012200019N0090001N1+03301+01721101111ADDAA199000091AY101031AY201031GA1001+999999999GF100991001001999999001001MD1999999-0061MW1051REMSYN064AAXX  12094 48077 31959 00402 10330 20172 40111 70500 333 59006;EQDQ01  00002PRCP99
0175480770999992000121212004+18790+095220FM-12+0060VBPR V0209999C000012200019N0060001N1+02701+01761101081ADDAA199000091GA1001+999999999GF100991001001999999001001KA1120M+03301MD1999999-0081REMSYN064AAXX  12124 48077 32956 00000 10270 20176 40108 333 10330 59008;EQDQ01  00002PRCP99
0175480770999992000121300004+18790+095220FM-12+0060VBPR V0200401N001012200019N0070001N1+01901+01591101271ADDAA199000091GA1001+999999999GF100991001001999999001001KA1120N+01881MD1999999-0051REMSYN064AAXX  13004 48077 32957 00402 10190 20159 40127 333 20188 59005;EQDQ01  00002PRCP99
0156480770999992000121303004+18790+095220FM-12+0060VBPR V0200401N001012200019N0100001N1+02501+01551101391ADDAA199000091GA1001+999999999GF100991001001999999001001MD1999999-0121REMSYN058AAXX  13034 48077 32960 00402 10250 20155 40139 333 59012;EQDQ01  00002PRCP99
0156480770999992000121306004+18790+095220FM-12+0060VBPR V0200401N001012200019N0110001N1+02901+01591101321ADDAA199000091GA1001+999999999GF100991001001999999001001MD1999999-0061REMSYN058AAXX  13064 48077 32961 00402 10290 20159 40132 333 59006;EQDQ01  00002PRCP99
0175480770999992000121312004+18790+095220FM-12+0060VBPR V0209999C000012200019N0090001N1+02601+01791101061ADDAA199000091GA1001+999999999GF100991001001999999001001KA1120M+03201MD1999999-0021REMSYN064AAXX  13124 48077 32959 00000 10260 20179 40106 333 10320 59002;EQDQ01  00002PRCP99
0175480770999992000121400004+18790+095220FM-12+0060VBPR V0203601N001012200019N0060001N1+01721+01541101231ADDAA199000091GA1001+999999999GF100991001001999999001001KA1120N+01701MD1999999-0041REMSYN064AAXX  14004 48077 32956 03602 10172 20154 40123 333 20170 59004;EQDQ01  00002PRCP99
0156480770999992000121403004+18790+095220FM-12+0060VBPR V0200401N000512200019N0100001N1+02201+01761101381ADDAA199000091GA1001+999999999GF100991001001999999001001MD1999999-0011REMSYN058AAXX  14034 48077 32960 00401 10220 20176 40138 333 59001;EQDQ01  00002PRCP99
0156480770999992000121506004+18790+095220FM-12+0060VBPR V0203201N000512200019N0110001N1+02901+01591101411ADDAA199000091GA1001+999999999GF100991001001999999001001MD1999999+0101REMSYN058AAXX  15064 48077 32961 03201 10290 20159 40141 333 58010;EQDQ01  00002PRCP99
0175480770999992000121512004+18790+095220FM-12+0060VBPR V0209999C000012200019N0060001N1+02601+01791101201ADDAA199000091GA1001+999999999GF100991001001999999001001KA1120M+03301MD1999999+0051REMSYN064AAXX  15124 48077 32956 00000 10260 20179 40120 333 10330 58005;EQDQ01  00002PRCP99
0181480770999992000121600004+18790+095220FM-12+0060VBPR V0203201N001012200019N0080001N1+01721+01351101521ADDAA199000091GA1001+999999999GF100991001001999999001001KA1120N+01701MD1999999+0181REMSYN070AAXX  16004 48077 31958 03202 10172 20135 40152 333 20170 56000 58018;EQDQ01  00002PRCP99
0156480770999992000121606004+18790+095220FM-12+0060VBPR V0200901N000512200019N0110001N1+02951+01661101511ADDAA199000091GA1001+999999999GF100991001001999999001001MD1999999+0101REMSYN058AAXX  16064 48077 32961 00901 10295 20166 40151 333 58010;EQDQ01  00002PRCP99
0175480770999992000121612004+18790+095220FM-12+0060VBPR V0209999C000012200019N0060001N1+02621+01601101381ADDAA199000091GA1001+999999999GF100991001001999999001001KA1120M+03241MD1999999+0181REMSYN064AAXX  16124 48077 32956 00000 10262 20160 40138 333 10324 58018;EQDQ01  00002PRCP99
0175480770999992000121700004+18790+095220FM-12+0060VBPR V0200401N001012200019N0080001N1+01801+01471101631ADDAA199000091GA1001+999999999GF100991001001999999001001KA1120N+01721MD1999999+0421REMSYN064AAXX  17004 48077 32958 00402 10180 20147 40163 333 20172 58042;EQDQ01  00002PRCP99
0162480770999992000121703004+18790+095220FM-12+0060VBPR V0200401N002112200019N0110001N1+02341+01631101761ADDAA199000091GA1001+999999999GF100991001001999999001001MD1999999+0191REMSYN064AAXX  17034 48077 32161 00404 10234 20163 40176 333 56000 58019;EQDQ01  00002PRCP99
0156480770999992000121706004+18790+095220FM-12+0060VBPR V0200401N001012200019N0110001N1+03001+01491101561ADDAA199000091GA1001+999999999GF100991001001999999001001MD1999999+0051REMSYN058AAXX  17064 48077 32961 00402 10300 20149 40156 333 58005;EQDQ01  00002PRCP99
0175480770999992000121712004+18790+095220FM-12+0060VBPR V0209999C000012200019N0090001N1+02701+01721101291ADDAA199000091GA1001+999999999GF100991001001999999001001KA1120M+03201MD1999999-0091REMSYN064AAXX  17124 48077 32959 00000 10270 20172 40129 333 10320 59009;EQDQ01  00002PRCP99
0171480770999992000121800004+18790+095220FM-12+0060VBPR V0200401N000512200019N0080001N1+01801+01551101401ADDAA199000091GF102991001001999999001011KA1120N+01751MD1999999-0231REMSYN076AAXX  18004 48077 32958 20401 10180 20155 40140 80001 333 20175 56009 59023;EQDQ01  00002PRCP99
0152480770999992000121806004+18790+095220FM-12+0060VBPR V0200401N000512200019N0110001N1+03001+01661101351ADDAA199000091GF103991001001999999001011MD1999999-0211REMSYN070AAXX  18064 48077 32961 30401 10300 20166 40135 80001 333 56009 59021;EQDQ01  00002PRCP99
0187480770999992000121812004+18790+095220FM-12+0060VBPR V0209999C000012200019N0060001N1+02701+01721101001ADDAA199000091GF104991999001999999031001KA1120M+03321MD1999999-0291REMSYN076AAXX  18124 48077 32956 40000 10270 20172 40100 80030 333 10332 56090 59029;EQDQ01+000002SCOTLCQ02  00002PRCP99
0181480770999992000121900004+18790+095220FM-12+0060VBPR V0200401N001012200019N0080001N1+01801+01551101161ADDAA199000091GA1001+999999999GF100991001001999999001001KA1120N+01771MD1999999-0231REMSYN070AAXX  19004 48077 32958 00402 10180 20155 40116 333 20177 56000 59023;EQDQ01  00002PRCP99
0152480770999992000121906004+18790+095220FM-12+0060VBPR V0209999C000012200019N0110001N1+02901+01961101261ADDAA199000091GF102991001001999999001011MD1999999-0091REMSYN070AAXX  19064 48077 32961 20000 10290 20196 40126 80001 333 56009 59009;EQDQ01  00002PRCP99
0175480770999992000121912004+18790+095220FM-12+0060VBPR V0209999C000012200019N0060001N1+02661+01721100921ADDAA199000091GA1001+999999999GF100991001001999999001001KA1120M+03211MD1999999-0041REMSYN064AAXX  19124 48077 32956 00000 10266 20172 40092 333 10321 59004;EQDQ01  00002PRCP99
0175480770999992000122000004+18790+095220FM-12+0060VBPR V0200401N000512200019N0060001N1+01811+01551101301ADDAA199000091GA1001+999999999GF100991001001999999001001KA1120N+01801MD1999999+0141REMSYN064AAXX  20004 48077 32956 00401 10181 20155 40130 333 20180 58014;EQDQ01  00002PRCP99
0152480770999992000122003004+18790+095220FM-12+0060VBPR V0200401N001012200019N0100001N1+02301+01631101521ADDAA199000091GF101991001001999999001011MD1999999+0151REMSYN070AAXX  20034 48077 32960 10402 10230 20163 40152 80001 333 56009 58015;EQDQ01  00002PRCP99
0152480770999992000122006004+18790+095220FM-12+0060VBPR V0200401N000512200019N0100001N1+02901+01791101421ADDAA199000091GF101991001001999999001011MD1999999+0131REMSYN070AAXX  20064 48077 32960 10401 10290 20179 40142 80001 333 56009 58013;EQDQ01  00002PRCP99
0156480770999992000122009004+18790+095220FM-12+0060VBPR V0209999C000012200019N0110001N1+03281+01721101101ADDAA199000091GA1001+999999999GF100991001001999999001001MD1999999+0161REMSYN058AAXX  20094 48077 32961 00000 10328 20172 40110 333 58016;EQDQ01  00002PRCP99
0171480770999992000122012004+18790+095220FM-12+0060VBPR V0209999C000012200019N0060001N1+02671+01721101171ADDAA199000091GF101991001001999999001011KA1120M+03281MD1999999+0211REMSYN076AAXX  20124 48077 32956 10000 10267 20172 40117 80001 333 10328 56009 58021;EQDQ01  00002PRCP99
0191480770999992000122100004+18790+095220FM-12+0060VBPR V0200401N001012200019N0080001N1+01601+01551101381ADDAA199000091GA1001+999999999GF100991001001999999001001KA1120N+99999MD1999999+0081REMSYN064AAXX  21004 48077 32958 00402 10160 20155 40138 333 20174 58008;EQDQ01  00002PRCP99Q02 +01742ATMN  
0152480770999992000122103004+18790+095220FM-12+0060VBPR V0200401N000519999999N0100001N1+02301+01631101581ADDAA199000091GF105991001001999999001011MD1999999+0071REMSYN070AAXX  21034 48077 32960 50401 10230 20163 40158 80001 333 56009 58007;EQDQ01  00002PRCP99
0152480770999992000122106004+18790+095220FM-12+0060VBPR V0203201N000519999999N0110001N1+02901+01591101451ADDAA199000091GF106991001001999999031011MD1999999+0081REMSYN070AAXX  21064 48077 32961 63201 10290 20159 40145 80031 333 56099 58008;EQDQ01  00002PRCP99
0171480770999992000122112004+18790+095220FM-12+0060VBPR V0209999C000012200019N0060001N1+02601+01791101211ADDAA199000091GF102991001001999999001011KA1120M+03151MD1999999-0041REMSYN076AAXX  21124 48077 32956 20000 10260 20179 40121 80001 333 10315 56009 59004;EQDQ01  00002PRCP99
0171480770999992000122200004+18790+095220FM-12+0060VBPR V0200401N001012200019N0060001N1+01801+01551101341ADDAA199000091GF103991001001999999031011KA1120N+01751MD1999999-0051REMSYN076AAXX  22004 48077 32956 30402 10180 20155 40134 80031 333 20175 56099 59005;EQDQ01  00002PRCP99
0152480770999992000122203004+18790+095220FM-12+0060VBPR V0200401N001019999999N0100001N1+02251+01561101611ADDAA199000091GF105991001001999999031011MD1999999-0021REMSYN070AAXX  22034 48077 32960 50402 10225 20156 40161 80031 333 56099 59002;EQDQ01  00002PRCP99
0152480770999992000122206004+18790+095220FM-12+0060VBPR V0200401N000519999999N0110001N1+02501+01581101511ADDAA199000091GF108991001001999999031011MD1999999+0011REMSYN070AAXX  22064 48077 32961 80401 10250 20158 40151 80031 333 56009 58001;EQDQ01  00002PRCP99
0171480770999992000122212004+18790+095220FM-12+0060VBPR V0209999C000012200019N0060001N1+02621+01601101241ADDAA199000091GF102991001001999999031011KA1120M+03101MD1999999+0031REMSYN076AAXX  22124 48077 32956 20000 10262 20160 40124 80031 333 10310 56099 58003;EQDQ01  00002PRCP99
0175480770999992000122300004+18790+095220FM-12+0060VBPR V0200401N000512200019N0080001N1+01801+01581101401ADDAA199000091GA1001+999999999GF100991001001999999001001KA1120N+01791MD1999999+0061REMSYN064AAXX  23004 48077 32958 00401 10180 20158 40140 333 20179 58006;EQDQ01  00002PRCP99
0156480770999992000122306004+18790+095220FM-12+0060VBPR V0203601N001012200019N0110001N1+02141+01591101501ADDAA199000091GA1001+999999999GF100991001001999999001001MD1999999+0051REMSYN058AAXX  23064 48077 32961 03602 10214 20159 40150 333 58005;EQDQ01  00002PRCP99
0181480770999992000122312004+18790+095220FM-12+0060VBPR V0209999C000012200019N0060001N1+02801+01621101201ADDAA199000091GA1001+999999999GF100991001001999999001001KA1120M+03191MD1999999-0091REMSYN070AAXX  23124 48077 32956 00000 10280 20162 40120 333 10319 56000 59009;EQDQ01  00002PRCP99
0181480770999992000122400004+18790+095220FM-12+0060VBPR V0200401N001012200019N0060001N1+01841+01471101421ADDAA199000091GA1001+999999999GF100991001001999999001001KA1120N+01801MD1999999+0031REMSYN070AAXX  24004 48077 32956 00402 10184 20147 40142 333 20180 56000 58003;EQDQ01  00002PRCP99
0156480770999992000122403004+18790+095220FM-12+0060VBPR V0203601N001512200019N0100001N1+02201+01561101531ADDAA199000091GA1001+999999999GF100991001001999999001001MD1999999-0071REMSYN058AAXX  24034 48077 32960 03603 10220 20156 40153 333 59007;EQDQ01  00002PRCP99
0156480770999992000122406004+18790+095220FM-12+0060VBPR V0200401N001012200019N0110001N1+02901+01791101401ADDAA199000091GA1001+999999999GF100991001001999999001001MD1999999-0101REMSYN058AAXX  24064 48077 32961 00402 10290 20179 40140 333 59010;EQDQ01  00002PRCP99
0156480770999992000122409004+18790+095220FM-12+0060VBPR V0200401N000512200019N0110001N1+03121+01461101201ADDAA199000091GA1001+999999999GF100991001001999999001001MD1999999+0001REMSYN058AAXX  24094 48077 32961 00401 10312 20146 40120 333 58000;EQDQ01  00002PRCP99
0175480770999992000122412004+18790+095220FM-12+0060VBPR V0209999C000012200019N0060001N1+02701+01541101181ADDAA199000091GA1001+999999999GF100991001001999999001001KA1120M+03121MD1999999-0021REMSYN064AAXX  24124 48077 32956 00000 10270 20154 40118 333 10312 59002;EQDQ01  00002PRCP99
0171480770999992000122500004+18790+095220FM-12+0060VBPR V0200401N001012200019N0080001N1+01801+01551101361ADDAA199000091GF104991001001999999031011KA1120N+01791MD1999999-0071REMSYN076AAXX  25004 48077 32958 40402 10180 20155 40136 80031 333 20179 56099 59007;EQDQ01  00002PRCP99
0184480770999992000122503004+18790+095220FM-12+0060VBPR V0200401N000519999999N0100001N1+03302+01781101561ADDAA199000091GF106991999001999999041001MD1999999+0031REMSYN070AAXX  25034 48077 32960 60401 10330 20178 40156 80040 333 56090 58003;EQDQ01+000002SCOTLCQ02+003303ATOT  Q03  00002PRCP99
0156480770999992000122506004+18790+095220FM-12+0060VBPR V0200401N000512200019N0110001N1+02901+01591101461ADDAA199000091GA1001+999999999GF100991001001999999001001MD1999999+0061REMSYN058AAXX  25064 48077 32961 00401 10290 20159 40146 333 58006;EQDQ01  00002PRCP99
0171480770999992000122512004+18790+095220FM-12+0060VBPR V0209999C000012200019N0060001N1+02661+01721101231ADDAA199000091GF103991021021008001031001KA1120M+03201MD1999999-0051REMSYN076AAXX  25124 48077 32556 30000 10266 20172 40123 82230 333 10320 56890 59005;EQDQ01  00002PRCP99
0187480770999992000122600004+18790+095220FM-12+0060VBPR V0200401N000512200019N0060001N1+01851+01551101421ADDAA199000091GF101991999001999999031001KA1120N+01801MD1999999+0071REMSYN076AAXX  26004 48077 32956 10401 10185 20155 40142 80030 333 20180 56990 58007;EQDQ01+000002SCOTLCQ02  00002PRCP99
0156480770999992000122606004+18790+095220FM-12+0060VBPR V0200401N000512200019N0110001N1+02901+01791101481ADDAA199000091GA1001+999999999GF100991001001999999001001MD1999999+0011REMSYN058AAXX  26064 48077 32961 00401 10290 20179 40148 333 58001;EQDQ01  00002PRCP99
0171480770999992000122612004+18790+095220FM-12+0060VBPR V0209999C000012200019N0060001N1+02771+01841101241ADDAA199000091GF101991001001999999001011KA1120M+03251MD1999999+0071REMSYN076AAXX  26124 48077 32956 10000 10277 20184 40124 80001 333 10325 56009 58007;EQDQ01  00002PRCP99
0156480770999992000122706004+18790+095220FM-12+0060VBPR V0203601N000512200019N0150001N1+02901+01791101511ADDAA199000091GA1001+999999999GF100991001001999999001001MD1999999+0031REMSYN058AAXX  27064 48077 32965 03601 10290 20179 40151 333 58003;EQDQ01  00002PRCP99
0175480770999992000122712004+18790+095220FM-12+0060VBPR V0209999C000012200019N0060001N1+02621+01801101261ADDAA199000091GA1001+999999999GF100991001001999999001001KA1120M+03201MD1999999+0021REMSYN064AAXX  27124 48077 32956 00000 10262 20180 40126 333 10320 58002;EQDQ01  00002PRCP99
0175480770999992000122800004+18790+095220FM-12+0060VBPR V0200401N000512200019N0060001N1+01801+01551101401ADDAA199000091GA1001+999999999GF100991001001999999001001KA1120N+01751MD1999999-0051REMSYN064AAXX  28004 48077 32956 00401 10180 20155 40140 333 20175 59005;EQDQ01  00002PRCP99
0156480770999992000122803004+18790+095220FM-12+0060VBPR V0200401N001012200019N0100001N1+02201+01561101481ADDAA199000091GA1001+999999999GF100991001001999999001001MD1999999-0031REMSYN058AAXX  28034 48077 32960 00402 10220 20156 40148 333 59003;EQDQ01  00002PRCP99
0156480770999992000122806004+18790+095220FM-12+0060VBPR V0200401N000512200019N0110001N1+02901+01591101481ADDAA199000091GA1001+999999999GF100991001001999999001001MD1999999-0021REMSYN058AAXX  28064 48077 32961 00401 10290 20159 40148 333 59002;EQDQ01  00002PRCP99
0152480770999992000122809004+18790+095220FM-12+0060VBPR V0200401N000512200019N0090001N1+03201+01631101271ADDAA199000091GF102991021021008001001001MD1999999-0011REMSYN070AAXX  28094 48077 32559 20401 10320 20163 40127 82200 333 56900 59001;EQDQ01  00002PRCP99
0171480770999992000122812004+18790+095220FM-12+0060VBPR V0209999C000012200019N0060001N1+02581+01601101271ADDAA199000091GF101991001001999999001011KA1120M+03201MD1999999+0011REMSYN076AAXX  28124 48077 32956 10000 10258 20160 40127 80001 333 10320 56009 58001;EQDQ01  00002PRCP99
0156480770999992000122906004+18790+095220FM-12+0060VBPR V0200401N001012200019N0110001N1+02921+01591101391ADDAA199000091GA1001+999999999GF100991001001999999001001MD1999999-0101REMSYN058AAXX  29064 48077 32961 00402 10292 20159 40139 333 59010;EQDQ01  00002PRCP99
0156480770999992000122909004+18790+095220FM-12+0060VBPR V0200401N000512200019N0100001N1+03201+01681101111ADDAA199000091GA1001+999999999GF100991001001999999001001MD1999999-0171REMSYN058AAXX  29094 48077 32960 00401 10320 20168 40111 333 59017;EQDQ01  00002PRCP99
0175480770999992000122912004+18790+095220FM-12+0060VBPR V0209999C000012200019N9999999N1+02701+01541101111ADDAA199000091GA1001+999999999GF100991001001999999001001KA1120M+03041MD1999999-0161REMSYN064AAXX  29124 48077 32952 00000 10270 20154 40111 333 10304 59016;EQDQ01  00002PRCP99
0156480770999992000123006004+18790+095220FM-12+0060VBPR V0203601N000512200019N0110001N1+03001+01491101351ADDAA199000091GA1001+999999999GF100991001001999999001001MD1999999-0041REMSYN058AAXX  30064 48077 32961 03601 10300 20149 40135 333 59004;EQDQ01  00002PRCP99
0181480770999992000123012004+18790+095220FM-12+0060VBPR V0209999C000012200019N0080001N1+02611+01381101101ADDAA199000091GA1001+999999999GF100991001001999999001001KA1120M+03211MD1999999-0011REMSYN070AAXX  30124 48077 32958 00000 10261 20138 40110 333 10321 56000 59001;EQDQ01  00002PRCP99
0175480770999992000123100004+18790+095220FM-12+0060VBPR V0200401N000512200019N0060001N1+01701+01351101941ADDAA199000091GA1001+999999999GF100991001001999999001001KA1120N+01691MD1999999+0021REMSYN064AAXX  31004 48077 32956 00401 10170 20135 40194 333 20169 58002;EQDQ01  00002PRCP99
0156480770999992000123106004+18790+095220FM-12+0060VBPR V0200401N001012200019N0110001N1+02901+01591101401ADDAA199000091GA1001+999999999GF100991001001999999001001MD1999999+0051REMSYN058AAXX  31064 48077 32961 00402 10290 20159 40140 333 58005;EQDQ01  00002PRCP99
0184480770999992000123109004+18790+095220FM-12+0060VBPR V02099999999992200019N0060001N1+03201+01631101091ADDAA199000091AY121031AY221031GA1001+999999999GF100991001001999999001001MD1999999-0051MW1051REMSYN064AAXX  31094 48077 31956 04011 10320 20163 40109 70522 333 59005;EQDQ01  00002PRCP99
0175480770999992000123112004+18790+095220FM-12+0060VBPR V0200401N000512200019N0060001N1+02681+01521101061ADDAA199000091GA1001+999999999GF100991001001999999001001KA1120M+03221MD1999999-0041REMSYN064AAXX  31124 48077 32956 00401 10268 20152 40106 333 10322 59004;EQDQ01  00002PRCP99
