0224483520999992000010100004+17870+102720FM-12+0175VTUM V0209999C000012200019N0070001N1+01741+01531101461ADDAA106000091AY101061AY201061GA1001+999999999GF100991001001999999001001KA1120N+01701MA1999999099411MD1999999+0091MW1101REMSYN076AAXX  01004 48352 31957 00000 10174 20153 39941 40146 71000 333 20170 58009;EQDQ01  00002PRCP06
0205483520999992000010103004+17870+102720FM-12+0175VTUM V0200401N001012200019N0090001N1+02351+01611101551ADDAA106000091AY101031AY201031GA1001+999999999GF100991001001999999001001MA1999999099541MD1999999+0091MW1051REMSYN070AAXX  01034 48352 31959 00402 10235 20161 39954 40155 70500 333 58009;EQDQ01  00002PRCP06
0177483520999992000010106004+17870+102720FM-12+0175VTUM V0209999C000012200019N0120001N1+02881+01781101091ADDAA106000091GA1001+999999999GF100991001001999999001001MA1999999099121MD1999999-0081REMSYN064AAXX  01064 48352 32962 00000 10288 20178 39912 40109 333 59008;EQDQ01  00002PRCP06
0177483520999992000010109004+17870+102720FM-12+0175VTUM V0209999C000012200019N0140001N1+03041+01851100881ADDAA106000091GA1001+999999999GF100991001001999999001001MA1999999098931MD1999999-0101REMSYN064AAXX  01094 48352 32964 00000 10304 20185 39893 40088 333 59010;EQDQ01  00002PRCP06
0196483520999992000010112004+17870+102720FM-12+0175VTUM V0209999C000012200019N0120001N1+02461+01911101091ADDAA106000091GA1001+999999999GF100991001001999999001001KA1120M+03101MA1999999099101MD1999999-0061REMSYN070AAXX  01124 48352 32962 00000 10246 20191 39910 40109 333 10310 59006;EQDQ01  00002PRCP06
0177483520999992000010118004+17870+102720FM-12+0175VTUM V0209999C000012200019N0100001N1+02051+01721101371ADDAA106000091GA1001+999999999GF100991001001999999001001MA1999999099341MD1999999+0061REMSYN064AAXX  01184 48352 32960 00000 10205 20172 39934 40137 333 58006;EQDQ01  00002PRCP06
0177483520999992000010121004+17870+102720FM-12+0175VTUM V0209999C000012200019N0100001N1+01851+01651101341ADDAA106000091GA1001+999999999GF100991001001999999001001MA1999999099311MD1999999+0071REMSYN064AAXX  01214 48352 32960 00000 10185 20165 39931 40134 333 58007;EQDQ01  00002PRCP06
0214483520999992000010200004+17870+102720FM-12+0175VTUM V0209999C000012200019N0070001N1+01721+01641101501ADDAA106000091AY111061AY201061GF104991001001999999001061KA1120N+01651MA1999999099451MD1999999+0041MW1101REMSYN082AAXX  02004 48352 31957 40000 10172 20164 39945 40150 71010 80006 333 20165 58004;EQDQ01  00002PRCP06
0167483520999992000010203004+17870+102720FM-12+0175VTUM V0201301N001012200019N0120001N1+02361+01641101611ADDAA106000091GF102991001001999999001011MA1999999099611MD1999999+0061REMSYN070AAXX  02034 48352 32962 21302 10236 20164 39961 40161 80001 333 58006;EQDQ01  00002PRCP06
0177483520999992000010206004+17870+102720FM-12+0175VTUM V0200201N001512200019N0150001N1+02801+01691101251ADDAA106000091GA1001+999999999GF100991001001999999001001MA1999999099271MD1999999+0161REMSYN064AAXX  02064 48352 32965 00203 10280 20169 39927 40125 333 58016;EQDQ01  00002PRCP06
0167483520999992000010209004+17870+102720FM-12+0175VTUM V0200301N001512200019N0150001N1+02951+01581100991ADDAA106000091GF101991011011999999001011MA1999999099021MD1999999+0111REMSYN070AAXX  02094 48352 32965 10303 10295 20158 39902 40099 81101 333 58011;EQDQ01  00002PRCP06
0196483520999992000010212004+17870+102720FM-12+0175VTUM V0209999C000012200019N0130001N1+02371+01781101091ADDAA106000091GA1001+999999999GF100991001001999999001001KA1120M+03001MA1999999099161MD1999999+0071REMSYN070AAXX  02124 48352 32963 00000 10237 20178 39916 40109 333 10300 58007;EQDQ01  00002PRCP06
0177483520999992000010215004+17870+102720FM-12+0175VTUM V0209999C000012200019N0120001N1+02171+01641101371ADDAA106000091GA1001+999999999GF100991001001999999001001MA1999999099351MD1999999+0031REMSYN064AAXX  02154 48352 32962 00000 10217 20164 39935 40137 333 58003;EQDQ01  00002PRCP06
0177483520999992000010218004+17870+102720FM-12+0175VTUM V0209999C000012200019N0100001N1+01941+01621101381ADDAA106000091GA1001+999999999GF100991001001999999001001MA1999999099351MD1999999+0011REMSYN064AAXX  02184 48352 32960 00000 10194 20162 39935 40138 333 58001;EQDQ01  00002PRCP06
0177483520999992000010221004+17870+102720FM-12+0175VTUM V0209999C000012200019N0100001N1+01721+01581101321ADDAA106000091GA1001+999999999GF100991001001999999001001MA1999999099271MD1999999-0021REMSYN064AAXX  02214 48352 32960 00000 10172 20158 39927 40132 333 59002;EQDQ01  00002PRCP06
0214483520999992000010300004+17870+102720FM-12+0175VTUM V0209999C000012200019N0050001N1+01631+01531101431ADDAA106000091AY101061AY201061GF103991001001999999001051KA1120N+01601MA1999999099371MD1999999-0071MW1101REMSYN082AAXX  03004 48352 31950 30000 10163 20153 39937 40143 71000 80005 333 20160 59007;EQDQ01  00002PRCP06
0167483520999992000010303004+17870+102720FM-12+0175VTUM V0200201N001512200019N0100001N1+02321+01481101551ADDAA106000091GF103991001001999999001051MA1999999099541MD1999999-0061REMSYN070AAXX  03034 48352 32960 30203 10232 20148 39954 40155 80005 333 59006;EQDQ01  00002PRCP06
0167483520999992000010306004+17870+102720FM-12+0175VTUM V0209999C000012200019N0120001N1+02801+01681101201ADDAA106000091GF102991001001999999001051MA1999999099231MD1999999-0051REMSYN070AAXX  03064 48352 32962 20000 10280 20168 39923 40120 80005 333 59005;EQDQ01  00002PRCP06
0167483520999992000010309004+17870+102720FM-12+0175VTUM V0209999C000012200019N0120001N1+02971+01851100861ADDAA106000091GF102991001001999999001051MA1999999098911MD1999999-0131REMSYN070AAXX  03094 48352 32962 20000 10297 20185 39891 40086 80005 333 59013;EQDQ01  00002PRCP06
0196483520999992000010312004+17870+102720FM-12+0175VTUM V0209999C000012200019N0100001N1+02411+01841101031ADDAA106000091GA1001+999999999GF100991001001999999001001KA1120M+03021MA1999999099031MD1999999-0061REMSYN070AAXX  03124 48352 32960 00000 10241 20184 39903 40103 333 10302 59006;EQDQ01  00002PRCP06
0205483520999992000010315004+17870+102720FM-12+0175VTUM V0209999C000012200019N0090001N1+02101+01841101191ADDAA106000091AY101031AY201031GA1001+999999999GF100991001001999999001001MA1999999099161MD1999999-0181MW1101REMSYN070AAXX  03154 48352 31959 00000 10210 20184 39916 40119 71000 333 59018;EQDQ01  00002PRCP06
0205483520999992000010318004+17870+102720FM-12+0175VTUM V0209999C000012200019N0080001N1+01921+01811101181ADDAA106000091AY101061AY201061GA1001+999999999GF100991001001999999001001MA1999999099141MD1999999-0201MW1101REMSYN070AAXX  03184 48352 31958 00000 10192 20181 39914 40118 71000 333 59020;EQDQ01  00002PRCP06
0205483520999992000010321004+17870+102720FM-12+0175VTUM V0209999C000012200019N0070001N1+01831+01661101101ADDAA106000091AY101031AY201031GA1001+999999999GF100991001001999999001001MA1999999099051MD1999999-0221MW1101REMSYN070AAXX  03214 48352 31957 00000 10183 20166 39905 40110 71000 333 59022;EQDQ01  00002PRCP06
0224483520999992000010400004+17870+102720FM-12+0175VTUM V0209999C000012200019N0030001N1+01701+01601101251ADDAA106000091AY101061AY201061GA1001+999999999GF100991001001999999001001KA1120N+01671MA1999999099201MD1999999-0181MW1101REMSYN076AAXX  04004 48352 31930 00000 10170 20160 39920 40125 71000 333 20167 59018;EQDQ01  00002PRCP06
0195483520999992000010403004+17870+102720FM-12+0175VTUM V0209999C000012200019N0080001N1+02441+01931101391ADDAA106000091AY101031AY201031GF102991001001999999001051MA1999999099391MD1999999-0161MW1101REMSYN076AAXX  04034 48352 31958 20000 10244 20193 39939 40139 71000 80005 333 59016;EQDQ01  00002PRCP06
0177483520999992000010406004+17870+102720FM-12+0175VTUM V0209999C000012200019N0100001N1+02951+01871101081ADDAA106000091GA1001+999999999GF100991001001999999001001MA1999999099121MD1999999-0121REMSYN064AAXX  04064 48352 32960 00000 10295 20187 39912 40108 333 59012;EQDQ01  00002PRCP06
0177483520999992000010409004+17870+102720FM-12+0175VTUM V0209999C000012200019N0100001N1+03051+01841100821ADDAA106000091GA1001+999999999GF100991001001999999001001MA1999999098881MD1999999-0041REMSYN064AAXX  04094 48352 32960 00000 10305 20184 39888 40082 333 59004;EQDQ01  00002PRCP06
0196483520999992000010412004+17870+102720FM-12+0175VTUM V0209999C000012200019N0100001N1+02461+01901100991ADDAA106000091GA1001+999999999GF100991001001999999001001KA1120M+03141MA1999999099001MD1999999-0041REMSYN070AAXX  04124 48352 32960 00000 10246 20190 39900 40099 333 10314 59004;EQDQ01  00002PRCP06
0205483520999992000010415004+17870+102720FM-12+0175VTUM V0209999C000012200019N0070001N1+02001+01841101171ADDAA106000091AY101031AY201031GA1001+999999999GF100991001001999999001001MA1999999099141MD1999999-0011MW1101REMSYN070AAXX  04154 48352 31957 00000 10200 20184 39914 40117 71000 333 59001;EQDQ01  00002PRCP06
0205483520999992000010421004+17870+102720FM-12+0175VTUM V0209999C000012200019N0060001N1+01911+01801101111ADDAA106000091AY101031AY201031GA1001+999999999GF100991001001999999001001MA1999999099071MD1999999+0011MW1101REMSYN070AAXX  04214 48352 31956 00000 10191 20180 39907 40111 71000 333 58001;EQDQ01  00002PRCP06
0224483520999992000010500004+17870+102720FM-12+0175VTUM V0209999C000012200019N0030001N1+01821+01751101251ADDAA106000091AY101061AY201061GA1001+999999999GF100991001001999999001001KA1120N+01771MA1999999099201MD1999999+0001MW1101REMSYN076AAXX  05004 48352 31930 00000 10182 20175 39920 40125 71000 333 20177 58000;EQDQ01  00002PRCP06
0205483520999992000010503004+17870+102720FM-12+0175VTUM V0209999C000012200019N0080001N1+02571+01861101321ADDAA106000091AY101031AY201031GA1001+999999999GF100991001001999999001001MA1999999099331MD1999999-0071MW1101REMSYN070AAXX  05034 48352 31958 00000 10257 20186 39933 40132 71000 333 59007;EQDQ01  00002PRCP06
0167483520999992000010506004+17870+102720FM-12+0175VTUM V0200401N001012200019N0110001N1+03161+02051100951ADDAA106000091GF101991011011008001001001MA1999999099001MD1999999-0131REMSYN070AAXX  05064 48352 32561 10402 10316 20205 39900 40095 81100 333 59013;EQDQ01  00002PRCP06
0177483520999992000010509004+17870+102720FM-12+0175VTUM V0209999C000012200019N0120001N1+03231+02051100741ADDAA106000091GA1001+999999999GF100991001001999999001001MA1999999098801MD1999999-0081REMSYN064AAXX  05094 48352 32962 00000 10323 20205 39880 40074 333 59008;EQDQ01  00002PRCP06
0196483520999992000010512004+17870+102720FM-12+0175VTUM V0209999C000012200019N0110001N1+02611+02051100861ADDAA106000091GA1001+999999999GF100991001001999999001001KA1120M+03301MA1999999098891MD1999999-0131REMSYN070AAXX  05124 48352 32961 00000 10261 20205 39889 40086 333 10330 59013;EQDQ01  00002PRCP06
0177483520999992000010515004+17870+102720FM-12+0175VTUM V0209999C000012200019N0100001N1+02261+01931101031ADDAA106000091GA1001+999999999GF100991001001999999001001MA1999999099021MD1999999-0111REMSYN064AAXX  05154 48352 32960 00000 10226 20193 39902 40103 333 59011;EQDQ01  00002PRCP06
0205483520999992000010518004+17870+102720FM-12+0175VTUM V0209999C000012200019N0080001N1+02111+01941101071ADDAA106000091AY101061AY201061GA1001+999999999GF100991001001999999001001MA1999999099041MD1999999-0101MW1101REMSYN070AAXX  05184 48352 31958 00000 10211 20194 39904 40107 71000 333 59010;EQDQ01  00002PRCP06
0205483520999992000010521004+17870+102720FM-12+0175VTUM V0209999C000012200019N0070001N1+02021+01941100971ADDAA106000091AY101031AY201031GA1001+999999999GF100991001001999999001001MA1999999098951MD1999999-0141MW1101REMSYN070AAXX  05214 48352 31957 00000 10202 20194 39895 40097 71000 333 59014;EQDQ01  00002PRCP06
0177483520999992000010606004+17870+102720FM-12+0175VTUM V0203001N001012200019N0120001N1+03181+02091100901ADDAA106000091GA1001+999999999GF100991001001999999001001MA1999999098961MD1999999-0051REMSYN064AAXX  06064 48352 32962 03002 10318 20209 39896 40090 333 59005;EQDQ01  00002PRCP06
0167483520999992000010609004+17870+102720FM-12+0175VTUM V0209999C000012200019N0120001N1+03271+01951100681ADDAA106000091GF102991021011008001001001MA1999999098751MD1999999-0061REMSYN070AAXX  06094 48352 32562 20000 10327 20195 39875 40068 82100 333 59006;EQDQ01  00002PRCP06
0196483520999992000010612004+17870+102720FM-12+0175VTUM V0209999C000012200019N0110001N1+02651+02011100831ADDAA106000091GA1001+999999999GF100991001001999999001001KA1120M+03371MA1999999098861MD1999999-0031REMSYN070AAXX  06124 48352 32961 00000 10265 20201 39886 40083 333 10337 59003;EQDQ01  00002PRCP06
0205483520999992000010615004+17870+102720FM-12+0175VTUM V0209999C000012200019N0080001N1+02251+01941101051ADDAA106000091AY101031AY201031GA1001+999999999GF100991001001999999001001MA1999999099051MD1999999+0021MW1101REMSYN070AAXX  06154 48352 31958 00000 10225 20194 39905 40105 71000 333 58002;EQDQ01  00002PRCP06
0205483520999992000010621004+17870+102720FM-12+0175VTUM V0209999C000012200019N0060001N1+01981+01871101031ADDAA106000091AY101031AY201031GA1001+999999999GF100991001001999999001001MA1999999099001MD1999999+0061MW1101REMSYN070AAXX  06214 48352 31956 00000 10198 20187 39900 40103 71000 333 58006;EQDQ01  00002PRCP06
0214483520999992000010700004+17870+102720FM-12+0175VTUM V0209999C000012200019N0050001N1+01921+01811101131ADDAA106000091AY101061AY201061GF104991001001999999001061KA1120N+01901MA1999999099101MD1999999+0041MW1101REMSYN082AAXX  07004 48352 31950 40000 10192 20181 39910 40113 71000 80006 333 20190 58004;EQDQ01  00002PRCP06
0158483520999992000010703004+17870+102720FM-12+0175VTUM V0209999C000012200019N0070001N1+02681+01891999999ADDAA106000091GF103991999999999999999999MA1999999099271REMSYN075AAXX  07034 48352 31957 30000 10268 20189 39927 4025 70500 80006 333 58001;EQDQ01  00002PRCP06
0195483520999992000010706004+17870+102720FM-12+0175VTUM V0200401N001512200019N0080001N1+03171+01901100921ADDAA106000091AY101061AY201061GF105991011011008001001061MA1999999098981MD1999999+0021MW1051REMSYN076AAXX  07064 48352 31558 50403 10317 20190 39898 40092 70500 81106 333 58002;EQDQ01  00002PRCP06
0195483520999992000010709004+17870+102720FM-12+0175VTUM V0200501N001012200019N0080001N1+99999+99999100761ADDAA106000091AY121031AY211031GF105991021011008001001061MA1999999098831MD1999999+0081MW1051REMSYN076AAXX  07094 48352 31558 50502 1//// 20189 39883 40076 70521 82106 333 58008;EQDQ01  00002PRCP06
0214483520999992000010712004+17870+102720FM-12+0175VTUM V0209999C000012200019N0070001N1+02701+02051100891ADDAA106000091AY121061AY211061GF101991011011008001041001KA1120M+03321MA1999999098921MD1999999+0061MW1101REMSYN082AAXX  07124 48352 31557 10000 10270 20205 39892 40089 71021 81140 333 10332 58006;EQDQ01  00002PRCP06
0205483520999992000010715004+17870+102720FM-12+0175VTUM V0209999C000012200019N0060001N1+02541+02001101151ADDAA106000091AY101031AY201031GA1001+999999999GF100991001001999999001001MA1999999099151MD1999999+0101MW1101REMSYN070AAXX  07154 48352 31956 00000 10254 20200 39915 40115 71000 333 58010;EQDQ01  00002PRCP06
0194483520999992000010718004+17870+102720FM-12+0175VTUM V0209999C000010075019N0060001N1+02341+02101101231ADDAA102000591AY161061AY221061GF107991051051008001071061MA1999999099221MD1999999+0121MW1211REMSYN094AAXX  07184 48352 /1556 70000 10234 20210 39922 40123 69943 72162 85576 333 58012 69946 70004;
0201483520999992000010800004+17870+102720FM-12+0175VTUM V0209999C000010450019N0070001N1+02171+01981101221ADDAA106000021AY121061AY221061GF107991031051008001031061KA1120N+02161MA1999999099201MD1999999+0091MW1101REMSYN088AAXX  08004 48352 31557 70000 10217 20198 39920 40122 71022 83536 333 20216 58009 70004;
0167483520999992000010803004+17870+102720FM-12+0175VTUM V0200401N001512200019N0100001N1+02611+01981101371ADDAA106000091GF102991021051008001001001MA1999999099381MD1999999+0121REMSYN070AAXX  08034 48352 32560 20403 10261 20198 39938 40137 82500 333 58012;EQDQ01  00002PRCP06
0173483520999992000010806004+17870+102720FM-12+0175VTUM V0200501N001010450019N0100001N1+03021+01971100991ADDAA106000091GF106991021051008001031051MA1999999099041MD1999999+0071REMSYN076AAXX  08064 48352 32560 60502 10302 20197 39904 40099 82535 333 58007 70004;EQDQ01  00002PRCP06
0167483520999992000010809004+17870+102720FM-12+0175VTUM V0209999C000010450019N0100001N1+03071+02011100751ADDAA106000091GF106991021051008001031051MA1999999098811MD1999999-0011REMSYN070AAXX  08094 48352 32560 60000 10307 20201 39881 40075 82535 333 59001;EQDQ01  00002PRCP06
0220483520999992000010812004+17870+102720FM-12+0175VTUM V0209999C000010450019N0080001N1+02721+02091100851ADDAA106000091AY121061AY221061GF108991031051008001031061KA1120M+03151MA1999999098881MD1999999-0041MW1101REMSYN088AAXX  08124 48352 31558 80000 10272 20209 39888 40085 71022 83536 333 10315 59004 70004;EQDQ01  00002PRCP06
0211483520999992000010815004+17870+102720FM-12+0175VTUM V0209999C000012200019N0080001N1+02531+02061101081ADDAA106000091AY101031AY201031GA1001+999999999GF100991001001999999001001MA1999999099081MD1999999-0071MW1101REMSYN076AAXX  08154 48352 31958 00000 10253 20206 39908 40108 71000 8//// 333 59007;EQDQ01  00002PRCP06
0205483520999992000010818004+17870+102720FM-12+0175VTUM V0209999C000012200019N0070001N1+02441+02121101111ADDAA106000091AY101061AY201061GA1001+999999999GF100991001001999999001001MA1999999099101MD1999999-0121MW1101REMSYN070AAXX  08184 48352 31957 00000 10244 20212 39910 40111 71000 333 59012;EQDQ01  00002PRCP06
0195483520999992000010821004+17870+102720FM-12+0175VTUM V0209999C000010450019N0060001N1+02351+02121101041ADDAA106000091AY111031AY201031GF108991041051008001031051MA1999999099041MD1999999-0071MW1101REMSYN076AAXX  08214 48352 31556 80000 10235 20212 39904 40104 71010 84535 333 59007;EQDQ01  00002PRCP06
0214483520999992000010900004+17870+102720FM-12+0175VTUM V0209999C000010450019N0040001N1+02251+02051101161ADDAA106000091AY121061AY211061GF108991041051008001031061KA1120N+02211MA1999999099161MD1999999-0061MW1101REMSYN082AAXX  09004 48352 31540 80000 10225 20205 39916 40116 71021 84536 333 20221 59006;EQDQ01  00002PRCP06
0167483520999992000010909004+17870+102720FM-12+0175VTUM V0209999C000010450019N0100001N1+03221+02021100731ADDAA106000091GF106991041051008001031061MA1999999098791MD1999999-0021REMSYN070AAXX  09094 48352 32560 60000 10322 20202 39879 40073 84536 333 59002;EQDQ01  00002PRCP06
0214483520999992000010912004+17870+102720FM-12+0175VTUM V0209999C000012200019N0090001N1+02811+02451100851ADDAA106000091AY111061AY201061GF103991021051008001001051KA1120M+03321MA1999999098891MD1999999+0001MW1101REMSYN082AAXX  09124 48352 31559 30000 10281 20245 39889 40085 71010 82505 333 10332 58000;EQDQ01  00002PRCP06
0195483520999992000010915004+17870+102720FM-12+0175VTUM V0209999C000010450019N0080001N1+02551+02141101011ADDAA106000091AY121031AY211031GF106991041051008001031061MA1999999099021MD1999999-0071MW1101REMSYN076AAXX  09154 48352 31558 60000 10255 20214 39902 40101 71021 84536 333 59007;EQDQ01  00002PRCP06
0195483520999992000010918004+17870+102720FM-12+0175VTUM V0209999C000019999999N0070001N1+02421+02161101031ADDAA106000091AY111061AY211061GF105991001001999999001061MA1999999099021MD1999999-0081MW1101REMSYN076AAXX  09184 48352 31957 50000 10242 20216 39902 40103 71011 80006 333 59008;EQDQ01  00002PRCP06
0195483520999992000010921004+17870+102720FM-12+0175VTUM V0209999C000019999999N0060001N1+02321+02091100901ADDAA106000091AY121031AY221031GF106991001001999999001061MA1999999098901MD1999999-0141MW1101REMSYN076AAXX  09214 48352 31956 60000 10232 20209 39890 40090 71022 80006 333 59014;EQDQ01  00002PRCP06
0214483520999992000011000004+17870+102720FM-12+0175VTUM V0209999C000010450019N0060001N1+02291+02081101041ADDAA106000091AY121061AY221061GF107991031051008001031061KA1120N+02251MA1999999099031MD1999999-0121MW1101REMSYN082AAXX  10004 48352 31556 70000 10229 20208 39903 40104 71022 83536 333 20225 59012;EQDQ01  00002PRCP06
0177483520999992000011003004+17870+102720FM-12+0175VTUM V0200301N001012200019N0110001N1+02801+02081101191ADDAA106000091GA1001+999999999GF100991001001999999001001MA1999999099211MD1999999-0121REMSYN064AAXX  10034 48352 32961 00302 10280 20208 39921 40119 333 59012;EQDQ01  00002PRCP06
0167483520999992000011006004+17870+102720FM-12+0175VTUM V0209999C000012200019N0110001N1+03231+02151100911ADDAA106000091GF102991001001999999001051MA1999999098981MD1999999-0081REMSYN070AAXX  10064 48352 32961 20000 10323 20215 39898 40091 80005 333 59008;EQDQ01  00002PRCP06
0167483520999992000011009004+17870+102720FM-12+0175VTUM V0209999C000012200019N0100001N1+03391+01981100741ADDAA106000091GF102991021021008001001001MA1999999098821MD1999999+0011REMSYN070AAXX  10094 48352 32560 20000 10339 20198 39882 40074 82200 333 58001;EQDQ01  00002PRCP06
0224483520999992000011012004+17870+102720FM-12+0175VTUM V0209999C000012200019N0090001N1+02831+02111100851ADDAA106000091AY101061AY201061GA1001+999999999GF100991001001999999001001KA1120M+03421MA1999999098891MD1999999+0001MW1101REMSYN076AAXX  10124 48352 31959 00000 10283 20211 39889 40085 71000 333 10342 58000;EQDQ01  00002PRCP06
0205483520999992000011015004+17870+102720FM-12+0175VTUM V0209999C000012200019N0080001N1+02571+02171101011ADDAA106000091AY101031AY201031GA1001+999999999GF100991001001999999001001MA1999999099031MD1999999+0001MW1101REMSYN070AAXX  10154 48352 31958 00000 10257 20217 39903 40101 71000 333 58000;EQDQ01  00002PRCP06
0195483520999992000011018004+17870+102720FM-12+0175VTUM V0209999C000019999999N0070001N1+02401+02171101021ADDAA106000091AY111061AY201061GF106991001001999999001061MA1999999099021MD1999999-0011MW1101REMSYN076AAXX  10184 48352 31957 60000 10240 20217 39902 40102 71010 80006 333 59001;EQDQ01  00002PRCP06
0195483520999992000011021004+17870+102720FM-12+0175VTUM V0209999C000019999999N0060001N1+02321+02141100981ADDAA106000091AY121031AY221031GF105991001001999999001051MA1999999098981MD1999999+0081MW1101REMSYN076AAXX  10214 48352 31956 50000 10232 20214 39898 40098 71022 80005 333 58008;EQDQ01  00002PRCP06
0214483520999992000011100004+17870+102720FM-12+0175VTUM V0209999C000019999999N0050001N1+02241+02091101151ADDAA106000091AY121061AY221061GF106991001001999999001061KA1120N+02231MA1999999099131MD1999999+0111MW1101REMSYN082AAXX  11004 48352 31950 60000 10224 20209 39913 40115 71022 80006 333 20223 58011;EQDQ01  00002PRCP06
0195483520999992000011103004+17870+102720FM-12+0175VTUM V0209999C000012200019N0070001N1+02621+02141101271ADDAA106000091AY121031AY221031GF106991011011008001001061MA1999999099281MD1999999+0081MW1101REMSYN076AAXX  11034 48352 31557 60000 10262 20214 39928 40127 71022 81106 333 58008;EQDQ01  00002PRCP06
0195483520999992000011106004+17870+102720FM-12+0175VTUM V0209999C000012200019N0080001N1+03201+02131100911ADDAA106000091AY111061AY201061GF101991011011008001001001MA1999999098971MD1999999+0001MW1051REMSYN076AAXX  11064 48352 31558 10000 10320 20213 39897 40091 70510 81100 333 58000;EQDQ01  00002PRCP06
0195483520999992000011109004+17870+102720FM-12+0175VTUM V0209999C000012200019N0080001N1+03301+02131100701ADDAA106000091AY101031AY201031GF101991011011008001001001MA1999999098771MD1999999-0041MW1051REMSYN076AAXX  11094 48352 31558 10000 10330 20213 39877 40070 70500 81100 333 59004;EQDQ01  00002PRCP06
0224483520999992000011112004+17870+102720FM-12+0175VTUM V0209999C000012200019N0070001N1+02821+02201100801ADDAA106000091AY101061AY201061GA1001+999999999GF100991001001999999001001KA1120M+03381MA1999999098841MD1999999-0051MW1101REMSYN076AAXX  11124 48352 31957 00000 10282 20220 39884 40080 71000 333 10338 59005;EQDQ01  00002PRCP06
0205483520999992000011115004+17870+102720FM-12+0175VTUM V0209999C000012200019N0060001N1+02501+02171100961ADDAA106000091AY101031AY201031GA1001+999999999GF100991001001999999001001MA1999999098981MD1999999-0051MW1101REMSYN070AAXX  11154 48352 31956 00000 10250 20217 39898 40096 71000 333 59005;EQDQ01  00002PRCP06
0205483520999992000011118004+17870+102720FM-12+0175VTUM V0209999C000012200019N0050001N1+02331+02161100971ADDAA106000091AY101061AY201061GA1001+999999999GF100991001001999999001001MA1999999098981MD1999999-0051MW1101REMSYN070AAXX  11184 48352 31950 00000 10233 20216 39898 40097 71000 333 59005;EQDQ01  00002PRCP06
0205483520999992000011121004+17870+102720FM-12+0175VTUM V0209999C000012200019N0040001N1+02171+02061100911ADDAA106000091AY101031AY201031GA1001+999999999GF100991001001999999001001MA1999999098911MD1999999-0071MW1101REMSYN070AAXX  11214 48352 31940 00000 10217 20206 39891 40091 71000 333 59007;EQDQ01  00002PRCP06
0214483520999992000011200004+17870+102720FM-12+0175VTUM V0209999C000010450019N0030001N1+02101+01971101071ADDAA106000091AY121061AY201061GF108991041051008001071061KA1120N+02071MA1999999099041MD1999999-0081MW1101REMSYN082AAXX  12004 48352 31530 80000 10210 20197 39904 40107 71020 84576 333 20207 59008;EQDQ01  00002PRCP06
0205483520999992000011203004+17870+102720FM-12+0175VTUM V0209999C000012200019N0080001N1+02661+01981101241ADDAA106000091AY111031AY201031GA1001+999999999GF100991001001999999001001MA1999999099261MD1999999-0031MW1101REMSYN070AAXX  12034 48352 31958 00000 10266 20198 39926 40124 71010 333 59003;EQDQ01  00002PRCP06
0195483520999992000011206004+17870+102720FM-12+0175VTUM V0209999C000012200019N0080001N1+03271+01931100891ADDAA106000091AY111061AY201061GF101991011021008001001001MA1999999098961MD1999999-0021MW1051REMSYN076AAXX  12064 48352 31558 10000 10327 20193 39896 40089 70510 81200 333 59002;EQDQ01  00002PRCP06
0195483520999992000011209004+17870+102720FM-12+0175VTUM V0209999C000012200019N0080001N1+03321+01941100681ADDAA106000091AY101031AY201031GF102991021011008001001001MA1999999098751MD1999999-0021MW1051REMSYN076AAXX  12094 48352 31558 20000 10332 20194 39875 40068 70500 82100 333 59002;EQDQ01  00002PRCP06
0224483520999992000011212004+17870+102720FM-12+0175VTUM V0209999C000012200019N0070001N1+02871+02051100771ADDAA106000091AY101061AY201061GA1001+999999999GF100991001001999999001001KA1120M+03451MA1999999098811MD1999999-0071MW1151REMSYN076AAXX  12124 48352 31957 00000 10287 20205 39881 40077 71500 333 10345 59007;EQDQ01  00002PRCP06
0205483520999992000011215004+17870+102720FM-12+0175VTUM V0209999C000012200019N0060001N1+02371+01871100961ADDAA106000091AY101031AY201031GA1001+999999999GF100991001001999999001001MA1999999098971MD1999999+0001MW1101REMSYN070AAXX  12154 48352 31956 00000 10237 20187 39897 40096 71000 333 58000;EQDQ01  00002PRCP06
0205483520999992000011218004+17870+102720FM-12+0175VTUM V0209999C000012200019N0050001N1+02211+01781100941ADDAA106000091AY101061AY201061GA1001+999999999GF100991001001999999001001MA1999999098941MD1999999-0031MW1101REMSYN070AAXX  12184 48352 31950 00000 10221 20178 39894 40094 71000 333 59003;EQDQ01  00002PRCP06
0205483520999992000011221004+17870+102720FM-12+0175VTUM V0209999C000012200019N0050001N1+02051+01721100891ADDAA106000091AY101031AY201031GA1001+999999999GF100991001001999999001001MA1999999098881MD1999999-0021MW1101REMSYN070AAXX  12214 48352 31950 00000 10205 20172 39888 40089 71000 333 59002;EQDQ01  00002PRCP06
0214483520999992000011300004+17870+102720FM-12+0175VTUM V0209999C000012200019N0050001N1+01841+01661101041ADDAA106000091AY101061AY201061GF101991011011008001001001KA1120N+01821MA1999999098991MD1999999-0031MW1101REMSYN082AAXX  13004 48352 31550 10000 10184 20166 39899 40104 71000 81100 333 20182 59003;EQDQ01  00002PRCP06
0195483520999992000011303004+17870+102720FM-12+0175VTUM V0209999C000012200019N0080001N1+02571+01761101161ADDAA106000091AY101031AY201031GF101991011011008001001001MA1999999099171MD1999999-0081MW1051REMSYN076AAXX  13034 48352 31558 10000 10257 20176 39917 40116 70500 81100 333 59008;EQDQ01  00002PRCP06
0195483520999992000011306004+17870+102720FM-12+0175VTUM V0209999C000012200019N0080001N1+03231+01611100801ADDAA106000091AY101061AY201061GF101991011011008001001001MA1999999098861MD1999999-0091MW1051REMSYN076AAXX  13064 48352 31558 10000 10323 20161 39886 40080 70500 81100 333 59009;EQDQ01  00002PRCP06
0205483520999992000011309004+17870+102720FM-12+0175VTUM V0209999C000012200019N0080001N1+03351+01271100561ADDAA106000091AY101031AY201031GA1001+999999999GF100991001001999999001001MA1999999098641MD1999999-0121MW1051REMSYN070AAXX  13094 48352 31958 00000 10335 20127 39864 40056 70500 333 59012;EQDQ01  00002PRCP06
0224483520999992000011312004+17870+102720FM-12+0175VTUM V0209999C000012200019N0070001N1+02601+01381100711ADDAA106000091AY101061AY201061GA1001+999999999GF100991001001999999001001KA1120M+03441MA1999999098731MD1999999-0061MW1051REMSYN076AAXX  13124 48352 31957 00000 10260 20138 39873 40071 70500 333 10344 59006;EQDQ01  00002PRCP06
0205483520999992000011315004+17870+102720FM-12+0175VTUM V0209999C000012200019N0060001N1+02071+01381100871ADDAA106000091AY101031AY201031GA1001+999999999GF100991001001999999001001MA1999999098861MD1999999-0091MW1101REMSYN070AAXX  13154 48352 31956 00000 10207 20138 39886 40087 71000 333 59009;EQDQ01  00002PRCP06
0205483520999992000011318004+17870+102720FM-12+0175VTUM V0209999C000012200019N0050001N1+01901+01531100901ADDAA106000091AY101061AY201061GA1001+999999999GF100991001001999999001001MA1999999098871MD1999999-0041MW1101REMSYN070AAXX  13184 48352 31950 00000 10190 20153 39887 40090 71000 333 59004;EQDQ01  00002PRCP06
0228483520999992000011321004+17870+102720FM-12+017599999V0209999C000012200019N0040001N1+01551+01371100991ADDAA199000091AY101031AY201031GA1001+999999999GF100991001001999999001001KA1120N+01501MA1999999098951MD1999999-0051MW1101REMSYN080    AAXX  13214 48352 31940 00000 10155 20137 39895 40099 71000 333 20150 59005;EQDQ01  00002PRCP99
0209483520999992000011403004+17870+102720FM-12+017599999V0209999C000012200019N0070001N1+02381+01591101141ADDAA199000091AY101031AY201031GA1001+999999999GF100991001001999999001001MA1999999099141MD1999999-0021MW1051REMSYN074    AAXX  14034 48352 31957 00000 10238 20159 39914 40114 70500 333 59002;EQDQ01  00002PRCP99
0181483520999992000011406004+17870+102720FM-12+017599999V0209999C000012200019N0100001N1+03121+01451100831ADDAA199000091GA1001+999999999GF100991001001999999001001MA1999999098891MD1999999+0031REMSYN068    AAXX  14064 48352 32960 00000 10312 20145 39889 40083 333 58003;EQDQ01  00002PRCP99
0181483520999992000011409004+17870+102720FM-12+017599999V0209999C000012200019N0150001N1+03331+00921100551ADDAA199000091GA1001+999999999GF100991001001999999001001MA1999999098621MD1999999-0011REMSYN068    AAXX  14094 48352 32965 00000 10333 20092 39862 40055 333 59001;EQDQ01  00002PRCP99
0200483520999992000011412004+17870+102720FM-12+017599999V0209999C000012200019N0120001N1+02551+01461100661ADDAA199000091GA1001+999999999GF100991001001999999001001KA1120M+03391MA1999999098691MD1999999-0051REMSYN074    AAXX  14124 48352 32962 00000 10255 20146 39869 40066 333 10339 59005;EQDQ01  00002PRCP99
0181483520999992000011415004+17870+102720FM-12+017599999V0209999C000012200019N0110001N1+02101+01411100881ADDAA199000091GA1001+999999999GF100991001001999999001001MA1999999098871MD1999999+0011REMSYN068    AAXX  14154 48352 32961 00000 10210 20141 39887 40088 333 58001;EQDQ01  00002PRCP99
0209483520999992000011421004+17870+102720FM-12+017599999V0209999C000012200019N0080001N1+01911+01461100841ADDAA199000091AY101031AY201031GA1001+999999999GF100991001001999999001001MA1999999098821MD1999999+0021MW1101REMSYN074    AAXX  14214 48352 31958 00000 10191 20146 39882 40084 71000 333 58002;EQDQ01  00002PRCP99
0209483520999992000011503004+17870+102720FM-12+017599999V0209999C000012200019N0080001N1+02541+01551101261ADDAA199000091AY101031AY201031GA1001+999999999GF100991001001999999001001MA1999999099261MD1999999+0121MW1051REMSYN074    AAXX  15034 48352 31958 00000 10254 20155 39926 40126 70500 333 58012;EQDQ01  00002PRCP99
0181483520999992000011506004+17870+102720FM-12+017599999V0209999C000012200019N0100001N1+03111+01371100911ADDAA199000091GA1001+999999999GF100991001001999999001001MA1999999098971MD1999999+0081REMSYN068    AAXX  15064 48352 32960 00000 10311 20137 39897 40091 333 58008;EQDQ01  00002PRCP99
0181483520999992000011509004+17870+102720FM-12+017599999V0209999C000012200019N0120001N1+03301+01211100681ADDAA199000091GA1001+999999999GF100991001001999999001001MA1999999098751MD1999999+0131REMSYN068    AAXX  15094 48352 32962 00000 10330 20121 39875 40068 333 58013;EQDQ01  00002PRCP99
0200483520999992000011512004+17870+102720FM-12+017599999V0209999C000012200019N0120001N1+02601+01451100831ADDAA199000091GA1001+999999999GF100991001001999999001001KA1120M+03391MA1999999098861MD1999999+0171REMSYN074    AAXX  15124 48352 32962 00000 10260 20145 39886 40083 333 10339 58017;EQDQ01  00002PRCP99
0181483520999992000011515004+17870+102720FM-12+017599999V0209999C000012200019N0110001N1+02131+01471101071ADDAA199000091GA1001+999999999GF100991001001999999001001MA1999999099051MD1999999+0191REMSYN068    AAXX  15154 48352 32961 00000 10213 20147 39905 40107 333 58019;EQDQ01  00002PRCP99
0228483520999992000011600004+17870+102720FM-12+017599999V0209999C000012200019N0060001N1+01641+01431101081ADDAA199000091AY101061AY201061GA1001+999999999GF100991001001999999001001KA1120N+01601MA1999999099191MD1999999+0161MW1101REMSYN080    AAXX  16004 48352 31956 00000 10164 20143 39919 40108 71000 333 20160 58016;EQDQ01  00002PRCP99
0209483520999992000011603004+17870+102720FM-12+017599999V0209999C000012200019N0080001N1+02411+01491101401ADDAA199000091AY101031AY201031GA1001+999999999GF100991001001999999001001MA1999999099391MD1999999+0141MW1051REMSYN074    AAXX  16034 48352 31958 00000 10241 20149 39939 40140 70500 333 58014;EQDQ01  00002PRCP99
0209483520999992000011606004+17870+102720FM-12+017599999V0209999C000012200019N0090001N1+03171+01301100991ADDAA199000091AY101061AY201061GA1001+999999999GF100991001001999999001001MA1999999099041MD1999999+0081MW1051REMSYN074    AAXX  16064 48352 31959 00000 10317 20130 39904 40099 70500 333 58008;EQDQ01  00002PRCP99
0209483520999992000011609004+17870+102720FM-12+017599999V0209999C000012200019N0080001N1+03301+01211100741ADDAA199000091AY101031AY201031GA1001+999999999GF100991001001999999001001MA1999999098811MD1999999+0061MW1051REMSYN074    AAXX  16094 48352 31958 00000 10330 20121 39881 40074 70500 333 58006;EQDQ01  00002PRCP99
0228483520999992000011612004+17870+102720FM-12+017599999V0209999C000012200019N0070001N1+02451+01381100921ADDAA199000091AY101061AY201061GA1001+999999999GF100991001001999999001001KA1120M+03391MA1999999098931MD1999999+0091MW1051REMSYN080    AAXX  16124 48352 31957 00000 10245 20138 39893 40092 70500 333 10339 58009;EQDQ01  00002PRCP99
0209483520999992000011615004+17870+102720FM-12+017599999V0209999C000012200019N0060001N1+02001+01371101151ADDAA199000091AY101031AY201031GA1001+999999999GF100991001001999999001001MA1999999099121MD1999999+0081MW1101REMSYN074    AAXX  16154 48352 31956 00000 10200 20137 39912 40115 71000 333 58008;EQDQ01  00002PRCP99
0209483520999992000011618004+17870+102720FM-12+017599999V0209999C000012200019N0060001N1+01941+01441101151ADDAA199000091AY101061AY201061GA1001+999999999GF100991001001999999001001MA1999999099111MD1999999+0061MW1101REMSYN074    AAXX  16184 48352 31956 00000 10194 20144 39911 40115 71000 333 58006;EQDQ01  00002PRCP99
0209483520999992000011621004+17870+102720FM-12+017599999V0209999C000012200019N0050001N1+01761+01451101081ADDAA199000091AY101031AY201031GA1001+999999999GF100991001001999999001001MA1999999099041MD1999999+0031MW1101REMSYN074    AAXX  16214 48352 31950 00000 10176 20145 39904 40108 71000 333 58003;EQDQ01  00002PRCP99
0218483520999992000011700004+17870+102720FM-12+017599999V0209999C000019999999N0050001N1+01671+01461101261ADDAA199000091AY101061AY201061GF106991001001999999001061KA1120N+01651MA1999999099211MD1999999+0181MW1101REMSYN086    AAXX  17004 48352 31950 60000 10167 20146 39921 40126 71000 80006 333 20165 58018;EQDQ01  00002PRCP99
0209483520999992000011703004+17870+102720FM-12+017599999V0209999C000012200019N0080001N1+02411+01491101401ADDAA199000091AY101031AY201031GA1001+999999999GF100991001001999999001001MA1999999099391MD1999999+0141MW1051REMSYN074    AAXX  17034 48352 31958 00000 10241 20149 39939 40140 70500 333 58014;EQDQ01  00002PRCP99
0199483520999992000011706004+17870+102720FM-12+017599999V0209999C000012200019N0090001N1+03121+01251101101ADDAA199000091AY111061AY201061GF101991011011008001001001MA1999999099141MD1999999+0111MW1051REMSYN080    AAXX  17064 48352 31559 10000 10312 20125 39914 40110 70510 81100 333 58011;EQDQ01  00002PRCP99
0199483520999992000011709004+17870+102720FM-12+017599999V0209999C000012200019N0090001N1+03261+01251100871ADDAA199000091AY101031AY201031GF101991011011008001001001MA1999999098941MD1999999+0131MW1051REMSYN080    AAXX  17094 48352 31559 10000 10326 20125 39894 40087 70500 81100 333 58013;EQDQ01  00002PRCP99
0228483520999992000011712004+17870+102720FM-12+017599999V0209999C000012200019N0080001N1+02551+01581101011ADDAA199000091AY101061AY201061GA1001+999999999GF100991001001999999001001KA1120M+03361MA1999999099021MD1999999+0091MW1051REMSYN080    AAXX  17124 48352 31958 00000 10255 20158 39902 40101 70500 333 10336 58009;EQDQ01  00002PRCP99
0209483520999992000011715004+17870+102720FM-12+017599999V0209999C000012200019N0070001N1+02151+01601101181ADDAA199000091AY101031AY201031GA1001+999999999GF100991001001999999001001MA1999999099161MD1999999+0031MW1101REMSYN074    AAXX  17154 48352 31957 00000 10215 20160 39916 40118 71000 333 58003;EQDQ01  00002PRCP99
0209483520999992000011718004+17870+102720FM-12+017599999V0209999C000012200019N0060001N1+02111+01591101211ADDAA199000091AY101061AY201061GA1001+999999999GF100991001001999999001001MA1999999099211MD1999999+0061MW1101REMSYN074    AAXX  17184 48352 31956 00000 10211 20159 39921 40121 71000 333 58006;EQDQ01  00002PRCP99
0228483520999992000011721004+17870+102720FM-12+017599999V0209999C000012200019N0050001N1+01901+01681101471ADDAA199000091AY101031AY201031GA1001+999999999GF100991001001999999001001KA1120N+01871MA1999999099431MD1999999+0211MW1101REMSYN080    AAXX  17214 48352 31950 00000 10190 20168 39943 40147 71000 333 20187 58021;EQDQ01  00002PRCP99
0209483520999992000011803004+17870+102720FM-12+017599999V0200901N001512200019N0080001N1+02391+01771101641ADDAA199000091AY101031AY201031GA1001+999999999GF100991001001999999001001MA1999999099641MD1999999+0241MW1101REMSYN074    AAXX  18034 48352 31958 00903 10239 20177 39964 40164 71000 333 58024;EQDQ01  00002PRCP99
0199483520999992000011806004+17870+102720FM-12+017599999V0201301N002612200019N0090001N1+02811+01691101311ADDAA199000091AY101061AY201061GF101991011011008001001001MA1999999099331MD1999999+0211MW1051REMSYN080    AAXX  18064 48352 31559 11305 10281 20169 39933 40131 70500 81100 333 58021;EQDQ01  00002PRCP99
0199483520999992000011809004+17870+102720FM-12+017599999V0209999C000012200019N0090001N1+02951+01581101461ADDAA199000091AY101031AY201031GF103991031011008001001001MA1999999099101MD1999999+0191MW1051REMSYN080    AAXX  18094 48352 31559 30000 10295 20158 39910 40146 70500 83100 333 58019;EQDQ01  00002PRCP99
0218483520999992000011812004+17870+102720FM-12+017599999V0209999C000010450019N0080001N1+02661+01771101171ADDAA199000091AY121061AY201061GF108991041051008001031061KA1120M+03011MA1999999099191MD1999999+0161MW1051REMSYN086    AAXX  18124 48352 31558 80000 10266 20177 39919 40117 70520 84536 333 10301 58016;EQDQ01  00002PRCP99
0199483520999992000011815004+17870+102720FM-12+017599999V0200801N002612200019N0070001N1+02451+01631101391ADDAA199000091AY121031AY221031GF106991031051008001001061MA1999999099401MD1999999+0211MW1051REMSYN080    AAXX  18154 48352 31557 60805 10245 20163 39940 40139 70522 83506 333 58021;EQDQ01  00002PRCP99
0199483520999992000011818004+17870+102720FM-12+017599999V0201001N002612200019N0060001N1+02051+01351101561ADDAA199000091AY121061AY211061GF104991021051008001001051MA1999999099541MD1999999+0351MW1051REMSYN080    AAXX  18184 48352 31556 41005 10205 20135 39954 40156 70521 82505 333 58035;EQDQ01  00002PRCP99
0209483520999992000011821004+17870+102720FM-12+017599999V0209999C000012200019N0050001N1+01801+01261101531ADDAA199000091AY101031AY201031GA1001+999999999GF100991001001999999001001MA1999999099481MD1999999+0311MW1101REMSYN074    AAXX  18214 48352 31950 00000 10180 20126 39948 40153 71000 333 58031;EQDQ01  00002PRCP99
0218483520999992000011900004+17870+102720FM-12+017599999V0209999C000011050019N0050001N1+01701+01151101691ADDAA199000091AY121061AY211061GF108991041051008001001061KA1120N+01681MA1999999099641MD1999999+0221MW1101REMSYN086    AAXX  19004 48352 31550 80000 10170 20115 39964 40169 71021 84506 333 20168 58022;EQDQ01  00002PRCP99
0199483520999992000011903004+17870+102720FM-12+017599999V0200701N001510450019N0070001N1+01941+01241101891ADDAA199000091AY121031AY221031GF108991041051008001031061MA1999999099831MD1999999+0251MW1051REMSYN080    AAXX  19034 48352 31557 80703 10194 20124 39983 40189 70522 84536 333 58025;EQDQ01  00002PRCP99
0199483520999992000011906004+17870+102720FM-12+017599999V0200601N001510450019N0080001N1+02371+01211101581ADDAA199000091AY121061AY221061GF108991041051008001071061MA1999999099581MD1999999+0271MW1051REMSYN080    AAXX  19064 48352 31558 80603 10237 20121 39958 40158 70522 84576 333 58027;EQDQ01  00002PRCP99
0199483520999992000011909004+17870+102720FM-12+017599999V0201501N001510450019N0070001N1+02501+01301101331ADDAA199000091AY121031AY221031GF108991041051008001031061MA1999999099341MD1999999+0271MW1051REMSYN080    AAXX  19094 48352 31557 81503 10250 20130 39934 40133 70522 84536 333 58027;EQDQ01  00002PRCP99
0218483520999992000011912004+17870+102720FM-12+017599999V0200301N001010075019N0070001N1+02271+01401101451ADDAA199000091AY121061AY221061GF108991051051008001031061KA1120M+02571MA1999999099441MD1999999+0281MW1051REMSYN086    AAXX  19124 48352 31557 80302 10227 20140 39944 40145 70522 85536 333 10257 58028;EQDQ01  00002PRCP99
0195483520999992000011915004+17870+102720FM-12+0175VTUM V0209999C000010450019N0060001N1+02061+01401101621ADDAA199000091AY121031AY221031GF107991041051008001031061MA1999999099591MD1999999+0231MW1101REMSYN076AAXX  19154 48352 31556 70000 10206 20140 39959 40162 71022 84536 333 58023;EQDQ01  00002PRCP99
0195483520999992000011918004+17870+102720FM-12+0175VTUM V0209999C000010450019N0060001N1+01811+01211101751ADDAA199000091AY121061AY221061GF107991041051008001031061MA1999999099691MD1999999+0191MW1101REMSYN076AAXX  19184 48352 31556 70000 10181 20121 39969 40175 71022 84536 333 58019;EQDQ01  00002PRCP99
0195483520999992000011921004+17870+102720FM-12+0175VTUM V0209999C000012200019N0050001N1+01601+01141101671ADDAA199000091AY121031AY221031GF104991021051008001001061MA1999999099611MD1999999+0141MW1101REMSYN076AAXX  19214 48352 31550 40000 10160 20114 39961 40167 71022 82506 333 58014;EQDQ01  00002PRCP99
0214483520999992000012000004+17870+102720FM-12+0175VTUM V0209999C000010450019N0030001N1+01551+01101101831ADDAA199000091AY121061AY221061GF108991041051008001071061KA1120N+01521MA1999999099751MD1999999+0141MW1101REMSYN082AAXX  20004 48352 31530 80000 10155 20110 39975 40183 71022 84576 333 20152 58014;EQDQ01  00002PRCP99
0195483520999992000012003004+17870+102720FM-12+0175VTUM V0209999C000010450019N0070001N1+01831+01071101941ADDAA199000091AY121031AY221031GF106991041051008001031051MA1999999099881MD1999999+0051MW1051REMSYN076AAXX  20034 48352 31557 60000 10183 20107 39988 40194 70522 84535 333 58005;EQDQ01  00002PRCP99
0195483520999992000012006004+17870+102720FM-12+0175VTUM V0209999C000010450019N0070001N1+02271+01171101631ADDAA199000091AY121061AY221061GF106991041051008001031061MA1999999099621MD1999999+0051MW1051REMSYN076AAXX  20064 48352 31557 60000 10227 20117 39962 40163 70522 84536 333 58005;EQDQ01  00002PRCP99
0195483520999992000012009004+17870+102720FM-12+0175VTUM V0203601N001510450019N0080001N1+02351+01161101391ADDAA199000091AY121031AY221031GF106991031051008001031061MA1999999099391MD1999999+0061MW1051REMSYN076AAXX  20094 48352 31558 63603 10235 20116 39939 40139 70522 83536 333 58006;EQDQ01  00002PRCP99
0214483520999992000012012004+17870+102720FM-12+0175VTUM V0209999C000010450019N0070001N1+02151+01371101571ADDAA199000091AY121061AY221061GF107991041051008001031061KA1120M+02431MA1999999099561MD1999999+0121MW1051REMSYN082AAXX  20124 48352 31557 70000 10215 20137 39956 40157 70522 84536 333 10243 58012;EQDQ01  00002PRCP99
0195483520999992000012015004+17870+102720FM-12+0175VTUM V0209999C000010450019N0060001N1+01951+01431101781ADDAA199000091AY121031AY221031GF107991041051008001031061MA1999999099741MD1999999+0161MW1101REMSYN076AAXX  20154 48352 31556 70000 10195 20143 39974 40178 71022 84536 333 58016;EQDQ01  00002PRCP99
0195483520999992000012018004+17870+102720FM-12+0175VTUM V0209999C000010075019N0060001N1+01851+01421101821ADDAA199000091AY121061AY221061GF108991051051008001031061MA1999999099771MD1999999+0071MW1101REMSYN076AAXX  20184 48352 31556 80000 10185 20142 39977 40182 71022 85536 333 58007;EQDQ01  00002PRCP99
0195483520999992000012021004+17870+102720FM-12+0175VTUM V0209999C000010450019N0060001N1+01721+01391101811ADDAA199000091AY121031AY221031GF106991021051008001031051MA1999999099741MD1999999+0141MW1101REMSYN076AAXX  20214 48352 31556 60000 10172 20139 39974 40181 71022 82535 333 58014;EQDQ01  00002PRCP99
0214483520999992000012100004+17870+102720FM-12+0175VTUM V0209999C000012200019N0050001N1+01571+01391101911ADDAA199000091AY121061AY221061GF106991041051008001001061KA1120N+01551MA1999999099841MD1999999+0081MW1101REMSYN082AAXX  21004 48352 31550 60000 10157 20139 39984 40191 71022 84506 333 20155 58008;EQDQ01  00002PRCP99
0195483520999992000012103004+17870+102720FM-12+0175VTUM V0209999C000010450019N0070001N1+02021+01381102081ADDAA199000091AY121031AY221031GF106991041051008001031061MA1999999100041MD1999999+0141MW1101REMSYN076AAXX  21034 48352 31557 60000 10202 20138 30004 40208 71022 84536 333 58014;EQDQ01  00002PRCP99
0195483520999992000012106004+17870+102720FM-12+0175VTUM V0200601N001510450019N0090001N1+02571+01341101771ADDAA199000091AY121061AY221061GF106991031051008001031061MA1999999099771MD1999999+0141MW1051REMSYN076AAXX  21064 48352 31559 60603 10257 20134 39977 40177 70522 83536 333 58014;EQDQ01  00002PRCP99
0195483520999992000012109004+17870+102720FM-12+0175VTUM V0200701N001012200019N0090001N1+02681+01471101461ADDAA199000091AY121031AY211031GF103991021051008001001051MA1999999099481MD1999999+0071MW1051REMSYN076AAXX  21094 48352 31559 30702 10268 20147 39948 40146 70521 82505 333 58007;EQDQ01  00002PRCP99
0214483520999992000012112004+17870+102720FM-12+0175VTUM V0209999C000012200019N0070001N1+02301+01591101571ADDAA199000091AY111061AY201061GF105991031051008001001061KA1120M+02731MA1999999099561MD1999999+0001MW1051REMSYN082AAXX  21124 48352 31557 50000 10230 20159 39956 40157 70510 83506 333 10273 58000;EQDQ01  00002PRCP99
0195483520999992000012115004+17870+102720FM-12+0175VTUM V0209999C000012200019N0070001N1+02091+01551101741ADDAA199000091AY111031AY211031GF104991021051008001031001MA1999999099701MD1999999-0041MW1101REMSYN076AAXX  21154 48352 31557 40000 10209 20155 39970 40174 71011 82530 333 59004;EQDQ01  00002PRCP99
0195483520999992000012118004+17870+102720FM-12+0175VTUM V0209999C000012200019N0060001N1+01951+01531101741ADDAA199000091AY111061AY201061GF102991021051008001001001MA1999999099701MD1999999-0081MW1101REMSYN076AAXX  21184 48352 31556 20000 10195 20153 39970 40174 71010 82500 333 59008;EQDQ01  00002PRCP99
0195483520999992000012121004+17870+102720FM-12+0175VTUM V0209999C000010450019N0050001N1+01791+01531101651ADDAA199000091AY111031AY201031GF106991041051008001031001MA1999999099611MD1999999-0161MW1101REMSYN076AAXX  21214 48352 31550 60000 10179 20153 39961 40165 71010 84530 333 59016;EQDQ01  00002PRCP99
0230483520999992000012200004+17870+102720FM-12+0175VTUM V0209999C000012200019N0050001N1+01701+01511101791ADDAA199000091AY121061AY221061GF104991999051008001001001KA1120N+01671MA1999999099721MD1999999-0121MW1101REMSYN082AAXX  22004 48352 31550 40000 10170 20151 39972 40179 71022 83500 333 20167 59012;EQDQ01+000032SCOTLCQ02  00002PRCP99
0195483520999992000012203004+17870+102720FM-12+0175VTUM V0201001N001012200019N0070001N1+02311+01521101921ADDAA199000091AY111031AY201031GF102991021011008001001001MA1999999099901MD1999999-0161MW1051REMSYN076AAXX  22034 48352 31557 21002 10231 20152 39990 40192 70510 82100 333 59016;EQDQ01  00002PRCP99
0195483520999992000012209004+17870+102720FM-12+0175VTUM V0201001N001012200019N0090001N1+02931+01401101191ADDAA199000091AY101031AY201031GF101991011011008001001001MA1999999099221MD1999999-0271MW1051REMSYN076AAXX  22094 48352 31559 11002 10293 20140 39922 40119 70500 81100 333 59027;EQDQ01  00002PRCP99
0224483520999992000012212004+17870+102720FM-12+0175VTUM V0209999C000012200019N0080001N1+02461+01721101281ADDAA199000091AY101061AY201061GA1001+999999999GF100991001001999999001001KA1120M+02971MA1999999099291MD1999999-0291MW1051REMSYN076AAXX  22124 48352 31958 00000 10246 20172 39929 40128 70500 333 10297 59029;EQDQ01  00002PRCP99
0205483520999992000012218004+17870+102720FM-12+0175VTUM V0209999C000012200019N0060001N1+01991+01591101511ADDAA199000091AY101061AY201061GA1001+999999999GF100991001001999999001001MA1999999099481MD1999999-0231MW1101REMSYN070AAXX  22184 48352 31956 00000 10199 20159 39948 40151 71000 333 59023;EQDQ01  00002PRCP99
0214483520999992000012300004+17870+102720FM-12+0175VTUM V0209999C000012200019N0040001N1+01681+01491101561ADDAA199000091AY101061AY201061GF101991001001999999001011KA1120N+01651MA1999999099511MD1999999-0231MW1101REMSYN082AAXX  23004 48352 31940 10000 10168 20149 39951 40156 71000 80001 333 20165 59023;EQDQ01  00002PRCP99
0177483520999992000012303004+17870+102720FM-12+0175VTUM V0209999C000012200019N0100001N1+02411+01571101681ADDAA199000091GA1001+999999999GF100991001001999999001001MA1999999099681MD1999999-0241REMSYN064AAXX  23034 48352 32960 00000 10241 20157 39968 40168 333 59024;EQDQ01  00002PRCP99
0177483520999992000012306004+17870+102720FM-12+0175VTUM V0209999C000012200019N0110001N1+02861+01561101341ADDAA199000091GA1001+999999999GF100991001001999999001001MA1999999099371MD1999999-0201REMSYN064AAXX  23064 48352 32961 00000 10286 20156 39937 40134 333 59020;EQDQ01  00002PRCP99
0167483520999992000012309004+17870+102720FM-12+0175VTUM V0209999C000012200019N0110001N1+02971+01441101131ADDAA199000091GF101991011011008001001001MA1999999099171MD1999999-0061REMSYN070AAXX  23094 48352 32561 10000 10297 20144 39917 40113 81100 333 59006;EQDQ01  00002PRCP99
0196483520999992000012312004+17870+102720FM-12+0175VTUM V0209999C000012200019N0100001N1+02401+01671101211ADDAA199000091GA1001+999999999GF100991001001999999001001KA1120M+03121MA1999999099211MD1999999-0071REMSYN070AAXX  23124 48352 32960 00000 10240 20167 39921 40121 333 10312 59007;EQDQ01  00002PRCP99
0205483520999992000012315004+17870+102720FM-12+0175VTUM V0209999C000012200019N0080001N1+02061+01501101331ADDAA199000091AY101031AY201031GA1001+999999999GF100991001001999999001001MA1999999099311MD1999999-0141MW1101REMSYN070AAXX  23154 48352 31958 00000 10206 20150 39931 40133 71000 333 59014;EQDQ01  00002PRCP99
0205483520999992000012318004+17870+102720FM-12+0175VTUM V0209999C000012200019N0070001N1+01901+01651101371ADDAA199000091AY101061AY201061GA1001+999999999GF100991001001999999001001MA1999999099331MD1999999-0141MW1101REMSYN070AAXX  23184 48352 31957 00000 10190 20165 39933 40137 71000 333 59014;EQDQ01  00002PRCP99
0205483520999992000012321004+17870+102720FM-12+0175VTUM V0209999C000012200019N0050001N1+01721+01601101331ADDAA199000091AY101031AY201031GA1001+999999999GF100991001001999999001001MA1999999099281MD1999999-0171MW1101REMSYN070AAXX  23214 48352 31950 00000 10172 20160 39928 40133 71000 333 59017;EQDQ01  00002PRCP99
0224483520999992000012400004+17870+102720FM-12+0175VTUM V0209999C000012200019N0030001N1+01611+01541101551ADDAA199000091AY101061AY201061GA1001+999999999GF100991001001999999001001KA1120N+01591MA1999999099491MD1999999-0011MW1101REMSYN076AAXX  24004 48352 31930 00000 10161 20154 39949 40155 71000 333 20159 59001;EQDQ01  00002PRCP99
0177483520999992000012403004+17870+102720FM-12+0175VTUM V0209999C000012200019N0100001N1+02501+01641101651ADDAA199000091GA1001+999999999GF100991001001999999001001MA1999999099651MD1999999-0031REMSYN064AAXX  24034 48352 32960 00000 10250 20164 39965 40165 333 59003;EQDQ01  00002PRCP99
0167483520999992000012406004+17870+102720FM-12+0175VTUM V0209999C000012200019N0110001N1+03021+01531101321ADDAA199000091GF102991021051008001001001MA1999999099361MD1999999-0021REMSYN070AAXX  24064 48352 32561 20000 10302 20153 39936 40132 82500 333 59002;EQDQ01  00002PRCP99
0167483520999992000012409004+17870+102720FM-12+0175VTUM V0203601N001012200019N0100001N1+03161+01281101111ADDAA199000091GF103991021051008001001051MA1999999099161MD1999999-0021REMSYN070AAXX  24094 48352 32560 33602 10316 20128 39916 40111 82505 333 59002;EQDQ01  00002PRCP99
0230483520999992000012412004+17870+102720FM-12+0175VTUM V0209999C000012200019N0090001N1+02621+01611101211ADDAA199000091AY101061AY201061GA1001+999999999GF100991001001999999001001KA1120M+03261MA1999999099221MD1999999+0001MW1051REMSYN082AAXX  24124 48352 31959 00000 10262 20161 39922 40121 70500 8//// 333 10326 58000;EQDQ01  00002PRCP99
0205483520999992000012415004+17870+102720FM-12+0175VTUM V0209999C000012200019N0080001N1+02271+01611101421ADDAA199000091AY101031AY201031GA1001+999999999GF100991001001999999001001MA1999999099411MD1999999+0091MW1101REMSYN070AAXX  24154 48352 31958 00000 10227 20161 39941 40142 71000 333 58009;EQDQ01  00002PRCP99
0195483520999992000012418004+17870+102720FM-12+0175VTUM V0209999C000012200019N0070001N1+02121+01611101481ADDAA199000091AY101061AY201061GF102991021051999999001001MA1999999099451MD1999999+0111MW1101REMSYN076AAXX  24184 48352 31957 20000 10212 20161 39945 40148 71000 82500 333 58011;EQDQ01  00002PRCP99
0195483520999992000012421004+17870+102720FM-12+0175VTUM V0209999C000012200019N0060001N1+01981+01541101441ADDAA199000091AY101031AY201031GF102991001001999999001051MA1999999099411MD1999999+0111MW1101REMSYN076AAXX  24214 48352 31956 20000 10198 20154 39941 40144 71000 80005 333 58011;EQDQ01  00002PRCP99
0224483520999992000012500004+17870+102720FM-12+0175VTUM V0209999C000012200019N0050001N1+01921+01601101651ADDAA199000091AY101061AY201061GA1001+999999999GF100991001001999999001001KA1120N+01891MA1999999099611MD1999999+0101MW1101REMSYN076AAXX  25004 48352 31950 00000 10192 20160 39961 40165 71000 333 20189 58010;EQDQ01  00002PRCP99
0195483520999992000012503004+17870+102720FM-12+0175VTUM V0200301N001512200019N0070001N1+02401+01561101831ADDAA199000091AY101031AY201031GF104991011011008001031061MA1999999099821MD1999999+0181MW1051REMSYN076AAXX  25034 48352 31557 40303 10240 20156 39982 40183 70500 81136 333 58018;EQDQ01  00002PRCP99
0195483520999992000012506004+17870+102720FM-12+0175VTUM V0209999C000011050019N0090001N1+02921+01431101531ADDAA199000091AY111061AY201061GF106991021011008001031061MA1999999099561MD1999999+0211MW1051REMSYN076AAXX  25064 48352 31559 60000 10292 20143 39956 40153 70510 82136 333 58021;EQDQ01  00002PRCP99
0195483520999992000012509004+17870+102720FM-12+0175VTUM V0201001N001511050019N0090001N1+03031+01521101301ADDAA199000091AY121031AY221031GF106991021011008001031061MA1999999099341MD1999999+0191MW1051REMSYN076AAXX  25094 48352 31559 61003 10303 20152 39934 40130 70522 82136 333 58019;EQDQ01  00002PRCP99
0214483520999992000012512004+17870+102720FM-12+0175VTUM V0200401N002610450019N0080001N1+02761+01611101441ADDAA199000091AY121061AY221061GF107991031081008001031061KA1120M+03171MA1999999099461MD1999999+0231MW1051REMSYN082AAXX  25124 48352 31558 70405 10276 20161 39946 40144 70522 83836 333 10317 58023;EQDQ01  00002PRCP99
0195483520999992000012515004+17870+102720FM-12+0175VTUM V0201001N002612200019N0070001N1+02301+01451101741ADDAA199000091AY121031AY211031GF102991021051008001001001MA1999999099721MD1999999+0321MW1051REMSYN076AAXX  25154 48352 31557 21005 10230 20145 39972 40174 70521 82500 333 58032;EQDQ01  00002PRCP99
0195483520999992000012518004+17870+102720FM-12+0175VTUM V0200901N002110450019N0060001N1+02101+01351101751ADDAA199000091AY111061AY211061GF105991021051008001031051MA1999999099711MD1999999+0271MW1051REMSYN076AAXX  25184 48352 31556 50904 10210 20135 39971 40175 70511 82535 333 58027;EQDQ01  00002PRCP99
0195483520999992000012521004+17870+102720FM-12+0175VTUM V0209999C000010450019N0050001N1+02901+00381101721ADDAA199000091AY121031AY221031GF107991021051008001031061MA1999999099671MD1999999+0281MW1101REMSYN076AAXX  25214 48352 31550 70000 10290 20038 39967 40172 71022 82536 333 58028;EQDQ01  00002PRCP99
0214483520999992000012600004+17870+102720FM-12+0175VTUM V0209999C000011050019N0060001N1+01881+01411101951ADDAA199000091AY121061AY221061GF106991041051008001001051KA1120N+01861MA1999999099901MD1999999+0301MW1101REMSYN082AAXX  26004 48352 31556 60000 10188 20141 39990 40195 71022 84505 333 20186 58030;EQDQ01  00002PRCP99
0177483520999992000012603004+17870+102720FM-12+0175VTUM V0200901N002612200019N0120001N1+02351+01271102121ADDAA199000091GA1001+999999999GF100991001001999999001001MA1999999100101MD1999999+0291REMSYN064AAXX  26034 48352 32962 00905 10235 20127 30010 40212 333 58029;EQDQ01  00002PRCP99
0177483520999992000012606004+17870+102720FM-12+0175VTUM V0200801N003112200019N0130001N1+02801+01261101741ADDAA199000091GA1001+999999999GF100991001001999999001001MA1999999099751MD1999999+0211REMSYN064AAXX  26064 48352 32963 00806 10280 20126 39975 40174 333 58021;EQDQ01  00002PRCP99
0177483520999992000012609004+17870+102720FM-12+0175VTUM V0200701N002612200019N0130001N1+02861+01281101441ADDAA199000091GA1001+999999999GF100991001001999999001001MA1999999099471MD1999999+0141REMSYN064AAXX  26094 48352 32963 00705 10286 20128 39947 40144 333 58014;EQDQ01  00002PRCP99
0186483520999992000012612004+17870+102720FM-12+0175VTUM V0200601N002612200019N0120001N1+02471+01321101601ADDAA199000091GF102991021051008001001001KA1120M+02951MA1999999099601MD1999999+0161REMSYN076AAXX  26124 48352 32562 20605 10247 20132 39960 40160 82500 333 10295 58016;EQDQ01  00002PRCP99
0177483520999992000012615004+17870+102720FM-12+0175VTUM V0200801N002612200019N0110001N1+02001+01131101951ADDAA199000091GA1001+999999999GF100991001001999999001001MA1999999099911MD1999999+0211REMSYN064AAXX  26154 48352 32561 00805 10200 20113 39991 40195 333 58021;EQDQ01  00002PRCP99
0177483520999992000012618004+17870+102720FM-12+0175VTUM V0201201N001512200019N0100001N1+01701+01091101981ADDAA199000091GA1001+999999999GF100991001001999999001001MA1999999099911MD1999999+0231REMSYN064AAXX  26184 48352 32960 01203 10170 20109 39991 40198 333 58023;EQDQ01  00002PRCP99
0195483520999992000012621004+17870+102720FM-12+0175VTUM V0209999C000012200019N0080001N1+01501+01021101951ADDAA199000091AY101031AY201031GF102991021051008001001001MA1999999099861MD1999999+0231MW1101REMSYN076AAXX  26214 48352 31558 20000 10150 20102 39986 40195 71000 82500 333 58023;EQDQ01  00002PRCP99
0214483520999992000012700004+17870+102720FM-12+0175VTUM V0209999C000012200019N0060001N1+01331+01061102161ADDAA199000091AY101061AY201061GF103991031051008001001001KA1120N+01301MA1999999100061MD1999999+0211MW1101REMSYN082AAXX  27004 48352 31556 30000 10133 20106 30006 40216 71000 83500 333 20130 58021;EQDQ01  00002PRCP99
0167483520999992000012703004+17870+102720FM-12+0175VTUM V0200501N001512200019N0120001N1+02071+00901102231ADDAA199000091GF102991021051008001001001MA1999999100191MD1999999+0111REMSYN070AAXX  27034 48352 32562 20503 10207 20090 30019 40223 82500 333 58011;EQDQ01  00002PRCP99
0177483520999992000012706004+17870+102720FM-12+0175VTUM V0201001N003112200019N0150001N1+02521+00931101871ADDAA199000091GA1001+999999999GF100991001001999999001001MA1999999099861MD1999999+0131REMSYN064AAXX  27064 48352 32965 01006 10252 20093 39986 40187 333 58013;EQDQ01  00002PRCP99
0167483520999992000012709004+17870+102720FM-12+0175VTUM V0201001N001512200019N0130001N1+02561+00881101601ADDAA199000091GF103991001001999999001051MA1999999099611MD1999999+0161REMSYN070AAXX  27094 48352 32963 31003 10256 20088 39961 40160 80005 333 58016;EQDQ01  00002PRCP99
0186483520999992000012712004+17870+102720FM-12+0175VTUM V0209999C000012200019N0120001N1+02201+01121101771ADDAA199000091GF102991001001999999001051KA1120M+02651MA1999999099741MD1999999+0171REMSYN076AAXX  27124 48352 32962 20000 10220 20112 39974 40177 80005 333 10265 58017;EQDQ01  00002PRCP99
0177483520999992000012715004+17870+102720FM-12+0175VTUM V0200501N001012200019N0110001N1+01801+00941102031ADDAA199000091GA1001+999999999GF100991001001999999001001MA1999999099971MD1999999+0081REMSYN064AAXX  27154 48352 32961 00502 10180 20094 39997 40203 333 58008;EQDQ01  00002PRCP99
0221483520999992000012718004+17870+102720FM-12+0175VTUM V0200601N001012200019N0080001N1+01531+00951999999ADDAA199000091AY101061AY201061GA1001+999999999GF100991001001999999001001MA1999999099951MD1999999+0051MW1101REMSYN070AAXX  27184 48352 31958 00602 10153 20095 39995 40103 71000 333 58005;EQDQ01+101033APOSLPQ02  00002PRCP99
0205483520999992000012721004+17870+102720FM-12+0175VTUM V0209999C000012200019N0070001N1+01351+00941102001ADDAA199000091AY101031AY201031GA1001+999999999GF100991001001999999001001MA1999999099911MD1999999+0051MW1101REMSYN070AAXX  27214 48352 31957 00000 10135 20094 39991 40200 71000 333 58005;EQDQ01  00002PRCP99
0214483520999992000012800004+17870+102720FM-12+0175VTUM V0209999C000012200019N0050001N1+01201+00941102201ADDAA199000091AY101061AY201061GF104991031051008001001051KA1120N+01151MA1999999100101MD1999999+0041MW1101REMSYN082AAXX  28004 48352 31550 40000 10120 20094 30010 40220 71000 83505 333 20115 58004;EQDQ01  00002PRCP99
0177483520999992000012803004+17870+102720FM-12+0175VTUM V0200801N001012200019N0140001N1+01851+00891102291ADDAA199000091GA1001+999999999GF100991001001999999001001MA1999999100241MD1999999+0061REMSYN064AAXX  28034 48352 32964 00802 10185 20089 30024 40229 333 58006;EQDQ01  00002PRCP99
0167483520999992000012806004+17870+102720FM-12+0175VTUM V0201001N001012200019N0150001N1+02351+00931101911ADDAA199000091GF102991001001999999001051MA1999999099891MD1999999+0041REMSYN070AAXX  28064 48352 32965 21002 10235 20093 39989 40191 80005 333 58004;EQDQ01  00002PRCP99
0177483520999992000012809004+17870+102720FM-12+0175VTUM V0200601N001012200019N0150001N1+02531+00991101601ADDAA199000091GA1001+999999999GF100991001001999999001001MA1999999099601MD1999999+0001REMSYN064AAXX  28094 48352 32965 00602 10253 20099 39960 40160 333 58000;EQDQ01  00002PRCP99
0215483520999992000012812004+17870+102720FM-12+0175VTUM V0209999C000012200019N0090001N1+02681+01941101141ADDAA199000091AY121061AY211061GF104991021011008001001061KA1120M+03151MD1999999+0091MW1051REMSYN082AAXX  28124 48352 31559 40000 10268 20194 30105 40114 70521 82106 333 10315 58009;EQDQ01+101053APOSP Q02  00002PRCP99
0177483520999992000012815004+17870+102720FM-12+0175VTUM V0209999C000012200019N0110001N1+01801+01201101871ADDAA199000091GA1001+999999999GF100991001001999999001001MA1999999099821MD1999999-0161REMSYN064AAXX  28154 48352 32961 00000 10180 20120 39982 40187 333 59016;EQDQ01  00002PRCP99
0205483520999992000012818004+17870+102720FM-12+0175VTUM V0209999C000012200019N0080001N1+01621+01221101871ADDAA199000091AY101061AY201061GA1001+999999999GF100991001001999999001001MA1999999099801MD1999999-0161MW1101REMSYN070AAXX  28184 48352 31958 00000 10162 20122 39980 40187 71000 333 59016;EQDQ01  00002PRCP99
0205483520999992000012821004+17870+102720FM-12+0175VTUM V0209999C000012200019N0070001N1+01461+01161101891ADDAA199000091AY101031AY201031GA1001+999999999GF100991001001999999001001MA1999999099811MD1999999-0111MW1101REMSYN070AAXX  28214 48352 31957 00000 10146 20116 39981 40189 71000 333 59011;EQDQ01  00002PRCP99
0214483520999992000012900004+17870+102720FM-12+0175VTUM V0209999C000012200019N0050001N1+01321+01131102121ADDAA199000091AY101061AY201061GF102991001001999999001011KA1120N+01281MA1999999100021MD1999999-0081MW1101REMSYN082AAXX  29004 48352 31950 20000 10132 20113 30002 40212 71000 80001 333 20128 59008;EQDQ01  00002PRCP99
0177483520999992000012903004+17870+102720FM-12+0175VTUM V0200201N001012200019N0120001N1+02001+01271102221ADDAA199000091GA1001+999999999GF100991001001999999001001MA1999999100181MD1999999-0071REMSYN064AAXX  29034 48352 32962 00202 10200 20127 30018 40222 333 59007;EQDQ01  00002PRCP99
0177483520999992000012906004+17870+102720FM-12+0175VTUM V0200301N003112200019N0120001N1+02561+01111101871ADDAA199000091GA1001+999999999GF100991001001999999001001MA1999999099861MD1999999-0041REMSYN064AAXX  29064 48352 32962 00306 10256 20111 39986 40187 333 59004;EQDQ01  00002PRCP99
0177483520999992000012909004+17870+102720FM-12+0175VTUM V0200401N002612200019N0120001N1+02661+01041101631ADDAA199000091GA1001+999999999GF100991001001999999001001MA1999999099651MD1999999+0031REMSYN064AAXX  29094 48352 32962 00405 10266 20104 39965 40163 333 58003;EQDQ01  00002PRCP99
0196483520999992000012912004+17870+102720FM-12+0175VTUM V0201301N001512200019N0100001N1+02271+01231101801ADDAA199000091GA1001+999999999GF100991001001999999001001KA1120M+02701MA1999999099781MD1999999+0081REMSYN070AAXX  29124 48352 32960 01303 10227 20123 39978 40180 333 10270 58008;EQDQ01  00002PRCP99
0177483520999992000012915004+17870+102720FM-12+0175VTUM V0200501N003112200019N0100001N1+01941+01071102091ADDAA199000091GA1001+999999999GF100991001001999999001001MA1999999100031MD1999999+0121REMSYN064AAXX  29154 48352 32960 00506 10194 20107 30003 40209 333 58012;EQDQ01  00002PRCP99
0205483520999992000012918004+17870+102720FM-12+0175VTUM V0200401N002612200019N0080001N1+01671+00961102151ADDAA199000091AY101061AY201061GA1001+999999999GF100991001001999999001001MA1999999100091MD1999999+0281MW1051REMSYN070AAXX  29184 48352 31958 00405 10167 20096 30009 40215 70500 333 58028;EQDQ01  00002PRCP99
0211483520999992000012921004+17870+102720FM-12+0175VTUM V0209999C000012200019N0070001N1+01481+00941102071ADDAA199000091AY101031AY201031GA1001+999999999GF100991001001999999001001MA1999999099991MD1999999+0181MW1101REMSYN076AAXX  29214 48352 31957 00000 10148 20094 39999 40207 71000 8//// 333 58018;EQDQ01  00002PRCP99
0224483520999992000013000004+17870+102720FM-12+0175VTUM V0209999C000012200019N0050001N1+01301+00971102221ADDAA199000091AY101061AY201061GA1001+999999999GF100991001001999999001001KA1120N+01281MA1999999100131MD1999999+0101MW1101REMSYN076AAXX  30004 48352 31950 00000 10130 20097 30013 40222 71000 333 20128 58010;EQDQ01  00002PRCP99
0167483520999992000013003004+17870+102720FM-12+0175VTUM V0200601N001010450019N0120001N1+02101+01031102321ADDAA199000091GF106991021051008001031001MA1999999100281MD1999999+0101REMSYN070AAXX  30034 48352 32562 60602 10210 20103 30028 40232 82530 333 58010;EQDQ01  00002PRCP99
0167483520999992000013006004+17870+102720FM-12+0175VTUM V0209999C000010450019N0120001N1+02521+00981102021ADDAA199000091GF106991021051008001031051MA1999999100011MD1999999+0151REMSYN070AAXX  30064 48352 32562 60000 10252 20098 30001 40202 82535 333 58015;EQDQ01  00002PRCP99
0167483520999992000013009004+17870+102720FM-12+0175VTUM V0200701N002610450019N0120001N1+02541+01031101731ADDAA199000091GF106991031051008001031061MA1999999099721MD1999999+0101REMSYN070AAXX  30094 48352 32562 60705 10254 20103 39972 40173 83536 333 58010;EQDQ01  00002PRCP99
0186483520999992000013012004+17870+102720FM-12+0175VTUM V0200501N001512200019N0110001N1+02181+01091101891ADDAA199000091GF103991021051008001001051KA1120M+02651MA1999999099861MD1999999+0091REMSYN076AAXX  30124 48352 32561 30503 10218 20109 39986 40189 82505 333 10265 58009;EQDQ01  00002PRCP99
0177483520999992000013015004+17870+102720FM-12+0175VTUM V0200701N001512200019N0100001N1+01831+00961102211ADDAA199000091GA1001+999999999GF100991001001999999001001MA1999999100151MD1999999+0121REMSYN064AAXX  30154 48352 32960 00703 10183 20096 30015 40221 333 58012;EQDQ01  00002PRCP99
0205483520999992000013018004+17870+102720FM-12+0175VTUM V0200801N001012200019N0080001N1+01591+00891102241ADDAA199000091AY101061AY201061GA1001+999999999GF100991001001999999001001MA1999999100171MD1999999+0091MW1101REMSYN070AAXX  30184 48352 31958 00802 10159 20089 30017 40224 71000 333 58009;EQDQ01  00002PRCP99
0195483520999992000013021004+17870+102720FM-12+0175VTUM V0209999C000010450019N0070001N1+01431+01051102181ADDAA199000091AY111031AY201031GF106991031051008001031061MA1999999100091MD1999999+0111MW1101REMSYN076AAXX  30214 48352 31557 60000 10143 20105 30009 40218 71010 83536 333 58011;EQDQ01  00002PRCP99
0214483520999992000013100004+17870+102720FM-12+0175VTUM V0209999C000010075019N0060001N1+01411+00921102251ADDAA199000091AY111061AY211061GF106991051051008001031061KA1120N+01401MA1999999100161MD1999999+0031MW1101REMSYN082AAXX  31004 48352 31556 60000 10141 20092 30016 40225 71011 85536 333 20140 58003;EQDQ01  00002PRCP99
0195483520999992000013103004+17870+102720FM-12+0175VTUM V0200901N001512200019N0080001N1+02001+00881102391ADDAA199000091AY121031AY211031GF102991021051012501001001MA1999999100341MD1999999+0071MW1051REMSYN076AAXX  31034 48352 31658 20903 10200 20088 30034 40239 70521 82500 333 58007;EQDQ01  00002PRCP99
0177483520999992000013106004+17870+102720FM-12+0175VTUM V0203601N001512200019N0100001N1+02421+00981102071ADDAA199000091GA1001+999999999GF100991001001999999001001MA1999999100051MD1999999+0051REMSYN064AAXX  31064 48352 32960 03603 10242 20098 30005 40207 333 58005;EQDQ01  00002PRCP99
0177483520999992000013109004+17870+102720FM-12+0175VTUM V0200801N001012200019N0120001N1+02581+01011101771ADDAA199000091GA1001+999999999GF100991001001999999001001MA1999999099761MD1999999+0041REMSYN064AAXX  31094 48352 32962 00802 10258 20101 39976 40177 333 58004;EQDQ01  00002PRCP99
0196483520999992000013112004+17870+102720FM-12+0175VTUM V0209999C000012200019N0110001N1+02161+01261101871ADDAA199000091GA1001+999999999GF100991001001999999001001KA1120M+02631MA1999999099841MD1999999-0021REMSYN070AAXX  31124 48352 32961 00000 10216 20126 39984 40187 333 10263 59002;EQDQ01  00002PRCP99
0205483520999992000013118004+17870+102720FM-12+0175VTUM V0209999C000012200019N0080001N1+01801+01561102201ADDAA199000091AY101061AY201061GA1001+999999999GF100991001001999999001001MA1999999100131MD1999999-0041MW1101REMSYN070AAXX  31184 48352 31958 00000 10180 20156 30013 40220 71000 333 59004;EQDQ01  00002PRCP99
0205483520999992000013121004+17870+102720FM-12+0175VTUM V0209999C000012200019N0070001N1+01831+01431102131ADDAA199000091AY101031AY201031GA1001+999999999GF100991001001999999001001MA1999999100081MD1999999-0051MW1101REMSYN070AAXX  31214 48352 31957 00000 10183 20143 30008 40213 71000 333 59005;EQDQ01  00002PRCP99
0214483520999992000020100004+17870+102720FM-12+0175VTUM V0209999C000019999999N0060001N1+01331+00871102361ADDAA199000091AY111061AY201061GF106991061001999999031001KA1120N+01221MA1999999100271MD1999999+0111MW1101REMSYN082AAXX  01004 48352 31956 60000 10133 20087 30027 40236 71010 86030 333 20122 58011;EQDQ01  00002PRCP99
0167483520999992000020103004+17870+102720FM-12+0175VTUM V0200401N001512200019N0100001N1+01921+00861102441ADDAA199000091GF103991031001999999031001MA1999999100371MD1999999+0051REMSYN070AAXX  01034 48352 32960 30403 10192 20086 30037 40244 83030 333 58005;EQDQ01  00002PRCP99
0177483520999992000020106004+17870+102720FM-12+0175VTUM V0200501N001512200019N0120001N1+02331+00871102021ADDAA199000091GA1001+999999999GF100991001001999999001001MA1999999100001MD1999999-0051REMSYN064AAXX  01064 48352 32962 00503 10233 20087 30000 40202 333 59005;EQDQ01  00002PRCP99
0177483520999992000020109004+17870+102720FM-12+0175VTUM V0209999C000012200019N0100001N1+02471+00801101701ADDAA199000091GA1001+999999999GF100991001001999999001001MA1999999099691MD1999999-0071REMSYN064AAXX  01094 48352 32960 00000 10247 20080 39969 40170 333 59007;EQDQ01  00002PRCP99
0196483520999992000020112004+17870+102720FM-12+0175VTUM V0209999C000012200019N0100001N1+02051+01041101781ADDAA199000091GA1001+999999999GF100991001001999999001001KA1120M+02541MA1999999099741MD1999999-0091REMSYN070AAXX  01124 48352 32960 00000 10205 20104 39974 40178 333 10254 59009;EQDQ01  00002PRCP99
0205483520999992000020115004+17870+102720FM-12+0175VTUM V0209999C000012200019N0080001N1+01741+01001101981ADDAA199000091AY101031AY201031GA1001+999999999GF100991001001999999001001MA1999999099921MD1999999-0151MW1051REMSYN070AAXX  01154 48352 31958 00000 10174 20100 39992 40198 70500 333 59015;EQDQ01  00002PRCP99
0205483520999992000020118004+17870+102720FM-12+0175VTUM V0209999C000012200019N0070001N1+01501+01001102091ADDAA199000091AY101061AY201061GA1001+999999999GF100991001001999999001001MA1999999100011MD1999999-0111MW1101REMSYN070AAXX  01184 48352 31957 00000 10150 20100 30001 40209 71000 333 59011;EQDQ01  00002PRCP99
0205483520999992000020121004+17870+102720FM-12+0175VTUM V0209999C000012200019N0060001N1+01331+00981102061ADDAA199000091AY101031AY201031GA1001+999999999GF100991001001999999001001MA1999999099971MD1999999-0071MW1101REMSYN070AAXX  01214 48352 31956 00000 10133 20098 39997 40206 71000 333 59007;EQDQ01  00002PRCP99
0214483520999992000020200004+17870+102720FM-12+0175VTUM V0209999C000012200019N0050001N1+01151+00891102191ADDAA199000091AY101061AY201061GF104991031051008001001051KA1120N+01101MA1999999100091MD1999999-0171MW1101REMSYN082AAXX  02004 48352 31550 40000 10115 20089 30009 40219 71000 83505 333 20110 59017;EQDQ01  00002PRCP99
0177483520999992000020203004+17870+102720FM-12+0175VTUM V0200201N001012200019N0100001N1+01901+00891102241ADDAA199000091GA1001+999999999GF100991001001999999001001MA1999999100191MD1999999-0201REMSYN064AAXX  02034 48352 32960 00202 10190 20089 30019 40224 333 59020;EQDQ01  00002PRCP99
0177483520999992000020206004+17870+102720FM-12+0175VTUM V0200201N001012200019N0100001N1+02451+00951101891ADDAA199000091GA1001+999999999GF100991001001999999001001MA1999999099881MD1999999-0131REMSYN064AAXX  02064 48352 32960 00202 10245 20095 39988 40189 333 59013;EQDQ01  00002PRCP99
0177483520999992000020209004+17870+102720FM-12+0175VTUM V0209999C000012200019N0100001N1+02571+01001101521ADDAA199000091GA1001+999999999GF100991001001999999001001MA1999999099531MD1999999-0181REMSYN064AAXX  02094 48352 32960 00000 10257 20100 39953 40152 333 59018;EQDQ01  00002PRCP99
0224483520999992000020212004+17870+102720FM-12+0175VTUM V0209999C000012200019N0080001N1+01981+01211101591ADDAA199000091AY101061AY201061GA1001+999999999GF100991001001999999001001KA1120M+02631MA1999999099571MD1999999-0191MW1051REMSYN076AAXX  02124 48352 31958 00000 10198 20121 39957 40159 70500 333 10263 59019;EQDQ01  00002PRCP99
0205483520999992000020215004+17870+102720FM-12+0175VTUM V0209999C000012200019N0070001N1+01681+01191101781ADDAA199000091AY101031AY201031GA1001+999999999GF100991001001999999001001MA1999999099721MD1999999-0201MW1101REMSYN070AAXX  02154 48352 31957 00000 10168 20119 39972 40178 71000 333 59020;EQDQ01  00002PRCP99
0205483520999992000020218004+17870+102720FM-12+0175VTUM V0209999C000012200019N0060001N1+01521+01231101791ADDAA199000091AY101061AY201061GA1001+999999999GF100991001001999999001001MA1999999099711MD1999999-0301MW1101REMSYN070AAXX  02184 48352 31956 00000 10152 20123 39971 40179 71000 333 59030;EQDQ01  00002PRCP99
0205483520999992000020221004+17870+102720FM-12+0175VTUM V0209999C000012200019N0060001N1+01451+01171101811ADDAA199000091AY101031AY201031GA1001+999999999GF100991001001999999001001MA1999999099731MD1999999-0251MW1101REMSYN070AAXX  02214 48352 31956 00000 10145 20117 39973 40181 71000 333 59025;EQDQ01  00002PRCP99
0224483520999992000020300004+17870+102720FM-12+0175VTUM V0209999C000012200019N0050001N1+01351+01161101961ADDAA199000091AY101061AY201061GA1001+999999999GF100991001001999999001001KA1120N+01301MA1999999099871MD1999999-0231MW1101REMSYN076AAXX  03004 48352 31950 00000 10135 20116 39987 40196 71000 333 20130 59023;EQDQ01  00002PRCP99
0205483520999992000020303004+17870+102720FM-12+0175VTUM V0200401N001012200019N0090001N1+02101+01211102111ADDAA199000091AY101031AY201031GA1001+999999999GF100991001001999999001001MA1999999100071MD1999999-0131MW1051REMSYN070AAXX  03034 48352 31959 00402 10210 20121 30007 40211 70500 333 59013;EQDQ01  00002PRCP99
0205483520999992000020306004+17870+102720FM-12+0175VTUM V0200501N001512200019N0090001N1+02621+01101101741ADDAA199000091AY101061AY201061GA1001+999999999GF100991001001999999001001MA1999999099741MD1999999-0151MW1051REMSYN070AAXX  03064 48352 31959 00503 10262 20110 39974 40174 70500 333 59015;EQDQ01  00002PRCP99
0168483520999992000020309004+17870+102720FM-12+0175VTUM V0209999C000012200019N0090001N1+02741+01111101381ADDAA199000091GA1001+999999999GF100991001001999999001001MA1999999099401REMSYN069AAXX  03094 48352 31959 00000 10274 20111 39940 40138 7050 333 59014;EQDQ01  00002PRCP99
0224483520999992000020312004+17870+102720FM-12+0175VTUM V0209999C000012200019N0080001N1+02191+01261101471ADDAA199000091AY101061AY201061GA1001+999999999GF100991001001999999001001KA1120M+02811MA1999999099451MD1999999-0121MW1051REMSYN076AAXX  03124 48352 31958 00000 10219 20126 39945 40147 70500 333 10281 59012;EQDQ01  00002PRCP99
0205483520999992000020315004+17870+102720FM-12+0175VTUM V0209999C000012200019N0070001N1+01831+01241101571ADDAA199000091AY101031AY201031GA1001+999999999GF100991001001999999001001MA1999999099521MD1999999-0211MW1101REMSYN070AAXX  03154 48352 31957 00000 10183 20124 39952 40157 71000 333 59021;EQDQ01  00002PRCP99
0205483520999992000020318004+17870+102720FM-12+0175VTUM V0209999C000012200019N0060001N1+01611+01291101561ADDAA199000091AY101061AY201061GA1001+999999999GF100991001001999999001001MA1999999099501MD1999999-0231MW1101REMSYN070AAXX  03184 48352 31956 00000 10161 20129 39950 40156 71000 333 59023;EQDQ01  00002PRCP99
0205483520999992000020321004+17870+102720FM-12+0175VTUM V0209999C000012200019N0040001N1+01451+01291101491ADDAA199000091AY101031AY201031GA1001+999999999GF100991001001999999001001MA1999999099421MD1999999-0321MW1101REMSYN070AAXX  03214 48352 31940 00000 10145 20129 39942 40149 71000 333 59032;EQDQ01  00002PRCP99
0224483520999992000020400004+17870+102720FM-12+0175VTUM V0209999C000012200019N0030001N1+01391+01301101611ADDAA199000091AY101061AY201061GA1001+999999999GF100991001001999999001001KA1120N+01351MA1999999099541MD1999999-0351MW1101REMSYN076AAXX  04004 48352 31930 00000 10139 20130 39954 40161 71000 333 20135 59035;EQDQ01  00002PRCP99
0205483520999992000020403004+17870+102720FM-12+0175VTUM V0209999C000012200019N0080001N1+02221+01321101711ADDAA199000091AY101031AY201031GA1001+999999999GF100991001001999999001001MA1999999099681MD1999999-0401MW1051REMSYN070AAXX  04034 48352 31958 00000 10222 20132 39968 40171 70500 333 59040;EQDQ01  00002PRCP99
0205483520999992000020406004+17870+102720FM-12+0175VTUM V0201101N002112200019N0090001N1+02851+01291101261ADDAA199000091AY101061AY201061GA1001+999999999GF100991001001999999001001MA1999999099291MD1999999-0481MW1051REMSYN070AAXX  04064 48352 31559 01104 10285 20129 39929 40126 70500 333 59048;EQDQ01  00002PRCP99
0205483520999992000020409004+17870+102720FM-12+0175VTUM V0209999C000012200019N0090001N1+02901+01291101001ADDAA199000091AY101031AY201031GA1001+999999999GF100991001001999999001001MA1999999099031MD1999999-0381MW1051REMSYN070AAXX  04094 48352 31959 00000 10290 20129 39903 40100 70500 333 59038;EQDQ01  00002PRCP99
0224483520999992000020412004+17870+102720FM-12+0175VTUM V0209999C000012200019N0080001N1+02341+01421101111ADDAA199000091AY101061AY201061GA1001+999999999GF100991001001999999001001KA1120M+03031MA1999999099101MD1999999-0361MW1051REMSYN076AAXX  04124 48352 31958 00000 10234 20142 39910 40111 70500 333 10303 59036;EQDQ01  00002PRCP99
0205483520999992000020415004+17870+102720FM-12+0175VTUM V0209999C000012200019N0070001N1+01941+01481101311ADDAA199000091AY101031AY201031GA1001+999999999GF100991001001999999001001MA1999999099271MD1999999-0261MW1101REMSYN070AAXX  04154 48352 31957 00000 10194 20148 39927 40131 71000 333 59026;EQDQ01  00002PRCP99
0205483520999992000020418004+17870+102720FM-12+0175VTUM V0209999C000012200019N0060001N1+01731+01431101311ADDAA199000091AY101061AY201061GA1001+999999999GF100991001001999999001001MA1999999099261MD1999999-0251MW1101REMSYN070AAXX  04184 48352 31956 00000 10173 20143 39926 40131 71000 333 59025;EQDQ01  00002PRCP99
0205483520999992000020421004+17870+102720FM-12+0175VTUM V0209999C000012200019N0050001N1+01601+01551101311ADDAA199000091AY101031AY201031GA1001+999999999GF100991001001999999001001MA1999999099251MD1999999-0181MW1101REMSYN070AAXX  04214 48352 31950 00000 10160 20155 39925 40131 71000 333 59018;EQDQ01  00002PRCP99
0214483520999992000020500004+17870+102720FM-12+0175VTUM V0209999C000012200019N0040001N1+01571+01391101531ADDAA199000091AY101061AY201061GF101991001001999999001011KA1120N+01531MA1999999099471MD1999999-0081MW1101REMSYN082AAXX  05004 48352 31940 10000 10157 20139 39947 40153 71000 80001 333 20153 59008;EQDQ01  00002PRCP99
0205483520999992000020503004+17870+102720FM-12+0175VTUM V0200401N001512200019N0080001N1+02441+01301101641ADDAA199000091AY101031AY201031GA1001+999999999GF100991001001999999001001MA1999999099641MD1999999-0071MW1051REMSYN070AAXX  05034 48352 31958 00403 10244 20130 39964 40164 70500 333 59007;EQDQ01  00002PRCP99
0205483520999992000020506004+17870+102720FM-12+0175VTUM V0200501N001012200019N0090001N1+02931+01311101311ADDAA199000091AY101061AY201061GA1001+999999999GF100991001001999999001001MA1999999099341MD1999999+0051MW1051REMSYN070AAXX  05064 48352 31959 00502 10293 20131 39934 40131 70500 333 58005;EQDQ01  00002PRCP99
0205483520999992000020509004+17870+102720FM-12+0175VTUM V0209999C000012200019N0090001N1+03031+01181101031ADDAA199000091AY101031AY201031GA1001+999999999GF100991001001999999001001MA1999999099061MD1999999+0031MW1051REMSYN070AAXX  05094 48352 31959 00000 10303 20118 39906 40103 70500 333 58003;EQDQ01  00002PRCP99
0224483520999992000020512004+17870+102720FM-12+0175VTUM V0209999C000012200019N0080001N1+02471+01521101111ADDAA199000091AY101061AY201061GA1001+999999999GF100991001001999999001001KA1120M+03081MA1999999099121MD1999999+0001MW1051REMSYN076AAXX  05124 48352 31958 00000 10247 20152 39912 40111 70500 333 10308 58000;EQDQ01  00002PRCP99
0205483520999992000020515004+17870+102720FM-12+0175VTUM V0209999C000012200019N0070001N1+02131+01581101321ADDAA199000091AY101031AY201031GA1001+999999999GF100991001001999999001001MA1999999099291MD1999999+0011MW1101REMSYN070AAXX  05154 48352 31957 00000 10213 20158 39929 40132 71000 333 58001;EQDQ01  00002PRCP99
0205483520999992000020518004+17870+102720FM-12+0175VTUM V0209999C000012200019N0060001N1+01971+01461101371ADDAA199000091AY101061AY201061GA1001+999999999GF100991001001999999001001MA1999999099341MD1999999+0061MW1101REMSYN070AAXX  05184 48352 31956 00000 10197 20146 39934 40137 71000 333 58006;EQDQ01  00002PRCP99
0205483520999992000020521004+17870+102720FM-12+0175VTUM V0209999C000012200019N0050001N1+01751+01491101411ADDAA199000091AY101031AY201031GA1001+999999999GF100991001001999999001001MA1999999099361MD1999999+0101MW1101REMSYN070AAXX  05214 48352 31950 00000 10175 20149 39936 40141 71000 333 58010;EQDQ01  00002PRCP99
0214483520999992000020600004+17870+102720FM-12+0175VTUM V0209999C000012200019N0040001N1+01611+01471101541ADDAA199000091AY101061AY201061GF101991001001999999001011KA1120N+01561MA1999999099481MD1999999+0011MW1101REMSYN082AAXX  06004 48352 31940 10000 10161 20147 39948 40154 71000 80001 333 20156 58001;EQDQ01  00002PRCP99
0195483520999992000020603004+17870+102720FM-12+0175VTUM V0200501N001512200019N0090001N1+02281+01471101621ADDAA199000091AY101031AY201031GF101991001001999999001011MA1999999099611MD1999999-0021MW1051REMSYN076AAXX  06034 48352 31959 10503 10228 20147 39961 40162 70500 80001 333 59002;EQDQ01  00002PRCP99
0195483520999992000020606004+17870+102720FM-12+0175VTUM V0200401N001012200019N0090001N1+02731+01431101241ADDAA199000091AY101061AY201061GF102991001001999999001051MA1999999099261MD1999999-0071MW1051REMSYN076AAXX  06064 48352 31959 20402 10273 20143 39926 40124 70500 80005 333 59007;EQDQ01  00002PRCP99
0205483520999992000020609004+17870+102720FM-12+0175VTUM V0209999C000012200019N0090001N1+02851+01441100951ADDAA199000091AY101031AY201031GA1001+999999999GF100991001001999999001001MA1999999098991MD1999999-0081MW1051REMSYN070AAXX  06094 48352 31959 00000 10285 20144 39899 40095 70500 333 59008;EQDQ01  00002PRCP99
0224483520999992000020612004+17870+102720FM-12+0175VTUM V0209999C000012200019N0080001N1+02441+01621101091ADDAA199000091AY101061AY201061GA1001+999999999GF100991001001999999001001KA1120M+02951MA1999999099091MD1999999-0021MW1051REMSYN076AAXX  06124 48352 31958 00000 10244 20162 39909 40109 70500 333 10295 59002;EQDQ01  00002PRCP99
0211483520999992000020615004+17870+102720FM-12+0175VTUM V0209999C000012200019N0070001N1+02101+01601101291ADDAA199000091AY101031AY201031GA1001+999999999GF100991001001999999001001MA1999999099261MD1999999-0031MW1101REMSYN076AAXX  06154 48352 31957 00000 10210 20160 39926 40129 71000 8//// 333 59003;EQDQ01  00002PRCP99
0205483520999992000020618004+17870+102720FM-12+0175VTUM V0209999C000012200019N0060001N1+01881+01291101251ADDAA199000091AY101061AY201061GA1001+999999999GF100991001001999999001001MA1999999099211MD1999999-0021MW1101REMSYN070AAXX  06184 48352 31956 00000 10188 20129 39921 40125 71000 333 59002;EQDQ01  00002PRCP99
0205483520999992000020621004+17870+102720FM-12+0175VTUM V0209999C000012200019N0050001N1+01691+01281101281ADDAA199000091AY101031AY201031GA1001+999999999GF100991001001999999001001MA1999999099231MD1999999-0131MW1101REMSYN070AAXX  06214 48352 31950 00000 10169 20128 39923 40128 71000 333 59013;EQDQ01  00002PRCP99
0214483520999992000020700004+17870+102720FM-12+0175VTUM V0209999C000019999999N0030001N1+01501+01261101481ADDAA199000091AY111061AY201061GF106991001001999999001061KA1120N+01461MA1999999099411MD1999999-0061MW1101REMSYN082AAXX  07004 48352 31930 60000 10150 20126 39941 40148 71010 80006 333 20146 59006;EQDQ01  00002PRCP99
0195483520999992000020706004+17870+102720FM-12+0175VTUM V0200401N001519999999N0090001N1+02781+01281101201ADDAA199000091AY121061AY221061GF106991001001999999001061MA1999999099221MD1999999-0041MW1051REMSYN076AAXX  07064 48352 31959 60403 10278 20128 39922 40120 70522 80006 333 59004;EQDQ01  00002PRCP99
0195483520999992000020709004+17870+102720FM-12+0175VTUM V0200501N001019999999N0090001N1+02921+01391100881ADDAA199000091AY121031AY221031GF106991001001999999001061MA1999999098921MD1999999-0071MW1051REMSYN076AAXX  07094 48352 31959 60502 10292 20139 39892 40088 70522 80006 333 59007;EQDQ01  00002PRCP99
0214483520999992000020712004+17870+102720FM-12+0175VTUM V0209999C000012200019N0070001N1+02451+01631101001ADDAA199000091AY111061AY201061GF102991001001999999001051KA1120M+02981MA1999999099011MD1999999-0091MW1051REMSYN082AAXX  07124 48352 31957 20000 10245 20163 39901 40100 70510 80005 333 10298 59009;EQDQ01  00002PRCP99
0205483520999992000020715004+17870+102720FM-12+0175VTUM V0200501N003112200019N0060001N1+02201+01271101311ADDAA199000091AY101031AY201031GA1001+999999999GF100991001001999999001001MA1999999099291MD1999999+0021MW1051REMSYN070AAXX  07154 48352 31956 00506 10220 20127 39929 40131 70500 333 58002;EQDQ01  00002PRCP99
0205483520999992000020718004+17870+102720FM-12+0175VTUM V0200501N002612200019N0060001N1+01881+01291101381ADDAA199000091AY101061AY201061GA1001+999999999GF100991001001999999001001MA1999999099341MD1999999+0131MW1101REMSYN070AAXX  07184 48352 31956 00505 10188 20129 39934 40138 71000 333 58013;EQDQ01  00002PRCP99
0205483520999992000020721004+17870+102720FM-12+0175VTUM V0209999C000012200019N0050001N1+01581+01251101391ADDAA199000091AY101031AY201031GA1001+999999999GF100991001001999999001001MA1999999099331MD1999999+0111MW1101REMSYN070AAXX  07214 48352 31950 00000 10158 20125 39933 40139 71000 333 58011;EQDQ01  00002PRCP99
0214483520999992000020800004+17870+102720FM-12+0175VTUM V0209999C000012200019N0050001N1+01431+01211101581ADDAA199000091AY101061AY201061GF102991001001999999001051KA1120N+01411MA1999999099511MD1999999+0101MW1101REMSYN082AAXX  08004 48352 31950 20000 10143 20121 39951 40158 71000 80005 333 20141 58010;EQDQ01  00002PRCP99
0177483520999992000020803004+17870+102720FM-12+0175VTUM V0200601N002612200019N0100001N1+02101+01141101671ADDAA199000091GA1001+999999999GF100991001001999999001001MA1999999099651MD1999999+0081REMSYN064AAXX  08034 48352 32960 00605 10210 20114 39965 40167 333 58008;EQDQ01  00002PRCP99
0177483520999992000020806004+17870+102720FM-12+0175VTUM V0209999C000012200019N0100001N1+02571+01211101341ADDAA199000091GA1001+999999999GF100991001001999999001001MA1999999099351MD1999999+0141REMSYN064AAXX  08064 48352 32960 00000 10257 20121 39935 40134 333 58014;EQDQ01  00002PRCP99
0177483520999992000020809004+17870+102720FM-12+0175VTUM V0200501N001512200019N0100001N1+02721+01241101021ADDAA199000091GA1001+999999999GF100991001001999999001001MA1999999099041MD1999999+0141REMSYN064AAXX  08094 48352 32960 00503 10272 20124 39904 40102 333 58014;EQDQ01  00002PRCP99
0224483520999992000020812004+17870+102720FM-12+0175VTUM V0209999C000012200019N0090001N1+02311+01451101111ADDAA199000091AY101061AY201061GA1001+999999999GF100991001001999999001001KA1120M+02781MA1999999099101MD1999999+0111MW1051REMSYN076AAXX  08124 48352 31959 00000 10231 20145 39910 40111 70500 333 10278 58011;EQDQ01  00002PRCP99
0205483520999992000020815004+17870+102720FM-12+0175VTUM V0209999C000012200019N0080001N1+02001+01491101271ADDAA199000091AY101031AY201031GA1001+999999999GF100991001001999999001001MA1999999099241MD1999999-0041MW1101REMSYN070AAXX  08154 48352 31958 00000 10200 20149 39924 40127 71000 333 59004;EQDQ01  00002PRCP99
0205483520999992000020818004+17870+102720FM-12+0175VTUM V0209999C000012200019N0070001N1+01781+01471101291ADDAA199000091AY101061AY201061GA1001+999999999GF100991001001999999001001MA1999999099241MD1999999-0091MW1101REMSYN070AAXX  08184 48352 31957 00000 10178 20147 39924 40129 71000 333 59009;EQDQ01  00002PRCP99
0205483520999992000020821004+17870+102720FM-12+0175VTUM V0200601N001012200019N0060001N1+01591+01241101271ADDAA199000091AY101031AY201031GA1001+999999999GF100991001001999999001001MA1999999099211MD1999999-0121MW1101REMSYN070AAXX  08214 48352 31956 00602 10159 20124 39921 40127 71000 333 59012;EQDQ01  00002PRCP99
0224483520999992000020900004+17870+102720FM-12+0175VTUM V0209999C000012200019N0050001N1+01461+01261101491ADDAA199000091AY101061AY201061GA1001+999999999GF100991001001999999001001KA1120N+01451MA1999999099421MD1999999-0091MW1101REMSYN076AAXX  09004 48352 31950 00000 10146 20126 39942 40149 71000 333 20145 59009;EQDQ01  00002PRCP99
0205483520999992000020903004+17870+102720FM-12+0175VTUM V0200901N001512200019N0090001N1+02051+01251101591ADDAA199000091AY101031AY201031GA1001+999999999GF100991001001999999001001MA1999999099571MD1999999-0081MW1051REMSYN070AAXX  09034 48352 31959 00903 10205 20125 39957 40159 70500 333 59008;EQDQ01  00002PRCP99
0211483520999992000020909004+17870+102720FM-12+0175VTUM V0209999C000012200019N0090001N1+02801+01191100861ADDAA199000091AY101031AY201031GA1001+999999999GF100991001001999999001001MA1999999098901MD1999999-0121MW1051REMSYN076AAXX  09094 48352 31959 00000 10280 20119 39890 40086 70500 8//// 333 59012;EQDQ01  00002PRCP99
0230483520999992000020912004+17870+102720FM-12+0175VTUM V0209999C000012200019N0080001N1+02311+01511101011ADDAA199000091AY101061AY201061GA1001+999999999GF100991001001999999001001KA1120M+02831MA1999999099001MD1999999-0101MW1051REMSYN082AAXX  09124 48352 31958 00000 10231 20151 39900 40101 70500 8//// 333 10283 59010;EQDQ01  00002PRCP99
0205483520999992000020915004+17870+102720FM-12+0175VTUM V0209999C000012200019N0070001N1+02021+01601101191ADDAA199000091AY101031AY201031GA1001+999999999GF100991001001999999001001MA1999999099161MD1999999-0081MW1101REMSYN070AAXX  09154 48352 31957 00000 10202 20160 39916 40119 71000 333 59008;EQDQ01  00002PRCP99
0205483520999992000020918004+17870+102720FM-12+0175VTUM V0209999C000012200019N0060001N1+01831+01521101171ADDAA199000091AY101061AY201061GA1001+999999999GF100991001001999999001001MA1999999099121MD1999999-0121MW1101REMSYN070AAXX  09184 48352 31956 00000 10183 20152 39912 40117 71000 333 59012;EQDQ01  00002PRCP99
0205483520999992000020921004+17870+102720FM-12+0175VTUM V0209999C000012200019N0050001N1+01681+01471101181ADDAA199000091AY101031AY201031GA1001+999999999GF100991001001999999001001MA1999999099131MD1999999-0091MW1101REMSYN070AAXX  09214 48352 31950 00000 10168 20147 39913 40118 71000 333 59009;EQDQ01  00002PRCP99
0214483520999992000021000004+17870+102720FM-12+0175VTUM V0209999C000012200019N0030001N1+01661+01401101341ADDAA199000091AY101061AY201061GF102991021001999999031001KA1120N+01651MA1999999099291MD1999999-0151MW1101REMSYN082AAXX  10004 48352 31930 20000 10166 20140 39929 40134 71000 82030 333 20165 59015;EQDQ01  00002PRCP99
0177483520999992000021003004+17870+102720FM-12+0175VTUM V0200401N003112200019N0110001N1+02261+01411101471ADDAA199000091GA1001+999999999GF100991001001999999001001MA1999999099471MD1999999-0121REMSYN064AAXX  10034 48352 32961 00406 10226 20141 39947 40147 333 59012;EQDQ01  00002PRCP99
0177483520999992000021006004+17870+102720FM-12+0175VTUM V0209999C000012200019N0100001N1+02831+01371101161ADDAA199000091GA1001+999999999GF100991001001999999001001MA1999999099191MD1999999-0051REMSYN064AAXX  10064 48352 32960 00000 10283 20137 39919 40116 333 59005;EQDQ01  00002PRCP99
0177483520999992000021009004+17870+102720FM-12+0175VTUM V0209999C000012200019N0100001N1+02971+01741100821ADDAA199000091GA1001+999999999GF100991001001999999001001MA1999999098871MD1999999-0041REMSYN064AAXX  10094 48352 32960 00000 10297 20174 39887 40082 333 59004;EQDQ01  00002PRCP99
0196483520999992000021012004+17870+102720FM-12+0175VTUM V0209999C000012200019N0100001N1+02481+01651100931ADDAA199000091GA1001+999999999GF100991001001999999001001KA1120M+03051MA1999999098951MD1999999-0081REMSYN070AAXX  10124 48352 32960 00000 10248 20165 39895 40093 333 10305 59008;EQDQ01  00002PRCP99
0205483520999992000021015004+17870+102720FM-12+0175VTUM V0209999C000012200019N0080001N1+02071+01591101121ADDAA199000091AY101031AY201031GA1001+999999999GF100991001001999999001001MA1999999099101MD1999999+0031MW1101REMSYN070AAXX  10154 48352 31958 00000 10207 20159 39910 40112 71000 333 58003;EQDQ01  00002PRCP99
0205483520999992000021018004+17870+102720FM-12+0175VTUM V0209999C000012200019N0070001N1+01931+01651101161ADDAA199000091AY101061AY201061GA1001+999999999GF100991001001999999001001MA1999999099121MD1999999-0011MW1101REMSYN070AAXX  10184 48352 31957 00000 10193 20165 39912 40116 71000 333 59001;EQDQ01  00002PRCP99
0205483520999992000021021004+17870+102720FM-12+0175VTUM V0209999C000012200019N0060001N1+01811+01591101061ADDAA199000091AY101031AY201031GA1001+999999999GF100991001001999999001001MA1999999099021MD1999999-0121MW1101REMSYN070AAXX  10214 48352 31956 00000 10181 20159 39902 40106 71000 333 59012;EQDQ01  00002PRCP99
0224483520999992000021100004+17870+102720FM-12+0175VTUM V0209999C000012200019N0050001N1+01731+01591101231ADDAA199000091AY101061AY201061GA1001+999999999GF100991001001999999001001KA1120N+01711MA1999999099171MD1999999-0111MW1101REMSYN076AAXX  11004 48352 31950 00000 10173 20159 39917 40123 71000 333 20171 59011;EQDQ01  00002PRCP99
0205483520999992000021103004+17870+102720FM-12+0175VTUM V0209999C000012200019N0080001N1+02401+01671101351ADDAA199000091AY101031AY201031GA1001+999999999GF100991001001999999001001MA1999999099351MD1999999-0121MW1051REMSYN070AAXX  11034 48352 31958 00000 10240 20167 39935 40135 70500 333 59012;EQDQ01  00002PRCP99
0205483520999992000021106004+17870+102720FM-12+0175VTUM V0209999C000012200019N0090001N1+03071+01491101001ADDAA199000091AY101061AY201061GA1001+999999999GF100991001001999999001001MA1999999099041MD1999999-0161MW1051REMSYN070AAXX  11064 48352 31959 00000 10307 20149 39904 40100 70500 333 59016;EQDQ01  00002PRCP99
0195483520999992000021109004+17870+102720FM-12+0175VTUM V0200101N001012200019N0090001N1+03201+01521100721ADDAA199000091AY101031AY201031GF103991001001999999001051MA1999999098781MD1999999-0101MW1051REMSYN076AAXX  11094 48352 31959 30102 10320 20152 39878 40072 70500 80005 333 59010;EQDQ01  00002PRCP99
0224483520999992000021112004+17870+102720FM-12+0175VTUM V0209999C000012200019N0080001N1+02621+01711100831ADDAA199000091AY101061AY201061GA1001+999999999GF100991001001999999001001KA1120M+03301MA1999999098851MD1999999-0101MW1051REMSYN076AAXX  11124 48352 31958 00000 10262 20171 39885 40083 70500 333 10330 59010;EQDQ01  00002PRCP99
0205483520999992000021115004+17870+102720FM-12+0175VTUM V0209999C000012200019N0070001N1+02191+01611101011ADDAA199000091AY101031AY201031GA1001+999999999GF100991001001999999001001MA1999999099001MD1999999-0111MW1101REMSYN070AAXX  11154 48352 31957 00000 10219 20161 39900 40101 71000 333 59011;EQDQ01  00002PRCP99
0205483520999992000021118004+17870+102720FM-12+0175VTUM V0209999C000012200019N0060001N1+02021+01531101061ADDAA199000091AY101061AY201061GA1001+999999999GF100991001001999999001001MA1999999099031MD1999999-0101MW1101REMSYN070AAXX  11184 48352 31956 00000 10202 20153 39903 40106 71000 333 59010;EQDQ01  00002PRCP99
0224483520999992000021200004+17870+102720FM-12+0175VTUM V0209999C000012200019N0050001N1+01751+01581101191ADDAA199000091AY101061AY201061GA1001+999999999GF100991001001999999001001KA1120N+01701MA1999999099151MD1999999-0041MW1101REMSYN076AAXX  12004 48352 31950 00000 10175 20158 39915 40119 71000 333 20170 59004;EQDQ01  00002PRCP99
0205483520999992000021203004+17870+102720FM-12+0175VTUM V0209999C000012200019N0080001N1+02521+01601101271ADDAA199000091AY101031AY201031GA1001+999999999GF100991001001999999001001MA1999999099271MD1999999-0081MW1051REMSYN070AAXX  12034 48352 31958 00000 10252 20160 39927 40127 70500 333 59008;EQDQ01  00002PRCP99
0211483520999992000021206004+17870+102720FM-12+0175VTUM V0209999C000012200019N0080001N1+03161+01551100961ADDAA199000091AY101061AY201061GA1001+999999999GF100991001001999999001001MA1999999099011MD1999999-0041MW1051REMSYN076AAXX  12064 48352 31958 00000 10316 20155 39901 40096 70500 8//// 333 59004;EQDQ01  00002PRCP99
0205483520999992000021209004+17870+102720FM-12+0175VTUM V0209999C000012200019N0080001N1+03251+01551100661ADDAA199000091AY101031AY201031GA1001+999999999GF100991001001999999001001MA1999999098731MD1999999-0061MW1051REMSYN070AAXX  12094 48352 31958 00000 10325 20155 39873 40066 70500 333 59006;EQDQ01  00002PRCP99
0224483520999992000021212004+17870+102720FM-12+0175VTUM V0209999C000012200019N0070001N1+02661+01601100751ADDAA199000091AY101061AY201061GA1001+999999999GF100991001001999999001001KA1120M+03341MA1999999098781MD1999999-0081MW1051REMSYN076AAXX  12124 48352 31957 00000 10266 20160 39878 40075 70500 333 10334 59008;EQDQ01  00002PRCP99
0205483520999992000021215004+17870+102720FM-12+0175VTUM V0209999C000012200019N0060001N1+02351+01681100791ADDAA199000091AY101031AY201031GA1001+999999999GF100991001001999999001001MA1999999098801MD1999999-0221MW1101REMSYN070AAXX  12154 48352 31956 00000 10235 20168 39880 40079 71000 333 59022;EQDQ01  00002PRCP99
0205483520999992000021218004+17870+102720FM-12+0175VTUM V0209999C000012200019N0050001N1+02051+01721100951ADDAA199000091AY101061AY201061GA1001+999999999GF100991001001999999001001MA1999999098941MD1999999-0111MW1101REMSYN070AAXX  12184 48352 31950 00000 10205 20172 39894 40095 71000 333 59011;EQDQ01  00002PRCP99
0205483520999992000021221004+17870+102720FM-12+0175VTUM V0209999C000012200019N0050001N1+01911+01701100871ADDAA199000091AY101031AY201031GA1001+999999999GF100991001001999999001001MA1999999098851MD1999999-0121MW1101REMSYN070AAXX  12214 48352 31950 00000 10191 20170 39885 40087 71000 333 59012;EQDQ01  00002PRCP99
0224483520999992000021300004+17870+102720FM-12+0175VTUM V0209999C000012200019N0030001N1+01801+01671101011ADDAA199000091AY101061AY201061GA1001+999999999GF100991001001999999001001KA1120N+01771MA1999999098981MD1999999-0181MW1101REMSYN076AAXX  13004 48352 31930 00000 10180 20167 39898 40101 71000 333 20177 59018;EQDQ01  00002PRCP99
0205483520999992000021303004+17870+102720FM-12+0175VTUM V0209999C000012200019N0080001N1+02501+01771101171ADDAA199000091AY101031AY201031GA1001+999999999GF100991001001999999001001MA1999999099171MD1999999-0101MW1051REMSYN070AAXX  13034 48352 31958 00000 10250 20177 39917 40117 70500 333 59010;EQDQ01  00002PRCP99
0205483520999992000021306004+17870+102720FM-12+0175VTUM V0209999C000012200019N0080001N1+03301+01621100781ADDAA199000091AY101061AY201061GA1001+999999999GF100991001001999999001001MA1999999098851MD1999999-0181MW1051REMSYN070AAXX  13064 48352 31958 00000 10330 20162 39885 40078 70500 333 59018;EQDQ01  00002PRCP99
0205483520999992000021309004+17870+102720FM-12+0175VTUM V0209999C000012200019N0080001N1+03411+01541100531ADDAA199000091AY101031AY201031GA1001+999999999GF100991001001999999001001MA1999999098611MD1999999-0131MW1051REMSYN070AAXX  13094 48352 31958 00000 10341 20154 39861 40053 70500 333 59013;EQDQ01  00002PRCP99
0230483520999992000021312004+17870+102720FM-12+0175VTUM V0209999C000012200019N0070001N1+02781+01791100641ADDAA199000091AY101061AY201061GA1001+999999999GF100991001001999999001001KA1120M+03501MA1999999098671MD1999999-0111MW1051REMSYN082AAXX  13124 48352 31957 00000 10278 20179 39867 40064 70500 8//// 333 10350 59011;EQDQ01  00002PRCP99
0205483520999992000021315004+17870+102720FM-12+0175VTUM V0209999C000012200019N0060001N1+02361+01751100841ADDAA199000091AY101031AY201031GA1001+999999999GF100991001001999999001001MA1999999098851MD1999999+0051MW1101REMSYN070AAXX  13154 48352 31956 00000 10236 20175 39885 40084 71000 333 58005;EQDQ01  00002PRCP99
0205483520999992000021318004+17870+102720FM-12+0175VTUM V0209999C000012200019N0050001N1+02071+01851100861ADDAA199000091AY101061AY201061GA1001+999999999GF100991001001999999001001MA1999999098851MD1999999-0091MW1101REMSYN070AAXX  13184 48352 31950 00000 10207 20185 39885 40086 71000 333 59009;EQDQ01  00002PRCP99
0205483520999992000021321004+17870+102720FM-12+0175VTUM V0209999C000012200019N0040001N1+02001+01741100841ADDAA199000091AY101031AY201031GA1001+999999999GF100991001001999999001001MA1999999098821MD1999999-0031MW1101REMSYN070AAXX  13214 48352 31940 00000 10200 20174 39882 40084 71000 333 59003;EQDQ01  00002PRCP99
0224483520999992000021400004+17870+102720FM-12+0175VTUM V0209999C000012200019N0020001N1+01831+01701101041ADDAA199000091AY101061AY201061GA1001+999999999GF100991001001999999001001KA1120N+01791MA1999999099001MD1999999+0031MW1101REMSYN076AAXX  14004 48352 31920 00000 10183 20170 39900 40104 71000 333 20179 58003;EQDQ01  00002PRCP99
0205483520999992000021403004+17870+102720FM-12+0175VTUM V0209999C000012200019N0080001N1+02681+01871101151ADDAA199000091AY101031AY201031GA1001+999999999GF100991001001999999001001MA1999999099161MD1999999-0021MW1051REMSYN070AAXX  14034 48352 31958 00000 10268 20187 39916 40115 70500 333 59002;EQDQ01  00002PRCP99
0205483520999992000021406004+17870+102720FM-12+0175VTUM V0209999C000012200019N0080001N1+03401+01821100851ADDAA199000091AY101061AY201061GA1001+999999999GF100991001001999999001001MA1999999098931MD1999999+0071MW1051REMSYN070AAXX  14064 48352 31958 00000 10340 20182 39893 40085 70500 333 58007;EQDQ01  00002PRCP99
0205483520999992000021415004+17870+102720FM-12+0175VTUM V0209999C000012200019N0060001N1+02381+01751100921ADDAA199000091AY101031AY201031GA1001+999999999GF100991001001999999001001MA1999999098911MD1999999+0081MW1101REMSYN070AAXX  14154 48352 31956 00000 10238 20175 39891 40092 71000 333 58008;EQDQ01  00002PRCP99
0205483520999992000021418004+17870+102720FM-12+0175VTUM V0209999C000012200019N0060001N1+02161+01761100961ADDAA199000091AY101061AY201061GA1001+999999999GF100991001001999999001001MA1999999098961MD1999999+0101MW1101REMSYN070AAXX  14184 48352 31956 00000 10216 20176 39896 40096 71000 333 58010;EQDQ01  00002PRCP99
0205483520999992000021421004+17870+102720FM-12+0175VTUM V0200901N001012200019N0050001N1+02121+01731101001ADDAA199000091AY101031AY201031GA1001+999999999GF100991001001999999001001MA1999999098991MD1999999+0161MW1101REMSYN070AAXX  14214 48352 31950 00902 10212 20173 39899 40100 71000 333 58016;EQDQ01  00002PRCP99
0224483520999992000021500004+17870+102720FM-12+0175VTUM V0209999C000012200019N0040001N1+02001+01741101271ADDAA199000091AY101061AY201061GA1001+999999999GF100991001001999999001001KA1120N+01981MA1999999099241MD1999999+0231MW1101REMSYN076AAXX  15004 48352 31940 00000 10200 20174 39924 40127 71000 333 20198 58023;EQDQ01  00002PRCP99
0205483520999992000021503004+17870+102720FM-12+0175VTUM V0200901N001512200019N0070001N1+02661+01701101431ADDAA199000091AY101031AY201031GA1001+999999999GF100991001001999999001001MA1999999099451MD1999999+0281MW1051REMSYN070AAXX  15034 48352 31957 00903 10266 20170 39945 40143 70500 333 58028;EQDQ01  00002PRCP99
0205483520999992000021506004+17870+102720FM-12+0175VTUM V0200501N001012200019N0080001N1+03031+01721101171ADDAA199000091AY101061AY201061GA1001+999999999GF100991001001999999001001MA1999999099211MD1999999+0321MW1051REMSYN070AAXX  15064 48352 31958 00502 10303 20172 39921 40117 70500 333 58032;EQDQ01  00002PRCP99
0205483520999992000021509004+17870+102720FM-12+0175VTUM V0209999C000012200019N0080001N1+03201+01731100851ADDAA199000091AY101031AY201031GA1001+999999999GF100991001001999999001001MA1999999098911MD1999999+0241MW1051REMSYN070AAXX  15094 48352 31958 00000 10320 20173 39891 40085 70500 333 58024;EQDQ01  00002PRCP99
0224483520999992000021512004+17870+102720FM-12+0175VTUM V0209999C000012200019N0070001N1+02791+01801100941ADDAA199000091AY101061AY201061GA1001+999999999GF100991001001999999001001KA1120M+03261MA1999999098981MD1999999+0211MW1051REMSYN076AAXX  15124 48352 31957 00000 10279 20180 39898 40094 70500 333 10326 58021;EQDQ01  00002PRCP99
0205483520999992000021515004+17870+102720FM-12+0175VTUM V0209999C000012200019N0060001N1+02551+01751101171ADDAA199000091AY101031AY201031GA1001+999999999GF100991001001999999001001MA1999999099191MD1999999+0251MW1051REMSYN070AAXX  15154 48352 31956 00000 10255 20175 39919 40117 70500 333 58025;EQDQ01  00002PRCP99
0205483520999992000021518004+17870+102720FM-12+0175VTUM V0200901N001012200019N0050001N1+02301+01641101221ADDAA199000091AY101061AY201061GA1001+999999999GF100991001001999999001001MA1999999099221MD1999999+0261MW1101REMSYN070AAXX  15184 48352 31950 00902 10230 20164 39922 40122 71000 333 58026;EQDQ01  00002PRCP99
0205483520999992000021521004+17870+102720FM-12+0175VTUM V0200901N001012200019N0050001N1+02101+01691101191ADDAA199000091AY101031AY201031GA1001+999999999GF100991001001999999001001MA1999999099161MD1999999+0191MW1101REMSYN070AAXX  15214 48352 31950 00902 10210 20169 39916 40119 71000 333 58019;EQDQ01  00002PRCP99
0214483520999992000021600004+17870+102720FM-12+0175VTUM V0209999C000012200019N0040001N1+01961+01701101351ADDAA199000091AY101061AY201061GF102991001001999999001051KA1120N+01931MA1999999099321MD1999999+0081MW1101REMSYN082AAXX  16004 48352 31940 20000 10196 20170 39932 40135 71000 80005 333 20193 58008;EQDQ01  00002PRCP99
0195483520999992000021603004+17870+102720FM-12+0175VTUM V0200401N001019999999N0080001N1+02461+01721101491ADDAA199000091AY111031AY201031GF106991001001999999001061MA1999999099501MD1999999+0061MW1051REMSYN076AAXX  16034 48352 31958 60402 10246 20172 39950 40149 70510 80006 333 58006;EQDQ01  00002PRCP99
0195483520999992000021606004+17870+102720FM-12+0175VTUM V0200601N002619999999N0080001N1+02901+01691101181ADDAA199000091AY121061AY221061GF106991001001999999001061MA1999999099241MD1999999+0011MW1051REMSYN076AAXX  16064 48352 31958 60605 10290 20169 39924 40118 70522 80006 333 58001;EQDQ01  00002PRCP99
0195483520999992000021609004+17870+102720FM-12+0175VTUM V0200201N001510075019N0080001N1+02781+01811100951ADDAA199000091AY121031AY221031GF108991051051008001031061MA1999999098941MD1999999+0101MW1051REMSYN076AAXX  16094 48352 31558 80203 10278 20181 39894 40095 70522 85536 333 58010;EQDQ01  00002PRCP99
0214483520999992000021612004+17870+102720FM-12+0175VTUM V0209999C000010450019N0070001N1+02521+01861101071ADDAA199000091AY121061AY221061GF108991041051008001031061KA1120M+02971MA1999999099071MD1999999+0131MW1101REMSYN082AAXX  16124 48352 31557 80000 10252 20186 39907 40107 71022 84536 333 10297 58013;EQDQ01  00002PRCP99
0195483520999992000021615004+17870+102720FM-12+0175VTUM V0209999C000010075019N0060001N1+02381+01861101661ADDAA199000091AY121031AY221031GF108991051051008001031061MA1999999099161MD1999999-0011MW1101REMSYN076AAXX  16154 48352 31556 80000 10238 20186 39916 40166 71022 85536 333 59001;EQDQ01  00002PRCP99
0195483520999992000021618004+17870+102720FM-12+0175VTUM V0209999C000010450019N0060001N1+02271+01891101131ADDAA199000091AY121061AY221061GF108991041051008001031061MA1999999099121MD1999999-0091MW1101REMSYN076AAXX  16184 48352 31556 80000 10227 20189 39912 40113 71022 84536 333 59009;EQDQ01  00002PRCP99
0195483520999992000021621004+17870+102720FM-12+0175VTUM V0209999C000010450019N0060001N1+02171+01901101091ADDAA199000091AY121031AY221031GF108991031051008001031061MA1999999099071MD1999999-0101MW1101REMSYN076AAXX  16214 48352 31556 80000 10217 20190 39907 40109 71022 83536 333 59010;EQDQ01  00002PRCP99
0195483520999992000021703004+17870+102720FM-12+0175VTUM V0200901N001512200019N0080001N1+02591+01821101381ADDAA199000091AY121031AY221031GF106991021051008001001061MA1999999099391MD1999999-0111MW1051REMSYN076AAXX  17034 48352 31558 60903 10259 20182 39939 40138 70522 82506 333 59011;EQDQ01  00002PRCP99
0195483520999992000021706004+17870+102720FM-12+0175VTUM V0200301N001510450019N0080001N1+03001+01781100991ADDAA199000091AY121061AY221061GF108991041051008001031061MA1999999099031MD1999999-0191MW1051REMSYN076AAXX  17064 48352 31558 80303 10300 20178 39903 40099 70522 84536 333 59019;EQDQ01  00002PRCP99
0195483520999992000021709004+17870+102720FM-12+0175VTUM V0201201N001512200019N0080001N1+03151+01761100691ADDAA199000091AY121031AY211031GF103991001001999999001051MA1999999098751MD1999999-0261MW1051REMSYN076AAXX  17094 48352 31958 31203 10315 20176 39875 40069 70521 80005 333 59026;EQDQ01  00002PRCP99
0214483520999992000021712004+17870+102720FM-12+0175VTUM V0209999C000012200019N0070001N1+02841+01931100741ADDAA199000091AY111061AY201061GF103991001001999999001051KA1120M+03201MA1999999098781MD1999999-0331MW1051REMSYN082AAXX  17124 48352 31957 30000 10284 20193 39878 40074 70510 80005 333 10320 59033;EQDQ01  00002PRCP99
0195483520999992000021715004+17870+102720FM-12+0175VTUM V0209999C000010450019N0070001N1+02631+01921100951ADDAA199000091AY111031AY201031GF106991031051008001031061MA1999999098971MD1999999-0211MW1101REMSYN076AAXX  17154 48352 31557 60000 10263 20192 39897 40095 71010 83536 333 59021;EQDQ01  00002PRCP99
0195483520999992000021718004+17870+102720FM-12+0175VTUM V0209999C000010075019N0060001N1+02411+01891100971ADDAA199000091AY121061AY211061GF108991051051008001031061MA1999999098981MD1999999-0161MW1101REMSYN076AAXX  17184 48352 31556 80000 10241 20189 39898 40097 71021 85536 333 59016;EQDQ01  00002PRCP99
0195483520999992000021721004+17870+102720FM-12+0175VTUM V0200801N001012200019N0050001N1+02321+01811100951ADDAA199000091AY121031AY221031GF106991021051008001001061MA1999999098961MD1999999-0141MW1101REMSYN076AAXX  17214 48352 31550 60802 10232 20181 39896 40095 71022 82506 333 59014;EQDQ01  00002PRCP99
0214483520999992000021800004+17870+102720FM-12+0175VTUM V0209999C000011050019N0040001N1+02201+01751101151ADDAA199000091AY121061AY221061GF107991031021008001001061KA1120N+02181MA1999999099131MD1999999-0071MW1101REMSYN082AAXX  18004 48352 31540 70000 10220 20175 39913 40115 71022 83206 333 20218 59007;EQDQ01  00002PRCP99
0195483520999992000021803004+17870+102720FM-12+0175VTUM V0200901N001510120019N0060001N1+02601+01741101341ADDAA199000091AY121031AY221031GF107991051081008001031061MA1999999099351MD1999999-0041MW1051REMSYN076AAXX  18034 48352 31556 70903 10260 20174 39935 40134 70522 85836 333 59004;EQDQ01  00002PRCP99
0195483520999992000021806004+17870+102720FM-12+0175VTUM V0203201N001012200019N0080001N1+03001+01851101061ADDAA199000091AY121061AY211061GF104991021011008001001061MA1999999099101MD1999999+0071MW1051REMSYN076AAXX  18064 48352 31558 43202 10300 20185 39910 40106 70521 82106 333 58007;EQDQ01  00002PRCP99
0195483520999992000021809004+17870+102720FM-12+0175VTUM V0200201N001012200019N0080001N1+03061+01931100721ADDAA199000091AY101031AY201031GF103991021051008001001051MA1999999098781MD1999999+0031MW1051REMSYN076AAXX  18094 48352 31558 30202 10306 20193 39878 40072 70500 82505 333 58003;EQDQ01  00002PRCP99
0214483520999992000021812004+17870+102720FM-12+0175VTUM V0209999C000010120019N0070001N1+02601+01981100811ADDAA199000091AY101061AY201061GF107991051081008001031061KA1120M+03171MA1999999098841MD1999999+0071MW1101REMSYN082AAXX  18124 48352 31557 70000 10260 20198 39884 40081 71000 85836 333 10317 58007;EQDQ01  00002PRCP99
0195483520999992000021818004+17870+102720FM-12+0175VTUM V0209999C000010120019N0050001N1+02301+02071100881ADDAA199000091AY121061AY221061GF107991051081008001031061MA1999999098881MD1999999-0071MW1101REMSYN076AAXX  18184 48352 31550 70000 10230 20207 39888 40088 71022 85836 333 59007;EQDQ01  00002PRCP99
0214483520999992000021900004+17870+102720FM-12+0175VTUM V0209999C000010450019N0050001N1+02241+02061101041ADDAA199000091AY121061AY221061GF107991041051008001031061KA1120N+02221MA1999999099021MD1999999-0111MW1101REMSYN082AAXX  19004 48352 31550 70000 10224 20206 39902 40104 71022 84536 333 20222 59011;EQDQ01  00002PRCP99
0195483520999992000021903004+17870+102720FM-12+0175VTUM V0209999C000010450019N0080001N1+02671+02101101171ADDAA199000091AY121031AY221031GF105991031051008001031051MA1999999099191MD1999999-0171MW1101REMSYN076AAXX  19034 48352 31558 50000 10267 20210 39919 40117 71022 83535 333 59017;EQDQ01  00002PRCP99
0195483520999992000021906004+17870+102720FM-12+0175VTUM V0203601N001012200019N0080001N1+03251+02141100841ADDAA199000091AY121061AY211061GF102991021021008001001001MA1999999098911MD1999999-0221MW1051REMSYN076AAXX  19064 48352 31558 23602 10325 20214 39891 40084 70521 82200 333 59022;EQDQ01  00002PRCP99
0195483520999992000021909004+17870+102720FM-12+0175VTUM V0209999C000010120019N0080001N1+03201+02121100551ADDAA199000091AY121031AY211031GF106991051081008001001051MA1999999098621MD1999999-0171MW1051REMSYN076AAXX  19094 48352 31558 60000 10320 20212 39862 40055 70521 85805 333 59017;EQDQ01  00002PRCP99
0214483520999992000021912004+17870+102720FM-12+0175VTUM V0209999C000010120019N0080001N1+02951+02231100611ADDAA199000091AY121061AY211061GF107991051081008001031061KA1120M+03401MA1999999098661MD1999999-0201MW1101REMSYN082AAXX  19124 48352 31558 70000 10295 20223 39866 40061 71021 85836 333 10340 59020;EQDQ01  00002PRCP99
0195483520999992000021915004+17870+102720FM-12+0175VTUM V0209999C000010450019N0070001N1+02721+02181100831ADDAA199000091AY121031AY221031GF107991041081008001031061MA1999999098861MD1999999-0191MW1101REMSYN076AAXX  19154 48352 31557 70000 10272 20218 39886 40083 71022 84836 333 59019;EQDQ01  00002PRCP99
0194483520999992000021918004+17870+102720FM-12+0175VTUM V0209999C000010075019N0070001N1+02551+02391100811ADDAA101001091AY121061AY221061GF108991061051008001071999MA1999999098841MD1999999-0141MW1211REMSYN094AAXX  19184 48352 /1557 80000 10255 20239 39884 40081 60013 72122 8657/ 333 59014 60015 70011;
0119483520999992000021921004+17870+102720FM-12+0175VTUM V0209999C000019999999N0070001N1+02451+99999999999ADDGF108991999999008001999999REMSYN081AAXX  19214 48352 21557 80000 10245 0235 39877 40076 72162 86556 333 59012 60036;
0207483520999992000022000004+17870+102720FM-12+0175VTUM V0209999C000010450019N0030001N1+02391+02301100871ADDAA124004191AY161061AY221061GF106991041051008001071061KA1120N+02361MA1999999098881MD1999999-0171MW1101REMSYN094AAXX  20004 48352 11530 60000 10239 20230 39888 40087 60044 71062 84576 333 20236 59017 70044;
0176483520999992000022003004+17870+102720FM-12+0175VTUM V0209999C000010450019N0090001N1+02561+02401101111ADDAA199000021AY121031AY221031GF106991031051008001031061MA1999999099121MD1999999-0061MW1101REMSYN076AAXX  20034 48352 31559 60000 10256 20240 39912 40111 71022 83536 333 59006;
0182483520999992000022006004+17870+102720FM-12+0175VTUM V0201501N001011050019N0090001N1+03071+02281100781ADDAA124004391AY121061AY221061GF106991041081008001001051MA1999999098841MD1999999-0061MW1051REMSYN082AAXX  20064 48352 31559 61502 10307 20228 39884 40078 70522 84805 333 59006 70044;
0195483520999992000022009004+17870+102720FM-12+0175VTUM V0209999C000010450019N0080001N1+03281+02251100491ADDAA199000091AY121031AY221031GF106991041081008001031051MA1999999098571MD1999999-0061MW1051REMSYN076AAXX  20094 48352 31558 60000 10328 20225 39857 40049 70522 84835 333 59006;EQDQ01  00002PRCP99
0201483520999992000022012004+17870+102720FM-12+0175VTUM V0209999C000010450019N0080001N1+02941+02251100591ADDAA124004391AY121061AY221061GF107991041051008001031061KA1120M+03421MA1999999098631MD1999999-0021MW1101REMSYN088AAXX  20124 48352 31558 70000 10294 20225 39863 40059 71022 84536 333 10342 59002 70044;
0195483520999992000022015004+17870+102720FM-12+0175VTUM V0209999C000012200019N0070001N1+02671+02321100811ADDAA199000091AY121031AY211031GF103991031051008001001051MA1999999098851MD1999999-0021MW1101REMSYN076AAXX  20154 48352 31557 30000 10267 20232 39885 40081 71021 83505 333 59002;EQDQ01  00002PRCP99
0182483520999992000022018004+17870+102720FM-12+0175VTUM V0209999C000012200019N0070001N1+02521+02301100881ADDAA124003391AY111061AY201061GF102991021051008001031001MA1999999098901MD1999999+0071MW1101REMSYN082AAXX  20184 48352 31557 20000 10252 20230 39890 40088 71010 82530 333 58007 70033;
0195483520999992000022021004+17870+102720FM-12+0175VTUM V0209999C000012200019N0060001N1+02451+02301100811ADDAA199000091AY101031AY201031GF102991021051008001001001MA1999999098831MD1999999+0051MW1101REMSYN076AAXX  20214 48352 31556 20000 10245 20230 39883 40081 71000 82500 333 58005;EQDQ01  00002PRCP99
0214483520999992000022100004+17870+102720FM-12+0175VTUM V0209999C000012200019N0060001N1+02361+02261100931ADDAA199000091AY101061AY201061GF104991031051008001001051KA1120N+02351MA1999999098941MD1999999+0061MW1101REMSYN082AAXX  21004 48352 31556 40000 10236 20226 39894 40093 71000 83505 333 20235 58006;EQDQ01  00002PRCP99
0205483520999992000022103004+17870+102720FM-12+0175VTUM V0209999C000012200019N0090001N1+03021+02311101111ADDAA199000091AY101031AY201031GA1001+999999999GF100991001001999999001001MA1999999099151MD1999999+0001MW1101REMSYN070AAXX  21034 48352 31959 00000 10302 20231 39915 40111 71000 333 58000;EQDQ01  00002PRCP99
0195483520999992000022106004+17870+102720FM-12+0175VTUM V0209999C000012200019N0090001N1+03441+02081100801ADDAA199000091AY101061AY201061GF103991031021008001001011MA1999999098881MD1999999+0021MW1051REMSYN076AAXX  21064 48352 31559 30000 10344 20208 39888 40080 70500 83201 333 58002;EQDQ01  00002PRCP99
0195483520999992000022109004+17870+102720FM-12+0175VTUM V0209999C000012200019N0080001N1+03491+02141100491ADDAA199000091AY101031AY201031GF104991031081008001001051MA1999999098571MD1999999+0001MW1051REMSYN076AAXX  21094 48352 31558 40000 10349 20214 39857 40049 70500 83805 333 58000;EQDQ01  00002PRCP99
0214483520999992000022112004+17870+102720FM-12+0175VTUM V0209999C000012200019N0070001N1+03121+02311100581ADDAA199000091AY101061AY201061GF104991031051008001001051KA1120M+03671MA1999999098631MD1999999-0011MW1051REMSYN082AAXX  21124 48352 31557 40000 10312 20231 39863 40058 70500 83505 333 10367 59001;EQDQ01  00002PRCP99
0195483520999992000022115004+17870+102720FM-12+0175VTUM V0209999C000011050019N0070001N1+02831+02301100861ADDAA199000091AY111031AY201031GF105991031051008001001051MA1999999098901MD1999999+0051MW1101REMSYN076AAXX  21154 48352 31557 50000 10283 20230 39890 40086 71010 83505 333 58005;EQDQ01  00002PRCP99
0195483520999992000022118004+17870+102720FM-12+0175VTUM V0209999C000012200019N0060001N1+02681+02221100841ADDAA199000091AY111061AY201061GF103991031051008001001001MA1999999098871MD1999999-0041MW1101REMSYN076AAXX  21184 48352 31556 30000 10268 20222 39887 40084 71010 83500 333 59004;EQDQ01  00002PRCP99
0195483520999992000022121004+17870+102720FM-12+0175VTUM V0209999C000012200019N0050001N1+02471+02171100811ADDAA199000091AY101031AY201031GF103991021051008001001051MA1999999098831MD1999999+0001MW1101REMSYN076AAXX  21214 48352 31550 30000 10247 20217 39883 40081 71000 82505 333 58000;EQDQ01  00002PRCP99
0214483520999992000022200004+17870+102720FM-12+0175VTUM V0209999C000012200019N0050001N1+02401+02251100961ADDAA199000091AY101061AY201061GF102991001001999999001011KA1120N+02381MA1999999098971MD1999999+0031MW1101REMSYN082AAXX  22004 48352 31950 20000 10240 20225 39897 40096 71000 80001 333 20238 58003;EQDQ01  00002PRCP99
0195483520999992000022203004+17870+102720FM-12+0175VTUM V0209999C000012200019N0070001N1+03001+02241101191ADDAA199000091AY101031AY201031GF101991011011008001001001MA1999999099231MD1999999+0081MW1051REMSYN076AAXX  22034 48352 31557 10000 10300 20224 39923 40119 70500 81100 333 58008;EQDQ01  00002PRCP99
0195483520999992000022206004+17870+102720FM-12+0175VTUM V0203401N001011050019N0080001N1+03351+02261100881ADDAA199000091AY111061AY201061GF106991041021008001001051MA1999999098961MD1999999+0081MW1051REMSYN076AAXX  22064 48352 31558 63402 10335 20226 39896 40088 70510 84205 333 58008;EQDQ01  00002PRCP99
0195483520999992000022209004+17870+102720FM-12+0175VTUM V0209999C000010450019N0080001N1+03461+02141100681ADDAA199000091AY121031AY221031GF106991041081008001031051MA1999999098771MD1999999+0191MW1051REMSYN076AAXX  22094 48352 31558 60000 10346 20214 39877 40068 70522 84835 333 58019;EQDQ01  00002PRCP99
0214483520999992000022212004+17870+102720FM-12+0175VTUM V0202201N001510450019N0080001N1+02951+02251100691ADDAA199000091AY121061AY221061GF107991041051008001041061KA1120M+03581MA1999999098741MD1999999+0111MW1101REMSYN082AAXX  22124 48352 31558 72203 10295 20225 39874 40069 71022 84546 333 10358 58011;EQDQ01  00002PRCP99
0195483520999992000022215004+17870+102720FM-12+0175VTUM V0209999C000011050019N0070001N1+02701+02271100831ADDAA199000091AY121031AY221031GF107991041051008001001061MA1999999098861MD1999999-0031MW1101REMSYN076AAXX  22154 48352 31557 70000 10270 20227 39886 40083 71022 84506 333 59003;EQDQ01  00002PRCP99
0195483520999992000022218004+17870+102720FM-12+0175VTUM V0209999C000012200019N0060001N1+02531+02251100861ADDAA199000091AY121061AY221061GF106991031051008001001061MA1999999098871MD1999999+0021MW1101REMSYN076AAXX  22184 48352 31556 60000 10253 20225 39887 40086 71022 83506 333 58002;EQDQ01  00002PRCP99
0195483520999992000022221004+17870+102720FM-12+0175VTUM V0209999C000012200019N0060001N1+02441+02231100781ADDAA199000091AY121031AY221031GF106991021051008001001061MA1999999098791MD1999999-0031MW1101REMSYN076AAXX  22214 48352 31556 60000 10244 20223 39879 40078 71022 82506 333 59003;EQDQ01  00002PRCP99
0214483520999992000022300004+17870+102720FM-12+0175VTUM V0209999C000012200019N0050001N1+02361+02231100941ADDAA199000091AY111061AY201061GF103991021051008001001051KA1120N+02331MA1999999098951MD1999999-0021MW1101REMSYN082AAXX  23004 48352 31550 30000 10236 20223 39895 40094 71010 82505 333 20233 59002;EQDQ01  00002PRCP99
0205483520999992000022303004+17870+102720FM-12+0175VTUM V0209999C000012200019N0080001N1+03131+02201101071ADDAA199000091AY101031AY201031GA1001+999999999GF100991001001999999001001MA1999999099111MD1999999-0121MW1051REMSYN070AAXX  23034 48352 31958 00000 10313 20220 39911 40107 70500 333 59012;EQDQ01  00002PRCP99
0195483520999992000022306004+17870+102720FM-12+0175VTUM V0203101N001012200019N0080001N1+03551+02211100781ADDAA199000091AY101061AY201061GF102991021021008001001001MA1999999098871MD1999999-0101MW1051REMSYN076AAXX  23064 48352 31558 23102 10355 20221 39887 40078 70500 82200 333 59010;EQDQ01  00002PRCP99
0195483520999992000022309004+17870+102720FM-12+0175VTUM V0209999C000012200019N0080001N1+03631+02171100471ADDAA199000091AY101031AY201031GF102991021021008001001001MA1999999098561MD1999999-0211MW1051REMSYN076AAXX  23094 48352 31558 20000 10363 20217 39856 40047 70500 82200 333 59021;EQDQ01  00002PRCP99
0214483520999992000022312004+17870+102720FM-12+0175VTUM V0209999C000010450019N0070001N1+03171+02271100531ADDAA199000091AY111061AY201061GF106991041051008001031051KA1120M+03741MA1999999098591MD1999999-0161MW1051REMSYN082AAXX  23124 48352 31557 60000 10317 20227 39859 40053 70510 84535 333 10374 59016;EQDQ01  00002PRCP99
0195483520999992000022315004+17870+102720FM-12+0175VTUM V0209999C000012200019N0060001N1+02901+02271100801ADDAA199000091AY111031AY201031GF104991021051008001031051MA1999999098841MD1999999-0031MW1101REMSYN076AAXX  23154 48352 31556 40000 10290 20227 39884 40080 71010 82535 333 59003;EQDQ01  00002PRCP99
0195483520999992000022318004+17870+102720FM-12+0175VTUM V0209999C000010450019N0060001N1+02801+02291100791ADDAA199000091AY121061AY211061GF106991041051008001031061MA1999999098831MD1999999-0071MW1101REMSYN076AAXX  23184 48352 31556 60000 10280 20229 39883 40079 71021 84536 333 59007;EQDQ01  00002PRCP99
0195483520999992000022321004+17870+102720FM-12+0175VTUM V0209999C000012200019N0050001N1+02621+02251100781ADDAA199000091AY121031AY221031GF106991041051008001001061MA1999999098801MD1999999+0001MW1101REMSYN076AAXX  23214 48352 31550 60000 10262 20225 39880 40078 71022 84506 333 58000;EQDQ01  00002PRCP99
0214483520999992000022400004+17870+102720FM-12+0175VTUM V0200901N001012200019N0050001N1+02551+02271100991ADDAA199000091AY121061AY221061GF106991041051008001001061KA1120N+02521MA1999999099001MD1999999+0051MW1101REMSYN082AAXX  24004 48352 31550 60902 10255 20227 39900 40099 71022 84506 333 20252 58005;EQDQ01  00002PRCP99
0180483520999992000022403004+17870+102720FM-12+0175VTUM V0200901N001512200019N0070001N1+03001+02351101191ADDAA199000091AY121031AY211031GF104991021011008001001061MA1999999099231MW1101REMSYN075AAXX  24034 48352 31557 40903 10300 20235 39923 40119 71021 82106 33 58012;EQDQ01  00002PRCP99
0195483520999992000022406004+17870+102720FM-12+0175VTUM V0200601N001512200019N0080001N1+03431+02261100851ADDAA199000091AY111061AY211061GF104991031021008001001061MA1999999098931MD1999999+0071MW1051REMSYN076AAXX  24064 48352 31558 40603 10343 20226 39893 40085 70511 83206 333 58007;EQDQ01  00002PRCP99
0195483520999992000022409004+17870+102720FM-12+0175VTUM V0209999C000012200019N0080001N1+03491+02231100491ADDAA199000091AY111031AY211031GF104991031021999999001061MA1999999098581MD1999999+0021MW1051REMSYN076AAXX  24094 48352 31958 40000 10349 20223 39858 40049 70511 83206 333 58002;EQDQ01  00002PRCP99
0214483520999992000022412004+17870+102720FM-12+0175VTUM V0200501N002110120019N0070001N1+03101+02321100631ADDAA199000091AY111061AY211061GF107991051081008001031061KA1120M+03561MA1999999098681MD1999999+0101MW1051REMSYN082AAXX  24124 48352 31557 70504 10310 20232 39868 40063 70511 85836 333 10356 58010;EQDQ01  00002PRCP99
0195483520999992000022415004+17870+102720FM-12+0175VTUM V0201701N001510075019N0070001N1+02771+02221101051ADDAA199000091AY121031AY221031GF108991061091008001071031MA1999999099081MD1999999+0251MW1131REMSYN076AAXX  24154 48352 31557 81703 10277 20222 39908 40105 71322 86973 333 58025;EQDQ01  00002PRCP99
0194483520999992000022418004+17870+102720FM-12+0175VTUM V0209999C000010120019N0070001N1+02301+02211101121ADDAA103025991AY191061AY261061GF108991061081008001071061MA1999999099111MD1999999+0331MW1131REMSYN094AAXX  24184 48352 /1557 80000 10230 20221 39911 40112 60263 71396 86876 333 58033 60267 70258;
0173483520999992000022500004+17870+102720FM-12+0175VTUM V0203501N001510075019N0120001N1+02231+02081101211ADDAA124025991GF108991061051008001071999KA1120N+02211MA1999999099191MD1999999+0221REMSYN082AAXX  25004 48352 32562 83503 10223 20208 39919 40121 8657/ 333 20221 58022 70258;
0167483520999992000022503004+17870+102720FM-12+0175VTUM V0209999C000010075019N0130001N1+02551+02101101341ADDAA199000091GF108991051051008001071061MA1999999099351MD1999999+0151REMSYN070AAXX  25034 48352 32563 80000 10255 20210 39935 40134 85576 333 58015;EQDQ01  00002PRCP99
0154483520999992000022506004+17870+102720FM-12+0175VTUM V0209999C000010120019N0140001N1+02811+02091101151ADDAA124025991GF108991051081008001071061MA1999999099171MD1999999+0301REMSYN076AAXX  25064 48352 32564 80000 10281 20209 39917 40115 85876 333 58030 70258;
0167483520999992000022509004+17870+102720FM-12+0175VTUM V0200401N001510120019N0150001N1+02741+02211100901ADDAA199000091GF108991051081008001071061MA1999999098931MD1999999+0411REMSYN070AAXX  25094 48352 32565 80403 10274 20221 39893 40090 85876 333 58041;EQDQ01  00002PRCP99
0173483520999992000022512004+17870+102720FM-12+0175VTUM V0200501N002610450019N0120001N1+02611+02241100951ADDAA124025991GF107991041051008001071061KA1120M+02901MA1999999098981MD1999999+0281REMSYN082AAXX  25124 48352 32562 70505 10261 20224 39898 40095 84576 333 10290 58028 70258;
0167483520999992000022515004+17870+102720FM-12+0175VTUM V0200401N003110075019N0120001N1+02451+01901101231ADDAA199000091GF108991051051008001071061MA1999999099231MD1999999+0181REMSYN070AAXX  25154 48352 32562 80406 10245 20190 39923 40123 85576 333 58018;EQDQ01  00002PRCP99
0167483520999992000022518004+17870+102720FM-12+0175VTUM V0200501N002610075019N0110001N1+02221+01611101351ADDAA199000091GF108991051051008001071061MA1999999099331MD1999999+0231REMSYN070AAXX  25184 48352 32561 80505 10222 20161 39933 40135 85576 333 58023;EQDQ01  00002PRCP99
0167483520999992000022521004+17870+102720FM-12+0175VTUM V0200301N001510075019N0100001N1+02061+01521101341ADDAA199000091GF108991061051008001071999MA1999999099321MD1999999+0191REMSYN070AAXX  25214 48352 32560 80303 10206 20152 39932 40134 8657/ 333 58019;EQDQ01  00002PRCP99
0214483520999992000022600004+17870+102720FM-12+0175VTUM V0201201N001510450019N0060001N1+01961+01421101531ADDAA199000091AY121061AY221061GF108991041051008001071061KA1120N+01951MA1999999099901MD1999999-0321MW1101REMSYN082AAXX  26004 48352 31556 81203 10196 20142 39990 40153 71022 84576 333 20195 59032;EQDQ01  00002PRCP99
0167483520999992000022603004+17870+102720FM-12+0175VTUM V0200801N001510450019N0120001N1+01981+01411101751ADDAA199000091GF108991041051008001071061MA1999999099701MD1999999+0411REMSYN070AAXX  26034 48352 32562 80803 10198 20141 39970 40175 84576 333 58041;EQDQ01  00002PRCP99
0167483520999992000022606004+17870+102720FM-12+0175VTUM V0200801N001510450019N0120001N1+02081+01271101531ADDAA199000091GF108991041051008001071061MA1999999099511MD1999999+0381REMSYN070AAXX  26064 48352 32562 80803 10208 20127 39951 40153 84576 333 58038;EQDQ01  00002PRCP99
0167483520999992000022609004+17870+102720FM-12+0175VTUM V0200601N002610075019N0120001N1+02151+01311101301ADDAA199000091GF108991051051008001071061MA1999999099291MD1999999+0401REMSYN070AAXX  26094 48352 32562 80605 10215 20131 39929 40130 85576 333 58040;EQDQ01  00002PRCP99
0186483520999992000022612004+17870+102720FM-12+0175VTUM V0200801N002610120019N0110001N1+01971+01281101401ADDAA199000091GF108991051081008001071061KA1120M+02221MA1999999099371MD1999999+0451REMSYN076AAXX  26124 48352 32561 80805 10197 20128 39937 40140 85876 333 10222 58045;EQDQ01  00002PRCP99
0167483520999992000022615004+17870+102720FM-12+0175VTUM V0200801N001010075019N0100001N1+01851+01181101661ADDAA199000091GF108991051051008001071061MA1999999099621MD1999999+0431REMSYN070AAXX  26154 48352 32560 80802 10185 20118 39962 40166 85576 333 58043;EQDQ01  00002PRCP99
0167483520999992000022618004+17870+102720FM-12+0175VTUM V0200801N001010075019N0100001N1+01771+01211101681ADDAA199000091GF108991051051008001071061MA1999999099641MD1999999+0331REMSYN070AAXX  26184 48352 32560 80802 10177 20121 39964 40168 85576 333 58033;EQDQ01  00002PRCP99
0167483520999992000022621004+17870+102720FM-12+0175VTUM V0209999C000010450019N0100001N1+01701+01151101491ADDAA199000091GF108991041051008001031061MA1999999099441MD1999999+0151REMSYN070AAXX  26214 48352 32560 80000 10170 20115 39944 40149 84536 333 58015;EQDQ01  00002PRCP99
0186483520999992000022700004+17870+102720FM-12+0175VTUM V0209999C000010450019N0100001N1+01641+01101101661ADDAA199000091GF108991031051008001071061KA1120N+01631MA1999999099601MD1999999+0131REMSYN076AAXX  27004 48352 32560 80000 10164 20110 39960 40166 83576 333 20163 58013;EQDQ01  00002PRCP99
0167483520999992000022703004+17870+102720FM-12+0175VTUM V0200801N002110450019N0110001N1+01951+01131101781ADDAA199000091GF108991041051008001071061MA1999999099741MD1999999+0031REMSYN070AAXX  27034 48352 32561 80804 10195 20113 39974 40178 84576 333 58003;EQDQ01  00002PRCP99
0167483520999992000022706004+17870+102720FM-12+0175VTUM V0209999C000010450019N0120001N1+02301+01251101491ADDAA199000091GF107991041051008001031061MA1999999099491MD1999999-0041REMSYN070AAXX  27064 48352 32562 70000 10230 20125 39949 40149 84536 333 59004;EQDQ01  00002PRCP99
0167483520999992000022709004+17870+102720FM-12+0175VTUM V0200301N001010450019N0120001N1+02481+01401101231ADDAA199000091GF106991031051008001031061MA1999999099231MD1999999-0071REMSYN070AAXX  27094 48352 32562 60302 10248 20140 39923 40123 83536 333 59007;EQDQ01  00002PRCP99
0186483520999992000022712004+17870+102720FM-12+0175VTUM V0209999C000010450019N0120001N1+02271+01501101301ADDAA199000091GF106991031051008001031061KA1120M+02541MA1999999099291MD1999999-0101REMSYN076AAXX  27124 48352 32562 60000 10227 20150 39929 40130 83536 333 10254 59010;EQDQ01  00002PRCP99
0214483520999992000022800004+17870+102720FM-12+0175VTUM V0209999C000012200019N0050001N1+01701+01551101521ADDAA199000091AY101061AY201061GF103991021051008001031051KA1120N+01681MA1999999099471MD1999999-0141MW1101REMSYN082AAXX  28004 48352 31550 30000 10170 20155 39947 40152 71000 82535 333 20168 59014;EQDQ01  00002PRCP99
0167483520999992000022803004+17870+102720FM-12+0175VTUM V0200501N001012200019N0120001N1+02221+01441101661ADDAA199000091GF103991021051008001031051MA1999999099641MD1999999-0121REMSYN070AAXX  28034 48352 32562 30502 10222 20144 39964 40166 82535 333 59012;EQDQ01  00002PRCP99
0177483520999992000022806004+17870+102720FM-12+0175VTUM V0200601N001012200019N0120001N1+02801+01681101311ADDAA199000091GA1001+999999999GF100991001001999999001001MA1999999099341MD1999999-0181REMSYN064AAXX  28064 48352 32962 00602 10280 20168 39934 40131 333 59018;EQDQ01  00002PRCP99
0167483520999992000022809004+17870+102720FM-12+0175VTUM V0203201N001012200019N0120001N1+02921+01741101051ADDAA199000091GF103991031001999999031001MA1999999099081MD1999999-0181REMSYN070AAXX  28094 48352 32962 33202 10292 20174 39908 40105 83030 333 59018;EQDQ01  00002PRCP99
0186483520999992000022812004+17870+102720FM-12+0175VTUM V0209999C000012200019N0110001N1+02651+01901101151ADDAA199000091GF102991001001999999001051KA1120M+02971MA1999999099171MD1999999-0151REMSYN076AAXX  28124 48352 32961 20000 10265 20190 39917 40115 80005 333 10297 59015;EQDQ01  00002PRCP99
0167483520999992000022818004+17870+102720FM-12+0175VTUM V0201001N003110075019N0100001N1+02261+01561101391ADDAA199000091GF108991051051008001071061MA1999999099381MD1999999-0101REMSYN070AAXX  28184 48352 32560 81006 10226 20156 39938 40139 85576 333 59010;EQDQ01  00002PRCP99
0186483520999992000022900004+17870+102720FM-12+0175VTUM V0201001N001510450019N0100001N1+01901+01381101571ADDAA199000091GF107991031051008001031061KA1120N+01881MA1999999099531MD1999999+0051REMSYN076AAXX  29004 48352 32560 71003 10190 20138 39953 40157 83536 333 20188 58005;EQDQ01  00002PRCP99
0167483520999992000022903004+17870+102720FM-12+0175VTUM V0200801N001510450019N0130001N1+02251+01371101701ADDAA199000091GF106991031051008001031061MA1999999099681MD1999999+0041REMSYN070AAXX  29034 48352 32563 60803 10225 20137 39968 40170 83536 333 58004;EQDQ01  00002PRCP99
0167483520999992000022906004+17870+102720FM-12+0175VTUM V0200901N002611050019N0120001N1+02521+01431101431ADDAA199000091GF108991041051008001001061MA1999999099431MD1999999+0121REMSYN070AAXX  29064 48352 32562 80905 10252 20143 39943 40143 84506 333 58012;EQDQ01  00002PRCP99
0167483520999992000022909004+17870+102720FM-12+0175VTUM V0201001N001510075019N0110001N1+02481+01441101211ADDAA199000091GF108991051051008001071061MA1999999099211MD1999999+0161REMSYN070AAXX  29094 48352 32561 81003 10248 20144 39921 40121 85576 333 58016;EQDQ01  00002PRCP99
0186483520999992000022912004+17870+102720FM-12+0175VTUM V0200601N001512200019N0110001N1+02171+01401101291ADDAA199000091GF103991021051008001001051KA1120M+02671MA1999999099271MD1999999+0141REMSYN076AAXX  29124 48352 32561 30603 10217 20140 39927 40129 82505 333 10267 58014;EQDQ01  00002PRCP99
0167483520999992000022915004+17870+102720FM-12+0175VTUM V0200901N001010450019N0100001N1+02011+01331101581ADDAA199000091GF108991041051008001071061MA1999999099551MD1999999+0231REMSYN070AAXX  29154 48352 32560 80902 10201 20133 39955 40158 84576 333 58023;EQDQ01  00002PRCP99
0167483520999992000022918004+17870+102720FM-12+0175VTUM V0200701N001010450019N0100001N1+01851+01281101611ADDAA199000091GF108991041051008001071061MA1999999099571MD1999999+0221REMSYN070AAXX  29184 48352 32560 80702 10185 20128 39957 40161 84576 333 58022;EQDQ01  00002PRCP99
0213483520999992000030100004+17870+102720FM-12+0175VTUM V0209999C000010075019N0080001N1+01621+01531101741ADDAA102001091AY161061AY261061GF108991061071008001071999KA1120N+01541MA1999999099671MD1999999+0171MW1611REMSYN100AAXX  01004 48352 /1558 80000 10162 20153 39967 40174 60024 76166 8677/ 333 20154 58017 60016 70017;
0167483520999992000030115004+17870+102720FM-12+0175VTUM V0209999C000010120019N0100001N1+01591+01521101671ADDAA199000091GF108991061081008001071999MA1999999099611MD1999999+0091REMSYN070AAXX  01154 48352 32560 80000 10159 20152 39961 40167 8687/ 333 58009;EQDQ01  00002PRCP99
0154483520999992000030118004+17870+102720FM-12+0175VTUM V0209999C000012200019N0100001N1+01551+01461101561ADDAA124010491GF104991021051008001031061MA1999999099501MD1999999-0051REMSYN076AAXX  01184 48352 32560 40000 10155 20146 39950 40156 82536 333 59005 70105;
0167483520999992000030121004+17870+102720FM-12+0175VTUM V0209999C000010075019N0100001N1+01641+01571101501ADDAA199000091GF108991061051008001071999MA1999999099451MD1999999+0021REMSYN070AAXX  01214 48352 32560 80000 10164 20157 39945 40150 8657/ 333 58002;EQDQ01  00002PRCP99
0213483520999992000030200004+17870+102720FM-12+0175VTUM V0209999C000010075019N0050001N1+01671+01641101641ADDAA103000591AY161061AY221061GF108991061051008001071999KA1120N+01551MA1999999099591MD1999999-0101MW1601REMSYN100AAXX  02004 48352 /1550 80000 10167 20164 39959 40164 60094 76062 8657/ 333 20155 59010 69947 70092;
0182483520999992000030203004+17870+102720FM-12+0175VTUM V0209999C000010120019N0100001N1+01991+01711101741ADDAA103000191AY161031AY221031GF108991051081008001071061MA1999999099741MD1999999-0111MW1021REMSYN082AAXX  02034 48352 21560 80000 10199 20171 39974 40174 70262 85876 333 59011 69927;
0188483520999992000030206004+17870+102720FM-12+0175VTUM V0200501N001512200019N0150001N1+02461+01761101541ADDAA106000191AY161061AY221061GF106991041081008001001061MA1999999099541MD1999999-0151MW1011REMSYN088AAXX  02064 48352 11565 60503 10246 20176 39954 40154 69921 70162 84806 333 59015 70006;
0148483520999992000030209004+17870+102720FM-12+0175VTUM V0209999C000012200019N0160001N1+02631+01861101181ADDAA199000021GF106991031021008001001061MA1999999099191MD1999999-0281REMSYN070AAXX  02094 48352 32566 60000 10263 20186 39919 40118 83206 333 59028;
0173483520999992000030212004+17870+102720FM-12+0175VTUM V0209999C000012200019N0140001N1+02311+01921101241ADDAA124000591GF102991011051008001001051KA1120M+02661MA1999999099231MD1999999-0311REMSYN082AAXX  02124 48352 32564 20000 10231 20192 39923 40124 81505 333 10266 59031 70006;
0167483520999992000030221004+17870+102720FM-12+0175VTUM V0209999C000012200019N0100001N1+01811+01741101391ADDAA199000091GF102991021051008001001001MA1999999099331MD1999999-0121REMSYN070AAXX  02214 48352 32560 20000 10181 20174 39933 40139 82500 333 59012;EQDQ01  00002PRCP99
0173483520999992000030300004+17870+102720FM-12+0175VTUM V0209999C000012200019N0110001N1+01841+01771101481ADDAA124000391GF104991021051008001031061KA1120N+01781MA1999999099431MD1999999-0161REMSYN082AAXX  03004 48352 32561 40000 10184 20177 39943 40148 82536 333 20178 59016 70002;
0167483520999992000030309004+17870+102720FM-12+0175VTUM V0209999C000012200019N0150001N1+03011+02011100921ADDAA199000091GF104991021011008001041061MA1999999098971MD1999999-0261REMSYN070AAXX  03094 48352 32565 40000 10301 20201 39897 40092 82146 333 59026;EQDQ01  00002PRCP99
0186483520999992000030312004+17870+102720FM-12+0175VTUM V0209999C000012200019N0130001N1+02601+02051100961ADDAA199000091GF102991021011008001001001KA1120M+03061MA1999999098981MD1999999-0281REMSYN076AAXX  03124 48352 32563 20000 10260 20205 39898 40096 82100 333 10306 59028;EQDQ01  00002PRCP99
0177483520999992000030315004+17870+102720FM-12+0175VTUM V0209999C000012200019N0110001N1+02341+02021101161ADDAA199000091GA1001+999999999GF100991001001999999001001MA1999999099151MD1999999-0331REMSYN064AAXX  03154 48352 32961 00000 10234 20202 39915 40116 333 59033;EQDQ01  00002PRCP99
0177483520999992000030318004+17870+102720FM-12+0175VTUM V0209999C000012200019N0100001N1+02131+02011101141ADDAA199000091GA1001+999999999GF100991001001999999001001MA1999999099121MD1999999-0291REMSYN064AAXX  03184 48352 32960 00000 10213 20201 39912 40114 333 59029;EQDQ01  00002PRCP99
0177483520999992000030321004+17870+102720FM-12+0175VTUM V0209999C000012200019N0100001N1+02001+01921101101ADDAA199000091GA1001+999999999GF100991001001999999001001MA1999999099081MD1999999-0281REMSYN064AAXX  03214 48352 32960 00000 10200 20192 39908 40110 333 59028;EQDQ01  00002PRCP99
0224483520999992000030400004+17870+102720FM-12+0175VTUM V0209999C000012200019N0080001N1+01961+01911101311ADDAA199000091AY101061AY201061GA1001+999999999GF100991001001999999001001KA1120N+01931MA1999999099281MD1999999-0171MW1101REMSYN076AAXX  04004 48352 31958 00000 10196 20191 39928 40131 71000 333 20193 59017;EQDQ01  00002PRCP99
0177483520999992000030403004+17870+102720FM-12+0175VTUM V0209999C000012200019N0130001N1+02711+02041101441ADDAA199000091GA1001+999999999GF100991001001999999001001MA1999999099461MD1999999-0181REMSYN064AAXX  04034 48352 32963 00000 10271 20204 39946 40144 333 59018;EQDQ01  00002PRCP99
0177483520999992000030406004+17870+102720FM-12+0175VTUM V0200501N001012200019N0130001N1+03221+02121101051ADDAA199000091GA1001+999999999GF100991001001999999001001MA1999999099101MD1999999-0261REMSYN064AAXX  04064 48352 32963 00502 10322 20212 39910 40105 333 59026;EQDQ01  00002PRCP99
0167483520999992000030409004+17870+102720FM-12+0175VTUM V0203201N001512200019N0120001N1+03301+02041100691ADDAA199000091GF101991011011008001001001MA1999999098761MD1999999-0231REMSYN070AAXX  04094 48352 32562 13203 10330 20204 39876 40069 81100 333 59023;EQDQ01  00002PRCP99
0177483520999992000030415004+17870+102720FM-12+0175VTUM V0209999C000012200019N0100001N1+02471+02061100951ADDAA199000091GA1001+999999999GF100991001001999999001001MA1999999098961MD1999999-0211REMSYN064AAXX  04154 48352 32960 00000 10247 20206 39896 40095 333 59021;EQDQ01  00002PRCP99
0205483520999992000030418004+17870+102720FM-12+0175VTUM V0209999C000012200019N0080001N1+02351+02071100911ADDAA199000091AY101061AY201061GA1001+999999999GF100991001001999999001001MA1999999098921MD1999999-0231MW1101REMSYN070AAXX  04184 48352 31958 00000 10235 20207 39892 40091 71000 333 59023;EQDQ01  00002PRCP99
0205483520999992000030421004+17870+102720FM-12+0175VTUM V0209999C000012200019N0070001N1+02201+02001100841ADDAA199000091AY101031AY201031GA1001+999999999GF100991001001999999001001MA1999999098841MD1999999-0261MW1101REMSYN070AAXX  04214 48352 31957 00000 10220 20200 39884 40084 71000 333 59026;EQDQ01  00002PRCP99
0214483520999992000030500004+17870+102720FM-12+0175VTUM V0209999C000012200019N0060001N1+02101+01961100991ADDAA199000091AY101061AY201061GF102991021051008001001001KA1120N+02061MA1999999098981MD1999999-0321MW1101REMSYN082AAXX  05004 48352 31556 20000 10210 20196 39898 40099 71000 82500 333 20206 59032;EQDQ01  00002PRCP99
0205483520999992000030503004+17870+102720FM-12+0175VTUM V0209999C000012200019N0080001N1+02781+02051101111ADDAA199000091AY101031AY201031GA1001+999999999GF100991001001999999001001MA1999999099131MD1999999-0331MW1101REMSYN070AAXX  05034 48352 31958 00000 10278 20205 39913 40111 71000 333 59033;EQDQ01  00002PRCP99
0195483520999992000030509004+17870+102720FM-12+0175VTUM V0209999C000012200019N0080001N1+03371+01821100471ADDAA199000091AY101031AY201031GF101991011011008001001001MA1999999098551MD1999999-0221MW1051REMSYN076AAXX  05094 48352 31558 10000 10337 20182 39855 40047 70500 81100 333 59022;EQDQ01  00002PRCP99
0224483520999992000030512004+17870+102720FM-12+0175VTUM V0209999C000012200019N0070001N1+02851+02101100491ADDAA199000091AY101061AY201061GA1001+999999999GF100991001001999999001001KA1120M+03481MA1999999098531MD1999999-0231MW1051REMSYN076AAXX  05124 48352 31957 00000 10285 20210 39853 40049 70500 333 10348 59023;EQDQ01  00002PRCP99
0205483520999992000030515004+17870+102720FM-12+0175VTUM V0209999C000012200019N0070001N1+02521+02081100741ADDAA199000091AY101031AY201031GA1001+999999999GF100991001001999999001001MA1999999098761MD1999999-0211MW1101REMSYN070AAXX  05154 48352 31957 00000 10252 20208 39876 40074 71000 333 59021;EQDQ01  00002PRCP99
0205483520999992000030518004+17870+102720FM-12+0175VTUM V0209999C000012200019N0060001N1+02301+01991100771ADDAA199000091AY101061AY201061GA1001+999999999GF100991001001999999001001MA1999999098771MD1999999-0141MW1101REMSYN070AAXX  05184 48352 31956 00000 10230 20199 39877 40077 71000 333 59014;EQDQ01  00002PRCP99
0205483520999992000030521004+17870+102720FM-12+0175VTUM V0209999C000012200019N0050001N1+02151+02141100721ADDAA199000091AY101031AY201031GA1001+999999999GF100991001001999999001001MA1999999098721MD1999999-0121MW1101REMSYN070AAXX  05214 48352 31950 00000 10215 20214 39872 40072 71000 333 59012;EQDQ01  00002PRCP99
0230483520999992000030600004+17870+102720FM-12+0175VTUM V0209999C000012200019N0050001N1+02021+01861999999ADDAA199000091AY101061AY201061GF103991001001999999001051KA1120N+01981MA1999999098881MD1999999-0101MW1101REMSYN082AAXX  06004 48352 31950 30000 10202 20186 39888 40189 71000 80005 333 20198 59010;EQDQ01+101893APOSLPQ02  00002PRCP99
0195483520999992000030603004+17870+102720FM-12+0175VTUM V0209999C000012200019N0080001N1+02751+01771101061ADDAA199000091AY101031AY201031GF102991001001999999001051MA1999999099091MD1999999-0051MW1051REMSYN076AAXX  06034 48352 31958 20000 10275 20177 39909 40106 70500 80005 333 59005;EQDQ01  00002PRCP99
0205483520999992000030606004+17870+102720FM-12+0175VTUM V0209999C000012200019N0080001N1+03201+01841100761ADDAA199000091AY101061AY201061GA1001+999999999GF100991001001999999001001MA1999999098821MD1999999-0061MW1051REMSYN070AAXX  06064 48352 31958 00000 10320 20184 39882 40076 70500 333 59006;EQDQ01  00002PRCP99
0205483520999992000030609004+17870+102720FM-12+0175VTUM V0209999C000012200019N0080001N1+03381+01871100471ADDAA199000091AY101031AY201031GA1001+999999999GF100991001001999999001001MA1999999098551MD1999999+0001MW1051REMSYN070AAXX  06094 48352 31958 00000 10338 20187 39855 40047 70500 333 58000;EQDQ01  00002PRCP99
0224483520999992000030612004+17870+102720FM-12+0175VTUM V0209999C000012200019N0070001N1+02821+02031100561ADDAA199000091AY101061AY201061GA1001+999999999GF100991001001999999001001KA1120M+03471MA1999999098601MD1999999+0071MW1051REMSYN076AAXX  06124 48352 31957 00000 10282 20203 39860 40056 70500 333 10347 58007;EQDQ01  00002PRCP99
0205483520999992000030615004+17870+102720FM-12+0175VTUM V0209999C000012200019N0070001N1+02551+01891100801ADDAA199000091AY101031AY201031GA1001+999999999GF100991001001999999001001MA1999999098831MD1999999+0061MW1101REMSYN070AAXX  06154 48352 31957 00000 10255 20189 39883 40080 71000 333 58006;EQDQ01  00002PRCP99
0205483520999992000030618004+17870+102720FM-12+0175VTUM V0209999C000012200019N0070001N1+02401+01951100851ADDAA199000091AY101061AY201061GA1001+999999999GF100991001001999999001001MA1999999098861MD1999999+0081MW1101REMSYN070AAXX  06184 48352 31957 00000 10240 20195 39886 40085 71000 333 58008;EQDQ01  00002PRCP99
0195483520999992000030621004+17870+102720FM-12+0175VTUM V0209999C000010450019N0060001N1+02241+01981100801ADDAA199000091AY111031AY201031GF106991031051008001031061MA1999999098801MD1999999+0081MW1051REMSYN076AAXX  06214 48352 31556 60000 10224 20198 39880 40080 70510 83536 333 58008;EQDQ01  00002PRCP99
0214483520999992000030700004+17870+102720FM-12+0175VTUM V0209999C000012200019N0070001N1+02121+01821100951ADDAA199000091AY111061AY201061GF104991031051008001001051KA1120N+02091MA1999999098941MD1999999+0061MW1101REMSYN082AAXX  07004 48352 31557 40000 10212 20182 39894 40095 71010 83505 333 20209 58006;EQDQ01  00002PRCP99
0205483520999992000030703004+17870+102720FM-12+0175VTUM V0209999C000012200019N0080001N1+02731+01911101131ADDAA199000091AY101031AY201031GA1001+999999999GF100991001001999999001001MA1999999099141MD1999999+0071MW1051REMSYN070AAXX  07034 48352 31958 00000 10273 20191 39914 40113 70500 333 58007;EQDQ01  00002PRCP99
0205483520999992000030706004+17870+102720FM-12+0175VTUM V0200201N001512200019N0080001N1+03201+02081100851ADDAA199000091AY101061AY201061GA1001+999999999GF100991001001999999001001MA1999999098911MD1999999+0091MW1051REMSYN070AAXX  07064 48352 31958 00203 10320 20208 39891 40085 70500 333 58009;EQDQ01  00002PRCP99
0205483520999992000030709004+17870+102720FM-12+0175VTUM V0203301N001012200019N0080001N1+03351+02031100521ADDAA199000091AY101031AY201031GA1001+999999999GF100991001001999999001001MA1999999098591MD1999999+0051MW1051REMSYN070AAXX  07094 48352 31958 03302 10335 20203 39859 40052 70500 333 58005;EQDQ01  00002PRCP99
0224483520999992000030712004+17870+102720FM-12+0175VTUM V0209999C000012200019N0070001N1+02921+02091100591ADDAA199000091AY101061AY201061GA1001+999999999GF100991001001999999001001KA1120M+03431MA1999999098631MD1999999+0031MW1051REMSYN076AAXX  07124 48352 31957 00000 10292 20209 39863 40059 70500 333 10343 58003;EQDQ01  00002PRCP99
0205483520999992000030715004+17870+102720FM-12+0175VTUM V0209999C000012200019N0070001N1+02621+02021100781ADDAA199000091AY101031AY201031GA1001+999999999GF100991001001999999001001MA1999999098801MD1999999-0021MW1101REMSYN070AAXX  07154 48352 31957 00000 10262 20202 39880 40078 71000 333 59002;EQDQ01  00002PRCP99
0205483520999992000030718004+17870+102720FM-12+0175VTUM V0209999C000012200019N0060001N1+02451+02001100831ADDAA199000091AY101061AY201061GA1001+999999999GF100991001001999999001001MA1999999098851MD1999999-0021MW1101REMSYN070AAXX  07184 48352 31956 00000 10245 20200 39885 40083 71000 333 59002;EQDQ01  00002PRCP99
0205483520999992000030721004+17870+102720FM-12+0175VTUM V0209999C000012200019N0060001N1+02321+01981100811ADDAA199000091AY101031AY201031GA1001+999999999GF100991001001999999001001MA1999999098811MD1999999+0011MW1101REMSYN070AAXX  07214 48352 31956 00000 10232 20198 39881 40081 71000 333 58001;EQDQ01  00002PRCP99
0214483520999992000030800004+17870+102720FM-12+0175VTUM V0200401N001012200019N0060001N1+02351+01961101001ADDAA199000091AY101061AY201061GF103991021051008001001051KA1120N+02281MA1999999099001MD1999999+0051MW1101REMSYN082AAXX  08004 48352 31556 30402 10235 20196 39900 40100 71000 82505 333 20228 58005;EQDQ01  00002PRCP99
0205483520999992000030806004+17870+102720FM-12+0175VTUM V0201201N001012200019N0090001N1+03171+02041100851ADDAA199000091AY101061AY201061GA1001+999999999GF100991001001999999001001MA1999999098911MD1999999+0001MW1051REMSYN070AAXX  08064 48352 31959 01202 10317 20204 39891 40085 70500 333 58000;EQDQ01  00002PRCP99
0205483520999992000030809004+17870+102720FM-12+0175VTUM V0203201N001012200019N0080001N1+03301+02031100501ADDAA199000091AY101031AY201031GA1001+999999999GF100991001001999999001001MA1999999098571MD1999999+0021MW1051REMSYN070AAXX  08094 48352 31958 03202 10330 20203 39857 40050 70500 333 58002;EQDQ01  00002PRCP99
0230483520999992000030812004+17870+102720FM-12+0175VTUM V0209999C000012200019N0070001N1+02921+02061100561ADDAA199000091AY101061AY201061GA1001+999999999GF100991001001999999001001KA1120M+03351MA1999999098601MD1999999-0031MW1051REMSYN082AAXX  08124 48352 31957 00000 10292 20206 39860 40056 70500 8//// 333 10335 59003;EQDQ01  00002PRCP99
0205483520999992000030815004+17870+102720FM-12+0175VTUM V0209999C000012200019N0060001N1+02631+02101100771ADDAA199000091AY101031AY201031GA1001+999999999GF100991001001999999001001MA1999999098801MD1999999-0011MW1101REMSYN070AAXX  08154 48352 31956 00000 10263 20210 39880 40077 71000 333 59001;EQDQ01  00002PRCP99
0205483520999992000030818004+17870+102720FM-12+0175VTUM V0209999C000012200019N0060001N1+02551+02101100821ADDAA199000091AY101061AY201061GA1001+999999999GF100991001001999999001001MA1999999098851MD1999999-0011MW1101REMSYN070AAXX  08184 48352 31956 00000 10255 20210 39885 40082 71000 333 59001;EQDQ01  00002PRCP99
0205483520999992000030821004+17870+102720FM-12+0175VTUM V0209999C000012200019N0060001N1+02451+02101100811ADDAA199000091AY101031AY201031GA1001+999999999GF100991001001999999001001MA1999999098821MD1999999+0001MW1101REMSYN070AAXX  08214 48352 31956 00000 10245 20210 39882 40081 71000 333 58000;EQDQ01  00002PRCP99
0224483520999992000030900004+17870+102720FM-12+0175VTUM V0209999C000012200019N0070001N1+02261+02041101051ADDAA199000091AY101061AY201061GA1001+999999999GF100991001001999999001001KA1120N+02241MA1999999099041MD1999999+0051MW1101REMSYN076AAXX  09004 48352 31957 00000 10226 20204 39904 40105 71000 333 20224 58005;EQDQ01  00002PRCP99
0195483520999992000030903004+17870+102720FM-12+0175VTUM V0200801N001012200019N0090001N1+02741+02121101171ADDAA199000091AY101031AY201031GF102991021051008001001001MA1999999099191MD1999999+0051MW1101REMSYN076AAXX  09034 48352 31559 20802 10274 20212 39919 40117 71000 82500 333 58005;EQDQ01  00002PRCP99
0195483520999992000030906004+17870+102720FM-12+0175VTUM V0200801N001012200019N0090001N1+03171+02181100901ADDAA199000091AY101061AY201061GF102991021011008001001001MA1999999098961MD1999999+0051MW1051REMSYN076AAXX  09064 48352 31559 20802 10317 20218 39896 40090 70500 82100 333 58005;EQDQ01  00002PRCP99
0195483520999992000030909004+17870+102720FM-12+0175VTUM V0200101N001512200019N0090001N1+03341+02151100591ADDAA199000091AY101031AY201031GF102991021011008001001001MA1999999098661MD1999999+0091MW1051REMSYN076AAXX  09094 48352 31559 20103 10334 20215 39866 40059 70500 82100 333 58009;EQDQ01  00002PRCP99
0214483520999992000030912004+17870+102720FM-12+0175VTUM V0200301N001012200019N0080001N1+02981+02061100621ADDAA199000091AY101061AY201061GF102991001001999999001051KA1120M+03421MA1999999098671MD1999999+0061MW1051REMSYN082AAXX  09124 48352 31958 20302 10298 20206 39867 40062 70500 80005 333 10342 58006;EQDQ01  00002PRCP99
0205483520999992000030915004+17870+102720FM-12+0175VTUM V0201001N001512200019N0070001N1+02731+02131100831ADDAA199000091AY101031AY201031GA1001+999999999GF100991001001999999001001MA1999999098861MD1999999+0061MW1101REMSYN070AAXX  09154 48352 31957 01003 10273 20213 39886 40083 71000 333 58006;EQDQ01  00002PRCP99
0195483520999992000030918004+17870+102720FM-12+0175VTUM V0209999C000012200019N0060001N1+02601+02201100851ADDAA199000091AY101061AY201061GF102991021051008001001001MA1999999098871MD1999999+0031MW1101REMSYN076AAXX  09184 48352 31556 20000 10260 20220 39887 40085 71000 82500 333 58003;EQDQ01  00002PRCP99
0195483520999992000030921004+17870+102720FM-12+0175VTUM V0209999C000012200019N0060001N1+02481+02161100791ADDAA199000091AY101031AY201031GF103991021051008001001051MA1999999098811MD1999999-0021MW1101REMSYN076AAXX  09214 48352 31556 30000 10248 20216 39881 40079 71000 82505 333 59002;EQDQ01  00002PRCP99
0214483520999992000031000004+17870+102720FM-12+0175VTUM V0209999C000010450019N0050001N1+02381+02201100961ADDAA199000091AY111061AY201061GF106991031051008001031061KA1120N+02351MA1999999098971MD1999999-0091MW1101REMSYN082AAXX  10004 48352 31550 60000 10238 20220 39897 40096 71010 83536 333 20235 59009;EQDQ01  00002PRCP99
0195483520999992000031003004+17870+102720FM-12+0175VTUM V0209999C000012200019N0080001N1+02901+02291101091ADDAA199000091AY111031AY211031GF103991031011008001001001MA1999999099121MD1999999-0081MW1101REMSYN076AAXX  10034 48352 31558 30000 10290 20229 39912 40109 71011 83100 333 59008;EQDQ01  00002PRCP99
0195483520999992000031006004+17870+102720FM-12+0175VTUM V0209999C000012200019N0090001N1+03261+02211100781ADDAA199000091AY101061AY201061GF103991031021008001001001MA1999999098851MD1999999-0121MW1051REMSYN076AAXX  10064 48352 31559 30000 10326 20221 39885 40078 70500 83200 333 59012;EQDQ01  00002PRCP99
0195483520999992000031009004+17870+102720FM-12+0175VTUM V0209999C000012200019N0090001N1+03421+02071100461ADDAA199000091AY101031AY201031GF102991021021008001001001MA1999999098541MD1999999-0131MW1051REMSYN076AAXX  10094 48352 31559 20000 10342 20207 39854 40046 70500 82200 333 59013;EQDQ01  00002PRCP99
0214483520999992000031012004+17870+102720FM-12+0175VTUM V0209999C000012200019N0080001N1+03071+02201100511ADDAA199000091AY101061AY201061GF102991021021008001001001KA1120M+03491MA1999999098671MD1999999-0111MW1051REMSYN082AAXX  10124 48352 31558 20000 10307 20220 39867 40051 70500 82200 333 10349 59011;EQDQ01  00002PRCP99
0205483520999992000031015004+17870+102720FM-12+0175VTUM V0209999C000012200019N0070001N1+02861+02261100731ADDAA199000091AY101031AY201031GA1001+999999999GF100991001001999999001001MA1999999098771MD1999999-0101MW1101REMSYN070AAXX  10154 48352 31957 00000 10286 20226 39877 40073 71000 333 59010;EQDQ01  00002PRCP99
0205483520999992000031021004+17870+102720FM-12+0175VTUM V0209999C000012200019N0060001N1+02381+02231100731ADDAA199000091AY101031AY201031GA1001+999999999GF100991001001999999001001MA1999999098741MD1999999-0061MW1101REMSYN070AAXX  10214 48352 31956 00000 10238 20223 39874 40073 71000 333 59006;EQDQ01  00002PRCP99
0214483520999992000031100004+17870+102720FM-12+0175VTUM V0209999C000012200019N0050001N1+02261+02171100911ADDAA199000091AY101061AY201061GF103991021051008001001051KA1120N+02231MA1999999098911MD1999999-0051MW1101REMSYN082AAXX  11004 48352 31550 30000 10226 20217 39891 40091 71000 82505 333 20223 59005;EQDQ01  00002PRCP99
0205483520999992000031103004+17870+102720FM-12+0175VTUM V0209999C000012200019N0080001N1+02911+02251101001ADDAA199000091AY101031AY201031GA1001+999999999GF100991001001999999001001MA1999999099031MD1999999-0091MW1101REMSYN070AAXX  11034 48352 31958 00000 10291 20225 39903 40100 71000 333 59009;EQDQ01  00002PRCP99
0195483520999992000031106004+17870+102720FM-12+0175VTUM V0209999C000012200019N0090001N1+03481+01831100641ADDAA199000091AY101061AY201061GF101991011011008001001001MA1999999098731MD1999999-0141MW1051REMSYN076AAXX  11064 48352 31559 10000 10348 20183 39873 40064 70500 81100 333 59014;EQDQ01  00002PRCP99
0195483520999992000031109004+17870+102720FM-12+0175VTUM V0209999C000012200019N0090001N1+03521+01641100351ADDAA199000091AY101031AY201031GF101991011011008001001001MA1999999098431MD1999999-0111MW1051REMSYN076AAXX  11094 48352 31559 10000 10352 20164 39843 40035 70500 81100 333 59011;EQDQ01  00002PRCP99
0214483520999992000031112004+17870+102720FM-12+0175VTUM V0209999C000012200019N0080001N1+02901+01811100441ADDAA199000091AY101061AY201061GF101991011011008001001001KA1120M+03561MA1999999098481MD1999999-0071MW1051REMSYN082AAXX  11124 48352 31558 10000 10290 20181 39848 40044 70500 81100 333 10356 59007;EQDQ01  00002PRCP99
0205483520999992000031115004+17870+102720FM-12+0175VTUM V0209999C000012200019N0070001N1+02511+01811100691ADDAA199000091AY101031AY201031GA1001+999999999GF100991001001999999001001MA1999999098711MD1999999-0041MW1101REMSYN070AAXX  11154 48352 31957 00000 10251 20181 39871 40069 71000 333 59004;EQDQ01  00002PRCP99
0205483520999992000031118004+17870+102720FM-12+0175VTUM V0209999C000012200019N0070001N1+02351+01611100651ADDAA199000091AY101061AY201061GA1001+999999999GF100991001001999999001001MA1999999098661MD1999999-0111MW1101REMSYN070AAXX  11184 48352 31957 00000 10235 20161 39866 40065 71000 333 59011;EQDQ01  00002PRCP99
0205483520999992000031121004+17870+102720FM-12+0175VTUM V0209999C000012200019N0060001N1+02101+01711100681ADDAA199000091AY101031AY201031GA1001+999999999GF100991001001999999001001MA1999999098671MD1999999-0051MW1101REMSYN070AAXX  11214 48352 31956 00000 10210 20171 39867 40068 71000 333 59005;EQDQ01  00002PRCP99
0205483520999992000031203004+17870+102720FM-12+0175VTUM V0209999C000012200019N0070001N1+02901+01901100891ADDAA199000091AY101031AY201031GA1001+999999999GF100991001001999999001001MA1999999098931MD1999999-0111MW1051REMSYN070AAXX  12034 48352 31957 00000 10290 20190 39893 40089 70500 333 59011;EQDQ01  00002PRCP99
0205483520999992000031206004+17870+102720FM-12+0175VTUM V0202901N001012200019N0070001N1+03351+01711100571ADDAA199000091AY101061AY201061GA1001+999999999GF100991001001999999001001MA1999999098651MD1999999-0071MW1051REMSYN070AAXX  12064 48352 31957 02902 10335 20171 39865 40057 70500 333 59007;EQDQ01  00002PRCP99
0211483520999992000031209004+17870+102720FM-12+0175VTUM V0209999C000012200019N0070001N1+03421+01601100921ADDAA199000091AY101031AY201031GA1001+999999999GF100991001001999999001001MA1999999098401MD1999999-0031MW1051REMSYN076AAXX  12094 48352 31957 00000 10342 20160 39840 40092 70500 8//// 333 59003;EQDQ01  00002PRCP99
0224483520999992000031212004+17870+102720FM-12+0175VTUM V0209999C000012200019N0070001N1+02901+01911100381ADDAA199000091AY101061AY201061GA1001+999999999GF100991001001999999001001KA1120M+03531MA1999999098421MD1999999-0061MW1051REMSYN076AAXX  12124 48352 31957 00000 10290 20191 39842 40038 70500 333 10353 59006;EQDQ01  00002PRCP99
0205483520999992000031215004+17870+102720FM-12+0175VTUM V0209999C000012200019N0060001N1+02251+01851100651ADDAA199000091AY101031AY201031GA1001+999999999GF100991001001999999001001MA1999999098661MD1999999-0031MW1101REMSYN070AAXX  12154 48352 31956 00000 10225 20185 39866 40065 71000 333 59003;EQDQ01  00002PRCP99
0205483520999992000031221004+17870+102720FM-12+0175VTUM V0209999C000012200019N0050001N1+02141+01921100651ADDAA199000091AY101031AY201031GA1001+999999999GF100991001001999999001001MA1999999098641MD1999999-0031MW1101REMSYN070AAXX  12214 48352 31950 00000 10214 20192 39864 40065 71000 333 59003;EQDQ01  00002PRCP99
0224483520999992000031300004+17870+102720FM-12+0175VTUM V0209999C000012200019N0040001N1+01971+01781100911ADDAA199000091AY101061AY201061GA1001+999999999GF100991001001999999001001KA1120N+01911MA1999999098891MD1999999+0081MW1101REMSYN076AAXX  13004 48352 31940 00000 10197 20178 39889 40091 71000 333 20191 58008;EQDQ01  00002PRCP99
0205483520999992000031303004+17870+102720FM-12+0175VTUM V0200801N001512200019N0060001N1+02821+01731101001ADDAA199000091AY101031AY201031GA1001+999999999GF100991001001999999001001MA1999999099091MD1999999+0111MW1051REMSYN070AAXX  13034 48352 31956 00803 10282 20173 39909 40100 70500 333 58011;EQDQ01  00002PRCP99
0205483520999992000031306004+17870+102720FM-12+0175VTUM V0203201N001012200019N0060001N1+03341+01651100741ADDAA199000091AY101061AY201061GA1001+999999999GF100991001001999999001001MA1999999098811MD1999999+0171MW1051REMSYN070AAXX  13064 48352 31956 03202 10334 20165 39881 40074 70500 333 58017;EQDQ01  00002PRCP99
0205483520999992000031309004+17870+102720FM-12+0175VTUM V0209999C000012200019N0070001N1+03481+01501100491ADDAA199000091AY101031AY201031GA1001+999999999GF100991001001999999001001MA1999999098531MD1999999+0071MW1051REMSYN070AAXX  13094 48352 31957 00000 10348 20150 39853 40049 70500 333 58007;EQDQ01  00002PRCP99
0224483520999992000031312004+17870+102720FM-12+0175VTUM V0209999C000012200019N0060001N1+02941+01701100551ADDAA199000091AY101061AY201061GA1001+999999999GF100991001001999999001001KA1120M+03551MA1999999098591MD1999999+0171MW1051REMSYN076AAXX  13124 48352 31956 00000 10294 20170 39859 40055 70500 333 10355 58017;EQDQ01  00002PRCP99
0205483520999992000031318004+17870+102720FM-12+0175VTUM V0209999C000012200019N0050001N1+02311+01901100811ADDAA199000091AY101061AY201061GA1001+999999999GF100991001001999999001001MA1999999098811MD1999999+0161MW1101REMSYN070AAXX  13184 48352 31950 00000 10231 20190 39881 40081 71000 333 58016;EQDQ01  00002PRCP99
0205483520999992000031321004+17870+102720FM-12+0175VTUM V0209999C000012200019N0050001N1+02151+01741100831ADDAA199000091AY101031AY201031GA1001+999999999GF100991001001999999001001MA1999999098831MD1999999+0151MW1101REMSYN070AAXX  13214 48352 31950 00000 10215 20174 39883 40083 71000 333 58015;EQDQ01  00002PRCP99
0224483520999992000031400004+17870+102720FM-12+0175VTUM V0209999C000012200019N0040001N1+02051+01831101111ADDAA199000091AY101061AY201061GA1001+999999999GF100991001001999999001001KA1120N+01971MA1999999099081MD1999999+0201MW1101REMSYN076AAXX  14004 48352 31940 00000 10205 20183 39908 40111 71000 333 20197 58020;EQDQ01  00002PRCP99
0205483520999992000031403004+17870+102720FM-12+0175VTUM V0203401N001512200019N0070001N1+02651+01871101151ADDAA199000091AY101031AY201031GA1001+999999999GF100991001001999999001001MA1999999099171MD1999999+0151MW1051REMSYN070AAXX  14034 48352 31957 03403 10265 20187 39917 40115 70500 333 58015;EQDQ01  00002PRCP99
0205483520999992000031406004+17870+102720FM-12+0175VTUM V0202801N001012200019N0070001N1+03301+02011100761ADDAA199000091AY101061AY201061GA1001+999999999GF100991001001999999001001MA1999999098831MD1999999+0021MW1051REMSYN070AAXX  14064 48352 31957 02802 10330 20201 39883 40076 70500 333 58002;EQDQ01  00002PRCP99
0205483520999992000031409004+17870+102720FM-12+0175VTUM V0209999C000012200019N0070001N1+03441+01711100471ADDAA199000091AY101031AY201031GA1001+999999999GF100991001001999999001001MA1999999098551MD1999999+0021MW1051REMSYN070AAXX  14094 48352 31957 00000 10344 20171 39855 40047 70500 333 58002;EQDQ01  00002PRCP99
0214483520999992000031412004+17870+102720FM-12+0175VTUM V0209999C000019999999N0060001N1+02951+01941100601ADDAA199000091AY101061AY201061GF106991001001999999001061KA1120M+03631MA1999999098651MD1999999+0051MW1051REMSYN082AAXX  14124 48352 31956 60000 10295 20194 39865 40060 70500 80006 333 10363 58005;EQDQ01  00002PRCP99
0205483520999992000031415004+17870+102720FM-12+0175VTUM V0209999C000012200019N0050001N1+02541+01851100801ADDAA199000091AY111031AY201031GA1001+999999999GF100991001001999999001001MA1999999098821MD1999999+0031MW1101REMSYN070AAXX  14154 48352 31950 00000 10254 20185 39882 40080 71010 333 58003;EQDQ01  00002PRCP99
0205483520999992000031418004+17870+102720FM-12+0175VTUM V0209999C000012200019N0040001N1+02361+01871100811ADDAA199000091AY101061AY201061GA1001+999999999GF100991001001999999001001MA1999999098821MD1999999+0001MW1101REMSYN070AAXX  14184 48352 31940 00000 10236 20187 39882 40081 71000 333 58000;EQDQ01  00002PRCP99
0168483520999992000031421004+17870+102720FM-12+0175VTUM V0209999C000012200019N0040001N1+02251+01851999999ADDAA199000091GA1001+999999999GF100991001001999999001001MA1999999098751REMSYN069AAXX  14214 48352 31940 00000 10225 20185 39875 0075 71000 333 59008;EQDQ01  00002PRCP99
0214483520999992000031500004+17870+102720FM-12+0175VTUM V0209999C000012200019N0040001N1+02171+01851100931ADDAA199000091AY101061AY201061GF102991021051008001001051KA1120N+02151MA1999999098931MD1999999-0181MW1101REMSYN082AAXX  15004 48352 31540 20000 10217 20185 39893 40093 71000 82505 333 20215 59018;EQDQ01  00002PRCP99
0205483520999992000031503004+17870+102720FM-12+0175VTUM V0209999C000012200019N0070001N1+02721+01911101061ADDAA199000091AY101031AY201031GA1001+999999999GF100991001001999999001001MA1999999099081MD1999999-0091MW1051REMSYN070AAXX  15034 48352 31957 00000 10272 20191 39908 40106 70500 333 59009;EQDQ01  00002PRCP99
0195483520999992000031506004+17870+102720FM-12+0175VTUM V0203101N001012200019N0070001N1+03361+01991100741ADDAA199000091AY101061AY201061GF102991001001999999001051MA1999999098821MD1999999-0021MW1051REMSYN076AAXX  15064 48352 31957 23102 10336 20199 39882 40074 70500 80005 333 59002;EQDQ01  00002PRCP99
0205483520999992000031509004+17870+102720FM-12+0175VTUM V0209999C000012200019N0070001N1+03551+01801100371ADDAA199000091AY101031AY201031GA1001+999999999GF100991001001999999001001MA1999999098461MD1999999-0101MW1051REMSYN070AAXX  15094 48352 31957 00000 10355 20180 39846 40037 70500 333 59010;EQDQ01  00002PRCP99
0224483520999992000031512004+17870+102720FM-12+0175VTUM V0209999C000012200019N0060001N1+02981+01881100481ADDAA199000091AY101061AY201061GA1001+999999999GF100991001001999999001001KA1120M+03651MA1999999098531MD1999999-0121MW1051REMSYN076AAXX  15124 48352 31956 00000 10298 20188 39853 40048 70500 333 10365 59012;EQDQ01  00002PRCP99
0195483520999992000031515004+17870+102720FM-12+0175VTUM V0209999C000012200019N0060001N1+02621+01971100691ADDAA199000091AY111031AY201031GF106991041051008001001061MA1999999098721MD1999999-0111MW1101REMSYN076AAXX  15154 48352 31556 60000 10262 20197 39872 40069 71010 84506 333 59011;EQDQ01  00002PRCP99
0195483520999992000031518004+17870+102720FM-12+0175VTUM V0209999C000012200019N0050001N1+02521+02061100651ADDAA199000091AY111061AY211061GF106991041051008001001061MA1999999098671MD1999999-0161MW1101REMSYN076AAXX  15184 48352 31550 60000 10252 20206 39867 40065 71011 84506 333 59016;EQDQ01  00002PRCP99
0195483520999992000031521004+17870+102720FM-12+0175VTUM V0209999C000012200019N0040001N1+02371+02061100631ADDAA199000091AY111031AY201031GF103991001001999999001051MA1999999098641MD1999999-0121MW1101REMSYN076AAXX  15214 48352 31940 30000 10237 20206 39864 40063 71010 80005 333 59012;EQDQ01  00002PRCP99
0224483520999992000031600004+17870+102720FM-12+0175VTUM V0209999C000012200019N0050001N1+02361+02181100821ADDAA199000091AY101061AY201061GA1001+999999999GF100991001001999999001001KA1120N+02301MA1999999098831MD1999999-0111MW1101REMSYN076AAXX  16004 48352 31950 00000 10236 20218 39883 40082 71000 333 20230 59011;EQDQ01  00002PRCP99
0205483520999992000031603004+17870+102720FM-12+0175VTUM V0209999C000012200019N0070001N1+02881+02281100971ADDAA199000091AY101031AY201031GA1001+999999999GF100991001001999999001001MA1999999099001MD1999999-0091MW1101REMSYN070AAXX  16034 48352 31957 00000 10288 20228 39900 40097 71000 333 59009;EQDQ01  00002PRCP99
0205483520999992000031606004+17870+102720FM-12+0175VTUM V0209999C000012200019N0070001N1+03271+02221100701ADDAA199000091AY101061AY201061GA1001+999999999GF100991001001999999001001MA1999999098771MD1999999-0041MW1051REMSYN070AAXX  16064 48352 31957 00000 10327 20222 39877 40070 70500 333 59004;EQDQ01  00002PRCP99
0205483520999992000031609004+17870+102720FM-12+0175VTUM V0209999C000012200019N0070001N1+03521+01861100351ADDAA199000091AY101031AY201031GA1001+999999999GF100991001001999999001001MA1999999098431MD1999999-0021MW1051REMSYN070AAXX  16094 48352 31957 00000 10352 20186 39843 40035 70500 333 59002;EQDQ01  00002PRCP99
0224483520999992000031612004+17870+102720FM-12+0175VTUM V0209999C000012200019N0060001N1+02981+01991100361ADDAA199000091AY101061AY201061GA1001+999999999GF100991001001999999001001KA1120M+03581MA1999999098411MD1999999-0121MW1051REMSYN076AAXX  16124 48352 31956 00000 10298 20199 39841 40036 70500 333 10358 59012;EQDQ01  00002PRCP99
0205483520999992000031615004+17870+102720FM-12+0175VTUM V0209999C000012200019N0060001N1+02651+01921100561ADDAA199000091AY101031AY201031GA1001+999999999GF100991001001999999001001MA1999999098591MD1999999-0131MW1051REMSYN070AAXX  16154 48352 31956 00000 10265 20192 39859 40056 70500 333 59013;EQDQ01  00002PRCP99
0205483520999992000031618004+17870+102720FM-12+0175VTUM V0209999C000012200019N0050001N1+02411+02031100621ADDAA199000091AY101061AY201061GA1001+999999999GF100991001001999999001001MA1999999098631MD1999999-0031MW1101REMSYN070AAXX  16184 48352 31950 00000 10241 20203 39863 40062 71000 333 59003;EQDQ01  00002PRCP99
0205483520999992000031621004+17870+102720FM-12+0175VTUM V0209999C000012200019N0050001N1+02381+01991100531ADDAA199000091AY101031AY201031GA1001+999999999GF100991001001999999001001MA1999999098541MD1999999-0101MW1101REMSYN070AAXX  16214 48352 31950 00000 10238 20199 39854 40053 71000 333 59010;EQDQ01  00002PRCP99
0224483520999992000031700004+17870+102720FM-12+0175VTUM V0209999C000012200019N0040001N1+02261+02061100731ADDAA199000091AY101061AY201061GA1001+999999999GF100991001001999999001001KA1120N+02201MA1999999098731MD1999999-0091MW1101REMSYN076AAXX  17004 48352 31940 00000 10226 20206 39873 40073 71000 333 20220 59009;EQDQ01  00002PRCP99
0205483520999992000031703004+17870+102720FM-12+0175VTUM V0203201N001512200019N0070001N1+02901+02121100841ADDAA199000091AY101031AY201031GA1001+999999999GF100991001001999999001001MA1999999098891MD1999999-0131MW1051REMSYN070AAXX  17034 48352 31957 03203 10290 20212 39889 40084 70500 333 59013;EQDQ01  00002PRCP99
0205483520999992000031706004+17870+102720FM-12+0175VTUM V0209999C000012200019N0060001N1+03501+02191100481ADDAA199000091AY101061AY201061GA1001+999999999GF100991001001999999001001MA1999999098571MD1999999-0221MW1051REMSYN070AAXX  17064 48352 31956 00000 10350 20219 39857 40048 70500 333 59022;EQDQ01  00002PRCP99
0205483520999992000031709004+17870+102720FM-12+0175VTUM V0209999C000012200019N0060001N1+03551+01821100171ADDAA199000091AY101031AY201031GA1001+999999999GF100991001001999999001001MA1999999098271MD1999999-0181MW1051REMSYN070AAXX  17094 48352 31956 00000 10355 20182 39827 40017 70500 333 59018;EQDQ01  00002PRCP99
0224483520999992000031712004+17870+102720FM-12+0175VTUM V0209999C000012200019N0060001N1+03001+01961100241ADDAA199000091AY101061AY201061GA1001+999999999GF100991001001999999001001KA1120M+03741MA1999999098301MD1999999-0121MW1051REMSYN076AAXX  17124 48352 31956 00000 10300 20196 39830 40024 70500 333 10374 59012;EQDQ01  00002PRCP99
0205483520999992000031715004+17870+102720FM-12+0175VTUM V0209999C000012200019N0060001N1+02621+02041100491ADDAA199000091AY101031AY201031GA1001+999999999GF100991001001999999001001MA1999999098491MD1999999-0091MW1101REMSYN070AAXX  17154 48352 31956 00000 10262 20204 39849 40049 71000 333 59009;EQDQ01  00002PRCP99
0214483520999992000031800004+17870+102720FM-12+0175VTUM V0209999C000012200019N0050001N1+02231+01981100731ADDAA199000091AY101061AY201061GF104991031051008001001051KA1120N+02171MA1999999098741MD1999999+0001MW1101REMSYN082AAXX  18004 48352 31550 40000 10223 20198 39874 40073 71000 83505 333 20217 58000;EQDQ01  00002PRCP99
0205483520999992000031809004+17870+102720FM-12+0175VTUM V0209999C000012200019N0070001N1+03101+02021100291ADDAA199000091AY101031AY201031GA1001+999999999GF100991001001999999001001MA1999999098341MD1999999+0081MW1051REMSYN070AAXX  18094 48352 31957 00000 10310 20202 39834 40029 70500 333 58008;EQDQ01  00002PRCP99
0214483520999992000031812004+17870+102720FM-12+0175VTUM V0209999C000012200019N0060001N1+03201+01991100331ADDAA199000091AY111061AY201061GF106991011051008001001061KA1120M+03681MA1999999098391MD1999999+0091MW1051REMSYN082AAXX  18124 48352 31556 60000 10320 20199 39839 40033 70510 81506 333 10368 58009;EQDQ01  00002PRCP99
0195483520999992000031815004+17870+102720FM-12+0175VTUM V0209999C000012200019N0060001N1+02821+02131100581ADDAA199000091AY111031AY201031GF103991001001999999001051MA1999999098621MD1999999+0091MW1101REMSYN076AAXX  18154 48352 31956 30000 10282 20213 39862 40058 71010 80005 333 58009;EQDQ01  00002PRCP99
0195483520999992000031818004+17870+102720FM-12+0175VTUM V0209999C000012200019N0050001N1+02601+01931100631ADDAA199000091AY111061AY201061GF104991001001999999001051MA1999999098651MD1999999+0141MW1101REMSYN076AAXX  18184 48352 31950 40000 10260 20193 39865 40063 71010 80005 333 58014;EQDQ01  00002PRCP99
0205483520999992000031821004+17870+102720FM-12+0175VTUM V0209999C000012200019N0050001N1+02451+01921100551ADDAA199000091AY101031AY201031GA1001+999999999GF100991001001999999001001MA1999999098671MD1999999+0061MW1101REMSYN070AAXX  18214 48352 31950 00000 10245 20192 39867 40055 71000 333 58006;EQDQ01  00002PRCP99
0214483520999992000031900004+17870+102720FM-12+0175VTUM V0209999C000012200019N0040001N1+02301+01991100801ADDAA199000091AY111061AY201061GF105991041081008001001061KA1120N+02251MA1999999098811MD1999999+0071MW1101REMSYN082AAXX  19004 48352 31540 50000 10230 20199 39881 40080 71010 84806 333 20225 58007;EQDQ01  00002PRCP99
0205483520999992000031903004+17870+102720FM-12+0175VTUM V0203601N001512200019N0060001N1+03001+02101100961ADDAA199000091AY111031AY201031GA1001+999999999GF100991001001999999001001MA1999999099001MD1999999+0101MW1051REMSYN070AAXX  19034 48352 31956 03603 10300 20210 39900 40096 70510 333 58010;EQDQ01  00002PRCP99
0205483520999992000031906004+17870+102720FM-12+0175VTUM V0209999C000012200019N0070001N1+03541+01871100671ADDAA199000091AY101061AY201061GA1001+999999999GF100991001001999999001001MA1999999098751MD1999999+0111MW1051REMSYN070AAXX  19064 48352 31957 00000 10354 20187 39875 40067 70500 333 58011;EQDQ01  00002PRCP99
0205483520999992000031909004+17870+102720FM-12+0175VTUM V0209999C000012200019N0070001N1+03661+01831100351ADDAA199000091AY101031AY201031GA1001+999999999GF100991001001999999001001MA1999999098441MD1999999+0101MW1051REMSYN070AAXX  19094 48352 31957 00000 10366 20183 39844 40035 70500 333 58010;EQDQ01  00002PRCP99
0224483520999992000031912004+17870+102720FM-12+0175VTUM V0209999C000012200019N0060001N1+03111+02131100431ADDAA199000091AY101061AY201061GA1001+999999999GF100991001001999999001001KA1120M+03741MA1999999098481MD1999999+0101MW1051REMSYN076AAXX  19124 48352 31956 00000 10311 20213 39848 40043 70500 333 10374 58010;EQDQ01  00002PRCP99
0205483520999992000031915004+17870+102720FM-12+0175VTUM V0209999C000012200019N0060001N1+02761+02081100691ADDAA199000091AY101031AY201031GA1001+999999999GF100991001001999999001001MA1999999098731MD1999999+0111MW1101REMSYN070AAXX  19154 48352 31956 00000 10276 20208 39873 40069 71000 333 58011;EQDQ01  00002PRCP99
0195483520999992000031918004+17870+102720FM-12+0175VTUM V0209999C000010450019N0050001N1+02651+02071100711ADDAA199000091AY101061AY201061GF105991041081008001041061MA1999999098741MD1999999+0081MW1101REMSYN076AAXX  19184 48352 31550 50000 10265 20207 39874 40071 71000 84846 333 58008;EQDQ01  00002PRCP99
0195483520999992000031921004+17870+102720FM-12+0175VTUM V0209999C000012200019N0050001N1+02551+02211100681ADDAA199000091AY111031AY201031GF105991041051008001001061MA1999999098701MD1999999+0031MW1101REMSYN076AAXX  19214 48352 31550 50000 10255 20221 39870 40068 71010 84506 333 58003;EQDQ01  00002PRCP99
0214483520999992000032000004+17870+102720FM-12+0175VTUM V0209999C000010450019N0050001N1+02541+02241100861ADDAA199000091AY121061AY221061GF106991021051008001031001KA1120N+02501MA1999999098871MD1999999+0061MW1101REMSYN082AAXX  20004 48352 31550 60000 10254 20224 39887 40086 71022 82530 333 20250 58006;EQDQ01  00002PRCP99
0195483520999992000032003004+17870+102720FM-12+0175VTUM V0200901N002112200019N0060001N1+03111+02311100981ADDAA199000091AY121031AY221031GF104991021011008001031061MA1999999099021MD1999999+0021MW1051REMSYN076AAXX  20034 48352 31556 40904 10311 20231 39902 40098 70522 82136 333 58002;EQDQ01  00002PRCP99
0195483520999992000032006004+17870+102720FM-12+0175VTUM V0209999C000012200019N0060001N1+03521+02311100661ADDAA199000091AY121061AY211061GF104991031051008001001051MA1999999098741MD1999999-0011MW1051REMSYN076AAXX  20064 48352 31556 40000 10352 20231 39874 40066 70521 83505 333 59001;EQDQ01  00002PRCP99
0195483520999992000032009004+17870+102720FM-12+0175VTUM V0209999C000012200019N0060001N1+03591+02211100391ADDAA199000091AY101031AY201031GF103991021011008001001051MA1999999098481MD1999999+0041MW1051REMSYN076AAXX  20094 48352 31556 30000 10359 20221 39848 40039 70500 82105 333 58004;EQDQ01  00002PRCP99
0214483520999992000032012004+17870+102720FM-12+0175VTUM V0209999C000012200019N0060001N1+03191+02371100471ADDAA199000091AY101061AY201061GF102991011011008001001051KA1120M+03651MA1999999098531MD1999999+0041MW1051REMSYN082AAXX  20124 48352 31556 20000 10319 20237 39853 40047 70500 81105 333 10365 58004;EQDQ01  00002PRCP99
0205483520999992000032015004+17870+102720FM-12+0175VTUM V0209999C000012200019N0050001N1+02901+02321100781ADDAA199000091AY101031AY201031GA1001+999999999GF100991001001999999001001MA1999999098821MD1999999+0091MW1101REMSYN070AAXX  20154 48352 31950 00000 10290 20232 39882 40078 71000 333 58009;EQDQ01  00002PRCP99
0205483520999992000032018004+17870+102720FM-12+0175VTUM V0209999C000012200019N0050001N1+02751+02301100801ADDAA199000091AY101061AY201061GA1001+999999999GF100991001001999999001001MA1999999098841MD1999999+0091MW1101REMSYN070AAXX  20184 48352 31950 00000 10275 20230 39884 40080 71000 333 58009;EQDQ01  00002PRCP99
0206483520999992000032021004+17870+102720FM-12+0175VTUM V0209999C000012200019N0050001N1+02631+02291100751ADDAA199000091AY101031AY201031GA1001+999999999GF100991001001999999001001MD1999999+0041MW1101REMSYN070AAXX  20214 48352 31950 00000 10263 20229 30072 40075 71000 333 58004;EQDQ01+100723APOSP Q02  00002PRCP99
0214483520999992000032100004+17870+102720FM-12+0175VTUM V0201001N001012200019N0050001N1+02551+02281100911ADDAA199000091AY101061AY201061GF103991021051008001031001KA1120N+02531MA1999999098931MD1999999+0051MW1101REMSYN082AAXX  21004 48352 31550 31002 10255 20228 39893 40091 71000 82530 333 20253 58005;EQDQ01  00002PRCP99
0205483520999992000032103004+17870+102720FM-12+0175VTUM V0200801N001012200019N0060001N1+03091+02351101091ADDAA199000091AY101031AY201031GA1001+999999999GF100991001001999999001001MA1999999099131MD1999999+0111MW1101REMSYN070AAXX  21034 48352 31956 00802 10309 20235 39913 40109 71000 333 58011;EQDQ01  00002PRCP99
0205483520999992000032106004+17870+102720FM-12+0175VTUM V0209999C000012200019N0060001N1+03431+02361100791ADDAA199000091AY101061AY201061GA1001+999999999GF100991001001999999001001MA1999999098871MD1999999+0131MW1051REMSYN070AAXX  21064 48352 31956 00000 10343 20236 39887 40079 70500 333 58013;EQDQ01  00002PRCP99
0195483520999992000032109004+17870+102720FM-12+0175VTUM V0200301N001012200019N0060001N1+03621+02251100461ADDAA199000091AY101031AY201031GF102991021011008001001001MA1999999098551MD1999999+0071MW1051REMSYN076AAXX  21094 48352 31556 20302 10362 20225 39855 40046 70500 82100 333 58007;EQDQ01  00002PRCP99
0224483520999992000032112004+17870+102720FM-12+0175VTUM V0209999C000012200019N0060001N1+03181+02421100581ADDAA199000091AY101061AY201061GA1001+999999999GF100991001001999999001001KA1120M+03691MA1999999098641MD1999999+0111MW1051REMSYN076AAXX  21124 48352 31956 00000 10318 20242 39864 40058 70500 333 10369 58011;EQDQ01  00002PRCP99
0195483520999992000032115004+17870+102720FM-12+0175VTUM V0209999C000012200019N0050001N1+03001+02351100801ADDAA199000091AY101031AY201031GF102991001001999999001051MA1999999098851MD1999999+0021MW1101REMSYN076AAXX  21154 48352 31950 20000 10300 20235 39885 40080 71000 80005 333 58002;EQDQ01  00002PRCP99
0205483520999992000032118004+17870+102720FM-12+0175VTUM V0209999C000012200019N0050001N1+02801+02381100821ADDAA199000091AY101061AY201061GA1001+999999999GF100991001001999999001001MA1999999098851MD1999999+0021MW1101REMSYN070AAXX  21184 48352 31950 00000 10280 20238 39885 40082 71000 333 58002;EQDQ01  00002PRCP99
0205483520999992000032121004+17870+102720FM-12+0175VTUM V0209999C000012200019N0050001N1+02671+02331100731ADDAA199000091AY101031AY201031GA1001+999999999GF100991001001999999001001MA1999999098771MD1999999+0011MW1101REMSYN070AAXX  21214 48352 31950 00000 10267 20233 39877 40073 71000 333 58001;EQDQ01  00002PRCP99
0214483520999992000032200004+17870+102720FM-12+0175VTUM V0200601N001012200019N0040001N1+02611+02331100891ADDAA199000091AY101061AY201061GF103991021051008001001051KA1120N+02581MA1999999098911MD1999999-0021MW1101REMSYN082AAXX  22004 48352 31540 30602 10261 20233 39891 40089 71000 82505 333 20258 59002;EQDQ01  00002PRCP99
0205483520999992000032203004+17870+102720FM-12+0175VTUM V0200301N001012200019N0070001N1+03131+02411101061ADDAA199000091AY101031AY201031GA1001+999999999GF100991001001999999001001MA1999999099101MD1999999-0031MW1101REMSYN070AAXX  22034 48352 31957 00302 10313 20241 39910 40106 71000 333 59003;EQDQ01  00002PRCP99
0189483520999992000032206004+17870+102720FM-12+0175VTUM V0200401N001012200019N0070001N1+03611+02351100741ADDAA199000091AY101061AY201061GF101991999999999999999999MA1999999098831MD1999999-0051MW1051REMSYN070AAXX  22064 48352 31957 10402 10361 20235 39883 40074 70500 333 59005;EQDQ01  00002PRCP99
0195483520999992000032209004+17870+102720FM-12+0175VTUM V0209999C000012200019N0060001N1+03671+02391100441ADDAA199000091AY101031AY201031GF102991021021008001001001MA1999999098531MD1999999-0021MW1051REMSYN076AAXX  22094 48352 31556 20000 10367 20239 39853 40044 70500 82200 333 59002;EQDQ01  00002PRCP99
0224483520999992000032212004+17870+102720FM-12+0175VTUM V0209999C000012200019N0060001N1+03251+02491100581ADDAA199000091AY101061AY201061GA1001+999999999GF100991001001999999001001KA1120M+03721MA1999999098651MD1999999+0001MW1051REMSYN076AAXX  22124 48352 31956 00000 10325 20249 39865 40058 70500 333 10372 58000;EQDQ01  00002PRCP99
0205483520999992000032215004+17870+102720FM-12+0175VTUM V0209999C000012200019N0050001N1+03051+02191100831ADDAA199000091AY101031AY201031GA1001+999999999GF100991001001999999001001MA1999999098891MD1999999+0031MW1051REMSYN070AAXX  22154 48352 31950 00000 10305 20219 39889 40083 70500 333 58003;EQDQ01  00002PRCP99
0195483520999992000032218004+17870+102720FM-12+0175VTUM V0209999C000012200019N0050001N1+02821+02311100891ADDAA199000091AY101061AY201061GF102991021051008001001001MA1999999098931MD1999999+0071MW1101REMSYN076AAXX  22184 48352 31550 20000 10282 20231 39893 40089 71000 82500 333 58007;EQDQ01  00002PRCP99
0214483520999992000032300004+17870+102720FM-12+0175VTUM V0209999C000012200019N0050001N1+02661+02281101031ADDAA199000091AY121061AY221061GF106991031051008001001061KA1120N+02641MA1999999099051MD1999999+0141MW1101REMSYN082AAXX  23004 48352 31550 60000 10266 20228 39905 40103 71022 83506 333 20264 58014;EQDQ01  00002PRCP99
0195483520999992000032303004+17870+102720FM-12+0175VTUM V0200301N001512200019N0070001N1+03071+02391101181ADDAA199000091AY121031AY221031GF106991031051008001001061MA1999999099231MD1999999+0121MW1101REMSYN076AAXX  23034 48352 31557 60303 10307 20239 39923 40118 71022 83506 333 58012;EQDQ01  00002PRCP99
0195483520999992000032306004+17870+102720FM-12+0175VTUM V0203501N001012200019N0070001N1+03571+02321100841ADDAA199000091AY111061AY201061GF101991011011008001001001MA1999999098931MD1999999+0101MW1051REMSYN076AAXX  23064 48352 31557 13502 10357 20232 39893 40084 70510 81100 333 58010;EQDQ01  00002PRCP99
0195483520999992000032309004+17870+102720FM-12+0175VTUM V0209999C000012200019N0070001N1+03651+02371100581ADDAA199000091AY101031AY201031GF101991011011008001001001MA1999999098671MD1999999+0141MW1051REMSYN076AAXX  23094 48352 31557 10000 10365 20237 39867 40058 70500 81100 333 58014;EQDQ01  00002PRCP99
0224483520999992000032312004+17870+102720FM-12+0175VTUM V0209999C000012200019N0060001N1+03271+02491100751ADDAA199000091AY101061AY201061GA1001+999999999GF100991001001999999001001KA1120M+03731MA1999999098821MD1999999+0171MW1051REMSYN076AAXX  23124 48352 31956 00000 10327 20249 39882 40075 70500 333 10373 58017;EQDQ01  00002PRCP99
0195483520999992000032315004+17870+102720FM-12+0175VTUM V0209999C000012200019N0050001N1+03101+02301101031ADDAA199000091AY101031AY201031GF103991021051008001001051MA1999999099071MD1999999+0201MW1051REMSYN076AAXX  23154 48352 31550 30000 10310 20230 39907 40103 70500 82505 333 58020;EQDQ01  00002PRCP99
0195483520999992000032318004+17870+102720FM-12+0175VTUM V0200801N002612200019N0050001N1+02871+02271101081ADDAA199000091AY101061AY201061GF102991011051008001001051MA1999999099111MD1999999+0191MW1101REMSYN076AAXX  23184 48352 31550 20805 10287 20227 39911 40108 71000 81505 333 58019;EQDQ01  00002PRCP99
0195483520999992000032321004+17870+102720FM-12+0175VTUM V0201001N002610075019N0060001N1+02751+02201101061ADDAA199000091AY191031AY211031GF108991061091008001071999MA1999999099091MD1999999+0181MW1171REMSYN076AAXX  23214 48352 31556 81005 10275 20220 39909 40106 71791 8697/ 333 58018;EQDQ01  00002PRCP99
0213483520999992000032400004+17870+102720FM-12+0175VTUM V0209999C000010075019N0050001N1+02351+02261101341ADDAA102003091AY191061AY221061GF108991051091008001071999KA1120N+02331MA1999999099341MD1999999+0311MW1951REMSYN100AAXX  24004 48352 /1550 80000 10235 20226 39934 40134 60034 79592 8597/ 333 20233 58031 60036 70025;
0192483520999992000032403004+17870+102720FM-12+0175VTUM V0201001N001012200019N0100001N1+02751+02101101541ADDAA103000391AY161031AY211031GA1001+999999999GF100991001001999999001001MA1999999099571MD1999999+0361MW1011REMSYN076AAXX  24034 48352 21960 01002 10275 20210 39957 40154 70161 333 58036 69937;
0148483520999992000032409004+17870+102720FM-12+0175VTUM V0209999C000010120019N0110001N1+03181+02091100911ADDAA199000021GF108991051081008001071061MA1999999098971MD1999999+0331REMSYN070AAXX  24094 48352 32561 80000 10318 20209 39897 40091 85876 333 58033;
0173483520999992000032412004+17870+102720FM-12+0175VTUM V0209999C000010450019N0100001N1+02941+02301101021ADDAA124002891GF106991041051008001071061KA1120M+03271MA1999999099051MD1999999+0271REMSYN082AAXX  24124 48352 32560 60000 10294 20230 39905 40102 84576 333 10327 58027 70028;
0167483520999992000032415004+17870+102720FM-12+0175VTUM V0209999C000012200019N0100001N1+02761+02261101281ADDAA199000091GF106991041051008001001061MA1999999099301MD1999999+0251REMSYN070AAXX  24154 48352 32560 60000 10276 20226 39930 40128 84506 333 58025;EQDQ01  00002PRCP99
0154483520999992000032418004+17870+102720FM-12+0175VTUM V0201201N001510075019N0100001N1+02591+01921101401ADDAA124002891GF108991051051008001071061MA1999999099411MD1999999+0321REMSYN076AAXX  24184 48352 32560 81203 10259 20192 39941 40140 85576 333 58032 70028;
0167483520999992000032421004+17870+102720FM-12+0175VTUM V0200901N001010450019N0100001N1+02421+01891101341ADDAA199000091GF108991041051008001071061MA1999999099341MD1999999+0281REMSYN070AAXX  24214 48352 32560 80902 10242 20189 39934 40134 84576 333 58028;EQDQ01  00002PRCP99
0179483520999992000032500004+17870+102720FM-12+0175VTUM V0209999C000010450019N0100001N1+02421+01901101431ADDAA124000391GF108991041051008001031061KA1120N+02401MA1999999099431MD1999999+0091REMSYN088AAXX  25004 48352 12560 80000 10242 20190 39943 40143 69934 84536 333 20240 58009 70003;
0177483520999992000032503004+17870+102720FM-12+0175VTUM V0201201N002612200019N0110001N1+02851+01851101511ADDAA199000091GA1001+999999999GF100991001001999999001001MA1999999099541MD1999999-0031REMSYN064AAXX  25034 48352 32961 01205 10285 20185 39954 40151 333 59003;EQDQ01  00002PRCP99
0177483520999992000032506004+17870+102720FM-12+0175VTUM V0200901N001512200019N0100001N1+03231+01831101201ADDAA199000091GA1001+999999999GF100991001001999999001001MA1999999099251MD1999999-0051REMSYN064AAXX  25064 48352 32960 00903 10323 20183 39925 40120 333 59005;EQDQ01  00002PRCP99
0167483520999992000032509004+17870+102720FM-12+0175VTUM V0200201N002612200019N0100001N1+03181+01931100961ADDAA199000091GF102991001001999999001051MA1999999099011MD1999999+0051REMSYN070AAXX  25094 48352 32960 20205 10318 20193 39901 40096 80005 333 58005;EQDQ01  00002PRCP99
0214483520999992000032512004+17870+102720FM-12+0175VTUM V0209999C000010075019N0080001N1+02951+02081101071ADDAA199000091AY121061AY201061GF108991051051008001071061KA1120M+03331MA1999999099111MD1999999+0051MW1051REMSYN082AAXX  25124 48352 31558 80000 10295 20208 39911 40107 70520 85576 333 10333 58005;EQDQ01  00002PRCP99
0195483520999992000032515004+17870+102720FM-12+0175VTUM V0201001N003112200019N0070001N1+02851+01761101421ADDAA199000091AY121031AY221031GF106991041081008001001061MA1999999099441MD1999999+0141MW1051REMSYN076AAXX  25154 48352 31557 61006 10285 20176 39944 40142 70522 84806 333 58014;EQDQ01  00002PRCP99
0195483520999992000032518004+17870+102720FM-12+0175VTUM V0200901N001510450019N0070001N1+02551+01751101531ADDAA199000091AY121061AY221061GF108991041051008001071061MA1999999099541MD1999999+0131MW1051REMSYN076AAXX  25184 48352 31557 80903 10255 20175 39954 40153 70522 84576 333 58013;EQDQ01  00002PRCP99
0195483520999992000032521004+17870+102720FM-12+0175VTUM V0209999C000012200019N0060001N1+02321+01691101461ADDAA199000091AY121031AY221031GF106991021051008001001061MA1999999099451MD1999999+0121MW1101REMSYN076AAXX  25214 48352 31556 60000 10232 20169 39945 40146 71022 82506 333 58012;EQDQ01  00002PRCP99
0186483520999992000032600004+17870+102720FM-12+0175VTUM V0209999C000010450019N0100001N1+02241+01791101551ADDAA199000091GF107991041051008001071061KA1120N+02171MA1999999099531MD1999999+0121REMSYN076AAXX  26004 48352 32560 70000 10224 20179 39953 40155 84576 333 20217 58012;EQDQ01  00002PRCP99
0167483520999992000032603004+17870+102720FM-12+0175VTUM V0200601N004112200019N0130001N1+02831+01811101611ADDAA199000091GF106991031051008001001061MA1999999099701MD1999999+0101REMSYN070AAXX  26034 48352 32563 60608 10283 20181 39970 40161 83506 333 58010;EQDQ01  00002PRCP99
0167483520999992000032606004+17870+102720FM-12+0175VTUM V0200701N003110450019N0150001N1+03171+01821101391ADDAA199000091GF108991041081008001031061MA1999999099441MD1999999+0191REMSYN070AAXX  26064 48352 32565 80706 10317 20182 39944 40139 84836 333 58019;EQDQ01  00002PRCP99
0167483520999992000032609004+17870+102720FM-12+0175VTUM V0200501N003110120019N0150001N1+03211+01701101121ADDAA199000091GF108991051081008001001061MA1999999099171MD1999999+0161REMSYN070AAXX  26094 48352 32565 80506 10321 20170 39917 40112 85806 333 58016;EQDQ01  00002PRCP99
0186483520999992000032612004+17870+102720FM-12+0175VTUM V0200401N001511050019N0140001N1+02951+01741101181ADDAA199000091GF107991041051008001001061KA1120M+03271MA1999999099221MD1999999+0111REMSYN076AAXX  26124 48352 32564 70403 10295 20174 39922 40118 84506 333 10327 58011;EQDQ01  00002PRCP99
0167483520999992000032615004+17870+102720FM-12+0175VTUM V0200801N003112200019N0120001N1+02581+01701101511ADDAA199000091GF102991001001999999001051MA1999999099161MD1999999+0091REMSYN070AAXX  26154 48352 32962 20806 10258 20170 39916 40151 80005 333 58009;EQDQ01  00002PRCP99
0183483520999992000032618004+17870+102720FM-12+0175VTUM V0209999C000012200019N0110001N1+02241+01631101511ADDAA199000091GF103991021051008001001051MA1999999099792MD1999999-0021REMSYN070AAXX  26184 48352 32561 30000 10224 20163 39979 40151 82505 333 59002;EQDQ01+099793APOSP Q02  00002PRCP99
0186483520999992000032700004+17870+102720FM-12+0175VTUM V0209999C000012200019N0100001N1+02031+01611101581ADDAA199000091GF102991021051008001001051KA1120N+01931MA1999999099551MD1999999+0031REMSYN076AAXX  27004 48352 32560 20000 10203 20161 39955 40158 82505 333 20193 58003;EQDQ01  00002PRCP99
0137483520999992000032703004+17870+102720FM-12+0175VTUM V0201201N001012200019N0140001N1+02741+99999999999ADDAA199000091GF102991999999008001999999REMSYN069AAXX  27034 48352 32564 21202 10274 2016 39965 40163 82500 333 58002;EQDQ01  00002PRCP99
0177483520999992000032706004+17870+102720FM-12+0175VTUM V0200701N001012200019N0150001N1+03201+01731101181ADDAA199000091GA1001+999999999GF100991001001999999001001MA1999999099231MD1999999-0211REMSYN064AAXX  27064 48352 32965 00702 10320 20173 39923 40118 333 59021;EQDQ01  00002PRCP99
0177483520999992000032709004+17870+102720FM-12+0175VTUM V0209999C000012200019N0130001N1+03331+01681100841ADDAA199000091GA1001+999999999GF100991001001999999001001MA1999999098911MD1999999-0281REMSYN064AAXX  27094 48352 32963 00000 10333 20168 39891 40084 333 59028;EQDQ01  00002PRCP99
0196483520999992000032712004+17870+102720FM-12+0175VTUM V0209999C000012200019N0120001N1+02871+01881101051ADDAA199000091GA1001+999999999GF100991001001999999001001KA1120M+03401MA1999999099081MD1999999-0131REMSYN070AAXX  27124 48352 32962 00000 10287 20188 39908 40105 333 10340 59013;EQDQ01  00002PRCP99
0177483520999992000032715004+17870+102720FM-12+0175VTUM V0209999C000012200019N0110001N1+02541+01921101331ADDAA199000091GA1001+999999999GF100991001001999999001001MA1999999099331MD1999999-0181REMSYN064AAXX  27154 48352 32961 00000 10254 20192 39933 40133 333 59018;EQDQ01  00002PRCP99
0177483520999992000032718004+17870+102720FM-12+0175VTUM V0209999C000012200019N0100001N1+02401+01781101251ADDAA199000091GA1001+999999999GF100991001001999999001001MA1999999099251MD1999999-0261REMSYN064AAXX  27184 48352 32960 00000 10240 20178 39925 40125 333 59026;EQDQ01  00002PRCP99
0177483520999992000032721004+17870+102720FM-12+0175VTUM V0200301N001012200019N0100001N1+02231+01731101161ADDAA199000091GA1001+999999999GF100991001001999999001001MA1999999099141MD1999999-0301REMSYN064AAXX  27214 48352 32960 00302 10223 20173 39914 40116 333 59030;EQDQ01  00002PRCP99
0186483520999992000032800004+17870+102720FM-12+0175VTUM V0209999C000012200019N0100001N1+02251+01771101321ADDAA199000091GF104991011011008001031051KA1120N+02131MA1999999099311MD1999999-0261REMSYN076AAXX  28004 48352 32560 40000 10225 20177 39931 40132 81135 333 20213 59026;EQDQ01  00002PRCP99
0177483520999992000032803004+17870+102720FM-12+0175VTUM V0209999C000012200019N0120001N1+02891+01881101361ADDAA199000091GA1001+999999999GF100991001001999999001001MA1999999099391MD1999999-0271REMSYN064AAXX  28034 48352 32962 00000 10289 20188 39939 40136 333 59027;EQDQ01  00002PRCP99
0177483520999992000032809004+17870+102720FM-12+0175VTUM V0209999C000012200019N0150001N1+03191+01901100721ADDAA199000091GA1001+999999999GF100991001001999999001001MA1999999098811MD1999999-0121REMSYN064AAXX  28094 48352 32965 00000 10319 20190 39881 40072 333 59012;EQDQ01  00002PRCP99
0196483520999992000032812004+17870+102720FM-12+0175VTUM V0209999C000012200019N0130001N1+03001+02031100871ADDAA199000091GA1001+999999999GF100991001001999999001001KA1120M+03531MA1999999098921MD1999999-0181REMSYN070AAXX  28124 48352 32963 00000 10300 20203 39892 40087 333 10353 59018;EQDQ01  00002PRCP99
0177483520999992000032818004+17870+102720FM-12+0175VTUM V0200901N002112200019N0100001N1+02501+01601101281ADDAA199000091GA1001+999999999GF100991001001999999001001MA1999999099281MD1999999+0031REMSYN064AAXX  28184 48352 32960 00904 10250 20160 39928 40128 333 58003;EQDQ01  00002PRCP99
0224483520999992000032900004+17870+102720FM-12+0175VTUM V0209999C000012200019N0080001N1+02101+01691101411ADDAA199000091AY101061AY201061GA1001+999999999GF100991001001999999001001KA1120N+02021MA1999999099391MD1999999+0091MW1101REMSYN076AAXX  29004 48352 31958 00000 10210 20169 39939 40141 71000 333 20202 58009;EQDQ01  00002PRCP99
0177483520999992000032903004+17870+102720FM-12+0175VTUM V0200301N003112200019N0110001N1+02951+01681101461ADDAA199000091GA1001+999999999GF100991001001999999001001MA1999999099501MD1999999+0101REMSYN064AAXX  29034 48352 32961 00306 10295 20168 39950 40146 333 58010;EQDQ01  00002PRCP99
0177483520999992000032906004+17870+102720FM-12+0175VTUM V0200801N002612200019N0120001N1+03381+01691101091ADDAA199000091GA1001+999999999GF100991001001999999001001MA1999999099151MD1999999+0061REMSYN064AAXX  29064 48352 32962 00805 10338 20169 39915 40109 333 58006;EQDQ01  00002PRCP99
0177483520999992000032909004+17870+102720FM-12+0175VTUM V0203601N001512200019N0120001N1+03501+01731100751ADDAA199000091GA1001+999999999GF100991001001999999001001MA1999999098831MD1999999+0031REMSYN064AAXX  29094 48352 32962 03603 10350 20173 39883 40075 333 58003;EQDQ01  00002PRCP99
0196483520999992000032912004+17870+102720FM-12+0175VTUM V0209999C000012200019N0100001N1+03021+01971100851ADDAA199000091GA1001+999999999GF100991001001999999001001KA1120M+03571MA1999999098901MD1999999-0021REMSYN070AAXX  29124 48352 32960 00000 10302 20197 39890 40085 333 10357 59002;EQDQ01  00002PRCP99
0177483520999992000032915004+17870+102720FM-12+0175VTUM V0209999C000012200019N0100001N1+02651+01901101211ADDAA199000091GA1001+999999999GF100991001001999999001001MA1999999099091MD1999999+0001REMSYN064AAXX  29154 48352 32960 00000 10265 20190 39909 40121 333 58000;EQDQ01  00002PRCP99
0224483520999992000033000004+17870+102720FM-12+0175VTUM V0209999C000012200019N0070001N1+02171+01661101191ADDAA199000091AY101061AY201061GA1001+999999999GF100991001001999999001001KA1120N+02091MA1999999099181MD1999999-0221MW1101REMSYN076AAXX  30004 48352 31957 00000 10217 20166 39918 40119 71000 333 20209 59022;EQDQ01  00002PRCP99
0177483520999992000033003004+17870+102720FM-12+0175VTUM V0200901N002112200019N0100001N1+02851+01551101251ADDAA199000091GA1001+999999999GF100991001001999999001001MA1999999099281MD1999999-0211REMSYN064AAXX  30034 48352 32960 00904 10285 20155 39928 40125 333 59021;EQDQ01  00002PRCP99
0177483520999992000033006004+17870+102720FM-12+0175VTUM V0209999C000012200019N0120001N1+03351+01541100871ADDAA199000091GA1001+999999999GF100991001001999999001001MA1999999098941MD1999999-0221REMSYN064AAXX  30064 48352 32962 00000 10335 20154 39894 40087 333 59022;EQDQ01  00002PRCP99
0177483520999992000033009004+17870+102720FM-12+0175VTUM V0209999C000012200019N0140001N1+03461+01741100531ADDAA199000091GA1001+999999999GF100991001001999999001001MA1999999098611MD1999999-0221REMSYN064AAXX  30094 48352 32964 00000 10346 20174 39861 40053 333 59022;EQDQ01  00002PRCP99
0196483520999992000033012004+17870+102720FM-12+0175VTUM V0209999C000012200019N0120001N1+02961+01881100551ADDAA199000091GA1001+999999999GF100991001001999999001001KA1120M+03521MA1999999098601MD1999999-0301REMSYN070AAXX  30124 48352 32962 00000 10296 20188 39860 40055 333 10352 59030;EQDQ01  00002PRCP99
0177483520999992000033015004+17870+102720FM-12+0175VTUM V0209999C000012200019N0110001N1+02651+01961100781ADDAA199000091GA1001+999999999GF100991001001999999001001MA1999999098861MD1999999-0291REMSYN064AAXX  30154 48352 32961 00000 10265 20196 39886 40078 333 59029;EQDQ01  00002PRCP99
0177483520999992000033018004+17870+102720FM-12+0175VTUM V0209999C000012200019N0100001N1+02491+01791101061ADDAA199000091GA1001+999999999GF100991001001999999001001MA1999999099071MD1999999-0191REMSYN064AAXX  30184 48352 32960 00000 10249 20179 39907 40106 333 59019;EQDQ01  00002PRCP99
0205483520999992000033021004+17870+102720FM-12+0175VTUM V0209999C000012200019N0080001N1+02331+01701101061ADDAA199000091AY101031AY201031GA1001+999999999GF100991001001999999001001MA1999999099051MD1999999-0191MW1101REMSYN070AAXX  30214 48352 31958 00000 10233 20170 39905 40106 71000 333 59019;EQDQ01  00002PRCP99
0213483520999992000033100004+17870+102720FM-12+0175VTUM V0209999C000010120019N0100001N1+02261+02041100901ADDAA103001091AY161061AY221061GF108991061081008001071999KA1120N+02251MA1999999098911MD1999999-0291MW1021REMSYN100AAXX  31004 48352 /1560 80000 10226 20204 39891 40090 60014 70262 8687/ 333 20225 59029 60017 70010;
0182483520999992000033103004+17870+102720FM-12+0175VTUM V0209999C000010120019N0110001N1+02301+02211101051ADDAA103003091AY161031AY261031GF108991061081008001071999MA1999999099051MD1999999-0201MW1211REMSYN082AAXX  31034 48352 21561 80000 10230 20221 39905 40105 72166 8687/ 333 59020 60037;
0188483520999992000033106004+17870+102720FM-12+0175VTUM V0209999C000012200019N0120001N1+02871+02331100711ADDAA106003091AY161061AY221061GF104991021011008001001051MA1999999098761MD1999999-0161MW1011REMSYN088AAXX  31064 48352 11562 40000 10287 20233 39876 40071 60031 70162 82105 333 59016 70035;
0148483520999992000033109004+17870+102720FM-12+0175VTUM V0209999C000010120019N0120001N1+03151+02441100391ADDAA199000021GF108991061081008001071999MA1999999098451MD1999999-0141REMSYN070AAXX  31094 48352 32562 80000 10315 20244 39845 40039 8687/ 333 59014;
0173483520999992000033112004+17870+102720FM-12+0175VTUM V0209999C000012200019N0110001N1+02861+02491100441ADDAA124003691GF105991021051008001001061KA1120M+03251MA1999999098481MD1999999-0111REMSYN082AAXX  31124 48352 32561 50000 10286 20249 39848 40044 82506 333 10325 59011 70035;
0148483520999992000033115004+17870+102720FM-12+0175VTUM V0209999C000012200019N0100001N1+02651+02371100671ADDAA199000021GF102991021051008001001001MA1999999098711MD1999999-0111REMSYN070AAXX  31154 48352 32560 20000 10265 20237 39871 40067 82500 333 59011;
0164483520999992000033118004+17870+102720FM-12+0175VTUM V0209999C000012200019N0100001N1+02501+02351100561ADDAA124003691GA1001+999999999GF100991001001999999001001MA1999999098581MD1999999-0141REMSYN070AAXX  31184 48352 32960 00000 10250 20235 39858 40056 333 59014 70035;
0177483520999992000033121004+17870+102720FM-12+0175VTUM V0209999C000012200019N0100001N1+02411+02321100481ADDAA199000091GA1001+999999999GF100991001001999999001001MA1999999098491MD1999999-0131REMSYN064AAXX  31214 48352 32960 00000 10241 20232 39849 40048 333 59013;EQDQ01  00002PRCP99
0201483520999992000040100004+17870+102720FM-12+0175VTUM V0209999C000012200019N0060001N1+02431+02331100671ADDAA124002591AY101061AY201061GF103991021021008001001051KA1120N+02321MA1999999098691MD1999999-0231MW1101REMSYN088AAXX  01004 48352 31556 30000 10243 20233 39869 40067 71000 82205 333 20232 59023 70025;
0177483520999992000040103004+17870+102720FM-12+0175VTUM V0202801N001012200019N0100001N1+03171+02381100741ADDAA199000091GA1001+999999999GF100991001001999999001001MA1999999098801MD1999999-0311REMSYN064AAXX  01034 48352 32960 02802 10317 20238 39880 40074 333 59031;EQDQ01  00002PRCP99
0167483520999992000040106004+17870+102720FM-12+0175VTUM V0202901N001012200019N0110001N1+03551+02331100401ADDAA199000091GF102991021021008001001001MA1999999098491MD1999999-0311REMSYN070AAXX  01064 48352 32561 22902 10355 20233 39849 40040 82200 333 59031;EQDQ01  00002PRCP99
0167483520999992000040109004+17870+102720FM-12+0175VTUM V0202701N001012200019N0120001N1+03721+02421099951ADDAA199000091GF101991011021008001001001MA1999999099061MD1999999-0441REMSYN070AAXX  01094 48352 32562 12702 10372 20242 39906 49995 81200 333 59044;EQDQ01  00002PRCP99
0212483520999992000040112004+17870+102720FM-12+0175VTUM V0209999C000012200019N0100001N1+03251+02471100121ADDAA199000091GA1001+999999999GF100991001001999999001001KA1120M+03801MA1999999098212MD1999999-0321REMSYN070AAXX  01124 48352 32960 00000 10325 20247 39821 40012 333 10380 59032;EQDQ01+098213APOSP Q02  00002PRCP99
0195483520999992000040115004+17870+102720FM-12+0175VTUM V0209999C000012200019N0090001N1+02901+02241100451ADDAA199000091AY101031AY201031GF103991031051008001001001MA1999999098491MD1999999-0221MW1101REMSYN076AAXX  01154 48352 31559 30000 10290 20224 39849 40045 71000 83500 333 59022;EQDQ01  00002PRCP99
0205483520999992000040118004+17870+102720FM-12+0175VTUM V0209999C000012200019N0080001N1+02651+02191100381ADDAA199000091AY101061AY201061GA1001+999999999GF100991001001999999001001MA1999999098141MD1999999-0181MW1101REMSYN070AAXX  01184 48352 31958 00000 10265 20219 39814 40038 71000 333 59018;EQDQ01  00002PRCP99
0205483520999992000040121004+17870+102720FM-12+0175VTUM V0209999C000012200019N0070001N1+02451+02151100371ADDAA199000091AY101031AY201031GA1001+999999999GF100991001001999999001001MA1999999098391MD1999999-0111MW1101REMSYN070AAXX  01214 48352 31957 00000 10245 20215 39839 40037 71000 333 59011;EQDQ01  00002PRCP99
0224483520999992000040200004+17870+102720FM-12+0175VTUM V0209999C000012200019N0060001N1+02421+02201100601ADDAA199000091AY101061AY201061GA1001+999999999GF100991001001999999001001KA1120N+02371MA1999999098611MD1999999-0071MW1101REMSYN076AAXX  02004 48352 31956 00000 10242 20220 39861 40060 71000 333 20237 59007;EQDQ01  00002PRCP99
0177483520999992000040203004+17870+102720FM-12+0175VTUM V0202901N002112200019N0100001N1+03391+02221100671ADDAA199000091GA1001+999999999GF100991001001999999001001MA1999999098751MD1999999-0071REMSYN064AAXX  02034 48352 32960 02904 10339 20222 39875 40067 333 59007;EQDQ01  00002PRCP99
0167483520999992000040209004+17870+102720FM-12+0175VTUM V0209999C000012200019N0110001N1+03911+02151100051ADDAA199000091GF103991031021008001001001MA1999999098171MD1999999+0101REMSYN070AAXX  02094 48352 32561 30000 10391 20215 39817 40005 83200 333 58010;EQDQ01  00002PRCP99
0186483520999992000040212004+17870+102720FM-12+0175VTUM V0209999C000011050019N0100001N1+03381+02251100131ADDAA199000091GF105991041081008001001051KA1120M+03981MA1999999098211MD1999999+0011REMSYN076AAXX  02124 48352 32560 50000 10338 20225 39821 40013 84805 333 10398 58001;EQDQ01  00002PRCP99
0195483520999992000040215004+17870+102720FM-12+0175VTUM V0209999C000012200019N0080001N1+02981+02281100461ADDAA199000091AY101031AY201031GF102991001001999999001051MA1999999098511MD1999999+0011MW1101REMSYN076AAXX  02154 48352 31958 20000 10298 20228 39851 40046 71000 80005 333 58001;EQDQ01  00002PRCP99
0205483520999992000040218004+17870+102720FM-12+0175VTUM V0209999C000012200019N0070001N1+02731+02191100411ADDAA199000091AY111061AY201061GA1001+999999999GF100991001001999999001001MA1999999098441MD1999999+0031MW1101REMSYN070AAXX  02184 48352 31957 00000 10273 20219 39844 40041 71010 333 58003;EQDQ01  00002PRCP99
0205483520999992000040221004+17870+102720FM-12+0175VTUM V0209999C000012200019N0060001N1+02571+02081100421ADDAA199000091AY101031AY201031GA1001+999999999GF100991001001999999001001MA1999999098441MD1999999+0051MW1101REMSYN070AAXX  02214 48352 31956 00000 10257 20208 39844 40042 71000 333 58005;EQDQ01  00002PRCP99
0214483520999992000040300004+17870+102720FM-12+0175VTUM V0209999C000012200019N0050001N1+02571+02171100681ADDAA199000091AY101061AY201061GF102991021051008001001051KA1120N+02471MA1999999098711MD1999999+0081MW1101REMSYN082AAXX  03004 48352 31550 20000 10257 20217 39871 40068 71000 82505 333 20247 58008;EQDQ01  00002PRCP99
0205483520999992000040303004+17870+102720FM-12+0175VTUM V0209999C000012200019N0080001N1+03331+02241100831ADDAA199000091AY101031AY201031GA1001+999999999GF100991001001999999001001MA1999999098911MD1999999+0161MW1051REMSYN070AAXX  03034 48352 31958 00000 10333 20224 39891 40083 70500 333 58016;EQDQ01  00002PRCP99
0205483520999992000040306004+17870+102720FM-12+0175VTUM V0209999C000012200019N0090001N1+03851+02261100511ADDAA199000091AY101061AY201061GA1001+999999999GF100991001001999999001001MA1999999098611MD1999999+0131MW1051REMSYN070AAXX  03064 48352 31959 00000 10385 20226 39861 40051 70500 333 58013;EQDQ01  00002PRCP99
0195483520999992000040309004+17870+102720FM-12+0175VTUM V0209999C000012200019N0090001N1+03921+02151100171ADDAA199000091AY101031AY201031GF102991021011008001001011MA1999999098291MD1999999+0121MW1051REMSYN076AAXX  03094 48352 31559 20000 10392 20215 39829 40017 70500 82101 333 58012;EQDQ01  00002PRCP99
0214483520999992000040312004+17870+102720FM-12+0175VTUM V0209999C000012200019N0080001N1+03371+02251100211ADDAA199000091AY101061AY201061GF103991031051008001001051KA1120M+04001MA1999999098301MD1999999+0081MW1051REMSYN082AAXX  03124 48352 31558 30000 10337 20225 39830 40021 70500 83505 333 10400 58008;EQDQ01  00002PRCP99
0195483520999992000040315004+17870+102720FM-12+0175VTUM V0209999C000012200019N0070001N1+02951+02211100471ADDAA199000091AY101031AY201031GF102991021051008001001001MA1999999098521MD1999999+0011MW1101REMSYN076AAXX  03154 48352 31557 20000 10295 20221 39852 40047 71000 82500 333 58001;EQDQ01  00002PRCP99
0195483520999992000040318004+17870+102720FM-12+0175VTUM V0209999C000012200019N0070001N1+02801+02171100451ADDAA199000091AY101061AY201061GF103991031051008001001001MA1999999098481MD1999999+0041MW1101REMSYN076AAXX  03184 48352 31557 30000 10280 20217 39848 40045 71000 83500 333 58004;EQDQ01  00002PRCP99
0205483520999992000040321004+17870+102720FM-12+0175VTUM V0209999C000012200019N0060001N1+02631+02181100421ADDAA199000091AY101031AY201031GA1001+999999999GF100991001001999999001001MA1999999098451MD1999999+0001MW1101REMSYN070AAXX  03214 48352 31956 00000 10263 20218 39845 40042 71000 333 58000;EQDQ01  00002PRCP99
0214483520999992000040400004+17870+102720FM-12+0175VTUM V0209999C000012200019N0060001N1+02601+02241100671ADDAA199000091AY101061AY201061GF103991021051008001001051KA1120N+02541MA1999999098691MD1999999-0011MW1101REMSYN082AAXX  04004 48352 31556 30000 10260 20224 39869 40067 71000 82505 333 20254 59001;EQDQ01  00002PRCP99
0177483520999992000040403004+17870+102720FM-12+0175VTUM V0200401N003112200019N0120001N1+03371+02371100801ADDAA199000091GA1001+999999999GF100991001001999999001001MA1999999098881MD1999999-0031REMSYN064AAXX  04034 48352 32962 00406 10337 20237 39888 40080 333 59003;EQDQ01  00002PRCP99
0167483520999992000040406004+17870+102720FM-12+0175VTUM V0200501N001512200019N0120001N1+03721+02121100511ADDAA199000091GF101991011011008001001001MA1999999098611MD1999999+0001REMSYN070AAXX  04064 48352 32562 10503 10372 20212 39861 40051 81100 333 58000;EQDQ01  00002PRCP99
0167483520999992000040409004+17870+102720FM-12+0175VTUM V0209999C000012200019N0110001N1+03871+02171100141ADDAA199000091GF101991011011008001001001MA1999999098261MD1999999-0031REMSYN070AAXX  04094 48352 32561 10000 10387 20217 39826 40014 81100 333 59003;EQDQ01  00002PRCP99
0196483520999992000040412004+17870+102720FM-12+0175VTUM V0209999C000012200019N0100001N1+03401+02041100211ADDAA199000091GA1001+999999999GF100991001001999999001001KA1120M+03941MA1999999098301MD1999999-0261REMSYN070AAXX  04124 48352 32960 00000 10340 20204 39830 40021 333 10394 59026;EQDQ01  00002PRCP99
0177483520999992000040415004+17870+102720FM-12+0175VTUM V0209999C000012200019N0100001N1+03101+02301100511ADDAA199000091GA1001+999999999GF100991001001999999001001MA1999999098571MD1999999+0041REMSYN064AAXX  04154 48352 32960 00000 10310 20230 39857 40051 333 58004;EQDQ01  00002PRCP99
0195483520999992000040418004+17870+102720FM-12+0175VTUM V0209999C000012200019N0070001N1+02821+02401100431ADDAA199000091AY101061AY201061GF101991011011008001001001MA1999999098501MD1999999+0051MW1101REMSYN076AAXX  04184 48352 31557 10000 10282 20240 39850 40043 71000 81100 333 58005;EQDQ01  00002PRCP99
0214483520999992000040500004+17870+102720FM-12+0175VTUM V0200301N001512200019N0070001N1+02761+02311100711ADDAA199000091AY101061AY201061GF102991021051008001001051KA1120N+02681MA1999999098751MD1999999+0041MW1101REMSYN082AAXX  05004 48352 31557 20303 10276 20231 39875 40071 71000 82505 333 20268 58004;EQDQ01  00002PRCP99
0177483520999992000040503004+17870+102720FM-12+0175VTUM V0200501N001012200019N0100001N1+03271+02381100831ADDAA199000091GA1001+999999999GF100991001001999999001001MA1999999098901MD1999999+0031REMSYN064AAXX  05034 48352 32960 00502 10327 20238 39890 40083 333 58003;EQDQ01  00002PRCP99
0167483520999992000040506004+17870+102720FM-12+0175VTUM V0200301N002112200019N0100001N1+03671+02361100521ADDAA199000091GF102991021021008001001001MA1999999098621MD1999999+0011REMSYN070AAXX  05064 48352 32560 20304 10367 20236 39862 40052 82200 333 58001;EQDQ01  00002PRCP99
0167483520999992000040509004+17870+102720FM-12+0175VTUM V0209999C000012200019N0100001N1+03831+02071100161ADDAA199000091GF102991021021008001001001MA1999999098271MD1999999+0021REMSYN070AAXX  05094 48352 32560 20000 10383 20207 39827 40016 82200 333 58002;EQDQ01  00002PRCP99
0186483520999992000040512004+17870+102720FM-12+0175VTUM V0201501N002612200019N0100001N1+03161+02271100401ADDAA199000091GF106991041081008001001061KA1120M+03901MA1999999098461MD1999999+0191REMSYN076AAXX  05124 48352 32560 61505 10316 20227 39846 40040 84806 333 10390 58019;EQDQ01  00002PRCP99
0167483520999992000040515004+17870+102720FM-12+0175VTUM V0201201N001012200019N0100001N1+02901+02191100781ADDAA199000091GF102991021051008001001001MA1999999098831MD1999999+0271REMSYN070AAXX  05154 48352 32560 21202 10290 20219 39883 40078 82500 333 58027;EQDQ01  00002PRCP99
0195483520999992000040518004+17870+102720FM-12+0175VTUM V0200901N002611050019N0090001N1+02681+02191100901ADDAA199000091AY111061AY201061GF106991011051008001031061MA1999999098931MD1999999+0381MW1101REMSYN076AAXX  05184 48352 31559 60905 10268 20219 39893 40090 71010 81536 333 58038;EQDQ01  00002PRCP99
0214483520999992000040600004+17870+102720FM-12+0175VTUM V0200801N001510450019N0080001N1+02531+02061101061ADDAA199000091AY121061AY221061GF108991041051008001071061KA1120N+02511MA1999999099061MD1999999+0351MW1101REMSYN082AAXX  06004 48352 31558 80803 10253 20206 39906 40106 71022 84576 333 20251 58035;EQDQ01  00002PRCP99
0167483520999992000040603004+17870+102720FM-12+0175VTUM V0200501N001010450019N0120001N1+02941+02171101181ADDAA199000091GF108991041051008001031061MA1999999099211MD1999999+0351REMSYN070AAXX  06034 48352 32562 80502 10294 20217 39921 40118 84536 333 58035;EQDQ01  00002PRCP99
0167483520999992000040606004+17870+102720FM-12+0175VTUM V0200801N001012200019N0120001N1+03371+02221100841ADDAA199000091GF106991031081008001001061MA1999999098911MD1999999+0321REMSYN070AAXX  06064 48352 32562 60802 10337 20222 39891 40084 83806 333 58032;EQDQ01  00002PRCP99
0167483520999992000040609004+17870+102720FM-12+0175VTUM V0209999C000011050019N0120001N1+03481+02251100561ADDAA199000091GF106991041081008001001051MA1999999098641MD1999999+0401REMSYN070AAXX  06094 48352 32562 60000 10348 20225 39864 40056 84805 333 58040;EQDQ01  00002PRCP99
0186483520999992000040612004+17870+102720FM-12+0175VTUM V0200801N001012200019N0110001N1+03191+02221100641ADDAA199000091GF103991001001999999001051KA1120M+03571MA1999999098711MD1999999+0241REMSYN076AAXX  06124 48352 32961 30802 10319 20222 39871 40064 80005 333 10357 58024;EQDQ01  00002PRCP99
0167483520999992000040615004+17870+102720FM-12+0175VTUM V0209999C000012200019N0100001N1+02951+02251100921ADDAA199000091GF102991021051008001001051MA1999999098971MD1999999+0141REMSYN070AAXX  06154 48352 32560 20000 10295 20225 39897 40092 82505 333 58014;EQDQ01  00002PRCP99
0195483520999992000040621004+17870+102720FM-12+0175VTUM V0209999C000012200019N0070001N1+02521+02181100961ADDAA199000091AY111031AY201031GF102991001001999999001051MA1999999098981MD1999999+0081MW1101REMSYN076AAXX  06214 48352 31957 20000 10252 20218 39898 40096 71010 80005 333 58008;EQDQ01  00002PRCP99
0214483520999992000040700004+17870+102720FM-12+0175VTUM V0209999C000012200019N0090001N1+02451+02231101161ADDAA199000091AY101061AY201061GF101991001001999999001011KA1120N+02391MA1999999099561MD1999999+0101MW1101REMSYN082AAXX  07004 48352 31959 10000 10245 20223 39956 40116 71000 80001 333 20239 58010;EQDQ01  00002PRCP99
0167483520999992000040703004+17870+102720FM-12+0175VTUM V0200401N001519999999N0120001N1+03261+02371101231ADDAA199000091GF105991001001999999001061MA1999999099281MD1999999+0051REMSYN070AAXX  07034 48352 32962 50403 10326 20237 39928 40123 80006 333 58005;EQDQ01  00002PRCP99
0167483520999992000040706004+17870+102720FM-12+0175VTUM V0200501N001012200019N0120001N1+03571+02411100931ADDAA199000091GF104991031021008001001051MA1999999099001MD1999999+0091REMSYN070AAXX  07064 48352 32562 40502 10357 20241 39900 40093 83205 333 58009;EQDQ01  00002PRCP99
0167483520999992000040709004+17870+102720FM-12+0175VTUM V0209999C000012200019N0120001N1+03711+02321100531ADDAA199000091GF102991021011008001001001MA1999999098621MD1999999-0031REMSYN070AAXX  07094 48352 32562 20000 10371 20232 39862 40053 82100 333 59003;EQDQ01  00002PRCP99
0186483520999992000040712004+17870+102720FM-12+0175VTUM V0209999C000010075019N0110001N1+03301+02291100661ADDAA199000091GF106991051051008001001051KA1120M+03791MA1999999098731MD1999999+0021REMSYN076AAXX  07124 48352 32561 60000 10330 20229 39873 40066 85505 333 10379 58002;EQDQ01  00002PRCP99
0167483520999992000040715004+17870+102720FM-12+0175VTUM V0209999C000012200019N0100001N1+03001+02551100981ADDAA199000091GF106991031051008001001061MA1999999099001MD1999999+0061REMSYN070AAXX  07154 48352 32560 60000 10300 20255 39900 40098 83506 333 58006;EQDQ01  00002PRCP99
0195483520999992000040718004+17870+102720FM-12+0175VTUM V0209999C000012200019N0080001N1+02821+02291100921ADDAA199000091AY111061AY201061GF102991001001999999001051MA1999999098961MD1999999+0001MW1101REMSYN076AAXX  07184 48352 31958 20000 10282 20229 39896 40092 71010 80005 333 58000;EQDQ01  00002PRCP99
0205483520999992000040721004+17870+102720FM-12+0175VTUM V0209999C000012200019N0070001N1+02661+02351100801ADDAA199000091AY101031AY201031GA1001+999999999GF100991001001999999001001MA1999999098841MD1999999-0161MW1101REMSYN070AAXX  07214 48352 31957 00000 10266 20235 39884 40080 71000 333 59016;EQDQ01  00002PRCP99
0224483520999992000040800004+17870+102720FM-12+0175VTUM V0209999C000012200019N0070001N1+02601+02281100931ADDAA199000091AY101061AY201061GA1001+999999999GF100991001001999999001001KA1120N+02551MA1999999098961MD1999999-0231MW1101REMSYN076AAXX  08004 48352 31957 00000 10260 20228 39896 40093 71000 333 20255 59023;EQDQ01  00002PRCP99
0205483520999992000040803004+17870+102720FM-12+0175VTUM V0209999C000012200019N0090001N1+03271+02411100981ADDAA199000091AY101031AY201031GA1001+999999999GF100991001001999999001001MA1999999099031MD1999999-0251MW1051REMSYN070AAXX  08034 48352 31959 00000 10327 20241 39903 40098 70500 333 59025;EQDQ01  00002PRCP99
0195483520999992000040806004+17870+102720FM-12+0175VTUM V0209999C000011050019N0090001N1+03571+02371100691ADDAA199000091AY111061AY201061GF106991041081008001001051MA1999999098781MD1999999+0241MW1051REMSYN076AAXX  08064 48352 31559 60000 10357 20237 39878 40069 70510 84805 333 58024;EQDQ01  00002PRCP99
0195483520999992000040809004+17870+102720FM-12+0175VTUM V0209999C000012200019N0090001N1+03651+02321100381ADDAA199000091AY111031AY201031GF103991031081008001001051MA1999999098481MD1999999-0151MW1051REMSYN076AAXX  08094 48352 31559 30000 10365 20232 39848 40038 70510 83805 333 59015;EQDQ01  00002PRCP99
0214483520999992000040812004+17870+102720FM-12+0175VTUM V0209999C000012200019N0080001N1+03321+02331100431ADDAA199000091AY101061AY201061GF102991021051008001001051KA1120M+03731MA1999999098501MD1999999-0231MW1051REMSYN082AAXX  08124 48352 31558 20000 10332 20233 39850 40043 70500 82505 333 10373 59023;EQDQ01  00002PRCP99
0195483520999992000040815004+17870+102720FM-12+0175VTUM V0209999C000012200019N0080001N1+03051+02371100711ADDAA199000091AY101031AY201031GF103991001001999999001051MA1999999098771MD1999999-0271MW1101REMSYN076AAXX  08154 48352 31958 30000 10305 20237 39877 40071 71000 80005 333 59027;EQDQ01  00002PRCP99
0205483520999992000040818004+17870+102720FM-12+0175VTUM V0209999C000012200019N0070001N1+02871+02331100681ADDAA199000091AY101061AY201061GA1001+999999999GF100991001001999999001001MA1999999098721MD1999999-0241MW1101REMSYN070AAXX  08184 48352 31957 00000 10287 20233 39872 40068 71000 333 59024;EQDQ01  00002PRCP99
0195483520999992000040821004+17870+102720FM-12+0175VTUM V0209999C000019999999N0060001N1+02781+02301100651ADDAA199000091AY111031AY201031GF105991001001999999001061MA1999999098691MD1999999-0151MW1101REMSYN076AAXX  08214 48352 31956 50000 10278 20230 39869 40065 71010 80006 333 59015;EQDQ01  00002PRCP99
0214483520999992000040900004+17870+102720FM-12+0175VTUM V0209999C000011050019N0050001N1+02721+02331100841ADDAA199000091AY121061AY211061GF107991041081008001001061KA1120N+02701MA1999999098871MD1999999-0091MW1101REMSYN082AAXX  09004 48352 31550 70000 10272 20233 39887 40084 71021 84806 333 20270 59009;EQDQ01  00002PRCP99
0195483520999992000040903004+17870+102720FM-12+0175VTUM V0200801N001512200019N0070001N1+03251+02331100891ADDAA199000091AY121031AY211031GF102991011011008001001021MA1999999098961MD1999999-0091MW1051REMSYN076AAXX  09034 48352 31557 20803 10325 20233 39896 40089 70521 81102 333 59009;EQDQ01  00002PRCP99
0195483520999992000040906004+17870+102720FM-12+0175VTUM V0200401N001512200019N0070001N1+03611+02371100571ADDAA199000091AY111061AY211061GF106991021011008001001061MA1999999098651MD1999999-0121MW1051REMSYN076AAXX  09064 48352 31557 60403 10361 20237 39865 40057 70511 82106 333 59012;EQDQ01  00002PRCP99
0195483520999992000040909004+17870+102720FM-12+0175VTUM V0201401N001512200019N0070001N1+03701+02431100341ADDAA199000091AY121031AY221031GF106991021011008001001061MA1999999098441MD1999999-0041MW1051REMSYN076AAXX  09094 48352 31557 61403 10370 20243 39844 40034 70522 82106 333 59004;EQDQ01  00002PRCP99
0214483520999992000040912004+17870+102720FM-12+0175VTUM V0209999C000019999999N0060001N1+03341+02381100451ADDAA199000091AY121061AY221061GF105991001001999999001051KA1120M+03751MA1999999098521MD1999999+0021MW1051REMSYN082AAXX  09124 48352 31956 50000 10334 20238 39852 40045 70522 80005 333 10375 58002;EQDQ01  00002PRCP99
0205483520999992000040915004+17870+102720FM-12+0175VTUM V0209999C000012200019N0060001N1+03111+02391100721ADDAA199000091AY111031AY211031GA1001+999999999GF100991001001999999001001MA1999999098781MD1999999+0011MW1101REMSYN070AAXX  09154 48352 31956 00000 10311 20239 39878 40072 71011 333 58001;EQDQ01  00002PRCP99
0205483520999992000040918004+17870+102720FM-12+0175VTUM V0209999C000012200019N0060001N1+02891+02341100721ADDAA199000091AY101061AY201061GA1001+999999999GF100991001001999999001001MA1999999098761MD1999999+0041MW1101REMSYN070AAXX  09184 48352 31956 00000 10289 20234 39876 40072 71000 333 58004;EQDQ01  00002PRCP99
0205483520999992000040921004+17870+102720FM-12+0175VTUM V0209999C000012200019N0050001N1+02751+02311100671ADDAA199000091AY101031AY201031GA1001+999999999GF100991001001999999001001MA1999999098701MD1999999+0021MW1101REMSYN070AAXX  09214 48352 31950 00000 10275 20231 39870 40067 71000 333 58002;EQDQ01  00002PRCP99
0224483520999992000041000004+17870+102720FM-12+0175VTUM V0200501N001012200019N0080001N1+02701+02321100871ADDAA199000091AY101061AY201061GA1001+999999999GF100991001001999999001001KA1120N+02651MA1999999098911MD1999999+0031MW1101REMSYN076AAXX  10004 48352 31958 00502 10270 20232 39891 40087 71000 333 20265 58003;EQDQ01  00002PRCP99
0205483520999992000041003004+17870+102720FM-12+0175VTUM V0200401N001512200019N0090001N1+03121+02411101001ADDAA199000091AY101031AY201031GA1001+999999999GF100991001001999999001001MA1999999099071MD1999999+0111MW1051REMSYN070AAXX  10034 48352 31959 00403 10312 20241 39907 40100 70500 333 58011;EQDQ01  00002PRCP99
0195483520999992000041006004+17870+102720FM-12+0175VTUM V0200301N002112200019N0090001N1+03701+02381100681ADDAA199000091AY101061AY201061GF103991031021008001001001MA1999999098771MD1999999+0111MW1051REMSYN076AAXX  10064 48352 31559 30304 10370 20238 39877 40068 70500 83200 333 58011;EQDQ01  00002PRCP99
0167483520999992000041009004+17870+102720FM-12+0175VTUM V0200801N003110450019N0120001N1+03331+02351100401ADDAA199000091GF107991041091008001071031MA1999999098471MD1999999+0061REMSYN070AAXX  10094 48352 32562 70806 10333 20235 39847 40040 84973 333 58006;EQDQ01  00002PRCP99
0213483520999992000041012004+17870+102720FM-12+0175VTUM V0209999C000010075019N0050001N1+02731+02341100681ADDAA101000191AY121061AY221061GF108991061051008001071999KA1120M+03851MA1999999098711MD1999999+0231MW1601REMSYN100AAXX  10124 48352 /1550 80000 10273 20234 39871 40068 69912 76022 8657/ 333 10385 58023 69915 70001;
0182483520999992000041015004+17870+102720FM-12+0175VTUM V0209999C000010075019N0050001N1+02651+02401100951ADDAA103000191AY161031AY261031GF108991061051008001071999MA1999999098981MD1999999+0231MW1611REMSYN082AAXX  10154 48352 21550 80000 10265 20240 39898 40095 76166 8657/ 333 58023 69917;
0194483520999992000041018004+17870+102720FM-12+0175VTUM V0201001N001010075019N0050001N1+02581+02461101051ADDAA103001091AY161061AY261061GF108991051051008001071061MA1999999099061MD1999999+0331MW1611REMSYN094AAXX  10184 48352 /1550 81002 10258 20246 39906 40105 60013 76166 85576 333 58033 60017 70012;
0213483520999992000041100004+17870+102720FM-12+0175VTUM V0209999C000010075019N0100001N1+02361+02321101211ADDAA103000191AY161061AY261061GF108991061051008001071999KA1120N+02331MA1999999099211MD1999999+0341MW1021REMSYN100AAXX  11004 48352 /1560 80000 10236 20232 39921 40121 60054 70266 8657/ 333 20233 58034 69927 70054;
0148483520999992000041103004+17870+102720FM-12+0175VTUM V0203601N001510120019N0120001N1+02601+02341101341ADDAA199000021GF108991051081008001071999MA1999999099351MD1999999+0341REMSYN070AAXX  11034 48352 32562 83603 10260 20234 39935 40134 8587/ 333 58034;
0154483520999992000041106004+17870+102720FM-12+0175VTUM V0200901N002610120019N0150001N1+02931+02351101071ADDAA124005391GF107991051081008001031061MA1999999099101MD1999999+0391REMSYN076AAXX  11064 48352 32565 70905 10293 20235 39910 40107 85836 333 58039 70054;
0167483520999992000041109004+17870+102720FM-12+0175VTUM V0200501N002110450019N0150001N1+03071+02351100831ADDAA199000091GF106991041081008001031061MA1999999098881MD1999999+0431REMSYN070AAXX  11094 48352 32565 60504 10307 20235 39888 40083 84836 333 58043;EQDQ01  00002PRCP99
0213483520999992000041112004+17870+102720FM-12+0175VTUM V0209999C000010075019N0090001N1+02571+02401100941ADDAA101000191AY121061AY221061GF108991061091008001071999KA1120M+03151MA1999999098961MD1999999+0261MW1951REMSYN100AAXX  11124 48352 /1559 80000 10257 20240 39896 40094 69902 79522 8697/ 333 10315 58026 69925 70053;
0182483520999992000041115004+17870+102720FM-12+0175VTUM V0209999C000010120019N0100001N1+02551+02401101181ADDAA103000591AY191031AY221031GF108991051081008001071999MA1999999099191MD1999999+0231MW1021REMSYN082AAXX  11154 48352 21560 80000 10255 20240 39919 40118 70292 8587/ 333 58023 69957;
0173483520999992000041200004+17870+102720FM-12+0175VTUM V0209999C000010075019N0100001N1+02481+02361101111ADDAA124000591GF108991061051008001071999KA1120N+02451MA1999999099111MD1999999-0101REMSYN082AAXX  12004 48352 32560 80000 10248 20236 39911 40111 8657/ 333 20245 59010 70005;
0182483520999992000041203004+17870+102720FM-12+0175VTUM V0209999C000010042019N0040001N1+02401+02341101281ADDAA103013091AY161031AY221031GF108991061091004501071999MA1999999099281MD1999999-0061MW1951REMSYN082AAXX  12034 48352 21440 80000 10240 20234 39928 40128 79562 8697/ 333 59006 60137;
0188483520999992000041206004+17870+102720FM-12+0175VTUM V0209999C000010120019N0120001N1+02901+02351100921ADDAA106013091AY191061AY261061GF107991051081008001031061MA1999999098961MD1999999-0151MW1011REMSYN088AAXX  12064 48352 11562 70000 10290 20235 39896 40092 60131 70196 85836 333 59015 70135;
0148483520999992000041209004+17870+102720FM-12+0175VTUM V0209999C000010450019N0120001N1+03101+02381100561ADDAA199000021GF107991041091008001061061MA1999999098621MD1999999-0271REMSYN070AAXX  12094 48352 32562 70000 10310 20238 39862 40056 84966 333 59027;
0173483520999992000041212004+17870+102720FM-12+0175VTUM V0209999C000010075019N0120001N1+02851+02421100671ADDAA124013591GF108991051051008001071061KA1120M+03231MA1999999098711MD1999999-0071REMSYN082AAXX  12124 48352 32562 80000 10285 20242 39871 40067 85576 333 10323 59007 70135;
0182483520999992000041215004+17870+102720FM-12+0175VTUM V0209999C000010075019N0100001N1+02521+02421100921ADDAA103003091AY161031AY261031GF108991061051008001071999MA1999999098941MD1999999-0261MW1211REMSYN082AAXX  12154 48352 21560 80000 10252 20242 39894 40092 72166 8657/ 333 59026 60037;
0194483520999992000041218004+17870+102720FM-12+0175VTUM V0209999C000010075019N0060001N1+02451+02381100871ADDAA101000591AY121061AY221061GF108991061051008001071999MA1999999098891MD1999999-0181MW1601REMSYN094AAXX  12184 48352 /1556 80000 10245 20238 39889 40087 60163 76022 8657/ 333 59018 69945 70161;
0207483520999992000041300004+17870+102720FM-12+0175VTUM V0209999C000010075019N0100001N1+02371+02341100841ADDAA124017091AY161061AY221061GF108991061051008001071999KA1120N+02321MA1999999098851MD1999999-0271MW1021REMSYN094AAXX  13004 48352 11560 80000 10237 20234 39885 40084 60174 70262 8657/ 333 20232 59027 70174;
0182483520999992000041303004+17870+102720FM-12+0175VTUM V0209999C000010075019N0120001N1+02511+02391100971ADDAA103000391AY161031AY261031GF108991061051008001071999MA1999999098981MD1999999-0311MW1211REMSYN082AAXX  13034 48352 21562 80000 10251 20239 39898 40097 72166 8657/ 333 59031 69937;
0148483520999992000041309004+17870+102720FM-12+0175VTUM V0209999C000010450019N0150001N1+03031+02411100391ADDAA199000021GF106991031021008001031061MA1999999098441MD1999999-0171REMSYN070AAXX  13094 48352 32565 60000 10303 20241 39844 40039 83236 333 59017;
0173483520999992000041312004+17870+102720FM-12+0175VTUM V0202701N002610120019N0150001N1+02601+02311100631ADDAA124002091GF108991051081008001071061KA1120M+03071MA1999999098661MD1999999-0041REMSYN082AAXX  13124 48352 32565 82705 10260 20231 39866 40063 85876 333 10307 59004 70020;
0182483520999992000041315004+17870+102720FM-12+0175VTUM V0209999C000010120019N0120001N1+02371+02311100831ADDAA103002091AY161031AY221031GF108991051081008001071999MA1999999098841MD1999999-0091MW1021REMSYN082AAXX  13154 48352 21562 80000 10237 20231 39884 40083 70262 8587/ 333 59009 60027;
0188483520999992000041318004+17870+102720FM-12+0175VTUM V0209999C000010075019N0120001N1+02361+02321100691ADDAA118002091AY161061AY221061GF108991061051008001071999MA1999999098701MD1999999-0181MW1021REMSYN088AAXX  13184 48352 11562 80000 10236 20232 39870 40069 60023 70262 8657/ 333 59018 70034;
0167483520999992000041321004+17870+102720FM-12+0175VTUM V0209999C000010075019N0110001N1+02361+02331100551ADDAA199000091GF108991061051008001071999MA1999999098571MD1999999-0091REMSYN070AAXX  13214 48352 32561 80000 10236 20233 39857 40055 8657/ 333 59009;EQDQ01  00002PRCP99
0173483520999992000041400004+17870+102720FM-12+0175VTUM V0209999C000010075019N0100001N1+02361+02331100751ADDAA124002091GF108991061051008001071999KA1120N+02331MA1999999098771MD1999999-0091REMSYN082AAXX  14004 48352 32560 80000 10236 20233 39877 40075 8657/ 333 20233 59009 70021;
0167483520999992000041403004+17870+102720FM-12+0175VTUM V0209999C000010120019N0120001N1+02651+02361100811ADDAA199000091GF107991051081008001071061MA1999999098841MD1999999-0161REMSYN070AAXX  14034 48352 32562 70000 10265 20236 39884 40081 85876 333 59016;EQDQ01  00002PRCP99
0154483520999992000041406004+17870+102720FM-12+0175VTUM V0209999C000010075019N0150001N1+03021+02371100571ADDAA124001891GF107991051021008001031061MA1999999098621MD1999999-0101REMSYN076AAXX  14064 48352 32565 70000 10302 20237 39862 40057 85236 333 59010 70018;
0167483520999992000041415004+17870+102720FM-12+0175VTUM V0209999C000010075019N0120001N1+02731+02501100771ADDAA199000091GF108991061051008001071999MA1999999098801MD1999999-0061REMSYN070AAXX  14154 48352 32562 80000 10273 20250 39880 40077 8657/ 333 59006;EQDQ01  00002PRCP99
0182483520999992000041421004+17870+102720FM-12+0175VTUM V0209999C000010075019N0100001N1+02531+02471100681ADDAA103000591AY161031AY261031GF108991061051008001071999MA1999999098691MD1999999+0131MW1021REMSYN082AAXX  14214 48352 21560 80000 10253 20247 39869 40068 70266 8657/ 333 58013 69947;
0207483520999992000041500004+17870+102720FM-12+0175VTUM V0209999C000010075019N0100001N1+02511+02471100961ADDAA124000591AY161061AY221061GF108991061051008001071999KA1120N+02481MA1999999098981MD1999999+0211MW1021REMSYN094AAXX  15004 48352 11560 80000 10251 20247 39898 40096 69954 70262 8657/ 333 20248 58021 70005;
0167483520999992000041503004+17870+102720FM-12+0175VTUM V0209999C000010075019N0120001N1+02751+02461101121ADDAA199000091GF108991061051008001071999MA1999999099151MD1999999+0311REMSYN070AAXX  15034 48352 32562 80000 10275 20246 39915 40112 8657/ 333 58031;EQDQ01  00002PRCP99
0154483520999992000041506004+17870+102720FM-12+0175VTUM V0209999C000010120019N0150001N1+03001+02431100841ADDAA124000591GF107991051081008001071061MA1999999098891MD1999999+0271REMSYN076AAXX  15064 48352 32565 70000 10300 20243 39889 40084 85876 333 58027 70005;
0167483520999992000041509004+17870+102720FM-12+0175VTUM V0209999C000010450019N0150001N1+03111+02451100541ADDAA199000091GF107991041021008001031061MA1999999098601MD1999999+0321REMSYN070AAXX  15094 48352 32565 70000 10311 20245 39860 40054 84236 333 58032;EQDQ01  00002PRCP99
0173483520999992000041512004+17870+102720FM-12+0175VTUM V0209999C000010450019N0140001N1+02891+02381100701ADDAA124050091GF107991041081008001031061KA1120M+03201MA1999999098751MD1999999+0241REMSYN082AAXX  15124 48352 32564 70000 10289 20238 39875 40070 84836 333 10320 58024 70500;
0167483520999992000041515004+17870+102720FM-12+0175VTUM V0209999C000010450019N0120001N1+02631+02401101011ADDAA199000091GF107991041051008001071061MA1999999099021MD1999999+0241REMSYN070AAXX  15154 48352 32562 70000 10263 20240 39902 40101 84576 333 58024;EQDQ01  00002PRCP99
0154483520999992000041518004+17870+102720FM-12+0175VTUM V0200801N002610075019N0110001N1+02361+02111100941ADDAA124000591GF108991061051008001071999MA1999999099071MD1999999+0221REMSYN076AAXX  15184 48352 32561 80805 10236 20211 39907 40094 8657/ 333 58022 70004;
0167483520999992000041521004+17870+102720FM-12+0175VTUM V0200901N001510075019N0100001N1+02281+02001100981ADDAA199000091GF108991061051008001071999MA1999999098981MD1999999+0301REMSYN070AAXX  15214 48352 32560 80903 10228 20200 39898 40098 8657/ 333 58030;EQDQ01  00002PRCP99
0213483520999992000041600004+17870+102720FM-12+0175VTUM V0200601N001510075019N0060001N1+02161+02021101221ADDAA101001091AY121061AY221061GF108991061051008001071999KA1120N+02141MA1999999099201MD1999999+0261MW1601REMSYN100AAXX  16004 48352 /1556 80603 10216 20202 39920 40122 69994 76022 8657/ 333 20214 58026 69995 70009;
0182483520999992000041603004+17870+102720FM-12+0175VTUM V0200501N001510075019N0060001N1+02051+02021101441ADDAA103004191AY161031AY261031GF108991061051008001071999MA1999999099421MD1999999+0321MW1611REMSYN082AAXX  16034 48352 21556 80503 10205 20202 39942 40144 76166 8657/ 333 58032 60047;
0182483520999992000041609004+17870+102720FM-12+0175VTUM V0209999C000010075019N0100001N1+02161+02101101051ADDAA103003091AY161031AY261031GF108991061051008001071999MA1999999099031MD1999999+0511MW1211REMSYN082AAXX  16094 48352 21560 80000 10216 20210 39903 40105 72166 8657/ 333 58051 60037;
0207483520999992000041612004+17870+102720FM-12+0175VTUM V0209999C000010075019N0120001N1+02201+02141101131ADDAA112007991AY161061AY221061GF108991051051008001071061KA1120M+02241MA1999999099111MD1999999+0431MW1021REMSYN094AAXX  16124 48352 11562 80000 10220 20214 39911 40113 60082 70262 85576 333 10224 58043 70093;
0148483520999992000041615004+17870+102720FM-12+0175VTUM V0209999C000010450019N0100001N1+02241+02181101311ADDAA199000021GF108991041051008001071061MA1999999099291MD1999999+0301REMSYN070AAXX  16154 48352 32560 80000 10224 20218 39929 40131 84576 333 58030;
0154483520999992000041618004+17870+102720FM-12+0175VTUM V0209999C000010075019N0100001N1+02241+02181101241ADDAA124009491GF108991051051008001071061MA1999999099221MD1999999+0301REMSYN076AAXX  16184 48352 32560 80000 10224 20218 39922 40124 85576 333 58030 70093;
0148483520999992000041621004+17870+102720FM-12+0175VTUM V0209999C000010075019N0100001N1+02231+02181101131ADDAA199000021GF108991051051008001071061MA1999999099111MD1999999+0151REMSYN070AAXX  16214 48352 32560 80000 10223 20218 39911 40113 85576 333 58015;
0179483520999992000041700004+17870+102720FM-12+0175VTUM V0209999C000010450019N0100001N1+02201+02181101201ADDAA124007991GF106991031051008001031061KA1120N+02151MA1999999099181MD1999999-0021REMSYN088AAXX  17004 48352 12560 60000 10220 20218 39918 40120 60084 83536 333 20215 59002 70084;
0167483520999992000041703004+17870+102720FM-12+0175VTUM V0209999C000012200019N0150001N1+02701+02101101281ADDAA199000091GF104991031051008001001051MA1999999099291MD1999999-0161REMSYN070AAXX  17034 48352 32565 40000 10270 20210 39929 40128 83505 333 59016;EQDQ01  00002PRCP99
0154483520999992000041706004+17870+102720FM-12+0175VTUM V0209999C000010450019N0150001N1+03001+02191100961ADDAA124002891GF106991041051008001031061MA1999999099001MD1999999-0291REMSYN076AAXX  17064 48352 32565 60000 10300 20219 39900 40096 84536 333 59029 70027;
0167483520999992000041709004+17870+102720FM-12+0175VTUM V0203001N001010450019N0140001N1+03081+02311100711ADDAA199000091GF108991041051008001071061MA1999999098771MD1999999-0341REMSYN070AAXX  17094 48352 32564 83002 10308 20231 39877 40071 84576 333 59034;EQDQ01  00002PRCP99
0186483520999992000041712004+17870+102720FM-12+0175VTUM V0209999C000010450019N0130001N1+02781+02331100821ADDAA199000091GF106991041051008001031051KA1120M+03181MA1999999098861MD1999999-0311REMSYN076AAXX  17124 48352 32563 60000 10278 20233 39886 40082 84535 333 10318 59031;EQDQ01  00002PRCP99
0167483520999992000041715004+17870+102720FM-12+0175VTUM V0209999C000010450019N0120001N1+02641+02291101081ADDAA199000091GF108991041051008001071061MA1999999099091MD1999999-0231REMSYN070AAXX  17154 48352 32562 80000 10264 20229 39909 40108 84576 333 59023;EQDQ01  00002PRCP99
0167483520999992000041718004+17870+102720FM-12+0175VTUM V0209999C000010450019N0110001N1+02521+02301101041ADDAA199000091GF106991031051008001031061MA1999999099041MD1999999-0201REMSYN070AAXX  17184 48352 32561 60000 10252 20230 39904 40104 83536 333 59020;EQDQ01  00002PRCP99
0183483520999992000041721004+17870+102720FM-12+0175VTUM V0209999C000012200019N0100001N1+02431+02271100951ADDAA199000091GF103991001001999999001051MA1999999098961MD1999999-0181REMSYN070AAXX  17214 48352 32560 30000 10243 20227 39896 40095 80005 333 59018;EQDQ01+008002SCOLCBQ02  00002PRCP99
0202483520999992000041800004+17870+102720FM-12+0175VTUM V0209999C000012200019N0100001N1+02451+02231101111ADDAA199000091GF102991001001999999001051KA1120N+02351MA1999999099111MD1999999-0091REMSYN076AAXX  18004 48352 32560 20000 10245 20223 39911 40111 80005 333 20235 59009;EQDQ01+008002SCOLCBQ02  00002PRCP99
0167483520999992000041803004+17870+102720FM-12+0175VTUM V0209999C000012200019N0150001N1+03001+02301101221ADDAA199000091GF102991021051008001001001MA1999999099261MD1999999-0061REMSYN070AAXX  18034 48352 32565 20000 10300 20230 39926 40122 82500 333 59006;EQDQ01  00002PRCP99
0167483520999992000041806004+17870+102720FM-12+0175VTUM V0209999C000012200019N0150001N1+03251+02361100911ADDAA199000091GF103991031021008001001001MA1999999098981MD1999999-0051REMSYN070AAXX  18064 48352 32565 30000 10325 20236 39898 40091 83200 333 59005;EQDQ01  00002PRCP99
0167483520999992000041809004+17870+102720FM-12+0175VTUM V0209999C000012200019N0150001N1+03441+02351100541ADDAA199000091GF102991021021008001001001MA1999999098621MD1999999-0171REMSYN070AAXX  18094 48352 32565 20000 10344 20235 39862 40054 82200 333 59017;EQDQ01  00002PRCP99
0186483520999992000041812004+17870+102720FM-12+0175VTUM V0209999C000012200019N0140001N1+03051+02511100671ADDAA199000091GF102991001001999999001051KA1120M+03571MA1999999098721MD1999999-0151REMSYN076AAXX  18124 48352 32964 20000 10305 20251 39872 40067 80005 333 10357 59015;EQDQ01  00002PRCP99
0177483520999992000041815004+17870+102720FM-12+0175VTUM V0202501N001012200019N0120001N1+02781+02451100941ADDAA199000091GA1001+999999999GF100991001001999999001001MA1999999098971MD1999999-0141REMSYN064AAXX  18154 48352 32962 02502 10278 20245 39897 40094 333 59014;EQDQ01  00002PRCP99
0167483520999992000041818004+17870+102720FM-12+0175VTUM V0209999C000012200019N0110001N1+02601+02381100891ADDAA199000091GF103991021051008001001051MA1999999098911MD1999999-0151REMSYN070AAXX  18184 48352 32561 30000 10260 20238 39891 40089 82505 333 59015;EQDQ01  00002PRCP99
0167483520999992000041821004+17870+102720FM-12+0175VTUM V0209999C000012200019N0110001N1+02521+02361100821ADDAA199000091GF105991021051008001001061MA1999999098831MD1999999-0131REMSYN070AAXX  18214 48352 32561 50000 10252 20236 39883 40082 82506 333 59013;EQDQ01  00002PRCP99
0186483520999992000041900004+17870+102720FM-12+0175VTUM V0209999C000011050019N0100001N1+02601+02461100941ADDAA199000091GF106991021051008001041061KA1120N+02471MA1999999098961MD1999999-0171REMSYN076AAXX  19004 48352 32560 60000 10260 20246 39896 40094 82546 333 20247 59017;EQDQ01  00002PRCP99
0167483520999992000041903004+17870+102720FM-12+0175VTUM V0200101N001012200019N0130001N1+03251+02521101001ADDAA199000091GF102991021021008001001001MA1999999099051MD1999999-0221REMSYN070AAXX  19034 48352 32563 20102 10325 20252 39905 40100 82200 333 59022;EQDQ01  00002PRCP99
0167483520999992000041906004+17870+102720FM-12+0175VTUM V0200401N001512200019N0150001N1+03551+02421100651ADDAA199000091GF104991031091008001001031MA1999999098741MD1999999-0261REMSYN070AAXX  19064 48352 32565 40403 10355 20242 39874 40065 83903 333 59026;EQDQ01  00002PRCP99
0195483520999992000041909004+17870+102720FM-12+0175VTUM V0200501N003110075019N0130001N1+03471+02481100451ADDAA199000091AY121031AY221031GF108991051091008001071061MA1999999098541MD1999999-0091MW1291REMSYN076AAXX  19094 48352 31563 80506 10347 20248 39854 40045 72922 85976 333 59009;EQDQ01  00002PRCP99
0214483520999992000041912004+17870+102720FM-12+0175VTUM V0209999C000010450019N0130001N1+02831+02351100741ADDAA199000091AY191061AY221061GF108991041091008001071061KA1120M+03651MA1999999098771MD1999999+0071MW1131REMSYN082AAXX  19124 48352 31563 80000 10283 20235 39877 40074 71392 84976 333 10365 58007;EQDQ01  00002PRCP99
0167483520999992000041915004+17870+102720FM-12+0175VTUM V0209999C000010450019N0120001N1+02741+02391100941ADDAA199000091GF107991041051008001071061MA1999999098971MD1999999+0001REMSYN070AAXX  19154 48352 32562 70000 10274 20239 39897 40094 84576 333 58000;EQDQ01  00002PRCP99
0167483520999992000041921004+17870+102720FM-12+0175VTUM V0209999C000012200019N0100001N1+02551+02421100621ADDAA199000091GF105991021051008001001061MA1999999098641MD1999999-0201REMSYN070AAXX  19214 48352 32560 50000 10255 20242 39864 40062 82506 333 59020;EQDQ01  00002PRCP99
0186483520999992000042000004+17870+102720FM-12+0175VTUM V0209999C000012200019N0100001N1+02591+02421100821ADDAA199000091GF103991021051008001001051KA1120N+02491MA1999999098851MD1999999-0121REMSYN076AAXX  20004 48352 32560 30000 10259 20242 39885 40082 82505 333 20249 59012;EQDQ01  00002PRCP99
0167483520999992000042003004+17870+102720FM-12+0175VTUM V0200801N001010450019N0130001N1+03021+02391100961ADDAA199000091GF105991031051008001031001MA1999999099001MD1999999-0041REMSYN070AAXX  20034 48352 32563 50802 10302 20239 39900 40096 83530 333 59004;EQDQ01  00002PRCP99
0167483520999992000042006004+17870+102720FM-12+0175VTUM V0200201N001512200019N0130001N1+03401+02401100611ADDAA199000091GF104991041021008001001011MA1999999098681MD1999999-0041REMSYN070AAXX  20064 48352 32563 40203 10340 20240 39868 40061 84201 333 59004;EQDQ01  00002PRCP99
0182483520999992000042009004+17870+102720FM-12+0175VTUM V0201301N002610450019N0060001N1+02821+02201100521ADDAA101000791AY191031AY221031GF108991031091008001071999MA1999999098561MD1999999+0071MW1951REMSYN082AAXX  20094 48352 21556 81305 10282 20220 39856 40052 79592 8397/ 333 58007 69905;
0213483520999992000042012004+17870+102720FM-12+0175VTUM V0209999C000010075019N0120001N1+02481+02291100701ADDAA103004191AY191061AY221061GF108991051091008001071061KA1120M+03591MA1999999098721MD1999999-0041MW1171REMSYN100AAXX  20124 48352 /1562 80000 10248 20229 39872 40070 60042 71792 85976 333 10359 59004 60047 70041;
0182483520999992000042015004+17870+102720FM-12+0175VTUM V0209999C000010075019N0080001N1+02461+02341100861ADDAA103001091AY191031AY261031GF108991061051008001071999MA1999999098881MD1999999-0081MW1611REMSYN082AAXX  20154 48352 21558 80000 10246 20234 39888 40086 76196 8657/ 333 59008 60017;
0148483520999992000042021004+17870+102720FM-12+0175VTUM V0209999C000010075019N0100001N1+02421+02331100731ADDAA199000021GF108991051051008001071061MA1999999098741MD1999999+0111REMSYN070AAXX  20214 48352 32560 80000 10242 20233 39874 40073 85576 333 58011;
0148483520999992000042103004+17870+102720FM-12+0175VTUM V0209999C000012200019N0150001N1+02841+02301100971ADDAA199000021GF106991031081008001001061MA1999999099001MD1999999+0011REMSYN070AAXX  21034 48352 32565 60000 10284 20230 39900 40097 83806 333 58001;
0154483520999992000042106004+17870+102720FM-12+0175VTUM V0209999C000010450019N0150001N1+03151+02391100781ADDAA124005691GF106991041021008001031011MA1999999098841MD1999999+0171REMSYN076AAXX  21064 48352 32565 60000 10315 20239 39884 40078 84231 333 58017 70055;
0167483520999992000042109004+17870+102720FM-12+0175VTUM V0209999C000010450019N0140001N1+03351+02361100431ADDAA199000091GF106991041081008001031051MA1999999098511MD1999999-0091REMSYN070AAXX  21094 48352 32564 60000 10335 20236 39851 40043 84835 333 59009;EQDQ01  00002PRCP99
0173483520999992000042112004+17870+102720FM-12+0175VTUM V0209999C000010450019N0130001N1+03061+02511100581ADDAA124001591GF105991031051008001041051KA1120M+03421MA1999999098631MD1999999-0121REMSYN082AAXX  21124 48352 32563 50000 10306 20251 39863 40058 83545 333 10342 59012 70014;
0167483520999992000042115004+17870+102720FM-12+0175VTUM V0209999C000012200019N0120001N1+02891+02481100901ADDAA199000091GF104991031051008001031051MA1999999098941MD1999999+0041REMSYN070AAXX  21154 48352 32562 40000 10289 20248 39894 40090 83535 333 58004;EQDQ01  00002PRCP99
0167483520999992000042118004+17870+102720FM-12+0175VTUM V0209999C000012200019N0110001N1+02721+02381100801ADDAA199000091GF106991031051008001001061MA1999999098831MD1999999-0011REMSYN070AAXX  21184 48352 32561 60000 10272 20238 39883 40080 83506 333 59001;EQDQ01  00002PRCP99
0167483520999992000042121004+17870+102720FM-12+0175VTUM V0201401N001010075019N0100001N1+02571+02291100721ADDAA199000091GF108991051051008001071061MA1999999098741MD1999999-0011REMSYN070AAXX  21214 48352 32560 81402 10257 20229 39874 40072 85576 333 59001;EQDQ01  00002PRCP99
0186483520999992000042200004+17870+102720FM-12+0175VTUM V0209999C000010075019N0120001N1+02621+02311100901ADDAA199000091GF108991051051008001071061KA1120N+02561MA1999999098921MD1999999+0061REMSYN076AAXX  22004 48352 32562 80000 10262 20231 39892 40090 85576 333 20256 58006;EQDQ01  00002PRCP99
0201483520999992000042203004+17870+102720FM-12+0175VTUM V0209999C000010075019N0120001N1+02401+02281100102ADDAA102022191AY191031AY291031GF108991061091008001071999MA1999999099101MD1999999+0131MW1291REMSYN082AAXX  22034 48352 21562 80000 10240 20228 39910 40010 72999 8697/ 333 58013 60226;EQDQ01+100103APOSLP
0182483520999992000042209004+17870+102720FM-12+0175VTUM V0200301N001010075019N0070001N1+02271+02191100881ADDAA102011991AY191031AY261031GF108991061051008001071999MA1999999098881MD1999999+0451MW1611REMSYN082AAXX  22094 48352 21557 80302 10227 20219 39888 40088 76196 8657/ 333 58045 60126;
0182483520999992000042215004+17870+102720FM-12+0175VTUM V0209999C000010075019N0060001N1+02301+02261101131ADDAA103000191AY161031AY261031GF108991051051008001071999MA1999999099121MD1999999+0231MW1611REMSYN082AAXX  22154 48352 21556 80000 10230 20226 39912 40113 76166 8557/ 333 58023 69927;
0148483520999992000042221004+17870+102720FM-12+0175VTUM V0209999C000010075019N0110001N1+02221+02171100831ADDAA199000021GF107991051051008001031051MA1999999098831MD1999999+0111REMSYN070AAXX  22214 48352 32561 70000 10222 20217 39883 40083 85535 333 58011;
0179483520999992000042300004+17870+102720FM-12+0175VTUM V0209999C000012200019N0120001N1+02281+02271101001ADDAA124036191GF102991021051008001031001KA1120N+02201MA1999999098991MD1999999+0101REMSYN088AAXX  23004 48352 12562 20000 10228 20227 39899 40100 60364 82530 333 20220 58010 70355;
0148483520999992000042303004+17870+102720FM-12+0175VTUM V0201701N001512200019N0150001N1+02801+02241101111ADDAA199000021GF103991031081008001001001MA1999999099131MD1999999+0011REMSYN070AAXX  23034 48352 32565 31703 10280 20224 39913 40111 83800 333 58001;
0154483520999992000042306004+17870+102720FM-12+0175VTUM V0209999C000011050019N0150001N1+03141+02231100831ADDAA124013291GF105991041081008001001051MA1999999098891MD1999999+0011REMSYN076AAXX  23064 48352 32565 50000 10314 20223 39889 40083 84805 333 58001 70132;
0183483520999992000042309004+17870+102720FM-12+0175VTUM V0209999C000019999999N0140001N1+03131+02251100551ADDAA199000091GF105991999021008001001001MA1999999098611MD1999999-0331REMSYN070AAXX  23094 48352 32564 50000 10313 20225 39861 40055 83200 333 59033;EQDQ01+000032SCOTLCQ02  00002PRCP99
0173483520999992000042312004+17870+102720FM-12+0175VTUM V0209999C000012200019N0130001N1+02921+02361100591ADDAA124000391GF105991021051008001001061KA1120M+03281MA1999999098631MD1999999-0301REMSYN082AAXX  23124 48352 32563 50000 10292 20236 39863 40059 82506 333 10328 59030 70003;
0167483520999992000042315004+17870+102720FM-12+0175VTUM V0209999C000012200019N0120001N1+02671+02351100831ADDAA199000091GF102991001001999999001051MA1999999098861MD1999999-0301REMSYN070AAXX  23154 48352 32962 20000 10267 20235 39886 40083 80005 333 59030;EQDQ01  00002PRCP99
0167483520999992000042318004+17870+102720FM-12+0175VTUM V0209999C000010450019N0110001N1+02601+02341100761ADDAA199000091GF106991041051008001071061MA1999999098791MD1999999-0111REMSYN070AAXX  23184 48352 32561 60000 10260 20234 39879 40076 84576 333 59011;EQDQ01  00002PRCP99
0167483520999992000042321004+17870+102720FM-12+0175VTUM V0209999C000010450019N0100001N1+02571+02401100651ADDAA199000091GF106991041051008001031061MA1999999098681MD1999999-0181REMSYN070AAXX  23214 48352 32560 60000 10257 20240 39868 40065 84536 333 59018;EQDQ01  00002PRCP99
0186483520999992000042400004+17870+102720FM-12+0175VTUM V0209999C000012200019N0120001N1+02591+02401100761ADDAA199000091GF105991041051008001001061KA1120N+02521MA1999999098781MD1999999-0241REMSYN076AAXX  24004 48352 32562 50000 10259 20240 39878 40076 84506 333 20252 59024;EQDQ01  00002PRCP99
0167483520999992000042403004+17870+102720FM-12+0175VTUM V0209999C000012200019N0150001N1+03091+02461100861ADDAA199000091GF105991041011008001001061MA1999999098921MD1999999-0251REMSYN070AAXX  24034 48352 32565 50000 10309 20246 39892 40086 84106 333 59025;EQDQ01  00002PRCP99
0167483520999992000042406004+17870+102720FM-12+0175VTUM V0209999C000012200019N0150001N1+03431+02341100611ADDAA199000091GF104991041021008001001051MA1999999098681MD1999999-0221REMSYN070AAXX  24064 48352 32565 40000 10343 20234 39868 40061 84205 333 59022;EQDQ01  00002PRCP99
0167483520999992000042409004+17870+102720FM-12+0175VTUM V0209999C000010450019N0150001N1+03481+02281100291ADDAA199000091GF105991031091008001041031MA1999999098381MD1999999-0261REMSYN070AAXX  24094 48352 32565 50000 10348 20228 39838 40029 83943 333 59026;EQDQ01  00002PRCP99
0167483520999992000042415004+17870+102720FM-12+0175VTUM V0209999C000012200019N0120001N1+02841+02501100591ADDAA199000091GF102991021011008001001001MA1999999098621MD1999999-0241REMSYN070AAXX  24154 48352 32562 20000 10284 20250 39862 40059 82100 333 59024;EQDQ01  00002PRCP99
0167483520999992000042418004+17870+102720FM-12+0175VTUM V0209999C000010450019N0110001N1+02701+02501100431ADDAA199000091GF105991031051008001031051MA1999999098461MD1999999-0331REMSYN070AAXX  24184 48352 32561 50000 10270 20250 39846 40043 83535 333 59033;EQDQ01  00002PRCP99
0167483520999992000042421004+17870+102720FM-12+0175VTUM V0209999C000010075019N0100001N1+02671+02511100451ADDAA199000091GF106991051051008001031061MA1999999098491MD1999999-0201REMSYN070AAXX  24214 48352 32560 60000 10267 20251 39849 40045 85536 333 59020;EQDQ01  00002PRCP99
0186483520999992000042500004+17870+102720FM-12+0175VTUM V0209999C000010075019N0120001N1+02701+02501100651ADDAA199000091GF107991051051008001071061KA1120N+02631MA1999999098691MD1999999-0111REMSYN076AAXX  25004 48352 32562 70000 10270 20250 39869 40065 85576 333 20263 59011;EQDQ01  00002PRCP99
0207483520999992000042600004+17870+102720FM-12+0175VTUM V0209999C000010075019N0100001N1+02451+02321100771ADDAA124004191AY161061AY221061GF108991051051008001071061KA1120N+02421MA1999999098781MD1999999+0121MW1021REMSYN094AAXX  26004 48352 11560 80000 10245 20232 39878 40077 60044 70262 85576 333 20242 58012 70035;
0167483520999992000042603004+17870+102720FM-12+0175VTUM V0209999C000010450019N0130001N1+02771+02331100911ADDAA199000091GF106991031081008001031061MA1999999098951MD1999999+0171REMSYN070AAXX  26034 48352 32563 60000 10277 20233 39895 40091 83836 333 58017;EQDQ01  00002PRCP99
0154483520999992000042606004+17870+102720FM-12+0175VTUM V0209999C000011050019N0150001N1+03051+02401100401ADDAA124003691GF106991041081008001001051MA1999999098801MD1999999+0401REMSYN076AAXX  26064 48352 32565 60000 10305 20240 39880 40040 84805 333 58040 70035;
0167483520999992000042609004+17870+102720FM-12+0175VTUM V0209999C000012200019N0130001N1+03251+02361100391ADDAA199000091GF104991031091008001001031MA1999999098461MD1999999+0271REMSYN070AAXX  26094 48352 32563 40000 10325 20236 39846 40039 83903 333 58027;EQDQ01  00002PRCP99
0195483520999992000042615004+17870+102720FM-12+0175VTUM V0209999C000012200019N0110001N1+02781+02481100801ADDAA199000091AY111031AY201031GF102991011091008001001031MA1999999098831MD1999999-0051MW1131REMSYN076AAXX  26154 48352 31561 20000 10278 20248 39883 40080 71310 81903 333 59005;EQDQ01  00002PRCP99
0195483520999992000042618004+17870+102720FM-12+0175VTUM V0209999C000010450019N0100001N1+02621+02371100751ADDAA199000091AY121061AY211061GF108991041091008001061031MA1999999098771MD1999999+0001MW1171REMSYN076AAXX  26184 48352 31560 80000 10262 20237 39877 40075 71721 84963 333 58000;EQDQ01  00002PRCP99
0213483520999992000042700004+17870+102720FM-12+0175VTUM V0209999C000010075019N0100001N1+02281+02241100971ADDAA103000191AY191061AY261061GF108991051051008001071061KA1120N+02151MA1999999098971MD1999999+0201MW1021REMSYN100AAXX  27004 48352 /1560 80000 10228 20224 39897 40097 60244 70296 85576 333 20215 58020 69927 70239;
0167483520999992000042703004+17870+102720FM-12+0175VTUM V0200301N001010450019N0120001N1+02511+02301101061ADDAA199000091GF108991041051008001071061MA1999999099061MD1999999+0151REMSYN070AAXX  27034 48352 32562 80302 10251 20230 39906 40106 84576 333 58015;EQDQ01  00002PRCP99
0167483520999992000042709004+17870+102720FM-12+0175VTUM V0209999C000012200019N0130001N1+03031+02381100511ADDAA199000091GF104991041021008001001001MA1999999098571MD1999999+0121REMSYN070AAXX  27094 48352 32563 40000 10303 20238 39857 40051 84200 333 58012;EQDQ01  00002PRCP99
0173483520999992000042712004+17870+102720FM-12+0175VTUM V0209999C000010450019N0120001N1+02831+02471100611ADDAA124023991GF106991041051008001071061KA1120M+03081MA1999999098651MD1999999+0051REMSYN082AAXX  27124 48352 32562 60000 10283 20247 39865 40061 84576 333 10308 58005 70239;
0167483520999992000042715004+17870+102720FM-12+0175VTUM V0209999C000010450019N0120001N1+02751+02461100821ADDAA199000091GF107991041051008001031061MA1999999098861MD1999999+0021REMSYN070AAXX  27154 48352 32562 70000 10275 20246 39886 40082 84536 333 58002;EQDQ01  00002PRCP99
0194483520999992000042718004+17870+102720FM-12+0175VTUM V0201501N003110075019N0070001N1+02501+02291100831ADDAA103000891AY161061AY221061GF108991061051008001071999MA1999999098851MD1999999+0081MW1951REMSYN094AAXX  27184 48352 /1557 81506 10250 20229 39885 40083 69983 79562 8657/ 333 58008 69987 70247;
0207483520999992000042800004+17870+102720FM-12+0175VTUM V0209999C000010075019N0100001N1+02401+02331100961ADDAA124010991AY161061AY221061GF108991061051008001071999KA1120N+02341MA1999999098971MD1999999-0011MW1021REMSYN094AAXX  28004 48352 11560 80000 10240 20233 39897 40096 60114 70262 8657/ 333 20234 59001 70106;
0148483520999992000042803004+17870+102720FM-12+0175VTUM V0209999C000010075019N0120001N1+02741+02421101081ADDAA199000021GF108991061051008001071999MA1999999099101MD1999999+0021REMSYN070AAXX  28034 48352 32562 80000 10274 20242 39910 40108 8657/ 333 58002;
0154483520999992000042806004+17870+102720FM-12+0175VTUM V0209999C000010075019N0150001N1+03001+02431100811ADDAA124010791GF106991051021008001001061MA1999999098861MD1999999+0111REMSYN076AAXX  28064 48352 32565 60000 10300 20243 39886 40081 85206 333 58011 70106;
0167483520999992000042809004+17870+102720FM-12+0175VTUM V0209999C000011050019N0150001N1+03191+02401100541ADDAA199000091GF105991041011008001001051MA1999999098601MD1999999+0031REMSYN070AAXX  28094 48352 32565 50000 10319 20240 39860 40054 84105 333 58003;EQDQ01  00002PRCP99
0182483520999992000042815004+17870+102720FM-12+0175VTUM V0209999C000010075019N0100001N1+02591+02461100941ADDAA102000591AY161031AY221031GF108991061091008001071999MA1999999098971MD1999999+0121MW1171REMSYN082AAXX  28154 48352 21560 80000 10259 20246 39897 40094 71762 8697/ 333 58012 69946;
0207483520999992000042900004+17870+102720FM-12+0175VTUM V0209999C000010075019N0100001N1+02351+02291101161ADDAA124017091AY161061AY221061GF108991061051008001071999KA1120N+02321MA1999999099161MD1999999+0201MW1021REMSYN094AAXX  29004 48352 11560 80000 10235 20229 39916 40116 60174 70262 8657/ 333 20232 58020 70174;
0167483520999992000042903004+17870+102720FM-12+0175VTUM V0200401N001010075019N0120001N1+02581+02391101311ADDAA199000091GF108991051051008001071999MA1999999099331MD1999999+0231REMSYN070AAXX  29034 48352 32562 80402 10258 20239 39933 40131 8557/ 333 58023;EQDQ01  00002PRCP99
0194483520999992000042918004+17870+102720FM-12+0175VTUM V0209999C000010075019N0050001N1+02421+02331101011ADDAA103013091AY191061AY291061GF108991061091008001071999MA1999999099011MD1999999+0181MW1911REMSYN094AAXX  29184 48352 /1550 80000 10242 20233 39901 40101 60153 79199 8697/ 333 58018 60137 70247;
0182483520999992000042921004+17870+102720FM-12+0175VTUM V0209999C000010075019N0040001N1+02301+02261101101ADDAA103008991AY161031AY261031GF108991071051008001071999MA1999999099091MD1999999+0101MW1611REMSYN082AAXX  29214 48352 21540 80000 10230 20226 39909 40110 76166 8757/ 333 58010 60097;
0213483520999992000043000004+17870+102720FM-12+0175VTUM V0209999C000010075019N0100001N1+02311+02271101281ADDAA103002091AY161061AY261061GF108991061051008001071999KA1120N+02251MA1999999099271MD1999999+0121MW1021REMSYN100AAXX  30004 48352 /1560 80000 10231 20227 39927 40128 60124 70266 8657/ 333 20225 58012 60027 70120;
0148483520999992000043009004+17870+102720FM-12+0175VTUM V0209999C000012200019N0150001N1+03241+02381100741ADDAA199000021GF103991021091008001041031MA1999999098811MD1999999+0011REMSYN070AAXX  30094 48352 32565 30000 10324 20238 39881 40074 82943 333 58001;
0173483520999992000043012004+17870+102720FM-12+0175VTUM V0209999C000012200019N0150001N1+02871+02411100821ADDAA124011991GF103991021021008001041051KA1120M+03251MA1999999098861MD1999999-0121REMSYN082AAXX  30124 48352 32565 30000 10287 20241 39886 40082 82245 333 10325 59012 70120;
0167483520999992000043015004+17870+102720FM-12+0175VTUM V0209999C000012200019N0120001N1+02731+02471101051ADDAA199000091GF104991031051008001001061MA1999999099071MD1999999-0081REMSYN070AAXX  30154 48352 32562 40000 10273 20247 39907 40105 83506 333 59008;EQDQ01  00002PRCP99
0154483520999992000043018004+17870+102720FM-12+0175VTUM V0209999C000012200019N0110001N1+02651+02491100981ADDAA124010991GF101991011011008001001001MA1999999098991MD1999999-0141REMSYN076AAXX  30184 48352 32561 10000 10265 20249 39899 40098 81100 333 59014 70108;
0186483520999992000050100004+17870+102720FM-12+0175VTUM V0209999C000012200019N0120001N1+02671+02501100991ADDAA199000091GF102991011051008001001011KA1120N+02511MA1999999099011MD1999999-0291REMSYN076AAXX  01004 48352 32562 20000 10267 20250 39901 40099 81501 333 20251 59029;EQDQ01  00002PRCP99
0167483520999992000050106004+17870+102720FM-12+0175VTUM V0200801N001512200019N0150001N1+03421+02341100811ADDAA199000091GF103991031021008001001001MA1999999098891MD1999999-0291REMSYN070AAXX  01064 48352 32565 30803 10342 20234 39889 40081 83200 333 59029;EQDQ01  00002PRCP99
0182483520999992000050109004+17870+102720FM-12+0175VTUM V0203301N002610075019N0050001N1+02711+02381100881ADDAA102002091AY191031AY211031GF108991061091008001071999MA1999999098911MD1999999+0141MW1951REMSYN082AAXX  01094 48352 21550 83305 10271 20238 39891 40088 79591 8697/ 333 58014 60026;
0213483520999992000050112004+17870+102720FM-12+0175VTUM V0209999C000010075019N0060001N1+02561+02251100851ADDAA103000191AY191061AY291061GF108991061051008001071999KA1120M+03561MA1999999098871MD1999999+0031MW1601REMSYN100AAXX  01124 48352 /1556 80000 10256 20225 39887 40085 60022 76099 8657/ 333 10356 58003 69917 70016;
0182483520999992000050115004+17870+102720FM-12+0175VTUM V0209999C000010075019N0100001N1+02511+02301101101ADDAA103000191AY161031AY221031GF106991051051008001001051MA1999999099101MD1999999+0051MW1011REMSYN082AAXX  01154 48352 21560 60000 10251 20230 39910 40110 70162 85505 333 58005 69917;
0188483520999992000050118004+17870+102720FM-12+0175VTUM V0209999C000012200019N0100001N1+02451+02301101011ADDAA118000191AY161061AY221061GF106991031051008001001061MA1999999099021MD1999999+0031MW1021REMSYN088AAXX  01184 48352 11560 60000 10245 20230 39902 40101 69923 70262 83506 333 58003 70017;
0148483520999992000050121004+17870+102720FM-12+0175VTUM V0209999C000012200019N0100001N1+02401+02331100931ADDAA199000021GF106991021051008001001061MA1999999098941MD1999999+0021REMSYN070AAXX  01214 48352 32560 60000 10240 20233 39894 40093 82506 333 58002;
0205483520999992000050200004+17870+102720FM-12+0175VTUM V0209999C000012200019N0060001N1+02421+02201100601ADDAA199000021AY101061AY201061GA1001+999999999GF100991001001999999001001KA1120N+02371MA1999999098611MD1999999-0071MW1101REMSYN076AAXX  02004 48352 31956 00000 10242 20220 39861 40060 71000 333 20237 59007;
0167483520999992000050203004+17870+102720FM-12+0175VTUM V0209999C000012200019N0150001N1+02951+02371101171ADDAA199000091GF104991041021008001001011MA1999999099201MD1999999+0101REMSYN070AAXX  02034 48352 32565 40000 10295 20237 39920 40117 84201 333 58010;EQDQ01  00002PRCP99
0167483520999992000050206004+17870+102720FM-12+0175VTUM V0209999C000012200019N0150001N1+02951+02371101171ADDAA199000091GF104991041021008001001011MA1999999099201MD1999999+0101REMSYN070AAXX  02064 48352 32565 40000 10295 20237 39920 40117 84201 333 58010;EQDQ01  00002PRCP99
0167483520999992000050209004+17870+102720FM-12+0175VTUM V0209999C000012200019N0150001N1+03341+02271100661ADDAA199000091GF103991031021008001001001MA1999999098731MD1999999-0221REMSYN070AAXX  02094 48352 32565 30000 10334 20227 39873 40066 83200 333 59022;EQDQ01  00002PRCP99
0173483520999992000050212004+17870+102720FM-12+0175VTUM V0209999C000012200019N0140001N1+03101+02461100751ADDAA124000191GF102991021021008001001001KA1120M+03431MA1999999098811MD1999999-0101REMSYN082AAXX  02124 48352 32564 20000 10310 20246 39881 40075 82200 333 10343 59010 70001;
0167483520999992000050215004+17870+102720FM-12+0175VTUM V0209999C000012200019N0120001N1+02901+02471101071ADDAA199000091GF102991021011008001001001MA1999999099101MD1999999-0031REMSYN070AAXX  02154 48352 32562 20000 10290 20247 39910 40107 82100 333 59003;EQDQ01  00002PRCP99
0167483520999992000050218004+17870+102720FM-12+0175VTUM V0209999C000010450019N0110001N1+02761+02471100951ADDAA199000091GF105991041051008001031051MA1999999098991MD1999999-0061REMSYN070AAXX  02184 48352 32561 50000 10276 20247 39899 40095 84535 333 59006;EQDQ01  00002PRCP99
0167483520999992000050221004+17870+102720FM-12+0175VTUM V0209999C000010450019N0100001N1+02751+02541100921ADDAA199000091GF106991041051008001031061MA1999999098961MD1999999-0011REMSYN070AAXX  02214 48352 32560 60000 10275 20254 39896 40092 84536 333 59001;EQDQ01  00002PRCP99
0167483520999992000050303004+17870+102720FM-12+0175VTUM V0209999C000010075019N0150001N1+03121+02431101121ADDAA199000091GF105991051021008001001001MA1999999099161MD1999999-0051REMSYN070AAXX  03034 48352 32565 50000 10312 20243 39916 40112 85200 333 59005;EQDQ01  00002PRCP99
0195483520999992000050306004+17870+102720FM-12+0175VTUM V0209999C000010450019N0150001N1+03011+02381100811ADDAA199000091AY121061AY221061GF106991041091008001041031MA1999999098861MD1999999-0171MW1171REMSYN076AAXX  03064 48352 31565 60000 10301 20238 39886 40081 71722 84943 333 59017;EQDQ01  00002PRCP99
0213483520999992000050312004+17870+102720FM-12+0175VTUM V0209999C000010075019N0120001N1+02601+02311100961ADDAA103000191AY191061AY261061GF108991051051008001071999KA1120M+03351MA1999999098981MD1999999+0211MW1021REMSYN100AAXX  03124 48352 /1562 80000 10260 20231 39898 40096 60012 70296 8557/ 333 10335 58021 69917 70011;
0182483520999992000050315004+17870+102720FM-12+0175VTUM V0209999C000010075019N0100001N1+02511+02301101261ADDAA102000191AY161031AY221031GF107991051091008001071031MA1999999099271MD1999999+0191MW1131REMSYN082AAXX  03154 48352 21560 70000 10251 20230 39927 40126 71362 85973 333 58019 69916;
0194483520999992000050318004+17870+102720FM-12+0175VTUM V0209999C000010075019N0080001N1+02371+02301101141ADDAA102004191AY161061AY261061GF108991061071008001021999MA1999999099141MD1999999+0191MW1611REMSYN094AAXX  03184 48352 /1558 80000 10237 20230 39914 40114 60053 76166 8672/ 333 58019 60046 70048;
0182483520999992000050321004+17870+102720FM-12+0175VTUM V0209999C000010075019N0100001N1+02351+02281101071ADDAA103000191AY161031AY221031GF107991051051008001071061MA1999999099061MD1999999+0151MW1011REMSYN082AAXX  03214 48352 21560 70000 10235 20228 39906 40107 70162 85576 333 58015 69917;
0207483520999992000050400004+17870+102720FM-12+0175VTUM V0209999C000010450019N0120001N1+02451+02301101191ADDAA124005191AY161061AY221061GF107991041051008001071061KA1120N+02341MA1999999099191MD1999999+0191MW1021REMSYN094AAXX  04004 48352 11562 70000 10245 20230 39919 40119 60054 70262 84576 333 20234 58019 70049;
0148483520999992000050403004+17870+102720FM-12+0175VTUM V0209999C000010075019N0130001N1+02821+02311101251ADDAA199000021GF108991051051008001071999MA1999999099271MD1999999+0131REMSYN070AAXX  04034 48352 32563 80000 10282 20231 39927 40125 8557/ 333 58013;
0158483520999992000050406004+17870+102720FM-12+0175VTUM V0200801N001010450019N0150001N1+03001+02271100991ADDAA124004891GF107991041081008001041061MD1999999+0181REMSYN076AAXX  04064 48352 32565 70802 10300 20227 39803 40099 84846 333 58018 70049;EQDQ01+098033APOSP 
0167483520999992000050409004+17870+102720FM-12+0175VTUM V0200901N001011050019N0150001N1+03071+02441100721ADDAA199000091GF106991041091008001001031MA1999999098781MD1999999-0051REMSYN070AAXX  04094 48352 32565 60902 10307 20244 39878 40072 84903 333 59005;EQDQ01  00002PRCP99
0195483520999992000050415004+17870+102720FM-12+0175VTUM V0200901N002610075019N0120001N1+02501+02141101321ADDAA199000091AY121031AY221031GF108991051091008001071999MA1999999099321MD1999999+0061MW1131REMSYN076AAXX  04154 48352 31562 80905 10250 20214 39932 40132 71322 8597/ 333 58006;EQDQ01  00002PRCP99
0182483520999992000050421004+17870+102720FM-12+0175VTUM V0209999C000010075019N0100001N1+02311+02251101121ADDAA103000191AY161031AY221031GF108991051051008001071061MA1999999099111MD1999999+0051MW1021REMSYN082AAXX  04214 48352 21560 80000 10231 20225 39911 40112 70262 85576 333 58005 69927;
0213483520999992000050500004+17870+102720FM-12+0175VTUM V0209999C000010075019N0070001N1+02331+02271101301ADDAA101000791AY161061AY221061GF108991061051008001071999KA1120N+02231MA1999999099291MD1999999+0111MW1601REMSYN100AAXX  05004 48352 /1557 80000 10233 20227 39929 40130 60054 76062 8657/ 333 20223 58011 69905 70054;
0182483520999992000050503004+17870+102720FM-12+0175VTUM V0209999C000010075019N0120001N1+02621+02301101391ADDAA103000191AY161031AY221031GF108991051051008001071061MA1999999099401MD1999999+0141MW1021REMSYN082AAXX  05034 48352 21562 80000 10262 20230 39940 40139 70262 85576 333 58014 69917;
0188483520999992000050506004+17870+102720FM-12+0175VTUM V0209999C000010120019N0120001N1+02901+02361101191ADDAA106000191AY161061AY221061GF106991051081008001071061MA1999999099221MD1999999+0201MW1021REMSYN088AAXX  05064 48352 11562 60000 10290 20236 39922 40119 69911 70262 85876 333 58020 70055;
0148483520999992000050509004+17870+102720FM-12+0175VTUM V0209999C000012200019N0150001N1+03041+02391100851ADDAA199000021GF104991041021008001001001MA1999999098901MD1999999+0131REMSYN070AAXX  05094 48352 32565 40000 10304 20239 39890 40085 84200 333 58013;
0173483520999992000050512004+17870+102720FM-12+0175VTUM V0209999C000010450019N0130001N1+02771+02391100941ADDAA124005691GF106991041081008001071061KA1120M+03151MA1999999098981MD1999999-0071REMSYN082AAXX  05124 48352 32563 60000 10277 20239 39898 40094 84876 333 10315 59007 70055;
0195483520999992000050515004+17870+102720FM-12+0175VTUM V0209999C000012200019N0120001N1+02601+02241101241ADDAA199000091AY191031AY211031GF104991031051008001001051MA1999999099251MD1999999-0081MW1011REMSYN076AAXX  05154 48352 31562 40000 10260 20224 39925 40124 70191 83505 333 59008;EQDQ01  00002PRCP99
0179483520999992000050600004+17870+102720FM-12+0175VTUM V0209999C000012200019N0100001N1+02601+02411101211ADDAA124000191GF102991021051008001001001KA1120N+02411MA1999999099231MD1999999-0091REMSYN088AAXX  06004 48352 12560 20000 10260 20241 39923 40121 69914 82500 333 20241 59009 70001;
0167483520999992000050603004+17870+102720FM-12+0175VTUM V0209999C000011050019N0150001N1+03001+02431101321ADDAA199000091GF105991041081008001001051MA1999999099361MD1999999-0071REMSYN070AAXX  06034 48352 32565 50000 10300 20243 39936 40132 84805 333 59007;EQDQ01  00002PRCP99
0167483520999992000050609004+17870+102720FM-12+0175VTUM V0209999C000010120019N0130001N1+02971+02361100831ADDAA199000091GF107991051081008001071061MA1999999098881MD1999999-0021REMSYN070AAXX  06094 48352 32563 70000 10297 20236 39888 40083 85876 333 59002;EQDQ01  00002PRCP99
0186483520999992000050612004+17870+102720FM-12+0175VTUM V0209999C000010075019N0120001N1+02751+02341100991ADDAA199000091GF108991051051008001071061KA1120M+03191MA1999999099021MD1999999+0051REMSYN076AAXX  06124 48352 32562 80000 10275 20234 39902 40099 85576 333 10319 58005;EQDQ01  00002PRCP99
0167483520999992000050615004+17870+102720FM-12+0175VTUM V0209999C000012200019N0110001N1+02621+02401101201ADDAA199000091GF106991041051008001001061MA1999999099211MD1999999-0041REMSYN070AAXX  06154 48352 32561 60000 10262 20240 39921 40120 84506 333 59004;EQDQ01  00002PRCP99
0167483520999992000050621004+17870+102720FM-12+0175VTUM V0209999C000012200019N0100001N1+02541+02441101061ADDAA199000091GF103991021051008001001051MA1999999099071MD1999999-0081REMSYN070AAXX  06214 48352 32560 30000 10254 20244 39907 40106 82505 333 59008;EQDQ01  00002PRCP99
0186483520999992000050700004+17870+102720FM-12+0175VTUM V0209999C000012200019N0120001N1+02621+02481101211ADDAA199000091GF106991031051008001001061KA1120N+02521MA1999999099221MD1999999+0001REMSYN076AAXX  07004 48352 32562 60000 10262 20248 39922 40121 83506 333 20252 58000;EQDQ01  00002PRCP99
0167483520999992000050703004+17870+102720FM-12+0175VTUM V0209999C000012200019N0150001N1+02971+02441101271ADDAA199000091GF106991041081008001001061MA1999999099311MD1999999-0051REMSYN070AAXX  07034 48352 32565 60000 10297 20244 39931 40127 84806 333 59005;EQDQ01  00002PRCP99
0167483520999992000050709004+17870+102720FM-12+0175VTUM V0202301N001510450019N0160001N1+03101+02511100711ADDAA199000091GF106991041091008001041031MA1999999098771MD1999999-0121REMSYN070AAXX  07094 48352 32566 62303 10310 20251 39877 40071 84943 333 59012;EQDQ01  00002PRCP99
0213483520999992000050712004+17870+102720FM-12+0175VTUM V0209999C000010075019N0050001N1+02471+02321100841ADDAA102014091AY191061AY221061GF108991061091008001071999KA1120M+03411MA1999999098861MD1999999-0151MW1911REMSYN100AAXX  07124 48352 /1550 80000 10247 20232 39886 40084 60142 79192 8697/ 333 10341 59015 60146 70139;
0182483520999992000050715004+17870+102720FM-12+0175VTUM V0209999C000010075019N0120001N1+02521+02451101031ADDAA103000191AY161031AY221031GF106991051051008001001051MA1999999099031MD1999999-0171MW1011REMSYN082AAXX  07154 48352 21562 60000 10252 20245 39903 40103 70162 85505 333 59017 69917;
0188483520999992000050718004+17870+102720FM-12+0175VTUM V0209999C000010075019N0120001N1+02521+02451100901ADDAA118014091AY161061AY221061GF107991051051008001071051MA1999999098921MD1999999-0251MW1031REMSYN088AAXX  07184 48352 11562 70000 10252 20245 39892 40090 60143 70362 85575 333 59025 70140;
0182483520999992000050721004+17870+102720FM-12+0175VTUM V0209999C000010450019N0110001N1+02491+02431100841ADDAA102002091AY161031AY221031GF107991041051008001071061MA1999999098861MD1999999-0221MW1211REMSYN082AAXX  07214 48352 21561 70000 10249 20243 39886 40084 72162 84576 333 59022 60026;
0207483520999992000050800004+17870+102720FM-12+0175VTUM V0209999C000012200019N0100001N1+02551+02481100941ADDAA124016091AY161061AY221061GF106991031051008001001061KA1120N+02431MA1999999098971MD1999999-0271MW1011REMSYN094AAXX  08004 48352 11560 60000 10255 20248 39897 40094 60164 70162 83506 333 20243 59027 70159;
0148483520999992000050803004+17870+102720FM-12+0175VTUM V0209999C000012200019N0130001N1+02971+02331101001ADDAA199000021GF104991031081008001001051MA1999999099041MD1999999-0271REMSYN070AAXX  08034 48352 32563 40000 10297 20233 39904 40100 83805 333 59027;
0154483520999992000050806004+17870+102720FM-12+0175VTUM V0209999C000010450019N0150001N1+03231+02431100791ADDAA124016091GF106991041081008001031051MA1999999098861MD1999999-0191REMSYN076AAXX  08064 48352 32565 60000 10323 20243 39886 40079 84835 333 59019 70159;
0213483520999992000050812004+17870+102720FM-12+0175VTUM V0209999C000010120019N0130001N1+02631+02321100631ADDAA102000591AY191061AY211061GF108991051081008001071061KA1120M+03381MA1999999098651MD1999999-0211MW1031REMSYN100AAXX  08124 48352 /1563 80000 10263 20232 39865 40063 69952 70391 85876 333 10338 59021 69956 70025;
0182483520999992000050818004+17870+102720FM-12+0175VTUM V0209999C000012200019N0110001N1+02501+02351100721ADDAA124002391AY111061AY201061GF102991011091008001001031MA1999999098731MD1999999-0181MW1131REMSYN082AAXX  08184 48352 31561 20000 10250 20235 39873 40072 71310 81903 333 59018 70024;
0179483520999992000050900004+17870+102720FM-12+0175VTUM V0209999C000012200019N0100001N1+02621+02421100721ADDAA124000591GF103991021051008001001051KA1120N+02451MA1999999098741MD1999999-0221REMSYN088AAXX  09004 48352 12560 30000 10262 20242 39874 40072 69954 82505 333 20245 59022 70005;
0167483520999992000050903004+17870+102720FM-12+0175VTUM V0209999C000012200019N0150001N1+03081+02391100761ADDAA199000091GF102991021051008001001001MA1999999098821MD1999999-0241REMSYN070AAXX  09034 48352 32565 20000 10308 20239 39882 40076 82500 333 59024;EQDQ01  00002PRCP99
0154483520999992000050906004+17870+102720FM-12+0175VTUM V0209999C000012200019N0150001N1+03431+02471100501ADDAA124000591GF102991021011008001001001MA1999999098581MD1999999-0291REMSYN076AAXX  09064 48352 32565 20000 10343 20247 39858 40050 82100 333 59029 70005;
0167483520999992000050909004+17870+102720FM-12+0175VTUM V0209999C000012200019N0140001N1+03511+02231100171ADDAA199000091GF102991021021008001001001MA1999999098271MD1999999-0341REMSYN070AAXX  09094 48352 32564 20000 10351 20223 39827 40017 82200 333 59034;EQDQ01  00002PRCP99
0186483520999992000050912004+17870+102720FM-12+0175VTUM V0209999C000012200019N0130001N1+03151+02411100281ADDAA199000091GF102991021021008001001011KA1120M+03581MA1999999098341MD1999999-0351REMSYN076AAXX  09124 48352 32563 20000 10315 20241 39834 40028 82201 333 10358 59035;EQDQ01  00002PRCP99
0195483520999992000050915004+17870+102720FM-12+0175VTUM V0209999C000012200019N0120001N1+02921+02461100381ADDAA199000091AY101031AY201031GF102991011091008001001031MA1999999098431MD1999999-0421MW1131REMSYN076AAXX  09154 48352 31562 20000 10292 20246 39843 40038 71300 81903 333 59042;EQDQ01  00002PRCP99
0195483520999992000050918004+17870+102720FM-12+0175VTUM V0209999C000012200019N0110001N1+02821+02511100421ADDAA199000091AY101061AY201061GF103991031091008001001031MA1999999098461MD1999999-0301MW1131REMSYN076AAXX  09184 48352 31561 30000 10282 20251 39846 40042 71300 83903 333 59030;EQDQ01  00002PRCP99
0167483520999992000050921004+17870+102720FM-12+0175VTUM V0209999C000010450019N0100001N1+02601+02381100401ADDAA199000091GF106991031051008001071061MA1999999098421MD1999999-0251REMSYN070AAXX  09214 48352 32560 60000 10260 20238 39842 40040 83576 333 59025;EQDQ01  00002PRCP99
0186483520999992000051000004+17870+102720FM-12+0175VTUM V0209999C000010075019N0110001N1+02581+02391100531ADDAA199000091GF108991051051008001071061KA1120N+02551MA1999999098561MD1999999-0191REMSYN076AAXX  10004 48352 32561 80000 10258 20239 39856 40053 85576 333 20255 59019;EQDQ01  00002PRCP99
0167483520999992000051009004+17870+102720FM-12+0175VTUM V0200801N001010450019N0150001N1+03171+02541100161ADDAA199000091GF108991041091008001071061MA1999999098241MD1999999-0011REMSYN070AAXX  10094 48352 32565 80802 10317 20254 39824 40016 84976 333 59001;EQDQ01  00002PRCP99
0214483520999992000051012004+17870+102720FM-12+0175VTUM V0209999C000010450019N0130001N1+02871+02511100211ADDAA199000091AY121061AY221061GF106991041091008001041031KA1120M+03201MA1999999098271MD1999999-0071MW1131REMSYN082AAXX  10124 48352 31563 60000 10287 20251 39827 40021 71322 84943 333 10320 59007;EQDQ01  00002PRCP99
0195483520999992000051015004+17870+102720FM-12+0175VTUM V0209999C000010075019N0120001N1+02731+02471100611ADDAA199000091AY121031AY221031GF107991051091008001061031MA1999999098651MD1999999+0231MW1171REMSYN076AAXX  10154 48352 31562 70000 10273 20247 39865 40061 71722 85963 333 58023;EQDQ01  00002PRCP99
0195483520999992000051018004+17870+102720FM-12+0175VTUM V0209999C000010450019N0110001N1+02571+02401100491ADDAA199000091AY191061AY221061GF107991041091008001061031MA1999999098511MD1999999+0071MW1171REMSYN076AAXX  10184 48352 31561 70000 10257 20240 39851 40049 71792 84963 333 58007;EQDQ01  00002PRCP99
0195483520999992000051021004+17870+102720FM-12+0175VTUM V0209999C000010075019N0100001N1+02551+02401100321ADDAA199000091AY191031AY221031GF108991051091008001071999MA1999999098341MD1999999-0081MW1131REMSYN076AAXX  10214 48352 31560 80000 10255 20240 39834 40032 71392 8597/ 333 59008;EQDQ01  00002PRCP99
0213483520999992000051100004+17870+102720FM-12+0175VTUM V0209999C000010075019N0100001N1+02501+02351100551ADDAA102000191AY191061AY261061GF108991051051008001071061KA1120N+02481MA1999999098571MD1999999+0021MW1021REMSYN100AAXX  11004 48352 /1560 80000 10250 20235 39857 40055 69914 70296 85576 333 20248 58002 69916 70001;
0182483520999992000051103004+17870+102720FM-12+0175VTUM V0209999C000010042019N0020001N1+02431+02391100791ADDAA103029091AY191031AY261031GF108991061091004501071999MA1999999098811MD1999999+0081MW1951REMSYN082AAXX  11034 48352 21420 80000 10243 20239 39881 40079 79596 8697/ 333 58008 60297;
0194483520999992000051106004+17870+102720FM-12+0175VTUM V0209999C000010075019N0120001N1+02371+02341100461ADDAA103037191AY191061AY261061GF108991051051008001071061MA1999999098471MD1999999-0021MW1211REMSYN094AAXX  11064 48352 /1562 80000 10237 20234 39847 40046 60661 72196 85576 333 59002 60377 70661;
0148483520999992000051109004+17870+102720FM-12+0175VTUM V0209999C000010450019N0150001N1+02581+02391100261ADDAA199000021GF108991041051008001071061MA1999999098301MD1999999+0101REMSYN070AAXX  11094 48352 32565 80000 10258 20239 39830 40026 84576 333 58010;
0173483520999992000051112004+17870+102720FM-12+0175VTUM V0209999C000012200019N0130001N1+02511+02331100271ADDAA124066391GF106991041051008001001061KA1120M+02731MA1999999098301MD1999999+0061REMSYN082AAXX  11124 48352 32563 60000 10251 20233 39830 40027 84506 333 10273 58006 70662;
0148483520999992000051115004+17870+102720FM-12+0175VTUM V0209999C000012200019N0120001N1+02421+02351100621ADDAA199000021GF102991021051008001001001MA1999999098631MD1999999+0011REMSYN070AAXX  11154 48352 32562 20000 10242 20235 39863 40062 82500 333 58001;
0182483520999992000051118004+17870+102720FM-12+0175VTUM V0209999C000012200019N0110001N1+02351+02311100531ADDAA124066391AY101061AY201061GF102991021091008001001031MA1999999098541MD1999999+0041MW1131REMSYN082AAXX  11184 48352 31561 20000 10235 20231 39854 40053 71300 82903 333 58004 70662;
0167483520999992000051121004+17870+102720FM-12+0175VTUM V0209999C000010450019N0100001N1+02351+02311100461ADDAA199000091GF106991041051008001031061MA1999999098471MD1999999+0141REMSYN070AAXX  11214 48352 32560 60000 10235 20231 39847 40046 84536 333 58014;EQDQ01  00002PRCP99
0173483520999992000051200004+17870+102720FM-12+0175VTUM V0209999C000010075019N0100001N1+02451+02381100601ADDAA124066091GF108991061051008001071999KA1120N+02341MA1999999098621MD1999999+0051REMSYN082AAXX  12004 48352 32560 80000 10245 20238 39862 40060 8657/ 333 20234 58005 70661;
0182483520999992000051203004+17870+102720FM-12+0175VTUM V0209999C000010120019N0120001N1+02741+02451100601ADDAA103000591AY161031AY261031GF107991051081008001071061MA1999999098631MD1999999-0191MW1021REMSYN082AAXX  12034 48352 21562 70000 10274 20245 39863 40060 70266 85876 333 59019 69967;
0188483520999992000051206004+17870+102720FM-12+0175VTUM V0209999C000010120019N0140001N1+02921+02481100411ADDAA106000591AY161061AY221061GF107991051081008001071061MA1999999098461MD1999999-0051MW1021REMSYN088AAXX  12064 48352 11564 70000 10292 20248 39846 40041 69961 70262 85876 333 59005 70006;
0182483520999992000051209004+17870+102720FM-12+0175VTUM V0200501N001512200019N0150001N1+02801+02301100191ADDAA103002091AY161031AY261031GF103991021091008001041031MA1999999098251MD1999999-0071MW1011REMSYN082AAXX  12094 48352 21565 30503 10280 20230 39825 40019 70166 82943 333 59007 60027;
0207483520999992000051212004+17870+102720FM-12+0175VTUM V0209999C000012200019N0150001N1+02741+02441100221ADDAA112002091AY161061AY221061GF104991021091008001041031KA1120M+03001MA1999999098271MD1999999-0051MW1031REMSYN094AAXX  12124 48352 11565 40000 10274 20244 39827 40022 60022 70362 82943 333 10300 59005 70021;
0167483520999992000051215004+17870+102720FM-12+0175VTUM V0209999C000010450019N0120001N1+02641+02471100571ADDAA199000091GF108991041051008001071999MA1999999098601MD1999999-0051REMSYN070AAXX  12154 48352 32562 80000 10264 20247 39860 40057 8457/ 333 59005;EQDQ01  00002PRCP99
0167483520999992000051221004+17870+102720FM-12+0175VTUM V0209999C000010075019N0100001N1+02351+02281100521ADDAA199000091GF108991061051008001071999MA1999999098531MD1999999+0061REMSYN070AAXX  12214 48352 32560 80000 10235 20228 39853 40052 8657/ 333 58006;EQDQ01  00002PRCP99
0173483520999992000051300004+17870+102720FM-12+0175VTUM V0209999C000010075019N0100001N1+02401+02301100691ADDAA124002391GF108991051051008001071999KA1120N+02341MA1999999098701MD1999999+0091REMSYN082AAXX  13004 48352 32560 80000 10240 20230 39870 40069 8557/ 333 20234 58009 70023;
0188483520999992000051306004+17870+102720FM-12+0175VTUM V0200301N001010450019N0140001N1+02831+02431100511ADDAA106000191AY161061AY221061GF107991041081008001071061MA1999999098561MD1999999+0101MW1011REMSYN088AAXX  13064 48352 11564 70302 10283 20243 39856 40051 69921 70162 84876 333 58010 70019;
0201483520999992000051312004+17870+102720FM-12+0175VTUM V0209999C000010450019N0130001N1+02841+02451100321ADDAA124000591AY121061AY221061GF106991041091008001061031KA1120M+03111MA1999999098361MD1999999+0101MW1131REMSYN088AAXX  13124 48352 31563 60000 10284 20245 39836 40032 71322 84963 333 10311 58010 70004;
0154483520999992000051318004+17870+102720FM-12+0175VTUM V0209999C000010075019N0110001N1+02611+02451100531ADDAA124000391GF108991051051008001071061MA1999999098541MD1999999-0011REMSYN076AAXX  13184 48352 32561 80000 10261 20245 39854 40053 85576 333 59001 70002;
0167483520999992000051321004+17870+102720FM-12+0175VTUM V0200901N002610075019N0100001N1+02471+02371100521ADDAA199000091GF108991061051008001071999MA1999999098541MD1999999+0001REMSYN070AAXX  13214 48352 32560 80905 10247 20237 39854 40052 8657/ 333 58000;EQDQ01  00002PRCP99
0213483520999992000051400004+17870+102720FM-12+0175VTUM V0209999C000010075019N0080001N1+02411+02371100641ADDAA103007991AY161061AY221061GF108991061051008001071999KA1120N+02381MA1999999098651MD1999999-0051MW1611REMSYN100AAXX  14004 48352 /1558 80000 10241 20237 39865 40064 60084 76162 8657/ 333 20238 59005 60087 70077;
0182483520999992000051403004+17870+102720FM-12+0175VTUM V0201401N002610120019N0120001N1+02681+02421100791ADDAA103000191AY161031AY221031GF108991061081008001071061MA1999999098821MD1999999+0061MW1021REMSYN082AAXX  14034 48352 21562 81405 10268 20242 39882 40079 70262 86876 333 58006 69927;
0188483520999992000051406004+17870+102720FM-12+0175VTUM V0209999C000010120019N0150001N1+02921+02461100541ADDAA106000191AY161061AY221061GF106991051081008001071061MA1999999098581MD1999999+0031MW1011REMSYN088AAXX  14064 48352 11565 60000 10292 20246 39858 40054 69921 70162 85876 333 58003 70077;
0148483520999992000051409004+17870+102720FM-12+0175VTUM V0209999C000012200019N0150001N1+03081+02471100311ADDAA199000021GF103991031081008001031001MA1999999098371MD1999999+0141REMSYN070AAXX  14094 48352 32565 30000 10308 20247 39837 40031 83830 333 58014;
0173483520999992000051412004+17870+102720FM-12+0175VTUM V0209999C000012200019N0130001N1+02871+02451100431ADDAA124007691GF103991021051008001001051KA1120M+03121MA1999999098471MD1999999+0111REMSYN082AAXX  14124 48352 32563 30000 10287 20245 39847 40043 82505 333 10312 58011 70077;
0195483520999992000051415004+17870+102720FM-12+0175VTUM V0209999C000010075019N0120001N1+02731+02501100721ADDAA199000091AY121031AY211031GF106991051091008001061031MA1999999098751MD1999999+0141MW1131REMSYN076AAXX  14154 48352 31562 60000 10273 20250 39875 40072 71321 85963 333 58014;EQDQ01  00002PRCP99
0194483520999992000051418004+17870+102720FM-12+0175VTUM V0209999C000010075019N0100001N1+02411+02321100611ADDAA102003091AY191061AY221061GF108991061091008001071999MA1999999098631MD1999999+0081MW1951REMSYN094AAXX  14184 48352 /1560 80000 10241 20232 39863 40061 60033 79592 8697/ 333 58008 60036 70111;
0182483520999992000051421004+17870+102720FM-12+0175VTUM V0209999C000010075019N0080001N1+02401+02361100661ADDAA102000391AY161031AY221031GF108991061051008001071999MA1999999098671MD1999999+0141MW1611REMSYN082AAXX  14214 48352 21558 80000 10240 20236 39867 40066 76162 8657/ 333 58014 69936;
0213483520999992000051500004+17870+102720FM-12+0175VTUM V0209999C000010075019N0100001N1+02451+02391100761ADDAA103000791AY191061AY261061GF108991061051008001071999KA1120N+02331MA1999999098771MD1999999+0121MW1021REMSYN100AAXX  15004 48352 /1560 80000 10245 20239 39877 40076 60044 70296 8657/ 333 20233 58012 69907 70039;
0148483520999992000051503004+17870+102720FM-12+0175VTUM V0209999C000010450019N0130001N1+02841+02451100841ADDAA199000021GF106991041081008001031061MA1999999098881MD1999999+0051REMSYN070AAXX  15034 48352 32563 60000 10284 20245 39888 40084 84836 333 58005;
0148483520999992000051509004+17870+102720FM-12+0175VTUM V0209999C000010120019N0130001N1+03151+02371100331ADDAA199000021GF106991051081008001031051MA1999999098401MD1999999+0021REMSYN070AAXX  15094 48352 32563 60000 10315 20237 39840 40033 85835 333 58002;
0182483520999992000051515004+17870+102720FM-12+0175VTUM V0209999C000010450019N0120001N1+02551+02431100751ADDAA103000391AY161031AY221031GF106991041051008001071061MA1999999098771MD1999999+0031MW1021REMSYN082AAXX  15154 48352 21562 60000 10255 20243 39877 40075 70262 84576 333 58003 69937;
0188483520999992000051518004+17870+102720FM-12+0175VTUM V0209999C000010075019N0110001N1+02551+02481100681ADDAA118003091AY161061AY221061GF108991051051008001071061MA1999999098711MD1999999+0071MW1031REMSYN088AAXX  15184 48352 11561 80000 10255 20248 39871 40068 60033 70362 85576 333 58007 70035;
0167483520999992000051521004+17870+102720FM-12+0175VTUM V0200801N001012200019N0100001N1+02541+02481100561ADDAA199000091GF104991031051008001031051MA1999999098581MD1999999-0101REMSYN070AAXX  15214 48352 32560 40802 10254 20248 39858 40056 83535 333 59010;EQDQ01  00002PRCP99
0173483520999992000051600004+17870+102720FM-12+0175VTUM V0209999C000010075019N0100001N1+02571+02481100651ADDAA124003391GF108991061051008001071999KA1120N+02551MA1999999098671MD1999999-0111REMSYN082AAXX  16004 48352 32560 80000 10257 20248 39867 40065 8657/ 333 20255 59011 70032;
0167483520999992000051603004+17870+102720FM-12+0175VTUM V0200801N002110075019N0120001N1+02871+02511100681ADDAA199000091GF108991051051008001071999MA1999999098721MD1999999-0161REMSYN070AAXX  16034 48352 32562 80804 10287 20251 39872 40068 8557/ 333 59016;EQDQ01  00002PRCP99
0154483520999992000051606004+17870+102720FM-12+0175VTUM V0209999C000010075019N0140001N1+02881+02511100511ADDAA124003391GF108991051051008001071061MA1999999098551MD1999999-0101REMSYN076AAXX  16064 48352 32564 80000 10288 20251 39855 40051 85576 333 59010 70032;
0167483520999992000051609004+17870+102720FM-12+0175VTUM V0209999C000010075019N0140001N1+02751+02511100301ADDAA199000091GF108991051051008001071061MA1999999098341MD1999999-0031REMSYN070AAXX  16094 48352 32564 80000 10275 20251 39834 40030 85576 333 59003;EQDQ01  00002PRCP99
0173483520999992000051612004+17870+102720FM-12+0175VTUM V0209999C000010075019N0130001N1+02701+02491100331ADDAA124000391GF108991051051008001071061KA1120M+03001MA1999999098361MD1999999-0211REMSYN082AAXX  16124 48352 32563 80000 10270 20249 39836 40033 85576 333 10300 59021 70003;
0182483520999992000051615004+17870+102720FM-12+0175VTUM V0209999C000010075019N0120001N1+02531+02491100611ADDAA103014091AY191031AY261031GF108991061051008001071999MA1999999098631MD1999999-0071MW1021REMSYN082AAXX  16154 48352 21562 80000 10253 20249 39863 40061 70296 8657/ 333 59007 60147;
0194483520999992000051618004+17870+102720FM-12+0175VTUM V0209999C000010075019N0040001N1+02551+02481100521ADDAA101001091AY191061AY261061GF108991061051008001071999MA1999999098541MD1999999-0141MW1601REMSYN094AAXX  16184 48352 /1540 80000 10255 20248 39854 40052 60153 76096 8657/ 333 59014 60015 70147;
0182483520999992000051621004+17870+102720FM-12+0175VTUM V0209999C000010042019N0040001N1+02541+02501100401ADDAA103003091AY161031AY261031GF108991061071004501071999MA1999999098411MD1999999-0161MW1611REMSYN082AAXX  16214 48352 21440 80000 10254 20250 39841 40040 76166 8677/ 333 59016 60037;
0213483520999992000051700004+17870+102720FM-12+0175VTUM V0209999C000010075019N0040001N1+02471+02441100491ADDAA103005191AY161061AY261061GF108991061091008001071999KA1120N+02461MA1999999098511MD1999999-0161MW1951REMSYN100AAXX  17004 48352 /1540 80000 10247 20244 39851 40049 60234 79566 8697/ 333 20246 59016 60057 70232;
0182483520999992000051703004+17870+102720FM-12+0175VTUM V0200301N001010075019N0080001N1+02501+02431100691ADDAA103000391AY161031AY221031GF108991061051008001071999MA1999999098701MD1999999+0011MW1601REMSYN082AAXX  17034 48352 21558 80302 10250 20243 39870 40069 76062 8657/ 333 58001 69937;
0188483520999992000051706004+17870+102720FM-12+0175VTUM V0209999C000010075019N0120001N1+02741+02451100511ADDAA106000391AY161061AY221061GF108991051051008001071061MA1999999098541MD1999999+0001MW1021REMSYN088AAXX  17064 48352 11562 80000 10274 20245 39854 40051 69931 70262 85576 333 58000 70235;
0148483520999992000051709004+17870+102720FM-12+0175VTUM V0209999C000012200019N0150001N1+02951+02491100171ADDAA199000021GF106991041081008001001061MA1999999098241MD1999999-0131REMSYN070AAXX  17094 48352 32565 60000 10295 20249 39824 40017 84806 333 59013;
0201483520999992000051712004+17870+102720FM-12+0175VTUM V0209999C000010075019N0130001N1+02781+02521100271ADDAA124023691AY121061AY221061GF106991051091008001061031KA1120M+03021MA1999999098321MD1999999-0061MW1171REMSYN088AAXX  17124 48352 31563 60000 10278 20252 39832 40027 71722 85963 333 10302 59006 70235;
0182483520999992000051715004+17870+102720FM-12+0175VTUM V0209999C000010075019N0120001N1+02581+02481100611ADDAA102006191AY191031AY221031GF108991051051008001071061MA1999999098641MD1999999+0001MW1291REMSYN082AAXX  17154 48352 21562 80000 10258 20248 39864 40061 72992 85576 333 58000 60066;
0194483520999992000051718004+17870+102720FM-12+0175VTUM V0209999C000010075019N0100001N1+02551+02481100561ADDAA102000191AY191061AY261061GF108991051051008001071061MA1999999098591MD1999999+0041MW1021REMSYN094AAXX  17184 48352 /1560 80000 10255 20248 39859 40056 60063 70296 85576 333 58004 69926 70147;
0167483520999992000051721004+17870+102720FM-12+0175VTUM V0209999C000010075019N0100001N1+02531+02491100481ADDAA199000091GF108991051051008001071061MA1999999098501MD1999999+0081REMSYN070AAXX  17214 48352 32560 80000 10253 20249 39850 40048 85576 333 58008;EQDQ01  00002PRCP99
0154483520999992000051800004+17870+102720FM-12+0175VTUM V0209999C000010075019N0100001N1+02551+02491100601ADDAA124006191GF108991061051008001071999MA1999999098621MD1999999+0111REMSYN076AAXX  18004 48352 32560 80000 10255 20249 39862 40060 8657/ 333 58011 70062;
0167483520999992000051803004+17870+102720FM-12+0175VTUM V0209999C000010075019N0120001N1+02771+02541100691ADDAA199000091GF108991061051008001071999MA1999999098731MD1999999+0001REMSYN070AAXX  18034 48352 32562 80000 10277 20254 39873 40069 8657/ 333 58000;EQDQ01  00002PRCP99
0154483520999992000051806004+17870+102720FM-12+0175VTUM V0209999C000010075019N0150001N1+03171+02521100471ADDAA124005391GF105991051021008001001001MA1999999098541MD1999999-0041REMSYN076AAXX  18064 48352 32565 50000 10317 20252 39854 40047 85200 333 59004 70053;
0167483520999992000051809004+17870+102720FM-12+0175VTUM V0209999C000012200019N0150001N1+03291+02451100151ADDAA199000091GF104991031091008001041031MA1999999098231MD1999999-0021REMSYN070AAXX  18094 48352 32565 40000 10329 20245 39823 40015 83943 333 59002;EQDQ01  00002PRCP99
0220483520999992000051812004+17870+102720FM-12+0175VTUM V0209999C000019999999N0130001N1+03031+02601100251ADDAA124005891AY121061AY221061GF108991999091008001071061KA1120M+03361MA1999999098321MD1999999-0021MW1131REMSYN088AAXX  18124 48352 31563 80000 10303 20260 39832 40025 71322 80976 333 10336 59002 70059;EQDQ01+000002SCOTLC
0182483520999992000051903004+17870+102720FM-12+0175VTUM V0200501N003110075019N0140001N1+02551+02181100821ADDAA103000191AY161031AY221031GF108991061051008001071999MA1999999098841MD1999999+0131MW1021REMSYN082AAXX  19034 48352 21564 80506 10255 20218 39884 40082 70262 8657/ 333 58013 69927;
0188483520999992000051906004+17870+102720FM-12+0175VTUM V0200401N004110075019N0140001N1+02601+02231100701ADDAA106000191AY161061AY221061GF108991061051008001071999MA1999999098731MD1999999+0231MW1021REMSYN088AAXX  19064 48352 11564 80408 10260 20223 39873 40070 69921 70262 8657/ 333 58023 70186;
0167483520999992000051909004+17870+102720FM-12+0175VTUM V0200301N003110075019N0140001N1+02571+02211100411ADDAA199000091GF108991051051008001071999MA1999999098431MD1999999+0261REMSYN070AAXX  19094 48352 32564 80306 10257 20221 39843 40041 8557/ 333 58026;EQDQ01  00002PRCP99
0173483520999992000051912004+17870+102720FM-12+0175VTUM V0209999C000010075019N0120001N1+02521+02221100561ADDAA124018591GF108991051051008001071061KA1120M+02661MA1999999098571MD1999999+0311REMSYN082AAXX  19124 48352 32562 80000 10252 20222 39857 40056 85576 333 10266 58031 70186;
0167483520999992000051915004+17870+102720FM-12+0175VTUM V0209999C000010075019N0100001N1+02471+02221100761ADDAA199000091GF108991061051008001071999MA1999999098771MD1999999+0051REMSYN070AAXX  19154 48352 32560 80000 10247 20222 39877 40076 8657/ 333 58005;EQDQ01  00002PRCP99
0194483520999992000051918004+17870+102720FM-12+0175VTUM V0209999C000010075019N0040001N1+02351+02281100681ADDAA102003091AY161061AY221061GF108991061051008001071999MA1999999098691MD1999999+0061MW1611REMSYN094AAXX  19184 48352 /1540 80000 10235 20228 39869 40068 60033 76162 8657/ 333 58006 60036 70030;
0182483520999992000051921004+17870+102720FM-12+0175VTUM V0200601N002610042019N0030001N1+02211+02191100641ADDAA103011991AY161031AY261031GF108991071071004501071999MA1999999098641MD1999999+0131MW1611REMSYN082AAXX  19214 48352 21430 80605 10221 20219 39864 40064 76166 8777/ 333 58013 60127;
0213483520999992000052000004+17870+102720FM-12+0175VTUM V0209999C000010075019N0100001N1+02181+02121100761ADDAA103001091AY161061AY261061GF108991071051008001071999KA1120N+02161MA1999999098751MD1999999+0061MW1021REMSYN100AAXX  20004 48352 /1560 80000 10218 20212 39875 40076 60174 70266 8757/ 333 20216 58006 60017 70165;
0148483520999992000052003004+17870+102720FM-12+0175VTUM V0200901N002610075019N0120001N1+02291+02081100841ADDAA199000021GF108991061051008001071999MA1999999098851MD1999999+0021REMSYN070AAXX  20034 48352 32562 80905 10229 20208 39885 40084 8657/ 333 58002;
0154483520999992000052006004+17870+102720FM-12+0175VTUM V0200501N002610075019N0140001N1+02291+02011100701ADDAA124016391GF108991061051008001071999MA1999999098701MD1999999+0001REMSYN076AAXX  20064 48352 32564 80505 10229 20201 39870 40070 8657/ 333 58000 70163;
0182483520999992000052015004+17870+102720FM-12+0175VTUM V0209999C000010075019N0100001N1+02141+01981100831ADDAA103000191AY161031AY221031GF108991061051008001071999MA1999999098821MD1999999+0071MW1021REMSYN082AAXX  20154 48352 21560 80000 10214 20198 39882 40083 70262 8657/ 333 58007 69927;
0182483520999992000052021004+17870+102720FM-12+0175VTUM V0200601N003110075019N0100001N1+02021+01861100721ADDAA103000191AY161031AY221031GF108991061051008001071999MA1999999098711MD1999999+0081MW1021REMSYN082AAXX  20214 48352 21560 80606 10202 20186 39871 40072 70262 8657/ 333 58008 69917;
0213483520999992000052100004+17870+102720FM-12+0175VTUM V0200701N001510075019N0070001N1+02051+01941100871ADDAA101000191AY161061AY221061GF108991071071008001071999KA1120N+02001MA1999999098861MD1999999+0111MW1601REMSYN100AAXX  21004 48352 /1557 80703 10205 20194 39886 40087 60084 76062 8777/ 333 20200 58011 69915 70080;
0182483520999992000052109004+17870+102720FM-12+0175VTUM V0209999C000010075019N0120001N1+02201+02121100681ADDAA103001091AY161031AY261031GF108991061051008001071999MA1999999098681MD1999999+0141MW1021REMSYN082AAXX  21094 48352 21562 80000 10220 20212 39868 40068 70266 8657/ 333 58014 60017;
0213483520999992000052112004+17870+102720FM-12+0175VTUM V0209999C000010075019N0050001N1+02161+01971100791ADDAA103000391AY161061AY261061GF108991071071008001021999KA1120M+02261MA1999999098791MD1999999+0131MW1611REMSYN100AAXX  21124 48352 /1550 80000 10216 20197 39879 40079 60052 76166 8772/ 333 10226 58013 69937 70063;
0213483520999992000052200004+17870+102720FM-12+0175VTUM V0209999C000010075019N0100001N1+02151+02121100991ADDAA103000191AY161061AY261061GF108991061071008001021999KA1120N+02131MA1999999098991MD1999999+0121MW1021REMSYN100AAXX  22004 48352 /1560 80000 10215 20212 39899 40099 60064 70266 8672/ 333 20213 58012 69927 70065;
0167483520999992000052203004+17870+102720FM-12+0175VTUM V0209999C000010075019N0120001N1+02301+02181101101ADDAA199000091GF108991061051008001071999MA1999999099091MD1999999+0151REMSYN070AAXX  22034 48352 32562 80000 10230 20218 39909 40110 8657/ 333 58015;EQDQ01  00002PRCP99
0154483520999992000052206004+17870+102720FM-12+0175VTUM V0203601N001010075019N0130001N1+02481+02211100971ADDAA124003091GF108991061051008001071999MA1999999098981MD1999999+0131REMSYN076AAXX  22064 48352 32563 83602 10248 20221 39898 40097 8657/ 333 58013 70030;
0167483520999992000052209004+17870+102720FM-12+0175VTUM V0209999C000010075019N0140001N1+02551+02241100841ADDAA199000091GF108991061051008001071999MA1999999098861MD1999999+0161REMSYN070AAXX  22094 48352 32564 80000 10255 20224 39886 40084 8657/ 333 58016;EQDQ01  00002PRCP99
0173483520999992000052212004+17870+102720FM-12+0175VTUM V0209999C000010075019N0130001N1+02461+02311100811ADDAA124001591GF108991051051008001071061KA1120M+02621MA1999999098821MD1999999+0021REMSYN082AAXX  22124 48352 32563 80000 10246 20231 39882 40081 85576 333 10262 58002 70016;
0167483520999992000052215004+17870+102720FM-12+0175VTUM V0209999C000010075019N0120001N1+02331+02291101041ADDAA199000091GF106991051051008001001051MA1999999099031MD1999999+0071REMSYN070AAXX  22154 48352 32562 60000 10233 20229 39903 40104 85505 333 58007;EQDQ01  00002PRCP99
0154483520999992000052218004+17870+102720FM-12+0175VTUM V0209999C000010450019N0110001N1+02301+02261100951ADDAA124000591GF106991021051008001031051MA1999999098961MD1999999+0031REMSYN076AAXX  22184 48352 32561 60000 10230 20226 39896 40095 82535 333 58003 70005;
0195483520999992000052221004+17870+102720FM-12+0175VTUM V0209999C000012200019N0060001N1+02261+02231100871ADDAA199000091AY111031AY201031GF101991001001999999001011MA1999999098881MD1999999-0021MW1101REMSYN076AAXX  22214 48352 31956 10000 10226 20223 39888 40087 71010 80001 333 59002;EQDQ01  00002PRCP99
0224483520999992000052300004+17870+102720FM-12+0175VTUM V0209999C000010001519N0001001N1+02281+02271100981ADDAA199000091AY141061AY201061GA1091+999999999GF109991091999999999999999KA1120N+02191MA1999999098981MD1999999-0011MW1451REMSYN076AAXX  23004 48352 31/01 90000 10228 20227 39898 40098 74540 333 20219 59001;EQDQ01  00002PRCP99
0189483520999992000052303004+17870+102720FM-12+0175VTUM V0209999C000012200019N0120001N1+02831+02301100991ADDAA199000091AY141031AY201031GF103991999999008001999999MA1999999099021MD1999999-0111MW1031REMSYN070AAXX  23034 48352 31562 30000 10283 20230 39902 40099 70340 333 59011;EQDQ01  00002PRCP99
0195483520999992000052306004+17870+102720FM-12+0175VTUM V0209999C000012200019N0150001N1+03121+02321100791ADDAA199000091AY141061AY201061GF103991031081008001001001MA1999999098851MD1999999-0181MW1021REMSYN076AAXX  23064 48352 31565 30000 10312 20232 39885 40079 70240 83800 333 59018;EQDQ01  00002PRCP99
0167483520999992000052309004+17870+102720FM-12+0175VTUM V0209999C000012200019N0150001N1+03221+02291100531ADDAA199000091GF103991031091008001001031MA1999999098601MD1999999-0311REMSYN070AAXX  23094 48352 32565 30000 10322 20229 39860 40053 83903 333 59031;EQDQ01  00002PRCP99
0186483520999992000052312004+17870+102720FM-12+0175VTUM V0209999C000010450019N0130001N1+02901+02471100611ADDAA199000091GF106991041081008001071061KA1120M+03281MA1999999098661MD1999999-0201REMSYN076AAXX  23124 48352 32563 60000 10290 20247 39866 40061 84876 333 10328 59020;EQDQ01  00002PRCP99
0167483520999992000052318004+17870+102720FM-12+0175VTUM V0209999C000012200019N0110001N1+02621+02431100821ADDAA199000091GF103991021051008001031051MA1999999098851MD1999999-0131REMSYN070AAXX  23184 48352 32561 30000 10262 20243 39885 40082 82535 333 59013;EQDQ01  00002PRCP99
0186483520999992000052400004+17870+102720FM-12+0175VTUM V0209999C000012200019N0100001N1+02641+02471100831ADDAA199000091GF103991021051008001031051KA1120N+02451MA1999999098851MD1999999-0151REMSYN076AAXX  24004 48352 32560 30000 10264 20247 39885 40083 82535 333 20245 59015;EQDQ01  00002PRCP99
0167483520999992000052403004+17870+102720FM-12+0175VTUM V0209999C000012200019N0130001N1+03111+02471100831ADDAA199000091GF103991031081008001001051MA1999999098891MD1999999-0161REMSYN070AAXX  24034 48352 32563 30000 10311 20247 39889 40083 83805 333 59016;EQDQ01  00002PRCP99
0167483520999992000052406004+17870+102720FM-12+0175VTUM V0209999C000012200019N0150001N1+03371+02451100581ADDAA199000091GF104991031091008001001031MA1999999098661MD1999999-0211REMSYN070AAXX  24064 48352 32565 40000 10337 20245 39866 40058 83903 333 59021;EQDQ01  00002PRCP99
0186483520999992000052412004+17870+102720FM-12+0175VTUM V0201501N001010120019N0130001N1+02971+02471100451ADDAA199000091GF106991051081008001071061KA1120M+03491MA1999999098501MD1999999-0161REMSYN076AAXX  24124 48352 32563 61502 10297 20247 39850 40045 85876 333 10349 59016;EQDQ01  00002PRCP99
0182483520999992000052415004+17870+102720FM-12+0175VTUM V0209999C000010075019N0100001N1+02451+02381100771ADDAA102014091AY191031AY221031GF108991051091008001071061MA1999999098791MD1999999-0081MW1171REMSYN082AAXX  24154 48352 21560 80000 10245 20238 39879 40077 71792 85976 333 59008 60146;
0167483520999992000052421004+17870+102720FM-12+0175VTUM V0209999C000012200019N0100001N1+02421+02351100591ADDAA199000091GF106991021051008001001061MA1999999098601MD1999999-0151REMSYN070AAXX  24214 48352 32560 60000 10242 20235 39860 40059 82506 333 59015;EQDQ01  00002PRCP99
0167483520999992000052503004+17870+102720FM-12+0175VTUM V0209999C000010120019N0150001N1+02981+02511100771ADDAA199000091GF106991051081008001031061MA1999999098831MD1999999-0061REMSYN070AAXX  25034 48352 32565 60000 10298 20251 39883 40077 85836 333 59006;EQDQ01  00002PRCP99
0154483520999992000052506004+17870+102720FM-12+0175VTUM V0202201N001510120019N0180001N1+03301+02561100531ADDAA124014091GF106991051081008001001061MA1999999098601MD1999999-0051REMSYN076AAXX  25064 48352 32568 62203 10330 20256 39860 40053 85806 333 59005 70140;
0167483520999992000052509004+17870+102720FM-12+0175VTUM V0209999C000012200019N0180001N1+03321+02441100271ADDAA199000091GF103991021091008001001031MA1999999098341MD1999999-0071REMSYN070AAXX  25094 48352 32568 30000 10332 20244 39834 40027 82903 333 59007;EQDQ01  00002PRCP99
0201483520999992000052512004+17870+102720FM-12+0175VTUM V0209999C000012200019N0140001N1+03051+02601100331ADDAA124014091AY111061AY201061GF103991021091008001001031KA1120M+03421MA1999999098391MD1999999-0141MW1131REMSYN088AAXX  25124 48352 31564 30000 10305 20260 39839 40033 71310 82903 333 10342 59014 70140;
0167483520999992000052518004+17870+102720FM-12+0175VTUM V0209999C000012200019N0120001N1+02721+02551100551ADDAA199000091GF105991021051008001001061MA1999999098581MD1999999-0141REMSYN070AAXX  25184 48352 32562 50000 10272 20255 39858 40055 82506 333 59014;EQDQ01  00002PRCP99
0167483520999992000052521004+17870+102720FM-12+0175VTUM V0209999C000012200019N0110001N1+02691+02561100481ADDAA199000091GF106991031051008001001061MA1999999098511MD1999999-0011REMSYN070AAXX  25214 48352 32561 60000 10269 20256 39851 40048 83506 333 59001;EQDQ01  00002PRCP99
0186483520999992000052600004+17870+102720FM-12+0175VTUM V0209999C000012200019N0100001N1+02741+02611100621ADDAA199000091GF106991021051008001001061KA1120N+02611MA1999999098651MD1999999-0111REMSYN076AAXX  26004 48352 32560 60000 10274 20261 39865 40062 82506 333 20261 59011;EQDQ01  00002PRCP99
0167483520999992000052603004+17870+102720FM-12+0175VTUM V0202701N001011050019N0150001N1+03151+02481100661ADDAA199000091GF106991041081008001001021MA1999999098721MD1999999-0111REMSYN070AAXX  26034 48352 32565 62702 10315 20248 39872 40066 84802 333 59011;EQDQ01  00002PRCP99
0167483520999992000052609004+17870+102720FM-12+0175VTUM V0209999C000012200019N0150001N1+03341+02431100191ADDAA199000091GF106991031081008001001061MA1999999098271MD1999999-0081REMSYN070AAXX  26094 48352 32565 60000 10334 20243 39827 40019 83806 333 59008;EQDQ01  00002PRCP99
0186483520999992000052612004+17870+102720FM-12+0175VTUM V0209999C000012200019N0140001N1+03031+02541100301ADDAA199000091GF104991031051008001001051KA1120M+03451MA1999999098351MD1999999-0031REMSYN076AAXX  26124 48352 32564 40000 10303 20254 39835 40030 83505 333 10345 59003;EQDQ01  00002PRCP99
0167483520999992000052615004+17870+102720FM-12+0175VTUM V0209999C000012200019N0130001N1+02831+02461100601ADDAA199000091GF102991021051008001001001MA1999999098631MD1999999-0031REMSYN070AAXX  26154 48352 32563 20000 10283 20246 39863 40060 82500 333 59003;EQDQ01  00002PRCP99
0177483520999992000052618004+17870+102720FM-12+0175VTUM V0209999C000012200019N0120001N1+02661+02401100511ADDAA199000091GA1001+999999999GF100991001001999999001001MA1999999098541MD1999999-0041REMSYN064AAXX  26184 48352 32962 00000 10266 20240 39854 40051 333 59004;EQDQ01  00002PRCP99
0167483520999992000052621004+17870+102720FM-12+0175VTUM V0209999C000012200019N0100001N1+02571+02351100501ADDAA199000091GF103991001001999999001051MA1999999098531MD1999999+0021REMSYN070AAXX  26214 48352 32960 30000 10257 20235 39853 40050 80005 333 58002;EQDQ01  00002PRCP99
0186483520999992000052700004+17870+102720FM-12+0175VTUM V0209999C000012200019N0120001N1+02651+02431100561ADDAA199000091GF102991021051008001001001KA1120N+02501MA1999999098601MD1999999-0061REMSYN076AAXX  27004 48352 32562 20000 10265 20243 39860 40056 82500 333 20250 59006;EQDQ01  00002PRCP99
0167483520999992000052703004+17870+102720FM-12+0175VTUM V0209999C000012200019N0120001N1+03221+02411100611ADDAA199000091GF103991021021008001001051MA1999999098681MD1999999-0051REMSYN070AAXX  27034 48352 32562 30000 10322 20241 39868 40061 82205 333 59005;EQDQ01  00002PRCP99
0167483520999992000052706004+17870+102720FM-12+0175VTUM V0209999C000012200019N0150001N1+03401+02391100511ADDAA199000091GF103991031081008001001051MA1999999098591MD1999999+0021REMSYN070AAXX  27064 48352 32565 30000 10340 20239 39859 40051 83805 333 58002;EQDQ01  00002PRCP99
0167483520999992000052709004+17870+102720FM-12+0175VTUM V0209999C000012200019N0130001N1+03481+02371100221ADDAA199000091GF103991021021008001001051MA1999999098321MD1999999+0031REMSYN070AAXX  27094 48352 32563 30000 10348 20237 39832 40022 82205 333 58003;EQDQ01  00002PRCP99
0167483520999992000052715004+17870+102720FM-12+0175VTUM V0209999C000012200019N0120001N1+02901+02551100541ADDAA199000091GF102991021051008001001001MA1999999098581MD1999999-0061REMSYN070AAXX  27154 48352 32562 20000 10290 20255 39858 40054 82500 333 59006;EQDQ01  00002PRCP99
0167483520999992000052721004+17870+102720FM-12+0175VTUM V0209999C000012200019N0100001N1+02651+02451100421ADDAA199000091GF106991031051008001001061MA1999999098461MD1999999-0081REMSYN070AAXX  27214 48352 32560 60000 10265 20245 39846 40042 83506 333 59008;EQDQ01  00002PRCP99
0186483520999992000052800004+17870+102720FM-12+0175VTUM V0209999C000011050019N0120001N1+02731+02561100651ADDAA199000091GF107991031051008001001061KA1120N+02631MA1999999098681MD1999999+0091REMSYN076AAXX  28004 48352 32562 70000 10273 20256 39868 40065 83506 333 20263 58009;EQDQ01  00002PRCP99
0183483520999992000052806004+17870+102720FM-12+0175VTUM V0200401N001012200019N0180001N1+03441+02501100481ADDAA199000091GF103991999021008001001051MA1999999098561MD1999999-0031REMSYN070AAXX  28064 48352 32568 30402 10344 20250 39856 40048 80205 333 59003;EQDQ01+000002SCOTLCQ02  00002PRCP99
0195483520999992000052815004+17870+102720FM-12+0175VTUM V0209999C000012200019N0130001N1+03001+02581100671ADDAA199000091AY101031AY201031GF102991011091008001001031MA1999999098671MD1999999+0081MW1131REMSYN076AAXX  28154 48352 31563 20000 10300 20258 39867 40067 71300 81903 333 58008;EQDQ01  00002PRCP99
0167483520999992000052821004+17870+102720FM-12+0175VTUM V0209999C000010075019N0120001N1+02711+02511100591ADDAA199000091GF108991051051008001071061MA1999999098621MD1999999+0171REMSYN070AAXX  28214 48352 32562 80000 10271 20251 39862 40059 85576 333 58017;EQDQ01  00002PRCP99
0186483520999992000052900004+17870+102720FM-12+0175VTUM V0209999C000012200019N0100001N1+02711+02501100721ADDAA199000091GF105991021051008001001061KA1120N+02651MA1999999098751MD1999999+0071REMSYN076AAXX  29004 48352 32560 50000 10271 20250 39875 40072 82506 333 20265 58007;EQDQ01  00002PRCP99
0167483520999992000052903004+17870+102720FM-12+0175VTUM V0209999C000012200019N0150001N1+03151+02591100741ADDAA199000091GF104991031081008001001051MA1999999098811MD1999999+0061REMSYN070AAXX  29034 48352 32565 40000 10315 20259 39881 40074 83805 333 58006;EQDQ01  00002PRCP99
0167483520999992000052906004+17870+102720FM-12+0175VTUM V0201201N002610120019N0150001N1+03261+02571100571ADDAA199000091GF108991051081008001071061MA1999999098641MD1999999+0091REMSYN070AAXX  29064 48352 32565 81205 10326 20257 39864 40057 85876 333 58009;EQDQ01  00002PRCP99
0182483520999992000052909004+17870+102720FM-12+0175VTUM V0200401N001512200019N0150001N1+03271+02651100321ADDAA103006191AY161031AY221031GF106991031081008001001061MA1999999098391MD1999999+0041MW1011REMSYN082AAXX  29094 48352 21565 60403 10327 20265 39839 40032 70162 83806 333 58004 60067;
0207483520999992000052912004+17870+102720FM-12+0175VTUM V0209999C000010450019N0130001N1+02951+02551100411ADDAA112006191AY161061AY221061GF108991041051008001071061KA1120M+03421MA1999999098461MD1999999+0081MW1031REMSYN094AAXX  29124 48352 11563 80000 10295 20255 39846 40041 60062 70362 84576 333 10342 58008 70060;
0167483520999992000052915004+17870+102720FM-12+0175VTUM V0209999C000010450019N0120001N1+02831+02581100661ADDAA199000091GF106991041031008001051061MA1999999098691MD1999999+0041REMSYN070AAXX  29154 48352 32562 60000 10283 20258 39869 40066 84356 333 58004;EQDQ01  00002PRCP99
0182483520999992000052918004+17870+102720FM-12+0175VTUM V0209999C000012200019N0110001N1+02761+02561100631ADDAA124006191AY121061AY211061GF104991031091008001001031MA1999999098671MD1999999+0061MW1171REMSYN082AAXX  29184 48352 31561 40000 10276 20256 39867 40063 71721 83903 333 58006 70060;
0195483520999992000052921004+17870+102720FM-12+0175VTUM V0209999C000012200019N0100001N1+02561+02281100601ADDAA199000091AY111031AY211031GF104991031091008001001031MA1999999098621MD1999999+0011MW1131REMSYN076AAXX  29214 48352 31560 40000 10256 20228 39862 40060 71311 83903 333 58001;EQDQ01  00002PRCP99
0179483520999992000053000004+17870+102720FM-12+0175VTUM V0209999C000010450019N0100001N1+02541+02381100691ADDAA124006191GF108991041051008001071999KA1120N+02481MA1999999098711MD1999999-0031REMSYN088AAXX  30004 48352 12560 80000 10254 20238 39871 40069 60064 8457/ 333 20248 59003 70060;
0167483520999992000053003004+17870+102720FM-12+0175VTUM V0209999C000010120019N0120001N1+02871+02541100781ADDAA199000091GF108991051081008001071999MA1999999098821MD1999999+0041REMSYN070AAXX  30034 48352 32562 80000 10287 20254 39882 40078 8587/ 333 58004;EQDQ01  00002PRCP99
0167483520999992000053009004+17870+102720FM-12+0175VTUM V0209999C000011050019N0150001N1+03251+02531100261ADDAA199000091GF105991021091008001041031MA1999999098331MD1999999-0061REMSYN070AAXX  30094 48352 32565 50000 10325 20253 39833 40026 82943 333 59006;EQDQ01  00002PRCP99
0186483520999992000053012004+17870+102720FM-12+0175VTUM V0209999C000012200019N0140001N1+03001+02521100411ADDAA199000091GF106991021051008001001061KA1120M+03361MA1999999098461MD1999999+0001REMSYN076AAXX  30124 48352 32564 60000 10300 20252 39846 40041 82506 333 10336 58000;EQDQ01  00002PRCP99
0195483520999992000053021004+17870+102720FM-12+0175VTUM V0209999C000010450019N0110001N1+02601+02381100441ADDAA199000091AY191031AY221031GF106991041091008001031031MA1999999098461MD1999999-0161MW1131REMSYN076AAXX  30214 48352 31561 60000 10260 20238 39846 40044 71392 84933 333 59016;EQDQ01  00002PRCP99
0214483520999992000053100004+17870+102720FM-12+0175VTUM V0209999C000010075019N0120001N1+02571+02411100651ADDAA199000091AY191061AY221061GF108991051051008001071061KA1120N+02541MA1999999098671MD1999999-0041MW1031REMSYN082AAXX  31004 48352 31562 80000 10257 20241 39867 40065 70392 85576 333 20254 59004;EQDQ01  00002PRCP99
0167483520999992000053106004+17870+102720FM-12+0175VTUM V0209999C000010450019N0150001N1+03281+02551100431ADDAA199000091GF106991041091008001041031MA1999999098491MD1999999-0051REMSYN070AAXX  31064 48352 32565 60000 10328 20255 39849 40043 84943 333 59005;EQDQ01  00002PRCP99
0167483520999992000053109004+17870+102720FM-12+0175VTUM V0209999C000012200019N0150001N1+03261+02621100071ADDAA199000091GF103991021091008001001031MA1999999098151MD1999999-0191REMSYN070AAXX  31094 48352 32565 30000 10326 20262 39815 40007 82903 333 59019;EQDQ01  00002PRCP99
0214483520999992000053112004+17870+102720FM-12+0175VTUM V0209999C000010450019N0130001N1+03021+02511100151ADDAA199000091AY111061AY201061GF106991041091008001041031KA1120M+03341MA1999999098221MD1999999-0261MW1131REMSYN082AAXX  31124 48352 31563 60000 10302 20251 39822 40015 71310 84943 333 10334 59026;EQDQ01  00002PRCP99
0195483520999992000053115004+17870+102720FM-12+0175VTUM V0209999C000010075019N0120001N1+02871+02511100411ADDAA199000091AY121031AY221031GF108991061091008001071999MA1999999098451MD1999999-0241MW1171REMSYN076AAXX  31154 48352 31562 80000 10287 20251 39845 40041 71722 8697/ 333 59024;EQDQ01  00002PRCP99
0195483520999992000053118004+17870+102720FM-12+0175VTUM V0209999C000010450019N0120001N1+02651+02361100371ADDAA199000091AY191061AY221061GF107991041091008001061031MA1999999098411MD1999999-0121MW1131REMSYN076AAXX  31184 48352 31562 70000 10265 20236 39841 40037 71392 84963 333 59012;EQDQ01  00002PRCP99
0167483520999992000053121004+17870+102720FM-12+0175VTUM V0209999C000012200019N0110001N1+02541+02331100321ADDAA199000091GF106991041051008001001061MA1999999098341MD1999999-0121REMSYN070AAXX  31214 48352 32561 60000 10254 20233 39834 40032 84506 333 59012;EQDQ01  00002PRCP99
0186483520999992000060100004+17870+102720FM-12+0175VTUM V0209999C000010450019N0100001N1+02551+02381100461ADDAA199000091GF108991041051008001071061KA1120N+02481MA1999999098481MD1999999-0191REMSYN076AAXX  01004 48352 32560 80000 10255 20238 39848 40046 84576 333 20248 59019;EQDQ01  00002PRCP99
0167483520999992000060103004+17870+102720FM-12+0175VTUM V0209999C000010450019N0120001N1+02921+02461100561ADDAA199000091GF106991031051008001031061MA1999999098601MD1999999-0081REMSYN070AAXX  01034 48352 32562 60000 10292 20246 39860 40056 83536 333 59008;EQDQ01  00002PRCP99
0167483520999992000060106004+17870+102720FM-12+0175VTUM V0209999C000012200019N0150001N1+03201+02491100311ADDAA199000091GF105991041021008001001011MA1999999098371MD1999999-0121REMSYN070AAXX  01064 48352 32565 50000 10320 20249 39837 40031 84201 333 59012;EQDQ01  00002PRCP99
0167483520999992000060109004+17870+102720FM-12+0175VTUM V0200801N001011050019N0150001N1+03371+02451100021ADDAA199000091GF105991041081008001001051MA1999999098111MD1999999-0051REMSYN070AAXX  01094 48352 32565 50802 10337 20245 39811 40002 84805 333 59005;EQDQ01  00002PRCP99
0214483520999992000060112004+17870+102720FM-12+0175VTUM V0209999C000011050019N0140001N1+03151+02541100101ADDAA199000091AY121061AY221061GF106991041091008001001031KA1120M+03451MA1999999098171MD1999999-0051MW1131REMSYN082AAXX  01124 48352 31564 60000 10315 20254 39817 40010 71322 84903 333 10345 59005;EQDQ01  00002PRCP99
0182483520999992000060115004+17870+102720FM-12+0175VTUM V0209999C000010075019N0050001N1+02481+02361100541ADDAA102008991AY191031AY221031GF108991061091008001071999MA1999999098551MD1999999+0131MW1951REMSYN082AAXX  01154 48352 21550 80000 10248 20236 39855 40054 79592 8697/ 333 58013 60096;
0194483520999992000060118004+17870+102720FM-12+0175VTUM V0209999C000010075019N0120001N1+02481+02441100551ADDAA103003091AY191061AY221061GF108991051051008001071061MA1999999098571MD1999999+0181MW1021REMSYN094AAXX  01184 48352 /1562 80000 10248 20244 39857 40055 60113 70292 85576 333 58018 60037 70113;
0148483520999992000060121004+17870+102720FM-12+0175VTUM V0209999C000010450019N0110001N1+02451+02361100391ADDAA199000021GF108991041051008001071061MA1999999098411MD1999999+0071REMSYN070AAXX  01214 48352 32561 80000 10245 20236 39841 40039 84576 333 58007;
0173483520999992000060200004+17870+102720FM-12+0175VTUM V0209999C000010450019N0120001N1+02541+02451100471ADDAA124011291GF107991041051008001071061KA1120N+02441MA1999999098491MD1999999+0011REMSYN082AAXX  02004 48352 32562 70000 10254 20245 39849 40047 84576 333 20244 58001 70113;
0148483520999992000060203004+17870+102720FM-12+0175VTUM V0209999C000010450019N0140001N1+02931+02501100541ADDAA199000021GF106991041081008001031061MA1999999098591MD1999999-0021REMSYN070AAXX  02034 48352 32564 60000 10293 20250 39859 40054 84836 333 59002;
0213483520999992000060212004+17870+102720FM-12+0175VTUM V0209999C000010075019N0120001N1+02811+02511100241ADDAA102000191AY161061AY221061GF108991051091008001071031KA1120M+03061MA1999999098291MD1999999+0141MW1171REMSYN100AAXX  02124 48352 /1562 80000 10281 20251 39829 40024 69962 71762 85973 333 10306 58014 69926 70119;
0188483520999992000060218004+17870+102720FM-12+0175VTUM V0209999C000010120019N0100001N1+02561+02471100671ADDAA118003091AY191061AY221061GF107991051081008001071061MA1999999098701MD1999999+0121MW1011REMSYN088AAXX  02184 48352 11560 70000 10256 20247 39870 40067 60033 70192 85876 333 58012 70034;
0167483520999992000060221004+17870+102720FM-12+0175VTUM V0209999C000010075019N0100001N1+02561+02491100441ADDAA199000091GF107991051051008001071061MA1999999098471MD1999999+0051REMSYN070AAXX  02214 48352 32560 70000 10256 20249 39847 40044 85576 333 58005;EQDQ01  00002PRCP99
0173483520999992000060300004+17870+102720FM-12+0175VTUM V0200901N001010450019N0120001N1+02641+02481100581ADDAA124003391GF107991041051008001071061KA1120N+02541MA1999999098611MD1999999+0111REMSYN082AAXX  03004 48352 32562 70902 10264 20248 39861 40058 84576 333 20254 58011 70034;
0167483520999992000060303004+17870+102720FM-12+0175VTUM V0200801N001510075019N0140001N1+02961+02481100621ADDAA199000091GF108991051051008001071061MA1999999098671MD1999999+0081REMSYN070AAXX  03034 48352 32564 80803 10296 20248 39867 40062 85576 333 58008;EQDQ01  00002PRCP99
0167483520999992000060309004+17870+102720FM-12+0175VTUM V0209999C000010450019N0150001N1+02971+02461100351ADDAA199000091GF107991041091008001071031MA1999999098411MD1999999+0171REMSYN070AAXX  03094 48352 32565 70000 10297 20246 39841 40035 84973 333 58017;EQDQ01  00002PRCP99
0167483520999992000060315004+17870+102720FM-12+0175VTUM V0209999C000011050019N0120001N1+02601+02531100661ADDAA199000091GF105991041051008001001051MA1999999098691MD1999999-0041REMSYN070AAXX  03154 48352 32562 50000 10260 20253 39869 40066 84505 333 59004;EQDQ01  00002PRCP99
0167483520999992000060321004+17870+102720FM-12+0175VTUM V0209999C000010075019N0100001N1+02581+02541100641ADDAA199000091GF106991051051008001001051MA1999999098671MD1999999+0201REMSYN070AAXX  03214 48352 32560 60000 10258 20254 39867 40064 85505 333 58020;EQDQ01  00002PRCP99
0173483520999992000060400004+17870+102720FM-12+0175VTUM V0209999C000010120019N0120001N1+02601+02501100761ADDAA124018591GF107991051081008001071061KA1120N+02481MA1999999098781MD1999999+0181REMSYN082AAXX  04004 48352 32562 70000 10260 20250 39878 40076 85876 333 20248 58018 70186;
0167483520999992000060403004+17870+102720FM-12+0175VTUM V0201001N002610075019N0150001N1+03181+02381100831ADDAA199000091GF105991051021008001001001MA1999999098891MD1999999+0211REMSYN070AAXX  04034 48352 32565 51005 10318 20238 39889 40083 85200 333 58021;EQDQ01  00002PRCP99
0167483520999992000060409004+17870+102720FM-12+0175VTUM V0201001N002610075019N0150001N1+03381+02441100431ADDAA199000091GF106991051091008001001031MA1999999098511MD1999999+0081REMSYN070AAXX  04094 48352 32565 61005 10338 20244 39851 40043 85903 333 58008;EQDQ01  00002PRCP99
0186483520999992000060412004+17870+102720FM-12+0175VTUM V0209999C000012200019N0140001N1+02901+02471100491ADDAA199000091GF104991031021008001041051KA1120M+03441MA1999999098531MD1999999+0031REMSYN076AAXX  04124 48352 32564 40000 10290 20247 39853 40049 83245 333 10344 58003;EQDQ01  00002PRCP99
0167483520999992000060415004+17870+102720FM-12+0175VTUM V0201001N001512200019N0120001N1+02781+02491100701ADDAA199000091GF104991041021008001001001MA1999999098741MD1999999+0041REMSYN070AAXX  04154 48352 32562 41003 10278 20249 39874 40070 84200 333 58004;EQDQ01  00002PRCP99
0167483520999992000060418004+17870+102720FM-12+0175VTUM V0209999C000012200019N0110001N1+02671+02501100721ADDAA199000091GF103991031021008001001001MA1999999098751MD1999999+0031REMSYN070AAXX  04184 48352 32561 30000 10267 20250 39875 40072 83200 333 58003;EQDQ01  00002PRCP99
0195483520999992000060421004+17870+102720FM-12+0175VTUM V0209999C000012200019N0100001N1+02601+02461100721ADDAA199000091AY101031AY201031GF102991021091008001001031MA1999999098741MD1999999+0081MW1131REMSYN076AAXX  04214 48352 31560 20000 10260 20246 39874 40072 71300 82903 333 58008;EQDQ01  00002PRCP99
0186483520999992000060500004+17870+102720FM-12+0175VTUM V0209999C000012200019N0120001N1+02631+02471100771ADDAA199000091GF102991021091008001001031KA1120N+02541MA1999999098801MD1999999+0011REMSYN076AAXX  05004 48352 32562 20000 10263 20247 39880 40077 82903 333 20254 58001;EQDQ01  00002PRCP99
0167483520999992000060503004+17870+102720FM-12+0175VTUM V0200901N001510450019N0120001N1+02961+02511100871ADDAA199000091GF105991041081008001031051MA1999999098921MD1999999+0041REMSYN070AAXX  05034 48352 32562 50903 10296 20251 39892 40087 84835 333 58004;EQDQ01  00002PRCP99
0167483520999992000060506004+17870+102720FM-12+0175VTUM V0200901N002110075019N0150001N1+03301+02451100671ADDAA199000091GF105991051021008001001001MA1999999098741MD1999999+0001REMSYN070AAXX  05064 48352 32565 50904 10330 20245 39874 40067 85200 333 58000;EQDQ01  00002PRCP99
0167483520999992000060509004+17870+102720FM-12+0175VTUM V0200601N002610450019N0150001N1+03181+02421100461ADDAA199000091GF105991031091008001041031MA1999999098521MD1999999+0031REMSYN070AAXX  05094 48352 32565 50605 10318 20242 39852 40046 83943 333 58003;EQDQ01  00002PRCP99
0167483520999992000060515004+17870+102720FM-12+0175VTUM V0209999C000012200019N0120001N1+02701+02461100701ADDAA199000091GF101991011011008001001001MA1999999098731MD1999999+0001REMSYN070AAXX  05154 48352 32562 10000 10270 20246 39873 40070 81100 333 58000;EQDQ01  00002PRCP99
0195483520999992000060518004+17870+102720FM-12+0175VTUM V0209999C000012200019N0100001N1+02561+02431100701ADDAA199000091AY111061AY201061GF103991021091008001001031MA1999999098731MD1999999-0021MW1131REMSYN076AAXX  05184 48352 31560 30000 10256 20243 39873 40070 71310 82903 333 59002;EQDQ01  00002PRCP99
0186483520999992000060600004+17870+102720FM-12+0175VTUM V0209999C000010075019N0120001N1+02701+02491100791ADDAA199000091GF106991051051008001001051KA1120N+02501MA1999999098831MD1999999+0021REMSYN076AAXX  06004 48352 32562 60000 10270 20249 39883 40079 85505 333 20250 58002;EQDQ01  00002PRCP99
0167483520999992000060603004+17870+102720FM-12+0175VTUM V0209999C000010120019N0150001N1+03061+02401100861ADDAA199000091GF107991051081008001031051MA1999999098911MD1999999-0011REMSYN070AAXX  06034 48352 32565 70000 10306 20240 39891 40086 85835 333 59001;EQDQ01  00002PRCP99
0183483520999992000060606004+17870+102720FM-12+0175VTUM V0202301N001512200019N0180001N1+03341+02511100641ADDAA199000091GF103991999021008001001051MA1999999098711MD1999999-0031REMSYN070AAXX  06064 48352 32568 32303 10334 20251 39871 40064 80205 333 59003;EQDQ01+000002SCOTLCQ02  00002PRCP99
0167483520999992000060609004+17870+102720FM-12+0175VTUM V0202801N001010450019N0160001N1+03221+02411100481ADDAA199000091GF107991041091008001071031MA1999999098541MD1999999+0021REMSYN070AAXX  06094 48352 32566 72802 10322 20241 39854 40048 84973 333 58002;EQDQ01  00002PRCP99
0214483520999992000060612004+17870+102720FM-12+0175VTUM V0209999C000010450019N0140001N1+02941+02451100531ADDAA199000091AY121061AY211061GF106991041091008001041031KA1120M+03481MA1999999098571MD1999999-0051MW1131REMSYN082AAXX  06124 48352 31564 60000 10294 20245 39857 40053 71321 84943 333 10348 59005;EQDQ01  00002PRCP99
0167483520999992000060615004+17870+102720FM-12+0175VTUM V0209999C000012200019N0130001N1+02791+02521100801ADDAA199000091GF103991021051008001001051MA1999999098841MD1999999+0101REMSYN070AAXX  06154 48352 32563 30000 10279 20252 39884 40080 82505 333 58010;EQDQ01  00002PRCP99
0195483520999992000060618004+17870+102720FM-12+0175VTUM V0209999C000012200019N0120001N1+02701+02511100791ADDAA199000091AY101061AY201061GF101991011091008001001031MA1999999098831MD1999999+0071MW1131REMSYN076AAXX  06184 48352 31562 10000 10270 20251 39883 40079 71300 81903 333 58007;EQDQ01  00002PRCP99
0167483520999992000060621004+17870+102720FM-12+0175VTUM V0209999C000012200019N0110001N1+02651+02511100751ADDAA199000091GF102991001001999999001051MA1999999098781MD1999999+0051REMSYN070AAXX  06214 48352 32961 20000 10265 20251 39878 40075 80005 333 58005;EQDQ01  00002PRCP99
0186483520999992000060700004+17870+102720FM-12+0175VTUM V0209999C000012200019N0110001N1+02711+02551100801ADDAA199000091GF104991031051008001031051KA1120N+02601MA1999999098831MD1999999+0011REMSYN076AAXX  07004 48352 32561 40000 10271 20255 39883 40080 83535 333 20260 58001;EQDQ01  00002PRCP99
0167483520999992000060703004+17870+102720FM-12+0175VTUM V0209999C000012200019N0150001N1+03171+02471100811ADDAA199000091GF103991031081008001001001MA1999999098871MD1999999-0051REMSYN070AAXX  07034 48352 32565 30000 10317 20247 39887 40081 83800 333 59005;EQDQ01  00002PRCP99
0167483520999992000060706004+17870+102720FM-12+0175VTUM V0209999C000012200019N0150001N1+03351+02431100671ADDAA199000091GF103991031081008001001011MA1999999098751MD1999999+0031REMSYN070AAXX  07064 48352 32565 30000 10335 20243 39875 40067 83801 333 58003;EQDQ01  00002PRCP99
0167483520999992000060709004+17870+102720FM-12+0175VTUM V0202101N001012200019N0150001N1+03431+02391100441ADDAA199000091GF105991031081008001001061MA1999999098521MD1999999-0041REMSYN070AAXX  07094 48352 32565 52102 10343 20239 39852 40044 83806 333 59004;EQDQ01  00002PRCP99
0186483520999992000060712004+17870+102720FM-12+0175VTUM V0209999C000012200019N0140001N1+03111+02531100431ADDAA199000091GF106991021051008001001061KA1120M+03521MA1999999098481MD1999999-0101REMSYN076AAXX  07124 48352 32564 60000 10311 20253 39848 40043 82506 333 10352 59010;EQDQ01  00002PRCP99
0167483520999992000060715004+17870+102720FM-12+0175VTUM V0209999C000010450019N0130001N1+02981+02531100671ADDAA199000091GF106991041051008001031061MA1999999098721MD1999999-0131REMSYN070AAXX  07154 48352 32563 60000 10298 20253 39872 40067 84536 333 59013;EQDQ01  00002PRCP99
0195483520999992000060718004+17870+102720FM-12+0175VTUM V0209999C000012200019N0120001N1+02821+02551100641ADDAA199000091AY121061AY211061GF104991041091008001001031MA1999999098671MD1999999-0151MW1131REMSYN076AAXX  07184 48352 31562 40000 10282 20255 39867 40064 71321 84903 333 59015;EQDQ01  00002PRCP99
0182483520999992000060721004+17870+102720FM-12+0175VTUM V0203601N001510075019N0070001N1+02521+02391100741ADDAA101000591AY191031AY211031GF108991061091008001071999MA1999999098751MD1999999-0011MW1951REMSYN082AAXX  07214 48352 21557 83603 10252 20239 39875 40074 79591 8697/ 333 59001 69955;
0213483520999992000060800004+17870+102720FM-12+0175VTUM V0209999C000010075019N0100001N1+02501+02381100851ADDAA103001091AY191061AY261061GF108991061051008001071999KA1120N+02481MA1999999098871MD1999999+0051MW1211REMSYN100AAXX  08004 48352 /1560 80000 10250 20238 39887 40085 60024 72196 8657/ 333 20248 58005 60017 70019;
0148483520999992000060803004+17870+102720FM-12+0175VTUM V0209999C000010075019N0140001N1+02701+02441100981ADDAA199000021GF108991051051008001071061MA1999999098991MD1999999+0171REMSYN070AAXX  08034 48352 32564 80000 10270 20244 39899 40098 85576 333 58017;
0154483520999992000060806004+17870+102720FM-12+0175VTUM V0200901N001010450019N0150001N1+02921+02581100761ADDAA124001891GF108991041051008001071061MA1999999098801MD1999999+0091REMSYN076AAXX  08064 48352 32565 80902 10292 20258 39880 40076 84576 333 58009 70019;
0148483520999992000060809004+17870+102720FM-12+0175VTUM V0209999C000010450019N0140001N1+03101+02541100531ADDAA199000021GF106991041081008001031061MA1999999098591MD1999999+0091REMSYN070AAXX  08094 48352 32564 60000 10310 20254 39859 40053 84836 333 58009;
0173483520999992000060812004+17870+102720FM-12+0175VTUM V0209999C000010450019N0140001N1+02911+02631100521ADDAA124001891GF106991041051008001071061KA1120M+03171MA1999999098561MD1999999+0091REMSYN082AAXX  08124 48352 32564 60000 10291 20263 39856 40052 84576 333 10317 58009 70019;
0195483520999992000060815004+17870+102720FM-12+0175VTUM V0209999C000010450019N0130001N1+02821+02621100721ADDAA199000091AY121031AY221031GF106991041091008001041031MA1999999098761MD1999999+0051MW1131REMSYN076AAXX  08154 48352 31563 60000 10282 20262 39876 40072 71322 84943 333 58005;EQDQ01  00002PRCP99
0194483520999992000060818004+17870+102720FM-12+0175VTUM V0209999C000010075019N0120001N1+02501+02341100681ADDAA101000391AY121061AY221061GF108991061051008001071999MA1999999098701MD1999999+0041MW1211REMSYN094AAXX  08184 48352 /1562 80000 10250 20234 39870 40068 69933 72122 8657/ 333 58004 69935 70022;
0182483520999992000060821004+17870+102720FM-12+0175VTUM V0209999C000010075019N0060001N1+02451+02381100661ADDAA101000591AY161031AY221031GF108991061051008001071999MA1999999098681MD1999999-0081MW1601REMSYN082AAXX  08214 48352 21556 80000 10245 20238 39868 40066 76062 8657/ 333 59008 69945;
0213483520999992000060900004+17870+102720FM-12+0175VTUM V0209999C000010075019N0060001N1+02531+02441100831ADDAA101000191AY161061AY261061GF108991051051008001071061KA1120N+02461MA1999999098851MD1999999-0021MW1601REMSYN100AAXX  09004 48352 /1556 80000 10253 20244 39885 40083 69994 76066 85576 333 20246 59002 69925 70009;
0182483520999992000060903004+17870+102720FM-12+0175VTUM V0209999C000010120019N0150001N1+02811+02471100841ADDAA103000191AY161031AY221031GF108991051081008001071061MA1999999098881MD1999999-0141MW1021REMSYN082AAXX  09034 48352 21565 80000 10281 20247 39888 40084 70262 85876 333 59014 69917;
0182483520999992000060906004+17870+102720FM-12+0175VTUM V0200101N001010120019N0150001N1+03031+02521100661ADDAA124001091AY161061AY221061GF108991051081008001071061MA1999999098711MD1999999-0101MW1021REMSYN082AAXX  09064 48352 31565 80102 10303 20252 39871 40066 70262 85876 333 59010 70010;
0148483520999992000060909004+17870+102720FM-12+0175VTUM V0200301N002610450019N0160001N1+03001+02531100471ADDAA199000021GF108991041091008001071061MA1999999098531MD1999999-0061REMSYN070AAXX  09094 48352 32566 80305 10300 20253 39853 40047 84976 333 59006;
0173483520999992000060912004+17870+102720FM-12+0175VTUM V0209999C000010450019N0140001N1+02801+02471100541ADDAA124001091GF108991041051008001071061KA1120M+03061MA1999999098571MD1999999+0021REMSYN082AAXX  09124 48352 32564 80000 10280 20247 39857 40054 84576 333 10306 58002 70010;
0195483520999992000060915004+17870+102720FM-12+0175VTUM V0209999C000010450019N0130001N1+02711+02521100721ADDAA199000091AY121031AY221031GF107991041091008001071061MA1999999098751MD1999999+0001MW1131REMSYN076AAXX  09154 48352 31563 70000 10271 20252 39875 40072 71322 84976 333 58000;EQDQ01  00002PRCP99
0154483520999992000060918004+17870+102720FM-12+0175VTUM V0209999C000010075019N0120001N1+02701+02591100631ADDAA124000891GF108991051051008001071061MA1999999098661MD1999999-0051REMSYN076AAXX  09184 48352 32562 80000 10270 20259 39866 40063 85576 333 59005 70007;
0167483520999992000060921004+17870+102720FM-12+0175VTUM V0209999C000010075019N0100001N1+02651+02551100581ADDAA199000091GF108991051051008001071061MA1999999098611MD1999999-0081REMSYN070AAXX  09214 48352 32560 80000 10265 20255 39861 40058 85576 333 59008;EQDQ01  00002PRCP99
0173483520999992000061000004+17870+102720FM-12+0175VTUM V0209999C000010450019N0100001N1+02651+02521100741ADDAA124000191GF108991041051008001071061KA1120N+02601MA1999999098771MD1999999-0091REMSYN082AAXX  10004 48352 32560 80000 10265 20252 39877 40074 84576 333 20260 59009 70001;
0167483520999992000061003004+17870+102720FM-12+0175VTUM V0209999C000010450019N0120001N1+02901+02551100831ADDAA199000091GF108991041051008001071061MA1999999098881MD1999999-0011REMSYN070AAXX  10034 48352 32562 80000 10290 20255 39888 40083 84576 333 59001;EQDQ01  00002PRCP99
0167483520999992000061006004+17870+102720FM-12+0175VTUM V0202901N001510120019N0150001N1+03291+02481100611ADDAA199000091GF106991051081008001001061MA1999999098681MD1999999-0051REMSYN070AAXX  10064 48352 32565 62903 10329 20248 39868 40061 85806 333 59005;EQDQ01  00002PRCP99
0167483520999992000061009004+17870+102720FM-12+0175VTUM V0201801N001010120019N0140001N1+03111+02561100411ADDAA199000091GF108991051081008001071061MA1999999098471MD1999999-0061REMSYN070AAXX  10094 48352 32564 81802 10311 20256 39847 40041 85876 333 59006;EQDQ01  00002PRCP99
0186483520999992000061012004+17870+102720FM-12+0175VTUM V0209999C000010120019N0130001N1+02971+02591100481ADDAA199000091GF108991051081008001071061KA1120M+03371MA1999999098531MD1999999-0061REMSYN076AAXX  10124 48352 32563 80000 10297 20259 39853 40048 85876 333 10337 59006;EQDQ01  00002PRCP99
0167483520999992000061015004+17870+102720FM-12+0175VTUM V0209999C000010450019N0120001N1+02771+02481100671ADDAA199000091GF107991041051008001071061MA1999999098711MD1999999-0051REMSYN070AAXX  10154 48352 32562 70000 10277 20248 39871 40067 84576 333 59005;EQDQ01  00002PRCP99
0186483520999992000061100004+17870+102720FM-12+0175VTUM V0209999C000010075019N0120001N1+02571+02471100751ADDAA199000091GF108991051051008001071999KA1120N+02531MA1999999098771MD1999999+0011REMSYN076AAXX  11004 48352 32562 80000 10257 20247 39877 40075 8557/ 333 20253 58001;EQDQ01  00002PRCP99
0167483520999992000061103004+17870+102720FM-12+0175VTUM V0209999C000010120019N0140001N1+03021+02521100781ADDAA199000091GF107991061081008001031061MA1999999098831MD1999999-0051REMSYN070AAXX  11034 48352 32564 70000 10302 20252 39883 40078 86836 333 59005;EQDQ01  00002PRCP99
0167483520999992000061106004+17870+102720FM-12+0175VTUM V0202301N001510075019N0150001N1+03261+02501100551ADDAA199000091GF106991051091008001041031MA1999999098621MD1999999-0061REMSYN070AAXX  11064 48352 32565 62303 10326 20250 39862 40055 85943 333 59006;EQDQ01  00002PRCP99
0167483520999992000061109004+17870+102720FM-12+0175VTUM V0209999C000010075019N0140001N1+03121+02281100401ADDAA199000091GF108991051091008001071031MA1999999098461MD1999999-0011REMSYN070AAXX  11094 48352 32564 80000 10312 20228 39846 40040 85973 333 59001;EQDQ01  00002PRCP99
0182483520999992000061115004+17870+102720FM-12+0175VTUM V0209999C000010120019N0110001N1+02651+02581100731ADDAA103011991AY161031AY261031GF108991051081008001071061MA1999999098761MD1999999+0061MW1021REMSYN082AAXX  11154 48352 21561 80000 10265 20258 39876 40073 70266 85876 333 58006 60127;
0167483520999992000061118004+17870+102720FM-12+0175VTUM V0209999C000010075019N0100001N1+02581+02511100611ADDAA199000091GF108991061051008001071999MA1999999098641MD1999999-0021REMSYN070AAXX  11184 48352 32560 80000 10258 20251 39864 40061 8657/ 333 59002;EQDQ01  00002PRCP99
0173483520999992000061200004+17870+102720FM-12+0175VTUM V0209999C000010075019N0130001N1+02611+02511100711ADDAA124016591GF106991051051008001001051KA1120N+02531MA1999999098731MD1999999-0041REMSYN082AAXX  12004 48352 32563 60000 10261 20251 39873 40071 85505 333 20253 59004 70166;
0167483520999992000061203004+17870+102720FM-12+0175VTUM V0203201N001011050019N0160001N1+03091+02431100721ADDAA199000091GF105991041021008001001051MA1999999098781MD1999999-0061REMSYN070AAXX  12034 48352 32566 53202 10309 20243 39878 40072 84205 333 59006;EQDQ01  00002PRCP99
0167483520999992000061209004+17870+102720FM-12+0175VTUM V0209999C000010450019N0160001N1+03201+02491100321ADDAA199000091GF106991041081008001031061MA1999999098391MD1999999-0081REMSYN070AAXX  12094 48352 32566 60000 10320 20249 39839 40032 84836 333 59008;EQDQ01  00002PRCP99
0173483520999992000061212004+17870+102720FM-12+0175VTUM V0209999C000010075019N0140001N1+02951+02521100381ADDAA124012291GF107991051051008001071061KA1120M+03261MA1999999098431MD1999999-0111REMSYN082AAXX  12124 48352 32564 70000 10295 20252 39843 40038 85576 333 10326 59011 70122;
0194483520999992000061218004+17870+102720FM-12+0175VTUM V0209999C000010075019N0120001N1+02511+02421100591ADDAA103000191AY191061AY261061GF108991051051008001071999MA1999999098611MD1999999-0131MW1021REMSYN094AAXX  12184 48352 /1562 80000 10251 20242 39861 40059 60163 70296 8557/ 333 59013 69927 70155;
0167483520999992000061221004+17870+102720FM-12+0175VTUM V0209999C000010075019N0100001N1+02481+02391100571ADDAA199000091GF106991051051008001001051MA1999999098591MD1999999-0041REMSYN070AAXX  12214 48352 32560 60000 10248 20239 39859 40057 85505 333 59004;EQDQ01  00002PRCP99
0173483520999992000061300004+17870+102720FM-12+0175VTUM V0209999C000010075019N0120001N1+02481+02381100691ADDAA124015591GF108991051051008001071061KA1120N+02431MA1999999098711MD1999999-0021REMSYN082AAXX  13004 48352 32562 80000 10248 20238 39871 40069 85576 333 20243 59002 70155;
0167483520999992000061303004+17870+102720FM-12+0175VTUM V0209999C000010450019N0150001N1+02871+02441100801ADDAA199000091GF106991041051008001071061MA1999999098841MD1999999+0081REMSYN070AAXX  13034 48352 32565 60000 10287 20244 39884 40080 84576 333 58008;EQDQ01  00002PRCP99
0167483520999992000061309004+17870+102720FM-12+0175VTUM V0209999C000010120019N0140001N1+02921+02451100521ADDAA199000091GF108991051081008001071061MA1999999098571MD1999999+0201REMSYN070AAXX  13094 48352 32564 80000 10292 20245 39857 40052 85876 333 58020;EQDQ01  00002PRCP99
0167483520999992000061315004+17870+102720FM-12+0175VTUM V0209999C000012200019N0120001N1+02701+02491100731ADDAA199000091GF104991031051008001031051MA1999999098761MD1999999+0041REMSYN070AAXX  13154 48352 32562 40000 10270 20249 39876 40073 83535 333 58004;EQDQ01  00002PRCP99
0167483520999992000061318004+17860+102720FM-12+0175VTUM V0209999C000010450019N0110001N1+02661+02531100671ADDAA199000091GF106991031051008001071061MA1999999098701MD1999999+0081REMSYN070AAXX  13184 48352 32561 60000 10266 20253 39870 40067 83576 333 58008;EQDQ01  00002PRCP99
0167483520999992000061321004+17860+102720FM-12+0175VTUM V0209999C000010450019N0100001N1+02621+02521100651ADDAA199000091GF106991041051008001071061MA1999999098671MD1999999+0081REMSYN070AAXX  13214 48352 32560 60000 10262 20252 39867 40065 84576 333 58008;EQDQ01  00002PRCP99
0186483520999992000061400004+17860+102720FM-12+0175VTUM V0209999C000010075019N0100001N1+02611+02521100641ADDAA199000091GF108991051051008001071061KA1120N+02581MA1999999098671MD1999999-0051REMSYN076AAXX  14004 48352 32560 80000 10261 20252 39867 40064 85576 333 20258 59005;EQDQ01  00002PRCP99
0167483520999992000061403004+17860+102720FM-12+0175VTUM V0209999C000010450019N0150001N1+02821+02511100741ADDAA199000091GF107991041081008001071061MA1999999098781MD1999999-0061REMSYN070AAXX  14034 48352 32565 70000 10282 20251 39878 40074 84876 333 59006;EQDQ01  00002PRCP99
0167483520999992000061406004+17860+102720FM-12+0175VTUM V0209999C000010450019N0150001N1+03171+02471100561ADDAA199000091GF106991041081008001031061MA1999999098631MD1999999-0111REMSYN070AAXX  14064 48352 32565 60000 10317 20247 39863 40056 84836 333 59011;EQDQ01  00002PRCP99
0167483520999992000061409004+17860+102720FM-12+0175VTUM V0209999C000010450019N0140001N1+03151+02471100311ADDAA199000091GF106991041081008001031061MA1999999098371MD1999999-0211REMSYN070AAXX  14094 48352 32564 60000 10315 20247 39837 40031 84836 333 59021;EQDQ01  00002PRCP99
0186483520999992000061412004+17860+102720FM-12+0175VTUM V0209999C000012200019N0140001N1+02951+02541100371ADDAA199000091GF104991041081008001031051KA1120M+03321MA1999999098421MD1999999-0201REMSYN076AAXX  14124 48352 32564 40000 10295 20254 39842 40037 84835 333 10332 59020;EQDQ01  00002PRCP99
0167483520999992000061415004+17860+102720FM-12+0175VTUM V0209999C000010075019N0130001N1+02821+02551100591ADDAA199000091GF108991051051008001071061MA1999999098631MD1999999-0141REMSYN070AAXX  14154 48352 32563 80000 10282 20255 39863 40059 85576 333 59014;EQDQ01  00002PRCP99
0194483520999992000061418004+17860+102720FM-12+0175VTUM V0201801N001010075019N0100001N1+02651+02511100491ADDAA102003091AY161061AY221061GF108991061091008001071999MA1999999098521MD1999999-0181MW1951REMSYN094AAXX  14184 48352 /1560 81802 10265 20251 39852 40049 60033 79562 8697/ 333 59018 60036 70033;
0182483520999992000061421004+17860+102720FM-12+0175VTUM V0209999C000010075019N0070001N1+02471+02341100501ADDAA101000191AY191031AY221031GF108991061051008001071999MA1999999098521MD1999999-0151MW1601REMSYN082AAXX  14214 48352 21557 80000 10247 20234 39852 40050 76092 8657/ 333 59015 69925;
0213483520999992000061500004+17860+102720FM-12+0175VTUM V0209999C000010075019N0060001N1+02451+02381100641ADDAA103001091AY191061AY261061GF108991061051008001071999KA1120N+02431MA1999999098661MD1999999+0001MW1611REMSYN100AAXX  15004 48352 /1556 80000 10245 20238 39866 40064 60044 76196 8657/ 333 20243 58000 60017 70048;
0182483520999992000061503004+17860+102720FM-12+0175VTUM V0209999C000010075019N0120001N1+02821+02481100721ADDAA103000591AY161031AY221031GF108991061051008001071999MA1999999098751MD1999999-0021MW1021REMSYN082AAXX  15034 48352 21562 80000 10282 20248 39875 40072 70262 8657/ 333 59002 69967;
0188483520999992000061506004+17860+102720FM-12+0175VTUM V0202201N001010450019N0150001N1+03151+02511100451ADDAA106000591AY161061AY221061GF107991041081008001071061MA1999999098511MD1999999-0111MW1011REMSYN088AAXX  15064 48352 11565 72202 10315 20251 39851 40045 69961 70162 84876 333 59011 70054;
0148483520999992000061509004+17860+102720FM-12+0175VTUM V0209999C000011050019N0160001N1+03301+02531100151ADDAA199000021GF105991041081008001001051MA1999999098231MD1999999-0161REMSYN070AAXX  15094 48352 32566 50000 10330 20253 39823 40015 84805 333 59016;
0213483520999992000061512004+17860+102720FM-12+0175VTUM V0209999C000010075019N0060001N1+02531+02371100291ADDAA102007191AY191061AY221061GF108991061091008001071999KA1120M+03361MA1999999098321MD1999999-0081MW1951REMSYN100AAXX  15124 48352 /1556 80000 10253 20237 39832 40029 60082 79592 8697/ 333 10336 59008 60076 70128;
0194483520999992000061518004+17860+102720FM-12+0175VTUM V0209999C000010042019N0060001N1+02501+02431100541ADDAA103002091AY191061AY261061GF108991051071004501021999MA1999999098551MD1999999+0051MW1601REMSYN094AAXX  15184 48352 /1456 80000 10250 20243 39855 40054 60133 76096 8572/ 333 58005 60027 70149;
0182483520999992000061521004+17860+102720FM-12+0175VTUM V0209999C000010042019N0100001N1+02451+02421100441ADDAA103000191AY161031AY221031GF108991051051004501071061MA1999999098461MD1999999-0061MW1021REMSYN082AAXX  15214 48352 21460 80000 10245 20242 39846 40044 70262 85576 333 59006 69927;
0207483520999992000061600004+17860+102720FM-12+0175VTUM V0209999C000010075019N0100001N1+02451+02361100521ADDAA124014091AY161061AY221061GF108991061051008001071999KA1120N+02431MA1999999098541MD1999999-0121MW1021REMSYN094AAXX  16004 48352 11560 80000 10245 20236 39854 40052 60144 70262 8657/ 333 20243 59012 70136;
0148483520999992000061603004+17860+102720FM-12+0175VTUM V0209999C000010075019N0120001N1+02671+02481100601ADDAA199000021GF108991061051008001071999MA1999999098631MD1999999-0121REMSYN070AAXX  16034 48352 32562 80000 10267 20248 39863 40060 8657/ 333 59012;
0154483520999992000061606004+17860+102720FM-12+0175VTUM V0209999C000010120019N0150001N1+03041+02501100421ADDAA124013091GF107991051081008001071061MA1999999098471MD1999999-0031REMSYN076AAXX  16064 48352 32565 70000 10304 20250 39847 40042 85876 333 59003 70130;
0167483520999992000061609004+17860+102720FM-12+0175VTUM V0201801N001010075019N0150001N1+03181+02581100131ADDAA199000091GF106991051091008001041031MA1999999098211MD1999999-0021REMSYN070AAXX  16094 48352 32565 61802 10318 20258 39821 40013 85943 333 59002;EQDQ01  00002PRCP99
0201483520999992000061612004+17860+102720FM-12+0175VTUM V0209999C000010450019N0140001N1+02951+02581100211ADDAA124005691AY121061AY221061GF107991041091008001071031KA1120M+03231MA1999999098281MD1999999-0081MW1131REMSYN088AAXX  16124 48352 31564 70000 10295 20258 39828 40021 71322 84973 333 10323 59008 70056;
0195483520999992000061615004+17860+102720FM-12+0175VTUM V0209999C000010075019N0120001N1+02611+02421100461ADDAA199000091AY121031AY221031GF106991051091008001041031MA1999999098491MD1999999-0131MW1131REMSYN076AAXX  16154 48352 31562 60000 10261 20242 39849 40046 71322 85943 333 59013;EQDQ01  00002PRCP99
0194483520999992000061618004+17860+102720FM-12+0175VTUM V0209999C000010042019N0050001N1+02471+02411100501ADDAA103004191AY161061AY221061GF108991061071004501021999MA1999999098511MD1999999-0041MW1611REMSYN094AAXX  16184 48352 /1450 80000 10247 20241 39851 40050 60043 76162 8672/ 333 59004 60047 70044;
0182483520999992000061621004+17860+102720FM-12+0175VTUM V0209999C000010042019N0040001N1+02471+02431100381ADDAA103007991AY161031AY261031GF108991061071004501021999MA1999999098401MD1999999-0061MW1611REMSYN082AAXX  16214 48352 21440 80000 10247 20243 39840 40038 76166 8672/ 333 59006 60087;
0213483520999992000061700004+17860+102720FM-12+0175VTUM V0209999C000010075019N0050001N1+02501+02461100591ADDAA103002091AY161061AY261061GF108991071071008001021999KA1120N+02431MA1999999098611MD1999999+0071MW1611REMSYN100AAXX  17004 48352 /1550 80000 10250 20246 39861 40059 60154 76166 8772/ 333 20243 58007 60027 70149;
0182483520999992000061703004+17860+102720FM-12+0175VTUM V0209999C000010075019N0040001N1+02601+02511100681ADDAA103002091AY161031AY261031GF108991071071008001021999MA1999999098701MD1999999+0081MW1611REMSYN082AAXX  17034 48352 21540 80000 10260 20251 39870 40068 76166 8772/ 333 58008 60027;
0194483520999992000061706004+17860+102720FM-12+0175VTUM V0209999C000010120019N0150001N1+02911+02531100491ADDAA103000191AY161061AY261061GF107991061081008001031061MA1999999098531MD1999999+0071MW1011REMSYN094AAXX  17064 48352 /1565 70000 10291 20253 39853 40049 60021 70166 86836 333 58007 69927 70171;
0148483520999992000061708004+17860+102720FM-12+0175VTUM V0209999C000010075019N0150001N1+03061+02481100241ADDAA199000021GF106991051091008001041031MA1999999098311MD1999999+0111REMSYN070AAXX  17084 48352 32565 60000 10306 20248 39831 40024 85943 333 58011;
0148483520999992000061709004+17860+102720FM-12+0175VTUM V0209999C000010075019N0150001N1+03061+02481100241ADDAA199000021GF106991051091008001041031MA1999999098311MD1999999+0111REMSYN070AAXX  17094 48352 32565 60000 10306 20248 39831 40024 85943 333 58011;
0173483520999992000061712004+17860+102720FM-12+0175VTUM V0209999C000010120019N0150001N1+02901+02561100251ADDAA124017091GF106991051081008001031051KA1120M+03131MA1999999098311MD1999999+0041REMSYN082AAXX  17124 48352 32565 60000 10290 20256 39831 40025 85835 333 10313 58004 70171;
0148483520999992000061715004+17860+102720FM-12+0175VTUM V0209999C000010120019N0120001N1+02751+02491100551ADDAA199000021GF108991061081008001071999MA1999999098591MD1999999+0091REMSYN070AAXX  17154 48352 32562 80000 10275 20249 39859 40055 8687/ 333 58009;
0194483520999992000061718004+17860+102720FM-12+0175VTUM V0209999C000010075019N0020001N1+02421+02381100621ADDAA101017091AY121061AY221061GF108991061091008001071999MA1999999098631MD1999999+0121MW1951REMSYN094AAXX  17184 48352 /1520 80000 10242 20238 39863 40062 60193 79522 8697/ 333 58012 60175 70301;
0213483520999992000061721004+17860+102720FM-12+0175VTUM V0209999C000010075019N0010001N1+02361+02351100691ADDAA103016091AY161031AY261031GF108991071071008001021999KA1120N+02351MA1999999098631MD1999999+0101MW1611REMSYN100AAXX  17214 48352 /1510 80000 10236 20235 39863 40069 60514 76166 8772/ 333 20235 58010 60167 70505;
0182483520999992000061803004+17860+102720FM-12+0175VTUM V0209999C000010120019N0120001N1+02521+02381100761ADDAA103005191AY161031AY261031GF108991061081008001071999MA1999999098781MD1999999+0081MW1211REMSYN082AAXX  18034 48352 21562 80000 10252 20238 39878 40076 72166 8687/ 333 58008 60057;
0188483520999992000061806004+17860+102720FM-12+0175VTUM V0209999C000010120019N0150001N1+02951+02511100591ADDAA106005191AY161061AY221061GF106991051081008001031061MA1999999098651MD1999999+0101MW1011REMSYN088AAXX  18064 48352 11565 60000 10295 20251 39865 40059 60051 70162 85836 333 58010 70530;
0148483520999992000061809004+17860+102720FM-12+0175VTUM V0209999C000010450019N0150001N1+03111+02381100341ADDAA199000021GF106991031091008001031031MA1999999098391MD1999999+0101REMSYN070AAXX  18094 48352 32565 60000 10311 20238 39839 40034 83933 333 58010;
0173483520999992000061812004+17860+102720FM-12+0175VTUM V0209999C000010450019N0130001N1+02971+02521100361ADDAA124053191GF107991041081008001031061KA1120M+03161MA1999999098411MD1999999+0111REMSYN082AAXX  18124 48352 32563 70000 10297 20252 39841 40036 84836 333 10316 58011 70530;
0148483520999992000061815004+17860+102720FM-12+0175VTUM V0209999C000012200019N0120001N1+02811+02531100571ADDAA199000021GF103991021011008001041051MA1999999098611MD1999999+0021REMSYN070AAXX  18154 48352 32562 30000 10281 20253 39861 40057 82145 333 58002;
0154483520999992000061818004+17860+102720FM-12+0175VTUM V0209999C000010120019N0100001N1+02721+02551100561ADDAA124035891GF107991051081008001071061MA1999999098591MD1999999-0061REMSYN076AAXX  18184 48352 32560 70000 10272 20255 39859 40056 85876 333 59006 70358;
0182483520999992000061821004+17860+102720FM-12+0175VTUM V0209999C000010075019N0050001N1+02471+02401100581ADDAA101000191AY121031AY221031GF108991061091008001071999MA1999999098591MD1999999-0031MW1951REMSYN082AAXX  18214 48352 21550 80000 10247 20240 39859 40058 79522 8697/ 333 59003 69925;
0213483520999992000061900004+17860+102720FM-12+0175VTUM V0209999C000010075019N0050001N1+02441+02381100671ADDAA103006191AY191061AY261061GF108991061071008001021999KA1120N+02401MA1999999098681MD1999999-0021MW1611REMSYN100AAXX  19004 48352 /1550 80000 10244 20238 39868 40067 60114 76196 8672/ 333 20240 59002 60067 70112;
0182483520999992000061903004+17860+102720FM-12+0175VTUM V0203501N001010450019N0120001N1+02721+02511100741ADDAA103001091AY161031AY221031GF106991041051008001031061MA1999999098771MD1999999-0021MW1021REMSYN082AAXX  19034 48352 21562 63502 10272 20251 39877 40074 70262 84536 333 59002 60017;
0194483520999992000061906004+17860+102720FM-12+0175VTUM V0200801N001010075019N0080001N1+02821+02541100601ADDAA101000391AY161061AY221061GF108991061051008001071999MA1999999098641MD1999999+0011MW1601REMSYN094AAXX  19064 48352 /1558 80802 10282 20254 39864 40060 60011 76062 8657/ 333 58001 69935 70079;
0182483520999992000061909004+17860+102720FM-12+0175VTUM V0201701N001010450019N0150001N1+02931+02431100341ADDAA103000891AY161031AY221031GF106991041051008001031061MA1999999098391MD1999999+0001MW1011REMSYN082AAXX  19094 48352 21565 61702 10293 20243 39839 40034 70162 84536 333 58000 69977;
0148483520999992000061915004+17860+102720FM-12+0175VTUM V0209999C000012200019N0130001N1+02551+02431100611ADDAA199000021GF106991041051008001001061MA1999999098631MD1999999+0041REMSYN070AAXX  19154 48352 32563 60000 10255 20243 39863 40061 84506 333 58004;
0154483520999992000061918004+17860+102720FM-12+0175VTUM V0209999C000012200019N0120001N1+02521+02431100611ADDAA124008691GF106991041051008001001061MA1999999098631MD1999999+0051REMSYN076AAXX  19184 48352 32562 60000 10252 20243 39863 40061 84506 333 58005 70086;
0167483520999992000061921004+17860+102720FM-12+0175VTUM V0209999C000010450019N0110001N1+02521+02421100491ADDAA199000091GF108991041051008001071061MA1999999098581MD1999999-0091REMSYN070AAXX  19214 48352 32561 80000 10252 20242 39858 40049 84576 333 59009;EQDQ01  00002PRCP99
0179483520999992000062000004+17860+102720FM-12+0175VTUM V0209999C000010120019N0100001N1+02541+02451100631ADDAA124002091GF108991051081008001071999KA1120N+02451MA1999999098651MD1999999-0041REMSYN088AAXX  20004 48352 12560 80000 10254 20245 39865 40063 60024 8587/ 333 20245 59004 70021;
0167483520999992000062003004+17860+102720FM-12+0175VTUM V0209999C000010120019N0120001N1+02711+02481100731ADDAA199000091GF108991061081008001071999MA1999999098761MD1999999-0011REMSYN070AAXX  20034 48352 32562 80000 10271 20248 39876 40073 8687/ 333 59001;EQDQ01  00002PRCP99
0154483520999992000062006004+17860+102720FM-12+0175VTUM V0209999C000010075019N0150001N1+03001+02431100581ADDAA124000891GF107991051091008001031031MA1999999098631MD1999999-0021REMSYN076AAXX  20064 48352 32565 70000 10300 20243 39863 40058 85933 333 59002 70007;
0167483520999992000062009004+17860+102720FM-12+0175VTUM V0209999C000010075019N0150001N1+03091+02491100371ADDAA199000091GF106991051091008001041031MA1999999098421MD1999999+0031REMSYN070AAXX  20094 48352 32565 60000 10309 20249 39842 40037 85943 333 58003;EQDQ01  00002PRCP99
0214483520999992000062012004+17860+102720FM-12+0175VTUM V0209999C000010075019N0140001N1+02911+02531100421ADDAA199000091AY121061AY221061GF107991051091008001031031KA1120M+03201MA1999999098471MD1999999-0021MW1131REMSYN082AAXX  20124 48352 31564 70000 10291 20253 39847 40042 71322 85933 333 10320 59002;EQDQ01  00002PRCP99
0182483520999992000062015004+17860+102720FM-12+0175VTUM V0209999C000010075019N0050001N1+02481+02361100621ADDAA102015091AY191031AY221031GF108991051091008001071999MA1999999098681MD1999999+0061MW1951REMSYN082AAXX  20154 48352 21550 80000 10248 20236 39868 40062 79592 8597/ 333 58006 60156;
0182483520999992000062021004+17860+102720FM-12+0175VTUM V0209999C000010075019N0100001N1+02541+02481100591ADDAA103000391AY161031AY261031GF108991061091008001071999MA1999999098611MD1999999+0101MW1131REMSYN082AAXX  20214 48352 21560 80000 10254 20248 39861 40059 71366 8697/ 333 58010 69937;
0207483520999992000062100004+17860+102720FM-12+0175VTUM V0209999C000010075019N0100001N1+02541+02501100691ADDAA124016091AY161061AY221061GF108991061051008001071999KA1120N+02441MA1999999098711MD1999999+0061MW1021REMSYN094AAXX  21004 48352 11560 80000 10254 20250 39871 40069 60164 70262 8657/ 333 20244 58006 70159;
0148483520999992000062103004+17860+102720FM-12+0175VTUM V0209999C000010075019N0120001N1+02641+02541100821ADDAA199000021GF108991051051008001071061MA1999999098851MD1999999+0091REMSYN070AAXX  21034 48352 32562 80000 10264 20254 39885 40082 85576 333 58009;
0154483520999992000062106004+17860+102720FM-12+0175VTUM V0200401N001010075019N0150001N1+03001+02501100671ADDAA124016091GF108991051051008001071061MA1999999098721MD1999999+0091REMSYN076AAXX  21064 48352 32565 80402 10300 20250 39872 40067 85576 333 58009 70159;
0167483520999992000062109004+17860+102720FM-12+0175VTUM V0209999C000010075019N0140001N1+03121+02571100421ADDAA199000091GF107991051091008001041031MA1999999098481MD1999999+0051REMSYN070AAXX  21094 48352 32564 70000 10312 20257 39848 40042 85943 333 58005;EQDQ01  00002PRCP99
0213483520999992000062112004+17860+102720FM-12+0175VTUM V0209999C000010075019N0130001N1+02801+02651100541ADDAA102002091AY161061AY221061GF108991061091008001071999KA1120M+03191MA1999999098581MD1999999+0121MW1131REMSYN100AAXX  21124 48352 /1563 80000 10280 20265 39858 40054 60022 71362 8697/ 333 10319 58012 60026 70176;
0167483520999992000062115004+17860+102720FM-12+0175VTUM V0209999C000010075019N0120001N1+02731+02661100831ADDAA199000091GF108991051051008001071061MA1999999098871MD1999999+0171REMSYN070AAXX  21154 48352 32562 80000 10273 20266 39887 40083 85576 333 58017;EQDQ01  00002PRCP99
0194483520999992000062118004+17860+102720FM-12+0175VTUM V0209999C000010042019N0050001N1+02531+02441100761ADDAA103004191AY161061AY221061GF108991061091004501071999MA1999999098771MD1999999+0081MW1951REMSYN094AAXX  21184 48352 /1450 80000 10253 20244 39877 40076 60053 79562 8697/ 333 58008 60047 70057;
0182483520999992000062121004+17860+102720FM-12+0175VTUM V0209999C000010042019N0040001N1+02451+02411100851ADDAA103002091AY191031AY261031GF108991061091004501071999MA1999999098861MD1999999+0261MW1951REMSYN082AAXX  21214 48352 21440 80000 10245 20241 39886 40085 79596 8697/ 333 58026 60027;
0213483520999992000062200004+17860+102720FM-12+0175VTUM V0200501N001010075019N0050001N1+02401+02371100901ADDAA103007191AY191061AY261061GF108991061051008001071999KA1120N+02381MA1999999098911MD1999999+0211MW1611REMSYN100AAXX  22004 48352 /1550 80502 10240 20237 39891 40090 60144 76196 8657/ 333 20238 58021 60077 70144;
0182483520999992000062203004+17860+102720FM-12+0175VTUM V0209999C000010075019N0120001N1+02571+02431101001ADDAA103000891AY161031AY221031GF108991051051008001071061MA1999999099011MD1999999+0181MW1021REMSYN082AAXX  22034 48352 21562 80000 10257 20243 39901 40100 70262 85576 333 58018 69987;
0148483520999992000062209004+17860+102720FM-12+0175VTUM V0209999C000010450019N0150001N1+03011+02471100591ADDAA199000021GF106991041081008001031061MA1999999098641MD1999999+0171REMSYN070AAXX  22094 48352 32565 60000 10301 20247 39864 40059 84836 333 58017;
0213483520999992000062212004+17860+102720FM-12+0175VTUM V0201501N001010075019N0100001N1+02321+02221100771ADDAA102017091AY161061AY221061GF108991061091008001071999KA1120M+03071MA1999999098781MD1999999+0231MW1951REMSYN100AAXX  22124 48352 /1560 81502 10232 20222 39878 40077 60182 79562 8697/ 333 10307 58023 60176 70308;
0188483520999992000062218004+17860+102720FM-12+0175VTUM V0209999C000010075019N0110001N1+02351+02311100851ADDAA118019191AY161061AY221061GF108991051051008001071061MA1999999098861MD1999999+0091MW1031REMSYN088AAXX  22184 48352 11561 80000 10235 20231 39886 40085 60193 70362 85576 333 58009 70283;
0148483520999992000062221004+17860+102720FM-12+0175VTUM V0209999C000010075019N0100001N1+02381+02341100771ADDAA199000021GF108991051051008001071061MA1999999098781MD1999999-0081REMSYN070AAXX  22214 48352 32560 80000 10238 20234 39878 40077 85576 333 59008;
0173483520999992000062300004+17860+102720FM-12+0175VTUM V0209999C000010075019N0100001N1+02441+02381100851ADDAA124019391GF108991051051008001071061KA1120N+02301MA1999999098861MD1999999-0091REMSYN082AAXX  23004 48352 32560 80000 10244 20238 39886 40085 85576 333 20230 59009 70193;
0167483520999992000062303004+17860+102720FM-12+0175VTUM V0209999C000010450019N0130001N1+02681+02491100891ADDAA199000091GF108991041081008001071061MA1999999098921MD1999999-0111REMSYN070AAXX  23034 48352 32563 80000 10268 20249 39892 40089 84876 333 59011;EQDQ01  00002PRCP99
0154483520999992000062306004+17860+102720FM-12+0175VTUM V0209999C000012200019N0150001N1+03051+02531100601ADDAA124018591GF104991031091008001001031MA1999999098661MD1999999-0251REMSYN076AAXX  23064 48352 32565 40000 10305 20253 39866 40060 83903 333 59025 70185;
0182483520999992000062309004+17860+102720FM-12+0175VTUM V0203301N001012200019N0150001N1+03081+02411100371ADDAA102001091AY161031AY211031GF104991041091008001001031MA1999999098431MD1999999-0221MW1021REMSYN082AAXX  23094 48352 21565 43302 10308 20241 39843 40037 70261 84903 333 59022 69996;
0207483520999992000062312004+17860+102720FM-12+0175VTUM V0202101N001010075019N0140001N1+02551+02361100581ADDAA112000191AY161061AY221061GF108991051051008001071061KA1120M+03271MA1999999098581MD1999999-0221MW1031REMSYN094AAXX  23124 48352 11564 82102 10255 20236 39858 40058 69912 70362 85576 333 10327 59022 70013;
0213483520999992000062400004+17860+102720FM-12+0175VTUM V0209999C000010075019N0090001N1+02451+02411100661ADDAA103000591AY161061AY261061GF108991061051008001071999KA1120N+02431MA1999999098681MD1999999-0191MW1611REMSYN100AAXX  24004 48352 /1559 80000 10245 20241 39868 40066 60034 76166 8657/ 333 20243 59019 69957 70029;
0182483520999992000062403004+17860+102720FM-12+0175VTUM V0201701N001510120019N0120001N1+02751+02491100701ADDAA103000591AY161031AY221031GF108991061081008001071999MA1999999098731MD1999999-0191MW1021REMSYN082AAXX  24034 48352 21562 81703 10275 20249 39873 40070 70262 8687/ 333 59019 69947;
0188483520999992000062406004+17860+102720FM-12+0175VTUM V0202201N002110120019N0130001N1+02901+02431100561ADDAA106000591AY161061AY221061GF108991051081008001071061MA1999999098611MD1999999-0041MW1021REMSYN088AAXX  24064 48352 11563 82204 10290 20243 39861 40056 69941 70262 85876 333 59004 70033;
0148483520999992000062409004+17860+102720FM-12+0175VTUM V0209999C000010450019N0150001N1+02951+02341100291ADDAA199000021GF106991041091008001031031MA1999999098341MD1999999-0081REMSYN070AAXX  24094 48352 32565 60000 10295 20234 39834 40029 84933 333 59008;
0201483520999992000062412004+17860+102720FM-12+0175VTUM V0209999C000010450019N0130001N1+02871+02511100301ADDAA124003391AY121061AY221061GF107991041091008001071061KA1120M+03011MA1999999098351MD1999999-0251MW1131REMSYN088AAXX  24124 48352 31563 70000 10287 20251 39835 40030 71322 84976 333 10301 59025 70033;
0154483520999992000062418004+17860+102720FM-12+0175VTUM V0209999C000010450019N0110001N1+02531+02381100471ADDAA124001091GF107991041051008001071061MA1999999098491MD1999999-0201REMSYN076AAXX  24184 48352 32561 70000 10253 20238 39849 40047 84576 333 59020 70010;
0160483520999992000062500004+17860+102720FM-12+0175VTUM V0209999C000010075019N0100001N1+02541+02441100561ADDAA124000591GF108991051051008001071061MA1999999098581MD1999999-0101REMSYN082AAXX  25004 48352 12560 80000 10254 20244 39858 40056 69944 85576 333 59010 70004;
0182483520999992000062503004+17860+102720FM-12+0175VTUM V0209999C000010075019N0080001N1+02701+02501100711ADDAA102000191AY161031AY221031GF108991061051008001071999MA1999999098741MD1999999+0011MW1611REMSYN082AAXX  25034 48352 21558 80000 10270 20250 39874 40071 76162 8657/ 333 58001 69926;
0194483520999992000062506004+17860+102720FM-12+0175VTUM V0200901N001010120019N0150001N1+02871+02361100561ADDAA103000791AY161061AY221061GF108991051081008001071061MA1999999098611MD1999999+0001MW1021REMSYN094AAXX  25064 48352 /1565 80902 10287 20236 39861 40056 69921 70262 85876 333 58000 69907 70002;
0148483520999992000062509004+17860+102720FM-12+0175VTUM V0201001N001010075019N0150001N1+02951+02451100341ADDAA199000021GF108991051051008001071061MA1999999098391MD1999999+0051REMSYN070AAXX  25094 48352 32565 81002 10295 20245 39839 40034 85576 333 58005;
0173483520999992000062512004+17860+102720FM-12+0175VTUM V0209999C000010450019N0140001N1+02831+02461100411ADDAA124000391GF106991041081008001031061KA1120M+03031MA1999999098451MD1999999+0111REMSYN082AAXX  25124 48352 32564 60000 10283 20246 39845 40041 84836 333 10303 58011 70002;
0148483520999992000062515004+17860+102720FM-12+0175VTUM V0209999C000010450019N0130001N1+02711+02511100621ADDAA199000021GF106991041051008001031061MA1999999098651MD1999999+0051REMSYN070AAXX  25154 48352 32563 60000 10271 20251 39865 40062 84536 333 58005;
0154483520999992000062518004+17860+102720FM-12+0175VTUM V0209999C000010450019N0120001N1+02671+02501100581ADDAA124000391GF106991041051008001031061MA1999999098611MD1999999+0111REMSYN076AAXX  25184 48352 32562 60000 10267 20250 39861 40058 84536 333 58011 70002;
0213483520999992000062600004+17860+102720FM-12+0175VTUM V0209999C000010075019N0050001N1+02441+02381100691ADDAA103009991AY191061AY261061GF108991071071008001021999KA1120N+02411MA1999999098701MD1999999+0131MW1611REMSYN100AAXX  26004 48352 /1550 80000 10244 20238 39870 40069 60134 76196 8772/ 333 20241 58013 60107 70127;
0182483520999992000062603004+17860+102720FM-12+0175VTUM V0209999C000010120019N0120001N1+02591+02401100791ADDAA103000891AY161031AY261031GF108991061081008001071999MA1999999098821MD1999999+0081MW1021REMSYN082AAXX  26034 48352 21562 80000 10259 20240 39882 40079 70266 8687/ 333 58008 69977;
0188483520999992000062606004+17860+102720FM-12+0175VTUM V0209999C000010120019N0140001N1+02781+02371100631ADDAA106000891AY161061AY221061GF108991051081008001071999MA1999999098671MD1999999+0071MW1021REMSYN088AAXX  26064 48352 11564 80000 10278 20237 39867 40063 69971 70262 8587/ 333 58007 70132;
0148483520999992000062609004+17860+102720FM-12+0175VTUM V0209999C000010075019N0150001N1+02951+02391100441ADDAA199000021GF107991051091008001031031MA1999999098491MD1999999+0101REMSYN070AAXX  26094 48352 32565 70000 10295 20239 39849 40044 85933 333 58010;
0167483520999992000062615004+17860+102720FM-12+0175VTUM V0209999C000010450019N0120001N1+02661+02471100741ADDAA199000091GF106991041081008001031061MA1999999098771MD1999999+0121REMSYN070AAXX  26154 48352 32562 60000 10266 20247 39877 40074 84836 333 58012;EQDQ01  00002PRCP99
0173483520999992000062700004+17860+102720FM-12+0175VTUM V0209999C000010075019N0100001N1+02571+02471100761ADDAA124000891GF108991061051008001071999KA1120N+02531MA1999999098781MD1999999+0071REMSYN082AAXX  27004 48352 32560 80000 10257 20247 39878 40076 8657/ 333 20253 58007 70007;
0167483520999992000062703004+17860+102720FM-12+0175VTUM V0202801N001010120019N0130001N1+03001+02431100791ADDAA199000091GF107991051081008001071061MA1999999098841MD1999999+0001REMSYN070AAXX  27034 48352 32563 72802 10300 20243 39884 40079 85876 333 58000;EQDQ01  00002PRCP99
0167483520999992000062706004+17860+102720FM-12+0175VTUM V0202201N001010450019N0160001N1+03171+02321100611ADDAA199000091GF105991041021008001041051MA1999999098681MD1999999-0021REMSYN070AAXX  27064 48352 32566 52202 10317 20232 39868 40061 84245 333 59002;EQDQ01  00002PRCP99
0167483520999992000062709004+17860+102720FM-12+0175VTUM V0209999C000012200019N0170001N1+03221+02321100381ADDAA199000091GF103991021091008001001031MA1999999098451MD1999999-0061REMSYN070AAXX  27094 48352 32567 30000 10322 20232 39845 40038 82903 333 59006;EQDQ01  00002PRCP99
0186483520999992000062712004+17860+102720FM-12+0175VTUM V0209999C000012200019N0140001N1+02961+02491100471ADDAA199000091GF106991041051008001001061KA1120M+03301MA1999999098521MD1999999-0021REMSYN076AAXX  27124 48352 32564 60000 10296 20249 39852 40047 84506 333 10330 59002;EQDQ01  00002PRCP99
0195483520999992000062715004+17860+102720FM-12+0175VTUM V0209999C000010450019N0120001N1+02821+02551100731ADDAA199000091AY121031AY221031GF106991041091008001041031MA1999999098771MD1999999-0011MW1131REMSYN076AAXX  27154 48352 31562 60000 10282 20255 39877 40073 71322 84943 333 59001;EQDQ01  00002PRCP99
0167483520999992000062718004+17860+102720FM-12+0175VTUM V0209999C000010075019N0120001N1+02571+02341100701ADDAA199000091GF106991051051008001001051MA1999999098731MD1999999-0041REMSYN070AAXX  27184 48352 32562 60000 10257 20234 39873 40070 85505 333 59004;EQDQ01  00002PRCP99
0182483520999992000062721004+17860+102720FM-12+0175VTUM V0209999C000010075019N0060001N1+02501+02351100711ADDAA101000791AY121031AY221031GF108991061051008001071061MA1999999098731MD1999999+0111MW1601REMSYN082AAXX  27214 48352 21556 80000 10250 20235 39873 40071 76022 86576 333 58011 69905;
0213483520999992000062800004+17860+102720FM-12+0175VTUM V0209999C000010075019N0050001N1+02371+02311100801ADDAA103029091AY161061AY221061GF108991061051008001071999KA1120N+02331MA1999999098811MD1999999+0041MW1611REMSYN100AAXX  28004 48352 /1550 80000 10237 20231 39881 40080 60294 76162 8657/ 333 20233 58004 60297 70289;
0182483520999992000062803004+17860+102720FM-12+0175VTUM V0209999C000010450019N0150001N1+02801+02401100931ADDAA103000591AY161031AY221031GF105991041081008001031051MA1999999098961MD1999999+0141MW1021REMSYN082AAXX  28034 48352 21565 50000 10280 20240 39896 40093 70262 84835 333 58014 69947;
0188483520999992000062806004+17860+102720FM-12+0175VTUM V0209999C000010450019N0150001N1+03021+02391100691ADDAA106000591AY161061AY221061GF106991041081008001031061MA1999999098741MD1999999+0081MW1031REMSYN088AAXX  28064 48352 11565 60000 10302 20239 39874 40069 69941 70362 84836 333 58008 70293;
0148483520999992000062809004+17860+102720FM-12+0175VTUM V0209999C000010450019N0140001N1+03131+02321100441ADDAA199000021GF106991041081008001031061MA1999999098491MD1999999-0061REMSYN070AAXX  28094 48352 32564 60000 10313 20232 39849 40044 84836 333 59006;
0167483520999992000062815004+17860+102720FM-12+0175VTUM V0209999C000012200019N0120001N1+02651+02451100751ADDAA199000091GF102991021051008001001001MA1999999098781MD1999999+0021REMSYN070AAXX  28154 48352 32562 20000 10265 20245 39878 40075 82500 333 58002;EQDQ01  00002PRCP99
0167483520999992000062818004+17860+102720FM-12+0175VTUM V0209999C000012200019N0120001N1+02651+02451100751ADDAA199000091GF102991021051008001001001MA1999999098781MD1999999+0021REMSYN070AAXX  28184 48352 32562 20000 10265 20245 39878 40075 82500 333 58002;EQDQ01  00002PRCP99
0167483520999992000062821004+17860+102720FM-12+0175VTUM V0209999C000012200019N0110001N1+02571+02501100621ADDAA199000091GF102991021051008001001001MA1999999098651MD1999999-0091REMSYN070AAXX  28214 48352 32561 20000 10257 20250 39865 40062 82500 333 59009;EQDQ01  00002PRCP99
0167483520999992000062903004+17860+102720FM-12+0175VTUM V0201101N001512200019N0150001N1+03101+02541100691ADDAA199000091GF104991031021008001001051MA1999999098741MD1999999-0241REMSYN070AAXX  29034 48352 32565 41103 10310 20254 39874 40069 83205 333 59024;EQDQ01  00002PRCP99
0167483520999992000062906004+17860+102720FM-12+0175VTUM V0209999C000012200019N0150001N1+03151+02511100511ADDAA199000091GF103991021021008001041051MA1999999098571MD1999999-0181REMSYN070AAXX  29064 48352 32565 30000 10315 20251 39857 40051 82245 333 59018;EQDQ01  00002PRCP99
0167483520999992000062909004+17860+102720FM-12+0175VTUM V0209999C000012200019N0150001N1+03361+02421100201ADDAA199000091GF103991031091008001041031MA1999999098291MD1999999-0241REMSYN070AAXX  29094 48352 32565 30000 10336 20242 39829 40020 83943 333 59024;EQDQ01  00002PRCP99
0214483520999992000062912004+17860+102720FM-12+0175VTUM V0209999C000010450019N0140001N1+03011+02441100281ADDAA199000091AY111061AY201061GF105991031091008001041031KA1120M+03401MA1999999098331MD1999999-0201MW1131REMSYN082AAXX  29124 48352 31564 50000 10301 20244 39833 40028 71310 83943 333 10340 59020;EQDQ01  00002PRCP99
0195483520999992000062915004+17860+102720FM-12+0175VTUM V0209999C000012200019N0130001N1+02831+02491100541ADDAA199000091AY111031AY201031GF103991021091008001001031MA1999999098581MD1999999-0211MW1131REMSYN076AAXX  29154 48352 31563 30000 10283 20249 39858 40054 71310 82903 333 59021;EQDQ01  00002PRCP99
0195483520999992000062918004+17860+102720FM-12+0175VTUM V0209999C000010075019N0120001N1+02761+02471100541ADDAA199000091AY111061AY211061GF108991051091008001071031MA1999999098571MD1999999-0151MW1171REMSYN076AAXX  29184 48352 31562 80000 10276 20247 39857 40054 71711 85973 333 59015;EQDQ01  00002PRCP99
0167483520999992000062921004+17860+102720FM-12+0175VTUM V0209999C000010450019N0110001N1+02601+02501100451ADDAA199000091GF107991041081008001031061MA1999999098491MD1999999-0171REMSYN070AAXX  29214 48352 32561 70000 10260 20250 39849 40045 84836 333 59017;EQDQ01  00002PRCP99
0186483520999992000063000004+17860+102720FM-12+0175VTUM V0209999C000012200019N0120001N1+02761+02531100561ADDAA199000091GF103991021021008001001051KA1120N+02651MA1999999098591MD1999999-0101REMSYN076AAXX  30004 48352 32562 30000 10276 20253 39859 40056 82205 333 20265 59010;EQDQ01  00002PRCP99
0167483520999992000063006004+17860+102720FM-12+0175VTUM V0200901N001511050019N0180001N1+03361+02521100491ADDAA199000091GF105991041021008001001051MA1999999098571MD1999999-0021REMSYN070AAXX  30064 48352 32568 50903 10336 20252 39857 40049 84205 333 59002;EQDQ01  00002PRCP99
0167483520999992000063009004+17860+102720FM-12+0175VTUM V0200401N001012200019N0180001N1+03461+02471100181ADDAA199000091GF103991031021008001001001MA1999999098281MD1999999-0021REMSYN070AAXX  30094 48352 32568 30402 10346 20247 39828 40018 83200 333 59002;EQDQ01  00002PRCP99
0214483520999992000063012004+17860+102720FM-12+0175VTUM V0209999C000010450019N0120001N1+02771+02301100411ADDAA199000091AY121061AY221061GF108991041091008001071071KA1120M+03501MA1999999098441MD1999999-0131MW1131REMSYN082AAXX  30124 48352 31562 80000 10277 20230 39844 40041 71322 84977 333 10350 59013;EQDQ01  00002PRCP99
0195483520999992000063018004+17860+102720FM-12+0175VTUM V0209999C000010450019N0110001N1+02481+02301100621ADDAA199000091AY121061AY221061GF106991041091008001071031MA1999999098631MD1999999+0081MW1131REMSYN076AAXX  30184 48352 31561 60000 10248 20230 39863 40062 71322 84973 333 58008;EQDQ01  00002PRCP99
0147483520999992000063021004+17860+102720FM-12+0175VTUM V0209999C000012200019N0100001N1+02461+02331100581ADDAA199000091GF106991031051008001001061MA1999999098871REMSYN064AAXX  30214 48352 32560 60000 10246 20233 39887 40058 83506 333;EQDQ01  00002PRCP99
0186483520999992000070100004+17860+102720FM-12+0175VTUM V0209999C000012200019N0120001N1+02611+02381100641ADDAA199000091GF102991001001999999001051KA1120N+02431MA1999999098671MD1999999+0081REMSYN076AAXX  01004 48352 32962 20000 10261 20238 39867 40064 80005 333 20243 58008;EQDQ01  00002PRCP99
0167483520999992000070103004+17860+102720FM-12+0175VTUM V0200201N001012200019N0150001N1+02981+02361100711ADDAA199000091GF102991021051008001001001MA1999999098761MD1999999+0071REMSYN070AAXX  01034 48352 32565 20202 10298 20236 39876 40071 82500 333 58007;EQDQ01  00002PRCP99
0167483520999992000070106004+17860+102720FM-12+0175VTUM V0209999C000012200019N0150001N1+03301+02291100501ADDAA199000091GF102991021051008001001001MA1999999098571MD1999999+0011REMSYN070AAXX  01064 48352 32565 20000 10330 20229 39857 40050 82500 333 58001;EQDQ01  00002PRCP99
0167483520999992000070109004+17860+102720FM-12+0175VTUM V0209999C000012200019N0150001N1+03321+02291100231ADDAA199000091GF102991021051008001001001MA1999999098311MD1999999+0051REMSYN070AAXX  01094 48352 32565 20000 10332 20229 39831 40023 82500 333 58005;EQDQ01  00002PRCP99
0177483520999992000070118004+17860+102720FM-12+0175VTUM V0209999C000012200019N0120001N1+02751+02491100431ADDAA199000091GA1001+999999999GF100991001001999999001001MA1999999098471MD1999999-0191REMSYN064AAXX  01184 48352 32962 00000 10275 20249 39847 40043 333 59019;EQDQ01  00002PRCP99
0167483520999992000070121004+17860+102720FM-12+0175VTUM V0209999C000012200019N0110001N1+02701+02411100431ADDAA199000091GF102991021051008001001001MA1999999098461MD1999999-0151REMSYN070AAXX  01214 48352 32561 20000 10270 20241 39846 40043 82500 333 59015;EQDQ01  00002PRCP99
0167483520999992000070203004+17860+102720FM-12+0175VTUM V0209999C000012200019N0150001N1+03101+02381100581ADDAA199000091GF103991031021008001001001MA1999999098641MD1999999+0131REMSYN070AAXX  02034 48352 32565 30000 10310 20238 39864 40058 83200 333 58013;EQDQ01  00002PRCP99
0167483520999992000070206004+17860+102720FM-12+0175VTUM V0200301N001012200019N0150001N1+03301+02371100361ADDAA199000091GF105991041021008001001061MA1999999098431MD1999999-0141REMSYN070AAXX  02064 48352 32565 50302 10330 20237 39843 40036 84206 333 59014;EQDQ01  00002PRCP99
0186483520999992000070212004+17860+102720FM-12+0175VTUM V0209999C000011050019N0150001N1+03061+02481100101ADDAA199000091GF105991021021008001041061KA1120M+03451MA1999999098171MD1999999-0101REMSYN076AAXX  02124 48352 32565 50000 10306 20248 39817 40010 82246 333 10345 59010;EQDQ01  00002PRCP99
0167483520999992000070215004+17860+102720FM-12+0175VTUM V0209999C000012200019N0130001N1+02861+02531100301ADDAA199000091GF102991021011008001001001MA1999999098341MD1999999-0151REMSYN070AAXX  02154 48352 32563 20000 10286 20253 39834 40030 82100 333 59015;EQDQ01  00002PRCP99
0167483520999992000070218004+17860+102720FM-12+0175VTUM V0209999C000012200019N0110001N1+02701+02561100331ADDAA199000091GF104991031051008001001051MA1999999098361MD1999999-0101REMSYN070AAXX  02184 48352 32561 40000 10270 20256 39836 40033 83505 333 59010;EQDQ01  00002PRCP99
0186483520999992000070300004+17860+102720FM-12+0175VTUM V0209999C000010075019N0120001N1+02721+02561100371ADDAA199000091GF106991051051008001001051KA1120N+02671MA1999999098401MD1999999-0201REMSYN076AAXX  03004 48352 32562 60000 10272 20256 39840 40037 85505 333 20267 59020;EQDQ01  00002PRCP99
0167483520999992000070303004+17860+102720FM-12+0175VTUM V0209999C000012200019N0160001N1+03051+02591100441ADDAA199000091GF103991031021008001001001MA1999999098491MD1999999-0141REMSYN070AAXX  03034 48352 32566 30000 10305 20259 39849 40044 83200 333 59014;EQDQ01  00002PRCP99
0167483520999992000070306004+17860+102720FM-12+0175VTUM V0200401N001012200019N0180001N1+03281+02501100251ADDAA199000091GF103991021021008001001051MA1999999098321MD1999999-0111REMSYN070AAXX  03064 48352 32568 30402 10328 20250 39832 40025 82205 333 59011;EQDQ01  00002PRCP99
0186483520999992000070312004+17860+102720FM-12+0175VTUM V0209999C000012200019N0150001N1+03001+02521100081ADDAA199000091GF103991021021008001001051KA1120M+03501MA1999999098131MD1999999+0011REMSYN076AAXX  03124 48352 32565 30000 10300 20252 39813 40008 82205 333 10350 58001;EQDQ01  00002PRCP99
0195483520999992000070318004+17860+102720FM-12+0175VTUM V0209999C000012200019N0120001N1+02761+02561100351ADDAA199000091AY101061AY201061GF103991021091008001001031MA1999999098381MD1999999+0021MW1131REMSYN076AAXX  03184 48352 31562 30000 10276 20256 39838 40035 71300 82903 333 58002;EQDQ01  00002PRCP99
0167483520999992000070321004+17860+102720FM-12+0175VTUM V0209999C000012200019N0100001N1+02701+02591100251ADDAA199000091GF106991021051008001001061MA1999999098301MD1999999-0031REMSYN070AAXX  03214 48352 32560 60000 10270 20259 39830 40025 82506 333 59003;EQDQ01  00002PRCP99
0167483520999992000070403004+17860+102720FM-12+0175VTUM V0209999C000010120019N0150001N1+02921+02551100411ADDAA199000091GF107991051081008001001061MA1999999098451MD1999999-0031REMSYN070AAXX  04034 48352 32565 70000 10292 20255 39845 40041 85806 333 59003;EQDQ01  00002PRCP99
0167483520999992000070406004+17860+102720FM-12+0175VTUM V0200101N001512200019N0180001N1+03221+02511100241ADDAA199000091GF104991031021008001001051MA1999999098321MD1999999-0011REMSYN070AAXX  04064 48352 32568 40103 10322 20251 39832 40024 83205 333 59001;EQDQ01  00002PRCP99
0167483520999992000070409004+17860+102720FM-12+0175VTUM V0202301N001010450019N0120001N1+03411+02491099981ADDAA199000091GF107991041091008001071061MA1999999098071MD1999999-0011REMSYN070AAXX  04094 48352 32562 72302 10341 20249 39807 49998 84976 333 59001;EQDQ01  00002PRCP99
0214483520999992000070412004+17860+102720FM-12+0175VTUM V0209999C000010450019N0150001N1+03151+02631100001ADDAA199000091AY121061AY221061GF108991031091008001071071KA1120M+03461MA1999999098181MD1999999-0081MW1131REMSYN082AAXX  04124 48352 31565 80000 10315 20263 39818 40000 71322 83977 333 10346 59008;EQDQ01  00002PRCP99
0213483520999992000070500004+17860+102720FM-12+0175VTUM V0209999C000010075019N0050001N1+02401+02371100501ADDAA103015091AY191061AY291061GF108991061091008001071999KA1120N+02351MA1999999098511MD1999999+0181MW1951REMSYN100AAXX  05004 48352 /1550 80000 10240 20237 39851 40050 60214 79599 8697/ 333 20235 58018 60157 70213;
0148483520999992000070509004+17860+102720FM-12+0175VTUM V0209999C000010450019N0150001N1+03061+02551100121ADDAA199000021GF107991041091008001041031MA1999999098191MD1999999+0141REMSYN070AAXX  05094 48352 32565 70000 10306 20255 39819 40012 84943 333 58014;
0173483520999992000070512004+17860+102720FM-12+0175VTUM V0209999C000010075019N0130001N1+02871+02561100181ADDAA124022991GF108991051051008001071061KA1120M+03201MA1999999098231MD1999999+0181REMSYN082AAXX  05124 48352 32563 80000 10287 20256 39823 40018 85576 333 10320 58018 70229;
0195483520999992000070521004+17860+102720FM-12+0175VTUM V0209999C000010075019N0100001N1+02631+02521100351ADDAA199000091AY121031AY221031GF107991051091008001071031MA1999999098381MD1999999-0031MW1131REMSYN076AAXX  05214 48352 31560 70000 10263 20252 39838 40035 71322 85973 333 59003;EQDQ01  00002PRCP99
0213483520999992000070600004+17860+102720FM-12+0175VTUM V0209999C000010075019N0070001N1+02581+02441100531ADDAA101000191AY121061AY221061GF108991061051008001071999KA1120N+02571MA1999999098561MD1999999+0031MW1601REMSYN100AAXX  06004 48352 /1557 80000 10258 20244 39856 40053 60024 76022 8657/ 333 20257 58003 69915 70017;
0182483520999992000070603004+17860+102720FM-12+0175VTUM V0209999C000010075019N0120001N1+02641+02501100591ADDAA103000591AY161031AY221031GF108991071051008001071999MA1999999098611MD1999999+0121MW1021REMSYN082AAXX  06034 48352 21562 80000 10264 20250 39861 40059 70262 8757/ 333 58012 69957;
0148483520999992000070609004+17860+102720FM-12+0175VTUM V0209999C000010450019N0150001N1+03071+02441100241ADDAA199000021GF108991041081008001071061MA1999999098311MD1999999+0121REMSYN070AAXX  06094 48352 32565 80000 10307 20244 39831 40024 84876 333 58012;
0173483520999992000070612004+17860+102720FM-12+0175VTUM V0209999C000010450019N0130001N1+02721+02341100351ADDAA124000591GF108991041051008001071071KA1120M+03101MA1999999098381MD1999999+0171REMSYN082AAXX  06124 48352 32563 80000 10272 20234 39838 40035 84577 333 10310 58017 70006;
0167483520999992000070615004+17860+102720FM-12+0175VTUM V0209999C000010450019N0120001N1+02601+02461100531ADDAA199000091GF108991041051008001071061MA1999999098561MD1999999+0161REMSYN070AAXX  06154 48352 32562 80000 10260 20246 39856 40053 84576 333 58016;EQDQ01  00002PRCP99
0154483520999992000070618004+17860+102720FM-12+0175VTUM V0209999C000010075019N0110001N1+02621+02491100581ADDAA124000591GF108991051051008001071061MA1999999098611MD1999999-0121REMSYN076AAXX  06184 48352 32561 80000 10262 20249 39861 40058 85576 333 59012 70006;
0213483520999992000070700004+17860+102720FM-12+0175VTUM V0209999C000010450019N0100001N1+02511+02471100571ADDAA103000791AY161061AY221061GF106991041051008001071061KA1120N+02421MA1999999098571MD1999999+0021MW1011REMSYN100AAXX  07004 48352 /1560 60000 10251 20247 39857 40057 60104 70162 84576 333 20242 58002 69907 70100;
0154483520999992000070706004+17860+102720FM-12+0175VTUM V0209999C000010450019N0130001N1+03081+02501100411ADDAA124009491GF106991041081008001031061MA1999999098471MD1999999-0061REMSYN076AAXX  07064 48352 32563 60000 10308 20250 39847 40041 84836 333 59006 70095;
0167483520999992000070709004+17860+102720FM-12+0175VTUM V0209999C000012200019N0140001N1+03081+02501100181ADDAA199000091GF106991031021008001001061MA1999999098251MD1999999-0061REMSYN070AAXX  07094 48352 32564 60000 10308 20250 39825 40018 83206 333 59006;EQDQ01  00002PRCP99
0173483520999992000070712004+17860+102720FM-12+0175VTUM V0209999C000012200019N0130001N1+02881+02401100171ADDAA124009491GF104991041051008001001051KA1120M+03381MA1999999098221MD1999999-0181REMSYN082AAXX  07124 48352 32563 40000 10288 20240 39822 40017 84505 333 10338 59018 70095;
0167483520999992000070718004+17860+102720FM-12+0175VTUM V0209999C000010450019N0120001N1+02701+02561100421ADDAA199000091GF106991031051008001031061MA1999999098451MD1999999-0161REMSYN070AAXX  07184 48352 32562 60000 10270 20256 39845 40042 83536 333 59016;EQDQ01  00002PRCP99
0167483520999992000070721004+17860+102720FM-12+0175VTUM V0209999C000010450019N0110001N1+02651+02511100311ADDAA199000091GF106991041051008001031061MA1999999098341MD1999999-0191REMSYN070AAXX  07214 48352 32561 60000 10265 20251 39834 40031 84536 333 59019;EQDQ01  00002PRCP99
0186483520999992000070800004+17860+102720FM-12+0175VTUM V0209999C000010075019N0100001N1+02581+02361100391ADDAA199000091GF108991051051008001071061KA1120N+02571MA1999999098421MD1999999-0161REMSYN076AAXX  08004 48352 32560 80000 10258 20236 39842 40039 85576 333 20257 59016;EQDQ01  00002PRCP99
0167483520999992000070803004+17860+102720FM-12+0175VTUM V0209999C000010450019N0120001N1+02961+02411100421ADDAA199000091GF106991041051008001031061MA1999999098471MD1999999-0171REMSYN070AAXX  08034 48352 32562 60000 10296 20241 39847 40042 84536 333 59017;EQDQ01  00002PRCP99
0186483520999992000070812004+17860+102720FM-12+0175VTUM V0209999C000010450019N0140001N1+02901+02441100091ADDAA199000091GF108991041051008001071061KA1120M+03291MA1999999098141MD1999999-0081REMSYN076AAXX  08124 48352 32564 80000 10290 20244 39814 40009 84576 333 10329 59008;EQDQ01  00002PRCP99
0182483520999992000070815004+17860+102720FM-12+0175VTUM V0209999C000010075019N0080001N1+02771+02391100261ADDAA101000791AY121031AY221031GF108991061051008001071999MA1999999098311MD1999999-0211MW1601REMSYN082AAXX  08154 48352 21558 80000 10277 20239 39831 40026 76022 8657/ 333 59021 69905;
0194483520999992000070818004+17860+102720FM-12+0175VTUM V0209999C000010075019N0100001N1+02651+02401100191ADDAA103000191AY161061AY221061GF108991051051008001071061MA1999999098231MD1999999-0231MW1021REMSYN094AAXX  08184 48352 /1560 80000 10265 20240 39823 40019 69913 70262 85576 333 59023 69917 70001;
0182483520999992000070821004+17860+102720FM-12+0175VTUM V0209999C000010075019N0080001N1+02571+02441100151ADDAA102001091AY161031AY221031GF108991061051008001071999MA1999999098181MD1999999-0161MW1611REMSYN082AAXX  08214 48352 21558 80000 10257 20244 39818 40015 76162 8657/ 333 59016 60016;
0213483520999992000070900004+17860+102720FM-12+0175VTUM V0209999C000010075019N0050001N1+02551+02431100261ADDAA103001091AY161061AY261061GF108991061051008001071999KA1120N+02521MA1999999098291MD1999999-0141MW1611REMSYN100AAXX  09004 48352 /1550 80000 10255 20243 39829 40026 60034 76166 8657/ 333 20252 59014 60017 70027;
0194483520999992000070906004+17860+102720FM-12+0175VTUM V0209999C000010075019N0040001N1+02691+02431100331ADDAA103002091AY161061AY261061GF108991061051008001071999MA1999999098561MD1999999+0081MW1611REMSYN094AAXX  09064 48352 /1540 80000 10269 20243 39856 40033 60021 76166 8657/ 333 58008 60027 70046;
0182483520999992000070909004+17860+102720FM-12+0175VTUM V0209999C000010120019N0130001N1+02871+02411100071ADDAA103000891AY161031AY261031GF108991051081008001071999MA1999999098121MD1999999+0081MW1021REMSYN082AAXX  09094 48352 21563 80000 10287 20241 39812 40007 70266 8587/ 333 58008 69977;
0207483520999992000070912004+17860+102720FM-12+0175VTUM V0209999C000010075019N0120001N1+02701+02491100131ADDAA112003091AY161061AY221061GF108991051051008001071061KA1120M+02931MA1999999098171MD1999999+0141MW1021REMSYN094AAXX  09124 48352 11562 80000 10270 20249 39817 40013 60032 70262 85576 333 10293 58014 70053;
0182483520999992000070915004+17860+102720FM-12+0175VTUM V0209999C000010075019N0060001N1+02651+02521100351ADDAA101000191AY121031AY221031GF108991061051008001071999MA1999999098391MD1999999+0091MW1601REMSYN082AAXX  09154 48352 21556 80000 10265 20252 39839 40035 76022 8657/ 333 58009 69925;
0194483520999992000070918004+17860+102720FM-12+0175VTUM V0209999C000010075019N0050001N1+02611+02521100271ADDAA103000591AY161061AY221061GF108991061051008001071999MA1999999098311MD1999999+0081MW1601REMSYN094AAXX  09184 48352 /1550 80000 10261 20252 39831 40027 60033 76062 8657/ 333 58008 69957 70032;
0182483520999992000070921004+17860+102720FM-12+0175VTUM V0209999C000010042019N0040001N1+02571+02511100151ADDAA103000591AY161031AY261031GF108991061071004501021999MA1999999098191MD1999999+0001MW1601REMSYN082AAXX  09214 48352 21440 80000 10257 20251 39819 40015 76066 8672/ 333 58000 69947;
0213483520999992000071000004+17860+102720FM-12+0175VTUM V0209999C000010075019N0060001N1+02521+02461100251ADDAA103005191AY161061AY261061GF108991061051008001071999KA1120N+02491MA1999999098281MD1999999-0011MW1611REMSYN100AAXX  10004 48352 /1556 80000 10252 20246 39828 40025 60084 76166 8657/ 333 20249 59001 60057 70082;
0182483520999992000071003004+17860+102720FM-12+0175VTUM V0209999C000010120019N0120001N1+02711+02471100381ADDAA103000191AY161031AY221031GF108991051081008001071061MA1999999098411MD1999999+0031MW1021REMSYN082AAXX  10034 48352 21562 80000 10271 20247 39841 40038 70262 85876 333 58003 69917;
0188483520999992000071006004+17860+102720FM-12+0175VTUM V0202901N001012200019N0150001N1+03081+02471100201ADDAA106000591AY161061AY221061GF106991041021008001001061MA1999999098271MD1999999-0131MW1011REMSYN088AAXX  10064 48352 11565 62902 10308 20247 39827 40020 69961 70162 84206 333 59013 70064;
0148483520999992000071009004+17860+102720FM-12+0175VTUM V0202701N001012200019N0150001N1+03151+02441099981ADDAA199000021GF106991041081008001001061MA1999999098051MD1999999-0091REMSYN070AAXX  10094 48352 32565 62702 10315 20244 39805 49998 84806 333 59009;
0213483520999992000071012004+17860+102720FM-12+0175VTUM V0200601N001510075019N0080001N1+02671+02451100171ADDAA101000591AY121061AY221061GF108991061051008001071999KA1120M+03221MA1999999098211MD1999999+0031MW1601REMSYN100AAXX  10124 48352 /1558 80603 10267 20245 39821 40017 69972 76022 8657/ 333 10322 58003 69965 70063;
0182483520999992000071015004+17860+102720FM-12+0175VTUM V0209999C000010450019N0120001N1+02611+02471100431ADDAA103000791AY161031AY221031GF108991041051008001071061MA1999999098451MD1999999+0081MW1021REMSYN082AAXX  10154 48352 21562 80000 10261 20247 39845 40043 70262 84576 333 58008 69907;
0194483520999992000071018004+17860+102720FM-12+0175VTUM V0209999C000010075019N0100001N1+02451+02351100371ADDAA102000391AY161061AY221061GF108991051051008001071061MA1999999098391MD1999999+0101MW1211REMSYN094AAXX  10184 48352 /1560 80000 10245 20235 39839 40037 60013 72162 85576 333 58010 69936 70059;
0182483520999992000071021004+17860+102720FM-12+0175VTUM V0209999C000010075019N0050001N1+02421+02351100291ADDAA102003091AY161031AY221031GF108991061051008001071999MA1999999098321MD1999999+0141MW1611REMSYN082AAXX  10214 48352 21550 80000 10242 20235 39832 40029 76162 8657/ 333 58014 60036;
0213483520999992000071100004+17860+102720FM-12+0175VTUM V0209999C000010075019N0060001N1+02451+02381100381ADDAA103000591AY161061AY261061GF108991071071008001021999KA1120N+02401MA1999999098391MD1999999+0131MW1601REMSYN100AAXX  11004 48352 /1556 80000 10245 20238 39839 40038 60044 76066 8772/ 333 20240 58013 69947 70040;
0182483520999992000071103004+17860+102720FM-12+0175VTUM V0209999C000010120019N0120001N1+02611+02471100521ADDAA103000591AY161031AY261031GF108991071081008001071999MA1999999098541MD1999999+0141MW1211REMSYN082AAXX  11034 48352 21562 80000 10261 20247 39854 40052 72166 8787/ 333 58014 69947;
0188483520999992000071106004+17860+102720FM-12+0175VTUM V0209999C000010120019N0130001N1+02841+02501100351ADDAA106000591AY161061AY221061GF108991061081008001071999MA1999999098391MD1999999+0151MW1021REMSYN088AAXX  11064 48352 11563 80000 10284 20250 39839 40035 69941 70262 8687/ 333 58015 70043;
0148483520999992000071109004+17860+102720FM-12+0175VTUM V0209999C000010120019N0140001N1+02901+02551100171ADDAA199000021GF108991061081008001071999MA1999999098221MD1999999+0191REMSYN070AAXX  11094 48352 32564 80000 10290 20255 39822 40017 8687/ 333 58019;
0213483520999992000071200004+17860+102720FM-12+0175VTUM V0209999C000010075019N0100001N1+02351+02341100541ADDAA103000591AY161061AY261061GF108991051051008001071061KA1120N+02301MA1999999098551MD1999999+0161MW1021REMSYN100AAXX  12004 48352 /1560 80000 10235 20234 39855 40054 60264 70266 85576 333 20230 58016 69967 70256;
0167483520999992000071203004+17860+102720FM-12+0175VTUM V0209999C000010075019N0120001N1+02471+02371100641ADDAA199000091GF108991051051008001071061MA1999999098661MD1999999+0121REMSYN070AAXX  12034 48352 32562 80000 10247 20237 39866 40064 85576 333 58012;EQDQ01  00002PRCP99
0194483520999992000071206004+17860+102720FM-12+0175VTUM V0202401N001510075019N0070001N1+02531+02381100571ADDAA102000891AY161061AY221061GF108991061051008001071999MA1999999098591MD1999999+0221MW1601REMSYN094AAXX  12064 48352 /1557 82403 10253 20238 39859 40057 69981 76062 8657/ 333 58022 69986 70260;
0207483520999992000071212004+17860+102720FM-12+0175VTUM V0209999C000010075019N0120001N1+02481+02291100501ADDAA112000891AY161061AY221061GF108991051051008001071061KA1120M+02681MA1999999098521MD1999999+0161MW1021REMSYN094AAXX  12124 48352 11562 80000 10248 20229 39852 40050 69982 70262 85576 333 10268 58016 70180;
0148483520999992000071215004+17860+102720FM-12+0175VTUM V0209999C000010075019N0120001N1+02431+02311100671ADDAA199000021GF108991051051008001071061MA1999999098691MD1999999+0021REMSYN070AAXX  12154 48352 32562 80000 10243 20231 39869 40067 85576 333 58002;
0154483520999992000071218004+17860+102720FM-12+0175VTUM V0209999C000010075019N0110001N1+02421+02261100671ADDAA124006691GF108991051051008001071061MA1999999098691MD1999999+0051REMSYN076AAXX  12184 48352 32561 80000 10242 20226 39869 40067 85576 333 58005 70066;
0182483520999992000071221004+17860+102720FM-12+0175VTUM V0209999C000010075019N0100001N1+02321+02221100591ADDAA101000591AY161031AY221031GF108991051051008001071061MA1999999098591MD1999999+0121MW1021REMSYN082AAXX  12214 48352 21560 80000 10232 20222 39859 40059 70262 85576 333 58012 69945;
0213483520999992000071300004+17860+102720FM-12+0175VTUM V0209999C000010075019N0100001N1+02341+02251100691ADDAA101000791AY161061AY221061GF108991061051008001071999KA1120N+02301MA1999999098691MD1999999+0151MW1211REMSYN100AAXX  13004 48352 /1560 80000 10234 20225 39869 40069 60014 72162 8657/ 333 20230 58015 69905 70013;
0148483520999992000071303004+17860+102720FM-12+0175VTUM V0209999C000010120019N0120001N1+02551+02331100731ADDAA199000021GF108991051081008001071061MA1999999098751MD1999999+0091REMSYN070AAXX  13034 48352 32562 80000 10255 20233 39875 40073 85876 333 58009;
0154483520999992000071306004+17860+102720FM-12+0175VTUM V0209999C000010120019N0150001N1+02881+02391100581ADDAA124000591GF107991051081008001031061MA1999999098621MD1999999+0011REMSYN076AAXX  13064 48352 32565 70000 10288 20239 39862 40058 85836 333 58001 70005;
0148483520999992000071309004+17860+102720FM-12+0175VTUM V0202401N001511050019N0150001N1+03141+02411100301ADDAA199000021GF105991041081008001001051MA1999999098361MD1999999-0101REMSYN070AAXX  13094 48352 32565 52403 10314 20241 39836 40030 84805 333 59010;
0173483520999992000071312004+17860+102720FM-12+0175VTUM V0209999C000010450019N0140001N1+02821+02371100341ADDAA124000591GF106991041051008001031061KA1120M+03181MA1999999098381MD1999999-0161REMSYN082AAXX  13124 48352 32564 60000 10282 20237 39838 40034 84536 333 10318 59016 70005;
0167483520999992000071315004+17860+102720FM-12+0175VTUM V0209999C000010075019N0130001N1+02681+02421100501ADDAA199000091GF108991051051008001071061MA1999999098541MD1999999-0171REMSYN070AAXX  13154 48352 32563 80000 10268 20242 39854 40050 85576 333 59017;EQDQ01  00002PRCP99
0154483520999992000071318004+17860+102720FM-12+0175VTUM V0209999C000011050019N0120001N1+02611+02391100441ADDAA124000591GF106991011051008001031061MA1999999098471MD1999999-0231REMSYN076AAXX  13184 48352 32562 60000 10261 20239 39847 40044 81536 333 59023 70005;
0167483520999992000071321004+17860+102720FM-12+0175VTUM V0209999C000010450019N0110001N1+02561+02401100331ADDAA199000091GF106991041051008001031061MA1999999098351MD1999999-0261REMSYN070AAXX  13214 48352 32561 60000 10256 20240 39835 40033 84536 333 59026;EQDQ01  00002PRCP99
0186483520999992000071400004+17860+102720FM-12+0175VTUM V0209999C000010450019N0120001N1+02501+02421100421ADDAA199000091GF106991041081008001071061KA1120N+02491MA1999999098431MD1999999-0271REMSYN076AAXX  14004 48352 32562 60000 10250 20242 39843 40042 84876 333 20249 59027;EQDQ01  00002PRCP99
0167483520999992000071406004+17860+102720FM-12+0175VTUM V0209999C000012200019N0150001N1+03251+02521100251ADDAA199000091GF104991031011008001031051MA1999999098331MD1999999-0331REMSYN070AAXX  14064 48352 32565 40000 10325 20252 39833 40025 83135 333 59033;EQDQ01  00002PRCP99
0167483520999992000071409004+17860+102720FM-12+0175VTUM V0209999C000010450019N0150001N1+03351+02441100001ADDAA199000091GF105991031091008001031031MA1999999098091MD1999999-0301REMSYN070AAXX  14094 48352 32565 50000 10335 20244 39809 40000 83933 333 59030;EQDQ01  00002PRCP99
0214483520999992000071412004+17860+102720FM-12+0175VTUM V0209999C000010075019N0140001N1+03051+02631100001ADDAA199000091AY121061AY211061GF108991061091008001071999KA1120M+03391MA1999999098071MD1999999-0341MW1131REMSYN082AAXX  14124 48352 31564 80000 10305 20263 39807 40000 71321 8697/ 333 10339 59034;EQDQ01  00002PRCP99
0194483520999992000071418004+17860+102720FM-12+0175VTUM V0209999C000010075019N0050001N1+02571+02481100151ADDAA102002091AY191061AY291061GF108991071071008001071999MA1999999098191MD1999999-0291MW1611REMSYN094AAXX  14184 48352 /1550 80000 10257 20248 39819 40015 60133 76199 8777/ 333 59029 60026 70132;
0182483520999992000071421004+17860+102720FM-12+0175VTUM V0209999C000010120019N0100001N1+02571+02501100601ADDAA103000391AY161031AY221031GF107991051081008001071061MA1999999098141MD1999999-0231MW1011REMSYN082AAXX  14214 48352 21560 70000 10257 20250 39814 40060 70162 85876 333 59023 69937;
0148483520999992000071503004+17860+102720FM-12+0175VTUM V0209999C000010450019N0140001N1+02851+02571100231ADDAA199000021GF108991041081008001071061MA1999999098291MD1999999-0211REMSYN070AAXX  15034 48352 32564 80000 10285 20257 39829 40023 84876 333 59021;
0154483520999992000071506004+17860+102720FM-12+0175VTUM V0209999C000010450019N0150001N1+03151+02561100061ADDAA124013591GF107991041081008001071061MA1999999098141MD1999999-0191REMSYN076AAXX  15064 48352 32565 70000 10315 20256 39814 40006 84876 333 59019 70135;
0167483520999992000071509004+17860+102720FM-12+0175VTUM V0202201N001010450019N0160001N1+03171+02611099881ADDAA199000091GF106991041091008001041031MA1999999097961MD1999999-0121REMSYN070AAXX  15094 48352 32566 62202 10317 20261 39796 49988 84943 333 59012;EQDQ01  00002PRCP99
0173483520999992000071512004+17860+102720FM-12+0175VTUM V0209999C000012200019N0140001N1+03001+02611099971ADDAA124013591GF105991021021008001001061KA1120M+03351MA1999999098031MD1999999-0031REMSYN082AAXX  15124 48352 32564 50000 10300 20261 39803 49997 82206 333 10335 59003 70135;
0167483520999992000071515004+17860+102720FM-12+0175VTUM V0209999C000010450019N0130001N1+02841+02411100161ADDAA199000091GF107991041051008001071061MA1999999098211MD1999999-0061REMSYN070AAXX  15154 48352 32563 70000 10284 20241 39821 40016 84576 333 59006;EQDQ01  00002PRCP99
0154483520999992000071518004+17860+102720FM-12+0175VTUM V0209999C000010075019N0120001N1+02741+02571100151ADDAA124000391GF108991051051008001071061MA1999999098191MD1999999+0001REMSYN076AAXX  15184 48352 32562 80000 10274 20257 39819 40015 85576 333 58000 70003;
0207483520999992000071600004+17860+102720FM-12+0175VTUM V0209999C000010075019N0050001N1+02661+02551100231ADDAA124000591AY121061AY221061GF108991061051008001071999KA1120N+02641MA1999999098281MD1999999+0081MW1601REMSYN094AAXX  16004 48352 11550 80000 10266 20255 39828 40023 69964 76022 8657/ 333 20264 58008 70006;
0148483520999992000071609004+17860+102720FM-12+0175VTUM V0201801N001010075019N0150001N1+03201+02521100041ADDAA199000021GF108991051091008001071071MA1999999098121MD1999999+0161REMSYN070AAXX  16094 48352 32565 81802 10320 20252 39812 40004 85977 333 58016;
0173483520999992000071612004+17860+102720FM-12+0175VTUM V0209999C000010075019N0130001N1+02961+02551100171ADDAA124005191GF108991051051008001071061KA1120M+03251MA1999999098231MD1999999+0201REMSYN082AAXX  16124 48352 32563 80000 10296 20255 39823 40017 85576 333 10325 58020 70050;
0182483520999992000071615004+17860+102720FM-12+0175VTUM V0209999C000010075019N0060001N1+02521+02371100521ADDAA101002091AY121031AY221031GF108991061051008001071999MA1999999098541MD1999999+0361MW1601REMSYN082AAXX  16154 48352 21556 80000 10252 20237 39854 40052 76022 8657/ 333 58036 60025;
0194483520999992000071618004+17860+102720FM-12+0175VTUM V0209999C000010075019N0120001N1+02471+02371100401ADDAA103001091AY161061AY261061GF108991061051008001021999MA1999999098421MD1999999+0251MW1021REMSYN094AAXX  16184 48352 /1562 80000 10247 20237 39842 40040 60073 70266 8652/ 333 58025 69997 70076;
0148483520999992000071621004+17860+102720FM-12+0175VTUM V0209999C000010075019N0100001N1+02501+02431100381ADDAA199000021GF108991061051008001071999MA1999999098401MD1999999+0281REMSYN070AAXX  16214 48352 32560 80000 10250 20243 39840 40038 8657/ 333 58028;
0173483520999992000071700004+17860+102720FM-12+0175VTUM V0209999C000010075019N0100001N1+02551+02481100451ADDAA124007191GF108991061051008001071999KA1120N+02441MA1999999098481MD1999999+0221REMSYN082AAXX  17004 48352 32560 80000 10255 20248 39848 40045 8657/ 333 20244 58022 70070;
0148483520999992000071703004+17860+102720FM-12+0175VTUM V0209999C000010075019N0140001N1+02841+02561100501ADDAA199000021GF108991051051008001071999MA1999999098541MD1999999+0161REMSYN070AAXX  17034 48352 32564 80000 10284 20256 39854 40050 8557/ 333 58016;
0154483520999992000071706004+17860+102720FM-12+0175VTUM V0209999C000010075019N0150001N1+03151+02511100381ADDAA124002591GF106991051091008001031031MA1999999098451MD1999999+0211REMSYN076AAXX  17064 48352 32565 60000 10315 20251 39845 40038 85933 333 58021 70026;
0182483520999992000071709004+17860+102720FM-12+0175VTUM V0209999C000010075019N0050001N1+02601+02381100271ADDAA101002091AY121031AY221031GF108991071071008001021999MA1999999098311MD1999999+0231MW1601REMSYN082AAXX  17094 48352 21550 80000 10260 20238 39831 40027 76022 8772/ 333 58023 60025;
0213483520999992000071712004+17860+102720FM-12+0175VTUM V0209999C000010120019N0120001N1+02561+02421100351ADDAA103000391AY161061AY261061GF108991061081008001071999KA1120M+03201MA1999999098371MD1999999+0181MW1021REMSYN100AAXX  17124 48352 /1562 80000 10256 20242 39837 40035 60022 70266 8687/ 333 10320 58018 69937 70023;
0154483520999992000071715004+17860+102720FM-12+0175VTUM V0209999C000010120019N0100001N1+02521+02421100611ADDAA124002391GF108991061081008001071999MA1999999098631MD1999999+0211REMSYN076AAXX  17154 48352 32560 80000 10252 20242 39863 40061 8687/ 333 58021 70023;
0182483520999992000071721004+17860+102720FM-12+0175VTUM V0209999C000010075019N0070001N1+02511+02421100551ADDAA102000191AY161031AY221031GF108991071071008001021999MA1999999098571MD1999999+0171MW1601REMSYN082AAXX  17214 48352 21557 80000 10251 20242 39857 40055 76062 8772/ 333 58017 69926;
0213483520999992000071800004+17860+102720FM-12+0175VTUM V0209999C000010075019N0100001N1+02501+02411100601ADDAA103000191AY161061AY261061GF108991061051008001071999KA1120N+02451MA1999999098611MD1999999+0151MW1021REMSYN100AAXX  18004 48352 /1560 80000 10250 20241 39861 40060 60034 70266 8657/ 333 20245 58015 69927 70027;
0148483520999992000071803004+17860+102720FM-12+0175VTUM V0209999C000010120019N0150001N1+02851+02421100701ADDAA199000021GF107991051081008001071061MA1999999098751MD1999999+0201REMSYN070AAXX  18034 48352 32565 70000 10285 20242 39875 40070 85876 333 58020;
0154483520999992000071806004+17860+102720FM-12+0175VTUM V0209999C000010120019N0150001N1+02951+02391100601ADDAA124002891GF108991061081008001071999MA1999999098651MD1999999+0221REMSYN076AAXX  18064 48352 32565 80000 10295 20239 39865 40060 8687/ 333 58022 70027;
0148483520999992000071809004+17860+102720FM-12+0175VTUM V0209999C000010120019N0150001N1+02901+02401100431ADDAA199000021GF108991061081008001071999MA1999999098471MD1999999+0161REMSYN070AAXX  18094 48352 32565 80000 10290 20240 39847 40043 8687/ 333 58016;
0173483520999992000071812004+17860+102720FM-12+0175VTUM V0209999C000010120019N0140001N1+02571+02271100391ADDAA124000591GF108991061081008001071999KA1120M+03091MA1999999098411MD1999999+0041REMSYN082AAXX  18124 48352 32564 80000 10257 20227 39841 40039 8687/ 333 10309 58004 70004;
0167483520999992000071815004+17860+102720FM-12+0175VTUM V0209999C000010120019N0120001N1+02531+02351100581ADDAA199000091GF108991061081008001071999MA1999999098591MD1999999+0051REMSYN070AAXX  18154 48352 32562 80000 10253 20235 39859 40058 8687/ 333 58005;EQDQ01  00002PRCP99
0194483520999992000071818004+17860+102720FM-12+0175VTUM V0209999C000010120019N0080001N1+02521+02421100521ADDAA103000191AY161061AY261061GF108991061081008001071999MA1999999098541MD1999999-0091MW1611REMSYN094AAXX  18184 48352 /1558 80000 10252 20242 39854 40052 69923 76166 8687/ 333 59009 69927 70006;
0207483520999992000071821004+17860+102720FM-12+0175VTUM V0209999C000010075019N0100001N1+02501+02411100411ADDAA124000591AY161031AY221031GF108991051051008001071061KA1120N+02451MA1999999098431MD1999999-0191MW1021REMSYN094AAXX  18214 48352 11560 80000 10250 20241 39843 40041 69944 70262 85576 333 20245 59019 70004;
0148483520999992000071903004+17860+102720FM-12+0175VTUM V0209999C000010075019N0120001N1+02731+02471100441ADDAA199000021GF108991051051008001071061MA1999999098471MD1999999-0261REMSYN070AAXX  19034 48352 32562 80000 10273 20247 39847 40044 85576 333 59026;
0154483520999992000071906004+17860+102720FM-12+0175VTUM V0202701N001510450019N0150001N1+02971+02491100341ADDAA124000591GF108991041081008001071061MA1999999098391MD1999999-0261REMSYN076AAXX  19064 48352 32565 82703 10297 20249 39839 40034 84876 333 59026 70004;
0167483520999992000071909004+17860+102720FM-12+0175VTUM V0209999C000011050019N0150001N1+02981+02451100121ADDAA199000091GF106991041091008001001031MA1999999098181MD1999999-0311REMSYN070AAXX  19094 48352 32565 60000 10298 20245 39818 40012 84903 333 59031;EQDQ01  00002PRCP99
0173483520999992000071912004+17860+102720FM-12+0175VTUM V0202301N001012200019N0140001N1+02631+02401100191ADDAA124000591GF104991031051008001001061KA1120M+03181MA1999999098221MD1999999-0201REMSYN082AAXX  19124 48352 32564 42302 10263 20240 39822 40019 83506 333 10318 59020 70004;
0167483520999992000071915004+17860+102720FM-12+0175VTUM V0209999C000010450019N0130001N1+02571+02431100411ADDAA199000091GF106991041051008001071061MA1999999098441MD1999999-0171REMSYN070AAXX  19154 48352 32563 60000 10257 20243 39844 40041 84576 333 59017;EQDQ01  00002PRCP99
0154483520999992000071918004+17860+102720FM-12+0175VTUM V0209999C000010075019N0120001N1+02561+02441100351ADDAA124000391GF108991051051008001071061MA1999999098371MD1999999-0171REMSYN076AAXX  19184 48352 32562 80000 10256 20244 39837 40035 85576 333 59017 70002;
0167483520999992000071921004+17860+102720FM-12+0175VTUM V0209999C000010075019N0110001N1+02531+02381100261ADDAA199000091GF108991051051008001071061MA1999999098291MD1999999-0101REMSYN070AAXX  19214 48352 32561 80000 10253 20238 39829 40026 85576 333 59010;EQDQ01  00002PRCP99
0186483520999992000072000004+17860+102720FM-12+0175VTUM V0209999C000012200019N0110001N1+02531+02371100381ADDAA199000091GF104991031051008001001071KA1120N+02471MA1999999098401MD1999999-0031REMSYN076AAXX  20004 48352 32561 40000 10253 20237 39840 40038 83507 333 20247 59003;EQDQ01  00002PRCP99
0167483520999992000072003004+17860+102720FM-12+0175VTUM V0209999C000010075019N0130001N1+02811+02331100491ADDAA199000091GF106991051051008001071061MA1999999098531MD1999999+0051REMSYN070AAXX  20034 48352 32563 60000 10281 20233 39853 40049 85576 333 58005;EQDQ01  00002PRCP99
0167483520999992000072006004+17860+102720FM-12+0175VTUM V0209999C000010450019N0150001N1+03181+02471100411ADDAA199000091GF107991041051008001031061MA1999999098471MD1999999+0071REMSYN070AAXX  20064 48352 32565 70000 10318 20247 39847 40041 84536 333 58007;EQDQ01  00002PRCP99
0167483520999992000072009004+17860+102720FM-12+0175VTUM V0202101N001512200019N0150001N1+03101+02411100171ADDAA199000091GF106991041051008001001061MA1999999098251MD1999999+0051REMSYN070AAXX  20094 48352 32565 62103 10310 20241 39825 40017 84506 333 58005;EQDQ01  00002PRCP99
0186483520999992000072012004+17860+102720FM-12+0175VTUM V0209999C000012200019N0140001N1+02831+02441100321ADDAA199000091GF106991041051008001001061KA1120M+03231MA1999999098361MD1999999+0131REMSYN076AAXX  20124 48352 32564 60000 10283 20244 39836 40032 84506 333 10323 58013;EQDQ01  00002PRCP99
0167483520999992000072015004+17860+102720FM-12+0175VTUM V0209999C000012200019N0130001N1+02721+02391100481ADDAA199000091GF106991041051008001001061MA1999999098511MD1999999+0071REMSYN070AAXX  20154 48352 32563 60000 10272 20239 39851 40048 84506 333 58007;EQDQ01  00002PRCP99
0167483520999992000072018004+17860+102720FM-12+0175VTUM V0209999C000010075019N0120001N1+02641+02331100541ADDAA199000091GF108991051051008001071061MA1999999098571MD1999999+0191REMSYN070AAXX  20184 48352 32562 80000 10264 20233 39857 40054 85576 333 58019;EQDQ01  00002PRCP99
0167483520999992000072021004+17860+102720FM-12+0175VTUM V0209999C000010450019N0100001N1+02581+02351100501ADDAA199000091GF108991041051008001071061MA1999999098521MD1999999+0241REMSYN070AAXX  20214 48352 32560 80000 10258 20235 39852 40050 84576 333 58024;EQDQ01  00002PRCP99
0186483520999992000072100004+17860+102720FM-12+0175VTUM V0209999C000010075019N0100001N1+02581+02421100601ADDAA199000091GF108991051051008001071061KA1120N+02541MA1999999098631MD1999999+0231REMSYN076AAXX  21004 48352 32560 80000 10258 20242 39863 40060 85576 333 20254 58023;EQDQ01  00002PRCP99
0167483520999992000072103004+17860+102720FM-12+0175VTUM V0209999C000010120019N0130001N1+02941+02391100701ADDAA199000091GF108991051081008001071999MA1999999098741MD1999999+0211REMSYN070AAXX  21034 48352 32563 80000 10294 20239 39874 40070 8587/ 333 58021;EQDQ01  00002PRCP99
0167483520999992000072106004+17860+102720FM-12+0175VTUM V0202301N001510120019N0150001N1+03131+02291100611ADDAA199000091GF108991051081008001071061MA1999999098661MD1999999+0201REMSYN070AAXX  21064 48352 32565 82303 10313 20229 39866 40061 85876 333 58020;EQDQ01  00002PRCP99
0167483520999992000072109004+17860+102720FM-12+0175VTUM V0201001N001010075019N0140001N1+03251+02391100331ADDAA199000091GF108991051091008001071061MA1999999098411MD1999999+0161REMSYN070AAXX  21094 48352 32564 81002 10325 20239 39841 40033 85976 333 58016;EQDQ01  00002PRCP99
0213483520999992000072112004+17860+102720FM-12+0175VTUM V0200701N001010042019N0060001N1+02861+02561100461ADDAA101000191AY121061AY221061GF108991061091004501071999KA1120M+03311MA1999999098501MD1999999+0141MW1951REMSYN100AAXX  21124 48352 /1456 80702 10286 20256 39850 40046 69912 79522 8697/ 333 10331 58014 69915 70001;
0182483520999992000072115004+17860+102720FM-12+0175VTUM V0200901N001010075019N0120001N1+02551+02431100771ADDAA103008991AY191031AY291031GF108991061091008001071999MA1999999098801MD1999999+0291MW1171REMSYN082AAXX  21154 48352 21562 80902 10255 20243 39880 40077 71799 8697/ 333 58029 60097;
0194483520999992000072118004+17860+102720FM-12+0175VTUM V0209999C000010042019N0040001N1+02411+02351100711ADDAA103010991AY191061AY291061GF108991061091004501071999MA1999999098721MD1999999+0171MW1951REMSYN094AAXX  21184 48352 /1440 80000 10241 20235 39872 40071 60213 79599 8697/ 333 58017 60117 70205;
0182483520999992000072121004+17860+102720FM-12+0175VTUM V0209999C000010075019N0100001N1+02451+02381100591ADDAA103005191AY191031AY261031GF108991051051008001071061MA1999999098611MD1999999+0091MW1021REMSYN082AAXX  21214 48352 21560 80000 10245 20238 39861 40059 70296 85576 333 58009 60057;
0207483520999992000072200004+17860+102720FM-12+0175VTUM V0209999C000010075019N0150001N1+02471+02431100721ADDAA124021191AY191061AY261061GF108991051051008001071061KA1120N+02371MA1999999098731MD1999999+0121MW1021REMSYN094AAXX  22004 48352 11565 80000 10247 20243 39873 40072 60214 70296 85576 333 20237 58012 70210;
0148483520999992000072203004+17860+102720FM-12+0175VTUM V0209999C000012200019N0150001N1+02851+02521100721ADDAA199000021GF104991031081008001001051MA1999999098761MD1999999+0021REMSYN070AAXX  22034 48352 32565 40000 10285 20252 39876 40072 83805 333 58002;
0154483520999992000072206004+17860+102720FM-12+0175VTUM V0209999C000011050019N0150001N1+03171+02431100551ADDAA124021191GF106991041021008001001051MA1999999098611MD1999999-0061REMSYN076AAXX  22064 48352 32565 60000 10317 20243 39861 40055 84205 333 59006 70210;
0167483520999992000072209004+17860+102720FM-12+0175VTUM V0202901N001010120019N0130001N1+02991+02461100341ADDAA199000091GF108991051081008001071061MA1999999098391MD1999999+0011REMSYN070AAXX  22094 48352 32563 82902 10299 20246 39839 40034 85876 333 58001;EQDQ01  00002PRCP99
0173483520999992000072212004+17860+102720FM-12+0175VTUM V0209999C000010075019N0120001N1+02831+02441100431ADDAA124020891GF108991051051008001071061KA1120M+03291MA1999999098471MD1999999-0031REMSYN082AAXX  22124 48352 32562 80000 10283 20244 39847 40043 85576 333 10329 59003 70209;
0194483520999992000072218004+17860+102720FM-12+0175VTUM V0209999C000010075019N0100001N1+02501+02401100601ADDAA103002091AY191061AY261061GF108991051051008001071061MA1999999098621MD1999999-0111MW1021REMSYN094AAXX  22184 48352 /1560 80000 10250 20240 39862 40060 60023 70296 85576 333 59011 60027 70022;
0201483520999992000072221004+17860+102720FM-12+0175VTUM V0209999C000010075019N0100001N1+02501+02431999999ADDAA102000191AY161031AY221031GF108991051051008001071061MA1999999098521MD1010001-0091MW1021REMSYN082AAXX  22214 48352 21560 80000 10250 20243 39852 50050 70262 85576 333 59009 69926;EQDQ01+000502APC3  
0207483520999992000072300004+17860+102720FM-12+0175VTUM V0209999C000010075019N0100001N1+02521+02451100511ADDAA124002091AY161061AY221061GF108991061051008001071999KA1120N+02461MA1999999098531MD1999999-0211MW1021REMSYN094AAXX  23004 48352 11560 80000 10252 20245 39853 40051 60024 70262 8657/ 333 20246 59021 70019;
0167483520999992000072303004+17860+102720FM-12+0175VTUM V0209999C000010120019N0120001N1+02851+02491100531ADDAA199000091GF107991051081008001071061MA1999999098581MD1999999-0191REMSYN070AAXX  23034 48352 32562 70000 10285 20249 39858 40053 85876 333 59019;EQDQ01  00002PRCP99
0167483520999992000072306004+17860+102720FM-12+0175VTUM V0202401N001010450019N0150001N1+03251+02441100371ADDAA199000091GF106991031021008001041061MA1999999098451MD1999999-0181REMSYN070AAXX  23064 48352 32565 62402 10325 20244 39845 40037 83246 333 59018;EQDQ01  00002PRCP99
0167483520999992000072309004+17860+102720FM-12+0175VTUM V0209999C000010450019N0150001N1+03181+02421100161ADDAA199000091GF105991041091008001061031MA1999999098241MD1999999-0181REMSYN070AAXX  23094 48352 32565 50000 10318 20242 39824 40016 84963 333 59018;EQDQ01  00002PRCP99
0213483520999992000072312004+17860+102720FM-12+0175VTUM V0209999C000010450019N0140001N1+02761+02471100221ADDAA103002091AY161061AY221061GF105991031091008001041031KA1120M+03341MA1999999098271MD1999999-0211MW1131REMSYN100AAXX  23124 48352 /1564 50000 10276 20247 39827 40022 60022 71362 83943 333 10334 59021 60027 70041;
0167483520999992000072315004+17860+102720FM-12+0175VTUM V0209999C000010120019N0120001N1+02751+02611100461ADDAA199000091GF107991051081008001071061MA1999999098501MD1999999-0281REMSYN070AAXX  23154 48352 32562 70000 10275 20261 39850 40046 85876 333 59028;EQDQ01  00002PRCP99
0173483520999992000072321004+17860+102720FM-12+0175VTUM V0209999C000010075019N0100001N1+02571+02471100521ADDAA124002391GF108991051051008001071061KA1120N+02521MA1999999098551MD1999999+0011REMSYN082AAXX  23214 48352 32560 80000 10257 20247 39855 40052 85576 333 20252 58001 70022;
0167483520999992000072403004+17860+102720FM-12+0175VTUM V0209999C000010450019N0130001N1+02891+02571100521ADDAA199000091GF107991041081008001071061MA1999999098571MD1999999-0011REMSYN070AAXX  24034 48352 32563 70000 10289 20257 39857 40052 84876 333 59001;EQDQ01  00002PRCP99
0154483520999992000072406004+17860+102720FM-12+0175VTUM V0209999C000011050019N0150001N1+03231+02421100431ADDAA124002391GF106991041021008001001051MA1999999098491MD1999999+0061REMSYN076AAXX  24064 48352 32565 60000 10323 20242 39849 40043 84205 333 58006 70022;
0167483520999992000072409004+17860+102720FM-12+0175VTUM V0202901N001511050019N0150001N1+03301+02401100211ADDAA199000091GF106991041091008001001031MA1999999098291MD1999999+0051REMSYN070AAXX  24094 48352 32565 62903 10330 20240 39829 40021 84903 333 58005;EQDQ01  00002PRCP99
0214483520999992000072412004+17860+102720FM-12+0175VTUM V0209999C000010450019N0130001N1+03001+02611100281ADDAA199000091AY121061AY221061GF108991041091008001071061KA1120M+03361MA1999999098331MD1999999+0061MW1131REMSYN082AAXX  24124 48352 31563 80000 10300 20261 39833 40028 71322 84976 333 10336 58006;EQDQ01  00002PRCP99
0195483520999992000072415004+17860+102720FM-12+0175VTUM V0209999C000010450019N0120001N1+02811+02661100581ADDAA199000091AY121031AY221031GF107991031091008001071031MA1999999098611MD1999999+0121MW1131REMSYN076AAXX  24154 48352 31562 70000 10281 20266 39861 40058 71322 83973 333 58012;EQDQ01  00002PRCP99
0195483520999992000072418004+17860+102720FM-12+0175VTUM V0209999C000010075019N0110001N1+02621+02451100531ADDAA199000091AY121061AY221061GF108991051091008001071061MA1999999098551MD1999999+0071MW1131REMSYN076AAXX  24184 48352 31561 80000 10262 20245 39855 40053 71322 85976 333 58007;EQDQ01  00002PRCP99
0167483520999992000072421004+17860+102720FM-12+0175VTUM V0209999C000010075019N0100001N1+02571+02411100561ADDAA199000091GF108991051051008001071061MA1999999098581MD1999999+0131REMSYN070AAXX  24214 48352 32560 80000 10257 20241 39858 40056 85576 333 58013;EQDQ01  00002PRCP99
0186483520999992000072500004+17860+102720FM-12+0175VTUM V0209999C000010075019N0100001N1+02561+02471100661ADDAA199000091GF108991051051008001071061KA1120N+02531MA1999999098681MD1999999+0141REMSYN076AAXX  25004 48352 32560 80000 10256 20247 39868 40066 85576 333 20253 58014;EQDQ01  00002PRCP99
0167483520999992000072503004+17860+102720FM-12+0175VTUM V0209999C000012200019N0130001N1+02921+02551100621ADDAA199000091GF106991031051008001001061MA1999999098661MD1999999+0101REMSYN070AAXX  25034 48352 32563 60000 10292 20255 39866 40062 83506 333 58010;EQDQ01  00002PRCP99
0167483520999992000072506004+17860+102720FM-12+0175VTUM V0209999C000010450019N0140001N1+03211+02411100481ADDAA199000091GF106991041021008001031051MA1999999098551MD1999999+0051REMSYN070AAXX  25064 48352 32564 60000 10321 20241 39855 40048 84235 333 58005;EQDQ01  00002PRCP99
0167483520999992000072509004+17860+102720FM-12+0175VTUM V0209999C000010120019N0130001N1+03111+02451100231ADDAA199000091GF108991051081008001071061MA1999999098301MD1999999+0021REMSYN070AAXX  25094 48352 32563 80000 10311 20245 39830 40023 85876 333 58002;EQDQ01  00002PRCP99
0186483520999992000072512004+17860+102720FM-12+0175VTUM V0202101N001010120019N0130001N1+02761+02271100311ADDAA199000091GF108991051081008001071061KA1120M+03371MA1999999098351MD1999999+0031REMSYN076AAXX  25124 48352 32563 82102 10276 20227 39835 40031 85876 333 10337 58003;EQDQ01  00002PRCP99
0195483520999992000072515004+17860+102720FM-12+0175VTUM V0209999C000010075019N0120001N1+02621+02341100571ADDAA199000091AY191031AY221031GF108991051051008001071061MA1999999098601MD1999999-0011MW1021REMSYN076AAXX  25154 48352 31562 80000 10262 20234 39860 40057 70292 85576 333 59001;EQDQ01  00002PRCP99
0195483520999992000072518004+17860+102720FM-12+0175VTUM V0209999C000010075019N0120001N1+02551+02361100521ADDAA199000091AY191061AY221061GF108991051051008001071061MA1999999098541MD1999999-0011MW1021REMSYN076AAXX  25184 48352 31562 80000 10255 20236 39854 40052 70292 85576 333 59001;EQDQ01  00002PRCP99
0167483520999992000072521004+17860+102720FM-12+0175VTUM V0209999C000010450019N0110001N1+02551+02421100521ADDAA199000091GF106991041051008001071061MA1999999098541MD1999999-0041REMSYN070AAXX  25214 48352 32561 60000 10255 20242 39854 40052 84576 333 59004;EQDQ01  00002PRCP99
0186483520999992000072600004+17860+102720FM-12+0175VTUM V0209999C000010075019N0100001N1+02541+02421100681ADDAA199000091GF107991051051008001071061KA1120N+02501MA1999999098701MD1999999+0021REMSYN076AAXX  26004 48352 32560 70000 10254 20242 39870 40068 85576 333 20250 58002;EQDQ01  00002PRCP99
0167483520999992000072603004+17860+102720FM-12+0175VTUM V0209999C000010120019N0120001N1+02861+02521100661ADDAA199000091GF107991051081008001071061MA1999999098701MD1999999+0041REMSYN070AAXX  26034 48352 32562 70000 10286 20252 39870 40066 85876 333 58004;EQDQ01  00002PRCP99
0195483520999992000072606004+17860+102720FM-12+0175VTUM V0203101N001510075019N0080001N1+03021+02341100521ADDAA199000091AY121061AY221061GF107991061091008001071031MA1999999098571MD1999999+0041MW1151REMSYN076AAXX  26064 48352 31558 73103 10302 20234 39857 40052 71522 86973 333 58004;EQDQ01  00002PRCP99
0182483520999992000072609004+17860+102720FM-12+0175VTUM V0209999C000012200019N0150001N1+03151+02511100201ADDAA103003091AY161031AY211031GF102991021091008001041031MA1999999098281MD1999999-0031MW1011REMSYN082AAXX  26094 48352 21565 20000 10315 20251 39828 40020 70161 82943 333 59003 60037;
0207483520999992000072612004+17860+102720FM-12+0175VTUM V0209999C000010450019N0150001N1+02761+02381100291ADDAA112003091AY161061AY211061GF105991031091008001041031KA1120M+03231MA1999999098331MD1999999-0021MW1331REMSYN094AAXX  26124 48352 11565 50000 10276 20238 39833 40029 60032 73361 83943 333 10323 59002 70030;
0167483520999992000072615004+17860+102720FM-12+0175VTUM V0209999C000012200019N0120001N1+02601+02371100521ADDAA199000091GF104991021011008001031051MA1999999098551MD1999999-0051REMSYN070AAXX  26154 48352 32562 40000 10260 20237 39855 40052 82135 333 59005;EQDQ01  00002PRCP99
0154483520999992000072618004+17860+102720FM-12+0175VTUM V0209999C000012200019N0110001N1+02541+02391100431ADDAA124003091GF102991021011008001001001MA1999999098451MD1999999-0091REMSYN076AAXX  26184 48352 32561 20000 10254 20239 39845 40043 82100 333 59009 70030;
0167483520999992000072621004+17860+102720FM-12+0175VTUM V0209999C000012200019N0110001N1+02471+02401100251ADDAA199000091GF101991011011008001001001MA1999999098281MD1999999-0271REMSYN070AAXX  26214 48352 32561 10000 10247 20240 39828 40025 81100 333 59027;EQDQ01  00002PRCP99
0173483520999992000072700004+17860+102720FM-12+0175VTUM V0209999C000010075019N0100001N1+02611+02451100391ADDAA124003091GF106991051051008001001051KA1120N+02451MA1999999098411MD1999999-0291REMSYN082AAXX  27004 48352 32560 60000 10261 20245 39841 40039 85505 333 20245 59029 70030;
0167483520999992000072703004+17860+102720FM-12+0175VTUM V0209999C000012200019N0130001N1+03111+02391100441ADDAA199000091GF103991021021008001001051MA1999999098491MD1999999-0221REMSYN070AAXX  27034 48352 32563 30000 10311 20239 39849 40044 82205 333 59022;EQDQ01  00002PRCP99
0167483520999992000072706004+17860+102720FM-12+0175VTUM V0201801N001012200019N0150001N1+03401+02401100031ADDAA199000091GF103991031021008001001051MA1999999098121MD1999999-0171REMSYN070AAXX  27064 48352 32565 31802 10340 20240 39812 40003 83205 333 59017;EQDQ01  00002PRCP99
0186483520999992000072712004+17860+102720FM-12+0175VTUM V0209999C000011050019N0130001N1+03071+02531100011ADDAA199000091GF106991021051008001031061KA1120M+03451MA1999999098081MD1999999-0271REMSYN076AAXX  27124 48352 32563 60000 10307 20253 39808 40001 82536 333 10345 59027;EQDQ01  00002PRCP99
0167483520999992000072715004+17860+102720FM-12+0175VTUM V0209999C000012200019N0120001N1+02861+02551100291ADDAA199000091GF102991001001999999001051MA1999999098341MD1999999-0231REMSYN070AAXX  27154 48352 32962 20000 10286 20255 39834 40029 80005 333 59023;EQDQ01  00002PRCP99
0195483520999992000072718004+17860+102720FM-12+0175VTUM V0209999C000012200019N0120001N1+02751+02541100241ADDAA199000091AY101061AY201061GF103991021091008001001031MA1999999098291MD1999999-0191MW1131REMSYN076AAXX  27184 48352 31562 30000 10275 20254 39829 40024 71300 82903 333 59019;EQDQ01  00002PRCP99
0195483520999992000072721004+17860+102720FM-12+0175VTUM V0209999C000010075019N0110001N1+02701+02511100181ADDAA199000091AY111031AY201031GF108991051091008001071061MA1999999098221MD1999999-0071MW1131REMSYN076AAXX  27214 48352 31561 80000 10270 20251 39822 40018 71310 85976 333 59007;EQDQ01  00002PRCP99
0186483520999992000072800004+17860+102720FM-12+0175VTUM V0209999C000010075019N0100001N1+02701+02591100361ADDAA199000091GF108991051051008001071061KA1120N+02641MA1999999098391MD1999999-0031REMSYN076AAXX  28004 48352 32560 80000 10270 20259 39839 40036 85576 333 20264 59003;EQDQ01  00002PRCP99
0167483520999992000072803004+17860+102720FM-12+0175VTUM V0200601N001012200019N0130001N1+02951+02521100461ADDAA199000091GF103991031051008001001051MA1999999098511MD1999999+0021REMSYN070AAXX  28034 48352 32563 30602 10295 20252 39851 40046 83505 333 58002;EQDQ01  00002PRCP99
0167483520999992000072806004+17860+102720FM-12+0175VTUM V0209999C000011050019N0150001N1+03241+02471100241ADDAA199000091GF105991041021008001001051MA1999999098321MD1999999+0001REMSYN070AAXX  28064 48352 32565 50000 10324 20247 39832 40024 84205 333 58000;EQDQ01  00002PRCP99
0167483520999992000072809004+17860+102720FM-12+0175VTUM V0209999C000010450019N0140001N1+03171+02511100081ADDAA199000091GF106991041081008001031051MA1999999098161MD1999999+0051REMSYN070AAXX  28094 48352 32564 60000 10317 20251 39816 40008 84835 333 58005;EQDQ01  00002PRCP99
0186483520999992000072812004+17860+102720FM-12+0175VTUM V0209999C000012200019N0130001N1+03071+02621100181ADDAA199000091GF106991031081008001001061KA1120M+03431MA1999999098251MD1999999+0171REMSYN076AAXX  28124 48352 32563 60000 10307 20262 39825 40018 83806 333 10343 58017;EQDQ01  00002PRCP99
0182483520999992000072815004+17860+102720FM-12+0175VTUM V0209999C000010075019N0080001N1+02601+02381100121ADDAA101000191AY191031AY221031GF108991061091008001071999MA1999999098431MD1999999+0121MW1951REMSYN082AAXX  28154 48352 21558 80000 10260 20238 39843 40012 79592 8697/ 333 58012 69915;
0182483520999992000072821004+17860+102720FM-12+0175VTUM V0209999C000010075019N0060001N1+02531+02411100511ADDAA103000591AY161031AY261031GF108991061071008001071999MA1999999098531MD1999999+0331MW1611REMSYN082AAXX  28214 48352 21556 80000 10253 20241 39853 40051 76166 8677/ 333 58033 69947;
0213483520999992000072900004+17860+102720FM-12+0175VTUM V0209999C000010075019N0100001N1+02551+02451100581ADDAA103000391AY161061AY261061GF108991061051008001071999KA1120N+02501MA1999999098611MD1999999+0221MW1021REMSYN100AAXX  29004 48352 /1560 80000 10255 20245 39861 40058 60014 70266 8657/ 333 20250 58022 69937 70010;
0148483520999992000072903004+17860+102720FM-12+0175VTUM V0209999C000010120019N0120001N1+02851+02491100651ADDAA199000021GF108991061081008001071999MA1999999098691MD1999999+0191REMSYN070AAXX  29034 48352 32562 80000 10285 20249 39869 40065 8687/ 333 58019;
0182483520999992000072906004+17860+102720FM-12+0175VTUM V0209999C000010120019N0090001N1+02951+02521100491ADDAA124001091AY121061AY221061GF108991061081008001071999MA1999999098541MD1999999+0251MW1151REMSYN082AAXX  29064 48352 31559 80000 10295 20252 39854 40049 71522 8687/ 333 58025 70010;
0182483520999992000072909004+17860+102720FM-12+0175VTUM V0209999C000010075019N0150001N1+02671+02531100321ADDAA103010991AY161031AY261031GF107991051091008001071031MA1999999098351MD1999999+0241MW1011REMSYN082AAXX  29094 48352 21565 70000 10267 20253 39835 40032 70166 85973 333 58024 60117;
0207483520999992000072912004+17860+102720FM-12+0175VTUM V0209999C000010450019N0130001N1+02651+02481100391ADDAA112010991AY161061AY221061GF106991041091008001041031KA1120M+03061MA1999999098421MD1999999+0211MW1011REMSYN094AAXX  29124 48352 11563 60000 10265 20248 39842 40039 60112 70162 84943 333 10306 58021 70117;
0167483520999992000072915004+17860+102720FM-12+0175VTUM V0209999C000012200019N0120001N1+02571+02481100731ADDAA199000091GF104991031081008001001051MA1999999098751MD1999999+0321REMSYN070AAXX  29154 48352 32562 40000 10257 20248 39875 40073 83805 333 58032;EQDQ01  00002PRCP99
0154483520999992000072918004+17860+102720FM-12+0175VTUM V0209999C000012200019N0110001N1+02551+02481100641ADDAA124011491GF103991031051008001001011MA1999999098671MD1999999+0161REMSYN076AAXX  29184 48352 32561 30000 10255 20248 39867 40064 83501 333 58016 70114;
0167483520999992000072921004+17860+102720FM-12+0175VTUM V0209999C000010450019N0100001N1+02561+02501100651ADDAA199000091GF106991041051008001071061MA1999999098681MD1999999+0141REMSYN070AAXX  29214 48352 32560 60000 10256 20250 39868 40065 84576 333 58014;EQDQ01  00002PRCP99
0173483520999992000073000004+17860+102720FM-12+0175VTUM V0209999C000010075019N0100001N1+02621+02551100731ADDAA124010791GF107991051051008001071061KA1120N+02531MA1999999098751MD1999999+0181REMSYN082AAXX  30004 48352 32560 70000 10262 20255 39875 40073 85576 333 20253 58018 70107;
0167483520999992000073003004+17860+102720FM-12+0175VTUM V0209999C000010075019N0120001N1+02841+02571100491ADDAA199000091GF108991051051008001071061MA1999999098821MD1999999+0141REMSYN070AAXX  30034 48352 32562 80000 10284 20257 39882 40049 85576 333 58014;EQDQ01  00002PRCP99
0154483520999992000073006004+17860+102720FM-12+0175VTUM V0209999C000012200019N0140001N1+03191+02531100571ADDAA124010791GF104991031021008001001051MA1999999098641MD1999999+0081REMSYN076AAXX  30064 48352 32564 40000 10319 20253 39864 40057 83205 333 58008 70107;
0167483520999992000073009004+17860+102720FM-12+0175VTUM V0209999C000012200019N0150001N1+03251+02391100351ADDAA199000091GF103991031091008001001031MA1999999098421MD1999999+0031REMSYN070AAXX  30094 48352 32565 30000 10325 20239 39842 40035 83903 333 58003;EQDQ01  00002PRCP99
0186483520999992000073012004+17860+102720FM-12+0175VTUM V0209999C000010075019N0130001N1+02961+02571100421ADDAA199000091GF108991051051008001071061KA1120M+03311MA1999999098471MD1999999+0031REMSYN076AAXX  30124 48352 32563 80000 10296 20257 39847 40042 85576 333 10331 58003;EQDQ01  00002PRCP99
0195483520999992000073015004+17860+102720FM-12+0175VTUM V0209999C000012200019N0120001N1+02731+02501100721ADDAA199000091AY121031AY211031GF103991021091008001001031MA1999999098761MD1999999-0011MW1131REMSYN076AAXX  30154 48352 31562 30000 10273 20250 39876 40072 71321 82903 333 59001;EQDQ01  00002PRCP99
0195483520999992000073018004+17860+102720FM-12+0175VTUM V0209999C000012200019N0110001N1+02681+02521100621ADDAA199000091AY111061AY201061GF102991021091008001001031MA1999999098651MD1999999-0021MW1131REMSYN076AAXX  30184 48352 31561 20000 10268 20252 39865 40062 71310 82903 333 59002;EQDQ01  00002PRCP99
0167483520999992000073021004+17860+102720FM-12+0175VTUM V0209999C000010075019N0100001N1+02651+02551100581ADDAA199000091GF106991051051008001001051MA1999999098611MD1999999-0071REMSYN070AAXX  30214 48352 32560 60000 10265 20255 39861 40058 85505 333 59007;EQDQ01  00002PRCP99
0186483520999992000073100004+17860+102720FM-12+0175VTUM V0209999C000010120019N0100001N1+02651+02551100691ADDAA199000091GF107991051081008001071061KA1120N+02521MA1999999098721MD1999999-0041REMSYN076AAXX  31004 48352 32560 70000 10265 20255 39872 40069 85876 333 20252 59004;EQDQ01  00002PRCP99
0167483520999992000073103004+17860+102720FM-12+0175VTUM V0209999C000010075019N0120001N1+02801+02541100721ADDAA199000091GF108991051051008001071061MA1999999098761MD1999999-0071REMSYN070AAXX  31034 48352 32562 80000 10280 20254 39876 40072 85576 333 59007;EQDQ01  00002PRCP99
0167483520999992000073109004+17860+102720FM-12+0175VTUM V0209999C000010450019N0130001N1+03131+02521100371ADDAA199000091GF106991041081008001031061MA1999999098431MD1999999+0021REMSYN070AAXX  31094 48352 32563 60000 10313 20252 39843 40037 84836 333 58002;EQDQ01  00002PRCP99
0186483520999992000073112004+17860+102720FM-12+0175VTUM V0209999C000010075019N0120001N1+02921+02571100401ADDAA199000091GF108991051051008001071061KA1120M+03181MA1999999098441MD1999999-0021REMSYN076AAXX  31124 48352 32562 80000 10292 20257 39844 40040 85576 333 10318 59002;EQDQ01  00002PRCP99
0195483520999992000073115004+17860+102720FM-12+0175VTUM V0209999C000012200019N0110001N1+02801+02511100671ADDAA199000091AY111031AY201031GF104991031091008001001031MA1999999098711MD1999999-0051MW1171REMSYN076AAXX  31154 48352 31561 40000 10280 20251 39871 40067 71710 83903 333 59005;EQDQ01  00002PRCP99
0194483520999992000073118004+17860+102720FM-12+0175VTUM V0209999C000010075019N0050001N1+02381+02261100661ADDAA102002091AY191061AY261061GF108991061051008001071999MA1999999098671MD1999999+0041MW1611REMSYN094AAXX  31184 48352 /1550 80000 10238 20226 39867 40066 60023 76196 8657/ 333 58004 60026 70021;
0182483520999992000073121004+17860+102720FM-12+0175VTUM V0209999C000010075019N0100001N1+02381+02291100571ADDAA103000191AY161031AY221031GF108991051051008001071061MA1999999098591MD1999999-0011MW1021REMSYN082AAXX  31214 48352 21560 80000 10238 20229 39859 40057 70262 85576 333 59001 69927;
0207483520999992000080100004+17860+102720FM-12+0175VTUM V0209999C000010075019N0100001N1+02451+02381100661ADDAA124002091AY161061AY221061GF108991061051008001071999KA1120N+02361MA1999999098671MD1999999-0031MW1021REMSYN094AAXX  01004 48352 11560 80000 10245 20238 39867 40066 60024 70262 8657/ 333 20236 59003 70023;
0148483520999992000080103004+17860+102720FM-12+0175VTUM V0200901N001510120019N0120001N1+02791+02451100691ADDAA199000021GF107991051081008001071061MA1999999098731MD1999999-0031REMSYN070AAXX  01034 48352 32562 70903 10279 20245 39873 40069 85876 333 59003;
0154483520999992000080106004+17860+102720FM-12+0175VTUM V0209999C000010450019N0140001N1+03101+02471100591ADDAA124002391GF106991031021008001031061MA1999999098651MD1999999-0031REMSYN076AAXX  01064 48352 32564 60000 10310 20247 39865 40059 83236 333 59003 70023;
0167483520999992000080109004+17860+102720FM-12+0175VTUM V0209999C000010450019N0150001N1+03271+02461100321ADDAA199000091GF106991031091008001031031MA1999999098391MD1999999-0051REMSYN070AAXX  01094 48352 32565 60000 10327 20246 39839 40032 83933 333 59005;EQDQ01  00002PRCP99
0201483520999992000080112004+17860+102720FM-12+0175VTUM V0209999C000010450019N0130001N1+02771+02301100451ADDAA124002391AY121061AY221061GF107991041091008001031031KA1120M+03331MA1999999098491MD1999999+0051MW1131REMSYN088AAXX  01124 48352 31563 70000 10277 20230 39849 40045 71322 84933 333 10333 58005 70023;
0182483520999992000080115004+17860+102720FM-12+0175VTUM V0209999C000010075019N0060001N1+02501+02351100691ADDAA103001091AY191031AY261031GF108991071071008001021999MA1999999098711MD1999999+0021MW1611REMSYN082AAXX  01154 48352 21556 80000 10250 20235 39871 40069 76196 8772/ 333 58002 60017;
0194483520999992000080118004+17860+102720FM-12+0175VTUM V0209999C000010075019N0100001N1+02501+02411100621ADDAA103000391AY191061AY261061GF108991061051008001071999MA1999999098641MD1999999-0041MW1021REMSYN094AAXX  01184 48352 /1560 80000 10250 20241 39864 40062 60023 70296 8657/ 333 59004 69937 70019;
0148483520999992000080121004+17860+102720FM-12+0175VTUM V0209999C000010075019N0100001N1+02501+02441100561ADDAA199000021GF108991061051008001071999MA1999999098581MD1999999-0011REMSYN070AAXX  01214 48352 32560 80000 10250 20244 39858 40056 8657/ 333 59001;
0213483520999992000080200004+17860+102720FM-12+0175VTUM V0209999C000010075019N0120001N1+02561+02501100651ADDAA102000191AY161061AY221061GF108991061051008001071999KA1120N+02461MA1999999098681MD1999999-0011MW1021REMSYN100AAXX  02004 48352 /1562 80000 10256 20250 39868 40065 60024 70262 8657/ 333 20246 59001 69916 70018;
0148483520999992000080203004+17860+102720FM-12+0175VTUM V0209999C000011050019N0130001N1+02901+02551100671ADDAA199000021GF107991041081008001001061MA1999999098711MD1999999-0021REMSYN070AAXX  02034 48352 32563 70000 10290 20255 39871 40067 84806 333 59002;
0154483520999992000080206004+17860+102720FM-12+0175VTUM V0202201N001010120019N0140001N1+03141+02521100561ADDAA124001891GF108991051081008001071061MA1999999098611MD1999999-0031REMSYN076AAXX  02064 48352 32564 82202 10314 20252 39861 40056 85876 333 59003 70018;
0167483520999992000080209004+17860+102720FM-12+0175VTUM V0201901N001010075019N0150001N1+03151+02531100331ADDAA199000091GF108991051091008001071999MA1999999098391MD1999999+0011REMSYN070AAXX  02094 48352 32565 81902 10315 20253 39839 40033 8597/ 333 58001;EQDQ01  00002PRCP99
0201483520999992000080212004+17860+102720FM-12+0175VTUM V0202201N004110042019N0120001N1+02861+02241100381ADDAA124001891AY121061AY221061GF108991061091004501071999KA1120M+03301MA1999999098421MD1999999-0071MW1171REMSYN088AAXX  02124 48352 31462 82208 10286 20224 39842 40038 71722 8697/ 333 10330 59007 70018;
0182483520999992000080215004+17860+102720FM-12+0175VTUM V0209999C000010075019N0120001N1+02641+02581100561ADDAA103000391AY191031AY221031GF108991051091008001071061MA1999999098591MD1999999-0131MW1131REMSYN082AAXX  02154 48352 21562 80000 10264 20258 39859 40056 71392 85976 333 59013 69937;
0188483520999992000080218004+17860+102720FM-12+0175VTUM V0209999C000010075019N0110001N1+02651+02511100501ADDAA118000391AY161061AY221061GF108991051051008001071061MA1999999098531MD1999999-0121MW1021REMSYN088AAXX  02184 48352 11561 80000 10265 20251 39853 40050 69933 70262 85576 333 59012 70004;
0167483520999992000080221004+17860+102720FM-12+0175VTUM V0209999C000010075019N0100001N1+02621+02521100421ADDAA199000091GF108991051051008001071061MA1999999098441MD1999999-0141REMSYN070AAXX  02214 48352 32560 80000 10262 20252 39844 40042 85576 333 59014;EQDQ01  00002PRCP99
0173483520999992000080300004+17860+102720FM-12+0175VTUM V0209999C000010075019N0100001N1+02631+02501100511ADDAA124000391GF108991061051008001071999KA1120N+02581MA1999999098531MD1999999-0141REMSYN082AAXX  03004 48352 32560 80000 10263 20250 39853 40051 8657/ 333 20258 59014 70003;
0167483520999992000080303004+17860+102720FM-12+0175VTUM V0209999C000010075019N0120001N1+02831+02591100631ADDAA199000091GF108991051051008001071061MA1999999098671MD1999999+0041REMSYN070AAXX  03034 48352 32562 80000 10283 20259 39867 40063 85576 333 58004;EQDQ01  00002PRCP99
0154483520999992000080306004+17860+102720FM-12+0175VTUM V0202801N001510450019N0140001N1+03101+02461100481ADDAA124000391GF108991041081008001071061MA1999999098541MD1999999-0081REMSYN076AAXX  03064 48352 32564 82803 10310 20246 39854 40048 84876 333 59008 70003;
0167483520999992000080309004+17860+102720FM-12+0175VTUM V0202301N001510120019N0140001N1+03031+02491100321ADDAA199000091GF108991051081008001071061MA1999999098371MD1999999-0011REMSYN070AAXX  03094 48352 32564 82303 10303 20249 39837 40032 85876 333 59001;EQDQ01  00002PRCP99
0201483520999992000080312004+17860+102720FM-12+0175VTUM V0209999C000010450019N0120001N1+02861+02491100331ADDAA124000391AY121061AY221061GF108991041091008001071071KA1120M+03201MA1999999098371MD1999999-0051MW1131REMSYN088AAXX  03124 48352 31562 80000 10286 20249 39837 40033 71322 84977 333 10320 59005 70003;
0167483520999992000080315004+17860+102720FM-12+0175VTUM V0209999C000010075019N0110001N1+02731+02551100431ADDAA199000091GF106991051051008001001051MA1999999098461MD1999999-0131REMSYN070AAXX  03154 48352 32561 60000 10273 20255 39846 40043 85505 333 59013;EQDQ01  00002PRCP99
0167483520999992000080318004+17860+102720FM-12+0175VTUM V0209999C000012200019N0100001N1+02681+02571100351ADDAA199000091GF103991021051008001001051MA1999999098391MD1999999-0151REMSYN070AAXX  03184 48352 32560 30000 10268 20257 39839 40035 82505 333 59015;EQDQ01  00002PRCP99
0167483520999992000080321004+17860+102720FM-12+0175VTUM V0209999C000010075019N0100001N1+02671+02571100321ADDAA199000091GF108991061051008001071999MA1999999098351MD1999999-0101REMSYN070AAXX  03214 48352 32560 80000 10267 20257 39835 40032 8657/ 333 59010;EQDQ01  00002PRCP99
0213483520999992000080400004+17860+102720FM-12+0175VTUM V0209999C000010075019N0020001N1+02511+02471100451ADDAA103007991AY161061AY221061GF108991071071008001021999KA1120N+02501MA1999999098471MD1999999-0061MW1611REMSYN100AAXX  04004 48352 /1520 80000 10251 20247 39847 40045 60084 76162 8772/ 333 20250 59006 60087 70080;
0182483520999992000080403004+17860+102720FM-12+0175VTUM V0209999C000010075019N0050001N1+02541+02481100611ADDAA103002091AY161031AY261031GF108991071071008001021999MA1999999098631MD1999999-0021MW1601REMSYN082AAXX  04034 48352 21550 80000 10254 20248 39863 40061 76066 8772/ 333 59002 60027;
0194483520999992000080406004+17860+102720FM-12+0175VTUM V0209999C000010450019N0120001N1+02791+02611100481ADDAA103000591AY161061AY261061GF108991041081008001071999MA1999999098521MD1999999+0001MW1021REMSYN094AAXX  04064 48352 /1562 80000 10279 20261 39852 40048 60031 70266 8487/ 333 58000 69947 70107;
0148483520999992000080409004+17860+102720FM-12+0175VTUM V0209999C000010450019N0140001N1+02891+02551100281ADDAA199000021GF108991041081008001071999MA1999999098341MD1999999-0041REMSYN070AAXX  04094 48352 32564 80000 10289 20255 39834 40028 8487/ 333 59004;
0173483520999992000080412004+17860+102720FM-12+0175VTUM V0209999C000010450019N0120001N1+02781+02571100361ADDAA124010791GF108991041081008001071999KA1120M+02961MA1999999098401MD1999999+0031REMSYN082AAXX  04124 48352 32562 80000 10278 20257 39840 40036 8487/ 333 10296 58003 70107;
0176483520999992000080415004+17860+102720FM-12+0175VTUM V0209999C000010450019N0110001N1+02681+02581100561ADDAA199000021AY121031AY221031GF106991031091008001071031MA1999999098591MD1999999+0131MW1131REMSYN076AAXX  04154 48352 31561 60000 10268 20258 39859 40056 71322 83973 333 58013;
0195483520999992000080421004+17860+102720FM-12+0175VTUM V0209999C000010450019N0100001N1+02601+02541100411ADDAA199000091AY121031AY221031GF107991041091008001041031MA1999999098711MD1999999+0091MW1131REMSYN076AAXX  04214 48352 31560 70000 10260 20254 39871 40041 71322 84943 333 58009;EQDQ01  00002PRCP99
0201483520999992000080500004+17860+102720FM-12+0175VTUM V0209999C000010075019N0100001N1+02561+02471100541ADDAA124002891AY191061AY221061GF108991061091008001071999KA1120N+02541MA1999999098571MD1999999+0091MW1291REMSYN088AAXX  05004 48352 31560 80000 10256 20247 39857 40054 72992 8697/ 333 20254 58009 70027;
0167483520999992000080503004+17860+102720FM-12+0175VTUM V0200401N001510075019N0130001N1+02701+02471100671ADDAA199000091GF108991051051008001071999MA1999999098701MD1999999+0061REMSYN070AAXX  05034 48352 32563 80403 10270 20247 39870 40067 8557/ 333 58006;EQDQ01  00002PRCP99
0167483520999992000080506004+17860+102720FM-12+0175VTUM V0200801N001010075019N0140001N1+02851+02461100521ADDAA199000091GF108991061091008001071999MA1999999098561MD1999999+0041REMSYN070AAXX  05064 48352 32564 80802 10285 20246 39856 40052 8697/ 333 58004;EQDQ01  00002PRCP99
0167483520999992000080509004+17860+102720FM-12+0175VTUM V0209999C000010075019N0140001N1+02841+02441100331ADDAA199000091GF108991051091008001071999MA1999999098371MD1999999+0051REMSYN070AAXX  05094 48352 32564 80000 10284 20244 39837 40033 8597/ 333 58005;EQDQ01  00002PRCP99
0214483520999992000080512004+17860+102720FM-12+0175VTUM V0209999C000010450019N0130001N1+02741+02501100341ADDAA199000091AY121061AY221061GF108991041091008001071071KA1120M+02901MA1999999098371MD1999999-0021MW1131REMSYN082AAXX  05124 48352 31563 80000 10274 20250 39837 40034 71322 84977 333 10290 59002;EQDQ01  00002PRCP99
0195483520999992000080515004+17860+102720FM-12+0175VTUM V0209999C000010450019N0120001N1+02651+02511100661ADDAA199000091AY121031AY221031GF106991041091008001061031MA1999999098691MD1999999+0101MW1131REMSYN076AAXX  05154 48352 31562 60000 10265 20251 39869 40066 71322 84963 333 58010;EQDQ01  00002PRCP99
0195483520999992000080518004+17860+102720FM-12+0175VTUM V0209999C000010450019N0110001N1+02551+02451100571ADDAA199000091AY121061AY221061GF107991041091008001071031MA1999999098601MD1999999+0091MW1131REMSYN076AAXX  05184 48352 31561 70000 10255 20245 39860 40057 71322 84973 333 58009;EQDQ01  00002PRCP99
0167483520999992000080521004+17860+102720FM-12+0175VTUM V0209999C000010075019N0100001N1+02501+02431100541ADDAA199000091GF108991051051008001071999MA1999999098551MD1999999+0131REMSYN070AAXX  05214 48352 32560 80000 10250 20243 39855 40054 8557/ 333 58013;EQDQ01  00002PRCP99
0186483520999992000080600004+17860+102720FM-12+0175VTUM V0209999C000010075019N0100001N1+02521+02451100621ADDAA199000091GF108991051051008001071061KA1120N+02471MA1999999098641MD1999999+0081REMSYN076AAXX  06004 48352 32560 80000 10252 20245 39864 40062 85576 333 20247 58008;EQDQ01  00002PRCP99
0167483520999992000080603004+17860+102720FM-12+0175VTUM V0200801N001010075019N0130001N1+02691+02491100731ADDAA199000091GF108991051051008001071061MA1999999098771MD1999999+0061REMSYN070AAXX  06034 48352 32563 80802 10269 20249 39877 40073 85576 333 58006;EQDQ01  00002PRCP99
0167483520999992000080606004+17860+102720FM-12+0175VTUM V0200901N001510120019N0140001N1+02911+02481100601ADDAA199000091GF107991051081008001031061MA1999999098641MD1999999+0081REMSYN070AAXX  06064 48352 32564 70903 10291 20248 39864 40060 85836 333 58008;EQDQ01  00002PRCP99
0182483520999992000080609004+17860+102720FM-12+0175VTUM V0201201N001010075019N0120001N1+02651+02541100411ADDAA102022191AY191031AY221031GF108991051051008001071061MA1999999098441MD1999999+0081MW1021REMSYN082AAXX  06094 48352 21562 81202 10265 20254 39844 40041 70292 85576 333 58008 60226;
0213483520999992000080612004+17860+102720FM-12+0175VTUM V0209999C000010075019N0120001N1+02631+02541100451ADDAA103000791AY191061AY261061GF108991051051008001071061KA1120M+03041MA1999999098481MD1999999+0111MW1021REMSYN100AAXX  06124 48352 /1562 80000 10263 20254 39848 40045 60222 70296 85576 333 10304 58011 69907 70224;
0167483520999992000080615004+17860+102720FM-12+0175VTUM V0209999C000010075019N0110001N1+02601+02531100731ADDAA199000091GF108991051051008001031061MA1999999098761MD1999999+0071REMSYN070AAXX  06154 48352 32561 80000 10260 20253 39876 40073 85536 333 58007;EQDQ01  00002PRCP99
0194483520999992000080618004+17860+102720FM-12+0175VTUM V0209999C000010075019N0070001N1+02571+02511100681ADDAA101000191AY161061AY221061GF108991061091008001071999MA1999999098701MD1999999+0111MW1951REMSYN094AAXX  06184 48352 /1557 80000 10257 20251 39870 40068 60233 79562 8697/ 333 58011 69915 70225;
0182483520999992000080621004+17860+102720FM-12+0175VTUM V0209999C000010075019N0060001N1+02431+02391100551ADDAA103003091AY191031AY261031GF108991061051008001071999MA1999999098561MD1999999+0011MW1611REMSYN082AAXX  06214 48352 21556 80000 10243 20239 39856 40055 76196 8657/ 333 58001 60037;
0213483520999992000080700004+17860+102720FM-12+0175VTUM V0209999C000010075019N0020001N1+02311+02301100751ADDAA103039991AY161061AY261061GF108991071071008001021999KA1120N+02301MA1999999098761MD1999999+0131MW1611REMSYN100AAXX  07004 48352 /1520 80000 10231 20230 39876 40075 60654 76166 8772/ 333 20230 58013 60407 70646;
0182483520999992000080703004+17860+102720FM-12+0175VTUM V0209999C000010075019N0040001N1+02371+02341100851ADDAA103008991AY161031AY261031GF108991071071008001021999MA1999999098861MD1999999+0121MW1611REMSYN082AAXX  07034 48352 21540 80000 10237 20234 39886 40085 76166 8772/ 333 58012 60097;
0194483520999992000080706004+17860+102720FM-12+0175VTUM V0200801N001010075019N0080001N1+02511+02421100751ADDAA103002091AY161061AY261061GF108991071071008001021999MA1999999098771MD1999999+0151MW1611REMSYN094AAXX  07064 48352 /1558 80802 10251 20242 39877 40075 60101 76166 8772/ 333 58015 60027 70750;
0182483520999992000080709004+17860+102720FM-12+0175VTUM V0209999C000010120019N0120001N1+02621+02391100511ADDAA103000191AY161031AY221031GF108991061081008001071999MA1999999098531MD1999999+0101MW1021REMSYN082AAXX  07094 48352 21562 80000 10262 20239 39853 40051 70262 8687/ 333 58010 69927;
0207483520999992000080712004+17860+102720FM-12+0175VTUM V0209999C000010120019N0120001N1+02571+02411100541ADDAA112010991AY161061AY221061GF108991051081008001071999KA1120M+02671MA1999999098561MD1999999+0091MW1021REMSYN094AAXX  07124 48352 11562 80000 10257 20241 39856 40054 60112 70262 8587/ 333 10267 58009 70528;
0194483520999992000080718004+17860+102720FM-12+0175VTUM V0209999C000010075019N0100001N1+02451+02391100791ADDAA103000891AY161061AY221061GF108991061051008001071999MA1999999098811MD1999999+0111MW1021REMSYN094AAXX  07184 48352 /1560 80000 10245 20239 39881 40079 60113 70262 8657/ 333 58011 69977 70534;
0182483520999992000080721004+17860+102720FM-12+0175VTUM V0209999C000010075019N0080001N1+02401+02311100741ADDAA102000391AY161031AY221031GF108991071071008001021999MA1999999098751MD1999999+0161MW1611REMSYN082AAXX  07214 48352 21558 80000 10240 20231 39875 40074 76162 8772/ 333 58016 69936;
0213483520999992000080800004+17860+102720FM-12+0175VTUM V0209999C000010075019N0100001N1+02351+02281100841ADDAA103000191AY161061AY261061GF108991061051008001071999KA1120N+02331MA1999999098891MD1999999+0091MW1021REMSYN100AAXX  08004 48352 /1560 80000 10235 20228 39889 40084 60124 70266 8657/ 333 20233 58009 69917 70117;
0182483520999992000080803004+17860+102720FM-12+0175VTUM V0209999C000010075019N0100001N1+02531+02401101021ADDAA103001091AY161031AY261031GF108991061051008001071999MA1999999099021MD1999999+0171MW1211REMSYN082AAXX  08034 48352 21560 80000 10253 20240 39902 40102 72166 8657/ 333 58017 60017;
0188483520999992000080806004+17860+102720FM-12+0175VTUM V0200601N001010120019N0130001N1+02701+02371100821ADDAA106001091AY161061AY221061GF107991051081008001071061MA1999999098851MD1999999+0071MW1021REMSYN088AAXX  08064 48352 11563 70602 10270 20237 39885 40082 60011 70262 85876 333 58007 70025;
0148483520999992000080809004+17860+102720FM-12+0175VTUM V0209999C000010450019N0150001N1+02941+02311100551ADDAA199000021GF106991041091008001041031MA1999999098601MD1999999+0041REMSYN070AAXX  08094 48352 32565 60000 10294 20231 39860 40055 84943 333 58004;
0201483520999992000080812004+17860+102720FM-12+0175VTUM V0209999C000010450019N0130001N1+02751+02461100611ADDAA124002391AY121061AY221061GF106991041091008001041031KA1120M+02981MA1999999098651MD1999999+0071MW1131REMSYN088AAXX  08124 48352 31563 60000 10275 20246 39865 40061 71322 84943 333 10298 58007 70023;
0176483520999992000080815004+17860+102720FM-12+0175VTUM V0209999C000010075019N0120001N1+02651+02511100911ADDAA199000021AY121031AY221031GF107991051091008001071031MA1999999098951MD1999999+0071MW1131REMSYN076AAXX  08154 48352 31562 70000 10265 20251 39895 40091 71322 85973 333 58007;
0194483520999992000080818004+17860+102720FM-12+0175VTUM V0209999C000010042019N0030001N1+02341+02281101011ADDAA102015091AY191061AY261061GF108991061051004501071999MA1999999099001MD1999999+0221MW1911REMSYN094AAXX  08184 48352 /1430 80000 10234 20228 39900 40101 60163 79196 8657/ 333 58022 60156 70167;
0182483520999992000080821004+17860+102720FM-12+0175VTUM V0209999C000010075019N0050001N1+02351+02311100901ADDAA103005191AY161031AY261031GF108991061051008001071999MA1999999098911MD1999999+0161MW1611REMSYN082AAXX  08214 48352 21550 80000 10235 20231 39891 40090 76166 8657/ 333 58016 60057;
0213483520999992000080900004+17860+102720FM-12+0175VTUM V0209999C000010075019N0100001N1+02301+02261101051ADDAA103000391AY161061AY221061GF108991061051008001071999KA1120N+02281MA1999999099041MD1999999+0211MW1021REMSYN100AAXX  09004 48352 /1560 80000 10230 20226 39904 40105 60214 70262 8657/ 333 20228 58021 69937 70214;
0148483520999992000080903004+17860+102720FM-12+0175VTUM V0200801N001010075019N0120001N1+02571+02371101091ADDAA199000021GF108991051051008001071061MA1999999099101MD1999999+0071REMSYN070AAXX  09034 48352 32562 80802 10257 20237 39910 40109 85576 333 58007;
0154483520999992000080906004+17860+102720FM-12+0175VTUM V0201001N001012200019N0150001N1+02871+02391100871ADDAA124020391GF104991031021008001031001MA1999999098921MD1999999+0051REMSYN076AAXX  09064 48352 32565 41002 10287 20239 39892 40087 83230 333 58005 70202;
0182483520999992000080909004+17860+102720FM-12+0175VTUM V0209999C000011050019N0070001N1+02971+02391100661ADDAA101000391AY121031AY211031GF106991041081008001001051MA1999999098711MD1999999+0111MW1601REMSYN082AAXX  09094 48352 21557 60000 10297 20239 39871 40066 76021 84805 333 58011 69935;
0213483520999992000080912004+17860+102720FM-12+0175VTUM V0209999C000010450019N0120001N1+02721+02511100711ADDAA103001091AY161061AY221061GF107991041051008001071061KA1120M+03081MA1999999098751MD1999999+0101MW1031REMSYN100AAXX  09124 48352 /1562 70000 10272 20251 39875 40071 60012 70362 84576 333 10308 58010 60017 70206;
0148483520999992000080915004+17860+102720FM-12+0175VTUM V0209999C000010450019N0110001N1+02621+02481101051ADDAA199000021GF108991041051008001071061MA1999999099061MD1999999+0141REMSYN070AAXX  09154 48352 32561 80000 10262 20248 39906 40105 84576 333 58014;
0154483520999992000080918004+17860+102720FM-12+0175VTUM V0209999C000010450019N0100001N1+02551+02431100971ADDAA124005691GF108991041051008001071061MA1999999098991MD1999999-0041REMSYN076AAXX  09184 48352 32560 80000 10255 20243 39899 40097 84576 333 59004 70055;
0148483520999992000080921004+17860+102720FM-12+0175VTUM V0209999C000012200019N0100001N1+02481+02371100901ADDAA199000021GF106991041051008001001061MA1999999098921MD1999999+0001REMSYN070AAXX  09214 48352 32560 60000 10248 20237 39892 40090 84506 333 58000;
0173483520999992000081000004+17860+102720FM-12+0175VTUM V0209999C000010450019N0120001N1+02411+02221100991ADDAA124001391GF106991031051008001031061KA1120N+02391MA1999999099031MD1999999-0061REMSYN082AAXX  10004 48352 32562 60000 10241 20222 39903 40099 83536 333 20239 59006 70013;
0167483520999992000081003004+17860+102720FM-12+0175VTUM V0203601N001011050019N0140001N1+02851+02211101031ADDAA199000091GF106991021011008001071061MA1999999099061MD1999999-0061REMSYN070AAXX  10034 48352 32564 63602 10285 20221 39906 40103 82176 333 59006;EQDQ01  00002PRCP99
0158483520999992000081006004+17860+102720FM-12+0175VTUM V0202701N001511050019N0120001N1+03161+02351100861ADDAA124033391GF105991021011008001041061MD1999999+0091REMSYN076AAXX  10064 48352 32562 52703 10316 20235 30077 40086 82146 333 58009 70333;EQDQ01+100773APOSP 
0167483520999992000081009004+17860+102720FM-12+0175VTUM V0209999C000012200019N0150001N1+03221+02321100521ADDAA199000091GF103991031021008001041011MA1999999098581MD1999999-0141REMSYN070AAXX  10094 48352 32565 30000 10322 20232 39858 40052 83241 333 59014;EQDQ01  00002PRCP99
0186483520999992000081012004+17860+102720FM-12+0175VTUM V0209999C000012200019N0140001N1+02971+02531100541ADDAA199000091GF102991011011008001041051KA1120M+03311MA1999999098591MD1999999-0171REMSYN076AAXX  10124 48352 32564 20000 10297 20253 39859 40054 81145 333 10331 59017;EQDQ01  00002PRCP99
0167483520999992000081018004+17860+102720FM-12+0175VTUM V0209999C000010450019N0110001N1+02651+02511100611ADDAA199000091GF106991031051008001031061MA1999999098641MD1999999-0361REMSYN070AAXX  10184 48352 32561 60000 10265 20251 39864 40061 83536 333 59036;EQDQ01  00002PRCP99
0167483520999992000081021004+17860+102720FM-12+0175VTUM V0209999C000012200019N0100001N1+02551+02401100521ADDAA199000091GF102991021011008001001001MA1999999098541MD1999999-0381REMSYN070AAXX  10214 48352 32560 20000 10255 20240 39854 40052 82100 333 59038;EQDQ01  00002PRCP99
0186483520999992000081100004+17860+102720FM-12+0175VTUM V0209999C000012200019N0120001N1+02581+02491100661ADDAA199000091GF102991021051008001001051KA1120N+02571MA1999999098631MD1999999-0391REMSYN076AAXX  11004 48352 32562 20000 10258 20249 39863 40066 82505 333 20257 59039;EQDQ01  00002PRCP99
0167483520999992000081103004+17860+102720FM-12+0175VTUM V0209999C000012200019N0150001N1+03151+02391100661ADDAA199000091GF102991021051008001001001MA1999999098721MD1999999-0371REMSYN070AAXX  11034 48352 32565 20000 10315 20239 39872 40066 82500 333 59037;EQDQ01  00002PRCP99
0167483520999992000081106004+17860+102720FM-12+0175VTUM V0202701N001012200019N0150001N1+03351+02501100481ADDAA199000091GF103991021021008001031001MA1999999098561MD1999999-0361REMSYN070AAXX  11064 48352 32565 32702 10335 20250 39856 40048 82230 333 59036;EQDQ01  00002PRCP99
0167483520999992000081109004+17860+102720FM-12+0175VTUM V0209999C000012200019N0150001N1+03321+02441100261ADDAA199000091GF102991021081008001001001MA1999999098331MD1999999-0261REMSYN070AAXX  11094 48352 32565 20000 10332 20244 39833 40026 82800 333 59026;EQDQ01  00002PRCP99
0214483520999992000081112004+17860+102720FM-12+0175VTUM V0209999C000012200019N0140001N1+03031+02521100321ADDAA199000091AY101061AY201061GF103991031091008001001031KA1120M+03481MA1999999098371MD1999999-0221MW1131REMSYN082AAXX  11124 48352 31564 30000 10303 20252 39837 40032 71300 83903 333 10348 59022;EQDQ01  00002PRCP99
0167483520999992000081115004+17860+102720FM-12+0175VTUM V0209999C000012200019N0130001N1+02751+02341100641ADDAA199000091GF106991031051008001001061MA1999999098681MD1999999-0131REMSYN070AAXX  11154 48352 32563 60000 10275 20234 39868 40064 83506 333 59013;EQDQ01  00002PRCP99
0194483520999992000081118004+17860+102720FM-12+0175VTUM V0209999C000011050019N0120001N1+02601+02431100591ADDAA103002091AY161061AY211061GF106991041051008001001051MA1999999098611MD1999999-0021MW1021REMSYN094AAXX  11184 48352 /1562 60000 10260 20243 39861 40059 60023 70261 84505 333 59002 60027 70022;
0167483520999992000081121004+17860+102720FM-12+0175VTUM V0209999C000012200019N0110001N1+02521+02391100531ADDAA199000091GF102991021051008001001001MA1999999098551MD1999999+0011REMSYN070AAXX  11214 48352 32561 20000 10252 20239 39855 40053 82500 333 58001;EQDQ01  00002PRCP99
0173483520999992000081200004+17860+102720FM-12+0175VTUM V0209999C000012200019N0130001N1+02621+02451100681ADDAA124002391GF104991021081008001031051KA1120N+02501MA1999999098701MD1999999+0071REMSYN082AAXX  12004 48352 32563 40000 10262 20245 39870 40068 82835 333 20250 58007 70022;
0183483520999992000081203004+17860+102720FM-12+0175VTUM V0202201N001012200019N0170001N1+03101+02491100721ADDAA199000091GF102991021021008001001001MA1999999097782MD1999999+0061REMSYN070AAXX  12034 48352 32567 22202 10310 20249 39778 40072 82200 333 58006;EQDQ01+097783APOSP Q02  00002PRCP99
0195483520999992000081209004+17860+102720FM-12+0175VTUM V0202101N004110450019N0130001N1+03281+02341100341ADDAA199000091AY121031AY211031GF107991041091008001071031MA1999999098411MD1999999+0081MW1151REMSYN076AAXX  12094 48352 31563 72108 10328 20234 39841 40034 71521 84973 333 58008;EQDQ01  00002PRCP99
0213483520999992000081212004+17860+102720FM-12+0175VTUM V0209999C000010075019N0130001N1+02881+02511100491ADDAA103003091AY191061AY261061GF108991051091008001071071KA1120M+03501MA1999999098531MD1999999+0191MW1131REMSYN100AAXX  12124 48352 /1563 80000 10288 20251 39853 40049 60032 71396 85977 333 10350 58019 60037 70064;
0195483520999992000081215004+17860+102720FM-12+0175VTUM V0209999C000010075019N0120001N1+02741+02481100821ADDAA199000091AY121031AY221031GF108991061091008001071999MA1999999098851MD1999999+0181MW1171REMSYN076AAXX  12154 48352 31562 80000 10274 20248 39885 40082 71722 8697/ 333 58018;EQDQ01  00002PRCP99
0194483520999992000081218004+17860+102720FM-12+0175VTUM V0209999C000010075019N0060001N1+02501+02481100781ADDAA103026991AY191061AY291061GF108991051051008001071061MA1999999098801MD1999999+0191MW1611REMSYN094AAXX  12184 48352 /1556 80000 10250 20248 39880 40078 60303 76199 85576 333 58019 60277 70296;
0182483520999992000081221004+17860+102720FM-12+0175VTUM V0209999C000010075019N0100001N1+02551+02511100771ADDAA103000191AY161031AY221031GF106991051051008001001051MA1999999098801MD1999999+0241MW1011REMSYN082AAXX  12214 48352 21560 60000 10255 20251 39880 40077 70162 85505 333 58024 69917;
0207483520999992000081300004+17860+102720FM-12+0175VTUM V0209999C000010075019N0100001N1+02561+02491100901ADDAA124030091AY161061AY221061GF107991051051008001071061KA1120N+02501MA1999999098921MD1999999+0221MW1011REMSYN094AAXX  13004 48352 11560 70000 10256 20249 39892 40090 60304 70162 85576 333 20250 58022 70297;
0148483520999992000081303004+17860+102720FM-12+0175VTUM V0209999C000011050019N9999999N1+02991+02481100921ADDAA199000021GF106991021011012501031061MA1999999098971MD1999999+0201REMSYN070AAXX  13034 48352 32653 60000 10299 20248 39897 40092 82136 333 58020;
0154483520999992000081306004+17860+102720FM-12+0175VTUM V0202301N001512200019N0150001N1+03261+02391100681ADDAA124029791GF103991021021008001041051MA1999999098751MD1999999+0111REMSYN076AAXX  13064 48352 32565 32303 10326 20239 39875 40068 82245 333 58011 70297;
0167483520999992000081309004+17860+102720FM-12+0175VTUM V0202401N001012200019N0150001N1+03311+02361100461ADDAA199000091GF104991031091008001041031MA1999999098531MD1999999+0121REMSYN070AAXX  13094 48352 32565 42402 10331 20236 39853 40046 83943 333 58012;EQDQ01  00002PRCP99
0201483520999992000081312004+17860+102720FM-12+0175VTUM V0209999C000011050019N0140001N1+02891+02481100471ADDAA124027291AY111061AY201061GF105991021091008001041031KA1120M+03421MA1999999098521MD1999999-0021MW1131REMSYN088AAXX  13124 48352 31564 50000 10289 20248 39852 40047 71310 82943 333 10342 59002 70272;
0195483520999992000081315004+17860+102720FM-12+0175VTUM V0209999C000011050019N0120001N1+02801+02591100791ADDAA199000091AY111031AY211031GF105991021091008001041031MA1999999098831MD1999999-0031MW1131REMSYN076AAXX  13154 48352 31562 50000 10280 20259 39883 40079 71311 82943 333 59003;EQDQ01  00002PRCP99
0154483520999992000081318004+17860+102720FM-12+0175VTUM V0209999C000010450019N0110001N1+02651+02481100761ADDAA124000191GF106991041051008001071061MA1999999098791MD1999999-0021REMSYN076AAXX  13184 48352 32561 60000 10265 20248 39879 40076 84576 333 59002 70001;
0167483520999992000081321004+17860+102720FM-12+0175VTUM V0209999C000010075019N0100001N1+02601+02461100711ADDAA199000091GF108991051051008001071999MA1999999098741MD1999999-0061REMSYN070AAXX  13214 48352 32560 80000 10260 20246 39874 40071 8557/ 333 59006;EQDQ01  00002PRCP99
0186483520999992000081400004+17860+102720FM-12+0175VTUM V0209999C000010075019N0100001N1+02601+02431100801ADDAA199000091GF108991051051008001071061KA1120N+02561MA1999999098821MD1999999-0101REMSYN076AAXX  14004 48352 32560 80000 10260 20243 39882 40080 85576 333 20256 59010;EQDQ01  00002PRCP99
0167483520999992000081403004+17860+102720FM-12+0175VTUM V0209999C000012200019N0150001N1+03051+02401100811ADDAA199000091GF103991021051008001031051MA1999999098871MD1999999-0111REMSYN070AAXX  14034 48352 32565 30000 10305 20240 39887 40081 82535 333 59011;EQDQ01  00002PRCP99
0167483520999992000081406004+17860+102720FM-12+0175VTUM V0202601N001010120019N0150001N1+03251+02391100641ADDAA199000091GF106991051081008001031051MA1999999098711MD1999999-0021REMSYN070AAXX  14064 48352 32565 62602 10325 20239 39871 40064 85835 333 59002;EQDQ01  00002PRCP99
0167483520999992000081409004+17860+102720FM-12+0175VTUM V0209999C000011050019N0150001N1+03201+02381100361ADDAA199000091GF106991041021008001001051MA1999999098421MD1999999-0101REMSYN070AAXX  14094 48352 32565 60000 10320 20238 39842 40036 84205 333 59010;EQDQ01  00002PRCP99
0214483520999992000081412004+17860+102720FM-12+0175VTUM V0209999C000012200019N0140001N1+02971+02471100401ADDAA199000091AY111061AY211061GF104991031091008001041031KA1120M+03381MA1999999098451MD1999999-0071MW1131REMSYN082AAXX  14124 48352 31564 40000 10297 20247 39845 40040 71311 83943 333 10338 59007;EQDQ01  00002PRCP99
0167483520999992000081418004+17860+102720FM-12+0175VTUM V0209999C000012200019N0120001N1+02641+02391100631ADDAA199000091GF106991031051008001001061MA1999999098651MD1999999-0131REMSYN070AAXX  14184 48352 32562 60000 10264 20239 39865 40063 83506 333 59013;EQDQ01  00002PRCP99
0186483520999992000081500004+17860+102720FM-12+0175VTUM V0209999C000010075019N0120001N1+02621+02481100681ADDAA199000091GF107991051051008001071061KA1120N+02571MA1999999098701MD1999999-0121REMSYN076AAXX  15004 48352 32562 70000 10262 20248 39870 40068 85576 333 20257 59012;EQDQ01  00002PRCP99
0167483520999992000081503004+17860+102720FM-12+0175VTUM V0202601N001012200019N0140001N1+02921+02341100751ADDAA199000091GF105991021021008001001061MA1999999098791MD1999999-0061REMSYN070AAXX  15034 48352 32564 52602 10292 20234 39879 40075 82206 333 59006;EQDQ01  00002PRCP99
0182483520999992000081509004+17860+102720FM-12+0175VTUM V0209999C000012200019N0150001N1+03051+02471100241ADDAA102000191AY161031AY221031GF106991031021008001001061MA1999999098311MD1999999-0121MW1031REMSYN082AAXX  15094 48352 21565 60000 10305 20247 39831 40024 70362 83206 333 59012 69916;
0167483520999992000081515004+17860+102720FM-12+0175VTUM V0209999C000010450019N0130001N1+02721+02511100521ADDAA199000091GF106991031051008001071061MA1999999098561MD1999999-0211REMSYN070AAXX  15154 48352 32563 60000 10272 20251 39856 40052 83576 333 59021;EQDQ01  00002PRCP99
0154483520999992000081518004+17860+102720FM-12+0175VTUM V0209999C000010450019N0120001N1+02701+02441100481ADDAA124000191GF108991041051008001071061MA1999999098511MD1999999-0151REMSYN076AAXX  15184 48352 32562 80000 10270 20244 39851 40048 84576 333 59015 70001;
0167483520999992000081521004+17860+102720FM-12+0175VTUM V0209999C000010075019N0110001N1+02651+02431100411ADDAA199000091GF108991051051008001071061MA1999999098441MD1999999-0171REMSYN070AAXX  15214 48352 32561 80000 10265 20243 39844 40041 85576 333 59017;EQDQ01  00002PRCP99
0173483520999992000081600004+17860+102720FM-12+0175VTUM V0209999C000010075019N0100001N1+02601+02461100441ADDAA124000191GF108991061051008001071999KA1120N+02551MA1999999098461MD1999999-0241REMSYN082AAXX  16004 48352 32560 80000 10260 20246 39846 40044 8657/ 333 20255 59024 70001;
0167483520999992000081603004+17860+102720FM-12+0175VTUM V0209999C000011050019N0120001N1+02951+02451100501ADDAA199000091GF106991021011008001041061MA1999999098551MD1999999-0251REMSYN070AAXX  16034 48352 32562 60000 10295 20245 39855 40050 82146 333 59025;EQDQ01  00002PRCP99
0154483520999992000081606004+17860+102720FM-12+0175VTUM V0209999C000010450019N0150001N1+03211+02491100381ADDAA124000191GF108991041091008001041031MA1999999098441MD1999999-0141REMSYN076AAXX  16064 48352 32565 80000 10321 20249 39844 40038 84943 333 59014 70001;
0167483520999992000081609004+17860+102720FM-12+0175VTUM V0209999C000010450019N0150001N1+03111+02491100111ADDAA199000091GF108991041091008001071031MA1999999098181MD1999999-0131REMSYN070AAXX  16094 48352 32565 80000 10311 20249 39818 40011 84973 333 59013;EQDQ01  00002PRCP99
0186483520999992000081612004+17860+102720FM-12+0175VTUM V0209999C000010450019N0140001N1+02961+02521100121ADDAA199000091GF108991021011008001071071KA1120M+03271MA1999999098181MD1999999-0141REMSYN076AAXX  16124 48352 32564 80000 10296 20252 39818 40012 82177 333 10327 59014;EQDQ01  00002PRCP99
0195483520999992000081615004+17860+102720FM-12+0175VTUM V0209999C000010450019N0120001N1+02851+02571100381ADDAA199000091AY121031AY221031GF108991041091008001071031MA1999999098431MD1999999-0141MW1131REMSYN076AAXX  16154 48352 31562 80000 10285 20257 39843 40038 71322 84973 333 59014;EQDQ01  00002PRCP99
0167483520999992000081618004+17860+102720FM-12+0175VTUM V0209999C000010075019N0110001N1+02751+02611100381ADDAA199000091GF108991051051008001071071MA1999999098421MD1999999-0101REMSYN070AAXX  16184 48352 32561 80000 10275 20261 39842 40038 85577 333 59010;EQDQ01  00002PRCP99
0167483520999992000081621004+17860+102720FM-12+0175VTUM V0209999C000010075019N0100001N1+02651+02551100241ADDAA199000091GF108991051051008001071071MA1999999098291MD1999999-0171REMSYN070AAXX  16214 48352 32560 80000 10265 20255 39829 40024 85577 333 59017;EQDQ01  00002PRCP99
0186483520999992000081700004+17860+102720FM-12+0175VTUM V0209999C000010075019N0120001N1+02651+02521100391ADDAA199000091GF108991051051008001071999KA1120N+02641MA1999999098421MD1999999-0051REMSYN076AAXX  17004 48352 32562 80000 10265 20252 39842 40039 8557/ 333 20264 59005;EQDQ01  00002PRCP99
0188483520999992000081706004+17860+102720FM-12+0175VTUM V0203301N001510450019N0130001N1+02961+02541100401ADDAA106000191AY161061AY221061GF108991021051008001071999MA1999999098751MD1999999+0021MW1021REMSYN088AAXX  17064 48352 11563 83303 10296 20254 39875 40040 69911 70262 8257/ 333 58002 70001;
0167483520999992000081709004+17860+102720FM-12+0175VTUM V0209999C000010075019N0140001N1+03101+02511100171ADDAA199000091GF108991051091008001071071MA1999999098241MD1999999+0081REMSYN070AAXX  17094 48352 32564 80000 10310 20251 39824 40017 85977 333 58008;EQDQ01  00002PRCP99
0213483520999992000081712004+17860+102720FM-12+0175VTUM V0209999C000010042019N0030001N1+02601+02491100311ADDAA101023191AY121061AY221061GF108991051091004501071999KA1120M+03151MA1999999098331MD1999999+0191MW1951REMSYN100AAXX  17124 48352 /1430 80000 10260 20249 39833 40031 60232 79522 8597/ 333 10315 58019 60235 70229;
0194483520999992000081718004+17860+102720FM-12+0175VTUM V0209999C000010075019N0120001N1+02471+02411100551ADDAA102018091AY191061AY291061GF108991051091008001071999MA1999999098561MD1999999+0171MW1291REMSYN094AAXX  17184 48352 /1562 80000 10247 20241 39856 40055 60413 72999 8597/ 333 58017 60186 70413;
0148483520999992000081721004+17860+102720FM-12+0175VTUM V0209999C000012200019N0120001N1+02481+02421100491ADDAA199000021GF106991021051008001001061MA1999999098511MD1999999+0251REMSYN070AAXX  17214 48352 32562 60000 10248 20242 39851 40049 82506 333 58025;
0213483520999992000081800004+17860+102720FM-12+0175VTUM V0202701N001010075019N0100001N1+02471+02441100701ADDAA102015091AY191061AY221061GF108991061091008001071999KA1120N+02431MA1999999098711MD1999999+0311MW1951REMSYN100AAXX  18004 48352 /1560 82702 10247 20244 39871 40070 60564 79592 8697/ 333 20243 58031 60156 70559;
0148483520999992000081803004+17860+102720FM-12+0175VTUM V0200101N001010120019N0130001N1+02751+02451100801ADDAA199000021GF106991051081008001031061MA1999999098841MD1999999+0271REMSYN070AAXX  18034 48352 32563 60102 10275 20245 39884 40080 85836 333 58027;
0154483520999992000081806004+17860+102720FM-12+0175VTUM V0209999C000010120019N0150001N1+03031+02481100661ADDAA124055991GF106991051081008001031061MA1999999098711MD1999999+0261REMSYN076AAXX  18064 48352 32565 60000 10303 20248 39871 40066 85836 333 58026 70558;
0148483520999992000081809004+17860+102720FM-12+0175VTUM V0209999C000012200019N0150001N1+03131+02451100421ADDAA199000021GF106991031021008001001061MA1999999098481MD1999999+0251REMSYN070AAXX  18094 48352 32565 60000 10313 20245 39848 40042 83206 333 58025;
0173483520999992000081812004+17860+102720FM-12+0175VTUM V0209999C000012200019N0140001N1+02951+02601100501ADDAA124033091GF105991021051008001001061KA1120M+03221MA1999999098561MD1999999+0201REMSYN082AAXX  18124 48352 32564 50000 10295 20260 39856 40050 82506 333 10322 58020 70330;
0195483520999992000081815004+17860+102720FM-12+0175VTUM V0209999C000012200019N0130001N1+02781+02631100731ADDAA199000091AY111031AY201031GF103991031091008001001031MA1999999098771MD1999999+0151MW1131REMSYN076AAXX  18154 48352 31563 30000 10278 20263 39877 40073 71310 83903 333 58015;EQDQ01  00002PRCP99
0154483520999992000081818004+17860+102720FM-12+0175VTUM V0209999C000012200019N0120001N1+02701+02571100671ADDAA124014591GF102991021051008001001001MA1999999098711MD1999999+0121REMSYN076AAXX  18184 48352 32562 20000 10270 20257 39871 40067 82500 333 58012 70146;
0195483520999992000081821004+17860+102720FM-12+0175VTUM V0209999C000010075019N0100001N1+02671+02611100541ADDAA199000091AY191031AY211031GF108991061091008001071031MA1999999098561MD1999999+0051MW1171REMSYN076AAXX  18214 48352 31560 80000 10267 20261 39856 40054 71791 86973 333 58005;EQDQ01  00002PRCP99
0213483520999992000081900004+17860+102720FM-12+0175VTUM V0209999C000010075019N0030001N1+02331+02301100811ADDAA103027991AY191061AY291061GF108991071091008001021999KA1120N+02241MA1999999098811MD1999999+0111MW1951REMSYN100AAXX  19004 48352 /1530 80000 10233 20230 39881 40081 60284 79599 8792/ 333 20224 58011 60287 70283;
0182483520999992000081903004+17860+102720FM-12+0175VTUM V0200501N001012200019N0150001N1+02711+02271100781ADDAA103002091AY191031AY261031GF104991021011008001041021MA1999999098811MD1999999-0021MW1011REMSYN082AAXX  19034 48352 21565 40502 10271 20227 39881 40078 70196 82142 333 59002 60027;
0188483520999992000081906004+17860+102720FM-12+0175VTUM V0202401N001512200019N0150001N1+03061+02241100591ADDAA106002091AY191061AY261061GF104991031011008001041011MA1999999098651MD1999999-0071MW1021REMSYN088AAXX  19064 48352 11565 42403 10306 20224 39865 40059 60021 70296 83141 333 59007 70300;
0148483520999992000081909004+17860+102720FM-12+0175VTUM V0209999C000012200019N0150001N1+03201+02411100311ADDAA199000021GF102991021091008001041031MA1999999098371MD1999999-0111REMSYN070AAXX  19094 48352 32565 20000 10320 20241 39837 40031 82943 333 59011;
0201483520999992000081912004+17860+102720FM-12+0175VTUM V0209999C000010450019N0140001N1+02871+02501100371ADDAA124030091AY111061AY201061GF108991031091008001061031KA1120M+03241MA1999999098411MD1999999-0141MW1131REMSYN088AAXX  19124 48352 31564 80000 10287 20250 39841 40037 71310 83963 333 10324 59014 70300;
0167483520999992000081915004+17860+102720FM-12+0175VTUM V0209999C000010450019N0120001N1+02771+02591100591ADDAA199000091GF108991041081008001071061MA1999999098631MD1999999-0141REMSYN070AAXX  19154 48352 32562 80000 10277 20259 39863 40059 84876 333 59014;EQDQ01  00002PRCP99
0154483520999992000081918004+17860+102720FM-12+0175VTUM V0209999C000010450019N0110001N1+02701+02571100591ADDAA124030091GF106991031051008001071061MA1999999098631MD1999999-0081REMSYN076AAXX  19184 48352 32561 60000 10270 20257 39863 40059 83576 333 59008 70300;
0173483520999992000081921004+17860+102720FM-12+0175VTUM V0209999C000012200019N0120001N1+02741+02601100501ADDAA124001891GF103991021051008001001051KA1120N+02571MA1999999098531MD1999999-0311REMSYN082AAXX  19214 48352 32562 30000 10274 20260 39853 40050 82505 333 20257 59031 70017;
0167483520999992000082003004+17860+102720FM-12+0175VTUM V0209999C000012200019N0160001N1+03151+02481100561ADDAA199000091GF102991021021008001001001MA1999999098631MD1999999-0221REMSYN070AAXX  20034 48352 32566 20000 10315 20248 39863 40056 82200 333 59022;EQDQ01  00002PRCP99
0167483520999992000082006004+17860+102720FM-12+0175VTUM V0200801N001012200019N0180001N1+03221+02421100361ADDAA199000091GF103991021021008001001051MA1999999098421MD1999999-0231REMSYN070AAXX  20064 48352 32568 30802 10322 20242 39842 40036 82205 333 59023;EQDQ01  00002PRCP99
0167483520999992000082009004+17860+102720FM-12+0175VTUM V0209999C000012200019N0190001N1+03401+02341100021ADDAA199000091GF102991021091008001001031MA1999999098411MD1999999-0291REMSYN070AAXX  20094 48352 32569 20000 10340 20234 39841 40002 82903 333 59029;EQDQ01  00002PRCP99
0214483520999992000082012004+17860+102720FM-12+0175VTUM V0209999C000010450019N0150001N1+03061+02611100071ADDAA199000091AY111061AY201061GF106991031091008001061031KA1120M+03431MA1999999098451MD1999999-0301MW1131REMSYN082AAXX  20124 48352 31565 60000 10306 20261 39845 40007 71310 83963 333 10343 59030;EQDQ01  00002PRCP99
0167483520999992000082015004+17860+102720FM-12+0175VTUM V0209999C000010075019N0130001N1+02861+02611100351ADDAA199000091GF108991051051008001071061MA1999999098401MD1999999-0241REMSYN070AAXX  20154 48352 32563 80000 10286 20261 39840 40035 85576 333 59024;EQDQ01  00002PRCP99
0167483520999992000082018004+17860+102720FM-12+0175VTUM V0209999C000010075019N0120001N1+02851+02571100321ADDAA199000091GF106991051051008001001051MA1999999098371MD1999999-0271REMSYN070AAXX  20184 48352 32562 60000 10285 20257 39837 40032 85505 333 59027;EQDQ01  00002PRCP99
0195483520999992000082021004+17860+102720FM-12+0175VTUM V0209999C000010450019N0110001N1+02731+02551100211ADDAA199000091AY121031AY221031GF106991041091008001041031MA1999999098251MD1999999-0261MW1171REMSYN076AAXX  20214 48352 31561 60000 10273 20255 39825 40021 71722 84943 333 59026;EQDQ01  00002PRCP99
0186483520999992000082100004+17860+102720FM-12+0175VTUM V0209999C000012200019N0120001N1+02561+02371100351ADDAA199000091GF106991021051008001001061KA1120N+02521MA1999999098371MD1999999-0151REMSYN076AAXX  21004 48352 32562 60000 10256 20237 39837 40035 82506 333 20252 59015;EQDQ01  00002PRCP99
0167483520999992000082103004+17860+102720FM-12+0175VTUM V0203201N001512200019N0150001N1+02971+02361100371ADDAA199000091GF102991021011008001001011MA1999999098421MD1999999-0191REMSYN070AAXX  21034 48352 32565 23203 10297 20236 39842 40037 82101 333 59019;EQDQ01  00002PRCP99
0167483520999992000082106004+17860+102720FM-12+0175VTUM V0200801N001012200019N0180001N1+03331+02191100101ADDAA199000091GF102991021021008001001001MA1999999098191MD1999999-0261REMSYN070AAXX  21064 48352 32568 20802 10333 20219 39819 40010 82200 333 59026;EQDQ01  00002PRCP99
0167483520999992000082109004+17860+102720FM-12+0175VTUM V0201801N001012200019N0180001N1+03401+02321099921ADDAA199000091GF103991021091008001001031MA1999999098011MD1999999-0101REMSYN070AAXX  21094 48352 32568 31802 10340 20232 39801 49992 82903 333 59010;EQDQ01  00002PRCP99
0230483520999992000082112004+17860+102720FM-12+0175VTUM V0209999C000010450019N0150001N1+03091+02611999999ADDAA199000091AY111061AY201061GF107991021091008001041031KA1120M+03481MA1999999098001MD1999999-0141MW1131REMSYN082AAXX  21124 48352 31565 70000 10309 20261 39800 40093 71310 82943 333 10348 59014;EQDQ01+100933APOSLPQ02  00002PRCP99
0183483520999992000082115004+17860+102720FM-12+0175VTUM V0209999C000010075019N0130001N1+02921+02671100231ADDAA199000091GF106991051051008001001051MA1999999098742MD1999999-0121REMSYN070AAXX  21154 48352 32563 60000 10292 20267 39874 40023 85505 333 59012;EQDQ01+098743APOSP Q02  00002PRCP99
0167483520999992000082118004+17860+102720FM-12+0175VTUM V0209999C000010075019N0120001N1+02841+02621100191ADDAA199000091GF107991051051008001071061MA1999999098241MD1999999-0131REMSYN070AAXX  21184 48352 32562 70000 10284 20262 39824 40019 85576 333 59013;EQDQ01  00002PRCP99
0167483520999992000082121004+17860+102720FM-12+0175VTUM V0209999C000010450019N0110001N1+02691+02451100151ADDAA199000091GF107991041051008001071061MA1999999098191MD1999999-0051REMSYN070AAXX  21214 48352 32561 70000 10269 20245 39819 40015 84576 333 59005;EQDQ01  00002PRCP99
0186483520999992000082200004+17860+102720FM-12+0175VTUM V0209999C000010450019N0120001N1+02661+02441100151ADDAA199000091GF107991041081008001071061KA1120N+02601MA1999999098191MD1999999-0201REMSYN076AAXX  22004 48352 32562 70000 10266 20244 39819 40015 84876 333 20260 59020;EQDQ01  00002PRCP99
0167483520999992000082203004+17860+102720FM-12+0175VTUM V0209999C000010450019N0140001N1+03201+02521100121ADDAA199000091GF107991031081008001071061MA1999999098201MD1999999-0251REMSYN070AAXX  22034 48352 32564 70000 10320 20252 39820 40012 83876 333 59025;EQDQ01  00002PRCP99
0194483520999992000082206004+17860+102720FM-12+0175VTUM V0209999C000010120019N0060001N1+03151+02441100021ADDAA101000791AY121061AY221061GF108991061081008001071999MA1999999098101MD1999999-0081MW1601REMSYN094AAXX  22064 48352 /1556 80000 10315 20244 39810 40002 69901 76022 8687/ 333 59008 69905 79999;
0182483520999992000082209004+17860+102720FM-12+0175VTUM V0209999C000010450019N0050001N1+02901+02621099951ADDAA103001091AY161031AY261031GF108991041071008001021999MA1999999098011MD1999999+0031MW1611REMSYN082AAXX  22094 48352 21550 80000 10290 20262 39801 49995 76166 8472/ 333 58003 60017;
0213483520999992000082212004+17860+102720FM-12+0175VTUM V0209999C000010120019N0070001N1+02701+02511099961ADDAA103000591AY161061AY261061GF108991051081008001021999KA1120M+03241MA1999999098011MD1999999+0031MW1611REMSYN100AAXX  22124 48352 /1557 80000 10270 20251 39801 49996 60022 76166 8582/ 333 10324 58003 69957 70016;
0182483520999992000082215004+17860+102720FM-12+0175VTUM V0209999C000010075019N0100001N1+02661+02491100141ADDAA103000191AY161031AY221031GF108991061051008001071999MA1999999098181MD1999999-0091MW1021REMSYN082AAXX  22154 48352 21560 80000 10266 20249 39818 40014 70262 8657/ 333 59009 69917;
0156483520999992000082216004+17860+102720FM-12+0175VTUM V0209999C000010075019N0100001N1+02651+02511100141ADDAA199000021AY161011AY221011GF108991051071008001021999MA1999999098181MW1211REMSYN070AAXX  22164 48352 31560 80000 10265 20251 39818 40014 72162 8572/ 333;
0194483520999992000082218004+17860+102720FM-12+0175VTUM V0209999C000010075019N0050001N1+02561+02471100131ADDAA103002091AY161061AY261061GF108991061071008001021999MA1999999098171MD1999999-0061MW1611REMSYN094AAXX  22184 48352 /1550 80000 10256 20247 39817 40013 60043 76166 8672/ 333 59006 60027 70036;
0162483520999992000082219004+17860+102720FM-12+0175VTUM V0209999C000010042019N0040001N1+02521+02451100091ADDAA103002091AY161999AY261999GF108991061071004501021999MA1999999098121MW1611REMSYN076AAXX  22194 48352 21440 80000 10252 20245 39812 40009 76166 8672/ 333 60027;
0162483520999992000082220004+17860+102720FM-12+0175VTUM V0209999C000010075019N0050001N1+02531+02461099951ADDAA103001091AY161999AY261999GF108991051071008001021999MA1999999097981MW1611REMSYN076AAXX  22204 48352 21550 80000 10253 20246 39798 49995 76166 8572/ 333 60017;
0182483520999992000082221004+17860+102720FM-12+0175VTUM V0209999C000010075019N0100001N1+02521+02461099921ADDAA103003091AY161031AY261031GF108991051071008001021999MA1999999097951MD1999999-0231MW1211REMSYN082AAXX  22214 48352 21560 80000 10252 20246 39795 49992 72166 8572/ 333 59023 60037;
0128483520999992000082222004+17860+102720FM-12+0175VTUM V0209999C000010075019N0100001N1+02541+02481099951ADDAA199000021GF108991061051008001021999MA1999999097981REMSYN064AAXX  22224 48352 32560 80000 10254 20248 39798 49995 8652/ 333;
0128483520999992000082223004+17860+102720FM-12+0175VTUM V0209999C000010075019N0100001N1+02561+02501099991ADDAA199000021GF108991061051008001021999MA1999999098031REMSYN064AAXX  22234 48352 32560 80000 10256 20250 39803 49999 8652/ 333;
0207483520999992000082300004+17860+102720FM-12+0175VTUM V0209999C000010075019N0100001N1+02551+02491100011ADDAA124007191AY161061AY221061GF108991061051008001021999KA1120N+02481MA1999999098051MD1999999-0141MW1021REMSYN094AAXX  23004 48352 11560 80000 10255 20249 39805 40001 60074 70262 8652/ 333 20248 59014 70068;
0128483520999992000082301004+17860+102720FM-12+0175VTUM V0209999C000010075019N0100001N1+02561+02491100081ADDAA199000021GF108991051051008001071061MA1999999098121REMSYN064AAXX  23014 48352 32560 80000 10256 20249 39812 40008 85576 333;
0128483520999992000082302004+17860+102720FM-12+0175VTUM V0209999C000010075019N0110001N1+02631+02521100121ADDAA199000021GF108991051051008001071999MA1999999098161REMSYN064AAXX  23024 48352 32561 80000 10263 20252 39816 40012 8557/ 333;
0148483520999992000082303004+17860+102720FM-12+0175VTUM V0209999C000010075019N0110001N1+02671+02501100121ADDAA199000021GF108991061051008001071999MA1999999098161MD1999999+0001REMSYN070AAXX  23034 48352 32561 80000 10267 20250 39816 40012 8657/ 333 58000;
0132483520999992000082304004+17860+102720FM-12+0175VTUM V0203001N001010075019N0120001N1+02791+02551100101ADDAA199000021GF108991051051008001071061REMSYN064AAXX  23044 48352 32562 83002 10279 20255 39885 40010 85576 333;EQDQ01+098853APOSP 
0128483520999992000082305004+17860+102720FM-12+0175VTUM V0202901N001010075019N0120001N1+02861+02531100041ADDAA199000021GF108991051051008001071061MA1999999098101REMSYN064AAXX  23054 48352 32562 82902 10286 20253 39810 40004 85576 333;
0154483520999992000082306004+17860+102720FM-12+0175VTUM V0202701N001510075019N0140001N1+03021+02421099971ADDAA124006991GF108991051051008001071061MA1999999098041MD1999999-0061REMSYN076AAXX  23064 48352 32564 82703 10302 20242 39804 49997 85576 333 59006 70068;
0128483520999992000082307004+17860+102720FM-12+0175VTUM V0209999C000010075019N0140001N1+03151+02511099871ADDAA199000021GF108991051051008001071061MA1999999097941REMSYN064AAXX  23074 48352 32564 80000 10315 20251 39794 49987 85576 333;
0128483520999992000082308004+17860+102720FM-12+0175VTUM V0209999C000010450019N0150001N1+03191+02531099831ADDAA199000021GF106991041051008001031061MA1999999097901REMSYN064AAXX  23084 48352 32565 60000 10319 20253 39790 49983 84536 333;
0148483520999992000082309004+17860+102720FM-12+0175VTUM V0209999C000010450019N0150001N1+03141+02461099801ADDAA199000021GF107991041051008001071061MA1999999097871MD1999999-0151REMSYN070AAXX  23094 48352 32565 70000 10314 20246 39787 49980 84576 333 59015;
0147483520999992000082310004+17860+102720FM-12+0175VTUM V0209999C000010075019N0130001N1+03111+02551099781ADDAA199000091GF108991051051008001071061MA1999999097851REMSYN064AAXX  23104 48352 32563 80000 10311 20255 39785 49978 85576 333;EQDQ01  00002PRCP99
0147483520999992000082311004+17860+102720FM-12+0175VTUM V0209999C000010075019N0120001N1+03071+02651099851ADDAA199000091GF108991051051008001071061MA1999999097921REMSYN064AAXX  23114 48352 32562 80000 10307 20265 39792 49985 85576 333;EQDQ01  00002PRCP99
0173483520999992000082312004+17860+102720FM-12+0175VTUM V0209999C000010075019N0120001N1+03031+02641099921ADDAA124005191GF108991051051008001071061KA1120M+03291MA1999999097981MD1999999-0041REMSYN082AAXX  23124 48352 32562 80000 10303 20264 39798 49992 85576 333 10329 59004 70052;
0167483520999992000082315004+17860+102720FM-12+0175VTUM V0209999C000012200019N0120001N1+02851+02511100111ADDAA199000091GF103991031051008001001051MA1999999098171MD1999999-0031REMSYN070AAXX  23154 48352 32562 30000 10285 20251 39817 40011 83505 333 59003;EQDQ01  00002PRCP99
0154483520999992000082318004+17860+102720FM-12+0175VTUM V0209999C000012200019N0110001N1+02651+02461100101ADDAA124003391GF106991041051008001001061MA1999999098141MD1999999-0031REMSYN076AAXX  23184 48352 32561 60000 10265 20246 39814 40010 84506 333 59003 70032;
0167483520999992000082321004+17860+102720FM-12+0175VTUM V0209999C000012200019N0100001N1+02611+02481100051ADDAA199000091GF104991031051008001031051MA1999999098091MD1999999+0131REMSYN070AAXX  23214 48352 32560 40000 10261 20248 39809 40005 83535 333 58013;EQDQ01  00002PRCP99
0186483520999992000082400004+17860+102720FM-12+0175VTUM V0209999C000010075019N0100001N1+02581+02391100221ADDAA199000091GF108991051051008001071061KA1120N+02571MA1999999098251MD1999999+0211REMSYN076AAXX  24004 48352 32560 80000 10258 20239 39825 40022 85576 333 20257 58021;EQDQ01  00002PRCP99
0167483520999992000082403004+17860+102720FM-12+0175VTUM V0200701N001512200019N0120001N1+03001+02351100301ADDAA199000091GF104991031081008001001051MA1999999098351MD1999999+0181REMSYN070AAXX  24034 48352 32562 40703 10300 20235 39835 40030 83805 333 58018;EQDQ01  00002PRCP99
0167483520999992000082406004+17860+102720FM-12+0175VTUM V0209999C000010450019N0150001N1+03161+02401100071ADDAA199000091GF106991041081008001031061MA1999999098151MD1999999+0101REMSYN070AAXX  24064 48352 32565 60000 10316 20240 39815 40007 84836 333 58010;EQDQ01  00002PRCP99
0167483520999992000082409004+17860+102720FM-12+0175VTUM V0209999C000010450019N0150001N1+03151+02391099891ADDAA199000091GF106991041081008001031061MA1999999097971MD1999999+0091REMSYN070AAXX  24094 48352 32565 60000 10315 20239 39797 49989 84836 333 58009;EQDQ01  00002PRCP99
0186483520999992000082412004+17860+102720FM-12+0175VTUM V0209999C000010075019N0140001N1+02851+02461100081ADDAA199000091GF108991051051008001071061KA1120M+03251MA1999999098141MD1999999+0161REMSYN076AAXX  24124 48352 32564 80000 10285 20246 39814 40008 85576 333 10325 58016;EQDQ01  00002PRCP99
0167483520999992000082415004+17860+102720FM-12+0175VTUM V0209999C000012200019N0130001N1+02721+02431100371ADDAA199000091GF104991031051008001001051MA1999999098111MD1999999+0261REMSYN070AAXX  24154 48352 32563 40000 10272 20243 39811 40037 83505 333 58026;EQDQ01  00002PRCP99
0167483520999992000082418004+17860+102720FM-12+0175VTUM V0209999C000010450019N0120001N1+02621+02431100391ADDAA199000091GF106991031051008001031061MA1999999098411MD1999999+0291REMSYN070AAXX  24184 48352 32562 60000 10262 20243 39841 40039 83536 333 58029;EQDQ01  00002PRCP99
0186483520999992000082421004+17860+102720FM-12+0175VTUM V0209999C000010120019N0100001N1+02551+02401100421ADDAA199000091GF107991051081008001071061KA1120N+02511MA1999999098451MD1999999+0201REMSYN076AAXX  24214 48352 32560 70000 10255 20240 39845 40042 85876 333 20251 58020;EQDQ01  00002PRCP99
0167483520999992000082503004+17860+102720FM-12+0175VTUM V0209999C000010120019N0100001N1+02741+02391100501ADDAA199000091GF108991061081008001071999MA1999999098541MD1999999+0201REMSYN070AAXX  25034 48352 32560 80000 10274 20239 39854 40050 8687/ 333 58020;EQDQ01  00002PRCP99
0194483520999992000082506004+17860+102720FM-12+0175VTUM V0209999C000010075019N0020001N1+02901+02411100361ADDAA101000191AY121061AY221061GF108991071071008001021999MA1999999098411MD1999999+0291MW1601REMSYN094AAXX  25064 48352 /1520 80000 10290 20241 39841 40036 69911 76022 8772/ 333 58029 69915 70001;
0182483520999992000082509004+17860+102720FM-12+0175VTUM V0209999C000010450019N0150001N1+03061+02461100101ADDAA103005191AY161031AY221031GF106991041091008001061031MA1999999098171MD1999999+0211MW1011REMSYN082AAXX  25094 48352 21565 60000 10306 20246 39817 40010 70162 84963 333 58021 60057;
0213483520999992000082512004+17860+102720FM-12+0175VTUM V0209999C000010075019N0080001N1+02691+02461100271ADDAA101000191AY161061AY221061GF108991051051008001071999KA1120M+03111MA1999999098321MD1999999+0191MW1601REMSYN100AAXX  25124 48352 /1558 80000 10269 20246 39832 40027 60052 76062 8557/ 333 10311 58019 69915 70047;
0182483520999992000082515004+17860+102720FM-12+0175VTUM V0209999C000010075019N0120001N1+02631+02461100501ADDAA103000791AY161031AY221031GF107991051051008001071061MA1999999098531MD1999999+0131MW1011REMSYN082AAXX  25154 48352 21562 70000 10263 20246 39853 40050 70162 85576 333 58013 69907;
0188483520999992000082518004+17860+102720FM-12+0175VTUM V0209999C000010075019N0110001N1+02651+02511100491ADDAA118005191AY161061AY221061GF108991051091008001071031MA1999999098521MD1999999+0101MW1171REMSYN088AAXX  25184 48352 11561 80000 10265 20251 39852 40049 60053 71762 85973 333 58010 70047;
0182483520999992000082521004+17860+102720FM-12+0175VTUM V0209999C000010075019N0100001N1+02521+02461100411ADDAA103005191AY191031AY261031GF108991061051008001071999MA1999999098431MD1999999+0081MW1021REMSYN082AAXX  25214 48352 21560 80000 10252 20246 39843 40041 70296 8657/ 333 58008 60057;
0207483520999992000082600004+17860+102720FM-12+0175VTUM V0209999C000010075019N0100001N1+02561+02501100481ADDAA124009991AY191061AY221061GF108991061051008001071999KA1120N+02521MA1999999098501MD1999999+0061MW1021REMSYN094AAXX  26004 48352 11560 80000 10256 20250 39850 40048 60104 70292 8657/ 333 20252 58006 70098;
0167483520999992000082603004+17860+102720FM-12+0175VTUM V0202201N001010042019N0040001N1+02571+02471100641ADDAA102001091AY191031AY221031GF108991061091004501071999MD1999999+0161MW1951REMSYN082AAXX  26034 48352 21440 82202 10257 20247 3//// 40064 79592 8697/ 333 58016 60016;
0188483520999992000082606004+17860+102720FM-12+0175VTUM V0202901N001510120019N0120001N1+02901+02561100461ADDAA106003091AY191061AY291061GF108991051081008001071999MA1999999098501MD1999999+0101MW1021REMSYN088AAXX  26064 48352 11562 82903 10290 20256 39850 40046 60031 70299 8587/ 333 58010 70122;
0182483520999992000082609004+17860+102720FM-12+0175VTUM V0209999C000010075019N0120001N1+02801+02561100231ADDAA101001091AY161031AY221031GF108991061051008001071999MA1999999098281MD1999999+0131MW1211REMSYN082AAXX  26094 48352 21562 80000 10280 20256 39828 40023 72162 8657/ 333 58013 69995;
0207483520999992000082612004+17860+102720FM-12+0175VTUM V0209999C000010075019N0120001N1+02701+02591100361ADDAA112003091AY161061AY221061GF108991051051008001071061KA1120M+03011MA1999999098391MD1999999+0091MW1021REMSYN094AAXX  26124 48352 11562 80000 10270 20259 39839 40036 60032 70262 85576 333 10301 58009 70085;
0182483520999992000082615004+17860+102720FM-12+0175VTUM V0209999C000010075019N0100001N1+02621+02521100651ADDAA101004191AY121031AY221031GF108991061051008001071999MA1999999098681MD1999999+0151MW1211REMSYN082AAXX  26154 48352 21560 80000 10262 20252 39868 40065 72122 8657/ 333 58015 60045;
0194483520999992000082618004+17860+102720FM-12+0175VTUM V0209999C000010075019N0060001N1+02571+02511100491ADDAA102003091AY161061AY221061GF108991061091008001071999MA1999999098521MD1999999+0001MW1951REMSYN094AAXX  26184 48352 /1556 80000 10257 20251 39852 40049 60093 79562 8697/ 333 58000 60036 70140;
0213483520999992000082700004+17860+102720FM-12+0175VTUM V0209999C000010042019N0030001N1+02431+02421100511ADDAA103013091AY191061AY261061GF108991061071004501021999KA1120N+02351MA1999999098521MD1999999+0031MW1611REMSYN100AAXX  27004 48352 /1430 80000 10243 20242 39852 40051 60284 76196 8672/ 333 20235 58003 60137 70279;
0182483520999992000082703004+17860+102720FM-12+0175VTUM V0209999C000010075019N0120001N1+02521+02401100691ADDAA103002091AY161031AY221031GF108991051051008001071061MA1999999098671MD1999999+0011MW1021REMSYN082AAXX  27034 48352 21562 80000 10252 20240 39867 40069 70262 85576 333 58001 60027;
0194483520999992000082706004+17860+102720FM-12+0175VTUM V0209999C000010075019N0150001N1+02731+02561100431ADDAA103001091AY161061AY221061GF107991051051008001001061MA1999999098461MD1999999-0031MW1211REMSYN094AAXX  27064 48352 /1565 70000 10273 20256 39846 40043 60031 72162 85506 333 59003 60017 70284;
0182483520999992000082709004+17860+102720FM-12+0175VTUM V0209999C000010120019N0070001N1+02901+02631100171ADDAA101000391AY121031AY221031GF108991061081008001071999MA1999999098221MD1999999-0061MW1601REMSYN082AAXX  27094 48352 21557 80000 10290 20263 39822 40017 76022 8687/ 333 59006 69935;
0213483520999992000082712004+17860+102720FM-12+0175VTUM V0209999C000010120019N9999999N1+02771+02641100321ADDAA102000191AY161061AY221061GF108991061051012501071999KA1120M+03051MA1999999098361MD1999999-0041MW1021REMSYN100AAXX  27124 48352 /1652 80000 10277 20264 39836 40032 60042 70262 8657/ 333 10305 59004 69926 70280;
0182483520999992000082715004+17860+102720FM-12+0175VTUM V0209999C000010075019N0110001N1+02501+02381100601ADDAA103003091AY191031AY261031GF108991051091008001071999MA1999999098621MD1999999-0051MW1131REMSYN082AAXX  27154 48352 21561 80000 10250 20238 39862 40060 71396 8597/ 333 59005 60037;
0194483520999992000082718004+17860+102720FM-12+0175VTUM V0209999C000010042019N0040001N1+02401+02331100591ADDAA102000891AY191061AY261061GF108991061071004501021999MA1999999098601MD1999999+0101MW1611REMSYN094AAXX  27184 48352 /1440 80000 10240 20233 39860 40059 60073 76196 8672/ 333 58010 69976 70257;
0213483520999992000082721004+17860+102720FM-12+0175VTUM V0209999C000010075019N0100001N1+02431+02421100591ADDAA103000391AY161031AY221031GF108991061051008001071999KA1120N+02361MA1999999098611MD1999999+0081MW1021REMSYN100AAXX  27214 48352 /1560 80000 10243 20242 39861 40059 60124 70262 8657/ 333 20236 58008 69937 70118;
0148483520999992000082803004+17860+102720FM-12+0175VTUM V0209999C000010450019N0130001N1+02751+02461100631ADDAA199000021GF106991041051008001031061MA1999999098671MD1999999-0021REMSYN070AAXX  28034 48352 32563 60000 10275 20246 39867 40063 84536 333 59002;
0154483520999992000082806004+17860+102720FM-12+0175VTUM V0209999C000010120019N0140001N1+03051+02511100441ADDAA124008991GF106991051081008001031061MA1999999098501MD1999999+0011REMSYN076AAXX  28064 48352 32564 60000 10305 20251 39850 40044 85836 333 58001 70088;
0182483520999992000082809004+17860+102720FM-12+0175VTUM V0209999C000010075019N0070001N1+02551+02431100371ADDAA102011991AY191031AY261031GF108991061091008001071999MA1999999098401MD1999999+0201MW1951REMSYN082AAXX  28094 48352 21557 80000 10255 20243 39840 40037 79596 8697/ 333 58020 60126;
0213483520999992000082812004+17860+102720FM-12+0175VTUM V0209999C000011050019N0120001N1+02551+02481100351ADDAA103001091AY191061AY261061GF105991041051008001001051KA1120M+03231MA1999999098371MD1999999+0031MW1021REMSYN100AAXX  28124 48352 /1562 50000 10255 20248 39837 40035 60132 70296 84505 333 10323 58003 60017 70215;
0201483520999992000082815004+17860+102720FM-12+0175VTUM V0209999C000010075019N0080001N1+02551+02511100661ADDAA101000591AY121031AY221031GF108991999051008001071999MA1999999098691MD1999999+0061MW1601REMSYN082AAXX  28154 48352 21558 80000 10255 20251 39869 40066 76022 8857/ 333 58006 69965;EQDQ01+000082SCOTLC
0194483520999992000082818004+17860+102720FM-12+0175VTUM V0209999C000010450019N0110001N1+02551+02511100561ADDAA103000191AY161061AY221061GF106991041051008001031061MA1999999098591MD1999999-0031MW1011REMSYN094AAXX  28184 48352 /1561 60000 10255 20251 39859 40056 60143 70162 84536 333 59003 69917 70190;
0173483520999992000082821004+17860+102720FM-12+0175VTUM V0209999C000010450019N0100001N1+02481+02441100531ADDAA124014091GF107991041051008001031061KA1120N+02431MA1999999098541MD1999999-0061REMSYN082AAXX  28214 48352 32560 70000 10248 20244 39854 40053 84536 333 20243 59006 70139;
0148483520999992000082903004+17860+102720FM-12+0175VTUM V0209999C000010450019N0140001N1+02851+02451100571ADDAA199000021GF107991041081008001031061MA1999999098621MD1999999-0061REMSYN070AAXX  29034 48352 32564 70000 10285 20245 39862 40057 84836 333 59006;
0154483520999992000082906004+17860+102720FM-12+0175VTUM V0201801N002110450019N0160001N1+03181+02551100371ADDAA124014091GF106991041081008001031061MA1999999098431MD1999999-0071REMSYN076AAXX  29064 48352 32566 61804 10318 20255 39843 40037 84836 333 59007 70139;
0167483520999992000082909004+17860+102720FM-12+0175VTUM V0202001N001510450019N0150001N1+03111+02501100101ADDAA199000091GF106991041091008001041031MA1999999098171MD1999999-0271REMSYN070AAXX  29094 48352 32565 62003 10311 20250 39817 40010 84943 333 59027;EQDQ01  00002PRCP99
0173483520999992000082912004+17860+102720FM-12+0175VTUM V0209999C000010075019N0130001N1+02881+02551100231ADDAA124002091GF108991051051008001071061KA1120M+03271MA1999999098291MD1999999-0121REMSYN082AAXX  29124 48352 32563 80000 10288 20255 39829 40023 85576 333 10327 59012 70021;
0167483520999992000082915004+17860+102720FM-12+0175VTUM V0209999C000010450019N0120001N1+02761+02531100421ADDAA199000091GF107991041051008001071061MA1999999098761MD1999999-0221REMSYN070AAXX  29154 48352 32562 70000 10276 20253 39876 40042 84576 333 59022;EQDQ01  00002PRCP99
0167483520999992000082918004+17860+102720FM-12+0175VTUM V0209999C000010450019N0110001N1+02661+02571100341ADDAA199000091GF107991041051008001031061MA1999999098371MD1999999-0221REMSYN070AAXX  29184 48352 32561 70000 10266 20257 39837 40034 84536 333 59022;EQDQ01  00002PRCP99
0167483520999992000082921004+17860+102720FM-12+0175VTUM V0209999C000010075019N0100001N1+02561+02331100241ADDAA199000091GF106991051051008001001051MA1999999098281MD1999999-0181REMSYN070AAXX  29214 48352 32560 60000 10256 20233 39828 40024 85505 333 59018;EQDQ01  00002PRCP99
0186483520999992000083000004+17860+102720FM-12+0175VTUM V0209999C000010450019N0100001N1+02531+02311100381ADDAA199000091GF107991041051008001071061KA1120N+02521MA1999999098401MD1999999-0151REMSYN076AAXX  30004 48352 32560 70000 10253 20231 39840 40038 84576 333 20252 59015;EQDQ01  00002PRCP99
0167483520999992000083003004+17860+102720FM-12+0175VTUM V0203001N002612200019N0150001N1+03051+02401100421ADDAA199000091GF104991031051008001001051MA1999999098471MD1999999-0151REMSYN070AAXX  30034 48352 32565 43005 10305 20240 39847 40042 83505 333 59015;EQDQ01  00002PRCP99
0167483520999992000083006004+17860+102720FM-12+0175VTUM V0202901N001512200019N0150001N1+03231+02421100241ADDAA199000091GF104991031081008001001051MA1999999098321MD1999999-0131REMSYN070AAXX  30064 48352 32565 42903 10323 20242 39832 40024 83805 333 59013;EQDQ01  00002PRCP99
0167483520999992000083009004+17860+102720FM-12+0175VTUM V0209999C000012200019N0140001N1+03181+02441100001ADDAA199000091GF106991041051008001001061MA1999999098081MD1999999-0101REMSYN070AAXX  30094 48352 32564 60000 10318 20244 39808 40000 84506 333 59010;EQDQ01  00002PRCP99
0186483520999992000083012004+17860+102720FM-12+0175VTUM V0202701N001010450019N0130001N1+02881+02501100151ADDAA199000091GF106991041051008001041061KA1120M+03431MA1999999098211MD1999999-0081REMSYN076AAXX  30124 48352 32563 62702 10288 20250 39821 40015 84546 333 10343 59008;EQDQ01  00002PRCP99
0195483520999992000083015004+17860+102720FM-12+0175VTUM V0209999C000010450019N0120001N1+02771+02531100361ADDAA199000091AY191031AY221031GF106991041051008001071061MA1999999098401MD1999999-0061MW1021REMSYN076AAXX  30154 48352 31562 60000 10277 20253 39840 40036 70292 84576 333 59006;EQDQ01  00002PRCP99
0195483520999992000083018004+17860+102720FM-12+0175VTUM V0209999C000010450019N0120001N1+02701+02501100301ADDAA199000091AY191061AY221061GF106991041051008001031061MA1999999098331MD1999999-0041MW1021REMSYN076AAXX  30184 48352 31562 60000 10270 20250 39833 40030 70292 84536 333 59004;EQDQ01  00002PRCP99
0186483520999992000083100004+17860+102720FM-12+0175VTUM V0209999C000010450019N0100001N1+02641+02541100311ADDAA199000091GF107991041051008001071061KA1120N+02581MA1999999098331MD1999999-0091REMSYN076AAXX  31004 48352 32560 70000 10264 20254 39833 40031 84576 333 20258 59009;EQDQ01  00002PRCP99
0167483520999992000083103004+17860+102720FM-12+0175VTUM V0202601N002612200019N0150001N1+03141+02361100381ADDAA199000091GF104991021051008001041021MA1999999098441MD1999999-0041REMSYN070AAXX  31034 48352 32565 42605 10314 20236 39844 40038 82542 333 59004;EQDQ01  00002PRCP99
0167483520999992000083106004+17860+102720FM-12+0175VTUM V0202401N001510450019N0150001N1+03301+02451100231ADDAA199000091GF106991031091008001041031MA1999999098321MD1999999-0011REMSYN070AAXX  31064 48352 32565 62403 10330 20245 39832 40023 83943 333 59001;EQDQ01  00002PRCP99
0167483520999992000083109004+17860+102720FM-12+0175VTUM V0202501N001010450019N0150001N1+03051+02511100021ADDAA199000091GF107991041091008001071031MA1999999098091MD1999999+0021REMSYN070AAXX  31094 48352 32565 72502 10305 20251 39809 40002 84973 333 58002;EQDQ01  00002PRCP99
0186483520999992000083112004+17860+102720FM-12+0175VTUM V0209999C000010450019N0130001N1+02851+02491100151ADDAA199000091GF108991041081008001031071KA1120M+03391MA1999999098211MD1999999+0001REMSYN076AAXX  31124 48352 32563 80000 10285 20249 39821 40015 84837 333 10339 58000;EQDQ01  00002PRCP99
0167483520999992000083115004+17860+102720FM-12+0175VTUM V0209999C000010450019N0120001N1+02711+02501100401ADDAA199000091GF107991041051008001071061MA1999999098431MD1999999+0041REMSYN070AAXX  31154 48352 32562 70000 10271 20250 39843 40040 84576 333 58004;EQDQ01  00002PRCP99
0213483520999992000090100004+17860+102720FM-12+0175VTUM V0209999C000010075019N0050001N1+02501+02431100471ADDAA103004191AY161061AY261061GF108991061051008001021999KA1120N+02481MA1999999098491MD1999999+0161MW1611REMSYN100AAXX  01004 48352 /1550 80000 10250 20243 39849 40047 60064 76166 8652/ 333 20248 58016 60047 70061;
0182483520999992000090103004+17860+102720FM-12+0175VTUM V0209999C000010075019N0080001N1+02611+02511100651ADDAA103000591AY161031AY261031GF108991071071008001021999MA1999999098681MD1999999+0271MW1611REMSYN082AAXX  01034 48352 21558 80000 10261 20251 39868 40065 76166 8772/ 333 58027 69967;
0194483520999992000090106004+17860+102720FM-12+0175VTUM V0202201N001010075019N0120001N1+02811+02471100551ADDAA103000191AY161061AY261061GF108991061051008001021999MA1999999098591MD1999999-0321MW1021REMSYN094AAXX  01064 48352 /1562 82202 10281 20247 39859 40055 69971 70266 8652/ 333 59032 69917 70068;
0148483520999992000090109004+17860+102720FM-12+0175VTUM V0202301N001510450019N0140001N1+02961+02481100321ADDAA199000021GF107991041091008001031061MA1999999098371MD1999999+0301REMSYN070AAXX  01094 48352 32564 72303 10296 20248 39837 40032 84936 333 58030;
0173483520999992000090112004+17860+102720FM-12+0175VTUM V0209999C000010075019N0130001N1+02741+02481100391ADDAA124006991GF108991051051008001031061KA1120M+03011MA1999999098421MD1999999+0241REMSYN082AAXX  01124 48352 32563 80000 10274 20248 39842 40039 85536 333 10301 58024 70068;
0148483520999992000090115004+17860+102720FM-12+0175VTUM V0209999C000010075019N0120001N1+02661+02521100601ADDAA199000021GF108991051051008001071061MA1999999098631MD1999999+0201REMSYN070AAXX  01154 48352 32562 80000 10266 20252 39863 40060 85576 333 58020;
0154483520999992000090118004+17860+102720FM-12+0175VTUM V0209999C000010075019N0110001N1+02661+02551100491ADDAA124006991GF108991061051008001071999MA1999999098521MD1999999+0101REMSYN076AAXX  01184 48352 32561 80000 10266 20255 39852 40049 8657/ 333 58010 70068;
0167483520999992000090121004+17860+102720FM-12+0175VTUM V0209999C000010450019N0100001N1+02631+02521100371ADDAA199000091GF108991041051008001071999MA1999999098401MD1999999-0021REMSYN070AAXX  01214 48352 32560 80000 10263 20252 39840 40037 8457/ 333 59002;EQDQ01  00002PRCP99
0173483520999992000090200004+17860+102720FM-12+0175VTUM V0209999C000010075019N0100001N1+02491+02361100481ADDAA124000891GF108991061051008001071999KA1120N+02451MA1999999098501MD1999999+0011REMSYN082AAXX  02004 48352 32560 80000 10249 20236 39850 40048 8657/ 333 20245 58001 70007;
0167483520999992000090203004+17860+102720FM-12+0175VTUM V0209999C000010120019N0120001N1+02891+02371100601ADDAA199000091GF107991051081008001071061MA1999999098641MD1999999-0051REMSYN070AAXX  02034 48352 32562 70000 10289 20237 39864 40060 85876 333 59005;EQDQ01  00002PRCP99
0167483520999992000090206004+17860+102720FM-12+0175VTUM V0201201N001510075019N0150001N1+03071+02551100411ADDAA199000091GF106991051091008001061031MA1999999098471MD1999999-0141REMSYN070AAXX  02064 48352 32565 61203 10307 20255 39847 40041 85963 333 59014;EQDQ01  00002PRCP99
0182483520999992000090209004+17860+102720FM-12+0175VTUM V0209999C000010120019N0120001N1+02551+02481100281ADDAA103022191AY191031AY261031GF108991061081008001071999MA1999999098321MD1999999-0041MW1211REMSYN082AAXX  02094 48352 21562 80000 10255 20248 39832 40028 72196 8687/ 333 59004 60227;
0213483520999992000090212004+17860+102720FM-12+0175VTUM V0209999C000010075019N0060001N1+02541+02481100461ADDAA102002091AY191061AY261061GF108991071071008001021999KA1120M+03131MA1999999098481MD1999999+0071MW1611REMSYN100AAXX  02124 48352 /1556 80000 10254 20248 39848 40046 60242 76196 8772/ 333 10313 58007 60026 70238;
0182483520999992000090215004+17860+102720FM-12+0175VTUM V0209999C000010075019N0070001N1+02521+02491100641ADDAA103000391AY161031AY221031GF108991071071008001021999MA1999999098661MD1999999+0041MW1601REMSYN082AAXX  02154 48352 21557 80000 10252 20249 39866 40064 76062 8772/ 333 58004 69937;
0194483520999992000090218004+17860+102720FM-12+0175VTUM V0209999C000010075019N0050001N1+02421+02391100711ADDAA103002091AY161061AY261061GF108991071071008001021999MA1999999098721MD1999999+0221MW1611REMSYN094AAXX  02184 48352 /1550 80000 10242 20239 39872 40071 60263 76166 8772/ 333 58022 60027 70263;
0213483520999992000090300004+17860+102720FM-12+0175VTUM V0209999C000010075019N0060001N1+02451+02441100701ADDAA103001091AY161061AY261061GF108991071071008001021999KA1120N+02401MA1999999098721MD1999999+0221MW1611REMSYN100AAXX  03004 48352 /1556 80000 10245 20244 39872 40070 60284 76166 8772/ 333 20240 58022 69997 70279;
0182483520999992000090303004+17860+102720FM-12+0175VTUM V0209999C000010075019N0120001N1+02661+02461100811ADDAA103001091AY161031AY261031GF108991061051008001071999MA1999999098841MD1999999+0211MW1021REMSYN082AAXX  03034 48352 21562 80000 10266 20246 39884 40081 70266 8657/ 333 58021 60017;
0194483520999992000090306004+17860+102720FM-12+0175VTUM V0209999C000010075019N0080001N1+02711+02411100721ADDAA102000391AY161061AY261061GF108991071071008001021999MA1999999098751MD1999999+0311MW1611REMSYN094AAXX  03064 48352 /1558 80000 10271 20241 39875 40072 60011 76166 8772/ 333 58031 69936 70292;
0182483520999992000090309004+17860+102720FM-12+0175VTUM V0209999C000010450019N0140001N1+02751+02461100511ADDAA103000591AY161031AY261031GF107991041081008001071061MA1999999098551MD1999999+0231MW1211REMSYN082AAXX  03094 48352 21564 70000 10275 20246 39855 40051 72166 84876 333 58023 69947;
0207483520999992000090312004+17860+102720FM-12+0175VTUM V0209999C000010120019N0130001N1+02511+02351100661ADDAA112002091AY161061AY221061GF108991051081008001071999KA1120M+02801MA1999999098681MD1999999+0201MW1031REMSYN094AAXX  03124 48352 11563 80000 10251 20235 39868 40066 60022 70362 8587/ 333 10280 58020 70058;
0182483520999992000090315004+17860+102720FM-12+0175VTUM V0209999C000010075019N0070001N1+02461+02391100881ADDAA103003091AY161031AY261031GF108991071071008001021999MA1999999098931MD1999999+0241MW1611REMSYN082AAXX  03154 48352 21557 80000 10246 20239 39893 40088 76166 8772/ 333 58024 60037;
0207483520999992000090400004+17860+102720FM-12+0175VTUM V0209999C000010075019N0100001N1+02451+02421100801ADDAA124006191AY161061AY221061GF108991061051008001071999KA1120N+02431MA1999999098821MD1999999+0101MW1021REMSYN094AAXX  04004 48352 11560 80000 10245 20242 39882 40080 60064 70262 8657/ 333 20243 58010 70061;
0148483520999992000090403004+17860+102720FM-12+0175VTUM V0209999C000010075019N0120001N1+02721+02481100871ADDAA199000021GF108991051051008001071061MA1999999098911MD1999999+0071REMSYN070AAXX  04034 48352 32562 80000 10272 20248 39891 40087 85576 333 58007;
0154483520999992000090406004+17860+102720FM-12+0175VTUM V0202201N001010120019N0130001N1+02961+02511100631ADDAA124005191GF108991051081008001071999MA1999999098681MD1999999-0091REMSYN076AAXX  04064 48352 32563 82202 10296 20251 39868 40063 8587/ 333 59009 70051;
0182483520999992000090409004+17860+102720FM-12+0175VTUM V0201901N001510075019N0060001N1+02521+02401100521ADDAA103007191AY161031AY261031GF108991061091008001071999MA1999999098541MD1999999+0011MW1611REMSYN082AAXX  04094 48352 21556 81903 10252 20240 39854 40052 76166 8697/ 333 58001 60077;
0213483520999992000090412004+17860+102720FM-12+0175VTUM V0209999C000010075019N0050001N1+02481+02441100621ADDAA103000391AY161061AY261061GF108991051051008001071999KA1120M+03041MA1999999098641MD1999999-0041MW1601REMSYN100AAXX  04124 48352 /1550 80000 10248 20244 39864 40062 60072 76066 8557/ 333 10304 59004 69937 70115;
0182483520999992000090415004+17860+102720FM-12+0175VTUM V0209999C000010042019N0040001N1+02481+02451100801ADDAA103004191AY161031AY261031GF108991061071004501021999MA1999999098811MD1999999-0081MW1611REMSYN082AAXX  04154 48352 21440 80000 10248 20245 39881 40080 76166 8672/ 333 59008 60047;
0194483520999992000090418004+17860+102720FM-12+0175VTUM V0209999C000010042019N0050001N1+02451+02421100641ADDAA103005191AY161061AY261061GF108991051071004501021999MA1999999098661MD1999999-0201MW1611REMSYN094AAXX  04184 48352 /1450 80000 10245 20242 39866 40064 60163 76166 8572/ 333 59020 60057 70160;
0213483520999992000090500004+17860+102720FM-12+0175VTUM V0209999C000010075019N0050001N1+02381+02371100701ADDAA103000591AY161061AY261061GF108991061071008001021999KA1120N+02361MA1999999098711MD1999999-0101MW1611REMSYN100AAXX  05004 48352 /1550 80000 10238 20237 39871 40070 60164 76166 8672/ 333 20236 59010 69947 70161;
0182483520999992000090503004+17860+102720FM-12+0175VTUM V0209999C000010075019N0070001N1+02471+02401100611ADDAA103002091AY161031AY261031GF108991061051008001071999MA1999999098631MD1999999-0261MW1611REMSYN082AAXX  05034 48352 21557 80000 10247 20240 39863 40061 76166 8657/ 333 59026 60027;
0194483520999992000090506004+17860+102720FM-12+0175VTUM V0202401N001510450019N0130001N1+02761+02531100531ADDAA103000191AY161061AY221061GF106991041081008001031061MA1999999098571MD1999999-0091MW1011REMSYN094AAXX  05064 48352 /1563 62403 10276 20253 39857 40053 60021 70162 84836 333 59009 69927 70182;
0148483520999992000090509004+17860+102720FM-12+0175VTUM V0209999C000010450019N0140001N1+02901+02491100311ADDAA199000021GF106991041081008001031051MA1999999098361MD1999999-0211REMSYN070AAXX  05094 48352 32564 60000 10290 20249 39836 40031 84835 333 59021;
0173483520999992000090512004+17860+102720FM-12+0175VTUM V0209999C000010450019N0130001N1+02661+02401100421ADDAA124011291GF106991041051008001041061KA1120M+03021MA1999999098451MD1999999-0201REMSYN082AAXX  05124 48352 32563 60000 10266 20240 39845 40042 84546 333 10302 59020 70111;
0148483520999992000090515004+17860+102720FM-12+0175VTUM V0209999C000010075019N0120001N1+02531+02411100611ADDAA199000021GF108991051051008001071061MA1999999098631MD1999999-0191REMSYN070AAXX  05154 48352 32562 80000 10253 20241 39863 40061 85576 333 59019;
0154483520999992000090518004+17860+102720FM-12+0175VTUM V0209999C000010450019N0110001N1+02501+02431100611ADDAA124002891GF106991041051008001031061MA1999999098631MD1999999-0031REMSYN076AAXX  05184 48352 32561 60000 10250 20243 39863 40061 84536 333 59003 70027;
0167483520999992000090521004+17860+102720FM-12+0175VTUM V0209999C000010075019N0100001N1+02461+02391100541ADDAA199000091GF108991051051008001071061MA1999999098561MD1999999+0001REMSYN070AAXX  05214 48352 32560 80000 10246 20239 39856 40054 85576 333 58000;EQDQ01  00002PRCP99
0173483520999992000090600004+17860+102720FM-12+0175VTUM V0209999C000010075019N0100001N1+02441+02381100581ADDAA124002091GF108991051051008001071061KA1120N+02381MA1999999098591MD1999999-0121REMSYN082AAXX  06004 48352 32560 80000 10244 20238 39859 40058 85576 333 20238 59012 70021;
0167483520999992000090603004+17860+102720FM-12+0175VTUM V0209999C000010450019N0120001N1+02781+02371100671ADDAA199000091GF108991041051008001071061MA1999999098711MD1999999+0061REMSYN070AAXX  06034 48352 32562 80000 10278 20237 39871 40067 84576 333 58006;EQDQ01  00002PRCP99
0167483520999992000090606004+17860+102720FM-12+0175VTUM V0209999C000010450019N0140001N1+03001+02401100491ADDAA199000091GF106991041081008001031061MA1999999098541MD1999999-0051REMSYN070AAXX  06064 48352 32564 60000 10300 20240 39854 40049 84836 333 59005;EQDQ01  00002PRCP99
0167483520999992000090609004+17860+102720FM-12+0175VTUM V0202801N001010450019N0130001N1+03071+02411100291ADDAA199000091GF106991041051008001041061MA1999999098351MD1999999-0021REMSYN070AAXX  06094 48352 32563 62802 10307 20241 39835 40029 84546 333 59002;EQDQ01  00002PRCP99
0186483520999992000090612004+17860+102720FM-12+0175VTUM V0209999C000011050019N0120001N1+02721+02401100421ADDAA199000091GF105991041051008001001051KA1120M+03171MA1999999098451MD1999999+0001REMSYN076AAXX  06124 48352 32562 50000 10272 20240 39845 40042 84505 333 10317 58000;EQDQ01  00002PRCP99
0195483520999992000090615004+17860+102720FM-12+0175VTUM V0209999C000010450019N0120001N1+02581+02441100641ADDAA199000091AY121031AY211031GF106991041091008001071061MA1999999098661MD1999999+0031MW1131REMSYN076AAXX  06154 48352 31562 60000 10258 20244 39866 40064 71321 84976 333 58003;EQDQ01  00002PRCP99
0152483520999992000090618004+17860+102720FM-12+0175VTUM V0209999C000019999999N0110001N1+02521+02401999999ADDAA199000091GF108991999999008001999999MA1999999098661REMSYN069AAXX  06184 48352 32561 80000 10252 20240 39866 4064 85576 333 58003;EQDQ01  00002PRCP99
0213483520999992000090700004+17860+102720FM-12+0175VTUM V0209999C000010450019N0110001N1+02551+02451100651ADDAA103000391AY161061AY261061GF106991031051008001031061KA1120N+02481MA1999999098671MD1999999+0071MW1021REMSYN100AAXX  07004 48352 /1561 60000 10255 20245 39867 40065 60024 70266 83536 333 20248 58007 69937 70020;
0167483520999992000090703004+17860+102720FM-12+0175VTUM V0202801N001510450019N0130001N1+02821+02421100791ADDAA199000091GF107991041081008001071061MA1999999098821MD1999999+0121REMSYN070AAXX  07034 48352 32563 72803 10282 20242 39882 40079 84876 333 58012;EQDQ01  00002PRCP99
0154483520999992000090706004+17860+102720FM-12+0175VTUM V0202601N001010120019N0150001N1+03111+02411100581ADDAA124002091GF108991051081008001071061MA1999999098641MD1999999+0091REMSYN076AAXX  07064 48352 32565 82602 10311 20241 39864 40058 85876 333 58009 70020;
0167483520999992000090709004+17860+102720FM-12+0175VTUM V0202701N001010450019N0150001N1+02991+02351100421ADDAA199000091GF105991031091008001041031MA1999999098471MD1999999+0131REMSYN070AAXX  07094 48352 32565 52702 10299 20235 39847 40042 83943 333 58013;EQDQ01  00002PRCP99
0201483520999992000090712004+17860+102720FM-12+0175VTUM V0209999C000010450019N0140001N1+02831+02551100571ADDAA124002091AY121061AY221061GF106991041091008001071031KA1120M+03201MA1999999098611MD1999999+0151MW1131REMSYN088AAXX  07124 48352 31564 60000 10283 20255 39861 40057 71322 84973 333 10320 58015 70020;
0167483520999992000090715004+17860+102720FM-12+0175VTUM V0209999C000012200019N0120001N1+02651+02491100801ADDAA199000091GF106991021051008001001061MA1999999098831MD1999999+0161REMSYN070AAXX  07154 48352 32562 60000 10265 20249 39883 40080 82506 333 58016;EQDQ01  00002PRCP99
0194483520999992000090718004+17860+102720FM-12+0175VTUM V0209999C000010075019N0050001N1+02631+02531100751ADDAA101000891AY121061AY221061GF108991061051008001021999MA1999999098771MD1999999+0111MW1601REMSYN094AAXX  07184 48352 /1550 80000 10263 20253 39877 40075 69983 76022 8652/ 333 58011 69985 70008;
0207483520999992000090800004+17860+102720FM-12+0175VTUM V0209999C000010075019N0100001N1+02461+02431100821ADDAA124004191AY161061AY221061GF108991061051008001071999KA1120N+02431MA1999999098841MD1999999+0171MW1021REMSYN094AAXX  08004 48352 11560 80000 10246 20243 39884 40082 60044 70262 8657/ 333 20243 58017 70040;
0182483520999992000090803004+17860+102720FM-12+0175VTUM V0209999C000010120019N0090001N1+02631+02461100971ADDAA102000591AY161031AY221031GF108991061081008001071999MA1999999098991MD1999999+0181MW1611REMSYN082AAXX  08034 48352 21559 80000 10263 20246 39899 40097 76162 8687/ 333 58018 69956;
0194483520999992000090806004+17860+102720FM-12+0175VTUM V0209999C000010120019N0150001N1+02871+02491100691ADDAA103000891AY161061AY261061GF107991051081008001071061MA1999999098731MD1999999+0111MW1211REMSYN094AAXX  08064 48352 /1565 70000 10287 20249 39873 40069 60011 72166 85876 333 58011 69987 70053;
0148483520999992000090809004+17860+102720FM-12+0175VTUM V0209999C000010450019N0150001N1+02961+02411100561ADDAA199000021GF106991041091008001061031MA1999999098511MD1999999+0041REMSYN070AAXX  08094 48352 32565 60000 10296 20241 39851 40056 84963 333 58004;
0173483520999992000090812004+17860+102720FM-12+0175VTUM V0209999C000010450019N0140001N1+02771+02471100581ADDAA124005391GF106991041051008001031061KA1120M+03101MA1999999098621MD1999999+0011REMSYN082AAXX  08124 48352 32564 60000 10277 20247 39862 40058 84536 333 10310 58001 70053;
0148483520999992000090815004+17860+102720FM-12+0175VTUM V0209999C000010450019N0130001N1+02651+02401100841ADDAA199000021GF105991041051008001031051MA1999999098871MD1999999+0041REMSYN070AAXX  08154 48352 32563 50000 10265 20240 39887 40084 84535 333 58004;
0154483520999992000090818004+17860+102720FM-12+0175VTUM V0209999C000012200019N0120001N1+02601+02431100731ADDAA124004691GF106991041051008001001061MA1999999098761MD1999999-0021REMSYN076AAXX  08184 48352 32562 60000 10260 20243 39876 40073 84506 333 59002 70045;
0167483520999992000090821004+17860+102720FM-12+0175VTUM V0209999C000010075019N0110001N1+02571+02441100691ADDAA199000091GF106991051051008001031061MA1999999098711MD1999999-0021REMSYN070AAXX  08214 48352 32561 60000 10257 20244 39871 40069 85536 333 59002;EQDQ01  00002PRCP99
0173483520999992000090900004+17860+102720FM-12+0175VTUM V0209999C000010075019N0100001N1+02471+02421100781ADDAA124001391GF108991051051008001071061KA1120N+02401MA1999999098801MD1999999-0041REMSYN082AAXX  09004 48352 32560 80000 10247 20242 39880 40078 85576 333 20240 59004 70013;
0167483520999992000090903004+17860+102720FM-12+0175VTUM V0209999C000010450019N0130001N1+02821+02401100871ADDAA199000091GF106991041051008001031061MA1999999098901MD1999999-0101REMSYN070AAXX  09034 48352 32563 60000 10282 20240 39890 40087 84536 333 59010;EQDQ01  00002PRCP99
0167483520999992000090906004+17860+102720FM-12+0175VTUM V0209999C000012200019N0150001N1+03121+02481100571ADDAA199000091GF102991021011008001001001MA1999999098631MD1999999-0121REMSYN070AAXX  09064 48352 32565 20000 10312 20248 39863 40057 82100 333 59012;EQDQ01  00002PRCP99
0186483520999992000090912004+17860+102720FM-12+0175VTUM V0209999C000012200019N0140001N1+02861+02531100421ADDAA199000091GF106991021051008001001061KA1120M+03221MA1999999098461MD1999999-0161REMSYN076AAXX  09124 48352 32564 60000 10286 20253 39846 40042 82506 333 10322 59016;EQDQ01  00002PRCP99
0167483520999992000090915004+17860+102720FM-12+0175VTUM V0209999C000010450019N0130001N1+02721+02521100611ADDAA199000091GF106991031051008001031061MA1999999098651MD1999999-0231REMSYN070AAXX  09154 48352 32563 60000 10272 20252 39865 40061 83536 333 59023;EQDQ01  00002PRCP99
0167483520999992000090918004+17860+102720FM-12+0175VTUM V0209999C000011050019N0120001N1+02651+02491100451ADDAA199000091GF108991041051008001001061MA1999999098481MD1999999-0281REMSYN070AAXX  09184 48352 32562 80000 10265 20249 39848 40045 84506 333 59028;EQDQ01  00002PRCP99
0183483520999992000090921004+17860+102720FM-12+0175VTUM V0209999C000012200019N0110001N1+02541+02421100261ADDAA199000091GF103991001001999999001051MA1999999098291MD1999999-0431REMSYN070AAXX  09214 48352 32561 30000 10254 20242 39829 40026 80005 333 59043;EQDQ01+008002SCOLCBQ02  00002PRCP99
0186483520999992000091000004+17860+102720FM-12+0175VTUM V0209999C000012200019N0100001N1+02561+02441100311ADDAA199000091GF106991031051008001001061KA1120N+02501MA1999999098331MD1999999-0471REMSYN076AAXX  10004 48352 32560 60000 10256 20244 39833 40031 83506 333 20250 59047;EQDQ01  00002PRCP99
0167483520999992000091003004+17860+102720FM-12+0175VTUM V0202801N002610075019N0120001N1+02981+02541100301ADDAA199000091GF108991051051008001071061MA1999999098351MD1999999-0481REMSYN070AAXX  10034 48352 32562 82805 10298 20254 39835 40030 85576 333 59048;EQDQ01  00002PRCP99
0167483520999992000091006004+17860+102720FM-12+0175VTUM V0209999C000010075019N0130001N1+03041+02461100131ADDAA199000091GF108991051051008001071999MA1999999098191MD1999999-0441REMSYN070AAXX  10064 48352 32563 80000 10304 20246 39819 40013 8557/ 333 59044;EQDQ01  00002PRCP99
0182483520999992000091009004+17860+102720FM-12+0175VTUM V0209999C000010075019N0060001N1+02831+02651099941ADDAA102002091AY161031AY221031GF108991061051008001071999MA1999999098001MD1999999-0371MW1611REMSYN082AAXX  10094 48352 21556 80000 10283 20265 39800 49994 76162 8657/ 333 59037 60026;
0213483520999992000091012004+17860+102720FM-12+0175VTUM V0209999C000010075019N0040001N1+02701+02591099961ADDAA103000591AY161061AY261061GF108991061051008001021999KA1120M+03121MA1999999098001MD1999999-0461MW1611REMSYN100AAXX  10124 48352 /1540 80000 10270 20259 39800 49996 60032 76166 8652/ 333 10312 59046 69957 70027;
0162483520999992000091013004+17860+102720FM-12+0175VTUM V0209999C000010075019N0040001N1+02651+02551100051ADDAA103000891AY161999AY261999GF108991061051008001021999MA1999999098091MW1611REMSYN076AAXX  10134 48352 21540 80000 10265 20255 39809 40005 76166 8652/ 333 69987;
0162483520999992000091014004+17860+102720FM-12+0175VTUM V0209999C000010075019N0040001N1+02641+02551100151ADDAA103002091AY161999AY261999GF108991061051008001021999MA1999999098171MW1611REMSYN076AAXX  10144 48352 21540 80000 10264 20255 39817 40015 76166 8652/ 333 60027;
0182483520999992000091015004+17860+102720FM-12+0175VTUM V0209999C000010075019N0040001N1+02551+02481100151ADDAA103003091AY161031AY261031GF108991061051008001021999MA1999999098191MD1999999-0461MW1611REMSYN082AAXX  10154 48352 21540 80000 10255 20248 39819 40015 76166 8652/ 333 59046 60037;
0162483520999992000091016004+17860+102720FM-12+0175VTUM V0209999C000010120019N0040001N1+02501+02431100131ADDAA101004191AY161999AY261999GF108991061081008001021999MA1999999098161MW1611REMSYN076AAXX  10164 48352 21540 80000 10250 20243 39816 40013 76166 8682/ 333 60045;
0162483520999992000091017004+17860+102720FM-12+0175VTUM V0209999C000010075019N0040001N1+02451+02381100001ADDAA101003091AY161999AY261999GF108991061051008001021999MA1999999098031MW1611REMSYN076AAXX  10174 48352 21540 80000 10245 20238 39803 40000 76166 8652/ 333 60035;
0194483520999992000091018004+17860+102720FM-12+0175VTUM V0209999C000010075019N0040001N1+02431+02361099991ADDAA103009991AY161061AY261061GF108991061051008001021999MA1999999098021MD1999999-0161MW1611REMSYN094AAXX  10184 48352 /1540 80000 10243 20236 39802 49999 60183 76166 8652/ 333 59016 60107 70177;
0162483520999992000091019004+17860+102720FM-12+0175VTUM V0209999C000010075019N0040001N1+02421+02351099961ADDAA101002091AY161999AY261999GF108991061091008001071999MA1999999097981MW1611REMSYN076AAXX  10194 48352 21540 80000 10242 20235 39798 49996 76166 8697/ 333 60025;
0162483520999992000091020004+17860+102720FM-12+0175VTUM V0209999C000010075019N0040001N1+02401+02341099891ADDAA101000591AY161999AY261999GF108991061051008001021999MA1999999097921MW1611REMSYN076AAXX  10204 48352 21540 80000 10240 20234 39792 49989 76166 8652/ 333 69965;
0182483520999992000091021004+17860+102720FM-12+0175VTUM V0209999C000010120019N0050001N1+02381+02321099911ADDAA101003091AY161031AY261031GF108991061081008001021999MA1999999097941MD1999999-0351MW1601REMSYN082AAXX  10214 48352 21550 80000 10238 20232 39794 49991 76066 8682/ 333 59035 60035;
0162483520999992000091023004+17860+102720FM-12+0175VTUM V0209999C000010075019N0050001N1+02321+02251099991ADDAA103000891AY161999AY261999GF108991061051008001021999MA1999999098011MW1611REMSYN076AAXX  10234 48352 21550 80000 10232 20225 39801 49999 76166 8652/ 333 69977;
0213483520999992000091100004+17860+102720FM-12+0175VTUM V0209999C000010075019N0040001N1+02321+02291100041ADDAA103002091AY161061AY261061GF108991061051008001021999KA1120N+02281MA1999999098051MD1999999-0271MW1611REMSYN100AAXX  11004 48352 /1540 80000 10232 20229 39805 40004 60224 76166 8652/ 333 20228 59027 60027 70223;
0162483520999992000091101004+17860+102720FM-12+0175VTUM V0200301N001010075019N0040001N1+02351+02321100141ADDAA103000891AY161011AY261011GF108991061051008001021999MA1999999098171MW1611REMSYN076AAXX  11014 48352 21540 80302 10235 20232 39817 40014 76166 8652/ 333 69987;
0162483520999992000091102004+17860+102720FM-12+0175VTUM V0200401N001510075019N0040001N1+02401+02341100181ADDAA103000191AY161999AY261999GF108991061051008001021999MA1999999098211MW1611REMSYN076AAXX  11024 48352 21540 80403 10240 20234 39821 40018 76166 8652/ 333 69927;
0182483520999992000091103004+17860+102720FM-12+0175VTUM V0200601N001510075019N0050001N1+02401+02331100251ADDAA103000791AY161031AY261031GF108991061051008001021999MA1999999098271MD1999999-0051MW1601REMSYN082AAXX  11034 48352 21550 80603 10240 20233 39827 40025 76066 8652/ 333 59005 69907;
0194483520999992000091106004+17860+102720FM-12+0175VTUM V0200201N003110075019N0100001N1+02651+02361100131ADDAA103000391AY161061AY221061GF108991051051008001071061MA1999999098151MD1999999-0021MW1021REMSYN094AAXX  11064 48352 /1560 80206 10265 20236 39815 40013 60011 70262 85576 333 59002 69937 70236;
0182483520999992000091109004+17860+102720FM-12+0175VTUM V0200901N001010075019N0120001N1+02561+02441100011ADDAA103004191AY161031AY261031GF108991051051008001071061MA1999999098051MD1999999+0071MW1211REMSYN082AAXX  11094 48352 21562 80902 10256 20244 39805 40001 72166 85576 333 58007 60047;
0213483520999992000091112004+17860+102720FM-12+0175VTUM V0209999C000010075019N0100001N1+02451+02351100171ADDAA103009991AY161061AY261061GF108991061051008001071999KA1120M+02771MA1999999098201MD1999999+0211MW1021REMSYN100AAXX  11124 48352 /1560 80000 10245 20235 39820 40017 60152 70266 8657/ 333 10277 58021 60107 70248;
0182483520999992000091115004+17860+102720FM-12+0175VTUM V0209999C000010075019N0100001N1+02421+02381100441ADDAA103003091AY161031AY261031GF108991061051008001071999MA1999999098451MD1999999+0291MW1211REMSYN082AAXX  11154 48352 21560 80000 10242 20238 39845 40044 72166 8657/ 333 58029 60037;
0188483520999992000091118004+17860+102720FM-12+0175VTUM V0209999C000010075019N0100001N1+02431+02401100441ADDAA118018091AY161061AY221061GF108991061051008001071999MA1999999098451MD1999999+0451MW1021REMSYN088AAXX  11184 48352 11560 80000 10243 20240 39845 40044 60183 70262 8657/ 333 58045 70227;
0213483520999992000091200004+17860+102720FM-12+0175VTUM V0209999C000010075019N0100001N1+02411+02401100631ADDAA103001091AY161061AY261061GF108991071071008001021999KA1120N+02381MA1999999098651MD1999999+0591MW1021REMSYN100AAXX  12004 48352 /1560 80000 10241 20240 39865 40063 60274 70266 8772/ 333 20238 58059 60017 70273;
0148483520999992000091203004+17860+102720FM-12+0175VTUM V0201601N001510120019N0120001N1+02661+02431100801ADDAA199000021GF108991061081008001071999MA1999999098831MD1999999+0551REMSYN070AAXX  12034 48352 32562 81603 10266 20243 39883 40080 8687/ 333 58055;
0154483520999992000091206004+17860+102720FM-12+0175VTUM V0201501N002110450019N0150001N1+03061+02461100641ADDAA124025991GF106991041021008001031061MA1999999098701MD1999999+0511REMSYN076AAXX  12064 48352 32565 61504 10306 20246 39870 40064 84236 333 58051 70260;
0167483520999992000091209004+17860+102720FM-12+0175VTUM V0209999C000010450019N0140001N1+03051+02401100461ADDAA199000091GF106991041081008001031061MA1999999098521MD1999999+0451REMSYN070AAXX  12094 48352 32564 60000 10305 20240 39852 40046 84836 333 58045;EQDQ01  00002PRCP99
0213483520999992000091212004+17860+102720FM-12+0175VTUM V0200801N001510075019N0130001N1+02651+02431100681ADDAA102000191AY161061AY221061GF107991051091008001071031KA1120M+03201MA1999999098711MD1999999+0511MW1131REMSYN100AAXX  12124 48352 /1563 70803 10265 20243 39871 40068 69922 71362 85973 333 10320 58051 69926 70119;
0194483520999992000091218004+17860+102720FM-12+0175VTUM V0209999C000010120019N0110001N1+02521+02461100881ADDAA103010991AY161061AY221061GF107991051081008001071061MA1999999098901MD1999999+0441MW1011REMSYN094AAXX  12184 48352 /1561 70000 10252 20246 39890 40088 60193 70162 85876 333 58044 60117 70280;
0182483520999992000091221004+17860+102720FM-12+0175VTUM V0209999C000010120019N0100001N1+02511+02481100801ADDAA103000591AY161031AY261031GF108991061081008001071999MA1999999098811MD1999999+0391MW1031REMSYN082AAXX  12214 48352 21560 80000 10251 20248 39881 40080 70366 8687/ 333 58039 69967;
0213483520999992000091300004+17860+102720FM-12+0175VTUM V0209999C000010075019N0050001N1+02541+02481100931ADDAA101000191AY161061AY221061GF108991061051008001071999KA1120N+02501MA1999999098951MD1999999+0301MW1601REMSYN100AAXX  13004 48352 /1550 80000 10254 20248 39895 40093 60204 76062 8657/ 333 20250 58030 69915 70195;
0182483520999992000091303004+17860+102720FM-12+0175VTUM V0200901N001010042019N0040001N1+02321+02291101211ADDAA103062091AY161031AY261031GF108991061091004501071999MA1999999099201MD1999999+0411MW1951REMSYN082AAXX  13034 48352 21440 80902 10232 20229 39920 40121 79566 8697/ 333 58041 60627;
0194483520999992000091306004+17860+102720FM-12+0175VTUM V0209999C000010120019N0120001N1+02651+02371100971ADDAA103006191AY191061AY261061GF107991051081008001071061MA1999999099001MD1999999+0331MW1021REMSYN094AAXX  13064 48352 /1562 70000 10265 20237 39900 40097 60671 70296 85876 333 58033 60067 70869;
0148483520999992000091309004+17860+102720FM-12+0175VTUM V0200201N001011050019N0140001N1+02861+02311100701ADDAA199000021GF105991041081008001001051MA1999999098751MD1999999+0241REMSYN070AAXX  13094 48352 32564 50202 10286 20231 39875 40070 84805 333 58024;
0173483520999992000091312004+17860+102720FM-12+0175VTUM V0209999C000012200019N0130001N1+02651+02541100731ADDAA124086691GF106991031051008001001061KA1120M+02911MA1999999098771MD1999999+0051REMSYN082AAXX  13124 48352 32563 60000 10265 20254 39877 40073 83506 333 10291 58005 70867;
0148483520999992000091315004+17860+102720FM-12+0175VTUM V0209999C000012200019N0120001N1+02521+02421101021ADDAA199000021GF106991021051008001001061MA1999999099021MD1999999+0041REMSYN070AAXX  13154 48352 32562 60000 10252 20242 39902 40102 82506 333 58004;
0154483520999992000091318004+17860+102720FM-12+0175VTUM V0209999C000010075019N0110001N1+02501+02431100941ADDAA124068191GF108991051051008001071061MA1999999098961MD1999999+0061REMSYN076AAXX  13184 48352 32561 80000 10250 20243 39896 40094 85576 333 58006 70681;
0182483520999992000091321004+17860+102720FM-12+0175VTUM V0209999C000010075019N0100001N1+02381+02311100871ADDAA101000591AY121031AY221031GF108991061051008001071999MA1999999098881MD1999999+0071MW1211REMSYN082AAXX  13214 48352 21560 80000 10238 20231 39888 40087 72122 8657/ 333 58007 69965;
0213483520999992000091400004+17860+102720FM-12+0175VTUM V0209999C000010075019N0050001N1+02401+02361101031ADDAA102002091AY161061AY221061GF108991061051008001071999KA1120N+02351MA1999999099031MD1999999+0101MW1611REMSYN100AAXX  14004 48352 /1550 80000 10240 20236 39903 40103 60704 76162 8657/ 333 20235 58010 60026 70696;
0182483520999992000091403004+17860+102720FM-12+0175VTUM V0209999C000010075019N0120001N1+02551+02391101151ADDAA103000891AY161031AY221031GF108991051051008001071061MA1999999099161MD1999999-0061MW1021REMSYN082AAXX  14034 48352 21562 80000 10255 20239 39916 40115 70262 85576 333 59006 69977;
0188483520999992000091406004+17860+102720FM-12+0175VTUM V0209999C000012200019N0150001N1+02801+02331100861ADDAA106000891AY161061AY221061GF104991021021008001001051MA1999999098901MD1999999-0111MW1021REMSYN088AAXX  14064 48352 11565 40000 10280 20233 39890 40086 69971 70262 82205 333 59011 70029;
0148483520999992000091409004+17860+102720FM-12+0175VTUM V0209999C000012200019N0150001N1+03001+02301100601ADDAA199000021GF106991021011008001001061MA1999999098651MD1999999-0101REMSYN070AAXX  14094 48352 32565 60000 10300 20230 39865 40060 82106 333 59010;
0173483520999992000091412004+17860+102720FM-12+0175VTUM V0209999C000010450019N0140001N1+02731+02401100651ADDAA124002891GF106991041051008001031061KA1120M+03071MA1999999098681MD1999999-0081REMSYN082AAXX  14124 48352 32564 60000 10273 20240 39868 40065 84536 333 10307 59008 70029;
0167483520999992000091415004+17860+102720FM-12+0175VTUM V0209999C000012200019N0130001N1+02591+02401100871ADDAA199000091GF104991021051008001001051MA1999999098891MD1999999-0151REMSYN070AAXX  14154 48352 32563 40000 10259 20240 39889 40087 82505 333 59015;EQDQ01  00002PRCP99
0154483520999992000091418004+17860+102720FM-12+0175VTUM V0209999C000010450019N0120001N1+02501+02381100841ADDAA124002891GF106991031051008001031061MA1999999098861MD1999999-0101REMSYN076AAXX  14184 48352 32562 60000 10250 20238 39886 40084 83536 333 59010 70029;
0201483520999992000091500004+17860+102720FM-12+0175VTUM V0209999C000012200019N0060001N1+02471+02431100861ADDAA124000891AY121061AY211061GF103991001001999999001051KA1120N+02361MA1999999098881MD1999999-0171MW1101REMSYN088AAXX  15004 48352 31956 30000 10247 20243 39888 40086 71021 80005 333 20236 59017 70007;
0167483520999992000091503004+17860+102720FM-12+0175VTUM V0209999C000012200019N0100001N1+02951+02371100921ADDAA199000091GF101991011011008001001001MA1999999098971MD1999999-0231REMSYN070AAXX  15034 48352 32560 10000 10295 20237 39897 40092 81100 333 59023;EQDQ01  00002PRCP99
0195483520999992000091506004+17860+102720FM-12+0175VTUM V0201301N001012200019N0090001N1+03161+02001100671ADDAA199000091AY101061AY201061GF102991021011008001001001MA1999999098741MD1999999-0191MW1051REMSYN076AAXX  15064 48352 31559 21302 10316 20200 39874 40067 70500 82100 333 59019;EQDQ01  00002PRCP99
0195483520999992000091509004+17860+102720FM-12+0175VTUM V0209999C000010120019N0090001N1+03061+01931100521ADDAA199000091AY111031AY201031GF107991051081008001071061MA1999999098571MD1999999-0081MW1051REMSYN076AAXX  15094 48352 31559 70000 10306 20193 39857 40052 70510 85876 333 59008;EQDQ01  00002PRCP99
0214483520999992000091512004+17860+102720FM-12+0175VTUM V0209999C000012200019N0080001N1+02761+02241100661ADDAA199000091AY111061AY201061GF102991011011008001001051KA1120M+03241MA1999999098701MD1999999+0011MW1101REMSYN082AAXX  15124 48352 31558 20000 10276 20224 39870 40066 71010 81105 333 10324 58001;EQDQ01  00002PRCP99
0195483520999992000091515004+17860+102720FM-12+0175VTUM V0209999C000012200019N0070001N1+02591+02301100961ADDAA199000091AY101031AY201031GF101991011011008001001001MA1999999098981MD1999999+0091MW1101REMSYN076AAXX  15154 48352 31557 10000 10259 20230 39898 40096 71000 81100 333 58009;EQDQ01  00002PRCP99
0205483520999992000091518004+17860+102720FM-12+0175VTUM V0209999C000012200019N0050001N1+02411+02251100961ADDAA199000091AY101061AY201061GA1001+999999999GF100991001001999999001001MA1999999098971MD1999999+0121MW1101REMSYN070AAXX  15184 48352 31950 00000 10241 20225 39897 40096 71000 333 58012;EQDQ01  00002PRCP99
0205483520999992000091521004+17860+102720FM-12+0175VTUM V0209999C000012200019N0030001N1+02361+02271100901ADDAA199000091AY101031AY201031GA1001+999999999GF100991001001999999001001MA1999999098911MD1999999+0151MW1101REMSYN070AAXX  15214 48352 31930 00000 10236 20227 39891 40090 71000 333 58015;EQDQ01  00002PRCP99
0214483520999992000091600004+17860+102720FM-12+0175VTUM V0209999C000012200019N0060001N1+02351+02181101031ADDAA199000091AY101061AY201061GF102991001001999999001051KA1120N+02241MA1999999099021MD1999999+0171MW1101REMSYN082AAXX  16004 48352 31956 20000 10235 20218 39902 40103 71000 80005 333 20224 58017;EQDQ01  00002PRCP99
0205483520999992000091603004+17860+102720FM-12+0175VTUM V0209999C000012200019N0080001N1+02901+02221101141ADDAA199000091AY101031AY201031GA1001+999999999GF100991001001999999001001MA1999999099171MD1999999+0221MW1101REMSYN070AAXX  16034 48352 31958 00000 10290 20222 39917 40114 71000 333 58022;EQDQ01  00002PRCP99
0205483520999992000091609004+17860+102720FM-12+0175VTUM V0209999C000012200019N0090001N1+03121+01781100781ADDAA199000091AY101031AY201031GA1001+999999999GF100991001001999999001001MA1999999098841MD1999999+0261MW1051REMSYN070AAXX  16094 48352 31959 00000 10312 20178 39884 40078 70500 333 58026;EQDQ01  00002PRCP99
0224483520999992000091612004+17860+102720FM-12+0175VTUM V0209999C000012200019N0080001N1+02671+02191100881ADDAA199000091AY101061AY201061GA1001+999999999GF100991001001999999001001KA1120M+03201MA1999999098911MD1999999+0221MW1051REMSYN076AAXX  16124 48352 31958 00000 10267 20219 39891 40088 70500 333 10320 58022;EQDQ01  00002PRCP99
0205483520999992000091615004+17860+102720FM-12+0175VTUM V0209999C000012200019N0070001N1+02501+02261101151ADDAA199000091AY101031AY201031GA1001+999999999GF100991001001999999001001MA1999999099161MD1999999+0191MW1101REMSYN070AAXX  16154 48352 31957 00000 10250 20226 39916 40115 71000 333 58019;EQDQ01  00002PRCP99
0205483520999992000091618004+17860+102720FM-12+0175VTUM V0209999C000012200019N0060001N1+02411+02221101171ADDAA199000091AY101061AY201061GA1001+999999999GF100991001001999999001001MA1999999099151MD1999999+0201MW1101REMSYN070AAXX  16184 48352 31956 00000 10241 20222 39915 40117 71000 333 58020;EQDQ01  00002PRCP99
0224483520999992000091700004+17860+102720FM-12+0175VTUM V0209999C000012200019N0040001N1+02341+02201101211ADDAA199000091AY101061AY201061GA1001+999999999GF100991001001999999001001KA1120N+02241MA1999999099211MD1999999+0181MW1101REMSYN076AAXX  17004 48352 31940 00000 10234 20220 39921 40121 71000 333 20224 58018;EQDQ01  00002PRCP99
0205483520999992000091703004+17860+102720FM-12+0175VTUM V0209999C000012200019N0070001N1+02881+02051101261ADDAA199000091AY101031AY201031GA1001+999999999GF100991001001999999001001MA1999999099291MD1999999+0121MW1051REMSYN070AAXX  17034 48352 31957 00000 10288 20205 39929 40126 70500 333 58012;EQDQ01  00002PRCP99
0195483520999992000091706004+17860+102720FM-12+0175VTUM V0200801N001512200019N0080001N1+03101+01771101011ADDAA199000091AY101061AY201061GF101991011011008001001001MA1999999099051MD1999999+0111MW1051REMSYN076AAXX  17064 48352 31558 10803 10310 20177 39905 40101 70500 81100 333 58011;EQDQ01  00002PRCP99
0205483520999992000091709004+17860+102720FM-12+0175VTUM V0200401N001012200019N0080001N1+03121+01681100841ADDAA199000091AY101031AY201031GA1001+999999999GF100991001001999999001001MA1999999098901MD1999999+0061MW1051REMSYN070AAXX  17094 48352 31958 00402 10312 20168 39890 40084 70500 333 58006;EQDQ01  00002PRCP99
0208483520999992000091712004+17860+102720FM-12+0175VTUM V0209999C000019999999N0060001N1+02691+02151100911ADDAA199000091AY101061AY201061GF106991999999999999999999KA1120M+03191MA1999999098951MD1999999+0031MW1101REMSYN076AAXX  17124 48352 31956 60000 10269 20215 39895 40091 71000 333 10319 58003;EQDQ01  00002PRCP99
0205483520999992000091715004+17860+102720FM-12+0175VTUM V0209999C000012200019N0050001N1+02441+02201101091ADDAA199000091AY101031AY201031GA1001+999999999GF100991001001999999001001MA1999999099081MD1999999-0061MW1101REMSYN070AAXX  17154 48352 31950 00000 10244 20220 39908 40109 71000 333 59006;EQDQ01  00002PRCP99
0205483520999992000091718004+17860+102720FM-12+0175VTUM V0209999C000012200019N0040001N1+02301+02161101051ADDAA199000091AY101061AY201061GA1001+999999999GF100991001001999999001001MA1999999099051MD1999999-0111MW1101REMSYN070AAXX  17184 48352 31940 00000 10230 20216 39905 40105 71000 333 59011;EQDQ01  00002PRCP99
0205483520999992000091721004+17860+102720FM-12+0175VTUM V0209999C000012200019N0030001N1+02211+02151101041ADDAA199000091AY101031AY201031GA1001+999999999GF100991001001999999001001MA1999999099021MD1999999-0071MW1101REMSYN070AAXX  17214 48352 31930 00000 10221 20215 39902 40104 71000 333 59007;EQDQ01  00002PRCP99
0224483520999992000091800004+17860+102720FM-12+0175VTUM V0209999C000012200019N0030001N1+02261+02211101111ADDAA199000091AY101061AY201061GA1001+999999999GF100991001001999999001001KA1120N+02191MA1999999099101MD1999999-0101MW1101REMSYN076AAXX  18004 48352 31930 00000 10226 20221 39910 40111 71000 333 20219 59010;EQDQ01  00002PRCP99
0205483520999992000091803004+17860+102720FM-12+0175VTUM V0209999C000012200019N0040001N1+02861+02211101121ADDAA199000091AY101031AY201031GA1001+999999999GF100991001001999999001001MA1999999099151MD1999999-0141MW1101REMSYN070AAXX  18034 48352 31940 00000 10286 20221 39915 40112 71000 333 59014;EQDQ01  00002PRCP99
0195483520999992000091806004+17860+102720FM-12+0175VTUM V0209999C000012200019N0060001N1+03101+01961100891ADDAA199000091AY111061AY201061GF105991021021008001001061MA1999999098951MD1999999-0121MW1051REMSYN076AAXX  18064 48352 31556 50000 10310 20196 39895 40089 70510 82206 333 59012;EQDQ01  00002PRCP99
0195483520999992000091809004+17860+102720FM-12+0175VTUM V0200501N001012200019N0060001N1+03111+02031100741ADDAA199000091AY101031AY201031GF104991021021008001001061MA1999999098801MD1999999-0101MW1051REMSYN076AAXX  18094 48352 31556 40502 10311 20203 39880 40074 70500 82206 333 59010;EQDQ01  00002PRCP99
0224483520999992000091812004+17860+102720FM-12+0175VTUM V0209999C000012200019N0050001N1+02731+02261100841ADDAA199000091AY101061AY201061GA1001+999999999GF100991001001999999001001KA1120M+03161MA1999999098871MD1999999-0071MW1101REMSYN076AAXX  18124 48352 31950 00000 10273 20226 39887 40084 71000 333 10316 59007;EQDQ01  00002PRCP99
0205483520999992000091818004+17860+102720FM-12+0175VTUM V0209999C000012200019N0030001N1+02401+02251101001ADDAA199000091AY101061AY201061GA1001+999999999GF100991001001999999001001MA1999999099001MD1999999-0051MW1101REMSYN070AAXX  18184 48352 31930 00000 10240 20225 39900 40100 71000 333 59005;EQDQ01  00002PRCP99
0224483520999992000091900004+17860+102720FM-12+0175VTUM V0209999C000012200019N0010001N1+02361+02301101101ADDAA199000091AY101061AY201061GA1001+999999999GF100991001001999999001001KA1120N+02281MA1999999099101MD1999999-0011MW1101REMSYN076AAXX  19004 48352 31910 00000 10236 20230 39910 40110 71000 333 20228 59001;EQDQ01  00002PRCP99
0195483520999992000091903004+17860+102720FM-12+0175VTUM V0209999C001012200019N0070001N1+02941+02181101151ADDAA199000091AY101031AY201031GF102991001001999999001051MA1999999099191MD1999999+0031MW1051REMSYN076AAXX  19034 48352 31957 20002 10294 20218 39919 40115 70500 80005 333 58003;EQDQ01  00002PRCP99
0195483520999992000091906004+17860+102720FM-12+0175VTUM V0209999C000012200019N0080001N1+03131+02001100971ADDAA199000091AY101061AY201061GF101991011011008001001011MA1999999099021MD1999999+0081MW1051REMSYN076AAXX  19064 48352 31558 10000 10313 20200 39902 40097 70500 81101 333 58008;EQDQ01  00002PRCP99
0211483520999992000091909004+17860+102720FM-12+0175VTUM V0209999C000019999999N0080001N1+03161+02021100781ADDAA199000091AY101031AY201031GF107991999011008001001001MA1999999098841MD1999999+0041MW1051REMSYN076AAXX  19094 48352 31558 70000 10316 20202 39884 40078 70500 81100 333 58004;EQDQ01+000012SCOTLCQ02  00002PRCP99
0224483520999992000091912004+17860+102720FM-12+0175VTUM V0209999C000012200019N0060001N1+02781+02231100861ADDAA199000091AY101061AY201061GA1001+999999999GF100991001001999999001001KA1120M+03221MA1999999098901MD1999999+0021MW1101REMSYN076AAXX  19124 48352 31956 00000 10278 20223 39890 40086 71000 333 10322 58002;EQDQ01  00002PRCP99
0205483520999992000091915004+17860+102720FM-12+0175VTUM V0209999C000012200019N0050001N1+02601+02311101111ADDAA199000091AY101031AY201031GA1001+999999999GF100991001001999999001001MA1999999099121MD1999999+0111MW1101REMSYN070AAXX  19154 48352 31950 00000 10260 20231 39912 40111 71000 333 58011;EQDQ01  00002PRCP99
0205483520999992000091918004+17860+102720FM-12+0175VTUM V0209999C000012200019N0040001N1+02501+02351101041ADDAA199000091AY101061AY201061GA1001+999999999GF100991001001999999001001MA1999999099041MD1999999+0041MW1101REMSYN070AAXX  19184 48352 31940 00000 10250 20235 39904 40104 71000 333 58004;EQDQ01  00002PRCP99
0205483520999992000091921004+17860+102720FM-12+0175VTUM V0209999C000012200019N0030001N1+02471+02341101041ADDAA199000091AY101031AY201031GA1001+999999999GF100991001001999999001001MA1999999099051MD1999999+0041MW1101REMSYN070AAXX  19214 48352 31930 00000 10247 20234 39905 40104 71000 333 58004;EQDQ01  00002PRCP99
0214483520999992000092000004+17860+102720FM-12+0175VTUM V0209999C000019999999N0030001N1+02421+02211101171ADDAA199000091AY111061AY201061GF106991001001999999001061KA1120N+02391MA1999999099161MD1999999+0071MW1101REMSYN082AAXX  20004 48352 31930 60000 10242 20221 39916 40117 71010 80006 333 20239 58007;EQDQ01  00002PRCP99
0195483520999992000092003004+17860+102720FM-12+0175VTUM V0201001N001512200019N0070001N1+02901+02321101281ADDAA199000091AY121031AY221031GF106991021021008001001061MA1999999099311MD1999999+0131MW1101REMSYN076AAXX  20034 48352 31557 61003 10290 20232 39931 40128 71022 82206 333 58013;EQDQ01  00002PRCP99
0195483520999992000092006004+17860+102720FM-12+0175VTUM V0209999C000012200019N0080001N1+03151+02231101031ADDAA199000091AY111061AY201061GF104991021051008001001051MA1999999099091MD1999999+0061MW1051REMSYN076AAXX  20064 48352 31558 40000 10315 20223 39909 40103 70510 82505 333 58006;EQDQ01  00002PRCP99
0195483520999992000092009004+17860+102720FM-12+0175VTUM V0209999C000012200019N0080001N1+03151+02111100801ADDAA199000091AY101031AY201031GF103991021011008001001051MA1999999098871MD1999999+0021MW1051REMSYN076AAXX  20094 48352 31558 30000 10315 20211 39887 40080 70500 82105 333 58002;EQDQ01  00002PRCP99
0214483520999992000092012004+17860+102720FM-12+0175VTUM V0209999C000012200019N0070001N1+02851+02401100931ADDAA199000091AY101061AY201061GF101991001001999999001011KA1120M+03221MA1999999098971MD1999999+0071MW1101REMSYN082AAXX  20124 48352 31957 10000 10285 20240 39897 40093 71000 80001 333 10322 58007;EQDQ01  00002PRCP99
0205483520999992000092015004+17860+102720FM-12+0175VTUM V0209999C000012200019N0060001N1+02621+02391101191ADDAA199000091AY101031AY201031GA1001+999999999GF100991001001999999001001MA1999999099201MD1999999+0081MW1101REMSYN070AAXX  20154 48352 31956 00000 10262 20239 39920 40119 71000 333 58008;EQDQ01  00002PRCP99
0205483520999992000092018004+17860+102720FM-12+0175VTUM V0209999C000012200019N0040001N1+02551+02401101111ADDAA199000091AY101061AY201061GA1001+999999999GF100991001001999999001001MA1999999099131MD1999999+0071MW1101REMSYN070AAXX  20184 48352 31940 00000 10255 20240 39913 40111 71000 333 58007;EQDQ01  00002PRCP99
0214483520999992000092100004+17860+102720FM-12+0175VTUM V0209999C000010450019N0020001N1+02471+02231101251ADDAA199000091AY111061AY201061GF107991031051008001071061KA1120N+02401MA1999999099251MD1999999+0081MW1101REMSYN082AAXX  21004 48352 31520 70000 10247 20223 39925 40125 71010 83576 333 20240 58008;EQDQ01  00002PRCP99
0195483520999992000092103004+17860+102720FM-12+0175VTUM V0200801N002111050019N0040001N1+02881+02081101321ADDAA199000091AY121031AY221031GF106991021011008001031061MA1999999099351MD1999999+0041MW1051REMSYN076AAXX  21034 48352 31540 60804 10288 20208 39935 40132 70522 82136 333 58004;EQDQ01  00002PRCP99
0195483520999992000092106004+17860+102720FM-12+0175VTUM V0200901N002611050019N0070001N1+03161+02101101091ADDAA199000091AY121061AY221061GF105991011011008001031061MA1999999099441MD1999999+0061MW1051REMSYN076AAXX  21064 48352 31557 50905 10316 20210 39944 40109 70522 81136 333 58006;EQDQ01  00002PRCP99
0195483520999992000092109004+17860+102720FM-12+0175VTUM V0200901N002111050019N0070001N1+03231+02191100831ADDAA199000091AY121031AY221031GF105991021091008001041031MA1999999098891MD1999999+0031MW1051REMSYN076AAXX  21094 48352 31557 50904 10323 20219 39889 40083 70522 82943 333 58003;EQDQ01  00002PRCP99
0195483520999992000092115004+17860+102720FM-12+0175VTUM V0209999C000012200019N0050001N1+02741+02421101261ADDAA199000091AY111031AY211031GF105991041051008001001061MA1999999099281MD1999999+0071MW1101REMSYN076AAXX  21154 48352 31550 50000 10274 20242 39928 40126 71011 84506 333 58007;EQDQ01  00002PRCP99
0195483520999992000092118004+17860+102720FM-12+0175VTUM V0209999C000010450019N0040001N1+02661+02431101211ADDAA199000091AY121061AY211061GF106991041051008001031061MA1999999099231MD1999999+0101MW1101REMSYN076AAXX  21184 48352 31540 60000 10266 20243 39923 40121 71021 84536 333 58010;EQDQ01  00002PRCP99
0214483520999992000092200004+17860+102720FM-12+0175VTUM V0209999C000012200019N0040001N1+02601+02351101251ADDAA199000091AY101061AY201061GF101991001001999999001011KA1120N+02471MA1999999099261MD1999999+0001MW1101REMSYN082AAXX  22004 48352 31940 10000 10260 20235 39926 40125 71000 80001 333 20247 58000;EQDQ01  00002PRCP99
0195483520999992000092203004+17860+102720FM-12+0175VTUM V0200801N001512200019N0080001N1+03021+02161101331ADDAA199000091AY101031AY201031GF101991011011008001001011MA1999999099371MD1999999+0011MW1051REMSYN076AAXX  22034 48352 31558 10803 10302 20216 39937 40133 70500 81101 333 58001;EQDQ01  00002PRCP99
0195483520999992000092206004+17860+102720FM-12+0175VTUM V0200401N001012200019N0080001N1+03261+02441101121ADDAA199000091AY101061AY201061GF102991021021008001001001MA1999999099181MD1999999+0031MW1051REMSYN076AAXX  22064 48352 31558 20402 10326 20244 39918 40112 70500 82200 333 58003;EQDQ01  00002PRCP99
0195483520999992000092209004+17860+102720FM-12+0175VTUM V0200501N001012200019N0090001N1+03271+02011100831ADDAA199000091AY101031AY201031GF101991011011008001001011MA1999999098901MD1999999+0001MW1051REMSYN076AAXX  22094 48352 31559 10502 10327 20201 39890 40083 70500 81101 333 58000;EQDQ01  00002PRCP99
0214483520999992000092212004+17860+102720FM-12+0175VTUM V0209999C000012200019N0080001N1+02891+02321100991ADDAA199000091AY101061AY201061GF102991021051008001001001KA1120M+03351MA1999999099031MD1999999+0011MW1101REMSYN082AAXX  22124 48352 31558 20000 10289 20232 39903 40099 71000 82500 333 10335 58001;EQDQ01  00002PRCP99
0195483520999992000092215004+17860+102720FM-12+0175VTUM V0209999C000012200019N0070001N1+02731+02401101251ADDAA199000091AY101031AY201031GF103991021051008001001051MA1999999099271MD1999999-0011MW1101REMSYN076AAXX  22154 48352 31557 30000 10273 20240 39927 40125 71000 82505 333 59001;EQDQ01  00002PRCP99
0195483520999992000092218004+17860+102720FM-12+0175VTUM V0209999C000012200019N0060001N1+02701+02411101201ADDAA199000091AY101061AY201061GF102991011011008001001051MA1999999099221MD1999999-0011MW1101REMSYN076AAXX  22184 48352 31556 20000 10270 20241 39922 40120 71000 81105 333 59001;EQDQ01  00002PRCP99
0195483520999992000092221004+17860+102720FM-12+0175VTUM V0209999C000012200019N0050001N1+02641+02441101151ADDAA199000091AY111031AY201031GF106991021051008001001061MA1999999099161MD1999999-0041MW1101REMSYN076AAXX  22214 48352 31550 60000 10264 20244 39916 40115 71010 82506 333 59004;EQDQ01  00002PRCP99
0214483520999992000092300004+17860+102720FM-12+0175VTUM V0209999C000012200019N0050001N1+02621+02431101271ADDAA199000091AY111061AY201061GF104991021001999999031051KA1120N+02551MA1999999099281MD1999999+0021MW1101REMSYN082AAXX  23004 48352 31950 40000 10262 20243 39928 40127 71010 82035 333 20255 58002;EQDQ01  00002PRCP99
0195483520999992000092303004+17860+102720FM-12+0175VTUM V0209999C000010120019N0070001N1+02961+02371101351ADDAA199000091AY121031AY211031GF107991051081008001031061MA1999999099391MD1999999+0021MW1101REMSYN076AAXX  23034 48352 31557 70000 10296 20237 39939 40135 71021 85836 333 58002;EQDQ01  00002PRCP99
0195483520999992000092306004+17860+102720FM-12+0175VTUM V0209999C000012200019N0090001N1+03071+02181101101ADDAA199000091AY121061AY211061GF104991041081008001001011MA1999999099151MD1999999-0021MW1051REMSYN076AAXX  23064 48352 31559 40000 10307 20218 39915 40110 70521 84801 333 59002;EQDQ01  00002PRCP99
0195483520999992000092309004+17860+102720FM-12+0175VTUM V0209999C000011050019N0080001N1+03121+02321100801ADDAA199000091AY121031AY211031GF106991041081008001001051MA1999999098861MD1999999-0031MW1051REMSYN076AAXX  23094 48352 31558 60000 10312 20232 39886 40080 70521 84805 333 59003;EQDQ01  00002PRCP99
0213483520999992000092312004+17860+102720FM-12+0175VTUM V0209999C000011050019N0070001N1+02911+02501100871ADDAA101000191AY161061AY211061GF106991041091008001001031KA1120M+03271MA1999999098911MD1999999-0121MW1951REMSYN100AAXX  23124 48352 /1557 60000 10291 20250 39891 40087 69912 79561 84903 333 10327 59012 69915 70001;
0182483520999992000092315004+17860+102720FM-12+0175VTUM V0209999C000010450019N0060001N1+02951+02361101261ADDAA103000191AY191031AY291031GF106991041051008001071061MA1999999099271MD1999999-0121MW1101REMSYN082AAXX  23154 48352 21556 60000 10295 20236 39927 40126 71099 84576 333 59012 69917;
0201483520999992000092400004+17860+102720FM-12+0175VTUM V0209999C000010450019N0050001N1+02481+02361101191ADDAA124000391AY111061AY201061GF107991041081008001031061KA1120N+02401MA1999999099101MD1999999-0081MW1101REMSYN088AAXX  24004 48352 31550 70000 10248 20236 39910 40119 71010 84836 333 20240 59008 70002;
0195483520999992000092403004+17860+102720FM-12+0175VTUM V0209999C000010450019N0080001N1+03021+02421101221ADDAA199000091AY121031AY221031GF105991041011008001031061MA1999999099261MD1999999-0131MW1101REMSYN076AAXX  24034 48352 31558 50000 10302 20242 39926 40122 71022 84136 333 59013;EQDQ01  00002PRCP99
0194483520999992000092406004+17860+102720FM-12+0175VTUM V0202701N001510075019N0120001N1+03101+02461100911ADDAA102001091AY161061AY221061GF106991051091008001041031MA1999999098971MD1999999-0191MW1031REMSYN094AAXX  24064 48352 /1562 62703 10310 20246 39897 40091 60011 70362 85943 333 59019 60016 70012;
0195483520999992000092409004+17860+102720FM-12+0175VTUM V0209999C000010075019N0140001N1+03071+02391100661ADDAA199000091AY191031AY221031GF107991051091008001071031MA1999999098721MD1999999-0141MW1031REMSYN076AAXX  24094 48352 31564 70000 10307 20239 39872 40066 70392 85973 333 59014;EQDQ01  00002PRCP99
0201483520999992000092412004+17860+102720FM-12+0175VTUM V0209999C000012200019N0120001N1+02621+02421100861ADDAA124001091AY191061AY211061GF104991041091008001001031KA1120M+03281MA1999999098881MD1999999-0011MW1171REMSYN088AAXX  24124 48352 31562 40000 10262 20242 39888 40086 71791 84903 333 10328 59001 70011;
0167483520999992000092421004+17860+102720FM-12+0175VTUM V0209999C000012200019N0100001N1+02361+02241100901ADDAA199000091GF105991041051008001001061MA1999999098911MD1999999-0111REMSYN070AAXX  24214 48352 32560 50000 10236 20224 39891 40090 84506 333 59011;EQDQ01  00002PRCP99
0173483520999992000092500004+17860+102720FM-12+0175VTUM V0200401N001510075019N0100001N1+02381+02291101131ADDAA124001091GF108991051051008001071999KA1120N+02321MA1999999099131MD1999999-0061REMSYN082AAXX  25004 48352 32560 80403 10238 20229 39913 40113 8557/ 333 20232 59006 70011;
0167483520999992000092503004+17860+102720FM-12+0175VTUM V0209999C000010075019N0120001N1+02641+02331101261ADDAA199000091GF108991051051008001071061MA1999999099271MD1999999+0041REMSYN070AAXX  25034 48352 32562 80000 10264 20233 39927 40126 85576 333 58004;EQDQ01  00002PRCP99
0154483520999992000092506004+17860+102720FM-12+0175VTUM V0200501N001010450019N0130001N1+03001+02401100971ADDAA124001091GF107991041081008001041061MA1999999099001MD1999999+0061REMSYN076AAXX  25064 48352 32563 70502 10300 20240 39900 40097 84846 333 58006 70011;
0167483520999992000092509004+17860+102720FM-12+0175VTUM V0200801N001010450019N0130001N1+02971+02391100691ADDAA199000091GF106991041091008001041031MA1999999098741MD1999999+0031REMSYN070AAXX  25094 48352 32563 60802 10297 20239 39874 40069 84943 333 58003;EQDQ01  00002PRCP99
0186483520999992000092512004+17860+102720FM-12+0175VTUM V0209999C000012200019N0120001N1+02721+02421100821ADDAA199000091GF104991031051008001001051KA1120M+03101MA1999999098851MD1999999-0041REMSYN076AAXX  25124 48352 32562 40000 10272 20242 39885 40082 83505 333 10310 59004;EQDQ01  00002PRCP99
0167483520999992000092515004+17860+102720FM-12+0175VTUM V0209999C000019999999N0110001N1+02621+02461101071ADDAA199000091GF105991001001999999001061MA1999999099081MD1999999-0071REMSYN070AAXX  25154 48352 32961 50000 10262 20246 39908 40107 80006 333 59007;EQDQ01  00002PRCP99
0167483520999992000092518004+17860+102720FM-12+0175VTUM V0209999C000012200019N0100001N1+02581+02461100911ADDAA199000091GF106991031051008001001061MA1999999098941MD1999999-0121REMSYN070AAXX  25184 48352 32560 60000 10258 20246 39894 40091 83506 333 59012;EQDQ01  00002PRCP99
0167483520999992000092521004+17860+102720FM-12+0175VTUM V0209999C000010450019N0100001N1+02561+02471100811ADDAA199000091GF107991041051008001071061MA1999999098841MD1999999-0091REMSYN070AAXX  25214 48352 32560 70000 10256 20247 39884 40081 84576 333 59009;EQDQ01  00002PRCP99
0213483520999992000092600004+17860+102720FM-12+0175VTUM V0209999C000010450019N0100001N1+02551+02461100941ADDAA103000191AY161061AY221061GF105991031051008001031051KA1120N+02511MA1999999098971MD1999999-0191MW1011REMSYN100AAXX  26004 48352 /1560 50000 10255 20246 39897 40094 69914 70162 83535 333 20251 59019 69917 70001;
0167483520999992000092603004+17860+102720FM-12+0175VTUM V0209999C000011050019N0120001N1+02921+02491101081ADDAA199000091GF106991041081008001001051MA1999999099111MD1999999-0181REMSYN070AAXX  26034 48352 32562 60000 10292 20249 39911 40108 84805 333 59018;EQDQ01  00002PRCP99
0154483520999992000092606004+17860+102720FM-12+0175VTUM V0202501N001512200019N0120001N1+03191+02481100821ADDAA124000191GF104991041021008001001011MA1999999098881MD1999999-0151REMSYN076AAXX  26064 48352 32562 42503 10319 20248 39888 40082 84201 333 59015 70001;
0167483520999992000092609004+17860+102720FM-12+0175VTUM V0209999C000010120019N0120001N1+03151+02511100621ADDAA199000091GF106991051081008001031061MA1999999098691MD1999999-0071REMSYN070AAXX  26094 48352 32562 60000 10315 20251 39869 40062 85836 333 59007;EQDQ01  00002PRCP99
0201483520999992000092612004+17860+102720FM-12+0175VTUM V0209999C000010450019N0110001N1+02731+02371100451ADDAA124000191AY121061AY211061GF106991041091008001041031KA1120M+03271MA1999999098791MD1999999-0071MW1131REMSYN088AAXX  26124 48352 31561 60000 10273 20237 39879 40045 71321 84943 333 10327 59007 70001;
0183483520999992000092615004+17860+102720FM-12+0175VTUM V0209999C000019999999N0100001N1+02631+02411100921ADDAA199000091GF105991001001999999001061MA1999999098941MD1999999-0151REMSYN070AAXX  26154 48352 32560 50000 10263 20241 39894 40092 80006 333 59015;EQDQ01+008002SCOLCBQ02  00002PRCP99
0182483520999992000092618004+17860+102720FM-12+0175VTUM V0209999C000010450019N0080001N1+02601+02441100871ADDAA124000191AY121061AY221061GF106991041091008001071061MA1999999098901MD1999999-0051MW1171REMSYN082AAXX  26184 48352 31558 60000 10260 20244 39890 40087 71722 84976 333 59005 70001;
0182483520999992000092621004+17860+102720FM-12+0175VTUM V0209999C000010075019N0050001N1+02501+02431100821ADDAA103002091AY191031AY261031GF108991061051008001071999MA1999999098831MD1999999+0011MW1611REMSYN082AAXX  26214 48352 21550 80000 10250 20243 39883 40082 76196 8657/ 333 58001 60027;
0213483520999992000092700004+17860+102720FM-12+0175VTUM V0209999C000010075019N0070001N1+02451+02381101001ADDAA103001091AY191061AY261061GF108991061051008001071999KA1120N+02411MA1999999099011MD1999999+0061MW1601REMSYN100AAXX  27004 48352 /1557 80000 10245 20238 39901 40100 60034 76096 8657/ 333 20241 58006 60017 70030;
0182483520999992000092703004+17860+102720FM-12+0175VTUM V0201201N002610075019N0130001N1+02781+02421101011ADDAA103000791AY161031AY221031GF108991051051008001071061MA1999999099041MD1999999-0071MW1021REMSYN082AAXX  27034 48352 21563 81205 10278 20242 39904 40101 70262 85576 333 59007 69907;
0188483520999992000092706004+17860+102720FM-12+0175VTUM V0200401N001012200019N0130001N1+03081+02421100761ADDAA106000791AY161061AY211061GF104991041021008001001011MA1999999098821MD1999999-0061MW1011REMSYN088AAXX  27064 48352 11563 40402 10308 20242 39882 40076 69901 70161 84201 333 59006 70030;
0176483520999992000092709004+17860+102720FM-12+0175VTUM V0201801N001511050019N0130001N1+02951+02521100521ADDAA199000021AY121031AY211031GF106991041091008001001031MA1999999098571MD1999999-0101MW1171REMSYN076AAXX  27094 48352 31563 61803 10295 20252 39857 40052 71721 84903 333 59010;
0201483520999992000092712004+17860+102720FM-12+0175VTUM V0209999C000011050019N0120001N1+02571+02471100781ADDAA124003091AY191061AY211061GF106991041091008001001031KA1120M+03241MA1999999098811MD1999999+0031MW1131REMSYN088AAXX  27124 48352 31562 60000 10257 20247 39881 40078 71391 84903 333 10324 58003 70030;
0167483520999992000092715004+17860+102720FM-12+0175VTUM V0209999C000010450019N0110001N1+02551+02401100891ADDAA199000091GF105991031051008001031051MA1999999098911MD1999999-0031REMSYN070AAXX  27154 48352 32561 50000 10255 20240 39891 40089 83535 333 59003;EQDQ01  00002PRCP99
0154483520999992000092718004+17860+102720FM-12+0175VTUM V0209999C000010075019N0100001N1+02561+02441100911ADDAA124003091GF108991051051008001071061MA1999999098931MD1999999+0041REMSYN076AAXX  27184 48352 32560 80000 10256 20244 39893 40091 85576 333 58004 70030;
0213483520999992000092800004+17860+102720FM-12+0175VTUM V0209999C000010075019N0100001N1+02431+02391100941ADDAA103002091AY191061AY261061GF108991051051008001071061KA1120N+02251MA1999999098951MD1999999-0061MW1211REMSYN100AAXX  28004 48352 /1560 80000 10243 20239 39895 40094 60304 72196 85576 333 20225 59006 60027 70297;
0148483520999992000092803004+17860+102720FM-12+0175VTUM V0200901N002610450019N0120001N1+02741+02331101071ADDAA199000021GF106991041081008001031051MA1999999099091MD1999999+0061REMSYN070AAXX  28034 48352 32562 60905 10274 20233 39909 40107 84835 333 58006;
0173483520999992000092806004+17860+102720FM-12+0175VTUM V0200401N001512200019N0120001N1+03071+02391100861ADDAA124029791GF103991021021008001001051MA1999999098022MD1999999+0101REMSYN076AAXX  28064 48352 32562 30403 10307 20239 39802 40086 82205 333 58010 70297;EQDQ01+098023APOSP 
0148483520999992000092809004+17860+102720FM-12+0175VTUM V0200501N001012200019N0150001N1+03101+02381100561ADDAA199000021GF102991021091008001001031MA1999999098611MD1999999+0041REMSYN070AAXX  28094 48352 32565 20502 10310 20238 39861 40056 82903 333 58004;
0201483520999992000092812004+17860+102720FM-12+0175VTUM V0209999C000012200019N0130001N1+02811+02471100781ADDAA124029791AY101061AY201061GF102991021091008001001031KA1120M+03161MA1999999098821MD1999999+0001MW1131REMSYN088AAXX  28124 48352 31563 20000 10281 20247 39882 40078 71300 82903 333 10316 58000 70297;
0167483520999992000092815004+17860+102720FM-12+0175VTUM V0209999C000012200019N0120001N1+02691+02471101031ADDAA199000091GF103991031051008001001051MA1999999099051MD1999999+0141REMSYN070AAXX  28154 48352 32562 30000 10269 20247 39905 40103 83505 333 58014;EQDQ01  00002PRCP99
0154483520999992000092818004+17860+102720FM-12+0175VTUM V0209999C000012200019N0100001N1+02561+02401100911ADDAA124029791GF102991001001999999001051MA1999999098941MD1999999+0001REMSYN076AAXX  28184 48352 32960 20000 10256 20240 39894 40091 80005 333 58000 70297;
0167483520999992000092821004+17860+102720FM-12+0175VTUM V0209999C000010075019N0100001N1+02541+02411100941ADDAA199000091GF108991051051008001071061MA1999999098961MD1999999+0031REMSYN070AAXX  28214 48352 32560 80000 10254 20241 39896 40094 85576 333 58003;EQDQ01  00002PRCP99
0186483520999992000092900004+17860+102720FM-12+0175VTUM V0201001N002110450019N0100001N1+02481+02391101071ADDAA199000091GF107991041051008001071061KA1120N+02451MA1999999099071MD1999999+0131REMSYN076AAXX  29004 48352 32560 71004 10248 20239 39907 40107 84576 333 20245 58013;EQDQ01  00002PRCP99
0167483520999992000092903004+17860+102720FM-12+0175VTUM V0200901N002110450019N0130001N1+02831+02431101241ADDAA199000091GF106991041081008001031051MA1999999099271MD1999999+0171REMSYN070AAXX  29034 48352 32563 60904 10283 20243 39927 40124 84835 333 58017;EQDQ01  00002PRCP99
0167483520999992000092906004+17860+102720FM-12+0175VTUM V0200801N001512200019N0140001N1+03121+02291100971ADDAA199000091GF104991041091008001001031MA1999999099011MD1999999-0111REMSYN070AAXX  29064 48352 32564 40803 10312 20229 39901 40097 84903 333 59011;EQDQ01  00002PRCP99
0182483520999992000092909004+17860+102720FM-12+0175VTUM V0209999C000010075019N0140001N1+03001+02401100781ADDAA101000191AY121031AY211031GF106991051091008001041031MA1999999098831MD1999999+0221MW1211REMSYN082AAXX  29094 48352 21564 60000 10300 20240 39883 40078 72121 85943 333 58022 69915;
0207483520999992000092912004+17860+102720FM-12+0175VTUM V0209999C000010450019N0130001N1+02681+02391100991ADDAA112000191AY161061AY221061GF106991041051008001031061KA1120M+03201MA1999999099011MD1999999+0211MW1011REMSYN094AAXX  29124 48352 11563 60000 10268 20239 39901 40099 69912 70162 84536 333 10320 58021 70001;
0148483520999992000092915004+17860+102720FM-12+0175VTUM V0200401N001012200019N0120001N1+02521+02341101231ADDAA199000021GF103991021051008001001051MA1999999099231MD1999999+0201REMSYN070AAXX  29154 48352 32562 30402 10252 20234 39923 40123 82505 333 58020;
0148483520999992000092918004+17860+102720FM-12+0175VTUM V0209999C000012200019N0110001N1+02451+02321101131ADDAA199000021GF102991001001999999001051MA1999999099141MD1999999+0211REMSYN070AAXX  29184 48352 32961 20000 10245 20232 39914 40113 80005 333 58021;
0173483520999992000093000004+17860+102720FM-12+0175VTUM V0209999C000010450019N0100001N1+02481+02361101251ADDAA124000191GF107991041051008001031061KA1120N+02431MA1999999099261MD1999999+0181REMSYN082AAXX  30004 48352 32560 70000 10248 20236 39926 40125 84536 333 20243 58018 70001;
0137483520999992000093003004+17860+102720FM-12+0175VTUM V0200401N001519999999N0130001N1+99999+99999999999ADDAA199000091GF105991999999008001999999REMSYN069AAXX  30034 48352 32563 50403 1026 20240 39937 40134 84835 333 58012;EQDQ01  00002PRCP99
0154483520999992000093006004+17860+102720FM-12+0175VTUM V0209999C000012200019N0130001N1+03001+02351101091ADDAA124000191GF103991031021008001001001MA1999999099131MD1999999+0121REMSYN076AAXX  30064 48352 32563 30000 10300 20235 39913 40109 83200 333 58012 70001;
0182483520999992000093009004+17860+102720FM-12+0175VTUM V0209999C000010450019N0070001N1+02621+02401100951ADDAA101002091AY191031AY211031GF106991041081008001041031MA1999999098971MD1999999+0171MW1911REMSYN082AAXX  30094 48352 21557 60000 10262 20240 39897 40095 79191 84843 333 58017 60025;
0213483520999992000093012004+17860+102720FM-12+0175VTUM V0209999C000010075019N0120001N1+02551+02361101141ADDAA103000191AY191061AY261061GF107991051091008001071031KA1120M+03181MA1999999099151MD1999999+0151MW1131REMSYN100AAXX  30124 48352 /1562 70000 10255 20236 39915 40114 60022 71396 85973 333 10318 58015 69917 70017;
0148483520999992000093015004+17860+102720FM-12+0175VTUM V0209999C000010075019N0110001N1+02501+02371101421ADDAA199000021GF108991051051008001071061MA1999999099431MD1999999+0191REMSYN070AAXX  30154 48352 32561 80000 10250 20237 39943 40142 85576 333 58019;
0194483520999992000093018004+17860+102720FM-12+0175VTUM V0209999C000010450019N0100001N1+02471+02401101361ADDAA103000191AY161061AY221061GF106991041051008001071061MA1999999099371MD1999999+0231MW1011REMSYN094AAXX  30184 48352 /1560 60000 10247 20240 39937 40136 60023 70162 84576 333 58023 69927 70019;
0148483520999992000093021004+17860+102720FM-12+0175VTUM V0209999C000010450019N0100001N1+02421+02361101271ADDAA199000021GF106991041051008001031061MA1999999099271MD1999999+0171REMSYN070AAXX  30214 48352 32560 60000 10242 20236 39927 40127 84536 333 58017;
0173483520999992000100100004+17860+102720FM-12+0175VTUM V0209999C000010450019N0120001N1+02501+02431101461ADDAA124001891GF106991031051008001031061KA1120N+02421MA1999999099461MD1999999+0211REMSYN082AAXX  01004 48352 32562 60000 10250 20243 39946 40146 83536 333 20242 58021 70019;
0167483520999992000100103004+17860+102720FM-12+0175VTUM V0209999C000012200019N0140001N1+02871+02441101531ADDAA199000091GF106991041081008001001061MA1999999099551MD1999999+0191REMSYN070AAXX  01034 48352 32564 60000 10287 20244 39955 40153 84806 333 58019;EQDQ01  00002PRCP99
0154483520999992000100106004+17860+102720FM-12+0175VTUM V0202201N001012200019N0150001N1+03061+02321101191ADDAA124001891GF103991021021008001001051MA1999999099241MD1999999+0101REMSYN076AAXX  01064 48352 32565 32202 10306 20232 39924 40119 82205 333 58010 70019;
0167483520999992000100109004+17860+102720FM-12+0175VTUM V0209999C000012200019N0160001N1+03171+02321100891ADDAA199000091GF102991021021008001001001MA1999999098951MD1999999-0041REMSYN070AAXX  01094 48352 32566 20000 10317 20232 39895 40089 82200 333 59004;EQDQ01  00002PRCP99
0173483520999992000100112004+17860+102720FM-12+0175VTUM V0209999C000012200019N0150001N1+02861+02491101011ADDAA124000391GF102991021021008001001011KA1120M+03211MA1999999099041MD1999999-0131REMSYN082AAXX  01124 48352 32565 20000 10286 20249 39904 40101 82201 333 10321 59013 70002;
0177483520999992000100115004+17860+102720FM-12+0175VTUM V0209999C000012200019N0140001N1+02671+02451101281ADDAA199000091GA1001+999999999GF100991001001999999001001MA1999999099311MD1999999-0141REMSYN064AAXX  01154 48352 32564 00000 10267 20245 39931 40128 333 59014;EQDQ01  00002PRCP99
0167483520999992000100118004+17860+102720FM-12+0175VTUM V0209999C000012200019N0130001N1+02591+02461101221ADDAA199000091GF106991031051008001001061MA1999999099231MD1999999-0141REMSYN070AAXX  01184 48352 32563 60000 10259 20246 39923 40122 83506 333 59014;EQDQ01  00002PRCP99
0186483520999992000100200004+17860+102720FM-12+0175VTUM V0209999C000012200019N0130001N1+02551+02431101291ADDAA199000091GF102991021051008001031001KA1120N+02471MA1999999099301MD1999999-0171REMSYN076AAXX  02004 48352 32563 20000 10255 20243 39930 40129 82530 333 20247 59017;EQDQ01  00002PRCP99
0167483520999992000100203004+17860+102720FM-12+0175VTUM V0200501N001012200019N0150001N1+02981+02441101311ADDAA199000091GF102991021021008001001001MA1999999099351MD1999999-0221REMSYN070AAXX  02034 48352 32565 20502 10298 20244 39935 40131 82200 333 59022;EQDQ01  00002PRCP99
0167483520999992000100206004+17860+102720FM-12+0175VTUM V0200501N001012200019N0150001N1+03271+02431101051ADDAA199000091GF102991021021008001001001MA1999999099101MD1999999-0141REMSYN070AAXX  02064 48352 32565 20502 10327 20243 39910 40105 82200 333 59014;EQDQ01  00002PRCP99
0167483520999992000100209004+17860+102720FM-12+0175VTUM V0209999C000012200019N0150001N1+03381+02351100751ADDAA199000091GF102991021021008001001011MA1999999098821MD1999999-0141REMSYN070AAXX  02094 48352 32565 20000 10338 20235 39882 40075 82201 333 59014;EQDQ01  00002PRCP99
0214483520999992000100212004+17860+102720FM-12+0175VTUM V0209999C000012200019N0130001N1+02911+02511100901ADDAA199000091AY101061AY201061GF103991021091008001001031KA1120M+03421MA1999999098941MD1999999-0111MW1131REMSYN082AAXX  02124 48352 31563 30000 10291 20251 39894 40090 71300 82903 333 10342 59011;EQDQ01  00002PRCP99
0167483520999992000100215004+17860+102720FM-12+0175VTUM V0209999C000012200019N0120001N1+02781+02551101171ADDAA199000091GF102991001001999999001051MA1999999099201MD1999999-0111REMSYN070AAXX  02154 48352 32962 20000 10278 20255 39920 40117 80005 333 59011;EQDQ01  00002PRCP99
0177483520999992000100218004+17860+102720FM-12+0175VTUM V0209999C000012200019N0110001N1+02651+02511101151ADDAA199000091GA1001+999999999GF100991001001999999001001MA1999999099121MD1999999-0071REMSYN064AAXX  02184 48352 32961 00000 10265 20251 39912 40115 333 59007;EQDQ01  00002PRCP99
0186483520999992000100300004+17860+102720FM-12+0175VTUM V0209999C000012200019N0120001N1+02671+02471101121ADDAA199000091GF102991001001999999001011KA1120N+02511MA1999999099141MD1999999-0171REMSYN076AAXX  03004 48352 32962 20000 10267 20247 39914 40112 80001 333 20251 59017;EQDQ01  00002PRCP99
0167483520999992000100303004+17860+102720FM-12+0175VTUM V0209999C000010075019N0150001N1+03151+02471101191ADDAA199000091GF106991051021008001001051MA1999999099241MD1999999-0121REMSYN070AAXX  03034 48352 32565 60000 10315 20247 39924 40119 85205 333 59012;EQDQ01  00002PRCP99
0167483520999992000100306004+17860+102720FM-12+0175VTUM V0209999C000010450019N0150001N1+03171+02581100891ADDAA199000091GF107991011081008001031061MA1999999098961MD1999999-0161REMSYN070AAXX  03064 48352 32565 70000 10317 20258 39896 40089 81836 333 59016;EQDQ01  00002PRCP99
0167483520999992000100309004+17860+102720FM-12+0175VTUM V0200101N001010075019N0140001N1+03191+02501100691ADDAA199000091GF108991051091008001071061MA1999999098761MD1999999-0061REMSYN070AAXX  03094 48352 32564 80102 10319 20250 39876 40069 85976 333 59006;EQDQ01  00002PRCP99
0186483520999992000100312004+17860+102720FM-12+0175VTUM V0209999C000010450019N0130001N1+02921+02541100791ADDAA199000091GF107991041051008001071061KA1120M+03341MA1999999098831MD1999999-0011REMSYN076AAXX  03124 48352 32563 70000 10292 20254 39883 40079 84576 333 10334 59001;EQDQ01  00002PRCP99
0167483520999992000100315004+17860+102720FM-12+0175VTUM V0209999C000010075019N0120001N1+02781+02571101021ADDAA199000091GF108991051051008001071061MA1999999099051MD1999999-0151REMSYN070AAXX  03154 48352 32562 80000 10278 20257 39905 40102 85576 333 59015;EQDQ01  00002PRCP99
0167483520999992000100318004+17860+102720FM-12+0175VTUM V0209999C000010075019N0110001N1+02731+02591100991ADDAA199000091GF108991051051008001071061MA1999999099011MD1999999-0161REMSYN070AAXX  03184 48352 32561 80000 10273 20259 39901 40099 85576 333 59016;EQDQ01  00002PRCP99
0167483520999992000100321004+17860+102720FM-12+0175VTUM V0209999C000012200019N0100001N1+02661+02551100881ADDAA199000091GF106991041051008001001061MA1999999098911MD1999999-0091REMSYN070AAXX  03214 48352 32560 60000 10266 20255 39891 40088 84506 333 59009;EQDQ01  00002PRCP99
0186483520999992000100400004+17860+102720FM-12+0175VTUM V0209999C000010075019N0100001N1+02671+02601101051ADDAA199000091GF108991051051008001031061KA1120N+02621MA1999999099071MD1999999-0071REMSYN076AAXX  04004 48352 32560 80000 10267 20260 39907 40105 85536 333 20262 59007;EQDQ01  00002PRCP99
0167483520999992000100403004+17860+102720FM-12+0175VTUM V0209999C000010120019N0140001N1+02971+02621101031ADDAA199000091GF107991051081008001001061MA1999999099071MD1999999-0161REMSYN070AAXX  04034 48352 32564 70000 10297 20262 39907 40103 85806 333 59016;EQDQ01  00002PRCP99
0194483520999992000100406004+17860+102720FM-12+0175VTUM V0202301N001510120019N0130001N1+02761+02231100811ADDAA101000191AY191061AY221061GF108991051081008001071061MA1999999098851MD1999999-0081MW1211REMSYN094AAXX  04064 48352 /1563 82303 10276 20223 39885 40081 69921 72192 85876 333 59008 69925 70002;
0148483520999992000100409004+17860+102720FM-12+0175VTUM V0209999C000010450019N0120001N1+02701+02211100691ADDAA199000021GF107991041091008001071031MA1999999098721MD1999999+0001REMSYN070AAXX  04094 48352 32562 70000 10270 20221 39872 40069 84973 333 58000;
0201483520999992000100412004+17860+102720FM-12+0175VTUM V0209999C000010450019N0120001N1+02671+02421100891ADDAA124000391AY121061AY221061GF107991041091008001071031KA1120M+03101MA1999999098931MD1999999+0161MW1131REMSYN088AAXX  04124 48352 31562 70000 10267 20242 39893 40089 71322 84973 333 10310 58016 70002;
0148483520999992000100415004+17860+102720FM-12+0175VTUM V0209999C000010075019N0110001N1+02581+02391101131ADDAA199000021GF108991051051008001071061MA1999999099151MD1999999+0111REMSYN070AAXX  04154 48352 32561 80000 10258 20239 39915 40113 85576 333 58011;
0154483520999992000100418004+17860+102720FM-12+0175VTUM V0209999C000010450019N0100001N1+02461+02301101031ADDAA124000391GF107991031051008001071061MA1999999099041MD1999999+0041REMSYN076AAXX  04184 48352 32560 70000 10246 20230 39904 40103 83576 333 58004 70002;
0167483520999992000100421004+17860+102720FM-12+0175VTUM V0209999C000010450019N0100001N1+02421+02241100951ADDAA199000091GF107991041051008001031061MA1999999098961MD1999999+0071REMSYN070AAXX  04214 48352 32560 70000 10242 20224 39896 40095 84536 333 58007;EQDQ01  00002PRCP99
0201483520999992000100500004+17860+102720FM-12+0175VTUM V0209999C000010075019N0080001N1+02431+02391101171ADDAA124000391AY121061AY221061GF107991051051008001031061KA1120N+02371MA1999999099171MD1999999+0121MW1101REMSYN088AAXX  05004 48352 31558 70000 10243 20239 39917 40117 71022 85536 333 20237 58012 70002;
0167483520999992000100503004+17860+102720FM-12+0175VTUM V0202201N001010450019N0150001N1+02931+02381101231ADDAA199000091GF106991031021008001031051MA1999999099261MD1999999+0201REMSYN070AAXX  05034 48352 32565 62202 10293 20238 39926 40123 83235 333 58020;EQDQ01  00002PRCP99
0167483520999992000100506004+17860+102720FM-12+0175VTUM V0200401N001012200019N0150001N1+03021+02341100901ADDAA199000091GF103991021021008001001011MA1999999098951MD1999999+0091REMSYN070AAXX  05064 48352 32565 30402 10302 20234 39895 40090 82201 333 58009;EQDQ01  00002PRCP99
0167483520999992000100509004+17860+102720FM-12+0175VTUM V0209999C000012200019N0140001N1+03151+02311100631ADDAA199000091GF103991031091008001001031MA1999999098691MD1999999-0061REMSYN070AAXX  05094 48352 32564 30000 10315 20231 39869 40063 83903 333 59006;EQDQ01  00002PRCP99
0186483520999992000100512004+17860+102720FM-12+0175VTUM V0209999C000012200019N0130001N1+02851+02461100851ADDAA199000091GF103991021051008001001051KA1120M+03231MA1999999098891MD1999999-0041REMSYN076AAXX  05124 48352 32563 30000 10285 20246 39889 40085 82505 333 10323 59004;EQDQ01  00002PRCP99
0183483520999992000100515004+17860+102720FM-12+0175VTUM V0209999C000019999999N0120001N1+02671+02501101151ADDAA199000091GF105991001001999999001061MA1999999099171MD1999999+0021REMSYN070AAXX  05154 48352 32562 50000 10267 20250 39917 40115 80006 333 58002;EQDQ01+008002SCOLCBQ02  00002PRCP99
0167483520999992000100518004+17860+102720FM-12+0175VTUM V0209999C000012200019N0110001N1+02601+02461101131ADDAA199000091GF102991001001999999001051MA1999999099141MD1999999+0101REMSYN070AAXX  05184 48352 32961 20000 10260 20246 39914 40113 80005 333 58010;EQDQ01  00002PRCP99
0186483520999992000100600004+17860+102720FM-12+0175VTUM V0209999C000012200019N0100001N1+02351+02201101221ADDAA199000091GF103991031081008001001051KA1120N+02301MA1999999099221MD1999999+0051REMSYN076AAXX  06004 48352 32560 30000 10235 20220 39922 40122 83805 333 20230 58005;EQDQ01  00002PRCP99
0167483520999992000100603004+17860+102720FM-12+0175VTUM V0201501N001012200019N0130001N1+03101+02331101321ADDAA199000091GF104991031021008001001011MA1999999099371MD1999999+0091REMSYN070AAXX  06034 48352 32563 41502 10310 20233 39937 40132 83201 333 58009;EQDQ01  00002PRCP99
0194483520999992000100606004+17860+102720FM-12+0175VTUM V0209999C000010120019N0130001N1+02851+02421101091ADDAA102007991AY161061AY211061GF107991051081008001071061MA1999999099621MD1999999+0131MW1211REMSYN094AAXX  06064 48352 /1563 70000 10285 20242 39962 40109 60081 72161 85876 333 58013 60086 70082;
0167483520999992000100609004+17860+102720FM-12+0175VTUM V0209999C000010450019N0130001N1+02851+02261100841ADDAA199000021GF106991041081008001031051MA1999999098882MD1999999+0211REMSYN070AAXX  06094 48352 32563 60000 10285 20226 39888 40084 84835 333 58021;EQDQ01+098883APOSP 
0173483520999992000100612004+17860+102720FM-12+0175VTUM V0209999C000011050019N0120001N1+02641+02411101011ADDAA124008191GF108991021051008001001051KA1120M+03191MA1999999099021MD1999999+0161REMSYN082AAXX  06124 48352 32562 80000 10264 20241 39902 40101 82505 333 10319 58016 70082;
0148483520999992000100615004+17860+102720FM-12+0175VTUM V0209999C000010450019N0120001N1+02501+02351101141ADDAA199000021GF106991041051008001031061MA1999999099151MD1999999-0011REMSYN070AAXX  06154 48352 32562 60000 10250 20235 39915 40114 84536 333 59001;
0173483520999992000100618004+17860+102720FM-12+0175VTUM V0209999C000012200019N0110001N1+02401+02301101101ADDAA124008191GF103991001001999999001051MA1999999099101MD1999999-0031REMSYN076AAXX  06184 48352 32561 30000 10240 20230 39910 40110 80005 333 59003 70082;EQDQ01+008002SCOLCB
0167483520999992000100621004+17860+102720FM-12+0175VTUM V0209999C000012200019N0100001N1+02351+02281101031ADDAA199000091GF102991021051008001001051MA1999999099021MD1999999-0021REMSYN070AAXX  06214 48352 32560 20000 10235 20228 39902 40103 82505 333 59002;EQDQ01  00002PRCP99
0173483520999992000100700004+17860+102720FM-12+0175VTUM V0209999C000010450019N0100001N1+02421+02321101171ADDAA124008191GF105991041081008001031051KA1120N+02341MA1999999099171MD1999999-0051REMSYN082AAXX  07004 48352 32560 50000 10242 20232 39917 40117 84835 333 20234 59005 70082;
0167483520999992000100703004+17860+102720FM-12+0175VTUM V0200601N001512200019N0150001N1+03001+02271101211ADDAA199000091GF102991021051008001031001MA1999999099251MD1999999-0111REMSYN070AAXX  07034 48352 32565 20603 10300 20227 39925 40121 82530 333 59011;EQDQ01  00002PRCP99
0167483520999992000100706004+17860+102720FM-12+0175VTUM V0202101N001512200019N0150001N1+03241+02431100891ADDAA199000091GF103991021021008001001051MA1999999098961MD1999999-0201REMSYN070AAXX  07064 48352 32565 32103 10324 20243 39896 40089 82205 333 59020;EQDQ01  00002PRCP99
0167483520999992000100709004+17860+102720FM-12+0175VTUM V0209999C000012200019N0150001N1+03171+02131100681ADDAA199000091GF102991021091008001001031MA1999999098741MD1999999-0161REMSYN070AAXX  07094 48352 32565 20000 10317 20213 39874 40068 82903 333 59016;EQDQ01  00002PRCP99
0214483520999992000100712004+17860+102720FM-12+0175VTUM V0209999C000011050019N0130001N1+02901+02411100871ADDAA199000091AY101061AY201061GF105991021091008001031031KA1120M+03381MA1999999098921MD1999999-0141MW1131REMSYN082AAXX  07124 48352 31563 50000 10290 20241 39892 40087 71300 82933 333 10338 59014;EQDQ01  00002PRCP99
0167483520999992000100715004+17860+102720FM-12+0175VTUM V0209999C000012200019N0120001N1+02741+02501101061ADDAA199000091GF103991021051008001001051MA1999999099081MD1999999-0081REMSYN070AAXX  07154 48352 32562 30000 10274 20250 39908 40106 82505 333 59008;EQDQ01  00002PRCP99
0167483520999992000100718004+17860+102720FM-12+0175VTUM V0209999C000012200019N0110001N1+02621+02451100961ADDAA199000091GF102991011051008001001051MA1999999098981MD1999999-0141REMSYN070AAXX  07184 48352 32561 20000 10262 20245 39898 40096 81505 333 59014;EQDQ01  00002PRCP99
0177483520999992000100721004+17860+102720FM-12+0175VTUM V0209999C000012200019N0100001N1+02521+02371100921ADDAA199000091GA1001+999999999GF100991001001999999001001MA1999999098531MD1999999-0111REMSYN064AAXX  07214 48352 32960 00000 10252 20237 39853 40092 333 59011;EQDQ01  00002PRCP99
0196483520999992000100800004+17860+102720FM-12+0175VTUM V0209999C000012200019N0100001N1+02471+02321100961ADDAA199000091GA1001+999999999GF100991001001999999001001KA1120N+02441MA1999999098981MD1999999-0211REMSYN070AAXX  08004 48352 32960 00000 10247 20232 39898 40096 333 20244 59021;EQDQ01  00002PRCP99
0167483520999992000100803004+17860+102720FM-12+0175VTUM V0201001N001012200019N0150001N1+02971+02361100971ADDAA199000091GF102991021011008001001011MA1999999099011MD1999999-0241REMSYN070AAXX  08034 48352 32565 21002 10297 20236 39901 40097 82101 333 59024;EQDQ01  00002PRCP99
0167483520999992000100806004+17860+102720FM-12+0175VTUM V0209999C000010075019N0150001N1+03151+02331100671ADDAA199000091GF105991051021008001001011MA1999999098731MD1999999-0221REMSYN070AAXX  08064 48352 32565 50000 10315 20233 39873 40067 85201 333 59022;EQDQ01  00002PRCP99
0182483520999992000100809004+17860+102720FM-12+0175VTUM V0209999C000010450019N0150001N1+02831+02401100521ADDAA102000591AY191031AY221031GF106991041081008001071061MA1999999098561MD1999999-0161MW1291REMSYN082AAXX  08094 48352 21565 60000 10283 20240 39856 40052 72992 84876 333 59016 69966;
0207483520999992000100812004+17860+102720FM-12+0175VTUM V0209999C000010450019N0140001N1+02601+02201100751ADDAA112000591AY191061AY221061GF106991041091008001061031KA1120M+03371MA1999999098781MD1999999-0121MW1131REMSYN094AAXX  08124 48352 11564 60000 10260 20220 39878 40075 69962 71392 84963 333 10337 59012 70006;
0167483520999992000100815004+17860+102720FM-12+0175VTUM V0209999C000012200019N0130001N1+02481+02231100881ADDAA199000091GF105991021051008001001061MA1999999098901MD1999999-0181REMSYN070AAXX  08154 48352 32563 50000 10248 20223 39890 40088 82506 333 59018;EQDQ01  00002PRCP99
0183483520999992000100900004+17860+102720FM-12+0175VTUM V0209999C000012200019N0100001N1+02361+02241100901ADDAA124000591GA1001+999999999GF100991001001999999001001KA1120N+02281MA1999999098911MD1999999-0061REMSYN076AAXX  09004 48352 32960 00000 10236 20224 39891 40090 333 20228 59006 70006;
0177483520999992000100903004+17860+102720FM-12+0175VTUM V0209999C000012200019N0150001N1+02951+02391100961ADDAA199000091GA1001+999999999GF100991001001999999001001MA1999999099001MD1999999-0011REMSYN064AAXX  09034 48352 32965 00000 10295 20239 39900 40096 333 59001;EQDQ01  00002PRCP99
0154483520999992000100906004+17860+102720FM-12+0175VTUM V0209999C000012200019N0150001N1+03151+02231100661ADDAA124000591GF104991041021008001001011MA1999999098721MD1999999-0011REMSYN076AAXX  09064 48352 32565 40000 10315 20223 39872 40066 84201 333 59001 70006;
0167483520999992000100909004+17860+102720FM-12+0175VTUM V0209999C000012200019N0140001N1+03251+02091100361ADDAA199000091GF102991021011008001001001MA1999999098431MD1999999-0161REMSYN070AAXX  09094 48352 32564 20000 10325 20209 39843 40036 82100 333 59016;EQDQ01  00002PRCP99
0196483520999992000100912004+17860+102720FM-12+0175VTUM V0209999C000012200019N0130001N1+02821+02321100571ADDAA199000091GA1001+999999999GF100991001001999999001001KA1120M+03331MA1999999098611MD1999999-0181REMSYN070AAXX  09124 48352 32963 00000 10282 20232 39861 40057 333 10333 59018;EQDQ01  00002PRCP99
0167483520999992000100918004+17860+102720FM-12+0175VTUM V0209999C000012200019N0110001N1+02561+02401100701ADDAA199000091GF103991021051008001001051MA1999999098731MD1999999-0071REMSYN070AAXX  09184 48352 32561 30000 10256 20240 39873 40070 82505 333 59007;EQDQ01  00002PRCP99
0186483520999992000101000004+17860+102720FM-12+0175VTUM V0209999C000012200019N0100001N1+02381+02261100771ADDAA199000091GF102991001001999999001011KA1120N+02331MA1999999098781MD1999999-0131REMSYN076AAXX  10004 48352 32960 20000 10238 20226 39878 40077 80001 333 20233 59013;EQDQ01  00002PRCP99
0167483520999992000101003004+17860+102720FM-12+0175VTUM V0201001N001012200019N0120001N1+02951+02211100891ADDAA199000091GF103991001001999999001051MA1999999098941MD1999999-0071REMSYN070AAXX  10034 48352 32962 31002 10295 20221 39894 40089 80005 333 59007;EQDQ01  00002PRCP99
0167483520999992000101006004+17860+102720FM-12+0175VTUM V0209999C000012200019N0150001N1+03231+02101100641ADDAA199000091GF104991031081008001001051MA1999999098711MD1999999-0021REMSYN070AAXX  10064 48352 32565 40000 10323 20210 39871 40064 83805 333 59002;EQDQ01  00002PRCP99
0167483520999992000101009004+17860+102720FM-12+0175VTUM V0209999C000012200019N0150001N1+03221+02171100471ADDAA199000091GF103991021091008001001031MA1999999098531MD1999999+0111REMSYN070AAXX  10094 48352 32565 30000 10322 20217 39853 40047 82903 333 58011;EQDQ01  00002PRCP99
0186483520999992000101012004+17860+102720FM-12+0175VTUM V0209999C000012200019N0140001N1+02881+02391100531ADDAA199000091GF104991021051008001001051KA1120M+03361MA1999999098571MD1999999-0041REMSYN076AAXX  10124 48352 32564 40000 10288 20239 39857 40053 82505 333 10336 59004;EQDQ01  00002PRCP99
0167483520999992000101015004+17860+102720FM-12+0175VTUM V0209999C000012200019N0120001N1+02561+02331100711ADDAA199000091GF102991011051008001001051MA1999999098741MD1999999+0011REMSYN070AAXX  10154 48352 32562 20000 10256 20233 39874 40071 81505 333 58001;EQDQ01  00002PRCP99
0177483520999992000101021004+17860+102720FM-12+0175VTUM V0209999C000012200019N0100001N1+02451+02301100661ADDAA199000091GA1001+999999999GF100991001001999999001001MA1999999098671MD1999999+0061REMSYN064AAXX  10214 48352 32960 00000 10245 20230 39867 40066 333 58006;EQDQ01  00002PRCP99
0186483520999992000101100004+17860+102720FM-12+0175VTUM V0209999C000012200019N0100001N1+02481+02391100751ADDAA199000091GF103991001001999999001051KA1120N+02391MA1999999098771MD1999999-0021REMSYN076AAXX  11004 48352 32960 30000 10248 20239 39877 40075 80005 333 20239 59002;EQDQ01  00002PRCP99
0167483520999992000101103004+17860+102720FM-12+0175VTUM V0209999C000012200019N0150001N1+03031+02411100811ADDAA199000091GF103991001001999999001051MA1999999098861MD1999999-0081REMSYN070AAXX  11034 48352 32965 30000 10303 20241 39886 40081 80005 333 59008;EQDQ01  00002PRCP99
0167483520999992000101106004+17860+102720FM-12+0175VTUM V0200401N002612200019N0150001N1+03331+02131100561ADDAA199000091GF104991031021008001001051MA1999999098631MD1999999-0081REMSYN070AAXX  11064 48352 32565 40405 10333 20213 39863 40056 83205 333 59008;EQDQ01  00002PRCP99
0167483520999992000101109004+17860+102720FM-12+0175VTUM V0209999C000012200019N0150001N1+03301+02081100441ADDAA199000091GF106991021021008001001061MA1999999098511MD1999999-0031REMSYN070AAXX  11094 48352 32565 60000 10330 20208 39851 40044 82206 333 59003;EQDQ01  00002PRCP99
0186483520999992000101112004+17860+102720FM-12+0175VTUM V0209999C000011050019N0140001N1+02921+02321100611ADDAA199000091GF108991031051008001001061KA1120M+03391MA1999999098651MD1999999+0081REMSYN076AAXX  11124 48352 32564 80000 10292 20232 39865 40061 83506 333 10339 58008;EQDQ01  00002PRCP99
0167483520999992000101118004+17860+102720FM-12+0175VTUM V0209999C000019999999N0120001N1+02601+02381100771ADDAA199000091GF106991001001999999001061MA1999999098801MD1999999+0061REMSYN070AAXX  11184 48352 32962 60000 10260 20238 39880 40077 80006 333 58006;EQDQ01  00002PRCP99
0167483520999992000101121004+17860+102720FM-12+0175VTUM V0209999C000019999999N0110001N1+02581+02361100621ADDAA199000091GF106991001001999999001061MA1999999098861MD1999999-0041REMSYN070AAXX  11214 48352 32961 60000 10258 20236 39886 40062 80006 333 59004;EQDQ01  00002PRCP99
0186483520999992000101200004+17860+102720FM-12+0175VTUM V0209999C000019999999N0100001N1+02541+02331100721ADDAA199000091GF106991001001999999001061KA1120N+02521MA1999999098741MD1999999-0031REMSYN076AAXX  12004 48352 32960 60000 10254 20233 39874 40072 80006 333 20252 59003;EQDQ01  00002PRCP99
0167483520999992000101203004+17860+102720FM-12+0175VTUM V0200201N001012200019N0130001N1+03101+02251100751ADDAA199000091GF102991001001999999001051MA1999999098801MD1999999-0061REMSYN070AAXX  12034 48352 32963 20202 10310 20225 39880 40075 80005 333 59006;EQDQ01  00002PRCP99
0167483520999992000101206004+17860+102720FM-12+0175VTUM V0209999C000012200019N0140001N1+03401+02101100491ADDAA199000091GF103991021051008001001051MA1999999098571MD1999999-0071REMSYN070AAXX  12064 48352 32564 30000 10340 20210 39857 40049 82505 333 59007;EQDQ01  00002PRCP99
0182483520999992000101209004+17860+102720FM-12+0175VTUM V0209999C000010450019N0140001N1+03011+02421100371ADDAA102002091AY161031AY211031GF106991041081008001031061MA1999999098421MD1999999-0071MW1211REMSYN082AAXX  12094 48352 21564 60000 10301 20242 39842 40037 72161 84836 333 59007 60026;
0207483520999992000101212004+17860+102720FM-12+0175VTUM V0209999C000012200019N0130001N1+02901+02441100441ADDAA112002091AY161061AY221061GF106991041051008001001061KA1120M+03471MA1999999098491MD1999999-0171MW1021REMSYN094AAXX  12124 48352 11563 60000 10290 20244 39849 40044 60022 70262 84506 333 10347 59017 70017;
0148483520999992000101215004+17860+102720FM-12+0175VTUM V0209999C000019999999N0120001N1+02701+02351100701ADDAA199000021GF106991001001999999001061MA1999999098731MD1999999-0111REMSYN070AAXX  12154 48352 32962 60000 10270 20235 39873 40070 80006 333 59011;
0154483520999992000101218004+17860+102720FM-12+0175VTUM V0209999C000012200019N0110001N1+02581+02351100571ADDAA124001891GF106991021051008001001061MA1999999098591MD1999999-0201REMSYN076AAXX  12184 48352 32561 60000 10258 20235 39859 40057 82506 333 59020 70017;
0148483520999992000101221004+17860+102720FM-12+0175VTUM V0209999C000012200019N0100001N1+02501+02351100511ADDAA199000021GF103991001001999999001051MA1999999098531MD1999999-0111REMSYN070AAXX  12214 48352 32960 30000 10250 20235 39853 40051 80005 333 59011;
0173483520999992000101300004+17860+102720FM-12+0175VTUM V0209999C000010075019N0100001N1+02531+02341100591ADDAA124001891GF106991051021008001001061KA1120N+02461MA1999999098611MD1999999-0131REMSYN082AAXX  13004 48352 32560 60000 10253 20234 39861 40059 85206 333 20246 59013 70017;
0167483520999992000101303004+17860+102720FM-12+0175VTUM V0209999C000012200019N0120001N1+03021+02291100611ADDAA199000091GF106991021051008001001061MA1999999098661MD1999999-0141REMSYN070AAXX  13034 48352 32562 60000 10302 20229 39866 40061 82506 333 59014;EQDQ01  00002PRCP99
0167483520999992000101306004+17860+102720FM-12+0175VTUM V0209999C000012200019N0140001N1+03351+02181100331ADDAA199000091GF105991021021008001001061MA1999999098411MD1999999-0161REMSYN070AAXX  13064 48352 32564 50000 10335 20218 39841 40033 82206 333 59016;EQDQ01  00002PRCP99
0167483520999992000101309004+17860+102720FM-12+0175VTUM V0209999C000012200019N0140001N1+03311+02111100141ADDAA199000091GF104991021091008001041031MA1999999098221MD1999999-0231REMSYN070AAXX  13094 48352 32564 40000 10331 20211 39822 40014 82943 333 59023;EQDQ01  00002PRCP99
0186483520999992000101312004+17860+102720FM-12+0175VTUM V0209999C000012200019N0130001N1+02861+02181100311ADDAA199000091GF106991021051008001001061KA1120M+03441MA1999999098361MD1999999-0131REMSYN076AAXX  13124 48352 32563 60000 10286 20218 39836 40031 82506 333 10344 59013;EQDQ01  00002PRCP99
0167483520999992000101315004+17860+102720FM-12+0175VTUM V0209999C000010075019N0120001N1+02671+02161100561ADDAA199000091GF108991051051008001031061MA1999999098591MD1999999-0141REMSYN070AAXX  13154 48352 32562 80000 10267 20216 39859 40056 85536 333 59014;EQDQ01  00002PRCP99
0167483520999992000101318004+17860+102720FM-12+0175VTUM V0209999C000010450019N0100001N1+02601+02311100581ADDAA199000091GF107991041051008001031061MA1999999098611MD1999999+0011REMSYN070AAXX  13184 48352 32560 70000 10260 20231 39861 40058 84536 333 58001;EQDQ01  00002PRCP99
0167483520999992000101321004+17860+102720FM-12+0175VTUM V0209999C000019999999N0100001N1+02481+02301100521ADDAA199000091GF105991001001999999001061MA1999999098531MD1999999+0011REMSYN070AAXX  13214 48352 32960 50000 10248 20230 39853 40052 80006 333 58001;EQDQ01  00002PRCP99
0186483520999992000101400004+17860+102720FM-12+0175VTUM V0209999C000019999999N0100001N1+02481+02331100601ADDAA199000091GF106991001001999999001061KA1120N+02401MA1999999098621MD1999999+0011REMSYN076AAXX  14004 48352 32960 60000 10248 20233 39862 40060 80006 333 20240 58001;EQDQ01  00002PRCP99
0167483520999992000101403004+17860+102720FM-12+0175VTUM V0209999C000012200019N0060001N1+03001+02201100681ADDAA199000091GF103991001001999999001051MA1999999098731MD1999999+0071REMSYN070AAXX  14034 48352 32956 30000 10300 20220 39873 40068 80005 333 58007;EQDQ01  00002PRCP99
0167483520999992000101406004+17860+102720FM-12+0175VTUM V0209999C000011050019N0140001N1+03121+02211100461ADDAA199000091GF105991041081008001001051MA1999999098521MD1999999+0131REMSYN070AAXX  14064 48352 32564 50000 10312 20221 39852 40046 84805 333 58013;EQDQ01  00002PRCP99
0167483520999992000101409004+17860+102720FM-12+0175VTUM V0200601N002610450019N0140001N1+03141+02171100331ADDAA199000091GF105991031081008001031051MA1999999098381MD1999999+0191REMSYN070AAXX  14094 48352 32564 50605 10314 20217 39838 40033 83835 333 58019;EQDQ01  00002PRCP99
0186483520999992000101412004+17860+102720FM-12+0175VTUM V0209999C000011050019N0130001N1+02681+01991100561ADDAA199000091GF106991021051008001031061KA1120M+03321MA1999999098591MD1999999+0251REMSYN076AAXX  14124 48352 32563 60000 10268 20199 39859 40056 82536 333 10332 58025;EQDQ01  00002PRCP99
0167483520999992000101415004+17860+102720FM-12+0175VTUM V0209999C000010450019N0120001N1+02581+02101100851ADDAA199000091GF107991041051008001071061MA1999999098871MD1999999+0291REMSYN070AAXX  14154 48352 32562 70000 10258 20210 39887 40085 84576 333 58029;EQDQ01  00002PRCP99
0167483520999992000101418004+17860+102720FM-12+0175VTUM V0209999C000010450019N0110001N1+02471+02091100811ADDAA199000091GF107991041051008001071061MA1999999098831MD1999999+0231REMSYN070AAXX  14184 48352 32561 70000 10247 20209 39883 40081 84576 333 58023;EQDQ01  00002PRCP99
0167483520999992000101421004+17860+102720FM-12+0175VTUM V0209999C000010075019N0100001N1+02411+02121100761ADDAA199000091GF108991051051008001071061MA1999999098771MD1999999+0241REMSYN070AAXX  14214 48352 32560 80000 10241 20212 39877 40076 85576 333 58024;EQDQ01  00002PRCP99
0186483520999992000101500004+17860+102720FM-12+0175VTUM V0209999C000010075019N0100001N1+02411+02151101011ADDAA199000091GF108991051051008001071999KA1120N+02381MA1999999099011MD1999999+0411REMSYN076AAXX  15004 48352 32560 80000 10241 20215 39901 40101 8557/ 333 20238 58041;EQDQ01  00002PRCP99
0182483520999992000101503004+17860+102720FM-12+0175VTUM V0209999C000010075019N0050001N1+02351+02181101231ADDAA102000891AY161031AY221031GF108991071071008001021999MA1999999099221MD1999999+0551MW1611REMSYN082AAXX  15034 48352 21550 80000 10235 20218 39922 40123 76162 8772/ 333 58055 69986;
0194483520999992000101506004+17860+102720FM-12+0175VTUM V0209999C000010120019N0120001N1+02591+02221100961ADDAA103000391AY161061AY261061GF108991051081008001071999MA1999999098981MD1999999+0501MW1021REMSYN094AAXX  15064 48352 /1562 80000 10259 20222 39898 40096 60011 70266 8587/ 333 58050 69937 70011;
0148483520999992000101509004+17860+102720FM-12+0175VTUM V0209999C000010120019N0140001N1+02711+02061100821ADDAA199000021GF108991051081008001071061MA1999999098851MD1999999+0491REMSYN070AAXX  15094 48352 32564 80000 10271 20206 39885 40082 85876 333 58049;
0167483520999992000101512004+17860+102720FM-12+0175VTUM V0203601N001510120019N0130001N1+02551+02181100941ADDAA199000021GF108991051081008001071061KA1120M+02781MA1999999098971MD1999999+0381REMSYN076AAXX  15124 48352 32563 83603 10255 20218 39897 40094 85876 333 10278 58038;
0154483520999992000101518004+17860+102720FM-12+0175VTUM V0209999C000010450019N0110001N1+02431+02271101151ADDAA124001091GF108991041051008001071061MA1999999099141MD1999999+0341REMSYN076AAXX  15184 48352 32561 80000 10243 20227 39914 40115 84576 333 58034 70011;
0167483520999992000101521004+17860+102720FM-12+0175VTUM V0209999C000010075019N0100001N1+02401+02191101031ADDAA199000091GF108991061051008001071999MA1999999099031MD1999999+0271REMSYN070AAXX  15214 48352 32560 80000 10240 20219 39903 40103 8657/ 333 58027;EQDQ01  00002PRCP99
0173483520999992000101600004+17860+102720FM-12+0175VTUM V0209999C000012200019N0100001N1+02321+02141101241ADDAA124001091GF104991021051008001031051KA1120N+02301MA1999999099231MD1999999+0231REMSYN082AAXX  16004 48352 32560 40000 10232 20214 39923 40124 82535 333 20230 58023 70011;
0167483520999992000101603004+17860+102720FM-12+0175VTUM V0200901N002110450019N0120001N1+02631+02001101361ADDAA199000091GF106991041051008001031061MA1999999099371MD1999999+0131REMSYN070AAXX  16034 48352 32562 60904 10263 20200 39937 40136 84536 333 58013;EQDQ01  00002PRCP99
0167483520999992000101606004+17860+102720FM-12+0175VTUM V0209999C000010075019N0130001N1+02731+02061101081ADDAA199000091GF108991051051008001071061MA1999999099101MD1999999+0121REMSYN070AAXX  16064 48352 32563 80000 10273 20206 39910 40108 85576 333 58012;EQDQ01  00002PRCP99
0167483520999992000101609004+17860+102720FM-12+0175VTUM V0209999C000010075019N0130001N1+02651+02161100951ADDAA199000091GF108991051051008001071061MA1999999098981MD1999999+0131REMSYN070AAXX  16094 48352 32563 80000 10265 20216 39898 40095 85576 333 58013;EQDQ01  00002PRCP99
0186483520999992000101612004+17860+102720FM-12+0175VTUM V0200101N001010450019N0120001N1+02451+02151101011ADDAA199000091GF108991041051008001071061KA1120M+02851MA1999999099021MD1999999+0071REMSYN076AAXX  16124 48352 32562 80102 10245 20215 39902 40101 84576 333 10285 58007;EQDQ01  00002PRCP99
0167483520999992000101615004+17860+102720FM-12+0175VTUM V0209999C000010450019N0120001N1+02411+02201101141ADDAA199000091GF108991041051008001071061MA1999999099141MD1999999+0011REMSYN070AAXX  16154 48352 32562 80000 10241 20220 39914 40114 84576 333 58001;EQDQ01  00002PRCP99
0167483520999992000101618004+17860+102720FM-12+0175VTUM V0209999C000010075019N0110001N1+02381+02221101141ADDAA199000091GF108991051051008001071061MA1999999099141MD1999999-0011REMSYN070AAXX  16184 48352 32561 80000 10238 20222 39914 40114 85576 333 59001;EQDQ01  00002PRCP99
0182483520999992000101621004+17860+102720FM-12+0175VTUM V0209999C000010075019N0060001N1+02341+02241101091ADDAA101000191AY121031AY221031GF108991061051008001071999MA1999999099081MD1999999+0061MW1611REMSYN082AAXX  16214 48352 21556 80000 10234 20224 39908 40109 76122 8657/ 333 58006 69915;
0213483520999992000101700004+17860+102720FM-12+0175VTUM V0209999C000010075019N0100001N1+02321+02231101081ADDAA103000891AY161061AY221061GF108991051051008001071999KA1120N+02271MA1999999099071MD1999999-0161MW1021REMSYN100AAXX  17004 48352 /1560 80000 10232 20223 39907 40108 69984 70262 8557/ 333 20227 59016 69977 70008;
0148483520999992000101703004+17860+102720FM-12+0175VTUM V0209999C000010450019N0130001N1+02601+02241101141ADDAA199000021GF106991041051008001031061MA1999999099151MD1999999-0221REMSYN070AAXX  17034 48352 32563 60000 10260 20224 39915 40114 84536 333 59022;
0154483520999992000101706004+17860+102720FM-12+0175VTUM V0200401N002610450019N0140001N1+02931+02141100881ADDAA124000891GF106991041081008001031051MA1999999098921MD1999999-0201REMSYN076AAXX  17064 48352 32564 60405 10293 20214 39892 40088 84835 333 59020 70008;
0148483520999992000101709004+17860+102720FM-12+0175VTUM V0200301N001510450019N0130001N1+02911+02011100701ADDAA199000021GF107991041051008001071061MA1999999098751MD1999999-0251REMSYN070AAXX  17094 48352 32563 70303 10291 20201 39875 40070 84576 333 59025;
0173483520999992000101712004+17860+102720FM-12+0175VTUM V0209999C000010450019N0120001N1+02701+02051100831ADDAA124000891GF106991041051008001031061KA1120M+03101MA1999999098861MD1999999-0181REMSYN082AAXX  17124 48352 32562 60000 10270 20205 39886 40083 84536 333 10310 59018 70008;
0167483520999992000101715004+17860+102720FM-12+0175VTUM V0200701N001012200019N0110001N1+02561+01991100941ADDAA199000091GF106991041051008001001061MA1999999098961MD1999999-0201REMSYN070AAXX  17154 48352 32561 60702 10256 20199 39896 40094 84506 333 59020;EQDQ01  00002PRCP99
0154483520999992000101718004+17860+102720FM-12+0175VTUM V0209999C000011050019N0100001N1+02471+02021100931ADDAA124000891GF105991021051008001031061MA1999999098941MD1999999-0211REMSYN076AAXX  17184 48352 32560 50000 10247 20202 39894 40093 82536 333 59021 70008;
0167483520999992000101721004+17860+102720FM-12+0175VTUM V0209999C000010450019N0100001N1+02391+02051100861ADDAA199000091GF108991041051008001071061MA1999999098871MD1999999-0231REMSYN070AAXX  17214 48352 32560 80000 10239 20205 39887 40086 84576 333 59023;EQDQ01  00002PRCP99
0186483520999992000101800004+17860+102720FM-12+0175VTUM V0209999C000010075019N0100001N1+02301+01961100961ADDAA199000091GF108991051051008001071999KA1120N+02291MA1999999098971MD1999999-0121REMSYN076AAXX  18004 48352 32560 80000 10230 20196 39897 40096 8557/ 333 20229 59012;EQDQ01  00002PRCP99
0167483520999992000101803004+17860+102720FM-12+0175VTUM V0209999C000010075019N0120001N1+02621+02011101011ADDAA199000091GF108991051051008001071999MA1999999099021MD1999999-0131REMSYN070AAXX  18034 48352 32562 80000 10262 20201 39902 40101 8557/ 333 59013;EQDQ01  00002PRCP99
0167483520999992000101806004+17860+102720FM-12+0175VTUM V0203601N001510450019N0150001N1+02881+02011100721ADDAA199000091GF107991031021008001031061MA1999999098761MD1999999-0161REMSYN070AAXX  18064 48352 32565 73603 10288 20201 39876 40072 83236 333 59016;EQDQ01  00002PRCP99
0167483520999992000101809004+17860+102720FM-12+0175VTUM V0209999C000011050019N0150001N1+03011+01991100511ADDAA199000091GF105991021021008001041061MA1999999098571MD1999999-0191REMSYN070AAXX  18094 48352 32565 50000 10301 20199 39857 40051 82246 333 59019;EQDQ01  00002PRCP99
0186483520999992000101812004+17860+102720FM-12+0175VTUM V0209999C000012200019N0130001N1+02661+02201100671ADDAA199000091GF102991021011008001001001KA1120M+03061MA1999999098701MD1999999-0161REMSYN076AAXX  18124 48352 32563 20000 10266 20220 39870 40067 82100 333 10306 59016;EQDQ01  00002PRCP99
0177483520999992000101815004+17860+102720FM-12+0175VTUM V0209999C000012200019N0120001N1+02451+02151100861ADDAA199000091GA1001+999999999GF100991001001999999001001MA1999999098881MD1999999-0081REMSYN064AAXX  18154 48352 32962 00000 10245 20215 39888 40086 333 59008;EQDQ01  00002PRCP99
0177483520999992000101818004+17860+102720FM-12+0175VTUM V0209999C000012200019N0110001N1+02351+02121100831ADDAA199000091GA1001+999999999GF100991001001999999001001MA1999999098841MD1999999-0101REMSYN064AAXX  18184 48352 32961 00000 10235 20212 39884 40083 333 59010;EQDQ01  00002PRCP99
0177483520999992000101821004+17860+102720FM-12+0175VTUM V0209999C000012200019N0100001N1+02251+02071100701ADDAA199000091GA1001+999999999GF100991001001999999001001MA1999999098701MD1999999-0161REMSYN064AAXX  18214 48352 32960 00000 10225 20207 39870 40070 333 59016;EQDQ01  00002PRCP99
0186483520999992000101900004+17860+102720FM-12+0175VTUM V0209999C000011050019N0120001N1+02311+02241100831ADDAA199000091GF106991021051008001031061KA1120N+02201MA1999999098831MD1999999-0131REMSYN076AAXX  19004 48352 32562 60000 10231 20224 39883 40083 82536 333 20220 59013;EQDQ01  00002PRCP99
0167483520999992000101903004+17860+102720FM-12+0175VTUM V0209999C000010450019N0140001N1+02751+02231100931ADDAA199000091GF107991041081008001071061MA1999999098971MD1999999-0081REMSYN070AAXX  19034 48352 32564 70000 10275 20223 39897 40093 84876 333 59008;EQDQ01  00002PRCP99
0167483520999992000101906004+17860+102720FM-12+0175VTUM V0209999C000011050019N0150001N1+03051+02211100641ADDAA199000091GF105991021021008001041061MA1999999098701MD1999999-0081REMSYN070AAXX  19064 48352 32565 50000 10305 20221 39870 40064 82246 333 59008;EQDQ01  00002PRCP99
0167483520999992000101909004+17860+102720FM-12+0175VTUM V0209999C000012200019N0150001N1+03071+02151100421ADDAA199000091GF103991021011008001041051MA1999999098481MD1999999-0091REMSYN070AAXX  19094 48352 32565 30000 10307 20215 39848 40042 82145 333 59009;EQDQ01  00002PRCP99
0186483520999992000101912004+17860+102720FM-12+0175VTUM V0209999C000010450019N0130001N1+02821+02281100581ADDAA199000091GF107991041051008001031061KA1120M+03171MA1999999098621MD1999999-0091REMSYN076AAXX  19124 48352 32563 70000 10282 20228 39862 40058 84536 333 10317 59009;EQDQ01  00002PRCP99
0167483520999992000101915004+17860+102720FM-12+0175VTUM V0209999C000010075019N0110001N1+02601+02351100741ADDAA199000091GF107991051051008001071061MA1999999098771MD1999999-0091REMSYN070AAXX  19154 48352 32561 70000 10260 20235 39877 40074 85576 333 59009;EQDQ01  00002PRCP99
0167483520999992000101921004+17860+102720FM-12+0175VTUM V0209999C000010075019N0100001N1+02551+02181100701ADDAA199000091GF108991061051008001071999MA1999999098721MD1999999+0001REMSYN070AAXX  19214 48352 32560 80000 10255 20218 39872 40070 8657/ 333 58000;EQDQ01  00002PRCP99
0186483520999992000102000004+17860+102720FM-12+0175VTUM V0209999C000010450019N0100001N1+02511+02271100891ADDAA199000091GF106991041051008001071061KA1120N+02501MA1999999098901MD1999999+0061REMSYN076AAXX  20004 48352 32560 60000 10251 20227 39890 40089 84576 333 20250 58006;EQDQ01  00002PRCP99
0167483520999992000102003004+17860+102720FM-12+0175VTUM V0200501N001012200019N0150001N1+02971+02321100981ADDAA199000091GF103991031081008001001001MA1999999099021MD1999999+0051REMSYN070AAXX  20034 48352 32565 30502 10297 20232 39902 40098 83800 333 58005;EQDQ01  00002PRCP99
0167483520999992000102006004+17860+102720FM-12+0175VTUM V0209999C000010075019N0150001N1+03171+02351100681ADDAA199000091GF105991051021008001001001MA1999999098741MD1999999+0041REMSYN070AAXX  20064 48352 32565 50000 10317 20235 39874 40068 85200 333 58004;EQDQ01  00002PRCP99
0167483520999992000102009004+17860+102720FM-12+0175VTUM V0209999C000010450019N0150001N1+03301+02371100421ADDAA199000091GF106991041091008001041031MA1999999098491MD1999999+0001REMSYN070AAXX  20094 48352 32565 60000 10330 20237 39849 40042 84943 333 58000;EQDQ01  00002PRCP99
0186483520999992000102012004+17860+102720FM-12+0175VTUM V0209999C000012200019N0140001N1+02951+02421100611ADDAA199000091GF102991021051008001001001KA1120M+03391MA1999999098661MD1999999+0031REMSYN076AAXX  20124 48352 32564 20000 10295 20242 39866 40061 82500 333 10339 58003;EQDQ01  00002PRCP99
0167483520999992000102015004+17860+102720FM-12+0175VTUM V0209999C000012200019N0130001N1+02721+02371100831ADDAA199000091GF102991001001999999001051MA1999999098871MD1999999+0091REMSYN070AAXX  20154 48352 32963 20000 10272 20237 39887 40083 80005 333 58009;EQDQ01  00002PRCP99
0167483520999992000102018004+17860+102720FM-12+0175VTUM V0200801N002612200019N0120001N1+02581+02351100791ADDAA199000091GF102991021051008001001001MA1999999098821MD1999999+0051REMSYN070AAXX  20184 48352 32562 20805 10258 20235 39882 40079 82500 333 58005;EQDQ01  00002PRCP99
0167483520999992000102021004+17860+102720FM-12+0175VTUM V0200901N001510450019N0110001N1+02471+02321100781ADDAA199000091GF105991041081008001031051MA1999999098791MD1999999+0081REMSYN070AAXX  20214 48352 32561 50903 10247 20232 39879 40078 84835 333 58008;EQDQ01  00002PRCP99
0186483520999992000102100004+17860+102720FM-12+0175VTUM V0209999C000010075019N0120001N1+02451+02301100951ADDAA199000091GF108991061051008001071999KA1120N+02411MA1999999098971MD1999999+0061REMSYN076AAXX  21004 48352 32562 80000 10245 20230 39897 40095 8657/ 333 20241 58006;EQDQ01  00002PRCP99
0167483520999992000102103004+17860+102720FM-12+0175VTUM V0209999C000010120019N0140001N1+02741+02391101051ADDAA199000091GF108991061081008001071999MA1999999099071MD1999999+0071REMSYN070AAXX  21034 48352 32564 80000 10274 20239 39907 40105 8687/ 333 58007;EQDQ01  00002PRCP99
0167483520999992000102106004+17860+102720FM-12+0175VTUM V0209999C000010120019N0150001N1+02781+02451100791ADDAA199000091GF107991051081008001071061MA1999999098831MD1999999+0111REMSYN070AAXX  21064 48352 32565 70000 10278 20245 39883 40079 85876 333 58011;EQDQ01  00002PRCP99
0167483520999992000102109004+17860+102720FM-12+0175VTUM V0209999C000010450019N0150001N1+02821+02421100581ADDAA199000091GF106991031091008001031031MA1999999098621MD1999999+0161REMSYN070AAXX  21094 48352 32565 60000 10282 20242 39862 40058 83933 333 58016;EQDQ01  00002PRCP99
0186483520999992000102112004+17860+102720FM-12+0175VTUM V0209999C000012200019N0130001N1+02601+02411100671ADDAA199000091GF102991021011008001001001KA1120M+02881MA1999999098701MD1999999+0061REMSYN076AAXX  21124 48352 32563 20000 10260 20241 39870 40067 82100 333 10288 58006;EQDQ01  00002PRCP99
0177483520999992000102115004+17860+102720FM-12+0175VTUM V0209999C000012200019N0120001N1+02501+02381100871ADDAA199000091GA1001+999999999GF100991001001999999001001MA1999999098891MD1999999+0041REMSYN064AAXX  21154 48352 32962 00000 10250 20238 39889 40087 333 58004;EQDQ01  00002PRCP99
0177483520999992000102118004+17860+102720FM-12+0175VTUM V0209999C000012200019N0110001N1+02431+02361100831ADDAA199000091GA1001+999999999GF100991001001999999001001MA1999999098851MD1999999+0041REMSYN064AAXX  21184 48352 32961 00000 10243 20236 39885 40083 333 58004;EQDQ01  00002PRCP99
0214483520999992000102121004+17860+102720FM-12+0175VTUM V0209999C000010075019N0060001N1+02501+02441100941ADDAA199000091AY111031AY201031GF108991051051008001031061KA1120N+02421MA1999999098961MD1999999-0011MW1101REMSYN082AAXX  21214 48352 31556 80000 10250 20244 39896 40094 71010 85536 333 20242 59001;EQDQ01  00002PRCP99
0167483520999992000102203004+17860+102720FM-12+0175VTUM V0200401N001012200019N0120001N1+02751+02421101041ADDAA199000091GF106991031021008001001061MA1999999099071MD1999999-0011REMSYN070AAXX  22034 48352 32562 60402 10275 20242 39907 40104 83206 333 59001;EQDQ01  00002PRCP99
0167483520999992000102206004+17860+102720FM-12+0175VTUM V0209999C000012200019N0150001N1+03171+02321100661ADDAA199000091GF103991021021008001001051MA1999999098731MD1999999-0131REMSYN070AAXX  22064 48352 32565 30000 10317 20232 39873 40066 82205 333 59013;EQDQ01  00002PRCP99
0167483520999992000102209004+17860+102720FM-12+0175VTUM V0209999C000012200019N0160001N1+03201+02331100401ADDAA199000091GF103991031021008001001001MA1999999098471MD1999999-0181REMSYN070AAXX  22094 48352 32566 30000 10320 20233 39847 40040 83200 333 59018;EQDQ01  00002PRCP99
0214483520999992000102212004+17860+102720FM-12+0175VTUM V0209999C000012200019N0140001N1+02731+02441100691ADDAA199000091AY101061AY201061GF102991021091008001001031KA1120M+03321MA1999999098731MD1999999+0021MW1131REMSYN082AAXX  22124 48352 31564 20000 10273 20244 39873 40069 71300 82903 333 10332 58002;EQDQ01  00002PRCP99
0195483520999992000102215004+17860+102720FM-12+0175VTUM V0209999C000011050019N0130001N1+02621+02371100891ADDAA199000091AY111031AY201031GF105991041091008001001031MA1999999098921MD1999999+0021MW1171REMSYN076AAXX  22154 48352 31563 50000 10262 20237 39892 40089 71710 84903 333 58002;EQDQ01  00002PRCP99
0194483520999992000102218004+17860+102720FM-12+0175VTUM V0209999C000010075019N0120001N1+02501+02431100821ADDAA103002091AY191061AY221061GF108991051091008001071999MA1999999098841MD1999999-0011MW1131REMSYN094AAXX  22184 48352 /1562 80000 10250 20243 39884 40082 60023 71392 8597/ 333 59001 60027 70018;
0182483520999992000102221004+17860+102720FM-12+0175VTUM V0209999C000010075019N0100001N1+02381+02341100821ADDAA103020191AY191031AY261031GF108991061051008001071999MA1999999098831MD1999999+0061MW1211REMSYN082AAXX  22214 48352 21560 80000 10238 20234 39883 40082 72196 8657/ 333 58006 60207;
0213483520999992000102300004+17860+102720FM-12+0175VTUM V0209999C000010450019N0120001N1+02411+02351101001ADDAA103000391AY161061AY221061GF108991031051008001071061KA1120N+02351MA1999999099001MD1999999+0061MW1021REMSYN100AAXX  23004 48352 /1562 80000 10241 20235 39900 40100 60224 70262 83576 333 20235 58006 69937 70218;
0182483520999992000102303004+17860+102720FM-12+0175VTUM V0200401N001010450019N0150001N1+02551+02401101121ADDAA102006191AY161031AY221031GF107991041081008001071061MA1999999099131MD1999999+0081MW1211REMSYN082AAXX  23034 48352 21565 70402 10255 20240 39913 40112 72162 84876 333 58008 60066;
0188483520999992000102306004+17860+102720FM-12+0175VTUM V0200501N002610450019N0150001N1+02731+02291100811ADDAA106006191AY161061AY221061GF106991041081008001071061MA1999999098841MD1999999+0151MW1011REMSYN088AAXX  23064 48352 11565 60505 10273 20229 39884 40081 60061 70162 84876 333 58015 70276;
0148483520999992000102309004+17860+102720FM-12+0175VTUM V0200601N002110120019N0150001N1+02651+02301100661ADDAA199000021GF108991061081008001071999MA1999999098691MD1999999+0261REMSYN070AAXX  23094 48352 32565 80604 10265 20230 39869 40066 8687/ 333 58026;
0173483520999992000102312004+17860+102720FM-12+0175VTUM V0209999C000010075019N0140001N1+02551+02351100811ADDAA124027791GF108991061051008001071999KA1120M+02841MA1999999098841MD1999999+0121REMSYN082AAXX  23124 48352 32564 80000 10255 20235 39884 40081 8657/ 333 10284 58012 70276;
0148483520999992000102315004+17860+102720FM-12+0175VTUM V0209999C000010450019N0120001N1+02521+02421101041ADDAA199000021GF106991041051008001071061MA1999999099041MD1999999+0151REMSYN070AAXX  23154 48352 32562 60000 10252 20242 39904 40104 84576 333 58015;
0154483520999992000102318004+17860+102720FM-12+0175VTUM V0209999C000012200019N0110001N1+02421+02351101051ADDAA124025991GF103991021051008001001051MA1999999099051MD1999999+0231REMSYN076AAXX  23184 48352 32561 30000 10242 20235 39905 40105 82505 333 58023 70258;
0167483520999992000102321004+17860+102720FM-12+0175VTUM V0209999C000012200019N0100001N1+02351+02341100961ADDAA199000091GF102991021051008001001001MA1999999098971MD1999999+0141REMSYN070AAXX  23214 48352 32560 20000 10235 20234 39897 40096 82500 333 58014;EQDQ01  00002PRCP99
0173483520999992000102400004+17860+102720FM-12+0175VTUM V0209999C000010450019N0100001N1+02401+02341101151ADDAA124005891GF106991041051008001031051KA1120N+02321MA1999999099151MD1999999+0151REMSYN082AAXX  24004 48352 32560 60000 10240 20234 39915 40115 84535 333 20232 58015 70058;
0183483520999992000102403004+17860+102720FM-12+0175VTUM V0209999C000012200019N0150001N1+02971+02381101271ADDAA199000091GF103991031021008001001001MA1999999098312MD1999999+0151REMSYN070AAXX  24034 48352 32565 30000 10297 20238 39831 40127 83200 333 58015;EQDQ01+098313APOSP Q02  00002PRCP99
0183483520999992000102406004+17860+102720FM-12+0175VTUM V0209999C000012200019N0160001N1+03101+02301101001ADDAA199000091GF103991031021008001001001MA1999999099052MD1999999+0191REMSYN070AAXX  24064 48352 32566 30000 10310 20230 39905 40100 83200 333 58019;EQDQ01+099053APOSP Q02  00002PRCP99
0167483520999992000102409004+17860+102720FM-12+0175VTUM V0209999C000012200019N0160001N1+03181+02281100681ADDAA199000091GF102991021091008001001031MA1999999098741MD1999999+0021REMSYN070AAXX  24094 48352 32566 20000 10318 20228 39874 40068 82903 333 58002;EQDQ01  00002PRCP99
0213483520999992000102412004+17860+102720FM-12+0175VTUM V0209999C000012200019N0140001N1+02701+02561100931ADDAA103005191AY161061AY201061GF102991011091008001001031KA1120M+03281MA1999999098961MD1999999+0121MW1131REMSYN100AAXX  24124 48352 /1564 20000 10270 20256 39896 40093 60052 71360 81903 333 10328 58012 60057 70048;
0167483520999992000102415004+17860+102720FM-12+0175VTUM V0209999C000010075019N0130001N1+02621+02511101171ADDAA199000091GF106991051051008001001051MA1999999099181MD1999999+0131REMSYN070AAXX  24154 48352 32563 60000 10262 20251 39918 40117 85505 333 58013;EQDQ01  00002PRCP99
0194483520999992000102418004+17860+102720FM-12+0175VTUM V0209999C000010075019N0050001N1+02551+02401101091ADDAA101000191AY121061AY221061GF108991051051008001071061MA1999999099101MD1999999+0041MW1601REMSYN094AAXX  24184 48352 /1550 80000 10255 20240 39910 40109 60053 76022 85576 333 58004 69915 70049;
0182483520999992000102421004+17860+102720FM-12+0175VTUM V0209999C000010075019N0100001N1+02461+02371101011ADDAA103002091AY161031AY261031GF108991061051008001071999MA1999999099021MD1999999+0051MW1211REMSYN082AAXX  24214 48352 21560 80000 10246 20237 39902 40101 72166 8657/ 333 58005 60027;
0207483520999992000102500004+17860+102720FM-12+0175VTUM V0209999C000012200019N0120001N1+02431+02391101371ADDAA124007191AY161061AY211061GF104991011011008001041061KA1120N+02351MA1999999099371MD1999999+0221MW1011REMSYN094AAXX  25004 48352 11562 40000 10243 20239 39937 40137 60074 70161 81146 333 20235 58022 70069;
0154483520999992000102506004+17860+102720FM-12+0175VTUM V0200801N001512200019N0160001N1+03231+02171101081ADDAA124006991GF104991031011008001041011MA1999999099131MD1999999+0081REMSYN076AAXX  25064 48352 32566 40803 10323 20217 39913 40108 83141 333 58008 70069;
0148483520999992000102509004+17860+102720FM-12+0175VTUM V0200601N001512200019N0160001N1+03211+02161100861ADDAA199000021GF104991041011008001001001MA1999999098921MD1999999+0181REMSYN070AAXX  25094 48352 32566 40603 10321 20216 39892 40086 84100 333 58018;
0183483520999992000102512004+17860+102720FM-12+0175VTUM V0209999C000012200019N0140001N1+02851+02371101041ADDAA124002091GA1001+999999999GF100991001001999999001001KA1120M+03371MA1999999099071MD1999999+0111REMSYN076AAXX  25124 48352 32964 00000 10285 20237 39907 40104 333 10337 58011 70021;
0177483520999992000102515004+17860+102720FM-12+0175VTUM V0209999C000012200019N0120001N1+02661+02431101251ADDAA199000091GA1001+999999999GF100991001001999999001001MA1999999099271MD1999999+0081REMSYN064AAXX  25154 48352 32962 00000 10266 20243 39927 40125 333 58008;EQDQ01  00002PRCP99
0194483520999992000102518004+17860+102720FM-12+0175VTUM V0209999C000010450019N0110001N1+02401+02301101251ADDAA102003091AY161061AY201061GF106991041051008001031061MA1999999099241MD1999999+0161MW1031REMSYN094AAXX  25184 48352 /1561 60000 10240 20230 39924 40125 60033 70360 84536 333 58016 60036 70047;
0182483520999992000102521004+17860+102720FM-12+0175VTUM V0209999C000012200019N0100001N1+02401+02311101221ADDAA102000391AY161031AY221031GF102991021051008001001001MA1999999099221MD1999999+0211MW1011REMSYN082AAXX  25214 48352 21560 20000 10240 20231 39922 40122 70162 82500 333 58021 69936;
0217483520999992000102600004+17860+102720FM-12+0175VTUM V0209999C000012200019N0100001N1+02421+02291101351ADDAA124003091AY161061AY211061GA1001+999999999GF100991001001999999001001KA1120N+02331MA1999999099341MD1999999-0021MW1011REMSYN088AAXX  26004 48352 11960 00000 10242 20229 39934 40135 60034 70161 333 20233 59002 70030;
0177483520999992000102603004+17860+102720FM-12+0175VTUM V0203601N001012200019N0150001N1+03011+02201101411ADDAA199000091GA1001+999999999GF100991001001999999001001MA1999999099451MD1999999-0031REMSYN064AAXX  26034 48352 32965 03602 10301 20220 39945 40141 333 59003;EQDQ01  00002PRCP99
0154483520999992000102606004+17860+102720FM-12+0175VTUM V0200801N001512200019N0150001N1+03201+01991101101ADDAA124003091GF101991011021008001001001MA1999999099151MD1999999+0021REMSYN076AAXX  26064 48352 32565 10803 10320 20199 39915 40110 81200 333 58002 70030;
0167483520999992000102609004+17860+102720FM-12+0175VTUM V0200601N001012200019N0150001N1+03201+02081100911ADDAA199000091GF102991021011008001001001MA1999999098971MD1999999+0051REMSYN070AAXX  26094 48352 32565 20602 10320 20208 39897 40091 82100 333 58005;EQDQ01  00002PRCP99
0183483520999992000102612004+17860+102720FM-12+0175VTUM V0209999C000012200019N0130001N1+02871+02391100931ADDAA124003091GA1001+999999999GF100991001001999999001001KA1120M+03311MA1999999098971MD1999999-0111REMSYN076AAXX  26124 48352 32963 00000 10287 20239 39897 40093 333 10331 59011 70030;
0167483520999992000102615004+17860+102720FM-12+0175VTUM V0200301N001010450019N0120001N1+02671+02211101221ADDAA199000091GF105991031051008001031051MA1999999099241MD1999999-0031REMSYN070AAXX  26154 48352 32562 50302 10267 20221 39924 40122 83535 333 59003;EQDQ01  00002PRCP99
0154483520999992000102618004+17860+102720FM-12+0175VTUM V0209999C000012200019N0110001N1+02521+02271101241ADDAA124000391GF102991001001999999001051MA1999999099241MD1999999-0011REMSYN076AAXX  26184 48352 32961 20000 10252 20227 39924 40124 80005 333 59001 70003;
0167483520999992000102621004+17860+102720FM-12+0175VTUM V0209999C000012200019N0100001N1+02411+02281101181ADDAA199000091GF102991001001999999001051MA1999999099181MD1999999-0041REMSYN070AAXX  26214 48352 32960 20000 10241 20228 39918 40118 80005 333 59004;EQDQ01  00002PRCP99
0196483520999992000102700004+17860+102720FM-12+0175VTUM V0209999C000012200019N0100001N1+02421+02321101311ADDAA199000091GA1001+999999999GF100991001001999999001001KA1120N+02351MA1999999099311MD1999999-0041REMSYN070AAXX  27004 48352 32960 00000 10242 20232 39931 40131 333 20235 59004;EQDQ01  00002PRCP99
0177483520999992000102703004+17860+102720FM-12+0175VTUM V0200401N002112200019N0110001N1+03001+02201101371ADDAA199000091GA1001+999999999GF100991001001999999001001MA1999999099401MD1999999-0041REMSYN064AAXX  27034 48352 32961 00404 10300 20220 39940 40137 333 59004;EQDQ01  00002PRCP99
0167483520999992000102706004+17860+102720FM-12+0175VTUM V0200601N001012200019N0140001N1+03221+02091101111ADDAA199000091GF103991031011008001001001MA1999999099161MD1999999-0011REMSYN070AAXX  27064 48352 32564 30602 10322 20209 39916 40111 83100 333 59001;EQDQ01  00002PRCP99
0167483520999992000102709004+17860+102720FM-12+0175VTUM V0200501N001012200019N0150001N1+03171+02131100911ADDAA199000091GF104991021051008001031051MA1999999098981MD1999999+0001REMSYN070AAXX  27094 48352 32565 40502 10317 20213 39898 40091 82535 333 58000;EQDQ01  00002PRCP99
0186483520999992000102712004+17860+102720FM-12+0175VTUM V0209999C000010450019N0120001N1+02891+02321101051ADDAA199000091GF105991041051008001031061KA1120M+03271MA1999999099081MD1999999+0121REMSYN076AAXX  27124 48352 32562 50000 10289 20232 39908 40105 84536 333 10327 58012;EQDQ01  00002PRCP99
0167483520999992000102715004+17860+102720FM-12+0175VTUM V0209999C000010450019N0100001N1+02701+02371101271ADDAA199000091GF105991031051008001031061MA1999999099291MD1999999+0051REMSYN070AAXX  27154 48352 32560 50000 10270 20237 39929 40127 83536 333 58005;EQDQ01  00002PRCP99
0167483520999992000102721004+17860+102720FM-12+0175VTUM V0209999C000012200019N0100001N1+02441+02261101171ADDAA199000091GF102991021051008001001001MA1999999099161MD1999999-0011REMSYN070AAXX  27214 48352 32560 20000 10244 20226 39916 40117 82500 333 59001;EQDQ01  00002PRCP99
0186483520999992000102800004+17860+102720FM-12+0175VTUM V0209999C000012200019N0120001N1+02421+02241101271ADDAA199000091GF102991021051008001001001KA1120N+02351MA1999999099231MD1999999-0071REMSYN076AAXX  28004 48352 32562 20000 10242 20224 39923 40127 82500 333 20235 59007;EQDQ01  00002PRCP99
0167483520999992000102803004+17860+102720FM-12+0175VTUM V0209999C000012200019N0140001N1+03021+02371101331ADDAA199000091GF103991021051008001001051MA1999999099371MD1999999-0041REMSYN070AAXX  28034 48352 32564 30000 10302 20237 39937 40133 82505 333 59004;EQDQ01  00002PRCP99
0167483520999992000102806004+17860+102720FM-12+0175VTUM V0200501N002610450019N0150001N1+03231+02241101091ADDAA199000091GF106991031081008001031051MA1999999099141MD1999999-0021REMSYN070AAXX  28064 48352 32565 60505 10323 20224 39914 40109 83835 333 59002;EQDQ01  00002PRCP99
0167483520999992000102809004+17860+102720FM-12+0175VTUM V0200401N002610450019N0150001N1+03121+02281100901ADDAA199000091GF106991041081008001031051MA1999999098951MD1999999-0011REMSYN070AAXX  28094 48352 32565 60405 10312 20228 39895 40090 84835 333 59001;EQDQ01  00002PRCP99
0196483520999992000102812004+17860+102720FM-12+0175VTUM V0209999C000012200019N0130001N1+02741+02301101061ADDAA199000091GA1001+999999999GF100991001001999999001001KA1120M+03321MA1999999099081MD1999999+0011REMSYN070AAXX  28124 48352 32963 00000 10274 20230 39908 40106 333 10332 58001;EQDQ01  00002PRCP99
0167483520999992000102815004+17860+102720FM-12+0175VTUM V0209999C000012200019N0120001N1+02571+02291101261ADDAA199000091GF102991001001999999001051MA1999999099271MD1999999-0011REMSYN070AAXX  28154 48352 32962 20000 10257 20229 39927 40126 80005 333 59001;EQDQ01  00002PRCP99
0167483520999992000102818004+17860+102720FM-12+0175VTUM V0209999C000010075019N0110001N1+02521+02241101201ADDAA199000091GF106991051051008001001051MA1999999099201MD1999999-0071REMSYN070AAXX  28184 48352 32561 60000 10252 20224 39920 40120 85505 333 59007;EQDQ01  00002PRCP99
0167483520999992000102821004+17860+102720FM-12+0175VTUM V0209999C000012200019N0100001N1+02461+02251101071ADDAA199000091GF106991021051008001001061MA1999999099071MD1999999-0101REMSYN070AAXX  28214 48352 32560 60000 10246 20225 39907 40107 82506 333 59010;EQDQ01  00002PRCP99
0196483520999992000102900004+17860+102720FM-12+0175VTUM V0209999C000012200019N0100001N1+02381+02221101181ADDAA199000091GA1001+999999999GF100991001001999999001001KA1120N+02321MA1999999099181MD1999999-0091REMSYN070AAXX  29004 48352 32960 00000 10238 20222 39918 40118 333 20232 59009;EQDQ01  00002PRCP99
0167483520999992000102903004+17860+102720FM-12+0175VTUM V0209999C000012200019N0150001N1+03021+02311101271ADDAA199000091GF102991021001999999031001MA1999999099311MD1999999-0061REMSYN070AAXX  29034 48352 32965 20000 10302 20231 39931 40127 82030 333 59006;EQDQ01  00002PRCP99
0167483520999992000102906004+17860+102720FM-12+0175VTUM V0200901N002612200019N0150001N1+03181+01881101001ADDAA199000091GF103991031021008001001001MA1999999099051MD1999999-0091REMSYN070AAXX  29064 48352 32565 30905 10318 20188 39905 40100 83200 333 59009;EQDQ01  00002PRCP99
0167483520999992000102909004+17860+102720FM-12+0175VTUM V0200901N001512200019N0140001N1+03651+02111100791ADDAA199000091GF104991031081008001001051MA1999999098851MD1999999-0111REMSYN070AAXX  29094 48352 32564 40903 10365 20211 39885 40079 83805 333 59011;EQDQ01  00002PRCP99
0186483520999992000102912004+17860+102720FM-12+0175VTUM V0209999C000012200019N0130001N1+02821+02321100921ADDAA199000091GF104991031051008001001051KA1120M+03281MA1999999098961MD1999999-0141REMSYN076AAXX  29124 48352 32563 40000 10282 20232 39896 40092 83505 333 10328 59014;EQDQ01  00002PRCP99
0167483520999992000102915004+17860+102720FM-12+0175VTUM V0201201N001512200019N0120001N1+02601+02121101271ADDAA199000091GF104991031051008001001051MA1999999099281MD1999999+0011REMSYN070AAXX  29154 48352 32562 41203 10260 20212 39928 40127 83505 333 58001;EQDQ01  00002PRCP99
0177483520999992000102918004+17860+102720FM-12+0175VTUM V0201001N001512200019N0110001N1+02421+02001101211ADDAA199000091GA1001+999999999GF100991001001999999001001MA1999999099201MD1999999+0011REMSYN064AAXX  29184 48352 32961 01003 10242 20200 39920 40121 333 58001;EQDQ01  00002PRCP99
0177483520999992000102921004+17860+102720FM-12+0175VTUM V0209999C000012200019N0100001N1+02251+02021101101ADDAA199000091GA1001+999999999GF100991001001999999001001MA1999999099101MD1999999+0031REMSYN064AAXX  29214 48352 32960 00000 10225 20202 39910 40110 333 58003;EQDQ01  00002PRCP99
0186483520999992000103000004+17860+102720FM-12+0175VTUM V0200701N001010450019N0100001N1+02201+01881101251ADDAA199000091GF106991031051008001051061KA1120N+02141MA1999999099231MD1999999+0071REMSYN076AAXX  30004 48352 32560 60702 10220 20188 39923 40125 83556 333 20214 58007;EQDQ01  00002PRCP99
0167483520999992000103003004+17860+102720FM-12+0175VTUM V0200601N001010450019N0130001N1+02631+01881101231ADDAA199000091GF105991021051008001031001MA1999999099241MD1999999-0041REMSYN070AAXX  30034 48352 32563 50602 10263 20188 39924 40123 82530 333 59004;EQDQ01  00002PRCP99
0167483520999992000103006004+17860+102720FM-12+0175VTUM V0200701N001512200019N0150001N1+02901+01771100931ADDAA199000091GF102991021011008001001011MA1999999098981MD1999999-0071REMSYN070AAXX  30064 48352 32565 20703 10290 20177 39898 40093 82101 333 59007;EQDQ01  00002PRCP99
0167483520999992000103009004+17860+102720FM-12+0175VTUM V0209999C000012200019N0150001N1+02891+01871100751ADDAA199000091GF102991021011008001001001MA1999999098801MD1999999-0041REMSYN070AAXX  30094 48352 32565 20000 10289 20187 39880 40075 82100 333 59004;EQDQ01  00002PRCP99
0186483520999992000103012004+17860+102720FM-12+0175VTUM V0209999C000012200019N0130001N1+02551+02481100901ADDAA199000091GF101991011011008001001001KA1120M+03051MA1999999098931MD1999999-0021REMSYN076AAXX  30124 48352 32563 10000 10255 20248 39893 40090 81100 333 10305 59002;EQDQ01  00002PRCP99
0167483520999992000103018004+17860+102720FM-12+0175VTUM V0200901N001510450019N0110001N1+02441+02011101041ADDAA199000091GF106991041051008001051061MA1999999099031MD1999999-0171REMSYN070AAXX  30184 48352 32561 60903 10244 20201 39903 40104 84556 333 59017;EQDQ01  00002PRCP99
0167483520999992000103021004+17860+102720FM-12+0175VTUM V0200801N001512200019N0100001N1+02171+01951100981ADDAA199000091GF104991041051008001001001MA1999999098981MD1999999-0121REMSYN070AAXX  30214 48352 32560 40803 10217 20195 39898 40098 84500 333 59012;EQDQ01  00002PRCP99
0186483520999992000103100004+17860+102720FM-12+0175VTUM V0200401N001510075019N0100001N1+02161+01911101241ADDAA199000091GF108991051051008001071061KA1120N+02131MA1999999099221MD1999999-0011REMSYN076AAXX  31004 48352 32560 80403 10216 20191 39922 40124 85576 333 20213 59001;EQDQ01  00002PRCP99
0182483520999992000103103004+17860+102720FM-12+0175VTUM V0200501N002610075019N0120001N1+02281+01921101371ADDAA103000791AY161031AY221031GF108991061051008001071999MA1999999099361MD1999999+0141MW1021REMSYN082AAXX  31034 48352 21562 80505 10228 20192 39936 40137 70262 8657/ 333 58014 69907;
0194483520999992000103106004+17860+102720FM-12+0175VTUM V0200401N001510075019N0050001N1+02241+02061101181ADDAA103001091AY161061AY261061GF108991061051008001071999MA1999999099161MD1999999+0251MW1611REMSYN094AAXX  31064 48352 /1550 80403 10224 20206 39916 40118 60011 76166 8657/ 333 58025 60017 70010;
0182483520999992000103109004+17860+102720FM-12+0175VTUM V0200501N001510450019N0150001N1+02441+01861101031ADDAA103000191AY161031AY221031GF107991041081008001071061MA1999999099031MD1999999+0281MW1011REMSYN082AAXX  31094 48352 21565 70503 10244 20186 39903 40103 70162 84876 333 58028 69917;
0207483520999992000103112004+17860+102720FM-12+0175VTUM V0209999C000010075019N0130001N1+02281+01831101191ADDAA112001091AY161061AY221061GF108991051051008001071999KA1120M+02471MA1999999099181MD1999999+0291MW1021REMSYN094AAXX  31124 48352 11563 80000 10228 20183 39918 40119 60012 70262 8557/ 333 10247 58029 70011;
0148483520999992000103115004+17860+102720FM-12+0175VTUM V0209999C000010075019N0120001N1+02221+01661101351ADDAA199000021GF108991051051008001071061MA1999999099331MD1999999+0311REMSYN070AAXX  31154 48352 32562 80000 10222 20166 39933 40135 85576 333 58031;
0154483520999992000103118004+17860+102720FM-12+0175VTUM V0209999C000012200019N0110001N1+02181+01961101361ADDAA124001091GF106991031051008001001061MA1999999099341MD1999999+0321REMSYN076AAXX  31184 48352 32561 60000 10218 20196 39934 40136 83506 333 58032 70011;
0167483520999992000103121004+17860+102720FM-12+0175VTUM V0209999C000011050019N0100001N1+02161+02071101321ADDAA199000091GF107991041051008001001061MA1999999099301MD1999999+0341REMSYN070AAXX  31214 48352 32560 70000 10216 20207 39930 40132 84506 333 58034;EQDQ01  00002PRCP99
0173483520999992000110100004+17860+102720FM-12+0175VTUM V0209999C000012200019N0100001N1+02161+02041101481ADDAA124001091GF103991021051008001031001KA1120N+02101MA1999999099471MD1999999+0241REMSYN082AAXX  01004 48352 32560 30000 10216 20204 39947 40148 82530 333 20210 58024 70011;
0167483520999992000110103004+17860+102720FM-12+0175VTUM V0200501N001012200019N0130001N1+02611+01351101571ADDAA199000091GF102991021011008001001001MA1999999099581MD1999999+0201REMSYN070AAXX  01034 48352 32563 20502 10261 20135 39958 40157 82100 333 58020;EQDQ01  00002PRCP99
0164483520999992000110106004+17860+102720FM-12+0175VTUM V0209999C000012200019N0140001N1+02781+01351101231ADDAA124000191GA1001+999999999GF100991001001999999001001MA1999999099251MD1999999+0051REMSYN070AAXX  01064 48352 32964 00000 10278 20135 39925 40123 333 58005 70001;
0167483520999992000110109004+17860+102720FM-12+0175VTUM V0200901N001012200019N0130001N1+02821+01571101111ADDAA199000091GF102991021051008001001001MA1999999099141MD1999999+0081REMSYN070AAXX  01094 48352 32563 20902 10282 20157 39914 40111 82500 333 58008;EQDQ01  00002PRCP99
0177483520999992000110115004+17860+102720FM-12+0175VTUM V0200901N001012200019N0110001N1+02021+01421101621ADDAA199000091GA1001+999999999GF100991001001999999001001MA1999999099591MD1999999+0271REMSYN064AAXX  01154 48352 32961 00902 10202 20142 39959 40162 333 58027;EQDQ01  00002PRCP99
0177483520999992000110118004+17860+102720FM-12+0175VTUM V0209999C000012200019N0100001N1+01821+01321101571ADDAA199000091GA1001+999999999GF100991001001999999001001MA1999999099521MD1999999+0211REMSYN064AAXX  01184 48352 32960 00000 10182 20132 39952 40157 333 58021;EQDQ01  00002PRCP99
0177483520999992000110121004+17860+102720FM-12+0175VTUM V0209999C000012200019N0100001N1+01601+01271101571ADDAA199000091GA1001+999999999GF100991001001999999001001MA1999999099511MD1999999+0251REMSYN064AAXX  01214 48352 32960 00000 10160 20127 39951 40157 333 58025;EQDQ01  00002PRCP99
0177483520999992000110206004+17860+102720FM-12+0175VTUM V0200301N001512200019N0130001N1+02661+00961101461ADDAA199000091GA1001+999999999GF100991001001999999001001MA1999999099471MD1999999+0231REMSYN064AAXX  02064 48352 32963 00303 10266 20096 39947 40146 333 58023;EQDQ01  00002PRCP99
0177483520999992000110209004+17860+102720FM-12+0175VTUM V0200401N001012200019N0150001N1+02661+01061101271ADDAA199000091GA1001+999999999GF100991001001999999001001MA1999999099291MD1999999+0161REMSYN064AAXX  02094 48352 32965 00402 10266 20106 39929 40127 333 58016;EQDQ01  00002PRCP99
0196483520999992000110212004+17860+102720FM-12+0175VTUM V0209999C000012200019N0130001N1+02151+01601101391ADDAA199000091GA1001+999999999GF100991001001999999001001KA1120M+02781MA1999999099371MD1999999+0011REMSYN070AAXX  02124 48352 32963 00000 10215 20160 39937 40139 333 10278 58001;EQDQ01  00002PRCP99
0177483520999992000110215004+17860+102720FM-12+0175VTUM V0209999C000012200019N0120001N1+01891+01501101571ADDAA199000091GA1001+999999999GF100991001001999999001001MA1999999099531MD1999999-0051REMSYN064AAXX  02154 48352 32962 00000 10189 20150 39953 40157 333 59005;EQDQ01  00002PRCP99
0177483520999992000110218004+17860+102720FM-12+0175VTUM V0209999C000012200019N0110001N1+01801+01631101611ADDAA199000091GA1001+999999999GF100991001001999999001001MA1999999099561MD1999999+0041REMSYN064AAXX  02184 48352 32961 00000 10180 20163 39956 40161 333 58004;EQDQ01  00002PRCP99
0177483520999992000110221004+17860+102720FM-12+0175VTUM V0209999C000012200019N0100001N1+01601+01391101571ADDAA199000091GA1001+999999999GF100991001001999999001001MA1999999099511MD1999999+0001REMSYN064AAXX  02214 48352 32960 00000 10160 20139 39951 40157 333 58000;EQDQ01  00002PRCP99
0224483520999992000110300004+17860+102720FM-12+0175VTUM V0209999C000012200019N0070001N1+01571+01541101691ADDAA199000091AY101061AY201061GA1001+999999999GF100991001001999999001001KA1120N+01461MA1999999099631MD1999999+0001MW1101REMSYN076AAXX  03004 48352 31957 00000 10157 20154 39963 40169 71000 333 20146 58000;EQDQ01  00002PRCP99
0177483520999992000110303004+17860+102720FM-12+0175VTUM V0200501N002612200019N0120001N1+02311+01411101831ADDAA199000091GA1001+999999999GF100991001001999999001001MA1999999099811MD1999999+0031REMSYN064AAXX  03034 48352 32962 00505 10231 20141 39981 40183 333 58003;EQDQ01  00002PRCP99
0177483520999992000110306004+17860+102720FM-12+0175VTUM V0209999C000012200019N0110001N1+02651+01261101421ADDAA199000091GA1001+999999999GF100991001001999999001001MA1999999099441MD1999999-0041REMSYN064AAXX  03064 48352 32961 00000 10265 20126 39944 40142 333 59004;EQDQ01  00002PRCP99
0177483520999992000110309004+17860+102720FM-12+0175VTUM V0209999C000012200019N0110001N1+02731+00941101321ADDAA199000091GA1001+999999999GF100991001001999999001001MA1999999099331MD1999999+0051REMSYN064AAXX  03094 48352 32961 00000 10273 20094 39933 40132 333 58005;EQDQ01  00002PRCP99
0196483520999992000110312004+17860+102720FM-12+0175VTUM V0209999C000012200019N0100001N1+02071+01591101481ADDAA199000091GA1001+999999999GF100991001001999999001001KA1120M+02821MA1999999099461MD1999999+0091REMSYN070AAXX  03124 48352 32960 00000 10207 20159 39946 40148 333 10282 58009;EQDQ01  00002PRCP99
0205483520999992000110315004+17860+102720FM-12+0175VTUM V0209999C000012200019N0080001N1+01851+01541101581ADDAA199000091AY101031AY201031GA1001+999999999GF100991001001999999001001MA1999999099541MD1999999+0011MW1101REMSYN070AAXX  03154 48352 31958 00000 10185 20154 39954 40158 71000 333 58001;EQDQ01  00002PRCP99
0205483520999992000110318004+17860+102720FM-12+0175VTUM V0209999C000012200019N0070001N1+01751+01561101571ADDAA199000091AY101061AY201061GA1001+999999999GF100991001001999999001001MA1999999099531MD1999999-0041MW1101REMSYN070AAXX  03184 48352 31957 00000 10175 20156 39953 40157 71000 333 59004;EQDQ01  00002PRCP99
0205483520999992000110321004+17860+102720FM-12+0175VTUM V0209999C000012200019N0050001N1+01651+01491101571ADDAA199000091AY101031AY201031GA1001+999999999GF100991001001999999001001MA1999999099521MD1999999+0001MW1101REMSYN070AAXX  03214 48352 31950 00000 10165 20149 39952 40157 71000 333 58000;EQDQ01  00002PRCP99
0224483520999992000110400004+17860+102720FM-12+0175VTUM V0209999C000012200019N0040001N1+01621+01431101771ADDAA199000091AY101061AY201061GA1001+999999999GF100991001001999999001001KA1120N+01531MA1999999099701MD1999999+0081MW1101REMSYN076AAXX  04004 48352 31940 00000 10162 20143 39970 40177 71000 333 20153 58008;EQDQ01  00002PRCP99
0177483520999992000110403004+17860+102720FM-12+0175VTUM V0209999C000012200019N0100001N1+02351+01611101831ADDAA199000091GA1001+999999999GF100991001001999999001001MA1999999099821MD1999999+0001REMSYN064AAXX  04034 48352 32960 00000 10235 20161 39982 40183 333 58000;EQDQ01  00002PRCP99
0177483520999992000110406004+17860+102720FM-12+0175VTUM V0209999C000012200019N0100001N1+02701+01491101461ADDAA199000091GA1001+999999999GF100991001001999999001001MA1999999099481MD1999999+0041REMSYN064AAXX  04064 48352 32960 00000 10270 20149 39948 40146 333 58004;EQDQ01  00002PRCP99
0177483520999992000110409004+17860+102720FM-12+0175VTUM V0209999C000012200019N0100001N1+02751+01371101261ADDAA199000091GA1001+999999999GF100991001001999999001001MA1999999099291MD1999999-0061REMSYN064AAXX  04094 48352 32960 00000 10275 20137 39929 40126 333 59006;EQDQ01  00002PRCP99
0224483520999992000110412004+17860+102720FM-12+0175VTUM V0209999C000012200019N0080001N1+02231+01691101431ADDAA199000091AY101061AY201061GA1001+999999999GF100991001001999999001001KA1120M+02871MA1999999099411MD1999999-0051MW1101REMSYN076AAXX  04124 48352 31958 00000 10223 20169 39941 40143 71000 333 10287 59005;EQDQ01  00002PRCP99
0205483520999992000110415004+17860+102720FM-12+0175VTUM V0209999C000012200019N0070001N1+01961+01701101581ADDAA199000091AY101031AY201031GA1001+999999999GF100991001001999999001001MA1999999099551MD1999999+0001MW1101REMSYN070AAXX  04154 48352 31957 00000 10196 20170 39955 40158 71000 333 58000;EQDQ01  00002PRCP99
0205483520999992000110418004+17860+102720FM-12+0175VTUM V0209999C000012200019N0060001N1+01771+01651101541ADDAA199000091AY101061AY201061GA1001+999999999GF100991001001999999001001MA1999999099501MD1999999-0051MW1101REMSYN070AAXX  04184 48352 31956 00000 10177 20165 39950 40154 71000 333 59005;EQDQ01  00002PRCP99
0205483520999992000110421004+17860+102720FM-12+0175VTUM V0209999C000012200019N0050001N1+01671+01581101441ADDAA199000091AY101031AY201031GA1001+999999999GF100991001001999999001001MA1999999099391MD1999999-0131MW1101REMSYN070AAXX  04214 48352 31950 00000 10167 20158 39939 40144 71000 333 59013;EQDQ01  00002PRCP99
0224483520999992000110500004+17860+102720FM-12+0175VTUM V0209999C000012200019N0060001N1+01651+01511101521ADDAA199000091AY101061AY201061GA1001+999999999GF100991001001999999001001KA1120N+01561MA1999999099471MD1999999-0251MW1101REMSYN076AAXX  05004 48352 31956 00000 10165 20151 39947 40152 71000 333 20156 59025;EQDQ01  00002PRCP99
0177483520999992000110503004+17860+102720FM-12+0175VTUM V0209999C000012200019N0120001N1+02411+01431101531ADDAA199000091GA1001+999999999GF100991001001999999001001MA1999999099531MD1999999-0301REMSYN064AAXX  05034 48352 32962 00000 10241 20143 39953 40153 333 59030;EQDQ01  00002PRCP99
0177483520999992000110506004+17860+102720FM-12+0175VTUM V0209999C000012200019N0130001N1+02771+01561101141ADDAA199000091GA1001+999999999GF100991001001999999001001MA1999999099161MD1999999-0321REMSYN064AAXX  05064 48352 32963 00000 10277 20156 39916 40114 333 59032;EQDQ01  00002PRCP99
0177483520999992000110509004+17860+102720FM-12+0175VTUM V0209999C000012200019N0120001N1+02811+01621100911ADDAA199000091GA1001+999999999GF100991001001999999001001MA1999999098941MD1999999-0351REMSYN064AAXX  05094 48352 32962 00000 10281 20162 39894 40091 333 59035;EQDQ01  00002PRCP99
0196483520999992000110512004+17860+102720FM-12+0175VTUM V0209999C000012200019N0100001N1+02201+01661101061ADDAA199000091GA1001+999999999GF100991001001999999001001KA1120M+02951MA1999999099051MD1999999-0371REMSYN070AAXX  05124 48352 32960 00000 10220 20166 39905 40106 333 10295 59037;EQDQ01  00002PRCP99
0205483520999992000110515004+17860+102720FM-12+0175VTUM V0209999C000012200019N0080001N1+02021+01741101151ADDAA199000091AY101031AY201031GA1001+999999999GF100991001001999999001001MA1999999099121MD1999999-0431MW1101REMSYN070AAXX  05154 48352 31958 00000 10202 20174 39912 40115 71000 333 59043;EQDQ01  00002PRCP99
0205483520999992000110521004+17860+102720FM-12+0175VTUM V0209999C000012200019N0060001N1+01731+01631101051ADDAA199000091AY101031AY201031GA1001+999999999GF100991001001999999001001MA1999999099001MD1999999-0391MW1101REMSYN070AAXX  05214 48352 31956 00000 10173 20163 39900 40105 71000 333 59039;EQDQ01  00002PRCP99
0224483520999992000110600004+17860+102720FM-12+0175VTUM V0209999C000012200019N0040001N1+01751+01701101151ADDAA199000091AY101061AY201061GA1001+999999999GF100991001001999999001001KA1120N+01651MA1999999099111MD1999999-0371MW1101REMSYN076AAXX  06004 48352 31940 00000 10175 20170 39911 40115 71000 333 20165 59037;EQDQ01  00002PRCP99
0205483520999992000110603004+17860+102720FM-12+0175VTUM V0209999C000012200019N0080001N1+02561+01751101251ADDAA199000091AY101031AY201031GA1001+999999999GF100991001001999999001001MA1999999099261MD1999999-0281MW1051REMSYN070AAXX  06034 48352 31958 00000 10256 20175 39926 40125 70500 333 59028;EQDQ01  00002PRCP99
0177483520999992000110606004+17860+102720FM-12+0175VTUM V0209999C000012200019N0120001N1+02951+01661100911ADDAA199000091GA1001+999999999GF100991001001999999001001MA1999999098961MD1999999-0231REMSYN064AAXX  06064 48352 32962 00000 10295 20166 39896 40091 333 59023;EQDQ01  00002PRCP99
0177483520999992000110609004+17860+102720FM-12+0175VTUM V0209999C000012200019N0110001N1+02891+01771100771ADDAA199000091GA1001+999999999GF100991001001999999001001MA1999999098811MD1999999-0141REMSYN064AAXX  06094 48352 32961 00000 10289 20177 39881 40077 333 59014;EQDQ01  00002PRCP99
0224483520999992000110612004+17860+102720FM-12+0175VTUM V0209999C000012200019N0080001N1+02401+01971100911ADDAA199000091AY101061AY201061GA1001+999999999GF100991001001999999001001KA1120M+03061MA1999999098931MD1999999-0151MW1101REMSYN076AAXX  06124 48352 31958 00000 10240 20197 39893 40091 71000 333 10306 59015;EQDQ01  00002PRCP99
0205483520999992000110615004+17860+102720FM-12+0175VTUM V0209999C000012200019N0070001N1+02201+01951101051ADDAA199000091AY101031AY201031GA1001+999999999GF100991001001999999001001MA1999999099031MD1999999-0101MW1101REMSYN070AAXX  06154 48352 31957 00000 10220 20195 39903 40105 71000 333 59010;EQDQ01  00002PRCP99
0205483520999992000110618004+17860+102720FM-12+0175VTUM V0209999C000012200019N0060001N1+02051+01971101021ADDAA199000091AY101061AY201061GA1001+999999999GF100991001001999999001001MA1999999099001MD1999999-0031MW1101REMSYN070AAXX  06184 48352 31956 00000 10205 20197 39900 40102 71000 333 59003;EQDQ01  00002PRCP99
0205483520999992000110621004+17860+102720FM-12+0175VTUM V0209999C000012200019N0060001N1+02051+01971101021ADDAA199000091AY101031AY201031GA1001+999999999GF100991001001999999001001MA1999999099001MD1999999-0031MW1101REMSYN070AAXX  06214 48352 31956 00000 10205 20197 39900 40102 71000 333 59003;EQDQ01  00002PRCP99
0224483520999992000110700004+17860+102720FM-12+0175VTUM V0209999C000012200019N0050001N1+01951+01821101271ADDAA199000091AY101061AY201061GA1001+999999999GF100991001001999999001001KA1120N+01851MA1999999099241MD1999999+0121MW1101REMSYN076AAXX  07004 48352 31950 00000 10195 20182 39924 40127 71000 333 20185 58012;EQDQ01  00002PRCP99
0205483520999992000110703004+17860+102720FM-12+0175VTUM V0209999C000012200019N0080001N1+02681+01851101391ADDAA199000091AY101031AY201031GA1001+999999999GF100991001001999999001001MA1999999099401MD1999999+0141MW1051REMSYN070AAXX  07034 48352 31958 00000 10268 20185 39940 40139 70500 333 58014;EQDQ01  00002PRCP99
0195483520999992000110706004+17860+102720FM-12+0175VTUM V0209999C000012200019N0090001N1+02991+01881101111ADDAA199000091AY101061AY201061GF102991021021008001001001MA1999999099151MD1999999+0201MW1051REMSYN076AAXX  07064 48352 31559 20000 10299 20188 39915 40111 70500 82200 333 58020;EQDQ01  00002PRCP99
0195483520999992000110709004+17860+102720FM-12+0175VTUM V0209999C000012200019N0090001N1+02971+01601100941ADDAA199000091AY101031AY201031GF102991021051008001001001MA1999999098991MD1999999+0171MW1051REMSYN076AAXX  07094 48352 31559 20000 10297 20160 39899 40094 70500 82500 333 58017;EQDQ01  00002PRCP99
0205483520999992000110715004+17860+102720FM-12+0175VTUM V0209999C000012200019N0070001N1+02261+01961101181ADDAA199000091AY101031AY201031GA1001+999999999GF100991001001999999001001MA1999999099171MD1999999+0131MW1101REMSYN070AAXX  07154 48352 31957 00000 10226 20196 39917 40118 71000 333 58013;EQDQ01  00002PRCP99
0205483520999992000110718004+17860+102720FM-12+0175VTUM V0209999C000012200019N0070001N1+02151+01951101081ADDAA199000091AY101061AY201061GA1001+999999999GF100991001001999999001001MA1999999099071MD1999999+0061MW1101REMSYN070AAXX  07184 48352 31957 00000 10215 20195 39907 40108 71000 333 58006;EQDQ01  00002PRCP99
0205483520999992000110721004+17860+102720FM-12+0175VTUM V0209999C000012200019N0060001N1+02021+01911101101ADDAA199000091AY101031AY201031GA1001+999999999GF100991001001999999001001MA1999999099071MD1999999+0071MW1101REMSYN070AAXX  07214 48352 31956 00000 10202 20191 39907 40110 71000 333 58007;EQDQ01  00002PRCP99
0224483520999992000110800004+17860+102720FM-12+0175VTUM V0209999C000012200019N0030001N1+02061+01971101271ADDAA199000091AY101061AY201061GA1001+999999999GF100991001001999999001001KA1120N+01951MA1999999099271MD1999999+0021MW1101REMSYN076AAXX  08004 48352 31930 00000 10206 20197 39927 40127 71000 333 20195 58002;EQDQ01  00002PRCP99
0195483520999992000110806004+17860+102720FM-12+0175VTUM V0209999C000012200019N0090001N1+02951+01661101021ADDAA199000091AY101061AY201061GF103991031011008001001001MA1999999099061MD1999999-0091MW1051REMSYN076AAXX  08064 48352 31559 30000 10295 20166 39906 40102 70500 83100 333 59009;EQDQ01  00002PRCP99
0195483520999992000110809004+17860+102720FM-12+0175VTUM V0209999C000012200019N0090001N1+02971+01801100811ADDAA199000091AY101031AY201031GF102991021011008001001001MA1999999098861MD1999999-0131MW1051REMSYN076AAXX  08094 48352 31559 20000 10297 20180 39886 40081 70500 82100 333 59013;EQDQ01  00002PRCP99
0224483520999992000110812004+17860+102720FM-12+0175VTUM V0209999C000012200019N0080001N1+02521+02001101011ADDAA199000091AY101061AY201061GA1001+999999999GF100991001001999999001001KA1120M+03121MA1999999099011MD1999999-0051MW1101REMSYN076AAXX  08124 48352 31958 00000 10252 20200 39901 40101 71000 333 10312 59005;EQDQ01  00002PRCP99
0205483520999992000110815004+17860+102720FM-12+0175VTUM V0209999C000012200019N0070001N1+02291+02031101161ADDAA199000091AY101031AY201031GA1001+999999999GF100991001001999999001001MA1999999099151MD1999999-0021MW1101REMSYN070AAXX  08154 48352 31957 00000 10229 20203 39915 40116 71000 333 59002;EQDQ01  00002PRCP99
0195483520999992000110818004+17860+102720FM-12+0175VTUM V0209999C000019999999N0060001N1+02261+02061101101ADDAA199000091AY111061AY201061GF106991061001999999031001MA1999999099091MD1999999+0021MW1101REMSYN076AAXX  08184 48352 31956 60000 10226 20206 39909 40110 71010 86030 333 58002;EQDQ01  00002PRCP99
0195483520999992000110821004+17860+102720FM-12+0175VTUM V0209999C000019999999N0050001N1+02211+01811101101ADDAA199000091AY121031AY221031GF106991041051999999031061MA1999999099081MD1999999+0011MW1101REMSYN076AAXX  08214 48352 31950 60000 10221 20181 39908 40110 71022 84536 333 58001;EQDQ01  00002PRCP99
0214483520999992000110900004+17860+102720FM-12+0175VTUM V0209999C000010075019N0050001N1+02171+01771101301ADDAA199000091AY121061AY221061GF108991051051008001031061KA1120N+02161MA1999999099281MD1999999+0011MW1101REMSYN082AAXX  09004 48352 31550 80000 10217 20177 39928 40130 71022 85536 333 20216 58001;EQDQ01  00002PRCP99
0177483520999992000110903004+17860+102720FM-12+0175VTUM V0200401N001512200019N0120001N1+02741+01571101371ADDAA199000091GA1001+999999999GF100991001001999999001001MA1999999099391MD1999999+0011REMSYN064AAXX  09034 48352 32962 00403 10274 20157 39939 40137 333 58001;EQDQ01  00002PRCP99
0167483520999992000110909004+17860+102720FM-12+0175VTUM V0209999C000012200019N0120001N1+02901+01611100861ADDAA199000091GF101991011011008001001001MA1999999098911MD1999999+0051REMSYN070AAXX  09094 48352 32562 10000 10290 20161 39891 40086 81100 333 58005;EQDQ01  00002PRCP99
0214483520999992000110912004+17860+102720FM-12+0175VTUM V0209999C000012200019N0090001N1+02471+01981101061ADDAA199000091AY101061AY201061GF101991001001999999001011KA1120M+03041MA1999999099061MD1999999+0051MW1101REMSYN082AAXX  09124 48352 31959 10000 10247 20198 39906 40106 71000 80001 333 10304 58005;EQDQ01  00002PRCP99
0205483520999992000110915004+17860+102720FM-12+0175VTUM V0209999C000012200019N0080001N1+02241+01991101241ADDAA199000091AY101031AY201031GA1001+999999999GF100991001001999999001001MA1999999099221MD1999999+0081MW1101REMSYN070AAXX  09154 48352 31958 00000 10224 20199 39922 40124 71000 333 58008;EQDQ01  00002PRCP99
0205483520999992000110918004+17860+102720FM-12+0175VTUM V0209999C000012200019N0070001N1+02071+01951101251ADDAA199000091AY101061AY201061GA1001+999999999GF100991001001999999001001MA1999999099221MD1999999+0151MW1101REMSYN070AAXX  09184 48352 31957 00000 10207 20195 39922 40125 71000 333 58015;EQDQ01  00002PRCP99
0205483520999992000110921004+17860+102720FM-12+0175VTUM V0209999C000012200019N0060001N1+02001+01901101321ADDAA199000091AY101031AY201031GA1001+999999999GF100991001001999999001001MA1999999099301MD1999999+0221MW1101REMSYN070AAXX  09214 48352 31956 00000 10200 20190 39930 40132 71000 333 58022;EQDQ01  00002PRCP99
0224483520999992000111000004+17860+102720FM-12+0175VTUM V0209999C000012200019N0030001N1+01991+01851101501ADDAA199000091AY101061AY201061GA1001+999999999GF100991001001999999001001KA1120N+01901MA1999999099471MD1999999+0201MW1101REMSYN076AAXX  10004 48352 31930 00000 10199 20185 39947 40150 71000 333 20190 58020;EQDQ01  00002PRCP99
0205483520999992000111003004+17860+102720FM-12+0175VTUM V0200401N001512200019N0080001N1+02661+01791101591ADDAA199000091AY101031AY201031GA1001+999999999GF100991001001999999001001MA1999999099611MD1999999+0221MW1051REMSYN070AAXX  10034 48352 31958 00403 10266 20179 39961 40159 70500 333 58022;EQDQ01  00002PRCP99
0195483520999992000111006004+17860+102720FM-12+0175VTUM V0200701N002112200019N0090001N1+03051+01611101251ADDAA199000091AY101061AY201061GF102991021011008001001001MA1999999099301MD1999999+0211MW1051REMSYN076AAXX  10064 48352 31559 20704 10305 20161 39930 40125 70500 82100 333 58021;EQDQ01  00002PRCP99
0214483520999992000111012004+17860+102720FM-12+0175VTUM V0209999C000010075019N0080001N1+02621+02071101311ADDAA199000091AY121061AY211061GF106991061011008001001001KA1120M+03131MA1999999099321MD1999999+0251MW1051REMSYN082AAXX  10124 48352 31558 60000 10262 20207 39932 40131 70521 86100 333 10313 58025;EQDQ01  00002PRCP99
0195483520999992000111015004+17860+102720FM-12+0175VTUM V0209999C000010450019N0070001N1+02491+02001101471ADDAA199000091AY121031AY221031GF106991021011008001031001MA1999999099481MD1999999+0231MW1101REMSYN076AAXX  10154 48352 31557 60000 10249 20200 39948 40147 71022 82130 333 58023;EQDQ01  00002PRCP99
0205483520999992000111018004+17860+102720FM-12+0175VTUM V0209999C000012200019N0060001N1+02351+01911101481ADDAA199000091AY121061AY211061GA1001+999999999GF100991001001999999001001MA1999999099481MD1999999+0231MW1101REMSYN070AAXX  10184 48352 31956 00000 10235 20191 39948 40148 71021 333 58023;EQDQ01  00002PRCP99
0205483520999992000111021004+17860+102720FM-12+0175VTUM V0209999C000012200019N0050001N1+02101+01881101451ADDAA199000091AY101031AY201031GA1001+999999999GF100991001001999999001001MA1999999099431MD1999999+0131MW1101REMSYN070AAXX  10214 48352 31950 00000 10210 20188 39943 40145 71000 333 58013;EQDQ01  00002PRCP99
0224483520999992000111100004+17860+102720FM-12+0175VTUM V0209999C000012200019N0040001N1+02081+01871101581ADDAA199000091AY101061AY201061GA1001+999999999GF100991001001999999001001KA1120N+02001MA1999999099551MD1999999+0081MW1101REMSYN076AAXX  11004 48352 31940 00000 10208 20187 39955 40158 71000 333 20200 58008;EQDQ01  00002PRCP99
0205483520999992000111103004+17860+102720FM-12+0175VTUM V0209999C000012200019N0070001N1+02701+02001101631ADDAA199000091AY101031AY201031GA1001+999999999GF100991001001999999001001MA1999999099651MD1999999+0041MW1101REMSYN070AAXX  11034 48352 31957 00000 10270 20200 39965 40163 71000 333 58004;EQDQ01  00002PRCP99
0195483520999992000111106004+17860+102720FM-12+0175VTUM V0209999C000012200019N0090001N1+03051+01901101201ADDAA199000091AY101061AY201061GF101991011011008001001001MA1999999099251MD1999999-0051MW1051REMSYN076AAXX  11064 48352 31559 10000 10305 20190 39925 40120 70500 81100 333 59005;EQDQ01  00002PRCP99
0205483520999992000111109004+17860+102720FM-12+0175VTUM V0209999C000012200019N0090001N1+03111+01771101021ADDAA199000091AY101031AY201031GA1001+999999999GF100991001001999999001001MA1999999099071MD1999999-0121MW1051REMSYN070AAXX  11094 48352 31959 00000 10311 20177 39907 40102 70500 333 59012;EQDQ01  00002PRCP99
0224483520999992000111112004+17860+102720FM-12+0175VTUM V0209999C000012200019N0070001N1+02581+02001101181ADDAA199000091AY101061AY201061GA1001+999999999GF100991001001999999001001KA1120M+03181MA1999999099191MD1999999-0131MW1101REMSYN076AAXX  11124 48352 31957 00000 10258 20200 39919 40118 71000 333 10318 59013;EQDQ01  00002PRCP99
0195483520999992000111115004+17860+102720FM-12+0175VTUM V0200701N001519999999N0060001N1+02441+01891101371ADDAA199000091AY111031AY201031GF105991051001999999051001MA1999999099371MD1999999-0101MW1101REMSYN076AAXX  11154 48352 31956 50703 10244 20189 39937 40137 71010 85050 333 59010;EQDQ01  00002PRCP99
0195483520999992000111118004+17860+102720FM-12+0175VTUM V0209999C000012200019N0060001N1+02231+01871101371ADDAA199000091AY111061AY211061GF101991011011008001001001MA1999999099361MD1999999-0111MW1101REMSYN076AAXX  11184 48352 31556 10000 10223 20187 39936 40137 71011 81100 333 59011;EQDQ01  00002PRCP99
0214483520999992000111200004+17860+102720FM-12+0175VTUM V0209999C000010450019N0060001N1+02101+01811101451ADDAA199000091AY121061AY221061GF107991021051008001031001KA1120N+02071MA1999999099431MD1999999-0131MW1101REMSYN082AAXX  12004 48352 31556 70000 10210 20181 39943 40145 71022 82530 333 20207 59013;EQDQ01  00002PRCP99
0195483520999992000111203004+17860+102720FM-12+0175VTUM V0200101N003110450019N0090001N1+02571+01951101541ADDAA199000091AY121031AY221031GF107991031051008001031051MA1999999099551MD1999999-0091MW1101REMSYN076AAXX  12034 48352 31559 70106 10257 20195 39955 40154 71022 83535 333 59009;EQDQ01  00002PRCP99
0167483520999992000111206004+17860+102720FM-12+0175VTUM V0200501N002612200019N0120001N1+02981+01791101131ADDAA199000091GF101991011011008001001001MA1999999099171MD1999999-0071REMSYN070AAXX  12064 48352 32562 10505 10298 20179 39917 40113 81100 333 59007;EQDQ01  00002PRCP99
0177483520999992000111209004+17860+102720FM-12+0175VTUM V0200401N001512200019N0110001N1+03021+01691100941ADDAA199000091GA1001+999999999GF100991001001999999001001MA1999999098991MD1999999-0081REMSYN064AAXX  12094 48352 32961 00403 10302 20169 39899 40094 333 59008;EQDQ01  00002PRCP99
0186483520999992000111212004+17860+102720FM-12+0175VTUM V0200301N001512200019N0100001N1+02601+01851101131ADDAA199000091GF101991011011008001001001KA1120M+03131MA1999999099151MD1999999-0051REMSYN076AAXX  12124 48352 32560 10303 10260 20185 39915 40113 81100 333 10313 59005;EQDQ01  00002PRCP99
0195483520999992000111215004+17860+102720FM-12+0175VTUM V0200201N001512200019N0080001N1+02241+01611101391ADDAA199000091AY101031AY201031GF101991011011008001001001MA1999999099371MD1999999+0021MW1101REMSYN076AAXX  12154 48352 31558 10203 10224 20161 39937 40139 71000 81100 333 58002;EQDQ01  00002PRCP99
0195483520999992000111218004+17860+102720FM-12+0175VTUM V0200401N001512200019N0080001N1+02101+01451101321ADDAA199000091AY101061AY201061GF102991021051008001001001MA1999999099291MD1999999-0051MW1101REMSYN076AAXX  12184 48352 31558 20403 10210 20145 39929 40132 71000 82500 333 59005;EQDQ01  00002PRCP99
0195483520999992000111221004+17860+102720FM-12+0175VTUM V0209999C000010075019N0070001N1+02011+01481101301ADDAA199000091AY111031AY201031GF106991051051008001001051MA1999999099271MD1999999+0001MW1101REMSYN076AAXX  12214 48352 31557 60000 10201 20148 39927 40130 71010 85505 333 58000;EQDQ01  00002PRCP99
0205483520999992000111303004+17860+102720FM-12+0175VTUM V0200201N001512200019N0080001N1+02501+01561101511ADDAA199000091AY101031AY201031GA1001+999999999GF100991001001999999001001MA1999999099511MD1999999-0031MW1051REMSYN070AAXX  13034 48352 31958 00203 10250 20156 39951 40151 70500 333 59003;EQDQ01  00002PRCP99
0205483520999992000111306004+17860+102720FM-12+0175VTUM V0200301N001012200019N0080001N1+02821+01651101121ADDAA199000091AY101061AY201061GA1001+999999999GF100991001001999999001001MA1999999099141MD1999999-0011MW1051REMSYN070AAXX  13064 48352 31958 00302 10282 20165 39914 40112 70500 333 59001;EQDQ01  00002PRCP99
0195483520999992000111309004+17860+102720FM-12+0175VTUM V0200501N001010450019N0070001N1+02891+01581100961ADDAA199000091AY111031AY201031GF106991041051008001031001MA1999999098991MD1999999+0021MW1051REMSYN076AAXX  13094 48352 31557 60502 10289 20158 39899 40096 70510 84530 333 58002;EQDQ01  00002PRCP99
0214483520999992000111312004+17860+102720FM-12+0175VTUM V0209999C000012200019N0070001N1+02521+01891101081ADDAA199000091AY111061AY201061GF103991021051008001031001KA1120M+02971MA1999999099091MD1999999-0051MW1101REMSYN082AAXX  13124 48352 31557 30000 10252 20189 39909 40108 71010 82530 333 10297 59005;EQDQ01  00002PRCP99
0195483520999992000111321004+17860+102720FM-12+0175VTUM V0209999C000012200019N0050001N1+02051+01651101211ADDAA199000091AY111031AY201031GF102991021051008001001001MA1999999099191MD1999999-0091MW1101REMSYN076AAXX  13214 48352 31550 20000 10205 20165 39919 40121 71010 82500 333 59009;EQDQ01  00002PRCP99
0224483520999992000111400004+17860+102720FM-12+0175VTUM V0209999C000012200019N0060001N1+01971+01761101371ADDAA199000091AY111061AY201061GA1001+999999999GF100991001001999999001001KA1120N+01851MA1999999099341MD1999999-0091MW1101REMSYN076AAXX  14004 48352 31956 00000 10197 20176 39934 40137 71010 333 20185 59009;EQDQ01  00002PRCP99
0205483520999992000111403004+17860+102720FM-12+0175VTUM V0203601N001512200019N0090001N1+02581+01771101451ADDAA199000091AY101031AY201031GA1001+999999999GF100991001001999999001001MA1999999099461MD1999999-0061MW1051REMSYN070AAXX  14034 48352 31959 03603 10258 20177 39946 40145 70500 333 59006;EQDQ01  00002PRCP99
0195483520999992000111406004+17860+102720FM-12+0175VTUM V0209999C000012200019N0090001N1+02991+01901101091ADDAA199000091AY101061AY201061GF101991011011008001001001MA1999999099131MD1999999-0031MW1051REMSYN076AAXX  14064 48352 31559 10000 10299 20190 39913 40109 70500 81100 333 59003;EQDQ01  00002PRCP99
0205483520999992000111409004+17860+102720FM-12+0175VTUM V0209999C000012200019N0090001N1+03031+01871100911ADDAA199000091AY101031AY201031GA1001+999999999GF100991001001999999001001MA1999999098961MD1999999-0051MW1051REMSYN070AAXX  14094 48352 31959 00000 10303 20187 39896 40091 70500 333 59005;EQDQ01  00002PRCP99
0224483520999992000111412004+17860+102720FM-12+0175VTUM V0209999C000012200019N0080001N1+02581+02031101101ADDAA199000091AY101061AY201061GA1001+999999999GF100991001001999999001001KA1120M+03121MA1999999099111MD1999999+0021MW1101REMSYN076AAXX  14124 48352 31958 00000 10258 20203 39911 40110 71000 333 10312 58002;EQDQ01  00002PRCP99
0205483520999992000111415004+17860+102720FM-12+0175VTUM V0209999C000012200019N0080001N1+02381+02031101241ADDAA199000091AY101031AY201031GA1001+999999999GF100991001001999999001001MA1999999099231MD1999999-0021MW1101REMSYN070AAXX  14154 48352 31958 00000 10238 20203 39923 40124 71000 333 59002;EQDQ01  00002PRCP99
0205483520999992000111418004+17860+102720FM-12+0175VTUM V0209999C000012200019N0070001N1+02261+02001101261ADDAA199000091AY101061AY201061GA1001+999999999GF100991001001999999001001MA1999999099261MD1999999-0011MW1101REMSYN070AAXX  14184 48352 31957 00000 10226 20200 39926 40126 71000 333 59001;EQDQ01  00002PRCP99
0205483520999992000111421004+17860+102720FM-12+0175VTUM V0209999C000012200019N0060001N1+02101+01941101231ADDAA199000091AY101031AY201031GA1001+999999999GF100991001001999999001001MA1999999099211MD1999999+0021MW1101REMSYN070AAXX  14214 48352 31956 00000 10210 20194 39921 40123 71000 333 58002;EQDQ01  00002PRCP99
0224483520999992000111500004+17860+102720FM-12+0175VTUM V0209999C000012200019N0060001N1+02151+01811101361ADDAA199000091AY101061AY201061GA1001+999999999GF100991001001999999001001KA1120N+02031MA1999999099341MD1999999-0011MW1101REMSYN076AAXX  15004 48352 31956 00000 10215 20181 39934 40136 71000 333 20203 59001;EQDQ01  00002PRCP99
0177483520999992000111503004+17860+102720FM-12+0175VTUM V0200501N002612200019N0120001N1+02771+01741101461ADDAA199000091GA1001+999999999GF100991001001999999001001MA1999999099491MD1999999+0011REMSYN064AAXX  15034 48352 32962 00505 10277 20174 39949 40146 333 58001;EQDQ01  00002PRCP99
0167483520999992000111506004+17860+102720FM-12+0175VTUM V0200301N001012200019N0130001N1+03031+01821101151ADDAA199000091GF101991011011008001001001MA1999999099191MD1999999+0061REMSYN070AAXX  15064 48352 32563 10302 10303 20182 39919 40115 81100 333 58006;EQDQ01  00002PRCP99
0167483520999992000111509004+17860+102720FM-12+0175VTUM V0200401N001012200019N0140001N1+03061+01741100961ADDAA199000091GF101991011011008001001001MA1999999099001MD1999999+0051REMSYN070AAXX  15094 48352 32564 10402 10306 20174 39900 40096 81100 333 58005;EQDQ01  00002PRCP99
0186483520999992000111512004+17860+102720FM-12+0175VTUM V0209999C000012200019N0120001N1+02651+01871101191ADDAA199000091GF103991031051008001001001KA1120M+03141MA1999999099211MD1999999+0091REMSYN076AAXX  15124 48352 32562 30000 10265 20187 39921 40119 83500 333 10314 58009;EQDQ01  00002PRCP99
0167483520999992000111515004+17860+102720FM-12+0175VTUM V0200601N002610450019N0110001N1+02421+01691101421ADDAA199000091GF106991041051008001031051MA1999999099421MD1999999+0181REMSYN070AAXX  15154 48352 32561 60605 10242 20169 39942 40142 84535 333 58018;EQDQ01  00002PRCP99
0177483520999992000111518004+17860+102720FM-12+0175VTUM V0200501N001512200019N0100001N1+02201+01801101391ADDAA199000091GA1001+999999999GF100991001001999999001001MA1999999099371MD1999999+0131REMSYN064AAXX  15184 48352 32960 00503 10220 20180 39937 40139 333 58013;EQDQ01  00002PRCP99
0195483520999992000111521004+17860+102720FM-12+0175VTUM V0209999C000012200019N0080001N1+02091+01771101271ADDAA199000091AY101031AY201031GF103991031051008001001001MA1999999099251MD1999999+0041MW1101REMSYN076AAXX  15214 48352 31558 30000 10209 20177 39925 40127 71000 83500 333 58004;EQDQ01  00002PRCP99
0224483520999992000111600004+17860+102720FM-12+0175VTUM V0209999C000012200019N0080001N1+02021+01811101421ADDAA199000091AY101061AY201061GA1001+999999999GF100991001001999999001001KA1120N+01931MA1999999099391MD1999999+0061MW1101REMSYN076AAXX  16004 48352 31958 00000 10202 20181 39939 40142 71000 333 20193 58006;EQDQ01  00002PRCP99
0177483520999992000111603004+17860+102720FM-12+0175VTUM V0200501N001012200019N0130001N1+02781+01791101481ADDAA199000091GA1001+999999999GF100991001001999999001001MA1999999099511MD1999999+0021REMSYN064AAXX  16034 48352 32963 00502 10278 20179 39951 40148 333 58002;EQDQ01  00002PRCP99
0167483520999992000111606004+17860+102720FM-12+0175VTUM V0200601N003112200019N0130001N1+03071+01611101151ADDAA199000091GF101991011011008001001001MA1999999099191MD1999999+0001REMSYN070AAXX  16064 48352 32563 10606 10307 20161 39919 40115 81100 333 58000;EQDQ01  00002PRCP99
0167483520999992000111609004+17860+102720FM-12+0175VTUM V0200701N002610450019N0130001N1+03001+01701101071ADDAA199000091GF106991041051008001031051MA1999999099111MD1999999+0111REMSYN070AAXX  16094 48352 32563 60705 10300 20170 39911 40107 84535 333 58011;EQDQ01  00002PRCP99
0186483520999992000111612004+17860+102720FM-12+0175VTUM V0200501N002110450019N0120001N1+02621+01711101351ADDAA199000091GF106991041051008001031051KA1120M+03151MA1999999099361MD1999999+0161REMSYN076AAXX  16124 48352 32562 60504 10262 20171 39936 40135 84535 333 10315 58016;EQDQ01  00002PRCP99
0167483520999992000111615004+17860+102720FM-12+0175VTUM V0200801N001511050019N0120001N1+02501+01641101471ADDAA199000091GF106991021051008001031061MA1999999099471MD1999999+0051REMSYN070AAXX  16154 48352 32562 60803 10250 20164 39947 40147 82536 333 58005;EQDQ01  00002PRCP99
0167483520999992000111618004+17860+102720FM-12+0175VTUM V0209999C000012200019N0110001N1+02401+01591101371ADDAA199000091GF105991021051008001001061MA1999999099361MD1999999-0021REMSYN070AAXX  16184 48352 32561 50000 10240 20159 39936 40137 82506 333 59002;EQDQ01  00002PRCP99
0195483520999992000111621004+17860+102720FM-12+0175VTUM V0209999C000010450019N0080001N1+02321+01691101301ADDAA199000091AY121031AY221031GF108991041051008001031061MA1999999099291MD1999999+0031MW1101REMSYN076AAXX  16214 48352 31558 80000 10232 20169 39929 40130 71022 84536 333 58003;EQDQ01  00002PRCP99
0214483520999992000111700004+17860+102720FM-12+0175VTUM V0209999C000010075019N0080001N1+02291+01761101441ADDAA199000091AY121061AY221061GF108991051051008001071999KA1120N+02271MA1999999099431MD1999999+0021MW1101REMSYN082AAXX  17004 48352 31558 80000 10229 20176 39943 40144 71022 8557/ 333 20227 58002;EQDQ01  00002PRCP99
0195483520999992000111703004+17860+102720FM-12+0175VTUM V0209999C000010075019N0090001N1+02611+01801101511ADDAA199000091AY121031AY221031GF108991051051008001071999MA1999999099521MD1999999+0031MW1051REMSYN076AAXX  17034 48352 31559 80000 10261 20180 39952 40151 70522 8557/ 333 58003;EQDQ01  00002PRCP99
0167483520999992000111706004+17860+102720FM-12+0175VTUM V0200801N002610450019N0120001N1+02901+01731101191ADDAA199000091GF107991031011008001031061MA1999999099221MD1999999+0041REMSYN070AAXX  17064 48352 32562 70805 10290 20173 39922 40119 83136 333 58004;EQDQ01  00002PRCP99
0167483520999992000111709004+17860+102720FM-12+0175VTUM V0200601N002610450019N0140001N1+02821+01761101091ADDAA199000091GF107991021011008001031061MA1999999099111MD1999999+0021REMSYN070AAXX  17094 48352 32564 70605 10282 20176 39911 40109 82136 333 58002;EQDQ01  00002PRCP99
0186483520999992000111712004+17860+102720FM-12+0175VTUM V0200401N001010450019N0120001N1+02501+01731101241ADDAA199000091GF107991021011008001031061KA1120M+03001MA1999999099251MD1999999-0111REMSYN076AAXX  17124 48352 32562 70402 10250 20173 39925 40124 82136 333 10300 59011;EQDQ01  00002PRCP99
0167483520999992000111718004+17860+102720FM-12+0175VTUM V0209999C000010075019N0100001N1+02251+01731101331ADDAA199000091GF108991051051008001071999MA1999999099331MD1999999-0041REMSYN070AAXX  17184 48352 32560 80000 10225 20173 39933 40133 8557/ 333 59004;EQDQ01  00002PRCP99
0214483520999992000111800004+17860+102720FM-12+0175VTUM V0209999C000010450019N0080001N1+02191+01791101411ADDAA199000091AY121061AY221061GF107991041051008001031061KA1120N+02141MA1999999099391MD1999999-0031MW1101REMSYN082AAXX  18004 48352 31558 70000 10219 20179 39939 40141 71022 84536 333 20214 59003;EQDQ01  00002PRCP99
0167483520999992000111803004+17860+102720FM-12+0175VTUM V0200501N002610075019N0120001N1+02641+01941101441ADDAA199000091GF106991051051008001001051MA1999999099451MD1999999-0071REMSYN070AAXX  18034 48352 32562 60505 10264 20194 39945 40144 85505 333 59007;EQDQ01  00002PRCP99
0167483520999992000111806004+17860+102720FM-12+0175VTUM V0200401N001510120019N0140001N1+02801+01881101141ADDAA199000091GF106991051081008001001051MA1999999099161MD1999999-0051REMSYN070AAXX  18064 48352 32564 60403 10280 20188 39916 40114 85805 333 59005;EQDQ01  00002PRCP99
0186483520999992000111812004+17860+102720FM-12+0175VTUM V0200201N001010450019N0120001N1+02531+01941101201ADDAA199000091GF107991041051008001031061KA1120M+02931MA1999999099211MD1999999+0041REMSYN076AAXX  18124 48352 32562 70202 10253 20194 39921 40120 84536 333 10293 58004;EQDQ01  00002PRCP99
0167483520999992000111815004+17860+102720FM-12+0175VTUM V0209999C000010075019N0110001N1+02381+01941101311ADDAA199000091GF107991061051008001001051MA1999999099311MD1999999-0021REMSYN070AAXX  18154 48352 32561 70000 10238 20194 39931 40131 86505 333 59002;EQDQ01  00002PRCP99
0167483520999992000111818004+17860+102720FM-12+0175VTUM V0209999C000010450019N0100001N1+02331+01971101251ADDAA199000091GF107991041051008001031051MA1999999099241MD1999999-0081REMSYN070AAXX  18184 48352 32560 70000 10233 20197 39924 40125 84535 333 59008;EQDQ01  00002PRCP99
0167483520999992000111821004+17860+102720FM-12+0175VTUM V0209999C000010450019N0100001N1+02281+01921101161ADDAA199000091GF108991021051008001031061MA1999999099151MD1999999-0151REMSYN070AAXX  18214 48352 32560 80000 10228 20192 39915 40116 82536 333 59015;EQDQ01  00002PRCP99
0214483520999992000111900004+17860+102720FM-12+0175VTUM V0209999C000010450019N0080001N1+02261+01981101291ADDAA199000091AY121061AY221061GF106991041051008001031051KA1120N+02211MA1999999099281MD1999999-0121MW1101REMSYN082AAXX  19004 48352 31558 60000 10226 20198 39928 40129 71022 84535 333 20221 59012;EQDQ01  00002PRCP99
0167483520999992000111903004+17860+102720FM-12+0175VTUM V0209999C000010450019N0120001N1+02801+02011101391ADDAA199000091GF105991031051008001031001MA1999999099411MD1999999-0051REMSYN070AAXX  19034 48352 32562 50000 10280 20201 39941 40139 83530 333 59005;EQDQ01  00002PRCP99
0167483520999992000111906004+17860+102720FM-12+0175VTUM V0209999C000010450019N0120001N1+03101+01961101071ADDAA199000091GF105991021021008001031051MA1999999099111MD1999999-0071REMSYN070AAXX  19064 48352 32562 50000 10310 20196 39911 40107 82235 333 59007;EQDQ01  00002PRCP99
0167483520999992000111909004+17860+102720FM-12+0175VTUM V0209999C000012200019N0120001N1+03071+02121100901ADDAA199000091GF102991021021008001001001MA1999999098951MD1999999-0131REMSYN070AAXX  19094 48352 32562 20000 10307 20212 39895 40090 82200 333 59013;EQDQ01  00002PRCP99
0186483520999992000111912004+17860+102720FM-12+0175VTUM V0209999C000012200019N0110001N1+02671+02141101071ADDAA199000091GF102991021051008001001001KA1120M+03181MA1999999099081MD1999999-0131REMSYN076AAXX  19124 48352 32561 20000 10267 20214 39908 40107 82500 333 10318 59013;EQDQ01  00002PRCP99
0167483520999992000111915004+17860+102720FM-12+0175VTUM V0209999C000012200019N0100001N1+02521+02061101221ADDAA199000091GF103991021051008001001051MA1999999099231MD1999999-0091REMSYN070AAXX  19154 48352 32560 30000 10252 20206 39923 40122 82505 333 59009;EQDQ01  00002PRCP99
0205483520999992000111918004+17860+102720FM-12+0175VTUM V0209999C000012200019N0080001N1+02351+02011101211ADDAA199000091AY101061AY201061GA1001+999999999GF100991001001999999001001MA1999999099211MD1999999-0041MW1101REMSYN070AAXX  19184 48352 31958 00000 10235 20201 39921 40121 71000 333 59004;EQDQ01  00002PRCP99
0195483520999992000111921004+17860+102720FM-12+0175VTUM V0209999C000012200019N0070001N1+02301+02021101151ADDAA199000091AY101031AY201031GF104991021051008001031001MA1999999099141MD1999999-0011MW1101REMSYN076AAXX  19214 48352 31557 40000 10230 20202 39914 40115 71000 82530 333 59001;EQDQ01  00002PRCP99
0224483520999992000112000004+17860+102720FM-12+0175VTUM V0209999C000012200019N0060001N1+02201+02001101341ADDAA199000091AY101061AY201061GA1001+999999999GF100991001001999999001001KA1120N+02141MA1999999099321MD1999999+0051MW1101REMSYN076AAXX  20004 48352 31956 00000 10220 20200 39932 40134 71000 333 20214 58005;EQDQ01  00002PRCP99
0167483520999992000112003004+17860+102720FM-12+0175VTUM V0200801N003112200019N0120001N1+02871+01881101401ADDAA199000091GF101991011011008001001001MA1999999099431MD1999999+0011REMSYN070AAXX  20034 48352 32562 10806 10287 20188 39943 40140 81100 333 58001;EQDQ01  00002PRCP99
0167483520999992000112006004+17860+102720FM-12+0175VTUM V0200701N002610450019N0150001N1+03001+01841101051ADDAA199000091GF106991041021008001031061MA1999999099091MD1999999-0021REMSYN070AAXX  20064 48352 32565 60705 10300 20184 39909 40105 84236 333 59002;EQDQ01  00002PRCP99
0167483520999992000112009004+17860+102720FM-12+0175VTUM V0201001N002610120019N0150001N1+02901+01911101051ADDAA199000091GF107991051081008001031061MA1999999099081MD1999999+0151REMSYN070AAXX  20094 48352 32565 71005 10290 20191 39908 40105 85836 333 58015;EQDQ01  00002PRCP99
0186483520999992000112012004+17860+102720FM-12+0175VTUM V0200901N003112200019N0130001N1+02451+01541101311ADDAA199000091GF101991011011008001001001KA1120M+03111MA1999999099321MD1999999+0241REMSYN076AAXX  20124 48352 32563 10906 10245 20154 39932 40131 81100 333 10311 58024;EQDQ01  00002PRCP99
0177483520999992000112018004+17860+102720FM-12+0175VTUM V0209999C000012200019N0100001N1+01911+01311101551ADDAA199000091GA1001+999999999GF100991001001999999001001MA1999999099511MD1999999+0341REMSYN064AAXX  20184 48352 32960 00000 10191 20131 39951 40155 333 58034;EQDQ01  00002PRCP99
0214483520999992000112100004+17860+102720FM-12+0175VTUM V0209999C000012200019N0070001N1+01821+01341101681ADDAA199000091AY101061AY201061GF102991001001999999001011KA1120N+01681MA1999999099641MD1999999+0341MW1101REMSYN082AAXX  21004 48352 31957 20000 10182 20134 39964 40168 71000 80001 333 20168 58034;EQDQ01  00002PRCP99
0167483520999992000112103004+17860+102720FM-12+0175VTUM V0200501N003112200019N0120001N1+02361+01351101771ADDAA199000091GF101991001001999999001011MA1999999099751MD1999999+0371REMSYN070AAXX  21034 48352 32962 10506 10236 20135 39975 40177 80001 333 58037;EQDQ01  00002PRCP99
0167483520999992000112106004+17860+102720FM-12+0175VTUM V0203601N001012200019N0130001N1+02631+01511101411ADDAA199000091GF101991001001999999001011MA1999999099421MD1999999+0361REMSYN070AAXX  21064 48352 32963 13602 10263 20151 39942 40141 80001 333 58036;EQDQ01  00002PRCP99
0167483520999992000112109004+17860+102720FM-12+0175VTUM V0200301N001012200019N0130001N1+02681+01511101231ADDAA199000091GF102991001001999999001011MA1999999099251MD1999999+0181REMSYN070AAXX  21094 48352 32963 20302 10268 20151 39925 40123 80001 333 58018;EQDQ01  00002PRCP99
0196483520999992000112112004+17860+102720FM-12+0175VTUM V0209999C000012200019N0120001N1+02301+01551101461ADDAA199000091GA1001+999999999GF100991001001999999001001KA1120M+02741MA1999999099441MD1999999+0151REMSYN070AAXX  21124 48352 32962 00000 10230 20155 39944 40146 333 10274 58015;EQDQ01  00002PRCP99
0167483520999992000112115004+17860+102720FM-12+0175VTUM V0209999C000012200019N0110001N1+02101+01561101711ADDAA199000091GF102991021051008001001001MA1999999099671MD1999999+0131REMSYN070AAXX  21154 48352 32561 20000 10210 20156 39967 40171 82500 333 58013;EQDQ01  00002PRCP99
0177483520999992000112118004+17860+102720FM-12+0175VTUM V0209999C000012200019N0100001N1+01791+01481101661ADDAA199000091GA1001+999999999GF100991001001999999001001MA1999999099611MD1999999+0111REMSYN064AAXX  21184 48352 32960 00000 10179 20148 39961 40166 333 58011;EQDQ01  00002PRCP99
0224483520999992000112200004+17860+102720FM-12+0175VTUM V0209999C000012200019N0050001N1+01551+01431101671ADDAA199000091AY101061AY201061GA1001+999999999GF100991001001999999001001KA1120N+01481MA1999999099611MD1999999-0011MW1101REMSYN076AAXX  22004 48352 31950 00000 10155 20143 39961 40167 71000 333 20148 59001;EQDQ01  00002PRCP99
0177483520999992000112203004+17860+102720FM-12+0175VTUM V0209999C000012200019N0100001N1+02251+01451101761ADDAA199000091GA1001+999999999GF100991001001999999001001MA1999999099741MD1999999-0011REMSYN064AAXX  22034 48352 32960 00000 10225 20145 39974 40176 333 59001;EQDQ01  00002PRCP99
0183483520999992000112206004+17860+102720FM-12+0175VTUM V0200601N001012200019N0120001N1+02671+01411101391ADDAA199000091GF102991001001999999001051MA1999999099401MD1999999-0021REMSYN070AAXX  22064 48352 32562 20602 10267 20141 39940 40139 80005 333 59002;EQDQ01+008002SCOLCBQ02  00002PRCP99
0167483520999992000112209004+17860+102720FM-12+0175VTUM V0200901N001012200019N0120001N1+02721+01541101261ADDAA199000091GF103991001001999999001051MA1999999099281MD1999999+0031REMSYN070AAXX  22094 48352 32962 30902 10272 20154 39928 40126 80005 333 58003;EQDQ01  00002PRCP99
0186483520999992000112212004+17860+102720FM-12+0175VTUM V0209999C000012200019N0110001N1+02301+01551101491ADDAA199000091GF101991001001999999001011KA1120M+02841MA1999999099481MD1999999+0031REMSYN076AAXX  22124 48352 32961 10000 10230 20155 39948 40149 80001 333 10284 58003;EQDQ01  00002PRCP99
0205483520999992000112215004+17860+102720FM-12+0175VTUM V0209999C000012200019N0080001N1+02031+01471101711ADDAA199000091AY101031AY201031GA1001+999999999GF100991001001999999001001MA1999999099671MD1999999+0001MW1101REMSYN070AAXX  22154 48352 31958 00000 10203 20147 39967 40171 71000 333 58000;EQDQ01  00002PRCP99
0205483520999992000112218004+17860+102720FM-12+0175VTUM V0209999C000012200019N0070001N1+01871+01471101721ADDAA199000091AY101061AY201061GA1001+999999999GF100991001001999999001001MA1999999099671MD1999999+0061MW1101REMSYN070AAXX  22184 48352 31957 00000 10187 20147 39967 40172 71000 333 58006;EQDQ01  00002PRCP99
0205483520999992000112221004+17860+102720FM-12+0175VTUM V0209999C000012200019N0060001N1+01751+01511101611ADDAA199000091AY101031AY201031GA1001+999999999GF100991001001999999001001MA1999999099571MD1999999+0051MW1101REMSYN070AAXX  22214 48352 31956 00000 10175 20151 39957 40161 71000 333 58005;EQDQ01  00002PRCP99
0214483520999992000112300004+17860+102720FM-12+0175VTUM V0209999C000012200019N0050001N1+01691+01551101701ADDAA199000091AY111061AY201061GF105991011011008001001061KA1120N+01651MA1999999099651MD1999999+0031MW1101REMSYN082AAXX  23004 48352 31550 50000 10169 20155 39965 40170 71010 81106 333 20165 58003;EQDQ01  00002PRCP99
0195483520999992000112303004+17860+102720FM-12+0175VTUM V0209999C000012200019N0090001N1+02451+01631101771ADDAA199000091AY121031AY221031GF105991011011008001001061MA1999999099761MD1999999+0011MW1051REMSYN076AAXX  23034 48352 31559 50000 10245 20163 39976 40177 70522 81106 333 58001;EQDQ01  00002PRCP99
0167483520999992000112309004+17860+102720FM-12+0175VTUM V0200601N001012200019N0140001N1+02801+01601101211ADDAA199000091GF106991011021008001001061MA1999999099241MD1999999-0051REMSYN070AAXX  23094 48352 32564 60602 10280 20160 39924 40121 81206 333 59005;EQDQ01  00002PRCP99
0186483520999992000112312004+17860+102720FM-12+0175VTUM V0209999C000019999999N0120001N1+02301+01821101371ADDAA199000091GF105991001001999999001061KA1120M+02921MA1999999099371MD1999999-0121REMSYN076AAXX  23124 48352 32962 50000 10230 20182 39937 40137 80006 333 10292 59012;EQDQ01  00002PRCP99
0205483520999992000112315004+17860+102720FM-12+0175VTUM V0209999C000012200019N0080001N1+02101+01801101531ADDAA199000091AY111031AY211031GA1001+999999999GF100991001001999999001001MA1999999099501MD1999999-0181MW1101REMSYN070AAXX  23154 48352 31958 00000 10210 20180 39950 40153 71011 333 59018;EQDQ01  00002PRCP99
0205483520999992000112321004+17860+102720FM-12+0175VTUM V0209999C000012200019N0060001N1+01861+01781101351ADDAA199000091AY101031AY201031GA1001+999999999GF100991001001999999001001MA1999999099311MD1999999-0261MW1101REMSYN070AAXX  23214 48352 31956 00000 10186 20178 39931 40135 71000 333 59026;EQDQ01  00002PRCP99
0214483520999992000112400004+17860+102720FM-12+0175VTUM V0209999C000019999999N0050001N1+01771+01671101421ADDAA199000091AY111061AY201061GF106991011001999999041061KA1120N+01741MA1999999099381MD1999999-0281MW1101REMSYN082AAXX  24004 48352 31950 60000 10177 20167 39938 40142 71010 81046 333 20174 59028;EQDQ01  00002PRCP99
0195483520999992000112403004+17860+102720FM-12+0175VTUM V0200401N001012200019N0070001N1+02451+01821101481ADDAA199000091AY121031AY221031GF106991011011008001001061MA1999999099491MD1999999-0291MW1101REMSYN076AAXX  24034 48352 31557 60402 10245 20182 39949 40148 71022 81106 333 59029;EQDQ01  00002PRCP99
0195483520999992000112406004+17860+102720FM-12+0175VTUM V0200101N002112200019N0090001N1+02911+01781101161ADDAA199000091AY121061AY221061GF106991011011008001001061MA1999999099191MD1999999-0241MW1051REMSYN076AAXX  24064 48352 31559 60104 10291 20178 39919 40116 70522 81106 333 59024;EQDQ01  00002PRCP99
0195483520999992000112409004+17860+102720FM-12+0175VTUM V0203601N001512200019N0080001N1+02921+01741100991ADDAA199000091AY121031AY221031GF106991011011008001001061MA1999999099021MD1999999-0221MW1051REMSYN076AAXX  24094 48352 31558 63603 10292 20174 39902 40099 70522 81106 333 59022;EQDQ01  00002PRCP99
0224483520999992000112412004+17860+102720FM-12+0175VTUM V0209999C000012200019N0070001N1+02531+01851101101ADDAA199000091AY111061AY201061GA1001+999999999GF100991001001999999001001KA1120M+03001MA1999999099101MD1999999-0271MW1101REMSYN076AAXX  24124 48352 31957 00000 10253 20185 39910 40110 71010 333 10300 59027;EQDQ01  00002PRCP99
0205483520999992000112415004+17860+102720FM-12+0175VTUM V0209999C000012200019N0070001N1+02241+01911101201ADDAA199000091AY101031AY201031GA1001+999999999GF100991001001999999001001MA1999999099181MD1999999-0331MW1101REMSYN070AAXX  24154 48352 31957 00000 10224 20191 39918 40120 71000 333 59033;EQDQ01  00002PRCP99
0205483520999992000112418004+17860+102720FM-12+0175VTUM V0209999C000012200019N0060001N1+02151+01961101181ADDAA199000091AY101061AY201061GA1001+999999999GF100991001001999999001001MA1999999099161MD1999999-0321MW1101REMSYN070AAXX  24184 48352 31956 00000 10215 20196 39916 40118 71000 333 59032;EQDQ01  00002PRCP99
0195483520999992000112421004+17860+102720FM-12+0175VTUM V0209999C000012200019N0050001N1+02141+01951101211ADDAA199000091AY101031AY201031GF103991031051008001001001MA1999999099181MD1999999-0141MW1101REMSYN076AAXX  24214 48352 31550 30000 10214 20195 39918 40121 71000 83500 333 59014;EQDQ01  00002PRCP99
0214483520999992000112500004+17860+102720FM-12+0175VTUM V0209999C000012200019N0050001N1+02111+01971101321ADDAA199000091AY101061AY201061GF104991041051008001001001KA1120N+02071MA1999999099291MD1999999-0101MW1101REMSYN082AAXX  25004 48352 31550 40000 10211 20197 39929 40132 71000 84500 333 20207 59010;EQDQ01  00002PRCP99
0195483520999992000112503004+17860+102720FM-12+0175VTUM V0209999C000010450019N0080001N1+02461+02011101451ADDAA199000091AY121031AY211031GF108991041051008001031061MA1999999099461MD1999999-0031MW1101REMSYN076AAXX  25034 48352 31558 80000 10246 20201 39946 40145 71021 84536 333 59003;EQDQ01  00002PRCP99
0167483520999992000112506004+17860+102720FM-12+0175VTUM V0209999C000012200019N0100001N1+03071+01851101091ADDAA199000091GF103991031081008001001001MA1999999099131MD1999999-0071REMSYN070AAXX  25064 48352 32560 30000 10307 20185 39913 40109 83800 333 59007;EQDQ01  00002PRCP99
0167483520999992000112509004+17860+102720FM-12+0175VTUM V0201001N001012200019N0100001N1+03101+01961100891ADDAA199000091GF102991021021008001001001MA1999999098951MD1999999-0101REMSYN070AAXX  25094 48352 32560 21002 10310 20196 39895 40089 82200 333 59010;EQDQ01  00002PRCP99
0224483520999992000112512004+17860+102720FM-12+0175VTUM V0209999C000012200019N0080001N1+02601+02101101091ADDAA199000091AY101061AY201061GA1001+999999999GF100991001001999999001001KA1120M+03181MA1999999099101MD1999999-0011MW1101REMSYN076AAXX  25124 48352 31958 00000 10260 20210 39910 40109 71000 333 10318 59001;EQDQ01  00002PRCP99
0167483520999992000112515004+17860+102720FM-12+0175VTUM V0209999C000012200019N0080001N1+02421+02101101241ADDAA199000091GF102991021051008001031001MA1999999099231MD1999999+0041REMSYN070AAXX  25154 48352 32558 20000 10242 20210 39923 40124 82530 333 58004;EQDQ01  00002PRCP99
0205483520999992000112518004+17860+102720FM-12+0175VTUM V0209999C000012200019N0070001N1+02321+02121101221ADDAA199000091AY101061AY201061GA1001+999999999GF100991001001999999001001MA1999999099211MD1999999+0041MW1101REMSYN070AAXX  25184 48352 31957 00000 10232 20212 39921 40122 71000 333 58004;EQDQ01  00002PRCP99
0195483520999992000112521004+17860+102720FM-12+0175VTUM V0209999C000010450019N0060001N1+02251+02051101201ADDAA199000091AY111031AY201031GF106991041051008001031051MA1999999099191MD1999999-0011MW1101REMSYN076AAXX  25214 48352 31556 60000 10225 20205 39919 40120 71010 84535 333 59001;EQDQ01  00002PRCP99
0214483520999992000112600004+17860+102720FM-12+0175VTUM V0209999C000010075019N0070001N1+02311+02081101401ADDAA199000091AY111061AY211061GF106991051051008001031061KA1120N+02201MA1999999099391MD1999999+0081MW1101REMSYN082AAXX  26004 48352 31557 60000 10231 20208 39939 40140 71011 85536 333 20220 58008;EQDQ01  00002PRCP99
0195483520999992000112603004+17860+102720FM-12+0175VTUM V0200601N001010075019N0090001N1+02611+02061101541ADDAA199000091AY121031AY221031GF107991051051008001071061MA1999999099551MD1999999+0091MW1101REMSYN076AAXX  26034 48352 31559 70602 10261 20206 39955 40154 71022 85576 333 58009;EQDQ01  00002PRCP99
0167483520999992000112606004+17860+102720FM-12+0175VTUM V0201301N002111050019N0140001N1+03051+01991101261ADDAA199000091GF106991021011008001031061MA1999999099311MD1999999+0171REMSYN070AAXX  26064 48352 32564 61304 10305 20199 39931 40126 82136 333 58017;EQDQ01  00002PRCP99
0167483520999992000112609004+17860+102720FM-12+0175VTUM V0200101N001010450019N0150001N1+03101+02051101101ADDAA199000091GF107991021021008001031061MA1999999099151MD1999999+0211REMSYN070AAXX  26094 48352 32565 70102 10310 20205 39915 40110 82236 333 58021;EQDQ01  00002PRCP99
0167483520999992000112615004+17860+102720FM-12+0175VTUM V0200801N001512200019N0120001N1+02601+02231101391ADDAA199000091GF103991031011008001001001MA1999999099401MD1999999+0151REMSYN070AAXX  26154 48352 32562 30803 10260 20223 39940 40139 83100 333 58015;EQDQ01  00002PRCP99
0167483520999992000112618004+17860+102720FM-12+0175VTUM V0209999C000010450019N0110001N1+02471+02221101351ADDAA199000091GF105991031051008001031051MA1999999099351MD1999999+0131REMSYN070AAXX  26184 48352 32561 50000 10247 20222 39935 40135 83535 333 58013;EQDQ01  00002PRCP99
0167483520999992000112621004+17860+102720FM-12+0175VTUM V0209999C000012200019N0100001N1+02361+02191101301ADDAA199000091GF106991021051008001001061MA1999999099301MD1999999+0101REMSYN070AAXX  26214 48352 32560 60000 10236 20219 39930 40130 82506 333 58010;EQDQ01  00002PRCP99
0214483520999992000112700004+17860+102720FM-12+0175VTUM V0209999C000012200019N0080001N1+02301+02151101371ADDAA199000091AY111061AY201061GF101991001001999999001011KA1120N+02251MA1999999099371MD1999999-0031MW1101REMSYN082AAXX  27004 48352 31958 10000 10230 20215 39937 40137 71010 80001 333 20225 59003;EQDQ01  00002PRCP99
0167483520999992000112703004+17860+102720FM-12+0175VTUM V0200301N001512200019N0120001N1+02921+02091101571ADDAA199000091GF102991021011008001001001MA1999999099601MD1999999+0031REMSYN070AAXX  27034 48352 32562 20303 10292 20209 39960 40157 82100 333 58003;EQDQ01  00002PRCP99
0167483520999992000112706004+17860+102720FM-12+0175VTUM V0200401N001512200019N0140001N1+03191+02031101291ADDAA199000091GF103991031021008001001001MA1999999099331MD1999999+0031REMSYN070AAXX  27064 48352 32564 30403 10319 20203 39933 40129 83200 333 58003;EQDQ01  00002PRCP99
0167483520999992000112709004+17860+102720FM-12+0175VTUM V0200501N001512200019N0140001N1+03161+02051101121ADDAA199000091GF102991021021008001001001MA1999999099171MD1999999+0021REMSYN070AAXX  27094 48352 32564 20503 10316 20205 39917 40112 82200 333 58002;EQDQ01  00002PRCP99
0196483520999992000112712004+17860+102720FM-12+0175VTUM V0209999C000012200019N0120001N1+02781+02171101251ADDAA199000091GA1001+999999999GF100991001001999999001001KA1120M+03321MA1999999099271MD1999999+0001REMSYN070AAXX  27124 48352 32962 00000 10278 20217 39927 40125 333 10332 58000;EQDQ01  00002PRCP99
0167483520999992000112715004+17860+102720FM-12+0175VTUM V0209999C000012200019N0120001N1+02501+02111101401ADDAA199000091GF102991021051008001001001MA1999999099401MD1999999+0011REMSYN070AAXX  27154 48352 32562 20000 10250 20211 39940 40140 82500 333 58001;EQDQ01  00002PRCP99
0177483520999992000112718004+17860+102720FM-12+0175VTUM V0209999C000012200019N0110001N1+02361+01961101371ADDAA199000091GA1001+999999999GF100991001001999999001001MA1999999099371MD1999999+0021REMSYN064AAXX  27184 48352 32961 00000 10236 20196 39937 40137 333 58002;EQDQ01  00002PRCP99
0167483520999992000112721004+17860+102720FM-12+0175VTUM V0209999C000012200019N0100001N1+02251+02021101311ADDAA199000091GF102991001001999999001051MA1999999099301MD1999999+0011REMSYN070AAXX  27214 48352 32960 20000 10225 20202 39930 40131 80005 333 58001;EQDQ01  00002PRCP99
0196483520999992000112800004+17860+102720FM-12+0175VTUM V0209999C000012200019N0100001N1+02141+01981101451ADDAA199000091GA1001+999999999GF100991001001999999001001KA1120N+02101MA1999999099431MD1999999+0081REMSYN070AAXX  28004 48352 32960 00000 10214 20198 39943 40145 333 20210 58008;EQDQ01  00002PRCP99
0177483520999992000112803004+17860+102720FM-12+0175VTUM V0200901N001512200019N0150001N1+02861+01921101521ADDAA199000091GA1001+999999999GF100991001001999999001001MA1999999099551MD1999999-0051REMSYN064AAXX  28034 48352 32965 00903 10286 20192 39955 40152 333 59005;EQDQ01  00002PRCP99
0167483520999992000112806004+17860+102720FM-12+0175VTUM V0209999C000012200019N0150001N1+03171+01961101221ADDAA199000091GF103991031021008001001001MA1999999099271MD1999999-0071REMSYN070AAXX  28064 48352 32565 30000 10317 20196 39927 40122 83200 333 59007;EQDQ01  00002PRCP99
0167483520999992000112809004+17860+102720FM-12+0175VTUM V0200901N001012200019N0140001N1+03101+01851101031ADDAA199000091GF103991031051008001001001MA1999999099071MD1999999-0091REMSYN070AAXX  28094 48352 32564 30902 10310 20185 39907 40103 83500 333 59009;EQDQ01  00002PRCP99
0167483520999992000112815004+17860+102720FM-12+0175VTUM V0201001N001012200019N0120001N1+02461+01931101321ADDAA199000091GF103991021051008001031001MA1999999099351MD1999999-0081REMSYN070AAXX  28154 48352 32562 31002 10246 20193 39935 40132 82530 333 59008;EQDQ01  00002PRCP99
0177483520999992000112818004+17860+102720FM-12+0175VTUM V0209999C000012200019N0100001N1+02271+01921101351ADDAA199000091GA1001+999999999GF100991001001999999001001MA1999999099341MD1999999-0021REMSYN064AAXX  28184 48352 32960 00000 10227 20192 39934 40135 333 59002;EQDQ01  00002PRCP99
0177483520999992000112821004+17860+102720FM-12+0175VTUM V0209999C000012200019N0100001N1+02151+01911101281ADDAA199000091GA1001+999999999GF100991001001999999001001MA1999999099261MD1999999-0031REMSYN064AAXX  28214 48352 32960 00000 10215 20191 39926 40128 333 59003;EQDQ01  00002PRCP99
0196483520999992000112900004+17860+102720FM-12+0175VTUM V0209999C000012200019N0100001N1+02061+01931101401ADDAA199000091GA1001+999999999GF100991001001999999001001KA1120N+02011MA1999999099371MD1999999-0051REMSYN070AAXX  29004 48352 32960 00000 10206 20193 39937 40140 333 20201 59005;EQDQ01  00002PRCP99
0167483520999992000112903004+17860+102720FM-12+0175VTUM V0209999C000012200019N0140001N1+02781+01911101461ADDAA199000091GF101991011011008001001001MA1999999099491MD1999999-0061REMSYN070AAXX  29034 48352 32564 10000 10278 20191 39949 40146 81100 333 59006;EQDQ01  00002PRCP99
0167483520999992000112906004+17860+102720FM-12+0175VTUM V0200801N001012200019N0150001N1+03111+01831101111ADDAA199000091GF102991021011008001001001MA1999999099151MD1999999-0111REMSYN070AAXX  29064 48352 32565 20802 10311 20183 39915 40111 82100 333 59011;EQDQ01  00002PRCP99
0167483520999992000112909004+17860+102720FM-12+0175VTUM V0200801N001512200019N0150001N1+03101+01871100981ADDAA199000091GF102991021011008001001001MA1999999099031MD1999999-0051REMSYN070AAXX  29094 48352 32565 20803 10310 20187 39903 40098 82100 333 59005;EQDQ01  00002PRCP99
0186483520999992000112912004+17860+102720FM-12+0175VTUM V0209999C000012200019N0130001N1+02651+02041101191ADDAA199000091GF101991011011008001001001KA1120M+03251MA1999999099211MD1999999+0021REMSYN076AAXX  29124 48352 32563 10000 10265 20204 39921 40119 81100 333 10325 58002;EQDQ01  00002PRCP99
0177483520999992000112915004+17860+102720FM-12+0175VTUM V0209999C000012200019N0110001N1+02441+02111101361ADDAA199000091GA1001+999999999GF100991001001999999001001MA1999999099361MD1999999+0041REMSYN064AAXX  29154 48352 32961 00000 10244 20211 39936 40136 333 58004;EQDQ01  00002PRCP99
0177483520999992000112918004+17860+102720FM-12+0175VTUM V0209999C000012200019N0100001N1+02331+02021101331ADDAA199000091GA1001+999999999GF100991001001999999001001MA1999999099321MD1999999-0021REMSYN064AAXX  29184 48352 32960 00000 10233 20202 39932 40133 333 59002;EQDQ01  00002PRCP99
0177483520999992000112921004+17860+102720FM-12+0175VTUM V0209999C000012200019N0100001N1+02201+02121101281ADDAA199000091GA1001+999999999GF100991001001999999001001MA1999999099261MD1999999+0001REMSYN064AAXX  29214 48352 32960 00000 10220 20212 39926 40128 333 58000;EQDQ01  00002PRCP99
0214483520999992000113000004+17860+102720FM-12+0175VTUM V0209999C000012200019N0050001N1+02081+01991101421ADDAA199000091AY101061AY201061GF101991011011008001001001KA1120N+02041MA1999999099401MD1999999+0021MW1101REMSYN082AAXX  30004 48352 31550 10000 10208 20199 39940 40142 71000 81100 333 20204 58002;EQDQ01  00002PRCP99
0167483520999992000113003004+17860+102720FM-12+0175VTUM V0200101N001012200019N0130001N1+02731+02001101501ADDAA199000091GF101991011011008001001001MA1999999099521MD1999999+0041REMSYN070AAXX  30034 48352 32563 10102 10273 20200 39952 40150 81100 333 58004;EQDQ01  00002PRCP99
0167483520999992000113006004+17860+102720FM-12+0175VTUM V0200401N001012200019N0150001N1+03121+01951101121ADDAA199000091GF102991021011008001001001MA1999999099161MD1999999+0011REMSYN070AAXX  30064 48352 32565 20402 10312 20195 39916 40112 82100 333 58001;EQDQ01  00002PRCP99
0167483520999992000113009004+17860+102720FM-12+0175VTUM V0209999C000012200019N0140001N1+03121+01981100961ADDAA199000091GF101991011011008001001001MA1999999099001MD1999999-0021REMSYN070AAXX  30094 48352 32564 10000 10312 20198 39900 40096 81100 333 59002;EQDQ01  00002PRCP99
0196483520999992000113012004+17860+102720FM-12+0175VTUM V0209999C000012200019N0120001N1+02681+02121101101ADDAA199000091GA1001+999999999GF100991001001999999001001KA1120M+03251MA1999999099121MD1999999-0091REMSYN070AAXX  30124 48352 32962 00000 10268 20212 39912 40110 333 10325 59009;EQDQ01  00002PRCP99
0177483520999992000113015004+17860+102720FM-12+0175VTUM V0209999C000012200019N0110001N1+02481+02051101241ADDAA199000091GA1001+999999999GF100991001001999999001001MA1999999099241MD1999999-0121REMSYN064AAXX  30154 48352 32961 00000 10248 20205 39924 40124 333 59012;EQDQ01  00002PRCP99
0177483520999992000113018004+17860+102720FM-12+0175VTUM V0209999C000012200019N0100001N1+02371+02111101231ADDAA199000091GA1001+999999999GF100991001001999999001001MA1999999099231MD1999999-0101REMSYN064AAXX  30184 48352 32960 00000 10237 20211 39923 40123 333 59010;EQDQ01  00002PRCP99
0177483520999992000113021004+17860+102720FM-12+0175VTUM V0209999C000012200019N0100001N1+02281+02101101131ADDAA199000091GA1001+999999999GF100991001001999999001001MA1999999099131MD1999999-0151REMSYN064AAXX  30214 48352 32960 00000 10228 20210 39913 40113 333 59015;EQDQ01  00002PRCP99
0196483520999992000120100004+17860+102720FM-12+0175VTUM V0209999C000012200019N0100001N1+02181+02061101301ADDAA199000091GA1001+999999999GF100991001001999999001001KA1120N+02111MA1999999099291MD1999999-0121REMSYN070AAXX  01004 48352 32960 00000 10218 20206 39929 40130 333 20211 59012;EQDQ01  00002PRCP99
0177483520999992000120103004+17860+102720FM-12+0175VTUM V0209999C000012200019N0130001N1+02811+02141101341ADDAA199000091GA1001+999999999GF100991001001999999001001MA1999999099361MD1999999-0161REMSYN064AAXX  01034 48352 32963 00000 10281 20214 39936 40134 333 59016;EQDQ01  00002PRCP99
0167483520999992000120106004+17860+102720FM-12+0175VTUM V0200901N001012200019N0150001N1+03251+02051101011ADDAA199000091GF104991041011008001001001MA1999999099071MD1999999-0111REMSYN070AAXX  01064 48352 32565 40902 10325 20205 39907 40101 84100 333 59011;EQDQ01  00002PRCP99
0167483520999992000120109004+17860+102720FM-12+0175VTUM V0209999C000012200019N0150001N1+03121+02091100851ADDAA199000091GF103991031011008001001001MA1999999098911MD1999999-0111REMSYN070AAXX  01094 48352 32565 30000 10312 20209 39891 40085 83100 333 59011;EQDQ01  00002PRCP99
0196483520999992000120112004+17860+102720FM-12+0175VTUM V0209999C000012200019N0130001N1+02741+02191101031ADDAA199000091GA1001+999999999GF100991001001999999001001KA1120M+03371MA1999999099051MD1999999-0071REMSYN070AAXX  01124 48352 32963 00000 10274 20219 39905 40103 333 10337 59007;EQDQ01  00002PRCP99
0177483520999992000120115004+17860+102720FM-12+0175VTUM V0209999C000012200019N0120001N1+02571+02201101221ADDAA199000091GA1001+999999999GF100991001001999999001001MA1999999099231MD1999999-0021REMSYN064AAXX  01154 48352 32962 00000 10257 20220 39923 40122 333 59002;EQDQ01  00002PRCP99
0167483520999992000120118004+17860+102720FM-12+0175VTUM V0209999C000010075019N0110001N1+02561+02041101261ADDAA199000091GF107991051051008001031061MA1999999099271MD1999999+0031REMSYN070AAXX  01184 48352 32561 70000 10256 20204 39927 40126 85536 333 58003;EQDQ01  00002PRCP99
0167483520999992000120121004+17860+102720FM-12+0175VTUM V0209999C000010075019N0100001N1+02431+02081101221ADDAA199000091GF106991051051008001031061MA1999999099221MD1999999+0091REMSYN070AAXX  01214 48352 32560 60000 10243 20208 39922 40122 85536 333 58009;EQDQ01  00002PRCP99
0186483520999992000120200004+17860+102720FM-12+0175VTUM V0209999C000010075019N0110001N1+02371+02111101341ADDAA199000091GF107991051051008001031061KA1120N+02351MA1999999099341MD1999999+0041REMSYN076AAXX  02004 48352 32561 70000 10237 20211 39934 40134 85536 333 20235 58004;EQDQ01  00002PRCP99
0167483520999992000120203004+17860+102720FM-12+0175VTUM V0200701N002110075019N0130001N1+02671+02111101491ADDAA199000091GF107991051051008001071061MA1999999099511MD1999999+0151REMSYN070AAXX  02034 48352 32563 70704 10267 20211 39951 40149 85576 333 58015;EQDQ01  00002PRCP99
0167483520999992000120206004+17860+102720FM-12+0175VTUM V0209999C000010075019N0150001N1+02971+02031101211ADDAA199000091GF107991051021008001031061MA1999999099241MD1999999+0201REMSYN070AAXX  02064 48352 32565 70000 10297 20203 39924 40121 85236 333 58020;EQDQ01  00002PRCP99
0167483520999992000120209004+17860+102720FM-12+0175VTUM V0209999C000010450019N0150001N1+03051+02081101031ADDAA199000091GF107991041021008001031061MA1999999099071MD1999999+0181REMSYN070AAXX  02094 48352 32565 70000 10305 20208 39907 40103 84236 333 58018;EQDQ01  00002PRCP99
0167483520999992000120215004+17860+102720FM-12+0175VTUM V0209999C000010075019N0120001N1+02521+02011101441ADDAA199000091GF107991051051008001031061MA1999999099441MD1999999+0221REMSYN070AAXX  02154 48352 32562 70000 10252 20201 39944 40144 85536 333 58022;EQDQ01  00002PRCP99
0167483520999992000120218004+17860+102720FM-12+0175VTUM V0209999C000012200019N0110001N1+02311+02031101401ADDAA199000091GF102991021051008001001001MA1999999099391MD1999999+0141REMSYN070AAXX  02184 48352 32561 20000 10231 20203 39939 40140 82500 333 58014;EQDQ01  00002PRCP99
0167483520999992000120221004+17860+102720FM-12+0175VTUM V0209999C000010450019N0100001N1+02231+02031101371ADDAA199000091GF106991041051008001031061MA1999999099351MD1999999+0151REMSYN070AAXX  02214 48352 32560 60000 10223 20203 39935 40137 84536 333 58015;EQDQ01  00002PRCP99
0186483520999992000120300004+17860+102720FM-12+0175VTUM V0209999C000010075019N0100001N1+02201+02001101491ADDAA199000091GF107991051051008001001061KA1120N+02171MA1999999099471MD1999999+0151REMSYN076AAXX  03004 48352 32560 70000 10220 20200 39947 40149 85506 333 20217 58015;EQDQ01  00002PRCP99
0152483520999992000120303004+17860+102720FM-12+0175VTUM V0209999C000019999999N0130001N1+02501+01991999999ADDAA199000091GF108991999999008001999999MA1999999099651REMSYN069AAXX  03034 48352 32563 80000 10250 20199 39965 4014 85536 333 58015;EQDQ01  00002PRCP99
0167483520999992000120306004+17860+102720FM-12+0175VTUM V0200501N001510450019N0140001N1+02941+01871101321ADDAA199000091GF106991041081008001031051MA1999999099351MD1999999+0111REMSYN070AAXX  03064 48352 32564 60503 10294 20187 39935 40132 84835 333 58011;EQDQ01  00002PRCP99
0167483520999992000120309004+17860+102720FM-12+0175VTUM V0200401N002610450019N0140001N1+02901+01811101191ADDAA199000091GF107991041051008001031061MA1999999099221MD1999999+0161REMSYN070AAXX  03094 48352 32564 70405 10290 20181 39922 40119 84536 333 58016;EQDQ01  00002PRCP99
0186483520999992000120312004+17860+102720FM-12+0175VTUM V0200501N002610450019N0130001N1+02551+01811101371ADDAA199000091GF107991031051008001031061KA1120M+03021MA1999999099381MD1999999+0091REMSYN076AAXX  03124 48352 32563 70505 10255 20181 39938 40137 83536 333 10302 58009;EQDQ01  00002PRCP99
0167483520999992000120315004+17860+102720FM-12+0175VTUM V0200501N001510075019N0120001N1+02321+01721101541ADDAA199000091GF108991051051008001031061MA1999999099531MD1999999+0101REMSYN070AAXX  03154 48352 32562 80503 10232 20172 39953 40154 85536 333 58010;EQDQ01  00002PRCP99
0167483520999992000120318004+17860+102720FM-12+0175VTUM V0200601N002610075019N0120001N1+02121+01681101461ADDAA199000091GF108991051051008001031061MA1999999099441MD1999999+0061REMSYN070AAXX  03184 48352 32562 80605 10212 20168 39944 40146 85536 333 58006;EQDQ01  00002PRCP99
0167483520999992000120321004+17860+102720FM-12+0175VTUM V0209999C000019999999N0110001N1+01951+01531101441ADDAA199000091GF106991001001999999001061MA1999999099401MD1999999+0071REMSYN070AAXX  03214 48352 32961 60000 10195 20153 39940 40144 80006 333 58007;EQDQ01  00002PRCP99
0186483520999992000120400004+17860+102720FM-12+0175VTUM V0209999C000012200019N0100001N1+01901+01451101581ADDAA199000091GF103991021051008001001051KA1120N+01881MA1999999099541MD1999999+0091REMSYN076AAXX  04004 48352 32560 30000 10190 20145 39954 40158 82505 333 20188 58009;EQDQ01  00002PRCP99
0167483520999992000120406004+17860+102720FM-12+0175VTUM V0200101N001012200019N0130001N1+02701+01591101371ADDAA199000091GF102991021021008001001051MA1999999099391MD1999999+0051REMSYN070AAXX  04064 48352 32563 20102 10270 20159 39939 40137 82205 333 58005;EQDQ01  00002PRCP99
0177483520999992000120409004+17860+102720FM-12+0175VTUM V0200301N001512200019N0130001N1+02731+01631101181ADDAA199000091GA1001+999999999GF100991001001999999001001MA1999999099201MD1999999-0011REMSYN064AAXX  04094 48352 32963 00303 10273 20163 39920 40118 333 59001;EQDQ01  00002PRCP99
0196483520999992000120412004+17860+102720FM-12+0175VTUM V0209999C000012200019N0120001N1+02371+01741101331ADDAA199000091GA1001+999999999GF100991001001999999001001KA1120M+02801MA1999999099331MD1999999-0041REMSYN070AAXX  04124 48352 32962 00000 10237 20174 39933 40133 333 10280 59004;EQDQ01  00002PRCP99
0177483520999992000120415004+17860+102720FM-12+0175VTUM V0209999C000012200019N0110001N1+02161+01791101401ADDAA199000091GA1001+999999999GF100991001001999999001001MA1999999099391MD1999999-0141REMSYN064AAXX  04154 48352 32961 00000 10216 20179 39939 40140 333 59014;EQDQ01  00002PRCP99
0177483520999992000120418004+17860+102720FM-12+0175VTUM V0209999C000012200019N0100001N1+02001+01761101351ADDAA199000091GA1001+999999999GF100991001001999999001001MA1999999099321MD1999999-0111REMSYN064AAXX  04184 48352 32960 00000 10200 20176 39932 40135 333 59011;EQDQ01  00002PRCP99
0177483520999992000120421004+17860+102720FM-12+0175VTUM V0209999C000012200019N0100001N1+01831+01581101321ADDAA199000091GA1001+999999999GF100991001001999999001001MA1999999099271MD1999999-0121REMSYN064AAXX  04214 48352 32960 00000 10183 20158 39927 40132 333 59012;EQDQ01  00002PRCP99
0196483520999992000120500004+17860+102720FM-12+0175VTUM V0209999C000012200019N0100001N1+01771+01511101481ADDAA199000091GA1001+999999999GF100991001001999999001001KA1120N+01731MA1999999099441MD1999999-0101REMSYN070AAXX  05004 48352 32960 00000 10177 20151 39944 40148 333 20173 59010;EQDQ01  00002PRCP99
0177483520999992000120503004+17860+102720FM-12+0175VTUM V0201001N002612200019N0120001N1+02331+01571101581ADDAA199000091GA1001+999999999GF100991001001999999001001MA1999999099571MD1999999-0131REMSYN064AAXX  05034 48352 32962 01005 10233 20157 39957 40158 333 59013;EQDQ01  00002PRCP99
0177483520999992000120506004+17860+102720FM-12+0175VTUM V0200501N001012200019N0140001N1+02721+01771101181ADDAA199000091GA1001+999999999GF100991001001999999001001MA1999999099201MD1999999-0191REMSYN064AAXX  05064 48352 32964 00502 10272 20177 39920 40118 333 59019;EQDQ01  00002PRCP99
0177483520999992000120509004+17860+102720FM-12+0175VTUM V0209999C000012200019N0130001N1+02821+01761101011ADDAA199000091GA1001+999999999GF100991001001999999001001MA1999999099041MD1999999-0171REMSYN064AAXX  05094 48352 32963 00000 10282 20176 39904 40101 333 59017;EQDQ01  00002PRCP99
0196483520999992000120512004+17860+102720FM-12+0175VTUM V0209999C000012200019N0120001N1+02421+01921101191ADDAA199000091GA1001+999999999GF100991001001999999001001KA1120M+02891MA1999999099191MD1999999-0141REMSYN070AAXX  05124 48352 32962 00000 10242 20192 39919 40119 333 10289 59014;EQDQ01  00002PRCP99
0177483520999992000120515004+17860+102720FM-12+0175VTUM V0209999C000012200019N0100001N1+02221+01891101371ADDAA199000091GA1001+999999999GF100991001001999999001001MA1999999099351MD1999999-0031REMSYN064AAXX  05154 48352 32960 00000 10222 20189 39935 40137 333 59003;EQDQ01  00002PRCP99
0177483520999992000120518004+17860+102720FM-12+0175VTUM V0209999C000012200019N0100001N1+02021+01661101361ADDAA199000091GA1001+999999999GF100991001001999999001001MA1999999099331MD1999999+0011REMSYN064AAXX  05184 48352 32960 00000 10202 20166 39933 40136 333 58001;EQDQ01  00002PRCP99
0177483520999992000120521004+17860+102720FM-12+0175VTUM V0209999C000012200019N0100001N1+01901+01671101351ADDAA199000091GA1001+999999999GF100991001001999999001001MA1999999099311MD1999999+0031REMSYN064AAXX  05214 48352 32960 00000 10190 20167 39931 40135 333 58003;EQDQ01  00002PRCP99
0214483520999992000120600004+17860+102720FM-12+0175VTUM V0209999C000019999999N0070001N1+01751+01671101551ADDAA199000091AY111061AY201061GF106991001001999999001061KA1120N+01721MA1999999099501MD1999999+0071MW1101REMSYN082AAXX  06004 48352 31957 60000 10175 20167 39950 40155 71010 80006 333 20172 58007;EQDQ01  00002PRCP99
0167483520999992000120603004+17860+102720FM-12+0175VTUM V0200401N001512200019N0120001N1+02461+01721101601ADDAA199000091GF101991001001999999001011MA1999999099611MD1999999+0021REMSYN070AAXX  06034 48352 32962 10403 10246 20172 39961 40160 80001 333 58002;EQDQ01  00002PRCP99
0167483520999992000120606004+17860+102720FM-12+0175VTUM V0200501N001012200019N0130001N1+02821+01791101261ADDAA199000091GF103991031021008001001001MA1999999099281MD1999999+0081REMSYN070AAXX  06064 48352 32563 30502 10282 20179 39928 40126 83200 333 58008;EQDQ01  00002PRCP99
0167483520999992000120609004+17860+102720FM-12+0175VTUM V0209999C000012200019N0130001N1+02861+01761101081ADDAA199000091GF102991011011008001001011MA1999999099111MD1999999+0071REMSYN070AAXX  06094 48352 32563 20000 10286 20176 39911 40108 81101 333 58007;EQDQ01  00002PRCP99
0196483520999992000120612004+17860+102720FM-12+0175VTUM V0209999C000012200019N0120001N1+02421+02051101231ADDAA199000091GA1001+999999999GF100991001001999999001001KA1120M+02981MA1999999099221MD1999999+0041REMSYN070AAXX  06124 48352 32962 00000 10242 20205 39922 40123 333 10298 58004;EQDQ01  00002PRCP99
0177483520999992000120615004+17860+102720FM-12+0175VTUM V0209999C000012200019N0100001N1+02201+01881101341ADDAA199000091GA1001+999999999GF100991001001999999001001MA1999999099321MD1999999-0031REMSYN064AAXX  06154 48352 32960 00000 10220 20188 39932 40134 333 59003;EQDQ01  00002PRCP99
0177483520999992000120618004+17860+102720FM-12+0175VTUM V0209999C000012200019N0100001N1+02071+01741101371ADDAA199000091GA1001+999999999GF100991001001999999001001MA1999999099351MD1999999+0011REMSYN064AAXX  06184 48352 32960 00000 10207 20174 39935 40137 333 58001;EQDQ01  00002PRCP99
0205483520999992000120621004+17860+102720FM-12+0175VTUM V0209999C000012200019N0080001N1+01901+01741101471ADDAA199000091AY101031AY201031GA1001+999999999GF100991001001999999001001MA1999999099431MD1999999+0121MW1101REMSYN070AAXX  06214 48352 31958 00000 10190 20174 39943 40147 71000 333 58012;EQDQ01  00002PRCP99
0224483520999992000120700004+17860+102720FM-12+0175VTUM V0209999C000012200019N0070001N1+01791+01721101471ADDAA199000091AY101061AY201061GA1001+999999999GF100991001001999999001001KA1120N+01751MA1999999099431MD1999999-0081MW1101REMSYN076AAXX  07004 48352 31957 00000 10179 20172 39943 40147 71000 333 20175 59008;EQDQ01  00002PRCP99
0167483520999992000120703004+17860+102720FM-12+0175VTUM V0200301N001012200019N0100001N1+02481+01801101591ADDAA199000091GF102991001001999999001051MA1999999099591MD1999999-0011REMSYN070AAXX  07034 48352 32960 20302 10248 20180 39959 40159 80005 333 59001;EQDQ01  00002PRCP99
0167483520999992000120706004+17860+102720FM-12+0175VTUM V0200601N001012200019N0120001N1+02871+01691101251ADDAA199000091GF103991021051008001031051MA1999999099281MD1999999-0011REMSYN070AAXX  07064 48352 32562 30602 10287 20169 39928 40125 82535 333 59001;EQDQ01  00002PRCP99
0167483520999992000120709004+17860+102720FM-12+0175VTUM V0200501N001510450019N0120001N1+02901+01651101061ADDAA199000091GF106991041051008001031051MA1999999099091MD1999999-0021REMSYN070AAXX  07094 48352 32562 60503 10290 20165 39909 40106 84535 333 59002;EQDQ01  00002PRCP99
0196483520999992000120712004+17860+102720FM-12+0175VTUM V0209999C000012200019N0110001N1+02641+01821101341ADDAA199000091GA1001+999999999GF100991001001999999001001KA1120M+02981MA1999999099351MD1999999+0111REMSYN070AAXX  07124 48352 32961 00000 10264 20182 39935 40134 333 10298 58011;EQDQ01  00002PRCP99
0167483520999992000120715004+17860+102720FM-12+0175VTUM V0200501N001510075019N0100001N1+02461+01741101461ADDAA199000091GF106991051051008001001051MA1999999099461MD1999999+0121REMSYN070AAXX  07154 48352 32560 60503 10246 20174 39946 40146 85505 333 58012;EQDQ01  00002PRCP99
0167483520999992000120718004+17860+102720FM-12+0175VTUM V0200401N001010075019N0100001N1+02281+01731101401ADDAA199000091GF107991051051008001031051MA1999999099391MD1999999+0031REMSYN070AAXX  07184 48352 32560 70402 10228 20173 39939 40140 85535 333 58003;EQDQ01  00002PRCP99
0167483520999992000120721004+17860+102720FM-12+0175VTUM V0209999C000012200019N0100001N1+02131+01721101241ADDAA199000091GF102991001001999999001051MA1999999099221MD1999999-0231REMSYN070AAXX  07214 48352 32960 20000 10213 20172 39922 40124 80005 333 59023;EQDQ01  00002PRCP99
0215483520999992000120800004+17860+102720FM-12+0175VTUM V0209999C000010450019N0080001N1+02251+02031100921ADDAA199000091AY121061AY201061GF107991031051008001051061KA1120N+02201MD1999999-0231MW1101REMSYN082AAXX  08004 48352 31558 70000 10225 20203 30083 40092 71020 83556 333 20220 59023;EQDQ01+100833APOSP Q02  00002PRCP99
0177483520999992000120803004+17860+102720FM-12+0175VTUM V0209999C000012200019N0120001N1+02621+01851101471ADDAA199000091GA1001+999999999GF100991001001999999001001MA1999999099481MD1999999-0121REMSYN064AAXX  08034 48352 32962 00000 10262 20185 39948 40147 333 59012;EQDQ01  00002PRCP99
0167483520999992000120806004+17860+102720FM-12+0175VTUM V0200501N001512200019N0130001N1+02971+01661101111ADDAA199000091GF102991021011008001001001MA1999999099151MD1999999-0141REMSYN070AAXX  08064 48352 32563 20503 10297 20166 39915 40111 82100 333 59014;EQDQ01  00002PRCP99
0167483520999992000120809004+17860+102720FM-12+0175VTUM V0200601N002612200019N0120001N1+02961+01711100961ADDAA199000091GF101991011011008001001001MA1999999099001MD1999999-0101REMSYN070AAXX  08094 48352 32562 10605 10296 20171 39900 40096 81100 333 59010;EQDQ01  00002PRCP99
0186483520999992000120812004+17860+102720FM-12+0175VTUM V0209999C000012200019N0110001N1+02571+01921101141ADDAA199000091GF103991031051008001001001KA1120M+03081MA1999999099151MD1999999-0201REMSYN076AAXX  08124 48352 32561 30000 10257 20192 39915 40114 83500 333 10308 59020;EQDQ01  00002PRCP99
0167483520999992000120815004+17860+102720FM-12+0175VTUM V0209999C000012200019N0100001N1+02351+01831101261ADDAA199000091GF103991021051008001001051MA1999999099261MD1999999-0201REMSYN070AAXX  08154 48352 32560 30000 10235 20183 39926 40126 82505 333 59020;EQDQ01  00002PRCP99
0167483520999992000120818004+17860+102720FM-12+0175VTUM V0209999C000010075019N0100001N1+02151+01801101251ADDAA199000091GF108991051051008001071061MA1999999099241MD1999999-0151REMSYN070AAXX  08184 48352 32560 80000 10215 20180 39924 40125 85576 333 59015;EQDQ01  00002PRCP99
0167483520999992000120821004+17860+102720FM-12+0175VTUM V0209999C000012200019N0100001N1+02101+01781101131ADDAA199000091GF104991031051008001001051MA1999999099111MD1999999-0111REMSYN070AAXX  08214 48352 32560 40000 10210 20178 39911 40113 83505 333 59011;EQDQ01  00002PRCP99
0214483520999992000120900004+17860+102720FM-12+0175VTUM V0209999C000010075019N0080001N1+02131+01771101251ADDAA199000091AY121061AY211061GF108991051051008001071061KA1120N+02081MA1999999099231MD1999999-0111MW1101REMSYN082AAXX  09004 48352 31558 80000 10213 20177 39923 40125 71021 85576 333 20208 59011;EQDQ01  00002PRCP99
0167483520999992000120903004+17860+102720FM-12+0175VTUM V0209999C000010450019N0100001N1+02451+01761101351ADDAA199000091GF107991041051008001071061MA1999999099351MD1999999-0121REMSYN070AAXX  09034 48352 32560 70000 10245 20176 39935 40135 84576 333 59012;EQDQ01  00002PRCP99
0167483520999992000120906004+17860+102720FM-12+0175VTUM V0200401N001010450019N0120001N1+02861+01791101051ADDAA199000091GF107991041051008001071061MA1999999099081MD1999999-0061REMSYN070AAXX  09064 48352 32562 70402 10286 20179 39908 40105 84576 333 59006;EQDQ01  00002PRCP99
0167483520999992000120909004+17860+102720FM-12+0175VTUM V0200501N001010450019N0120001N1+02881+01851100911ADDAA199000091GF107991011051008001031061MA1999999098961MD1999999-0051REMSYN070AAXX  09094 48352 32562 70502 10288 20185 39896 40091 81536 333 59005;EQDQ01  00002PRCP99
0186483520999992000120912004+17860+102720FM-12+0175VTUM V0209999C000011050019N0110001N1+02501+01991101101ADDAA199000091GF108991021051008001001051KA1120M+02971MA1999999099101MD1999999-0041REMSYN076AAXX  09124 48352 32561 80000 10250 20199 39910 40110 82505 333 10297 59004;EQDQ01  00002PRCP99
0167483520999992000120915004+17860+102720FM-12+0175VTUM V0209999C000010450019N0100001N1+02431+01911101181ADDAA199000091GF106991041051008001031061MA1999999099181MD1999999-0081REMSYN070AAXX  09154 48352 32560 60000 10243 20191 39918 40118 84536 333 59008;EQDQ01  00002PRCP99
0167483520999992000120918004+17860+102720FM-12+0175VTUM V0209999C000012200019N0100001N1+02231+01921101231ADDAA199000091GF102991021051008001001001MA1999999099211MD1999999-0021REMSYN070AAXX  09184 48352 32560 20000 10223 20192 39921 40123 82500 333 59002;EQDQ01  00002PRCP99
0167483520999992000120921004+17860+102720FM-12+0175VTUM V0209999C000010450019N0100001N1+02151+01951101191ADDAA199000091GF106991041051008001031061MA1999999099171MD1999999+0061REMSYN070AAXX  09214 48352 32560 60000 10215 20195 39917 40119 84536 333 58006;EQDQ01  00002PRCP99
0186483520999992000121000004+17860+102720FM-12+0175VTUM V0209999C000010450019N0100001N1+02151+01961101331ADDAA199000091GF106991041051008001031061KA1120N+02101MA1999999099321MD1999999+0081REMSYN076AAXX  10004 48352 32560 60000 10215 20196 39932 40133 84536 333 20210 58008;EQDQ01  00002PRCP99
0167483520999992000121003004+17860+102720FM-12+0175VTUM V0209999C000012200019N0120001N1+02601+01981101461ADDAA199000091GF104991021051008001031051MA1999999099471MD1999999+0111REMSYN070AAXX  10034 48352 32562 40000 10260 20198 39947 40146 82535 333 58011;EQDQ01  00002PRCP99
0167483520999992000121006004+17860+102720FM-12+0175VTUM V0209999C000012200019N0130001N1+03051+01861101141ADDAA199000091GF103991021011008001031011MA1999999099181MD1999999+0091REMSYN070AAXX  10064 48352 32563 30000 10305 20186 39918 40114 82131 333 58009;EQDQ01  00002PRCP99
0167483520999992000121009004+17860+102720FM-12+0175VTUM V0209999C000010450019N0120001N1+03031+01961101051ADDAA199000091GF106991031051008001031061MA1999999099081MD1999999+0141REMSYN070AAXX  10094 48352 32562 60000 10303 20196 39908 40105 83536 333 58014;EQDQ01  00002PRCP99
0186483520999992000121012004+17860+102720FM-12+0175VTUM V0209999C000010450019N0110001N1+02721+02121101201ADDAA199000091GF107991041051008001031061KA1120M+03181MA1999999099221MD1999999+0101REMSYN076AAXX  10124 48352 32561 70000 10272 20212 39922 40120 84536 333 10318 58010;EQDQ01  00002PRCP99
0167483520999992000121015004+17860+102720FM-12+0175VTUM V0209999C000010450019N0100001N1+02551+01981101351ADDAA199000091GF107991041051008001031061MA1999999099361MD1999999+0171REMSYN070AAXX  10154 48352 32560 70000 10255 20198 39936 40135 84536 333 58017;EQDQ01  00002PRCP99
0167483520999992000121018004+17860+102720FM-12+0175VTUM V0209999C000012200019N0100001N1+02381+01891101341ADDAA199000091GF102991021051008001001001MA1999999099341MD1999999+0111REMSYN070AAXX  10184 48352 32560 20000 10238 20189 39934 40134 82500 333 58011;EQDQ01  00002PRCP99
0167483520999992000121021004+17860+102720FM-12+0175VTUM V0209999C000012200019N0100001N1+02251+01901101321ADDAA199000091GF102991021051008001001001MA1999999099311MD1999999+0131REMSYN070AAXX  10214 48352 32560 20000 10225 20190 39931 40132 82500 333 58013;EQDQ01  00002PRCP99
0186483520999992000121100004+17860+102720FM-12+0175VTUM V0209999C000012200019N0100001N1+02101+01931101501ADDAA199000091GF103991021051008001031001KA1120N+02051MA1999999099481MD1999999+0171REMSYN076AAXX  11004 48352 32560 30000 10210 20193 39948 40150 82530 333 20205 58017;EQDQ01  00002PRCP99
0167483520999992000121103004+17860+102720FM-12+0175VTUM V0200501N001012200019N0130001N1+02701+01871101591ADDAA199000091GF101991001001999999001011MA1999999099611MD1999999+0131REMSYN070AAXX  11034 48352 32963 10502 10270 20187 39961 40159 80001 333 58013;EQDQ01  00002PRCP99
0183483520999992000121106004+17860+102720FM-12+0175VTUM V0201001N002612200019N0130001N1+03071+01941101271ADDAA199000091GF101991999011008001001001MA1999999099321MD1999999+0131REMSYN070AAXX  11064 48352 32563 11005 10307 20194 39932 40127 82100 333 58013;EQDQ01+000022SCOTLCQ02  00002PRCP99
0167483520999992000121109004+17860+102720FM-12+0175VTUM V0201001N001012200019N0120001N1+03101+01851101121ADDAA199000091GF102991021011008001001001MA1999999099161MD1999999+0071REMSYN070AAXX  11094 48352 32562 21002 10310 20185 39916 40112 82100 333 58007;EQDQ01  00002PRCP99
0177483520999992000121115004+17860+102720FM-12+0175VTUM V0200501N001012200019N0110001N1+02371+01721101441ADDAA199000091GA1001+999999999GF100991001001999999001001MA1999999099431MD1999999+0091REMSYN064AAXX  11154 48352 32961 00502 10237 20172 39943 40144 333 58009;EQDQ01  00002PRCP99
0177483520999992000121118004+17860+102720FM-12+0175VTUM V0209999C000012200019N0100001N1+02151+01671101431ADDAA199000091GA1001+999999999GF100991001001999999001001MA1999999099411MD1999999+0091REMSYN064AAXX  11184 48352 32960 00000 10215 20167 39941 40143 333 58009;EQDQ01  00002PRCP99
0205483520999992000121121004+17860+102720FM-12+0175VTUM V0209999C000012200019N0080001N1+01971+01691101371ADDAA199000091AY101031AY201031GA1001+999999999GF100991001001999999001001MA1999999099341MD1999999+0051MW1101REMSYN070AAXX  11214 48352 31958 00000 10197 20169 39934 40137 71000 333 58005;EQDQ01  00002PRCP99
0224483520999992000121200004+17860+102720FM-12+0175VTUM V0209999C000012200019N0050001N1+01901+01681101481ADDAA199000091AY101061AY201061GA1001+999999999GF100991001001999999001001KA1120N+01851MA1999999099451MD1999999-0021MW1101REMSYN076AAXX  12004 48352 31950 00000 10190 20168 39945 40148 71000 333 20185 59002;EQDQ01  00002PRCP99
0177483520999992000121203004+17860+102720FM-12+0175VTUM V0209999C000012200019N0100001N1+02571+01831101571ADDAA199000091GA1001+999999999GF100991001001999999001001MA1999999099581MD1999999-0021REMSYN064AAXX  12034 48352 32960 00000 10257 20183 39958 40157 333 59002;EQDQ01  00002PRCP99
0177483520999992000121206004+17860+102720FM-12+0175VTUM V0200601N001012200019N0120001N1+02971+01681101151ADDAA199000091GA1001+999999999GF100991001001999999001001MA1999999099191MD1999999-0121REMSYN064AAXX  12064 48352 32962 00602 10297 20168 39919 40115 333 59012;EQDQ01  00002PRCP99
0167483520999992000121209004+17860+102720FM-12+0175VTUM V0209999C000012200019N0130001N1+03031+01701100981ADDAA199000091GF104991001001999999001061MA1999999099021MD1999999-0141REMSYN070AAXX  12094 48352 32963 40000 10303 20170 39902 40098 80006 333 59014;EQDQ01  00002PRCP99
0196483520999992000121212004+17860+102720FM-12+0175VTUM V0209999C000012200019N0120001N1+02611+01891101131ADDAA199000091GA1001+999999999GF100991001001999999001001KA1120M+03111MA1999999099141MD1999999-0151REMSYN070AAXX  12124 48352 32962 00000 10261 20189 39914 40113 333 10311 59015;EQDQ01  00002PRCP99
0177483520999992000121215004+17860+102720FM-12+0175VTUM V0209999C000012200019N0110001N1+02321+01881101261ADDAA199000091GA1001+999999999GF100991001001999999001001MA1999999099261MD1999999-0181REMSYN064AAXX  12154 48352 32961 00000 10232 20188 39926 40126 333 59018;EQDQ01  00002PRCP99
0177483520999992000121218004+17860+102720FM-12+0175VTUM V0209999C000012200019N0100001N1+02131+01691101281ADDAA199000091GA1001+999999999GF100991001001999999001001MA1999999099251MD1999999-0151REMSYN064AAXX  12184 48352 32960 00000 10213 20169 39925 40128 333 59015;EQDQ01  00002PRCP99
0177483520999992000121221004+17860+102720FM-12+0175VTUM V0209999C000012200019N0100001N1+02021+01671101231ADDAA199000091GA1001+999999999GF100991001001999999001001MA1999999099201MD1999999-0141REMSYN064AAXX  12214 48352 32960 00000 10202 20167 39920 40123 333 59014;EQDQ01  00002PRCP99
0224483520999992000121300004+17860+102720FM-12+0175VTUM V0209999C000012200019N0080001N1+01901+01671101371ADDAA199000091AY101061AY201061GA1001+999999999GF100991001001999999001001KA1120N+01881MA1999999099331MD1999999-0111MW1101REMSYN076AAXX  13004 48352 31958 00000 10190 20167 39933 40137 71000 333 20188 59011;EQDQ01  00002PRCP99
0177483520999992000121303004+17860+102720FM-12+0175VTUM V0200601N002612200019N0120001N1+02621+01711101421ADDAA199000091GA1001+999999999GF100991001001999999001001MA1999999099431MD1999999-0151REMSYN064AAXX  13034 48352 32962 00605 10262 20171 39943 40142 333 59015;EQDQ01  00002PRCP99
0177483520999992000121306004+17860+102720FM-12+0175VTUM V0200201N002612200019N0120001N1+02921+01771101091ADDAA199000091GA1001+999999999GF100991001001999999001001MA1999999099121MD1999999-0061REMSYN064AAXX  13064 48352 32962 00205 10292 20177 39912 40109 333 59006;EQDQ01  00002PRCP99
0167483520999992000121309004+17860+102720FM-12+0175VTUM V0209999C000010450019N0120001N1+02871+01821100961ADDAA199000091GF105991031081008001031001MA1999999098991MD1999999-0021REMSYN070AAXX  13094 48352 32562 50000 10287 20182 39899 40096 83830 333 59002;EQDQ01  00002PRCP99
0186483520999992000121312004+17860+102720FM-12+0175VTUM V0209999C000012200019N0110001N1+02571+01861101111ADDAA199000091GF102991021051008001001001KA1120M+03041MA1999999099121MD1999999-0021REMSYN076AAXX  13124 48352 32561 20000 10257 20186 39912 40111 82500 333 10304 59002;EQDQ01  00002PRCP99
0177483520999992000121315004+17860+102720FM-12+0175VTUM V0209999C000012200019N0110001N1+02301+01771101251ADDAA199000091GA1001+999999999GF100991001001999999001001MA1999999099241MD1999999-0011REMSYN064AAXX  13154 48352 32961 00000 10230 20177 39924 40125 333 59001;EQDQ01  00002PRCP99
0177483520999992000121318004+17860+102720FM-12+0175VTUM V0209999C000012200019N0100001N1+02021+01691101371ADDAA199000091GA1001+999999999GF100991001001999999001001MA1999999099341MD1999999+0091REMSYN064AAXX  13184 48352 32960 00000 10202 20169 39934 40137 333 58009;EQDQ01  00002PRCP99
0177483520999992000121321004+17860+102720FM-12+0175VTUM V0209999C000012200019N0100001N1+01801+01491101401ADDAA199000091GA1001+999999999GF100991001001999999001001MA1999999099351MD1999999+0171REMSYN064AAXX  13214 48352 32960 00000 10180 20149 39935 40140 333 58017;EQDQ01  00002PRCP99
0224483520999992000121400004+17860+102720FM-12+0175VTUM V0209999C000012200019N0070001N1+01671+01461101581ADDAA199000091AY101061AY201061GA1001+999999999GF100991001001999999001001KA1120N+01651MA1999999099531MD1999999+0211MW1101REMSYN076AAXX  14004 48352 31957 00000 10167 20146 39953 40158 71000 333 20165 58021;EQDQ01  00002PRCP99
0177483520999992000121403004+17860+102720FM-12+0175VTUM V0200401N001012200019N0100001N1+02301+01531101701ADDAA199000091GA1001+999999999GF100991001001999999001001MA1999999099681MD1999999+0281REMSYN064AAXX  14034 48352 32960 00402 10230 20153 39968 40170 333 58028;EQDQ01  00002PRCP99
0177483520999992000121406004+17860+102720FM-12+0175VTUM V0200601N001012200019N0150001N1+02651+01671101341ADDAA199000091GA1001+999999999GF100991001001999999001001MA1999999099361MD1999999+0251REMSYN064AAXX  14064 48352 32965 00602 10265 20167 39936 40134 333 58025;EQDQ01  00002PRCP99
0196483520999992000121412004+17860+102720FM-12+0175VTUM V0203601N001012200019N0130001N1+02321+01831101401ADDAA199000091GA1001+999999999GF100991001001999999001001KA1120M+02811MA1999999099391MD1999999+0291REMSYN070AAXX  14124 48352 32963 03602 10232 20183 39939 40140 333 10281 58029;EQDQ01  00002PRCP99
0177483520999992000121415004+17860+102720FM-12+0175VTUM V0209999C000012200019N0120001N1+02101+01781101511ADDAA199000091GA1001+999999999GF100991001001999999001001MA1999999099481MD1999999+0261REMSYN064AAXX  14154 48352 32962 00000 10210 20178 39948 40151 333 58026;EQDQ01  00002PRCP99
0177483520999992000121418004+17860+102720FM-12+0175VTUM V0209999C000012200019N0110001N1+01911+01701101561ADDAA199000091GA1001+999999999GF100991001001999999001001MA1999999099531MD1999999+0191REMSYN064AAXX  14184 48352 32961 00000 10191 20170 39953 40156 333 58019;EQDQ01  00002PRCP99
0177483520999992000121421004+17860+102720FM-12+0175VTUM V0209999C000012200019N0100001N1+01771+01601101531ADDAA199000091GA1001+999999999GF100991001001999999001001MA1999999099491MD1999999+0131REMSYN064AAXX  14214 48352 32960 00000 10177 20160 39949 40153 333 58013;EQDQ01  00002PRCP99
0224483520999992000121500004+17860+102720FM-12+0175VTUM V0209999C000012200019N0070001N1+01671+01551101671ADDAA199000091AY101061AY201061GA1001+999999999GF100991001001999999001001KA1120N+01631MA1999999099621MD1999999+0091MW1101REMSYN076AAXX  15004 48352 31957 00000 10167 20155 39962 40167 71000 333 20163 58009;EQDQ01  00002PRCP99
0177483520999992000121503004+17860+102720FM-12+0175VTUM V0209999C000012200019N0110001N1+02381+01681101691ADDAA199000091GA1001+999999999GF100991001001999999001001MA1999999099681MD1999999-0011REMSYN064AAXX  15034 48352 32961 00000 10238 20168 39968 40169 333 59001;EQDQ01  00002PRCP99
0167483520999992000121506004+17860+102720FM-12+0175VTUM V0209999C000012200019N0130001N1+02731+01691101371ADDAA199000091GF101991011011008001001001MA1999999099391MD1999999+0031REMSYN070AAXX  15064 48352 32563 10000 10273 20169 39939 40137 81100 333 58003;EQDQ01  00002PRCP99
0177483520999992000121509004+17860+102720FM-12+0175VTUM V0201201N001012200019N0130001N1+02881+01721101211ADDAA199000091GA1001+999999999GF100991001001999999001001MA1999999099241MD1999999-0031REMSYN064AAXX  15094 48352 32963 01202 10288 20172 39924 40121 333 59003;EQDQ01  00002PRCP99
0196483520999992000121512004+17860+102720FM-12+0175VTUM V0209999C000012200019N0120001N1+02471+01861101451ADDAA199000091GA1001+999999999GF100991001001999999001001KA1120M+02941MA1999999099451MD1999999+0051REMSYN070AAXX  15124 48352 32962 00000 10247 20186 39945 40145 333 10294 58005;EQDQ01  00002PRCP99
0177483520999992000121515004+17860+102720FM-12+0175VTUM V0209999C000012200019N0100001N1+02161+01861101541ADDAA199000091GA1001+999999999GF100991001001999999001001MA1999999099531MD1999999+0031REMSYN064AAXX  15154 48352 32960 00000 10216 20186 39953 40154 333 58003;EQDQ01  00002PRCP99
0167483520999992000121518004+17860+102720FM-12+0175VTUM V0209999C000012200019N0100001N1+02041+01831101601ADDAA199000091GF102991001001999999001011MA1999999099571MD1999999+0041REMSYN070AAXX  15184 48352 32960 20000 10204 20183 39957 40160 80001 333 58004;EQDQ01  00002PRCP99
0177483520999992000121521004+17860+102720FM-12+0175VTUM V0209999C000012200019N0100001N1+01951+01771101581ADDAA199000091GA1001+999999999GF100991001001999999001001MA1999999099551MD1999999+0051REMSYN064AAXX  15214 48352 32960 00000 10195 20177 39955 40158 333 58005;EQDQ01  00002PRCP99
0214483520999992000121600004+17860+102720FM-12+0175VTUM V0209999C000012200019N0060001N1+01851+01781101771ADDAA199000091AY101061AY201061GF102991021051008001001001KA1120N+01801MA1999999099721MD1999999+0101MW1101REMSYN082AAXX  16004 48352 31556 20000 10185 20178 39972 40177 71000 82500 333 20180 58010;EQDQ01  00002PRCP99
0177483520999992000121603004+17860+102720FM-12+0175VTUM V0209999C000012200019N0100001N1+02551+01841101821ADDAA199000091GA1001+999999999GF100991001001999999001001MA1999999099821MD1999999+0131REMSYN064AAXX  16034 48352 32960 00000 10255 20184 39982 40182 333 58013;EQDQ01  00002PRCP99
0167483520999992000121606004+17860+102720FM-12+0175VTUM V0209999C000012200019N0130001N1+02931+01881101481ADDAA199000091GF102991021011008001001001MA1999999099511MD1999999+0111REMSYN070AAXX  16064 48352 32563 20000 10293 20188 39951 40148 82100 333 58011;EQDQ01  00002PRCP99
0177483520999992000121609004+17860+102720FM-12+0175VTUM V0200101N001012200019N0130001N1+03011+01811101311ADDAA199000091GA1001+999999999GF100991001001999999001001MA1999999099351MD1999999+0101REMSYN064AAXX  16094 48352 32963 00102 10301 20181 39935 40131 333 58010;EQDQ01  00002PRCP99
0196483520999992000121612004+17860+102720FM-12+0175VTUM V0209999C000012200019N0120001N1+02551+01951101511ADDAA199000091GA1001+999999999GF100991001001999999001001KA1120M+03071MA1999999099521MD1999999+0061REMSYN070AAXX  16124 48352 32962 00000 10255 20195 39952 40151 333 10307 58006;EQDQ01  00002PRCP99
0177483520999992000121615004+17860+102720FM-12+0175VTUM V0209999C000012200019N0110001N1+02301+01941101601ADDAA199000091GA1001+999999999GF100991001001999999001001MA1999999099591MD1999999+0061REMSYN064AAXX  16154 48352 32961 00000 10230 20194 39959 40160 333 58006;EQDQ01  00002PRCP99
0177483520999992000121621004+17860+102720FM-12+0175VTUM V0209999C000012200019N0100001N1+01981+01821101581ADDAA199000091GA1001+999999999GF100991001001999999001001MA1999999099551MD1999999+0081REMSYN064AAXX  16214 48352 32960 00000 10198 20182 39955 40158 333 58008;EQDQ01  00002PRCP99
0224483520999992000121700004+17860+102720FM-12+0175VTUM V0209999C000012200019N0100001N1+01881+01821101741ADDAA199000091AY101061AY201061GA1001+999999999GF100991001001999999001001KA1120N+01851MA1999999099691MD1999999-0031MW1101REMSYN076AAXX  17004 48352 31960 00000 10188 20182 39969 40174 71000 333 20185 59003;EQDQ01  00002PRCP99
0177483520999992000121703004+17860+102720FM-12+0175VTUM V0200401N001012200019N0120001N1+02511+01881101821ADDAA199000091GA1001+999999999GF100991001001999999001001MA1999999099811MD1999999+0001REMSYN064AAXX  17034 48352 32962 00402 10251 20188 39981 40182 333 58000;EQDQ01  00002PRCP99
0167483520999992000121706004+17860+102720FM-12+0175VTUM V0209999C000012200019N0150001N1+02951+01871101411ADDAA199000091GF101991011011008001001001MA1999999099451MD1999999-0071REMSYN070AAXX  17064 48352 32565 10000 10295 20187 39945 40141 81100 333 59007;EQDQ01  00002PRCP99
0167483520999992000121709004+17860+102720FM-12+0175VTUM V0209999C000012200019N0150001N1+03031+01851101171ADDAA199000091GF102991021011008001001001MA1999999099211MD1999999-0141REMSYN070AAXX  17094 48352 32565 20000 10303 20185 39921 40117 82100 333 59014;EQDQ01  00002PRCP99
0186483520999992000121712004+17860+102720FM-12+0175VTUM V0209999C000012200019N0130001N1+02561+01941101301ADDAA199000091GF101991011011008001001001KA1120M+03101MA1999999099311MD1999999-0211REMSYN076AAXX  17124 48352 32563 10000 10256 20194 39931 40130 81100 333 10310 59021;EQDQ01  00002PRCP99
0177483520999992000121715004+17860+102720FM-12+0175VTUM V0209999C000012200019N0120001N1+02271+01941101371ADDAA199000091GA1001+999999999GF100991001001999999001001MA1999999099361MD1999999-0231REMSYN064AAXX  17154 48352 32962 00000 10227 20194 39936 40137 333 59023;EQDQ01  00002PRCP99
0177483520999992000121718004+17860+102720FM-12+0175VTUM V0209999C000012200019N0100001N1+02081+01811101331ADDAA199000091GA1001+999999999GF100991001001999999001001MA1999999099301MD1999999-0261REMSYN064AAXX  17184 48352 32960 00000 10208 20181 39930 40133 333 59026;EQDQ01  00002PRCP99
0177483520999992000121721004+17860+102720FM-12+0175VTUM V0209999C000012200019N0100001N1+01961+01781101311ADDAA199000091GA1001+999999999GF100991001001999999001001MA1999999099281MD1999999-0271REMSYN064AAXX  17214 48352 32960 00000 10196 20178 39928 40131 333 59027;EQDQ01  00002PRCP99
0214483520999992000121800004+17860+102720FM-12+0175VTUM V0209999C000012200019N0080001N1+01861+01761101441ADDAA199000091AY101061AY201061GF102991001001999999001011KA1120N+01841MA1999999099401MD1999999-0301MW1101REMSYN082AAXX  18004 48352 31958 20000 10186 20176 39940 40144 71000 80001 333 20184 59030;EQDQ01  00002PRCP99
0177483520999992000121803004+17860+102720FM-12+0175VTUM V0209999C000012200019N0120001N1+02501+01911101511ADDAA199000091GA1001+999999999GF100991001001999999001001MA1999999099521MD1999999-0311REMSYN064AAXX  18034 48352 32962 00000 10250 20191 39952 40151 333 59031;EQDQ01  00002PRCP99
0167483520999992000121806004+17860+102720FM-12+0175VTUM V0200501N001512200019N0130001N1+02901+01881101081ADDAA199000091GF101991011011008001001001MA1999999099111MD1999999-0331REMSYN070AAXX  18064 48352 32563 10503 10290 20188 39911 40108 81100 333 59033;EQDQ01  00002PRCP99
0167483520999992000121809004+17860+102720FM-12+0175VTUM V0203601N001512200019N0120001N1+02931+01861100801ADDAA199000091GF101991011011008001001001MA1999999098841MD1999999-0371REMSYN070AAXX  18094 48352 32562 13603 10293 20186 39884 40080 81100 333 59037;EQDQ01  00002PRCP99
0196483520999992000121812004+17860+102720FM-12+0175VTUM V0209999C000012200019N0100001N1+02451+01831101021ADDAA199000091GA1001+999999999GF100991001001999999001001KA1120M+03091MA1999999099021MD1999999-0281REMSYN070AAXX  18124 48352 32960 00000 10245 20183 39902 40102 333 10309 59028;EQDQ01  00002PRCP99
0205483520999992000121815004+17860+102720FM-12+0175VTUM V0209999C000012200019N0080001N1+02161+01871101121ADDAA199000091AY101031AY201031GA1001+999999999GF100991001001999999001001MA1999999099111MD1999999-0251MW1101REMSYN070AAXX  18154 48352 31958 00000 10216 20187 39911 40112 71000 333 59025;EQDQ01  00002PRCP99
0205483520999992000121818004+17860+102720FM-12+0175VTUM V0209999C000012200019N0070001N1+02051+01891101111ADDAA199000091AY101061AY201061GA1001+999999999GF100991001001999999001001MA1999999099081MD1999999-0221MW1101REMSYN070AAXX  18184 48352 31957 00000 10205 20189 39908 40111 71000 333 59022;EQDQ01  00002PRCP99
0195483520999992000121821004+17860+102720FM-12+0175VTUM V0209999C000010075019N0060001N1+01981+01801101081ADDAA199000091AY111031AY201031GF106991061051008001001001MA1999999099051MD1999999-0231MW1101REMSYN076AAXX  18214 48352 31556 60000 10198 20180 39905 40108 71010 86500 333 59023;EQDQ01  00002PRCP99
0214483520999992000121900004+17860+102720FM-12+0175VTUM V0209999C000012200019N0060001N1+01951+01791101231ADDAA199000091AY111061AY201061GF103991031051008001001001KA1120N+01911MA1999999099201MD1999999-0211MW1101REMSYN082AAXX  19004 48352 31556 30000 10195 20179 39920 40123 71010 83500 333 20191 59021;EQDQ01  00002PRCP99
0177483520999992000121903004+17860+102720FM-12+0175VTUM V0209999C000012200019N0120001N1+02601+01901101381ADDAA199000091GA1001+999999999GF100991001001999999001001MA1999999099391MD1999999-0131REMSYN064AAXX  19034 48352 32962 00000 10260 20190 39939 40138 333 59013;EQDQ01  00002PRCP99
0167483520999992000121906004+17860+102720FM-12+0175VTUM V0209999C000012200019N0120001N1+02891+01851100991ADDAA199000091GF102991021021008001001001MA1999999099021MD1999999-0091REMSYN070AAXX  19064 48352 32562 20000 10289 20185 39902 40099 82200 333 59009;EQDQ01  00002PRCP99
0177483520999992000121909004+17860+102720FM-12+0175VTUM V0209999C000012200019N0120001N1+03021+01821100831ADDAA199000091GA1001+999999999GF100991001001999999001001MA1999999098881MD1999999+0031REMSYN064AAXX  19094 48352 32962 00000 10302 20182 39888 40083 333 58003;EQDQ01  00002PRCP99
0196483520999992000121912004+17860+102720FM-12+0175VTUM V0209999C000012200019N0110001N1+02481+01871101041ADDAA199000091GA1001+999999999GF100991001001999999001001KA1120M+03161MA1999999099041MD1999999+0021REMSYN070AAXX  19124 48352 32961 00000 10248 20187 39904 40104 333 10316 58002;EQDQ01  00002PRCP99
0177483520999992000121915004+17860+102720FM-12+0175VTUM V0209999C000012200019N0100001N1+02231+01781101201ADDAA199000091GA1001+999999999GF100991001001999999001001MA1999999099181MD1999999+0081REMSYN064AAXX  19154 48352 32960 00000 10223 20178 39918 40120 333 58008;EQDQ01  00002PRCP99
0177483520999992000121918004+17860+102720FM-12+0175VTUM V0209999C000012200019N0100001N1+02051+01841101251ADDAA199000091GA1001+999999999GF100991001001999999001001MA1999999099221MD1999999+0141REMSYN064AAXX  19184 48352 32960 00000 10205 20184 39922 40125 333 58014;EQDQ01  00002PRCP99
0177483520999992000121921004+17860+102720FM-12+0175VTUM V0209999C000012200019N0100001N1+01931+01771101301ADDAA199000091GA1001+999999999GF100991001001999999001001MA1999999099271MD1999999+0221REMSYN064AAXX  19214 48352 32960 00000 10193 20177 39927 40130 333 58022;EQDQ01  00002PRCP99
0186483520999992000122000004+17860+102720FM-12+0175VTUM V0209999C000012200019N0100001N1+01891+01761101441ADDAA199000091GF104991001001999999001061KA1120N+01851MA1999999099401MD1999999+0211REMSYN076AAXX  20004 48352 32960 40000 10189 20176 39940 40144 80006 333 20185 58021;EQDQ01  00002PRCP99
0177483520999992000122003004+17860+102720FM-12+0175VTUM V0200501N001012200019N0120001N1+02681+01891101561ADDAA199000091GA1001+999999999GF100991001001999999001001MA1999999099581MD1999999+0181REMSYN064AAXX  20034 48352 32962 00502 10268 20189 39958 40156 333 58018;EQDQ01  00002PRCP99
0167483520999992000122006004+17860+102720FM-12+0175VTUM V0200101N002112200019N0150001N1+03051+01711101231ADDAA199000091GF101991011011008001001001MA1999999099271MD1999999+0241REMSYN070AAXX  20064 48352 32565 10104 10305 20171 39927 40123 81100 333 58024;EQDQ01  00002PRCP99
0167483520999992000122009004+17860+102720FM-12+0175VTUM V0200501N001012200019N0150001N1+03151+01701101061ADDAA199000091GF101991011011008001001001MA1999999099101MD1999999+0231REMSYN070AAXX  20094 48352 32565 10502 10315 20170 39910 40106 81100 333 58023;EQDQ01  00002PRCP99
0177483520999992000122012004+17860+102720FM-12+0175VTUM V0209999C000012200019N0120001N1+02321+01861101411ADDAA199000091GA1001+999999999GF100991001001999999001001MA1999999099401MD1999999+0211REMSYN064AAXX  20124 48352 32962 00000 10232 20186 39940 40141 333 58021;EQDQ01  00002PRCP99
0177483520999992000122015004+17860+102720FM-12+0175VTUM V0209999C000012200019N0120001N1+02321+01861101411ADDAA199000091GA1001+999999999GF100991001001999999001001MA1999999099401MD1999999+0211REMSYN064AAXX  20154 48352 32962 00000 10232 20186 39940 40141 333 58021;EQDQ01  00002PRCP99
0177483520999992000122018004+17860+102720FM-12+0175VTUM V0209999C000012200019N0110001N1+02211+01861101401ADDAA199000091GA1001+999999999GF100991001001999999001001MA1999999099391MD1999999+0151REMSYN064AAXX  20184 48352 32961 00000 10221 20186 39939 40140 333 58015;EQDQ01  00002PRCP99
0177483520999992000122021004+17860+102720FM-12+0175VTUM V0209999C000012200019N0100001N1+02101+01861101331ADDAA199000091GA1001+999999999GF100991001001999999001001MA1999999099311MD1999999+0031REMSYN064AAXX  20214 48352 32960 00000 10210 20186 39931 40133 333 58003;EQDQ01  00002PRCP99
0186483520999992000122100004+17860+102720FM-12+0175VTUM V0209999C000012200019N0110001N1+02001+01791101571ADDAA199000091GF102991001001999999001011KA1120N+01971MA1999999099541MD1999999+0131REMSYN076AAXX  21004 48352 32961 20000 10200 20179 39954 40157 80001 333 20197 58013;EQDQ01  00002PRCP99
0167483520999992000122103004+17860+102720FM-12+0175VTUM V0200301N001012200019N0130001N1+02671+01861101711ADDAA199000091GF101991001001999999001011MA1999999099711MD1999999+0151REMSYN070AAXX  21034 48352 32963 10302 10267 20186 39971 40171 80001 333 58015;EQDQ01  00002PRCP99
0167483520999992000122106004+17860+102720FM-12+0175VTUM V0200401N001512200019N0150001N1+03031+01781101341ADDAA199000091GF102991021011008001001001MA1999999099381MD1999999+0111REMSYN070AAXX  21064 48352 32565 20403 10303 20178 39938 40134 82100 333 58011;EQDQ01  00002PRCP99
0167483520999992000122109004+17860+102720FM-12+0175VTUM V0200801N002112200019N0150001N1+03071+01811101121ADDAA199000091GF104991021051008001031001MA1999999099161MD1999999+0061REMSYN070AAXX  21094 48352 32565 40804 10307 20181 39916 40112 82530 333 58006;EQDQ01  00002PRCP99
0186483520999992000122112004+17860+102720FM-12+0175VTUM V0209999C000012200019N0130001N1+02651+01831101291ADDAA199000091GF103991031051008001001001KA1120M+03161MA1999999099311MD1999999+0011REMSYN076AAXX  21124 48352 32563 30000 10265 20183 39931 40129 83500 333 10316 58001;EQDQ01  00002PRCP99
0177483520999992000122115004+17860+102720FM-12+0175VTUM V0209999C000012200019N0120001N1+02301+01911101471ADDAA199000091GA1001+999999999GF100991001001999999001001MA1999999099461MD1999999+0061REMSYN064AAXX  21154 48352 32962 00000 10230 20191 39946 40147 333 58006;EQDQ01  00002PRCP99
0177483520999992000122118004+17860+102720FM-12+0175VTUM V0209999C000012200019N0110001N1+02041+01641101471ADDAA199000091GA1001+999999999GF100991001001999999001001MA1999999099441MD1999999+0071REMSYN064AAXX  21184 48352 32961 00000 10204 20164 39944 40147 333 58007;EQDQ01  00002PRCP99
0177483520999992000122121004+17860+102720FM-12+0175VTUM V0209999C000012200019N0100001N1+01841+01601101421ADDAA199000091GA1001+999999999GF100991001001999999001001MA1999999099371MD1999999+0091REMSYN064AAXX  21214 48352 32960 00000 10184 20160 39937 40142 333 58009;EQDQ01  00002PRCP99
0214483520999992000122200004+17860+102720FM-12+0175VTUM V0209999C000010450019N0070001N1+01821+01621101541ADDAA199000091AY111061AY201061GF105991041051008001031001KA1120N+01751MA1999999099491MD1999999-0031MW1101REMSYN082AAXX  22004 48352 31557 50000 10182 20162 39949 40154 71010 84530 333 20175 59003;EQDQ01  00002PRCP99
0177483520999992000122203004+17860+102720FM-12+0175VTUM V0200201N001012200019N0100001N1+02331+01591101701ADDAA199000091GA1001+999999999GF100991001001999999001001MA1999999099671MD1999999-0011REMSYN064AAXX  22034 48352 32960 00202 10233 20159 39967 40170 333 59001;EQDQ01  00002PRCP99
0183483520999992000122206004+17860+102720FM-12+0175VTUM V0209999C000012200019N0120001N1+02731+01761101361ADDAA199000091GF101991001001999999001011MA1999999099381MD1999999+0021REMSYN070AAXX  22064 48352 32562 10000 10273 20176 39938 40136 80001 333 58002;EQDQ01+008002SCOLCBQ02  00002PRCP99
0177483520999992000122209004+17860+102720FM-12+0175VTUM V0209999C000012200019N0120001N1+02871+01861101121ADDAA199000091GA1001+999999999GF100991001001999999001001MA1999999099151MD1999999+0001REMSYN064AAXX  22094 48352 32962 00000 10287 20186 39915 40112 333 58000;EQDQ01  00002PRCP99
0196483520999992000122212004+17860+102720FM-12+0175VTUM V0209999C000012200019N0110001N1+02351+01881101231ADDAA199000091GA1001+999999999GF100991001001999999001001KA1120M+02961MA1999999099221MD1999999-0061REMSYN070AAXX  22124 48352 32961 00000 10235 20188 39922 40123 333 10296 59006;EQDQ01  00002PRCP99
0177483520999992000122215004+17860+102720FM-12+0175VTUM V0209999C000012200019N0100001N1+02171+01921101421ADDAA199000091GA1001+999999999GF100991001001999999001001MA1999999099411MD1999999-0051REMSYN064AAXX  22154 48352 32960 00000 10217 20192 39941 40142 333 59005;EQDQ01  00002PRCP99
0177483520999992000122218004+17860+102720FM-12+0175VTUM V0200901N001012200019N0100001N1+01981+01611101541ADDAA199000091GA1001+999999999GF100991001001999999001001MA1999999099511MD1999999+0071REMSYN064AAXX  22184 48352 32960 00902 10198 20161 39951 40154 333 58007;EQDQ01  00002PRCP99
0177483520999992000122221004+17860+102720FM-12+0175VTUM V0209999C000012200019N0100001N1+01811+01541101501ADDAA199000091GA1001+999999999GF100991001001999999001001MA1999999099461MD1999999+0081REMSYN064AAXX  22214 48352 32960 00000 10181 20154 39946 40150 333 58008;EQDQ01  00002PRCP99
0224483520999992000122300004+17860+102720FM-12+0175VTUM V0209999C000012200019N0060001N1+01661+01491101641ADDAA199000091AY101061AY201061GA1001+999999999GF100991001001999999001001KA1120N+01641MA1999999099591MD1999999+0101MW1101REMSYN076AAXX  23004 48352 31956 00000 10166 20149 39959 40164 71000 333 20164 58010;EQDQ01  00002PRCP99
0195483520999992000122303004+17860+102720FM-12+0175VTUM V0201001N002110075019N0070001N1+02181+01541101821ADDAA199000091AY111031AY211031GF106991051051008001001061MA1999999099791MD1999999+0121MW1101REMSYN076AAXX  23034 48352 31557 61004 10218 20154 39979 40182 71011 85506 333 58012;EQDQ01  00002PRCP99
0195483520999992000122306004+17860+102720FM-12+0175VTUM V0200501N002110075019N0090001N1+02651+01451101451ADDAA199000091AY111061AY211061GF106991051051008001041061MA1999999099471MD1999999+0091MW1051REMSYN076AAXX  23064 48352 31559 60504 10265 20145 39947 40145 70511 85546 333 58009;EQDQ01  00002PRCP99
0195483520999992000122309004+17860+102720FM-12+0175VTUM V0200601N002612200019N0090001N1+02721+01331101291ADDAA199000091AY111031AY211031GF102991021011008001001001MA1999999099311MD1999999+0171MW1051REMSYN076AAXX  23094 48352 31559 20605 10272 20133 39931 40129 70511 82100 333 58017;EQDQ01  00002PRCP99
0214483520999992000122312004+17860+102720FM-12+0175VTUM V0200601N001512200019N0080001N1+02201+01331101491ADDAA199000091AY111061AY201061GF101991011011008001001001KA1120M+02811MA1999999099471MD1999999+0261MW1051REMSYN082AAXX  23124 48352 31558 10603 10220 20133 39947 40149 70510 81100 333 10281 58026;EQDQ01  00002PRCP99
0205483520999992000122315004+17860+102720FM-12+0175VTUM V0209999C000012200019N0070001N1+01941+01241101721ADDAA199000091AY101031AY201031GA1001+999999999GF100991001001999999001001MA1999999099671MD1999999+0311MW1051REMSYN070AAXX  23154 48352 31957 00000 10194 20124 39967 40172 70500 333 58031;EQDQ01  00002PRCP99
0205483520999992000122318004+17860+102720FM-12+0175VTUM V0209999C000012200019N0060001N1+01741+01311101671ADDAA199000091AY101061AY201061GA1001+999999999GF100991001001999999001001MA1999999099611MD1999999+0131MW1101REMSYN070AAXX  23184 48352 31956 00000 10174 20131 39961 40167 71000 333 58013;EQDQ01  00002PRCP99
0205483520999992000122321004+17860+102720FM-12+0175VTUM V0209999C000012200019N0060001N1+01561+01271101581ADDAA199000091AY101031AY201031GA1001+999999999GF100991001001999999001001MA1999999099531MD1999999+0081MW1101REMSYN070AAXX  23214 48352 31956 00000 10156 20127 39953 40158 71000 333 58008;EQDQ01  00002PRCP99
0224483520999992000122400004+17860+102720FM-12+0175VTUM V0209999C000012200019N0050001N1+01401+01251101721ADDAA199000091AY101061AY201061GA1001+999999999GF100991001001999999001001KA1120N+01351MA1999999099641MD1999999+0081MW1101REMSYN076AAXX  24004 48352 31950 00000 10140 20125 39964 40172 71000 333 20135 58008;EQDQ01  00002PRCP99
0177483520999992000122403004+17860+102720FM-12+0175VTUM V0209999C000012200019N0100001N1+02251+01331101791ADDAA199000091GA1001+999999999GF100991001001999999001001MA1999999099771MD1999999-0031REMSYN064AAXX  24034 48352 32960 00000 10225 20133 39977 40179 333 59003;EQDQ01  00002PRCP99
0177483520999992000122406004+17860+102720FM-12+0175VTUM V0200301N001512200019N0110001N1+02671+01191101381ADDAA199000091GA1001+999999999GF100991001001999999001001MA1999999099391MD1999999-0071REMSYN064AAXX  24064 48352 32961 00303 10267 20119 39939 40138 333 59007;EQDQ01  00002PRCP99
0177483520999992000122409004+17860+102720FM-12+0175VTUM V0200401N001512200019N0120001N1+02661+01041101241ADDAA199000091GA1001+999999999GF100991001001999999001001MA1999999099261MD1999999-0051REMSYN064AAXX  24094 48352 32962 00403 10266 20104 39926 40124 333 59005;EQDQ01  00002PRCP99
0196483520999992000122412004+17860+102720FM-12+0175VTUM V0209999C000012200019N0110001N1+02081+01371101441ADDAA199000091GA1001+999999999GF100991001001999999001001KA1120M+02771MA1999999099411MD1999999-0051REMSYN070AAXX  24124 48352 32961 00000 10208 20137 39941 40144 333 10277 59005;EQDQ01  00002PRCP99
0205483520999992000122415004+17860+102720FM-12+0175VTUM V0209999C000012200019N0080001N1+01851+01281101621ADDAA199000091AY101031AY201031GA1001+999999999GF100991001001999999001001MA1999999099581MD1999999-0101MW1101REMSYN070AAXX  24154 48352 31958 00000 10185 20128 39958 40162 71000 333 59010;EQDQ01  00002PRCP99
0205483520999992000122418004+17860+102720FM-12+0175VTUM V0209999C000012200019N0070001N1+01601+01161101661ADDAA199000091AY101061AY201061GA1001+999999999GF100991001001999999001001MA1999999099601MD1999999-0011MW1101REMSYN070AAXX  24184 48352 31957 00000 10160 20116 39960 40166 71000 333 59001;EQDQ01  00002PRCP99
0205483520999992000122421004+17860+102720FM-12+0175VTUM V0209999C000012200019N0060001N1+01411+01011101621ADDAA199000091AY101031AY201031GA1001+999999999GF100991001001999999001001MA1999999099551MD1999999+0041MW1101REMSYN070AAXX  24214 48352 31956 00000 10141 20101 39955 40162 71000 333 58004;EQDQ01  00002PRCP99
0224483520999992000122500004+17860+102720FM-12+0175VTUM V0209999C000012200019N0040001N1+01221+01031101591ADDAA199000091AY101061AY201061GA1001+999999999GF100991001001999999001001KA1120N+01191MA1999999099501MD1999999-0131MW1101REMSYN076AAXX  25004 48352 31940 00000 10122 20103 39950 40159 71000 333 20119 59013;EQDQ01  00002PRCP99
0205483520999992000122503004+17860+102720FM-12+0175VTUM V0200401N001512200019N0080001N1+02091+01071101921ADDAA199000091AY101031AY201031GA1001+999999999GF100991001001999999001001MA1999999099881MD1999999+0131MW1051REMSYN070AAXX  25034 48352 31958 00403 10209 20107 39988 40192 70500 333 58013;EQDQ01  00002PRCP99
0205483520999992000122509004+17860+102720FM-12+0175VTUM V0200301N001012200019N0080001N1+02651+00921101331ADDAA199000091AY101031AY201031GA1001+999999999GF100991001001999999001001MA1999999099351MD1999999+0091MW1051REMSYN070AAXX  25094 48352 31958 00302 10265 20092 39935 40133 70500 333 58009;EQDQ01  00002PRCP99
0224483520999992000122512004+17860+102720FM-12+0175VTUM V0209999C000012200019N0070001N1+02061+01241101551ADDAA199000091AY101061AY201061GA1001+999999999GF100991001001999999001001KA1120M+02771MA1999999099471MD1999999+0061MW1051REMSYN076AAXX  25124 48352 31957 00000 10206 20124 39947 40155 70500 333 10277 58006;EQDQ01  00002PRCP99
0205483520999992000122515004+17860+102720FM-12+0175VTUM V0209999C000012200019N0070001N1+01741+01191101671ADDAA199000091AY101031AY201031GA1001+999999999GF100991001001999999001001MA1999999099611MD1999999+0051MW1101REMSYN070AAXX  25154 48352 31957 00000 10174 20119 39961 40167 71000 333 58005;EQDQ01  00002PRCP99
0205483520999992000122518004+17860+102720FM-12+0175VTUM V0209999C000012200019N0060001N1+01551+01201101701ADDAA199000091AY101061AY201061GA1001+999999999GF100991001001999999001001MA1999999099651MD1999999+0041MW1101REMSYN070AAXX  25184 48352 31956 00000 10155 20120 39965 40170 71000 333 58004;EQDQ01  00002PRCP99
0205483520999992000122521004+17860+102720FM-12+0175VTUM V0209999C000012200019N0050001N1+01481+01121101591ADDAA199000091AY101031AY201031GA1001+999999999GF100991001001999999001001MA1999999099531MD1999999-0031MW1101REMSYN070AAXX  25214 48352 31950 00000 10148 20112 39953 40159 71000 333 59003;EQDQ01  00002PRCP99
0224483520999992000122600004+17860+102720FM-12+0175VTUM V0209999C000012200019N0050001N1+01351+01181101771ADDAA199000091AY101061AY201061GA1001+999999999GF100991001001999999001001KA1120N+01311MA1999999099681MD1999999-0101MW1101REMSYN076AAXX  26004 48352 31950 00000 10135 20118 39968 40177 71000 333 20131 59010;EQDQ01  00002PRCP99
0205483520999992000122603004+17860+102720FM-12+0175VTUM V0209999C000012200019N0070001N1+02251+01431101891ADDAA199000091AY101031AY201031GA1001+999999999GF100991001001999999001001MA1999999099861MD1999999-0031MW1051REMSYN070AAXX  26034 48352 31957 00000 10225 20143 39986 40189 70500 333 59003;EQDQ01  00002PRCP99
0177483520999992000122606004+17860+102720FM-12+0175VTUM V0203601N001512200019N0120001N1+02721+01331101521ADDAA199000091GA1001+999999999GF100991001001999999001001MA1999999099531MD1999999+0031REMSYN064AAXX  26064 48352 32962 03603 10272 20133 39953 40152 333 58003;EQDQ01  00002PRCP99
0177483520999992000122609004+17860+102720FM-12+0175VTUM V0200501N002112200019N0150001N1+02801+01351101321ADDAA199000091GA1001+999999999GF100991001001999999001001MA1999999099341MD1999999-0011REMSYN064AAXX  26094 48352 32965 00504 10280 20135 39934 40132 333 59001;EQDQ01  00002PRCP99
0196483520999992000122612004+17860+102720FM-12+0175VTUM V0209999C000012200019N0130001N1+02261+01561101481ADDAA199000091GA1001+999999999GF100991001001999999001001KA1120M+02891MA1999999099471MD1999999-0071REMSYN070AAXX  26124 48352 32963 00000 10226 20156 39947 40148 333 10289 59007;EQDQ01  00002PRCP99
0177483520999992000122615004+17860+102720FM-12+0175VTUM V0209999C000012200019N0120001N1+02021+01441101651ADDAA199000091GA1001+999999999GF100991001001999999001001MA1999999099631MD1999999-0021REMSYN064AAXX  26154 48352 32962 00000 10202 20144 39963 40165 333 59002;EQDQ01  00002PRCP99
0177483520999992000122618004+17860+102720FM-12+0175VTUM V0209999C000012200019N0110001N1+01831+01371101631ADDAA199000091GA1001+999999999GF100991001001999999001001MA1999999099591MD1999999-0071REMSYN064AAXX  26184 48352 32961 00000 10183 20137 39959 40163 333 59007;EQDQ01  00002PRCP99
0177483520999992000122621004+17860+102720FM-12+0175VTUM V0209999C000012200019N0100001N1+01641+01341101551ADDAA199000091GA1001+999999999GF100991001001999999001001MA1999999099491MD1999999-0041REMSYN064AAXX  26214 48352 32960 00000 10164 20134 39949 40155 333 59004;EQDQ01  00002PRCP99
0214483520999992000122700004+17860+102720FM-12+0175VTUM V0209999C000012200019N0070001N1+01501+01391101701ADDAA199000091AY101061AY201061GF103991001001999999001011KA1120N+01461MA1999999099631MD1999999-0071MW1101REMSYN082AAXX  27004 48352 31957 30000 10150 20139 39963 40170 71000 80001 333 20146 59007;EQDQ01  00002PRCP99
0205483520999992000122703004+17860+102720FM-12+0175VTUM V0209999C000012200019N0090001N1+02401+01541101791ADDAA199000091AY101031AY201031GA1001+999999999GF100991001001999999001001MA1999999099771MD1999999-0101MW1051REMSYN070AAXX  27034 48352 31959 00000 10240 20154 39977 40179 70500 333 59010;EQDQ01  00002PRCP99
0167483520999992000122706004+17860+102720FM-12+0175VTUM V0203201N001012200019N0120001N1+02771+01241101451ADDAA199000091GF102991011011008001001011MA1999999099671MD1999999-0071REMSYN070AAXX  27064 48352 32562 23202 10277 20124 39967 40145 81101 333 59007;EQDQ01  00002PRCP99
0167483520999992000122709004+17860+102720FM-12+0175VTUM V0209999C000012200019N0120001N1+02881+01571101251ADDAA199000091GF101991011011008001001001MA1999999099281MD1999999-0071REMSYN070AAXX  27094 48352 32562 10000 10288 20157 39928 40125 81100 333 59007;EQDQ01  00002PRCP99
0196483520999992000122712004+17860+102720FM-12+0175VTUM V0209999C000012200019N0110001N1+02301+01571101361ADDAA199000091GA1001+999999999GF100991001001999999001001KA1120M+02981MA1999999099351MD1999999-0121REMSYN070AAXX  27124 48352 32961 00000 10230 20157 39935 40136 333 10298 59012;EQDQ01  00002PRCP99
0177483520999992000122715004+17860+102720FM-12+0175VTUM V0209999C000012200019N0100001N1+02021+01511101531ADDAA199000091GA1001+999999999GF100991001001999999001001MA1999999099501MD1999999-0121REMSYN064AAXX  27154 48352 32960 00000 10202 20151 39950 40153 333 59012;EQDQ01  00002PRCP99
0205483520999992000122718004+17860+102720FM-12+0175VTUM V0209999C000012200019N0080001N1+01821+01481101521ADDAA199000091AY101061AY201061GA1001+999999999GF100991001001999999001001MA1999999099481MD1999999-0111MW1101REMSYN070AAXX  27184 48352 31958 00000 10182 20148 39948 40152 71000 333 59011;EQDQ01  00002PRCP99
0205483520999992000122721004+17860+102720FM-12+0175VTUM V0209999C000012200019N0070001N1+01701+01531101441ADDAA199000091AY101031AY201031GA1001+999999999GF100991001001999999001001MA1999999099391MD1999999-0111MW1101REMSYN070AAXX  27214 48352 31957 00000 10170 20153 39939 40144 71000 333 59011;EQDQ01  00002PRCP99
0214483520999992000122800004+17860+102720FM-12+0175VTUM V0209999C000012200019N0050001N1+01681+01531101591ADDAA199000091AY101061AY201061GF102991021051008001001001KA1120N+01601MA1999999099541MD1999999-0111MW1101REMSYN082AAXX  28004 48352 31550 20000 10168 20153 39954 40159 71000 82500 333 20160 59011;EQDQ01  00002PRCP99
0177483520999992000122806004+17860+102720FM-12+0175VTUM V0200101N001512200019N0120001N1+02871+01631101391ADDAA199000091GA1001+999999999GF100991001001999999001001MA1999999099421MD1999999-0061REMSYN064AAXX  28064 48352 32962 00103 10287 20163 39942 40139 333 59006;EQDQ01  00002PRCP99
0167483520999992000122809004+17860+102720FM-12+0175VTUM V0203601N001510450019N0120001N1+02951+01751101201ADDAA199000091GF106991041051008001031051MA1999999099241MD1999999-0051REMSYN070AAXX  28094 48352 32562 63603 10295 20175 39924 40120 84535 333 59005;EQDQ01  00002PRCP99
0186483520999992000122812004+17860+102720FM-12+0175VTUM V0209999C000012200019N0110001N1+02591+01821101281ADDAA199000091GF103991021051008001031001KA1120M+03031MA1999999099291MD1999999-0081REMSYN076AAXX  28124 48352 32561 30000 10259 20182 39929 40128 82530 333 10303 59008;EQDQ01  00002PRCP99
0177483520999992000122815004+17860+102720FM-12+0175VTUM V0200401N001012200019N0100001N1+02271+01701101411ADDAA199000091GA1001+999999999GF100991001001999999001001MA1999999099401MD1999999-0121REMSYN064AAXX  28154 48352 32960 00402 10227 20170 39940 40141 333 59012;EQDQ01  00002PRCP99
0205483520999992000122818004+17860+102720FM-12+0175VTUM V0209999C000012200019N0080001N1+02021+01621101411ADDAA199000091AY101061AY201061GA1001+999999999GF100991001001999999001001MA1999999099381MD1999999-0111MW1101REMSYN070AAXX  28184 48352 31958 00000 10202 20162 39938 40141 71000 333 59011;EQDQ01  00002PRCP99
0195483520999992000122821004+17860+102720FM-12+0175VTUM V0209999C000012200019N0070001N1+01981+01591101361ADDAA199000091AY101031AY201031GF102991021051008001001001MA1999999099331MD1999999-0081MW1101REMSYN076AAXX  28214 48352 31557 20000 10198 20159 39933 40136 71000 82500 333 59008;EQDQ01  00002PRCP99
0214483520999992000122900004+17860+102720FM-12+0175VTUM V0209999C000012200019N0070001N1+01821+01601101481ADDAA199000091AY101061AY201061GF102991021051008001001001KA1120N+01801MA1999999099441MD1999999-0111MW1101REMSYN082AAXX  29004 48352 31557 20000 10182 20160 39944 40148 71000 82500 333 20180 59011;EQDQ01  00002PRCP99
0183483520999992000122903004+17860+102720FM-12+0175VTUM V0200801N003112200019N0120001N1+02521+01621101551ADDAA199000091GF102991999051008001001001MA1999999099551MD1999999-0171REMSYN070AAXX  29034 48352 32562 20806 10252 20162 39955 40155 81500 333 59017;EQDQ01+000012SCOTLCQ02  00002PRCP99
0167483520999992000122906004+17860+102720FM-12+0175VTUM V0200101N002112200019N0150001N1+02871+01731101221ADDAA199000091GF102991021011008001001001MA1999999099251MD1999999-0171REMSYN070AAXX  29064 48352 32565 20104 10287 20173 39925 40122 82100 333 59017;EQDQ01  00002PRCP99
0167483520999992000122909004+17860+102720FM-12+0175VTUM V0209999C000012200019N0150001N1+02961+01771101021ADDAA199000091GF102991021011008001001001MA1999999099061MD1999999-0181REMSYN070AAXX  29094 48352 32565 20000 10296 20177 39906 40102 82100 333 59018;EQDQ01  00002PRCP99
0196483520999992000122912004+17860+102720FM-12+0175VTUM V0209999C000012200019N0130001N1+02491+01901101121ADDAA199000091GA1001+999999999GF100991001001999999001001KA1120M+03031MA1999999099121MD1999999-0161REMSYN070AAXX  29124 48352 32963 00000 10249 20190 39912 40112 333 10303 59016;EQDQ01  00002PRCP99
0177483520999992000122915004+17860+102720FM-12+0175VTUM V0209999C000012200019N0120001N1+02201+01801101261ADDAA199000091GA1001+999999999GF100991001001999999001001MA1999999099251MD1999999-0151REMSYN064AAXX  29154 48352 32962 00000 10220 20180 39925 40126 333 59015;EQDQ01  00002PRCP99
0167483520999992000122921004+17860+102720FM-12+0175VTUM V0209999C000012200019N0100001N1+02011+01801101251ADDAA199000091GF103991031051008001001001MA1999999099221MD1999999-0111REMSYN070AAXX  29214 48352 32560 30000 10201 20180 39922 40125 83500 333 59011;EQDQ01  00002PRCP99
0214483520999992000123000004+17860+102720FM-12+0175VTUM V0209999C000010450019N0070001N1+01951+01791101381ADDAA199000091AY111061AY201061GF106991031051008001031051KA1120N+01931MA1999999099351MD1999999-0101MW1101REMSYN082AAXX  30004 48352 31557 60000 10195 20179 39935 40138 71010 83535 333 20193 59010;EQDQ01  00002PRCP99
0167483520999992000123003004+17860+102720FM-12+0175VTUM V0200301N001512200019N0110001N1+02571+01861101471ADDAA199000091GF102991021051008001001001MA1999999099781MD1999999-0081REMSYN070AAXX  30034 48352 32561 20303 10257 20186 39978 40147 82500 333 59008;EQDQ01  00002PRCP99
0167483520999992000123006004+17860+102720FM-12+0175VTUM V0209999C000012200019N0120001N1+03021+01881101121ADDAA199000091GF102991021021008001001001MA1999999099161MD1999999-0101REMSYN070AAXX  30064 48352 32562 20000 10302 20188 39916 40112 82200 333 59010;EQDQ01  00002PRCP99
0167483520999992000123009004+17860+102720FM-12+0175VTUM V0209999C000012200019N0120001N1+03011+01721100951ADDAA199000091GF103991031021008001001001MA1999999098991MD1999999-0071REMSYN070AAXX  30094 48352 32562 30000 10301 20172 39899 40095 83200 333 59007;EQDQ01  00002PRCP99
0196483520999992000123012004+17860+102720FM-12+0175VTUM V0209999C000012200019N0110001N1+02471+01871101121ADDAA199000091GA1001+999999999GF100991001001999999001001KA1120M+03121MA1999999099121MD1999999+0001REMSYN070AAXX  30124 48352 32961 00000 10247 20187 39912 40112 333 10312 58000;EQDQ01  00002PRCP99
0177483520999992000123015004+17860+102720FM-12+0175VTUM V0209999C000012200019N0100001N1+02201+01831101301ADDAA199000091GA1001+999999999GF100991001001999999001001MA1999999099291MD1999999+0041REMSYN064AAXX  30154 48352 32960 00000 10220 20183 39929 40130 333 58004;EQDQ01  00002PRCP99
0167483520999992000123018004+17860+102720FM-12+0175VTUM V0209999C000012200019N0100001N1+02121+01711101301ADDAA199000091GF102991021051008001001001MA1999999099281MD1999999-0011REMSYN070AAXX  30184 48352 32560 20000 10212 20171 39928 40130 82500 333 59001;EQDQ01  00002PRCP99
0167483520999992000123021004+17860+102720FM-12+0175VTUM V0209999C000012200019N0100001N1+01971+01661101311ADDAA199000091GF101991011011008001001001MA1999999099271MD1999999+0061REMSYN070AAXX  30214 48352 32560 10000 10197 20166 39927 40131 81100 333 58006;EQDQ01  00002PRCP99
0214483520999992000123100004+17860+102720FM-12+0175VTUM V0209999C000010450019N0070001N1+01941+01711101481ADDAA199000091AY111061AY201061GF106991041051008001031051KA1120N+01921MA1999999099451MD1999999+0101MW1101REMSYN082AAXX  31004 48352 31557 60000 10194 20171 39945 40148 71010 84535 333 20192 58010;EQDQ01  00002PRCP99
0177483520999992000123103004+17860+102720FM-12+0175VTUM V0200601N001012200019N0120001N1+02461+01661101601ADDAA199000091GA1001+999999999GF100991001001999999001001MA1999999099611MD1999999+0131REMSYN064AAXX  31034 48352 32962 00602 10246 20166 39961 40160 333 58013;EQDQ01  00002PRCP99
0167483520999992000123106004+17860+102720FM-12+0175VTUM V0200601N001012200019N0120001N1+02821+01631101301ADDAA199000091GF103991021051008001031051MA1999999099321MD1999999+0181REMSYN070AAXX  31064 48352 32562 30602 10282 20163 39932 40130 82535 333 58018;EQDQ01  00002PRCP99
0177483520999992000123109004+17860+102720FM-12+0175VTUM V0209999C000012200019N0120001N1+02871+01691101051ADDAA199000091GA1001+999999999GF100991001001999999001001MA1999999099081MD1999999+0101REMSYN064AAXX  31094 48352 32962 00000 10287 20169 39908 40105 333 58010;EQDQ01  00002PRCP99
0196483520999992000123112004+17860+102720FM-12+0175VTUM V0209999C000012200019N0120001N1+02421+01641101181ADDAA199000091GA1001+999999999GF100991001001999999001001KA1120M+03031MA1999999099181MD1999999+0061REMSYN070AAXX  31124 48352 32962 00000 10242 20164 39918 40118 333 10303 58006;EQDQ01  00002PRCP99
0167483520999992000123115004+17860+102720FM-12+0175VTUM V0209999C000012200019N0110001N1+02191+01591101361ADDAA199000091GF102991001001999999001051MA1999999099341MD1999999+0061REMSYN070AAXX  31154 48352 32961 20000 10219 20159 39934 40136 80005 333 58006;EQDQ01  00002PRCP99
0205483520999992000123118004+17860+102720FM-12+0175VTUM V0209999C000012200019N0080001N1+02001+01581101391ADDAA199000091AY101061AY201061GA1001+999999999GF100991001001999999001001MA1999999099361MD1999999+0091MW1101REMSYN070AAXX  31184 48352 31958 00000 10200 20158 39936 40139 71000 333 58009;EQDQ01  00002PRCP99
0205483520999992000123121004+17860+102720FM-12+0175VTUM V0209999C000012200019N0070001N1+01801+01541101341ADDAA199000091AY101031AY201031GA1001+999999999GF100991001001999999001001MA1999999099301MD1999999+0031MW1101REMSYN070AAXX  31214 48352 31957 00000 10180 20154 39930 40134 71000 333 58003;EQDQ01  00002PRCP99
