0132547740999992000010109004+37450+122030FM-12+006199999V0201601N004019999999N0020001N1+00621+00531102111ADDAY161031GF108991081001999999021999MD1710101+9999MW1101REMSYN066AAXX  01091 54774 41920 81604 10062 20053 40211 57010 71060 8802/;
0132547740999992000010209004+37450+122030FM-12+006199999V0203601N004010075019N0200001N1+00051-00641102131ADDAY181031GF107991071041008001999999MD1210111+9999MW1001REMSYN066AAXX  02091 54774 41570 73604 10005 21064 40213 52011 70080 874//;
0133547740999992000010221004+37450+122030FM-12+006199999V0200201N004012200019N0300001N1-00191-00881102481ADDAA124000791GF101991011041008001001001MD1210031+9999REMSYN070AAXX  02211 54774 42580 10204 11019 21088 40248 52003 81400 333 79999;
0112547740999992000010309004+37450+122030FM-12+006199999V0201101N003012200019N0250001N1+00021-00651102411ADDGF101991001001999999001021MD1210011+9999REMSYN060AAXX  03091 54774 42975 11103 10002 21065 40241 52001 80002;
0122547740999992000010321004+37450+122030FM-12+006199999V0201601N004012200019N0200001N1-00031-00491102431ADDGA1001+999999999GF100991001001999999001001MD1710021+9999REMSYN054AAXX  03211 54774 42970 01604 11003 21049 40243 57002;
0161547740999992000010421004+37450+122030FM-12+006199999V0201101N004010042019N0120001N1+00231+00151101961ADDAA124003091AY161031AY261031GF108991061071004501021999MD1710251+9999MW1601REMSYN076AAXX  04211 54774 41462 81104 10023 20015 40196 57025 76066 8672/ 333 70030;
0140547740999992000010509004+37450+122030FM-12+006199999V0200701N002010360019N0120001N1+00421+00251101601ADDAY161031AY261031GF108991021071004501021999MD1710121+9999MW1211REMSYN066AAXX  05091 54774 41462 80702 10042 20025 40160 57012 72166 8272/;
0142547740999992000010521004+37450+122030FM-12+006199999V0203201N012019999999N0110001N1-00011-00131101811ADDAY161031GF108991081001999999021999MD1210111+0201MW1211REMSYN076AAXX  05211 54774 41961 83212 11001 21013 40181 52011 72160 8802/ 333 07001;
0132547740999992000010609004+37450+122030FM-12+006199999V0203401N012010075019N0120001N1-00391-01381102351ADDAY181031GF105991051041008001001001MD1210081+9999MW1001REMSYN066AAXX  06091 54774 /1562 53412 11039 21138 40235 52008 70080 85400;
0161547740999992000010621004+37450+122030FM-12+006199999V0202701N006010075019N0120001N1-00751-01241102711ADDAA124000591AY181031AY281031GF107991071041008001999999MD1210011+9999MW1851REMSYN076AAXX  06211 54774 41562 72706 11075 21124 40271 52001 78588 874// 333 70006;
0112547740999992000010709004+37450+122030FM-12+006199999V0202901N005010075019N0250001N1-00591-01411102521ADDGF106991061041008001001001MD1710031+9999REMSYN060AAXX  07091 54774 42575 62905 11059 21141 40252 57003 86400;
0143547740999992000010721004+37450+122030FM-12+006199999V0202501N006012200019N0300001N1-00661-01531102481ADDAA124000791GA1001+999999999GF100991001001999999001001MD1710061+9999REMSYN064AAXX  07211 54774 42980 02506 11066 21153 40248 57006 333 79999;
0112547740999992000010809004+37450+122030FM-12+006199999V0203201N002019999999N0150001N1-00251-01251102481ADDGF107991001001999999001021MD1210051+9999REMSYN060AAXX  08091 54774 42965 73202 11025 21125 40248 52005 80002;
0112547740999992000010821004+37450+122030FM-12+006199999V0209999C000010075019N0150001N1-00131-00741102391ADDGF107991071041008001999999MD1710081+9999REMSYN060AAXX  08211 54774 42565 70000 11013 21074 40239 57008 874//;
0132547740999992000010909004+37450+122030FM-12+006199999V0209999C000019999999N0060001N1+00071-00261102131ADDAY161031GF108991081001999999021999MD1710031+9999MW1601REMSYN066AAXX  09091 54774 41956 80000 10007 21026 40213 57003 76060 8802/;
0133547740999992000010921004+37450+122030FM-12+006199999V0203401N003012200019N0120001N1+00021-00581102641ADDAA124000791GF102991021041008001001001MD1210101+9999REMSYN070AAXX  09211 54774 42562 23403 10002 21058 40264 52010 82400 333 79999;
0112547740999992000011009004+37450+122030FM-12+006199999V0203601N006012200019N0300001N1-00151-01131103071ADDGF101991001001999999001021MD1210071+9999REMSYN060AAXX  10091 54774 42980 13606 11015 21113 40307 52007 80002;
0112547740999992000011021004+37450+122030FM-12+006199999V0200201N006012200019N0300001N1-00151-00761102971ADDGF102991001001999999001021MD1710131+9999REMSYN060AAXX  10211 54774 42980 20206 11015 21076 40297 57013 80002;
0112547740999992000011109004+37450+122030FM-12+006199999V0200401N004010900019N0200001N1+00091-00301102641ADDGF108991011041008001001071MD1710041+9999REMSYN060AAXX  11091 54774 42570 80404 10009 21030 40264 57004 81407;
0112547740999992000011121004+37450+122030FM-12+006199999V0203401N003010900019N0250001N1+00111-00281102291ADDGF107991011041008001001021MD1710081+9999REMSYN060AAXX  11211 54774 42575 73403 10011 21028 40229 57008 81402;
0140547740999992000011209004+37450+122030FM-12+006199999V0203201N004019999999N0080001N1+00051-00391102101ADDAY171031AY271031GF108991081001999999021999MD1210021+9999MW1221REMSYN066AAXX  12091 54774 41958 83204 10005 21039 40210 52002 72277 8802/;
0133547740999992000011221004+37450+122030FM-12+006199999V0203201N010010075019N0130001N1-00361-00801102121ADDAA124000591GF107991071041008001999999MD1710021+9999REMSYN070AAXX  12211 54774 42563 73210 11036 21080 40212 57002 874// 333 70005;
0140547740999992000011309004+37450+122030FM-12+006199999V0203401N012010075019N0150001N1-00441-01011102271ADDAY181031AY281031GF108991081041008001999999MD1210051+9999MW1261REMSYN066AAXX  13091 54774 41565 83412 11044 21101 40227 52005 72688 884//;
0137547740999992000011321004+37450+122030FM-12+006199999V0203401N006012200019N0300001N1-00421-00981102411ADDAA124000791GF102991021041008001001001MD1710011+9999REMSYN074    AAXX  13211 54774 42580 23406 11042 21098 40241 57001 82400 333 79999;
0116547740999992000011409004+37450+122030FM-12+006199999V0202901N007010075019N0250001N1-00201-00901102651ADDGF107991071041008001999999MD1210031+9999REMSYN064    AAXX  14091 54774 42575 72907 11020 21090 40265 52003 874//;
0116547740999992000011421004+37450+122030FM-12+006199999V0203401N006012200019N0150001N1-00221-00701102761ADDGF102991021041008001001001MD1710041+9999REMSYN064    AAXX  14211 54774 42565 23406 11022 21070 40276 57004 82400;
0116547740999992000011509004+37450+122030FM-12+006199999V0203401N004010360019N0120001N1-00041-00701102751ADDGF107991021041008001031999MD1210071+9999REMSYN064    AAXX  15091 54774 42562 73404 11004 21070 40275 52007 8243/;
0116547740999992000011521004+37450+122030FM-12+006199999V0203401N008019999999N0120001N1+99999+99999102881ADDGF107991001001999999001021MD1210011+9999REMSYN064    AAXX  15211 54774 42962 73408 11/18 21076 40288 52001 80002;
0116547740999992000011609004+37450+122030FM-12+006199999V0203401N007012200019N0120001N1-00281-00871102771ADDGF101991011041008001001001MD1710081+9999REMSYN064    AAXX  16091 54774 42562 13407 11028 21087 40277 57008 81400;
0116547740999992000011621004+37450+122030FM-12+006199999V0203401N010019999999N0250001N1-00301-01001102681ADDGF107991001001999999001021MD1710011+9999REMSYN064    AAXX  16211 54774 42975 73410 11030 21100 40268 57001 80002;
0128547740999992000011709004+37450+122030FM-12+006199999V0203401N005010075019N0150001N1-00221-00611102591ADDGF107991071041008001999999MD1710051+9999MW1851REMSYN070    AAXX  17091 54774 42565 73405 11022 21061 40259 57005 78500 874//;
0137547740999992000011721004+37450+122030FM-12+006199999V0202701N004010075019N0110001N1-00201-00671102451ADDAA124000791GF106991061041008001001001MD1710151+9999REMSYN074    AAXX  17211 54774 42561 62704 11020 21067 40245 57015 86400 333 79999;
0128547740999992000011809004+37450+122030FM-12+006199999V0203201N005012200019N0040001N1-00031-00521102301ADDGF103991031041008001001001MD1210011+9999MW1101REMSYN070    AAXX  18091 54774 41540 33205 11003 21052 40230 52001 71000 83400;
0157547740999992000011821004+37450+122030FM-12+006199999V0203401N009010075019N0300001N1-00661-01341102591ADDAA124000791AY181031GF107991071041008001999999MD1410001+9999MW1851REMSYN080    AAXX  18211 54774 41580 73409 11066 21134 40259 54000 78580 874// 333 79999;
0136547740999992000011909004+37450+122030FM-12+006199999V0203201N006010075019N0150001N1-00451-01241102821ADDAY181031GF106991061041008001001001MD1210051+9999MW1261REMSYN070    AAXX  19091 54774 41565 63206 11045 21124 40282 52005 72680 86400;
0133547740999992000011921004+37450+122030FM-12+006199999V0203401N003010075019N0300001N1-00541-01401103321ADDAA124000791GF107991071041008001999999MD1210081+9999REMSYN070AAXX  19211 54774 42580 73403 11054 21140 40332 52008 874// 333 79999;
0132547740999992000012009004+37450+122030FM-12+006199999V0203201N005010075019N0300001N1-00631-01361103901ADDAY181031GF105991051041008001999001MD1210171+9999MW1001REMSYN066AAXX  20091 54774 41580 53205 11063 21136 40390 52017 70080 854/0;
0133547740999992000012021004+37450+122030FM-12+006199999V0203601N004012200019N0300001N1-00621-01231104121ADDAA124000591GF101991011041008001001001MD1710051+9999REMSYN070AAXX  20211 54774 42580 13604 11062 21123 40412 57005 81400 333 70004;
0112547740999992000012109004+37450+122030FM-12+006199999V0201101N002019999999N0300001N1-00301-00961103901ADDGF107991001001999999001021MD1710041+9999REMSYN060AAXX  21091 54774 42980 71102 11030 21096 40390 57004 80002;
0112547740999992000012121004+37450+122030FM-12+006199999V0201801N001019999999N0300001N1-00161-00611103281ADDGF108991081001999999021999MD1710191+9999REMSYN060AAXX  21211 54774 42980 81801 11016 21061 40328 57019 8802/;
0140547740999992000012209004+37450+122030FM-12+006199999V0201401N004010360019N0150001N1+00191+00081102451ADDAY171031AY271031GF108991031071004501021999MD1710061+9999MW1681REMSYN066AAXX  22091 54774 41465 81404 10019 20008 40245 57006 76877 8372/;
0161547740999992000012221004+37450+122030FM-12+006199999V0203401N009010042019N0080001N1+00061-00021102551ADDAA124001091AY161031AY261031GF108991071071004501021999MD1210111+9999MW1601REMSYN076AAXX  22211 54774 41458 83409 10006 21002 40255 52011 76066 8772/ 333 70011;
0118547740999992000012309004+37450+122030FM-12+006199999V0203401N006010075019N0060001N1-00151-00601999999ADDGF108991081041008001999999MD1210221+9999MW1101REMSYN060AAXX  23091 54774 /1556 83406 11015 21060 52022 71000 884//;
0124547740999992000012312004+37450+122030FM-12+006199999V0203401N006010075019N0060001N1-00151-00601103051ADDGF108991081041008001999999MD1210221+9999MW1101REMSYN066AAXX  23121 54774 41556 83406 11015 21060 40305 52022 71000 884//;
0133547740999992000012321004+37450+122030FM-12+006199999V0203401N013012200019N0200001N1-00731-01391103701ADDAA124000391GF101991011041008001001001MD1210161+9999REMSYN070AAXX  23211 54774 42570 13413 11073 21139 40370 52016 81400 333 70002;
0140547740999992000012409004+37450+122030FM-12+006199999V0203601N008010075019N0250001N1-00751-01421103801ADDAY181031AY281031GF105991051041008001001001MD1710071+9999MW1261REMSYN066AAXX  24091 54774 41575 53608 11075 21142 40380 57007 72688 85400;
0132547740999992000012509004+37450+122030FM-12+006199999V0203201N010010075019N0200001N1-00531-01261103711ADDAY181031GF107991071041008001999999MD1210021+9999MW1851REMSYN066AAXX  25091 54774 41570 73210 11053 21126 40371 52002 78580 874//;
0145547740999992000012521004+37450+122030FM-12+006199999V0203401N010010075019N0150001N1-00451-01131103641ADDAA124000791GF107991071041008001999999MD1710071+9999MW1851REMSYN076AAXX  25211 54774 41565 73410 11045 21113 40364 57007 78500 874// 333 79999;
0140547740999992000012609004+37450+122030FM-12+006199999V0203401N009010075019N0200001N1-00531-01321103721ADDAY181031AY281031GF107991071041008001999999MD1210021+9999MW1261REMSYN066AAXX  26091 54774 41570 73409 11053 21132 40372 52002 72688 874//;
0133547740999992000012621004+37450+122030FM-12+006199999V0203401N009010075019N0300001N1-00511-01351103751ADDAA124000791GF107991071041008001999999MD1410001+9999REMSYN070AAXX  26211 54774 42580 73409 11051 21135 40375 54000 874// 333 79999;
0112547740999992000012709004+37450+122030FM-12+006199999V0203601N006012200019N0250001N1-00241-01021103601ADDGF101991011041008001001001MD1210041+9999REMSYN060AAXX  27091 54774 42575 13606 11024 21102 40360 52004 81400;
0122547740999992000012721004+37450+122030FM-12+006199999V0202701N004012200019N0200001N1-00441-00911103471ADDGA1001+999999999GF100991001001999999001001MD1710051+9999REMSYN054AAXX  27211 54774 42970 02704 11044 21091 40347 57005;
0122547740999992000012809004+37450+122030FM-12+006199999V0209999C000012200019N0150001N1-00051-01061103331ADDGA1001+999999999GF100991001001999999001001MD1710031+9999REMSYN054AAXX  28091 54774 42965 00000 11005 21106 40333 57003;
0116547740999992000012821004+37450+122030FM-12+006199999V0209999C000012200019N0200001N1-00121+99999103241ADDGA1001+999999999GF100991001001999999001001MD1710031+9999REMSYN048AAXX  28211 54774 42970 00000 11012 40324 57003;
0124547740999992000012909004+37450+122030FM-12+006199999V0203201N011019999999N0040001N1-00031-00651103141ADDGF105991001001999999001021MD1710021+9999MW1101REMSYN066AAXX  29091 54774 41940 53211 11003 21065 40314 57002 71000 80002;
0145547740999992000012921004+37450+122030FM-12+006199999V0203201N007010075019N0150001N1-00511-01231103731ADDAA124000791GF107991071041008001999999MD1210071+9999MW1851REMSYN076AAXX  29211 54774 41565 73207 11051 21123 40373 52007 78500 874// 333 79999;
0132547740999992000013009004+37450+122030FM-12+006199999V0203201N006010075019N0200001N1-00611-01331104171ADDAY181031GF107991071041008001999999MD1210071+9999MW1851REMSYN066AAXX  30091 54774 41570 73206 11061 21133 40417 52007 78580 874//;
0132547740999992000013109004+37450+122030FM-12+006199999V0203401N008012200019N0200001N1-00651-01461104151ADDAY181031GF104991041041008001001001MD1710101+9999MW1261REMSYN066AAXX  31091 54774 41570 43408 11065 21146 40415 57010 72680 84400;
0133547740999992000013121004+37450+122030FM-12+006199999V0203401N006012200019N0200001N1-00641-01381103771ADDAA124000791GF103991031041008001001001MD1710191+9999REMSYN070AAXX  31211 54774 42570 33406 11064 21138 40377 57019 83400 333 79999;
0112547740999992000020109004+37450+122030FM-12+006199999V0203201N005012200019N0180001N1-00451-01251103451ADDGF101991011041008001001001MD1710091+9999REMSYN060AAXX  01091 54774 42568 13205 11045 21125 40345 57009 81400;
0143547740999992000020121004+37450+122030FM-12+006199999V0202901N003012200019N0200001N1-00691-01331103281ADDAA124000791GA1001+999999999GF100991001001999999001001MD1710081+9999REMSYN064AAXX  01211 54774 42970 02903 11069 21133 40328 57008 333 79999;
0112547740999992000020209004+37450+122030FM-12+006199999V0203201N003019999999N0120001N1-00251-01961103081ADDGF107991001001999999001021MD1710111+9999REMSYN060AAXX  02091 54774 42962 73203 11025 21196 40308 57011 80002;
0106547740999992000020221004+37450+122030FM-12+006199999V0202501N003019999999N0120001N1-00261-01341102941ADDGF107991999999999999999999MD1710051+9999REMSYN054AAXX  02211 54774 42962 72503 11026 21134 40294 57005;
0122547740999992000020309004+37450+122030FM-12+006199999V0202901N006012200019N0200001N1-00171-00951103031ADDGA1001+999999999GF100991001001999999001001MD1210151+9999REMSYN054AAXX  03091 54774 42970 02906 11017 21095 40303 52015;
0122547740999992000020321004+37450+122030FM-12+006199999V0203201N002012200019N0200001N1-00351-00751103181ADDGA1001+999999999GF100991001001999999001001MD1210031+9999REMSYN054AAXX  03211 54774 42970 03202 11035 21075 40318 52003;
0112547740999992000020409004+37450+122030FM-12+006199999V0201101N002019999999N0290001N1-00071-00391103021ADDGF107991021011999999011081MD1710051+9999REMSYN060AAXX  04091 54774 42979 71102 11007 21039 40302 57005 82118;
0112547740999992000020421004+37450+122030FM-12+006199999V0200401N002019999999N0150001N1-00291-00891102771ADDGF107991071001999999031999MD1710151+9999REMSYN060AAXX  04211 54774 42965 70402 11029 21089 40277 57015 8703/;
0140547740999992000020509004+37450+122030FM-12+006199999V0209999C000010075019N0110001N1-00161-00291102421ADDAY181031AY271031GF107991071041008001999999MD1710111+9999MW1851REMSYN066AAXX  05091 54774 41561 70000 11016 21029 40242 57011 78587 874//;
0164547740999992000020521004+37450+122030FM-12+006199999V0202701N006010075019N0070001N1-00091-00401102341ADDAA124000591GF107991071041008001999999MD1710702+9999MW1101REMSYN076AAXX  05211 54774 41557 72706 11009 2104/ 40234 57070 71000 874// 333 70005;EQDQ01+000702APC3  
0134547740999992000020609004+37450+122030FM-12+006199999V0203201N005012200019N0030001N1+00011-00401102221ADDGA1001+999999999GF100991001001999999001001MD1710041+9999MW1101REMSYN060AAXX  06091 54774 41930 03205 10001 21040 40222 57004 71000;
0112547740999992000020621004+37450+122030FM-12+006199999V0203401N006010075019N0200001N1-00201-00971102181ADDGF106991061041008001001001MD1710051+9999REMSYN060AAXX  06211 54774 42570 63406 11020 21097 40218 57005 86400;
0124547740999992000020709004+37450+122030FM-12+006199999V0202901N008010075019N0070001N1-00371-00681999999ADDGF107991071041008001999999MD1710021+9999MW1851REMSYN066AAXX  07091 54774 41557 72908 11037 21068 4/196 57002 78500 874//;
0153547740999992000020721004+37450+122030FM-12+006199999V0203401N011010075019N0300001N1-00751-01551102351ADDAA124002091AY181031GF106991061041008001001001MD1210151+9999MW1001REMSYN076AAXX  07211 54774 41580 63411 11075 21155 40235 52015 70080 86400 333 70020;
0112547740999992000020809004+37450+122030FM-12+006199999V0203401N007012200019N0200001N1-00591-01351102731ADDGF102991021041008001001001MD1210091+9999REMSYN060AAXX  08091 54774 42570 23407 11059 21135 40273 52009 82400;
0143547740999992000020821004+37450+122030FM-12+006199999V0202901N005012200019N0300001N1-00681-01251102691ADDAA124000791GA1001+999999999GF100991001001999999001001MD1710121+9999REMSYN064AAXX  08211 54774 42980 02905 11068 21125 40269 57012 333 79999;
0112547740999992000020909004+37450+122030FM-12+006199999V0202901N002012200019N0250001N1-00091-01571102441ADDGF101991001001999999001021MD1710061+9999REMSYN060AAXX  09091 54774 42975 12902 11009 21157 40244 57006 80002;
0122547740999992000020921004+37450+122030FM-12+006199999V0209999C000012200019N0250001N1-00461-01261102271ADDGA1001+999999999GF100991001001999999001001MD1710091+9999REMSYN054AAXX  09211 54774 42975 00000 11046 21126 40227 57009;
0112547740999992000021009004+37450+122030FM-12+006199999V0201101N002019999999N0250001N1+00051-00741101911ADDGF106991001001999999001021MD1210011+9999REMSYN060AAXX  10091 54774 42975 61102 10005 21074 40191 52001 80002;
0141547740999992000021021004+37450+122030FM-12+006199999V0209999C000012200019N0150001N1-00061-00561102041ADDGA1001+999999999GF100991001001999999001001MD1211012+9999REMSYN054AAXX  10211 54774 42965 00000 11006 21056 40204 52101;EQDQ01+001012APC3  
0134547740999992000021109004+37450+122030FM-12+006199999V0203201N006012200019N0050001N1+00271-01021102041ADDGA1001+999999999GF100991001001999999001001MD1410001+9999MW1051REMSYN060AAXX  11091 54774 41950 03206 10027 21102 40204 54000 70500;
0122547740999992000021121004+37450+122030FM-12+006199999V0209999C000012200019N0150001N1+00091-01451102011ADDGA1001+999999999GF100991001001999999001001MD1710051+9999REMSYN054AAXX  11211 54774 42965 00000 10009 21145 40201 57005;
0112547740999992000021209004+37450+122030FM-12+006199999V0203401N002012200019N0150001N1+00521-01211101971ADDGF101991001001999999001021MD1210021+9999REMSYN060AAXX  12091 54774 42965 13402 10052 21121 40197 52002 80002;
0112547740999992000021221004+37450+122030FM-12+006199999V0201401N001019999999N0120001N1+00111-00531102011ADDGF108991081001999999021999MD1710091+9999REMSYN060AAXX  12211 54774 42962 81401 10011 21053 40201 57009 8802/;
0124547740999992000021309004+37450+122030FM-12+006199999V0203601N004019999999N0030001N1+00211+00081101831ADDGF108991081001999999021999MD1210121+9999MW1101REMSYN066AAXX  13091 54774 41930 83604 10021 20008 40183 52012 71000 8802/;
0143547740999992000021321004+37450+122030FM-12+006199999V0203401N009012200019N0200001N1-00271-01061102131ADDAA124000591GA1001+999999999GF100991001001999999001001MD1210011+9999REMSYN064AAXX  13211 54774 42970 03409 11027 21106 40213 52001 333 70004;
0132547740999992000021409004+37450+122030FM-12+006199999V0203201N011010075019N0200001N1-00191-00931102071ADDAY181031GF107991071041008001999999MD1710011+9999MW1851REMSYN066AAXX  14091 54774 41570 73211 11019 21093 40207 57001 78580 874//;
0132547740999992000021509004+37450+122030FM-12+006199999V0203201N010012200019N0300001N1-00351-01371102261ADDAY181031GF101991011041008001001001MD1210021+9999MW1001REMSYN066AAXX  15091 54774 41580 13210 11035 21137 40226 52002 70080 81400;
0133547740999992000021521004+37450+122030FM-12+006199999V0202701N007012200019N0300001N1-00371-01111102381ADDAA124000191GF101991011041008001001001MD1710041+9999REMSYN070AAXX  15211 54774 42580 12707 11037 21111 40238 57004 81400 333 70001;
0122547740999992000021609004+37450+122030FM-12+006199999V0203401N004012200019N0300001N1-00261-01171102491ADDGA1001+999999999GF100991001001999999001001MD1410001+9999REMSYN054AAXX  16091 54774 42980 03404 11026 21117 40249 54000;
0122547740999992000021709004+37450+122030FM-12+006199999V0201101N002012200019N0300001N1-00081-01001102751ADDGA1001+999999999GF100991001001999999001001MD1410001+9999REMSYN054AAXX  17091 54774 42980 01102 11008 21100 40275 54000;
0132547740999992000021909004+37450+122030FM-12+006199999V0203401N006019999999N0040001N1+00101+00021101801ADDAY161031GF108991081001999999021999MD1210041+9999MW1601REMSYN066AAXX  19091 54774 41940 83406 10010 20002 40180 52004 76060 8802/;
0143547740999992000021921004+37450+122030FM-12+006199999V0203601N007012200019N0300001N1-00171-00941102121ADDAA124000591GA1001+999999999GF100991001001999999001001MD1710021+9999REMSYN064AAXX  19211 54774 42980 03607 11017 21094 40212 57002 333 70005;
0080547740999992000022009004+37450+122030FM-12+006199999V0200301N020019999999N0300001N1-00151-01121102171ADDMD1710011+9999REMSYN054AAXX  20091 54774 42980 /0320 11015 21112 40217 57001;
0122547740999992000022021004+37450+122030FM-12+006199999V0202701N003012200019N0300001N1-00361-00891102541ADDGA1001+999999999GF100991001001999999001001MD1710021+9999REMSYN054AAXX  20211 54774 42980 02703 11036 21089 40254 57002;
0112547740999992000022121004+37450+122030FM-12+006199999V0202501N002019999999N0120001N1-00111-00511102571ADDGF108991001001999999001071MD1710061+9999REMSYN060AAXX  21211 54774 42962 82502 11011 21051 40257 57006 80007;
0122547740999992000022221004+37450+122030FM-12+006199999V0209999C000012200019N0150001N1+00211-00561102381ADDGA1001+999999999GF100991001001999999001001MD1210011+9999REMSYN054AAXX  22211 54774 42965 00000 10021 21056 40238 52001;
0131547740999992000022309004+37450+122030FM-12+006199999V0203401N007012200019N0300001N1-00101-01271999999ADDGA1001+999999999GF100991001001999999001001MD1210051+9999ME1102679REMSYN054AAXX  23091 54774 42980 03407 1101/ 21127 41267 52005;
0133547740999992000022321004+37450+122030FM-12+006199999V0202901N004019999999N0300001N1-00311-01021103151ADDAA124000791GF106991001001999999001021MD1210051+9999REMSYN070AAXX  23211 54774 42980 62904 11031 21102 40315 52005 80002 333 79999;
0112547740999992000022409004+37450+122030FM-12+006199999V0203201N005010900019N0250001N1-00121-01081103111ADDGF107991011041008001001021MD1710041+9999REMSYN060AAXX  24091 54774 42575 73205 11012 21108 40311 57004 81402;
0143547740999992000022421004+37450+122030FM-12+006199999V0209999C000012200019N0200001N1-00391-01151102911ADDAA124000391GA1001+999999999GF100991001001999999001001MD1710121+9999REMSYN064AAXX  24211 54774 42970 00000 11039 21115 40291 57012 333 70002;
0112547740999992000022509004+37450+122030FM-12+006199999V0202201N005019999999N0300001N1+00071-00901102251ADDGF107991031001999999041021MD1710121+9999REMSYN060AAXX  25091 54774 42980 72205 10007 21090 40225 57012 83042;
0153547740999992000022521004+37450+122030FM-12+006199999V0203201N005010075019N0120001N1+00101-00271101961ADDAA124002091AY181031GF107991071041008001999999MD1710091+9999MW1001REMSYN076AAXX  25211 54774 41562 73205 10010 21027 40196 57009 70080 874// 333 70021;
0122547740999992000022609004+37450+122030FM-12+006199999V0203201N006012200019N0250001N1+00131-00761102141ADDGA1001+999999999GF100991001001999999001001MD1210051+9999REMSYN054AAXX  26091 54774 42975 03206 10013 21076 40214 52005;
0143547740999992000022621004+37450+122030FM-12+006199999V0202201N008012200019N0200001N1+00161-01171102211ADDAA124000791GA1001+999999999GF100991001001999999001001MD1710111+9999REMSYN064AAXX  26211 54774 42970 02208 10016 21117 40221 57011 333 79999;
0122547740999992000022709004+37450+122030FM-12+006199999V0203401N005012200019N0120001N1+00301-00511102281ADDGA1001+999999999GF100991001001999999001001MD1210221+9999REMSYN054AAXX  27091 54774 42962 03405 10030 21051 40228 52022;
0122547740999992000022721004+37450+122030FM-12+006199999V0200201N005012200019N0200001N1-00251-01321103191ADDGA1001+999999999GF100991001001999999001001MD1210081+9999REMSYN054AAXX  27211 54774 42970 00205 11025 21132 40319 52008;
0122547740999992000022809004+37450+122030FM-12+006199999V0203401N008012200019N0300001N1-00351-01261103461ADDGA1001+999999999GF100991001001999999001001MD1710061+9999REMSYN054AAXX  28091 54774 42980 03408 11035 21126 40346 57006;
0122547740999992000022821004+37450+122030FM-12+006199999V0202501N004012200019N0250001N1-00501-01271103281ADDGA1001+999999999GF100991001001999999001001MD1710151+9999REMSYN054AAXX  28211 54774 42975 02504 11050 21127 40328 57015;
0122547740999992000022909004+37450+122030FM-12+006199999V0200201N002012200019N0200001N1+00281-00811102911ADDGA1001+999999999GF100991001001999999001001MD1710031+9999REMSYN054AAXX  29091 54774 42970 00202 10028 21081 40291 57003;
0152547740999992000022920004+37450+122030FM-12+006199999V0203201N001012200019N0120001N1+00261-00501999999ADDGA1001+999999999GF100991001001999999001001ME1308819REMSYN054AAXX  29201 54774 42962 03201 10026 2105/ 48881 5700/;EQDQ01+000072APCTENQ02+000002APC3  
0116547740999992000030109004+37450+122030FM-12+006199999V0201801N005012200019N0120001N1+99999+99999102541ADDGA1001+999999999GF100991001001999999001001MD1710081+9999REMSYN048AAXX  01091 54774 42962 01805 21016 40254 57008;
0122547740999992000031409004+37450+122030FM-12+006199999V0201101N002012200019N0300001N1+00481-00151102291ADDGA1001+999999999GF100991001001999999001001MD1710171+9999REMSYN054AAXX  14091 54774 42980 01102 10048 21015 40229 57017;
0140547740999992000031509004+37450+122030FM-12+006199999V0202201N005019999999N0120001N1+00691+00311101211ADDAY161031AY261031GF108991081001999999021999MD1710101+9999MW1211REMSYN066AAXX  15091 54774 41962 82205 10069 20031 40121 57010 72166 8802/;
0143547740999992000031521004+37450+122030FM-12+006199999V0203201N011012200019N0110001N1+00201-00051101271ADDAA124000391GA1001+999999999GF100991001001999999001001MD1710011+9999REMSYN064AAXX  15211 54774 42961 03211 10020 21005 40127 57001 333 70002;
0122547740999992000031609004+37450+122030FM-12+006199999V0203201N008012200019N0200001N1+00841-00501101421ADDGA1001+999999999GF100991001001999999001001MD1210051+9999REMSYN054AAXX  16091 54774 42970 03208 10084 21050 40142 52005;
0112547740999992000031709004+37450+122030FM-12+006199999V0201801N006019999999N0110001N1+01361-00041101371ADDGF107991021001999999041021MD1210041+9999REMSYN060AAXX  17091 54774 42961 71806 10136 21004 40137 52004 82042;
0124547740999992000031809004+37450+122030FM-12+006199999V0203201N012010075019N0050001N1+00741+00091101151ADDGF107991071041008001999999MD1210211+9999MW1101REMSYN066AAXX  18091 54774 41550 73212 10074 20009 40115 52021 71000 874//;
0143547740999992000031821004+37450+122030FM-12+006199999V0203401N012012200019N0250001N1+00161-00851102051ADDAA124000791GA1001+999999999GF100991001001999999001001MD1210011+9999REMSYN064AAXX  18211 54774 42975 03412 10016 21085 40205 52001 333 79999;
0155547740999992000032009004+37450+122030FM-12+006199999V0201401N001019999999N0200001N1+00761-00561101851ADDGF107991001001999999001999MD1710091+9999UA1M992959999REMSYN090AAXX  20091 54774 42970 71401 10076 21056 40185 57009 8000/ 22205 10159 21074 40148 57020;
0112547740999992000032109004+37450+122030FM-12+006199999V0203601N004010900019N0150001N1+00381+00181102171ADDGF107991021041008001001021MD1210021+9999REMSYN060AAXX  21091 54774 42565 73604 10038 20018 40217 52002 82402;
0112547740999992000032209004+37450+122030FM-12+006199999V0201801N008019999999N0150001N1+01061-00591101911ADDGF107991001001999999001021MD1710151+9999REMSYN060AAXX  22091 54774 42965 71808 10106 21059 40191 57015 80002;
0122547740999992000032309004+37450+122030FM-12+006199999V0202901N010012200019N0250001N1+00701-00811101581ADDGA1001+999999999GF100991001001999999001001MD1210031+9999REMSYN054AAXX  23091 54774 42975 02910 10070 21081 40158 52003;
0122547740999992000032409004+37450+122030FM-12+006199999V0203201N007012200019N0300001N1+00671-00681102111ADDGA1001+999999999GF100991001001999999001001MD1210111+9999REMSYN054AAXX  24091 54774 42980 03207 10067 21068 40211 52011;
0122547740999992000032509004+37450+122030FM-12+006199999V0203401N007012200019N0200001N1+01001-00521101871ADDGA1001+999999999GF100991001001999999001001MD1410001+9999REMSYN054AAXX  25091 54774 42970 03407 10100 21052 40187 54000;
0122547740999992000032609004+37450+122030FM-12+006199999V0201101N002012200019N0200001N1+01541-00281101131ADDGA1001+999999999GF100991001001999999001001MD1710171+9999REMSYN054AAXX  26091 54774 42970 01102 10154 21028 40113 57017;
0122547740999992000032621004+37450+122030FM-12+006199999V0201801N005012200019N0200001N1+01371-00351100461ADDGA1001+999999999GF100991001001999999001001MD1710231+9999REMSYN054AAXX  26211 54774 42970 01805 10137 21035 40046 57023;
0124547740999992000032709004+37450+122030FM-12+006199999V0202201N007019999999N0060001N1+01361+00351099621ADDGF107991071001999999031999MD1710111+9999MW1051REMSYN066AAXX  27091 54774 41956 72207 10136 20035 49962 57011 70500 8703/;
0112547740999992000032809004+37450+122030FM-12+006199999V0203201N013012200019N0200001N1+00621-00231101201ADDGF101991001001999999001021MD1210181+9999REMSYN060AAXX  28091 54774 42970 13213 10062 21023 40120 52018 80002;
0122547740999992000032909004+37450+122030FM-12+006199999V0203401N007012200019N0300001N1+00831-00811101761ADDGA1001+999999999GF100991001001999999001001MD1710171+9999REMSYN054AAXX  29091 54774 42980 03407 10083 21081 40176 57017;
0122547740999992000032921004+37450+122030FM-12+006199999V0201801N001012200019N0300001N1+00701-00451101431ADDGA1001+999999999GF100991001001999999001001MD1710051+9999REMSYN054AAXX  29211 54774 42980 01801 10070 21045 40143 57005;
0112547740999992000033009004+37450+122030FM-12+006199999V0201801N011019999999N0150001N1+01461-00531100701ADDGF107991001001999999001021MD1710201+9999REMSYN060AAXX  30091 54774 42965 71811 10146 21053 40070 57020 80002;
0186547740999992000033106004+37450+122030FM-12+006199999V0203401N007019999999N0300001N1+00731-00021101551ADDAA199000091GF107991001001999999001021KA1999N+00451MA1999999100961MD1210141+9999REMSYN076AAXX  31061 54774 32980 73407 10073 21002 30096 40155 52014 80002 333 20045;EQDQ01  00002PRCP99
0131547740999992000033109004+37450+122030FM-12+006199999V0203601N004012200019N0300001N1+00941-01342101621ADDGF102991001001999999001021MD1410001+9999REMSYN060AAXX  31091 54774 42980 23604 10094 21134 40162 54000 80002;EQDQ01-001343ATOD  
0112547740999992000040109004+37450+122030FM-12+006199999V0201801N008019999999N0300001N1+01431-02681101881ADDGF107991001001999999001021MD1710011+9999REMSYN060AAXX  01091 54774 42980 71808 10143 21268 40188 57001 80002;
0112547740999992000040209004+37450+122030FM-12+006199999V0201401N002019999999N0250001N1+00961+00362102101ADDGF107991001001999999001021MD1410001+9999REMSYN060AAXX  02091 54774 42975 71402 10096 20036 40210 54000 80002;
0112547740999992000040309004+37450+122030FM-12+006199999V0201801N009019999999N0300001N1+01541-00611101671ADDGF106991001001999999001021MD1710191+9999REMSYN060AAXX  03091 54774 42980 61809 10154 21061 40167 57019 80002;
0122547740999992000040321004+37450+122030FM-12+006199999V0201801N007012200019N0250001N1+01221+00111101331ADDGA1001+999999999GF100991001001999999001001MD1710151+9999REMSYN054AAXX  03211 54774 42975 01807 10122 20011 40133 57015;
0124547740999992000040409004+37450+122030FM-12+006199999V0203201N006010900019N0060001N1+01351+00571101221ADDGF107991021041008001001021MD1410001+9999MW1101REMSYN066AAXX  04091 54774 41556 73206 10135 20057 40122 54000 71000 82402;
0122547740999992000040509004+37450+122030FM-12+006199999V0203201N006012200019N0300001N1+00751-01241101981ADDGA1001+999999999GF100991001001999999001001MD1410001+9999REMSYN054AAXX  05091 54774 42980 03206 10075 21124 40198 54000;
0165547740999992000101206004+37440+122020FM-12+006199999V0203401N007010075019N0300001N1+01051+00011102701ADDAA199000091GF107991061041008001001021KA1999N+00881MD1710071+9999REMSYN070AAXX  12061 54774 32580 73407 10105 20001 40270 57007 86402 333 20088;EQDQ01  00002PRCP99
