0183549160999992000010100004+35570+116850FM-12+005399999V0202401N002019999999N0100001N1+00511+00461102181ADDAA106000391AY161061GF108991081001999999021999IA2999+00159MD1210031-0401MW1001REMSYN094AAXX  01001 54916 11960 82402 10051 20046 40218 52003 69931 70060 8802/ 333 05406 30015 70014;
0124549160999992000010103004+35570+116850FM-12+005399999V0202901N003019999999N0060001N1+00481+00381102251ADDGF108991081001999999071999MD1210071+9999MW1101REMSYN066AAXX  01031 54916 41956 82903 10048 20038 40225 52007 71000 8807/;
0177549160999992000010106004+35570+116850FM-12+005399999V0202901N002019999999N0030001N1+00501+00381102021ADDAA106000091GF108991081001999999071999KA1999N+00321MD1710231+9999MW1101REMSYN076AAXX  01061 54916 31930 82902 10050 20038 40202 57023 71000 8807/ 333 20032;EQDQ01  00002PRCP06
0124549160999992000010109004+35570+116850FM-12+005399999V0203201N005019999999N0030001N1+00411+00311102081ADDGF108991081001999999071999MD1210061+9999MW1101REMSYN066AAXX  01091 54916 41930 83205 10041 20031 40208 52006 71000 8807/;
0177549160999992000010118004+35570+116850FM-12+005399999V0202901N003019999999N0080001N1+00171+00061102401ADDAA106000091GF108991081001999999071999KA1999M+00591MD1210101+9999MW1101REMSYN076AAXX  01181 54916 31958 82903 10017 20006 40240 52010 71000 8807/ 333 10059;EQDQ01  00002PRCP06
0124549160999992000010121004+35570+116850FM-12+005399999V0202901N002019999999N0050001N1-00041-00071102381ADDGF108991081001999999021999MD1710021+9999MW1101REMSYN066AAXX  01211 54916 41950 82902 11004 21007 40238 57002 71000 8802/;
0182549160999992000010200004+35570+116850FM-12+005399999V0202901N002019999999N0007001N1-00081-00121102521ADDAA106000091GF108991081001999999021999IA2999-00209MD1210141+0301MW1461REMSYN082AAXX  02001 54916 31907 82902 11008 21012 40252 52014 74600 8802/ 333 00356 31023;EQDQ01  00002PRCP06
0140549160999992000010203004+35570+116850FM-12+005399999V0201401N002019999999N0017001N1-00061-00101102621ADDAY141031AY241031GF108991081001999999031999MD1210091+9999MW1281REMSYN066AAXX  02031 54916 41917 81402 11006 21010 40262 52009 72844 8803/;
0195549160999992000010206004+35570+116850FM-12+005399999V0201801N002012200019N0100001N1+00461-00081102311ADDAA106000091AY141061GA1001+999999999GF100991001001999999001001KA1999N-00151MD1710301+9999MW1001REMSYN070AAXX  02061 54916 31960 01802 10046 21008 40231 57030 70040 333 21015;EQDQ01  00002PRCP06
0122549160999992000010209004+35570+116850FM-12+005399999V0201801N002012200019N0100001N1+00401+00031102221ADDGA1001+999999999GF100991001001999999001001MD1710091+9999REMSYN054AAXX  02091 54916 42960 01802 10040 20003 40222 57009;
0152549160999992000010212004+35570+116850FM-12+005399999V0200701N002012200019N0100001N1-00081-00171102211ADDAA106000091GA1001+999999999GF100991001001999999001001MD1710021+9999REMSYN054AAXX  02121 54916 32960 00702 11008 21017 40221 57002;EQDQ01  00002PRCP06
0175549160999992000010218004+35570+116850FM-12+005399999V0200701N002012200019N0100001N1-00121-00241102241ADDAA106000091GA1001+999999999GF100991001001999999001001KA1999M+00551MD1210011+9999REMSYN064AAXX  02181 54916 32960 00702 11012 21024 40224 52001 333 10055;EQDQ01  00002PRCP06
0122549160999992000010221004+35570+116850FM-12+005399999V0200901N004012200019N0100001N1-00061-00271102061ADDGA1001+999999999GF100991001001999999001001MD1710181+9999REMSYN054AAXX  02211 54916 42960 00904 11006 21027 40206 57018;
0170549160999992000010300004+35570+116850FM-12+005399999V0200201N002012200019N0100001N1-00121-00341102161ADDAA106000091GF101991001001999999001021IA2999-00409MD1210091-0401REMSYN076AAXX  03001 54916 32960 10202 11012 21034 40216 52009 80002 333 05400 31047;EQDQ01  00002PRCP06
0122549160999992000010303004+35570+116850FM-12+005399999V0201401N004012200019N0100001N1+00471-00271102101ADDGA1001+999999999GF100991001001999999001001MD1710051+9999REMSYN054AAXX  03031 54916 42960 01404 10047 21027 40210 57005;
0175549160999992000010306004+35570+116850FM-12+005399999V0201601N007012200019N0100001N1+00851-00541101871ADDAA106000091GA1001+999999999GF100991001001999999001001KA1999N-00191MD1710221+9999REMSYN064AAXX  03061 54916 32960 01607 10085 21054 40187 57022 333 21019;EQDQ01  00002PRCP06
0122549160999992000010309004+35570+116850FM-12+005399999V0201601N002012200019N0100001N1+00691-00101101881ADDGA1001+999999999GF100991001001999999001001MD1210011+9999REMSYN054AAXX  03091 54916 42960 01602 10069 21010 40188 52001;
0152549160999992000010312004+35570+116850FM-12+005399999V0200401N002012200019N0100001N1+00091-00141102031ADDAA106000091GA1001+999999999GF100991001001999999001001MD1210141+9999REMSYN054AAXX  03121 54916 32960 00402 10009 21014 40203 52014;EQDQ01  00002PRCP06
0165549160999992000010318004+35570+116850FM-12+005399999V0200701N002019999999N0100001N1+00081-00031102131ADDAA106000091GF106991061001999999041001KA1999M+00891MD1210041+9999REMSYN070AAXX  03181 54916 32960 60702 10008 21003 40213 52004 86040 333 10089;EQDQ01  00002PRCP06
0112549160999992000010321004+35570+116850FM-12+005399999V0200701N002019999999N0100001N1+00261+00101101901ADDGF108991081001999999071999MD1710231+9999REMSYN060AAXX  03211 54916 42960 80702 10026 20010 40190 57023 8807/;
0170549160999992000010400004+35570+116850FM-12+005399999V0200401N002010120019N0100001N1+00321+00221102031ADDAA106000091GF108991081051012501999999IA2999-00109MD1210121-0101REMSYN076AAXX  04001 54916 32660 80402 10032 20022 40203 52012 885// 333 05104 31013;EQDQ01  00002PRCP06
0112549160999992000010403004+35570+116850FM-12+005399999V0200701N003019999999N0100001N1+00531+00361102001ADDGF108991081001999999071999MD1710021+9999REMSYN060AAXX  04031 54916 42960 80703 10053 20036 40200 57002 8807/;
0164549160999992000010406004+35570+116850FM-12+005399999V0200201N004019999999N0100001N1+00561+00371101761ADDAA106000791GF108991081001999999071999KA1999N-00021MD1710241+9999MW1601REMSYN082AAXX  04061 54916 11960 80204 10056 20037 40176 57024 69901 76000 8807/ 333 21002;
0132549160999992000010409004+35570+116850FM-12+005399999V0200201N003019999999N0100001N1+00541+00421101661ADDAY161031GF108991081001999999071999MD1710101+9999MW1601REMSYN066AAXX  04091 54916 41960 80203 10054 20042 40166 57010 76060 8807/;
0149549160999992000010412004+35570+116850FM-12+005399999V0203201N003019999999N0100001N1+00521+00471101791ADDAA106003091AY161061GF108991081001999999071999MD1210131+9999MW1601REMSYN072AAXX  04121 54916 11960 83203 10052 20047 40179 52013 60031 76060 8807/;
0172549160999992000010418004+35570+116850FM-12+005399999V0200401N002019999999N0100001N1+00211+00181101691ADDAA106001091AY161061GF108991081001999999071999KA1999M+00601MD1710141+9999MW1001REMSYN082AAXX  04181 54916 11960 80402 10021 20018 40169 57014 60011 70060 8807/ 333 10060;
0133549160999992000010421004+35570+116850FM-12+005399999V0203201N005019999999N0100001N1+99999+99999101781ADDAA124004191GF108991081001999999071999MD1210091+9999REMSYN070AAXX  04211 54916 42960 83205 16004 21002 40178 52009 8807/ 333 70040;
0188549160999992000010500004+35570+116850FM-12+005399999V0203201N002019999999N0080001N1+00121+00071101771ADDAA106000091GF108991081001999999071999IA2999+00049MD1710011-0301MW1101REMSYN088AAXX  05001 54916 31958 83202 10012 20007 40177 57001 71000 8807/ 333 05352 30004 70040;EQDQ01  00002PRCP06
0112549160999992000010503004+35570+116850FM-12+005399999V0203401N003019999999N0100001N1+00111+00031101871ADDGF108991081001999999071999MD1210091+9999REMSYN060AAXX  05031 54916 42960 83403 10011 20003 40187 52009 8807/;
0164549160999992000010506004+35570+116850FM-12+005399999V0202901N004019999999N0070001N1+00031+00001101731ADDAA106000791GF108991081001999999071999KA1999N+00011MD1710141+9999MW1601REMSYN082AAXX  05061 54916 11957 82904 10003 20000 40173 57014 69901 76000 8807/ 333 20001;
0140549160999992000010509004+35570+116850FM-12+005399999V0203201N005019999999N0100001N1+00021-00071101881ADDAY161031AY261031GF108991081001999999071999MD1210151+9999MW1601REMSYN066AAXX  05091 54916 41960 83205 10002 21007 40188 52015 76066 8807/;
0157549160999992000010512004+35570+116850FM-12+005399999V0203201N004019999999N0080001N1+00041-00051102161ADDAA106002091AY161061AY261061GF108991081001999999071999MD1210281+9999MW1601REMSYN072AAXX  05121 54916 11958 83204 10004 21005 40216 52028 60021 76066 8807/;
0172549160999992000010518004+35570+116850FM-12+005399999V0203201N004019999999N0100001N1-00061-00151102351ADDAA106000791AY161061GF108991081001999999071999KA1999M+00291MD1210091+9999MW1001REMSYN082AAXX  05181 54916 11960 83204 11006 21015 40235 52009 69901 70060 8807/ 333 10029;
0133549160999992000010521004+35570+116850FM-12+005399999V0203201N006019999999N0100001N1-00131-00191102441ADDAA124001591GF108991081001999999071999MD1210081+9999REMSYN070AAXX  05211 54916 42960 83206 11013 21019 40244 52008 8807/ 333 70016;
0112549160999992000010603004+35570+116850FM-12+005399999V0203601N004019999999N0100001N1+00111-00391102751ADDGF106991001001999999001021MD1210171+9999REMSYN060AAXX  06031 54916 42960 63604 10011 21039 40275 52017 80002;
0175549160999992000010606004+35570+116850FM-12+005399999V0203601N004012200019N0120001N1+00321-00561102551ADDAA106000091GA1001+999999999GF100991001001999999001001KA1999N-00191MD1710191+9999REMSYN064AAXX  06061 54916 32962 03604 10032 21056 40255 57019 333 21019;EQDQ01  00002PRCP06
0122549160999992000010609004+35570+116850FM-12+005399999V0203601N003012200019N0100001N1+00111-00891102681ADDGA1001+999999999GF100991001001999999001001MD1210121+9999REMSYN054AAXX  06091 54916 42960 03603 10011 21089 40268 52012;
0152549160999992000010612004+35570+116850FM-12+005399999V0200201N002012200019N0100001N1-00221-00651102891ADDAA106000091GA1001+999999999GF100991001001999999001001MD1210211+9999REMSYN054AAXX  06121 54916 32960 00202 11022 21065 40289 52021;EQDQ01  00002PRCP06
0122549160999992000010621004+35570+116850FM-12+005399999V0200201N003012200019N0100001N1-00741-01401103151ADDGA1001+999999999GF100991001001999999001001MD1710021+9999REMSYN054AAXX  06211 54916 42960 00203 11074 21140 40315 57002;
0152549160999992000010700004+35570+116850FM-12+005399999V0200901N002019999999N0100001N1-00791-01551103171ADDAA106000091GF105991001001999999001021MD1210021+0061REMSYN070AAXX  07001 54916 32960 50902 11079 21155 40317 52002 80002 333 00656;EQDQ01  00002PRCP06
0112549160999992000010703004+35570+116850FM-12+005399999V0200901N004012200019N0100001N1-00351-02171103191ADDGF102991001001999999001021MD1210021+9999REMSYN060AAXX  07031 54916 42960 20904 11035 21217 40319 52002 80002;
0165549160999992000010706004+35570+116850FM-12+005399999V0201101N002012200019N0100001N1-00161-02111102821ADDAA106000091GF102991001001999999001021KA1999N-00881MD1710371+9999REMSYN070AAXX  07061 54916 32960 21102 11016 21211 40282 57037 80002 333 21088;EQDQ01  00002PRCP06
0112549160999992000010709004+35570+116850FM-12+005399999V0201401N003019999999N0100001N1-00131-01661102631ADDGF107991071001999999031999MD1710191+9999REMSYN060AAXX  07091 54916 42960 71403 11013 21166 40263 57019 8703/;
0142549160999992000010712004+35570+116850FM-12+005399999V0201801N005019999999N0100001N1-00161-01331102581ADDAA106000091GF108991081001999999071999MD1710051+9999REMSYN060AAXX  07121 54916 32960 81805 11016 21133 40258 57005 8807/;EQDQ01  00002PRCP06
0165549160999992000010718004+35570+116850FM-12+005399999V0200701N001010120019N0150001N1-00231-00851102511ADDAA106000091GF108991081051012501999999KA1999M-00091MD1710061+9999REMSYN070AAXX  07181 54916 32665 80701 11023 21085 40251 57006 885// 333 11009;EQDQ01  00002PRCP06
0112549160999992000010721004+35570+116850FM-12+005399999V0209999C000019999999N0100001N1-00211-00641102421ADDGF108991081001999999021999MD1710091+9999REMSYN060AAXX  07211 54916 42960 80000 11021 21064 40242 57009 8802/;
0170549160999992000010800004+35570+116850FM-12+005399999V0200901N002019999999N0100001N1-00171-00711102471ADDAA106000091GF108991081001999999021999IA2999-00409MD1210051-0701REMSYN076AAXX  08001 54916 32960 80902 11017 21071 40247 52005 8802/ 333 05706 31040;EQDQ01  00002PRCP06
0112549160999992000010803004+35570+116850FM-12+005399999V0200901N003019999999N0100001N1-00011-00661102571ADDGF108991081001999999021999MD1210101+9999REMSYN060AAXX  08031 54916 42960 80903 11001 21066 40257 52010 8802/;
0165549160999992000010806004+35570+116850FM-12+005399999V0200901N003019999999N0100001N1+00101-00361102281ADDAA106000091GF108991081001999999071999KA1999N-00291MD1710291+9999REMSYN070AAXX  08061 54916 32960 80903 10010 21036 40228 57029 8807/ 333 21029;EQDQ01  00002PRCP06
0112549160999992000010809004+35570+116850FM-12+005399999V0200201N001019999999N0100001N1+00141-00381102251ADDGF108991081001999999071999MD1710021+9999REMSYN060AAXX  08091 54916 42960 80201 10014 21038 40225 57002 8807/;
0142549160999992000010812004+35570+116850FM-12+005399999V0200701N003010120019N0100001N1+00061-00311102291ADDAA106000091GF108991081051012501999999MD1210031+9999REMSYN060AAXX  08121 54916 32660 80703 10006 21031 40229 52003 885//;EQDQ01  00002PRCP06
0165549160999992000010818004+35570+116850FM-12+005399999V0200201N002010120019N0100001N1+00061-00171102261ADDAA106000091GF108991081051012501999999KA1999M+00171MD1710081+9999REMSYN070AAXX  08181 54916 32660 80202 10006 21017 40226 57008 885// 333 10017;EQDQ01  00002PRCP06
0100549160999992000010821004+35570+116850FM-12+005399999V0200401N002010120019N0100001N1+00031+99999999999ADDGF108991081051012501999999MD1710191+9999REMSYN048AAXX  08211 54916 42660 80402 10003 57019 885//;
0183549160999992000010900004+35570+116850FM-12+005399999V0200401N002010120019N0100001N1+00101-00041102061ADDAA106000791AY161061GF108991081051012501999999IA2999-00079MD1710011-0401MW1211REMSYN094AAXX  09001 54916 11660 80402 10010 21004 40206 57001 69901 72160 885// 333 05403 31007 79999;
0124549160999992000010903004+35570+116850FM-12+005399999V0203601N002010120019N0060001N1+00111+00061102311ADDGF108991081051012501999999MD1210251+9999MW1101REMSYN066AAXX  09031 54916 41656 83602 10011 20006 40231 52025 71000 885//;
0124549160999992000010909004+35570+116850FM-12+005399999V0203601N001019999999N0070001N1+00281+00201102141ADDGF108991081001999999021999MD1410001+9999MW1101REMSYN066AAXX  09091 54916 41957 83601 10028 20020 40214 54000 71000 8802/;
0154549160999992000010912004+35570+116850FM-12+005399999V0200201N001019999999N0050001N1+00291+00191102351ADDAA106000091GF108991081001999999021999MD1210211+9999MW1101REMSYN066AAXX  09121 54916 31950 80201 10029 20019 40235 52021 71000 8802/;EQDQ01  00002PRCP06
0172549160999992000010918004+35570+116850FM-12+005399999V0203401N003010120019N0080001N1+00221+00191102621ADDAA106000791AY161061GF108991081051012501999999KA1999M+00341MD1210171+9999MW1211REMSYN082AAXX  09181 54916 11658 83403 10022 20019 40262 52017 69901 72160 885// 333 10034;
0133549160999992000010921004+35570+116850FM-12+005399999V0203401N002010150019N0100001N1+00191+00141102661ADDAA124000791GF108991081051017501999999MD1210041+9999REMSYN070AAXX  09211 54916 42760 83402 10019 20014 40266 52004 885// 333 79999;
0157549160999992000011000004+35570+116850FM-12+005399999V0200901N002010150019N0100001N1+00211+00161102691ADDAA106000021GF108991081051017501999999IA2999+00039MD1210031+0601REMSYN082AAXX  10001 54916 32760 80902 10021 20016 40269 52003 885// 333 00601 30003 79999;
0124549160999992000011003004+35570+116850FM-12+005399999V0200901N003010120019N0080001N1+00541+00241102801ADDGF107991071051012501999999MD1210111+9999MW1101REMSYN066AAXX  10031 54916 41658 70903 10054 20024 40280 52011 71000 875//;
0165549160999992000011006004+35570+116850FM-12+005399999V0200901N005019999999N0100001N1+00741+00111102641ADDAA106000091GF107991071001999999031999KA1999N+00161MD1710151+9999REMSYN070AAXX  10061 54916 32960 70905 10074 20011 40264 57015 8703/ 333 20016;EQDQ01  00002PRCP06
0112549160999992000011009004+35570+116850FM-12+005399999V0200701N004010120019N0100001N1+00641-00361102701ADDGF108991081051012501999999MD1210051+9999REMSYN060AAXX  10091 54916 42660 80704 10064 21036 40270 52005 885//;
0142549160999992000011012004+35570+116850FM-12+005399999V0200901N003010120019N0100001N1+00331-00471102851ADDAA106000091GF107991071051012501999999MD1210151+9999REMSYN060AAXX  10121 54916 32660 70903 10033 21047 40285 52015 875//;EQDQ01  00002PRCP06
0165549160999992000011018004+35570+116850FM-12+005399999V0200701N004010120019N0120001N1+00201-00381102791ADDAA106000091GF108991081051012501999999KA1999M+00801MD1710061+9999REMSYN070AAXX  10181 54916 32662 80704 10020 21038 40279 57006 885// 333 10080;EQDQ01  00002PRCP06
0112549160999992000011021004+35570+116850FM-12+005399999V0203601N003010150019N0100001N1+00091-00211102691ADDGF108991081051017501999999MD1710101+9999REMSYN060AAXX  10211 54916 42760 83603 10009 21021 40269 57010 885//;
0170549160999992000011100004+35570+116850FM-12+005399999V0200201N004010150019N0100001N1+00021-00321102771ADDAA106000091GF108991081051017501999999IA2999+00009MD1210081+0101REMSYN076AAXX  11001 54916 32760 80204 10002 21032 40277 52008 885// 333 00152 31002;EQDQ01  00002PRCP06
0124549160999992000011103004+35570+116850FM-12+005399999V0200401N005019999999N0100001N1+00111-00871102761ADDGF108991081001999999071999MD1710011+9999MW1701REMSYN066AAXX  11031 54916 41960 80405 10011 21087 40276 57001 77000 8807/;
0172549160999992000011106004+35570+116850FM-12+005399999V0200201N004019999999N0090001N1-00071-00451102551ADDAA106000191AY171061GF108991081001999999021999KA1999N-00081MD1710211+9999MW1701REMSYN082AAXX  11061 54916 11959 80204 11007 21045 40255 57021 69911 77070 8802/ 333 21008;
0140549160999992000011109004+35570+116850FM-12+005399999V0200401N003019999999N0100001N1-00101-00281102561ADDAY171031AY271031GF108991081001999999021999MD1410001+9999MW1001REMSYN066AAXX  11091 54916 41960 80403 11010 21028 40256 54000 70077 8802/;
0157549160999992000011112004+35570+116850FM-12+005399999V0200201N003019999999N0100001N1-00061-00231102641ADDAA106000191AY171061AY271061GF108991081001999999021999MD1210081+9999MW1701REMSYN072AAXX  11121 54916 11960 80203 11006 21023 40264 52008 69911 77077 8802/;
0180549160999992000011118004+35570+116850FM-12+005399999V0203401N002019999999N0100001N1-00161-00211102591ADDAA106004191AY171061AY271061GF108991081001999999021999KA1999M+00221MD1710071+9999MW1711REMSYN082AAXX  11181 54916 11960 83402 11016 21021 40259 57007 60041 77177 8802/ 333 10022;
0153549160999992000011121004+35570+116850FM-12+005399999V0203201N002019999999N0100001N1-00211-00271102421ADDAA124004891AY171031GF108991081001999999021999MD1710171+9999MW1711REMSYN076AAXX  11211 54916 41960 83202 11021 21027 40242 57017 77170 8802/ 333 70049;
0189549160999992000011200004+35570+116850FM-12+005399999V0202901N003019999999N0100001N1-00241-00301102501ADDAA106000891AY171061GF108991081001999999021999IA2999-00279MD1210081-0301MW1001REMSYN100AAXX  12001 54916 11960 82903 11024 21030 40250 52008 69971 70070 8802/ 333 05353 31027 70049 92504;
0112549160999992000011203004+35570+116850FM-12+005399999V0203201N003019999999N0100001N1-00131-00311102581ADDGF108991081001999999021999MD1210081+9999REMSYN060AAXX  12031 54916 42960 83203 11013 21031 40258 52008 8802/;
0165549160999992000011206004+35570+116850FM-12+005399999V0203201N003019999999N0100001N1-00111-00361102361ADDAA106000091GF108991081001999999071999KA1999N-00251MD1710221+9999REMSYN070AAXX  12061 54916 32960 83203 11011 21036 40236 57022 8807/ 333 21025;EQDQ01  00002PRCP06
0112549160999992000011209004+35570+116850FM-12+005399999V0203201N003019999999N0100001N1-00161-00421102371ADDGF108991081001999999021999MD1210011+9999REMSYN060AAXX  12091 54916 42960 83203 11016 21042 40237 52001 8802/;
0142549160999992000011212004+35570+116850FM-12+005399999V0203201N003019999999N0100001N1-00181-00481102531ADDAA106000091GF108991081001999999021999MD1210161+9999REMSYN060AAXX  12121 54916 32960 83203 11018 21048 40253 52016 8802/;EQDQ01  00002PRCP06
0165549160999992000011218004+35570+116850FM-12+005399999V0203401N004019999999N0100001N1-00201-00511102531ADDAA106000091GF108991081001999999021999KA1999M-00051MD1710051+9999REMSYN070AAXX  12181 54916 32960 83404 11020 21051 40253 57005 8802/ 333 11005;EQDQ01  00002PRCP06
0133549160999992000011221004+35570+116850FM-12+005399999V0200401N002019999999N0100001N1-00201-00551102501ADDAA124000791GF108991081001999999021999MD1710031+9999REMSYN070AAXX  12211 54916 42960 80402 11020 21055 40250 57003 8802/ 333 79999;
0176549160999992000011300004+35570+116850FM-12+005399999V0200501N004019999999N0100001N1-00241-00601102641ADDAA106000091GF108991081001999999071999IA2999-00329MD1210141+0101REMSYN082AAXX  13001 54916 32960 80504 11024 21060 40264 52014 8807/ 333 00100 31032 92504;EQDQ01  00002PRCP06
0112549160999992000011303004+35570+116850FM-12+005399999V0200701N003019999999N0100001N1-00181-00681102811ADDGF107991071001999999031999MD1210171+9999REMSYN060AAXX  13031 54916 42960 70703 11018 21068 40281 52017 8703/;
0165549160999992000011306004+35570+116850FM-12+005399999V0203601N003010120019N0100001N1-00061-00641102641ADDAA106000091GF107991071051012501999999KA1999N-00261MD1710171+9999REMSYN070AAXX  13061 54916 32660 73603 11006 21064 40264 57017 875// 333 21026;EQDQ01  00002PRCP06
0112549160999992000011309004+35570+116850FM-12+005399999V0203401N001019999999N0100001N1-00081-00631102571ADDGF107991001001999999001021MD1710071+9999REMSYN060AAXX  13091 54916 42960 73401 11008 21063 40257 57007 80002;
0142549160999992000011312004+35570+116850FM-12+005399999V0203401N002019999999N0100001N1-00261-00891102711ADDAA106000091GF107991001001999999001021MD1210141+9999REMSYN060AAXX  13121 54916 32960 73402 11026 21089 40271 52014 80002;EQDQ01  00002PRCP06
0165549160999992000011318004+35570+116850FM-12+005399999V0209999C000019999999N0120001N1-00301-00621102691ADDAA106000091GF108991081001999999071999KA1999M+00071MD1710021+9999REMSYN070AAXX  13181 54916 32962 80000 11030 21062 40269 57002 8807/ 333 10007;EQDQ01  00002PRCP06
0116549160999992000011321004+35570+116850FM-12+005399999V0202701N001019999999N0100001N1-00441-00691102681ADDGF105991051001999999041001MD1710011+9999REMSYN064    AAXX  13211 54916 42960 52701 11044 21069 40268 57001 85040;
0156549160999992000011400004+35570+116850FM-12+005399999V0203401N001019999999N0100001N1-00501-00681102811ADDAA199000091GF108991081001999999021999MD1210121+0021REMSYN074    AAXX  14001 54916 32960 83401 11050 21068 40281 52012 8802/ 333 00253;EQDQ01  00002PRCP99
0126549160999992000011403004+35570+116850FM-12+005399999V0200401N002012200019N0100001N1-00121-00561102881ADDGA1001+999999999GF100991001001999999001001MD1210081+9999REMSYN058    AAXX  14031 54916 42960 00402 11012 21056 40288 52008;
0179549160999992000011406004+35570+116850FM-12+005399999V0202001N003012200019N0100001N1+00121-00481102641ADDAA199000091GA1001+999999999GF100991001001999999001001KA1999N-00621MD1710241+9999REMSYN068    AAXX  14061 54916 32960 02003 10012 21048 40264 57024 333 21062;EQDQ01  00002PRCP99
0116549160999992000011409004+35570+116850FM-12+005399999V0202001N002019999999N0100001N1+00011-00511102661ADDGF105991001001999999001021MD1210021+9999REMSYN064    AAXX  14091 54916 42960 52002 10001 21051 40266 52002 80002;
0146549160999992000011412004+35570+116850FM-12+005399999V0209999C000019999999N0100001N1-00231-00431102771ADDAA199000091GF105991001001999999001021MD1210101+9999REMSYN064    AAXX  14121 54916 32960 50000 11023 21043 40277 52010 80002;EQDQ01  00002PRCP99
0169549160999992000011418004+35570+116850FM-12+005399999V0203601N002019999999N0100001N1-00161-00461102821ADDAA199000091GF108991081001999999071999KA1999M+00171MD1710121+9999REMSYN074    AAXX  14181 54916 32960 83602 11016 21046 40282 57012 8807/ 333 10017;EQDQ01  00002PRCP99
0149549160999992000011421004+35570+116850FM-12+005399999V0203201N001019999999N0100001N1-00131-00421102831ADDAA124000791GF108991081001999999071999MD1210011+9999MW1701REMSYN080    AAXX  14211 54916 41960 83201 11013 21042 40283 52001 77000 8807/ 333 79999;
0193549160999992000011500004+35570+116850FM-12+005399999V0209999C000019999999N0030001N1-00211-00271102921ADDAA106000191AY171061GF108991081001999999021999IA2999-00389MD1210091+0101MW1701REMSYN104    AAXX  15001 54916 11930 80000 11021 21027 40292 52009 69911 77070 8802/ 333 00103 31038 70001 92500;
0144549160999992000011503004+35570+116850FM-12+005399999V0203401N001019999999N0030001N1-00101-00141102931ADDAY171031AY271031GF108991081001999999021999MD1210011+9999MW1711REMSYN070    AAXX  15031 54916 41930 83401 11010 21014 40293 52001 77177 8802/;
0184549160999992000011506004+35570+116850FM-12+005399999V0203401N003019999999N0030001N1-00041-00081102731ADDAA106000591AY171061AY271061GF108991081001999999021999KA1999N-00251MD1710201+9999MW1711REMSYN086    AAXX  15061 54916 11930 83403 11004 21008 40273 57020 69941 77177 8802/ 333 21025;
0144549160999992000011509004+35570+116850FM-12+005399999V0203601N004019999999N0070001N1-00041-00201102771ADDAY171031AY271031GF108991081001999999021999MD1210041+9999MW1711REMSYN070    AAXX  15091 54916 41957 83604 11004 21020 40277 52004 77177 8802/;
0161549160999992000011512004+35570+116850FM-12+005399999V0200401N002019999999N0080001N1-00141-00191102921ADDAA106001091AY171061AY271061GF108991081001999999021999MD1210151+9999MW1711REMSYN076    AAXX  15121 54916 11958 80402 11014 21019 40292 52015 60011 77177 8802/;
0153549160999992000011518004+35570+116850FM-12+005399999V0203201N002019999999N0100001N1-00141-00261103101ADDAA106002091AY171061GF108991081001999999021999MD1210201+9999MW1001REMSYN076    AAXX  15181 54916 11960 83202 11014 21026 40310 52020 60021 70070 8802/;
0137549160999992000011521004+35570+116850FM-12+005399999V0203401N003019999999N0100001N1-00211-00301103071ADDAA124004191GF108991081001999999021999MD1710031+9999REMSYN074    AAXX  15211 54916 42960 83403 11021 21030 40307 57003 8802/ 333 70041;
0179549160999992000011600004+35570+116850FM-12+005399999V0203201N001019999999N0080001N1-00281-00421103221ADDAA124004191GF108991081001999999021999IA2999-00309MD1210141+0301MW1101REMSYN098    AAXX  16001 54916 31958 83201 11028 21042 40322 52014 71000 8802/ 333 00351 31030 70040 92503;
0138549160999992000011603004+35570+116850FM-12+005399999V0203601N002012200019N0050001N1+00001-00311103301ADDGA1001+999999999GF100991001001999999001001MD1210091+9999MW1101REMSYN064    AAXX  16031 54916 41950 03602 10000 21031 40330 52009 71000;
0179549160999992000011606004+35570+116850FM-12+005399999V0200401N003012200019N0100001N1+00191-00291103001ADDAA199000091GA1001+999999999GF100991001001999999001001KA1999N-00291MD1710301+9999REMSYN068    AAXX  16061 54916 32960 00403 10019 21029 40300 57030 333 21029;EQDQ01  00002PRCP99
0116549160999992000011609004+35570+116850FM-12+005399999V0203401N003019999999N0100001N1+00101-00361103071ADDGF106991001001999999001021MD1210071+9999REMSYN064    AAXX  16091 54916 42960 63403 10010 21036 40307 52007 80002;
0146549160999992000011612004+35570+116850FM-12+005399999V0203401N003019999999N0100001N1-00111-00401103141ADDAA199000091GF107991001001999999001021MD1210061+9999REMSYN064    AAXX  16121 54916 32960 73403 11011 21040 40314 52006 80002;EQDQ01  00002PRCP99
0169549160999992000011618004+35570+116850FM-12+005399999V0203401N001019999999N0100001N1-00211-00441103031ADDAA199000091GF108991081001999999071999KA1999M+00241MD1710141+9999REMSYN074    AAXX  16181 54916 32960 83401 11021 21044 40303 57014 8807/ 333 10024;EQDQ01  00002PRCP99
0116549160999992000011621004+35570+116850FM-12+005399999V0203401N002019999999N0100001N1-00281-00421103041ADDGF108991081001999999071999MD1210011+9999REMSYN064    AAXX  16211 54916 42960 83402 11028 21042 40304 52001 8807/;
0156549160999992000011700004+35570+116850FM-12+005399999V0203401N002012200019N0100001N1-00441-00611103091ADDAA199000091GF103991001001999999001021MD1210041+0011REMSYN074    AAXX  17001 54916 32960 33402 11044 21061 40309 52004 80002 333 05152;EQDQ01  00002PRCP99
0126549160999992000011703004+35570+116850FM-12+005399999V0203601N002012200019N0100001N1-00131-00501103151ADDGA1001+999999999GF100991001001999999001001MD1210071+9999REMSYN058    AAXX  17031 54916 42960 03602 11013 21050 40315 52007;
0169549160999992000011706004+35570+116850FM-12+005399999V0201801N001019999999N0100001N1+00161-00511102851ADDAA199000091GF105991001001999999001021KA1999N-00461MD1710301+9999REMSYN074    AAXX  17061 54916 32960 51801 10016 21051 40285 57030 80002 333 21046;EQDQ01  00002PRCP99
0126549160999992000011709004+35570+116850FM-12+005399999V0202701N003012200019N0100001N1+00071-00441102841ADDGA1001+999999999GF100991001001999999001001MD1710011+9999REMSYN058    AAXX  17091 54916 42960 02703 10007 21044 40284 57001;
0156549160999992000011712004+35570+116850FM-12+005399999V0202201N002012200019N0100001N1-00151-00451103001ADDAA199000091GA1001+999999999GF100991001001999999001001MD1210151+9999REMSYN058    AAXX  17121 54916 32960 02202 11015 21045 40300 52015;EQDQ01  00002PRCP99
0179549160999992000011718004+35570+116850FM-12+005399999V0209999C000012200019N0100001N1-00591-00711102921ADDAA199000091GA1001+999999999GF100991001001999999001001KA1999M+00241MD1710081+9999REMSYN068    AAXX  17181 54916 32960 00000 11059 21071 40292 57008 333 10024;EQDQ01  00002PRCP99
0126549160999992000011721004+35570+116850FM-12+005399999V0202001N001012200019N0100001N1-00671-00801102821ADDGA1001+999999999GF100991001001999999001001MD1710111+9999REMSYN058    AAXX  17211 54916 42960 02001 11067 21080 40282 57011;
0186549160999992000011800004+35570+116850FM-12+005399999V0201401N002010001519N0001001N1-00791-00931102891ADDAA199000091AY141061GA1091+999999999GF109991091999999999999999MD1210071+0021MW1471REMSYN074    AAXX  18001 54916 31/01 91402 11079 21093 40289 52007 74740 333 05254;EQDQ01  00002PRCP99
0154549160999992000011803004+35570+116850FM-12+005399999V0200901N001010003019N0003001N1-00451-00551102931ADDAY141031AY241031GA1091+999999999GF109991091999999999999999MD1210041+9999MW1431REMSYN064    AAXX  18031 54916 41/03 90901 11045 21055 40293 52004 74344;
0197549160999992000011806004+35570+116850FM-12+005399999V0202701N002010120019N0006001N1-00291-00361102751ADDAA199000091AY141061AY241061GF108991081051012501999999KA1999N-00801MD1710181+9999MW1461REMSYN080    AAXX  18061 54916 31606 82702 11029 21036 40275 57018 74644 885// 333 21080;EQDQ01  00002PRCP99
0144549160999992000011809004+35570+116850FM-12+005399999V0203401N004019999999N0006001N1-00371-00451102791ADDAY141031AY241031GF108991081001999999021999MD1210041+9999MW1441REMSYN070    AAXX  18091 54916 41906 83404 11037 21045 40279 52004 74444 8802/;
0174549160999992000011812004+35570+116850FM-12+005399999V0202901N002019999999N0009001N1-00311-00391102961ADDAA199000091AY141061AY241061GF108991081001999999021999MD1210171+9999MW1421REMSYN070    AAXX  18121 54916 31909 82902 11031 21039 40296 52017 74244 8802/;EQDQ01  00002PRCP99
0199549160999992000011818004+35570+116850FM-12+005399999V0203401N003012200019N0100001N1-00541-00771103251ADDAA199000091AY141061GA1001+999999999GF100991001001999999001001KA1999M-00221MD1210051+9999MW1001REMSYN074    AAXX  18181 54916 31960 03403 11054 21077 40325 52005 70040 333 11022;EQDQ01  00002PRCP99
0126549160999992000011821004+35570+116850FM-12+005399999V0203201N002012200019N0100001N1-00731-01051103291ADDGA1001+999999999GF100991001001999999001001MD1210031+9999REMSYN058    AAXX  18211 54916 42960 03202 11073 21105 40329 52003;
0166549160999992000011900004+35570+116850FM-12+005399999V0202701N002012200019N0100001N1-00771-01331103471ADDAA199000091GA1001+999999999GF100991001001999999001001MD1210181+0061REMSYN068    AAXX  19001 54916 32960 02702 11077 21133 40347 52018 333 00600;EQDQ01  00002PRCP99
0166549160999992000011901004+35570+116850FM-12+005399999V0202701N002012200019N0100001N1-00771-01331103471ADDAA199000091GA1001+999999999GF100991001001999999001001MD1210181+0061REMSYN068    AAXX  19011 54916 32960 02702 11077 21133 40347 52018 333 00600;EQDQ01  00002PRCP99
0126549160999992000011903004+35570+116850FM-12+005399999V0202701N004012200019N0100001N1-00301-01431103571ADDGA1001+999999999GF100991001001999999001001MD1210111+9999REMSYN058    AAXX  19031 54916 42960 02704 11030 21143 40357 52011;
0179549160999992000011906004+35570+116850FM-12+005399999V0203401N002012200019N0100001N1-00061-01761103241ADDAA199000091GA1001+999999999GF100991001001999999001001KA1999N-00851MD1710331+9999REMSYN068    AAXX  19061 54916 32960 03402 11006 21176 40324 57033 333 21085;EQDQ01  00002PRCP99
0126549160999992000011909004+35570+116850FM-12+005399999V0202701N002012200019N0100001N1-00091-01621103201ADDGA1001+999999999GF100991001001999999001001MD1710041+9999REMSYN058    AAXX  19091 54916 42960 02702 11009 21162 40320 57004;
0156549160999992000011912004+35570+116850FM-12+005399999V0202201N002012200019N0100001N1-00281-01381103261ADDAA199000091GA1001+999999999GF100991001001999999001001MD1210061+9999REMSYN058    AAXX  19121 54916 32960 02202 11028 21138 40326 52006;EQDQ01  00002PRCP99
0175549160999992000011918004+35570+116850FM-12+005399999V0201101N002012200019N0100001N1-00801-01141103431ADDAA199000091GA1001+999999999GF100991001001999999001001KA1999M+00031MD1210091+9999REMSYN064AAXX  19181 54916 32960 01102 11080 21114 40343 52009 333 10003;EQDQ01  00002PRCP99
0122549160999992000011921004+35570+116850FM-12+005399999V0200901N002012200019N0100001N1-00921-01191103461ADDGA1001+999999999GF100991001001999999001001MD1210021+9999REMSYN054AAXX  19211 54916 42960 00902 11092 21119 40346 52002;
0147549160999992000012000004+35570+116850FM-12+005399999V0200901N002012200019N0100001N1-00861-01171999999ADDAA199000091GA1001+999999999GF100991001001999999001001REMSYN063AAXX  20001 54916 32960 00902 11086 21117 4362 52016 333 00251;EQDQ01  00002PRCP99
0122549160999992000012003004+35570+116850FM-12+005399999V0202201N002012200019N0100001N1+00061-01031103821ADDGA1001+999999999GF100991001001999999001001MD1210211+9999REMSYN054AAXX  20031 54916 42960 02202 10006 21103 40382 52021;
0175549160999992000012006004+35570+116850FM-12+005399999V0209999C000012200019N0100001N1+00251-01141103741ADDAA199000091GA1001+999999999GF100991001001999999001001KA1999N-00951MD1710081+9999REMSYN064AAXX  20061 54916 32960 00000 10025 21114 40374 57008 333 21095;EQDQ01  00002PRCP99
0122549160999992000012009004+35570+116850FM-12+005399999V0203401N002012200019N0100001N1+00151-00831103751ADDGA1001+999999999GF100991001001999999001001MD1210011+9999REMSYN054AAXX  20091 54916 42960 03402 10015 21083 40375 52001;
0152549160999992000012012004+35570+116850FM-12+005399999V0200201N001012200019N0100001N1-00361-00681103861ADDAA199000091GA1001+999999999GF100991001001999999001001MD1210101+9999REMSYN054AAXX  20121 54916 32960 00201 11036 21068 40386 52010;EQDQ01  00002PRCP99
0175549160999992000012018004+35570+116850FM-12+005399999V0200901N001012200019N0100001N1-00661-00831103991ADDAA199000091GA1001+999999999GF100991001001999999001001KA1999M+00371MD1210021+9999REMSYN064AAXX  20181 54916 32960 00901 11066 21083 40399 52002 333 10037;EQDQ01  00002PRCP99
0122549160999992000012021004+35570+116850FM-12+005399999V0200401N002012200019N0100001N1-00721-00951103961ADDGA1001+999999999GF100991001001999999001001MD1710031+9999REMSYN054AAXX  20211 54916 42960 00402 11072 21095 40396 57003;
0152549160999992000012100004+35570+116850FM-12+005399999V0200401N002019999999N0100001N1-00701-00921104021ADDAA199000091GF107991001001999999001021MD1210051+0041REMSYN070AAXX  21001 54916 32960 70402 11070 21092 40402 52005 80002 333 00402;EQDQ01  00002PRCP99
0112549160999992000012103004+35570+116850FM-12+005399999V0200901N004019999999N0100001N1-00091-00611104011ADDGF107991001001999999001021MD1410001+9999REMSYN060AAXX  21031 54916 42960 70904 11009 21061 40401 54000 80002;
0165549160999992000012106004+35570+116850FM-12+005399999V0201101N004019999999N0100001N1+00151-00931103651ADDAA199000091GF108991001001999999001071KA1999N-00811MD1710361+9999REMSYN070AAXX  21061 54916 32960 81104 10015 21093 40365 57036 80007 333 21081;EQDQ01  00002PRCP99
0124549160999992000012109004+35570+116850FM-12+005399999V0200901N006019999999N0100001N1+00031-00591103501ADDGF108991081001999999021999MD1710151+9999MW1701REMSYN066AAXX  21091 54916 41960 80906 10003 21059 40350 57015 77000 8802/;
0149549160999992000012112004+35570+116850FM-12+005399999V0200701N003019999999N0100001N1+00001-00401103451ADDAA106000791AY171061GF108991081001999999021999MD1710051+9999MW1001REMSYN072AAXX  21121 54916 11960 80703 10000 21040 40345 57005 69901 70070 8802/;
0172549160999992000012118004+35570+116850FM-12+005399999V0200901N003019999999N0100001N1-00111-00191103141ADDAA106002091AY171061GF108991081001999999021999KA1999M+00231MD1710211+9999MW1711REMSYN082AAXX  21181 54916 11960 80903 11011 21019 40314 57021 60021 77170 8802/ 333 10023;
0161549160999992000012121004+35570+116850FM-12+005399999V0200201N002019999999N0100001N1-00101-00141102891ADDAA124002091AY171031AY271031GF108991081001999999021999MD1710251+9999MW1711REMSYN076AAXX  21211 54916 41960 80202 11010 21014 40289 57025 77177 8802/ 333 70020;
0137549160999992000012200004+35570+116850FM-12+005399999V0203401N002019999999N0100001N1-00081-00121999999ADDGF108991999999999999999999REMSYN099AAXX  22001 54916 11960 83402 11008 21012 4022 57007 69961 70070 8802/ 333 06206 31015 70021 92502;
0132549160999992000012203004+35570+116850FM-12+005399999V0203601N001019999999N0100001N1+00021-00101102811ADDAY171031GF108991081001999999021999MD1710011+9999MW1001REMSYN066AAXX  22031 54916 41960 83601 10002 21010 40281 57001 70070 8802/;
0172549160999992000012206004+35570+116850FM-12+005399999V0203201N004019999999N0100001N1+00051-00121102581ADDAA106000191AY171061GF108991081001999999021999KA1999N-00121MD1710231+9999MW1221REMSYN082AAXX  22061 54916 11960 83204 10005 21012 40258 57023 69911 72270 8802/ 333 21012;
0112549160999992000012209004+35570+116850FM-12+005399999V0202901N003010120019N0100001N1+00021-00191102621ADDGF108991081051012501999999MD1210041+9999REMSYN060AAXX  22091 54916 42660 82903 10002 21019 40262 52004 885//;
0123549160999992000012212004+35570+116850FM-12+005399999V0203201N003010120019N0100001N1-00011-00291102711ADDAA199000021GF108991081051012501999999MD1210091+9999REMSYN060AAXX  22121 54916 32660 83203 11001 21029 40271 52009 885//;
0146549160999992000012218004+35570+116850FM-12+005399999V0203201N002010120019N0100001N1-00061-00411102841ADDAA199000021GF108991081051012501999999KA1999M+00081MD1210041+9999REMSYN070AAXX  22181 54916 32660 83202 11006 21041 40284 52004 885// 333 10008;
0133549160999992000012221004+35570+116850FM-12+005399999V0203401N002019999999N0100001N1-00181-00371102871ADDAA124000391GF108991081001999999021999MD1210031+9999REMSYN070AAXX  22211 54916 42960 83402 11018 21037 40287 52003 8802/ 333 70002;
0163549160999992000012300004+35570+116850FM-12+005399999V0203601N001019999999N0100001N1-00301-00481103031ADDAA124000191GF108991081001999999021999IA2999-00499MD1210161+0201REMSYN088AAXX  23001 54916 32960 83601 11030 21048 40303 52016 8802/ 333 00252 31049 70001 92501;
0112549160999992000012303004+35570+116850FM-12+005399999V0203601N002012200019N0100001N1-00031-00361103121ADDGF104991001001999999001021MD1210091+9999REMSYN060AAXX  23031 54916 42960 43602 11003 21036 40312 52009 80002;
0165549160999992000012306004+35570+116850FM-12+005399999V0203401N002010150019N0100001N1+00101-00361103031ADDAA199000091GF108991081051017501999999KA1999N-00371MD1710091+9999REMSYN070AAXX  23061 54916 32760 83402 10010 21036 40303 57009 885// 333 21037;EQDQ01  00002PRCP99
0112549160999992000012309004+35570+116850FM-12+005399999V0203401N002019999999N0100001N1-00021-00371103201ADDGF107991071001999999031999MD1210171+9999REMSYN060AAXX  23091 54916 42960 73402 11002 21037 40320 52017 8703/;
0142549160999992000012312004+35570+116850FM-12+005399999V0200201N002019999999N0100001N1-00051-00301103371ADDAA199000091GF107991071001999999031999MD1210161+9999REMSYN060AAXX  23121 54916 32960 70202 11005 21030 40337 52016 8703/;EQDQ01  00002PRCP99
0165549160999992000012318004+35570+116850FM-12+005399999V0200401N003012200019N0100001N1-00221-00701103721ADDAA199000091GF102991001001999999001021KA1999M+00171MD1210151+9999REMSYN070AAXX  23181 54916 32960 20403 11022 21070 40372 52015 80002 333 10017;EQDQ01  00002PRCP99
0112549160999992000012321004+35570+116850FM-12+005399999V0200201N006010120019N0150001N1-00351-01141103821ADDGF108991081051012501999999MD1210101+9999REMSYN060AAXX  23211 54916 42665 80206 11035 21114 40382 52010 885//;
0152549160999992000012400004+35570+116850FM-12+005399999V0200401N007019999999N0150001N1-00501-01101104041ADDAA199000091GF108991081001999999071999MD1210221+0101REMSYN070AAXX  24001 54916 32965 80407 11050 21110 40404 52022 8807/ 333 01052;EQDQ01  00002PRCP99
0112549160999992000012403004+35570+116850FM-12+005399999V0200401N005012200019N0150001N1-00311-01271104221ADDGF102991001001999999001021MD1210181+9999REMSYN060AAXX  24031 54916 42965 20405 11031 21127 40422 52018 80002;
0165549160999992000012406004+35570+116850FM-12+005399999V0200401N004019999999N0120001N1-00261-01101104141ADDAA199000091GF106991001001999999001021KA1999N-00511MD1710081+9999REMSYN070AAXX  24061 54916 32962 60404 11026 2111/ 40414 57008 80002 333 21051;EQDQ01  00002PRCP99
0112549160999992000012409004+35570+116850FM-12+005399999V0200401N004019999999N0100001N1-00271-01181104211ADDGF107991001001999999001021MD1210061+9999REMSYN060AAXX  24091 54916 42960 70404 11027 21118 40421 52006 80002;
0142549160999992000012412004+35570+116850FM-12+005399999V0200201N004019999999N0100001N1-00441-01071104381ADDAA199000091GF105991001001999999001021MD1210171+9999REMSYN060AAXX  24121 54916 32960 50204 11044 21107 40438 52017 80002;EQDQ01  00002PRCP99
0175549160999992000012418004+35570+116850FM-12+005399999V0203401N002012200019N0100001N1-00881-01251104501ADDAA199000091GA1001+999999999GF100991001001999999001001KA1999M-00141MD1210051+9999REMSYN064AAXX  24181 54916 32960 03402 11088 21125 40450 52005 333 11014;EQDQ01  00002PRCP99
0122549160999992000012421004+35570+116850FM-12+005399999V0203601N002012200019N0100001N1-00991-01271104461ADDGA1001+999999999GF100991001001999999001001MD1710051+9999REMSYN054AAXX  24211 54916 42960 03602 11099 21127 40446 57005;
0162549160999992000012500004+35570+116850FM-12+005399999V0203601N001012200019N0100001N1-01061-01361104511ADDAA199000091GA1001+999999999GF100991001001999999001001MD1210051+0051REMSYN064AAXX  25001 54916 32960 03601 11106 21136 40451 52005 333 00556;EQDQ01  00002PRCP99
0122549160999992000012503004+35570+116850FM-12+005399999V0203401N001012200019N0100001N1-00651-01681104541ADDGA1001+999999999GF100991001001999999001001MD1210031+9999REMSYN054AAXX  25031 54916 42960 03401 11065 21168 40454 52003;
0175549160999992000012506004+35570+116850FM-12+005399999V0203201N003012200019N0100001N1-00361-01281104301ADDAA199000091GA1001+999999999GF100991001001999999001001KA1999N-01071MD1710231+9999REMSYN064AAXX  25061 54916 32960 03203 11036 21128 40430 57023 333 21107;EQDQ01  00002PRCP99
0122549160999992000012509004+35570+116850FM-12+005399999V0203401N003012200019N0100001N1-00371-01921104221ADDGA1001+999999999GF100991001001999999001001MD1710091+9999REMSYN054AAXX  25091 54916 42960 03403 11037 21192 40422 57009;
0152549160999992000012512004+35570+116850FM-12+005399999V0203401N004012200019N0120001N1-00661-01551104301ADDAA199000091GA1001+999999999GF100991001001999999001001MD1210081+9999REMSYN054AAXX  25121 54916 32962 03404 11066 21155 40430 52008;EQDQ01  00002PRCP99
0175549160999992000012518004+35570+116850FM-12+005399999V0203201N002012200019N0120001N1-00941-01651104401ADDAA199000091GA1001+999999999GF100991001001999999001001KA1999M-00321MD1210051+9999REMSYN064AAXX  25181 54916 32962 03202 11094 21165 40440 52005 333 11032;EQDQ01  00002PRCP99
0122549160999992000012521004+35570+116850FM-12+005399999V0203201N001012200019N0100001N1-01011-01611104331ADDGA1001+999999999GF100991001001999999001001MD1710071+9999REMSYN054AAXX  25211 54916 42960 03201 11101 21161 40433 57007;
0162549160999992000012600004+35570+116850FM-12+005399999V0203401N001012200019N0100001N1-01021-01561104391ADDAA199000091GA1001+999999999GF100991001001999999001001MD1210061+0011REMSYN064AAXX  26001 54916 32960 03401 11102 21156 40439 52006 333 05100;EQDQ01  00002PRCP99
0122549160999992000012603004+35570+116850FM-12+005399999V0203201N004012200019N0100001N1-00421-01271104401ADDGA1001+999999999GF100991001001999999001001MD1210011+9999REMSYN054AAXX  26031 54916 42960 03204 11042 21127 40440 52001;
0175549160999992000012606004+35570+116850FM-12+005399999V0202901N004012200019N0100001N1-00161-01831104181ADDAA199000091GA1001+999999999GF100991001001999999001001KA1999N-01121MD1710211+9999REMSYN064AAXX  26061 54916 32960 02904 11016 21183 40418 57021 333 21112;EQDQ01  00002PRCP99
0122549160999992000012609004+35570+116850FM-12+005399999V0203401N005012200019N0100001N1-00201-01671104131ADDGA1001+999999999GF100991001001999999001001MD1710051+9999REMSYN054AAXX  26091 54916 42960 03405 11020 21167 40413 57005;
0152549160999992000012612004+35570+116850FM-12+005399999V0203201N003012200019N0100001N1-00481-01371104211ADDAA199000091GA1001+999999999GF100991001001999999001001MD1210071+9999REMSYN054AAXX  26121 54916 32960 03203 11048 21137 40421 52007;EQDQ01  00002PRCP99
0175549160999992000012618004+35570+116850FM-12+005399999V0203601N002012200019N0100001N1-00821-01401104241ADDAA199000091GA1001+999999999GF100991001001999999001001KA1999M-00071MD1410001+9999REMSYN064AAXX  26181 54916 32960 03602 11082 21140 40424 54000 333 11007;EQDQ01  00002PRCP99
0122549160999992000012621004+35570+116850FM-12+005399999V0203601N001012200019N0100001N1-01021-01431104191ADDGA1001+999999999GF100991001001999999001001MD1710051+9999REMSYN054AAXX  26211 54916 42960 03601 11102 21143 40419 57005;
0162549160999992000012700004+35570+116850FM-12+005399999V0209999C000012200019N0100001N1-01081-01511104261ADDAA199000091GA1001+999999999GF100991001001999999001001MD1210061+0011REMSYN064AAXX  27001 54916 32960 00000 11108 21151 40426 52006 333 05151;EQDQ01  00002PRCP99
0112549160999992000012703004+35570+116850FM-12+005399999V0203401N002012200019N0100001N1-00341-01671104231ADDGF102991001001999999001021MD1710021+9999REMSYN060AAXX  27031 54916 42960 23402 11034 21167 40423 57002 80002;
0175549160999992000012706004+35570+116850FM-12+005399999V0203401N001012200019N0100001N1-00061-00921103931ADDAA199000091GA1001+999999999GF100991001001999999001001KA1999N-01121MD1710301+9999REMSYN064AAXX  27061 54916 32960 03401 11006 21092 40393 57030 333 21112;EQDQ01  00002PRCP99
0122549160999992000012709004+35570+116850FM-12+005399999V0202901N002012200019N0100001N1+00061-01481103861ADDGA1001+999999999GF100991001001999999001001MD1710071+9999REMSYN054AAXX  27091 54916 42960 02902 10006 21148 40386 57007;
0152549160999992000012712004+35570+116850FM-12+005399999V0202701N003012200019N0100001N1-00321-01211103841ADDAA199000091GA1001+999999999GF100991001001999999001001MD1710021+9999REMSYN054AAXX  27121 54916 32960 02703 11032 21121 40384 57002;EQDQ01  00002PRCP99
0175549160999992000012718004+35570+116850FM-12+005399999V0201601N002012200019N0100001N1-00941-01161103811ADDAA199000091GA1001+999999999GF100991001001999999001001KA1999M+00161MD1710021+9999REMSYN064AAXX  27181 54916 32960 01602 11094 21116 40381 57002 333 10016;EQDQ01  00002PRCP99
0122549160999992000012721004+35570+116850FM-12+005399999V0201101N002012200019N0100001N1-00991-01221103651ADDGA1001+999999999GF100991001001999999001001MD1710161+9999REMSYN054AAXX  27211 54916 42960 01102 11099 21122 40365 57016;
0152549160999992000012800004+35570+116850FM-12+005399999V0200901N002012200019N0100001N1-01061-01241103691ADDAA199000091GF102991001001999999001021MD1210041+0061REMSYN070AAXX  28001 54916 32960 20902 11106 21124 40369 52004 80002 333 05600;EQDQ01  00002PRCP99
0122549160999992000012803004+35570+116850FM-12+005399999V0202001N004012200019N0100001N1-00031-01151103681ADDGA1001+999999999GF100991001001999999001001MD1410001+9999REMSYN054AAXX  28031 54916 42960 02004 11003 21115 40368 54000;
0165549160999992000012806004+35570+116850FM-12+005399999V0201801N005019999999N0100001N1+00161-01131103391ADDAA199000091GF105991001001999999001021KA1999N-01101MD1710291+9999REMSYN070AAXX  28061 54916 32960 51805 10016 21113 40339 57029 80002 333 21110;EQDQ01  00002PRCP99
0112549160999992000012809004+35570+116850FM-12+005399999V0202001N004019999999N0100001N1+00051-01101103331ADDGF107991001001999999001021MD1710061+9999REMSYN060AAXX  28091 54916 42960 72004 10005 21110 40333 57006 80002;
0152549160999992000012812004+35570+116850FM-12+005399999V0201401N002012200019N0100001N1-00191-00691103401ADDAA199000091GA1001+999999999GF100991001001999999001001MD1210061+9999REMSYN054AAXX  28121 54916 32960 01402 11019 21069 40340 52006;EQDQ01  00002PRCP99
0165549160999992000012818004+35570+116850FM-12+005399999V0201101N002012200019N0100001N1-00471-00701103371ADDAA199000091GF104991001001999999001021KA1999M+00231MD1710021+9999REMSYN070AAXX  28181 54916 32960 41102 11047 21070 40337 57002 80002 333 10023;EQDQ01  00002PRCP99
0112549160999992000012821004+35570+116850FM-12+005399999V0201801N001019999999N0100001N1-00561-00751103431ADDGF106991001001999999001021MD1210061+9999REMSYN060AAXX  28211 54916 42960 61801 11056 21075 40343 52006 80002;
0152549160999992000012900004+35570+116850FM-12+005399999V0201101N002019999999N0100001N1-00611-00771103551ADDAA199000091GF105991001001999999001021MD1210121+0011REMSYN070AAXX  29001 54916 32960 51102 11061 21077 40355 52012 80002 333 05105;EQDQ01  00002PRCP99
0122549160999992000012903004+35570+116850FM-12+005399999V0203201N003012200019N0100001N1+00091-00681103701ADDGA1001+999999999GF100991001001999999001001MD1210151+9999REMSYN054AAXX  29031 54916 42960 03203 10009 21068 40370 52015;
0175549160999992000012906004+35570+116850FM-12+005399999V0203201N004012200019N0100001N1+00291-00751103541ADDAA199000091GA1001+999999999GF100991001001999999001001KA1999N-00701MD1710161+9999REMSYN064AAXX  29061 54916 32960 03204 10029 21075 40354 57016 333 21070;EQDQ01  00002PRCP99
0122549160999992000012909004+35570+116850FM-12+005399999V0203401N006012200019N0100001N1+00121-01081103761ADDGA1001+999999999GF100991001001999999001001MD1210221+9999REMSYN054AAXX  29091 54916 42960 03406 10012 21108 40376 52022;
0152549160999992000012912004+35570+116850FM-12+005399999V0203601N003012200019N0100001N1-00221-01301104021ADDAA199000091GA1001+999999999GF100991001001999999001001MD1210251+9999REMSYN054AAXX  29121 54916 32960 03603 11022 21130 40402 52025;EQDQ01  00002PRCP99
0175549160999992000012918004+35570+116850FM-12+005399999V0203201N003012200019N0100001N1-00531-01211104331ADDAA199000091GA1001+999999999GF100991001001999999001001KA1999M+00361MD1210161+9999REMSYN064AAXX  29181 54916 32960 03203 11053 21121 40433 52016 333 10036;EQDQ01  00002PRCP99
0122549160999992000012921004+35570+116850FM-12+005399999V0203401N002012200019N0100001N1-00731-01461104481ADDGA1001+999999999GF100991001001999999001001MD1210141+9999REMSYN054AAXX  29211 54916 42960 03402 11073 21146 40448 52014;
0162549160999992000013000004+35570+116850FM-12+005399999V0202901N002012200019N0100001N1-00811-01751104721ADDAA199000091GA1001+999999999GF100991001001999999001001MD1210241+0121REMSYN064AAXX  30001 54916 32960 02902 11081 21175 40472 52024 333 01252;EQDQ01  00002PRCP99
0112549160999992000013003004+35570+116850FM-12+005399999V0203601N003012200019N0100001N1-00361-01911104831ADDGF104991001001999999001021MD1210111+9999REMSYN060AAXX  30031 54916 42960 43603 11036 21191 40483 52011 80002;
0175549160999992000013006004+35570+116850FM-12+005399999V0203201N006012200019N0120001N1-00181-02111104601ADDAA199000091GA1001+999999999GF100991001001999999001001KA1999N-00841MD1710231+9999REMSYN064AAXX  30061 54916 32962 03206 11018 21211 40460 57023 333 21084;EQDQ01  00002PRCP99
0122549160999992000013009004+35570+116850FM-12+005399999V0203401N004012200019N0100001N1-00231-01941104561ADDGA1001+999999999GF100991001001999999001001MD1710041+9999REMSYN054AAXX  30091 54916 42960 03404 11023 21194 40456 57004;
0152549160999992000013012004+35570+116850FM-12+005399999V0203601N002012200019N0100001N1-00271-01231104761ADDAA199000091GA1001+999999999GF100991001001999999001001MD1210191+9999REMSYN054AAXX  30121 54916 32960 03602 11027 21123 40476 52019;EQDQ01  00002PRCP99
0175549160999992000013018004+35570+116850FM-12+005399999V0203401N003012200019N0100001N1-00661-01631104851ADDAA199000091GA1001+999999999GF100991001001999999001001KA1999M-00051MD1210041+9999REMSYN064AAXX  30181 54916 32960 03403 11066 21163 40485 52004 333 11005;EQDQ01  00002PRCP99
0122549160999992000013021004+35570+116850FM-12+005399999V0203601N004012200019N0100001N1-00761-01581104841ADDGA1001+999999999GF100991001001999999001001MD1710021+9999REMSYN054AAXX  30211 54916 42960 03604 11076 21158 40484 57002;
0152549160999992000013100004+35570+116850FM-12+005399999V0200401N002019999999N0100001N1-00821-01851104891ADDAA199000091GF107991001001999999001021MD1210051+0021REMSYN070AAXX  31001 54916 32960 70402 11082 21185 40489 52005 80002 333 00200;EQDQ01  00002PRCP99
0112549160999992000013103004+35570+116850FM-12+005399999V0203401N005019999999N0100001N1-00611-02731104871ADDGF107991001001999999001021MD1710021+9999REMSYN060AAXX  31031 54916 42960 73405 11061 21273 40487 57002 80002;
0165549160999992000013106004+35570+116850FM-12+005399999V0203401N006019999999N0100001N1-00391-02341104541ADDAA199000091GF106991001001999999001021KA1999N-00841MD1710321+9999REMSYN070AAXX  31061 54916 32960 63406 11039 21234 40454 57032 80002 333 21084;EQDQ01  00002PRCP99
0112549160999992000013109004+35570+116850FM-12+005399999V0203201N005019999999N0100001N1-00481-02251104401ADDGF108991001001999999001071MD1710151+9999REMSYN060AAXX  31091 54916 42960 83205 11048 21225 40440 57015 80007;
0152549160999992000013112004+35570+116850FM-12+005399999V0203401N003012200019N0100001N1-00601-02131104451ADDAA199000091GA1001+999999999GF100991001001999999001001MD1210051+9999REMSYN054AAXX  31121 54916 32960 03403 11060 21213 40445 52005;EQDQ01  00002PRCP99
0175549160999992000013118004+35570+116850FM-12+005399999V0202901N002012200019N0120001N1-01031-01721104291ADDAA199000091GA1001+999999999GF100991001001999999001001KA1999M-00361MD1710131+9999REMSYN064AAXX  31181 54916 32962 02902 11103 21172 40429 57013 333 11036;EQDQ01  00002PRCP99
0122549160999992000013121004+35570+116850FM-12+005399999V0203201N002012200019N0100001N1-01061-01931104131ADDGA1001+999999999GF100991001001999999001001MD1710161+9999REMSYN054AAXX  31211 54916 42960 03202 11106 21193 40413 57016;
0162549160999992000020100004+35570+116850FM-12+005399999V0209999C000012200019N0100001N1-01281-01771104071ADDAA199000091GA1001+999999999GF100991001001999999001001MD1710061+0081REMSYN064AAXX  01001 54916 32960 00000 11128 21177 40407 57006 333 05855;EQDQ01  00002PRCP99
0122549160999992000020103004+35570+116850FM-12+005399999V0209999C000012200019N0100001N1-00401-01901103991ADDGA1001+999999999GF100991001001999999001001MD1710071+9999REMSYN054AAXX  01031 54916 42960 00000 11040 21190 40399 57007;
0175549160999992000020106004+35570+116850FM-12+005399999V0202001N002012200019N0100001N1-00141-01961103701ADDAA199000091GA1001+999999999GF100991001001999999001001KA1999N-01371MD1710291+9999REMSYN064AAXX  01061 54916 32960 02002 11014 21196 40370 57029 333 21137;EQDQ01  00002PRCP99
0122549160999992000020109004+35570+116850FM-12+005399999V0202701N002012200019N0100001N1-00181-01871103491ADDGA1001+999999999GF100991001001999999001001MD1710211+9999REMSYN054AAXX  01091 54916 42960 02702 11018 21187 40349 57021;
0152549160999992000020112004+35570+116850FM-12+005399999V0202701N002012200019N0100001N1-00391-01461103591ADDAA199000091GA1001+999999999GF100991001001999999001001MD1210091+9999REMSYN054AAXX  01121 54916 32960 02702 11039 21146 40359 52009;EQDQ01  00002PRCP99
0175549160999992000020118004+35570+116850FM-12+005399999V0201101N002012200019N0100001N1-00971-01301103451ADDAA199000091GA1001+999999999GF100991001001999999001001KA1999M-00071MD1710111+9999REMSYN064AAXX  01181 54916 32960 01102 11097 21130 40345 57011 333 11007;EQDQ01  00002PRCP99
0122549160999992000020121004+35570+116850FM-12+005399999V0200701N002012200019N0100001N1-01001-01341103431ADDGA1001+999999999GF100991001001999999001001MD1710021+9999REMSYN054AAXX  01211 54916 42960 00702 11100 21134 40343 57002;
0164549160999992000020200004+35570+116850FM-12+005399999V0200901N002012200019N0080001N1-01061-01361103491ADDAA199000091GF104991001001999999001021MD1210061+0061MW1101REMSYN076AAXX  02001 54916 31958 40902 11106 21136 40349 52006 71000 80002 333 05602;EQDQ01  00002PRCP99
0122549160999992000020203004+35570+116850FM-12+005399999V0202201N002012200019N0100001N1-00011-01291103421ADDGA1001+999999999GF100991001001999999001001MD1710061+9999REMSYN054AAXX  02031 54916 42960 02202 11001 21129 40342 57006;
0175549160999992000020206004+35570+116850FM-12+005399999V0202201N003012200019N0100001N1+00241-01411103171ADDAA199000091GA1001+999999999GF100991001001999999001001KA1999N-01081MD1710251+9999REMSYN064AAXX  02061 54916 32960 02203 10024 21141 40317 57025 333 21108;EQDQ01  00002PRCP99
0122549160999992000020209004+35570+116850FM-12+005399999V0201801N003012200019N0100001N1+00141-01361103081ADDGA1001+999999999GF100991001001999999001001MD1710091+9999REMSYN054AAXX  02091 54916 42960 01803 10014 21136 40308 57009;
0152549160999992000020212004+35570+116850FM-12+005399999V0202201N002012200019N0100001N1-00121-00971103181ADDAA199000091GA1001+999999999GF100991001001999999001001MD1210091+9999REMSYN054AAXX  02121 54916 32960 02202 11012 21097 40318 52009;EQDQ01  00002PRCP99
0175549160999992000020218004+35570+116850FM-12+005399999V0201401N001012200019N0100001N1-00771-01051103231ADDAA199000091GA1001+999999999GF100991001001999999001001KA1999M+00331MD1210011+9999REMSYN064AAXX  02181 54916 32960 01401 11077 21105 40323 52001 333 10033;EQDQ01  00002PRCP99
0122549160999992000020221004+35570+116850FM-12+005399999V0209999C000012200019N0100001N1-00901-01061103201ADDGA1001+999999999GF100991001001999999001001MD1710031+9999REMSYN054AAXX  02211 54916 42960 00000 11090 21106 40320 57003;
0174549160999992000020300004+35570+116850FM-12+005399999V0209999C000012200019N0030001N1-00961-01131103271ADDAA199000091GA1001+999999999GF100991001001999999001001MD1210061+0021MW1101REMSYN070AAXX  03001 54916 31930 00000 11096 21113 40327 52006 71000 333 05201;EQDQ01  00002PRCP99
0122549160999992000020303004+35570+116850FM-12+005399999V0203201N001012200019N0100001N1+00031-00681103421ADDGA1001+999999999GF100991001001999999001001MD1210161+9999REMSYN054AAXX  03031 54916 42960 03201 10003 21068 40342 52016;
0175549160999992000020306004+35570+116850FM-12+005399999V0203201N003012200019N0100001N1+00351-01361103201ADDAA199000091GA1001+999999999GF100991001001999999001001KA1999N-01001MD1710221+9999REMSYN064AAXX  03061 54916 32960 03203 10035 21136 40320 57022 333 21100;EQDQ01  00002PRCP99
0124549160999992000020309004+35570+116850FM-12+005399999V0202901N002012200019N0060001N1+00231-01171103171ADDGF104991001001999999001021MD1710031+9999MW1041REMSYN066AAXX  03091 54916 41956 42902 10023 21117 40317 57003 70400 80002;
0152549160999992000020312004+35570+116850FM-12+005399999V0203401N001012200019N0100001N1-00251-01051103291ADDAA199000091GA1001+999999999GF100991001001999999001001MD1210111+9999REMSYN054AAXX  03121 54916 32960 03401 11025 21105 40329 52011;EQDQ01  00002PRCP99
0175549160999992000020318004+35570+116850FM-12+005399999V0200401N001012200019N0100001N1-00841-01191103351ADDAA199000091GA1001+999999999GF100991001001999999001001KA1999M+00431MD1710021+9999REMSYN064AAXX  03181 54916 32960 00401 11084 21119 40335 57002 333 10043;EQDQ01  00002PRCP99
0122549160999992000020321004+35570+116850FM-12+005399999V0200701N002012200019N0100001N1-00891-01201103271ADDGA1001+999999999GF100991001001999999001001MD1710081+9999REMSYN054AAXX  03211 54916 42960 00702 11089 21120 40327 57008;
0152549160999992000020400004+35570+116850FM-12+005399999V0200701N002019999999N0100001N1-00761-01201103341ADDAA199000091GF106991001001999999001021MD1210071+0011REMSYN070AAXX  04001 54916 32960 60702 11076 21120 40334 52007 80002 333 00102;EQDQ01  00002PRCP99
0122549160999992000020403004+35570+116850FM-12+005399999V0201401N003012200019N0100001N1+00221-01051103311ADDGA1001+999999999GF100991001001999999001001MD1710031+9999REMSYN054AAXX  04031 54916 42960 01403 10022 21105 40331 57003;
0165549160999992000020406004+35570+116850FM-12+005399999V0201401N002012200019N0100001N1+00571-01051102931ADDAA199000091GF101991001001999999001021KA1999N-00961MD1710371+9999REMSYN070AAXX  04061 54916 32960 11402 10057 21105 40293 57037 80002 333 21096;EQDQ01  00002PRCP99
0112549160999992000020409004+35570+116850FM-12+005399999V0202201N003019999999N0100001N1+00361-01021102891ADDGF108991081001999999071999MD1710051+9999REMSYN060AAXX  04091 54916 42960 82203 10036 21102 40289 57005 8807/;
0142549160999992000020412004+35570+116850FM-12+005399999V0202501N001019999999N0100001N1+00241-00731102971ADDAA199000091GF108991081001999999071999MD1210081+9999REMSYN060AAXX  04121 54916 32960 82501 10024 21073 40297 52008 8807/;EQDQ01  00002PRCP99
0165549160999992000020418004+35570+116850FM-12+005399999V0202201N001019999999N0100001N1+00051-00541102851ADDAA199000091GF108991081001999999071999KA1999M+00601MD1710091+9999REMSYN070AAXX  04181 54916 32960 82201 10005 21054 40285 57009 8807/ 333 10060;EQDQ01  00002PRCP99
0153549160999992000020421004+35570+116850FM-12+005399999V0201801N001019999999N0100001N1-00101-00191102761ADDAA124000891AY171031GF108991081001999999021999MD1710091+9999MW1711REMSYN076AAXX  04211 54916 41960 81801 11010 21019 40276 57009 77170 8802/ 333 70008;
0189549160999992000020500004+35570+116850FM-12+005399999V0201401N002019999999N0030001N1-00151-00201102751ADDAA106001091AY171061GF108991081001999999021999IA2999-00179MD1710021-0601MW1701REMSYN100AAXX  05001 54916 11930 81402 11015 21020 40275 57002 60011 77070 8802/ 333 05606 31017 70011 92502;
0140549160999992000020503004+35570+116850FM-12+005399999V0201801N002019999999N0070001N1-00031-00061102751ADDAY171031AY271031GF108991081001999999021999MD1410001+9999MW1701REMSYN066AAXX  05031 54916 41957 81802 11003 21006 40275 54000 77077 8802/;
0172549160999992000020506004+35570+116850FM-12+005399999V0202001N002010120019N0100001N1+00191-00121102481ADDAA106000191AY171061GF108991081051012501999999KA1999N-00171MD1710261+9999MW1001REMSYN082AAXX  05061 54916 11660 82002 10019 21012 40248 57026 69911 70070 885// 333 21017;
0122549160999992000020509004+35570+116850FM-12+005399999V0201801N002012200019N0100001N1+00241-00101102421ADDGA1001+999999999GF100991001001999999001001MD1710061+9999REMSYN054AAXX  05091 54916 42960 01802 10024 21010 40242 57006;
0123549160999992000020512004+35570+116850FM-12+005399999V0201801N002019999999N0100001N1+00041-00171102581ADDAA199000021GF106991001001999999001021MD1210151+9999REMSYN060AAXX  05121 54916 32960 61802 10004 21017 40258 52015 80002;
0165549160999992000020518004+35570+116850FM-12+005399999V0201401N002019999999N0100001N1-00311-00341102621ADDAA199000091GF107991001001999999001021KA1999M+00331MD1710021+9999REMSYN070AAXX  05181 54916 32960 71402 11031 21034 40262 57002 80002 333 10033;EQDQ01  00002PRCP99
0133549160999992000020521004+35570+116850FM-12+005399999V0201101N002019999999N0100001N1-00441-00511102481ADDAA124000591GF106991001001999999001021MD1710141+9999REMSYN070AAXX  05211 54916 42960 61102 11044 21051 40248 57014 80002 333 70004;
0151549160999992000020600004+35570+116850FM-12+005399999V0200701N002019999999N0020001N1-00521-00631102561ADDAA124000191GF106991001001999999001021MD1210081-0201MW1101REMSYN082AAXX  06001 54916 31920 60702 11052 21063 40256 52008 71000 80002 333 05254 70001;
0134549160999992000020603004+35570+116850FM-12+005399999V0201401N003012200019N0030001N1+00031-00121102571ADDGA1001+999999999GF100991001001999999001001MD1210011+9999MW1101REMSYN060AAXX  06031 54916 41930 01403 10003 21012 40257 52001 71000;
0177549160999992000020606004+35570+116850FM-12+005399999V0200701N002012200019N0080001N1+00431+00121102291ADDAA199000091GF104991001001999999001021KA1999N-00541MD1710271+9999MW1101REMSYN076AAXX  06061 54916 31958 40702 10043 20012 40229 57027 71000 80002 333 21054;EQDQ01  00002PRCP99
0134549160999992000020609004+35570+116850FM-12+005399999V0209999C000012200019N0080001N1+00431+00151102181ADDGA1001+999999999GF100991001001999999001001MD1710111+9999MW1101REMSYN060AAXX  06091 54916 41958 00000 10043 20015 40218 57011 71000;
0164549160999992000020612004+35570+116850FM-12+005399999V0209999C000012200019N0080001N1-00041-00131102251ADDAA199000091GA1001+999999999GF100991001001999999001001MD1210061+9999MW1101REMSYN060AAXX  06121 54916 31958 00000 11004 21013 40225 52006 71000;EQDQ01  00002PRCP99
0177549160999992000020618004+35570+116850FM-12+005399999V0202901N004019999999N0005001N1-00291-00331102161ADDAA199000091GF108991081001999999071999KA1999M+00611MD1210041+9999MW1461REMSYN076AAXX  06181 54916 31905 82904 11029 21033 40216 52004 74600 8807/ 333 10061;EQDQ01  00002PRCP99
0153549160999992000020621004+35570+116850FM-12+005399999V0203201N005019999999N0060001N1-00041-00051102221ADDAA124000791AY171031GF108991081001999999021999MD1210061+9999MW1101REMSYN076AAXX  06211 54916 41956 83205 11004 21005 40222 52006 71070 8802/ 333 79999;
0191549160999992000020700004+35570+116850FM-12+005399999V0203201N006019999999N0100001N1-00161-00181102531ADDAA106000791AY171061AY241061GF108991081001999999071999IA2999-00179MD1210301+0001MW1001REMSYN094AAXX  07001 54916 11960 83206 11016 21018 40253 52030 69901 70074 8807/ 333 00004 31017 79999;
0122549160999992000020703004+35570+116850FM-12+005399999V0203401N008012200019N0100001N1+00011-00381102771ADDGA1001+999999999GF100991001001999999001001MD1210241+9999REMSYN054AAXX  07031 54916 42960 03408 10001 21038 40277 52024;
0175549160999992000020706004+35570+116850FM-12+005399999V0203401N007012200019N0100001N1+00211-01401102641ADDAA199000091GA1001+999999999GF100991001001999999001001KA1999N-00451MD1710131+9999REMSYN064AAXX  07061 54916 32960 03407 10021 21140 40264 57013 333 21045;EQDQ01  00002PRCP99
0122549160999992000020709004+35570+116850FM-12+005399999V0203201N005012200019N0100001N1+00201-01221102591ADDGA1001+999999999GF100991001001999999001001MD1710041+9999REMSYN054AAXX  07091 54916 42960 03205 10020 21122 40259 57004;
0152549160999992000020712004+35570+116850FM-12+005399999V0202001N001012200019N0100001N1-00101-00651102571ADDAA199000091GA1001+999999999GF100991001001999999001001MD1710031+9999REMSYN054AAXX  07121 54916 32960 02001 11010 21065 40257 57003;EQDQ01  00002PRCP99
0175549160999992000020718004+35570+116850FM-12+005399999V0201401N002012200019N0100001N1-00581-00861102411ADDAA199000091GA1001+999999999GF100991001001999999001001KA1999M+00281MD1710021+9999REMSYN064AAXX  07181 54916 32960 01402 11058 21086 40241 57002 333 10028;EQDQ01  00002PRCP99
0122549160999992000020721004+35570+116850FM-12+005399999V0200401N003012200019N0100001N1-00441-00911102721ADDGA1001+999999999GF100991001001999999001001MD1210311+9999REMSYN054AAXX  07211 54916 42960 00403 11044 21091 40272 52031;
0162549160999992000020800004+35570+116850FM-12+005399999V0200401N004012200019N0150001N1-00411-01821103061ADDAA199000091GA1001+999999999GF100991001001999999001001MD1210331+0051REMSYN064AAXX  08001 54916 32965 00404 11041 21182 40306 52033 333 00553;EQDQ01  00002PRCP99
0157549160999992000020803004+35570+116850FM-12+005399999V0200401N006012200019N0150001N1-00011+99999103161ADDGA1001+999999999GF100991001001999999001001MD1210101+9999REMSYN054AAXX  08031 54916 42965 00406 11001 21061 40316 52010;EQDQ01-000613ATOD  Q02 -00613ATOD  
0175549160999992000020806004+35570+116850FM-12+005399999V0200201N005012200019N0150001N1+00091-01891103021ADDAA199000091GA1001+999999999GF100991001001999999001001KA1999N-00761MD1710141+9999REMSYN064AAXX  08061 54916 32965 00205 10009 21189 40302 57014 333 21076;EQDQ01  00002PRCP99
0122549160999992000020809004+35570+116850FM-12+005399999V0200201N001012200019N0150001N1+00121-01631102941ADDGA1001+999999999GF100991001001999999001001MD1710071+9999REMSYN054AAXX  08091 54916 42965 00201 10012 21163 40294 57007;
0152549160999992000020812004+35570+116850FM-12+005399999V0203201N002012200019N0120001N1-00251-01611103041ADDAA199000091GA1001+999999999GF100991001001999999001001MD1210091+9999REMSYN054AAXX  08121 54916 32962 03202 11025 21161 40304 52009;EQDQ01  00002PRCP99
0175549160999992000020818004+35570+116850FM-12+005399999V0201101N002012200019N0120001N1-00841-01191102921ADDAA199000091GA1001+999999999GF100991001001999999001001KA1999M+00221MD1710101+9999REMSYN064AAXX  08181 54916 32962 01102 11084 21119 40292 57010 333 10022;EQDQ01  00002PRCP99
0122549160999992000020821004+35570+116850FM-12+005399999V0200901N002012200019N0100001N1-00901-01161102811ADDGA1001+999999999GF100991001001999999001001MD1710111+9999REMSYN054AAXX  08211 54916 42960 00902 11090 21116 40281 57011;
0152549160999992000020900004+35570+116850FM-12+005399999V0200901N002019999999N0100001N1-00711-01081102831ADDAA199000091GF106991001001999999001021MD1210021+0021REMSYN070AAXX  09001 54916 32960 60902 11071 21108 40283 52002 80002 333 05253;EQDQ01  00002PRCP99
0112549160999992000020903004+35570+116850FM-12+005399999V0201601N005012200019N0100001N1-00041-00841102781ADDGF103991001001999999001021MD1710051+9999REMSYN060AAXX  09031 54916 42960 31605 11004 21084 40278 57005 80002;
0165549160999992000020906004+35570+116850FM-12+005399999V0201801N004019999999N0100001N1+00311-01061102461ADDAA199000091GF105991001001999999001021KA1999N-00971MD1710311+9999REMSYN070AAXX  09061 54916 32960 51804 10031 21106 40246 57031 80002 333 21097;EQDQ01  00002PRCP99
0112549160999992000020909004+35570+116850FM-12+005399999V0201601N003012200019N0100001N1+00321-01221102301ADDGF102991001001999999001021MD1710161+9999REMSYN060AAXX  09091 54916 42960 21603 10032 21122 40230 57016 80002;
0175549160999992000020911004+35570+116850FM-12+005399999V0201101N002012200019N0100001N1-00471-00861102261ADDAA199000091GA1001+999999999GF100991001001999999001001KA1999M+00431MD1710071+9999REMSYN064AAXX  09111 54916 32960 01102 11047 21086 40226 57007 333 10043;EQDQ01  00002PRCP99
0152549160999992000020912004+35570+116850FM-12+005399999V0201601N002012200019N0100001N1-00061-00861102311ADDAA199000091GA1001+999999999GF100991001001999999001001MD1210011+9999REMSYN054AAXX  09121 54916 32960 01602 11006 21086 40231 52001;EQDQ01  00002PRCP99
0175549160999992000020918004+35570+116850FM-12+005399999V0201101N002012200019N0100001N1-00471-00861102261ADDAA199000091GA1001+999999999GF100991001001999999001001KA1999M+00431MD1710071+9999REMSYN064AAXX  09181 54916 32960 01102 11047 21086 40226 57007 333 10043;EQDQ01  00002PRCP99
0122549160999992000020921004+35570+116850FM-12+005399999V0200901N003012200019N0100001N1-00611-00901102171ADDGA1001+999999999GF100991001001999999001001MD1710091+9999REMSYN054AAXX  09211 54916 42960 00903 11061 21090 40217 57009;
0162549160999992000021000004+35570+116850FM-12+005399999V0200701N003012200019N0100001N1-00561-00791102151ADDAA199000091GA1001+999999999GF100991001001999999001001MD1710021+0071REMSYN064AAXX  10001 54916 32960 00703 11056 21079 40215 57002 333 05702;EQDQ01  00002PRCP99
0122549160999992000021003004+35570+116850FM-12+005399999V0201801N003012200019N0100001N1+00391-00541102121ADDGA1001+999999999GF100991001001999999001001MD1710021+9999REMSYN054AAXX  10031 54916 42960 01803 10039 21054 40212 57002;
0175549160999992000021006004+35570+116850FM-12+005399999V0202001N004012200019N0100001N1+00721-00681101801ADDAA199000091GA1001+999999999GF100991001001999999001001KA1999N-00721MD1710321+9999REMSYN064AAXX  10061 54916 32960 02004 10072 21068 40180 57032 333 21072;EQDQ01  00002PRCP99
0122549160999992000021009004+35570+116850FM-12+005399999V0202001N003012200019N0100001N1+00681-00621101791ADDGA1001+999999999GF100991001001999999001001MD1710011+9999REMSYN054AAXX  10091 54916 42960 02003 10068 21062 40179 57001;
0152549160999992000021012004+35570+116850FM-12+005399999V0201801N002012200019N0100001N1+00221-00251101971ADDAA199000091GA1001+999999999GF100991001001999999001001MD1210171+9999REMSYN054AAXX  10121 54916 32960 01802 10022 21025 40197 52017;EQDQ01  00002PRCP99
0175549160999992000021018004+35570+116850FM-12+005399999V0200201N001012200019N0100001N1-00321-00491102171ADDAA199000091GA1001+999999999GF100991001001999999001001KA1999M+00841MD1210111+9999REMSYN064AAXX  10181 54916 32960 00201 11032 21049 40217 52011 333 10084;EQDQ01  00002PRCP99
0112549160999992000021021004+35570+116850FM-12+005399999V0200201N002019999999N0100001N1-00421-00551102171ADDGF105991001001999999001021MD1410001+9999REMSYN060AAXX  10211 54916 42960 50202 11042 21055 40217 54000 80002;
0182549160999992000021100004+35570+116850FM-12+005399999V0200401N002012200019N0060001N1-00451-00581102301ADDAA199000091GF102991001001999999001021IA2999-00409MD1210121+0201MW1101REMSYN082AAXX  11001 54916 31956 20402 11045 21058 40230 52012 71000 80002 333 00201 31044;EQDQ01  00002PRCP99
0141549160999992000021103004+35570+116850FM-12+005399999V0200701N003012200019N0100001N1+00662-00441102341ADDGA1001+999999999GF100991001001999999001001MD1210051+9999REMSYN054AAXX  11031 54916 42960 00703 10066 21044 40234 52005;EQDQ01+000663ATOT  
0175549160999992000021106004+35570+116850FM-12+005399999V0200201N001012200019N0100001N1+01041-00541102131ADDAA199000091GA1001+999999999GF100991001001999999001001KA1999N-00531MD1710201+9999REMSYN064AAXX  11061 54916 32960 00201 10104 21054 40213 57020 333 21053;EQDQ01  00002PRCP99
0122549160999992000021109004+35570+116850FM-12+005399999V0202001N003012200019N0100001N1+00971+00211102121ADDGA1001+999999999GF100991001001999999001001MD1710021+9999REMSYN054AAXX  11091 54916 42960 02003 10097 20021 40212 57002;
0152549160999992000021112004+35570+116850FM-12+005399999V0201601N002012200019N0100001N1+00171-00241102111ADDAA199000091GA1001+999999999GF100991001001999999001001MD1710021+9999REMSYN054AAXX  11121 54916 32960 01602 10017 21024 40211 57002;EQDQ01  00002PRCP99
0175549160999992000021118004+35570+116850FM-12+005399999V0200901N001012200019N0100001N1-00221-00381102121ADDAA199000091GA1001+999999999GF100991001001999999001001KA1999M+01181MD1710041+9999REMSYN064AAXX  11181 54916 32960 00901 11022 21038 40212 57004 333 10118;EQDQ01  00002PRCP99
0122549160999992000021121004+35570+116850FM-12+005399999V0200401N002012200019N0100001N1-00201-00391102011ADDGA1001+999999999GF100991001001999999001001MD1710111+9999REMSYN054AAXX  11211 54916 42960 00402 11020 21039 40201 57011;
0170549160999992000021200004+35570+116850FM-12+005399999V0200701N002019999999N0100001N1-00141-00361102081ADDAA199000091GF106991061001999999031001IA2999-00309MD1210061-0201REMSYN076AAXX  12001 54916 32960 60702 11014 21036 40208 52006 86030 333 05203 31033;EQDQ01  00002PRCP99
0122549160999992000021203004+35570+116850FM-12+005399999V0201801N007012200019N0100001N1+00871-00121102061ADDGA1001+999999999GF100991001001999999001001MD1710011+9999REMSYN054AAXX  12031 54916 42960 01807 10087 21012 40206 57001;
0165549160999992000021206004+35570+116850FM-12+005399999V0201601N005019999999N0100001N1+01251+00151101791ADDAA199000091GF105991001001999999001021KA1999N-00301MD1710271+9999REMSYN070AAXX  12061 54916 32960 51605 10125 20015 40179 57027 80002 333 21030;EQDQ01  00002PRCP99
0122549160999992000021209004+35570+116850FM-12+005399999V0201801N003012200019N0100001N1+01201-00321101711ADDGA1001+999999999GF100991001001999999001001MD1710081+9999REMSYN054AAXX  12091 54916 42960 01803 10120 21032 40171 57008;
0152549160999992000021212004+35570+116850FM-12+005399999V0201401N003012200019N0120001N1+00331-00181101861ADDAA199000091GA1001+999999999GF100991001001999999001001MD1210141+9999REMSYN054AAXX  12121 54916 32962 01403 10033 21018 40186 52014;EQDQ01  00002PRCP99
0175549160999992000021218004+35570+116850FM-12+005399999V0200901N003012200019N0100001N1+00041-00231101931ADDAA199000091GA1001+999999999GF100991001001999999001001KA1999M+01341MD1710011+9999REMSYN064AAXX  12181 54916 32960 00903 10004 21023 40193 57001 333 10134;EQDQ01  00002PRCP99
0112549160999992000021221004+35570+116850FM-12+005399999V0200701N003019999999N0100001N1+00001-00211101841ADDGF105991051001999999031001MD1710091+9999REMSYN060AAXX  12211 54916 42960 50703 10000 21021 40184 57009 85030;
0164549160999992000021300004+35570+116850FM-12+005399999V0200901N001019999999N0100001N1+00021-00191999999ADDAA199000091GF107991001001999999001021IA2999-00209MD1210181-0101REMSYN070AAXX  13001 54916 32960 70901 10002 21019 52018 80002 333 05102 31023;EQDQ01  00002PRCP99
0112549160999992000021303004+35570+116850FM-12+005399999V0203201N001019999999N0100001N1+00611+00041102031ADDGF108991001001999999001071MD1210011+9999REMSYN060AAXX  13031 54916 42960 83201 10061 20004 40203 52001 80007;
0165549160999992000021306004+35570+116850FM-12+005399999V0203201N002019999999N0100001N1+00741+00091101861ADDAA199000091GF108991001001999999001071KA1999N-00081MD1710171+9999REMSYN070AAXX  13061 54916 32960 83202 10074 20009 40186 57017 80007 333 21008;EQDQ01  00002PRCP99
0124549160999992000021309004+35570+116850FM-12+005399999V0203201N003019999999N0100001N1+00591+00111101851ADDGF108991081001999999071999MD1710011+9999MW1601REMSYN066AAXX  13091 54916 41960 83203 10059 20011 40185 57001 76000 8807/;
0149549160999992000021312004+35570+116850FM-12+005399999V0203201N003019999999N0100001N1+00241+00081102051ADDAA106000791AY161061GF108991081001999999071999MD1210191+9999MW1001REMSYN072AAXX  13121 54916 11960 83203 10024 20008 40205 52019 69901 70060 8807/;
0146549160999992000021318004+35570+116850FM-12+005399999V0203201N003019999999N0100001N1+00001-00061102391ADDAA199000021GF108991081001999999021999KA1999M+00791MD1210141+9999REMSYN070AAXX  13181 54916 32960 83203 10000 21006 40239 52014 8802/ 333 10079;
0133549160999992000021321004+35570+116850FM-12+005399999V0203201N003019999999N0100001N1-00081-00201102461ADDAA124000791GF106991061001999999031001MD1210071+9999REMSYN070AAXX  13211 54916 42960 63203 11008 21020 40246 52007 86030 333 79999;
0169549160999992000021400004+35570+116850FM-12+005399999V0203201N002012200019N0060001N1-00221-00321102651ADDAA124000791GF102991001001999999001021IA2999-00199MD1210181+0601MW1101REMSYN088AAXX  14001 54916 31956 23202 11022 21032 40265 52018 71000 80002 333 00652 31019 79999;
0112549160999992000021403004+35570+116850FM-12+005399999V0203201N002019999999N0100001N1+00271-00161102581ADDGF107991001001999999001021MD1710061+9999REMSYN060AAXX  14031 54916 42960 73202 10027 21016 40258 57006 80002;
0165549160999992000021406004+35570+116850FM-12+005399999V0203201N003012200019N0100001N1+00651-00461102461ADDAA199000091GF104991011011008001001021KA1999N-00221MD1710121+9999REMSYN070AAXX  14061 54916 32560 43203 10065 21046 40246 57012 81102 333 21022;EQDQ01  00002PRCP99
0112549160999992000021409004+35570+116850FM-12+005399999V0203601N004019999999N0100001N1+00571-00831102511ADDGF106991001001999999001021MD1210051+9999REMSYN060AAXX  14091 54916 42960 63604 10057 21083 40251 52005 80002;
0152549160999992000021412004+35570+116850FM-12+005399999V0203401N003012200019N0100001N1+00211-00921102781ADDAA199000091GA1001+999999999GF100991001001999999001001MD1210261+9999REMSYN054AAXX  14121 54916 32960 03403 10021 21092 40278 52026;EQDQ01  00002PRCP99
0175549160999992000021418004+35570+116850FM-12+005399999V0203401N002012200019N0100001N1-00261-00691102931ADDAA199000091GA1001+999999999GF100991001001999999001001KA1999M+00781MD1210081+9999REMSYN064AAXX  14181 54916 32960 03402 11026 21069 40293 52008 333 10078;EQDQ01  00002PRCP99
0122549160999992000021421004+35570+116850FM-12+005399999V0200701N001012200019N0100001N1-00451-00841102921ADDGA1001+999999999GF100991001001999999001001MD1710021+9999REMSYN054AAXX  14211 54916 42960 00701 11045 21084 40292 57002;
0152549160999992000021500004+35570+116850FM-12+005399999V0200401N001012200019N0100001N1-00461-01091102991ADDAA199000091GF104991001001999999001021MD1210071+0031REMSYN070AAXX  15001 54916 32960 40401 11046 21109 40299 52007 80002 333 00352;EQDQ01  00002PRCP99
0112549160999992000021503004+35570+116850FM-12+005399999V0203201N003012200019N0100001N1+00141-01941103041ADDGF102991001001999999001021MD1210051+9999REMSYN060AAXX  15031 54916 42960 23203 10014 21194 40304 52005 80002;
0175549160999992000021506004+35570+116850FM-12+005399999V0202701N005012200019N0100001N1+00441-02671102731ADDAA199000091GA1001+999999999GF100991001001999999001001KA1999N-00571MD1710301+9999REMSYN064AAXX  15061 54916 32960 02705 10044 21267 40273 57030 333 21057;EQDQ01  00002PRCP99
0122549160999992000021509004+35570+116850FM-12+005399999V0202901N006012200019N0120001N1+00351-02331102671ADDGA1001+999999999GF100991001001999999001001MD1710071+9999REMSYN054AAXX  15091 54916 42962 02906 10035 21233 40267 57007;
0152549160999992000021512004+35570+116850FM-12+005399999V0209999C000012200019N0100001N1-00031-01132102781ADDAA199000091GA1001+999999999GF100991001001999999001001MD1210111+9999REMSYN054AAXX  15121 54916 32960 00000 11003 21113 40278 52011;EQDQ01  00002PRCP99
0175549160999992000021518004+35570+116850FM-12+005399999V0201601N002012200019N0100001N1-00501-01211102741ADDAA199000091GA1001+999999999GF100991001001999999001001KA1999M+00551MD1710021+9999REMSYN064AAXX  15181 54916 32960 01602 11050 21121 40274 57002 333 10055;EQDQ01  00002PRCP99
0122549160999992000021521004+35570+116850FM-12+005399999V0200901N002012200019N0100001N1-00591-01291102581ADDGA1001+999999999GF100991001001999999001001MD1710161+9999REMSYN054AAXX  15211 54916 42960 00902 11059 21129 40258 57016;
0152549160999992000021600004+35570+116850FM-12+005399999V0200701N001019999999N0100001N1-00551-01071102721ADDAA199000091GF106991001001999999001021MD1210141+0031REMSYN070AAXX  16001 54916 32960 60701 11055 21107 40272 52014 80002 333 05351;EQDQ01  00002PRCP99
0122549160999992000021603004+35570+116850FM-12+005399999V0201601N003012200019N0100001N1+00451-01011102751ADDGA1001+999999999GF100991001001999999001001MD1210031+9999REMSYN054AAXX  16031 54916 42960 01603 10045 21101 40275 52003;
0175549160999992000021606004+35570+116850FM-12+005399999V0202201N003012200019N0100001N1+00721-01651102451ADDAA199000091GA1001+999999999GF100991001001999999001001KA1999N-00741MD1710291+9999REMSYN064AAXX  16061 54916 32960 02203 10072 21165 40245 57029 333 21074;EQDQ01  00002PRCP99
0122549160999992000021609004+35570+116850FM-12+005399999V0201601N003012200019N0100001N1+00701-01461102311ADDGA1001+999999999GF100991001001999999001001MD1710141+9999REMSYN054AAXX  16091 54916 42960 01603 10070 21146 40231 57014;
0152549160999992000021612004+35570+116850FM-12+005399999V0201401N002012200019N0100001N1+00041-00851102421ADDAA199000091GA1001+999999999GF100991001001999999001001MD1210101+9999REMSYN054AAXX  16121 54916 32960 01402 10004 21085 40242 52010;EQDQ01  00002PRCP99
0165549160999992000021618004+35570+116850FM-12+005399999V0200901N003012200019N0100001N1-00211-00961102561ADDAA199000091GF101991001001999999001021KA1999M+00831MD1210031+9999REMSYN070AAXX  16181 54916 32960 10903 11021 21096 40256 52003 80002 333 10083;EQDQ01  00002PRCP99
0112549160999992000021620004+35570+116850FM-12+005399999V0201101N003019999999N0100001N1-00311-00871102561ADDGF106991001001999999001021MD1410001+9999REMSYN060AAXX  16201 54916 42960 61103 11031 21087 40256 54000 80002;
0112549160999992000021621004+35570+116850FM-12+005399999V0201101N003019999999N0100001N1-00381-00871102561ADDGF106991001001999999001021MD1410001+9999REMSYN060AAXX  16211 54916 42960 61103 11038 21087 40256 54000 80002;
0162549160999992000021700004+35570+116850FM-12+005399999V0200701N002012200019N0100001N1-00261-00751102651ADDAA199000091GA1001+999999999GF100991001001999999001001MD1210081+0011REMSYN064AAXX  17001 54916 32960 00702 11026 21075 40265 52008 333 05103;EQDQ01  00002PRCP99
0112549160999992000021703004+35570+116850FM-12+005399999V0201401N002010150019N0100001N1+00481-00441102631ADDGF108991081051017501999999MD1710011+9999REMSYN060AAXX  17031 54916 42760 81402 10048 21044 40263 57001 885//;
0175549160999992000021706004+35570+116850FM-12+005399999V0201101N003012200019N0100001N1+00921+00051102451ADDAA199000091GA1001+999999999GF100991001001999999001001KA1999N-00401MD1710181+9999REMSYN064AAXX  17061 54916 32960 01103 10092 20005 40245 57018 333 21040;EQDQ01  00002PRCP99
0122549160999992000021709004+35570+116850FM-12+005399999V0200401N003012200019N0100001N1+00911+00161102321ADDGA1001+999999999GF100991001001999999001001MD1710131+9999REMSYN054AAXX  17091 54916 42960 00403 10091 20016 40232 57013;
0152549160999992000021712004+35570+116850FM-12+005399999V0200701N003012200019N0100001N1+00261-00231102361ADDAA199000091GA1001+999999999GF100991001001999999001001MD1210041+9999REMSYN054AAXX  17121 54916 32960 00703 10026 21023 40236 52004;EQDQ01  00002PRCP99
0165549160999992000021718004+35570+116850FM-12+005399999V0200401N002012200019N0100001N1+00081-00321102491ADDAA199000091GF104991001001999999001021KA1999M+01081MD1210041+9999REMSYN070AAXX  17181 54916 32960 40402 10008 21032 40249 52004 80002 333 10108;EQDQ01  00002PRCP99
0112549160999992000021721004+35570+116850FM-12+005399999V0200401N002019999999N0100001N1-00081-00361102371ADDGF107991001001999999001021MD1710121+9999REMSYN060AAXX  17211 54916 42960 70402 11008 21036 40237 57012 80002;
0170549160999992000021800004+35570+116850FM-12+005399999V0200701N002019999999N0100001N1+00091-00301102351ADDAA199000091GF107991071001999999031999IA2999-00209MD1710031-0301REMSYN076AAXX  18001 54916 32960 70702 10009 21030 40235 57003 8703/ 333 05304 31026;EQDQ01  00002PRCP99
0112549160999992000021803004+35570+116850FM-12+005399999V0200401N004019999999N0100001N1+00721-00311102271ADDGF107991071001999999031999MD1710071+9999REMSYN060AAXX  18031 54916 42960 70404 10072 21031 40227 57007 8703/;
0165549160999992000021806004+35570+116850FM-12+005399999V0200901N006019999999N0100001N1+00931-00871101931ADDAA199000091GF107991001001999999001021KA1999N-00091MD1710341+9999REMSYN070AAXX  18061 54916 32960 70906 10093 21087 40193 57034 80002 333 21009;EQDQ01  00002PRCP99
0142549160999992000021812004+35570+116850FM-12+005399999V0201101N003019999999N0120001N1+00481-00221102011ADDAA199000091GF108991081001999999071999MD1210101+9999REMSYN060AAXX  18121 54916 32962 81103 10048 21022 40201 52010 8807/;EQDQ01  00002PRCP99
0172549160999992000021818004+35570+116850FM-12+005399999V0203601N001010120019N0100001N1+00321+00081102051ADDAA106000791AY161061GF108991081051012501999999KA1999M+01011MD1710031+9999MW1001REMSYN082AAXX  18181 54916 11660 83601 10032 20008 40205 57003 69901 70060 885// 333 10101;
0153549160999992000021821004+35570+116850FM-12+005399999V0203401N002010150019N0100001N1+00281-00051101981ADDAA124000791AY161031GF108991081051017501999999MD1710071+9999MW1211REMSYN076AAXX  18211 54916 41760 83402 10028 21005 40198 57007 72160 885// 333 79999;
0183549160999992000021900004+35570+116850FM-12+005399999V0203401N002012200019N0100001N1+00191-00151101961ADDAA106000791AY161061GF102991021001999999041001IA2999+00079MD1710021-0401MW1001REMSYN094AAXX  19001 54916 11960 23402 10019 21015 40196 57002 69901 70060 82040 333 05401 30007 79999;
0146549160999992000021906004+35570+116850FM-12+005399999V0203201N005019999999N0100001N1+00601-00131102001ADDAA199000021GF108991001001999999001071KA1999N+00181MD1710121+9999REMSYN070AAXX  19061 54916 32960 83205 10060 21013 40200 57012 80007 333 20018;
0112549160999992000021909004+35570+116850FM-12+005399999V0203401N004019999999N0100001N1+00381+00011101911ADDGF108991001001999999001071MD1710091+9999REMSYN060AAXX  19091 54916 42960 83404 10038 20001 40191 57009 80007;
0142549160999992000021912004+35570+116850FM-12+005399999V0203401N003019999999N0100001N1+00191-00121102071ADDAA199000091GF107991001001999999001021MD1210151+9999REMSYN060AAXX  19121 54916 32960 73403 10019 21012 40207 52015 80002;EQDQ01  00002PRCP99
0175549160999992000021918004+35570+116850FM-12+005399999V0203601N002012200019N0100001N1-00161-00391102341ADDAA199000091GA1001+999999999GF100991001001999999001001KA1999M+00661MD1210031+9999REMSYN064AAXX  19181 54916 32960 03602 11016 21039 40234 52003 333 10066;EQDQ01  00002PRCP99
0122549160999992000021921004+35570+116850FM-12+005399999V0200201N002012200019N0100001N1-00441-00611102341ADDGA1001+999999999GF100991001001999999001001MD1710011+9999REMSYN054AAXX  19211 54916 42960 00202 11044 21061 40234 57001;
0152549160999992000022000004+35570+116850FM-12+005399999V0200401N002019999999N0100001N1-00261-00621102411ADDAA199000091GF105991001001999999001021MD1210071+0041REMSYN070AAXX  20001 54916 32960 50402 11026 21062 40241 52007 80002 333 00455;EQDQ01  00002PRCP99
0112549160999992000022003004+35570+116850FM-12+005399999V0200901N002010150019N0100001N1+00371-01181102601ADDGF107991071051017501999999MD1210201+9999REMSYN060AAXX  20031 54916 42760 70902 10037 21118 40260 52020 875//;
0175549160999992000022006004+35570+116850FM-12+005399999V0200401N001012200019N0100001N1+00701-01241102351ADDAA199000091GA1001+999999999GF100991001001999999001001KA1999N-00471MD1710251+9999REMSYN064AAXX  20061 54916 32960 00401 10070 21124 40235 57025 333 21047;EQDQ01  00002PRCP99
0122549160999992000022009004+35570+116850FM-12+005399999V0202901N002012200019N0100001N1+00671-01251102251ADDGA1001+999999999GF100991001001999999001001MD1710101+9999REMSYN054AAXX  20091 54916 42960 02902 10067 21125 40225 57010;
0152549160999992000022012004+35570+116850FM-12+005399999V0202001N002012200019N0100001N1+00031-01021102431ADDAA199000091GA1001+999999999GF100991001001999999001001MD1210171+9999REMSYN054AAXX  20121 54916 32960 02002 10003 21102 40243 52017;EQDQ01  00002PRCP99
0175549160999992000022018004+35570+116850FM-12+005399999V0200901N002012200019N0100001N1-00421-00641102631ADDAA199000091GA1001+999999999GF100991001001999999001001KA1999M+00801MD1210051+9999REMSYN064AAXX  20181 54916 32960 00902 11042 21064 40263 52005 333 10080;EQDQ01  00002PRCP99
0122549160999992000022021004+35570+116850FM-12+005399999V0200901N002012200019N0100001N1-00481-00751102571ADDGA1001+999999999GF100991001001999999001001MD1710061+9999REMSYN054AAXX  20211 54916 42960 00902 11048 21075 40257 57006;
0152549160999992000022100004+35570+116850FM-12+005399999V0200701N002019999999N0100001N1-00451-00741102671ADDAA199000091GF106991001001999999001021MD1210091+0031REMSYN070AAXX  21001 54916 32960 60702 11045 21074 40267 52009 80002 333 00352;EQDQ01  00002PRCP99
0122549160999992000022103004+35570+116850FM-12+005399999V0201801N004012200019N0100001N1+00541-00601102671ADDGA1001+999999999GF100991001001999999001001MD1210011+9999REMSYN054AAXX  21031 54916 42960 01804 10054 21060 40267 52001;
0165549160999992000022106004+35570+116850FM-12+005399999V0201801N005012200019N0100001N1+00791-00281102371ADDAA199000091GF104991001001999999001021KA1999N-00591MD1710301+9999REMSYN070AAXX  21061 54916 32960 41805 10079 21028 40237 57030 80002 333 21059;EQDQ01  00002PRCP99
0112549160999992000022109004+35570+116850FM-12+005399999V0201801N003019999999N0100001N1+00751-00881102291ADDGF108991001001999999001071MD1710081+9999REMSYN060AAXX  21091 54916 42960 81803 10075 21088 40229 57008 80007;
0142549160999992000022112004+35570+116850FM-12+005399999V0201801N002019999999N0100001N1+00481-00481102361ADDAA199000091GF105991001001999999001021MD1210071+9999REMSYN060AAXX  21121 54916 32960 51802 10048 21048 40236 52007 80002;EQDQ01  00002PRCP99
0165549160999992000022118004+35570+116850FM-12+005399999V0201401N002019999999N0100001N1+00141-00541102571ADDAA199000091GF108991001001999999001071KA1999M+00881MD1210071+9999REMSYN070AAXX  21181 54916 32960 81402 10014 21054 40257 52007 80007 333 10088;EQDQ01  00002PRCP99
0112549160999992000022121004+35570+116850FM-12+005399999V0201601N002019999999N0100001N1-00031-00561102481ADDGF106991001001999999001021MD1710101+9999REMSYN060AAXX  21211 54916 42960 61602 11003 21056 40248 57010 80002;
0170549160999992000022200004+35570+116850FM-12+005399999V0201101N001019999999N0100001N1-00041-00421102661ADDAA199000091GF107991071001999999041001IA2999-00209MD1210181+0001REMSYN076AAXX  22001 54916 32960 71101 11004 21042 40266 52018 87040 333 00004 31025;EQDQ01  00002PRCP99
0122549160999992000022203004+35570+116850FM-12+005399999V0201401N005012200019N0100001N1+00591-00561102601ADDGA1001+999999999GF100991001001999999001001MD1710061+9999REMSYN054AAXX  22031 54916 42960 01405 10059 21056 40260 57006;
0175549160999992000022206004+35570+116850FM-12+005399999V0202201N003012200019N0100001N1+00861-00811102401ADDAA199000091GA1001+999999999GF100991001001999999001001KA1999N-00201MD1710191+9999REMSYN064AAXX  22061 54916 32960 02203 10086 21081 40240 57019 333 21020;EQDQ01  00002PRCP99
0112549160999992000022209004+35570+116850FM-12+005399999V0201801N004019999999N0100001N1+00751-00421102291ADDGF107991001001999999001021MD1710111+9999REMSYN060AAXX  22091 54916 42960 71804 10075 21042 40229 57011 80002;
0142549160999992000022212004+35570+116850FM-12+005399999V0202001N002019999999N0100001N1+00571-00351102361ADDAA199000091GF108991001001999999001071MD1210061+9999REMSYN060AAXX  22121 54916 32960 82002 10057 21035 40236 52006 80007;EQDQ01  00002PRCP99
0165549160999992000022218004+35570+116850FM-12+005399999V0201401N001019999999N0100001N1+00261-00141102551ADDAA199000091GF108991001001999999001071KA1999M+00941MD1210041+9999REMSYN070AAXX  22181 54916 32960 81401 10026 21014 40255 52004 80007 333 10094;EQDQ01  00002PRCP99
0112549160999992000022221004+35570+116850FM-12+005399999V0200701N001019999999N0100001N1-00131-00351102571ADDGF106991001001999999001021MD1210011+9999REMSYN060AAXX  22211 54916 42960 60701 11013 21035 40257 52001 80002;
0180549160999992000022300004+35570+116850FM-12+005399999V0200701N001012200019N0100001N1-00111-00331102721ADDAA199000091GA1001+999999999GF100991001001999999001001IA2999-00209MD1210151+0101REMSYN070AAXX  23001 54916 32960 00701 11011 21033 40272 52015 333 00151 31025;EQDQ01  00002PRCP99
0122549160999992000022303004+35570+116850FM-12+005399999V0209999C000012200019N0100001N1+00791-00171102791ADDGA1001+999999999GF100991001001999999001001MD1210081+9999REMSYN054AAXX  23031 54916 42960 00000 10079 21017 40279 52008;
0165549160999992000022306004+35570+116850FM-12+005399999V0203601N004012200019N0100001N1+00991-00191102561ADDAA199000091GF102991001001999999001021KA1999N-00231MD1710231+9999REMSYN070AAXX  23061 54916 32960 23604 10099 21019 40256 57023 80002 333 21023;EQDQ01  00002PRCP99
0112549160999992000022309004+35570+116850FM-12+005399999V0203401N003012200019N0100001N1+00961-00131102621ADDGF104991041001999999041001MD1210051+9999REMSYN060AAXX  23091 54916 42960 43403 10096 21013 40262 52005 84040;
0142549160999992000022312004+35570+116850FM-12+005399999V0200401N002019999999N0100001N1+00471-00271102761ADDAA199000091GF108991081001999999071999MD1210141+9999REMSYN060AAXX  23121 54916 32960 80402 10047 21027 40276 52014 8807/;EQDQ01  00002PRCP99
0165549160999992000022318004+35570+116850FM-12+005399999V0200201N003019999999N0100001N1+00171-00281103121ADDAA199000091GF108991081001999999071999KA1999M+01111MD1210091+9999REMSYN070AAXX  23181 54916 32960 80203 10017 21028 40312 52009 8807/ 333 10111;EQDQ01  00002PRCP99
0112549160999992000022321004+35570+116850FM-12+005399999V0200401N003019999999N0100001N1-00051-00591103151ADDGF106991001001999999001021MD1210021+9999REMSYN060AAXX  23211 54916 42960 60403 11005 21059 40315 52002 80002;
0170549160999992000022400004+35570+116850FM-12+005399999V0200401N001019999999N0100001N1-00111-00371103431ADDAA199000091GF106991001001999999001021IA2999-00309MD1210271+0701REMSYN076AAXX  24001 54916 32960 60401 11011 21037 40343 52027 80002 333 00700 31033;EQDQ01  00002PRCP99
0122549160999992000022403004+35570+116850FM-12+005399999V0200901N003012200019N0100001N1+00641-01211103391ADDGA1001+999999999GF100991001001999999001001MD1710031+9999REMSYN054AAXX  24031 54916 42960 00903 10064 21121 40339 57003;
0165549160999992000022406004+35570+116850FM-12+005399999V0200901N002012200019N0100001N1+00841-01381103161ADDAA199000091GF102991001001999999001021KA1999N-00261MD1710231+9999REMSYN070AAXX  24061 54916 32960 20902 10084 21138 40316 57023 80002 333 21026;EQDQ01  00002PRCP99
0112549160999992000022409004+35570+116850FM-12+005399999V0209999C000019999999N0100001N1+00741-00971103071ADDGF108991081001999999071999MD1710091+9999REMSYN060AAXX  24091 54916 42960 80000 10074 21097 40307 57009 8807/;
0142549160999992000022412004+35570+116850FM-12+005399999V0202701N002019999999N0100001N1+00591-01071103061ADDAA199000091GF108991081001999999071999MD1710011+9999REMSYN060AAXX  24121 54916 32960 82702 10059 21107 40306 57001 8807/;EQDQ01  00002PRCP99
0165549160999992000022418004+35570+116850FM-12+005399999V0201801N003019999999N0100001N1+00321-00791103061ADDAA199000091GF108991001001999999001071KA1999M+00871MD1710181+9999REMSYN070AAXX  24181 54916 32960 81803 10032 21079 40306 57018 80007 333 10087;EQDQ01  00002PRCP99
0112549160999992000022421004+35570+116850FM-12+005399999V0201601N004019999999N0100001N1+00241-00691103121ADDGF108991081001999999071999MD1210051+9999REMSYN060AAXX  24211 54916 42960 81604 10024 21069 40312 52005 8807/;
0170549160999992000022500004+35570+116850FM-12+005399999V0201801N004019999999N0100001N1+00261-00531102841ADDAA199000091GF108991081001999999071999IA2999+00009MD1710281-0601REMSYN076AAXX  25001 54916 32960 81804 10026 21053 40284 57028 8807/ 333 05604 31003;EQDQ01  00002PRCP99
0132549160999992000022503004+35570+116850FM-12+005399999V0202001N006019999999N0100001N1+00021-00011102621ADDAY171031GF108991081001999999071999MD1710221+9999MW1701REMSYN066AAXX  25031 54916 41960 82006 10002 21001 40262 57022 77070 8807/;
0172549160999992000022506004+35570+116850FM-12+005399999V0202501N007010150019N0100001N1+00461+00131102191ADDAA106000891AY171061GF108991081051017501999999KA1999N+00011MD1710421+9999MW1001REMSYN082AAXX  25061 54916 11760 82507 10046 20013 40219 57042 69981 70070 885// 333 20001;
0122549160999992000022509004+35570+116850FM-12+005399999V0203401N004012200019N0100001N1+00291-00071102261ADDGA1001+999999999GF100991001001999999001001MD1210061+9999REMSYN054AAXX  25091 54916 42960 03404 10029 21007 40226 52006;
0133549160999992000022512004+35570+116850FM-12+005399999V0202901N003012200019N0100001N1+00091-00141102411ADDAA199000021GA1001+999999999GF100991001001999999001001MD1210151+9999REMSYN054AAXX  25121 54916 32960 02903 10009 21014 40241 52015;
0175549160999992000022518004+35570+116850FM-12+005399999V0202501N002012200019N0100001N1-00021-00591102571ADDAA199000091GA1001+999999999GF100991001001999999001001KA1999M+00631MD1210011+9999REMSYN064AAXX  25181 54916 32960 02502 11002 21059 40257 52001 333 10063;EQDQ01  00002PRCP99
0143549160999992000022521004+35570+116850FM-12+005399999V0201401N001012200019N0100001N1-00501-00641102501ADDAA124000891GA1001+999999999GF100991001001999999001001MD1710081+9999REMSYN064AAXX  25211 54916 42960 01401 11050 21064 40250 57008 333 70008;
0149549160999992000022600004+35570+116850FM-12+005399999V0202701N002012200019N0100001N1-00321-00491102641ADDAA124000891GA1001+999999999GF100991001001999999001001MD1210141-0201REMSYN070AAXX  26001 54916 32960 02702 11032 21049 40264 52014 333 05256 70008;
0122549160999992000022603004+35570+116850FM-12+005399999V0203401N003012200019N0100001N1+00691-00571102711ADDGA1001+999999999GF100991001001999999001001MD1210081+9999REMSYN054AAXX  26031 54916 42960 03403 10069 21057 40271 52008;
0175549160999992000022606004+35570+116850FM-12+005399999V0203201N004012200019N0120001N1+01021-01211102461ADDAA199000091GA1001+999999999GF100991001001999999001001KA1999N-00571MD1710241+9999REMSYN064AAXX  26061 54916 32962 03204 10102 21121 40246 57024 333 21057;EQDQ01  00002PRCP99
0122549160999992000022609004+35570+116850FM-12+005399999V0202501N002012200019N0120001N1+01061-00911102321ADDGA1001+999999999GF100991001001999999001001MD1710151+9999REMSYN054AAXX  26091 54916 42962 02502 10106 21091 40232 57015;
0152549160999992000022612004+35570+116850FM-12+005399999V0201601N002012200019N0100001N1+00321-00691102421ADDAA199000091GA1001+999999999GF100991001001999999001001MD1210101+9999REMSYN054AAXX  26121 54916 32960 01602 10032 21069 40242 52010;EQDQ01  00002PRCP99
0175549160999992000022618004+35570+116850FM-12+005399999V0201401N003012200019N0100001N1-00091-00771102381ADDAA199000091GA1001+999999999GF100991001001999999001001KA1999M+01131MD1710071+9999REMSYN064AAXX  26181 54916 32960 01403 11009 21077 40238 57007 333 10113;EQDQ01  00002PRCP99
0122549160999992000022621004+35570+116850FM-12+005399999V0201401N003012200019N0100001N1+00061-00821102301ADDGA1001+999999999GF100991001001999999001001MD1710081+9999REMSYN054AAXX  26211 54916 42960 01403 10006 21082 40230 57008;
0170549160999992000022700004+35570+116850FM-12+005399999V0201601N003012200019N0100001N1+00001-00561102401ADDAA199000091GF101991001001999999001021IA2999-00409MD1210091-0201REMSYN076AAXX  27001 54916 32960 11603 10000 21056 40240 52009 80002 333 05203 31041;EQDQ01  00002PRCP99
0122549160999992000022703004+35570+116850FM-12+005399999V0202201N002012200019N0100001N1+00901-00631102451ADDGA1001+999999999GF100991001001999999001001MD1210061+9999REMSYN054AAXX  27031 54916 42960 02202 10090 21063 40245 52006;
0175549160999992000022706004+35570+116850FM-12+005399999V0203201N004012200019N0100001N1+01381-01111102231ADDAA199000091GA1001+999999999GF100991001001999999001001KA1999N-00261MD1710221+9999REMSYN064AAXX  27061 54916 32960 03204 10138 21111 40223 57022 333 21026;EQDQ01  00002PRCP99
0122549160999992000022709004+35570+116850FM-12+005399999V0203401N003012200019N0120001N1+01321-01021102181ADDGA1001+999999999GF100991001001999999001001MD1710051+9999REMSYN054AAXX  27091 54916 42962 03403 10132 21102 40218 57005;
0152549160999992000022712004+35570+116850FM-12+005399999V0203601N002012200019N0100001N1+00721-00471102391ADDAA199000091GA1001+999999999GF100991001001999999001001MD1210201+9999REMSYN054AAXX  27121 54916 32960 03602 10072 21047 40239 52020;EQDQ01  00002PRCP99
0175549160999992000022718004+35570+116850FM-12+005399999V0200401N003012200019N0100001N1+00221-00591102731ADDAA199000091GA1001+999999999GF100991001001999999001001KA1999M+01451MD1210121+9999REMSYN064AAXX  27181 54916 32960 00403 10022 21059 40273 52012 333 10145;EQDQ01  00002PRCP99
0122549160999992000022721004+35570+116850FM-12+005399999V0200401N003012200019N0100001N1+00001-00561102861ADDGA1001+999999999GF100991001001999999001001MD1210131+9999REMSYN054AAXX  27211 54916 42960 00403 10000 21056 40286 52013;
0180549160999992000022800004+35570+116850FM-12+005399999V0200701N006012200019N0100001N1+00101-00861103281ADDAA199000091GA1001+999999999GF100991001001999999001001IA2999-00409MD1210411+0901REMSYN070AAXX  28001 54916 32960 00706 10010 21086 40328 52041 333 00901 31045;EQDQ01  00002PRCP99
0122549160999992000022803004+35570+116850FM-12+005399999V0200701N004012200019N0100001N1+00561-00861103471ADDGA1001+999999999GF100991001001999999001001MD1210191+9999REMSYN054AAXX  28031 54916 42960 00704 10056 21086 40347 52019;
0175549160999992000022806004+35570+116850FM-12+005399999V0200701N003012200019N0100001N1+00831-01071103371ADDAA199000091GA1001+999999999GF100991001001999999001001KA1999N-00151MD1710101+9999REMSYN064AAXX  28061 54916 32960 00703 10083 21107 40337 57010 333 21015;EQDQ01  00002PRCP99
0122549160999992000022809004+35570+116850FM-12+005399999V0200701N004012200019N0100001N1+00811-00721103301ADDGA1001+999999999GF100991001001999999001001MD1710071+9999REMSYN054AAXX  28091 54916 42960 00704 10081 21072 40330 57007;
0152549160999992000022812004+35570+116850FM-12+005399999V0201401N003012200019N0100001N1+00271-00691103431ADDAA199000091GA1001+999999999GF100991001001999999001001MD1210121+9999REMSYN054AAXX  28121 54916 32960 01403 10027 21069 40343 52012;EQDQ01  00002PRCP99
0175549160999992000022818004+35570+116850FM-12+005399999V0201601N002012200019N0100001N1-00181-00641103541ADDAA199000091GA1001+999999999GF100991001001999999001001KA1999M+00961MD1210011+9999REMSYN064AAXX  28181 54916 32960 01602 11018 21064 40354 52001 333 10096;EQDQ01  00002PRCP99
0122549160999992000022821004+35570+116850FM-12+005399999V0201401N003012200019N0100001N1-00401-00811103461ADDGA1001+999999999GF100991001001999999001001MD1710091+9999REMSYN054AAXX  28211 54916 42960 01403 11040 21081 40346 57009;
0162549160999992000022900004+35570+116850FM-12+005399999V0201401N001012200019N0100001N1-00221-00691103481ADDAA199000091GA1001+999999999GF100991001001999999001001MD1210021+0021REMSYN064AAXX  29001 54916 32960 01401 11022 21069 40348 52002 333 00253;EQDQ01  00002PRCP99
0122549160999992000022903004+35570+116850FM-12+005399999V0201801N004012200019N0100001N1+00561-00811103371ADDGA1001+999999999GF100991001001999999001001MD1710101+9999REMSYN054AAXX  29031 54916 42960 01804 10056 21081 40337 57010;
0175549160999992000022906004+35570+116850FM-12+005399999V0201801N006012200019N0100001N1+00991-01101103041ADDAA199000091GA1001+999999999GF100991001001999999001001KA1999N-00481MD1710331+9999REMSYN064AAXX  29061 54916 32960 01806 10099 21110 40304 57033 333 21048;EQDQ01  00002PRCP99
0122549160999992000022909004+35570+116850FM-12+005399999V0202201N004012200019N0100001N1+01071-00841102791ADDGA1001+999999999GF100991001001999999001001MD1710251+9999REMSYN054AAXX  29091 54916 42960 02204 10107 21084 40279 57025;
0152549160999992000022912004+35570+116850FM-12+005399999V0201601N003012200019N0100001N1+00551-00671102851ADDAA199000091GA1001+999999999GF100991001001999999001001MD1210061+9999REMSYN054AAXX  29121 54916 32960 01603 10055 21067 40285 52006;EQDQ01  00002PRCP99
0175549160999992000022918004+35570+116850FM-12+005399999V0201601N004012200019N0100001N1+00261-00491102861ADDAA199000091GA1001+999999999GF100991001001999999001001KA1999M+01121MD1710081+9999REMSYN064AAXX  29181 54916 32960 01604 10026 21049 40286 57008 333 10112;EQDQ01  00002PRCP99
0122549160999992000022921004+35570+116850FM-12+005399999V0201401N003012200019N0100001N1-00211-00481102801ADDGA1001+999999999GF100991001001999999001001MD1710071+9999REMSYN054AAXX  29211 54916 42960 01403 11021 21048 40280 57007;
0170549160999992000030100004+35570+116850FM-12+005399999V0201401N002012200019N0100001N1+00011-00261102921ADDAA199000091GF104991001001999999001021IA2999-00409MD1210121-0601REMSYN076AAXX  01001 54916 32960 41402 10001 21026 40292 52012 80002 333 05602 31047;EQDQ01  00002PRCP99
0122549160999992000030103004+35570+116850FM-12+005399999V0201801N005012200019N0100001N1+01001-00631102931ADDGA1001+999999999GF100991001001999999001001MD1210021+9999REMSYN054AAXX  01031 54916 42960 01805 10100 21063 40293 52002;
0175549160999992000030106004+35570+116850FM-12+005399999V0201801N006012200019N0100001N1+01421-01071102601ADDAA199000091GA1001+999999999GF100991001001999999001001KA1999N-00321MD1710321+9999REMSYN064AAXX  01061 54916 32960 01806 10142 21107 40260 57032 333 21032;EQDQ01  00002PRCP99
0112549160999992000030109004+35570+116850FM-12+005399999V0202001N006012200019N0100001N1+01321-01391102491ADDGF104991001001999999001021MD1710121+9999REMSYN060AAXX  01091 54916 42960 42006 10132 21139 40249 57012 80002;
0142549160999992000030112004+35570+116850FM-12+005399999V0201601N003012200019N0100001N1+00861-00921102511ADDAA199000091GF104991001001999999001021MD1210021+9999REMSYN060AAXX  01121 54916 32960 41603 10086 21092 40251 52002 80002;EQDQ01  00002PRCP99
0175549160999992000030118004+35570+116850FM-12+005399999V0201401N002012200019N0100001N1+00061-00521102511ADDAA199000091GA1001+999999999GF100991001001999999001001KA1999M+01491MD1710071+9999REMSYN064AAXX  01181 54916 32960 01402 10006 21052 40251 57007 333 10149;EQDQ01  00002PRCP99
0122549160999992000030121004+35570+116850FM-12+005399999V0201101N001012200019N0100001N1-00121-00641102521ADDGA1001+999999999GF100991001001999999001001MD1210011+9999REMSYN054AAXX  01211 54916 42960 01101 11012 21064 40252 52001;
0180549160999992000030200004+35570+116850FM-12+005399999V0201101N002012200019N0100001N1-00011-00391102651ADDAA199000091GA1001+999999999GF100991001001999999001001IA2999-00309MD1210121-0301REMSYN070AAXX  02001 54916 32960 01102 11001 21039 40265 52012 333 05300 31035;EQDQ01  00002PRCP99
0141549160999992000030203004+35570+116850FM-12+005399999V0201601N005012200019N0100001N1+01162-00131102551ADDGA1001+999999999GF100991001001999999001001MD1710091+9999REMSYN054AAXX  02031 54916 42960 01605 10116 21013 40255 57009;EQDQ01+001163ATOT  
0165549160999992000030206004+35570+116850FM-12+005399999V0201801N005019999999N0100001N1+01471-00921102191ADDAA199000091GF107991001001999999001021KA1999N-00321MD1710351+9999REMSYN070AAXX  02061 54916 32960 71805 10147 21092 40219 57035 80002 333 21032;EQDQ01  00002PRCP99
0112549160999992000030209004+35570+116850FM-12+005399999V0201801N006019999999N0100001N1+01431-00731102041ADDGF105991001001999999001021MD1710161+9999REMSYN060AAXX  02091 54916 42960 51806 10143 21073 40204 57016 80002;
0152549160999992000030212004+35570+116850FM-12+005399999V0201401N003012200019N0100001N1+00871-00461102111ADDAA199000091GA1001+999999999GF100991001001999999001001MD1210071+9999REMSYN054AAXX  02121 54916 32960 01403 10087 21046 40211 52007;EQDQ01  00002PRCP99
0165549160999992000030218004+35570+116850FM-12+005399999V0201401N003019999999N0100001N1+00681+00011101971ADDAA199000091GF107991001001999999001021KA1999M+01571MD1710131+9999REMSYN070AAXX  02181 54916 32960 71403 10068 20001 40197 57013 80002 333 10157;EQDQ01  00002PRCP99
0112549160999992000030221004+35570+116850FM-12+005399999V0201401N002010150019N0100001N1+00671+00181101821ADDGF108991081051017501999999MD1710151+9999REMSYN060AAXX  02211 54916 42760 81402 10067 20018 40182 57015 885//;
0170549160999992000030300004+35570+116850FM-12+005399999V0201601N003012200019N0100001N1+00761+00231101951ADDAA199000091GF102991021001999999041001IA2999+00209MD1210121-0701REMSYN076AAXX  03001 54916 32960 21603 10076 20023 40195 52012 82040 333 05708 30027;EQDQ01  00002PRCP99
0112549160999992000030303004+35570+116850FM-12+005399999V0202201N004019999999N0120001N1+01381+00311101941ADDGF106991061001999999031001MD1710011+9999REMSYN060AAXX  03031 54916 42962 62204 10138 20031 40194 57001 86030;
0165549160999992000030306004+35570+116850FM-12+005399999V0202201N003019999999N0120001N1+01611+00201101651ADDAA199000091GF106991001001999999001021KA1999N+00591MD1710281+9999REMSYN070AAXX  03061 54916 32962 62203 10161 20020 40165 57028 80002 333 20059;EQDQ01  00002PRCP99
0112549160999992000030309004+35570+116850FM-12+005399999V0201801N004012200019N0100001N1+01501+00251101541ADDGF104991001001999999001021MD1710111+9999REMSYN060AAXX  03091 54916 42960 41804 10150 20025 40154 57011 80002;
0142549160999992000030312004+35570+116850FM-12+005399999V0201601N003019999999N0100001N1+01161+00291101681ADDAA199000091GF105991001001999999001021MD1210131+9999REMSYN060AAXX  03121 54916 32960 51603 10116 20029 40168 52013 80002;EQDQ01  00002PRCP99
0165549160999992000030318004+35570+116850FM-12+005399999V0201801N003012200019N0100001N1+00381+00251101881ADDAA199000091GF102991001001999999001021KA1999M+01701MD1210041+9999REMSYN070AAXX  03181 54916 32960 21803 10038 20025 40188 52004 80002 333 10170;EQDQ01  00002PRCP99
0112549160999992000030321004+35570+116850FM-12+005399999V0209999C000019999999N0100001N1+00311+00181101861ADDGF106991001001999999001021MD1710021+9999REMSYN060AAXX  03211 54916 42960 60000 10031 20018 40186 57002 80002;
0182549160999992000030400004+35570+116850FM-12+005399999V0203401N002019999999N0040001N1+00481+00261102091ADDAA199000091GF107991001001999999001021IA2999+00009MD1210231+0101MW1101REMSYN082AAXX  04001 54916 31940 73402 10048 20026 40209 52023 71000 80002 333 00153 31009;EQDQ01  00002PRCP99
0122549160999992000030403004+35570+116850FM-12+005399999V0200401N005012200019N0100001N1+01401-00751102071ADDGA1001+999999999GF100991001001999999001001MD1710011+9999REMSYN054AAXX  04031 54916 42960 00405 10140 21075 40207 57001;
0175549160999992000030406004+35570+116850FM-12+005399999V0200401N006012200019N0100001N1+01551-00871101951ADDAA199000091GA1001+999999999GF100991001001999999001001KA1999N+00131MD1710131+9999REMSYN064AAXX  04061 54916 32960 00406 10155 21087 40195 57013 333 20013;EQDQ01  00002PRCP99
0112549160999992000030409004+35570+116850FM-12+005399999V0200201N006019999999N0100001N1+01371-00611102001ADDGF108991001001999999001071MD1210051+9999REMSYN060AAXX  04091 54916 42960 80206 10137 21061 40200 52005 80007;
0165549160999992000030418004+35570+116850FM-12+005399999V0200401N002019999999N0150001N1+00401-00691102191ADDAA199000091GF107991001001999999001021KA1999M+01621MD1710041+9999REMSYN070AAXX  04181 54916 32965 70402 10040 21069 40219 57004 80002 333 10162;EQDQ01  00002PRCP99
0112549160999992000030421004+35570+116850FM-12+005399999V0200901N002019999999N0100001N1+00261-00741102071ADDGF108991081001999999071999MD1710121+9999REMSYN060AAXX  04211 54916 42960 80902 10026 21074 40207 57012 8807/;
0180549160999992000030500004+35570+116850FM-12+005399999V0209999C000012200019N0100001N1+00151-00521102131ADDAA199000091GA1001+999999999GF100991001001999999001001IA2999-00209MD1210051+0001REMSYN070AAXX  05001 54916 32960 00000 10015 21052 40213 52005 333 00053 31021;EQDQ01  00002PRCP99
0122549160999992000030503004+35570+116850FM-12+005399999V0202001N004012200019N0100001N1+00901-00491102051ADDGA1001+999999999GF100991001001999999001001MD1710071+9999REMSYN054AAXX  05031 54916 42960 02004 10090 21049 40205 57007;
0175549160999992000030506004+35570+116850FM-12+005399999V0201801N006012200019N0100001N1+01271-00311101631ADDAA199000091GA1001+999999999GF100991001001999999001001KA1999N-00011MD1710421+9999REMSYN064AAXX  05061 54916 32960 01806 10127 21031 40163 57042 333 21001;EQDQ01  00002PRCP99
0122549160999992000030509004+35570+116850FM-12+005399999V0202201N004012200019N0100001N1+01241-00101101481ADDGA1001+999999999GF100991001001999999001001MD1710151+9999REMSYN054AAXX  05091 54916 42960 02204 10124 21010 40148 57015;
0152549160999992000030512004+35570+116850FM-12+005399999V0201601N002012200019N0100001N1+00891+00041101611ADDAA199000091GA1001+999999999GF100991001001999999001001MD1210121+9999REMSYN054AAXX  05121 54916 32960 01602 10089 20004 40161 52012;EQDQ01  00002PRCP99
0165549160999992000030518004+35570+116850FM-12+005399999V0201601N003012200019N0100001N1+00361+00181101701ADDAA199000091GF104991001001999999001021KA1999M+01341MD1710021+9999REMSYN070AAXX  05181 54916 32960 41603 10036 20018 40170 57002 80002 333 10134;EQDQ01  00002PRCP99
0112549160999992000030521004+35570+116850FM-12+005399999V0200201N002019999999N0100001N1+00441+00321101681ADDGF106991001001999999001021MD1710021+9999REMSYN060AAXX  05211 54916 42960 60202 10044 20032 40168 57002 80002;
0192549160999992000030600004+35570+116850FM-12+005399999V0203601N004012200019N0080001N1+00401+00141102091ADDAA199000091GA1001+999999999GF100991001001999999001001IA2999+00009MD1210401+0001MW1101REMSYN076AAXX  06001 54916 31958 03604 10040 20014 40209 52040 71000 333 00003 31006;EQDQ01  00002PRCP99
0141549160999992000030603004+35570+116850FM-12+005399999V0200201N006012200019N0150001N1+01101-01492102281ADDGA1001+999999999GF100991001001999999001001MD1210201+9999REMSYN054AAXX  06031 54916 42965 00206 10110 21149 40228 52020;EQDQ01-001493ATOD  
0165549160999992000030606004+35570+116850FM-12+005399999V0203201N004012200019N0150001N1+01271-02001102151ADDAA199000091GF101991001001999999001021KA1999N+00231MD1710131+9999REMSYN070AAXX  06061 54916 32965 13204 10127 21200 40215 57013 80002 333 20023;EQDQ01  00002PRCP99
0112549160999992000030609004+35570+116850FM-12+005399999V0203601N005012200019N0100001N1+01171-01501102161ADDGF102991001001999999001021MD1210011+9999REMSYN060AAXX  06091 54916 42960 23605 10117 21150 40216 52001 80002;
0152549160999992000030612004+35570+116850FM-12+005399999V0200401N003012200019N0100001N1+00551-01281102421ADDAA199000091GA1001+999999999GF100991001001999999001001MD1210251+9999REMSYN054AAXX  06121 54916 32960 00403 10055 21128 40242 52025;EQDQ01  00002PRCP99
0175549160999992000030618004+35570+116850FM-12+005399999V0201401N001012200019N0100001N1-00041-00741102651ADDAA199000091GA1001+999999999GF100991001001999999001001KA1999M+01391MD1210021+9999REMSYN064AAXX  06181 54916 32960 01401 11004 21074 40265 52002 333 10139;EQDQ01  00002PRCP99
0122549160999992000030621004+35570+116850FM-12+005399999V0203201N001012200019N0100001N1-00121-00641102621ADDGA1001+999999999GF100991001001999999001001MD1710031+9999REMSYN054AAXX  06211 54916 42960 03201 11012 21064 40262 57003;
0170549160999992000030700004+35570+116850FM-12+005399999V0201101N002019999999N0100001N1-00111-00551102751ADDAA199000091GF105991001001999999001021IA2999-00309MD1210121+0701REMSYN076AAXX  07001 54916 32960 51102 11011 21055 40275 52012 80002 333 00755 31038;EQDQ01  00002PRCP99
0122549160999992000030703004+35570+116850FM-12+005399999V0202001N005012200019N0100001N1+00721-01491102681ADDGA1001+999999999GF100991001001999999001001MD1710071+9999REMSYN054AAXX  07031 54916 42960 02005 10072 21149 40268 57007;
0165549160999992000030706004+35570+116850FM-12+005399999V0201801N004012200019N0100001N1+01021-01431102411ADDAA199000091GF102991001001999999001021KA1999N-00381MD1710261+9999REMSYN070AAXX  07061 54916 32960 21804 10102 21143 40241 57026 80002 333 21038;EQDQ01  00002PRCP99
0112549160999992000030709004+35570+116850FM-12+005399999V0201801N001012200019N0100001N1+01071-00781102351ADDGF102991001001999999001021MD1710061+9999REMSYN060AAXX  07091 54916 42960 21801 10107 21078 40235 57006 80002;
0152549160999992000030712004+35570+116850FM-12+005399999V0201801N003012200019N0100001N1+00691-00801102411ADDAA199000091GA1001+999999999GF100991001001999999001001MD1210051+9999REMSYN054AAXX  07121 54916 32960 01803 10069 21080 40241 52005;EQDQ01  00002PRCP99
0175549160999992000030718004+35570+116850FM-12+005399999V0201101N001012200019N0100001N1+00041-00591102501ADDAA199000091GA1001+999999999GF100991001001999999001001KA1999M+01141MD1210071+9999REMSYN064AAXX  07181 54916 32960 01101 10004 21059 40250 52007 333 10114;EQDQ01  00002PRCP99
0122549160999992000030721004+35570+116850FM-12+005399999V0201601N002012200019N0100001N1+00061-00641102501ADDGA1001+999999999GF100991001001999999001001MD1410001+9999REMSYN054AAXX  07211 54916 42960 01602 10006 21064 40250 54000;
0180549160999992000030800004+35570+116850FM-12+005399999V0200901N001012200019N0100001N1-00041-00541102621ADDAA199000091GA1001+999999999GF100991001001999999001001IA2999-00409MD1210111-0101REMSYN070AAXX  08001 54916 32960 00901 11004 21054 40262 52011 333 05101 31040;EQDQ01  00002PRCP99
0141549160999992000030803004+35570+116850FM-12+005399999V0200901N002012200019N0100001N1+01092-00451102601ADDGA1001+999999999GF100991001001999999001001MD1410001+9999REMSYN054AAXX  08031 54916 42960 00902 10109 21045 40260 54000;EQDQ01+001093ATOT  
0165549160999992000030806004+35570+116850FM-12+005399999V0202701N002012200019N0100001N1+01341-00851102341ADDAA199000091GF102991001001999999001021KA1999N-00231MD1710271+9999REMSYN070AAXX  08061 54916 32960 22702 10134 21085 40234 57027 80002 333 21023;EQDQ01  00002PRCP99
0122549160999992000030809004+35570+116850FM-12+005399999V0202901N003012200019N0100001N1+01341-01161102211ADDGA1001+999999999GF100991001001999999001001MD1710131+9999REMSYN054AAXX  08091 54916 42960 02903 10134 21116 40221 57013;
0152549160999992000030812004+35570+116850FM-12+005399999V0203201N002012200019N0100001N1+00971-01201102341ADDAA199000091GA1001+999999999GF100991001001999999001001MD1210131+9999REMSYN054AAXX  08121 54916 32960 03202 10097 21120 40234 52013;EQDQ01  00002PRCP99
0175549160999992000030818004+35570+116850FM-12+005399999V0200401N003012200019N0100001N1+00261-00891102531ADDAA199000091GA1001+999999999GF100991001001999999001001KA1999M+01441MD1210031+9999REMSYN064AAXX  08181 54916 32960 00403 10026 21089 40253 52003 333 10144;EQDQ01  00002PRCP99
0122549160999992000030821004+35570+116850FM-12+005399999V0200401N004012200019N0100001N1+00051-00621102541ADDGA1001+999999999GF100991001001999999001001MD1210011+9999REMSYN054AAXX  08211 54916 42960 00404 10005 21062 40254 52001;
0152549160999992000030900004+35570+116850FM-12+005399999V0200401N004012200019N0100001N1+00201-00611102681ADDAA199000091GF102991001001999999001021MD1210141+0011REMSYN070AAXX  09001 54916 32960 20404 10020 21061 40268 52014 80002 333 00102;EQDQ01  00002PRCP99
0122549160999992000030903004+35570+116850FM-12+005399999V0201101N002012200019N0120001N1+01151-00471102791ADDGA1001+999999999GF100991001001999999001001MD1210111+9999REMSYN054AAXX  09031 54916 42962 01102 10115 21047 40279 52011;
0175549160999992000030906004+35570+116850FM-12+005399999V0201401N003012200019N0120001N1+01481-00901102511ADDAA199000091GA1001+999999999GF100991001001999999001001KA1999N-00071MD1710271+9999REMSYN064AAXX  09061 54916 32962 01403 10148 21090 40251 57027 333 21007;EQDQ01  00002PRCP99
0152549160999992000030912004+35570+116850FM-12+005399999V0202201N002012200019N0100001N1+00941-00121102501ADDAA199000091GA1001+999999999GF100991001001999999001001MD1210071+9999REMSYN054AAXX  09121 54916 32960 02202 10094 21012 40250 52007;EQDQ01  00002PRCP99
0175549160999992000030918004+35570+116850FM-12+005399999V0201601N003012200019N0100001N1+00331-00991102551ADDAA199000091GA1001+999999999GF100991001001999999001001KA1999M+01581MD1410001+9999REMSYN064AAXX  09181 54916 32960 01603 10033 21099 40255 54000 333 10158;EQDQ01  00002PRCP99
0122549160999992000030921004+35570+116850FM-12+005399999V0201601N004012200019N0100001N1+00511-00321102551ADDGA1001+999999999GF100991001001999999001001MD1410001+9999REMSYN054AAXX  09211 54916 42960 01604 10051 21032 40255 54000;
0170549160999992000031000004+35570+116850FM-12+005399999V0200901N002019999999N0100001N1+00341-00041102651ADDAA199000091GF107991001001999999001021IA2999-00109MD1210091+0001REMSYN076AAXX  10001 54916 32960 70902 10034 21004 40265 52009 80002 333 00001 31011;EQDQ01  00002PRCP99
0112549160999992000031003004+35570+116850FM-12+005399999V0201601N002019999999N0100001N1+01161+00041102561ADDGF107991001001999999001021MD1710091+9999REMSYN060AAXX  10031 54916 42960 71602 10116 20004 40256 57009 80002;
0165549160999992000031006004+35570+116850FM-12+005399999V0201801N006019999999N0100001N1+01321-00121102291ADDAA199000091GF108991001001999999001071KA1999N+00091MD1710261+9999REMSYN070AAXX  10061 54916 32960 81806 10132 21012 40229 57026 80007 333 20009;EQDQ01  00002PRCP99
0112549160999992000031009004+35570+116850FM-12+005399999V0201801N004019999999N0100001N1+01161-00241102191ADDGF108991081001999999071999MD1710101+9999REMSYN060AAXX  10091 54916 42960 81804 10116 21024 40219 57010 8807/;
0142549160999992000031012004+35570+116850FM-12+005399999V0201801N003019999999N0100001N1+00981-00161102231ADDAA199000091GF108991001001999999001071MD1210031+9999REMSYN060AAXX  10121 54916 32960 81803 10098 21016 40223 52003 80007;EQDQ01  00002PRCP99
0165549160999992000031018004+35570+116850FM-12+005399999V0201801N003019999999N0100001N1+00641+00081102161ADDAA199000091GF108991081001999999071999KA1999M+01401MD1710081+9999REMSYN070AAXX  10181 54916 32960 81803 10064 20008 40216 57008 8807/ 333 10140;EQDQ01  00002PRCP99
0122549160999992000031021004+35570+116850FM-12+005399999V0201601N003012200019N0100001N1+00201+00071102121ADDGA1001+999999999GF100991001001999999001001MD1710051+9999REMSYN054AAXX  10211 54916 42960 01603 10020 20007 40212 57005;
0192549160999992000031100004+35570+116850FM-12+005399999V0200201N002012200019N0080001N1+00241+00131102071ADDAA199000091GA1001+999999999GF100991001001999999001001IA2999+00009MD1710051-0601MW1101REMSYN076AAXX  11001 54916 31958 00202 10024 20013 40207 57005 71000 333 05651 31009;EQDQ01  00002PRCP99
0122549160999992000031103004+35570+116850FM-12+005399999V0201601N004012200019N0100001N1+01101+00121102021ADDGA1001+999999999GF100991001001999999001001MD1710041+9999REMSYN054AAXX  11031 54916 42960 01604 10110 20012 40202 57004;
0165549160999992000031106004+35570+116850FM-12+005399999V0201801N003012200019N0100001N1+01241+00131101771ADDAA199000091GF103991031011008001001001KA1999N+00041MD1710251+9999REMSYN070AAXX  11061 54916 32560 31803 10124 20013 40177 57025 83100 333 20004;EQDQ01  00002PRCP99
0112549160999992000031109004+35570+116850FM-12+005399999V0201801N004010075019N0100001N1+01201+00141101771ADDGF105991051011008001001001MD1410001+9999REMSYN060AAXX  11091 54916 42560 51804 10120 20014 40177 54000 85100;
0152549160999992000031112004+35570+116850FM-12+005399999V0201801N004012200019N0100001N1+00841+00161101851ADDAA199000091GA1001+999999999GF100991001001999999001001MD1210071+9999REMSYN054AAXX  11121 54916 32960 01804 10084 20016 40185 52007;EQDQ01  00002PRCP99
0175549160999992000031118004+35570+116850FM-12+005399999V0201401N002012200019N0100001N1+00161+00111102001ADDAA199000091GA1001+999999999GF100991001001999999001001KA1999M+01381MD1410001+9999REMSYN064AAXX  11181 54916 32960 01402 10016 20011 40200 54000 333 10138;EQDQ01  00002PRCP99
0134549160999992000031121004+35570+116850FM-12+005399999V0201401N002012200019N0070001N1-00031-00061101891ADDGA1001+999999999GF100991001001999999001001MD1710121+9999MW1101REMSYN060AAXX  11211 54916 41957 01402 11003 21006 40189 57012 71000;
0190549160999992000031200004+35570+116850FM-12+005399999V0201601N002012200019N0008001N1+00241+00211101951ADDAA199000091AY141061GF102991011001999999041021IA2999-00209MD1210061-0101MW1421REMSYN082AAXX  12001 54916 31908 21602 10024 20021 40195 52006 74240 81042 333 05100 31026;EQDQ01  00002PRCP99
0132549160999992000031203004+35570+116850FM-12+005399999V0201801N003010120019N0100001N1+00741+00291102041ADDAY141031GF108991081051012501999999MD1210101+9999MW1001REMSYN066AAXX  12031 54916 41660 81803 10074 20029 40204 52010 70040 885//;
0185549160999992000031206004+35570+116850FM-12+005399999V0201801N004019999999N0100001N1+01051+00291101791ADDAA199000091AY141061GF105991001001999999001021KA1999N-00181MD1710261+9999MW1001REMSYN076AAXX  12061 54916 31960 51804 10105 20029 40179 57026 70040 80002 333 21018;EQDQ01  00002PRCP99
0122549160999992000031209004+35570+116850FM-12+005399999V0201801N004012200019N0100001N1+01141+00201101721ADDGA1001+999999999GF100991001001999999001001MD1710071+9999REMSYN054AAXX  12091 54916 42960 01804 10114 20020 40172 57007;
0152549160999992000031212004+35570+116850FM-12+005399999V0201801N003012200019N0100001N1+00811+00321101951ADDAA199000091GA1001+999999999GF100991001001999999001001MD1210231+9999REMSYN054AAXX  12121 54916 32960 01803 10081 20032 40195 52023;EQDQ01  00002PRCP99
0175549160999992000031218004+35570+116850FM-12+005399999V0201101N002012200019N0100001N1+00261+00161102071ADDAA199000091GA1001+999999999GF100991001001999999001001KA1999M+01231MD1710011+9999REMSYN064AAXX  12181 54916 32960 01102 10026 20016 40207 57001 333 10123;EQDQ01  00002PRCP99
0112549160999992000031221004+35570+116850FM-12+005399999V0200901N002019999999N0100001N1+00351+00251102041ADDGF108991001001999999001071MD1710021+9999REMSYN060AAXX  12211 54916 42960 80902 10035 20025 40204 57002 80007;
0170549160999992000031300004+35570+116850FM-12+005399999V0200901N002019999999N0100001N1+00481+00311102181ADDAA199000091GF108991081001999999021999IA2999+00109MD1210131+0201REMSYN076AAXX  13001 54916 32960 80902 10048 20031 40218 52013 8802/ 333 00202 30015;EQDQ01  00002PRCP99
0112549160999992000031303004+35570+116850FM-12+005399999V0201801N004012200019N0100001N1+01031+00401102201ADDGF102991021001999999041001MD1210031+9999REMSYN060AAXX  13031 54916 42960 21804 10103 20040 40220 52003 82040;
0165549160999992000031306004+35570+116850FM-12+005399999V0201401N003019999999N0100001N1+01241+00401102001ADDAA199000091GF107991071001999999041001KA1999N+00181MD1710201+9999REMSYN070AAXX  13061 54916 32960 71403 10124 20040 40200 57020 87040 333 20018;EQDQ01  00002PRCP99
0122549160999992000031309004+35570+116850FM-12+005399999V0200901N001012200019N0100001N1+01331+00491101961ADDGA1001+999999999GF100991001001999999001001MD1710041+9999REMSYN054AAXX  13091 54916 42960 00901 10133 20049 40196 57004;
0142549160999992000031312004+35570+116850FM-12+005399999V0200401N002019999999N0100001N1+00811+00421102151ADDAA199000091GF107991001001999999001021MD1210181+9999REMSYN060AAXX  13121 54916 32960 70402 10081 20042 40215 52018 80002;EQDQ01  00002PRCP99
0165549160999992000031318004+35570+116850FM-12+005399999V0200401N003019999999N0100001N1+00411+00291102321ADDAA199000091GF107991001001999999001021KA1999M+01401MD1210061+9999REMSYN070AAXX  13181 54916 32960 70403 10041 20029 40232 52006 80002 333 10140;EQDQ01  00002PRCP99
0122549160999992000031321004+35570+116850FM-12+005399999V0200401N002012200019N0100001N1+00421+00271102311ADDGA1001+999999999GF100991001001999999001001MD1710011+9999REMSYN054AAXX  13211 54916 42960 00402 10042 20027 40231 57001;
0180549160999992000031400004+35570+116850FM-12+005399999V0200401N002012200019N0100001N1+00481+00281102471ADDAA199000091GA1001+999999999GF100991001001999999001001IA2999+00009MD1210151+0301REMSYN070AAXX  14001 54916 32960 00402 10048 20028 40247 52015 333 00300 30006;EQDQ01  00002PRCP99
0122549160999992000031403004+35570+116850FM-12+005399999V0201401N002012200019N0100001N1+01361+00391102391ADDGA1001+999999999GF100991001001999999001001MD1710071+9999REMSYN054AAXX  14031 54916 42960 01402 10136 20039 40239 57007;
0145549160999992000031406004+35570+116850FM-12+005399999V0201601N003012200019N0100001N1+01651+00321102081ADDGA1001+999999999GF100991001001999999001001KA1999N+00311MD1710311+9999REMSYN064AAXX  14061 54916 42960 01603 10165 20032 40208 57031 333 20031;
0122549160999992000031409004+35570+116850FM-12+005399999V0201801N004012200019N0100001N1+01611+00171101821ADDGA1001+999999999GF100991001001999999001001MD1710261+9999REMSYN054AAXX  14091 54916 42960 01804 10161 20017 40182 57026;
0184549160999992000031412004+35570+116850FM-12+005399999V0201401N999992200019N0100001N1+01101+00181101831ADDAA199000091GA1001+999999999GF100991001001999999001001MD1210011+9999REMSYN054AAXX  14121 54916 32960 01430 10110 20018 40183 52001;EQDQ01+003003WOSPD Q02  00002PRCP99Q030003003WOSPD 
0165549160999992000031418004+35570+116850FM-12+005399999V0200901N002019999999N0100001N1+00521+00081101771ADDAA199000091GF107991001001999999001021KA1999M+01731MD1710151+9999REMSYN070AAXX  14181 54916 32960 70902 10052 20008 40177 57015 80002 333 10173;EQDQ01  00002PRCP99
0112549160999992000031421004+35570+116850FM-12+005399999V0200901N002019999999N0100001N1+00441+00131101571ADDGF107991001001999999001021MD1710201+9999REMSYN060AAXX  14211 54916 42960 70902 10044 20013 40157 57020 80002;
0175549160999992000031500004+35570+116850FM-12+005399999V0200201N001019999999N0100001N1+00621+00311101561ADDAA106000791GF108991081001999999071999IA2999+00319MD1710021-0901MW1211REMSYN094AAXX  15001 54916 11960 80201 10062 20031 40156 57002 69901 72100 8807/ 333 05901 30031 79999;
0132549160999992000031503004+35570+116850FM-12+005399999V0203401N002019999999N0100001N1+01071+00501101551ADDAY161031GF108991081001999999071999MD1710011+9999MW1211REMSYN066AAXX  15031 54916 41960 83402 10107 20050 40155 57001 72160 8807/;
0172549160999992000031506004+35570+116850FM-12+005399999V0203401N003019999999N0100001N1+01211+00541101321ADDAA106000791AY161061GF107991071001999999031999KA1999N+00431MD1710231+9999MW1001REMSYN082AAXX  15061 54916 11960 73403 10121 20054 40132 57023 69901 70060 8703/ 333 20043;
0112549160999992000031509004+35570+116850FM-12+005399999V0203601N005012200019N0100001N1+01321+00221101321ADDGF103991001001999999001021MD1410001+9999REMSYN060AAXX  15091 54916 42960 33605 10132 20022 40132 54000 80002;
0133549160999992000031512004+35570+116850FM-12+005399999V0200701N004012200019N0100001N1+00761+00111101521ADDAA199000021GA1001+999999999GF100991001001999999001001MD1210201+9999REMSYN054AAXX  15121 54916 32960 00704 10076 20011 40152 52020;
0175549160999992000031518004+35570+116850FM-12+005399999V0202701N002012200019N0100001N1+00221+00031101791ADDAA199000091GA1001+999999999GF100991001001999999001001KA1999M+01371MD1210051+9999REMSYN064AAXX  15181 54916 32960 02702 10022 20003 40179 52005 333 10137;EQDQ01  00002PRCP99
0143549160999992000031521004+35570+116850FM-12+005399999V0201801N002012200019N0100001N1-00011-00101101791ADDAA124000791GA1001+999999999GF100991001001999999001001MD1410001+9999REMSYN064AAXX  15211 54916 42960 01802 11001 21010 40179 54000 333 79999;
0179549160999992000031600004+35570+116850FM-12+005399999V0201801N002012200019N0080001N1+00361+00101101941ADDAA124000791GA1001+999999999GF100991001001999999001001IA2999-00319MD1210141+0401MW1101REMSYN082AAXX  16001 54916 31958 01802 10036 20010 40194 52014 71000 333 00453 31031 79999;
0122549160999992000031603004+35570+116850FM-12+005399999V0202501N003012200019N0100001N1+01301+00251101911ADDGA1001+999999999GF100991001001999999001001MD1710021+9999REMSYN054AAXX  16031 54916 42960 02503 10130 20025 40191 57002;
0175549160999992000031606004+35570+116850FM-12+005399999V0202201N003012200019N0100001N1+01651+00071101641ADDAA199000091GA1001+999999999GF100991001001999999001001KA1999N-00161MD1710271+9999REMSYN064AAXX  16061 54916 32960 02203 10165 20007 40164 57027 333 21016;EQDQ01  00002PRCP99
0112549160999992000031609004+35570+116850FM-12+005399999V0201801N004012200019N0100001N1+01651+00001101471ADDGF101991011041012501001001MD1710171+9999REMSYN060AAXX  16091 54916 42660 11804 10165 20000 40147 57017 81400;
0152549160999992000031612004+35570+116850FM-12+005399999V0201601N003012200019N0100001N1+01151+00031101561ADDAA199000091GA1001+999999999GF100991001001999999001001MD1210091+9999REMSYN054AAXX  16121 54916 32960 01603 10115 20003 40156 52009;EQDQ01  00002PRCP99
0165549160999992000031618004+35570+116850FM-12+005399999V0201801N006010120019N0120001N1+01051+00051101511ADDAA199000091GF106991061041012501001001KA1999M+01761MD1710061+9999REMSYN070AAXX  16181 54916 32662 61806 10105 20005 40151 57006 86400 333 10176;EQDQ01  00002PRCP99
0122549160999992000031621004+35570+116850FM-12+005399999V0201801N002012200019N0100001N1+00841+00301101471ADDGA1001+999999999GF100991001001999999001001MD1710041+9999REMSYN054AAXX  16211 54916 42960 01802 10084 20030 40147 57004;
0180549160999992000031700004+35570+116850FM-12+005399999V0201801N003012200019N0100001N1+00801+00411101601ADDAA199000091GA1001+999999999GF100991001001999999001001IA2999+00109MD1210131-0301REMSYN070AAXX  17001 54916 32960 01803 10080 20041 40160 52013 333 05304 30012;EQDQ01  00002PRCP99
0112549160999992000031703004+35570+116850FM-12+005399999V0202001N002019999999N0100001N1+01421+00611101581ADDGF106991001001999999001021MD1710021+9999REMSYN060AAXX  17031 54916 42960 62002 10142 20061 40158 57002 80002;
0165549160999992000031706004+35570+116850FM-12+005399999V0202201N004019999999N0100001N1+01871+00371101381ADDAA199000091GF106991001001999999001021KA1999N+00391MD1710191+9999REMSYN070AAXX  17061 54916 32960 62204 10187 20037 40138 57019 80002 333 20039;EQDQ01  00002PRCP99
0112549160999992000031709004+35570+116850FM-12+005399999V0201801N004019999999N0100001N1+01831-00111101241ADDGF106991001001999999001021MD1710141+9999REMSYN060AAXX  17091 54916 42960 61804 10183 21011 40124 57014 80002;
0142549160999992000031712004+35570+116850FM-12+005399999V0201601N003012200019N0100001N1+01371+00471101271ADDAA199000091GF102991021001999999031001MD1210021+9999REMSYN060AAXX  17121 54916 32960 21603 10137 20047 40127 52002 82030;EQDQ01  00002PRCP99
0122549160999992000031721004+35570+116850FM-12+005399999V0201801N003012200019N0100001N1+00911+00161101271ADDGA1001+999999999GF100991001001999999001001MD1710071+9999REMSYN054AAXX  17211 54916 42960 01803 10091 20016 40127 57007;
0180549160999992000031800004+35570+116850FM-12+005399999V0201801N004012200019N0100001N1+01041+00131101311ADDAA199000091GA1001+999999999GF100991001001999999001001IA2999+00309MD1210031-0301REMSYN070AAXX  18001 54916 32960 01804 10104 20013 40131 52003 333 05302 30034;EQDQ01  00002PRCP99
0122549160999992000031803004+35570+116850FM-12+005399999V0202001N005012200019N0120001N1+01811+00341101341ADDGA1001+999999999GF100991001001999999001001MD1210041+9999REMSYN054AAXX  18031 54916 42962 02005 10181 20034 40134 52004;
0175549160999992000031806004+35570+116850FM-12+005399999V0202501N005012200019N0120001N1+02241+00071101071ADDAA199000091GA1001+999999999GF100991001001999999001001KA1999N+00811MD1710261+9999REMSYN064AAXX  18061 54916 32962 02505 10224 20007 40107 57026 333 20081;EQDQ01  00002PRCP99
0122549160999992000031809004+35570+116850FM-12+005399999V0203601N007012200019N0100001N1+01951-00411101161ADDGA1001+999999999GF100991001001999999001001MD1210081+9999REMSYN054AAXX  18091 54916 42960 03607 10195 21041 40116 52008;
0152549160999992000031812004+35570+116850FM-12+005399999V0203401N005012200019N0100001N1+01481-00601101511ADDAA199000091GA1001+999999999GF100991001001999999001001MD1210341+9999REMSYN054AAXX  18121 54916 32960 03405 10148 21060 40151 52034;EQDQ01  00002PRCP99
0175549160999992000031818004+35570+116850FM-12+005399999V0200401N004012200019N0100001N1+00651-00341102221ADDAA199000091GA1001+999999999GF100991001001999999001001KA1999M+02281MD1210311+9999REMSYN064AAXX  18181 54916 32960 00404 10065 21034 40222 52031 333 10228;EQDQ01  00002PRCP99
0122549160999992000031821004+35570+116850FM-12+005399999V0200701N004012200019N0100001N1+00321-00601102381ADDGA1001+999999999GF100991001001999999001001MD1210151+9999REMSYN054AAXX  18211 54916 42960 00704 10032 21060 40238 52015;
0180549160999992000031900004+35570+116850FM-12+005399999V0200701N004012200019N0100001N1+00491-00731102661ADDAA199000091GA1001+999999999GF100991001001999999001001IA2999-00109MD1210281+1301REMSYN070AAXX  19001 54916 32960 00704 10049 21073 40266 52028 333 01356 31012;EQDQ01  00002PRCP99
0122549160999992000031903004+35570+116850FM-12+005399999V0200401N004012200019N0100001N1+00941-00861102691ADDGA1001+999999999GF100991001001999999001001MD1210031+9999REMSYN054AAXX  19031 54916 42960 00404 10094 21086 40269 52003;
0175549160999992000031906004+35570+116850FM-12+005399999V0203601N003012200019N0100001N1+01251-00641102421ADDAA199000091GA1001+999999999GF100991001001999999001001KA1999N+00181MD1710271+9999REMSYN064AAXX  19061 54916 32960 03603 10125 21064 40242 57027 333 20018;EQDQ01  00002PRCP99
0122549160999992000031909004+35570+116850FM-12+005399999V0201801N001012200019N0100001N1+01301-00571102231ADDGA1001+999999999GF100991001001999999001001MD1710191+9999REMSYN054AAXX  19091 54916 42960 01801 10130 21057 40223 57019;
0152549160999992000031912004+35570+116850FM-12+005399999V0202701N001012200019N0100001N1+00981-00521102251ADDAA199000091GA1001+999999999GF100991001001999999001001MD1210011+9999REMSYN054AAXX  19121 54916 32960 02701 10098 21052 40225 52001;EQDQ01  00002PRCP99
0175549160999992000031918004+35570+116850FM-12+005399999V0201801N004012200019N0100001N1+00571-00681102281ADDAA199000091GA1001+999999999GF100991001001999999001001KA1999M+01351MD1210041+9999REMSYN064AAXX  19181 54916 32960 01804 10057 21068 40228 52004 333 10135;EQDQ01  00002PRCP99
0122549160999992000031921004+35570+116850FM-12+005399999V0201401N003012200019N0100001N1+00161-00671102201ADDGA1001+999999999GF100991001001999999001001MD1710081+9999REMSYN054AAXX  19211 54916 42960 01403 10016 21067 40220 57008;
0180549160999992000032000004+35570+116850FM-12+005399999V0201401N004012200019N0100001N1+00481-00701102151ADDAA199000091GA1001+999999999GF100991001001999999001001IA2999-00209MD1710051-0501REMSYN070AAXX  20001 54916 32960 01404 10048 21070 40215 57005 333 05500 31029;EQDQ01  00002PRCP99
0112549160999992000032003004+35570+116850FM-12+005399999V0201101N006019999999N0120001N1+01101-00701101991ADDGF106991001001999999001021MD1710161+9999REMSYN060AAXX  20031 54916 42962 61106 10110 21070 40199 57016 80002;
0165549160999992000032006004+35570+116850FM-12+005399999V0201801N004019999999N0100001N1+01341-00671101781ADDAA199000091GF108991081001999999071999KA1999N+00031MD1710211+9999REMSYN070AAXX  20061 54916 32960 81804 10134 21067 40178 57021 8807/ 333 20003;EQDQ01  00002PRCP99
0112549160999992000032009004+35570+116850FM-12+005399999V0201801N004019999999N0100001N1+01361-00621101571ADDGF107991071001999999031999MD1710211+9999REMSYN060AAXX  20091 54916 42960 71804 10136 21062 40157 57021 8703/;
0142549160999992000032012004+35570+116850FM-12+005399999V0201401N002019999999N0100001N1+01061-00411101551ADDAA199000091GF107991071001999999031999MD1710021+9999REMSYN060AAXX  20121 54916 32960 71402 10106 21041 40155 57002 8703/;EQDQ01  00002PRCP99
0165549160999992000032018004+35570+116850FM-12+005399999V0200701N003019999999N0100001N1+00811+00121101801ADDAA199000091GF106991001001999999001021KA1999M+01491MD1210131+9999REMSYN070AAXX  20181 54916 32960 60703 10081 20012 40180 52013 80002 333 10149;EQDQ01  00002PRCP99
0106549160999992000032021004+35570+116850FM-12+005399999V0200701N002019999999N0100001N1+99999+99999101731ADDGF107991001001999999001021MD1710081+9999REMSYN054AAXX  20211 54916 42960 70702 20024 40173 57008 80002;
0170549160999992000032100004+35570+116850FM-12+005399999V0200201N002012200019N0100001N1+00711+00281101941ADDAA199000091GF101991001001999999001021IA2999+00409MD1210211-0201REMSYN076AAXX  21001 54916 32960 10202 10071 20028 40194 52021 80002 333 05202 30044;EQDQ01  00002PRCP99
0112549160999992000032103004+35570+116850FM-12+005399999V0203401N003019999999N0100001N1+01411+00171102011ADDGF106991001001999999001021MD1210081+9999REMSYN060AAXX  21031 54916 42960 63403 10141 20017 40201 52008 80002;
0175549160999992000032106004+35570+116850FM-12+005399999V0200401N004012200019N0100001N1+01691-00321101801ADDAA199000091GA1001+999999999GF100991001001999999001001KA1999N+00531MD1710211+9999REMSYN064AAXX  21061 54916 32960 00404 10169 21032 40180 57021 333 20053;EQDQ01  00002PRCP99
0122549160999992000032109004+35570+116850FM-12+005399999V0203601N001012200019N0100001N1+01731+00071101801ADDGA1001+999999999GF100991001001999999001001MD1410001+9999REMSYN054AAXX  21091 54916 42960 03601 10173 20007 40180 54000;
0142549160999992000032112004+35570+116850FM-12+005399999V0200401N003019999999N0100001N1+01301+00131102011ADDAA199000091GF107991001001999999001021MD1210201+9999REMSYN060AAXX  21121 54916 32960 70403 10130 20013 40201 52020 80002;EQDQ01  00002PRCP99
0165549160999992000032118004+35570+116850FM-12+005399999V0200701N001019999999N0100001N1+00711+00221102301ADDAA199000091GF106991001001999999001021KA1999M+01791MD1210041+9999REMSYN070AAXX  21181 54916 32960 60701 10071 20022 40230 52004 80002 333 10179;EQDQ01  00002PRCP99
0122549160999992000032121004+35570+116850FM-12+005399999V0200201N002012200019N0100001N1+00461-00181102341ADDGA1001+999999999GF100991001001999999001001MD1210031+9999REMSYN054AAXX  21211 54916 42960 00202 10046 21018 40234 52003;
0180549160999992000032200004+35570+116850FM-12+005399999V0200201N001012200019N0100001N1+00601-00101102461ADDAA199000091GA1001+999999999GF100991001001999999001001IA2999+00109MD1210121+0501REMSYN070AAXX  22001 54916 32960 00201 10060 21010 40246 52012 333 00551 30015;EQDQ01  00002PRCP99
0122549160999992000032203004+35570+116850FM-12+005399999V0201601N004012200019N0100001N1+01191-00191102361ADDGA1001+999999999GF100991001001999999001001MD1710101+9999REMSYN054AAXX  22031 54916 42960 01604 10119 21019 40236 57010;
0175549160999992000032206004+35570+116850FM-12+005399999V0202201N005012200019N0100001N1+01541-00061101941ADDAA199000091GA1001+999999999GF100991001001999999001001KA1999N+00251MD1710411+9999REMSYN064AAXX  22061 54916 32960 02205 10154 21006 40194 57041 333 20025;EQDQ01  00002PRCP99
0112549160999992000032209004+35570+116850FM-12+005399999V0202201N004019999999N0100001N1+01471+00291102081ADDGF108991081001999999071999MD1210131+9999REMSYN060AAXX  22091 54916 42960 82204 10147 20029 40208 52013 8807/;
0142549160999992000032212004+35570+116850FM-12+005399999V0203201N003019999999N0100001N1+01191+00331102211ADDAA199000091GF108991081001999999071999MD1210131+9999REMSYN060AAXX  22121 54916 32960 83203 10119 20033 40221 52013 8807/;EQDQ01  00002PRCP99
0172549160999992000032218004+35570+116850FM-12+005399999V0203201N004019999999N0100001N1+00871+00581102341ADDAA106000791AY161061GF106991001001999999001021KA1999M+01651MD1210051+9999MW1001REMSYN082AAXX  22181 54916 11960 63204 10087 20058 40234 52005 69901 70060 80002 333 10165;
0143549160999992000032221004+35570+116850FM-12+005399999V0203401N003012200019N0100001N1+00701+00471102341ADDAA124000791GA1001+999999999GF100991001001999999001001MD1710011+9999REMSYN064AAXX  22211 54916 42960 03403 10070 20047 40234 57001 333 79999;
0157549160999992000032300004+35570+116850FM-12+005399999V0203401N004019999999N0100001N1+00721+00181102571ADDAA124000791GF107991001001999999001021IA2999+00469MD1210231+0101REMSYN082AAXX  23001 54916 32960 73404 10072 20018 40257 52023 80002 333 00101 30046 79999;
0141549160999992000032303004+35570+116850FM-12+005399999V0203401N007012200019N0100001N1+01151-01332102531ADDGA1001+999999999GF100991001001999999001001MD1710041+9999REMSYN054AAXX  23031 54916 42960 03407 10115 21133 40253 57004;EQDQ01-001333ATOD  
0165549160999992000032306004+35570+116850FM-12+005399999V0202901N008019999999N0100001N1+01341-01891102261ADDAA199000091GF107991001001999999001021KA1999N+00661MD1710271+9999REMSYN070AAXX  23061 54916 32960 72908 10134 21189 40226 57027 80002 333 20066;EQDQ01  00002PRCP99
0122549160999992000032309004+35570+116850FM-12+005399999V0202701N004012200019N0100001N1+01341-01481102161ADDGA1001+999999999GF100991001001999999001001MD1710101+9999REMSYN054AAXX  23091 54916 42960 02704 10134 21148 40216 57010;
0152549160999992000032312004+35570+116850FM-12+005399999V0202501N003012200019N0100001N1+01141-00951102261ADDAA199000091GA1001+999999999GF100991001001999999001001MD1210101+9999REMSYN054AAXX  23121 54916 32960 02503 10114 21095 40226 52010;EQDQ01  00002PRCP99
0175549160999992000032318004+35570+116850FM-12+005399999V0200401N003012200019N0100001N1+00601-00541102521ADDAA199000091GA1001+999999999GF100991001001999999001001KA1999M+01441MD1210111+9999REMSYN064AAXX  23181 54916 32960 00403 10060 21054 40252 52011 333 10144;EQDQ01  00002PRCP99
0122549160999992000032321004+35570+116850FM-12+005399999V0200401N002012200019N0100001N1+00361-00811102511ADDGA1001+999999999GF100991001001999999001001MD1710011+9999REMSYN054AAXX  23211 54916 42960 00402 10036 21081 40251 57001;
0180549160999992000032400004+35570+116850FM-12+005399999V0200901N001012200019N0100001N1+00611-00661102611ADDAA199000091GA1001+999999999GF100991001001999999001001IA2999-00109MD1210101+0001REMSYN070AAXX  24001 54916 32960 00901 10061 21066 40261 52010 333 00051 31012;EQDQ01  00002PRCP99
0122549160999992000032403004+35570+116850FM-12+005399999V0200701N001012200019N0120001N1+01231-01031102621ADDGA1001+999999999GF100991001001999999001001MD1210011+9999REMSYN054AAXX  24031 54916 42962 00701 10123 21103 40262 52001;
0191549160999992000032406004+35570+116850FM-12+005399999V0202201N005012200019N0120001N1+01511-01361999999ADDAA199000091GA1001+999999999GF100991001001999999001001KA1999N+00191MD1710271+9999REMSYN064AAXX  24061 54916 32962 02205 10151 21136 49235 57027 333 20019;EQDQ01+092353APOSLPQ02  00002PRCP99
0122549160999992000032409004+35570+116850FM-12+005399999V0202701N003012200019N0100001N1+01551-00941102161ADDGA1001+999999999GF100991001001999999001001MD1710191+9999REMSYN054AAXX  24091 54916 42960 02703 10155 21094 40216 57019;
0152549160999992000032412004+35570+116850FM-12+005399999V0201401N002012200019N0100001N1+00891+00041102281ADDAA199000091GA1001+999999999GF100991001001999999001001MD1210121+9999REMSYN054AAXX  24121 54916 32960 01402 10089 20004 40228 52012;EQDQ01  00002PRCP99
0165549160999992000032418004+35570+116850FM-12+005399999V0201601N002019999999N0100001N1+00481-00061102371ADDAA199000091GF105991001001999999001021KA1999M+01641MD1210031+9999REMSYN070AAXX  24181 54916 32960 51602 10048 21006 40237 52003 80002 333 10164;EQDQ01  00002PRCP99
0122549160999992000032421004+35570+116850FM-12+005399999V0201101N002012200019N0100001N1+00371-00071102261ADDGA1001+999999999GF100991001001999999001001MD1710111+9999REMSYN054AAXX  24211 54916 42960 01102 10037 21007 40226 57011;
0170549160999992000032500004+35570+116850FM-12+005399999V0200701N002019999999N0100001N1+00701+00001102361ADDAA199000091GF107991001001999999001021IA2999+00109MD1210101-0301REMSYN076AAXX  25001 54916 32960 70702 10070 20000 40236 52010 80002 333 05301 30013;EQDQ01  00002PRCP99
0112549160999992000032503004+35570+116850FM-12+005399999V0201801N003019999999N0100001N1+01521+00081102381ADDGF105991001001999999001021MD1210021+9999REMSYN060AAXX  25031 54916 42960 51803 10152 20008 40238 52002 80002;
0165549160999992000032506004+35570+116850FM-12+005399999V0202901N004012200019N0100001N1+01871-00581102071ADDAA199000091GF102991001001999999001021KA1999N+00261MD1710301+9999REMSYN070AAXX  25061 54916 32960 22904 10187 21058 40207 57030 80002 333 20026;EQDQ01  00002PRCP99
0112549160999992000032509004+35570+116850FM-12+005399999V0202901N007019999999N0100001N1+01871-00921101961ADDGF107991001001999999001021MD1710111+9999REMSYN060AAXX  25091 54916 42960 72907 10187 21092 40196 57011 80002;
0122549160999992000032511004+35570+116850FM-12+005399999V0203201N001012200019N9999999N1+01261+00071102081ADDGA1001+999999999GF100991001001999999001001MD1210111+9999REMSYN054AAXX  25111 54916 2/60/ 03201 10126 20007 40208 52011;
0152549160999992000032512004+35570+116850FM-12+005399999V0203201N001012200019N0100001N1+01261+00071102081ADDAA199000091GA1001+999999999GF100991001001999999001001MD1210111+9999REMSYN054AAXX  25121 54916 32960 03201 10126 20007 40208 52011;EQDQ01  00002PRCP99
0175549160999992000032518004+35570+116850FM-12+005399999V0201401N002012200019N0100001N1+00371+00051102121ADDAA199000091GA1001+999999999GF100991001001999999001001KA1999M+02021MD1710071+9999REMSYN064AAXX  25181 54916 32960 01402 10037 20005 40212 57007 333 10202;EQDQ01  00002PRCP99
0170549160999992000032600004+35570+116850FM-12+005399999V0201401N002012200019N0100001N1+00731+00101102021ADDAA199000091GF101991001001999999001021IA2999+00009MD1710031-0301REMSYN076AAXX  26001 54916 32960 11402 10073 20010 40202 57003 80002 333 05300 30003;EQDQ01  00002PRCP99
0141549160999992000032603004+35570+116850FM-12+005399999V0202201N004012200019N0100001N1+01852+00331101901ADDGA1001+999999999GF100991001001999999001001MD1710111+9999REMSYN054AAXX  26031 54916 42960 02204 10185 20033 40190 57011;EQDQ01+001853ATOT  
0175549160999992000032606004+35570+116850FM-12+005399999V0202201N005012200019N0100001N1+02211-00721101481ADDAA199000091GA1001+999999999GF100991001001999999001001KA1999N+00131MD1710421+9999REMSYN064AAXX  26061 54916 32960 02205 10221 21072 40148 57042 333 20013;EQDQ01  00002PRCP99
0122549160999992000032609004+35570+116850FM-12+005399999V0202701N005012200019N0100001N1+02221-00801101181ADDGA1001+999999999GF100991001001999999001001MD1710301+9999REMSYN054AAXX  26091 54916 42960 02705 10222 21080 40118 57030;
0152549160999992000032612004+35570+116850FM-12+005399999V0201801N002012200019N0100001N1+01451+00041101111ADDAA199000091GA1001+999999999GF100991001001999999001001MD1710071+9999REMSYN054AAXX  26121 54916 32960 01802 10145 20004 40111 57007;EQDQ01  00002PRCP99
0175549160999992000032618004+35570+116850FM-12+005399999V0202001N005012200019N0100001N1+01451-00061100721ADDAA199000091GA1001+999999999GF100991001001999999001001KA1999M+02311MD1710241+9999REMSYN064AAXX  26181 54916 32960 02005 10145 21006 40072 57024 333 10231;EQDQ01  00002PRCP99
0112549160999992000032621004+35570+116850FM-12+005399999V0201801N005019999999N0120001N1+01321+00481100421ADDGF106991061001999999031001MD1710301+9999REMSYN060AAXX  26211 54916 42962 61805 10132 20048 40042 57030 86030;
0152549160999992000032700004+35570+116850FM-12+005399999V0202201N003019999999N0100001N1+01361+00511100331ADDAA199000091GF108991081001999999071999MD1710101+0171REMSYN070AAXX  27001 54916 32960 82203 10136 20051 40033 57010 8807/ 333 06706;EQDQ01  00002PRCP99
0112549160999992000032703004+35570+116850FM-12+005399999V0202701N003010150019N0100001N1+01791+00491100271ADDGF107991071051017501999999MD1710051+9999REMSYN060AAXX  27031 54916 42760 72703 10179 20049 40027 57005 875//;
0165549160999992000032706004+35570+116850FM-12+005399999V0203201N008010120019N0100001N1+02171-00932100061ADDAA199000091GF107991071051012501999999KA1999N+01281MD1710211+9999REMSYN070AAXX  27061 54916 32660 73208 10217 21093 40006 57021 875// 333 20128;EQDQ01  00002PRCP99
0112549160999992000032709004+35570+116850FM-12+005399999V0203401N008010150019N0100001N1+02001-00461100301ADDGF106991061051017501001001MD1210241+9999REMSYN060AAXX  27091 54916 42760 63408 10200 21046 40030 52024 86500;
0169549160999992000032712004+35570+116850FM-12+005399999V0203201N005019999999N0100001N1+01671-00301100691ADDAA199000091GF108991001001999999001071MD1210381+9999OA130602201REMSYN076AAXX  27121 54916 32960 83205 10167 21030 40069 52038 80007 333 91122 91527;EQDQ01  00002PRCP99
0175549160999992000032718004+35570+116850FM-12+005399999V0203401N005012200019N0100001N1+01141-00921101331ADDAA199000091GA1001+999999999GF100991001001999999001001KA1999M+02371MD1210271+9999REMSYN064AAXX  27181 54916 32960 03405 10114 21092 40133 52027 333 10237;EQDQ01  00002PRCP99
0122549160999992000032721004+35570+116850FM-12+005399999V0203201N004012200019N0100001N1+00801-00721101491ADDGA1001+999999999GF100991001001999999001001MD1210161+9999REMSYN054AAXX  27211 54916 42960 03204 10080 21072 40149 52016;
0180549160999992000032800004+35570+116850FM-12+005399999V0203201N004012200019N0100001N1+00911-00851101781ADDAA199000091GA1001+999999999GF100991001001999999001001IA2999+00309MD1210281+1401REMSYN070AAXX  28001 54916 32960 03204 10091 21085 40178 52028 333 01455 30034;EQDQ01  00002PRCP99
0112549160999992000032803004+35570+116850FM-12+005399999V0203401N007012200019N0120001N1+01281-01351101841ADDGF101991011011008001001001MD1210061+9999REMSYN060AAXX  28031 54916 42562 13407 10128 21135 40184 52006 81100;
0165549160999992000032806004+35570+116850FM-12+005399999V0203401N008012200019N0120001N1+01461-01131101791ADDAA199000091GF101991011011008001001001KA1999N+00671MD1710051+9999REMSYN070AAXX  28061 54916 32562 13408 10146 21113 40179 57005 81100 333 20067;EQDQ01  00002PRCP99
0122549160999992000032809004+35570+116850FM-12+005399999V0203401N005012200019N0100001N1+01471-01101101861ADDGA1001+999999999GF100991001001999999001001MD1210071+9999REMSYN054AAXX  28091 54916 42960 03405 10147 21110 40186 52007;
0152549160999992000032812004+35570+116850FM-12+005399999V0202901N002012200019N0100001N1+01001-00481102071ADDAA199000091GA1001+999999999GF100991001001999999001001MD1210201+9999REMSYN054AAXX  28121 54916 32960 02902 10100 21048 40207 52020;EQDQ01  00002PRCP99
0175549160999992000032818004+35570+116850FM-12+005399999V0202001N002012200019N0100001N1+00341-00411102331ADDAA199000091GA1001+999999999GF100991001001999999001001KA1999M+01521MD1210081+9999REMSYN064AAXX  28181 54916 32960 02002 10034 21041 40233 52008 333 10152;EQDQ01  00002PRCP99
0180549160999992000032900004+35570+116850FM-12+005399999V0209999C000012200019N0100001N1+00661-00021102491ADDAA199000091GA1001+999999999GF100991001001999999001001IA2999-00209MD1210141+0701REMSYN070AAXX  29001 54916 32960 00000 10066 21002 40249 52014 333 00753 31020;EQDQ01  00002PRCP99
0122549160999992000032903004+35570+116850FM-12+005399999V0202001N003012200019N0100001N1+01531-00941102411ADDGA1001+999999999GF100991001001999999001001MD1710071+9999REMSYN054AAXX  29031 54916 42960 02003 10153 21094 40241 57007;
0175549160999992000032906004+35570+116850FM-12+005399999V0201801N004012200019N0100001N1+01731-00331102051ADDAA199000091GA1001+999999999GF100991001001999999001001KA1999N-00041MD1710371+9999REMSYN064AAXX  29061 54916 32960 01804 10173 21033 40205 57037 333 21004;EQDQ01  00002PRCP99
0122549160999992000032909004+35570+116850FM-12+005399999V0202001N004012200019N0100001N1+01801+00051101711ADDGA1001+999999999GF100991001001999999001001MD1710341+9999REMSYN054AAXX  29091 54916 42960 02004 10180 20005 40171 57034;
0152549160999992000032912004+35570+116850FM-12+005399999V0201601N003012200019N0100001N1+01241-00031101601ADDAA199000091GA1001+999999999GF100991001001999999001001MD1710111+9999REMSYN054AAXX  29121 54916 32960 01603 10124 21003 40160 57011;EQDQ01  00002PRCP99
0175549160999992000032918004+35570+116850FM-12+005399999V0201101N003012200019N0100001N1+00651+00181101341ADDAA199000091GA1001+999999999GF100991001001999999001001KA1999M+01901MD1710251+9999REMSYN064AAXX  29181 54916 32960 01103 10065 20018 40134 57025 333 10190;EQDQ01  00002PRCP99
0122549160999992000032921004+35570+116850FM-12+005399999V0201101N003012200019N0100001N1+00541+00081101161ADDGA1001+999999999GF100991001001999999001001MD1710181+9999REMSYN054AAXX  29211 54916 42960 01103 10054 20008 40116 57018;
0180549160999992000033000004+35570+116850FM-12+005399999V0201401N003012200019N0100001N1+01121+00241101171ADDAA199000091GA1001+999999999GF100991001001999999001001IA2999+00309MD1210011-1301REMSYN070AAXX  30001 54916 32960 01403 10112 20024 40117 52001 333 06305 30037;EQDQ01  00002PRCP99
0122549160999992000033003004+35570+116850FM-12+005399999V0201401N006012200019N0120001N1+01791+00041100951ADDGA1001+999999999GF100991001001999999001001MD1710211+9999REMSYN054AAXX  30031 54916 42962 01406 10179 20004 40095 57021;
0175549160999992000033006004+35570+116850FM-12+005399999V0201801N005012200019N0120001N1+02181+00211100581ADDAA199000091GA1001+999999999GF100991001001999999001001KA1999N+00481MD1710371+9999REMSYN064AAXX  30061 54916 32962 01805 10218 20021 40058 57037 333 20048;EQDQ01  00002PRCP99
0122549160999992000033009004+35570+116850FM-12+005399999V0201801N003012200019N0120001N1+02211+00371100421ADDGA1001+999999999GF100991001001999999001001MD1710161+9999REMSYN054AAXX  30091 54916 42962 01803 10221 20037 40042 57016;
0152549160999992000033012004+35570+116850FM-12+005399999V0200401N002012200019N0100001N1+01561+00881100511ADDAA199000091GA1001+999999999GF100991001001999999001001MD1210091+9999REMSYN054AAXX  30121 54916 32960 00402 10156 20088 40051 52009;EQDQ01  00002PRCP99
0175549160999992000033018004+35570+116850FM-12+005399999V0200201N003012200019N0100001N1+01201+00611100681ADDAA199000091GA1001+999999999GF100991001001999999001001KA1999M+02291MD1210081+9999REMSYN064AAXX  30181 54916 32960 00203 10120 20061 40068 52008 333 10229;EQDQ01  00002PRCP99
0122549160999992000033021004+35570+116850FM-12+005399999V0203401N003012200019N0100001N1+01221+00431100821ADDGA1001+999999999GF100991001001999999001001MD1210141+9999REMSYN054AAXX  30211 54916 42960 03403 10122 20043 40082 52014;
0152549160999992000033100004+35570+116850FM-12+005399999V0200201N005019999999N0100001N1+01571+00271101061ADDAA199000091GF105991001001999999001021MD1210231+0011REMSYN070AAXX  31001 54916 32960 50205 10157 20027 40106 52023 80002 333 05105;EQDQ01  00002PRCP99
0122549160999992000033103004+35570+116850FM-12+005399999V0200401N005012200019N0100001N1+02161+00201101291ADDGA1001+999999999GF100991001001999999001001MD1210231+9999REMSYN054AAXX  31031 54916 42960 00405 10216 20020 40129 52023;
0165549160999992000033106004+35570+116850FM-12+005399999V0200401N007012200019N0100001N1+02271-00071101271ADDAA199000091GF102991001001999999001021KA1999N+01071MD1710011+9999REMSYN070AAXX  31061 54916 32960 20407 10227 21007 40127 57001 80002 333 20107;EQDQ01  00002PRCP99
0112549160999992000033109004+35570+116850FM-12+005399999V0200401N005019999999N0100001N1+02071+00131101291ADDGF106991001001999999001021MD1210011+9999REMSYN060AAXX  31091 54916 42960 60405 10207 20013 40129 52001 80002;
0152549160999992000033112004+35570+116850FM-12+005399999V0200701N004012200019N0100001N1+01571+00001101631ADDAA199000091GA1001+999999999GF100991001001999999001001MD1210341+9999REMSYN054AAXX  31121 54916 32960 00704 10157 20000 40163 52034;EQDQ01  00002PRCP99
0175549160999992000033118004+35570+116850FM-12+005399999V0200901N004012200019N0120001N1+00961+00011101901ADDAA199000091GA1001+999999999GF100991001001999999001001KA1999M+02351MD1210041+9999REMSYN064AAXX  31181 54916 32962 00904 10096 20001 40190 52004 333 10235;EQDQ01  00002PRCP99
0112549160999992000033121004+35570+116850FM-12+005399999V0200901N002010150019N0100001N1+00751-00021101921ADDGF107991071051017501999999MD1210011+9999REMSYN060AAXX  31211 54916 42760 70902 10075 21002 40192 52001 875//;
0152549160999992000040100004+35570+116850FM-12+005399999V0200401N003010150019N0100001N1+00801-00121102111ADDAA199000091GF108991081051017501999999MD1210191+0101REMSYN070AAXX  01001 54916 32760 80403 10080 21012 40211 52019 885// 333 01058;EQDQ01  00002PRCP99
0112549160999992000040103004+35570+116850FM-12+005399999V0200701N003019999999N0100001N1+01241-00511102011ADDGF108991081001999999071999MD1710101+9999REMSYN060AAXX  01031 54916 42960 80703 10124 21051 40201 57010 8807/;
0165549160999992000040106004+35570+116850FM-12+005399999V0200401N003019999999N0100001N1+01201-00061101811ADDAA199000091GF108991081001999999071999KA1999N+00691MD1710201+9999REMSYN070AAXX  01061 54916 32960 80403 10120 21006 40181 57020 8807/ 333 20069;EQDQ01  00002PRCP99
0112549160999992000040109004+35570+116850FM-12+005399999V0200701N004010120019N0100001N1+01261-00031101551ADDGF108991081051012501999999MD1710261+9999REMSYN060AAXX  01091 54916 42660 80704 10126 21003 40155 57026 885//;
0149549160999992000040112004+35570+116850FM-12+005399999V0200401N004010120019N0100001N1+01131+00001101711ADDAA106000191AY181061GF108991051041012501071999MD1210151+9999MW1801REMSYN072AAXX  01121 54916 11660 80404 10113 20000 40171 52015 69921 78080 8547/;
0172549160999992000040118004+35570+116850FM-12+005399999V0200701N003010120019N0120001N1+00901+00121101711ADDAA106000591AY161061GF108991081051012501999999KA1999M+01311MD1710081+9999MW1601REMSYN082AAXX  01181 54916 11662 80703 10090 20012 40171 57008 69951 76060 885// 333 10131;
0161549160999992000040121004+35570+116850FM-12+005399999V0201101N003010120019N0100001N1+00781+00251101781ADDAA124001091AY161031AY261031GF108991081051012501999999MD1210071+9999MW1211REMSYN076AAXX  01211 54916 41660 81103 10078 20025 40178 52007 72166 885// 333 70010;
0165549160999992000040200004+35570+116850FM-12+005399999V0200701N003019999999N0100001N1+00981+00411102071ADDAA106000391AY161061GF107991071001999999031999MD1210281-0101MW1001REMSYN088AAXX  02001 54916 11960 70703 10098 20041 40207 52028 69931 70060 8703/ 333 05102 70010;
0112549160999992000040203004+35570+116850FM-12+005399999V0201101N005012200019N0120001N1+01441+00781102031ADDGF101991011011008001001001MD1710031+9999REMSYN060AAXX  02031 54916 42562 11105 10144 20078 40203 57003 81100;
0146549160999992000040206004+35570+116850FM-12+005399999V0201601N004010150019N0120001N1+01551+00571102011ADDAA199000021GF107991071051017501999999KA1999N+00731MD1710021+9999REMSYN070AAXX  02061 54916 32762 71604 10155 20057 40201 57002 875// 333 20073;
0112549160999992000040209004+35570+116850FM-12+005399999V0201601N002019999999N0100001N1+01531+00461101981ADDGF108991081001999999071999MD1710031+9999REMSYN060AAXX  02091 54916 42960 81602 10153 20046 40198 57003 8807/;
0142549160999992000040212004+35570+116850FM-12+005399999V0202901N002019999999N0100001N1+01321+00601102151ADDAA199000091GF108991081001999999071999MD1210171+9999REMSYN060AAXX  02121 54916 32960 82902 10132 20060 40215 52017 8807/;EQDQ01  00002PRCP99
0175549160999992000040218004+35570+116850FM-12+005399999V0200401N001012200019N0100001N1+00481+00311102201ADDAA199000091GA1001+999999999GF100991001001999999001001KA1999M+01661MD1710051+9999REMSYN064AAXX  02181 54916 32960 00401 10048 20031 40220 57005 333 10166;EQDQ01  00002PRCP99
0122549160999992000040221004+35570+116850FM-12+005399999V0200701N002012200019N0100001N1+00391-00041102121ADDGA1001+999999999GF100991001001999999001001MD1710081+9999REMSYN054AAXX  02211 54916 42960 00702 10039 21004 40212 57008;
0170549160999992000040300004+35570+116850FM-12+005399999V0200701N001019999999N0100001N1+00731+00191102171ADDAA199000091GF107991001001999999001021IA2999+00109MD1210051+0101REMSYN076AAXX  03001 54916 32960 70701 10073 20019 40217 52005 80002 333 00153 30014;EQDQ01  00002PRCP99
0112549160999992000040303004+35570+116850FM-12+005399999V0201601N004012200019N0100001N1+01561-00261102071ADDGF104991001001999999001021MD1710091+9999REMSYN060AAXX  03031 54916 42960 41604 10156 21026 40207 57009 80002;
0165549160999992000040306004+35570+116850FM-12+005399999V0201601N004019999999N0100001N1+01821-00181101731ADDAA199000091GF108991001001999999001071KA1999N+00271MD1710341+9999REMSYN070AAXX  03061 54916 32960 81604 10182 21018 40173 57034 80007 333 20027;EQDQ01  00002PRCP99
0112549160999992000040309004+35570+116850FM-12+005399999V0202001N004019999999N0120001N1+01811+00041101491ADDGF107991001001999999001021MD1710241+9999REMSYN060AAXX  03091 54916 42962 72004 10181 20004 40149 57024 80002;
0142549160999992000040312004+35570+116850FM-12+005399999V0201801N003019999999N0100001N1+01501+00451101571ADDAA199000091GF107991001001999999001021MD1210081+9999REMSYN060AAXX  03121 54916 32960 71803 10150 20045 40157 52008 80002;EQDQ01  00002PRCP99
0165549160999992000040318004+35570+116850FM-12+005399999V0201601N003019999999N0100001N1+01151+00971101441ADDAA199000091GF107991001001999999001021KA1999M+01941MD1710151+9999REMSYN070AAXX  03181 54916 32960 71603 10115 20097 40144 57015 80002 333 10194;EQDQ01  00002PRCP99
0131549160999992000040321004+35570+116850FM-12+005399999V0201601N004012200019N0100001N1+01121+01001101381ADDGF102991001001999999001021MD1710061+9999REMSYN060AAXX  03211 54916 42960 21604 10112 20100 40138 57800 80002;EQDQ01+008007APC3  
0174549160999992000040400004+35570+116850FM-12+005399999V0201801N003012200019N0080001N1+01241+01091101471ADDAA199000091GA1001+999999999GF100991001001999999001001MD1210091+0071MW1101REMSYN070AAXX  04001 54916 31958 01803 10124 20109 40147 52009 71000 333 05705;EQDQ01  00002PRCP99
0112549160999992000040403004+35570+116850FM-12+005399999V0202201N003010120019N0100001N1+01621+01161101481ADDGF108991081051012501999999MD1210011+9999REMSYN060AAXX  04031 54916 42660 82203 10162 20116 40148 52001 885//;
0165549160999992000040406004+35570+116850FM-12+005399999V0200201N002010120019N0100001N1+01861+01171101471ADDAA199000091GF107991071041012501999999KA1999N+01031MD1710011+9999REMSYN070AAXX  04061 54916 32660 70202 10186 20117 40147 57001 874// 333 20103;EQDQ01  00002PRCP99
0122549160999992000040409004+35570+116850FM-12+005399999V0203601N004012200019N0100001N1+01851+01141101391ADDGA1001+999999999GF100991001001999999001001MD1710081+9999REMSYN054AAXX  04091 54916 42960 03604 10185 20114 40139 57008;
0152549160999992000040412004+35570+116850FM-12+005399999V0200201N003012200019N0100001N1+01301+00001101761ADDAA199000091GA1001+999999999GF100991001001999999001001MD1210361+9999REMSYN054AAXX  04121 54916 32960 00203 10130 20000 40176 52036;EQDQ01  00002PRCP99
0165549160999992000040418004+35570+116850FM-12+005399999V0203601N002019999999N0120001N1+00971-00541102221ADDAA199000091GF106991061001999999031001KA1999M+02011MD1210151+9999REMSYN070AAXX  04181 54916 32962 63602 10097 21054 40222 52015 86030 333 10201;EQDQ01  00002PRCP99
0112549160999992000040421004+35570+116850FM-12+005399999V0203601N002012200019N0120001N1+00621-00391102321ADDGF103991031001999999031001MD1210101+9999REMSYN060AAXX  04211 54916 42962 33602 10062 21039 40232 52010 83030;
0180549160999992000040500004+35570+116850FM-12+005399999V0200401N003012200019N0120001N1+00961-00431102521ADDAA199000091GA1001+999999999GF100991001001999999001001IA2999+00109MD1210191+1001REMSYN070AAXX  05001 54916 32962 00403 10096 21043 40252 52019 333 01053 30015;EQDQ01  00002PRCP99
0122549160999992000040503004+35570+116850FM-12+005399999V0203401N005012200019N0120001N1+01261-01441102531ADDGA1001+999999999GF100991001001999999001001MD1210021+9999REMSYN054AAXX  05031 54916 42962 03405 10126 21144 40253 52002;
0175549160999992000040506004+35570+116850FM-12+005399999V0203601N005012200019N0120001N1+01501-01161102281ADDAA199000091GA1001+999999999GF100991001001999999001001KA1999N+00511MD1710251+9999REMSYN064AAXX  05061 54916 32962 03605 10150 21116 40228 57025 333 20051;EQDQ01  00002PRCP99
0122549160999992000040509004+35570+116850FM-12+005399999V0203201N002012200019N0100001N1+01491-00981102101ADDGA1001+999999999GF100991001001999999001001MD1710191+9999REMSYN054AAXX  05091 54916 42960 03202 10149 21098 40210 57019;
0152549160999992000040512004+35570+116850FM-12+005399999V0201401N001012200019N0100001N1+00771-00351102091ADDAA199000091GA1001+999999999GF100991001001999999001001MD1710011+9999REMSYN054AAXX  05121 54916 32960 01401 10077 21035 40209 57001;EQDQ01  00002PRCP99
0175549160999992000040518004+35570+116850FM-12+005399999V0201401N003012200019N0100001N1+00291-00261102011ADDAA199000091GA1001+999999999GF100991001001999999001001KA1999M+01621MD1710141+9999REMSYN064AAXX  05181 54916 32960 01403 10029 21026 40201 57014 333 10162;EQDQ01  00002PRCP99
0122549160999992000040521004+35570+116850FM-12+005399999V0201601N004012200019N0100001N1+00651-00421101901ADDGA1001+999999999GF100991001001999999001001MD1710101+9999REMSYN054AAXX  05211 54916 42960 01604 10065 21042 40190 57010;
0180549160999992000040600004+35570+116850FM-12+005399999V0202001N004012200019N0100001N1+00961-00091101901ADDAA199000091GA1001+999999999GF100991001001999999001001IA2999+00109MD1710011-0601REMSYN070AAXX  06001 54916 32960 02004 10096 21009 40190 57001 333 05600 30012;EQDQ01  00002PRCP99
0112549160999992000040603004+35570+116850FM-12+005399999V0202201N009012200019N0120001N1+01591-00191101721ADDGF104991001001999999001021MD1710171+9999REMSYN060AAXX  06031 54916 42962 42209 10159 21019 40172 57017 80002;
0165549160999992000040606004+35570+116850FM-12+005399999V0201801N007012200019N0120001N1+01911+00041101411ADDAA199000091GF104991001001999999001021KA1999N+00241MD1710311+9999REMSYN070AAXX  06061 54916 32962 41807 10191 20004 40141 57031 80002 333 20024;EQDQ01  00002PRCP99
0112549160999992000040609004+35570+116850FM-12+005399999V0201801N006019999999N0120001N1+01951+00441101271ADDGF107991001001999999001021MD1710131+9999REMSYN060AAXX  06091 54916 42962 71806 10195 20044 40127 57013 80002;
0142549160999992000040612004+35570+116850FM-12+005399999V0201801N003019999999N0120001N1+01611+00471101381ADDAA199000091GF107991001001999999001021MD1210101+9999REMSYN060AAXX  06121 54916 32962 71803 10161 20047 40138 52010 80002;EQDQ01  00002PRCP99
0175549160999992000040618004+35570+116850FM-12+005399999V0200401N002012200019N0100001N1+00991+00581101701ADDAA199000091GA1001+999999999GF100991001001999999001001KA1999M+02051MD1210081+9999REMSYN064AAXX  06181 54916 32960 00402 10099 20058 40170 52008 333 10205;EQDQ01  00002PRCP99
0122549160999992000040621004+35570+116850FM-12+005399999V0200401N006012200019N0120001N1+01081-00551101811ADDGA1001+999999999GF100991001001999999001001MD1210111+9999REMSYN054AAXX  06211 54916 42962 00406 10108 21055 40181 52011;
0162549160999992000040700004+35570+116850FM-12+005399999V0200401N004012200019N0100001N1+01101-00611102101ADDAA199000091GA1001+999999999GF100991001001999999001001MD1210281+0021REMSYN064AAXX  07001 54916 32960 00404 10110 21061 40210 52028 333 00201;EQDQ01  00002PRCP99
0134549160999992000040703004+35570+116850FM-12+005399999V0200401N002012200019N0070001N1+01611-00011102241ADDGA1001+999999999GF100991001001999999001001MD1210141+9999MW1061REMSYN060AAXX  07031 54916 41957 00402 10161 21001 40224 52014 70600;
0175549160999992000040706004+35570+116850FM-12+005399999V0203601N003012200019N0100001N1+01931-00871102041ADDAA199000091GA1001+999999999GF100991001001999999001001KA1999N+00891MD1710201+9999REMSYN064AAXX  07061 54916 32960 03603 10193 21087 40204 57020 333 20089;EQDQ01  00002PRCP99
0122549160999992000040709004+35570+116850FM-12+005399999V0201101N002012200019N0100001N1+01951-00201101931ADDGA1001+999999999GF100991001001999999001001MD1710101+9999REMSYN054AAXX  07091 54916 42960 01102 10195 21020 40193 57010;
0152549160999992000040712004+35570+116850FM-12+005399999V0209999C000012200019N0100001N1+01421+00251101981ADDAA199000091GA1001+999999999GF100991001001999999001001MD1210041+9999REMSYN054AAXX  07121 54916 32960 00000 10142 20025 40198 52004;EQDQ01  00002PRCP99
0175549160999992000040718004+35570+116850FM-12+005399999V0200901N002012200019N0100001N1+00881-00071102241ADDAA199000091GA1001+999999999GF100991001001999999001001KA1999M+02051MD1210041+9999REMSYN064AAXX  07181 54916 32960 00902 10088 21007 40224 52004 333 10205;EQDQ01  00002PRCP99
0122549160999992000040721004+35570+116850FM-12+005399999V0201101N002012200019N0100001N1+00661-00331102161ADDGA1001+999999999GF100991001001999999001001MD1710081+9999REMSYN054AAXX  07211 54916 42960 01102 10066 21033 40216 57008;
0180549160999992000040800004+35570+116850FM-12+005399999V0200901N002012200019N0100001N1+01001-00171102171ADDAA199000091GA1001+999999999GF100991001001999999001001IA2999+00309MD1210011+0101REMSYN070AAXX  08001 54916 32960 00902 10100 21017 40217 52001 333 00151 30036;EQDQ01  00002PRCP99
0122549160999992000040803004+35570+116850FM-12+005399999V0201401N006012200019N0100001N1+01741-00271102021ADDGA1001+999999999GF100991001001999999001001MD1710141+9999REMSYN054AAXX  08031 54916 42960 01406 10174 21027 40202 57014;
0165549160999992000040806004+35570+116850FM-12+005399999V0201601N008010075019N0100001N1+01951+00311101671ADDAA199000091GF106991061011008001001001KA1999N+00571MD1710351+9999REMSYN070AAXX  08061 54916 32560 61608 10195 20031 40167 57035 86100 333 20057;EQDQ01  00002PRCP99
0112549160999992000040809004+35570+116850FM-12+005399999V0201601N006019999999N0100001N1+01911+00521101431ADDGF108991001001999999001071MD1710251+9999REMSYN060AAXX  08091 54916 42960 81606 10191 20052 40143 57025 80007;
0142549160999992000040812004+35570+116850FM-12+005399999V0201601N005019999999N0100001N1+01751+00771101441ADDAA199000091GF108991081001999999071999MD1210051+9999REMSYN060AAXX  08121 54916 32960 81605 10175 20077 40144 52005 8807/;EQDQ01  00002PRCP99
0172549160999992000040818004+35570+116850FM-12+005399999V0201601N003019999999N0100001N1+01311+00941101451ADDAA106000591AY161061GF108991081001999999071999KA1999M+02061MD1410001+9999MW1601REMSYN082AAXX  08181 54916 11960 81603 10131 20094 40145 54000 69951 76060 8807/ 333 10206;
0153549160999992000040821004+35570+116850FM-12+005399999V0201401N003019999999N0100001N1+01181+00941101201ADDAA124001091AY161031GF108991081001999999071999MD1710251+9999MW1001REMSYN076AAXX  08211 54916 41960 81403 10118 20094 40120 57025 70060 8807/ 333 70010;
0175549160999992000040900004+35570+116850FM-12+005399999V0201601N003012200019N0100001N1+01341+00911101231ADDAA106000591AY161061GA1001+999999999GF100991001001999999001001MD1210031-0901MW1001REMSYN082AAXX  09001 54916 11960 01603 10134 20091 40123 52003 69951 70060 333 05903 70010;
0122549160999992000040903004+35570+116850FM-12+005399999V0201801N005012200019N0100001N1+01721+01051101161ADDGA1001+999999999GF100991001001999999001001MD1710071+9999REMSYN054AAXX  09031 54916 42960 01805 10172 20105 40116 57007;
0146549160999992000040906004+35570+116850FM-12+005399999V0202201N006019999999N0100001N1+02101+01261100981ADDAA199000021GF108991001001999999001071KA1999N+01071MD1710171+9999REMSYN070AAXX  09061 54916 32960 82206 10210 20126 40098 57017 80007 333 20107;
0124549160999992000040909004+35570+116850FM-12+005399999V0203601N013010120019N0060001N1+02171+01281101211ADDGF108991061041012501071999MD1210221+9999MW1071REMSYN066AAXX  09091 54916 41656 83613 10217 20128 40121 52022 70700 8647/;
0186549160999992000040912004+35570+116850FM-12+005399999V0200201N004012200019N0100001N1+00921+00291102011ADDAA106000791AY181061GA1001+999999999GF100991001001999999001001MD1210791+9999MW1001OA130601901REMSYN082AAXX  09121 54916 11960 00204 10092 20029 40201 52079 69901 70080 333 91119 9153/;
0175549160999992000040918004+35570+116850FM-12+005399999V0203401N001012200019N0100001N1+00421-00381102571ADDAA199000091GA1001+999999999GF100991001001999999001001KA1999M+02191MD1210151+9999REMSYN064AAXX  09181 54916 32960 03401 10042 21038 40257 52015 333 10219;EQDQ01  00002PRCP99
0143549160999992000040921004+35570+116850FM-12+005399999V0200701N001012200019N0100001N1+00231-00381102691ADDAA124000791GA1001+999999999GF100991001001999999001001MD1210111+9999REMSYN064AAXX  09211 54916 42960 00701 10023 21038 40269 52011 333 79999;
0167549160999992000041000004+35570+116850FM-12+005399999V0202701N003012200019N0100001N1+00491-00391102821ADDAA124000791GA1001+999999999GF100991001001999999001001IA2999-00179MD1210121+1601REMSYN076AAXX  10001 54916 32960 02703 10049 21039 40282 52012 333 01659 31017 79999;
0122549160999992000041003004+35570+116850FM-12+005399999V0202701N004012200019N0100001N1+01101-00621102731ADDGA1001+999999999GF100991001001999999001001MD1710091+9999REMSYN054AAXX  10031 54916 42960 02704 10110 21062 40273 57009;
0175549160999992000041006004+35570+116850FM-12+005399999V0202501N006012200019N0100001N1+01481-00571102401ADDAA199000091GA1001+999999999GF100991001001999999001001KA1999N-00031MD1710321+9999REMSYN064AAXX  10061 54916 32960 02506 10148 21057 40240 57032 333 21003;EQDQ01  00002PRCP99
0112549160999992000041009004+35570+116850FM-12+005399999V0202201N005019999999N0100001N1+01451-00631102211ADDGF107991001001999999001021MD1710191+9999REMSYN060AAXX  10091 54916 42960 72205 10145 21063 40221 57019 80002;
0142549160999992000041012004+35570+116850FM-12+005399999V0201601N002012200019N0100001N1+00821+00191102141ADDAA199000091GF102991001001999999001021MD1710081+9999REMSYN060AAXX  10121 54916 32960 21602 10082 20019 40214 57008 80002;EQDQ01  00002PRCP99
0175549160999992000041018004+35570+116850FM-12+005399999V0201801N002012200019N0100001N1+00391+00101102041ADDAA199000091GA1001+999999999GF100991001001999999001001KA1999M+01561MD1710111+9999REMSYN064AAXX  10181 54916 32960 01802 10039 20010 40204 57011 333 10156;EQDQ01  00002PRCP99
0122549160999992000041021004+35570+116850FM-12+005399999V0201601N003012200019N0100001N1+00561+00071101991ADDGA1001+999999999GF100991001001999999001001MD1710051+9999REMSYN054AAXX  10211 54916 42960 01603 10056 20007 40199 57005;
0180549160999992000041100004+35570+116850FM-12+005399999V0201601N003012200019N0100001N1+00921+00111101891ADDAA199000091GA1001+999999999GF100991001001999999001001IA2999+00109MD1710101-0901REMSYN070AAXX  11001 54916 32960 01603 10092 20011 40189 57010 333 05904 30010;EQDQ01  00002PRCP99
0112549160999992000041103004+35570+116850FM-12+005399999V0202201N005019999999N0100001N1+01661-00061101651ADDGF105991001001999999001021MD1710231+9999REMSYN060AAXX  11031 54916 42960 52205 10166 21006 40165 57023 80002;
0165549160999992000041106004+35570+116850FM-12+005399999V0202001N006019999999N0100001N1+01911-00151101321ADDAA199000091GF105991001001999999001021KA1999N+00291MD1710331+9999REMSYN070AAXX  11061 54916 32960 52006 10191 21015 40132 57033 80002 333 20029;EQDQ01  00002PRCP99
0112549160999992000041109004+35570+116850FM-12+005399999V0202001N005019999999N0100001N1+01951-00021101001ADDGF107991001001999999001021MD1710311+9999REMSYN060AAXX  11091 54916 42960 72005 10195 21002 40100 57031 80002;
0152549160999992000041112004+35570+116850FM-12+005399999V0201801N004012200019N0100001N1+01571+00171100941ADDAA199000091GA1001+999999999GF100991001001999999001001MD1710061+9999REMSYN054AAXX  11121 54916 32960 01804 10157 20017 40094 57006;EQDQ01  00002PRCP99
0175549160999992000041118004+35570+116850FM-12+005399999V0201801N003012200019N0100001N1+01301+00371100791ADDAA199000091GA1001+999999999GF100991001001999999001001KA1999M+02041MD1710111+9999REMSYN064AAXX  11181 54916 32960 01803 10130 20037 40079 57011 333 10204;EQDQ01  00002PRCP99
0122549160999992000041121004+35570+116850FM-12+005399999V0201601N003012200019N0100001N1+01101+00411100711ADDGA1001+999999999GF100991001001999999001001MD1710091+9999REMSYN054AAXX  11211 54916 42960 01603 10110 20041 40071 57009;
0162549160999992000041200004+35570+116850FM-12+005399999V0201801N003012200019N0100001N1+01221+00431100801ADDAA199000091GA1001+999999999GF100991001001999999001001MD1210091+0111REMSYN064AAXX  12001 54916 32960 01803 10122 20043 40080 52009 333 06103;EQDQ01  00002PRCP99
0122549160999992000041203004+35570+116850FM-12+005399999V0201801N003012200019N0100001N1+01751+00721100741ADDGA1001+999999999GF100991001001999999001001MD1710061+9999REMSYN054AAXX  12031 54916 42960 01803 10175 20072 40074 57006;
0175549160999992000041206004+35570+116850FM-12+005399999V0201801N004012200019N0120001N1+02331+01011100471ADDAA199000091GA1001+999999999GF100991001001999999001001KA1999N+00811MD1710261+9999REMSYN064AAXX  12061 54916 32962 01804 10233 20101 40047 57026 333 20081;EQDQ01  00002PRCP99
0122549160999992000041209004+35570+116850FM-12+005399999V0202001N003012200019N0100001N1+02561+01111100341ADDGA1001+999999999GF100991001001999999001001MD1710131+9999REMSYN054AAXX  12091 54916 42960 02003 10256 20111 40034 57013;
0142549160999992000041212004+35570+116850FM-12+005399999V0201801N003019999999N0100001N1+02011+01191100481ADDAA199000091GF107991001001999999001021MD1210141+9999REMSYN060AAXX  12121 54916 32960 71803 10201 20119 40048 52014 80002;EQDQ01  00002PRCP99
0175549160999992000041218004+35570+116850FM-12+005399999V0201801N003012200019N0100001N1+01471+01101100591ADDAA199000091GA1001+999999999GF100991001001999999001001KA1999M+02591MD1710021+9999REMSYN064AAXX  12181 54916 32960 01803 10147 20110 40059 57002 333 10259;EQDQ01  00002PRCP99
0122549160999992000041221004+35570+116850FM-12+005399999V0201601N004012200019N0100001N1+01501+01111100581ADDGA1001+999999999GF100991001001999999001001MD1410001+9999REMSYN054AAXX  12211 54916 42960 01604 10150 20111 40058 54000;
0152549160999992000041300004+35570+116850FM-12+005399999V0200401N002019999999N0100001N1+01591+01271100861ADDAA199000091GF107991001001999999001021MD1210271+0011REMSYN070AAXX  13001 54916 32960 70402 10159 20127 40086 52027 80002 333 00104;EQDQ01  00002PRCP99
0112549160999992000041303004+35570+116850FM-12+005399999V0202501N002019999999N0100001N1+02211+01331100861ADDGF107991001001999999001021MD1410001+9999REMSYN060AAXX  13031 54916 42960 72502 10221 20133 40086 54000 80002;
0165549160999992000041306004+35570+116850FM-12+005399999V0203401N002019999999N0100001N1+02371+01371100761ADDAA199000091GF107991001001999999001021KA1999N+01251MD1710101+9999REMSYN070AAXX  13061 54916 32960 73402 10237 20137 40076 57010 80002 333 20125;EQDQ01  00002PRCP99
0112549160999992000041309004+35570+116850FM-12+005399999V0200401N007019999999N0100001N1+01951-00101100851ADDGF107991001001999999001021MD1210091+9999REMSYN060AAXX  13091 54916 42960 70407 10195 21010 40085 52009 80002;
0142549160999992000041312004+35570+116850FM-12+005399999V0200401N006019999999N0100001N1+01541-00611101351ADDAA199000091GF107991001001999999001021MD1210491+9999REMSYN060AAXX  13121 54916 32960 70406 10154 21061 40135 52049 80002;EQDQ01  00002PRCP99
0165549160999992000041318004+35570+116850FM-12+005399999V0200401N005019999999N0120001N1+01321-00721101581ADDAA199000091GF108991081001999999071999KA1999M+02521MD1210031+9999REMSYN070AAXX  13181 54916 32962 80405 10132 21072 40158 52003 8807/ 333 10252;EQDQ01  00002PRCP99
0112549160999992000041321004+35570+116850FM-12+005399999V0203601N003010120019N0120001N1+01111-00201101491ADDGF108991081051012501999999MD1710101+9999REMSYN060AAXX  13211 54916 42662 83603 10111 21020 40149 57010 885//;
0152549160999992000041400004+35570+116850FM-12+005399999V0203601N002010120019N0120001N1+01251+00021101751ADDAA199000091GF108991081051012501999999MD1210251+0091REMSYN070AAXX  14001 54916 32662 83602 10125 20002 40175 52025 885// 333 00953;EQDQ01  00002PRCP99
0112549160999992000041403004+35570+116850FM-12+005399999V0203601N004010150019N0120001N1+01381-00081101891ADDGF108991081051017501999999MD1210141+9999REMSYN060AAXX  14031 54916 42762 83604 10138 21008 40189 52014 885//;
0165549160999992000041406004+35570+116850FM-12+005399999V0203401N005019999999N0120001N1+01391+00111101851ADDAA199000091GF108991081001999999071999KA1999N+01091MD1710041+9999REMSYN070AAXX  14061 54916 32962 83405 10139 20011 40185 57004 8807/ 333 20109;EQDQ01  00002PRCP99
0124549160999992000041409004+35570+116850FM-12+005399999V0203401N003010120019N0100001N1+01321-00481101881ADDGF108991081051012501999999MD1210031+9999MW1211REMSYN066AAXX  14091 54916 41660 83403 10132 21048 40188 52003 72100 885//;
0146549160999992000041418004+35570+116850FM-12+005399999V0203401N003010120019N0100001N1+00891+00361101951ADDAA199000021GF108991081051012501999999KA1999M+01501MD1710031+9999REMSYN070AAXX  14181 54916 32660 83403 10089 20036 40195 57003 885// 333 10150;
0133549160999992000041421004+35570+116850FM-12+005399999V0209999C000010120019N0100001N1+00841+00481102001ADDAA124000791GF108991081051012501999999MD1210051+9999REMSYN070AAXX  14211 54916 42660 80000 10084 20048 40200 52005 885// 333 79999;
0167549160999992000041500004+35570+116850FM-12+005399999V0202901N004012200019N0100001N1+00901+00591102121ADDAA199000091GA1001+999999999GF100991001001999999001001MD1210111+9999REMSYN069AAXX  15001 54916 32960 02904 10090 20059 40212 52011 333 0454 79999;EQDQ01  00002PRCP99
0122549160999992000041503004+35570+116850FM-12+005399999V0203401N004012200019N0120001N1+01481+00151102021ADDGA1001+999999999GF100991001001999999001001MD1710091+9999REMSYN054AAXX  15031 54916 42962 03404 10148 20015 40202 57009;
0175549160999992000041506004+35570+116850FM-12+005399999V0202501N004012200019N0120001N1+01731+00131101801ADDAA199000091GA1001+999999999GF100991001001999999001001KA1999N+00741MD1710221+9999REMSYN064AAXX  15061 54916 32962 02504 10173 20013 40180 57022 333 20074;EQDQ01  00002PRCP99
0122549160999992000041509004+35570+116850FM-12+005399999V0203201N004012200019N0120001N1+01831+00071101651ADDGA1001+999999999GF100991001001999999001001MD1710151+9999REMSYN054AAXX  15091 54916 42962 03204 10183 20007 40165 57015;
0152549160999992000041512004+35570+116850FM-12+005399999V0202501N002012200019N0120001N1+01491+00411101681ADDAA199000091GA1001+999999999GF100991001001999999001001MD1210031+9999REMSYN054AAXX  15121 54916 32962 02502 10149 20041 40168 52003;EQDQ01  00002PRCP99
0175549160999992000041518004+35570+116850FM-12+005399999V0201801N002012200019N0120001N1+00771+00471101641ADDAA199000091GA1001+999999999GF100991001001999999001001KA1999M+01881MD1710061+9999REMSYN064AAXX  15181 54916 32962 01802 10077 20047 40164 57006 333 10188;EQDQ01  00002PRCP99
0180549160999992000041600004+35570+116850FM-12+005399999V0201601N003012200019N0100001N1+01201+00431101691ADDAA199000091GA1001+999999999GF100991001001999999001001IA2999+00209MD1210041-0401REMSYN070AAXX  16001 54916 32960 01603 10120 20043 40169 52004 333 05403 30023;EQDQ01  00002PRCP99
0112549160999992000041603004+35570+116850FM-12+005399999V0201801N006019999999N0100001N1+01911+00431101531ADDGF105991001001999999001021MD1710151+9999REMSYN060AAXX  16031 54916 42960 51806 10191 20043 40153 57015 80002;
0165549160999992000041606004+35570+116850FM-12+005399999V0202001N005019999999N0100001N1+02171+00471101301ADDAA199000091GF105991001001999999001021KA1999N+00481MD1710231+9999REMSYN070AAXX  16061 54916 32960 52005 10217 20047 40130 57023 80002 333 20048;EQDQ01  00002PRCP99
0122549160999992000041609004+35570+116850FM-12+005399999V0201801N004012200019N0100001N1+02271+00301101131ADDGA1001+999999999GF100991001001999999001001MD1710171+9999REMSYN054AAXX  16091 54916 42960 01804 10227 20030 40113 57017;
0152549160999992000041612004+35570+116850FM-12+005399999V0201801N002012200019N0100001N1+01791+00481101171ADDAA199000091GA1001+999999999GF100991001001999999001001MD1210041+9999REMSYN054AAXX  16121 54916 32960 01802 10179 20048 40117 52004;EQDQ01  00002PRCP99
0175549160999992000041618004+35570+116850FM-12+005399999V0201601N003012200019N0100001N1+01211+00591101241ADDAA199000091GA1001+999999999GF100991001001999999001001KA1999M+02341MD1210041+9999REMSYN064AAXX  16181 54916 32960 01603 10121 20059 40124 52004 333 10234;EQDQ01  00002PRCP99
0122549160999992000041621004+35570+116850FM-12+005399999V0201601N004012200019N0100001N1+01241+00661101141ADDGA1001+999999999GF100991001001999999001001MD1710091+9999REMSYN054AAXX  16211 54916 42960 01604 10124 20066 40114 57009;
0162549160999992000041700004+35570+116850FM-12+005399999V0201601N004012200019N0100001N1+01461+00761101281ADDAA199000091GA1001+999999999GF100991001001999999001001MD1210131+0041REMSYN064AAXX  17001 54916 32960 01604 10146 20076 40128 52013 333 05403;EQDQ01  00002PRCP99
0112549160999992000041703004+35570+116850FM-12+005399999V0201801N003012200019N0100001N1+02091+00961101281ADDGF102991001001999999001021MD1410001+9999REMSYN060AAXX  17031 54916 42960 21803 10209 20096 40128 54000 80002;
0165549160999992000041706004+35570+116850FM-12+005399999V0201801N006012200019N0120001N1+02411+00781101051ADDAA199000091GF104991001001999999001021KA1999N+01081MD1710221+9999REMSYN070AAXX  17061 54916 32962 41806 10241 20078 40105 57022 80002 333 20108;EQDQ01  00002PRCP99
0112549160999992000041709004+35570+116850FM-12+005399999V0201601N004012200019N0100001N1+02471+00681100861ADDGF101991001001999999001021MD1710191+9999REMSYN060AAXX  17091 54916 42960 11604 10247 20068 40086 57019 80002;
0152549160999992000041712004+35570+116850FM-12+005399999V0201601N003012200019N0100001N1+01851+00781101001ADDAA199000091GA1001+999999999GF100991001001999999001001MD1210141+9999REMSYN054AAXX  17121 54916 32960 01603 10185 20078 40100 52014;EQDQ01  00002PRCP99
0165549160999992000041718004+35570+116850FM-12+005399999V0201101N003010120019N0100001N1+01461+00691101031ADDAA199000091GF107991071051012501999999KA1999M+02581MD1710071+9999REMSYN070AAXX  17181 54916 32660 71103 10146 20069 40103 57007 875// 333 10258;EQDQ01  00002PRCP99
0153549160999992000041721004+35570+116850FM-12+005399999V0201801N001010120019N0100001N1+01551+01001101021ADDAA124000391AY161031GF108991081051012501999999MD1710011+9999MW1601REMSYN076AAXX  17211 54916 41660 81801 10155 20100 40102 57001 76060 885// 333 70003;
0165549160999992000041800004+35570+116850FM-12+005399999V0200901N002010120019N0100001N1+01401+01221101071ADDAA106001091AY161061GF108991081051012501999999MD1210041-0201MW1601REMSYN088AAXX  18001 54916 11660 80902 10140 20122 40107 52004 60011 76060 885// 333 05251 70014;
0140549160999992000041803004+35570+116850FM-12+005399999V0200401N004010120019N0080001N1+01371+01321101071ADDAY161031AY261031GF108991081051012501999999MD1410001+9999MW1601REMSYN066AAXX  18031 54916 41658 80404 10137 20132 40107 54000 76066 885//;
0180549160999992000041806004+35570+116850FM-12+005399999V0200701N004010120019N0100001N1+01441+01301100951ADDAA106004191AY161061AY261061GF108991081051012501999999KA1999N+01311MD1710121+9999MW1601REMSYN082AAXX  18061 54916 11660 80704 10144 20130 40095 57012 60041 76066 885// 333 20131;
0132549160999992000041809004+35570+116850FM-12+005399999V0200401N002010120019N0100001N1+01461+01341100941ADDAY161031GF108991081051012501999999MD1710011+9999MW1601REMSYN066AAXX  18091 54916 41660 80402 10146 20134 40094 57001 76060 885//;
0149549160999992000041812004+35570+116850FM-12+005399999V0200401N002010120019N0100001N1+01391+01261101101ADDAA106000191AY161061GF107991071051012501999999MD1210161+9999MW1001REMSYN072AAXX  18121 54916 11660 70402 10139 20126 40110 52016 69911 70060 875//;
0134549160999992000041818004+35570+116850FM-12+005399999V0209999C000012200019N0060001N1+99999+99999999999ADDAA199000021GA1001+999999999GF100991001001999999001001REMSYN069AAXX  18181 54916 31956 00000 0096 20094 40117 57007 71000 333 10173;
0155549160999992000041821004+35570+116850FM-12+005399999V0209999C000012200019N0004001N1+00791+00791101251ADDAA124005691GA1001+999999999GF100991001001999999001001MD1210081+9999MW1461REMSYN070AAXX  18211 54916 41904 00000 10079 20079 40125 52008 74600 333 70055;
0169549160999992000041900004+35570+116850FM-12+005399999V0200901N001010003019N0002001N1+00971+00971101361ADDAA124004391AY141061GA1091+999999999GF109991091999999999999999MD1210111+0301MW1451REMSYN076AAXX  19001 54916 31/02 90901 10097 20097 40136 52011 74540 333 00354 70044;
0142549160999992000041903004+35570+116850FM-12+005399999V0201801N002012200019N0100001N1+01831+01301101341ADDAY141031GA1001+999999999GF100991001001999999001001MD1710011+9999MW1001REMSYN060AAXX  19031 54916 41960 01802 10183 20130 40134 57001 70040;
0195549160999992000041906004+35570+116850FM-12+005399999V0201801N005012200019N0100001N1+02171+01241101071ADDAA199000091AY141061GA1001+999999999GF100991001001999999001001KA1999N+00761MD1710271+9999MW1001REMSYN070AAXX  19061 54916 31960 01805 10217 20124 40107 57027 70040 333 20076;EQDQ01  00002PRCP99
0122549160999992000041909004+35570+116850FM-12+005399999V0201801N004012200019N0100001N1+02271+01241100981ADDGA1001+999999999GF100991001001999999001001MD1710091+9999REMSYN054AAXX  19091 54916 42960 01804 10227 20124 40098 57009;
0165549160999992000041918004+35570+116850FM-12+005399999V0201801N002019999999N0100001N1+01381+01161101121ADDAA199000091GF106991001001999999001021KA1999M+02341MD1210081+9999REMSYN070AAXX  19181 54916 32960 61802 10138 20116 40112 52008 80002 333 10234;EQDQ01  00002PRCP99
0112549160999992000041921004+35570+116850FM-12+005399999V0209999C000019999999N0100001N1+01431+01251101031ADDGF108991001001999999001071MD1710091+9999REMSYN060AAXX  19211 54916 42960 80000 10143 20125 40103 57009 80007;
0165549160999992000042000004+35570+116850FM-12+005399999V0201601N002019999999N0100001N1+01631+01371101041ADDAA106000791AY161061GF108991001001999999001071MD1210011-0301MW1001REMSYN088AAXX  20001 54916 11960 81602 10163 20137 40104 52001 69901 70060 80007 333 05307 79999;
0112549160999992000042003004+35570+116850FM-12+005399999V0202201N001010150019N0100001N1+01931+01401100961ADDGF108991081051017501999999MD1710081+9999REMSYN060AAXX  20031 54916 42760 82201 10193 20140 40096 57008 885//;
0165549160999992000042006004+35570+116850FM-12+005399999V0202701N004019999999N0100001N1+02131+00971100811ADDAA199000091GF107991071001999999031999KA1999N+01301MD1710151+9999REMSYN070AAXX  20061 54916 32960 72704 10213 20097 40081 57015 8703/ 333 20130;EQDQ01  00002PRCP99
0122549160999992000042009004+35570+116850FM-12+005399999V0202701N003012200019N0100001N1+02161+01081100641ADDGA1001+999999999GF100991001001999999001001MD1710171+9999REMSYN054AAXX  20091 54916 42960 02703 10216 20108 40064 57017;
0152549160999992000042012004+35570+116850FM-12+005399999V0201801N002012200019N0100001N1+01801+01191100751ADDAA199000091GA1001+999999999GF100991001001999999001001MD1210111+9999REMSYN054AAXX  20121 54916 32960 01802 10180 20119 40075 52011;EQDQ01  00002PRCP99
0165549160999992000042018004+35570+116850FM-12+005399999V0201601N003019999999N0100001N1+01371+01031100691ADDAA199000091GF107991001001999999001021KA1999M+02191MD1710131+9999REMSYN070AAXX  20181 54916 32960 71603 10137 20103 40069 57013 80002 333 10219;EQDQ01  00002PRCP99
0133549160999992000042021004+35570+116850FM-12+005399999V0202201N002019999999N0100001N1+01461+01001100751ADDAA124000791GF106991001001999999001021MD1210061+9999REMSYN070AAXX  20211 54916 42960 62202 10146 20100 40075 52006 80002 333 79999;
0122549160999992000042103004+35570+116850FM-12+005399999V0202901N004012200019N0120001N1+02191+00911101011ADDGA1001+999999999GF100991001001999999001001MD1210131+9999REMSYN054AAXX  21031 54916 42962 02904 10219 20091 40101 52013;
0175549160999992000042106004+35570+116850FM-12+005399999V0202701N006012200019N0120001N1+02551-00011100911ADDAA199000091GA1001+999999999GF100991001001999999001001KA1999N+01261MD1710101+9999REMSYN064AAXX  21061 54916 32962 02706 10255 21001 40091 57010 333 20126;EQDQ01  00002PRCP99
0122549160999992000042109004+35570+116850FM-12+005399999V0202001N003012200019N0100001N1+02471+00021100721ADDGA1001+999999999GF100991001001999999001001MD1710191+9999REMSYN054AAXX  21091 54916 42960 02003 10247 20002 40072 57019;
0142549160999992000042112004+35570+116850FM-12+005399999V0201801N004019999999N0100001N1+02151+00111100701ADDAA199000091GF108991001001999999001071MD1710021+9999REMSYN060AAXX  21121 54916 32960 81804 10215 20011 40070 57002 80007;EQDQ01  00002PRCP99
0165549160999992000042118004+35570+116850FM-12+005399999V0203201N007019999999N0120001N1+01911+00791100751ADDAA199000091GF107991001001999999001021KA1999M+02601MD1210131+9999REMSYN070AAXX  21181 54916 32962 73207 10191 20079 40075 52013 80002 333 10260;EQDQ01  00002PRCP99
0112549160999992000042121004+35570+116850FM-12+005399999V0203601N004019999999N0100001N1+01441+00281101161ADDGF108991001001999999001071MD1210401+9999REMSYN060AAXX  21211 54916 42960 83604 10144 20028 40116 52040 80007;
0152549160999992000042200004+35570+116850FM-12+005399999V0203401N002019999999N0100001N1+01531+00321101291ADDAA199000091GF105991001001999999001021MD1210131+0041REMSYN070AAXX  22001 54916 32960 53402 10153 20032 40129 52013 80002 333 00451;EQDQ01  00002PRCP99
0122549160999992000042203004+35570+116850FM-12+005399999V0203401N004012200019N0120001N1+01911-00321101221ADDGA1001+999999999GF100991001001999999001001MD1710071+9999REMSYN054AAXX  22031 54916 42962 03404 10191 21032 40122 57007;
0175549160999992000042206004+35570+116850FM-12+005399999V0203201N007012200019N0100001N1+02151-00551101141ADDAA199000091GA1001+999999999GF100991001001999999001001KA1999N+01241MD1710081+9999REMSYN064AAXX  22061 54916 32960 03207 10215 21055 40114 57008 333 20124;EQDQ01  00002PRCP99
0122549160999992000042209004+35570+116850FM-12+005399999V0202901N005012200019N0100001N1+02071-00011101101ADDGA1001+999999999GF100991001001999999001001MD1710041+9999REMSYN054AAXX  22091 54916 42960 02905 10207 21001 40110 57004;
0175549160999992000042218004+35570+116850FM-12+005399999V0200701N002012200019N0100001N1+00921+00231101411ADDAA199000091GA1001+999999999GF100991001001999999001001KA1999M+02231MD1210071+9999REMSYN064AAXX  22181 54916 32960 00702 10092 20023 40141 52007 333 10223;EQDQ01  00002PRCP99
0122549160999992000042221004+35570+116850FM-12+005399999V0200201N003012200019N0100001N1+00761+00231101491ADDGA1001+999999999GF100991001001999999001001MD1210081+9999REMSYN054AAXX  22211 54916 42960 00203 10076 20023 40149 52008;
0170549160999992000042300004+35570+116850FM-12+005399999V0200701N001012200019N0100001N1+01321+00371101521ADDAA199000091GF102991001001999999001021IA2999+00409MD1210031+0201REMSYN076AAXX  23001 54916 32960 20701 10132 20037 40152 52003 80002 333 00252 30046;EQDQ01  00002PRCP99
0112549160999992000042303004+35570+116850FM-12+005399999V0200701N002012200019N0150001N1+01991-00101101401ADDGF102991001001999999001021MD1710121+9999REMSYN060AAXX  23031 54916 42965 20702 10199 21010 40140 57012 80002;
0165549160999992000042306004+35570+116850FM-12+005399999V0200201N002012200019N0150001N1+02271-00071101081ADDAA199000091GF101991001001999999001021KA1999N+00641MD1710321+9999REMSYN070AAXX  23061 54916 32965 10202 10227 21007 40108 57032 80002 333 20064;EQDQ01  00002PRCP99
0112549160999992000042309004+35570+116850FM-12+005399999V0201801N004012200019N0150001N1+02321-00161100871ADDGF101991001001999999001021MD1710211+9999REMSYN060AAXX  23091 54916 42965 11804 10232 21016 40087 57021 80002;
0152549160999992000042312004+35570+116850FM-12+005399999V0200901N001012200019N0120001N1+01511+00841100911ADDAA199000091GA1001+999999999GF100991001001999999001001MD1210041+9999REMSYN054AAXX  23121 54916 32962 00901 10151 20084 40091 52004;EQDQ01  00002PRCP99
0165549160999992000042318004+35570+116850FM-12+005399999V0201401N002019999999N0100001N1+01261+00631100881ADDAA199000091GF106991001001999999001021KA1999M+02351MD1710101+9999REMSYN070AAXX  23181 54916 32960 61402 10126 20063 40088 57010 80002 333 10235;EQDQ01  00002PRCP99
0112549160999992000042321004+35570+116850FM-12+005399999V0200901N002019999999N0100001N1+01261+00801100801ADDGF106991001001999999001021MD1710081+9999REMSYN060AAXX  23211 54916 42960 60902 10126 20080 40080 57008 80002;
0152549160999992000042400004+35570+116850FM-12+005399999V0201101N002012200019N0100001N1+01711+01101100831ADDAA199000091GF101991011001999999041001MD1210031+0071REMSYN070AAXX  24001 54916 32960 11102 10171 20110 40083 52003 81040 333 05704;EQDQ01  00002PRCP99
0122549160999992000042403004+35570+116850FM-12+005399999V0201801N005012200019N0120001N1+02241+01141100751ADDGA1001+999999999GF100991001001999999001001MD1710081+9999REMSYN054AAXX  24031 54916 42962 01805 10224 20114 40075 57008;
0165549160999992000042406004+35570+116850FM-12+005399999V0201801N007019999999N0100001N1+02591+00981100481ADDAA199000091GF106991001001999999001021KA1999N+01141MD1710271+9999REMSYN070AAXX  24061 54916 32960 61807 10259 20098 40048 57027 80002 333 20114;EQDQ01  00002PRCP99
0112549160999992000042409004+35570+116850FM-12+005399999V0201801N005019999999N0100001N1+02611+00881100331ADDGF106991001001999999001021MD1710141+9999REMSYN060AAXX  24091 54916 42960 61805 10261 20088 40033 57014 80002;
0165549160999992000042418004+35570+116850FM-12+005399999V0201601N002010150019N0100001N1+01951+01261100381ADDAA199000091GF108991081051017501999999KA1999M+02681MD1710131+9999REMSYN070AAXX  24181 54916 32760 81602 10195 20126 40038 57013 885// 333 10268;EQDQ01  00002PRCP99
0112549160999992000042421004+35570+116850FM-12+005399999V0201601N002019999999N0100001N1+01741+01121100301ADDGF107991001001999999001021MD1710081+9999REMSYN060AAXX  24211 54916 42960 71602 10174 20112 40030 57008 80002;
0152549160999992000042500004+35570+116850FM-12+005399999V0202201N002019999999N0100001N1+01921+01191100431ADDAA199000091GF108991001001999999001071MD1210131+0041REMSYN070AAXX  25001 54916 32960 82202 10192 20119 40043 52013 80007 333 05402;EQDQ01  00002PRCP99
0112549160999992000042503004+35570+116850FM-12+005399999V0202701N003019999999N0100001N1+02451+00991100351ADDGF108991001001999999001071MD1710081+9999REMSYN060AAXX  25031 54916 42960 82703 10245 20099 40035 57008 80007;
0165549160999992000042506004+35570+116850FM-12+005399999V0203401N003019999999N0100001N1+02591-00021100211ADDAA199000091GF108991001001999999001071KA1999N+01451MD1710141+9999REMSYN070AAXX  25061 54916 32960 83403 10259 21002 40021 57014 80007 333 20145;EQDQ01  00002PRCP99
0112549160999992000042509004+35570+116850FM-12+005399999V0202901N004019999999N0100001N1+02471+00361100171ADDGF108991081001999999071999MD1710041+9999REMSYN060AAXX  25091 54916 42960 82904 10247 20036 40017 57004 8807/;
0142549160999992000042512004+35570+116850FM-12+005399999V0203401N003019999999N0100001N1+02071+00471100381ADDAA199000091GF108991081001999999071999MD1210211+9999REMSYN060AAXX  25121 54916 32960 83403 10207 20047 40038 52021 8807/;EQDQ01  00002PRCP99
0165549160999992000042518004+35570+116850FM-12+005399999V0203401N004019999999N0100001N1+01481-00231100951ADDAA199000091GF107991071001999999031999KA1999M+02691MD1210191+9999REMSYN070AAXX  25181 54916 32960 73404 10148 21023 40095 52019 8703/ 333 10269;EQDQ01  00002PRCP99
0112549160999992000042521004+35570+116850FM-12+005399999V0203401N003012200019N0100001N1+01311-00121101011ADDGF104991001001999999001021MD1210061+9999REMSYN060AAXX  25211 54916 42960 43403 10131 21012 40101 52006 80002;
0162549160999992000042600004+35570+116850FM-12+005399999V0202701N003012200019N0100001N1+01391+00141101201ADDAA199000091GA1001+999999999GF100991001001999999001001MD1210191+0081REMSYN064AAXX  26001 54916 32960 02703 10139 20014 40120 52019 333 00855;EQDQ01  00002PRCP99
0122549160999992000042603004+35570+116850FM-12+005399999V0203201N005012200019N0100001N1+01811-00071101241ADDGA1001+999999999GF100991001001999999001001MD1210041+9999REMSYN054AAXX  26031 54916 42960 03205 10181 21007 40124 52004;
0175549160999992000042606004+35570+116850FM-12+005399999V0203201N005012200019N0120001N1+02091+00101101081ADDAA199000091GA1001+999999999GF100991001001999999001001KA1999N+01171MD1710161+9999REMSYN064AAXX  26061 54916 32962 03205 10209 20010 40108 57016 333 20117;EQDQ01  00002PRCP99
0122549160999992000042609004+35570+116850FM-12+005399999V0203201N004012200019N0150001N1+02141+00161101031ADDGA1001+999999999GF100991001001999999001001MD1710051+9999REMSYN054AAXX  26091 54916 42965 03204 10214 20016 40103 57005;
0152549160999992000042612004+35570+116850FM-12+005399999V0202901N002012200019N0150001N1+01581+00591101201ADDAA199000091GA1001+999999999GF100991001001999999001001MD1210161+9999REMSYN054AAXX  26121 54916 32965 02902 10158 20059 40120 52016;EQDQ01  00002PRCP99
0175549160999992000042618004+35570+116850FM-12+005399999V0201401N001012200019N0100001N1+00901+00551101351ADDAA199000091GA1001+999999999GF100991001001999999001001KA1999M+02231MD1210051+9999REMSYN064AAXX  26181 54916 32960 01401 10090 20055 40135 52005 333 10223;EQDQ01  00002PRCP99
0122549160999992000042621004+35570+116850FM-12+005399999V0209999C000012200019N0100001N1+00801+00481101411ADDGA1001+999999999GF100991001001999999001001MD1210061+9999REMSYN054AAXX  26211 54916 42960 00000 10080 20048 40141 52006;
0180549160999992000042700004+35570+116850FM-12+005399999V0209999C000012200019N0100001N1+01551+00771101541ADDAA199000091GA1001+999999999GF100991001001999999001001IA2999+00409MD1210131+0301REMSYN070AAXX  27001 54916 32960 00000 10155 20077 40154 52013 333 00302 30044;EQDQ01  00002PRCP99
0122549160999992000042703004+35570+116850FM-12+005399999V0203201N004012200019N0120001N1+02171+00341101541ADDGA1001+999999999GF100991001001999999001001MD1210011+9999REMSYN054AAXX  27031 54916 42962 03204 10217 20034 40154 52001;
0175549160999992000042706004+35570+116850FM-12+005399999V0202701N005012200019N0150001N1+02341+00521101261ADDAA199000091GA1001+999999999GF100991001001999999001001KA1999N+00581MD1710291+9999REMSYN064AAXX  27061 54916 32965 02705 10234 20052 40126 57029 333 20058;EQDQ01  00002PRCP99
0122549160999992000042709004+35570+116850FM-12+005399999V0202701N002012200019N0150001N1+02411+00331101141ADDGA1001+999999999GF100991001001999999001001MD1710121+9999REMSYN054AAXX  27091 54916 42965 02702 10241 20033 40114 57012;
0152549160999992000042712004+35570+116850FM-12+005399999V0200901N002012200019N0100001N1+01621+00861101191ADDAA199000091GA1001+999999999GF100991001001999999001001MD1210051+9999REMSYN054AAXX  27121 54916 32960 00902 10162 20086 40119 52005;EQDQ01  00002PRCP99
0175549160999992000042718004+35570+116850FM-12+005399999V0201601N002012200019N0100001N1+01291+00641101191ADDAA199000091GA1001+999999999GF100991001001999999001001KA1999M+02471MD1710031+9999REMSYN064AAXX  27181 54916 32960 01602 10129 20064 40119 57003 333 10247;EQDQ01  00002PRCP99
0112549160999992000042721004+35570+116850FM-12+005399999V0201401N002019999999N0100001N1+01201+00771101191ADDGF107991001001999999001021MD1410001+9999REMSYN060AAXX  27211 54916 42960 71402 10120 20077 40119 54000 80002;
0152549160999992000042800004+35570+116850FM-12+005399999V0201401N003019999999N0100001N1+01681+00941101291ADDAA199000091GF106991001001999999001021MD1210091+0031REMSYN070AAXX  28001 54916 32960 61403 10168 20094 40129 52009 80002 333 05301;EQDQ01  00002PRCP99
0112549160999992000042803004+35570+116850FM-12+005399999V0201801N005019999999N0100001N1+02311+00731101191ADDGF107991001001999999001021MD1710091+9999REMSYN060AAXX  28031 54916 42960 71805 10231 20073 40119 57009 80002;
0175549160999992000042806004+35570+116850FM-12+005399999V0202001N005012200019N0100001N1+02651+00551101031ADDAA199000091GA1001+999999999GF100991001001999999001001KA1999N+01121MD1710161+9999REMSYN064AAXX  28061 54916 32960 02005 10265 20055 40103 57016 333 20112;EQDQ01  00002PRCP99
0112549160999992000042809004+35570+116850FM-12+005399999V0201601N005012200019N0100001N1+02611+00661100911ADDGF102991001001999999001021MD1710121+9999REMSYN060AAXX  28091 54916 42960 21605 10261 20066 40091 57012 80002;
0152549160999992000042812004+35570+116850FM-12+005399999V0201801N004012200019N0100001N1+02171+00781100971ADDAA199000091GA1001+999999999GF100991001001999999001001MD1210061+9999REMSYN054AAXX  28121 54916 32960 01804 10217 20078 40097 52006;EQDQ01  00002PRCP99
0175549160999992000042818004+35570+116850FM-12+005399999V0201601N004012200019N0100001N1+01891+00551101051ADDAA199000091GA1001+999999999GF100991001001999999001001KA1999M+02691MD1710111+9999REMSYN064AAXX  28181 54916 32960 01604 10189 20055 40105 57011 333 10269;EQDQ01  00002PRCP99
0122549160999992000042821004+35570+116850FM-12+005399999V0201601N003012200019N0100001N1+01631+00801101091ADDGA1001+999999999GF100991001001999999001001MD1210041+9999REMSYN054AAXX  28211 54916 42960 01603 10163 20080 40109 52004;
0162549160999992000042900004+35570+116850FM-12+005399999V0201601N005012200019N0100001N1+01891+01081101251ADDAA199000091GA1001+999999999GF100991001001999999001001MD1210151+9999REMSYN064AAXX  29001 54916 32960 01605 10189 20108 40125 52015 333 0002/;EQDQ01  00002PRCP99
0112549160999992000042903004+35570+116850FM-12+005399999V0202001N005012200019N0100001N1+02411+01321101061ADDGF103991001001999999001021MD1710191+9999REMSYN060AAXX  29031 54916 42960 32005 10241 20132 40106 57019 80002;
0165549160999992000042906004+35570+116850FM-12+005399999V0203401N005010150019N0100001N1+02301+01061101091ADDAA199000091GF108991081051017501999999KA1999N+01351MD1210031+9999REMSYN070AAXX  29061 54916 32760 83405 10230 20106 40109 52003 885// 333 20135;EQDQ01  00002PRCP99
0112549160999992000042909004+35570+116850FM-12+005399999V0200401N007010120019N0100001N1+01931+00641101121ADDGF108991081051012501999999MD1210031+9999REMSYN060AAXX  29091 54916 42660 80407 10193 20064 40112 52003 885//;
0152549160999992000042912004+35570+116850FM-12+005399999V0200901N002012200019N0100001N1+01451+00791101311ADDAA199000091GA1001+999999999GF100991001001999999001001MD1210181+9999REMSYN054AAXX  29121 54916 32960 00902 10145 20079 40131 52018;EQDQ01  00002PRCP99
0165549160999992000042918004+35570+116850FM-12+005399999V0200901N001019999999N0100001N1+00901+00751101391ADDAA199000091GF105991001001999999001021KA1999M+02591MD1710051+9999REMSYN070AAXX  29181 54916 32960 50901 10090 20075 40139 57005 80002 333 10259;EQDQ01  00002PRCP99
0122549160999992000042921004+35570+116850FM-12+005399999V0209999C000012200019N0100001N1+00741+00611101371ADDGA1001+999999999GF100991001001999999001001MD1710021+9999REMSYN054AAXX  29211 54916 42960 00000 10074 20061 40137 57002;
0156549160999992000043000004+35570+116850FM-12+005399999V0201601N003012200019N0100001N1+01421+99999101431ADDAA199000091GA1001+999999999GF100991001001999999001001MD1210061+0021REMSYN058AAXX  30001 54916 32960 01603 10142 40143 52006 333 00255;EQDQ01  00002PRCP99
0112549160999992000043003004+35570+116850FM-12+005399999V0202501N005019999999N0100001N1+02221+00921101361ADDGF106991001001999999001021MD1710071+9999REMSYN060AAXX  30031 54916 42960 62505 10222 20092 40136 57007 80002;
0175549160999992000043006004+35570+116850FM-12+005399999V0202501N005012200019N0100001N1+02711+00681101091ADDAA199000091GA1001+999999999GF100991001001999999001001KA1999N+00641MD1710261+9999REMSYN064AAXX  30061 54916 32960 02505 10271 20068 40109 57026 333 20064;EQDQ01  00002PRCP99
0122549160999992000043009004+35570+116850FM-12+005399999V0201801N005012200019N0100001N1+02731+00631100861ADDGA1001+999999999GF100991001001999999001001MD1710231+9999REMSYN054AAXX  30091 54916 42960 01805 10273 20063 40086 57023;
0142549160999992000043012004+35570+116850FM-12+005399999V0201801N003012200019N0100001N1+02271+00931100851ADDAA199000091GF102991001001999999001021MD1710011+9999REMSYN060AAXX  30121 54916 32960 21803 10227 20093 40085 57001 80002;EQDQ01  00002PRCP99
0175549160999992000043018004+35570+116850FM-12+005399999V0201801N003012200019N0100001N1+01811+00781100821ADDAA199000091GA1001+999999999GF100991001001999999001001KA1999M+02831MD1710101+9999REMSYN064AAXX  30181 54916 32960 01803 10181 20078 40082 57010 333 10283;EQDQ01  00002PRCP99
0112549160999992000043021004+35570+116850FM-12+005399999V0201801N003019999999N0100001N1+01531+00801100771ADDGF106991001001999999001021MD1710051+9999REMSYN060AAXX  30211 54916 42960 61803 10153 20080 40077 57005 80002;
0152549160999992000050100004+35570+116850FM-12+005399999V0201801N003012200019N0100001N1+01861+00821100941ADDAA199000091GF101991001001999999001021MD1210161+0051REMSYN070AAXX  01001 54916 32960 11803 10186 20082 40094 52016 80002 333 05504;EQDQ01  00002PRCP99
0122549160999992000050103004+35570+116850FM-12+005399999V0203601N004012200019N0120001N1+02371+00971100971ADDGA1001+999999999GF100991001001999999001001MD1210041+9999REMSYN054AAXX  01031 54916 42962 03604 10237 20097 40097 52004;
0175549160999992000050106004+35570+116850FM-12+005399999V0203201N004012200019N0120001N1+02991+00741100861ADDAA199000091GA1001+999999999GF100991001001999999001001KA1999N+01291MD1710111+9999REMSYN064AAXX  01061 54916 32962 03204 10299 20074 40086 57011 333 20129;EQDQ01  00002PRCP99
0112549160999992000050109004+35570+116850FM-12+005399999V0203601N005012200019N0150001N1+02891+00431100891ADDGF101991001001999999001021MD1210031+9999REMSYN060AAXX  01091 54916 42965 13605 10289 20043 40089 52003 80002;
0152549160999992000050112004+35570+116850FM-12+005399999V0200901N003012200019N0120001N1+02051+00541101061ADDAA199000091GA1001+999999999GF100991001001999999001001MD1210161+9999REMSYN054AAXX  01121 54916 32962 00903 10205 20054 40106 52016;EQDQ01  00002PRCP99
0175549160999992000050118004+35570+116850FM-12+005399999V0200401N002012200019N0100001N1+01311+00671101501ADDAA199000091GA1001+999999999GF100991001001999999001001KA1999M+03061MD1210141+9999REMSYN064AAXX  01181 54916 32960 00402 10131 20067 40150 52014 333 10306;EQDQ01  00002PRCP99
0122549160999992000050121004+35570+116850FM-12+005399999V0200701N002012200019N0100001N1+00991+00401101581ADDGA1001+999999999GF100991001001999999001001MD1210081+9999REMSYN054AAXX  01211 54916 42960 00702 10099 20040 40158 52008;
0162549160999992000050200004+35570+116850FM-12+005399999V0200401N002012200019N0100001N1+01581+00641101691ADDAA199000091GA1001+999999999GF100991001001999999001001MD1210101+0071REMSYN064AAXX  02001 54916 32960 00402 10158 20064 40169 52010 333 00753;EQDQ01  00002PRCP99
0122549160999992000050203004+35570+116850FM-12+005399999V0201401N003012200019N0100001N1+02221+00721101641ADDGA1001+999999999GF100991001001999999001001MD1710041+9999REMSYN054AAXX  02031 54916 42960 01403 10222 20072 40164 57004;
0175549160999992000050206004+35570+116850FM-12+005399999V0202201N004012200019N0120001N1+02601+00661101431ADDAA199000091GA1001+999999999GF100991001001999999001001KA1999N+00851MD1710211+9999REMSYN064AAXX  02061 54916 32962 02204 10260 20066 40143 57021 333 20085;EQDQ01  00002PRCP99
0112549160999992000050209004+35570+116850FM-12+005399999V0201801N004019999999N0100001N1+02601+00611101281ADDGF106991001001999999001021MD1710151+9999REMSYN060AAXX  02091 54916 42960 61804 10260 20061 40128 57015 80002;
0142549160999992000050212004+35570+116850FM-12+005399999V0201601N003019999999N0100001N1+01991+00941101261ADDAA199000091GF107991001001999999001021MD1710021+9999REMSYN060AAXX  02121 54916 32960 71603 10199 20094 40126 57002 80002;EQDQ01  00002PRCP99
0165549160999992000050218004+35570+116850FM-12+005399999V0201601N004019999999N0100001N1+01831+00941101031ADDAA199000091GF106991001001999999001021KA1999M+02661MD1710161+9999REMSYN070AAXX  02181 54916 32960 61604 10183 20094 40103 57016 80002 333 10266;EQDQ01  00002PRCP99
0112549160999992000050221004+35570+116850FM-12+005399999V0201801N004019999999N0100001N1+01791+01131100961ADDGF107991001001999999001021MD1710071+9999REMSYN060AAXX  02211 54916 42960 71804 10179 20113 40096 57007 80002;
0152549160999992000050300004+35570+116850FM-12+005399999V0201601N004010360019N0100001N1+01881+01261100941ADDAA199000091GF108991031041012501071999MD1710031+0071REMSYN070AAXX  03001 54916 32660 81604 10188 20126 40094 57003 8347/ 333 05703;EQDQ01  00002PRCP99
0112549160999992000050303004+35570+116850FM-12+005399999V0201801N005019999999N0100001N1+02451+01131100921ADDGF107991001001999999001021MD1710011+9999REMSYN060AAXX  03031 54916 42960 71805 10245 20113 40092 57001 80002;
0175549160999992000050306004+35570+116850FM-12+005399999V0203401N004012200019N0100001N1+02591+01301100861ADDAA199000091GA1001+999999999GF100991001001999999001001KA1999N+01741MD1710061+9999REMSYN064AAXX  03061 54916 32960 03404 10259 20130 40086 57006 333 20174;EQDQ01  00002PRCP99
0122549160999992000050309004+35570+116850FM-12+005399999V0203201N002012200019N0100001N1+02631+01561100841ADDGA1001+999999999GF100991001001999999001001MD1710021+9999REMSYN054AAXX  03091 54916 42960 03202 10263 20156 40084 57002;
0152549160999992000050312004+35570+116850FM-12+005399999V0200201N001012200019N0100001N1+02081+01601100941ADDAA199000091GA1001+999999999GF100991001001999999001001MD1210091+9999REMSYN054AAXX  03121 54916 32960 00201 10208 20160 40094 52009;EQDQ01  00002PRCP99
0175549160999992000050318004+35570+116850FM-12+005399999V0209999C000012200019N0100001N1+01481+01371101031ADDAA199000091GA1001+999999999GF100991001001999999001001KA1999M+02681MD1710061+9999REMSYN064AAXX  03181 54916 32960 00000 10148 20137 40103 57006 333 10268;EQDQ01  00002PRCP99
0134549160999992000050321004+35570+116850FM-12+005399999V0201101N001012200019N0060001N1+01271+01231101021ADDGA1001+999999999GF100991001001999999001001MD1710011+9999MW1101REMSYN060AAXX  03211 54916 41956 01101 10127 20123 40102 57001 71000;
0182549160999992000050400004+35570+116850FM-12+005399999V0201401N001012200019N0050001N1+01861+01521101171ADDAA199000091AY141061GA1001+999999999GF100991001001999999001001MD1210151+0021MW1281REMSYN070AAXX  04001 54916 31950 01401 10186 20152 40117 52015 72840 333 00200;EQDQ01  00002PRCP99
0122549160999992000050403004+35570+116850FM-12+005399999V0201401N003012200019N0100001N1+02731+01531101041ADDGA1001+999999999GF100991001001999999001001MD1710121+9999REMSYN054AAXX  04031 54916 42960 01403 10273 20153 40104 57012;
0175549160999992000050406004+35570+116850FM-12+005399999V0201801N004012200019N0100001N1+03161+01191100791ADDAA199000091GA1001+999999999GF100991001001999999001001KA1999N+01041MD1710251+9999REMSYN064AAXX  04061 54916 32960 01804 10316 20119 40079 57025 333 20104;EQDQ01  00002PRCP99
0122549160999992000050409004+35570+116850FM-12+005399999V0202001N005012200019N0100001N1+03151+01451100621ADDGA1001+999999999GF100991001001999999001001MD1710171+9999REMSYN054AAXX  04091 54916 42960 02005 10315 20145 40062 57017;
0152549160999992000050412004+35570+116850FM-12+005399999V0201601N004012200019N0100001N1+02651+01321100641ADDAA199000091GA1001+999999999GF100991001001999999001001MD1210021+9999REMSYN054AAXX  04121 54916 32960 01604 10265 20132 40064 52002;EQDQ01  00002PRCP99
0175549160999992000050418004+35570+116850FM-12+005399999V0201601N004012200019N0100001N1+02191+01051100751ADDAA199000091GA1001+999999999GF100991001001999999001001KA1999M+03201MD1710031+9999REMSYN064AAXX  04181 54916 32960 01604 10219 20105 40075 57003 333 10320;EQDQ01  00002PRCP99
0112549160999992000050421004+35570+116850FM-12+005399999V0201801N004012200019N0100001N1+02081+01111100791ADDGF103991031051017501001001MD1210041+9999REMSYN060AAXX  04211 54916 42760 31804 10208 20111 40079 52004 83500;
0162549160999992000050500004+35570+116850FM-12+005399999V0202701N002012200019N0100001N1+02171+01241101061ADDAA199000091GA1001+999999999GF100991001001999999001001MD1210261+0011REMSYN064AAXX  05001 54916 32960 02702 10217 20124 40106 52026 333 05103;EQDQ01  00002PRCP99
0122549160999992000050503004+35570+116850FM-12+005399999V0203601N009012200019N0100001N1+02461+01481101281ADDGA1001+999999999GF100991001001999999001001MD1210221+9999REMSYN054AAXX  05031 54916 42960 03609 10246 20148 40128 52022;
0175549160999992000050506004+35570+116850FM-12+005399999V0203601N007012200019N0100001N1+02181+01211101531ADDAA199000091GA1001+999999999GF100991001001999999001001KA1999N+02051MD1210241+9999REMSYN064AAXX  05061 54916 32960 03607 10218 20121 40153 52024 333 20205;EQDQ01  00002PRCP99
0112549160999992000050509004+35570+116850FM-12+005399999V0200401N006010900019N0100001N1+01911+00971101681ADDGF107991031051012501001021MD1210151+9999REMSYN060AAXX  05091 54916 42660 70406 10191 20097 40168 52015 83502;
0142549160999992000050512004+35570+116850FM-12+005399999V0200701N006010120019N0100001N1+01531+00201101891ADDAA199000091GF108991081051012501999999MD1210201+9999REMSYN060AAXX  05121 54916 32660 80706 10153 20020 40189 52020 885//;EQDQ01  00002PRCP99
0165549160999992000050518004+35570+116850FM-12+005399999V0203601N002010120019N0100001N1+01341+00281102251ADDAA199000091GF108991081051012501999999KA1999M+02591MD1210151+9999REMSYN070AAXX  05181 54916 32660 83602 10134 20028 40225 52015 885// 333 10259;EQDQ01  00002PRCP99
0112549160999992000050521004+35570+116850FM-12+005399999V0203401N003010120019N0100001N1+01281+00311102291ADDGF108991081051012501999999MD1210041+9999REMSYN060AAXX  05211 54916 42660 83403 10128 20031 40229 52004 885//;
0162549160999992000050600004+35570+116850FM-12+005399999V0203601N003012200019N0120001N1+01501+00421102401ADDAA199000091GA1001+999999999GF100991001001999999001001MD1210101+0131REMSYN064AAXX  06001 54916 32962 03603 10150 20042 40240 52010 333 01357;EQDQ01  00002PRCP99
0122549160999992000050603004+35570+116850FM-12+005399999V0200201N001012200019N0100001N1+01951+00171102371ADDGA1001+999999999GF100991001001999999001001MD1710021+9999REMSYN054AAXX  06031 54916 42960 00201 10195 20017 40237 57002;
0175549160999992000050606004+35570+116850FM-12+005399999V0203401N003012200019N0120001N1+02311-00251102101ADDAA199000091GA1001+999999999GF100991001001999999001001KA1999N+01121MD1710271+9999REMSYN064AAXX  06061 54916 32962 03403 10231 21025 40210 57027 333 20112;EQDQ01  00002PRCP99
0122549160999992000050609004+35570+116850FM-12+005399999V0200401N002012200019N0100001N1+02371-00021101871ADDGA1001+999999999GF100991001001999999001001MD1710231+9999REMSYN054AAXX  06091 54916 42960 00402 10237 21002 40187 57023;
0142549160999992000050612004+35570+116850FM-12+005399999V0202701N003012200019N0100001N1+02021+00271101881ADDAA199000091GF101991001001999999001021MD1210011+9999REMSYN060AAXX  06121 54916 32960 12703 10202 20027 40188 52001 80002;EQDQ01  00002PRCP99
0175549160999992000050618004+35570+116850FM-12+005399999V0201401N002012200019N0100001N1+00951+00551101861ADDAA199000091GA1001+999999999GF100991001001999999001001KA1999M+02441MD1710061+9999REMSYN064AAXX  06181 54916 32960 01402 10095 20055 40186 57006 333 10244;EQDQ01  00002PRCP99
0122549160999992000050621004+35570+116850FM-12+005399999V0201101N001012200019N0100001N1+00701+00541101821ADDGA1001+999999999GF100991001001999999001001MD1710041+9999REMSYN054AAXX  06211 54916 42960 01101 10070 20054 40182 57004;
0180549160999992000050700004+35570+116850FM-12+005399999V0201801N002012200019N0100001N1+01611+00701101921ADDAA199000091GA1001+999999999GF100991001001999999001001IA2999+00409MD1210101-0501REMSYN070AAXX  07001 54916 32960 01802 10161 20070 40192 52010 333 05501 30044;EQDQ01  00002PRCP99
0122549160999992000050703004+35570+116850FM-12+005399999V0202001N004012200019N0120001N1+02251+00321101951ADDGA1001+999999999GF100991001001999999001001MD1210031+9999REMSYN054AAXX  07031 54916 42962 02004 10225 20032 40195 52003;
0165549160999992000050706004+35570+116850FM-12+005399999V0202001N003012200019N0150001N1+02491+00651101671ADDAA199000091GF101991001001999999001021KA1999N+00631MD1710281+9999REMSYN070AAXX  07061 54916 32965 12003 10249 20065 40167 57028 80002 333 20063;EQDQ01  00002PRCP99
0112549160999992000050709004+35570+116850FM-12+005399999V0202001N004012200019N0150001N1+02561+00741101431ADDGF101991001001999999001021MD1710241+9999REMSYN060AAXX  07091 54916 42965 12004 10256 20074 40143 57024 80002;
0142549160999992000050712004+35570+116850FM-12+005399999V0201801N002012200019N0120001N1+01881+01091101431ADDAA199000091GF103991001001999999001021MD1410001+9999REMSYN060AAXX  07121 54916 32962 31802 10188 20109 40143 54000 80002;EQDQ01  00002PRCP99
0175549160999992000050718004+35570+116850FM-12+005399999V0201601N002012200019N0100001N1+01221+00821101431ADDAA199000091GA1001+999999999GF100991001001999999001001KA1999M+02601MD1710041+9999REMSYN064AAXX  07181 54916 32960 01602 10122 20082 40143 57004 333 10260;EQDQ01  00002PRCP99
0122549160999992000050721004+35570+116850FM-12+005399999V0201101N002012200019N0100001N1+01111+00621101411ADDGA1001+999999999GF100991001001999999001001MD1710021+9999REMSYN054AAXX  07211 54916 42960 01102 10111 20062 40141 57002;
0162549160999992000050800004+35570+116850FM-12+005399999V0201601N004012200019N0100001N1+01851+00921101501ADDAA199000091GA1001+999999999GF100991001001999999001001MD1210091+0041REMSYN064AAXX  08001 54916 32960 01604 10185 20092 40150 52009 333 05402;EQDQ01  00002PRCP99
0112549160999992000050803004+35570+116850FM-12+005399999V0201401N004019999999N0100001N1+02491+00761101401ADDGF105991001001999999001021MD1710101+9999REMSYN060AAXX  08031 54916 42960 51404 10249 20076 40140 57010 80002;
0165549160999992000050806004+35570+116850FM-12+005399999V0202201N002010150019N0100001N1+02521+01041101181ADDAA199000091GF108991081051017501999999KA1999N+00901MD1710221+9999REMSYN070AAXX  08061 54916 32760 82202 10252 20104 40118 57022 885// 333 20090;EQDQ01  00002PRCP99
0112549160999992000050809004+35570+116850FM-12+005399999V0203401N002010120019N0100001N1+02451+01331100981ADDGF108991081051012501999999MD1710201+9999REMSYN060AAXX  08091 54916 42660 83402 10245 20133 40098 57020 885//;
0149549160999992000050812004+35570+116850FM-12+005399999V0203401N001010120019N0100001N1+02241+01331101011ADDAA106000791AY161061GF108991081051012501999999MD1210031+9999MW1211REMSYN072AAXX  08121 54916 11660 83401 10224 20133 40101 52003 69901 72160 885//;
0172549160999992000050818004+35570+116850FM-12+005399999V0203401N003010120019N0100001N1+01641+01491100901ADDAA106000891AY161061GF108991081051012501999999KA1999M+02681MD1710161+9999MW1601REMSYN082AAXX  08181 54916 11660 83403 10164 20149 40090 57016 69981 76060 885// 333 10268;
0161549160999992000050821004+35570+116850FM-12+005399999V0203601N004010120019N0080001N1+01551+01501100761ADDAA124011291AY161031AY261031GF108991081051012501999999MD1710151+9999MW1611REMSYN076AAXX  08211 54916 41658 83604 10155 20150 40076 57015 76166 885// 333 70112;
0173549160999992000050900004+35570+116850FM-12+005399999V0203201N003010120019N0060001N1+01551+01521100751ADDAA106023191AY161061AY261061GF108991081051012501999999MD1710011-0801MW1611REMSYN088AAXX  09001 54916 11656 83203 10155 20152 40075 57001 60231 76166 885// 333 05853 70238;
0132549160999992000050903004+35570+116850FM-12+005399999V0203401N004010120019N0100001N1+01631+01481100741ADDAY161031GF108991081051012501999999MD1710011+9999MW1001REMSYN066AAXX  09031 54916 41660 83404 10163 20148 40074 57001 70060 885//;
0172549160999992000050906004+35570+116850FM-12+005399999V0203201N008010120019N0100001N1+02031+01581100611ADDAA106000191AY161061GF105991051051012501001001KA1999N+01501MD1710131+9999MW1001REMSYN082AAXX  09061 54916 11660 53208 10203 20158 40061 57013 69911 70060 85500 333 20150;
0112549160999992000050909004+35570+116850FM-12+005399999V0203201N007010120019N0100001N1+01941+01411100701ADDGF107991071051012501999999MD1210091+9999REMSYN060AAXX  09091 54916 42660 73207 10194 20141 40070 52009 875//;
0133549160999992000050912004+35570+116850FM-12+005399999V0203401N002012200019N0100001N1+01541+01211100921ADDAA199000021GA1001+999999999GF100991001001999999001001MD1210211+9999REMSYN054AAXX  09121 54916 32960 03402 10154 20121 40092 52021;
0175549160999992000050918004+35570+116850FM-12+005399999V0203201N003012200019N0100001N1+01111+00971100991ADDAA199000091GA1001+999999999GF100991001001999999001001KA1999M+02061MD1210011+9999REMSYN064AAXX  09181 54916 32960 03203 10111 20097 40099 52001 333 10206;EQDQ01  00002PRCP99
0143549160999992000050921004+35570+116850FM-12+005399999V0202901N003012200019N0100001N1+01041+00961101001ADDAA124013591GA1001+999999999GF100991001001999999001001MD1210011+9999REMSYN064AAXX  09211 54916 42960 02903 10104 20096 40100 52001 333 70135;
0149549160999992000051000004+35570+116850FM-12+005399999V0203401N002012200019N0100001N1+01311+00981101141ADDAA124001091GA1001+999999999GF100991001001999999001001MD1210141+0401REMSYN070AAXX  10001 54916 32960 03402 10131 20098 40114 52014 333 00452 70009;
0112549160999992000051003004+35570+116850FM-12+005399999V0203401N004010075019N0120001N1+01711+01021101121ADDGF107991071011008001001001MD1710021+9999REMSYN060AAXX  10031 54916 42562 73404 10171 20102 40112 57002 87100;
0165549160999992000051006004+35570+116850FM-12+005399999V0203601N004012200019N0120001N1+01961+00951100951ADDAA199000091GF101991011011008001001001KA1999N+00991MD1710171+9999REMSYN070AAXX  10061 54916 32562 13604 10196 20095 40095 57017 81100 333 20099;EQDQ01  00002PRCP99
0112549160999992000051009004+35570+116850FM-12+005399999V0200201N004012200019N0120001N1+01991+00831100941ADDGF101991001001999999001021MD1710011+9999REMSYN060AAXX  10091 54916 42962 10204 10199 20083 40094 57001 80002;
0152549160999992000051012004+35570+116850FM-12+005399999V0200701N002012200019N0100001N1+01481+01001101021ADDAA199000091GA1001+999999999GF100991001001999999001001MD1210081+9999REMSYN054AAXX  10121 54916 32960 00702 10148 20100 40102 52008;EQDQ01  00002PRCP99
0175549160999992000051018004+35570+116850FM-12+005399999V0200401N001012200019N0100001N1+00931+00851101101ADDAA199000091GA1001+999999999GF100991001001999999001001KA1999M+02031MD1710071+9999REMSYN064AAXX  10181 54916 32960 00401 10093 20085 40110 57007 333 10203;EQDQ01  00002PRCP99
0122549160999992000051021004+35570+116850FM-12+005399999V0201101N002012200019N0100001N1+00861+00821101051ADDGA1001+999999999GF100991001001999999001001MD1710051+9999REMSYN054AAXX  10211 54916 42960 01102 10086 20082 40105 57005;
0162549160999992000051100004+35570+116850FM-12+005399999V0201401N003012200019N0100001N1+01521+01091101061ADDAA199000091GA1001+999999999GF100991001001999999001001MD1210011+0011REMSYN064AAXX  11001 54916 32960 01403 10152 20109 40106 52001 333 05102;EQDQ01  00002PRCP99
0112549160999992000051103004+35570+116850FM-12+005399999V0202001N004010075019N0100001N1+01991+00921101031ADDGF106991061011008001001001MD1710031+9999REMSYN060AAXX  11031 54916 42560 62004 10199 20092 40103 57003 86100;
0165549160999992000051106004+35570+116850FM-12+005399999V0202201N005010120019N0100001N1+02031+00881100981ADDAA199000091GF108991081051012501999999KA1999N+00741MD1710051+9999REMSYN070AAXX  11061 54916 32660 82205 10203 20088 40098 57005 885// 333 20074;EQDQ01  00002PRCP99
0132549160999992000051109004+35570+116850FM-12+005399999V0201401N003010120019N0100001N1+01561+01231100711ADDAY161031GF108991081051012501999999MD1710271+9999MW1601REMSYN066AAXX  11091 54916 41660 81403 10156 20123 40071 57027 76060 885//;
0149549160999992000051112004+35570+116850FM-12+005399999V0201401N005010120019N0100001N1+01281+01191100771ADDAA106005191AY161061GF108991081051012501999999MD1210061+9999MW1601REMSYN072AAXX  11121 54916 11660 81405 10128 20119 40077 52006 60051 76060 885//;
0172549160999992000051118004+35570+116850FM-12+005399999V0201401N003010120019N0150001N1+01331+01141100571ADDAA106000191AY161061GF108991081091012501999999KA1999M+02141MD1710091+9999MW1001REMSYN082AAXX  11181 54916 11665 81403 10133 20114 40057 57009 69911 70060 889// 333 10214;
0133549160999992000051121004+35570+116850FM-12+005399999V0201601N003010120019N0100001N1+01291+01121100491ADDAA124004691GF108991081051012501999999MD1710091+9999REMSYN070AAXX  11211 54916 42660 81603 10129 20112 40049 57009 885// 333 70046;
0139549160999992000051200004+35570+116850FM-12+005399999V0202001N002010120019N0100001N1+01431+01211100481ADDAA124004691GF108991081051012501999999MD1710011-0601REMSYN076AAXX  12001 54916 32660 82002 10143 20121 40048 57001 885// 333 05651 70046;
0112549160999992000051203004+35570+116850FM-12+005399999V0203601N003019999999N0100001N1+01681+01381100481ADDGF108991081001999999071999MD1210011+9999REMSYN060AAXX  12031 54916 42960 83603 10168 20138 40048 52001 8807/;
0165549160999992000051206004+35570+116850FM-12+005399999V0203601N005010120019N0100001N1+01931+01341100531ADDAA199000091GF106991061041012501001001KA1999N+01201MD1210051+9999REMSYN070AAXX  12061 54916 32660 63605 10193 20134 40053 52005 86400 333 20120;EQDQ01  00002PRCP99
0112549160999992000051209004+35570+116850FM-12+005399999V0200401N004010120019N0100001N1+01731+01331100591ADDGF107991071041012501999999MD1210051+9999REMSYN060AAXX  12091 54916 42660 70404 10173 20133 40059 52005 874//;
0142549160999992000051212004+35570+116850FM-12+005399999V0200201N002010120019N0100001N1+01491+01251100831ADDAA199000091GF106991061051012501001001MD1210241+9999REMSYN060AAXX  12121 54916 32660 60202 10149 20125 40083 52024 86500;EQDQ01  00002PRCP99
0175549160999992000051218004+35570+116850FM-12+005399999V0200401N001012200019N0100001N1+01101+00981100991ADDAA199000091GA1001+999999999GF100991001001999999001001KA1999M+01991MD1210031+9999REMSYN064AAXX  12181 54916 32960 00401 10110 20098 40099 52003 333 10199;EQDQ01  00002PRCP99
0124549160999992000051221004+35570+116850FM-12+005399999V0200201N002019999999N0060001N1+01001+00961101041ADDGF105991001001999999001021MD1210051+9999MW1101REMSYN066AAXX  12211 54916 41956 50202 10100 20096 40104 52005 71000 80002;
0152549160999992000051300004+35570+116850FM-12+005399999V0202701N003019999999N0100001N1+01501+01051101271ADDAA199000091GF106991001001999999001021MD1210231+0081REMSYN070AAXX  13001 54916 32960 62703 10150 20105 40127 52023 80002 333 00801;EQDQ01  00002PRCP99
0122549160999992000051303004+35570+116850FM-12+005399999V0201401N002012200019N0100001N1+01831+01101101211ADDGA1001+999999999GF100991001001999999001001MD1710061+9999REMSYN054AAXX  13031 54916 42960 01402 10183 20110 40121 57006;
0175549160999992000051306004+35570+116850FM-12+005399999V0201401N002012200019N0100001N1+02151+01131101021ADDAA199000091GA1001+999999999GF100991001001999999001001KA1999N+00911MD1710191+9999REMSYN064AAXX  13061 54916 32960 01402 10215 20113 40102 57019 333 20091;EQDQ01  00002PRCP99
0112549160999992000051309004+35570+116850FM-12+005399999V0201401N003012200019N0100001N1+02271+01111100871ADDGF102991001001999999001021MD1710141+9999REMSYN060AAXX  13091 54916 42960 21403 10227 20111 40087 57014 80002;
0142549160999992000051312004+35570+116850FM-12+005399999V0201601N002019999999N0100001N1+01831+01321100931ADDAA199000091GF105991001001999999001021MD1210061+9999REMSYN060AAXX  13121 54916 32960 51602 10183 20132 40093 52006 80002;EQDQ01  00002PRCP99
0165549160999992000051318004+35570+116850FM-12+005399999V0200901N001012200019N0100001N1+01261+01071100921ADDAA199000091GF102991021051012501001001KA1999M+02321MD1710051+9999REMSYN070AAXX  13181 54916 32660 20901 10126 20107 40092 57005 82500 333 10232;EQDQ01  00002PRCP99
0112549160999992000051321004+35570+116850FM-12+005399999V0200901N004019999999N0100001N1+01281+01091100841ADDGF108991081001999999071999MD1710081+9999REMSYN060AAXX  13211 54916 42960 80904 10128 20109 40084 57008 8807/;
0165549160999992000051400004+35570+116850FM-12+005399999V0200401N004010120019N0100001N1+01451+01211100931ADDAA106000791AY161061GF108991081091012501999999MD1210091-0301MW1951REMSYN088AAXX  14001 54916 11660 80404 10145 20121 40093 52009 69901 79560 889// 333 05351 79999;
0140549160999992000051403004+35570+116850FM-12+005399999V0200901N005010120019N0100001N1+01431+01231101011ADDAY191031AY281031GF108991081091012501999999MD1210071+9999MW1291REMSYN066AAXX  14031 54916 41660 80905 10143 20123 40101 52007 72998 889//;
0180549160999992000051406004+35570+116850FM-12+005399999V0200901N004010120019N0100001N1+01551+01081100761ADDAA106006191AY191061AY281061GF108991081091012501999999KA1999N+01141MD1710251+9999MW1801REMSYN082AAXX  14061 54916 11660 80904 10155 20108 40076 57025 60061 78098 889// 333 20114;
0132549160999992000051409004+35570+116850FM-12+005399999V0201401N005019999999N0100001N1+01571+01261100661ADDAY181031GF108991001001999999001071MD1710101+9999MW1001REMSYN066AAXX  14091 54916 41960 81405 10157 20126 40066 57010 70080 80007;
0159549160999992000051412004+35570+116850FM-12+005399999V0200701N002012200019N0100001N1+01351+01111100911ADDAA106000791AY181061GA1001+999999999GF100991001001999999001001MD1210251+9999MW1001REMSYN066AAXX  14121 54916 11960 00702 10135 20111 40091 52025 69901 70080;
0164549160999992000051418004+35570+116850FM-12+005399999V0200201N003010120019N0100001N1+01281+01131100931ADDAA106000791GF108991081051012501999999KA1999M+01661MD1210041+9999MW1601REMSYN082AAXX  14181 54916 11660 80203 10128 20113 40093 52004 69901 76000 885// 333 10166;
0153549160999992000051421004+35570+116850FM-12+005399999V0200401N002010120019N0100001N1+01221+01111100911ADDAA124005691AY161031GF108991081051012501999999MD1710021+9999MW1001REMSYN076AAXX  14211 54916 41660 80402 10122 20111 40091 57002 70060 885// 333 70056;
0165549160999992000051500004+35570+116850FM-12+005399999V0200401N002010120019N0100001N1+01391+01191101131ADDAA106000791AY161061GF108991081051012501999999MD1210221+0201MW1001REMSYN088AAXX  15001 54916 11660 80402 10139 20119 40113 52022 69901 70060 885// 333 00251 70056;
0156549160999992000051506004+35570+116850FM-12+005399999V0203601N004012200019N0100001N1+02191+01471101081ADDAA199000021GA1001+999999999GF100991001001999999001001KA1999N+01191MD1710051+9999REMSYN064AAXX  15061 54916 32960 03604 10219 20147 40108 57005 333 20119;
0112549160999992000051509004+35570+116850FM-12+005399999V0203601N003019999999N0100001N1+02131+01581101111ADDGF108991081001999999021999MD1210021+9999REMSYN060AAXX  15091 54916 42960 83603 10213 20158 40111 52002 8802/;
0142549160999992000051512004+35570+116850FM-12+005399999V0202901N002019999999N0100001N1+01931+01561101331ADDAA199000091GF107991071001999999031999MD1210221+9999REMSYN060AAXX  15121 54916 32960 72902 10193 20156 40133 52022 8703/;EQDQ01  00002PRCP99
0165549160999992000051518004+35570+116850FM-12+005399999V0203401N003019999999N0100001N1+01531+01391101451ADDAA199000091GF108991001001999999001071KA1999M+02261MD1710031+9999REMSYN070AAXX  15181 54916 32960 83403 10153 20139 40145 57003 80007 333 10226;EQDQ01  00002PRCP99
0122549160999992000051521004+35570+116850FM-12+005399999V0203601N003012200019N0100001N1+01281+01111101441ADDGA1001+999999999GF100991001001999999001001MD1710021+9999REMSYN054AAXX  15211 54916 42960 03603 10128 20111 40144 57002;
0162549160999992000051600004+35570+116850FM-12+005399999V0203601N003012200019N0100001N1+01631+01171101551ADDAA199000091GA1001+999999999GF100991001001999999001001MD1210111+0041REMSYN064AAXX  16001 54916 32960 03603 10163 20117 40155 52011 333 00402;EQDQ01  00002PRCP99
0122549160999992000051603004+35570+116850FM-12+005399999V0203601N002012200019N0100001N1+02091+01271101621ADDGA1001+999999999GF100991001001999999001001MD1210081+9999REMSYN054AAXX  16031 54916 42960 03602 10209 20127 40162 52008;
0175549160999992000051606004+35570+116850FM-12+005399999V0200401N003012200019N0100001N1+02431+01321101391ADDAA199000091GA1001+999999999GF100991001001999999001001KA1999N+01231MD1710231+9999REMSYN064AAXX  16061 54916 32960 00403 10243 20132 40139 57023 333 20123;EQDQ01  00002PRCP99
0122549160999992000051609004+35570+116850FM-12+005399999V0200901N002012200019N0100001N1+02491+01141101201ADDGA1001+999999999GF100991001001999999001001MD1710191+9999REMSYN054AAXX  16091 54916 42960 00902 10249 20114 40120 57019;
0152549160999992000051612004+35570+116850FM-12+005399999V0209999C000012200019N0100001N1+01911+01211101241ADDAA199000091GA1001+999999999GF100991001001999999001001MD1210041+9999REMSYN054AAXX  16121 54916 32960 00000 10191 20121 40124 52004;EQDQ01  00002PRCP99
0175549160999992000051618004+35570+116850FM-12+005399999V0201601N002012200019N0100001N1+01471+01311101291ADDAA199000091GA1001+999999999GF100991001001999999001001KA1999M+02561MD1710031+9999REMSYN064AAXX  16181 54916 32960 01602 10147 20131 40129 57003 333 10256;EQDQ01  00002PRCP99
0134549160999992000051621004+35570+116850FM-12+005399999V0201601N002012200019N0060001N1+01421+01271101291ADDGA1001+999999999GF100991001001999999001001MD1410001+9999MW1101REMSYN060AAXX  16211 54916 41956 01602 10142 20127 40129 54000 71000;
0174549160999992000051700004+35570+116850FM-12+005399999V0201601N004012200019N0070001N1+01841+01571101271ADDAA199000091GA1001+999999999GF100991001001999999001001MD1710021+0031MW1101REMSYN070AAXX  17001 54916 31957 01604 10184 20157 40127 57002 71000 333 05302;EQDQ01  00002PRCP99
0112549160999992000051703004+35570+116850FM-12+005399999V0201801N007012200019N0100001N1+02401+01281101181ADDGF101991001001999999001021MD1710081+9999REMSYN060AAXX  17031 54916 42960 11807 10240 20128 40118 57008 80002;
0165549160999992000051706004+35570+116850FM-12+005399999V0201801N006012200019N0120001N1+02621+01071100911ADDAA199000091GF101991001001999999001021KA1999N+01211MD1710281+9999REMSYN070AAXX  17061 54916 32962 11806 10262 20107 40091 57028 80002 333 20121;EQDQ01  00002PRCP99
0112549160999992000051709004+35570+116850FM-12+005399999V0201601N006012200019N0120001N1+02571+01121100691ADDGF104991001001999999001021MD1710221+9999REMSYN060AAXX  17091 54916 42962 41606 10257 20112 40069 57022 80002;
0142549160999992000051712004+35570+116850FM-12+005399999V0201601N004010150019N0100001N1+02191+01121100781ADDAA199000091GF108991081051017501999999MD1210091+9999REMSYN060AAXX  17121 54916 32760 81604 10219 20112 40078 52009 885//;EQDQ01  00002PRCP99
0165549160999992000051718004+35570+116850FM-12+005399999V0201801N003012200019N0100001N1+01991+01331100631ADDAA199000091GF104991041051012501001001KA1999M+02721MD1710081+9999REMSYN070AAXX  17181 54916 32660 41803 10199 20133 40063 57008 84500 333 10272;EQDQ01  00002PRCP99
0112549160999992000051721004+35570+116850FM-12+005399999V0201801N003010120019N0100001N1+01811+01381100561ADDGF107991071041012501999999MD1710071+9999REMSYN060AAXX  17211 54916 42660 71803 10181 20138 40056 57007 874//;
0152549160999992000051800004+35570+116850FM-12+005399999V0201801N003010120019N0100001N1+02031+01511100591ADDAA199000091GF108991081051012501999999MD1210031+0071REMSYN070AAXX  18001 54916 32660 81803 10203 20151 40059 52003 885// 333 05702;EQDQ01  00002PRCP99
0122549160999992000051803004+35570+116850FM-12+005399999V0203401N003012200019N0100001N1+02491+01711100511ADDGA1001+999999999GF100991001001999999001001MD1710081+9999REMSYN054AAXX  18031 54916 42960 03403 10249 20171 40051 57008;
0175549160999992000051806004+35570+116850FM-12+005399999V0203201N006012200019N0100001N1+02731+00522100431ADDAA199000091GA1001+999999999GF100991001001999999001001KA1999N+01741MD1710081+9999REMSYN064AAXX  18061 54916 32960 03206 10273 20052 40043 57008 333 20174;EQDQ01  00002PRCP99
0122549160999992000051809004+35570+116850FM-12+005399999V0202901N003012200019N0120001N1+02701+00521100411ADDGA1001+999999999GF100991001001999999001001MD1710021+9999REMSYN054AAXX  18091 54916 42962 02903 10270 20052 40041 57002;
0152549160999992000051812004+35570+116850FM-12+005399999V0209999C000012200019N0120001N1+02011+01091100511ADDAA199000091GA1001+999999999GF100991001001999999001001MD1210101+9999REMSYN054AAXX  18121 54916 32962 00000 10201 20109 40051 52010;EQDQ01  00002PRCP99
0175549160999992000051818004+35570+116850FM-12+005399999V0203201N001012200019N0100001N1+01781+00971100591ADDAA199000091GA1001+999999999GF100991001001999999001001KA1999M+02781MD1710011+9999REMSYN064AAXX  18181 54916 32960 03201 10178 20097 40059 57001 333 10278;EQDQ01  00002PRCP99
0122549160999992000051821004+35570+116850FM-12+005399999V0209999C000012200019N0100001N1+01341+00971100581ADDGA1001+999999999GF100991001001999999001001MD1710011+9999REMSYN054AAXX  18211 54916 42960 00000 10134 20097 40058 57001;
0162549160999992000051900004+35570+116850FM-12+005399999V0203601N003012200019N0100001N1+01971+01121100661ADDAA199000091GA1001+999999999GF100991001001999999001001MD1210071+0011REMSYN064AAXX  19001 54916 32960 03603 10197 20112 40066 52007 333 00151;EQDQ01  00002PRCP99
0122549160999992000051903004+35570+116850FM-12+005399999V0203201N003012200019N0120001N1+02531+00581100721ADDGA1001+999999999GF100991001001999999001001MD1210071+9999REMSYN054AAXX  19031 54916 42962 03203 10253 20058 40072 52007;
0165549160999992000051906004+35570+116850FM-12+005399999V0203401N004012200019N0120001N1+02691+00851100641ADDAA199000091GF101991011011008001001001KA1999N+01301MD1710081+9999REMSYN070AAXX  19061 54916 32562 13404 10269 20085 40064 57008 81100 333 20130;EQDQ01  00002PRCP99
0112549160999992000051909004+35570+116850FM-12+005399999V0203201N002012200019N0120001N1+02741+00981100591ADDGF101991011011008001001001MD1710051+9999REMSYN060AAXX  19091 54916 42562 13202 10274 20098 40059 57005 81100;
0152549160999992000051912004+35570+116850FM-12+005399999V0202901N002012200019N0120001N1+02411+01211100771ADDAA199000091GA1001+999999999GF100991001001999999001001MD1210181+9999REMSYN054AAXX  19121 54916 32962 02902 10241 20121 40077 52018;EQDQ01  00002PRCP99
0175549160999992000051918004+35570+116850FM-12+005399999V0200901N002012200019N0100001N1+01431+01131100911ADDAA199000091GA1001+999999999GF100991001001999999001001KA1999M+02811MD1710041+9999REMSYN064AAXX  19181 54916 32960 00902 10143 20113 40091 57004 333 10281;EQDQ01  00002PRCP99
0122549160999992000051921004+35570+116850FM-12+005399999V0209999C000012200019N0100001N1+01261+01071100971ADDGA1001+999999999GF100991001001999999001001MD1210061+9999REMSYN054AAXX  19211 54916 42960 00000 10126 20107 40097 52006;
0162549160999992000052000004+35570+116850FM-12+005399999V0201401N003012200019N0100001N1+02051+01341101031ADDAA199000091GA1001+999999999GF100991001001999999001001MD1210071+0041REMSYN064AAXX  20001 54916 32960 01403 10205 20134 40103 52007 333 00401;EQDQ01  00002PRCP99
0122549160999992000052003004+35570+116850FM-12+005399999V0201401N005012200019N0100001N1+02771+01171100981ADDGA1001+999999999GF100991001001999999001001MD1710051+9999REMSYN054AAXX  20031 54916 42960 01405 10277 20117 40098 57005;
0191549160999992000052006004+35570+116850FM-12+005399999V0201801N007012200019N0100001N1+03011+00721100721ADDAA199000091GA1001+999999999GF100991001001999999001001KA1999M+99999MD1710261+9999REMSYN064AAXX  20061 54916 32960 01807 10301 20072 40072 57026 333 10122;EQDQ01  00002PRCP99Q02 +01222ATMX  
0112549160999992000052009004+35570+116850FM-12+005399999V0201801N005019999999N0100001N1+02921+01301100491ADDGF105991001001999999001021MD1710231+9999REMSYN060AAXX  20091 54916 42960 51805 10292 20130 40049 57023 80002;
0152549160999992000052012004+35570+116850FM-12+005399999V0201401N004012200019N0100001N1+02381+01321100541ADDAA199000091GA1001+999999999GF100991001001999999001001MD1210051+9999REMSYN054AAXX  20121 54916 32960 01404 10238 20132 40054 52005;EQDQ01  00002PRCP99
0175549160999992000052018004+35570+116850FM-12+005399999V0201401N004012200019N0100001N1+00951+99999100571ADDAA199000091GA1001+999999999GF100991001001999999001001KA1999M+03061MD1710021+9999REMSYN064AAXX  20181 54916 32960 01404 10095 20134 40057 57002 333 10306;EQDQ01  00002PRCP99
0122549160999992000052021004+35570+116850FM-12+005399999V0201801N004012200019N0100001N1+02081+01261100501ADDGA1001+999999999GF100991001001999999001001MD1710071+9999REMSYN054AAXX  20211 54916 42960 01804 10208 20126 40050 57007;
0162549160999992000052100004+35570+116850FM-12+005399999V0201801N005012200019N0100001N1+02501+01331100601ADDAA199000091GA1001+999999999GF100991001001999999001001MD1210101+0041REMSYN064AAXX  21001 54916 32960 01805 10250 20133 40060 52010 333 05405;EQDQ01  00002PRCP99
0122549160999992000052103004+35570+116850FM-12+005399999V0202001N006012200019N0100001N1+03081+01391100641ADDGA1001+999999999GF100991001001999999001001MD1210041+9999REMSYN054AAXX  21031 54916 42960 02006 10308 20139 40064 52004;
0165549160999992000052106004+35570+116850FM-12+005399999V0202001N007012200019N0120001N1+03511+01141100531ADDAA199000091GF101991001001999999001021KA1999N+01871MD1710111+9999REMSYN070AAXX  21061 54916 32962 12007 10351 20114 40053 57011 80002 333 20187;EQDQ01  00002PRCP99
0112549160999992000052109004+35570+116850FM-12+005399999V0202201N004012200019N0120001N1+03451+01221100401ADDGF102991001001999999001021MD1710131+9999REMSYN060AAXX  21091 54916 42962 22204 10345 20122 40040 57013 80002;
0152549160999992000052112004+35570+116850FM-12+005399999V0201601N002012200019N0120001N1+02531+01721100501ADDAA199000091GA1001+999999999GF100991001001999999001001MD1210101+9999REMSYN054AAXX  21121 54916 32962 01602 10253 20172 40050 52010;EQDQ01  00002PRCP99
0175549160999992000052118004+35570+116850FM-12+005399999V0200901N002012200019N0100001N1+01711+01381100831ADDAA199000091GA1001+999999999GF100991001001999999001001KA1999M+03541MD1210101+9999REMSYN064AAXX  21181 54916 32960 00902 10171 20138 40083 52010 333 10354;EQDQ01  00002PRCP99
0122549160999992000052121004+35570+116850FM-12+005399999V0201101N002012200019N0100001N1+01561+01211100921ADDGA1001+999999999GF100991001001999999001001MD1210081+9999REMSYN054AAXX  21211 54916 42960 01102 10156 20121 40092 52008;
0162549160999992000052200004+35570+116850FM-12+005399999V0201801N003012200019N0100001N1+02471+01291101001ADDAA199000091GA1001+999999999GF100991001001999999001001MD1210081+0041REMSYN064AAXX  22001 54916 32960 01803 10247 20129 40100 52008 333 00400;EQDQ01  00002PRCP99
0122549160999992000052203004+35570+116850FM-12+005399999V0201801N004012200019N0100001N1+03041+01441101011ADDGA1001+999999999GF100991001001999999001001MD1210021+9999REMSYN054AAXX  22031 54916 42960 01804 10304 20144 40101 52002;
0165549160999992000052206004+35570+116850FM-12+005399999V0202201N004019999999N0100001N1+03311+01371100861ADDAA199000091GF105991001001999999001021KA1999N+01471MD1710151+9999REMSYN070AAXX  22061 54916 32960 52204 10331 20137 40086 57015 80002 333 20147;EQDQ01  00002PRCP99
0112549160999992000052209004+35570+116850FM-12+005399999V0201801N004012200019N0120001N1+03281+01231100771ADDGF104991001001999999001021MD1710101+9999REMSYN060AAXX  22091 54916 42962 41804 10328 20123 40077 57010 80002;
0142549160999992000052212004+35570+116850FM-12+005399999V0201801N002019999999N0120001N1+02581+01831100771ADDAA199000091GF107991001001999999001021MD1210011+9999REMSYN060AAXX  22121 54916 32962 71802 10258 20183 40077 52001 80002;EQDQ01  00002PRCP99
0165549160999992000052218004+35570+116850FM-12+005399999V0201601N003012200019N0100001N1+02261+01451100781ADDAA199000091GF102991001001999999001021KA1999M+03401MD1710081+9999REMSYN070AAXX  22181 54916 32960 21603 10226 20145 40078 57008 80002 333 10340;EQDQ01  00002PRCP99
0112549160999992000052221004+35570+116850FM-12+005399999V0201401N003019999999N0100001N1+02001+01421100831ADDGF106991001001999999001021MD1210051+9999REMSYN060AAXX  22211 54916 42960 61403 10200 20142 40083 52005 80002;
0152549160999992000052300004+35570+116850FM-12+005399999V0201601N003012200019N0100001N1+02551+01631100891ADDAA199000091GF102991001001999999001021MD1210061+0011REMSYN070AAXX  23001 54916 32960 21603 10255 20163 40089 52006 80002 333 05101;EQDQ01  00002PRCP99
0112549160999992000052303004+35570+116850FM-12+005399999V0201801N004019999999N0100001N1+03091+01621100851ADDGF107991001001999999001021MD1710041+9999REMSYN060AAXX  23031 54916 42960 71804 10309 20162 40085 57004 80002;
0165549160999992000052306004+35570+116850FM-12+005399999V0201601N005019999999N0100001N1+03411+01571100771ADDAA199000091GF107991001001999999001021KA1999N+01811MD1710081+9999REMSYN070AAXX  23061 54916 32960 71605 10341 20157 40077 57008 80002 333 20181;EQDQ01  00002PRCP99
0112549160999992000052309004+35570+116850FM-12+005399999V0202201N003019999999N0100001N1+03251+01611100631ADDGF105991001001999999001021MD1710141+9999REMSYN060AAXX  23091 54916 42960 52203 10325 20161 40063 57014 80002;
0142549160999992000052312004+35570+116850FM-12+005399999V0201601N002019999999N0100001N1+02551+01951100691ADDAA199000091GF105991001001999999001021MD1210061+9999REMSYN060AAXX  23121 54916 32960 51602 10255 20195 40069 52006 80002;EQDQ01  00002PRCP99
0175549160999992000052318004+35570+116850FM-12+005399999V0201101N002012200019N0100001N1+02011+01671100811ADDAA199000091GA1001+999999999GF100991001001999999001001KA1999M+03471MD1710011+9999REMSYN064AAXX  23181 54916 32960 01102 10201 20167 40081 57001 333 10347;EQDQ01  00002PRCP99
0122549160999992000052321004+35570+116850FM-12+005399999V0200901N003012200019N0100001N1+01801+01531100891ADDGA1001+999999999GF100991001001999999001001MD1210081+9999REMSYN054AAXX  23211 54916 42960 00903 10180 20153 40089 52008;
0162549160999992000052400004+35570+116850FM-12+005399999V0201101N002012200019N0100001N1+02601+01751100911ADDAA199000091GA1001+999999999GF100991001001999999001001MD1210021+0001REMSYN064AAXX  24001 54916 32960 01102 10260 20175 40091 52002 333 00001;EQDQ01  00002PRCP99
0122549160999992000052403004+35570+116850FM-12+005399999V0201801N003012200019N0120001N1+03191+01651100841ADDGA1001+999999999GF100991001001999999001001MD1710071+9999REMSYN054AAXX  24031 54916 42962 01803 10319 20165 40084 57007;
0175549160999992000052406004+35570+116850FM-12+005399999V0201801N005012200019N0120001N1+03421+01451100671ADDAA199000091GA1001+999999999GF100991001001999999001001KA1999N+01781MD1710171+9999REMSYN064AAXX  24061 54916 32962 01805 10342 20145 40067 57017 333 20178;EQDQ01  00002PRCP99
0112549160999992000052409004+35570+116850FM-12+005399999V0202201N004012200019N0150001N1+03441+01481100511ADDGF103991001001999999001021MD1710161+9999REMSYN060AAXX  24091 54916 42965 32204 10344 20148 40051 57016 80002;
0142549160999992000052412004+35570+116850FM-12+005399999V0201101N002019999999N0100001N1+02651+01791100541ADDAA199000091GF106991001001999999001021MD1210031+9999REMSYN060AAXX  24121 54916 32960 61102 10265 20179 40054 52003 80002;EQDQ01  00002PRCP99
0165549160999992000052418004+35570+116850FM-12+005399999V0201401N004019999999N0120001N1+02511+01661100581ADDAA199000091GF107991001001999999001021KA1999M+03501MD1710061+9999REMSYN070AAXX  24181 54916 32962 71404 10251 20166 40058 57006 80002 333 10350;EQDQ01  00002PRCP99
0122549160999992000052421004+35570+116850FM-12+005399999V0200901N004012200019N0100001N1+02181+01731100561ADDGA1001+999999999GF100991001001999999001001MD1710031+9999REMSYN054AAXX  24211 54916 42960 00904 10218 20173 40056 57003;
0152549160999992000052500004+35570+116850FM-12+005399999V0201101N004019999999N0100001N1+02481+01891100631ADDAA199000091GF105991011001999999031021MD1210071+0031REMSYN070AAXX  25001 54916 32960 51104 10248 20189 40063 52007 81032 333 05351;EQDQ01  00002PRCP99
0112549160999992000052503004+35570+116850FM-12+005399999V0201801N005019999999N0100001N1+02571+01781100631ADDGF108991001001999999001071MD1410001+9999REMSYN060AAXX  25031 54916 42960 81805 10257 20178 40063 54000 80007;
0165549160999992000052506004+35570+116850FM-12+005399999V0201101N003010900019N0100001N1+02701+02001100481ADDAA199000091GF108991021051012501001071KA1999N+02131MD1710151+9999REMSYN070AAXX  25061 54916 32660 81103 10270 20200 40048 57015 82507 333 20213;EQDQ01  00002PRCP99
0112549160999992000052509004+35570+116850FM-12+005399999V0201401N003010120019N0100001N1+02531+01901100421ADDGF108991051041012501071999MD1710071+9999REMSYN060AAXX  25091 54916 42660 81403 10253 20190 40042 57007 8547/;
0141549160999992000052512004+35570+116850FM-12+005399999V0201101N003010120019N0100001N1+02191+01831100461ADDAA106000791GF108991081051012501999999MD1210041+9999MW1211REMSYN072AAXX  25121 54916 11660 81103 10219 20183 40046 52004 69901 72100 885//;
0146549160999992000052518004+35570+116850FM-12+005399999V0200901N004010120019N0150001N1+01911+01581100541ADDAA199000021GF108991081051012501999999KA1999M+02751MD1710031+9999REMSYN070AAXX  25181 54916 32665 80904 10191 20158 40054 57003 885// 333 10275;
0133549160999992000052521004+35570+116850FM-12+005399999V0200701N005010120019N0120001N1+01851+01531100441ADDAA124000791GF108991081051012501999999MD1710101+9999REMSYN070AAXX  25211 54916 42662 80705 10185 20153 40044 57010 885// 333 79999;
0139549160999992000052600004+35570+116850FM-12+005399999V0200901N007010360019N0120001N1+01981+01531100471ADDAA124000791GF107991021011008001031999MD1210031-0201REMSYN076AAXX  26001 54916 32562 70907 10198 20153 40047 52003 8213/ 333 05255 79999;
0124549160999992000052603004+35570+116850FM-12+005399999V0200201N003010120019N0120001N1+01901+01641100561ADDGF108991081051012501999999MD1210091+9999MW1601REMSYN066AAXX  26031 54916 41662 80203 10190 20164 40056 52009 76000 885//;
0172549160999992000052606004+35570+116850FM-12+005399999V0200401N007010120019N0120001N1+01991+01631100541ADDAA106000191AY161061GF108991081051012501999999KA1999N+01821MD1710031+9999MW1601REMSYN082AAXX  26061 54916 11662 80407 10199 20163 40054 57003 69921 76060 885// 333 20182;
0132549160999992000052609004+35570+116850FM-12+005399999V0200401N005010120019N0120001N1+02161+01531100461ADDAY161031GF107991071041012501999999MD1710071+9999MW1001REMSYN066AAXX  26091 54916 41662 70405 10216 20153 40046 57007 70060 874//;
0149549160999992000052612004+35570+116850FM-12+005399999V0203601N001010900019N0120001N1+01941+01561100571ADDAA106000791AY161061GF105991021051012501001021MD1210101+9999MW1001REMSYN072AAXX  26121 54916 11662 53601 10194 20156 40057 52010 69901 70060 82502;
0146549160999992000052618004+35570+116850FM-12+005399999V0209999C000010120019N0120001N1+01861+01541100591ADDAA199000021GF107991071051012501999999KA1999M+02261MD1710061+9999REMSYN070AAXX  26181 54916 32662 70000 10186 20154 40059 57006 875// 333 10226;
0133549160999992000052621004+35570+116850FM-12+005399999V0203201N003010120019N0100001N1+01871+01551100701ADDAA124000391GF108991081051012501999999MD1210121+9999REMSYN070AAXX  26211 54916 42660 83203 10187 20155 40070 52012 885// 333 70002;
0139549160999992000052700004+35570+116850FM-12+005399999V0203601N002010120019N0100001N1+02021+01611100801ADDAA124000391GF107991071051012501999999MD1210091+0301REMSYN076AAXX  27001 54916 32660 73602 10202 20161 40080 52009 875// 333 00300 70002;
0112549160999992000052703004+35570+116850FM-12+005399999V0203401N005010120019N0100001N1+02291+01571100891ADDGF107991071041012501999999MD1210101+9999REMSYN060AAXX  27031 54916 42660 73405 10229 20157 40089 52010 874//;
0165549160999992000052706004+35570+116850FM-12+005399999V0203201N005010075019N0120001N1+02311+01531100871ADDAA199000091GF106991061011008001001001KA1999N+01791MD1710021+9999REMSYN070AAXX  27061 54916 32562 63205 10231 20153 40087 57002 86100 333 20179;EQDQ01  00002PRCP99
0112549160999992000052709004+35570+116850FM-12+005399999V0203601N005010120019N0120001N1+02181+01421100911ADDGF107991071041012501999999MD1210031+9999REMSYN060AAXX  27091 54916 42662 73605 10218 20142 40091 52003 874//;
0142549160999992000052712004+35570+116850FM-12+005399999V0203601N003012200019N0120001N1+01791+01451101071ADDAA199000091GF104991001001999999001021MD1210161+9999REMSYN060AAXX  27121 54916 32962 43603 10179 20145 40107 52016 80002;EQDQ01  00002PRCP99
0165549160999992000052718004+35570+116850FM-12+005399999V0209999C000019999999N0100001N1+01441+01351101231ADDAA199000091GF107991001001999999001021KA1999M+02391MD1410001+9999REMSYN070AAXX  27181 54916 32960 70000 10144 20135 40123 54000 80002 333 10239;EQDQ01  00002PRCP99
0112549160999992000052721004+35570+116850FM-12+005399999V0209999C000019999999N0100001N1+01391+01321101271ADDGF106991001001999999001021MD1210041+9999REMSYN060AAXX  27211 54916 42960 60000 10139 20132 40127 52004 80002;
0152549160999992000052800004+35570+116850FM-12+005399999V0201801N001019999999N0100001N1+01911+01391101391ADDAA199000091GF108991001001999999001071MD1210121+0061REMSYN070AAXX  28001 54916 32960 81801 10191 20139 40139 52012 80007 333 00651;EQDQ01  00002PRCP99
0112549160999992000052803004+35570+116850FM-12+005399999V0202501N003019999999N0100001N1+02521+00991101361ADDGF108991001001999999001071MD1710031+9999REMSYN060AAXX  28031 54916 42960 82503 10252 20099 40136 57003 80007;
0165549160999992000052806004+35570+116850FM-12+005399999V0202201N004019999999N0120001N1+02641+01001101241ADDAA199000091GF108991001001999999001071KA1999N+01341MD1710121+9999REMSYN070AAXX  28061 54916 32962 82204 10264 20100 40124 57012 80007 333 20134;EQDQ01  00002PRCP99
0112549160999992000052809004+35570+116850FM-12+005399999V0202201N004019999999N0100001N1+02751+00991101201ADDGF107991001001999999001021MD1710041+9999REMSYN060AAXX  28091 54916 42960 72204 10275 20099 40120 57004 80002;
0142549160999992000052812004+35570+116850FM-12+005399999V0202001N003019999999N0100001N1+02371+01241101261ADDAA199000091GF107991001001999999001021MD1210061+9999REMSYN060AAXX  28121 54916 32960 72003 10237 20124 40126 52006 80002;EQDQ01  00002PRCP99
0165549160999992000052818004+35570+116850FM-12+005399999V0202201N003012200019N0100001N1+02021+01201101321ADDAA199000091GF101991011001999999031001KA1999M+02771MD1710051+9999REMSYN070AAXX  28181 54916 32960 12203 10202 20120 40132 57005 81030 333 10277;EQDQ01  00002PRCP99
0112549160999992000052821004+35570+116850FM-12+005399999V0201401N002019999999N0100001N1+01551+01341101391ADDGF106991061001999999031001MD1210061+9999REMSYN060AAXX  28211 54916 42960 61402 10155 20134 40139 52006 86030;
0152549160999992000052900004+35570+116850FM-12+005399999V0202201N002012200019N0120001N1+02131+01291101361ADDAA199000091GF101991011001999999031001MD1710021+0001REMSYN070AAXX  29001 54916 32962 12202 10213 20129 40136 57002 81030 333 00002;EQDQ01  00002PRCP99
0112549160999992000052903004+35570+116850FM-12+005399999V0202201N003019999999N0120001N1+02531+01051101321ADDGF106991061001999999031001MD1710041+9999REMSYN060AAXX  29031 54916 42962 62203 10253 20105 40132 57004 86030;
0165549160999992000052906004+35570+116850FM-12+005399999V0202001N004019999999N0150001N1+02351+01111101191ADDAA199000091GF107991071001999999031999KA1999N+01511MD1710131+9999REMSYN070AAXX  29061 54916 32965 72004 10235 20111 40119 57013 8703/ 333 20151;EQDQ01  00002PRCP99
0112549160999992000052909004+35570+116850FM-12+005399999V0203201N001010150019N0150001N1+02201+01301101001ADDGF108991081051017501999999MD1710201+9999REMSYN060AAXX  29091 54916 42765 83201 10220 20130 40100 57020 885//;
0142549160999992000052912004+35570+116850FM-12+005399999V0201101N001010150019N0150001N1+02001+01381100881ADDAA199000091GF108991081051017501999999MD1710111+9999REMSYN060AAXX  29121 54916 32765 81101 10200 20138 40088 57011 885//;EQDQ01  00002PRCP99
0165549160999992000052918004+35570+116850FM-12+005399999V0201801N003010120019N0120001N1+01821+01481100681ADDAA199000091GF108991081051012501999999KA1999M+02651MD1710091+9999REMSYN070AAXX  29181 54916 32662 81803 10182 20148 40068 57009 885// 333 10265;EQDQ01  00002PRCP99
0153549160999992000052921004+35570+116850FM-12+005399999V0201401N003010120019N0100001N1+01611+01591100561ADDAA124000791AY161031GF108991081051012501999999MD1710131+9999MW1601REMSYN076AAXX  29211 54916 41660 81403 10161 20159 40056 57013 76060 885// 333 79999;
0165549160999992000053000004+35570+116850FM-12+005399999V0201401N003010120019N0100001N1+01671+01651100581ADDAA106000191AY161061GF108991081051012501999999MD1210021-0801MW1601REMSYN088AAXX  30001 54916 11660 81403 10167 20165 40058 52002 69921 76060 885// 333 05855 70002;
0132549160999992000053003004+35570+116850FM-12+005399999V0201601N003019999999N0080001N1+01801+01671100541ADDAY161031GF108991081001999999021999MD1710031+9999MW1101REMSYN066AAXX  30031 54916 41958 81603 10180 20167 40054 57003 71060 8802/;
0172549160999992000053006004+35570+116850FM-12+005399999V0201401N004019999999N0080001N1+01941+01751100381ADDAA106000791AY161061GF108991081001999999071999KA1999N+01601MD1710171+9999MW1101REMSYN082AAXX  30061 54916 11958 81404 10194 20175 40038 57017 69901 71060 8807/ 333 20160;
0112549160999992000053009004+35570+116850FM-12+005399999V0201401N003019999999N0100001N1+02201+01671100241ADDGF108991081001999999071999MD1710131+9999REMSYN060AAXX  30091 54916 42960 81403 10220 20167 40024 57013 8807/;
0123549160999992000053012004+35570+116850FM-12+005399999V0201401N002019999999N0100001N1+01931+01671100341ADDAA199000021GF107991001001999999001021MD1210091+9999REMSYN060AAXX  30121 54916 32960 71402 10193 20167 40034 52009 80002;
0165549160999992000053018004+35570+116850FM-12+005399999V0200901N002012200019N0100001N1+01611+01541100431ADDAA199000091GF104991001001999999001021KA1999M+02241MD1710071+9999REMSYN070AAXX  30181 54916 32960 40902 10161 20154 40043 57007 80002 333 10224;EQDQ01  00002PRCP99
0133549160999992000053021004+35570+116850FM-12+005399999V0201101N003012200019N0100001N1+01551+01501100381ADDAA124000391GF102991001001999999001021MD1710051+9999REMSYN070AAXX  30211 54916 42960 21103 10155 20150 40038 57005 80002 333 70002;
0161549160999992000053100004+35570+116850FM-12+005399999V0201601N005012200019N0080001N1+01911+01661100471ADDAA124000791GA1001+999999999GF100991001001999999001001MD1210091-0101MW1101REMSYN076AAXX  31001 54916 31958 01605 10191 20166 40047 52009 71000 333 05102 79999;
0122549160999992000053103004+35570+116850FM-12+005399999V0201801N005012200019N0100001N1+02341+01791100461ADDGA1001+999999999GF100991001001999999001001MD1410001+9999REMSYN054AAXX  31031 54916 42960 01805 10234 20179 40046 54000;
0165549160999992000053106004+35570+116850FM-12+005399999V0201801N005012200019N0120001N1+02711+01731100361ADDAA199000091GF101991011011008001001001KA1999N+01491MD1710101+9999REMSYN070AAXX  31061 54916 32562 11805 10271 20173 40036 57010 81100 333 20149;EQDQ01  00002PRCP99
0122549160999992000053109004+35570+116850FM-12+005399999V0201601N004012200019N0100001N1+02911+01921100221ADDGA1001+999999999GF100991001001999999001001MD1710141+9999REMSYN054AAXX  31091 54916 42960 01604 10291 20192 40022 57014;
0152549160999992000053112004+35570+116850FM-12+005399999V0201401N003012200019N0100001N1+02531+01951100261ADDAA199000091GA1001+999999999GF100991001001999999001001MD1210041+9999REMSYN054AAXX  31121 54916 32960 01403 10253 20195 40026 52004;EQDQ01  00002PRCP99
0175549160999992000053118004+35570+116850FM-12+005399999V0201401N003012200019N0100001N1+02241+01801100461ADDAA199000091GA1001+999999999GF100991001001999999001001KA1999M+02921MD1210081+9999REMSYN064AAXX  31181 54916 32960 01403 10224 20180 40046 52008 333 10292;EQDQ01  00002PRCP99
0112549160999992000053121004+35570+116850FM-12+005399999V0201101N002010120019N0100001N1+02161+01841100621ADDGF108991061041012501071999MD1210161+9999REMSYN060AAXX  31211 54916 42660 81102 10216 20184 40062 52016 8647/;
0152549160999992000060100004+35570+116850FM-12+005399999V0200901N003019999999N0100001N1+02471+01951100741ADDAA199000091GF106991001001999999001021MD1210121+0031REMSYN070AAXX  01001 54916 32960 60903 10247 20195 40074 52012 80002 333 00306;EQDQ01  00002PRCP99
0112549160999992000060103004+35570+116850FM-12+005399999V0201401N004019999999N0100001N1+02891+01821100831ADDGF108991001001999999001071MD1210091+9999REMSYN060AAXX  01031 54916 42960 81404 10289 20182 40083 52009 80007;
0142549160999992000060112004+35570+116850FM-12+005399999V0201401N002019999999N0100001N1+02601+01911100811ADDAA199000091GF108991001001999999001071MD1210101+9999REMSYN060AAXX  01121 54916 32960 81402 10260 20191 40081 52010 80007;EQDQ01  00002PRCP99
0165549160999992000060118004+35570+116850FM-12+005399999V0200701N002019999999N0100001N1+02341+02071100881ADDAA199000091GF108991081001999999071999KA1999M+03271MD1710131+9999REMSYN070AAXX  01181 54916 32960 80702 10234 20207 40088 57013 8807/ 333 10327;EQDQ01  00002PRCP99
0112549160999992000060121004+35570+116850FM-12+005399999V0200401N003019999999N0100001N1+02151+01851100911ADDGF108991001001999999071999MD1210031+9999REMSYN060AAXX  01211 54916 42960 80403 10215 20185 40091 52003 8007/;
0152549160999992000060200004+35570+116850FM-12+005399999V0200401N003019999999N0100001N1+02241+01861100951ADDAA199000091GF108991081001999999071999MD1210031+0021REMSYN070AAXX  02001 54916 32960 80403 10224 20186 40095 52003 8807/ 333 00252;EQDQ01  00002PRCP99
0112549160999992000060203004+35570+116850FM-12+005399999V0200401N002019999999N0120001N1+02811+01961100911ADDGF108991051001999999031071MD1710031+9999REMSYN060AAXX  02031 54916 42962 80402 10281 20196 40091 57003 85037;
0112549160999992000060209004+35570+116850FM-12+005399999V0200901N004019999999N0100001N1+02601+01871100821ADDGF108991081001999999071999MD1710031+9999REMSYN060AAXX  02091 54916 42960 80904 10260 20187 40082 57003 8807/;
0141549160999992000060212004+35570+116850FM-12+005399999V0200901N003019999999N0100001N1+02341+01921100891ADDAA106000791GF108991081001999999071999MD1210071+9999MW1211REMSYN072AAXX  02121 54916 11960 80903 10234 20192 40089 52007 69901 72100 8807/;
0172549160999992000060218004+35570+116850FM-12+005399999V0200401N002019999999N0100001N1+02031+01971100831ADDAA106004191AY161061GF108991081001999999071999KA1999M+03091MD1710211+9999MW1601REMSYN082AAXX  02181 54916 11960 80402 10203 20197 40083 57021 60041 76060 8807/ 333 10309;
0153549160999992000060221004+35570+116850FM-12+005399999V0200401N003010120019N0100001N1+02031+01861100811ADDAA124004391AY161031GF108991081051012501999999MD1710021+9999MW1001REMSYN076AAXX  02211 54916 41660 80403 10203 20186 40081 57002 70060 885// 333 70044;
0165549160999992000060300004+35570+116850FM-12+005399999V0200401N004012200019N0100001N1+02291+01971100851ADDAA106000791AY161061GF104991041001999999031001MD1210041-0101MW1001REMSYN088AAXX  03001 54916 11960 40404 10229 20197 40085 52004 69901 70060 84030 333 05101 70044;
0112549160999992000060303004+35570+116850FM-12+005399999V0200701N004010360019N0100001N1+02591+01811100901ADDGF107991031051012501031999MD1210051+9999REMSYN060AAXX  03031 54916 42660 70704 10259 20181 40090 52005 8353/;
0146549160999992000060306004+35570+116850FM-12+005399999V0200401N003010900019N0120001N1+02641+01871100801ADDAA199000021GF108991021041012501001071KA1999N+01991MD1710101+9999REMSYN070AAXX  03061 54916 32662 80403 10264 20187 40080 57010 82407 333 20199;
0112549160999992000060309004+35570+116850FM-12+005399999V0200901N002010360019N0100001N1+02531+01791100861ADDGF108991031041012501071999MD1210061+9999REMSYN060AAXX  03091 54916 42660 80902 10253 20179 40086 52006 8347/;
0149549160999992000060312004+35570+116850FM-12+005399999V0200901N001010120019N0100001N1+02281+01861100811ADDAA106000791AY161061GF107991071051012501001001MD1710051+9999MW1001REMSYN072AAXX  03121 54916 11660 70901 10228 20186 40081 57005 69901 70060 87500;
0165549160999992000060318004+35570+116850FM-12+005399999V0203201N001010120019N0120001N1+02081+01941100951ADDAA199000091GF108991081051012501999999KA1999M+02731MD1710081+9999REMSYN070AAXX  03181 54916 32662 83201 10208 20194 40095 57008 885// 333 10273;EQDQ01  00002PRCP99
0145549160999992000060321004+35570+116850FM-12+005399999V0200401N002019999999N0040001N1+01861+01831100941ADDAA124000791GF106991061001999999031001MD1710011+9999MW1101REMSYN076AAXX  03211 54916 41940 60402 10186 20183 40094 57001 71000 86030 333 79999;
0159549160999992000060400004+35570+116850FM-12+005399999V0200701N002010120019N0100001N1+02281+01791101061ADDAA124000791AY141061GF107991071051012501001001MD1210121+0201MW1001REMSYN082AAXX  04001 54916 31660 70702 10228 20179 40106 52012 70040 87500 333 00200 79999;
0112549160999992000060403004+35570+116850FM-12+005399999V0200401N003010150019N0100001N1+02751+01511101071ADDGF107991071051017501999999MD1210011+9999REMSYN060AAXX  04031 54916 42760 70403 10275 20151 40107 52001 875//;
0165549160999992000060406004+35570+116850FM-12+005399999V0200701N002010150019N0100001N1+02941+01521100971ADDAA199000091GF107991071051017501999999KA1999N+01821MD1710101+9999REMSYN070AAXX  04061 54916 32760 70702 10294 20152 40097 57010 875// 333 20182;EQDQ01  00002PRCP99
0112549160999992000060409004+35570+116850FM-12+005399999V0203201N003019999999N0100001N1+02771+01731100921ADDGF105991051001999999031001MD1710051+9999REMSYN060AAXX  04091 54916 42960 53203 10277 20173 40092 57005 85030;
0142549160999992000060412004+35570+116850FM-12+005399999V0203401N002019999999N0100001N1+02491+01851100961ADDAA199000091GF107991071001999999031999MD1210041+9999REMSYN060AAXX  04121 54916 32960 73402 10249 20185 40096 52004 8703/;EQDQ01  00002PRCP99
0165549160999992000060418004+35570+116850FM-12+005399999V0201801N002019999999N0100001N1+02211+01901100941ADDAA199000091GF108991081001999999071999KA1999M+03011MD1710021+9999REMSYN070AAXX  04181 54916 32960 81802 10221 20190 40094 57002 8807/ 333 10301;EQDQ01  00002PRCP99
0112549160999992000060421004+35570+116850FM-12+005399999V0202001N002019999999N0100001N1+02211+01861101021ADDGF108991081001999999071999MD1210071+9999REMSYN060AAXX  04211 54916 42960 82002 10221 20186 40102 52007 8807/;
0152549160999992000060500004+35570+116850FM-12+005399999V0202501N003012200019N0100001N1+02431+01851101111ADDAA199000091GF102991021001999999031001MD1210091+0011REMSYN070AAXX  05001 54916 32960 22503 10243 20185 40111 52009 82030 333 00102;EQDQ01  00002PRCP99
0112549160999992000060503004+35570+116850FM-12+005399999V0201801N002019999999N0100001N1+02781+01891101071ADDGF106991061001999999031001MD1710041+9999REMSYN060AAXX  05031 54916 42960 61802 10278 20189 40107 57004 86030;
0164549160999992000060506004+35570+116850FM-12+005399999V0202701N003010120019N0120001N1+02921+01791100871ADDAA106000791GF108991071041012501071999KA1999N+02021MD1710191+9999MW1801REMSYN082AAXX  05061 54916 11662 82703 10292 20179 40087 57019 69901 78000 8747/ 333 20202;
0132549160999992000060509004+35570+116850FM-12+005399999V0201401N003010120019N0100001N1+02481+01771100881ADDAY181031GF107991071041012501999999MD1410001+9999MW1001REMSYN066AAXX  05091 54916 41660 71403 10248 20177 40088 54000 70080 874//;
0157549160999992000060512004+35570+116850FM-12+005399999V0201601N003010120019N0100001N1+02211+01751100921ADDAA106000791AY191061AY281061GF108991061041012501071999MD1210041+9999MW1001REMSYN072AAXX  05121 54916 11660 81603 10221 20175 40092 52004 69901 70098 8647/;
0156549160999992000060518004+35570+116850FM-12+005399999V0209999C000012200019N0100001N1+01811+01681101031ADDAA199000021GA1001+999999999GF100991001001999999001001KA1999M+03031MD1710061+9999REMSYN064AAXX  05181 54916 32960 00000 10181 20168 40103 57006 333 10303;
0143549160999992000060521004+35570+116850FM-12+005399999V0201101N002012200019N0100001N1+01741+01641100971ADDAA124000791GA1001+999999999GF100991001001999999001001MD1710061+9999REMSYN064AAXX  05211 54916 42960 01102 10174 20164 40097 57006 333 79999;
0149549160999992000060600004+35570+116850FM-12+005399999V0201401N002012200019N0100001N1+02311+01791101051ADDAA124000791GA1001+999999999GF100991001001999999001001MD1210081-0101REMSYN070AAXX  06001 54916 32960 01402 10231 20179 40105 52008 333 05151 79999;
0122549160999992000060603004+35570+116850FM-12+005399999V0202201N003012200019N0100001N1+02781+01781100911ADDGA1001+999999999GF100991001001999999001001MD1710141+9999REMSYN054AAXX  06031 54916 42960 02203 10278 20178 40091 57014;
0165549160999992000060606004+35570+116850FM-12+005399999V0201801N005012200019N0120001N1+03171+01561100731ADDAA199000091GF101991011011008001001001KA1999N+01631MD1710171+9999REMSYN070AAXX  06061 54916 32562 11805 10317 20156 40073 57017 81100 333 20163;EQDQ01  00002PRCP99
0122549160999992000060609004+35570+116850FM-12+005399999V0201801N005012200019N0120001N1+03221+01611100561ADDGA1001+999999999GF100991001001999999001001MD1710171+9999REMSYN054AAXX  06091 54916 42962 01805 10322 20161 40056 57017;
0152549160999992000060612004+35570+116850FM-12+005399999V0201801N003012200019N0100001N1+02931+01711100611ADDAA199000091GA1001+999999999GF100991001001999999001001MD1210051+9999REMSYN054AAXX  06121 54916 32960 01803 10293 20171 40061 52005;EQDQ01  00002PRCP99
0165549160999992000060618004+35570+116850FM-12+005399999V0201801N002012200019N0120001N1+02381+01651100551ADDAA199000091GF104991001001999999001021KA1999M+03281MD1710121+9999REMSYN070AAXX  06181 54916 32962 41802 10238 20165 40055 57012 80002 333 10328;EQDQ01  00002PRCP99
0112549160999992000060621004+35570+116850FM-12+005399999V0201801N004012200019N0100001N1+02081+01581100541ADDGF102991001001999999001021MD1710011+9999REMSYN060AAXX  06211 54916 42960 21804 10208 20158 40054 57001 80002;
0152549160999992000060700004+35570+116850FM-12+005399999V0201801N005012200019N0100001N1+02471+01521100421ADDAA199000091GF104991001001999999001021MD1710121+0061REMSYN070AAXX  07001 54916 32960 41805 10247 20152 40042 57012 80002 333 05602;EQDQ01  00002PRCP99
0112549160999992000060703004+35570+116850FM-12+005399999V0201801N006012200019N0100001N1+03011+01531100341ADDGF101991001001999999001021MD1710081+9999REMSYN060AAXX  07031 54916 42960 11806 10301 20153 40034 57008 80002;
0165549160999992000060706004+35570+116850FM-12+005399999V0201801N005019999999N0120001N1+03301+01581100101ADDAA199000091GF105991001001999999001021KA1999N+01921MD1710231+9999REMSYN070AAXX  07061 54916 32962 51805 10330 20158 40010 57023 80002 333 20192;EQDQ01  00002PRCP99
0112549160999992000060709004+35570+116850FM-12+005399999V0202201N003012200019N0120001N1+03411+01441099981ADDGF102991001001999999001021MD1710121+9999REMSYN060AAXX  07091 54916 42962 22203 10341 20144 49998 57012 80002;
0141549160999992000060712004+35570+116850FM-12+005399999V0202901N006010120019N0100001N1+02951+01681100141ADDAA106000791GF108991081091012501999999MD1210151+9999MW1251REMSYN072AAXX  07121 54916 11660 82906 10295 20168 40014 52015 69901 72500 889//;
0146549160999992000060718004+35570+116850FM-12+005399999V0203401N002010120019N0100001N1+02351+01801100031ADDAA199000021GF108991061041012501071999KA1999M+03441MD1710051+9999REMSYN070AAXX  07181 54916 32660 83402 10235 20180 40003 57005 8647/ 333 10344;
0133549160999992000060721004+35570+116850FM-12+005399999V0203201N004010120019N0100001N1+02141+01671100271ADDAA124000791GF108991061051012501071999MD1210231+9999REMSYN070AAXX  07211 54916 42660 83204 10214 20167 40027 52023 8657/ 333 79999;
0139549160999992000060800004+35570+116850FM-12+005399999V0203201N003010120019N0100001N1+02251+01791100321ADDAA124000791GF106991051051012501031001MD1210051-0101REMSYN076AAXX  08001 54916 32660 63203 10225 20179 40032 52005 85530 333 05152 79999;
0112549160999992000060803004+35570+116850FM-12+005399999V0201401N002012200019N0150001N1+02911+01621100281ADDGF101991001001999999001021MD1710041+9999REMSYN060AAXX  08031 54916 42965 11402 10291 20162 40028 57004 80002;
0165549160999992000060806004+35570+116850FM-12+005399999V0203201N004012200019N0150001N1+03311+01191100111ADDAA199000091GF101991011011008001001001KA1999N+02081MD1710161+9999REMSYN070AAXX  08061 54916 32565 13204 10331 20119 40011 57016 81100 333 20208;EQDQ01  00002PRCP99
0122549160999992000060809004+35570+116850FM-12+005399999V0203601N001012200019N0150001N1+03401+01031100021ADDGA1001+999999999GF100991001001999999001001MD1710091+9999REMSYN054AAXX  08091 54916 42965 03601 10340 20103 40002 57009;
0152549160999992000060812004+35570+116850FM-12+005399999V0201801N002012200019N0150001N1+02641+01351100071ADDAA199000091GA1001+999999999GF100991001001999999001001MD1210041+9999REMSYN054AAXX  08121 54916 32965 01802 10264 20135 40007 52004;EQDQ01  00002PRCP99
0175549160999992000060818004+35570+116850FM-12+005399999V0202201N003012200019N0100001N1+02451+01751100241ADDAA199000091GA1001+999999999GF100991001001999999001001KA1999M+03511MD1210061+9999REMSYN064AAXX  08181 54916 32960 02203 10245 20175 40024 52006 333 10351;EQDQ01  00002PRCP99
0112549160999992000060821004+35570+116850FM-12+005399999V0200901N001010120019N0100001N1+01951+01741100381ADDGF107991071051012501999999MD1210131+9999REMSYN060AAXX  08211 54916 42660 70901 10195 20174 40038 52013 875//;
0162549160999992000060900004+35570+116850FM-12+005399999V0200401N006012200019N0100001N1+02311+01651100621ADDAA199000091GA1001+999999999GF100991001001999999001001MD1210241+0031REMSYN064AAXX  09001 54916 32960 00406 10231 20165 40062 52024 333 00301;EQDQ01  00002PRCP99
0122549160999992000060903004+35570+116850FM-12+005399999V0200401N007012200019N0100001N1+02751+01631100681ADDGA1001+999999999GF100991001001999999001001MD1210061+9999REMSYN054AAXX  09031 54916 42960 00407 10275 20163 40068 52006;
0165549160999992000060906004+35570+116850FM-12+005399999V0200201N004012200019N0120001N1+03041+01131100631ADDAA199000091GF101991011011008001001001KA1999N+01911MD1710051+9999REMSYN070AAXX  09061 54916 32562 10204 10304 20113 40063 57005 81100 333 20191;EQDQ01  00002PRCP99
0122549160999992000060909004+35570+116850FM-12+005399999V0200401N003012200019N0120001N1+03041+01051100581ADDGA1001+999999999GF100991001001999999001001MD1710051+9999REMSYN054AAXX  09091 54916 42962 00403 10304 20105 40058 57005;
0142549160999992000060912004+35570+116850FM-12+005399999V0200401N004019999999N0100001N1+02571+01211100821ADDAA199000091GF106991001001999999001021MD1210231+9999REMSYN060AAXX  09121 54916 32960 60404 10257 20121 40082 52023 80002;EQDQ01  00002PRCP99
0165549160999992000060918004+35570+116850FM-12+005399999V0200401N002019999999N0100001N1+02011+01171101091ADDAA199000091GF107991071001999999031999KA1999M+03121MD1410001+9999REMSYN070AAXX  09181 54916 32960 70402 10201 20117 40109 54000 8703/ 333 10312;EQDQ01  00002PRCP99
0112549160999992000060921004+35570+116850FM-12+005399999V0200201N002019999999N0100001N1+01701+01001101131ADDGF106991001001999999001021MD1210041+9999REMSYN060AAXX  09211 54916 42960 60202 10170 20100 40113 52004 80002;
0152549160999992000061000004+35570+116850FM-12+005399999V0200701N002019999999N0120001N1+02201+00491101191ADDAA199000091GF105991001001999999001021MD1210061+0061REMSYN070AAXX  10001 54916 32962 50702 10220 20049 40119 52006 80002 333 00651;EQDQ01  00002PRCP99
0112549160999992000061003004+35570+116850FM-12+005399999V0200401N007012200019N0120001N1+02751+00091101121ADDGF101991001001999999001021MD1710071+9999REMSYN060AAXX  10031 54916 42962 10407 10275 20009 40112 57007 80002;
0165549160999992000061006004+35570+116850FM-12+005399999V0201801N002012200019N0150001N1+02991+00461100941ADDAA199000091GF102991001001999999001021KA1999N+01631MD1710181+9999REMSYN070AAXX  10061 54916 32965 21802 10299 20046 40094 57018 80002 333 20163;EQDQ01  00002PRCP99
0122549160999992000061009004+35570+116850FM-12+005399999V0201401N001012200019N0150001N1+03061+00541100781ADDGA1001+999999999GF100991001001999999001001MD1710161+9999REMSYN054AAXX  10091 54916 42965 01401 10306 20054 40078 57016;
0152549160999992000061012004+35570+116850FM-12+005399999V0200701N002012200019N0120001N1+02371+01021100881ADDAA199000091GA1001+999999999GF100991001001999999001001MD1210101+9999REMSYN054AAXX  10121 54916 32962 00702 10237 20102 40088 52010;EQDQ01  00002PRCP99
0175549160999992000061018004+35570+116850FM-12+005399999V0201401N002012200019N0120001N1+01921+01081101011ADDAA199000091GA1001+999999999GF100991001001999999001001KA1999M+03141MD1710011+9999REMSYN064AAXX  10181 54916 32962 01402 10192 20108 40101 57001 333 10314;EQDQ01  00002PRCP99
0122549160999992000061021004+35570+116850FM-12+005399999V0201401N002012200019N0100001N1+01601+01201100991ADDGA1001+999999999GF100991001001999999001001MD1710021+9999REMSYN054AAXX  10211 54916 42960 01402 10160 20120 40099 57002;
0162549160999992000061100004+35570+116850FM-12+005399999V0201401N003012200019N0120001N1+02221+01281101091ADDAA199000091GA1001+999999999GF100991001001999999001001MD1210101+0011REMSYN064AAXX  11001 54916 32962 01403 10222 20128 40109 52010 333 05100;EQDQ01  00002PRCP99
0122549160999992000061103004+35570+116850FM-12+005399999V0201401N002012200019N0120001N1+02751+01491101081ADDGA1001+999999999GF100991001001999999001001MD1710011+9999REMSYN054AAXX  11031 54916 42962 01402 10275 20149 40108 57001;
0165549160999992000061106004+35570+116850FM-12+005399999V0203601N003012200019N0120001N1+03091+01221100911ADDAA199000091GF102991021011008001001001KA1999N+01531MD1710171+9999REMSYN070AAXX  11061 54916 32562 23603 10309 20122 40091 57017 82100 333 20153;EQDQ01  00002PRCP99
0112549160999992000061109004+35570+116850FM-12+005399999V0201601N004010075019N0100001N1+02941+01331100771ADDGF105991051011008001001001MD1710141+9999REMSYN060AAXX  11091 54916 42560 51604 10294 20133 40077 57014 85100;
0157549160999992000061112004+35570+116850FM-12+005399999V0200901N002012200019N0100001N1+02061+01821100941ADDAA106003091AY191061AY281061GF101991001001999999001021MD1210171+9999MW1001REMSYN072AAXX  11121 54916 11960 10902 10206 20182 40094 52017 60031 70098 80002;
0165549160999992000061118004+35570+116850FM-12+005399999V0200401N003019999999N0100001N1+01871+01501101181ADDAA199000091GF106991001001999999001021KA1999M+03141MD1210091+9999REMSYN070AAXX  11181 54916 32960 60403 10187 20150 40118 52009 80002 333 10314;EQDQ01  00002PRCP99
0133549160999992000061121004+35570+116850FM-12+005399999V0209999C000019999999N0100001N1+01721+01411101261ADDAA124002891GF107991001001999999001021MD1210081+9999REMSYN070AAXX  11211 54916 42960 70000 10172 20141 40126 52008 80002 333 70028;
0149549160999992000061200004+35570+116850FM-12+005399999V0200401N001012200019N0100001N1+02091+01391101361ADDAA124002891GA1001+999999999GF100991001001999999001001MD1210091+0301REMSYN070AAXX  12001 54916 32960 00401 10209 20139 40136 52009 333 00351 70028;
0122549160999992000061203004+35570+116850FM-12+005399999V0200401N004012200019N0120001N1+02771+01121101251ADDGA1001+999999999GF100991001001999999001001MD1710101+9999REMSYN054AAXX  12031 54916 42962 00404 10277 20112 40125 57010;
0165549160999992000061206004+35570+116850FM-12+005399999V0200701N004012200019N0150001N1+03041+00771101041ADDAA199000091GF101991011011008001001001KA1999N+01631MD1710211+9999REMSYN070AAXX  12061 54916 32565 10704 10304 20077 40104 57021 81100 333 20163;EQDQ01  00002PRCP99
0112549160999992000061209004+35570+116850FM-12+005399999V0200201N002012200019N0150001N1+03121+00771100901ADDGF101991011011008001001001MD1710141+9999REMSYN060AAXX  12091 54916 42565 10202 10312 20077 40090 57014 81100;
0152549160999992000061212004+35570+116850FM-12+005399999V0200401N002012200019N0120001N1+02441+01161100921ADDAA199000091GA1001+999999999GF100991001001999999001001MD1210021+9999REMSYN054AAXX  12121 54916 32962 00402 10244 20116 40092 52002;EQDQ01  00002PRCP99
0175549160999992000061218004+35570+116850FM-12+005399999V0200201N001012200019N0100001N1+01671+01121101021ADDAA199000091GA1001+999999999GF100991001001999999001001KA1999M+03161MD1710051+9999REMSYN064AAXX  12181 54916 32960 00201 10167 20112 40102 57005 333 10316;EQDQ01  00002PRCP99
0122549160999992000061221004+35570+116850FM-12+005399999V0200701N002012200019N0100001N1+01461+01101101021ADDGA1001+999999999GF100991001001999999001001MD1410001+9999REMSYN054AAXX  12211 54916 42960 00702 10146 20110 40102 54000;
0162549160999992000061300004+35570+116850FM-12+005399999V0201801N001012200019N0100001N1+02321+01541101071ADDAA199000091GA1001+999999999GF100991001001999999001001MD1210051+0031REMSYN064AAXX  13001 54916 32960 01801 10232 20154 40107 52005 333 05302;EQDQ01  00002PRCP99
0122549160999992000061303004+35570+116850FM-12+005399999V0203401N004012200019N0120001N1+03081+01011100971ADDGA1001+999999999GF100991001001999999001001MD1710101+9999REMSYN054AAXX  13031 54916 42962 03404 10308 20101 40097 57010;
0175549160999992000061306004+35570+116850FM-12+005399999V0202701N001012200019N0100001N1+03281+00811100771ADDAA199000091GA1001+999999999GF100991001001999999001001KA1999N+01431MD1710201+9999REMSYN064AAXX  13061 54916 32960 02701 10328 20081 40077 57020 333 20143;EQDQ01  00002PRCP99
0122549160999992000061309004+35570+116850FM-12+005399999V0202701N002012200019N0150001N1+03401+00831100571ADDGA1001+999999999GF100991001001999999001001MD1710191+9999REMSYN054AAXX  13091 54916 42965 02702 10340 20083 40057 57019;
0152549160999992000061312004+35570+116850FM-12+005399999V0202201N003012200019N0120001N1+03031+00981100601ADDAA199000091GA1001+999999999GF100991001001999999001001MD1210031+9999REMSYN054AAXX  13121 54916 32962 02203 10303 20098 40060 52003;EQDQ01  00002PRCP99
0175549160999992000061318004+35570+116850FM-12+005399999V0201601N002012200019N0120001N1+01971+01271100611ADDAA199000091GA1001+999999999GF100991001001999999001001KA1999M+03441MD1710031+9999REMSYN064AAXX  13181 54916 32962 01602 10197 20127 40061 57003 333 10344;EQDQ01  00002PRCP99
0107549160999992000061321004+35570+116850FM-12+005399999V0201601N002012200019N0100001N1+01751+01331100651ADDGA1001+999999999GF100991001001999999001001REMSYN053AAXX  13211 54916 42960 01602 10175 20133 40065 5004;
0162549160999992000061400004+35570+116850FM-12+005399999V0202201N003012200019N0150001N1+02471+01461100681ADDAA199000091GA1001+999999999GF100991001001999999001001MD1210031+0041REMSYN064AAXX  14001 54916 32965 02203 10247 20146 40068 52003 333 05402;EQDQ01  00002PRCP99
0112549160999992000061403004+35570+116850FM-12+005399999V0202201N006019999999N0120001N1+03161+01221100581ADDGF106991001001999999001021MD1710091+9999REMSYN060AAXX  14031 54916 42962 62206 10316 20122 40058 57009 80002;
0165549160999992000061406004+35570+116850FM-12+005399999V0202001N006012200019N0120001N1+03381+01071100461ADDAA199000091GF104991001001999999001021KA1999N+01631MD1710131+9999REMSYN070AAXX  14061 54916 32962 42006 10338 20107 40046 57013 80002 333 20163;EQDQ01  00002PRCP99
0112549160999992000061409004+35570+116850FM-12+005399999V0201801N006019999999N0120001N1+03341+00981100351ADDGF106991001001999999001021MD1710111+9999REMSYN060AAXX  14091 54916 42962 61806 10334 20098 40035 57011 80002;
0142549160999992000061412004+35570+116850FM-12+005399999V0202001N003019999999N0120001N1+02971+01331100441ADDAA199000091GF105991001001999999001021MD1210091+9999REMSYN060AAXX  14121 54916 32962 52003 10297 20133 40044 52009 80002;EQDQ01  00002PRCP99
0165549160999992000061418004+35570+116850FM-12+005399999V0201801N003019999999N0120001N1+02501+01411100551ADDAA199000091GF108991001001999999001071KA1999M+03461MD1710021+9999REMSYN070AAXX  14181 54916 32962 81803 10250 20141 40055 57002 80007 333 10346;EQDQ01  00002PRCP99
0112549160999992000061421004+35570+116850FM-12+005399999V0201601N004019999999N0100001N1+02361+01571100541ADDGF107991071001999999031999MD1710021+9999REMSYN060AAXX  14211 54916 42960 71604 10236 20157 40054 57002 8703/;
0152549160999992000061500004+35570+116850FM-12+005399999V0201801N006019999999N0100001N1+02641+01761100611ADDAA199000091GF108991001001999999001071MD1210071+0011REMSYN070AAXX  15001 54916 32960 81806 10264 20176 40061 52007 80007 333 05102;EQDQ01  00002PRCP99
0112549160999992000061503004+35570+116850FM-12+005399999V0201801N005019999999N0100001N1+02991+01331100581ADDGF108991001001999999001071MD1710031+9999REMSYN060AAXX  15031 54916 42960 81805 10299 20133 40058 57003 80007;
0112549160999992000061509004+35570+116850FM-12+005399999V0201801N006019999999N0100001N1+03191+01381100411ADDGF106991001001999999001021MD1710061+9999REMSYN060AAXX  15091 54916 42960 61806 10319 20138 40041 57006 80002;
0142549160999992000061512004+35570+116850FM-12+005399999V0201801N002019999999N0100001N1+02951+01471100591ADDAA199000091GF107991001001999999001021MD1210181+9999REMSYN060AAXX  15121 54916 32960 71802 10295 20147 40059 52018 80002;EQDQ01  00002PRCP99
0175549160999992000061518004+35570+116850FM-12+005399999V0201401N003012200019N0120001N1+02221+01091100771ADDAA199000091GA1001+999999999GF100991001001999999001001KA1999M+03271MD1210021+9999REMSYN064AAXX  15181 54916 32962 01403 10222 20109 40077 52002 333 10327;EQDQ01  00002PRCP99
0122549160999992000061521004+35570+116850FM-12+005399999V0200701N002012200019N0100001N1+01851+01251100881ADDGA1001+999999999GF100991001001999999001001MD1210111+9999REMSYN054AAXX  15211 54916 42960 00702 10185 20125 40088 52011;
0162549160999992000061600004+35570+116850FM-12+005399999V0201101N004012200019N0100001N1+02591+01361100991ADDAA199000091GA1001+999999999GF100991001001999999001001MD1210111+0041REMSYN064AAXX  16001 54916 32960 01104 10259 20136 40099 52011 333 00451;EQDQ01  00002PRCP99
0112549160999992000061603004+35570+116850FM-12+005399999V0201401N004012200019N0100001N1+03111+00691100941ADDGF101991001001999999001021MD1710051+9999REMSYN060AAXX  16031 54916 42960 11404 10311 20069 40094 57005 80002;
0112549160999992000061609004+35570+116850FM-12+005399999V0201101N006012200019N0120001N1+03011+01001100941ADDGF102991001001999999001021MD1210021+9999REMSYN060AAXX  16091 54916 42962 21106 10301 20100 40094 52002 80002;
0142549160999992000061612004+35570+116850FM-12+005399999V0200901N005012200019N0120001N1+02611+01431101061ADDAA199000091GF101991001001999999001021MD1210131+9999REMSYN060AAXX  16121 54916 32962 10905 10261 20143 40106 52013 80002;EQDQ01  00002PRCP99
0165549160999992000061618004+35570+116850FM-12+005399999V0200901N003012200019N0120001N1+01981+01651101251ADDAA199000091GF101991001001999999001021KA1999M+03441MD1710011+9999REMSYN070AAXX  16181 54916 32962 10903 10198 20165 40125 57001 80002 333 10344;EQDQ01  00002PRCP99
0122549160999992000061621004+35570+116850FM-12+005399999V0200401N002012200019N0120001N1+01861+01701101291ADDGA1001+999999999GF100991001001999999001001MD1210031+9999REMSYN054AAXX  16211 54916 42962 00402 10186 20170 40129 52003;
0162549160999992000061700004+35570+116850FM-12+005399999V0200901N003012200019N0120001N1+02371+01801101451ADDAA199000091GA1001+999999999GF100991001001999999001001MD1210161+0051REMSYN064AAXX  17001 54916 32962 00903 10237 20180 40145 52016 333 00552;EQDQ01  00002PRCP99
0112549160999992000061703004+35570+116850FM-12+005399999V0200701N004019999999N0150001N1+02841+01481101461ADDGF106991001001999999001021MD1210011+9999REMSYN060AAXX  17031 54916 42965 60704 10284 20148 40146 52001 80002;
0165549160999992000061706004+35570+116850FM-12+005399999V0201101N003012200019N0150001N1+03201+01121101321ADDAA199000091GF101991001001999999001021KA1999N+01831MD1710141+9999REMSYN070AAXX  17061 54916 32965 11103 10320 20112 40132 57014 80002 333 20183;EQDQ01  00002PRCP99
0112549160999992000061709004+35570+116850FM-12+005399999V0200701N003012200019N0150001N1+03241+01061101171ADDGF101991011011008001001001MD1710151+9999REMSYN060AAXX  17091 54916 42565 10703 10324 20106 40117 57015 81100;
0152549160999992000061712004+35570+116850FM-12+005399999V0202201N003012200019N0120001N1+02931+01521101211ADDAA199000091GA1001+999999999GF100991001001999999001001MD1210051+9999REMSYN054AAXX  17121 54916 32962 02203 10293 20152 40121 52005;EQDQ01  00002PRCP99
0175549160999992000061718004+35570+116850FM-12+005399999V0201601N001012200019N0120001N1+01991+01631101361ADDAA199000091GA1001+999999999GF100991001001999999001001KA1999M+03341MD1210021+9999REMSYN064AAXX  17181 54916 32962 01601 10199 20163 40136 52002 333 10334;EQDQ01  00002PRCP99
0122549160999992000061721004+35570+116850FM-12+005399999V0209999C000012200019N0100001N1+01851+01601101331ADDGA1001+999999999GF100991001001999999001001MD1710031+9999REMSYN054AAXX  17211 54916 42960 00000 10185 20160 40133 57003;
0152549160999992000061800004+35570+116850FM-12+005399999V0203201N003012200019N0100001N1+02691+01491101411ADDAA199000091GF101991001001999999001021MD1210091+0001REMSYN070AAXX  18001 54916 32960 13203 10269 20149 40141 52009 80002 333 00003;EQDQ01  00002PRCP99
0122549160999992000061803004+35570+116850FM-12+005399999V0203401N004012200019N0120001N1+03231+01271101271ADDGA1001+999999999GF100991001001999999001001MD1710141+9999REMSYN054AAXX  18031 54916 42962 03404 10323 20127 40127 57014;
0165549160999992000061806004+35570+116850FM-12+005399999V0201101N003012200019N0150001N1+03571+00941100991ADDAA199000091GF102991001001999999001021KA1999N+01831MD1710281+9999REMSYN070AAXX  18061 54916 32965 21103 10357 20094 40099 57028 80002 333 20183;EQDQ01  00002PRCP99
0112549160999992000061809004+35570+116850FM-12+005399999V0201401N003010075019N0120001N1+03591+01141100821ADDGF106991061011008001001001MD1710171+9999REMSYN060AAXX  18091 54916 42562 61403 10359 20114 40082 57017 86100;
0142549160999992000061812004+35570+116850FM-12+005399999V0202201N003012200019N0100001N1+03231+01391100841ADDAA199000091GF102991001001999999001021MD1210021+9999REMSYN060AAXX  18121 54916 32960 22203 10323 20139 40084 52002 80002;EQDQ01  00002PRCP99
0165549160999992000061818004+35570+116850FM-12+005399999V0200901N002019999999N0150001N1+02371+01451100961ADDAA199000091GF105991001001999999001021KA1999M+03651MD1710021+9999REMSYN070AAXX  18181 54916 32965 50902 10237 20145 40096 57002 80002 333 10365;EQDQ01  00002PRCP99
0122549160999992000061821004+35570+116850FM-12+005399999V0200901N002012200019N0100001N1+02121+01591101011ADDGA1001+999999999GF100991001001999999001001MD1210051+9999REMSYN054AAXX  18211 54916 42960 00902 10212 20159 40101 52005;
0152549160999992000061900004+35570+116850FM-12+005399999V0201401N003019999999N0100001N1+02701+01791101021ADDAA199000091GF107991001001999999001021MD1210011+0041REMSYN070AAXX  19001 54916 32960 71403 10270 20179 40102 52001 80002 333 05400;EQDQ01  00002PRCP99
0112549160999992000061903004+35570+116850FM-12+005399999V0201801N002019999999N0100001N1+02981+01811100961ADDGF108991001001999999001071MD1710061+9999REMSYN060AAXX  19031 54916 42960 81802 10298 20181 40096 57006 80007;
0165549160999992000061906004+35570+116850FM-12+005399999V0201101N002019999999N0100001N1+03451+01491100801ADDAA199000091GF106991001001999999001021KA1999N+02101MD1710161+9999REMSYN070AAXX  19061 54916 32960 61102 10345 20149 40080 57016 80002 333 20210;EQDQ01  00002PRCP99
0112549160999992000061909004+35570+116850FM-12+005399999V0201101N002019999999N0100001N1+03471+01441100551ADDGF107991001001999999001021MD1710251+9999REMSYN060AAXX  19091 54916 42960 71102 10347 20144 40055 57025 80002;
0142549160999992000061912004+35570+116850FM-12+005399999V0202001N002019999999N0100001N1+03111+01651100671ADDAA199000091GF107991071001999999031999MD1210121+9999REMSYN060AAXX  19121 54916 32960 72002 10311 20165 40067 52012 8703/;EQDQ01  00002PRCP99
0165549160999992000061918004+35570+116850FM-12+005399999V0201601N003019999999N0100001N1+02671+01871100721ADDAA199000091GF107991001001999999001021KA1999M+03541MD1710051+9999REMSYN070AAXX  19181 54916 32960 71603 10267 20187 40072 57005 80002 333 10354;EQDQ01  00002PRCP99
0112549160999992000061921004+35570+116850FM-12+005399999V0200401N002012200019N0100001N1+02241+01931100701ADDGF102991021001999999031001MD1710031+9999REMSYN060AAXX  19211 54916 42960 20402 10224 20193 40070 57003 82030;
0152549160999992000062000004+35570+116850FM-12+005399999V0201401N003019999999N0100001N1+02721+02031100721ADDAA199000091GF106991061001999999031001MD1210021+0031REMSYN070AAXX  20001 54916 32960 61403 10272 20203 40072 52002 86030 333 05300;EQDQ01  00002PRCP99
0112549160999992000062003004+35570+116850FM-12+005399999V0201801N003010360019N0120001N1+03111+01841100641ADDGF106991011011008001031001MD1710081+9999REMSYN060AAXX  20031 54916 42562 61803 10311 20184 40064 57008 81130;
0165549160999992000062006004+35570+116850FM-12+005399999V0201801N004010075019N0150001N1+03341+01621100461ADDAA199000091GF106991061011008001001001KA1999N+02171MD1710171+9999REMSYN070AAXX  20061 54916 32565 61804 10334 20162 40046 57017 86100 333 20217;EQDQ01  00002PRCP99
0112549160999992000062009004+35570+116850FM-12+005399999V0201801N003010360019N0120001N1+03241+01621100321ADDGF108991021041012501071999MD1710151+9999REMSYN060AAXX  20091 54916 42662 81803 10324 20162 40032 57015 8247/;
0142549160999992000062012004+35570+116850FM-12+005399999V0202001N002019999999N0120001N1+03021+01911100451ADDAA199000091GF108991081001999999071999MD1210141+9999REMSYN060AAXX  20121 54916 32962 82002 10302 20191 40045 52014 8807/;EQDQ01  00002PRCP99
0165549160999992000062018004+35570+116850FM-12+005399999V0201801N003019999999N0100001N1+02601+01941100581ADDAA199000091GF108991081001999999071999KA1999M+03401MD1410001+9999REMSYN070AAXX  20181 54916 32960 81803 10260 20194 40058 54000 8807/ 333 10340;EQDQ01  00002PRCP99
0112549160999992000062021004+35570+116850FM-12+005399999V0201601N003019999999N0100001N1+02371+01951100581ADDGF107991071001999999031999MD1710011+9999REMSYN060AAXX  20211 54916 42960 71603 10237 20195 40058 57001 8703/;
0152549160999992000062100004+35570+116850FM-12+005399999V0200901N003019999999N0100001N1+02631+02011100631ADDAA199000091GF107991001001999999001021MD1210051+0011REMSYN070AAXX  21001 54916 32960 70903 10263 20201 40063 52005 80002 333 05151;EQDQ01  00002PRCP99
0112549160999992000062103004+35570+116850FM-12+005399999V0201801N004019999999N0120001N1+02961+02081100541ADDGF107991001001999999001021MD1710091+9999REMSYN060AAXX  21031 54916 42962 71804 10296 20208 40054 57009 80002;
0165549160999992000062106004+35570+116850FM-12+005399999V0202001N004010120019N0120001N1+03071+02011100341ADDAA199000091GF106991061041012501001001KA1999N+02351MD1710191+9999REMSYN070AAXX  21061 54916 32662 62004 10307 20201 40034 57019 86400 333 20235;EQDQ01  00002PRCP99
0112549160999992000062109004+35570+116850FM-12+005399999V0201801N003010120019N0100001N1+02891+02141100281ADDGF108991051041012501071999MD1710071+9999REMSYN060AAXX  21091 54916 42660 81803 10289 20214 40028 57007 8547/;
0149549160999992000062112004+35570+116850FM-12+005399999V0203201N004010120019N0100001N1+02191+02081100481ADDAA106005191AY181061GF108991081091012501999999MD1210201+9999MW1951REMSYN072AAXX  21121 54916 11660 83204 10219 20208 40048 52020 60051 79580 889//;
0190549160999992000062118004+35570+116850FM-12+005399999V0202001N001012200019N0150001N1+02091+02031100431ADDAA106025991AY191061AY281061GA1001+999999999GF100991001001999999001001KA1999M+03091MD1710031+9999MW1001REMSYN076AAXX  21181 54916 11965 02001 10209 20203 40043 57003 60261 70098 333 10309;
0133549160999992000062121004+35570+116850FM-12+005399999V0201401N002019999999N0100001N1+02141+02081100401ADDAA124031091GF108991081001999999021999MD1710031+9999REMSYN070AAXX  21211 54916 42960 81402 10214 20208 40040 57003 8802/ 333 70309;
0159549160999992000062200004+35570+116850FM-12+005399999V0201801N002019999999N0070001N1+02281+02191100501ADDAA124032591AY161061GF108991081001999999021999MD1210091-0101MW1611REMSYN082AAXX  22001 54916 11957 81802 10228 20219 40050 52009 76160 8802/ 333 05154 70326;
0132549160999992000062203004+35570+116850FM-12+005399999V0202001N003010075019N0080001N1+02231+02171100571ADDAY161031GF108991061071008001021999MD1210071+9999MW1611REMSYN066AAXX  22031 54916 41558 82003 10223 20217 40057 52007 76160 8672/;
0172549160999992000062206004+35570+116850FM-12+005399999V0200401N002010075019N0100001N1+02271+02171100431ADDAA106007991AY161061GF108991061071008001021999KA1999N+02011MD1710141+9999MW1211REMSYN082AAXX  22061 54916 11560 80402 10227 20217 40043 57014 60081 72160 8672/ 333 20201;
0112549160999992000062209004+35570+116850FM-12+005399999V0203601N003019999999N0100001N1+02451+02201100211ADDGF107991071001999999031999MD1710221+9999REMSYN060AAXX  22091 54916 42960 73603 10245 20220 40021 57022 8703/;
0135549160999992000062212004+35570+116850FM-12+005399999V0200401N003010120019N0100001N1+02351+02191100251ADDAA199000021GF106991061091012501001001MD1210041+9999MW1171REMSYN066AAXX  22121 54916 31660 60403 10235 20219 40025 52004 71700 86900;
0172549160999992000062218004+35570+116850FM-12+005399999V0200901N001010120019N0100001N1+02141+02081100311ADDAA106002091AY181061GF107991071041012501999999KA1999M+02491MD1210021+9999MW1001REMSYN082AAXX  22181 54916 11660 70901 10214 20208 40031 52002 60021 70080 874// 333 10249;
0133549160999992000062221004+35570+116850FM-12+005399999V0200901N001010120019N0100001N1+02171+02091100241ADDAA124011991GF107991071041012501999999MD1710071+9999REMSYN070AAXX  22211 54916 42660 70901 10217 20209 40024 57007 874// 333 70119;
0139549160999992000062300004+35570+116850FM-12+005399999V0200401N002012200019N0100001N1+02351+02121100301ADDAA124010291GF103991031041012501001001MD1210071-0201REMSYN076AAXX  23001 54916 32660 30402 10235 20212 40030 52007 83400 333 05201 70102;
0165549160999992000062306004+35570+116850FM-12+005399999V0202201N003010120019N0100001N1+02811+02131100211ADDAA199000091GF107991071041012501999999KA1999N+02121MD1710101+9999REMSYN070AAXX  23061 54916 32660 72203 10281 20213 40021 57010 874// 333 20212;EQDQ01  00002PRCP99
0112549160999992000062309004+35570+116850FM-12+005399999V0202001N001012200019N0120001N1+02941+02061100051ADDGF102991001001999999001021MD1710161+9999REMSYN060AAXX  23091 54916 42962 22001 10294 20206 40005 57016 80002;
0152549160999992000062312004+35570+116850FM-12+005399999V0201801N002012200019N0100001N1+02681+02161100161ADDAA199000091GA1001+999999999GF100991001001999999001001MD1210111+9999REMSYN054AAXX  23121 54916 32960 01802 10268 20216 40016 52011;EQDQ01  00002PRCP99
0175549160999992000062318004+35570+116850FM-12+005399999V0201401N002012200019N0100001N1+02251+02131100261ADDAA199000091GA1001+999999999GF100991001001999999001001KA1999M+02971MD1710021+9999REMSYN064AAXX  23181 54916 32960 01402 10225 20213 40026 57002 333 10297;EQDQ01  00002PRCP99
0134549160999992000062321004+35570+116850FM-12+005399999V0200901N002012200019N0080001N1+02171+02091100311ADDGA1001+999999999GF100991001001999999001001MD1210051+9999MW1101REMSYN060AAXX  23211 54916 41958 00902 10217 20209 40031 52005 71000;
0164549160999992000062400004+35570+116850FM-12+005399999V0201401N003019999999N0060001N1+02471+02221100411ADDAA199000091GF107991001001999999001021MD1210101+0011MW1101REMSYN076AAXX  24001 54916 31956 71403 10247 20222 40041 52010 71000 80002 333 00101;EQDQ01  00002PRCP99
0112549160999992000062403004+35570+116850FM-12+005399999V0201801N002019999999N0100001N1+02821+02221100311ADDGF108991001001999999001071MD1710101+9999REMSYN060AAXX  24031 54916 42960 81802 10282 20222 40031 57010 80007;
0165549160999992000062406004+35570+116850FM-12+005399999V0201601N003010120019N0100001N1+03091+02101100251ADDAA199000091GF106991061041012501001001KA1999N+02121MD1710061+9999REMSYN070AAXX  24061 54916 32660 61603 10309 20210 40025 57006 86400 333 20212;EQDQ01  00002PRCP99
0112549160999992000062409004+35570+116850FM-12+005399999V0201801N005010120019N0100001N1+03051+02051100221ADDGF105991051041012501001001MD1710031+9999REMSYN060AAXX  24091 54916 42660 51805 10305 20205 40022 57003 85400;
0152549160999992000062412004+35570+116850FM-12+005399999V0201401N002012200019N0100001N1+02691+02141100321ADDAA199000091GA1001+999999999GF100991001001999999001001MD1210101+9999REMSYN054AAXX  24121 54916 32960 01402 10269 20214 40032 52010;EQDQ01  00002PRCP99
0165549160999992000062418004+35570+116850FM-12+005399999V0209999C000010120019N0100001N1+02491+02291100401ADDAA199000091GF108991061041012501071999KA1999M+03141MD1710091+9999REMSYN070AAXX  24181 54916 32660 80000 10249 20229 40040 57009 8647/ 333 10314;EQDQ01  00002PRCP99
0112549160999992000062421004+35570+116850FM-12+005399999V0200401N002019999999N0100001N1+02431+02221100411ADDGF108991081001999999021999MD1210011+9999REMSYN060AAXX  24211 54916 42960 80402 10243 20222 40041 52001 8802/;
0164549160999992000062500004+35570+116850FM-12+005399999V0200401N003019999999N0080001N1+02551+02271100431ADDAA199000091GF107991071001999999031999MD1210021+0001MW1101REMSYN076AAXX  25001 54916 31958 70403 10255 20227 40043 52002 71000 8703/ 333 00001;EQDQ01  00002PRCP99
0112549160999992000062503004+35570+116850FM-12+005399999V0201401N003010150019N0100001N1+02751+02171100471ADDGF108991081051017501999999MD1210041+9999REMSYN060AAXX  25031 54916 42760 81403 10275 20217 40047 52004 885//;
0181549160999992000062506004+35570+116850FM-12+005399999V0201401N003010180019N0100001N1+02921+02041100381ADDAA199000091GF108991999081017501051999KA1999N+02361MD1710091+9999REMSYN070AAXX  25061 54916 32760 81403 10292 20204 40038 57009 8885/ 333 20236;EQDQ01+000082SCOTLCQ02  00002PRCP99
0112549160999992000062509004+35570+116850FM-12+005399999V0201601N002010120019N0120001N1+02871+02111100261ADDGF107991071051012501999999MD1710121+9999REMSYN060AAXX  25091 54916 42662 71602 10287 20211 40026 57012 875//;
0142549160999992000062512004+35570+116850FM-12+005399999V0202001N003019999999N0100001N1+02701+02231100411ADDAA199000091GF108991081001999999071999MD1210151+9999REMSYN060AAXX  25121 54916 32960 82003 10270 20223 40041 52015 8807/;EQDQ01  00002PRCP99
0172549160999992000062518004+35570+116850FM-12+005399999V0201401N002019999999N0100001N1+02421+02301100291ADDAA106000791AY161061GF108991081001999999071999KA1999M+03061MD1710141+9999MW1211REMSYN082AAXX  25181 54916 11960 81402 10242 20230 40029 57014 69901 72160 8807/ 333 10306;
0153549160999992000062521004+35570+116850FM-12+005399999V0200401N003010120019N0100001N1+02391+02261100231ADDAA124000791AY161031GF108991081051012501999999MD1710061+9999MW1211REMSYN076AAXX  25211 54916 41660 80403 10239 20226 40023 57006 72160 885// 333 79999;
0165549160999992000062600004+35570+116850FM-12+005399999V0200201N004010120019N0100001N1+02341+02251100151ADDAA106003091AY161061GF108991081051012501999999MD1710081-0301MW1601REMSYN088AAXX  26001 54916 11660 80204 10234 20225 40015 57008 60031 76060 885// 333 05352 70029;
0140549160999992000062603004+35570+116850FM-12+005399999V0203601N006010075019N0120001N1+02351+02231100091ADDAY161031AY261031GF108991051071008001021999MD1710061+9999MW1601REMSYN066AAXX  26031 54916 41562 83606 10235 20223 40009 57006 76066 8572/;
0172549160999992000062606004+35570+116850FM-12+005399999V0200701N004012200019N0150001N1+02921+02281100041ADDAA106006191AY161061GF104991001001999999001021KA1999N+02281MD1710051+9999MW1001REMSYN082AAXX  26061 54916 11965 40704 10292 20228 40004 57005 60061 70060 80002 333 20228;
0112549160999992000062609004+35570+116850FM-12+005399999V0201601N001019999999N0150001N1+03061+02221100001ADDGF106991021001999999031021MD1710031+9999REMSYN060AAXX  26091 54916 42965 61601 10306 20222 40000 57003 82032;
0123549160999992000062612004+35570+116850FM-12+005399999V0201401N002012200019N0120001N1+02771+02371100211ADDAA199000021GF102991001001999999001021MD1210201+9999REMSYN060AAXX  26121 54916 32962 21402 10277 20237 40021 52020 80002;
0164549160999992000062618004+35570+116850FM-12+005399999V0203201N001010150019N0100001N1+02481+02261100301ADDAA106000791GF108991081051017501999999KA1999M+03091MD1710031+9999MW1601REMSYN082AAXX  26181 54916 11760 83201 10248 20226 40030 57003 69901 76000 885// 333 10309;
0153549160999992000062621004+35570+116850FM-12+005399999V0203601N001010120019N0100001N1+02391+02291100281ADDAA124008991AY161031GF108991081051012501999999MD1710021+9999MW1001REMSYN076AAXX  26211 54916 41660 83601 10239 20229 40028 57002 70060 885// 333 70090;
0165549160999992000062700004+35570+116850FM-12+005399999V0200401N001010120019N0080001N1+02531+02301100431ADDAA106001091AY161061GF108991081051012501999999MD1210151+0301MW1601REMSYN088AAXX  27001 54916 11658 80401 10253 20230 40043 52015 60011 76060 885// 333 00302 70072;
0112549160999992000062703004+35570+116850FM-12+005399999V0202901N001010120019N0100001N1+02851+02121100411ADDGF107991071051012501999999MD1710021+9999REMSYN060AAXX  27031 54916 42660 72901 10285 20212 40041 57002 875//;
0156549160999992000062706004+35570+116850FM-12+005399999V0201401N002012200019N0100001N1+03151+02001100291ADDAA199000021GA1001+999999999GF100991001001999999001001KA1999N+02381MD1710111+9999REMSYN064AAXX  27061 54916 32960 01402 10315 20200 40029 57011 333 20238;
0112549160999992000062709004+35570+116850FM-12+005399999V0201801N002012200019N0100001N1+03221+01931100271ADDGF101991011041012501001001MD1710021+9999REMSYN060AAXX  27091 54916 42660 11802 10322 20193 40027 57002 81400;
0123549160999992000062712004+35570+116850FM-12+005399999V0201801N003019999999N0100001N1+02901+02181100381ADDAA199000021GF107991001001999999001021MD1210101+9999REMSYN060AAXX  27121 54916 32960 71803 10290 20218 40038 52010 80002;
0165549160999992000062718004+35570+116850FM-12+005399999V0201801N001019999999N0100001N1+02511+02351100451ADDAA199000091GF108991081001999999071999KA1999M+03241MD1710091+9999REMSYN070AAXX  27181 54916 32960 81801 10251 20235 40045 57009 8807/ 333 10324;EQDQ01  00002PRCP99
0145549160999992000062721004+35570+116850FM-12+005399999V0201401N002019999999N0020001N1+02401+02361100421ADDAA124001091GF107991071001999999031999MD1710031+9999MW1101REMSYN076AAXX  27211 54916 41920 71402 10240 20236 40042 57003 71000 8703/ 333 70011;
0164549160999992000062800004+35570+116850FM-12+005399999V0201801N002019999999N0030001N1+02621+02431100481ADDAA199000091GF108991081001999999071999MD1210061+0011MW1101REMSYN076AAXX  28001 54916 31930 81802 10262 20243 40048 52006 71000 8807/ 333 00101;EQDQ01  00002PRCP99
0132549160999992000062803004+35570+116850FM-12+005399999V0201801N004019999999N0080001N1+02751+02421100421ADDAY161031GF108991081001999999071999MD1710061+9999MW1211REMSYN066AAXX  28031 54916 41958 81804 10275 20242 40042 57006 72160 8807/;
0172549160999992000062806004+35570+116850FM-12+005399999V0201601N006019999999N0100001N1+02621+02271100231ADDAA106000791AY161061GF108991081001999999071999KA1999N+02381MD1710191+9999MW1601REMSYN082AAXX  28061 54916 11960 81606 10262 20227 40023 57019 69901 76060 8807/ 333 20238;
0132549160999992000062809004+35570+116850FM-12+005399999V0201401N003010120019N0040001N1+02371+02301100091ADDAY161031GF108991081051012501999999MD1710141+9999MW1601REMSYN066AAXX  28091 54916 41640 81403 10237 20230 40009 57014 76060 885//;
0149549160999992000062812004+35570+116850FM-12+005399999V0200901N002010075019N0030001N1+02351+02311100071ADDAA106019191AY161061GF108991051071008001021999MD1710021+9999MW1601REMSYN072AAXX  28121 54916 11530 80902 10235 20231 40007 57002 60191 76060 8572/;
0172549160999992000062818004+35570+116850FM-12+005399999V0202901N005010075019N0100001N1+02391+02331099941ADDAA106001091AY161061GF108991051071008001021999KA1999M+02811MD1710111+9999MW1601REMSYN082AAXX  28181 54916 11560 82905 10239 20233 49994 57011 69991 76060 8572/ 333 10281;
0153549160999992000062821004+35570+116850FM-12+005399999V0203201N003010075019N0100001N1+02171+02061099981ADDAA124021191AY161031GF108991071071008001021999MD1210041+9999MW1001REMSYN076AAXX  28211 54916 41560 83203 10217 20206 49998 52004 70060 8772/ 333 70210;
0175549160999992000062900004+35570+116850FM-12+005399999V0203201N004012200019N0100001N1+02281+02041100101ADDAA106000891AY161061GA1001+999999999GF100991001001999999001001MD1210121-0401MW1001REMSYN082AAXX  29001 54916 11960 03204 10228 20204 40010 52012 69971 70060 333 05453 70210;
0112549160999992000062903004+35570+116850FM-12+005399999V0203201N005010120019N0100001N1+02531+02081100181ADDGF105991051051012501001001MD1210081+9999REMSYN060AAXX  29031 54916 42660 53205 10253 20208 40018 52008 85500;
0146549160999992000062906004+35570+116850FM-12+005399999V0203401N004010120019N0100001N1+02771+02001100101ADDAA199000021GF106991061051012501001001KA1999N+02131MD1710081+9999REMSYN070AAXX  29061 54916 32660 63404 10277 20200 40010 57008 86500 333 20213;
0122549160999992000062909004+35570+116850FM-12+005399999V0202501N003012200019N0100001N1+02951+02091100001ADDGA1001+999999999GF100991001001999999001001MD1710101+9999REMSYN054AAXX  29091 54916 42960 02503 10295 20209 40000 57010;
0152549160999992000062912004+35570+116850FM-12+005399999V0201801N002012200019N0100001N1+02621+02161100101ADDAA199000091GA1001+999999999GF100991001001999999001001MD1210101+9999REMSYN054AAXX  29121 54916 32960 01802 10262 20216 40010 52010;EQDQ01  00002PRCP99
0175549160999992000062918004+35570+116850FM-12+005399999V0201601N003012200019N0100001N1+02311+02161100251ADDAA199000091GA1001+999999999GF100991001001999999001001KA1999M+02991MD1710011+9999REMSYN064AAXX  29181 54916 32960 01603 10231 20216 40025 57001 333 10299;EQDQ01  00002PRCP99
0112549160999992000062921004+35570+116850FM-12+005399999V0201601N002012200019N0100001N1+02301+02211100301ADDGF104991041051012501001001MD1210051+9999REMSYN060AAXX  29211 54916 42660 41602 10230 20221 40030 52005 84500;
0164549160999992000063000004+35570+116850FM-12+005399999V0200901N002010120019N0080001N1+02571+02351100471ADDAA199000091GF107991071051012501999999MD1210171+0041MW1101REMSYN076AAXX  30001 54916 31658 70902 10257 20235 40047 52017 71000 875// 333 00403;EQDQ01  00002PRCP99
0112549160999992000063003004+35570+116850FM-12+005399999V0201801N002010120019N0100001N1+02951+02421100441ADDGF106991061041012501001001MD1710031+9999REMSYN060AAXX  30031 54916 42660 61802 10295 20242 40044 57003 86400;
0165549160999992000063006004+35570+116850FM-12+005399999V0203201N001010120019N0100001N1+03131+02471100411ADDAA199000091GF107991071041012501999999KA1999N+02211MD1710031+9999REMSYN070AAXX  30061 54916 32660 73201 10313 20247 40041 57003 874// 333 20221;EQDQ01  00002PRCP99
0112549160999992000063009004+35570+116850FM-12+005399999V0201601N002012200019N0100001N1+03231+02461100291ADDGF101991011041012501001001MD1710121+9999REMSYN060AAXX  30091 54916 42660 11602 10323 20246 40029 57012 81400;
0152549160999992000063012004+35570+116850FM-12+005399999V0202001N001012200019N0100001N1+02911+02601100421ADDAA199000091GA1001+999999999GF100991001001999999001001MD1210131+9999REMSYN054AAXX  30121 54916 32960 02001 10291 20260 40042 52013;EQDQ01  00002PRCP99
0165549160999992000063018004+35570+116850FM-12+005399999V0201101N002019999999N0100001N1+02511+02441100641ADDAA199000091GF106991001001999999001021KA1999M+03291MD1710011+9999REMSYN070AAXX  30181 54916 32960 61102 10251 20244 40064 57001 80002 333 10329;EQDQ01  00002PRCP99
0134549160999992000063021004+35570+116850FM-12+005399999V0200901N002012200019N0012001N1+02301+02271100631ADDGA1001+999999999GF100991001001999999001001MD1710011+9999MW1101REMSYN060AAXX  30211 54916 41912 00902 10230 20227 40063 57001 71000;
0182549160999992000070100004+35570+116850FM-12+005399999V0201101N002012200019N0080001N1+02781+02541100731ADDAA199000091AY141061GA1001+999999999GF100991001001999999001001MD1210101+0031MW1101REMSYN070AAXX  01001 54916 31958 01102 10278 20254 40073 52010 71040 333 00302;EQDQ01  00002PRCP99
0112549160999992000070103004+35570+116850FM-12+005399999V0201401N002012200019N0100001N1+03281+02401100731ADDGF101991011011008001001001MD1210011+9999REMSYN060AAXX  01031 54916 42560 11402 10328 20240 40073 52001 81100;
0165549160999992000070106004+35570+116850FM-12+005399999V0201401N003012200019N0100001N1+03521+02091100651ADDAA199000091GF101991011011008001001001KA1999N+02291MD1710081+9999REMSYN070AAXX  01061 54916 32560 11403 10352 20209 40065 57008 81100 333 20229;EQDQ01  00002PRCP99
0112549160999992000070109004+35570+116850FM-12+005399999V0201801N003012200019N0120001N1+03531+02061100571ADDGF102991001001999999001021MD1710081+9999REMSYN060AAXX  01091 54916 42962 21803 10353 20206 40057 57008 80002;
0142549160999992000070112004+35570+116850FM-12+005399999V0201801N001019999999N0120001N1+03211+02371100611ADDAA199000091GF107991001001999999001021MD1210041+9999REMSYN060AAXX  01121 54916 32962 71801 10321 20237 40061 52004 80002;EQDQ01  00002PRCP99
0165549160999992000070118004+35570+116850FM-12+005399999V0201401N003019999999N0100001N1+02651+02491100701ADDAA199000091GF106991001001999999001021KA1999M+03601MD1710021+9999REMSYN070AAXX  01181 54916 32960 61403 10265 20249 40070 57002 80002 333 10360;EQDQ01  00002PRCP99
0112549160999992000070121004+35570+116850FM-12+005399999V0200901N002019999999N0100001N1+02561+02451100741ADDGF106991001001999999001021MD1210041+9999REMSYN060AAXX  01211 54916 42960 60902 10256 20245 40074 52004 80002;
0162549160999992000070200004+35570+116850FM-12+005399999V0201401N003012200019N0100001N1+02891+02551100831ADDAA199000091GA1001+999999999GF100991001001999999001001MD1210091+0011REMSYN064AAXX  02001 54916 32960 01403 10289 20255 40083 52009 333 00101;EQDQ01  00002PRCP99
0112549160999992000070203004+35570+116850FM-12+005399999V0201401N004010075019N0100001N1+03171+02501100881ADDGF105991051011008001001001MD1210051+9999REMSYN060AAXX  02031 54916 42560 51404 10317 20250 40088 52005 85100;
0165549160999992000070206004+35570+116850FM-12+005399999V0201401N004012200019N0100001N1+03401+02281100671ADDAA199000091GF101991011011008001001001KA1999N+02531MD1710211+9999REMSYN070AAXX  02061 54916 32560 11404 10340 20228 40067 57021 81100 333 20253;EQDQ01  00002PRCP99
0132549160999992000070209004+35570+116850FM-12+005399999V0201801N005010120019N0100001N1+03331+02221100641ADDAY181031GF106991061041012501001001MD1710031+9999MW1251REMSYN066AAXX  02091 54916 41660 61805 10333 20222 40064 57003 72580 86400;
0159549160999992000070212004+35570+116850FM-12+005399999V0201801N003012200019N0100001N1+02951+02301100821ADDAA106000791AY181061GA1001+999999999GF100991001001999999001001MD1210171+9999MW1001REMSYN066AAXX  02121 54916 11960 01803 10295 20230 40082 52017 69901 70080;
0156549160999992000070218004+35570+116850FM-12+005399999V0201101N003012200019N0100001N1+02471+02231100821ADDAA199000021GA1001+999999999GF100991001001999999001001KA1999M+03451MD1710061+9999REMSYN064AAXX  02181 54916 32960 01103 10247 20223 40082 57006 333 10345;
0133549160999992000070221004+35570+116850FM-12+005399999V0201401N002012200019N0100001N1+02401+02221100911ADDAA124000791GF104991041001999999031001MD1210091+9999REMSYN070AAXX  02211 54916 42960 41402 10240 20222 40091 52009 84030 333 79999;
0112549160999992000070303004+35570+116850FM-12+005399999V0201401N004012200019N0120001N1+03181+02051100861ADDGF102991001001999999001021MD1710041+9999REMSYN060AAXX  03031 54916 42962 21404 10318 20205 40086 57004 80002;
0165549160999992000070306004+35570+116850FM-12+005399999V0201801N004010075019N0120001N1+03321+01991100721ADDAA199000091GF106991061011008001001001KA1999N+02341MD1710141+9999REMSYN070AAXX  03061 54916 32562 61804 10332 20199 40072 57014 86100 333 20234;EQDQ01  00002PRCP99
0132549160999992000070309004+35570+116850FM-12+005399999V0201601N004010360019N0120001N1+03081+02261100631ADDAY181031GF107991031041012501031999MD1710091+9999MW1001REMSYN066AAXX  03091 54916 41662 71604 10308 20226 40063 57009 70080 8343/;
0149549160999992000070312004+35570+116850FM-12+005399999V0200901N002010120019N0100001N1+02571+02311100731ADDAA106000791AY181061GF107991071041012501999999MD1210101+9999MW1001REMSYN072AAXX  03121 54916 11660 70902 10257 20231 40073 52010 69901 70080 874//;
0165549160999992000070318004+35570+116850FM-12+005399999V0200901N003019999999N0100001N1+02541+02411100681ADDAA199000091GF107991071001999999031999KA1999M+03351MD1710111+9999REMSYN070AAXX  03181 54916 32960 70903 10254 20241 40068 57011 8703/ 333 10335;EQDQ01  00002PRCP99
0133549160999992000070321004+35570+116850FM-12+005399999V0200901N002010120019N0100001N1+02571+02441100641ADDAA124000791GF108991081051012501999999MD1710051+9999REMSYN070AAXX  03211 54916 42660 80902 10257 20244 40064 57005 885// 333 79999;
0139549160999992000070400004+35570+116850FM-12+005399999V0201401N005010120019N0100001N1+02701+02321100771ADDAA124000791GF108991061041012501071999MD1210131-0101REMSYN076AAXX  04001 54916 32660 81405 10270 20232 40077 52013 8647/ 333 05100 79999;
0112549160999992000070403004+35570+116850FM-12+005399999V0201401N005010120019N0100001N1+02811+02331100811ADDGF108991081051012501999999MD1210041+9999REMSYN060AAXX  04031 54916 42660 81405 10281 20233 40081 52004 885//;
0172549160999992000070406004+35570+116850FM-12+005399999V0200901N003010120019N0100001N1+02851+02471100731ADDAA106000191AY161061GF108991081051012501999999KA1999N+02481MD1710081+9999MW1601REMSYN082AAXX  04061 54916 11660 80903 10285 20247 40073 57008 69911 76060 885// 333 20248;
0140549160999992000070409004+35570+116850FM-12+005399999V0200901N005019999999N0100001N1+02871+02461100591ADDAY161031AY261031GF108991081001999999071999MD1710141+9999MW1211REMSYN066AAXX  04091 54916 41960 80905 10287 20246 40059 57014 72166 8807/;
0149549160999992000070412004+35570+116850FM-12+005399999V0200901N002010150019N0100001N1+02701+02401100711ADDAA106000791AY161061GF108991081051017501999999MD1210121+9999MW1001REMSYN072AAXX  04121 54916 11760 80902 10270 20240 40071 52012 69901 70060 885//;
0164549160999992000070418004+35570+116850FM-12+005399999V0200901N003010120019N0100001N1+02511+02351100901ADDAA106000791GF108991081051012501999999KA1999M+02911MD1210091+9999MW1211REMSYN082AAXX  04181 54916 11660 80903 10251 20235 40090 52009 69901 72100 885// 333 10291;
0139549160999992000070500004+35570+116850FM-12+005399999V0200901N003010120019N0100001N1+02591+02251100941ADDAA124000191GF108991081051012501999999MD1210091+0201REMSYN076AAXX  05001 54916 32660 80903 10259 20225 40094 52009 885// 333 00251 70001;
0112549160999992000070503004+35570+116850FM-12+005399999V0201101N005010120019N0150001N1+02801+02211100981ADDGF108991061041012501071999MD1210041+9999REMSYN060AAXX  05031 54916 42665 81105 10280 20221 40098 52004 8647/;
0146549160999992000070506004+35570+116850FM-12+005399999V0201101N004010120019N0120001N1+03021+02221100901ADDAA199000021GF107991071041012501999999KA1999N+02451MD1710081+9999REMSYN070AAXX  05061 54916 32662 71104 10302 20222 40090 57008 874// 333 20245;
0112549160999992000070509004+35570+116850FM-12+005399999V0201101N006012200019N0120001N1+03051+02251100791ADDGF104991041041012501001001MD1710111+9999REMSYN060AAXX  05091 54916 42662 41106 10305 20225 40079 57011 84400;
0131549160999992000070512004+35570+116850FM-12+005399999V0200901N004019999999N0100001N1+02761+02231100941ADDAA199000021AY111061AY251061GF106991061001999999031001MW1201REMSYN060AAXX  05121 54916 32960 60904 10276 20223 40094 72015 86030;
0146549160999992000070518004+35570+116850FM-12+005399999V0200901N002010120019N0100001N1+02391+02071100971ADDAA199000021GF107991071051012501999999KA1999M+03261MD1710021+9999REMSYN070AAXX  05181 54916 32660 70902 10239 20207 40097 57002 875// 333 10326;
0145549160999992000070521004+35570+116850FM-12+005399999V0200901N002010150019N0100001N1+02311+02041101031ADDAA124000791GF108991081051017501999999MD1210061+9999MW1601REMSYN076AAXX  05211 54916 41760 80902 10231 20204 40103 52006 76000 885// 333 79999;
0165549160999992000070600004+35570+116850FM-12+005399999V0200901N004010120019N0100001N1+02471+02031101081ADDAA106000791AY161061GF107991071051012501999999MD1210051+0101MW1001REMSYN088AAXX  06001 54916 11660 70904 10247 20203 40108 52005 69901 70060 875// 333 00151 79999;
0112549160999992000070603004+35570+116850FM-12+005399999V0201401N004010120019N0100001N1+02841+02081101011ADDGF107991071051012501999999MD1710071+9999REMSYN060AAXX  06031 54916 42660 71404 10284 20208 40101 57007 875//;
0146549160999992000070606004+35570+116850FM-12+005399999V0201801N003010120019N0100001N1+03191+01901100841ADDAA199000021GF106991061041012501001001KA1999N+02281MD1710171+9999REMSYN070AAXX  06061 54916 32660 61803 10319 20190 40084 57017 86400 333 20228;
0112549160999992000070609004+35570+116850FM-12+005399999V0200701N002019999999N0120001N1+03121+02021100631ADDGF106991061001999999041001MD1710211+9999REMSYN060AAXX  06091 54916 42962 60702 10312 20202 40063 57021 86040;
0142549160999992000070612004+35570+116850FM-12+005399999V0201401N001010120019N0120001N1+02831+02261100681ADDAA199000091GF107991071051012501999999MD1210051+9999REMSYN060AAXX  06121 54916 32662 71401 10283 20226 40068 52005 875//;EQDQ01  00002PRCP99
0175549160999992000070618004+35570+116850FM-12+005399999V0201101N001012200019N0100001N1+02431+02251100001ADDAA199000091GA1001+999999999GF100991001001999999001001KA1999M+03261MD1710011+9999REMSYN064AAXX  06181 54916 32960 01101 10243 20225 40000 57001 333 10326;EQDQ01  00002PRCP99
0145549160999992000070621004+35570+116850FM-12+005399999V0200401N001019999999N0080001N1+02321+02231100791ADDAA124000791GF105991051001999999031001MD1710011+9999MW1101REMSYN076AAXX  06211 54916 41958 50401 10232 20223 40079 57001 71000 85030 333 79999;
0152549160999992000070700004+35570+116850FM-12+005399999V0200901N001012200019N0100001N1+02671+02311100851ADDAA199000091GF102991001001999999001021MD1210061+0021REMSYN070AAXX  07001 54916 32960 20901 10267 20231 40085 52006 80002 333 05202;EQDQ01  00002PRCP99
0112549160999992000070703004+35570+116850FM-12+005399999V0200401N003012200019N0100001N1+03071+02311100731ADDGF104991041011008001001001MD1710121+9999REMSYN060AAXX  07031 54916 42560 40403 10307 20231 40073 57012 84100;
0165549160999992000070706004+35570+116850FM-12+005399999V0200901N001012200019N0120001N1+03311+02291100531ADDAA199000091GF104991041011008001001001KA1999N+02261MD1710201+9999REMSYN070AAXX  07061 54916 32562 40901 10331 20229 40053 57020 84100 333 20226;EQDQ01  00002PRCP99
0122549160999992000070709004+35570+116850FM-12+005399999V0203401N002012200019N0100001N1+03381+02041100391ADDGA1001+999999999GF100991001001999999001001MD1710131+9999REMSYN054AAXX  07091 54916 42960 03402 10338 20204 40039 57013;
0152549160999992000070712004+35570+116850FM-12+005399999V0202901N002012200019N0100001N1+03081+02381100431ADDAA199000091GA1001+999999999GF100991001001999999001001MD1210041+9999REMSYN054AAXX  07121 54916 32960 02902 10308 20238 40043 52004;EQDQ01  00002PRCP99
0175549160999992000070718004+35570+116850FM-12+005399999V0203401N003012200019N0100001N1+02731+02251100741ADDAA199000091GA1001+999999999GF100991001001999999001001KA1999M+03431MD1710061+9999REMSYN064AAXX  07181 54916 32960 03403 10273 20225 40074 57006 333 10343;EQDQ01  00002PRCP99
0122549160999992000070721004+35570+116850FM-12+005399999V0209999C000012200019N0100001N1+02391+02211100441ADDGA1001+999999999GF100991001001999999001001MD1710031+9999REMSYN054AAXX  07211 54916 42960 00000 10239 20221 40044 57003;
0162549160999992000070800004+35570+116850FM-12+005399999V0200701N001012200019N0100001N1+02881+02391100501ADDAA199000091GA1001+999999999GF100991001001999999001001MD1210061+0031REMSYN064AAXX  08001 54916 32960 00701 10288 20239 40050 52006 333 05302;EQDQ01  00002PRCP99
0122549160999992000070803004+35570+116850FM-12+005399999V0203201N002012200019N0150001N1+03271+02281100471ADDGA1001+999999999GF100991001001999999001001MD1710031+9999REMSYN054AAXX  08031 54916 42965 03202 10327 20228 40047 57003;
0165549160999992000070806004+35570+116850FM-12+005399999V0202701N003010900019N0150001N1+03521+02091100281ADDAA199000091GF106991011011008001001021KA1999N+02341MD1710191+9999REMSYN070AAXX  08061 54916 32565 62703 10352 20209 40028 57019 81102 333 20234;EQDQ01  00002PRCP99
0112549160999992000070809004+35570+116850FM-12+005399999V0202901N003012200019N0150001N1+03511+01931100141ADDGF101991001001999999001021MD1710141+9999REMSYN060AAXX  08091 54916 42965 12903 10351 20193 40014 57014 80002;
0142549160999992000070812004+35570+116850FM-12+005399999V0203201N003019999999N0120001N1+03191+02151100261ADDAA199000091GF107991001001999999001021MD1210121+9999REMSYN060AAXX  08121 54916 32962 73203 10319 20215 40026 52012 80002;EQDQ01  00002PRCP99
0165549160999992000070818004+35570+116850FM-12+005399999V0201101N002019999999N0100001N1+02571+02321100361ADDAA199000091GF107991071001999999031999KA1999M+03591MD1710051+9999REMSYN070AAXX  08181 54916 32960 71102 10257 20232 40036 57005 8703/ 333 10359;EQDQ01  00002PRCP99
0122549160999992000070821004+35570+116850FM-12+005399999V0200701N001012200019N0100001N1+02431+02281100431ADDGA1001+999999999GF100991001001999999001001MD1210071+9999REMSYN054AAXX  08211 54916 42960 00701 10243 20228 40043 52007;
0162549160999992000070900004+35570+116850FM-12+005399999V0201401N002012200019N0100001N1+02771+02321100551ADDAA199000091GA1001+999999999GF100991001001999999001001MD1210121+0011REMSYN064AAXX  09001 54916 32960 01402 10277 20232 40055 52012 333 00151;EQDQ01  00002PRCP99
0122549160999992000070903004+35570+116850FM-12+005399999V0201101N003012200019N0100001N1+03171+02371100561ADDGA1001+999999999GF100991001001999999001001MD1210011+9999REMSYN054AAXX  09031 54916 42960 01103 10317 20237 40056 52001;
0165549160999992000070906004+35570+116850FM-12+005399999V0200901N002010150019N0100001N1+03371+02301100461ADDAA199000091GF106991061051017501001001KA1999N+02391MD1710101+9999REMSYN070AAXX  09061 54916 32760 60902 10337 20230 40046 57010 86500 333 20239;EQDQ01  00002PRCP99
0140549160999992000070909004+35570+116850FM-12+005399999V0200901N004010120019N0100001N1+02741+02401100471ADDAY191031AY281031GF108991081091012501999999MD1410001+9999MW1291REMSYN066AAXX  09091 54916 41660 80904 10274 20240 40047 54000 72998 889//;
0157549160999992000070912004+35570+116850FM-12+005399999V0201601N004010120019N0100001N1+02361+02171100591ADDAA106007991AY191061AY281061GF108991081091012501999999MD1210121+9999MW1291REMSYN072AAXX  09121 54916 11660 81604 10236 20217 40059 52012 60081 72998 889//;
0165549160999992000070918004+35570+116850FM-12+005399999V0203601N001012200019N0100001N1+02331+02171100751ADDAA199000091GF104991041051012501001001KA1999M+03431MD1410001+9999REMSYN070AAXX  09181 54916 32660 43601 10233 20217 40075 54000 84500 333 10343;EQDQ01  00002PRCP99
0151549160999992000071000004+35570+116850FM-12+005399999V0200901N002010120019N0080001N1+02511+02351100871ADDAA124008491GF108991051051012501001071MD1210111+0301MW1101REMSYN082AAXX  10001 54916 31658 80902 10251 20235 40087 52011 71000 85507 333 00353 70083;
0112549160999992000071003004+35570+116850FM-12+005399999V0201401N002019999999N0100001N1+02791+02221100811ADDGF107991001001999999001021MD1710051+9999REMSYN060AAXX  10031 54916 42960 71402 10279 20222 40081 57005 80002;
0165549160999992000071006004+35570+116850FM-12+005399999V0200901N002010900019N0100001N1+02991+02231100641ADDAA199000091GF107991031011008001001021KA1999N+02221MD1710171+9999REMSYN070AAXX  10061 54916 32560 70902 10299 20223 40064 57017 83102 333 20222;EQDQ01  00002PRCP99
0112549160999992000071009004+35570+116850FM-12+005399999V0201101N002019999999N0100001N1+02951+02141100471ADDGF107991001001999999001021MD1710171+9999REMSYN060AAXX  10091 54916 42960 71102 10295 20214 40047 57017 80002;
0142549160999992000071012004+35570+116850FM-12+005399999V0201401N001019999999N0100001N1+02661+02301100531ADDAA199000091GF106991001001999999001021MD1210061+9999REMSYN060AAXX  10121 54916 32960 61401 10266 20230 40053 52006 80002;EQDQ01  00002PRCP99
0165549160999992000071018004+35570+116850FM-12+005399999V0209999C000019999999N0100001N1+02471+02221100521ADDAA199000091GF107991001001999999001021KA1999M+03031MD1710031+9999REMSYN070AAXX  10181 54916 32960 70000 10247 20222 40052 57003 80002 333 10303;EQDQ01  00002PRCP99
0122549160999992000071021004+35570+116850FM-12+005399999V0200201N002012200019N0100001N1+02381+02141100541ADDGA1001+999999999GF100991001001999999001001MD1210021+9999REMSYN054AAXX  10211 54916 42960 00202 10238 20214 40054 52002;
0162549160999992000071100004+35570+116850FM-12+005399999V0202501N003012200019N0100001N1+02521+02121100661ADDAA199000091GA1001+999999999GF100991001001999999001001MD1210121+0021REMSYN064AAXX  11001 54916 32960 02503 10252 20212 40066 52012 333 05200;EQDQ01  00002PRCP99
0122549160999992000071103004+35570+116850FM-12+005399999V0202201N004012200019N0120001N1+02961+01961100661ADDGA1001+999999999GF100991001001999999001001MD1410001+9999REMSYN054AAXX  11031 54916 42962 02204 10296 20196 40066 54000;
0165549160999992000071106004+35570+116850FM-12+005399999V0202201N004012200019N0120001N1+03291+02191100501ADDAA199000091GF102991021011008001001001KA1999N+02361MD1710151+9999REMSYN070AAXX  11061 54916 32562 22204 10329 20219 40050 57015 82100 333 20236;EQDQ01  00002PRCP99
0112549160999992000071109004+35570+116850FM-12+005399999V0202001N006019999999N0120001N1+03231+02331100471ADDGF106991001001999999001021MD1710041+9999REMSYN060AAXX  11091 54916 42962 62006 10323 20233 40047 57004 80002;
0142549160999992000071112004+35570+116850FM-12+005399999V0202001N003019999999N0100001N1+02961+02421100591ADDAA199000091GF106991001001999999001021MD1210121+9999REMSYN060AAXX  11121 54916 32960 62003 10296 20242 40059 52012 80002;EQDQ01  00002PRCP99
0165549160999992000071118004+35570+116850FM-12+005399999V0201801N003019999999N0100001N1+02711+02411100551ADDAA199000091GF108991001001999999001071KA1999M+03331MD1710091+9999REMSYN070AAXX  11181 54916 32960 81803 10271 20241 40055 57009 80007 333 10333;EQDQ01  00002PRCP99
0122549160999992000071121004+35570+116850FM-12+005399999V0201801N003012200019N0100001N1+02651+02361100551ADDGA1001+999999999GF100991001001999999001001MD1410001+9999REMSYN054AAXX  11211 54916 42960 01803 10265 20236 40055 54000;
0152549160999992000071200004+35570+116850FM-12+005399999V0202001N004019999999N0100001N1+02831+02341100631ADDAA199000091GF108991001001999999001071MD1210071+0001REMSYN070AAXX  12001 54916 32960 82004 10283 20234 40063 52007 80007 333 00003;EQDQ01  00002PRCP99
0112549160999992000071203004+35570+116850FM-12+005399999V0202201N004010120019N0100001N1+03041+02271100661ADDGF107991071051012501999999MD1210031+9999REMSYN060AAXX  12031 54916 42660 72204 10304 20227 40066 52003 875//;
0165549160999992000071206004+35570+116850FM-12+005399999V0201801N004010120019N0100001N1+02971+01891100601ADDAA199000091GF108991081051012501999999KA1999N+02631MD1710061+9999REMSYN070AAXX  12061 54916 32660 81804 10297 20189 40060 57006 885// 333 20263;EQDQ01  00002PRCP99
0112549160999992000071209004+35570+116850FM-12+005399999V0202501N005019999999N0100001N1+02891+01931100471ADDGF107991031001999999041021MD1710131+9999REMSYN060AAXX  12091 54916 42960 72505 10289 20193 40047 57013 83042;
0142549160999992000071212004+35570+116850FM-12+005399999V0201601N003019999999N0100001N1+02661+01961100501ADDAA199000091GF108991051001999999041021MD1210031+9999REMSYN060AAXX  12121 54916 32960 81603 10266 20196 40050 52003 85042;EQDQ01  00002PRCP99
0165549160999992000071218004+35570+116850FM-12+005399999V0201801N003012200019N0100001N1+02391+01991100421ADDAA199000091GF102991001001999999001021KA1999M+03191MD1710151+9999REMSYN070AAXX  12181 54916 32960 21803 10239 20199 40042 57015 80002 333 10319;EQDQ01  00002PRCP99
0112549160999992000071221004+35570+116850FM-12+005399999V0201601N003019999999N0120001N1+02291+02091100331ADDGF108991081001999999071999MD1710091+9999REMSYN060AAXX  12211 54916 42962 81603 10229 20209 40033 57009 8807/;
0157549160999992000071300004+35570+116850FM-12+005399999V0201401N003010120019N0100001N1+02411+02221100371ADDAA106000791GF108991081051012501999999MD1210041-0301MW1601REMSYN088AAXX  13001 54916 11660 81403 10241 20222 40037 52004 69901 76000 885// 333 05354 79999;
0132549160999992000071303004+35570+116850FM-12+005399999V0201401N002010120019N0100001N1+02551+02301100281ADDAY161031GF108991081051012501999999MD1710091+9999MW1601REMSYN066AAXX  13031 54916 41660 81402 10255 20230 40028 57009 76060 885//;
0172549160999992000071306004+35570+116850FM-12+005399999V0201801N003010120019N0100001N1+02771+02281100231ADDAA106000791AY161061GF108991081051012501999999KA1999N+02261MD1710051+9999MW1001REMSYN082AAXX  13061 54916 11660 81803 10277 20228 40023 57005 69901 70060 885// 333 20226;
0112549160999992000071309004+35570+116850FM-12+005399999V0201801N004012200019N0100001N1+02831+02251100231ADDGF102991021011008001001001MD1410001+9999REMSYN060AAXX  13091 54916 42560 21804 10283 20225 40023 54000 82100;
0123549160999992000071312004+35570+116850FM-12+005399999V0201401N002012200019N0120001N1+02591+02301100241ADDAA199000021GF103991001001999999001021MD1210011+9999REMSYN060AAXX  13121 54916 32962 31402 10259 20230 40024 52001 80002;
0165549160999992000071318004+35570+116850FM-12+005399999V0201601N003019999999N0100001N1+02371+02241100221ADDAA199000091GF107991001001999999001021KA1999M+02851MD1710051+9999REMSYN070AAXX  13181 54916 32960 71603 10237 20224 40022 57005 80002 333 10285;EQDQ01  00002PRCP99
0133549160999992000071321004+35570+116850FM-12+005399999V0201101N003019999999N0100001N1+02311+02211100221ADDAA124000791GF107991001001999999001021MD1410001+9999REMSYN070AAXX  13211 54916 42960 71103 10231 20221 40022 54000 80002 333 79999;
0139549160999992000071400004+35570+116850FM-12+005399999V0200701N002019999999N0100001N1+02571+02261100341ADDAA124000791GF107991001001999999001021MD1210121+0001REMSYN076AAXX  14001 54916 32960 70702 10257 20226 40034 52012 80002 333 00002 79999;
0112549160999992000071403004+35570+116850FM-12+005399999V0201801N004010360019N0100001N1+02711+02301100431ADDGF108991031041012501071999MD1210091+9999REMSYN060AAXX  14031 54916 42660 81804 10271 20230 40043 52009 8347/;
0165549160999992000071406004+35570+116850FM-12+005399999V0202201N004010120019N0100001N1+02751+02321100341ADDAA199000091GF107991071041012501999999KA1999N+02281MD1710091+9999REMSYN070AAXX  14061 54916 32660 72204 10275 20232 40034 57009 874// 333 20228;EQDQ01  00002PRCP99
0112549160999992000071409004+35570+116850FM-12+005399999V0202201N004010360019N0120001N1+02811+02301100311ADDGF108991021041012501071999MD1710031+9999REMSYN060AAXX  14091 54916 42662 82204 10281 20230 40031 57003 8247/;
0142549160999992000071412004+35570+116850FM-12+005399999V0201801N003019999999N0100001N1+02601+02281100401ADDAA199000091GF108991081001999999071999MD1210091+9999REMSYN060AAXX  14121 54916 32960 81803 10260 20228 40040 52009 8807/;EQDQ01  00002PRCP99
0172549160999992000071418004+35570+116850FM-12+005399999V0201101N002010120019N0100001N1+02411+02341100371ADDAA106000591AY161061GF108991081051012501999999KA1999M+02881MD1710011+9999MW1601REMSYN082AAXX  14181 54916 11660 81102 10241 20234 40037 57001 69941 76060 885// 333 10288;
0153549160999992000071421004+35570+116850FM-12+005399999V0201401N003010120019N0100001N1+02401+02281100401ADDAA124000591AY161031GF108991081051012501999999MD1210031+9999MW1001REMSYN076AAXX  14211 54916 41660 81403 10240 20228 40040 52003 70060 885// 333 70004;
0165549160999992000071500004+35570+116850FM-12+005399999V0200901N004010360019N0080001N1+02331+02261100491ADDAA106005191AY161061GF108991021071008001021999MD1210091+0201MW1611REMSYN088AAXX  15001 54916 11558 80904 10233 20226 40049 52009 60051 76160 8272/ 333 00252 70057;
0140549160999992000071503004+35570+116850FM-12+005399999V0200901N004010075019N0100001N1+02351+02281100451ADDAY161031AY261031GF108991061071008001021999MD1710041+9999MW1611REMSYN066AAXX  15031 54916 41560 80904 10235 20228 40045 57004 76166 8672/;
0180549160999992000071506004+35570+116850FM-12+005399999V0201101N005019999999N0100001N1+02371+02301100311ADDAA106024991AY161061AY261061GF108991081001999999021999KA1999N+02301MD1710141+9999MW1611REMSYN082AAXX  15061 54916 11960 81105 10237 20230 40031 57014 60251 76166 8802/ 333 20230;
0140549160999992000071509004+35570+116850FM-12+005399999V0201801N004010120019N0100001N1+02691+02341100291ADDAY191031AY281031GF108991071041012501071999MD1710021+9999MW1001REMSYN066AAXX  15091 54916 41660 81804 10269 20234 40029 57002 70098 8747/;
0157549160999992000071512004+35570+116850FM-12+005399999V0201401N002010120019N0100001N1+02471+02411100441ADDAA106004191AY191061AY261061GF108991081091012501999999MD1210151+9999MW1801REMSYN072AAXX  15121 54916 11660 81402 10247 20241 40044 52015 60041 78096 889//;
0180549160999992000071518004+35570+116850FM-12+005399999V0209999C000010120019N0100001N1+02411+02351100431ADDAA106006191AY191061AY281061GF108991061041012501071999KA1999M+02771MD1710061+9999MW1001REMSYN082AAXX  15181 54916 11660 80000 10241 20235 40043 57006 60061 70098 8647/ 333 10277;
0151549160999992000071600004+35570+116850FM-12+005399999V0200401N001019999999N0060001N1+02631+02501100561ADDAA124034891GF106991001001999999001021MD1210161+0101MW1101REMSYN082AAXX  16001 54916 31956 60401 10263 20250 40056 52016 71000 80002 333 00103 70347;
0112549160999992000071603004+35570+116850FM-12+005399999V0201401N002019999999N0100001N1+03051+02741100511ADDGF108991001001999999001071MD1710051+9999REMSYN060AAXX  16031 54916 42960 81402 10305 20274 40051 57005 80007;
0165549160999992000071606004+35570+116850FM-12+005399999V0201601N004019999999N0100001N1+03391+02671100411ADDAA199000091GF108991001001999999001071KA1999N+02301MD1710091+9999REMSYN070AAXX  16061 54916 32960 81604 10339 20267 40041 57009 80007 333 20230;EQDQ01  00002PRCP99
0112549160999992000071609004+35570+116850FM-12+005399999V0201801N003019999999N0100001N1+03381+02701100321ADDGF106991001001999999001021MD1710091+9999REMSYN060AAXX  16091 54916 42960 61803 10338 20270 40032 57009 80002;
0142549160999992000071612004+35570+116850FM-12+005399999V0201401N003012200019N0100001N1+03001+02731100401ADDAA199000091GF101991001001999999001021MD1210071+9999REMSYN060AAXX  16121 54916 32960 11403 10300 20273 40040 52007 80002;EQDQ01  00002PRCP99
0175549160999992000071618004+35570+116850FM-12+005399999V0201401N002012200019N0100001N1+02591+02511100321ADDAA199000091GA1001+999999999GF100991001001999999001001KA1999M+03421MD1710091+9999REMSYN064AAXX  16181 54916 32960 01402 10259 20251 40032 57009 333 10342;EQDQ01  00002PRCP99
0112549160999992000071621004+35570+116850FM-12+005399999V0200901N002012200019N0100001N1+02551+02481100361ADDGF102991001001999999001021MD1210041+9999REMSYN060AAXX  16211 54916 42960 20902 10255 20248 40036 52004 80002;
0152549160999992000071700004+35570+116850FM-12+005399999V0200901N003012200019N0100001N1+02891+02631100451ADDAA199000091GF102991001001999999001021MD1210091+0011REMSYN070AAXX  17001 54916 32960 20903 10289 20263 40045 52009 80002 333 05103;EQDQ01  00002PRCP99
0112549160999992000071703004+35570+116850FM-12+005399999V0201401N002012200019N0120001N1+03231+02711100391ADDGF102991021011008001001001MD1710061+9999REMSYN060AAXX  17031 54916 42562 21402 10323 20271 40039 57006 82100;
0165549160999992000071706004+35570+116850FM-12+005399999V0200901N003012200019N0120001N1+03421+02521100211ADDAA199000091GF101991011011008001001001KA1999N+02531MD1710181+9999REMSYN070AAXX  17061 54916 32562 10903 10342 20252 40021 57018 81100 333 20253;EQDQ01  00002PRCP99
0112549160999992000071709004+35570+116850FM-12+005399999V0201601N003012200019N0150001N1+03411+02471100081ADDGF101991011011008001001001MD1710131+9999REMSYN060AAXX  17091 54916 42565 11603 10341 20247 40008 57013 81100;
0142549160999992000071712004+35570+116850FM-12+005399999V0201401N002019999999N0100001N1+02971+02821100151ADDAA199000091GF105991001001999999001021MD1210071+9999REMSYN060AAXX  17121 54916 32960 51402 10297 20282 40015 52007 80002;EQDQ01  00002PRCP99
0165549160999992000071718004+35570+116850FM-12+005399999V0200701N002012200019N0100001N1+02651+02551100181ADDAA199000091GF102991001001999999001021KA1999M+03511MD1710131+9999REMSYN070AAXX  17181 54916 32960 20702 10265 20255 40018 57013 80002 333 10351;EQDQ01  00002PRCP99
0122549160999992000071721004+35570+116850FM-12+005399999V0200401N001012200019N0100001N1+02601+02541100221ADDGA1001+999999999GF100991001001999999001001MD1210041+9999REMSYN054AAXX  17211 54916 42960 00401 10260 20254 40022 52004;
0152549160999992000071800004+35570+116850FM-12+005399999V0200901N002012200019N0100001N1+02861+02611100261ADDAA199000091GF104991041001999999031001MD1210041+0021REMSYN070AAXX  18001 54916 32960 40902 10286 20261 40026 52004 84030 333 05200;EQDQ01  00002PRCP99
0112549160999992000071803004+35570+116850FM-12+005399999V0201401N002010075019N0100001N1+03141+02601100211ADDGF106991061011008001001001MD1710051+9999REMSYN060AAXX  18031 54916 42560 61402 10314 20260 40021 57005 86100;
0165549160999992000071806004+35570+116850FM-12+005399999V0200401N002010075019N0100001N1+03291+02651100041ADDAA199000091GF106991061011008001001001KA1999N+02581MD1710171+9999REMSYN070AAXX  18061 54916 32560 60402 10329 20265 40004 57017 86100 333 20258;EQDQ01  00002PRCP99
0124549160999992000071809004+35570+116850FM-12+005399999V0200201N007010120019N0100001N1+02881+02431099981ADDGF108991081091012501999999MD1710061+9999MW1291REMSYN066AAXX  18091 54916 41660 80207 10288 20243 49998 57006 72900 889//;
0157549160999992000071812004+35570+116850FM-12+005399999V0201801N004010120019N0100001N1+02441+02371100091ADDAA106015091AY191061AY281061GF108991081091012501999999MD1210101+9999MW1911REMSYN072AAXX  18121 54916 11660 81804 10244 20237 40009 52010 60151 79198 889//;
0172549160999992000071818004+35570+116850FM-12+005399999V0209999C000010120019N0100001N1+02461+02401100131ADDAA106003091AY181061GF108991051041012501071999KA1999M+03371MD1710011+9999MW1001REMSYN082AAXX  18181 54916 11660 80000 10246 20240 40013 57001 60031 70080 8547/ 333 10337;
0133549160999992000071821004+35570+116850FM-12+005399999V0200401N001010120019N0100001N1+02451+02391100061ADDAA124018391GF108991061041012501071999MD1710081+9999REMSYN070AAXX  18211 54916 42660 80401 10245 20239 40006 57008 8647/ 333 70184;
0165549160999992000071900004+35570+116850FM-12+005399999V0200901N002010120019N0100001N1+02591+02451100141ADDAA106000891AY181061GF107991071041012501999999MD1210081-0101MW1001REMSYN088AAXX  19001 54916 11660 70902 10259 20245 40014 52008 69971 70080 874// 333 05153 70191;
0124549160999992000071903004+35570+116850FM-12+005399999V0200701N001010120019N0100001N1+02791+02491100121ADDGF107991071041012501999999MD1710021+9999MW1251REMSYN066AAXX  19031 54916 41660 70701 10279 20249 40012 57002 72500 874//;
0172549160999992000071906004+35570+116850FM-12+005399999V0202201N002010075019N0100001N1+03011+02551100101ADDAA106000791AY181061GF105991051011008001001001KA1999N+02341MD1710021+9999MW1001REMSYN082AAXX  19061 54916 11560 52202 10301 20255 40010 57002 69901 70080 85100 333 20234;
0112549160999992000071909004+35570+116850FM-12+005399999V0200401N002010120019N0100001N1+02851+02561100081ADDGF107991071041012501999999MD1710021+9999REMSYN060AAXX  19091 54916 42660 70402 10285 20256 40008 57002 874//;
0123549160999992000071912004+35570+116850FM-12+005399999V0201101N001012200019N0100001N1+02701+02461100201ADDAA199000021GF101991001001999999001021MD1210121+9999REMSYN060AAXX  19121 54916 32960 11101 10270 20246 40020 52012 80002;
0165549160999992000071918004+35570+116850FM-12+005399999V0200901N002010120019N0100001N1+02561+02471100241ADDAA199000091GF107991071051012501999999KA1999M+03081MD1710031+9999REMSYN070AAXX  19181 54916 32660 70902 10256 20247 40024 57003 875// 333 10308;EQDQ01  00002PRCP99
0133549160999992000071921004+35570+116850FM-12+005399999V0201401N002010120019N0100001N1+02511+02471100291ADDAA124000891GF108991081051012501999999MD1210051+9999REMSYN070AAXX  19211 54916 42660 81402 10251 20247 40029 52005 885// 333 70007;
0165549160999992000072000004+35570+116850FM-12+005399999V0200401N002010120019N0100001N1+02671+02511100371ADDAA106000191AY181061GF108991061041012501071999MD1210081+0201MW1251REMSYN088AAXX  20001 54916 11660 80402 10267 20251 40037 52008 69921 72580 8647/ 333 00201 70002;
0112549160999992000072003004+35570+116850FM-12+005399999V0201401N004010075019N0100001N1+03001+02641100391ADDGF106991061011008001001001MD1210021+9999REMSYN060AAXX  20031 54916 42560 61404 10300 20264 40039 52002 86100;
0146549160999992000072006004+35570+116850FM-12+005399999V0201401N004010120019N0100001N1+03171+02511100311ADDAA199000021GF107991071041012501999999KA1999N+02511MD1710071+9999REMSYN070AAXX  20061 54916 32660 71404 10317 20251 40031 57007 874// 333 20251;
0132549160999992000072009004+35570+116850FM-12+005399999V0201801N004010120019N0100001N1+03111+02491100341ADDAY181031GF106991061091012501001001MD1210021+9999MW1001REMSYN066AAXX  20091 54916 41660 61804 10311 20249 40034 52002 70080 86900;
0149549160999992000072012004+35570+116850FM-12+005399999V0201801N003012200019N0100001N1+02921+02571100441ADDAA106000791AY181061GF101991011041012501001001MD1210101+9999MW1001REMSYN072AAXX  20121 54916 11660 11803 10292 20257 40044 52010 69901 70080 81400;
0165549160999992000072018004+35570+116850FM-12+005399999V0201801N002019999999N0100001N1+02631+02501100491ADDAA199000091GF106991061001999999031001KA1999M+03231MD1210021+9999REMSYN070AAXX  20181 54916 32960 61802 10263 20250 40049 52002 86030 333 10323;EQDQ01  00002PRCP99
0143549160999992000072021004+35570+116850FM-12+005399999V0201601N004012200019N0100001N1+02621+02491100451ADDAA124000391GA1001+999999999GF100991001001999999001001MD1710041+9999REMSYN064AAXX  20211 54916 42960 01604 10262 20249 40045 57004 333 70002;
0149549160999992000072100004+35570+116850FM-12+005399999V0201401N004012200019N0100001N1+02881+02491100471ADDAA124000791GA1001+999999999GF100991001001999999001001MD1210021+0101REMSYN070AAXX  21001 54916 32960 01404 10288 20249 40047 52002 333 00102 79999;
0112549160999992000072103004+35570+116850FM-12+005399999V0201801N007010075019N0100001N1+03181+02521100371ADDGF106991061011008001001001MD1710101+9999REMSYN060AAXX  21031 54916 42560 61807 10318 20252 40037 57010 86100;
0165549160999992000072106004+35570+116850FM-12+005399999V0202201N006010075019N0100001N1+03271+02501100251ADDAA199000091GF107991071011008001001001KA1999N+02561MD1710121+9999REMSYN070AAXX  21061 54916 32560 72206 10327 20250 40025 57012 87100 333 20256;EQDQ01  00002PRCP99
0112549160999992000072109004+35570+116850FM-12+005399999V0202001N006012200019N0120001N1+03281+02561100101ADDGF101991011011008001001001MD1710151+9999REMSYN060AAXX  21091 54916 42562 12006 10328 20256 40010 57015 81100;
0142549160999992000072112004+35570+116850FM-12+005399999V0201801N003010120019N0100001N1+03071+02641100201ADDAA199000091GF107991071041012501999999MD1210101+9999REMSYN060AAXX  21121 54916 32660 71803 10307 20264 40020 52010 874//;EQDQ01  00002PRCP99
0165549160999992000072118004+35570+116850FM-12+005399999V0201801N003010120019N0100001N1+02841+02571100171ADDAA199000091GF106991061051012501001001KA1999M+03341MD1710061+9999REMSYN070AAXX  21181 54916 32660 61803 10284 20257 40017 57006 86500 333 10334;EQDQ01  00002PRCP99
0112549160999992000072121004+35570+116850FM-12+005399999V0201801N002012200019N0120001N1+02711+02571100151ADDGF101991001001999999001021MD1710021+9999REMSYN060AAXX  21211 54916 42962 11802 10271 20257 40015 57002 80002;
0152549160999992000072200004+35570+116850FM-12+005399999V0201801N004019999999N0120001N1+02881+02561100171ADDAA199000091GF106991001001999999001021MD1210021+0031REMSYN070AAXX  22001 54916 32962 61804 10288 20256 40017 52002 80002 333 05300;EQDQ01  00002PRCP99
0112549160999992000072203004+35570+116850FM-12+005399999V0202201N004010120019N0100001N1+03111+02541100041ADDGF107991071041012501999999MD1710131+9999REMSYN060AAXX  22031 54916 42660 72204 10311 20254 40004 57013 874//;
0165549160999992000072206004+35570+116850FM-12+005399999V0202701N003010120019N0100001N1+03091+02641100031ADDAA199000091GF107991071041012501999999KA1999N+02691MD1710011+9999REMSYN070AAXX  22061 54916 32660 72703 10309 20264 40003 57001 874// 333 20269;EQDQ01  00002PRCP99
0112549160999992000072209004+35570+116850FM-12+005399999V0202201N003010900019N0100001N1+03161+02651099861ADDGF107991011011008001001021MD1710171+9999REMSYN060AAXX  22091 54916 42560 72203 10316 20265 49986 57017 81102;
0142549160999992000072212004+35570+116850FM-12+005399999V0202901N003019999999N0100001N1+02941+02651099961ADDAA199000091GF108991081001999999071999MD1210101+9999REMSYN060AAXX  22121 54916 32960 82903 10294 20265 49996 52010 8807/;EQDQ01  00002PRCP99
0165549160999992000072218004+35570+116850FM-12+005399999V0203201N002019999999N0100001N1+02751+02671099861ADDAA199000091GF107991071001999999031999KA1999M+03241MD1710121+9999REMSYN070AAXX  22181 54916 32960 73202 10275 20267 49986 57012 8703/ 333 10324;EQDQ01  00002PRCP99
0124549160999992000072221004+35570+116850FM-12+005399999V0201601N003010120019N0012001N1+02661+02631099801ADDGF108991081051012501999999MD1710061+9999MW1101REMSYN066AAXX  22211 54916 41612 81603 10266 20263 49980 57006 71000 885//;
0172549160999992000072300004+35570+116850FM-12+005399999V0201801N003010075019N0008001N1+02751+02571099901ADDAA199000091AY141061GF108991081061008001999999MD1210101+0031MW1421REMSYN076AAXX  23001 54916 31508 81803 10275 20257 49990 52010 74240 886// 333 05351;EQDQ01  00002PRCP99
0132549160999992000072303004+35570+116850FM-12+005399999V0203201N002012200019N0100001N1+03101+02211099871ADDAY141031GF103991031011008001001001MD1710031+9999MW1001REMSYN066AAXX  23031 54916 41560 33202 10310 20221 49987 57003 70040 83100;
0185549160999992000072306004+35570+116850FM-12+005399999V0200201N003012200019N0120001N1+03381+02251099741ADDAA199000091AY141061GF101991011011008001001001KA1999N+02641MD1710131+9999MW1001REMSYN076AAXX  23061 54916 31562 10203 10338 20225 49974 57013 70040 81100 333 20264;EQDQ01  00002PRCP99
0112549160999992000072309004+35570+116850FM-12+005399999V0203201N001012200019N0150001N1+03421+02311099721ADDGF101991011011008001001001MD1710021+9999REMSYN060AAXX  23091 54916 42565 13201 10342 20231 49972 57002 81100;
0142549160999992000072312004+35570+116850FM-12+005399999V0202901N001012200019N0120001N1+03041+02551099841ADDAA199000091GF101991001001999999001021MD1210121+9999REMSYN060AAXX  23121 54916 32962 12901 10304 20255 49984 52012 80002;EQDQ01  00002PRCP99
0175549160999992000072318004+35570+116850FM-12+005399999V0202201N001012200019N0100001N1+02771+02621099941ADDAA199000091GA1001+999999999GF100991001001999999001001KA1999M+03501MD1410001+9999REMSYN064AAXX  23181 54916 32960 02201 10277 20262 49994 54000 333 10350;EQDQ01  00002PRCP99
0134549160999992000072321004+35570+116850FM-12+005399999V0209999C000012200019N0030001N1+02541+02531100001ADDGA1001+999999999GF100991001001999999001001MD1210061+9999MW1101REMSYN060AAXX  23211 54916 41930 00000 10254 20253 40000 52006 71000;
0172549160999992000072400004+35570+116850FM-12+005399999V0201601N002010150019N0080001N1+02751+02611100081ADDAA199000091AY141061GF108991081051017501999999MD1210081+0021MW1101REMSYN076AAXX  24001 54916 31758 81602 10275 20261 40008 52008 71040 885// 333 00200;EQDQ01  00002PRCP99
0112549160999992000072403004+35570+116850FM-12+005399999V0209999C000010075019N0100001N1+03281+02471100141ADDGF105991051011008001001001MD1210061+9999REMSYN060AAXX  24031 54916 42560 50000 10328 20247 40014 52006 85100;
0165549160999992000072406004+35570+116850FM-12+005399999V0200401N002010075019N0100001N1+03301+02511100071ADDAA199000091GF107991071011008001001001KA1999N+02491MD1710071+9999REMSYN070AAXX  24061 54916 32560 70402 10330 20251 40007 57007 87100 333 20249;EQDQ01  00002PRCP99
0112549160999992000072409004+35570+116850FM-12+005399999V0203601N002012200019N0100001N1+03371+02581100011ADDGF102991021011008001001001MD1710061+9999REMSYN060AAXX  24091 54916 42560 23602 10337 20258 40001 57006 82100;
0142549160999992000072412004+35570+116850FM-12+005399999V0209999C000012200019N0100001N1+02901+02621100071ADDAA199000091GF101991001001999999001021MD1210061+9999REMSYN060AAXX  24121 54916 32960 10000 10290 20262 40007 52006 80002;EQDQ01  00002PRCP99
0175549160999992000072418004+35570+116850FM-12+005399999V0200901N002012200019N0100001N1+02551+02441100161ADDAA199000091GA1001+999999999GF100991001001999999001001KA1999M+03431MD1410001+9999REMSYN064AAXX  24181 54916 32960 00902 10255 20244 40016 54000 333 10343;EQDQ01  00002PRCP99
0124549160999992000072421004+35570+116850FM-12+005399999V0200901N002012200019N0080001N1+02431+02361100211ADDGF102991021001999999031001MD1210051+9999MW1101REMSYN066AAXX  24211 54916 41958 20902 10243 20236 40021 52005 71000 82030;
0174549160999992000072500004+35570+116850FM-12+005399999V0201101N002012200019N0060001N1+02811+02601100311ADDAA199000091GA1001+999999999GF100991001001999999001001MD1210101+0021MW1101REMSYN070AAXX  25001 54916 31956 01102 10281 20260 40031 52010 71000 333 00201;EQDQ01  00002PRCP99
0122549160999992000072503004+35570+116850FM-12+005399999V0201401N002012200019N0100001N1+03251+02601100281ADDGA1001+999999999GF100991001001999999001001MD1710031+9999REMSYN054AAXX  25031 54916 42960 01402 10325 20260 40028 57003;
0175549160999992000072506004+35570+116850FM-12+005399999V0201401N002012200019N0100001N1+03451+02121100151ADDAA199000091GA1001+999999999GF100991001001999999001001KA1999N+02411MD1710131+9999REMSYN064AAXX  25061 54916 32960 01402 10345 20212 40015 57013 333 20241;EQDQ01  00002PRCP99
0112549160999992000072509004+35570+116850FM-12+005399999V0201401N002012200019N0100001N1+03351+02231100061ADDGF102991001001999999001021MD1710091+9999REMSYN060AAXX  25091 54916 42960 21402 10335 20223 40006 57009 80002;
0152549160999992000072512004+35570+116850FM-12+005399999V0201601N003012200019N0100001N1+03011+02091100161ADDAA199000091GA1001+999999999GF100991001001999999001001MD1210101+9999REMSYN054AAXX  25121 54916 32960 01603 10301 20209 40016 52010;EQDQ01  00002PRCP99
0175549160999992000072518004+35570+116850FM-12+005399999V0201101N002012200019N0100001N1+02331+02041100181ADDAA199000091GA1001+999999999GF100991001001999999001001KA1999M+03501MD1710091+9999REMSYN064AAXX  25181 54916 32960 01102 10233 20204 40018 57009 333 10350;EQDQ01  00002PRCP99
0122549160999992000072521004+35570+116850FM-12+005399999V0200901N002012200019N0100001N1+02051+01911100261ADDGA1001+999999999GF100991001001999999001001MD1210071+9999REMSYN054AAXX  25211 54916 42960 00902 10205 20191 40026 52007;
0162549160999992000072600004+35570+116850FM-12+005399999V0200701N002012200019N0100001N1+02651+02161100351ADDAA199000091GA1001+999999999GF100991001001999999001001MD1210101+0001REMSYN064AAXX  26001 54916 32960 00702 10265 20216 40035 52010 333 00052;EQDQ01  00002PRCP99
0122549160999992000072603004+35570+116850FM-12+005399999V0201401N003012200019N0120001N1+03111+02181100261ADDGA1001+999999999GF100991001001999999001001MD1710091+9999REMSYN054AAXX  26031 54916 42962 01403 10311 20218 40026 57009;
0175549160999992000072606004+35570+116850FM-12+005399999V0201401N003012200019N0120001N1+03341+02061100121ADDAA199000091GA1001+999999999GF100991001001999999001001KA1999N+02031MD1710141+9999REMSYN064AAXX  26061 54916 32962 01403 10334 20206 40012 57014 333 20203;EQDQ01  00002PRCP99
0122549160999992000072609004+35570+116850FM-12+005399999V0201601N003012200019N0150001N1+03301+02031099991ADDGA1001+999999999GF100991001001999999001001MD1710141+9999REMSYN054AAXX  26091 54916 42965 01603 10330 20203 49999 57014;
0152549160999992000072612004+35570+116850FM-12+005399999V0201601N003012200019N0100001N1+02921+02141100081ADDAA199000091GA1001+999999999GF100991001001999999001001MD1210101+9999REMSYN054AAXX  26121 54916 32960 01603 10292 20214 40008 52010;EQDQ01  00002PRCP99
0175549160999992000072618004+35570+116850FM-12+005399999V0201401N002012200019N0100001N1+02411+02221100081ADDAA199000091GA1001+999999999GF100991001001999999001001KA1999M+03411MD1710171+9999REMSYN064AAXX  26181 54916 32960 01402 10241 20222 40008 57017 333 10341;EQDQ01  00002PRCP99
0122549160999992000072621004+35570+116850FM-12+005399999V0200901N002012200019N0100001N1+02271+02201100061ADDGA1001+999999999GF100991001001999999001001MD1710021+9999REMSYN054AAXX  26211 54916 42960 00902 10227 20220 40006 57002;
0152549160999992000072700004+35570+116850FM-12+005399999V0201801N005012200019N0100001N1+02671+02401100091ADDAA199000091GF102991011001999999041021MD1210031+0031REMSYN070AAXX  27001 54916 32960 21805 10267 20240 40009 52003 81042 333 05300;EQDQ01  00002PRCP99
0112549160999992000072703004+35570+116850FM-12+005399999V0201401N004010075019N0100001N1+02951+02361100071ADDGF106991061011008001001001MD1710031+9999REMSYN060AAXX  27031 54916 42560 61404 10295 20236 40007 57003 86100;
0175549160999992000072706004+35570+116850FM-12+005399999V0201601N006012200019N0100001N1+03201+02111099891ADDAA199000091GA1001+999999999GF100991001001999999001001KA1999N+02231MD1710171+9999REMSYN064AAXX  27061 54916 32960 01606 10320 20211 49989 57017 333 20223;EQDQ01  00002PRCP99
0112549160999992000072709004+35570+116850FM-12+005399999V0201801N005012200019N0120001N1+03191+02121099761ADDGF101991001001999999001021MD1710131+9999REMSYN060AAXX  27091 54916 42962 11805 10319 20212 49976 57013 80002;
0142549160999992000072712004+35570+116850FM-12+005399999V0201601N003019999999N0120001N1+02861+02231099781ADDAA199000091GF107991001001999999001021MD1210021+9999REMSYN060AAXX  27121 54916 32962 71603 10286 20223 49978 52002 80002;EQDQ01  00002PRCP99
0180549160999992000072718004+35570+116850FM-12+005399999V0201801N002010120019N0100001N1+02711+02321099881ADDAA106000791AY191061AY281061GF108991081091012501999999KA1999M+03311MD1710061+9999MW1291REMSYN082AAXX  27181 54916 11660 81802 10271 20232 49988 57006 69901 72998 889// 333 10331;
0161549160999992000072721004+35570+116850FM-12+005399999V0200901N002010120019N0100001N1+02551+02481099991ADDAA124005891AY191031AY281031GF108991081091012501999999MD1210111+9999MW1951REMSYN076AAXX  27211 54916 41660 80902 10255 20248 49999 52011 79598 889// 333 70058;
0173549160999992000072800004+35570+116850FM-12+005399999V0200401N003010120019N0020001N1+02531+02471100061ADDAA106015091AY191061AY281061GF108991081091012501999999MD1210061+0001MW1911REMSYN088AAXX  28001 54916 11620 80403 10253 20247 40006 52006 60151 79198 889// 333 00051 70152;
0132549160999992000072803004+35570+116850FM-12+005399999V0201101N002019999999N0100001N1+02791+02521100141ADDAY181031GF107991071001999999031999MD1210091+9999MW1001REMSYN066AAXX  28031 54916 41960 71102 10279 20252 40014 52009 70080 8703/;
0132549160999992000072809004+35570+116850FM-12+005399999V0202201N004010120019N0100001N1+02391+01991100171ADDAY181031GF108991061041012501071999MD1410001+9999MW1801REMSYN066AAXX  28091 54916 41660 82204 10239 20199 40017 54000 78080 8647/;
0149549160999992000072812004+35570+116850FM-12+005399999V0200701N002010120019N0100001N1+02341+02211100181ADDAA106003091AY181061GF106991061041012501001001MD1210011+9999MW1251REMSYN072AAXX  28121 54916 11660 60702 10234 20221 40018 52001 60031 72580 86400;
0146549160999992000072818004+35570+116850FM-12+005399999V0203401N001010120019N0100001N1+02291+02221100091ADDAA199000021GF107991071041012501999999KA1999M+02791MD1710121+9999REMSYN070AAXX  28181 54916 32660 73401 10229 20222 40009 57012 874// 333 10279;
0145549160999992000072821004+35570+116850FM-12+005399999V0203601N001010120019N0070001N1+02251+02211100051ADDAA124012491GF106991061051012501001001MD1710041+9999MW1101REMSYN076AAXX  28211 54916 41657 63601 10225 20221 40005 57004 71000 86500 333 70124;
0151549160999992000072900004+35570+116850FM-12+005399999V0209999C000010120019N0080001N1+02421+02271100091ADDAA124003091GF108991081051012501999999MD1210041+0001MW1101REMSYN082AAXX  29001 54916 31658 80000 10242 20227 40009 52004 71000 885// 333 00051 70030;
0132549160999992000072903004+35570+116850FM-12+005399999V0203201N002010120019N0100001N1+02601+02161100081ADDAY181031GF107991051041012501031999MD1710011+9999MW1001REMSYN066AAXX  29031 54916 41660 73202 10260 20216 40008 57001 70080 8543/;
0172549160999992000072906004+35570+116850FM-12+005399999V0203201N002012200019N0120001N1+03071+02251099901ADDAA106000791AY181061GF104991041001999999031001KA1999N+02201MD1710181+9999MW1001REMSYN082AAXX  29061 54916 11962 43202 10307 20225 49990 57018 69901 70080 84030 333 20220;
0112549160999992000072909004+35570+116850FM-12+005399999V0202701N002012200019N0120001N1+03131+02251099801ADDGF102991021001999999031001MD1710091+9999REMSYN060AAXX  29091 54916 42962 22702 10313 20225 49980 57009 82030;
0142549160999992000072912004+35570+116850FM-12+005399999V0202501N001012200019N0120001N1+02621+02361099931ADDAA199000091GF102991011001999999031021MD1210121+9999REMSYN060AAXX  29121 54916 32962 22501 10262 20236 49993 52012 81032;EQDQ01  00002PRCP99
0175549160999992000072918004+35570+116850FM-12+005399999V0202901N002012200019N0100001N1+02431+02271100011ADDAA199000091GA1001+999999999GF100991001001999999001001KA1999M+03181MD1710051+9999REMSYN064AAXX  29181 54916 32960 02902 10243 20227 40001 57005 333 10318;EQDQ01  00002PRCP99
0143549160999992000072921004+35570+116850FM-12+005399999V0203201N002012200019N0100001N1+02311+02181099971ADDAA124000791GA1001+999999999GF100991001001999999001001MD1710041+9999REMSYN064AAXX  29211 54916 42960 03202 10231 20218 49997 57004 333 79999;
0149549160999992000073000004+35570+116850FM-12+005399999V0203201N002012200019N0100001N1+02491+01731100051ADDAA124000791GA1001+999999999GF100991001001999999001001MD1210071+0001REMSYN070AAXX  30001 54916 32960 03202 10249 20173 40005 52007 333 00001 79999;
0122549160999992000073003004+35570+116850FM-12+005399999V0203401N004012200019N0120001N1+02881+01661100071ADDGA1001+999999999GF100991001001999999001001MD1210031+9999REMSYN054AAXX  30031 54916 42962 03404 10288 20166 40007 52003;
0175549160999992000073006004+35570+116850FM-12+005399999V0203201N005012200019N0150001N1+03021+01571099961ADDAA199000091GA1001+999999999GF100991001001999999001001KA1999N+02221MD1710111+9999REMSYN064AAXX  30061 54916 32965 03205 10302 20157 49996 57011 333 20222;EQDQ01  00002PRCP99
0122549160999992000073009004+35570+116850FM-12+005399999V0203201N004012200019N0150001N1+03071+01681099981ADDGA1001+999999999GF100991001001999999001001MD1210011+9999REMSYN054AAXX  30091 54916 42965 03204 10307 20168 49998 52001;
0152549160999992000073012004+35570+116850FM-12+005399999V0203201N001012200019N0120001N1+02761+02011100061ADDAA199000091GA1001+999999999GF100991001001999999001001MD1210081+9999REMSYN054AAXX  30121 54916 32962 03201 10276 20201 40006 52008;EQDQ01  00002PRCP99
0175549160999992000073018004+35570+116850FM-12+005399999V0209999C000012200019N0100001N1+02051+01961100141ADDAA199000091GA1001+999999999GF100991001001999999001001KA1999M+03111MD1710031+9999REMSYN064AAXX  30181 54916 32960 00000 10205 20196 40014 57003 333 10311;EQDQ01  00002PRCP99
0122549160999992000073021004+35570+116850FM-12+005399999V0201401N001012200019N0100001N1+01931+01881100131ADDGA1001+999999999GF100991001001999999001001MD1710011+9999REMSYN054AAXX  30211 54916 42960 01401 10193 20188 40013 57001;
0162549160999992000073100004+35570+116850FM-12+005399999V0202001N002012200019N0100001N1+02501+02131100231ADDAA199000091GA1001+999999999GF100991001001999999001001MD1210101+0021REMSYN064AAXX  31001 54916 32960 02002 10250 20213 40023 52010 333 00200;EQDQ01  00002PRCP99
0122549160999992000073103004+35570+116850FM-12+005399999V0202201N003012200019N0120001N1+03111+01841100271ADDGA1001+999999999GF100991001001999999001001MD1210041+9999REMSYN054AAXX  31031 54916 42962 02203 10311 20184 40027 52004;
0175549160999992000073106004+35570+116850FM-12+005399999V0202701N002012200019N0120001N1+03371+01511100221ADDAA199000091GA1001+999999999GF100991001001999999001001KA1999N+01901MD1710051+9999REMSYN064AAXX  31061 54916 32962 02702 10337 20151 40022 57005 333 20190;EQDQ01  00002PRCP99
0122549160999992000073109004+35570+116850FM-12+005399999V0202001N002012200019N0150001N1+03321+01691100181ADDGA1001+999999999GF100991001001999999001001MD1710041+9999REMSYN054AAXX  31091 54916 42965 02002 10332 20169 40018 57004;
0152549160999992000073112004+35570+116850FM-12+005399999V0202201N002012200019N0150001N1+02831+01971100301ADDAA199000091GA1001+999999999GF100991001001999999001001MD1210121+9999REMSYN054AAXX  31121 54916 32965 02202 10283 20197 40030 52012;EQDQ01  00002PRCP99
0175549160999992000073118004+35570+116850FM-12+005399999V0200901N002012200019N0120001N1+02121+02001100501ADDAA199000091GA1001+999999999GF100991001001999999001001KA1999M+03441MD1210071+9999REMSYN064AAXX  31181 54916 32962 00902 10212 20200 40050 52007 333 10344;EQDQ01  00002PRCP99
0122549160999992000073121004+35570+116850FM-12+005399999V0200901N002012200019N0100001N1+02031+01951100581ADDGA1001+999999999GF100991001001999999001001MD1210081+9999REMSYN054AAXX  31211 54916 42960 00902 10203 20195 40058 52008;
0162549160999992000080100004+35570+116850FM-12+005399999V0201101N001012200019N0120001N1+02641+02231100661ADDAA199000091GA1001+999999999GF100991001001999999001001MD1210081+0041REMSYN064AAXX  01001 54916 32962 01101 10264 20223 40066 52008 333 00401;EQDQ01  00002PRCP99
0122549160999992000080103004+35570+116850FM-12+005399999V0202001N004012200019N0150001N1+03151+02071100741ADDGA1001+999999999GF100991001001999999001001MD1210081+9999REMSYN054AAXX  01031 54916 42965 02004 10315 20207 40074 52008;
0165549160999992000080106004+35570+116850FM-12+005399999V0201801N005012200019N0150001N1+03371+01871100651ADDAA199000091GF102991011011008001001021KA1999N+01991MD1710091+9999REMSYN070AAXX  01061 54916 32565 21805 10337 20187 40065 57009 81102 333 20199;EQDQ01  00002PRCP99
0112549160999992000080109004+35570+116850FM-12+005399999V0201601N002019999999N0150001N1+03231+02081100521ADDGF107991001001999999001021MD1710131+9999REMSYN060AAXX  01091 54916 42965 71602 10323 20208 40052 57013 80002;
0142549160999992000080112004+35570+116850FM-12+005399999V0201401N003019999999N0150001N1+02681+02001100651ADDAA199000091GF105991001001999999001021MD1210131+9999REMSYN060AAXX  01121 54916 32965 51403 10268 20200 40065 52013 80002;EQDQ01  00002PRCP99
0175549160999992000080118004+35570+116850FM-12+005399999V0200901N002012200019N0100001N1+02241+02031100871ADDAA199000091GA1001+999999999GF100991001001999999001001KA1999M+03431MD1210131+9999REMSYN064AAXX  01181 54916 32960 00902 10224 20203 40087 52013 333 10343;EQDQ01  00002PRCP99
0112549160999992000080121004+35570+116850FM-12+005399999V0200901N002012200019N0100001N1+01911+01831100791ADDGF102991001001999999001021MD1710081+9999REMSYN060AAXX  01211 54916 42960 20902 10191 20183 40079 57008 80002;
0152549160999992000080200004+35570+116850FM-12+005399999V0200901N003012200019N0100001N1+02511+02091100961ADDAA199000091GF101991001001999999001021MD1210171+0031REMSYN070AAXX  02001 54916 32960 10903 10251 20209 40096 52017 80002 333 00351;EQDQ01  00002PRCP99
0112549160999992000080203004+35570+116850FM-12+005399999V0201401N002019999999N0100001N1+02971+02091100891ADDGF107991001001999999001021MD1710071+9999REMSYN060AAXX  02031 54916 42960 71402 10297 20209 40089 57007 80002;
0165549160999992000080206004+35570+116850FM-12+005399999V0201601N003010900019N0120001N1+03191+02051100701ADDAA199000091GF108991011011008001001071KA1999N+01881MD1710191+9999REMSYN070AAXX  02061 54916 32562 81603 10319 20205 40070 57019 81107 333 20188;EQDQ01  00002PRCP99
0112549160999992000080209004+35570+116850FM-12+005399999V0201401N003010900019N0100001N1+03071+02141100691ADDGF108991021051012501001071MD1710011+9999REMSYN060AAXX  02091 54916 42660 81403 10307 20214 40069 57001 82507;
0142549160999992000080212004+35570+116850FM-12+005399999V0201401N002019999999N0100001N1+02721+02251100751ADDAA199000091GF108991081001999999071999MD1210061+9999REMSYN060AAXX  02121 54916 32960 81402 10272 20225 40075 52006 8807/;EQDQ01  00002PRCP99
0165549160999992000080218004+35570+116850FM-12+005399999V0200701N003019999999N0120001N1+02391+02071100851ADDAA199000091GF108991081001999999071999KA1999M+03231MD1410001+9999REMSYN070AAXX  02181 54916 32962 80703 10239 20207 40085 54000 8807/ 333 10323;EQDQ01  00002PRCP99
0112549160999992000080221004+35570+116850FM-12+005399999V0200401N003019999999N0100001N1+02321+02191100881ADDGF108991081001999999071999MD1210031+9999REMSYN060AAXX  02211 54916 42960 80403 10232 20219 40088 52003 8807/;
0152549160999992000080300004+35570+116850FM-12+005399999V0200401N002019999999N0100001N1+02481+02261100941ADDAA199000091GF107991071001999999031999MD1210061+0001REMSYN070AAXX  03001 54916 32960 70402 10248 20226 40094 52006 8703/ 333 00000;EQDQ01  00002PRCP99
0112549160999992000080303004+35570+116850FM-12+005399999V0200701N004010120019N0100001N1+02831+02341100961ADDGF105991051041012501001001MD1210021+9999REMSYN060AAXX  03031 54916 42660 50704 10283 20234 40096 52002 85400;
0165549160999992000080306004+35570+116850FM-12+005399999V0200401N004010360019N0120001N1+03041+02191100891ADDAA199000091GF107991021011008001041021KA1999N+02291MD1710071+9999REMSYN070AAXX  03061 54916 32562 70404 10304 20219 40089 57007 82142 333 20229;EQDQ01  00002PRCP99
0112549160999992000080309004+35570+116850FM-12+005399999V0201801N004010120019N0120001N1+02771+02031100851ADDGF106991061091012501001001MD1710041+9999REMSYN060AAXX  03091 54916 42662 61804 10277 20203 40085 57004 86900;
0152549160999992000080312004+35570+116850FM-12+005399999V0209999C000012200019N0120001N1+02491+02241100911ADDAA199000091GA1001+999999999GF100991001001999999001001MD1210051+9999REMSYN054AAXX  03121 54916 32962 00000 10249 20224 40091 52005;EQDQ01  00002PRCP99
0175549160999992000080318004+35570+116850FM-12+005399999V0200901N002012200019N0100001N1+02161+02071100981ADDAA199000091GA1001+999999999GF100991001001999999001001KA1999M+03141MD1210031+9999REMSYN064AAXX  03181 54916 32960 00902 10216 20207 40098 52003 333 10314;EQDQ01  00002PRCP99
0124549160999992000080321004+35570+116850FM-12+005399999V0200901N002019999999N0060001N1+02051+02001101041ADDGF106991001001999999001021MD1210051+9999MW1101REMSYN066AAXX  03211 54916 41956 60902 10205 20200 40104 52005 71000 80002;
0164549160999992000080400004+35570+116850FM-12+005399999V0200401N002012200019N0080001N1+02431+02241101131ADDAA199000091GF102991001001999999001021MD1210091+0021MW1101REMSYN076AAXX  04001 54916 31958 20402 10243 20224 40113 52009 71000 80002 333 00251;EQDQ01  00002PRCP99
0112549160999992000080403004+35570+116850FM-12+005399999V0200901N002019999999N0100001N1+02851+02111101201ADDGF107991001001999999001021MD1210071+9999REMSYN060AAXX  04031 54916 42960 70902 10285 20211 40120 52007 80002;
0165549160999992000080406004+35570+116850FM-12+005399999V0200901N002019999999N0100001N1+02931+02131101101ADDAA199000091GF108991001001999999001071KA1999N+01981MD1710101+9999REMSYN070AAXX  04061 54916 32960 80902 10293 20213 40110 57010 80007 333 20198;EQDQ01  00002PRCP99
0112549160999992000080409004+35570+116850FM-12+005399999V0203601N002010900019N0100001N1+02921+02151101021ADDGF108991031051017501001071MD1710081+9999REMSYN060AAXX  04091 54916 42760 83602 10292 20215 40102 57008 83507;
0142549160999992000080412004+35570+116850FM-12+005399999V0203401N002019999999N0100001N1+02711+02261101051ADDAA199000091GF108991081001999999071999MD1210041+9999REMSYN060AAXX  04121 54916 32960 83402 10271 20226 40105 52004 8807/;EQDQ01  00002PRCP99
0165549160999992000080418004+35570+116850FM-12+005399999V0200401N001019999999N0100001N1+02421+02301101141ADDAA199000091GF108991081001999999071999KA1999M+03001MD1210011+9999REMSYN070AAXX  04181 54916 32960 80401 10242 20230 40114 52001 8807/ 333 10300;EQDQ01  00002PRCP99
0112549160999992000080421004+35570+116850FM-12+005399999V0200701N001019999999N0100001N1+02341+02221101121ADDGF108991081001999999071999MD1710021+9999REMSYN060AAXX  04211 54916 42960 80701 10234 20222 40112 57002 8807/;
0152549160999992000080500004+35570+116850FM-12+005399999V0200901N002019999999N0100001N1+02511+02261101231ADDAA199000091GF107991071001999999031999MD1210101+0011REMSYN070AAXX  05001 54916 32960 70902 10251 20226 40123 52010 8703/ 333 00101;EQDQ01  00002PRCP99
0112549160999992000080503004+35570+116850FM-12+005399999V0200401N002019999999N0100001N1+02931+02111101201ADDGF107991071001999999031999MD1710021+9999REMSYN060AAXX  05031 54916 42960 70402 10293 20211 40120 57002 8703/;
0165549160999992000080506004+35570+116850FM-12+005399999V0203601N003010120019N0100001N1+02971+02231101111ADDAA199000091GF108991051051012501071999KA1999N+02301MD1710091+9999REMSYN070AAXX  05061 54916 32660 83603 10297 20223 40111 57009 8557/ 333 20230;EQDQ01  00002PRCP99
0112549160999992000080509004+35570+116850FM-12+005399999V0203601N003019999999N0100001N1+02741+02271101041ADDGF108991081001999999071999MD1710081+9999REMSYN060AAXX  05091 54916 42960 83603 10274 20227 40104 57008 8807/;
0142549160999992000080512004+35570+116850FM-12+005399999V0203201N003010120019N0100001N1+02631+02291101051ADDAA199000091GF106991061051012501001001MD1210021+9999REMSYN060AAXX  05121 54916 32660 63203 10263 20229 40105 52002 86500;EQDQ01  00002PRCP99
0165549160999992000080518004+35570+116850FM-12+005399999V0203401N002019999999N0120001N1+02381+02261101131ADDAA199000091GF108991081001999999071999KA1999M+03011MD1710031+9999REMSYN070AAXX  05181 54916 32962 83402 10238 20226 40113 57003 8807/ 333 10301;EQDQ01  00002PRCP99
0112549160999992000080521004+35570+116850FM-12+005399999V0200201N001012200019N0100001N1+02281+02221101041ADDGF102991021001999999031001MD1710101+9999REMSYN060AAXX  05211 54916 42960 20201 10228 20222 40104 57010 82030;
0164549160999992000080600004+35570+116850FM-12+005399999V0200401N001010120019N0050001N1+02551+02361101081ADDAA199000091GF107991071051012501999999MD1210051+0011MW1101REMSYN076AAXX  06001 54916 31650 70401 10255 20236 40108 52005 71000 875// 333 05100;EQDQ01  00002PRCP99
0112549160999992000080603004+35570+116850FM-12+005399999V0200201N002010120019N0100001N1+03001+02371101141ADDGF107991071041012501999999MD1210061+9999REMSYN060AAXX  06031 54916 42660 70202 10300 20237 40114 52006 874//;
0165549160999992000080606004+35570+116850FM-12+005399999V0203201N003010120019N0100001N1+03121+02301101031ADDAA199000091GF107991071041012501999999KA1999N+02211MD1710111+9999REMSYN070AAXX  06061 54916 32660 73203 10312 20230 40103 57011 874// 333 20221;EQDQ01  00002PRCP99
0112549160999992000080609004+35570+116850FM-12+005399999V0203401N003019999999N0120001N1+03131+02111100891ADDGF107991001001999999001021MD1710141+9999REMSYN060AAXX  06091 54916 42962 73403 10313 20211 40089 57014 80002;
0142549160999992000080612004+35570+116850FM-12+005399999V0203401N003019999999N0100001N1+02801+02411100981ADDAA199000091GF107991001001999999001021MD1210091+9999REMSYN060AAXX  06121 54916 32960 73403 10280 20241 40098 52009 80002;EQDQ01  00002PRCP99
0165549160999992000080618004+35570+116850FM-12+005399999V0200201N001019999999N0100001N1+02461+02191100981ADDAA199000091GF108991081001999999071999KA1999M+03211MD1710061+9999REMSYN070AAXX  06181 54916 32960 80201 10246 20219 40098 57006 8807/ 333 10321;EQDQ01  00002PRCP99
0112549160999992000080621004+35570+116850FM-12+005399999V0203401N002019999999N0100001N1+02451+02241100971ADDGF108991081001999999071999MD1710011+9999REMSYN060AAXX  06211 54916 42960 83402 10245 20224 40097 57001 8807/;
0152549160999992000080700004+35570+116850FM-12+005399999V0200901N001010150019N0100001N1+02651+02421101031ADDAA199000091GF107991071051017501999999MD1210061+0011REMSYN070AAXX  07001 54916 32760 70901 10265 20242 40103 52006 875// 333 05101;EQDQ01  00002PRCP99
0112549160999992000080703004+35570+116850FM-12+005399999V0201801N003019999999N0120001N1+03141+02401101021ADDGF107991071001999999031999MD1710011+9999REMSYN060AAXX  07031 54916 42962 71803 10314 20240 40102 57001 8703/;
0164549160999992000080706004+35570+116850FM-12+005399999V0200401N006010120019N0100001N1+02451+02271100921ADDAA106013091GF108991081091012501999999KA1999N+02361MD1710111+9999MW1951REMSYN082AAXX  07061 54916 11660 80406 10245 20227 40092 57011 60131 79500 889// 333 20236;
0140549160999992000080709004+35570+116850FM-12+005399999V0209999C000010360019N0100001N1+02781+02481100801ADDAY191031AY281031GF108991031041012501071999MD1710111+9999MW1001REMSYN066AAXX  07091 54916 41660 80000 10278 20248 40080 57011 70098 8347/;
0157549160999992000080712004+35570+116850FM-12+005399999V0200401N002010120019N0100001N1+02541+02381100871ADDAA106000391AY191061AY281061GF108991051041012501071999MD1210071+9999MW1801REMSYN072AAXX  07121 54916 11660 80402 10254 20238 40087 52007 69931 78098 8547/;
0172549160999992000080718004+35570+116850FM-12+005399999V0200701N001010150019N0100001N1+02391+02351100911ADDAA106000791AY181061GF108991081051017501999999KA1999M+03241MD1710081+9999MW1001REMSYN082AAXX  07181 54916 11760 80701 10239 20235 40091 57008 69901 70080 885// 333 10324;
0133549160999992000080721004+35570+116850FM-12+005399999V0201101N002019999999N0100001N1+02391+02351100891ADDAA124013091GF106991061001999999031001MD1710011+9999REMSYN070AAXX  07211 54916 42960 61102 10239 20235 40089 57001 86030 333 70129;
0139549160999992000080800004+35570+116850FM-12+005399999V0201101N002019999999N0100001N1+02711+02561100921ADDAA124013091GF106991001001999999001021MD1210031-0101REMSYN076AAXX  08001 54916 32960 61102 10271 20256 40092 52003 80002 333 05101 70129;
0112549160999992000080803004+35570+116850FM-12+005399999V0201801N004010075019N0100001N1+03111+02541100881ADDGF106991061011008001001001MD1710041+9999REMSYN060AAXX  08031 54916 42560 61804 10311 20254 40088 57004 86100;
0165549160999992000080806004+35570+116850FM-12+005399999V0202001N004019999999N0100001N1+03231+02381100731ADDAA199000091GF107991001001999999001021KA1999N+02331MD1710151+9999REMSYN070AAXX  08061 54916 32960 72004 10323 20238 40073 57015 80002 333 20233;EQDQ01  00002PRCP99
0112549160999992000080809004+35570+116850FM-12+005399999V0201801N002019999999N0100001N1+03281+02471100631ADDGF105991001001999999001021MD1710101+9999REMSYN060AAXX  08091 54916 42960 51802 10328 20247 40063 57010 80002;
0149549160999992000080812004+35570+116850FM-12+005399999V0201601N005010120019N0100001N1+02891+02451100741ADDAA106002091AY181061GF106991061041012501001001MD1210111+9999MW1251REMSYN072AAXX  08121 54916 11660 61605 10289 20245 40074 52011 60021 72580 86400;
0164549160999992000080818004+35570+116850FM-12+005399999V0201101N001010120019N0120001N1+02651+02521100681ADDAA106000191GF108991061041012501071999KA1999M+03381MD1710111+9999MW1801REMSYN082AAXX  08181 54916 11662 81101 10265 20252 40068 57011 69911 78000 8647/ 333 10338;
0161549160999992000080821004+35570+116850FM-12+005399999V0209999C000010150019N0100001N1+02601+02561100651ADDAA124003891AY181031AY261031GF108991081051017501999999MD1710031+9999MW1211REMSYN076AAXX  08211 54916 41760 80000 10260 20256 40065 57003 72186 885// 333 70037;
0173549160999992000080900004+35570+116850FM-12+005399999V0201801N003019999999N0100001N1+02701+02551100691ADDAA106002091AY181061AY261061GF108991081001999999071999MD1210031-0201MW1001REMSYN088AAXX  09001 54916 11960 81803 10270 20255 40069 52003 60021 70086 8807/ 333 05200 70037;
0112549160999992000080903004+35570+116850FM-12+005399999V0201601N005019999999N0100001N1+02881+02561100741ADDGF108991081001999999071999MD1210051+9999REMSYN060AAXX  09031 54916 42960 81605 10288 20256 40074 52005 8807/;
0146549160999992000080906004+35570+116850FM-12+005399999V0201801N006010120019N0100001N1+03121+02501100471ADDAA199000021GF107991071041012501999999KA1999N+02561MD1710261+9999REMSYN070AAXX  09061 54916 32660 71806 10312 20250 40047 57026 874// 333 20256;
0132549160999992000080909004+35570+116850FM-12+005399999V0202701N006010120019N0100001N1+02531+02401100561ADDAY191031GF108991081091012501999999MD1210081+9999MW1951REMSYN066AAXX  09091 54916 41660 82706 10253 20240 40056 52008 79590 889//;
0157549160999992000080912004+35570+116850FM-12+005399999V0201401N003010120019N0100001N1+02501+02441100541ADDAA106007991AY191061AY281061GF108991081091012501999999MD1710021+9999MW1951REMSYN072AAXX  09121 54916 11660 81403 10250 20244 40054 57002 60081 79598 889//;
0180549160999992000080918004+35570+116850FM-12+005399999V0201401N002010120019N0100001N1+02591+02551100481ADDAA106002091AY191061AY281061GF107991071041012501999999KA1999M+03211MD1710121+9999MW1001REMSYN082AAXX  09181 54916 11660 71402 10259 20255 40048 57012 60021 70098 874// 333 10321;
0145549160999992000080921004+35570+116850FM-12+005399999V0201401N002010120019N0080001N1+02551+02521100481ADDAA124009791GF108991071041012501071999MD1410001+9999MW1101REMSYN076AAXX  09211 54916 41658 81402 10255 20252 40048 54000 71000 8747/ 333 70096;
0151549160999992000081000004+35570+116850FM-12+005399999V0201801N003010120019N0080001N1+02671+02571100571ADDAA124009791GF107991071041012501999999MD1210091-0101MW1101REMSYN082AAXX  10001 54916 31658 71803 10267 20257 40057 52009 71000 874// 333 05100 70096;
0132549160999992000081003004+35570+116850FM-12+005399999V0201601N003010120019N0100001N1+02671+02501100631ADDAY181031GF108991051041012501071999MD1210061+9999MW1251REMSYN066AAXX  10031 54916 41660 81603 10267 20250 40063 52006 72580 8547/;
0172549160999992000081006004+35570+116850FM-12+005399999V0201401N005010120019N0120001N1+02911+02531100561ADDAA106000791AY181061GF108991051041012501071999KA1999N+02461MD1710071+9999MW1001REMSYN082AAXX  10061 54916 11662 81405 10291 20253 40056 57007 69901 70080 8547/ 333 20246;
0112549160999992000081009004+35570+116850FM-12+005399999V0201401N004010075019N0120001N1+02861+02511100401ADDGF107991061011008001031001MD1710161+9999REMSYN060AAXX  10091 54916 42562 71404 10286 20251 40040 57016 86130;
0123549160999992000081012004+35570+116850FM-12+005399999V0200901N002019999999N0120001N1+02681+02551100491ADDAA199000021GF105991001001999999001021MD1210091+9999REMSYN060AAXX  10121 54916 32962 50902 10268 20255 40049 52009 80002;
0165549160999992000081018004+35570+116850FM-12+005399999V0200901N002012200019N0100001N1+02511+02451100501ADDAA199000091GF102991001001999999001021KA1999M+02941MD1710081+9999REMSYN070AAXX  10181 54916 32960 20902 10251 20245 40050 57008 80002 333 10294;EQDQ01  00002PRCP99
0133549160999992000081021004+35570+116850FM-12+005399999V0200901N002010120019N0100001N1+02511+02501100501ADDAA124000791GF107991071051012501999999MD1410001+9999REMSYN070AAXX  10211 54916 42660 70902 10251 20250 40050 54000 875// 333 79999;
0139549160999992000081100004+35570+116850FM-12+005399999V0201101N002010120019N0100001N1+02671+02541100601ADDAA124000791GF107991071051012501999999MD1210101+0001REMSYN076AAXX  11001 54916 32660 71102 10267 20254 40060 52010 875// 333 00000 79999;
0112549160999992000081103004+35570+116850FM-12+005399999V0200901N003010150019N0100001N1+02931+02431100631ADDGF107991071051017501999999MD1210031+9999REMSYN060AAXX  11031 54916 42760 70903 10293 20243 40063 52003 875//;
0112549160999992000081109004+35570+116850FM-12+005399999V0200901N004012200019N0120001N1+03221+02411100371ADDGF102991021011008001001001MD1710141+9999REMSYN060AAXX  11091 54916 42562 20904 10322 20241 40037 57014 82100;
0152549160999992000081112004+35570+116850FM-12+005399999V0200901N002012200019N0120001N1+02811+02431100481ADDAA199000091GA1001+999999999GF100991001001999999001001MD1210101+9999REMSYN054AAXX  11121 54916 32962 00902 10281 20243 40048 52010;EQDQ01  00002PRCP99
0175549160999992000081118004+35570+116850FM-12+005399999V0200401N003012200019N0120001N1+02541+02401100641ADDAA199000091GA1001+999999999GF100991001001999999001001KA1999M+03291MD1710041+9999REMSYN064AAXX  11181 54916 32962 00403 10254 20240 40064 57004 333 10329;EQDQ01  00002PRCP99
0112549160999992000081121004+35570+116850FM-12+005399999V0200401N002012200019N0120001N1+02461+02341100541ADDGF101991001001999999001021MD1710101+9999REMSYN060AAXX  11211 54916 42962 10402 10246 20234 40054 57010 80002;
0124549160999992000081203004+35570+116850FM-12+005399999V0200901N003010120019N0120001N1+02771+02461100621ADDGF107991071041012501999999MD1210031+9999MW1251REMSYN066AAXX  12031 54916 41662 70903 10277 20246 40062 52003 72500 874//;
0172549160999992000081206004+35570+116850FM-12+005399999V0201101N003010120019N0100001N1+03061+02511100541ADDAA106000591AY181061GF107991071041012501999999KA1999N+02421MD1710081+9999MW1001REMSYN082AAXX  12061 54916 11660 71103 10306 20251 40054 57008 69951 70080 874// 333 20242;
0124549160999992000081209004+35570+116850FM-12+005399999V0201401N002010120019N0120001N1+02971+02621100441ADDGF107991071041012501999999MD1710101+9999MW1251REMSYN066AAXX  12091 54916 41662 71402 10297 20262 40044 57010 72500 874//;
0149549160999992000081212004+35570+116850FM-12+005399999V0200901N002010120019N0100001N1+02771+02461100511ADDAA106000191AY181061GF107991071041012501999999MD1210071+9999MW1001REMSYN072AAXX  12121 54916 11660 70902 10277 20246 40051 52007 69921 70080 874//;
0145549160999992000081221004+35570+116850FM-12+005399999V0200901N003010120019N0100001N1+02491+02481100451ADDAA124015791GF108991071041012501071999MD1710051+9999MW1801REMSYN076AAXX  12211 54916 41660 80903 10249 20248 40045 57005 78000 8747/ 333 70157;
0165549160999992000081300004+35570+116850FM-12+005399999V0200401N002010120019N0100001N1+02301+02301100601ADDAA106027991AY181061GF108991081091012501999999MD1210151+0001MW1951REMSYN088AAXX  13001 54916 11660 80402 10230 20230 40060 52015 60281 79580 889// 333 00054 70287;
0140549160999992000081303004+35570+116850FM-12+005399999V0200401N002010120019N0100001N1+02341+02301100581ADDAY191031AY281031GF106991061091012501001001MD1710021+9999MW1291REMSYN066AAXX  13031 54916 41660 60402 10234 20230 40058 57002 72998 86900;
0180549160999992000081306004+35570+116850FM-12+005399999V0200201N002010120019N0100001N1+02631+02341100501ADDAA106031091AY191061AY281061GF106991061041012501001001KA1999N+02251MD1710081+9999MW1251REMSYN082AAXX  13061 54916 11660 60202 10263 20234 40050 57008 60311 72598 86400 333 20225;
0112549160999992000081309004+35570+116850FM-12+005399999V0200901N002010120019N0120001N1+02821+02451100471ADDGF107991071041012501999999MD1710031+9999REMSYN060AAXX  13091 54916 42662 70902 10282 20245 40047 57003 874//;
0133549160999992000081312004+35570+116850FM-12+005399999V0200401N002012200019N0120001N1+02601+02501100511ADDAA199000021GA1001+999999999GF100991001001999999001001MD1210041+9999REMSYN054AAXX  13121 54916 32962 00402 10260 20250 40051 52004;
0146549160999992000081318004+35570+116850FM-12+005399999V0203601N002010150019N0100001N1+02501+02431100521ADDAA199000021GF108991081051017501999999KA1999M+02851MD1710111+9999REMSYN070AAXX  13181 54916 32760 83602 10250 20243 40052 57011 885// 333 10285;
0133549160999992000081321004+35570+116850FM-12+005399999V0200201N001010120019N0100001N1+02491+02451100491ADDAA124043491GF107991071051012501999999MD1710031+9999REMSYN070AAXX  13211 54916 42660 70201 10249 20245 40049 57003 875// 333 70435;
0149549160999992000081400004+35570+116850FM-12+005399999V0200401N002012200019N0100001N1+02691+02541100481ADDAA124030591GA1001+999999999GF100991001001999999001001MD1710011-0101REMSYN070AAXX  14001 54916 32960 00402 10269 20254 40048 57001 333 05104 70305;
0112549160999992000081403004+35570+116850FM-12+005399999V0200401N002010075019N0100001N1+02821+02631100391ADDGF106991061011008001001001MD1710091+9999REMSYN060AAXX  14031 54916 42560 60402 10282 20263 40039 57009 86100;
0165549160999992000081406004+35570+116850FM-12+005399999V0200401N002012200019N0120001N1+03231+02521100231ADDAA199000091GF104991041011008001001001KA1999N+02441MD1710151+9999REMSYN070AAXX  14061 54916 32562 40402 10323 20252 40023 57015 84100 333 20244;EQDQ01  00002PRCP99
0142549160999992000081412004+35570+116850FM-12+005399999V0203201N002012200019N0100001N1+02951+02561100241ADDAA199000091GF102991021041012501001001MD1210091+9999REMSYN060AAXX  14121 54916 32660 23202 10295 20256 40024 52009 82400;EQDQ01  00002PRCP99
0165549160999992000081418004+35570+116850FM-12+005399999V0209999C000019999999N0100001N1+02531+02441100271ADDAA199000091GF106991061001999999031001KA1999M+03261MD1710061+9999REMSYN070AAXX  14181 54916 32960 60000 10253 20244 40027 57006 86030 333 10326;EQDQ01  00002PRCP99
0152549160999992000081500004+35570+116850FM-12+005399999V0202001N001012200019N0100001N1+02711+02501100341ADDAA199000091GF102991021001999999031001MD1210131+0011REMSYN070AAXX  15001 54916 32960 22001 10271 20250 40034 52013 82030 333 05100;EQDQ01  00002PRCP99
0112549160999992000081503004+35570+116850FM-12+005399999V0202501N002019999999N0100001N1+03021+02621100351ADDGF107991001001999999001021MD1210011+9999REMSYN060AAXX  15031 54916 42960 72502 10302 20262 40035 52001 80002;
0165549160999992000081506004+35570+116850FM-12+005399999V0203201N004010120019N0100001N1+03151+02491100201ADDAA199000091GF107991071041012501999999KA1999N+02441MD1710151+9999REMSYN070AAXX  15061 54916 32660 73204 10315 20249 40020 57015 874// 333 20244;EQDQ01  00002PRCP99
0112549160999992000081509004+35570+116850FM-12+005399999V0202901N004012200019N0100001N1+03171+02391100051ADDGF101991011011008001001001MD1710151+9999REMSYN060AAXX  15091 54916 42560 12904 10317 20239 40005 57015 81100;
0142549160999992000081512004+35570+116850FM-12+005399999V0209999C000010120019N0100001N1+02451+02291100261ADDAA199000091GF107991071041012501999999MD1210201+9999REMSYN060AAXX  15121 54916 32660 70000 10245 20229 40026 52020 874//;EQDQ01  00002PRCP99
0172549160999992000081518004+35570+116850FM-12+005399999V0209999C000010120019N0100001N1+02381+02311100261ADDAA106000591AY181061GF107991071041012501999999KA1999M+03231MD1710071+9999MW1001REMSYN082AAXX  15181 54916 11660 70000 10238 20231 40026 57007 69961 70080 874// 333 10323;
0133549160999992000081521004+35570+116850FM-12+005399999V0203201N002010120019N0100001N1+02391+02331100251ADDAA124000591GF105991051051012501001001MD1710011+9999REMSYN070AAXX  15211 54916 42660 53202 10239 20233 40025 57001 85500 333 70006;
0169549160999992000081600004+35570+116850FM-12+005399999V0203601N002012200019N0080001N1+02531+02311100381ADDAA124000591AY141061GA1001+999999999GF100991001001999999001001MD1210131+0001MW1281REMSYN076AAXX  16001 54916 31958 03602 10253 20231 40038 52013 72840 333 00052 70006;
0122549160999992000081603004+35570+116850FM-12+005399999V0200401N001012200019N0120001N1+02981+02381100421ADDGA1001+999999999GF100991001001999999001001MD1210041+9999REMSYN054AAXX  16031 54916 42962 00401 10298 20238 40042 52004;
0165549160999992000081606004+35570+116850FM-12+005399999V0203601N003010075019N0120001N1+03271+02461100321ADDAA199000091GF105991051011008001001001KA1999N+02261MD1710091+9999REMSYN070AAXX  16061 54916 32562 53603 10327 20246 40032 57009 85100 333 20226;EQDQ01  00002PRCP99
0122549160999992000081609004+35570+116850FM-12+005399999V0200401N002012200019N0120001N1+03241+02421100231ADDGA1001+999999999GF100991001001999999001001MD1710091+9999REMSYN054AAXX  16091 54916 42962 00402 10324 20242 40023 57009;
0142549160999992000081612004+35570+116850FM-12+005399999V0209999C000019999999N0100001N1+02821+02551100361ADDAA199000091GF105991001001999999001021MD1210121+9999REMSYN060AAXX  16121 54916 32960 50000 10282 20255 40036 52012 80002;EQDQ01  00002PRCP99
0175549160999992000081618004+35570+116850FM-12+005399999V0200401N001012200019N0100001N1+02461+02371100641ADDAA199000091GA1001+999999999GF100991001001999999001001KA1999M+03331MD1210061+9999REMSYN064AAXX  16181 54916 32960 00401 10246 20237 40064 52006 333 10333;EQDQ01  00002PRCP99
0112549160999992000081621004+35570+116850FM-12+005399999V0201101N001012200019N0100001N1+02371+02301100671ADDGF102991001001999999001021MD1210031+9999REMSYN060AAXX  16211 54916 42960 21101 10237 20230 40067 52003 80002;
0152549160999992000081700004+35570+116850FM-12+005399999V0200401N001012200019N0100001N1+02651+02411100771ADDAA199000091GF101991001001999999001021MD1210101+0041REMSYN070AAXX  17001 54916 32960 10401 10265 20241 40077 52010 80002 333 00401;EQDQ01  00002PRCP99
0165549160999992000081706004+35570+116850FM-12+005399999V0203601N003010075019N0120001N1+03241+02361100691ADDAA199000091GF106991061011008001001001KA1999N+02311MD1710131+9999REMSYN070AAXX  17061 54916 32562 63603 10324 20236 40069 57013 86100 333 20231;EQDQ01  00002PRCP99
0112549160999992000081709004+35570+116850FM-12+005399999V0200401N002010360019N0120001N1+03171+02291100621ADDGF105991021011008001031001MD1710071+9999REMSYN060AAXX  17091 54916 42562 50402 10317 20229 40062 57007 82130;
0142549160999992000081712004+35570+116850FM-12+005399999V0200401N002019999999N0100001N1+02771+02411100721ADDAA199000091GF108991081001999999071999MD1210101+9999REMSYN060AAXX  17121 54916 32960 80402 10277 20241 40072 52010 8807/;EQDQ01  00002PRCP99
0165549160999992000081718004+35570+116850FM-12+005399999V0200401N002010360019N0100001N1+02591+02421100891ADDAA199000091GF108991031041012501071999KA1999M+03301MD1710021+9999REMSYN070AAXX  17181 54916 32660 80402 10259 20242 40089 57002 8347/ 333 10330;EQDQ01  00002PRCP99
0112549160999992000081721004+35570+116850FM-12+005399999V0200401N002010120019N0100001N1+02521+02401100861ADDGF107991071041012501999999MD1710031+9999REMSYN060AAXX  17211 54916 42660 70402 10252 20240 40086 57003 874//;
0152549160999992000081800004+35570+116850FM-12+005399999V0200701N002010360019N0100001N1+02641+02451100951ADDAA199000091GF108991031041012501071999MD1210091+0021REMSYN070AAXX  18001 54916 32660 80702 10264 20245 40095 52009 8347/ 333 00200;EQDQ01  00002PRCP99
0112549160999992000081803004+35570+116850FM-12+005399999V0200901N001010120019N0100001N1+02931+02421100991ADDGF107991071041012501999999MD1210041+9999REMSYN060AAXX  18031 54916 42660 70901 10293 20242 40099 52004 874//;
0164549160999992000081806004+35570+116850FM-12+005399999V0203401N005010120019N0100001N1+02751+02281100871ADDAA106000791GF107991071041012501999999KA1999N+02471MD1710121+9999MW1251REMSYN082AAXX  18061 54916 11660 73405 10275 20228 40087 57012 69901 72500 874// 333 20247;
0132549160999992000081809004+35570+116850FM-12+005399999V0203601N004010120019N0100001N1+02671+02431100771ADDAY181031GF108991071041012501071999MD1710101+9999MW1801REMSYN066AAXX  18091 54916 41660 83604 10267 20243 40077 57010 78080 8747/;
0149549160999992000081812004+35570+116850FM-12+005399999V0203401N002010120019N0100001N1+02551+02421100861ADDAA106000191AY181061GF107991071041012501999999MD1210091+9999MW1001REMSYN072AAXX  18121 54916 11660 73402 10255 20242 40086 52009 69911 70080 874//;
0146549160999992000081818004+35570+116850FM-12+005399999V0200201N001010120019N0100001N1+02361+02211100681ADDAA199000021GF107991071051012501999999KA1999M+03031MD1710161+9999REMSYN070AAXX  18181 54916 32660 70201 10236 20221 40068 57016 875// 333 10303;
0133549160999992000081821004+35570+116850FM-12+005399999V0203401N002010120019N0100001N1+02381+02261100671ADDAA124000191GF107991071051012501999999MD1710011+9999REMSYN070AAXX  18211 54916 42660 73402 10238 20226 40067 57001 875// 333 70001;
0139549160999992000081900004+35570+116850FM-12+005399999V0200401N002010120019N0100001N1+02531+02311100731ADDAA124000191GF107991071051012501999999MD1210061-0201REMSYN076AAXX  19001 54916 32660 70402 10253 20231 40073 52006 875// 333 05251 70001;
0112549160999992000081903004+35570+116850FM-12+005399999V0200201N002010075019N0100001N1+02931+02281100661ADDGF105991051011008001001001MD1710071+9999REMSYN060AAXX  19031 54916 42560 50202 10293 20228 40066 57007 85100;
0165549160999992000081906004+35570+116850FM-12+005399999V0200401N003010075019N0120001N1+03111+02421100511ADDAA199000091GF106991061011008001001001KA1999N+02331MD1710151+9999REMSYN070AAXX  19061 54916 32562 60403 10311 20242 40051 57015 86100 333 20233;EQDQ01  00002PRCP99
0132549160999992000081909004+35570+116850FM-12+005399999V0200701N002012200019N0120001N1+02781+02291100471ADDAY191031GF103991031041012501001001MD1710041+9999MW1291REMSYN066AAXX  19091 54916 41662 30702 10278 20229 40047 57004 72990 83400;
0162549160999992000081912004+35570+116850FM-12+005399999V0200901N002012200019N0100001N1+02501+02171100581ADDAA199000091AY191061GF101991001001999999001021MD1210111+9999MW1001REMSYN066AAXX  19121 54916 31960 10902 10250 20217 40058 52011 70090 80002;EQDQ01  00002PRCP99
0175549160999992000081918004+35570+116850FM-12+005399999V0203401N002012200019N0100001N1+02181+01981100691ADDAA199000091GA1001+999999999GF100991001001999999001001KA1999M+03191MD1710011+9999REMSYN064AAXX  19181 54916 32960 03402 10218 20198 40069 57001 333 10319;EQDQ01  00002PRCP99
0122549160999992000081921004+35570+116850FM-12+005399999V0203401N002012200019N0100001N1+02091+01921100731ADDGA1001+999999999GF100991001001999999001001MD1210031+9999REMSYN054AAXX  19211 54916 42960 03402 10209 20192 40073 52003;
0162549160999992000082000004+35570+116850FM-12+005399999V0203401N004012200019N0100001N1+02331+02011100821ADDAA199000091GA1001+999999999GF100991001001999999001001MD1210091+0011REMSYN064AAXX  20001 54916 32960 03404 10233 20201 40082 52009 333 00152;EQDQ01  00002PRCP99
0112549160999992000082003004+35570+116850FM-12+005399999V0200201N004012200019N0120001N1+02811+01911100811ADDGF101991011011008001001001MD1410001+9999REMSYN060AAXX  20031 54916 42562 10204 10281 20191 40081 54000 81100;
0165549160999992000082006004+35570+116850FM-12+005399999V0203401N006012200019N0120001N1+03031+01871100741ADDAA199000091GF101991011011008001001001KA1999N+02081MD1710071+9999REMSYN070AAXX  20061 54916 32562 13406 10303 20187 40074 57007 81100 333 20208;EQDQ01  00002PRCP99
0112549160999992000082009004+35570+116850FM-12+005399999V0203401N004012200019N0120001N1+02911+01771100691ADDGF101991011011008001001001MD1710051+9999REMSYN060AAXX  20091 54916 42562 13404 10291 20177 40069 57005 81100;
0152549160999992000082012004+35570+116850FM-12+005399999V0203201N002012200019N0120001N1+02501+01771100821ADDAA199000091GA1001+999999999GF100991001001999999001001MD1210121+9999REMSYN054AAXX  20121 54916 32962 03202 10250 20177 40082 52012;EQDQ01  00002PRCP99
0175549160999992000082018004+35570+116850FM-12+005399999V0209999C000012200019N0150001N1+01971+01791101031ADDAA199000091GA1001+999999999GF100991001001999999001001KA1999M+03071MD1210021+9999REMSYN064AAXX  20181 54916 32965 00000 10197 20179 40103 52002 333 10307;EQDQ01  00002PRCP99
0122549160999992000082021004+35570+116850FM-12+005399999V0203601N002012200019N0120001N1+01921+01771101071ADDGA1001+999999999GF100991001001999999001001MD1210041+9999REMSYN054AAXX  20211 54916 42962 03602 10192 20177 40107 52004;
0152549160999992000082100004+35570+116850FM-12+005399999V0203401N002012200019N0100001N1+02231+01801101131ADDAA199000091GF101991011001999999031001MD1210061+0031REMSYN070AAXX  21001 54916 32960 13402 10223 20180 40113 52006 81030 333 00351;EQDQ01  00002PRCP99
0122549160999992000082103004+35570+116850FM-12+005399999V0200401N004012200019N0150001N1+02801+01561101151ADDGA1001+999999999GF100991001001999999001001MD1210021+9999REMSYN054AAXX  21031 54916 42965 00404 10280 20156 40115 52002;
0165549160999992000082106004+35570+116850FM-12+005399999V0200401N002012200019N0150001N1+02981+01711101041ADDAA199000091GF103991001001999999001021KA1999N+01721MD1710111+9999REMSYN070AAXX  21061 54916 32965 30402 10298 20171 40104 57011 80002 333 20172;EQDQ01  00002PRCP99
0112549160999992000082109004+35570+116850FM-12+005399999V0201101N002019999999N0150001N1+02971+01621101031ADDGF107991001001999999001021MD1710011+9999REMSYN060AAXX  21091 54916 42965 71102 10297 20162 40103 57001 80002;
0142549160999992000082112004+35570+116850FM-12+005399999V0203601N002019999999N0100001N1+02401+02001101061ADDAA199000091GF107991001001999999001021MD1210031+9999REMSYN060AAXX  21121 54916 32960 73602 10240 20200 40106 52003 80002;EQDQ01  00002PRCP99
0165549160999992000082118004+35570+116850FM-12+005399999V0201401N002010120019N0100001N1+02111+01921101151ADDAA199000091GF106991061051012501001001KA1999M+03041MD1210011+9999REMSYN070AAXX  21181 54916 32660 61402 10211 20192 40115 52001 86500 333 10304;EQDQ01  00002PRCP99
0112549160999992000082121004+35570+116850FM-12+005399999V0201401N002019999999N0100001N1+01931+01871101201ADDGF106991061001999999031001MD1210051+9999REMSYN060AAXX  21211 54916 42960 61402 10193 20187 40120 52005 86030;
0112549160999992000082203004+35570+116850FM-12+005399999V0201801N004010900019N0120001N1+02831+01891101291ADDGF105991011011008001001021MD1210031+9999REMSYN060AAXX  22031 54916 42562 51804 10283 20189 40129 52003 81102;
0165549160999992000082206004+35570+116850FM-12+005399999V0202201N004012200019N0120001N1+03001+01541101161ADDAA199000091GF103991001001999999001021KA1999N+01911MD1710131+9999REMSYN070AAXX  22061 54916 32962 32204 10300 20154 40116 57013 80002 333 20191;EQDQ01  00002PRCP99
0112549160999992000082209004+35570+116850FM-12+005399999V0202001N003019999999N0100001N1+02891+01861101031ADDGF105991031001999999031021MD1710131+9999REMSYN060AAXX  22091 54916 42960 52003 10289 20186 40103 57013 83032;
0142549160999992000082212004+35570+116850FM-12+005399999V0201401N002012200019N0100001N1+02381+02161101131ADDAA199000091GF102991021001999999031001MD1210101+9999REMSYN060AAXX  22121 54916 32960 21402 10238 20216 40113 52010 82030;EQDQ01  00002PRCP99
0165549160999992000082218004+35570+116850FM-12+005399999V0200901N001019999999N0100001N1+02231+02111101091ADDAA199000091GF108991001001999999001071KA1999M+03031MD1710091+9999REMSYN070AAXX  22181 54916 32960 80901 10223 20211 40109 57009 80007 333 10303;EQDQ01  00002PRCP99
0112549160999992000082221004+35570+116850FM-12+005399999V0200901N001010120019N0100001N1+02311+02141101121ADDGF108991081051012501999999MD1210031+9999REMSYN060AAXX  22211 54916 42660 80901 10231 20214 40112 52003 885//;
0165549160999992000082300004+35570+116850FM-12+005399999V0200901N002010075019N0050001N1+02241+02181101241ADDAA106008991AY161061GF108991061071008001021999MD1210111+0001MW1601REMSYN088AAXX  23001 54916 11550 80902 10224 20218 40124 52011 60091 76060 8672/ 333 00051 70085;
0140549160999992000082303004+35570+116850FM-12+005399999V0201601N002019999999N0100001N1+02321+02201101271ADDAY161031AY261031GF108991081001999999021999MD1210031+9999MW1211REMSYN066AAXX  23031 54916 41960 81602 10232 20220 40127 52003 72166 8802/;
0172549160999992000082306004+35570+116850FM-12+005399999V0201401N001012200019N0100001N1+02761+02171101091ADDAA106002091AY161061GF102991001001999999001021KA1999N+02211MD1710181+9999MW1001REMSYN082AAXX  23061 54916 11960 21401 10276 20217 40109 57018 60021 70060 80002 333 20221;
0112549160999992000082309004+35570+116850FM-12+005399999V0201401N001012200019N0100001N1+02911+02131101001ADDGF103991001001999999001021MD1710081+9999REMSYN060AAXX  23091 54916 42960 31401 10291 20213 40100 57008 80002;
0123549160999992000082312004+35570+116850FM-12+005399999V0200701N002019999999N0100001N1+02481+02231101091ADDAA199000021GF105991001001999999001021MD1210081+9999REMSYN060AAXX  23121 54916 32960 50702 10248 20223 40109 52008 80002;
0165549160999992000082318004+35570+116850FM-12+005399999V0200401N002012200019N0100001N1+02241+02101101001ADDAA199000091GF102991001001999999001021KA1999M+02941MD1710181+9999REMSYN070AAXX  23181 54916 32960 20402 10224 20210 40100 57018 80002 333 10294;EQDQ01  00002PRCP99
0133549160999992000082321004+35570+116850FM-12+005399999V0200401N002012200019N0100001N1+02201+02121100951ADDAA124009991GF102991021001999999031001MD1710041+9999REMSYN070AAXX  23211 54916 42960 20402 10220 20212 40095 57004 82030 333 70100;
0151549160999992000082400004+35570+116850FM-12+005399999V0200401N003010120019N0080001N1+02361+02201101011ADDAA124001591GF107991071041012501999999MD1210051-0201MW1101REMSYN082AAXX  24001 54916 31658 70403 10236 20220 40101 52005 71000 874// 333 05201 70015;
0112549160999992000082403004+35570+116850FM-12+005399999V0200401N004010075019N0100001N1+02931+02421100911ADDGF105991051011008001001001MD1710091+9999REMSYN060AAXX  24031 54916 42560 50404 10293 20242 40091 57009 85100;
0165549160999992000082406004+35570+116850FM-12+005399999V0200401N004010075019N0100001N1+03061+02391100681ADDAA199000091GF106991061021008001001001KA1999N+02161MD1710231+9999REMSYN070AAXX  24061 54916 32560 60404 10306 20239 40068 57023 86200 333 20216;EQDQ01  00002PRCP99
0112549160999992000082409004+35570+116850FM-12+005399999V0200901N006010120019N0100001N1+02971+02231100581ADDGF107991071051012501999999MD1710101+9999REMSYN060AAXX  24091 54916 42660 70906 10297 20223 40058 57010 875//;
0142549160999992000082412004+35570+116850FM-12+005399999V0200401N003012200019N0100001N1+02501+02141100701ADDAA199000091GF102991001001999999001021MD1210111+9999REMSYN060AAXX  24121 54916 32960 20403 10250 20214 40070 52011 80002;EQDQ01  00002PRCP99
0175549160999992000082418004+35570+116850FM-12+005399999V0200401N002012200019N0100001N1+02041+01931100761ADDAA199000091GA1001+999999999GF100991001001999999001001KA1999M+03151MD1410001+9999REMSYN064AAXX  24181 54916 32960 00402 10204 20193 40076 54000 333 10315;EQDQ01  00002PRCP99
0122549160999992000082421004+35570+116850FM-12+005399999V0200401N002012200019N0100001N1+02031+01921100751ADDGA1001+999999999GF100991001001999999001001MD1710011+9999REMSYN054AAXX  24211 54916 42960 00402 10203 20192 40075 57001;
0162549160999992000082500004+35570+116850FM-12+005399999V0200401N003012200019N0100001N1+02411+02031100821ADDAA199000091GA1001+999999999GF100991001001999999001001MD1210061+0021REMSYN064AAXX  25001 54916 32960 00403 10241 20203 40082 52006 333 05201;EQDQ01  00002PRCP99
0112549160999992000082503004+35570+116850FM-12+005399999V0200401N006012200019N0150001N1+02851+02041100751ADDGF101991011011008001001001MD1710061+9999REMSYN060AAXX  25031 54916 42565 10406 10285 20204 40075 57006 81100;
0165549160999992000082506004+35570+116850FM-12+005399999V0200401N004012200019N0150001N1+03141+01931100631ADDAA199000091GF101991011011008001001001KA1999N+01981MD1710121+9999REMSYN070AAXX  25061 54916 32565 10404 10314 20193 40063 57012 81100 333 20198;EQDQ01  00002PRCP99
0112549160999992000082509004+35570+116850FM-12+005399999V0200401N002012200019N0150001N1+03091+01891100541ADDGF102991021011008001001001MD1710091+9999REMSYN060AAXX  25091 54916 42565 20402 10309 20189 40054 57009 82100;
0152549160999992000082512004+35570+116850FM-12+005399999V0203601N003012200019N0150001N1+02611+02151100671ADDAA199000091GA1001+999999999GF100991001001999999001001MD1210131+9999REMSYN054AAXX  25121 54916 32965 03603 10261 20215 40067 52013;EQDQ01  00002PRCP99
0175549160999992000082518004+35570+116850FM-12+005399999V0203601N002012200019N0100001N1+02041+01871100641ADDAA199000091GA1001+999999999GF100991001001999999001001KA1999M+03191MD1710021+9999REMSYN064AAXX  25181 54916 32960 03602 10204 20187 40064 57002 333 10319;EQDQ01  00002PRCP99
0112549160999992000082521004+35570+116850FM-12+005399999V0209999C000012200019N0100001N1+01891+01811100621ADDGF101991001001999999001021MD1710021+9999REMSYN060AAXX  25211 54916 42960 10000 10189 20181 40062 57002 80002;
0162549160999992000082600004+35570+116850FM-12+005399999V0209999C000012200019N0100001N1+02271+01861100731ADDAA199000091GA1001+999999999GF100991001001999999001001MD1210101+0011REMSYN064AAXX  26001 54916 32960 00000 10227 20186 40073 52010 333 05151;EQDQ01  00002PRCP99
0112549160999992000082603004+35570+116850FM-12+005399999V0200401N002012200019N0120001N1+02951+01731100711ADDGF102991001001999999001021MD1710011+9999REMSYN060AAXX  26031 54916 42962 20402 10295 20173 40071 57001 80002;
0165549160999992000082606004+35570+116850FM-12+005399999V0200401N004019999999N0150001N1+03191+01531100591ADDAA199000091GF105991001001999999001021KA1999N+01801MD1710121+9999REMSYN070AAXX  26061 54916 32965 50404 10319 20153 40059 57012 80002 333 20180;EQDQ01  00002PRCP99
0112549160999992000082609004+35570+116850FM-12+005399999V0203601N002019999999N0120001N1+03171+01611100561ADDGF105991001001999999001021MD1710031+9999REMSYN060AAXX  26091 54916 42962 53602 10317 20161 40056 57003 80002;
0142549160999992000082612004+35570+116850FM-12+005399999V0203201N001019999999N0100001N1+02751+02081100711ADDAA199000091GF107991001001999999001021MD1210151+9999REMSYN060AAXX  26121 54916 32960 73201 10275 20208 40071 52015 80002;EQDQ01  00002PRCP99
0165549160999992000082618004+35570+116850FM-12+005399999V0200401N002010150019N0100001N1+02311+01921100811ADDAA199000091GF105991051051017501001001KA1999M+03251MD1210041+9999REMSYN070AAXX  26181 54916 32760 50402 10231 20192 40081 52004 85500 333 10325;EQDQ01  00002PRCP99
0122549160999992000082621004+35570+116850FM-12+005399999V0200401N002012200019N0100001N1+02071+01781100861ADDGA1001+999999999GF100991001001999999001001MD1210051+9999REMSYN054AAXX  26211 54916 42960 00402 10207 20178 40086 52005;
0162549160999992000082700004+35570+116850FM-12+005399999V0200901N002012200019N0100001N1+02511+01971100991ADDAA199000091GA1001+999999999GF100991001001999999001001MD1210131+0031REMSYN064AAXX  27001 54916 32960 00902 10251 20197 40099 52013 333 00302;EQDQ01  00002PRCP99
0112549160999992000082703004+35570+116850FM-12+005399999V0200901N003012200019N0100001N1+02971+01991101041ADDGF101991011011008001001001MD1210051+9999REMSYN060AAXX  27031 54916 42560 10903 10297 20199 40104 52005 81100;
0165549160999992000082706004+35570+116850FM-12+005399999V0200701N004012200019N0120001N1+03091+01921100941ADDAA199000091GF102991021011008001001001KA1999N+02021MD1710101+9999REMSYN070AAXX  27061 54916 32562 20704 10309 20192 40094 57010 82100 333 20202;EQDQ01  00002PRCP99
0112549160999992000082709004+35570+116850FM-12+005399999V0200901N002010900019N0120001N1+02991+02051100851ADDGF107991011011008001001021MD1710091+9999REMSYN060AAXX  27091 54916 42562 70902 10299 20205 40085 57009 81102;
0142549160999992000082712004+35570+116850FM-12+005399999V0201801N002019999999N0100001N1+02671+02181100981ADDAA199000091GF108991001001999999001071MD1210131+9999REMSYN060AAXX  27121 54916 32960 81802 10267 20218 40098 52013 80007;EQDQ01  00002PRCP99
0165549160999992000082718004+35570+116850FM-12+005399999V0200401N002010150019N0100001N1+02451+02231101071ADDAA199000091GF108991081051017501999999KA1999M+03171MD1710081+9999REMSYN070AAXX  27181 54916 32760 80402 10245 20223 40107 57008 885// 333 10317;EQDQ01  00002PRCP99
0112549160999992000082721004+35570+116850FM-12+005399999V0200401N003010150019N0100001N1+02391+02021100961ADDGF106991061051017501001001MD1710111+9999REMSYN060AAXX  27211 54916 42760 60403 10239 20202 40096 57011 86500;
0152549160999992000082800004+35570+116850FM-12+005399999V0203401N002019999999N0100001N1+02551+01971101131ADDAA199000091GF105991001001999999001021MD1210171+0011REMSYN070AAXX  28001 54916 32960 53402 10255 20197 40113 52017 80002 333 00100;EQDQ01  00002PRCP99
0112549160999992000082803004+35570+116850FM-12+005399999V0200901N002010120019N0100001N1+02841+02031101201ADDGF106991061041012501001001MD1210071+9999REMSYN060AAXX  28031 54916 42660 60902 10284 20203 40120 52007 86400;
0165549160999992000082806004+35570+116850FM-12+005399999V0200901N005012200019N0100001N1+03091+01511101071ADDAA199000091GF102991021011008001001001KA1999N+02261MD1710131+9999REMSYN070AAXX  28061 54916 32560 20905 10309 20151 40107 57013 82100 333 20226;EQDQ01  00002PRCP99
0112549160999992000082809004+35570+116850FM-12+005399999V0201401N005012200019N0120001N1+02971+01771100981ADDGF101991001001999999001021MD1710091+9999REMSYN060AAXX  28091 54916 42962 11405 10297 20177 40098 57009 80002;
0152549160999992000082812004+35570+116850FM-12+005399999V0201401N002012200019N0100001N1+02381+01911101091ADDAA199000091GA1001+999999999GF100991001001999999001001MD1210101+9999REMSYN054AAXX  28121 54916 32960 01402 10238 20191 40109 52010;EQDQ01  00002PRCP99
0175549160999992000082818004+35570+116850FM-12+005399999V0200701N001012200019N0100001N1+02081+01941101061ADDAA199000091GA1001+999999999GF100991001001999999001001KA1999M+03131MD1710091+9999REMSYN064AAXX  28181 54916 32960 00701 10208 20194 40106 57009 333 10313;EQDQ01  00002PRCP99
0112549160999992000082821004+35570+116850FM-12+005399999V0200201N002010150019N0100001N1+02081+01941100951ADDGF106991061051017501001001MD1710121+9999REMSYN060AAXX  28211 54916 42760 60202 10208 20194 40095 57012 86500;
0152549160999992000082900004+35570+116850FM-12+005399999V0200401N002019999999N0100001N1+02431+02021101111ADDAA199000091GF107991071001999999031999MD1210161+0001REMSYN070AAXX  29001 54916 32960 70402 10243 20202 40111 52016 8703/ 333 00051;EQDQ01  00002PRCP99
0112549160999992000082903004+35570+116850FM-12+005399999V0200901N003010360019N0100001N1+02751+02091101041ADDGF105991011011008001031001MD1710071+9999REMSYN060AAXX  29031 54916 42560 50903 10275 20209 40104 57007 81130;
0165549160999992000082906004+35570+116850FM-12+005399999V0201401N004010120019N0120001N1+02711+02151100921ADDAA199000091GF108991051041012501071999KA1999N+02001MD1710121+9999REMSYN070AAXX  29061 54916 32662 81404 10271 20215 40092 57012 8547/ 333 20200;EQDQ01  00002PRCP99
0151549160999992000082909004+35570+116850FM-12+005399999V0202001N002019999999N0100001N1+02161+02101100901ADDAY191031GF108991999091012501999999MD1710021+9999MW1951REMSYN066AAXX  29091 54916 41660 82002 10216 20210 40090 57002 79590 899//;EQDQ01+000092SCOTLC
0157549160999992000082912004+35570+116850FM-12+005399999V0200401N002010120019N0100001N1+02151+02101100971ADDAA106034091AY191061AY281061GF108991081091012501999999MD1210071+9999MW1951REMSYN072AAXX  29121 54916 11660 80402 10215 20210 40097 52007 60341 79598 889//;
0180549160999992000082918004+35570+116850FM-12+005399999V0200401N002019999999N0100001N1+02211+02161100821ADDAA106003091AY191061AY281061GF107991071001999999031999KA1999M+02811MD1710131+9999MW1001REMSYN082AAXX  29181 54916 11960 70402 10221 20216 40082 57013 60031 70098 8703/ 333 10281;
0133549160999992000082921004+35570+116850FM-12+005399999V0200401N001010120019N0100001N1+02181+02161100701ADDAA124036691GF108991081051012501999999MD1710121+9999REMSYN070AAXX  29211 54916 42660 80401 10218 20216 40070 57012 885// 333 70366;
0139549160999992000083000004+35570+116850FM-12+005399999V0200401N002019999999N0100001N1+02401+02301100801ADDAA124036691GF108991081001999999071999MD1210101-0301REMSYN076AAXX  30001 54916 32960 80402 10240 20230 40080 52010 8807/ 333 05300 70366;
0132549160999992000083003004+35570+116850FM-12+005399999V0203601N002010120019N0100001N1+02631+02391100801ADDAY161031GF108991081051012501999999MD1410001+9999MW1001REMSYN066AAXX  30031 54916 41660 83602 10263 20239 40080 54000 70060 885//;
0180549160999992000083006004+35570+116850FM-12+005399999V0203201N003010120019N0100001N1+02271+02201100751ADDAA106006191AY191061AY261061GF108991081091012501999999KA1999N+02071MD1710051+9999MW1951REMSYN082AAXX  30061 54916 11660 83203 10227 20220 40075 57005 60061 79596 889// 333 20207;
0140549160999992000083009004+35570+116850FM-12+005399999V0200201N002019999999N0100001N1+02451+02331100581ADDAY191031AY281031GF108991011091012501999999MD1710171+9999MW1801REMSYN066AAXX  30091 54916 41660 80202 10245 20233 40058 57017 78098 819//;
0157549160999992000083012004+35570+116850FM-12+005399999V0203601N003010120019N0100001N1+02311+02211100541ADDAA106007191AY191061AY281061GF108991061041012501071999MD1710041+9999MW1801REMSYN072AAXX  30121 54916 11660 83603 10231 20221 40054 57004 60071 78098 8647/;
0172549160999992000083018004+35570+116850FM-12+005399999V0203601N003010150019N0100001N1+02241+02171100361ADDAA106000591AY161061GF108991081051017501999999KA1999M+02661MD1710121+9999MW1601REMSYN082AAXX  30181 54916 11760 83603 10224 20217 40036 57012 69941 76060 885// 333 10266;
0153549160999992000083021004+35570+116850FM-12+005399999V0203401N003010150019N0100001N1+02261+02161100291ADDAA124013591AY161031GF108991081051017501999999MD1710061+9999MW1001REMSYN076AAXX  30211 54916 41760 83403 10226 20216 40029 57006 70060 885// 333 70135;
0132549160999992000083103004+35570+116850FM-12+005399999V0203401N005010120019N0100001N1+02611+02241100271ADDAY161031GF107991071051012501999999MD1210011+9999MW1001REMSYN066AAXX  31031 54916 41660 73405 10261 20224 40027 52001 70060 875//;
0172549160999992000083106004+35570+116850FM-12+005399999V0203601N005010120019N0100001N1+02651+02131100201ADDAA106000791AY161061GF107991071051012501999999KA1999N+02211MD1710071+9999MW1001REMSYN082AAXX  31061 54916 11660 73605 10265 20213 40020 57007 69901 70060 875// 333 20221;
0112549160999992000083109004+35570+116850FM-12+005399999V0203201N003010120019N0100001N1+02691+02131100201ADDGF107991071051012501999999MD1410001+9999REMSYN060AAXX  31091 54916 42660 73203 10269 20213 40020 54000 875//;
0142549160999992000083112004+35570+116850FM-12+005399999V0203201N002010120019N0100001N1+02511+02201100301ADDAA199000091GF107991071051012501999999MD1210101+9999REMSYN060AAXX  31121 54916 32660 73202 10251 20220 40030 52010 875//;EQDQ01  00002PRCP99
0175549160999992000083118004+35570+116850FM-12+005399999V0203201N001012200019N0100001N1+02211+02131100461ADDAA199000091GA1001+999999999GF100991001001999999001001KA1999M+02741MD1210021+9999REMSYN064AAXX  31181 54916 32960 03201 10221 20213 40046 52002 333 10274;EQDQ01  00002PRCP99
0143549160999992000083121004+35570+116850FM-12+005399999V0209999C000012200019N0100001N1+02121+02071100571ADDAA124000891GA1001+999999999GF100991001001999999001001MD1210101+9999REMSYN064AAXX  31211 54916 42960 00000 10212 20207 40057 52010 333 70007;
0169549160999992000090100004+35570+116850FM-12+005399999V0209999C000012200019N0002001N1+02081+02081100701ADDAA124000791AY141061GA1001+999999999GF100991001001999999001001MD1210131+0401MW1421REMSYN076AAXX  01001 54916 31902 00000 10208 20208 40070 52013 74240 333 00452 79999;
0132549160999992000090103004+35570+116850FM-12+005399999V0203201N001012200019N0100001N1+02801+02131100721ADDAY141031GF101991011011008001001001MD1210031+9999MW1001REMSYN066AAXX  01031 54916 41560 13201 10280 20213 40072 52003 70040 81100;
0185549160999992000090106004+35570+116850FM-12+005399999V0201401N002012200019N0120001N1+03101+02101100621ADDAA199000091AY141061GF101991011011008001001001KA1999N+01961MD1710101+9999MW1001REMSYN076AAXX  01061 54916 31562 11402 10310 20210 40062 57010 70040 81100 333 20196;EQDQ01  00002PRCP99
0112549160999992000090109004+35570+116850FM-12+005399999V0201601N001012200019N0100001N1+03001+02101100571ADDGF101991001001999999001021MD1710051+9999REMSYN060AAXX  01091 54916 42960 11601 10300 20210 40057 57005 80002;
0152549160999992000090112004+35570+116850FM-12+005399999V0209999C000012200019N0100001N1+02471+02261100701ADDAA199000091GA1001+999999999GF100991001001999999001001MD1210121+9999REMSYN054AAXX  01121 54916 32960 00000 10247 20226 40070 52012;EQDQ01  00002PRCP99
0187549160999992000090118004+35570+116850FM-12+005399999V0200901N002012200019N0080001N1+02131+02111100781ADDAA199000091GA1001+999999999GF100991001001999999001001KA1999M+03131MD1210011+9999MW1101REMSYN070AAXX  01181 54916 31958 00902 10213 20211 40078 52001 71000 333 10313;EQDQ01  00002PRCP99
0122549160999992000090121004+35570+116850FM-12+005399999V0200701N002012200019N0100001N1+02091+02061100911ADDGA1001+999999999GF100991001001999999001001MD1210131+9999REMSYN054AAXX  01211 54916 42960 00702 10209 20206 40091 52013;
0164549160999992000090200004+35570+116850FM-12+005399999V0200901N002012200019N0070001N1+02441+02261100981ADDAA199000091GF101991001001999999001021MD1210061+0031MW1101REMSYN076AAXX  02001 54916 31957 10902 10244 20226 40098 52006 71000 80002 333 00304;EQDQ01  00002PRCP99
0112549160999992000090203004+35570+116850FM-12+005399999V0200901N004010075019N0100001N1+03051+02251101001ADDGF106991061011008001001001MD1210031+9999REMSYN060AAXX  02031 54916 42560 60904 10305 20225 40100 52003 86100;
0165549160999992000090206004+35570+116850FM-12+005399999V0200401N002010075019N0100001N1+03071+02241100881ADDAA199000091GF105991051011008001001001KA1999N+02061MD1710121+9999REMSYN070AAXX  02061 54916 32560 50402 10307 20224 40088 57012 85100 333 20206;EQDQ01  00002PRCP99
0112549160999992000090209004+35570+116850FM-12+005399999V0201601N002010120019N0100001N1+03021+02311100881ADDGF106991061041012501001001MD1410001+9999REMSYN060AAXX  02091 54916 42660 61602 10302 20231 40088 54000 86400;
0142549160999992000090212004+35570+116850FM-12+005399999V0209999C000012200019N0100001N1+02591+02401101021ADDAA199000091GF104991001001999999001021MD1210131+9999REMSYN060AAXX  02121 54916 32960 40000 10259 20240 40102 52013 80002;EQDQ01  00002PRCP99
0175549160999992000090218004+35570+116850FM-12+005399999V0200401N001012200019N0100001N1+02301+02261101121ADDAA199000091GA1001+999999999GF100991001001999999001001KA1999M+03211MD1710021+9999REMSYN064AAXX  02181 54916 32960 00401 10230 20226 40112 57002 333 10321;EQDQ01  00002PRCP99
0134549160999992000090221004+35570+116850FM-12+005399999V0200401N001012200019N0060001N1+02231+02201101161ADDGA1001+999999999GF100991001001999999001001MD1210041+9999MW1101REMSYN060AAXX  02211 54916 41956 00401 10223 20220 40116 52004 71000;
0174549160999992000090300004+35570+116850FM-12+005399999V0200901N002012200019N0040001N1+02471+02311101261ADDAA199000091GA1001+999999999GF100991001001999999001001MD1210091+0031MW1101REMSYN070AAXX  03001 54916 31940 00902 10247 20231 40126 52009 71000 333 00300;EQDQ01  00002PRCP99
0122549160999992000090303004+35570+116850FM-12+005399999V0200401N003012200019N0100001N1+03001+02141101261ADDGA1001+999999999GF100991001001999999001001MD1210011+9999REMSYN054AAXX  03031 54916 42960 00403 10300 20214 40126 52001;
0175549160999992000090306004+35570+116850FM-12+005399999V0200901N003012200019N0120001N1+03211+02071101081ADDAA199000091GA1001+999999999GF100991001001999999001001KA1999N+02141MD1710181+9999REMSYN064AAXX  03061 54916 32962 00903 10321 20207 40108 57018 333 20214;EQDQ01  00002PRCP99
0122549160999992000090309004+35570+116850FM-12+005399999V0200701N002012200019N0120001N1+03191+02031100981ADDGA1001+999999999GF100991001001999999001001MD1710101+9999REMSYN054AAXX  03091 54916 42962 00702 10319 20203 40098 57010;
0152549160999992000090312004+35570+116850FM-12+005399999V0200701N001012200019N0120001N1+02531+02301101061ADDAA199000091GA1001+999999999GF100991001001999999001001MD1210071+9999REMSYN054AAXX  03121 54916 32962 00701 10253 20230 40106 52007;EQDQ01  00002PRCP99
0175549160999992000090318004+35570+116850FM-12+005399999V0209999C000012200019N0100001N1+02251+02211101101ADDAA199000091GA1001+999999999GF100991001001999999001001KA1999M+03281MD1210011+9999REMSYN064AAXX  03181 54916 32960 00000 10225 20221 40110 52001 333 10328;EQDQ01  00002PRCP99
0124549160999992000090321004+35570+116850FM-12+005399999V0200901N002019999999N0080001N1+02191+02171101081ADDGF106991001001999999001021MD1710021+9999MW1101REMSYN066AAXX  03211 54916 41958 60902 10219 20217 40108 57002 71000 80002;
0174549160999992000090400004+35570+116850FM-12+005399999V0200901N003012200019N0060001N1+02481+02331101081ADDAA199000091GA1001+999999999GF100991001001999999001001MD1710011+0021MW1101REMSYN070AAXX  04001 54916 31956 00903 10248 20233 40108 57001 71000 333 05200;EQDQ01  00002PRCP99
0122549160999992000090403004+35570+116850FM-12+005399999V0200901N002012200019N0100001N1+03031+02251101081ADDGA1001+999999999GF100991001001999999001001MD1210011+9999REMSYN054AAXX  04031 54916 42960 00902 10303 20225 40108 52001;
0165549160999992000090406004+35570+116850FM-12+005399999V0201401N003012200019N0100001N1+03221+02891100891ADDAA199000091GF102991021011008001001001KA1999N+02121MD1710191+9999REMSYN070AAXX  04061 54916 32560 21403 10322 20289 40089 57019 82100 333 20212;EQDQ01  00002PRCP99
0112549160999992000090409004+35570+116850FM-12+005399999V0200901N003012200019N0120001N1+03121+02051100791ADDGF101991011011008001001001MD1710101+9999REMSYN060AAXX  04091 54916 42562 10903 10312 20205 40079 57010 81100;
0152549160999992000090412004+35570+116850FM-12+005399999V0201601N002012200019N0100001N1+02601+02321100871ADDAA199000091GA1001+999999999GF100991001001999999001001MD1210081+9999REMSYN054AAXX  04121 54916 32960 01602 10260 20232 40087 52008;EQDQ01  00002PRCP99
0165549160999992000090418004+35570+116850FM-12+005399999V0200901N002019999999N0100001N1+02381+02191100861ADDAA199000091GF107991071001999999031999KA1999M+03281MD1710011+9999REMSYN070AAXX  04181 54916 32960 70902 10238 20219 40086 57001 8703/ 333 10328;EQDQ01  00002PRCP99
0145549160999992000090421004+35570+116850FM-12+005399999V0200701N001019999999N0100001N1+02291+02191100861ADDAA124000791GF108991081001999999071999MD1410001+9999MW1211REMSYN076AAXX  04211 54916 41960 80701 10229 20219 40086 54000 72100 8807/ 333 79999;
0165549160999992000090500004+35570+116850FM-12+005399999V0200701N001010150019N0100001N1+02351+02221101071ADDAA106000791AY161061GF108991081051017501999999MD1210201+0001MW1001REMSYN088AAXX  05001 54916 11760 80701 10235 20222 40107 52020 69901 70060 885// 333 00051 79999;
0132549160999992000090503004+35570+116850FM-12+005399999V0200401N006010120019N0100001N1+02091+01921101261ADDAY161031GF108991081051012501999999MD1210191+9999MW1601REMSYN066AAXX  05031 54916 41660 80406 10209 20192 40126 52019 76060 885//;
0172549160999992000090506004+35570+116850FM-12+005399999V0203601N003010120019N0100001N1+01991+01881101351ADDAA106003091AY161061GF108991081051012501999999KA1999N+01931MD1210081+9999MW1601REMSYN082AAXX  05061 54916 11660 83603 10199 20188 40135 52008 60031 76060 885// 333 20193;
0132549160999992000090509004+35570+116850FM-12+005399999V0203601N004010120019N0100001N1+01921+01741101361ADDAY161031GF108991081051012501999999MD1210011+9999MW1601REMSYN066AAXX  05091 54916 41660 83604 10192 20174 40136 52001 76060 885//;
0149549160999992000090512004+35570+116850FM-12+005399999V0203601N004010120019N0100001N1+01821+01591101531ADDAA106000391AY161061GF108991081051012501999999MD1210171+9999MW1001REMSYN072AAXX  05121 54916 11660 83604 10182 20159 40153 52017 69931 70060 885//;
0182549160999992000090518004+35570+116850FM-12+005399999V0203201N001012200019N0100001N1+01551+01351101591ADDAA106000791AY161061GA1001+999999999GF100991001001999999001001KA1999M+02451MD1210021+9999MW1001REMSYN076AAXX  05181 54916 11960 03201 10155 20135 40159 52002 69901 70060 333 10245;
0143549160999992000090521004+35570+116850FM-12+005399999V0203401N003012200019N0100001N1+01471+01291101691ADDAA124003891GA1001+999999999GF100991001001999999001001MD1210101+9999REMSYN064AAXX  05211 54916 42960 03403 10147 20129 40169 52010 333 70037;
0139549160999992000090600004+35570+116850FM-12+005399999V0203601N003012200019N0100001N1+01711+01451101731ADDAA124003891GF103991001001999999001021MD1210041+0601REMSYN076AAXX  06001 54916 32960 33603 10171 20145 40173 52004 80002 333 00656 70037;
0112549160999992000090603004+35570+116850FM-12+005399999V0200201N004012200019N0100001N1+02401+01301101661ADDGF102991001001999999001021MD1710061+9999REMSYN060AAXX  06031 54916 42960 20204 10240 20130 40166 57006 80002;
0165549160999992000090606004+35570+116850FM-12+005399999V0203401N003019999999N0120001N1+02511+01051101531ADDAA199000091GF107991071001999999031999KA1999N+01401MD1710131+9999REMSYN070AAXX  06061 54916 32962 73403 10251 20105 40153 57013 8703/ 333 20140;EQDQ01  00002PRCP99
0142549160999992000090612004+35570+116850FM-12+005399999V0203401N003019999999N0100001N1+02091+01521101711ADDAA199000091GF108991001001999999001071MD1210181+9999REMSYN060AAXX  06121 54916 32960 83403 10209 20152 40171 52018 80007;EQDQ01  00002PRCP99
0172549160999992000090618004+35570+116850FM-12+005399999V0203601N002010150019N0100001N1+01761+01471101771ADDAA106000791AY161061GF108991081051017501999999KA1999M+02611MD1710011+9999MW1001REMSYN082AAXX  06181 54916 11760 83602 10176 20147 40177 57001 69901 70060 885// 333 10261;
0133549160999992000090621004+35570+116850FM-12+005399999V0203401N001010120019N0100001N1+01671+01431101781ADDAA124000791GF108991081051012501999999MD1210011+9999REMSYN070AAXX  06211 54916 42660 83401 10167 20143 40178 52001 885// 333 79999;
0139549160999992000090700004+35570+116850FM-12+005399999V0209999C000010150019N0100001N1+01731+01451101871ADDAA124000791GF108991081051017501999999MD1210091+0201REMSYN076AAXX  07001 54916 32760 80000 10173 20145 40187 52009 885// 333 00200 79999;
0112549160999992000090703004+35570+116850FM-12+005399999V0200401N002019999999N0100001N1+02051+01111101851ADDGF106991041001999999031021MD1710021+9999REMSYN060AAXX  07031 54916 42960 60402 10205 20111 40185 57002 84032;
0165549160999992000090706004+35570+116850FM-12+005399999V0209999C000012200019N0120001N1+02401+00751101681ADDAA199000091GF101991011011008001001001KA1999N+01611MD1710171+9999REMSYN070AAXX  07061 54916 32562 10000 10240 20075 40168 57017 81100 333 20161;EQDQ01  00002PRCP99
0122549160999992000090709004+35570+116850FM-12+005399999V0203401N002012200019N0100001N1+02461+00801101631ADDGA1001+999999999GF100991001001999999001001MD1710051+9999REMSYN054AAXX  07091 54916 42960 03402 10246 20080 40163 57005;
0152549160999992000090712004+35570+116850FM-12+005399999V0202001N002012200019N0100001N1+01681+01331101831ADDAA199000091GA1001+999999999GF100991001001999999001001MD1210191+9999REMSYN054AAXX  07121 54916 32960 02002 10168 20133 40183 52019;EQDQ01  00002PRCP99
0175549160999992000090718004+35570+116850FM-12+005399999V0200901N001012200019N0100001N1+01221+01131101861ADDAA199000091GA1001+999999999GF100991001001999999001001KA1999M+02491MD1710041+9999REMSYN064AAXX  07181 54916 32960 00901 10122 20113 40186 57004 333 10249;EQDQ01  00002PRCP99
0122549160999992000090721004+35570+116850FM-12+005399999V0200901N002012200019N0100001N1+01081+01061101851ADDGA1001+999999999GF100991001001999999001001MD1710011+9999REMSYN054AAXX  07211 54916 42960 00902 10108 20106 40185 57001;
0162549160999992000090800004+35570+116850FM-12+005399999V0200901N002012200019N0100001N1+01631+01331101961ADDAA199000091GA1001+999999999GF100991001001999999001001MD1210111+0011REMSYN064AAXX  08001 54916 32960 00902 10163 20133 40196 52011 333 00151;EQDQ01  00002PRCP99
0122549160999992000090803004+35570+116850FM-12+005399999V0202001N002012200019N0100001N1+02411+00971101911ADDGA1001+999999999GF100991001001999999001001MD1710041+9999REMSYN054AAXX  08031 54916 42960 02002 10241 20097 40191 57004;
0175549160999992000090806004+35570+116850FM-12+005399999V0200401N003012200019N0100001N1+02611+01001101751ADDAA199000091GA1001+999999999GF100991001001999999001001KA1999N+01021MD1710161+9999REMSYN064AAXX  08061 54916 32960 00403 10261 20100 40175 57016 333 20102;EQDQ01  00002PRCP99
0122549160999992000090809004+35570+116850FM-12+005399999V0200701N002012200019N0120001N1+02621+01061101691ADDGA1001+999999999GF100991001001999999001001MD1710061+9999REMSYN054AAXX  08091 54916 42962 00702 10262 20106 40169 57006;
0152549160999992000090812004+35570+116850FM-12+005399999V0202901N002012200019N0100001N1+01931+01451101821ADDAA199000091GA1001+999999999GF100991001001999999001001MD1210121+9999REMSYN054AAXX  08121 54916 32960 02902 10193 20145 40182 52012;EQDQ01  00002PRCP99
0175549160999992000090818004+35570+116850FM-12+005399999V0200701N002012200019N0100001N1+01301+01241101781ADDAA199000091GA1001+999999999GF100991001001999999001001KA1999M+02691MD1710081+9999REMSYN064AAXX  08181 54916 32960 00702 10130 20124 40178 57008 333 10269;EQDQ01  00002PRCP99
0122549160999992000090821004+35570+116850FM-12+005399999V0203401N002012200019N0100001N1+01261+01201101871ADDGA1001+999999999GF100991001001999999001001MD1210091+9999REMSYN054AAXX  08211 54916 42960 03402 10126 20120 40187 52009;
0152549160999992000090900004+35570+116850FM-12+005399999V0203601N001012200019N0100001N1+01671+01391101951ADDAA199000091GF103991001001999999001021MD1210071+0001REMSYN070AAXX  09001 54916 32960 33601 10167 20139 40195 52007 80002 333 00000;EQDQ01  00002PRCP99
0112549160999992000090903004+35570+116850FM-12+005399999V0200201N002019999999N0100001N1+02471+01331101901ADDGF107991001001999999001021MD1710041+9999REMSYN060AAXX  09031 54916 42960 70202 10247 20133 40190 57004 80002;
0165549160999992000090906004+35570+116850FM-12+005399999V0203601N002019999999N0100001N1+02571+01011101751ADDAA199000091GF107991071001999999031999KA1999N+01191MD1710151+9999REMSYN070AAXX  09061 54916 32960 73602 10257 20101 40175 57015 8703/ 333 20119;EQDQ01  00002PRCP99
0112549160999992000090909004+35570+116850FM-12+005399999V0203201N001019999999N0100001N1+02381+01341101711ADDGF108991081001999999071999MD1710051+9999REMSYN060AAXX  09091 54916 42960 83201 10238 20134 40171 57005 8807/;
0142549160999992000090912004+35570+116850FM-12+005399999V0203201N001019999999N0100001N1+02141+01521101811ADDAA199000091GF108991081001999999071999MD1210111+9999REMSYN060AAXX  09121 54916 32960 83201 10214 20152 40181 52011 8807/;EQDQ01  00002PRCP99
0165549160999992000090918004+35570+116850FM-12+005399999V0200201N001012200019N0100001N1+01481+01411101731ADDAA199000091GF103991031001999999031001KA1999M+02651MD1710111+9999REMSYN070AAXX  09181 54916 32960 30201 10148 20141 40173 57011 83030 333 10265;EQDQ01  00002PRCP99
0112549160999992000090921004+35570+116850FM-12+005399999V0200401N001012200019N0100001N1+01391+01321101691ADDGF104991001001999999001021MD1710041+9999REMSYN060AAXX  09211 54916 42960 40401 10139 20132 40169 57004 80002;
0152549160999992000091000004+35570+116850FM-12+005399999V0200901N001019999999N0100001N1+01831+01411101811ADDAA199000091GF105991001001999999001021MD1210121+0011REMSYN070AAXX  10001 54916 32960 50901 10183 20141 40181 52012 80002 333 05102;EQDQ01  00002PRCP99
0112549160999992000091003004+35570+116850FM-12+005399999V0200901N004019999999N0100001N1+02571+00961101821ADDGF106991001001999999001021MD1210011+9999REMSYN060AAXX  10031 54916 42960 60904 10257 20096 40182 52001 80002;
0165549160999992000091006004+35570+116850FM-12+005399999V0200401N003019999999N0100001N1+02691+00971101561ADDAA199000091GF107991061001999999031021KA1999N+01281MD1710261+9999REMSYN070AAXX  10061 54916 32960 70403 10269 20097 40156 57026 86032 333 20128;EQDQ01  00002PRCP99
0112549160999992000091009004+35570+116850FM-12+005399999V0200901N002019999999N0100001N1+02521+01181101491ADDGF108991081001999999071999MD1710071+9999REMSYN060AAXX  10091 54916 42960 80902 10252 20118 40149 57007 8807/;
0142549160999992000091012004+35570+116850FM-12+005399999V0202901N002019999999N0100001N1+02241+01541101601ADDAA199000091GF108991081001999999071999MD1210111+9999REMSYN060AAXX  10121 54916 32960 82902 10224 20154 40160 52011 8807/;EQDQ01  00002PRCP99
0175549160999992000091018004+35570+116850FM-12+005399999V0209999C000012200019N0100001N1+01711+01541101461ADDAA199000091GA1001+999999999GF100991001001999999001001KA1999M+02761MD1710101+9999REMSYN064AAXX  10181 54916 32960 00000 10171 20154 40146 57010 333 10276;EQDQ01  00002PRCP99
0112549160999992000091021004+35570+116850FM-12+005399999V0203601N002019999999N0100001N1+01501+01431101431ADDGF105991001001999999001021MD1710031+9999REMSYN060AAXX  10211 54916 42960 53602 10150 20143 40143 57003 80002;
0162549160999992000091100004+35570+116850FM-12+005399999V0203601N002012200019N0100001N1+01901+01561101511ADDAA199000091GA1001+999999999GF100991001001999999001001MD1210081+0031REMSYN064AAXX  11001 54916 32960 03602 10190 20156 40151 52008 333 05301;EQDQ01  00002PRCP99
0112549160999992000091103004+35570+116850FM-12+005399999V0201101N003019999999N0100001N1+02691+01321101561ADDGF105991001001999999001021MD1210061+9999REMSYN060AAXX  11031 54916 42960 51103 10269 20132 40156 52006 80002;
0165549160999992000091106004+35570+116850FM-12+005399999V0200901N001010075019N0100001N1+02861+01131101321ADDAA199000091GF106991061011008001001001KA1999N+01391MD1710241+9999REMSYN070AAXX  11061 54916 32560 60901 10286 20113 40132 57024 86100 333 20139;EQDQ01  00002PRCP99
0112549160999992000091109004+35570+116850FM-12+005399999V0200401N001019999999N0100001N1+02731+01271101281ADDGF108991001001999999001071MD1710051+9999REMSYN060AAXX  11091 54916 42960 80401 10273 20127 40128 57005 80007;
0142549160999992000091112004+35570+116850FM-12+005399999V0203401N003010120019N0100001N1+02431+01421101411ADDAA199000091GF108991081051012501999999MD1210131+9999REMSYN060AAXX  11121 54916 32660 83403 10243 20142 40141 52013 885//;EQDQ01  00002PRCP99
0165549160999992000091118004+35570+116850FM-12+005399999V0200401N001019999999N0100001N1+01951+01491101431ADDAA199000091GF105991051001999999031001KA1999M+02911MD1710011+9999REMSYN070AAXX  11181 54916 32960 50401 10195 20149 40143 57001 85030 333 10291;EQDQ01  00002PRCP99
0112549160999992000091121004+35570+116850FM-12+005399999V0203601N002010120019N0100001N1+01891+01541101501ADDGF108991081051012501999999MD1210071+9999REMSYN060AAXX  11211 54916 42660 83602 10189 20154 40150 52007 885//;
0152549160999992000091200004+35570+116850FM-12+005399999V0209999C000010120019N0100001N1+01971+01501101611ADDAA199000091GF108991081051012501999999MD1210101+0011REMSYN070AAXX  12001 54916 32660 80000 10197 20150 40161 52010 885// 333 00101;EQDQ01  00002PRCP99
0122549160999992000091203004+35570+116850FM-12+005399999V0200401N003012200019N0100001N1+02701+01181101611ADDGA1001+999999999GF100991001001999999001001MD1210011+9999REMSYN054AAXX  12031 54916 42960 00403 10270 20118 40161 52001;
0175549160999992000091206004+35570+116850FM-12+005399999V0200401N004012200019N0120001N1+02891+01011101491ADDAA199000091GA1001+999999999GF100991001001999999001001KA1999N+01831MD1710121+9999REMSYN064AAXX  12061 54916 32962 00404 10289 20101 40149 57012 333 20183;EQDQ01  00002PRCP99
0112549160999992000091209004+35570+116850FM-12+005399999V0200901N002012200019N0120001N1+02811+01111101431ADDGF101991011011008001001001MD1710061+9999REMSYN060AAXX  12091 54916 42562 10902 10281 20111 40143 57006 81100;
0152549160999992000091212004+35570+116850FM-12+005399999V0200201N001012200019N0120001N1+02031+01601101571ADDAA199000091GA1001+999999999GF100991001001999999001001MD1210131+9999REMSYN054AAXX  12121 54916 32962 00201 10203 20160 40157 52013;EQDQ01  00002PRCP99
0175549160999992000091218004+35570+116850FM-12+005399999V0200201N001012200019N0120001N1+01551+01431101691ADDAA199000091GA1001+999999999GF100991001001999999001001KA1999M+02931MD1710041+9999REMSYN064AAXX  12181 54916 32962 00201 10155 20143 40169 57004 333 10293;EQDQ01  00002PRCP99
0122549160999992000091221004+35570+116850FM-12+005399999V0203601N002012200019N0100001N1+01431+01301101701ADDGA1001+999999999GF100991001001999999001001MD1210011+9999REMSYN054AAXX  12211 54916 42960 03602 10143 20130 40170 52001;
0162549160999992000091300004+35570+116850FM-12+005399999V0200201N001012200019N0100001N1+01931+01511101821ADDAA199000091GA1001+999999999GF100991001001999999001001MD1210121+0021REMSYN064AAXX  13001 54916 32960 00201 10193 20151 40182 52012 333 00200;EQDQ01  00002PRCP99
0122549160999992000091303004+35570+116850FM-12+005399999V0203601N004012200019N0120001N1+02821+01091101781ADDGA1001+999999999GF100991001001999999001001MD1710041+9999REMSYN054AAXX  13031 54916 42962 03604 10282 20109 40178 57004;
0175549160999992000091306004+35570+116850FM-12+005399999V0200401N006012200019N0120001N1+03061+00521101621ADDAA199000091GA1001+999999999GF100991001001999999001001KA1999N+01351MD1710151+9999REMSYN064AAXX  13061 54916 32962 00406 10306 20052 40162 57015 333 20135;EQDQ01  00002PRCP99
0122549160999992000091309004+35570+116850FM-12+005399999V0200201N004012200019N0120001N1+02921+00811101481ADDGA1001+999999999GF100991001001999999001001MD1710151+9999REMSYN054AAXX  13091 54916 42962 00204 10292 20081 40148 57015;
0152549160999992000091312004+35570+116850FM-12+005399999V0203601N002012200019N0120001N1+02301+01381101591ADDAA199000091GA1001+999999999GF100991001001999999001001MD1210111+9999REMSYN054AAXX  13121 54916 32962 03602 10230 20138 40159 52011;EQDQ01  00002PRCP99
0175549160999992000091318004+35570+116850FM-12+005399999V0203401N002012200019N0100001N1+01811+01471101571ADDAA199000091GA1001+999999999GF100991001001999999001001KA1999M+03101MD1710081+9999REMSYN064AAXX  13181 54916 32960 03402 10181 20147 40157 57008 333 10310;EQDQ01  00002PRCP99
0122549160999992000091321004+35570+116850FM-12+005399999V0203401N002012200019N0120001N1+01401+01291101471ADDGA1001+999999999GF100991001001999999001001MD1710111+9999REMSYN054AAXX  13211 54916 42962 03402 10140 20129 40147 57011;
0162549160999992000091400004+35570+116850FM-12+005399999V0200401N001012200019N0100001N1+01911+01581101571ADDAA199000091GA1001+999999999GF100991001001999999001001MD1210101+0031REMSYN064AAXX  14001 54916 32960 00401 10191 20158 40157 52010 333 05300;EQDQ01  00002PRCP99
0122549160999992000091403004+35570+116850FM-12+005399999V0200401N004012200019N0100001N1+02781+01061101531ADDGA1001+999999999GF100991001001999999001001MD1710031+9999REMSYN054AAXX  14031 54916 42960 00404 10278 20106 40153 57003;
0165549160999992000091406004+35570+116850FM-12+005399999V0203601N005012200019N0120001N1+02971+00871101281ADDAA199000091GF102991021011008001001001KA1999N+01371MD1710251+9999REMSYN070AAXX  14061 54916 32562 23605 10297 20087 40128 57025 82100 333 20137;EQDQ01  00002PRCP99
0122549160999992000091409004+35570+116850FM-12+005399999V0200401N003012200019N0150001N1+02851+01021101211ADDGA1001+999999999GF100991001001999999001001MD1710081+9999REMSYN054AAXX  14091 54916 42965 00403 10285 20102 40121 57008;
0152549160999992000091412004+35570+116850FM-12+005399999V0203401N003012200019N0100001N1+02231+01461101331ADDAA199000091GA1001+999999999GF100991001001999999001001MD1210121+9999REMSYN054AAXX  14121 54916 32960 03403 10223 20146 40133 52012;EQDQ01  00002PRCP99
0175549160999992000091418004+35570+116850FM-12+005399999V0203601N002012200019N0100001N1+01861+01431101191ADDAA199000091GA1001+999999999GF100991001001999999001001KA1999M+03031MD1710081+9999REMSYN064AAXX  14181 54916 32960 03602 10186 20143 40119 57008 333 10303;EQDQ01  00002PRCP99
0122549160999992000091421004+35570+116850FM-12+005399999V0203201N002012200019N0100001N1+01651+01421101151ADDGA1001+999999999GF100991001001999999001001MD1710041+9999REMSYN054AAXX  14211 54916 42960 03202 10165 20142 40115 57004;
0162549160999992000091500004+35570+116850FM-12+005399999V0203401N002012200019N0100001N1+02011+01351101211ADDAA199000091GA1001+999999999GF100991001001999999001001MD1210051+0041REMSYN064AAXX  15001 54916 32960 03402 10201 20135 40121 52005 333 05401;EQDQ01  00002PRCP99
0122549160999992000091503004+35570+116850FM-12+005399999V0203201N004012200019N0120001N1+02701+01181101211ADDGA1001+999999999GF100991001001999999001001MD1210011+9999REMSYN054AAXX  15031 54916 42962 03204 10270 20118 40121 52001;
0181549160999992000091506004+35570+116850FM-12+005399999V0203601N006012200019N0150001N1+02911+99999100981ADDAA199000091GF101991011011008001001001KA1999N+01621MD1710231+9999REMSYN070AAXX  15061 54916 32565 13606 10291 20276 40098 57023 81100 333 20162;EQDQ01+002763ATOD  Q02  00002PRCP99
0112549160999992000091509004+35570+116850FM-12+005399999V0203601N005012200019N0120001N1+02821+01031100861ADDGF101991011011008001001001MD1710121+9999REMSYN060AAXX  15091 54916 42562 13605 10282 20103 40086 57012 81100;
0152549160999992000091512004+35570+116850FM-12+005399999V0203201N002012200019N0100001N1+02361+01301100901ADDAA199000091GA1001+999999999GF100991001001999999001001MD1210041+9999REMSYN054AAXX  15121 54916 32960 03202 10236 20130 40090 52004;EQDQ01  00002PRCP99
0175549160999992000091518004+35570+116850FM-12+005399999V0202701N001012200019N0100001N1+01691+01641100921ADDAA199000091GA1001+999999999GF100991001001999999001001KA1999M+02981MD1710081+9999REMSYN064AAXX  15181 54916 32960 02701 10169 20164 40092 57008 333 10298;EQDQ01  00002PRCP99
0134549160999992000091521004+35570+116850FM-12+005399999V0201401N001012200019N0080001N1+01421+01331100861ADDGA1001+999999999GF100991001001999999001001MD1710061+9999MW1101REMSYN060AAXX  15211 54916 41958 01401 10142 20133 40086 57006 71000;
0174549160999992000091600004+35570+116850FM-12+005399999V0202201N001012200019N0060001N1+01941+01541100961ADDAA199000091GA1001+999999999GF100991001001999999001001MD1210101+0021MW1101REMSYN070AAXX  16001 54916 31956 02201 10194 20154 40096 52010 71000 333 05251;EQDQ01  00002PRCP99
0122549160999992000091603004+35570+116850FM-12+005399999V0202701N004012200019N0100001N1+02861+01531100971ADDGA1001+999999999GF100991001001999999001001MD1210011+9999REMSYN054AAXX  16031 54916 42960 02704 10286 20153 40097 52001;
0175549160999992000091606004+35570+116850FM-12+005399999V0202701N005012200019N0100001N1+03141+00901100811ADDAA199000091GA1001+999999999GF100991001001999999001001KA1999N+01331MD1710161+9999REMSYN064AAXX  16061 54916 32960 02705 10314 20090 40081 57016 333 20133;EQDQ01  00002PRCP99
0122549160999992000091609004+35570+116850FM-12+005399999V0202701N003012200019N0120001N1+03081+01231100731ADDGA1001+999999999GF100991001001999999001001MD1710081+9999REMSYN054AAXX  16091 54916 42962 02703 10308 20123 40073 57008;
0152549160999992000091612004+35570+116850FM-12+005399999V0202501N001012200019N0100001N1+02231+01511100881ADDAA199000091GA1001+999999999GF100991001001999999001001MD1710151+9999REMSYN054AAXX  16121 54916 32960 02501 10223 20151 40088 57015;EQDQ01  00002PRCP99
0187549160999992000091618004+35570+116850FM-12+005399999V0201801N002012200019N0060001N1+01741+01551100981ADDAA199000091GA1001+999999999GF100991001001999999001001KA1999M+03231MD1210011+9999MW1101REMSYN070AAXX  16181 54916 31956 01802 10174 20155 40098 52001 71000 333 10323;EQDQ01  00002PRCP99
0122549160999992000091621004+35570+116850FM-12+005399999V0201601N002012200019N0100001N1+01601+01441100951ADDGA1001+999999999GF100991001001999999001001MD1710031+9999REMSYN054AAXX  16211 54916 42960 01602 10160 20144 40095 57003;
0162549160999992000091700004+35570+116850FM-12+005399999V0201801N002012200019N0100001N1+02101+01571101041ADDAA199000091GA1001+999999999GF100991001001999999001001MD1210091+0011REMSYN064AAXX  17001 54916 32960 01802 10210 20157 40104 52009 333 00102;EQDQ01  00002PRCP99
0122549160999992000091703004+35570+116850FM-12+005399999V0201101N001012200019N0100001N1+02911+01741101041ADDGA1001+999999999GF100991001001999999001001MD1410001+9999REMSYN054AAXX  17031 54916 42960 01101 10291 20174 40104 54000;
0175549160999992000091706004+35570+116850FM-12+005399999V0202701N003012200019N0100001N1+03291+01121100821ADDAA199000091GA1001+999999999GF100991001001999999001001KA1999N+01561MD1710211+9999REMSYN064AAXX  17061 54916 32960 02703 10329 20112 40082 57021 333 20156;EQDQ01  00002PRCP99
0122549160999992000091709004+35570+116850FM-12+005399999V0202001N003012200019N0150001N1+03241+01381100801ADDGA1001+999999999GF100991001001999999001001MD1710031+9999REMSYN054AAXX  17091 54916 42965 02003 10324 20138 40080 57003;
0152549160999992000091712004+35570+116850FM-12+005399999V0201801N002012200019N0100001N1+02491+01541100861ADDAA199000091GA1001+999999999GF100991001001999999001001MD1210061+9999REMSYN054AAXX  17121 54916 32960 01802 10249 20154 40086 52006;EQDQ01  00002PRCP99
0175549160999992000091718004+35570+116850FM-12+005399999V0200401N001012200019N0100001N1+01741+01521101011ADDAA199000091GA1001+999999999GF100991001001999999001001KA1999M+03341MD1210051+9999REMSYN064AAXX  17181 54916 32960 00401 10174 20152 40101 52005 333 10334;EQDQ01  00002PRCP99
0122549160999992000091721004+35570+116850FM-12+005399999V0200901N002012200019N0100001N1+01621+01501101091ADDGA1001+999999999GF100991001001999999001001MD1210081+9999REMSYN054AAXX  17211 54916 42960 00902 10162 20150 40109 52008;
0162549160999992000091800004+35570+116850FM-12+005399999V0200901N002012200019N0100001N1+02081+01621101201ADDAA199000091GA1001+999999999GF100991001001999999001001MD1210111+0021REMSYN064AAXX  18001 54916 32960 00902 10208 20162 40120 52011 333 00200;EQDQ01  00002PRCP99
0122549160999992000091803004+35570+116850FM-12+005399999V0202001N002012200019N0100001N1+03001+01791101191ADDGA1001+999999999GF100991001001999999001001MD1710011+9999REMSYN054AAXX  18031 54916 42960 02002 10300 20179 40119 57001;
0175549160999992000091806004+35570+116850FM-12+005399999V0202201N004012200019N0100001N1+03291+01431101081ADDAA199000091GA1001+999999999GF100991001001999999001001KA1999N+01571MD1710111+9999REMSYN064AAXX  18061 54916 32960 02204 10329 20143 40108 57011 333 20157;EQDQ01  00002PRCP99
0122549160999992000091809004+35570+116850FM-12+005399999V0201801N003012200019N0100001N1+03171+01801101041ADDGA1001+999999999GF100991001001999999001001MD1710041+9999REMSYN054AAXX  18091 54916 42960 01803 10317 20180 40104 57004;
0142549160999992000091812004+35570+116850FM-12+005399999V0201801N002019999999N0100001N1+02691+01831101181ADDAA199000091GF105991001001999999001021MD1210141+9999REMSYN060AAXX  18121 54916 32960 51802 10269 20183 40118 52014 80002;EQDQ01  00002PRCP99
0175549160999992000091818004+35570+116850FM-12+005399999V0200901N002012200019N0100001N1+01791+01671101341ADDAA199000091GA1001+999999999GF100991001001999999001001KA1999M+03311MD1210011+9999REMSYN064AAXX  18181 54916 32960 00902 10179 20167 40134 52001 333 10331;EQDQ01  00002PRCP99
0112549160999992000091821004+35570+116850FM-12+005399999V0200901N002019999999N0100001N1+01721+01601101431ADDGF106991001001999999001021MD1210091+9999REMSYN060AAXX  18211 54916 42960 60902 10172 20160 40143 52009 80002;
0152549160999992000091900004+35570+116850FM-12+005399999V0201401N002019999999N0100001N1+02121+01731101561ADDAA199000091GF106991001001999999001021MD1210131+0041REMSYN070AAXX  19001 54916 32960 61402 10212 20173 40156 52013 80002 333 00400;EQDQ01  00002PRCP99
0112549160999992000091903004+35570+116850FM-12+005399999V0201801N005012200019N0100001N1+02981+01511101581ADDGF102991001001999999001021MD1210021+9999REMSYN060AAXX  19031 54916 42960 21805 10298 20151 40158 52002 80002;
0165549160999992000091906004+35570+116850FM-12+005399999V0201801N005019999999N0100001N1+03111+01361101481ADDAA199000091GF106991001001999999001021KA1999N+01641MD1710101+9999REMSYN070AAXX  19061 54916 32960 61805 10311 20136 40148 57010 80002 333 20164;EQDQ01  00002PRCP99
0112549160999992000091909004+35570+116850FM-12+005399999V0201601N004012200019N0100001N1+03091+00741101401ADDGF102991011001999999031021MD1710081+9999REMSYN060AAXX  19091 54916 42960 21604 10309 20074 40140 57008 81032;
0152549160999992000091912004+35570+116850FM-12+005399999V0201401N004012200019N0100001N1+02511+01301101561ADDAA199000091GA1001+999999999GF100991001001999999001001MD1210161+9999REMSYN054AAXX  19121 54916 32960 01404 10251 20130 40156 52016;EQDQ01  00002PRCP99
0165549160999992000091918004+35570+116850FM-12+005399999V0200901N002019999999N0100001N1+02021+01511101651ADDAA199000091GF108991001001999999001071KA1999M+03191MD1710021+9999REMSYN070AAXX  19181 54916 32960 80902 10202 20151 40165 57002 80007 333 10319;EQDQ01  00002PRCP99
0112549160999992000091921004+35570+116850FM-12+005399999V0200901N002019999999N0100001N1+02031+01531101641ADDGF108991081001999999071999MD1710011+9999REMSYN060AAXX  19211 54916 42960 80902 10203 20153 40164 57001 8807/;
0152549160999992000092000004+35570+116850FM-12+005399999V0201401N002019999999N0100001N1+02131+01621101761ADDAA199000091GF108991001001999999001071MD1210121+0021REMSYN070AAXX  20001 54916 32960 81402 10213 20162 40176 52012 80007 333 00200;EQDQ01  00002PRCP99
0112549160999992000092003004+35570+116850FM-12+005399999V0201401N003019999999N0100001N1+02611+01591101801ADDGF108991001001999999001071MD1210041+9999REMSYN060AAXX  20031 54916 42960 81403 10261 20159 40180 52004 80007;
0165549160999992000092006004+35570+116850FM-12+005399999V0201401N004019999999N0100001N1+02811+01611101681ADDAA199000091GF108991001001999999001071KA1999N+01861MD1710121+9999REMSYN070AAXX  20061 54916 32960 81404 10281 20161 40168 57012 80007 333 20186;EQDQ01  00002PRCP99
0152549160999992000092012004+35570+116850FM-12+005399999V0201401N003012200019N0100001N1+02381+01481101801ADDAA199000091GA1001+999999999GF100991001001999999001001MD1210191+9999REMSYN054AAXX  20121 54916 32960 01403 10238 20148 40180 52019;EQDQ01  00002PRCP99
0165549160999992000092018004+35570+116850FM-12+005399999V0200901N002012200019N0100001N1+02091+01571101861ADDAA199000091GF102991001001999999001021KA1999M+02941MD1710021+9999REMSYN070AAXX  20181 54916 32960 20902 10209 20157 40186 57002 80002 333 10294;EQDQ01  00002PRCP99
0112549160999992000092021004+35570+116850FM-12+005399999V0200901N002012200019N0100001N1+01771+01671101931ADDGF102991021051017501001001MD1210061+9999REMSYN060AAXX  20211 54916 42760 20902 10177 20167 40193 52006 82500;
0164549160999992000092100004+35570+116850FM-12+005399999V0200901N003012200019N0080001N1+02061+01801102031ADDAA199000091GF102991001001999999001021MD1210101+0031MW1101REMSYN076AAXX  21001 54916 31958 20903 10206 20180 40203 52010 71000 80002 333 00351;EQDQ01  00002PRCP99
0112549160999992000092103004+35570+116850FM-12+005399999V0201401N005012200019N0100001N1+02671+01661101981ADDGF102991001001999999001021MD1710041+9999REMSYN060AAXX  21031 54916 42960 21405 10267 20166 40198 57004 80002;
0165549160999992000092106004+35570+116850FM-12+005399999V0201801N004019999999N0100001N1+02911+01181101781ADDAA199000091GF106991001001999999001021KA1999N+01611MD1710201+9999REMSYN070AAXX  21061 54916 32960 61804 10291 20118 40178 57020 80002 333 20161;EQDQ01  00002PRCP99
0112549160999992000092109004+35570+116850FM-12+005399999V0202701N002019999999N0100001N1+02701+01521101711ADDGF107991071001999999031999MD1710081+9999REMSYN060AAXX  21091 54916 42960 72702 10270 20152 40171 57008 8703/;
0142549160999992000092112004+35570+116850FM-12+005399999V0200201N001010120019N0100001N1+02271+01701101791ADDAA199000091GF107991071051012501999999MD1210081+9999REMSYN060AAXX  21121 54916 32660 70201 10227 20170 40179 52008 875//;EQDQ01  00002PRCP99
0165549160999992000092118004+35570+116850FM-12+005399999V0201801N003010150019N0100001N1+01991+01681101851ADDAA199000091GF107991071051017501999999KA1999M+02981MD1710031+9999REMSYN070AAXX  21181 54916 32760 71803 10199 20168 40185 57003 875// 333 10298;EQDQ01  00002PRCP99
0112549160999992000092121004+35570+116850FM-12+005399999V0202001N002010120019N0100001N1+01931+01831101821ADDGF108991081051012501999999MD1710041+9999REMSYN060AAXX  21211 54916 42660 82002 10193 20183 40182 57004 885//;
0164549160999992000092200004+35570+116850FM-12+005399999V0200901N001012200019N0060001N1+02001+01791101881ADDAA199000091GF101991001001999999001021MD1210061+0021MW1101REMSYN076AAXX  22001 54916 31956 10901 10200 20179 40188 52006 71000 80002 333 05251;EQDQ01  00002PRCP99
0122549160999992000092203004+35570+116850FM-12+005399999V0201801N003012200019N0100001N1+02641+01721101851ADDGA1001+999999999GF100991001001999999001001MD1710031+9999REMSYN054AAXX  22031 54916 42960 01803 10264 20172 40185 57003;
0165549160999992000092206004+35570+116850FM-12+005399999V0201801N002012200019N0100001N1+02861+01711101571ADDAA199000091GF103991031011008001001001KA1999N+01831MD1710271+9999REMSYN070AAXX  22061 54916 32560 31802 10286 20171 40157 57027 83100 333 20183;EQDQ01  00002PRCP99
0112549160999992000092209004+35570+116850FM-12+005399999V0202701N002012200019N0100001N1+02721+01721101481ADDGF103991031011008001001001MD1710091+9999REMSYN060AAXX  22091 54916 42560 32702 10272 20172 40148 57009 83100;
0152549160999992000092212004+35570+116850FM-12+005399999V0202201N002012200019N0100001N1+02421+01871101561ADDAA199000091GA1001+999999999GF100991001001999999001001MD1210071+9999REMSYN054AAXX  22121 54916 32960 02202 10242 20187 40156 52007;EQDQ01  00002PRCP99
0165549160999992000092218004+35570+116850FM-12+005399999V0201401N002019999999N0100001N1+01971+01861101481ADDAA199000091GF107991001001999999001021KA1999M+02931MD1710091+9999REMSYN070AAXX  22181 54916 32960 71402 10197 20186 40148 57009 80002 333 10293;EQDQ01  00002PRCP99
0112549160999992000092221004+35570+116850FM-12+005399999V0201101N002019999999N0100001N1+01981+01851101381ADDGF107991001001999999001021MD1710101+9999REMSYN060AAXX  22211 54916 42960 71102 10198 20185 40138 57010 80002;
0164549160999992000092300004+35570+116850FM-12+005399999V0200901N002019999999N0070001N1+02101+01911101441ADDAA199000091GF107991001001999999001021MD1210061+0041MW1101REMSYN076AAXX  23001 54916 31957 70902 10210 20191 40144 52006 71000 80002 333 05401;EQDQ01  00002PRCP99
0112549160999992000092303004+35570+116850FM-12+005399999V0202201N003019999999N0100001N1+02681+01931101461ADDGF107991001001999999001021MD1210021+9999REMSYN060AAXX  23031 54916 42960 72203 10268 20193 40146 52002 80002;
0165549160999992000092306004+35570+116850FM-12+005399999V0202201N002012200019N0100001N1+02961+01911101251ADDAA199000091GF101991011011008001001001KA1999N+01881MD1710211+9999REMSYN070AAXX  23061 54916 32560 12202 10296 20191 40125 57021 81100 333 20188;EQDQ01  00002PRCP99
0122549160999992000092309004+35570+116850FM-12+005399999V0202001N003012200019N0100001N1+02891+01931101131ADDGA1001+999999999GF100991001001999999001001MD1710121+9999REMSYN054AAXX  23091 54916 42960 02003 10289 20193 40113 57012;
0152549160999992000092312004+35570+116850FM-12+005399999V0201801N001012200019N0100001N1+02321+02031101251ADDAA199000091GA1001+999999999GF100991001001999999001001MD1210121+9999REMSYN054AAXX  23121 54916 32960 01801 10232 20203 40125 52012;EQDQ01  00002PRCP99
0165549160999992000092318004+35570+116850FM-12+005399999V0200201N001019999999N0100001N1+02061+01951101351ADDAA199000091GF108991081001999999071999KA1999M+02991MD1210011+9999REMSYN070AAXX  23181 54916 32960 80201 10206 20195 40135 52001 8807/ 333 10299;EQDQ01  00002PRCP99
0112549160999992000092321004+35570+116850FM-12+005399999V0200901N003019999999N0100001N1+01981+01901101331ADDGF108991081001999999071999MD1710021+9999REMSYN060AAXX  23211 54916 42960 80903 10198 20190 40133 57002 8807/;
0124549160999992000092403004+35570+116850FM-12+005399999V0201101N001019999999N0060001N1+02391+02071101421ADDGF108991081001999999071999MD1710031+9999MW1601REMSYN066AAXX  24031 54916 41956 81101 10239 20207 40142 57003 76000 8807/;
0172549160999992000092406004+35570+116850FM-12+005399999V0200401N002019999999N0030001N1+02331+02201101241ADDAA106001091AY161061GF108991081001999999071999KA1999N+01901MD1710181+9999MW1601REMSYN082AAXX  24061 54916 11930 80402 10233 20220 40124 57018 60011 76060 8807/ 333 20190;
0140549160999992000092409004+35570+116850FM-12+005399999V0200401N002019999999N0012001N1+02251+02211101201ADDAY161031AY261031GF108991081001999999021999MD1710051+9999MW1601REMSYN066AAXX  24091 54916 41912 80402 10225 20221 40120 57005 76066 8802/;
0157549160999992000092412004+35570+116850FM-12+005399999V0200401N003019999999N0015001N1+02181+02151101311ADDAA106004191AY161061AY261061GF108991081001999999021999MD1210111+9999MW1211REMSYN072AAXX  24121 54916 11915 80403 10218 20215 40131 52011 60041 72166 8802/;
0172549160999992000092418004+35570+116850FM-12+005399999V0200201N003019999999N0100001N1+01901+01751101501ADDAA106001091AY161061GF108991081001999999021999KA1999M+02421MD1210041+9999MW1211REMSYN082AAXX  24181 54916 11960 80203 10190 20175 40150 52004 60011 72160 8802/ 333 10242;
0133549160999992000092421004+35570+116850FM-12+005399999V0200401N004010120019N0100001N1+01831+01731101561ADDAA124006991GF108991081051012501999999MD1210061+9999REMSYN070AAXX  24211 54916 42660 80404 10183 20173 40156 52006 885// 333 70069;
0139549160999992000092500004+35570+116850FM-12+005399999V0200401N002010120019N0100001N1+01851+01651101741ADDAA124006991GF108991081051012501999999MD1210181+0301REMSYN076AAXX  25001 54916 32660 80402 10185 20165 40174 52018 885// 333 00353 70069;
0112549160999992000092503004+35570+116850FM-12+005399999V0200401N003012200019N0100001N1+02181+01601101841ADDGF102991001001999999001021MD1210101+9999REMSYN060AAXX  25031 54916 42960 20403 10218 20160 40184 52010 80002;
0146549160999992000092506004+35570+116850FM-12+005399999V0200701N002012200019N0100001N1+02431+01521101751ADDAA199000021GF104991041011008001001001KA1999N+01811MD1710091+9999REMSYN070AAXX  25061 54916 32560 40702 10243 20152 40175 57009 84100 333 20181;
0122549160999992000092509004+35570+116850FM-12+005399999V0200901N002012200019N0120001N1+02461+01521101711ADDGA1001+999999999GF100991001001999999001001MD1710041+9999REMSYN054AAXX  25091 54916 42962 00902 10246 20152 40171 57004;
0152549160999992000092512004+35570+116850FM-12+005399999V0201401N002012200019N0100001N1+01881+01651101791ADDAA199000091GA1001+999999999GF100991001001999999001001MD1210071+9999REMSYN054AAXX  25121 54916 32960 01402 10188 20165 40179 52007;EQDQ01  00002PRCP99
0175549160999992000092518004+35570+116850FM-12+005399999V0203601N002012200019N0100001N1+01551+01431101991ADDAA199000091GA1001+999999999GF100991001001999999001001KA1999M+02551MD1210031+9999REMSYN064AAXX  25181 54916 32960 03602 10155 20143 40199 52003 333 10255;EQDQ01  00002PRCP99
0122549160999992000092521004+35570+116850FM-12+005399999V0200401N002012200019N0100001N1+01421+01261101961ADDGA1001+999999999GF100991001001999999001001MD1710031+9999REMSYN054AAXX  25211 54916 42960 00402 10142 20126 40196 57003;
0152549160999992000092600004+35570+116850FM-12+005399999V0200701N002019999999N0100001N1+01691+01341102041ADDAA199000091GF107991001001999999001021MD1210071+0031REMSYN070AAXX  26001 54916 32960 70702 10169 20134 40204 52007 80002 333 00352;EQDQ01  00002PRCP99
0112549160999992000092603004+35570+116850FM-12+005399999V0200901N005019999999N0100001N1+02431+00691102001ADDGF107991051001999999041021MD1710031+9999REMSYN060AAXX  26031 54916 42960 70905 10243 20069 40200 57003 85042;
0165549160999992000092606004+35570+116850FM-12+005399999V0201101N005010120019N0100001N1+02651+00271101871ADDAA199000091GF107991071051012501999999KA1999N+01351MD1710131+9999REMSYN070AAXX  26061 54916 32660 71105 10265 20027 40187 57013 875// 333 20135;EQDQ01  00002PRCP99
0132549160999992000092609004+35570+116850FM-12+005399999V0201401N003010120019N0100001N1+02431+00931101781ADDAY161031GF108991081051012501999999MD1710091+9999MW1601REMSYN066AAXX  26091 54916 41660 81403 10243 20093 40178 57009 76060 885//;
0149549160999992000092612004+35570+116850FM-12+005399999V0201401N002010120019N0100001N1+02041+01561101851ADDAA106000791AY161061GF108991081051012501999999MD1210061+9999MW1211REMSYN072AAXX  26121 54916 11660 81402 10204 20156 40185 52006 69901 72160 885//;
0172549160999992000092618004+35570+116850FM-12+005399999V0200901N005010120019N0100001N1+01901+01121101831ADDAA106000191AY161061GF108991081051012501999999KA1999M+02681MD1710021+9999MW1601REMSYN082AAXX  26181 54916 11660 80905 10190 20112 40183 57002 69921 76060 885// 333 10268;
0161549160999992000092621004+35570+116850FM-12+005399999V0200401N003019999999N0100001N1+01591+01321101751ADDAA124001091AY161031AY261031GF108991081001999999071999MD1710081+9999MW1601REMSYN076AAXX  26211 54916 41960 80403 10159 20132 40175 57008 76066 8807/ 333 70010;
0173549160999992000092700004+35570+116850FM-12+005399999V0200201N004019999999N0100001N1+01501+01361101881ADDAA106002091AY161061AY261061GF108991081001999999071999MD1210121-0201MW1601REMSYN088AAXX  27001 54916 11960 80204 10150 20136 40188 52012 60021 76066 8807/ 333 05252 70017;
0140549160999992000092703004+35570+116850FM-12+005399999V0200401N003019999999N0100001N1+01551+01501101821ADDAY161031AY261031GF108991081001999999071999MD1710061+9999MW1601REMSYN066AAXX  27031 54916 41960 80403 10155 20150 40182 57006 76066 8807/;
0180549160999992000092706004+35570+116850FM-12+005399999V0200201N004019999999N0100001N1+01671+01591101651ADDAA106005191AY161061AY261061GF108991081001999999021999KA1999N+01471MD1710171+9999MW1601REMSYN082AAXX  27061 54916 11960 80204 10167 20159 40165 57017 60051 76066 8802/ 333 20147;
0140549160999992000092709004+35570+116850FM-12+005399999V0200201N005010360019N0100001N1+01591+01521101551ADDAY161031AY261031GF108991021071008001021999MD1710101+9999MW1211REMSYN066AAXX  27091 54916 41560 80205 10159 20152 40155 57010 72166 8272/;
0149549160999992000092712004+35570+116850FM-12+005399999V0203601N004010075019N0100001N1+01531+01511101671ADDAA106002091AY161061GF108991051071008001021999MD1210121+9999MW1601REMSYN072AAXX  27121 54916 11560 83604 10153 20151 40167 52012 60021 76060 8572/;
0172549160999992000092718004+35570+116850FM-12+005399999V0203601N003010120019N0100001N1+01591+01501101591ADDAA106000791AY161061GF108991081001012501021999KA1999M+01931MD1710091+9999MW1601REMSYN082AAXX  27181 54916 11660 83603 10159 20150 40159 57009 69901 76060 8802/ 333 10193;
0153549160999992000092721004+35570+116850FM-12+005399999V0203401N003019999999N0100001N1+01581+01491101541ADDAA124007991AY161031GF106991061001999999031001MD1710051+9999MW1001REMSYN076AAXX  27211 54916 41960 63403 10158 20149 40154 57005 70060 86030 333 70078;
0165549160999992000092800004+35570+116850FM-12+005399999V0203601N003019999999N0100001N1+01641+01521101651ADDAA106000791AY161061GF108991081001999999071999MD1210111-0201MW1001REMSYN088AAXX  28001 54916 11960 83603 10164 20152 40165 52011 69901 70060 8807/ 333 05201 70071;
0112549160999992000092803004+35570+116850FM-12+005399999V0203401N005010150019N0100001N1+01991+01551101671ADDGF105991051051017501001001MD1210021+9999REMSYN060AAXX  28031 54916 42760 53405 10199 20155 40167 52002 85500;
0146549160999992000092806004+35570+116850FM-12+005399999V0203401N005010150019N0100001N1+02071+01551101551ADDAA199000021GF107991071051017501999999KA1999N+01511MD1710111+9999REMSYN070AAXX  28061 54916 32760 73405 10207 20155 40155 57011 875// 333 20151;
0112549160999992000092809004+35570+116850FM-12+005399999V0203201N002010150019N0100001N1+02111+01491101501ADDGF107991071051017501999999MD1710051+9999REMSYN060AAXX  28091 54916 42760 73202 10211 20149 40150 57005 875//;
0142549160999992000092812004+35570+116850FM-12+005399999V0209999C000010150019N0100001N1+01911+01581101631ADDAA199000091GF107991071051017501999999MD1210121+9999REMSYN060AAXX  28121 54916 32760 70000 10191 20158 40163 52012 875//;EQDQ01  00002PRCP99
0175549160999992000092818004+35570+116850FM-12+005399999V0203201N002012200019N0100001N1+01611+01451101721ADDAA199000091GA1001+999999999GF100991001001999999001001KA1999M+02241MD1410001+9999REMSYN064AAXX  28181 54916 32960 03202 10161 20145 40172 54000 333 10224;EQDQ01  00002PRCP99
0122549160999992000092821004+35570+116850FM-12+005399999V0203201N002012200019N0100001N1+01501+01411101561ADDGA1001+999999999GF100991001001999999001001MD1710161+9999REMSYN054AAXX  28211 54916 42960 03202 10150 20141 40156 57016;
0152549160999992000092900004+35570+116850FM-12+005399999V0203401N003010120019N0100001N1+01651+01511101671ADDAA199000091GF107991071051012501999999MD1210111+0001REMSYN070AAXX  29001 54916 32660 73403 10165 20151 40167 52011 875// 333 00000;EQDQ01  00002PRCP99
0112549160999992000092903004+35570+116850FM-12+005399999V0203201N003010120019N0100001N1+02111+01701101701ADDGF108991081051012501999999MD1210041+9999REMSYN060AAXX  29031 54916 42660 83203 10211 20170 40170 52004 885//;
0165549160999992000092906004+35570+116850FM-12+005399999V0200401N005010120019N0100001N1+02211+01711101631ADDAA199000091GF108991081051012501999999KA1999N+01481MD1710071+9999REMSYN070AAXX  29061 54916 32660 80405 10221 20171 40163 57007 885// 333 20148;EQDQ01  00002PRCP99
0112549160999992000092909004+35570+116850FM-12+005399999V0200701N003010120019N0100001N1+02031+01821101641ADDGF108991081051012501999999MD1410001+9999REMSYN060AAXX  29091 54916 42660 80703 10203 20182 40164 54000 885//;
0142549160999992000092912004+35570+116850FM-12+005399999V0200401N002010120019N0100001N1+01941+01811101721ADDAA199000091GF108991081051012501999999MD1210081+9999REMSYN060AAXX  29121 54916 32660 80402 10194 20181 40172 52008 885//;EQDQ01  00002PRCP99
0165549160999992000092918004+35570+116850FM-12+005399999V0200201N001010150019N0100001N1+01791+01721101751ADDAA199000091GF108991081051017501999999KA1999M+02321MD1210021+9999REMSYN070AAXX  29181 54916 32760 80201 10179 20172 40175 52002 885// 333 10232;EQDQ01  00002PRCP99
0112549160999992000092921004+35570+116850FM-12+005399999V0200401N001010150019N0100001N1+01781+01711101801ADDGF108991081051017501999999MD1210051+9999REMSYN060AAXX  29211 54916 42760 80401 10178 20171 40180 52005 885//;
0152549160999992000093000004+35570+116850FM-12+005399999V0200901N001010150019N0100001N1+01911+01781101901ADDAA199000091GF107991071051017501999999MD1210101+0021REMSYN070AAXX  30001 54916 32760 70901 10191 20178 40190 52010 875// 333 00203;EQDQ01  00002PRCP99
0112549160999992000093003004+35570+116850FM-12+005399999V0200401N003019999999N0100001N1+02331+01741101951ADDGF107991071001999999031999MD1210051+9999REMSYN060AAXX  30031 54916 42960 70403 10233 20174 40195 52005 8703/;
0172549160999992000093006004+35570+116850FM-12+005399999V0200701N002019999999N0100001N1+02431+01521101791ADDAA106000791AY181061GF107991071001999999031999KA1999N+01721MD1710161+9999MW1001REMSYN082AAXX  30061 54916 11960 70702 10243 20152 40179 57016 69901 70080 8703/ 333 20172;
0112549160999992000093009004+35570+116850FM-12+005399999V0200701N002019999999N0100001N1+02441+01611101741ADDGF107991071001999999031999MD1710051+9999REMSYN060AAXX  30091 54916 42960 70702 10244 20161 40174 57005 8703/;
0142549160999992000093012004+35570+116850FM-12+005399999V0201601N002019999999N0100001N1+02411+01791101801ADDAA199000091GF107991071001999999031999MD1210061+9999REMSYN060AAXX  30121 54916 32960 71602 10241 20179 40180 52006 8703/;EQDQ01  00002PRCP99
0165549160999992000093018004+35570+116850FM-12+005399999V0201101N002019999999N0100001N1+01911+01761101771ADDAA199000091GF108991081001999999071999KA1999M+02491MD1710071+9999REMSYN070AAXX  30181 54916 32960 81102 10191 20176 40177 57007 8807/ 333 10249;EQDQ01  00002PRCP99
0153549160999992000093021004+35570+116850FM-12+005399999V0200201N001019999999N0100001N1+01891+01811101771ADDAA124001891AY161031GF108991081001999999071999MD1410001+9999MW1611REMSYN076AAXX  30211 54916 41960 80201 10189 20181 40177 54000 76160 8807/ 333 70017;
0165549160999992000100100004+35570+116850FM-12+005399999V0201401N001019999999N0100001N1+01871+01811101781ADDAA106004191AY161061GF108991081001999999071999MD1210011-0101MW1211REMSYN088AAXX  01001 54916 11960 81401 10187 20181 40178 52001 60041 72160 8807/ 333 05100 70039;
0132549160999992000100103004+35570+116850FM-12+005399999V0201601N003019999999N0100001N1+01971+01601101741ADDAY161031GF108991081001999999071999MD1710041+9999MW1001REMSYN066AAXX  01031 54916 41960 81603 10197 20160 40174 57004 70060 8807/;
0172549160999992000100106004+35570+116850FM-12+005399999V0200901N002010150019N0100001N1+01941+01551101591ADDAA106000191AY161061GF108991081051017501999999KA1999N+01821MD1710151+9999MW1601REMSYN082AAXX  01061 54916 11760 80902 10194 20155 40159 57015 69911 76060 885// 333 20182;
0140549160999992000100109004+35570+116850FM-12+005399999V0201101N002010150019N0100001N1+01791+01641101521ADDAY161031AY261031GF108991081051017501999999MD1710071+9999MW1611REMSYN066AAXX  01091 54916 41760 81102 10179 20164 40152 57007 76166 885//;
0157549160999992000100112004+35570+116850FM-12+005399999V0200701N001010150019N0100001N1+01721+01651101571ADDAA106002091AY161061AY261061GF108991081051017501999999MD1210041+9999MW1601REMSYN072AAXX  01121 54916 11760 80701 10172 20165 40157 52004 60021 76066 885//;
0172549160999992000100118004+35570+116850FM-12+005399999V0203601N001010150019N0100001N1+01681+01651101441ADDAA106000191AY161061GF108991081051017501999999KA1999M+02051MD1710091+9999MW1211REMSYN082AAXX  01181 54916 11760 83601 10168 20165 40144 57009 69921 72160 885// 333 10205;
0143549160999992000100121004+35570+116850FM-12+005399999V0203401N002012200019N0100001N1+01651+01601101471ADDAA124004891GA1001+999999999GF100991001001999999001001MD1210021+9999REMSYN064AAXX  01211 54916 42960 03402 10165 20160 40147 52002 333 70048;
0161549160999992000100200004+35570+116850FM-12+005399999V0209999C000012200019N0003001N1+01621+01621101621ADDAA124002591GA1001+999999999GF100991001001999999001001MD1210151-0201MW1461REMSYN076AAXX  02001 54916 31903 00000 10162 20162 40162 52015 74600 333 05253 70026;
0142549160999992000100203004+35570+116850FM-12+005399999V0209999C000012200019N0100001N1+02201+01751101561ADDAY141031GA1001+999999999GF100991001001999999001001MD1710051+9999MW1001REMSYN060AAXX  02031 54916 41960 00000 10220 20175 40156 57005 70040;
0166549160999992000100206004+35570+116850FM-12+005399999V0203401N002010075019N0100001N1+02431+01521101471ADDAA199000021AY141061GF105991051011008001001001KA1999N+01511MD1710091+9999MW1001REMSYN076AAXX  02061 54916 31560 53402 10243 20152 40147 57009 70040 85100 333 20151;
0112549160999992000100209004+35570+116850FM-12+005399999V0203201N002012200019N0100001N1+02461+01581101501ADDGF102991021011008001001001MD1210031+9999REMSYN060AAXX  02091 54916 42560 23202 10246 20158 40150 52003 82100;
0152549160999992000100212004+35570+116850FM-12+005399999V0203201N002012200019N0100001N1+02051+01831101671ADDAA199000091GA1001+999999999GF100991001001999999001001MD1210161+9999REMSYN054AAXX  02121 54916 32960 03202 10205 20183 40167 52016;EQDQ01  00002PRCP99
0187549160999992000100218004+35570+116850FM-12+005399999V0201401N001012200019N0030001N1+01591+01591101741ADDAA199000091GA1001+999999999GF100991001001999999001001KA1999M+02541MD1710051+9999MW1101REMSYN070AAXX  02181 54916 31930 01401 10159 20159 40174 57005 71000 333 10254;EQDQ01  00002PRCP99
0150549160999992000100221004+35570+116850FM-12+005399999V0200901N001012200019N0003001N1+01581+01581101761ADDAY141031AY241031GA1001+999999999GF100991001001999999001001MD1210021+9999MW1461REMSYN060AAXX  02211 54916 41903 00901 10158 20158 40176 52002 74644;
0182549160999992000100300004+35570+116850FM-12+005399999V0209999C000012200019N0003001N1+01541+01541101891ADDAA199000091AY141061GA1001+999999999GF100991001001999999001001MD1210121+0031MW1441REMSYN070AAXX  03001 54916 31903 00000 10154 20154 40189 52012 74440 333 00351;EQDQ01  00002PRCP99
0142549160999992000100303004+35570+116850FM-12+005399999V0202501N002012200019N0018001N1+02271+01811101821ADDAY141031GA1001+999999999GF100991001001999999001001MD1710061+9999MW1101REMSYN060AAXX  03031 54916 41918 02502 10227 20181 40182 57006 71040;
0185549160999992000100306004+35570+116850FM-12+005399999V0202201N002012200019N0100001N1+02541+01601101601ADDAA199000091AY141061GF102991021011008001001001KA1999N+01471MD1710221+9999MW1001REMSYN076AAXX  03061 54916 31560 22202 10254 20160 40160 57022 70040 82100 333 20147;EQDQ01  00002PRCP99
0122549160999992000100309004+35570+116850FM-12+005399999V0202201N003012200019N0100001N1+02491+01521101561ADDGA1001+999999999GF100991001001999999001001MD1710041+9999REMSYN054AAXX  03091 54916 42960 02203 10249 20152 40156 57004;
0152549160999992000100312004+35570+116850FM-12+005399999V0201601N002012200019N0100001N1+02091+01631101681ADDAA199000091GA1001+999999999GF100991001001999999001001MD1210111+9999REMSYN054AAXX  03121 54916 32960 01602 10209 20163 40168 52011;EQDQ01  00002PRCP99
0175549160999992000100318004+35570+116850FM-12+005399999V0201601N003012200019N0100001N1+01751+01561101651ADDAA199000091GA1001+999999999GF100991001001999999001001KA1999M+02611MD1710041+9999REMSYN064AAXX  03181 54916 32960 01603 10175 20156 40165 57004 333 10261;EQDQ01  00002PRCP99
0122549160999992000100321004+35570+116850FM-12+005399999V0201601N002012200019N0100001N1+01511+01421101671ADDGA1001+999999999GF100991001001999999001001MD1210021+9999REMSYN054AAXX  03211 54916 42960 01602 10151 20142 40167 52002;
0174549160999992000100400004+35570+116850FM-12+005399999V0201401N002012200019N0080001N1+01741+01541101831ADDAA199000091GA1001+999999999GF100991001001999999001001MD1210161+0011MW1101REMSYN070AAXX  04001 54916 31958 01402 10174 20154 40183 52016 71000 333 05102;EQDQ01  00002PRCP99
0112549160999992000100403004+35570+116850FM-12+005399999V0202201N004012200019N0100001N1+02401+01641101841ADDGF104991041011008001001001MD1210011+9999REMSYN060AAXX  04031 54916 42560 42204 10240 20164 40184 52001 84100;
0165549160999992000100406004+35570+116850FM-12+005399999V0202001N004010120019N0100001N1+02491+01541101631ADDAA199000091GF107991071041012501999999KA1999N+01471MD1710211+9999REMSYN070AAXX  04061 54916 32660 72004 10249 20154 40163 57021 874// 333 20147;EQDQ01  00002PRCP99
0112549160999992000100409004+35570+116850FM-12+005399999V0202701N002019999999N0100001N1+02501+01551101621ADDGF105991001001999999001021MD1710011+9999REMSYN060AAXX  04091 54916 42960 52702 10250 20155 40162 57001 80002;
0142549160999992000100412004+35570+116850FM-12+005399999V0200901N002019999999N0100001N1+01911+01711101741ADDAA199000091GF106991001001999999001021MD1210111+9999REMSYN060AAXX  04121 54916 32960 60902 10191 20171 40174 52011 80002;EQDQ01  00002PRCP99
0177549160999992000100418004+35570+116850FM-12+005399999V0200401N001019999999N0070001N1+01701+01601101831ADDAA199000091GF107991071001999999031999KA1999M+02591MD1210011+9999MW1101REMSYN076AAXX  04181 54916 31957 70401 10170 20160 40183 52001 71000 8703/ 333 10259;EQDQ01  00002PRCP99
0122549160999992000100421004+35570+116850FM-12+005399999V0200901N001012200019N0100001N1+01551+01501101891ADDGA1001+999999999GF100991001001999999001001MD1210061+9999REMSYN054AAXX  04211 54916 42960 00901 10155 20150 40189 52006;
0174549160999992000100500004+35570+116850FM-12+005399999V0201101N002012200019N0080001N1+01731+01581102061ADDAA199000091GA1001+999999999GF100991001001999999001001MD1210161+0021MW1101REMSYN070AAXX  05001 54916 31958 01102 10173 20158 40206 52016 71000 333 00200;EQDQ01  00002PRCP99
0122549160999992000100503004+35570+116850FM-12+005399999V0202001N003012200019N0100001N1+02391+02351102001ADDGA1001+999999999GF100991001001999999001001MD1710051+9999REMSYN054AAXX  05031 54916 42960 02003 10239 20235 40200 57005;
0165549160999992000100506004+35570+116850FM-12+005399999V0200401N003010075019N0100001N1+02531+01531101811ADDAA199000091GF107991071011008001001001KA1999N+01441MD1710191+9999REMSYN070AAXX  05061 54916 32560 70403 10253 20153 40181 57019 87100 333 20144;EQDQ01  00002PRCP99
0112549160999992000100509004+35570+116850FM-12+005399999V0209999C000012200019N0100001N1+02451+01731101751ADDGF102991021011008001001001MD1710061+9999REMSYN060AAXX  05091 54916 42560 20000 10245 20173 40175 57006 82100;
0152549160999992000100512004+35570+116850FM-12+005399999V0201401N002012200019N0100001N1+01811+01571101891ADDAA199000091GA1001+999999999GF100991001001999999001001MD1210131+9999REMSYN054AAXX  05121 54916 32960 01402 10181 20157 40189 52013;EQDQ01  00002PRCP99
0175549160999992000100518004+35570+116850FM-12+005399999V0200701N002012200019N0100001N1+01401+01271101931ADDAA199000091GA1001+999999999GF100991001001999999001001KA1999M+02651MD1210031+9999REMSYN064AAXX  05181 54916 32960 00702 10140 20127 40193 52003 333 10265;EQDQ01  00002PRCP99
0122549160999992000100521004+35570+116850FM-12+005399999V0201101N002012200019N0100001N1+01521+01471101881ADDGA1001+999999999GF100991001001999999001001MD1710051+9999REMSYN054AAXX  05211 54916 42960 01102 10152 20147 40188 57005;
0152549160999992000100600004+35570+116850FM-12+005399999V0201101N002019999999N0100001N1+01771+01671101941ADDAA199000091GF106991001001999999001021MD1210051+0011REMSYN070AAXX  06001 54916 32960 61102 10177 20167 40194 52005 80002 333 05100;EQDQ01  00002PRCP99
0122549160999992000100603004+35570+116850FM-12+005399999V0201801N006012200019N0100001N1+02201+01711101981ADDGA1001+999999999GF100991001001999999001001MD1210041+9999REMSYN054AAXX  06031 54916 42960 01806 10220 20171 40198 52004;
0165549160999992000100606004+35570+116850FM-12+005399999V0201801N005010075019N0100001N1+02551+01511101741ADDAA199000091GF105991051011008001001001KA1999N+01361MD1710231+9999REMSYN070AAXX  06061 54916 32560 51805 10255 20151 40174 57023 85100 333 20136;EQDQ01  00002PRCP99
0112549160999992000100609004+35570+116850FM-12+005399999V0201601N006012200019N0100001N1+02531+01511101621ADDGF102991021011008001001001MD1710121+9999REMSYN060AAXX  06091 54916 42560 21606 10253 20151 40162 57012 82100;
0152549160999992000100612004+35570+116850FM-12+005399999V0201401N003012200019N0100001N1+01991+01631101681ADDAA199000091GA1001+999999999GF100991001001999999001001MD1210061+9999REMSYN054AAXX  06121 54916 32960 01403 10199 20163 40168 52006;EQDQ01  00002PRCP99
0175549160999992000100618004+35570+116850FM-12+005399999V0201401N002012200019N0100001N1+01751+01651101801ADDAA199000091GA1001+999999999GF100991001001999999001001KA1999M+02591MD1210011+9999REMSYN064AAXX  06181 54916 32960 01402 10175 20165 40180 52001 333 10259;EQDQ01  00002PRCP99
0112549160999992000100621004+35570+116850FM-12+005399999V0201801N003012200019N0100001N1+01951+01811101731ADDGF103991031051012501001001MD1710071+9999REMSYN060AAXX  06211 54916 42660 31803 10195 20181 40173 57007 83500;
0152549160999992000100700004+35570+116850FM-12+005399999V0201601N003010150019N0100001N1+01991+01881101791ADDAA199000091GF108991081051017501999999MD1210061+0011REMSYN070AAXX  07001 54916 32760 81603 10199 20188 40179 52006 885// 333 05102;EQDQ01  00002PRCP99
0112549160999992000100703004+35570+116850FM-12+005399999V0201401N005010150019N0100001N1+02371+01821101711ADDGF106991061051017501001001MD1710081+9999REMSYN060AAXX  07031 54916 42760 61405 10237 20182 40171 57008 86500;
0165549160999992000100706004+35570+116850FM-12+005399999V0201401N005012200019N0100001N1+02521+01781101431ADDAA199000091GF104991041041012501001001KA1999N+01671MD1710281+9999REMSYN070AAXX  07061 54916 32660 41405 10252 20178 40143 57028 84400 333 20167;EQDQ01  00002PRCP99
0112549160999992000100709004+35570+116850FM-12+005399999V0201801N005012200019N0100001N1+02451+01801101341ADDGF102991021011008001001001MD1710081+9999REMSYN060AAXX  07091 54916 42560 21805 10245 20180 40134 57008 82100;
0152549160999992000100712004+35570+116850FM-12+005399999V0201401N002012200019N0100001N1+02091+01841101391ADDAA199000091GA1001+999999999GF100991001001999999001001MD1210041+9999REMSYN054AAXX  07121 54916 32960 01402 10209 20184 40139 52004;EQDQ01  00002PRCP99
0161549160999992000100721004+35570+116850FM-12+005399999V0201601N002010120019N0100001N1+01851+01801101301ADDAA124032091AY191031AY281031GF108991081091012501999999MD1210091+9999MW1291REMSYN076AAXX  07211 54916 41660 81602 10185 20180 40130 52009 72998 889// 333 70320;
0173549160999992000100800004+35570+116850FM-12+005399999V0203201N004010120019N0050001N1+01571+01541101501ADDAA106032091AY191061AY281061GF108991081051012501999999MD1210201-0301MW1601REMSYN088AAXX  08001 54916 11650 83204 10157 20154 40150 52020 60321 76098 885// 333 05354 70320;
0132549160999992000100803004+35570+116850FM-12+005399999V0203401N005010120019N0100001N1+01831+01661101461ADDAY161031GF108991081051012501999999MD1710041+9999MW1001REMSYN066AAXX  08031 54916 41660 83405 10183 20166 40146 57004 70060 885//;
0172549160999992000100806004+35570+116850FM-12+005399999V0203601N003010150019N0100001N1+02051+01781101251ADDAA106000791AY161061GF108991081051017501999999KA1999N+01531MD1710211+9999MW1001REMSYN082AAXX  08061 54916 11760 83603 10205 20178 40125 57021 69901 70060 885// 333 20153;
0112549160999992000100809004+35570+116850FM-12+005399999V0203401N005010120019N0100001N1+01931+01631101371ADDGF108991081051012501999999MD1210121+9999REMSYN060AAXX  08091 54916 42660 83405 10193 20163 40137 52012 885//;
0123549160999992000100812004+35570+116850FM-12+005399999V0200401N003010120019N0100001N1+01791+01611101491ADDAA199000021GF108991081051012501999999MD1210111+9999REMSYN060AAXX  08121 54916 32660 80403 10179 20161 40149 52011 885//;
0165549160999992000100818004+35570+116850FM-12+005399999V0200401N002010150019N0100001N1+01751+01581101581ADDAA199000091GF108991081051017501999999KA1999M+02131MD1210041+9999REMSYN070AAXX  08181 54916 32760 80402 10175 20158 40158 52004 885// 333 10213;EQDQ01  00002PRCP99
0133549160999992000100821004+35570+116850FM-12+005399999V0203601N003010150019N0100001N1+01751+01561101661ADDAA124000791GF108991081051017501999999MD1210081+9999REMSYN070AAXX  08211 54916 42760 83603 10175 20156 40166 52008 885// 333 79999;
0139549160999992000100900004+35570+116850FM-12+005399999V0200901N003019999999N0100001N1+01771+01461101691ADDAA124000791GF108991081001999999071999MD1210021+0201REMSYN076AAXX  09001 54916 32960 80903 10177 20146 40169 52002 8807/ 333 00202 79999;
0112549160999992000100903004+35570+116850FM-12+005399999V0200701N002019999999N0100001N1+01851+01601101681ADDGF108991081001999999071999MD1710011+9999REMSYN060AAXX  09031 54916 42960 80702 10185 20160 40168 57001 8807/;
0165549160999992000100906004+35570+116850FM-12+005399999V0200901N003010360019N0100001N1+01921+01711101441ADDAA199000091GF108991031051012501021999KA1999N+01711MD1710231+9999REMSYN070AAXX  09061 54916 32660 80903 10192 20171 40144 57023 8352/ 333 20171;EQDQ01  00002PRCP99
0112549160999992000100909004+35570+116850FM-12+005399999V0201401N002019999999N0100001N1+01941+01681101431ADDGF108991081001999999071999MD1710011+9999REMSYN060AAXX  09091 54916 42960 81402 10194 20168 40143 57001 8807/;
0142549160999992000100912004+35570+116850FM-12+005399999V0200701N002019999999N0100001N1+01851+01671101581ADDAA199000091GF108991081001999999071999MD1210141+9999REMSYN060AAXX  09121 54916 32960 80702 10185 20167 40158 52014 8807/;EQDQ01  00002PRCP99
0165549160999992000100918004+35570+116850FM-12+005399999V0209999C000010120019N0100001N1+01801+01671101481ADDAA199000091GF108991081051012501999999KA1999M+02011MD1710041+9999REMSYN070AAXX  09181 54916 32660 80000 10180 20167 40148 57004 885// 333 10201;EQDQ01  00002PRCP99
0153549160999992000100921004+35570+116850FM-12+005399999V0203401N002010120019N0100001N1+01711+01681101521ADDAA124000791AY161031GF108991081051012501999999MD1210041+9999MW1211REMSYN076AAXX  09211 54916 41660 83402 10171 20168 40152 52004 72160 885// 333 79999;
0165549160999992000101000004+35570+116850FM-12+005399999V0203401N002010120019N0060001N1+01601+01581101501ADDAA106000191AY161061GF108991081051012501999999MD1710031-0201MW1601REMSYN088AAXX  10001 54916 11656 83402 10160 20158 40150 57003 69911 76060 885// 333 05252 70001;
0140549160999992000101003004+35570+116850FM-12+005399999V0203601N003019999999N0060001N1+01691+01661101521ADDAY161031AY261031GF108991081001999999021999MD1210021+9999MW1601REMSYN066AAXX  10031 54916 41956 83603 10169 20166 40152 52002 76066 8802/;
0172549160999992000101006004+35570+116850FM-12+005399999V0203401N003019999999N0070001N1+01701+01631101411ADDAA106000191AY161061GF108991081001999999021999KA1999N+01571MD1710111+9999MW1101REMSYN082AAXX  10061 54916 11957 83403 10170 20163 40141 57011 69911 71060 8802/ 333 20157;
0132549160999992000101009004+35570+116850FM-12+005399999V0203401N005019999999N0050001N1+01561+01511101371ADDAY161031GF108991081001999999021999MD1710041+9999MW1101REMSYN066AAXX  10091 54916 41950 83405 10156 20151 40137 57004 71060 8802/;
0149549160999992000101012004+35570+116850FM-12+005399999V0203401N002010150019N0100001N1+01641+01551101501ADDAA106002091AY161061GF108991081051017501999999MD1210131+9999MW1601REMSYN072AAXX  10121 54916 11760 83402 10164 20155 40150 52013 60021 76060 885//;
0180549160999992000101018004+35570+116850FM-12+005399999V0200401N004010120019N0100001N1+01591+01571101531ADDAA106015091AY161061AY261061GF108991081051012501999999KA1999M+01851MD1710101+9999MW1611REMSYN082AAXX  10181 54916 11660 80404 10159 20157 40153 57010 60151 76166 885// 333 10185;
0161549160999992000101021004+35570+116850FM-12+005399999V0203601N006010120019N0100001N1+01501+01411101701ADDAA124028291AY161031AY261031GF108991081051012501999999MD1210171+9999MW1611REMSYN076AAXX  10211 54916 41660 83606 10150 20141 40170 52017 76166 885// 333 70283;
0173549160999992000101100004+35570+116850FM-12+005399999V0203601N003010120019N0100001N1+01481+01341102021ADDAA106020191AY161061AY261061GF108991081051012501999999MD1210321+0501MW1211REMSYN088AAXX  11001 54916 11660 83603 10148 20134 40202 52032 60201 72166 885// 333 00551 70373;
0112549160999992000101103004+35570+116850FM-12+005399999V0203601N004010120019N0100001N1+01571+01321102141ADDGF108991081051012501999999MD1210121+9999REMSYN060AAXX  11031 54916 42660 83604 10157 20132 40214 52012 885//;
0172549160999992000101106004+35570+116850FM-12+005399999V0200401N007010120019N0120001N1+01591+01131102151ADDAA106000791AY161061GF108991081051012501999999KA1999N+01431MD1210011+9999MW1211REMSYN082AAXX  11061 54916 11662 80407 10159 20113 40215 52001 69901 72160 885// 333 20143;
0132549160999992000101109004+35570+116850FM-12+005399999V0200401N006019999999N0100001N1+01291+00831102501ADDAY161031GF108991081001999999071999MD1210341+9999MW1211REMSYN066AAXX  11091 54916 41960 80406 10129 20083 40250 52034 72160 8807/;
0149549160999992000101112004+35570+116850FM-12+005399999V0203601N002019999999N0100001N1+01141+00961102911ADDAA106001091AY161061GF108991081001999999071999MD1210401+9999MW1601REMSYN072AAXX  11121 54916 11960 83602 10114 20096 40291 52040 60011 76060 8807/;
0172549160999992000101118004+35570+116850FM-12+005399999V0203401N003010150019N0100001N1+01051+00841103061ADDAA106002091AY161061GF106991061051017501001001KA1999M+01661MD1210061+9999MW1001REMSYN082AAXX  11181 54916 11760 63403 10105 20084 40306 52006 60021 70060 86500 333 10166;
0143549160999992000101121004+35570+116850FM-12+005399999V0203601N004012200019N0100001N1+00921+00841103031ADDAA124012491GA1001+999999999GF100991001001999999001001MD1710031+9999REMSYN064AAXX  11211 54916 42960 03604 10092 20084 40303 57003 333 70125;
0139549160999992000101200004+35570+116850FM-12+005399999V0203601N004019999999N0100001N1+00981+00631103241ADDAA124003391GF107991001001999999001021MD1210211+1201REMSYN076AAXX  12001 54916 32960 73604 10098 20063 40324 52021 80002 333 01255 70034;
0112549160999992000101203004+35570+116850FM-12+005399999V0203401N004010120019N0120001N1+01261+00241103261ADDGF108991081051012501999999MD1210021+9999REMSYN060AAXX  12031 54916 42662 83404 10126 20024 40326 52002 885//;
0165549160999992000101206004+35570+116850FM-12+005399999V0203201N002010150019N0120001N1+01291+00171103041ADDAA199000091GF108991081051017501999999KA1999N+00871MD1710221+9999REMSYN070AAXX  12061 54916 32762 83202 10129 20017 40304 57022 885// 333 20087;EQDQ01  00002PRCP99
0112549160999992000101209004+35570+116850FM-12+005399999V0203401N003010120019N0100001N1+01201+00131102951ADDGF108991081051012501999999MD1710091+9999REMSYN060AAXX  12091 54916 42660 83403 10120 20013 40295 57009 885//;
0142549160999992000101212004+35570+116850FM-12+005399999V0203201N002010150019N0100001N1+01021+00301103051ADDAA199000091GF108991081051017501999999MD1210101+9999REMSYN060AAXX  12121 54916 32760 83202 10102 20030 40305 52010 885//;EQDQ01  00002PRCP99
0165549160999992000101218004+35570+116850FM-12+005399999V0203201N003012200019N0100001N1+00691+00251103041ADDAA199000091GF101991011001999999031001KA1999M+01331MD1710031+9999REMSYN070AAXX  12181 54916 32960 13203 10069 20025 40304 57003 81030 333 10133;EQDQ01  00002PRCP99
0112549160999992000101221004+35570+116850FM-12+005399999V0203401N002012200019N0100001N1+00471+00301102971ADDGF102991001001999999001021MD1710081+9999REMSYN060AAXX  12211 54916 42960 23402 10047 20030 40297 57008 80002;
0170549160999992000101300004+35570+116850FM-12+005399999V0203601N001012200019N0100001N1+00821+00321103081ADDAA199000091GF104991021001999999031021IA2999+00109MD1210111-0201REMSYN076AAXX  13001 54916 32960 43601 10082 20032 40308 52011 82032 333 05252 30013;EQDQ01  00002PRCP99
0112549160999992000101303004+35570+116850FM-12+005399999V0203201N002019999999N0100001N1+01241+00091103051ADDGF107991071001999999031999MD1710021+9999REMSYN060AAXX  13031 54916 42960 73202 10124 20009 40305 57002 8703/;
0165549160999992000101306004+35570+116850FM-12+005399999V0202201N002010120019N0100001N1+01361+00081102751ADDAA199000091GF107991071051012501999999KA1999N+00361MD1710301+9999REMSYN070AAXX  13061 54916 32660 72202 10136 20008 40275 57030 875// 333 20036;EQDQ01  00002PRCP99
0112549160999992000101309004+35570+116850FM-12+005399999V0202701N003010120019N0100001N1+01271+00381102681ADDGF108991081051012501999999MD1710071+9999REMSYN060AAXX  13091 54916 42660 82703 10127 20038 40268 57007 885//;
0142549160999992000101312004+35570+116850FM-12+005399999V0202501N002019999999N0100001N1+01101+00561102721ADDAA199000091GF107991001001999999001021MD1210041+9999REMSYN060AAXX  13121 54916 32960 72502 10110 20056 40272 52004 80002;EQDQ01  00002PRCP99
0165549160999992000101318004+35570+116850FM-12+005399999V0201401N001019999999N0100001N1+00831+00681102681ADDAA199000091GF108991001001999999001071KA1999M+02391MD1710051+9999REMSYN070AAXX  13181 54916 32960 81401 10083 20068 40268 57005 80007 333 10239;EQDQ01  00002PRCP99
0112549160999992000101321004+35570+116850FM-12+005399999V0200901N002010120019N0100001N1+00741+00651102581ADDGF108991081051012501999999MD1710101+9999REMSYN060AAXX  13211 54916 42660 80902 10074 20065 40258 57010 885//;
0152549160999992000101400004+35570+116850FM-12+005399999V0201101N002010120019N0100001N1+00971+00531102691ADDAA199000091GF107991071051012501999999MD1210111+0041REMSYN070AAXX  14001 54916 32660 71102 10097 20053 40269 52011 875// 333 05402;EQDQ01  00002PRCP99
0112549160999992000101403004+35570+116850FM-12+005399999V0202201N003019999999N0100001N1+01451+00221102691ADDGF106991061001999999031001MD1410001+9999REMSYN060AAXX  14031 54916 42960 62203 10145 20022 40269 54000 86030;
0165549160999992000101406004+35570+116850FM-12+005399999V0201801N003012200019N0100001N1+01611+00221102501ADDAA199000091GF102991021001999999031001KA1999N+00671MD1710181+9999REMSYN070AAXX  14061 54916 32960 21803 10161 20022 40250 57018 82030 333 20067;EQDQ01  00002PRCP99
0112549160999992000101409004+35570+116850FM-12+005399999V0202201N003012200019N0100001N1+01601+00301102471ADDGF101991001001999999001021MD1710041+9999REMSYN060AAXX  14091 54916 42960 12203 10160 20030 40247 57004 80002;
0142549160999992000101412004+35570+116850FM-12+005399999V0201401N002012200019N0100001N1+01021+00831102591ADDAA199000091GF101991001001999999001021MD1210121+9999REMSYN060AAXX  14121 54916 32960 11402 10102 20083 40259 52012 80002;EQDQ01  00002PRCP99
0175549160999992000101418004+35570+116850FM-12+005399999V0200901N001012200019N0100001N1+00681+00641102841ADDAA199000091GA1001+999999999GF100991001001999999001001KA1999M+01681MD1210101+9999REMSYN064AAXX  14181 54916 32960 00901 10068 20064 40284 52010 333 10168;EQDQ01  00002PRCP99
0122549160999992000101421004+35570+116850FM-12+005399999V0200901N001012200019N0100001N1+00611+00591102821ADDGA1001+999999999GF100991001001999999001001MD1710021+9999REMSYN054AAXX  14211 54916 42960 00901 10061 20059 40282 57002;
0180549160999992000101500004+35570+116850FM-12+005399999V0201101N001012200019N0100001N1+00881+00711102981ADDAA199000091GA1001+999999999GF100991001001999999001001IA2999+00209MD1210161+0301REMSYN070AAXX  15001 54916 32960 01101 10088 20071 40298 52016 333 00351 30023;EQDQ01  00002PRCP99
0122549160999992000101503004+35570+116850FM-12+005399999V0200401N003012200019N0100001N1+01631+00821103131ADDGA1001+999999999GF100991001001999999001001MD1210151+9999REMSYN054AAXX  15031 54916 42960 00403 10163 20082 40313 52015;
0165549160999992000101506004+35570+116850FM-12+005399999V0200901N003012200019N0120001N1+01941+00321102921ADDAA199000091GF102991001001999999001021KA1999N+00491MD1710211+9999REMSYN070AAXX  15061 54916 32962 20903 10194 20032 40292 57021 80002 333 20049;EQDQ01  00002PRCP99
0112549160999992000101509004+35570+116850FM-12+005399999V0200701N001019999999N0120001N1+01891+00821102951ADDGF107991021001999999031021MD1210031+9999REMSYN060AAXX  15091 54916 42962 70701 10189 20082 40295 52003 82032;
0142549160999992000101512004+35570+116850FM-12+005399999V0201401N001019999999N0100001N1+01341+01031103101ADDAA199000091GF108991081001999999071999MD1210151+9999REMSYN060AAXX  15121 54916 32960 81401 10134 20103 40310 52015 8807/;EQDQ01  00002PRCP99
0165549160999992000101518004+35570+116850FM-12+005399999V0200401N001010150019N0100001N1+01201+00961103121ADDAA199000091GF108991081051017501999999KA1999M+02031MD1410001+9999REMSYN070AAXX  15181 54916 32760 80401 10120 20096 40312 54000 885// 333 10203;EQDQ01  00002PRCP99
0112549160999992000101521004+35570+116850FM-12+005399999V0209999C000019999999N0100001N1+01141+00981103001ADDGF108991081001999999071999MD1710121+9999REMSYN060AAXX  15211 54916 42960 80000 10114 20098 40300 57012 8807/;
0152549160999992000101600004+35570+116850FM-12+005399999V0200901N001019999999N0100001N1+01261+01031103081ADDAA199000091GF107991071001999999031999MD1210071+0011REMSYN070AAXX  16001 54916 32960 70901 10126 20103 40308 52007 8703/ 333 00104;EQDQ01  00002PRCP99
0112549160999992000101603004+35570+116850FM-12+005399999V0201801N005019999999N0120001N1+01841+00781102981ADDGF108991081001999999071999MD1710091+9999REMSYN060AAXX  16031 54916 42962 81805 10184 20078 40298 57009 8807/;
0165549160999992000101606004+35570+116850FM-12+005399999V0202201N004010120019N0120001N1+01871+00561102691ADDAA199000091GF108991081051012501999999KA1999N+01091MD1710291+9999REMSYN070AAXX  16061 54916 32662 82204 10187 20056 40269 57029 885// 333 20109;EQDQ01  00002PRCP99
0112549160999992000101609004+35570+116850FM-12+005399999V0202201N003010120019N0100001N1+01721+00841102461ADDGF108991081051012501999999MD1710231+9999REMSYN060AAXX  16091 54916 42660 82203 10172 20084 40246 57023 885//;
0141549160999992000101612004+35570+116850FM-12+005399999V0201801N001010120019N0100001N1+01491+01201102431ADDAA106000791GF108991081051012501999999MD1710031+9999MW1601REMSYN072AAXX  16121 54916 11660 81801 10149 20120 40243 57003 69901 76000 885//;
0180549160999992000101618004+35570+116850FM-12+005399999V0201801N003010120019N0100001N1+01381+01141102201ADDAA106000191AY161061AY261061GF108991081051012501999999KA1999M+01991MD1710141+9999MW1211REMSYN082AAXX  16181 54916 11660 81803 10138 20114 40220 57014 69921 72166 885// 333 10199;
0133549160999992000101621004+35570+116850FM-12+005399999V0201801N002010150019N0100001N1+01351+01081102141ADDAA124000391GF108991081051017501999999MD1710071+9999REMSYN070AAXX  16211 54916 42760 81802 10135 20108 40214 57007 885// 333 70002;
0139549160999992000101700004+35570+116850FM-12+005399999V0201601N004010150019N0100001N1+01301+01171102161ADDAA124000391GF107991071051017501999999MD1210021-0901REMSYN076AAXX  17001 54916 32760 71604 10130 20117 40216 52002 875// 333 05900 70002;
0112549160999992000101703004+35570+116850FM-12+005399999V0201801N003010120019N0100001N1+01471+01171102161ADDGF108991081051012501999999MD1410001+9999REMSYN060AAXX  17031 54916 42660 81803 10147 20117 40216 54000 885//;
0146549160999992000101706004+35570+116850FM-12+005399999V0201801N003010120019N0120001N1+01641+01181102071ADDAA199000021GF108991081051012501999999KA1999N+01251MD1710091+9999REMSYN070AAXX  17061 54916 32662 81803 10164 20118 40207 57009 885// 333 20125;
0122549160999992000101709004+35570+116850FM-12+005399999V0201601N002012200019N0120001N1+01651+01191102181ADDGA1001+999999999GF100991001001999999001001MD1210111+9999REMSYN054AAXX  17091 54916 42962 01602 10165 20119 40218 52011;
0152549160999992000101712004+35570+116850FM-12+005399999V0201801N001012200019N0100001N1+01261+01151102351ADDAA199000091GA1001+999999999GF100991001001999999001001MD1210171+9999REMSYN054AAXX  17121 54916 32960 01801 10126 20115 40235 52017;EQDQ01  00002PRCP99
0187549160999992000101718004+35570+116850FM-12+005399999V0209999C000012200019N0020001N1+00891+00871102491ADDAA199000091GA1001+999999999GF100991001001999999001001KA1999M+01781MD1210031+9999MW1101REMSYN070AAXX  17181 54916 31920 00000 10089 20087 40249 52003 71000 333 10178;EQDQ01  00002PRCP99
0134549160999992000101721004+35570+116850FM-12+005399999V0200401N001012200019N0012001N1+00831+00831102511ADDGA1001+999999999GF100991001001999999001001MD1210021+9999MW1101REMSYN060AAXX  17211 54916 41912 00401 10083 20083 40251 52002 71000;
0174549160999992000101800004+35570+116850FM-12+005399999V0200401N002012200019N0080001N1+01131+01011102671ADDAA199000091GA1001+999999999GF100991001001999999001001MD1210151+0051MW1101REMSYN070AAXX  18001 54916 31958 00402 10113 20101 40267 52015 71000 333 00552;EQDQ01  00002PRCP99
0122549160999992000101803004+35570+116850FM-12+005399999V0201101N003012200019N0120001N1+01711+01161102631ADDGA1001+999999999GF100991001001999999001001MD1710031+9999REMSYN054AAXX  18031 54916 42962 01103 10171 20116 40263 57003;
0165549160999992000101806004+35570+116850FM-12+005399999V0201801N002012200019N0150001N1+01881+01151102271ADDAA199000091GF102991021011008001001001KA1999N+00761MD1710361+9999REMSYN070AAXX  18061 54916 32565 21802 10188 20115 40227 57036 82100 333 20076;EQDQ01  00002PRCP99
0112549160999992000101809004+35570+116850FM-12+005399999V0201801N002012200019N0120001N1+01811+01181102121ADDGF102991021041012501001001MD1710151+9999REMSYN060AAXX  18091 54916 42662 21802 10181 20118 40212 57015 82400;
0142549160999992000101812004+35570+116850FM-12+005399999V0209999C000010120019N0100001N1+01331+01221102171ADDAA199000091GF107991071051012501999999MD1210051+9999REMSYN060AAXX  18121 54916 32660 70000 10133 20122 40217 52005 875//;EQDQ01  00002PRCP99
0165549160999992000101818004+35570+116850FM-12+005399999V0201401N002010120019N0100001N1+01481+01301102031ADDAA199000091GF107991071051012501999999KA1999M+01971MD1710131+9999REMSYN070AAXX  18181 54916 32660 71402 10148 20130 40203 57013 875// 333 10197;EQDQ01  00002PRCP99
0112549160999992000101821004+35570+116850FM-12+005399999V0201401N002010120019N0100001N1+01481+01341101881ADDGF108991081051012501999999MD1710151+9999REMSYN060AAXX  18211 54916 42660 81402 10148 20134 40188 57015 885//;
0152549160999992000101900004+35570+116850FM-12+005399999V0201801N003010120019N0100001N1+01551+01371101881ADDAA199000091GF108991081051012501999999MD1710011+0081REMSYN070AAXX  19001 54916 32660 81803 10155 20137 40188 57001 885// 333 05804;EQDQ01  00002PRCP99
0112549160999992000101903004+35570+116850FM-12+005399999V0201801N005010120019N0100001N1+01851+01461101871ADDGF108991081051012501999999MD1410001+9999REMSYN060AAXX  19031 54916 42660 81805 10185 20146 40187 54000 885//;
0172549160999992000101906004+35570+116850FM-12+005399999V0202201N003010120019N0100001N1+01851+01441101661ADDAA106000791AY161061GF108991081051012501999999KA1999N+01271MD1710211+9999MW1001REMSYN082AAXX  19061 54916 11660 82203 10185 20144 40166 57021 69901 70060 885// 333 20127;
0112549160999992000101909004+35570+116850FM-12+005399999V0202001N001019999999N0100001N1+01871+01441101551ADDGF108991001001999999001071MD1710111+9999REMSYN060AAXX  19091 54916 42960 82001 10187 20144 40155 57011 80007;
0142549160999992000101912004+35570+116850FM-12+005399999V0209999C000019999999N0100001N1+01501+01411101741ADDAA199000091GF107991001001999999001021MD1210191+9999REMSYN060AAXX  19121 54916 32960 70000 10150 20141 40174 52019 80002;EQDQ01  00002PRCP99
0187549160999992000101918004+35570+116850FM-12+005399999V0200201N002012200019N0030001N1+01231+01211101901ADDAA199000091GA1001+999999999GF100991001001999999001001KA1999M+01951MD1210011+9999MW1101REMSYN070AAXX  19181 54916 31930 00202 10123 20121 40190 52001 71000 333 10195;EQDQ01  00002PRCP99
0155549160999992000101921004+35570+116850FM-12+005399999V0203601N001012200019N0050001N1+01251+01231101901ADDAA124000791GA1001+999999999GF100991001001999999001001MD1410001+9999MW1101REMSYN070AAXX  19211 54916 41950 03601 10125 20123 40190 54000 71000 333 79999;
0161549160999992000102000004+35570+116850FM-12+005399999V0203601N002012200019N0030001N1+01261+01241102081ADDAA124000791GA1001+999999999GF100991001001999999001001MD1210171+0201MW1101REMSYN076AAXX  20001 54916 31930 03602 10126 20124 40208 52017 71000 333 00253 79999;
0122549160999992000102003004+35570+116850FM-12+005399999V0203601N003012200019N0100001N1+01831+01431102161ADDGA1001+999999999GF100991001001999999001001MD1210091+9999REMSYN054AAXX  20031 54916 42960 03603 10183 20143 40216 52009;
0165549160999992000102006004+35570+116850FM-12+005399999V0200401N003012200019N0120001N1+02111+01311102031ADDAA199000091GF102991021011008001001001KA1999N+01071MD1710131+9999REMSYN070AAXX  20061 54916 32562 20403 10211 20131 40203 57013 82100 333 20107;EQDQ01  00002PRCP99
0122549160999992000102009004+35570+116850FM-12+005399999V0203401N002012200019N0100001N1+02051+01471101941ADDGA1001+999999999GF100991001001999999001001MD1710091+9999REMSYN054AAXX  20091 54916 42960 03402 10205 20147 40194 57009;
0142549160999992000102012004+35570+116850FM-12+005399999V0203401N002019999999N0100001N1+01751+01471102211ADDAA199000091GF106991001001999999001021MD1210261+9999REMSYN060AAXX  20121 54916 32960 63402 10175 20147 40221 52026 80002;EQDQ01  00002PRCP99
0165549160999992000102018004+35570+116850FM-12+005399999V0200401N002019999999N0100001N1+01361+01311102231ADDAA199000091GF107991001001999999001021KA1999M+02181MD1210051+9999REMSYN070AAXX  20181 54916 32960 70402 10136 20131 40223 52005 80002 333 10218;EQDQ01  00002PRCP99
0112549160999992000102021004+35570+116850FM-12+005399999V0200401N001019999999N0100001N1+01381+01311102221ADDGF107991001001999999001021MD1710011+9999REMSYN060AAXX  20211 54916 42960 70401 10138 20131 40222 57001 80002;
0152549160999992000102100004+35570+116850FM-12+005399999V0200401N002010120019N0100001N1+01501+01381102291ADDAA199000091GF107991071051012501999999MD1210071+0021REMSYN070AAXX  21001 54916 32660 70402 10150 20138 40229 52007 875// 333 00202;EQDQ01  00002PRCP99
0112549160999992000102103004+35570+116850FM-12+005399999V0201401N002010120019N0100001N1+01971+01591102321ADDGF108991061051012501001071MD1210031+9999REMSYN060AAXX  21031 54916 42660 81402 10197 20159 40232 52003 86507;
0165549160999992000102106004+35570+116850FM-12+005399999V0203601N002010120019N0120001N1+02101+01571102111ADDAA199000091GF108991081051012501999999KA1999N+01301MD1710211+9999REMSYN070AAXX  21061 54916 32662 83602 10210 20157 40211 57021 885// 333 20130;EQDQ01  00002PRCP99
0112549160999992000102109004+35570+116850FM-12+005399999V0200401N003010120019N0100001N1+02011+01561102021ADDGF108991081051012501999999MD1710091+9999REMSYN060AAXX  21091 54916 42660 80403 10201 20156 40202 57009 885//;
0142549160999992000102112004+35570+116850FM-12+005399999V0201401N004010120019N0100001N1+01891+01501102141ADDAA199000091GF108991081051012501999999MD1210121+9999REMSYN060AAXX  21121 54916 32660 81404 10189 20150 40214 52012 885//;EQDQ01  00002PRCP99
0172549160999992000102118004+35570+116850FM-12+005399999V0200901N002010120019N0100001N1+01591+01501102011ADDAA106000591AY161061GF108991081051012501999999KA1999M+02151MD1710131+9999MW1601REMSYN082AAXX  21181 54916 11660 80902 10159 20150 40201 57013 69951 76060 885// 333 10215;
0161549160999992000102121004+35570+116850FM-12+005399999V0200401N002010120019N0100001N1+01571+01551101861ADDAA124002091AY161031AY261031GF108991081051012501999999MD1710151+9999MW1611REMSYN076AAXX  21211 54916 41660 80402 10157 20155 40186 57015 76166 885// 333 70021;
0173549160999992000102200004+35570+116850FM-12+005399999V0200901N005010360019N0100001N1+01531+01391101801ADDAA106003091AY161061AY261061GF108991021071008001021999MD1710061-0501MW1601REMSYN088AAXX  22001 54916 11560 80905 10153 20139 40180 57006 60031 76066 8272/ 333 05500 70030;
0132549160999992000102203004+35570+116850FM-12+005399999V0200901N003010075019N0120001N1+01481+01341101781ADDAY161031GF108991071071008001021999MD1710021+9999MW1601REMSYN066AAXX  22031 54916 41562 80903 10148 20134 40178 57002 76060 8772/;
0172549160999992000102206004+35570+116850FM-12+005399999V0200901N002010360019N0080001N1+01441+01401101511ADDAA106002091AY161061GF108991021071008001021999KA1999N+01411MD1710271+9999MW1601REMSYN082AAXX  22061 54916 11558 80902 10144 20140 40151 57027 60021 76060 8272/ 333 20141;
0140549160999992000102209004+35570+116850FM-12+005399999V0203601N002010075019N0100001N1+01441+01391101521ADDAY161031AY261031GF108991051071008001021999MD1210011+9999MW1601REMSYN066AAXX  22091 54916 41560 83602 10144 20139 40152 52001 76066 8572/;
0157549160999992000102212004+35570+116850FM-12+005399999V0200401N002010075019N0100001N1+01431+01391101541ADDAA106004191AY161061AY261061GF108991061071008001021999MD1210021+9999MW1601REMSYN072AAXX  22121 54916 11560 80402 10143 20139 40154 52002 60041 76066 8672/;
0172549160999992000102218004+35570+116850FM-12+005399999V0203601N002010150019N0100001N1+01461+01391101581ADDAA106000791AY161061GF108991081051017501999999KA1999M+01611MD1710031+9999MW1001REMSYN082AAXX  22181 54916 11760 83602 10146 20139 40158 57003 69901 70060 885// 333 10161;
0133549160999992000102221004+35570+116850FM-12+005399999V0200401N002010120019N0100001N1+01441+01391101531ADDAA124006491GF108991081051012501999999MD1710051+9999REMSYN070AAXX  22211 54916 42660 80402 10144 20139 40153 57005 885// 333 70064;
0139549160999992000102300004+35570+116850FM-12+005399999V0203201N002010120019N0100001N1+01491+01401101721ADDAA124005691GF108991081051012501999999MD1210191-0101REMSYN076AAXX  23001 54916 32660 83202 10149 20140 40172 52019 885// 333 05100 70055;
0112549160999992000102303004+35570+116850FM-12+005399999V0200401N002010120019N0120001N1+01771+01461101731ADDGF108991081051012501999999MD1210011+9999REMSYN060AAXX  23031 54916 42662 80402 10177 20146 40173 52001 885//;
0165549160999992000102306004+35570+116850FM-12+005399999V0209999C000010120019N0120001N1+01891+01501101561ADDAA199000091GF108991081051012501999999KA1999N+01391MD1710171+9999REMSYN070AAXX  23061 54916 32662 80000 10189 20150 40156 57017 885// 333 20139;EQDQ01  00002PRCP99
0112549160999992000102309004+35570+116850FM-12+005399999V0200401N001010120019N0100001N1+01851+01581101501ADDGF108991081051012501999999MD1710061+9999REMSYN060AAXX  23091 54916 42660 80401 10185 20158 40150 57006 885//;
0142549160999992000102312004+35570+116850FM-12+005399999V0202901N002010120019N0100001N1+01731+01561101591ADDAA199000091GF108991081051012501999999MD1210091+9999REMSYN060AAXX  23121 54916 32660 82902 10173 20156 40159 52009 885//;EQDQ01  00002PRCP99
0172549160999992000102318004+35570+116850FM-12+005399999V0203201N002010120019N0100001N1+01531+01501101681ADDAA106001091AY161061GF108991081051012501999999KA1999M+01941MD1710031+9999MW1601REMSYN082AAXX  23181 54916 11660 83202 10153 20150 40168 57003 60011 76060 885// 333 10194;
0153549160999992000102321004+35570+116850FM-12+005399999V0203201N002010150019N0100001N1+01501+01431101671ADDAA124001391AY161031GF108991081051017501999999MD1710011+9999MW1001REMSYN076AAXX  23211 54916 41760 83202 10150 20143 40167 57001 70060 885// 333 70013;
0165549160999992000102400004+35570+116850FM-12+005399999V0203201N002019999999N0100001N1+01511+01421101881ADDAA106000191AY161061GF108991081001999999071999MD1210211+0201MW1001REMSYN088AAXX  24001 54916 11960 83202 10151 20142 40188 52021 69911 70060 8807/ 333 00200 70013;
0112549160999992000102403004+35570+116850FM-12+005399999V0203401N006010120019N0100001N1+01651+01391101921ADDGF108991081051012501999999MD1210041+9999REMSYN060AAXX  24031 54916 42660 83406 10165 20139 40192 52004 885//;
0146549160999992000102406004+35570+116850FM-12+005399999V0203401N004010120019N0100001N1+01671+01351101881ADDAA199000021GF108991081051012501999999KA1999N+01451MD1710041+9999REMSYN070AAXX  24061 54916 32660 83404 10167 20135 40188 57004 885// 333 20145;
0112549160999992000102409004+35570+116850FM-12+005399999V0203601N004010120019N0100001N1+01571+01321102091ADDGF108991081051012501999999MD1210121+9999REMSYN060AAXX  24091 54916 42660 83604 10157 20132 40209 52012 885//;
0142549160999992000102412004+35570+116850FM-12+005399999V0203601N004010120019N0100001N1+01481+00891102351ADDAA199000091GF108991081051012501999999MD1210251+9999REMSYN060AAXX  24121 54916 32660 83604 10148 20089 40235 52025 885//;EQDQ01  00002PRCP99
0172549160999992000102418004+35570+116850FM-12+005399999V0203401N003010120019N0100001N1+01141+00371102601ADDAA106001091AY161061GF107991071051012501999999KA1999M+01811MD1210061+9999MW1001REMSYN082AAXX  24181 54916 11660 73403 10114 20037 40260 52006 69991 70060 875// 333 10181;
0133549160999992000102421004+35570+116850FM-12+005399999V0203401N003012200019N0100001N1+00921+00261102691ADDAA124001091GF102991021051012501001001MD1210081+9999REMSYN070AAXX  24211 54916 42660 23403 10092 20026 40269 52008 82500 333 70009;
0139549160999992000102500004+35570+116850FM-12+005399999V0203601N003012200019N0120001N1+00931+00181102811ADDAA124001091GF102991021001999999031001MD1210121+0901REMSYN076AAXX  25001 54916 32962 23603 10093 20018 40281 52012 82030 333 00956 70009;
0112549160999992000102503004+35570+116850FM-12+005399999V0203601N003019999999N0150001N1+01341+00361102811ADDGF107991071001999999031999MD1210011+9999REMSYN060AAXX  25031 54916 42965 73603 10134 20036 40281 52001 8703/;
0165549160999992000102506004+35570+116850FM-12+005399999V0203201N003019999999N0150001N1+01221+00101102761ADDAA199000091GF108991081001999999071999KA1999N+00761MD1710061+9999REMSYN070AAXX  25061 54916 32965 83203 10122 20010 40276 57006 8807/ 333 20076;EQDQ01  00002PRCP99
0132549160999992000102509004+35570+116850FM-12+005399999V0203201N003010120019N0120001N1+00941+00361102801ADDAY161031GF108991081051012501999999MD1210041+9999MW1601REMSYN066AAXX  25091 54916 41662 83203 10094 20036 40280 52004 76060 885//;
0149549160999992000102512004+35570+116850FM-12+005399999V0203201N003010120019N0100001N1+00861+00371102931ADDAA106000891AY161061GF108991081051012501999999MD1210121+9999MW1601REMSYN072AAXX  25121 54916 11660 83203 10086 20037 40293 52012 69971 76060 885//;
0172549160999992000102518004+35570+116850FM-12+005399999V0203401N001012200019N0100001N1+00601+00311102931ADDAA106000791AY161061GF102991021051012501001001KA1999M+01401MD1710041+9999MW1001REMSYN082AAXX  25181 54916 11660 23401 10060 20031 40293 57004 69901 70060 82500 333 10140;
0143549160999992000102521004+35570+116850FM-12+005399999V0203401N002012200019N0100001N1+00441+00321102971ADDAA124000891GA1001+999999999GF100991001001999999001001MD1210041+9999REMSYN064AAXX  25211 54916 42960 03402 10044 20032 40297 52004 333 70007;
0167549160999992000102600004+35570+116850FM-12+005399999V0200901N002012200019N0100001N1+00691+00411103111ADDAA124000891GA1001+999999999GF100991001001999999001001IA2999+00119MD1210141+0301REMSYN076AAXX  26001 54916 32960 00902 10069 20041 40311 52014 333 00352 30011 70007;
0112549160999992000102603004+35570+116850FM-12+005399999V0200901N004019999999N0100001N1+01231+00511103111ADDGF106991061001999999031001MD1210011+9999REMSYN060AAXX  26031 54916 42960 60904 10123 20051 40311 52001 86030;
0165549160999992000102606004+35570+116850FM-12+005399999V0200401N001019999999N0100001N1+01441+00581102951ADDAA199000091GF107991071001999999031999KA1999N+00321MD1710161+9999REMSYN070AAXX  26061 54916 32960 70401 10144 20058 40295 57016 8703/ 333 20032;EQDQ01  00002PRCP99
0112549160999992000102609004+35570+116850FM-12+005399999V0202701N001019999999N0100001N1+01401+00701102971ADDGF107991071001999999031999MD1210011+9999REMSYN060AAXX  26091 54916 42960 72701 10140 20070 40297 52001 8703/;
0152549160999992000102612004+35570+116850FM-12+005399999V0202201N002012200019N0100001N1+00921+00791103061ADDAA199000091GA1001+999999999GF100991001001999999001001MD1210091+9999REMSYN054AAXX  26121 54916 32960 02202 10092 20079 40306 52009;EQDQ01  00002PRCP99
0187549160999992000102618004+35570+116850FM-12+005399999V0200901N001012200019N0080001N1+00581+00561103021ADDAA199000091GA1001+999999999GF100991001001999999001001KA1999M+01491MD1710051+9999MW1101REMSYN070AAXX  26181 54916 31958 00901 10058 20056 40302 57005 71000 333 10149;EQDQ01  00002PRCP99
0134549160999992000102621004+35570+116850FM-12+005399999V0200401N002012200019N0080001N1+00481+00461103011ADDGA1001+999999999GF100991001001999999001001MD1710021+9999MW1101REMSYN060AAXX  26211 54916 41958 00402 10048 20046 40301 57002 71000;
0192549160999992000102700004+35570+116850FM-12+005399999V0200401N001012200019N0080001N1+00711+00601103101ADDAA199000091GA1001+999999999GF100991001001999999001001IA2999+00209MD1210091+0001MW1101REMSYN076AAXX  27001 54916 31958 00401 10071 20060 40310 52009 71000 333 00000 30023;EQDQ01  00002PRCP99
0112549160999992000102703004+35570+116850FM-12+005399999V0201401N003012200019N0100001N1+01501+00471103071ADDGF102991021001999999031001MD1710021+9999REMSYN060AAXX  27031 54916 42960 21403 10150 20047 40307 57002 82030;
0165549160999992000102706004+35570+116850FM-12+005399999V0201801N003019999999N0100001N1+01631+00401102751ADDAA199000091GF107991071001999999031999KA1999N+00441MD1710321+9999REMSYN070AAXX  27061 54916 32960 71803 10163 20040 40275 57032 8703/ 333 20044;EQDQ01  00002PRCP99
0112549160999992000102709004+35570+116850FM-12+005399999V0202201N002019999999N0100001N1+01481+00601102711ADDGF108991081001999999071999MD1710041+9999REMSYN060AAXX  27091 54916 42960 82202 10148 20060 40271 57004 8807/;
0149549160999992000102712004+35570+116850FM-12+005399999V0202701N003019999999N0100001N1+01201+00981102941ADDAA106001091AY161061GF108991081001999999071999MD1210231+9999MW1601REMSYN072AAXX  27121 54916 11960 82703 10120 20098 40294 52023 60011 76060 8807/;
0172549160999992000102718004+35570+116850FM-12+005399999V0203401N004010120019N0100001N1+01121+00941102841ADDAA106000591AY161061GF108991081051012501999999KA1999M+01731MD1710041+9999MW1001REMSYN082AAXX  27181 54916 11660 83404 10112 20094 40284 57004 69961 70060 885// 333 10173;
0133549160999992000102721004+35570+116850FM-12+005399999V0200201N001010120019N0120001N1+01121+00961102691ADDAA124001891GF108991081051012501999999MD1710151+9999REMSYN070AAXX  27211 54916 42662 80201 10112 20096 40269 57015 885// 333 70019;
0139549160999992000102800004+35570+116850FM-12+005399999V0203601N002010120019N0100001N1+01121+01001102801ADDAA124001891GF108991081051012501999999MD1210101-0301REMSYN076AAXX  28001 54916 32660 83602 10112 20100 40280 52010 885// 333 05304 70019;
0112549160999992000102803004+35570+116850FM-12+005399999V0203401N003010120019N0100001N1+01271+01041102791ADDGF108991081051012501999999MD1710011+9999REMSYN060AAXX  28031 54916 42660 83403 10127 20104 40279 57001 885//;
0112549160999992000102809004+35570+116850FM-12+005399999V0203201N003010120019N0100001N1+01221+00881102531ADDGF108991081051012501999999MD1210021+9999REMSYN060AAXX  28091 54916 42660 83203 10122 20088 40253 52002 885//;
0142549160999992000102812004+35570+116850FM-12+005399999V0209999C000010120019N0100001N1+01101+00861102551ADDAA199000091GF108991081051012501999999MD1210021+9999REMSYN060AAXX  28121 54916 32660 80000 10110 20086 40255 52002 885//;EQDQ01  00002PRCP99
0165549160999992000102818004+35570+116850FM-12+005399999V0203201N002010120019N0100001N1+01061+00881102421ADDAA199000091GF108991081051012501999999KA1999M+01381MD1710111+9999REMSYN070AAXX  28181 54916 32660 83202 10106 20088 40242 57011 885// 333 10138;EQDQ01  00002PRCP99
0112549160999992000102821004+35570+116850FM-12+005399999V0202901N003012200019N0100001N1+00941+00901102271ADDGF102991001001999999001021MD1710161+9999REMSYN060AAXX  28211 54916 42960 22903 10094 20090 40227 57016 80002;
0165549160999992000102900004+35570+116850FM-12+005399999V0202701N002019999999N0030001N1+00961+00881102281ADDAA106000191AY161061GF108991081001999999071999MD1210011-0501MW1211REMSYN088AAXX  29001 54916 11930 82702 10096 20088 40228 52001 69911 72160 8807/ 333 05552 70001;
0132549160999992000102903004+35570+116850FM-12+005399999V0203201N004010120019N0080001N1+00981+00861102341ADDAY161031GF108991081051012501999999MD1210061+9999MW1611REMSYN066AAXX  29031 54916 41658 83204 10098 20086 40234 52006 76160 885//;
0172549160999992000102906004+35570+116850FM-12+005399999V0203201N005010120019N0120001N1+00811+00571102261ADDAA106001091AY161061GF108991081051012501999999KA1999N+00801MD1710081+9999MW1001REMSYN082AAXX  29061 54916 11662 83205 10081 20057 40226 57008 60011 70060 885// 333 20080;
0112549160999992000102909004+35570+116850FM-12+005399999V0203201N004010120019N0100001N1+00821+00601102321ADDGF108991081051012501999999MD1210061+9999REMSYN060AAXX  29091 54916 42660 83204 10082 20060 40232 52006 885//;
0142549160999992000102912004+35570+116850FM-12+005399999V0203201N002019999999N0100001N1+00701+00591102471ADDAA199000021GF108991999051012501001001MD1210151+9999REMSYN060AAXX  29121 54916 32660 83202 10070 20059 40247 52015 82500;EQDQ01+000022SCOTLC
0187549160999992000102918004+35570+116850FM-12+005399999V0200901N001012200019N0030001N1+00301+00301102341ADDAA199000091GA1001+999999999GF100991001001999999001001KA1999M+01091MD1710131+9999MW1101REMSYN070AAXX  29181 54916 31930 00901 10030 20030 40234 57013 71000 333 10109;EQDQ01  00002PRCP99
0155549160999992000102921004+35570+116850FM-12+005399999V0201401N001012200019N0030001N1+00261+00231102281ADDAA124001391GA1001+999999999GF100991001001999999001001MD1710061+9999MW1101REMSYN070AAXX  29211 54916 41930 01401 10026 20023 40228 57006 71000 333 70012;
0177549160999992000103000004+35570+116850FM-12+005399999V0201601N002019999999N0005001N1+00401+00401102341ADDAA124001091AY141061GF108991081001999999071999IA2999+00039MD1210061+0101MW1441REMSYN088AAXX  30001 54916 31905 81602 10040 20040 40234 52006 74440 8807/ 333 00156 30003 70011;
0142549160999992000103003004+35570+116850FM-12+005399999V0201801N006012200019N0100001N1+00961+00751102271ADDAY141031GA1001+999999999GF100991001001999999001001MD1710071+9999MW1001REMSYN060AAXX  30031 54916 41960 01806 10096 20075 40227 57007 70040;
0195549160999992000103006004+35570+116850FM-12+005399999V0201601N005012200019N0100001N1+01401+00601102071ADDAA199000091AY141061GA1001+999999999GF100991001001999999001001KA1999N+00231MD1710191+9999MW1001REMSYN070AAXX  30061 54916 31960 01605 10140 20060 40207 57019 70040 333 20023;EQDQ01  00002PRCP99
0122549160999992000103009004+35570+116850FM-12+005399999V0201801N003012200019N0150001N1+01341+00551102081ADDGA1001+999999999GF100991001001999999001001MD1210011+9999REMSYN054AAXX  30091 54916 42965 01803 10134 20055 40208 52001;
0152549160999992000103012004+35570+116850FM-12+005399999V0201401N003012200019N0120001N1+00881+00641102261ADDAA199000091GA1001+999999999GF100991001001999999001001MD1210171+9999REMSYN054AAXX  30121 54916 32962 01403 10088 20064 40226 52017;EQDQ01  00002PRCP99
0187549160999992000103018004+35570+116850FM-12+005399999V0200901N002012200019N0080001N1+00481+00481102281ADDAA199000091GA1001+999999999GF100991001001999999001001KA1999M+01461MD1710051+9999MW1101REMSYN070AAXX  30181 54916 31958 00902 10048 20048 40228 57005 71000 333 10146;EQDQ01  00002PRCP99
0134549160999992000103021004+35570+116850FM-12+005399999V0200401N001012200019N0070001N1+00461+00441102371ADDGA1001+999999999GF100991001001999999001001MD1210091+9999MW1101REMSYN060AAXX  30211 54916 41957 00401 10046 20044 40237 52009 71000;
0192549160999992000103100004+35570+116850FM-12+005399999V0203601N001012200019N0030001N1+00581+00581102491ADDAA199000091GA1001+999999999GF100991001001999999001001IA2999+00109MD1210111+0201MW1101REMSYN076AAXX  31001 54916 31930 03601 10058 20058 40249 52011 71000 333 00202 30018;EQDQ01  00002PRCP99
0122549160999992000103103004+35570+116850FM-12+005399999V0202701N003012200019N0100001N1+01281+00811102491ADDGA1001+999999999GF100991001001999999001001MD1210011+9999REMSYN054AAXX  31031 54916 42960 02703 10128 20081 40249 52001;
0165549160999992000103106004+35570+116850FM-12+005399999V0203201N002012200019N0100001N1+01481+00731102341ADDAA199000091GF101991011011008001001001KA1999N+00361MD1710151+9999REMSYN070AAXX  31061 54916 32560 13202 10148 20073 40234 57015 81100 333 20036;EQDQ01  00002PRCP99
0122549160999992000103109004+35570+116850FM-12+005399999V0203201N004012200019N0100001N1+01261+00471102471ADDGA1001+999999999GF100991001001999999001001MD1210131+9999REMSYN054AAXX  31091 54916 42960 03204 10126 20047 40247 52013;
0152549160999992000103112004+35570+116850FM-12+005399999V0203201N003012200019N0100001N1+00941+00221102591ADDAA199000091GA1001+999999999GF100991001001999999001001MD1210111+9999REMSYN054AAXX  31121 54916 32960 03203 10094 20022 40259 52011;EQDQ01  00002PRCP99
0175549160999992000103118004+35570+116850FM-12+005399999V0203201N002012200019N0100001N1+00531+00181102671ADDAA199000091GA1001+999999999GF100991001001999999001001KA1999M+01531MD1210011+9999REMSYN064AAXX  31181 54916 32960 03202 10053 20018 40267 52001 333 10153;EQDQ01  00002PRCP99
0122549160999992000103121004+35570+116850FM-12+005399999V0209999C000012200019N0100001N1+00361+00181102671ADDGA1001+999999999GF100991001001999999001001MD1710011+9999REMSYN054AAXX  31211 54916 42960 00000 10036 20018 40267 57001;
0180549160999992000110100004+35570+116850FM-12+005399999V0203401N002012200019N0100001N1+00551+00281102761ADDAA199000091GA1001+999999999GF100991001001999999001001IA2999+00009MD1210091+0301REMSYN070AAXX  01001 54916 32960 03402 10055 20028 40276 52009 333 00300 31005;EQDQ01  00002PRCP99
0122549160999992000110103004+35570+116850FM-12+005399999V0202701N002012200019N0100001N1+01271+00381102681ADDGA1001+999999999GF100991001001999999001001MD1710071+9999REMSYN054AAXX  01031 54916 42960 02702 10127 20038 40268 57007;
0175549160999992000110106004+35570+116850FM-12+005399999V0202201N001012200019N0120001N1+01471-00151102431ADDAA199000091GA1001+999999999GF100991001001999999001001KA1999N+00191MD1710251+9999REMSYN064AAXX  01061 54916 32962 02201 10147 21015 40243 57025 333 20019;EQDQ01  00002PRCP99
0122549160999992000110109004+35570+116850FM-12+005399999V0202701N001012200019N0120001N1+01381-00051102321ADDGA1001+999999999GF100991001001999999001001MD1710111+9999REMSYN054AAXX  01091 54916 42962 02701 10138 21005 40232 57011;
0152549160999992000110112004+35570+116850FM-12+005399999V0209999C000012200019N0120001N1+00601+00411102351ADDAA199000091GA1001+999999999GF100991001001999999001001MD1210021+9999REMSYN054AAXX  01121 54916 32962 00000 10060 20041 40235 52002;EQDQ01  00002PRCP99
0175549160999992000110118004+35570+116850FM-12+005399999V0201401N001012200019N0100001N1+00271+00191102341ADDAA199000091GA1001+999999999GF100991001001999999001001KA1999M+01601MD1710031+9999REMSYN064AAXX  01181 54916 32960 01401 10027 20019 40234 57003 333 10160;EQDQ01  00002PRCP99
0122549160999992000110121004+35570+116850FM-12+005399999V0200901N002012200019N0100001N1+00181+00151102311ADDGA1001+999999999GF100991001001999999001001MD1710031+9999REMSYN054AAXX  01211 54916 42960 00902 10018 20015 40231 57003;
0180549160999992000110200004+35570+116850FM-12+005399999V0200901N001012200019N0100001N1+00411+00311102461ADDAA199000091GA1001+999999999GF100991001001999999001001IA2999+00009MD1210141-0301REMSYN070AAXX  02001 54916 32960 00901 10041 20031 40246 52014 333 05351 31008;EQDQ01  00002PRCP99
0122549160999992000110203004+35570+116850FM-12+005399999V0201801N004012200019N0100001N1+01431+00101102441ADDGA1001+999999999GF100991001001999999001001MD1710011+9999REMSYN054AAXX  02031 54916 42960 01804 10143 20010 40244 57001;
0175549160999992000110206004+35570+116850FM-12+005399999V0201601N003012200019N0120001N1+01661+00241102271ADDAA199000091GA1001+999999999GF100991001001999999001001KA1999N+00111MD1710171+9999REMSYN064AAXX  02061 54916 32962 01603 10166 20024 40227 57017 333 20011;EQDQ01  00002PRCP99
0122549160999992000110209004+35570+116850FM-12+005399999V0201801N002012200019N0120001N1+01481+00471102241ADDGA1001+999999999GF100991001001999999001001MD1710031+9999REMSYN054AAXX  02091 54916 42962 01802 10148 20047 40224 57003;
0152549160999992000110212004+35570+116850FM-12+005399999V0201401N002012200019N0120001N1+00771+00551102351ADDAA199000091GA1001+999999999GF100991001001999999001001MD1210101+9999REMSYN054AAXX  02121 54916 32962 01402 10077 20055 40235 52010;EQDQ01  00002PRCP99
0175549160999992000110218004+35570+116850FM-12+005399999V0201401N001012200019N0120001N1+00421+00351102431ADDAA199000091GA1001+999999999GF100991001001999999001001KA1999M+01711MD1210031+9999REMSYN064AAXX  02181 54916 32962 01401 10042 20035 40243 52003 333 10171;EQDQ01  00002PRCP99
0122549160999992000110221004+35570+116850FM-12+005399999V0200901N002012200019N0100001N1+00301+00251102431ADDGA1001+999999999GF100991001001999999001001MD1410001+9999REMSYN054AAXX  02211 54916 42960 00902 10030 20025 40243 54000;
0180549160999992000110300004+35570+116850FM-12+005399999V0200901N002012200019N0100001N1+00561+00421102571ADDAA199000091GA1001+999999999GF100991001001999999001001IA2999+00009MD1210131+0101REMSYN070AAXX  03001 54916 32960 00902 10056 20042 40257 52013 333 00102 31002;EQDQ01  00002PRCP99
0122549160999992000110303004+35570+116850FM-12+005399999V0201801N005012200019N0120001N1+01521+00631102481ADDGA1001+999999999GF100991001001999999001001MD1710081+9999REMSYN054AAXX  03031 54916 42962 01805 10152 20063 40248 57008;
0175549160999992000110306004+35570+116850FM-12+005399999V0201801N005012200019N0120001N1+01771+00561102231ADDAA199000091GA1001+999999999GF100991001001999999001001KA1999N+00231MD1710251+9999REMSYN064AAXX  03061 54916 32962 01805 10177 20056 40223 57025 333 20023;EQDQ01  00002PRCP99
0122549160999992000110309004+35570+116850FM-12+005399999V0201401N003012200019N0100001N1+01531+00601102111ADDGA1001+999999999GF100991001001999999001001MD1710121+9999REMSYN054AAXX  03091 54916 42960 01403 10153 20060 40211 57012;
0152549160999992000110312004+35570+116850FM-12+005399999V0203201N002012200019N0100001N1+01111+00691102281ADDAA199000091GA1001+999999999GF100991001001999999001001MD1210171+9999REMSYN054AAXX  03121 54916 32960 03202 10111 20069 40228 52017;EQDQ01  00002PRCP99
0164549160999992000110318004+35570+116850FM-12+005399999V0201601N003019999999N0100001N1+00961+00771102371ADDAA106000791GF108991081001999999071999KA1999M+01831MD1410001+9999MW1211REMSYN082AAXX  03181 54916 11960 81603 10096 20077 40237 54000 69901 72100 8807/ 333 10183;
0143549160999992000110321004+35570+116850FM-12+005399999V0201801N001012200019N0100001N1+00941+00731102191ADDAA124000791GA1001+999999999GF100991001001999999001001MD1710181+9999REMSYN064AAXX  03211 54916 42960 01801 10094 20073 40219 57018 333 79999;
0169549160999992000110400004+35570+116850FM-12+005399999V0201101N001019999999N0070001N1+00731+00641102311ADDAA124000791GF105991001001999999001021IA2999+00499MD1210111-0301MW1101REMSYN088AAXX  04001 54916 31957 51101 10073 20064 40231 52011 71000 80002 333 05302 30049 79999;
0122549160999992000110403004+35570+116850FM-12+005399999V0209999C000012200019N0100001N1+01561+00881102301ADDGA1001+999999999GF100991001001999999001001MD1710011+9999REMSYN054AAXX  04031 54916 42960 00000 10156 20088 40230 57001;
0156549160999992000110406004+35570+116850FM-12+005399999V0203601N003012200019N0100001N1+01891+00621102081ADDAA199000021GA1001+999999999GF100991001001999999001001KA1999N+00701MD1710211+9999REMSYN064AAXX  04061 54916 32960 03603 10189 20062 40208 57021 333 20070;
0152549160999992000110412004+35570+116850FM-12+005399999V0201101N002012200019N0100001N1+00921+00711102031ADDAA199000091GA1001+999999999GF100991001001999999001001MD1410001+9999REMSYN054AAXX  04121 54916 32960 01102 10092 20071 40203 54000;EQDQ01  00002PRCP99
0175549160999992000110418004+35570+116850FM-12+005399999V0200901N001012200019N0100001N1+00621+00511101941ADDAA199000091GA1001+999999999GF100991001001999999001001KA1999M+01951MD1710101+9999REMSYN064AAXX  04181 54916 32960 00901 10062 20051 40194 57010 333 10195;EQDQ01  00002PRCP99
0122549160999992000110421004+35570+116850FM-12+005399999V0200901N002012200019N0100001N1+00671+00581101771ADDGA1001+999999999GF100991001001999999001001MD1710171+9999REMSYN054AAXX  04211 54916 42960 00902 10067 20058 40177 57017;
0192549160999992000110500004+35570+116850FM-12+005399999V0200901N002012200019N0040001N1+00851+00771101761ADDAA199000091GA1001+999999999GF100991001001999999001001IA2999+00309MD1710021-0601MW1101REMSYN076AAXX  05001 54916 31940 00902 10085 20077 40176 57002 71000 333 05601 30031;EQDQ01  00002PRCP99
0122549160999992000110503004+35570+116850FM-12+005399999V0201601N007012200019N0100001N1+01751+01081101701ADDGA1001+999999999GF100991001001999999001001MD1710051+9999REMSYN054AAXX  05031 54916 42960 01607 10175 20108 40170 57005;
0175549160999992000110506004+35570+116850FM-12+005399999V0201801N007012200019N0100001N1+02011+00951101421ADDAA199000091GA1001+999999999GF100991001001999999001001KA1999N+00571MD1710281+9999REMSYN064AAXX  05061 54916 32960 01807 10201 20095 40142 57028 333 20057;EQDQ01  00002PRCP99
0122549160999992000110509004+35570+116850FM-12+005399999V0201601N005012200019N0100001N1+01841+00931101321ADDGA1001+999999999GF100991001001999999001001MD1710101+9999REMSYN054AAXX  05091 54916 42960 01605 10184 20093 40132 57010;
0152549160999992000110512004+35570+116850FM-12+005399999V0201401N005012200019N0100001N1+01631+01031101381ADDAA199000091GA1001+999999999GF100991001001999999001001MD1210061+9999REMSYN054AAXX  05121 54916 32960 01405 10163 20103 40138 52006;EQDQ01  00002PRCP99
0165549160999992000110518004+35570+116850FM-12+005399999V0201401N004019999999N0100001N1+01311+00961101491ADDAA199000091GF108991001001999999001071KA1999M+02071MD1710021+9999REMSYN070AAXX  05181 54916 32960 81404 10131 20096 40149 57002 80007 333 10207;EQDQ01  00002PRCP99
0122549160999992000110521004+35570+116850FM-12+005399999V0201401N003012200019N0100001N1+01031+00931101401ADDGA1001+999999999GF100991001001999999001001MD1710091+9999REMSYN054AAXX  05211 54916 42960 01403 10103 20093 40140 57009;
0164549160999992000110600004+35570+116850FM-12+005399999V0200401N002019999999N0050001N1+01121+01001101571ADDAA199000091GF106991001001999999001021MD1210161+0021MW1101REMSYN076AAXX  06001 54916 31950 60402 10112 20100 40157 52016 71000 80002 333 05203;EQDQ01  00002PRCP99
0122549160999992000110603004+35570+116850FM-12+005399999V0200901N002012200019N0100001N1+01641+01221101591ADDGA1001+999999999GF100991001001999999001001MD1210031+9999REMSYN054AAXX  06031 54916 42960 00902 10164 20122 40159 52003;
0165549160999992000110606004+35570+116850FM-12+005399999V0200701N003019999999N0100001N1+01901+01261101471ADDAA199000091GF106991001001999999001021KA1999N+00941MD1710121+9999REMSYN070AAXX  06061 54916 32960 60703 10190 20126 40147 57012 80002 333 20094;EQDQ01  00002PRCP99
0112549160999992000110609004+35570+116850FM-12+005399999V0203401N004019999999N0100001N1+01741+01181101621ADDGF106991001001999999001021MD1210141+9999REMSYN060AAXX  06091 54916 42960 63404 10174 20118 40162 52014 80002;
0142549160999992000110612004+35570+116850FM-12+005399999V0203601N002019999999N0100001N1+01461+01121101851ADDAA199000091GF106991001001999999001021MD1210231+9999REMSYN060AAXX  06121 54916 32960 63602 10146 20112 40185 52023 80002;EQDQ01  00002PRCP99
0165549160999992000110618004+35570+116850FM-12+005399999V0200401N003019999999N0100001N1+01391+00321102311ADDAA199000091GF107991001001999999001021KA1999M+01961MD1210191+9999REMSYN070AAXX  06181 54916 32960 70403 10139 20032 40231 52019 80002 333 10196;EQDQ01  00002PRCP99
0122549160999992000110621004+35570+116850FM-12+005399999V0203601N003012200019N0100001N1+01081+00211102421ADDGA1001+999999999GF100991001001999999001001MD1210101+9999REMSYN054AAXX  06211 54916 42960 03603 10108 20021 40242 52010;
0147549160999992000110700004+35570+116850FM-12+005399999V0200201N003012200019N0100001N1+00951+99999999999ADDAA199000091GA1001+999999999GF100991001001999999001001REMSYN063AAXX  07001 54916 32960 00203 10095 2001 40284 52041 333 01352;EQDQ01  00002PRCP99
0112549160999992000110703004+35570+116850FM-12+005399999V0200201N006012200019N0100001N1+01031-00361103061ADDGF102991001001999999001021MD1210221+9999REMSYN060AAXX  07031 54916 42960 20206 10103 21036 40306 52022 80002;
0165549160999992000110706004+35570+116850FM-12+005399999V0203601N004019999999N0100001N1+00921-00751103061ADDAA199000091GF107991001001999999001021KA1999N+00911MD1410001+9999REMSYN070AAXX  07061 54916 32960 73604 10092 21075 40306 54000 80002 333 20091;EQDQ01  00002PRCP99
0112549160999992000110709004+35570+116850FM-12+005399999V0200201N005019999999N0120001N1+00781-00631103111ADDGF107991071001999999031999MD1210041+9999REMSYN060AAXX  07091 54916 42962 70205 10078 21063 40311 52004 8703/;
0142549160999992000110712004+35570+116850FM-12+005399999V0200401N006010120019N0150001N1+00621-01011103321ADDAA199000091GF108991081051012501999999MD1210211+9999REMSYN060AAXX  07121 54916 32665 80406 10062 21101 40332 52021 885//;EQDQ01  00002PRCP99
0165549160999992000110718004+35570+116850FM-12+005399999V0203601N004010150019N0150001N1+00271-00261103421ADDAA199000091GF108991081051017501999999KA1999M+01401MD1710011+9999REMSYN070AAXX  07181 54916 32765 83604 10027 21026 40342 57001 885// 333 10140;EQDQ01  00002PRCP99
0153549160999992000110721004+35570+116850FM-12+005399999V0203601N004010120019N0120001N1+00061-00051103321ADDAA124000791AY171031GF108991081051012501999999MD1710101+9999MW1701REMSYN076AAXX  07211 54916 41662 83604 10006 21005 40332 57010 77070 885// 333 79999;
0183549160999992000110800004+35570+116850FM-12+005399999V0203601N003010150019N0100001N1+00171+00001103311ADDAA106000191AY171061GF108991081051017501999999IA2999+00179MD1710011+0501MW1001REMSYN094AAXX  08001 54916 11760 83603 10017 20000 40331 57001 69921 70070 885// 333 00558 30017 70002;
0172549160999992000110806004+35570+116850FM-12+005399999V0200401N004019999999N0100001N1+00331+00061103041ADDAA106000191AY171061GF108991081001999999071999KA1999N+00041MD1710281+9999MW1001REMSYN082AAXX  08061 54916 11960 80404 10033 20006 40304 57028 69911 70070 8807/ 333 20004;
0112549160999992000110809004+35570+116850FM-12+005399999V0200401N003019999999N0100001N1+00381+00121102951ADDGF108991081001999999071999MD1710091+9999REMSYN060AAXX  08091 54916 42960 80403 10038 20012 40295 57009 8807/;
0142549160999992000110812004+35570+116850FM-12+005399999V0200701N003010120019N0100001N1+00441+00131102891ADDAA199000091GF108991081051012501999999MD1710061+9999REMSYN060AAXX  08121 54916 32660 80703 10044 20013 40289 57006 885//;EQDQ01  00002PRCP99
0165549160999992000110818004+35570+116850FM-12+005399999V0200201N002010120019N0100001N1+00521+00251102531ADDAA199000091GF108991081051012501999999KA1999M+00551MD1710211+9999REMSYN070AAXX  08181 54916 32660 80202 10052 20025 40253 57021 885// 333 10055;EQDQ01  00002PRCP99
0133549160999992000110821004+35570+116850FM-12+005399999V0203601N002010120019N0120001N1+00521+00351102401ADDAA124000391GF108991081051012501999999MD1710131+9999REMSYN070AAXX  08211 54916 42662 83602 10052 20035 40240 57013 885// 333 70003;
0157549160999992000110900004+35570+116850FM-12+005399999V0200201N002010120019N0100001N1+00581+00461102461ADDAA124000191GF108991081051012501999999IA2999+00449MD1210061-0801REMSYN082AAXX  09001 54916 32660 80202 10058 20046 40246 52006 885// 333 05804 30044 70001;
0132549160999992000110903004+35570+116850FM-12+005399999V0200701N001019999999N0030001N1+00721+00701102481ADDAY161031GF108991081001999999021999MD1210021+9999MW1611REMSYN066AAXX  09031 54916 41930 80701 10072 20070 40248 52002 76160 8802/;
0140549160999992000110909004+35570+116850FM-12+005399999V0203401N003010075019N0030001N1+00461+00411102391ADDAY161031AY261031GF108991061071008001021999MD1210051+9999MW1601REMSYN066AAXX  09091 54916 41530 83403 10046 20041 40239 52005 76066 8672/;
0157549160999992000110912004+35570+116850FM-12+005399999V0203201N006010075019N0060001N1+00211+00181102701ADDAA106002091AY161061AY261061GF108991061071008001021999MD1210301+9999MW1611REMSYN072AAXX  09121 54916 11556 83206 10021 20018 40270 52030 60021 76166 8672/;
0180549160999992000110918004+35570+116850FM-12+005399999V0200401N004019999999N0100001N1+00171+00121103011ADDAA106004191AY161061AY261061GF108991081001999999021999KA1999M+00771MD1210141+9999MW1611REMSYN082AAXX  09181 54916 11960 80404 10017 20012 40301 52014 60041 76166 8802/ 333 10077;
0153549160999992000110921004+35570+116850FM-12+005399999V0203401N006010120019N0100001N1+00261+00101103151ADDAA124007691AY161031GF108991081051012501999999MD1210141+9999MW1001REMSYN076AAXX  09211 54916 41660 83406 10026 20010 40315 52014 70060 885// 333 70075;
0183549160999992000111000004+35570+116850FM-12+005399999V0203601N007019999999N0100001N1+00261-00081103581ADDAA106000591AY161061GF108991081001999999071999IA2999+00139MD1210421+1101MW1211REMSYN094AAXX  10001 54916 11960 83607 10026 21008 40358 52042 69961 72160 8807/ 333 01153 30013 70075;
0132549160999992000111003004+35570+116850FM-12+005399999V0203401N004010120019N0100001N1+00201-00051103741ADDAY171031GF108991081051012501999999MD1210161+9999MW1001REMSYN066AAXX  10031 54916 41660 83404 10020 21005 40374 52016 70070 885//;
0172549160999992000111006004+35570+116850FM-12+005399999V0203601N007010120019N0100001N1+00361-00681103601ADDAA106000191AY171061GF107991071051012501999999KA1999N+00051MD1710141+9999MW1001REMSYN082AAXX  10061 54916 11660 73607 10036 21068 40360 57014 69921 70070 875// 333 20005;
0112549160999992000111009004+35570+116850FM-12+005399999V0203601N003019999999N0120001N1+00251-00721103671ADDGF106991001001999999001021MD1210071+9999REMSYN060AAXX  10091 54916 42962 63603 10025 21072 40367 52007 80002;
0123549160999992000111012004+35570+116850FM-12+005399999V0203401N002019999999N0120001N1+00101-00681103821ADDAA199000021GF108991001001999999001071MD1210151+9999REMSYN060AAXX  10121 54916 32962 83402 10010 21068 40382 52015 80007;
0165549160999992000111018004+35570+116850FM-12+005399999V0203601N002019999999N0100001N1-00011-00471103741ADDAA199000091GF106991001001999999001021KA1999M+00411MD1710101+9999REMSYN070AAXX  10181 54916 32960 63602 11001 21047 40374 57010 80002 333 10041;EQDQ01  00002PRCP99
0133549160999992000111021004+35570+116850FM-12+005399999V0203601N001019999999N0100001N1-00031-00341103571ADDAA124000391GF107991001001999999001021MD1710171+9999REMSYN070AAXX  10211 54916 42960 73601 11003 21034 40357 57017 80002 333 70002;
0157549160999992000111100004+35570+116850FM-12+005399999V0203201N001019999999N0100001N1+00001-00381103551ADDAA124000391GF107991001001999999001021IA2999-00079MD1710021+0001REMSYN082AAXX  11001 54916 32960 73201 10000 21038 40355 57002 80002 333 00053 31007 70002;
0112549160999992000111103004+35570+116850FM-12+005399999V0209999C000019999999N0100001N1+00281-00861103431ADDGF106991001001999999001021MD1710121+9999REMSYN060AAXX  11031 54916 42960 60000 10028 21086 40343 57012 80002;
0165549160999992000111106004+35570+116850FM-12+005399999V0202701N002019999999N0100001N1+00461-00651103091ADDAA199000091GF107991001001999999001021KA1999N-00111MD1710331+9999REMSYN070AAXX  11061 54916 32960 72702 10046 21065 40309 57033 80002 333 21011;EQDQ01  00002PRCP99
0112549160999992000111109004+35570+116850FM-12+005399999V0201801N002019999999N0100001N1+00411-00731102951ADDGF107991001001999999001021MD1710141+9999REMSYN060AAXX  11091 54916 42960 71802 10041 21073 40295 57014 80002;
0142549160999992000111112004+35570+116850FM-12+005399999V0201801N002019999999N0100001N1+00121-00451103091ADDAA199000091GF107991001001999999001021MD1210131+9999REMSYN060AAXX  11121 54916 32960 71802 10012 21045 40309 52013 80002;EQDQ01  00002PRCP99
0165549160999992000111118004+35570+116850FM-12+005399999V0202001N002019999999N0100001N1+00081-00251103091ADDAA199000091GF108991001001999999001071KA1999M+00501MD1710091+9999REMSYN070AAXX  11181 54916 32960 82002 10008 21025 40309 57009 80007 333 10050;EQDQ01  00002PRCP99
0112549160999992000111121004+35570+116850FM-12+005399999V0201801N001019999999N0120001N1-00091-00211103061ADDGF105991001001999999001021MD1710041+9999REMSYN060AAXX  11211 54916 42962 51801 11009 21021 40306 57004 80002;
0180549160999992000111200004+35570+116850FM-12+005399999V0201801N002012200019N0100001N1-00041-00161103171ADDAA199000091GA1001+999999999GF100991001001999999001001IA2999-00209MD1210111-0401REMSYN070AAXX  12001 54916 32960 01802 11004 21016 40317 52011 333 05400 31028;EQDQ01  00002PRCP99
0122549160999992000111203004+35570+116850FM-12+005399999V0201601N002012200019N0100001N1+00461+00151103121ADDGA1001+999999999GF100991001001999999001001MD1710041+9999REMSYN054AAXX  12031 54916 42960 01602 10046 20015 40312 57004;
0175549160999992000111206004+35570+116850FM-12+005399999V0201801N002012200019N0100001N1+00921-00161102891ADDAA199000091GA1001+999999999GF100991001001999999001001KA1999N-00201MD1710231+9999REMSYN064AAXX  12061 54916 32960 01802 10092 21016 40289 57023 333 21020;EQDQ01  00002PRCP99
0122549160999992000111209004+35570+116850FM-12+005399999V0201801N002012200019N0120001N1+00701-00101102871ADDGA1001+999999999GF100991001001999999001001MD1710021+9999REMSYN054AAXX  12091 54916 42962 01802 10070 21010 40287 57002;
0152549160999992000111212004+35570+116850FM-12+005399999V0201801N003012200019N0120001N1+00261-00141102951ADDAA199000091GA1001+999999999GF100991001001999999001001MD1210071+9999REMSYN054AAXX  12121 54916 32962 01803 10026 21014 40295 52007;EQDQ01  00002PRCP99
0175549160999992000111218004+35570+116850FM-12+005399999V0201601N002012200019N0100001N1+00231+00121102831ADDAA199000091GA1001+999999999GF100991001001999999001001KA1999M+00991MD1710131+9999REMSYN064AAXX  12181 54916 32960 01602 10023 20012 40283 57013 333 10099;EQDQ01  00002PRCP99
0122549160999992000111221004+35570+116850FM-12+005399999V0201401N003012200019N0100001N1+00081+00021102721ADDGA1001+999999999GF100991001001999999001001MD1710121+9999REMSYN054AAXX  12211 54916 42960 01403 10008 20002 40272 57012;
0192549160999992000111300004+35570+116850FM-12+005399999V0201601N004012200019N0050001N1+00161+00131102801ADDAA199000091GA1001+999999999GF100991001001999999001001IA2999-00209MD1210081-0401MW1101REMSYN076AAXX  13001 54916 31950 01604 10016 20013 40280 52008 71000 333 05402 31026;EQDQ01  00002PRCP99
0122549160999992000111303004+35570+116850FM-12+005399999V0201801N005012200019N0100001N1+00731+00271102851ADDGA1001+999999999GF100991001001999999001001MD1210051+9999REMSYN054AAXX  13031 54916 42960 01805 10073 20027 40285 52005;
0165549160999992000111306004+35570+116850FM-12+005399999V0201801N003019999999N0100001N1+01021+00001102531ADDAA199000091GF106991001001999999001021KA1999N-00081MD1710311+9999REMSYN070AAXX  13061 54916 32960 61803 10102 20000 40253 57031 80002 333 21008;EQDQ01  00002PRCP99
0112549160999992000111309004+35570+116850FM-12+005399999V0201601N003019999999N0100001N1+00811-00011102561ADDGF106991001001999999001021MD1210031+9999REMSYN060AAXX  13091 54916 42960 61603 10081 21001 40256 52003 80002;
0175549160999992000111318004+35570+116850FM-12+005399999V0200401N001012200019N0100001N1-00051-00141102741ADDAA199000091GA1001+999999999GF100991001001999999001001KA1999M+01061MD1210041+9999REMSYN064AAXX  13181 54916 32960 00401 11005 21014 40274 52004 333 10106;EQDQ01  00002PRCP99
0122549160999992000111321004+35570+116850FM-12+005399999V0200701N002012200019N0100001N1+00011-00141102681ADDGA1001+999999999GF100991001001999999001001MD1710071+9999REMSYN054AAXX  13211 54916 42960 00702 10001 21014 40268 57007;
0182549160999992000111400004+35570+116850FM-12+005399999V0200401N002019999999N0060001N1+00171+00001102781ADDAA199000091GF107991071001999999031999IA2999-00209MD1210101+0001MW1101REMSYN082AAXX  14001 54916 31956 70402 10017 20000 40278 52010 71000 8703/ 333 00000 31022;EQDQ01  00002PRCP99
0112549160999992000111403004+35570+116850FM-12+005399999V0200401N002010150019N0100001N1+00781+00361102851ADDGF107991071051017501999999MD1210071+9999REMSYN060AAXX  14031 54916 42760 70402 10078 20036 40285 52007 875//;
0164549160999992000111406004+35570+116850FM-12+005399999V0203401N002019999999N0100001N1+00861+00451102691ADDAA106000791GF108991081001999999071999KA1999N-00101MD1710161+9999MW1601REMSYN082AAXX  14061 54916 11960 83402 10086 20045 40269 57016 69901 76000 8807/ 333 21010;
0140549160999992000111409004+35570+116850FM-12+005399999V0203601N002019999999N0100001N1+00681+00591102811ADDAY161031AY261031GF108991081001999999071999MD1210121+9999MW1601REMSYN066AAXX  14091 54916 41960 83602 10068 20059 40281 52012 76066 8807/;
0157549160999992000111412004+35570+116850FM-12+005399999V0200401N002019999999N0100001N1+00641+00501102951ADDAA106006191AY161061AY261061GF108991081001999999021999MD1210141+9999MW1611REMSYN072AAXX  14121 54916 11960 80402 10064 20050 40295 52014 60061 76166 8802/;
0172549160999992000111418004+35570+116850FM-12+005399999V0203601N002010120019N0100001N1+00611+00401102991ADDAA106001091AY161061GF107991071051012501999999KA1999M+00981MD1210041+9999MW1001REMSYN082AAXX  14181 54916 11660 73602 10061 20040 40299 52004 60011 70060 875// 333 10098;
0183549160999992000111500004+35570+116850FM-12+005399999V0200401N002010120019N0100001N1+00681+00351103251ADDAA106000191AY161061GF108991081051012501999999IA2999+00499MD1210191+0501MW1601REMSYN094AAXX  15001 54916 11660 80402 10068 20035 40325 52019 69911 76060 885// 333 00505 30049 70070;
0132549160999992000111503004+35570+116850FM-12+005399999V0200401N004010150019N0100001N1+00801+00401103361ADDAY161031GF108991081051017501999999MD1210111+9999MW1601REMSYN066AAXX  15031 54916 41760 80404 10080 20040 40336 52011 76060 885//;
0172549160999992000111506004+35570+116850FM-12+005399999V0200401N006019999999N0100001N1+00921+00281103231ADDAA106000191AY161061GF108991081001999999021999KA1999N+00561MD1710131+9999MW1001REMSYN082AAXX  15061 54916 11960 80406 10092 20028 40323 57013 69921 70060 8802/ 333 20056;
0112549160999992000111509004+35570+116850FM-12+005399999V0200401N005019999999N0100001N1+00721+00121103231ADDGF108991081001999999021999MD1410001+9999REMSYN060AAXX  15091 54916 42960 80405 10072 20012 40323 54000 8802/;
0122549160999992000111512004+35570+116850FM-12+005399999V0200401N005019999999N0100001N1+00541-00021103431ADDAA199000021GF108991081001999999021999MD1210191+9999REMSYN059AAXX  15121 54916 32960 8040510054 21002 40343 52019 8802/;
0172549160999992000111518004+35570+116850FM-12+005399999V0203601N003019999999N0100001N1+00111+00051103431ADDAA106002091AY161061GF108991081001999999021999KA1999M+01081MD1710051+9999MW1601REMSYN082AAXX  15181 54916 11960 83603 10011 20005 40343 57005 60021 76060 8802/ 333 10108;
0161549160999992000111521004+35570+116850FM-12+005399999V0203601N003019999999N0100001N1+00071+00041103371ADDAA124003091AY171031AY261031GF108991081001999999021999MD1710061+9999MW1701REMSYN076AAXX  15211 54916 41960 83603 10007 20004 40337 57006 77076 8802/ 333 70030;
0191549160999992000111600004+35570+116850FM-12+005399999V0203401N002019999999N0100001N1+00121+00071103431ADDAA106002091AY171061AY261061GF108991081001999999021999IA2999+00039MD1210061+0201MW1221REMSYN094AAXX  16001 54916 11960 83402 10012 20007 40343 52006 60021 72276 8802/ 333 00256 30003 70036;
0112549160999992000111603004+35570+116850FM-12+005399999V0203601N003010120019N0100001N1+00311+00071103421ADDGF108991081051012501999999MD1710011+9999REMSYN060AAXX  16031 54916 42660 83603 10031 20007 40342 57001 885//;
0146549160999992000111606004+35570+116850FM-12+005399999V0203201N003010120019N0100001N1+00411+00071103211ADDAA199000021GF108991081051012501999999KA1999N+00051MD1710211+9999REMSYN070AAXX  16061 54916 32660 83203 10041 20007 40321 57021 885// 333 20005;
0112549160999992000111609004+35570+116850FM-12+005399999V0209999C000010120019N0100001N1+00381+00031103111ADDGF108991081051012501999999MD1710101+9999REMSYN060AAXX  16091 54916 42660 80000 10038 20003 40311 57010 885//;
0123549160999992000111612004+35570+116850FM-12+005399999V0202701N003010120019N0100001N1+00331+00061103241ADDAA199000021GF108991081051012501999999MD1210131+9999REMSYN060AAXX  16121 54916 32660 82703 10033 20006 40324 52013 885//;
0165549160999992000111618004+35570+116850FM-12+005399999V0201801N002010150019N0100001N1+00221+00091103161ADDAA199000091GF108991081051017501999999KA1999M+00431MD1210011+9999REMSYN070AAXX  16181 54916 32760 81802 10022 20009 40316 52001 885// 333 10043;EQDQ01  00002PRCP99
0133549160999992000111621004+35570+116850FM-12+005399999V0201801N003010150019N0100001N1+00261+00101103051ADDAA124000891GF108991081051017501999999MD1710111+9999REMSYN070AAXX  16211 54916 42760 81803 10026 20010 40305 57011 885// 333 70007;
0170549160999992000111700004+35570+116850FM-12+005399999V0202001N003010150019N0100001N1+00261+00131103191ADDAA199000091GF108991081051017501999999IA2999+00009MD1210141-0201REMSYN076AAXX  17001 54916 32760 82003 10026 20013 40319 52014 885// 333 05201 31002;EQDQ01  00002PRCP99
0112549160999992000111703004+35570+116850FM-12+005399999V0202701N001019999999N0100001N1+00311+00181103221ADDGF108991081001999999071999MD1210031+9999REMSYN060AAXX  17031 54916 42960 82701 10031 20018 40322 52003 8807/;
0165549160999992000111706004+35570+116850FM-12+005399999V0203601N003019999999N0100001N1+00471+00191103101ADDAA199000091GF108991081001999999071999KA1999N+00171MD1710121+9999REMSYN070AAXX  17061 54916 32960 83603 10047 20019 40310 57012 8807/ 333 20017;EQDQ01  00002PRCP99
0122549160999992000111709004+35570+116850FM-12+005399999V0209999C000012200019N0100001N1+00481+00331103161ADDGA1001+999999999GF100991001001999999001001MD1210061+9999REMSYN054AAXX  17091 54916 42960 00000 10048 20033 40316 52006;
0152549160999992000111712004+35570+116850FM-12+005399999V0200401N002012200019N0100001N1+00181+00131103181ADDAA199000091GA1001+999999999GF100991001001999999001001MD1210021+9999REMSYN054AAXX  17121 54916 32960 00402 10018 20013 40318 52002;EQDQ01  00002PRCP99
0165549160999992000111718004+35570+116850FM-12+005399999V0200701N002019999999N0100001N1+00161+00111103301ADDAA199000091GF106991061001999999031001KA1999M+00601MD1410001+9999REMSYN070AAXX  17181 54916 32960 60702 10016 20011 40330 54000 86030 333 10060;EQDQ01  00002PRCP99
0112549160999992000111721004+35570+116850FM-12+005399999V0200901N002010120019N0100001N1+00171+00141103241ADDGF108991081051012501999999MD1710061+9999REMSYN060AAXX  17211 54916 42660 80902 10017 20014 40324 57006 885//;
0182549160999992000111800004+35570+116850FM-12+005399999V0200901N002010120019N0080001N1+00211+00161103391ADDAA199000091GF107991071051012501999999IA2999+00009MD1210141+0201MW1101REMSYN082AAXX  18001 54916 31658 70902 10021 20016 40339 52014 71000 875// 333 00251 31008;EQDQ01  00002PRCP99
0112549160999992000111803004+35570+116850FM-12+005399999V0201401N002012200019N0100001N1+00631+00121103331ADDGF102991001001999999001021MD1710051+9999REMSYN060AAXX  18031 54916 42960 21402 10063 20012 40333 57005 80002;
0165549160999992000111806004+35570+116850FM-12+005399999V0200901N003010120019N0100001N1+00861+00091103141ADDAA199000091GF106991061041012501001001KA1999N+00091MD1710191+9999REMSYN070AAXX  18061 54916 32660 60903 10086 20009 40314 57019 86400 333 20009;EQDQ01  00002PRCP99
0112549160999992000111809004+35570+116850FM-12+005399999V0200401N003019999999N0100001N1+00741+00111103031ADDGF106991001001999999001021MD1710111+9999REMSYN060AAXX  18091 54916 42960 60403 10074 20011 40303 57011 80002;
0142549160999992000111812004+35570+116850FM-12+005399999V0203401N002019999999N0100001N1+00581+00121102951ADDAA199000091GF107991001001999999001021MD1710081+9999REMSYN060AAXX  18121 54916 32960 73402 10058 20012 40295 57008 80002;EQDQ01  00002PRCP99
0165549160999992000111818004+35570+116850FM-12+005399999V0200401N003010150019N0100001N1+00501+00251102971ADDAA199000091GF108991081051017501999999KA1999M+00941MD1710131+9999REMSYN070AAXX  18181 54916 32760 80403 10050 20025 40297 57013 885// 333 10094;EQDQ01  00002PRCP99
0112549160999992000111821004+35570+116850FM-12+005399999V0200401N003010120019N0100001N1+00541+00321102821ADDGF108991081051012501999999MD1710151+9999REMSYN060AAXX  18211 54916 42660 80403 10054 20032 40282 57015 885//;
0140549160999992000111903004+35570+116850FM-12+005399999V0203601N002019999999N0100001N1+00601+00601102751ADDAY161031AY261031GF108991081001999999021999MD1710051+9999MW1611REMSYN066AAXX  19031 54916 41960 83602 10060 20060 40275 57005 76166 8802/;
0180549160999992000111906004+35570+116850FM-12+005399999V0203401N004019999999N0100001N1+00581+00441102621ADDAA106009991AY161061AY261061GF108991081001999999021999KA1999N-00071MD1710131+9999MW1611REMSYN082AAXX  19061 54916 11960 83404 10058 20044 40262 57013 60101 76166 8802/ 333 21007;
0140549160999992000111909004+35570+116850FM-12+005399999V0203401N005019999999N0100001N1+00481+00331102651ADDAY161031AY261031GF108991081001999999021999MD1210031+9999MW1611REMSYN066AAXX  19091 54916 41960 83405 10048 20033 40265 52003 76166 8802/;
0157549160999992000111912004+35570+116850FM-12+005399999V0203201N002010075019N0100001N1+00391+00321102811ADDAA106003091AY161061AY261061GF108991061071008001021999MD1210151+9999MW1211REMSYN072AAXX  19121 54916 11560 83202 10039 20032 40281 52015 60031 72166 8672/;
0156549160999992000111918004+35570+116850FM-12+005399999V0203201N003012200019N0100001N1+00231+00151102861ADDAA199000021GA1001+999999999GF100991001001999999001001KA1999M+00631MD1210021+9999REMSYN064AAXX  19181 54916 32960 03203 10023 20015 40286 52002 333 10063;
0133549160999992000111921004+35570+116850FM-12+005399999V0203201N002019999999N0100001N1+00121+00071102911ADDAA124015091GF105991001001999999001021MD1210051+9999REMSYN070AAXX  19211 54916 42960 53202 10012 20007 40291 52005 80002 333 70150;
0179549160999992000112000004+35570+116850FM-12+005399999V0202701N002012200019N0002001N1+00001-00031103001ADDAA124013291GA1001+999999999GF100991001001999999001001IA2999-00159MD1210091+0201MW1461REMSYN082AAXX  20001 54916 31902 02702 10000 21003 40300 52009 74600 333 00255 31015 70133;
0150549160999992000112003004+35570+116850FM-12+005399999V0202901N002012200019N0018001N1+00291+00101103041ADDAY141031AY241031GA1001+999999999GF100991001001999999001001MD1210041+9999MW1281REMSYN060AAXX  20031 54916 41918 02902 10029 20010 40304 52004 72844;
0195549160999992000112006004+35570+116850FM-12+005399999V0202701N003012200019N0100001N1+00771-00351102801ADDAA199000091AY141061GA1001+999999999GF100991001001999999001001KA1999N-00051MD1710231+9999MW1001REMSYN070AAXX  20061 54916 31960 02703 10077 21035 40280 57023 70040 333 21005;EQDQ01  00002PRCP99
0122549160999992000112009004+35570+116850FM-12+005399999V0203201N002012200019N0100001N1+00641-00111102811ADDGA1001+999999999GF100991001001999999001001MD1410001+9999REMSYN054AAXX  20091 54916 42960 03202 10064 21011 40281 54000;
0152549160999992000112012004+35570+116850FM-12+005399999V0200901N002012200019N0100001N1+00141+00001102921ADDAA199000091GA1001+999999999GF100991001001999999001001MD1210101+9999REMSYN054AAXX  20121 54916 32960 00902 10014 20000 40292 52010;EQDQ01  00002PRCP99
0175549160999992000112018004+35570+116850FM-12+005399999V0200901N002012200019N0100001N1-00101-00191102951ADDAA199000091GA1001+999999999GF100991001001999999001001KA1999M+00831MD1210021+9999REMSYN064AAXX  20181 54916 32960 00902 11010 21019 40295 52002 333 10083;EQDQ01  00002PRCP99
0122549160999992000112021004+35570+116850FM-12+005399999V0200901N003012200019N0100001N1-00111-00271102951ADDGA1001+999999999GF100991001001999999001001MD1410001+9999REMSYN054AAXX  20211 54916 42960 00903 11011 21027 40295 54000;
0180549160999992000112100004+35570+116850FM-12+005399999V0201101N002012200019N0100001N1-00031-00281103071ADDAA199000091GA1001+999999999GF100991001001999999001001IA2999-00309MD1210111+0101REMSYN070AAXX  21001 54916 32960 01102 11003 21028 40307 52011 333 00100 31039;EQDQ01  00002PRCP99
0122549160999992000112103004+35570+116850FM-12+005399999V0201801N006012200019N0100001N1+00761-00581103021ADDGA1001+999999999GF100991001001999999001001MD1710041+9999REMSYN054AAXX  21031 54916 42960 01806 10076 21058 40302 57004;
0175549160999992000112106004+35570+116850FM-12+005399999V0202001N005012200019N0120001N1+01021-00221102821ADDAA199000091GA1001+999999999GF100991001001999999001001KA1999N-00151MD1710201+9999REMSYN064AAXX  21061 54916 32962 02005 10102 21022 40282 57020 333 21015;EQDQ01  00002PRCP99
0122549160999992000112109004+35570+116850FM-12+005399999V0201401N003012200019N0120001N1+00811+00051102801ADDGA1001+999999999GF100991001001999999001001MD1710021+9999REMSYN054AAXX  21091 54916 42962 01403 10081 20005 40280 57002;
0152549160999992000112112004+35570+116850FM-12+005399999V0201401N004012200019N0120001N1+00521+00051102901ADDAA199000091GA1001+999999999GF100991001001999999001001MD1210101+9999REMSYN054AAXX  21121 54916 32962 01404 10052 20005 40290 52010;EQDQ01  00002PRCP99
0175549160999992000112118004+35570+116850FM-12+005399999V0201601N004012200019N0100001N1+00361-00111102851ADDAA199000091GA1001+999999999GF100991001001999999001001KA1999M+01051MD1710061+9999REMSYN064AAXX  21181 54916 32960 01604 10036 21011 40285 57006 333 10105;EQDQ01  00002PRCP99
0122549160999992000112121004+35570+116850FM-12+005399999V0201401N003012200019N0100001N1+00121-00111102771ADDGA1001+999999999GF100991001001999999001001MD1710091+9999REMSYN054AAXX  21211 54916 42960 01403 10012 21011 40277 57009;
0180549160999992000112200004+35570+116850FM-12+005399999V0201601N005012200019N0100001N1+00361-00081102771ADDAA199000091GA1001+999999999GF100991001001999999001001IA2999-00109MD1410001-0301REMSYN070AAXX  22001 54916 32960 01605 10036 21008 40277 54000 333 05304 31017;EQDQ01  00002PRCP99
0122549160999992000112203004+35570+116850FM-12+005399999V0201801N006012200019N0100001N1+00841+00091102741ADDGA1001+999999999GF100991001001999999001001MD1710021+9999REMSYN054AAXX  22031 54916 42960 01806 10084 20009 40274 57002;
0175549160999992000112206004+35570+116850FM-12+005399999V0201801N004012200019N0100001N1+01101+00171102501ADDAA199000091GA1001+999999999GF100991001001999999001001KA1999N+00081MD1710241+9999REMSYN064AAXX  22061 54916 32960 01804 10110 20017 40250 57024 333 20008;EQDQ01  00002PRCP99
0122549160999992000112209004+35570+116850FM-12+005399999V0201601N005012200019N0100001N1+00941+00251102431ADDGA1001+999999999GF100991001001999999001001MD1710071+9999REMSYN054AAXX  22091 54916 42960 01605 10094 20025 40243 57007;
0152549160999992000112212004+35570+116850FM-12+005399999V0201401N002012200019N0120001N1+00551+00281102631ADDAA199000091GA1001+999999999GF100991001001999999001001MD1210201+9999REMSYN054AAXX  22121 54916 32962 01402 10055 20028 40263 52020;EQDQ01  00002PRCP99
0175549160999992000112218004+35570+116850FM-12+005399999V0200401N002012200019N0100001N1+00131+00081102601ADDAA199000091GA1001+999999999GF100991001001999999001001KA1999M+01161MD1710031+9999REMSYN064AAXX  22181 54916 32960 00402 10013 20008 40260 57003 333 10116;EQDQ01  00002PRCP99
0122549160999992000112221004+35570+116850FM-12+005399999V0200401N002012200019N0100001N1+00081+00051102571ADDGA1001+999999999GF100991001001999999001001MD1710031+9999REMSYN054AAXX  22211 54916 42960 00402 10008 20005 40257 57003;
0192549160999992000112300004+35570+116850FM-12+005399999V0200901N002012200019N0070001N1+00111+00061102631ADDAA199000091GA1001+999999999GF100991001001999999001001IA2999-00209MD1210051-0101MW1101REMSYN076AAXX  23001 54916 31957 00902 10011 20006 40263 52005 71000 333 05153 31022;EQDQ01  00002PRCP99
0122549160999992000112303004+35570+116850FM-12+005399999V0201401N003012200019N0100001N1+01051+00501102621ADDGA1001+999999999GF100991001001999999001001MD1410001+9999REMSYN054AAXX  23031 54916 42960 01403 10105 20050 40262 54000;
0175549160999992000112306004+35570+116850FM-12+005399999V0201801N004012200019N0100001N1+01431+00231102331ADDAA199000091GA1001+999999999GF100991001001999999001001KA1999N-00051MD1710281+9999REMSYN064AAXX  23061 54916 32960 01804 10143 20023 40233 57028 333 21005;EQDQ01  00002PRCP99
0122549160999992000112309004+35570+116850FM-12+005399999V0201601N002012200019N0100001N1+01181+00421102331ADDGA1001+999999999GF100991001001999999001001MD1710011+9999REMSYN054AAXX  23091 54916 42960 01602 10118 20042 40233 57001;
0152549160999992000112312004+35570+116850FM-12+005399999V0201401N002012200019N0100001N1+00721+00491102401ADDAA199000091GA1001+999999999GF100991001001999999001001MD1210071+9999REMSYN054AAXX  23121 54916 32960 01402 10072 20049 40240 52007;EQDQ01  00002PRCP99
0175549160999992000112318004+35570+116850FM-12+005399999V0200701N002012200019N0100001N1+00421+00351102411ADDAA199000091GA1001+999999999GF100991001001999999001001KA1999M+01461MD1710021+9999REMSYN064AAXX  23181 54916 32960 00702 10042 20035 40241 57002 333 10146;EQDQ01  00002PRCP99
0183549160999992000112400004+35570+116850FM-12+005399999V0200901N002010120019N0030001N1+00511+00441102321ADDAA106000791AY161061GF108991081051012501999999IA2999+00109MD1210121-0301MW1101REMSYN094AAXX  24001 54916 11630 80902 10051 20044 40232 52012 69901 71060 885// 333 05304 30010 79999;
0124549160999992000112403004+35570+116850FM-12+005399999V0200401N002010120019N0050001N1+01041+00721102311ADDGF107991071051012501999999MD1410001+9999MW1101REMSYN066AAXX  24031 54916 41650 70402 10104 20072 40231 54000 71000 875//;
0177549160999992000112406004+35570+116850FM-12+005399999V0200701N002019999999N0080001N1+01271+00831102061ADDAA199000091GF108991011001999999031071KA1999N+00351MD1710251+9999MW1101REMSYN076AAXX  24061 54916 31958 80702 10127 20083 40206 57025 71000 81037 333 20035;EQDQ01  00002PRCP99
0124549160999992000112409004+35570+116850FM-12+005399999V0200401N003012200019N0070001N1+01131+00821102051ADDGF102991001001999999001021MD1710011+9999MW1101REMSYN066AAXX  24091 54916 41957 20403 10113 20082 40205 57001 71000 80002;
0154549160999992000112412004+35570+116850FM-12+005399999V0200701N002019999999N0070001N1+00671+00601102181ADDAA199000091GF105991001001999999001021MD1210121+9999MW1101REMSYN066AAXX  24121 54916 31957 50702 10067 20060 40218 52012 71000 80002;EQDQ01  00002PRCP99
0195549160999992000112418004+35570+116850FM-12+005399999V0202901N002012200019N0004001N1+00401+00381102181ADDAA199000091AY141061GA1001+999999999GF100991001001999999001001KA1999M+01361MD1710031+9999MW1441REMSYN070AAXX  24181 54916 31904 02902 10040 20038 40218 57003 74440 333 10136;EQDQ01  00002PRCP99
0171549160999992000112421004+35570+116850FM-12+005399999V0203401N001012200019N0003001N1+00541+00541102111ADDAA124000791AY141031AY241031GA1001+999999999GF100991001001999999001001MD1710071+9999MW1461REMSYN070AAXX  24211 54916 41903 03401 10054 20054 40211 57007 74644 333 79999;
0208549160999992000112500004+35570+116850FM-12+005399999V0201601N002012200019N0001001N1+00541+00541102101ADDAA199000091AY141061AY241061GA1001+999999999GF100991001001999999001001IA2999+00209MD1710021-0201MW1461REMSYN076AAXX  25001 54916 31901 01602 10054 20054 40210 57002 74644 333 05200 30029;EQDQ01  00002PRCP99
0150549160999992000112503004+35570+116850FM-12+005399999V0203401N003012200019N0008001N1+00701+00661102261ADDAY141031AY241031GA1001+999999999GF100991001001999999001001MD1210161+9999MW1421REMSYN060AAXX  25031 54916 41908 03403 10070 20066 40226 52016 74244;
0185549160999992000112506004+35570+116850FM-12+005399999V0201401N001010120019N0080001N1+00881+00661101921ADDAA199000091AY141061GF108991081051012501999999KA1999N+00361MD1710341+9999MW1101REMSYN076AAXX  25061 54916 31658 81401 10088 20066 40192 57034 71040 885// 333 20036;EQDQ01  00002PRCP99
0124549160999992000112509004+35570+116850FM-12+005399999V0203201N002010120019N0060001N1+00861+00691102041ADDGF108991081051012501999999MD1210131+9999MW1101REMSYN066AAXX  25091 54916 41656 83202 10086 20069 40204 52013 71000 885//;
0142549160999992000112512004+35570+116850FM-12+005399999V0203201N003010120019N0100001N1+00791+00681102271ADDAA199000091GF108991081051012501999999MD1210221+9999REMSYN060AAXX  25121 54916 32660 83203 10079 20068 40227 52022 885//;EQDQ01  00002PRCP99
0165549160999992000112518004+35570+116850FM-12+005399999V0203201N001019999999N0100001N1+00691+00601102481ADDAA199000091GF107991001001999999001021KA1999M+00911MD1210091+9999REMSYN070AAXX  25181 54916 32960 73201 10069 20060 40248 52009 80002 333 10091;EQDQ01  00002PRCP99
0112549160999992000112521004+35570+116850FM-12+005399999V0203601N003019999999N0100001N1+00541+00451102571ADDGF107991001001999999001021MD1210091+9999REMSYN060AAXX  25211 54916 42960 73603 10054 20045 40257 52009 80002;
0182549160999992000112600004+35570+116850FM-12+005399999V0203401N003019999999N0050001N1+00451+00331102841ADDAA199000091GF107991001001999999001021IA2999+00109MD1210271+0701MW1101REMSYN082AAXX  26001 54916 31950 73403 10045 20033 40284 52027 71000 80002 333 00751 30014;EQDQ01  00002PRCP99
0112549160999992000112603004+35570+116850FM-12+005399999V0200201N003012200019N0100001N1+00911+00431102981ADDGF102991001001999999001021MD1210141+9999REMSYN060AAXX  26031 54916 42960 20203 10091 20043 40298 52014 80002;
0165549160999992000112606004+35570+116850FM-12+005399999V0200901N002012200019N0100001N1+01131+00211102831ADDAA199000091GF102991001001999999001021KA1999N+00381MD1710141+9999REMSYN070AAXX  26061 54916 32960 20902 10113 20021 40283 57014 80002 333 20038;EQDQ01  00002PRCP99
0112549160999992000112609004+35570+116850FM-12+005399999V0200201N002012200019N0100001N1+00961+00461102831ADDGF101991001001999999001021MD1710011+9999REMSYN060AAXX  26091 54916 42960 10202 10096 20046 40283 57001 80002;
0152549160999992000112612004+35570+116850FM-12+005399999V0209999C000012200019N0100001N1+00661+00381102941ADDAA199000091GA1001+999999999GF100991001001999999001001MD1210111+9999REMSYN054AAXX  26121 54916 32960 00000 10066 20038 40294 52011;EQDQ01  00002PRCP99
0165549160999992000112618004+35570+116850FM-12+005399999V0201401N002019999999N0100001N1+00191+00161103031ADDAA199000091GF105991001001999999001021KA1999M+01181MD1210011+9999REMSYN070AAXX  26181 54916 32960 51402 10019 20016 40303 52001 80002 333 10118;EQDQ01  00002PRCP99
0124549160999992000112621004+35570+116850FM-12+005399999V0201401N001019999999N0020001N1+00171+00141102861ADDGF108991081001999999071999MD1710171+9999MW1101REMSYN066AAXX  26211 54916 41920 81401 10017 20014 40286 57017 71000 8807/;
0190549160999992000112700004+35570+116850FM-12+005399999V0209999C000019999999N0001001N1+00141+00141102961ADDAA199000091AY141061GF108991081001999999071999IA2999+00009MD1210091+0101MW1461REMSYN082AAXX  27001 54916 31901 80000 10014 20014 40296 52009 74640 8807/ 333 00153 30004;EQDQ01  00002PRCP99
0132549160999992000112703004+35570+116850FM-12+005399999V0202001N004012200019N0100001N1+00881+00231102961ADDAY141031GF104991021001999999031021MD1210011+9999MW1001REMSYN066AAXX  27031 54916 41960 42004 10088 20023 40296 52001 70040 82032;
0185549160999992000112706004+35570+116850FM-12+005399999V0202001N003012200019N0100001N1+01101+00451102721ADDAA199000091AY141061GF102991001001999999001021KA1999N+00071MD1710241+9999MW1001REMSYN076AAXX  27061 54916 31960 22003 10110 20045 40272 57024 70040 80002 333 20007;EQDQ01  00002PRCP99
0122549160999992000112709004+35570+116850FM-12+005399999V0201601N002012200019N0100001N1+00941+00591102701ADDGA1001+999999999GF100991001001999999001001MD1710021+9999REMSYN054AAXX  27091 54916 42960 01602 10094 20059 40270 57002;
0152549160999992000112712004+35570+116850FM-12+005399999V0201401N002012200019N0100001N1+00461+00391102901ADDAA199000091GA1001+999999999GF100991001001999999001001MD1210191+9999REMSYN054AAXX  27121 54916 32960 01402 10046 20039 40290 52019;EQDQ01  00002PRCP99
0187549160999992000112718004+35570+116850FM-12+005399999V0200401N002012200019N0040001N1+00091+00061102981ADDAA199000091GA1001+999999999GF100991001001999999001001KA1999M+01191MD1210071+9999MW1101REMSYN070AAXX  27181 54916 31940 00402 10009 20006 40298 52007 71000 333 10119;EQDQ01  00002PRCP99
0122549160999992000112721004+35570+116850FM-12+005399999V0200401N002012200019N0100001N1+00141+00141102961ADDGA1001+999999999GF100991001001999999001001MD1710021+9999REMSYN054AAXX  27211 54916 42960 00402 10014 20014 40296 57002;
0192549160999992000112800004+35570+116850FM-12+005399999V0200701N002012200019N0050001N1+00161+00161103041ADDAA199000091GA1001+999999999GF100991001001999999001001IA2999-00109MD1210071+0101MW1101REMSYN076AAXX  28001 54916 31950 00702 10016 20016 40304 52007 71000 333 00100 31017;EQDQ01  00002PRCP99
0122549160999992000112803004+35570+116850FM-12+005399999V0201601N001012200019N0100001N1+00861+00601103091ADDGA1001+999999999GF100991001001999999001001MD1210051+9999REMSYN054AAXX  28031 54916 42960 01601 10086 20060 40309 52005;
0175549160999992000112806004+35570+116850FM-12+005399999V0201801N003012200019N0100001N1+01221-00141102791ADDAA199000091GA1001+999999999GF100991001001999999001001KA1999N+00011MD1710291+9999REMSYN064AAXX  28061 54916 32960 01803 10122 21014 40279 57029 333 20001;EQDQ01  00002PRCP99
0112549160999992000112809004+35570+116850FM-12+005399999V0201801N003019999999N0100001N1+00901+00021102771ADDGF106991001001999999001021MD1710021+9999REMSYN060AAXX  28091 54916 42960 61803 10090 20002 40277 57002 80002;
0142549160999992000112812004+35570+116850FM-12+005399999V0201401N002019999999N0100001N1+00651+00121102801ADDAA199000091GF105991001001999999001021MD1210021+9999REMSYN060AAXX  28121 54916 32960 51402 10065 20012 40280 52002 80002;EQDQ01  00002PRCP99
0175549160999992000112818004+35570+116850FM-12+005399999V0201401N002012200019N0100001N1+00381+00201102701ADDAA199000091GA1001+999999999GF100991001001999999001001KA1999M+01221MD1710081+9999REMSYN064AAXX  28181 54916 32960 01402 10038 20020 40270 57008 333 10122;EQDQ01  00002PRCP99
0112549160999992000112821004+35570+116850FM-12+005399999V0201401N002010150019N0100001N1+00331+00251102591ADDGF107991071051017501999999MD1710111+9999REMSYN060AAXX  28211 54916 42760 71402 10033 20025 40259 57011 875//;
0170549160999992000112900004+35570+116850FM-12+005399999V0201401N003019999999N0100001N1+00371+00301102661ADDAA199000091GF108991001001999999001071IA2999+00009MD1210071-0401REMSYN076AAXX  29001 54916 32960 81403 10037 20030 40266 52007 80007 333 05402 30008;EQDQ01  00002PRCP99
0112549160999992000112903004+35570+116850FM-12+005399999V0201401N003019999999N0100001N1+00921+00471102681ADDGF108991001001999999001071MD1210021+9999REMSYN060AAXX  29031 54916 42960 81403 10092 20047 40268 52002 80007;
0165549160999992000112906004+35570+116850FM-12+005399999V0201601N003019999999N0100001N1+01101+00431102481ADDAA199000091GF108991081001999999071999KA1999N+00241MD1710201+9999REMSYN070AAXX  29061 54916 32960 81603 10110 20043 40248 57020 8807/ 333 20024;EQDQ01  00002PRCP99
0112549160999992000112909004+35570+116850FM-12+005399999V0201801N002019999999N0100001N1+00981+00591102541ADDGF108991081001999999071999MD1210061+9999REMSYN060AAXX  29091 54916 42960 81802 10098 20059 40254 52006 8807/;
0142549160999992000112912004+35570+116850FM-12+005399999V0209999C000019999999N0100001N1+00761+00531102601ADDAA199000091GF108991081001999999071999MD1210061+9999REMSYN060AAXX  29121 54916 32960 80000 10076 20053 40260 52006 8807/;EQDQ01  00002PRCP99
0165549160999992000112918004+35570+116850FM-12+005399999V0200401N001019999999N0100001N1+00641+00501102641ADDAA199000091GF108991081001999999071999KA1999M+01181MD1410001+9999REMSYN070AAXX  29181 54916 32960 80401 10064 20050 40264 54000 8807/ 333 10118;EQDQ01  00002PRCP99
0112549160999992000112921004+35570+116850FM-12+005399999V0209999C000010120019N0100001N1+00591+00471102601ADDGF108991081051012501999999MD1710051+9999REMSYN060AAXX  29211 54916 42660 80000 10059 20047 40260 57005 885//;
0182549160999992000113000004+35570+116850FM-12+005399999V0202701N001010120019N0030001N1+00611+00491102711ADDAA199000091GF108991081051012501999999IA2999+00409MD1210111+0101MW1101REMSYN082AAXX  30001 54916 31630 82701 10061 20049 40271 52011 71000 885// 333 00102 30045;EQDQ01  00002PRCP99
0124549160999992000113003004+35570+116850FM-12+005399999V0202201N002019999999N0012001N1+00811+00491102721ADDGF108991081001999999071999MD1210011+9999MW1101REMSYN066AAXX  30031 54916 41912 82202 10081 20049 40272 52001 71000 8807/;
0177549160999992000113006004+35570+116850FM-12+005399999V0202901N004019999999N0015001N1+00841+00551102571ADDAA199000091GF108991001001999999001071KA1999N+00531MD1710151+9999MW1101REMSYN076AAXX  30061 54916 31915 82904 10084 20055 40257 57015 71000 80007 333 20053;EQDQ01  00002PRCP99
0124549160999992000113009004+35570+116850FM-12+005399999V0203201N002019999999N0020001N1+00631+00491102611ADDGF108991081001999999021999MD1210041+9999MW1101REMSYN066AAXX  30091 54916 41920 83202 10063 20049 40261 52004 71000 8802/;
0154549160999992000113012004+35570+116850FM-12+005399999V0203401N002019999999N0030001N1+00521+00451102751ADDAA199000091GF108991081001999999021999MD1210141+9999MW1101REMSYN066AAXX  30121 54916 31930 83402 10052 20045 40275 52014 71000 8802/;EQDQ01  00002PRCP99
0177549160999992000113018004+35570+116850FM-12+005399999V0203201N002019999999N0040001N1+00391+00371102861ADDAA199000091GF108991081001999999021999KA1999M+00871MD1210101+9999MW1101REMSYN076AAXX  30181 54916 31940 83202 10039 20037 40286 52010 71000 8802/ 333 10087;EQDQ01  00002PRCP99
0124549160999992000113021004+35570+116850FM-12+005399999V0209999C000019999999N0030001N1+00381+00361102781ADDGF108991081001999999021999MD1710081+9999MW1101REMSYN066AAXX  30211 54916 41930 80000 10038 20036 40278 57008 71000 8802/;
0182549160999992000120100004+35570+116850FM-12+005399999V0200901N002019999999N0005001N1+00381+00381102961ADDAA199000091GF108991081001999999021999IA2999+00409MD1210171+0201MW1461REMSYN082AAXX  01001 54916 31905 80902 10038 20038 40296 52017 74600 8802/ 333 00252 30048;EQDQ01  00002PRCP99
0132549160999992000120103004+35570+116850FM-12+005399999V0200401N003019999999N0060001N1+00651+00441102911ADDAY141031GF105991001001999999001021MD1710041+9999MW1101REMSYN066AAXX  01031 54916 41956 50403 10065 20044 40291 57004 71040 80002;
0185549160999992000120106004+35570+116850FM-12+005399999V0202001N003019999999N0100001N1+01211+00511102671ADDAA199000091AY141061GF107991001001999999001021KA1999N+00351MD1710241+9999MW1001REMSYN076AAXX  01061 54916 32960 72003 10121 20051 40267 57024 70040 80002 333 20035;EQDQ01  00002PRCP99
0124549160999992000120109004+35570+116850FM-12+005399999V0202701N002019999999N0060001N1+01011+00621102621ADDGF106991061001999999031001MD1710051+9999MW1101REMSYN066AAXX  01091 54916 41956 62702 10101 20062 40262 57005 71000 86030;
0142549160999992000120112004+35570+116850FM-12+005399999V0209999C000019999999N0100001N1+00851+00631102731ADDAA199000091GF108991081001999999071999MD1210111+9999REMSYN060AAXX  01121 54916 32960 80000 10085 20063 40273 52011 8807/;EQDQ01  00002PRCP99
0164549160999992000120118004+35570+116850FM-12+005399999V0209999C000010120019N0100001N1+00751+00641102701ADDAA106000791GF108991081051012501999999KA1999M+01231MD1710041+9999MW1601REMSYN082AAXX  01181 54916 11660 80000 10075 20064 40270 57004 69901 76000 885// 333 10123;
0161549160999992000120121004+35570+116850FM-12+005399999V0201101N001010150019N0070001N1+00681+00641102661ADDAA124000391AY161031AY261031GF108991081051017501999999MD1710051+9999MW1211REMSYN076AAXX  01211 54916 41757 81101 10068 20064 40266 57005 72166 885// 333 70003;
0165549160999992000120200004+35570+116850FM-12+005399999V0200901N001010150019N0012001N1+00701+00661102801ADDAA106000591AY161061GF108991081051017501999999MD1210141-0201MW1601REMSYN088AAXX  02001 54916 11712 80901 10070 20066 40280 52014 69941 76060 885// 333 05203 70004;
0140549160999992000120203004+35570+116850FM-12+005399999V0203401N003019999999N0050001N1+00741+00651102881ADDAY161031AY261031GF108991081001999999071999MD1210081+9999MW1601REMSYN066AAXX  02031 54916 41950 83403 10074 20065 40288 52008 76066 8807/;
0180549160999992000120206004+35570+116850FM-12+005399999V0203601N002019999999N0070001N1+00801+00691102711ADDAA106002091AY161061AY261061GF108991081001999999071999KA1999N+00641MD1710171+9999MW1601REMSYN082AAXX  02061 54916 11957 83602 10080 20069 40271 57017 60021 76066 8807/ 333 20064;
0140549160999992000120209004+35570+116850FM-12+005399999V0203401N003019999999N0070001N1+00781+00691102771ADDAY161031AY261031GF108991081001999999071999MD1210061+9999MW1601REMSYN066AAXX  02091 54916 41957 83403 10078 20069 40277 52006 76066 8807/;
0149549160999992000120212004+35570+116850FM-12+005399999V0200201N003010120019N0100001N1+00651+00291102951ADDAA106001091AY161061GF108991081051012501999999MD1210181+9999MW1001REMSYN072AAXX  02121 54916 11660 80203 10065 20029 40295 52018 60011 70060 885//;
0156549160999992000120218004+35570+116850FM-12+005399999V0203401N002012200019N0100001N1+00221-00031103021ADDAA199000021GA1001+999999999GF100991001001999999001001KA1999M+00851MD1710021+9999REMSYN064AAXX  02181 54916 32960 03402 10022 21003 40302 57002 333 10085;
0143549160999992000120221004+35570+116850FM-12+005399999V0203601N001012200019N0120001N1+00041-00301103001ADDAA124003391GA1001+999999999GF100991001001999999001001MD1710021+9999REMSYN064AAXX  02211 54916 42962 03601 10004 21030 40300 57002 333 70033;
0157549160999992000120300004+35570+116850FM-12+005399999V0203201N001019999999N0100001N1-00011-00251103071ADDAA124003391GF105991001001999999001021IA2999-00369MD1210071+0301REMSYN082AAXX  03001 54916 32960 53201 11001 21025 40307 52007 80002 333 00357 31036 70032;
0122549160999992000120303004+35570+116850FM-12+005399999V0201401N002012200019N0100001N1+00641-00251103051ADDGA1001+999999999GF100991001001999999001001MD1710011+9999REMSYN054AAXX  03031 54916 42960 01402 10064 21025 40305 57001;
0175549160999992000120306004+35570+116850FM-12+005399999V0201601N002012200019N0120001N1+00871-00561102731ADDAA199000091GA1001+999999999GF100991001001999999001001KA1999N-00101MD1710321+9999REMSYN064AAXX  03061 54916 32962 01602 10087 21056 40273 57032 333 21010;EQDQ01  00002PRCP99
0122549160999992000120309004+35570+116850FM-12+005399999V0209999C000012200019N0120001N1+00701-00271102641ADDGA1001+999999999GF100991001001999999001001MD1710101+9999REMSYN054AAXX  03091 54916 42962 00000 10070 21027 40264 57010;
0152549160999992000120312004+35570+116850FM-12+005399999V0201601N002012200019N0100001N1+00151-00141102611ADDAA199000091GA1001+999999999GF100991001001999999001001MD1710031+9999REMSYN054AAXX  03121 54916 32960 01602 10015 21014 40261 57003;EQDQ01  00002PRCP99
0175549160999992000120318004+35570+116850FM-12+005399999V0201601N004012200019N0100001N1+00101-00231102311ADDAA199000091GA1001+999999999GF100991001001999999001001KA1999M+00931MD1710231+9999REMSYN064AAXX  03181 54916 32960 01604 10010 21023 40231 57023 333 10093;EQDQ01  00002PRCP99
0122549160999992000120321004+35570+116850FM-12+005399999V0201801N003012200019N0100001N1+00121-00171102161ADDGA1001+999999999GF100991001001999999001001MD1710151+9999REMSYN054AAXX  03211 54916 42960 01803 10012 21017 40216 57015;
0180549160999992000120400004+35570+116850FM-12+005399999V0201801N005012200019N0100001N1+00181-00011102081ADDAA199000091GA1001+999999999GF100991001001999999001001IA2999-00409MD1710091-1001REMSYN070AAXX  04001 54916 32960 01805 10018 21001 40208 57009 333 06002 31041;EQDQ01  00002PRCP99
0165549160999992000120406004+35570+116850FM-12+005399999V0202001N006019999999N0100001N1+00951+00241101731ADDAA199000091GF107991001001999999001021KA1999N-00101MD1710271+9999REMSYN070AAXX  04061 54916 32960 72006 10095 20024 40173 57027 80002 333 21010;EQDQ01  00002PRCP99
0122549160999992000120409004+35570+116850FM-12+005399999V0201801N002012200019N0100001N1+00911+00431101861ADDGA1001+999999999GF100991001001999999001001MD1210131+9999REMSYN054AAXX  04091 54916 42960 01802 10091 20043 40186 52013;
0152549160999992000120412004+35570+116850FM-12+005399999V0200901N002012200019N0100001N1+00381+00311102121ADDAA199000091GA1001+999999999GF100991001001999999001001MD1210251+9999REMSYN054AAXX  04121 54916 32960 00902 10038 20031 40212 52025;EQDQ01  00002PRCP99
0175549160999992000120418004+35570+116850FM-12+005399999V0203601N002012200019N0100001N1+00131+00101102451ADDAA199000091GA1001+999999999GF100991001001999999001001KA1999M+01091MD1210161+9999REMSYN064AAXX  04181 54916 32960 03602 10013 20010 40245 52016 333 10109;EQDQ01  00002PRCP99
0122549160999992000120421004+35570+116850FM-12+005399999V0200401N003012200019N0100001N1+00131+00051102591ADDGA1001+999999999GF100991001001999999001001MD1210141+9999REMSYN054AAXX  04211 54916 42960 00403 10013 20005 40259 52014;
0180549160999992000120500004+35570+116850FM-12+005399999V0200401N002012200019N0100001N1+00021-00431102781ADDAA199000091GA1001+999999999GF100991001001999999001001IA2999-00409MD1210181+0701REMSYN070AAXX  05001 54916 32960 00402 10002 21043 40278 52018 333 00752 31046;EQDQ01  00002PRCP99
0122549160999992000120503004+35570+116850FM-12+005399999V0200901N003012200019N0100001N1+00661-00371102851ADDGA1001+999999999GF100991001001999999001001MD1210071+9999REMSYN054AAXX  05031 54916 42960 00903 10066 21037 40285 52007;
0175549160999992000120506004+35570+116850FM-12+005399999V0201801N002012200019N0120001N1+01091-00331102671ADDAA199000091GA1001+999999999GF100991001001999999001001KA1999N-00071MD1710171+9999REMSYN064AAXX  05061 54916 32962 01802 10109 21033 40267 57017 333 21007;EQDQ01  00002PRCP99
0112549160999992000120509004+35570+116850FM-12+005399999V0201801N002012200019N0100001N1+00891-00031102601ADDGF102991001001999999001021MD1710071+9999REMSYN060AAXX  05091 54916 42960 21802 10089 21003 40260 57007 80002;
0142549160999992000120512004+35570+116850FM-12+005399999V0201801N003019999999N0100001N1+00421+00051102631ADDAA199000091GF107991001001999999001021MD1210021+9999REMSYN060AAXX  05121 54916 32960 71803 10042 20005 40263 52002 80002;EQDQ01  00002PRCP99
0175549160999992000120518004+35570+116850FM-12+005399999V0201401N002012200019N0100001N1+00121-00081102641ADDAA199000091GA1001+999999999GF100991001001999999001001KA1999M+01141MD1410001+9999REMSYN064AAXX  05181 54916 32960 01402 10012 21008 40264 54000 333 10114;EQDQ01  00002PRCP99
0122549160999992000120521004+35570+116850FM-12+005399999V0201401N004012200019N0100001N1+00141+00061102571ADDGA1001+999999999GF100991001001999999001001MD1710071+9999REMSYN054AAXX  05211 54916 42960 01404 10014 20006 40257 57007;
0180549160999992000120600004+35570+116850FM-12+005399999V0201601N002012200019N0100001N1+00261+00211102591ADDAA199000091GA1001+999999999GF100991001001999999001001IA2999-00209MD1210011-0201REMSYN070AAXX  06001 54916 32960 01602 10026 20021 40259 52001 333 05202 31024;EQDQ01  00002PRCP99
0112549160999992000120603004+35570+116850FM-12+005399999V0201401N004012200019N0120001N1+00881+00421102541ADDGF101991001001999999001021MD1710041+9999REMSYN060AAXX  06031 54916 42962 11404 10088 20042 40254 57004 80002;
0175549160999992000120606004+35570+116850FM-12+005399999V0201801N004012200019N0120001N1+01101+00511102321ADDAA199000091GA1001+999999999GF100991001001999999001001KA1999N-00091MD1710221+9999REMSYN064AAXX  06061 54916 32962 01804 10110 20051 40232 57022 333 21009;EQDQ01  00002PRCP99
0112549160999992000120609004+35570+116850FM-12+005399999V0201401N002012200019N0100001N1+00921+00621102371ADDGF102991001001999999001021MD1210051+9999REMSYN060AAXX  06091 54916 42960 21402 10092 20062 40237 52005 80002;
0142549160999992000120612004+35570+116850FM-12+005399999V0200901N002012200019N0100001N1+00521+00431102541ADDAA199000091GF103991001001999999001021MD1210161+9999REMSYN060AAXX  06121 54916 32960 30902 10052 20043 40254 52016 80002;EQDQ01  00002PRCP99
0175549160999992000120618004+35570+116850FM-12+005399999V0200401N002012200019N0100001N1+00361+00311102591ADDAA199000091GA1001+999999999GF100991001001999999001001KA1999M+01121MD1210031+9999REMSYN064AAXX  06181 54916 32960 00402 10036 20031 40259 52003 333 10112;EQDQ01  00002PRCP99
0122549160999992000120621004+35570+116850FM-12+005399999V0200401N002012200019N0100001N1+00241+00191102591ADDGA1001+999999999GF100991001001999999001001MD1410001+9999REMSYN054AAXX  06211 54916 42960 00402 10024 20019 40259 54000;
0182549160999992000120700004+35570+116850FM-12+005399999V0200701N001012200019N0030001N1+00221+00221102721ADDAA199000091GF102991001001999999001021IA2999+00009MD1210121+0101MW1101REMSYN082AAXX  07001 54916 31930 20701 10022 20022 40272 52012 71000 80002 333 00100 31005;EQDQ01  00002PRCP99
0122549160999992000120703004+35570+116850FM-12+005399999V0200901N002012200019N0100001N1+00921+00611102761ADDGA1001+999999999GF100991001001999999001001MD1210051+9999REMSYN054AAXX  07031 54916 42960 00902 10092 20061 40276 52005;
0175549160999992000120706004+35570+116850FM-12+005399999V0200701N002012200019N0100001N1+01191+00661102621ADDAA199000091GA1001+999999999GF100991001001999999001001KA1999N+00181MD1710141+9999REMSYN064AAXX  07061 54916 32960 00702 10119 20066 40262 57014 333 20018;EQDQ01  00002PRCP99
0122549160999992000120709004+35570+116850FM-12+005399999V0209999C000012200019N0100001N1+01011+00711102541ADDGA1001+999999999GF100991001001999999001001MD1710081+9999REMSYN054AAXX  07091 54916 42960 00000 10101 20071 40254 57008;
0142549160999992000120712004+35570+116850FM-12+005399999V0201401N002010150019N0100001N1+00611+00541102621ADDAA199000091GF107991071051017501001001MD1210071+9999REMSYN060AAXX  07121 54916 32760 71402 10061 20054 40262 52007 87500;EQDQ01  00002PRCP99
0177549160999992000120718004+35570+116850FM-12+005399999V0200701N002010120019N0060001N1+00301+00271102601ADDAA199000091GF108991081051012501999999KA1999M+01261MD1710041+9999MW1101REMSYN076AAXX  07181 54916 31656 80702 10030 20027 40260 57004 71000 885// 333 10126;EQDQ01  00002PRCP99
0122549160999992000120721004+35570+116850FM-12+005399999V0201101N002012200019N0100001N1+00251+00221102401ADDGA1001+999999999GF100991001001999999001001MD1710201+9999REMSYN054AAXX  07211 54916 42960 01102 10025 20022 40240 57020;
0192549160999992000120800004+35570+116850FM-12+005399999V0200901N002012200019N0004001N1+00111+00111102381ADDAA199000091GA1001+999999999GF100991001001999999001001IA2999+00009MD1710031-0301MW1461REMSYN076AAXX  08001 54916 31904 00902 10011 20011 40238 57003 74600 333 05351 31008;EQDQ01  00002PRCP99
0150549160999992000120803004+35570+116850FM-12+005399999V0202001N003012200019N0070001N1+01061+00701102261ADDAY141031AY241031GA1001+999999999GF100991001001999999001001MD1710111+9999MW1281REMSYN060AAXX  08031 54916 41957 02003 10106 20070 40226 57011 72844;
0185549160999992000120806004+35570+116850FM-12+005399999V0201801N004010075019N0100001N1+01291+00711101971ADDAA199000091AY141061GF106991061011008001001001KA1999N+00031MD1710281+9999MW1001REMSYN076AAXX  08061 54916 31560 61804 10129 20071 40197 57028 70040 86100 333 20003;EQDQ01  00002PRCP99
0112549160999992000120809004+35570+116850FM-12+005399999V0202001N002012200019N0100001N1+01121+00751101911ADDGF102991021011008001001001MD1710061+9999REMSYN060AAXX  08091 54916 42560 22002 10112 20075 40191 57006 82100;
0142549160999992000120812004+35570+116850FM-12+005399999V0209999C000012200019N0100001N1+00781+00631101981ADDAA199000091GF102991021051012501001001MD1210061+9999REMSYN060AAXX  08121 54916 32660 20000 10078 20063 40198 52006 82500;EQDQ01  00002PRCP99
0165549160999992000120818004+35570+116850FM-12+005399999V0200901N002010120019N0100001N1+00851+00701101801ADDAA199000091GF108991081051012501999999KA1999M+01341MD1710101+9999REMSYN070AAXX  08181 54916 32660 80902 10085 20070 40180 57010 885// 333 10134;EQDQ01  00002PRCP99
0122549160999992000120821004+35570+116850FM-12+005399999V0201101N001012200019N0100001N1+00571+00551101681ADDGA1001+999999999GF100991001001999999001001MD1710131+9999REMSYN054AAXX  08211 54916 42960 01101 10057 20055 40168 57013;
0182549160999992000120900004+35570+116850FM-12+005399999V0203201N001019999999N0015001N1+00581+00561101761ADDAA199000091GF108991081001999999071999IA2999+00209MD1210081-0601MW1101REMSYN082AAXX  09001 54916 31915 83201 10058 20056 40176 52008 71000 8807/ 333 05605 30029;EQDQ01  00002PRCP99
0124549160999992000120903004+35570+116850FM-12+005399999V0202901N004010120019N0060001N1+00921+00731101921ADDGF108991081051012501999999MD1210161+9999MW1101REMSYN066AAXX  09031 54916 41656 82904 10092 20073 40192 52016 71000 885//;
0177549160999992000120906004+35570+116850FM-12+005399999V0203401N003010120019N0080001N1+01021+00751101791ADDAA199000091GF108991081051012501999999KA1999N+00501MD1710131+9999MW1101REMSYN076AAXX  09061 54916 31658 83403 10102 20075 40179 57013 71000 885// 333 20050;EQDQ01  00002PRCP99
0112549160999992000120909004+35570+116850FM-12+005399999V0203401N004012200019N0100001N1+00811+00611101861ADDGF104991001001999999001021MD1210071+9999REMSYN060AAXX  09091 54916 42960 43404 10081 20061 40186 52007 80002;
0142549160999992000120912004+35570+116850FM-12+005399999V0203601N004010150019N0100001N1+00851+00541102141ADDAA199000091GF108991081051017501999999MD1210281+9999REMSYN060AAXX  09121 54916 32760 83604 10085 20054 40214 52028 885//;EQDQ01  00002PRCP99
0165549160999992000120918004+35570+116850FM-12+005399999V0200201N005019999999N0100001N1+00601+00261102611ADDAA199000091GF108991001001999999001071KA1999M+01061MD1210201+9999REMSYN070AAXX  09181 54916 32960 80205 10060 20026 40261 52020 80007 333 10106;EQDQ01  00002PRCP99
0112549160999992000120921004+35570+116850FM-12+005399999V0200401N003019999999N0100001N1+00371+00021102851ADDGF105991001001999999001021MD1210241+9999REMSYN060AAXX  09211 54916 42960 50403 10037 20002 40285 52024 80002;
0180549160999992000121000004+35570+116850FM-12+005399999V0203601N002012200019N0100001N1+00141-00151103191ADDAA199000091GA1001+999999999GF100991001001999999001001IA2999-00109MD1210331+1401REMSYN070AAXX  10001 54916 32960 03602 10014 21015 40319 52033 333 01454 31012;EQDQ01  00002PRCP99
0112549160999992000121003004+35570+116850FM-12+005399999V0200401N005012200019N0100001N1+00501-00311103381ADDGF102991001001999999001021MD1210191+9999REMSYN060AAXX  10031 54916 42960 20405 10050 21031 40338 52019 80002;
0175549160999992000121006004+35570+116850FM-12+005399999V0203601N003012200019N0100001N1+00581-00771103291ADDAA199000091GA1001+999999999GF100991001001999999001001KA1999N+00131MD1710091+9999REMSYN064AAXX  10061 54916 32960 03603 10058 21077 40329 57009 333 20013;EQDQ01  00002PRCP99
0112549160999992000121009004+35570+116850FM-12+005399999V0200401N001012200019N0120001N1+00331-00591103341ADDGF104991001001999999001021MD1210051+9999REMSYN060AAXX  10091 54916 42962 40401 10033 21059 40334 52005 80002;
0142549160999992000121012004+35570+116850FM-12+005399999V0200701N002019999999N0100001N1-00011-00581103491ADDAA199000091GF106991001001999999001021MD1210141+9999REMSYN060AAXX  10121 54916 32960 60702 11001 21058 40349 52014 80002;EQDQ01  00002PRCP99
0175549160999992000121018004+35570+116850FM-12+005399999V0200901N002012200019N0120001N1-00241-01021103741ADDAA199000091GA1001+999999999GF100991001001999999001001KA1999M+00651MD1210091+9999REMSYN064AAXX  10181 54916 32962 00902 11024 21102 40374 52009 333 10065;EQDQ01  00002PRCP99
0122549160999992000121021004+35570+116850FM-12+005399999V0200701N002012200019N0120001N1-00361-00901103761ADDGA1001+999999999GF100991001001999999001001MD1210021+9999REMSYN054AAXX  10211 54916 42962 00702 11036 21090 40376 52002;
0152549160999992000121100004+35570+116850FM-12+005399999V0200201N001019999999N0100001N1-00321-00671103941ADDAA199000091GF106991061001999999031001MD1210171+0071REMSYN070AAXX  11001 54916 32960 60201 11032 21067 40394 52017 86030 333 00755;EQDQ01  00002PRCP99
0122549160999992000121103004+35570+116850FM-12+005399999V0200901N004012200019N0100001N1+00241-01291103951ADDGA1001+999999999GF100991001001999999001001MD1210021+9999REMSYN054AAXX  11031 54916 42960 00904 10024 21129 40395 52002;
0165549160999992000121106004+35570+116850FM-12+005399999V0200701N002019999999N0120001N1+00351-01611103911ADDAA199000091GF108991001001999999001071KA1999N-00441MD1710041+9999REMSYN070AAXX  11061 54916 32962 80702 10035 21161 40391 57004 80007 333 21044;EQDQ01  00002PRCP99
0112549160999992000121109004+35570+116850FM-12+005399999V0203201N001019999999N0100001N1+00301-01291103981ADDGF106991001001999999001021MD1210061+9999REMSYN060AAXX  11091 54916 42960 63201 10030 21129 40398 52006 80002;
0142549160999992000121112004+35570+116850FM-12+005399999V0203401N001019999999N0100001N1+00151-01161103931ADDAA199000091GF108991001001999999001071MD1710051+9999REMSYN060AAXX  11121 54916 32960 83401 10015 21116 40393 57005 80007;EQDQ01  00002PRCP99
0165549160999992000121118004+35570+116850FM-12+005399999V0209999C000019999999N0100001N1-00251-00601103801ADDAA199000091GF108991001001999999001071KA1999M+00421MD1710041+9999REMSYN070AAXX  11181 54916 32960 80000 11025 21060 40380 57004 80007 333 10042;EQDQ01  00002PRCP99
0122549160999992000121121004+35570+116850FM-12+005399999V0201601N001012200019N0100001N1-00331-00581103571ADDGA1001+999999999GF100991001001999999001001MD1710231+9999REMSYN054AAXX  11211 54916 42960 01601 11033 21058 40357 57023;
0164549160999992000121200004+35570+116850FM-12+005399999V0201601N001010150019N0080001N1-00171-00401103561ADDAA199000091GF107991071051017501999999MD1710011+0041MW1101REMSYN076AAXX  12001 54916 31758 71601 11017 21040 40356 57001 71000 875// 333 05402;EQDQ01  00002PRCP99
0112549160999992000121203004+35570+116850FM-12+005399999V0202201N003010120019N0100001N1+00111-00541103461ADDGF108991081051012501999999MD1710101+9999REMSYN060AAXX  12031 54916 42660 82203 10011 21054 40346 57010 885//;
0165549160999992000121206004+35570+116850FM-12+005399999V0202201N004019999999N0100001N1+00401-00701103061ADDAA199000091GF106991001001999999001021KA1999N-00391MD1710401+9999REMSYN070AAXX  12061 54916 32960 62204 10040 21070 40306 57040 80002 333 21039;EQDQ01  00002PRCP99
0112549160999992000121209004+35570+116850FM-12+005399999V0202201N002012200019N0100001N1+00351-00291102931ADDGF102991001001999999001021MD1710131+9999REMSYN060AAXX  12091 54916 42960 22202 10035 21029 40293 57013 80002;
0142549160999992000121212004+35570+116850FM-12+005399999V0201801N002019999999N0100001N1+00201-00241102941ADDAA199000091GF106991001001999999001021MD1210011+9999REMSYN060AAXX  12121 54916 32960 61802 10020 21024 40294 52001 80002;EQDQ01  00002PRCP99
0175549160999992000121218004+35570+116850FM-12+005399999V0201601N003012200019N0100001N1-00081-00301102691ADDAA199000091GA1001+999999999GF100991001001999999001001KA1999M+00481MD1710161+9999REMSYN064AAXX  12181 54916 32960 01603 11008 21030 40269 57016 333 10048;EQDQ01  00002PRCP99
0112549160999992000121221004+35570+116850FM-12+005399999V0201601N004012200019N0100001N1-00131-00251102531ADDGF103991031051012501001001MD1710161+9999REMSYN060AAXX  12211 54916 42660 31604 11013 21025 40253 57016 83500;
0170549160999992000121300004+35570+116850FM-12+005399999V0201801N004010120019N0100001N1+00001-00181102611ADDAA199000091GF107991071051012501999999IA2999-00409MD1210081-0901REMSYN076AAXX  13001 54916 32660 71804 10000 21018 40261 52008 875// 333 05902 31043;EQDQ01  00002PRCP99
0112549160999992000121303004+35570+116850FM-12+005399999V0201801N003010120019N0100001N1+00101-00131102531ADDGF107991071051012501999999MD1710081+9999REMSYN060AAXX  13031 54916 42660 71803 10010 21013 40253 57008 875//;
0175549160999992000121306004+35570+116850FM-12+005399999V0201801N003012200019N0100001N1+00581-00121102271ADDAA199000091GA1001+999999999GF100991001001999999001001KA1999N-00221MD1710261+9999REMSYN064AAXX  13061 54916 32960 01803 10058 21012 40227 57026 333 21022;EQDQ01  00002PRCP99
0122549160999992000121309004+35570+116850FM-12+005399999V0201801N003012200019N0100001N1+00531-00031102281ADDGA1001+999999999GF100991001001999999001001MD1210011+9999REMSYN054AAXX  13091 54916 42960 01803 10053 21003 40228 52001;
0152549160999992000121312004+35570+116850FM-12+005399999V0201401N003012200019N0100001N1+00151-00021102371ADDAA199000091GA1001+999999999GF100991001001999999001001MD1210091+9999REMSYN054AAXX  13121 54916 32960 01403 10015 21002 40237 52009;EQDQ01  00002PRCP99
0175549160999992000121318004+35570+116850FM-12+005399999V0201801N005012200019N0100001N1+00211+00021102521ADDAA199000091GA1001+999999999GF100991001001999999001001KA1999M+00721MD1710011+9999REMSYN064AAXX  13181 54916 32960 01805 10021 20002 40252 57001 333 10072;EQDQ01  00002PRCP99
0112549160999992000121321004+35570+116850FM-12+005399999V0201801N002019999999N0100001N1+00121-00051102421ADDGF105991001001999999001021MD1710101+9999REMSYN060AAXX  13211 54916 42960 51802 10012 21005 40242 57010 80002;
0180549160999992000121400004+35570+116850FM-12+005399999V0201601N003012200019N0100001N1-00031-00151102441ADDAA199000091GA1001+999999999GF100991001001999999001001IA2999-00409MD1210021-0201REMSYN070AAXX  14001 54916 32960 01603 11003 21015 40244 52002 333 05200 31045;EQDQ01  00002PRCP99
0112549160999992000121403004+35570+116850FM-12+005399999V0201801N003019999999N0100001N1+00191+00031102481ADDGF108991081001999999021999MD1210041+9999REMSYN060AAXX  14031 54916 42960 81803 10019 20003 40248 52004 8802/;
0165549160999992000121406004+35570+116850FM-12+005399999V0202001N003019999999N0100001N1+00231+00041102341ADDAA199000091GF108991081001999999021999KA1999N-00251MD1710141+9999REMSYN070AAXX  14061 54916 32960 82003 10023 20004 40234 57014 8802/ 333 21025;EQDQ01  00002PRCP99
0112549160999992000121409004+35570+116850FM-12+005399999V0200701N002019999999N0100001N1+00151+00071102351ADDGF108991001001999999001071MD1210011+9999REMSYN060AAXX  14091 54916 42960 80702 10015 20007 40235 52001 80007;
0152549160999992000121412004+35570+116850FM-12+005399999V0200901N002012200019N0100001N1-00121-00151102341ADDAA199000091GA1001+999999999GF100991001001999999001001MD1710021+9999REMSYN054AAXX  14121 54916 32960 00902 11012 21015 40234 57002;EQDQ01  00002PRCP99
0187549160999992000121418004+35570+116850FM-12+005399999V0201401N002012200019N0050001N1-00261-00291102301ADDAA199000091GA1001+999999999GF100991001001999999001001KA1999M+00301MD1410001+9999MW1101REMSYN070AAXX  14181 54916 31950 01402 11026 21029 40230 54000 71000 333 10030;EQDQ01  00002PRCP99
0122549160999992000121421004+35570+116850FM-12+005399999V0201601N003012200019N0100001N1-00041-00101102161ADDGA1001+999999999GF100991001001999999001001MD1710141+9999REMSYN054AAXX  14211 54916 42960 01603 11004 21010 40216 57014;
0174549160999992000121500004+35570+116850FM-12+005399999V0200701N002012200019N0060001N1-00241-00271102351ADDAA199000091GA1001+999999999GF100991001001999999001001MD1210181+0011MW1101REMSYN070AAXX  15001 54916 31956 00702 11024 21027 40235 52018 71000 333 05152;EQDQ01  00002PRCP99
0134549160999992000121503004+35570+116850FM-12+005399999V0202201N002012200019N0080001N1+00551+00171102381ADDGA1001+999999999GF100991001001999999001001MD1210041+9999MW1101REMSYN060AAXX  15031 54916 41958 02202 10055 20017 40238 52004 71000;
0165549160999992000121506004+35570+116850FM-12+005399999V0203401N002012200019N0100001N1+00721+00261102351ADDAA199000091GF102991001001999999001021KA1999N-00281MD1710031+9999REMSYN070AAXX  15061 54916 32960 23402 10072 20026 40235 57003 80002 333 21028;EQDQ01  00002PRCP99
0122549160999992000121509004+35570+116850FM-12+005399999V0203401N003012200019N0100001N1+00561+00271102551ADDGA1001+999999999GF100991001001999999001001MD1210201+9999REMSYN054AAXX  15091 54916 42960 03403 10056 20027 40255 52020;
0152549160999992000121512004+35570+116850FM-12+005399999V0200401N004012200019N0100001N1+00311-00581102841ADDAA199000091GA1001+999999999GF100991001001999999001001MD1210281+9999REMSYN054AAXX  15121 54916 32960 00404 10031 21058 40284 52028;EQDQ01  00002PRCP99
0175549160999992000121518004+35570+116850FM-12+005399999V0200201N002012200019N0100001N1-00231-00661103161ADDAA199000091GA1001+999999999GF100991001001999999001001KA1999M+00751MD1210151+9999REMSYN064AAXX  15181 54916 32960 00202 11023 21066 40316 52015 333 10075;EQDQ01  00002PRCP99
0122549160999992000121521004+35570+116850FM-12+005399999V0200201N003012200019N0100001N1-00221-00861103191ADDGA1001+999999999GF100991001001999999001001MD1210021+9999REMSYN054AAXX  15211 54916 42960 00203 11022 21086 40319 52002;
0152549160999992000121600004+35570+116850FM-12+005399999V0200701N002019999999N0100001N1-00221-00771103291ADDAA199000091GF107991001001999999001021MD1210101+0091REMSYN070AAXX  16001 54916 32960 70702 11022 21077 40329 52010 80002 333 00900;EQDQ01  00002PRCP99
0112549160999992000121603004+35570+116850FM-12+005399999V0200901N003012200019N0100001N1+00481-00911103281ADDGF102991001001999999001021MD1410001+9999REMSYN060AAXX  16031 54916 42960 20903 10048 21091 40328 54000 80002;
0175549160999992000121606004+35570+116850FM-12+005399999V0200901N002012200019N0120001N1+00801-01071102971ADDAA199000091GA1001+999999999GF100991001001999999001001KA1999N-00321MD1710311+9999REMSYN064AAXX  16061 54916 32962 00902 10080 21107 40297 57031 333 21032;EQDQ01  00002PRCP99
0112549160999992000121609004+35570+116850FM-12+005399999V0201801N003012200019N0100001N1+00671-00791102921ADDGF102991001001999999001021MD1710051+9999REMSYN060AAXX  16091 54916 42960 21803 10067 21079 40292 57005 80002;
0152549160999992000121612004+35570+116850FM-12+005399999V0201601N002012200019N0100001N1+00231-00311102961ADDAA199000091GA1001+999999999GF100991001001999999001001MD1210031+9999REMSYN054AAXX  16121 54916 32960 01602 10023 21031 40296 52003;EQDQ01  00002PRCP99
0165549160999992000121618004+35570+116850FM-12+005399999V0200901N002019999999N0100001N1-00081-00371102901ADDAA199000091GF106991001001999999001021KA1999M+00891MD1710041+9999REMSYN070AAXX  16181 54916 32960 60902 11008 21037 40290 57004 80002 333 10089;EQDQ01  00002PRCP99
0112549160999992000121621004+35570+116850FM-12+005399999V0200701N002010150019N0100001N1+00041-00261102751ADDGF108991081051017501999999MD1710151+9999REMSYN060AAXX  16211 54916 42760 80702 10004 21026 40275 57015 885//;
0170549160999992000121700004+35570+116850FM-12+005399999V0201101N003010150019N0100001N1+00261-00011102711ADDAA199000091GF107991071051017501999999IA2999-00309MD1710041-0601REMSYN076AAXX  17001 54916 32760 71103 10026 21001 40271 57004 875// 333 05605 31031;EQDQ01  00002PRCP99
0112549160999992000121703004+35570+116850FM-12+005399999V0201801N005010150019N0100001N1+00721+00151102641ADDGF107991071051017501999999MD1710071+9999REMSYN060AAXX  17031 54916 42760 71805 10072 20015 40264 57007 875//;
0165549160999992000121706004+35570+116850FM-12+005399999V0201601N004010120019N0100001N1+00811+00341102311ADDAA199000091GF108991081051012501999999KA1999N-00121MD1710321+9999REMSYN070AAXX  17061 54916 32660 81604 10081 20034 40231 57032 885// 333 21012;EQDQ01  00002PRCP99
0112549160999992000121709004+35570+116850FM-12+005399999V0201601N003010120019N0100001N1+00741+00391102261ADDGF108991081051012501999999MD1710051+9999REMSYN060AAXX  17091 54916 42660 81603 10074 20039 40226 57005 885//;
0142549160999992000121712004+35570+116850FM-12+005399999V0201401N006010120019N0100001N1+00681+00501102271ADDAA199000091GF108991081051012501999999MD1210011+9999REMSYN060AAXX  17121 54916 32660 81406 10068 20050 40227 52001 885//;EQDQ01  00002PRCP99
0165549160999992000121718004+35570+116850FM-12+005399999V0201801N004019999999N0100001N1+00661+00571102121ADDAA199000091GF108991081001999999071999KA1999M+00881MD1710071+9999REMSYN070AAXX  17181 54916 32960 81804 10066 20057 40212 57007 8807/ 333 10088;EQDQ01  00002PRCP99
0112549160999992000121721004+35570+116850FM-12+005399999V0201801N003019999999N0100001N1+00641+00571101931ADDGF108991081001999999071999MD1710191+9999REMSYN060AAXX  17211 54916 42960 81803 10064 20057 40193 57019 8807/;
0152549160999992000121800004+35570+116850FM-12+005399999V0202201N002019999999N0100001N1+00631+00561102041ADDAA199000091GF108991081001999999021999MD1210101+0071REMSYN070AAXX  18001 54916 32960 82202 10063 20056 40204 52010 8802/ 333 05704;EQDQ01  00002PRCP99
0112549160999992000121803004+35570+116850FM-12+005399999V0202201N003010120019N0100001N1+00781+00581102261ADDGF108991081051012501999999MD1210221+9999REMSYN060AAXX  18031 54916 42660 82203 10078 20058 40226 52022 885//;
0165549160999992000121806004+35570+116850FM-12+005399999V0202701N004010120019N0100001N1+00841+00351102121ADDAA199000091GF108991081051012501999999KA1999N+00581MD1710131+9999REMSYN070AAXX  18061 54916 32660 82704 10084 20035 40212 57013 885// 333 20058;EQDQ01  00002PRCP99
0112549160999992000121809004+35570+116850FM-12+005399999V0203201N001019999999N0100001N1+00701+00321102231ADDGF106991001001999999001021MD1210101+9999REMSYN060AAXX  18091 54916 42960 63201 10070 20032 40223 52010 80002;
0142549160999992000121812004+35570+116850FM-12+005399999V0203601N002012200019N0100001N1+00441+00271102511ADDAA199000091GF103991001001999999001021MD1210281+9999REMSYN060AAXX  18121 54916 32960 33602 10044 20027 40251 52028 80002;EQDQ01  00002PRCP99
0165549160999992000121818004+35570+116850FM-12+005399999V0200701N003019999999N0100001N1+00261-00301102891ADDAA199000091GF107991001001999999001021KA1999M+00851MD1210081+9999REMSYN070AAXX  18181 54916 32960 70703 10026 21030 40289 52008 80002 333 10085;EQDQ01  00002PRCP99
0112549160999992000121821004+35570+116850FM-12+005399999V0200401N003019999999N0100001N1+00201-00531103081ADDGF106991001001999999001021MD1210181+9999REMSYN060AAXX  18211 54916 42960 60403 10020 21053 40308 52018 80002;
0170549160999992000121900004+35570+116850FM-12+005399999V0200401N002010120019N0100001N1+00081-00391103271ADDAA199000091GF108991081051012501999999IA2999-00209MD1210191+1201REMSYN076AAXX  19001 54916 32660 80402 10008 21039 40327 52019 885// 333 01256 31020;EQDQ01  00002PRCP99
0112549160999992000121903004+35570+116850FM-12+005399999V0201101N003010120019N0100001N1+00481-00191103411ADDGF107991071051012501999999MD1210141+9999REMSYN060AAXX  19031 54916 42660 71103 10048 21019 40341 52014 875//;
0165549160999992000121906004+35570+116850FM-12+005399999V0200401N003019999999N0100001N1+00421-00271103161ADDAA199000091GF108991081001999999071999KA1999N+00041MD1710251+9999REMSYN070AAXX  19061 54916 32960 80403 10042 21027 40316 57025 8807/ 333 20004;EQDQ01  00002PRCP99
0112549160999992000121909004+35570+116850FM-12+005399999V0203601N003019999999N0100001N1+00371-00201103151ADDGF108991081001999999071999MD1710011+9999REMSYN060AAXX  19091 54916 42960 83603 10037 21020 40315 57001 8807/;
0142549160999992000121912004+35570+116850FM-12+005399999V0202901N003019999999N0100001N1+00261-00141103191ADDAA199000091GF108991081001999999071999MD1210031+9999REMSYN060AAXX  19121 54916 32960 82903 10026 21014 40319 52003 8807/;EQDQ01  00002PRCP99
0172549160999992000121918004+35570+116850FM-12+005399999V0202701N003019999999N0100001N1+00031+00001103101ADDAA106000591AY161061GF108991081001999999071999KA1999M+00561MD1710091+9999MW1701REMSYN082AAXX  19181 54916 11960 82703 10003 20000 40310 57009 69941 77060 8807/ 333 10056;
0161549160999992000121921004+35570+116850FM-12+005399999V0201801N001019999999N0100001N1+00041+00011102921ADDAA124001891AY171031AY271031GF108991081001999999071999MD1710181+9999MW1221REMSYN076AAXX  19211 54916 41960 81801 10004 20001 40292 57018 72277 8807/ 333 70017;
0189549160999992000122000004+35570+116850FM-12+005399999V0202701N003010150019N0100001N1+00061+00001103021ADDAA106001091AY171061GF108991081051017501999999IA2999+00009MD1210101-0301MW1001REMSYN100AAXX  20001 54916 11760 82703 10006 20000 40302 52010 60011 70070 885// 333 05300 30000 70017 92501;
0112549160999992000122003004+35570+116850FM-12+005399999V0202701N002010120019N0100001N1+00091-00021103071ADDGF108991081051012501999999MD1210041+9999REMSYN060AAXX  20031 54916 42660 82702 10009 21002 40307 52004 885//;
0156549160999992000122006004+35570+116850FM-12+005399999V0202201N002012200019N0100001N1+00401+00081102831ADDAA199000021GA1001+999999999GF100991001001999999001001KA1999N-00011MD1710231+9999REMSYN064AAXX  20061 54916 32960 02202 10040 20008 40283 57023 333 21001;
0122549160999992000122009004+35570+116850FM-12+005399999V0202001N003012200019N0100001N1+00281+00181102841ADDGA1001+999999999GF100991001001999999001001MD1210011+9999REMSYN054AAXX  20091 54916 42960 02003 10028 20018 40284 52001;
0152549160999992000122012004+35570+116850FM-12+005399999V0201801N004012200019N0100001N1+00101+00041102901ADDAA199000091GA1001+999999999GF100991001001999999001001MD1210051+9999REMSYN054AAXX  20121 54916 32960 01804 10010 20004 40290 52005;EQDQ01  00002PRCP99
0177549160999992000122018004+35570+116850FM-12+005399999V0201101N003019999999N0030001N1-00121-00151102811ADDAA199000091GF106991001001999999001021KA1999M+00521MD1710121+9999MW1101REMSYN076AAXX  20181 54916 31930 61103 11012 21015 40281 57012 71000 80002 333 10052;EQDQ01  00002PRCP99
0132549160999992000122021004+35570+116850FM-12+005399999V0201401N002019999999N0003001N1-00211-00241102561ADDAY141031GF108991081001999999071999MD1710251+9999MW1461REMSYN066AAXX  20211 54916 41903 81402 11021 21024 40256 57025 74640 8807/;
0190549160999992000122100004+35570+116850FM-12+005399999V0201601N004019999999N0070001N1-00141-00191102551ADDAA199000091AY141061GF108991081001999999021999IA2999-00109MD1710021-0501MW1101REMSYN082AAXX  21001 54916 31957 81604 11014 21019 40255 57002 71040 8802/ 333 05552 31013;EQDQ01  00002PRCP99
0124549160999992000122103004+35570+116850FM-12+005399999V0201601N005019999999N0080001N1+00141+00001102501ADDGF106991061001999999031001MD1710041+9999MW1101REMSYN066AAXX  21031 54916 41958 61605 10014 20000 40250 57004 71000 86030;
0174549160999992000122106004+35570+116850FM-12+005399999V0201801N003012200019N0100001N1+00681+00041102021ADDAA199000091GA1001+999999999GF100991001001999999001001KA1999N-00231MD1710471+9999REMSYN063AAXX  21061 54916 3296001803 10068 20004 40202 57047 333 21023;EQDQ01  00002PRCP99
0122549160999992000122109004+35570+116850FM-12+005399999V0201601N004012200019N0100001N1+00681+00221101881ADDGA1001+999999999GF100991001001999999001001MD1710151+9999REMSYN054AAXX  21091 54916 42960 01604 10068 20022 40188 57015;
0152549160999992000122112004+35570+116850FM-12+005399999V0201601N004012200019N0120001N1+00591+00191101811ADDAA199000091GA1001+999999999GF100991001001999999001001MD1710061+9999REMSYN054AAXX  21121 54916 32962 01604 10059 20019 40181 57006;EQDQ01  00002PRCP99
0175549160999992000122118004+35570+116850FM-12+005399999V0201801N004012200019N0100001N1+00371+00141101661ADDAA199000091GA1001+999999999GF100991001001999999001001KA1999M+00761MD1710051+9999REMSYN064AAXX  21181 54916 32960 01804 10037 20014 40166 57005 333 10076;EQDQ01  00002PRCP99
0122549160999992000122121004+35570+116850FM-12+005399999V0201801N003012200019N0100001N1+00191+00111101671ADDGA1001+999999999GF100991001001999999001001MD1210011+9999REMSYN054AAXX  21211 54916 42960 01803 10019 20011 40167 52001;
0180549160999992000122200004+35570+116850FM-12+005399999V0201801N003012200019N0100001N1+00121+00011101751ADDAA199000091GA1001+999999999GF100991001001999999001001IA2999-00109MD1210081-0801REMSYN070AAXX  22001 54916 32960 01803 10012 20001 40175 52008 333 05803 31019;EQDQ01  00002PRCP99
0122549160999992000122203004+35570+116850FM-12+005399999V0201801N002012200019N0100001N1+00561+00271101871ADDGA1001+999999999GF100991001001999999001001MD1210121+9999REMSYN054AAXX  22031 54916 42960 01802 10056 20027 40187 52012;
0165549160999992000122206004+35570+116850FM-12+005399999V0203601N001019999999N0100001N1+00761+00261101641ADDAA199000091GF107991001001999999001021KA1999N+00071MD1710231+9999REMSYN070AAXX  22061 54916 32960 73601 10076 20026 40164 57023 80002 333 20007;EQDQ01  00002PRCP99
0122549160999992000122209004+35570+116850FM-12+005399999V0202901N002012200019N0100001N1+00641+00281101601ADDGA1001+999999999GF100991001001999999001001MD1710041+9999REMSYN054AAXX  22091 54916 42960 02902 10064 20028 40160 57004;
0152549160999992000122212004+35570+116850FM-12+005399999V0202901N002012200019N0100001N1+00441+00211101811ADDAA199000091GA1001+999999999GF100991001001999999001001MD1210211+9999REMSYN054AAXX  22121 54916 32960 02902 10044 20021 40181 52021;EQDQ01  00002PRCP99
0175549160999992000122218004+35570+116850FM-12+005399999V0202701N002012200019N0100001N1+00211-00101102161ADDAA199000091GA1001+999999999GF100991001001999999001001KA1999M+00841MD1210121+9999REMSYN064AAXX  22181 54916 32960 02702 10021 21010 40216 52012 333 10084;EQDQ01  00002PRCP99
0122549160999992000122221004+35570+116850FM-12+005399999V0203201N003012200019N0100001N1+00071-00401102191ADDGA1001+999999999GF100991001001999999001001MD1210031+9999REMSYN054AAXX  22211 54916 42960 03203 10007 21040 40219 52003;
0180549160999992000122300004+35570+116850FM-12+005399999V0203401N002012200019N0100001N1-00071-00391102341ADDAA199000091GA1001+999999999GF100991001001999999001001IA2999-00409MD1210141+0601REMSYN070AAXX  23001 54916 32960 03402 11007 21039 40234 52014 333 00652 31040;EQDQ01  00002PRCP99
0112549160999992000122303004+35570+116850FM-12+005399999V0202701N004019999999N0100001N1+00451-00301102511ADDGF107991001001999999001021MD1210171+9999REMSYN060AAXX  23031 54916 42960 72704 10045 21030 40251 52017 80002;
0165549160999992000122306004+35570+116850FM-12+005399999V0203401N006012200019N0120001N1+00771-00841102241ADDAA199000091GF102991001001999999001021KA1999N-00241MD1710261+9999REMSYN070AAXX  23061 54916 32962 23406 10077 21084 40224 57026 80002 333 21024;EQDQ01  00002PRCP99
0112549160999992000122309004+35570+116850FM-12+005399999V0203601N002019999999N0120001N1+00641-00841102241ADDGF106991001001999999001021MD1410001+9999REMSYN060AAXX  23091 54916 42962 63602 10064 21084 40224 54000 80002;
0142549160999992000122312004+35570+116850FM-12+005399999V0201101N002010120019N0100001N1+00201-00271102401ADDAA199000091GF107991071051012501999999MD1210151+9999REMSYN060AAXX  23121 54916 32660 71102 10020 21027 40240 52015 875//;EQDQ01  00002PRCP99
0165549160999992000122318004+35570+116850FM-12+005399999V0201401N003019999999N0100001N1+00051-00321102101ADDAA199000091GF107991001001999999001021KA1999M+00831MD1710251+9999REMSYN070AAXX  23181 54916 32960 71403 10005 21032 40210 57025 80002 333 10083;EQDQ01  00002PRCP99
0112549160999992000122321004+35570+116850FM-12+005399999V0200901N002012200019N0100001N1+00021-00281102001ADDGF102991001001999999001021MD1710101+9999REMSYN060AAXX  23211 54916 42960 20902 10002 21028 40200 57010 80002;
0180549160999992000122400004+35570+116850FM-12+005399999V0201401N002012200019N0100001N1-00051-00331102041ADDAA199000091GA1001+999999999GF100991001001999999001001IA2999-00209MD1210031-0301REMSYN070AAXX  24001 54916 32960 01402 11005 21033 40204 52003 333 05300 31026;EQDQ01  00002PRCP99
0122549160999992000122403004+35570+116850FM-12+005399999V0202701N002012200019N0100001N1+00511-00151102221ADDGA1001+999999999GF100991001001999999001001MD1210181+9999REMSYN054AAXX  24031 54916 42960 02702 10051 21015 40222 52018;
0175549160999992000122406004+35570+116850FM-12+005399999V0203401N006012200019N0100001N1+00931-00621102151ADDAA199000091GA1001+999999999GF100991001001999999001001KA1999N-00131MD1710061+9999REMSYN064AAXX  24061 54916 32960 03406 10093 21062 40215 57006 333 21013;EQDQ01  00002PRCP99
0122549160999992000122409004+35570+116850FM-12+005399999V0203401N004012200019N0150001N1+00781-00771102321ADDGA1001+999999999GF100991001001999999001001MD1210171+9999REMSYN054AAXX  24091 54916 42965 03404 10078 21077 40232 52017;
0152549160999992000122412004+35570+116850FM-12+005399999V0203601N002012200019N0120001N1+00281-00501102471ADDAA199000091GA1001+999999999GF100991001001999999001001MD1210141+9999REMSYN054AAXX  24121 54916 32962 03602 10028 21050 40247 52014;EQDQ01  00002PRCP99
0175549160999992000122418004+35570+116850FM-12+005399999V0201601N003012200019N0120001N1-00201-00541102621ADDAA199000091GA1001+999999999GF100991001001999999001001KA1999M+00961MD1210041+9999REMSYN064AAXX  24181 54916 32962 01603 11020 21054 40262 52004 333 10096;EQDQ01  00002PRCP99
0122549160999992000122421004+35570+116850FM-12+005399999V0200701N002012200019N0120001N1-00241-00671102741ADDGA1001+999999999GF100991001001999999001001MD1210121+9999REMSYN054AAXX  24211 54916 42962 00702 11024 21067 40274 52012;
0162549160999992000122500004+35570+116850FM-12+005399999V0200701N004012200019N0100001N1-00161-00461103001ADDAA199000091GA1001+999999999GF100991001001999999001001MD1210251+0101REMSYN064AAXX  25001 54916 32960 00704 11016 21046 40300 52025 333 01051;EQDQ01  00002PRCP99
0122549160999992000122503004+35570+116850FM-12+005399999V0200701N004012200019N0100001N1+00401-00451103141ADDGA1001+999999999GF100991001001999999001001MD1210141+9999REMSYN054AAXX  25031 54916 42960 00704 10040 21045 40314 52014;
0175549160999992000122506004+35570+116850FM-12+005399999V0200901N004012200019N0100001N1+00721-00611103021ADDAA199000091GA1001+999999999GF100991001001999999001001KA1999N-00371MD1710111+9999REMSYN064AAXX  25061 54916 32960 00904 10072 21061 40302 57011 333 21037;EQDQ01  00002PRCP99
0122549160999992000122509004+35570+116850FM-12+005399999V0200901N004012200019N0100001N1+00461-00521103081ADDGA1001+999999999GF100991001001999999001001MD1210051+9999REMSYN054AAXX  25091 54916 42960 00904 10046 21052 40308 52005;
0152549160999992000122512004+35570+116850FM-12+005399999V0201101N002012200019N0100001N1-00051-00441103211ADDAA199000091GA1001+999999999GF100991001001999999001001MD1210131+9999REMSYN054AAXX  25121 54916 32960 01102 11005 21044 40321 52013;EQDQ01  00002PRCP99
0175549160999992000122518004+35570+116850FM-12+005399999V0200701N003012200019N0150001N1-00251-00681103421ADDAA199000091GA1001+999999999GF100991001001999999001001KA1999M+00791MD1210021+9999REMSYN064AAXX  25181 54916 32965 00703 11025 21068 40342 52002 333 10079;EQDQ01  00002PRCP99
0122549160999992000122521004+35570+116850FM-12+005399999V0200401N003012200019N0100001N1-00291-00691103341ADDGA1001+999999999GF100991001001999999001001MD1710081+9999REMSYN054AAXX  25211 54916 42960 00403 11029 21069 40334 57008;
0162549160999992000122600004+35570+116850FM-12+005399999V0200701N003012200019N0100001N1-00281-00721103351ADDAA199000091GA1001+999999999GF100991001001999999001001MD1410001+0031REMSYN064AAXX  26001 54916 32960 00703 11028 21072 40335 54000 333 00351;EQDQ01  00002PRCP99
0122549160999992000122603004+35570+116850FM-12+005399999V0200901N004012200019N0100001N1+00321-00411103351ADDGA1001+999999999GF100991001001999999001001MD1210011+9999REMSYN054AAXX  26031 54916 42960 00904 10032 21041 40335 52001;
0165549160999992000122606004+35570+116850FM-12+005399999V0201401N004012200019N0120001N1+00701-00241103001ADDAA199000091GF102991021011008001001001KA1999N-00321MD1710341+9999REMSYN070AAXX  26061 54916 32562 21404 10070 21024 40300 57034 82100 333 21032;EQDQ01  00002PRCP99
0122549160999992000122609004+35570+116850FM-12+005399999V0201101N004012200019N0120001N1+00441-00051102921ADDGA1001+999999999GF100991001001999999001001MD1710091+9999REMSYN054AAXX  26091 54916 42962 01104 10044 21005 40292 57009;
0142549160999992000122612004+35570+116850FM-12+005399999V0200901N003019999999N0100001N1+00181-00041102971ADDAA199000091GF105991001001999999001021MD1210051+9999REMSYN060AAXX  26121 54916 32960 50903 10018 21004 40297 52005 80002;EQDQ01  00002PRCP99
0165549160999992000122618004+35570+116850FM-12+005399999V0200401N002010150019N0100001N1+00291+00051103021ADDAA199000091GF108991081051017501999999KA1999M+00741MD1210021+9999REMSYN070AAXX  26181 54916 32760 80402 10029 20005 40302 52002 885// 333 10074;EQDQ01  00002PRCP99
0112549160999992000122621004+35570+116850FM-12+005399999V0200401N002010150019N0100001N1+00291+00081102931ADDGF108991081051017501999999MD1710091+9999REMSYN060AAXX  26211 54916 42760 80402 10029 20008 40293 57009 885//;
0170549160999992000122700004+35570+116850FM-12+005399999V0203601N002019999999N0100001N1+00291+00081103011ADDAA199000091GF108991081001999999071999IA2999+00009MD1210081-0301REMSYN076AAXX  27001 54916 32960 83602 10029 20008 40301 52008 8807/ 333 05306 31002;EQDQ01  00002PRCP99
0112549160999992000122703004+35570+116850FM-12+005399999V0203401N003010120019N0100001N1+00461+00101103181ADDGF108991081051012501999999MD1210171+9999REMSYN060AAXX  27031 54916 42660 83403 10046 20010 40318 52017 885//;
0165549160999992000122706004+35570+116850FM-12+005399999V0203401N004010150019N0100001N1+00551-00011103011ADDAA199000091GF108991081051017501999999KA1999N+00141MD1710171+9999REMSYN070AAXX  27061 54916 32760 83404 10055 21001 40301 57017 885// 333 20014;EQDQ01  00002PRCP99
0112549160999992000122709004+35570+116850FM-12+005399999V0203401N003019999999N0100001N1+00411-00151103091ADDGF106991001001999999001021MD1210081+9999REMSYN060AAXX  27091 54916 42960 63403 10041 21015 40309 52008 80002;
0142549160999992000122712004+35570+116850FM-12+005399999V0203601N003019999999N0100001N1+00161-00191103301ADDAA199000091GF108991001001999999001071MD1210201+9999REMSYN060AAXX  27121 54916 32960 83603 10016 21019 40330 52020 80007;EQDQ01  00002PRCP99
0175549160999992000122718004+35570+116850FM-12+005399999V0200201N002012200019N0100001N1-00201-00431103421ADDAA199000091GA1001+999999999GF100991001001999999001001KA1999M+00681MD1210011+9999REMSYN064AAXX  27181 54916 32960 00202 11020 21043 40342 52001 333 10068;EQDQ01  00002PRCP99
0122549160999992000122721004+35570+116850FM-12+005399999V0200401N003012200019N0100001N1-00261-00501103401ADDGA1001+999999999GF100991001001999999001001MD1710021+9999REMSYN054AAXX  27211 54916 42960 00403 11026 21050 40340 57002;
0152549160999992000122800004+35570+116850FM-12+005399999V0200401N004019999999N0100001N1-00311-00561103501ADDAA199000091GF105991001001999999001021MD1210101+0051REMSYN070AAXX  28001 54916 32960 50404 11031 21056 40350 52010 80002 333 00556;EQDQ01  00002PRCP99
0112549160999992000122803004+35570+116850FM-12+005399999V0201101N001019999999N0100001N1+00061-00411103521ADDGF105991001001999999001021MD1210021+9999REMSYN060AAXX  28031 54916 42960 51101 10006 21041 40352 52002 80002;
0165549160999992000122806004+35570+116850FM-12+005399999V0209999C000010120019N0100001N1+00221-00251103261ADDAA199000091GF107991071051012501999999KA1999N-00381MD1710261+9999REMSYN070AAXX  28061 54916 32660 70000 10022 21025 40326 57026 875// 333 21038;EQDQ01  00002PRCP99
0122549160999992000122809004+35570+116850FM-12+005399999V0200701N001012200019N0100001N1+00121-00171103171ADDGA1001+999999999GF100991001001999999001001MD1710091+9999REMSYN054AAXX  28091 54916 42960 00701 10012 21017 40317 57009;
0152549160999992000122812004+35570+116850FM-12+005399999V0201401N002012200019N0100001N1-00251-00421103141ADDAA199000091GA1001+999999999GF100991001001999999001001MD1710041+9999REMSYN054AAXX  28121 54916 32960 01402 11025 21042 40314 57004;EQDQ01  00002PRCP99
0165549160999992000122818004+35570+116850FM-12+005399999V0201101N002019999999N0120001N1-00431-00571103041ADDAA199000091GF105991001001999999001021KA1999M+00361MD1710091+9999REMSYN070AAXX  28181 54916 32962 51102 11043 21057 40304 57009 80002 333 10036;EQDQ01  00002PRCP99
0112549160999992000122821004+35570+116850FM-12+005399999V0201101N002010150019N0100001N1-00111-00301102861ADDGF108991081051017501999999MD1710181+9999REMSYN060AAXX  28211 54916 42760 81102 11011 21030 40286 57018 885//;
0152549160999992000122900004+35570+116850FM-12+005399999V0201401N002010150019N0100001N1+00011-00201102851ADDAA199000091GF108991081051017501999999MD1710011+0071REMSYN070AAXX  29001 54916 32760 81402 10001 21020 40285 57001 885// 333 05703;EQDQ01  00002PRCP99
0112549160999992000122903004+35570+116850FM-12+005399999V0201601N002010150019N0100001N1+00221-00121102851ADDGF108991081051017501999999MD1410001+9999REMSYN060AAXX  29031 54916 42760 81602 10022 21012 40285 54000 885//;
0112549160999992000122909004+35570+116850FM-12+005399999V0201601N003010120019N0100001N1+00381-00061102471ADDGF108991081051012501999999MD1710121+9999REMSYN060AAXX  29091 54916 42660 81603 10038 21006 40247 57012 885//;
0142549160999992000122912004+35570+116850FM-12+005399999V0201401N002010120019N0100001N1+00201-00021102501ADDAA199000091GF108991081051012501999999MD1210031+9999REMSYN060AAXX  29121 54916 32660 81402 10020 21002 40250 52003 885//;EQDQ01  00002PRCP99
0165549160999992000122918004+35570+116850FM-12+005399999V0201601N002010150019N0100001N1+00281+00121102361ADDAA199000091GF108991081051017501999999KA1999M+00421MD1710061+9999REMSYN070AAXX  29181 54916 32760 81602 10028 20012 40236 57006 885// 333 10042;EQDQ01  00002PRCP99
0112549160999992000122921004+35570+116850FM-12+005399999V0201801N002010150019N0100001N1+00331+00201102131ADDGF108991081051017501999999MD1710221+9999REMSYN060AAXX  29211 54916 42760 81802 10033 20020 40213 57022 885//;
0182549160999992000123000004+35570+116850FM-12+005399999V0202201N002019999999N0060001N1+00291+00241102231ADDAA199000091GF108991081001999999021999IA2999+00009MD1210091-0601MW1101REMSYN082AAXX  30001 54916 31956 82202 10029 20024 40223 52009 71000 8802/ 333 05603 31004;EQDQ01  00002PRCP99
0124549160999992000123003004+35570+116850FM-12+005399999V0203201N003010120019N0060001N1+00321+00191102451ADDGF108991081051012501999999MD1210221+9999MW1101REMSYN066AAXX  30031 54916 41656 83203 10032 20019 40245 52022 71000 885//;
0165549160999992000123006004+35570+116850FM-12+005399999V0203401N002019999999N0100001N1+00601+00121102261ADDAA199000091GF106991001001999999001021KA1999N+00131MD1710181+9999REMSYN070AAXX  30061 54916 32960 63402 10060 20012 40226 57018 80002 333 20013;EQDQ01  00002PRCP99
0122549160999992000123009004+35570+116850FM-12+005399999V0203201N001012200019N0100001N1+00511+00151102381ADDGA1001+999999999GF100991001001999999001001MD1210121+9999REMSYN054AAXX  30091 54916 42960 03201 10051 20015 40238 52012;
0152549160999992000123012004+35570+116850FM-12+005399999V0209999C000012200019N0100001N1+00111+00061102591ADDAA199000091GA1001+999999999GF100991001001999999001001MD1210201+9999REMSYN054AAXX  30121 54916 32960 00000 10011 20006 40259 52020;EQDQ01  00002PRCP99
0175549160999992000123018004+35570+116850FM-12+005399999V0200201N002012200019N0100001N1-00191-00461102831ADDAA199000091GA1001+999999999GF100991001001999999001001KA1999M+00691MD1210061+9999REMSYN064AAXX  30181 54916 32960 00202 11019 21046 40283 52006 333 10069;EQDQ01  00002PRCP99
0122549160999992000123021004+35570+116850FM-12+005399999V0200701N002012200019N0100001N1-00361-00691102821ADDGA1001+999999999GF100991001001999999001001MD1710021+9999REMSYN054AAXX  30211 54916 42960 00702 11036 21069 40282 57002;
0162549160999992000123100004+35570+116850FM-12+005399999V0200401N001012200019N0100001N1-00471-00741102891ADDAA199000091GA1001+999999999GF100991001001999999001001MD1210071+0071REMSYN064AAXX  31001 54916 32960 00401 11047 21074 40289 52007 333 00758;EQDQ01  00002PRCP99
0122549160999992000123103004+35570+116850FM-12+005399999V0202001N002012200019N0100001N1+00401-00791102961ADDGA1001+999999999GF100991001001999999001001MD1210081+9999REMSYN054AAXX  31031 54916 42960 02002 10040 21079 40296 52008;
0175549160999992000123106004+35570+116850FM-12+005399999V0201801N003012200019N0100001N1+00581-01081102621ADDAA199000091GA1001+999999999GF100991001001999999001001KA1999N-00501MD1710341+9999REMSYN064AAXX  31061 54916 32960 01803 10058 21108 40262 57034 333 21050;EQDQ01  00002PRCP99
0122549160999992000123109004+35570+116850FM-12+005399999V0201801N003012200019N0100001N1+00421-00381102411ADDGA1001+999999999GF100991001001999999001001MD1710211+9999REMSYN054AAXX  31091 54916 42960 01803 10042 21038 40241 57021;
0152549160999992000123112004+35570+116850FM-12+005399999V0201401N003012200019N0100001N1+00001-00691102421ADDAA199000091GA1001+999999999GF100991001001999999001001MD1410001+9999REMSYN054AAXX  31121 54916 32960 01403 10000 21069 40242 54000;EQDQ01  00002PRCP99
0175549160999992000123118004+35570+116850FM-12+005399999V0201801N006012200019N0150001N1+00091-00641102041ADDAA199000091GA1001+999999999GF100991001001999999001001KA1999M+00661MD1710351+9999REMSYN064AAXX  31181 54916 32965 01806 10009 21064 40204 57035 333 10066;EQDQ01  00002PRCP99
