0162591330999992000010100004+24800+118580FM-12+002299999V0209999C000012200019N0110001N1+01301+00931102001ADDAA106000091GA1001+999999999GF100991001001999999001001MD1210161+0001REMSYN064AAXX  01001 59133 32961 00000 10130 20093 40200 52016 333 00000;EQDQ01  00002PRCP06
0165591330999992000010106004+24800+118580FM-12+002299999V0200901N003012200019N0110001N1+02041+01161101561ADDAA106000091GF101991011011008001001001KA1999N+01151MD1710381+9999REMSYN070AAXX  01061 59133 32561 10903 10204 20116 40156 57038 81100 333 20115;EQDQ01  00002PRCP06
0174591330999992000010200004+24800+118580FM-12+002299999V0203601N001012200019N0016001N1+01251+01141101911ADDAA106000091GA1001+999999999GF100991001001999999001001MD1210081+0011MW1101REMSYN070AAXX  02001 59133 31916 03601 10125 20114 40191 52008 71000 333 05151;EQDQ01  00002PRCP06
0175591330999992000010206004+24800+118580FM-12+002299999V0200401N004012200019N0100001N1+01951+00981101591ADDAA106000091GA1001+999999999GF100991001001999999001001KA1999N+01201MD1710301+9999REMSYN064AAXX  02061 59133 32960 00404 10195 20098 40159 57030 333 20120;EQDQ01  00002PRCP06
0124591330999992000010221004+24800+118580FM-12+002299999V02099999999999999999N0030001N1+01361+01051101811ADDGF105991051001999999031001MD1710071+9999MW1101REMSYN066AAXX  02211 59133 41930 537// 10136 20105 40181 57007 71000 85030;
0164591330999992000010300004+24800+118580FM-12+002299999V0203601N006010150019N0040001N1+01361+01011102041ADDAA106000091GF107991071051017501999999MD1210231+0011MW1101REMSYN076AAXX  03001 59133 31740 73606 10136 20101 40204 52023 71000 875// 333 00101;EQDQ01  00002PRCP06
0175591330999992000010306004+24800+118580FM-12+002299999V0200401N005012200019N0110001N1+01791+01001101761ADDAA106000091GA1001+999999999GF100991001001999999001001KA1999N+01331MD1710281+9999REMSYN064AAXX  03061 59133 32961 00405 10179 20100 40176 57028 333 20133;EQDQ01  00002PRCP06
0134591330999992000010321004+24800+118580FM-12+002299999V0203601N003012200019N0060001N1+01251+00961101731ADDGA1001+999999999GF100991001001999999001001MD1710061+9999MW1101REMSYN060AAXX  03211 59133 41956 03603 10125 20096 40173 57006 71000;
0174591330999992000010400004+24800+118580FM-12+002299999V0203601N002012200019N0080001N1+01271+00981101841ADDAA106000091GA1001+999999999GF100991001001999999001001MD1210111+0021MW1101REMSYN070AAXX  04001 59133 31958 03602 10127 20098 40184 52011 71000 333 05251;EQDQ01  00002PRCP06
0175591330999992000010406004+24800+118580FM-12+002299999V0200901N003012200019N0110001N1+01941+01231101611ADDAA106000091GA1001+999999999GF100991001001999999001001KA1999N+01221MD1710281+9999REMSYN064AAXX  04061 59133 32961 00903 10194 20123 40161 57028 333 20122;EQDQ01  00002PRCP06
0124591330999992000010421004+24800+118580FM-12+002299999V0209999C000019999999N0060001N1+01431+01211101511ADDGF107991071001999999031999MD1710151+9999MW1101REMSYN066AAXX  04211 59133 41956 70000 10143 20121 40151 57015 71000 8703/;
0164591330999992000010500004+24800+118580FM-12+002299999V0203601N001019999999N0080001N1+01401+01231101591ADDAA106000091GF107991071001999999031999MD1210081+0031MW1101REMSYN076AAXX  05001 59133 31958 73601 10140 20123 40159 52008 71000 8703/ 333 05301;EQDQ01  00002PRCP06
0203591330999992000010506004+24800+118580FM-12+002299999V0201801N005012200019N0080001N1+01951+01361999999ADDAA106000091GA1001+999999999GF100991001001999999001001KA1999N+01371MD1710271+9999MW1061REMSYN070AAXX  05061 59133 31958 01805 10195 20136 49013 57027 70600 333 20137;EQDQ01  00002PRCP06Q02 090133APOSLP
0170591330999992000010512004+24800+118580FM-12+002299999V0200401N003019999999N0050001N1+01581+01461101432ADDAA106000091GF107991071001999999031001MD1210201+9999MW1101REMSYN066AAXX  05121 59133 31950 70403 10158 20146 40143 52020 71000 87030;EQDQ01+101433APOSLPQ02  00002PRCP06
0177591330999992000010518004+24800+118580FM-12+002299999V0203601N003019999999N0030001N1+01491+01401101441ADDAA106000091GF107991071001999999031999KA1999M+02021MD1710061+9999MW1101REMSYN076AAXX  05181 59133 31930 73603 10149 20140 40144 57006 71000 8703/ 333 10202;EQDQ01  00002PRCP06
0159591330999992000010521004+24800+118580FM-12+002299999V0203601N004019999999N0015001N1+01461+01391101391ADDGF107991071001999999031999MD1710051+9999MW1101REMSYN066AAXX  05211 59133 41915 73604 10146 20139 40139 5700/ 71000 8703/;EQDQ01+000072APCTENQ02+000002APC3  
0164591330999992000010600004+24800+118580FM-12+002299999V0203601N004012200019N0030001N1+01521+01401101561ADDAA106000091GF103991031051017501031001MD1210161+0001MW1101REMSYN076AAXX  06001 59133 31730 33604 10152 20140 40156 52016 71000 83530 333 00001;EQDQ01  00002PRCP06
0175591330999992000010606004+24800+118580FM-12+002299999V0200901N005012200019N0100001N1+01991+01351101381ADDAA106000091GA1001+999999999GF100991001001999999001001KA1999N+01451MD1710221+9999REMSYN064AAXX  06061 59133 32960 00905 10199 20135 40138 57022 333 20145;EQDQ01  00002PRCP06
0154591330999992000010612004+24800+118580FM-12+002299999V0200401N007012200019N0030001N1+01571+01381101691ADDAA106000091GF101991011001999999031001MD1210311+9999MW1101REMSYN066AAXX  06121 59133 31930 10407 10157 20138 40169 52031 71000 81030;EQDQ01  00002PRCP06
0175591330999992000010700004+24800+118580FM-12+002299999V0200401N011010150019N0150001N1+01301+00841102091ADDAA106000091GF108991081051017501999999MD1210251+0501OA130601801REMSYN082AAXX  07001 59133 32765 80411 10130 20084 40209 52025 885// 333 00552 91118 91509;EQDQ01  00002PRCP06
0188591330999992000010706004+24800+118580FM-12+002299999V0203601N009010150019N0120001N1+01291+00911101841ADDAA106000091GF108991081051017501999999KA1240N+01261MD1710271+9999OA130601801REMSYN082AAXX  07061 59133 32762 83609 10129 20091 40184 57027 885// 333 20126 91118 91536;EQDQ01  00002PRCP06
0152591330999992000010800004+24800+118580FM-12+002299999V0203601N003010150019N0110001N1+01441+01121101801ADDAA106000091GF107991071051017501999999MD1210081+0031REMSYN070AAXX  08001 59133 32761 73603 10144 20112 40180 52008 875// 333 05301;EQDQ01  00002PRCP06
0165591330999992000010806004+24800+118580FM-12+002299999V0200901N005012200019N0110001N1+01911+01291101511ADDAA106000091GF104991041001999999031001KA1999N+01241MD1710301+9999REMSYN070AAXX  08061 59133 32961 40905 10191 20129 40151 57030 84030 333 20124;EQDQ01  00002PRCP06
0154591330999992000010812004+24800+118580FM-12+002299999V0200901N004019999999N0080001N1+01551+01321101561ADDAA106000091GF107991071001999999031999MD1210081+9999MW1101REMSYN066AAXX  08121 59133 31958 70904 10155 20132 40156 52008 71000 8703/;EQDQ01  00002PRCP06
0177591330999992000010818004+24800+118580FM-12+002299999V0209999C000010150019N0090001N1+01551+01391101531ADDAA106000091GF107991071051017501999999KA1999M+01931MD1710081+9999MW1101REMSYN076AAXX  08181 59133 32759 70000 10155 20139 40153 57008 71000 875// 333 10193;EQDQ01  00002PRCP06
0124591330999992000010821004+24800+118580FM-12+002299999V0202701N002010150019N0060001N1+01491+01381101491ADDGF107991071051017501999999MD1710051+9999MW1101REMSYN066AAXX  08211 59133 41756 72702 10149 20138 40149 57005 71000 875//;
0164591330999992000010900004+24800+118580FM-12+002299999V0202701N002019999999N0012001N1+01501+01411101611ADDAA106000091GF107991071001999999031999MD1210121+0021MW1101REMSYN076AAXX  09001 59133 31912 72702 10150 20141 40161 52012 71000 8703/ 333 05201;EQDQ01  00002PRCP06
0177591330999992000010906004+24800+118580FM-12+002299999V0201401N004012200019N0060001N1+02051+01491101371ADDAA106000091GF104991011001999999031021KA1999N+01451MD1710311+9999MW1101REMSYN076AAXX  09061 59133 31956 41404 10205 20149 40137 57031 71000 81032 333 20145;EQDQ01  00002PRCP06
0124591330999992000010921004+24800+118580FM-12+002299999V0203601N005010120019N0040001N1+01561+01361101691ADDGF107991071051012501999999MD1710071+9999MW1101REMSYN066AAXX  09211 59133 41640 73605 10156 20136 40169 57007 71000 875//;
0164591330999992000011000004+24800+118580FM-12+002299999V0203601N007010150019N0090001N1+01631+01361101901ADDAA106000091GF107991071051017501999999MD1210201+0031MW1101REMSYN076AAXX  10001 59133 31759 73607 10163 20136 40190 52020 71000 875// 333 00301;EQDQ01  00002PRCP06
0165591330999992000011006004+24800+118580FM-12+002299999V0200401N008010150019N0120001N1+01701+01231101771ADDAA106000091GF107991071051017501999999KA1999N+01451MD1710211+9999REMSYN070AAXX  10061 59133 32762 70408 10170 20123 40177 57021 875// 333 20145;EQDQ01  00002PRCP06
0142591330999992000011012004+24800+118580FM-12+002299999V0200401N009010120019N0120001N1+01521+00981101931ADDAA106000091GF107991071051012501999999MD1210081+9999REMSYN060AAXX  10121 59133 32662 70409 10152 20098 40193 52008 875//;EQDQ01  00002PRCP06
0165591330999992000011018004+24800+118580FM-12+002299999V0203601N008010120019N0120001N1+01531+01161101771ADDAA106000091GF108991081051012501999999KA1999M+01831MD1710141+9999REMSYN070AAXX  10181 59133 32662 83608 10153 20116 40177 57014 885// 333 10183;EQDQ01  00002PRCP06
0112591330999992000011021004+24800+118580FM-12+002299999V0203601N008010120019N0120001N1+01561+01231101701ADDGF107991071051012501999999MD1710071+9999REMSYN060AAXX  10211 59133 42662 73608 10156 20123 40170 57007 875//;
0152591330999992000011100004+24800+118580FM-12+002299999V0203601N004010120019N0120001N1+01641+01241101821ADDAA106000091GF107991071051012501999999MD1210121+0011REMSYN070AAXX  11001 59133 32662 73604 10164 20124 40182 52012 875// 333 05100;EQDQ01  00002PRCP06
0165591330999992000011106004+24800+118580FM-12+002299999V0200401N005010360019N0150001N1+02161+01471101441ADDAA106000091GF106991011011008001031001KA1999N+01491MD1710311+9999REMSYN070AAXX  11061 59133 32565 60405 10216 20147 40144 57031 81130 333 20149;EQDQ01  00002PRCP06
0142591330999992000011112004+24800+118580FM-12+002299999V0201401N002012200019N0110001N1+01681+01441101441ADDAA106000091GF102991021001999999031001MD1210071+9999REMSYN060AAXX  11121 59133 32961 21402 10168 20144 40144 52007 82030;EQDQ01  00002PRCP06
0174591330999992000011200004+24800+118580FM-12+002299999V0202701N003012200019N0020001N1+01561+01441101401ADDAA106000091GA1001+999999999GF100991001001999999001001MD1210131+0041MW1101REMSYN070AAXX  12001 59133 31920 02703 10156 20144 40140 52013 71000 333 05451;EQDQ01  00002PRCP06
0165591330999992000011206004+24800+118580FM-12+002299999V0201801N004012200019N0100001N1+01901+01531101101ADDAA106000091GF101991011001999999031001KA1999N+01461MD1710321+9999REMSYN070AAXX  12061 59133 32960 11804 10190 20153 40110 57032 81030 333 20146;EQDQ01  00002PRCP06
0124591330999992000011221004+24800+118580FM-12+002299999V0200401N006010120019N0050001N1+01501+01381101421ADDGF108991081051012501999999MD1710031+9999MW1101REMSYN066AAXX  12211 59133 41650 80406 10150 20138 40142 57003 71000 885//;
0152591330999992000011300004+24800+118580FM-12+002299999V0200901N010010120019N0120001N1+01441+01221101651ADDAA106000091GF108991081051012501999999MD1210221+0021REMSYN070AAXX  13001 59133 32662 80910 10144 20122 40165 52022 885// 333 00291;EQDQ01  00002PRCP06
0165591330999992000011306004+24800+118580FM-12+002299999V0200401N008010120019N0150001N1+01401+01081101451ADDAA106000091GF107991071051012501999999KA1999N+01311MD1710261+9999REMSYN070AAXX  13061 59133 32665 70408 10140 20108 40145 57026 875// 333 20131;EQDQ01  00002PRCP06
0142591330999992000011312004+24800+118580FM-12+002299999V0200401N011010120019N0150001N1+01261+00881101751ADDAA106000091GF108991081051012501999999MD1210211+9999REMSYN060AAXX  13121 59133 32665 80411 10126 20088 40175 52021 885//;EQDQ01  00002PRCP06
0165591330999992000011318004+24800+118580FM-12+002299999V0203601N009010120019N0120001N1+01181+00861101701ADDAA106000091GF108991081051012501999999KA1999M+01571MD1710071+9999REMSYN070AAXX  13181 59133 32662 83609 10118 20086 40170 57007 885// 333 10157;EQDQ01  00002PRCP06
0110591330999992000011321004+24800+118580FM-12+002299999V0203601N007010120019N0120001N1+01181+99999101641ADDGF108991081051012501999999MD1710061+9999REMSYN058    AAXX  13211 59133 42662 83607 10118 40164 57006 885//;
0169591330999992000011400004+24800+118580FM-12+002299999V0203601N007010120019N0120001N1+01141+00901101811ADDAA106000791AY161061GF108991081051012501999999MD1210171+0201MW1211REMSYN092    AAXX  14001 59133 11662 83607 10114 20090 40181 52017 69901 72160 885// 333 00253 79999;
0150591330999992000011406004+24800+118580FM-12+002299999V0200401N010010120019N0110001N1+01261+00881101631ADDAA199000021GF108991081051012501999999KA1999N+01131MD1710231+9999REMSYN074    AAXX  14061 59133 32661 80410 10126 20088 40163 57023 885// 333 20113;
0156591330999992000011500004+24800+118580FM-12+002299999V0203601N002010120019N0150001N1+01421+01141101781ADDAA199000091GF108991081051012501999999MD1210181+0001REMSYN074    AAXX  15001 59133 32665 83602 10142 20114 40178 52018 885// 333 00003;EQDQ01  00002PRCP99
0176591330999992000011506004+24800+118580FM-12+002299999V0200401N007010150019N0150001N1+01751+01231101411ADDAA106000791AY161061GF107991071051017501999999KA1999N+01181MD1710351+9999MW1001REMSYN086    AAXX  15061 59133 11765 70407 10175 20123 40141 57035 69901 70060 875// 333 20118;
0137591330999992000011521004+24800+118580FM-12+002299999V0200901N004010150019N0120001N1+01391+01221101631ADDAA124000791GF107991071051017501999999MD1410001+9999REMSYN074    AAXX  15211 59133 42762 70904 10139 20122 40163 54000 875// 333 79999;
0143591330999992000011600004+24800+118580FM-12+002299999V0200901N006010360019N0120001N1+01391+01261101801ADDAA124000791GF105991011051017501031001MD1210171+0001REMSYN080    AAXX  16001 59133 32762 50906 10139 20126 40180 52017 81530 333 00000 79999;
0169591330999992000011606004+24800+118580FM-12+002299999V0200901N007010150019N0200001N1+01581+01251101641ADDAA199000091GF107991071051017501031999KA1999N+01341MD1710281+9999REMSYN074    AAXX  16061 59133 32770 70907 10158 20125 40164 57028 8753/ 333 20134;EQDQ01  00002PRCP99
0146591330999992000011612004+24800+118580FM-12+002299999V0200401N010010120019N0150001N1+01291+01081101861ADDAA199000091GF108991081051012501999999MD1210211+9999REMSYN064    AAXX  16121 59133 32665 80410 10129 20108 40186 52021 885//;EQDQ01  00002PRCP99
0169591330999992000011618004+24800+118580FM-12+002299999V0200401N008010120019N0150001N1+01201+00901101921ADDAA199000091GF108991081051012501999999KA1999M+01951MD1710031+9999REMSYN074    AAXX  16181 59133 32665 80408 10120 20090 40192 57003 885// 333 10195;EQDQ01  00002PRCP99
0169591330999992000011700004+24800+118580FM-12+002299999V0200401N010010120019N0120001N1+01091+00911102121ADDAA106000791AY161061GF108991081051012501999999MD1210201+0301MW1601REMSYN092    AAXX  17001 59133 11662 80410 10109 20091 40212 52020 69901 76060 885// 333 00353 79999;
0176591330999992000011706004+24800+118580FM-12+002299999V0200401N009010120019N0180001N1+01231+00821101961ADDAA106000791AY161061GF108991081051012501999999KA1999N+01071MD1710211+9999MW1001REMSYN086    AAXX  17061 59133 11668 80409 10123 20082 40196 57021 69901 70060 885// 333 20107;
0169591330999992000011718004+24800+118580FM-12+002299999V0200401N009010120019N0150001N1+01001+00681102161ADDAA199000091GF108991081051012501999999KA1999M+01281MD1710011+9999REMSYN074    AAXX  17181 59133 32665 80409 10100 20068 40216 57001 885// 333 10128;EQDQ01  00002PRCP99
0137591330999992000011721004+24800+118580FM-12+002299999V02099999999990120019N0150001N1+00591+00571102161ADDAA124000791GF108991081051012501999999MD1410001+9999REMSYN074    AAXX  17211 59133 42665 804/8 10059 20057 40216 54000 885// 333 79999;
0143591330999992000011800004+24800+118580FM-12+002299999V0200401N008010120019N0120001N1+00971+00441102331ADDAA124000791GF108991081051012501999999MD1210171+0201REMSYN080    AAXX  18001 59133 32662 80408 10097 20044 40233 52017 885// 333 00251 79999;
0163591330999992000011806004+24800+118580FM-12+002299999V0200401N007010150019N0150001N1+01111+00301999999ADDAA199000091GF107991071051017501999999KA1999N+00921MD1710251+9999REMSYN068    AAXX  18061 59133 32765 70407 10111 20030 57025 875// 333 20092;EQDQ01  00002PRCP99
0116591330999992000011821004+24800+118580FM-12+002299999V0200401N007012200019N0120001N1+00931+00481102331ADDGF102991021001999999031001MD1710071+9999REMSYN064    AAXX  18211 59133 42962 20407 10093 20048 40233 57007 82030;
0156591330999992000011900004+24800+118580FM-12+002299999V0200401N007010360019N0120001N1+00941+00391102491ADDAA199000091GF105991031011008001031001MD1210161+0021REMSYN074    AAXX  19001 59133 32562 50407 10094 20039 40249 52016 83130 333 00200;EQDQ01  00002PRCP99
0179591330999992000011906004+24800+118580FM-12+002299999V0200901N009012200019N0120001N1+01251+00321102341ADDAA199000091GA1001+999999999GF100991001001999999001001KA1999N+00911MD1710291+9999REMSYN068    AAXX  19061 59133 32962 00909 10125 20032 40234 57029 333 20091;EQDQ01  00002PRCP99
0162591330999992000011912004+24800+118580FM-12+002299999V0200401N010019999999N0120001N1+01061+00151102621ADDAA199000091GF107991071001999999031999MD1210191+9999REMSYN080    AAXX  19121 59133 32962 70410 10106 20015 40262 52019 8703/ 333 9117/ 91509;EQDQ01  00002PRCP99
0122591330999992000011921004+24800+118580FM-12+002299999V0200401N009012200019N0120001N1+00831+00171102721ADDGA1001+999999999GF100991001001999999001001MD1210021+9999REMSYN054AAXX  19211 59133 42962 00409 10083 20017 40272 52002;
0175591330999992000012000004+24800+118580FM-12+002299999V0200401N011012200019N0120001N1+00811+00141102861ADDAA199000091GF101991011001999999031001MD1210141+0401OA130601801REMSYN082AAXX  20001 59133 32962 10411 10081 20014 40286 52014 81030 333 00451 91118 91532;EQDQ01  00002PRCP99
0188591330999992000012006004+24800+118580FM-12+002299999V0200401N012010150019N0110001N1+01041+00051102691ADDAA199000091GF107991071051017501999999KA1240N+00801MD1710191+9999OA130602101REMSYN082AAXX  20061 59133 32761 70412 10104 20005 40269 57019 875// 333 20080 91121 91536;EQDQ01  00002PRCP99
0112591330999992000012021004+24800+118580FM-12+002299999V0200401N012019999999N0150001N1+00891+00271102881ADDGF107991071001999999031999MD1710101+9999REMSYN060AAXX  20211 59133 42965 70412 10089 20027 40288 57010 8703/;
0175591330999992000012100004+24800+118580FM-12+002299999V0200401N012010150019N0150001N1+00961+00361102981ADDAA199000091GF107991071051017501031999MD1210091+0101OA130601901REMSYN082AAXX  21001 59133 32765 70412 10096 20036 40298 52009 8753/ 333 00102 91119 91536;EQDQ01  00002PRCP99
0153591330999992000012121004+24800+118580FM-12+002299999V0200401N006010120019N0150001N1+01341+00951102411ADDAA124000791AY161031GF107991071051012501031999MD1710201+9999MW1001REMSYN076AAXX  21211 59133 41665 70406 10134 20095 40241 57020 70060 8753/ 333 79999;
0165591330999992000012200004+24800+118580FM-12+002299999V0203601N006010360019N0150001N1+01391+01021102401ADDAA106000791AY161061GF107991031051012501031999MD1710011-0601MW1001REMSYN088AAXX  22001 59133 11665 73606 10139 20102 40240 57001 69901 70060 8353/ 333 05604 79999;
0165591330999992000012206004+24800+118580FM-12+002299999V0200901N005012200019N0150001N1+01831+01241102111ADDAA199000091GF102991021001999999031001KA1999N+01201MD1710281+9999REMSYN070AAXX  22061 59133 32965 20905 10183 20124 40211 57028 82030 333 20120;EQDQ01  00002PRCP99
0112591330999992000012221004+24800+118580FM-12+002299999V0203201N001019999999N0100001N1+01401+01301101981ADDGF107991071001999999031999MD1710121+9999REMSYN060AAXX  22211 59133 42/60 73201 1014/ 20130 40198 57012 8703/;
0157591330999992000012300004+24800+118580FM-12+002299999V0200401N002010360019N0090001N1+01581+01331102041ADDAA106000791GF107991021051017501031999MD1210061-0401MW1211REMSYN088AAXX  23001 59133 11759 70402 10158 20133 40204 52006 69901 72100 8253/ 333 05402 79999;
0172591330999992000012306004+24800+118580FM-12+002299999V0203601N002010120019N0020001N1+01801+01631101931ADDAA106000191AY161061GF107991071051012501999999KA1999N+01471MD1710161+9999MW1601REMSYN082AAXX  23061 59133 11620 73602 10180 20163 40193 57016 69921 76060 875// 333 20147;
0145591330999992000012321004+24800+118580FM-12+002299999V0200401N006010120019N0070001N1+01281+01211102061ADDAA124000891GF108991081051012501999999MD1710011+9999MW1101REMSYN076AAXX  23211 59133 41657 80406 10128 20121 40206 57001 71000 885// 333 70008;
0180591330999992000012406004+24800+118580FM-12+002299999V0200401N009010120019N0110001N1+01291+01161102091ADDAA106002091AY161061AY261061GF108991081051012501999999KA1999N+01251MD1710201+9999MW1601REMSYN082AAXX  24061 59133 11661 80409 10129 20116 40209 57020 60021 76066 885// 333 20125;
0151591330999992000012412004+24800+118580FM-12+002299999V0200401N009010120019N0100001N1+01161+01001999999ADDAA106002091AY161061AY261061GF108991081051012501999999MD1210131+9999MW1601REMSYN066AAXX  24121 59133 11660 80409 10116 20100 52013 60021 76066 885//;
0196591330999992000012500004+24800+118580FM-12+002299999V0203401N011010120019N0120001N1+00941+00811102721ADDAA106000591AY161061AY261061GF108991081051012501999999MD1210221+0501MW1601OA130601901REMSYN100AAXX  25001 59133 11662 83411 10094 20081 40272 52022 69961 76066 885// 333 00553 70117 91119 91532;
0214591330999992000012506004+24800+118580FM-12+002299999V0203401N013010120019N0150001N1+00941+00541102701ADDAA106999999AY161061GF108991081051012501999999KA1240N+00921MD1710161+9999MW1001OA130602001REMSYN094AAXX  25061 59133 11665 83413 10094 20054 40270 57016 69001 70060 885// 333 20092 91120 91534;EQDQ01  89992PRCP06
0188591330999992000012518004+24800+118580FM-12+002299999V0203401N012010120019N0150001N1+00751+00061102951ADDAA199000091GF107991071051012501999999KA1240M+01061MD1710081+9999OA130602001REMSYN082AAXX  25181 59133 32665 73412 10075 20006 40295 57008 875// 333 10106 91120 91504;EQDQ01  00002PRCP99
0133591330999992000012521004+24800+118580FM-12+002299999V0203401N013019999999N0150001N1+00621-00361102921ADDAA124000791GF107991071001999999031999MD1710031+9999REMSYN070AAXX  25211 59133 42965 73413 10062 21036 40292 57003 8703/ 333 79999;
0182591330999992000012600004+24800+118580FM-12+002299999V0203401N012012200019N0150001N1+00561+99999103181ADDAA199000091GF102991011051017501031001IA2999+00269MD1210261+0501REMSYN088AAXX  26001 59133 32765 23412 10056 210/0 40318 52026 81530 333 00554 30026 98120 91534;EQDQ01  00002PRCP99
0188591330999992000012606004+24800+118580FM-12+002299999V0203401N012012200019N0150001N1+00811-00291102951ADDAA199000091GF102991021001999999031001KA1240N+00521MD1710251+9999OA130602101REMSYN082AAXX  26061 59133 32965 23412 10081 21029 40295 57025 82030 333 20052 91121 91534;EQDQ01  00002PRCP99
0169591330999992000012612004+24800+118580FM-12+002299999V0203401N012010150019N0150001N1+00761+00081103131ADDAA199000091GF108991081051017501999999MD1210201+9999OA130601901REMSYN076AAXX  26121 59133 32765 83412 10076 20008 40313 52020 885// 333 91119 91532;EQDQ01  00002PRCP99
0188591330999992000012618004+24800+118580FM-12+002299999V0203401N009010150019N0150001N1+00681-00131103101ADDAA199000091GF108991081051017501999999KA1240M+00871MD1710021+9999OA130601701REMSYN082AAXX  26181 59133 32765 83409 10068 21013 40310 57002 885// 333 10087 91117 91534;EQDQ01  00002PRCP99
0122591330999992000012621004+24800+118580FM-12+002299999V0203401N010012200019N0015001N1+00601-00351103051ADDGA1001+999999999GF100991001001999999001001MD1710051+9999REMSYN054AAXX  26211 59133 42915 03410 10060 21035 40305 57005;
0170591330999992000012700004+24800+118580FM-12+002299999V0203401N011012200019N0180001N1+00541-00401103301ADDAA199000091GF101991011001999999031001IA2999+00309MD1210251+0101REMSYN076AAXX  27001 59133 32968 13411 10054 21040 40330 52025 81030 333 00100 30032;EQDQ01  00002PRCP99
0188591330999992000012706004+24800+118580FM-12+002299999V0200401N011012200019N0150001N1+00801-00231102921ADDAA199000091GF101991001001999999001021KA1240N+00491MD1710351+9999OA130601801REMSYN082AAXX  27061 59133 32965 10411 10080 21023 40292 57035 80002 333 20049 91118 91534;EQDQ01  00002PRCP99
0198591330999992000012718004+24800+118580FM-12+002299999V0200401N011012200019N0150001N1+00621-00011103041ADDAA199000091GA1001+999999999GF100991001001999999001001KA1240M+00861MD1710021+9999OA130601801REMSYN076AAXX  27181 59133 32965 00411 10062 21001 40304 57002 333 10086 91118 91504;EQDQ01  00002PRCP99
0193591330999992000012800004+24800+118580FM-12+002299999V0200401N008010150019N0110001N1+00561-00091103121ADDAA199000091GF107991071051017501999999IA2999+00309MD1210121-0201OA130601701REMSYN088AAXX  28001 59133 32761 70408 10056 21009 40312 52012 875// 333 05200 30030 91117 91504;EQDQ01  00002PRCP99
0165591330999992000012806004+24800+118580FM-12+002299999V0200401N009010150019N0120001N1+00971+00201102751ADDAA199000091GF107991071051017501999999KA1999N+00521MD1710341+9999REMSYN070AAXX  28061 59133 32762 70409 10097 20020 40275 57034 875// 333 20052;EQDQ01  00002PRCP99
0142591330999992000012812004+24800+118580FM-12+002299999V0200401N009010150019N0120001N1+00891+00411102891ADDAA199000091GF108991081051017501999999MD1210151+9999REMSYN060AAXX  28121 59133 32762 80409 10089 20041 40289 52015 885//;EQDQ01  00002PRCP99
0152591330999992000012900004+24800+118580FM-12+002299999V0200401N003019999999N0120001N1+00991+00521102861ADDAA199000091GF107991071001999999031999MD1210131+0031REMSYN070AAXX  29001 59133 32962 70403 10099 20052 40286 52013 8703/ 333 05304;EQDQ01  00002PRCP99
0165591330999992000012906004+24800+118580FM-12+002299999V0200401N004010150019N0150001N1+01461+00771102681ADDAA199000091GF107991071051017501999999KA1999N+00861MD1710211+9999REMSYN070AAXX  29061 59133 32765 70404 10146 20077 40268 57021 875// 333 20086;EQDQ01  00002PRCP99
0119591330999992000012921004+24800+118580FM-12+002299999V0200401N010019999999N0150001N1+00301+99999103001ADDGF108991999999017501999999MD1210532+9999REMSYN048AAXX  29211 59133 42765 80410 10030 40300 52053;EQDQ01+000532APC3  
0152591330999992000013000004+24800+118580FM-12+002299999V0200401N009010150019N0130001N1+01051+00331103181ADDAA199000091GF107991071051017501999999MD1210181+0031REMSYN070AAXX  30001 59133 32763 70409 10105 20033 40318 52018 875// 333 00301;EQDQ01  00002PRCP99
0188591330999992000013006004+24800+118580FM-12+002299999V0200401N011012200019N0120001N1+01201+00281102961ADDAA199000091GF103991001001999999001021KA1240N+00981MD1710241+9999OA130601801REMSYN082AAXX  30061 59133 32962 30411 10120 20028 40296 57024 80002 333 20098 91118 91504;EQDQ01  00002PRCP99
0169591330999992000013012004+24800+118580FM-12+002299999V0200401N013012200019N0120001N1+00901+00231103281ADDAA199000091GF102991001001999999001021MD1210251+9999OA130602201REMSYN076AAXX  30121 59133 32962 20413 1009/ 20023 40328 52025 80002 333 91122 91904;EQDQ01  00002PRCP99
0188591330999992000013018004+24800+118580FM-12+002299999V0200401N013019999999N0100001N1+00781+00161103261ADDAA199000091GF107991071001999999031999KA1240M+01251MD1710101+9999OA130602101REMSYN082AAXX  30181 59133 32960 70413 10078 20016 40326 57010 8703/ 333 10125 91121 91536;EQDQ01  00002PRCP99
0158591330999992000013100004+24800+118580FM-12+002299999V0200401N012010150019N0110001N1+00681-00061103341ADDAA199000091GF107991061051017501031999MD1210091+0201REMSYN076AAXX  31001 59133 32761 70412 10068 21006 40334 52009 8653/ 333 00250 11/91;EQDQ01  00002PRCP99
0195591330999992000013106004+24800+118580FM-12+002299999V0200401N010010120019N0110001N1+00711+00071102931ADDAA106000791AY161061GF107991071051012501999999KA1240N+00671MD1710361+9999MW1001OA130602201REMSYN094AAXX  31061 59133 11661 70410 10071 20007 40293 57036 69901 70060 875// 333 20067 91122 91536;
0184591330999992000013112004+24800+118580FM-12+002299999V0200401N013010120019N0110001N1+00701+00061103041ADDAA106000791AY161061AY261061GF108991081051012501999999MD1210081+9999MW1211OA130602101REMSYN088AAXX  31121 59133 11661 80413 10070 20006 40304 52008 69901 72166 885// 333 91121 91536;
0191591330999992000013118004+24800+118580FM-12+002299999V0200401N012019999999N0120001N1+00691+00021102951ADDAY161061GF108991999999012501999999KA1240M+00801MD1811702+9999MW1211OA130601901REMSYN082AAXX  31181 59133 11662 80412 10069 20002 40295 5817/ 72160 333 10080 91119 91536;EQDQ01+001702APC3  
0153591330999992000013121004+24800+118580FM-12+002299999V0200401N010010120019N0120001N1+00641+00011102871ADDAA124000791AY161031GF108991081051012501999999MD1710081+9999MW1211REMSYN076AAXX  31211 59133 41662 80410 10064 20001 40287 57008 72160 885// 333 79999;
0206591330999992000020100004+24800+118580FM-12+002299999V0200401N008010120019N0110001N1+00731+00211103081ADDAA106000791AY161061GF108991081051012501999999IA2999+00469MD1210211-0301MW1601OA130601901REMSYN106AAXX  01001 59133 11661 80408 10073 20021 40308 52021 69901 76060 885// 333 05301 30046 79999 91119 91536;
0195591330999992000020106004+24800+118580FM-12+002299999V0200401N012010120019N0150001N1+00831+00361102781ADDAA106000591AY161061GF107991061051012501031999KA1240N+00511MD1710321+9999MW1211OA130601801REMSYN094AAXX  01061 59133 11665 70412 10083 20036 40278 57032 69951 72160 8653/ 333 20051 91118 91509;
0195591330999992000020118004+24800+118580FM-12+002299999V0200401N010010120019N0100001N1+00721+00441102611ADDAA106000791AY161061GF108991081051012501999999KA1240M+00891MD1710161+9999MW1001OA130601901REMSYN094AAXX  01181 59133 11660 80410 10072 20044 40261 57016 69901 70060 885// 333 10089 91119 91536;
0161591330999992000020121004+24800+118580FM-12+002299999V0200401N010010120019N0100001N1+00771+00541102551ADDAA124000891AY161031AY261031GF108991081051012501999999MD1710061+9999MW1211REMSYN076AAXX  01211 59133 /1660 80410 10077 20054 40255 57006 72166 885// 333 70007;
0165591330999992000020200004+24800+118580FM-12+002299999V0200401N009010120019N0100001N1+00821+00551102731ADDAA106000191AY161061GF108991081051012501999999MD1210181-0401MW1211REMSYN088AAXX  02001 59133 11660 80409 10082 20055 40273 52018 69921 72160 885// 333 05401 70007;
0172591330999992000020206004+24800+118580FM-12+002299999V0200401N009010360019N0120001N1+01271+00761102421ADDAA106000791AY161061GF107991041051017501031999KA1999N+00681MD1710291+9999MW1001REMSYN082AAXX  02061 59133 11762 70409 10127 20076 40242 57029 69901 70060 8453/ 333 20068;
0133591330999992000020221004+24800+118580FM-12+002299999V0200401N004010120019N0120001N1+01121+00901102291ADDAA124000791GF108991081051012501999999MD1710051+9999REMSYN070AAXX  02211 59133 42662 80404 10112 20090 40229 57005 885// 333 79999;
0139591330999992000020300004+24800+118580FM-12+002299999V0200401N004010150019N0130001N1+01191+00911102401ADDAA124000791GF107991071051017501999999MD1210111-0301REMSYN076AAXX  03001 59133 32763 70404 10119 20091 40240 52011 875// 333 05304 79999;
0165591330999992000020306004+24800+118580FM-12+002299999V0200401N006010150019N0150001N1+01421+01001102211ADDAA199000091GF107991071051017501999999KA1999N+01071MD1710261+9999REMSYN070AAXX  03061 59133 32765 70406 10142 20100 40221 57026 875// 333 20107;EQDQ01  00002PRCP99
0139591330999992000020400004+24800+118580FM-12+002299999V0200401N010010120019N0120001N1+01111+00711102361ADDAA124000791GF108991081051012501999999MD1210071+0001REMSYN076AAXX  04001 59133 32662 80410 10111 20071 40236 52007 885// 333 00051 79999;
0165591330999992000020406004+24800+118580FM-12+002299999V0203601N009010150019N0120001N1+01271+00801101991ADDAA199000091GF108991081051017501999999KA1999N+00941MD1710331+9999REMSYN070AAXX  04061 59133 32762 83609 10127 20080 40199 57033 885// 333 20094;EQDQ01  00002PRCP99
0112591330999992000020421004+24800+118580FM-12+002299999V0200401N004010120019N0100001N1+99999+99999102021ADDGF108991081051012501999999MD1410001+9999REMSYN060AAXX  04211 59133 42660 80404 10/26 20094 40202 54000 885//;
0152591330999992000020500004+24800+118580FM-12+002299999V0200401N004010120019N0110001N1+01261+00991102031ADDAA199000091GF108991081051012501999999MD1210011+0031REMSYN070AAXX  05001 59133 32661 80404 10126 20099 40203 52001 885// 333 05302;EQDQ01  00002PRCP99
0181591330999992000020506004+24800+118580FM-12+002299999V0200901N004010150019N0110001N1+01611+01111101731ADDAA199000091GF107991071051017501999999KA1999N+01181MD1012502+9999REMSYN070AAXX  05061 59133 32761 70904 10161 20111 40173 5025/ 875// 333 20118;EQDQ01+002502APC3  Q02  00002PRCP99
0152591330999992000020512004+24800+118580FM-12+002299999V0200901N007012200019N0120001N1+01281+00951101841ADDAA199000091GA1001+999999999GF100991001001999999001001MD1210181+9999REMSYN054AAXX  05121 59133 32962 00907 10128 20095 40184 52018;EQDQ01  00002PRCP99
0134591330999992000020521004+24800+118580FM-12+002299999V0200401N008012200019N0080001N1+01181+00961101721ADDGA1001+999999999GF100991001001999999001001MD1710081+9999MW1101REMSYN060AAXX  05211 59133 41958 00408 10118 20096 40172 57008 71000;
0164591330999992000020600004+24800+118580FM-12+002299999V0203601N004012200019N0030001N1+01521+01401101561ADDAA199000091GF103991031051017501031001MD1210161+0001MW1101REMSYN076AAXX  06001 59133 31730 33604 10152 20140 40156 52016 71000 83530 333 00001;EQDQ01  00002PRCP99
0165591330999992000020606004+24800+118580FM-12+002299999V0200401N010010150019N0100001N1+01331+00891101651ADDAA199000091GF107991071051017501999999KA1999N+01121MD1710241+9999REMSYN070AAXX  06061 59133 32760 70410 10133 20089 40165 57024 875// 333 20112;EQDQ01  00002PRCP99
0165591330999992000020618004+24800+118580FM-12+002299999V0203401N007012200019N0100001N1+00971+00531101831ADDAA199000091GF102991021001999999031001KA1999M+01391MD1710071+9999REMSYN070AAXX  06181 59133 32960 23407 10097 20053 40183 57007 82030 333 10139;EQDQ01  00002PRCP99
0128591330999992000020621004+24800+118580FM-12+002299999V0203601N006012200019N0080001N1+00981+00491101771ADDGA1001+999999999GF100991001001999999001001MD1710061+9999REMSYN060AAXX  06211 59133 41958 03606 10098 20049 40177 57006 71/10;
0152591330999992000020700004+24800+118580FM-12+002299999V0200901N004012200019N0100001N1+01011+00571101871ADDAA199000091GF101991011001999999031001MD1210101+0001REMSYN070AAXX  07001 59133 32960 10904 10101 20057 40187 52010 81030 333 00052;EQDQ01  00002PRCP99
0165591330999992000020706004+24800+118580FM-12+002299999V0200901N007012200019N0120001N1+01331+00511101631ADDAA199000091GF101991001001999999001021KA1999N+00951MD1710231+9999REMSYN070AAXX  07061 59133 32962 10907 10133 20051 40163 57023 80002 333 20095;EQDQ01  00002PRCP99
0175591330999992000020718004+24800+118580FM-12+002299999V0200401N006012200019N0100001N1+01041+00461101851ADDAA199000091GA1001+999999999GF100991001001999999001001KA1999M+01411MD1710091+9999REMSYN064AAXX  07181 59133 32960 00406 10104 20046 40185 57009 333 10141;EQDQ01  00002PRCP99
0122591330999992000020721004+24800+118580FM-12+002299999V0203601N007012200019N0100001N1+01001+00331101921ADDGA1001+999999999GF100991001001999999001001MD1210071+9999REMSYN054AAXX  07211 59133 42960 03607 10100 20033 40192 52007;
0120591330999992000020800004+24800+118580FM-12+002299999V0200601N009019999999N0110001N1+00931+00381102171ADDAA199000091MD1219999+0031REMSYN064AAXX  08001 59133 32961 /0609 10093 20038 40217 52/25 333 00351;EQDQ01  00002PRCP99
0175591330999992000020806004+24800+118580FM-12+002299999V0200901N010012200019N0120001N1+01211+00331102041ADDAA199000091GA1001+999999999GF100991001001999999001001KA1999N+00911MD1710201+9999REMSYN064AAXX  08061 59133 32962 00910 10121 20033 40204 57020 333 20091;EQDQ01  00002PRCP99
0112591330999992000020821004+24800+118580FM-12+002299999V0200401N008010150019N9999999N1+00861+00261102181ADDGF107991071051017501999999MD1710011+9999REMSYN060AAXX  08211 59133 4276/ 70408 10086 20026 40218 57001 875//;
0164591330999992000020900004+24800+118580FM-12+002299999V0200401N010010150019N0080001N1+00821+00211102291ADDAA199000091GF107991071051017501031999MD1210111+0011MW1061REMSYN076AAXX  09001 59133 31758 70410 10082 20021 40229 52011 70600 8753/ 333 00151;EQDQ01  00002PRCP99
0142591330999992000020912004+24800+118580FM-12+002299999V0200401N007010120019N0120001N1+01001+00381102091ADDAA199000091GF108991081051012501999999MD1210061+9999REMSYN060AAXX  09121 59133 32662 80407 10100 20038 40209 52006 885//;EQDQ01  00002PRCP99
0165591330999992000021000004+24800+118580FM-12+002299999V0200401N004010120019N0120001N1+01051+00781101971ADDAA106000791AY161061GF108991081051012501999999MD1210061-0301MW1601REMSYN088AAXX  10001 59133 11662 80404 10105 20078 40197 52006 69901 76060 885// 333 05302 79999;
0172591330999992000021006004+24800+118580FM-12+002299999V0200401N003010120019N0080001N1+01161+00921101751ADDAA106000791AY161061GF108991081051012501999999KA1999N+00981MD1710311+9999MW1601REMSYN082AAXX  10061 59133 11658 80403 10116 20092 40175 57031 69901 76060 885// 333 20098;
0145591330999992000021021004+24800+118580FM-12+002299999V0209999C000010120019N0020001N1+01091+00991101671ADDAA124000791GF107991071051012501999999MD1710121+9999MW1101REMSYN076AAXX  10211 59133 41620 70000 10109 20099 40167 57012 71000 875// 333 79999;
0151591330999992000021100004+24800+118580FM-12+002299999V0200401N002012200019N0030001N1+01101+01001101881ADDAA124000791GF101991011001999999031001MD1210211-0101MW1101REMSYN082AAXX  11001 59133 31930 10402 10110 20100 40188 52021 71000 81030 333 05101 79999;
0165591330999992000021106004+24800+118580FM-12+002299999V0200401N006012200019N0110001N1+01531+01081101651ADDAA199000091GF101991011001999999031001KA1999N+01031MD1710231+9999REMSYN070AAXX  11061 59133 32961 10406 10153 20108 40165 57023 81030 333 20103;EQDQ01  00002PRCP99
0112591330999992000021121004+24800+118580FM-12+002299999V0200201N006010120019N0120001N1+01201+00881101741ADDGF108991081051012501999999MD1710041+9999REMSYN060AAXX  11211 59133 42662 80206 10120 20088 40174 57004 885//;
0152591330999992000021200004+24800+118580FM-12+002299999V0200401N006010120019N0120001N1+01281+00951101811ADDAA199000091GF107991071051012501999999MD1210071+0011REMSYN070AAXX  12001 59133 32662 70406 10128 20095 40181 52007 875// 333 05102;EQDQ01  00002PRCP99
0165591330999992000021206004+24800+118580FM-12+002299999V0200401N006010150019N0120001N1+01651+01051101481ADDAA199000091GF107991071051017501999999KA1999N+01141MD1710291+9999REMSYN070AAXX  12061 59133 32762 70406 10165 20105 40148 57029 875// 333 20114;EQDQ01  00002PRCP99
0165591330999992000021218004+24800+118580FM-12+002299999V0200401N006010150019N0100001N1+01391+01131101641ADDAA199000091GF107991071051017501999999KA1999M+01751MD1710021+9999REMSYN070AAXX  12181 59133 32760 70406 10139 20113 40164 57002 875// 333 10175;EQDQ01  00002PRCP99
0152591330999992000021300004+24800+118580FM-12+002299999V0203601N006010150019N0100001N1+01441+01161101651ADDAA199000091GF107991071051017501999999MD1210071+0021REMSYN070AAXX  13001 59133 32760 73606 10144 20116 40165 52007 875// 333 05202;EQDQ01  00002PRCP99
0165591330999992000021306004+24800+118580FM-12+002299999V0200901N004012200019N0150001N1+01971+01241101251ADDAA199000091GF104991041001999999031001KA1999N+01321MD1710291+9999REMSYN070AAXX  13061 59133 32965 40904 10197 20124 40125 57029 84030 333 20132;EQDQ01  00002PRCP99
0152591330999992000021312004+24800+118580FM-12+002299999V0200401N005012200019N0120001N1+01461+01141101301ADDAA199000091GA1001+999999999GF100991001001999999001001MD1210091+9999REMSYN054AAXX  13121 59133 32962 00405 10146 20114 40130 52009;EQDQ01  00002PRCP99
0174591330999992000021318004+24800+118580FM-12+002299999V0209999C000012200019N0100001N1+01341+01191101331ADDAA199000091GA1001+999999999GF100991001001999999001001KA1999M+01991MD1710021+9999REMSYN063AAXX  13181 59133 32960 00000 10134 20119 4013357002 333 10199;EQDQ01  00002PRCP99
0124591330999992000021321004+24800+118580FM-12+002299999V0201801N001010150019N0070001N1+01241+01161101351ADDGF107991071051017501999999MD1210011+9999MW1101REMSYN066AAXX  13211 59133 41757 71801 10124 20116 40135 52001 71000 875//;
0164591330999992000021400004+24800+118580FM-12+002299999V0209999C000010150019N0080001N1+01401+01231101551ADDAA199000091GF108991081051017501999999MD1210201+0011MW1101REMSYN076AAXX  14001 59133 31758 80000 10140 20123 40155 52020 71000 885// 333 05100;EQDQ01  00002PRCP99
0165591330999992000021406004+24800+118580FM-12+002299999V0200901N007010150019N0110001N1+01521+01151101451ADDAA199000091GF107991071051017501999999KA1999N+01211MD1710181+9999REMSYN070AAXX  14061 59133 32761 70907 10152 20115 40145 57018 875// 333 20121;EQDQ01  00002PRCP99
0152591330999992000021500004+24800+118580FM-12+002299999V0200401N010010150019N0110001N1+01121+00601102271ADDAA199000091GF107991071051017501999999MD1210161+0071REMSYN070AAXX  15001 59133 32761 70410 10112 20060 40227 52016 875// 333 00753;EQDQ01  00002PRCP99
0165591330999992000021506004+24800+118580FM-12+002299999V0200401N009012200019N0100001N1+01261+00421102181ADDAA199000091GF101991011051017501001001KA1999N+01101MD1710171+9999REMSYN070AAXX  15061 59133 32760 10409 10126 20042 40218 57017 81500 333 20110;EQDQ01  00002PRCP99
0112591330999992000021512004+24800+118580FM-12+002299999V0200401N008019999999N0100001N1+01091+00131102331ADDGF107991071001999999031999MD1210161+9999REMSYN060AAXX  15121 59133 //960 70408 10109 20013 40233 52016 8703/;
0165591330999992000021518004+24800+118580FM-12+002299999V0200401N007019999999N0110001N1+01121+00321102201ADDAA199000091GF107991071001999999031999KA1999M+01351MD1710121+9999REMSYN070AAXX  15181 59133 32961 70407 10112 20032 4022/ 57012 8703/ 333 10135;EQDQ01  00002PRCP99
0112591330999992000021521004+24800+118580FM-12+002299999V0200401N001019999999N0110001N1+01091+00331102131ADDGF107991071001999999031999MD1710071+9999REMSYN060AAXX  15211 59133 42961 70401 10109 20033 40213 57007 8703/;
0168591330999992000021600004+24800+118580FM-12+002299999V0200201N008012200019N0120001N1+01091+00441102211ADDAA199000091GA1001+999999999GF100991001001999999001001MD1210081+0011REMSYN070AAXX  16001 59133 32762 00208 10109 20044 40221 52008 885// 333 05100;EQDQ01  00002PRCP99
0165591330999992000021606004+24800+118580FM-12+002299999V0200401N008010150019N0110001N1+01361+00651102011ADDAA199000091GF107991071051017501999999KA1999N+01051MD1710221+9999REMSYN070AAXX  16061 59133 32761 70408 10136 20065 40201 57022 875// 333 20105;EQDQ01  00002PRCP99
0153591330999992000021621004+24800+118580FM-12+002299999V0200401N008010120019N0100001N1+00841+00571102211ADDAA124000791AY161031GF108991081051012501999999MD1710031+9999MW1001REMSYN076AAXX  16211 59133 41660 80408 10084 20057 40221 57003 70060 885// 333 79999;
0165591330999992000021706004+24800+118580FM-12+002299999V0203401N007010120019N0120001N1+01211+00761102061ADDAA199000091GF107991071051012501999999KA1999N+00811MD1710341+9999REMSYN070AAXX  17061 59133 32662 73407 10121 20076 40206 57034 875// 333 20081;EQDQ01  00002PRCP99
0145591330999992000021718004+24800+118580FM-12+002299999V0200401N008010150019N9999999N1+01401+99999101981ADDAA199000091GF108991081081012501999999MD1710131+9999REMSYN063AAXX  17181 59133 366// 80408 1014/ 40198 57013 888// 333 1019;EQDQ01  00002PRCP99
0112591330999992000021721004+24800+118580FM-12+002299999V0203601N006010120019N0120001N1+01291+01021101851ADDGF108991081051012501999999MD1710131+9999REMSYN060AAXX  17211 59133 42662 83606 10129 20102 40185 57013 885//;
0152591330999992000021800004+24800+118580FM-12+002299999V0200401N006010150019N0110001N1+01321+01071101861ADDAA199000091GF108991081051017501999999MD1210011+0051REMSYN070AAXX  18001 59133 32761 80406 10132 20107 40186 52001 885// 333 05504;EQDQ01  00002PRCP99
0165591330999992000021806004+24800+118580FM-12+002299999V0201801N003010150019N0120001N1+01521+01171101521ADDAA199000091GF107991071051017501031999KA1999N+01111MD1710291+9999REMSYN070AAXX  18061 59133 32762 71803 10152 20117 40152 57029 8753/ 333 20111;EQDQ01  00002PRCP99
0142591330999992000021812004+24800+118580FM-12+002299999V0201601N005010150019N0120001N1+01271+01181101351ADDAA199000091GF107991071051017501999999MD1710081+9999REMSYN060AAXX  18121 59133 32762 71605 10127 20118 40135 57008 875//;EQDQ01  00002PRCP99
0121591330999992000021821004+24800+118580FM-12+002299999V0209999C000019999999N0060001N1+99999+99999101061ADDAA124999999AY161031MD1710071+9999MW1101REMSYN070AAXX  18211 59133 /1756 /0000 20136 40106 57007 71060 875// 333 7999/;
0165591330999992000021900004+24800+118580FM-12+002299999V0201801N001010120019N0012001N1+01441+01391101161ADDAA106000591AY161061GF108991081051012501999999MD1210091-0701MW1601REMSYN088AAXX  19001 59133 11612 81801 10144 20139 40116 52009 69941 76060 885// 333 05701 70004;
0190591330999992000021906004+24800+118580FM-12+002299999V0202201N004010003019N0003001N1+01551+01531100831ADDAA106000791AY161061AY241061GA1091+999999999GF109991091999999999999999KA1999N+01251MD1710301+9999MW1471REMSYN076AAXX  19061 59133 11/03 92204 10155 20153 40083 57030 69901 74764 333 20125;
0167591330999992000021912004+24800+118580FM-12+002299999V0201801N006010001519N0001001N1+01461+01461100921ADDAA106000591AY161061AY241061GA1091+999999999GF109991091999999999999999MD1210141+9999MW1451REMSYN066AAXX  19121 59133 11/01 91806 10146 20146 40092 52014 69941 74564;
0161591330999992000021921004+24800+118580FM-12+002299999V0200401N008010120019N0030001N1+01151+01131101171ADDAA124001891AY161031AY241031GF108991081051012501999999MD1210011+9999MW1601REMSYN076AAXX  19211 59133 41630 80408 10115 20113 40117 52001 76064 885// 333 70019;
0178591330999992000022000004+24800+118580FM-12+002299999V0200401N009010120019N0110001N1+01061+01001101441ADDAA106005191AY141061GF108991081051012501999999MD1210271+0301REMSYN088AAXX  20001 59133 11661 80409 10106 2010/ 40144 52027 60051 7664/ 885// 333 00354 70052;EQDQ01+000662PRSWM1
0165591330999992000022100004+24800+118580FM-12+002299999V0200401N011010120019N0100001N1+00821+00581101941ADDAA106022191AY161061GF108991081051012501999999MD1210131+0501MW1601REMSYN088AAXX  21001 59133 11660 80411 10082 20058 40194 52013 60221 76060 885// 333 00552 70241;
0180591330999992000022106004+24800+118580FM-12+002299999V0200401N007010120019N0080001N1+00891+00531101731ADDAA106002091AY161061AY261061GF108991081051012501999999KA1999N+00781MD1710291+9999MW1601REMSYN082AAXX  21061 59133 11658 80407 10089 20053 40173 57029 60021 76066 885// 333 20078;
0161591330999992000022121004+24800+118580FM-12+002299999V0200401N005010120019N0080001N1+00941+00901101621ADDAA124020391AY161031AY261031GF108991081051012501999999MD1210011+9999MW1601REMSYN076AAXX  21211 59133 41658 80405 10094 20090 40162 52001 76066 885// 333 70202;
0173591330999992000022200004+24800+118580FM-12+002299999V0200401N008010120019N0120001N1+00981+00841101781ADDAA106007191AY161061AY261061GF108991081051012501999999MD1210161-0201MW1601REMSYN088AAXX  22001 59133 11662 80408 10098 20084 40178 52016 60071 76066 885// 333 05202 70161;
0172591330999992000022206004+24800+118580FM-12+002299999V0200401N008010120019N0150001N1+01131+00911101561ADDAA106004191AY161061GF108991081051012501999999KA1999N+00761MD1710261+9999MW1001REMSYN082AAXX  22061 59133 11665 80408 10113 20091 40156 57026 60041 70060 885// 333 20076;
0152591330999992000022218004+24800+118580FM-12+002299999V0200401N008010120019N9999999N1+01091+00801101541ADDAA100007191GF108991081051012501999999KA1999M+01151MD1710151+9999REMSYN076AAXX  22181 59133 116// 80408 10109 20080 40154 57015 60070 885// 333 10115;
0153591330999992000022221004+24800+118580FM-12+002299999V0203601N007010120019N0120001N1+01041+00941101451ADDAA124015591AY161031GF108991081051012501999999MD1710091+9999MW1601REMSYN076AAXX  22211 59133 41662 83607 10104 20094 40145 57009 76060 885// 333 70155;
0165591330999992000022300004+24800+118580FM-12+002299999V0203601N007010120019N0100001N1+01061+01001101711ADDAA106007991AY161061GF108991081051012501999999MD1210261-0101MW1601REMSYN088AAXX  23001 59133 11660 83607 10106 20100 40171 52026 60081 76060 885// 333 05101 70163;
0132591330999992000022303004+24800+118580FM-12+002299999V0200401N008010120019N0110001N1+01071+00971101711ADDAY161031GF108991081051012501999999MD1410001+9999MW1601REMSYN066AAXX  23031 59133 41661 80408 10107 20097 40171 54000 76060 885//;
0172591330999992000022306004+24800+118580FM-12+002299999V0200201N007010120019N0120001N1+01041+00961101511ADDAA106004191AY161061GF108991081051012501999999KA1999N+00881MD1710201+9999MW1601REMSYN082AAXX  23061 59133 11662 80207 10104 20096 40151 57020 60041 76060 885// 333 20088;
0157591330999992000022312004+24800+118580FM-12+002299999V0200401N009010120019N0120001N1+01061+00881101761ADDAA106002091AY161061AY261061GF108991081051012501999999MD1210181+9999MW1211REMSYN072AAXX  23121 59133 11662 80409 10106 20088 40176 52018 60021 72166 885//;
0146591330999992000022318004+24800+118580FM-12+002299999V0203601N009010120019N0150001N1+00961+00731101921ADDAA199000021GF108991081051012501999999KA1999M+01141MD1210031+9999REMSYN070AAXX  23181 59133 32665 83609 10096 20073 40192 52003 885// 333 10114;
0133591330999992000022321004+24800+118580FM-12+002299999V0200401N010010120019N0150001N1+00991+00621101951ADDAA124010791GF108991081051012501999999MD1210031+9999REMSYN070AAXX  23211 59133 42665 80410 10099 20062 40195 52003 885// 333 70106;
0188591330999992000022400004+24800+118580FM-12+002299999V0200401N011010120019N0120001N1+00911+00721102041ADDAA106000891AY161061GF108991081051012501999999MD1210091+0301MW1601OA130601801REMSYN100AAXX  24001 59133 11662 80411 10091 20072 40204 52009 69971 76060 885// 333 00352 70066 91118 91504;
0172591330999992000022406004+24800+118580FM-12+002299999V0200401N010010120019N0150001N1+00981+00611101881ADDAA106003091AY161061GF108991081051012501999999KA1999N+00851MD1710311+9999MW1601REMSYN082AAXX  24061 59133 11665 80410 10098 20061 40188 57031 60031 76060 885// 333 20085;
0161591330999992000022421004+24800+118580FM-12+002299999V0200201N010010120019N0060001N1+00791+00661101991ADDAA124017091AY161031AY261031GF108991081051012501999999MD1210021+9999MW1601REMSYN076AAXX  24211 59133 41656 80210 10079 20066 40199 52002 76066 885// 333 70171;
0146591330999992000022506004+24800+118580FM-12+002299999V0203601N006010150019N0150001N1+01061+00531101951ADDAA199000021GF108991081051017501999999KA1999N+00731MD1710171+9999REMSYN070AAXX  25061 59133 32765 83606 10106 20053 40195 57017 885// 333 20073;
0149591330999992000022512004+24800+118580FM-12+002299999V0200401N004010120019N0120001N1+00941+00661102171ADDAA106000591AY161061GF108991081051012501999999MD1210201+9999MW1211REMSYN072AAXX  25121 59133 11662 80404 10094 20066 40217 52020 69951 72160 885//;
0153591330999992000022521004+24800+118580FM-12+002299999V0200901N005010150019N0150001N1+00941+00641102211ADDAA124001091AY161031GF107991071051017501999999MD1210061+9999MW1601REMSYN076AAXX  25211 59133 41765 70905 10094 20064 40221 52006 76060 875// 333 70010;
0165591330999992000022600004+24800+118580FM-12+002299999V0200401N007010360019N0150001N1+00921+00641102391ADDAA106000791AY161061GF107991031051017501031999MD1210181+0201MW1001REMSYN088AAXX  26001 59133 11765 70407 10092 20064 40239 52018 69901 70060 8353/ 333 00201 70005;
0146591330999992000022606004+24800+118580FM-12+002299999V0200401N008010150019N0150001N1+01001+00381102311ADDAA199000021GF107991061051017501031999KA1999N+00861MD1710231+9999REMSYN070AAXX  26061 59133 32765 70408 10100 20038 40231 57023 8653/ 333 20086;
0159591330999992000022618004+24800+118580FM-12+002299999V0203601N004010150019N0150001N1+00971+99999102331ADDAA199000091GF108991081051017501999999KA1999M+01151MD1710151+9999REMSYN064AAXX  26181 59133 32765 83604 10097 40233 57015 885// 333 10115;EQDQ01  00002PRCP99
0165591330999992000022700004+24800+118580FM-12+002299999V0203401N007010150019N0150001N1+01051+00361102341ADDAA106000791AY161061GF107991071051017501031999MD1210061-0101MW1211REMSYN088AAXX  27001 59133 11765 73407 10105 20036 40234 52006 69901 72160 8753/ 333 05101 79999;
0146591330999992000022706004+24800+118580FM-12+002299999V0203601N008010150019N0120001N1+01111+00491102201ADDAA199000021GF108991081051017501999999KA1999N+00911MD1710161+9999REMSYN070AAXX  27061 59133 32762 83608 10111 20049 40220 57016 885// 333 20091;
0161591330999992000022721004+24800+118580FM-12+002299999V0203601N007010120019N0100001N1+00851+00721102141ADDAA124001591AY161031AY261031GF108991081051012501999999MD1410001+9999MW1601REMSYN076AAXX  27211 59133 41660 83607 10085 20072 40214 54000 76066 885// 333 70015;
0173591330999992000022800004+24800+118580FM-12+002299999V0200401N008010120019N0080001N1+00811+00751102331ADDAA106001091AY161061AY261061GF108991081051012501999999MD1210191+0001MW1601REMSYN088AAXX  28001 59133 11658 80408 10081 20075 40233 52019 60011 76066 885// 333 00052 70026;
0180591330999992000022806004+24800+118580FM-12+002299999V0200201N009010120019N0080001N1+00911+00831102151ADDAA106003091AY161061AY261061GF108991081051012501999999KA1999N+00781MD1710191+9999MW1601REMSYN082AAXX  28061 59133 11658 80209 10091 20083 40215 57019 60031 76066 885// 333 20078;
0162591330999992000022900004+24800+118580FM-12+002299999V0200201N010010150019N0150001N1+00921+00471102531ADDAA124002891GF107991071051017501999999MD1210041+0201OA130601701REMSYN088AAXX  29001 59133 32765 70210 10092 20047 40253 52004 875// 333 00201 70028 91117 91536;
0188591330999992000022906004+24800+118580FM-12+002299999V0200201N010010150019N0120001N1+01011+00291102281ADDAA199000091GF108991081051017501999999KA1240N+00821MD1710211+9999OA130601801REMSYN082AAXX  29061 59133 32762 80210 10101 20029 40228 57021 885// 333 20082 91118 91536;EQDQ01  00002PRCP99
0169591330999992000022912004+24800+118580FM-12+002299999V0200401N009010150019N0130001N1+00951+00001102531ADDAA199000091GF108991081051017501999999MD1210221+9999OA130601701REMSYN076AAXX  29121 59133 32763 80409 10095 2100/ 40253 52022 885// 333 91117 91504;EQDQ01  00002PRCP99
0172591330999992000030106004+24800+118580FM-12+002299999V0200201N007010150019N0120001N1+01181+00721102111ADDAA106000191AY161061GF107991071051017501999999KA1999N+00881MD1710351+9999MW1211REMSYN082AAXX  01061 59133 11762 70207 10118 20072 40211 57035 69911 72160 875// 333 20088;
0180591330999992000030118004+24800+118580FM-12+002299999V0200401N004010120019N0080001N1+01041+00981102081ADDAA106002091AY161061AY261061GF108991081051012501999999KA1999M+01211MD1710151+9999MW1601REMSYN082AAXX  01181 59133 11658 80404 10104 20098 40208 57015 60021 76066 885// 333 10121;
0139591330999992000030121004+24800+118580FM-12+002299999V0203601N004010120019N0070001N1+01001+01001102021ADDAA124004391GF108991081051012501999999MD1710061+9999REMSYN076AAXX  01211 59133 //657 83604 1010/ 20100 40202 57006 76066 885// 333 70044;
0172591330999992000031406004+24800+118580FM-12+002299999V0200901N005019999999N0100001N1+01711+01381101551ADDAA106001091AY161061GF107991071001999999031999KA1999N+01301MD1710211+9999MW1001REMSYN082AAXX  14061 59133 11960 70905 10171 20138 40155 57021 60011 70060 8703/ 333 20130;
0142591330999992000031412004+24800+118580FM-12+002299999V0200401N006010120019N0100001N1+01351+01221101681ADDAA199000091GF108991081051012501999999MD1210101+9999REMSYN060AAXX  14121 59133 32660 80406 10135 20122 40168 52010 885//;EQDQ01  00002PRCP99
0153591330999992000031421004+24800+118580FM-12+002299999V02099999999990120019N0060001N1+01461+01371101431ADDAA124014591AY161031GF108991081051012501999999MD1710061+9999MW1101REMSYN076AAXX  14211 59133 41656 8000/ 10146 20137 40143 57006 71060 885// 333 70146;
0175591330999992000032406004+24800+118580FM-12+002299999V0203601N008012200019N0120001N1+01701+00691102171ADDAA199000091GA1001+999999999GF100991001001999999001001KA1999N+01351MD1710251+9999REMSYN064AAXX  24061 59133 32962 03608 10170 20069 40217 57025 333 20135;EQDQ01  00002PRCP99
0133591330999992000032421004+24800+118580FM-12+002299999V0200401N006019999999N0100001N1+01401+00331102201ADDAA124000791GF107991071001999999031999MD1710101+9999REMSYN070AAXX  24211 59133 42960 70406 10140 20033 40220 57010 8703/ 333 79999;
0152591330999992000032500004+24800+118580FM-12+002299999V0203601N007012200019N0120001N1+01461+00241102381ADDAA199000091GF104991041001999999031001MD1210181+0011REMSYN070AAXX  25001 59133 32962 43607 10146 20024 40238 52018 84030 333 00100;EQDQ01  00002PRCP99
0165591330999992000032506004+24800+118580FM-12+002299999V0200401N007019999999N0120001N1+01921+00771102051ADDAA199000091GF107991071001999999031001KA1999N+01321MD1710211+9999REMSYN070AAXX  25061 59133 32962 70407 10192 20077 40205 57021 87030 333 20132;EQDQ01  00002PRCP99
0112591330999992000032521004+24800+118580FM-12+002299999V0203601N003019999999N0120001N1+01421+00891102171ADDGF106991061001999999031001MD1710041+9999REMSYN060AAXX  25211 59133 42962 63603 10142 20089 40217 57004 86030;
0146591330999992000032600004+24800+118580FM-12+002299999V0203601N005010360019N0100001N1+01581+99999102201ADDAA199000091GF107991041051017501031999MD1210071+0011REMSYN064AAXX  26001 59133 32760 73605 10158 4022/ 52007 8453/ 333 05101;EQDQ01  00002PRCP99
0112591330999992000032603004+24800+118580FM-12+002299999V0200201N005010150019N0110001N1+01741+00891102241ADDGF107991071051017501999999MD1410001+9999REMSYN060AAXX  26031 59133 42761 70205 10174 20089 40224 54000 875//;
0175591330999992000032606004+24800+118580FM-12+002299999V0200401N005012200019N0100001N1+01921+00841101861ADDAA199000091GA1001+999999999GF100991001001999999001001KA1999N+01371MD1710371+9999REMSYN064AAXX  26061 59133 32960 00405 10192 20084 40186 57037 333 20137;EQDQ01  00002PRCP99
0152591330999992000032612004+24800+118580FM-12+002299999V0200401N005012200019N0100001N1+01531+00951101891ADDAA199000091GA1001+999999999GF100991001001999999001001MD1210111+9999REMSYN054AAXX  26121 59133 32960 00405 10153 20095 40189 52011;EQDQ01  00002PRCP99
0175591330999992000032618004+24800+118580FM-12+002299999V0203601N002012200019N0100001N1+01391+00811101811ADDAA199000091GA1001+999999999GF100991001001999999001001KA1999M+02041MD1710111+9999REMSYN064AAXX  26181 59133 32960 03602 10139 20081 40181 57011 333 10204;EQDQ01  00002PRCP99
0122591330999992000032621004+24800+118580FM-12+002299999V0203601N002012200019N0100001N1+01381+00771101701ADDGA1001+999999999GF100991001001999999001001MD1710111+9999REMSYN054AAXX  26211 59133 42960 03602 10138 20077 40170 57011;
0162591330999992000032700004+24800+118580FM-12+002299999V0200401N004012200019N0110001N1+01621+00931101761ADDAA199000091GA1001+999999999GF100991001001999999001001MD1210061+0051REMSYN064AAXX  27001 59133 32961 00404 10162 20093 40176 52006 333 05500;EQDQ01  00002PRCP99
0134591330999992000032721004+24800+118580FM-12+002299999V0202201N003012200019N0020001N1+01451+01321101351ADDGA1001+999999999GF100991001001999999001001MD1710021+9999MW1101REMSYN060AAXX  27211 59133 41920 02203 10145 20132 40135 57002 71000;
0174591330999992000032800004+24800+118580FM-12+002299999V0202701N003012200019N0070001N1+01951+01281101511ADDAA199000091GA1001+999999999GF100991001001999999001001MD1210161+0021MW1101REMSYN070AAXX  28001 59133 31957 02703 10195 20128 40151 52016 71000 333 05200;EQDQ01  00002PRCP99
0165591330999992000032806004+24800+118580FM-12+002299999V0201801N004012200019N0100001N1+02051+01361101221ADDAA199000091GF101991001001999999001021KA1999N+01421MD1710211+9999REMSYN070AAXX  28061 59133 32960 11804 10205 20136 40122 57021 80002 333 20142;EQDQ01  00002PRCP99
0152591330999992000032900004+24800+118580FM-12+002299999V0200401N008019999999N0130001N1+01541+00551102281ADDAA199000091GF107991031001999999031021MD1210311+0081REMSYN070AAXX  29001 59133 32963 70408 10154 20055 40228 52031 83032 333 00851;EQDQ01  00002PRCP99
0165591330999992000032906004+24800+118580FM-12+002299999V0200401N005019999999N0130001N1+01941+00921102011ADDAA199000091GF107991021001999999031021KA1999N+01451MD1710301+9999REMSYN070AAXX  29061 59133 32963 70405 10194 20092 40201 57030 82032 333 20145;EQDQ01  00002PRCP99
0152591330999992000033000004+24800+118580FM-12+002299999V0203601N005010360019N0110001N1+01671+00491101821ADDAA199000091GF107991011051017501031021MD1210081+0051REMSYN070AAXX  30001 59133 32761 73605 10167 20049 40182 52008 81532 333 05501;EQDQ01  00002PRCP99
0165591330999992000033006004+24800+118580FM-12+002299999V0201401N005019999999N0120001N1+02001+00911101421ADDAA199000091GF107991061001999999031021KA1999N+01401MD1710321+9999REMSYN070AAXX  30061 59133 32962 71405 10200 20091 40142 57032 86032 333 20140;EQDQ01  00002PRCP99
0136591330999992000033012004+24800+118580FM-12+002299999V0209999C000010150019N0120001N1+99999+99999101401ADDAA199000091GF107991071051017501999999MD1210101+9999REMSYN054AAXX  30121 59133 32762 70000 20118 40140 52010 875//;EQDQ01  00002PRCP99
0112591330999992000033021004+24800+118580FM-12+002299999V0203601N001019999999N0110001N1+01621+01261101081ADDGF106991061001999999031001MD1710141+9999REMSYN060AAXX  30211 59133 42961 63601 10162 20126 40108 57014 86030;
0152591330999992000033100004+24800+118580FM-12+002299999V0209999C000019999999N0100001N1+01811+01261101221ADDAA199000091GF107991071001999999031021MD1210141+0061REMSYN070AAXX  31001 59133 32960 70000 10181 20126 40122 52014 87032 333 05601;EQDQ01  00002PRCP99
0165591330999992000033106004+24800+118580FM-12+002299999V0201801N004019999999N0120001N1+02221+01741101021ADDAA199000091GF107991071001999999031001KA1999N+01601MD1710251+9999REMSYN070AAXX  31061 59133 32962 71804 10222 20174 40102 57025 87030 333 20160;EQDQ01  00002PRCP99
0112591330999992000033121004+24800+118580FM-12+002299999V0203601N004019999999N0100001N1+01801+01341100991ADDGF105991051001999999031001MD1710081+9999REMSYN060AAXX  31211 59133 42960 53604 10180 20134 40099 57008 85030;
0145591330999992000040100004+24800+118580FM-12+002299999V0200401N006010150019N0100001N1+00881+99999101081ADDAA109000791GF108991071051017501071999MD1210091-0101REMSYN082AAXX  01001 59133 /1760 80406 10088 20147 40108 52009 69908 8757/ 333 05101 79999;
0172591330999992000040106004+24800+118580FM-12+002299999V0203201N006010120019N0080001N1+01721+01591101101ADDAA106002091AY161061GF108991081051012501999999KA1999N+01711MD1710031+9999MW1601REMSYN082AAXX  01061 59133 11658 83206 10172 20159 40110 57003 60021 76060 885// 333 20171;
0149591330999992000040112004+24800+118580FM-12+002299999V0200401N006010120019N0120001N1+01681+01471101031ADDAA106007191AY161061GF108991081051012501999999MD1210161+9999MW1001REMSYN072AAXX  01121 59133 11662 80406 10168 20147 40103 52016 60071 70060 885//;
0123591330999992000040118004+24800+118580FM-12+002299999V0203601N002010120019N0120001N1+01641+01471999999ADDAA199000021GF108991081031012501999999MD1710031+9999REMSYN060AAXX  01181 59133 32662 83602 10164 20147 4/123 57003 883//;
0133591330999992000040121004+24800+118580FM-12+002299999V0200401N003010150019N0120001N1+01641+01471101161ADDAA124008191GF108991081051017501999999MD1710071+9999REMSYN070AAXX  01211 59133 42762 80403 10164 20147 40116 57007 885// 333 70082;
0139591330999992000040200004+24800+118580FM-12+002299999V0200401N003010120019N0120001N1+01661+01471101361ADDAA124008191GF108991081051012501999999MD1210201+0301REMSYN076AAXX  02001 59133 32662 80403 10166 20147 40136 52020 885// 333 00352 70082;
0165591330999992000040206004+24800+118580FM-12+002299999V0200901N004019999999N0120001N1+01981+01601101081ADDAA199000091GF107991071001999999031001KA1999N+01591MD1710251+9999REMSYN070AAXX  02061 59133 32962 70904 10198 20160 40108 57025 87030 333 20159;EQDQ01  00002PRCP99
0165591330999992000040218004+24800+118580FM-12+002299999V0200401N003010120019N0100001N1+01641+01571101251ADDAA199000091GF108991081051012501999999KA1999M+02051MD1710091+9999REMSYN070AAXX  02181 59133 32660 80403 10164 20157 40125 57009 885// 333 10205;EQDQ01  00002PRCP99
0161591330999992000040221004+24800+118580FM-12+002299999V0200401N004010075019N0080001N1+01621+01591101331ADDAA124016091AY191031AY261031GF108991081091008001999999MD1210081+9999MW1951REMSYN076AAXX  02211 59133 41558 80404 10162 20159 40133 52008 79596 889// 333 70161;
0173591330999992000040300004+24800+118580FM-12+002299999V0200401N006010120019N0120001N1+01641+01551101291ADDAA106019191AY191061AY281061GF108991081051012501999999MD1710041-0101MW1211REMSYN088AAXX  03001 59133 11662 80406 10164 20155 40129 57004 60191 72198 885// 333 05100 70194;
0157591330999992000040312004+24800+118580FM-12+002299999V0200401N006010120019N0100001N1+01541+01471101201ADDAA106008991AY161061AY261061GF108991081051012501999999MD1210101+9999MW1601REMSYN072AAXX  03121 59133 11660 80406 10154 20147 40120 52010 60091 76066 885//;
0172591330999992000040318004+24800+118580FM-12+002299999V0200401N007010120019N0150001N1+01571+01431101081ADDAA106002091AY161061GF108991081051012501999999KA1999M+01781MD1710211+9999MW1001REMSYN082AAXX  03181 59133 11665 80407 10157 20143 40108 57021 60021 70060 885// 333 10178;
0153591330999992000040321004+24800+118580FM-12+002299999V0203601N005010120019N0120001N1+01541+01451101011ADDAA124014791AY161031GF108991081051012501999999MD1710071+9999MW1601REMSYN076AAXX  03211 59133 41662 83605 10154 20145 40101 57007 76060 885// 333 70147;
0165591330999992000040400004+24800+118580FM-12+002299999V0200201N003010120019N0120001N1+01581+01481101231ADDAA106000891AY161061GF108991081051012501999999MD1210221-0101MW1001REMSYN088AAXX  04001 59133 11662 80203 10158 20148 40123 52022 69981 70060 885// 333 05151 70115;
0172591330999992000040406004+24800+118580FM-12+002299999V0200701N003012200019N0150001N1+01991+01641100991ADDAA106000791AY161061GF103991011051017501001021KA1999N+01511MD1710231+9999MW1001REMSYN082AAXX  04061 59133 11765 30703 10199 20164 40099 57023 69901 70060 81502 333 20151;
0142591330999992000040412004+24800+118580FM-12+002299999V0200401N004012200019N0150001N1+01711+01491101111ADDAA199000091GF104991041051017501001001MD1210201+9999REMSYN060AAXX  04121 59133 32765 40404 10171 20149 40111 52020 84500;EQDQ01  00002PRCP99
