0163595590999992000010100004+22000+120770FM-12+002499999V0203401N001012200019N0250001N1+02011+01651101671ADDAA106000091GF102991021051012501001001MA1999999101391MD1310141+9999REMSYN066AAXX  01001 59559 32675 23401 10201 20165 30139 40167 53014 82500;EQDQ01  00002PRCP06
0163595590999992000010103004+22000+120770FM-12+002499999V0202301N001012200019N0250001N1+02771+01821101581ADDAA106000091GF102991021051008001001001MA1999999101301MD1810091+9999REMSYN066AAXX  01031 59559 32575 22301 10277 20182 30130 40158 58009 82500;EQDQ01  00002PRCP06
0163595590999992000010106004+22000+120770FM-12+002499999V0203101N002012200019N0100001N1+02541+01901101351ADDAA106000091GF104991041021008001001001MA1999999101071MD1710231+9999REMSYN066AAXX  01061 59559 32560 43102 10254 20190 30107 40135 57023 84200;EQDQ01  00002PRCP06
0163595590999992000010109004+22000+120770FM-12+002499999V0203401N002010075019N0100001N1+02341+01831101391ADDAA106000091GF108991081061008001999999MA1999999101111MD1310041+9999REMSYN066AAXX  01091 59559 32560 83402 10234 20183 30111 40139 53004 886//;EQDQ01  00002PRCP06
0163595590999992000010112004+22000+120770FM-12+002499999V0209999C000012200019N0100001N1+02041+01831101501ADDAA106000091GF104991041061008001001001MA1999999101221MD1010111+9999REMSYN066AAXX  01121 59559 32560 40000 10204 20183 30122 40150 50011 84600;EQDQ01  00002PRCP06
0163595590999992000010115004+22000+120770FM-12+002499999V0209999C000012200019N0100001N1+01881+01761101541ADDAA106000091GF103991031051008001001001MA1999999101251MD1010031+9999REMSYN066AAXX  01151 59559 32560 30000 10188 20176 30125 40154 50003 83500;EQDQ01  00002PRCP06
0163595590999992000010118004+22000+120770FM-12+002499999V0209999C000012200019N0100001N1+01831+01731101491ADDAA106000091GF102991021051008001001001MA1999999101201MD1810051+9999REMSYN066AAXX  01181 59559 32560 20000 10183 20173 30120 40149 58005 82500;EQDQ01  00002PRCP06
0163595590999992000010121004+22000+120770FM-12+002499999V0209999C000012200019N0150001N1+01891+01761101451ADDAA106000091GF104991041051008001001001MA1999999101161MD1710041+9999REMSYN066AAXX  01211 59559 32565 40000 10189 20176 30116 40145 57004 84500;EQDQ01  00002PRCP06
0163595590999992000010200004+22000+120770FM-12+002499999V0200201N005010360019N0150001N1+02221+01681101581ADDAA106000091GF105991011011008001051001MA1999999101301MD1110141+9999REMSYN066AAXX  02001 59559 32565 50205 10222 20168 30130 40158 51014 81150;EQDQ01  00002PRCP06
0163595590999992000010203004+22000+120770FM-12+002499999V0200301N007012200019N0120001N1+02481+01441101611ADDAA106000091GF101991011011008001001001MA1999999101331MD1010031+9999REMSYN066AAXX  02031 59559 32562 10307 10248 20144 30133 40161 50003 81100;EQDQ01  00002PRCP06
0163595590999992000010206004+22000+120770FM-12+002499999V0200301N007012200019N0150001N1+02491+01321101401ADDAA106000091GF101991011011008001001001MA1999999101121MD1810211+9999REMSYN066AAXX  02061 59559 32565 10307 10249 20132 30112 40140 58021 81100;EQDQ01  00002PRCP06
0163595590999992000010209004+22000+120770FM-12+002499999V0200501N005012200019N0150001N1+02251+01361101461ADDAA106000091GF101991011011008001001001MA1999999101181MD1310061+9999REMSYN066AAXX  02091 59559 32565 10505 10225 20136 30118 40146 53006 81100;EQDQ01  00002PRCP06
0173595590999992000010212004+22000+120770FM-12+002499999V0200401N006012200019N0150001N1+02201+01411101621ADDAA106000091GA1001+999999999GF100991001001999999001001MA1999999101341MD1210161+9999REMSYN060AAXX  02121 59559 32965 00406 10220 20141 30134 40162 52016;EQDQ01  00002PRCP06
0173595590999992000010218004+22000+120770FM-12+002499999V0200401N006012200019N0120001N1+02111+01541101501ADDAA106000091GA1001+999999999GF100991001001999999001001MA1999999101221MD1810151+9999REMSYN060AAXX  02181 59559 32962 00406 10211 20154 30122 40150 58015;EQDQ01  00002PRCP06
0173595590999992000010221004+22000+120770FM-12+002499999V0200401N006012200019N0120001N1+02061+01481101531ADDAA106000091GA1001+999999999GF100991001001999999001001MA1999999101251MD1310031+9999REMSYN060AAXX  02211 59559 32962 00406 10206 20148 30125 40153 53003;EQDQ01  00002PRCP06
0163595590999992000010300004+22000+120770FM-12+002499999V0200401N005012200019N0100001N1+02111+01441101711ADDAA106000091GF101991011051008001001001MA1999999101431MD1210181+9999REMSYN066AAXX  03001 59559 32560 10405 10211 20144 30143 40171 52018 81500;EQDQ01  00002PRCP06
0173595590999992000010303004+22000+120770FM-12+002499999V0200301N006012200019N0100001N1+02381+01431101721ADDAA106000091GA1001+999999999GF100991001001999999001001MA1999999101441MD1010011+9999REMSYN060AAXX  03031 59559 32960 00306 10238 20143 30144 40172 50001;EQDQ01  00002PRCP06
0163595590999992000010306004+22000+120770FM-12+002499999V0200601N004012200019N0100001N1+02431+01411101551ADDAA106000091GF102991021011008001001001MA1999999101271MD1710171+9999REMSYN066AAXX  03061 59559 32560 20604 10243 20141 30127 40155 57017 82100;EQDQ01  00002PRCP06
0163595590999992000010309004+22000+120770FM-12+002499999V0200401N002010075019N0100001N1+02221+01351101561ADDAA106000091GF106991061051008001001001MA1999999101281MD1310011+9999REMSYN066AAXX  03091 59559 32560 60402 10222 20135 30128 40156 53001 86500;EQDQ01  00002PRCP06
0163595590999992000010312004+22000+120770FM-12+002499999V0200401N003012200019N0100001N1+02151+01331101671ADDAA106000091GF101991011011008001001001MA1999999101391MD1110111+9999REMSYN066AAXX  03121 59559 32560 10403 10215 20133 30139 40167 51011 81100;EQDQ01  00002PRCP06
0163595590999992000010315004+22000+120770FM-12+002499999V0200201N004012200019N0100001N1+02101+01481101691ADDAA106000091GF101991011011008001001001MA1999999101411MD1010021+9999REMSYN066AAXX  03151 59559 32560 10204 10210 20148 30141 40169 50002 81100;EQDQ01  00002PRCP06
0173595590999992000010318004+22000+120770FM-12+002499999V0200601N002012200019N0100001N1+01881+01471101591ADDAA106000091GA1001+999999999GF100991001001999999001001MA1999999101301MD1810111+9999REMSYN060AAXX  03181 59559 32960 00602 10188 20147 30130 40159 58011;EQDQ01  00002PRCP06
0173595590999992000010321004+22000+120770FM-12+002499999V0202201N001012200019N0100001N1+01721+01461101531ADDAA106000091GA1001+999999999GF100991001001999999001001MA1999999101241MD1510061+9999REMSYN060AAXX  03211 59559 32960 02201 10172 20146 30124 40153 55006;EQDQ01  00002PRCP06
0163595590999992000010400004+22000+120770FM-12+002499999V0200401N003012200019N0120001N1+02161+01571101641ADDAA106000091GF102991011051008001031001MA1999999101361MD1110121+9999REMSYN066AAXX  04001 59559 32562 20403 10216 20157 30136 40164 51012 81530;EQDQ01  00002PRCP06
0163595590999992000010403004+22000+120770FM-12+002499999V0200601N004012200019N0150001N1+02551+01681101651ADDAA106000091GF104991031011008001031001MA1999999101371MD1010011+9999REMSYN066AAXX  04031 59559 32565 40604 10255 20168 30137 40165 50001 83130;EQDQ01  00002PRCP06
0163595590999992000010406004+22000+120770FM-12+002499999V0200601N004012200019N0150001N1+02551+01691101451ADDAA106000091GF102991021021008001001001MA1999999101171MD1710201+9999REMSYN066AAXX  04061 59559 32565 20604 10255 20169 30117 40145 57020 82200;EQDQ01  00002PRCP06
0163595590999992000010409004+22000+120770FM-12+002499999V0200401N003012200019N0150001N1+02321+01661101451ADDAA106000091GF102991021011008001001001MA1999999101171MD1410001+9999REMSYN066AAXX  04091 59559 32565 20403 10232 20166 30117 40145 54000 82100;EQDQ01  00002PRCP06
0163595590999992000010412004+22000+120770FM-12+002499999V0200801N002012200019N0150001N1+02181+01681101551ADDAA106000091GF102991021021008001001001MA1999999101271MD1110101+9999REMSYN066AAXX  04121 59559 32565 20802 10218 20168 30127 40155 51010 82200;EQDQ01  00002PRCP06
0163595590999992000010415004+22000+120770FM-12+002499999V0200701N001012200019N0150001N1+02041+01641101601ADDAA106000091GF102991021051008001001001MA1999999101321MD1010051+9999REMSYN066AAXX  04151 59559 32565 20701 10204 20164 30132 40160 50005 82500;EQDQ01  00002PRCP06
0163595590999992000010418004+22000+120770FM-12+002499999V0200801N002012200019N0120001N1+02061+01651101491ADDAA106000091GF102991021051008001001001MA1999999101211MD1810111+9999REMSYN066AAXX  04181 59559 32562 20802 10206 20165 30121 40149 58011 82500;EQDQ01  00002PRCP06
0163595590999992000010421004+22000+120770FM-12+002499999V0201101N001012200019N0150001N1+02041+01691101361ADDAA106000091GF102991021051008001001001MA1999999101081MD1810131+9999REMSYN066AAXX  04211 59559 32565 21101 10204 20169 30108 40136 58013 82500;EQDQ01  00002PRCP06
0163595590999992000010500004+22000+120770FM-12+002499999V0200901N002012200019N0200001N1+02261+01811101511ADDAA106000091GF102991011011008001041001MA1999999101231MD1110151+9999REMSYN066AAXX  05001 59559 32570 20902 10226 20181 30123 40151 51015 81140;EQDQ01  00002PRCP06
0163595590999992000010503004+22000+120770FM-12+002499999V0201001N003012200019N0250001N1+02721+01991101471ADDAA106000091GF102991021021008001001001MA1999999101191MD1810041+9999REMSYN066AAXX  05031 59559 32575 21003 10272 20199 30119 40147 58004 82200;EQDQ01  00002PRCP06
0163595590999992000010506004+22000+120770FM-12+002499999V0201701N003012200019N0250001N1+02891+01961101161ADDAA106000091GF103991031011008001001001MA1999999100891MD1710301+9999REMSYN066AAXX  05061 59559 32575 31703 10289 20196 30089 40116 57030 83100;EQDQ01  00002PRCP06
0163595590999992000010509004+22000+120770FM-12+002499999V0201001N003012200019N0250001N1+02451+01941101191ADDAA106000091GF101991011051008001001001MA1999999100911MD1310021+9999REMSYN066AAXX  05091 59559 32575 11003 10245 20194 30091 40119 53002 81500;EQDQ01  00002PRCP06
0163595590999992000010512004+22000+120770FM-12+002499999V0201101N001012200019N0200001N1+02281+01951101301ADDAA106000091GF104991041051012501001001MA1999999101021MD1210111+9999REMSYN066AAXX  05121 59559 32670 41101 10228 20195 30102 40130 52011 84500;EQDQ01  00002PRCP06
0163595590999992000010515004+22000+120770FM-12+002499999V0200601N001012200019N0150001N1+02251+01991101341ADDAA106000091GF102991021051008001001001MA1999999101061MD1010041+9999REMSYN066AAXX  05151 59559 32565 20601 10225 20199 30106 40134 50004 82500;EQDQ01  00002PRCP06
0163595590999992000010518004+22000+120770FM-12+002499999V0200701N002010075019N0150001N1+02211+02021101261ADDAA106000091GF106991061051008001001001MA1999999100981MD1810081+9999REMSYN066AAXX  05181 59559 32565 60702 10221 20202 30098 40126 58008 86500;EQDQ01  00002PRCP06
0163595590999992000010521004+22000+120770FM-12+002499999V0200301N001010150019N0150001N1+02191+01961101171ADDAA106000091GF106991061051017501001001MA1999999100891MD1510091+9999REMSYN066AAXX  05211 59559 32765 60301 10219 20196 30089 40117 55009 86500;EQDQ01  00002PRCP06
0178595590999992000010603004+22000+120770FM-12+002499999V0200301N005010075019N0120001N1+02471+01941101351ADDAA100000591AY161031AY221031GF107991071051008001001001MA1999999101071MD1010061+9999MW1021REMSYN078AAXX  06031 59559 11562 70305 10247 20194 30107 40135 50006 6995/ 70262 87500;
0178595590999992000010606004+22000+120770FM-12+002499999V0200201N004012200019N0150001N1+02581+01931101111ADDAA106000591AY161061AY221061GF104991041051008001001001MA1999999100831MD1810241+9999MW1021REMSYN078AAXX  06061 59559 11565 40204 10258 20193 30083 40111 58024 69951 70262 84500;
0150595590999992000010609004+22000+120770FM-12+002499999V0200301N005012200019N0120001N1+02381+01871101121ADDAA100000591GF103991031051008001001001MA1999999100841MD1310011+9999REMSYN072AAXX  06091 59559 12562 30305 10238 20187 30084 40112 53001 6995/ 83500;
0150595590999992000010612004+22000+120770FM-12+002499999V0200701N003012200019N0120001N1+02301+01861101291ADDAA112000591GF104991041051008001001001MA1999999101011MD1210171+9999REMSYN072AAXX  06121 59559 12562 40703 10230 20186 30101 40129 52017 69952 84500;
0163595590999992000010615004+22000+120770FM-12+002499999V0200101N002012200019N0150001N1+02261+01821101361ADDAA106000091GF102991021051008001001001MA1999999101081MD1110071+9999REMSYN066AAXX  06151 59559 32565 20102 10226 20182 30108 40136 51007 82500;EQDQ01  00002PRCP06
0163595590999992000010618004+22000+120770FM-12+002499999V0200301N003012200019N0150001N1+02211+01761101321ADDAA106000091GF103991031051008001001001MA1999999101041MD1810041+9999REMSYN066AAXX  06181 59559 32565 30303 10221 20176 30104 40132 58004 83500;EQDQ01  00002PRCP06
0163595590999992000010621004+22000+120770FM-12+002499999V0200301N003012200019N0150001N1+02131+01771101301ADDAA106000091GF104991041051008001001001MA1999999101021MD1510021+9999REMSYN066AAXX  06211 59559 32565 40303 10213 20177 30102 40130 55002 84500;EQDQ01  00002PRCP06
0163595590999992000010700004+22000+120770FM-12+002499999V0200301N010012200019N0100001N1+02281+01771101461ADDAA106000091GF101991011011008001001001MA1999999101181MD1210161+9999REMSYN066AAXX  07001 59559 32560 10310 10228 20177 30118 40146 52016 81100;EQDQ01  00002PRCP06
0163595590999992000010703004+22000+120770FM-12+002499999V0200401N008012200019N0150001N1+02481+01801101521ADDAA106000091GF102991021011008001001001MA1999999101241MD1010061+9999REMSYN066AAXX  07031 59559 32565 20408 10248 20180 30124 40152 50006 82100;EQDQ01  00002PRCP06
0163595590999992000010706004+22000+120770FM-12+002499999V0200301N009012200019N0200001N1+02431+01681101331ADDAA106000091GF102991021011008001001001MA1999999101051MD1710191+9999REMSYN066AAXX  07061 59559 32570 20309 10243 20168 30105 40133 57019 82100;EQDQ01  00002PRCP06
0163595590999992000010709004+22000+120770FM-12+002499999V0200401N008012200019N0180001N1+02231+01651101311ADDAA106000091GF104991011011008001031011MA1999999101031MD1510021+9999REMSYN066AAXX  07091 59559 32568 40408 10223 20165 30103 40131 55002 81131;EQDQ01  00002PRCP06
0163595590999992000010712004+22000+120770FM-12+002499999V0200501N007012200019N0180001N1+02231+01621101491ADDAA106000091GF101991011011008001001001MA1999999101211MD1210181+9999REMSYN066AAXX  07121 59559 32568 10507 10223 20162 30121 40149 52018 81100;EQDQ01  00002PRCP06
0173595590999992000010715004+22000+120770FM-12+002499999V0200301N006012200019N0150001N1+02191+01571101521ADDAA106000091GA1001+999999999GF100991001001999999001001MA1999999101241MD1010031+9999REMSYN060AAXX  07151 59559 32965 00306 10219 20157 30124 40152 50003;EQDQ01  00002PRCP06
0163595590999992000010718004+22000+120770FM-12+002499999V0203601N004012200019N0150001N1+02131+01591101491ADDAA106000091GF101991011051008001001001MA1999999101211MD1810031+9999REMSYN066AAXX  07181 59559 32565 13604 10213 20159 30121 40149 58003 81500;EQDQ01  00002PRCP06
0173595590999992000010721004+22000+120770FM-12+002499999V0203401N001012200019N0120001N1+02011+01621101411ADDAA106000091GA1001+999999999GF100991001001999999001001MA1999999101131MD1510081+9999REMSYN060AAXX  07211 59559 32962 03401 10201 20162 30113 40141 55008;EQDQ01  00002PRCP06
0163595590999992000010800004+22000+120770FM-12+002499999V0200101N002012200019N0150001N1+02161+01581101561ADDAA106000091GF102991021001999999031011MA1999999101281MD1210151+9999REMSYN066AAXX  08001 59559 32965 20102 10216 20158 30128 40156 52015 82031;EQDQ01  00002PRCP06
0163595590999992000010803004+22000+120770FM-12+002499999V0203401N004012200019N0200001N1+02651+01871101501ADDAA106000091GF101991001001999999001011MA1999999101221MD1810061+9999REMSYN066AAXX  08031 59559 32970 13404 10265 20187 30122 40150 58006 80001;EQDQ01  00002PRCP06
0173595590999992000010806004+22000+120770FM-12+002499999V0203101N002012200019N0100001N1+02621+01801101271ADDAA106000091GA1001+999999999GF100991001001999999001001MA1999999100991MD1710231+9999REMSYN060AAXX  08061 59559 32960 03102 10262 20180 30099 40127 57023;EQDQ01  00002PRCP06
0163595590999992000010809004+22000+120770FM-12+002499999V0203101N001012200019N0100001N1+02281+01891101351ADDAA106000091GF102991021051017501001001MA1999999101071MD1310081+9999REMSYN066AAXX  08091 59559 32760 23101 10228 20189 30107 40135 53008 82500;EQDQ01  00002PRCP06
0163595590999992000010812004+22000+120770FM-12+002499999V0209999C000010075019N0100001N1+02241+01871101431ADDAA106000091GF107991071051008001001001MA1999999101151MD1310081+9999REMSYN066AAXX  08121 59559 32560 70000 10224 20187 30115 40143 53008 87500;EQDQ01  00002PRCP06
0163595590999992000010815004+22000+120770FM-12+002499999V0200901N003012200019N0100001N1+02211+01831101411ADDAA106000091GF102991021051008001001001MA1999999101131MD1810021+9999REMSYN066AAXX  08151 59559 32560 20903 10221 20183 30113 40141 58002 82500;EQDQ01  00002PRCP06
0163595590999992000010818004+22000+120770FM-12+002499999V0203501N002012200019N0100001N1+02031+01801101261ADDAA106000091GF102991021051012501001001MA1999999100981MD1810151+9999REMSYN066AAXX  08181 59559 32660 23502 10203 20180 30098 40126 58015 82500;EQDQ01  00002PRCP06
0163595590999992000010821004+22000+120770FM-12+002499999V0203301N001012200019N0100001N1+02001+01811101231ADDAA106000091GF104991041051008001001001MA1999999100951MD1510031+9999REMSYN066AAXX  08211 59559 32560 43301 10200 20181 30095 40123 55003 84500;EQDQ01  00002PRCP06
0163595590999992000010900004+22000+120770FM-12+002499999V0203401N003010075019N0100001N1+02161+01811101441ADDAA106000091GF108991081051008001999999MA1999999101161MD1210211+9999REMSYN066AAXX  09001 59559 32560 83403 10216 20181 30116 40144 52021 885//;EQDQ01  00002PRCP06
0163595590999992000010903004+22000+120770FM-12+002499999V0203201N002012200019N0150001N1+02681+01851101471ADDAA106000091GF102991021051008001001001MA1999999101191MD1010031+9999REMSYN066AAXX  09031 59559 32565 23202 10268 20185 30119 40147 50003 82500;EQDQ01  00002PRCP06
0163595590999992000010909004+22000+120770FM-12+002499999V0200801N003012200019N0250001N1+02461+02021101281ADDAA106000091GF103991011051008001031001MA1999999101001MD1310061+9999REMSYN066AAXX  09091 59559 32575 30803 10246 20202 30100 40128 53006 81530;EQDQ01  00002PRCP06
0163595590999992000010912004+22000+120770FM-12+002499999V0202801N002012200019N0150001N1+02411+01991101451ADDAA106000091GF103991031051008001001001MA1999999101171MD1110171+9999REMSYN066AAXX  09121 59559 32565 32802 10241 20199 30117 40145 51017 83500;EQDQ01  00002PRCP06
0163595590999992000010915004+22000+120770FM-12+002499999V0202101N001012200019N0150001N1+02371+01901101471ADDAA106000091GF102991021051008001001001MA1999999101191MD1010021+9999REMSYN066AAXX  09151 59559 32565 22101 10237 20190 30119 40147 50002 82500;EQDQ01  00002PRCP06
0163595590999992000010918004+22000+120770FM-12+002499999V0209999C000012200019N0150001N1+02241+01891101411ADDAA106000091GF101991011051008001001001MA1999999101131MD1510061+9999REMSYN066AAXX  09181 59559 32565 10000 10224 20189 30113 40141 55006 81500;EQDQ01  00002PRCP06
0173595590999992000010921004+22000+120770FM-12+002499999V0200401N004012200019N0150001N1+02291+01891101361ADDAA106000091GA1001+999999999GF100991001001999999001001MA1999999101081MD1510051+9999REMSYN060AAXX  09211 59559 32965 00404 10229 20189 30108 40136 55005;EQDQ01  00002PRCP06
0163595590999992000011000004+22000+120770FM-12+002499999V0200601N001012200019N0150001N1+02491+01911101511ADDAA106000091GF102991021051008001001001MA1999999101231MD1210151+9999REMSYN066AAXX  10001 59559 32565 20601 10249 20191 30123 40151 52015 82500;EQDQ01  00002PRCP06
0163595590999992000011003004+22000+120770FM-12+002499999V0200401N006010075019N0200001N1+02631+01861101551ADDAA106000091GF105991051051008001001001MA1999999101271MD1010041+9999REMSYN066AAXX  10031 59559 32570 50406 10263 20186 30127 40155 50004 85500;EQDQ01  00002PRCP06
0163595590999992000011006004+22000+120770FM-12+002499999V0200201N006012200019N0200001N1+02771+01921101341ADDAA106000091GF103991011011008001041001MA1999999101061MD1710211+9999REMSYN066AAXX  10061 59559 32570 30206 10277 20192 30106 40134 57021 81140;EQDQ01  00002PRCP06
0163595590999992000011009004+22000+120770FM-12+002499999V0200301N007012200019N0200001N1+02461+01951101401ADDAA106000091GF102991011011008001041001MA1999999101121MD1310061+9999REMSYN066AAXX  10091 59559 32570 20307 10246 20195 30112 40140 53006 81140;EQDQ01  00002PRCP06
0163595590999992000011012004+22000+120770FM-12+002499999V0200301N007012200019N0200001N1+02341+01891101521ADDAA106000091GF102991021051008001001001MA1999999101241MD1110121+9999REMSYN066AAXX  10121 59559 32570 20307 10234 20189 30124 40152 51012 82500;EQDQ01  00002PRCP06
0163595590999992000011015004+22000+120770FM-12+002499999V0200401N008012200019N0200001N1+02301+01861101501ADDAA106000091GF101991011051008001001001MA1999999101221MD1810021+9999REMSYN066AAXX  10151 59559 32570 10408 10230 20186 30122 40150 58002 81500;EQDQ01  00002PRCP06
0163595590999992000011018004+22000+120770FM-12+002499999V0200401N007012200019N0150001N1+02301+01831101361ADDAA106000091GF102991021051008001001001MA1999999101081MD1810141+9999REMSYN066AAXX  10181 59559 32565 20407 10230 20183 30108 40136 58014 82500;EQDQ01  00002PRCP06
0173595590999992000011021004+22000+120770FM-12+002499999V0200401N005012200019N0200001N1+02321+01841101381ADDAA106000091GA1001+999999999GF100991001001999999001001MA1999999101101MD1310021+9999REMSYN060AAXX  10211 59559 32970 00405 10232 20184 30110 40138 53002;EQDQ01  00002PRCP06
0163595590999992000011100004+22000+120770FM-12+002499999V0200501N005010075019N0150001N1+02401+01871101571ADDAA106000091GF106991061051008001001001MA1999999101291MD1110191+9999REMSYN066AAXX  11001 59559 32565 60505 10240 20187 30129 40157 51019 86500;EQDQ01  00002PRCP06
0163595590999992000011103004+22000+120770FM-12+002499999V0200201N004010075019N0200001N1+02751+01931101531ADDAA106000091GF106991061051008001001001MA1999999101251MD1810041+9999REMSYN066AAXX  11031 59559 32570 60204 10275 20193 30125 40153 58004 86500;EQDQ01  00002PRCP06
0163595590999992000011106004+22000+120770FM-12+002499999V0200801N005010075019N0150001N1+02731+02051101291ADDAA106000091GF106991061051008001001001MA1999999101011MD1710241+9999REMSYN066AAXX  11061 59559 32565 60805 10273 20205 30101 40129 57024 86500;EQDQ01  00002PRCP06
0163595590999992000011109004+22000+120770FM-12+002499999V0200701N003010075019N0150001N1+02451+02031101281ADDAA106000091GF106991061051008001001001MA1999999101001MD1510011+9999REMSYN066AAXX  11091 59559 32565 60703 10245 20203 30100 40128 55001 86500;EQDQ01  00002PRCP06
0163595590999992000011112004+22000+120770FM-12+002499999V0200401N002010075019N0150001N1+02401+02031101371ADDAA106000091GF106991061051008001001001MA1999999101091MD1110091+9999REMSYN066AAXX  11121 59559 32565 60402 10240 20203 30109 40137 51009 86500;EQDQ01  00002PRCP06
0163595590999992000011115004+22000+120770FM-12+002499999V0200601N002010075019N0150001N1+02221+02101101351ADDAA106000091GF106991061051008001001001MA1999999101071MD1810021+9999REMSYN066AAXX  11151 59559 32565 60602 10222 20210 30107 40135 58002 86500;EQDQ01  00002PRCP06
0163595590999992000011118004+22000+120770FM-12+002499999V0209999C000010075019N0150001N1+02201+02051101251ADDAA106000091GF106991061051008001001001MA1999999100971MD1810101+9999REMSYN066AAXX  11181 59559 32565 60000 10220 20205 30097 40125 58010 86500;EQDQ01  00002PRCP06
0163595590999992000011121004+22000+120770FM-12+002499999V0209999C000010075019N0150001N1+02141+02021101201ADDAA106000091GF106991061051008001001001MA1999999100921MD1510051+9999REMSYN066AAXX  11211 59559 32565 60000 10214 20202 30092 40120 55005 86500;EQDQ01  00002PRCP06
0163595590999992000011200004+22000+120770FM-12+002499999V0209999C000012200019N0150001N1+02251+02051101351ADDAA106000091GF103991031051008001001001MA1999999101071MD1210151+9999REMSYN066AAXX  12001 59559 32565 30000 10225 20205 30107 40135 52015 83500;EQDQ01  00002PRCP06
0163595590999992000011203004+22000+120770FM-12+002499999V0203001N002012200019N0100001N1+02671+01951101341ADDAA106000091GF103991031051008001001001MA1999999101061MD1810011+9999REMSYN066AAXX  12031 59559 32560 33002 10267 20195 30106 40134 58001 83500;EQDQ01  00002PRCP06
0173595590999992000011206004+22000+120770FM-12+002499999V0202801N004012200019N0100001N1+02871+01931101011ADDAA106000091GA1001+999999999GF100991001001999999001001MA1999999100741MD1710321+9999REMSYN060AAXX  12061 59559 32960 02804 10287 20193 30074 40101 57032;EQDQ01  00002PRCP06
0163595590999992000011212004+22000+120770FM-12+002499999V0209999C000012200019N0100001N1+02171+01911101231ADDAA106000091GF101991011051008001001001MA1999999100951MD1110131+9999REMSYN066AAXX  12121 59559 32560 10000 10217 20191 30095 40123 51013 81500;EQDQ01  00002PRCP06
0173595590999992000011218004+22000+120770FM-12+002499999V0209999C000012200019N0100001N1+02111+01951101141ADDAA106000091GA1001+999999999GF100991001001999999001001MA1999999100861MD1710091+9999REMSYN060AAXX  12181 59559 32960 00000 10211 20195 30086 40114 57009;EQDQ01  00002PRCP06
0173595590999992000011221004+22000+120770FM-12+002499999V0201301N001012200019N0150001N1+02081+01901101101ADDAA106000091GA1001+999999999GF100991001001999999001001MA1999999100821MD1510041+9999REMSYN060AAXX  12211 59559 32965 01301 10208 20190 30082 40110 55004;EQDQ01  00002PRCP06
0163595590999992000011300004+22000+120770FM-12+002499999V0203401N002012200019N0200001N1+02341+02001101261ADDAA106000091GF101991011051008001001001MA1999999100981MD1210161+9999REMSYN066AAXX  13001 59559 32570 13402 10234 20200 30098 40126 52016 81500;EQDQ01  00002PRCP06
0163595590999992000011303004+22000+120770FM-12+002499999V0203301N002012200019N0100001N1+02591+02031101261ADDAA106000091GF102991021051008001001001MA1999999100981MD1410001+9999REMSYN066AAXX  13031 59559 32560 23302 10259 20203 30098 40126 54000 82500;EQDQ01  00002PRCP06
0163595590999992000011306004+22000+120770FM-12+002499999V0200201N005012200019N0150001N1+02591+01881101011ADDAA106000091GF102991021011008001001001MA1999999100731MD1710251+9999REMSYN066AAXX  13061 59559 32565 20205 10259 20188 30073 40101 57025 82100;EQDQ01  00002PRCP06
0163595590999992000011309004+22000+120770FM-12+002499999V0200701N002010360019N0150001N1+02401+01851101081ADDAA106000091GF106991011011008001051001MA1999999100801MD1310071+9999REMSYN066AAXX  13091 59559 32565 60702 10240 20185 30080 40108 53007 81150;EQDQ01  00002PRCP06
0163595590999992000011312004+22000+120770FM-12+002499999V0200301N003010075019N0150001N1+02321+01891101241ADDAA106000091GF106991061041008001001001MA1999999100961MD1110161+9999REMSYN066AAXX  13121 59559 32565 60303 10232 20189 30096 40124 51016 86400;EQDQ01  00002PRCP06
0163595590999992000011315004+22000+120770FM-12+002499999V0200101N004012200019N0150001N1+02211+01841101291ADDAA106000091GF101991011051008001001001MA1999999101011MD1010051+9999REMSYN066AAXX  13151 59559 32565 10104 10221 20184 30101 40129 50005 81500;EQDQ01  00002PRCP06
0163595590999992000011318004+22000+120770FM-12+002499999V0200301N003012200019N0150001N1+02161+01791101221ADDAA106000091GF101991011051008001001001MA1999999100941MD1810071+9999REMSYN066AAXX  13181 59559 32565 10303 10216 20179 30094 40122 58007 81500;EQDQ01  00002PRCP06
0167595590999992000011321004+22000+120770FM-12+002499999V0203601N003012200019N0120001N1+02121+01751101211ADDAA199000091GF102991021051008001001001MA1999999100931MD1510011+9999REMSYN070    AAXX  13211 59559 32562 23603 10212 20175 30093 40121 55001 82500;EQDQ01  00002PRCP99
0167595590999992000011400004+22000+120770FM-12+002499999V0200301N006012200019N0200001N1+02281+01741101331ADDAA199000091GF102991021051008001001001MA1999999101051MD1210121+9999REMSYN070    AAXX  14001 59559 32570 20306 10228 20174 30105 40133 52012 82500;EQDQ01  00002PRCP99
0167595590999992000011403004+22000+120770FM-12+002499999V0203401N002012200019N0100001N1+02431+01851101411ADDAA199000091GF103991031011008001001001MA1999999101131MD1010081+9999REMSYN070    AAXX  14031 59559 32560 33402 10243 20185 30113 40141 50008 83100;EQDQ01  00002PRCP99
0167595590999992000011406004+22000+120770FM-12+002499999V0203301N003010075019N0120001N1+02441+01851101171ADDAA199000091GF106991061021008001001001MA1999999100891MD1710241+9999REMSYN070    AAXX  14061 59559 32562 63303 10244 20185 30089 40117 57024 86200;EQDQ01  00002PRCP99
0167595590999992000011409004+22000+120770FM-12+002499999V0203401N003010075019N0120001N1+02221+01871101221ADDAA199000091GF106991061041008001001001MA1999999100941MD1310051+9999REMSYN070    AAXX  14091 59559 32562 63403 10222 20187 30094 40122 53005 86400;EQDQ01  00002PRCP99
0167595590999992000011412004+22000+120770FM-12+002499999V0200201N004012200019N0150001N1+02291+01861101351ADDAA199000091GF103991031051008001001001MA1999999101071MD1210131+9999REMSYN070    AAXX  14121 59559 32565 30204 10229 20186 30107 40135 52013 83500;EQDQ01  00002PRCP99
0167595590999992000011415004+22000+120770FM-12+002499999V0203201N001010075019N0120001N1+02061+01811101351ADDAA199000091GF105991051051008001001001MA1999999101071MD1410001+9999REMSYN070    AAXX  14151 59559 32562 53201 10206 20181 30107 40135 54000 85500;EQDQ01  00002PRCP99
0167595590999992000011418004+22000+120770FM-12+002499999V0203301N002010075019N0120001N1+01981+01841101271ADDAA199000091GF106991061051008001001001MA1999999100991MD1810081+9999REMSYN070    AAXX  14181 59559 32562 63302 10198 20184 30099 40127 58008 86500;EQDQ01  00002PRCP99
0167595590999992000011421004+22000+120770FM-12+002499999V0200101N001010075019N0120001N1+01921+01771101261ADDAA199000091GF105991051051008001001001MA1999999100981MD1510011+9999REMSYN070    AAXX  14211 59559 32562 50101 10192 20177 30098 40126 55001 85500;EQDQ01  00002PRCP99
0167595590999992000011500004+22000+120770FM-12+002499999V0203401N003012200019N0100001N1+02101+01761101411ADDAA199000091GF104991041051004501001001MA1999999101131MD1110151+9999REMSYN070    AAXX  15001 59559 32460 43403 10210 20176 30113 40141 51015 84500;EQDQ01  00002PRCP99
0167595590999992000011503004+22000+120770FM-12+002499999V0203301N003012200019N0100001N1+02401+01821101411ADDAA199000091GF102991021051008001001001MA1999999101131MD1410001+9999REMSYN070    AAXX  15031 59559 32560 23303 10240 20182 30113 40141 54000 82500;EQDQ01  00002PRCP99
0167595590999992000011506004+22000+120770FM-12+002499999V0203301N006012200019N0100001N1+02481+01781101091ADDAA199000091GF101991011011008001001001MA1999999100811MD1710321+9999REMSYN070    AAXX  15061 59559 32560 13306 10248 20178 30081 40109 57032 81100;EQDQ01  00002PRCP99
0177595590999992000011509004+22000+120770FM-12+002499999V0203101N002012200019N0100001N1+02321+01771101101ADDAA199000091GA1001+999999999GF100991001001999999001001MA1999999100821MD1310011+9999REMSYN064    AAXX  15091 59559 32960 03102 10232 20177 30082 40110 53001;EQDQ01  00002PRCP99
0177595590999992000011512004+22000+120770FM-12+002499999V0203401N002012200019N0100001N1+02131+01701101251ADDAA199000091GA1001+999999999GF100991001001999999001001MA1999999100971MD1210151+9999REMSYN064    AAXX  15121 59559 32960 03402 10213 20170 30097 40125 52015;EQDQ01  00002PRCP99
0177595590999992000011518004+22000+120770FM-12+002499999V0209999C000012200019N0100001N1+01721+01601101301ADDAA199000091GA1001+999999999GF100991001001999999001001MA1999999101011MD1810061+9999REMSYN064    AAXX  15181 59559 32960 00000 10172 20160 30101 40130 58006;EQDQ01  00002PRCP99
0177595590999992000011521004+22000+120770FM-12+002499999V0203401N003012200019N0100001N1+01861+01781101301ADDAA199000091GA1001+999999999GF100991001001999999001001MA1999999101011MD1410001+9999REMSYN064    AAXX  15211 59559 32960 03403 10186 20178 30101 40130 54000;EQDQ01  00002PRCP99
0167595590999992000011600004+22000+120770FM-12+002499999V0203401N003012200019N0100001N1+01891+01811101551ADDAA199000091GF103991031051008001001001MA1999999101261MD1110251+9999REMSYN070    AAXX  16001 59559 32560 33403 10189 20181 30126 40155 51025 83500;EQDQ01  00002PRCP99
0167595590999992000011603004+22000+120770FM-12+002499999V0203301N002012200019N0100001N1+02401+01841101551ADDAA199000091GF103991031021008001001001MA1999999101271MD1010011+9999REMSYN070    AAXX  16031 59559 32560 33302 10240 20184 30127 40155 50001 83200;EQDQ01  00002PRCP99
0167595590999992000011606004+22000+120770FM-12+002499999V0203001N002012200019N0100001N1+02581+01841101261ADDAA199000091GF103991031021008001001001MA1999999100981MD1710291+9999REMSYN070    AAXX  16061 59559 32560 33002 10258 20184 30098 40126 57029 83200;EQDQ01  00002PRCP99
0167595590999992000011609004+22000+120770FM-12+002499999V0203301N002010075019N0100001N1+02301+01771101261ADDAA199000091GF105991051051008001001001MA1999999100981MD1410001+9999REMSYN070    AAXX  16091 59559 32560 53302 10230 20177 30098 40126 54000 85500;EQDQ01  00002PRCP99
0099595590999992000011610004+22000+120770FM-12+002499999V0209999C000019999999N9999999N1+99999+99999999999ADDMA1999999101151MD1110171+9999REMSYN058    AAXX  16101 59559 //32/ /0000 20190 30115 51017 87511;
0167595590999992000011612004+22000+120770FM-12+002499999V0209999C000010075019N0100001N1+02201+01901101431ADDAA199000091GF107991071051008001001001MA1999999101151MD1110171+9999REMSYN070    AAXX  16121 59559 32560 70000 10220 20190 30115 40143 51017 87500;EQDQ01  00002PRCP99
0167595590999992000011615004+22000+120770FM-12+002499999V0200601N001010075019N0100001N1+02141+01891101441ADDAA199000091GF105991051051008001001001MA1999999101161MD1010011+9999REMSYN070    AAXX  16151 59559 32560 50601 10214 20189 30116 40144 50001 85500;EQDQ01  00002PRCP99
0167595590999992000011618004+22000+120770FM-12+002499999V0203501N003010075019N0100001N1+02021+01851101411ADDAA199000091GF106991061051008001001001MA1999999101131MD1510031+9999REMSYN070    AAXX  16181 59559 32560 63503 10202 20185 30113 40141 55003 86500;EQDQ01  00002PRCP99
0167595590999992000011621004+22000+120770FM-12+002499999V0203401N003012200019N0100001N1+01901+01781101451ADDAA199000091GF104991041051008001001001MA1999999101161MD1310031+9999REMSYN070    AAXX  16211 59559 32560 43403 10190 20178 30116 40145 53003 84500;EQDQ01  00002PRCP99
0177595590999992000011700004+22000+120770FM-12+002499999V0203501N002012200019N0250001N1+02151+01771101611ADDAA199000091GA1001+999999999GF100991001001999999001001MA1999999101331MD1110171+9999REMSYN064    AAXX  17001 59559 32975 03502 10215 20177 30133 40161 51017;EQDQ01  00002PRCP99
0167595590999992000011703004+22000+120770FM-12+002499999V0200201N005010075019N0250001N1+02421+01721101621ADDAA199000091GF105991051051008001001001MA1999999101341MD1010011+9999REMSYN070    AAXX  17031 59559 32575 50205 10242 20172 30134 40162 50001 85500;EQDQ01  00002PRCP99
0167595590999992000011706004+22000+120770FM-12+002499999V0203301N002010075019N0100001N1+02301+01761101401ADDAA199000091GF107991071011008001001001MA1999999101121MD1710221+9999REMSYN070    AAXX  17061 59559 32560 73302 10230 20176 30112 40140 57022 87100;EQDQ01  00002PRCP99
0167595590999992000011709004+22000+120770FM-12+002499999V0200201N004010075019N0150001N1+02161+01721101471ADDAA199000091GF107991071031008001999999MA1999999101191MD1310071+9999REMSYN070    AAXX  17091 59559 32565 70204 10216 20172 30119 40147 53007 873//;EQDQ01  00002PRCP99
0167595590999992000011712004+22000+120770FM-12+002499999V0200201N006012200019N0150001N1+02021+01651101581ADDAA199000091GF102991021051008001001001MA1999999101301MD1210111+9999REMSYN070    AAXX  17121 59559 32565 20206 10202 20165 30130 40158 52011 82500;EQDQ01  00002PRCP99
0167595590999992000011715004+22000+120770FM-12+002499999V0200101N007012200019N0150001N1+01941+01541101611ADDAA199000091GF102991021051008001001001MA1999999101321MD1010021+9999REMSYN070    AAXX  17151 59559 32565 20107 10194 20154 30132 40161 50002 82500;EQDQ01  00002PRCP99
0167595590999992000011718004+22000+120770FM-12+002499999V0203601N005012200019N0150001N1+01871+01441101611ADDAA199000091GF101991011051008001001001MA1999999101321MD1410001+9999REMSYN070    AAXX  17181 59559 32565 13605 10187 20144 30132 40161 54000 81500;EQDQ01  00002PRCP99
0177595590999992000011721004+22000+120770FM-12+002499999V0200201N003012200019N0150001N1+01861+01431101571ADDAA199000091GA1001+999999999GF100991001001999999001001MA1999999101281MD1510041+9999REMSYN064    AAXX  17211 59559 32965 00203 10186 20143 30128 40157 55004;EQDQ01  00002PRCP99
0167595590999992000011800004+22000+120770FM-12+002499999V0203501N004012200019N0150001N1+01991+01491101781ADDAA199000091GF103991031051008001001001MA1999999101491MD1110211+9999REMSYN070    AAXX  18001 59559 32565 33504 10199 20149 30149 40178 51021 83500;EQDQ01  00002PRCP99
0167595590999992000011803004+22000+120770FM-12+002499999V0203601N003010075019N0200001N1+02191+01461101821ADDAA199000091GF107991071051008001001001MA1999999101541MD1010051+9999REMSYN070    AAXX  18031 59559 32570 73603 10219 20146 30154 40182 50005 87500;EQDQ01  00002PRCP99
0167595590999992000011806004+22000+120770FM-12+002499999V0200201N004010075019N0200001N1+02141+01481101521ADDAA199000091GF107991071051008001001001MA1999999101241MD1710301+9999REMSYN070    AAXX  18061 59559 32570 70204 10214 20148 30124 40152 57030 87500;EQDQ01  00002PRCP99
0167595590999992000011809004+22000+120770FM-12+002499999V0200201N005010075019N0180001N1+01921+01451101571ADDAA199000091GF108991081051008001999999MA1999999101281MD1310041+9999REMSYN070    AAXX  18091 59559 32568 80205 10192 20145 30128 40157 53004 885//;EQDQ01  00002PRCP99
0167595590999992000011812004+22000+120770FM-12+002499999V0200101N007010075019N0150001N1+01861+01411101721ADDAA199000091GF107991071051008001001001MA1999999101431MD1210151+9999REMSYN070    AAXX  18121 59559 32565 70107 10186 20141 30143 40172 52015 87500;EQDQ01  00002PRCP99
0167595590999992000011815004+22000+120770FM-12+002499999V0203501N005010075019N0150001N1+01821+01361101881ADDAA199000091GF108991081051008001999999MA1999999101591MD1110161+9999REMSYN070    AAXX  18151 59559 32565 83505 10182 20136 30159 40188 51016 885//;EQDQ01  00002PRCP99
0167595590999992000011818004+22000+120770FM-12+002499999V0203501N004010075019N0150001N1+01731+01281101801ADDAA199000091GF107991071051008001001001MA1999999101511MD1810081+9999REMSYN070    AAXX  18181 59559 32565 73504 10173 20128 30151 40180 58008 87500;EQDQ01  00002PRCP99
0167595590999992000011821004+22000+120770FM-12+002499999V0203401N002010075019N0120001N1+01541+01341101841ADDAA199000091GF108991081051008001999999MA1999999101551MD1310041+9999REMSYN070    AAXX  18211 59559 32562 83402 10154 20134 30155 40184 53004 885//;EQDQ01  00002PRCP99
0167595590999992000011900004+22000+120770FM-12+002499999V0203001N001012200019N0100001N1+01791+01441101971ADDAA199000091GF103991031051008001001001MA1999999101681MD1210131+9999REMSYN070    AAXX  19001 59559 32560 33001 10179 20144 30168 40197 52013 83500;EQDQ01  00002PRCP99
0167595590999992000011903004+22000+120770FM-12+002499999V0200201N005010075019N0120001N1+01971+01301102031ADDAA199000091GF107991071051008001001001MA1999999101741MD1010061+9999REMSYN070    AAXX  19031 59559 32562 70205 10197 20130 30174 40203 50006 87500;EQDQ01  00002PRCP99
0167595590999992000011906004+22000+120770FM-12+002499999V0203101N001010075019N0120001N1+01841+01351101821ADDAA199000091GF108991081051008001999999MA1999999101531MD1710211+9999REMSYN070    AAXX  19061 59559 32562 83101 10184 20135 30153 40182 57021 885//;EQDQ01  00002PRCP99
0167595590999992000011909004+22000+120770FM-12+002499999V0200301N008010075019N0120001N1+01821+01251101831ADDAA199000091GF107991071051008001999999MA1999999101541MD1310011+9999REMSYN070    AAXX  19091 59559 32562 70308 10182 20125 30154 40183 53001 875//;EQDQ01  00002PRCP99
0167595590999992000011912004+22000+120770FM-12+002499999V0200301N007010075019N0150001N1+01731+01181102011ADDAA199000091GF107991071051008001999999MA1999999101721MD1210181+9999REMSYN070    AAXX  19121 59559 32565 70307 10173 20118 30172 40201 52018 875//;EQDQ01  00002PRCP99
0163595590999992000011915004+22000+120770FM-12+002499999V0200301N011012200019N0150001N1+01701+01081102051ADDAA199000091GF102991021051008001001001MA1999999101761MD1010041+9999REMSYN066AAXX  19151 59559 32565 20311 10170 20108 30176 40205 50004 82500;EQDQ01  00002PRCP99
0163595590999992000011918004+22000+120770FM-12+002499999V0200401N010010075019N0150001N1+01701+01041102071ADDAA199000091GF106991061051008001001001MA1999999101781MD1010021+9999REMSYN066AAXX  19181 59559 32565 60410 10170 20104 30178 40207 50002 86500;EQDQ01  00002PRCP99
0163595590999992000011921004+22000+120770FM-12+002499999V0200401N011010075019N0120001N1+01661+01031102061ADDAA199000091GF106991061051008001001001MA1999999101771MD1510011+9999REMSYN066AAXX  19211 59559 32562 60411 10166 20103 30177 40206 55001 86500;EQDQ01  00002PRCP99
0163595590999992000012000004+22000+120770FM-12+002499999V0200401N011012200019N0150001N1+01721+01031102251ADDAA199000091GF104991041021008001001001MA1999999101961MD1110191+9999REMSYN066AAXX  20001 59559 32565 40411 10172 20103 30196 40225 51019 84200;EQDQ01  00002PRCP99
0163595590999992000012003004+22000+120770FM-12+002499999V0200401N010012200019N0200001N1+01911+01151102261ADDAA199000091GF102991021011008001001001MA1999999101971MD1010011+9999REMSYN066AAXX  20031 59559 32570 20410 10191 20115 30197 40226 50001 82100;EQDQ01  00002PRCP99
0163595590999992000012006004+22000+120770FM-12+002499999V0200301N008012200019N0150001N1+01951+01201102091ADDAA199000091GF102991021051008001001001MA1999999101801MD1710171+9999REMSYN066AAXX  20061 59559 32565 20308 10195 20120 30180 40209 57017 82500;EQDQ01  00002PRCP99
0163595590999992000012009004+22000+120770FM-12+002499999V0200401N016012200019N0150001N1+01761+01181102171ADDAA199000091GF103991031051008001001001MA1999999101881MD1310081+9999REMSYN066AAXX  20091 59559 32565 30416 10176 20118 30188 40217 53008 83500;EQDQ01  00002PRCP99
0163595590999992000012012004+22000+120770FM-12+002499999V0200301N021012200019N0150001N1+01761+01151102361ADDAA199000091GF103991031051008001001001MA1999999102071MD1110191+9999REMSYN066AAXX  20121 59559 32565 30321 10176 20115 30207 40236 51019 83500;EQDQ01  00002PRCP99
0163595590999992000012015004+22000+120770FM-12+002499999V0200401N019010075019N0150001N1+01771+01121102441ADDAA199000091GF105991051051008001001001MA1999999102151MD1210081+9999REMSYN066AAXX  20151 59559 32565 50419 10177 20112 30215 40244 52008 85500;EQDQ01  00002PRCP99
0163595590999992000012018004+22000+120770FM-12+002499999V0200401N017010075019N0150001N1+01801+01041102341ADDAA199000091GF105991051051008001001001MA1999999102051MD1610101+9999REMSYN066AAXX  20181 59559 32565 50417 10180 20104 30205 40234 56010 85500;EQDQ01  00002PRCP99
0163595590999992000012021004+22000+120770FM-12+002499999V0200501N017010075019N0150001N1+01831+01161102351ADDAA199000091GF106991061051008001001001MA1999999102061MD1010011+9999REMSYN066AAXX  20211 59559 32565 60517 10183 20116 30206 40235 50001 86500;EQDQ01  00002PRCP99
0163595590999992000012100004+22000+120770FM-12+002499999V0200501N019010075019N0150001N1+01811+01341102471ADDAA199000091GF106991061051008001001001MA1999999102181MD1210121+9999REMSYN066AAXX  21001 59559 32565 60519 10181 20134 30218 40247 52012 86500;EQDQ01  00002PRCP99
0163595590999992000012103004+22000+120770FM-12+002499999V0200401N009010360019N0200001N1+02101+01331102501ADDAA199000091GF106991021011008001041001MA1999999102211MD1010031+9999REMSYN066AAXX  21031 59559 32570 60409 10210 20133 30221 40250 50003 82140;EQDQ01  00002PRCP99
0163595590999992000012109004+22000+120770FM-12+002499999V0200501N008010075019N0150001N1+02001+01281102301ADDAA199000091GF106991061051008001001001MA1999999102011MD1510031+9999REMSYN066AAXX  21091 59559 32565 60508 10200 20128 30201 40230 55003 86500;EQDQ01  00002PRCP99
0163595590999992000012112004+22000+120770FM-12+002499999V0200701N017010075019N0100001N1+01801+01491102391ADDAA199000091GF108991081061008001999999MA1999999102101MD1110091+9999REMSYN066AAXX  21121 59559 32560 80717 10180 20149 30210 40239 51009 886//;EQDQ01  00002PRCP99
0163595590999992000012115004+22000+120770FM-12+002499999V0200501N021010075019N0100001N1+01871+01451102351ADDAA199000091GF108991081051008001999999MA1999999102061MD1510041+9999REMSYN066AAXX  21151 59559 32560 80521 10187 20145 30206 40235 55004 885//;EQDQ01  00002PRCP99
0163595590999992000012118004+22000+120770FM-12+002499999V0200401N016010075019N0100001N1+01981+01381102251ADDAA199000091GF108991081051008001999999MA1999999101961MD1810101+9999REMSYN066AAXX  21181 59559 32560 80416 10198 20138 30196 40225 58010 885//;EQDQ01  00002PRCP99
0163595590999992000012121004+22000+120770FM-12+002499999V0200401N013010075019N0100001N1+01941+01461102181ADDAA199000091GF108991081051008001999999MA1999999101891MD1510071+9999REMSYN066AAXX  21211 59559 32560 80413 10194 20146 30189 40218 55007 885//;EQDQ01  00002PRCP99
0163595590999992000012200004+22000+120770FM-12+002499999V0200501N016010075019N0200001N1+02041+01441102221ADDAA199000091GF108991081051008001999999MA1999999101931MD1010041+9999REMSYN066AAXX  22001 59559 32570 80516 10204 20144 30193 40222 50004 885//;EQDQ01  00002PRCP99
0163595590999992000012203004+22000+120770FM-12+002499999V0200401N016010075019N0200001N1+02251+01531102201ADDAA199000091GF107991071051008001001001MA1999999101921MD1810011+9999REMSYN066AAXX  22031 59559 32570 70416 10225 20153 30192 40220 58001 87500;EQDQ01  00002PRCP99
0163595590999992000012206004+22000+120770FM-12+002499999V0200501N010010075019N0200001N1+02261+01581101991ADDAA199000091GF106991061051008001001001MA1999999101711MD1710211+9999REMSYN066AAXX  22061 59559 32570 60510 10226 20158 30171 40199 57021 86500;EQDQ01  00002PRCP99
0163595590999992000012209004+22000+120770FM-12+002499999V0200301N010010075019N0150001N1+02161+01561101991ADDAA199000091GF108991081051008001999999MA1999999101711MD1410001+9999REMSYN066AAXX  22091 59559 32565 80310 10216 20156 30171 40199 54000 885//;EQDQ01  00002PRCP99
0163595590999992000012212004+22000+120770FM-12+002499999V0200401N009010075019N0150001N1+02181+01481102061ADDAA199000091GF108991081051008001999999MA1999999101781MD1010071+9999REMSYN066AAXX  22121 59559 32565 80409 10218 20148 30178 40206 50007 885//;EQDQ01  00002PRCP99
0163595590999992000012215004+22000+120770FM-12+002499999V0200501N009010075019N0150001N1+02111+01691102131ADDAA199000091GF108991081051008001999999MA1999999101851MD1110071+9999REMSYN066AAXX  22151 59559 32565 80509 10211 20169 30185 40213 51007 885//;EQDQ01  00002PRCP99
0163595590999992000012218004+22000+120770FM-12+002499999V0200601N011010075019N0150001N1+02091+01691101971ADDAA199000091GF108991081051008001999999MA1999999101691MD1810161+9999REMSYN066AAXX  22181 59559 32565 80611 10209 20169 30169 40197 58016 885//;EQDQ01  00002PRCP99
0163595590999992000012221004+22000+120770FM-12+002499999V0200701N009010075019N0150001N1+02071+01671101931ADDAA199000091GF107991071051008001001001MA1999999101651MD1510041+9999REMSYN066AAXX  22211 59559 32565 70709 10207 20167 30165 40193 55004 87500;EQDQ01  00002PRCP99
0163595590999992000012300004+22000+120770FM-12+002499999V0200601N014010120019N0200001N1+02201+01721101991ADDAA199000091GF106991061051012501001001MA1999999101711MD1210061+9999REMSYN066AAXX  23001 59559 32670 60614 10220 20172 30171 40199 52006 86500;EQDQ01  00002PRCP99
0163595590999992000012303004+22000+120770FM-12+002499999V0200701N013010075019N0180001N1+02401+01761102011ADDAA199000091GF108991081051008001999999MA1999999101731MD1010021+9999REMSYN066AAXX  23031 59559 32568 80713 10240 20176 30173 40201 50002 885//;EQDQ01  00002PRCP99
0163595590999992000012306004+22000+120770FM-12+002499999V0200801N012010120019N0180001N1+02431+01791101791ADDAA199000091GF107991071081008001999999MA1999999101511MD1810221+9999REMSYN066AAXX  23061 59559 32568 70812 10243 20179 30151 40179 58022 878//;EQDQ01  00002PRCP99
0163595590999992000012312004+22000+120770FM-12+002499999V0200601N005010075019N0150001N1+02301+01751101891ADDAA199000091GF108991081051008001999999MA1999999101611MD1210131+9999REMSYN066AAXX  23121 59559 32565 80605 10230 20175 30161 40189 52013 885//;EQDQ01  00002PRCP99
0163595590999992000012315004+22000+120770FM-12+002499999V0200601N004010075019N0150001N1+02261+01791101921ADDAA199000091GF107991071051008001999999MA1999999101641MD1310031+9999REMSYN066AAXX  23151 59559 32565 70604 10226 20179 30164 40192 53003 875//;EQDQ01  00002PRCP99
0163595590999992000012318004+22000+120770FM-12+002499999V0200501N006010360019N0150001N1+02271+01801101771ADDAA199000091GF105991011011008001051001MA1999999101491MD1710151+9999REMSYN066AAXX  23181 59559 32565 50506 10227 20180 30149 40177 57015 81150;EQDQ01  00002PRCP99
0163595590999992000012321004+22000+120770FM-12+002499999V0200401N005010075019N0150001N1+02261+01841101751ADDAA199000091GF107991071051008001999999MA1999999101471MD1510021+9999REMSYN066AAXX  23211 59559 32565 70405 10226 20184 30147 40175 55002 875//;EQDQ01  00002PRCP99
0163595590999992000012400004+22000+120770FM-12+002499999V0200701N005010075019N0120001N1+02361+01891101881ADDAA199000091GF107991071051008001999999MA1999999101601MD1110131+9999REMSYN066AAXX  24001 59559 32562 70705 10236 20189 30160 40188 51013 875//;EQDQ01  00002PRCP99
0163595590999992000012403004+22000+120770FM-12+002499999V0200701N006010360019N0180001N1+02611+01911101931ADDAA199000091GF106991041041008001031001MA1999999101651MD1010051+9999REMSYN066AAXX  24031 59559 32568 60706 10261 20191 30165 40193 50005 84430;EQDQ01  00002PRCP99
0163595590999992000012406004+22000+120770FM-12+002499999V0200401N004010075019N0150001N1+02491+01891101771ADDAA199000091GF107991071051008001999999MA1999999101491MD1710161+9999REMSYN066AAXX  24061 59559 32565 70404 10249 20189 30149 40177 57016 875//;EQDQ01  00002PRCP99
0163595590999992000012409004+22000+120770FM-12+002499999V0200701N003010075019N0150001N1+02431+01851101761ADDAA199000091GF106991061051008001001001MA1999999101481MD1510011+9999REMSYN066AAXX  24091 59559 32565 60703 10243 20185 30148 40176 55001 86500;EQDQ01  00002PRCP99
0163595590999992000012412004+22000+120770FM-12+002499999V0200301N004010075019N0150001N1+02291+01901101891ADDAA199000091GF106991061051008001001001MA1999999101611MD1110131+9999REMSYN066AAXX  24121 59559 32565 60304 10229 20190 30161 40189 51013 86500;EQDQ01  00002PRCP99
0163595590999992000012415004+22000+120770FM-12+002499999V0201001N005010075019N0120001N1+02041+01921101941ADDAA199000091GF108991081051008001999999MA1999999101651MD1110041+9999REMSYN066AAXX  24151 59559 32562 81005 10204 20192 30165 40194 51004 885//;EQDQ01  00002PRCP99
0163595590999992000012418004+22000+120770FM-12+002499999V0200201N003010075019N0120001N1+02151+01841101831ADDAA199000091GF107991071051008001999999MA1999999101551MD1610101+9999REMSYN066AAXX  24181 59559 32562 70203 10215 20184 30155 40183 56010 875//;EQDQ01  00002PRCP99
0163595590999992000012421004+22000+120770FM-12+002499999V0200101N006010075019N0120001N1+02101+01881101801ADDAA199000091GF108991081051008001999999MA1999999101521MD1510031+9999REMSYN066AAXX  24211 59559 32562 80106 10210 20188 30152 40180 55003 885//;EQDQ01  00002PRCP99
0163595590999992000012500004+22000+120770FM-12+002499999V0200401N012010075019N0120001N1+02031+01671101921ADDAA199000091GF107991071051008001999999MA1999999101631MD1210111+9999REMSYN066AAXX  25001 59559 32562 70412 10203 20167 30163 40192 52011 875//;EQDQ01  00002PRCP99
0163595590999992000012503004+22000+120770FM-12+002499999V0200301N011010075019N0150001N1+02071+01511101951ADDAA199000091GF106991061051008001001001MA1999999101671MD1010041+9999REMSYN066AAXX  25031 59559 32565 60311 10207 20151 30167 40195 50004 86500;EQDQ01  00002PRCP99
0163595590999992000012506004+22000+120770FM-12+002499999V0200301N010010075019N0150001N1+02071+01401101861ADDAA199000091GF106991061051008001001001MA1999999101581MD1710091+9999REMSYN066AAXX  25061 59559 32565 60310 10207 20140 30158 40186 57009 86500;EQDQ01  00002PRCP99
0163595590999992000012509004+22000+120770FM-12+002499999V0200401N012010075019N0180001N1+01891+01271101961ADDAA199000091GF105991051051008001001001MA1999999101671MD1310091+9999REMSYN066AAXX  25091 59559 32568 50412 10189 20127 30167 40196 53009 85500;EQDQ01  00002PRCP99
0163595590999992000012512004+22000+120770FM-12+002499999V0200401N023010075019N0120001N1+01791+01321102141ADDAA199000091GF108991081051008001999999MA1999999101851MD1310181+9999REMSYN066AAXX  25121 59559 32562 80423 10179 20132 30185 40214 53018 885//;EQDQ01  00002PRCP99
0163595590999992000012515004+22000+120770FM-12+002499999V0200301N013010120019N0120001N1+01761+01261102171ADDAA199000091GF107991071051012501001001MA1999999101881MD1010031+9999REMSYN066AAXX  25151 59559 32662 70313 10176 20126 30188 40217 50003 87500;EQDQ01  00002PRCP99
0163595590999992000012518004+22000+120770FM-12+002499999V0200401N011010075019N0120001N1+01731+01221102081ADDAA199000091GF108991081051008001999999MA1999999101791MD1810091+9999REMSYN066AAXX  25181 59559 32562 80411 10173 20122 30179 40208 58009 885//;EQDQ01  00002PRCP99
0163595590999992000012521004+22000+120770FM-12+002499999V0200301N020010120019N0120001N1+01681+01181102091ADDAA199000091GF108991081051012501999999MA1999999101801MD1310011+9999REMSYN066AAXX  25211 59559 32662 80320 10168 20118 30180 40209 53001 885//;EQDQ01  00002PRCP99
0163595590999992000012600004+22000+120770FM-12+002499999V0200401N011010075019N0180001N1+01711+01131102341ADDAA199000091GF108991081051008001999999MA1999999102051MD1210251+9999REMSYN066AAXX  26001 59559 32568 80411 10171 20113 30205 40234 52025 885//;EQDQ01  00002PRCP99
0163595590999992000012603004+22000+120770FM-12+002499999V0200401N020010075019N0180001N1+01781+01171102351ADDAA199000091GF108991081051008001999999MA1999999102061MD1010011+9999REMSYN066AAXX  26031 59559 32568 80420 10178 20117 30206 40235 50001 885//;EQDQ01  00002PRCP99
0163595590999992000012609004+22000+120770FM-12+002499999V0200301N008010075019N0150001N1+01701+01171102181ADDAA199000091GF108991081051008001999999MA1999999101891MD1510011+9999REMSYN066AAXX  26091 59559 32565 80308 10170 20117 30189 40218 55001 885//;EQDQ01  00002PRCP99
0163595590999992000012612004+22000+120770FM-12+002499999V0200401N020010075019N0150001N1+01651+01151102321ADDAA199000091GF108991081051008001999999MA1999999102031MD1310141+9999REMSYN066AAXX  26121 59559 32565 80420 10165 20115 30203 40232 53014 885//;EQDQ01  00002PRCP99
0163595590999992000012615004+22000+120770FM-12+002499999V0200401N020010075019N0150001N1+01651+01151102321ADDAA199000091GF108991081051008001999999MA1999999102031MD1310141+9999REMSYN066AAXX  26151 59559 32565 80420 10165 20115 30203 40232 53014 885//;EQDQ01  00002PRCP99
0179595590999992000012618004+22000+120770FM-12+002499999V0200401N017010075019N0100001N1+01531+00961102251ADDAA199000091GF108991999051008001001001MA1999999101961MD1810131+9999REMSYN066AAXX  26181 59559 32560 80417 10153 20096 30196 40225 58013 86500;EQDQ01+000062SCOTLCQ02  00002PRCP99
0179595590999992000012621004+22000+120770FM-12+002499999V02099999999990075019N0100001N1+01511+00971102251ADDAA199000091GF108991999061008001021031MA1999999101961MD1410001+9999REMSYN066AAXX  26211 59559 32560 808// 10151 20097 30196 40225 54000 88623;EQDQ01+000082SCOTLCQ02  00002PRCP99
0163595590999992000012700004+22000+120770FM-12+002499999V0200401N019010075019N0200001N1+01581+00931102491ADDAA199000091GF108991081051008001999999MA1999999102201MD1210241+9999REMSYN066AAXX  27001 59559 32570 80419 10158 20093 30220 40249 52024 885//;EQDQ01  00002PRCP99
0163595590999992000012703004+22000+120770FM-12+002499999V0200401N017010075019N0200001N1+01671+00911102471ADDAA199000091GF108991081051008001999999MA1999999102181MD1810021+9999REMSYN066AAXX  27031 59559 32570 80417 10167 20091 30218 40247 58002 885//;EQDQ01  00002PRCP99
0163595590999992000012706004+22000+120770FM-12+002499999V0200301N016012200019N0200001N1+01821+00981102231ADDAA199000091GF102991021011008001001001MA1999999101941MD1710241+9999REMSYN066AAXX  27061 59559 32570 20316 10182 20098 30194 40223 57024 82100;EQDQ01  00002PRCP99
0163595590999992000012709004+22000+120770FM-12+002499999V0200401N008012200019N0200001N1+01631+00961102271ADDAA199000091GF103991031021008001001001MA1999999101981MD1310041+9999REMSYN066AAXX  27091 59559 32570 30408 10163 20096 30198 40227 53004 83200;EQDQ01  00002PRCP99
0163595590999992000012712004+22000+120770FM-12+002499999V0200401N017012200019N0200001N1+01621+00971102411ADDAA199000091GF104991041051008001001001MA1999999102121MD1210141+9999REMSYN066AAXX  27121 59559 32570 40417 10162 20097 30212 40241 52014 84500;EQDQ01  00002PRCP99
0163595590999992000012715004+22000+120770FM-12+002499999V0200501N008010075019N0200001N1+01601+01001102411ADDAA199000091GF106991061051008001001001MA1999999102121MD1410001+9999REMSYN066AAXX  27151 59559 32570 60508 10160 20100 30212 40241 54000 86500;EQDQ01  00002PRCP99
0163595590999992000012718004+22000+120770FM-12+002499999V0200401N009010075019N0200001N1+01601+00971102331ADDAA199000091GF106991061051008001001001MA1999999102041MD1810081+9999REMSYN066AAXX  27181 59559 32570 60409 10160 20097 30204 40233 58008 86500;EQDQ01  00002PRCP99
0163595590999992000012721004+22000+120770FM-12+002499999V0200401N009012200019N0200001N1+01611+00971102331ADDAA199000091GF101991011011008001001001MA1999999102041MD1410001+9999REMSYN066AAXX  27211 59559 32570 10409 10161 20097 30204 40233 54000 81100;EQDQ01  00002PRCP99
0163595590999992000012800004+22000+120770FM-12+002499999V0200301N019012200019N0200001N1+01681+01001102481ADDAA199000091GF101991011011008001001001MA1999999102191MD1210151+9999REMSYN066AAXX  28001 59559 32570 10319 10168 20100 30219 40248 52015 81100;EQDQ01  00002PRCP99
0163595590999992000012803004+22000+120770FM-12+002499999V0200301N010012200019N0200001N1+01911+01001102471ADDAA199000091GF102991021011008001001001MA1999999102181MD1810011+9999REMSYN066AAXX  28031 59559 32570 20310 10191 20100 30218 40247 58001 82100;EQDQ01  00002PRCP99
0163595590999992000012806004+22000+120770FM-12+002499999V0200401N015012200019N0200001N1+02011+00991102231ADDAA199000091GF101991011011008001001001MA1999999101941MD1710241+9999REMSYN066AAXX  28061 59559 32570 10415 10201 20099 30194 40223 57024 81100;EQDQ01  00002PRCP99
0163595590999992000012809004+22000+120770FM-12+002499999V0200401N006012200019N0200001N1+01801+00961102321ADDAA199000091GF102991021011008001001001MA1999999102031MD1310091+9999REMSYN066AAXX  28091 59559 32570 20406 10180 20096 30203 40232 53009 82100;EQDQ01  00002PRCP99
0163595590999992000012812004+22000+120770FM-12+002499999V0200401N017012200019N0200001N1+01691+01051102481ADDAA199000091GF101991011011008001001001MA1999999102191MD1210161+9999REMSYN066AAXX  28121 59559 32570 10417 10169 20105 30219 40248 52016 81100;EQDQ01  00002PRCP99
0173595590999992000012815004+22000+120770FM-12+002499999V0200301N009012200019N0200001N1+01711+00981102451ADDAA199000091GA1001+999999999GF100991001001999999001001MA1999999102161MD1810031+9999REMSYN060AAXX  28151 59559 32970 00309 10171 20098 30216 40245 58003;EQDQ01  00002PRCP99
0163595590999992000012818004+22000+120770FM-12+002499999V0200201N007012200019N0180001N1+01711+01041102361ADDAA199000091GF101991011011008001001001MA1999999102071MD1810091+9999REMSYN066AAXX  28181 59559 32568 10207 10171 20104 30207 40236 58009 81100;EQDQ01  00002PRCP99
0163595590999992000012821004+22000+120770FM-12+002499999V0200301N016012200019N0180001N1+01731+00901102341ADDAA199000091GF101991011011008001001001MA1999999102051MD1510021+9999REMSYN066AAXX  28211 59559 32568 10316 10173 20090 30205 40234 55002 81100;EQDQ01  00002PRCP99
0163595590999992000012900004+22000+120770FM-12+002499999V0200301N013012200019N0200001N1+01861+00951102531ADDAA199000091GF102991021011008001001001MA1999999102241MD1210191+9999REMSYN066AAXX  29001 59559 32570 20313 10186 20095 30224 40253 52019 82100;EQDQ01  00002PRCP99
0163595590999992000012903004+22000+120770FM-12+002499999V0200301N006012200019N0200001N1+02251+01161102521ADDAA199000091GF101991011011008001001001MA1999999102241MD1410001+9999REMSYN066AAXX  29031 59559 32570 10306 10225 20116 30224 40252 54000 81100;EQDQ01  00002PRCP99
0163595590999992000012906004+22000+120770FM-12+002499999V0200501N011012200019N0200001N1+02301+01151102351ADDAA199000091GF102991021011008001001001MA1999999102071MD1710171+9999REMSYN066AAXX  29061 59559 32570 20511 10230 20115 30207 40235 57017 82100;EQDQ01  00002PRCP99
0163595590999992000012909004+22000+120770FM-12+002499999V0200301N005012200019N0250001N1+02061+01161102401ADDAA199000091GF102991021011008001001001MA1999999102111MD1310041+9999REMSYN066AAXX  29091 59559 32575 20305 10206 20116 30211 40240 53004 82100;EQDQ01  00002PRCP99
0163595590999992000012912004+22000+120770FM-12+002499999V0200101N003012200019N0200001N1+01831+01171102581ADDAA199000091GF102991021011008001001001MA1999999102291MD1110181+9999REMSYN066AAXX  29121 59559 32570 20103 10183 20117 30229 40258 51018 82100;EQDQ01  00002PRCP99
0163595590999992000012915004+22000+120770FM-12+002499999V0200101N005012200019N0200001N1+01831+01161102571ADDAA199000091GF101991011011008001001001MA1999999102281MD1810011+9999REMSYN066AAXX  29151 59559 32570 10105 10183 20116 30228 40257 58001 81100;EQDQ01  00002PRCP99
0163595590999992000012918004+22000+120770FM-12+002499999V0200201N003012200019N0200001N1+01781+01051102471ADDAA199000091GF101991011011008001001001MA1999999102181MD1810101+9999REMSYN066AAXX  29181 59559 32570 10203 10178 20105 30218 40247 58010 81100;EQDQ01  00002PRCP99
0163595590999992000012921004+22000+120770FM-12+002499999V0202901N001012200019N0150001N1+01611+01041102451ADDAA199000091GF102991021051008001001001MA1999999102161MD1510021+9999REMSYN066AAXX  29211 59559 32565 22901 10161 20104 30216 40245 55002 82500;EQDQ01  00002PRCP99
0163595590999992000013000004+22000+120770FM-12+002499999V0203601N004012200019N0150001N1+02001+01091102551ADDAA199000091GF102991011051008001031001MA1999999102261MD1210101+9999REMSYN066AAXX  30001 59559 32565 23604 10200 20109 30226 40255 52010 81530;EQDQ01  00002PRCP99
0163595590999992000013003004+22000+120770FM-12+002499999V0200301N006012200019N0180001N1+02371+01451102531ADDAA199000091GF102991021011008001001011MA1999999102251MD1810011+9999REMSYN066AAXX  30031 59559 32568 20306 10237 20145 30225 40253 58001 82101;EQDQ01  00002PRCP99
0163595590999992000013006004+22000+120770FM-12+002499999V0200401N009012200019N0200001N1+02181+01411102311ADDAA199000091GF103991031051008001001001MA1999999102031MD1510221+9999REMSYN066AAXX  30061 59559 32570 30409 10218 20141 30203 40231 55022 83500;EQDQ01  00002PRCP99
0163595590999992000013009004+22000+120770FM-12+002499999V0200301N008010075019N0200001N1+02001+01391102391ADDAA199000091GF106991061051008001001001MA1999999102101MD1310071+9999REMSYN066AAXX  30091 59559 32570 60308 10200 20139 30210 40239 53007 86500;EQDQ01  00002PRCP99
0163595590999992000013012004+22000+120770FM-12+002499999V0200401N012012200019N0200001N1+01891+01281102371ADDAA199000091GF102991021011008001001001MA1999999102081MD1510021+9999REMSYN066AAXX  30121 59559 32570 20412 10189 20128 30208 40237 55002 82100;EQDQ01  00002PRCP99
0163595590999992000013015004+22000+120770FM-12+002499999V0200401N012012200019N0200001N1+01831+01271102381ADDAA199000091GF101991011011008001001001MA1999999102091MD1010011+9999REMSYN066AAXX  30151 59559 32570 10412 10183 20127 30209 40238 50001 81100;EQDQ01  00002PRCP99
0163595590999992000013018004+22000+120770FM-12+002499999V0200401N013012200019N0200001N1+01791+01161102301ADDAA199000091GF101991011011008001001001MA1999999102011MD1710081+9999REMSYN066AAXX  30181 59559 32570 10413 10179 20116 30201 40230 57008 81100;EQDQ01  00002PRCP99
0163595590999992000013021004+22000+120770FM-12+002499999V0200301N013012200019N0200001N1+01761+01131102271ADDAA199000091GF102991021011008001001001MA1999999101981MD1510031+9999REMSYN066AAXX  30211 59559 32570 20313 10176 20113 30198 40227 55003 82100;EQDQ01  00002PRCP99
0163595590999992000013100004+22000+120770FM-12+002499999V0200301N011012200019N0200001N1+01811+01141102441ADDAA199000091GF103991031051008001001001MA1999999102151MD1210171+9999REMSYN066AAXX  31001 59559 32570 30311 10181 20114 30215 40244 52017 83500;EQDQ01  00002PRCP99
0163595590999992000013103004+22000+120770FM-12+002499999V0200401N013012200019N0200001N1+01991+01151102411ADDAA199000091GF105991031021008001001011MA1999999102121MD1710031+9999REMSYN066AAXX  31031 59559 32570 50413 10199 20115 30212 40241 57003 83201;EQDQ01  00002PRCP99
0163595590999992000013106004+22000+120770FM-12+002499999V0200301N019012200019N0200001N1+01991+01191102211ADDAA199000091GF104991041051008001001001MA1999999101921MD1810201+9999REMSYN066AAXX  31061 59559 32570 40319 10199 20119 30192 40221 58020 84500;EQDQ01  00002PRCP99
0163595590999992000013109004+22000+120770FM-12+002499999V0200301N008012200019N0150001N1+01891+01161102241ADDAA199000091GF102991021051008001001001MA1999999101951MD1310031+9999REMSYN066AAXX  31091 59559 32565 20308 10189 20116 30195 40224 53003 82500;EQDQ01  00002PRCP99
0163595590999992000013112004+22000+120770FM-12+002499999V0200301N016012200019N0100001N1+01801+01171102331ADDAA199000091GF104991041051008001001001MA1999999102041MD1010091+9999REMSYN066AAXX  31121 59559 32560 40316 10180 20117 30204 40233 50009 84500;EQDQ01  00002PRCP99
0163595590999992000013115004+22000+120770FM-12+002499999V0200401N009010075019N0100001N1+01821+01221102331ADDAA199000091GF105991051051008001001001MA1999999102041MD1410001+9999REMSYN066AAXX  31151 59559 32560 50409 10182 20122 30204 40233 54000 85500;EQDQ01  00002PRCP99
0163595590999992000013118004+22000+120770FM-12+002499999V0200201N008010075019N0100001N1+01771+01241102291ADDAA199000091GF105991051051008001001001MA1999999102001MD1810041+9999REMSYN066AAXX  31181 59559 32560 50208 10177 20124 30200 40229 58004 85500;EQDQ01  00002PRCP99
0163595590999992000013121004+22000+120770FM-12+002499999V0200201N010010075019N0100001N1+01761+01191102221ADDAA199000091GF108991081051008001999999MA1999999101931MD1510071+9999REMSYN066AAXX  31211 59559 32560 80210 10176 20119 30193 40222 55007 885//;EQDQ01  00002PRCP99
0163595590999992000020100004+22000+120770FM-12+002499999V0200301N007010075019N0200001N1+02121+01331102421ADDAA199000091GF107991071051008001001001MA1999999102131MD1010091+9999REMSYN066AAXX  01001 59559 32570 70307 10212 20133 30213 40242 50009 87500;EQDQ01  00002PRCP99
0163595590999992000020106004+22000+120770FM-12+002499999V0200301N005010075019N0200001N1+02191+01431102161ADDAA199000091GF106991061051008001001001MA1999999101881MD1710251+9999REMSYN066AAXX  01061 59559 32570 60305 10219 20143 30188 40216 57025 86500;EQDQ01  00002PRCP99
0150595590999992000020109004+22000+120770FM-12+002499999V0200301N006010075019N0150001N1+02011+01421102091ADDAA100000791GF106991061051008001001001MA1999999101801MD1510081+9999REMSYN072AAXX  01091 59559 12565 60306 10201 20142 30180 40209 55008 6990/ 86500;
0163595590999992000020112004+22000+120770FM-12+002499999V0200401N010010075019N0150001N1+01951+01361102061ADDAA199000091GF108991081051008001999999MA1999999101771MD1510031+9999REMSYN066AAXX  01121 59559 32565 80410 10195 20136 30177 40206 55003 885//;EQDQ01  00002PRCP99
0163595590999992000020115004+22000+120770FM-12+002499999V0200401N008010075019N0150001N1+01911+01351102081ADDAA199000091GF105991051051008001001001MA1999999101791MD1010021+9999REMSYN066AAXX  01151 59559 32565 50408 10191 20135 30179 40208 50002 85500;EQDQ01  00002PRCP99
0163595590999992000020118004+22000+120770FM-12+002499999V0200501N010010075019N0150001N1+01911+01381101991ADDAA199000091GF106991061051008001001001MA1999999101701MD1710091+9999REMSYN066AAXX  01181 59559 32565 60510 10191 20138 30170 40199 57009 86500;EQDQ01  00002PRCP99
0163595590999992000020121004+22000+120770FM-12+002499999V0200401N013012200019N0150001N1+01841+01491102021ADDAA199000091GF102991021051008001001001MA1999999101731MD1010031+9999REMSYN066AAXX  01211 59559 32565 20413 10184 20149 30173 40202 50003 82500;EQDQ01  00002PRCP99
0163595590999992000020200004+22000+120770FM-12+002499999V0200401N006012200019N0150001N1+01911+01451102221ADDAA199000091GF103991031051008001001001MA1999999101931MD1310201+9999REMSYN066AAXX  02001 59559 32565 30406 10191 20145 30193 40222 53020 83500;EQDQ01  00002PRCP99
0163595590999992000020203004+22000+120770FM-12+002499999V0200401N005010075019N0120001N1+02151+01631102271ADDAA199000091GF106991061051008001001001MA1999999101991MD1010061+9999REMSYN066AAXX  02031 59559 32562 60405 10215 20163 30199 40227 50006 86500;EQDQ01  00002PRCP99
0163595590999992000020206004+22000+120770FM-12+002499999V0200401N004010075019N0200001N1+02371+01611102021ADDAA199000091GF105991051021008001001001MA1999999101741MD1710251+9999REMSYN066AAXX  02061 59559 32570 50404 10237 20161 30174 40202 57025 85200;EQDQ01  00002PRCP99
0163595590999992000020209004+22000+120770FM-12+002499999V0200201N005010360019N0200001N1+02141+01581101991ADDAA199000091GF105991021021008001011001MA1999999101711MD1510031+9999REMSYN066AAXX  02091 59559 32570 50205 10214 20158 30171 40199 55003 82210;EQDQ01  00002PRCP99
0163595590999992000020212004+22000+120770FM-12+002499999V0200201N004010360019N0200001N1+02041+01571102141ADDAA199000091GF106991031021008001011001MA1999999101851MD1310141+9999REMSYN066AAXX  02121 59559 32570 60204 10204 20157 30185 40214 53014 83210;EQDQ01  00002PRCP99
0163595590999992000020215004+22000+120770FM-12+002499999V0200201N004012200019N0200001N1+02031+01621102081ADDAA199000091GF102991021051008001001001MA1999999101791MD1810061+9999REMSYN066AAXX  02151 59559 32570 20204 10203 20162 30179 40208 58006 82500;EQDQ01  00002PRCP99
0163595590999992000020218004+22000+120770FM-12+002499999V0200401N003010075019N0200001N1+02111+01531101981ADDAA199000091GF105991051051008001001001MA1999999101701MD1510091+9999REMSYN066AAXX  02181 59559 32570 50403 10211 20153 30170 40198 55009 85500;EQDQ01  00002PRCP99
0163595590999992000020221004+22000+120770FM-12+002499999V0200201N009012200019N0150001N1+01961+01651101951ADDAA199000091GF104991041051008001001001MA1999999101661MD1710041+9999REMSYN066AAXX  02211 59559 32565 40209 10196 20165 30166 40195 57004 84500;EQDQ01  00002PRCP99
0163595590999992000020300004+22000+120770FM-12+002499999V0200101N007010075019N0200001N1+02131+01561102011ADDAA199000091GF105991051051008001001001MA1999999101731MD1310071+9999REMSYN066AAXX  03001 59559 32570 50107 10213 20156 30173 40201 53007 85500;EQDQ01  00002PRCP99
0163595590999992000020303004+22000+120770FM-12+002499999V0200301N005012200019N0200001N1+02601+01631101991ADDAA199000091GF102991021051008001001001MA1999999101711MD1810021+9999REMSYN066AAXX  03031 59559 32570 20305 10260 20163 30171 40199 58002 82500;EQDQ01  00002PRCP99
0163595590999992000020306004+22000+120770FM-12+002499999V0200601N005010075019N0200001N1+02521+01671101751ADDAA199000091GF106991061051008001001001MA1999999101471MD1710241+9999REMSYN066AAXX  03061 59559 32570 60605 10252 20167 30147 40175 57024 86500;EQDQ01  00002PRCP99
0163595590999992000020309004+22000+120770FM-12+002499999V0200501N003010075019N0200001N1+02351+01721101691ADDAA199000091GF107991071051008001001001MA1999999101411MD1510061+9999REMSYN066AAXX  03091 59559 32570 70503 10235 20172 30141 40169 55006 87500;EQDQ01  00002PRCP99
0163595590999992000020312004+22000+120770FM-12+002499999V0200501N013012200019N0200001N1+02251+01731101771ADDAA199000091GF104991041051008001001001MA1999999101491MD1110081+9999REMSYN066AAXX  03121 59559 32570 40513 10225 20173 30149 40177 51008 84500;EQDQ01  00002PRCP99
0163595590999992000020315004+22000+120770FM-12+002499999V0200501N005012200019N0200001N1+02191+01691101851ADDAA199000091GF104991041051008001001001MA1999999101571MD1110081+9999REMSYN066AAXX  03151 59559 32570 40505 10219 20169 30157 40185 51008 84500;EQDQ01  00002PRCP99
0163595590999992000020318004+22000+120770FM-12+002499999V0200301N008012200019N0200001N1+02141+01691101741ADDAA199000091GF102991021051008001001001MA1999999101461MD1710111+9999REMSYN066AAXX  03181 59559 32570 20308 10214 20169 30146 40174 57011 82500;EQDQ01  00002PRCP99
0163595590999992000020321004+22000+120770FM-12+002499999V0200401N006012200019N0200001N1+02101+01631101671ADDAA199000091GF103991031051008001001001MA1999999101391MD1510071+9999REMSYN066AAXX  03211 59559 32570 30406 10210 20163 30139 40167 55007 83500;EQDQ01  00002PRCP99
0163595590999992000020400004+22000+120770FM-12+002499999V0200301N010012200019N0250001N1+02191+01651101731ADDAA199000091GF103991031021008001001001MA1999999101451MD1010061+9999REMSYN066AAXX  04001 59559 32575 30310 10219 20165 30145 40173 50006 83200;EQDQ01  00002PRCP99
0163595590999992000020403004+22000+120770FM-12+002499999V0200301N012010360019N0250001N1+02381+01611101701ADDAA199000091GF106991021021008001071001MA1999999101421MD1810031+9999REMSYN066AAXX  04031 59559 32575 60312 10238 20161 30142 40170 58003 82270;EQDQ01  00002PRCP99
0163595590999992000020406004+22000+120770FM-12+002499999V0200301N020010360019N0200001N1+02401+01601101451ADDAA199000091GF107991021011008001051011MA1999999101171MD1710251+9999REMSYN066AAXX  04061 59559 32570 70320 10240 20160 30117 40145 57025 82151;EQDQ01  00002PRCP99
0163595590999992000020412004+22000+120770FM-12+002499999V0200501N008010360019N0200001N1+02201+01671101581ADDAA199000091GF107991021011008001051001MA1999999101301MD1210101+9999REMSYN066AAXX  04121 59559 32570 70508 10220 20167 30130 40158 52010 82150;EQDQ01  00002PRCP99
0163595590999992000020415004+22000+120770FM-12+002499999V0200401N006010120019N0200001N1+02161+01691101621ADDAA199000091GF106991061051012501001001MA1999999101341MD1010041+9999REMSYN066AAXX  04151 59559 32670 60406 10216 20169 30134 40162 50004 86500;EQDQ01  00002PRCP99
0163595590999992000020418004+22000+120770FM-12+002499999V0200201N005010120019N0200001N1+02181+01681101581ADDAA199000091GF106991061051012501001001MA1999999101301MD1510041+9999REMSYN066AAXX  04181 59559 32670 60205 10218 20168 30130 40158 55004 86500;EQDQ01  00002PRCP99
0163595590999992000020421004+22000+120770FM-12+002499999V0200101N004010120019N0200001N1+02071+01671101541ADDAA199000091GF105991051051012501001001MA1999999101261MD1510041+9999REMSYN066AAXX  04211 59559 32670 50104 10207 20167 30126 40154 55004 85500;EQDQ01  00002PRCP99
0178595590999992000020500004+22000+120770FM-12+002499999V0200101N005010075019N0150001N1+02061+01721101731ADDAA112001091AY161061AY221061GF108991081051008001999999MA1999999101451MD1110191+9999MW1211REMSYN078AAXX  05001 59559 11565 80105 10206 20172 30145 40173 51019 60012 72162 885//;
0144595590999992000020503004+22000+120770FM-12+002499999V0200201N003010075019N0150001N1+02371+01731101651ADDAA199000021GF108991081051008001999999MA1999999101371MD1810081+9999REMSYN066AAXX  05031 59559 32565 80203 10237 20173 30137 40165 58008 885//;
0178595590999992000020506004+22000+120770FM-12+002499999V0203301N006010075019N0030001N1+02081+01921101441ADDAA106000591AY161061AY221061GF108991081071008001999999MA1999999101161MD1810211+9999MW1511REMSYN078AAXX  05061 59559 11530 83306 10208 20192 30116 40144 58021 69951 75162 887//;
0178595590999992000020509004+22000+120770FM-12+002499999V0203101N002010075019N0100001N1+02021+01931101441ADDAA100011991AY161031AY261031GF108991081071008001999999MA1999999101161MD1410001+9999MW1631REMSYN078AAXX  05091 59559 11560 83102 10202 20193 30116 40144 54000 6012/ 76366 887//;
0178595590999992000020512004+22000+120770FM-12+002499999V0203501N002010075019N0100001N1+01991+01951101531ADDAA112019191AY161061AY261061GF108991081071008001999999MA1999999101251MD1010091+9999MW1601REMSYN078AAXX  05121 59559 11560 83502 10199 20195 30125 40153 50009 60192 76066 887//;
0178595590999992000020518004+22000+120770FM-12+002499999V0203301N003010075019N0100001N1+02011+01911101381ADDAA106002091AY161061AY221061GF108991081051008001999999MA1999999101101MD1610131+9999MW1021REMSYN078AAXX  05181 59559 11560 83303 10201 20191 30110 40138 56013 60021 70262 885//;
0178595590999992000020521004+22000+120770FM-12+002499999V0203101N002010075019N0100001N1+02041+01891101311ADDAA100005191AY161031AY221031GF108991081051008001999999MA1999999101031MD1510071+9999MW1021REMSYN078AAXX  05211 59559 11560 83102 10204 20189 30103 40131 55007 6005/ 70262 885//;
0178595590999992000020600004+22000+120770FM-12+002499999V0203401N001010075019N0100001N1+02041+01901101451ADDAA112006191AY161061AY221061GF108991081071008001999999MA1999999101171MD1110141+9999MW1601REMSYN078AAXX  06001 59559 11560 83401 10204 20190 30117 40145 51014 60062 76062 887//;
0144595590999992000020603004+22000+120770FM-12+002499999V0200301N008010075019N0250001N1+02311+01931101321ADDAA199000021GF106991061051008001001001MA1999999101041MD1810131+9999REMSYN066AAXX  06031 59559 32575 60308 10231 20193 30104 40132 58013 86500;
0144595590999992000020606004+22000+120770FM-12+002499999V0200201N008012200019N0250001N1+02461+01881101071ADDAA199000021GF104991041051008001001001MA1999999100791MD1710331+9999REMSYN066AAXX  06061 59559 32575 40208 10246 20188 30079 40107 57033 84500;
0144595590999992000020609004+22000+120770FM-12+002499999V0200301N007012200019N0250001N1+02171+01731101121ADDAA199000021GF104991041051008001001001MA1999999100841MD1310051+9999REMSYN066AAXX  06091 59559 32575 40307 10217 20173 30084 40112 53005 84500;
0144595590999992000020612004+22000+120770FM-12+002499999V0200301N019010075019N0150001N1+02121+01641101231ADDAA199000021GF106991061051008001001001MA1999999100951MD1110111+9999REMSYN066AAXX  06121 59559 32565 60319 10212 20164 30095 40123 51011 86500;
0163595590999992000020615004+22000+120770FM-12+002499999V0200301N007010075019N0150001N1+02031+01561101291ADDAA199000091GF107991071051008001001001MA1999999101011MD1010061+9999REMSYN066AAXX  06151 59559 32565 70307 10203 20156 30101 40129 50006 87500;EQDQ01  00002PRCP99
0163595590999992000020618004+22000+120770FM-12+002499999V0200301N006012200019N0150001N1+01961+01521101271ADDAA199000091GF101991011051008001001001MA1999999100991MD1810021+9999REMSYN066AAXX  06181 59559 32565 10306 10196 20152 30099 40127 58002 81500;EQDQ01  00002PRCP99
0163595590999992000020620004+22000+120770FM-12+002499999V0200201N006012200019N0150001N1+01961+01501101221ADDAA199000091GF102991021051008001001001MA1999999100941MD1710051+9999REMSYN066AAXX  06201 59559 32565 20206 10196 20150 30094 40122 57005 82500;EQDQ01  00002PRCP99
0163595590999992000020621004+22000+120770FM-12+002499999V0200201N006012200019N0150001N1+01961+01501101221ADDAA199000091GF102991021051008001001001MA1999999100941MD1710051+9999REMSYN066AAXX  06211 59559 32565 20206 10196 20150 30094 40122 57005 82500;EQDQ01  00002PRCP99
0163595590999992000020700004+22000+120770FM-12+002499999V0200201N010010075019N0250001N1+02041+01491101371ADDAA199000091GF107991071051008001001001MA1999999101091MD1210151+9999REMSYN066AAXX  07001 59559 32575 70210 10204 20149 30109 40137 52015 87500;EQDQ01  00002PRCP99
0163595590999992000020701004+22000+120770FM-12+002499999V0200201N010010075019N0250001N1+02041+01491101371ADDAA199000091GF107991071051008001001001MA1999999101091MD1210151+9999REMSYN066AAXX  07011 59559 32575 70210 10204 20149 30109 40137 52015 87500;EQDQ01  00002PRCP99
0163595590999992000020706004+22000+120770FM-12+002499999V0203501N003010075019N0180001N1+02281+01671101181ADDAA199000091GF107991071051008001999999MA1999999100901MD1710261+9999REMSYN066AAXX  07061 59559 32568 73503 10228 20167 30090 40118 57026 875//;EQDQ01  00002PRCP99
0163595590999992000020709004+22000+120770FM-12+002499999V0200301N005012200019N0180001N1+02121+01551101231ADDAA199000091GF106991021011008001001011MA1999999100951MD1310051+9999REMSYN066AAXX  07091 59559 32568 60305 10212 20155 30095 40123 53005 82101;EQDQ01  00002PRCP99
0163595590999992000020712004+22000+120770FM-12+002499999V0200301N006010075019N0150001N1+02061+01551101351ADDAA199000091GF106991051011008001001011MA1999999101071MD1210121+9999REMSYN066AAXX  07121 59559 32565 60306 10206 20155 30107 40135 52012 85101;EQDQ01  00002PRCP99
0163595590999992000020715004+22000+120770FM-12+002499999V0200401N007012200019N0150001N1+01981+01481101411ADDAA199000091GF103991031051008001001001MA1999999101131MD1110061+9999REMSYN066AAXX  07151 59559 32565 30407 10198 20148 30113 40141 51006 83500;EQDQ01  00002PRCP99
0163595590999992000020718004+22000+120770FM-12+002499999V0200401N007012200019N0150001N1+01861+01441101331ADDAA199000091GF102991021051008001001001MA1999999101041MD1810091+9999REMSYN066AAXX  07181 59559 32565 20407 10186 20144 30104 40133 58009 82500;EQDQ01  00002PRCP99
0163595590999992000020721004+22000+120770FM-12+002499999V0200401N018012200019N0150001N1+01721+01321101411ADDAA199000091GF102991021051008001001001MA1999999101121MD1310081+9999REMSYN066AAXX  07211 59559 32565 20418 10172 20132 30112 40141 53008 82500;EQDQ01  00002PRCP99
0163595590999992000020800004+22000+120770FM-12+002499999V0200401N010012200019N0120001N1+01751+01261101591ADDAA199000091GF102991021041008001001001MA1999999101301MD1110181+9999REMSYN066AAXX  08001 59559 32562 20410 10175 20126 30130 40159 51018 82400;EQDQ01  00002PRCP99
0163595590999992000020803004+22000+120770FM-12+002499999V0200301N021012200019N0180001N1+01901+01201101621ADDAA199000091GF102991011011008001031001MA1999999101331MD1010031+9999REMSYN066AAXX  08031 59559 32568 20321 10190 20120 30133 40162 50003 81130;EQDQ01  00002PRCP99
0163595590999992000020806004+22000+120770FM-12+002499999V0200301N010012200019N0120001N1+01941+01151101471ADDAA199000091GF102991021011008001001001MA1999999101191MD1510141+9999REMSYN066AAXX  08061 59559 32562 20310 10194 20115 30119 40147 55014 82100;EQDQ01  00002PRCP99
0163595590999992000020809004+22000+120770FM-12+002499999V0200301N008010075019N0100001N1+01731+01101101641ADDAA199000091GF106991061051008001001001MA1999999101351MD1210161+9999REMSYN066AAXX  08091 59559 32560 60308 10173 20110 30135 40164 52016 86500;EQDQ01  00002PRCP99
0163595590999992000020812004+22000+120770FM-12+002499999V0200401N008010075019N0100001N1+01661+01071101811ADDAA199000091GF107991071051008001001001MA1999999101521MD1310171+9999REMSYN066AAXX  08121 59559 32560 70408 10166 20107 30152 40181 53017 87500;EQDQ01  00002PRCP99
0163595590999992000020815004+22000+120770FM-12+002499999V0200401N010010075019N0150001N1+01631+01021101841ADDAA199000091GF108991081051008001999999MA1999999101551MD1010031+9999REMSYN066AAXX  08151 59559 32565 80410 10163 20102 30155 40184 50003 885//;EQDQ01  00002PRCP99
0163595590999992000020818004+22000+120770FM-12+002499999V0200501N008010075019N0150001N1+01611+01051101821ADDAA199000091GF108991081051008001999999MA1999999101531MD1810021+9999REMSYN066AAXX  08181 59559 32565 80508 10161 20105 30153 40182 58002 885//;EQDQ01  00002PRCP99
0137595590999992000020821004+22000+120770FM-12+002499999V0200401N014012200019N0150001N1+01591+01021999999ADDAA199000091GF102991999999008001001001MA1999999101451REMSYN054AAXX  08211 59559 32565 20414 10159 20102 30145 8//00;EQDQ01  00002PRCP99
0163595590999992000020900004+22000+120770FM-12+002499999V0200401N009019999999N0150001N1+01711+01031101851ADDAA199000091GF107991071001999999051999MA1999999101561MD1310111+9999REMSYN066AAXX  09001 59559 32965 70409 10171 20103 30156 40185 53011 8705/;EQDQ01  00002PRCP99
0163595590999992000020903004+22000+120770FM-12+002499999V0200501N009012200019N0200001N1+02021+01151101871ADDAA199000091GF102991011011008001031001MA1999999101581MD1010021+9999REMSYN066AAXX  09031 59559 32570 20509 10202 20115 30158 40187 50002 81130;EQDQ01  00002PRCP99
0163595590999992000020906004+22000+120770FM-12+002499999V0200501N014010075019N0150001N1+01981+01151101541ADDAA199000091GF107991071051008001999999MA1999999101261MD1710321+9999REMSYN066AAXX  09061 59559 32565 70514 10198 20115 30126 40154 57032 875//;EQDQ01  00002PRCP99
0163595590999992000020909004+22000+120770FM-12+002499999V0200401N006010120019N0150001N1+01841+01201101631ADDAA199000091GF108991081051012501999999MA1999999101341MD1310081+9999REMSYN066AAXX  09091 59559 32665 80406 10184 20120 30134 40163 53008 885//;EQDQ01  00002PRCP99
0163595590999992000020912004+22000+120770FM-12+002499999V0200301N006010075019N0150001N1+01811+01201101781ADDAA199000091GF108991081051008001999999MA1999999101491MD1310151+9999REMSYN066AAXX  09121 59559 32565 80306 10181 20120 30149 40178 53015 885//;EQDQ01  00002PRCP99
0163595590999992000020915004+22000+120770FM-12+002499999V0200601N005010075019N0150001N1+01801+01211101771ADDAA199000091GF108991081051008001999999MA1999999101481MD1810011+9999REMSYN066AAXX  09151 59559 32565 80605 10180 20121 30148 40177 58001 885//;EQDQ01  00002PRCP99
0163595590999992000020918004+22000+120770FM-12+002499999V0200501N005010075019N0150001N1+01861+01211101641ADDAA199000091GF108991081051008001999999MA1999999101351MD1810131+9999REMSYN066AAXX  09181 59559 32565 80505 10186 20121 30135 40164 58013 885//;EQDQ01  00002PRCP99
0163595590999992000020921004+22000+120770FM-12+002499999V0200701N004012200019N0150001N1+01771+01221101651ADDAA199000091GF101991011051008001001001MA1999999101361MD1310011+9999REMSYN066AAXX  09211 59559 32565 10704 10177 20122 30136 40165 53001 81500;EQDQ01  00002PRCP99
0173595590999992000021000004+22000+120770FM-12+002499999V0200801N004012200019N0200001N1+02041+01411101741ADDAA199000091GA1001+999999999GF100991001001999999001001MA1999999101461MD1110101+9999REMSYN060AAXX  10001 59559 32970 00804 10204 20141 30146 40174 51010;EQDQ01  00002PRCP99
0163595590999992000021003004+22000+120770FM-12+002499999V0200601N005012200019N0250001N1+02381+01521101681ADDAA199000091GF101991011011008001001001MA1999999101401MD1810061+9999REMSYN066AAXX  10031 59559 32575 10605 10238 20152 30140 40168 58006 81100;EQDQ01  00002PRCP99
0163595590999992000021006004+22000+120770FM-12+002499999V0200801N004012200019N0250001N1+02501+01521101391ADDAA199000091GF101991011011008001001001MA1999999101111MD1710291+9999REMSYN066AAXX  10061 59559 32575 10804 10250 20152 30111 40139 57029 81100;EQDQ01  00002PRCP99
0163595590999992000021009004+22000+120770FM-12+002499999V0200801N003012200019N0150001N1+02241+01531101431ADDAA199000091GF101991011011008001001001MA1999999101151MD1310041+9999REMSYN066AAXX  10091 59559 32565 10803 10224 20153 30115 40143 53004 81100;EQDQ01  00002PRCP99
0163595590999992000021012004+22000+120770FM-12+002499999V0203501N001012200019N0100001N1+01911+01561101591ADDAA199000091GF101991011011008001001001MA1999999101301MD1110151+9999REMSYN066AAXX  10121 59559 32560 13501 10191 20156 30130 40159 51015 81100;EQDQ01  00002PRCP99
0179595590999992000021015004+22000+120770FM-12+002499999V0200801N002012200019N0100001N1+01891+01581101601ADDAA199000091GF102991999011008001001001MA1999999101311MD1110011+9999REMSYN066AAXX  10151 59559 32560 20802 10189 20158 30131 40160 51001 81100;EQDQ01+000012SCOTLCQ02  00002PRCP99
0163595590999992000021018004+22000+120770FM-12+002499999V0203601N003012200019N0100001N1+01931+01581101491ADDAA199000091GF101991011011008001001001MA1999999101211MD1810091+9999REMSYN066AAXX  10181 59559 32560 13603 10193 20158 30121 40149 58009 81100;EQDQ01  00002PRCP99
0113595590999992000021021004+22000+120770FM-12+002499999V0200501N003012200019N0100001N1+01821+01531101481ADDGF102991021051999999001001MA1999999101191REMSYN060AAXX  10211 59559 ///60 20503 10182 20153 30119 40148 82500;
0163595590999992000021100004+22000+120770FM-12+002499999V0202601N001012200019N0200001N1+02231+01731101571ADDAA199000091GF101991011011008001001001MA1999999101291MD1210101+9999REMSYN066AAXX  11001 59559 32570 12601 10223 20173 30129 40157 52010 81100;EQDQ01  00002PRCP99
0163595590999992000021103004+22000+120770FM-12+002499999V0200801N005012200019N0250001N1+02631+01841101521ADDAA199000091GF104991041011008001001001MA1999999101241MD1810051+9999REMSYN066AAXX  11031 59559 32575 40805 10263 20184 30124 40152 58005 84100;EQDQ01  00002PRCP99
0163595590999992000021106004+22000+120770FM-12+002499999V0200901N004012200019N0200001N1+02471+01831101291ADDAA199000091GF104991041021008001001001MA1999999101011MD1710231+9999REMSYN066AAXX  11061 59559 32570 40904 10247 20183 30101 40129 57023 84200;EQDQ01  00002PRCP99
0163595590999992000021109004+22000+120770FM-12+002499999V0200501N003010075019N0150001N1+02341+01811101291ADDAA199000091GF105991051021008001001001MA1999999101011MD1410001+9999REMSYN066AAXX  11091 59559 32565 50503 10234 20181 30101 40129 54000 85200;EQDQ01  00002PRCP99
0163595590999992000021112004+22000+120770FM-12+002499999V0203401N002010075019N0150001N1+02241+01841101371ADDAA199000091GF108991081051008001999999MA1999999101091MD1110081+9999REMSYN066AAXX  11121 59559 32565 83402 10224 20184 30109 40137 51008 885//;EQDQ01  00002PRCP99
0163595590999992000021115004+22000+120770FM-12+002499999V0200201N004010075019N0150001N1+02111+01841101411ADDAA199000091GF108991081051008001999999MA1999999101131MD1010041+9999REMSYN066AAXX  11151 59559 32565 80204 10211 20184 30113 40141 50004 885//;EQDQ01  00002PRCP99
0163595590999992000021118004+22000+120770FM-12+002499999V0200301N004010075019N0150001N1+02091+01781101281ADDAA199000091GF108991081051008001999999MA1999999101001MD1610131+9999REMSYN066AAXX  11181 59559 32565 80304 10209 20178 30100 40128 56013 885//;EQDQ01  00002PRCP99
0163595590999992000021121004+22000+120770FM-12+002499999V0203601N005010075019N0150001N1+02111+01731101291ADDAA199000091GF108991081051008001999999MA1999999101011MD1310011+9999REMSYN066AAXX  11211 59559 32565 83605 10211 20173 30101 40129 53001 885//;EQDQ01  00002PRCP99
0163595590999992000021200004+22000+120770FM-12+002499999V0200601N002010075019N0250001N1+02201+01711101431ADDAA199000091GF108991081051008001999999MA1999999101151MD1110141+9999REMSYN066AAXX  12001 59559 32575 80602 10220 20171 30115 40143 51014 885//;EQDQ01  00002PRCP99
0163595590999992000021203004+22000+120770FM-12+002499999V0200201N007010075019N0250001N1+02351+01721101341ADDAA199000091GF108991081051008001999999MA1999999101061MD1810091+9999REMSYN066AAXX  12031 59559 32575 80207 10235 20172 30106 40134 58009 885//;EQDQ01  00002PRCP99
0163595590999992000021206004+22000+120770FM-12+002499999V0200301N004010075019N0250001N1+02431+01741101171ADDAA199000091GF107991071051008001999999MA1999999100891MD1710171+9999REMSYN066AAXX  12061 59559 32575 70304 10243 20174 30089 40117 57017 875//;EQDQ01  00002PRCP99
0163595590999992000021209004+22000+120770FM-12+002499999V0200301N004010075019N0250001N1+02361+01781101161ADDAA199000091GF106991061051008001001001MA1999999100881MD1510011+9999REMSYN066AAXX  12091 59559 32575 60304 10236 20178 30088 40116 55001 86500;EQDQ01  00002PRCP99
0163595590999992000021210004+22000+120770FM-12+002499999V0200201N007010075019N0200001N1+02211+01771101261ADDAA199000091GF105991051051008001001001MA1999999100981MD1219999+9999REMSYN066AAXX  12101 59559 32570 50207 10221 20177 30098 40126 52/10 85500;EQDQ01  00002PRCP99
0163595590999992000021212004+22000+120770FM-12+002499999V0200201N007010075019N0200001N1+02211+01771101261ADDAA199000091GF105991051051008001001001MA1999999100981MD1210101+9999REMSYN066AAXX  12121 59559 32570 50207 10221 20177 30098 40126 52010 85500;EQDQ01  00002PRCP99
0163595590999992000021215004+22000+120770FM-12+002499999V0200101N003012200019N0200001N1+02171+01751101291ADDAA199000091GF104991041051008001001001MA1999999101011MD1010031+9999REMSYN066AAXX  12151 59559 32570 40103 10217 20175 30101 40129 50003 84500;EQDQ01  00002PRCP99
0163595590999992000021218004+22000+120770FM-12+002499999V0200501N002010075019N0200001N1+02221+01721101231ADDAA199000091GF106991061051008001001001MA1999999100951MD1810061+9999REMSYN066AAXX  12181 59559 32570 60502 10222 20172 30095 40123 58006 86500;EQDQ01  00002PRCP99
0163595590999992000021221004+22000+120770FM-12+002499999V0203501N005010075019N0200001N1+02121+01751101281ADDAA199000091GF106991061051008001001001MA1999999101001MD1310051+9999REMSYN066AAXX  12211 59559 32570 63505 10212 20175 30100 40128 53005 86500;EQDQ01  00002PRCP99
0163595590999992000021300004+22000+120770FM-12+002499999V0203501N003012200019N0250001N1+02351+01771101401ADDAA199000091GF102991021051008001001001MA1999999101121MD1110121+9999REMSYN066AAXX  13001 59559 32575 23503 10235 20177 30112 40140 51012 82500;EQDQ01  00002PRCP99
0163595590999992000021303004+22000+120770FM-12+002499999V0203601N009012200019N0250001N1+02701+01781101291ADDAA199000091GF101991011011008001001001MA1999999101011MD1810111+9999REMSYN066AAXX  13031 59559 32575 13609 10270 20178 30101 40129 58011 81100;EQDQ01  00002PRCP99
0163595590999992000021306004+22000+120770FM-12+002499999V0202501N003010075019N0250001N1+02541+01871101041ADDAA199000091GF107991071041008001001001MA1999999100761MD1710251+9999REMSYN066AAXX  13061 59559 32575 72503 10254 20187 30076 40104 57025 87400;EQDQ01  00002PRCP99
0163595590999992000021309004+22000+120770FM-12+002499999V0203401N004010075019N0100001N1+02371+02001101031ADDAA199000091GF107991071041008001999999MA1999999100751MD1510011+9999REMSYN066AAXX  13091 59559 32560 73404 10237 20200 30075 40103 55001 874//;EQDQ01  00002PRCP99
0163595590999992000021312004+22000+120770FM-12+002499999V0200601N001010075019N0150001N1+02081+01841101161ADDAA199000091GF106991061051008001001001MA1999999100881MD1110131+9999REMSYN066AAXX  13121 59559 32565 60601 10208 20184 30088 40116 51013 86500;EQDQ01  00002PRCP99
0163595590999992000021315004+22000+120770FM-12+002499999V0209999C000010075019N0150001N1+01871+01741101211ADDAA199000091GF105991051051008001001001MA1999999100931MD1010051+9999REMSYN066AAXX  13151 59559 32565 50000 10187 20174 30093 40121 50005 85500;EQDQ01  00002PRCP99
0163595590999992000021318004+22000+120770FM-12+002499999V0209999C000010075019N0150001N1+01951+01791101161ADDAA199000091GF108991081051008001999999MA1999999100881MD1810051+9999REMSYN066AAXX  13181 59559 32565 80000 10195 20179 30088 40116 58005 885//;EQDQ01  00002PRCP99
0163595590999992000021321004+22000+120770FM-12+002499999V0203501N002010075019N0100001N1+02011+01841101141ADDAA199000091GF108991081051008001999999MA1999999100861MD1510021+9999REMSYN066AAXX  13211 59559 32560 83502 10201 20184 30086 40114 55002 885//;EQDQ01  00002PRCP99
0163595590999992000021400004+22000+120770FM-12+002499999V0203501N001012200019N0100001N1+02161+01871101301ADDAA199000091GF102991021051008001001001MA1999999101021MD1110161+9999REMSYN066AAXX  14001 59559 32560 23501 10216 20187 30102 40130 51016 82500;EQDQ01  00002PRCP99
0163595590999992000021403004+22000+120770FM-12+002499999V0203301N003012200019N0100001N1+02531+01851101281ADDAA199000091GF102991021011008001001001MA1999999101001MD1810021+9999REMSYN066AAXX  14031 59559 32560 23303 10253 20185 30100 40128 58002 82100;EQDQ01  00002PRCP99
0163595590999992000021406004+22000+120770FM-12+002499999V0203101N005010075019N0100001N1+02371+01901101091ADDAA199000091GF106991061051008001001001MA1999999100811MD1810191+9999REMSYN066AAXX  14061 59559 32560 63105 10237 20190 30081 40109 58019 86500;EQDQ01  00002PRCP99
0163595590999992000021409004+22000+120770FM-12+002499999V0203401N003012200019N0100001N1+02341+01811101151ADDAA199000091GF103991031051008001001001MA1999999100871MD1310061+9999REMSYN066AAXX  14091 59559 32560 33403 10234 20181 30087 40115 53006 83500;EQDQ01  00002PRCP99
0163595590999992000021412004+22000+120770FM-12+002499999V0203001N001012200019N0100001N1+02061+01721101351ADDAA199000091GF101991011011008001001001MA1999999101071MD1110201+9999REMSYN066AAXX  14121 59559 32560 13001 10206 20172 30107 40135 51020 81100;EQDQ01  00002PRCP99
0163595590999992000021418004+22000+120770FM-12+002499999V0200301N009012200019N0150001N1+02051+01571101431ADDAA199000091GF101991011011008001001001MA1999999101151MD1510011+9999REMSYN066AAXX  14181 59559 32565 10309 10205 20157 30115 40143 55001 81100;EQDQ01  00002PRCP99
0163595590999992000021421004+22000+120770FM-12+002499999V0200201N008012200019N0150001N1+01961+01501101491ADDAA199000091GF102991021011008001001001MA1999999101211MD1310061+9999REMSYN066AAXX  14211 59559 32565 20208 10196 20150 30121 40149 53006 82100;EQDQ01  00002PRCP99
0163595590999992000021500004+22000+120770FM-12+002499999V0200301N017010075019N0150001N1+01991+01451101781ADDAA199000091GF108991061051008001041001MA1999999101491MD1110281+9999REMSYN066AAXX  15001 59559 32565 80317 10199 20145 30149 40178 51028 86540;EQDQ01  00002PRCP99
0163595590999992000021503004+22000+120770FM-12+002499999V0200401N021010360019N0150001N1+02121+01421101831ADDAA199000091GF105991021011008001041001MA1999999101551MD1010061+9999REMSYN066AAXX  15031 59559 32565 50421 10212 20142 30155 40183 50006 82140;EQDQ01  00002PRCP99
0163595590999992000021506004+22000+120770FM-12+002499999V0200301N010012200019N0200001N1+02121+01401101631ADDAA199000091GF102991021011008001001001MA1999999101351MD1710201+9999REMSYN066AAXX  15061 59559 32570 20310 10212 20140 30135 40163 57020 82100;EQDQ01  00002PRCP99
0163595590999992000021509004+22000+120770FM-12+002499999V0200401N007010075019N0150001N1+01941+01351101691ADDAA199000091GF106991061051008001001001MA1999999101401MD1310051+9999REMSYN066AAXX  15091 59559 32565 60407 10194 20135 30140 40169 53005 86500;EQDQ01  00002PRCP99
0163595590999992000021512004+22000+120770FM-12+002499999V0200401N008010075019N0100001N1+01861+01281101851ADDAA199000091GF106991061051008001001001MA1999999101561MD1210161+9999REMSYN066AAXX  15121 59559 32560 60408 10186 20128 30156 40185 52016 86500;EQDQ01  00002PRCP99
0163595590999992000021515004+22000+120770FM-12+002499999V0200301N009010075019N0100001N1+01811+01281101901ADDAA199000091GF106991061051008001001001MA1999999101611MD1210051+9999REMSYN066AAXX  15151 59559 32560 60309 10181 20128 30161 40190 52005 86500;EQDQ01  00002PRCP99
0163595590999992000021518004+22000+120770FM-12+002499999V0200301N007010075019N0100001N1+01791+01221101791ADDAA199000091GF105991051051008001001001MA1999999101501MD1810111+9999REMSYN066AAXX  15181 59559 32560 50307 10179 20122 30150 40179 58011 85500;EQDQ01  00002PRCP99
0163595590999992000021521004+22000+120770FM-12+002499999V0200301N015010075019N0100001N1+01811+01211101761ADDAA199000091GF105991051051008001001001MA1999999101471MD1510031+9999REMSYN066AAXX  15211 59559 32560 50315 10181 20121 30147 40176 55003 85500;EQDQ01  00002PRCP99
0163595590999992000021600004+22000+120770FM-12+002499999V0200401N007010075019N0200001N1+01871+01281101901ADDAA199000091GF106991061051008001001001MA1999999101611MD1110141+9999REMSYN066AAXX  16001 59559 32570 60407 10187 20128 30161 40190 51014 86500;EQDQ01  00002PRCP99
0163595590999992000021603004+22000+120770FM-12+002499999V0200401N008012200019N0200001N1+02141+01361101801ADDAA199000091GF102991021021008001001001MA1999999101521MD1810091+9999REMSYN066AAXX  16031 59559 32570 20408 10214 20136 30152 40180 58009 82200;EQDQ01  00002PRCP99
0163595590999992000021606004+22000+120770FM-12+002499999V0200601N006012200019N0250001N1+02301+01341101591ADDAA199000091GF102991021051008001001001MA1999999101311MD1710211+9999REMSYN066AAXX  16061 59559 32575 20606 10230 20134 30131 40159 57021 82500;EQDQ01  00002PRCP99
0163595590999992000021609004+22000+120770FM-12+002499999V0200501N005010075019N0200001N1+02011+01391101631ADDAA199000091GF105991051051008001001001MA1999999101351MD1310041+9999REMSYN066AAXX  16091 59559 32570 50505 10201 20139 30135 40163 53004 85500;EQDQ01  00002PRCP99
0163595590999992000021612004+22000+120770FM-12+002499999V0200501N005010120019N0150001N1+01941+01411101761ADDAA199000091GF107991071051012501001001MA1999999101471MD1310121+9999REMSYN066AAXX  16121 59559 32665 70505 10194 20141 30147 40176 53012 87500;EQDQ01  00002PRCP99
0163595590999992000021618004+22000+120770FM-12+002499999V0200301N002010120019N0150001N1+02011+01341101751ADDAA199000091GF108991081051012501999999MA1999999101471MD1810061+9999REMSYN066AAXX  16181 59559 32665 80302 10201 20134 30147 40175 58006 885//;EQDQ01  00002PRCP99
0163595590999992000021621004+22000+120770FM-12+002499999V0203401N001010120019N0150001N1+01921+01341101751ADDAA199000091GF105991051051012501001001MA1999999101461MD1510011+9999REMSYN066AAXX  16211 59559 32665 53401 10192 20134 30146 40175 55001 85500;EQDQ01  00002PRCP99
0163595590999992000021700004+22000+120770FM-12+002499999V0200501N004012200019N0250001N1+02111+01451101871ADDAA199000091GF101991011051012501001001MA1999999101591MD1210131+9999REMSYN066AAXX  17001 59559 32675 10504 10211 20145 30159 40187 52013 81500;EQDQ01  00002PRCP99
0163595590999992000021703004+22000+120770FM-12+002499999V0200501N005012200019N0250001N1+02481+01581101891ADDAA199000091GF102991021051008001001001MA1999999101611MD1010021+9999REMSYN066AAXX  17031 59559 32575 20505 10248 20158 30161 40189 50002 82500;EQDQ01  00002PRCP99
0163595590999992000021706004+22000+120770FM-12+002499999V0200501N007012200019N0250001N1+02441+01541101631ADDAA199000091GF103991011011008001031001MA1999999101351MD1710261+9999REMSYN066AAXX  17061 59559 32575 30507 10244 20154 30135 40163 57026 81130;EQDQ01  00002PRCP99
0163595590999992000021709004+22000+120770FM-12+002499999V0200501N004012200019N0200001N1+02221+01551101631ADDAA199000091GF102991011011008001031001MA1999999101351MD1410001+9999REMSYN066AAXX  17091 59559 32570 20504 10222 20155 30135 40163 54000 81130;EQDQ01  00002PRCP99
0163595590999992000021712004+22000+120770FM-12+002499999V0200601N005010360019N0200001N1+02111+01551101651ADDAA199000091GF105991021011008001031001MA1999999101371MD1010021+9999REMSYN066AAXX  17121 59559 32570 50605 10211 20155 30137 40165 50002 82130;EQDQ01  00002PRCP99
0163595590999992000021715004+22000+120770FM-12+002499999V0200701N003012200019N0200001N1+01981+01681101781ADDAA199000091GF103991021041008001011001MA1999999101491MD1010121+9999REMSYN066AAXX  17151 59559 32570 30703 10198 20168 30149 40178 50012 82410;EQDQ01  00002PRCP99
0163595590999992000021718004+22000+120770FM-12+002499999V0200301N003010075019N0150001N1+02051+01631101691ADDAA199000091GF106991061051008001001001MA1999999101411MD1710081+9999REMSYN066AAXX  17181 59559 32565 60303 10205 20163 30141 40169 57008 86500;EQDQ01  00002PRCP99
0163595590999992000021721004+22000+120770FM-12+002499999V0200501N001010075019N0160001N1+01961+01811101621ADDAA199000091GF106991061051008001001001MA1999999101341MD1810071+9999REMSYN066AAXX  17211 59559 32566 60501 10196 20181 30134 40162 58007 86500;EQDQ01  00002PRCP99
0178595590999992000021800004+22000+120770FM-12+002499999V0209999C000010075019N0150001N1+01981+01851101751ADDAA112000591AY181061AY221061GF108991081051008001999999MA1999999101461MD1110121+9999MW1251REMSYN078AAXX  18001 59559 11565 80000 10198 20185 30146 40175 51012 69952 72582 885//;
0178595590999992000021803004+22000+120770FM-12+002499999V0201001N005010075019N0150001N1+02131+01871101721ADDAA100000591AY181031AY221031GF106991061051008001001001MA1999999101441MD1810021+9999MW1021REMSYN078AAXX  18031 59559 11565 61005 10213 20187 30144 40172 58002 6995/ 70282 86500;
0178595590999992000021806004+22000+120770FM-12+002499999V0201001N004010075019N0150001N1+02441+01921101471ADDAA106000591AY181061AY221061GF107991071051008001999999MA1999999101191MD1710251+9999MW1031REMSYN078AAXX  18061 59559 11565 71004 10244 20192 30119 40147 57025 69951 70382 875//;
0150595590999992000021809004+22000+120770FM-12+002499999V0201301N005010360019N0150001N1+02431+01881101351ADDAA100000591GF106991031011008001031001MA1999999101071MD1610121+9999REMSYN072AAXX  18091 59559 12565 61305 10243 20188 30107 40135 56012 6995/ 83130;
0150595590999992000021812004+22000+120770FM-12+002499999V0201301N004010075019N0150001N1+02301+01901101381ADDAA112000591GF106991061051008001001001MA1999999101101MD1310031+9999REMSYN072AAXX  18121 59559 12565 61304 10230 20190 30110 40138 53003 69952 86500;
0163595590999992000021815004+22000+120770FM-12+002499999V0201301N003010075019N0150001N1+02311+02001101411ADDAA199000091GF106991051011008001031001MA1999999101131MD1010031+9999REMSYN066AAXX  18151 59559 32565 61303 10231 20200 30113 40141 50003 85130;EQDQ01  00002PRCP99
0163595590999992000021818004+22000+120770FM-12+002499999V0201101N003010075019N0100001N1+02291+02071101231ADDAA199000091GF106991061051008001001001MA1999999100951MD1810181+9999REMSYN066AAXX  18181 59559 32560 61103 10229 20207 30095 40123 58018 86500;EQDQ01  00002PRCP99
0150595590999992000021900004+22000+120770FM-12+002499999V0201801N003010120019N0100001N1+02461+02271101171ADDAA112000891GF107991071081008001999999MA1999999100891MD1210091+9999REMSYN072AAXX  19001 59559 12560 71803 10246 20227 30089 40117 52009 69972 878//;
0163595590999992000021903004+22000+120770FM-12+002499999V0202601N004010075019N0150001N1+02711+02311101161ADDAA199000091GF107991071051008001999999MA1999999100881MD1810011+9999REMSYN066AAXX  19031 59559 32565 72604 10271 20231 30088 40116 58001 875//;EQDQ01  00002PRCP99
0163595590999992000021906004+22000+120770FM-12+002499999V0202801N006010075019N0150001N1+02731+02271100871ADDAA199000091GF106991061051008001001001MA1999999100591MD1710291+9999REMSYN066AAXX  19061 59559 32565 62806 10273 20227 30059 40087 57029 86500;EQDQ01  00002PRCP99
0163595590999992000021909004+22000+120770FM-12+002499999V0202801N004012200019N0200001N1+02561+02181100821ADDAA199000091GF103991021011008001001011MA1999999100541MD1510051+9999REMSYN066AAXX  19091 59559 32570 32804 10256 20218 30054 40082 55005 82101;EQDQ01  00002PRCP99
0163595590999992000021912004+22000+120770FM-12+002499999V0202701N005012200019N0200001N1+02421+02101100901ADDAA199000091GF102991011011008001031001MA1999999100621MD1310081+9999REMSYN066AAXX  19121 59559 32570 22705 10242 20210 30062 40090 53008 81130;EQDQ01  00002PRCP99
0163595590999992000021915004+22000+120770FM-12+002499999V0202601N005012200019N0200001N1+02401+02141101001ADDAA199000091GF102991021011008001001001MA1999999100721MD1210101+9999REMSYN066AAXX  19151 59559 32570 22605 10240 20214 30072 40100 52010 82100;EQDQ01  00002PRCP99
0163595590999992000021918004+22000+120770FM-12+002499999V0202901N006010360019N0200001N1+02361+02161100991ADDAA199000091GF108991021011008001021001MA1999999100711MD1510011+9999REMSYN066AAXX  19181 59559 32570 82906 10236 20216 30071 40099 55001 82120;EQDQ01  00002PRCP99
0163595590999992000021921004+22000+120770FM-12+002499999V0203101N002010360019N0200001N1+02391+02001100861ADDAA199000091GF108991011011008001021001MA1999999100581MD1510131+9999REMSYN066AAXX  19211 59559 32570 83102 10239 20200 30058 40086 55013 81120;EQDQ01  00002PRCP99
0163595590999992000022000004+22000+120770FM-12+002499999V0203401N003010360019N0150001N1+02451+02101101091ADDAA199000091GF108991011011008001021001MA1999999100811MD1210231+9999REMSYN066AAXX  20001 59559 32565 83403 10245 20210 30081 40109 52023 81120;EQDQ01  00002PRCP99
0133595590999992000022003004+22000+120770FM-12+002499999V0203201N002019999999N0200001N1+02721+02161999999ADDAA199000091GF106991999999008001999999REMSYN065AAXX  20031 59559 32570 63202 10272 20216 3091 40119 51010 81120;EQDQ01  00002PRCP99
0163595590999992000022006004+22000+120770FM-12+002499999V0203101N002010075019N0150001N1+02741+02011100991ADDAA199000091GF106991061051008001001001MA1999999100711MD1710201+9999REMSYN066AAXX  20061 59559 32565 63102 10274 20201 30071 40099 57020 86500;EQDQ01  00002PRCP99
0163595590999992000022009004+22000+120770FM-12+002499999V0200901N003010075019N0150001N1+02321+01901101051ADDAA199000091GF108991081051008001999999MA1999999100771MD1310061+9999REMSYN066AAXX  20091 59559 32565 80903 10232 20190 30077 40105 53006 885//;EQDQ01  00002PRCP99
0163595590999992000022012004+22000+120770FM-12+002499999V0200201N007010075019N0100001N1+02141+01751101161ADDAA199000091GF108991081051008001999999MA1999999100881MD1110111+9999REMSYN066AAXX  20121 59559 32560 80207 10214 20175 30088 40116 51011 885//;EQDQ01  00002PRCP99
0163595590999992000022015004+22000+120770FM-12+002499999V0200301N005010075019N0100001N1+01951+01751101331ADDAA199000091GF108991081051008001999999MA1999999101051MD1210171+9999REMSYN066AAXX  20151 59559 32560 80305 10195 20175 30105 40133 52017 885//;EQDQ01  00002PRCP99
0163595590999992000022018004+22000+120770FM-12+002499999V0200201N009010075019N0100001N1+01971+01691101291ADDAA199000091GF108991081051008001999999MA1999999101011MD1810041+9999REMSYN066AAXX  20181 59559 32560 80209 10197 20169 30101 40129 58004 885//;EQDQ01  00002PRCP99
0150595590999992000022021004+22000+120770FM-12+002499999V0200301N007010075019N0100001N1+02011+01641101291ADDAA100000591GF108991081051008001999999MA1999999101011MD1410001+9999REMSYN072AAXX  20211 59559 12560 80307 10201 20164 30101 40129 54000 6995/ 885//;
0150595590999992000022100004+22000+120770FM-12+002499999V0200401N004010075019N0200001N1+02121+01611101471ADDAA112000591GF108991081051008001999999MA1999999101191MD1210181+9999REMSYN072AAXX  21001 59559 12570 80404 10212 20161 30119 40147 52018 69952 885//;
0163595590999992000022103004+22000+120770FM-12+002499999V0200301N008010075019N0200001N1+02201+01511101501ADDAA199000091GF108991081051008001999999MA1999999101221MD1010031+9999REMSYN066AAXX  21031 59559 32570 80308 10220 20151 30122 40150 50003 885//;EQDQ01  00002PRCP99
0163595590999992000022106004+22000+120770FM-12+002499999V0200401N006010120019N0250001N1+02251+01481101331ADDAA199000091GF107991071051012501001001MA1999999101051MD1710171+9999REMSYN066AAXX  21061 59559 32675 70406 10225 20148 30105 40133 57017 87500;EQDQ01  00002PRCP99
0163595590999992000022109004+22000+120770FM-12+002499999V0200501N007010075019N0250001N1+02111+01541101341ADDAA199000091GF107991071051008001001001MA1999999101061MD1310011+9999REMSYN066AAXX  21091 59559 32575 70507 10211 20154 30106 40134 53001 87500;EQDQ01  00002PRCP99
0163595590999992000022112004+22000+120770FM-12+002499999V0200601N013010120019N0150001N1+02081+01581101341ADDAA199000091GF107991071051012501001001MA1999999101061MD1410001+9999REMSYN066AAXX  21121 59559 32665 70613 10208 20158 30106 40134 54000 87500;EQDQ01  00002PRCP99
0163595590999992000022115004+22000+120770FM-12+002499999V0200701N007010150019N0150001N1+02081+01631101331ADDAA199000091GF107991071051017501001001MA1999999101051MD1810011+9999REMSYN066AAXX  21151 59559 32765 70707 10208 20163 30105 40133 58001 87500;EQDQ01  00002PRCP99
0163595590999992000022121004+22000+120770FM-12+002499999V0200901N001010150019N0150001N1+02061+01761101211ADDAA199000091GF105991051051017501001001MA1999999100931MD1510081+9999REMSYN066AAXX  21211 59559 32765 50901 10206 20176 30093 40121 55008 85500;EQDQ01  00002PRCP99
0163595590999992000022200004+22000+120770FM-12+002499999V0209999C000010075019N0150001N1+02151+01841101351ADDAA199000091GF108991081051008001999999MA1999999101071MD1110141+9999REMSYN066AAXX  22001 59559 32565 80000 10215 20184 30107 40135 51014 885//;EQDQ01  00002PRCP99
0163595590999992000022203004+22000+120770FM-12+002499999V0203301N003010075019N0120001N1+02531+01991101261ADDAA199000091GF107991071051008001001001MA1999999100981MD1810091+9999REMSYN066AAXX  22031 59559 32562 73303 10253 20199 30098 40126 58009 87500;EQDQ01  00002PRCP99
0163595590999992000022206004+22000+120770FM-12+002499999V0203301N006010075019N0150001N1+02711+02051101061ADDAA199000091GF107991071051008001001001MA1999999100781MD1710201+9999REMSYN066AAXX  22061 59559 32565 73306 10271 20205 30078 40106 57020 87500;EQDQ01  00002PRCP99
0163595590999992000022209004+22000+120770FM-12+002499999V0203401N002010075019N0150001N1+02621+02061101091ADDAA199000091GF105991051021008001001001MA1999999100811MD1310031+9999REMSYN066AAXX  22091 59559 32565 53402 10262 20206 30081 40109 53003 85200;EQDQ01  00002PRCP99
0163595590999992000022212004+22000+120770FM-12+002499999V0200701N002012200019N0150001N1+02181+01831101231ADDAA199000091GF103991031051008001001001MA1999999100951MD1210141+9999REMSYN066AAXX  22121 59559 32565 30702 10218 20183 30095 40123 52014 83500;EQDQ01  00002PRCP99
0163595590999992000022215004+22000+120770FM-12+002499999V0200201N004010075019N0150001N1+02191+01751101291ADDAA199000091GF107991071051008001999999MA1999999101011MD1010061+9999REMSYN066AAXX  22151 59559 32565 70204 10219 20175 30101 40129 50006 875//;EQDQ01  00002PRCP99
0163595590999992000022218004+22000+120770FM-12+002499999V0200601N001010075019N0150001N1+02211+01761101201ADDAA199000091GF107991071051008001999999MA1999999100921MD1710091+9999REMSYN066AAXX  22181 59559 32565 70601 10221 20176 30092 40120 57009 875//;EQDQ01  00002PRCP99
0163595590999992000022221004+22000+120770FM-12+002499999V0203301N001010075019N0150001N1+02111+01761101141ADDAA199000091GF107991071051008001001001MA1999999100861MD1710061+9999REMSYN066AAXX  22211 59559 32565 73301 10211 20176 30086 40114 57006 87500;EQDQ01  00002PRCP99
0163595590999992000022300004+22000+120770FM-12+002499999V0203601N001010075019N0150001N1+02181+01851101291ADDAA199000091GF108991081051008001999999MA1999999101011MD1210151+9999REMSYN066AAXX  23001 59559 32565 83601 10218 20185 30101 40129 52015 885//;EQDQ01  00002PRCP99
0163595590999992000022303004+22000+120770FM-12+002499999V0202901N001010042019N0100001N1+02311+02021101341ADDAA199000091GF108991081051004501999999MA1999999101061MD1010051+9999REMSYN066AAXX  23031 59559 32460 82901 10231 20202 30106 40134 50005 885//;EQDQ01  00002PRCP99
0191595590999992000022306004+22000+120770FM-12+002499999V0203201N002010075019N0080001N1+02491+02051101101ADDAA199000091AY121061AY221061GF107991071051008001999999MA1999999100821MD1710241+9999MW1101REMSYN072AAXX  23061 59559 31558 73202 10249 20205 30082 40110 57024 71022 875//;EQDQ01  00002PRCP99
0191595590999992000022309004+22000+120770FM-12+002499999V0202901N002010075019N0080001N1+02421+02011101101ADDAA199000091AY121031AY211031GF107991071051008001001001MA1999999100821MD1410001+9999MW1101REMSYN072AAXX  23091 59559 31558 72902 10242 20201 30082 40110 54000 71021 87500;EQDQ01  00002PRCP99
0163595590999992000022312004+22000+120770FM-12+002499999V0203201N002010075019N0100001N1+02221+01981101291ADDAA199000091GF108991081051008001999999MA1999999101011MD1110191+9999REMSYN066AAXX  23121 59559 32560 83202 10222 20198 30101 40129 51019 885//;EQDQ01  00002PRCP99
0191595590999992000022315004+22000+120770FM-12+002499999V0203301N002010075019N0080001N1+02121+01911101371ADDAA199000091AY121031AY221031GF108991081051008001999999MA1999999101091MD1110081+9999MW1101REMSYN072AAXX  23151 59559 31558 83302 10212 20191 30109 40137 51008 71022 885//;EQDQ01  00002PRCP99
0178595590999992000022318004+22000+120770FM-12+002499999V0201101N001010075019N0080001N1+02151+01911101291ADDAA106000791AY121061AY221061GF108991081051008001999999MA1999999101011MD1810081+9999MW1101REMSYN078AAXX  23181 59559 11558 81101 10215 20191 30101 40129 58008 69901 71022 885//;
0163595590999992000022321004+22000+120770FM-12+002499999V0200201N011010075019N0100001N1+02131+01781101351ADDAA199000091GF108991081051008001999999MA1999999101071MD1310061+9999REMSYN066AAXX  23211 59559 32560 80211 10213 20178 30107 40135 53006 885//;EQDQ01  00002PRCP99
0163595590999992000022400004+22000+120770FM-12+002499999V0200201N006012200019N0180001N1+02211+01751101541ADDAA199000091GF104991041081008001001001MA1999999101261MD1110191+9999REMSYN066AAXX  24001 59559 32568 40206 10221 20175 30126 40154 51019 84800;EQDQ01  00002PRCP99
0163595590999992000022403004+22000+120770FM-12+002499999V0200401N008012200019N0200001N1+02431+01701101601ADDAA199000091GF102991021011008001001001MA1999999101321MD1010061+9999REMSYN066AAXX  24031 59559 32570 20408 10243 20170 30132 40160 50006 82100;EQDQ01  00002PRCP99
0150595590999992000022405004+22000+120770FM-12+002499999V0200401N007019999999N0200001N1+02211+01561101381ADDAA199000091GF106991999999008001999999REMSYN066AAXX  24051 59559 32570 60407 10221 20156 3110/ 40138 95005 86500;EQDQ01+011001APOSP Q02  00002PRCP99
0163595590999992000022406004+22000+120770FM-12+002499999V0200401N007010075019N0200001N1+02351+01591101431ADDAA199000091GF107991071051008001999999MA1999999101151MD1810171+9999REMSYN066AAXX  24061 59559 32570 70407 10235 20159 30115 40143 58017 875//;EQDQ01  00002PRCP99
0163595590999992000022409004+22000+120770FM-12+002499999V0200401N007010075019N0200001N1+02211+01561101381ADDAA199000091GF106991061051008001001001MA1999999101101MD1510051+9999REMSYN066AAXX  24091 59559 32570 60407 10221 20156 30110 40138 55005 86500;EQDQ01  00002PRCP99
0163595590999992000022415004+22000+120770FM-12+002499999V0200301N004010120019N0200001N1+02121+01561101491ADDAA199000091GF106991061051012501001001MA1999999101211MD1010071+9999REMSYN066AAXX  24151 59559 32670 60304 10212 20156 30121 40149 50007 86500;EQDQ01  00002PRCP99
0163595590999992000022418004+22000+120770FM-12+002499999V0200301N001012200019N0200001N1+02111+01541101401ADDAA199000091GF104991041051012501001001MA1999999101121MD1710091+9999REMSYN066AAXX  24181 59559 32670 40301 10211 20154 30112 40140 57009 84500;EQDQ01  00002PRCP99
0163595590999992000022421004+22000+120770FM-12+002499999V0200301N004010120019N0200001N1+02111+01601101371ADDAA199000091GF108991081051012501999999MA1999999101091MD1510031+9999REMSYN066AAXX  24211 59559 32670 80304 10211 20160 30109 40137 55003 885//;EQDQ01  00002PRCP99
0163595590999992000022500004+22000+120770FM-12+002499999V0200101N010010075019N0200001N1+02151+01591101561ADDAA199000091GF108991081051008001999999MA1999999101281MD1210191+9999REMSYN066AAXX  25001 59559 32570 80110 10215 20159 30128 40156 52019 885//;EQDQ01  00002PRCP99
0163595590999992000022503004+22000+120770FM-12+002499999V0200101N007010075019N0200001N1+02401+01641101611ADDAA199000091GF105991051051008001031001MA1999999101331MD1010051+9999REMSYN066AAXX  25031 59559 32570 50107 10240 20164 30133 40161 50005 85530;EQDQ01  00002PRCP99
0163595590999992000022506004+22000+120770FM-12+002499999V0203601N012010075019N0200001N1+02391+01581101351ADDAA199000091GF105991051051008001001001MA1999999101071MD1710261+9999REMSYN066AAXX  25061 59559 32570 53612 10239 20158 30107 40135 57026 85500;EQDQ01  00002PRCP99
0163595590999992000022509004+22000+120770FM-12+002499999V0200201N003010075019N0150001N1+02101+01481101351ADDAA199000091GF105991051051008001001001MA1999999101071MD1510041+9999REMSYN066AAXX  25091 59559 32565 50203 10210 20148 30107 40135 55004 85500;EQDQ01  00002PRCP99
0163595590999992000022512004+22000+120770FM-12+002499999V0200501N003010075019N0100001N1+02021+01501101561ADDAA199000091GF106991061051008001001001MA1999999101281MD1110211+9999REMSYN066AAXX  25121 59559 32560 60503 10202 20150 30128 40156 51021 86500;EQDQ01  00002PRCP99
0163595590999992000022515004+22000+120770FM-12+002499999V0202301N002010075019N0100001N1+02051+01471101561ADDAA199000091GF108991081051008001999999MA1999999101281MD1410001+9999REMSYN066AAXX  25151 59559 32560 82302 10205 20147 30128 40156 54000 885//;EQDQ01  00002PRCP99
0163595590999992000022518004+22000+120770FM-12+002499999V0203601N005010075019N0100001N1+01911+01491101571ADDAA199000091GF108991081051008001999999MA1999999101281MD1410001+9999REMSYN066AAXX  25181 59559 32560 83605 10191 20149 30128 40157 54000 885//;EQDQ01  00002PRCP99
0163595590999992000022521004+22000+120770FM-12+002499999V0203301N005010075019N0100001N1+01831+01451101571ADDAA199000091GF106991061051008001001001MA1999999101281MD1410001+9999REMSYN066AAXX  25211 59559 32560 63305 10183 20145 30128 40157 54000 86500;EQDQ01  00002PRCP99
0163595590999992000022600004+22000+120770FM-12+002499999V0200201N010010075019N0200001N1+01871+01471101761ADDAA199000091GF108991081051008001999999MA1999999101471MD1110191+9999REMSYN066AAXX  26001 59559 32570 80210 10187 20147 30147 40176 51019 885//;EQDQ01  00002PRCP99
0163595590999992000022603004+22000+120770FM-12+002499999V0200301N008010075019N0200001N1+01891+01441101761ADDAA199000091GF108991081051008001999999MA1999999101471MD1410001+9999REMSYN066AAXX  26031 59559 32570 80308 10189 20144 30147 40176 54000 885//;EQDQ01  00002PRCP99
0163595590999992000022606004+22000+120770FM-12+002499999V0200201N010010075019N0150001N1+01741+01441101661ADDAA199000091GF108991081051008001999999MA1999999101371MD1810101+9999REMSYN066AAXX  26061 59559 32565 80210 10174 20144 30137 40166 58010 885//;EQDQ01  00002PRCP99
0163595590999992000022609004+22000+120770FM-12+002499999V0200301N009010075019N0150001N1+01731+01321101671ADDAA199000091GF108991081051008001999999MA1999999101381MD1010011+9999REMSYN066AAXX  26091 59559 32565 80309 10173 20132 30138 40167 50001 885//;EQDQ01  00002PRCP99
0163595590999992000022612004+22000+120770FM-12+002499999V0200301N010010075019N0150001N1+01661+01291101931ADDAA199000091GF108991081051008001999999MA1999999101641MD1210261+9999REMSYN066AAXX  26121 59559 32565 80310 10166 20129 30164 40193 52026 885//;EQDQ01  00002PRCP99
0163595590999992000022615004+22000+120770FM-12+002499999V0200501N009010075019N0120001N1+01661+01221101991ADDAA199000091GF108991081051008001999999MA1999999101701MD1110061+9999REMSYN066AAXX  26151 59559 32562 80509 10166 20122 30170 40199 51006 885//;EQDQ01  00002PRCP99
0163595590999992000022618004+22000+120770FM-12+002499999V0200401N008010075019N0120001N1+01651+01161101901ADDAA199000091GF108991081051008001999999MA1999999101611MD1810091+9999REMSYN066AAXX  26181 59559 32562 80408 10165 20116 30161 40190 58009 885//;EQDQ01  00002PRCP99
0163595590999992000022621004+22000+120770FM-12+002499999V0200501N014010120019N0150001N1+01681+01131101831ADDAA199000091GF106991061051012501001001MA1999999101541MD1510071+9999REMSYN066AAXX  26211 59559 32665 60514 10168 20113 30154 40183 55007 86500;EQDQ01  00002PRCP99
0163595590999992000022700004+22000+120770FM-12+002499999V0200501N013010075019N0150001N1+01791+01181102021ADDAA199000091GF106991061051008001001001MA1999999101731MD1310191+9999REMSYN066AAXX  27001 59559 32565 60513 10179 20118 30173 40202 53019 86500;EQDQ01  00002PRCP99
0163595590999992000022703004+22000+120770FM-12+002499999V0200401N008010075019N0150001N1+01921+01271102011ADDAA199000091GF106991061051008001001001MA1999999101721MD1810011+9999REMSYN066AAXX  27031 59559 32565 60408 10192 20127 30172 40201 58001 86500;EQDQ01  00002PRCP99
0163595590999992000022706004+22000+120770FM-12+002499999V0200401N007012200019N0200001N1+02101+01281101791ADDAA199000091GF103991031021008001001001MA1999999101511MD1810211+9999REMSYN066AAXX  27061 59559 32570 30407 10210 20128 30151 40179 58021 83200;EQDQ01  00002PRCP99
0163595590999992000022709004+22000+120770FM-12+002499999V0200501N006012200019N0150001N1+01921+01251101791ADDAA199000091GF104991041021008001001001MA1999999101501MD1510011+9999REMSYN066AAXX  27091 59559 32565 40506 10192 20125 30150 40179 55001 84200;EQDQ01  00002PRCP99
0163595590999992000022712004+22000+120770FM-12+002499999V0200401N012010075019N0150001N1+01841+01351101851ADDAA199000091GF108991081051008001999999MA1999999101561MD1310061+9999REMSYN066AAXX  27121 59559 32565 80412 10184 20135 30156 40185 53006 885//;EQDQ01  00002PRCP99
0163595590999992000022715004+22000+120770FM-12+002499999V0200601N005010075019N0150001N1+01921+01321101901ADDAA199000091GF107991071051008001999999MA1999999101611MD1010051+9999REMSYN066AAXX  27151 59559 32565 70605 10192 20132 30161 40190 50005 875//;EQDQ01  00002PRCP99
0163595590999992000022718004+22000+120770FM-12+002499999V0200501N004010075019N0150001N1+01941+01361101771ADDAA199000091GF108991081051008001999999MA1999999101481MD1610131+9999REMSYN066AAXX  27181 59559 32565 80504 10194 20136 30148 40177 56013 885//;EQDQ01  00002PRCP99
0163595590999992000022721004+22000+120770FM-12+002499999V0200401N004010075019N0150001N1+02011+01411101681ADDAA199000091GF108991081051008001999999MA1999999101401MD1510081+9999REMSYN066AAXX  27211 59559 32565 80404 10201 20141 30140 40168 55008 885//;EQDQ01  00002PRCP99
0163595590999992000022800004+22000+120770FM-12+002499999V0200801N002010075019N0120001N1+02201+01581101811ADDAA199000091GF107991071051008001001001MA1999999101531MD1110131+9999REMSYN066AAXX  28001 59559 32562 70802 10220 20158 30153 40181 51013 87500;EQDQ01  00002PRCP99
0163595590999992000022803004+22000+120770FM-12+002499999V0200601N003010075019N0150001N1+02371+01641101741ADDAA199000091GF107991071051008001001001MA1999999101461MD1810071+9999REMSYN066AAXX  28031 59559 32565 70603 10237 20164 30146 40174 58007 87500;EQDQ01  00002PRCP99
0163595590999992000022806004+22000+120770FM-12+002499999V0200201N002010075019N0150001N1+02361+01671101581ADDAA199000091GF108991081051008001999999MA1999999101301MD1710161+9999REMSYN066AAXX  28061 59559 32565 80202 10236 20167 30130 40158 57016 885//;EQDQ01  00002PRCP99
0163595590999992000022809004+22000+120770FM-12+002499999V0200701N001010075019N0120001N1+02171+01701101681ADDAA199000091GF108991081051008001001001MA1999999101401MD1310101+9999REMSYN066AAXX  28091 59559 32562 80701 10217 20170 30140 40168 53010 88500;EQDQ01  00002PRCP99
0163595590999992000022812004+22000+120770FM-12+002499999V0200201N004010075019N0120001N1+02061+01631101821ADDAA199000091GF108991081051008001999999MA1999999101541MD1210141+9999REMSYN066AAXX  28121 59559 32562 80204 10206 20163 30154 40182 52014 885//;EQDQ01  00002PRCP99
0163595590999992000022815004+22000+120770FM-12+002499999V0200301N006010075019N0120001N1+02011+01521101901ADDAA199000091GF108991081051008001999999MA1999999101611MD1110071+9999REMSYN066AAXX  28151 59559 32562 80306 10201 20152 30161 40190 51007 885//;EQDQ01  00002PRCP99
0163595590999992000022818004+22000+120770FM-12+002499999V0200301N009010075019N0120001N1+02011+01431101781ADDAA199000091GF108991081051008001999999MA1999999101501MD1810111+9999REMSYN066AAXX  28181 59559 32562 80309 10201 20143 30150 40178 58011 885//;EQDQ01  00002PRCP99
0163595590999992000022821004+22000+120770FM-12+002499999V0200101N006010075019N0120001N1+01901+01491101811ADDAA199000091GF107991071051008001001001MA1999999101521MD1010021+9999REMSYN066AAXX  28211 59559 32562 70106 10190 20149 30152 40181 50002 87500;EQDQ01  00002PRCP99
0163595590999992000022900004+22000+120770FM-12+002499999V0200201N006010120019N0200001N1+02031+01451101931ADDAA199000091GF108991081051012501999999MA1999999101641MD1010121+9999REMSYN066AAXX  29001 59559 32670 80206 10203 20145 30164 40193 50012 885//;EQDQ01  00002PRCP99
0163595590999992000022903004+22000+120770FM-12+002499999V0200401N011010120019N0200001N1+02151+01491101911ADDAA199000091GF108991081051012501999999MA1999999101631MD1810011+9999REMSYN066AAXX  29031 59559 32670 80411 10215 20149 30163 40191 58001 885//;EQDQ01  00002PRCP99
0163595590999992000022909004+22000+120770FM-12+002499999V0200401N008010360019N0200001N1+02131+01441101651ADDAA199000091GF108991011011008001021001MA1999999101371MD1510041+9999REMSYN066AAXX  29091 59559 32570 80408 10213 20144 30137 40165 55004 81120;EQDQ01  00002PRCP99
0163595590999992000022912004+22000+120770FM-12+002499999V0200401N011010360019N0200001N1+02041+01451101791ADDAA199000091GF106991021011008001041001MA1999999101511MD1310141+9999REMSYN066AAXX  29121 59559 32570 60411 10204 20145 30151 40179 53014 82140;EQDQ01  00002PRCP99
0163595590999992000022915004+22000+120770FM-12+002499999V0200401N009012200019N0200001N1+02001+01431101911ADDAA199000091GF103991031051008001001001MA1999999101621MD1110111+9999REMSYN066AAXX  29151 59559 32570 30409 10200 20143 30162 40191 51011 83500;EQDQ01  00002PRCP99
0163595590999992000022918004+22000+120770FM-12+002499999V0200401N010012200019N0200001N1+02031+01451101691ADDAA199000091GF103991031051008001001001MA1999999101411MD1710211+9999REMSYN066AAXX  29181 59559 32570 30410 10203 20145 30141 40169 57021 83500;EQDQ01  00002PRCP99
0163595590999992000022921004+22000+120770FM-12+002499999V0203401N005010360019N0200001N1+01991+01381101771ADDAA199000091GF108991011011008001021001MA1999999101481MD1310071+9999REMSYN066AAXX  29211 59559 32570 83405 10199 20138 30148 40177 53007 81120;EQDQ01  00002PRCP99
0163595590999992000030100004+22000+120770FM-12+002499999V0200201N007010360019N0200001N1+02211+01611101881ADDAA199000091GF105991031051012501041001MA1999999101601MD1010121+9999REMSYN066AAXX  01001 59559 32670 50207 10221 20161 30160 40188 50012 83540;EQDQ01  00002PRCP99
0163595590999992000030103004+22000+120770FM-12+002499999V0200301N003010900019N0200001N1+02561+01741101891ADDAA199000091GF107991031051008001001021MA1999999101611MD1010011+9999REMSYN066AAXX  01031 59559 32570 70303 10256 20174 30161 40189 50001 83502;EQDQ01  00002PRCP99
0163595590999992000030106004+22000+120770FM-12+002499999V0200501N005010075019N0200001N1+02381+01651101661ADDAA199000091GF105991051051008001001001MA1999999101381MD1810231+9999REMSYN066AAXX  01061 59559 32570 50505 10238 20165 30138 40166 58023 85500;EQDQ01  00002PRCP99
0163595590999992000030109004+22000+120770FM-12+002499999V0200501N009010075019N0150001N1+02271+01701101621ADDAA199000091GF106991061051008001001001MA1999999101341MD1510041+9999REMSYN066AAXX  01091 59559 32565 60509 10227 20170 30134 40162 55004 86500;EQDQ01  00002PRCP99
0163595590999992000030112004+22000+120770FM-12+002499999V0200101N004010075019N0100001N1+02191+01711101771ADDAA199000091GF106991061051008001001001MA1999999101491MD1310151+9999REMSYN066AAXX  01121 59559 32560 60104 10219 20171 30149 40177 53015 86500;EQDQ01  00002PRCP99
0163595590999992000030115004+22000+120770FM-12+002499999V0202701N001010075019N0100001N1+02171+01701101721ADDAA199000091GF106991061051008001001001MA1999999101441MD1810051+9999REMSYN066AAXX  01151 59559 32560 62701 10217 20170 30144 40172 58005 86500;EQDQ01  00002PRCP99
0163595590999992000030118004+22000+120770FM-12+002499999V0203501N004010075019N0100001N1+02141+01651101651ADDAA199000091GF106991061051008001001001MA1999999101371MD1710071+9999REMSYN066AAXX  01181 59559 32560 63504 10214 20165 30137 40165 57007 86500;EQDQ01  00002PRCP99
0163595590999992000030200004+22000+120770FM-12+002499999V0200301N004010075019N0150001N1+02241+01731101751ADDAA199000091GF106991061051008001001001MA1999999101471MD1110201+9999REMSYN066AAXX  02001 59559 32565 60304 10224 20173 30147 40175 51020 86500;EQDQ01  00002PRCP99
0163595590999992000030203004+22000+120770FM-12+002499999V0200201N006010075019N0200001N1+02581+01791101711ADDAA199000091GF105991051051008001001001MA1999999101431MD1810041+9999REMSYN066AAXX  02031 59559 32570 50206 10258 20179 30143 40171 58004 85500;EQDQ01  00002PRCP99
0163595590999992000030206004+22000+120770FM-12+002499999V0200301N014012200019N0250001N1+02561+01741101531ADDAA199000091GF104991031021008001031001MA1999999101251MD1810181+9999REMSYN066AAXX  02061 59559 32575 40314 10256 20174 30125 40153 58018 83230;EQDQ01  00002PRCP99
0163595590999992000030209004+22000+120770FM-12+002499999V0200301N006010075019N0250001N1+02351+01681101561ADDAA199000091GF106991051021008001031001MA1999999101281MD1310031+9999REMSYN066AAXX  02091 59559 32575 60306 10235 20168 30128 40156 53003 85230;EQDQ01  00002PRCP99
0163595590999992000030212004+22000+120770FM-12+002499999V0200401N004010075019N0200001N1+02301+01631101691ADDAA199000091GF106991061041008001001001MA1999999101411MD1110131+9999REMSYN066AAXX  02121 59559 32570 60404 10230 20163 30141 40169 51013 86400;EQDQ01  00002PRCP99
0163595590999992000030215004+22000+120770FM-12+002499999V0200401N011012200019N0200001N1+02281+01711101741ADDAA199000091GF104991041051008001001001MA1999999101461MD1010051+9999REMSYN066AAXX  02151 59559 32570 40411 10228 20171 30146 40174 50005 84500;EQDQ01  00002PRCP99
0163595590999992000030218004+22000+120770FM-12+002499999V0200401N007012200019N0200001N1+02221+01771101641ADDAA199000091GF103991031051008001001001MA1999999101361MD1710101+9999REMSYN066AAXX  02181 59559 32570 30407 10222 20177 30136 40164 57010 83500;EQDQ01  00002PRCP99
0163595590999992000030221004+22000+120770FM-12+002499999V0201701N001012200019N0150001N1+02111+01711101611ADDAA199000091GF104991041051008001001001MA1999999101331MD1510031+9999REMSYN066AAXX  02211 59559 32565 41701 10211 20171 30133 40161 55003 84500;EQDQ01  00002PRCP99
0163595590999992000030300004+22000+120770FM-12+002499999V0200401N004012200019N0250001N1+02451+01891101721ADDAA199000091GF102991021051008001001001MA1999999101441MD1110111+9999REMSYN066AAXX  03001 59559 32575 20404 10245 20189 30144 40172 51011 82500;EQDQ01  00002PRCP99
0163595590999992000030303004+22000+120770FM-12+002499999V0203401N003010042019N0100001N1+02371+01941101801ADDAA199000091GF108991081051004501999999MA1999999101521MD1010081+9999REMSYN066AAXX  03031 59559 32460 83403 10237 20194 30152 40180 50008 885//;EQDQ01  00002PRCP99
0163595590999992000030306004+22000+120770FM-12+002499999V0203401N003010075019N0120001N1+02621+01941101511ADDAA199000091GF105991051051008001001001MA1999999101231MD1710291+9999REMSYN066AAXX  03061 59559 32562 53403 10262 20194 30123 40151 57029 85500;EQDQ01  00002PRCP99
0163595590999992000030309004+22000+120770FM-12+002499999V0200801N003012200019N0200001N1+02451+01871101521ADDAA199000091GF103991031021008001001001MA1999999101241MD1310011+9999REMSYN066AAXX  03091 59559 32570 30803 10245 20187 30124 40152 53001 83200;EQDQ01  00002PRCP99
0163595590999992000030312004+22000+120770FM-12+002499999V0200401N007012200019N0200001N1+02291+01891101581ADDAA199000091GF104991041041008001001001MA1999999101301MD1210061+9999REMSYN066AAXX  03121 59559 32570 40407 10229 20189 30130 40158 52006 84400;EQDQ01  00002PRCP99
0163595590999992000030315004+22000+120770FM-12+002499999V0200801N005012200019N0200001N1+02251+01841101601ADDAA199000091GF102991021051008001001001MA1999999101321MD1010021+9999REMSYN066AAXX  03151 59559 32570 20805 10225 20184 30132 40160 50002 82500;EQDQ01  00002PRCP99
0163595590999992000030318004+22000+120770FM-12+002499999V0201001N001012200019N0200001N1+02211+01871101471ADDAA199000091GF103991031051008001001001MA1999999101191MD1710131+9999REMSYN066AAXX  03181 59559 32570 31001 10221 20187 30119 40147 57013 83500;EQDQ01  00002PRCP99
0163595590999992000030321004+22000+120770FM-12+002499999V0200301N001012200019N0150001N1+02131+01841101451ADDAA199000091GF104991041051008001001001MA1999999101171MD1510021+9999REMSYN066AAXX  03211 59559 32565 40301 10213 20184 30117 40145 55002 84500;EQDQ01  00002PRCP99
0163595590999992000030400004+22000+120770FM-12+002499999V0200601N002012200019N0250001N1+02481+01891101551ADDAA199000091GF102991021051012501001001MA1999999101271MD1110101+9999REMSYN066AAXX  04001 59559 32675 20602 10248 20189 30127 40155 51010 82500;EQDQ01  00002PRCP99
0163595590999992000030403004+22000+120770FM-12+002499999V0201001N004010360019N0200001N1+02821+01941101541ADDAA199000091GF106991041051008001031001MA1999999101261MD1810011+9999REMSYN066AAXX  04031 59559 32570 61004 10282 20194 30126 40154 58001 84530;EQDQ01  00002PRCP99
0163595590999992000030406004+22000+120770FM-12+002499999V0201001N007010360019N0250001N1+02911+01901101211ADDAA199000091GF106991021051008001031001MA1999999100941MD1710321+9999REMSYN066AAXX  04061 59559 32575 61007 10291 20190 30094 40121 57032 82530;EQDQ01  00002PRCP99
0163595590999992000030409004+22000+120770FM-12+002499999V0200701N004010075019N0180001N1+02561+01911101181ADDAA199000091GF107991071051008001001001MA1999999100901MD1510041+9999REMSYN066AAXX  04091 59559 32568 70704 10256 20191 30090 40118 55004 87500;EQDQ01  00002PRCP99
0163595590999992000030412004+22000+120770FM-12+002499999V0200201N002012200019N0150001N1+02431+01991101301ADDAA199000091GF102991021011008001001001MA1999999101021MD1110121+9999REMSYN066AAXX  04121 59559 32565 20202 10243 20199 30102 40130 51012 82100;EQDQ01  00002PRCP99
0163595590999992000030415004+22000+120770FM-12+002499999V0203601N001012200019N0150001N1+02421+01991101361ADDAA199000091GF103991031051008001001001MA1999999101081MD1010061+9999REMSYN066AAXX  04151 59559 32565 33601 10242 20199 30108 40136 50006 83500;EQDQ01  00002PRCP99
0163595590999992000030418004+22000+120770FM-12+002499999V0209999C000012200019N0150001N1+02371+02011101171ADDAA199000091GF102991021051008001001001MA1999999100891MD1810191+9999REMSYN066AAXX  04181 59559 32565 20000 10237 20201 30089 40117 58019 82500;EQDQ01  00002PRCP99
0163595590999992000030421004+22000+120770FM-12+002499999V0200101N001012200019N0150001N1+02321+02021101111ADDAA199000091GF104991041051008001001001MA1999999100831MD1510061+9999REMSYN066AAXX  04211 59559 32565 40101 10232 20202 30083 40111 55006 84500;EQDQ01  00002PRCP99
0163595590999992000030500004+22000+120770FM-12+002499999V0209999C000010075019N0180001N1+02421+02131101191ADDAA199000091GF108991081051008001999999MA1999999100911MD1010081+9999REMSYN066AAXX  05001 59559 32568 80000 10242 20213 30091 40119 50008 885//;EQDQ01  00002PRCP99
0163595590999992000030503004+22000+120770FM-12+002499999V0201701N003010075019N0180001N1+02891+02281101151ADDAA199000091GF107991071051008001001001MA1999999100881MD1710031+9999REMSYN066AAXX  05031 59559 32568 71703 10289 20228 30088 40115 57003 87500;EQDQ01  00002PRCP99
0163595590999992000030506004+22000+120770FM-12+002499999V0201001N003010075019N0150001N1+02851+02171100841ADDAA199000091GF107991071051008001999999MA1999999100571MD1710311+9999REMSYN066AAXX  05061 59559 32565 71003 10285 20217 30057 40084 57031 875//;EQDQ01  00002PRCP99
0163595590999992000030509004+22000+120770FM-12+002499999V0200501N003010075019N0150001N1+02591+02091100861ADDAA199000091GF106991061051008001001001MA1999999100581MD1310011+9999REMSYN066AAXX  05091 59559 32565 60503 10259 20209 30058 40086 53001 86500;EQDQ01  00002PRCP99
0163595590999992000030512004+22000+120770FM-12+002499999V0200301N004012200019N0150001N1+02391+02061100971ADDAA199000091GF104991041051008001001001MA1999999100691MD1310111+9999REMSYN066AAXX  05121 59559 32565 40304 10239 20206 30069 40097 53011 84500;EQDQ01  00002PRCP99
0163595590999992000030515004+22000+120770FM-12+002499999V0200201N008010075019N0150001N1+02391+01981101061ADDAA199000091GF106991061051008001001001MA1999999100781MD1010091+9999REMSYN066AAXX  05151 59559 32565 60208 10239 20198 30078 40106 50009 86500;EQDQ01  00002PRCP99
0163595590999992000030518004+22000+120770FM-12+002499999V0200301N006010075019N0150001N1+02371+01981100991ADDAA199000091GF106991061051008001001001MA1999999100711MD1810071+9999REMSYN066AAXX  05181 59559 32565 60306 10237 20198 30071 40099 58007 86500;EQDQ01  00002PRCP99
0163595590999992000030521004+22000+120770FM-12+002499999V0200301N007010075019N0150001N1+02311+01941101011ADDAA199000091GF106991061051008001001001MA1999999100731MD1310021+9999REMSYN066AAXX  05211 59559 32565 60307 10231 20194 30073 40101 53002 86500;EQDQ01  00002PRCP99
0163595590999992000030600004+22000+120770FM-12+002499999V0200301N007010120019N0150001N1+02381+01851101141ADDAA199000091GF108991081051012501999999MA1999999100861MD1310131+9999REMSYN066AAXX  06001 59559 32665 80307 10238 20185 30086 40114 53013 885//;EQDQ01  00002PRCP99
0163595590999992000030603004+22000+120770FM-12+002499999V0200301N012010120019N0150001N1+02511+01911101161ADDAA199000091GF107991071051012501999999MA1999999100881MD1010021+9999REMSYN066AAXX  06031 59559 32665 70312 10251 20191 30088 40116 50002 875//;EQDQ01  00002PRCP99
0163595590999992000030606004+22000+120770FM-12+002499999V0200101N012010360019N0150001N1+02711+01921100981ADDAA199000091GF108991021011008001051001MA1999999100701MD1810181+9999REMSYN066AAXX  06061 59559 32565 80112 10271 20192 30070 40098 58018 82150;EQDQ01  00002PRCP99
0163595590999992000030609004+22000+120770FM-12+002499999V0200201N003010360019N0150001N1+02431+01891101011ADDAA199000091GF108991021011008001011001MA1999999100731MD1310031+9999REMSYN066AAXX  06091 59559 32565 80203 10243 20189 30073 40101 53003 82110;EQDQ01  00002PRCP99
0163595590999992000030612004+22000+120770FM-12+002499999V0200301N012010075019N0100001N1+02331+01841101161ADDAA199000091GF108991081021008001999999MA1999999100881MD1310151+9999REMSYN066AAXX  06121 59559 32560 80312 10233 20184 30088 40116 53015 882//;EQDQ01  00002PRCP99
0163595590999992000030615004+22000+120770FM-12+002499999V0200301N007010075019N0100001N1+02291+01821101241ADDAA199000091GF108991081051008001999999MA1999999100961MD1010081+9999REMSYN066AAXX  06151 59559 32560 80307 10229 20182 30096 40124 50008 885//;EQDQ01  00002PRCP99
0163595590999992000030618004+22000+120770FM-12+002499999V0203401N006010075019N0100001N1+02221+01811101291ADDAA199000091GF108991081051008001999999MA1999999101011MD1310051+9999REMSYN066AAXX  06181 59559 32560 83406 10222 20181 30101 40129 53005 885//;EQDQ01  00002PRCP99
0150595590999992000030621004+22000+120770FM-12+002499999V0203501N004010075019N0100001N1+02181+01791101291ADDAA100000791GF106991061051008001001001MA1999999101011MD1410001+9999REMSYN072AAXX  06211 59559 12560 63504 10218 20179 30101 40129 54000 6990/ 86500;
0163595590999992000030700004+22000+120770FM-12+002499999V0200301N011012200019N0200001N1+02351+01821101291ADDAA199000091GF104991041021008001001001MA1999999101011MD1410001+9999REMSYN066AAXX  07001 59559 32570 40311 10235 20182 30101 40129 54000 84200;EQDQ01  00002PRCP99
0131595590999992000030703004+22000+120770FM-12+002499999V0200301N005019999999N9999999N1+02751+01861101301ADDAA199000091MA1999999101021MD1010011+9999REMSYN060AAXX  07031 59559 32/// /0305 10275 20186 30102 40130 50001;EQDQ01  00002PRCP99
0163595590999992000030706004+22000+120770FM-12+002499999V0200101N011012200019N0200001N1+02671+01811101161ADDAA199000091GF102991021021008001001001MA1999999100881MD1810141+9999REMSYN066AAXX  07061 59559 32570 20111 10267 20181 30088 40116 58014 82200;EQDQ01  00002PRCP99
0163595590999992000030709004+22000+120770FM-12+002499999V0200101N004012200019N0150001N1+02391+01811101201ADDAA199000091GF102991021021008001001001MA1999999100921MD1310041+9999REMSYN066AAXX  07091 59559 32565 20104 10239 20181 30092 40120 53004 82200;EQDQ01  00002PRCP99
0163595590999992000030712004+22000+120770FM-12+002499999V0200601N008010075019N0150001N1+02241+01751101281ADDAA199000091GF107991071051008001001001MA1999999101001MD1310081+9999REMSYN066AAXX  07121 59559 32565 70608 10224 20175 30100 40128 53008 87500;EQDQ01  00002PRCP99
0163595590999992000030715004+22000+120770FM-12+002499999V0201001N002010075019N0120001N1+02171+01711101401ADDAA199000091GF107991071051008001001001MA1999999101121MD1210121+9999REMSYN066AAXX  07151 59559 32562 71002 10217 20171 30112 40140 52012 87500;EQDQ01  00002PRCP99
0163595590999992000030718004+22000+120770FM-12+002499999V0203501N004012200019N0120001N1+02051+01651101391ADDAA199000091GF102991021051008001001001MA1999999101111MD1510011+9999REMSYN066AAXX  07181 59559 32562 23504 10205 20165 30111 40139 55001 82500;EQDQ01  00002PRCP99
0163595590999992000030721004+22000+120770FM-12+002499999V0200101N007010075019N0150001N1+02081+01601101431ADDAA199000091GF106991061051008001001001MA1999999101151MD1310041+9999REMSYN066AAXX  07211 59559 32565 60107 10208 20160 30115 40143 53004 86500;EQDQ01  00002PRCP99
0163595590999992000030800004+22000+120770FM-12+002499999V0200301N016012200019N0150001N1+02241+01671101561ADDAA199000091GF101991011051008001001001MA1999999101281MD1210131+9999REMSYN066AAXX  08001 59559 32565 10316 10224 20167 30128 40156 52013 81500;EQDQ01  00002PRCP99
0163595590999992000030806004+22000+120770FM-12+002499999V0200401N008012200019N0250001N1+02421+01611101351ADDAA199000091GF102991021011008001001001MA1999999101071MD1710181+9999REMSYN066AAXX  08061 59559 32575 20408 10242 20161 30107 40135 57018 82100;EQDQ01  00002PRCP99
0163595590999992000030809004+22000+120770FM-12+002499999V0200301N009012200019N0200001N1+02251+01521101351ADDAA199000091GF101991011011008001001001MA1999999101071MD1410001+9999REMSYN066AAXX  08091 59559 32570 10309 10225 20152 30107 40135 54000 81100;EQDQ01  00002PRCP99
0163595590999992000030812004+22000+120770FM-12+002499999V0200401N009012200019N0200001N1+02131+01521101511ADDAA199000091GF102991021051008001001001MA1999999101231MD1110161+9999REMSYN066AAXX  08121 59559 32570 20409 10213 20152 30123 40151 51016 82500;EQDQ01  00002PRCP99
0163595590999992000030815004+22000+120770FM-12+002499999V0200301N009012200019N0200001N1+02111+01501101551ADDAA199000091GF101991011051008001001001MA1999999101271MD1010041+9999REMSYN066AAXX  08151 59559 32570 10309 10211 20150 30127 40155 50004 81500;EQDQ01  00002PRCP99
0163595590999992000030818004+22000+120770FM-12+002499999V0200301N005012200019N0200001N1+02091+01461101531ADDAA199000091GF101991011051008001001001MA1999999101251MD1810021+9999REMSYN066AAXX  08181 59559 32570 10305 10209 20146 30125 40153 58002 81500;EQDQ01  00002PRCP99
0163595590999992000030821004+22000+120770FM-12+002499999V0203401N003012200019N0200001N1+01941+01421101641ADDAA199000091GF102991021051008001001001MA1999999101351MD1110101+9999REMSYN066AAXX  08211 59559 32570 23403 10194 20142 30135 40164 51010 82500;EQDQ01  00002PRCP99
0163595590999992000030900004+22000+120770FM-12+002499999V0203501N003012200019N0200001N1+02301+01591101771ADDAA199000091GF102991021051008001001001MA1999999101491MD1110141+9999REMSYN066AAXX  09001 59559 32570 23503 10230 20159 30149 40177 51014 82500;EQDQ01  00002PRCP99
0163595590999992000030903004+22000+120770FM-12+002499999V0200201N007012200019N0250001N1+02611+01701101741ADDAA199000091GF101991011011008001001001MA1999999101461MD1810031+9999REMSYN066AAXX  09031 59559 32575 10207 10261 20170 30146 40174 58003 81100;EQDQ01  00002PRCP99
0163595590999992000030906004+22000+120770FM-12+002499999V0200301N004012200019N0250001N1+02501+01731101541ADDAA199000091GF103991031011008001001001MA1999999101261MD1710201+9999REMSYN066AAXX  09061 59559 32575 30304 10250 20173 30126 40154 57020 83100;EQDQ01  00002PRCP99
0163595590999992000030912004+22000+120770FM-12+002499999V0200401N004012200019N0150001N1+02201+01731101671ADDAA199000091GF101991011011008001001001MA1999999101391MD1210081+9999REMSYN066AAXX  09121 59559 32565 10404 10220 20173 30139 40167 52008 81100;EQDQ01  00002PRCP99
0163595590999992000030915004+22000+120770FM-12+002499999V0203601N006012200019N0150001N1+02151+01711101681ADDAA199000091GF101991011011008001001001MA1999999101401MD1010011+9999REMSYN066AAXX  09151 59559 32565 13606 10215 20171 30140 40168 50001 81100;EQDQ01  00002PRCP99
0163595590999992000030918004+22000+120770FM-12+002499999V0200401N002012200019N0150001N1+02151+01661101641ADDAA199000091GF103991031051008001001001MA1999999101361MD1810041+9999REMSYN066AAXX  09181 59559 32565 30402 10215 20166 30136 40164 58004 83500;EQDQ01  00002PRCP99
0163595590999992000030921004+22000+120770FM-12+002499999V0200201N006012200019N0150001N1+02171+01721101521ADDAA199000091GF101991011011008001001001MA1999999101241MD1510121+9999REMSYN066AAXX  09211 59559 32565 10206 10217 20172 30124 40152 55012 81100;EQDQ01  00002PRCP99
0163595590999992000031000004+22000+120770FM-12+002499999V0200101N004012200019N0200001N1+02431+01831101681ADDAA199000091GF102991021011008001001001MA1999999101401MD1110161+9999REMSYN066AAXX  10001 59559 32570 20104 10243 20183 30140 40168 51016 82100;EQDQ01  00002PRCP99
0163595590999992000031003004+22000+120770FM-12+002499999V0200201N005012200019N0250001N1+02801+01881101611ADDAA199000091GF102991021011008001001001MA1999999101331MD1810071+9999REMSYN066AAXX  10031 59559 32575 20205 10280 20188 30133 40161 58007 82100;EQDQ01  00002PRCP99
0163595590999992000031006004+22000+120770FM-12+002499999V0200701N005012200019N0200001N1+02931+02021101361ADDAA199000091GF105991041021008001001011MA1999999101081MD1810251+9999REMSYN066AAXX  10061 59559 32570 50705 10293 20202 30108 40136 58025 84201;EQDQ01  00002PRCP99
0163595590999992000031009004+22000+120770FM-12+002499999V0200701N004010075019N0150001N1+02531+02041101301ADDAA199000091GF108991081051008001999999MA1999999101021MD1510061+9999REMSYN066AAXX  10091 59559 32565 80704 10253 20204 30102 40130 55006 885//;EQDQ01  00002PRCP99
0163595590999992000031012004+22000+120770FM-12+002499999V0200701N004010075019N0150001N1+02471+02081101331ADDAA199000091GF108991081051008001999999MA1999999101051MD1310031+9999REMSYN066AAXX  10121 59559 32565 80704 10247 20208 30105 40133 53003 885//;EQDQ01  00002PRCP99
0178595590999992000031015004+22000+120770FM-12+002499999V0200801N001010075019N0150001N1+02261+02081101361ADDAA100000791AY151031AY221031GF106991061051008001001001MA1999999101081MD1010031+9999MW1021REMSYN078AAXX  10151 59559 11565 60801 10226 20208 30108 40136 50003 6990/ 70252 86500;
0178595590999992000031018004+22000+120770FM-12+002499999V0201001N002010075019N0150001N1+02311+02111101141ADDAA106000791AY151061AY221061GF107991071051008001999999MA1999999100861MD1810221+9999MW1021REMSYN078AAXX  10181 59559 11565 71002 10231 20211 30086 40114 58022 69901 70252 875//;
0178595590999992000031021004+22000+120770FM-12+002499999V0203501N003010075019N0100001N1+02161+02001101081ADDAA100000591AY161031AY261031GF108991081051008001999999MA1999999100801MD1510061+9999MW1611REMSYN078AAXX  10211 59559 11560 83503 10216 20200 30080 40108 55006 6995/ 76166 885//;
0178595590999992000031100004+22000+120770FM-12+002499999V0201301N001010075019N0100001N1+02291+02231101121ADDAA112014091AY161061AY261061GF108991081051008001999999MA1999999100841MD1310041+9999MW1611REMSYN078AAXX  11001 59559 11560 81301 10229 20223 30084 40112 53004 60142 76166 885//;
0144595590999992000031103004+22000+120770FM-12+002499999V0203201N002010075019N0150001N1+02791+02341101091ADDAA199000021GF108991081061008001999999MA1999999100811MD1810031+9999REMSYN066AAXX  11031 59559 32565 83202 10279 20234 30081 40109 58003 886//;
0144595590999992000031106004+22000+120770FM-12+002499999V0202901N002012200019N0200001N1+02841+02241100871ADDAA199000021GF102991021021008001001001MA1999999100601MD1710211+9999REMSYN066AAXX  11061 59559 32570 22902 10284 20224 30060 40087 57021 82200;
0144595590999992000031109004+22000+120770FM-12+002499999V0202901N003012200019N0150001N1+02631+02211100851ADDAA199000021GF102991021021008001001001MA1999999100571MD1510031+9999REMSYN066AAXX  11091 59559 32565 22903 10263 20221 30057 40085 55003 82200;
0144595590999992000031112004+22000+120770FM-12+002499999V0203101N002012200019N0100001N1+02481+02201100991ADDAA199000021GF102991021021008001001001MA1999999100711MD1210141+9999REMSYN066AAXX  11121 59559 32560 23102 10248 20220 30071 40099 52014 82200;
0163595590999992000031115004+22000+120770FM-12+002499999V0202801N002012200019N0100001N1+02401+02211101101ADDAA199000091GF102991021021008001001001MA1999999100821MD1110111+9999REMSYN066AAXX  11151 59559 32560 22802 10240 20221 30082 40110 51011 82200;EQDQ01  00002PRCP99
0163595590999992000031118004+22000+120770FM-12+002499999V0203201N002012200019N0100001N1+02291+02141101011ADDAA199000091GF102991021021008001001001MA1999999100731MD1810091+9999REMSYN066AAXX  11181 59559 32560 23202 10229 20214 30073 40101 58009 82200;EQDQ01  00002PRCP99
0163595590999992000031121004+22000+120770FM-12+002499999V0209999C000012200019N0100001N1+02241+02101101021ADDAA199000091GF102991021021008001001001MA1999999100741MD1310011+9999REMSYN066AAXX  11211 59559 32560 20000 10224 20210 30074 40102 53001 82200;EQDQ01  00002PRCP99
0163595590999992000031200004+22000+120770FM-12+002499999V0202201N002012200019N0200001N1+02491+02091101161ADDAA199000091GF102991021051008001001001MA1999999100881MD1210141+9999REMSYN066AAXX  12001 59559 32570 22202 10249 20209 30088 40116 52014 82500;EQDQ01  00002PRCP99
0163595590999992000031203004+22000+120770FM-12+002499999V0200501N005012200019N0250001N1+02731+02011101151ADDAA199000091GF104991041051008001001001MA1999999100871MD1810011+9999REMSYN066AAXX  12031 59559 32575 40505 10273 20201 30087 40115 58001 84500;EQDQ01  00002PRCP99
0150595590999992000031206004+22000+120770FM-12+002499999V0200201N006010075019N0200001N1+02171+01841101091ADDAA106002091GF108991081051008001999999MA1999999100811MD1810061+9999REMSYN072AAXX  12061 59559 12570 80206 10217 20184 30081 40109 58006 60021 885//;
0150595590999992000031209004+22000+120770FM-12+002499999V0200601N002010075019N0150001N1+02231+01851101071ADDAA100002091GF108991081051008001999999MA1999999100791MD1510021+9999REMSYN072AAXX  12091 59559 12565 80602 10223 20185 30079 40107 55002 6002/ 885//;
0150595590999992000031212004+22000+120770FM-12+002499999V0200601N003010075019N0150001N1+02201+01851101211ADDAA112002091GF108991081051008001999999MA1999999100931MD1310141+9999REMSYN072AAXX  12121 59559 12565 80603 10220 20185 30093 40121 53014 60022 885//;
0163595590999992000031215004+22000+120770FM-12+002499999V0200401N005010075019N0150001N1+02181+01871101271ADDAA199000091GF108991081051008001999999MA1999999100991MD1110061+9999REMSYN066AAXX  12151 59559 32565 80405 10218 20187 30099 40127 51006 885//;EQDQ01  00002PRCP99
0163595590999992000031218004+22000+120770FM-12+002499999V0203601N003010075019N0150001N1+02201+01881101221ADDAA199000091GF108991081051008001999999MA1999999100941MD1510051+9999REMSYN066AAXX  12181 59559 32565 83603 10220 20188 30094 40122 55005 885//;EQDQ01  00002PRCP99
0163595590999992000031221004+22000+120770FM-12+002499999V0200401N001010075019N0150001N1+02161+01881101261ADDAA199000091GF107991071051008001001001MA1999999100981MD1310041+9999REMSYN066AAXX  12211 59559 32565 70401 10216 20188 30098 40126 53004 87500;EQDQ01  00002PRCP99
0163595590999992000031300004+22000+120770FM-12+002499999V0200601N004010075019N0200001N1+02411+01971101411ADDAA199000091GF106991061051008001001001MA1999999101131MD1210151+9999REMSYN066AAXX  13001 59559 32570 60604 10241 20197 30113 40141 52015 86500;EQDQ01  00002PRCP99
0173595590999992000031303004+22000+120770FM-12+002499999V0200901N003012200019N0250001N1+02801+02001101381ADDAA199000091GA1001+999999999GF100991001001999999001001MA1999999101101MD1810031+9999REMSYN060AAXX  13031 59559 32975 00903 10280 20200 30110 40138 58003;EQDQ01  00002PRCP99
0163595590999992000031306004+22000+120770FM-12+002499999V0203301N002010075019N0100001N1+02541+02051101261ADDAA199000091GF105991051051008001001001MA1999999100981MD1810121+9999REMSYN066AAXX  13061 59559 32560 53302 10254 20205 30098 40126 58012 85500;EQDQ01  00002PRCP99
0163595590999992000031309004+22000+120770FM-12+002499999V0203101N001010075019N0120001N1+02441+01971101271ADDAA199000091GF105991051051008001001001MA1999999100991MD1310011+9999REMSYN066AAXX  13091 59559 32562 53101 10244 20197 30099 40127 53001 85500;EQDQ01  00002PRCP99
0163595590999992000031312004+22000+120770FM-12+002499999V0200301N005012200019N0150001N1+02271+01931101391ADDAA199000091GF104991041051008001001001MA1999999101111MD1310121+9999REMSYN066AAXX  13121 59559 32565 40305 10227 20193 30111 40139 53012 84500;EQDQ01  00002PRCP99
0163595590999992000031315004+22000+120770FM-12+002499999V0200401N004012200019N0200001N1+02241+01911101461ADDAA199000091GF101991011051008001001001MA1999999101181MD1010071+9999REMSYN066AAXX  13151 59559 32570 10404 10224 20191 30118 40146 50007 81500;EQDQ01  00002PRCP99
0163595590999992000031318004+22000+120770FM-12+002499999V0200401N003012200019N0200001N1+02191+01801101391ADDAA199000091GF101991011051008001001001MA1999999101111MD1710071+9999REMSYN066AAXX  13181 59559 32570 10403 10219 20180 30111 40139 57007 81500;EQDQ01  00002PRCP99
0163595590999992000031321004+22000+120770FM-12+002499999V0200801N001012200019N0150001N1+02151+01781101371ADDAA199000091GF102991021051008001001001MA1999999101091MD1510021+9999REMSYN066AAXX  13211 59559 32565 20801 10215 20178 30109 40137 55002 82500;EQDQ01  00002PRCP99
0163595590999992000031400004+22000+120770FM-12+002499999V0202701N002012200019N0200001N1+02521+01871101541ADDAA199000091GF101991011051008001001001MA1999999101261MD1110171+9999REMSYN066AAXX  14001 59559 32570 12702 10252 20187 30126 40154 51017 81500;EQDQ01  00002PRCP99
0163595590999992000031403004+22000+120770FM-12+002499999V0203301N003012200019N0120001N1+02631+02061101511ADDAA199000091GF103991031021008001001001MA1999999101231MD1810031+9999REMSYN066AAXX  14031 59559 32562 33303 10263 20206 30123 40151 58003 83200;EQDQ01  00002PRCP99
0163595590999992000031406004+22000+120770FM-12+002499999V0203101N004010042019N0100001N1+02541+02021101291ADDAA199000091GF107991071051004501999999MA1999999101011MD1810221+9999REMSYN066AAXX  14061 59559 32460 73104 10254 20202 30101 40129 58022 875//;EQDQ01  00002PRCP99
0163595590999992000031409004+22000+120770FM-12+002499999V0203101N001012200019N0120001N1+02401+01971101271ADDAA199000091GF103991031051008001001001MA1999999100991MD1510021+9999REMSYN066AAXX  14091 59559 32562 33101 10240 20197 30099 40127 55002 83500;EQDQ01  00002PRCP99
0163595590999992000031412004+22000+120770FM-12+002499999V0200301N001012200019N0200001N1+02321+01941101351ADDAA199000091GF102991021051008001001001MA1999999101071MD1310081+9999REMSYN066AAXX  14121 59559 32570 20301 10232 20194 30107 40135 53008 82500;EQDQ01  00002PRCP99
0163595590999992000031415004+22000+120770FM-12+002499999V0209999V002012200019N0200001N1+02361+01921101361ADDAA199000091GF101991011051008001001001MA1999999101081MD1010011+9999REMSYN066AAXX  14151 59559 32570 19902 10236 20192 30108 40136 50001 81500;EQDQ01  00002PRCP99
0163595590999992000031418004+22000+120770FM-12+002499999V0200501N002012200019N0200001N1+02331+01911101261ADDAA199000091GF102991021051008001001001MA1999999100981MD1510101+9999REMSYN066AAXX  14181 59559 32570 20502 10233 20191 30098 40126 55010 82500;EQDQ01  00002PRCP99
0163595590999992000031421004+22000+120770FM-12+002499999V0203401N003012200019N0120001N1+02241+01891101291ADDAA199000091GF104991041051008001001001MA1999999101011MD1310031+9999REMSYN066AAXX  14211 59559 32562 43403 10224 20189 30101 40129 53003 84500;EQDQ01  00002PRCP99
0163595590999992000031500004+22000+120770FM-12+002499999V0203401N001012200019N0150001N1+02421+01981101431ADDAA199000091GF102991021011008001001001MA1999999101151MD1110141+9999REMSYN066AAXX  15001 59559 32565 23401 10242 20198 30115 40143 51014 82100;EQDQ01  00002PRCP99
0163595590999992000031503004+22000+120770FM-12+002499999V0203101N002010075019N0110001N1+02711+02111101291ADDAA199000091GF105991051041008001001001MA1999999101011MD1810141+9999REMSYN066AAXX  15031 59559 32561 53102 10271 20211 30101 40129 58014 85400;EQDQ01  00002PRCP99
0163595590999992000031506004+22000+120770FM-12+002499999V0202801N003012200019N0150001N1+02871+02161100991ADDAA199000091GF104991041051008001001001MA1999999100721MD1810291+9999REMSYN066AAXX  15061 59559 32565 42803 10287 20216 30072 40099 58029 84500;EQDQ01  00002PRCP99
0163595590999992000031509004+22000+120770FM-12+002499999V0202601N004012200019N0150001N1+02621+02061100921ADDAA199000091GF104991041051008001001001MA1999999100641MD1510081+9999REMSYN066AAXX  15091 59559 32565 42604 10262 20206 30064 40092 55008 84500;EQDQ01  00002PRCP99
0163595590999992000031512004+22000+120770FM-12+002499999V0203301N004012200019N0100001N1+02331+02101100961ADDAA199000091GF102991021051008001001001MA1999999100681MD1310041+9999REMSYN066AAXX  15121 59559 32560 23304 10233 20210 30068 40096 53004 82500;EQDQ01  00002PRCP99
0163595590999992000031515004+22000+120770FM-12+002499999V0203301N003012200019N0100001N1+02311+02101101071ADDAA199000091GF102991021051008001001001MA1999999100791MD1110111+9999REMSYN066AAXX  15151 59559 32560 23303 10231 20210 30079 40107 51011 82500;EQDQ01  00002PRCP99
0163595590999992000031518004+22000+120770FM-12+002499999V0203301N001010075019N0100001N1+02221+02081100971ADDAA199000091GF105991051051008001001001MA1999999100691MD1710101+9999REMSYN066AAXX  15181 59559 32560 53301 10222 20208 30069 40097 57010 85500;EQDQ01  00002PRCP99
0163595590999992000031521004+22000+120770FM-12+002499999V0209999C000010075019N0100001N1+02201+02021100981ADDAA199000091GF105991051051008001001001MA1999999100701MD1310011+9999REMSYN066AAXX  15211 59559 32560 50000 10220 20202 30070 40098 53001 85500;EQDQ01  00002PRCP99
0163595590999992000031600004+22000+120770FM-12+002499999V0203301N006012200019N0200001N1+02511+02011101041ADDAA199000091GF102991021051008001001001MA1999999100761MD1310061+9999REMSYN066AAXX  16001 59559 32570 23306 10251 20201 30076 40104 53006 82500;EQDQ01  00002PRCP99
0163595590999992000031603004+22000+120770FM-12+002499999V0203101N003012200019N0150001N1+02741+02071101041ADDAA199000091GF102991021051008001001001MA1999999100761MD1410001+9999REMSYN066AAXX  16031 59559 32565 23103 10274 20207 30076 40104 54000 82500;EQDQ01  00002PRCP99
0163595590999992000031609004+22000+120770FM-12+002499999V0200401N015010075019N0120001N1+02271+01861101011ADDAA199000091GF106991061051008001001001MA1999999100731MD1110081+9999REMSYN066AAXX  16091 59559 32562 60415 10227 20186 30073 40101 51008 86500;EQDQ01  00002PRCP99
0163595590999992000031612004+22000+120770FM-12+002499999V0200401N015012200019N0150001N1+02061+01661101251ADDAA199000091GF103991031021008001001001MA1999999100971MD1210241+9999REMSYN066AAXX  16121 59559 32565 30415 10206 20166 30097 40125 52024 83200;EQDQ01  00002PRCP99
0163595590999992000031615004+22000+120770FM-12+002499999V0200301N009010075019N0150001N1+01981+01591101351ADDAA199000091GF106991061051008001001001MA1999999101071MD1010101+9999REMSYN066AAXX  16151 59559 32565 60309 10198 20159 30107 40135 50010 86500;EQDQ01  00002PRCP99
0163595590999992000031618004+22000+120770FM-12+002499999V0200401N009010075019N0150001N1+01981+01541101231ADDAA199000091GF107991071051008001999999MA1999999100951MD1810121+9999REMSYN066AAXX  16181 59559 32565 70409 10198 20154 30095 40123 58012 875//;EQDQ01  00002PRCP99
0163595590999992000031621004+22000+120770FM-12+002499999V0200401N008010075019N0150001N1+01921+01481101271ADDAA199000091GF106991061051008001001001MA1999999100991MD1010041+9999REMSYN066AAXX  16211 59559 32565 60408 10192 20148 30099 40127 50004 86500;EQDQ01  00002PRCP99
0163595590999992000031700004+22000+120770FM-12+002499999V0200501N012010075019N0120001N1+02041+01481101461ADDAA199000091GF107991071051008001999999MA1999999101181MD1110191+9999REMSYN066AAXX  17001 59559 32562 70512 10204 20148 30118 40146 51019 875//;EQDQ01  00002PRCP99
0163595590999992000031703004+22000+120770FM-12+002499999V0200501N005010075019N0150001N1+02171+01551101441ADDAA199000091GF107991071051008001999999MA1999999101161MD1810021+9999REMSYN066AAXX  17031 59559 32565 70505 10217 20155 30116 40144 58002 875//;EQDQ01  00002PRCP99
0163595590999992000031706004+22000+120770FM-12+002499999V0200501N007010075019N0150001N1+02251+01571101271ADDAA199000091GF108991081051008001999999MA1999999100991MD1810171+9999REMSYN066AAXX  17061 59559 32565 80507 10225 20157 30099 40127 58017 885//;EQDQ01  00002PRCP99
0163595590999992000031709004+22000+120770FM-12+002499999V0200501N005010075019N0150001N1+01991+01631101271ADDAA199000091GF108991081051008001999999MA1999999100991MD1410001+9999REMSYN066AAXX  17091 59559 32565 80505 10199 20163 30099 40127 54000 885//;EQDQ01  00002PRCP99
0163595590999992000031712004+22000+120770FM-12+002499999V0200301N012012200019N0150001N1+01981+01511101421ADDAA199000091GF104991041051008001001001MA1999999101141MD1310151+9999REMSYN066AAXX  17121 59559 32565 40312 10198 20151 30114 40142 53015 84500;EQDQ01  00002PRCP99
0163595590999992000031715004+22000+120770FM-12+002499999V0200501N006012200019N0150001N1+01991+01551101441ADDAA199000091GF102991021051012501001001MA1999999101161MD1010021+9999REMSYN066AAXX  17151 59559 32665 20506 10199 20155 30116 40144 50002 82500;EQDQ01  00002PRCP99
0163595590999992000031718004+22000+120770FM-12+002499999V0200401N009010120019N0150001N1+02021+01571101341ADDAA199000091GF106991061051012501001001MA1999999101061MD1810101+9999REMSYN066AAXX  17181 59559 32665 60409 10202 20157 30106 40134 58010 86500;EQDQ01  00002PRCP99
0163595590999992000031721004+22000+120770FM-12+002499999V0200201N006012200019N0150001N1+02001+01631101231ADDAA199000091GF101991011051012501001001MA1999999100951MD1610111+9999REMSYN066AAXX  17211 59559 32665 10206 10200 20163 30095 40123 56011 81500;EQDQ01  00002PRCP99
0163595590999992000031800004+22000+120770FM-12+002499999V0200401N010012200019N0180001N1+02251+01671101341ADDAA199000091GF102991021051008001001001MA1999999101061MD1210111+9999REMSYN066AAXX  18001 59559 32568 20410 10225 20167 30106 40134 52011 82500;EQDQ01  00002PRCP99
0163595590999992000031803004+22000+120770FM-12+002499999V0200701N005012200019N0180001N1+02611+01831101361ADDAA199000091GF104991041051008001001001MA1999999101081MD1010021+9999REMSYN066AAXX  18031 59559 32568 40705 10261 20183 30108 40136 50002 84500;EQDQ01  00002PRCP99
0163595590999992000031809004+22000+120770FM-12+002499999V0200501N004012200019N0150001N1+02411+01731101061ADDAA199000091GF103991031051008001001001MA1999999100781MD1310011+9999REMSYN066AAXX  18091 59559 32565 30504 10241 20173 30078 40106 53001 83500;EQDQ01  00002PRCP99
0163595590999992000031812004+22000+120770FM-12+002499999V0203301N001012200019N0200001N1+02191+01761101181ADDAA199000091GF101991011011008001001001MA1999999100901MD1210121+9999REMSYN066AAXX  18121 59559 32570 13301 10219 20176 30090 40118 52012 81100;EQDQ01  00002PRCP99
0173595590999992000031815004+22000+120770FM-12+002499999V0202301N001012200019N0250001N1+02161+01791101241ADDAA199000091GA1001+999999999GF100991001001999999001001MA1999999100961MD1110061+9999REMSYN060AAXX  18151 59559 32975 02301 10216 20179 30096 40124 51006;EQDQ01  00002PRCP99
0163595590999992000031818004+22000+120770FM-12+002499999V0203601N003012200019N0200001N1+02111+01771101161ADDAA199000091GF102991021051008001001001MA1999999100881MD1710081+9999REMSYN066AAXX  18181 59559 32570 23603 10211 20177 30088 40116 57008 82500;EQDQ01  00002PRCP99
0163595590999992000031821004+22000+120770FM-12+002499999V0209999C000010042019N0110001N1+01961+01761101161ADDAA199000091GF106991061051004501001001MA1999999100881MD1410001+9999REMSYN066AAXX  18211 59559 32461 60000 10196 20176 30088 40116 54000 86500;EQDQ01  00002PRCP99
0163595590999992000031900004+22000+120770FM-12+002499999V0203501N003012200019N0120001N1+02281+01941101201ADDAA199000091GF104991041051008001001001MA1999999100921MD1310041+9999REMSYN066AAXX  19001 59559 32562 43503 10228 20194 30092 40120 53004 84500;EQDQ01  00002PRCP99
0163595590999992000031903004+22000+120770FM-12+002499999V0200601N003012200019N0150001N1+02891+01901101141ADDAA199000091GF102991021021008001001001MA1999999100871MD1810051+9999REMSYN066AAXX  19031 59559 32565 20603 10289 20190 30087 40114 58005 82200;EQDQ01  00002PRCP99
0163595590999992000031906004+22000+120770FM-12+002499999V0202001N004010075019N0150001N1+02601+01911101011ADDAA199000091GF108991081051008001999999MA1999999100731MD1810141+9999REMSYN066AAXX  19061 59559 32565 82004 10260 20191 30073 40101 58014 885//;EQDQ01  00002PRCP99
0163595590999992000031909004+22000+120770FM-12+002499999V0200601N006010075019N0150001N1+02441+01921101021ADDAA199000091GF106991061021008001001001MA1999999100741MD1310011+9999REMSYN066AAXX  19091 59559 32565 60606 10244 20192 30074 40102 53001 86200;EQDQ01  00002PRCP99
0163595590999992000031912004+22000+120770FM-12+002499999V0200301N006010075019N0150001N1+02121+01801101281ADDAA199000091GF105991051021008001001001MA1999999101001MD1110261+9999REMSYN066AAXX  19121 59559 32565 50306 10212 20180 30100 40128 51026 85200;EQDQ01  00002PRCP99
0163595590999992000031915004+22000+120770FM-12+002499999V0200401N020012200019N0150001N1+02131+01651101401ADDAA199000091GF103991031051012501001001MA1999999101121MD1110121+9999REMSYN066AAXX  19151 59559 32665 30420 10213 20165 30112 40140 51012 83500;EQDQ01  00002PRCP99
0163595590999992000031918004+22000+120770FM-12+002499999V0200301N008012200019N0150001N1+02171+01631101351ADDAA199000091GF102991021051012501001001MA1999999101071MD1810051+9999REMSYN066AAXX  19181 59559 32665 20308 10217 20163 30107 40135 58005 82500;EQDQ01  00002PRCP99
0163595590999992000031921004+22000+120770FM-12+002499999V0200401N007012200019N0150001N1+02081+01661101361ADDAA199000091GF102991021051012501001001MA1999999101081MD1310011+9999REMSYN066AAXX  19211 59559 32665 20407 10208 20166 30108 40136 53001 82500;EQDQ01  00002PRCP99
0163595590999992000032000004+22000+120770FM-12+002499999V0200301N018012200019N0180001N1+02181+01621101491ADDAA199000091GF102991021011008001001001MA1999999101211MD1310131+9999REMSYN066AAXX  20001 59559 32568 20318 10218 20162 30121 40149 53013 82100;EQDQ01  00002PRCP99
0163595590999992000032003004+22000+120770FM-12+002499999V0200501N006012200019N0200001N1+02461+01671101491ADDAA199000091GF102991021011008001001001MA1999999101211MD1410001+9999REMSYN066AAXX  20031 59559 32570 20506 10246 20167 30121 40149 54000 82100;EQDQ01  00002PRCP99
0163595590999992000032006004+22000+120770FM-12+002499999V0200401N007012200019N0120001N1+02461+01601101321ADDAA199000091GF104991041051008001001001MA1999999101041MD1810171+9999REMSYN066AAXX  20061 59559 32562 40407 10246 20160 30104 40132 58017 84500;EQDQ01  00002PRCP99
0163595590999992000032009004+22000+120770FM-12+002499999V0200401N006010075019N0100001N1+02161+01601101291ADDAA199000091GF108991081051008001999999MA1999999101011MD1510031+9999REMSYN066AAXX  20091 59559 32560 80406 10216 20160 30101 40129 55003 885//;EQDQ01  00002PRCP99
0163595590999992000032015004+22000+120770FM-12+002499999V0200501N007010075019N0120001N1+02101+01581101561ADDAA199000091GF106991061051008001001001MA1999999101281MD1010051+9999REMSYN066AAXX  20151 59559 32562 60507 10210 20158 30128 40156 50005 86500;EQDQ01  00002PRCP99
0163595590999992000032018004+22000+120770FM-12+002499999V0200401N004012200019N0150001N1+02041+01591101481ADDAA199000091GF103991031051008001001001MA1999999101201MD1810081+9999REMSYN066AAXX  20181 59559 32565 30404 10204 20159 30120 40148 58008 83500;EQDQ01  00002PRCP99
0163595590999992000032021004+22000+120770FM-12+002499999V0203201N002010075019N0150001N1+01951+01581101461ADDAA199000091GF105991051051008001001001MA1999999101181MD1510021+9999REMSYN066AAXX  20211 59559 32565 53202 10195 20158 30118 40146 55002 85500;EQDQ01  00002PRCP99
0163595590999992000032100004+22000+120770FM-12+002499999V0203601N005010075019N0150001N1+02231+01661101591ADDAA199000091GF106991061051008001001001MA1999999101311MD1110131+9999REMSYN066AAXX  21001 59559 32565 63605 10223 20166 30131 40159 51013 86500;EQDQ01  00002PRCP99
0163595590999992000032103004+22000+120770FM-12+002499999V0200601N004012200019N0150001N1+02611+01671101531ADDAA199000091GF105991031021008001001011MA1999999101251MD1810061+9999REMSYN066AAXX  21031 59559 32565 50604 10261 20167 30125 40153 58006 83201;EQDQ01  00002PRCP99
0163595590999992000032106004+22000+120770FM-12+002499999V0200501N003012200019N0200001N1+02661+01691101231ADDAA199000091GF102991021021008001001001MA1999999100951MD1810301+9999REMSYN066AAXX  21061 59559 32570 20503 10266 20169 30095 40123 58030 82200;EQDQ01  00002PRCP99
0163595590999992000032109004+22000+120770FM-12+002499999V0200901N004012200019N0150001N1+02351+01621101221ADDAA199000091GF104991041051008001001001MA1999999100941MD1510011+9999REMSYN066AAXX  21091 59559 32565 40904 10235 20162 30094 40122 55001 84500;EQDQ01  00002PRCP99
0163595590999992000032112004+22000+120770FM-12+002499999V0200501N003010075019N0100001N1+02291+01621101371ADDAA199000091GF105991051051008001001001MA1999999101091MD1310151+9999REMSYN066AAXX  21121 59559 32560 50503 10229 20162 30109 40137 53015 85500;EQDQ01  00002PRCP99
0163595590999992000032115004+22000+120770FM-12+002499999V0200601N002010075019N0200001N1+02171+01601101471ADDAA199000091GF106991061051008001001001MA1999999101191MD1110101+9999REMSYN066AAXX  21151 59559 32570 60602 10217 20160 30119 40147 51010 86500;EQDQ01  00002PRCP99
0163595590999992000032121004+22000+120770FM-12+002499999V0200501N001010075019N0100001N1+01981+01621101371ADDAA199000091GF106991061051008001001001MA1999999101091MD1310041+9999REMSYN066AAXX  21211 59559 32560 60501 10198 20162 30109 40137 53004 86500;EQDQ01  00002PRCP99
0163595590999992000032200004+22000+120770FM-12+002499999V0200501N001012200019N0200001N1+02381+01841101521ADDAA199000091GF102991021021008001001001MA1999999101241MD1210151+9999REMSYN066AAXX  22001 59559 32570 20501 10238 20184 30124 40152 52015 82200;EQDQ01  00002PRCP99
0163595590999992000032203004+22000+120770FM-12+002499999V0200701N003012200019N0200001N1+02781+01701101521ADDAA199000091GF102991021021008001001001MA1999999101241MD1410001+9999REMSYN066AAXX  22031 59559 32570 20703 10278 20170 30124 40152 54000 82200;EQDQ01  00002PRCP99
0173595590999992000032206004+22000+120770FM-12+002499999V0200701N008012200019N0200001N1+02891+01671101241ADDAA199000091GA1001+999999999GF100991001001999999001001MA1999999100961MD1710281+9999REMSYN060AAXX  22061 59559 32970 00708 10289 20167 30096 40124 57028;EQDQ01  00002PRCP99
0163595590999992000032209004+22000+120770FM-12+002499999V0203501N001012200019N0200001N1+02581+01821101291ADDAA199000091GF102991021051008001001001MA1999999101011MD1310051+9999REMSYN066AAXX  22091 59559 32570 23501 10258 20182 30101 40129 53005 82500;EQDQ01  00002PRCP99
0163595590999992000032212004+22000+120770FM-12+002499999V0209999C000012200019N0150001N1+02201+01771101471ADDAA199000091GF102991021051008001001001MA1999999101191MD1210181+9999REMSYN066AAXX  22121 59559 32565 20000 10220 20177 30119 40147 52018 82500;EQDQ01  00002PRCP99
0173595590999992000032215004+22000+120770FM-12+002499999V0200301N002012200019N0150001N1+02291+01761101501ADDAA199000091GA1001+999999999GF100991001001999999001001MA1999999101221MD1010031+9999REMSYN060AAXX  22151 59559 32965 00302 10229 20176 30122 40150 50003;EQDQ01  00002PRCP99
0173595590999992000032218004+22000+120770FM-12+002499999V0200101N002012200019N0150001N1+02191+01771101401ADDAA199000091GA1001+999999999GF100991001001999999001001MA1999999101121MD1810101+9999REMSYN060AAXX  22181 59559 32965 00102 10219 20177 30112 40140 58010;EQDQ01  00002PRCP99
0163595590999992000032221004+22000+120770FM-12+002499999V0200101N006010075019N0150001N1+02141+01791101461ADDAA199000091GF107991071051008001001001MA1999999101181MD1310061+9999REMSYN066AAXX  22211 59559 32565 70106 10214 20179 30118 40146 53006 87500;EQDQ01  00002PRCP99
0163595590999992000032300004+22000+120770FM-12+002499999V0209999C000010075019N0120001N1+02431+01831101601ADDAA199000091GF106991061051008001001001MA1999999101321MD1110141+9999REMSYN066AAXX  23001 59559 32562 60000 10243 20183 30132 40160 51014 86500;EQDQ01  00002PRCP99
0163595590999992000032303004+22000+120770FM-12+002499999V0201101N003010075019N0120001N1+02751+01861101551ADDAA199000091GF106991061051008001001001MA1999999101271MD1810051+9999REMSYN066AAXX  23031 59559 32562 61103 10275 20186 30127 40155 58005 86500;EQDQ01  00002PRCP99
0163595590999992000032306004+22000+120770FM-12+002499999V0200601N001010075019N0150001N1+02641+01921101331ADDAA199000091GF107991071041008001001001MA1999999101051MD1810221+9999REMSYN066AAXX  23061 59559 32565 70601 10264 20192 30105 40133 58022 87400;EQDQ01  00002PRCP99
0163595590999992000032309004+22000+120770FM-12+002499999V0201101N002010075019N0180001N1+02551+01831101351ADDAA199000091GF106991061051008001001001MA1999999101071MD1310021+9999REMSYN066AAXX  23091 59559 32568 61102 10255 20183 30107 40135 53002 86500;EQDQ01  00002PRCP99
0163595590999992000032315004+22000+120770FM-12+002499999V0200801N002010075019N0120001N1+02231+01941101581ADDAA199000091GF106991061041008001001001MA1999999101301MD1010051+9999REMSYN066AAXX  23151 59559 32562 60802 10223 20194 30130 40158 50005 86400;EQDQ01  00002PRCP99
0178595590999992000032318004+22000+120770FM-12+002499999V0200301N004010075019N0100001N1+02261+01991101541ADDAA106000591AY161061AY221061GF107991071051008001999999MA1999999101261MD1510041+9999MW1211REMSYN078AAXX  23181 59559 11560 70304 10226 20199 30126 40154 55004 69951 72162 875//;
0150595590999992000032321004+22000+120770FM-12+002499999V0200301N017012200019N0150001N1+02221+01781101461ADDAA100000591GF102991021021008001001001MA1999999101181MD1710081+9999REMSYN072AAXX  23211 59559 12565 20317 10222 20178 30118 40146 57008 6995/ 82200;
0150595590999992000032400004+22000+120770FM-12+002499999V0200301N024012200019N0180001N1+02251+01621101661ADDAA112000591GF102991021021008001001001MA1999999101381MD1110201+9999REMSYN072AAXX  24001 59559 12568 20324 10225 20162 30138 40166 51020 69952 82200;
0144595590999992000032403004+22000+120770FM-12+002499999V0200301N011012200019N0180001N1+02371+01591101861ADDAA199000021GF102991021021008001001001MA1999999101581MD1110201+9999REMSYN066AAXX  24031 59559 32568 20311 10237 20159 30158 40186 51020 82200;
0144595590999992000032406004+22000+120770FM-12+002499999V0200401N014012200019N0180001N1+02431+01551101651ADDAA199000021GF102991021011008001001001MA1999999101371MD1810211+9999REMSYN066AAXX  24061 59559 32568 20414 10243 20155 30137 40165 58021 82100;
0163595590999992000032409004+22000+120770FM-12+002499999V0200301N009012200019N0200001N1+02171+01471101611ADDAA199000091GF102991021011008001001001MA1999999101331MD1510041+9999REMSYN066AAXX  24091 59559 32570 20309 10217 20147 30133 40161 55004 82100;EQDQ01  00002PRCP99
0163595590999992000032412004+22000+120770FM-12+002499999V0200401N007012200019N0150001N1+02031+01491101821ADDAA199000091GF102991021051008001001001MA1999999101541MD1210211+9999REMSYN066AAXX  24121 59559 32565 20407 10203 20149 30154 40182 52021 82500;EQDQ01  00002PRCP99
0163595590999992000032415004+22000+120770FM-12+002499999V0200401N012012200019N0150001N1+01911+01551101961ADDAA199000091GF102991021021008001001001MA1999999101671MD1010131+9999REMSYN066AAXX  24151 59559 32565 20412 10191 20155 30167 40196 50013 82200;EQDQ01  00002PRCP99
0163595590999992000032418004+22000+120770FM-12+002499999V0200401N005010075019N0150001N1+01931+01541101921ADDAA199000091GF106991061051008001001001MA1999999101631MD1710041+9999REMSYN066AAXX  24181 59559 32565 60405 10193 20154 30163 40192 57004 86500;EQDQ01  00002PRCP99
0163595590999992000032421004+22000+120770FM-12+002499999V0200401N005010075019N0150001N1+01931+01541101951ADDAA199000091GF106991061051008001001001MA1999999101661MD1310031+9999REMSYN066AAXX  24211 59559 32565 60405 10193 20154 30166 40195 53003 86500;EQDQ01  00002PRCP99
0163595590999992000032500004+22000+120770FM-12+002499999V0200401N014012200019N0180001N1+01991+01521102121ADDAA199000091GF102991021021008001001001MA1999999101831MD1210171+9999REMSYN066AAXX  25001 59559 32568 20414 10199 20152 30183 40212 52017 82200;EQDQ01  00002PRCP99
0163595590999992000032503004+22000+120770FM-12+002499999V0200501N006012200019N0200001N1+02421+01591101961ADDAA199000091GF102991021011008001001001MA1999999101681MD1710151+9999REMSYN066AAXX  25031 59559 32570 20506 10242 20159 30168 40196 57015 82100;EQDQ01  00002PRCP99
0163595590999992000032506004+22000+120770FM-12+002499999V0200301N010010075019N0150001N1+02361+01561101751ADDAA199000091GF106991061051008001001001MA1999999101471MD1710211+9999REMSYN066AAXX  25061 59559 32565 60310 10236 20156 30147 40175 57021 86500;EQDQ01  00002PRCP99
0163595590999992000032509004+22000+120770FM-12+002499999V0200501N004010075019N0120001N1+02141+01531101731ADDAA199000091GF108991081051008001999999MA1999999101451MD1510021+9999REMSYN066AAXX  25091 59559 32562 80504 10214 20153 30145 40173 55002 885//;EQDQ01  00002PRCP99
0163595590999992000032512004+22000+120770FM-12+002499999V0200401N010010075019N0120001N1+02051+01551101951ADDAA199000091GF108991081061008001999999MA1999999101661MD1210211+9999REMSYN066AAXX  25121 59559 32562 80410 10205 20155 30166 40195 52021 886//;EQDQ01  00002PRCP99
0163595590999992000032515004+22000+120770FM-12+002499999V0200201N006010075019N0120001N1+01971+01591102071ADDAA199000091GF108991081061008001999999MA1999999101781MD1110121+9999REMSYN066AAXX  25151 59559 32562 80206 10197 20159 30178 40207 51012 886//;EQDQ01  00002PRCP99
0163595590999992000032518004+22000+120770FM-12+002499999V0200101N004010075019N0120001N1+01941+01571101971ADDAA199000091GF108991081051008001999999MA1999999101681MD1810101+9999REMSYN066AAXX  25181 59559 32562 80104 10194 20157 30168 40197 58010 885//;EQDQ01  00002PRCP99
0163595590999992000032521004+22000+120770FM-12+002499999V0200901N001010075019N0150001N1+01951+01511101901ADDAA199000091GF108991081051008001999999MA1999999101611MD1510071+9999REMSYN066AAXX  25211 59559 32565 80901 10195 20151 30161 40190 55007 885//;EQDQ01  00002PRCP99
0163595590999992000032600004+22000+120770FM-12+002499999V0203201N002012200019N0200001N1+02241+01601101991ADDAA199000091GF102991021051008001001001MA1999999101711MD1210101+9999REMSYN066AAXX  26001 59559 32570 23202 10224 20160 30171 40199 52010 82500;EQDQ01  00002PRCP99
0163595590999992000032603004+22000+120770FM-12+002499999V0200701N005010075019N0200001N1+02501+01671101931ADDAA199000091GF108991081051008001999999MA1999999101651MD1810061+9999REMSYN066AAXX  26031 59559 32570 80705 10250 20167 30165 40193 58006 885//;EQDQ01  00002PRCP99
0163595590999992000032606004+22000+120770FM-12+002499999V0200101N006010075019N0200001N1+02421+01651101651ADDAA199000091GF108991081051008001999999MA1999999101371MD1710281+9999REMSYN066AAXX  26061 59559 32570 80106 10242 20165 30137 40165 57028 885//;EQDQ01  00002PRCP99
0163595590999992000032609004+22000+120770FM-12+002499999V0200901N004010075019N0150001N1+02201+01611101601ADDAA199000091GF108991081051008001999999MA1999999101321MD1510051+9999REMSYN066AAXX  26091 59559 32565 80904 10220 20161 30132 40160 55005 885//;EQDQ01  00002PRCP99
0163595590999992000032612004+22000+120770FM-12+002499999V0201001N001010075019N0100001N1+02131+01701101751ADDAA199000091GF108991081051008001999999MA1999999101471MD1210151+9999REMSYN066AAXX  26121 59559 32560 81001 10213 20170 30147 40175 52015 885//;EQDQ01  00002PRCP99
0163595590999992000032615004+22000+120770FM-12+002499999V0203501N002010075019N0100001N1+02101+01671101751ADDAA199000091GF106991061051008001001001MA1999999101471MD1410001+9999REMSYN066AAXX  26151 59559 32560 63502 10210 20167 30147 40175 54000 86500;EQDQ01  00002PRCP99
0163595590999992000032618004+22000+120770FM-12+002499999V0200501N002010075019N0100001N1+02121+01681101561ADDAA199000091GF106991061051008001001001MA1999999101281MD1810191+9999REMSYN066AAXX  26181 59559 32560 60502 10212 20168 30128 40156 58019 86500;EQDQ01  00002PRCP99
0163595590999992000032621004+22000+120770FM-12+002499999V0209999C000010075019N0100001N1+01961+01681101501ADDAA199000091GF106991061051008001001001MA1999999101221MD1510061+9999REMSYN066AAXX  26211 59559 32560 60000 10196 20168 30122 40150 55006 86500;EQDQ01  00002PRCP99
0163595590999992000032700004+22000+120770FM-12+002499999V0200801N003012200019N0200001N1+02371+01801101581ADDAA199000091GF102991021021008001001001MA1999999101301MD1110081+9999REMSYN066AAXX  27001 59559 32570 20803 10237 20180 30130 40158 51008 82200;EQDQ01  00002PRCP99
0163595590999992000032703004+22000+120770FM-12+002499999V0200901N003012200019N0200001N1+02661+01851101561ADDAA199000091GF104991041051008001001001MA1999999101281MD1810021+9999REMSYN066AAXX  27031 59559 32570 40903 10266 20185 30128 40156 58002 84500;EQDQ01  00002PRCP99
0163595590999992000032706004+22000+120770FM-12+002499999V0201501N003010075019N0150001N1+02561+01871101291ADDAA199000091GF108991081051008001999999MA1999999101011MD1810271+9999REMSYN066AAXX  27061 59559 32565 81503 10256 20187 30101 40129 58027 885//;EQDQ01  00002PRCP99
0163595590999992000032709004+22000+120770FM-12+002499999V0203101N001010075019N0150001N1+02421+01881101261ADDAA199000091GF106991061051008001001001MA1999999100981MD1510031+9999REMSYN066AAXX  27091 59559 32565 63101 10242 20188 30098 40126 55003 86500;EQDQ01  00002PRCP99
0163595590999992000032712004+22000+120770FM-12+002499999V0203301N003010075019N0150001N1+02251+01841101421ADDAA199000091GF105991051051008001001001MA1999999101141MD1310161+9999REMSYN066AAXX  27121 59559 32565 53303 10225 20184 30114 40142 53016 85500;EQDQ01  00002PRCP99
0163595590999992000032715004+22000+120770FM-12+002499999V0209999C000012200019N0150001N1+02111+01801101451ADDAA199000091GF103991031051008001001001MA1999999101171MD1010031+9999REMSYN066AAXX  27151 59559 32565 30000 10211 20180 30117 40145 50003 83500;EQDQ01  00002PRCP99
0163595590999992000032718004+22000+120770FM-12+002499999V0209999C000012200019N0150001N1+01901+01721101291ADDAA199000091GF102991021051008001001001MA1999999101011MD1810161+9999REMSYN066AAXX  27181 59559 32565 20000 10190 20172 30101 40129 58016 82500;EQDQ01  00002PRCP99
0163595590999992000032721004+22000+120770FM-12+002499999V0203001N003012200019N0150001N1+02201+01821101231ADDAA199000091GF102991021051008001001001MA1999999100951MD1510061+9999REMSYN066AAXX  27211 59559 32565 23003 10220 20182 30095 40123 55006 82500;EQDQ01  00002PRCP99
0185595590999992000032800004+22000+120770FM-12+002499999V0203301N007012200019N0060001N1+02351+01801101421ADDAA199000091GA1001+999999999GF100991001001999999001001MA1999999101141MD1110191+9999MW1051REMSYN066AAXX  28001 59559 31956 03307 10235 20180 30114 40142 51019 70500;EQDQ01  00002PRCP99
0185595590999992000032803004+22000+120770FM-12+002499999V0202901N002012200019N0060001N1+02781+01821101401ADDAA199000091GA1001+999999999GF100991001001999999001001MA1999999101121MD1810021+9999MW1051REMSYN066AAXX  28031 59559 31956 02902 10278 20182 30112 40140 58002 70500;EQDQ01  00002PRCP99
0163595590999992000032806004+22000+120770FM-12+002499999V0203201N005012200019N0110001N1+02871+01761101171ADDAA199000091GF102991021011008001001001MA1999999100891MD1710231+9999REMSYN066AAXX  28061 59559 32561 23205 10287 20176 30089 40117 57023 82100;EQDQ01  00002PRCP99
0163595590999992000032809004+22000+120770FM-12+002499999V0203001N001012200019N0120001N1+02641+01831101211ADDAA199000091GF103991031021008001001001MA1999999100931MD1310041+9999REMSYN066AAXX  28091 59559 32562 33001 10264 20183 30093 40121 53004 83200;EQDQ01  00002PRCP99
0163595590999992000032812004+22000+120770FM-12+002499999V0200701N001012200019N0150001N1+02341+01891101441ADDAA199000091GF102991021011008001001001MA1999999101161MD1110231+9999REMSYN066AAXX  28121 59559 32565 20701 10234 20189 30116 40144 51023 82100;EQDQ01  00002PRCP99
0163595590999992000032815004+22000+120770FM-12+002499999V0203601N001012200019N0150001N1+02171+01891101551ADDAA199000091GF101991011051008001001001MA1999999101271MD1110111+9999REMSYN066AAXX  28151 59559 32565 13601 10217 20189 30127 40155 51011 81500;EQDQ01  00002PRCP99
0163595590999992000032818004+22000+120770FM-12+002499999V0209999C000012200019N0100001N1+02001+01831101461ADDAA199000091GF102991021051008001001001MA1999999101181MD1810091+9999REMSYN066AAXX  28181 59559 32560 20000 10200 20183 30118 40146 58009 82500;EQDQ01  00002PRCP99
0163595590999992000032821004+22000+120770FM-12+002499999V0203101N001012200019N0150001N1+02021+01821101561ADDAA199000091GF102991021051008001001001MA1999999101281MD1210101+9999REMSYN066AAXX  28211 59559 32565 23101 10202 20182 30128 40156 52010 82500;EQDQ01  00002PRCP99
0163595590999992000032900004+22000+120770FM-12+002499999V0200301N006012200019N0150001N1+02581+01671101791ADDAA199000091GF101991011011008001001001MA1999999101511MD1210231+9999REMSYN066AAXX  29001 59559 32565 10306 10258 20167 30151 40179 52023 81100;EQDQ01  00002PRCP99
0178595590999992000032903004+22000+120770FM-12+002499999V0200501N007010075019N0110001N1+02361+02061101861ADDAA100000591AY181031AY221031GF106991061051008001001001MA1999999101581MD1310071+9999MW1251REMSYN078AAXX  29031 59559 11561 60507 10236 20206 30158 40186 53007 6995/ 72582 86500;
0178595590999992000032906004+22000+120770FM-12+002499999V0200601N013012200019N0150001N1+02611+01871101651ADDAA106000591AY181061AY221061GF104991021011008001031001MA1999999101371MD1710211+9999MW1011REMSYN078AAXX  29061 59559 11565 40613 10261 20187 30137 40165 57021 69951 70182 82130;
0150595590999992000032909004+22000+120770FM-12+002499999V0200401N007012200019N0150001N1+02371+01781101631ADDAA100000591GF104991021011008001031001MA1999999101351MD1510021+9999REMSYN072AAXX  29091 59559 12565 40407 10237 20178 30135 40163 55002 6995/ 82130;
0150595590999992000032912004+22000+120770FM-12+002499999V0200501N007012200019N0120001N1+02131+01721101741ADDAA112000591GF102991021011008001001001MA1999999101461MD1110111+9999REMSYN072AAXX  29121 59559 12562 20507 10213 20172 30146 40174 51011 69952 82100;
0144595590999992000032915004+22000+120770FM-12+002499999V0200401N012012200019N0120001N1+02131+01671101741ADDAA199000021GF101991011011008001001001MA1999999101461MD1410001+9999REMSYN066AAXX  29151 59559 32562 10412 10213 20167 30146 40174 54000 81100;
0173595590999992000032918004+22000+120770FM-12+002499999V0200501N011012200019N0120001N1+02111+01631101561ADDAA199000091GA1001+999999999GF100991001001999999001001MA1999999101281MD1710181+9999REMSYN060AAXX  29181 59559 32962 00511 10211 20163 30128 40156 57018;EQDQ01  00002PRCP99
0173595590999992000032921004+22000+120770FM-12+002499999V0200201N002012200019N0150001N1+02081+01631101591ADDAA199000091GA1001+999999999GF100991001001999999001001MA1999999101311MD1310031+9999REMSYN060AAXX  29211 59559 32965 00202 10208 20163 30131 40159 53003;EQDQ01  00002PRCP99
0163595590999992000033000004+22000+120770FM-12+002499999V0200401N006012200019N0180001N1+02291+01701101711ADDAA199000091GF103991021011008001031001MA1999999101431MD1110121+9999REMSYN066AAXX  30001 59559 32568 30406 10229 20170 30143 40171 51012 82130;EQDQ01  00002PRCP99
0163595590999992000033003004+22000+120770FM-12+002499999V0200801N006010360019N0180001N1+02571+01811101631ADDAA199000091GF106991021011008001031011MA1999999101351MD1810081+9999REMSYN066AAXX  30031 59559 32568 60806 10257 20181 30135 40163 58008 82131;EQDQ01  00002PRCP99
0163595590999992000033006004+22000+120770FM-12+002499999V0200801N010010075019N0150001N1+02611+01741101331ADDAA199000091GF108991061051008001031001MA1999999101051MD1810301+9999REMSYN066AAXX  30061 59559 32565 80810 10261 20174 30105 40133 58030 86530;EQDQ01  00002PRCP99
0163595590999992000033009004+22000+120770FM-12+002499999V0200701N008010360019N0150001N1+02431+01731101261ADDAA199000091GF106991041051008001031011MA1999999100981MD1610071+9999REMSYN066AAXX  30091 59559 32565 60708 10243 20173 30098 40126 56007 84531;EQDQ01  00002PRCP99
0163595590999992000033012004+22000+120770FM-12+002499999V0200601N003010075019N0150001N1+02301+01761101361ADDAA199000091GF106991061051008001001001MA1999999101081MD1110101+9999REMSYN066AAXX  30121 59559 32565 60603 10230 20176 30108 40136 51010 86500;EQDQ01  00002PRCP99
0163595590999992000033015004+22000+120770FM-12+002499999V0200501N002010075019N0150001N1+02281+01781101371ADDAA199000091GF106991061051008001001001MA1999999101091MD1010011+9999REMSYN066AAXX  30151 59559 32565 60502 10228 20178 30109 40137 50001 86500;EQDQ01  00002PRCP99
0163595590999992000033018004+22000+120770FM-12+002499999V0200401N003010075019N0150001N1+02281+01811101181ADDAA199000091GF106991061051008001001001MA1999999100901MD1810191+9999REMSYN066AAXX  30181 59559 32565 60403 10228 20181 30090 40118 58019 86500;EQDQ01  00002PRCP99
0163595590999992000033021004+22000+120770FM-12+002499999V0200701N003010075019N0150001N1+02201+01851101101ADDAA199000091GF107991071051008001999999MA1999999100821MD1510081+9999REMSYN066AAXX  30211 59559 32565 70703 10220 20185 30082 40110 55008 875//;EQDQ01  00002PRCP99
0163595590999992000033100004+22000+120770FM-12+002499999V0200901N008012200019N0150001N1+02571+02011101171ADDAA199000091GF103991021011008001001011MA1999999100891MD1310071+9999REMSYN066AAXX  31001 59559 32565 30908 10257 20201 30089 40117 53007 82101;EQDQ01  00002PRCP99
0163595590999992000033103004+22000+120770FM-12+002499999V0200901N004010075019N0120001N1+02791+02111101201ADDAA199000091GF107991071051008001999999MA1999999100921MD1010031+9999REMSYN066AAXX  31031 59559 32562 70904 10279 20211 30092 40120 50003 875//;EQDQ01  00002PRCP99
0163595590999992000033106004+22000+120770FM-12+002499999V0200901N003010075019N0150001N1+02791+02181100961ADDAA199000091GF106991061051008001001001MA1999999100681MD1810241+9999REMSYN066AAXX  31061 59559 32565 60903 10279 20218 30068 40096 58024 86500;EQDQ01  00002PRCP99
0163595590999992000033109004+22000+120770FM-12+002499999V0200601N002010075019N0150001N1+02581+02151100881ADDAA199000091GF106991061051008001001001MA1999999100601MD1510081+9999REMSYN066AAXX  31091 59559 32565 60602 10258 20215 30060 40088 55008 86500;EQDQ01  00002PRCP99
0163595590999992000033112004+22000+120770FM-12+002499999V0200701N005010075019N0100001N1+02471+02181101001ADDAA199000091GF106991061051008001001001MA1999999100721MD1210121+9999REMSYN066AAXX  31121 59559 32560 60705 10247 20218 30072 40100 52012 86500;EQDQ01  00002PRCP99
0178595590999992000033115004+22000+120770FM-12+002499999V0200801N001010075019N0100001N1+02321+02131101121ADDAA100002091AY161031AY221031GF108991081051008001999999MA1999999100841MD1210121+9999MW1211REMSYN078AAXX  31151 59559 11560 80801 10232 20213 30084 40112 52012 6002/ 72162 885//;
0178595590999992000033118004+22000+120770FM-12+002499999V0200601N001010075019N0100001N1+02341+02001100931ADDAA106002091AY161061AY221061GF108991081071008001999999MA1999999100651MD1610191+9999MW1601REMSYN078AAXX  31181 59559 11560 80601 10234 20200 30065 40093 56019 60021 76062 887//;
0178595590999992000033121004+22000+120770FM-12+002499999V0202501N001010075019N0100001N1+02381+02021100901ADDAA100002091AY161031AY221031GF108991081051008001999999MA1999999100621MD1510031+9999MW1021REMSYN078AAXX  31211 59559 11560 82501 10238 20202 30062 40090 55003 6002/ 70262 885//;
0172595590999992000040100004+22000+120770FM-12+002499999V0209999C000010075019N0150001N1+02581+02021101031ADDAA199000021AY161061AY221061GF108991081051008001999999MA1999999100751MD1210131+9999MW1021REMSYN072AAXX  01001 59559 31565 80000 10258 20202 30075 40103 52013 70262 885//;
0144595590999992000040103004+22000+120770FM-12+002499999V0200901N005012200019N0250001N1+03051+02201100911ADDAA199000021GF102991021051017501001001MA1999999100641MD1810111+9999REMSYN066AAXX  01031 59559 32775 20905 10305 20220 30064 40091 58011 82500;
0144595590999992000040106004+22000+120770FM-12+002499999V0200901N006010075019N0200001N1+02811+02121100771ADDAA199000021GF105991051051008001001001MA1999999100501MD1710141+9999REMSYN066AAXX  01061 59559 32570 50906 10281 20212 30050 40077 57014 85500;
0163595590999992000040109004+22000+120770FM-12+002499999V0200901N003010075019N0150001N1+02691+02241100691ADDAA199000091GF106991061051008001001001MA1999999100411MD1510091+9999REMSYN066AAXX  01091 59559 32565 60903 10269 20224 30041 40069 55009 86500;EQDQ01  00002PRCP99
0163595590999992000040112004+22000+120770FM-12+002499999V0202401N003010075019N0150001N1+02611+02381100951ADDAA199000091GF107991071051008001001001MA1999999100671MD1210261+9999REMSYN066AAXX  01121 59559 32565 72403 10261 20238 30067 40095 52026 87500;EQDQ01  00002PRCP99
0163595590999992000040115004+22000+120770FM-12+002499999V0203301N003010075019N0150001N1+02461+01821100971ADDAA199000091GF106991061051008001001001MA1999999100691MD1010021+9999REMSYN066AAXX  01151 59559 32565 63303 10246 20182 30069 40097 50002 86500;EQDQ01  00002PRCP99
0163595590999992000040118004+22000+120770FM-12+002499999V0203201N005010075019N0150001N1+02471+01951100871ADDAA199000091GF105991051051008001001001MA1999999100591MD1510101+9999REMSYN066AAXX  01181 59559 32565 53205 10247 20195 30059 40087 55010 85500;EQDQ01  00002PRCP99
0173595590999992000040121004+22000+120770FM-12+002499999V0203401N004012200019N0150001N1+02351+02041100911ADDAA199000091GA1001+999999999GF100991001001999999001001MA1999999100631MD1310041+9999REMSYN060AAXX  01211 59559 32965 03404 10235 20204 30063 40091 53004;EQDQ01  00002PRCP99
0173595590999992000040200004+22000+120770FM-12+002499999V0203301N002012200019N0200001N1+02581+02041101101ADDAA199000091GA1001+999999999GF100991001001999999001001MA1999999100821MD1110191+9999REMSYN060AAXX  02001 59559 32970 03302 10258 20204 30082 40110 51019;EQDQ01  00002PRCP99
0173595590999992000040203004+22000+120770FM-12+002499999V0203301N003012200019N0250001N1+03061+01831101081ADDAA199000091GA1001+999999999GF100991001001999999001001MA1999999100811MD1810011+9999REMSYN060AAXX  02031 59559 32975 03303 10306 20183 30081 40108 58001;EQDQ01  00002PRCP99
0163595590999992000040206004+22000+120770FM-12+002499999V0203101N004012200019N0200001N1+03041+02181100891ADDAA199000091GF102991021011008001001001MA1999999100621MD1710191+9999REMSYN066AAXX  02061 59559 32570 23104 10304 20218 30062 40089 57019 82100;EQDQ01  00002PRCP99
0163595590999992000040209004+22000+120770FM-12+002499999V0202901N001012200019N0200001N1+02791+02121100841ADDAA199000091GF104991041051008001001001MA1999999100571MD1610051+9999REMSYN066AAXX  02091 59559 32570 42901 10279 20212 30057 40084 56005 84500;EQDQ01  00002PRCP99
0163595590999992000040212004+22000+120770FM-12+002499999V0200801N001012200019N0150001N1+02571+02181101041ADDAA199000091GF102991021051008001001001MA1999999100761MD1110191+9999REMSYN066AAXX  02121 59559 32565 20801 10257 20218 30076 40104 51019 82500;EQDQ01  00002PRCP99
0163595590999992000040215004+22000+120770FM-12+002499999V0200701N003012200019N0150001N1+02501+02201101181ADDAA199000091GF101991011011008001001001MA1999999100901MD1010141+9999REMSYN066AAXX  02151 59559 32565 10703 10250 20220 30090 40118 50014 81100;EQDQ01  00002PRCP99
0163595590999992000040218004+22000+120770FM-12+002499999V0200601N004012200019N0150001N1+02481+02181101031ADDAA199000091GF102991021051008001001001MA1999999100751MD1810151+9999REMSYN066AAXX  02181 59559 32565 20604 10248 20218 30075 40103 58015 82500;EQDQ01  00002PRCP99
0163595590999992000040221004+22000+120770FM-12+002499999V0203601N001012200019N0150001N1+02431+02111101021ADDAA199000091GF102991021051008001001001MA1999999100741MD1510011+9999REMSYN066AAXX  02211 59559 32565 23601 10243 20211 30074 40102 55001 82500;EQDQ01  00002PRCP99
0163595590999992000040300004+22000+120770FM-12+002499999V0200101N002010075019N0200001N1+02671+02121101251ADDAA199000091GF106991061051008001001001MA1999999100971MD1110231+9999REMSYN066AAXX  03001 59559 32570 60102 10267 20212 30097 40125 51023 86500;EQDQ01  00002PRCP99
0163595590999992000040303004+22000+120770FM-12+002499999V0201101N003010120019N0250001N1+03091+02181101141ADDAA199000091GF106991061051012501001001MA1999999100871MD1710101+9999REMSYN066AAXX  03031 59559 32675 61103 10309 20218 30087 40114 57010 86500;EQDQ01  00002PRCP99
0163595590999992000040306004+22000+120770FM-12+002499999V0201201N004012200019N0250001N1+03161+02271100881ADDAA199000091GF102991021011008001001001MA1999999100611MD1810261+9999REMSYN066AAXX  03061 59559 32575 21204 10316 20227 30061 40088 58026 82100;EQDQ01  00002PRCP99
0163595590999992000040309004+22000+120770FM-12+002499999V0201001N007012200019N0250001N1+02721+02091100881ADDAA199000091GF103991031051012501001001MA1999999100601MD1510011+9999REMSYN066AAXX  03091 59559 32675 31007 10272 20209 30060 40088 55001 83500;EQDQ01  00002PRCP99
0163595590999992000040312004+22000+120770FM-12+002499999V0200901N008012200019N0150001N1+02541+02141100971ADDAA199000091GF103991031051012501001001MA1999999100691MD1010091+9999REMSYN066AAXX  03121 59559 32665 30908 10254 20214 30069 40097 50009 83500;EQDQ01  00002PRCP99
0173595590999992000040315004+22000+120770FM-12+002499999V0200601N001012200019N0150001N1+02471+02121101031ADDAA199000091GA1001+999999999GF100991001001999999001001MA1999999100751MD1110061+9999REMSYN060AAXX  03151 59559 32965 00601 10247 20212 30075 40103 51006;EQDQ01  00002PRCP99
0163595590999992000040318004+22000+120770FM-12+002499999V0203601N001012200019N0150001N1+02361+02171100891ADDAA199000091GF104991041051008001001001MA1999999100611MD1810141+9999REMSYN066AAXX  03181 59559 32565 43601 10236 20217 30061 40089 58014 84500;EQDQ01  00002PRCP99
0163595590999992000040321004+22000+120770FM-12+002499999V0203301N001010075019N0150001N1+02351+02171100861ADDAA199000091GF105991051051008001001001MA1999999100581MD1510031+9999REMSYN066AAXX  03211 59559 32565 53301 10235 20217 30058 40086 55003 85500;EQDQ01  00002PRCP99
0178595590999992000040400004+22000+120770FM-12+002499999V0203301N007010075019N0100001N1+02261+02181101131ADDAA112008991AY161061AY221061GF108991081071008001999999MA1999999100851MD1210271+9999MW1631REMSYN078AAXX  04001 59559 11560 83307 10226 20218 30085 40113 52027 60092 76362 887//;
0178595590999992000040403004+22000+120770FM-12+002499999V0202501N002010360019N0250001N1+02931+02141100921ADDAA100000591AY161031AY221031GF106991041051012501031001MA1999999100651MD1810201+9999MW1011REMSYN078AAXX  04031 59559 11675 62502 10293 20214 30065 40092 58020 6995/ 70162 84530;
0178595590999992000040406004+22000+120770FM-12+002499999V0203001N006012200019N0200001N1+02971+02041100731ADDAA106000591AY161061AY221061GF101991011051008001001001MA1999999100461MD1810191+9999MW1011REMSYN078AAXX  04061 59559 11570 13006 10297 20204 30046 40073 58019 69951 70162 81500;
0150595590999992000040409004+22000+120770FM-12+002499999V0203301N003012200019N0200001N1+02761+02171100681ADDAA100000591GF102991021011008001001001MA1999999100411MD1510051+9999REMSYN072AAXX  04091 59559 12570 23303 10276 20217 30041 40068 55005 6995/ 82100;
0150595590999992000040412004+22000+120770FM-12+002499999V0203401N002012200019N0200001N1+02491+02231100901ADDAA112000591GF102991021011008001001001MA1999999100621MD1110211+9999REMSYN072AAXX  04121 59559 12570 23402 10249 20223 30062 40090 51021 69952 82100;
0163595590999992000040415004+22000+120770FM-12+002499999V0200301N001012200019N0200001N1+02411+02171101041ADDAA199000091GF102991021011008001001001MA1999999100761MD1110141+9999REMSYN066AAXX  04151 59559 32570 20301 10241 20217 30076 40104 51014 82100;EQDQ01  00002PRCP99
0163595590999992000040418004+22000+120770FM-12+002499999V0209999C000012200019N0200001N1+02411+02131100981ADDAA199000091GF102991021011008001001001MA1999999100701MD1810061+9999REMSYN066AAXX  04181 59559 32570 20000 10241 20213 30070 40098 58006 82100;EQDQ01  00002PRCP99
0163595590999992000040421004+22000+120770FM-12+002499999V0203501N001010075019N0200001N1+02411+02131100981ADDAA199000091GF106991061051008001001001MA1999999100701MD1410001+9999REMSYN066AAXX  04211 59559 32570 63501 10241 20213 30070 40098 54000 86500;EQDQ01  00002PRCP99
0163595590999992000040500004+22000+120770FM-12+002499999V0202701N001010075019N0150001N1+02701+02241101141ADDAA199000091GF106991061051008001001001MA1999999100861MD1310161+9999REMSYN066AAXX  05001 59559 32565 62701 10270 20224 30086 40114 53016 86500;EQDQ01  00002PRCP99
0163595590999992000040503004+22000+120770FM-12+002499999V0201001N001010075019N0150001N1+02771+02211101191ADDAA199000091GF108991081051008001999999MA1999999100911MD1210051+9999REMSYN066AAXX  05031 59559 32565 81001 10277 20221 30091 40119 52005 885//;EQDQ01  00002PRCP99
0163595590999992000040506004+22000+120770FM-12+002499999V0200201N004012200019N0200001N1+02931+02181100961ADDAA199000091GF104991041021008001001001MA1999999100691MD1810221+9999REMSYN066AAXX  05061 59559 32570 40204 10293 20218 30069 40096 58022 84200;EQDQ01  00002PRCP99
0163595590999992000040509004+22000+120770FM-12+002499999V0200501N004010075019N0150001N1+02361+01931101031ADDAA199000091GF106991061051008001001001MA1999999100751MD1310061+9999REMSYN066AAXX  05091 59559 32565 60504 10236 20193 30075 40103 53006 86500;EQDQ01  00002PRCP99
0163595590999992000040515004+22000+120770FM-12+002499999V0200401N010010075019N0100001N1+02251+01781101421ADDAA199000091GF108991081051008001999999MA1999999101141MD1110201+9999REMSYN066AAXX  05151 59559 32560 80410 10225 20178 30114 40142 51020 885//;EQDQ01  00002PRCP99
0163595590999992000040518004+22000+120770FM-12+002499999V0200301N022010075019N0100001N1+02191+01681101271ADDAA199000091GF108991081051008001999999MA1999999100991MD1710151+9999REMSYN066AAXX  05181 59559 32560 80322 10219 20168 30099 40127 57015 885//;EQDQ01  00002PRCP99
0163595590999992000040521004+22000+120770FM-12+002499999V0200401N008010075019N0100001N1+02231+01621101281ADDAA199000091GF105991051051008001001001MA1999999101001MD1010011+9999REMSYN066AAXX  05211 59559 32560 50408 10223 20162 30100 40128 50001 85500;EQDQ01  00002PRCP99
0163595590999992000040600004+22000+120770FM-12+002499999V0200401N010010075019N0100001N1+02301+01721101521ADDAA199000091GF106991061051008001001001MA1999999101241MD1210241+9999REMSYN066AAXX  06001 59559 32560 60410 10230 20172 30124 40152 52024 86500;EQDQ01  00002PRCP99
0163595590999992000040603004+22000+120770FM-12+002499999V0200401N006012200019N0250001N1+02621+01821101531ADDAA199000091GF101991011051008001001001MA1999999101251MD1010011+9999REMSYN066AAXX  06031 59559 32575 10406 10262 20182 30125 40153 50001 81500;EQDQ01  00002PRCP99
0163595590999992000040606004+22000+120770FM-12+002499999V0200301N006012200019N0200001N1+02691+01811101341ADDAA199000091GF102991021021008001001001MA1999999101061MD1710191+9999REMSYN066AAXX  06061 59559 32570 20306 10269 20181 30106 40134 57019 82200;EQDQ01  00002PRCP99
0163595590999992000040609004+22000+120770FM-12+002499999V0200201N006012200019N0150001N1+02421+01791101351ADDAA199000091GF104991041051008001001001MA1999999101071MD1010011+9999REMSYN066AAXX  06091 59559 32565 40206 10242 20179 30107 40135 50001 84500;EQDQ01  00002PRCP99
0163595590999992000040612004+22000+120770FM-12+002499999V0200601N008010075019N0150001N1+02281+01891101521ADDAA199000091GF105991051051008001001001MA1999999101241MD1210171+9999REMSYN066AAXX  06121 59559 32565 50608 10228 20189 30124 40152 52017 85500;EQDQ01  00002PRCP99
0163595590999992000040615004+22000+120770FM-12+002499999V0200301N004010075019N0150001N1+02241+01851101681ADDAA199000091GF106991061051008001001001MA1999999101401MD1110161+9999REMSYN066AAXX  06151 59559 32565 60304 10224 20185 30140 40168 51016 86500;EQDQ01  00002PRCP99
0163595590999992000040618004+22000+120770FM-12+002499999V0203601N005012200019N0150001N1+02221+01871101591ADDAA199000091GF102991021051008001001001MA1999999101311MD1810091+9999REMSYN066AAXX  06181 59559 32565 23605 10222 20187 30131 40159 58009 82500;EQDQ01  00002PRCP99
0173595590999992000040621004+22000+120770FM-12+002499999V0200401N003012200019N0150001N1+02331+01821101411ADDAA199000091GA1001+999999999GF100991001001999999001001MA1999999101131MD1710181+9999REMSYN060AAXX  06211 59559 32965 00403 10233 20182 30113 40141 57018;EQDQ01  00002PRCP99
0173595590999992000040700004+22000+120770FM-12+002499999V0200501N004012200019N0200001N1+02671+01941101561ADDAA199000091GA1001+999999999GF100991001001999999001001MA1999999101281MD1210151+9999REMSYN060AAXX  07001 59559 32970 00504 10267 20194 30128 40156 52015;EQDQ01  00002PRCP99
0163595590999992000040703004+22000+120770FM-12+002499999V0200501N004010075019N0200001N1+02851+02001101641ADDAA199000091GF105991051051008001001001MA1999999101361MD1010081+9999REMSYN066AAXX  07031 59559 32570 50504 10285 20200 30136 40164 50008 85500;EQDQ01  00002PRCP99
0163595590999992000040706004+22000+120770FM-12+002499999V0200701N009010075019N0250001N1+02791+02031101431ADDAA199000091GF105991051021008001001001MA1999999101151MD1810211+9999REMSYN066AAXX  07061 59559 32575 50709 10279 20203 30115 40143 58021 85200;EQDQ01  00002PRCP99
0163595590999992000040709004+22000+120770FM-12+002499999V0200401N002010075019N0200001N1+02631+02031101381ADDAA199000091GF105991051021008001001001MA1999999101101MD1510051+9999REMSYN066AAXX  07091 59559 32570 50402 10263 20203 30110 40138 55005 85200;EQDQ01  00002PRCP99
0163595590999992000040712004+22000+120770FM-12+002499999V0200401N003012200019N0150001N1+02481+02051101511ADDAA199000091GF103991021051008001031001MA1999999101231MD1210131+9999REMSYN066AAXX  07121 59559 32565 30403 10248 20205 30123 40151 52013 82530;EQDQ01  00002PRCP99
0163595590999992000040715004+22000+120770FM-12+002499999V0200401N007012200019N0150001N1+02471+01991101581ADDAA199000091GF102991021051008001001001MA1999999101301MD1010071+9999REMSYN066AAXX  07151 59559 32565 20407 10247 20199 30130 40158 50007 82500;EQDQ01  00002PRCP99
0163595590999992000040718004+22000+120770FM-12+002499999V0200101N002012200019N0150001N1+02361+02001101421ADDAA199000091GF102991021051008001001001MA1999999101141MD1710161+9999REMSYN066AAXX  07181 59559 32565 20102 10236 20200 30114 40142 57016 82500;EQDQ01  00002PRCP99
0163595590999992000040721004+22000+120770FM-12+002499999V0200301N003012200019N0150001N1+02391+01971101391ADDAA199000091GF103991031051008001001001MA1999999101111MD1510031+9999REMSYN066AAXX  07211 59559 32565 30303 10239 20197 30111 40139 55003 83500;EQDQ01  00002PRCP99
0163595590999992000040800004+22000+120770FM-12+002499999V0200701N007012200019N0200001N1+02711+02081101551ADDAA199000091GF103991031021008001001001MA1999999101271MD1110161+9999REMSYN066AAXX  08001 59559 32570 30707 10271 20208 30127 40155 51016 83200;EQDQ01  00002PRCP99
0163595590999992000040803004+22000+120770FM-12+002499999V0200601N007012200019N0250001N1+02801+02181101511ADDAA199000091GF104991041051008001001001MA1999999101231MD1810041+9999REMSYN066AAXX  08031 59559 32575 40607 10280 20218 30123 40151 58004 84500;EQDQ01  00002PRCP99
0163595590999992000040806004+22000+120770FM-12+002499999V0200701N013010075019N0200001N1+02761+02121101311ADDAA199000091GF106991061051008001001001MA1999999101031MD1710201+9999REMSYN066AAXX  08061 59559 32570 60713 10276 20212 30103 40131 57020 86500;EQDQ01  00002PRCP99
0163595590999992000040809004+22000+120770FM-12+002499999V0200601N007012200019N0200001N1+02581+02031101181ADDAA199000091GF104991031041008001001011MA1999999100901MD1510131+9999REMSYN066AAXX  08091 59559 32570 40607 10258 20203 30090 40118 55013 83401;EQDQ01  00002PRCP99
0163595590999992000040812004+22000+120770FM-12+002499999V0200501N011012200019N0150001N1+02491+02011101291ADDAA199000091GF101991011011008001001001MA1999999101011MD1110111+9999REMSYN066AAXX  08121 59559 32565 10511 10249 20201 30101 40129 51011 81100;EQDQ01  00002PRCP99
0163595590999992000040815004+22000+120770FM-12+002499999V0200901N008012200019N0150001N1+02451+02081101391ADDAA199000091GF102991021051008001001001MA1999999101111MD1010101+9999REMSYN066AAXX  08151 59559 32565 20908 10245 20208 30111 40139 50010 82500;EQDQ01  00002PRCP99
0163595590999992000040818004+22000+120770FM-12+002499999V0200701N008012200019N0150001N1+02451+02071101251ADDAA199000091GF102991021051008001001001MA1999999100971MD1710141+9999REMSYN066AAXX  08181 59559 32565 20708 10245 20207 30097 40125 57014 82500;EQDQ01  00002PRCP99
0163595590999992000040821004+22000+120770FM-12+002499999V0202001N001012200019N0150001N1+02391+02041101261ADDAA199000091GF103991031051008001001001MA1999999100981MD1310011+9999REMSYN066AAXX  08211 59559 32565 32001 10239 20204 30098 40126 53001 83500;EQDQ01  00002PRCP99
0163595590999992000040900004+22000+120770FM-12+002499999V0200801N004012200019N0250001N1+02771+02191101311ADDAA199000091GF102991021011008001001001MA1999999101031MD1010051+9999REMSYN066AAXX  09001 59559 32575 20804 10277 20219 30103 40131 50005 82100;EQDQ01  00002PRCP99
0163595590999992000040903004+22000+120770FM-12+002499999V0200801N006010075019N0200001N1+02791+02141101361ADDAA199000091GF108991081051008001999999MA1999999101081MD1010051+9999REMSYN066AAXX  09031 59559 32570 80806 10279 20214 30108 40136 50005 885//;EQDQ01  00002PRCP99
0178595590999992000040906004+22000+120770FM-12+002499999V0200901N004010075019N0250001N1+02901+02341101131ADDAA106002091AY161061AY221061GF106991061051008001001001MA1999999100861MD1810221+9999MW1021REMSYN078AAXX  09061 59559 11575 60904 10290 20234 30086 40113 58022 60021 70262 86500;
0150595590999992000040909004+22000+120770FM-12+002499999V0201501N004012200019N0250001N1+02901+02261101041ADDAA100002091GF101991011021008001001001MA1999999100771MD1510091+9999REMSYN072AAXX  09091 59559 12575 11504 10290 20226 30077 40104 55009 6002/ 81200;
0160595590999992000040912004+22000+120770FM-12+002499999V0201301N001012200019N0150001N1+02511+02231101191ADDAA112002091GA1001+999999999GF100991001001999999001001MA1999999100911MD1210141+9999REMSYN066AAXX  09121 59559 12965 01301 10251 20223 30091 40119 52014 60022;
0163595590999992000040915004+22000+120770FM-12+002499999V0203201N001012200019N0150001N1+02471+02211101291ADDAA199000091GF102991021051008001001001MA1999999101011MD1010101+9999REMSYN066AAXX  09151 59559 32565 23201 10247 20221 30101 40129 50010 82500;EQDQ01  00002PRCP99
0173595590999992000040918004+22000+120770FM-12+002499999V0209999C000012200019N0150001N1+02301+02171101151ADDAA199000091GA1001+999999999GF100991001001999999001001MA1999999100871MD1810141+9999REMSYN060AAXX  09181 59559 32965 00000 10230 20217 30087 40115 58014;EQDQ01  00002PRCP99
0163595590999992000040921004+22000+120770FM-12+002499999V0209999C000010120019N0150001N1+02271+02191101141ADDAA199000091GF108991081051012501999999MA1999999100861MD1510011+9999REMSYN066AAXX  09211 59559 32665 80000 10227 20219 30086 40114 55001 885//;EQDQ01  00002PRCP99
0163595590999992000041000004+22000+120770FM-12+002499999V0203401N005012200019N0100001N1+02681+02291101321ADDAA199000091GF104991041051012501001001MA1999999101041MD1210181+9999REMSYN066AAXX  10001 59559 32660 43405 10268 20229 30104 40132 52018 84500;EQDQ01  00002PRCP99
0163595590999992000041003004+22000+120770FM-12+002499999V0203301N004012200019N0100001N1+03001+02261101341ADDAA199000091GF101991011021008001001001MA1999999101071MD1010031+9999REMSYN066AAXX  10031 59559 32560 13304 10300 20226 30107 40134 50003 81200;EQDQ01  00002PRCP99
0163595590999992000041006004+22000+120770FM-12+002499999V0203601N004012200019N0200001N1+03131+02331101171ADDAA199000091GF104991041021008001001001MA1999999100901MD1810171+9999REMSYN066AAXX  10061 59559 32570 43604 10313 20233 30090 40117 58017 84200;EQDQ01  00002PRCP99
0163595590999992000041009004+22000+120770FM-12+002499999V0200301N012012200019N0150001N1+02531+02051101191ADDAA199000091GF104991041021008001001001MA1999999100911MD1010011+9999REMSYN066AAXX  10091 59559 32565 40312 10253 20205 30091 40119 50001 84200;EQDQ01  00002PRCP99
0163595590999992000041012004+22000+120770FM-12+002499999V0200401N019012200019N0100001N1+02381+01851101371ADDAA199000091GF104991041081008001021071MA1999999101091MD1110181+9999REMSYN066AAXX  10121 59559 32560 40419 10238 20185 30109 40137 51018 84827;EQDQ01  00002PRCP99
0163595590999992000041015004+22000+120770FM-12+002499999V0200301N013010075019N0100001N1+02261+01721101481ADDAA199000091GF105991051051008001001001MA1999999101201MD1010111+9999REMSYN066AAXX  10151 59559 32560 50313 10226 20172 30120 40148 50011 85500;EQDQ01  00002PRCP99
0163595590999992000041018004+22000+120770FM-12+002499999V0200401N009012200019N0100001N1+02141+01631101431ADDAA199000091GF104991041021008001001001MA1999999101151MD1810051+9999REMSYN066AAXX  10181 59559 32560 40409 10214 20163 30115 40143 58005 84200;EQDQ01  00002PRCP99
0163595590999992000041021004+22000+120770FM-12+002499999V0200301N016010075019N0100001N1+02131+01521101471ADDAA199000091GF105991051051008001001001MA1999999101191MD1310041+9999REMSYN066AAXX  10211 59559 32560 50316 10213 20152 30119 40147 53004 85500;EQDQ01  00002PRCP99
0163595590999992000041100004+22000+120770FM-12+002499999V0200401N012010075019N0150001N1+02251+01621101651ADDAA199000091GF108991081051008001999999MA1999999101371MD1110181+9999REMSYN066AAXX  11001 59559 32565 80412 10225 20162 30137 40165 51018 885//;EQDQ01  00002PRCP99
0191595590999992000041103004+22000+120770FM-12+002499999V0200401N006010075019N0200001N1+02531+01711101561ADDAA199000091AY111031AY221031GF106991061051008001001001MA1999999101281MD1810091+9999MW1041REMSYN072AAXX  11031 59559 31570 60406 10253 20171 30128 40156 58009 70412 86500;EQDQ01  00002PRCP99
0163595590999992000041106004+22000+120770FM-12+002499999V0200401N006012200019N0150001N1+02491+01711101371ADDAA199000091GF102991021011008001001001MA1999999101091MD1710191+9999REMSYN066AAXX  11061 59559 32565 20406 10249 20171 30109 40137 57019 82100;EQDQ01  00002PRCP99
0163595590999992000041109004+22000+120770FM-12+002499999V0200401N004010075019N0150001N1+02261+01651101391ADDAA199000091GF108991081051008001999999MA1999999101111MD1310021+9999REMSYN066AAXX  11091 59559 32565 80404 10226 20165 30111 40139 53002 885//;EQDQ01  00002PRCP99
0163595590999992000041112004+22000+120770FM-12+002499999V0200201N003010075019N0150001N1+02201+01701101481ADDAA199000091GF108991081051008001999999MA1999999101201MD1210091+9999REMSYN066AAXX  11121 59559 32565 80203 10220 20170 30120 40148 52009 885//;EQDQ01  00002PRCP99
0163595590999992000041115004+22000+120770FM-12+002499999V0203601N002010075019N0150001N1+02191+01691101461ADDAA199000091GF108991081051008001999999MA1999999101181MD1810021+9999REMSYN066AAXX  11151 59559 32565 83602 10219 20169 30118 40146 58002 885//;EQDQ01  00002PRCP99
0163595590999992000041118004+22000+120770FM-12+002499999V0200101N001010075019N0150001N1+02181+01721101291ADDAA199000091GF108991081051008001999999MA1999999101011MD1810171+9999REMSYN066AAXX  11181 59559 32565 80101 10218 20172 30101 40129 58017 885//;EQDQ01  00002PRCP99
0163595590999992000041121004+22000+120770FM-12+002499999V0200601N001010075019N0150001N1+02071+01811101271ADDAA199000091GF108991081051008001999999MA1999999100991MD1510021+9999REMSYN066AAXX  11211 59559 32565 80601 10207 20181 30099 40127 55002 885//;EQDQ01  00002PRCP99
0185595590999992000041200004+22000+120770FM-12+002499999V0201801N002012200019N0060001N1+02411+01981101361ADDAA199000091GA1001+999999999GF100991001001999999001001MA1999999101081MD1110091+9999MW1101REMSYN066AAXX  12001 59559 31956 01802 10241 20198 30108 40136 51009 71000;EQDQ01  00002PRCP99
0191595590999992000041203004+22000+120770FM-12+002499999V0203101N002010075019N0080001N1+02751+01991101231ADDAA199000091AY121031AY221031GF105991051051008001001001MA1999999100951MD1810131+9999MW1051REMSYN072AAXX  12031 59559 31558 53102 10275 20199 30095 40123 58013 70522 85500;EQDQ01  00002PRCP99
0163595590999992000041206004+22000+120770FM-12+002499999V0202801N006012200019N0120001N1+02831+02021100991ADDAA199000091GF102991021021008001001001MA1999999100711MD1710241+9999REMSYN066AAXX  12061 59559 32562 22806 10283 20202 30071 40099 57024 82200;EQDQ01  00002PRCP99
0163595590999992000041209004+22000+120770FM-12+002499999V0203001N003012200019N0150001N1+02551+02031100881ADDAA199000091GF103991031021008001001001MA1999999100601MD1510111+9999REMSYN066AAXX  12091 59559 32565 33003 10255 20203 30060 40088 55011 83200;EQDQ01  00002PRCP99
0163595590999992000041212004+22000+120770FM-12+002499999V0202901N001012200019N0150001N1+02421+02051101031ADDAA199000091GF102991021041008001001001MA1999999100751MD1210151+9999REMSYN066AAXX  12121 59559 32565 22901 10242 20205 30075 40103 52015 82400;EQDQ01  00002PRCP99
0163595590999992000041215004+22000+120770FM-12+002499999V0203401N002012200019N0120001N1+02361+01921101051ADDAA199000091GF103991031051008001001001MA1999999100771MD1010021+9999REMSYN066AAXX  12151 59559 32562 33402 10236 20192 30077 40105 50002 83500;EQDQ01  00002PRCP99
0163595590999992000041218004+22000+120770FM-12+002499999V0203001N001012200019N0120001N1+02231+01841100911ADDAA199000091GF103991031051008001001001MA1999999100631MD1810141+9999REMSYN066AAXX  12181 59559 32562 33001 10223 20184 30063 40091 58014 83500;EQDQ01  00002PRCP99
0163595590999992000041221004+22000+120770FM-12+002499999V0202701N001010075019N0150001N1+02111+01861100981ADDAA199000091GF106991061051008001001001MA1999999100701MD1310071+9999REMSYN066AAXX  12211 59559 32565 62701 10211 20186 30070 40098 53007 86500;EQDQ01  00002PRCP99
0163595590999992000041300004+22000+120770FM-12+002499999V0209999C000010075019N0150001N1+02451+02001101111ADDAA199000091GF106991061051008001001001MA1999999100831MD1210131+9999REMSYN066AAXX  13001 59559 32565 60000 10245 20200 30083 40111 52013 86500;EQDQ01  00002PRCP99
0163595590999992000041303004+22000+120770FM-12+002499999V0203401N004012200019N0120001N1+02901+02081101091ADDAA199000091GF104991041051008001001001MA1999999100821MD1810011+9999REMSYN066AAXX  13031 59559 32562 43404 10290 20208 30082 40109 58001 84500;EQDQ01  00002PRCP99
0163595590999992000041306004+22000+120770FM-12+002499999V0203401N003012200019N0110001N1+02981+02121100801ADDAA199000091GF103991031051008001001001MA1999999100531MD1710291+9999REMSYN066AAXX  13061 59559 32561 33403 10298 20212 30053 40080 57029 83500;EQDQ01  00002PRCP99
0163595590999992000041309004+22000+120770FM-12+002499999V0203101N001010075019N0150001N1+02641+02111100831ADDAA199000091GF105991051051008001001001MA1999999100551MD1310021+9999REMSYN066AAXX  13091 59559 32565 53101 10264 20211 30055 40083 53002 85500;EQDQ01  00002PRCP99
0163595590999992000041312004+22000+120770FM-12+002499999V0200101N001010075019N0120001N1+02451+02101101011ADDAA199000091GF105991051051008001001001MA1999999100731MD1210181+9999REMSYN066AAXX  13121 59559 32562 50101 10245 20210 30073 40101 52018 85500;EQDQ01  00002PRCP99
0163595590999992000041315004+22000+120770FM-12+002499999V0209999C000012200019N0150001N1+02261+02051101051ADDAA199000091GF101991011051008001001001MA1999999100771MD1010041+9999REMSYN066AAXX  13151 59559 32565 10000 10226 20205 30077 40105 50004 81500;EQDQ01  00002PRCP99
0163595590999992000041318004+22000+120770FM-12+002499999V0200401N001010075019N0120001N1+02211+02051100911ADDAA199000091GF106991061051008001001001MA1999999100631MD1710141+9999REMSYN066AAXX  13181 59559 32562 60401 10221 20205 30063 40091 57014 86500;EQDQ01  00002PRCP99
0163595590999992000041321004+22000+120770FM-12+002499999V0209999C000012200019N0150001N1+02161+02031100831ADDAA199000091GF101991011051008001001001MA1999999100551MD1710081+9999REMSYN066AAXX  13211 59559 32565 10000 10216 20203 30055 40083 57008 81500;EQDQ01  00002PRCP99
0163595590999992000041400004+22000+120770FM-12+002499999V0203201N001012200019N0100001N1+02631+02251100921ADDAA199000091GF103991031051008001001001MA1999999100641MD1210091+9999REMSYN066AAXX  14001 59559 32560 33201 10263 20225 30064 40092 52009 83500;EQDQ01  00002PRCP99
0163595590999992000041403004+22000+120770FM-12+002499999V0202601N003010075019N0150001N1+02971+02281100861ADDAA199000091GF106991061051008001001001MA1999999100591MD1810051+9999REMSYN066AAXX  14031 59559 32565 62603 10297 20228 30059 40086 58005 86500;EQDQ01  00002PRCP99
0163595590999992000041406004+22000+120770FM-12+002499999V0202901N002010900019N0150001N1+02961+02271100641ADDAA199000091GF107991031051008001001061MA1999999100371MD1810221+9999REMSYN066AAXX  14061 59559 32565 72902 10296 20227 30037 40064 58022 83506;EQDQ01  00002PRCP99
0163595590999992000041409004+22000+120770FM-12+002499999V0203001N002010900019N0150001N1+02761+02241100621ADDAA199000091GF106991041051008001001021MA1999999100351MD1510021+9999REMSYN066AAXX  14091 59559 32565 63002 10276 20224 30035 40062 55002 84502;EQDQ01  00002PRCP99
0163595590999992000041415004+22000+120770FM-12+002499999V0203001N002012200019N0150001N1+02501+02231100891ADDAA199000091GF102991021051008001001001MA1999999100611MD1010071+9999REMSYN066AAXX  14151 59559 32565 23002 10250 20223 30061 40089 50007 82500;EQDQ01  00002PRCP99
0163595590999992000041418004+22000+120770FM-12+002499999V0203401N003012200019N0150001N1+02431+02221100761ADDAA199000091GF102991021051008001001001MA1999999100481MD1810131+9999REMSYN066AAXX  14181 59559 32565 23403 10243 20222 30048 40076 58013 82500;EQDQ01  00002PRCP99
0163595590999992000041500004+22000+120770FM-12+002499999V0203101N002010075019N0120001N1+02631+02271101031ADDAA199000091GF108991061051008001041001MA1999999100751MD1210231+9999REMSYN066AAXX  15001 59559 32562 83102 10263 20227 30075 40103 52023 86540;EQDQ01  00002PRCP99
0163595590999992000041503004+22000+120770FM-12+002499999V0203101N002010075019N0120001N1+02761+02131101131ADDAA199000091GF107991071051008001999999MA1999999100851MD1110101+9999REMSYN066AAXX  15031 59559 32562 73102 10276 20213 30085 40113 51010 875//;EQDQ01  00002PRCP99
0163595590999992000041506004+22000+120770FM-12+002499999V0200401N014010075019N0200001N1+02551+01991101021ADDAA199000091GF105991051051008001001001MA1999999100741MD1710111+9999REMSYN066AAXX  15061 59559 32570 50414 10255 20199 30074 40102 57011 85500;EQDQ01  00002PRCP99
0163595590999992000041509004+22000+120770FM-12+002499999V0201001N003010075019N0150001N1+02281+01891101091ADDAA199000091GF108991081051008001999999MA1999999100811MD1310071+9999REMSYN066AAXX  15091 59559 32565 81003 10228 20189 30081 40109 53007 885//;EQDQ01  00002PRCP99
0163595590999992000041512004+22000+120770FM-12+002499999V0200601N006010075019N0100001N1+02201+01831101231ADDAA199000091GF106991061051008001001001MA1999999100951MD1310141+9999REMSYN066AAXX  15121 59559 32560 60606 10220 20183 30095 40123 53014 86500;EQDQ01  00002PRCP99
0163595590999992000041515004+22000+120770FM-12+002499999V0200501N004010075019N0100001N1+02161+01771101291ADDAA199000091GF106991061051008001001001MA1999999101011MD1010061+9999REMSYN066AAXX  15151 59559 32560 60504 10216 20177 30101 40129 50006 86500;EQDQ01  00002PRCP99
0163595590999992000041518004+22000+120770FM-12+002499999V0200601N003010075019N0100001N1+02071+01761101201ADDAA199000091GF108991081051008001999999MA1999999100921MD1710091+9999REMSYN066AAXX  15181 59559 32560 80603 10207 20176 30092 40120 57009 885//;EQDQ01  00002PRCP99
0163595590999992000041521004+22000+120770FM-12+002499999V0200301N007010075019N0100001N1+02041+01631101221ADDAA199000091GF107991071051008001001001MA1999999100941MD1310021+9999REMSYN066AAXX  15211 59559 32560 70307 10204 20163 30094 40122 53002 87500;EQDQ01  00002PRCP99
0163595590999992000041600004+22000+120770FM-12+002499999V0200201N007010075019N0200001N1+02011+01611101431ADDAA199000091GF108991081051008001999999MA1999999101151MD1110211+9999REMSYN066AAXX  16001 59559 32570 80207 10201 20161 30115 40143 51021 885//;EQDQ01  00002PRCP99
0163595590999992000041603004+22000+120770FM-12+002499999V0200101N006010075019N0100001N1+01891+01661101541ADDAA199000091GF108991081051008001999999MA1999999101251MD1210101+9999REMSYN066AAXX  16031 59559 32560 80106 10189 20166 30125 40154 52010 885//;EQDQ01  00002PRCP99
0178595590999992000041606004+22000+120770FM-12+002499999V0200401N011010075019N0150001N1+02051+01681101401ADDAA106000591AY161061AY221061GF108991081061008001999999MA1999999101121MD1710131+9999MW1211REMSYN078AAXX  16061 59559 11565 80411 10205 20168 30112 40140 57013 69951 72162 886//;
0150595590999992000041609004+22000+120770FM-12+002499999V0200401N007010075019N0150001N1+02141+01591101401ADDAA100000591GF105991051051008001001001MA1999999101121MD1410001+9999REMSYN072AAXX  16091 59559 12565 50407 10214 20159 30112 40140 54000 6995/ 85500;
0150595590999992000041612004+22000+120770FM-12+002499999V0200301N015012200019N0150001N1+02011+01511101531ADDAA112000591GF101991011051008001001001MA1999999101251MD1010131+9999REMSYN072AAXX  16121 59559 12565 10315 10201 20151 30125 40153 50013 69952 81500;
0154595590999992000041615004+22000+120770FM-12+002499999V0200301N007012200019N0150001N1+02041+01471101581ADDAA199000021GA1001+999999999GF100991001001999999001001MA1999999101301MD1010051+9999REMSYN060AAXX  16151 59559 32965 00307 10204 20147 30130 40158 50005;
0154595590999992000041618004+22000+120770FM-12+002499999V0200201N005012200019N0150001N1+02021+01431101481ADDAA199000021GA1001+999999999GF100991001001999999001001MA1999999101201MD1710101+9999REMSYN060AAXX  16181 59559 32965 00205 10202 20143 30120 40148 57010;
0163595590999992000041621004+22000+120770FM-12+002499999V0200301N007012200019N0150001N1+02051+01431101451ADDAA199000091GF102991021051017501001001MA1999999101171MD1510031+9999REMSYN066AAXX  16211 59559 32765 20307 10205 20143 30117 40145 55003 82500;EQDQ01  00002PRCP99
0163595590999992000041700004+22000+120770FM-12+002499999V0200501N005012200019N0200001N1+02311+01611101621ADDAA199000091GF102991021051008001001001MA1999999101341MD1110171+9999REMSYN066AAXX  17001 59559 32570 20505 10231 20161 30134 40162 51017 82500;EQDQ01  00002PRCP99
0163595590999992000041703004+22000+120770FM-12+002499999V0200601N012012200019N0180001N1+02571+01621101601ADDAA199000091GF103991031051008001001001MA1999999101321MD1810021+9999REMSYN066AAXX  17031 59559 32568 30612 10257 20162 30132 40160 58002 83500;EQDQ01  00002PRCP99
0163595590999992000041706004+22000+120770FM-12+002499999V0200601N013012200019N0200001N1+02671+01561101441ADDAA199000091GF103991021011008001001011MA1999999101161MD1710161+9999REMSYN066AAXX  17061 59559 32570 30613 10267 20156 30116 40144 57016 82101;EQDQ01  00002PRCP99
0163595590999992000041709004+22000+120770FM-12+002499999V0200501N008012200019N0200001N1+02421+01521101481ADDAA199000091GF102991021011008001001001MA1999999101201MD1210041+9999REMSYN066AAXX  17091 59559 32570 20508 10242 20152 30120 40148 52004 82100;EQDQ01  00002PRCP99
0163595590999992000041712004+22000+120770FM-12+002499999V0200601N010010120019N0150001N1+02251+01531101651ADDAA199000091GF106991061051012501001001MA1999999101371MD1110171+9999REMSYN066AAXX  17121 59559 32665 60610 10225 20153 30137 40165 51017 86500;EQDQ01  00002PRCP99
0163595590999992000041715004+22000+120770FM-12+002499999V0200701N005010120019N0150001N1+02271+01541101691ADDAA199000091GF105991051051012501001001MA1999999101411MD1010041+9999REMSYN066AAXX  17151 59559 32665 50705 10227 20154 30141 40169 50004 85500;EQDQ01  00002PRCP99
0163595590999992000041718004+22000+120770FM-12+002499999V0200601N004010120019N0150001N1+02251+01541101521ADDAA199000091GF106991061051012501001001MA1999999101241MD1710171+9999REMSYN066AAXX  17181 59559 32665 60604 10225 20154 30124 40152 57017 86500;EQDQ01  00002PRCP99
0163595590999992000041721004+22000+120770FM-12+002499999V0200301N003010120019N0150001N1+02241+01571101531ADDAA199000091GF105991051051012501001001MA1999999101251MD1310011+9999REMSYN066AAXX  17211 59559 32665 50303 10224 20157 30125 40153 53001 85500;EQDQ01  00002PRCP99
0163595590999992000041800004+22000+120770FM-12+002499999V0200601N010010075019N0180001N1+02381+01621101621ADDAA199000091GF108991081051008001999999MA1999999101341MD1110091+9999REMSYN066AAXX  18001 59559 32568 80610 10238 20162 30134 40162 51009 885//;EQDQ01  00002PRCP99
0163595590999992000041803004+22000+120770FM-12+002499999V0200601N002010075019N0180001N1+02531+01741101581ADDAA199000091GF108991081051008001999999MA1999999101301MD1810041+9999REMSYN066AAXX  18031 59559 32568 80602 10253 20174 30130 40158 58004 885//;EQDQ01  00002PRCP99
0163595590999992000041806004+22000+120770FM-12+002499999V0200701N005010075019N0180001N1+02701+01901101331ADDAA199000091GF107991071051008001001001MA1999999101051MD1810251+9999REMSYN066AAXX  18061 59559 32568 70705 10270 20190 30105 40133 58025 87500;EQDQ01  00002PRCP99
0163595590999992000041809004+22000+120770FM-12+002499999V0200901N002012200019N0200001N1+02591+01921101211ADDAA199000091GF103991031051012501001001MA1999999100931MD1710121+9999REMSYN066AAXX  18091 59559 32670 30902 10259 20192 30093 40121 57012 83500;EQDQ01  00002PRCP99
0163595590999992000041812004+22000+120770FM-12+002499999V0203501N001010075019N0120001N1+02401+01891101331ADDAA199000091GF107991071051008001999999MA1999999101051MD1210121+9999REMSYN066AAXX  18121 59559 32562 73501 10240 20189 30105 40133 52012 875//;EQDQ01  00002PRCP99
0163595590999992000041815004+22000+120770FM-12+002499999V0200301N002010075019N0120001N1+02391+01931101401ADDAA199000091GF107991071051008001999999MA1999999101121MD1110071+9999REMSYN066AAXX  18151 59559 32562 70302 10239 20193 30112 40140 51007 875//;EQDQ01  00002PRCP99
0163595590999992000041818004+22000+120770FM-12+002499999V0209999C000010075019N0120001N1+02351+01971101231ADDAA199000091GF107991071051008001999999MA1999999100951MD1710171+9999REMSYN066AAXX  18181 59559 32562 70000 10235 20197 30095 40123 57017 875//;EQDQ01  00002PRCP99
0163595590999992000041821004+22000+120770FM-12+002499999V0209999C000010075019N0120001N1+02271+01991101181ADDAA199000091GF107991071051008001999999MA1999999100901MD1510051+9999REMSYN066AAXX  18211 59559 32562 70000 10227 20199 30090 40118 55005 875//;EQDQ01  00002PRCP99
0163595590999992000041900004+22000+120770FM-12+002499999V0203401N002012200019N0180001N1+02751+02111101281ADDAA199000091GF102991021011008001001001MA1999999101001MD1110101+9999REMSYN066AAXX  19001 59559 32568 23402 10275 20211 30100 40128 51010 82100;EQDQ01  00002PRCP99
0163595590999992000041903004+22000+120770FM-12+002499999V0203301N003012200019N0200001N1+03181+02161101151ADDAA199000091GF101991011011008001001001MA1999999100881MD1810121+9999REMSYN066AAXX  19031 59559 32570 13303 10318 20216 30088 40115 58012 81100;EQDQ01  00002PRCP99
0173595590999992000041906004+22000+120770FM-12+002499999V0203201N003012200019N0150001N1+03121+02141100881ADDAA199000091GA1001+999999999GF100991001001999999001001MA1999999100611MD1710271+9999REMSYN060AAXX  19061 59559 32965 03203 10312 20214 30061 40088 57027;EQDQ01  00002PRCP99
0163595590999992000041909004+22000+120770FM-12+002499999V0203301N002010075019N0150001N1+02691+02151100871ADDAA199000091GF107991071051008001999999MA1999999100591MD1510021+9999REMSYN066AAXX  19091 59559 32565 73302 10269 20215 30059 40087 55002 875//;EQDQ01  00002PRCP99
0163595590999992000041912004+22000+120770FM-12+002499999V0203301N004010075019N0150001N1+02581+02101101041ADDAA199000091GF107991071051008001999999MA1999999100761MD1110171+9999REMSYN066AAXX  19121 59559 32565 73304 10258 20210 30076 40104 51017 875//;EQDQ01  00002PRCP99
0163595590999992000041915004+22000+120770FM-12+002499999V0202501N003012200019N0150001N1+02511+02181101091ADDAA199000091GF102991021051008001001001MA1999999100811MD1010051+9999REMSYN066AAXX  19151 59559 32565 22503 10251 20218 30081 40109 50005 82500;EQDQ01  00002PRCP99
0163595590999992000041918004+22000+120770FM-12+002499999V0200201N003012200019N0150001N1+02481+02201100991ADDAA199000091GF101991011011008001001001MA1999999100711MD1710101+9999REMSYN066AAXX  19181 59559 32565 10203 10248 20220 30071 40099 57010 81100;EQDQ01  00002PRCP99
0163595590999992000041921004+22000+120770FM-12+002499999V0209999C000012200019N0150001N1+02301+02101100971ADDAA199000091GF101991011011008001001001MA1999999100691MD1510021+9999REMSYN066AAXX  19211 59559 32565 10000 10230 20210 30069 40097 55002 81100;EQDQ01  00002PRCP99
0173595590999992000042000004+22000+120770FM-12+002499999V0202601N001012200019N0150001N1+02791+02231101041ADDAA199000091GA1001+999999999GF100991001001999999001001MA1999999100761MD1010071+9999REMSYN060AAXX  20001 59559 32965 02601 10279 20223 30076 40104 50007;EQDQ01  00002PRCP99
0163595590999992000042003004+22000+120770FM-12+002499999V0202301N003012200019N0150001N1+03061+02311100971ADDAA199000091GF102991021011008001001001MA1999999100701MD1810061+9999REMSYN066AAXX  20031 59559 32565 22303 10306 20231 30070 40097 58006 82100;EQDQ01  00002PRCP99
0163595590999992000042006004+22000+120770FM-12+002499999V0202701N006012200019N0200001N1+03141+02311100841ADDAA199000091GF102991021021008001001001MA1999999100571MD1710131+9999REMSYN066AAXX  20061 59559 32570 22706 10314 20231 30057 40084 57013 82200;EQDQ01  00002PRCP99
0163595590999992000042009004+22000+120770FM-12+002499999V0203001N002012200019N0150001N1+02771+02231100771ADDAA199000091GF102991021021008001001001MA1999999100501MD1710071+9999REMSYN066AAXX  20091 59559 32565 23002 10277 20223 30050 40077 57007 82200;EQDQ01  00002PRCP99
0163595590999992000042012004+22000+120770FM-12+002499999V0202801N002012200019N0100001N1+02521+02161100871ADDAA199000091GF102991021021008001001001MA1999999100591MD1210091+9999REMSYN066AAXX  20121 59559 32560 22802 10252 20216 30059 40087 52009 82200;EQDQ01  00002PRCP99
0163595590999992000042015004+22000+120770FM-12+002499999V0203301N004012200019N0100001N1+02441+02141100981ADDAA199000091GF102991021021008001001001MA1999999100701MD1210111+9999REMSYN066AAXX  20151 59559 32560 23304 10244 20214 30070 40098 52011 82200;EQDQ01  00002PRCP99
0163595590999992000042018004+22000+120770FM-12+002499999V0203001N001012200019N0100001N1+02411+02151100891ADDAA199000091GF102991021021008001001001MA1999999100611MD1610091+9999REMSYN066AAXX  20181 59559 32560 23001 10241 20215 30061 40089 56009 82200;EQDQ01  00002PRCP99
0163595590999992000042021004+22000+120770FM-12+002499999V0202901N003012200019N0100001N1+02331+02081100891ADDAA199000091GF104991041021008001001001MA1999999100611MD1410001+9999REMSYN066AAXX  20211 59559 32560 42903 10233 20208 30061 40089 54000 84200;EQDQ01  00002PRCP99
0163595590999992000042100004+22000+120770FM-12+002499999V0203101N004012200019N0200001N1+02741+02221100991ADDAA199000091GF102991021011008001001001MA1999999100711MD1210101+9999REMSYN066AAXX  21001 59559 32570 23104 10274 20222 30071 40099 52010 82100;EQDQ01  00002PRCP99
0163595590999992000042103004+22000+120770FM-12+002499999V0202801N004012200019N0200001N1+03001+02231101001ADDAA199000091GF102991021021008001001001MA1999999100731MD1010021+9999REMSYN066AAXX  21031 59559 32570 22804 10300 20223 30073 40100 50002 82200;EQDQ01  00002PRCP99
0163595590999992000042106004+22000+120770FM-12+002499999V0203101N004012200019N0200001N1+02871+02331100901ADDAA199000091GF104991041051008001001001MA1999999100631MD1710101+9999REMSYN066AAXX  21061 59559 32570 43104 10287 20233 30063 40090 57010 84500;EQDQ01  00002PRCP99
0163595590999992000042109004+22000+120770FM-12+002499999V0203401N004010075019N0150001N1+02711+02271100941ADDAA199000091GF105991051051008001001001MA1999999100661MD1210031+9999REMSYN066AAXX  21091 59559 32565 53404 10271 20227 30066 40094 52003 85500;EQDQ01  00002PRCP99
0163595590999992000042112004+22000+120770FM-12+002499999V0203601N003010075019N0120001N1+02681+02261101081ADDAA199000091GF106991061051008001001001MA1999999100801MD1310141+9999REMSYN066AAXX  21121 59559 32562 63603 10268 20226 30080 40108 53014 86500;EQDQ01  00002PRCP99
0163595590999992000042115004+22000+120770FM-12+002499999V0200401N006012200019N0150001N1+02521+02151101171ADDAA199000091GF102991021051008001001001MA1999999100891MD1010091+9999REMSYN066AAXX  21151 59559 32565 20406 10252 20215 30089 40117 50009 82500;EQDQ01  00002PRCP99
0173595590999992000042118004+22000+120770FM-12+002499999V0200701N003012200019N0150001N1+02431+02041101081ADDAA199000091GA1001+999999999GF100991001001999999001001MA1999999100801MD1510091+9999REMSYN060AAXX  21181 59559 32965 00703 10243 20204 30080 40108 55009;EQDQ01  00002PRCP99
0163595590999992000042121004+22000+120770FM-12+002499999V0200201N007010075019N0150001N1+02471+02011101101ADDAA199000091GF108991081051008001999999MA1999999100821MD1310021+9999REMSYN066AAXX  21211 59559 32565 80207 10247 20201 30082 40110 53002 885//;EQDQ01  00002PRCP99
0163595590999992000042200004+22000+120770FM-12+002499999V0200601N005010075019N0100001N1+02701+02121101151ADDAA199000091GF108991081051008001999999MA1999999100871MD1310051+9999REMSYN066AAXX  22001 59559 32560 80605 10270 20212 30087 40115 53005 885//;EQDQ01  00002PRCP99
0163595590999992000042203004+22000+120770FM-12+002499999V0200801N006010075019N0100001N1+02851+02191101111ADDAA199000091GF108991081051008001999999MA1999999100831MD1810041+9999REMSYN066AAXX  22031 59559 32560 80806 10285 20219 30083 40111 58004 885//;EQDQ01  00002PRCP99
0163595590999992000042206004+22000+120770FM-12+002499999V0200901N003012200019N0150001N1+03231+02271100821ADDAA199000091GF104991041021008001001001MA1999999100551MD1810281+9999REMSYN066AAXX  22061 59559 32565 40903 10323 20227 30055 40082 58028 84200;EQDQ01  00002PRCP99
0163595590999992000042209004+22000+120770FM-12+002499999V0202101N002012200019N0150001N1+02931+02161100771ADDAA199000091GF102991021011008001011001MA1999999100501MD1510051+9999REMSYN066AAXX  22091 59559 32565 22102 10293 20216 30050 40077 55005 82110;EQDQ01  00002PRCP99
0163595590999992000042215004+22000+120770FM-12+002499999V0202601N004010075019N0120001N1+02561+02341101031ADDAA199000091GF106991061051008001001001MA1999999100751MD1010091+9999REMSYN066AAXX  22151 59559 32562 62604 10256 20234 30075 40103 50009 86500;EQDQ01  00002PRCP99
0163595590999992000042218004+22000+120770FM-12+002499999V0203201N004010075019N0100001N1+02431+02321100921ADDAA199000091GF107991071051008001999999MA1999999100641MD1810111+9999REMSYN066AAXX  22181 59559 32560 73204 10243 20232 30064 40092 58011 875//;EQDQ01  00002PRCP99
0163595590999992000042221004+22000+120770FM-12+002499999V0203401N002010075019N0120001N1+02421+02321100951ADDAA199000091GF108991081051008001999999MA1999999100671MD1310031+9999REMSYN066AAXX  22211 59559 32562 83402 10242 20232 30067 40095 53003 885//;EQDQ01  00002PRCP99
0163595590999992000042300004+22000+120770FM-12+002499999V0202101N001012200019N0150001N1+02841+02321101121ADDAA199000091GF103991031051008001001001MA1999999100841MD1210171+9999REMSYN066AAXX  23001 59559 32565 32101 10284 20232 30084 40112 52017 83500;EQDQ01  00002PRCP99
0163595590999992000042303004+22000+120770FM-12+002499999V0202201N001010075019N0150001N1+02851+02241101121ADDAA199000091GF107991071051008001001001MA1999999100841MD1410001+9999REMSYN066AAXX  23031 59559 32565 72201 10285 20224 30084 40112 54000 87500;EQDQ01  00002PRCP99
0163595590999992000042306004+22000+120770FM-12+002499999V0200901N008010075019N0150001N1+02771+02171100901ADDAA199000091GF107991071051008001999999MA1999999100621MD1810221+9999REMSYN066AAXX  23061 59559 32565 70908 10277 20217 30062 40090 58022 875//;EQDQ01  00002PRCP99
0163595590999992000042309004+22000+120770FM-12+002499999V0200201N005010075019N0150001N1+02611+02071100831ADDAA199000091GF106991061051008001001001MA1999999100551MD1810071+9999REMSYN066AAXX  23091 59559 32565 60205 10261 20207 30055 40083 58007 86500;EQDQ01  00002PRCP99
0163595590999992000042312004+22000+120770FM-12+002499999V0200301N002010075019N0150001N1+02401+02021101031ADDAA199000091GF105991051051008001001001MA1999999100751MD1210201+9999REMSYN066AAXX  23121 59559 32565 50302 10240 20202 30075 40103 52020 85500;EQDQ01  00002PRCP99
0163595590999992000042315004+22000+120770FM-12+002499999V0200601N002012200019N0200001N1+02371+01981101081ADDAA199000091GF102991021051008001011001MA1999999100801MD1010051+9999REMSYN066AAXX  23151 59559 32570 20602 10237 20198 30080 40108 50005 82510;EQDQ01  00002PRCP99
0163595590999992000042318004+22000+120770FM-12+002499999V0200701N002012200019N0200001N1+02351+01991100931ADDAA199000091GF102991021051008001001001MA1999999100651MD1810151+9999REMSYN066AAXX  23181 59559 32570 20702 10235 20199 30065 40093 58015 82500;EQDQ01  00002PRCP99
0163595590999992000042321004+22000+120770FM-12+002499999V0200301N001012200019N0200001N1+02321+01991100901ADDAA199000091GF103991021051008001011001MA1999999100621MD1510031+9999REMSYN066AAXX  23211 59559 32570 30301 10232 20199 30062 40090 55003 82510;EQDQ01  00002PRCP99
0163595590999992000042400004+22000+120770FM-12+002499999V0200701N003010075019N0150001N1+02621+02041101041ADDAA199000091GF107991071051008001001001MA1999999100761MD1110141+9999REMSYN066AAXX  24001 59559 32565 70703 10262 20204 30076 40104 51014 87500;EQDQ01  00002PRCP99
0163595590999992000042403004+22000+120770FM-12+002499999V0209999V001010075019N0200001N1+03101+02171101021ADDAA199000091GF106991061051008001001001MA1999999100751MD1810011+9999REMSYN066AAXX  24031 59559 32570 69901 10310 20217 30075 40102 58001 86500;EQDQ01  00002PRCP99
0163595590999992000042406004+22000+120770FM-12+002499999V0202601N001010075019N0150001N1+02891+02181100901ADDAA199000091GF108991081051008001999999MA1999999100631MD1810121+9999REMSYN066AAXX  24061 59559 32565 82601 10289 20218 30063 40090 58012 885//;EQDQ01  00002PRCP99
0178595590999992000042409004+22000+120770FM-12+002499999V0201101N002010075019N0150001N1+02481+02221100901ADDAA100000591AY161031AY221031GF108991081071008001999999MA1999999100621MD1510011+9999MW1601REMSYN078AAXX  24091 59559 11565 81102 10248 20222 30062 40090 55001 6995/ 76062 887//;
0144595590999992000042415004+22000+120770FM-12+002499999V0200401N002010075019N0100001N1+02411+02131101081ADDAA199000021GF108991081051008001999999MA1999999100801MD1110111+9999REMSYN066AAXX  24151 59559 32560 80402 10241 20213 30080 40108 51011 885//;
0144595590999992000042418004+22000+120770FM-12+002499999V0200801N002010075019N0100001N1+02361+02011100821ADDAA199000021GF108991081051008001999999MA1999999100541MD1810261+9999REMSYN066AAXX  24181 59559 32560 80802 10236 20201 30054 40082 58026 885//;
0144595590999992000042421004+22000+120770FM-12+002499999V0200201N001010075019N0100001N1+02221+02041100821ADDAA199000021GF108991081051008001999999MA1999999100541MD1410001+9999REMSYN066AAXX  24211 59559 32560 80201 10222 20204 30054 40082 54000 885//;
0163595590999992000042500004+22000+120770FM-12+002499999V0209999C000010075019N0200001N1+02881+02391100911ADDAA199000091GF108991081051008001999999MA1999999100641MD1110101+9999REMSYN066AAXX  25001 59559 32570 80000 10288 20239 30064 40091 51010 885//;EQDQ01  00002PRCP99
0163595590999992000042503004+22000+120770FM-12+002499999V0202701N008012200019N0200001N1+03001+02431100921ADDAA199000091GF104991041051008001001001MA1999999100651MD1010011+9999REMSYN066AAXX  25031 59559 32570 42708 10300 20243 30065 40092 50001 84500;EQDQ01  00002PRCP99
0163595590999992000042506004+22000+120770FM-12+002499999V0202601N004010075019N0200001N1+02981+02451100721ADDAA199000091GF106991061051008001001001MA1999999100451MD1710201+9999REMSYN066AAXX  25061 59559 32570 62604 10298 20245 30045 40072 57020 86500;EQDQ01  00002PRCP99
0163595590999992000042509004+22000+120770FM-12+002499999V0202901N003010075019N0200001N1+02841+02431100621ADDAA199000091GF106991061051008001001001MA1999999100351MD1510101+9999REMSYN066AAXX  25091 59559 32570 62903 10284 20243 30035 40062 55010 86500;EQDQ01  00002PRCP99
0163595590999992000042512004+22000+120770FM-12+002499999V0202901N004012200019N0200001N1+02651+02421100801ADDAA199000091GF103991031021008001001001MA1999999100521MD1310171+9999REMSYN066AAXX  25121 59559 32570 32904 10265 20242 30052 40080 53017 83200;EQDQ01  00002PRCP99
0163595590999992000042515004+22000+120770FM-12+002499999V0202801N003012200019N0200001N1+02611+02401100821ADDAA199000091GF101991011011008001001001MA1999999100541MD1010021+9999REMSYN066AAXX  25151 59559 32570 12803 10261 20240 30054 40082 50002 81100;EQDQ01  00002PRCP99
0163595590999992000042518004+22000+120770FM-12+002499999V0202901N003012200019N0200001N1+02561+02401100671ADDAA199000091GF103991031021008001001001MA1999999100391MD1810151+9999REMSYN066AAXX  25181 59559 32570 32903 10256 20240 30039 40067 58015 83200;EQDQ01  00002PRCP99
0163595590999992000042521004+22000+120770FM-12+002499999V0202801N007012200019N0200001N1+02581+02341100691ADDAA199000091GF103991031051008001001001MA1999999100411MD1310021+9999REMSYN066AAXX  25211 59559 32570 32807 10258 20234 30041 40069 53002 83500;EQDQ01  00002PRCP99
0163595590999992000042600004+22000+120770FM-12+002499999V0202901N006012200019N0150001N1+02851+02401100871ADDAA199000091GF104991041051008001001001MA1999999100601MD1110191+9999REMSYN066AAXX  26001 59559 32565 42906 10285 20240 30060 40087 51019 84500;EQDQ01  00002PRCP99
0163595590999992000042603004+22000+120770FM-12+002499999V0202901N004012200019N0150001N1+03181+02451100911ADDAA199000091GF107991031021008001001041MA1999999100641MD1010041+9999REMSYN066AAXX  26031 59559 32565 72904 10318 20245 30064 40091 50004 83204;EQDQ01  00002PRCP99
0163595590999992000042606004+22000+120770FM-12+002499999V0202901N004012200019N0200001N1+03191+02451100771ADDAA199000091GF107991021011008001001041MA1999999100501MD1810141+9999REMSYN066AAXX  26061 59559 32570 72904 10319 20245 30050 40077 58014 82104;EQDQ01  00002PRCP99
0163595590999992000042609004+22000+120770FM-12+002499999V0202901N004010900019N0200001N1+02851+02381100681ADDAA199000091GF107991011011008001001061MA1999999100411MD1710091+9999REMSYN066AAXX  26091 59559 32570 72904 10285 20238 30041 40068 57009 81106;EQDQ01  00002PRCP99
0163595590999992000042612004+22000+120770FM-12+002499999V0203001N004012200019N0200001N1+02691+02411100861ADDAA199000091GF106991011011008001001061MA1999999100581MD1310171+9999REMSYN066AAXX  26121 59559 32570 63004 10269 20241 30058 40086 53017 81106;EQDQ01  00002PRCP99
0163595590999992000042615004+22000+120770FM-12+002499999V0202901N003010075019N0200001N1+02681+02431100971ADDAA199000091GF106991061051008001001001MA1999999100691MD1010111+9999REMSYN066AAXX  26151 59559 32570 62903 10268 20243 30069 40097 50011 86500;EQDQ01  00002PRCP99
0178595590999992000042618004+22000+120770FM-12+002499999V0202901N003010075019N0200001N1+02601+02431100831ADDAA106000791AY161061AY221061GF106991061051008001001001MA1999999100551MD1710141+9999MW1021REMSYN078AAXX  26181 59559 11570 62903 10260 20243 30055 40083 57014 69901 70262 86500;
0150595590999992000042621004+22000+120770FM-12+002499999V0209999C000010360019N0200001N1+02551+02371100721ADDAA100000791GF108991021041008001021001MA1999999100441MD1510111+9999REMSYN072AAXX  26211 59559 12570 80000 10255 20237 30044 40072 55011 6990/ 82420;
0150595590999992000042700004+22000+120770FM-12+002499999V0209999C000010075019N0200001N1+02831+02371101011ADDAA112000791GF107991071051008001999999MA1999999100731MD1110291+9999REMSYN072AAXX  27001 59559 12570 70000 10283 20237 30073 40101 51029 69902 875//;
0178595590999992000042703004+22000+120770FM-12+002499999V0200301N006010075019N0120001N1+02671+02141101161ADDAA100000791AY161031AY221031GF107991071051008001999999MA1999999100881MD1110151+9999MW1021REMSYN078AAXX  27031 59559 11562 70306 10267 20214 30088 40116 51015 6990/ 70262 875//;
0150595590999992000042706004+22000+120770FM-12+002499999V0200401N009010075019N0150001N1+02491+01981101091ADDAA106000791GF108991081051008001999999MA1999999100811MD1710071+9999REMSYN072AAXX  27061 59559 12565 80409 10249 20198 30081 40109 57007 69901 885//;
0150595590999992000042709004+22000+120770FM-12+002499999V0200301N008010075019N0150001N1+02341+01871101061ADDAA100000791GF108991081051008001999999MA1999999100781MD1510031+9999REMSYN072AAXX  27091 59559 12565 80308 10234 20187 30078 40106 55003 6990/ 885//;
0150595590999992000042712004+22000+120770FM-12+002499999V0200401N013010075019N0150001N1+02221+01801101211ADDAA112000791GF108991081051008001999999MA1999999100931MD1210151+9999REMSYN072AAXX  27121 59559 12565 80413 10222 20180 30093 40121 52015 69902 885//;
0163595590999992000042715004+22000+120770FM-12+002499999V0200701N007010075019N0150001N1+02181+01791101351ADDAA199000091GF108991081051008001999999MA1999999101071MD1110141+9999REMSYN066AAXX  27151 59559 32565 80707 10218 20179 30107 40135 51014 885//;EQDQ01  00002PRCP99
0163595590999992000042718004+22000+120770FM-12+002499999V0200501N006010075019N0150001N1+02211+01701101141ADDAA199000091GF106991061051008001001001MA1999999100861MD1710211+9999REMSYN066AAXX  27181 59559 32565 60506 10221 20170 30086 40114 57021 86500;EQDQ01  00002PRCP99
0163595590999992000042721004+22000+120770FM-12+002499999V0200601N007010075019N0150001N1+02181+01721101191ADDAA199000091GF108991081051008001999999MA1999999100911MD1310051+9999REMSYN066AAXX  27211 59559 32565 80607 10218 20172 30091 40119 53005 885//;EQDQ01  00002PRCP99
0191595590999992000042800004+22000+120770FM-12+002499999V0200501N012010075019N0050001N1+02311+01701101381ADDAA199000091AY121061AY221061GF108991081051008001999999MA1999999101101MD1310191+9999MW1051REMSYN072AAXX  28001 59559 31550 80512 10231 20170 30110 40138 53019 70522 885//;EQDQ01  00002PRCP99
0163595590999992000042806004+22000+120770FM-12+002499999V0200501N007010120019N0100001N1+02991+01971101071ADDAA199000091GF105991051051012501001001MA1999999100801MD1810211+9999REMSYN066AAXX  28061 59559 32660 50507 10299 20197 30080 40107 58021 85500;EQDQ01  00002PRCP99
0163595590999992000042809004+22000+120770FM-12+002499999V0200701N004010120019N0100001N1+02491+01831101081ADDAA199000091GF108991081051012501999999MA1999999100801MD1410001+9999REMSYN066AAXX  28091 59559 32660 80704 10249 20183 30080 40108 54000 885//;EQDQ01  00002PRCP99
0163595590999992000042812004+22000+120770FM-12+002499999V0200601N005010120019N0100001N1+02361+01881101351ADDAA199000091GF108991081051012501999999MA1999999101071MD1210271+9999REMSYN066AAXX  28121 59559 32660 80605 10236 20188 30107 40135 52027 885//;EQDQ01  00002PRCP99
0163595590999992000042815004+22000+120770FM-12+002499999V0200701N004010120019N0100001N1+02361+01901101421ADDAA199000091GF108991081051012501999999MA1999999101141MD1010071+9999REMSYN066AAXX  28151 59559 32660 80704 10236 20190 30114 40142 50007 885//;EQDQ01  00002PRCP99
0163595590999992000042818004+22000+120770FM-12+002499999V0200801N004010120019N0100001N1+02351+01911101281ADDAA199000091GF108991081051012501999999MA1999999101001MD1710141+9999REMSYN066AAXX  28181 59559 32660 80804 10235 20191 30100 40128 57014 885//;EQDQ01  00002PRCP99
0163595590999992000042821004+22000+120770FM-12+002499999V0200701N004010120019N0150001N1+02421+02011101261ADDAA199000091GF107991071051012501001001MA1999999100981MD1510021+9999REMSYN066AAXX  28211 59559 32665 70704 10242 20201 30098 40126 55002 87500;EQDQ01  00002PRCP99
0163595590999992000042900004+22000+120770FM-12+002499999V0200901N011010120019N0150001N1+02611+02121101301ADDAA199000091GF108991081051012501999999MA1999999101021MD1010041+9999REMSYN066AAXX  29001 59559 32665 80911 10261 20212 30102 40130 50004 885//;EQDQ01  00002PRCP99
0163595590999992000042903004+22000+120770FM-12+002499999V0201101N003010120019N0150001N1+03191+02371101341ADDAA199000091GF107991071051012501001001MA1999999101071MD1010051+9999REMSYN066AAXX  29031 59559 32665 71103 10319 20237 30107 40134 50005 87500;EQDQ01  00002PRCP99
0163595590999992000042906004+22000+120770FM-12+002499999V0201801N002010120019N0120001N1+02891+02291101201ADDAA199000091GF108991081071012501999999MA1999999100921MD1710151+9999REMSYN066AAXX  29061 59559 32662 81802 10289 20229 30092 40120 57015 887//;EQDQ01  00002PRCP99
0163595590999992000042909004+22000+120770FM-12+002499999V0203201N002010075019N0100001N1+02731+02331101101ADDAA199000091GF108991081061008001999999MA1999999100821MD1510101+9999REMSYN066AAXX  29091 59559 32560 83202 10273 20233 30082 40110 55010 886//;EQDQ01  00002PRCP99
0163595590999992000042912004+22000+120770FM-12+002499999V0203601N002010360019N0100001N1+02581+02331101221ADDAA199000091GF106991021051008001041001MA1999999100941MD1210121+9999REMSYN066AAXX  29121 59559 32560 63602 10258 20233 30094 40122 52012 82540;EQDQ01  00002PRCP99
0163595590999992000042915004+22000+120770FM-12+002499999V0209999C000012200019N0120001N1+02451+02271101321ADDAA199000091GF104991041051008001001001MA1999999101041MD1010101+9999REMSYN066AAXX  29151 59559 32562 40000 10245 20227 30104 40132 50010 84500;EQDQ01  00002PRCP99
0163595590999992000042918004+22000+120770FM-12+002499999V0209999C000012200019N0150001N1+02391+02251101141ADDAA199000091GF103991031051008001001001MA1999999100861MD1810181+9999REMSYN066AAXX  29181 59559 32565 30000 10239 20225 30086 40114 58018 83500;EQDQ01  00002PRCP99
0163595590999992000042921004+22000+120770FM-12+002499999V0209999C000012200019N0100001N1+02361+02271101051ADDAA199000091GF103991021051008001001011MA1999999100771MD1710091+9999REMSYN066AAXX  29211 59559 32560 30000 10236 20227 30077 40105 57009 82501;EQDQ01  00002PRCP99
0163595590999992000043000004+22000+120770FM-12+002499999V0202801N003012200019N0120001N1+02931+02451101161ADDAA199000091GF102991021011008001001001MA1999999100891MD1110121+9999REMSYN066AAXX  30001 59559 32562 22803 10293 20245 30089 40116 51012 82100;EQDQ01  00002PRCP99
0163595590999992000043003004+22000+120770FM-12+002499999V0202801N003010075019N0150001N1+03081+02461101141ADDAA199000091GF106991061021008001001001MA1999999100871MD1810021+9999REMSYN066AAXX  30031 59559 32565 62803 10308 20246 30087 40114 58002 86200;EQDQ01  00002PRCP99
0163595590999992000043006004+22000+120770FM-12+002499999V0202901N008012200019N0200001N1+03091+02461100931ADDAA199000091GF102991021021008001001001MA1999999100661MD1810211+9999REMSYN066AAXX  30061 59559 32570 22908 10309 20246 30066 40093 58021 82200;EQDQ01  00002PRCP99
0163595590999992000043009004+22000+120770FM-12+002499999V0203101N003012200019N0150001N1+02881+02401100811ADDAA199000091GF104991041021008001001001MA1999999100541MD1710121+9999REMSYN066AAXX  30091 59559 32565 43103 10288 20240 30054 40081 57012 84200;EQDQ01  00002PRCP99
0163595590999992000043012004+22000+120770FM-12+002499999V0202901N003012200019N0100001N1+02711+02251100951ADDAA199000091GF104991041021008001001001MA1999999100671MD1210131+9999REMSYN066AAXX  30121 59559 32560 42903 10271 20225 30067 40095 52013 84200;EQDQ01  00002PRCP99
0163595590999992000043015004+22000+120770FM-12+002499999V0203501N002012200019N0100001N1+02611+02331101051ADDAA199000091GF102991021021008001001001MA1999999100771MD1010101+9999REMSYN066AAXX  30151 59559 32560 23502 10261 20233 30077 40105 50010 82200;EQDQ01  00002PRCP99
0163595590999992000043018004+22000+120770FM-12+002499999V0200501N001010075019N0100001N1+02531+02261100881ADDAA199000091GF105991051021008001001001MA1999999100601MD1810171+9999REMSYN066AAXX  30181 59559 32560 50501 10253 20226 30060 40088 58017 85200;EQDQ01  00002PRCP99
0163595590999992000043021004+22000+120770FM-12+002499999V0200401N002010075019N0100001N1+02471+02161100881ADDAA199000091GF108991081021008001999999MA1999999100601MD1410001+9999REMSYN066AAXX  30211 59559 32560 80402 10247 20216 30060 40088 54000 882//;EQDQ01  00002PRCP99
0163595590999992000050100004+22000+120770FM-12+002499999V0203401N001010075019N0200001N1+02771+02231101111ADDAA199000091GF105991051021008001001001MA1999999100831MD1110231+9999REMSYN066AAXX  01001 59559 32570 53401 10277 20223 30083 40111 51023 85200;EQDQ01  00002PRCP99
0163595590999992000050103004+22000+120770FM-12+002499999V0201001N003010075019N0150001N1+02971+02301101161ADDAA199000091GF108991081051008001999999MA1999999100891MD1010061+9999REMSYN066AAXX  01031 59559 32565 81003 10297 20230 30089 40116 50006 885//;EQDQ01  00002PRCP99
0163595590999992000050106004+22000+120770FM-12+002499999V0202001N004010075019N0200001N1+02871+02251100941ADDAA199000091GF106991061051008001001001MA1999999100671MD1710221+9999REMSYN066AAXX  01061 59559 32570 62004 10287 20225 30067 40094 57022 86500;EQDQ01  00002PRCP99
0163595590999992000050109004+22000+120770FM-12+002499999V0202801N002010075019N0150001N1+02821+02281100861ADDAA199000091GF106991061051008001001001MA1999999100591MD1510081+9999REMSYN066AAXX  01091 59559 32565 62802 10282 20228 30059 40086 55008 86500;EQDQ01  00002PRCP99
0163595590999992000050112004+22000+120770FM-12+002499999V0201001N005010075019N0150001N1+02531+02211101011ADDAA199000091GF108991081051008001999999MA1999999100731MD1210141+9999REMSYN066AAXX  01121 59559 32565 81005 10253 20221 30073 40101 52014 885//;EQDQ01  00002PRCP99
0163595590999992000050115004+22000+120770FM-12+002499999V0200701N003010075019N0120001N1+02451+02141101081ADDAA199000091GF108991081051008001999999MA1999999100801MD1010071+9999REMSYN066AAXX  01151 59559 32562 80703 10245 20214 30080 40108 50007 885//;EQDQ01  00002PRCP99
0163595590999992000050118004+22000+120770FM-12+002499999V0200901N003010075019N0120001N1+02401+02121100891ADDAA199000091GF108991081051008001999999MA1999999100611MD1810191+9999REMSYN066AAXX  01181 59559 32562 80903 10240 20212 30061 40089 58019 885//;EQDQ01  00002PRCP99
0163595590999992000050121004+22000+120770FM-12+002499999V0209999C000010075019N0120001N1+02441+02161100891ADDAA199000091GF108991081051008001999999MA1999999100611MD1410001+9999REMSYN066AAXX  01211 59559 32562 80000 10244 20216 30061 40089 54000 885//;EQDQ01  00002PRCP99
0178595590999992000050200004+22000+120770FM-12+002499999V0203601N002010075019N0100001N1+02471+02361101071ADDAA112006191AY161061AY221061GF108991081071008001999999MA1999999100791MD1110181+9999MW1211REMSYN078AAXX  02001 59559 11560 83602 10247 20236 30079 40107 51018 60062 72162 887//;
0178595590999992000050203004+22000+120770FM-12+002499999V0203101N002010075019N0100001N1+02901+02531101071ADDAA100000591AY161031AY221031GF107991071041008001001001MA1999999100801MD1010011+9999MW1211REMSYN078AAXX  02031 59559 11560 73102 10290 20253 30080 40107 50001 6995/ 72162 87400;
0150595590999992000050206004+22000+120770FM-12+002499999V0202901N002010075019N0150001N1+03011+02431100941ADDAA106000591GF106991061051008001001001MA1999999100671MD1810131+9999REMSYN072AAXX  02061 59559 12565 62902 10301 20243 30067 40094 58013 69951 86500;
0150595590999992000050209004+22000+120770FM-12+002499999V0203001N002010075019N0120001N1+02741+02341100951ADDAA100000591GF106991061051008001001001MA1999999100671MD1410001+9999REMSYN072AAXX  02091 59559 12562 63002 10274 20234 30067 40095 54000 6995/ 86500;
0150595590999992000050212004+22000+120770FM-12+002499999V0200401N002010075019N0100001N1+02581+02141101101ADDAA112000591GF107991071051008001001001MA1999999100821MD1210151+9999REMSYN072AAXX  02121 59559 12560 70402 10258 20214 30082 40110 52015 69952 87500;
0144595590999992000050215004+22000+120770FM-12+002499999V0200201N005010075019N0100001N1+02501+02071101231ADDAA199000021GF107991071051008001001001MA1999999100951MD1010131+9999REMSYN066AAXX  02151 59559 32560 70205 10250 20207 30095 40123 50013 87500;
0163595590999992000050218004+22000+120770FM-12+002499999V0200401N005010075019N0100001N1+02461+01981101041ADDAA199000091GF107991071051008001001001MA1999999100761MD1810191+9999REMSYN066AAXX  02181 59559 32560 70405 10246 20198 30076 40104 58019 87500;EQDQ01  00002PRCP99
0163595590999992000050221004+22000+120770FM-12+002499999V0200201N001010120019N0150001N1+02441+02001101021ADDAA199000091GF106991061051012501001001MA1999999100741MD1510021+9999REMSYN066AAXX  02211 59559 32665 60201 10244 20200 30074 40102 55002 86500;EQDQ01  00002PRCP99
0163595590999992000050300004+22000+120770FM-12+002499999V0203401N003010120019N0250001N1+02861+02171101201ADDAA199000091GF105991051051012501001001MA1999999100921MD1210181+9999REMSYN066AAXX  03001 59559 32675 53403 10286 20217 30092 40120 52018 85500;EQDQ01  00002PRCP99
0163595590999992000050303004+22000+120770FM-12+002499999V0200401N001010075019N0250001N1+02931+02191101221ADDAA199000091GF107991071051008001001001MA1999999100951MD1010031+9999REMSYN066AAXX  03031 59559 32575 70401 10293 20219 30095 40122 50003 87500;EQDQ01  00002PRCP99
0163595590999992000050306004+22000+120770FM-12+002499999V0203601N006010075019N0250001N1+02911+02171101101ADDAA199000091GF107991071021008001999999MA1999999100831MD1710121+9999REMSYN066AAXX  03061 59559 32575 73606 10291 20217 30083 40110 57012 872//;EQDQ01  00002PRCP99
0178595590999992000050309004+22000+120770FM-12+002499999V0201101N002010075019N0100001N1+02351+02141101111ADDAA100004191AY161031AY221031GF108991081071008001999999MA1999999100831MD1410001+9999MW1611REMSYN078AAXX  03091 59559 11560 81102 10235 20214 30083 40111 54000 6004/ 76162 887//;
0178595590999992000050312004+22000+120770FM-12+002499999V0202901N001010075019N0120001N1+02411+02101101211ADDAA112004191AY161061AY221061GF108991081051008001999999MA1999999100931MD1210101+9999MW1021REMSYN078AAXX  03121 59559 11562 82901 10241 20210 30093 40121 52010 60042 70262 885//;
0144595590999992000050315004+22000+120770FM-12+002499999V0201701N002010075019N0100001N1+02431+02001101281ADDAA199000021GF107991071051008001999999MA1999999101001MD1010071+9999REMSYN066AAXX  03151 59559 32560 71702 10243 20200 30100 40128 50007 875//;
0144595590999992000050318004+22000+120770FM-12+002499999V0200501N002010075019N0100001N1+02361+02041101141ADDAA199000021GF106991061051008001001001MA1999999100861MD1810141+9999REMSYN066AAXX  03181 59559 32560 60502 10236 20204 30086 40114 58014 86500;
0144595590999992000050321004+22000+120770FM-12+002499999V0200601N003010075019N0120001N1+02411+02011101081ADDAA199000021GF107991071051008001999999MA1999999100801MD1610061+9999REMSYN066AAXX  03211 59559 32562 70603 10241 20201 30080 40108 56006 875//;
0163595590999992000050400004+22000+120770FM-12+002499999V0203601N003010120019N0180001N1+02711+02091101221ADDAA199000091GF106991061051012501001001MA1999999100941MD1210141+9999REMSYN066AAXX  04001 59559 32668 63603 10271 20209 30094 40122 52014 86500;EQDQ01  00002PRCP99
0163595590999992000050403004+22000+120770FM-12+002499999V0200701N003010120019N0200001N1+02971+02161101221ADDAA199000091GF107991071051012501999999MA1999999100951MD1010011+9999REMSYN066AAXX  04031 59559 32670 70703 10297 20216 30095 40122 50001 875//;EQDQ01  00002PRCP99
0163595590999992000050406004+22000+120770FM-12+002499999V0203601N002010075019N0250001N1+03041+02181101151ADDAA199000091GF107991071051008001001001MA1999999100881MD1810071+9999REMSYN066AAXX  04061 59559 32575 73602 10304 20218 30088 40115 58007 87500;EQDQ01  00002PRCP99
0163595590999992000050409004+22000+120770FM-12+002499999V0200401N006010075019N0200001N1+02611+02121101171ADDAA199000091GF107991071051008001001001MA1999999100891MD1310011+9999REMSYN066AAXX  04091 59559 32570 70406 10261 20212 30089 40117 53001 87500;EQDQ01  00002PRCP99
0163595590999992000050412004+22000+120770FM-12+002499999V0200501N011010120019N0150001N1+02411+01941101301ADDAA199000091GF106991061051012501001001MA1999999101021MD1110131+9999REMSYN066AAXX  04121 59559 32665 60511 10241 20194 30102 40130 51013 86500;EQDQ01  00002PRCP99
0163595590999992000050415004+22000+120770FM-12+002499999V0200701N004012200019N0150001N1+02371+01941101401ADDAA199000091GF102991021051008001001001MA1999999101121MD1010101+9999REMSYN066AAXX  04151 59559 32565 20704 10237 20194 30112 40140 50010 82500;EQDQ01  00002PRCP99
0173595590999992000050418004+22000+120770FM-12+002499999V0200501N004012200019N0150001N1+02401+01951101261ADDAA199000091GA1001+999999999GF100991001001999999001001MA1999999100981MD1810141+9999REMSYN060AAXX  04181 59559 32965 00504 10240 20195 30098 40126 58014;EQDQ01  00002PRCP99
0163595590999992000050421004+22000+120770FM-12+002499999V0200601N009010075019N0150001N1+02411+01961101231ADDAA199000091GF107991071051008001001001MA1999999100951MD1510031+9999REMSYN066AAXX  04211 59559 32565 70609 10241 20196 30095 40123 55003 87500;EQDQ01  00002PRCP99
0163595590999992000050500004+22000+120770FM-12+002499999V0200601N008010120019N0200001N1+02641+02071101321ADDAA199000091GF106991061051012501001001MA1999999101041MD1210091+9999REMSYN066AAXX  05001 59559 32670 60608 10264 20207 30104 40132 52009 86500;EQDQ01  00002PRCP99
0163595590999992000050503004+22000+120770FM-12+002499999V0200801N006012200019N0200001N1+02991+02171101341ADDAA199000091GF101991011011008001001001MA1999999101071MD1010031+9999REMSYN066AAXX  05031 59559 32570 10806 10299 20217 30107 40134 50003 81100;EQDQ01  00002PRCP99
0163595590999992000050506004+22000+120770FM-12+002499999V0200701N011012200019N0200001N1+02801+02021101291ADDAA199000091GF102991021021008001001001MA1999999101011MD1710061+9999REMSYN066AAXX  05061 59559 32570 20711 10280 20202 30101 40129 57006 82200;EQDQ01  00002PRCP99
0163595590999992000050509004+22000+120770FM-12+002499999V0200501N004010075019N0150001N1+02531+01991101291ADDAA199000091GF105991051021008001001001MA1999999101011MD1410001+9999REMSYN066AAXX  05091 59559 32565 50504 10253 20199 30101 40129 54000 85200;EQDQ01  00002PRCP99
0163595590999992000050512004+22000+120770FM-12+002499999V0200101N002010075019N0100001N1+02411+02021101391ADDAA199000091GF106991061051008001001001MA1999999101111MD1110101+9999REMSYN066AAXX  05121 59559 32560 60102 10241 20202 30111 40139 51010 86500;EQDQ01  00002PRCP99
0163595590999992000050515004+22000+120770FM-12+002499999V0200201N002010075019N0100001N1+02461+01961101441ADDAA199000091GF105991051051008001001001MA1999999101161MD1010051+9999REMSYN066AAXX  05151 59559 32560 50202 10246 20196 30116 40144 50005 85500;EQDQ01  00002PRCP99
0163595590999992000050518004+22000+120770FM-12+002499999V0200201N002010075019N0100001N1+02321+01871101301ADDAA199000091GF105991051051008001001001MA1999999101021MD1710141+9999REMSYN066AAXX  05181 59559 32560 50202 10232 20187 30102 40130 57014 85500;EQDQ01  00002PRCP99
0163595590999992000050521004+22000+120770FM-12+002499999V0200501N001012200019N0100001N1+02131+01761101291ADDAA199000091GF104991041051008001001001MA1999999101011MD1510011+9999REMSYN066AAXX  05211 59559 32560 40501 10213 20176 30101 40129 55001 84500;EQDQ01  00002PRCP99
0163595590999992000050600004+22000+120770FM-12+002499999V0209999C000012200019N0200001N1+02831+02021101371ADDAA199000091GF102991021051008001001001MA1999999101091MD1110081+9999REMSYN066AAXX  06001 59559 32570 20000 10283 20202 30109 40137 51008 82500;EQDQ01  00002PRCP99
0163595590999992000050603004+22000+120770FM-12+002499999V0202401N003012200019N0200001N1+03111+02041101341ADDAA199000091GF104991041021008001001001MA1999999101071MD1810021+9999REMSYN066AAXX  06031 59559 32570 42403 10311 20204 30107 40134 58002 84200;EQDQ01  00002PRCP99
0163595590999992000050606004+22000+120770FM-12+002499999V0200701N006010075019N0120001N1+02681+02011101251ADDAA199000091GF107991071051008001999999MA1999999100971MD1810101+9999REMSYN066AAXX  06061 59559 32562 70706 10268 20201 30097 40125 58010 875//;EQDQ01  00002PRCP99
0163595590999992000050609004+22000+120770FM-12+002499999V0200101N003010075019N0100001N1+02491+01991101171ADDAA199000091GF108991081051008001999999MA1999999100891MD1510081+9999REMSYN066AAXX  06091 59559 32560 80103 10249 20199 30089 40117 55008 885//;EQDQ01  00002PRCP99
0163595590999992000050612004+22000+120770FM-12+002499999V0201601N002010075019N0120001N1+02411+01931101271ADDAA199000091GF106991061051008001001001MA1999999100991MD1310101+9999REMSYN066AAXX  06121 59559 32562 61602 10241 20193 30099 40127 53010 86500;EQDQ01  00002PRCP99
0163595590999992000050615004+22000+120770FM-12+002499999V0201901N001010075019N0150001N1+02351+01891101341ADDAA199000091GF106991061051008001001001MA1999999101061MD1010071+9999REMSYN066AAXX  06151 59559 32565 61901 10235 20189 30106 40134 50007 86500;EQDQ01  00002PRCP99
0163595590999992000050618004+22000+120770FM-12+002499999V0200101N003010075019N0150001N1+02351+01911101191ADDAA199000091GF106991061051008001001001MA1999999100911MD1810151+9999REMSYN066AAXX  06181 59559 32565 60103 10235 20191 30091 40119 58015 86500;EQDQ01  00002PRCP99
0163595590999992000050621004+22000+120770FM-12+002499999V0200701N001010075019N0150001N1+02281+01871101211ADDAA199000091GF105991051051008001001001MA1999999100931MD1310021+9999REMSYN066AAXX  06211 59559 32565 50701 10228 20187 30093 40121 53002 85500;EQDQ01  00002PRCP99
0163595590999992000050700004+22000+120770FM-12+002499999V0200301N006010360019N0150001N1+02761+02041101301ADDAA199000091GF105991031051008001041001MA1999999101021MD1110091+9999REMSYN066AAXX  07001 59559 32565 50306 10276 20204 30102 40130 51009 83540;EQDQ01  00002PRCP99
0163595590999992000050703004+22000+120770FM-12+002499999V0201001N006010075019N0150001N1+02681+02101101351ADDAA199000091GF107991071051008001999999MA1999999101071MD1010051+9999REMSYN066AAXX  07031 59559 32565 71006 10268 20210 30107 40135 50005 875//;EQDQ01  00002PRCP99
0163595590999992000050706004+22000+120770FM-12+002499999V0200801N006010075019N0150001N1+02781+02081101171ADDAA199000091GF105991051051008001001001MA1999999100891MD1810181+9999REMSYN066AAXX  07061 59559 32565 50806 10278 20208 30089 40117 58018 85500;EQDQ01  00002PRCP99
0163595590999992000050709004+22000+120770FM-12+002499999V0200701N007010075019N0150001N1+02511+01941101051ADDAA199000091GF105991051051008001001001MA1999999100771MD1710121+9999REMSYN066AAXX  07091 59559 32565 50707 10251 20194 30077 40105 57012 85500;EQDQ01  00002PRCP99
0163595590999992000050715004+22000+120770FM-12+002499999V0200201N003012200019N0150001N1+02401+01801101271ADDAA199000091GF101991011051008001001001MA1999999100991MD1010091+9999REMSYN066AAXX  07151 59559 32565 10203 10240 20180 30099 40127 50009 81500;EQDQ01  00002PRCP99
0163595590999992000050718004+22000+120770FM-12+002499999V0203601N005010075019N0150001N1+02361+01801101151ADDAA199000091GF106991061051008001001001MA1999999100871MD1510121+9999REMSYN066AAXX  07181 59559 32565 63605 10236 20180 30087 40115 55012 86500;EQDQ01  00002PRCP99
0173595590999992000050721004+22000+120770FM-12+002499999V0200401N005012200019N0150001N1+02261+01781101141ADDAA199000091GA1001+999999999GF100991001001999999001001MA1999999100861MD1510011+9999REMSYN060AAXX  07211 59559 32965 00405 10226 20178 30086 40114 55001;EQDQ01  00002PRCP99
0163595590999992000050800004+22000+120770FM-12+002499999V0200401N009012200019N0150001N1+02671+01961101231ADDAA199000091GF102991021051008001001001MA1999999100951MD1110091+9999REMSYN066AAXX  08001 59559 32565 20409 10267 20196 30095 40123 51009 82500;EQDQ01  00002PRCP99
0163595590999992000050803004+22000+120770FM-12+002499999V0200301N004010075019N0120001N1+02621+01901101241ADDAA199000091GF106991061051008001001001MA1999999100961MD1010011+9999REMSYN066AAXX  08031 59559 32562 60304 10262 20190 30096 40124 50001 86500;EQDQ01  00002PRCP99
0163595590999992000050806004+22000+120770FM-12+002499999V0200601N011012200019N0120001N1+02791+01971101061ADDAA199000091GF104991041021008001001001MA1999999100781MD1810181+9999REMSYN066AAXX  08061 59559 32562 40611 10279 20197 30078 40106 58018 84200;EQDQ01  00002PRCP99
0163595590999992000050809004+22000+120770FM-12+002499999V0200601N011010075019N0120001N1+02631+01841101001ADDAA199000091GF106991061051008001001001MA1999999100721MD1510061+9999REMSYN066AAXX  08091 59559 32562 60611 10263 20184 30072 40100 55006 86500;EQDQ01  00002PRCP99
0163595590999992000050812004+22000+120770FM-12+002499999V0200501N011012200019N0120001N1+02481+01811101111ADDAA199000091GF102991021051008001001001MA1999999100831MD1310111+9999REMSYN066AAXX  08121 59559 32562 20511 10248 20181 30083 40111 53011 82500;EQDQ01  00002PRCP99
0163595590999992000050815004+22000+120770FM-12+002499999V0200401N006012200019N0120001N1+02461+01791101121ADDAA199000091GF104991041051008001001001MA1999999100841MD1010011+9999REMSYN066AAXX  08151 59559 32562 40406 10246 20179 30084 40112 50001 84500;EQDQ01  00002PRCP99
0163595590999992000050818004+22000+120770FM-12+002499999V0200401N017012200019N0120001N1+02381+01761100921ADDAA199000091GF101991011051012501001001MA1999999100641MD1810201+9999REMSYN066AAXX  08181 59559 32662 10417 10238 20176 30064 40092 58020 81500;EQDQ01  00002PRCP99
0163595590999992000050821004+22000+120770FM-12+002499999V0200301N006012200019N0150001N1+02291+01721100911ADDAA199000091GF101991011051012501001001MA1999999100631MD1510011+9999REMSYN066AAXX  08211 59559 32665 10306 10229 20172 30063 40091 55001 81500;EQDQ01  00002PRCP99
0163595590999992000050900004+22000+120770FM-12+002499999V0200401N005012200019N0150001N1+02611+01791100991ADDAA199000091GF101991011051008001001001MA1999999100711MD1310081+9999REMSYN066AAXX  09001 59559 32565 10405 10261 20179 30071 40099 53008 81500;EQDQ01  00002PRCP99
0163595590999992000050903004+22000+120770FM-12+002499999V0200701N006012200019N0150001N1+02901+01801100901ADDAA199000091GF101991011011008001001001MA1999999100631MD1810081+9999REMSYN066AAXX  09031 59559 32565 10706 10290 20180 30063 40090 58008 81100;EQDQ01  00002PRCP99
0163595590999992000050906004+22000+120770FM-12+002499999V0200601N012012200019N0100001N1+02941+01871100691ADDAA199000091GF102991021011008001001001MA1999999100421MD1710211+9999REMSYN066AAXX  09061 59559 32560 20612 10294 20187 30042 40069 57021 82100;EQDQ01  00002PRCP99
0163595590999992000050909004+22000+120770FM-12+002499999V0200401N004010075019N0150001N1+02551+01761100661ADDAA199000091GF108991081051008001999999MA1999999100381MD1510041+9999REMSYN066AAXX  09091 59559 32565 80404 10255 20176 30038 40066 55004 885//;EQDQ01  00002PRCP99
0163595590999992000050912004+22000+120770FM-12+002499999V0203601N004010075019N0120001N1+02441+01741100801ADDAA199000091GF108991081051008001999999MA1999999100521MD1210141+9999REMSYN066AAXX  09121 59559 32562 83604 10244 20174 30052 40080 52014 885//;EQDQ01  00002PRCP99
0163595590999992000050915004+22000+120770FM-12+002499999V0209999C000010075019N0120001N1+02421+01761100791ADDAA199000091GF108991081051008001999999MA1999999100511MD1810011+9999REMSYN066AAXX  09151 59559 32562 80000 10242 20176 30051 40079 58001 885//;EQDQ01  00002PRCP99
0163595590999992000050918004+22000+120770FM-12+002499999V0209999C000010075019N0150001N1+02281+01781100651ADDAA199000091GF106991061051008001001001MA1999999100371MD1810141+9999REMSYN066AAXX  09181 59559 32565 60000 10228 20178 30037 40065 58014 86500;EQDQ01  00002PRCP99
0163595590999992000050921004+22000+120770FM-12+002499999V0200401N001012200019N0150001N1+02101+01741100661ADDAA199000091GF102991021011008001001001MA1999999100381MD1310011+9999REMSYN066AAXX  09211 59559 32565 20401 10210 20174 30038 40066 53001 82100;EQDQ01  00002PRCP99
0163595590999992000051000004+22000+120770FM-12+002499999V0203101N002012200019N0100001N1+02691+01961100721ADDAA199000091GF102991021011008001001001MA1999999100441MD1210061+9999REMSYN066AAXX  10001 59559 32560 23102 10269 20196 30044 40072 52006 82100;EQDQ01  00002PRCP99
0163595590999992000051003004+22000+120770FM-12+002499999V0203001N002012200019N0100001N1+02981+01951100661ADDAA199000091GF102991021011008001001001MA1999999100391MD1810051+9999REMSYN066AAXX  10031 59559 32560 23002 10298 20195 30039 40066 58005 82100;EQDQ01  00002PRCP99
0163595590999992000051006004+22000+120770FM-12+002499999V0203201N003012200019N0200001N1+03061+02211100541ADDAA199000091GF102991021021008001001001MA1999999100271MD1810121+9999REMSYN066AAXX  10061 59559 32570 23203 10306 20221 30027 40054 58012 82200;EQDQ01  00002PRCP99
0163595590999992000051009004+22000+120770FM-12+002499999V0201301N001010075019N0150001N1+02641+01961100581ADDAA199000091GF105991051051008001001001MA1999999100301MD1310031+9999REMSYN066AAXX  10091 59559 32565 51301 10264 20196 30030 40058 53003 85500;EQDQ01  00002PRCP99
0163595590999992000051012004+22000+120770FM-12+002499999V0200701N003010075019N0100001N1+02501+01921100731ADDAA199000091GF106991061051008001001001MA1999999100451MD1110151+9999REMSYN066AAXX  10121 59559 32560 60703 10250 20192 30045 40073 51015 86500;EQDQ01  00002PRCP99
0163595590999992000051015004+22000+120770FM-12+002499999V0200701N004010075019N0100001N1+02501+01951100741ADDAA199000091GF106991061051008001001001MA1999999100461MD1010011+9999REMSYN066AAXX  10151 59559 32560 60704 10250 20195 30046 40074 50001 86500;EQDQ01  00002PRCP99
0163595590999992000051018004+22000+120770FM-12+002499999V0200601N005010075019N0100001N1+02481+01921100621ADDAA199000091GF105991051051008001001001MA1999999100341MD1710121+9999REMSYN066AAXX  10181 59559 32560 50605 10248 20192 30034 40062 57012 85500;EQDQ01  00002PRCP99
0163595590999992000051021004+22000+120770FM-12+002499999V0203601N002010075019N0100001N1+02441+01921100681ADDAA199000091GF108991081051008001999999MA1999999100401MD1310061+9999REMSYN066AAXX  10211 59559 32560 83602 10244 20192 30040 40068 53006 885//;EQDQ01  00002PRCP99
0163595590999992000051100004+22000+120770FM-12+002499999V0203501N003010075019N0150001N1+02531+02001100781ADDAA199000091GF108991081051008001999999MA1999999100501MD1210101+9999REMSYN066AAXX  11001 59559 32565 83503 10253 20200 30050 40078 52010 885//;EQDQ01  00002PRCP99
0163595590999992000051103004+22000+120770FM-12+002499999V0200301N005010075019N0200001N1+02861+01971100721ADDAA199000091GF106991061051008001001001MA1999999100451MD1810051+9999REMSYN066AAXX  11031 59559 32570 60305 10286 20197 30045 40072 58005 86500;EQDQ01  00002PRCP99
0163595590999992000051106004+22000+120770FM-12+002499999V0200701N005010120019N0200001N1+02841+01961100671ADDAA199000091GF108991081051012501999999MA1999999100401MD1810051+9999REMSYN066AAXX  11061 59559 32670 80705 10284 20196 30040 40067 58005 885//;EQDQ01  00002PRCP99
0163595590999992000051109004+22000+120770FM-12+002499999V0200301N006010120019N0200001N1+02591+01871100681ADDAA199000091GF108991081051012501999999MA1999999100401MD1410001+9999REMSYN066AAXX  11091 59559 32670 80306 10259 20187 30040 40068 54000 885//;EQDQ01  00002PRCP99
0163595590999992000051112004+22000+120770FM-12+002499999V0200401N010010075019N0150001N1+02591+01521100791ADDAA199000091GF108991081051008001999999MA1999999100511MD1310111+9999REMSYN066AAXX  11121 59559 32565 80410 10259 20152 30051 40079 53011 885//;EQDQ01  00002PRCP99
0163595590999992000051115004+22000+120770FM-12+002499999V0200401N006010075019N0150001N1+02611+01401100841ADDAA199000091GF108991081051008001999999MA1999999100561MD1010051+9999REMSYN066AAXX  11151 59559 32565 80406 10261 20140 30056 40084 50005 885//;EQDQ01  00002PRCP99
0163595590999992000051118004+22000+120770FM-12+002499999V0200501N006010075019N0150001N1+02561+01451100751ADDAA199000091GF108991081051008001999999MA1999999100471MD1810091+9999REMSYN066AAXX  11181 59559 32565 80506 10256 20145 30047 40075 58009 885//;EQDQ01  00002PRCP99
0163595590999992000051121004+22000+120770FM-12+002499999V0200501N004012200019N0150001N1+02471+01541100721ADDAA199000091GF104991041051008001001001MA1999999100441MD1510031+9999REMSYN066AAXX  11211 59559 32565 40504 10247 20154 30044 40072 55003 84500;EQDQ01  00002PRCP99
0163595590999992000051200004+22000+120770FM-12+002499999V0200501N005010120019N0150001N1+02781+01761100801ADDAA199000091GF105991051051012501001001MA1999999100531MD1210091+9999REMSYN066AAXX  12001 59559 32665 50505 10278 20176 30053 40080 52009 85500;EQDQ01  00002PRCP99
0163595590999992000051203004+22000+120770FM-12+002499999V0200701N004010075019N0150001N1+03061+01731100831ADDAA199000091GF107991071051008001001001MA1999999100561MD1310031+9999REMSYN066AAXX  12031 59559 32565 70704 10306 20173 30056 40083 53003 87500;EQDQ01  00002PRCP99
0163595590999992000051206004+22000+120770FM-12+002499999V0201001N008010075019N0150001N1+02811+01871100681ADDAA199000091GF108991081051008001999999MA1999999100411MD1710151+9999REMSYN066AAXX  12061 59559 32565 81008 10281 20187 30041 40068 57015 885//;EQDQ01  00002PRCP99
0163595590999992000051209004+22000+120770FM-12+002499999V0200601N004010120019N0150001N1+02611+01871100681ADDAA199000091GF108991081051012501999999MA1999999100401MD1510011+9999REMSYN066AAXX  12091 59559 32665 80604 10261 20187 30040 40068 55001 885//;EQDQ01  00002PRCP99
0163595590999992000051212004+22000+120770FM-12+002499999V0200801N007010120019N0150001N1+02531+01901100761ADDAA199000091GF108991081051012501999999MA1999999100481MD1210081+9999REMSYN066AAXX  12121 59559 32665 80807 10253 20190 30048 40076 52008 885//;EQDQ01  00002PRCP99
0163595590999992000051215004+22000+120770FM-12+002499999V0200401N005010120019N0150001N1+02541+01871100851ADDAA199000091GF108991081051012501999999MA1999999100571MD1010091+9999REMSYN066AAXX  12151 59559 32665 80405 10254 20187 30057 40085 50009 885//;EQDQ01  00002PRCP99
0163595590999992000051218004+22000+120770FM-12+002499999V0203601N001012200019N0150001N1+02401+01881100781ADDAA199000091GF104991041051012501001001MA1999999100501MD1510071+9999REMSYN066AAXX  12181 59559 32665 43601 10240 20188 30050 40078 55007 84500;EQDQ01  00002PRCP99
0163595590999992000051221004+22000+120770FM-12+002499999V0200701N001012200019N0150001N1+02311+01891100811ADDAA199000091GF102991021051012501001001MA1999999100531MD1310031+9999REMSYN066AAXX  12211 59559 32665 20701 10231 20189 30053 40081 53003 82500;EQDQ01  00002PRCP99
0163595590999992000051300004+22000+120770FM-12+002499999V0200901N005012200019N0150001N1+02841+02101100891ADDAA199000091GF103991031051017501001001MA1999999100621MD1110091+9999REMSYN066AAXX  13001 59559 32765 30905 10284 20210 30062 40089 51009 83500;EQDQ01  00002PRCP99
0163595590999992000051303004+22000+120770FM-12+002499999V0200901N005010120019N0180001N1+03151+02121100851ADDAA199000091GF106991061051012501001001MA1999999100581MD1810041+9999REMSYN066AAXX  13031 59559 32668 60905 10315 20212 30058 40085 58004 86500;EQDQ01  00002PRCP99
0163595590999992000051306004+22000+120770FM-12+002499999V0200901N005012200019N0200001N1+03241+02101100681ADDAA199000091GF103991011011008001001011MA1999999100411MD1710171+9999REMSYN066AAXX  13061 59559 32570 30905 10324 20210 30041 40068 57017 81101;EQDQ01  00002PRCP99
0163595590999992000051309004+22000+120770FM-12+002499999V0200901N005012200019N0180001N1+02931+01931100721ADDAA199000091GF104991011011008001031011MA1999999100451MD1310041+9999REMSYN066AAXX  13091 59559 32568 40905 10293 20193 30045 40072 53004 81131;EQDQ01  00002PRCP99
0163595590999992000051312004+22000+120770FM-12+002499999V0200601N003012200019N0150001N1+02591+01981100921ADDAA199000091GF102991021001999999031001MA1999999100641MD1110191+9999REMSYN066AAXX  13121 59559 32965 20603 10259 20198 30064 40092 51019 82030;EQDQ01  00002PRCP99
0163595590999992000051315004+22000+120770FM-12+002499999V0200601N002012200019N0150001N1+02581+01871101001ADDAA199000091GF103991031001999999031001MA1999999100721MD1110081+9999REMSYN066AAXX  13151 59559 32965 30602 10258 20187 30072 40100 51008 83030;EQDQ01  00002PRCP99
0163595590999992000051318004+22000+120770FM-12+002499999V0200601N003010120019N0120001N1+02571+01961100851ADDAA199000091GF105991051051012501001001MA1999999100571MD1710151+9999REMSYN066AAXX  13181 59559 32662 50603 10257 20196 30057 40085 57015 85500;EQDQ01  00002PRCP99
0163595590999992000051321004+22000+120770FM-12+002499999V0200901N004010360019N0150001N1+02491+02011100901ADDAA199000091GF107991021051012501011999MA1999999100621MD1310051+9999REMSYN066AAXX  13211 59559 32665 70904 10249 20201 30062 40090 53005 8251/;EQDQ01  00002PRCP99
0163595590999992000051400004+22000+120770FM-12+002499999V0200401N005012200019N0180001N1+02951+02051101051ADDAA199000091GF103991021001999999031011MA1999999100781MD1110161+9999REMSYN066AAXX  14001 59559 32968 30405 10295 20205 30078 40105 51016 82031;EQDQ01  00002PRCP99
0163595590999992000051403004+22000+120770FM-12+002499999V0200701N005019999999N0180001N1+03131+01911101031ADDAA199000091GF106991031001999999031021MA1999999100761MD1810021+9999REMSYN066AAXX  14031 59559 32968 60705 10313 20191 30076 40103 58002 83032;EQDQ01  00002PRCP99
0163595590999992000051406004+22000+120770FM-12+002499999V0200701N005019999999N0180001N1+03091+01791100851ADDAA199000091GF106991001001999999001021MA1999999100581MD1710181+9999REMSYN066AAXX  14061 59559 32968 60705 10309 20179 30058 40085 57018 80002;EQDQ01  00002PRCP99
0163595590999992000051409004+22000+120770FM-12+002499999V0200601N006010360019N0180001N1+02871+02131100811ADDAA199000091GF106991021011008001031011MA1999999100541MD1510041+9999REMSYN066AAXX  14091 59559 32568 60606 10287 20213 30054 40081 55004 82131;EQDQ01  00002PRCP99
0163595590999992000051412004+22000+120770FM-12+002499999V0200401N005010120019N0150001N1+02641+02101100941ADDAA199000091GF106991061051012501001001MA1999999100661MD1210121+9999REMSYN066AAXX  14121 59559 32665 60405 10264 20210 30066 40094 52012 86500;EQDQ01  00002PRCP99
0163595590999992000051415004+22000+120770FM-12+002499999V0200601N004010120019N0120001N1+02641+02151101031ADDAA199000091GF106991061051012501001001MA1999999100751MD1010091+9999REMSYN066AAXX  14151 59559 32662 60604 10264 20215 30075 40103 50009 86500;EQDQ01  00002PRCP99
0163595590999992000051418004+22000+120770FM-12+002499999V0200701N004010120019N0120001N1+02601+02061100821ADDAA199000091GF106991061051012501001001MA1999999100541MD1710211+9999REMSYN066AAXX  14181 59559 32662 60704 10260 20206 30054 40082 57021 86500;EQDQ01  00002PRCP99
0163595590999992000051421004+22000+120770FM-12+002499999V0200701N003010120019N0120001N1+02591+02061100821ADDAA199000091GF107991071051012501999999MA1999999100541MD1410001+9999REMSYN066AAXX  14211 59559 32662 70703 10259 20206 30054 40082 54000 875//;EQDQ01  00002PRCP99
0163595590999992000051500004+22000+120770FM-12+002499999V0200701N008010120019N0150001N1+02811+02171100881ADDAA199000091GF106991061051012501001001MA1999999100611MD1210071+9999REMSYN066AAXX  15001 59559 32665 60708 10281 20217 30061 40088 52007 86500;EQDQ01  00002PRCP99
0163595590999992000051503004+22000+120770FM-12+002499999V0200601N006010075019N0180001N1+02951+02151100911ADDAA199000091GF107991051021008001031001MA1999999100641MD1010031+9999REMSYN066AAXX  15031 59559 32568 70606 10295 20215 30064 40091 50003 85230;EQDQ01  00002PRCP99
0163595590999992000051506004+22000+120770FM-12+002499999V0200901N006010075019N0200001N1+02541+02291100811ADDAA199000091GF108991081051008001999999MA1999999100531MD1810111+9999REMSYN066AAXX  15061 59559 32570 80906 10254 20229 30053 40081 58011 885//;EQDQ01  00002PRCP99
0163595590999992000051509004+22000+120770FM-12+002499999V0200701N003010075019N0150001N1+02651+02121100671ADDAA199000091GF108991081051008001999999MA1999999100391MD1610141+9999REMSYN066AAXX  15091 59559 32565 80703 10265 20212 30039 40067 56014 885//;EQDQ01  00002PRCP99
0163595590999992000051512004+22000+120770FM-12+002499999V0200601N010010075019N0100001N1+02581+02061100771ADDAA199000091GF108991081051008001999999MA1999999100491MD1110101+9999REMSYN066AAXX  15121 59559 32560 80610 10258 20206 30049 40077 51010 885//;EQDQ01  00002PRCP99
0163595590999992000051515004+22000+120770FM-12+002499999V0200601N006010075019N0100001N1+02611+02041100811ADDAA199000091GF106991061051008001001001MA1999999100531MD1010041+9999REMSYN066AAXX  15151 59559 32560 60606 10261 20204 30053 40081 50004 86500;EQDQ01  00002PRCP99
0163595590999992000051518004+22000+120770FM-12+002499999V0200501N012010075019N0100001N1+02641+02051100601ADDAA199000091GF108991081051008001999999MA1999999100321MD1810211+9999REMSYN066AAXX  15181 59559 32560 80512 10264 20205 30032 40060 58021 885//;EQDQ01  00002PRCP99
0163595590999992000051521004+22000+120770FM-12+002499999V0200101N007010075019N0100001N1+02581+02061100581ADDAA199000091GF108991081051008001999999MA1999999100301MD1510021+9999REMSYN066AAXX  15211 59559 32560 80107 10258 20206 30030 40058 55002 885//;EQDQ01  00002PRCP99
0163595590999992000051609004+22000+120770FM-12+002499999V0200301N003012200019N0150001N1+03031+02021100351ADDAA199000091GF102991021021008001001001MA1999999100081MD1810121+9999REMSYN066AAXX  16091 59559 32565 20303 10303 20202 30008 40035 58012 82200;EQDQ01  00002PRCP99
0163595590999992000051612004+22000+120770FM-12+002499999V0200601N006012200019N0150001N1+02711+02151100471ADDAA199000091GF103991031051008001001001MA1999999100201MD1110121+9999REMSYN066AAXX  16121 59559 32565 30606 10271 20215 30020 40047 51012 83500;EQDQ01  00002PRCP99
0163595590999992000051615004+22000+120770FM-12+002499999V0200501N002012200019N0150001N1+02661+02121100531ADDAA199000091GF102991021051008001001001MA1999999100251MD1010051+9999REMSYN066AAXX  16151 59559 32565 20502 10266 20212 30025 40053 50005 82500;EQDQ01  00002PRCP99
0173595590999992000051618004+22000+120770FM-12+002499999V0200201N002012200019N0150001N1+02541+02091100481ADDAA199000091GA1001+999999999GF100991001001999999001001MA1999999100201MD1710051+9999REMSYN060AAXX  16181 59559 32965 00202 10254 20209 30020 40048 57005;EQDQ01  00002PRCP99
0173595590999992000051621004+22000+120770FM-12+002499999V0200501N001012200019N0150001N1+02381+01991100451ADDAA199000091GA1001+999999999GF100991001001999999001001MA1999999100171MD1510031+9999REMSYN060AAXX  16211 59559 32965 00501 10238 20199 30017 40045 55003;EQDQ01  00002PRCP99
0163595590999992000051700004+22000+120770FM-12+002499999V0200101N003012200019N0250001N1+02971+02151100551ADDAA199000091GF104991011011008001041001MA1999999100281MD1110111+9999REMSYN066AAXX  17001 59559 32575 40103 10297 20215 30028 40055 51011 81140;EQDQ01  00002PRCP99
0163595590999992000051703004+22000+120770FM-12+002499999V0200501N005010075019N0250001N1+03141+02241100571ADDAA199000091GF106991061041008001001001MA1999999100301MD1010021+9999REMSYN066AAXX  17031 59559 32575 60505 10314 20224 30030 40057 50002 86400;EQDQ01  00002PRCP99
0163595590999992000051706004+22000+120770FM-12+002499999V0200301N004010075019N0150001N1+02971+02211100491ADDAA199000091GF108991081051008001999999MA1999999100221MD1710081+9999REMSYN066AAXX  17061 59559 32565 80304 10297 20221 30022 40049 57008 885//;EQDQ01  00002PRCP99
0163595590999992000051709004+22000+120770FM-12+002499999V0200301N009010900019N0150001N1+02771+02121100431ADDAA199000091GF107991021041008001001081MA1999999100161MD1710061+9999REMSYN066AAXX  17091 59559 32565 70309 10277 20212 30016 40043 57006 82408;EQDQ01  00002PRCP99
0163595590999992000051712004+22000+120770FM-12+002499999V0200401N007012200019N0150001N1+02661+02111100611ADDAA199000091GF103991031021008001001001MA1999999100331MD1210171+9999REMSYN066AAXX  17121 59559 32565 30407 10266 20211 30033 40061 52017 83200;EQDQ01  00002PRCP99
0163595590999992000051715004+22000+120770FM-12+002499999V0200401N007010360019N0150001N1+02551+02101100731ADDAA199000091GF106991021011008001011001MA1999999100451MD1010121+9999REMSYN066AAXX  17151 59559 32565 60407 10255 20210 30045 40073 50012 82110;EQDQ01  00002PRCP99
0163595590999992000051718004+22000+120770FM-12+002499999V0200301N011010075019N0150001N1+02531+01931100601ADDAA199000091GF105991051051008001001001MA1999999100321MD1610131+9999REMSYN066AAXX  17181 59559 32565 50311 10253 20193 30032 40060 56013 85500;EQDQ01  00002PRCP99
0163595590999992000051721004+22000+120770FM-12+002499999V0203101N001012200019N0150001N1+02431+01951100581ADDAA199000091GF102991021011008001001001MA1999999100301MD1510021+9999REMSYN066AAXX  17211 59559 32565 23101 10243 20195 30030 40058 55002 82100;EQDQ01  00002PRCP99
0163595590999992000051800004+22000+120770FM-12+002499999V0200301N008012200019N0100001N1+02811+02071100651ADDAA199000091GF102991021011008001001001MA1999999100381MD1110081+9999REMSYN066AAXX  18001 59559 32560 20308 10281 20207 30038 40065 51008 82100;EQDQ01  00002PRCP99
0163595590999992000051803004+22000+120770FM-12+002499999V0200401N006012200019N0150001N1+03021+02091100651ADDAA199000091GF103991021011008001001011MA1999999100381MD1410001+9999REMSYN066AAXX  18031 59559 32565 30406 10302 20209 30038 40065 54000 82101;EQDQ01  00002PRCP99
0163595590999992000051806004+22000+120770FM-12+002499999V0200301N008012200019N0150001N1+03251+02121100471ADDAA199000091GF106991021011008001001061MA1999999100201MD1810181+9999REMSYN066AAXX  18061 59559 32565 60308 10325 20212 30020 40047 58018 82106;EQDQ01  00002PRCP99
0163595590999992000051809004+22000+120770FM-12+002499999V0200301N004010900019N0150001N1+02791+02011100501ADDAA199000091GF108991031051008001001061MA1999999100231MD1010031+9999REMSYN066AAXX  18091 59559 32565 80304 10279 20201 30023 40050 50003 83506;EQDQ01  00002PRCP99
0163595590999992000051812004+22000+120770FM-12+002499999V0200201N004012200019N0150001N1+02591+02001100641ADDAA199000091GF102991021051008001001001MA1999999100361MD1110131+9999REMSYN066AAXX  18121 59559 32565 20204 10259 20200 30036 40064 51013 82500;EQDQ01  00002PRCP99
0163595590999992000051815004+22000+120770FM-12+002499999V0200501N001012200019N0150001N1+02521+01981100711ADDAA199000091GF102991021051012501001001MA1999999100431MD1010071+9999REMSYN066AAXX  18151 59559 32665 20501 10252 20198 30043 40071 50007 82500;EQDQ01  00002PRCP99
0173595590999992000051818004+22000+120770FM-12+002499999V0200101N001012200019N0150001N1+02401+01931100511ADDAA199000091GA1001+999999999GF100991001001999999001001MA1999999100231MD1710201+9999REMSYN060AAXX  18181 59559 32965 00101 10240 20193 30023 40051 57020;EQDQ01  00002PRCP99
0163595590999992000051821004+22000+120770FM-12+002499999V0200301N003012200019N0150001N1+02281+01921100491ADDAA199000091GF103991031051008001001001MA1999999100211MD1510021+9999REMSYN066AAXX  18211 59559 32565 30303 10228 20192 30021 40049 55002 83500;EQDQ01  00002PRCP99
0163595590999992000051900004+22000+120770FM-12+002499999V0209999C000012200019N0120001N1+02841+02131100611ADDAA199000091GF102991021051008001001001MA1999999100341MD1110131+9999REMSYN066AAXX  19001 59559 32562 20000 10284 20213 30034 40061 51013 82500;EQDQ01  00002PRCP99
0163595590999992000051903004+22000+120770FM-12+002499999V0202101N003012200019N0120001N1+03191+02181100581ADDAA199000091GF102991021041008001001001MA1999999100311MD1810031+9999REMSYN066AAXX  19031 59559 32562 22103 10319 20218 30031 40058 58003 82400;EQDQ01  00002PRCP99
0163595590999992000051906004+22000+120770FM-12+002499999V0202601N007010075019N0200001N1+03021+02231100561ADDAA199000091GF106991061051008001001001MA1999999100291MD1810021+9999REMSYN066AAXX  19061 59559 32570 62607 10302 20223 30029 40056 58002 86500;EQDQ01  00002PRCP99
0163595590999992000051909004+22000+120770FM-12+002499999V0201001N003010075019N0150001N1+02761+02161100541ADDAA199000091GF108991081051008001999999MA1999999100271MD1510021+9999REMSYN066AAXX  19091 59559 32565 81003 10276 20216 30027 40054 55002 885//;EQDQ01  00002PRCP99
0163595590999992000051912004+22000+120770FM-12+002499999V0200601N002010075019N0100001N1+02531+02111100741ADDAA199000091GF106991061051008001001001MA1999999100461MD1310191+9999REMSYN066AAXX  19121 59559 32560 60602 10253 20211 30046 40074 53019 86500;EQDQ01  00002PRCP99
0163595590999992000051915004+22000+120770FM-12+002499999V0200501N005010075019N0100001N1+02401+02021100791ADDAA199000091GF106991061051008001001001MA1999999100511MD1010051+9999REMSYN066AAXX  19151 59559 32560 60505 10240 20202 30051 40079 50005 86500;EQDQ01  00002PRCP99
0163595590999992000051918004+22000+120770FM-12+002499999V0200401N003012200019N0100001N1+02361+01851100671ADDAA199000091GF104991041041008001001001MA1999999100391MD1710121+9999REMSYN066AAXX  19181 59559 32560 40403 10236 20185 30039 40067 57012 84400;EQDQ01  00002PRCP99
0163595590999992000051921004+22000+120770FM-12+002499999V0200701N005010075019N0100001N1+02491+01911100731ADDAA199000091GF106991061051008001001001MA1999999100451MD1210061+9999REMSYN066AAXX  19211 59559 32560 60705 10249 20191 30045 40073 52006 86500;EQDQ01  00002PRCP99
0163595590999992000052000004+22000+120770FM-12+002499999V0200601N014010075019N0150001N1+02601+01861100851ADDAA199000091GF106991061051008001001001MA1999999100571MD1110121+9999REMSYN066AAXX  20001 59559 32565 60614 10260 20186 30057 40085 51012 86500;EQDQ01  00002PRCP99
0163595590999992000052003004+22000+120770FM-12+002499999V0200501N008012200019N0200001N1+02811+01791100851ADDAA199000091GF104991041051008001001001MA1999999100581MD1010011+9999REMSYN066AAXX  20031 59559 32570 40508 10281 20179 30058 40085 50001 84500;EQDQ01  00002PRCP99
0163595590999992000052006004+22000+120770FM-12+002499999V0200301N009010075019N0150001N1+02501+01701100761ADDAA199000091GF108991081051008001999999MA1999999100481MD1710101+9999REMSYN066AAXX  20061 59559 32565 80309 10250 20170 30048 40076 57010 885//;EQDQ01  00002PRCP99
0178595590999992000052009004+22000+120770FM-12+002499999V0200301N010010075019N0100001N1+02151+01751100721ADDAA100002091AY161031AY261031GF108991081071008001999999MA1999999100441MD1810041+9999MW1611REMSYN078AAXX  20091 59559 11560 80310 10215 20175 30044 40072 58004 6002/ 76166 887//;
0178595590999992000052012004+22000+120770FM-12+002499999V0200501N009010075019N0100001N1+02031+01851100911ADDAA112005191AY161061AY261061GF108991081071008001999999MA1999999100631MD1210191+9999MW1611REMSYN078AAXX  20121 59559 11560 80509 10203 20185 30063 40091 52019 60052 76166 887//;
0178595590999992000052015004+22000+120770FM-12+002499999V0200601N019010075019N0100001N1+02091+01701100921ADDAA100003091AY161031AY261031GF108991081071008001999999MA1999999100641MD1010011+9999MW1611REMSYN078AAXX  20151 59559 11560 80619 10209 20170 30064 40092 50001 6003/ 76166 887//;
0178595590999992000052018004+22000+120770FM-12+002499999V0200501N009010075019N0100001N1+02221+01581100771ADDAA106005191AY161061AY261061GF108991081071008001999999MA1999999100491MD1610151+9999MW1611REMSYN078AAXX  20181 59559 11560 80509 10222 20158 30049 40077 56015 60051 76166 887//;
0178595590999992000052021004+22000+120770FM-12+002499999V0200401N007010075019N0100001N1+02241+01611100811ADDAA100006191AY161031AY261031GF108991081071008001999999MA1999999100531MD1010041+9999MW1611REMSYN078AAXX  20211 59559 11560 80407 10224 20161 30053 40081 50004 6006/ 76166 887//;
0178595590999992000052100004+22000+120770FM-12+002499999V0200301N018010075019N0150001N1+02491+01711100821ADDAA112007991AY161061AY221061GF108991081051008001999999MA1999999100541MD1310011+9999MW1021REMSYN078AAXX  21001 59559 11565 80318 10249 20171 30054 40082 53001 60082 70262 885//;
0144595590999992000052103004+22000+120770FM-12+002499999V0200401N009010075019N0200001N1+02751+01821100691ADDAA199000021GF108991081051008001999999MA1999999100421MD1810121+9999REMSYN066AAXX  21031 59559 32570 80409 10275 20182 30042 40069 58012 885//;
0144595590999992000052106004+22000+120770FM-12+002499999V0200501N009010075019N0200001N1+02681+01861100711ADDAA199000021GF108991081051008001999999MA1999999100431MD1010011+9999REMSYN066AAXX  21061 59559 32570 80509 10268 20186 30043 40071 50001 885//;
0144595590999992000052109004+22000+120770FM-12+002499999V0200401N005010120019N0180001N1+02531+01911100701ADDAA199000021GF108991081051012501999999MA1999999100421MD1510011+9999REMSYN066AAXX  21091 59559 32668 80405 10253 20191 30042 40070 55001 885//;
0163595590999992000052112004+22000+120770FM-12+002499999V0203601N007010075019N0150001N1+02481+01811100771ADDAA199000091GF108991081051008001999999MA1999999100491MD1110071+9999REMSYN066AAXX  21121 59559 32565 83607 10248 20181 30049 40077 51007 885//;EQDQ01  00002PRCP99
0163595590999992000052115004+22000+120770FM-12+002499999V0200101N003010120019N0150001N1+02451+01771100901ADDAA199000091GF108991081051012501999999MA1999999100621MD1010131+9999REMSYN066AAXX  21151 59559 32665 80103 10245 20177 30062 40090 50013 885//;EQDQ01  00002PRCP99
0163595590999992000052118004+22000+120770FM-12+002499999V0200101N005010120019N0150001N1+02431+01811100841ADDAA199000091GF107991071051012501001001MA1999999100561MD1510061+9999REMSYN066AAXX  21181 59559 32665 70105 10243 20181 30056 40084 55006 87500;EQDQ01  00002PRCP99
0163595590999992000052121004+22000+120770FM-12+002499999V0203201N001012200019N0200001N1+02331+01841100811ADDAA199000091GF102991021051012501001001MA1999999100531MD1510031+9999REMSYN066AAXX  21211 59559 32670 23201 10233 20184 30053 40081 55003 82500;EQDQ01  00002PRCP99
0163595590999992000052200004+22000+120770FM-12+002499999V0200201N006012200019N0250001N1+02741+02011100961ADDAA199000091GF104991011011008001031001MA1999999100681MD1110151+9999REMSYN066AAXX  22001 59559 32575 40206 10274 20201 30068 40096 51015 81130;EQDQ01  00002PRCP99
0163595590999992000052203004+22000+120770FM-12+002499999V0200101N004010075019N0250001N1+02841+02081101071ADDAA199000091GF108991081051008001999999MA1999999100791MD1310111+9999REMSYN066AAXX  22031 59559 32575 80104 10284 20208 30079 40107 53011 885//;EQDQ01  00002PRCP99
0163595590999992000052206004+22000+120770FM-12+002499999V0200301N005010075019N0250001N1+02711+02001101051ADDAA199000091GF108991081051008001999999MA1999999100771MD1510021+9999REMSYN066AAXX  22061 59559 32575 80305 10271 20200 30077 40105 55002 885//;EQDQ01  00002PRCP99
0163595590999992000052209004+22000+120770FM-12+002499999V0200301N006010075019N0200001N1+02631+01981100981ADDAA199000091GF107991071051008001001001MA1999999100701MD1510071+9999REMSYN066AAXX  22091 59559 32570 70306 10263 20198 30070 40098 55007 87500;EQDQ01  00002PRCP99
0163595590999992000052215004+22000+120770FM-12+002499999V0200401N009010075019N0150001N1+02491+01861101121ADDAA199000091GF108991081051008001999999MA1999999100841MD1010031+9999REMSYN066AAXX  22151 59559 32565 80409 10249 20186 30084 40112 50003 885//;EQDQ01  00002PRCP99
0163595590999992000052218004+22000+120770FM-12+002499999V0200301N006010120019N0150001N1+02491+01801100981ADDAA199000091GF107991071051012501001001MA1999999100701MD1710141+9999REMSYN066AAXX  22181 59559 32665 70306 10249 20180 30070 40098 57014 87500;EQDQ01  00002PRCP99
0163595590999992000052221004+22000+120770FM-12+002499999V0203601N001010075019N0150001N1+02451+01841101021ADDAA199000091GF108991081051008001999999MA1999999100741MD1310041+9999REMSYN066AAXX  22211 59559 32565 83601 10245 20184 30074 40102 53004 885//;EQDQ01  00002PRCP99
0163595590999992000052300004+22000+120770FM-12+002499999V0200301N011010120019N0250001N1+02621+01891101101ADDAA199000091GF107991071051012501001001MA1999999100821MD1010081+9999REMSYN066AAXX  23001 59559 32675 70311 10262 20189 30082 40110 50008 87500;EQDQ01  00002PRCP99
0163595590999992000052303004+22000+120770FM-12+002499999V0200701N004010120019N0250001N1+02881+02001101141ADDAA199000091GF108991081051012501999999MA1999999100871MD1010051+9999REMSYN066AAXX  23031 59559 32675 80704 10288 20200 30087 40114 50005 885//;EQDQ01  00002PRCP99
0163595590999992000052306004+22000+120770FM-12+002499999V0200701N005010075019N0250001N1+02901+01991100981ADDAA199000091GF107991071051008001999999MA1999999100711MD1710161+9999REMSYN066AAXX  23061 59559 32575 70705 10290 20199 30071 40098 57016 875//;EQDQ01  00002PRCP99
0163595590999992000052309004+22000+120770FM-12+002499999V0200801N004010075019N0180001N1+02681+01961100971ADDAA199000091GF108991081051008001999999MA1999999100691MD1510021+9999REMSYN066AAXX  23091 59559 32568 80804 10268 20196 30069 40097 55002 885//;EQDQ01  00002PRCP99
0163595590999992000052312004+22000+120770FM-12+002499999V0200301N002010075019N0150001N1+02591+01931101091ADDAA199000091GF107991071051008001999999MA1999999100811MD1210121+9999REMSYN066AAXX  23121 59559 32565 70302 10259 20193 30081 40109 52012 875//;EQDQ01  00002PRCP99
0163595590999992000052315004+22000+120770FM-12+002499999V0200201N002010075019N0150001N1+02581+01971101151ADDAA199000091GF107991071051008001999999MA1999999100871MD1010061+9999REMSYN066AAXX  23151 59559 32565 70202 10258 20197 30087 40115 50006 875//;EQDQ01  00002PRCP99
0163595590999992000052318004+22000+120770FM-12+002499999V0200601N003010120019N0150001N1+02571+01911100991ADDAA199000091GF106991061051012501001001MA1999999100711MD1710161+9999REMSYN066AAXX  23181 59559 32665 60603 10257 20191 30071 40099 57016 86500;EQDQ01  00002PRCP99
0163595590999992000052400004+22000+120770FM-12+002499999V0200801N006010120019N0180001N1+02691+02021101121ADDAA199000091GF107991071051012501999999MA1999999100841MD1110141+9999REMSYN066AAXX  24001 59559 32668 70806 10269 20202 30084 40112 51014 875//;EQDQ01  00002PRCP99
0163595590999992000052403004+22000+120770FM-12+002499999V0200701N006010360019N0250001N1+03021+02101101071ADDAA199000091GF105991021011008001031001MA1999999100801MD1810041+9999REMSYN066AAXX  24031 59559 32575 50706 10302 20210 30080 40107 58004 82130;EQDQ01  00002PRCP99
0163595590999992000052406004+22000+120770FM-12+002499999V0200901N005010360019N0250001N1+03091+02121100921ADDAA199000091GF106991021011008001031001MA1999999100651MD1710151+9999REMSYN066AAXX  24061 59559 32575 60905 10309 20212 30065 40092 57015 82130;EQDQ01  00002PRCP99
0163595590999992000052409004+22000+120770FM-12+002499999V0200501N007010360019N0200001N1+02791+02051100831ADDAA199000091GF106991011011008001031011MA1999999100561MD1610091+9999REMSYN066AAXX  24091 59559 32570 60507 10279 20205 30056 40083 56009 81131;EQDQ01  00002PRCP99
0163595590999992000052412004+22000+120770FM-12+002499999V0200401N003012200019N0180001N1+02571+02091100921ADDAA199000091GF102991021051012501001001MA1999999100641MD1110081+9999REMSYN066AAXX  24121 59559 32668 20403 10257 20209 30064 40092 51008 82500;EQDQ01  00002PRCP99
0163595590999992000052415004+22000+120770FM-12+002499999V0200601N001012200019N0150001N1+02521+02081100981ADDAA199000091GF102991021051012501001001MA1999999100701MD1010061+9999REMSYN066AAXX  24151 59559 32665 20601 10252 20208 30070 40098 50006 82500;EQDQ01  00002PRCP99
0163595590999992000052418004+22000+120770FM-12+002499999V0200701N002012200019N0150001N1+02511+02111100881ADDAA199000091GF103991031051012501001001MA1999999100601MD1710101+9999REMSYN066AAXX  24181 59559 32665 30702 10251 20211 30060 40088 57010 83500;EQDQ01  00002PRCP99
0163595590999992000052421004+22000+120770FM-12+002499999V0200901N003012200019N0180001N1+02471+02121100821ADDAA199000091GF103991031051012501001001MA1999999100541MD1510061+9999REMSYN066AAXX  24211 59559 32668 30903 10247 20212 30054 40082 55006 83500;EQDQ01  00002PRCP99
0163595590999992000052500004+22000+120770FM-12+002499999V0200701N006010360019N0200001N1+02831+02151100911ADDAA199000091GF106991021011008001031011MA1999999100641MD1110101+9999REMSYN066AAXX  25001 59559 32570 60706 10283 20215 30064 40091 51010 82131;EQDQ01  00002PRCP99
0163595590999992000052503004+22000+120770FM-12+002499999V0200801N007010900019N0250001N1+03131+02241100861ADDAA199000091GF106991021011008001001021MA1999999100591MD1810051+9999REMSYN066AAXX  25031 59559 32575 60807 10313 20224 30059 40086 58005 82102;EQDQ01  00002PRCP99
0163595590999992000052506004+22000+120770FM-12+002499999V0200901N010012200019N0200001N1+02991+02241100721ADDAA199000091GF104991041051008001001001MA1999999100451MD1710141+9999REMSYN066AAXX  25061 59559 32570 40910 10299 20224 30045 40072 57014 84500;EQDQ01  00002PRCP99
0163595590999992000052509004+22000+120770FM-12+002499999V0201201N004010075019N0150001N1+02651+02191100701ADDAA199000091GF105991051051008001001001MA1999999100421MD1510031+9999REMSYN066AAXX  25091 59559 32565 51204 10265 20219 30042 40070 55003 85500;EQDQ01  00002PRCP99
0178595590999992000052512004+22000+120770FM-12+002499999V0200901N005010075019N0100001N1+02411+02261100831ADDAA112018091AY161061AY221061GF108991081071008001999999MA1999999100551MD1110131+9999MW1601REMSYN078AAXX  25121 59559 11560 80905 10241 20226 30055 40083 51013 60182 76062 887//;
0178595590999992000052515004+22000+120770FM-12+002499999V0200701N003010075019N0100001N1+02431+02261100861ADDAA100003091AY161031AY221031GF108991081071008001999999MA1999999100581MD1010031+9999MW1601REMSYN078AAXX  25151 59559 11560 80703 10243 20226 30058 40086 50003 6003/ 76062 887//;
0150595590999992000052518004+22000+120770FM-12+002499999V0200701N002010075019N0100001N1+02471+02261100681ADDAA106003091GF108991081061008001999999MA1999999100401MD1710181+9999REMSYN072AAXX  25181 59559 12560 80702 10247 20226 30040 40068 57018 60031 886//;
0178595590999992000052521004+22000+120770FM-12+002499999V0200701N001010075019N0100001N1+02431+02291100701ADDAA100005191AY161031AY221031GF108991081071008001999999MA1999999100421MD1010021+9999MW1601REMSYN078AAXX  25211 59559 11560 80701 10243 20229 30042 40070 50002 6005/ 76062 887//;
0197595590999992000052600004+22000+120770FM-12+002499999V0202401N003010075019N0150001N1+02741+02541100821ADDAA112073991AY161061AY221061GF108991999061008001021001MA1999999100541MD1210121+9999MW1211REMSYN078AAXX  26001 59559 11565 82403 10274 20254 30054 40082 52012 60742 72162 88620;EQDQ01+000082SCOTLC
0144595590999992000052603004+22000+120770FM-12+002499999V0202401N005010075019N0150001N1+02891+02421100841ADDAA199000021GF107991071041008001001001MA1999999100571MD1210031+9999REMSYN066AAXX  26031 59559 32565 72405 10289 20242 30057 40084 52003 87400;
0144595590999992000052606004+22000+120770FM-12+002499999V0202301N004010075019N0200001N1+02941+02471100761ADDAA199000021GF106991061051008001001001MA1999999100491MD1810081+9999REMSYN066AAXX  26061 59559 32570 62304 10294 20247 30049 40076 58008 86500;
0144595590999992000052609004+22000+120770FM-12+002499999V0202401N004010075019N0150001N1+02831+02431100701ADDAA199000021GF108991081051008001999999MA1999999100431MD1510061+9999REMSYN066AAXX  26091 59559 32565 82404 10283 20243 30043 40070 55006 885//;
0163595590999992000052615004+22000+120770FM-12+002499999V0202201N001012200019N0150001N1+02691+02441100811ADDAA199000091GF102991021051008001001001MA1999999100531MD1010011+9999REMSYN066AAXX  26151 59559 32565 22201 10269 20244 30053 40081 50001 82500;EQDQ01  00002PRCP99
0163595590999992000052618004+22000+120770FM-12+002499999V0202701N003010075019N0150001N1+02641+02381100691ADDAA199000091GF106991061051008001001001MA1999999100411MD1610121+9999REMSYN066AAXX  26181 59559 32565 62703 10264 20238 30041 40069 56012 86500;EQDQ01  00002PRCP99
0163595590999992000052621004+22000+120770FM-12+002499999V0202701N003010042019N0150001N1+02641+02371100791ADDAA199000091GF107991071051004501001001MA1999999100511MD1310101+9999REMSYN066AAXX  26211 59559 32465 72703 10264 20237 30051 40079 53010 87500;EQDQ01  00002PRCP99
0163595590999992000052700004+22000+120770FM-12+002499999V0202501N003010042019N0150001N1+02791+02441100961ADDAA199000091GF108991081041004501999999MA1999999100681MD1110171+9999REMSYN066AAXX  27001 59559 32465 82503 10279 20244 30068 40096 51017 884//;EQDQ01  00002PRCP99
0163595590999992000052703004+22000+120770FM-12+002499999V0202501N004010042019N0150001N1+02761+02451100971ADDAA199000091GF108991081041004501999999MA1999999100691MD1010011+9999REMSYN066AAXX  27031 59559 32465 82504 10276 20245 30069 40097 50001 884//;EQDQ01  00002PRCP99
0163595590999992000052706004+22000+120770FM-12+002499999V0202701N008010360019N0200001N1+03011+02501100811ADDAA199000091GF107991031041004501061001MA1999999100541MD1810151+9999REMSYN066AAXX  27061 59559 32470 72708 10301 20250 30054 40081 58015 83460;EQDQ01  00002PRCP99
0163595590999992000052709004+22000+120770FM-12+002499999V0202601N009010360019N0200001N1+02891+02471100701ADDAA199000091GF106991031041004501031001MA1999999100431MD1710111+9999REMSYN066AAXX  27091 59559 32470 62609 10289 20247 30043 40070 57011 83430;EQDQ01  00002PRCP99
0163595590999992000052712004+22000+120770FM-12+002499999V0202801N002012200019N0150001N1+02711+02441100901ADDAA199000091GF101991011011008001001001MA1999999100621MD1210191+9999REMSYN066AAXX  27121 59559 32565 12802 10271 20244 30062 40090 52019 81100;EQDQ01  00002PRCP99
0163595590999992000052715004+22000+120770FM-12+002499999V0209999C000012200019N0150001N1+02661+02461100971ADDAA199000091GF102991021011008001001001MA1999999100691MD1010071+9999REMSYN066AAXX  27151 59559 32565 20000 10266 20246 30069 40097 50007 82100;EQDQ01  00002PRCP99
0163595590999992000052718004+22000+120770FM-12+002499999V0209999C000012200019N0150001N1+02621+02461100881ADDAA199000091GF102991021011008001001001MA1999999100601MD1710091+9999REMSYN066AAXX  27181 59559 32565 20000 10262 20246 30060 40088 57009 82100;EQDQ01  00002PRCP99
0163595590999992000052721004+22000+120770FM-12+002499999V0209999C000010042019N0150001N1+02551+02421100921ADDAA199000091GF105991051041004501001001MA1999999100641MD1310041+9999REMSYN066AAXX  27211 59559 32465 50000 10255 20242 30064 40092 53004 85400;EQDQ01  00002PRCP99
0163595590999992000052800004+22000+120770FM-12+002499999V0203001N001012200019N0200001N1+02841+02471101071ADDAA199000091GF105991031041008001001011MA1999999100791MD1210151+9999REMSYN066AAXX  28001 59559 32570 53001 10284 20247 30079 40107 52015 83401;EQDQ01  00002PRCP99
0163595590999992000052803004+22000+120770FM-12+002499999V0202601N003010900019N0250001N1+03201+02321101041ADDAA199000091GF106991011011008001001081MA1999999100771MD1810021+9999REMSYN066AAXX  28031 59559 32575 62603 10320 20232 30077 40104 58002 81108;EQDQ01  00002PRCP99
0163595590999992000052806004+22000+120770FM-12+002499999V0202601N003010900019N0250001N1+03141+02341100881ADDAA199000091GF106991011011008001001081MA1999999100611MD1710161+9999REMSYN066AAXX  28061 59559 32575 62603 10314 20234 30061 40088 57016 81108;EQDQ01  00002PRCP99
0163595590999992000052809004+22000+120770FM-12+002499999V0203301N003010900019N0250001N1+02921+02421100821ADDAA199000091GF107991011011008001001061MA1999999100551MD1510061+9999REMSYN066AAXX  28091 59559 32575 73303 10292 20242 30055 40082 55006 81106;EQDQ01  00002PRCP99
0163595590999992000052812004+22000+120770FM-12+002499999V0200701N003010900019N0200001N1+02801+02381101081ADDAA199000091GF107991011011008001001081MA1999999100801MD1210251+9999REMSYN066AAXX  28121 59559 32570 70703 10280 20238 30080 40108 52025 81108;EQDQ01  00002PRCP99
0163595590999992000052815004+22000+120770FM-12+002499999V0200601N001012200019N0200001N1+02691+02341101151ADDAA199000091GF102991021051008001001001MA1999999100871MD1010071+9999REMSYN066AAXX  28151 59559 32570 20601 10269 20234 30087 40115 50007 82500;EQDQ01  00002PRCP99
0163595590999992000052818004+22000+120770FM-12+002499999V0203401N001012200019N0200001N1+02681+02301101011ADDAA199000091GF102991021051008001001001MA1999999100731MD1510141+9999REMSYN066AAXX  28181 59559 32570 23401 10268 20230 30073 40101 55014 82500;EQDQ01  00002PRCP99
0163595590999992000052821004+22000+120770FM-12+002499999V0200201N001010075019N0200001N1+02671+02291101031ADDAA199000091GF108991081051008001999999MA1999999100751MD1310021+9999REMSYN066AAXX  28211 59559 32570 80201 10267 20229 30075 40103 53002 885//;EQDQ01  00002PRCP99
0162595590999992000052900004+22000+120770FM-12+002499999V0201101N003012200019N0200001N1+03071+02481101161ADDAA199000091GF105991041021008001001011MA1999999100891MD1110141+9999REMSYN065AAXX  29001 59559 32570 51103 10307 20248 30089 40116 5101484201;EQDQ01  00002PRCP99
0163595590999992000052903004+22000+120770FM-12+002499999V0201301N004012200019N0250001N1+03281+02451101141ADDAA199000091GF105991041021008001001011MA1999999100871MD1810021+9999REMSYN066AAXX  29031 59559 32575 51304 10328 20245 30087 40114 58002 84201;EQDQ01  00002PRCP99
0163595590999992000052906004+22000+120770FM-12+002499999V0201001N005010075019N0250001N1+03191+02431100961ADDAA199000091GF105991051021008001001011MA1999999100691MD1710181+9999REMSYN066AAXX  29061 59559 32575 51005 10319 20243 30069 40096 57018 85201;EQDQ01  00002PRCP99
0163595590999992000052909004+22000+120770FM-12+002499999V0201301N003010900019N0250001N1+03011+02341100871ADDAA199000091GF106991021011008001001081MA1999999100601MD1710091+9999REMSYN066AAXX  29091 59559 32575 61303 10301 20234 30060 40087 57009 82108;EQDQ01  00002PRCP99
0163595590999992000052912004+22000+120770FM-12+002499999V0200401N002012200019N0200001N1+02781+02381100991ADDAA199000091GF102991021051008001001001MA1999999100711MD1310111+9999REMSYN066AAXX  29121 59559 32570 20402 10278 20238 30071 40099 53011 82500;EQDQ01  00002PRCP99
0163595590999992000052915004+22000+120770FM-12+002499999V0201101N003010075019N0200001N1+02731+02401101131ADDAA199000091GF106991061051008001001001MA1999999100851MD1110141+9999REMSYN066AAXX  29151 59559 32570 61103 10273 20240 30085 40113 51014 86500;EQDQ01  00002PRCP99
0163595590999992000052918004+22000+120770FM-12+002499999V0201001N002012200019N0200001N1+02671+02371100941ADDAA199000091GF102991021051008001001001MA1999999100661MD1810191+9999REMSYN066AAXX  29181 59559 32570 21002 10267 20237 30066 40094 58019 82500;EQDQ01  00002PRCP99
0163595590999992000052921004+22000+120770FM-12+002499999V0201001N003012200019N0200001N1+02671+02331100961ADDAA199000091GF102991021051008001001001MA1999999100681MD1310021+9999REMSYN066AAXX  29211 59559 32570 21003 10267 20233 30068 40096 53002 82500;EQDQ01  00002PRCP99
0163595590999992000053000004+22000+120770FM-12+002499999V0201101N007012200019N0250001N1+03041+02461101031ADDAA199000091GF103991021011008001001011MA1999999100761MD1010081+9999REMSYN066AAXX  30001 59559 32575 31107 10304 20246 30076 40103 50008 82101;EQDQ01  00002PRCP99
0163595590999992000053003004+22000+120770FM-12+002499999V0200901N009010075019N0250001N1+03211+02551101001ADDAA199000091GF106991051021008001001011MA1999999100731MD1810031+9999REMSYN066AAXX  30031 59559 32575 60909 10321 20255 30073 40100 58003 85201;EQDQ01  00002PRCP99
0163595590999992000053006004+22000+120770FM-12+002499999V0201501N008010075019N0250001N1+03311+02541100821ADDAA199000091GF105991051021008001001001MA1999999100551MD1810181+9999REMSYN066AAXX  30061 59559 32575 51508 10331 20254 30055 40082 58018 85200;EQDQ01  00002PRCP99
0163595590999992000053009004+22000+120770FM-12+002499999V0201601N004012200019N0250001N1+03051+02511100781ADDAA199000091GF103991031021008001001001MA1999999100511MD1510041+9999REMSYN066AAXX  30091 59559 32575 31604 10305 20251 30051 40078 55004 83200;EQDQ01  00002PRCP99
0163595590999992000053012004+22000+120770FM-12+002499999V0201301N002012200019N0150001N1+02811+02461100901ADDAA199000091GF101991011021008001001001MA1999999100631MD1210121+9999REMSYN066AAXX  30121 59559 32565 11302 10281 20246 30063 40090 52012 81200;EQDQ01  00002PRCP99
0163595590999992000053015004+22000+120770FM-12+002499999V0201201N002012200019N0150001N1+02781+02501101011ADDAA199000091GF103991031051008001001001MA1999999100731MD1010101+9999REMSYN066AAXX  30151 59559 32565 31202 10278 20250 30073 40101 50010 83500;EQDQ01  00002PRCP99
0163595590999992000053018004+22000+120770FM-12+002499999V0201401N002010075019N0150001N1+02771+02531100831ADDAA199000091GF106991061051008001001001MA1999999100551MD1810181+9999REMSYN066AAXX  30181 59559 32565 61402 10277 20253 30055 40083 58018 86500;EQDQ01  00002PRCP99
0163595590999992000053021004+22000+120770FM-12+002499999V0209999C000010042019N0150001N1+02721+02491100791ADDAA199000091GF107991071041004501001001MA1999999100511MD1510041+9999REMSYN066AAXX  30211 59559 32465 70000 10272 20249 30051 40079 55004 87400;EQDQ01  00002PRCP99
0163595590999992000053100004+22000+120770FM-12+002499999V0201901N003010075019N0250001N1+02981+02491100941ADDAA199000091GF105991051021008001001001MA1999999100671MD1310161+9999REMSYN066AAXX  31001 59559 32575 51903 10298 20249 30067 40094 53016 85200;EQDQ01  00002PRCP99
0163595590999992000053103004+22000+120770FM-12+002499999V0202601N005012200019N0250001N1+03261+02561100991ADDAA199000091GF104991041021008001001001MA1999999100721MD1010051+9999REMSYN066AAXX  31031 59559 32575 42605 10326 20256 30072 40099 50005 84200;EQDQ01  00002PRCP99
0163595590999992000053106004+22000+120770FM-12+002499999V0202701N008012200019N0200001N1+03291+02551100831ADDAA199000091GF103991031051008001001001MA1999999100561MD1710161+9999REMSYN066AAXX  31061 59559 32570 32708 10329 20255 30056 40083 57016 83500;EQDQ01  00002PRCP99
0163595590999992000053109004+22000+120770FM-12+002499999V0202801N003012200019N0150001N1+03081+02511100681ADDAA199000091GF104991041051008001001001MA1999999100411MD1710151+9999REMSYN066AAXX  31091 59559 32565 42803 10308 20251 30041 40068 57015 84500;EQDQ01  00002PRCP99
0163595590999992000053112004+22000+120770FM-12+002499999V0202801N003010075019N0100001N1+02791+02501100821ADDAA199000091GF106991061051008001001001MA1999999100551MD1310141+9999REMSYN066AAXX  31121 59559 32560 62803 10279 20250 30055 40082 53014 86500;EQDQ01  00002PRCP99
0163595590999992000053115004+22000+120770FM-12+002499999V0203401N003012200019N0100001N1+02741+02451100941ADDAA199000091GF104991041051008001001001MA1999999100661MD1110111+9999REMSYN066AAXX  31151 59559 32560 43403 10274 20245 30066 40094 51011 84500;EQDQ01  00002PRCP99
0163595590999992000053118004+22000+120770FM-12+002499999V0202801N001012200019N0100001N1+02671+02371100821ADDAA199000091GF104991041051008001001001MA1999999100541MD1710121+9999REMSYN066AAXX  31181 59559 32560 42801 10267 20237 30054 40082 57012 84500;EQDQ01  00002PRCP99
0163595590999992000053121004+22000+120770FM-12+002499999V0209999C000012200019N0100001N1+02511+02261100861ADDAA199000091GF104991041051008001001001MA1999999100581MD1310041+9999REMSYN066AAXX  31211 59559 32560 40000 10251 20226 30058 40086 53004 84500;EQDQ01  00002PRCP99
0163595590999992000060100004+22000+120770FM-12+002499999V0201801N003012200019N0200001N1+03021+02581101071ADDAA199000091GF104991041051008001001001MA1999999100801MD1110221+9999REMSYN066AAXX  01001 59559 32570 41803 10302 20258 30080 40107 51022 84500;EQDQ01  00002PRCP99
0163595590999992000060103004+22000+120770FM-12+002499999V0202701N003012200019N0250001N1+03321+02531101091ADDAA199000091GF102991021041008001001001MA1999999100821MD1010021+9999REMSYN066AAXX  01031 59559 32575 22703 10332 20253 30082 40109 50002 82400;EQDQ01  00002PRCP99
0163595590999992000060106004+22000+120770FM-12+002499999V0201701N003012200019N0200001N1+03301+02461100991ADDAA199000091GF103991031021008001001001MA1999999100721MD1710101+9999REMSYN066AAXX  01061 59559 32570 31703 10330 20246 30072 40099 57010 83200;EQDQ01  00002PRCP99
0163595590999992000060109004+22000+120770FM-12+002499999V0201801N005012200019N0200001N1+03141+02491100921ADDAA199000091GF103991031021008001001001MA1999999100651MD1710071+9999REMSYN066AAXX  01091 59559 32570 31805 10314 20249 30065 40092 57007 83200;EQDQ01  00002PRCP99
0179595590999992000060112004+22000+120770FM-12+002499999V0201101N002010075019N0150001N1+02841+02471101111ADDAA199000091GF106991999041008001001001MA1999999100831MD1310181+9999REMSYN066AAXX  01121 59559 32565 61102 10284 20247 30083 40111 53018 85400;EQDQ01+000052SCOTLCQ02  00002PRCP99
0163595590999992000060115004+22000+120770FM-12+002499999V0201201N002012200019N0150001N1+02731+02441101261ADDAA199000091GF103991031051008001001001MA1999999100981MD1110151+9999REMSYN066AAXX  01151 59559 32565 31202 10273 20244 30098 40126 51015 83500;EQDQ01  00002PRCP99
0163595590999992000060118004+22000+120770FM-12+002499999V0201201N002012200019N0150001N1+02631+02371101181ADDAA199000091GF102991021051008001001001MA1999999100901MD1810081+9999REMSYN066AAXX  01181 59559 32565 21202 10263 20237 30090 40118 58008 82500;EQDQ01  00002PRCP99
0163595590999992000060121004+22000+120770FM-12+002499999V0201001N003012200019N0150001N1+02591+02341101111ADDAA199000091GF103991021051008001011001MA1999999100831MD1710071+9999REMSYN066AAXX  01211 59559 32565 31003 10259 20234 30083 40111 57007 82510;EQDQ01  00002PRCP99
0163595590999992000060200004+22000+120770FM-12+002499999V0200801N008012200019N0200001N1+02981+02411101251ADDAA199000091GF103991031021008001001001MA1999999100981MD1110151+9999REMSYN066AAXX  02001 59559 32570 30808 10298 20241 30098 40125 51015 83200;EQDQ01  00002PRCP99
0179595590999992000060203004+22000+120770FM-12+002499999V0201001N005012200019N0250001N1+03151+02531101281ADDAA199000091GF104991999011008001001001MA1999999101171MD1810021+9999REMSYN066AAXX  02031 59559 32575 41005 10315 20253 30117 40128 58002 81100;EQDQ01+000012SCOTLCQ02  00002PRCP99
0163595590999992000060206004+22000+120770FM-12+002499999V0200801N010012200019N0250001N1+03291+02411101081ADDAA199000091GF104991041021008001001001MA1999999100811MD1710151+9999REMSYN066AAXX  02061 59559 32575 40810 10329 20241 30081 40108 57015 84200;EQDQ01  00002PRCP99
0163595590999992000060209004+22000+120770FM-12+002499999V0200801N004012200019N0250001N1+03161+02341100991ADDAA199000091GF101991011011008001001001MA1999999100721MD1510091+9999REMSYN066AAXX  02091 59559 32575 10804 10316 20234 30072 40099 55009 81100;EQDQ01  00002PRCP99
0163595590999992000060212004+22000+120770FM-12+002499999V0200901N002012200019N0250001N1+02821+02371101151ADDAA199000091GF101991011051008001001001MA1999999100871MD1210151+9999REMSYN066AAXX  02121 59559 32575 10902 10282 20237 30087 40115 52015 81500;EQDQ01  00002PRCP99
0163595590999992000060215004+22000+120770FM-12+002499999V0200901N004012200019N0200001N1+02771+02391101261ADDAA199000091GF101991011051008001001001MA1999999100981MD1110111+9999REMSYN066AAXX  02151 59559 32570 10904 10277 20239 30098 40126 51011 81500;EQDQ01  00002PRCP99
0163595590999992000060218004+22000+120770FM-12+002499999V0201001N002012200019N0200001N1+02651+02351101061ADDAA199000091GF102991021051008001001001MA1999999100781MD1810201+9999REMSYN066AAXX  02181 59559 32570 21002 10265 20235 30078 40106 58020 82500;EQDQ01  00002PRCP99
0163595590999992000060221004+22000+120770FM-12+002499999V0200801N004012200019N0150001N1+02661+02321101031ADDAA199000091GF102991011011008001011001MA1999999100751MD1510031+9999REMSYN066AAXX  02211 59559 32565 20804 10266 20232 30075 40103 55003 81110;EQDQ01  00002PRCP99
0148595590999992000060300004+22000+120770FM-12+002499999V0200701N004012200019N0250001N1+03081+02431101091ADDAA199000091GF101991999999008001999999MA1999999100821REMSYN065AAXX  03001 59559 32575 10704 10308 20243 30082 40109 5007 81100;EQDQ01  00002PRCP99
0163595590999992000060303004+22000+120770FM-12+002499999V0200801N005012200019N0250001N1+03311+02471101041ADDAA199000091GF102991021011008001001001MA1999999100771MD1810051+9999REMSYN066AAXX  03031 59559 32575 20805 10331 20247 30077 40104 58005 82100;EQDQ01  00002PRCP99
0163595590999992000060306004+22000+120770FM-12+002499999V0201801N006012200019N0200001N1+03391+02461100871ADDAA199000091GF102991021011008001001001MA1999999100601MD1710171+9999REMSYN066AAXX  03061 59559 32570 21806 10339 20246 30060 40087 57017 82100;EQDQ01  00002PRCP99
0163595590999992000060309004+22000+120770FM-12+002499999V0201701N004012200019N0250001N1+03131+02461100851ADDAA199000091GF102991021011008001001001MA1999999100581MD1510021+9999REMSYN066AAXX  03091 59559 32575 21704 10313 20246 30058 40085 55002 82100;EQDQ01  00002PRCP99
0163595590999992000060312004+22000+120770FM-12+002499999V0201301N002012200019N0250001N1+02801+02431100931ADDAA199000091GF102991021011008001001001MA1999999100651MD1310071+9999REMSYN066AAXX  03121 59559 32575 21302 10280 20243 30065 40093 53007 82100;EQDQ01  00002PRCP99
0163595590999992000060315004+22000+120770FM-12+002499999V0201001N001012200019N0250001N1+02741+02431100981ADDAA199000091GF102991021011008001001001MA1999999100701MD1010051+9999REMSYN066AAXX  03151 59559 32575 21001 10274 20243 30070 40098 50005 82100;EQDQ01  00002PRCP99
0163595590999992000060318004+22000+120770FM-12+002499999V0203401N001012200019N0250001N1+02621+02371100761ADDAA199000091GF102991021011008001001001MA1999999100481MD1710221+9999REMSYN066AAXX  03181 59559 32575 23401 10262 20237 30048 40076 57022 82100;EQDQ01  00002PRCP99
0163595590999992000060321004+22000+120770FM-12+002499999V0203401N001012200019N0200001N1+02551+02321100771ADDAA199000091GF103991031021008001001001MA1999999100491MD1310011+9999REMSYN066AAXX  03211 59559 32570 33401 10255 20232 30049 40077 53001 83200;EQDQ01  00002PRCP99
0163595590999992000060400004+22000+120770FM-12+002499999V0202401N002010075019N0250001N1+03031+02531100851ADDAA199000091GF105991051021008001001001MA1999999100581MD1110091+9999REMSYN066AAXX  04001 59559 32575 52402 10303 20253 30058 40085 51009 85200;EQDQ01  00002PRCP99
0163595590999992000060403004+22000+120770FM-12+002499999V0202501N004010075019N0250001N1+03201+02531100831ADDAA199000091GF105991051021008001001001MA1999999100561MD1810021+9999REMSYN066AAXX  04031 59559 32575 52504 10320 20253 30056 40083 58002 85200;EQDQ01  00002PRCP99
0163595590999992000060406004+22000+120770FM-12+002499999V0202601N005012200019N0250001N1+03291+02561100671ADDAA199000091GF102991021021008001001001MA1999999100401MD1810161+9999REMSYN066AAXX  04061 59559 32575 22605 10329 20256 30040 40067 58016 82200;EQDQ01  00002PRCP99
0163595590999992000060409004+22000+120770FM-12+002499999V0202601N005012200019N0250001N1+03071+02511100531ADDAA199000091GF102991021021008001001001MA1999999100261MD1610141+9999REMSYN066AAXX  04091 59559 32575 22605 10307 20251 30026 40053 56014 82200;EQDQ01  00002PRCP99
0163595590999992000060412004+22000+120770FM-12+002499999V0202801N003012200019N0150001N1+02861+02451100661ADDAA199000091GF103991031041008001001001MA1999999100391MD1210131+9999REMSYN066AAXX  04121 59559 32565 32803 10286 20245 30039 40066 52013 83400;EQDQ01  00002PRCP99
0163595590999992000060415004+22000+120770FM-12+002499999V0202901N006012200019N0150001N1+02781+02431100671ADDAA199000091GF101991011011008001001001MA1999999100401MD1010011+9999REMSYN066AAXX  04151 59559 32565 12906 10278 20243 30040 40067 50001 81100;EQDQ01  00002PRCP99
0163595590999992000060418004+22000+120770FM-12+002499999V0202901N002012200019N0150001N1+02761+02431100511ADDAA199000091GF104991041041008001001001MA1999999100241MD1610161+9999REMSYN066AAXX  04181 59559 32565 42902 10276 20243 30024 40051 56016 84400;EQDQ01  00002PRCP99
0163595590999992000060421004+22000+120770FM-12+002499999V0202901N001012200019N0150001N1+02721+02401100591ADDAA199000091GF104991041051008001001001MA1999999100321MD1110081+9999REMSYN066AAXX  04211 59559 32565 42901 10272 20240 30032 40059 51008 84500;EQDQ01  00002PRCP99
0163595590999992000060500004+22000+120770FM-12+002499999V0203201N006012200019N0200001N1+02981+02461100741ADDAA199000091GF103991031021008001001001MA1999999100471MD1110151+9999REMSYN066AAXX  05001 59559 32570 33206 10298 20246 30047 40074 51015 83200;EQDQ01  00002PRCP99
0163595590999992000060503004+22000+120770FM-12+002499999V0202701N004010075019N0200001N1+03091+02461100721ADDAA199000091GF106991061021008001001001MA1999999100451MD1810021+9999REMSYN066AAXX  05031 59559 32570 62704 10309 20246 30045 40072 58002 86200;EQDQ01  00002PRCP99
0163595590999992000060506004+22000+120770FM-12+002499999V0202501N010012200019N0200001N1+03181+02501100641ADDAA199000091GF102991021041008001001001MA1999999100371MD1710081+9999REMSYN066AAXX  05061 59559 32570 22510 10318 20250 30037 40064 57008 82400;EQDQ01  00002PRCP99
0163595590999992000060509004+22000+120770FM-12+002499999V0202701N003010075019N0180001N1+02981+02451100631ADDAA199000091GF108991081051008001999999MA1999999100361MD1810011+9999REMSYN066AAXX  05091 59559 32568 82703 10298 20245 30036 40063 58001 885//;EQDQ01  00002PRCP99
0163595590999992000060512004+22000+120770FM-12+002499999V0202601N004010075019N0150001N1+02891+02481100811ADDAA199000091GF106991061051008001001001MA1999999100541MD1210181+9999REMSYN066AAXX  05121 59559 32565 62604 10289 20248 30054 40081 52018 86500;EQDQ01  00002PRCP99
0163595590999992000060515004+22000+120770FM-12+002499999V0202701N002012200019N0150001N1+02851+02461100891ADDAA199000091GF101991011011008001001001MA1999999100621MD1110081+9999REMSYN066AAXX  05151 59559 32565 12702 10285 20246 30062 40089 51008 81100;EQDQ01  00002PRCP99
0163595590999992000060518004+22000+120770FM-12+002499999V0202601N002010075019N0150001N1+02801+02501100751ADDAA199000091GF106991061051008001001001MA1999999100481MD1810141+9999REMSYN066AAXX  05181 59559 32565 62602 10280 20250 30048 40075 58014 86500;EQDQ01  00002PRCP99
0163595590999992000060521004+22000+120770FM-12+002499999V0202401N002010042019N0120001N1+02761+02491100771ADDAA199000091GF108991081051004501999999MA1999999100491MD1310011+9999REMSYN066AAXX  05211 59559 32462 82402 10276 20249 30049 40077 53001 885//;EQDQ01  00002PRCP99
0163595590999992000060600004+22000+120770FM-12+002499999V0202501N003010075019N0150001N1+02911+02491100891ADDAA199000091GF107991071021008001001001MA1999999100621MD1110131+9999REMSYN066AAXX  06001 59559 32565 72503 10291 20249 30062 40089 51013 87200;EQDQ01  00002PRCP99
0163595590999992000060603004+22000+120770FM-12+002499999V0202601N009010075019N0150001N1+03161+02531100941ADDAA199000091GF106991061021008001001001MA1999999100671MD1110051+9999REMSYN066AAXX  06031 59559 32565 62609 10316 20253 30067 40094 51005 86200;EQDQ01  00002PRCP99
0163595590999992000060606004+22000+120770FM-12+002499999V0202901N007010075019N0200001N1+03211+02541100861ADDAA199000091GF106991061051008001001001MA1999999100591MD1810081+9999REMSYN066AAXX  06061 59559 32570 62907 10321 20254 30059 40086 58008 86500;EQDQ01  00002PRCP99
0163595590999992000060609004+22000+120770FM-12+002499999V0202901N003010900019N0200001N1+03071+02461100781ADDAA199000091GF108991031021008001001081MA1999999100511MD1710081+9999REMSYN066AAXX  06091 59559 32570 82903 10307 20246 30051 40078 57008 83208;EQDQ01  00002PRCP99
0163595590999992000060612004+22000+120770FM-12+002499999V0202801N004010900019N0200001N1+02811+02431100931ADDAA199000091GF108991021011008001001081MA1999999100651MD1210141+9999REMSYN066AAXX  06121 59559 32570 82804 10281 20243 30065 40093 52014 82108;EQDQ01  00002PRCP99
0163595590999992000060615004+22000+120770FM-12+002499999V0203301N002010075019N0200001N1+02751+02481101011ADDAA199000091GF106991061051008001001001MA1999999100731MD1110081+9999REMSYN066AAXX  06151 59559 32570 63302 10275 20248 30073 40101 51008 86500;EQDQ01  00002PRCP99
0163595590999992000060618004+22000+120770FM-12+002499999V0201001N001010075019N0200001N1+02711+02351100871ADDAA199000091GF107991071051008001999999MA1999999100591MD1810141+9999REMSYN066AAXX  06181 59559 32570 71001 10271 20235 30059 40087 58014 875//;EQDQ01  00002PRCP99
0163595590999992000060621004+22000+120770FM-12+002499999V0209999C000010360019N0200001N1+02611+02291100931ADDAA199000091GF108991021011008001021001MA1999999100651MD1210061+9999REMSYN066AAXX  06211 59559 32570 80000 10261 20229 30065 40093 52006 82120;EQDQ01  00002PRCP99
0178595590999992000060700004+22000+120770FM-12+002499999V0203601N003010075019N0150001N1+02641+02401101021ADDAA112000591AY161061AY221061GF108991061051008001021001MA1999999100741MD1010091+9999MW1211REMSYN078AAXX  07001 59559 11565 83603 10264 20240 30074 40102 50009 69952 72162 86520;
0144595590999992000060703004+22000+120770FM-12+002499999V0203001N003010075019N0150001N1+03171+02551100971ADDAA199000021GF107991071051008001999999MA1999999100701MD1810041+9999REMSYN066AAXX  07031 59559 32565 73003 10317 20255 30070 40097 58004 875//;
0144595590999992000060706004+22000+120770FM-12+002499999V0202801N007010360019N0180001N1+03281+02531100871ADDAA199000021GF105991021011008001031001MA1999999100601MD1810101+9999REMSYN066AAXX  07061 59559 32568 52807 10328 20253 30060 40087 58010 82130;
0144595590999992000060709004+22000+120770FM-12+002499999V0202801N003010075019N0150001N1+03031+02471100831ADDAA199000021GF106991061021008001001001MA1999999100561MD1610041+9999REMSYN066AAXX  07091 59559 32565 62803 10303 20247 30056 40083 56004 86200;
0144595590999992000060712004+22000+120770FM-12+002499999V0202801N007012200019N0150001N1+02851+02431100901ADDAA199000021GF103991031011008001001001MA1999999100631MD1310071+9999REMSYN066AAXX  07121 59559 32565 32807 10285 20243 30063 40090 53007 83100;
0173595590999992000060715004+22000+120770FM-12+002499999V0202701N004012200019N0150001N1+02811+02451100971ADDAA199000091GA1001+999999999GF100991001001999999001001MA1999999100691MD1010061+9999REMSYN060AAXX  07151 59559 32965 02704 10281 20245 30069 40097 50006;EQDQ01  00002PRCP99
0163595590999992000060718004+22000+120770FM-12+002499999V0202801N004012200019N0150001N1+02791+02441100841ADDAA199000091GF102991021051012501001001MA1999999100571MD1710121+9999REMSYN066AAXX  07181 59559 32665 22804 10279 20244 30057 40084 57012 82500;EQDQ01  00002PRCP99
0163595590999992000060721004+22000+120770FM-12+002499999V0202701N003012200019N0180001N1+02771+02431100841ADDAA199000091GF104991011021008001001011MA1999999100561MD1510011+9999REMSYN066AAXX  07211 59559 32568 42703 10277 20243 30056 40084 55001 81201;EQDQ01  00002PRCP99
0163595590999992000060800004+22000+120770FM-12+002499999V0203101N004010075019N0180001N1+02911+02471100901ADDAA199000091GF106991061021008001001001MA1999999100631MD1110071+9999REMSYN066AAXX  08001 59559 32568 63104 10291 20247 30063 40090 51007 86200;EQDQ01  00002PRCP99
0163595590999992000060803004+22000+120770FM-12+002499999V0202701N004010075019N0180001N1+03191+02581100921ADDAA199000091GF106991061021008001001001MA1999999100651MD1010021+9999REMSYN066AAXX  08031 59559 32568 62704 10319 20258 30065 40092 50002 86200;EQDQ01  00002PRCP99
0163595590999992000060806004+22000+120770FM-12+002499999V0202701N006012200019N0200001N1+03251+02551100841ADDAA199000091GF106991031021008001001011MA1999999100571MD1710081+9999REMSYN066AAXX  08061 59559 32570 62706 10325 20255 30057 40084 57008 83201;EQDQ01  00002PRCP99
0163595590999992000060809004+22000+120770FM-12+002499999V0202901N004010360019N0180001N1+03111+02481100731ADDAA199000091GF106991031011008001031011MA1999999100461MD1610111+9999REMSYN066AAXX  08091 59559 32568 62904 10311 20248 30046 40073 56011 83131;EQDQ01  00002PRCP99
0163595590999992000060812004+22000+120770FM-12+002499999V0202701N008012200019N0180001N1+02871+02431100941ADDAA199000091GF102991021011008001001001MA1999999100671MD1310211+9999REMSYN066AAXX  08121 59559 32568 22708 10287 20243 30067 40094 53021 82100;EQDQ01  00002PRCP99
0163595590999992000060815004+22000+120770FM-12+002499999V0202601N003012200019N0150001N1+02841+02451101051ADDAA199000091GF102991021051012501001001MA1999999100771MD1010101+9999REMSYN066AAXX  08151 59559 32665 22603 10284 20245 30077 40105 50010 82500;EQDQ01  00002PRCP99
0163595590999992000060818004+22000+120770FM-12+002499999V0202801N002012200019N0150001N1+02811+02451100861ADDAA199000091GF102991021051012501001001MA1999999100591MD1810181+9999REMSYN066AAXX  08181 59559 32665 22802 10281 20245 30059 40086 58018 82500;EQDQ01  00002PRCP99
0163595590999992000060821004+22000+120770FM-12+002499999V0202501N008012200019N0150001N1+02811+02451100811ADDAA199000091GF104991041021008001001001MA1999999100541MD1510051+9999REMSYN066AAXX  08211 59559 32565 42508 10281 20245 30054 40081 55005 84200;EQDQ01  00002PRCP99
0163595590999992000060900004+22000+120770FM-12+002499999V0202701N005012200019N0180001N1+03041+02541100851ADDAA199000091GF106991041021008001001011MA1999999100581MD1010041+9999REMSYN066AAXX  09001 59559 32568 62705 10304 20254 30058 40085 50004 84201;EQDQ01  00002PRCP99
0163595590999992000060903004+22000+120770FM-12+002499999V0202701N009010075019N0200001N1+03131+02551100911ADDAA199000091GF107991061021008001001011MA1999999100641MD1010061+9999REMSYN066AAXX  09031 59559 32570 72709 10313 20255 30064 40091 50006 86201;EQDQ01  00002PRCP99
0163595590999992000060906004+22000+120770FM-12+002499999V0202601N011010900019N0200001N1+03241+02541100801ADDAA199000091GF107991021011008001001081MA1999999100531MD1810111+9999REMSYN066AAXX  09061 59559 32570 72611 10324 20254 30053 40080 58011 82108;EQDQ01  00002PRCP99
0163595590999992000060909004+22000+120770FM-12+002499999V0202901N006010075019N0200001N1+03131+02541100781ADDAA199000091GF107991051021008001001081MA1999999100511MD1510021+9999REMSYN066AAXX  09091 59559 32570 72906 10313 20254 30051 40078 55002 85208;EQDQ01  00002PRCP99
0163595590999992000060915004+22000+120770FM-12+002499999V0202801N004010120019N0150001N1+02821+02481101041ADDAA199000091GF108991081051012501999999MA1999999100761MD1010031+9999REMSYN066AAXX  09151 59559 32665 82804 10282 20248 30076 40104 50003 885//;EQDQ01  00002PRCP99
0163595590999992000060918004+22000+120770FM-12+002499999V0202401N003010360019N0150001N1+02841+02461100921ADDAA199000091GF108991021051008001021999MA1999999100651MD1510111+9999REMSYN066AAXX  09181 59559 32565 82403 10284 20246 30065 40092 55011 8252/;EQDQ01  00002PRCP99
0163595590999992000060921004+22000+120770FM-12+002499999V0202701N003010360019N0150001N1+02821+02481100841ADDAA199000091GF108991041021008001021999MA1999999100571MD1510081+9999REMSYN066AAXX  09211 59559 32565 82703 10282 20248 30057 40084 55008 8422/;EQDQ01  00002PRCP99
0163595590999992000061000004+22000+120770FM-12+002499999V0202601N008010075019N0150001N1+02991+02501100961ADDAA199000091GF105991051021008001001001MA1999999100691MD1010121+9999REMSYN066AAXX  10001 59559 32565 52608 10299 20250 30069 40096 50012 85200;EQDQ01  00002PRCP99
0178595590999992000061003004+22000+120770FM-12+002499999V0202701N003010075019N0120001N1+02701+02441100971ADDAA100007991AY181031AY221031GF108991081021008001999999MA1999999100691MD1410001+9999MW1821REMSYN078AAXX  10031 59559 11562 82703 10270 20244 30069 40097 54000 6008/ 78282 882//;
0178595590999992000061006004+22000+120770FM-12+002499999V0202501N010012200019N0200001N1+03151+02601100831ADDAA106013091AY181061AY221061GF103991031021008001001001MA1999999100561MD1710131+9999MW1251REMSYN078AAXX  10061 59559 11570 32510 10315 20260 30056 40083 57013 60131 72582 83200;
0150595590999992000061009004+22000+120770FM-12+002499999V0202501N005010075019N0180001N1+02971+02491100781ADDAA100013091GF107991071021008001001001MA1999999100511MD1510051+9999REMSYN072AAXX  10091 59559 12568 72505 10297 20249 30051 40078 55005 6013/ 87200;
0150595590999992000061012004+22000+120770FM-12+002499999V0202501N004010075019N0150001N1+02891+02471100961ADDAA112013091GF106991061021008001001001MA1999999100691MD1210181+9999REMSYN072AAXX  10121 59559 12565 62504 10289 20247 30069 40096 52018 60132 86200;
0144595590999992000061015004+22000+120770FM-12+002499999V0202601N004010075019N0150001N1+02851+02441100981ADDAA199000021GF105991051021008001001001MA1999999100711MD1010021+9999REMSYN066AAXX  10151 59559 32565 52604 10285 20244 30071 40098 50002 85200;
0144595590999992000061018004+22000+120770FM-12+002499999V0202701N004012200019N0150001N1+02801+02411100741ADDAA199000021GF102991021021008001001001MA1999999100471MD1710241+9999REMSYN066AAXX  10181 59559 32565 22704 10280 20241 30047 40074 57024 82200;
0163595590999992000061021004+22000+120770FM-12+002499999V0202701N007012200019N0150001N1+02781+02421100711ADDAA199000091GF103991031021008001001001MA1999999100441MD1510031+9999REMSYN066AAXX  10211 59559 32565 32707 10278 20242 30044 40071 55003 83200;EQDQ01  00002PRCP99
0178595590999992000061100004+22000+120770FM-12+002499999V0202701N005010075019N0180001N1+02861+02511100811ADDAA112000591AY111061AY211061GF107991071021008001001001MA1999999100541MD1110101+9999MW1251REMSYN078AAXX  11001 59559 11568 72705 10286 20251 30054 40081 51010 69952 72511 87200;
0178595590999992000061103004+22000+120770FM-12+002499999V0202701N003010075019N0250001N1+02911+02501100811ADDAA100005191AY181031AY221031GF107991071021008001001001MA1999999100541MD1410001+9999MW1251REMSYN078AAXX  11031 59559 11575 72703 10291 20250 30054 40081 54000 6005/ 72582 87200;
0178595590999992000061106004+22000+120770FM-12+002499999V0202601N005010075019N0200001N1+03141+02461100661ADDAA106005191AY181061AY221061GF106991061051008001001001MA1999999100391MD1710151+9999MW1021REMSYN078AAXX  11061 59559 11570 62605 10314 20246 30039 40066 57015 60051 70282 86500;
0150595590999992000061109004+22000+120770FM-12+002499999V0202501N005010075019N0150001N1+02981+02461100591ADDAA100005191GF108991081051008001999999MA1999999100321MD1510071+9999REMSYN072AAXX  11091 59559 12565 82505 10298 20246 30032 40059 55007 6005/ 885//;
0150595590999992000061112004+22000+120770FM-12+002499999V0202501N006010075019N0150001N1+02891+02491100701ADDAA112005191GF107991071051008001999999MA1999999100431MD1110111+9999REMSYN072AAXX  11121 59559 12565 72506 10289 20249 30043 40070 51011 60052 875//;
0178595590999992000061115004+22000+120770FM-12+002499999V0202901N002010075019N0120001N1+02731+02361100811ADDAA100002091AY181031AY221031GF107991071051008001999999MA1999999100531MD1010101+9999MW1021REMSYN078AAXX  11151 59559 11562 72902 10273 20236 30053 40081 50010 6002/ 70282 875//;
0178595590999992000061118004+22000+120770FM-12+002499999V0202501N003010075019N0150001N1+02761+02511100581ADDAA106005191AY181061AY221061GF108991081051008001999999MA1999999100311MD1710221+9999MW1251REMSYN078AAXX  11181 59559 11565 82503 10276 20251 30031 40058 57022 60051 72582 885//;
0178595590999992000061121004+22000+120770FM-12+002499999V0202701N004010075019N0100001N1+02681+02401100491ADDAA100007191AY181031AY221031GF108991081051008001999999MA1999999100211MD1710101+9999MW1251REMSYN078AAXX  11211 59559 11560 82704 10268 20240 30021 40049 57010 6007/ 72582 885//;
0178595590999992000061200004+22000+120770FM-12+002499999V0202501N005010075019N0150001N1+03011+02561100601ADDAA112007191AY181061AY221061GF107991071051008001999999MA1999999100331MD1210121+9999MW1021REMSYN078AAXX  12001 59559 11565 72505 10301 20256 30033 40060 52012 60072 70282 875//;
0144595590999992000061203004+22000+120770FM-12+002499999V0202501N006010075019N0150001N1+03161+02591100521ADDAA199000021GF107991071051008001999999MA1999999100251MD1810081+9999REMSYN066AAXX  12031 59559 32565 72506 10316 20259 30025 40052 58008 875//;
0144595590999992000061206004+22000+120770FM-12+002499999V0202501N007010075019N0120001N1+03041+02511100411ADDAA199000021GF107991071051008001999999MA1999999100141MD1810111+9999REMSYN066AAXX  12061 59559 32562 72507 10304 20251 30014 40041 58011 875//;
0178595590999992000061209004+22000+120770FM-12+002499999V0202601N005010042019N0120001N1+02701+02361100341ADDAA100004191AY161031AY221031GF108991081061004501999999MA1999999100071MD1510071+9999MW1211REMSYN078AAXX  12091 59559 11462 82605 10270 20236 30007 40034 55007 6004/ 72162 886//;
0178595590999992000061212004+22000+120770FM-12+002499999V0203301N008010075019N0150001N1+02601+02331100521ADDAA112006191AY161061AY221061GF107991071051008001999999MA1999999100241MD1310171+9999MW1021REMSYN078AAXX  12121 59559 11565 73308 10260 20233 30024 40052 53017 60062 70262 875//;
0178595590999992000061215004+22000+120770FM-12+002499999V0200801N003010075019N0150001N1+02471+02221100601ADDAA100006191AY161031AY221031GF106991061051008001001001MA1999999100321MD1110081+9999MW1021REMSYN078AAXX  12151 59559 11565 60803 10247 20222 30032 40060 51008 6006/ 70262 86500;
0178595590999992000061218004+22000+120770FM-12+002499999V0200301N005010075019N0150001N1+02381+02151100411ADDAA106007191AY161061AY221061GF106991061051008001001001MA1999999100131MD1710191+9999MW1021REMSYN078AAXX  12181 59559 11565 60305 10238 20215 30013 40041 57019 60071 70262 86500;
0150595590999992000061221004+22000+120770FM-12+002499999V0201001N010010075019N0150001N1+02351+02041100331ADDAA100007191GF108991081051008001999999MA1999999100051MD1610081+9999REMSYN072AAXX  12211 59559 12565 81010 10235 20204 30005 40033 56008 6007/ 885//;
0178595590999992000061300004+22000+120770FM-12+002499999V0200901N007010075019N0150001N1+02301+02101100521ADDAA112023191AY161061AY221061GF108991081051008001999999MA1999999100241MD1110191+9999MW1021REMSYN078AAXX  13001 59559 11565 80907 10230 20210 30024 40052 51019 60232 70262 885//;
0178595590999992000061303004+22000+120770FM-12+002499999V0200201N002010075019N0150001N1+02511+02151100511ADDAA100004191AY161031AY221031GF108991081051008001999999MA1999999100231MD1510011+9999MW1021REMSYN078AAXX  13031 59559 11565 80202 10251 20215 30023 40051 55001 6004/ 70262 885//;
0178595590999992000061306004+22000+120770FM-12+002499999V0201401N001010042019N0100001N1+02191+02011100511ADDAA106018091AY161061AY261061GF108991081071004501999999MA1999999100231MD1410001+9999MW1631REMSYN078AAXX  13061 59559 11460 81401 10219 20201 30023 40051 54000 60181 76366 887//;
0178595590999992000061309004+22000+120770FM-12+002499999V0202501N004010075019N0150001N1+02281+01971100461ADDAA100029091AY161031AY261031GF108991081071008001999999MA1999999100181MD1510051+9999MW1611REMSYN078AAXX  13091 59559 11565 82504 10228 20197 30018 40046 55005 6029/ 76166 887//;
0178595590999992000061312004+22000+120770FM-12+002499999V0200501N009010075019N0150001N1+02291+01861100571ADDAA112029091AY161061AY261061GF108991081051008001999999MA1999999100291MD1110111+9999MW1021REMSYN078AAXX  13121 59559 11565 80509 10229 20186 30029 40057 51011 60292 70266 885//;
0178595590999992000061315004+22000+120770FM-12+002499999V0203401N002010075019N0100001N1+02101+01891100781ADDAA100002091AY161031AY221031GF108991081071008001999999MA1999999100501MD1110211+9999MW1611REMSYN078AAXX  13151 59559 11560 83402 10210 20189 30050 40078 51021 6002/ 76162 887//;
0178595590999992000061318004+22000+120770FM-12+002499999V0200801N003010075019N0150001N1+02161+01891100571ADDAA106003091AY161061AY221061GF108991081051008001999999MA1999999100291MD1710211+9999MW1021REMSYN078AAXX  13181 59559 11565 80803 10216 20189 30029 40057 57021 60031 70262 885//;
0150595590999992000061321004+22000+120770FM-12+002499999V0200401N004010075019N0150001N1+02131+01711100551ADDAA100003091GF108991081051008001999999MA1999999100271MD1510021+9999REMSYN072AAXX  13211 59559 12565 80404 10213 20171 30027 40055 55002 6003/ 885//;
0150595590999992000061400004+22000+120770FM-12+002499999V0209999V002010075019N0150001N1+02321+01821100671ADDAA112003091GF108991081051008001999999MA1999999100391MD1210121+9999REMSYN072AAXX  14001 59559 12565 89902 10232 20182 30039 40067 52012 60032 885//;
0178595590999992000061403004+22000+120770FM-12+002499999V0200301N010010075019N0150001N1+02231+01851100741ADDAA100000791AY161031AY221031GF108991081051008001999999MA1999999100461MD1110071+9999MW1211REMSYN078AAXX  14031 59559 11565 80310 10223 20185 30046 40074 51007 6990/ 72162 885//;
0178595590999992000061406004+22000+120770FM-12+002499999V0200201N006010075019N0100001N1+02121+01781100641ADDAA106000591AY161061AY261061GF108991081071008001999999MA1999999100361MD1510101+9999MW1611REMSYN078AAXX  14061 59559 11560 80206 10212 20178 30036 40064 55010 69951 76166 887//;
0178595590999992000061409004+22000+120770FM-12+002499999V0200301N004010075019N0120001N1+02171+01851100611ADDAA100004191AY161031AY261031GF108991081071008001999999MA1999999100331MD1710031+9999MW1611REMSYN078AAXX  14091 59559 11562 80304 10217 20185 30033 40061 57003 6004/ 76166 887//;
0178595590999992000061412004+22000+120770FM-12+002499999V0200301N004010075019N0100001N1+02281+01891100741ADDAA112004191AY161061AY221061GF108991081051008001999999MA1999999100461MD1310131+9999MW1021REMSYN078AAXX  14121 59559 11560 80304 10228 20189 30046 40074 53013 60042 70262 885//;
0144595590999992000061415004+22000+120770FM-12+002499999V0200501N002010075019N0100001N1+02361+01941100701ADDAA199000021GF108991081051008001999999MA1999999100421MD1710041+9999REMSYN066AAXX  14151 59559 32560 80502 10236 20194 30042 40070 57004 885//;
0144595590999992000061418004+22000+120770FM-12+002499999V0200801N003010075019N0150001N1+02281+01911100621ADDAA199000021GF108991081051008001999999MA1999999100341MD1510081+9999REMSYN066AAXX  14181 59559 32565 80803 10228 20191 30034 40062 55008 885//;
0178595590999992000061421004+22000+120770FM-12+002499999V0200901N005010075019N0150001N1+02331+01931100521ADDAA100001091AY161031AY221031GF108991081051008001999999MA1999999100241MD1510101+9999MW1021REMSYN078AAXX  14211 59559 11565 80905 10233 20193 30024 40052 55010 6001/ 70262 885//;
0178595590999992000061500004+22000+120770FM-12+002499999V0202401N004010075019N0120001N1+02481+01961100581ADDAA112001091AY161061AY221061GF108991081051008001999999MA1999999100301MD1210061+9999MW1021REMSYN078AAXX  15001 59559 11562 82404 10248 20196 30030 40058 52006 60012 70262 885//;
0163595590999992000061506004+22000+120770FM-12+002499999V0201501N003010075019N0250001N1+02781+02181100451ADDAA199000091GF108991081051008001999999MA1999999100181MD1810111+9999REMSYN066AAXX  15061 59559 32575 81503 10278 20218 30018 40045 58011 885//;EQDQ01  00002PRCP99
0163595590999992000061509004+22000+120770FM-12+002499999V0200901N007010075019N0250001N1+02721+02111100421ADDAA199000091GF107991071051008001001001MA1999999100151MD1510031+9999REMSYN066AAXX  15091 59559 32575 70907 10272 20211 30015 40042 55003 87500;EQDQ01  00002PRCP99
0163595590999992000061512004+22000+120770FM-12+002499999V0201001N004010075019N0150001N1+02421+02151100641ADDAA199000091GF108991081051008001999999MA1999999100361MD1210211+9999REMSYN066AAXX  15121 59559 32565 81004 10242 20215 30036 40064 52021 885//;EQDQ01  00002PRCP99
0163595590999992000061515004+22000+120770FM-12+002499999V0201001N004010075019N0150001N1+02441+02161100741ADDAA199000091GF108991081051008001999999MA1999999100461MD1010101+9999REMSYN066AAXX  15151 59559 32565 81004 10244 20216 30046 40074 50010 885//;EQDQ01  00002PRCP99
0163595590999992000061518004+22000+120770FM-12+002499999V0201001N003010075019N0150001N1+02431+02211100551ADDAA199000091GF108991081051008001999999MA1999999100271MD1710191+9999REMSYN066AAXX  15181 59559 32565 81003 10243 20221 30027 40055 57019 885//;EQDQ01  00002PRCP99
0163595590999992000061521004+22000+120770FM-12+002499999V0201001N007010075019N0180001N1+02501+02231100541ADDAA199000091GF108991081051008001999999MA1999999100261MD1810011+9999REMSYN066AAXX  15211 59559 32568 81007 10250 20223 30026 40054 58001 885//;EQDQ01  00002PRCP99
0178595590999992000061600004+22000+120770FM-12+002499999V0201201N004010075019N0150001N1+02631+02361100661ADDAA112000591AY161061AY221061GF108991081071008001999999MA1999999100381MD1210121+9999MW1211REMSYN078AAXX  16001 59559 11565 81204 10263 20236 30038 40066 52012 69952 72162 887//;
0178595590999992000061603004+22000+120770FM-12+002499999V0201501N002010075019N0100001N1+02581+02431100701ADDAA100007191AY161031AY261031GF108991081071008001999999MA1999999100421MD1210041+9999MW1611REMSYN078AAXX  16031 59559 11560 81502 10258 20243 30042 40070 52004 6007/ 76166 887//;
0178595590999992000061606004+22000+120770FM-12+002499999V0202201N001010075019N0100001N1+02841+02391100611ADDAA106010991AY161061AY221061GF108991081051008001999999MA1999999100341MD1610081+9999MW1021REMSYN078AAXX  16061 59559 11560 82201 10284 20239 30034 40061 56008 60111 70262 885//;
0178595590999992000061609004+22000+120770FM-12+002499999V0201701N004010042019N0100001N1+02511+02281100661ADDAA100025991AY161031AY261031GF108991081071004501999999MA1999999100381MD1310041+9999MW1631REMSYN078AAXX  16091 59559 11460 81704 10251 20228 30038 40066 53004 6026/ 76366 887//;
0178595590999992000061612004+22000+120770FM-12+002499999V0209999C000010075019N0100001N1+02521+02371100731ADDAA112031091AY161061AY261061GF108991081071008001999999MA1999999100451MD1310071+9999MW1611REMSYN078AAXX  16121 59559 11560 80000 10252 20237 30045 40073 53007 60312 76166 887//;
0178595590999992000061615004+22000+120770FM-12+002499999V0200701N001010075019N0100001N1+02491+02341100841ADDAA100000791AY161031AY221031GF108991081051008001999999MA1999999100561MD1110111+9999MW1021REMSYN078AAXX  16151 59559 11560 80701 10249 20234 30056 40084 51011 6990/ 70262 885//;
0178595590999992000061618004+22000+120770FM-12+002499999V0201101N004010075019N0150001N1+02561+02341100761ADDAA106000791AY161061AY221061GF108991081051008001999999MA1999999100481MD1710081+9999MW1021REMSYN078AAXX  16181 59559 11565 81104 10256 20234 30048 40076 57008 69901 70262 885//;
0178595590999992000061621004+22000+120770FM-12+002499999V0200301N002010075019N0100001N1+02451+02421100741ADDAA100034091AY161031AY261031GF108991081071008001999999MA1999999100461MD1510021+9999MW1631REMSYN078AAXX  16211 59559 11560 80302 10245 20242 30046 40074 55002 6034/ 76366 887//;
0178595590999992000061700004+22000+120770FM-12+002499999V0200701N001010075019N0100001N1+02521+02471100891ADDAA112035191AY161061AY261061GF108991081071008001999999MA1999999100611MD1210151+9999MW1611REMSYN078AAXX  17001 59559 11560 80701 10252 20247 30061 40089 52015 60352 76166 887//;
0178595590999992000061703004+22000+120770FM-12+002499999V0201101N002010075019N0100001N1+02891+02551100951ADDAA100000791AY161031AY221031GF108991081061008001999999MA1999999100681MD1310071+9999MW1021REMSYN078AAXX  17031 59559 11560 81102 10289 20255 30068 40095 53007 6990/ 70262 886//;
0178595590999992000061706004+22000+120770FM-12+002499999V0201601N002010120019N0120001N1+02981+02471100841ADDAA106000791AY161061AY221061GF108991081051012501999999MA1999999100571MD1610111+9999MW1021REMSYN078AAXX  17061 59559 11662 81602 10298 20247 30057 40084 56011 69901 70262 885//;
0150595590999992000061709004+22000+120770FM-12+002499999V0200901N003010120019N0150001N1+02871+02371100791ADDAA100000791GF107991071051012501999999MA1999999100521MD1510051+9999REMSYN072AAXX  17091 59559 12665 70903 10287 20237 30052 40079 55005 6990/ 875//;
0150595590999992000061712004+22000+120770FM-12+002499999V0201001N008010120019N0150001N1+02721+02311100881ADDAA112000791GF107991071051012501999999MA1999999100601MD1110081+9999REMSYN072AAXX  17121 59559 12665 71008 10272 20231 30060 40088 51008 69902 875//;
0163595590999992000061715004+22000+120770FM-12+002499999V0201001N003012200019N0150001N1+02711+02381101031ADDAA199000091GF104991011011008001041001MA1999999100751MD1010151+9999REMSYN066AAXX  17151 59559 32565 41003 10271 20238 30075 40103 50015 81140;EQDQ01  00002PRCP99
0178595590999992000061718004+22000+120770FM-12+002499999V0201001N006010075019N0120001N1+02661+02351100921ADDAA106000791AY161061AY221061GF106991061021008001001001MA1999999100641MD1610111+9999MW1611REMSYN078AAXX  17181 59559 11562 61006 10266 20235 30064 40092 56011 69901 76162 86200;
0178595590999992000061721004+22000+120770FM-12+002499999V0201001N002010075019N0120001N1+02631+02371100871ADDAA100000791AY161031AY221031GF107991071031008001999999MA1999999100591MD1510051+9999MW1021REMSYN078AAXX  17211 59559 11562 71002 10263 20237 30059 40087 55005 6990/ 70262 873//;
0178595590999992000061800004+22000+120770FM-12+002499999V0200801N003010075019N0100001N1+02531+02361101041ADDAA112048091AY161061AY221061GF108991081071008001999999MA1999999100761MD1110171+9999MW1611REMSYN078AAXX  18001 59559 11560 80803 10253 20236 30076 40104 51017 60482 76162 887//;
0178595590999992000061803004+22000+120770FM-12+002499999V0201101N002010075019N0120001N1+02611+02371101061ADDAA100000791AY161031AY221031GF108991081071008001999999MA1999999100781MD1310021+9999MW1021REMSYN078AAXX  18031 59559 11562 81102 10261 20237 30078 40106 53002 6990/ 70262 887//;
0178595590999992000061806004+22000+120770FM-12+002499999V0200901N008010075019N0120001N1+02671+02411100921ADDAA106000791AY161061AY221061GF108991081051008001999999MA1999999100641MD1810141+9999MW1021REMSYN078AAXX  18061 59559 11562 80908 10267 20241 30064 40092 58014 69901 70262 885//;
0178595590999992000061809004+22000+120770FM-12+002499999V0200901N004010120019N0120001N1+02681+02441100861ADDAA100007191AY161031AY221031GF107991071051012501999999MA1999999100581MD1510061+9999MW1021REMSYN078AAXX  18091 59559 11662 70904 10268 20244 30058 40086 55006 6007/ 70262 875//;
0178595590999992000061812004+22000+120770FM-12+002499999V0200901N002012200019N0150001N1+02661+02421101011ADDAA112007191AY161061AY221061GF103991031051012501001001MA1999999100731MD1210151+9999MW1011REMSYN078AAXX  18121 59559 11665 30902 10266 20242 30073 40101 52015 60072 70162 83500;
0163595590999992000061815004+22000+120770FM-12+002499999V0200901N003012200019N0120001N1+02591+02341101081ADDAA199000091GF104991021031008001041001MA1999999100801MD1010071+9999REMSYN066AAXX  18151 59559 32562 40903 10259 20234 30080 40108 50007 82340;EQDQ01  00002PRCP99
0163595590999992000061818004+22000+120770FM-12+002499999V0200901N003010120019N0120001N1+02601+02331100981ADDAA199000091GF106991061051012501001001MA1999999100701MD1710101+9999REMSYN066AAXX  18181 59559 32662 60903 10260 20233 30070 40098 57010 86500;EQDQ01  00002PRCP99
0163595590999992000061821004+22000+120770FM-12+002499999V0201001N003012200019N0150001N1+02531+02291100841ADDAA199000091GF106991031051012501001011MA1999999100561MD1610141+9999REMSYN066AAXX  18211 59559 32665 61003 10253 20229 30056 40084 56014 83501;EQDQ01  00002PRCP99
0163595590999992000061900004+22000+120770FM-12+002499999V0201001N004010900019N0180001N1+02831+02411101011ADDAA199000091GF106991011021008001001021MA1999999100731MD1110171+9999REMSYN066AAXX  19001 59559 32568 61004 10283 20241 30073 40101 51017 81202;EQDQ01  00002PRCP99
0163595590999992000061903004+22000+120770FM-12+002499999V0201701N008010075019N0200001N1+03171+02551101011ADDAA199000091GF106991051021008001031001MA1999999100741MD1010011+9999REMSYN066AAXX  19031 59559 32570 61708 10317 20255 30074 40101 50001 85230;EQDQ01  00002PRCP99
0163595590999992000061906004+22000+120770FM-12+002499999V0201301N00401220001CN0200001N1+03021+02471100941ADDAA199000091GF108991021011008001001041MA1999999100671MD1810071+9999REMSYN066AAXX  19061 59559 32570 81304 10302 20247 30067 40094 58007 82104;EQDQ01  00002PRCP99
0163595590999992000061909004+22000+120770FM-12+002499999V0201501N002010900019N0200001N1+03011+02361100901ADDAA199000091GF106991011011008001001021MA1999999100631MD1510041+9999REMSYN066AAXX  19091 59559 32570 61502 10301 20236 30063 40090 55004 81102;EQDQ01  00002PRCP99
0163595590999992000061912004+22000+120770FM-12+002499999V0200801N001010900019N0200001N1+02721+02421101001ADDAA199000091GF106991011011008001001021MA1999999100721MD1210091+9999REMSYN066AAXX  19121 59559 32570 60801 10272 20242 30072 40100 52009 81102;EQDQ01  00002PRCP99
0163595590999992000061915004+22000+120770FM-12+002499999V0200401N001012200019N0200001N1+02591+02341101081ADDAA199000091GF103991021011008001001011MA1999999100801MD1010081+9999REMSYN066AAXX  19151 59559 32570 30401 10259 20234 30080 40108 50008 82101;EQDQ01  00002PRCP99
0178595590999992000061918004+22000+120770FM-12+002499999V0200701N002010075019N0100001N1+02601+02371100981ADDAA106003091AY161061AY261061GF108991081071008001999999MA1999999100701MD1810101+9999MW1611REMSYN078AAXX  19181 59559 11560 80702 10260 20237 30070 40098 58010 60031 76166 887//;
0178595590999992000061921004+22000+120770FM-12+002499999V0209999C000010075019N0100001N1+02521+02361100981ADDAA100006191AY161031AY261031GF108991081071008001999999MA1999999100701MD1410001+9999MW1611REMSYN078AAXX  19211 59559 11560 80000 10252 20236 30070 40098 54000 6006/ 76166 887//;
0178595590999992000062000004+22000+120770FM-12+002499999V0209999C000010360019N0150001N1+02911+02591101051ADDAA112006191AY161061AY221061GF106991021031008001021011MA1999999100781MD1010081+9999MW1021REMSYN078AAXX  20001 59559 11565 60000 10291 20259 30078 40105 50008 60062 70262 82321;
0144595590999992000062003004+22000+120770FM-12+002499999V0202501N003012200019N0250001N1+03201+02541101031ADDAA199000021GF102991021021008001001001MA1999999100761MD1810021+9999REMSYN066AAXX  20031 59559 32575 22503 10320 20254 30076 40103 58002 82200;
0144595590999992000062006004+22000+120770FM-12+002499999V0202601N007010075019N0200001N1+03211+02501100961ADDAA199000021GF106991051021008001001011MA1999999100691MD1710071+9999REMSYN066AAXX  20061 59559 32570 62607 10321 20250 30069 40096 57007 85201;
0144595590999992000062009004+22000+120770FM-12+002499999V0202601N003010075019N0200001N1+03041+02481100931ADDAA199000021GF106991051021008001001011MA1999999100661MD1510031+9999REMSYN066AAXX  20091 59559 32570 62603 10304 20248 30066 40093 55003 85201;
0163595590999992000062012004+22000+120770FM-12+002499999V0202901N002012200019N0200001N1+02831+02461101051ADDAA199000091GF103991031021008001001001MA1999999100771MD1310111+9999REMSYN066AAXX  20121 59559 32570 32902 10283 20246 30077 40105 53011 83200;EQDQ01  00002PRCP99
0173595590999992000062015004+22000+120770FM-12+002499999V0202901N001012200019N0140001N1+02741+02421101171ADDAA199000091GA1001+999999999GF100991001001999999001001MA1999999100891MD1010121+9999REMSYN060AAXX  20151 59559 32964 02901 10274 20242 30089 40117 50012;EQDQ01  00002PRCP99
0173595590999992000062018004+22000+120770FM-12+002499999V0202801N001012200019N0150001N1+02641+02381101111ADDAA199000091GA1001+999999999GF100991001001999999001001MA1999999100831MD1810061+9999REMSYN060AAXX  20181 59559 32965 02801 10264 20238 30083 40111 58006;EQDQ01  00002PRCP99
0163595590999992000062021004+22000+120770FM-12+002499999V0209999C000012200019N0180001N1+02591+02331101051ADDAA199000091GF102991021051008001011001MA1999999100771MD1710061+9999REMSYN066AAXX  20211 59559 32568 20000 10259 20233 30077 40105 57006 82510;EQDQ01  00002PRCP99
0163595590999992000062100004+22000+120770FM-12+002499999V0201701N002010900019N0200001N1+03001+02541101141ADDAA199000091GF106991011021008001001071MA1999999100871MD1310101+9999REMSYN066AAXX  21001 59559 32570 61702 10300 20254 30087 40114 53010 81207;EQDQ01  00002PRCP99
0163595590999992000062103004+22000+120770FM-12+002499999V0202101N002012200019N0250001N1+03101+02451101161ADDAA199000091GF102991021021008001001001MA1999999100891MD1010021+9999REMSYN066AAXX  21031 59559 32575 22102 10310 20245 30089 40116 50002 82200;EQDQ01  00002PRCP99
0163595590999992000062106004+22000+120770FM-12+002499999V0202501N007012200019N0200001N1+03211+02531101101ADDAA199000091GF104991041021008001001001MA1999999100831MD1710061+9999REMSYN066AAXX  21061 59559 32570 42507 10321 20253 30083 40110 57006 84200;EQDQ01  00002PRCP99
0163595590999992000062109004+22000+120770FM-12+002499999V0202701N002010075019N0200001N1+03031+02501101001ADDAA199000091GF105991051021008001001001MA1999999100731MD1510101+9999REMSYN066AAXX  21091 59559 32570 52702 10303 20250 30073 40100 55010 85200;EQDQ01  00002PRCP99
0163595590999992000062112004+22000+120770FM-12+002499999V0203001N001012200019N0200001N1+02821+02441101101ADDAA199000091GF102991021051008001001001MA1999999100821MD1210091+9999REMSYN066AAXX  21121 59559 32570 23001 10282 20244 30082 40110 52009 82500;EQDQ01  00002PRCP99
0163595590999992000062115004+22000+120770FM-12+002499999V0202801N001012200019N0200001N1+02751+02421101221ADDAA199000091GF103991031051008001001001MA1999999100941MD1010121+9999REMSYN066AAXX  21151 59559 32570 32801 10275 20242 30094 40122 50012 83500;EQDQ01  00002PRCP99
0163595590999992000062118004+22000+120770FM-12+002499999V0203401N001012200019N0150001N1+02671+02411101101ADDAA199000091GF103991031051008001001001MA1999999100821MD1710121+9999REMSYN066AAXX  21181 59559 32565 33401 10267 20241 30082 40110 57012 83500;EQDQ01  00002PRCP99
0163595590999992000062121004+22000+120770FM-12+002499999V0209999C000010075019N0120001N1+02681+02431101141ADDAA199000091GF107991071051008001999999MA1999999100861MD1310041+9999REMSYN066AAXX  21211 59559 32562 70000 10268 20243 30086 40114 53004 875//;EQDQ01  00002PRCP99
0163595590999992000062200004+22000+120770FM-12+002499999V0202801N002010075019N0150001N1+02961+02511101231ADDAA199000091GF106991061021008001001001MA1999999100961MD1110101+9999REMSYN066AAXX  22001 59559 32565 62802 10296 20251 30096 40123 51010 86200;EQDQ01  00002PRCP99
0163595590999992000062203004+22000+120770FM-12+002499999V0202801N003012200019N0250001N1+03201+02481101171ADDAA199000091GF103991031021008001001001MA1999999100901MD1710061+9999REMSYN066AAXX  22031 59559 32575 32803 10320 20248 30090 40117 57006 83200;EQDQ01  00002PRCP99
0163595590999992000062206004+22000+120770FM-12+002499999V0202401N004012200019N0250001N1+03171+02521101051ADDAA199000091GF103991031021008001001001MA1999999100781MD1610121+9999REMSYN066AAXX  22061 59559 32575 32404 10317 20252 30078 40105 56012 83200;EQDQ01  00002PRCP99
0163595590999992000062209004+22000+120770FM-12+002499999V0202801N003012200019N0250001N1+03121+02441100971ADDAA199000091GF102991021011008001001001MA1999999100701MD1510081+9999REMSYN066AAXX  22091 59559 32575 22803 10312 20244 30070 40097 55008 82100;EQDQ01  00002PRCP99
0163595590999992000062212004+22000+120770FM-12+002499999V0203001N001012200019N0200001N1+02841+02371101101ADDAA199000091GF103991031051008001001001MA1999999100821MD1210121+9999REMSYN066AAXX  22121 59559 32570 33001 10284 20237 30082 40110 52012 83500;EQDQ01  00002PRCP99
0163595590999992000062215004+22000+120770FM-12+002499999V0202701N001012200019N0200001N1+02761+02411101161ADDAA199000091GF102991021051008001001001MA1999999100881MD1010061+9999REMSYN066AAXX  22151 59559 32570 22701 10276 20241 30088 40116 50006 82500;EQDQ01  00002PRCP99
0163595590999992000062218004+22000+120770FM-12+002499999V0202901N001012200019N0200001N1+02711+02401101021ADDAA199000091GF103991031051008001001001MA1999999100741MD1710141+9999REMSYN066AAXX  22181 59559 32570 32901 10271 20240 30074 40102 57014 83500;EQDQ01  00002PRCP99
0163595590999992000062221004+22000+120770FM-12+002499999V0202701N002012200019N0150001N1+02671+02391101031ADDAA199000091GF103991031021008001001001MA1999999100751MD1310011+9999REMSYN066AAXX  22211 59559 32565 32702 10267 20239 30075 40103 53001 83200;EQDQ01  00002PRCP99
0163595590999992000062300004+22000+120770FM-12+002499999V0202701N004012200019N0150001N1+03031+02511101111ADDAA199000091GF104991041021008001001001MA1999999100841MD1210091+9999REMSYN066AAXX  23001 59559 32565 42704 10303 20251 30084 40111 52009 84200;EQDQ01  00002PRCP99
0163595590999992000062303004+22000+120770FM-12+002499999V0202701N002012200019N0250001N1+03221+02501101091ADDAA199000091GF103991031021008001001001MA1999999100821MD1810021+9999REMSYN066AAXX  23031 59559 32575 32702 10322 20250 30082 40109 58002 83200;EQDQ01  00002PRCP99
0163595590999992000062306004+22000+120770FM-12+002499999V0202601N010012200019N0250001N1+03201+02431100891ADDAA199000091GF101991011011008001001001MA1999999100621MD1710201+9999REMSYN066AAXX  23061 59559 32575 12610 10320 20243 30062 40089 57020 81100;EQDQ01  00002PRCP99
0163595590999992000062309004+22000+120770FM-12+002499999V0202901N003012200019N0150001N1+03121+02411100751ADDAA199000091GF101991011011008001001001MA1999999100481MD1710141+9999REMSYN066AAXX  23091 59559 32565 12903 10312 20241 30048 40075 57014 81100;EQDQ01  00002PRCP99
0163595590999992000062315004+22000+120770FM-12+002499999V0202901N001012200019N0100001N1+02771+02381101051ADDAA199000091GF101991011011008001001001MA1999999100771MD1010061+9999REMSYN066AAXX  23151 59559 32560 12901 10277 20238 30077 40105 50006 81100;EQDQ01  00002PRCP99
0163595590999992000062318004+22000+120770FM-12+002499999V0209999C000012200019N0100001N1+02701+02371100901ADDAA199000091GF102991021021008001001001MA1999999100621MD1710151+9999REMSYN066AAXX  23181 59559 32560 20000 10270 20237 30062 40090 57015 82200;EQDQ01  00002PRCP99
0163595590999992000062321004+22000+120770FM-12+002499999V0209999C000012200019N0100001N1+02621+02321100891ADDAA199000091GF102991021021008001001001MA1999999100611MD1510011+9999REMSYN066AAXX  23211 59559 32560 20000 10262 20232 30061 40089 55001 82200;EQDQ01  00002PRCP99
0163595590999992000062400004+22000+120770FM-12+002499999V0202601N001012200019N0200001N1+03051+02481101031ADDAA199000091GF104991041051008001001001MA1999999100761MD1110151+9999REMSYN066AAXX  24001 59559 32570 42601 10305 20248 30076 40103 51015 84500;EQDQ01  00002PRCP99
0163595590999992000062403004+22000+120770FM-12+002499999V0202401N003012200019N0200001N1+03201+02431100991ADDAA199000091GF102991021021008001001001MA1999999100721MD1810041+9999REMSYN066AAXX  24031 59559 32570 22403 10320 20243 30072 40099 58004 82200;EQDQ01  00002PRCP99
0163595590999992000062406004+22000+120770FM-12+002499999V0202501N003012200019N0250001N1+03201+02451100911ADDAA199000091GF104991031021008001001011MA1999999100641MD1810081+9999REMSYN066AAXX  24061 59559 32575 42503 10320 20245 30064 40091 58008 83201;EQDQ01  00002PRCP99
0163595590999992000062409004+22000+120770FM-12+002499999V0202701N004012200019N0250001N1+03131+02381100791ADDAA199000091GF104991021011008001001021MA1999999100521MD1610121+9999REMSYN066AAXX  24091 59559 32575 42704 10313 20238 30052 40079 56012 82102;EQDQ01  00002PRCP99
0163595590999992000062412004+22000+120770FM-12+002499999V0200301N001012200019N0200001N1+02801+02331100911ADDAA199000091GF102991011011008001001011MA1999999100631MD1110111+9999REMSYN066AAXX  24121 59559 32570 20301 10280 20233 30063 40091 51011 81101;EQDQ01  00002PRCP99
0163595590999992000062415004+22000+120770FM-12+002499999V0200201N001012200019N0200001N1+02641+02251101051ADDAA199000091GF102991021051008001001001MA1999999100771MD1110141+9999REMSYN066AAXX  24151 59559 32570 20201 10264 20225 30077 40105 51014 82500;EQDQ01  00002PRCP99
0163595590999992000062418004+22000+120770FM-12+002499999V0209999C000012200019N0200001N1+02621+02281100901ADDAA199000091GF103991031051008001001001MA1999999100621MD1710151+9999REMSYN066AAXX  24181 59559 32570 30000 10262 20228 30062 40090 57015 83500;EQDQ01  00002PRCP99
0163595590999992000062421004+22000+120770FM-12+002499999V0201001N002010360019N0200001N1+02671+02331100931ADDAA199000091GF105991021021008001011001MA1999999100651MD1310031+9999REMSYN066AAXX  24211 59559 32570 51002 10267 20233 30065 40093 53003 82210;EQDQ01  00002PRCP99
0163595590999992000062500004+22000+120770FM-12+002499999V0200901N006012200019N0250001N1+03041+02551101041ADDAA199000091GF102991021021008001001001MA1999999100771MD1110121+9999REMSYN066AAXX  25001 59559 32575 20906 10304 20255 30077 40104 51012 82200;EQDQ01  00002PRCP99
0163595590999992000062503004+22000+120770FM-12+002499999V0201001N005010075019N0200001N1+03291+02551101011ADDAA199000091GF106991061021008001001001MA1999999100741MD1810031+9999REMSYN066AAXX  25031 59559 32570 61005 10329 20255 30074 40101 58003 86200;EQDQ01  00002PRCP99
0163595590999992000062506004+22000+120770FM-12+002499999V0201101N005012200019N0200001N1+03241+02541100921ADDAA199000091GF104991041021008001001001MA1999999100651MD1710091+9999REMSYN066AAXX  25061 59559 32570 41105 10324 20254 30065 40092 57009 84200;EQDQ01  00002PRCP99
0163595590999992000062509004+22000+120770FM-12+002499999V0201101N003010075019N0200001N1+03091+02491100891ADDAA199000091GF105991051021008001001001MA1999999100621MD1510031+9999REMSYN066AAXX  25091 59559 32570 51103 10309 20249 30062 40089 55003 85200;EQDQ01  00002PRCP99
0163595590999992000062512004+22000+120770FM-12+002499999V0201001N005012200019N0180001N1+02831+02421100961ADDAA199000091GF101991011051012501001001MA1999999100691MD1110071+9999REMSYN066AAXX  25121 59559 32668 11005 10283 20242 30069 40096 51007 81500;EQDQ01  00002PRCP99
0163595590999992000062515004+22000+120770FM-12+002499999V0201001N005012200019N0150001N1+02771+02431101101ADDAA199000091GF102991021051012501001001MA1999999100821MD1110131+9999REMSYN066AAXX  25151 59559 32665 21005 10277 20243 30082 40110 51013 82500;EQDQ01  00002PRCP99
0163595590999992000062518004+22000+120770FM-12+002499999V0201001N002012200019N0150001N1+02711+02401101001ADDAA199000091GF101991011021008001001001MA1999999100721MD1810101+9999REMSYN066AAXX  25181 59559 32565 11002 10271 20240 30072 40100 58010 81200;EQDQ01  00002PRCP99
0163595590999992000062521004+22000+120770FM-12+002499999V0201001N003012200019N0180001N1+02691+02381101021ADDAA199000091GF102991021021008001001001MA1999999100741MD1310021+9999REMSYN066AAXX  25211 59559 32568 21003 10269 20238 30074 40102 53002 82200;EQDQ01  00002PRCP99
0163595590999992000062600004+22000+120770FM-12+002499999V0201101N003012200019N0200001N1+03011+02511101131ADDAA199000091GF103991031021008001001001MA1999999100861MD1110121+9999REMSYN066AAXX  26001 59559 32570 31103 10301 20251 30086 40113 51012 83200;EQDQ01  00002PRCP99
0163595590999992000062603004+22000+120770FM-12+002499999V0201101N007012200019N0200001N1+03281+02541101101ADDAA199000091GF103991031021008001001001MA1999999100831MD1710031+9999REMSYN066AAXX  26031 59559 32570 31107 10328 20254 30083 40110 57003 83200;EQDQ01  00002PRCP99
0163595590999992000062606004+22000+120770FM-12+002499999V0201201N004010075019N0250001N1+03261+02501100931ADDAA199000091GF105991051021008001001001MA1999999100661MD1710171+9999REMSYN066AAXX  26061 59559 32575 51204 10326 20250 30066 40093 57017 85200;EQDQ01  00002PRCP99
0163595590999992000062609004+22000+120770FM-12+002499999V0201201N002012200019N0250001N1+03131+02431100931ADDAA199000091GF105991031011008001001011MA1999999100661MD1410001+9999REMSYN066AAXX  26091 59559 32575 51202 10313 20243 30066 40093 54000 83101;EQDQ01  00002PRCP99
0173595590999992000062612004+22000+120770FM-12+002499999V0200901N002012200019N0200001N1+02761+02391101051ADDAA199000091GA1001+999999999GF100991001001999999001001MA1999999100771MD1110111+9999REMSYN060AAXX  26121 59559 32970 00902 10276 20239 30077 40105 51011;EQDQ01  00002PRCP99
0163595590999992000062615004+22000+120770FM-12+002499999V0201001N004012200019N0180001N1+02681+02351101191ADDAA199000091GF101991011051012501001001MA1999999100911MD1110141+9999REMSYN066AAXX  26151 59559 32668 11004 10268 20235 30091 40119 51014 81500;EQDQ01  00002PRCP99
0173595590999992000062618004+22000+120770FM-12+002499999V0200201N001012200019N0180001N1+02601+02311101031ADDAA199000091GA1001+999999999GF100991001001999999001001MA1999999100751MD1710161+9999REMSYN060AAXX  26181 59559 32968 00201 10260 20231 30075 40103 57016;EQDQ01  00002PRCP99
0163595590999992000062621004+22000+120770FM-12+002499999V0200201N001012200019N0200001N1+02531+02271101051ADDAA199000091GF102991001001999999001011MA1999999100771MD1310021+9999REMSYN066AAXX  26211 59559 32970 20201 10253 20227 30077 40105 53002 80001;EQDQ01  00002PRCP99
0163595590999992000062700004+22000+120770FM-12+002499999V0200901N004010900019N0250001N1+03061+02481101141ADDAA199000091GF105991011031008001001021MA1999999100871MD1110101+9999REMSYN066AAXX  27001 59559 32575 50904 10306 20248 30087 40114 51010 81302;EQDQ01  00002PRCP99
0163595590999992000062703004+22000+120770FM-12+002499999V0201101N004012200019N0250001N1+03301+02491101071ADDAA199000091GF105991021011008001001011MA1999999100801MD1810071+9999REMSYN066AAXX  27031 59559 32575 51104 10330 20249 30080 40107 58007 82101;EQDQ01  00002PRCP99
0163595590999992000062706004+22000+120770FM-12+002499999V0200801N004012200019N0250001N1+03261+02511100951ADDAA199000091GF102991021011008001001001MA1999999100681MD1710121+9999REMSYN066AAXX  27061 59559 32575 20804 10326 20251 30068 40095 57012 82100;EQDQ01  00002PRCP99
0163595590999992000062709004+22000+120770FM-12+002499999V0201301N005012200019N0250001N1+03191+02461100861ADDAA199000091GF102991011021008001001011MA1999999100591MD1510091+9999REMSYN066AAXX  27091 59559 32575 21305 10319 20246 30059 40086 55009 81201;EQDQ01  00002PRCP99
0163595590999992000062712004+22000+120770FM-12+002499999V0200901N003012200019N0200001N1+02801+02311100961ADDAA199000091GF102991021051012501001001MA1999999100681MD1110091+9999REMSYN066AAXX  27121 59559 32670 20903 10280 20231 30068 40096 51009 82500;EQDQ01  00002PRCP99
0173595590999992000062715004+22000+120770FM-12+002499999V0200301N001012200019N0180001N1+02661+02301101051ADDAA199000091GA1001+999999999GF100991001001999999001001MA1999999100771MD1110091+9999REMSYN060AAXX  27151 59559 32968 00301 10266 20230 30077 40105 51009;EQDQ01  00002PRCP99
0173595590999992000062718004+22000+120770FM-12+002499999V0200901N002012200019N0150001N1+02651+02311100901ADDAA199000091GA1001+999999999GF100991001001999999001001MA1999999100621MD1810151+9999REMSYN060AAXX  27181 59559 32965 00902 10265 20231 30062 40090 58015;EQDQ01  00002PRCP99
0163595590999992000062721004+22000+120770FM-12+002499999V0201001N002010900019N0200001N1+02601+02301100951ADDAA199000091GF107991011021008001001071MA1999999100671MD1210051+9999REMSYN066AAXX  27211 59559 32570 71002 10260 20230 30067 40095 52005 81207;EQDQ01  00002PRCP99
0163595590999992000062800004+22000+120770FM-12+002499999V0200401N003012200019N0250001N1+03091+02441100971ADDAA199000091GF102991021011008001001011MA1999999100701MD1310031+9999REMSYN066AAXX  28001 59559 32575 20403 10309 20244 30070 40097 53003 82101;EQDQ01  00002PRCP99
0163595590999992000062803004+22000+120770FM-12+002499999V0201901N003012200019N0250001N1+03221+02421100931ADDAA199000091GF104991021021008001001051MA1999999100661MD1810041+9999REMSYN066AAXX  28031 59559 32575 41903 10322 20242 30066 40093 58004 82205;EQDQ01  00002PRCP99
0163595590999992000062806004+22000+120770FM-12+002499999V0201701N003012200019N0250001N1+03291+02401100771ADDAA199000091GF103991011011008001001011MA1999999100501MD1810161+9999REMSYN066AAXX  28061 59559 32575 31703 10329 20240 30050 40077 58016 81101;EQDQ01  00002PRCP99
0163595590999992000062809004+22000+120770FM-12+002499999V0201701N004012200019N0250001N1+03191+02501100701ADDAA199000091GF105991011011008001001011MA1999999100431MD1510071+9999REMSYN066AAXX  28091 59559 32575 51704 10319 20250 30043 40070 55007 81101;EQDQ01  00002PRCP99
0163595590999992000062812004+22000+120770FM-12+002499999V0209999C000012200019N0200001N1+02831+02431100841ADDAA199000091GF105991021011008001001011MA1999999100571MD1310141+9999REMSYN066AAXX  28121 59559 32570 50000 10283 20243 30057 40084 53014 82101;EQDQ01  00002PRCP99
0163595590999992000062815004+22000+120770FM-12+002499999V0201001N002012200019N0150001N1+02741+02381100871ADDAA199000091GF103991031051008001001001MA1999999100591MD1010021+9999REMSYN066AAXX  28151 59559 32565 31002 10274 20238 30059 40087 50002 83500;EQDQ01  00002PRCP99
0163595590999992000062818004+22000+120770FM-12+002499999V0209999C000012200019N0200001N1+02621+02321100681ADDAA199000091GF102991021051008001001001MA1999999100401MD1810191+9999REMSYN066AAXX  28181 59559 32570 20000 10262 20232 30040 40068 58019 82500;EQDQ01  00002PRCP99
0163595590999992000062821004+22000+120770FM-12+002499999V0203001N002010360019N0200001N1+02531+02281100691ADDAA199000091GF106991021021008001011011MA1999999100411MD1310011+9999REMSYN066AAXX  28211 59559 32570 63002 10253 20228 30041 40069 53001 82211;EQDQ01  00002PRCP99
0163595590999992000062900004+22000+120770FM-12+002499999V0209999C000010360019N0250001N1+02981+02471100791ADDAA199000091GF106991021021008001011001MA1999999100521MD1110111+9999REMSYN066AAXX  29001 59559 32575 60000 10298 20247 30052 40079 51011 82210;EQDQ01  00002PRCP99
0163595590999992000062903004+22000+120770FM-12+002499999V0202201N004010360019N0250001N1+03191+02441100781ADDAA199000091GF105991031021008001011001MA1999999100511MD1810011+9999REMSYN066AAXX  29031 59559 32575 52204 10319 20244 30051 40078 58001 83210;EQDQ01  00002PRCP99
0163595590999992000062912004+22000+120770FM-12+002499999V0200701N002012200019N0100001N1+02771+02331100701ADDAA199000091GF102991021021008001001001MA1999999100431MD1210131+9999REMSYN066AAXX  29121 59559 32560 20702 10277 20233 30043 40070 52013 82200;EQDQ01  00002PRCP99
0163595590999992000062915004+22000+120770FM-12+002499999V0201001N002012200019N0100001N1+02681+02311100901ADDAA199000091GF102991021021008001001001MA1999999100621MD1110191+9999REMSYN066AAXX  29151 59559 32560 21002 10268 20231 30062 40090 51019 82200;EQDQ01  00002PRCP99
0163595590999992000062918004+22000+120770FM-12+002499999V0201101N002012200019N0100001N1+02641+02291100701ADDAA199000091GF102991021021008001001001MA1999999100421MD1710201+9999REMSYN066AAXX  29181 59559 32560 21102 10264 20229 30042 40070 57020 82200;EQDQ01  00002PRCP99
0163595590999992000062921004+22000+120770FM-12+002499999V0200901N004012200019N0100001N1+02601+02281100691ADDAA199000091GF104991041021008001001001MA1999999100411MD1510011+9999REMSYN066AAXX  29211 59559 32560 40904 10260 20228 30041 40069 55001 84200;EQDQ01  00002PRCP99
0163595590999992000063000004+22000+120770FM-12+002499999V0200901N003012200019N0200001N1+03031+02531100821ADDAA199000091GF102991021021008001001001MA1999999100551MD1210141+9999REMSYN066AAXX  30001 59559 32570 20903 10303 20253 30055 40082 52014 82200;EQDQ01  00002PRCP99
0163595590999992000063003004+22000+120770FM-12+002499999V0202401N002012200019N0200001N1+03111+02421100851ADDAA199000091GF104991041051008001001001MA1999999100581MD1010031+9999REMSYN066AAXX  30031 59559 32570 42402 10311 20242 30058 40085 50003 84500;EQDQ01  00002PRCP99
0163595590999992000063009004+22000+120770FM-12+002499999V0200801N003012200019N0250001N1+03201+02411100641ADDAA199000091GF102991021021008001001001MA1999999100371MD1710131+9999REMSYN066AAXX  30091 59559 32575 20803 10320 20241 30037 40064 57013 82200;EQDQ01  00002PRCP99
0173595590999992000063012004+22000+120770FM-12+002499999V0200701N004012200019N0200001N1+02811+02291100781ADDAA199000091GA1001+999999999GF100991001001999999001001MA1999999100511MD1310141+9999REMSYN060AAXX  30121 59559 32970 00704 10281 20229 30051 40078 53014;EQDQ01  00002PRCP99
0173595590999992000063015004+22000+120770FM-12+002499999V0200401N008012200019N0150001N1+02881+02281100901ADDAA199000091GA1001+999999999GF100991001001999999001001MA1999999100631MD1010121+9999REMSYN060AAXX  30151 59559 32965 00408 10288 20228 30063 40090 50012;EQDQ01  00002PRCP99
0173595590999992000063018004+22000+120770FM-12+002499999V0200701N001012200019N0150001N1+02811+02261100691ADDAA199000091GA1001+999999999GF100991001001999999001001MA1999999100421MD1710211+9999REMSYN060AAXX  30181 59559 32965 00701 10281 20226 30042 40069 57021;EQDQ01  00002PRCP99
0178595590999992000063021004+22000+120770FM-12+002499999V0201201N003010075019N0100001N1+02591+02311100801ADDAA100001091AY161031AY221031GF108991081071008001999999MA1999999100521MD1310101+9999MW1601REMSYN078AAXX  30211 59559 11560 81203 10259 20231 30052 40080 53010 6001/ 76062 887//;
0178595590999992000070100004+22000+120770FM-12+002499999V0200501N004010075019N0150001N1+02581+02311100901ADDAA112011991AY161061AY261061GF108991081071008001999999MA1999999100621MD1110101+9999MW1601REMSYN078AAXX  01001 59559 11565 80504 10258 20231 30062 40090 51010 60122 76066 887//;
0178595590999992000070103004+22000+120770FM-12+002499999V0202101N001010075019N0150001N1+02601+02301100991ADDAA100009991AY161031AY261031GF108991081071008001999999MA1999999100711MD1210091+9999MW1211REMSYN078AAXX  01031 59559 11565 82101 10260 20230 30071 40099 52009 6010/ 72166 887//;
0178595590999992000070106004+22000+120770FM-12+002499999V0201001N007010120019N0150001N1+02881+02381100731ADDAA106010991AY161061AY261061GF107991061081008001031999MA1999999100461MD1610251+9999MW1211REMSYN078AAXX  01061 59559 11565 71007 10288 20238 30046 40073 56025 60111 72166 8683/;
0178595590999992000070109004+22000+120770FM-12+002499999V0200801N002010075019N0150001N1+02701+02431100701ADDAA100013091AY181031AY221031GF105991051031008001001001MA1999999100421MD1510041+9999MW1281REMSYN078AAXX  01091 59559 11565 50802 10270 20243 30042 40070 55004 6013/ 72882 85300;
0178595590999992000070112004+22000+120770FM-12+002499999V0201001N002010075019N0120001N1+02461+02141100801ADDAA112016091AY191061AY281061GF108991081071008001999999MA1999999100521MD1210101+9999MW1611REMSYN078AAXX  01121 59559 11562 81002 10246 20214 30052 40080 52010 60162 76198 887//;
0178595590999992000070115004+22000+120770FM-12+002499999V0201401N002012200019N0150001N1+02581+02251100871ADDAA100000791AY161031AY211031GF102991021051017501001001MA1999999100591MD1010071+9999MW1011REMSYN078AAXX  01151 59559 11765 21402 10258 20225 30059 40087 50007 6990/ 70161 82500;
0178595590999992000070118004+22000+120770FM-12+002499999V0200401N004012200019N0150001N1+02791+02211100721ADDAA106000791AY191061AY261061GF102991021091008001001001MA1999999100451MD1810141+9999MW1131REMSYN078AAXX  01181 59559 11565 20404 10279 20221 30045 40072 58014 69901 71396 82900;
0178595590999992000070121004+22000+120770FM-12+002499999V0200801N001010075019N0150001N1+02531+02271100641ADDAA100004191AY191031AY281031GF107991071071008001999999MA1999999100361MD1810091+9999MW1601REMSYN078AAXX  01211 59559 11565 70801 10253 20227 30036 40064 58009 6004/ 76098 877//;
0178595590999992000070200004+22000+120770FM-12+002499999V0200701N006012200019N0180001N1+02931+02401100691ADDAA112004191AY191061AY281061GF102991021011008001041001MA1999999100421MD1010061+9999MW1011REMSYN078AAXX  02001 59559 11568 20706 10293 20240 30042 40069 50006 60042 70198 82140;
0144595590999992000070203004+22000+120770FM-12+002499999V0200501N009012200019N0200001N1+03181+02441100781ADDAA199000021GF103991031011008001001001MA1999999100511MD1010091+9999REMSYN066AAXX  02031 59559 32570 30509 10318 20244 30051 40078 50009 83100;
0144595590999992000070206004+22000+120770FM-12+002499999V0200701N011012200019N0250001N1+03231+02421100631ADDAA199000021GF102991021021008001001001MA1999999100361MD1710151+9999REMSYN066AAXX  02061 59559 32575 20711 10323 20242 30036 40063 57015 82200;
0144595590999992000070209004+22000+120770FM-12+002499999V0200501N004012200019N0200001N1+02961+02321100541ADDAA199000021GF104991041021008001001001MA1999999100271MD1510091+9999REMSYN066AAXX  02091 59559 32570 40504 10296 20232 30027 40054 55009 84200;
0178595590999992000070212004+22000+120770FM-12+002499999V0200901N004012200019N0150001N1+02661+02321100651ADDAA112000591AY181061AY211061GF103991031051008001001001MA1999999100371MD1210101+9999MW1251REMSYN078AAXX  02121 59559 11565 30904 10266 20232 30037 40065 52010 69952 72581 83500;
0144595590999992000070215004+22000+120770FM-12+002499999V0200901N003012200019N0150001N1+02541+02251100721ADDAA199000021GF104991041051008001001001MA1999999100441MD1010071+9999REMSYN066AAXX  02151 59559 32565 40903 10254 20225 30044 40072 50007 84500;
0178595590999992000070218004+22000+120770FM-12+002499999V0200701N006012200019N0150001N1+02681+02261100511ADDAA106000591AY181061AY211061GF102991021051008001001001MA1999999100231MD1710211+9999MW1021REMSYN078AAXX  02181 59559 11565 20706 10268 20226 30023 40051 57021 69951 70281 82500;
0150595590999992000070221004+22000+120770FM-12+002499999V0200901N002012200019N0200001N1+02631+02241100441ADDAA100000591GF102991021021008001001001MA1999999100161MD1510071+9999REMSYN072AAXX  02211 59559 12570 20902 10263 20224 30016 40044 55007 6995/ 82200;
0150595590999992000070300004+22000+120770FM-12+002499999V0200401N007012200019N0250001N1+03061+02281100461ADDAA112000591GF103991021021008001011001MA1999999100191MD1010031+9999REMSYN072AAXX  03001 59559 12575 30407 10306 20228 30019 40046 50003 69952 82210;
0163595590999992000070303004+22000+120770FM-12+002499999V0200601N005012200019N0250001N1+03241+02311100431ADDAA199000091GF102991021011008001001001MA1999999100161MD1510031+9999REMSYN066AAXX  03031 59559 32575 20605 10324 20231 30016 40043 55003 82100;EQDQ01  00002PRCP99
0163595590999992000070306004+22000+120770FM-12+002499999V0200201N009012200019N0250001N1+03251+02321100331ADDAA199000091GF103991021011008001001011MA1999999100061MD1710101+9999REMSYN066AAXX  03061 59559 32575 30209 10325 20232 30006 40033 57010 82101;EQDQ01  00002PRCP99
0163595590999992000070309004+22000+120770FM-12+002499999V0200201N006010075019N0250001N1+03161+02361100191ADDAA199000091GF105991051021008001001001MA1999999099921MD1610141+9999REMSYN066AAXX  03091 59559 32575 50206 10316 20236 39992 40019 56014 85200;EQDQ01  00002PRCP99
0163595590999992000070312004+22000+120770FM-12+002499999V0200501N007012200019N0200001N1+02881+02311100291ADDAA199000091GF104991041021008001001001MA1999999100021MD1110101+9999REMSYN066AAXX  03121 59559 32570 40507 10288 20231 30002 40029 51010 84200;EQDQ01  00002PRCP99
0178595590999992000070315004+22000+120770FM-12+002499999V0200801N009010075019N0100001N1+02601+02291100341ADDAA100002091AY191031AY261031GF108991081031008001999999MA1999999100061MD1010041+9999MW1951REMSYN078AAXX  03151 59559 11560 80809 10260 20229 30006 40034 50004 6002/ 79596 883//;
0178595590999992000070318004+22000+120770FM-12+002499999V0201301N001010075019N0150001N1+02621+02241100211ADDAA106002091AY191061AY261061GF106991061051008001001001MA1999999099941MD1710121+9999MW1021REMSYN078AAXX  03181 59559 11565 61301 10262 20224 39994 40021 57012 60021 70296 86500;
0150595590999992000070321004+22000+120770FM-12+002499999V0200801N001010360019N0200001N1+02591+02211100071ADDAA100002091GF105991011011008001041001MA1999999099801MD1810141+9999REMSYN072AAXX  03211 59559 12570 50801 10259 20221 39980 40007 58014 6002/ 81140;
0150595590999992000070400004+22000+120770FM-12+002499999V0200401N004010360019N0250001N1+03031+02341100141ADDAA112002091GF106991021011008001041011MA1999999099871MD1110071+9999REMSYN072AAXX  04001 59559 12575 60404 10303 20234 39987 40014 51007 60022 82141;
0144595590999992000070403004+22000+120770FM-12+002499999V0200701N010010075019N0250001N1+03151+02451100131ADDAA199000021GF105991051021008001001051MA1999999099861MD1510011+9999REMSYN066AAXX  04031 59559 32575 50710 10315 20245 39986 40013 55001 85205;
0163595590999992000070406004+22000+120770FM-12+002499999V0200901N005012200019N0250001N1+03221+02471100021ADDAA199000091GF104991041051008001001001MA1999999099751MD1610111+9999REMSYN066AAXX  04061 59559 32575 40905 10322 20247 39975 40002 56011 84500;EQDQ01  00002PRCP99
0179595590999992000070409004+22000+120770FM-12+002499999V0200601N003019999999N0150001N1+02981+02311100001ADDAA199000091GF105991999051008001001001MA1999999099731MD1510021+9999REMSYN066AAXX  04091 59559 32565 50603 10298 20231 39973 40000 55002 84500;EQDQ01+000042SCOTLCQ02  00002PRCP99
0178595590999992000070412004+22000+120770FM-12+002499999V0201001N004010075019N0100001N1+02611+02331100141ADDAA112005191AY161061AY221061GF108991081071008001999999MA1999999099871MD1110141+9999MW1601REMSYN078AAXX  04121 59559 11560 81004 10261 20233 39987 40014 51014 60052 76062 887//;
0144595590999992000070415004+22000+120770FM-12+002499999V0200401N004010075019N0100001N1+02711+02251100171ADDAA199000021GF108991081051008001999999MA1999999099901MD1010031+9999REMSYN066AAXX  04151 59559 32560 80404 10271 20225 39990 40017 50003 885//;
0150595590999992000070418004+22000+120770FM-12+002499999V0200401N006012200019N0100001N1+02651+02161100011ADDAA106000591GF104991041051008001001001MA1999999099741MD1810161+9999REMSYN072AAXX  04181 59559 12560 40406 10265 20216 39974 40001 58016 69951 84500;
0178595590999992000070500004+22000+120770FM-12+002499999V0200401N007010075019N0150001N1+02671+02181100041ADDAA112003091AY161061AY221061GF108991081061008001999999MA1999999099771MD1310051+9999MW1021REMSYN078AAXX  05001 59559 11565 80407 10267 20218 39977 40004 53005 60032 70262 886//;
0178595590999992000070503004+22000+120770FM-12+002499999V0200401N010010075019N0150001N1+02631+02341100071ADDAA100009991AY161031AY221031GF108991081071008001999999MA1999999099801MD1210031+9999MW1601REMSYN078AAXX  05031 59559 11565 80410 10263 20234 39980 40007 52003 6010/ 76062 887//;
0178595590999992000070506004+22000+120770FM-12+002499999V0200201N007010075019N0100001N1+02441+02421099991ADDAA106023991AY161061AY261061GF108991081071008001999999MA1999999099711MD1810091+9999MW1611REMSYN078AAXX  05061 59559 11560 80207 10244 20242 39971 49999 58009 60241 76166 887//;
0178595590999992000070509004+22000+120770FM-12+002499999V0200301N008010075019N0100001N1+02451+02441099871ADDAA100029091AY161031AY261031GF108991081071008001999999MA1999999099591MD1610121+9999MW1611REMSYN078AAXX  05091 59559 11560 80308 10245 20244 39959 49987 56012 6029/ 76166 887//;
0178595590999992000070512004+22000+120770FM-12+002499999V0200301N011010075019N0100001N1+02391+02371099951ADDAA112040991AY161061AY261061GF108991081071008001999999MA1999999099671MD1310081+9999MW1611REMSYN078AAXX  05121 59559 11560 80311 10239 20237 39967 49995 53008 60412 76166 887//;
0178595590999992000070515004+22000+120770FM-12+002499999V0200301N020010075019N0100001N1+02411+02281099941ADDAA100008991AY161031AY261031GF108991081071008001999999MA1999999099661MD1810011+9999MW1611REMSYN078AAXX  05151 59559 11560 80320 10241 20228 39966 49994 58001 6009/ 76166 887//;
0178595590999992000070518004+22000+120770FM-12+002499999V0200301N008010075019N0100001N1+02391+02351099901ADDAA106022191AY161061AY261061GF108991081071008001999999MA1999999099621MD1510041+9999MW1611REMSYN078AAXX  05181 59559 11560 80308 10239 20235 39962 49990 55004 60221 76166 887//;
0178595590999992000070521004+22000+120770FM-12+002499999V0200301N015010075019N0150001N1+02471+02371099851ADDAA100032091AY161031AY261031GF107991071021008001001001MA1999999099571MD1810051+9999MW1211REMSYN078AAXX  05211 59559 11565 70315 10247 20237 39957 49985 58005 6032/ 72166 87200;
0197595590999992000070603004+22000+120770FM-12+002499999V0200501N007010075019N0100001N1+02491+02491999999ADDAA100014091AY161031AY261031GF108991081071008001999999MA1999999099811MD1310141+9999MW1631REMSYN078AAXX  06031 59559 11560 80507 10249 20249 39981 40109 53014 6014/ 76366 887//;EQDQ01 101093APOSLP
0178595590999992000070606004+22000+120770FM-12+002499999V0200701N008010075019N0015001N1+02451+02451100011ADDAA106055991AY161061AY261061GF108991081071008001999999MA1999999099731MD1510081+9999MW1631REMSYN078AAXX  06061 59559 11515 80708 10245 20245 39973 40001 55008 60561 76366 887//;
0178595590999992000070609004+22000+120770FM-12+002499999V0200501N008010075019N0100001N1+02551+02321099921ADDAA100089991AY161031AY261031GF108991081071008001999999MA1999999099651MD1810081+9999MW1631REMSYN078AAXX  06091 59559 11560 80508 10255 20232 39965 49992 58008 6090/ 76366 887//;
0178595590999992000070612004+22000+120770FM-12+002499999V0200701N010010075019N0080001N1+02481+02201100051ADDAA112108091AY161061AY261061GF108991081071008001999999MA1999999099771MD1310121+9999MW1631REMSYN078AAXX  06121 59559 11558 80710 10248 20220 39977 40005 53012 61082 76366 887//;
0178595590999992000070615004+22000+120770FM-12+002499999V0200801N005010075019N0120001N1+02451+02101100071ADDAA100033091AY161031AY221031GF108991081061008001999999MA1999999099791MD1010021+9999MW1211REMSYN078AAXX  06151 59559 11562 80805 10245 20210 39979 40007 50002 6033/ 72162 886//;
0178595590999992000070618004+22000+120770FM-12+002499999V0200701N005012200019N0150001N1+02581+02051099851ADDAA106033091AY161061AY221061GF102991021011008001001001MA1999999099581MD1810211+9999MW1011REMSYN078AAXX  06181 59559 11565 20705 10258 20205 39958 49985 58021 60331 70162 82100;
0150595590999992000070621004+22000+120770FM-12+002499999V0200601N006010120019N0150001N1+02681+02041099821ADDAA100033091GF107991071051012501999999MA1999999099551MD1510031+9999REMSYN072AAXX  06211 59559 12665 70606 10268 20204 39955 49982 55003 6033/ 875//;
0178595590999992000070703004+22000+120770FM-12+002499999V0201101N003010075019N0050001N1+02371+02101100041ADDAA100048091AY161031AY261031GF108991081071008001999999MA1999999099761MD1410001+9999MW1631REMSYN078AAXX  07031 59559 11550 81103 10237 20210 39976 40004 54000 6048/ 76366 887//;
0178595590999992000070706004+22000+120770FM-12+002499999V0200501N004010075019N0080001N1+02531+02211099881ADDAA106054191AY161061AY261061GF108991081071008001999999MA1999999099611MD1610151+9999MW1611REMSYN078AAXX  07061 59559 11558 80504 10253 20221 39961 49988 56015 60541 76166 887//;
0178595590999992000070709004+22000+120770FM-12+002499999V0200501N006010075019N0150001N1+02611+02051099721ADDAA100054191AY161031AY221031GF108991081031008001999999MA1999999099451MD1810161+9999MW1211REMSYN078AAXX  07091 59559 11565 80506 10261 20205 39945 49972 58016 6054/ 72162 883//;
0178595590999992000070712004+22000+120770FM-12+002499999V0200501N007010075019N0100001N1+02551+02091099881ADDAA112061091AY161061AY261061GF108991081071008001999999MA1999999099611MD1110161+9999MW1611REMSYN078AAXX  07121 59559 11560 80507 10255 20209 39961 49988 51016 60612 76166 887//;
0178595590999992000070715004+22000+120770FM-12+002499999V0200801N005010120019N0150001N1+02541+02131099881ADDAA100005191AY161031AY221031GF108991081051012501999999MA1999999099611MD1410001+9999MW1211REMSYN078AAXX  07151 59559 11665 80805 10254 20213 39961 49988 54000 6005/ 72162 885//;
0178595590999992000070718004+22000+120770FM-12+002499999V0200501N007010120019N0150001N1+02621+02091099731ADDAA106005191AY161061AY221061GF108991081051012501999999MA1999999099461MD1710151+9999MW1021REMSYN078AAXX  07181 59559 11665 80507 10262 20209 39946 49973 57015 60051 70262 885//;
0150595590999992000070721004+22000+120770FM-12+002499999V0200301N007010120019N0150001N1+02621+02061099661ADDAA100005191GF108991081051012501999999MA1999999099391MD1810071+9999REMSYN072AAXX  07211 59559 12665 80307 10262 20206 39939 49966 58007 6005/ 885//;
0178595590999992000070800004+22000+120770FM-12+002499999V0200301N010010075019N0150001N1+02641+02101099711ADDAA112006191AY161061AY221061GF108991081031008001999999MA1999999099441MD1310051+9999MW1211REMSYN078AAXX  08001 59559 11565 80310 10264 20210 39944 49971 53005 60062 72162 883//;
0178595590999992000070803004+22000+120770FM-12+002499999V0200401N007010075019N0070001N1+02521+02091099741ADDAA100002091AY161031AY261031GF108991081071008001999999MA1999999099471MD1310031+9999MW1631REMSYN078AAXX  08031 59559 11557 80407 10252 20209 39947 49974 53003 6002/ 76366 887//;
0178595590999992000070806004+22000+120770FM-12+002499999V0200801N007010042019N0100001N1+02481+02151099691ADDAA106031091AY161061AY261061GF108991081071004501999999MA1999999099421MD1510051+9999MW1631REMSYN078AAXX  08061 59559 11460 80807 10248 20215 39942 49969 55005 60311 76366 887//;
0178595590999992000070809004+22000+120770FM-12+002499999V0200401N008010075019N0100001N1+02451+02091099471ADDAA100031091AY161031AY261031GF108991081071008001999999MA1999999099201MD1710221+9999MW1611REMSYN078AAXX  08091 59559 11560 80408 10245 20209 39920 49947 57022 6031/ 76166 887//;
0178595590999992000070812004+22000+120770FM-12+002499999V0200401N024010075019N0100001N1+02461+02071099381ADDAA112038191AY161061AY261061GF108991081071008001999999MA1999999099111MD1510091+9999MW1611REMSYN078AAXX  08121 59559 11560 80424 10246 20207 39911 49938 55009 60382 76166 887//;
0178595590999992000070815004+22000+120770FM-12+002499999V0200201N010010075019N0100001N1+02541+02101099251ADDAA100007191AY161031AY221031GF108991081071008001999999MA1999999098981MD1810131+9999MW1021REMSYN078AAXX  08151 59559 11560 80210 10254 20210 39898 49925 58013 6007/ 70262 887//;
0178595590999992000070818004+22000+120770FM-12+002499999V0200201N009010075019N0100001N1+02421+02421098791ADDAA106048091AY161061AY261061GF108991081071008001999999MA1999999098521MD1810461+9999MW1651REMSYN078AAXX  08181 59559 11560 80209 10242 20242 39852 49879 58046 60481 76566 887//;
0178595590999992000070821004+22000+120770FM-12+002499999V0203101N010010042019N0100001N1+02331+02331098671ADDAA100129091AY161031AY261031GF108991081071004501999999MA1999999098401MD1510121+9999MW1651REMSYN078AAXX  08211 59559 11460 83110 10233 20233 39840 49867 55012 6129/ 76566 887//;
0178595590999992000070900004+22000+120770FM-12+002499999V0202501N019010042019N0060001N1+02551+02551099301ADDAA112188091AY161061AY261061GF108991081071004501999999MA1999999099031MD1110631+9999MW1651REMSYN078AAXX  09001 59559 11456 82519 10255 20255 39903 49930 51063 61882 76566 887//;
0178595590999992000070903004+22000+120770FM-12+002499999V0202501N012010042019N0080001N1+02621+02331099621ADDAA100020191AY161031AY261031GF108991081071004501999999MA1999999099351MD1110321+9999MW1611REMSYN078AAXX  09031 59559 11458 82512 10262 20233 39935 49962 51032 6020/ 76166 887//;
0178595590999992000070906004+22000+120770FM-12+002499999V0202801N006010042019N0100001N1+02751+02331099701ADDAA106020191AY161061AY221061GF108991081051004501999999MA1999999099431MD1310081+9999MW1021REMSYN078AAXX  09061 59559 11460 82806 10275 20233 39943 49970 53008 60201 70262 885//;
0150595590999992000070909004+22000+120770FM-12+002499999V0202901N004010075019N0100001N1+02751+02381099821ADDAA100020191GF108991081051008001999999MA1999999099551MD1210121+9999REMSYN072AAXX  09091 59559 12560 82904 10275 20238 39955 49982 52012 6020/ 885//;
0150595590999992000070912004+22000+120770FM-12+002499999V0203001N002010075019N0100001N1+02691+02371100051ADDAA112020191GF108991081051008001999999MA1999999099781MD1110231+9999REMSYN072AAXX  09121 59559 12560 83002 10269 20237 39978 40005 51023 60202 885//;
0144595590999992000070915004+22000+120770FM-12+002499999V0202901N003010075019N0100001N1+02651+02391100231ADDAA199000021GF108991081051008001999999MA1999999099961MD1010181+9999REMSYN066AAXX  09151 59559 32560 82903 10265 20239 39996 40023 50018 885//;
0163595590999992000070918004+22000+120770FM-12+002499999V0203201N001010075019N0100001N1+02521+02421100241ADDAA199000091GF108991081051008001999999MA1999999099961MD1410001+9999REMSYN066AAXX  09181 59559 32560 83201 10252 20242 39996 40024 54000 885//;EQDQ01  00002PRCP99
0163595590999992000070921004+22000+120770FM-12+002499999V0209999C000010075019N0100001N1+02451+02421100331ADDAA199000091GF108991081051008001999999MA1999999100051MD1310091+9999REMSYN066AAXX  09211 59559 32560 80000 10245 20242 30005 40033 53009 885//;EQDQ01  00002PRCP99
0163595590999992000071000004+22000+120770FM-12+002499999V0203601N001010075019N0200001N1+02811+02491100541ADDAA199000091GF106991061051008001001001MA1999999100271MD1110221+9999REMSYN066AAXX  10001 59559 32570 63601 10281 20249 30027 40054 51022 86500;EQDQ01  00002PRCP99
0163595590999992000071003004+22000+120770FM-12+002499999V0201801N002010075019N0200001N1+03001+02631100651ADDAA199000091GF105991051051008001001001MA1999999100381MD1110111+9999REMSYN066AAXX  10031 59559 32570 51802 10300 20263 30038 40065 51011 85500;EQDQ01  00002PRCP99
0163595590999992000071006004+22000+120770FM-12+002499999V0201501N003010075019N0200001N1+03031+02611100621ADDAA199000091GF107991071051008001001001MA1999999100351MD1510031+9999REMSYN066AAXX  10061 59559 32570 71503 10303 20261 30035 40062 55003 87500;EQDQ01  00002PRCP99
0163595590999992000071009004+22000+120770FM-12+002499999V0201501N002010900019N0250001N1+03031+02501100571ADDAA199000091GF107991011021008001001071MA1999999100301MD1510051+9999REMSYN066AAXX  10091 59559 32575 71502 10303 20250 30030 40057 55005 81207;EQDQ01  00002PRCP99
0163595590999992000071012004+22000+120770FM-12+002499999V0200901N007012200019N0200001N1+02711+02521100771ADDAA199000091GF104991011021008001001061MA1999999100491MD1210191+9999REMSYN066AAXX  10121 59559 32570 40907 10271 20252 30049 40077 52019 81206;EQDQ01  00002PRCP99
0163595590999992000071015004+22000+120770FM-12+002499999V0201001N005012200019N0150001N1+02821+02621100971ADDAA199000091GF103991031051008001001001MA1999999100691MD1110201+9999REMSYN066AAXX  10151 59559 32565 31005 10282 20262 30069 40097 51020 83500;EQDQ01  00002PRCP99
0163595590999992000071018004+22000+120770FM-12+002499999V0201201N008010075019N0150001N1+02781+02661100901ADDAA199000091GF105991051051008001001001MA1999999100621MD1710071+9999REMSYN066AAXX  10181 59559 32565 51208 10278 20266 30062 40090 57007 85500;EQDQ01  00002PRCP99
0163595590999992000071021004+22000+120770FM-12+002499999V0201201N008010075019N0150001N1+02771+02591100931ADDAA199000091GF106991061051008001001001MA1999999100651MD1310031+9999REMSYN066AAXX  10211 59559 32565 61208 10277 20259 30065 40093 53003 86500;EQDQ01  00002PRCP99
0163595590999992000071100004+22000+120770FM-12+002499999V0201101N007012200019N0200001N1+02841+02581101111ADDAA199000091GF104991041021008001001001MA1999999100831MD1210181+9999REMSYN066AAXX  11001 59559 32570 41107 10284 20258 30083 40111 52018 84200;EQDQ01  00002PRCP99
0163595590999992000071103004+22000+120770FM-12+002499999V0201001N005010075019N0200001N1+03121+02651101141ADDAA199000091GF106991061021008001001001MA1999999100871MD1010041+9999REMSYN066AAXX  11031 59559 32570 61005 10312 20265 30087 40114 50004 86200;EQDQ01  00002PRCP99
0163595590999992000071106004+22000+120770FM-12+002499999V0200801N010012200019N0250001N1+03171+02521101051ADDAA199000091GF103991031021008001001001MA1999999100781MD1810091+9999REMSYN066AAXX  11061 59559 32575 30810 10317 20252 30078 40105 58009 83200;EQDQ01  00002PRCP99
0163595590999992000071109004+22000+120770FM-12+002499999V0200801N005012200019N0250001N1+03041+02571101001ADDAA199000091GF102991021011008001001001MA1999999100731MD1510051+9999REMSYN066AAXX  11091 59559 32575 20805 10304 20257 30073 40100 55005 82100;EQDQ01  00002PRCP99
0163595590999992000071112004+22000+120770FM-12+002499999V0200901N003012200019N0200001N1+02781+02571101151ADDAA199000091GF102991021051008001001001MA1999999100871MD1310141+9999REMSYN066AAXX  11121 59559 32570 20903 10278 20257 30087 40115 53014 82500;EQDQ01  00002PRCP99
0163595590999992000071115004+22000+120770FM-12+002499999V0200801N002012200019N0200001N1+02721+02551101231ADDAA199000091GF102991021051008001001001MA1999999100951MD1010081+9999REMSYN066AAXX  11151 59559 32570 20802 10272 20255 30095 40123 50008 82500;EQDQ01  00002PRCP99
0163595590999992000071118004+22000+120770FM-12+002499999V0200901N002012200019N0200001N1+02651+02521101101ADDAA199000091GF102991021051008001001001MA1999999100821MD1610131+9999REMSYN066AAXX  11181 59559 32570 20902 10265 20252 30082 40110 56013 82500;EQDQ01  00002PRCP99
0163595590999992000071121004+22000+120770FM-12+002499999V0209999C000012200019N0200001N1+02581+02461101061ADDAA199000091GF102991021021008001011001MA1999999100781MD1510041+9999REMSYN066AAXX  11211 59559 32570 20000 10258 20246 30078 40106 55004 82210;EQDQ01  00002PRCP99
0163595590999992000071200004+22000+120770FM-12+002499999V0200701N007012200019N0250001N1+02971+02501101061ADDAA199000091GF104991021021008001011001MA1999999100791MD1010011+9999REMSYN066AAXX  12001 59559 32575 40707 10297 20250 30079 40106 50001 82210;EQDQ01  00002PRCP99
0163595590999992000071203004+22000+120770FM-12+002499999V0200701N006012200019N0200001N1+03111+02491101081ADDAA199000091GF104991041021008001001001MA1999999100811MD1010021+9999REMSYN066AAXX  12031 59559 32570 40706 10311 20249 30081 40108 50002 84200;EQDQ01  00002PRCP99
0163595590999992000071206004+22000+120770FM-12+002499999V0200901N005010360019N0250001N1+03181+02571100961ADDAA199000091GF105991031021008001011001MA1999999100691MD1710121+9999REMSYN066AAXX  12061 59559 32575 50905 10318 20257 30069 40096 57012 83210;EQDQ01  00002PRCP99
0163595590999992000071209004+22000+120770FM-12+002499999V0200601N004012200019N0250001N1+02991+02461100871ADDAA199000091GF102991021011008001001001MA1999999100601MD1510091+9999REMSYN066AAXX  12091 59559 32575 20604 10299 20246 30060 40087 55009 82100;EQDQ01  00002PRCP99
0163595590999992000071212004+22000+120770FM-12+002499999V0200501N002012200019N0200001N1+02731+02321100951ADDAA199000091GF102991021051008001001001MA1999999100671MD1310071+9999REMSYN066AAXX  12121 59559 32570 20502 10273 20232 30067 40095 53007 82500;EQDQ01  00002PRCP99
0163595590999992000071215004+22000+120770FM-12+002499999V0200801N002012200019N0200001N1+02641+02421101031ADDAA199000091GF103991031051008001001001MA1999999100751MD1010081+9999REMSYN066AAXX  12151 59559 32570 30802 10264 20242 30075 40103 50008 83500;EQDQ01  00002PRCP99
0163595590999992000071218004+22000+120770FM-12+002499999V0200601N006012200019N0200001N1+02711+02291100861ADDAA199000091GF102991021051008001001001MA1999999100581MD1710171+9999REMSYN066AAXX  12181 59559 32570 20606 10271 20229 30058 40086 57017 82500;EQDQ01  00002PRCP99
0163595590999992000071221004+22000+120770FM-12+002499999V0200601N004012200019N0200001N1+02741+02201100791ADDAA199000091GF104991021021008001001011MA1999999100511MD1710071+9999REMSYN066AAXX  12211 59559 32570 40604 10274 20220 30051 40079 57007 82201;EQDQ01  00002PRCP99
0163595590999992000071300004+22000+120770FM-12+002499999V0200601N004012200019N0150001N1+02941+02451100861ADDAA199000091GF106991031021008001001011MA1999999100591MD1110081+9999REMSYN066AAXX  13001 59559 32565 60604 10294 20245 30059 40086 51008 83201;EQDQ01  00002PRCP99
0163595590999992000071303004+22000+120770FM-12+002499999V0200701N011010360019N0200001N1+03171+02491100781ADDAA199000091GF105991031021008001011001MA1999999100511MD1810081+9999REMSYN066AAXX  13031 59559 32570 50711 10317 20249 30051 40078 58008 83210;EQDQ01  00002PRCP99
0163595590999992000071306004+22000+120770FM-12+002499999V0200701N008010900019N0200001N1+03181+02491100681ADDAA199000091GF108991021011008001001081MA1999999100411MD1610101+9999REMSYN066AAXX  13061 59559 32570 80708 10318 20249 30041 40068 56010 82108;EQDQ01  00002PRCP99
0163595590999992000071309004+22000+120770FM-12+002499999V0200801N008010900019N0200001N1+03051+02441100671ADDAA199000091GF105991021011008001001021MA1999999100401MD1510011+9999REMSYN066AAXX  13091 59559 32570 50808 10305 20244 30040 40067 55001 82102;EQDQ01  00002PRCP99
0163595590999992000071312004+22000+120770FM-12+002499999V0200501N004012200019N0200001N1+02831+02421100741ADDAA199000091GF102991021011008001001001MA1999999100471MD1310071+9999REMSYN066AAXX  13121 59559 32570 20504 10283 20242 30047 40074 53007 82100;EQDQ01  00002PRCP99
0163595590999992000071315004+22000+120770FM-12+002499999V0200701N008012200019N0200001N1+02831+02401100731ADDAA199000091GF103991021011008001001021MA1999999100461MD1810011+9999REMSYN066AAXX  13151 59559 32570 30708 10283 20240 30046 40073 58001 82102;EQDQ01  00002PRCP99
0163595590999992000071318004+22000+120770FM-12+002499999V0200701N006010900019N0200001N1+02801+02391100531ADDAA199000091GF106991041021008001001021MA1999999100261MD1610201+9999REMSYN066AAXX  13181 59559 32570 60706 10280 20239 30026 40053 56020 84202;EQDQ01  00002PRCP99
0163595590999992000071321004+22000+120770FM-12+002499999V0200501N005012200019N0200001N1+02801+02331100491ADDAA199000091GF103991031021008001001001MA1999999100221MD1510041+9999REMSYN066AAXX  13211 59559 32570 30505 10280 20233 30022 40049 55004 83200;EQDQ01  00002PRCP99
0178595590999992000071400004+22000+120770FM-12+002499999V0200601N004012200019N0200001N1+02921+02521100631ADDAA112000391AY181061AY221061GF104991031021008001001011MA1999999100361MD1210141+9999MW1251REMSYN078AAXX  14001 59559 11570 40604 10292 20252 30036 40063 52014 69932 72582 83201;
0144595590999992000071403004+22000+120770FM-12+002499999V0200701N006012200019N0200001N1+03151+02411100611ADDAA199000021GF103991031021008001001001MA1999999100341MD1810021+9999REMSYN066AAXX  14031 59559 32570 30706 10315 20241 30034 40061 58002 83200;
0144595590999992000071406004+22000+120770FM-12+002499999V0200301N012012200019N0250001N1+03181+02391100481ADDAA199000021GF104991041021008001001001MA1999999100211MD1610131+9999REMSYN066AAXX  14061 59559 32575 40312 10318 20239 30021 40048 56013 84200;
0144595590999992000071409004+22000+120770FM-12+002499999V0200501N005012200019N0150001N1+03051+02411100391ADDAA199000021GF103991031021008001001001MA1999999100121MD1810091+9999REMSYN066AAXX  14091 59559 32565 30505 10305 20241 30012 40039 58009 83200;
0144595590999992000071412004+22000+120770FM-12+002499999V0200601N005012200019N0100001N1+02821+02481100491ADDAA199000021GF104991041021008001001001MA1999999100221MD1210101+9999REMSYN066AAXX  14121 59559 32560 40605 10282 20248 30022 40049 52010 84200;
0163595590999992000071418004+22000+120770FM-12+002499999V0200301N017012200019N0100001N1+02661+02311100371ADDAA199000091GF104991041051008001001001MA1999999100101MD1810101+9999REMSYN066AAXX  14181 59559 32560 40317 10266 20231 30010 40037 58010 84500;EQDQ01  00002PRCP99
0178595590999992000071421004+22000+120770FM-12+002499999V0200601N005010075019N0100001N1+02641+02431100411ADDAA100002091AY161031AY221031GF108991081071008001999999MA1999999100131MD1010031+9999MW1601REMSYN078AAXX  14211 59559 11560 80605 10264 20243 30013 40041 50003 6002/ 76062 887//;
0178595590999992000071500004+22000+120770FM-12+002499999V0200601N011010075019N0150001N1+02701+02421100521ADDAA112002091AY161061AY221061GF108991081061008001999999MA1999999100251MD1210121+9999MW1211REMSYN078AAXX  15001 59559 11565 80611 10270 20242 30025 40052 52012 60022 72162 886//;
0144595590999992000071503004+22000+120770FM-12+002499999V0200601N006010075019N0200001N1+03091+02471100451ADDAA199000021GF106991061051008001001001MA1999999100181MD1810071+9999REMSYN066AAXX  15031 59559 32570 60606 10309 20247 30018 40045 58007 86500;
0144595590999992000071506004+22000+120770FM-12+002499999V0200501N007010360019N0200001N1+03121+02481100311ADDAA199000021GF108991021011008001051021MA1999999100041MD1710141+9999REMSYN066AAXX  15061 59559 32570 80507 10312 20248 30004 40031 57014 82152;
0178595590999992000071509004+22000+120770FM-12+002499999V0200701N005010075019N0150001N1+02881+02411100371ADDAA100000791AY161031AY221031GF106991061051008001001001MA1999999100101MD1310061+9999MW1601REMSYN078AAXX  15091 59559 11565 60705 10288 20241 30010 40037 53006 6990/ 76062 86500;
0178595590999992000071512004+22000+120770FM-12+002499999V0200701N005010075019N0100001N1+02531+02461100601ADDAA112011991AY161061AY261061GF108991081051008001999999MA1999999100321MD1110221+9999MW1631REMSYN078AAXX  15121 59559 11560 80705 10253 20246 30032 40060 51022 60122 76366 885//;
0178595590999992000071515004+22000+120770FM-12+002499999V0200801N004010075019N0100001N1+02561+02451100651ADDAA100013091AY161031AY261031GF108991081051008001999999MA1999999100371MD1010051+9999MW1611REMSYN078AAXX  15151 59559 11560 80804 10256 20245 30037 40065 50005 6013/ 76166 885//;
0178595590999992000071518004+22000+120770FM-12+002499999V0200901N003010075019N0100001N1+02531+02451100501ADDAA106013091AY161061AY221061GF108991081051008001999999MA1999999100221MD1710151+9999MW1021REMSYN078AAXX  15181 59559 11560 80903 10253 20245 30022 40050 57015 60131 70262 885//;
0178595590999992000071600004+22000+120770FM-12+002499999V0209999C000010075019N0100001N1+02511+02461100701ADDAA112015091AY161061AY261061GF108991081071008001999999MA1999999100421MD1210151+9999MW1611REMSYN078AAXX  16001 59559 11560 80000 10251 20246 30042 40070 52015 60152 76166 887//;
0178595590999992000071603004+22000+120770FM-12+002499999V0200801N003010075019N0100001N1+02791+02561100681ADDAA100000791AY161031AY221031GF108991081051008001999999MA1999999100411MD1510011+9999MW1021REMSYN078AAXX  16031 59559 11560 80803 10279 20256 30041 40068 55001 6990/ 70262 885//;
0178595590999992000071606004+22000+120770FM-12+002499999V0202001N003010075019N0070001N1+02521+02481100691ADDAA106011991AY161061AY261061GF108991081071008001999999MA1999999100411MD1410001+9999MW1611REMSYN078AAXX  16061 59559 11557 82003 10252 20248 30041 40069 54000 60121 76166 887//;
0178595590999992000071609004+22000+120770FM-12+002499999V0201601N002010075019N0120001N1+02641+02501100671ADDAA100015091AY161031AY221031GF108991081031008001999999MA1999999100391MD1510021+9999MW1211REMSYN078AAXX  16091 59559 11562 81602 10264 20250 30039 40067 55002 6015/ 72162 883//;
0178595590999992000071612004+22000+120770FM-12+002499999V0201501N002010075019N0120001N1+02581+02511100771ADDAA112023991AY161061AY221061GF108991081071008001999999MA1999999100491MD1310101+9999MW1211REMSYN078AAXX  16121 59559 11562 81502 10258 20251 30049 40077 53010 60242 72162 887//;
0144595590999992000071615004+22000+120770FM-12+002499999V0201801N003010120019N0150001N1+02661+02551100881ADDAA199000021GF108991081051012501999999MA1999999100601MD1110111+9999REMSYN066AAXX  16151 59559 32665 81803 10266 20255 30060 40088 51011 885//;
0178595590999992000071618004+22000+120770FM-12+002499999V0201601N003010075019N0070001N1+02541+02501100771ADDAA106009991AY161061AY221061GF108991081071008001999999MA1999999100491MD1810111+9999MW1631REMSYN078AAXX  16181 59559 11557 81603 10254 20250 30049 40077 58011 60101 76362 887//;
0178595590999992000071621004+22000+120770FM-12+002499999V0201601N007010075019N0100001N1+02561+02511100801ADDAA100027991AY161031AY261031GF108991081071008001999999MA1999999100521MD1210031+9999MW1611REMSYN078AAXX  16211 59559 11560 81607 10256 20251 30052 40080 52003 6028/ 76166 887//;
0178595590999992000071700004+22000+120770FM-12+002499999V0201601N006010075019N0070001N1+02561+02481100951ADDAA112034091AY161061AY261061GF108991081071008001999999MA1999999100671MD1110151+9999MW1611REMSYN078AAXX  17001 59559 11557 81606 10256 20248 30067 40095 51015 60342 76166 887//;
0178595590999992000071703004+22000+120770FM-12+002499999V0201101N001010075019N0100001N1+02701+02611100991ADDAA100001091AY161031AY211031GF108991081071008001999999MA1999999100711MD1010041+9999MW1601REMSYN078AAXX  17031 59559 11560 81101 10270 20261 30071 40099 50004 6001/ 76061 887//;
0178595590999992000071706004+22000+120770FM-12+002499999V0201701N004010120019N0100001N1+02911+02561100851ADDAA106001091AY161061AY221061GF108991081051012501999999MA1999999100581MD1610131+9999MW1021REMSYN078AAXX  17061 59559 11660 81704 10291 20256 30058 40085 56013 60011 70262 885//;
0178595590999992000071709004+22000+120770FM-12+002499999V0201901N002010120019N0100001N1+02741+02511100841ADDAA100003091AY181031AY261031GF108991081051012501999999MA1999999100561MD1510021+9999MW1021REMSYN078AAXX  17091 59559 11660 81902 10274 20251 30056 40084 55002 6003/ 70286 885//;
0178595590999992000071712004+22000+120770FM-12+002499999V0201801N004010120019N0120001N1+02741+02451100871ADDAA112003091AY181061AY261061GF108991081051012501999999MA1999999100591MD1310031+9999MW1021REMSYN078AAXX  17121 59559 11662 81804 10274 20245 30059 40087 53003 60032 70286 885//;
0144595590999992000071715004+22000+120770FM-12+002499999V0201701N001010120019N0120001N1+02681+02481100961ADDAA199000021GF108991081051012501999999MA1999999100681MD1010091+9999REMSYN066AAXX  17151 59559 32662 81701 10268 20248 30068 40096 50009 885//;
0163595590999992000071718004+22000+120770FM-12+002499999V0201801N003010075019N0120001N1+02681+02491100841ADDAA199000091GF108991081031008001999999MA1999999100561MD1710121+9999REMSYN066AAXX  17181 59559 32562 81803 10268 20249 30056 40084 57012 883//;EQDQ01  00002PRCP99
0178595590999992000071721004+22000+120770FM-12+002499999V0201801N002010075019N0120001N1+02721+02431100791ADDAA100000591AY181031AY221031GF108991081031008001999999MA1999999100511MD1510051+9999MW1021REMSYN078AAXX  17211 59559 11562 81802 10272 20243 30051 40079 55005 6995/ 70282 883//;
0178595590999992000071800004+22000+120770FM-12+002499999V0201801N003010120019N0120001N1+02861+02491100891ADDAA112000591AY181061AY221061GF108991081051012501999999MA1999999100621MD1110111+9999MW1021REMSYN078AAXX  18001 59559 11662 81803 10286 20249 30062 40089 51011 69952 70282 885//;
0178595590999992000071803004+22000+120770FM-12+002499999V0201501N001010120019N0100001N1+02771+02521100961ADDAA100000891AY161031AY221031GF108991081051012501999999MA1999999100681MD1010061+9999MW1211REMSYN078AAXX  18031 59559 11660 81501 10277 20252 30068 40096 50006 6997/ 72162 885//;
0150595590999992000071806004+22000+120770FM-12+002499999V0201801N003010360019N0150001N1+02981+02531100801ADDAA106000891GF108991031051008001071999MA1999999100531MD1710151+9999REMSYN072AAXX  18061 59559 12565 81803 10298 20253 30053 40080 57015 69971 8357/;
0150595590999992000071809004+22000+120770FM-12+002499999V0201501N001010150019N0120001N1+02841+02531100691ADDAA100000891GF108991081051017501999999MA1999999100421MD1710111+9999REMSYN072AAXX  18091 59559 12762 81501 10284 20253 30042 40069 57011 6997/ 885//;
0150595590999992000071812004+22000+120770FM-12+002499999V0201401N001010150019N0120001N1+02701+02441100821ADDAA112000891GF108991081051017501999999MA1999999100541MD1310121+9999REMSYN072AAXX  18121 59559 12762 81401 10270 20244 30054 40082 53012 69972 885//;
0144595590999992000071815004+22000+120770FM-12+002499999V0201001N004010150019N0100001N1+02661+02401100901ADDAA199000021GF108991081051017501999999MA1999999100621MD1110081+9999REMSYN066AAXX  18151 59559 32760 81004 10266 20240 30062 40090 51008 885//;
0163595590999992000071818004+22000+120770FM-12+002499999V0201001N002010075019N0150001N1+02591+02421100661ADDAA199000091GF106991061051008001001001MA1999999100381MD1710241+9999REMSYN066AAXX  18181 59559 32565 61002 10259 20242 30038 40066 57024 86500;EQDQ01  00002PRCP99
0163595590999992000071821004+22000+120770FM-12+002499999V0200901N005010075019N0150001N1+02611+02451100641ADDAA199000091GF108991081051008001999999MA1999999100361MD1510021+9999REMSYN066AAXX  18211 59559 32565 80905 10261 20245 30036 40064 55002 885//;EQDQ01  00002PRCP99
0163595590999992000071900004+22000+120770FM-12+002499999V0201001N002010120019N0120001N1+02801+02531100801ADDAA199000091GF107991071051012501001001MA1999999100531MD1110171+9999REMSYN066AAXX  19001 59559 32662 71002 10280 20253 30053 40080 51017 87500;EQDQ01  00002PRCP99
0163595590999992000071903004+22000+120770FM-12+002499999V0200801N004010360019N0120001N1+03101+02341100811ADDAA199000091GF108991031041008001021999MA1999999100541MD1010011+9999REMSYN066AAXX  19031 59559 32562 80804 10310 20234 30054 40081 50001 8342/;EQDQ01  00002PRCP99
0163595590999992000071906004+22000+120770FM-12+002499999V0201401N002010075019N0200001N1+03121+02341100691ADDAA199000091GF105991051051008001001001MA1999999100421MD1810121+9999REMSYN066AAXX  19061 59559 32570 51402 10312 20234 30042 40069 58012 85500;EQDQ01  00002PRCP99
0163595590999992000071909004+22000+120770FM-12+002499999V0201501N002010075019N0150001N1+02921+02411100701ADDAA199000091GF106991061051008001001001MA1999999100431MD1310011+9999REMSYN066AAXX  19091 59559 32565 61502 10292 20241 30043 40070 53001 86500;EQDQ01  00002PRCP99
0163595590999992000071912004+22000+120770FM-12+002499999V0201001N004010075019N0100001N1+02681+02471100811ADDAA199000091GF105991051051008001001001MA1999999100531MD1310101+9999REMSYN066AAXX  19121 59559 32560 51004 10268 20247 30053 40081 53010 85500;EQDQ01  00002PRCP99
0163595590999992000071915004+22000+120770FM-12+002499999V0201501N001010075019N0100001N1+02621+02441100931ADDAA199000091GF105991051051008001001001MA1999999100651MD1010121+9999REMSYN066AAXX  19151 59559 32560 51501 10262 20244 30065 40093 50012 85500;EQDQ01  00002PRCP99
0163595590999992000071918004+22000+120770FM-12+002499999V0200901N002010075019N0100001N1+02611+02391100821ADDAA199000091GF106991061051008001001001MA1999999100541MD1710111+9999REMSYN066AAXX  19181 59559 32560 60902 10261 20239 30054 40082 57011 86500;EQDQ01  00002PRCP99
0163595590999992000071921004+22000+120770FM-12+002499999V0200901N003010075019N0100001N1+02601+02331100821ADDAA199000091GF106991061051008001001001MA1999999100541MD1410001+9999REMSYN066AAXX  19211 59559 32560 60903 10260 20233 30054 40082 54000 86500;EQDQ01  00002PRCP99
0163595590999992000072000004+22000+120770FM-12+002499999V0200201N002010075019N0200001N1+02861+02381100921ADDAA199000091GF105991051051008001001001MA1999999100651MD1210111+9999REMSYN066AAXX  20001 59559 32570 50202 10286 20238 30065 40092 52011 85500;EQDQ01  00002PRCP99
0163595590999992000072003004+22000+120770FM-12+002499999V0200701N009012200019N0200001N1+03131+02491100991ADDAA199000091GF104991041041008001001001MA1999999100721MD1110071+9999REMSYN066AAXX  20031 59559 32570 40709 10313 20249 30072 40099 51007 84400;EQDQ01  00002PRCP99
0163595590999992000072006004+22000+120770FM-12+002499999V0201001N003010075019N0250001N1+03121+02401100921ADDAA199000091GF107991061021008001021001MA1999999100651MD1810071+9999REMSYN066AAXX  20061 59559 32575 71003 10312 20240 30065 40092 58007 86220;EQDQ01  00002PRCP99
0163595590999992000072009004+22000+120770FM-12+002499999V0200701N003010150019N0200001N1+02861+02441100921ADDAA199000091GF107991071091017501001001MA1999999100651MD1410001+9999REMSYN066AAXX  20091 59559 32770 70703 10286 20244 30065 40092 54000 87900;EQDQ01  00002PRCP99
0163595590999992000072012004+22000+120770FM-12+002499999V0209999C000010120019N0150001N1+02661+02451101051ADDAA199000091GF108991081051012501999999MA1999999100771MD1210121+9999REMSYN066AAXX  20121 59559 32665 80000 10266 20245 30077 40105 52012 885//;EQDQ01  00002PRCP99
0173595590999992000072015004+22000+120770FM-12+002499999V0200701N001012200019N0150001N1+02571+02371101151ADDAA199000091GA1001+999999999GF100991001001999999001001MA1999999100871MD1110101+9999REMSYN060AAXX  20151 59559 32965 00701 10257 20237 30087 40115 51010;EQDQ01  00002PRCP99
0173595590999992000072018004+22000+120770FM-12+002499999V0209999C000012200019N0150001N1+02431+02311101021ADDAA199000091GA1001+999999999GF100991001001999999001001MA1999999100741MD1710131+9999REMSYN060AAXX  20181 59559 32965 00000 10243 20231 30074 40102 57013;EQDQ01  00002PRCP99
0163595590999992000072021004+22000+120770FM-12+002499999V0200701N001012200019N0200001N1+02451+02311101041ADDAA199000091GF102991011021008001031001MA1999999100761MD1310021+9999REMSYN066AAXX  20211 59559 32570 20701 10245 20231 30076 40104 53002 81230;EQDQ01  00002PRCP99
0163595590999992000072100004+22000+120770FM-12+002499999V0200501N003012200019N0250001N1+02951+02481101071ADDAA199000091GF102991011021008001001021MA1999999100801MD1310041+9999REMSYN066AAXX  21001 59559 32575 20503 10295 20248 30080 40107 53004 81202;EQDQ01  00002PRCP99
0163595590999992000072103004+22000+120770FM-12+002499999V0200901N008012200019N0250001N1+03211+02371101061ADDAA199000091GF101991011011008001001001MA1999999100791MD1810011+9999REMSYN066AAXX  21031 59559 32575 10908 10321 20237 30079 40106 58001 81100;EQDQ01  00002PRCP99
0163595590999992000072106004+22000+120770FM-12+002499999V0200401N002012200019N0200001N1+03171+02351100901ADDAA199000091GF103991031021008001001001MA1999999100631MD1710161+9999REMSYN066AAXX  21061 59559 32570 30402 10317 20235 30063 40090 57016 83200;EQDQ01  00002PRCP99
0163595590999992000072109004+22000+120770FM-12+002499999V0203301N003012200019N0200001N1+03061+02401100801ADDAA199000091GF104991031021008001001011MA1999999100531MD1810101+9999REMSYN066AAXX  21091 59559 32570 43303 10306 20240 30053 40080 58010 83201;EQDQ01  00002PRCP99
0163595590999992000072112004+22000+120770FM-12+002499999V0200601N002012200019N0200001N1+02641+02321100981ADDAA199000091GF102991021011000251001001MA1999999100701MD1110171+9999REMSYN066AAXX  21121 59559 32070 20602 10264 20232 30070 40098 51017 82100;EQDQ01  00002PRCP99
0163595590999992000072115004+22000+120770FM-12+002499999V0200601N003012200019N0200001N1+02481+02291101061ADDAA199000091GF102991021041008001031001MA1999999100781MD1010081+9999REMSYN066AAXX  21151 59559 32570 20603 10248 20229 30078 40106 50008 82430;EQDQ01  00002PRCP99
0163595590999992000072118004+22000+120770FM-12+002499999V0200401N001010360019N0200001N1+02471+02241100931ADDAA199000091GF105991031041008001031001MA1999999100651MD1810131+9999REMSYN066AAXX  21181 59559 32570 50401 10247 20224 30065 40093 58013 83430;EQDQ01  00002PRCP99
0163595590999992000072121004+22000+120770FM-12+002499999V0200401N001012200019N0150001N1+02461+02241100841ADDAA199000091GF104991021041008001001011MA1999999100561MD1710091+9999REMSYN066AAXX  21211 59559 32565 40401 10246 20224 30056 40084 57009 82401;EQDQ01  00002PRCP99
0163595590999992000072200004+22000+120770FM-12+002499999V0200101N001012200019N0250001N1+02931+02481100801ADDAA199000091GF103991021041008001001011MA1999999100531MD1810031+9999REMSYN066AAXX  22001 59559 32575 30101 10293 20248 30053 40080 58003 82401;EQDQ01  00002PRCP99
0163595590999992000072203004+22000+120770FM-12+002499999V0202801N002010075019N0200001N1+03071+02491100751ADDAA199000091GF106991061051008001001001MA1999999100481MD1510051+9999REMSYN066AAXX  22031 59559 32570 62802 10307 20249 30048 40075 55005 86500;EQDQ01  00002PRCP99
0163595590999992000072206004+22000+120770FM-12+002499999V0200301N002010075019N0250001N1+03191+02511100681ADDAA199000091GF106991051021008001011001MA1999999100411MD1510071+9999REMSYN066AAXX  22061 59559 32575 60302 10319 20251 30041 40068 55007 85210;EQDQ01  00002PRCP99
0163595590999992000072209004+22000+120770FM-12+002499999V0201001N003012200019N0250001N1+03061+02381100611ADDAA199000091GF103991021011008001011001MA1999999100341MD1810071+9999REMSYN066AAXX  22091 59559 32575 31003 10306 20238 30034 40061 58007 82110;EQDQ01  00002PRCP99
0163595590999992000072212004+22000+120770FM-12+002499999V0209999C000012200019N0200001N1+02631+02341100781ADDAA199000091GF102991021051008001001001MA1999999100501MD1310161+9999REMSYN066AAXX  22121 59559 32570 20000 10263 20234 30050 40078 53016 82500;EQDQ01  00002PRCP99
0163595590999992000072215004+22000+120770FM-12+002499999V0209999C000012200019N0200001N1+02511+02251100791ADDAA199000091GF102991021051008001001001MA1999999100511MD1010011+9999REMSYN066AAXX  22151 59559 32570 20000 10251 20225 30051 40079 50001 82500;EQDQ01  00002PRCP99
0163595590999992000072218004+22000+120770FM-12+002499999V0209999C000012200019N0200001N1+02401+02261100631ADDAA199000091GF104991041051008001001001MA1999999100351MD1710161+9999REMSYN066AAXX  22181 59559 32570 40000 10240 20226 30035 40063 57016 84500;EQDQ01  00002PRCP99
0163595590999992000072221004+22000+120770FM-12+002499999V0209999C000012200019N0200001N1+02351+02181100541ADDAA199000091GF103991021011008001011001MA1999999100261MD1510091+9999REMSYN066AAXX  22211 59559 32570 30000 10235 20218 30026 40054 55009 82110;EQDQ01  00002PRCP99
0163595590999992000072300004+22000+120770FM-12+002499999V0201901N001012200019N0250001N1+02901+02411100521ADDAA199000091GF102991011011008001011001MA1999999100251MD1510011+9999REMSYN066AAXX  23001 59559 32575 21901 10290 20241 30025 40052 55001 81110;EQDQ01  00002PRCP99
0163595590999992000072303004+22000+120770FM-12+002499999V0201001N004012200019N0250001N1+03251+02371100571ADDAA199000091GF101991011051012501001001MA1999999100301MD1010051+9999REMSYN066AAXX  23031 59559 32675 11004 10325 20237 30030 40057 50005 81500;EQDQ01  00002PRCP99
0163595590999992000072306004+22000+120770FM-12+002499999V0203301N004010075019N0250001N1+03181+02471100451ADDAA199000091GF105991051051008001001001MA1999999100181MD1710121+9999REMSYN066AAXX  23061 59559 32575 53304 10318 20247 30018 40045 57012 85500;EQDQ01  00002PRCP99
0163595590999992000072309004+22000+120770FM-12+002499999V0203001N002012200019N0200001N1+03061+02501100421ADDAA199000091GF104991041041008001001001MA1999999100151MD1510031+9999REMSYN066AAXX  23091 59559 32570 43002 10306 20250 30015 40042 55003 84400;EQDQ01  00002PRCP99
0163595590999992000072312004+22000+120770FM-12+002499999V0201001N004012200019N0200001N1+02741+02441100531ADDAA199000091GF104991041051008001001001MA1999999100261MD1310111+9999REMSYN066AAXX  23121 59559 32570 41004 10274 20244 30026 40053 53011 84500;EQDQ01  00002PRCP99
0163595590999992000072315004+22000+120770FM-12+002499999V0200801N001012200019N0200001N1+02641+02461100561ADDAA199000091GF102991021051008001001001MA1999999100281MD1010021+9999REMSYN066AAXX  23151 59559 32570 20801 10264 20246 30028 40056 50002 82500;EQDQ01  00002PRCP99
0163595590999992000072318004+22000+120770FM-12+002499999V0209999C000012200019N0200001N1+02651+02461100431ADDAA199000091GF102991021051008001001001MA1999999100151MD1710131+9999REMSYN066AAXX  23181 59559 32570 20000 10265 20246 30015 40043 57013 82500;EQDQ01  00002PRCP99
0163595590999992000072321004+22000+120770FM-12+002499999V0200101N002012200019N0200001N1+02671+02451100431ADDAA199000091GF102991021011008001011001MA1999999100161MD1010011+9999REMSYN066AAXX  23211 59559 32570 20102 10267 20245 30016 40043 50001 82110;EQDQ01  00002PRCP99
0163595590999992000072400004+22000+120770FM-12+002499999V0200701N002012200019N0250001N1+03031+02521100531ADDAA199000091GF102991021011008001001001MA1999999100261MD1110101+9999REMSYN066AAXX  24001 59559 32575 20702 10303 20252 30026 40053 51010 82100;EQDQ01  00002PRCP99
0163595590999992000072403004+22000+120770FM-12+002499999V0200901N006012200019N0250001N1+03271+02471100491ADDAA199000091GF102991021011008001001001MA1999999100221MD1710041+9999REMSYN066AAXX  24031 59559 32575 20906 10327 20247 30022 40049 57004 82100;EQDQ01  00002PRCP99
0163595590999992000072406004+22000+120770FM-12+002499999V0203401N003012200019N0200001N1+03301+02571100331ADDAA199000091GF104991041021008001001001MA1999999100061MD1710161+9999REMSYN066AAXX  24061 59559 32570 43403 10330 20257 30006 40033 57016 84200;EQDQ01  00002PRCP99
0163595590999992000072409004+22000+120770FM-12+002499999V0203401N001012200019N0150001N1+02981+02551100361ADDAA199000091GF104991041021008001001001MA1999999100091MD1310031+9999REMSYN066AAXX  24091 59559 32565 43401 10298 20255 30009 40036 53003 84200;EQDQ01  00002PRCP99
0163595590999992000072412004+22000+120770FM-12+002499999V0200101N001012200019N0100001N1+02791+02481100441ADDAA199000091GF104991041021008001001001MA1999999100171MD1110081+9999REMSYN066AAXX  24121 59559 32560 40101 10279 20248 30017 40044 51008 84200;EQDQ01  00002PRCP99
0131595590999992000072415004+22000+120770FM-12+002499999V0209999C000019999999N9999999N1+02721+02471100451ADDAA199000091MA1999999100181MD1010011+9999REMSYN060AAXX  24151 59559 32/// /0000 10272 20247 30018 40045 50001;EQDQ01  00002PRCP99
0163595590999992000072418004+22000+120770FM-12+002499999V0203401N001010075019N0100001N1+02751+02541100361ADDAA199000091GF105991051051008001001001MA1999999100091MD1610091+9999REMSYN066AAXX  24181 59559 32560 53401 10275 20254 30009 40036 56009 85500;EQDQ01  00002PRCP99
0163595590999992000072421004+22000+120770FM-12+002499999V0202901N002010075019N0100001N1+02771+02521100281ADDAA199000091GF106991061051008001001001MA1999999100011MD1510081+9999REMSYN066AAXX  24211 59559 32560 62902 10277 20252 30001 40028 55008 86500;EQDQ01  00002PRCP99
0163595590999992000072500004+22000+120770FM-12+002499999V0203201N003012200019N0200001N1+02981+02521100381ADDAA199000091GF102991021021008001001001MA1999999100111MD1210101+9999REMSYN066AAXX  25001 59559 32570 23203 10298 20252 30011 40038 52010 82200;EQDQ01  00002PRCP99
0163595590999992000072509004+22000+120770FM-12+002499999V0202801N003012200019N0150001N1+03051+02521100331ADDAA199000091GF104991041021008001001001MA1999999100061MD1810061+9999REMSYN066AAXX  25091 59559 32565 42803 10305 20252 30006 40033 58006 84200;EQDQ01  00002PRCP99
0163595590999992000072515004+22000+120770FM-12+002499999V0202501N005012200019N0100001N1+02841+02551100501ADDAA199000091GF104991041051008001001001MA1999999100231MD1010051+9999REMSYN066AAXX  25151 59559 32560 42505 10284 20255 30023 40050 50005 84500;EQDQ01  00002PRCP99
0163595590999992000072518004+22000+120770FM-12+002499999V0202501N009012200019N0100001N1+02791+02491100381ADDAA199000091GF104991041041008001001001MA1999999100111MD1710121+9999REMSYN066AAXX  25181 59559 32560 42509 10279 20249 30011 40038 57012 84400;EQDQ01  00002PRCP99
0163595590999992000072521004+22000+120770FM-12+002499999V0202701N006010075019N0120001N1+02791+02461100361ADDAA199000091GF107991071021008001001001MA1999999100091MD1510021+9999REMSYN066AAXX  25211 59559 32562 72706 10279 20246 30009 40036 55002 87200;EQDQ01  00002PRCP99
0163595590999992000072600004+22000+120770FM-12+002499999V0203201N003010075019N0100001N1+02641+02391100461ADDAA199000091GF108991081051008001999999MA1999999100181MD1210091+9999REMSYN066AAXX  26001 59559 32560 83203 10264 20239 30018 40046 52009 885//;EQDQ01  00002PRCP99
0178595590999992000072603004+22000+120770FM-12+002499999V0202701N004010075019N0100001N1+02721+02571100431ADDAA100024991AY161031AY261031GF108991081071008001999999MA1999999100161MD1810021+9999MW1611REMSYN078AAXX  26031 59559 11560 82704 10272 20257 30016 40043 58002 6025/ 76166 887//;
0178595590999992000072606004+22000+120770FM-12+002499999V0202701N006010075019N0150001N1+03051+02631100211ADDAA106024991AY161061AY221061GF106991061031008001001001MA1999999099941MD1710221+9999MW1021REMSYN078AAXX  26061 59559 11565 62706 10305 20263 39994 40021 57022 60251 70262 86300;
0150595590999992000072609004+22000+120770FM-12+002499999V0202701N005010120019N0120001N1+02911+02531100121ADDAA100024991GF107991071041012501999999MA1999999099851MD1710091+9999REMSYN072AAXX  26091 59559 12662 72705 10291 20253 39985 40012 57009 6025/ 874//;
0150595590999992000072612004+22000+120770FM-12+002499999V0202901N003010075019N0120001N1+02831+02501100301ADDAA112024991GF105991051011008001001001MA1999999100031MD1210181+9999REMSYN072AAXX  26121 59559 12562 52903 10283 20250 30003 40030 52018 60252 85100;
0144595590999992000072615004+22000+120770FM-12+002499999V0202801N007010075019N0120001N1+02811+02541100281ADDAA199000021GF106991061011008001001001MA1999999100011MD1810021+9999REMSYN066AAXX  26151 59559 32562 62807 10281 20254 30001 40028 58002 86100;
0163595590999992000072618004+22000+120770FM-12+002499999V0202901N003010075019N0120001N1+02791+02541100111ADDAA199000091GF105991051011008001001001MA1999999099841MD1810171+9999REMSYN066AAXX  26181 59559 32562 52903 10279 20254 39984 40011 58017 85100;EQDQ01  00002PRCP99
0163595590999992000072621004+22000+120770FM-12+002499999V0202901N003010075019N0120001N1+02791+02531100141ADDAA199000091GF106991061021008001001001MA1999999099871MD1310031+9999REMSYN066AAXX  26211 59559 32562 62903 10279 20253 39987 40014 53003 86200;EQDQ01  00002PRCP99
0163595590999992000072700004+22000+120770FM-12+002499999V0203301N008010075019N0120001N1+02701+02481100261ADDAA199000091GF108991081031008001999999MA1999999099991MD1110121+9999REMSYN066AAXX  27001 59559 32562 83308 10270 20248 39999 40026 51012 883//;EQDQ01  00002PRCP99
0163595590999992000072703004+22000+120770FM-12+002499999V0203001N005010075019N0150001N1+03101+02561100211ADDAA199000091GF105991051011008001001001MA1999999099941MD1810051+9999REMSYN066AAXX  27031 59559 32565 53005 10310 20256 39994 40021 58005 85100;EQDQ01  00002PRCP99
0178595590999992000072706004+22000+120770FM-12+002499999V0203001N002010075019N0060001N1+02721+02571100171ADDAA106001091AY181061AY221061GF107991071031008001999999MA1999999099901MD1510041+9999MW1801REMSYN078AAXX  27061 59559 11556 73002 10272 20257 39990 40017 55004 60011 78082 873//;
0178595590999992000072709004+22000+120770FM-12+002499999V0203001N002012200019N0120001N1+02861+02431100111ADDAA100001091AY181031AY221031GF107991031011008001001041MA1999999099841MD1510061+9999MW1021REMSYN078AAXX  27091 59559 11562 73002 10286 20243 39984 40011 55006 6001/ 70282 83104;
0178595590999992000072712004+22000+120770FM-12+002499999V0202701N007010075019N0100001N1+02831+02611100291ADDAA112002091AY181061AY261061GF108991081071008001999999MA1999999100021MD1210181+9999MW1601REMSYN078AAXX  27121 59559 11560 82707 10283 20261 30002 40029 52018 60022 76086 887//;
0178595590999992000072715004+22000+120770FM-12+002499999V0203401N002010075019N0060001N1+02461+02371100341ADDAA100038191AY191031AY261031GF108991081071008001999999MA1999999100061MD1010041+9999MW1611REMSYN078AAXX  27151 59559 11556 83402 10246 20237 30006 40034 50004 6038/ 76196 887//;
0178595590999992000072718004+22000+120770FM-12+002499999V0203101N002010120019N0100001N1+02631+02561100241ADDAA106047091AY191061AY261061GF108991081051012501999999MA1999999099971MD1810091+9999MW1211REMSYN078AAXX  27181 59559 11660 83102 10263 20256 39997 40024 58009 60471 72196 885//;
0178595590999992000072800004+22000+120770FM-12+002499999V0202701N011010075019N0150001N1+03011+02661100401ADDAA112048091AY161061AY221061GF107991061021008001051001MA1999999100131MD1310181+9999MW1021REMSYN078AAXX  28001 59559 11565 72711 10301 20266 30013 40040 53018 60482 70262 86250;
0178595590999992000072803004+22000+120770FM-12+002499999V0202701N012010075019N0120001N1+02951+02621100431ADDAA100000791AY161031AY221031GF107991071021008001999999MA1999999100161MD1010031+9999MW1211REMSYN078AAXX  28031 59559 11562 72712 10295 20262 30016 40043 50003 6990/ 72162 872//;
0178595590999992000072806004+22000+120770FM-12+002499999V0202801N005010075019N0100001N1+02861+02651100341ADDAA106002091AY161061AY221061GF108991081051008001999999MA1999999100071MD1710091+9999MW1211REMSYN078AAXX  28061 59559 11560 82805 10286 20265 30007 40034 57009 60021 72162 885//;
0178595590999992000072809004+22000+120770FM-12+002499999V0203001N004010075019N0100001N1+02671+02521100291ADDAA100007191AY161031AY261031GF108991081051008001999999MA1999999100021MD1510051+9999MW1611REMSYN078AAXX  28091 59559 11560 83004 10267 20252 30002 40029 55005 6007/ 76166 885//;
0178595590999992000072812004+22000+120770FM-12+002499999V0202901N005010075019N0100001N1+02731+02511100361ADDAA112007191AY161061AY221061GF106991061051008001001001MA1999999100091MD1310071+9999MW1021REMSYN078AAXX  28121 59559 11560 62905 10273 20251 30009 40036 53007 60072 70262 86500;
0178595590999992000072815004+22000+120770FM-12+002499999V0202901N007010075019N0100001N1+02711+02561100431ADDAA100000791AY161031AY221031GF106991061051008001001001MA1999999100161MD1010071+9999MW1211REMSYN078AAXX  28151 59559 11560 62907 10271 20256 30016 40043 50007 6990/ 72162 86500;
0178595590999992000072818004+22000+120770FM-12+002499999V0202701N009010075019N0150001N1+02801+02601100311ADDAA106000791AY161061AY221061GF106991061051008001001001MA1999999100041MD1710121+9999MW1021REMSYN078AAXX  28181 59559 11565 62709 10280 20260 30004 40031 57012 69901 70262 86500;
0150595590999992000072821004+22000+120770FM-12+002499999V0202601N011010075019N0150001N1+02801+02531100321ADDAA100000791GF106991061051008001041001MA1999999100051MD1310011+9999REMSYN072AAXX  28211 59559 12565 62611 10280 20253 30005 40032 53001 6990/ 86540;
0150595590999992000072900004+22000+120770FM-12+002499999V0202601N007010075019N0100001N1+02811+02561100461ADDAA112000791GF108991081051008001999999MA1999999100191MD1310141+9999REMSYN072AAXX  29001 59559 12560 82607 10281 20256 30019 40046 53014 69902 885//;
0144595590999992000072903004+22000+120770FM-12+002499999V0202701N008010360019N0200001N1+03081+02631100471ADDAA199000021GF105991031021008001041001MA1999999100201MD1010011+9999REMSYN066AAXX  29031 59559 32570 52708 10308 20263 30020 40047 50001 83240;
0163595590999992000072906004+22000+120770FM-12+002499999V0202801N006010075019N0200001N1+03091+02701100401ADDAA199000091GF106991061051008001001001MA1999999100131MD1510071+9999REMSYN066AAXX  29061 59559 32570 62806 10309 20270 30013 40040 55007 86500;EQDQ01  00002PRCP99
0178595590999992000072909004+22000+120770FM-12+002499999V0202801N004010075019N0150001N1+02831+02601100281ADDAA100002091AY161031AY221031GF108991081061008001999999MA1999999100011MD1710121+9999MW1211REMSYN078AAXX  29091 59559 11565 82804 10283 20260 30001 40028 57012 6002/ 72162 886//;
0178595590999992000072912004+22000+120770FM-12+002499999V0202701N005010075019N0100001N1+02831+02561100481ADDAA112002091AY161061AY221061GF108991081051008001999999MA1999999100211MD1210201+9999MW1021REMSYN078AAXX  29121 59559 11560 82705 10283 20256 30021 40048 52020 60022 70262 885//;
0144595590999992000072915004+22000+120770FM-12+002499999V0202701N005010075019N0100001N1+02861+02591100571ADDAA199000021GF105991051051008001001001MA1999999100301MD1110091+9999REMSYN066AAXX  29151 59559 32560 52705 10286 20259 30030 40057 51009 85500;
0144595590999992000072918004+22000+120770FM-12+002499999V0202601N005010075019N0100001N1+02781+02561100451ADDAA199000021GF108991081051008001001001MA1999999100181MD1710121+9999REMSYN066AAXX  29181 59559 32560 82605 10278 20256 30018 40045 57012 88500;
0178595590999992000072921004+22000+120770FM-12+002499999V0202601N006010075019N0110001N1+02811+02511100461ADDAA100001091AY161031AY221031GF108991081061008001999999MA1999999100191MD1310011+9999MW1211REMSYN078AAXX  29211 59559 11561 82606 10281 20251 30019 40046 53001 6001/ 72162 886//;
0150595590999992000073000004+22000+120770FM-12+002499999V0202601N005010075019N0150001N1+02831+02551100591ADDAA112001091GF108991081051008001999999MA1999999100321MD1210131+9999REMSYN072AAXX  30001 59559 12565 82605 10283 20255 30032 40059 52013 60012 885//;
0178595590999992000073003004+22000+120770FM-12+002499999V0203001N002010075019N0150001N1+02631+02351100641ADDAA100000591AY161031AY221031GF108991081051008001999999MA1999999100361MD1010041+9999MW1621REMSYN078AAXX  30031 59559 11565 83002 10263 20235 30036 40064 50004 6995/ 76262 885//;
0178595590999992000073006004+22000+120770FM-12+002499999V0202601N006010075019N0200001N1+02851+02611100461ADDAA106001091AY161061AY221061GF108991081051008001999999MA1999999100191MD1810171+9999MW1211REMSYN078AAXX  30061 59559 11570 82606 10285 20261 30019 40046 58017 60011 72162 885//;
0150595590999992000073009004+22000+120770FM-12+002499999V0202501N005010075019N0100001N1+02851+02591100441ADDAA100001091GF108991081051008001999999MA1999999100171MD1510021+9999REMSYN072AAXX  30091 59559 12560 82505 10285 20259 30017 40044 55002 6001/ 885//;
0178595590999992000073012004+22000+120770FM-12+002499999V0202801N004010075019N0100001N1+02701+02551100601ADDAA112014091AY161061AY221061GF108991081051008001999999MA1999999100321MD1110151+9999MW1211REMSYN078AAXX  30121 59559 11560 82804 10270 20255 30032 40060 51015 60142 72162 885//;
0178595590999992000073015004+22000+120770FM-12+002499999V0202901N004010075019N0100001N1+02661+02551100731ADDAA100009991AY161031AY261031GF108991081071008001999999MA1999999100451MD1210131+9999MW1631REMSYN078AAXX  30151 59559 11560 82904 10266 20255 30045 40073 52013 6010/ 76366 887//;
0178595590999992000073018004+22000+120770FM-12+002499999V0202501N005010075019N0100001N1+02781+02591100601ADDAA106025991AY161061AY221061GF108991081051008001999999MA1999999100331MD1810121+9999MW1021REMSYN078AAXX  30181 59559 11560 82505 10278 20259 30033 40060 58012 60261 70262 885//;
0150595590999992000073021004+22000+120770FM-12+002499999V0202401N005010075019N0150001N1+02781+02571100591ADDAA100025991GF108991081051008001999999MA1999999100321MD1510011+9999REMSYN072AAXX  30211 59559 12565 82405 10278 20257 30032 40059 55001 6026/ 885//;
0178595590999992000073100004+22000+120770FM-12+002499999V0202401N004010075019N0120001N1+02891+02621100681ADDAA112026991AY181061AY221061GF107991061051008001021001MA1999999100411MD1210091+9999MW1021REMSYN078AAXX  31001 59559 11562 72404 10289 20262 30041 40068 52009 60272 70282 86520;
0178595590999992000073103004+22000+120770FM-12+002499999V0202301N004010042019N0120001N1+02801+02661100691ADDAA100000591AY181031AY221031GF107991071021004501001001MA1999999100421MD1010011+9999MW1251REMSYN078AAXX  31031 59559 11462 72304 10280 20266 30042 40069 50001 6995/ 72582 87200;
0178595590999992000073106004+22000+120770FM-12+002499999V0202801N004010042019N0040001N1+02491+02351100731ADDAA106006191AY161061AY221061GF108991081071004501999999MA1999999100451MD1310031+9999MW1611REMSYN078AAXX  31061 59559 11440 82804 10249 20235 30045 40073 53003 60061 76162 887//;
0178595590999992000073109004+22000+120770FM-12+002499999V0202501N003010042019N0120001N1+02581+02411100621ADDAA100009991AY161031AY221031GF108991081061004501999999MA1999999100341MD1510111+9999MW1021REMSYN078AAXX  31091 59559 11462 82503 10258 20241 30034 40062 55011 6010/ 70262 886//;
0178595590999992000073112004+22000+120770FM-12+002499999V0202801N002010075019N0120001N1+02561+02401100731ADDAA112009991AY161061AY221061GF108991081051008001999999MA1999999100451MD1310111+9999MW1021REMSYN078AAXX  31121 59559 11562 82802 10256 20240 30045 40073 53011 60102 70262 885//;
0178595590999992000073115004+22000+120770FM-12+002499999V0203101N001010042019N0100001N1+02581+02481100791ADDAA100005191AY161031AY221031GF108991081061004501999999MA1999999100511MD1010061+9999MW1021REMSYN078AAXX  31151 59559 11460 83101 10258 20248 30051 40079 50006 6005/ 70262 886//;
0178595590999992000073118004+22000+120770FM-12+002499999V0203301N001010042019N0110001N1+02471+02431100701ADDAA106023991AY161061AY221061GF108991081051004501999999MA1999999100421MD1810091+9999MW1211REMSYN078AAXX  31181 59559 11461 83301 10247 20243 30042 40070 58009 60241 72162 885//;
0178595590999992000073121004+22000+120770FM-12+002499999V0203301N003010042019N0030001N1+02431+02411100751ADDAA100049091AY161031AY221031GF108991081071004501999999MA1999999100471MD1310051+9999MW1631REMSYN078AAXX  31211 59559 11430 83303 10243 20241 30047 40075 53005 6049/ 76362 887//;
0178595590999992000080100004+22000+120770FM-12+002499999V0203401N004010042019N0150001N1+02431+02331100781ADDAA112071991AY161061AY221061GF108991081051004501999999MA1999999100501MD1010031+9999MW1021REMSYN078AAXX  01001 59559 11465 83404 10243 20233 30050 40078 50003 60722 70262 885//;
0178595590999992000080103004+22000+120770FM-12+002499999V0203501N003010075019N0150001N1+02471+02371100811ADDAA100000591AY161031AY221031GF108991081051008001999999MA1999999100531MD1010031+9999MW1211REMSYN078AAXX  01031 59559 11565 83503 10247 20237 30053 40081 50003 6995/ 72162 885//;
0178595590999992000080106004+22000+120770FM-12+002499999V0203201N003010075019N0150001N1+02831+02471100681ADDAA106001091AY161061AY221061GF108991081051008001999999MA1999999100411MD1710121+9999MW1021REMSYN078AAXX  01061 59559 11565 83203 10283 20247 30041 40068 57012 60011 70262 885//;
0178595590999992000080112004+22000+120770FM-12+002499999V0202801N003010075019N0150001N1+02611+02371100751ADDAA112002091AY161061AY221061GF108991081051008001999999MA1999999100471MD1310121+9999MW1021REMSYN078AAXX  01121 59559 11565 82803 10261 20237 30047 40075 53012 60022 70262 885//;
0144595590999992000080115004+22000+120770FM-12+002499999V0202801N001010075019N0150001N1+02561+02401100801ADDAA199000021GF107991071051008001999999MA1999999100521MD1010051+9999REMSYN066AAXX  01151 59559 32565 72801 10256 20240 30052 40080 50005 875//;
0163595590999992000080118004+22000+120770FM-12+002499999V0209999C000010075019N0150001N1+02501+02401100681ADDAA199000091GF107991071051008001999999MA1999999100401MD1610121+9999REMSYN066AAXX  01181 59559 32565 70000 10250 20240 30040 40068 56012 875//;EQDQ01  00002PRCP99
0163595590999992000080121004+22000+120770FM-12+002499999V0202801N001010075019N0120001N1+02561+02431100691ADDAA199000091GF108991081051008001999999MA1999999100411MD1010011+9999REMSYN066AAXX  01211 59559 32562 82801 10256 20243 30041 40069 50001 885//;EQDQ01  00002PRCP99
0163595590999992000080200004+22000+120770FM-12+002499999V0202601N004010075019N0120001N1+02821+02561100681ADDAA199000091GF107991071051008001999999MA1999999100411MD1410001+9999REMSYN066AAXX  02001 59559 32562 72604 10282 20256 30041 40068 54000 875//;EQDQ01  00002PRCP99
0178595590999992000080203004+22000+120770FM-12+002499999V0202901N003010042019N0100001N1+02491+02401100741ADDAA100007191AY161031AY221031GF108991081061004501999999MA1999999100461MD1310051+9999MW1611REMSYN078AAXX  02031 59559 11460 82903 10249 20240 30046 40074 53005 6007/ 76162 886//;
0178595590999992000080206004+22000+120770FM-12+002499999V0203101N001010042019N0100001N1+02521+02421100671ADDAA106023991AY161061AY261061GF108991081071004501999999MA1999999100391MD1810071+9999MW1631REMSYN078AAXX  02061 59559 11460 83101 10252 20242 30039 40067 58007 60241 76366 887//;
0178595590999992000080209004+22000+120770FM-12+002499999V0202701N004010075019N0100001N1+02481+02361100651ADDAA100055991AY161031AY261031GF108991081071008001999999MA1999999100371MD1810021+9999MW1611REMSYN078AAXX  02091 59559 11560 82704 10248 20236 30037 40065 58002 6056/ 76166 887//;
0178595590999992000080212004+22000+120770FM-12+002499999V0203001N001010075019N0100001N1+02531+02381100701ADDAA112055991AY161061AY221061GF108991081051008001999999MA1999999100421MD1310051+9999MW1021REMSYN078AAXX  02121 59559 11560 83001 10253 20238 30042 40070 53005 60562 70262 885//;
0150595590999992000080221004+22000+120770FM-12+002499999V0203301N001010075019N0100001N1+02441+02371100571ADDAA100033091GF108991081051008001999999MA1999999100291MD1810051+9999REMSYN072AAXX  02211 59559 12560 83301 10244 20237 30029 40057 58005 6033/ 885//;
0150595590999992000080300004+22000+120770FM-12+002499999V0209999C000010360019N0120001N1+02681+02501100681ADDAA112033091GF108991031051008001071001MA1999999100401MD1110111+9999REMSYN072AAXX  03001 59559 12562 80000 10268 20250 30040 40068 51011 60332 83570;
0163595590999992000080303004+22000+120770FM-12+002499999V0202601N002010360019N0150001N1+02891+02501100701ADDAA199000091GF108991031051008001051001MA1999999100431MD1010031+9999REMSYN066AAXX  03031 59559 32565 82602 10289 20250 30043 40070 50003 83550;EQDQ01  00002PRCP99
0178595590999992000080306004+22000+120770FM-12+002499999V0203201N003010075019N0150001N1+02461+02411100761ADDAA106013091AY161061AY221061GF108991081071008001999999MA1999999100481MD1310051+9999MW1601REMSYN078AAXX  03061 59559 11565 83203 10246 20241 30048 40076 53005 60131 76062 887//;
0178595590999992000080309004+22000+120770FM-12+002499999V0203201N002010075019N0150001N1+02501+02361100701ADDAA100014091AY161031AY221031GF108991081061008001999999MA1999999100421MD1510061+9999MW1021REMSYN078AAXX  03091 59559 11565 83202 10250 20236 30042 40070 55006 6014/ 70262 886//;
0178595590999992000080312004+22000+120770FM-12+002499999V0203401N002010075019N0100001N1+02381+02281100851ADDAA112018091AY161061AY221061GF108991081071008001999999MA1999999100571MD1310151+9999MW1601REMSYN078AAXX  03121 59559 11560 83402 10238 20228 30057 40085 53015 60182 76062 887//;
0144595590999992000080315004+22000+120770FM-12+002499999V0203401N001010075019N0100001N1+02391+02301100821ADDAA199000021GF108991081051008001999999MA1999999100541MD1510031+9999REMSYN066AAXX  03151 59559 32560 83401 10239 20230 30054 40082 55003 885//;
0144595590999992000080318004+22000+120770FM-12+002499999V0203001N003010075019N0100001N1+02411+02331100611ADDAA199000021GF108991081051008001999999MA1999999100331MD1710211+9999REMSYN066AAXX  03181 59559 32560 83003 10241 20233 30033 40061 57021 885//;
0144595590999992000080321004+22000+120770FM-12+002499999V0203201N003010075019N0100001N1+02511+02281100611ADDAA199000021GF108991081051008001999999MA1999999100331MD1410001+9999REMSYN066AAXX  03211 59559 32560 83203 10251 20228 30033 40061 54000 885//;
0144595590999992000080400004+22000+120770FM-12+002499999V0203201N001010075019N0200001N1+02741+02421100751ADDAA199000021GF108991081051008001999999MA1999999100471MD1110141+9999REMSYN066AAXX  04001 59559 32570 83201 10274 20242 30047 40075 51014 885//;
0178595590999992000080406004+22000+120770FM-12+002499999V0203301N003010075019N0150001N1+02711+02501100761ADDAA106001091AY181061AY221061GF108991081021008001999999MA1999999100481MD1810041+9999MW1251REMSYN078AAXX  04061 59559 11565 83303 10271 20250 30048 40076 58004 60011 72582 882//;
0150595590999992000080409004+22000+120770FM-12+002499999V0202801N002010075019N0150001N1+02621+02381100761ADDAA100001091GF108991081051008001999999MA1999999100481MD1410001+9999REMSYN072AAXX  04091 59559 12565 82802 10262 20238 30048 40076 54000 6001/ 885//;
0178595590999992000080412004+22000+120770FM-12+002499999V0203201N001010075019N0150001N1+02541+02201100791ADDAA112001091AY181061AY221061GF108991081051008001999999MA1999999100511MD1310031+9999MW1021REMSYN078AAXX  04121 59559 11565 83201 10254 20220 30051 40079 53003 60012 70282 885//;
0144595590999992000080415004+22000+120770FM-12+002499999V0203601N001010075019N0120001N1+02541+02221100931ADDAA199000021GF108991081051008001999999MA1999999100651MD1010141+9999REMSYN066AAXX  04151 59559 32562 83601 10254 20222 30065 40093 50014 885//;
0144595590999992000080418004+22000+120770FM-12+002499999V0209999C000010075019N0120001N1+02461+02241100861ADDAA199000021GF107991071051008001001001MA1999999100581MD1810071+9999REMSYN066AAXX  04181 59559 32562 70000 10246 20224 30058 40086 58007 87500;
0163595590999992000080421004+22000+120770FM-12+002499999V0203301N001010075019N0150001N1+02471+02241100851ADDAA199000091GF108991081051008001999999MA1999999100571MD1510011+9999REMSYN066AAXX  04211 59559 32565 83301 10247 20224 30057 40085 55001 885//;EQDQ01  00002PRCP99
0163595590999992000080500004+22000+120770FM-12+002499999V0203501N005010360019N0250001N1+02571+02341100861ADDAA199000091GF106991021051012501081001MA1999999100581MD1010011+9999REMSYN066AAXX  05001 59559 32675 63505 10257 20234 30058 40086 50001 82580;EQDQ01  00002PRCP99
0163595590999992000080503004+22000+120770FM-12+002499999V0203001N002012200019N0250001N1+03031+02351100861ADDAA199000091GF104991021021008001031001MA1999999100591MD1010011+9999REMSYN066AAXX  05031 59559 32575 43002 10303 20235 30059 40086 50001 82230;EQDQ01  00002PRCP99
0163595590999992000080506004+22000+120770FM-12+002499999V0203201N002010075019N0250001N1+03171+02331100781ADDAA199000091GF106991051041008001031001MA1999999100511MD1510081+9999REMSYN066AAXX  05061 59559 32575 63202 10317 20233 30051 40078 55008 85430;EQDQ01  00002PRCP99
0163595590999992000080509004+22000+120770FM-12+002499999V0202901N002010360019N0250001N1+02921+02361100741ADDAA199000091GF106991021051012501051001MA1999999100471MD1510041+9999REMSYN066AAXX  05091 59559 32675 62902 10292 20236 30047 40074 55004 82550;EQDQ01  00002PRCP99
0163595590999992000080512004+22000+120770FM-12+002499999V0203401N002010360019N0200001N1+02651+02351100871ADDAA199000091GF105991011051012501031001MA1999999100591MD1310121+9999REMSYN066AAXX  05121 59559 32670 53402 10265 20235 30059 40087 53012 81530;EQDQ01  00002PRCP99
0163595590999992000080515004+22000+120770FM-12+002499999V0203101N001012200019N0150001N1+02591+02391100951ADDAA199000091GF103991031051012501001001MA1999999100671MD1010081+9999REMSYN066AAXX  05151 59559 32665 33101 10259 20239 30067 40095 50008 83500;EQDQ01  00002PRCP99
0163595590999992000080518004+22000+120770FM-12+002499999V0203101N001010120019N0150001N1+02521+02331100851ADDAA199000091GF107991071051012501999999MA1999999100571MD1810101+9999REMSYN066AAXX  05181 59559 32665 73101 10252 20233 30057 40085 58010 875//;EQDQ01  00002PRCP99
0163595590999992000080521004+22000+120770FM-12+002499999V0203301N001012200019N0150001N1+02411+02301100831ADDAA199000091GF102991021001999999031001MA1999999100551MD1510021+9999REMSYN066AAXX  05211 59559 32965 23301 10241 20230 30055 40083 55002 82030;EQDQ01  00002PRCP99
0163595590999992000080600004+22000+120770FM-12+002499999V0203401N002012200019N0200001N1+02841+02431100921ADDAA199000091GF101991011001999999041001MA1999999100651MD1110101+9999REMSYN066AAXX  06001 59559 32970 13402 10284 20243 30065 40092 51010 81040;EQDQ01  00002PRCP99
0163595590999992000080603004+22000+120770FM-12+002499999V0203001N001010075019N0200001N1+03111+02471100911ADDAA199000091GF106991061011008001031001MA1999999100641MD1810011+9999REMSYN066AAXX  06031 59559 32570 63001 10311 20247 30064 40091 58001 86130;EQDQ01  00002PRCP99
0163595590999992000080606004+22000+120770FM-12+002499999V0203001N002012200019N0250001N1+03091+02451100781ADDAA199000091GF102991021021008001001001MA1999999100511MD1710131+9999REMSYN066AAXX  06061 59559 32575 23002 10309 20245 30051 40078 57013 82200;EQDQ01  00002PRCP99
0163595590999992000080609004+22000+120770FM-12+002499999V0203101N002010075019N0200001N1+02941+02431100751ADDAA199000091GF106991051041008001031001MA1999999100481MD1510031+9999REMSYN066AAXX  06091 59559 32570 63102 10294 20243 30048 40075 55003 85430;EQDQ01  00002PRCP99
0163595590999992000080612004+22000+120770FM-12+002499999V0201001N001012200019N0200001N1+02721+02391100871ADDAA199000091GF104991041051012501001001MA1999999100591MD1210111+9999REMSYN066AAXX  06121 59559 32670 41001 10272 20239 30059 40087 52011 84500;EQDQ01  00002PRCP99
0163595590999992000080615004+22000+120770FM-12+002499999V0200501N002010075019N0180001N1+02711+02361100991ADDAA199000091GF106991061011008001001001MA1999999100711MD1110121+9999REMSYN066AAXX  06151 59559 32568 60502 10271 20236 30071 40099 51012 86100;EQDQ01  00002PRCP99
0163595590999992000080618004+22000+120770FM-12+002499999V0203001N001012200019N0180001N1+02581+02381100861ADDAA199000091GF101991011011008001001001MA1999999100581MD1710131+9999REMSYN066AAXX  06181 59559 32568 13001 10258 20238 30058 40086 57013 81100;EQDQ01  00002PRCP99
0163595590999992000080621004+22000+120770FM-12+002499999V0203601N002010120019N0150001N1+02601+02401100871ADDAA199000091GF108991081051012501999999MA1999999100591MD1310011+9999REMSYN066AAXX  06211 59559 32665 83602 10260 20240 30059 40087 53001 885//;EQDQ01  00002PRCP99
0163595590999992000080700004+22000+120770FM-12+002499999V0203001N001012200019N0180001N1+02901+02521100921ADDAA199000091GF102991021011008001001001MA1999999100651MD1010061+9999REMSYN066AAXX  07001 59559 32568 23001 10290 20252 30065 40092 50006 82100;EQDQ01  00002PRCP99
0163595590999992000080703004+22000+120770FM-12+002499999V0203301N003010075019N0150001N1+03091+02581100891ADDAA199000091GF106991061011008001001001MA1999999100621MD1510031+9999REMSYN066AAXX  07031 59559 32565 63303 10309 20258 30062 40089 55003 86100;EQDQ01  00002PRCP99
0178595590999992000080706004+22000+120770FM-12+002499999V0201601N002010075019N0100001N1+02651+02511100821ADDAA106003091AY161061AY261061GF108991081071008001999999MA1999999100541MD1610081+9999MW1631REMSYN078AAXX  07061 59559 11560 81602 10265 20251 30054 40082 56008 60031 76366 887//;
0178595590999992000080709004+22000+120770FM-12+002499999V0209999C000010075019N0100001N1+02701+02541100811ADDAA100005191AY161031AY221031GF106991061051008001001001MA1999999100531MD1510011+9999MW1601REMSYN078AAXX  07091 59559 11560 60000 10270 20254 30053 40081 55001 6005/ 76062 86500;
0178595590999992000080712004+22000+120770FM-12+002499999V0200401N002010075019N0100001N1+02611+02511100891ADDAA112005191AY161061AY221061GF106991061051008001001001MA1999999100611MD1310081+9999MW1021REMSYN078AAXX  07121 59559 11560 60402 10261 20251 30061 40089 53008 60052 70262 86500;
0144595590999992000080715004+22000+120770FM-12+002499999V0201201N001012200019N0150001N1+02531+02451101021ADDAA199000021GF102991021051008001001001MA1999999100741MD1110131+9999REMSYN066AAXX  07151 59559 32565 21201 10253 20245 30074 40102 51013 82500;
0144595590999992000080718004+22000+120770FM-12+002499999V0209999C000012200019N0150001N1+02401+02321100901ADDAA199000021GF102991021051008001001001MA1999999100621MD1810121+9999REMSYN066AAXX  07181 59559 32565 20000 10240 20232 30062 40090 58012 82500;
0144595590999992000080721004+22000+120770FM-12+002499999V0203301N001012200019N0200001N1+02501+02401100881ADDAA199000021GF102991021011008001001001MA1999999100601MD1510021+9999REMSYN066AAXX  07211 59559 32570 23301 10250 20240 30060 40088 55002 82100;
0163595590999992000080800004+22000+120770FM-12+002499999V0203401N002012200019N0100001N1+02821+02531100921ADDAA199000091GF102991021051008001001001MA1999999100651MD1010051+9999REMSYN066AAXX  08001 59559 32560 23402 10282 20253 30065 40092 50005 82500;EQDQ01  00002PRCP99
0163595590999992000080803004+22000+120770FM-12+002499999V0203201N002012200019N0100001N1+03031+02551100971ADDAA199000091GF104991041021008001001001MA1999999100701MD1010051+9999REMSYN066AAXX  08031 59559 32560 43202 10303 20255 30070 40097 50005 84200;EQDQ01  00002PRCP99
0163595590999992000080806004+22000+120770FM-12+002499999V0203001N001010075019N0150001N1+03111+02481100861ADDAA199000091GF106991061021008001001001MA1999999100591MD1810111+9999REMSYN066AAXX  08061 59559 32565 63001 10311 20248 30059 40086 58011 86200;EQDQ01  00002PRCP99
0163595590999992000080809004+22000+120770FM-12+002499999V0202901N002010075019N0150001N1+02981+02511100781ADDAA199000091GF105991051021008001001001MA1999999100511MD1810081+9999REMSYN066AAXX  08091 59559 32565 52902 10298 20251 30051 40078 58008 85200;EQDQ01  00002PRCP99
0163595590999992000080812004+22000+120770FM-12+002499999V0202901N002010075019N0100001N1+02781+02461100941ADDAA199000091GF106991061021008001001001MA1999999100661MD1210151+9999REMSYN066AAXX  08121 59559 32560 62902 10278 20246 30066 40094 52015 86200;EQDQ01  00002PRCP99
0163595590999992000080815004+22000+120770FM-12+002499999V0203301N003010075019N0100001N1+02721+02401100911ADDAA199000091GF105991051051008001001001MA1999999100631MD1810031+9999REMSYN066AAXX  08151 59559 32560 53303 10272 20240 30063 40091 58003 85500;EQDQ01  00002PRCP99
0163595590999992000080818004+22000+120770FM-12+002499999V0203201N003010075019N0100001N1+02651+02391100791ADDAA199000091GF106991061051008001001001MA1999999100511MD1810121+9999REMSYN066AAXX  08181 59559 32560 63203 10265 20239 30051 40079 58012 86500;EQDQ01  00002PRCP99
0163595590999992000080821004+22000+120770FM-12+002499999V0203401N002010075019N0100001N1+02551+02391100771ADDAA199000091GF106991061051008001001001MA1999999100491MD1510021+9999REMSYN066AAXX  08211 59559 32560 63402 10255 20239 30049 40077 55002 86500;EQDQ01  00002PRCP99
0163595590999992000080903004+22000+120770FM-12+002499999V0203101N003012200019N0200001N1+03151+02341100831ADDAA199000091GF104991041051008001001001MA1999999100561MD1810091+9999REMSYN066AAXX  09031 59559 32570 43103 10315 20234 30056 40083 58009 84500;EQDQ01  00002PRCP99
0163595590999992000080915004+22000+120770FM-12+002499999V0203201N002012200019N0150001N1+02741+02431100661ADDAA199000091GF102991021011008001001001MA1999999100391MD1810011+9999REMSYN066AAXX  09151 59559 32565 23202 10274 20243 30039 40066 58001 82100;EQDQ01  00002PRCP99
0163595590999992000080918004+22000+120770FM-12+002499999V0203501N002012200019N0150001N1+02621+02421100581ADDAA199000091GF101991011011008001001001MA1999999100301MD1810091+9999REMSYN066AAXX  09181 59559 32565 13502 10262 20242 30030 40058 58009 81100;EQDQ01  00002PRCP99
0163595590999992000080921004+22000+120770FM-12+002499999V0203401N001012200019N0150001N1+02581+02331100521ADDAA199000091GF101991011011008001001001MA1999999100241MD1810061+9999REMSYN066AAXX  09211 59559 32565 13401 10258 20233 30024 40052 58006 81100;EQDQ01  00002PRCP99
0163595590999992000081000004+22000+120770FM-12+002499999V0203001N002012200019N0150001N1+02941+02411100561ADDAA199000091GF102991021011008001001001MA1999999100291MD1010051+9999REMSYN066AAXX  10001 59559 32565 23002 10294 20241 30029 40056 50005 82100;EQDQ01  00002PRCP99
0163595590999992000081003004+22000+120770FM-12+002499999V0203001N003012200019N0120001N1+03171+02531100521ADDAA199000091GF104991031021008001001011MA1999999100251MD1810041+9999REMSYN066AAXX  10031 59559 32562 43003 10317 20253 30025 40052 58004 83201;EQDQ01  00002PRCP99
0163595590999992000081006004+22000+120770FM-12+002499999V0202701N010010075019N0120001N1+03181+02641100331ADDAA199000091GF105991051051008001001001MA1999999100061MD1710191+9999REMSYN066AAXX  10061 59559 32562 52710 10318 20264 30006 40033 57019 85500;EQDQ01  00002PRCP99
0163595590999992000081009004+22000+120770FM-12+002499999V0202801N004010075019N0150001N1+03061+02571100281ADDAA199000091GF106991061051008001001001MA1999999100011MD1510051+9999REMSYN066AAXX  10091 59559 32565 62804 10306 20257 30001 40028 55005 86500;EQDQ01  00002PRCP99
0163595590999992000081012004+22000+120770FM-12+002499999V0202901N002012200019N0150001N1+02861+02551100361ADDAA199000091GF104991041051008001001001MA1999999100091MD1210081+9999REMSYN066AAXX  10121 59559 32565 42902 10286 20255 30009 40036 52008 84500;EQDQ01  00002PRCP99
0163595590999992000081015004+22000+120770FM-12+002499999V0202701N003010075019N0150001N1+02851+02571100421ADDAA199000091GF106991061051008001001001MA1999999100151MD1010061+9999REMSYN066AAXX  10151 59559 32565 62703 10285 20257 30015 40042 50006 86500;EQDQ01  00002PRCP99
0163595590999992000081018004+22000+120770FM-12+002499999V0202501N003010075019N0150001N1+02821+02531100301ADDAA199000091GF105991051051008001001001MA1999999100031MD1610121+9999REMSYN066AAXX  10181 59559 32565 52503 10282 20253 30003 40030 56012 85500;EQDQ01  00002PRCP99
0163595590999992000081021004+22000+120770FM-12+002499999V0202901N003010075019N0120001N1+02801+02521100311ADDAA199000091GF107991071051008001001001MA1999999100041MD1310011+9999REMSYN066AAXX  10211 59559 32562 72903 10280 20252 30004 40031 53001 87500;EQDQ01  00002PRCP99
0163595590999992000081100004+22000+120770FM-12+002499999V0203001N001012200019N0100001N1+02961+02521100421ADDAA199000091GF101991011021008001001001MA1999999100151MD1310111+9999REMSYN066AAXX  11001 59559 32560 13001 10296 20252 30015 40042 53011 81200;EQDQ01  00002PRCP99
0163595590999992000081103004+22000+120770FM-12+002499999V0202801N004010075019N0150001N1+03161+02601100471ADDAA199000091GF105991051021008001001001MA1999999100201MD1210051+9999REMSYN066AAXX  11031 59559 32565 52804 10316 20260 30020 40047 52005 85200;EQDQ01  00002PRCP99
0163595590999992000081106004+22000+120770FM-12+002499999V0202801N005010075019N0150001N1+03191+02601100331ADDAA199000091GF106991061041008001001001MA1999999100061MD1810141+9999REMSYN066AAXX  11061 59559 32565 62805 10319 20260 30006 40033 58014 86400;EQDQ01  00002PRCP99
0163595590999992000081109004+22000+120770FM-12+002499999V0202801N003010360019N0150001N1+03031+02571100231ADDAA199000091GF105991031021008001011001MA1999999099961MD1810101+9999REMSYN066AAXX  11091 59559 32565 52803 10303 20257 39996 40023 58010 83210;EQDQ01  00002PRCP99
0163595590999992000081112004+22000+120770FM-12+002499999V0202801N002010075019N0150001N1+02861+02531100471ADDAA199000091GF106991061051008001001001MA1999999100201MD1110241+9999REMSYN066AAXX  11121 59559 32565 62802 10286 20253 30020 40047 51024 86500;EQDQ01  00002PRCP99
0163595590999992000081115004+22000+120770FM-12+002499999V0202601N002010075019N0150001N1+02831+02571100571ADDAA199000091GF105991051021008001001001MA1999999100301MD1010101+9999REMSYN066AAXX  11151 59559 32565 52602 10283 20257 30030 40057 50010 85200;EQDQ01  00002PRCP99
0163595590999992000081121004+22000+120770FM-12+002499999V0203301N001012200019N0150001N1+02641+02471100491ADDAA199000091GF103991031021008001001001MA1999999100211MD1510031+9999REMSYN066AAXX  11211 59559 32565 33301 10264 20247 30021 40049 55003 83200;EQDQ01  00002PRCP99
0163595590999992000081200004+22000+120770FM-12+002499999V0203001N007010075019N0120001N1+02821+02511100611ADDAA199000091GF107991071051008001999999MA1999999100341MD1110131+9999REMSYN066AAXX  12001 59559 32562 73007 10282 20251 30034 40061 51013 875//;EQDQ01  00002PRCP99
0163595590999992000081203004+22000+120770FM-12+002499999V0203201N003010075019N0120001N1+03101+02551100611ADDAA199000091GF106991061051008001001001MA1999999100341MD1410001+9999REMSYN066AAXX  12031 59559 32562 63203 10310 20255 30034 40061 54000 86500;EQDQ01  00002PRCP99
0163595590999992000081206004+22000+120770FM-12+002499999V0202801N003010360019N0120001N1+03211+02521100521ADDAA199000091GF106991041021008001011001MA1999999100251MD1810091+9999REMSYN066AAXX  12061 59559 32562 62803 10321 20252 30025 40052 58009 84210;EQDQ01  00002PRCP99
0163595590999992000081209004+22000+120770FM-12+002499999V0202901N001010075019N0120001N1+02951+02541100571ADDAA199000091GF108991081051008001999999MA1999999100301MD1310051+9999REMSYN066AAXX  12091 59559 32562 82901 10295 20254 30030 40057 53005 885//;EQDQ01  00002PRCP99
0163595590999992000081212004+22000+120770FM-12+002499999V0203301N002010075019N0120001N1+02801+02501100711ADDAA199000091GF106991061051008001001001MA1999999100441MD1310141+9999REMSYN066AAXX  12121 59559 32562 63302 10280 20250 30044 40071 53014 86500;EQDQ01  00002PRCP99
0163595590999992000081215004+22000+120770FM-12+002499999V0202701N002010075019N0120001N1+02801+02541100761ADDAA199000091GF106991061051008001001001MA1999999100491MD1010051+9999REMSYN066AAXX  12151 59559 32562 62702 10280 20254 30049 40076 50005 86500;EQDQ01  00002PRCP99
0178595590999992000081218004+22000+120770FM-12+002499999V0203501N002010075019N0100001N1+02541+02431100711ADDAA106002091AY181061AY221061GF108991081051008001999999MA1999999100431MD1810061+9999MW1251REMSYN078AAXX  12181 59559 11560 83502 10254 20243 30043 40071 58006 60021 72582 885//;
0178595590999992000081221004+22000+120770FM-12+002499999V0209999C000010075019N0120001N1+02611+02471100741ADDAA100007991AY181031AY221031GF108991081051008001999999MA1999999100461MD1310031+9999MW1021REMSYN078AAXX  12211 59559 11562 80000 10261 20247 30046 40074 53003 6008/ 70282 885//;
0144595590999992000081303004+22000+120770FM-12+002499999V0202501N004010075019N0200001N1+03091+02601100871ADDAA199000021GF105991051021008001001001MA1999999100601MD1010041+9999REMSYN066AAXX  13031 59559 32570 52504 10309 20260 30060 40087 50004 85200;
0144595590999992000081306004+22000+120770FM-12+002499999V0202701N004010075019N0250001N1+03091+02581100711ADDAA199000021GF106991061021008001001001MA1999999100441MD1810161+9999REMSYN066AAXX  13061 59559 32575 62704 10309 20258 30044 40071 58016 86200;
0163595590999992000081309004+22000+120770FM-12+002499999V0202901N002010075019N0200001N1+02941+02441100621ADDAA199000091GF106991061021008001001001MA1999999100351MD1510091+9999REMSYN066AAXX  13091 59559 32570 62902 10294 20244 30035 40062 55009 86200;EQDQ01  00002PRCP99
0163595590999992000081312004+22000+120770FM-12+002499999V0202901N001012200019N0200001N1+02761+02441100781ADDAA199000091GF102991021051012501001001MA1999999100501MD1310151+9999REMSYN066AAXX  13121 59559 32670 22901 10276 20244 30050 40078 53015 82500;EQDQ01  00002PRCP99
0178595590999992000081315004+22000+120770FM-12+002499999V0209999C000010075019N0150001N1+02591+02401100891ADDAA100004191AY181031AY221031GF107991071021008001001001MA1999999100611MD1010111+9999MW1251REMSYN078AAXX  13151 59559 11565 70000 10259 20240 30061 40089 50011 6004/ 72582 87200;
0150595590999992000081318004+22000+120770FM-12+002499999V0202401N002010075019N0150001N1+02751+02541100801ADDAA106004191GF106991061021008001001001MA1999999100521MD1810091+9999REMSYN072AAXX  13181 59559 12565 62402 10275 20254 30052 40080 58009 60041 86200;
0150595590999992000081321004+22000+120770FM-12+002499999V0202401N003010075019N0150001N1+02751+02541100681ADDAA100004191GF106991061021008001001001MA1999999100411MD1510111+9999REMSYN072AAXX  13211 59559 12565 62403 10275 20254 30041 40068 55011 6004/ 86200;
0150595590999992000081400004+22000+120770FM-12+002499999V0202301N003010075019N0180001N1+02811+02501100791ADDAA112004191GF107991071021008001001001MA1999999100521MD1110111+9999REMSYN072AAXX  14001 59559 12568 72303 10281 20250 30052 40079 51011 60042 87200;
0144595590999992000081403004+22000+120770FM-12+002499999V0202401N004010075019N0150001N1+03101+02681100801ADDAA199000021GF106991061021008001001001MA1999999100531MD1010011+9999REMSYN066AAXX  14031 59559 32565 62404 10310 20268 30053 40080 50001 86200;
0178595590999992000081406004+22000+120770FM-12+002499999V0202901N002010075019N0200001N1+02971+02551100701ADDAA106001091AY161061AY221061GF107991071021008001001001MA1999999100431MD1810101+9999MW1211REMSYN078AAXX  14061 59559 11570 72902 10297 20255 30043 40070 58010 60011 72162 87200;
0150595590999992000081409004+22000+120770FM-12+002499999V0202501N005010075019N0150001N1+02871+02541100601ADDAA100001091GF107991071021008001001001MA1999999100331MD1510101+9999REMSYN072AAXX  14091 59559 12565 72505 10287 20254 30033 40060 55010 6001/ 87200;
0150595590999992000081412004+22000+120770FM-12+002499999V0202501N002010075019N0120001N1+02711+02551100701ADDAA112001091GF107991071021008001001001MA1999999100421MD1210091+9999REMSYN072AAXX  14121 59559 12562 72502 10271 20255 30042 40070 52009 60012 87200;
0144595590999992000081415004+22000+120770FM-12+002499999V0202401N004010075019N0150001N1+02761+02511100861ADDAA199000021GF108991081051008001999999MA1999999100581MD1110161+9999REMSYN066AAXX  14151 59559 32565 82404 10276 20251 30058 40086 51016 885//;
0144595590999992000081418004+22000+120770FM-12+002499999V0202501N003010075019N0150001N1+02751+02491100691ADDAA199000021GF108991081051008001999999MA1999999100421MD1810161+9999REMSYN066AAXX  14181 59559 32565 82503 10275 20249 30042 40069 58016 885//;
0163595590999992000081421004+22000+120770FM-12+002499999V0202601N002010075019N0120001N1+02711+02551100611ADDAA199000091GF107991071051008001001001MA1999999100331MD1610091+9999REMSYN066AAXX  14211 59559 32562 72602 10271 20255 30033 40061 56009 87500;EQDQ01  00002PRCP99
0163595590999992000081500004+22000+120770FM-12+002499999V0202401N004010042019N0150001N1+02881+02631100711ADDAA199000091GF107991071021004501001001MA1999999100441MD1110111+9999REMSYN066AAXX  15001 59559 32465 72404 10288 20263 30044 40071 51011 87200;EQDQ01  00002PRCP99
0163595590999992000081503004+22000+120770FM-12+002499999V0202501N005010075019N0180001N1+03091+02681100801ADDAA199000091GF107991071051008001001001MA1999999100531MD1210091+9999REMSYN066AAXX  15031 59559 32568 72505 10309 20268 30053 40080 52009 87500;EQDQ01  00002PRCP99
0178595590999992000081506004+22000+120770FM-12+002499999V0203301N002010075019N0150001N1+02491+02321100741ADDAA106007191AY161061AY221061GF108991081071008001999999MA1999999100461MD1810071+9999MW1211REMSYN078AAXX  15061 59559 11565 83302 10249 20232 30046 40074 58007 60071 72162 887//;
0178595590999992000081509004+22000+120770FM-12+002499999V0203301N003010120019N0200001N1+02611+02401100571ADDAA100007991AY181031AY221031GF107991071051012501001001MA1999999100291MD1810171+9999MW1021REMSYN078AAXX  15091 59559 11670 73303 10261 20240 30029 40057 58017 6008/ 70282 87500;
0150595590999992000081512004+22000+120770FM-12+002499999V0202801N002012200019N0200001N1+02561+02351100621ADDAA112007991GF101991011041012501001001MA1999999100341MD1310051+9999REMSYN072AAXX  15121 59559 12670 12802 10256 20235 30034 40062 53005 60082 81400;
0144595590999992000081515004+22000+120770FM-12+002499999V0202901N001012200019N0200001N1+02651+02381100741ADDAA199000021GF101991011051012501001001MA1999999100461MD1210121+9999REMSYN066AAXX  15151 59559 32670 12901 10265 20238 30046 40074 52012 81500;
0144595590999992000081518004+22000+120770FM-12+002499999V0203301N001012200019N0200001N1+02531+02371100651ADDAA199000021GF102991021051008001001001MA1999999100371MD1810091+9999REMSYN066AAXX  15181 59559 32570 23301 10253 20237 30037 40065 58009 82500;
0163595590999992000081521004+22000+120770FM-12+002499999V0209999C000012200019N0200001N1+02491+02391100611ADDAA199000091GF101991011051012501001001MA1999999100331MD1510041+9999REMSYN066AAXX  15211 59559 32670 10000 10249 20239 30033 40061 55004 81500;EQDQ01  00002PRCP99
0163595590999992000081600004+22000+120770FM-12+002499999V0203301N002012200019N0200001N1+02881+02531100731ADDAA199000091GF104991041041008001001001MA1999999100461MD1110131+9999REMSYN066AAXX  16001 59559 32570 43302 10288 20253 30046 40073 51013 84400;EQDQ01  00002PRCP99
0163595590999992000081603004+22000+120770FM-12+002499999V0202701N004010075019N0200001N1+03051+02591100781ADDAA199000091GF105991051021008001001001MA1999999100511MD1010051+9999REMSYN066AAXX  16031 59559 32570 52704 10305 20259 30051 40078 50005 85200;EQDQ01  00002PRCP99
0163595590999992000081606004+22000+120770FM-12+002499999V0202801N003010075019N0200001N1+03061+02601100651ADDAA199000091GF105991051021008001001001MA1999999100381MD1810131+9999REMSYN066AAXX  16061 59559 32570 52803 10306 20260 30038 40065 58013 85200;EQDQ01  00002PRCP99
0163595590999992000081609004+22000+120770FM-12+002499999V0202701N004012200019N0200001N1+03031+02561100541ADDAA199000091GF104991041041008001001001MA1999999100271MD1610111+9999REMSYN066AAXX  16091 59559 32570 42704 10303 20256 30027 40054 56011 84400;EQDQ01  00002PRCP99
0163595590999992000081612004+22000+120770FM-12+002499999V0202601N003012200019N0180001N1+02811+02531100701ADDAA199000091GF102991021011008001001001MA1999999100431MD1310161+9999REMSYN066AAXX  16121 59559 32568 22603 10281 20253 30043 40070 53016 82100;EQDQ01  00002PRCP99
0163595590999992000081615004+22000+120770FM-12+002499999V0202801N001012200019N0180001N1+02711+02491100871ADDAA199000091GF102991021011008001001001MA1999999100591MD1010161+9999REMSYN066AAXX  16151 59559 32568 22801 10271 20249 30059 40087 50016 82100;EQDQ01  00002PRCP99
0163595590999992000081618004+22000+120770FM-12+002499999V0209999C000010075019N0150001N1+02691+02521100811ADDAA199000091GF106991061021008001001001MA1999999100531MD1710061+9999REMSYN066AAXX  16181 59559 32565 60000 10269 20252 30053 40081 57006 86200;EQDQ01  00002PRCP99
0163595590999992000081621004+22000+120770FM-12+002499999V0209999C000012200019N0150001N1+02611+02481100811ADDAA199000091GF102991021011008001001001MA1999999100531MD1410001+9999REMSYN066AAXX  16211 59559 32565 20000 10261 20248 30053 40081 54000 82100;EQDQ01  00002PRCP99
0163595590999992000081700004+22000+120770FM-12+002499999V0203401N001012200019N0180001N1+02861+02551100911ADDAA199000091GF104991041011008001001001MA1999999100641MD1110111+9999REMSYN066AAXX  17001 59559 32568 43401 10286 20255 30064 40091 51011 84100;EQDQ01  00002PRCP99
0163595590999992000081703004+22000+120770FM-12+002499999V0202301N002012200019N0200001N1+03231+02531100901ADDAA199000091GF103991021011008001001011MA1999999100631MD1810011+9999REMSYN066AAXX  17031 59559 32570 32302 10323 20253 30063 40090 58001 82101;EQDQ01  00002PRCP99
0163595590999992000081706004+22000+120770FM-12+002499999V0202601N003012200019N0200001N1+03191+02391100771ADDAA199000091GF104991011011008001001011MA1999999100501MD1710131+9999REMSYN066AAXX  17061 59559 32570 42603 10319 20239 30050 40077 57013 81101;EQDQ01  00002PRCP99
0163595590999992000081709004+22000+120770FM-12+002499999V0203401N003012200019N0200001N1+03041+02431100741ADDAA199000091GF106991011011008001001011MA1999999100471MD1510031+9999REMSYN066AAXX  17091 59559 32570 63403 10304 20243 30047 40074 55003 81101;EQDQ01  00002PRCP99
0163595590999992000081712004+22000+120770FM-12+002499999V0200401N001012200019N0200001N1+02611+02291100911ADDAA199000091GF103991001001999999001011MA1999999100631MD1310161+9999REMSYN066AAXX  17121 59559 32970 30401 10261 20229 30063 40091 53016 80001;EQDQ01  00002PRCP99
0183595590999992000081715004+22000+120770FM-12+002499999V0200201N002012200019N0180001N1+02591+02251101091ADDAA199000091AY191031GF102991021091008001001001MA1999999100811MD1110181+9999MW1131REMSYN072AAXX  17151 59559 31568 20202 10259 20225 30081 40109 51018 71390 82900;EQDQ01  00002PRCP99
0191595590999992000081718004+22000+120770FM-12+002499999V0200401N002012200019N0180001N1+02531+02351100961ADDAA199000091AY191061AY211061GF106991021051012501001011MA1999999100681MD1510131+9999MW1031REMSYN072AAXX  17181 59559 31668 60402 10253 20235 30068 40096 55013 70391 82501;EQDQ01  00002PRCP99
0163595590999992000081721004+22000+120770FM-12+002499999V0200301N002012200019N0180001N1+02521+02351100901ADDAA199000091GF103991011001999999031011MA1999999100621MD1810061+9999REMSYN066AAXX  17211 59559 32968 30302 10252 20235 30062 40090 58006 81031;EQDQ01  00002PRCP99
0163595590999992000081800004+22000+120770FM-12+002499999V0200801N003012200019N0200001N1+03021+02551100981ADDAA199000091GF102991011011008001031001MA1999999100711MD1110091+9999REMSYN066AAXX  18001 59559 32570 20803 10302 20255 30071 40098 51009 81130;EQDQ01  00002PRCP99
0163595590999992000081803004+22000+120770FM-12+002499999V0201001N004012200019N0200001N1+03241+02601100961ADDAA199000091GF102991021011008001031001MA1999999100691MD1810021+9999REMSYN066AAXX  18031 59559 32570 21004 10324 20260 30069 40096 58002 82130;EQDQ01  00002PRCP99
0163595590999992000081806004+22000+120770FM-12+002499999V0201001N004012200019N0250001N1+03241+02581100861ADDAA199000091GF102991021011008001001001MA1999999100591MD1710101+9999REMSYN066AAXX  18061 59559 32575 21004 10324 20258 30059 40086 57010 82100;EQDQ01  00002PRCP99
0163595590999992000081809004+22000+120770FM-12+002499999V0201201N003012200019N0250001N1+03121+02551100811ADDAA199000091GF102991021021008001001001MA1999999100541MD1510051+9999REMSYN066AAXX  18091 59559 32575 21203 10312 20255 30054 40081 55005 82200;EQDQ01  00002PRCP99
0173595590999992000081812004+22000+120770FM-12+002499999V0200701N001012200019N0200001N1+02751+02481100921ADDAA199000091GA1001+999999999GF100991001001999999001001MA1999999100641MD1310101+9999REMSYN060AAXX  18121 59559 32970 00701 10275 20248 30064 40092 53010;EQDQ01  00002PRCP99
0173595590999992000081815004+22000+120770FM-12+002499999V0201001N001012200019N0200001N1+02671+02421100981ADDAA199000091GA1001+999999999GF100991001001999999001001MA1999999100701MD1210061+9999REMSYN060AAXX  18151 59559 32970 01001 10267 20242 30070 40098 52006;EQDQ01  00002PRCP99
0173595590999992000081818004+22000+120770FM-12+002499999V0201001N002012200019N0200001N1+02651+02471100811ADDAA199000091GA1001+999999999GF100991001001999999001001MA1999999100531MD1810171+9999REMSYN060AAXX  18181 59559 32970 01002 10265 20247 30053 40081 58017;EQDQ01  00002PRCP99
0163595590999992000081821004+22000+120770FM-12+002499999V0200801N002012200019N0200001N1+02631+02471100741ADDAA199000091GF101991011041008001001001MA1999999100461MD1610071+9999REMSYN066AAXX  18211 59559 32570 10802 10263 20247 30046 40074 56007 81400;EQDQ01  00002PRCP99
0163595590999992000081900004+22000+120770FM-12+002499999V0200601N003012200019N0250001N1+03021+02561100811ADDAA199000091GF101991011011008001001001MA1999999100541MD1210081+9999REMSYN066AAXX  19001 59559 32575 10603 10302 20256 30054 40081 52008 81100;EQDQ01  00002PRCP99
0163595590999992000081903004+22000+120770FM-12+002499999V0201101N003012200019N0250001N1+03291+02521100741ADDAA199000091GF101991011011008001001001MA1999999100471MD1810071+9999REMSYN066AAXX  19031 59559 32575 11103 10329 20252 30047 40074 58007 81100;EQDQ01  00002PRCP99
0163595590999992000081906004+22000+120770FM-12+002499999V0201701N004012200019N0250001N1+03361+02591100581ADDAA199000091GF101991011011008001001001MA1999999100311MD1810161+9999REMSYN066AAXX  19061 59559 32575 11704 10336 20259 30031 40058 58016 81100;EQDQ01  00002PRCP99
0163595590999992000081909004+22000+120770FM-12+002499999V0200901N004012200019N0250001N1+03111+02481100551ADDAA199000091GF101991011051008001001001MA1999999100281MD1710031+9999REMSYN066AAXX  19091 59559 32575 10904 10311 20248 30028 40055 57003 81500;EQDQ01  00002PRCP99
0163595590999992000081912004+22000+120770FM-12+002499999V0200801N002012200019N0250001N1+02791+02491100741ADDAA199000091GF101991011011008001001001MA1999999100471MD1210191+9999REMSYN066AAXX  19121 59559 32575 10802 10279 20249 30047 40074 52019 81100;EQDQ01  00002PRCP99
0163595590999992000081915004+22000+120770FM-12+002499999V0200701N002012200019N0250001N1+02711+02491100741ADDAA199000091GF101991011011008001001001MA1999999100461MD1810011+9999REMSYN066AAXX  19151 59559 32575 10702 10271 20249 30046 40074 58001 81100;EQDQ01  00002PRCP99
0163595590999992000081918004+22000+120770FM-12+002499999V0201001N001012200019N0200001N1+02651+02501100631ADDAA199000091GF102991021011008001001001MA1999999100351MD1810111+9999REMSYN066AAXX  19181 59559 32570 21001 10265 20250 30035 40063 58011 82100;EQDQ01  00002PRCP99
0163595590999992000081921004+22000+120770FM-12+002499999V0201101N001012200019N0200001N1+02641+02471100581ADDAA199000091GF102991021021008001001001MA1999999100301MD1510051+9999REMSYN066AAXX  19211 59559 32570 21101 10264 20247 30030 40058 55005 82200;EQDQ01  00002PRCP99
0163595590999992000082000004+22000+120770FM-12+002499999V0200701N003012200019N0250001N1+03031+02591100661ADDAA199000091GF102991021021008001001001MA1999999100391MD1210091+9999REMSYN066AAXX  20001 59559 32575 20703 10303 20259 30039 40066 52009 82200;EQDQ01  00002PRCP99
0163595590999992000082003004+22000+120770FM-12+002499999V0201201N004012200019N0250001N1+03261+02551100631ADDAA199000091GF102991021021008001001001MA1999999100361MD1510031+9999REMSYN066AAXX  20031 59559 32575 21204 10326 20255 30036 40063 55003 82200;EQDQ01  00002PRCP99
0163595590999992000082006004+22000+120770FM-12+002499999V0201001N004012200019N0250001N1+03261+02491100541ADDAA199000091GF102991021011008001001001MA1999999100271MD1710091+9999REMSYN066AAXX  20061 59559 32575 21004 10326 20249 30027 40054 57009 82100;EQDQ01  00002PRCP99
0163595590999992000082009004+22000+120770FM-12+002499999V0201101N004012200019N0250001N1+03091+02491100421ADDAA199000091GF103991031021008001001001MA1999999100151MD1710121+9999REMSYN066AAXX  20091 59559 32575 31104 10309 20249 30015 40042 57012 83200;EQDQ01  00002PRCP99
0163595590999992000082012004+22000+120770FM-12+002499999V0200901N003012200019N0200001N1+02761+02481100591ADDAA199000091GF102991021011008001001001MA1999999100321MD1210171+9999REMSYN066AAXX  20121 59559 32570 20903 10276 20248 30032 40059 52017 82100;EQDQ01  00002PRCP99
0163595590999992000082015004+22000+120770FM-12+002499999V0200601N003012200019N0200001N1+02731+02421100621ADDAA199000091GF102991021051008001001001MA1999999100351MD1010031+9999REMSYN066AAXX  20151 59559 32570 20603 10273 20242 30035 40062 50003 82500;EQDQ01  00002PRCP99
0163595590999992000082018004+22000+120770FM-12+002499999V0201101N001012200019N0200001N1+02641+02441100491ADDAA199000091GF101991011011008001001001MA1999999100211MD1810141+9999REMSYN066AAXX  20181 59559 32570 11101 10264 20244 30021 40049 58014 81100;EQDQ01  00002PRCP99
0163595590999992000082021004+22000+120770FM-12+002499999V0201001N001012200019N0200001N1+02631+02381100481ADDAA199000091GF102991021051008001001001MA1999999100201MD1510011+9999REMSYN066AAXX  20211 59559 32570 21001 10263 20238 30020 40048 55001 82500;EQDQ01  00002PRCP99
0163595590999992000082100004+22000+120770FM-12+002499999V0200301N003012200019N0200001N1+03011+02471100641ADDAA199000091GF103991031021008001001001MA1999999100371MD1110171+9999REMSYN066AAXX  21001 59559 32570 30303 10301 20247 30037 40064 51017 83200;EQDQ01  00002PRCP99
0163595590999992000082103004+22000+120770FM-12+002499999V0200301N005012200019N0250001N1+03231+02441100611ADDAA199000091GF102991021021008001001001MA1999999100341MD1810031+9999REMSYN066AAXX  21031 59559 32575 20305 10323 20244 30034 40061 58003 82200;EQDQ01  00002PRCP99
0163595590999992000082106004+22000+120770FM-12+002499999V0200201N005010900019N0250001N1+03361+02521100411ADDAA199000091GF105991021011008001031011MA1999999100141MD1610201+9999REMSYN066AAXX  21061 59559 32575 50205 10336 20252 30014 40041 56020 82131;EQDQ01  00002PRCP99
0163595590999992000082109004+22000+120770FM-12+002499999V0200301N006010900019N0250001N1+03071+02401100371ADDAA199000091GF106991021011008001001021MA1999999100101MD1510041+9999REMSYN066AAXX  21091 59559 32575 60306 10307 20240 30010 40037 55004 82102;EQDQ01  00002PRCP99
0163595590999992000082112004+22000+120770FM-12+002499999V0200201N004012200019N0200001N1+02871+02441100491ADDAA199000091GF102991011011008001001011MA1999999100221MD1310121+9999REMSYN066AAXX  21121 59559 32570 20204 10287 20244 30022 40049 53012 81101;EQDQ01  00002PRCP99
0163595590999992000082115004+22000+120770FM-12+002499999V0200301N007012200019N0200001N1+03001+02091100401ADDAA199000091GF101991011011008001001001MA1999999100131MD1810091+9999REMSYN066AAXX  21151 59559 32570 10307 10300 20209 30013 40040 58009 81100;EQDQ01  00002PRCP99
0163595590999992000082118004+22000+120770FM-12+002499999V0200301N003010075019N0200001N1+02881+02101100391ADDAA199000091GF107991071051008001999999MA1999999100121MD1510011+9999REMSYN066AAXX  21181 59559 32570 70303 10288 20210 30012 40039 55001 875//;EQDQ01  00002PRCP99
0178595590999992000082121004+22000+120770FM-12+002499999V0200201N003010075019N0100001N1+02671+02211100251ADDAA100002091AY161031AY221031GF108991081051008001999999MA1999999099981MD1510141+9999MW1021REMSYN078AAXX  21211 59559 11560 80203 10267 20221 39998 40025 55014 6002/ 70262 885//;
0178595590999992000082200004+22000+120770FM-12+002499999V0200201N003010075019N0100001N1+02601+02201100221ADDAA112003091AY161061AY221061GF108991081071008001999999MA1999999099941MD1510041+9999MW1601REMSYN078AAXX  22001 59559 11560 80203 10260 20220 39994 40022 55004 60032 76062 887//;
0178595590999992000082203004+22000+120770FM-12+002499999V0203401N004010075019N0100001N1+02651+02431099951ADDAA100002091AY161031AY221031GF108991081071008001999999MA1999999099681MD1810261+9999MW1611REMSYN078AAXX  22031 59559 11560 83404 10265 20243 39968 49995 58026 6002/ 76162 887//;
0178595590999992000082206004+22000+120770FM-12+002499999V0203101N002010042019N0100001N1+02331+02261099671ADDAA106026991AY161061AY261061GF108991081071004501999999MA1999999099391MD1810291+9999MW1651REMSYN078AAXX  22061 59559 11460 83102 10233 20226 39939 49967 58029 60271 76566 887//;
0178595590999992000082209004+22000+120770FM-12+002499999V0203301N004010042019N0060001N1+02411+02391099241ADDAA100055991AY161031AY261031GF108991081071004501999999MA1999999098971MD1810421+9999MW1631REMSYN078AAXX  22091 59559 11456 83304 10241 20239 39897 49924 58042 6056/ 76366 887//;
0178595590999992000082212004+22000+120770FM-12+002499999V0202701N006010042019N0060001N1+02551+02511098741ADDAA112083191AY161061AY261061GF108991081071004501999999MA1999999098471MD1710501+9999MW1611REMSYN078AAXX  22121 59559 11456 82706 10255 20251 39847 49874 57050 60832 76166 887//;
0178595590999992000082215004+22000+120770FM-12+002499999V0202401N010010042019N0060001N1+02641+02641098701ADDAA100007991AY161031AY261031GF108991081071004501999999MA1999999098431MD1510041+9999MW1611REMSYN078AAXX  22151 59559 11456 82410 10264 20264 39843 49870 55004 6008/ 76166 887//;
0178595590999992000082218004+22000+120770FM-12+002499999V0201801N006010042019N0060001N1+02531+02531099261ADDAA106022191AY161061AY261061GF108991081071004501999999MA1999999098991MD1110561+9999MW1611REMSYN078AAXX  22181 59559 11456 81806 10253 20253 39899 49926 51056 60221 76166 887//;
0178595590999992000082221004+22000+120770FM-12+002499999V0202501N005010075019N0100001N1+02531+02531099671ADDAA100041991AY161031AY261031GF108991081071008001999999MA1999999099401MD1110411+9999MW1611REMSYN078AAXX  22211 59559 11560 82505 10253 20253 39940 49967 51041 6042/ 76166 887//;
0178595590999992000082300004+22000+120770FM-12+002499999V0201701N013010075019N0100001N1+02811+02651099901ADDAA112054191AY161061AY221061GF108991081051008001999999MA1999999099631MD1210231+9999MW1021REMSYN078AAXX  23001 59559 11560 81713 10281 20265 39963 49990 52023 60542 70262 885//;
0144595590999992000082303004+22000+120770FM-12+002499999V0201801N006010075019N0100001N1+02751+02561100191ADDAA199000021GF108991081051008001999999MA1999999099921MD1110291+9999REMSYN066AAXX  23031 59559 32560 81806 10275 20256 39992 40019 51029 885//;
0178595590999992000082306004+22000+120770FM-12+002499999V0201701N004010075019N0100001N1+02561+02411100251ADDAA106004191AY161061AY221061GF108991081071008001999999MA1999999099971MD1110051+9999MW1601REMSYN078AAXX  23061 59559 11560 81704 10256 20241 39997 40025 51005 60041 76062 887//;
0178595590999992000082309004+22000+120770FM-12+002499999V0202001N003010042019N0080001N1+02611+02481100261ADDAA100008991AY161031AY261031GF108991081071004501999999MA1999999099981MD1310011+9999MW1611REMSYN078AAXX  23091 59559 11458 82003 10261 20248 39998 40026 53001 6009/ 76166 887//;
0178595590999992000082312004+22000+120770FM-12+002499999V0202001N004010075019N0100001N1+02591+02441100501ADDAA112008991AY161061AY261061GF108991081071008001999999MA1999999100221MD1210241+9999MW1611REMSYN078AAXX  23121 59559 11560 82004 10259 20244 30022 40050 52024 60092 76166 887//;
0178595590999992000082315004+22000+120770FM-12+002499999V0201901N004010075019N0100001N1+02691+02481100601ADDAA100003091AY161031AY221031GF106991061051008001001001MA1999999100321MD1110101+9999MW1021REMSYN078AAXX  23151 59559 11560 61904 10269 20248 30032 40060 51010 6003/ 70262 86500;
0178595590999992000082318004+22000+120770FM-12+002499999V0201701N005010075019N0100001N1+02581+02431100531ADDAA106007191AY161061AY261061GF108991081071008001999999MA1999999100251MD1710071+9999MW1611REMSYN078AAXX  23181 59559 11560 81705 10258 20243 30025 40053 57007 60071 76166 887//;
0178595590999992000082321004+22000+120770FM-12+002499999V0201801N007010075019N0100001N1+02571+02411100651ADDAA100011991AY161031AY261031GF108991081071008001999999MA1999999100371MD1310121+9999MW1611REMSYN078AAXX  23211 59559 11560 81807 10257 20241 30037 40065 53012 6012/ 76166 887//;
0178595590999992000082400004+22000+120770FM-12+002499999V0201401N003010075019N0100001N1+02681+02541100831ADDAA112019191AY161061AY221061GF108991081071008001999999MA1999999100551MD1210181+9999MW1211REMSYN078AAXX  24001 59559 11560 81403 10268 20254 30055 40083 52018 60192 72162 887//;
0178595590999992000082403004+22000+120770FM-12+002499999V0201301N003010360019N0100001N1+02691+02511100871ADDAA100011991AY161031AY221031GF108991031021008001021001MA1999999100591MD1010041+9999MW1211REMSYN078AAXX  24031 59559 11560 81303 10269 20251 30059 40087 50004 6012/ 72162 83220;
0178595590999992000082406004+22000+120770FM-12+002499999V0201601N003010075019N0100001N1+02561+02451100741ADDAA106023991AY161061AY261061GF108991081071008001999999MA1999999100461MD1510131+9999MW1611REMSYN078AAXX  24061 59559 11560 81603 10256 20245 30046 40074 55013 60241 76166 887//;
0178595590999992000082409004+22000+120770FM-12+002499999V0201201N002010360019N0100001N1+02571+02461100761ADDAA100036191AY161031AY261031GF108991031051008001021001MA1999999100481MD1010021+9999MW1611REMSYN078AAXX  24091 59559 11560 81202 10257 20246 30048 40076 50002 6036/ 76166 83520;
0178595590999992000082412004+22000+120770FM-12+002499999V0201001N002010075019N0100001N1+02511+02381100921ADDAA112057991AY161061AY221061GF108991081071008001999999MA1999999100641MD1110161+9999MW1021REMSYN078AAXX  24121 59559 11560 81002 10251 20238 30064 40092 51016 60582 70262 887//;
0144595590999992000082415004+22000+120770FM-12+002499999V0201101N002010075019N0100001N1+02561+02381100941ADDAA199000021GF108991081051008001999999MA1999999100661MD1010021+9999REMSYN066AAXX  24151 59559 32560 81102 10256 20238 30066 40094 50002 885//;
0144595590999992000082418004+22000+120770FM-12+002499999V0201001N003010075019N0100001N1+02581+02411100811ADDAA199000021GF106991061051008001001001MA1999999100531MD1610131+9999REMSYN066AAXX  24181 59559 32560 61003 10258 20241 30053 40081 56013 86500;
0178595590999992000082421004+22000+120770FM-12+002499999V0201001N003010360019N0100001N1+02601+02461100791ADDAA100002091AY161031AY221031GF108991021021008001021001MA1999999100511MD1510021+9999MW1211REMSYN078AAXX  24211 59559 11560 81003 10260 20246 30051 40079 55002 6002/ 72162 82220;
0150595590999992000082500004+22000+120770FM-12+002499999V0201001N003010360019N0120001N1+02851+02601100891ADDAA112002091GF108991031021008001071001MA1999999100621MD1210111+9999REMSYN072AAXX  25001 59559 12562 81003 10285 20260 30062 40089 52011 60022 83270;
0178595590999992000082503004+22000+120770FM-12+002499999V0201101N002010075019N0100001N1+02911+02641100911ADDAA100003091AY161031AY221031GF108991081051008001999999MA1999999100641MD1010021+9999MW1211REMSYN078AAXX  25031 59559 11560 81102 10291 20264 30064 40091 50002 6003/ 72162 885//;
0178595590999992000082506004+22000+120770FM-12+002499999V0201201N001010075019N0100001N1+02551+02411100811ADDAA106009991AY161061AY221061GF108991081071008001999999MA1999999100531MD1610111+9999MW1601REMSYN078AAXX  25061 59559 11560 81201 10255 20241 30053 40081 56011 60101 76062 887//;
0178595590999992000082509004+22000+120770FM-12+002499999V0200401N002010075019N0100001N1+02581+02451100661ADDAA100013091AY161031AY221031GF108991081061008001999999MA1999999100381MD1710151+9999MW1211REMSYN078AAXX  25091 59559 11560 80402 10258 20245 30038 40066 57015 6013/ 72162 886//;
0177595590999992000082512004+22000+120770FM-12+002499999V0200901N002019999999N0100001N1+02571+02451100811ADDAA112013091AY161061AY221061GF108991999999008001999999MA1999999100531MD1210151+9999MW1021REMSYN077AAXX  25121 59559 11560 80902 10257 20245 30053 40081 52015 60132 70262 886/;
0144595590999992000082515004+22000+120770FM-12+002499999V0200901N003010075019N0100001N1+02601+02481100861ADDAA199000021GF108991081051008001999999MA1999999100581MD1010051+9999REMSYN066AAXX  25151 59559 32560 80903 10260 20248 30058 40086 50005 885//;
0144595590999992000082518004+22000+120770FM-12+002499999V0200201N001010075019N0100001N1+02541+02431100651ADDAA199000021GF108991081051008001999999MA1999999100371MD1810211+9999REMSYN066AAXX  25181 59559 32560 80201 10254 20243 30037 40065 58021 885//;
0144595590999992000082521004+22000+120770FM-12+002499999V0200401N002010075019N0100001N1+02501+02391100671ADDAA199000021GF108991081051008001999999MA1999999100391MD1310021+9999REMSYN066AAXX  25211 59559 32560 80402 10250 20239 30039 40067 53002 885//;
0163595590999992000082600004+22000+120770FM-12+002499999V0201001N001010075019N0200001N1+02831+02561100711ADDAA199000091GF105991051051008001001001MA1999999100441MD1110051+9999REMSYN066AAXX  26001 59559 32570 51001 10283 20256 30044 40071 51005 85500;EQDQ01  00002PRCP99
0179595590999992000082603004+22000+120770FM-12+002499999V0201601N003012200019N0200001N1+03141+02591100721ADDAA199000091GF102991999011008001001001MA1999999100451MD1010011+9999REMSYN066AAXX  26031 59559 32570 21603 10314 20259 30045 40072 50001 81100;EQDQ01+000012SCOTLCQ02  00002PRCP99
0163595590999992000082609004+22000+120770FM-12+002499999V0203601N001010075019N0180001N1+02731+02391100601ADDAA199000091GF108991081051008001999999MA1999999100331MD1310021+9999REMSYN066AAXX  26091 59559 32568 83601 10273 20239 30033 40060 53002 885//;EQDQ01  00002PRCP99
0163595590999992000082612004+22000+120770FM-12+002499999V0203301N002010120019N0180001N1+02671+02451100751ADDAA199000091GF108991081051012501999999MA1999999100471MD1210141+9999REMSYN066AAXX  26121 59559 32668 83302 10267 20245 30047 40075 52014 885//;EQDQ01  00002PRCP99
0163595590999992000082615004+22000+120770FM-12+002499999V0200601N002010120019N0180001N1+02591+02371100801ADDAA199000091GF108991081051012501999999MA1999999100521MD1010051+9999REMSYN066AAXX  26151 59559 32668 80602 10259 20237 30052 40080 50005 885//;EQDQ01  00002PRCP99
0163595590999992000082618004+22000+120770FM-12+002499999V0209999C000010075019N0150001N1+02551+02371100681ADDAA199000091GF107991071021008001001001MA1999999100401MD1810121+9999REMSYN066AAXX  26181 59559 32565 70000 10255 20237 30040 40068 58012 87200;EQDQ01  00002PRCP99
0163595590999992000082621004+22000+120770FM-12+002499999V0200901N001010120019N0150001N1+02551+02391100531ADDAA199000091GF107991071051012501999999MA1999999100251MD1510151+9999REMSYN066AAXX  26211 59559 32665 70901 10255 20239 30025 40053 55015 875//;EQDQ01  00002PRCP99
0163595590999992000082700004+22000+120770FM-12+002499999V0209999C000010120019N0180001N1+02871+02451100571ADDAA199000091GF106991061051012501001001MA1999999100301MD1010051+9999REMSYN066AAXX  27001 59559 32668 60000 10287 20245 30030 40057 50005 86500;EQDQ01  00002PRCP99
0163595590999992000082703004+22000+120770FM-12+002499999V0201001N003010120019N0200001N1+03241+02551100571ADDAA199000091GF106991061081008001031001MA1999999100301MD1410001+9999REMSYN066AAXX  27031 59559 32570 61003 10324 20255 30030 40057 54000 86830;EQDQ01  00002PRCP99
0163595590999992000082706004+22000+120770FM-12+002499999V0201601N003010360019N0250001N1+03281+02311100431ADDAA199000091GF106991021021008001031001MA1999999100161MD1810141+9999REMSYN066AAXX  27061 59559 32575 61603 10328 20231 30016 40043 58014 82230;EQDQ01  00002PRCP99
0163595590999992000082709004+22000+120770FM-12+002499999V0201101N003010360019N0200001N1+03001+02491100491ADDAA199000091GF105991021011008001031001MA1999999100221MD1310061+9999REMSYN066AAXX  27091 59559 32570 51103 10300 20249 30022 40049 53006 82130;EQDQ01  00002PRCP99
0163595590999992000082712004+22000+120770FM-12+002499999V0200201N001012200019N0200001N1+02651+02411100611ADDAA199000091GF104991021011008001031001MA1999999100331MD1110111+9999REMSYN066AAXX  27121 59559 32570 40201 10265 20241 30033 40061 51011 82130;EQDQ01  00002PRCP99
0163595590999992000082715004+22000+120770FM-12+002499999V0200501N001012200019N0200001N1+02551+02271100581ADDAA199000091GF102991021011008001031001MA1999999100301MD1810031+9999REMSYN066AAXX  27151 59559 32570 20501 10255 20227 30030 40058 58003 82130;EQDQ01  00002PRCP99
0173595590999992000082718004+22000+120770FM-12+002499999V0200501N001012200019N0180001N1+02491+02251100371ADDAA199000091GA1001+999999999GF100991001001999999001001MA1999999100091MD1710211+9999REMSYN060AAXX  27181 59559 32968 00501 10249 20225 30009 40037 57021;EQDQ01  00002PRCP99
0163595590999992000082721004+22000+120770FM-12+002499999V0200501N001012200019N0180001N1+02411+02251100391ADDAA199000091GF104991021011008001031001MA1999999100111MD1310021+9999REMSYN066AAXX  27211 59559 32568 40501 10241 20225 30011 40039 53002 82130;EQDQ01  00002PRCP99
0163595590999992000082800004+22000+120770FM-12+002499999V0203001N001010360019N0200001N1+02861+02501100371ADDAA199000091GF106991011011008001031011MA1999999100101MD1510011+9999REMSYN066AAXX  28001 59559 32570 63001 10286 20250 30010 40037 55001 81131;EQDQ01  00002PRCP99
0163595590999992000082803004+22000+120770FM-12+002499999V0203401N004012200019N0250001N1+03091+02451100291ADDAA199000091GF104991021011008001001041MA1999999100021MD1810081+9999REMSYN066AAXX  28031 59559 32575 43404 10309 20245 30002 40029 58008 82104;EQDQ01  00002PRCP99
0191595590999992000082806004+22000+120770FM-12+002499999V0203101N003010360019N0060001N1+03111+02491100121ADDAA199000091AY121061AY211061GF106991041051008001041001MA1999999099851MD1710171+9999MW1051REMSYN072AAXX  28061 59559 31556 63103 10311 20249 39985 40012 57017 70521 84540;EQDQ01  00002PRCP99
0163595590999992000082809004+22000+120770FM-12+002499999V0203101N002010075019N0120001N1+03011+02481099971ADDAA199000091GF106991061051008001001001MA1999999099701MD1710151+9999REMSYN066AAXX  28091 59559 32562 63102 10301 20248 39970 49997 57015 86500;EQDQ01  00002PRCP99
0163595590999992000082812004+22000+120770FM-12+002499999V0202901N002012200019N0100001N1+02781+02501099901ADDAA199000091GF103991031051008001001001MA1999999099631MD1810071+9999REMSYN066AAXX  28121 59559 32560 32902 10278 20250 39963 49990 58007 83500;EQDQ01  00002PRCP99
0163595590999992000082815004+22000+120770FM-12+002499999V0202801N003010075019N0100001N1+02771+02601099941ADDAA199000091GF108991081051008001999999MA1999999099671MD1010041+9999REMSYN066AAXX  28151 59559 32560 82803 10277 20260 39967 49994 50004 885//;EQDQ01  00002PRCP99
0163595590999992000082818004+22000+120770FM-12+002499999V0202901N002012200019N0100001N1+02741+02501099721ADDAA199000091GF104991041051008001001001MA1999999099451MD1710221+9999REMSYN066AAXX  28181 59559 32560 42902 10274 20250 39945 49972 57022 84500;EQDQ01  00002PRCP99
0163595590999992000082821004+22000+120770FM-12+002499999V0203001N002010075019N0100001N1+02751+02501099631ADDAA199000091GF106991061051008001001001MA1999999099361MD1510091+9999REMSYN066AAXX  28211 59559 32560 63002 10275 20250 39936 49963 55009 86500;EQDQ01  00002PRCP99
0178595590999992000082900004+22000+120770FM-12+002499999V0202701N004010075019N0100001N1+02791+02601099671ADDAA112000791AY161061AY221061GF108991081051008001999999MA1999999099401MD1310041+9999MW1021REMSYN078AAXX  29001 59559 11560 82704 10279 20260 39940 49967 53004 69902 70262 885//;
0163595590999992000082903004+22000+120770FM-12+002499999V0202701N005010075019N0100001N1+02871+02591099661ADDAA199000091GF108991081051008001999999MA1999999099391MD1510011+9999REMSYN066AAXX  29031 59559 32560 82705 10287 20259 39939 49966 55001 885//;EQDQ01  00002PRCP99
0163595590999992000082906004+22000+120770FM-12+002499999V0202701N006010075019N0100001N1+03001+02631099441ADDAA199000091GF108991081051008001999999MA1999999099171MD1710221+9999REMSYN066AAXX  29061 59559 32560 82706 10300 20263 39917 49944 57022 885//;EQDQ01  00002PRCP99
0178595590999992000082909004+22000+120770FM-12+002499999V0202701N005010042019N0100001N1+02741+02601099441ADDAA100002091AY161031AY221031GF108991081051004501999999MA1999999099171MD1410001+9999MW1601REMSYN078AAXX  29091 59559 11460 82705 10274 20260 39917 49944 54000 6002/ 76062 885//;
0178595590999992000082912004+22000+120770FM-12+002499999V0202901N004010360019N0120001N1+02771+02601099481ADDAA112002091AY161061AY221061GF107991031051008001051001MA1999999099211MD1010041+9999MW1021REMSYN078AAXX  29121 59559 11562 72904 10277 20260 39921 49948 50004 60022 70262 83550;
0144595590999992000082915004+22000+120770FM-12+002499999V0202701N006010075019N0100001N1+02791+02591099551ADDAA199000021GF107991071051008001001001MA1999999099281MD1110071+9999REMSYN066AAXX  29151 59559 32560 72706 10279 20259 39928 49955 51007 87500;
0144595590999992000082918004+22000+120770FM-12+002499999V0202601N005010075019N0100001N1+02761+02561099541ADDAA199000021GF105991051051008001001001MA1999999099271MD1810011+9999REMSYN066AAXX  29181 59559 32560 52605 10276 20256 39927 49954 58001 85500;
0144595590999992000082921004+22000+120770FM-12+002499999V0202601N004010075019N0100001N1+02741+02491099611ADDAA199000021GF106991061051008001001001MA1999999099341MD1110071+9999REMSYN066AAXX  29211 59559 32560 62604 10274 20249 39934 49961 51007 86500;
0163595590999992000083000004+22000+120770FM-12+002499999V0202701N005010900019N0100001N1+02891+02561099751ADDAA199000091GF107991031051008001001061MA1999999099481MD1310141+9999REMSYN066AAXX  30001 59559 32560 72705 10289 20256 39948 49975 53014 83506;EQDQ01  00002PRCP99
0163595590999992000083003004+22000+120770FM-12+002499999V0202701N004010075019N0150001N1+02951+02661099881ADDAA199000091GF107991061051008001001011MA1999999099611MD1110131+9999REMSYN066AAXX  30031 59559 32565 72704 10295 20266 39961 49988 51013 86501;EQDQ01  00002PRCP99
0163595590999992000083006004+22000+120770FM-12+002499999V0202501N004010075019N0150001N1+03071+02621099841ADDAA199000091GF106991061051008001001001MA1999999099571MD1810041+9999REMSYN066AAXX  30061 59559 32565 62504 10307 20262 39957 49984 58004 86500;EQDQ01  00002PRCP99
0163595590999992000083009004+22000+120770FM-12+002499999V0202301N004010075019N0150001N1+02981+02531099821ADDAA199000091GF107991071051008001999999MA1999999099551MD1510021+9999REMSYN066AAXX  30091 59559 32565 72304 10298 20253 39955 49982 55002 875//;EQDQ01  00002PRCP99
0163595590999992000083012004+22000+120770FM-12+002499999V0201801N003010075019N0150001N1+02811+02531100031ADDAA199000091GF106991061051008001001001MA1999999099761MD1210211+9999REMSYN066AAXX  30121 59559 32565 61803 10281 20253 39976 40003 52021 86500;EQDQ01  00002PRCP99
0163595590999992000083015004+22000+120770FM-12+002499999V0201201N001012200019N0150001N1+02741+02511100171ADDAA199000091GF104991041051008001001001MA1999999099901MD1010141+9999REMSYN066AAXX  30151 59559 32565 41201 10274 20251 39990 40017 50014 84500;EQDQ01  00002PRCP99
0163595590999992000083018004+22000+120770FM-12+002499999V0201701N003012200019N0150001N1+02821+02541100121ADDAA199000091GF104991041051008001001001MA1999999099851MD1810051+9999REMSYN066AAXX  30181 59559 32565 41703 10282 20254 39985 40012 58005 84500;EQDQ01  00002PRCP99
0178595590999992000083021004+22000+120770FM-12+002499999V0200801N002010075019N0120001N1+02561+02441100151ADDAA100005191AY181031AY221031GF107991071051008001999999MA1999999099871MD1010021+9999MW1251REMSYN078AAXX  30211 59559 11562 70802 10256 20244 39987 40015 50002 6005/ 72582 875//;
0178595590999992000083100004+22000+120770FM-12+002499999V0201601N003012200019N0150001N1+02971+02651100321ADDAA112005191AY181061AY221061GF103991021021008001031001MA1999999100051MD1210181+9999MW1011REMSYN078AAXX  31001 59559 11565 31603 10297 20265 30005 40032 52018 60052 70182 82230;
0144595590999992000083103004+22000+120770FM-12+002499999V0201801N004012200019N0150001N1+03051+02611100411ADDAA199000021GF104991041051008001001001MA1999999100141MD1010091+9999REMSYN066AAXX  31031 59559 32565 41804 10305 20261 30014 40041 50009 84500;
0144595590999992000083106004+22000+120770FM-12+002499999V0201601N004012200019N0150001N1+03111+02561100331ADDAA199000021GF104991021051008001011001MA1999999100061MD1810081+9999REMSYN066AAXX  31061 59559 32565 41604 10311 20256 30006 40033 58008 82510;
0178595590999992000083109004+22000+120770FM-12+002499999V0201501N003010042019N0100001N1+02581+02451100511ADDAA100004191AY161031AY221031GF108991081061004501999999MA1999999100231MD1310171+9999MW1211REMSYN078AAXX  31091 59559 11460 81503 10258 20245 30023 40051 53017 6004/ 72162 886//;
0178595590999992000083112004+22000+120770FM-12+002499999V0201201N002010075019N0150001N1+02661+02471100611ADDAA112005191AY161061AY221061GF106991061051008001001001MA1999999100331MD1310101+9999MW1021REMSYN078AAXX  31121 59559 11565 61202 10266 20247 30033 40061 53010 60052 70262 86500;
0144595590999992000083115004+22000+120770FM-12+002499999V0201201N002010075019N0150001N1+02701+02501100691ADDAA199000021GF106991061051008001001001MA1999999100411MD1110081+9999REMSYN066AAXX  31151 59559 32565 61202 10270 20250 30041 40069 51008 86500;
0144595590999992000083118004+22000+120770FM-12+002499999V0201401N002012200019N0150001N1+02741+02571100591ADDAA199000021GF104991041051008001001001MA1999999100321MD1710091+9999REMSYN066AAXX  31181 59559 32565 41402 10274 20257 30032 40059 57009 84500;
0144595590999992000083121004+22000+120770FM-12+002499999V0201701N003010075019N0120001N1+02791+02541100611ADDAA199000021GF107991071051008001999999MA1999999100341MD1310021+9999REMSYN066AAXX  31211 59559 32562 71703 10279 20254 30034 40061 53002 875//;
0163595590999992000090100004+22000+120770FM-12+002499999V0201401N003012200019N0150001N1+03001+02661100741ADDAA199000091GF103991031021008001001001MA1999999100471MD1110131+9999REMSYN066AAXX  01001 59559 32565 31403 10300 20266 30047 40074 51013 83200;EQDQ01  00002PRCP99
0163595590999992000090103004+22000+120770FM-12+002499999V0201501N004012200019N0200001N1+03181+02641100861ADDAA199000091GF103991031021008001001001MA1999999100591MD1110121+9999REMSYN066AAXX  01031 59559 32570 31504 10318 20264 30059 40086 51012 83200;EQDQ01  00002PRCP99
0178595590999992000090106004+22000+120770FM-12+002499999V0202801N001010075019N0180001N1+02921+02651100681ADDAA106005191AY161061AY221061GF106991061021008001001001MA1999999100411MD1810181+9999MW1211REMSYN078AAXX  01061 59559 11568 62801 10292 20265 30041 40068 58018 60051 72162 86200;
0150595590999992000090109004+22000+120770FM-12+002499999V0201501N003010075019N0180001N1+02901+02551100691ADDAA100005191GF106991051021008001001061MA1999999100421MD1310011+9999REMSYN072AAXX  01091 59559 12568 61503 10290 20255 30042 40069 53001 6005/ 85206;
0178595590999992000090112004+22000+120770FM-12+002499999V0201101N003010075019N0150001N1+02601+02521100761ADDAA112010991AY161061AY221061GF106991061021008001001001MA1999999100481MD1310061+9999MW1021REMSYN078AAXX  01121 59559 11565 61103 10260 20252 30048 40076 53006 60112 70262 86200;
0178595590999992000090115004+22000+120770FM-12+002499999V0201401N004010075019N0100001N1+02491+02421100901ADDAA100009991AY191031AY261031GF108991081071008001999999MA1999999100621MD1110141+9999MW1911REMSYN078AAXX  01151 59559 11560 81404 10249 20242 30062 40090 51014 6010/ 79196 887//;
0178595590999992000090118004+22000+120770FM-12+002499999V0201101N002012200019N0150001N1+02511+02371100701ADDAA106009991AY181061AY211061GF101991011051012501001001MA1999999100421MD1610201+9999MW1011REMSYN078AAXX  01181 59559 11665 11102 10251 20237 30042 40070 56020 60101 70181 81500;
0150595590999992000090121004+22000+120770FM-12+002499999V0200501N001012200019N0150001N1+02511+02371100681ADDAA100009991GF102991021021008001001011MA1999999100401MD1810021+9999REMSYN072AAXX  01211 59559 12565 20501 10251 20237 30040 40068 58002 6010/ 82201;
0150595590999992000090200004+22000+120770FM-12+002499999V0209999C000010360019N0150001N1+02771+02521100771ADDAA112009991GF107991021011008001021001MA1999999100501MD1210101+9999REMSYN072AAXX  02001 59559 12565 70000 10277 20252 30050 40077 52010 60102 82120;
0144595590999992000090203004+22000+120770FM-12+002499999V0202101N002010075019N0200001N1+02971+02571100741ADDAA199000021GF106991061051008001001011MA1999999100471MD1710031+9999REMSYN066AAXX  02031 59559 32570 62102 10297 20257 30047 40074 57003 86501;
0178595590999992000090206004+22000+120770FM-12+002499999V0202301N002010075019N0100001N1+02871+02601100591ADDAA106003091AY161061AY261061GF106991061051008001001011MA1999999100321MD1810151+9999MW1611REMSYN078AAXX  02061 59559 11560 62302 10287 20260 30032 40059 58015 60031 76166 86501;
0178595590999992000090209004+22000+120770FM-12+002499999V0203301N001010075019N0100001N1+02821+02571100601ADDAA100008991AY161031AY221031GF108991071051008001001011MA1999999100331MD1310011+9999MW1021REMSYN078AAXX  02091 59559 11560 83301 10282 20257 30033 40060 53001 6009/ 70262 87501;
0178595590999992000090212004+22000+120770FM-12+002499999V0200601N001010075019N0100001N1+02591+02461100731ADDAA112017091AY161061AY261061GF108991081051008001999999MA1999999100451MD1310121+9999MW1631REMSYN078AAXX  02121 59559 11560 80601 10259 20246 30045 40073 53012 60172 76366 885//;
0178595590999992000090215004+22000+120770FM-12+002499999V0200301N004010075019N0100001N1+02761+02461100711ADDAA100004191AY161031AY221031GF106991061051008001001001MA1999999100441MD1510011+9999MW1021REMSYN078AAXX  02151 59559 11560 60304 10276 20246 30044 40071 55001 6004/ 70262 86500;
0178595590999992000090218004+22000+120770FM-12+002499999V0201001N004010075019N0100001N1+02541+02431100661ADDAA106011991AY161061AY261061GF108991081051008001999999MA1999999100381MD1510061+9999MW1631REMSYN078AAXX  02181 59559 11560 81004 10254 20243 30038 40066 55006 60121 76366 885//;
0178595590999992000090221004+22000+120770FM-12+002499999V0201001N001010042019N0100001N1+02451+02361100661ADDAA100061091AY161031AY261031GF108991081071004501999999MA1999999100381MD1410001+9999MW1651REMSYN078AAXX  02211 59559 11460 81001 10245 20236 30038 40066 54000 6061/ 76566 887//;
0178595590999992000090300004+22000+120770FM-12+002499999V0200201N004010075019N0200001N1+02811+02481100751ADDAA112065091AY161061AY221061GF105991051051008001001011MA1999999100481MD1110101+9999MW1021REMSYN078AAXX  03001 59559 11570 50204 10281 20248 30048 40075 51010 60652 70262 85501;
0144595590999992000090303004+22000+120770FM-12+002499999V0200201N004012200019N0250001N1+03171+02461100711ADDAA199000021GF101991011011008001001001MA1999999100441MD1510041+9999REMSYN066AAXX  03031 59559 32575 10204 10317 20246 30044 40071 55004 81100;
0144595590999992000090306004+22000+120770FM-12+002499999V0200701N006012200019N0250001N1+03121+02521100621ADDAA199000021GF102991021011008001001001MA1999999100351MD1810091+9999REMSYN066AAXX  03061 59559 32575 20706 10312 20252 30035 40062 58009 82100;
0144595590999992000090309004+22000+120770FM-12+002499999V0200701N004012200019N0250001N1+02951+02491100571ADDAA199000021GF103991021011008001001061MA1999999100301MD1710051+9999REMSYN066AAXX  03091 59559 32575 30704 10295 20249 30030 40057 57005 82106;
0163595590999992000090312004+22000+120770FM-12+002499999V0200601N002012200019N0200001N1+02751+02431100721ADDAA199000091GF101991011011008001001001MA1999999100441MD1210141+9999REMSYN066AAXX  03121 59559 32570 10602 10275 20243 30044 40072 52014 81100;EQDQ01  00002PRCP99
0163595590999992000090315004+22000+120770FM-12+002499999V0201101N001012200019N0150001N1+02731+02421100771ADDAA199000091GF101991011011008001001001MA1999999100491MD1010051+9999REMSYN066AAXX  03151 59559 32565 11101 10273 20242 30049 40077 50005 81100;EQDQ01  00002PRCP99
0178595590999992000090321004+22000+120770FM-12+002499999V0200401N004012200019N0150001N1+02661+02341100611ADDAA100002091AY181031AY221031GF102991021021008001001001MA1999999100331MD1610081+9999MW1021REMSYN078AAXX  03211 59559 11565 20404 10266 20234 30033 40061 56008 6002/ 70282 82200;
0150595590999992000090400004+22000+120770FM-12+002499999V0200401N005012200019N0250001N1+02901+02401100671ADDAA112002091GF106991011021008001001061MA1999999100401MD1110071+9999REMSYN072AAXX  04001 59559 12575 60405 10290 20240 30040 40067 51007 60022 81206;
0163595590999992000090403004+22000+120770FM-12+002499999V0200301N003012200019N0250001N1+03171+02501100611ADDAA199000091GF104991041021008001001001MA1999999100341MD1810061+9999REMSYN066AAXX  04031 59559 32575 40303 10317 20250 30034 40061 58006 84200;EQDQ01  00002PRCP99
0163595590999992000090406004+22000+120770FM-12+002499999V0200701N003012200019N0250001N1+03071+02461100421ADDAA199000091GF102991021021008001001001MA1999999100151MD1710191+9999REMSYN066AAXX  04061 59559 32575 20703 10307 20246 30015 40042 57019 82200;EQDQ01  00002PRCP99
0163595590999992000090409004+22000+120770FM-12+002499999V0203401N003010075019N0200001N1+03031+02561100381ADDAA199000091GF105991051031008001001001MA1999999100111MD1510041+9999REMSYN066AAXX  04091 59559 32570 53403 10303 20256 30011 40038 55004 85300;EQDQ01  00002PRCP99
0163595590999992000090412004+22000+120770FM-12+002499999V0200701N002010150019N0150001N1+02721+02401100561ADDAA199000091GF105991051041017501001001MA1999999100291MD1210181+9999REMSYN066AAXX  04121 59559 32765 50702 10272 20240 30029 40056 52018 85400;EQDQ01  00002PRCP99
0163595590999992000090415004+22000+120770FM-12+002499999V0200601N002012200019N0150001N1+02541+02361100561ADDAA199000091GF101991011011008001001001MA1999999100281MD1810011+9999REMSYN066AAXX  04151 59559 32565 10602 10254 20236 30028 40056 58001 81100;EQDQ01  00002PRCP99
0173595590999992000090418004+22000+120770FM-12+002499999V0200801N001012200019N0150001N1+02421+02271100421ADDAA199000091GA1001+999999999GF100991001001999999001001MA1999999100141MD1810141+9999REMSYN060AAXX  04181 59559 32965 00801 10242 20227 30014 40042 58014;EQDQ01  00002PRCP99
0163595590999992000090421004+22000+120770FM-12+002499999V0200301N001012200019N0150001N1+02421+02271100341ADDAA199000091GF101991011011008001001001MA1999999100061MD1510081+9999REMSYN066AAXX  04211 59559 32565 10301 10242 20227 30006 40034 55008 81100;EQDQ01  00002PRCP99
0163595590999992000090500004+22000+120770FM-12+002499999V0209999C000010075019N0250001N1+02731+02391100461ADDAA199000091GF105991051021008001001001MA1999999100191MD1110131+9999REMSYN066AAXX  05001 59559 32575 50000 10273 20239 30019 40046 51013 85200;EQDQ01  00002PRCP99
0163595590999992000090503004+22000+120770FM-12+002499999V0202701N003010075019N0200001N1+03001+02471100421ADDAA199000091GF105991051021008001001001MA1999999100151MD1810041+9999REMSYN066AAXX  05031 59559 32570 52703 10300 20247 30015 40042 58004 85200;EQDQ01  00002PRCP99
0131595590999992000090512004+22000+120770FM-12+002499999V0200601N003019999999N9999999N1+02441+01891101771ADDAA199000091MA1999999101491MD1210151+9999REMSYN060AAXX  05121 59559 32/// /0603 10244 20189 30149 40177 52015;EQDQ01  00002PRCP99
0163595590999992000090515004+22000+120770FM-12+002499999V0200301N007012200019N0100001N1+02391+01881101741ADDAA199000091GF102991021021008001001001MA1999999101461MD1710031+9999REMSYN066AAXX  05151 59559 32560 20307 10239 20188 30146 40174 57003 82200;EQDQ01  00002PRCP99
0190595590999992000090518004+22000+120770FM-12+002499999V0209999C000012200019N0150001N1+02451+02301999999ADDAA199000091GA1001+999999999GF100991001001999999001001MD1610131+9999REMSYN060AAXX  05181 59559 32965 00000 10245 20230 30008 40036 56013;EQDQ01+100083APOSP Q02+100363APOSLPQ03  00002PRCP99
0163595590999992000090521004+22000+120770FM-12+002499999V0200201N006012200019N0100001N1+02281+01761101701ADDAA199000091GF102991021021008001001001MA1999999101421MD1010041+9999REMSYN066AAXX  05211 59559 32560 20206 10228 20176 30142 40170 50004 82200;EQDQ01  00002PRCP99
0163595590999992000090600004+22000+120770FM-12+002499999V0200201N004012200019N0200001N1+02391+01861101881ADDAA199000091GF102991021021008001001001MA1999999101601MD1110181+9999REMSYN066AAXX  06001 59559 32570 20204 10239 20186 30160 40188 51018 82200;EQDQ01  00002PRCP99
0163595590999992000090606004+22000+120770FM-12+002499999V0200301N008012200019N0200001N1+02401+01691101681ADDAA199000091GF103991031021008001001001MA1999999101401MD1710151+9999REMSYN066AAXX  06061 59559 32570 30308 10240 20169 30140 40168 57015 83200;EQDQ01  00002PRCP99
0163595590999992000090609004+22000+120770FM-12+002499999V0200401N012012200019N0150001N1+02161+01541101711ADDAA199000091GF102991021021008001001001MA1999999101431MD1310031+9999REMSYN066AAXX  06091 59559 32565 20412 10216 20154 30143 40171 53003 82200;EQDQ01  00002PRCP99
0163595590999992000090612004+22000+120770FM-12+002499999V0200301N009010075019N0150001N1+02031+01531101991ADDAA199000091GF105991051051008001001001MA1999999101701MD1210271+9999REMSYN066AAXX  06121 59559 32565 50309 10203 20153 30170 40199 52027 85500;EQDQ01  00002PRCP99
0163595590999992000090615004+22000+120770FM-12+002499999V0200301N013012200019N0200001N1+01911+01491102001ADDAA199000091GF102991021051008001001001MA1999999101711MD1010011+9999REMSYN066AAXX  06151 59559 32570 20313 10191 20149 30171 40200 50001 82500;EQDQ01  00002PRCP99
0173595590999992000090618004+22000+120770FM-12+002499999V0200301N012012200019N0200001N1+01901+01341101921ADDAA199000091GA1001+999999999GF100991001001999999001001MA1999999101631MD1810081+9999REMSYN060AAXX  06181 59559 32970 00312 10190 20134 30163 40192 58008;EQDQ01  00002PRCP99
0163595590999992000090621004+22000+120770FM-12+002499999V0200301N012012200019N0200001N1+01881+01271101941ADDAA199000091GF101991011051008001001001MA1999999101651MD1310021+9999REMSYN066AAXX  06211 59559 32570 10312 10188 20127 30165 40194 53002 81500;EQDQ01  00002PRCP99
0195595590999992000090700004+22000+120770FM-12+002499999V0200501N007010360019N0150001N1+02871+02281100582ADDAA199000091GF108991021011008001031061MA1999999100312MD1310131+9999REMSYN066AAXX  07001 59559 32565 80507 10287 20228 30031 40058 53013 82136;EQDQ01+100313APOSP Q02+100583APOSLPQ03  00002PRCP99
0163595590999992000090703004+22000+120770FM-12+002499999V0200401N007010360019N0200001N1+02971+02281100621ADDAA199000091GF106991021011008001011021MA1999999100351MD1310041+9999REMSYN066AAXX  07031 59559 32570 60407 10297 20228 30035 40062 53004 82112;EQDQ01  00002PRCP99
0163595590999992000090706004+22000+120770FM-12+002499999V0200701N008010360019N0150001N1+03011+02401100511ADDAA199000091GF105991031011008001011001MA1999999100241MD1810111+9999REMSYN066AAXX  07061 59559 32565 50708 10301 20240 30024 40051 58011 83110;EQDQ01  00002PRCP99
0163595590999992000090709004+22000+120770FM-12+002499999V0200501N005010120019N0100001N1+02811+02201100601ADDAA199000091GF108991081051012501999999MA1999999100331MD1110091+9999REMSYN066AAXX  07091 59559 32660 80505 10281 20220 30033 40060 51009 885//;EQDQ01  00002PRCP99
0163595590999992000090712004+22000+120770FM-12+002499999V0200401N010010120019N0100001N1+02761+02251100701ADDAA199000091GF108991081051012501999999MA1999999100431MD1110101+9999REMSYN066AAXX  07121 59559 32660 80410 10276 20225 30043 40070 51010 885//;EQDQ01  00002PRCP99
0163595590999992000090715004+22000+120770FM-12+002499999V0200301N005010075019N0100001N1+02751+02111100871ADDAA199000091GF108991081051008001999999MA1999999100591MD1110161+9999REMSYN066AAXX  07151 59559 32560 80305 10275 20211 30059 40087 51016 885//;EQDQ01  00002PRCP99
0163595590999992000090718004+22000+120770FM-12+002499999V0200301N004010075019N0100001N1+02701+02081100701ADDAA199000091GF106991061051008001001001MA1999999100421MD1810171+9999REMSYN066AAXX  07181 59559 32560 60304 10270 20208 30042 40070 58017 86500;EQDQ01  00002PRCP99
0163595590999992000090721004+22000+120770FM-12+002499999V0200601N004010075019N0150001N1+02701+02051100701ADDAA199000091GF107991071051008001001001MA1999999100421MD1410001+9999REMSYN066AAXX  07211 59559 32565 70604 10270 20205 30042 40070 54000 87500;EQDQ01  00002PRCP99
0163595590999992000090800004+22000+120770FM-12+002499999V0200101N003012200019N0100001N1+02891+02141100821ADDAA199000091GF102991021051012501001001MA1999999100551MD1110131+9999REMSYN066AAXX  08001 59559 32660 20103 10289 20214 30055 40082 51013 82500;EQDQ01  00002PRCP99
0163595590999992000090806004+22000+120770FM-12+002499999V0200301N004012200019N0100001N1+03081+02271100671ADDAA199000091GF102991021021008001001001MA1999999100401MD1810071+9999REMSYN066AAXX  08061 59559 32560 20304 10308 20227 30040 40067 58007 82200;EQDQ01  00002PRCP99
0163595590999992000090809004+22000+120770FM-12+002499999V0200301N004010075019N0060001N1+02851+02281100691ADDAA199000091GF108991081051008001999999MA1999999100421MD1310021+9999REMSYN066AAXX  08091 59559 32556 80304 10285 20228 30042 40069 53002 885//;EQDQ01  00002PRCP99
0163595590999992000090818004+22000+120770FM-12+002499999V0200501N002010075019N0100001N1+02501+02171100691ADDAA199000091GF106991061051008001001001MA1999999100411MD1710121+9999REMSYN066AAXX  08181 59559 32560 60502 10250 20217 30041 40069 57012 86500;EQDQ01  00002PRCP99
0163595590999992000090821004+22000+120770FM-12+002499999V0200901N001010075019N0100001N1+02461+02201100631ADDAA199000091GF107991071051008001001001MA1999999100351MD1610061+9999REMSYN066AAXX  08211 59559 32560 70901 10246 20220 30035 40063 56006 87500;EQDQ01  00002PRCP99
0163595590999992000090900004+22000+120770FM-12+002499999V0201101N001010075019N0100001N1+02781+02371100721ADDAA199000091GF106991061051008001001001MA1999999100451MD1110101+9999REMSYN066AAXX  09001 59559 32560 61101 10278 20237 30045 40072 51010 86500;EQDQ01  00002PRCP99
0163595590999992000090903004+22000+120770FM-12+002499999V0202301N003010075019N0100001N1+03101+02511100701ADDAA199000091GF106991061021008001001001MA1999999100431MD1810021+9999REMSYN066AAXX  09031 59559 32560 62303 10310 20251 30043 40070 58002 86200;EQDQ01  00002PRCP99
0163595590999992000090906004+22000+120770FM-12+002499999V0202801N009010075019N0110001N1+03081+02511100421ADDAA199000091GF106991061051008001001001MA1999999100151MD1810281+9999REMSYN066AAXX  09061 59559 32561 62809 10308 20251 30015 40042 58028 86500;EQDQ01  00002PRCP99
0163595590999992000090909004+22000+120770FM-12+002499999V0202901N003012200019N0120001N1+02941+02411100271ADDAA199000091GF103991021011008001001081MA1999999100001MD1610151+9999REMSYN066AAXX  09091 59559 32562 32903 10294 20241 30000 40027 56015 82108;EQDQ01  00002PRCP99
0163595590999992000090912004+22000+120770FM-12+002499999V0203301N007012200019N0120001N1+02711+02261100401ADDAA199000091GF104991021011008001001081MA1999999100131MD1310131+9999REMSYN066AAXX  09121 59559 32562 43307 10271 20226 30013 40040 53013 82108;EQDQ01  00002PRCP99
0163595590999992000090915004+22000+120770FM-12+002499999V0203401N002010075019N0100001N1+02531+02181100481ADDAA199000091GF106991061051008001001001MA1999999100201MD1010071+9999REMSYN066AAXX  09151 59559 32560 63402 10253 20218 30020 40048 50007 86500;EQDQ01  00002PRCP99
0163595590999992000090918004+22000+120770FM-12+002499999V0203501N005010075019N0120001N1+02451+02201100191ADDAA199000091GF107991071051008001999999MA1999999099911MD1810291+9999REMSYN066AAXX  09181 59559 32562 73505 10245 20220 39991 40019 58029 875//;EQDQ01  00002PRCP99
0163595590999992000090921004+22000+120770FM-12+002499999V0203501N003010075019N0120001N1+02441+02161100131ADDAA199000091GF106991061051008001001001MA1999999099851MD1510061+9999REMSYN066AAXX  09211 59559 32562 63503 10244 20216 39985 40013 55006 86500;EQDQ01  00002PRCP99
0163595590999992000091000004+22000+120770FM-12+002499999V0203501N004010075019N0120001N1+02531+02211100241ADDAA199000091GF108991081051008001999999MA1999999099961MD1210111+9999REMSYN066AAXX  10001 59559 32562 83504 10253 20221 39996 40024 52011 885//;EQDQ01  00002PRCP99
0163595590999992000091003004+22000+120770FM-12+002499999V0203001N001010075019N0120001N1+02651+02241100281ADDAA199000091GF108991081051008001999999MA1999999100011MD1010051+9999REMSYN066AAXX  10031 59559 32562 83001 10265 20224 30001 40028 50005 885//;EQDQ01  00002PRCP99
0178595590999992000091006004+22000+120770FM-12+002499999V0209999C000010042019N0100001N1+02551+02331100151ADDAA106001091AY161061AY221061GF108991081051004501999999MA1999999099871MD1510141+9999MW1211REMSYN078AAXX  10061 59559 11460 80000 10255 20233 39987 40015 55014 60011 72162 885//;
0178595590999992000091009004+22000+120770FM-12+002499999V0203501N001010075019N0120001N1+02661+02371100131ADDAA100003091AY161031AY221031GF108991081051008001999999MA1999999099861MD1510011+9999MW1021REMSYN078AAXX  10091 59559 11562 83501 10266 20237 39986 40013 55001 6003/ 70262 885//;
0178595590999992000091012004+22000+120770FM-12+002499999V0200101N008010075019N0150001N1+02681+02381100241ADDAA112003091AY161061AY221061GF108991081051008001999999MA1999999099971MD1310111+9999MW1211REMSYN078AAXX  10121 59559 11565 80108 10268 20238 39997 40024 53011 60032 72162 885//;
0144595590999992000091015004+22000+120770FM-12+002499999V0200201N003010075019N0150001N1+02701+02341100261ADDAA199000021GF106991061021008001001001MA1999999099991MD1010021+9999REMSYN066AAXX  10151 59559 32565 60203 10270 20234 39999 40026 50002 86200;
0144595590999992000091018004+22000+120770FM-12+002499999V0203501N004010075019N0150001N1+02651+02311100141ADDAA199000021GF105991051041008001001001MA1999999099871MD1810121+9999REMSYN066AAXX  10181 59559 32565 53504 10265 20231 39987 40014 58012 85400;
0144595590999992000091021004+22000+120770FM-12+002499999V0203601N002012200019N0150001N1+02551+02261100181ADDAA199000021GF103991031051008001001001MA1999999099901MD1010031+9999REMSYN066AAXX  10211 59559 32565 33602 10255 20226 39990 40018 50003 83500;
0144595590999992000091100004+22000+120770FM-12+002499999V0200201N006010075019N0200001N1+02781+02301100281ADDAA199000021GF105991051041008001001001MA1999999100011MD1110111+9999REMSYN066AAXX  11001 59559 32570 50206 10278 20230 30001 40028 51011 85400;
0163595590999992000091103004+22000+120770FM-12+002499999V0200401N003012200019N0200001N1+03181+02501100251ADDAA199000091GF103991031021008001001001MA1999999099981MD1810031+9999REMSYN066AAXX  11031 59559 32570 30403 10318 20250 39998 40025 58003 83200;EQDQ01  00002PRCP99
0163595590999992000091106004+22000+120770FM-12+002499999V0203101N002010075019N0100001N1+02831+02421100141ADDAA199000091GF108991081051008001999999MA1999999099871MD1710111+9999REMSYN066AAXX  11061 59559 32560 83102 10283 20242 39987 40014 57011 885//;EQDQ01  00002PRCP99
0163595590999992000091109004+22000+120770FM-12+002499999V0201001N002010075019N0100001N1+02721+02431100131ADDAA199000091GF108991081051008001999999MA1999999099861MD1510011+9999REMSYN066AAXX  11091 59559 32560 81002 10272 20243 39986 40013 55001 885//;EQDQ01  00002PRCP99
0163595590999992000091112004+22000+120770FM-12+002499999V0200901N003010075019N0100001N1+02631+02391100281ADDAA199000091GF108991081051008001999999MA1999999100011MD1210151+9999REMSYN066AAXX  11121 59559 32560 80903 10263 20239 30001 40028 52015 885//;EQDQ01  00002PRCP99
0163595590999992000091115004+22000+120770FM-12+002499999V0209999C000010075019N0100001N1+02621+02421100371ADDAA199000091GF108991081051008001999999MA1999999100091MD1210081+9999REMSYN066AAXX  11151 59559 32560 80000 10262 20242 30009 40037 52008 885//;EQDQ01  00002PRCP99
0163595590999992000091118004+22000+120770FM-12+002499999V0200801N006010075019N0100001N1+02551+02311100241ADDAA199000091GF108991081051008001999999MA1999999099961MD1810131+9999REMSYN066AAXX  11181 59559 32560 80806 10255 20231 39996 40024 58013 885//;EQDQ01  00002PRCP99
0163595590999992000091121004+22000+120770FM-12+002499999V0200601N002010075019N0100001N1+02511+02341100191ADDAA199000091GF108991081051008001999999MA1999999099911MD1510051+9999REMSYN066AAXX  11211 59559 32560 80602 10251 20234 39991 40019 55005 885//;EQDQ01  00002PRCP99
0191595590999992000091200004+22000+120770FM-12+002499999V0200101N001010042019N0060001N1+02731+02401100301ADDAA199000091AY121061AY221061GF106991061051004501001001MA1999999100031MD1210121+9999MW1101REMSYN072AAXX  12001 59559 31456 60101 10273 20240 30003 40030 52012 71022 86500;EQDQ01  00002PRCP99
0191595590999992000091203004+22000+120770FM-12+002499999V0203301N003010075019N0080001N1+02901+02361100311ADDAA199000091AY121031AY221031GF108991081051008001999999MA1999999100041MD1010011+9999MW1051REMSYN072AAXX  12031 59559 31558 83303 10290 20236 30004 40031 50001 70522 885//;EQDQ01  00002PRCP99
0163595590999992000091206004+22000+120770FM-12+002499999V0202901N004010075019N0100001N1+03111+02491100091ADDAA199000091GF106991061051008001001001MA1999999099821MD1710221+9999REMSYN066AAXX  12061 59559 32560 62904 10311 20249 39982 40009 57022 86500;EQDQ01  00002PRCP99
0163595590999992000091212004+22000+120770FM-12+002499999V0203401N012012200019N0100001N1+02741+02051100031ADDAA199000091GF102991021011008001001001MA1999999099761MD1110081+9999REMSYN066AAXX  12121 59559 32560 23412 10274 20205 39976 40003 51008 82100;EQDQ01  00002PRCP99
0178595590999992000091215004+22000+120770FM-12+002499999V0203601N002010900019N0150001N1+02471+01981100201ADDAA100002091AY161031AY221031GF105991031051008001001021MA1999999099921MD1110161+9999MW1021REMSYN078AAXX  12151 59559 11565 53602 10247 20198 39992 40020 51016 6002/ 70262 83502;
0178595590999992000091218004+22000+120770FM-12+002499999V0203601N004012200019N0150001N1+02361+01761100101ADDAA106002091AY161061AY221061GF102991011011008001001011MA1999999099821MD1710101+9999MW1011REMSYN078AAXX  12181 59559 11565 23604 10236 20176 39982 40010 57010 60021 70162 81101;
0160595590999992000091221004+22000+120770FM-12+002499999V0203401N005012200019N0200001N1+02421+01891099951ADDAA100002091GA1001+999999999GF100991001001999999001001MA1999999099671MD1610151+9999REMSYN066AAXX  12211 59559 12970 03405 10242 20189 39967 49995 56015 6002/;
0150595590999992000091300004+22000+120770FM-12+002499999V0203301N011012200019N0100001N1+02621+02031100041ADDAA112002091GF103991031021008001001001MA1999999099771MD1310101+9999REMSYN072AAXX  13001 59559 12560 33311 10262 20203 39977 40004 53010 60022 83200;
0163595590999992000091303004+22000+120770FM-12+002499999V0203301N005012200019N0100001N1+02931+02061100001ADDAA199000091GF101991011011008001001001MA1999999099731MD1510041+9999REMSYN066AAXX  13031 59559 32560 13305 10293 20206 39973 40000 55004 81100;EQDQ01  00002PRCP99
0163595590999992000091306004+22000+120770FM-12+002499999V0203001N008010120019N0100001N1+02911+02151099851ADDAA199000091GF105991051051012501001001MA1999999099581MD1710151+9999REMSYN066AAXX  13061 59559 32660 53008 10291 20215 39958 49985 57015 85500;EQDQ01  00002PRCP99
0173595590999992000091309004+22000+120770FM-12+002499999V0203001N003012200019N0100001N1+02781+02041099861ADDAA199000091GA1001+999999999GF100991001001999999001001MA1999999099591MD1310011+9999REMSYN060AAXX  13091 59559 32960 03003 10278 20204 39959 49986 53001;EQDQ01  00002PRCP99
0163595590999992000091312004+22000+120770FM-12+002499999V0203301N007012200019N0100001N1+02621+01981100031ADDAA199000091GF103991031051017501001001MA1999999099761MD1210171+9999REMSYN066AAXX  13121 59559 32760 33307 10262 20198 39976 40003 52017 83500;EQDQ01  00002PRCP99
0163595590999992000091315004+22000+120770FM-12+002499999V0203501N002012200019N0120001N1+02451+02031100071ADDAA199000091GF102991021051017501001001MA1999999099791MD1010031+9999REMSYN066AAXX  13151 59559 32762 23502 10245 20203 39979 40007 50003 82500;EQDQ01  00002PRCP99
0163595590999992000091318004+22000+120770FM-12+002499999V0203401N008012200019N0120001N1+02521+01901099971ADDAA199000091GF102991021051012501001001MA1999999099691MD1710101+9999REMSYN066AAXX  13181 59559 32662 23408 10252 20190 39969 49997 57010 82500;EQDQ01  00002PRCP99
0163595590999992000091321004+22000+120770FM-12+002499999V0203101N004012200019N0120001N1+02561+01901099861ADDAA199000091GF104991041051008001001001MA1999999099591MD1510101+9999REMSYN066AAXX  13211 59559 32562 43104 10256 20190 39959 49986 55010 84500;EQDQ01  00002PRCP99
0163595590999992000091400004+22000+120770FM-12+002499999V0203201N008010360019N0100001N1+02631+02021099931ADDAA199000091GF106991031051008001031061MA1999999099661MD1310071+9999REMSYN066AAXX  14001 59559 32560 63208 10263 20202 39966 49993 53007 83536;EQDQ01  00002PRCP99
0163595590999992000091403004+22000+120770FM-12+002499999V0202801N006012200019N0100001N1+02931+02151099921ADDAA199000091GF106991011051008001001061MA1999999099651MD1510011+9999REMSYN066AAXX  14031 59559 32560 62806 10293 20215 39965 49992 55001 81506;EQDQ01  00002PRCP99
0163595590999992000091406004+22000+120770FM-12+002499999V0202801N011012200019N0120001N1+02991+02201099821ADDAA199000091GF104991011051008001031001MA1999999099551MD1710101+9999REMSYN066AAXX  14061 59559 32562 42811 10299 20220 39955 49982 57010 81530;EQDQ01  00002PRCP99
0163595590999992000091409004+22000+120770FM-12+002499999V0202901N005012200019N0120001N1+02761+02061099831ADDAA199000091GF104991011051008001031001MA1999999099561MD1310011+9999REMSYN066AAXX  14091 59559 32562 42905 10276 20206 39956 49983 53001 81530;EQDQ01  00002PRCP99
0163595590999992000091412004+22000+120770FM-12+002499999V0202901N006012200019N0120001N1+02681+02031100031ADDAA199000091GF102991011051008001031001MA1999999099761MD1210201+9999REMSYN066AAXX  14121 59559 32562 22906 10268 20203 39976 40003 52020 81530;EQDQ01  00002PRCP99
0163595590999992000091415004+22000+120770FM-12+002499999V0202901N003012200019N0120001N1+02661+01981100151ADDAA199000091GF102991021051012501001001MA1999999099881MD1010121+9999REMSYN066AAXX  14151 59559 32662 22903 10266 20198 39988 40015 50012 82500;EQDQ01  00002PRCP99
0191595590999992000091418004+22000+120770FM-12+002499999V0202901N007010075019N0120001N1+02661+01991100051ADDAA199000091AY121061AY221061GF106991061051008001001001MA1999999099781MD1610101+9999MW1081REMSYN072AAXX  14181 59559 31562 62907 10266 20199 39978 40005 56010 70822 86500;EQDQ01  00002PRCP99
0163595590999992000091421004+22000+120770FM-12+002499999V0203201N003010075019N0120001N1+02491+02141100031ADDAA199000091GF106991061051008001001001MA1999999099751MD1510031+9999REMSYN066AAXX  14211 59559 32562 63203 10249 20214 39975 40003 55003 86500;EQDQ01  00002PRCP99
0163595590999992000091500004+22000+120770FM-12+002499999V0203201N005012200019N0100001N1+02741+02271100251ADDAA199000091GF102991011051008001001021MA1999999099981MD1210231+9999REMSYN066AAXX  15001 59559 32560 23205 10274 20227 39998 40025 52023 81502;EQDQ01  00002PRCP99
0163595590999992000091503004+22000+120770FM-12+002499999V0203101N003012200019N0100001N1+02991+02211100311ADDAA199000091GF102991011051008001001011MA1999999100041MD1210061+9999REMSYN066AAXX  15031 59559 32560 23103 10299 20221 30004 40031 52006 81501;EQDQ01  00002PRCP99
0163595590999992000091506004+22000+120770FM-12+002499999V0202701N010012200019N0100001N1+03051+02301100231ADDAA199000091GF102991021011008001001001MA1999999099961MD1810081+9999REMSYN066AAXX  15061 59559 32560 22710 10305 20230 39996 40023 58008 82100;EQDQ01  00002PRCP99
0163595590999992000091509004+22000+120770FM-12+002499999V0202801N003012200019N0100001N1+02771+02131100301ADDAA199000091GF102991021001999999031001MA1999999100031MD1310071+9999REMSYN066AAXX  15091 59559 32960 22803 10277 20213 30003 40030 53007 82030;EQDQ01  00002PRCP99
0163595590999992000091512004+22000+120770FM-12+002499999V0202901N002012200019N0100001N1+02661+02061100511ADDAA199000091GF102991021041017501001001MA1999999100231MD1310201+9999REMSYN066AAXX  15121 59559 32760 22902 10266 20206 30023 40051 53020 82400;EQDQ01  00002PRCP99
0163595590999992000091515004+22000+120770FM-12+002499999V0203601N001012200019N0100001N1+02631+02091100661ADDAA199000091GF104991041051012501001001MA1999999100381MD1110151+9999REMSYN066AAXX  15151 59559 32660 43601 10263 20209 30038 40066 51015 84500;EQDQ01  00002PRCP99
0178595590999992000091518004+22000+120770FM-12+002499999V0200701N005010075019N0100001N1+02341+02111100641ADDAA106000791AY161061AY211061GF108991081071008001999999MA1999999100361MD1510021+9999MW1611REMSYN078AAXX  15181 59559 11560 80705 10234 20211 30036 40064 55002 69901 76161 887//;
0178595590999992000091521004+22000+120770FM-12+002499999V0200801N003010120019N0100001N1+02331+02121100691ADDAA100001091AY161031AY221031GF108991081051012501999999MA1999999100411MD1310051+9999MW1021REMSYN078AAXX  15211 59559 11660 80803 10233 20212 30041 40069 53005 6001/ 70262 885//;
0178595590999992000091600004+22000+120770FM-12+002499999V0209999C000012200019N0100001N1+02681+02191100881ADDAA112001091AY161061AY211061GF103991031041012501001001MA1999999100601MD1110191+9999MW1021REMSYN078AAXX  16001 59559 11660 30000 10268 20219 30060 40088 51019 60012 70261 83400;
0144595590999992000091603004+22000+120770FM-12+002499999V0201001N002010075019N0100001N1+02761+02181100971ADDAA199000021GF108991081041008001999999MA1999999100691MD1010091+9999REMSYN066AAXX  16031 59559 32560 81002 10276 20218 30069 40097 50009 884//;
0144595590999992000091606004+22000+120770FM-12+002499999V0200301N005012200019N0150001N1+03041+02171100811ADDAA199000021GF103991021051012501001011MA1999999100541MD1710151+9999REMSYN066AAXX  16061 59559 32665 30305 10304 20217 30054 40081 57015 82501;
0163595590999992000091609004+22000+120770FM-12+002499999V0200901N003012200019N0150001N1+02741+02131100851ADDAA199000091GF104991041011008001001001MA1999999100571MD1310031+9999REMSYN066AAXX  16091 59559 32565 40903 10274 20213 30057 40085 53003 84100;EQDQ01  00002PRCP99
0163595590999992000091612004+22000+120770FM-12+002499999V0201001N001012200019N0100001N1+02531+02101101041ADDAA199000091GF104991041051012501001001MA1999999100761MD1310191+9999REMSYN066AAXX  16121 59559 32660 41001 10253 20210 30076 40104 53019 84500;EQDQ01  00002PRCP99
0163595590999992000091615004+22000+120770FM-12+002499999V0200501N001012200019N0100001N1+02471+02011101111ADDAA199000091GF102991021051012501001001MA1999999100831MD1010071+9999REMSYN066AAXX  16151 59559 32660 20501 10247 20201 30083 40111 50007 82500;EQDQ01  00002PRCP99
0163595590999992000091618004+22000+120770FM-12+002499999V0200601N004012200019N0100001N1+02431+01981101031ADDAA199000091GF101991011051012501001001MA1999999100751MD1810081+9999REMSYN066AAXX  16181 59559 32660 10604 10243 20198 30075 40103 58008 81500;EQDQ01  00002PRCP99
0163595590999992000091621004+22000+120770FM-12+002499999V0200401N002012200019N0100001N1+02471+02071101061ADDAA199000091GF104991041051012501001001MA1999999100781MD1310031+9999REMSYN066AAXX  16211 59559 32660 40402 10247 20207 30078 40106 53003 84500;EQDQ01  00002PRCP99
0163595590999992000091700004+22000+120770FM-12+002499999V0203601N004010120019N0100001N1+02651+02111101191ADDAA199000091GF107991071051012501999999MA1999999100911MD1310131+9999REMSYN066AAXX  17001 59559 32660 73604 10265 20211 30091 40119 53013 875//;EQDQ01  00002PRCP99
0191595590999992000091703004+22000+120770FM-12+002499999V0200101N003010120019N0080001N1+02701+02111101221ADDAA199000091AY121031AY221031GF107991071051012501999999MA1999999100941MD1010031+9999MW1051REMSYN072AAXX  17031 59559 31658 70103 10270 20211 30094 40122 50003 70522 875//;EQDQ01  00002PRCP99
0163595590999992000091706004+22000+120770FM-12+002499999V0202901N002010075019N0060001N1+02831+02341101051ADDAA199000091GF106991061051008001001001MA1999999100771MD1710171+9999REMSYN066AAXX  17061 59559 32556 62902 10283 20234 30077 40105 57017 86500;EQDQ01  00002PRCP99
0191595590999992000091709004+22000+120770FM-12+002499999V0200701N002010075019N0080001N1+02651+02091101031ADDAA199000091AY121031AY221031GF108991081051008001999999MA1999999100751MD1510021+9999MW1051REMSYN072AAXX  17091 59559 31558 80702 10265 20209 30075 40103 55002 70522 885//;EQDQ01  00002PRCP99
0191595590999992000091712004+22000+120770FM-12+002499999V0200401N009010075019N0060001N1+02601+01861101141ADDAA199000091AY121061AY221061GF105991051051008001001001MA1999999100861MD1210111+9999MW1051REMSYN072AAXX  17121 59559 31556 50409 10260 20186 30086 40114 52011 70522 85500;EQDQ01  00002PRCP99
0163595590999992000091715004+22000+120770FM-12+002499999V0200301N005010075019N0100001N1+02591+01841101131ADDAA199000091GF107991071051008001001001MA1999999100851MD1810011+9999REMSYN066AAXX  17151 59559 32560 70305 10259 20184 30085 40113 58001 87500;EQDQ01  00002PRCP99
0163595590999992000091718004+22000+120770FM-12+002499999V0200501N007012200019N0100001N1+02521+01861101101ADDAA199000091GF102991021051012501001001MA1999999100821MD1810031+9999REMSYN066AAXX  17181 59559 32660 20507 10252 20186 30082 40110 58003 82500;EQDQ01  00002PRCP99
0163595590999992000091721004+22000+120770FM-12+002499999V0200601N002012200019N0120001N1+02411+01871101141ADDAA199000091GF101991011011008001001001MA1999999100861MD1310041+9999REMSYN066AAXX  17211 59559 32562 10602 10241 20187 30086 40114 53004 81100;EQDQ01  00002PRCP99
0163595590999992000091800004+22000+120770FM-12+002499999V0200401N006012200019N0120001N1+02771+02081101221ADDAA199000091GF102991021051012501001001MA1999999100941MD1210081+9999REMSYN066AAXX  18001 59559 32662 20406 10277 20208 30094 40122 52008 82500;EQDQ01  00002PRCP99
0163595590999992000091803004+22000+120770FM-12+002499999V0200701N007012200019N0120001N1+02891+02111101221ADDAA199000091GF101991011051008001001001MA1999999100941MD1410001+9999REMSYN066AAXX  18031 59559 32562 10707 10289 20211 30094 40122 54000 81500;EQDQ01  00002PRCP99
0163595590999992000091806004+22000+120770FM-12+002499999V0200501N007012200019N0120001N1+03001+02221101071ADDAA199000091GF101991011041008001001001MA1999999100801MD1810141+9999REMSYN066AAXX  18061 59559 32562 10507 10300 20222 30080 40107 58014 81400;EQDQ01  00002PRCP99
0163595590999992000091809004+22000+120770FM-12+002499999V0200601N004010360019N0120001N1+02711+02021101131ADDAA199000091GF106991021041008001031001MA1999999100851MD1310051+9999REMSYN066AAXX  18091 59559 32562 60604 10271 20202 30085 40113 53005 82430;EQDQ01  00002PRCP99
0163595590999992000091812004+22000+120770FM-12+002499999V0200401N011012200019N0100001N1+02591+02011101261ADDAA199000091GF103991031051008001001001MA1999999100981MD1210131+9999REMSYN066AAXX  18121 59559 32560 30411 10259 20201 30098 40126 52013 83500;EQDQ01  00002PRCP99
0163595590999992000091815004+22000+120770FM-12+002499999V0200501N008012200019N0100001N1+02571+01901101281ADDAA199000091GF101991011051008001001001MA1999999101001MD1010021+9999REMSYN066AAXX  18151 59559 32560 10508 10257 20190 30100 40128 50002 81500;EQDQ01  00002PRCP99
0163595590999992000091818004+22000+120770FM-12+002499999V0200601N010012200019N0150001N1+02531+01951101181ADDAA199000091GF101991011051008001001001MA1999999100901MD1710101+9999REMSYN066AAXX  18181 59559 32565 10610 10253 20195 30090 40118 57010 81500;EQDQ01  00002PRCP99
0163595590999992000091821004+22000+120770FM-12+002499999V0200601N002010360019N0150001N1+02511+01941101231ADDAA199000091GF106991011051008001031001MA1999999100951MD1210051+9999REMSYN066AAXX  18211 59559 32565 60602 10251 20194 30095 40123 52005 81530;EQDQ01  00002PRCP99
0163595590999992000091900004+22000+120770FM-12+002499999V0200401N009012200019N0100001N1+02741+02091101341ADDAA199000091GF102991021001999999031001MA1999999101061MD1310111+9999REMSYN066AAXX  19001 59559 32960 20409 10274 20209 30106 40134 53011 82030;EQDQ01  00002PRCP99
0163595590999992000091903004+22000+120770FM-12+002499999V0200501N005012200019N0100001N1+02931+02221101351ADDAA199000091GF102991021041008001001001MA1999999101071MD1010011+9999REMSYN066AAXX  19031 59559 32560 20505 10293 20222 30107 40135 50001 82400;EQDQ01  00002PRCP99
0163595590999992000091906004+22000+120770FM-12+002499999V0200601N010012200019N0100001N1+02951+02181101191ADDAA199000091GF101991011041008001001001MA1999999100921MD1610151+9999REMSYN066AAXX  19061 59559 32560 10610 10295 20218 30092 40119 56015 81400;EQDQ01  00002PRCP99
0163595590999992000091909004+22000+120770FM-12+002499999V0200501N005019999999N0150001N1+02691+01991101221ADDAA199000091GF106991031001999999011011MA1999999100941MD1310021+9999REMSYN066AAXX  19091 59559 32965 60505 10269 20199 30094 40122 53002 83011;EQDQ01  00002PRCP99
0163595590999992000091912004+22000+120770FM-12+002499999V0200501N011010360019N0150001N1+02651+01971101361ADDAA199000091GF105991021051008001011001MA1999999101081MD1310141+9999REMSYN066AAXX  19121 59559 32565 50511 10265 20197 30108 40136 53014 82510;EQDQ01  00002PRCP99
0163595590999992000091915004+22000+120770FM-12+002499999V0200401N008010360019N0150001N1+02631+02031101351ADDAA199000091GF106991021051008001011011MA1999999101071MD1810011+9999REMSYN066AAXX  19151 59559 32565 60408 10263 20203 30107 40135 58001 82511;EQDQ01  00002PRCP99
0163595590999992000091918004+22000+120770FM-12+002499999V0200401N010010360019N0150001N1+02631+01941101281ADDAA199000091GF106991041051008001011001MA1999999101001MD1510071+9999REMSYN066AAXX  19181 59559 32565 60410 10263 20194 30100 40128 55007 84510;EQDQ01  00002PRCP99
0163595590999992000091921004+22000+120770FM-12+002499999V0200301N005012200019N0200001N1+02581+01971101351ADDAA199000091GF104991021051008001001011MA1999999101071MD1010071+9999REMSYN066AAXX  19211 59559 32570 40305 10258 20197 30107 40135 50007 82501;EQDQ01  00002PRCP99
0163595590999992000092000004+22000+120770FM-12+002499999V0200201N008012200019N0200001N1+02801+02121101431ADDAA199000091GF101991011011008001001001MA1999999101151MD1310081+9999REMSYN066AAXX  20001 59559 32570 10208 10280 20212 30115 40143 53008 81100;EQDQ01  00002PRCP99
0163595590999992000092003004+22000+120770FM-12+002499999V0200201N004012200019N0200001N1+03031+02271101351ADDAA199000091GF102991021021008001001001MA1999999101081MD1810071+9999REMSYN066AAXX  20031 59559 32570 20204 10303 20227 30108 40135 58007 82200;EQDQ01  00002PRCP99
0163595590999992000092006004+22000+120770FM-12+002499999V0200701N009012200019N0200001N1+03071+02291101281ADDAA199000091GF104991031021008001011001MA1999999101011MD1810071+9999REMSYN066AAXX  20061 59559 32570 40709 10307 20229 30101 40128 58007 83210;EQDQ01  00002PRCP99
0163595590999992000092009004+22000+120770FM-12+002499999V0200601N003010360019N0150001N1+02811+02231101281ADDAA199000091GF105991031021008001011001MA1999999101001MD1510011+9999REMSYN066AAXX  20091 59559 32565 50603 10281 20223 30100 40128 55001 83210;EQDQ01  00002PRCP99
0163595590999992000092012004+22000+120770FM-12+002499999V0200401N008010360019N0150001N1+02731+02181101491ADDAA199000091GF106991041021008001011001MA1999999101211MD1310211+9999REMSYN066AAXX  20121 59559 32565 60408 10273 20218 30121 40149 53021 84210;EQDQ01  00002PRCP99
0163595590999992000092015004+22000+120770FM-12+002499999V0200501N004012200019N0150001N1+02681+02141101431ADDAA199000091GF103991031051008001001001MA1999999101151MD1710061+9999REMSYN066AAXX  20151 59559 32565 30504 10268 20214 30115 40143 57006 83500;EQDQ01  00002PRCP99
0163595590999992000092018004+22000+120770FM-12+002499999V0200401N012012200019N0150001N1+02651+02171101321ADDAA199000091GF102991021051008001001001MA1999999101041MD1810111+9999REMSYN066AAXX  20181 59559 32565 20412 10265 20217 30104 40132 58011 82500;EQDQ01  00002PRCP99
0163595590999992000092021004+22000+120770FM-12+002499999V0200301N005012200019N0200001N1+02651+02121101361ADDAA199000091GF101991011031008001001001MA1999999101081MD1210041+9999REMSYN066AAXX  20211 59559 32570 10305 10265 20212 30108 40136 52004 81300;EQDQ01  00002PRCP99
0163595590999992000092100004+22000+120770FM-12+002499999V0200301N013012200019N0200001N1+02821+02211101481ADDAA199000091GF101991011011008001001001MA1999999101201MD1110121+9999REMSYN066AAXX  21001 59559 32570 10313 10282 20221 30120 40148 51012 81100;EQDQ01  00002PRCP99
0163595590999992000092103004+22000+120770FM-12+002499999V0200701N005012200019N0250001N1+03081+02361101521ADDAA199000091GF101991011011008001001001MA1999999101251MD1010051+9999REMSYN066AAXX  21031 59559 32575 10705 10308 20236 30125 40152 50005 81100;EQDQ01  00002PRCP99
0163595590999992000092106004+22000+120770FM-12+002499999V0200701N008012200019N0200001N1+03161+02431101401ADDAA199000091GF103991031021008001001001MA1999999101131MD1810121+9999REMSYN066AAXX  21061 59559 32570 30708 10316 20243 30113 40140 58012 83200;EQDQ01  00002PRCP99
0163595590999992000092109004+22000+120770FM-12+002499999V0200401N002010900019N0200001N1+02901+02321101451ADDAA199000091GF105991021011008001031021MA1999999101171MD1310041+9999REMSYN066AAXX  21091 59559 32570 50402 10290 20232 30117 40145 53004 82132;EQDQ01  00002PRCP99
0163595590999992000092112004+22000+120770FM-12+002499999V0200201N005012200019N0200001N1+02731+02331101581ADDAA199000091GF102991021011008001001011MA1999999101301MD1110131+9999REMSYN066AAXX  21121 59559 32570 20205 10273 20233 30130 40158 51013 82101;EQDQ01  00002PRCP99
0163595590999992000092115004+22000+120770FM-12+002499999V0200501N001012200019N0200001N1+02691+02291101581ADDAA199000091GF102991021011008001001001MA1999999101301MD1410001+9999REMSYN066AAXX  21151 59559 32570 20501 10269 20229 30130 40158 54000 82100;EQDQ01  00002PRCP99
0163595590999992000092118004+22000+120770FM-12+002499999V0209999C000012200019N0200001N1+02651+02291101421ADDAA199000091GF102991021011008001001001MA1999999101141MD1810161+9999REMSYN066AAXX  21181 59559 32570 20000 10265 20229 30114 40142 58016 82100;EQDQ01  00002PRCP99
0163595590999992000092121004+22000+120770FM-12+002499999V0200501N002012200019N0200001N1+02641+02241101361ADDAA199000091GF104991021011008001031001MA1999999101081MD1510061+9999REMSYN066AAXX  21211 59559 32570 40502 10264 20224 30108 40136 55006 82130;EQDQ01  00002PRCP99
0163595590999992000092200004+22000+120770FM-12+002499999V0200301N006012200019N0250001N1+02911+02281101531ADDAA199000091GF102991021011008001001001MA1999999101251MD1110171+9999REMSYN066AAXX  22001 59559 32575 20306 10291 20228 30125 40153 51017 82100;EQDQ01  00002PRCP99
0163595590999992000092203004+22000+120770FM-12+002499999V0200901N004010360019N0200001N1+03111+02431101531ADDAA199000091GF108991041021008001051001MA1999999101261MD1010011+9999REMSYN066AAXX  22031 59559 32570 80904 10311 20243 30126 40153 50001 84250;EQDQ01  00002PRCP99
0163595590999992000092206004+22000+120770FM-12+002499999V0201001N008010360019N0250001N1+03121+02411101341ADDAA199000091GF107991021021008001031001MA1999999101071MD1710191+9999REMSYN066AAXX  22061 59559 32575 71008 10312 20241 30107 40134 57019 82230;EQDQ01  00002PRCP99
0163595590999992000092209004+22000+120770FM-12+002499999V0200601N003012200019N0250001N1+02931+02261101271ADDAA199000091GF101991011021008001001001MA1999999101001MD1610071+9999REMSYN066AAXX  22091 59559 32575 10603 10293 20226 30100 40127 56007 81200;EQDQ01  00002PRCP99
0163595590999992000092212004+22000+120770FM-12+002499999V0200201N002012200019N0150001N1+02681+02271101461ADDAA199000091GF101991011021008001001001MA1999999101181MD1110181+9999REMSYN066AAXX  22121 59559 32565 10202 10268 20227 30118 40146 51018 81200;EQDQ01  00002PRCP99
0163595590999992000092215004+22000+120770FM-12+002499999V0202301N002012200019N0150001N1+02641+02291101471ADDAA199000091GF101991011021008001001001MA1999999101191MD1010011+9999REMSYN066AAXX  22151 59559 32565 12302 10264 20229 30119 40147 50001 81200;EQDQ01  00002PRCP99
0163595590999992000092218004+22000+120770FM-12+002499999V0200601N001012200019N0150001N1+02491+02231101341ADDAA199000091GF102991021021008001001001MA1999999101061MD1710131+9999REMSYN066AAXX  22181 59559 32565 20601 10249 20223 30106 40134 57013 82200;EQDQ01  00002PRCP99
0163595590999992000092221004+22000+120770FM-12+002499999V0209999C000010075019N0150001N1+02501+02221101291ADDAA199000091GF106991061021008001001001MA1999999101011MD1510051+9999REMSYN066AAXX  22211 59559 32565 60000 10250 20222 30101 40129 55005 86200;EQDQ01  00002PRCP99
0163595590999992000092300004+22000+120770FM-12+002499999V0203501N001012200019N0250001N1+02871+02341101411ADDAA199000091GF101991011011008001001001MA1999999101131MD1210121+9999REMSYN066AAXX  23001 59559 32575 13501 10287 20234 30113 40141 52012 81100;EQDQ01  00002PRCP99
0163595590999992000092303004+22000+120770FM-12+002499999V0203601N003010075019N0250001N1+03041+02401101401ADDAA199000091GF106991061021008001001001MA1999999101131MD1410001+9999REMSYN066AAXX  23031 59559 32575 63603 10304 20240 30113 40140 54000 86200;EQDQ01  00002PRCP99
0163595590999992000092306004+22000+120770FM-12+002499999V0200501N005010075019N0250001N1+03071+02201101171ADDAA199000091GF105991051021008001001001MA1999999100901MD1810231+9999REMSYN066AAXX  23061 59559 32575 50505 10307 20220 30090 40117 58023 85200;EQDQ01  00002PRCP99
0163595590999992000092309004+22000+120770FM-12+002499999V0200501N003012200019N0200001N1+02841+02231101161ADDAA199000091GF104991041021008001001001MA1999999100881MD1510021+9999REMSYN066AAXX  23091 59559 32570 40503 10284 20223 30088 40116 55002 84200;EQDQ01  00002PRCP99
0163595590999992000092312004+22000+120770FM-12+002499999V0201201N002012200019N0150001N1+02641+02261101341ADDAA199000091GF102991021011008001001001MA1999999101061MD1310181+9999REMSYN066AAXX  23121 59559 32565 21202 10264 20226 30106 40134 53018 82100;EQDQ01  00002PRCP99
0150595590999992000092315004+22000+120770FM-12+002499999V0200301N002010075019N0120001N1+02491+02251101391ADDAA100004191GF107991071041008001001001MA1999999101111MD1010051+9999REMSYN072AAXX  23151 59559 12562 70302 10249 20225 30111 40139 50005 6004/ 87400;
0150595590999992000092318004+22000+120770FM-12+002499999V0200901N005010075019N0120001N1+02511+02191101201ADDAA106004191GF107991071041008001001001MA1999999100921MD1810191+9999REMSYN072AAXX  23181 59559 12562 70905 10251 20219 30092 40120 58019 60041 87400;
0150595590999992000092321004+22000+120770FM-12+002499999V0200601N001012200019N0150001N1+02481+02151101141ADDAA100004191GF102991021051008001001001MA1999999100861MD1510061+9999REMSYN072AAXX  23211 59559 12565 20601 10248 20215 30086 40114 55006 6004/ 82500;
0163595590999992000092403004+22000+120770FM-12+002499999V0200701N004012200019N0150001N1+03041+02331101241ADDAA199000091GF103991031021008001001001MA1999999100971MD1410001+9999REMSYN066AAXX  24031 59559 32565 30704 10304 20233 30097 40124 54000 83200;EQDQ01  00002PRCP99
0163595590999992000092406004+22000+120770FM-12+002499999V0200801N010010075019N0100001N1+02881+02281101051ADDAA199000091GF105991051021008001001001MA1999999100781MD1810191+9999REMSYN066AAXX  24061 59559 32560 50810 10288 20228 30078 40105 58019 85200;EQDQ01  00002PRCP99
0163595590999992000092409004+22000+120770FM-12+002499999V0200701N003012200019N0100001N1+02741+02221101051ADDAA199000091GF103991021021008001001011MA1999999100771MD1510011+9999REMSYN066AAXX  24091 59559 32560 30703 10274 20222 30077 40105 55001 82201;EQDQ01  00002PRCP99
0163595590999992000092412004+22000+120770FM-12+002499999V0201001N001012200019N0100001N1+02501+02191101221ADDAA199000091GF102991021011008001001001MA1999999100941MD1310171+9999REMSYN066AAXX  24121 59559 32560 21001 10250 20219 30094 40122 53017 82100;EQDQ01  00002PRCP99
0163595590999992000092415004+22000+120770FM-12+002499999V0201001N001012200019N0100001N1+02551+02181101231ADDAA199000091GF102991021011008001001001MA1999999100951MD1010011+9999REMSYN066AAXX  24151 59559 32560 21001 10255 20218 30095 40123 50001 82100;EQDQ01  00002PRCP99
0163595590999992000092421004+22000+120770FM-12+002499999V0200401N001012200019N0100001N1+02791+02311101281ADDAA199000091GF102991021011008001001001MA1999999101001MD1210171+9999REMSYN066AAXX  24211 59559 32560 20401 10279 20231 30100 40128 52017 82100;EQDQ01  00002PRCP99
0163595590999992000092503004+22000+120770FM-12+002499999V0200901N004012200019N0150001N1+02981+02321101271ADDAA199000091GF104991041021008001001001MA1999999101001MD1410001+9999REMSYN066AAXX  25031 59559 32565 40904 10298 20232 30100 40127 54000 84200;EQDQ01  00002PRCP99
0163595590999992000092506004+22000+120770FM-12+002499999V0200701N008010075019N0150001N1+02861+02221101041ADDAA199000091GF105991051031008001001001MA1999999100771MD1710231+9999REMSYN066AAXX  25061 59559 32565 50708 10286 20222 30077 40104 57023 85300;EQDQ01  00002PRCP99
0163595590999992000092509004+22000+120770FM-12+002499999V0200901N003010075019N0150001N1+02761+02141101061ADDAA199000091GF105991051041008001001001MA1999999100781MD1310011+9999REMSYN066AAXX  25091 59559 32565 50903 10276 20214 30078 40106 53001 85400;EQDQ01  00002PRCP99
0163595590999992000092512004+22000+120770FM-12+002499999V0200301N006012200019N0100001N1+02571+02051101231ADDAA199000091GF103991031041008001001001MA1999999100951MD1210171+9999REMSYN066AAXX  25121 59559 32560 30306 10257 20205 30095 40123 52017 83400;EQDQ01  00002PRCP99
0163595590999992000092515004+22000+120770FM-12+002499999V0200901N002012200019N0100001N1+02491+02091101291ADDAA199000091GF102991021051008001001001MA1999999101011MD1010061+9999REMSYN066AAXX  25151 59559 32560 20902 10249 20209 30101 40129 50006 82500;EQDQ01  00002PRCP99
0163595590999992000092518004+22000+120770FM-12+002499999V0200901N002012200019N0100001N1+02571+02071101211ADDAA199000091GF102991021051008001001001MA1999999100931MD1810081+9999REMSYN066AAXX  25181 59559 32560 20902 10257 20207 30093 40121 58008 82500;EQDQ01  00002PRCP99
0163595590999992000092521004+22000+120770FM-12+002499999V0200701N003012200019N0100001N1+02441+02041101201ADDAA199000091GF102991021051008001001001MA1999999100921MD1510011+9999REMSYN066AAXX  25211 59559 32560 20703 10244 20204 30092 40120 55001 82500;EQDQ01  00002PRCP99
0163595590999992000092600004+22000+120770FM-12+002499999V0200601N007012200019N0150001N1+02761+02161101361ADDAA199000091GF102991021021008001001001MA1999999101081MD1210161+9999REMSYN066AAXX  26001 59559 32565 20607 10276 20216 30108 40136 52016 82200;EQDQ01  00002PRCP99
0163595590999992000092603004+22000+120770FM-12+002499999V0200701N005012200019N0150001N1+03031+02101101291ADDAA199000091GF102991021021008001001001MA1999999101021MD1810061+9999REMSYN066AAXX  26031 59559 32565 20705 10303 20210 30102 40129 58006 82200;EQDQ01  00002PRCP99
0163595590999992000092606004+22000+120770FM-12+002499999V0200701N010012200019N0200001N1+03021+02121101141ADDAA199000091GF102991021011008001001001MA1999999100871MD1710151+9999REMSYN066AAXX  26061 59559 32570 20710 10302 20212 30087 40114 57015 82100;EQDQ01  00002PRCP99
0163595590999992000092609004+22000+120770FM-12+002499999V0200601N005012200019N0150001N1+02741+02041101171ADDAA199000091GF102991021011008001001001MA1999999100891MD1310021+9999REMSYN066AAXX  26091 59559 32565 20605 10274 20204 30089 40117 53002 82100;EQDQ01  00002PRCP99
0163595590999992000092612004+22000+120770FM-12+002499999V0200601N006012200019N0150001N1+02611+02021101351ADDAA199000091GF102991021011008001001001MA1999999101071MD1210181+9999REMSYN066AAXX  26121 59559 32565 20606 10261 20202 30107 40135 52018 82100;EQDQ01  00002PRCP99
0163595590999992000092615004+22000+120770FM-12+002499999V0209999C000012200019N0200001N1+02401+02001101441ADDAA199000091GF101991011011008001001001MA1999999101161MD1010091+9999REMSYN066AAXX  26151 59559 32570 10000 10240 20200 30116 40144 50009 81100;EQDQ01  00002PRCP99
0163595590999992000092618004+22000+120770FM-12+002499999V0200601N008012200019N0200001N1+02551+02031101241ADDAA199000091GF102991021011008001001001MA1999999100961MD1710201+9999REMSYN066AAXX  26181 59559 32570 20608 10255 20203 30096 40124 57020 82100;EQDQ01  00002PRCP99
0173595590999992000092700004+22000+120770FM-12+002499999V0200701N008012200019N0200001N1+02821+02061101331ADDAA199000091GA1001+999999999GF100991001001999999001001MA1999999101051MD1210091+9999REMSYN060AAXX  27001 59559 32970 00708 10282 20206 30105 40133 52009;EQDQ01  00002PRCP99
0163595590999992000092706004+22000+120770FM-12+002499999V0200601N009012200019N0200001N1+03061+02161101161ADDAA199000091GF104991011011008001031001MA1999999100891MD1810131+9999REMSYN066AAXX  27061 59559 32570 40609 10306 20216 30089 40116 58013 81130;EQDQ01  00002PRCP99
0163595590999992000092709004+22000+120770FM-12+002499999V0200701N003012200019N0200001N1+02791+02121101171ADDAA199000091GF101991011011008001001001MA1999999100891MD1410001+9999REMSYN066AAXX  27091 59559 32570 10703 10279 20212 30089 40117 54000 81100;EQDQ01  00002PRCP99
0173595590999992000092712004+22000+120770FM-12+002499999V0209999C000012200019N0150001N1+02571+02101101361ADDAA199000091GA1001+999999999GF100991001001999999001001MA1999999101081MD1210191+9999REMSYN060AAXX  27121 59559 32965 00000 10257 20210 30108 40136 52019;EQDQ01  00002PRCP99
0163595590999992000092715004+22000+120770FM-12+002499999V0209999C000012200019N0150001N1+02431+02141101421ADDAA199000091GF102991021051008001001001MA1999999101141MD1010061+9999REMSYN066AAXX  27151 59559 32565 20000 10243 20214 30114 40142 50006 82500;EQDQ01  00002PRCP99
0173595590999992000092718004+22000+120770FM-12+002499999V0209999C000012200019N0150001N1+02411+02141101301ADDAA199000091GA1001+999999999GF100991001001999999001001MA1999999101021MD1810121+9999REMSYN060AAXX  27181 59559 32965 00000 10241 20214 30102 40130 58012;EQDQ01  00002PRCP99
0163595590999992000092721004+22000+120770FM-12+002499999V0200701N001012200019N0150001N1+02441+02161101291ADDAA199000091GF102991021051012501001001MA1999999101011MD1510011+9999REMSYN066AAXX  27211 59559 32665 20701 10244 20216 30101 40129 55001 82500;EQDQ01  00002PRCP99
0163595590999992000092800004+22000+120770FM-12+002499999V0200701N001012200019N0150001N1+02811+02321101401ADDAA199000091GF104991041041008001001001MA1999999101121MD1110111+9999REMSYN066AAXX  28001 59559 32565 40701 10281 20232 30112 40140 51011 84400;EQDQ01  00002PRCP99
0163595590999992000092803004+22000+120770FM-12+002499999V0200901N004012200019N0150001N1+03021+02331101391ADDAA199000091GF104991041041008001001001MA1999999101121MD1410001+9999REMSYN066AAXX  28031 59559 32565 40904 10302 20233 30112 40139 54000 84400;EQDQ01  00002PRCP99
0163595590999992000092806004+22000+120770FM-12+002499999V0201001N007010075019N0150001N1+03031+02341101221ADDAA199000091GF106991061021008001001001MA1999999100951MD1710171+9999REMSYN066AAXX  28061 59559 32565 61007 10303 20234 30095 40122 57017 86200;EQDQ01  00002PRCP99
0163595590999992000092809004+22000+120770FM-12+002499999V0201001N002010075019N0150001N1+02741+02161101231ADDAA199000091GF106991061051008001001001MA1999999100951MD1410001+9999REMSYN066AAXX  28091 59559 32565 61002 10274 20216 30095 40123 54000 86500;EQDQ01  00002PRCP99
0163595590999992000092812004+22000+120770FM-12+002499999V0200701N003010075019N0120001N1+02561+02151101391ADDAA199000091GF107991071051008001001001MA1999999101111MD1210161+9999REMSYN066AAXX  28121 59559 32562 70703 10256 20215 30111 40139 52016 87500;EQDQ01  00002PRCP99
0163595590999992000092815004+22000+120770FM-12+002499999V0209999C000012200019N0150001N1+02491+02081101471ADDAA199000091GF101991011051008001001001MA1999999101191MD1010081+9999REMSYN066AAXX  28151 59559 32565 10000 10249 20208 30119 40147 50008 81500;EQDQ01  00002PRCP99
0173595590999992000092818004+22000+120770FM-12+002499999V0200701N001012200019N0150001N1+02341+02041101381ADDAA199000091GA1001+999999999GF100991001001999999001001MA1999999101101MD1810091+9999REMSYN060AAXX  28181 59559 32965 00701 10234 20204 30110 40138 58009;EQDQ01  00002PRCP99
0173595590999992000092821004+22000+120770FM-12+002499999V0200201N001012200019N0150001N1+02231+02011101291ADDAA199000091GA1001+999999999GF100991001001999999001001MA1999999101011MD1510091+9999REMSYN060AAXX  28211 59559 32965 00201 10223 20201 30101 40129 55009;EQDQ01  00002PRCP99
0173595590999992000092900004+22000+120770FM-12+002499999V0200901N001012200019N0150001N1+02811+02291101411ADDAA199000091GA1001+999999999GF100991001001999999001001MA1999999101131MD1310121+9999REMSYN060AAXX  29001 59559 32965 00901 10281 20229 30113 40141 53012;EQDQ01  00002PRCP99
0163595590999992000092903004+22000+120770FM-12+002499999V0200801N004012200019N0150001N1+03061+02211101391ADDAA199000091GF103991031011008001001001MA1999999101121MD1810011+9999REMSYN066AAXX  29031 59559 32565 30804 10306 20221 30112 40139 58001 83100;EQDQ01  00002PRCP99
0163595590999992000092906004+22000+120770FM-12+002499999V0200701N006012200019N0250001N1+02931+02111101271ADDAA199000091GF104991041021008001001001MA1999999101001MD1610121+9999REMSYN066AAXX  29061 59559 32575 40706 10293 20211 30100 40127 56012 84200;EQDQ01  00002PRCP99
0163595590999992000092909004+22000+120770FM-12+002499999V0200701N002012200019N0150001N1+02761+02171101241ADDAA199000091GF102991021011008001001011MA1999999100961MD1510041+9999REMSYN066AAXX  29091 59559 32565 20702 10276 20217 30096 40124 55004 82101;EQDQ01  00002PRCP99
0163595590999992000092912004+22000+120770FM-12+002499999V0200501N002012200019N0150001N1+02461+02161101431ADDAA199000091GF101991011011008001001001MA1999999101151MD1210191+9999REMSYN066AAXX  29121 59559 32565 10502 10246 20216 30115 40143 52019 81100;EQDQ01  00002PRCP99
0173595590999992000092915004+22000+120770FM-12+002499999V0200601N002012200019N0150001N1+02401+02111101461ADDAA199000091GA1001+999999999GF100991001001999999001001MA1999999101181MD1010031+9999REMSYN060AAXX  29151 59559 32965 00602 10240 20211 30118 40146 50003;EQDQ01  00002PRCP99
0173595590999992000092918004+22000+120770FM-12+002499999V0201101N002012200019N0150001N1+02361+02091101371ADDAA199000091GA1001+999999999GF100991001001999999001001MA1999999101091MD1810091+9999REMSYN060AAXX  29181 59559 32965 01102 10236 20209 30109 40137 58009;EQDQ01  00002PRCP99
0173595590999992000092921004+22000+120770FM-12+002499999V0200501N001012200019N0150001N1+02321+02071101351ADDAA199000091GA1001+999999999GF100991001001999999001001MA1999999101071MD1510021+9999REMSYN060AAXX  29211 59559 32965 00501 10232 20207 30107 40135 55002;EQDQ01  00002PRCP99
0163595590999992000093000004+22000+120770FM-12+002499999V0200501N005012200019N0150001N1+02791+02271101481ADDAA199000091GF101991011011008001001001MA1999999101201MD1110131+9999REMSYN066AAXX  30001 59559 32565 10505 10279 20227 30120 40148 51013 81100;EQDQ01  00002PRCP99
0163595590999992000093003004+22000+120770FM-12+002499999V0200701N004012200019N0200001N1+03051+02241101511ADDAA199000091GF102991021011008001001001MA1999999101241MD1110041+9999REMSYN066AAXX  30031 59559 32570 20704 10305 20224 30124 40151 51004 82100;EQDQ01  00002PRCP99
0163595590999992000093006004+22000+120770FM-12+002499999V0200901N007012200019N0200001N1+03121+02121101361ADDAA199000091GF101991011011008001001001MA1999999101091MD1710151+9999REMSYN066AAXX  30061 59559 32570 10907 10312 20212 30109 40136 57015 81100;EQDQ01  00002PRCP99
0163595590999992000093009004+22000+120770FM-12+002499999V0200701N002012200019N0200001N1+02791+02131101351ADDAA199000091GF102991021011008001001001MA1999999101071MD1510021+9999REMSYN066AAXX  30091 59559 32570 20702 10279 20213 30107 40135 55002 82100;EQDQ01  00002PRCP99
0163595590999992000093012004+22000+120770FM-12+002499999V0200801N001012200019N0200001N1+02441+02021101531ADDAA199000091GF102991021011008001001001MA1999999101251MD1210181+9999REMSYN066AAXX  30121 59559 32570 20801 10244 20202 30125 40153 52018 82100;EQDQ01  00002PRCP99
0163595590999992000093015004+22000+120770FM-12+002499999V0200501N001012200019N0200001N1+02321+02021101611ADDAA199000091GF102991021051008001001001MA1999999101331MD1010081+9999REMSYN066AAXX  30151 59559 32570 20501 10232 20202 30133 40161 50008 82500;EQDQ01  00002PRCP99
0163595590999992000093018004+22000+120770FM-12+002499999V0209999C000012200019N0200001N1+02371+02041101471ADDAA199000091GF101991011051008001001001MA1999999101191MD1810141+9999REMSYN066AAXX  30181 59559 32570 10000 10237 20204 30119 40147 58014 81500;EQDQ01  00002PRCP99
0173595590999992000093021004+22000+120770FM-12+002499999V0203601N001012200019N0250001N1+02391+02051101471ADDAA199000091GA1001+999999999GF100991001001999999001001MA1999999101191MD1410001+9999REMSYN060AAXX  30211 59559 32975 03601 10239 20205 30119 40147 54000;EQDQ01  00002PRCP99
0173595590999992000100100004+22000+120770FM-12+002499999V0203601N006012200019N0250001N1+02851+02111101531ADDAA199000091GA1001+999999999GF100991001001999999001001MA1999999101251MD1210061+9999REMSYN060AAXX  01001 59559 32975 03606 10285 20211 30125 40153 52006;EQDQ01  00002PRCP99
0163595590999992000100103004+22000+120770FM-12+002499999V0201201N003012200019N0200001N1+03191+02251101491ADDAA199000091GF102991021011008001001001MA1999999101221MD1810031+9999REMSYN066AAXX  01031 59559 32570 21203 10319 20225 30122 40149 58003 82100;EQDQ01  00002PRCP99
0163595590999992000100106004+22000+120770FM-12+002499999V0200901N008012200019N0250001N1+03151+02121101281ADDAA199000091GF102991021011008001011001MA1999999101011MD1710211+9999REMSYN066AAXX  01061 59559 32575 20908 10315 20212 30101 40128 57021 82110;EQDQ01  00002PRCP99
0163595590999992000100109004+22000+120770FM-12+002499999V0200901N003012200019N0250001N1+02851+02181101291ADDAA199000091GF102991021001999999011001MA1999999101011MD1410001+9999REMSYN066AAXX  01091 59559 32975 20903 10285 20218 30101 40129 54000 82010;EQDQ01  00002PRCP99
0163595590999992000100112004+22000+120770FM-12+002499999V0202301N001012200019N0200001N1+02551+02171101471ADDAA199000091GF101991011051008001001001MA1999999101191MD1210181+9999REMSYN066AAXX  01121 59559 32570 12301 10255 20217 30119 40147 52018 81500;EQDQ01  00002PRCP99
0163595590999992000100115004+22000+120770FM-12+002499999V0200301N001012200019N0200001N1+02451+02121101471ADDAA199000091GF101991011051008001001001MA1999999101191MD1410001+9999REMSYN066AAXX  01151 59559 32570 10301 10245 20212 30119 40147 54000 81500;EQDQ01  00002PRCP99
0163595590999992000100118004+22000+120770FM-12+002499999V0200301N001012200019N0200001N1+02431+02091101331ADDAA199000091GF101991011051008001001001MA1999999101051MD1710141+9999REMSYN066AAXX  01181 59559 32570 10301 10243 20209 30105 40133 57014 81500;EQDQ01  00002PRCP99
0163595590999992000100121004+22000+120770FM-12+002499999V0200301N002012200019N0200001N1+02401+02141101291ADDAA199000091GF102991021051008001001001MA1999999101011MD1510041+9999REMSYN066AAXX  01211 59559 32570 20302 10240 20214 30101 40129 55004 82500;EQDQ01  00002PRCP99
0163595590999992000100200004+22000+120770FM-12+002499999V0203101N002012200019N0250001N1+02861+02271101381ADDAA199000091GF101991011011008001001001MA1999999101101MD1310091+9999REMSYN066AAXX  02001 59559 32575 13102 10286 20227 30110 40138 53009 81100;EQDQ01  00002PRCP99
0163595590999992000100203004+22000+120770FM-12+002499999V0202301N002012200019N0250001N1+03001+02411101271ADDAA199000091GF104991041021008001001001MA1999999101001MD1810101+9999REMSYN066AAXX  02031 59559 32575 42302 10300 20241 30100 40127 58010 84200;EQDQ01  00002PRCP99
0163595590999992000100206004+22000+120770FM-12+002499999V0202701N004012200019N0250001N1+03121+02351101051ADDAA199000091GF102991021011008001001001MA1999999100781MD1810221+9999REMSYN066AAXX  02061 59559 32575 22704 10312 20235 30078 40105 58022 82100;EQDQ01  00002PRCP99
0163595590999992000100209004+22000+120770FM-12+002499999V0202801N002012200019N0100001N1+02921+02261101081ADDAA199000091GF102991021011008001001001MA1999999100811MD1310031+9999REMSYN066AAXX  02091 59559 32560 22802 10292 20226 30081 40108 53003 82100;EQDQ01  00002PRCP99
0163595590999992000100212004+22000+120770FM-12+002499999V0203401N002012200019N0100001N1+02681+02271101241ADDAA199000091GF101991011011008001001001MA1999999100961MD1310151+9999REMSYN066AAXX  02121 59559 32560 13402 10268 20227 30096 40124 53015 81100;EQDQ01  00002PRCP99
0173595590999992000100215004+22000+120770FM-12+002499999V0200401N002012200019N0100001N1+02471+02191101251ADDAA199000091GA1001+999999999GF100991001001999999001001MA1999999100971MD1010011+9999REMSYN060AAXX  02151 59559 32960 00402 10247 20219 30097 40125 50001;EQDQ01  00002PRCP99
0173595590999992000100218004+22000+120770FM-12+002499999V0200701N004012200019N0100001N1+02521+02171101151ADDAA199000091GA1001+999999999GF100991001001999999001001MA1999999100871MD1710101+9999REMSYN060AAXX  02181 59559 32960 00704 10252 20217 30087 40115 57010;EQDQ01  00002PRCP99
0163595590999992000100221004+22000+120770FM-12+002499999V0203601N001012200019N0150001N1+02421+02181101131ADDAA199000091GF102991021051008001001001MA1999999100851MD1510021+9999REMSYN066AAXX  02211 59559 32565 23601 10242 20218 30085 40113 55002 82500;EQDQ01  00002PRCP99
0163595590999992000100300004+22000+120770FM-12+002499999V0203401N002012200019N0200001N1+02931+02411101211ADDAA199000091GF102991021021008001001001MA1999999100941MD1210091+9999REMSYN066AAXX  03001 59559 32570 23402 10293 20241 30094 40121 52009 82200;EQDQ01  00002PRCP99
0163595590999992000100303004+22000+120770FM-12+002499999V0202601N003012200019N0250001N1+03181+02411101131ADDAA199000091GF103991031021008001001001MA1999999100861MD1810081+9999REMSYN066AAXX  03031 59559 32575 32603 10318 20241 30086 40113 58008 83200;EQDQ01  00002PRCP99
0163595590999992000100306004+22000+120770FM-12+002499999V0202801N002012200019N0250001N1+03211+02411100931ADDAA199000091GF101991011011008001001001MA1999999100661MD1810201+9999REMSYN066AAXX  03061 59559 32575 12802 10321 20241 30066 40093 58020 81100;EQDQ01  00002PRCP99
0163595590999992000100309004+22000+120770FM-12+002499999V0203201N004012200019N0250001N1+02881+02381100901ADDAA199000091GF102991021021008001001001MA1999999100631MD1510031+9999REMSYN066AAXX  03091 59559 32575 23204 10288 20238 30063 40090 55003 82200;EQDQ01  00002PRCP99
0163595590999992000100312004+22000+120770FM-12+002499999V0203601N002012200019N0150001N1+02741+02321101101ADDAA199000091GF101991011011008001001001MA1999999100821MD1310191+9999REMSYN066AAXX  03121 59559 32565 13602 10274 20232 30082 40110 53019 81100;EQDQ01  00002PRCP99
0163595590999992000100315004+22000+120770FM-12+002499999V0200501N001012200019N0150001N1+02571+02271101141ADDAA199000091GF102991021051012501001001MA1999999100861MD1210041+9999REMSYN066AAXX  03151 59559 32665 20501 10257 20227 30086 40114 52004 82500;EQDQ01  00002PRCP99
0173595590999992000100318004+22000+120770FM-12+002499999V0201001N003012200019N0150001N1+02601+02331101061ADDAA199000091GA1001+999999999GF100991001001999999001001MA1999999100781MD1810081+9999REMSYN060AAXX  03181 59559 32965 01003 10260 20233 30078 40106 58008;EQDQ01  00002PRCP99
0173595590999992000100321004+22000+120770FM-12+002499999V0200601N002012200019N0150001N1+02581+02291101071ADDAA199000091GA1001+999999999GF100991001001999999001001MA1999999100791MD1310011+9999REMSYN060AAXX  03211 59559 32965 00602 10258 20229 30079 40107 53001;EQDQ01  00002PRCP99
0178595590999992000100400004+22000+120770FM-12+002499999V0201001N006010075019N0200001N1+02751+02421101251ADDAA112000791AY161061AY211061GF106991061031008001001001MA1999999100971MD1210181+9999MW1211REMSYN078AAXX  04001 59559 11570 61006 10275 20242 30097 40125 52018 69902 72161 86300;
0144595590999992000100403004+22000+120770FM-12+002499999V0200801N005010900019N0200001N1+03031+02371101261ADDAA199000021GF105991031021008001001021MA1999999100991MD1310021+9999REMSYN066AAXX  04031 59559 32570 50805 10303 20237 30099 40126 53002 83202;
0144595590999992000100406004+22000+120770FM-12+002499999V0200801N009012200019N0250001N1+03171+02461101051ADDAA199000021GF103991021021008001001021MA1999999100781MD1810211+9999REMSYN066AAXX  04061 59559 32575 30809 10317 20246 30078 40105 58021 82202;
0144595590999992000100409004+22000+120770FM-12+002499999V0200901N002012200019N0250001N1+02931+02301101041ADDAA199000021GF103991021021008001001021MA1999999100771MD1510011+9999REMSYN066AAXX  04091 59559 32575 30902 10293 20230 30077 40104 55001 82202;
0144595590999992000100412004+22000+120770FM-12+002499999V0200501N002012200019N0150001N1+02641+02251101211ADDAA199000021GF102991011041008001001011MA1999999100931MD1210161+9999REMSYN066AAXX  04121 59559 32565 20502 10264 20225 30093 40121 52016 81401;
0163595590999992000100415004+22000+120770FM-12+002499999V0200601N002012200019N0150001N1+02671+02291101281ADDAA199000091GF101991011011008001001001MA1999999101001MD1010071+9999REMSYN066AAXX  04151 59559 32565 10602 10267 20229 30100 40128 50007 81100;EQDQ01  00002PRCP99
0173595590999992000100418004+22000+120770FM-12+002499999V0200701N004012200019N0150001N1+02621+02211101221ADDAA199000091GA1001+999999999GF100991001001999999001001MA1999999100941MD1510061+9999REMSYN060AAXX  04181 59559 32965 00704 10262 20221 30094 40122 55006;EQDQ01  00002PRCP99
0163595590999992000100421004+22000+120770FM-12+002499999V0200801N001012200019N0150001N1+02511+02211101251ADDAA199000091GF102991021041008001001001MA1999999100971MD1310031+9999REMSYN066AAXX  04211 59559 32565 20801 10251 20221 30097 40125 53003 82400;EQDQ01  00002PRCP99
0163595590999992000100503004+22000+120770FM-12+002499999V0200801N005012200019N0250001N1+03121+02241101281ADDAA199000091GF103991021011008001001011MA1999999101011MD1810061+9999REMSYN066AAXX  05031 59559 32575 30805 10312 20224 30101 40128 58006 82101;EQDQ01  00002PRCP99
0163595590999992000100506004+22000+120770FM-12+002499999V0200901N007010900019N0250001N1+03231+02261101111ADDAA199000091GF105991011011008001001021MA1999999100841MD1710171+9999REMSYN066AAXX  05061 59559 32575 50907 10323 20226 30084 40111 57017 81102;EQDQ01  00002PRCP99
0163595590999992000100509004+22000+120770FM-12+002499999V0200501N003010360019N0250001N1+02871+02251101161ADDAA199000091GF107991021011008001011021MA1999999100881MD1310041+9999REMSYN066AAXX  05091 59559 32575 70503 10287 20225 30088 40116 53004 82112;EQDQ01  00002PRCP99
0163595590999992000100512004+22000+120770FM-12+002499999V0209999C000012200019N0200001N1+02621+02271101321ADDAA199000091GF101991011011008001001001MA1999999101041MD1210161+9999REMSYN066AAXX  05121 59559 32570 10000 10262 20227 30104 40132 52016 81100;EQDQ01  00002PRCP99
0163595590999992000100515004+22000+120770FM-12+002499999V0200801N001012200019N0200001N1+02441+02061101401ADDAA199000091GF101991011051008001001001MA1999999101121MD1010081+9999REMSYN066AAXX  05151 59559 32570 10801 10244 20206 30112 40140 50008 81500;EQDQ01  00002PRCP99
0178595590999992000100518004+22000+120770FM-12+002499999V0201001N002012200019N0200001N1+02411+02131101291ADDAA106000591AY181061AY221061GF102991021011008001001001MA1999999101011MD1710111+9999MW1251REMSYN078AAXX  05181 59559 11570 21002 10241 20213 30101 40129 57011 69951 72582 82100;
0150595590999992000100521004+22000+120770FM-12+002499999V0200501N001012200019N0200001N1+02451+02201101241ADDAA100000591GF101991011011008001001001MA1999999100961MD1510051+9999REMSYN072AAXX  05211 59559 12570 10501 10245 20220 30096 40124 55005 6995/ 81100;
0150595590999992000100600004+22000+120770FM-12+002499999V0200201N002012200019N0250001N1+02901+02381101381ADDAA112000591GF101991011011008001001001MA1999999101101MD1110141+9999REMSYN072AAXX  06001 59559 12575 10202 10290 20238 30110 40138 51014 69952 81100;
0144595590999992000100603004+22000+120770FM-12+002499999V0200701N003012200019N0200001N1+03231+02391101351ADDAA199000021GF104991041021008001001001MA1999999101081MD1810021+9999REMSYN066AAXX  06031 59559 32570 40703 10323 20239 30108 40135 58002 84200;
0144595590999992000100606004+22000+120770FM-12+002499999V0203401N002010075019N0100001N1+03081+02421101121ADDAA199000021GF106991061051008001001001MA1999999100851MD1810231+9999REMSYN066AAXX  06061 59559 32560 63402 10308 20242 30085 40112 58023 86500;
0163595590999992000100609004+22000+120770FM-12+002499999V0200401N001010075019N0150001N1+02851+02321101121ADDAA199000091GF106991061051008001001001MA1999999100841MD1510011+9999REMSYN066AAXX  06091 59559 32565 60401 10285 20232 30084 40112 55001 86500;EQDQ01  00002PRCP99
0163595590999992000100612004+22000+120770FM-12+002499999V0200601N001012200019N0200001N1+02601+02291101291ADDAA199000091GF102991021051008001001001MA1999999101011MD1110171+9999REMSYN066AAXX  06121 59559 32570 20601 10260 20229 30101 40129 51017 82500;EQDQ01  00002PRCP99
0163595590999992000100615004+22000+120770FM-12+002499999V0200801N003012200019N0200001N1+02611+02251101351ADDAA199000091GF102991021011008001001001MA1999999101071MD1010061+9999REMSYN066AAXX  06151 59559 32570 20803 10261 20225 30107 40135 50006 82100;EQDQ01  00002PRCP99
0163595590999992000100618004+22000+120770FM-12+002499999V0200201N005012200019N0200001N1+02621+02181101171ADDAA199000091GF101991011011008001001001MA1999999100891MD1710181+9999REMSYN066AAXX  06181 59559 32570 10205 10262 20218 30089 40117 57018 81100;EQDQ01  00002PRCP99
0173595590999992000100621004+22000+120770FM-12+002499999V0203401N002012200019N0200001N1+02501+02111101141ADDAA199000091GA1001+999999999GF100991001001999999001001MA1999999100861MD1510031+9999REMSYN060AAXX  06211 59559 32970 03402 10250 20211 30086 40114 55003;EQDQ01  00002PRCP99
0163595590999992000100700004+22000+120770FM-12+002499999V0200701N006012200019N0250001N1+02951+02241101321ADDAA199000091GF102991021011008001001001MA1999999101051MD1110191+9999REMSYN066AAXX  07001 59559 32575 20706 10295 20224 30105 40132 51019 82100;EQDQ01  00002PRCP99
0163595590999992000100703004+22000+120770FM-12+002499999V0200101N004012200019N0250001N1+03231+02271101201ADDAA199000091GF105991031021008001001011MA1999999100931MD1810121+9999REMSYN066AAXX  07031 59559 32575 50104 10323 20227 30093 40120 58012 83201;EQDQ01  00002PRCP99
0163595590999992000100706004+22000+120770FM-12+002499999V0203401N002012200019N0250001N1+03191+02361100971ADDAA199000091GF102991021021008001001001MA1999999100701MD1710231+9999REMSYN066AAXX  07061 59559 32575 23402 10319 20236 30070 40097 57023 82200;EQDQ01  00002PRCP99
0163595590999992000100709004+22000+120770FM-12+002499999V0200401N003010900019N0250001N1+02851+02281100981ADDAA199000091GF106991021021008001001051MA1999999100711MD1310011+9999REMSYN066AAXX  07091 59559 32575 60403 10285 20228 30071 40098 53001 82205;EQDQ01  00002PRCP99
0163595590999992000100712004+22000+120770FM-12+002499999V0201001N001012200019N0200001N1+02621+02301101151ADDAA199000091GF101991011021008001001001MA1999999100871MD1310161+9999REMSYN066AAXX  07121 59559 32570 11001 10262 20230 30087 40115 53016 81200;EQDQ01  00002PRCP99
0178595590999992000100715004+22000+120770FM-12+002499999V0201001N001010075019N0150001N1+02501+02291101171ADDAA100002091AY181031AY221031GF106991061021008001001001MA1999999100891MD1010021+9999MW1251REMSYN078AAXX  07151 59559 11565 61001 10250 20229 30089 40117 50002 6002/ 72582 86200;
0150595590999992000100721004+22000+120770FM-12+002499999V0200301N002012200019N0200001N1+02571+02201100971ADDAA100008991GF104991041041008001001001MA1999999100691MD1510051+9999REMSYN072AAXX  07211 59559 12570 40302 10257 20220 30069 40097 55005 6009/ 84400;
0150595590999992000100800004+22000+120770FM-12+002499999V0200401N003012200019N0250001N1+02881+02331101091ADDAA112008991GF101991011051012501001001MA1999999100821MD1110131+9999REMSYN072AAXX  08001 59559 12675 10403 10288 20233 30082 40109 51013 60092 81500;
0144595590999992000100803004+22000+120770FM-12+002499999V0200501N003012200019N0250001N1+03101+02311101001ADDAA199000021GF101991011011008001001001MA1999999100731MD1810091+9999REMSYN066AAXX  08031 59559 32575 10503 10310 20231 30073 40100 58009 81100;
0163595590999992000100806004+22000+120770FM-12+002499999V0200601N010012200019N0250001N1+03081+02281100741ADDAA199000091GF101991011011008001001001MA1999999100471MD1710261+9999REMSYN066AAXX  08061 59559 32575 10610 10308 20228 30047 40074 57026 81100;EQDQ01  00002PRCP99
0163595590999992000100809004+22000+120770FM-12+002499999V0200701N004012200019N0250001N1+02831+02281100811ADDAA199000091GF102991021021008001001001MA1999999100541MD1310071+9999REMSYN066AAXX  08091 59559 32575 20704 10283 20228 30054 40081 53007 82200;EQDQ01  00002PRCP99
0163595590999992000100812004+22000+120770FM-12+002499999V0200501N006012200019N0150001N1+02741+02231100961ADDAA199000091GF104991041041008001001001MA1999999100681MD1110141+9999REMSYN066AAXX  08121 59559 32565 40506 10274 20223 30068 40096 51014 84400;EQDQ01  00002PRCP99
0150595590999992000100815004+22000+120770FM-12+002499999V0200401N006012200019N0150001N1+02661+02221101011ADDAA100000591GF103991031041008001001001MA1999999100731MD1010051+9999REMSYN072AAXX  08151 59559 12565 30406 10266 20222 30073 40101 50005 6995/ 83400;
0160595590999992000100818004+22000+120770FM-12+002499999V0200401N010012200019N0150001N1+02651+02161100931ADDAA106000591GA1001+999999999GF100991001001999999001001MA1999999100651MD1810081+9999REMSYN066AAXX  08181 59559 12965 00410 10265 20216 30065 40093 58008 69951;
0160595590999992000100821004+22000+120770FM-12+002499999V0200101N004012200019N0200001N1+02631+02111100831ADDAA100000591GA1001+999999999GF100991001001999999001001MA1999999100551MD1710101+9999REMSYN066AAXX  08211 59559 12970 00104 10263 20211 30055 40083 57010 6995/;
0150595590999992000100900004+22000+120770FM-12+002499999V0200401N010012200019N0250001N1+02851+02171101041ADDAA112000591GF102991021021008001001001MA1999999100771MD1110221+9999REMSYN072AAXX  09001 59559 12575 20410 10285 20217 30077 40104 51022 69952 82200;
0163595590999992000100903004+22000+120770FM-12+002499999V0200401N006012200019N0250001N1+03031+02271101041ADDAA199000091GF104991041021008001001001MA1999999100771MD1410001+9999REMSYN066AAXX  09031 59559 32575 40406 10303 20227 30077 40104 54000 84200;EQDQ01  00002PRCP99
0163595590999992000100906004+22000+120770FM-12+002499999V0200701N012010075019N0200001N1+02731+02321100881ADDAA199000091GF105991051021008001001001MA1999999100601MD1710171+9999REMSYN066AAXX  09061 59559 32570 50712 10273 20232 30060 40088 57017 85200;EQDQ01  00002PRCP99
0178595590999992000100909004+22000+120770FM-12+002499999V0200601N005010075019N0200001N1+02711+02191100931ADDAA100000591AY181031AY221031GF106991061021008001001001MA1999999100651MD1310051+9999MW1021REMSYN078AAXX  09091 59559 11570 60605 10271 20219 30065 40093 53005 6995/ 70282 86200;
0178595590999992000100912004+22000+120770FM-12+002499999V0200601N011010075019N0200001N1+02671+02171101071ADDAA112000591AY181061AY221061GF105991051041008001001001MA1999999100791MD1310141+9999MW1021REMSYN078AAXX  09121 59559 11570 50611 10267 20217 30079 40107 53014 69952 70282 85400;
0163595590999992000100915004+22000+120770FM-12+002499999V0200301N007012200019N0200001N1+02621+02091101061ADDAA199000091GF102991021051008001001001MA1999999100781MD1810011+9999REMSYN066AAXX  09151 59559 32570 20307 10262 20209 30078 40106 58001 82500;EQDQ01  00002PRCP99
0163595590999992000100918004+22000+120770FM-12+002499999V0200401N013012200019N0200001N1+02671+02041100911ADDAA199000091GF101991011051008001001001MA1999999100631MD1710151+9999REMSYN066AAXX  09181 59559 32570 10413 10267 20204 30063 40091 57015 81500;EQDQ01  00002PRCP99
0163595590999992000100921004+22000+120770FM-12+002499999V0200401N009012200019N0200001N1+02671+02041100881ADDAA199000091GF102991021051008001001001MA1999999100601MD1510031+9999REMSYN066AAXX  09211 59559 32570 20409 10267 20204 30060 40088 55003 82500;EQDQ01  00002PRCP99
0163595590999992000101000004+22000+120770FM-12+002499999V0200401N012012200019N0250001N1+02761+02181101111ADDAA199000091GF102991021021008001001001MA1999999100831MD1110231+9999REMSYN066AAXX  10001 59559 32575 20412 10276 20218 30083 40111 51023 82200;EQDQ01  00002PRCP99
0163595590999992000101003004+22000+120770FM-12+002499999V0200601N006012200019N0200001N1+03081+02341101081ADDAA199000091GF103991031021008001001001MA1999999100811MD1810021+9999REMSYN066AAXX  10031 59559 32570 30606 10308 20234 30081 40108 58002 83200;EQDQ01  00002PRCP99
0163595590999992000101006004+22000+120770FM-12+002499999V0200701N011012200019N0250001N1+03091+02341100931ADDAA199000091GF103991021021008001001011MA1999999100661MD1810151+9999REMSYN066AAXX  10061 59559 32575 30711 10309 20234 30066 40093 58015 82201;EQDQ01  00002PRCP99
0163595590999992000101009004+22000+120770FM-12+002499999V0200501N003012200019N0200001N1+02851+02241100941ADDAA199000091GF103991021011008001001011MA1999999100671MD1310011+9999REMSYN066AAXX  10091 59559 32570 30503 10285 20224 30067 40094 53001 82101;EQDQ01  00002PRCP99
0163595590999992000101012004+22000+120770FM-12+002499999V0200501N011012200019N0200001N1+02781+02201101191ADDAA199000091GF102991021051008001001001MA1999999100911MD1210241+9999REMSYN066AAXX  10121 59559 32570 20511 10278 20220 30091 40119 52024 82500;EQDQ01  00002PRCP99
0163595590999992000101015004+22000+120770FM-12+002499999V0200501N005012200019N0200001N1+02781+02261101171ADDAA199000091GF102991021051008001001001MA1999999100891MD1810021+9999REMSYN066AAXX  10151 59559 32570 20505 10278 20226 30089 40117 58002 82500;EQDQ01  00002PRCP99
0178595590999992000101018004+22000+120770FM-12+002499999V0200601N007010075019N0200001N1+02631+02241101041ADDAA106001091AY181061AY221061GF105991051051008001001001MA1999999100761MD1810131+9999MW1251REMSYN078AAXX  10181 59559 11570 50607 10263 20224 30076 40104 58013 60011 72582 85500;
0150595590999992000101021004+22000+120770FM-12+002499999V0200601N004010075019N0200001N1+02671+02221101051ADDAA100001091GF106991061051008001001001MA1999999100771MD1310011+9999REMSYN072AAXX  10211 59559 12570 60604 10267 20222 30077 40105 53001 6001/ 86500;
0150595590999992000101100004+22000+120770FM-12+002499999V0200401N010010075019N0200001N1+02811+02281101171ADDAA112001091GF106991061051008001001001MA1999999100891MD1110121+9999REMSYN072AAXX  11001 59559 12570 60410 10281 20228 30089 40117 51012 60012 86500;
0178595590999992000101103004+22000+120770FM-12+002499999V0200601N005010075019N0150001N1+02761+02341101191ADDAA100000591AY181031AY221031GF107991071051008001001001MA1999999100911MD1010021+9999MW1251REMSYN078AAXX  11031 59559 11565 70605 10276 20234 30091 40119 50002 6995/ 72582 87500;
0178595590999992000101106004+22000+120770FM-12+002499999V0200601N011010075019N0200001N1+02991+02401100951ADDAA106000591AY181061AY221061GF107991071051008001001001MA1999999100681MD1710231+9999MW1021REMSYN078AAXX  11061 59559 11570 70611 10299 20240 30068 40095 57023 69951 70282 87500;
0150595590999992000101109004+22000+120770FM-12+002499999V0200601N005010075019N0150001N1+02801+02331100981ADDAA100000591GF107991071051008001999999MA1999999100701MD1310021+9999REMSYN072AAXX  11091 59559 12565 70605 10280 20233 30070 40098 53002 6995/ 875//;
0150595590999992000101112004+22000+120770FM-12+002499999V0200701N009010075019N0200001N1+02781+02341101151ADDAA112000591GF106991061051008001001001MA1999999100871MD1310171+9999REMSYN072AAXX  11121 59559 12570 60709 10278 20234 30087 40115 53017 69952 86500;
0144595590999992000101115004+22000+120770FM-12+002499999V0200401N003010075019N0150001N1+02681+02261101091ADDAA199000021GF107991071051008001999999MA1999999100811MD1510061+9999REMSYN066AAXX  11151 59559 32565 70403 10268 20226 30081 40109 55006 875//;
0178595590999992000101118004+22000+120770FM-12+002499999V0200401N009010075019N0150001N1+02661+02261101021ADDAA106000591AY181061AY221061GF107991071051008001999999MA1999999100741MD1510071+9999MW1251REMSYN078AAXX  11181 59559 11565 70409 10266 20226 30074 40102 55007 69951 72582 875//;
0178595590999992000101121004+22000+120770FM-12+002499999V0201001N005010075019N0150001N1+02421+02221101071ADDAA100022191AY161031AY261031GF108991081051008001999999MA1999999100791MD1310051+9999MW1621REMSYN078AAXX  11211 59559 11565 81005 10242 20222 30079 40107 53005 6022/ 76266 885//;
0178595590999992000101200004+22000+120770FM-12+002499999V0200701N007010075019N0120001N1+02511+02241101151ADDAA112039991AY161061AY221061GF108991081051008001999999MA1999999100871MD1010081+9999MW1211REMSYN078AAXX  12001 59559 11562 80707 10251 20224 30087 40115 50008 60402 72162 885//;
0178595590999992000101203004+22000+120770FM-12+002499999V0200501N007010075019N0200001N1+02611+02281101131ADDAA100007191AY161031AY221031GF108991081051008001999999MA1999999100851MD1810021+9999MW1211REMSYN078AAXX  12031 59559 11570 80507 10261 20228 30085 40113 58002 6007/ 72162 885//;
0178595590999992000101206004+22000+120770FM-12+002499999V0200401N012010075019N0150001N1+02711+02211100961ADDAA106007191AY161061AY221061GF108991081051008001999999MA1999999100681MD1610171+9999MW1021REMSYN078AAXX  12061 59559 11565 80412 10271 20221 30068 40096 56017 60071 70262 885//;
0150595590999992000101209004+22000+120770FM-12+002499999V0200401N007010075019N0150001N1+02621+02101100961ADDAA100007191GF108991081051008001999999MA1999999100681MD1410001+9999REMSYN072AAXX  12091 59559 12565 80407 10262 20210 30068 40096 54000 6007/ 885//;
0178595590999992000101212004+22000+120770FM-12+002499999V0200301N020010075019N0120001N1+02581+01951101061ADDAA112007991AY161061AY221061GF108991081071008001999999MA1999999100781MD1010101+9999MW1611REMSYN078AAXX  12121 59559 11562 80320 10258 20195 30078 40106 50010 60082 76162 887//;
0144595590999992000101215004+22000+120770FM-12+002499999V0200501N007010075019N0150001N1+02641+02101101061ADDAA199000021GF108991081051008001999999MA1999999100781MD1410001+9999REMSYN066AAXX  12151 59559 32565 80507 10264 20210 30078 40106 54000 885//;
0144595590999992000101218004+22000+120770FM-12+002499999V0200501N017010075019N0150001N1+02611+02031100911ADDAA199000021GF107991071051008001001001MA1999999100631MD1810151+9999REMSYN066AAXX  12181 59559 32565 70517 10261 20203 30063 40091 58015 87500;
0144595590999992000101221004+22000+120770FM-12+002499999V0200501N008010120019N0150001N1+02601+01991100811ADDAA199000021GF108991081051012501999999MA1999999100531MD1510101+9999REMSYN066AAXX  12211 59559 32665 80508 10260 20199 30053 40081 55010 885//;
0144595590999992000101300004+22000+120770FM-12+002499999V0200501N015010360019N0150001N1+02721+02021101041ADDAA199000021GF106991021041008001031001MA1999999100761MD1110231+9999REMSYN066AAXX  13001 59559 32565 60515 10272 20202 30076 40104 51023 82430;
0163595590999992000101303004+22000+120770FM-12+002499999V0200401N009010360019N0150001N1+02861+02131101011ADDAA199000091GF107991011041008001031001MA1999999100741MD1810021+9999REMSYN066AAXX  13031 59559 32565 70409 10286 20213 30074 40101 58002 81430;EQDQ01  00002PRCP99
0163595590999992000101306004+22000+120770FM-12+002499999V0200401N019010360019N0120001N1+02791+02161100741ADDAA199000091GF108991021051008001021001MA1999999100471MD1710271+9999REMSYN066AAXX  13061 59559 32562 80419 10279 20216 30047 40074 57027 82520;EQDQ01  00002PRCP99
0163595590999992000101309004+22000+120770FM-12+002499999V0200401N008010360019N0150001N1+02681+02061100811ADDAA199000091GF108991021011008001021001MA1999999100531MD1310061+9999REMSYN066AAXX  13091 59559 32565 80408 10268 20206 30053 40081 53006 82120;EQDQ01  00002PRCP99
0163595590999992000101312004+22000+120770FM-12+002499999V0200301N015010075019N0150001N1+02601+02061101001ADDAA199000091GF108991081051008001999999MA1999999100721MD1110191+9999REMSYN066AAXX  13121 59559 32565 80315 10260 20206 30072 40100 51019 885//;EQDQ01  00002PRCP99
0163595590999992000101315004+22000+120770FM-12+002499999V0200201N007010360019N0150001N1+02481+02041101101ADDAA199000091GF108991021051008001041001MA1999999100821MD1110101+9999REMSYN066AAXX  13151 59559 32565 80207 10248 20204 30082 40110 51010 82540;EQDQ01  00002PRCP99
0163595590999992000101318004+22000+120770FM-12+002499999V0200401N014010360019N0150001N1+02491+02071101021ADDAA199000091GF106991041051008001061001MA1999999100741MD1810081+9999REMSYN066AAXX  13181 59559 32565 60414 10249 20207 30074 40102 58008 84560;EQDQ01  00002PRCP99
0178595590999992000101321004+22000+120770FM-12+002499999V0200301N008010075019N0150001N1+02471+02081100981ADDAA100000591AY161031AY221031GF106991061051008001001001MA1999999100701MD1710041+9999MW1211REMSYN078AAXX  13211 59559 11565 60308 10247 20208 30070 40098 57004 6995/ 72162 86500;
0178595590999992000101400004+22000+120770FM-12+002499999V0200401N016012200019N0150001N1+02691+02181101071ADDAA112000591AY161061AY221061GF104991021051008001001021MA1999999100791MD1110091+9999MW1021REMSYN078AAXX  14001 59559 11565 40416 10269 20218 30079 40107 51009 69952 70262 82502;
0178595590999992000101403004+22000+120770FM-12+002499999V0200401N009010360019N0150001N1+02771+02251101031ADDAA100000791AY161031AY221031GF106991031021008001021021MA1999999100751MD1810041+9999MW1021REMSYN078AAXX  14031 59559 11565 60409 10277 20225 30075 40103 58004 6990/ 70262 83222;
0178595590999992000101406004+22000+120770FM-12+002499999V0200701N010010075019N0100001N1+02511+02281101001ADDAA106006191AY161061AY221061GF108991081071008001999999MA1999999100721MD1510031+9999MW1211REMSYN078AAXX  14061 59559 11560 80710 10251 20228 30072 40100 55003 60061 72162 887//;
0178595590999992000101409004+22000+120770FM-12+002499999V0200401N007010360019N0150001N1+02611+02171101091ADDAA100006191AY161031AY221031GF106991041021008001031011MA1999999100811MD1310091+9999MW1021REMSYN078AAXX  14091 59559 11565 60407 10261 20217 30081 40109 53009 6006/ 70262 84231;
0178595590999992000101412004+22000+120770FM-12+002499999V0200301N013010075019N0100001N1+02561+02091101221ADDAA112006191AY161061AY221061GF106991061041008001001001MA1999999100941MD1110131+9999MW1021REMSYN078AAXX  14121 59559 11560 60313 10256 20209 30094 40122 51013 60062 70262 86400;
0144595590999992000101415004+22000+120770FM-12+002499999V0200301N010012200019N0100001N1+02501+02081101301ADDAA199000021GF104991031041008001081001MA1999999101021MD1110081+9999REMSYN066AAXX  14151 59559 32560 40310 10250 20208 30102 40130 51008 83480;
0178595590999992000101418004+22000+120770FM-12+002499999V0200301N018012200019N0100001N1+02451+02051101241ADDAA106000591AY161061AY211061GF103991031041008001001001MA1999999100961MD1510061+9999MW1021REMSYN078AAXX  14181 59559 11560 30318 10245 20205 30096 40124 55006 69951 70261 83400;
0178595590999992000101421004+22000+120770FM-12+002499999V0200401N005010075019N0100001N1+02451+02091101271ADDAA100001091AY161031AY211031GF106991061031008001001001MA1999999100991MD1210031+9999MW1211REMSYN078AAXX  14211 59559 11560 60405 10245 20209 30099 40127 52003 6001/ 72161 86300;
0178595590999992000101500004+22000+120770FM-12+002499999V0200501N010010360019N0150001N1+02581+02121101451ADDAA112001091AY161061AY211061GF107991041031008001051999MA1999999101171MD1310181+9999MW1211REMSYN078AAXX  15001 59559 11565 70510 10258 20212 30117 40145 53018 60012 72161 8435/;
0144595590999992000101503004+22000+120770FM-12+002499999V0200501N006010075019N0150001N1+02781+02171101491ADDAA199000021GF106991061021008001001001MA1999999101211MD1110041+9999REMSYN066AAXX  15031 59559 32565 60506 10278 20217 30121 40149 51004 86200;
0144595590999992000101506004+22000+120770FM-12+002499999V0200501N018012200019N0150001N1+02841+02181101151ADDAA199000021GF103991031021008001001001MA1999999100871MD1710341+9999REMSYN066AAXX  15061 59559 32565 30518 10284 20218 30087 40115 57034 83200;
0144595590999992000101509004+22000+120770FM-12+002499999V0200401N011012200019N0150001N1+02661+02101101231ADDAA199000021GF103991021021008001001011MA1999999100951MD1310081+9999REMSYN066AAXX  15091 59559 32565 30411 10266 20210 30095 40123 53008 82201;
0144595590999992000101512004+22000+120770FM-12+002499999V0200401N018012200019N0100001N1+02601+02061101371ADDAA199000021GF103991031041008001001001MA1999999101091MD1210141+9999REMSYN066AAXX  15121 59559 32560 30418 10260 20206 30109 40137 52014 83400;
0163595590999992000101515004+22000+120770FM-12+002499999V0200301N009012200019N0100001N1+02631+02041101471ADDAA199000091GF103991031041008001001001MA1999999101191MD1310101+9999REMSYN066AAXX  15151 59559 32560 30309 10263 20204 30119 40147 53010 83400;EQDQ01  00002PRCP99
0163595590999992000101518004+22000+120770FM-12+002499999V0200201N009012200019N0100001N1+02541+02021101371ADDAA199000091GF102991021041008001001001MA1999999101091MD1810101+9999REMSYN066AAXX  15181 59559 32560 20209 10254 20202 30109 40137 58010 82400;EQDQ01  00002PRCP99
0163595590999992000101521004+22000+120770FM-12+002499999V0200401N010012200019N0100001N1+02541+02031101271ADDAA199000091GF102991021041008001001001MA1999999100991MD1710101+9999REMSYN066AAXX  15211 59559 32560 20410 10254 20203 30099 40127 57010 82400;EQDQ01  00002PRCP99
0163595590999992000101600004+22000+120770FM-12+002499999V0200401N019012200019N0200001N1+02681+02051101391ADDAA199000091GF102991021011008001001001MA1999999101111MD1210121+9999REMSYN066AAXX  16001 59559 32570 20419 10268 20205 30111 40139 52012 82100;EQDQ01  00002PRCP99
0163595590999992000102000004+22000+120770FM-12+002499999V0200301N008012200019N0250001N1+02791+02241101291ADDAA199000091GF102991021011008001011001MA1999999101011MD1310171+9999REMSYN066AAXX  20001 59559 32575 20308 10279 20224 30101 40129 53017 82110;EQDQ01  00002PRCP99
0163595590999992000102003004+22000+120770FM-12+002499999V0200501N004012200019N0200001N1+03051+02431101331ADDAA199000091GF104991041041008001001001MA1999999101061MD1010051+9999REMSYN066AAXX  20031 59559 32570 40504 10305 20243 30106 40133 50005 84400;EQDQ01  00002PRCP99
0163595590999992000102006004+22000+120770FM-12+002499999V0201001N002010075019N0120001N1+02641+02361101231ADDAA199000091GF108991081051008001999999MA1999999100951MD1310081+9999REMSYN066AAXX  20061 59559 32562 81002 10264 20236 30095 40123 53008 885//;EQDQ01  00002PRCP99
0178595590999992000102012004+22000+120770FM-12+002499999V0200601N004010075019N0150001N1+02501+02261101381ADDAA112013091AY161061AY221061GF106991061051008001001001MA1999999101101MD1110151+9999MW1021REMSYN078AAXX  20121 59559 11565 60604 10250 20226 30110 40138 51015 60132 70262 86500;
0163595590999992000102015004+22000+120770FM-12+002499999V0202401N001012200019N0200001N1+02481+02181101371ADDAA199000091GF102991021051008001001001MA1999999101091MD1810011+9999REMSYN066AAXX  20151 59559 32570 22401 10248 20218 30109 40137 58001 82500;EQDQ01  00002PRCP99
0163595590999992000102018004+22000+120770FM-12+002499999V0200501N004012200019N0200001N1+02571+02201101231ADDAA199000091GF102991021041008001001001MA1999999100951MD1810141+9999REMSYN066AAXX  20181 59559 32570 20504 10257 20220 30095 40123 58014 82400;EQDQ01  00002PRCP99
0163595590999992000102021004+22000+120770FM-12+002499999V0200701N003012200019N0200001N1+02601+02211101211ADDAA199000091GF102991021051008001001001MA1999999100931MD1510021+9999REMSYN066AAXX  20211 59559 32570 20703 10260 20221 30093 40121 55002 82500;EQDQ01  00002PRCP99
0163595590999992000102100004+22000+120770FM-12+002499999V0200501N008012200019N0250001N1+02791+02301101361ADDAA199000091GF103991021021008001011001MA1999999101081MD1110151+9999REMSYN066AAXX  21001 59559 32575 30508 10279 20230 30108 40136 51015 82210;EQDQ01  00002PRCP99
0163595590999992000102103004+22000+120770FM-12+002499999V0200701N006012200019N0200001N1+02991+02421101311ADDAA199000091GF104991041051008001001001MA1999999101041MD1810041+9999REMSYN066AAXX  21031 59559 32570 40706 10299 20242 30104 40131 58004 84500;EQDQ01  00002PRCP99
0163595590999992000102106004+22000+120770FM-12+002499999V0200301N010012200019N0200001N1+02951+02351101121ADDAA199000091GF103991021011008001031001MA1999999100851MD1810191+9999REMSYN066AAXX  21061 59559 32570 30310 10295 20235 30085 40112 58019 82130;EQDQ01  00002PRCP99
0163595590999992000102109004+22000+120770FM-12+002499999V0200201N004019999999N0200001N1+02701+02251101121ADDAA199000091GF106991021001999999011011MA1999999100841MD1510011+9999REMSYN066AAXX  21091 59559 32970 60204 10270 20225 30084 40112 55001 82011;EQDQ01  00002PRCP99
0163595590999992000102112004+22000+120770FM-12+002499999V0200901N002012200019N0200001N1+02571+02281101301ADDAA199000091GF103991031051008001001001MA1999999101021MD1110181+9999REMSYN066AAXX  21121 59559 32570 30902 10257 20228 30102 40130 51018 83500;EQDQ01  00002PRCP99
0163595590999992000102115004+22000+120770FM-12+002499999V0200301N001012200019N0200001N1+02601+02291101291ADDAA199000091GF102991021051008001001001MA1999999101011MD1510011+9999REMSYN066AAXX  21151 59559 32570 20301 10260 20229 30101 40129 55001 82500;EQDQ01  00002PRCP99
0163595590999992000102118004+22000+120770FM-12+002499999V0200501N003012200019N0200001N1+02541+02271101181ADDAA199000091GF102991021051008001001001MA1999999100901MD1810111+9999REMSYN066AAXX  21181 59559 32570 20503 10254 20227 30090 40118 58011 82500;EQDQ01  00002PRCP99
0163595590999992000102121004+22000+120770FM-12+002499999V0200501N003012200019N0200001N1+02561+02231101171ADDAA199000091GF102991021051008001001001MA1999999100891MD1510011+9999REMSYN066AAXX  21211 59559 32570 20503 10256 20223 30089 40117 55001 82500;EQDQ01  00002PRCP99
0163595590999992000102200004+22000+120770FM-12+002499999V0201001N004012200019N0250001N1+02861+02361101321ADDAA199000091GF104991021021008001011001MA1999999101041MD1210151+9999REMSYN066AAXX  22001 59559 32575 41004 10286 20236 30104 40132 52015 82210;EQDQ01  00002PRCP99
0163595590999992000102203004+22000+120770FM-12+002499999V0200701N005012200019N0250001N1+03101+02371101211ADDAA199000091GF101991011011008001001001MA1999999100941MD1810101+9999REMSYN066AAXX  22031 59559 32575 10705 10310 20237 30094 40121 58010 81100;EQDQ01  00002PRCP99
0163595590999992000102206004+22000+120770FM-12+002499999V0200701N007012200019N0250001N1+03121+02381100951ADDAA199000091GF101991011011008001001001MA1999999100681MD1710261+9999REMSYN066AAXX  22061 59559 32575 10707 10312 20238 30068 40095 57026 81100;EQDQ01  00002PRCP99
0163595590999992000102209004+22000+120770FM-12+002499999V0201001N002012200019N0250001N1+02831+02321101001ADDAA199000091GF102991021051008001001001MA1999999100721MD1110041+9999REMSYN066AAXX  22091 59559 32575 21002 10283 20232 30072 40100 51004 82500;EQDQ01  00002PRCP99
0163595590999992000102212004+22000+120770FM-12+002499999V0200901N001012200019N0200001N1+02621+02321101201ADDAA199000091GF101991011021008001001001MA1999999100921MD1210201+9999REMSYN066AAXX  22121 59559 32570 10901 10262 20232 30092 40120 52020 81200;EQDQ01  00002PRCP99
0163595590999992000102215004+22000+120770FM-12+002499999V0200601N002012200019N0150001N1+02591+02291101201ADDAA199000091GF101991011011008001001001MA1999999100921MD1410001+9999REMSYN066AAXX  22151 59559 32565 10602 10259 20229 30092 40120 54000 81100;EQDQ01  00002PRCP99
0163595590999992000102218004+22000+120770FM-12+002499999V0200701N001012200019N0150001N1+02561+02321101061ADDAA199000091GF101991011011008001001001MA1999999100781MD1710141+9999REMSYN066AAXX  22181 59559 32565 10701 10256 20232 30078 40106 57014 81100;EQDQ01  00002PRCP99
0163595590999992000102221004+22000+120770FM-12+002499999V0209999C000012200019N0150001N1+02541+02291101061ADDAA199000091GF102991021051008001001001MA1999999100781MD1410001+9999REMSYN066AAXX  22211 59559 32565 20000 10254 20229 30078 40106 54000 82500;EQDQ01  00002PRCP99
0163595590999992000102300004+22000+120770FM-12+002499999V0200901N006012200019N0200001N1+02851+02411101231ADDAA199000091GF101991011021008001001001MA1999999100951MD1110171+9999REMSYN066AAXX  23001 59559 32570 10906 10285 20241 30095 40123 51017 81200;EQDQ01  00002PRCP99
0163595590999992000102303004+22000+120770FM-12+002499999V0200801N004012200019N0250001N1+03101+02401101121ADDAA199000091GF102991021011008001001001MA1999999100851MD1810101+9999REMSYN066AAXX  23031 59559 32575 20804 10310 20240 30085 40112 58010 82100;EQDQ01  00002PRCP99
0163595590999992000102306004+22000+120770FM-12+002499999V0203201N006010075019N0100001N1+02971+02481100881ADDAA199000091GF106991061051008001001001MA1999999100611MD1710241+9999REMSYN066AAXX  23061 59559 32560 63206 10297 20248 30061 40088 57024 86500;EQDQ01  00002PRCP99
0191595590999992000102309004+22000+120770FM-12+002499999V0200901N001010075019N0080001N1+02771+02401100991ADDAA199000091AY121031AY221031GF106991061051008001001001MA1999999100711MD1310101+9999MW1101REMSYN072AAXX  23091 59559 31558 60901 10277 20240 30071 40099 53010 71022 86500;EQDQ01  00002PRCP99
0163595590999992000102312004+22000+120770FM-12+002499999V0201001N004010075019N0100001N1+02641+02361101191ADDAA199000091GF106991061051008001001001MA1999999100911MD1110201+9999REMSYN066AAXX  23121 59559 32560 61004 10264 20236 30091 40119 51020 86500;EQDQ01  00002PRCP99
0163595590999992000102315004+22000+120770FM-12+002499999V0200701N003012200019N0100001N1+02661+02311101211ADDAA199000091GF104991041051008001001001MA1999999100931MD1010021+9999REMSYN066AAXX  23151 59559 32560 40703 10266 20231 30093 40121 50002 84500;EQDQ01  00002PRCP99
0163595590999992000102318004+22000+120770FM-12+002499999V0201601N001010075019N0150001N1+02631+02321101111ADDAA199000091GF106991061051008001001001MA1999999100831MD1610101+9999REMSYN066AAXX  23181 59559 32565 61601 10263 20232 30083 40111 56010 86500;EQDQ01  00002PRCP99
0163595590999992000102321004+22000+120770FM-12+002499999V0200401N001010075019N0150001N1+02631+02311101091ADDAA199000091GF106991061051008001001001MA1999999100811MD1510021+9999REMSYN066AAXX  23211 59559 32565 60401 10263 20231 30081 40109 55002 86500;EQDQ01  00002PRCP99
0163595590999992000102400004+22000+120770FM-12+002499999V0200201N004010075019N0150001N1+02791+02341101261ADDAA199000091GF106991061051008001001001MA1999999100981MD1110171+9999REMSYN066AAXX  24001 59559 32565 60204 10279 20234 30098 40126 51017 86500;EQDQ01  00002PRCP99
0163595590999992000102406004+22000+120770FM-12+002499999V0200101N006012200019N0100001N1+03081+02271101041ADDAA199000091GF104991041041008001001001MA1999999100771MD1710171+9999REMSYN066AAXX  24061 59559 32560 40106 10308 20227 30077 40104 57017 84400;EQDQ01  00002PRCP99
0163595590999992000102409004+22000+120770FM-12+002499999V0200601N003012200019N0150001N1+02801+02241101111ADDAA199000091GF103991031041008001001001MA1999999100831MD1310061+9999REMSYN066AAXX  24091 59559 32565 30603 10280 20224 30083 40111 53006 83400;EQDQ01  00002PRCP99
0163595590999992000102412004+22000+120770FM-12+002499999V0200601N004012200019N0100001N1+02741+02251101231ADDAA199000091GF103991031051008001001001MA1999999100951MD1210121+9999REMSYN066AAXX  24121 59559 32560 30604 10274 20225 30095 40123 52012 83500;EQDQ01  00002PRCP99
0163595590999992000102415004+22000+120770FM-12+002499999V0200401N004012200019N0100001N1+02711+02201101231ADDAA199000091GF102991021051008001001001MA1999999100951MD1410001+9999REMSYN066AAXX  24151 59559 32560 20404 10271 20220 30095 40123 54000 82500;EQDQ01  00002PRCP99
0173595590999992000102418004+22000+120770FM-12+002499999V0203501N004012200019N0100001N1+02561+02131101151ADDAA199000091GA1001+999999999GF100991001001999999001001MA1999999100871MD1710081+9999REMSYN060AAXX  24181 59559 32960 03504 10256 20213 30087 40115 57008;EQDQ01  00002PRCP99
0173595590999992000102421004+22000+120770FM-12+002499999V0203401N002012200019N0100001N1+02401+02061101101ADDAA199000091GA1001+999999999GF100991001001999999001001MA1999999100821MD1510051+9999REMSYN060AAXX  24211 59559 32960 03402 10240 20206 30082 40110 55005;EQDQ01  00002PRCP99
0173595590999992000102500004+22000+120770FM-12+002499999V0209999C000012200019N0200001N1+02811+02221101261ADDAA199000091GA1001+999999999GF100991001001999999001001MA1999999100981MD1110161+9999REMSYN060AAXX  25001 59559 32970 00000 10281 20222 30098 40126 51016;EQDQ01  00002PRCP99
0163595590999992000102503004+22000+120770FM-12+002499999V0202501N002012200019N0150001N1+02951+02361101231ADDAA199000091GF104991041021008001001001MA1999999100961MD1810021+9999REMSYN066AAXX  25031 59559 32565 42502 10295 20236 30096 40123 58002 84200;EQDQ01  00002PRCP99
0163595590999992000102506004+22000+120770FM-12+002499999V0202901N002010075019N0100001N1+03021+02401101041ADDAA199000091GF106991061031008001001001MA1999999100771MD1710191+9999REMSYN066AAXX  25061 59559 32560 62902 10302 20240 30077 40104 57019 86300;EQDQ01  00002PRCP99
0163595590999992000102509004+22000+120770FM-12+002499999V0201101N002012200019N0100001N1+02831+02251101151ADDAA199000091GF103991021041008001001011MA1999999100871MD1310101+9999REMSYN066AAXX  25091 59559 32560 31102 10283 20225 30087 40115 53010 82401;EQDQ01  00002PRCP99
0163595590999992000102512004+22000+120770FM-12+002499999V0200301N001012200019N0100001N1+02551+02301101331ADDAA199000091GF103991031051008001001001MA1999999101051MD1210181+9999REMSYN066AAXX  25121 59559 32560 30301 10255 20230 30105 40133 52018 83500;EQDQ01  00002PRCP99
0163595590999992000102515004+22000+120770FM-12+002499999V0201301N001012200019N0100001N1+02601+02291101411ADDAA199000091GF103991031051008001001001MA1999999101131MD1010081+9999REMSYN066AAXX  25151 59559 32560 31301 10260 20229 30113 40141 50008 83500;EQDQ01  00002PRCP99
0163595590999992000102518004+22000+120770FM-12+002499999V0200301N002012200019N0100001N1+02631+02291101261ADDAA199000091GF102991021051008001001001MA1999999100981MD1810151+9999REMSYN066AAXX  25181 59559 32560 20302 10263 20229 30098 40126 58015 82500;EQDQ01  00002PRCP99
0163595590999992000102521004+22000+120770FM-12+002499999V0200901N002012200019N0100001N1+02561+02301101281ADDAA199000091GF103991031051008001001001MA1999999101001MD1310021+9999REMSYN066AAXX  25211 59559 32560 30902 10256 20230 30100 40128 53002 83500;EQDQ01  00002PRCP99
0178595590999992000102600004+22000+120770FM-12+002499999V0209999C000010075019N0100001N1+02651+02391101401ADDAA112000791AY161061AY211061GF106991061031008001001001MA1999999101121MD1310121+9999MW1611REMSYN078AAXX  26001 59559 11560 60000 10265 20239 30112 40140 53012 69902 76161 86300;
0178595590999992000102603004+22000+120770FM-12+002499999V0200801N004010075019N0100001N1+02571+02361101421ADDAA100001091AY161031AY221031GF108991081071008001999999MA1999999101141MD1310021+9999MW1611REMSYN078AAXX  26031 59559 11560 80804 10257 20236 30114 40142 53002 6001/ 76162 887//;
0178595590999992000102606004+22000+120770FM-12+002499999V0200601N013010075019N0100001N1+02781+02281101281ADDAA106002091AY161061AY221061GF106991061051008001031001MA1999999101001MD1710141+9999MW1021REMSYN078AAXX  26061 59559 11560 60613 10278 20228 30100 40128 57014 60021 70262 86530;
0150595590999992000102609004+22000+120770FM-12+002499999V0200501N007010360019N0100001N1+02561+02071101381ADDAA100002091GF106991041051008001031001MA1999999101101MD1110101+9999REMSYN072AAXX  26091 59559 12560 60507 10256 20207 30110 40138 51010 6002/ 84530;
0150595590999992000102612004+22000+120770FM-12+002499999V0200601N013012200019N0150001N1+02511+02011101441ADDAA112002091GF103991031051008001001001MA1999999101161MD1210061+9999REMSYN072AAXX  26121 59559 12565 30613 10251 20201 30116 40144 52006 60022 83500;
0144595590999992000102615004+22000+120770FM-12+002499999V0200501N006010075019N0150001N1+02511+01981101531ADDAA199000021GF106991061051008001001001MA1999999101251MD1010091+9999REMSYN066AAXX  26151 59559 32565 60506 10251 20198 30125 40153 50009 86500;
0163595590999992000102618004+22000+120770FM-12+002499999V0200601N005010075019N0100001N1+02471+01931101441ADDAA199000091GF107991071051008001999999MA1999999101161MD1810091+9999REMSYN066AAXX  26181 59559 32560 70605 10247 20193 30116 40144 58009 875//;EQDQ01  00002PRCP99
0163595590999992000102621004+22000+120770FM-12+002499999V0200101N004010075019N0100001N1+02451+01891101451ADDAA199000091GF108991081051008001999999MA1999999101171MD1010011+9999REMSYN066AAXX  26211 59559 32560 80104 10245 20189 30117 40145 50001 885//;EQDQ01  00002PRCP99
0163595590999992000102700004+22000+120770FM-12+002499999V0200201N008010075019N0100001N1+02471+01961101621ADDAA199000091GF106991061051008001001001MA1999999101341MD1110171+9999REMSYN066AAXX  27001 59559 32560 60208 10247 20196 30134 40162 51017 86500;EQDQ01  00002PRCP99
0163595590999992000102703004+22000+120770FM-12+002499999V0200401N003010075019N0150001N1+02611+01951101621ADDAA199000091GF106991061051008001001001MA1999999101341MD1410001+9999REMSYN066AAXX  27031 59559 32565 60403 10261 20195 30134 40162 54000 86500;EQDQ01  00002PRCP99
0163595590999992000102706004+22000+120770FM-12+002499999V0200201N014012200019N0200001N1+02791+01971101351ADDAA199000091GF102991021011008001001001MA1999999101071MD1710271+9999REMSYN066AAXX  27061 59559 32570 20214 10279 20197 30107 40135 57027 82100;EQDQ01  00002PRCP99
0163595590999992000102709004+22000+120770FM-12+002499999V0200201N004012200019N0200001N1+02561+01901101421ADDAA199000091GF101991011011008001001001MA1999999101141MD1310071+9999REMSYN066AAXX  27091 59559 32570 10204 10256 20190 30114 40142 53007 81100;EQDQ01  00002PRCP99
0163595590999992000102712004+22000+120770FM-12+002499999V0200101N012012200019N0200001N1+02491+01931101501ADDAA199000091GF101991011011008001001001MA1999999101221MD1010081+9999REMSYN066AAXX  27121 59559 32570 10112 10249 20193 30122 40150 50008 81100;EQDQ01  00002PRCP99
0173595590999992000102715004+22000+120770FM-12+002499999V0200101N007012200019N0200001N1+02511+01811101491ADDAA199000091GA1001+999999999GF100991001001999999001001MA1999999101211MD1510011+9999REMSYN060AAXX  27151 59559 32970 00107 10251 20181 30121 40149 55001;EQDQ01  00002PRCP99
0173595590999992000102718004+22000+120770FM-12+002499999V0200201N012012200019N0200001N1+02461+01841101371ADDAA199000091GA1001+999999999GF100991001001999999001001MA1999999101091MD1810121+9999REMSYN060AAXX  27181 59559 32970 00212 10246 20184 30109 40137 58012;EQDQ01  00002PRCP99
0173595590999992000102721004+22000+120770FM-12+002499999V0200201N003012200019N0200001N1+02411+01881101371ADDAA199000091GA1001+999999999GF100991001001999999001001MA1999999101091MD1410001+9999REMSYN060AAXX  27211 59559 32970 00203 10241 20188 30109 40137 54000;EQDQ01  00002PRCP99
0173595590999992000102800004+22000+120770FM-12+002499999V0203601N012012200019N0250001N1+02691+02081101441ADDAA199000091GA1001+999999999GF100991001001999999001001MA1999999101161MD1010071+9999REMSYN060AAXX  28001 59559 32975 03612 10269 20208 30116 40144 50007;EQDQ01  00002PRCP99
0163595590999992000102803004+22000+120770FM-12+002499999V0200301N005012200019N0250001N1+02951+02211101371ADDAA199000091GF102991021011008001001001MA1999999101101MD1810061+9999REMSYN066AAXX  28031 59559 32575 20305 10295 20221 30110 40137 58006 82100;EQDQ01  00002PRCP99
0163595590999992000102809004+22000+120770FM-12+002499999V0200701N003012200019N0200001N1+02691+02181101111ADDAA199000091GF104991041041008001001001MA1999999100831MD1310091+9999REMSYN066AAXX  28091 59559 32570 40703 10269 20218 30083 40111 53009 84400;EQDQ01  00002PRCP99
0163595590999992000102812004+22000+120770FM-12+002499999V0200301N008012200019N0200001N1+02661+02201101161ADDAA199000091GF102991021051008001001001MA1999999100881MD1210051+9999REMSYN066AAXX  28121 59559 32570 20308 10266 20220 30088 40116 52005 82500;EQDQ01  00002PRCP99
0163595590999992000102815004+22000+120770FM-12+002499999V0200301N006012200019N0200001N1+02661+02201101171ADDAA199000091GF102991021051008001001001MA1999999100891MD1010011+9999REMSYN066AAXX  28151 59559 32570 20306 10266 20220 30089 40117 50001 82500;EQDQ01  00002PRCP99
0163595590999992000102818004+22000+120770FM-12+002499999V0200201N009012200019N0200001N1+02651+02181101001ADDAA199000091GF101991011051008001001001MA1999999100721MD1710171+9999REMSYN066AAXX  28181 59559 32570 10209 10265 20218 30072 40100 57017 81500;EQDQ01  00002PRCP99
0163595590999992000102821004+22000+120770FM-12+002499999V0200401N007012200019N0150001N1+02691+02191100921ADDAA199000091GF103991021011008001001011MA1999999100641MD1510081+9999REMSYN066AAXX  28211 59559 32565 30407 10269 20219 30064 40092 55008 82101;EQDQ01  00002PRCP99
0163595590999992000102900004+22000+120770FM-12+002499999V0200301N006012200019N0250001N1+02891+02311101011ADDAA199000091GF104991021021008001011001MA1999999100741MD1110101+9999REMSYN066AAXX  29001 59559 32575 40306 10289 20231 30074 40101 51010 82210;EQDQ01  00002PRCP99
0178595590999992000102906004+22000+120770FM-12+002499999V0200301N008010075019N0120001N1+02651+02281100831ADDAA106003091AY161061AY221061GF108991081051008001999999MA1999999100551MD1810191+9999MW1021REMSYN078AAXX  29061 59559 11562 80308 10265 20228 30055 40083 58019 60031 70262 885//;
0150595590999992000102909004+22000+120770FM-12+002499999V0200501N005010042019N0120001N1+02591+02141100911ADDAA100003091GF108991081051004501999999MA1999999100631MD1310081+9999REMSYN072AAXX  29091 59559 12462 80505 10259 20214 30063 40091 53008 6003/ 885//;
0150595590999992000102912004+22000+120770FM-12+002499999V0200301N022010075019N0120001N1+02571+02081100921ADDAA112003091GF108991081051008001999999MA1999999100641MD1310011+9999REMSYN072AAXX  29121 59559 12562 80322 10257 20208 30064 40092 53001 60032 885//;
0178595590999992000102915004+22000+120770FM-12+002499999V0200401N011010042019N0100001N1+02371+01991100871ADDAA100001091AY161031AY221031GF108991081061004501999999MA1999999100591MD1810051+9999MW1611REMSYN078AAXX  29151 59559 11460 80411 10237 20199 30059 40087 58005 6001/ 76162 886//;
0178595590999992000102918004+22000+120770FM-12+002499999V0200401N021010075019N0120001N1+02411+02001100691ADDAA106003091AY161061AY221061GF108991081051008001999999MA1999999100411MD1710181+9999MW1021REMSYN078AAXX  29181 59559 11562 80421 10241 20200 30041 40069 57018 60031 70262 885//;
0150595590999992000102921004+22000+120770FM-12+002499999V0200401N015010075019N0120001N1+02371+01921100541ADDAA100003091GF108991081051008001999999MA1999999100261MD1810151+9999REMSYN072AAXX  29211 59559 12562 80415 10237 20192 30026 40054 58015 6003/ 885//;
0150595590999992000103000004+22000+120770FM-12+002499999V0200401N014010075019N0150001N1+02461+01871100631ADDAA112003091GF108991081051008001999999MA1999999100351MD1310091+9999REMSYN072AAXX  30001 59559 12565 80414 10246 20187 30035 40063 53009 60032 885//;
0178595590999992000103003004+22000+120770FM-12+002499999V0200301N018010075019N0150001N1+02351+01851100611ADDAA100000591AY181031AY221031GF108991081051008001999999MA1999999100331MD1810021+9999MW1021REMSYN078AAXX  30031 59559 11565 80318 10235 20185 30033 40061 58002 6995/ 70282 885//;
0178595590999992000103006004+22000+120770FM-12+002499999V0200401N028010075019N0120001N1+02531+01871100461ADDAA106001091AY161061AY221061GF108991081051008001999999MA1999999100181MD1510151+9999MW1021REMSYN078AAXX  30061 59559 11562 80428 10253 20187 30018 40046 55015 60011 70262 885//;
0150595590999992000103009004+22000+120770FM-12+002499999V0200301N011010075019N0150001N1+02471+01991100491ADDAA100001091GF108991081051008001999999MA1999999100211MD1010031+9999REMSYN072AAXX  30091 59559 12565 80311 10247 20199 30021 40049 50003 6001/ 885//;
0150595590999992000103012004+22000+120770FM-12+002499999V0200301N021010075019N0150001N1+02401+01991100591ADDAA112001091GF108991081051008001999999MA1999999100311MD1310101+9999REMSYN072AAXX  30121 59559 12565 80321 10240 20199 30031 40059 53010 60012 885//;
0178595590999992000103015004+22000+120770FM-12+002499999V0200201N008010075019N0100001N1+02381+02111100571ADDAA100002091AY161031AY261031GF108991081051008001999999MA1999999100291MD1810021+9999MW1611REMSYN078AAXX  30151 59559 11560 80208 10238 20211 30029 40057 58002 6002/ 76166 885//;
0178595590999992000103018004+22000+120770FM-12+002499999V0200201N016010075019N0100001N1+02461+02161100311ADDAA106007191AY161061AY221061GF108991081051008001999999MA1999999100031MD1710261+9999MW1211REMSYN078AAXX  30181 59559 11560 80216 10246 20216 30003 40031 57026 60071 72162 885//;
0178595590999992000103021004+22000+120770FM-12+002499999V0200101N005010075019N0100001N1+02361+02221100251ADDAA100035191AY161031AY261031GF108991081071008001999999MA1999999099971MD1810061+9999MW1631REMSYN078AAXX  30211 59559 11560 80105 10236 20222 39997 40025 58006 6035/ 76366 887//;
0178595590999992000103100004+22000+120770FM-12+002499999V0201001N005010042019N0100001N1+02391+02301100341ADDAA112091991AY161061AY261061GF108991081071004501999999MA1999999100061MD1310091+9999MW1651REMSYN078AAXX  31001 59559 11460 81005 10239 20230 30006 40034 53009 60922 76566 887//;
0178595590999992000103103004+22000+120770FM-12+002499999V0200801N007010042019N0100001N1+02581+02431100021ADDAA100061091AY161031AY261031GF108991081071004501999999MA1999999099751MD1810311+9999MW1651REMSYN078AAXX  31031 59559 11460 80807 10258 20243 39975 40002 58031 6061/ 76566 887//;
0178595590999992000103106004+22000+120770FM-12+002499999V0201201N014010075019N0100001N1+02641+02541099671ADDAA106118191AY161061AY261061GF108991081071008001999999MA1999999099401MD1810351+9999MW1641REMSYN078AAXX  31061 59559 11560 81214 10264 20254 39940 49967 58035 61181 76466 887//;
0178595590999992000103109004+22000+120770FM-12+002499999V0201001N006010075019N0100001N1+02761+02461099601ADDAA100122991AY161031AY221031GF108991081051008001999999MA1999999099331MD1810071+9999MW1021REMSYN078AAXX  31091 59559 11560 81006 10276 20246 39933 49960 58007 6123/ 70262 885//;
0178595590999992000103112004+22000+120770FM-12+002499999V0201001N014010075019N0100001N1+02521+02341099311ADDAA112152991AY161061AY261061GF108991081071008001999999MA1999999099041MD1810291+9999MW1621REMSYN078AAXX  31121 59559 11560 81014 10252 20234 39904 49931 58029 61532 76266 887//;
0214595590999992000103115004+22000+120770FM-12+002499999V0200101N009010075019N0100001N1+02511+02351999999ADDAA100004191AY161031AY261031GF108991081071008001999999MD1810952+9999MW1601REMSYN078AAXX  31151 59559 11560 80109 10251 20235 39809 49836 58095 6004/ 76066 887//;EQDQ01+098093APOSP Q02+098363APOSLPQ03+000952APC3  
0213595590999992000103118004+22000+120770FM-12+002499999V0202801N016010075019N0100001N1+02181+02181099111ADDAA106106991AY161061AY261061GF108991081071008001999999MA1999999098831MD1410001+9999MW1631REMSYN078AAXX  31181 59559 11560 82816 10218 20218 39883 49911 53074 61071 76366 887//;EQDQ01+000032APCTENQ02+000742APC3  
0178595590999992000103121004+22000+120770FM-12+002499999V0202901N008010075019N0100001N1+02211+02181099851ADDAA100116191AY161031AY261031GF108991081051008001999999MA1999999099571MD1110741+9999MW1021REMSYN078AAXX  31211 59559 11560 82908 10221 20218 39957 49985 51074 6116/ 70266 885//;
0150595590999992000110100004+22000+120770FM-12+002499999V0203001N012010075019N0100001N1+02121+01711100291ADDAA112116191GF108991081051008001999999MA1999999100011MD1110441+9999REMSYN072AAXX  01001 59559 12560 83012 10212 20171 30001 40029 51044 61162 885//;
0144595590999992000110103004+22000+120770FM-12+002499999V0203201N008010075019N0120001N1+02201+01691100331ADDAA199000021GF108991081051008001999999MA1999999100051MD1010041+9999REMSYN066AAXX  01031 59559 32562 83208 10220 20169 30005 40033 50004 885//;
0144595590999992000110106004+22000+120770FM-12+002499999V0203301N014010900019N0200001N1+02361+01761100321ADDAA199000021GF106991021011008001001021MA1999999100041MD1510011+9999REMSYN066AAXX  01061 59559 32570 63314 10236 20176 30004 40032 55001 82102;
0163595590999992000110109004+22000+120770FM-12+002499999V0203401N004010900019N0200001N1+02231+01721100701ADDAA199000091GF106991021021008001001051MA1999999100421MD1110381+9999REMSYN066AAXX  01091 59559 32570 63404 10223 20172 30042 40070 51038 82205;EQDQ01  00002PRCP99
0163595590999992000110112004+22000+120770FM-12+002499999V0203601N003010900019N0200001N1+02031+01661101101ADDAA199000091GF105991031021008001001021MA1999999100821MD1210401+9999REMSYN066AAXX  01121 59559 32570 53603 10203 20166 30082 40110 52040 83202;EQDQ01  00002PRCP99
0163595590999992000110115004+22000+120770FM-12+002499999V0203501N002010075019N0150001N1+01981+01661101251ADDAA199000091GF106991061051008001001001MA1999999100971MD1110151+9999REMSYN066AAXX  01151 59559 32565 63502 10198 20166 30097 40125 51015 86500;EQDQ01  00002PRCP99
0163595590999992000110118004+22000+120770FM-12+002499999V0203201N005010075019N0100001N1+01961+01741101251ADDAA199000091GF107991071051008001999999MA1999999100971MD1410001+9999REMSYN066AAXX  01181 59559 32560 73205 10196 20174 30097 40125 54000 875//;EQDQ01  00002PRCP99
0178595590999992000110121004+22000+120770FM-12+002499999V0203501N002010075019N0100001N1+02021+01781101321ADDAA100000591AY161031AY221031GF108991081051008001999999MA1999999101041MD1310071+9999MW1021REMSYN078AAXX  01211 59559 11560 83502 10202 20178 30104 40132 53007 6995/ 70262 885//;
0178595590999992000110200004+22000+120770FM-12+002499999V0200201N016010360019N0200001N1+02361+01841101381ADDAA112000591AY161061AY221061GF105991041051008001031001MA1999999101101MD1010061+9999MW1021REMSYN078AAXX  02001 59559 11570 50216 10236 20184 30110 40138 50006 69952 70262 84530;
0163595590999992000110203004+22000+120770FM-12+002499999V0200301N010010075019N0150001N1+02481+01811101321ADDAA199000091GF108991081051008001999999MA1999999101041MD1810061+9999REMSYN066AAXX  02031 59559 32565 80310 10248 20181 30104 40132 58006 885//;EQDQ01  00002PRCP99
0163595590999992000110206004+22000+120770FM-12+002499999V0200301N016010075019N0150001N1+02441+01791101241ADDAA199000091GF108991081051008001999999MA1999999100961MD1510081+9999REMSYN066AAXX  02061 59559 32565 80316 10244 20179 30096 40124 55008 885//;EQDQ01  00002PRCP99
0163595590999992000110209004+22000+120770FM-12+002499999V0200201N008010075019N0150001N1+02351+01731101291ADDAA199000091GF108991081051008001999999MA1999999101011MD1310051+9999REMSYN066AAXX  02091 59559 32565 80208 10235 20173 30101 40129 53005 885//;EQDQ01  00002PRCP99
0163595590999992000110212004+22000+120770FM-12+002499999V0200301N009010075019N0150001N1+02401+01731101461ADDAA199000091GF108991081051008001999999MA1999999101181MD1110171+9999REMSYN066AAXX  02121 59559 32565 80309 10240 20173 30118 40146 51017 885//;EQDQ01  00002PRCP99
0163595590999992000110215004+22000+120770FM-12+002499999V0200301N012010075019N0150001N1+02371+01761101221ADDAA199000091GF108991081051008001999999MA1999999100941MD1810241+9999REMSYN066AAXX  02151 59559 32565 80312 10237 20176 30094 40122 58024 885//;EQDQ01  00002PRCP99
0163595590999992000110218004+22000+120770FM-12+002499999V0200201N007010075019N0150001N1+02331+01771101261ADDAA199000091GF105991051051008001001001MA1999999100981MD1010041+9999REMSYN066AAXX  02181 59559 32565 50207 10233 20177 30098 40126 50004 85500;EQDQ01  00002PRCP99
0163595590999992000110221004+22000+120770FM-12+002499999V0200301N014010075019N0150001N1+02401+01761101141ADDAA199000091GF106991061051008001001001MA1999999100861MD1610121+9999REMSYN066AAXX  02211 59559 32565 60314 10240 20176 30086 40114 56012 86500;EQDQ01  00002PRCP99
0163595590999992000110300004+22000+120770FM-12+002499999V0200301N024010120019N0200001N1+02441+01751101361ADDAA199000091GF106991061051012501001001MA1999999101081MD1110221+9999REMSYN066AAXX  03001 59559 32670 60324 10244 20175 30108 40136 51022 86500;EQDQ01  00002PRCP99
0163595590999992000110306004+22000+120770FM-12+002499999V0200201N018012200019N0200001N1+02641+01961101191ADDAA199000091GF103991021011008001031001MA1999999100911MD1710181+9999REMSYN066AAXX  03061 59559 32570 30218 10264 20196 30091 40119 57018 82130;EQDQ01  00002PRCP99
0163595590999992000110309004+22000+120770FM-12+002499999V0200301N007010120019N0170001N1+02481+01891101261ADDAA199000091GF107991071051012501999999MA1999999100981MD1310071+9999REMSYN066AAXX  03091 59559 32667 70307 10248 20189 30098 40126 53007 875//;EQDQ01  00002PRCP99
0163595590999992000110312004+22000+120770FM-12+002499999V0200501N018010120019N0120001N1+02371+01891101371ADDAA199000091GF108991081051012501999999MA1999999101091MD1010111+9999REMSYN066AAXX  03121 59559 32662 80518 10237 20189 30109 40137 50011 885//;EQDQ01  00002PRCP99
0163595590999992000110315004+22000+120770FM-12+002499999V0200301N009010075019N0100001N1+02351+01921101441ADDAA199000091GF108991081051008001999999MA1999999101161MD1010071+9999REMSYN066AAXX  03151 59559 32560 80309 10235 20192 30116 40144 50007 885//;EQDQ01  00002PRCP99
0163595590999992000110318004+22000+120770FM-12+002499999V0200301N020010075019N0100001N1+02451+01881101151ADDAA199000091GF108991081051008001999999MA1999999100871MD1710291+9999REMSYN066AAXX  03181 59559 32560 80320 10245 20188 30087 40115 57029 885//;EQDQ01  00002PRCP99
0163595590999992000110321004+22000+120770FM-12+002499999V0200201N004010120019N0120001N1+02391+01931101241ADDAA199000091GF107991071051012501999999MA1999999100961MD1310091+9999REMSYN066AAXX  03211 59559 32662 70204 10239 20193 30096 40124 53009 875//;EQDQ01  00002PRCP99
0163595590999992000110400004+22000+120770FM-12+002499999V0200401N011010360019N0200001N1+02591+02031101381ADDAA199000091GF106991031051012501031001MA1999999101101MD1110141+9999REMSYN066AAXX  04001 59559 32670 60411 10259 20203 30110 40138 51014 83530;EQDQ01  00002PRCP99
0163595590999992000110403004+22000+120770FM-12+002499999V0200301N006010360019N0250001N1+02791+02151101341ADDAA199000091GF105991021011008001031001MA1999999101061MD1810041+9999REMSYN066AAXX  04031 59559 32575 50306 10279 20215 30106 40134 58004 82130;EQDQ01  00002PRCP99
0163595590999992000110406004+22000+120770FM-12+002499999V0200401N010010075019N0180001N1+02691+02151101171ADDAA199000091GF108991081051008001999999MA1999999100891MD1710171+9999REMSYN066AAXX  04061 59559 32568 80410 10269 20215 30089 40117 57017 885//;EQDQ01  00002PRCP99
0178595590999992000110409004+22000+120770FM-12+002499999V0201201N001010075019N0120001N1+02451+02201101191ADDAA100001091AY161031AY221031GF108991081051008001999999MA1999999100911MD1310021+9999MW1211REMSYN078AAXX  04091 59559 11562 81201 10245 20220 30091 40119 53002 6999/ 72162 885//;
0178595590999992000110412004+22000+120770FM-12+002499999V0200901N003010120019N0100001N1+02511+02191101261ADDAA112001091AY161061AY221061GF107991071051012501999999MA1999999100981MD1010071+9999MW1211REMSYN078AAXX  04121 59559 11660 70903 10251 20219 30098 40126 50007 60012 72162 875//;
0144595590999992000110415004+22000+120770FM-12+002499999V0200901N002010120019N0100001N1+02511+02181101261ADDAA199000021GF105991051051012501001001MA1999999100981MD1410001+9999REMSYN066AAXX  04151 59559 32660 50902 10251 20218 30098 40126 54000 85500;
0178595590999992000110418004+22000+120770FM-12+002499999V0200401N008010075019N0100001N1+02431+02111101051ADDAA106001091AY161061AY221061GF106991061051008001001001MA1999999100771MD1710211+9999MW1021REMSYN078AAXX  04181 59559 11560 60408 10243 20211 30077 40105 57021 60011 70262 86500;
0150595590999992000110421004+22000+120770FM-12+002499999V0200901N003010075019N0100001N1+02411+02091100981ADDAA100001091GF106991061051008001001001MA1999999100701MD1510071+9999REMSYN072AAXX  04211 59559 12560 60903 10241 20209 30070 40098 55007 6001/ 86500;
0150595590999992000110500004+22000+120770FM-12+002499999V0200501N006010120019N0150001N1+02631+02151101091ADDAA112001091GF107991071051012501001001MA1999999100811MD1210111+9999REMSYN072AAXX  05001 59559 12665 70506 10263 20215 30081 40109 52011 60012 87500;
0163595590999992000110503004+22000+120770FM-12+002499999V0200301N003010120019N0200001N1+02941+02271100991ADDAA199000091GF106991061051012501001001MA1999999100721MD1810091+9999REMSYN066AAXX  05031 59559 32670 60303 10294 20227 30072 40099 58009 86500;EQDQ01  00002PRCP99
0163595590999992000110506004+22000+120770FM-12+002499999V0200801N001010360019N0150001N1+02781+02201100801ADDAA199000091GF108991011011008001021001MA1999999100531MD1710191+9999REMSYN066AAXX  05061 59559 32565 80801 10278 20220 30053 40080 57019 81120;EQDQ01  00002PRCP99
0163595590999992000110509004+22000+120770FM-12+002499999V0201701N001010360019N0150001N1+02621+02201100841ADDAA199000091GF108991021011008001021001MA1999999100561MD1310031+9999REMSYN066AAXX  05091 59559 32565 81701 10262 20220 30056 40084 53003 82120;EQDQ01  00002PRCP99
0163595590999992000110512004+22000+120770FM-12+002499999V0200601N003010360019N0150001N1+02591+02111101011ADDAA199000091GF108991021011008001021001MA1999999100731MD1210171+9999REMSYN066AAXX  05121 59559 32565 80603 10259 20211 30073 40101 52017 82120;EQDQ01  00002PRCP99
0163595590999992000110515004+22000+120770FM-12+002499999V0200501N005010120019N0150001N1+02581+02111100891ADDAA199000091GF106991061051012501001001MA1999999100611MD1810121+9999REMSYN066AAXX  05151 59559 32665 60505 10258 20211 30061 40089 58012 86500;EQDQ01  00002PRCP99
0163595590999992000110518004+22000+120770FM-12+002499999V0200701N006010075019N0150001N1+02581+02111100791ADDAA199000091GF108991081051008001999999MA1999999100511MD1810101+9999REMSYN066AAXX  05181 59559 32565 80706 10258 20211 30051 40079 58010 885//;EQDQ01  00002PRCP99
0163595590999992000110521004+22000+120770FM-12+002499999V0200401N007012200019N0150001N1+02591+02071100711ADDAA199000091GF104991041051008001001001MA1999999100431MD1710081+9999REMSYN066AAXX  05211 59559 32565 40407 10259 20207 30043 40071 57008 84500;EQDQ01  00002PRCP99
0163595590999992000110600004+22000+120770FM-12+002499999V0200501N016010900019N0200001N1+02691+02131100881ADDAA199000091GF108991021011008001001061MA1999999100601MD1310171+9999REMSYN066AAXX  06001 59559 32570 80516 10269 20213 30060 40088 53017 82106;EQDQ01  00002PRCP99
0163595590999992000110603004+22000+120770FM-12+002499999V0200401N008010360019N0200001N1+02841+02231100851ADDAA199000091GF106991031021008001031011MA1999999100581MD1810021+9999REMSYN066AAXX  06031 59559 32570 60408 10284 20223 30058 40085 58002 83231;EQDQ01  00002PRCP99
0163595590999992000110606004+22000+120770FM-12+002499999V0200401N016010360019N0200001N1+02741+02111100721ADDAA199000091GF108991021011008001031011MA1999999100441MD1810141+9999REMSYN066AAXX  06061 59559 32570 80416 10274 20211 30044 40072 58014 82131;EQDQ01  00002PRCP99
0163595590999992000110609004+22000+120770FM-12+002499999V0200601N007012200019N0200001N1+02621+02101100811ADDAA199000091GF105991031051008001001011MA1999999100531MD1310091+9999REMSYN066AAXX  06091 59559 32570 50607 10262 20210 30053 40081 53009 83501;EQDQ01  00002PRCP99
0178595590999992000110612004+22000+120770FM-12+002499999V0200701N004010075019N0100001N1+02421+02101100961ADDAA112006191AY161061AY261061GF108991081071008001999999MA1999999100681MD1210151+9999MW1611REMSYN078AAXX  06121 59559 11560 80704 10242 20210 30068 40096 52015 60062 76166 887//;
0178595590999992000110615004+22000+120770FM-12+002499999V0203501N004010075019N0100001N1+02441+02171101081ADDAA100008991AY161031AY261031GF108991081071008001999999MA1999999100801MD1310121+9999MW1611REMSYN078AAXX  06151 59559 11560 83504 10244 20217 30080 40108 53012 6009/ 76166 887//;
0178595590999992000110618004+22000+120770FM-12+002499999V0200501N011010075019N0100001N1+02471+02151100981ADDAA106021191AY161061AY261061GF108991081071008001999999MA1999999100701MD1510101+9999MW1611REMSYN078AAXX  06181 59559 11560 80511 10247 20215 30070 40098 55010 60211 76166 887//;
0178595590999992000110621004+22000+120770FM-12+002499999V0200501N003010075019N0100001N1+02371+02111101051ADDAA100025991AY161031AY261031GF108991081071008001999999MA1999999100771MD1310071+9999MW1611REMSYN078AAXX  06211 59559 11560 80503 10237 20211 30077 40105 53007 6026/ 76166 887//;
0178595590999992000110700004+22000+120770FM-12+002499999V0200501N006010075019N0200001N1+02421+02101101181ADDAA112029091AY161061AY221061GF106991061051008001001001MA1999999100901MD1210131+9999MW1021REMSYN078AAXX  07001 59559 11570 60506 10242 20210 30090 40118 52013 60292 70262 86500;
0144595590999992000110703004+22000+120770FM-12+002499999V0200601N005010360019N0200001N1+02901+02331101181ADDAA199000021GF105991021011008001041001MA1999999100911MD1010011+9999REMSYN066AAXX  07031 59559 32570 50605 10290 20233 30091 40118 50001 82140;
0144595590999992000110706004+22000+120770FM-12+002499999V0200601N010010075019N0200001N1+02771+02281101031ADDAA199000021GF107991071051008001001001MA1999999100751MD1610161+9999REMSYN066AAXX  07061 59559 32570 70610 10277 20228 30075 40103 56016 87500;
0144595590999992000110709004+22000+120770FM-12+002499999V0200601N002010360019N0200001N1+02651+02221101051ADDAA199000021GF106991041051008001031001MA1999999100771MD1310021+9999REMSYN066AAXX  07091 59559 32570 60602 10265 20222 30077 40105 53002 84530;
0163595590999992000110712004+22000+120770FM-12+002499999V0200801N004010075019N0200001N1+02611+02221101251ADDAA199000091GF106991061051008001001001MA1999999100971MD1110201+9999REMSYN066AAXX  07121 59559 32570 60804 10261 20222 30097 40125 51020 86500;EQDQ01  00002PRCP99
0163595590999992000110715004+22000+120770FM-12+002499999V0209999V001012200019N0200001N1+02611+02221101211ADDAA199000091GF102991021051008001001001MA1999999100931MD1810041+9999REMSYN066AAXX  07151 59559 32570 29901 10261 20222 30093 40121 58004 82500;EQDQ01  00002PRCP99
0163595590999992000110718004+22000+120770FM-12+002499999V0200201N007012200019N0200001N1+02591+02161101081ADDAA199000091GF101991011051008001001001MA1999999100801MD1810131+9999REMSYN066AAXX  07181 59559 32570 10207 10259 20216 30080 40108 58013 81500;EQDQ01  00002PRCP99
0163595590999992000110800004+22000+120770FM-12+002499999V0200101N004010075019N0200001N1+02571+02151101221ADDAA199000091GF107991071051008001999999MA1999999100941MD1110161+9999REMSYN066AAXX  08001 59559 32570 70104 10257 20215 30094 40122 51016 875//;EQDQ01  00002PRCP99
0163595590999992000110803004+22000+120770FM-12+002499999V0200401N004010042019N0100001N1+02801+02241101211ADDAA199000091GF108991081051004501999999MA1999999100931MD1810011+9999REMSYN066AAXX  08031 59559 32460 80404 10280 20224 30093 40121 58001 885//;EQDQ01  00002PRCP99
0178595590999992000110806004+22000+120770FM-12+002499999V0200101N008010360019N0200001N1+02841+02251100901ADDAA106004191AY161061AY221061GF106991031051008001011001MA1999999100631MD1810301+9999MW1021REMSYN078AAXX  08061 59559 11570 60108 10284 20225 30063 40090 58030 60041 70262 83510;
0150595590999992000110809004+22000+120770FM-12+002499999V0203501N003010360019N0150001N1+02681+02301100971ADDAA100004191GF106991011051008001011001MA1999999100691MD1310061+9999REMSYN072AAXX  08091 59559 12565 63503 10268 20230 30069 40097 53006 6004/ 81510;
0150595590999992000110812004+22000+120770FM-12+002499999V0203601N001010360019N0150001N1+02541+02171101111ADDAA112004191GF106991021051008001011001MA1999999100831MD1110141+9999REMSYN072AAXX  08121 59559 12565 63601 10254 20217 30083 40111 51014 60042 82510;
0163595590999992000110815004+22000+120770FM-12+002499999V0209999C000010075019N0150001N1+02431+02181101111ADDAA199000091GF106991061051008001001001MA1999999100831MD1410001+9999REMSYN066AAXX  08151 59559 32565 60000 10243 20218 30083 40111 54000 86500;EQDQ01  00002PRCP99
0163595590999992000110818004+22000+120770FM-12+002499999V0209999C000010075019N0110001N1+02341+02151101011ADDAA199000091GF105991051051008001001001MA1999999100731MD1810101+9999REMSYN066AAXX  08181 59559 32561 50000 10234 20215 30073 40101 58010 85500;EQDQ01  00002PRCP99
0163595590999992000110821004+22000+120770FM-12+002499999V0200401N001010075019N0120001N1+02241+02071100981ADDAA199000091GF106991061051008001001001MA1999999100701MD1510031+9999REMSYN066AAXX  08211 59559 32562 60401 10224 20207 30070 40098 55003 86500;EQDQ01  00002PRCP99
0163595590999992000110900004+22000+120770FM-12+002499999V0209999C000012200019N0120001N1+02481+02261101191ADDAA199000091GF103991011051008001001011MA1999999100911MD1110211+9999REMSYN066AAXX  09001 59559 32562 30000 10248 20226 30091 40119 51021 81501;EQDQ01  00002PRCP99
0163595590999992000110903004+22000+120770FM-12+002499999V0200901N003010075019N0150001N1+02931+02281101161ADDAA199000091GF106991061051008001001001MA1999999100891MD1810021+9999REMSYN066AAXX  09031 59559 32565 60903 10293 20228 30089 40116 58002 86500;EQDQ01  00002PRCP99
0178595590999992000110906004+22000+120770FM-12+002499999V0203401N004010075019N0060001N1+02741+02361101051ADDAA106000591AY161061AY221061GF106991061051008001001001MA1999999100771MD1810121+9999MW1101REMSYN078AAXX  09061 59559 11556 63404 10274 20236 30077 40105 58012 69951 71062 86500;
0150595590999992000110909004+22000+120770FM-12+002499999V0200401N003012200019N0150001N1+02581+02051101121ADDAA100000591GF102991021051008001001001MA1999999100841MD1110071+9999REMSYN072AAXX  09091 59559 12565 20403 10258 20205 30084 40112 51007 6995/ 82500;
0150595590999992000110912004+22000+120770FM-12+002499999V0200301N011012200019N0150001N1+02551+02071101291ADDAA112000591GF102991021011008001001001MA1999999101011MD1110171+9999REMSYN072AAXX  09121 59559 12565 20311 10255 20207 30101 40129 51017 69952 82100;
0163595590999992000110915004+22000+120770FM-12+002499999V0202101N002012200019N0200001N1+02491+02051101411ADDAA199000091GF102991021011008001001001MA1999999101131MD1210121+9999REMSYN066AAXX  09151 59559 32570 22102 10249 20205 30113 40141 52012 82100;EQDQ01  00002PRCP99
0163595590999992000110918004+22000+120770FM-12+002499999V0200201N007012200019N0200001N1+02511+02011101391ADDAA199000091GF102991021011008001001001MA1999999101111MD1510021+9999REMSYN066AAXX  09181 59559 32570 20207 10251 20201 30111 40139 55002 82100;EQDQ01  00002PRCP99
0163595590999992000110921004+22000+120770FM-12+002499999V0203601N004012200019N0150001N1+02471+02031101451ADDAA199000091GF103991031051008001001001MA1999999101171MD1310061+9999REMSYN066AAXX  09211 59559 32565 33604 10247 20203 30117 40145 53006 83500;EQDQ01  00002PRCP99
0163595590999992000111000004+22000+120770FM-12+002499999V0200301N009012200019N0200001N1+02681+02111101611ADDAA199000091GF102991021011008001001011MA1999999101331MD1110161+9999REMSYN066AAXX  10001 59559 32570 20309 10268 20211 30133 40161 51016 82101;EQDQ01  00002PRCP99
0163595590999992000111003004+22000+120770FM-12+002499999V0200401N006012200019N0200001N1+02821+02181101651ADDAA199000091GF102991021011008001001001MA1999999101371MD1010041+9999REMSYN066AAXX  10031 59559 32570 20406 10282 20218 30137 40165 50004 82100;EQDQ01  00002PRCP99
0163595590999992000111006004+22000+120770FM-12+002499999V0200301N008010075019N0150001N1+02851+02181101431ADDAA199000091GF105991051051008001001001MA1999999101151MD1710221+9999REMSYN066AAXX  10061 59559 32565 50308 10285 20218 30115 40143 57022 85500;EQDQ01  00002PRCP99
0163595590999992000111009004+22000+120770FM-12+002499999V0200601N004010075019N0150001N1+02611+02091101471ADDAA199000091GF107991071051008001001001MA1999999101191MD1310041+9999REMSYN066AAXX  10091 59559 32565 70604 10261 20209 30119 40147 53004 87500;EQDQ01  00002PRCP99
0163595590999992000111012004+22000+120770FM-12+002499999V0200301N009010075019N0150001N1+02521+02071101651ADDAA199000091GF107991071051008001001001MA1999999101371MD1310181+9999REMSYN066AAXX  10121 59559 32565 70309 10252 20207 30137 40165 53018 87500;EQDQ01  00002PRCP99
0163595590999992000111015004+22000+120770FM-12+002499999V0200401N008010075019N0150001N1+02521+01971101601ADDAA199000091GF106991061051008001001001MA1999999101321MD1810051+9999REMSYN066AAXX  10151 59559 32565 60408 10252 20197 30132 40160 58005 86500;EQDQ01  00002PRCP99
0163595590999992000111018004+22000+120770FM-12+002499999V0200401N015010075019N0150001N1+02491+01911101521ADDAA199000091GF107991071051008001001001MA1999999101241MD1810081+9999REMSYN066AAXX  10181 59559 32565 70415 10249 20191 30124 40152 58008 87500;EQDQ01  00002PRCP99
0163595590999992000111021004+22000+120770FM-12+002499999V0200301N010010075019N0150001N1+02461+01891101481ADDAA199000091GF106991061051008001001001MA1999999101201MD1510041+9999REMSYN066AAXX  10211 59559 32565 60310 10246 20189 30120 40148 55004 86500;EQDQ01  00002PRCP99
0163595590999992000111100004+22000+120770FM-12+002499999V0200301N021010120019N0180001N1+02511+01871101641ADDAA199000091GF106991061051012501001001MA1999999101361MD1210161+9999REMSYN066AAXX  11001 59559 32668 60321 10251 20187 30136 40164 52016 86500;EQDQ01  00002PRCP99
0163595590999992000111103004+22000+120770FM-12+002499999V0200301N010010120019N0250001N1+02681+01971101531ADDAA199000091GF105991051051012501001001MA1999999101251MD1810111+9999REMSYN066AAXX  11031 59559 32675 50310 10268 20197 30125 40153 58011 85500;EQDQ01  00002PRCP99
0163595590999992000111106004+22000+120770FM-12+002499999V0200301N015010120019N0250001N1+02701+02021101421ADDAA199000091GF105991051081008001001001MA1999999101141MD1810111+9999REMSYN066AAXX  11061 59559 32575 50315 10270 20202 30114 40142 58011 85800;EQDQ01  00002PRCP99
0163595590999992000111109004+22000+120770FM-12+002499999V0200201N008010075019N0200001N1+02421+01921101481ADDAA199000091GF106991061051008001001001MA1999999101201MD1310061+9999REMSYN066AAXX  11091 59559 32570 60208 10242 20192 30120 40148 53006 86500;EQDQ01  00002PRCP99
0163595590999992000111112004+22000+120770FM-12+002499999V0200301N010012200019N0150001N1+02451+01931101631ADDAA199000091GF101991011051012501001001MA1999999101351MD1310151+9999REMSYN066AAXX  11121 59559 32665 10310 10245 20193 30135 40163 53015 81500;EQDQ01  00002PRCP99
0163595590999992000111115004+22000+120770FM-12+002499999V0200201N006012200019N0200001N1+02401+01971101631ADDAA199000091GF102991021051012501001001MA1999999101351MD1410001+9999REMSYN066AAXX  11151 59559 32670 20206 10240 20197 30135 40163 54000 82500;EQDQ01  00002PRCP99
0163595590999992000111118004+22000+120770FM-12+002499999V0200201N012012200019N0200001N1+02341+01961101531ADDAA199000091GF103991031051012501001001MA1999999101251MD1810101+9999REMSYN066AAXX  11181 59559 32670 30212 10234 20196 30125 40153 58010 83500;EQDQ01  00002PRCP99
0163595590999992000111121004+22000+120770FM-12+002499999V0203601N005010900019N0200001N1+02331+01851101471ADDAA199000091GF106991011051008001001071MA1999999101191MD1510061+9999REMSYN066AAXX  11211 59559 32570 63605 10233 20185 30119 40147 55006 81507;EQDQ01  00002PRCP99
0163595590999992000111200004+22000+120770FM-12+002499999V0203401N004010075019N0250001N1+02511+01931101601ADDAA199000091GF107991071051008001001001MA1999999101321MD1210131+9999REMSYN066AAXX  12001 59559 32575 73404 10251 20193 30132 40160 52013 87500;EQDQ01  00002PRCP99
0178595590999992000111203004+22000+120770FM-12+002499999V0200701N003010075019N0100001N1+02341+02081101631ADDAA100005191AY121031AY221031GF108991081071008001999999MA1999999101351MD1010031+9999MW1211REMSYN078AAXX  12031 59559 11560 80703 10234 20208 30135 40163 50003 6005/ 72122 887//;
0178595590999992000111206004+22000+120770FM-12+002499999V0200401N011010075019N0120001N1+02551+02101101411ADDAA106008991AY161061AY221061GF108991081051008001999999MA1999999101131MD1610221+9999MW1021REMSYN078AAXX  12061 59559 11562 80411 10255 20210 30113 40141 56022 60091 70262 885//;
0150595590999992000111209004+22000+120770FM-12+002499999V0200301N008010075019N0150001N1+02411+01891101341ADDAA100008991GF108991081051008001999999MA1999999101061MD1510071+9999REMSYN072AAXX  12091 59559 12565 80308 10241 20189 30106 40134 55007 6009/ 885//;
0150595590999992000111212004+22000+120770FM-12+002499999V0200401N017010075019N0150001N1+02431+01851101511ADDAA112008991GF107991071051008001001001MA1999999101231MD1110171+9999REMSYN072AAXX  12121 59559 12565 70417 10243 20185 30123 40151 51017 60092 87500;
0178595590999992000111215004+22000+120770FM-12+002499999V0200501N011010075019N0100001N1+02301+01881101431ADDAA100000891AY161031AY221031GF108991081071008001999999MA1999999101151MD1810081+9999MW1611REMSYN078AAXX  12151 59559 11560 80511 10230 20188 30115 40143 58008 6997/ 76162 887//;
0178595590999992000111218004+22000+120770FM-12+002499999V0200401N022010075019N0120001N1+02341+01881101331ADDAA106000891AY161061AY221061GF108991081051008001999999MA1999999101051MD1810101+9999MW1021REMSYN078AAXX  12181 59559 11562 80422 10234 20188 30105 40133 58010 69971 70262 885//;
0150595590999992000111221004+22000+120770FM-12+002499999V0200401N009010075019N0120001N1+02371+01881101291ADDAA100000891GF108991081051008001999999MA1999999101011MD1510041+9999REMSYN072AAXX  12211 59559 12562 80409 10237 20188 30101 40129 55004 6997/ 885//;
0150595590999992000111300004+22000+120770FM-12+002499999V0200301N013010075019N0200001N1+02451+01871101481ADDAA112000891GF107991071051008001999999MA1999999101201MD1310191+9999REMSYN072AAXX  13001 59559 12570 70313 10245 20187 30120 40148 53019 69972 875//;
0144595590999992000111303004+22000+120770FM-12+002499999V0200301N007010120019N0250001N1+02661+02001101461ADDAA199000021GF106991061051012501001001MA1999999101181MD1810021+9999REMSYN066AAXX  13031 59559 32675 60307 10266 20200 30118 40146 58002 86500;
0163595590999992000111306004+22000+120770FM-12+002499999V0200201N009010120019N0200001N1+02561+02071101291ADDAA199000091GF107991071051012501999999MA1999999101011MD1710171+9999REMSYN066AAXX  13061 59559 32670 70209 10256 20207 30101 40129 57017 875//;EQDQ01  00002PRCP99
0163595590999992000111309004+22000+120770FM-12+002499999V0203601N004010360019N0200001N1+02481+02041101291ADDAA199000091GF106991031051012501031001MA1999999101011MD1410001+9999REMSYN066AAXX  13091 59559 32670 63604 10248 20204 30101 40129 54000 83530;EQDQ01  00002PRCP99
0163595590999992000111312004+22000+120770FM-12+002499999V0200101N012012200019N0200001N1+02491+02041101401ADDAA199000091GF102991021001999999031001MA1999999101121MD1110111+9999REMSYN066AAXX  13121 59559 32970 20112 10249 20204 30112 40140 51011 82030;EQDQ01  00002PRCP99
0163595590999992000111318004+22000+120770FM-12+002499999V0203201N002012200019N0150001N1+02381+01951101391ADDAA199000091GF102991021001999999031001MA1999999101111MD1510031+9999REMSYN066AAXX  13181 59559 32965 23202 10238 20195 30111 40139 55003 82030;EQDQ01  00002PRCP99
0163595590999992000111321004+22000+120770FM-12+002499999V0203501N001012200019N0150001N1+02281+01931101331ADDAA199000091GF101991011041008001001001MA1999999101051MD1510061+9999REMSYN066AAXX  13211 59559 32565 13501 10228 20193 30105 40133 55006 81400;EQDQ01  00002PRCP99
0163595590999992000111400004+22000+120770FM-12+002499999V0200201N007010120019N0200001N1+02641+02101101441ADDAA199000091GF106991061051012501001001MA1999999101161MD1110111+9999REMSYN066AAXX  14001 59559 32670 60207 10264 20210 30116 40144 51011 86500;EQDQ01  00002PRCP99
0163595590999992000111403004+22000+120770FM-12+002499999V0203601N002012200019N0250001N1+02811+02131101421ADDAA199000091GF102991021011008001001001MA1999999101141MD1810021+9999REMSYN066AAXX  14031 59559 32575 23602 10281 20213 30114 40142 58002 82100;EQDQ01  00002PRCP99
0163595590999992000111406004+22000+120770FM-12+002499999V0200201N011012200019N0250001N1+02861+02181101211ADDAA199000091GF101991011011008001001001MA1999999100931MD1710211+9999REMSYN066AAXX  14061 59559 32575 10211 10286 20218 30093 40121 57021 81100;EQDQ01  00002PRCP99
0163595590999992000111409004+22000+120770FM-12+002499999V0200501N004010360019N0200001N1+02701+02131101271ADDAA199000091GF105991011011008001031001MA1999999100991MD1210061+9999REMSYN066AAXX  14091 59559 32570 50504 10270 20213 30099 40127 52006 81130;EQDQ01  00002PRCP99
0163595590999992000111415004+22000+120770FM-12+002499999V0200101N002012200019N0200001N1+02501+02101101461ADDAA199000091GF102991021051012501001001MA1999999101181MD1010021+9999REMSYN066AAXX  14151 59559 32670 20102 10250 20210 30118 40146 50002 82500;EQDQ01  00002PRCP99
0163595590999992000111418004+22000+120770FM-12+002499999V0200801N004010075019N0150001N1+02491+02091101381ADDAA199000091GF107991071051008001001001MA1999999101101MD1810081+9999REMSYN066AAXX  14181 59559 32565 70804 10249 20209 30110 40138 58008 87500;EQDQ01  00002PRCP99
0163595590999992000111421004+22000+120770FM-12+002499999V0200201N001010120019N0150001N1+02541+02061101321ADDAA199000091GF105991051051012501001001MA1999999101041MD1510061+9999REMSYN066AAXX  14211 59559 32665 50201 10254 20206 30104 40132 55006 85500;EQDQ01  00002PRCP99
0163595590999992000111500004+22000+120770FM-12+002499999V0203401N005012200019N0250001N1+02771+02191101501ADDAA199000091GF101991011011008001001001MA1999999101221MD1210181+9999REMSYN066AAXX  15001 59559 32575 13405 10277 20219 30122 40150 52018 81100;EQDQ01  00002PRCP99
0163595590999992000111503004+22000+120770FM-12+002499999V0200101N004012200019N0250001N1+02951+02331101501ADDAA199000091GF104991041021008001001001MA1999999101221MD1010001+9999REMSYN066AAXX  15031 59559 32575 40104 10295 20233 30122 40150 50000 84200;EQDQ01  00002PRCP99
0163595590999992000111509004+22000+120770FM-12+002499999V0200801N003012200019N0200001N1+02701+02221101351ADDAA199000091GF104991041021008001001001MA1999999101071MD1310021+9999REMSYN066AAXX  15091 59559 32570 40803 10270 20222 30107 40135 53002 84200;EQDQ01  00002PRCP99
0163595590999992000111512004+22000+120770FM-12+002499999V0200801N003010075019N0150001N1+02571+02261101521ADDAA199000091GF107991071051008001999999MA1999999101241MD1110171+9999REMSYN066AAXX  15121 59559 32565 70803 10257 20226 30124 40152 51017 875//;EQDQ01  00002PRCP99
0163595590999992000111515004+22000+120770FM-12+002499999V0200801N004010075019N0150001N1+02601+02221101531ADDAA199000091GF106991061051008001001001MA1999999101251MD1010011+9999REMSYN066AAXX  15151 59559 32565 60804 10260 20222 30125 40153 50001 86500;EQDQ01  00002PRCP99
0163595590999992000111518004+22000+120770FM-12+002499999V0200601N007010075019N0150001N1+02601+02121101461ADDAA199000091GF105991051051008001001001MA1999999101181MD1810071+9999REMSYN066AAXX  15181 59559 32565 50607 10260 20212 30118 40146 58007 85500;EQDQ01  00002PRCP99
0163595590999992000111521004+22000+120770FM-12+002499999V0200101N003012200019N0150001N1+02541+02121101421ADDAA199000091GF103991031021008001001001MA1999999101141MD1510041+9999REMSYN066AAXX  15211 59559 32565 30103 10254 20212 30114 40142 55004 83200;EQDQ01  00002PRCP99
0163595590999992000111600004+22000+120770FM-12+002499999V0200301N007012200019N0200001N1+02731+02221101581ADDAA199000091GF102991021021008001001001MA1999999101301MD1110161+9999REMSYN066AAXX  16001 59559 32570 20307 10273 20222 30130 40158 51016 82200;EQDQ01  00002PRCP99
0163595590999992000111603004+22000+120770FM-12+002499999V0200401N004012200019N0250001N1+02961+02221101501ADDAA199000091GF102991021011008001001001MA1999999101221MD1810081+9999REMSYN066AAXX  16031 59559 32575 20404 10296 20222 30122 40150 58008 82100;EQDQ01  00002PRCP99
0163595590999992000111606004+22000+120770FM-12+002499999V0200301N007012200019N0200001N1+02891+02241101321ADDAA199000091GF104991041011008001001001MA1999999101041MD1710181+9999REMSYN066AAXX  16061 59559 32570 40307 10289 20224 30104 40132 57018 84100;EQDQ01  00002PRCP99
0163595590999992000111609004+22000+120770FM-12+002499999V0200701N004010075019N0180001N1+02701+02231101391ADDAA199000091GF106991061041008001001001MA1999999101111MD1110071+9999REMSYN066AAXX  16091 59559 32568 60704 10270 20223 30111 40139 51007 86400;EQDQ01  00002PRCP99
0163595590999992000111612004+22000+120770FM-12+002499999V0200601N009012200019N0150001N1+02681+02151101541ADDAA199000091GF101991011011008001001001MA1999999101261MD1110151+9999REMSYN066AAXX  16121 59559 32565 10609 10268 20215 30126 40154 51015 81100;EQDQ01  00002PRCP99
0163595590999992000111615004+22000+120770FM-12+002499999V0200501N003012200019N0150001N1+02641+02131101561ADDAA199000091GF102991021041008001001001MA1999999101281MD1010021+9999REMSYN066AAXX  16151 59559 32565 20503 10264 20213 30128 40156 50002 82400;EQDQ01  00002PRCP99
0163595590999992000111618004+22000+120770FM-12+002499999V0200401N007012200019N0150001N1+02591+02121101451ADDAA199000091GF103991031041008001001001MA1999999101171MD1810111+9999REMSYN066AAXX  16181 59559 32565 30407 10259 20212 30117 40145 58011 83400;EQDQ01  00002PRCP99
0163595590999992000111621004+22000+120770FM-12+002499999V0200201N004010075019N0150001N1+02551+02081101441ADDAA199000091GF105991051051008001001001MA1999999101161MD1510011+9999REMSYN066AAXX  16211 59559 32565 50204 10255 20208 30116 40144 55001 85500;EQDQ01  00002PRCP99
0178595590999992000111700004+22000+120770FM-12+002499999V0200201N007010075019N0150001N1+02571+02171101621ADDAA112000591AY121061AY221061GF106991061041008001001001MA1999999101341MD1210181+9999MW1251REMSYN078AAXX  17001 59559 11565 60207 10257 20217 30134 40162 52018 69952 72522 86400;
0144595590999992000111703004+22000+120770FM-12+002499999V0200301N007010075019N0180001N1+02681+02051101571ADDAA199000021GF105991051051008001001001MA1999999101291MD1810051+9999REMSYN066AAXX  17031 59559 32568 50307 10268 20205 30129 40157 58005 85500;
0144595590999992000111706004+22000+120770FM-12+002499999V0200301N019012200019N0200001N1+02661+01981101291ADDAA199000021GF104991041051012501001001MA1999999101011MD1810281+9999REMSYN066AAXX  17061 59559 32670 40319 10266 20198 30101 40129 58028 84500;
0144595590999992000111709004+22000+120770FM-12+002499999V0200401N010012200019N0200001N1+02481+01821101331ADDAA199000021GF103991021051012501001021MA1999999101051MD1210041+9999REMSYN066AAXX  17091 59559 32670 30410 10248 20182 30105 40133 52004 82502;
0144595590999992000111712004+22000+120770FM-12+002499999V0200501N017012200019N0150001N1+02431+01861101511ADDAA199000021GF102991021051012501001001MA1999999101231MD1210181+9999REMSYN066AAXX  17121 59559 32665 20517 10243 20186 30123 40151 52018 82500;
0163595590999992000111715004+22000+120770FM-12+002499999V0200401N009012200019N0150001N1+02441+01821101471ADDAA199000091GF102991021051008001001001MA1999999101191MD1810041+9999REMSYN066AAXX  17151 59559 32565 20409 10244 20182 30119 40147 58004 82500;EQDQ01  00002PRCP99
0163595590999992000111718004+22000+120770FM-12+002499999V0200401N018010075019N0150001N1+02421+01841101451ADDAA199000091GF105991051051008001001001MA1999999101171MD1810021+9999REMSYN066AAXX  17181 59559 32565 50418 10242 20184 30117 40145 58002 85500;EQDQ01  00002PRCP99
0163595590999992000111721004+22000+120770FM-12+002499999V0200301N010012200019N0150001N1+02391+01811101471ADDAA199000091GF102991021011008001001001MA1999999101191MD1010021+9999REMSYN066AAXX  17211 59559 32565 20310 10239 20181 30119 40147 50002 82100;EQDQ01  00002PRCP99
0163595590999992000111800004+22000+120770FM-12+002499999V0200401N019012200019N0180001N1+02471+01851101621ADDAA199000091GF104991041041008001001001MA1999999101341MD1310151+9999REMSYN066AAXX  18001 59559 32568 40419 10247 20185 30134 40162 53015 84400;EQDQ01  00002PRCP99
0163595590999992000111803004+22000+120770FM-12+002499999V0200401N012012200019N0200001N1+02611+01881101531ADDAA199000091GF101991011011008001001001MA1999999101251MD1810091+9999REMSYN066AAXX  18031 59559 32570 10412 10261 20188 30125 40153 58009 81100;EQDQ01  00002PRCP99
0163595590999992000111806004+22000+120770FM-12+002499999V0200401N020012200019N0200001N1+02591+01891101381ADDAA199000091GF104991031021008001011001MA1999999101101MD1610151+9999REMSYN066AAXX  18061 59559 32570 40420 10259 20189 30110 40138 56015 83210;EQDQ01  00002PRCP99
0163595590999992000111809004+22000+120770FM-12+002499999V0200401N010012200019N0200001N1+02441+01831101411ADDAA199000091GF104991031021008001031001MA1999999101131MD1310031+9999REMSYN066AAXX  18091 59559 32570 40410 10244 20183 30113 40141 53003 83230;EQDQ01  00002PRCP99
0163595590999992000111812004+22000+120770FM-12+002499999V0200401N015012200019N0200001N1+02431+01861101541ADDAA199000091GF102991021011008001001001MA1999999101261MD1210131+9999REMSYN066AAXX  18121 59559 32570 20415 10243 20186 30126 40154 52013 82100;EQDQ01  00002PRCP99
0163595590999992000111815004+22000+120770FM-12+002499999V0200301N007012200019N0200001N1+02431+01881101551ADDAA199000091GF102991021011008001001001MA1999999101271MD1310011+9999REMSYN066AAXX  18151 59559 32570 20307 10243 20188 30127 40155 53001 82100;EQDQ01  00002PRCP99
0163595590999992000111818004+22000+120770FM-12+002499999V0200501N010012200019N0200001N1+02441+01911101471ADDAA199000091GF102991021011008001001001MA1999999101191MD1810081+9999REMSYN066AAXX  18181 59559 32570 20510 10244 20191 30119 40147 58008 82100;EQDQ01  00002PRCP99
0163595590999992000111821004+22000+120770FM-12+002499999V0200401N007010360019N0200001N1+02451+01911101411ADDAA199000091GF107991041021008001031001MA1999999101131MD1510061+9999REMSYN066AAXX  18211 59559 32570 70407 10245 20191 30113 40141 55006 84230;EQDQ01  00002PRCP99
0163595590999992000111903004+22000+120770FM-12+002499999V0200501N009012200019N0150001N1+02721+02051101371ADDAA199000091GF104991021011008001031001MA1999999101091MD1810201+9999REMSYN066AAXX  19031 59559 32565 40509 10272 20205 30109 40137 58020 82130;EQDQ01  00002PRCP99
0163595590999992000111906004+22000+120770FM-12+002499999V0200601N008010075019N0200001N1+02771+02111101291ADDAA199000091GF105991051021008001001001MA1999999101011MD1510081+9999REMSYN066AAXX  19061 59559 32570 50608 10277 20211 30101 40129 55008 85200;EQDQ01  00002PRCP99
0163595590999992000111915004+22000+120770FM-12+002499999V0200801N003012200019N0200001N1+02551+02001101361ADDAA199000091GF101991011051008001001001MA1999999101081MD1510011+9999REMSYN066AAXX  19151 59559 32570 10803 10255 20200 30108 40136 55001 81500;EQDQ01  00002PRCP99
0163595590999992000111918004+22000+120770FM-12+002499999V0200501N002010075019N0150001N1+02551+02001101131ADDAA199000091GF105991051051008001001001MA1999999100851MD1710231+9999REMSYN066AAXX  19181 59559 32565 50502 10255 20200 30085 40113 57023 85500;EQDQ01  00002PRCP99
0163595590999992000112003004+22000+120770FM-12+002499999V0203001N002010075019N0100001N1+02721+02211101311ADDAA199000091GF106991061051008001001001MA1999999101031MD1810051+9999REMSYN066AAXX  20031 59559 32560 63002 10272 20221 30103 40131 58005 86500;EQDQ01  00002PRCP99
0191595590999992000112006004+22000+120770FM-12+002499999V0200301N005010075019N0080001N1+02751+02181101121ADDAA199000091AY121061AY221061GF108991081051008001999999MA1999999100841MD1710191+9999MW1051REMSYN072AAXX  20061 59559 31558 80305 10275 20218 30084 40112 57019 70522 885//;EQDQ01  00002PRCP99
0163595590999992000112009004+22000+120770FM-12+002499999V0200301N011010075019N0100001N1+02311+01831101171ADDAA199000091GF108991081051008001999999MA1999999100891MD1310051+9999REMSYN066AAXX  20091 59559 32560 80311 10231 20183 30089 40117 53005 885//;EQDQ01  00002PRCP99
0163595590999992000112012004+22000+120770FM-12+002499999V0200401N026010075019N0100001N1+02231+01681101381ADDAA199000091GF108991081051008001999999MA1999999101101MD1110211+9999REMSYN066AAXX  20121 59559 32560 80426 10223 20168 30110 40138 51021 885//;EQDQ01  00002PRCP99
0178595590999992000112015004+22000+120770FM-12+002499999V0200401N011010075019N0100001N1+02121+01651101391ADDAA100002091AY161031AY221031GF108991081051008001999999MA1999999101111MD1010011+9999MW1211REMSYN078AAXX  20151 59559 11560 80411 10212 20165 30111 40139 50001 6002/ 72162 885//;
0178595590999992000112018004+22000+120770FM-12+002499999V0200301N008010075019N0100001N1+02091+01591101341ADDAA106002091AY161061AY221061GF108991081051008001999999MA1999999101061MD1810051+9999MW1021REMSYN078AAXX  20181 59559 11560 80308 10209 20159 30106 40134 58005 60021 70262 885//;
0150595590999992000112021004+22000+120770FM-12+002499999V0200401N010010075019N0100001N1+02091+01511101391ADDAA100002091GF108991081051008001999999MA1999999101111MD1310051+9999REMSYN072AAXX  20211 59559 12560 80410 10209 20151 30111 40139 53005 6002/ 885//;
0150595590999992000112100004+22000+120770FM-12+002499999V0200401N023010075019N0120001N1+02151+01491101541ADDAA112002091GF107991071051008001999999MA1999999101261MD1110151+9999REMSYN072AAXX  21001 59559 12562 70423 10215 20149 30126 40154 51015 60022 875//;
0144595590999992000112103004+22000+120770FM-12+002499999V0200301N009010075019N0150001N1+02311+01501101561ADDAA199000021GF107991071051008001999999MA1999999101281MD1010021+9999REMSYN066AAXX  21031 59559 32565 70309 10231 20150 30128 40156 50002 875//;
0163595590999992000112106004+22000+120770FM-12+002499999V0200301N017010360019N0200001N1+02381+01601101451ADDAA199000091GF106991011051008001031001MA1999999101171MD1710111+9999REMSYN066AAXX  21061 59559 32570 60317 10238 20160 30117 40145 57011 81530;EQDQ01  00002PRCP99
0163595590999992000112109004+22000+120770FM-12+002499999V0200301N007010150019N0200001N1+02211+01561101551ADDAA199000091GF106991061051017501001001MA1999999101271MD1310101+9999REMSYN066AAXX  21091 59559 32770 60307 10221 20156 30127 40155 53010 86500;EQDQ01  00002PRCP99
0173595590999992000112606004+22000+120770FM-12+002499999V0200401N010012200019N0250001N1+02871+02091101451ADDAA199000091GA1001+999999999GF100991001001999999001001MA1999999101171MD1710201+9999REMSYN060AAXX  26061 59559 32975 00410 10287 20209 30117 40145 57020;EQDQ01  00002PRCP99
0163595590999992000112609004+22000+120770FM-12+002499999V0200301N002012200019N0150001N1+02551+02041101531ADDAA199000091GF102991021051008001001001MA1999999101251MD1310081+9999REMSYN066AAXX  26091 59559 32565 20302 10255 20204 30125 40153 53008 82500;EQDQ01  00002PRCP99
0163595590999992000120203004+22000+120770FM-12+002499999V0200501N007012200019N0120001N1+02581+01921101641ADDAA199000091GF103991031041008001001001MA1999999101361MD1010041+9999REMSYN066AAXX  02031 59559 32562 30507 10258 20192 30136 40164 50004 83400;EQDQ01  00002PRCP99
0163595590999992000120206004+22000+120770FM-12+002499999V0200501N008012200019N0200001N1+02561+01951101401ADDAA199000091GF102991021041008001001001MA1999999101121MD1710241+9999REMSYN066AAXX  02061 59559 32570 20508 10256 20195 30112 40140 57024 82400;EQDQ01  00002PRCP99
0163595590999992000120209004+22000+120770FM-12+002499999V0200801N001010075019N0150001N1+02421+01871101441ADDAA199000091GF106991061051008001001001MA1999999101161MD1310041+9999REMSYN066AAXX  02091 59559 32565 60801 10242 20187 30116 40144 53004 86500;EQDQ01  00002PRCP99
0163595590999992000120212004+22000+120770FM-12+002499999V0200301N002010075019N0120001N1+02411+01881101601ADDAA199000091GF106991061051008001001001MA1999999101321MD1010161+9999REMSYN066AAXX  02121 59559 32562 60302 10241 20188 30132 40160 50016 86500;EQDQ01  00002PRCP99
0163595590999992000120215004+22000+120770FM-12+002499999V0203601N004010075019N0120001N1+02351+01871101581ADDAA199000091GF105991051051008001001001MA1999999101301MD1810021+9999REMSYN066AAXX  02151 59559 32562 53604 10235 20187 30130 40158 58002 85500;EQDQ01  00002PRCP99
0163595590999992000120218004+22000+120770FM-12+002499999V0200101N006010075019N0120001N1+02351+01871101451ADDAA199000091GF107991071041008001001001MA1999999101171MD1710131+9999REMSYN066AAXX  02181 59559 32562 70106 10235 20187 30117 40145 57013 87400;EQDQ01  00002PRCP99
0163595590999992000120221004+22000+120770FM-12+002499999V0200201N005010075019N0150001N1+02311+01801101491ADDAA199000091GF106991061051008001001001MA1999999101211MD1310041+9999REMSYN066AAXX  02211 59559 32565 60205 10231 20180 30121 40149 53004 86500;EQDQ01  00002PRCP99
0163595590999992000120300004+22000+120770FM-12+002499999V0200501N013010360019N0150001N1+02431+01831101531ADDAA199000091GF108991021051008001031999MA1999999101251MD1310041+9999REMSYN066AAXX  03001 59559 32565 80513 10243 20183 30125 40153 53004 8253/;EQDQ01  00002PRCP99
0163595590999992000120303004+22000+120770FM-12+002499999V0200401N005010075019N0120001N1+02541+01911101531ADDAA199000091GF107991071051008001001001MA1999999101251MD1410001+9999REMSYN066AAXX  03031 59559 32562 70405 10254 20191 30125 40153 54000 87500;EQDQ01  00002PRCP99
0163595590999992000120306004+22000+120770FM-12+002499999V0200401N010010360019N0180001N1+02581+01911101311ADDAA199000091GF107991041011008001031001MA1999999101031MD1710221+9999REMSYN066AAXX  03061 59559 32568 70410 10258 20191 30103 40131 57022 84130;EQDQ01  00002PRCP99
0163595590999992000120309004+22000+120770FM-12+002499999V0200501N005010075019N0150001N1+02361+01781101431ADDAA199000091GF108991081051008001999999MA1999999101151MD1310121+9999REMSYN066AAXX  03091 59559 32565 80505 10236 20178 30115 40143 53012 885//;EQDQ01  00002PRCP99
0163595590999992000120312004+22000+120770FM-12+002499999V0203601N007010075019N0150001N1+02261+01791101581ADDAA199000091GF105991051051008001001001MA1999999101301MD1210151+9999REMSYN066AAXX  03121 59559 32565 53607 10226 20179 30130 40158 52015 85500;EQDQ01  00002PRCP99
0163595590999992000120315004+22000+120770FM-12+002499999V0200201N007012200019N0120001N1+02241+01771101561ADDAA199000091GF103991031051008001001001MA1999999101281MD1810021+9999REMSYN066AAXX  03151 59559 32562 30207 10224 20177 30128 40156 58002 83500;EQDQ01  00002PRCP99
0163595590999992000120318004+22000+120770FM-12+002499999V0200101N006010075019N0120001N1+02191+01711101471ADDAA199000091GF106991061051008001001001MA1999999101191MD1610091+9999REMSYN066AAXX  03181 59559 32562 60106 10219 20171 30119 40147 56009 86500;EQDQ01  00002PRCP99
0163595590999992000120321004+22000+120770FM-12+002499999V0200201N004012200019N0150001N1+02211+01641101351ADDAA199000091GF102991021051008001001001MA1999999101071MD1710121+9999REMSYN066AAXX  03211 59559 32565 20204 10221 20164 30107 40135 57012 82500;EQDQ01  00002PRCP99
0163595590999992000120400004+22000+120770FM-12+002499999V0200201N009010360019N0150001N1+02291+01701101561ADDAA199000091GF106991041051008001031001MA1999999101281MD1210211+9999REMSYN066AAXX  04001 59559 32565 60209 10229 20170 30128 40156 52021 84530;EQDQ01  00002PRCP99
0163595590999992000120412004+22000+120770FM-12+002499999V0200401N018012200019N0180001N1+02241+01651101471ADDAA199000091GF102991021051008001001001MA1999999101191MD1110091+9999REMSYN066AAXX  04121 59559 32568 20418 10224 20165 30119 40147 51009 82500;EQDQ01  00002PRCP99
0173595590999992000120415004+22000+120770FM-12+002499999V0200301N008012200019N0150001N1+02231+01601101461ADDAA199000091GA1001+999999999GF100991001001999999001001MA1999999101181MD1810011+9999REMSYN060AAXX  04151 59559 32965 00308 10223 20160 30118 40146 58001;EQDQ01  00002PRCP99
0163595590999992000120418004+22000+120770FM-12+002499999V0203001N002012200019N0150001N1+02111+01571101481ADDAA199000091GF101991011051008001001001MA1999999101201MD1310021+9999REMSYN066AAXX  04181 59559 32565 13002 10211 20157 30120 40148 53002 81500;EQDQ01  00002PRCP99
0173595590999992000120421004+22000+120770FM-12+002499999V0200301N006012200019N0150001N1+02201+01631101411ADDAA199000091GA1001+999999999GF100991001001999999001001MA1999999101131MD1710071+9999REMSYN060AAXX  04211 59559 32965 00306 10220 20163 30113 40141 57007;EQDQ01  00002PRCP99
0173595590999992000120500004+22000+120770FM-12+002499999V0200201N005012200019N0200001N1+02371+01651101651ADDAA199000091GA1001+999999999GF100991001001999999001001MA1999999101371MD1110241+9999REMSYN060AAXX  05001 59559 32970 00205 10237 20165 30137 40165 51024;EQDQ01  00002PRCP99
0163595590999992000120812004+22000+120770FM-12+002499999V0200301N015012200019N0200001N1+02311+01311101481ADDAA199000091GF104991021051008001001081MA1999999101201MD1110071+9999REMSYN066AAXX  08121 59559 32570 40315 10231 20131 30120 40148 51007 82508;EQDQ01  00002PRCP99
0163595590999992000120815004+22000+120770FM-12+002499999V0200301N006010360019N0200001N1+02361+01231101411ADDAA199000091GF105991021051008001011001MA1999999101131MD1810071+9999REMSYN066AAXX  08151 59559 32570 50306 10236 20123 30113 40141 58007 82510;EQDQ01  00002PRCP99
0163595590999992000120818004+22000+120770FM-12+002499999V0200401N011010360019N0200001N1+02261+01591101331ADDAA199000091GF106991011051008001011001MA1999999101051MD1810081+9999REMSYN066AAXX  08181 59559 32570 60411 10226 20159 30105 40133 58008 81510;EQDQ01  00002PRCP99
0163595590999992000120821004+22000+120770FM-12+002499999V0200301N005012200019N0200001N1+02301+01441101381ADDAA199000091GF103991031001999999011001MA1999999101101MD1310051+9999REMSYN066AAXX  08211 59559 32970 30305 10230 20144 30110 40138 53005 83010;EQDQ01  00002PRCP99
0163595590999992000120900004+22000+120770FM-12+002499999V0200101N009010360019N0250001N1+02341+01641101531ADDAA199000091GF106991011051008001071001MA1999999101251MD1110151+9999REMSYN066AAXX  09001 59559 32575 60109 10234 20164 30125 40153 51015 81570;EQDQ01  00002PRCP99
0163595590999992000120903004+22000+120770FM-12+002499999V0200201N005010075019N0200001N1+02521+01801101491ADDAA199000091GF106991061051008001001001MA1999999101211MD1810041+9999REMSYN066AAXX  09031 59559 32570 60205 10252 20180 30121 40149 58004 86500;EQDQ01  00002PRCP99
0163595590999992000120906004+22000+120770FM-12+002499999V0200501N006010075019N0200001N1+02561+01861101261ADDAA199000091GF107991071051008001999999MA1999999100981MD1710231+9999REMSYN066AAXX  09061 59559 32570 70506 10256 20186 30098 40126 57023 875//;EQDQ01  00002PRCP99
0163595590999992000120909004+22000+120770FM-12+002499999V0200601N003010075019N0200001N1+02421+01741101261ADDAA199000091GF107991071051008001999999MA1999999100981MD1410001+9999REMSYN066AAXX  09091 59559 32570 70603 10242 20174 30098 40126 54000 875//;EQDQ01  00002PRCP99
0163595590999992000120912004+22000+120770FM-12+002499999V0200401N009010075019N0200001N1+02421+01761101361ADDAA199000091GF107991071051008001999999MA1999999101081MD1110101+9999REMSYN066AAXX  09121 59559 32570 70409 10242 20176 30108 40136 51010 875//;EQDQ01  00002PRCP99
0163595590999992000120915004+22000+120770FM-12+002499999V0200501N005010075019N0200001N1+02431+01751101421ADDAA199000091GF107991071051008001999999MA1999999101141MD1210061+9999REMSYN066AAXX  09151 59559 32570 70505 10243 20175 30114 40142 52006 875//;EQDQ01  00002PRCP99
0163595590999992000120918004+22000+120770FM-12+002499999V0200501N004010075019N0200001N1+02421+01651101401ADDAA199000091GF107991071051008001001001MA1999999101121MD1510021+9999REMSYN066AAXX  09181 59559 32570 70504 10242 20165 30112 40140 55002 87500;EQDQ01  00002PRCP99
0163595590999992000120921004+22000+120770FM-12+002499999V0209999V001010360019N0200001N1+02391+01641101471ADDAA199000091GF106991021051008001011001MA1999999101191MD1310071+9999REMSYN066AAXX  09211 59559 32570 69901 10239 20164 30119 40147 53007 82510;EQDQ01  00002PRCP99
0163595590999992000121000004+22000+120770FM-12+002499999V0203101N004010360019N0200001N1+02451+01771101621ADDAA199000091GF106991021051008001021001MA1999999101341MD1110151+9999REMSYN066AAXX  10001 59559 32570 63104 10245 20177 30134 40162 51015 82520;EQDQ01  00002PRCP99
0163595590999992000121003004+22000+120770FM-12+002499999V0201201N002010360019N0200001N1+02521+01831101621ADDAA199000091GF107991021051012501021001MA1999999101341MD1410001+9999REMSYN066AAXX  10031 59559 32670 71202 10252 20183 30134 40162 54000 82520;EQDQ01  00002PRCP99
0178595590999992000121006004+22000+120770FM-12+002499999V0200801N004010042019N0100001N1+02111+01911101501ADDAA106018091AY161061AY261061GF108991081071004501999999MA1999999101221MD1710121+9999MW1631REMSYN078AAXX  10061 59559 11460 80804 10211 20191 30122 40150 57012 60181 76366 887//;
0178595590999992000121009004+22000+120770FM-12+002499999V0200801N001010075019N0100001N1+02131+01901101561ADDAA100035191AY161031AY261031GF108991081071008001999999MA1999999101281MD1310061+9999MW1611REMSYN078AAXX  10091 59559 11560 80801 10213 20190 30128 40156 53006 6035/ 76166 887//;
0178595590999992000121012004+22000+120770FM-12+002499999V0200401N006010120019N0150001N1+02311+01881101601ADDAA112036191AY161061AY221061GF105991051051012501001001MA1999999101321MD1310041+9999MW1021REMSYN078AAXX  10121 59559 11665 50406 10231 20188 30132 40160 53004 60362 70262 85500;
0144595590999992000121015004+22000+120770FM-12+002499999V0200401N007010120019N0150001N1+02401+01731101621ADDAA199000021GF108991081051012501999999MA1999999101341MD1310021+9999REMSYN066AAXX  10151 59559 32665 80407 10240 20173 30134 40162 53002 885//;
0144595590999992000121018004+22000+120770FM-12+002499999V0200401N013010120019N0150001N1+02261+01801101631ADDAA199000021GF108991081051012501999999MA1999999101351MD1010011+9999REMSYN066AAXX  10181 59559 32665 80413 10226 20180 30135 40163 50001 885//;
0144595590999992000121021004+22000+120770FM-12+002499999V0200401N010010120019N0150001N1+02291+01731101571ADDAA199000021GF108991081051012501999999MA1999999101291MD1710061+9999REMSYN066AAXX  10211 59559 32665 80410 10229 20173 30129 40157 57006 885//;
0163595590999992000121100004+22000+120770FM-12+002499999V0200401N015010075019N0120001N1+02261+01741101801ADDAA199000091GF108991081051008001999999MA1999999101521MD1210231+9999REMSYN066AAXX  11001 59559 32562 80415 10226 20174 30152 40180 52023 885//;EQDQ01  00002PRCP99
0178595590999992000121103004+22000+120770FM-12+002499999V0200401N009010042019N0100001N1+02071+01711101851ADDAA100004191AY161031AY261031GF108991081071004501999999MA1999999101571MD1010051+9999MW1611REMSYN078AAXX  11031 59559 11460 80409 10207 20171 30157 40185 50005 6004/ 76166 887//;
0178595590999992000121106004+22000+120770FM-12+002499999V0200401N019010075019N0100001N1+02101+01651101631ADDAA106015091AY161061AY221061GF108991081071008001999999MA1999999101351MD1810221+9999MW1601REMSYN078AAXX  11061 59559 11560 80419 10210 20165 30135 40163 58022 60151 76062 887//;
0178595590999992000121109004+22000+120770FM-12+002499999V0200301N010010075019N0150001N1+02181+01651101731ADDAA100016091AY161031AY221031GF108991081051008001999999MA1999999101451MD1110101+9999MW1021REMSYN078AAXX  11091 59559 11565 80310 10218 20165 30145 40173 51010 6016/ 70262 885//;
0178595590999992000121112004+22000+120770FM-12+002499999V0200401N025010075019N0120001N1+02101+01641101761ADDAA112017091AY161061AY221061GF108991081051008001999999MA1999999101481MD1010031+9999MW1211REMSYN078AAXX  11121 59559 11562 80425 10210 20164 30148 40176 50003 60172 72162 885//;
0144595590999992000121115004+22000+120770FM-12+002499999V0200401N011010075019N0150001N1+02111+01551101831ADDAA199000021GF108991081051008001999999MA1999999101551MD1110071+9999REMSYN066AAXX  11151 59559 32565 80411 10211 20155 30155 40183 51007 885//;
0144595590999992000121118004+22000+120770FM-12+002499999V0200401N025010075019N0150001N1+02101+01531101651ADDAA199000021GF108991081051008001999999MA1999999101371MD1810181+9999REMSYN066AAXX  11181 59559 32565 80425 10210 20153 30137 40165 58018 885//;
0144595590999992000121121004+22000+120770FM-12+002499999V0200301N013010075019N0180001N1+02111+01491101621ADDAA199000021GF108991081051008001999999MA1999999101341MD1510031+9999REMSYN066AAXX  11211 59559 32568 80313 10211 20149 30134 40162 55003 885//;
0144595590999992000121200004+22000+120770FM-12+002499999V0200401N020010075019N0180001N1+02121+01531101711ADDAA199000021GF108991081051008001999999MA1999999101431MD1210091+9999REMSYN066AAXX  12001 59559 32568 80420 10212 20153 30143 40171 52009 885//;
0163595590999992000121203004+22000+120770FM-12+002499999V0200401N010010075019N0200001N1+02141+01601101701ADDAA199000091GF108991081051008001999999MA1999999101421MD1810011+9999REMSYN066AAXX  12031 59559 32570 80410 10214 20160 30142 40170 58001 885//;EQDQ01  00002PRCP99
0163595590999992000121206004+22000+120770FM-12+002499999V0200401N018010075019N0200001N1+02231+01591101451ADDAA199000091GF108991081051008001999999MA1999999101171MD1710251+9999REMSYN066AAXX  12061 59559 32570 80418 10223 20159 30117 40145 57025 885//;EQDQ01  00002PRCP99
0163595590999992000121209004+22000+120770FM-12+002499999V0200601N006010075019N0200001N1+02211+01601101561ADDAA199000091GF108991081051008001999999MA1999999101281MD1310111+9999REMSYN066AAXX  12091 59559 32570 80606 10221 20160 30128 40156 53011 885//;EQDQ01  00002PRCP99
0163595590999992000121212004+22000+120770FM-12+002499999V0200201N006010120019N0150001N1+02101+01681101701ADDAA199000091GF107991071051012501001001MA1999999101421MD1110141+9999REMSYN066AAXX  12121 59559 32665 70206 10210 20168 30142 40170 51014 87500;EQDQ01  00002PRCP99
0163595590999992000121215004+22000+120770FM-12+002499999V0200301N005010075019N0150001N1+02161+01621101651ADDAA199000091GF108991081051008001999999MA1999999101371MD1510051+9999REMSYN066AAXX  12151 59559 32565 80305 10216 20162 30137 40165 55005 885//;EQDQ01  00002PRCP99
0163595590999992000121218004+22000+120770FM-12+002499999V0200301N009010075019N0150001N1+02071+01641101501ADDAA199000091GF108991081051008001999999MA1999999101221MD1710151+9999REMSYN066AAXX  12181 59559 32565 80309 10207 20164 30122 40150 57015 885//;EQDQ01  00002PRCP99
0163595590999992000121221004+22000+120770FM-12+002499999V0200201N002010075019N0150001N1+02101+01731101421ADDAA199000091GF107991071051008001001001MA1999999101141MD1810081+9999REMSYN066AAXX  12211 59559 32565 70202 10210 20173 30114 40142 58008 87500;EQDQ01  00002PRCP99
0163595590999992000121300004+22000+120770FM-12+002499999V0200201N006010120019N0200001N1+02251+01791101511ADDAA199000091GF107991071051012501001001MA1999999101231MD1310091+9999REMSYN066AAXX  13001 59559 32670 70206 10225 20179 30123 40151 53009 87500;EQDQ01  00002PRCP99
0163595590999992000121303004+22000+120770FM-12+002499999V0200401N003010075019N0180001N1+02411+01881101391ADDAA199000091GF108991081051008001999999MA1999999101111MD1810121+9999REMSYN066AAXX  13031 59559 32568 80403 10241 20188 30111 40139 58012 885//;EQDQ01  00002PRCP99
0163595590999992000121306004+22000+120770FM-12+002499999V0203501N005010075019N0180001N1+02331+01921101121ADDAA199000091GF108991081051008001999999MA1999999100841MD1810271+9999REMSYN066AAXX  13061 59559 32568 83505 10233 20192 30084 40112 58027 885//;EQDQ01  00002PRCP99
0178595590999992000121312004+22000+120770FM-12+002499999V0203401N004010075019N0080001N1+02031+01851101291ADDAA112008991AY161061AY221061GF108991081071008001999999MA1999999101011MD1010091+9999MW1211REMSYN078AAXX  13121 59559 11558 83404 10203 20185 30101 40129 50009 60092 72162 887//;
0144595590999992000121315004+22000+120770FM-12+002499999V0200501N001010075019N0100001N1+02041+01851101351ADDAA199000021GF108991081051008001999999MA1999999101071MD1010061+9999REMSYN066AAXX  13151 59559 32560 80501 10204 20185 30107 40135 50006 885//;
0144595590999992000121318004+22000+120770FM-12+002499999V0200801N006010075019N0120001N1+02141+01861101291ADDAA199000021GF108991081051008001999999MA1999999101011MD1810061+9999REMSYN066AAXX  13181 59559 32562 80806 10214 20186 30101 40129 58006 885//;
0178595590999992000121321004+22000+120770FM-12+002499999V0203501N002010075019N0100001N1+02081+01821101441ADDAA100004191AY161031AY221031GF108991081051008001999999MA1999999101161MD1110151+9999MW1211REMSYN078AAXX  13211 59559 11560 83502 10208 20182 30116 40144 51015 6004/ 72162 885//;
0178595590999992000121400004+22000+120770FM-12+002499999V0200201N006010075019N0150001N1+02161+01741101581ADDAA112004191AY161061AY221061GF108991081051008001999999MA1999999101301MD1310141+9999MW1021REMSYN078AAXX  14001 59559 11565 80206 10216 20174 30130 40158 53014 60042 70262 885//;
0144595590999992000121403004+22000+120770FM-12+002499999V0200301N007010075019N0180001N1+02241+01781101521ADDAA199000021GF108991081051008001999999MA1999999101241MD1810061+9999REMSYN066AAXX  14031 59559 32568 80307 10224 20178 30124 40152 58006 885//;
0144595590999992000121406004+22000+120770FM-12+002499999V0200201N016010075019N0180001N1+02231+01711101421ADDAA199000021GF108991081051008001999999MA1999999101141MD1610101+9999REMSYN066AAXX  14061 59559 32568 80216 10223 20171 30114 40142 56010 885//;
0144595590999992000121409004+22000+120770FM-12+002499999V0200301N010010075019N0180001N1+02281+01671101591ADDAA199000021GF107991071051008001001001MA1999999101311MD1310171+9999REMSYN066AAXX  14091 59559 32568 70310 10228 20167 30131 40159 53017 87500;
0163595590999992000121412004+22000+120770FM-12+002499999V0200401N021012200019N0150001N1+02221+01621101661ADDAA199000091GF101991011051008001001001MA1999999101381MD1310071+9999REMSYN066AAXX  14121 59559 32565 10421 10222 20162 30138 40166 53007 81500;EQDQ01  00002PRCP99
0163595590999992000121415004+22000+120770FM-12+002499999V0200401N009012200019N0150001N1+02191+01581101671ADDAA199000091GF101991011051008001001001MA1999999101391MD1010011+9999REMSYN066AAXX  14151 59559 32565 10409 10219 20158 30139 40167 50001 81500;EQDQ01  00002PRCP99
0173595590999992000121418004+22000+120770FM-12+002499999V0200401N020012200019N0150001N1+02191+01561101611ADDAA199000091GA1001+999999999GF100991001001999999001001MA1999999101331MD1710061+9999REMSYN060AAXX  14181 59559 32965 00420 10219 20156 30133 40161 57006;EQDQ01  00002PRCP99
0163595590999992000121421004+22000+120770FM-12+002499999V0200301N009012200019N0150001N1+02201+01531101641ADDAA199000091GF101991011051008001001001MA1999999101361MD1310031+9999REMSYN066AAXX  14211 59559 32565 10309 10220 20153 30136 40164 53003 81500;EQDQ01  00002PRCP99
0163595590999992000121500004+22000+120770FM-12+002499999V0200401N019012200019N0200001N1+02321+01661101761ADDAA199000091GF102991011051008001031001MA1999999101481MD1110121+9999REMSYN066AAXX  15001 59559 32570 20419 10232 20166 30148 40176 51012 81530;EQDQ01  00002PRCP99
0163595590999992000121503004+22000+120770FM-12+002499999V0200101N005012200019N0250001N1+02461+01741101841ADDAA199000091GF102991021011008001001011MA1999999101561MD1110081+9999REMSYN066AAXX  15031 59559 32575 20105 10246 20174 30156 40184 51008 82101;EQDQ01  00002PRCP99
0163595590999992000121506004+22000+120770FM-12+002499999V0200201N008010075019N0200001N1+02481+01861101661ADDAA199000091GF107991071051008001001001MA1999999101381MD1710181+9999REMSYN066AAXX  15061 59559 32570 70208 10248 20186 30138 40166 57018 87500;EQDQ01  00002PRCP99
0163595590999992000121509004+22000+120770FM-12+002499999V0200301N004012200019N0180001N1+02391+01811101751ADDAA199000091GF103991031051008001001001MA1999999101471MD1210091+9999REMSYN066AAXX  15091 59559 32568 30304 10239 20181 30147 40175 52009 83500;EQDQ01  00002PRCP99
0163595590999992000121512004+22000+120770FM-12+002499999V0200301N008012200019N0150001N1+02401+01811101751ADDAA199000091GF102991021051008001001001MA1999999101471MD1410001+9999REMSYN066AAXX  15121 59559 32565 20308 10240 20181 30147 40175 54000 82500;EQDQ01  00002PRCP99
0163595590999992000121515004+22000+120770FM-12+002499999V0200201N003010075019N0150001N1+02281+01871101821ADDAA199000091GF107991071051008001001001MA1999999101541MD1110071+9999REMSYN066AAXX  15151 59559 32565 70203 10228 20187 30154 40182 51007 87500;EQDQ01  00002PRCP99
0163595590999992000121518004+22000+120770FM-12+002499999V0200301N011010075019N0150001N1+02321+01821101751ADDAA199000091GF105991051051008001001001MA1999999101471MD1710071+9999REMSYN066AAXX  15181 59559 32565 50311 10232 20182 30147 40175 57007 85500;EQDQ01  00002PRCP99
0163595590999992000121521004+22000+120770FM-12+002499999V0200201N005010075019N0150001N1+02361+01791101741ADDAA199000091GF106991061051008001001001MA1999999101461MD1810011+9999REMSYN066AAXX  15211 59559 32565 60205 10236 20179 30146 40174 58001 86500;EQDQ01  00002PRCP99
0163595590999992000121600004+22000+120770FM-12+002499999V0200301N008010075019N0120001N1+02401+01901101891ADDAA199000091GF106991061051008001001001MA1999999101611MD1210151+9999REMSYN066AAXX  16001 59559 32562 60308 10240 20190 30161 40189 52015 86500;EQDQ01  00002PRCP99
0163595590999992000121603004+22000+120770FM-12+002499999V0200301N006010042019N0180001N1+02561+02061101811ADDAA199000091GF106991061041004501001001MA1999999101531MD1810081+9999REMSYN066AAXX  16031 59559 32468 60306 10256 20206 30153 40181 58008 86400;EQDQ01  00002PRCP99
0163595590999992000121606004+22000+120770FM-12+002499999V0200201N009010075019N0100001N1+02481+02011101581ADDAA199000091GF106991061051008001031001MA1999999101301MD1710231+9999REMSYN066AAXX  16061 59559 32560 60209 10248 20201 30130 40158 57023 86530;EQDQ01  00002PRCP99
0163595590999992000121609004+22000+120770FM-12+002499999V0200201N005010075019N0150001N1+02311+01951101671ADDAA199000091GF107991071051008001999999MA1999999101391MD1110091+9999REMSYN066AAXX  16091 59559 32565 70205 10231 20195 30139 40167 51009 875//;EQDQ01  00002PRCP99
0178595590999992000121612004+22000+120770FM-12+002499999V0200601N009010075019N0100001N1+02241+01961101901ADDAA112004191AY161061AY261061GF108991081051008001999999MA1999999101621MD1110231+9999MW1611REMSYN078AAXX  16121 59559 11560 80609 10224 20196 30162 40190 51023 60042 76166 885//;
0178595590999992000121615004+22000+120770FM-12+002499999V0200701N003010075019N0100001N1+02241+01921101881ADDAA100003091AY161031AY221031GF108991081051008001999999MA1999999101601MD1810021+9999MW1021REMSYN078AAXX  16151 59559 11560 80703 10224 20192 30160 40188 58002 6003/ 70262 885//;
0178595590999992000121618004+22000+120770FM-12+002499999V0200801N002010075019N0100001N1+02221+01841101681ADDAA106003091AY161061AY221061GF108991081051008001999999MA1999999101401MD1810201+9999MW1021REMSYN078AAXX  16181 59559 11560 80802 10222 20184 30140 40168 58020 60031 70262 885//;
0150595590999992000121621004+22000+120770FM-12+002499999V0203501N002010075019N0150001N1+02061+01771101711ADDAA100003091GF108991081051008001999999MA1999999101431MD1010031+9999REMSYN072AAXX  16211 59559 12565 83502 10206 20177 30143 40171 50003 6003/ 885//;
0150595590999992000121700004+22000+120770FM-12+002499999V0202801N002010900019N0200001N1+02461+02021101831ADDAA112003091GF108991031051008001001061MA1999999101551MD1110121+9999REMSYN072AAXX  17001 59559 12570 82802 10246 20202 30155 40183 51012 60032 83506;
0163595590999992000121703004+22000+120770FM-12+002499999V0200301N005010900019N0200001N1+02741+02031101701ADDAA199000091GF107991011011008001001061MA1999999101421MD1810131+9999REMSYN066AAXX  17031 59559 32570 70305 10274 20203 30142 40170 58013 81106;EQDQ01  00002PRCP99
0163595590999992000121706004+22000+120770FM-12+002499999V0200201N007010120019N0200001N1+02711+02011101491ADDAA199000091GF107991071051012501001001MA1999999101211MD1610211+9999REMSYN066AAXX  17061 59559 32670 70207 10271 20201 30121 40149 56021 87500;EQDQ01  00002PRCP99
0178595590999992000121709004+22000+120770FM-12+002499999V0200701N003010042019N0100001N1+02311+02111101531ADDAA100007191AY161031AY221031GF108991081071004501999999MA1999999101251MD1010041+9999MW1611REMSYN078AAXX  17091 59559 11460 80703 10231 20211 30125 40153 50004 6007/ 76162 887//;
0178595590999992000121712004+22000+120770FM-12+002499999V0200701N012010075019N0120001N1+02341+01991101611ADDAA112007191AY161061AY221061GF108991081051008001999999MA1999999101331MD1010081+9999MW1021REMSYN078AAXX  17121 59559 11562 80712 10234 20199 30133 40161 50008 60072 70262 885//;
0144595590999992000121715004+22000+120770FM-12+002499999V0200501N002010120019N0150001N1+02451+01921101551ADDAA199000021GF106991061051012501001001MA1999999101271MD1510061+9999REMSYN066AAXX  17151 59559 32665 60502 10245 20192 30127 40155 55006 86500;
0144595590999992000121718004+22000+120770FM-12+002499999V0203501N006010360019N0150001N1+02301+01911101451ADDAA199000021GF108991021051008001031999MA1999999101171MD1710101+9999REMSYN066AAXX  17181 59559 32565 83506 10230 20191 30117 40145 57010 8253/;
0144595590999992000121721004+22000+120770FM-12+002499999V0203201N003012200019N0150001N1+02331+01901101411ADDAA199000021GF103991031051012501001001MA1999999101131MD1510041+9999REMSYN066AAXX  17211 59559 32665 33203 10233 20190 30113 40141 55004 83500;
0163595590999992000121800004+22000+120770FM-12+002499999V0209999V002012200019N0250001N1+02481+02011101611ADDAA199000091GF101991011051012501001001MA1999999101331MD1210201+9999REMSYN066AAXX  18001 59559 32675 19902 10248 20201 30133 40161 52020 81500;EQDQ01  00002PRCP99
0163595590999992000121803004+22000+120770FM-12+002499999V0200401N002012200019N0250001N1+02771+02121101561ADDAA199000091GF104991041051008001001001MA1999999101281MD1810051+9999REMSYN066AAXX  18031 59559 32575 40402 10277 20212 30128 40156 58005 84500;EQDQ01  00002PRCP99
0163595590999992000121806004+22000+120770FM-12+002499999V0203601N003010075019N0150001N1+02651+02021101291ADDAA199000091GF106991061051008001001001MA1999999101011MD1710271+9999REMSYN066AAXX  18061 59559 32565 63603 10265 20202 30101 40129 57027 86500;EQDQ01  00002PRCP99
0163595590999992000121809004+22000+120770FM-12+002499999V0201101N002010900019N0200001N1+02531+02041101281ADDAA199000091GF105991021011008001001051MA1999999101001MD1510011+9999REMSYN066AAXX  18091 59559 32570 51102 10253 20204 30100 40128 55001 82105;EQDQ01  00002PRCP99
0163595590999992000121812004+22000+120770FM-12+002499999V0200701N008012200019N0200001N1+02511+02061101451ADDAA199000091GF101991011011008001001001MA1999999101171MD1110171+9999REMSYN066AAXX  18121 59559 32570 10708 10251 20206 30117 40145 51017 81100;EQDQ01  00002PRCP99
0163595590999992000121815004+22000+120770FM-12+002499999V0200801N003012200019N0200001N1+02451+02111101591ADDAA199000091GF102991021011008001001001MA1999999101311MD1110141+9999REMSYN066AAXX  18151 59559 32570 20803 10245 20211 30131 40159 51014 82100;EQDQ01  00002PRCP99
0163595590999992000121818004+22000+120770FM-12+002499999V0201201N002012200019N0200001N1+02351+02021101481ADDAA199000091GF102991021011008001001001MA1999999101201MD1810111+9999REMSYN066AAXX  18181 59559 32570 21202 10235 20202 30120 40148 58011 82100;EQDQ01  00002PRCP99
0173595590999992000121821004+22000+120770FM-12+002499999V0200701N001012200019N0200001N1+02351+01951101501ADDAA199000091GA1001+999999999GF100991001001999999001001MA1999999101221MD1310021+9999REMSYN060AAXX  18211 59559 32970 00701 10235 20195 30122 40150 53002;EQDQ01  00002PRCP99
0163595590999992000121900004+22000+120770FM-12+002499999V0201401N001010075019N0150001N1+02421+02031101671ADDAA199000091GF106991061051008001001001MA1999999101391MD1210171+9999REMSYN066AAXX  19001 59559 32565 61401 10242 20203 30139 40167 52017 86500;EQDQ01  00002PRCP99
0178595590999992000121903004+22000+120770FM-12+002499999V0200401N004010360019N0150001N1+02781+02211101631ADDAA100000591AY161031AY221031GF108991041051008001031001MA1999999101351MD1810041+9999MW1021REMSYN078AAXX  19031 59559 11565 80404 10278 20221 30135 40163 58004 6995/ 70262 84530;
0178595590999992000121906004+22000+120770FM-12+002499999V0200701N010010360019N0250001N1+02491+02111101451ADDAA106026991AY161061AY221061GF106991041051008001031001MA1999999101171MD1810181+9999MW1021REMSYN078AAXX  19061 59559 11575 60710 10249 20211 30117 40145 58018 60271 70262 84530;
0150595590999992000121909004+22000+120770FM-12+002499999V0200701N003010900019N0200001N1+02471+02001101411ADDAA100026991GF105991021021008001031081MA1999999101131MD1510041+9999REMSYN072AAXX  19091 59559 12570 50703 10247 20200 30113 40141 55004 6027/ 82238;
0150595590999992000121912004+22000+120770FM-12+002499999V0200801N009012200019N0200001N1+02471+01991101561ADDAA112026991GF103991031051008001001001MA1999999101281MD1310151+9999REMSYN072AAXX  19121 59559 12570 30809 10247 20199 30128 40156 53015 60272 83500;
0163595590999992000121915004+22000+120770FM-12+002499999V0200801N003012200019N0200001N1+02491+02031101591ADDAA199000091GF103991031051008001001001MA1999999101311MD1010031+9999REMSYN066AAXX  19151 59559 32570 30803 10249 20203 30131 40159 50003 83500;EQDQ01  00002PRCP99
0163595590999992000121921004+22000+120770FM-12+002499999V0200701N002010075019N0150001N1+02371+02071101411ADDAA199000091GF105991051051008001001001MA1999999101131MD1510081+9999REMSYN066AAXX  19211 59559 32565 50702 10237 20207 30113 40141 55008 85500;EQDQ01  00002PRCP99
0163595590999992000122000004+22000+120770FM-12+002499999V0203501N002010075019N0200001N1+02531+02111101591ADDAA199000091GF105991051051008001001001MA1999999101311MD1210181+9999REMSYN066AAXX  20001 59559 32570 53502 10253 20211 30131 40159 52018 85500;EQDQ01  00002PRCP99
0163595590999992000122003004+22000+120770FM-12+002499999V0203201N002010075019N0120001N1+02671+02241101521ADDAA199000091GF106991061021008001001001MA1999999101241MD1810071+9999REMSYN066AAXX  20031 59559 32562 63202 10267 20224 30124 40152 58007 86200;EQDQ01  00002PRCP99
0163595590999992000122006004+22000+120770FM-12+002499999V0203201N003010075019N0100001N1+02621+02081101271ADDAA199000091GF108991081051008001999999MA1999999100991MD1710251+9999REMSYN066AAXX  20061 59559 32560 83203 10262 20208 30099 40127 57025 885//;EQDQ01  00002PRCP99
0191595590999992000122009004+22000+120770FM-12+002499999V0203301N003010042019N0030001N1+02391+02091101331ADDAA199000091AY121031AY221031GF108991081061004501999999MA1999999101051MD1310061+9999MW1101REMSYN072AAXX  20091 59559 31430 83303 10239 20209 30105 40133 53006 71022 886//;EQDQ01  00002PRCP99
0191595590999992000122012004+22000+120770FM-12+002499999V0203401N006010042019N0050001N1+02311+02011101411ADDAA199000091AY121061AY221061GF106991061051004501001001MA1999999101131MD1310081+9999MW1101REMSYN072AAXX  20121 59559 31450 63406 10231 20201 30113 40141 53008 71022 86500;EQDQ01  00002PRCP99
0163595590999992000122018004+22000+120770FM-12+002499999V0200301N020012200019N0150001N1+02241+01821101351ADDAA199000091GF103991031051008001001001MA1999999101071MD1810091+9999REMSYN066AAXX  20181 59559 32565 30320 10224 20182 30107 40135 58009 83500;EQDQ01  00002PRCP99
0163595590999992000122021004+22000+120770FM-12+002499999V0200301N009012200019N0150001N1+02201+01671101411ADDAA199000091GF104991041051008001001001MA1999999101131MD1310061+9999REMSYN066AAXX  20211 59559 32565 40309 10220 20167 30113 40141 53006 84500;EQDQ01  00002PRCP99
0163595590999992000122100004+22000+120770FM-12+002499999V0200301N018012200019N0250001N1+02271+01651101601ADDAA199000091GF104991041051008001001001MA1999999101321MD1210191+9999REMSYN066AAXX  21001 59559 32575 40318 10227 20165 30132 40160 52019 84500;EQDQ01  00002PRCP99
0163595590999992000122103004+22000+120770FM-12+002499999V0200201N007010075019N0200001N1+02371+01721101641ADDAA199000091GF106991061051008001001001MA1999999101361MD1010041+9999REMSYN066AAXX  21031 59559 32570 60207 10237 20172 30136 40164 50004 86500;EQDQ01  00002PRCP99
0163595590999992000122106004+22000+120770FM-12+002499999V0200101N006010075019N0200001N1+02371+01701101451ADDAA199000091GF105991051051008001001001MA1999999101171MD1710191+9999REMSYN066AAXX  21061 59559 32570 50106 10237 20170 30117 40145 57019 85500;EQDQ01  00002PRCP99
0163595590999992000122109004+22000+120770FM-12+002499999V0200301N004010360019N0200001N1+02201+01631101481ADDAA199000091GF106991041041008001031001MA1999999101201MD1210031+9999REMSYN066AAXX  21091 59559 32570 60304 10220 20163 30120 40148 52003 84430;EQDQ01  00002PRCP99
0163595590999992000122112004+22000+120770FM-12+002499999V0200401N013010075019N0150001N1+02191+01561101611ADDAA199000091GF106991061051008001001001MA1999999101331MD1310131+9999REMSYN066AAXX  21121 59559 32565 60413 10219 20156 30133 40161 53013 86500;EQDQ01  00002PRCP99
0163595590999992000122115004+22000+120770FM-12+002499999V0200201N006010075019N0150001N1+02111+01541101531ADDAA199000091GF106991061051008001001001MA1999999101251MD1810081+9999REMSYN066AAXX  21151 59559 32565 60206 10211 20154 30125 40153 58008 86500;EQDQ01  00002PRCP99
0163595590999992000122118004+22000+120770FM-12+002499999V0200401N008010075019N0150001N1+02111+01531101421ADDAA199000091GF106991061051008001001001MA1999999101141MD1810111+9999REMSYN066AAXX  21181 59559 32565 60408 10211 20153 30114 40142 58011 86500;EQDQ01  00002PRCP99
0163595590999992000122121004+22000+120770FM-12+002499999V0203501N003010075019N0150001N1+02021+01501101401ADDAA199000091GF105991051051008001001001MA1999999101121MD1510021+9999REMSYN066AAXX  21211 59559 32565 53503 10202 20150 30112 40140 55002 85500;EQDQ01  00002PRCP99
0173595590999992000122200004+22000+120770FM-12+002499999V0203101N003012200019N0250001N1+02171+01561101561ADDAA199000091GA1001+999999999GF100991001001999999001001MA1999999101281MD1310161+9999REMSYN060AAXX  22001 59559 32975 03103 10217 20156 30128 40156 53016;EQDQ01  00002PRCP99
0191595590999992000122203004+22000+120770FM-12+002499999V0203301N003012200019N0060001N1+02311+01731101551ADDAA199000091AY121031AY221031GF103991031021008001001001MA1999999101271MD1810011+9999MW1051REMSYN072AAXX  22031 59559 31556 33303 10231 20173 30127 40155 58001 70522 83200;EQDQ01  00002PRCP99
0191595590999992000122206004+22000+120770FM-12+002499999V0203101N003010075019N0060001N1+02411+01701101291ADDAA199000091AY121061AY221061GF108991081051008001999999MA1999999101011MD1710261+9999MW1051REMSYN072AAXX  22061 59559 31556 83103 10241 20170 30101 40129 57026 70522 885//;EQDQ01  00002PRCP99
0163595590999992000122209004+22000+120770FM-12+002499999V0200301N001010120019N0100001N1+02291+01701101341ADDAA199000091GF108991081051012501999999MA1999999101061MD1310051+9999REMSYN066AAXX  22091 59559 32660 80301 10229 20170 30106 40134 53005 885//;EQDQ01  00002PRCP99
0163595590999992000122212004+22000+120770FM-12+002499999V0203201N003010075019N0100001N1+02171+01741101491ADDAA199000091GF107991071051008001001001MA1999999101211MD1210151+9999REMSYN066AAXX  22121 59559 32560 73203 10217 20174 30121 40149 52015 87500;EQDQ01  00002PRCP99
0163595590999992000122215004+22000+120770FM-12+002499999V0203601N001010075019N0100001N1+02161+01721101481ADDAA199000091GF108991081051008001999999MA1999999101201MD1810011+9999REMSYN066AAXX  22151 59559 32560 83601 10216 20172 30120 40148 58001 885//;EQDQ01  00002PRCP99
0163595590999992000122218004+22000+120770FM-12+002499999V0203301N003010075019N0100001N1+02061+01761101461ADDAA199000091GF107991071051008001001001MA1999999101181MD1810021+9999REMSYN066AAXX  22181 59559 32560 73303 10206 20176 30118 40146 58002 87500;EQDQ01  00002PRCP99
0163595590999992000122221004+22000+120770FM-12+002499999V0203401N004010075019N0100001N1+02151+01611101371ADDAA199000091GF107991071051008001001001MA1999999101091MD1610091+9999REMSYN066AAXX  22211 59559 32560 73404 10215 20161 30109 40137 56009 87500;EQDQ01  00002PRCP99
0163595590999992000122300004+22000+120770FM-12+002499999V0200201N016010075019N0200001N1+02231+01651101501ADDAA199000091GF106991061051008001001001MA1999999101221MD1210131+9999REMSYN066AAXX  23001 59559 32570 60216 10223 20165 30122 40150 52013 86500;EQDQ01  00002PRCP99
0163595590999992000122303004+22000+120770FM-12+002499999V0200301N008012200019N0200001N1+02411+01701101511ADDAA199000091GF102991021041008001001001MA1999999101231MD1010011+9999REMSYN066AAXX  23031 59559 32570 20308 10241 20170 30123 40151 50001 82400;EQDQ01  00002PRCP99
0163595590999992000122306004+22000+120770FM-12+002499999V0200301N021012200019N0200001N1+02371+01621101371ADDAA199000091GF102991021021008001001001MA1999999101091MD1710141+9999REMSYN066AAXX  23061 59559 32570 20321 10237 20162 30109 40137 57014 82200;EQDQ01  00002PRCP99
0163595590999992000122309004+22000+120770FM-12+002499999V0200301N010012200019N0200001N1+02191+01531101431ADDAA199000091GF102991021021008001001001MA1999999101151MD1310061+9999REMSYN066AAXX  23091 59559 32570 20310 10219 20153 30115 40143 53006 82200;EQDQ01  00002PRCP99
0163595590999992000122312004+22000+120770FM-12+002499999V0200401N018012200019N0200001N1+02131+01451101561ADDAA199000091GF101991011051008001001001MA1999999101281MD1310131+9999REMSYN066AAXX  23121 59559 32570 10418 10213 20145 30128 40156 53013 81500;EQDQ01  00002PRCP99
0163595590999992000122315004+22000+120770FM-12+002499999V0200401N012012200019N0200001N1+02101+01311101631ADDAA199000091GF101991011051008001001001MA1999999101351MD1010071+9999REMSYN066AAXX  23151 59559 32570 10412 10210 20131 30135 40163 50007 81500;EQDQ01  00002PRCP99
0173595590999992000122318004+22000+120770FM-12+002499999V0200401N021012200019N0200001N1+02071+01211101561ADDAA199000091GA1001+999999999GF100991001001999999001001MA1999999101281MD1810071+9999REMSYN060AAXX  23181 59559 32970 00421 10207 20121 30128 40156 58007;EQDQ01  00002PRCP99
0163595590999992000122321004+22000+120770FM-12+002499999V0200401N011012200019N0200001N1+02051+01161101601ADDAA199000091GF101991011051008001001001MA1999999101321MD1210041+9999REMSYN066AAXX  23211 59559 32570 10411 10205 20116 30132 40160 52004 81500;EQDQ01  00002PRCP99
0163595590999992000122400004+22000+120770FM-12+002499999V0200401N024012200019N0200001N1+02131+01191101741ADDAA199000091GF101991011051008001001001MA1999999101461MD1210141+9999REMSYN066AAXX  24001 59559 32570 10424 10213 20119 30146 40174 52014 81500;EQDQ01  00002PRCP99
0163595590999992000122403004+22000+120770FM-12+002499999V0200301N010012200019N0250001N1+02311+01381101761ADDAA199000091GF101991011051008001001001MA1999999101481MD1010021+9999REMSYN066AAXX  24031 59559 32575 10310 10231 20138 30148 40176 50002 81500;EQDQ01  00002PRCP99
0163595590999992000122406004+22000+120770FM-12+002499999V0200201N006012200019N0250001N1+02411+01481101691ADDAA199000091GF101991011051008001001001MA1999999101411MD1810071+9999REMSYN066AAXX  24061 59559 32575 10206 10241 20148 30141 40169 58007 81500;EQDQ01  00002PRCP99
0163595590999992000122409004+22000+120770FM-12+002499999V0200501N004012200019N0200001N1+02211+01421101731ADDAA199000091GF102991021051008001001001MA1999999101451MD1310041+9999REMSYN066AAXX  24091 59559 32570 20504 10221 20142 30145 40173 53004 82500;EQDQ01  00002PRCP99
0163595590999992000122412004+22000+120770FM-12+002499999V0200401N008012200019N0200001N1+02161+01411101771ADDAA199000091GF101991011051008001001001MA1999999101491MD1310041+9999REMSYN066AAXX  24121 59559 32570 10408 10216 20141 30149 40177 53004 81500;EQDQ01  00002PRCP99
0163595590999992000122415004+22000+120770FM-12+002499999V0200301N005012200019N0200001N1+02181+01401101871ADDAA199000091GF102991021051008001001001MA1999999101591MD1010101+9999REMSYN066AAXX  24151 59559 32570 20305 10218 20140 30159 40187 50010 82500;EQDQ01  00002PRCP99
0163595590999992000122418004+22000+120770FM-12+002499999V0200301N007012200019N0200001N1+02131+01321101791ADDAA199000091GF102991021051008001001001MA1999999101511MD1810081+9999REMSYN066AAXX  24181 59559 32570 20307 10213 20132 30151 40179 58008 82500;EQDQ01  00002PRCP99
0163595590999992000122421004+22000+120770FM-12+002499999V0200201N004012200019N0200001N1+02091+01311101811ADDAA199000091GF102991021051008001001001MA1999999101531MD1310021+9999REMSYN066AAXX  24211 59559 32570 20204 10209 20131 30153 40181 53002 82500;EQDQ01  00002PRCP99
0163595590999992000122500004+22000+120770FM-12+002499999V0200201N004012200019N0200001N1+02211+01351101961ADDAA199000091GF102991021011008001001001MA1999999101681MD1210151+9999REMSYN066AAXX  25001 59559 32570 20204 10221 20135 30168 40196 52015 82100;EQDQ01  00002PRCP99
0163595590999992000122503004+22000+120770FM-12+002499999V0200301N009012200019N0200001N1+02381+01511101941ADDAA199000091GF101991011011008001001001MA1999999101661MD1510021+9999REMSYN066AAXX  25031 59559 32570 10309 10238 20151 30166 40194 55002 81100;EQDQ01  00002PRCP99
0163595590999992000122506004+22000+120770FM-12+002499999V0200301N014012200019N0150001N1+02461+01531101781ADDAA199000091GF102991021011008001001001MA1999999101501MD1710161+9999REMSYN066AAXX  25061 59559 32565 20314 10246 20153 30150 40178 57016 82100;EQDQ01  00002PRCP99
0163595590999992000122509004+22000+120770FM-12+002499999V0200501N006012200019N0150001N1+02261+01451101841ADDAA199000091GF102991021011008001001001MA1999999101561MD1210061+9999REMSYN066AAXX  25091 59559 32565 20506 10226 20145 30156 40184 52006 82100;EQDQ01  00002PRCP99
0163595590999992000122512004+22000+120770FM-12+002499999V0200301N013012200019N0150001N1+02191+01461101991ADDAA199000091GF102991021011008001001001MA1999999101711MD1210151+9999REMSYN066AAXX  25121 59559 32565 20313 10219 20146 30171 40199 52015 82100;EQDQ01  00002PRCP99
0163595590999992000122515004+22000+120770FM-12+002499999V0200201N006012200019N0150001N1+02161+01511102001ADDAA199000091GF102991021011008001001001MA1999999101721MD1010011+9999REMSYN066AAXX  25151 59559 32565 20206 10216 20151 30172 40200 50001 82100;EQDQ01  00002PRCP99
0163595590999992000122518004+22000+120770FM-12+002499999V0200301N014010075019N0150001N1+02131+01461101921ADDAA199000091GF105991051051008001001001MA1999999101641MD1710081+9999REMSYN066AAXX  25181 59559 32565 50314 10213 20146 30164 40192 57008 85500;EQDQ01  00002PRCP99
0173595590999992000122521004+22000+120770FM-12+002499999V0200401N008012200019N0150001N1+02111+01401101921ADDAA199000091GA1001+999999999GF100991001001999999001001MA1999999101641MD1410001+9999REMSYN060AAXX  25211 59559 32965 00408 10211 20140 30164 40192 54000;EQDQ01  00002PRCP99
0163595590999992000122600004+22000+120770FM-12+002499999V0200301N013012200019N0100001N1+02161+01501102041ADDAA199000091GF103991031021008001001001MA1999999101761MD1310121+9999REMSYN066AAXX  26001 59559 32560 30313 10216 20150 30176 40204 53012 83200;EQDQ01  00002PRCP99
0163595590999992000122603004+22000+120770FM-12+002499999V0200301N007012200019N0120001N1+02401+01641102011ADDAA199000091GF103991031021008001001001MA1999999101731MD1810031+9999REMSYN066AAXX  26031 59559 32562 30307 10240 20164 30173 40201 58003 83200;EQDQ01  00002PRCP99
0179595590999992000122609004+22000+120770FM-12+002499999V0200501N008012200019N0150001N1+02241+01511101861ADDAA199000091GF102991999051008001001001MA1999999101581MD1310011+9999REMSYN066AAXX  26091 59559 32565 20508 10224 20151 30158 40186 53001 81500;EQDQ01+000012SCOTLCQ02  00002PRCP99
0163595590999992000122612004+22000+120770FM-12+002499999V0200501N014010075019N0100001N1+02191+01561102031ADDAA199000091GF105991051051008001001001MA1999999101751MD1310171+9999REMSYN066AAXX  26121 59559 32560 50514 10219 20156 30175 40203 53017 85500;EQDQ01  00002PRCP99
0163595590999992000122615004+22000+120770FM-12+002499999V0200601N008010075019N0100001N1+02071+01591101951ADDAA199000091GF106991061051008001001001MA1999999101671MD1810081+9999REMSYN066AAXX  26151 59559 32560 60608 10207 20159 30167 40195 58008 86500;EQDQ01  00002PRCP99
0163595590999992000122618004+22000+120770FM-12+002499999V0200401N014012200019N0100001N1+02111+01501101861ADDAA199000091GF102991021051008001001001MA1999999101581MD1510091+9999REMSYN066AAXX  26181 59559 32560 20414 10211 20150 30158 40186 55009 82500;EQDQ01  00002PRCP99
0163595590999992000122621004+22000+120770FM-12+002499999V0200401N010010075019N0100001N1+02061+01531101821ADDAA199000091GF106991061051008001001001MA1999999101541MD1510041+9999REMSYN066AAXX  26211 59559 32560 60410 10206 20153 30154 40182 55004 86500;EQDQ01  00002PRCP99
0163595590999992000122700004+22000+120770FM-12+002499999V0200401N017010075019N0150001N1+02161+01451101931ADDAA199000091GF106991061051008001001001MA1999999101651MD1310111+9999REMSYN066AAXX  27001 59559 32565 60417 10216 20145 30165 40193 53011 86500;EQDQ01  00002PRCP99
0163595590999992000122703004+22000+120770FM-12+002499999V0200501N007010075019N0200001N1+02301+01651101931ADDAA199000091GF106991061051008001001001MA1999999101651MD1410001+9999REMSYN066AAXX  27031 59559 32570 60507 10230 20165 30165 40193 54000 86500;EQDQ01  00002PRCP99
0163595590999992000122706004+22000+120770FM-12+002499999V0200401N013010075019N0150001N1+02201+01571101741ADDAA199000091GF108991081051008001999999MA1999999101461MD1710191+9999REMSYN066AAXX  27061 59559 32565 80413 10220 20157 30146 40174 57019 885//;EQDQ01  00002PRCP99
0163595590999992000122709004+22000+120770FM-12+002499999V0200501N004010075019N0150001N1+02161+01601101751ADDAA199000091GF107991071051008001001001MA1999999101471MD1310011+9999REMSYN066AAXX  27091 59559 32565 70504 10216 20160 30147 40175 53001 87500;EQDQ01  00002PRCP99
0163595590999992000122712004+22000+120770FM-12+002499999V0200401N014010075019N0120001N1+02161+01611101811ADDAA199000091GF108991081051008001999999MA1999999101531MD1310061+9999REMSYN066AAXX  27121 59559 32562 80414 10216 20161 30153 40181 53006 885//;EQDQ01  00002PRCP99
0163595590999992000122715004+22000+120770FM-12+002499999V0200401N005010075019N0100001N1+02181+01581101831ADDAA199000091GF107991071051008001001001MA1999999101551MD1010021+9999REMSYN066AAXX  27151 59559 32560 70405 10218 20158 30155 40183 50002 87500;EQDQ01  00002PRCP99
0163595590999992000122718004+22000+120770FM-12+002499999V0200101N008010075019N0120001N1+02151+01581101761ADDAA199000091GF108991081051008001999999MA1999999101481MD1710071+9999REMSYN066AAXX  27181 59559 32562 80108 10215 20158 30148 40176 57007 885//;EQDQ01  00002PRCP99
0163595590999992000122721004+22000+120770FM-12+002499999V0200301N004010075019N0150001N1+02141+01531101711ADDAA199000091GF107991071051008001001001MA1999999101431MD1510051+9999REMSYN066AAXX  27211 59559 32565 70304 10214 20153 30143 40171 55005 87500;EQDQ01  00002PRCP99
0163595590999992000122800004+22000+120770FM-12+002499999V0200401N014010075019N0120001N1+02151+01651101751ADDAA199000091GF108991081051008001999999MA1999999101471MD1310041+9999REMSYN066AAXX  28001 59559 32562 80414 10215 20165 30147 40175 53004 885//;EQDQ01  00002PRCP99
0163595590999992000122803004+22000+120770FM-12+002499999V0200401N009010120019N0200001N1+02421+01661101691ADDAA199000091GF106991061051012501001001MA1999999101411MD1810061+9999REMSYN066AAXX  28031 59559 32670 60409 10242 20166 30141 40169 58006 86500;EQDQ01  00002PRCP99
0163595590999992000122806004+22000+120770FM-12+002499999V0200401N012010075019N0180001N1+02391+01721101511ADDAA199000091GF108991081051008001999999MA1999999101231MD1710181+9999REMSYN066AAXX  28061 59559 32568 80412 10239 20172 30123 40151 57018 885//;EQDQ01  00002PRCP99
0163595590999992000122809004+22000+120770FM-12+002499999V0200401N003010360019N0150001N1+02281+01671101581ADDAA199000091GF108991041051008001051001MA1999999101301MD1110071+9999REMSYN066AAXX  28091 59559 32565 80403 10228 20167 30130 40158 51007 84550;EQDQ01  00002PRCP99
0163595590999992000122812004+22000+120770FM-12+002499999V0200301N011010075019N0150001N1+02261+01651101591ADDAA199000091GF107991071051008001999999MA1999999101311MD1010011+9999REMSYN066AAXX  28121 59559 32565 70311 10226 20165 30131 40159 50001 875//;EQDQ01  00002PRCP99
0163595590999992000122815004+22000+120770FM-12+002499999V0200301N007010075019N0150001N1+02221+01681101511ADDAA199000091GF106991061051008001001001MA1999999101231MD1810081+9999REMSYN066AAXX  28151 59559 32565 60307 10222 20168 30123 40151 58008 86500;EQDQ01  00002PRCP99
0163595590999992000122818004+22000+120770FM-12+002499999V0200201N015010075019N0150001N1+02231+01631101421ADDAA199000091GF106991061051008001001001MA1999999101141MD1810091+9999REMSYN066AAXX  28181 59559 32565 60215 10223 20163 30114 40142 58009 86500;EQDQ01  00002PRCP99
0163595590999992000122821004+22000+120770FM-12+002499999V0200401N007010075019N0150001N1+02191+01611101371ADDAA199000091GF107991071051008001999999MA1999999101091MD1510051+9999REMSYN066AAXX  28211 59559 32565 70407 10219 20161 30109 40137 55005 875//;EQDQ01  00002PRCP99
0163595590999992000122900004+22000+120770FM-12+002499999V0200401N019010360019N0150001N1+02241+01611101461ADDAA199000091GF108991021011008001041001MA1999999101181MD1210091+9999REMSYN066AAXX  29001 59559 32565 80419 10224 20161 30118 40146 52009 82140;EQDQ01  00002PRCP99
0163595590999992000122903004+22000+120770FM-12+002499999V0200301N010010075019N0150001N1+02341+01681101421ADDAA199000091GF108991081051008001999999MA1999999101141MD1810041+9999REMSYN066AAXX  29031 59559 32565 80310 10234 20168 30114 40142 58004 885//;EQDQ01  00002PRCP99
0163595590999992000122906004+22000+120770FM-12+002499999V0200201N006010360019N0150001N1+02471+01721101291ADDAA199000091GF106991021041008001031001MA1999999101011MD1710131+9999REMSYN066AAXX  29061 59559 32565 60206 10247 20172 30101 40129 57013 82430;EQDQ01  00002PRCP99
0163595590999992000122909004+22000+120770FM-12+002499999V0200201N003010360019N0150001N1+02291+01701101301ADDAA199000091GF106991021011008001021001MA1999999101021MD1310011+9999REMSYN066AAXX  29091 59559 32565 60203 10229 20170 30102 40130 53001 82120;EQDQ01  00002PRCP99
0163595590999992000122912004+22000+120770FM-12+002499999V0200201N007010360019N0150001N1+02231+01711101401ADDAA199000091GF106991021011008001021001MA1999999101121MD1110101+9999REMSYN066AAXX  29121 59559 32565 60207 10223 20171 30112 40140 51010 82120;EQDQ01  00002PRCP99
0163595590999992000122915004+22000+120770FM-12+002499999V0200201N003012200019N0200001N1+02231+01701101351ADDAA199000091GF103991031001999999021001MA1999999101071MD1810051+9999REMSYN066AAXX  29151 59559 32970 30203 10223 20170 30107 40135 58005 83020;EQDQ01  00002PRCP99
0178595590999992000122918004+22000+120770FM-12+002499999V0200201N005019999999N0200001N1+02061+01661101241ADDAA106000591AY161061AY221061GF106991061001999999021001MA1999999100961MD1810111+9999MW1211REMSYN078AAXX  29181 59559 11970 60205 10206 20166 30096 40124 58011 69951 72162 86020;
0150595590999992000122921004+22000+120770FM-12+002499999V0209999C000019999999N0150001N1+02091+01671101171ADDAA100000591GF106991061001999999021001MA1999999100891MD1510071+9999REMSYN072AAXX  29211 59559 12965 60000 10209 20167 30089 40117 55007 6995/ 86020;
0150595590999992000123000004+22000+120770FM-12+002499999V0203601N002019999999N0120001N1+02141+01731101201ADDAA112000591GF107991071001999999021999MA1999999100921MD1010031+9999REMSYN072AAXX  30001 59559 12962 73602 10214 20173 30092 40120 50003 69952 8702/;
0172595590999992000123003004+22000+120770FM-12+002499999V0203301N001019999999N0080001N1+02361+01911101111ADDAA199000021AY121031AY221031GF108991081001999999021999MA1999999100831MD1810091+9999MW1101REMSYN072AAXX  30031 59559 31958 83301 10236 20191 30083 40111 58009 71022 8802/;
0172595590999992000123006004+22000+120770FM-12+002499999V0203401N003010075019N0080001N1+02421+01881100851ADDAA199000021AY121061AY221061GF108991081051008001999999MA1999999100571MD1710261+9999MW1051REMSYN072AAXX  30061 59559 31558 83403 10242 20188 30057 40085 57026 70522 885//;
0163595590999992000123009004+22000+120770FM-12+002499999V0201201N001010360019N0150001N1+02311+01851100871ADDAA199000091GF108991011011000251021001MA1999999100591MD1310021+9999REMSYN066AAXX  30091 59559 32065 81201 10231 20185 30059 40087 53002 81120;EQDQ01  00002PRCP99
0163595590999992000123012004+22000+120770FM-12+002499999V0200201N005010075019N0150001N1+02211+01801101011ADDAA199000091GF106991061051008001001001MA1999999100731MD1210141+9999REMSYN066AAXX  30121 59559 32565 60205 10221 20180 30073 40101 52014 86500;EQDQ01  00002PRCP99
0178595590999992000123015004+22000+120770FM-12+002499999V0200101N003010075019N0100001N1+02101+01661100971ADDAA100000791AY151031AY221031GF107991071051008001999999MA1999999100691MD1810041+9999MW1511REMSYN078AAXX  30151 59559 11560 70103 10210 20166 30069 40097 58004 6990/ 75152 875//;
0178595590999992000123018004+22000+120770FM-12+002499999V0209999C000012200019N0150001N1+01941+01621100981ADDAA106000791AY151061AY221061GF102991021011008001001001MA1999999100701MD1010011+9999MW1011REMSYN078AAXX  30181 59559 11565 20000 10194 20162 30070 40098 50001 69901 70152 82100;
0160595590999992000123021004+22000+120770FM-12+002499999V0203401N001012200019N0150001N1+01811+01551101001ADDAA100000791GA1001+999999999GF100991001001999999001001MA1999999100721MD1310021+9999REMSYN066AAXX  30211 59559 12965 03401 10181 20155 30072 40100 53002 6990/;
0150595590999992000123100004+22000+120770FM-12+002499999V0203501N002012200019N0100001N1+01851+01561101201ADDAA112000791GF102991021011008001001001MA1999999100921MD1110201+9999REMSYN072AAXX  31001 59559 12560 23502 10185 20156 30092 40120 51020 69902 82100;
0144595590999992000123103004+22000+120770FM-12+002499999V0200301N008012200019N0120001N1+02371+01551101171ADDAA199000021GF103991031021008001001001MA1999999100891MD1810031+9999REMSYN066AAXX  31031 59559 32562 30308 10237 20155 30089 40117 58003 83200;
0163595590999992000123106004+22000+120770FM-12+002499999V0200301N015010075019N0200001N1+02291+01521101051ADDAA199000091GF105991051051008001001001MA1999999100771MD1610121+9999REMSYN066AAXX  31061 59559 32570 50315 10229 20152 30077 40105 56012 85500;EQDQ01  00002PRCP99
0163595590999992000123109004+22000+120770FM-12+002499999V0200301N010010075019N0150001N1+02091+01311101151ADDAA199000091GF106991061051008001001001MA1999999100871MD1310101+9999REMSYN066AAXX  31091 59559 32565 60310 10209 20131 30087 40115 53010 86500;EQDQ01  00002PRCP99
0163595590999992000123112004+22000+120770FM-12+002499999V0200401N016012200019N0100001N1+02041+01221101281ADDAA199000091GF104991041051008001001001MA1999999101001MD1110131+9999REMSYN066AAXX  31121 59559 32560 40416 10204 20122 30100 40128 51013 84500;EQDQ01  00002PRCP99
0163595590999992000123115004+22000+120770FM-12+002499999V0200501N008012200019N0100001N1+01921+01211101471ADDAA199000091GF102991021051008001001001MA1999999101191MD1110191+9999REMSYN066AAXX  31151 59559 32560 20508 10192 20121 30119 40147 51019 82500;EQDQ01  00002PRCP99
0163595590999992000123118004+22000+120770FM-12+002499999V0200301N021012200019N0100001N1+01861+01081101481ADDAA199000091GF104991041051008001001001MA1999999101191MD1410001+9999REMSYN066AAXX  31181 59559 32560 40321 10186 20108 30119 40148 54000 84500;EQDQ01  00002PRCP99
0163595590999992000123121004+22000+120770FM-12+002499999V0200301N010012200019N0100001N1+01831+00981101551ADDAA199000091GF104991041051008001001001MA1999999101261MD1310071+9999REMSYN066AAXX  31211 59559 32560 40310 10183 20098 30126 40155 53007 84500;EQDQ01  00002PRCP99
