0195616270999992000010100004+15380-015120FM-12+0021GOOG V0209999C000012200019N0080001N1+02151+01911100941ADDAA106000091GA1021+039009079GF102991021001999999031001MA1999999100711MD1999999-0071REMSYN082AAXX  01004 61627 32958 20000 10215 20191 30071 40094 82030 333 0//00 59007 82363;EQDQ01  00002PRCP06
0159616270999992000010103004+15380-015120FM-12+0021GOOG V0203201N002112200019N0080001N1+01901+01741100931ADDGA1021+039009079GF102991021001999999031001MA1999999100701MD1999999-0021REMSYN076AAXX  01034 61627 42958 23204 10190 20174 30070 40093 82030 333 59002 82363;
0222616270999992000010106004+15380-015120FM-12+0021GOOG V0203201N001012200019N0080001N1+01801+01651100881ADDAA106000091GF104991041001999999031001IA2240+01309KA1120N+01791MA1999999100651MD1999999-0031REMSYN100AAXX  01064 61627 32958 43202 10180 20165 30065 40088 84030 333 01300 20179 50570 55/// 59003 84363;EQDQ01  00002PRCP06
0159616270999992000010109004+15380-015120FM-12+0021GOOG V0203201N002110390019N0100001N1+01801+01651100981ADDGA1061+039009079GF106991061001999999081001MA1999999100751MD1999999-0071REMSYN076AAXX  01094 61627 42960 63204 10180 20165 30075 40098 86080 333 59007 86363;
0201616270999992000010112004+15380-015120FM-12+0021GOOG V0209999C000019999999N0100001N1+02701+01791101031ADDAA106000091GA1041+039009039GF106991041001999999031021MA1999999100801MD1999999-0011REMSYN088AAXX  01124 61627 32960 60000 10270 20179 30080 40103 84032 333 0//00 59001 84363 83073;EQDQ01  00002PRCP06
0165616270999992000010115004+15380-015120FM-12+0021GOOG V0200801N002119999999N0100001N1+03101+02131100811ADDGA1011+039009039GF106991011001999999031021MA1999999100581MD1999999-0021REMSYN082AAXX  01154 61627 42960 60804 10310 20213 30058 40081 81032 333 59002 81363 86073;
0214616270999992000010118004+15380-015120FM-12+0021GOOG V0200401N001019999999N0100001N1+03001+01941100731ADDAA106000091GA1031+039009039GF107991031001999999031021KA1120M+03101MA1999999100501MD1999999+0001REMSYN088AAXX  01184 61627 32960 70402 10300 20194 30050 40073 83032 333 10310 58000 83363 86073;EQDQ01  00002PRCP06
0159616270999992000010121004+15380-015120FM-12+0021GOOG V0209999C000010390019N0080001N1+02551+01811100861ADDGA1071+039009079GF107991071001999999071999MA1999999100631MD1999999+0021REMSYN076AAXX  01214 61627 42958 70000 10255 20181 30063 40086 8707/ 333 58002 87363;
0201616270999992000010200004+15380-015120FM-12+0021GOOG V0200401N001012200019N0080001N1+02451+01751100931ADDAA106000091GA1011+039009039GF103991011001999999031021MA1999999100701MD1999999-0011REMSYN088AAXX  02004 61627 32958 30402 10245 20175 30070 40093 81032 333 0//00 59001 81363 83073;EQDQ01  00002PRCP06
0222616270999992000010206004+15380-015120FM-12+0021GOOG V0200401N002119999999N0080001N1+02101+01531100921ADDAA106000091GF105991051001999999031001IA2240+01409KA1120N+02101MA1999999100691MD1999999+0041REMSYN100AAXX  02064 61627 32958 50404 10210 20153 30069 40092 85030 333 01400 20210 50650 55/// 58004 85363;EQDQ01  00002PRCP06
0159616270999992000010209004+15380-015120FM-12+0021GOOG V0200401N002110390019N0100001N1+02201+01781101071ADDGA1061+039009079GF106991061001999999081001MA1999999100841MD1999999+0091REMSYN076AAXX  02094 61627 42960 60404 10220 20178 30084 40107 86080 333 58009 86363;
0195616270999992000010212004+15380-015120FM-12+0021GOOG V0200601N003119999999N0100001N1+02951+02071101131ADDAA106000091GA1041+039009079GF105991041001999999081021MA1999999100901MD1999999+0101REMSYN082AAXX  02124 61627 32960 50606 10295 20207 30090 40113 84082 333 0//00 58010 84363;EQDQ01  00002PRCP06
0214616270999992000010218004+15380-015120FM-12+0021GOOG V0201201N002119999999N0100001N1+03101+02231100831ADDAA106000091GA1021+039009039GF106991021001999999031021KA1120M+03281MA1999999100601MD1999999+0101REMSYN088AAXX  02184 61627 32960 61204 10310 20223 30060 40083 82032 333 10328 58010 82363 85073;EQDQ01  00002PRCP06
0143616270999992000010221004+15380-015120FM-12+0021GOOG V0201001N001019999999N0080001N1+02801+02051100941ADDGF105991001001999999001021MA1999999100711MD1999999+0081REMSYN076AAXX  02214 61627 42958 51002 10280 20205 30071 40094 80002 333 58008 5073/;
0195616270999992000010300004+15380-015120FM-12+0021GOOG V0209999C000012200019N0080001N1+02501+01881101031ADDAA106000091GA1031+069009019GF103991001001999999001021MA1999999100801MD1999999+0101REMSYN082AAXX  03004 61627 32958 30000 10250 20188 30080 40103 80002 333 0//00 58010 83073;EQDQ01  00002PRCP06
0216616270999992000010306004+15380-015120FM-12+0021GOOG V0209999C000012200019N0080001N1+02301+01751100981ADDAA106000091GF104991999999999999999999IA2240+01609KA1120N+02301MA1999999100751MD1999999+0061REMSYN094AAXX  03064 61627 32958 40000 10230 20175 30075 40098 333 01600 20230 50520 55/// 58006 83363;EQDQ01  00002PRCP06
0159616270999992000010309004+15380-015120FM-12+0021GOOG V0200601N001010390019N0100001N1+02401+01831101131ADDGA1051+039009079GF105991051001999999071001MA1999999100901MD1999999+0061REMSYN076AAXX  03094 61627 42960 50602 10240 20183 30090 40113 85070 333 58006 85363;
0195616270999992000010312004+15380-015120FM-12+0021GOOG V0200801N004110390019N0100001N1+02881+02171101181ADDAA106000091GA1061+039009079GF106991061001999999081001MA1999999100951MD1999999+0051REMSYN082AAXX  03124 61627 32960 60808 10288 20217 30095 40118 86080 333 0//00 58005 86363;EQDQ01  00002PRCP06
0165616270999992000010315004+15380-015120FM-12+0021GOOG V0200801N003119999999N0100001N1+03181+02271100911ADDGA1021+039009039GF106991021001999999081021MA1999999100681MD1999999+0031REMSYN082AAXX  03154 61627 42960 60806 10318 20227 30068 40091 82082 333 58003 82363 86073;
0214616270999992000010318004+15380-015120FM-12+0021GOOG V0200601N002110390019N0100001N1+03001+02211100841ADDAA106000091GA1061+039009039GF107991061001999999081021KA1120M+03181MA1999999100611MD1999999+0011REMSYN088AAXX  03184 61627 32960 70604 10300 20221 30061 40084 86082 333 10318 58001 86363 83073;EQDQ01  00002PRCP06
0179616270999992000010321004+15380-015120FM-12+0021GOOG V0200801N002110390019N0080001N1+02781+02181100981ADDAY161031GA1071+039009019GF107991071001999999071999MA1999999100751MD1999999+0041MW1601REMSYN082AAXX  03214 61627 41958 70804 10278 20218 30075 40098 7606/ 8707/ 333 58004 87463;
0208616270999992000010400004+15380-015120FM-12+0021GOOG V0200401N002110390019N0080001N1+02611+02071101101ADDAA106000791AC13C9AY161061GA1071+039009019GF107991071001999999071999MA1999999100871MD1999999+0071MW1021REMSYN094AAXX  04004 61627 11958 70404 10261 20207 30087 40110 69901 7026/ 8707/ 333 0//13 58007 87463;
0159616270999992000010403004+15380-015120FM-12+0021GOOG V0200601N002110390019N0080001N1+02481+02021101021ADDGA1071+039009019GF107991071001999999071999MA1999999100791MD1999999+0041REMSYN076AAXX  04034 61627 42958 70604 10248 20202 30079 40102 8707/ 333 58004 87463;
0215616270999992000010406004+15380-015120FM-12+0021GOOG V0200401N002119999999N0080001N1+02391+01991101021ADDAA124000791AC13I9GF107991071001999999071999IA2240+01809KA1120N+02391MA1999999100791MD1999999+0041REMSYN106AAXX  04064 61627 12958 70404 10239 20199 30079 40102 69904 8707/ 333 01818 20239 50670 55/// 58004 87363;
0159616270999992000010409004+15380-015120FM-12+0021GOOG V0200601N003110390019N0100001N1+02371+01891101101ADDGA1071+039009079GF107991071001999999071999MA1999999100871MD1999999-0031REMSYN076AAXX  04094 61627 42960 70606 10237 20189 30087 40110 8707/ 333 59003 87363;
0195616270999992000010412004+15380-015120FM-12+0021GOOG V0200601N004110390019N0100001N1+02581+02101101211ADDAA106000091GA1071+039009079GF107991071001999999071999MA1999999100981MD1999999+0031REMSYN082AAXX  04124 61627 32960 70608 10258 20210 30098 40121 8707/ 333 0//00 58003 87363;EQDQ01  00002PRCP06
0113616270999992000010415004+15380-015120FM-12+0021GOOG V0200601N003119999999N0100001N1+02601+02151101081ADDGF108991081999999999999999MA1999999100801REMSYN060AAXX  04154 61627 42960 80606 10260 20215 30080 40108 88///;
0208616270999992000010418004+15380-015120FM-12+0021GOOG V0200601N003110390019N0100001N1+02581+02171101011ADDAA106000091GA1061+039009079GF106991061001999999071001KA1120M+02611MA1999999100781MD1999999+0171REMSYN082AAXX  04184 61627 32960 60606 10258 20217 30078 40101 86070 333 10261 58017 86363;EQDQ01  00002PRCP06
0195616270999992000010500004+15380-015120FM-12+0021GOOG V0200601N002110390019N0080001N1+02251+01861101231ADDAA106000091GA1061+039009079GF106991061001999999071001MA1999999101001MD1999999+0131REMSYN082AAXX  05004 61627 32958 60604 10225 20186 30100 40123 86070 333 0//00 58013 86363;EQDQ01  00002PRCP06
0113616270999992000010503004+15380-015120FM-12+0021GOOG V0200401N002119999999N0080001N1+02111+01771101141ADDGF107991071001999999071999MA1999999100911REMSYN060AAXX  05034 61627 42958 70404 10211 20177 30091 40114 8707/;
0222616270999992000010506004+15380-015120FM-12+0021GOOG V0200401N002119999999N0080001N1+02041+01701101111ADDAA106000091GF107991071001999999071999IA2240+02009KA1120N+02041MA1999999100881MD1999999+0091REMSYN100AAXX  05064 61627 32958 70404 10204 20170 30088 40111 8707/ 333 02000 20204 50500 55/// 58009 87363;EQDQ01  00002PRCP06
0187616270999992000010509004+15380-015120FM-12+0021GOOG V0209999C000010390019N0100001N1+02001+01731101241ADDAY161031AY221031GA1071+039009079GF107991071001999999071999MA1999999101001MD1999999+0131MW1021REMSYN082AAXX  05094 61627 41960 70000 10200 20173 30100 40124 70262 8707/ 333 58013 87363;
0216616270999992000010512004+15380-015120FM-12+0021GOOG V0200801N002112200019N0100001N1+02601+01991101321ADDAA106000791AC12I9AY161061AY211061GA1041+039009079GF104991041001999999081001MA1999999101081MD1999999+0101MW1011REMSYN094AAXX  05124 61627 11960 40804 10260 20199 30108 40132 69901 70161 84080 333 0//16 58010 84363;
0159616270999992000010515004+15380-015120FM-12+0021GOOG V0200401N002112200019N0100001N1+02981+01951101031ADDGA1031+039009079GF103991031001999999031001MA1999999100851MD1999999+0051REMSYN076AAXX  05154 61627 42960 30404 10298 20195 30085 40103 83030 333 58005 83363;
0208616270999992000010518004+15380-015120FM-12+0021GOOG V0200601N002110390019N0100001N1+02881+02011101011ADDAA106000091GA1051+039009079GF105991051001999999031001KA1120M+03021MA1999999100781MD1999999+0001REMSYN082AAXX  05184 61627 32960 50604 10288 20201 30078 40101 85030 333 10302 58000 85363;EQDQ01  00002PRCP06
0199616270999992000010606004+15380-015120FM-12+0021GOOG V0200401N001012200019N0080001N1+02131+01441101111ADDAA124000791GA1001+999999999GF100991001001999999001001IA2240+01309KA1120N+02131MA1999999100881REMSYN094AAXX  06064 61627 12958 00402 10213 20144 30088 40111 69904 333 01319 20213 50680 55/// 58000;
0159616270999992000010615004+15380-015120FM-12+0021GOOG V0200401N002112200019N0100001N1+03081+02141101031ADDGA1021+039009079GF102991021001999999031001MA1999999100801MD1999999-0051REMSYN076AAXX  06154 61627 42960 20404 10308 20214 30080 40103 82030 333 59005 82363;
0208616270999992000010618004+15380-015120FM-12+0021GOOG V0200401N001012200019N0100001N1+02991+02121100931ADDAA106000091GA1031+039009079GF103991031001999999031001KA1120M+03101MA1999999100701MD1999999-0081REMSYN082AAXX  06184 61627 32960 30402 10299 20212 30070 40093 83030 333 10310 59008 83363;EQDQ01  00002PRCP06
0129616270999992000010621004+15380-015120FM-12+0021GOOG V0209999C000012200019N9999999N1+02501+01831101111ADDGA1001+999999999GF100991001001999999001001MA1999999100801REMSYN060AAXX  06214 61627 4258/ 00000 10250 20183 3008/ 40111 59002;
0183616270999992000010700004+15380-015120FM-12+0021GOOG V0209999C000012200019N0080001N1+02291+01661101241ADDAA106000091GA1001+999999999GF100991001001999999001001MA1999999101001MD1999999+0001REMSYN070AAXX  07004 61627 32958 00000 10229 20166 30100 40124 333 0//00 58000;EQDQ01  00002PRCP06
0222616270999992000010706004+15380-015120FM-12+0021GOOG V0209999C000012200019N0080001N1+01851+01361101031ADDAA106000091GF103991031001999999031001IA2240+01309KA1120N+01851MA1999999100801MD1999999-0081REMSYN100AAXX  07064 61627 32958 30000 10185 20136 30080 40103 83030 333 01300 20185 50720 55/// 59008 83363;EQDQ01  00002PRCP06
0137616270999992000010709004+15380-015120FM-12+0021GOOG V0209999C000019999999N0100001N1+01921+01391101131ADDGA1031+039009079MD1999999-0071REMSYN076AAXX  07094 61627 42960 /3000 10192 20139 32009 40113 83030 333 59007 83363;EQDQ01+020091APOSP 
0195616270999992000010712004+15380-015120FM-12+0021GOOG V0200401N002110390019N0100001N1+02951+02051101151ADDAA106000091GA1051+039009079GF105991051001999999031001MA1999999100921MD1999999-0081REMSYN082AAXX  07124 61627 32960 50404 10295 20205 30092 40115 85030 333 0//00 59008 85363;EQDQ01  00002PRCP06
0159616270999992000010715004+15380-015120FM-12+0021GOOG V0209999C000012200019N0100001N1+03281+02271100921ADDGA1021+039009079GF102991021001999999031001MA1999999100691MD1999999-0111REMSYN076AAXX  07154 61627 42960 20000 10328 20227 30069 40092 82030 333 59011 82363;
0214616270999992000010718004+15380-015120FM-12+0021GOOG V0209999C000012200019N0100001N1+03211+02211100831ADDAA106000091GA1011+039009039GF103991011001999999031021KA1120M+03321MA1999999100601MD1999999-0101REMSYN088AAXX  07184 61627 32960 30000 10321 20221 30060 40083 81032 333 10332 59010 81363 83073;EQDQ01  00002PRCP06
0147616270999992000010721004+15380-015120FM-12+0021GOOG V0203601N002112200019N0080001N1+02701+02071101031ADDGA1001+999999999GF100991001001999999001001MA1999999100801MD1999999-0081REMSYN064AAXX  07214 61627 42958 03604 10270 20207 30080 40103 333 59008;
0183616270999992000010800004+15380-015120FM-12+0021GOOG V0203601N001012200019N0080001N1+02411+01801101131ADDAA106000091GA1001+999999999GF100991001001999999001001MA1999999100901MD1999999-0101REMSYN070AAXX  08004 61627 32958 03602 10241 20180 30090 40113 333 0//00 59010;EQDQ01  00002PRCP06
0159616270999992000010803004+15380-015120FM-12+0021GOOG V0203201N002112200019N0080001N1+02111+01601101091ADDGA1021+069009019GF102991001001999999001021MA1999999100861MD1999999-0061REMSYN076AAXX  08034 61627 42958 23204 10211 20160 30086 40109 80002 333 59006 82073;
0159616270999992000010809004+15380-015120FM-12+0021GOOG V0203601N002112200019N0100001N1+01831+01421101221ADDGA1031+039009079GF103991031001999999081001MA1999999100991MD1999999+0091REMSYN076AAXX  08094 61627 42960 33604 10183 20142 30099 40122 83080 333 58009 83363;
0195616270999992000010812004+15380-015120FM-12+0021GOOG V0203601N002112200019N0100001N1+02781+02161101251ADDAA106000091GA1031+039009079GF104991031001999999081021MA1999999101011MD1999999+0091REMSYN082AAXX  08124 61627 32960 43604 10278 20216 30101 40125 83082 333 0//00 58009 83363;EQDQ01  00002PRCP06
0159616270999992000010815004+15380-015120FM-12+0021GOOG V0203601N002112200019N0100001N1+03101+02411101031ADDGA1031+039009079GF103991031001999999031001MA1999999100801MD1999999+0111REMSYN076AAXX  08154 61627 42960 33604 10310 20241 30080 40103 83030 333 58011 83363;
0208616270999992000010818004+15380-015120FM-12+0021GOOG V0203201N001012200019N0100001N1+03011+02351100961ADDAA106000091GA1011+039009079GF101991011001999999031001KA1120M+03121MA1999999100731MD1999999+0131REMSYN082AAXX  08184 61627 32960 13202 10301 20235 30073 40096 81030 333 10312 58013 81363;EQDQ01  00002PRCP06
0183616270999992000010900004+15380-015120FM-12+0021GOOG V0209999C000012200019N0080001N1+02161+01661101241ADDAA106000091GA1001+999999999GF100991001001999999001001MA1999999101001MD1999999+0101REMSYN070AAXX  09004 61627 32958 00000 10216 20166 30100 40124 333 0//00 58010;EQDQ01  00002PRCP06
0147616270999992000010909004+15380-015120FM-12+0021GOOG V0209999C000012200019N0100001N1+01701+01351101221ADDGA1001+999999999GF100991001001999999001001MA1999999100991MD1999999+0001REMSYN064AAXX  09094 61627 42960 00000 10170 20135 30099 40122 333 58000;
0195616270999992000010912004+15380-015120FM-12+0021GOOG V0200401N002112200019N0100001N1+02651+99999101251ADDAA106000091GA1031+039009079GF103991031001999999031001MA1999999101011MD1999999+0001REMSYN082AAXX  09124 61627 32960 30404 10265 20/05 30101 40125 83030 333 0//00 58000 83363;EQDQ01  00002PRCP06
0203616270999992000010918004+15380-015120FM-12+0021GOOG V0200401N001012200019N0100001N1+03041+02271999999ADDAA106000091GA1011+039009079GF101991011001999999081001KA1120M+03141MD1999999-0021REMSYN076AAXX  09184 61627 32960 10402 10304 20227 38070 81080 333 10314 59002 81363;EQDQ01+080703APOSP Q02  00002PRCP06
0147616270999992000010921004+15380-015120FM-12+0021GOOG V0200401N001012200019N0080001N1+02451+01881101041ADDGA1001+999999999GF100991001001999999001001MA1999999100811MD1999999-0091REMSYN064AAXX  09214 61627 42958 00402 10245 20188 30081 40104 333 59009;
0183616270999992000011000004+15380-015120FM-12+0021GOOG V0203601N002112200019N0080001N1+02251+01771101131ADDAA106000091GA1001+999999999GF100991001001999999001001MA1999999100901MD1999999-0101REMSYN070AAXX  10004 61627 32958 03604 10225 20177 30090 40113 333 0//00 59010;EQDQ01  00002PRCP06
0147616270999992000011009004+15380-015120FM-12+0021GOOG V0200401N001012200019N0080001N1+01881+01561101131ADDGA1001+999999999GF100991001001999999001001MA1999999100901MD1999999-0091REMSYN064AAXX  10094 61627 42958 00402 10188 20156 30090 40113 333 59009;
0183616270999992000011012004+15380-015120FM-12+0021GOOG V0200601N003112200019N0100001N1+02981+02361101151ADDAA106000091GA1001+999999999GF100991001001999999001001MA1999999100921MD1999999-0091REMSYN070AAXX  10124 61627 32960 00606 10298 20236 30092 40115 333 0//00 59009;EQDQ01  00002PRCP06
0159616270999992000011015004+15380-015120FM-12+0021GOOG V0209999C000012200019N0100001N1+03301+02611100921ADDGA1021+069009019GF102991001001999999001021MA1999999100691MD1999999-0071REMSYN076AAXX  10154 61627 42960 20000 10330 20261 30069 40092 80002 333 59007 82073;
0208616270999992000011018004+15380-015120FM-12+0021GOOG V0209999C000012200019N0100001N1+03251+02551100831ADDAA106000091GA1011+069009019GF101991001001999999001011KA1120M+03361MA1999999100601MD1999999-0111REMSYN082AAXX  10184 61627 32960 10000 10325 20255 30060 40083 80001 333 10336 59011 81073;EQDQ01  00002PRCP06
0212616270999992000011106004+15380-015120FM-12+0021GOOG V0200401N001012200019N0080001N1+02131+01881101031ADDAA106000091GA1001+999999999GF100991001001999999001001IA2240+00909KA1120N+02131MA1999999100801REMSYN088AAXX  11064 61627 32958 00402 10213 20188 30080 40103 333 00900 20213 50690 55/// 58004;EQDQ01  00002PRCP06
0147616270999992000011109004+15380-015120FM-12+0021GOOG V0200401N003112200019N0100001N1+02151+01851101171ADDGA1001+999999999GF100991001001999999001001MA1999999100941MD1999999+0041REMSYN064AAXX  11094 61627 42960 00406 10215 20185 30094 40117 333 58004;
0183616270999992000011112004+15380-015120FM-12+0021GOOG V0200401N002112200019N0100001N1+02861+02341101241ADDAA106000091GA1001+999999999GF100991001001999999001001MA1999999101001MD1999999+0081REMSYN070AAXX  11124 61627 32960 00404 10286 20234 30100 40124 333 0//00 58008;EQDQ01  00002PRCP06
0147616270999992000011115004+15380-015120FM-12+0021GOOG V0200401N003112200019N0100001N1+03231+02641100971ADDGA1001+999999999GF100991001001999999001001MA1999999100741MD1999999+0051REMSYN064AAXX  11154 61627 42960 00406 10323 20264 30074 40097 333 58005;
0212616270999992000011118004+15380-015120FM-12+0021GOOG V0200601N002112200019N0100001N1+03161+01012100931ADDAA106000091GA1001+999999999GF100991001001999999001001KA1120M+03281MA1999999100701MD1999999+0101REMSYN070AAXX  11184 61627 32960 00604 10316 20101 30070 40093 333 10328 58010;EQDQ01+001013ATOD  Q02  00002PRCP06
0147616270999992000011121004+15380-015120FM-12+0021GOOG V0200401N001012200019N0080001N1+02651+00891101061ADDGA1001+999999999GF100991001001999999001001MA1999999100831MD1999999+0121REMSYN064AAXX  11214 61627 42958 00402 10265 20089 30083 40106 333 58012;
0183616270999992000011200004+15380-015120FM-12+0021GOOG V0200601N002112200019N0080001N1+02401+00441101211ADDAA106000091GA1001+999999999GF100991001001999999001001MA1999999100981MD1999999+0171REMSYN070AAXX  12004 61627 32958 00604 10240 20044 30098 40121 333 0//00 58017;EQDQ01  00002PRCP06
0159616270999992000011209004+15380-015120FM-12+0021GOOG V0200401N001012200019N0100001N1+02121+00121101291ADDGA1031+069009019GF103991001001999999001021MA1999999101051MD1999999+0111REMSYN076AAXX  12094 61627 42960 30402 10212 20012 30105 40129 80002 333 58011 83073;
0195616270999992000011212004+15380-015120FM-12+0021GOOG V0200601N003112200019N0100001N1+02821+00461101311ADDAA106000091GA1041+069009019GF104991001001999999001021MA1999999101071MD1999999+0071REMSYN082AAXX  12124 61627 32960 40606 10282 20046 30107 40131 80002 333 0//00 58007 84073;EQDQ01  00002PRCP06
0159616270999992000011215004+15380-015120FM-12+0021GOOG V0200401N003112200019N0100001N1+03221+00751101041ADDGA1041+069009019GF104991001001999999001021MA1999999100811MD1999999+0071REMSYN076AAXX  12154 61627 42960 40406 10322 20075 30081 40104 80002 333 58007 84073;
0208616270999992000011218004+15380-015120FM-12+0021GOOG V0200401N002112200019N0100001N1+03111+00731100951ADDAA106000091GA1021+069009019GF102991001001999999001021KA1120M+03281MA1999999100721MD1999999+0021REMSYN082AAXX  12184 61627 32960 20404 10311 20073 30072 40095 80002 333 10328 58002 82073;EQDQ01  00002PRCP06
0147616270999992000011221004+15380-015120FM-12+0021GOOG V0209999C000012200019N0080001N1+02651+00671101131ADDGA1001+999999999GF100991001001999999001001MA1999999100901MD1999999+0071REMSYN064AAXX  12214 61627 42958 00000 10265 20067 30090 40113 333 58007;
0147616270999992000011303004+15380-015120FM-12+0021GOOG V0200401N002112200019N0080001N1+02101+00301101181ADDGA1001+999999999GF100991001001999999001001MA1999999100951MD1999999+0061REMSYN064AAXX  13034 61627 42958 00404 10210 20030 30095 40118 333 58006;
0212616270999992000011306004+15380-015120FM-12+0021GOOG V0200401N002112200019N0080001N1+01801+00131101151ADDAA106000091GA1001+999999999GF100991001001999999001001IA2240+01309KA1120N+01801MA1999999100921REMSYN088AAXX  13064 61627 32958 00404 10180 20013 30092 40115 333 01300 20180 50820 55/// 58010;EQDQ01  00002PRCP06
0147616270999992000011309004+15380-015120FM-12+0021GOOG V0200401N003112200019N0100001N1+01901-00051101311ADDGA1001+999999999GF100991001001999999001001MA1999999101071MD1999999+0021REMSYN064AAXX  13094 61627 42960 00406 10190 21005 30107 40131 333 58002;
0183616270999992000011312004+15380-015120FM-12+0021GOOG V0200401N002112200019N0100001N1+02701+00241101321ADDAA106000091GA1001+999999999GF100991001001999999001001MA1999999101081MD1999999+0011REMSYN070AAXX  13124 61627 32960 00404 10270 20024 30108 40132 333 0//00 58001;EQDQ01  00002PRCP06
0147616270999992000011315004+15380-015120FM-12+0021GOOG V0200401N002112200019N0100001N1+03131+00381100981ADDGA1001+999999999GF100991001001999999001001MA1999999100751MD1999999-0061REMSYN064AAXX  13154 61627 42960 00404 10313 20038 30075 40098 333 59006;
0208616270999992000011318004+15380-015120FM-12+0021GOOG V0200401N002112200019N0100001N1+03081+00151100941ADDAA106000091GA1021+069009019GF102991001001999999001021KA1120M+03151MA1999999100711MD1999999-0011REMSYN082AAXX  13184 61627 32960 20404 10308 20015 30071 40094 80002 333 10315 59001 82073;EQDQ01  00002PRCP06
0151616270999992000011321004+15380-015120FM-12+002199999V0200401N001012200019N0080001N1+02551+00081101111ADDGA1001+999999999GF100991001001999999001001MA1999999100881MD1999999-0021REMSYN068    AAXX  13214 61627 42958 00402 10255 20008 30088 40111 333 59002;
0187616270999992000011400004+15380-015120FM-12+002199999V0200401N002112200019N0080001N1+02241-00081101241ADDAA199000091GA1001+999999999GF100991001001999999001001MA1999999101001MD1999999-0021REMSYN074    AAXX  14004 61627 32958 00404 10224 21008 30100 40124 333 0//00 59002;EQDQ01  00002PRCP99
0230616270999992000011406004+15380-015120FM-12+002199999V0200401N002112200019N0080001N1+01681-00181101071ADDAA199000091GA1001+999999999GF100991001001999999001001IA2240+01309KA1120N+01681MA1999999100841MD1999999-0081REMSYN092    AAXX  14064 61627 32958 00404 10168 21018 30084 40107 333 01300 20168 30780 55/// 59008;EQDQ01  00002PRCP99
0151616270999992000011409004+15380-015120FM-12+002199999V0200401N002112200019N0100001N1+01731+00171101371ADDGA1001+999999999GF100991001001999999001001MA1999999100911MD1999999-0161REMSYN068    AAXX  14094 61627 42960 00404 10173 20017 30091 40137 333 59016;
0187616270999992000011412004+15380-015120FM-12+002199999V0200401N002112200019N0100001N1+02651+00291101051ADDAA199000091GA1001+999999999GF100991001001999999001001MA1999999100971MD1999999-0111REMSYN074    AAXX  14124 61627 32960 00404 10265 20029 30097 40105 333 0//00 59011;EQDQ01  00002PRCP99
0151616270999992000011415004+15380-015120FM-12+002199999V0200401N002112200019N0100001N1+03041+00141100871ADDGA1001+999999999GF100991001001999999001001MA1999999100641MD1999999-0111REMSYN068    AAXX  14154 61627 42960 00404 10304 20014 30064 40087 333 59011;
0200616270999992000011418004+15380-015120FM-12+002199999V0200401N001012200019N0100001N1+03001+00131100801ADDAA199000091GA1001+999999999GF100991001001999999001001KA1120M+03101MA1999999100571MD1999999-0141REMSYN074    AAXX  14184 61627 32960 00402 10300 20013 30057 40080 333 10310 59014;EQDQ01  00002PRCP99
0199616270999992000011500004+15380-015120FM-12+002199999V0209999C000012200019N0080001N1+02131+00351101061ADDAA199000091GA1031+039009079GF103991031001999999031001MA1999999100831MD1999999-0171REMSYN086    AAXX  15004 61627 32958 30000 10213 20035 30083 40106 83030 333 0//00 59017 83363;EQDQ01  00002PRCP99
0163616270999992000011509004+15380-015120FM-12+002199999V0200601N001010390019N0100001N1+01831+00121101151ADDGA1071+039009079GF107991071001999999081999MA1999999100911MD1999999+0001REMSYN080    AAXX  15094 61627 42960 70602 10183 20012 30091 40115 8708/ 333 58000 87363;
0199616270999992000011512004+15380-015120FM-12+002199999V0200601N001012200019N0100001N1+02721+00331101171ADDAA199000091GA1041+039009079GF104991041001999999031001MA1999999100941MD1999999-0031REMSYN086    AAXX  15124 61627 32960 40602 10272 20033 30094 40117 84030 333 0//00 59003 84363;EQDQ01  00002PRCP99
0163616270999992000011515004+15380-015120FM-12+002199999V0203601N001010390019N0100001N1+03101+00411100941ADDGA1051+039009079GF105991051001999999031001MA1999999100711MD1999999+0071REMSYN080    AAXX  15154 61627 42960 53602 10310 20041 30071 40094 85030 333 58007 85363;
0212616270999992000011518004+15380-015120FM-12+002199999V0209999C000010390019N0100001N1+02901+00171100861ADDAA199000091GA1061+039009079GF106991061001999999071001KA1120M+03101MA1999999100631MD1999999+0061REMSYN086    AAXX  15184 61627 32960 60000 10290 20017 30063 40086 86070 333 10310 58006 86363;EQDQ01  00002PRCP99
0163616270999992000011521004+15380-015120FM-12+002199999V0209999C000010390019N0080001N1+02551+00151101031ADDGA1071+039009079GF107991071001999999071999MA1999999100801MD1999999+0081REMSYN080    AAXX  15214 61627 42958 70000 10255 20015 30080 40103 8707/ 333 58008 87363;
0199616270999992000011600004+15380-015120FM-12+002199999V0209999C000010390019N0080001N1+02401+00021101101ADDAA199000091GA1061+039009079GF106991061001999999071001MA1999999100871MD1999999+0041REMSYN086    AAXX  16004 61627 32958 60000 10240 20002 30087 40110 86070 333 0//00 58004 86363;EQDQ01  00002PRCP99
0226616270999992000011606004+15380-015120FM-12+002199999V0209999C000019999999N0080001N1+02201+00171101031ADDAA199000091GF107991071001999999071999IA2240+01209KA1120N+02101MA1999999100801MD1999999+0081REMSYN104    AAXX  16064 61627 32958 70000 10220 20017 30080 40103 8707/ 333 01200 20210 50610 55/// 58008 87363;EQDQ01  00002PRCP99
0163616270999992000011609004+15380-015120FM-12+002199999V0209999C000010390019N0100001N1+02061+00631101191ADDGA1081+039009079GF108991081001999999071999MA1999999100361MD1999999+0071REMSYN080    AAXX  16094 61627 42960 80000 10206 20063 30036 40119 8807/ 333 58007 88363;
0215616270999992000011612004+15380-015120FM-12+002199999V0200801N002112200019N0100001N1+03101+00281101261ADDAA199000091GA1021+039009079GF102991021001999999031001MA1999999101032MD1999999+0091REMSYN086    AAXX  16124 61627 32960 20804 10310 20028 30103 40126 82030 333 0//00 58009 82363;EQDQ01+101033APOSP Q02  00002PRCP99
0163616270999992000011615004+15380-015120FM-12+002199999V0200401N002112200019N0100001N1+03451+00641101011ADDGA1011+069009019GF101991001001999999001011MA1999999100781MD1999999+0071REMSYN080    AAXX  16154 61627 42960 10404 10345 20064 30078 40101 80001 333 58007 81073;
0176616270999992000011621004+15380-015120FM-12+002199999V0203601N001012200019N0080001N1+02811+00471103002ADDGA1041+039009079GF104991999999999999999999MA1999999100741MD1999999+0641REMSYN074    AAXX  16214 61627 42958 43602 10281 20047 30074 4030/ 333 58064 84363;EQDQ01+103003APOSLP
0151616270999992000011709004+15380-015120FM-12+002199999V0200401N001012200019N0100001N1+02121+00271101371ADDGA1001+999999999GF100991001001999999001001MA1999999101131MD1999999+0171REMSYN068    AAXX  17094 61627 42960 00402 10212 20027 30113 40137 333 58017;
0187616270999992000011712004+15380-015120FM-12+002199999V0200401N002112200019N0100001N1+03181+00411101431ADDAA199000091GA1001+999999999GF100991001001999999001001MA1999999101201MD1999999+0171REMSYN074    AAXX  17124 61627 32960 00404 10318 20041 30120 40143 333 0//00 58017;EQDQ01  00002PRCP99
0137616270999992000011715004+15380-015120FM-12+002199999V0200401N001012200019N0100001N1+03591+00151101161ADDGA1001+999999999GF100991001001999999001001MA1999999100921REMSYN068    AAXX  17154 61627 42960 00402 10359 20015 30092 40116 333 58/15;
0200616270999992000011718004+15380-015120FM-12+002199999V0200401N001012200019N0100001N1+03461+00191101101ADDAA199000091GA1001+999999999GF100991001001999999001001KA1120M+03631MA1999999100671MD1999999+0141REMSYN074    AAXX  17184 61627 32960 00402 10346 20019 30067 40110 333 10363 58014;EQDQ01  00002PRCP99
0151616270999992000011721004+15380-015120FM-12+002199999V0209999C000012200019N0080001N1+02821+00521101321ADDGA1001+999999999GF100991001001999999001001MA1999999101081MD1999999+0141REMSYN068    AAXX  17214 61627 42958 00000 10282 20052 30108 40132 333 58014;
0216616270999992000011806004+15380-015120FM-12+002199999V0200401N001012200019N0080001N1+02031+00081101261ADDAA199000091GA1001+999999999GF100991001001999999001001IA2240+01509KA1120N+02031MA1999999101031REMSYN092    AAXX  18064 61627 32958 00402 10203 20008 30103 40126 333 01500 20203 50940 55/// 58014;EQDQ01  00002PRCP99
0163616270999992000011809004+15380-015120FM-12+002199999V0200401N001012200019N0100001N1+02231+00231101401ADDGA1021+039009079GF102991021001999999031001MA1999999101161MD1999999+0031REMSYN080    AAXX  18094 61627 42960 20402 10223 20023 30116 40140 82030 333 58003 82363;
0199616270999992000011812004+15380-015120FM-12+002199999V0200601N002112200019N0100001N1+03181+00381101401ADDAA199000091GA1011+039009079GF101991011001999999031001MA1999999101171MD1999999-0031REMSYN086    AAXX  18124 61627 32960 10604 10318 20038 30117 40140 81030 333 0//00 59003 81363;EQDQ01  00002PRCP99
0151616270999992000011815004+15380-015120FM-12+002199999V0203601N002112200019N0100001N1+03621+00101101081ADDGA1001+999999999GF100991001001999999001001MA1999999100851MD1999999-0081REMSYN068    AAXX  18154 61627 42960 03604 10362 20010 30085 40108 333 59008;
0200616270999992000011818004+15380-015120FM-12+002199999V0209999C000012200019N0100001N1+03601+00261100981ADDAA199000091GA1001+999999999GF100991001001999999001001KA1120M+03701MA1999999100751MD1999999-0081REMSYN074    AAXX  18184 61627 32960 00000 10360 20026 30075 40098 333 10370 59008;EQDQ01  00002PRCP99
0151616270999992000011821004+15380-015120FM-12+002199999V0209999C000012200019N0080001N1+02901+00441101121ADDGA1001+999999999GF100991001001999999001001MA1999999100891MD1999999-0191REMSYN068    AAXX  18214 61627 42958 00000 10290 20044 30089 40112 333 59019;
0151616270999992000011903004+15380-015120FM-12+002199999V0209999C000012200019N0080001N1+02401+00381101081ADDGA1001+999999999GF100991001001999999001001MA1999999100851MD1999999-0231REMSYN068    AAXX  19034 61627 42958 00000 10240 20038 30085 40108 333 59023;
0216616270999992000011906004+15380-015120FM-12+002199999V0209999C000012200019N0080001N1+02001+00321101031ADDAA199000091GA1001+999999999GF100991001001999999001001IA2240+01309KA1120N+02001MA1999999100801REMSYN092    AAXX  19064 61627 32958 00000 10200 20032 30080 40103 333 01300 20200 50600 55/// 59023;EQDQ01  00002PRCP99
0151616270999992000011909004+15380-015120FM-12+002199999V0209999C000012200019N0100001N1+02011+00241101221ADDGA1001+999999999GF100991001001999999001001MA1999999100991MD1999999-0171REMSYN068    AAXX  19094 61627 42960 00000 10201 20024 30099 40122 333 59017;
0187616270999992000011912004+15380-015120FM-12+002199999V0200401N002112200019N0100001N1+03181+00301101231ADDAA199000091GA1001+999999999GF100991001001999999001001MA1999999101001MD1999999-0171REMSYN074    AAXX  19124 61627 32960 00404 10318 20030 30100 40123 333 0//00 59017;EQDQ01  00002PRCP99
0159616270999992000011915004+15380-015120FM-12+0021GOOG V0200401N002112200019N0100001N1+03601+00521100931ADDGA1031+069009019GF103991001001999999001011MA1999999100701MD1999999-0151REMSYN076AAXX  19154 61627 42960 30404 10360 20052 30070 40093 80001 333 59015 83073;
0196616270999992000011918004+15380-015120FM-12+0021GOOG V0200401N001012200019N0100001N1+03581+00481100841ADDAA199000091GA1001+999999999GF100991001001999999001001KA1120M+03711MA1999999100611MD1999999-0141REMSYN070AAXX  19184 61627 32960 00402 10358 20048 30061 40084 333 10371 59014;EQDQ01  00002PRCP99
0159616270999992000011921004+15380-015120FM-12+0021GOOG V0200401N001012200019N0080001N1+02901+00281100971ADDGA1041+069009019GF104991001001999999001021MA1999999100741MD1999999-0151REMSYN076AAXX  19214 61627 42958 40402 10290 20028 30074 40097 80002 333 59015 84073;
0195616270999992000012000004+15380-015120FM-12+0021GOOG V0203601N002112200019N0080001N1+02601+00371101071ADDAA199000091GA1021+069009019GF102991001001999999001021MA1999999100841MD1999999-0131REMSYN082AAXX  20004 61627 32958 23604 10260 20037 30084 40107 80002 333 0//00 59013 82073;EQDQ01  00002PRCP99
0159616270999992000012009004+15380-015120FM-12+0021GOOG V0200401N001012200019N0100001N1+02021+00111101131ADDGA1031+069009019GF103991001001999999001021MA1999999100901MD1999999-0091REMSYN076AAXX  20094 61627 42960 30402 10202 20011 30090 40113 80002 333 59009 83073;
0195616270999992000012012004+15380-015120FM-12+0021GOOG V0200801N002112200019N0100001N1+03181+00411101221ADDAA199000091GA1041+069009019GF104991001001999999001021MA1999999100991MD1999999-0011REMSYN082AAXX  20124 61627 32960 40804 10318 20041 30099 40122 80002 333 0//00 59001 84073;EQDQ01  00002PRCP99
0159616270999992000012015004+15380-015120FM-12+0021GOOG V0200401N001010690019N0100001N1+03701+00051100931ADDGA1051+069009019GF105991001001999999001021MA1999999100701MD1999999+0001REMSYN076AAXX  20154 61627 42960 50402 10370 20005 30070 40093 80002 333 58000 85073;
0208616270999992000012018004+15380-015120FM-12+0021GOOG V0203201N001012200019N0100001N1+03621+00101100871ADDAA199000091GA1041+069009019GF104991001001999999001021KA1120M+03801MA1999999100641MD1999999+0031REMSYN082AAXX  20184 61627 32960 43202 10362 20010 30064 40087 80002 333 10380 58003 84073;EQDQ01  00002PRCP99
0159616270999992000012021004+15380-015120FM-12+0021GOOG V0203601N001012200019N0080001N1+02921+00181101021ADDGA1021+069009019GF102991001001999999001021MA1999999100791MD1999999+0051REMSYN076AAXX  20214 61627 42958 23602 10292 20018 30079 40102 80002 333 58005 82073;
0212616270999992000012106004+15380-015120FM-12+0021GOOG V0209999C000012200019N0080001N1+01801+00231101071ADDAA199000091GA1001+999999999GF100991001001999999001001IA2240+01109KA1120N+01801MA1999999100841REMSYN088AAXX  21064 61627 32958 00000 10180 20023 30084 40107 333 01100 20180 50770 55/// 58007;EQDQ01  00002PRCP99
0159616270999992000012109004+15380-015120FM-12+0021GOOG V0209999C000012200019N0100001N1+01901+00201101241ADDGA1031+069009019GF103991001001999999001021MA1999999101001MD1999999+0101REMSYN076AAXX  21094 61627 42960 30000 10190 20020 30100 40124 80002 333 58010 83073;
0195616270999992000012112004+15380-015120FM-12+0021GOOG V0201201N001012200019N0100001N1+03101+00421101271ADDAA199000091GA1031+069009019GF103991001001999999001021MA1999999101041MD1999999+0051REMSYN082AAXX  21124 61627 32960 31202 10310 20042 30104 40127 80002 333 0//00 58005 83073;EQDQ01  00002PRCP99
0137616270999992000012115004+15380-015120FM-12+0021GOOG V0209999C000012200019N0100001N1+03551+00521101041ADDGF104991001001999999001021MA1999999100811MD1999999+0111REMSYN070AAXX  21154 61627 42960 40000 10355 20052 30081 40104 80002 333 58011;
0208616270999992000012118004+15380-015120FM-12+0021GOOG V0209999C000012200019N0100001N1+03511+00571101011ADDAA199000091GA1021+069009019GF102991001001999999001021KA1120M+03611MA1999999100781MD1999999+0141REMSYN082AAXX  21184 61627 32960 20000 10351 20057 30078 40101 80002 333 10361 58014 82073;EQDQ01  00002PRCP99
0222616270999992000012206004+15380-015120FM-12+0021GOOG V0209999C000012200019N0100001N1+02001+00341101371ADDAA199000091GF102991001001999999001021IA2240+01109KA1120N+02001MA1999999101081MD1999999+0241REMSYN100AAXX  22064 61627 32960 20000 10200 20034 30108 40137 80002 333 01100 20200 50670 55/// 58024 82073;EQDQ01  00002PRCP99
0159616270999992000012209004+15380-015120FM-12+0021GOOG V0209999C000012200019N0100001N1+02001+00181101261ADDGA1041+069009019GF104991001001999999001021MA1999999101021MD1999999+0021REMSYN076AAXX  22094 61627 42960 40000 10200 20018 30102 40126 80002 333 58002 84073;
0211616270999992000012212004+15380-015120FM-12+0021GOOG V0200601N003110690019N0100001N1+03202+00271101331ADDAA199000091GA1051+069009019GF105991001001999999001021MA1999999101101MD1999999+0061REMSYN082AAXX  22124 61627 32960 50606 10320 20027 30110 40133 80002 333 0//00 58006 85073;EQDQ01+003203ATOT  Q02  00002PRCP99
0159616270999992000012215004+15380-015120FM-12+0021GOOG V0200801N002110690019N0100001N1+03641+00541101111ADDGA1051+069009019GF105991001001999999001021MA1999999100881MD1999999+0071REMSYN076AAXX  22154 61627 42960 50804 10364 20054 30088 40111 80002 333 58007 85073;
0208616270999992000012218004+15380-015120FM-12+0021GOOG V0200401N001010690019N0100001N1+03441+00591101031ADDAA199000091GA1061+069009019GF106991001001999999001021KA1120M+03651MA1999999100801MD1999999+0021REMSYN082AAXX  22184 61627 32960 60402 10344 20059 30080 40103 80002 333 10365 58002 86073;EQDQ01  00002PRCP99
0165616270999992000012309004+15380-015120FM-12+0021GOOG V0200401N001012200019N0100001N1+02131+00341101211ADDGA1011+039009039GF103991011001999999031021MA1999999100981MD1999999-0041REMSYN082AAXX  23094 61627 42960 30402 10213 20034 30098 40121 81032 333 59004 81363 83073;
0195616270999992000012312004+15380-015120FM-12+0021GOOG V0200601N002112200019N0100001N1+03111+00571101221ADDAA199000091GA1021+039009079GF102991021001999999031001MA1999999100991MD1999999-0111REMSYN082AAXX  23124 61627 32960 20604 10311 20057 30099 40122 82030 333 0//00 59011 82363;EQDQ01  00002PRCP99
0147616270999992000012315004+15380-015120FM-12+0021GOOG V0209999C000012200019N0100001N1+03691+00551100951ADDGA1001+999999999GF100991001001999999001001MA1999999100721MD1999999-0161REMSYN064AAXX  23154 61627 42960 00000 10369 20055 30072 40095 333 59016;
0173616270999992000012400004+15380-015120FM-12+0021GOOG V0209999C000012200019N0080001N1+99999+99999101071ADDAA199000091GF102991001001999999001021MA1999999100841MD1999999-0161REMSYN076AAXX  24004 61627 32958 20000 10/56 20040 30084 40107 80002 333 0//00 59016;EQDQ01  00002PRCP99
0159616270999992000012409004+15380-015120FM-12+0021GOOG V0203201N001010390019N0100001N1+02301+00301101151ADDGA1061+039009079GF106991061001999999081001MA1999999100921MD1999999-0061REMSYN076AAXX  24094 61627 42960 63202 10230 20030 30092 40115 86080 333 59006 86363;
0195616270999992000012412004+15380-015120FM-12+0021GOOG V0203601N002110390019N0100001N1+02981+00441101231ADDAA199000091GA1051+039009079GF105991051001999999081001MA1999999101001MD1999999+0011REMSYN082AAXX  24124 61627 32960 53604 10298 20044 30100 40123 85080 333 0//00 58001 85363;EQDQ01  00002PRCP99
0153616270999992000012415004+15380-015120FM-12+0021GOOG V0209999C000012200019N0100001N1+99999+99999101021ADDGA1031+069009019GF103991001001999999001021MA1999999100791MD1999999+0071REMSYN070AAXX  24154 61627 42960 30000 20074 30079 40102 80002 333 58007 83073;
0208616270999992000012418004+15380-015120FM-12+0021GOOG V0209999C000012200019N0100001N1+03501+00741100931ADDAA199000091GA1021+069009019GF102991001001999999001021KA1120M+03581MA1999999100701MD1999999+0011REMSYN082AAXX  24184 61627 32960 20000 10350 20074 30070 40093 80002 333 10358 58001 82073;EQDQ01  00002PRCP99
0153616270999992000012503004+15380-015120FM-12+0021GOOG V0209999C000012200019N0080001N1+02151+00621101181ADDGA1041+039009079GF104991999999999999999999MA1999999100951MD1999999+0131REMSYN070AAXX  25034 61627 42958 40000 10215 20062 30095 40118 333 58013 84363;
0222616270999992000012506004+15380-015120FM-12+0021GOOG V0203201N001019999999N0080001N1+02021+00601101181ADDAA199000091GF106991061001999999031001IA2240+01709KA1120N+02021MA1999999100951MD1999999+0131REMSYN100AAXX  25064 61627 32958 63202 10202 20060 30095 40118 86030 333 01700 20202 50600 55/// 58013 86033;EQDQ01  00002PRCP99
0159616270999992000012509004+15380-015120FM-12+0021GOOG V0209999C000010390019N0100001N1+02091+00521101341ADDGA1071+039009079GF107991071001999999071999MA1999999101101MD1999999+0181REMSYN076AAXX  25094 61627 42960 70000 10209 20052 30110 40134 8707/ 333 58018 87363;
0195616270999992000012512004+15380-015120FM-12+0021GOOG V0203601N001010390019N0100001N1+02701+00611101431ADDAA199000091GA1051+039009079GF105991051001999999081001MA1999999101191MD1999999+0191REMSYN082AAXX  25124 61627 32960 53602 10270 20061 30119 40143 85080 333 0//00 58019 85363;EQDQ01  00002PRCP99
0165616270999992000012515004+15380-015120FM-12+0021GOOG V0209999C000012200019N0100001N1+03281+00891101121ADDGA1011+039009039GF103991011001999999031021MA1999999100891MD1999999+0101REMSYN082AAXX  25154 61627 42960 30000 10328 20089 30089 40112 81032 333 58010 81363 83073;
0208616270999992000012518004+15380-015120FM-12+0021GOOG V0200401N001010690019N0100001N1+03181+00821101051ADDAA199000091GA1051+069009019GF105991001001999999001021KA1120M+03331MA1999999100821MD1999999+0121REMSYN082AAXX  25184 61627 32960 50402 10318 20082 30082 40105 80002 333 10333 58012 85073;EQDQ01  00002PRCP99
0195616270999992000012600004+15380-015120FM-12+0021GOOG V0209999C000019999999N0080001N1+02601+00721101321ADDAA199000091GA1041+039009079GF105991041001999999031021MA1999999101081MD1999999+0081REMSYN082AAXX  26004 61627 32958 50000 10260 20072 30108 40132 84032 333 0//00 58008 84363;EQDQ01  00002PRCP99
0159616270999992000012603004+15380-015120FM-12+0021GOOG V0209999C000010390019N0080001N1+02401+00621101221ADDGA1071+039009079GF107991071001999999031999MA1999999100991MD1999999+0041REMSYN076AAXX  26034 61627 42958 70000 10240 20062 30099 40122 8703/ 333 58004 87363;
0244616270999992000012606004+15380-015120FM-12+0021GOOG V0209999C000019999999N0080001N1+02031+00931101161ADDAA199000091GA1031+039009039GF105991031001999999031021IA2240+01609KA1120N+02031MA1999999100931MD1999999-0041REMSYN106AAXX  26064 61627 32958 50000 10203 20093 30093 40116 83032 333 01600 20203 50680 55/// 59004 83363 83073;EQDQ01  00002PRCP99
0163616270999992000012609004+15380-015120FM-12+0021GOOG V0203201N001010690019N0100001N1+02001+01261101341ADDGA1061+069009019GF106991001001999999001021MD1999999+0001REMSYN076AAXX  26094 61627 42960 63202 10200 20126 30440 40134 80002 333 58000 86073;EQDQ01+104403APOSP 
0195616270999992000012612004+15380-015120FM-12+0021GOOG V0203601N002112200019N0100001N1+02931+00871101421ADDAA199000091GA1041+069009019GF104991001001999999001021MA1999999101191MD1999999+0001REMSYN082AAXX  26124 61627 32960 43604 10293 20087 30119 40142 80002 333 0//00 58000 84073;EQDQ01  00002PRCP99
0165616270999992000012615004+15380-015120FM-12+0021GOOG V0200401N002119999999N0100001N1+03251+00561101151ADDGA1021+039009049GF106991021001999999021021MA1999999100921MD1999999+0031REMSYN082AAXX  26154 61627 42960 60404 10325 20056 30092 40115 82022 333 58003 82463 86073;
0208616270999992000012618004+15380-015120FM-12+0021GOOG V0203601N001010390019N0100001N1+03251+00501101091ADDAA199000091GA1071+039009019GF107991071001999999021999KA1120M+03311MA1999999100861MD1999999+0041REMSYN082AAXX  26184 61627 32960 73602 10325 20050 30086 40109 8702/ 333 10331 58004 87463;EQDQ01  00002PRCP99
0178616270999992000012621004+15380-015120FM-12+0021GOOG V0209999C000010390019N0080001N1+02801+00781101221ADDGA1051+039009019GF105991051001999999071999MA1999999100991MD1999999+0001REMSYN076AAXX  26214 61627 42958 50000 10280 20078 30099 40122 85070 333 58000 85463;EQDQ01+000002SCOHCG
0183616270999992000012700004+15380-015120FM-12+0021GOOG V0200401N002112200019N0080001N1+02751+01281101311ADDAA199000091GA1001+999999999GF100991001001999999001001MA1999999101081MD1999999+0001REMSYN070AAXX  27004 61627 32958 00404 10275 20128 30108 40131 333 0//00 58000;EQDQ01  00002PRCP99
0159616270999992000012709004+15380-015120FM-12+0021GOOG V0200601N002112200019N0100001N1+02401+01281101391ADDGA1031+069009019GF103991001001999999001021MA1999999101151MD1999999+0051REMSYN076AAXX  27094 61627 42960 30604 10240 20128 30115 40139 80002 333 58005 83073;
0195616270999992000012712004+15380-015120FM-12+0021GOOG V0200601N004112200019N0070001N1+03081+01801101321ADDAA199000091GA1021+069009019GF102991001001999999001021MA1999999101091MD1999999-0101REMSYN082AAXX  27124 61627 32957 20608 10308 20180 30109 40132 80002 333 0//00 59010 82073;EQDQ01  00002PRCP99
0159616270999992000012715004+15380-015120FM-12+0021GOOG V0201001N003112200019N0070001N1+03531+01261101111ADDGA1031+039009079GF103991031001999999031001MA1999999100881MD1999999-0041REMSYN076AAXX  27154 61627 42957 31006 10353 20126 30088 40111 83030 333 59004 83363;
0208616270999992000012718004+15380-015120FM-12+0021GOOG V0200801N002110390019N0060001N1+03371+01281101031ADDAA199000091GA1051+039009079GF105991051001999999081001KA1120M+03561MA1999999100801MD1999999-0061REMSYN082AAXX  27184 61627 32956 50804 10337 20128 30080 40103 85080 333 10356 59006 85363;EQDQ01  00002PRCP99
0147616270999992000012721004+15380-015120FM-12+0021GOOG V0200401N001012200019N0060001N1+03061+01301101111ADDGA1001+999999999GF100991001001999999001001MA1999999100881MD1999999-0101REMSYN064AAXX  27214 61627 42956 00402 10306 20130 30088 40111 333 59010;
0187616270999992000012809004+15380-015120FM-12+0021GOOG V0200401N003112200019N0010001N1+02531+01321101301ADDAY101031AY201031GA1031+039009079GF103991031001999999081001MA1999999101071MD1999999-0081MW1061REMSYN082AAXX  28094 61627 41910 30406 10253 20132 30107 40130 70600 83080 333 59008 83363;
0223616270999992000012812004+15380-015120FM-12+0021GOOG V0200601N003110390019N0010001N1+02931+01291101311ADDAA199000091AY111061AY211061GA1051+039009079GF105991051001999999081001MA1999999101081MD1999999-0011MW1061REMSYN088AAXX  28124 61627 31910 50606 10293 20129 30108 40131 70611 85080 333 0//00 59001 85363;EQDQ01  00002PRCP99
0171616270999992000012815004+15380-015120FM-12+0021GOOG V0200601N002110390019N0008001N1+03211+01291101031ADDGA1061+039009079GF106991061001999999081001MA1999999100801MD1999999-0031MW1061REMSYN082AAXX  28154 61627 41908 60604 10321 20129 30080 40103 706// 86080 333 59003 86363;
0220616270999992000012818004+15380-015120FM-12+0021GOOG V0200401N002110390019N0008001N1+03331+01261101011ADDAA199000091GA1071+039009019GF107991071001999999071999KA1120M+03331MA1999999100781MD1999999-0021MW1061REMSYN088AAXX  28184 61627 31908 70404 10333 20126 30078 40101 706// 8707/ 333 10333 59002 87463;EQDQ01  00002PRCP99
0171616270999992000012821004+15380-015120FM-12+0021GOOG V0200401N001010390019N0007001N1+03001+01341101191ADDGA1081+039009019GF108991081001999999071999MA1999999100961MD1999999+0081MW1061REMSYN082AAXX  28214 61627 41907 80402 10300 20134 30096 40119 706// 8807/ 333 58008 88463;
0215616270999992000012900004+15380-015120FM-12+0021GOOG V0200401N002110390019N0006001N1+02901+01271101311ADDAA199000091AY141061GA1081+039009019GF108991081001999999071999MA1999999101081MD1999999+0011MW1061REMSYN088AAXX  29004 61627 31906 80404 10290 20127 30108 40131 7064/ 8807/ 333 0//00 58001 88463;EQDQ01  00002PRCP99
0187616270999992000012909004+15380-015120FM-12+0021GOOG V0200401N002110390019N0008001N1+02701+01261101301ADDAY141031AY221031GA1081+039009019GF108991081001999999071999MA1999999101111MD1999999+0041MW1061REMSYN082AAXX  29094 61627 41908 80404 10270 20126 30111 40130 70642 8807/ 333 58004 88463;
0223616270999992000012912004+15380-015120FM-12+0021GOOG V0200601N003110390019N0006001N1+03201+01001101281ADDAA199000091AY141061AY221061GA1081+039009019GF108991081001999999021999MA1999999101051MD1999999-0031MW1061REMSYN088AAXX  29124 61627 31906 80606 10320 20100 30105 40128 70642 8802/ 333 0//00 59003 88463;EQDQ01  00002PRCP99
0204616270999992000012915004+15380-015120FM-12+0021GOOG V0200801N004112200019N0008001N1+03681+01221100981ADDAY141031GA1031+039009039GF199999031001999999031021MA1999999100751MD1999999-0051MW1061REMSYN088AAXX  29154 61627 42908 10808 10368 20122 30075 40098 7064/ 83032 333 59005 83363 86073;EQDQ01+000012SCOTCV
0228616270999992000012918004+15380-015120FM-12+0021GOOG V0200601N002110690019N0008001N1+03641+01041100951ADDAA199000091AY141061GA1071+069009019GF107991001001999999001021KA1120M+03751MA1999999100721MD1999999-0021MW1061REMSYN088AAXX  29184 61627 31908 70604 10364 20104 30072 40095 7064/ 80002 333 10375 59002 87073;EQDQ01  00002PRCP99
0179616270999992000012921004+15380-015120FM-12+0021GOOG V0209999C000012200019N0020001N1+03031+01181101151ADDAY141031GA1021+069009019GF102991001001999999001021MA1999999100921MD1999999-0041MW1061REMSYN082AAXX  29214 61627 41920 20000 10303 20118 30092 40115 7064/ 80002 333 59004 82073;
0203616270999992000013000004+15380-015120FM-12+0021GOOG V0200401N002112200019N0025001N1+02951+01201101281ADDAA199000091AY141061GA1001+999999999GF100991001001999999001001MA1999999101051MD1999999-0031MW1061REMSYN076AAXX  30004 61627 31925 00404 10295 20120 30105 40128 7064/ 333 0//00 59003;EQDQ01  00002PRCP99
0159616270999992000013003004+15380-015120FM-12+0021GOOG V0200401N001012200019N0025001N1+02681+01111101221ADDGA1001+999999999GF100991001001999999001001MA1999999100991MD1999999-0011MW1061REMSYN070AAXX  30034 61627 41925 00402 10268 20111 30099 40122 706// 333 59001;
0234616270999992000013006004+15380-015120FM-12+0021GOOG V0209999C000012200019N0040001N1+02311+01031101211ADDAA199000091GF102991001001999999001021IA2240+02209KA1120N+02311MA1999999100981MD1999999+0001MW1061REMSYN106AAXX  30064 61627 31940 20000 10231 20103 30098 40121 706// 80002 333 02200 20231 50680 55/// 58000 82073;EQDQ01  00002PRCP99
0206616270999992000013009004+15380-015120FM-12+0021GOOG V0203201N002110690019N0060001N1+02321+01131101381ADDAY121031AY221031GA1071+069009019GF199999001001999999001021MA1999999101141MD1999999+0011MW1061REMSYN082AAXX  30094 61627 42956 63204 10232 20113 30114 40138 70622 80002 333 58001 87073;EQDQ01+000062SCOTCV
0211616270999992000013012004+15380-015120FM-12+0021GOOG V0201201N003110690019N0060001N1+03451+01051101411ADDAA199000091GA1061+069009089GF106991999001999999001061MA1999999101181MD1999999+0131REMSYN082AAXX  30124 61627 32956 61206 10345 20105 30118 40141 80006 333 0//00 58013 86273;EQDQ01+000002SCOTLCQ02  00002PRCP99
0159616270999992000013015004+15380-015120FM-12+0021GOOG V0201201N003110690019N0060001N1+03711+01001101251ADDGA1061+069009019GF106991001001999999001021MA1999999101021MD1999999+0271REMSYN076AAXX  30154 61627 42956 61206 10371 20100 30102 40125 80002 333 58027 86073;
0208616270999992000013018004+15380-015120FM-12+0021GOOG V0201001N002110690019N0060001N1+03781+01101101191ADDAA199000091GA1061+069009019GF106991001001999999001021KA1120M+03811MA1999999100961MD1999999+0241REMSYN082AAXX  30184 61627 32956 61004 10378 20110 30096 40119 80002 333 10381 58024 86073;EQDQ01  00002PRCP99
0212616270999992000013106004+15380-015120FM-12+0021GOOG V0201001N002112200019N0070001N1+02501+00731101351ADDAA199000091GA1001+999999999GF100991001001999999001001IA2240+01709KA1120N+02501MA1999999101121REMSYN088AAXX  31064 61627 32957 01004 10250 20073 30112 40135 333 01700 20250 50920 55/// 58014;EQDQ01  00002PRCP99
0159616270999992000013109004+15380-015120FM-12+0021GOOG V0201001N003112200019N0080001N1+02701+00911101541ADDGA1031+069009019GF103991001001999999001021MA1999999101311MD1999999+0201REMSYN076AAXX  31094 61627 42958 31006 10270 20091 30131 40154 80002 333 58020 83073;
0217616270999992000013112004+15380-015120FM-12+0021GOOG V0201001N004110690019N0030001N1+03211+00981101681ADDAA199000091AY111061AY211061GA1051+069009019GF105991999999999999999999MA1999999101451MD1999999+0401MW1061REMSYN082AAXX  31124 61627 32930 51008 10321 20098 30145 40168 70611 333 0//00 58040 85073;EQDQ01  00002PRCP99
0159616270999992000013115004+15380-015120FM-12+0021GOOG V0200601N003110690019N0060001N1+03721+01021101431ADDGA1051+069009019GF105991001001999999001021MA1999999101201MD1999999+0181REMSYN076AAXX  31154 61627 42956 50606 10372 20102 30120 40143 80002 333 58018 85073;
0208616270999992000013118004+15380-015120FM-12+0021GOOG V0200401N002112200019N0100001N1+03581+00911101341ADDAA199000091GA1031+039009079GF104991031001999999031021KA1120M+03791MA1999999101111MD1999999+0151REMSYN082AAXX  31184 61627 32960 40404 10358 20091 30111 40134 83032 333 10379 58015 83363;EQDQ01  00002PRCP99
0159616270999992000013121004+15380-015120FM-12+0021GOOG V0200601N003112200019N0060001N1+03201+01031101511ADDGA1021+069009019GF102991001001999999001021MA1999999101281MD1999999+0181REMSYN076AAXX  31214 61627 42956 20606 10320 20103 30128 40151 80002 333 58018 82073;
0183616270999992000020100004+15380-015120FM-12+0021GOOG V0200401N004112200019N0060001N1+02901+00701101671ADDAA199000091GA1001+999999999GF100991001001999999001001MA1999999101441MD1999999+0261REMSYN070AAXX  01004 61627 32956 00408 10290 20070 30144 40167 333 0//00 58026;EQDQ01  00002PRCP99
0159616270999992000020109004+15380-015120FM-12+0021GOOG V0200401N003112200019N0060001N1+02281+00421101721ADDGA1011+069009019GF101991001001999999001021MA1999999101481MD1999999+0171REMSYN076AAXX  01094 61627 42956 10406 10228 20042 30148 40172 80002 333 58017 81073;
0195616270999992000020112004+15380-015120FM-12+0021GOOG V0200601N003112200019N0060001N1+03101+00551101661ADDAA199000091GA1021+069009019GF102991001001999999001021MA1999999101431MD1999999-0021REMSYN082AAXX  01124 61627 32956 20606 10310 20055 30143 40166 80002 333 0//00 59002 82073;EQDQ01  00002PRCP99
0147616270999992000020115004+15380-015120FM-12+0021GOOG V0200601N003112200019N0060001N1+03421+00331101401ADDGA1001+999999999GF100991001001999999001001MA1999999101171MD1999999-0031REMSYN064AAXX  01154 61627 42956 00606 10342 20033 30117 40140 333 59003;
0196616270999992000020118004+15380-015120FM-12+0021GOOG V0200601N002112200019N0060001N1+03301+00391101331ADDAA199000091GA1001+999999999GF100991001001999999001001KA1120M+03451MA1999999101101MD1999999-0011REMSYN070AAXX  01184 61627 32956 00604 10330 20039 30110 40133 333 10345 59001;EQDQ01  00002PRCP99
0183616270999992000020200004+15380-015120FM-12+0021GOOG V0200401N001012200019N0060001N1+02561+00831101511ADDAA199000091GA1001+999999999GF100991001001999999001001MA1999999101281MD1999999-0161REMSYN070AAXX  02004 61627 32956 00402 10256 20083 30128 40151 333 0//00 59016;EQDQ01  00002PRCP99
0212616270999992000020206004+15380-015120FM-12+0021GOOG V0200601N002112200019N0060001N1+02381+00661101461ADDAA199000091GA1001+999999999GF100991001001999999001001IA2240+01709KA1120N+02381MA1999999101231REMSYN088AAXX  02064 61627 32956 00604 10238 20066 30123 40146 333 01700 20238 50920 55/// 59014;EQDQ01  00002PRCP99
0147616270999992000020209004+15380-015120FM-12+0021GOOG V0200601N002112200019N0080001N1+02381+00561101601ADDGA1001+999999999GF100991001001999999001001MA1999999101361MD1999999-0121REMSYN064AAXX  02094 61627 42958 00604 10238 20056 30136 40160 333 59012;
0183616270999992000020212004+15380-015120FM-12+0021GOOG V0201001N003112200019N0070001N1+02951+00521101621ADDAA199000091GA1001+999999999GF100991001001999999001001MA1999999101391MD1999999-0041REMSYN070AAXX  02124 61627 32957 01006 10295 20052 30139 40162 333 0//00 59004;EQDQ01  00002PRCP99
0147616270999992000020215004+15380-015120FM-12+0021GOOG V0201001N004112200019N0070001N1+03311+00701101351ADDGA1001+999999999GF100991001001999999001001MA1999999101121MD1999999-0051REMSYN064AAXX  02154 61627 42957 01008 10331 20070 30112 40135 333 59005;
0196616270999992000020218004+15380-015120FM-12+0021GOOG V0200601N003112200019N0070001N1+03201+00681101251ADDAA199000091GA1001+999999999GF100991001001999999001001KA1120M+03351MA1999999101021MD1999999-0081REMSYN070AAXX  02184 61627 32957 00606 10320 20068 30102 40125 333 10335 59008;EQDQ01  00002PRCP99
0147616270999992000020221004+15380-015120FM-12+0021GOOG V0209999C000012200019N0070001N1+02801+01051101441ADDGA1001+999999999GF100991001001999999001001MA1999999101201MD1999999-0031REMSYN064AAXX  02214 61627 42957 00000 10280 20105 30120 40144 333 59003;
0183616270999992000020300004+15380-015120FM-12+0021GOOG V0209999C000012200019N0070001N1+02511+00831101551ADDAA199000091GA1001+999999999GF100991001001999999001001MA1999999101311MD1999999+0031REMSYN070AAXX  03004 61627 32957 00000 10251 20083 30131 40155 333 0//00 58003;EQDQ01  00002PRCP99
0212616270999992000020306004+15380-015120FM-12+0021GOOG V0209999C000012200019N0070001N1+02051+00541101471ADDAA199000091GA1001+999999999GF100991001001999999001001IA2240+01809KA1120N+02051MA1999999101231REMSYN088AAXX  03064 61627 32957 00000 10205 20054 30123 40147 333 01800 20205 50820 55/// 58002;EQDQ01  00002PRCP99
0147616270999992000020309004+15380-015120FM-12+0021GOOG V0200401N001012200019N0070001N1+02011+00561101641ADDGA1001+999999999GF100991001001999999001001MA1999999101401MD1999999+0041REMSYN064AAXX  03094 61627 42957 00402 10201 20056 30140 40164 333 58004;
0183616270999992000020312004+15380-015120FM-12+0021GOOG V0200601N004112200019N0070001N1+02921+00941101651ADDAA199000091GA1001+999999999GF100991001001999999001001MA1999999101411MD1999999+0021REMSYN070AAXX  03124 61627 32957 00608 10292 20094 30141 40165 333 0//00 58002;EQDQ01  00002PRCP99
0147616270999992000020315004+15380-015120FM-12+0021GOOG V0200401N003112200019N0070001N1+03041+01101101381ADDGA1001+999999999GF100991001001999999001001MA1999999101151MD1999999+0031REMSYN064AAXX  03154 61627 42957 00406 10304 20110 30115 40138 333 58003;
0196616270999992000020318004+15380-015120FM-12+0021GOOG V0200401N002112200019N0070001N1+03221+01061101291ADDAA199000091GA1001+999999999GF100991001001999999001001KA1120M+03401MA1999999101051MD1999999+0031REMSYN070AAXX  03184 61627 32957 00404 10322 20106 30105 40129 333 10340 58003;EQDQ01  00002PRCP99
0183616270999992000020400004+15380-015120FM-12+0021GOOG V0200401N001012200019N0070001N1+02321+00771101601ADDAA199000091GA1001+999999999GF100991001001999999001001MA1999999101321MD1999999+0051REMSYN070AAXX  04004 61627 32957 00402 10232 20077 30132 40160 333 0//00 58005;EQDQ01  00002PRCP99
0159616270999992000020409004+15380-015120FM-12+0021GOOG V0200401N003112200019N0080001N1+02081+00851101631ADDGA1021+039009079GF102991021001999999031001MA1999999101391MD1999999-0011REMSYN076AAXX  04094 61627 42958 20406 10208 20085 30139 40163 82030 333 59001 82363;
0195616270999992000020412004+15380-015120FM-12+0021GOOG V0200601N003112200019N0070001N1+03051+01191101601ADDAA199000091GA1011+039009079GF101991011001999999031001MA1999999101361MD1999999-0051REMSYN082AAXX  04124 61627 32957 10606 10305 20119 30136 40160 81030 333 0//00 59005 81363;EQDQ01  00002PRCP99
0159616270999992000020415004+15380-015120FM-12+0021GOOG V0200401N002112200019N0070001N1+03371+00971101341ADDGA1021+069009019GF102991001001999999001011MA1999999101101MD1999999-0051REMSYN076AAXX  04154 61627 42957 20404 10337 20097 30110 40134 80001 333 59005 82073;
0208616270999992000020418004+15380-015120FM-12+0021GOOG V0201001N003112200019N0070001N1+03301+00661101301ADDAA199000091GA1011+069009019GF101991001001999999001011KA1120M+03451MA1999999101061MD1999999+0021REMSYN082AAXX  04184 61627 32957 11006 10330 20066 30106 40130 80001 333 10345 58002 81073;EQDQ01  00002PRCP99
0183616270999992000020500004+15380-015120FM-12+0021GOOG V0200401N001012200019N0070001N1+02281+00841101561ADDAA199000091GA1001+999999999GF100991001001999999001001MA1999999101331MD1999999-0031REMSYN070AAXX  05004 61627 32957 00402 10228 20084 30133 40156 333 0//00 59003;EQDQ01  00002PRCP99
0184616270999992000020509004+15380-015120FM-12+0021GOOG V0200401N002119999999N0080001N1+02071+00821101631ADDGA1041+039009039GF106991999001999999031001MA1999999101391MD1999999+0001REMSYN082AAXX  05094 61627 42958 60404 10207 20082 30139 40163 84030 333 58000 84363 83073;EQDQ01+000042SCOTLC
0195616270999992000020512004+15380-015120FM-12+0021GOOG V0201001N004112200019N0070001N1+03131+01071101641ADDAA199000091GA1031+039009079GF103991031001999999031001MA1999999101401MD1999999+0041REMSYN082AAXX  05124 61627 32957 31008 10313 20107 30140 40164 83030 333 0//00 58004 83363;EQDQ01  00002PRCP99
0159616270999992000020515004+15380-015120FM-12+0021GOOG V0200801N003112200019N0070001N1+03451+01211101431ADDGA1031+039009079GF103991031001999999031001MA1999999101201MD1999999+0101REMSYN076AAXX  05154 61627 42957 30806 10345 20121 30120 40143 83030 333 58010 83363;
0208616270999992000020518004+15380-015120FM-12+0021GOOG V0200601N003112200019N0070001N1+03311+01201101341ADDAA199000091GA1011+039009079GF101991011001999999031001KA1120M+03501MA1999999101101MD1999999+0041REMSYN082AAXX  05184 61627 32957 10606 10331 20120 30110 40134 81030 333 10350 58004 81363;EQDQ01  00002PRCP99
0212616270999992000020606004+15380-015120FM-12+0021GOOG V0200401N002112200019N0080001N1+01951+00671101541ADDAA199000091GA1001+999999999GF100991001001999999001001IA2240+01509KA1120N+01751MA1999999101301REMSYN088AAXX  06064 61627 32958 00404 10195 20067 30130 40154 333 01500 20175 50780 55/// 58006;EQDQ01  00002PRCP99
0159616270999992000020609004+15380-015120FM-12+0021GOOG V0200601N001012200019N0080001N1+01901+00701101661ADDGA1021+069009019GF102991001001999999001021MA1999999101421MD1999999+0031REMSYN076AAXX  06094 61627 42958 20602 10190 20070 30142 40166 80002 333 58003 82073;
0195616270999992000020612004+15380-015120FM-12+0021GOOG V0200601N004112200019N0070001N1+02851+01051101721ADDAA199000091GA1031+069009019GF103991001001999999001021MA1999999101481MD1999999+0081REMSYN082AAXX  06124 61627 32957 30608 10285 20105 30148 40172 80002 333 0//00 58008 83073;EQDQ01  00002PRCP99
0159616270999992000020615004+15380-015120FM-12+0021GOOG V0200801N003110690019N0080001N1+03171+01251101451ADDGA1061+069009019GF106991001001999999001021MA1999999101211MD1999999+0011REMSYN076AAXX  06154 61627 42958 60806 10317 20125 30121 40145 80002 333 58001 86073;
0214616270999992000020618004+15380-015120FM-12+0021GOOG V0200601N003119999999N0080001N1+03181+01201101351ADDAA199000091GA1021+039009039GF106991021001999999031021KA1120M+03301MA1999999101111MD1999999+0011REMSYN088AAXX  06184 61627 32958 60606 10318 20120 30111 40135 82032 333 10330 58001 82363 85073;EQDQ01  00002PRCP99
0159616270999992000020709004+15380-015120FM-12+0021GOOG V0200401N002110690019N0080001N1+02151+01001101601ADDGA1061+069009019GF106991001001999999001021MA1999999101401MD1999999-0021REMSYN076AAXX  07094 61627 42958 60404 10215 20100 30140 40160 80002 333 59002 86073;
0195616270999992000020712004+15380-015120FM-12+0021GOOG V0200601N003110690019N0080001N1+02901+01001101661ADDAA199000091GA1051+069009019GF105991001001999999001021MA1999999101421MD1999999-0061REMSYN082AAXX  07124 61627 32958 50606 10290 20100 30142 40166 80002 333 0//00 59006 85073;EQDQ01  00002PRCP99
0159616270999992000020715004+15380-015120FM-12+0021GOOG V0200601N003110690019N0080001N1+03281+00921101391ADDGA1061+069009019GF106991001001999999001021MA1999999101171MD1999999-0051REMSYN076AAXX  07154 61627 42958 60606 10328 20092 30117 40139 80002 333 59005 86073;
0208616270999992000020718004+15380-015120FM-12+0021GOOG V0200601N002110690019N0080001N1+03171+00891101371ADDAA199000091GA1071+069009019GF107991001001999999001021KA1120M+03321MA1999999101131MD1999999+0021REMSYN082AAXX  07184 61627 32958 70604 10317 20089 30113 40137 80002 333 10332 58002 87073;EQDQ01  00002PRCP99
0159616270999992000020721004+15380-015120FM-12+0021GOOG V0200601N001019999999N0070001N1+02701+00701101521ADDGA1041+039009079GF106991041001999999071021MA1999999101281MD1999999+0071REMSYN076AAXX  07214 61627 42957 60602 10270 20070 30128 40152 84072 333 58007 84363;
0195616270999992000020800004+15380-015120FM-12+0021GOOG V0200401N001012200019N0070001N1+02451+00901101641ADDAA199000091GA1031+039009079GF103991031001999999071001MA1999999101401MD1999999+0061REMSYN082AAXX  08004 61627 32957 30402 10245 20090 30140 40164 83070 333 0//00 58006 83363;EQDQ01  00002PRCP99
0159616270999992000020809004+15380-015120FM-12+0021GOOG V0200401N002112200019N0100001N1+02101+00961101661ADDGA1031+069009019GF103991001001999999001021MA1999999101401MD1999999+0021REMSYN076AAXX  08094 61627 42960 30404 10210 20096 30140 40166 80002 333 58002 83073;
0195616270999992000020812004+15380-015120FM-12+0021GOOG V0200601N003110690019N0070001N1+03051+00991101661ADDAA199000091GA1061+069009019GF106991001001999999001021MA1999999101431MD1999999+0011REMSYN082AAXX  08124 61627 32957 60606 10305 20099 30143 40166 80002 333 0//00 58001 86073;EQDQ01  00002PRCP99
0159616270999992000020815004+15380-015120FM-12+0021GOOG V0200801N005110690019N0070001N1+03201+01081101521ADDGA1061+069009019GF106991001001999999001021MA1999999101281MD1999999+0121REMSYN076AAXX  08154 61627 42957 60810 10320 20108 30128 40152 80002 333 58012 86073;
0208616270999992000020818004+15380-015120FM-12+0021GOOG V0200601N003110690019N0070001N1+03201+01081101431ADDAA199000091GA1051+069009019GF105991001001999999001021KA1120M+03301MA1999999101191MD1999999+0061REMSYN082AAXX  08184 61627 32957 50606 10320 20108 30119 40143 80002 333 10330 58006 85073;EQDQ01  00002PRCP99
0195616270999992000020900004+15380-015120FM-12+0021GOOG V0200401N001012200019N0070001N1+02551+01271101631ADDAA199000091GA1031+069009019GF103991001001999999999021MA1999999101401MD1999999+0001REMSYN082AAXX  09004 61627 32957 30402 10255 20127 30140 40163 800/2 333 0//00 58000 83073;EQDQ01  00002PRCP99
0212616270999992000020906004+15380-015120FM-12+0021GOOG V0200401N002112200019N0070001N1+02361+01171101521ADDAA199000091GA1001+999999999GF100991001001999999001001IA2240+01409KA1120N+02361MA1999999101291REMSYN088AAXX  09064 61627 32957 00404 10236 20117 30129 40152 333 01400 20236 50860 55/// 59001;EQDQ01  00002PRCP99
0159616270999992000020909004+15380-015120FM-12+0021GOOG V0200401N003112200019N0080001N1+02401+01181101631ADDGA1021+069009019GF102991001001999999001021MA1999999101391MD1999999-0031REMSYN076AAXX  09094 61627 42958 20406 10240 20118 30139 40163 80002 333 59003 82073;
0195616270999992000020912004+15380-015120FM-12+0021GOOG V0200801N003112200019N0080001N1+02901+01421101641ADDAA199000091GA1041+069009019GF104991001001999999001021MA1999999101401MD1999999-0051REMSYN082AAXX  09124 61627 32958 40806 10290 20142 30140 40164 80002 333 0//00 59005 84073;EQDQ01  00002PRCP99
0159616270999992000020915004+15380-015120FM-12+0021GOOG V0200801N004110690019N0080001N1+03201+01561101411ADDGA1061+069009019GF106991001001999999001021MA1999999101181MD1999999-0101REMSYN076AAXX  09154 61627 42958 60808 10320 20156 30118 40141 80002 333 59010 86073;
0208616270999992000020918004+15380-015120FM-12+0021GOOG V0200401N003110690019N0080001N1+03101+01401101341ADDAA199000091GA1071+069009019GF107991001001999999001021KA1120M+03221MA1999999101101MD1999999-0091REMSYN082AAXX  09184 61627 32958 70406 10310 20140 30110 40134 80002 333 10322 59009 87073;EQDQ01  00002PRCP99
0147616270999992000021003004+15380-015120FM-12+0021GOOG V0200401N002112200019N0080001N1+02181+00871101441ADDGA1001+999999999GF100991001001999999001001MA1999999101201MD1999999-0101REMSYN064AAXX  10034 61627 42958 00404 10218 20087 30120 40144 333 59010;
0159616270999992000021009004+15380-015120FM-12+0021GOOG V0200601N002112200019N0100001N1+02051+01051101541ADDGA1011+039009079GF102991011001999999031021MA1999999101301MD1999999-0091REMSYN076AAXX  10094 61627 42960 20604 10205 20105 30130 40154 81032 333 59009 81363;
0195616270999992000021012004+15380-015120FM-12+0021GOOG V0200401N003112200019N0100001N1+02881+01521101541ADDAA199000091GA1041+069009019GF104991001001999999001021MA1999999101301MD1999999-0101REMSYN082AAXX  10124 61627 32960 40406 10288 20152 30130 40154 80002 333 0//00 59010 84073;EQDQ01  00002PRCP99
0159616270999992000021015004+15380-015120FM-12+0021GOOG V0200401N002110690019N0100001N1+03321+01261101261ADDGA1051+069009019GF105991001001999999001021MA1999999101031MD1999999-0151REMSYN076AAXX  10154 61627 42960 50404 10332 20126 30103 40126 80002 333 59015 85073;
0194616270999992000021018004+15380-015120FM-12+0021GOOG V0200601N002110390019N0100001N1+03181+01271101161ADDAA103999999GA1051+039009079GF106991051001999999081021KA1120M+03401MA1999999100931REMSYN082AAXX  10184 61627 32960 60604 10318 20127 30093 40116 85082 333 10340 69017 85363;EQDQ01  90092PRCP03
0159616270999992000021021004+15380-015120FM-12+0021GOOG V0200401N001010390019N0080001N1+02801+01331101341ADDGA1051+039009079GF105991051001999999071001MA1999999101101MD1999999-0101REMSYN076AAXX  10214 61627 42958 50402 10280 20133 30110 40134 85070 333 59010 85363;
0195616270999992000021100004+15380-015120FM-12+0021GOOG V0209999C000012200019N0080001N1+02451+01351101421ADDAA199000091GA1021+039009079GF102991021001999999071001MA1999999101181MD1999999-0121REMSYN082AAXX  11004 61627 32958 20000 10245 20135 30118 40142 82070 333 0//00 59012 82363;EQDQ01  00002PRCP99
0159616270999992000021109004+15380-015120FM-12+0021GOOG V0200601N002110390019N0100001N1+02141+01141101481ADDGA1061+039009079GF106991061001999999081001MA1999999101141MD1999999-0161REMSYN076AAXX  11094 61627 42960 60604 10214 20114 30114 40148 86080 333 59016 86363;
0201616270999992000021112004+15380-015120FM-12+0021GOOG V0200601N004119999999N0100001N1+03151+01851101371ADDAA199000091GA1021+039009039GF105991021001999999081021MA1999999101141MD1999999-0161REMSYN088AAXX  11124 61627 32960 50608 10315 20185 30114 40137 82082 333 0//00 59016 82363 84073;EQDQ01  00002PRCP99
0153616270999992000021115004+15380-015120FM-12+0021GOOG V0201001N003112200019N0100001N1+03461+01971999999ADDGA1041+069009019GF104991001001999999001021MA1999999100941MD1999999-0091REMSYN070AAXX  11154 61627 42960 41006 10346 20197 30094 80002 333 59009 84073;
0214616270999992000021118004+15380-015120FM-12+0021GOOG V0200601N002119999999N0100001N1+03281+01871101041ADDAA199000091GA1021+039009039GF106991021001999999031021KA1120M+03491MA1999999100811MD1999999-0121REMSYN088AAXX  11184 61627 32960 60604 10328 20187 30081 40104 82032 333 10349 59012 82363 85073;EQDQ01  00002PRCP99
0195616270999992000021200004+15380-015120FM-12+0021GOOG V0200401N001012200019N0080001N1+02451+01371101251ADDAA199000091GA1021+069009019GF102991001001999999001021MA1999999101021MD1999999-0161REMSYN082AAXX  12004 61627 32958 20402 10245 20137 30102 40125 80002 333 0//00 59016 82073;EQDQ01  00002PRCP99
0159616270999992000021209004+15380-015120FM-12+0021GOOG V0200401N002112200019N0100001N1+02201+01341101241ADDGA1031+069009019GF103991001001999999001021MA1999999101001MD1999999-0141REMSYN076AAXX  12094 61627 42960 30404 10220 20134 30100 40124 80002 333 59014 83073;
0201616270999992000021212004+15380-015120FM-12+0021GOOG V0200801N004112200019N0100001N1+03211+01401101281ADDAA199000091GA1021+039009039GF104991021001999999031021MA1999999101051MD1999999-0091REMSYN088AAXX  12124 61627 32960 40808 10321 20140 30105 40128 82032 333 0//00 59009 82363 83073;EQDQ01  00002PRCP99
0165616270999992000021215004+15380-015120FM-12+0021GOOG V0200801N003119999999N0100001N1+03521+01441101021ADDGA1011+039009039GF105991011001999999031021MA1999999100791MD1999999-0151REMSYN082AAXX  12154 61627 42960 50806 10352 20144 30079 40102 81032 333 59015 81363 85073;
0214616270999992000021218004+15380-015120FM-12+0021GOOG V0200601N002119999999N0100001N1+03401+01201100931ADDAA199000091GA1011+039009039GF106991011001999999031021KA1120M+03611MA1999999100701MD1999999-0111REMSYN088AAXX  12184 61627 32960 60604 10340 20120 30070 40093 81032 333 10361 59011 81363 86073;EQDQ01  00002PRCP99
0165616270999992000021221004+15380-015120FM-12+0021GOOG V0209999C000019999999N0080001N1+02881+01441101071ADDGA1011+039009039GF105991011001999999031021MA1999999100841MD1999999-0151REMSYN082AAXX  12214 61627 42958 50000 10288 20144 30084 40107 81032 333 59015 81363 85073;
0195616270999992000021300004+15380-015120FM-12+0021GOOG V0200401N002110690019N0080001N1+02681+01321101141ADDAA199000091GA1061+069009019GF106991001001999999001021MA1999999100911MD1999999-0111REMSYN082AAXX  13004 61627 32958 60404 10268 20132 30091 40114 80002 333 0//00 59011 86073;EQDQ01  00002PRCP99
0222616270999992000021306004+15380-015120FM-12+0021GOOG V0209999C000019999999N0080001N1+02441+01271101111ADDAA199000091GF106991001001999999001021IA2240+01509KA1120N+02441MA1999999100881MD1999999-0031REMSYN100AAXX  13064 61627 32958 60000 10244 20127 30088 40111 80002 333 01500 20244 51120 55/// 59003 86073;EQDQ01  00002PRCP99
0159616270999992000021309004+15380-015120FM-12+0021GOOG V0200601N002110690019N0100001N1+02581+01461101251ADDGA1061+069009019GF106991001001999999001021MA1999999101011MD1999999+0011REMSYN076AAXX  13094 61627 42960 60604 10258 20146 30101 40125 80002 333 58001 86073;
0201616270999992000021312004+15380-015120FM-12+0021GOOG V0200801N003110390019N0100001N1+03081+01821101311ADDAA199000091GA1051+039009039GF105991051001999999081021MA1999999101081MD1999999+0031REMSYN088AAXX  13124 61627 32960 50806 10308 20182 30108 40131 85082 333 0//00 58003 85363 83073;EQDQ01  00002PRCP99
0165616270999992000021315004+15380-015120FM-12+0021GOOG V0200801N002119999999N0100001N1+02601+02151101041ADDGA1031+039009039GF106991031001999999031021MA1999999100811MD1999999+0021REMSYN082AAXX  13154 61627 42960 60804 10260 20215 30081 40104 83032 333 58002 83363 85073;
0214616270999992000021318004+15380-015120FM-12+0021GOOG V0200601N002119999999N0100001N1+03501+02061100961ADDAA199000091GA1021+039009039GF105991021001999999031021KA1120M+03611MA1999999100731MD1999999+0031REMSYN088AAXX  13184 61627 32960 50604 10350 20206 30073 40096 82032 333 10361 58003 82363 85073;EQDQ01  00002PRCP99
0178616270999992000021321004+15380-015120FM-12+0021GOOG V0200401N001010390019N0080001N1+02971+01871101181ADDGA1061+039009019GF106991061001999999071999MA1999999100951MD1999999+0111REMSYN076AAXX  13214 61627 42958 60402 10297 20187 30095 40118 86070 333 58011 86463;EQDQ01+000002SCOHCG
0195616270999992000021400004+15380-015120FM-12+0021GOOG V0200601N002110390019N0080001N1+02701+01661101231ADDAA199000091GA1051+039009079GF105991051001999999071001MA1999999101001MD1999999+0081REMSYN082AAXX  14004 61627 32958 50604 10270 20166 30100 40123 85070 333 0//00 58008 85363;EQDQ01  00002PRCP99
0195616270999992000021412004+15380-015120FM-12+0021GOOG V0200801N003110390019N0100001N1+03081-00801101371ADDAA199000091GA1061+039009079GF106991061001999999071001MA1999999101141MD1999999+0061REMSYN082AAXX  14124 61627 32960 60806 10308 21080 30114 40137 86070 333 0//00 58006 86363;EQDQ01  00002PRCP99
0159616270999992000021415004+15380-015120FM-12+0021GOOG V0201201N003110390019N0100001N1+03551-00301101181ADDGA1051+039009079GF105991051001999999081001MA1999999100951MD1999999+0141REMSYN076AAXX  14154 61627 42960 51206 10355 21030 30095 40118 85080 333 58014 85363;
0208616270999992000021418004+15380-015120FM-12+0021GOOG V0201001N002110390019N0100001N1+03481-00201101041ADDAA199000091GA1061+039009079GF106991061001999999081001KA1120M+03601MA1999999100811MD1999999+0081REMSYN082AAXX  14184 61627 32960 61004 10348 21020 30081 40104 86080 333 10360 58008 86363;EQDQ01  00002PRCP99
0195616270999992000021500004+15380-015120FM-12+0021GOOG V0200401N002119999999N0080001N1+02701-00311101331ADDAA199000091GA1021+039009079GF106991061001999999071001MA1999999101101MD1999999+0101REMSYN082AAXX  15004 61627 32958 60404 10270 21031 30110 40133 86070 333 0//00 58010 82363;EQDQ01  00002PRCP99
0222616270999992000021506004+15380-015120FM-12+0021GOOG V0200401N001019999999N0080001N1+02421-00301101231ADDAA199000091GF105991051001999999071001IA2240+01809KA1120N+02421MA1999999101001MD1999999-0081REMSYN100AAXX  15064 61627 32958 50402 10242 21030 30100 40123 85070 333 01800 20242 50870 55/// 59008 85363;EQDQ01  00002PRCP99
0159616270999992000021509004+15380-015120FM-12+0021GOOG V0200801N002110390019N0100001N1+02501-00501101331ADDGA1071+039009079GF107991071001999999071999MA1999999101101MD1999999-0011REMSYN076AAXX  15094 61627 42960 70804 10250 21050 30110 40133 8707/ 333 59001 87363;
0201616270999992000021512004+15380-015120FM-12+0021GOOG V0200601N003119999999N0100001N1+03101-00701101411ADDAA199000091GA1031+039009039GF105991031001999999031021MA1999999101181MD1999999+0041REMSYN088AAXX  15124 61627 32960 50606 10310 21070 30118 40141 83032 333 0//00 58004 83363 83073;EQDQ01  00002PRCP99
0159616270999992000021515004+15380-015120FM-12+0021GOOG V0200401N002110390019N0100001N1+03281-00501101181ADDGA1051+039009079GF106991051001999999081021MA1999999100951MD1999999+0001REMSYN076AAXX  15154 61627 42960 60404 10328 21050 30095 40118 85082 333 58000 85363;
0208616270999992000021518004+15380-015120FM-12+0021GOOG V0200601N002110390019N0100001N1+03271-00531101081ADDAA199000091GA1071+039009079GF107991071001999999081999KA1120M+03331MA1999999100851MD1999999+0041REMSYN082AAXX  15184 61627 32960 70604 10327 21053 30085 40108 8708/ 333 10333 58004 87363;EQDQ01  00002PRCP99
0159616270999992000021521004+15380-015120FM-12+0021GOOG V0209999C000010390019N0080001N1+02711+00001101241ADDGA1061+039009079GF106991061001999999081001MA1999999101001MD1999999+0011REMSYN076AAXX  15214 61627 42958 60000 10271 20000 30100 40124 86080 333 58001 86363;
0195616270999992000021600004+15380-015120FM-12+0021GOOG V0200601N001010390019N0080001N1+02581+00101101281ADDAA199000091GA1071+039009079GF107991071001999999081999MA1999999101051MD1999999-0051REMSYN082AAXX  16004 61627 32958 70602 10258 20010 30105 40128 8708/ 333 0//00 59005 87363;EQDQ01  00002PRCP99
0159616270999992000021603004+15380-015120FM-12+0021GOOG V0209999C000012200019N0080001N1+02461+00141101221ADDGA1041+039009079GF104991041001999999081001MA1999999100991MD1999999-0011REMSYN076AAXX  16034 61627 42958 40000 10246 20014 30099 40122 84080 333 59001 84363;
0222616270999992000021606004+15380-015120FM-12+0021GOOG V0200401N002112200019N0080001N1+02371+00151101231ADDAA199000091GF102991021001999999081001IA2240+01809KA1120N+02371MA1999999101001MD1999999+0001REMSYN100AAXX  16064 61627 32958 20404 10237 20015 30100 40123 82080 333 01800 20237 50640 55/// 58000 82363;EQDQ01  00002PRCP99
0159616270999992000021609004+15380-015120FM-12+0021GOOG V0200601N002112200019N0100001N1+02421+00001101391ADDGA1041+039009079GF104991041001999999081001MA1999999101151MD1999999+0051REMSYN076AAXX  16094 61627 42960 40604 10242 20000 30115 40139 84080 333 58005 84363;
0195616270999992000021612004+15380-015120FM-12+0021GOOG V0200601N003112200019N0100001N1+03201-00331101411ADDAA199000091GA1031+039009079GF103991031001999999081001MA1999999101181MD1999999+0001REMSYN082AAXX  16124 61627 32960 30606 10320 21033 30118 40141 83080 333 0//00 58000 83363;EQDQ01  00002PRCP99
0159616270999992000021615004+15380-015120FM-12+0021GOOG V0200801N002112200019N0100001N1+03601-00461101201ADDGA1041+039009079GF104991041001999999081001MA1999999100971MD1999999+0021REMSYN076AAXX  16154 61627 42960 40804 10360 21046 30097 40120 84080 333 58002 84363;
0213616270999992000021618004+15380-015120FM-12+0021GOOG V0200401N002110390019N0100001N1+03511-00641101091ADDAA199000091AC10I9GA1061+039009079GF106991061001999999081001IA2240+00309MA1999999100861MD1999999+0011REMSYN082AAXX  16184 61627 32960 60404 10351 21064 30086 40109 86080 333 00364 58001 86363;EQDQ01  00002PRCP99
0159616270999992000021621004+15380-015120FM-12+0021GOOG V0200401N001012200019N0080001N1+02851+00081101221ADDGA1021+039009079GF104991021001999999031021MA1999999100991MD1999999-0011REMSYN076AAXX  16214 61627 42958 40402 10285 20008 30099 40122 82032 333 59001 82363;
0195616270999992000021700004+15380-015120FM-12+0021GOOG V0200401N002110390019N0080001N1+02651-00021101361ADDAA199000091GA1061+039009079GF106991061001999999081001MA1999999101131MD1999999+0081REMSYN082AAXX  17004 61627 32958 60404 10265 21002 30113 40136 86080 333 0//00 58008 86363;EQDQ01  00002PRCP99
0159616270999992000021709004+15380-015120FM-12+0021GOOG V0200401N002110390019N0100001N1+02281-00151101341ADDGA1061+039009079GF106991061001999999081001MA1999999101101MD1999999-0051REMSYN076AAXX  17094 61627 42960 60404 10228 21015 30110 40134 86080 333 59005 86363;
0195616270999992000021712004+15380-015120FM-12+0021GOOG V0200401N003112200019N0100001N1+03221-00091101381ADDAA199000091GA1021+039009079GF103991021001999999031021MA1999999101151MD1999999-0031REMSYN082AAXX  17124 61627 32960 30406 10322 21009 30115 40138 82032 333 0//00 59003 82363;EQDQ01  00002PRCP99
0178616270999992000021715004+15380-015120FM-12+0021GOOG V0200801N003112200019N0100001N1+03601+99999101161ADDGA1031+069009019GF103991001001999999001021MA1999999100931MD1999999-0041REMSYN076AAXX  17154 61627 42960 30806 10360 20144 30093 40116 80002 333 59004 83073;EQDQ01+001443ATOD  
0208616270999992000021718004+15380-015120FM-12+0021GOOG V0200401N002110690019N0100001N1+03491-00491101031ADDAA199000091GA1061+069009019GF106991001001999999001021KA1120M+03611MA1999999100801MD1999999-0061REMSYN082AAXX  17184 61627 32960 60404 10349 21049 30080 40103 80002 333 10361 59006 86073;EQDQ01  00002PRCP99
0159616270999992000021803004+15380-015120FM-12+0021GOOG V0200401N001012200019N0080001N1+02251-00211101161ADDGA1021+069009019GF102991001001999999001021MA1999999100931MD1999999-0101REMSYN076AAXX  18034 61627 42958 20402 10225 21021 30093 40116 80002 333 59010 82073;
0178616270999992000021809004+15380-015120FM-12+0021GOOG V0200601N001012200019N0100001N1+02181-00171101291ADDGA1041+039009079GF104991999001999999081001MA1999999101051MD1999999-0051REMSYN076AAXX  18094 61627 42960 40602 10218 21017 30105 40129 87080 333 59005 84363;EQDQ01+000072SCOTLC
0223616270999992000021812004+15380-015120FM-12+0021GOOG V0200601N003112200019N0100001N1+03051-00251101331ADDAA199000091GA1041+039009079GF199999031001999999081001IA2240+00009MA1999999101101MD1999999-0051REMSYN082AAXX  18124 61627 32960 30606 10305 21025 30110 40133 83080 333 00000 59005 84363;EQDQ01+000032SCOTCVQ02  00002PRCP99
0159616270999992000021815004+15380-015120FM-12+0021GOOG V0200401N002112200019N0050001N1+03541-00171101131ADDGA1021+039009079GF102991021001999999081001MA1999999100901MD1999999-0031REMSYN076AAXX  18154 61627 42950 20404 10354 21017 30090 40113 82080 333 59003 82363;
0208616270999992000021818004+15380-015120FM-12+0021GOOG V0203601N002112200019N0100001N1+03451-00151101031ADDAA199000091GA1021+039009079GF102991021001999999081001KA1120M+03601MA1999999100801MD1999999+0001REMSYN082AAXX  18184 61627 32960 23604 10345 21015 30080 40103 82080 333 10360 58000 82363;EQDQ01  00002PRCP99
0195616270999992000021900004+15380-015120FM-12+0021GOOG V0209999C000010390019N0080001N1+02731-00031101261ADDAA199000091GA1061+039009079GF106991061001999999081001MA1999999101031MD1999999+0011REMSYN082AAXX  19004 61627 32958 60000 10273 21003 30103 40126 86080 333 0//00 58001 86363;EQDQ01  00002PRCP99
0159616270999992000021909004+15380-015120FM-12+0021GOOG V0200801N002112200019N0100001N1+02471+00081101281ADDGA1041+039009079GF104991041001999999081001MA1999999101051MD1999999+0001REMSYN076AAXX  19094 61627 42960 40804 10247 20008 30105 40128 84080 333 58000 84363;
0195616270999992000021912004+15380-015120FM-12+0021GOOG V0200601N003112200019N0100001N1+03351-00341101291ADDAA199000091GA1041+039009079GF104991041001999999081001MA1999999101061MD1999999-0041REMSYN082AAXX  19124 61627 32960 40606 10335 21034 30106 40129 84080 333 0//00 59004 84363;EQDQ01  00002PRCP99
0159616270999992000021915004+15380-015120FM-12+0021GOOG V0200601N002110390019N0100001N1+03611-00251101031ADDGA1051+039009079GF105991051001999999081001MA1999999100801MD1999999-0101REMSYN076AAXX  19154 61627 42960 50604 10361 21025 30080 40103 85080 333 59010 85363;
0214616270999992000021918004+15380-015120FM-12+0021GOOG V0209999C000019999999N0100001N1+03551-00151100931ADDAA199000091GA1021+039009039GF105991021001999999031021KA1120M+03711MA1999999100701MD1999999-0101REMSYN088AAXX  19184 61627 32960 50000 10355 21015 30070 40093 82032 333 10371 59010 82363 84973;EQDQ01  00002PRCP99
0195616270999992000022000004+15380-015120FM-12+0021GOOG V0203601N001012200019N0080001N1+02571-00031101121ADDAA199000091GA1031+039009079GF103991031001999999081001MA1999999100891MD1999999-0061REMSYN082AAXX  20004 61627 32958 33602 10257 21003 30089 40112 83080 333 0//00 59006 83363;EQDQ01  00002PRCP99
0222616270999992000022006004+15380-015120FM-12+0021GOOG V0209999C000012200019N0080001N1+01761-00111101031ADDAA199000091GF104991041001999999081001IA2240+01509KA1120N+01761MA1999999100801MD1999999-0121REMSYN100AAXX  20064 61627 32958 40000 10176 21011 30080 40103 84080 333 01500 20176 51060 55/// 59012 84363;EQDQ01  00002PRCP99
0159616270999992000022009004+15380-015120FM-12+0021GOOG V0209999C000012200019N0100001N1+02001-00211101131ADDGA1031+039009079GF103991031001999999081001MA1999999100901MD1999999-0151REMSYN076AAXX  20094 61627 42960 30000 10200 21021 30090 40113 83080 333 59015 83363;
0183616270999992000022012004+15380-015120FM-12+0021GOOG V0200801N001012200019N0100001N1+03301-00101101131ADDAA199000091GA1001+999999999GF100991001001999999001001MA1999999100901MD1999999-0161REMSYN070AAXX  20124 61627 32960 00802 10330 21010 30090 40113 333 0//00 59016;EQDQ01  00002PRCP99
0154616270999992000022015004+15380-015120FM-12+0021GOOG V0200601N001012200019N0100001N1+99999+99999999999ADDAY101031AY281031GA1011+069009019GF101991001001999999001011MD1999999-0151MW1601REMSYN064AAXX  20154 61627 42960 10602 10/22 76008 80001 333 59015 81073;
0189616270999992000022018004+15380-015120FM-12+0021GOOG V0209999C000012200019N0100001N1+03701-00041100811ADDAA199000021GA1011+039009079GF101991011001999999031001KA1120M+03801MA1999999100581MD1999999-0121REMSYN082AAXX  20184 61627 32960 10000 10370 21004 30058 40081 81030 333 10380 59012 81363;
0176616270999992000022100004+15380-015120FM-12+0021GOOG V0203201N001010390019N0080001N1+02501-00071101011ADDAA199000021GA1051+039009079GF105991051001999999031001MA1999999100781MD1999999-0111REMSYN082AAXX  21004 61627 32958 53202 10250 21007 30078 40101 85030 333 0//00 59011 85363;
0159616270999992000022109004+15380-015120FM-12+0021GOOG V0203201N002110390019N0100001N1+02081+00361100981ADDGA1061+039009079GF106991061001999999031001MA1999999100751MD1999999-0151REMSYN076AAXX  21094 61627 42960 63204 10208 20036 30075 40098 86030 333 59015 86363;
0195616270999992000022112004+15380-015120FM-12+0021GOOG V0200801N002119999999N0100001N1+03351+00241101061ADDAA199000091GA1021+039009039GF106991021001999999031021MA1999999100831MD1999999-0071REMSYN082AAXX  21124 61627 32960 60804 10335 20024 30083 40106 82032 333 59007 82363 85073;EQDQ01  00002PRCP99
0159616270999992000022115004+15380-015120FM-12+0021GOOG V0201201N002112200019N0100001N1+03801+00331100881ADDGA1041+069009019GF104991001001999999001021MA1999999100651MD1999999+0001REMSYN076AAXX  21154 61627 42960 41204 10380 20033 30065 40088 80002 333 58000 84073;
0208616270999992000022118004+15380-015120FM-12+0021GOOG V0202601N001010690019N0100001N1+03721+00361100811ADDAA199000091GA1051+069009019GF105991001001999999001021KA1120M+03831MA1999999100581MD1999999+0001REMSYN082AAXX  21184 61627 32960 52602 10372 20036 30058 40081 80002 333 10383 58000 85073;EQDQ01  00002PRCP99
0257616270999992000022206004+15380-015120FM-12+0021GOOG V0209999C00001039001CN0080001N1+02101+01221101031ADDAA124000791AC12I9AY161061GA1051+039009039GF107991051001999999071021IA2240+01409KA1120N+02101MA1999999100801MD1999999+0131MW1001REMSYN118AAXX  22064 61627 11958 70000 10210 20122 30080 40103 69904 7006/ 85072 333 01416 20210 50790 55/// 58013 85363 84073;
0165616270999992000022209004+15380-015120FM-12+0021GOOG V0209999C000019999999N0100001N1+02031+01521101131ADDGA1031+039009039GF106991031001999999031021MA1999999100901MD1999999+0151REMSYN082AAXX  22094 61627 42960 60000 10203 20152 30090 40113 83032 333 58015 83363 85073;
0213616270999992000022212004+15380-015120FM-12+0021GOOG V0202801N001010390019N0100001N1+02801+01321101241ADDAA199000091GA1061+039009039GF107991061001999999031021IA2240+00009MA1999999101001MD1999999+0171REMSYN088AAXX  22124 61627 32960 72802 10280 20132 30100 40124 86032 333 00000 58017 86363 83073;EQDQ01  00002PRCP99
0159616270999992000022221004+15380-015120FM-12+0021GOOG V0203201N002110390019N0080001N1+02851+01401101171ADDGA1081+039009079GF108991081001999999071999MA1999999100941MD1999999+0221REMSYN076AAXX  22214 61627 42958 83204 10285 20140 30094 40117 8807/ 333 58022 88363;
0195616270999992000022300004+15380-015120FM-12+0021GOOG V0203201N002110390019N0080001N1+02471+01861101311ADDAA199000091GA1081+039009019GF108991081001999999071999MA1999999101071MD1999999+0171REMSYN082AAXX  23004 61627 32958 83204 10247 20186 30107 40131 8807/ 333 0//00 58017 88463;EQDQ01  00002PRCP99
0222616270999992000022306004+15380-015120FM-12+0021GOOG V0203201N002119999999N0080001N1+02091+01901101261ADDAA199000091GF108991081001999999071999IA2240+01509KA1120N+02091MA1999999101021MD1999999+0191REMSYN100AAXX  23064 61627 32958 83204 10209 20190 30102 40126 8807/ 333 01500 20209 50540 55/// 58019 88463;EQDQ01  00002PRCP99
0159616270999992000022309004+15380-015120FM-12+0021GOOG V0203601N002110390019N0100001N1+02131+01981101331ADDGA1071+039009079GF107991071001999999071999MA1999999101091MD1999999+0191REMSYN076AAXX  23094 61627 42960 73604 10213 20198 30109 40133 8707/ 333 58019 87363;
0195616270999992000022312004+15380-015120FM-12+0021GOOG V0203001N001010390019N0100001N1+02541+01801101411ADDAA199000091GA1061+039009079GF106991061001999999071001MA1999999101171MD1999999+0171REMSYN082AAXX  23124 61627 32960 63002 10254 20180 30117 40141 86070 333 0//00 58017 86363;EQDQ01  00002PRCP99
0159616270999992000022315004+15380-015120FM-12+0021GOOG V0203201N002112200019N0100001N1+03011+01251101141ADDGA1041+039009079GF104991041001999999081001MA1999999100911MD1999999+0111REMSYN076AAXX  23154 61627 42960 43204 10301 20125 30091 40114 84080 333 58011 84363;
0208616270999992000022318004+15380-015120FM-12+0021GOOG V0209999C000010390019N0100001N1+03101+00911101031ADDAA199000091GA1051+039009079GF105991051001999999081001KA1120M+03111MA1999999100801MD1999999+0021REMSYN082AAXX  23184 61627 32960 50000 10310 20091 30080 40103 85080 333 10311 58002 85363;EQDQ01  00002PRCP99
0153616270999992000022321004+15380-015120FM-12+0021GOOG V0209999C000010390019N0080001N1+02701+00921101141ADDGA1051+039009079GF105991999999999999999999MA1999999100911MD1999999-0031REMSYN070AAXX  23214 61627 42958 50000 10270 20092 30091 40114 333 59003 85363;
0159616270999992000022403004+15380-015120FM-12+0021GOOG V0203201N002110390019N0080001N1+02101+01501101161ADDGA1071+039009079GF107991071001999999071999MA1999999100931MD1999999-0121REMSYN076AAXX  24034 61627 42958 73204 10210 20150 30093 40116 8707/ 333 59012 87363;
0222616270999992000022406004+15380-015120FM-12+0021GOOG V0203201N001019999999N0080001N1+01911+01561101131ADDAA199000091GF107991071001999999071999IA2240+01709KA1120N+01911MA1999999100901MD1999999-0121REMSYN100AAXX  24064 61627 32958 73202 10191 20156 30090 40113 8707/ 333 01700 20191 50720 55/// 59012 87363;EQDQ01  00002PRCP99
0159616270999992000022409004+15380-015120FM-12+0021GOOG V0203201N001010390019N0100001N1+01901+01561101321ADDGA1081+039009079GF108991081001999999071999MA1999999101081MD1999999-0011REMSYN076AAXX  24094 61627 42960 83202 10190 20156 30108 40132 8807/ 333 59001 88363;
0195616270999992000022412004+15380-015120FM-12+0021GOOG V0203601N001010390019N0100001N1+02301+01541101351ADDAA199000091GA1061+039009079GF106991061001999999081001MA1999999101111MD1999999-0061REMSYN082AAXX  24124 61627 32960 63602 10230 20154 30111 40135 86080 333 0//00 59006 86363;EQDQ01  00002PRCP99
0159616270999992000022415004+15380-015120FM-12+0021GOOG V0203601N002110390019N0100001N1+02771+01441101131ADDGA1071+039009079GF107991071001999999081999MA1999999100901MD1999999-0011REMSYN076AAXX  24154 61627 42960 73604 10277 20144 30090 40113 8708/ 333 59001 87363;
0208616270999992000022418004+15380-015120FM-12+0021GOOG V0203201N001010390019N0100001N1+02801+01371101031ADDAA199000091GA1071+039009079GF107991071001999999071999KA1120M+02801MA1999999100801MD1999999+0001REMSYN082AAXX  24184 61627 32960 73202 10280 20137 30080 40103 8707/ 333 10280 58000 87363;EQDQ01  00002PRCP99
0159616270999992000022509004+15380-015120FM-12+0021GOOG V0203601N002110390019N0100001N1+02201+01221101241ADDGA1061+039009079GF106991061001999999071001MA1999999101001MD1999999-0081REMSYN076AAXX  25094 61627 42960 63604 10220 20122 30100 40124 86070 333 59008 86363;
0195616270999992000022512004+15380-015120FM-12+0021GOOG V0200401N002112200019N0100001N1+02881+00811101241ADDAA199000091GA1041+039009079GF104991041001999999081001MA1999999101001MD1999999-0211REMSYN082AAXX  25124 61627 32960 40404 10288 20081 30100 40124 84080 333 0//00 59021 84363;EQDQ01  00002PRCP99
0147616270999992000022515004+15380-015120FM-12+0021GOOG V0200401N002112200019N0100001N1+03451+00741100971ADDGA1001+999999999GF100991001001999999001001MA1999999100741MD1999999-0161REMSYN064AAXX  25154 61627 42960 00404 10345 20074 30074 40097 333 59016;
0147616270999992000022521004+15380-015120FM-12+0021GOOG V0203201N001012200019N0080001N1+03001+00931101051ADDGA1001+999999999GF100991001001999999001001MA1999999100821MD1999999-0081REMSYN064AAXX  25214 61627 42958 03202 10300 20093 30082 40105 333 59008;
0183616270999992000022600004+15380-015120FM-12+0021GOOG V0203201N001012200019N0080001N1+02651+01021101221ADDAA199000091GA1001+999999999GF100991001001999999001001MA1999999100991MD1999999+0011REMSYN070AAXX  26004 61627 32958 03202 10265 20102 30099 40122 333 0//00 58001;EQDQ01  00002PRCP99
0212616270999992000022606004+15380-015120FM-12+0021GOOG V0203201N001012200019N0080001N1+02201+01181101091ADDAA199000091GA1001+999999999GF100991001001999999001001IA2240+01709KA1120N+02201MA1999999100861REMSYN088AAXX  26064 61627 32958 03202 10220 20118 30086 40109 333 01700 20220 50970 55/// 59003;EQDQ01  00002PRCP99
0159616270999992000022609004+15380-015120FM-12+0021GOOG V0200401N001012200019N0100001N1+02401+01281101261ADDGA1011+069009019GF101991001001999999001021MA1999999101021MD1999999+0021REMSYN076AAXX  26094 61627 42960 10402 10240 20128 30102 40126 80002 333 58002 81073;
0223616270999992000022612004+15380-015120FM-12+0021GOOG V0200401N002110390019N0080001N1+03231+00801101251ADDAA199000091GA1051+039009019GF105991051001999999071999IA2240+00009MA1999999101021MD1999999+0021REMSYN082AAXX  26124 61627 32958 50404 10323 20080 30102 40125 85070 333 00000 58002 85463;EQDQ01+000002SCOHCGQ02  00002PRCP99
0159616270999992000022615004+15380-015120FM-12+0021GOOG V0209999C000012200019N0080001N1+03801+00721100931ADDGA1021+039009079GF102991021001999999031001MA1999999100701MD1999999-0041REMSYN076AAXX  26154 61627 42958 20000 10380 20072 30070 40093 82030 333 59004 82363;
0208616270999992000022618004+15380-015120FM-12+0021GOOG V0209999C000012200019N0080001N1+03801+00721100831ADDAA199000091GA1041+069009019GF104991001001999999001021KA1120M+03931MA1999999100601MD1999999-0091REMSYN082AAXX  26184 61627 32958 40000 10380 20072 30060 40083 80002 333 10393 59009 84073;EQDQ01  00002PRCP99
0147616270999992000022703004+15380-015120FM-12+0021GOOG V0203201N002112200019N9999999N1+02201+01341100981ADDGA1001+999999999GF100991001001999999001001MA1999999100751MD1999999-0151REMSYN064AAXX  27034 61627 2/58/ 03204 10220 20134 30075 40098 333 59015;
0212616270999992000022706004+15380-015120FM-12+0021GOOG V02099999999992200019N0080001N1+02011+01371100941ADDAA199000091GA1001+999999999GF100991001001999999001001IA2240+01609KA1120N+02011MA1999999100711REMSYN088AAXX  27064 61627 32958 00/08 10201 20137 30071 40094 333 01600 20201 50820 55/// 59015;EQDQ01  00002PRCP99
0147616270999992000022709004+15380-015120FM-12+0021GOOG V0203201N001012200019N0080001N1+02141+01311101041ADDGA1001+999999999GF100991001001999999001001MA1999999100811MD1999999-0011REMSYN064AAXX  27094 61627 42958 03202 10214 20131 30081 40104 333 59001;
0183616270999992000022712004+15380-015120FM-12+0021GOOG V0200401N002112200019N0080001N1+03411+00681101051ADDAA199000091GA1001+999999999GF100991001001999999001001MA1999999100821MD1999999-0201REMSYN070AAXX  27124 61627 32958 00404 10341 20068 30082 40105 333 0//00 59020;EQDQ01  00002PRCP99
0147616270999992000022715004+15380-015120FM-12+0021GOOG V0200401N001012200019N0080001N1+04041+00941100761ADDGA1001+999999999GF100991001001999999001001MA1999999100531MD1999999-0171REMSYN064AAXX  27154 61627 42958 00402 10404 20094 30053 40076 333 59017;
0196616270999992000022718004+15380-015120FM-12+0021GOOG V0203201N001012200019N0080001N1+04001+00921100671ADDAA199000091GA1001+999999999GF100991001001999999001001KA1120M+04201MA1999999100441MD1999999-0161REMSYN070AAXX  27184 61627 32958 03202 10400 20092 30044 40067 333 10420 59016;EQDQ01  00002PRCP99
0147616270999992000022721004+15380-015120FM-12+0021GOOG V0203201N002112200019N0080001N1+03381+00961100791ADDGA1001+999999999GF100991001001999999001001MA1999999100561MD1999999-0141REMSYN064AAXX  27214 61627 42958 03204 10338 20096 30056 40079 333 59014;
0183616270999992000022800004+15380-015120FM-12+0021GOOG V0203201N002112200019N0080001N1+02741+01101100991ADDAA199000091GA1001+999999999GF100991001001999999001001MA1999999100761MD1999999-0041REMSYN070AAXX  28004 61627 32958 03204 10274 20110 30076 40099 333 0//00 59004;EQDQ01  00002PRCP99
0212616270999992000022806004+15380-015120FM-12+0021GOOG V0209999C000012200019N0080001N1+02301+01321100931ADDAA199000091GA1001+999999999GF100991001001999999001001IA2240+01409KA1120N+02301MA1999999100701REMSYN088AAXX  28064 61627 32958 00000 10230 20132 30070 40093 333 01400 20230 50820 55/// 59001;EQDQ01  00002PRCP99
0147616270999992000022809004+15380-015120FM-12+0021GOOG V0203601N002112200019N0070001N1+02431+01221101061ADDGA1001+999999999GF100991001001999999001001MA1999999100831MD1999999+0021REMSYN064AAXX  28094 61627 42957 03604 10243 20122 30083 40106 333 58002;
0183616270999992000022812004+15380-015120FM-12+0021GOOG V0200201N002112200019N0060001N1+03221+00981101111ADDAA199000091GA1001+999999999GF100991001001999999001001MA1999999100881MD1999999+0061REMSYN070AAXX  28124 61627 32956 00204 10322 20098 30088 40111 333 0//00 58006;EQDQ01  00002PRCP99
0147616270999992000022815004+15380-015120FM-12+0021GOOG V0200601N001012200019N0060001N1+03781+00681100851ADDGA1001+999999999GF100991001001999999001001MA1999999100621MD1999999+0091REMSYN064AAXX  28154 61627 42956 00602 10378 20068 30062 40085 333 58009;
0196616270999992000022818004+15380-015120FM-12+0021GOOG V0203201N002112200019N0060001N1+03751+00541100741ADDAA199000091GA1001+999999999GF100991001001999999001001KA1120M+03861MA1999999100511MD1999999+0071REMSYN070AAXX  28184 61627 32956 03204 10375 20054 30051 40074 333 10386 58007;EQDQ01  00002PRCP99
0183616270999992000022900004+15380-015120FM-12+0021GOOG V0203201N002112200019N0060001N1+02581+01241101031ADDAA199000091GA1001+999999999GF100991001001999999001001MA1999999100801MD1999999+0041REMSYN070AAXX  29004 61627 32956 03204 10258 20124 30080 40103 333 0//00 58004;EQDQ01  00002PRCP99
0175616270999992000022909004+15380-015120FM-12+0021GOOG V0203201N001012200019N0040001N1+02051+01591101061ADDAY101031AY201031GA1001+999999999GF100991001001999999001001MA1999999100831MD1999999+0001MW1061REMSYN070AAXX  29094 61627 41940 03202 10205 20159 30083 40106 70600 333 58000;
0227616270999992000022912004+15380-015120FM-12+0021GOOG V0209999C000012200019N0015001N1+03722+00961101101ADDAA199000091AY101061AY201061GA1001+999999999GF100991001001999999001001MA1999999100871MD1999999-0011MW1061REMSYN076AAXX  29124 61627 31915 00000 10372 20096 30087 40110 70600 333 0//00 59001;EQDQ01+003723ATOT  Q02  00002PRCP99
0159616270999992000022915004+15380-015120FM-12+0021GOOG V0209999C000012200019N0020001N1+04001+00821100851ADDGA1001+999999999GF100991001001999999001001MA1999999100621MD1999999+0001MW1061REMSYN070AAXX  29154 61627 41920 00000 10400 20082 30062 40085 706// 333 58000;
0136616270999992000022918004+15380-015120FM-12+0021GOOG V0209999C000012200019N0070001N1+03951+00771999999ADDAA199000091GF102991021001999999071031MD1810011+9999REMSYN054AAXX  29184 61627 32957 20000 10395 20077 58001 82073;EQDQ01  00002PRCP99
0224616270999992000030106004+15380-015120FM-12+0021GOOG V0200401N001012200019N0020001N1+02101+00781101031ADDAA199000091GA1001+999999999GF100991001001999999001001IA2240+01709KA1120N+02101MA1999999100801MW1061REMSYN094AAXX  01064 61627 31920 00402 10210 20078 30080 40103 706// 333 01700 20210 50900 55/// 58011;EQDQ01  00002PRCP99
0175616270999992000030109004+15380-015120FM-12+0021GOOG V0209999C000012200019N0020001N1+02101+00851101131ADDAY101031AY201031GA1001+999999999GF100991001001999999001001MA1999999100901MD1999999+0071MW1061REMSYN070AAXX  01094 61627 41920 00000 10210 20085 30090 40113 70600 333 58007;
0211616270999992000030111004+15380-015120FM-12+0021GOOG V0209999C000012200019N0020001N1+03402+00731101151ADDAA199000091AY101999AY201999GA1001+999999999GF100991001001999999001001MA1999999100921MD1999999+0051MW1031REMSYN076AAXX  01114 61627 31920 00000 10340 20073 30092 40115 70300 333 0//00 58005;EQDQ01  00002PRCP99
0211616270999992000030112004+15380-015120FM-12+0021GOOG V0209999C000012200019N0020001N1+03401+00731101151ADDAA199000091AY101061AY201061GA1001+999999999GF100991001001999999001001MA1999999100921MD1999999+0051MW1061REMSYN076AAXX  01124 61627 31920 00000 10340 20073 30092 40115 70600 333 0//00 58005;EQDQ01  00002PRCP99
0159616270999992000030115004+15380-015120FM-12+0021GOOG V0203601N001012200019N0020001N1+04001+00921100931ADDGA1001+999999999GF100991001001999999001001MA1999999100701MD1999999+0081MW1061REMSYN070AAXX  01154 61627 41920 03602 10400 20092 30070 40093 706// 333 58008;
0208616270999992000030118004+15380-015120FM-12+0021GOOG V0202801N001012200019N0027001N1+03901+00811100811ADDAA199000091GA1001+999999999GF100991001001999999001001KA1120M+04071MA1999999100581MD1999999+0061MW1061REMSYN076AAXX  01184 61627 31927 02802 10390 20081 30058 40081 706// 333 10407 58006;EQDQ01  00002PRCP99
0159616270999992000030121004+15380-015120FM-12+0021GOOG V0203001N002112200019N0025001N1+03241+00881100931ADDGA1001+999999999GF100991001001999999001001MA1999999100701MD1999999+0001MW1061REMSYN070AAXX  01214 61627 41925 03004 10324 20088 30070 40093 706// 333 58000;
0195616270999992000030200004+15380-015120FM-12+0021GOOG V0203001N001012200019N0025001N1+02681+01161101111ADDAA199000091GA1001+999999999GF100991001001999999001001MA1999999100881MD1999999+0031MW1061REMSYN076AAXX  02004 61627 31925 03002 10268 20116 30088 40111 706// 333 0//00 58003;EQDQ01  00002PRCP99
0159616270999992000030203004+15380-015120FM-12+0021GOOG V0203201N001012200019N0025001N1+02351+01181101061ADDGA1001+999999999GF100991001001999999001001MA1999999100831MD1999999+0031MW1061REMSYN070AAXX  02034 61627 41925 03202 10235 20118 30083 40106 706// 333 58003;
0224616270999992000030206004+15380-015120FM-12+0021GOOG V0209999C000012200019N0025001N1+02131+01361101031ADDAA199000091GA1001+999999999GF100991001001999999001001IA2240+01709KA1120N+02131MA1999999100801MW1061REMSYN094AAXX  02064 61627 31925 00000 10213 20136 30080 40103 706// 333 01700 20213 50890 55/// 58000;EQDQ01  00002PRCP99
0187616270999992000030209004+15380-015120FM-12+0021GOOG V0203201N002112200019N0025001N1+02151+01621101151ADDAY101031AY201031GA1011+039009079GF101991011001999999031001MA1999999100921MD1999999+0021MW1061REMSYN082AAXX  02094 61627 41925 13204 10215 20162 30092 40115 70600 81030 333 58002 81363;
0211616270999992000030212004+15380-015120FM-12+0021GOOG V0203001N001012200019N0025001N1+03071+01351101211ADDAA199000091AY101061AY201061GA1001+999999999GF100991001001999999001001MA1999999100981MD1999999+0061MW1061REMSYN076AAXX  02124 61627 31925 03002 10307 20135 30098 40121 70600 333 0//00 58006;EQDQ01  00002PRCP99
0159616270999992000030215004+15380-015120FM-12+0021GOOG V0203601N001012200019N0030001N1+03681+01001100931ADDGA1001+999999999GF100991001001999999001001MA1999999100701MD1999999+0001MW1061REMSYN070AAXX  02154 61627 41930 03602 10368 20100 30070 40093 706// 333 58000;
0208616270999992000030218004+15380-015120FM-12+0021GOOG V0203201N001012200019N0030001N1+03621+00761100811ADDAA199000091GA1001+999999999GF100991001001999999001001KA1120M+03781MA1999999100581MD1999999+0001MW1061REMSYN076AAXX  02184 61627 31930 03202 10362 20076 30058 40081 706// 333 10378 58000;EQDQ01  00002PRCP99
0159616270999992000030221004+15380-015120FM-12+0021GOOG V0203201N001012200019N0030001N1+03151+01021100951ADDGA1001+999999999GF100991001001999999001001MA1999999100721MD1999999+0021MW1061REMSYN070AAXX  02214 61627 41930 03202 10315 20102 30072 40095 706// 333 58002;
0195616270999992000030300004+15380-015120FM-12+0021GOOG V0203201N002112200019N0030001N1+02681+01521101071ADDAA199000091GA1001+999999999GF100991001001999999001001MA1999999100841MD1999999-0041MW1061REMSYN076AAXX  03004 61627 31930 03204 10268 20152 30084 40107 706// 333 0//00 59004;EQDQ01  00002PRCP99
0175616270999992000030309004+15380-015120FM-12+0021GOOG V0203401N002112200019N0045001N1+02281+01971101121ADDAY101031AY201031GA1001+999999999GF100991001001999999001001MA1999999100891MD1999999-0031MW1061REMSYN070AAXX  03094 61627 41945 03404 10228 20197 30089 40112 70600 333 59003;
0159616270999992000030315004+15380-015120FM-12+0021GOOG V0203601N001012200019N0040001N1+03711+00871100931ADDGA1001+999999999GF100991001001999999001001MA1999999100701MD1999999+0001MW1061REMSYN070AAXX  03154 61627 41940 03602 10371 20087 30070 40093 706// 333 58000;
0208616270999992000030318004+15380-015120FM-12+0021GOOG V0203601N001012200019N0040001N1+03701+00981100811ADDAA199000091GA1001+999999999GF100991001001999999001001KA1120M+03801MA1999999100581MD1999999+0001MW1061REMSYN076AAXX  03184 61627 31940 03602 10370 20098 30058 40081 706// 333 10380 58000;EQDQ01  00002PRCP99
0159616270999992000030321004+15380-015120FM-12+0021GOOG V0209999C000012200019N0040001N1+03201+01911100941ADDGA1001+999999999GF100991001001999999001001MA1999999100711MD1999999-0011MW1061REMSYN070AAXX  03214 61627 41940 00000 10320 20191 30071 40094 706// 333 59001;
0195616270999992000030400004+15380-015120FM-12+0021GOOG V0209999C000012200019N0040001N1+02901+00981101041ADDAA199000091GA1001+999999999GF100991001001999999001001MA1999999100811MD1999999-0031MW1061REMSYN076AAXX  04004 61627 32940 00000 10290 20098 30081 40104 706// 333 0//00 59003;EQDQ01  00002PRCP99
0159616270999992000030403004+15380-015120FM-12+0021GOOG V0203201N001012200019N0035001N1+02511+01101101011ADDGA1001+999999999GF100991001001999999001001MA1999999100781MD1999999+0041MW1061REMSYN070AAXX  04034 61627 42935 03202 10251 20110 30078 40101 706// 333 58004;
0175616270999992000030409004+15380-015120FM-12+0021GOOG V0203601N001012200019N0040001N1+02381+00941101131ADDAY101031AY201031GA1001+999999999GF100991001001999999001001MA1999999100901MD1999999+0011MW1061REMSYN070AAXX  04094 61627 41940 03602 10238 20094 30090 40113 70600 333 58001;
0159616270999992000030414004+15380-015120FM-12+0021GOOG V0200401N002112200019N0040001N1+03781+00681100921ADDGA1001+999999999GF100991001001999999001001MA1999999100691MD1999999-0011MW1061REMSYN070AAXX  04144 61627 41940 00404 10378 20068 30069 40092 706// 333 59001;
0159616270999992000030415004+15380-015120FM-12+0021GOOG V0200401N002112200019N0040001N1+03781+00721100921ADDGA1001+999999999GF100991001001999999001001MA1999999100691MD1999999-0011MW1061REMSYN070AAXX  04154 61627 41940 00404 10378 20072 30069 40092 706// 333 59001;
0208616270999992000030418004+15380-015120FM-12+0021GOOG V0200201N002112200019N0040001N1+03801+00401100791ADDAA199000091GA1001+999999999GF100991001001999999001001KA1120M+03901MA1999999100561MD1999999-0021MW1061REMSYN076AAXX  04184 61627 31940 00204 10380 20040 30056 40079 706// 333 10390 59002;EQDQ01  00002PRCP99
0195616270999992000030500004+15380-015120FM-12+0021GOOG V0203401N002112200019N0040001N1+02801+01001101081ADDAA199000091GA1001+999999999GF100991001001999999001001MA1999999100851MD1999999+0041MW1061REMSYN076AAXX  05004 61627 31940 03404 10280 20100 30085 40108 706// 333 0//00 58004;EQDQ01  00002PRCP99
0159616270999992000030503004+15380-015120FM-12+0021GOOG V0203201N002112200019N0040001N1+02501+00891101031ADDGA1001+999999999GF100991001001999999001001MA1999999100801MD1999999+0021MW1061REMSYN070AAXX  05034 61627 41940 03204 10250 20089 30080 40103 706// 333 58002;
0175616270999992000030509004+15380-015120FM-12+0021GOOG V0203601N002112200019N0045001N1+02371+00921101131ADDAY101031AY201031GA1001+999999999GF100991001001999999001001MA1999999100901MD1999999+0001MW1061REMSYN070AAXX  05094 61627 41945 03604 10237 20092 30090 40113 70600 333 58000;
0223616270999992000030512004+15380-015120FM-12+0021GOOG V0200201N002112200019N0045001N1+03331+01011101211ADDAA199000091AY101061AY201061GA1001+999999999GF100991001001999999001001IA2240+00009MA1999999100981MD1999999+0031MW1061REMSYN076AAXX  05124 61627 31945 00204 10333 20101 30098 40121 70600 333 00000 58003;EQDQ01  00002PRCP99
0159616270999992000030515004+15380-015120FM-12+0021GOOG V0200401N001012200019N0045001N1+03941+00861100931ADDGA1001+999999999GF100991001001999999001001MA1999999100701MD1999999+0011MW1061REMSYN070AAXX  05154 61627 41945 00402 10394 20086 30070 40093 706// 333 58001;
0208616270999992000030518004+15380-015120FM-12+0021GOOG V0209999C000012200019N0045001N1+03911+00861100761ADDAA199000091GA1001+999999999GF100991001001999999001001KA1120M+04001MA1999999100531MD1999999-0031MW1061REMSYN076AAXX  05184 61627 31945 00000 10391 20086 30053 40076 706// 333 10400 59003;EQDQ01  00002PRCP99
0159616270999992000030521004+15380-015120FM-12+0021GOOG V0209999C000012200019N0040001N1+03201+00821100921ADDGA1001+999999999GF100991001001999999001001MA1999999100691MD1999999-0011MW1061REMSYN070AAXX  05214 61627 41940 00000 10320 20082 30069 40092 706// 333 59001;
0195616270999992000030600004+15380-015120FM-12+0021GOOG V0203601N002112200019N0040001N1+02901+01431101031ADDAA199000091GA1001+999999999GF100991001001999999001001MA1999999100801MD1999999-0051MW1061REMSYN076AAXX  06004 61627 31940 03604 10290 20143 30080 40103 706// 333 0//00 59005;EQDQ01  00002PRCP99
0175616270999992000030609004+15380-015120FM-12+0021GOOG V0209999C000012200019N0045001N1+02551+01351101181ADDAY101031AY201031GA1001+999999999GF100991001001999999001001MA1999999100951MD1999999+0051MW1061REMSYN070AAXX  06094 61627 41945 00000 10255 20135 30095 40118 70600 333 58005;
0211616270999992000030612004+15380-015120FM-12+0021GOOG V0203601N003112200019N0040001N1+03621+00801101151ADDAA199000091AY101061AY201061GA1001+999999999GF100991001001999999001001MA1999999100821MD1999999-0061MW1061REMSYN076AAXX  06124 61627 31940 03606 10362 20080 30082 40115 70600 333 0//00 59006;EQDQ01  00002PRCP99
0147616270999992000030615004+15380-015120FM-12+0021GOOG V0200601N003112200019N0060001N1+04181+00541100861ADDGA1001+999999999GF100991001001999999001001MA1999999100631MD1999999-0071REMSYN064AAXX  06154 61627 42956 00606 10418 20054 30063 40086 333 59007;
0211616270999992000030618004+15380-015120FM-12+0021GOOG V0203601N003112200019N0040001N1+03621+00801101151ADDAA199000091AY101061AY201061GA1001+999999999GF100991001001999999001001MA1999999100821MD1999999-0061MW1061REMSYN076AAXX  06184 61627 31940 03606 10362 20080 30082 40115 70600 333 0//00 59006;EQDQ01  00002PRCP99
0147616270999992000030621004+15380-015120FM-12+0021GOOG V0209999C000012200019N0060001N1+03431+00761100851ADDGA1001+999999999GF100991001001999999001001MA1999999100621MD1999999-0071REMSYN064AAXX  06214 61627 42956 00000 10343 20076 30062 40085 333 59007;
0183616270999992000030700004+15380-015120FM-12+0021GOOG V0203201N002112200019N0060001N1+02981+01081100961ADDAA199000091GA1001+999999999GF100991001001999999001001MA1999999100731MD1999999-0071REMSYN070AAXX  07004 61627 32956 03204 10298 20108 30073 40096 333 0//00 59007;EQDQ01  00002PRCP99
0147616270999992000030703004+15380-015120FM-12+0021GOOG V0203601N001012200019N0060001N1+02761+01091100901ADDGA1001+999999999GF100991001001999999001001MA1999999100671MD1999999-0121REMSYN064AAXX  07034 61627 42956 03602 10276 20109 30067 40090 333 59012;
0212616270999992000030706004+15380-015120FM-12+0021GOOG V0203601N001012200019N0060001N1+02671+01001100861ADDAA199000091GA1001+999999999GF100991001001999999001001IA2240+01909KA1120N+02671MA1999999100631REMSYN088AAXX  07064 61627 32956 03602 10267 20100 30063 40086 333 01900 20267 51110 55/// 59015;EQDQ01  00002PRCP99
0147616270999992000030709004+15380-015120FM-12+0021GOOG V0203601N001012200019N0080001N1+02751+00841100971ADDGA1001+999999999GF100991001001999999001001MA1999999100741MD1999999-0211REMSYN064AAXX  07094 61627 42958 03602 10275 20084 30074 40097 333 59021;
0183616270999992000030712004+15380-015120FM-12+0021GOOG V0201201N004112200019N0080001N1+03911+00811100991ADDAA199000091GA1001+999999999GF100991001001999999001001MA1999999100761MD1999999-0161REMSYN070AAXX  07124 61627 32958 01208 10391 20081 30076 40099 333 0//00 59016;EQDQ01  00002PRCP99
0147616270999992000030715004+15380-015120FM-12+0021GOOG V0201001N005112200019N0070001N1+04281+00951100761ADDGA1001+999999999GF100991001001999999001001MA1999999100531MD1999999-0101REMSYN064AAXX  07154 61627 42957 01010 10428 20095 30053 40076 333 59010;
0196616270999992000030718004+15380-015120FM-12+0021GOOG V0201201N002112200019N0070001N1+04171+00871100641ADDAA199000091GA1001+999999999GF100991001001999999001001KA1120M+04301MA1999999100411MD1999999-0101REMSYN070AAXX  07184 61627 32957 01204 10417 20087 30041 40064 333 10430 59010;EQDQ01  00002PRCP99
0147616270999992000030721004+15380-015120FM-12+0021GOOG V0200601N001012200019N0070001N1+03501+01171100741ADDGA1001+999999999GF100991001001999999001001MA1999999100511MD1999999-0111REMSYN064AAXX  07214 61627 42957 00602 10350 20117 30051 40074 333 59011;
0183616270999992000030800004+15380-015120FM-12+0021GOOG V0200401N001012200019N0070001N1+03201+00981100831ADDAA199000091GA1001+999999999GF100991001001999999001001MA1999999100601MD1999999-0131REMSYN070AAXX  08004 61627 32957 00402 10320 20098 30060 40083 333 0//00 59013;EQDQ01  00002PRCP99
0212616270999992000030806004+15380-015120FM-12+0021GOOG V0209999C000012200019N0070001N1+02311+00681100811ADDAA199000091GA1001+999999999GF100991001001999999001001IA2240+02209KA1120N+02311MA1999999100581REMSYN088AAXX  08064 61627 32957 00000 10231 20068 30058 40081 333 02200 20231 51060 55/// 59005;EQDQ01  00002PRCP99
0147616270999992000030809004+15380-015120FM-12+0021GOOG V0200801N001012200019N0080001N1+02681+01091101031ADDGA1001+999999999GF100991001001999999001001MA1999999100801MD1999999+0061REMSYN064AAXX  08094 61627 42958 00802 10268 20109 30080 40103 333 58006;
0183616270999992000030812004+15380-015120FM-12+0021GOOG V0201201N004112200019N0070001N1+03751+00931101121ADDAA199000091GA1001+999999999GF100991001001999999001001MA1999999100891MD1999999+0071REMSYN070AAXX  08124 61627 32957 01208 10375 20093 30089 40112 333 0//00 58007;EQDQ01  00002PRCP99
0147616270999992000030815004+15380-015120FM-12+0021GOOG V0200801N003112200019N0070001N1+04201+00771100861ADDGA1001+999999999GF100991001001999999001001MA1999999100631MD1999999+0101REMSYN064AAXX  08154 61627 42957 00806 10420 20077 30063 40086 333 58010;
0196616270999992000030818004+15380-015120FM-12+0021GOOG V0201001N002112200019N0080001N1+04101+00881100771ADDAA199000091GA1001+999999999GF100991001001999999001001KA1120M+04211MA1999999100541MD1999999+0131REMSYN070AAXX  08184 61627 32958 01004 10410 20088 30054 40077 333 10421 58013;EQDQ01  00002PRCP99
0147616270999992000030821004+15380-015120FM-12+0021GOOG V0209999C000012200019N0070001N1+03381+01021100931ADDGA1001+999999999GF100991001001999999001001MA1999999100701MD1999999+0191REMSYN064AAXX  08214 61627 42957 00000 10338 20102 30070 40093 333 58019;
0183616270999992000030900004+15380-015120FM-12+0021GOOG V0209999C000012200019N0070001N1+03141+00981101061ADDAA199000091GA1001+999999999GF100991001001999999001001MA1999999100831MD1999999+0231REMSYN070AAXX  09004 61627 32957 00000 10314 20098 30083 40106 333 0//00 58023;EQDQ01  00002PRCP99
0212616270999992000030906004+15380-015120FM-12+0021GOOG V0200401N002112200019N0070001N1+02541+00951101021ADDAA199000091GA1001+999999999GF100991001001999999001001IA2240+01809KA1120N+02541MA1999999100791REMSYN088AAXX  09064 61627 32957 00404 10254 20095 30079 40102 333 01800 20254 51100 55/// 58021;EQDQ01  00002PRCP99
0147616270999992000030909004+15380-015120FM-12+0021GOOG V0200401N001012200019N0080001N1+02681+00911101161ADDGA1001+999999999GF100991001001999999001001MA1999999100931MD1999999+0131REMSYN064AAXX  09094 61627 42958 00402 10268 20091 30093 40116 333 58013;
0183616270999992000030912004+15380-015120FM-12+0021GOOG V0200801N004112200019N0060001N1+03871+01101101161ADDAA199000091GA1001+999999999GF100991001001999999001001MA1999999100931MD1999999+0041REMSYN070AAXX  09124 61627 32956 00808 10387 20110 30093 40116 333 0//00 58004;EQDQ01  00002PRCP99
0147616270999992000030915004+15380-015120FM-12+0021GOOG V0201201N004112200019N0060001N1+04181+01041100921ADDGA1001+999999999GF100991001001999999001001MA1999999100691MD1999999+0061REMSYN064AAXX  09154 61627 42956 01208 10418 20104 30069 40092 333 58006;
0196616270999992000030918004+15380-015120FM-12+0021GOOG V0200601N002112200019N0060001N1+04081+00901100811ADDAA199000091GA1001+999999999GF100991001001999999001001KA1120M+04221MA1999999100581MD1999999+0041REMSYN070AAXX  09184 61627 32956 00604 10408 20090 30058 40081 333 10422 58004;EQDQ01  00002PRCP99
0147616270999992000030921004+15380-015120FM-12+0021GOOG V0200201N002112200019N0080001N1+03451+00971100941ADDGA1001+999999999GF100991001001999999001001MA1999999100711MD1999999+0011REMSYN064AAXX  09214 61627 42958 00204 10345 20097 30071 40094 333 58001;
0183616270999992000031000004+15380-015120FM-12+0021GOOG V0200201N001012200019N0080001N1+02981+00871101061ADDAA199000091GA1001+999999999GF100991001001999999001001MA1999999100831MD1999999+0001REMSYN070AAXX  10004 61627 32958 00202 10298 20087 30083 40106 333 0//00 58000;EQDQ01  00002PRCP99
0147616270999992000031003004+15380-015120FM-12+0021GOOG V0200201N001012200019N0080001N1+02801+00781100961ADDGA1001+999999999GF100991001001999999001001MA1999999100731MD1999999-0061REMSYN064AAXX  10034 61627 42958 00202 10280 20078 30073 40096 333 59006;
0212616270999992000031006004+15380-015120FM-12+0021GOOG V0200401N001012200019N0080001N1+02561+00631100951ADDAA199000091GA1001+999999999GF100991001001999999001001IA2240+01809KA1120N+02561MA1999999100721REMSYN088AAXX  10064 61627 32958 00402 10256 20063 30072 40095 333 01800 20256 51180 55/// 59007;EQDQ01  00002PRCP99
0147616270999992000031009004+15380-015120FM-12+0021GOOG V0200601N003112200019N0080001N1+02771+00881101111ADDGA1001+999999999GF100991001001999999001001MA1999999100881MD1999999-0051REMSYN064AAXX  10094 61627 42958 00606 10277 20088 30088 40111 333 59005;
0183616270999992000031012004+15380-015120FM-12+0021GOOG V0200601N004112200019N0080001N1+03781+01131101131ADDAA199000091GA1001+999999999GF100991001001999999001001MA1999999100901MD1999999-0031REMSYN070AAXX  10124 61627 32958 00608 10378 20113 30090 40113 333 0//00 59003;EQDQ01  00002PRCP99
0147616270999992000031015004+15380-015120FM-12+0021GOOG V0200401N002112200019N0080001N1+04081+00901100831ADDGA1001+999999999GF100991001001999999001001MA1999999100601MD1999999-0091REMSYN064AAXX  10154 61627 42958 00404 10408 20090 30060 40083 333 59009;
0196616270999992000031018004+15380-015120FM-12+0021GOOG V0200601N003112200019N0080001N1+03981+00941100721ADDAA199000091GA1001+999999999GF100991001001999999001001KA1120M+04111MA1999999100491MD1999999-0021REMSYN070AAXX  10184 61627 32958 00606 10398 20094 30049 40072 333 10411 59002;EQDQ01  00002PRCP99
0183616270999992000031100004+15380-015120FM-12+0021GOOG V0200401N001012200019N0080001N1+03001+01181100951ADDAA199000091GA1001+999999999GF100991001001999999001001MA1999999100721MD1999999-0111REMSYN070AAXX  11004 61627 32958 00402 10300 20118 30072 40095 333 0//00 59011;EQDQ01  00002PRCP99
0147616270999992000031103004+15380-015120FM-12+0021GOOG V0200401N002112200019N0080001N1+02721+01081100901ADDGA1001+999999999GF100991001001999999001001MA1999999100671MD1999999-0061REMSYN064AAXX  11034 61627 42958 00404 10272 20108 30067 40090 333 59006;
0206616270999992000031106004+15380-015120FM-12+0021GOOG V0200401N001012200019N0080001N1+02581+99999100921ADDAA199000091GA1001+999999999GF100991001001999999001001IA2240+02109KA1120N+02581MA1999999100691REMSYN082AAXX  11064 61627 32958 00402 10258 30069 40092 333 02100 20258 51460 55/// 59003;EQDQ01  00002PRCP99
0147616270999992000031109004+15380-015120FM-12+0021GOOG V0200601N004112200019N0080001N1+03001+01231101031ADDGA1001+999999999GF100991001001999999001001MA1999999100801MD1999999-0081REMSYN064AAXX  11094 61627 42958 00608 10300 20123 30080 40103 333 59008;
0211616270999992000031112004+15380-015120FM-12+0021GOOG V0200101N005112200019N0020001N1+03641+00981101041ADDAA199000091AY101061AY201061GA1001+999999999GF100991001001999999001001MA1999999100811MD1999999-0091MW1071REMSYN076AAXX  11124 61627 31920 00110 10364 20098 30081 40104 70700 333 0//00 59009;EQDQ01  00002PRCP99
0159616270999992000031115004+15380-015120FM-12+0021GOOG V0201001N004112200019N0025001N1+03901+01181100821ADDGA1001+999999999GF100991001001999999001001MA1999999100591MD1999999-0011MW1061REMSYN070AAXX  11154 61627 41925 01008 10390 20118 30059 40082 706// 333 59001;
0208616270999992000031118004+15380-015120FM-12+0021GOOG V0200601N002112200019N0040001N1+03871+00871100741ADDAA199000091GA1001+999999999GF100991001001999999001001KA1120M+03991MA1999999100511MD1999999+0021MW1061REMSYN076AAXX  11184 61627 31940 00604 10387 20087 30051 40074 706// 333 10399 58002;EQDQ01  00002PRCP99
0183616270999992000031200004+15380-015120FM-12+0021GOOG V0200201N001012200019N0060001N1+02931+01001100931ADDAA199000091GA1001+999999999GF100991001001999999001001MA1999999100701MD1999999-0021REMSYN070AAXX  12004 61627 32956 00202 10293 20100 30070 40093 333 0//00 59002;EQDQ01  00002PRCP99
0147616270999992000031209004+15380-015120FM-12+0021GOOG V0200401N001012200019N0080001N1+02551+00981101031ADDGA1001+999999999GF100991001001999999001001MA1999999100801MD1999999+0001REMSYN064AAXX  12094 61627 42958 00402 10255 20098 30080 40103 333 58000;
0183616270999992000031212004+15380-015120FM-12+0021GOOG V0200601N003112200019N0080001N1+03581+01181101021ADDAA199000091GA1001+999999999GF100991001001999999001001MA1999999100791MD1999999-0021REMSYN070AAXX  12124 61627 32958 00606 10358 20118 30079 40102 333 0//00 59002;EQDQ01  00002PRCP99
0147616270999992000031215004+15380-015120FM-12+0021GOOG V0200801N003112200019N0080001N1+03991+01371100781ADDGA1001+999999999GF100991001001999999001001MA1999999100551MD1999999-0041REMSYN064AAXX  12154 61627 42958 00806 10399 20137 30055 40078 333 59004;
0196616270999992000031218004+15380-015120FM-12+0021GOOG V0200401N001012200019N0080001N1+03891+01351100651ADDAA199000091GA1001+999999999GF100991001001999999001001KA1120M+04001MA1999999100421MD1999999-0091REMSYN070AAXX  12184 61627 32958 00402 10389 20135 30042 40065 333 10400 59009;EQDQ01  00002PRCP99
0147616270999992000031221004+15380-015120FM-12+0021GOOG V0209999C000012200019N0080001N1+03201+01061100811ADDGA1001+999999999GF100991001001999999001001MA1999999100581MD1999999-0031REMSYN064AAXX  12214 61627 42958 00000 10320 20106 30058 40081 333 59003;
0183616270999992000031300004+15380-015120FM-12+0021GOOG V0209999C000012200019N0080001N1+02801+00921100921ADDAA199000091GA1001+999999999GF100991001001999999001001MA1999999100691MD1999999-0011REMSYN070AAXX  13004 61627 32958 00000 10280 20092 30069 40092 333 0//00 59001;EQDQ01  00002PRCP99
0212616270999992000031306004+15380-015120FM-12+0021GOOG V0209999C000012200019N0080001N1+02401+00671100841ADDAA199000091GA1001+999999999GF100991001001999999001001IA2240+01709KA1120N+02401MA1999999100611REMSYN088AAXX  13064 61627 32958 00000 10240 20067 30061 40084 333 01700 20240 51110 55/// 58000;EQDQ01  00002PRCP99
0147616270999992000031309004+15380-015120FM-12+0021GOOG V0200601N001012200019N0080001N1+02801+00781101041ADDGA1001+999999999GF100991001001999999001001MA1999999100811MD1999999+0011REMSYN064AAXX  13094 61627 42958 00602 10280 20078 30081 40104 333 58001;
0183616270999992000031312004+15380-015120FM-12+0021GOOG V0200801N001012200019N0070001N1+03781+00901101081ADDAA199000091GA1001+999999999GF100991001001999999001001MA1999999100851MD1999999+0061REMSYN070AAXX  13124 61627 32957 00802 10378 20090 30085 40108 333 0//00 58006;EQDQ01  00002PRCP99
0147616270999992000031315004+15380-015120FM-12+0021GOOG V0200401N002112200019N0080001N1+04041+01031100881ADDGA1001+999999999GF100991001001999999001001MA1999999100651MD1999999+0101REMSYN064AAXX  13154 61627 42958 00404 10404 20103 30065 40088 333 58010;
0208616270999992000031318004+15380-015120FM-12+0021GOOG V0200401N002110690019N0080001N1+03941+00921100831ADDAA199000091GA1051+069009019GF105991001001999999001021KA1120M+04111MA1999999100601MD1999999+0181REMSYN082AAXX  13184 61627 32958 50404 10394 20092 30060 40083 80002 333 10411 58018 85073;EQDQ01  00002PRCP99
0147616270999992000031321004+15380-015120FM-12+0021GOOG V0200401N001012200019N0080001N1+03331+01011100991ADDGA1001+999999999GF100991001001999999001001MA1999999100761MD1999999+0181REMSYN064AAXX  13214 61627 42958 00402 10333 20101 30076 40099 333 58018;
0183616270999992000031400004+15380-015120FM-12+0021GOOG V0200201N002112200019N0080001N1+02951+00981101071ADDAA199000091GA1001+999999999GF100991001001999999001001MA1999999100841MD1999999+0151REMSYN070AAXX  14004 61627 32958 00204 10295 20098 30084 40107 333 0//00 58015;EQDQ01  00002PRCP99
0147616270999992000031403004+15380-015120FM-12+0021GOOG V0200201N002112200019N0080001N1+02631+00831100981ADDGA1001+999999999GF100991001001999999001001MA1999999100751MD1999999+0151REMSYN064AAXX  14034 61627 42958 00204 10263 20083 30075 40098 333 58015;
0147616270999992000031409004+15380-015120FM-12+0021GOOG V0200601N002112200019N0080001N1+02771+01031101141ADDGA1001+999999999GF100991001001999999001001MA1999999100911MD1999999+0101REMSYN064AAXX  14094 61627 42958 00604 10277 20103 30091 40114 333 58010;
0183616270999992000031412004+15380-015120FM-12+0021GOOG V0200601N004112200019N0070001N1+03641+01321101231ADDAA199000091GA1001+999999999GF100991001001999999001001MA1999999101001MD1999999+0151REMSYN070AAXX  14124 61627 32957 00608 10364 20132 30100 40123 333 0//00 58015;EQDQ01  00002PRCP99
0163616270999992000031415004+15380-015120FM-12+0021GOOG V0200801N002110690019N9999999N1+04021+01191100941ADDGA1051+069009019GF105991001001999999001021MD1999999+0061REMSYN076AAXX  14154 61627 2/58/ 50804 10402 20119 3/071 40094 80002 333 58006 85073;EQDQ01+008002SCOLCB
0208616270999992000031418004+15380-015120FM-12+0021GOOG V0203601N001010690019N0080001N1+03821+01071100961ADDAA199000091GA1051+069009019GF105991001001999999001021KA1120M+04021MA1999999100731MD1999999+0131REMSYN082AAXX  14184 61627 32958 53602 10382 20107 30073 40096 80002 333 10402 58013 85073;EQDQ01  00002PRCP99
0147616270999992000031421004+15380-015120FM-12+0021GOOG V0200201N001012200019N0080001N1+03281+01111101001ADDGA1001+999999999GF100991001001999999001001MA1999999100771MD1999999+0011REMSYN064AAXX  14214 61627 42958 00202 10328 20111 30077 40100 333 58001;
0183616270999992000031500004+15380-015120FM-12+0021GOOG V0209999C000012200019N0080001N1+02851+01001101031ADDAA199000091GA1001+999999999GF100991001001999999001001MA1999999100801MD1999999-0041REMSYN070AAXX  15004 61627 32958 00000 10285 20100 30080 40103 333 0//00 59004;EQDQ01  00002PRCP99
0159616270999992000031503004+15380-015120FM-12+0021GOOG V0200401N001012200019N0080001N1+02681+01131100921ADDGA1021+069009019GF102991001001999999001021MA1999999100691MD1999999-0061REMSYN076AAXX  15034 61627 42958 20402 10268 20113 30069 40092 80002 333 59006 82073;
0147616270999992000031509004+15380-015120FM-12+0021GOOG V0200401N002112200019N0080001N1+02631+00961101021ADDGA1001+999999999GF100991001001999999001001MA1999999100791MD1999999-0121REMSYN064AAXX  15094 61627 42958 00404 10263 20096 30079 40102 333 59012;
0183616270999992000031512004+15380-015120FM-12+0021GOOG V0200601N003112200019N0100001N1+03681+00931101031ADDAA199000091GA1001+999999999GF100991001001999999001001MA1999999100801MD1999999-0201REMSYN070AAXX  15124 61627 32960 00606 10368 20093 30080 40103 333 0//00 59020;EQDQ01  00002PRCP99
0147616270999992000031515004+15380-015120FM-12+0021GOOG V0209999C000012200019N0100001N1+03991+01211100821ADDGA1001+999999999GF100991001001999999001001MA1999999100591MD1999999-0121REMSYN064AAXX  15154 61627 42960 00000 10399 20121 30059 40082 333 59012;
0196616270999992000031518004+15380-015120FM-12+0021GOOG V0209999C000012200019N0100001N1+03891+01271100721ADDAA199000091GA1001+999999999GF100991001001999999001001KA1120M+04001MA1999999100491MD1999999-0201REMSYN070AAXX  15184 61627 32960 00000 10389 20127 30049 40072 333 10400 59020;EQDQ01  00002PRCP99
0147616270999992000031521004+15380-015120FM-12+0021GOOG V0209999C000012200019N0080001N1+03101+01091100821ADDGA1001+999999999GF100991001001999999001001MA1999999100591MD1999999-0181REMSYN064AAXX  15214 61627 42958 00000 10310 20109 30059 40082 333 59018;
0183616270999992000031600004+15380-015120FM-12+0021GOOG V0200201N001012200019N0080001N1+02831+00781100931ADDAA199000091GA1001+999999999GF100991001001999999001001MA1999999100701MD1999999-0101REMSYN070AAXX  16004 61627 32958 00202 10283 20078 30070 40093 333 0//00 59010;EQDQ01  00002PRCP99
0212616270999992000031606004+15380-015120FM-12+0021GOOG V0209999C000012200019N0080001N1+02351+00531100781ADDAA199000091GA1001+999999999GF100991001001999999001001IA2240+01509KA1120N+02351MA1999999100551REMSYN088AAXX  16064 61627 32958 00000 10235 20053 30055 40078 333 01500 20235 51060 55/// 59013;EQDQ01  00002PRCP99
0147616270999992000031609004+15380-015120FM-12+0021GOOG V0209999C000012200019N0100001N1+02401+00681100931ADDGA1001+999999999GF100991001001999999001001MA1999999100701MD1999999-0091REMSYN064AAXX  16094 61627 42960 00000 10240 20068 30070 40093 333 59009;
0183616270999992000031612004+15380-015120FM-12+0021GOOG V0200801N003112200019N0100001N1+03611+01151100981ADDAA199000091GA1001+999999999GF100991001001999999001001MA1999999100751MD1999999-0051REMSYN070AAXX  16124 61627 32960 00806 10361 20115 30075 40098 333 0//00 59005;EQDQ01  00002PRCP99
0147616270999992000031615004+15380-015120FM-12+0021GOOG V0200601N002112200019N0100001N1+03951+01471100741ADDGA1001+999999999GF100991001001999999001001MA1999999100511MD1999999-0081REMSYN064AAXX  16154 61627 42960 00604 10395 20147 30051 40074 333 59008;
0183616270999992000031700004+15380-015120FM-12+0021GOOG V0203601N001012200019N0080001N1+02881+00861100831ADDAA199000091GA1001+999999999GF100991001001999999001001MA1999999100601MD1999999-0101REMSYN070AAXX  17004 61627 32958 03602 10288 20086 30060 40083 333 0//00 59010;EQDQ01  00002PRCP99
0147616270999992000031703004+15380-015120FM-12+0021GOOG V0200201N001012200019N0080001N1+02641+00601100741ADDGA1001+999999999GF100991001001999999001001MA1999999100511MD1999999-0071REMSYN064AAXX  17034 61627 42958 00202 10264 20060 30051 40074 333 59007;
0212616270999992000031706004+15380-015120FM-12+0021GOOG V0209999C000012200019N0080001N1+02081+00261100741ADDAA199000091GA1001+999999999GF100991001001999999001001IA2240+01509KA1120N+02081MA1999999100511REMSYN088AAXX  17064 61627 32958 00000 10208 20026 30051 40074 333 01500 20208 50780 55/// 59004;EQDQ01  00002PRCP99
0159616270999992000031715004+15380-015120FM-12+0021GOOG V0209999C000012200019N0100001N1+04001+01201100621ADDGA1021+039009079GF102991021001999999031001MA1999999100391MD1999999-0121REMSYN076AAXX  17154 61627 42960 20000 10400 20120 30039 40062 82030 333 59012 82363;
0147616270999992000031721004+15380-015120FM-12+0021GOOG V0209999C000012200019N0080001N1+03271+00721100731ADDGA1001+999999999GF100991001001999999001001MA1999999100501MD1999999+0021REMSYN064AAXX  17214 61627 42958 00000 10327 20072 30050 40073 333 58002;
0183616270999992000031800004+15380-015120FM-12+0021GOOG V0200201N002112200019N0080001N1+03051+01061100851ADDAA199000091GA1001+999999999GF100991001001999999001001MA1999999100621MD1999999+0021REMSYN070AAXX  18004 61627 32958 00204 10305 20106 30062 40085 333 0//00 58002;EQDQ01  00002PRCP99
0183616270999992000031803004+15380-015120FM-12+0021GOOG V0200201N002112200019N0080001N1+03051+01061100851ADDAA199000091GA1001+999999999GF100991001001999999001001MA1999999100621MD1999999+0021REMSYN070AAXX  18034 61627 32958 00204 10305 20106 30062 40085 333 0//00 58002;EQDQ01  00002PRCP99
0183616270999992000031804004+15380-015120FM-12+0021GOOG V0200201N002112200019N0080001N1+03051+01061100851ADDAA199000091GA1001+999999999GF100991001001999999001001MA1999999100621MD1999999+0021REMSYN070AAXX  18044 61627 32958 00204 10305 20106 30062 40085 333 0//00 58002;EQDQ01  00002PRCP99
0212616270999992000031806004+15380-015120FM-12+0021GOOG V0200201N002112200019N0180001N1+02631+00741100741ADDAA199000091GA1001+999999999GF100991001001999999001001IA2240+01509KA1120N+02631MA1999999100511REMSYN088AAXX  18064 61627 32968 00204 10263 20074 30051 40074 333 01500 20263 51100 55/// 58000;EQDQ01  00002PRCP99
0147616270999992000031809004+15380-015120FM-12+0021GOOG V0200801N001012200019N0100001N1+02751+00921100891ADDGA1001+999999999GF100991001001999999001001MA1999999100661MD1999999+0021REMSYN064AAXX  18094 61627 42960 00802 10275 20092 30066 40089 333 58002;
0183616270999992000031812004+15380-015120FM-12+0021GOOG V0200201N004112200019N0100001N1+03551+01321100951ADDAA199000091GA1001+999999999GF100991001001999999001001MA1999999100721MD1999999+0081REMSYN070AAXX  18124 61627 32960 00208 10355 20132 30072 40095 333 0//00 58008;EQDQ01  00002PRCP99
0147616270999992000031815004+15380-015120FM-12+0021GOOG V0200401N002112200019N0100001N1+03951+01561100731ADDGA1001+999999999GF100991001001999999001001MA1999999100501MD1999999+0111REMSYN064AAXX  18154 61627 42960 00404 10395 20156 30050 40073 333 58011;
0196616270999992000031818004+15380-015120FM-12+0021GOOG V0203601N002112200019N0100001N1+03851+01431100611ADDAA199000091GA1001+999999999GF100991001001999999001001KA1120M+03961MA1999999100381MD1999999+0061REMSYN070AAXX  18184 61627 32960 03604 10385 20143 30038 40061 333 10396 58006;EQDQ01  00002PRCP99
0147616270999992000031821004+15380-015120FM-12+0021GOOG V0209999C000012200019N0080001N1+03191+01191100731ADDGA1001+999999999GF100991001001999999001001MA1999999100501MD1999999+0001REMSYN064AAXX  18214 61627 42958 00000 10319 20119 30050 40073 333 58000;
0183616270999992000031900004+15380-015120FM-12+0021GOOG V0203601N001012200019N0080001N1+03031+01081100821ADDAA199000091GA1001+999999999GF100991001001999999001001MA1999999100591MD1999999-0031REMSYN070AAXX  19004 61627 32958 03602 10303 20108 30059 40082 333 0//00 59003;EQDQ01  00002PRCP99
0212616270999992000031906004+15380-015120FM-12+0021GOOG V0209999C000012200019N0080001N1+02311+00831100741ADDAA199000091GA1001+999999999GF100991001001999999001001IA2240+01809KA1120N+02311MA1999999100511REMSYN088AAXX  19064 61627 32958 00000 10231 20083 30051 40074 333 01800 20231 51210 55/// 58000;EQDQ01  00002PRCP99
0147616270999992000031909004+15380-015120FM-12+0021GOOG V0200401N002112200019N0100001N1+02511+00851100861ADDGA1001+999999999GF100991001001999999001001MA1999999100631MD1999999-0031REMSYN064AAXX  19094 61627 42960 00404 10251 20085 30063 40086 333 59003;
0183616270999992000031912004+15380-015120FM-12+0021GOOG V0200601N002112200019N0100001N1+03551+01391100911ADDAA199000091GA1001+999999999GF100991001001999999001001MA1999999100681MD1999999-0041REMSYN070AAXX  19124 61627 32960 00604 10355 20139 30068 40091 333 0//00 59004;EQDQ01  00002PRCP99
0147616270999992000031915004+15380-015120FM-12+0021GOOG V0200801N002112200019N0100001N1+03951+01611100661ADDGA1001+999999999GF100991001001999999001001MA1999999100431MD1999999-0071REMSYN064AAXX  19154 61627 42960 00804 10395 20161 30043 40066 333 59007;
0196616270999992000031918004+15380-015120FM-12+0021GOOG V0209999C000012200019N0100001N1+03951+01631100531ADDAA199000091GA1001+999999999GF100991001001999999001001KA1120M+04051MA1999999100301MD1999999-0081REMSYN070AAXX  19184 61627 32960 00000 10395 20163 30030 40053 333 10405 59008;EQDQ01  00002PRCP99
0183616270999992000032000004+15380-015120FM-12+0021GOOG V0203401N001012200019N0080001N1+02901+01201100791ADDAA199000091GA1001+999999999GF100991001001999999001001MA1999999100561MD1999999-0031REMSYN070AAXX  20004 61627 32958 03402 10290 20120 30056 40079 333 0//00 59003;EQDQ01  00002PRCP99
0159616270999992000032003004+15380-015120FM-12+0021GOOG V0203201N002112200019N0080001N1+02501+01261100721ADDGA1021+069009019GF102991001001999999001021MA1999999100491MD1999999-0021REMSYN076AAXX  20034 61627 42958 23204 10250 20126 30049 40072 80002 333 59002 82073;
0159616270999992000032009004+15380-015120FM-12+0021GOOG V0209999C000012200019N0100001N1+02381+01241100901ADDGA1031+069009019GF103991001001999999001021MA1999999100671MD1999999+0041REMSYN076AAXX  20094 61627 42960 30000 10238 20124 30067 40090 80002 333 58004 83073;
0195616270999992000032012004+15380-015120FM-12+0021GOOG V0200601N002112200019N0100001N1+03441+01541100931ADDAA199000091GA1041+069009019GF104991001001999999001021MA1999999100701MD1999999+0021REMSYN082AAXX  20124 61627 32960 40604 10344 20154 30070 40093 80002 333 0//00 58002 84073;EQDQ01  00002PRCP99
0132616270999992000032015004+15380-015120FM-12+0021GOOG V0209999C000012200019N0100001N1+04021+99999100661ADDGA1021+069009019GF102991001001999999001021MD1999999+0001REMSYN064AAXX  20154 61627 42960 20000 10402 40066 80002 333 58000 82073;
0196616270999992000032018004+15380-015120FM-12+0021GOOG V0202601N001012200019N0100001N1+03921+01061100551ADDAA199000091GA1001+999999999GF100991001001999999001001KA1120M+04081MA1999999100321MD1999999+0021REMSYN070AAXX  20184 61627 32960 02602 10392 20106 30032 40055 333 10408 58002;EQDQ01  00002PRCP99
0147616270999992000032021004+15380-015120FM-12+0021GOOG V0203201N002112200019N0080001N1+03321+01251100691ADDGA1001+999999999GF100991001001999999001001MA1999999100461MD1999999+0001REMSYN064AAXX  20214 61627 42958 03204 10332 20125 30046 40069 333 58000;
0183616270999992000032100004+15380-015120FM-12+0021GOOG V0203201N002112200019N0080001N1+02701+01661100821ADDAA199000091GA1001+999999999GF100991001001999999001001MA1999999100591MD1999999+0031REMSYN070AAXX  21004 61627 32958 03204 10270 20166 30059 40082 333 0//00 58003;EQDQ01  00002PRCP99
0147616270999992000032109004+15380-015120FM-12+0021GOOG V0203601N001012200019N0100001N1+02321+01451100881ADDGA1001+999999999GF100991001001999999001001MA1999999100651MD1999999-0021REMSYN064AAXX  21094 61627 42960 03602 10232 20145 30065 40088 333 59002;
0183616270999992000032112004+15380-015120FM-12+0021GOOG V0200401N001012200019N0100001N1+03301+01381100881ADDAA199000091GA1001+999999999GF100991001001999999001001MA1999999100651MD1999999-0051REMSYN070AAXX  21124 61627 32960 00402 10330 20138 30065 40088 333 0//00 59005;EQDQ01  00002PRCP99
0133616270999992000032115004+15380-015120FM-12+0021GOOG V0209999C000012200019N0100001N1+03891+01801100641ADDGA1001+999999999GF100991001001999999001001MA1999999100411REMSYN064AAXX  21154 61627 42960 00000 10389 20180 30041 40064 333 5002/;
0196616270999992000032118004+15380-015120FM-12+0021GOOG V0203201N001012200019N0100001N1+03801+01491100531ADDAA199000091GA1001+999999999GF100991001001999999001001KA1120M+03931MA1999999100301MD1999999-0021REMSYN070AAXX  21184 61627 32960 03202 10380 20149 30030 40053 333 10393 59002;EQDQ01  00002PRCP99
0147616270999992000032121004+15380-015120FM-12+0021GOOG V0203201N002112200019N0080001N1+03201+01411100651ADDGA1001+999999999GF100991001001999999001001MA1999999100421MD1999999-0041REMSYN064AAXX  21214 61627 42958 03204 10320 20141 30042 40065 333 59004;
0183616270999992000032200004+15380-015120FM-12+0021GOOG V0203201N001012200019N0080001N1+02691+01691100811ADDAA199000091GA1001+999999999GF100991001001999999001001MA1999999100581MD1999999-0011REMSYN070AAXX  22004 61627 32958 03202 10269 20169 30058 40081 333 0//00 59001;EQDQ01  00002PRCP99
0147616270999992000032203004+15380-015120FM-12+0021GOOG V0203201N002112200019N0080001N1+99999+99999100751ADDGA1001+999999999GF100991001001999999001001MA1999999100521MD1999999-0021REMSYN064AAXX  22034 61627 42958 03204 10225 2140/ 30052 40075 333 59002;
0212616270999992000032206004+15380-015120FM-12+0021GOOG V0209999C000012200019N0080001N1+02001+01491100781ADDAA199000091GA1001+999999999GF100991001001999999001001IA2240+01609KA1120N+02001MA1999999100551REMSYN088AAXX  22064 61627 32958 00000 10200 20149 30055 40078 333 01600 20200 50910 55/// 58002;EQDQ01  00002PRCP99
0147616270999992000032209004+15380-015120FM-12+0021GOOG V0203201N001012200019N0100001N1+02151+01771100931ADDGA1001+999999999GF100991001001999999001001MA1999999100701MD1999999+0051REMSYN064AAXX  22094 61627 42960 03202 10215 20177 30070 40093 333 58005;
0183616270999992000032212004+15380-015120FM-12+0021GOOG V0209999C000012200019N0100001N1+03291+01581100961ADDAA199000091GA1001+999999999GF100991001001999999001001MA1999999100731MD1999999+0081REMSYN070AAXX  22124 61627 32960 00000 10329 20158 30073 40096 333 0//00 58008;EQDQ01  00002PRCP99
0147616270999992000032215004+15380-015120FM-12+0021GOOG V0203201N001012200019N0100001N1+03901+01461100731ADDGA1001+999999999GF100991001001999999001001MA1999999100501MD1999999+0091REMSYN064AAXX  22154 61627 42960 03202 10390 20146 30050 40073 333 58009;
0196616270999992000032218004+15380-015120FM-12+0021GOOG V0203201N002112200019N0100001N1+03901+01341100561ADDAA199000091GA1001+999999999GF100991001001999999001001KA1120M+03991MA1999999100331MD1999999+0031REMSYN070AAXX  22184 61627 32960 03204 10390 20134 30033 40056 333 10399 58003;EQDQ01  00002PRCP99
0195616270999992000032300004+15380-015120FM-12+0021GOOG V0203201N002112200019N0080001N1+02831+01141100831ADDAA199000091GA1031+069009019GF103991001001999999001021MA1999999100601MD1999999+0021REMSYN082AAXX  23004 61627 32958 33204 10283 20114 30060 40083 80002 333 0//00 58002 83073;EQDQ01  00002PRCP99
0133616270999992000032303004+15380-015120FM-12+0021GOOG V0203301N002119999999N0080001N1+02441+00971100741ADDGA1031+069009019MA1999999100511MD1999999-0011REMSYN076AAXX  23034 61627 42958 /3304 10244 20097 30051 40074 80002 333 59001 83073;
0222616270999992000032306004+15380-015120FM-12+0021GOOG V0203201N001012200019N0080001N1+02171+01001100701ADDAA199000091GF101991001001999999001021IA2240+01509KA1120N+02171MA1999999100471MD1999999-0081REMSYN100AAXX  23064 61627 32958 13202 10217 20100 30047 40070 80002 333 01500 20217 50760 55/// 59008 81073;EQDQ01  00002PRCP99
0159616270999992000032309004+15380-015120FM-12+0021GOOG V0203401N002112200019N0100001N1+02531+00761100791ADDGA1021+069009019GF102991001001999999001021MA1999999100561MD1999999-0141REMSYN076AAXX  23094 61627 42960 23404 10253 20076 30056 40079 80002 333 59014 82073;
0195616270999992000032312004+15380-015120FM-12+0021GOOG V0203601N001012200019N0100001N1+03531+01061100851ADDAA199000091GA1041+069009019GF104991001001999999001021MA1999999100621MD1999999-0111REMSYN082AAXX  23124 61627 32960 43602 10353 20106 30062 40085 80002 333 0//00 59011 84073;EQDQ01  00002PRCP99
0159616270999992000032315004+15380-015120FM-12+0021GOOG V0203401N001012200019N0100001N1+04011+00881100641ADDGA1031+069009019GF103991001001999999001021MA1999999100411MD1999999-0091REMSYN076AAXX  23154 61627 42960 33402 10401 20088 30041 40064 80002 333 59009 83073;
0208616270999992000032318004+15380-015120FM-12+0021GOOG V0209999C000012200019N0100001N1+04021+00641100541ADDAA199000091GA1011+069009019GF101991001001999999001021KA1120M+04101MA1999999100311MD1999999-0021REMSYN082AAXX  23184 61627 32960 10000 10402 20064 30031 40054 80002 333 10410 59002 81073;EQDQ01  00002PRCP99
0147616270999992000032321004+15380-015120FM-12+0021GOOG V0209999C000012200019N0080001N1+03381+01041100671ADDGA1001+999999999GF100991001001999999001001MA1999999100441MD1999999-0031REMSYN064AAXX  23214 61627 42958 00000 10338 20104 30044 40067 333 59003;
0183616270999992000032400004+15380-015120FM-12+0021GOOG V0203201N002112200019N0080001N1+03001+01111100821ADDAA199000091GA1001+999999999GF100991001001999999001001MA1999999100591MD1999999-0011REMSYN070AAXX  24004 61627 32958 03204 10300 20111 30059 40082 333 0//00 59001;EQDQ01  00002PRCP99
0156616270999992000032403004+15380-015120FM-12+0021GOOG V0203201N002112200019N0080001N1+02651+01251999999ADDGA1001+999999999GF100991001001999999001001MA1999999100531MD1999999+0021ME1100769REMSYN064AAXX  24034 61627 42958 03204 10265 20125 30053 41076 333 58002;
0147616270999992000032409004+15380-015120FM-12+0021GOOG V0203201N001012200019N0100001N1+02521+01501100901ADDGA1001+999999999GF100991001001999999001001MA1999999100671MD1999999+0111REMSYN064AAXX  24094 61627 42960 03202 10252 20150 30067 40090 333 58011;
0183616270999992000032412004+15380-015120FM-12+0021GOOG V0200201N002112200019N0100001N1+03551+01321100921ADDAA199000091GA1001+999999999GF100991001001999999001001MA1999999100691MD1999999+0071REMSYN070AAXX  24124 61627 32960 00204 10355 20132 30069 40092 333 0//00 58007;EQDQ01  00002PRCP99
0147616270999992000032415004+15380-015120FM-12+0021GOOG V0202801N001012200019N0100001N1+04051+01471100681ADDGA1001+999999999GF100991001001999999001001MA1999999100451MD1999999+0041REMSYN064AAXX  24154 61627 42960 02802 10405 20147 30045 40068 333 58004;
0196616270999992000032418004+15380-015120FM-12+0021GOOG V0203201N001012200019N0100001N1+03951+01351100581ADDAA199000091GA1001+999999999GF100991001001999999001001KA1120M+04111MA1999999100351MD1999999+0041REMSYN070AAXX  24184 61627 32960 03202 10395 20135 30035 40058 333 10411 58004;EQDQ01  00002PRCP99
0183616270999992000032500004+15380-015120FM-12+0021GOOG V0203201N002112200019N0080001N1+02881+01301100851ADDAA199000091GA1001+999999999GF100991001001999999001001MA1999999100621MD1999999+0031REMSYN070AAXX  25004 61627 32958 03204 10288 20130 30062 40085 333 0//00 58003;EQDQ01  00002PRCP99
0212616270999992000032506004+15380-015120FM-12+0021GOOG V0209999C000012200019N0080001N1+02281+01501100811ADDAA199000091GA1001+999999999GF100991001001999999001001IA2240+01709KA1120N+02281MA1999999100581REMSYN088AAXX  25064 61627 32958 00000 10228 20150 30058 40081 333 01700 20228 50950 55/// 58004;EQDQ01  00002PRCP99
0147616270999992000032509004+15380-015120FM-12+0021GOOG V0203201N002112200019N0100001N1+02301+01651100921ADDGA1001+999999999GF100991001001999999001001MA1999999100691MD1999999+0021REMSYN064AAXX  25094 61627 42960 03204 10230 20165 30069 40092 333 58002;
0183616270999992000032512004+15380-015120FM-12+0021GOOG V0209999C000012200019N0100001N1+03351+01521100941ADDAA199000091GA1001+999999999GF100991001001999999001001MA1999999100711MD1999999+0021REMSYN070AAXX  25124 61627 32960 00000 10335 20152 30071 40094 333 0//00 58002;EQDQ01  00002PRCP99
0147616270999992000032515004+15380-015120FM-12+0021GOOG V0203201N002112200019N0100001N1+03981+01591100671ADDGA1001+999999999GF100991001001999999001001MA1999999100441MD1999999-0011REMSYN064AAXX  25154 61627 42960 03204 10398 20159 30044 40067 333 59001;
0196616270999992000032518004+15380-015120FM-12+0021GOOG V0203201N002112200019N0100001N1+03881+01451100541ADDAA199000091GA1001+999999999GF100991001001999999001001KA1120M+04021MA1999999100311MD1999999-0041REMSYN070AAXX  25184 61627 32960 03204 10388 20145 30031 40054 333 10402 59004;EQDQ01  00002PRCP99
0183616270999992000032600004+15380-015120FM-12+0021GOOG V0203001N002112200019N0080001N1+03001+01391100781ADDAA199000091GA1001+999999999GF100991001001999999001001MA1999999100551MD1999999-0071REMSYN070AAXX  26004 61627 32958 03004 10300 20139 30055 40078 333 0//00 59007;EQDQ01  00002PRCP99
0147616270999992000032603004+15380-015120FM-12+0021GOOG V0203201N002112200019N9999999N1+02601+01361100721ADDGA1001+999999999GF100991001001999999001001MA1999999100491MD1999999-0091REMSYN064AAXX  26034 61627 4295/ 03204 10260 20136 30049 40072 333 59009;
0212616270999992000032606004+15380-015120FM-12+0021GOOG V0203201N001012200019N0080001N1+02341+01441100691ADDAA199000091GA1001+999999999GF100991001001999999001001IA2240+01809KA1120N+02341MA1999999100461REMSYN088AAXX  26064 61627 32958 03202 10234 20144 30046 40069 333 01800 20234 50890 55/// 59012;EQDQ01  00002PRCP99
0147616270999992000032609004+15380-015120FM-12+0021GOOG V0203201N002112200019N0100001N1+02631+01881100781ADDGA1001+999999999GF100991001001999999001001MA1999999100551MD1999999-0141REMSYN064AAXX  26094 61627 42960 03204 10263 20188 30055 40078 333 59014;
0183616270999992000032612004+15380-015120FM-12+0021GOOG V0200201N002112200019N0100001N1+03401+01201100831ADDAA199000091GA1001+999999999GF100991001001999999001001MA1999999100601MD1999999-0111REMSYN070AAXX  26124 61627 32960 00204 10340 20120 30060 40083 333 0//00 59011;EQDQ01  00002PRCP99
0147616270999992000032615004+15380-015120FM-12+0021GOOG V0200801N001012200019N0100001N1+03901+01571100631ADDGA1001+999999999GF100991001001999999001001MA1999999100401MD1999999-0041REMSYN064AAXX  26154 61627 42960 00802 10390 20157 30040 40063 333 59004;
0196616270999992000032618004+15380-015120FM-12+0021GOOG V0203201N001012200019N0100001N1+03881+01521100521ADDAA199000091GA1001+999999999GF100991001001999999001001KA1120M+03921MA1999999100291MD1999999-0021REMSYN070AAXX  26184 61627 32960 03202 10388 20152 30029 40052 333 10392 59002;EQDQ01  00002PRCP99
0147616270999992000032621004+15380-015120FM-12+0021GOOG V0209999C000012200019N0080001N1+03321+01201100631ADDGA1001+999999999GF100991001001999999001001MA1999999100401MD1999999+0001REMSYN064AAXX  26214 61627 42958 00000 10332 20120 30040 40063 333 58000;
0183616270999992000032700004+15380-015120FM-12+0021GOOG V0203201N002112200019N0080001N1+02871+01341100761ADDAA199000091GA1001+999999999GF100991001001999999001001MA1999999100591MD1999999-0021REMSYN070AAXX  27004 61627 32958 03204 10287 20134 30059 40076 333 0//00 59002;EQDQ01  00002PRCP99
0212616270999992000032706004+15380-015120FM-12+0021GOOG V0209999C000012200019N0080001N1+02291+01231100731ADDAA199000091GA1001+999999999GF100991001001999999001001IA2240+01109KA1120N+02291MA1999999100501REMSYN088AAXX  27064 61627 32958 00000 10229 20123 30050 40073 333 01100 20229 51330 55/// 58004;EQDQ01  00002PRCP99
0147616270999992000032709004+15380-015120FM-12+0021GOOG V0203601N001012200019N0100001N1+02551+01041999999ADDGA1001+999999999GF100991001001999999001001MA1999999100701MD1999999+0151REMSYN064AAXX  27094 61627 42960 03602 10255 20104 30070 4093/ 333 58015;
0183616270999992000032712004+15380-015120FM-12+0021GOOG V0200401N002112200019N0100001N1+03401+01251100921ADDAA199000091GA1001+999999999GF100991001001999999001001MA1999999100691MD1999999+0091REMSYN070AAXX  27124 61627 32960 00404 10340 20125 30069 40092 333 0//00 58009;EQDQ01  00002PRCP99
0147616270999992000032715004+15380-015120FM-12+0021GOOG V0203601N002112200019N0100001N1+03801+01421100651ADDGA1001+999999999GF100991001001999999001001MA1999999100421MD1999999+0021REMSYN064AAXX  27154 61627 42960 03604 10380 20142 30042 40065 333 58002;
0196616270999992000032718004+15380-015120FM-12+0021GOOG V0203201N001012200019N0100001N1+03801+01321100531ADDAA199000091GA1001+999999999GF100991001001999999001001KA1120M+03901MA1999999100301MD1999999+0011REMSYN070AAXX  27184 61627 32960 03202 10380 20132 30030 40053 333 10390 58001;EQDQ01  00002PRCP99
0147616270999992000032721004+15380-015120FM-12+0021GOOG V0203201N001012200019N0080001N1+03301+01171100631ADDGA1001+999999999GF100991001001999999001001MA1999999100401MD1999999+0001REMSYN064AAXX  27214 61627 42958 03202 10330 20117 30040 40063 333 58000;
0147616270999992000032809004+15380-015120FM-12+0021GOOG V0203201N001012200019N0100001N1+02301+01721100901ADDGA1001+999999999GF100991001001999999001001MA1999999100671MD1999999-0031REMSYN064AAXX  28094 61627 42960 03202 10230 20172 30067 40090 333 59003;
0183616270999992000032812004+15380-015120FM-12+0021GOOG V0200201N002112200019N0100001N1+03401+01481100841ADDAA199000091GA1001+999999999GF100991001001999999001001MA1999999100611MD1999999-0081REMSYN070AAXX  28124 61627 32960 00204 10340 20148 30061 40084 333 0//00 59008;EQDQ01  00002PRCP99
0147616270999992000032815004+15380-015120FM-12+0021GOOG V0209999C000012200019N0100001N1+03921+01681100631ADDGA1001+999999999GF100991001001999999001001MA1999999100401MD1999999-0021REMSYN064AAXX  28154 61627 42960 00000 10392 20168 30040 40063 333 59002;
0196616270999992000032818004+15380-015120FM-12+0021GOOG V0202201N001012200019N0100001N1+03901+01751100531ADDAA199000091GA1001+999999999GF100991001001999999001001KA1120M+04011MA1999999100301MD1999999+0001REMSYN070AAXX  28184 61627 32960 02202 10390 20175 30030 40053 333 10401 58000;EQDQ01  00002PRCP99
0183616270999992000032900004+15380-015120FM-12+0021GOOG V0203201N003112200019N0080001N1+02781+01511100731ADDAA199000091GA1001+999999999GF100991001001999999001001MA1999999100511MD1999999-0091REMSYN070AAXX  29004 61627 32958 03206 10278 20151 30051 40073 333 0//00 59009;EQDQ01  00002PRCP99
0147616270999992000032903004+15380-015120FM-12+0021GOOG V0203201N002112200019N0080001N1+02351+01451100661ADDGA1001+999999999GF100991001001999999001001MA1999999100431MD1999999-0101REMSYN064AAXX  29034 61627 42958 03204 10235 20145 30043 40066 333 59010;
0212616270999992000032906004+15380-015120FM-12+0021GOOG V0209999C000012200019N0080001N1+02151+01401100661ADDAA199000091GA1001+999999999GF100991001001999999001001IA2240+01609KA1120N+02151MA1999999100431REMSYN088AAXX  29064 61627 32958 00000 10215 20140 30043 40066 333 01600 20215 51060 55/// 59009;EQDQ01  00002PRCP99
0159616270999992000032909004+15380-015120FM-12+0021GOOG V0203201N001012200019N0100001N1+02301+01481100931ADDGA1021+039009079GF102991021001999999031001MA1999999100701MD1999999+0031REMSYN076AAXX  29094 61627 42960 23202 10230 20148 30070 40093 82030 333 58003 82363;
0195616270999992000032912004+15380-015120FM-12+0021GOOG V0200401N002112200019N0100001N1+03301+01661100931ADDAA199000091GA1031+039009079GF103991031001999999031001MA1999999100701MD1999999+0091REMSYN082AAXX  29124 61627 32960 30404 10330 20166 30070 40093 83030 333 0//00 58009 83363;EQDQ01  00002PRCP99
0147616270999992000032915004+15380-015120FM-12+0021GOOG V0203201N002112200019N0100001N1+03901+01831100661ADDGA1001+999999999GF100991001001999999001001MA1999999100431MD1999999+0031REMSYN064AAXX  29154 61627 42960 03204 10390 20183 30043 40066 333 58003;
0196616270999992000032918004+15380-015120FM-12+0021GOOG V0203201N002112200019N0100001N1+03911+01721100541ADDAA199000091GA1001+999999999GF100991001001999999001001KA1120M+04001MA1999999100311MD1999999+0011REMSYN070AAXX  29184 61627 32960 03204 10391 20172 30031 40054 333 10400 58001;EQDQ01  00002PRCP99
0147616270999992000032921004+15380-015120FM-12+0021GOOG V0203201N002112200019N0080001N1+03301+01621100701ADDGA1001+999999999GF100991001001999999001001MA1999999100471MD1999999+0071REMSYN064AAXX  29214 61627 42958 03204 10330 20162 30047 40070 333 58007;
0183616270999992000033000004+15380-015120FM-12+0021GOOG V0203201N003112200019N0080001N1+02621+01711100831ADDAA199000091GA1001+999999999GF100991001001999999001001MA1999999100601MD1999999+0091REMSYN070AAXX  30004 61627 32958 03206 10262 20171 30060 40083 333 0//00 58009;EQDQ01  00002PRCP99
0212616270999992000033006004+15380-015120FM-12+0021GOOG V0203201N001012200019N0080001N1+02041+01431100841ADDAA199000091GA1001+999999999GF100991001001999999001001IA2240+01609KA1120N+02041MA1999999100611REMSYN088AAXX  30064 61627 32958 03202 10204 20143 30061 40084 333 01600 20204 51010 55/// 58018;EQDQ01  00002PRCP99
0159616270999992000033009004+15380-015120FM-12+0021GOOG V0203601N002112200019N0100001N1+02481+01491100951ADDGA1011+039009079GF101991011001999999031001MA1999999100721MD1999999+0021REMSYN076AAXX  30094 61627 42960 13604 10248 20149 30072 40095 81030 333 58002 81363;
0183616270999992000033012004+15380-015120FM-12+0021GOOG V0200201N002112200019N0100001N1+03501+01891100991ADDAA199000091GA1001+999999999GF100991001001999999001001MA1999999100761MD1999999+0061REMSYN070AAXX  30124 61627 32960 00204 10350 20189 30076 40099 333 0//00 58006;EQDQ01  00002PRCP99
0147616270999992000033015004+15380-015120FM-12+0021GOOG V0203601N002112200019N0100001N1+04001+02131100731ADDGA1001+999999999GF100991001001999999001001MA1999999100501MD1999999+0071REMSYN064AAXX  30154 61627 42960 03604 10400 20213 30050 40073 333 58007;
0196616270999992000033018004+15380-015120FM-12+0021GOOG V0203201N001012200019N0100001N1+04041+02181100621ADDAA199000091GA1001+999999999GF100991001001999999001001KA1120M+04101MA1999999100391MD1999999+0081REMSYN070AAXX  30184 61627 32960 03202 10404 20218 30039 40062 333 10410 58008;EQDQ01  00002PRCP99
0147616270999992000033021004+15380-015120FM-12+0021GOOG V0203201N004112200019N0080001N1+03401+02271100721ADDGA1001+999999999GF100991001001999999001001MA1999999100491MD1999999+0021REMSYN064AAXX  30214 61627 42958 03208 10340 20227 30049 40072 333 58002;
0183616270999992000033100004+15380-015120FM-12+0021GOOG V0203201N003112200019N0080001N1+02801+01881100821ADDAA199000091GA1001+999999999GF100991001001999999001001MA1999999100591MD1999999-0011REMSYN070AAXX  31004 61627 32958 03206 10280 20188 30059 40082 333 0//00 59001;EQDQ01  00002PRCP99
0147616270999992000033109004+15380-015120FM-12+0021GOOG V0203601N002112200019N0100001N1+02991+01781100831ADDGA1001+999999999GF100991001001999999001001MA1999999100601MD1999999-0121REMSYN064AAXX  31094 61627 42960 03604 10299 20178 30060 40083 333 59012;
0183616270999992000033112004+15380-015120FM-12+0021GOOG V0200801N003112200019N0100001N1+03901+02351100831ADDAA199000091GA1001+999999999GF100991001001999999001001MA1999999100601MD1999999-0161REMSYN070AAXX  31124 61627 32960 00806 10390 20235 30060 40083 333 0//00 59016;EQDQ01  00002PRCP99
0147616270999992000033115004+15380-015120FM-12+0021GOOG V0200401N002112200019N0100001N1+04331+02411100531ADDGA1001+999999999GF100991001001999999001001MA1999999100301MD1999999-0201REMSYN064AAXX  31154 61627 42960 00404 10433 20241 30030 40053 333 59020;
0212616270999992000033118004+15380-015120FM-12+0021GOOG V0200401N001012200019N0100001N1+04341+02291100351ADDAA199000091GA1001+999999999GF100991001001999999001001KA1120M+04391MA1999999101122MD1999999-0271REMSYN070AAXX  31184 61627 32960 00402 10434 20229 30112 40035 333 10439 59027;EQDQ01+101123APOSP Q02  00002PRCP99
0183616270999992000040100004+15380-015120FM-12+0021GOOG V0202001N002112200019N0080001N1+03381+01631100731ADDAA199000091GA1001+999999999GF100991001001999999001001MA1999999100501MD1999999-0091REMSYN070AAXX  01004 61627 32958 02004 10338 20163 30050 40073 333 0//00 59009;EQDQ01  00002PRCP99
0159616270999992000040109004+15380-015120FM-12+0021GOOG V0203201N002112200019N0100001N1+02881+01401100731ADDGA1021+069009019GF102991001001999999001021MA1999999100501MD1999999-0101REMSYN076AAXX  01094 61627 42960 23204 10288 20140 30050 40073 80002 333 59010 82073;
0207616270999992000040112004+15380-015120FM-12+0021GOOG V0203601N002112200019N0100001N1+03811+01591100731ADDAA199000091GA1041+069009019GF104991001001999999001021IA2240+00009MA1999999100501MD1999999-0101REMSYN082AAXX  01124 61627 32960 43604 10381 20159 30050 40073 80002 333 00000 59010 84073;EQDQ01  00002PRCP99
0159616270999992000040115004+15380-015120FM-12+0021GOOG V0200401N002112200019N0100001N1+04301+00921100471ADDGA1031+069009019GF103991001001999999001011MA1999999100241MD1999999-0061REMSYN076AAXX  01154 61627 42960 30404 10430 20092 30024 40047 80001 333 59006 83073;
0214616270999992000040118004+15380-015120FM-12+0021GOOG V0203601N001019999999N0100001N1+04251+00531100341ADDAA199000091GA1011+039009039GF105991011001999999031011KA1120M+04381MA1999999100111MD1999999-0011REMSYN088AAXX  01184 61627 32960 53602 10425 20053 30011 40034 81031 333 10438 59001 81363 84073;EQDQ01  00002PRCP99
0183616270999992000040200004+15380-015120FM-12+0021GOOG V0203201N002112200019N0080001N1+03061+01871100651ADDAA199000091GA1001+999999999GF100991001001999999001001MA1999999100421MD1999999-0081REMSYN070AAXX  02004 61627 32958 03204 10306 20187 30042 40065 333 0//00 59008;EQDQ01  00002PRCP99
0147616270999992000040203004+15380-015120FM-12+0021GOOG V0203201N002112200019N0080001N1+02751+01911100561ADDGA1001+999999999GF100991001001999999001001MA1999999100331MD1999999-0111REMSYN064AAXX  02034 61627 42958 03204 10275 20191 30033 40056 333 59011;
0212616270999992000040206004+15380-015120FM-12+0021GOOG V0203201N001012200019N0080001N1+02551+01851100621ADDAA199000091GA1001+999999999GF100991001001999999001001IA2240+02109KA1120N+02551MA1999999100391REMSYN088AAXX  02064 61627 32958 03202 10255 20185 30039 40062 333 02100 20255 50990 55/// 59002;EQDQ01  00002PRCP99
0159616270999992000040209004+15380-015120FM-12+0021GOOG V0203201N001012200019N0100001N1+02721+01871100781ADDGA1031+069009019GF103991001001999999001011MA1999999100551MD1999999+0051REMSYN076AAXX  02094 61627 42960 33202 10272 20187 30055 40078 80001 333 58005 83073;
0195616270999992000040212004+15380-015120FM-12+0021GOOG V0203201N002112200019N0100001N1+03521+01821100811ADDAA199000091GA1031+069009019GF103991001001999999001011MA1999999100581MD1999999+0081REMSYN082AAXX  02124 61627 32960 33204 10352 20182 30058 40081 80001 333 0//00 58008 83073;EQDQ01  00002PRCP99
0147616270999992000040215004+15380-015120FM-12+0021GOOG V0209999C000012200019N0100001N1+03901+01991100631ADDGA1001+999999999GF100991001001999999001001MA1999999100401MD1999999+0161REMSYN064AAXX  02154 61627 42960 00000 10390 20199 30040 40063 333 58016;
0196616270999992000040218004+15380-015120FM-12+0021GOOG V0203201N002112200019N0100001N1+03801+01931100531ADDAA199000091GA1001+999999999GF100991001001999999001001KA1120M+03961MA1999999100901MD1999999+0151REMSYN070AAXX  02184 61627 32960 03204 10380 20193 30090 40053 333 10396 58015;EQDQ01  00002PRCP99
0183616270999992000040300004+15380-015120FM-12+0021GOOG V0203201N003112200019N0080001N1+02701+01561100841ADDAA199000091GA1001+999999999GF100991001001999999001001MA1999999100611MD1999999+0191REMSYN070AAXX  03004 61627 32958 03206 10270 20156 30061 40084 333 0//00 58019;EQDQ01  00002PRCP99
0212616270999992000040306004+15380-015120FM-12+0021GOOG V0203201N002112200019N0080001N1+02151+01571100821ADDAA199000091GA1001+999999999GF100991001001999999001001IA2240+02009KA1120N+02151MA1999999100591REMSYN088AAXX  03064 61627 32958 03204 10215 20157 30059 40082 333 02000 20215 51340 55/// 58020;EQDQ01  00002PRCP99
0147616270999992000040309004+15380-015120FM-12+0021GOOG V0203601N001012200019N0100001N1+02301+01651101131ADDGA1001+999999999GF100991001001999999001001MA1999999100901MD1999999+0351REMSYN064AAXX  03094 61627 42960 03602 10230 20165 30090 40113 333 58035;
0183616270999992000040311004+15380-015120FM-12+0021GOOG V0200401N001012200019N0100001N1+03101+01591101221ADDAA199000091GA1001+999999999GF100991001001999999001001MA1999999100991MD1999999+0411REMSYN070AAXX  03114 61627 32960 00402 10310 20159 30099 40122 333 0//00 58041;EQDQ01  00002PRCP99
0183616270999992000040312004+15380-015120FM-12+0021GOOG V0200401N001012200019N0100001N1+03101+01591101221ADDAA199000091GA1001+999999999GF100991001001999999001001MA1999999100991MD1999999+0411REMSYN070AAXX  03124 61627 32960 00402 10310 20159 30099 40122 333 0//00 58041;EQDQ01  00002PRCP99
0147616270999992000040315004+15380-015120FM-12+0021GOOG V0203201N002112200019N0100001N1+03531+01551100991ADDGA1001+999999999GF100991001001999999001001MA1999999100761MD1999999+0361REMSYN064AAXX  03154 61627 42960 03204 10353 20155 30076 40099 333 58036;
0196616270999992000040318004+15380-015120FM-12+0021GOOG V0203201N002112200019N0100001N1+03501+01361100861ADDAA199000091GA1001+999999999GF100991001001999999001001KA1120M+03541MA1999999100631MD1999999+0331REMSYN070AAXX  03184 61627 32960 03204 10350 20136 30063 40086 333 10354 58033;EQDQ01  00002PRCP99
0183616270999992000040400004+15380-015120FM-12+0021GOOG V0203201N003112200019N0080001N1+02651+01401101201ADDAA199000091GA1001+999999999GF100991001001999999001001MA1999999100971MD1999999+0361REMSYN070AAXX  04004 61627 32958 03206 10265 20140 30097 40120 333 0//00 58036;EQDQ01  00002PRCP99
0147616270999992000040403004+15380-015120FM-12+0021GOOG V0203201N003112200019N0080001N1+02251+01461101141ADDGA1001+999999999GF100991001001999999001001MA1999999100911MD1999999+0381REMSYN064AAXX  04034 61627 42958 03206 10225 20146 30091 40114 333 58038;
0183616270999992000040412004+15380-015120FM-12+0021GOOG V0200201N002112200019N0100001N1+03201+01481101321ADDAA199000091GA1001+999999999GF100991001001999999001001MA1999999101091MD1999999+0101REMSYN070AAXX  04124 61627 32960 00204 10320 20148 30109 40132 333 0//00 58010;EQDQ01  00002PRCP99
0159616270999992000040415004+15380-015120FM-12+0021GOOG V0209999C000012200019N0100001N1+03701+01371101061ADDGA1021+039009079GF102991021001999999031001MA1999999100821MD1999999+0061REMSYN076AAXX  04154 61627 42960 20000 10370 20137 30082 40106 82030 333 58006 82363;
0208616270999992000040418004+15380-015120FM-12+0021GOOG V0209999C000012200019N0100001N1+03751+01381100931ADDAA199000091GA1011+039009079GF101991011001999999031001KA1120M+03801MA1999999100701MD1999999+0071REMSYN082AAXX  04184 61627 32960 10000 10375 20138 30070 40093 81030 333 10380 58007 81363;EQDQ01  00002PRCP99
0147616270999992000040421004+15380-015120FM-12+0021GOOG V0209999C000012200019N0080001N1+03401+01101100981ADDGA1001+999999999GF100991001001999999001001MA1999999100751MD1999999-0011REMSYN064AAXX  04214 61627 42958 00000 10340 20110 30075 40098 333 59001;
0183616270999992000040500004+15380-015120FM-12+0021GOOG V0203201N001012200019N0080001N1+03101+01021101121ADDAA199000091GA1001+999999999GF100991001001999999001001MA1999999100891MD1999999-0081REMSYN070AAXX  05004 61627 32958 03202 10310 20102 30089 40112 333 0//00 59008;EQDQ01  00002PRCP99
0147616270999992000040503004+15380-015120FM-12+0021GOOG V0203201N001012200019N0080001N1+02711+01251101011ADDGA1001+999999999GF100991001001999999001001MA1999999100781MD1999999-0131REMSYN064AAXX  05034 61627 42958 03202 10271 20125 30078 40101 333 59013;
0212616270999992000040506004+15380-015120FM-12+0021GOOG V0203201N002112200019N0080001N1+02501+01311100931ADDAA199000091GA1001+999999999GF100991001001999999001001IA2240+01509KA1120N+02501MA1999999100701REMSYN088AAXX  05064 61627 32958 03204 10250 20131 30070 40093 333 01500 20250 51000 55/// 59020;EQDQ01  00002PRCP99
0147616270999992000040509004+15380-015120FM-12+0021GOOG V0209999C000012200019N0100001N1+02751+01301101081ADDGA1001+999999999GF100991001001999999001001MA1999999100851MD1999999-0191REMSYN064AAXX  05094 61627 42960 00000 10275 20130 30085 40108 333 59019;
0208616270999992000040518004+15380-015120FM-12+0021GOOG V0203601N001012200019N0100001N1+04121+00921100631ADDAA199000091GA1011+039009079GF103991011001999999041021KA1120M+04231MA1999999100401MD1999999-0301REMSYN082AAXX  05184 61627 32960 33602 10412 20092 30040 40063 81042 333 10423 59030 81363;EQDQ01  00002PRCP99
0183616270999992000040600004+15380-015120FM-12+0021GOOG V0203201N001012200019N0080001N1+03151+01021100901ADDAA199000091GA1001+999999999GF100991001001999999001001MA1999999100671MD1999999-0221REMSYN070AAXX  06004 61627 32958 03202 10315 20102 30067 40090 333 0//00 59022;EQDQ01  00002PRCP99
0147616270999992000040603004+15380-015120FM-12+0021GOOG V0203601N002112200019N0080001N1+02921+01081100801ADDGA1001+999999999GF100991001001999999001001MA1999999100571MD1999999-0211REMSYN064AAXX  06034 61627 42958 03604 10292 20108 30057 40080 333 59021;
0212616270999992000040606004+15380-015120FM-12+0021GOOG V0203201N001012200019N0080001N1+02631+01311100731ADDAA199000091GA1001+999999999GF100991001001999999001001IA2240+01809KA1120N+02631MA1999999100531REMSYN088AAXX  06064 61627 32958 03202 10263 20131 30053 40073 333 01800 20263 50990 55/// 59017;EQDQ01  00002PRCP99
0147616270999992000040609004+15380-015120FM-12+0021GOOG V0203201N001012200019N0100001N1+02931+01291100951ADDGA1001+999999999GF100991001001999999001001MA1999999100721MD1999999-0131REMSYN064AAXX  06094 61627 42960 03202 10293 20129 30072 40095 333 59013;
0183616270999992000040612004+15380-015120FM-12+0021GOOG V0200401N002112200019N0100001N1+03801+01291100901ADDAA199000091GA1001+999999999GF100991001001999999001001MA1999999100671MD1999999-0191REMSYN070AAXX  06124 61627 32960 00404 10380 20129 30067 40090 333 0//00 59019;EQDQ01  00002PRCP99
0147616270999992000040615004+15380-015120FM-12+0021GOOG V0200401N002112200019N0100001N1+04251+01061100631ADDGA1001+999999999GF100991001001999999001001MA1999999100401MD1999999-0161REMSYN064AAXX  06154 61627 42960 00404 10425 20106 30040 40063 333 59016;
0208616270999992000040618004+15380-015120FM-12+0021GOOG V0203601N001012200019N0100001N1+04211+00951100471ADDAA199000091GA1021+039009079GF102991021001999999081001KA1120M+04311MA1999999100241MD1999999-0161REMSYN082AAXX  06184 61627 32960 23602 10421 20095 30024 40047 82080 333 10431 59016 82363;EQDQ01  00002PRCP99
0183616270999992000040700004+15380-015120FM-12+0021GOOG V0203201N002112200019N0080001N1+03001+01341100831ADDAA199000091GA1001+999999999GF100991001001999999001001MA1999999100601MD1999999-0071REMSYN070AAXX  07004 61627 32958 03204 10300 20134 30060 40083 333 0//00 59007;EQDQ01  00002PRCP99
0212616270999992000040706004+15380-015120FM-12+0021GOOG V0209999C000012200019N0080001N1+02401+01241101001ADDAA199000091GA1001+999999999GF100991001001999999001001IA2240+02009KA1120N+02401MA1999999100771REMSYN088AAXX  07064 61627 32958 00000 10240 20124 30077 40100 333 02000 20240 51280 55/// 58024;EQDQ01  00002PRCP99
0147616270999992000040709004+15380-015120FM-12+0021GOOG V0202801N002112200019N0100001N1+02731+01301101081ADDGA1001+999999999GF100991001001999999001001MA1999999100851MD1999999+0131REMSYN064AAXX  07094 61627 42960 02804 10273 20130 30085 40108 333 58013;
0195616270999992000040712004+15380-015120FM-12+0021GOOG V0203201N001012200019N0100001N1+03601+01381101031ADDAA199000091GA1041+069009019GF104991001001999999001021MA1999999100801MD1999999+0131REMSYN082AAXX  07124 61627 32960 43202 10360 20138 30080 40103 80002 333 0//00 58013 84073;EQDQ01  00002PRCP99
0159616270999992000040715004+15380-015120FM-12+0021GOOG V0203201N002112200019N0100001N1+03771+01371100741ADDGA1021+069009019GF102991001001999999001011MA1999999100511MD1999999+0111REMSYN076AAXX  07154 61627 42960 23204 10377 20137 30051 40074 80001 333 58011 82073;
0196616270999992000040718004+15380-015120FM-12+0021GOOG V0203601N002112200019N0100001N1+03781+01181100681ADDAA199000091GA1001+999999999GF100991001001999999001001KA1120M+03841MA1999999100451MD1999999+0211REMSYN070AAXX  07184 61627 32960 03604 10378 20118 30045 40068 333 10384 58021;EQDQ01  00002PRCP99
0183616270999992000040800004+15380-015120FM-12+0021GOOG V0203201N002112200019N0080001N1+02651+01831100961ADDAA199000091GA1001+999999999GF100991001001999999001001MA1999999100731MD1999999+0131REMSYN070AAXX  08004 61627 32958 03204 10265 20183 30073 40096 333 0//00 58013;EQDQ01  00002PRCP99
0147616270999992000040803004+15380-015120FM-12+0021GOOG V0203201N002112200019N0080001N1+02331+01811100841ADDGA1001+999999999GF100991001001999999001001MA1999999100611MD1999999-0011REMSYN064AAXX  08034 61627 42958 03204 10233 20181 30061 40084 333 59001;
0147616270999992000040809004+15380-015120FM-12+0021GOOG V0203601N001012200019N0100001N1+02521+01741100981ADDGA1001+999999999GF100991001001999999001001MA1999999100751MD1999999-0101REMSYN064AAXX  08094 61627 42960 03602 10252 20174 30075 40098 333 59010;
0183616270999992000040812004+15380-015120FM-12+0021GOOG V0203201N002112200019N0100001N1+03301+01801101001ADDAA199000091GA1001+999999999GF100991001001999999001001MA1999999100771MD1999999-0031REMSYN070AAXX  08124 61627 32960 03204 10330 20180 30077 40100 333 0//00 59003;EQDQ01  00002PRCP99
0147616270999992000040815004+15380-015120FM-12+0021GOOG V0200401N002112200019N0100001N1+03851+01641100741ADDGA1001+999999999GF100991001001999999001001MA1999999100511MD1999999+0001REMSYN064AAXX  08154 61627 42960 00404 10385 20164 30051 40074 333 58000;
0196616270999992000040818004+15380-015120FM-12+0021GOOG V0200401N002112200019N0100001N1+03911+01571100631ADDAA199000091GA1001+999999999GF100991001001999999001001KA1120M+03991MA1999999100401MD1999999-0051REMSYN070AAXX  08184 61627 32960 00404 10391 20157 30040 40063 333 10399 59005;EQDQ01  00002PRCP99
0183616270999992000040900004+15380-015120FM-12+0021GOOG V0203201N003112200019N0080001N1+02661+01691100911ADDAA199000091GA1001+999999999GF100991001001999999001001MA1999999100681MD1999999-0051REMSYN070AAXX  09004 61627 32958 03206 10266 20169 30068 40091 333 0//00 59005;EQDQ01  00002PRCP99
0212616270999992000040906004+15380-015120FM-12+0021GOOG V0203201N002112200019N0080001N1+02201+01561100821ADDAA199000091GA1001+999999999GF100991001001999999001001IA2240+01609KA1120N+02201MA1999999100591REMSYN088AAXX  09064 61627 32958 03204 10220 20156 30059 40082 333 01600 20220 50840 55/// 59009;EQDQ01  00002PRCP99
0147616270999992000040909004+15380-015120FM-12+0021GOOG V0203201N001012200019N0100001N1+02351+01711100951ADDGA1001+999999999GF100991001001999999001001MA1999999100721MD1999999-0031REMSYN064AAXX  09094 61627 42960 03202 10235 20171 30072 40095 333 59003;
0177616270999992000040912004+15380-015120FM-12+0021GOOG V0200401N002112200019N0100001N1+03451+01711101021ADDAA199000091GA1001+999999999GF100991001001999999001001MA1999999100791MD1999999+0021REMSYN064AAXX  09124 61627 32960 00404 10345 20171 30079 40102 333 58002;EQDQ01  00002PRCP99
0147616270999992000040915004+15380-015120FM-12+0021GOOG V0203601N003112200019N0100001N1+04001+01681100721ADDGA1001+999999999GF100991001001999999001001MA1999999100491MD1999999-0021REMSYN064AAXX  09154 61627 42960 03606 10400 20168 30049 40072 333 59002;
0183616270999992000041000004+15380-015120FM-12+0021GOOG V0203201N003112200019N0080001N1+02701+01701100831ADDAA199000091GA1001+999999999GF100991001001999999001001MA1999999100601MD1999999-0081REMSYN070AAXX  10004 61627 32958 03206 10270 20170 30060 40083 333 0//00 59008;EQDQ01  00002PRCP99
0212616270999992000041006004+15380-015120FM-12+0021GOOG V0203201N001012200019N0080001N1+02241+01641100761ADDAA199000091GA1001+999999999GF100991001001999999001001IA2240+01509KA1120N+02241MA1999999100531REMSYN088AAXX  10064 61627 32958 03202 10224 20164 30053 40076 333 01500 20224 50980 55/// 59004;EQDQ01  00002PRCP99
0147616270999992000041009004+15380-015120FM-12+0021GOOG V0203201N002112200019N0100001N1+02641+01621100731ADDGA1001+999999999GF100991001001999999001001MA1999999100701MD1999999-0021REMSYN064AAXX  10094 61627 42960 03204 10264 20162 30070 40073 333 59002;
0183616270999992000041012004+15380-015120FM-12+0021GOOG V0203601N001012200019N0100001N1+03731+01741100921ADDAA199000091GA1001+999999999GF100991001001999999001001MA1999999100691MD1999999-0101REMSYN070AAXX  10124 61627 32960 03602 10373 20174 30069 40092 333 0//00 59010;EQDQ01  00002PRCP99
0147616270999992000041015004+15380-015120FM-12+0021GOOG V0200401N002112200019N0100001N1+04231+01531100651ADDGA1001+999999999GF100991001001999999001001MA1999999100421MD1999999-0071REMSYN064AAXX  10154 61627 42960 00404 10423 20153 30042 40065 333 59007;
0196616270999992000041018004+15380-015120FM-12+0021GOOG V0203601N001012200019N0100001N1+04231+01301100601ADDAA199000091GA1001+999999999GF100991001001999999001001KA1120M+04311MA1999999100371MD1999999+0021REMSYN070AAXX  10184 61627 32960 03602 10423 20130 30037 40060 333 10431 58002;EQDQ01  00002PRCP99
0147616270999992000041021004+15380-015120FM-12+0021GOOG V0203201N001012200019N0080001N1+03701+01321100731ADDGA1001+999999999GF100991001001999999001001MA1999999100501MD1999999+0001REMSYN064AAXX  10214 61627 42958 03202 10370 20132 30050 40073 333 58000;
0195616270999992000041100004+15380-015120FM-12+0021GOOG V0203201N001012200019N0080001N1+03051+01861100861ADDAA199000091GA1021+039009079GF102991021001999999031001MA1999999100641MD1999999+0031REMSYN082AAXX  11004 61627 32958 23202 10305 20186 30064 40086 82030 333 0//00 58003 82363;EQDQ01  00002PRCP99
0147616270999992000041103004+15380-015120FM-12+0021GOOG V0203201N001012200019N0080001N1+02701+01801100771ADDGA1001+999999999GF100991001001999999001001MA1999999100541MD1999999+0021REMSYN064AAXX  11034 61627 42958 03202 10270 20180 30054 40077 333 58002;
0212616270999992000041106004+15380-015120FM-12+0021GOOG V0203201N001012200019N0080001N1+02421+01801100771ADDAA199000091GA1001+999999999GF100991001001999999001001IA2240+01609KA1120N+02421MA1999999100541REMSYN088AAXX  11064 61627 32958 03202 10242 20180 30054 40077 333 01600 20242 51550 55/// 58001;EQDQ01  00002PRCP99
0159616270999992000041109004+15380-015120FM-12+0021GOOG V0203201N003112200019N0100001N1+02681+01821100901ADDGA1041+069009019GF104991001001999999001011MA1999999100671MD1999999-0031REMSYN076AAXX  11094 61627 42960 43206 10268 20182 30067 40090 80001 333 59003 84073;
0201616270999992000041112004+15380-015120FM-12+0021GOOG V0200401N002112200019N0100001N1+03771+01551100901ADDAA199000091GA1011+039009039GF104991011001999999031011MA1999999100671MD1999999-0021REMSYN088AAXX  11124 61627 32960 40404 10377 20155 30067 40090 81031 333 0//00 59002 81363 83073;EQDQ01  00002PRCP99
0159616270999992000041115004+15380-015120FM-12+0021GOOG V0200401N003112200019N0080001N1+04381+01921100631ADDGA1041+069009019GF104991001001999999001011MA1999999100401MD1999999-0021REMSYN076AAXX  11154 61627 42958 40406 10438 20192 30040 40063 80001 333 59002 84073;
0214616270999992000041118004+15380-015120FM-12+0021GOOG V0203601N002112200019N0080001N1+04351+01881100531ADDAA199000091GA1021+039009039GF104991021001999999031011KA1120M+04411MA1999999100301MD1999999-0071REMSYN088AAXX  11184 61627 32958 43604 10435 20188 30030 40053 82031 333 10441 59007 82363 83073;EQDQ01  00002PRCP99
0159616270999992000041121004+15380-015120FM-12+0021GOOG V0203601N003112200019N0070001N1+03881+01591100681ADDGA1021+069009019GF102991001001999999001021MA1999999100451MD1999999-0051REMSYN076AAXX  11214 61627 42957 23606 10388 20159 30045 40068 80002 333 59005 82073;
0195616270999992000041200004+15380-015120FM-12+0021GOOG V0203201N002112200019N0070001N1+03291+01561100861ADDAA199000091GA1011+039009079GF101991011001999999031001MA1999999100631MD1999999+0001REMSYN082AAXX  12004 61627 32957 13204 10329 20156 30063 40086 81030 333 0//00 58000 81363;EQDQ01  00002PRCP99
0147616270999992000041209004+15380-015120FM-12+0021GOOG V0203601N004112200019N0080001N1+03221+01401100851ADDGA1001+999999999GF100991001001999999001001MA1999999100621MD1999999-0051REMSYN064AAXX  12094 61627 42958 03608 10322 20140 30062 40085 333 59005;
0211616270999992000041212004+15380-015120FM-12+0021GOOG V0200401N004112200019N0040001N1+04001+01731100921ADDAA199000091AY101061AY201061GA1001+999999999GF100991001001999999001001MA1999999100691MD1999999+0021MW1061REMSYN076AAXX  12124 61627 31940 00408 10400 20173 30069 40092 70600 333 0//00 58002;EQDQ01  00002PRCP99
0212616270999992000041218004+15380-015120FM-12+0021GOOG V0200401N003112200019N0060001N1+04301+01801100471ADDAA199000091GA1001+999999999GF100991001001999999001001KA1120M+99999MA1999999100241MD1999999-0061REMSYN070AAXX  12184 61627 32956 00406 10430 20180 30024 40047 333 10347 59006;EQDQ01  00002PRCP99Q02 +03472ATMX  
0147616270999992000041221004+15380-015120FM-12+0021GOOG V0209999C000012200019N0060001N1+03751+01841100601ADDGA1001+999999999GF100991001001999999001001MA1999999100371MD1999999-0081REMSYN064AAXX  12214 61627 42956 00000 10375 20184 30037 40060 333 59008;
0183616270999992000041300004+15380-015120FM-12+0021GOOG V0203601N001012200019N0070001N1+03211+01821100821ADDAA199000091GA1001+999999999GF100991001001999999001001MA1999999100591MD1999999-0041REMSYN070AAXX  13004 61627 32957 03602 10321 20182 30059 40082 333 0//00 59004;EQDQ01  00002PRCP99
0147616270999992000041309004+15380-015120FM-12+0021GOOG V0203601N002112200019N0080001N1+02981+01881100841ADDGA1001+999999999GF100991001001999999001001MA1999999100611MD1999999-0011REMSYN064AAXX  13094 61627 42958 03604 10298 20188 30061 40084 333 59001;
0183616270999992000041312004+15380-015120FM-12+0021GOOG V0203601N003112200019N0100001N1+04011+02091100861ADDAA199000091GA1001+999999999GF100991001001999999001001MA1999999100631MD1999999-0061REMSYN070AAXX  13124 61627 32960 03606 10401 20209 30063 40086 333 0//00 59006;EQDQ01  00002PRCP99
0147616270999992000041315004+15380-015120FM-12+0021GOOG V0200601N003112200019N0100001N1+04481+01721100631ADDGA1001+999999999GF100991001001999999001001MA1999999100401MD1999999-0011REMSYN064AAXX  13154 61627 42960 00606 10448 20172 30040 40063 333 59001;
0196616270999992000041318004+15380-015120FM-12+0021GOOG V0200401N002112200019N0100001N1+04391+01461100501ADDAA199000091GA1001+999999999GF100991001001999999001001KA1120M+04481MA1999999100271MD1999999+0031REMSYN070AAXX  13184 61627 32960 00404 10439 20146 30027 40050 333 10448 58003;EQDQ01  00002PRCP99
0183616270999992000041400004+15380-015120FM-12+0021GOOG V0203601N003112200019N0080001N1+03421+01681100771ADDAA199000091GA1001+999999999GF100991001001999999001001MA1999999100541MD1999999-0051REMSYN070AAXX  14004 61627 32958 03606 10342 20168 30054 40077 333 0//00 59005;EQDQ01  00002PRCP99
0147616270999992000041403004+15380-015120FM-12+0021GOOG V0203601N003112200019N0080001N1+03181+01541100701ADDGA1001+999999999GF100991001001999999001001MA1999999100481MD1999999-0041REMSYN064AAXX  14034 61627 42958 03606 10318 20154 30048 40070 333 59004;
0159616270999992000041409004+15380-015120FM-12+0021GOOG V0200401N003112200019N0100001N1+03301+01661100891ADDGA1031+039009079GF103991031001999999031001MA1999999100661MD1999999+0051REMSYN076AAXX  14094 61627 42960 30406 10330 20166 30066 40089 83030 333 58005 83363;
0147616270999992000041415004+15380-015120FM-12+0021GOOG V0200401N003112200019N0100001N1+04541+01831100631ADDGA1001+999999999GF100991001001999999001001MA1999999100401MD1999999+0001REMSYN064AAXX  14154 61627 42960 00406 10454 20183 30040 40063 333 58000;
0196616270999992000041418004+15380-015120FM-12+0021GOOG V0200601N003112200019N0100001N1+04501+01771100431ADDAA199000091GA1001+999999999GF100991001001999999001001KA1120M+04601MA1999999100201MD1999999-0071REMSYN070AAXX  14184 61627 32960 00606 10450 20177 30020 40043 333 10460 59007;EQDQ01  00002PRCP99
0147616270999992000041421004+15380-015120FM-12+0021GOOG V0203601N001012200019N0080001N1+03951+01541100551ADDGA1001+999999999GF100991001001999999001001MA1999999100321MD1999999-0081REMSYN064AAXX  14214 61627 42958 03602 10395 20154 30032 40055 333 59008;
0183616270999992000041500004+15380-015120FM-12+0021GOOG V0203601N002112200019N0080001N1+03651+01411100731ADDAA199000091GA1001+999999999GF100991001001999999001001MA1999999100501MD1999999-0041REMSYN070AAXX  15004 61627 32958 03604 10365 20141 30050 40073 333 0//00 59004;EQDQ01  00002PRCP99
0147616270999992000041509004+15380-015120FM-12+0021GOOG V0200401N002112200019N0100001N1+03201+01301100791ADDGA1001+999999999GF100991001001999999001001MA1999999100561MD1999999-0101REMSYN064AAXX  15094 61627 42960 00404 10320 20130 30056 40079 333 59010;
0183616270999992000041512004+15380-015120FM-12+0021GOOG V0200401N002112200019N0100001N1+04001+01661100831ADDAA199000091GA1001+999999999GF100991001001999999001001MA1999999100601MD1999999-0071REMSYN070AAXX  15124 61627 32960 00404 10400 20166 30060 40083 333 0//00 59007;EQDQ01  00002PRCP99
0147616270999992000041515004+15380-015120FM-12+0021GOOG V0200601N002112200019N0100001N1+04431+01921100571ADDGA1001+999999999GF100991001001999999001001MA1999999100341MD1999999-0061REMSYN064AAXX  15154 61627 42960 00604 10443 20192 30034 40057 333 59006;
0196616270999992000041518004+15380-015120FM-12+0021GOOG V0200601N002112200019N0100001N1+04421+01841100451ADDAA199000091GA1001+999999999GF100991001001999999001001KA1120M+04531MA1999999100221MD1999999+0021REMSYN070AAXX  15184 61627 32960 00604 10442 20184 30022 40045 333 10453 58002;EQDQ01  00002PRCP99
0183616270999992000041600004+15380-015120FM-12+0021GOOG V0203201N003112200019N0080001N1+03201+01731100831ADDAA199000091GA1001+999999999GF100991001001999999001001MA1999999100601MD1999999+0101REMSYN070AAXX  16004 61627 32958 03206 10320 20173 30060 40083 333 0//00 58010;EQDQ01  00002PRCP99
0147616270999992000041603004+15380-015120FM-12+0021GOOG V0203201N002112200019N0080001N1+02901+01591100831ADDGA1001+999999999GF100991001001999999001001MA1999999100601MD1999999+0231REMSYN064AAXX  16034 61627 42958 03204 10290 20159 30060 40083 333 58023;
0212616270999992000041606004+15380-015120FM-12+0021GOOG V0202601N002112200019N0080001N1+02701+01571100821ADDAA199000091GA1001+999999999GF100991001001999999001001IA2240+02209KA1120N+02701MA1999999100591REMSYN088AAXX  16064 61627 32958 02604 10270 20157 30059 40082 333 02200 20270 51820 55/// 58026;EQDQ01  00002PRCP99
0147616270999992000041609004+15380-015120FM-12+0021GOOG V0203601N003112200019N0080001N1+02881+01521100731ADDGA1001+999999999GF100991001001999999001001MA1999999100701MD1999999+0141REMSYN064AAXX  16094 61627 42958 03606 10288 20152 30070 40073 333 58014;
0183616270999992000041612004+15380-015120FM-12+0021GOOG V0200401N004112200019N0060001N1+03761+01881100921ADDAA199000091GA1001+999999999GF100991001001999999001001MA1999999100691MD1999999+0091REMSYN070AAXX  16124 61627 32956 00408 10376 20188 30069 40092 333 0//00 58009;EQDQ01  00002PRCP99
0147616270999992000041615004+15380-015120FM-12+0021GOOG V0200201N004112200019N0060001N1+04281+01471100621ADDGA1001+999999999GF100991001001999999001001MA1999999100391MD1999999+0051REMSYN064AAXX  16154 61627 42956 00208 10428 20147 30039 40062 333 58005;
0166616270999992000041618004+15380-015120FM-12+0021GOOG V0203601N003112200019N0060001N1+04231+01141999999ADDAA199000091GA1001+999999999GF100991001001999999001001KA1120M+04401REMSYN069AAXX  16184 61627 32956 03606 10423 20114 3002 40051 333 10440 58006;EQDQ01  00002PRCP99
0159616270999992000041621004+15380-015120FM-12+0021GOOG V0203601N002110420019N0060001N1+03921+01521100651ADDGA1081+042009019GF108991081001999999011999MA1999999100421MD1999999+0051REMSYN076AAXX  16214 61627 42956 83604 10392 20152 30042 40065 8801/ 333 58005 88464;
0211616270999992000041700004+15380-015120FM-12+0021GOOG V0203601N002110390019N0060001N1+03601+01631100761ADDAA199000091GA1061+039009019GF106991061001999999011999MA1999999100531MD1999999-0071REMSYN082AAXX  17004 61627 32956 63604 10360 20163 30053 40076 86010 333 0//00 59007 86463;EQDQ01+000002SCOHCGQ02  00002PRCP99
0195616270999992000041712004+15380-015120FM-12+0021GOOG V0200401N002110390019N0100001N1+03851+01681100931ADDAA199000091GA1051+039009019GF106991051001999999071021MA1999999100701MD1999999+0011REMSYN082AAXX  17124 61627 32960 60404 10385 20168 30070 40093 85072 333 0//00 58001 85463;EQDQ01  00002PRCP99
0159616270999992000041715004+15380-015120FM-12+0021GOOG V0200401N001010690019N0100001N1+04301+01971100731ADDGA1061+069009019GF106991001001999999001021MA1999999100501MD1999999+0111REMSYN076AAXX  17154 61627 42960 60402 10430 20197 30050 40073 80002 333 58011 86073;
0208616270999992000041718004+15380-015120FM-12+0021GOOG V0200601N002110690019N0100001N1+04301+01971100531ADDAA199000091GA1051+069009019GF105991001001999999001021KA1120M+04481MA1999999100301MD1999999+0021REMSYN082AAXX  17184 61627 32960 50604 10430 20197 30030 40053 80002 333 10448 58002 85073;EQDQ01  00002PRCP99
0159616270999992000041721004+15380-015120FM-12+0021GOOG V0209999C000012200019N0080001N1+03801+01751100631ADDGA1021+069009019GF102991001001999999001021MA1999999100401MD1999999-0021REMSYN076AAXX  17214 61627 42958 20000 10380 20175 30040 40063 80002 333 59002 82073;
0195616270999992000041800004+15380-015120FM-12+0021GOOG V0209999C000012200019N0080001N1+03591+01571100791ADDAA199000091GA1041+069009019GF104991001001999999001021MA1999999100561MD1999999+0031REMSYN082AAXX  18004 61627 32958 40000 10359 20157 30056 40079 80002 333 0//00 58003 84073;EQDQ01  00002PRCP99
0222616270999992000041806004+15380-015120FM-12+0021GOOG V0202201N001019999999N0080001N1+02711+01751100831ADDAA199000091GF106991001001999999001021IA2240+02009KA1120N+02711MA1999999100601MD1999999+0001REMSYN100AAXX  18064 61627 32958 62202 10271 20175 30060 40083 80002 333 02000 20271 51030 55/// 58000 86073;EQDQ01  00002PRCP99
0159616270999992000041809004+15380-015120FM-12+0021GOOG V0202801N002112200019N0100001N1+02711+02001101031ADDGA1041+069009019GF104991001001999999001021MA1999999100801MD1999999+0081REMSYN076AAXX  18094 61627 42960 42804 10271 20200 30080 40103 80002 333 58008 84073;
0195616270999992000041812004+15380-015120FM-12+0021GOOG V0202601N002110690019N0100001N1+03331+02111101061ADDAA199000091GA1061+069009019GF106991001001999999001021MA1999999100831MD1999999+0131REMSYN082AAXX  18124 61627 32960 62604 10333 20211 30083 40106 80002 333 0//00 58013 86073;EQDQ01  00002PRCP99
0159616270999992000041815004+15380-015120FM-12+0021GOOG V0201201N001010390019N0100001N1+03801+01851100761ADDGA1061+039009079GF106991061001999999081001MA1999999100531MD1999999+0031REMSYN076AAXX  18154 61627 42960 61202 10380 20185 30053 40076 86080 333 58003 86363;
0196616270999992000041818004+15380-015120FM-12+0021GOOG V0201401N002112200019N0100001N1+03901+01811100701ADDAA199000091GA1001+999999999GF100991001001999999001001KA1120M+03961MA1999999100471MD1999999+0171REMSYN070AAXX  18184 61627 32960 01404 10390 20181 30047 40070 333 10396 58017;EQDQ01  00002PRCP99
0183616270999992000041900004+15380-015120FM-12+0021GOOG V0202401N002112200019N0080001N1+03101+01881100961ADDAA199000091GA1001+999999999GF100991001001999999001001MA1999999100731MD1999999+0171REMSYN070AAXX  19004 61627 32958 02404 10310 20188 30073 40096 333 0//00 58017;EQDQ01  00002PRCP99
0147616270999992000041903004+15380-015120FM-12+0021GOOG V0202601N002112200019N0080001N1+02881+01801100931ADDGA1001+999999999GF100991001001999999001001MA1999999100701MD1999999+0201REMSYN064AAXX  19034 61627 42958 02604 10288 20180 30070 40093 333 58020;
0222616270999992000041906004+15380-015120FM-12+0021GOOG V0202401N001012200019N0080001N1+02581+01711100921ADDAA199000091GF102991021001999999031001IA2240+02009KA1120N+02581MA1999999100691MD1999999+0091REMSYN100AAXX  19064 61627 32958 22402 10258 20171 30069 40092 82030 333 02000 20258 50750 55/// 58009 82363;EQDQ01  00002PRCP99
0159616270999992000041909004+15380-015120FM-12+0021GOOG V0203001N001010390019N0100001N1+02721+01711101001ADDGA1051+039009079GF105991051001999999031001MA1999999100771MD1999999-0031REMSYN076AAXX  19094 61627 42960 53002 10272 20171 30077 40100 85030 333 59003 85363;
0195616270999992000041912004+15380-015120FM-12+0021GOOG V0202801N001010390019N0100001N1+03281+01971101091ADDAA199000091GA1071+039009079GF107991071001999999071999MA1999999100861MD1999999+0031REMSYN082AAXX  19124 61627 32960 72802 10328 20197 30086 40109 8707/ 333 0//00 58003 87363;EQDQ01  00002PRCP99
0159616270999992000041915004+15380-015120FM-12+0021GOOG V0201201N001010390019N0100001N1+03681+01681100851ADDGA1081+039009019GF108991081001999999071999MA1999999100621MD1999999+0091REMSYN076AAXX  19154 61627 42960 81202 10368 20168 30062 40085 8807/ 333 58009 88463;
0208616270999992000041918004+15380-015120FM-12+0021GOOG V0201401N001010390019N0100001N1+03651+01481100751ADDAA199000091GA1081+039009019GF108991081001999999071999KA1120M+03771MA1999999100521MD1999999+0051REMSYN082AAXX  19184 61627 32960 81402 10365 20148 30052 40075 8807/ 333 10377 58005 88463;EQDQ01  00002PRCP99
0159616270999992000041921004+15380-015120FM-12+0021GOOG V0209999C000010390019N0080001N1+03331+01831100861ADDGA1081+039009019GF108991071001999999071999MA1999999100631MD1999999+0031REMSYN076AAXX  19214 61627 42958 80000 10333 20183 30063 40086 8707/ 333 58003 88463;
0195616270999992000042000004+15380-015120FM-12+0021GOOG V0202401N002110390019N0080001N1+03201+01921100991ADDAA199000091GA1071+039009019GF107991071001999999071999MA1999999100761MD1999999+0031REMSYN082AAXX  20004 61627 32958 72404 10320 20192 30076 40099 8707/ 333 0//00 58003 87463;EQDQ01  00002PRCP99
0159616270999992000042009004+15380-015120FM-12+0021GOOG V0202401N002110390019N0100001N1+02651+02171101041ADDGA1071+039009019GF107991071001999999071999MA1999999100811MD1999999+0041REMSYN076AAXX  20094 61627 42960 72404 10265 20217 30081 40104 8707/ 333 58004 87463;
0211616270999992000042012004+15380-015120FM-12+0021GOOG V0203001N001010390019N0100001N1+03441+02061101071ADDAA199000091GA1051+039009019GF105991051001999999071999MA1999999100841MD1999999-0021REMSYN082AAXX  20124 61627 32960 53002 10344 20206 30084 40107 85070 333 0//00 59002 85463;EQDQ01+000002SCOHCGQ02  00002PRCP99
0196616270999992000042018004+15380-015120FM-12+0021GOOG V0201001N002112200019N0100001N1+04101+01851100711ADDAA199000091GA1001+999999999GF100991001001999999001001KA1120M+04151MA1999999100481MD1999999-0041REMSYN070AAXX  20184 61627 32960 01004 10410 20185 30048 40071 333 10415 59004;EQDQ01  00002PRCP99
0147616270999992000042021004+15380-015120FM-12+0021GOOG V0209999C000012200019N0080001N1+03401+01691100801ADDGA1001+999999999GF100991001001999999001001MA1999999100571MD1999999-0131REMSYN064AAXX  20214 61627 42958 00000 10340 20169 30057 40080 333 59013;
0159616270999992000042103004+15380-015120FM-12+0021GOOG V0209999C000012200019N0080001N1+02801+01891100831ADDGA1041+039009079GF104991041001999999081001MA1999999100611MD1999999-0111REMSYN076AAXX  21034 61627 42958 40000 10280 20189 30061 40083 84080 333 59011 84363;
0222616270999992000042106004+15380-015120FM-12+0021GOOG V0209999C000012200019N0080001N1+02571+01771100871ADDAA199000091GF101991011001999999031001IA2240+01909KA1120N+02571MA1999999100641MD1999999-0071REMSYN100AAXX  21064 61627 32958 10000 10257 20177 30064 40087 81030 333 01900 20257 51010 55/// 59007 81363;EQDQ01  00002PRCP99
0147616270999992000042109004+15380-015120FM-12+0021GOOG V0209999C000012200019N0100001N1+02991+01761100951ADDGA1001+999999999GF100991001001999999001001MA1999999100721MD1999999-0091REMSYN064AAXX  21094 61627 42960 00000 10299 20176 30072 40095 333 59009;
0199616270999992000042112004+15380-015120FM-12+0021GOOG V0200601N003112200019N0100001N1+99999+01851100931ADDAA199000091GA1001+999999999GF100991001001999999001001MA1999999100701MD1999999-0141REMSYN070AAXX  21124 61627 32960 00606 10415 20185 30070 40093 333 0//00 59014;EQDQ01+004153ATOT  Q02  00002PRCP99
0159616270999992000042115004+15380-015120FM-12+0021GOOG V0200401N003112200019N0100001N1+02431+02111100731ADDGA1011+039009079GF101991011001999999031001MA1999999100501MD1999999-0101REMSYN076AAXX  21154 61627 42960 10406 10243 20211 30050 40073 81030 333 59010 81363;
0224616270999992000042118004+15380-015120FM-12+0021GOOG V0200601N002110390019N0100001N1+04302+01931100541ADDAA199000091GA1061+039009079GF106991061001999999081001KA1120M+04501MA1999999100341MD1999999-0141REMSYN082AAXX  21184 61627 32960 60604 10430 20193 30034 40054 86080 333 10450 59014 86363;EQDQ01+004303ATOT  Q02  00002PRCP99
0195616270999992000042200004+15380-015120FM-12+0021GOOG V0200201N001012200019N0080001N1+03481+01601100861ADDAA199000091GA1041+039009079GF104991041001999999081001MA1999999100631MD1999999-0071REMSYN082AAXX  22004 61627 32958 40202 10348 20160 30063 40086 84080 333 0//00 59007 84363;EQDQ01  00002PRCP99
0222616270999992000042206004+15380-015120FM-12+0021GOOG V0200401N002119999999N0080001N1+03001+01341100841ADDAA199000091GF105991051001999999081001IA2240+01609KA1120N+03001MA1999999100611MD1999999-0031REMSYN100AAXX  22064 61627 32958 50404 10300 20134 30061 40084 85080 333 01600 20300 51310 55/// 59003 85363;EQDQ01  00002PRCP99
0159616270999992000042209004+15380-015120FM-12+0021GOOG V0200601N002110390019N0100001N1+03381+01561100981ADDGA1061+039009079GF106991061001999999081001MA1999999100751MD1999999+0031REMSYN076AAXX  22094 61627 42960 60604 10338 20156 30075 40098 86080 333 58003 86363;
0159616270999992000042215004+15380-015120FM-12+0021GOOG V0200401N002110390019N0100001N1+04301+01711100781ADDGA1051+039009079GF105991051001999999071001MA1999999100561MD1999999+0061REMSYN076AAXX  22154 61627 42960 50404 10430 20171 30056 40078 85070 333 58006 85363;
0208616270999992000042218004+15380-015120FM-12+0021GOOG V0200401N004110390019N0100001N1+04201+01641100691ADDAA199000091GA1051+039009079GF105991051001999999071001KA1120M+04401MA1999999100461MD1999999-0121REMSYN082AAXX  22184 61627 32960 50408 10420 20164 30046 40069 85070 333 10440 59012 85363;EQDQ01  00002PRCP99
0159616270999992000042221004+15380-015120FM-12+0021GOOG V0209999C000012200019N0080001N1+03661+00781100801ADDGA1021+039009079GF102991021001999999071001MA1999999100571MD1999999+0071REMSYN076AAXX  22214 61627 42958 20000 10366 20078 30057 40080 82070 333 58007 82363;
0195616270999992000042300004+15380-015120FM-12+0021GOOG V0200401N002110390019N0080001N1+03451+00641100941ADDAA199000091GA1061+039009079GF106991061001999999071001MA1999999100711MD1999999+0081REMSYN082AAXX  23004 61627 32958 60404 10345 20064 30071 40094 86070 333 0//00 58008 86363;EQDQ01  00002PRCP99
0222616270999992000042306004+15380-015120FM-12+0021GOOG V0200501N002619999999N0080001N1+02941+00481100871ADDAA199000091GF105991051091999999071001IA2240+02209KA1120N+02941MA1999999100641MD1999999+0031REMSYN100AAXX  23064 61627 32958 50505 10294 20048 30064 40087 85970 333 02200 20294 51440 55/// 58003 85363;EQDQ01  00002PRCP99
0159616270999992000042309004+15380-015120FM-12+0021GOOG V0200201N002110390019N0100001N1+03281+00581100951ADDGA1051+039009079GF105991051001999999071001MA1999999100721MD1999999-0031REMSYN076AAXX  23094 61627 42960 50204 10328 20058 30072 40095 85070 333 59003 85363;
0195616270999992000042312004+15380-015120FM-12+0021GOOG V0200401N002112200019N0100001N1+04101+00261100931ADDAA199000091GA1011+039009079GF101991011001999999031001MA1999999100711MD1999999-0081REMSYN082AAXX  23124 61627 32960 10404 10410 20026 30071 40093 81030 333 0//00 59008 81363;EQDQ01  00002PRCP99
0147616270999992000042315004+15380-015120FM-12+0021GOOG V0209999C000012200019N0100001N1+04301+00261100711ADDGA1001+999999999GF100991001001999999001001MA1999999100481MD1999999-0081REMSYN064AAXX  23154 61627 42960 00000 10430 20026 30048 40071 333 59008;
0196616270999992000042318004+15380-015120FM-12+0021GOOG V0209999C000012200019N0100001N1+04301+00361100551ADDAA199000091GA1001+999999999GF100991001001999999001001KA1120M+04311MA1999999100321MD1999999-0141REMSYN070AAXX  23184 61627 32960 00000 10430 20036 30032 40055 333 10431 59014;EQDQ01  00002PRCP99
0147616270999992000042321004+15380-015120FM-12+0021GOOG V0209999C000012200019N0080001N1+03601+00451100661ADDGA1001+999999999GF100991001001999999001001MA1999999100431MD1999999-0141REMSYN064AAXX  23214 61627 42958 00000 10360 20045 30043 40066 333 59014;
0183616270999992000042400004+15380-015120FM-12+0021GOOG V0203201N002112200019N0080001N1+03201+00731100821ADDAA199000091GA1001+999999999GF100991001001999999001001MA1999999100591MD1999999-0121REMSYN070AAXX  24004 61627 32958 03204 10320 20073 30059 40082 333 0//00 59012;EQDQ01  00002PRCP99
0147616270999992000042409004+15380-015120FM-12+0021GOOG V0202201N001012200019N0100001N1+02661+01391101011ADDGA1001+999999999GF100991001001999999001001MA1999999100781MD1999999+0061REMSYN064AAXX  24094 61627 42960 02202 10266 20139 30078 40101 333 58006;
0147616270999992000042415004+15380-015120FM-12+0021GOOG V0203201N002112200019N0100001N1+04101+00681100731ADDGA1001+999999999GF100991001001999999001001MA1999999100501MD1999999+0021REMSYN064AAXX  24154 61627 42960 03204 10410 20068 30050 40073 333 58002;
0208616270999992000042418004+15380-015120FM-12+0021GOOG V0203201N002112200019N0100001N1+04131+00341100611ADDAA199000091GA1031+039009079GF103991031001999999081001KA1120M+04241MA1999999100381MD1999999+0061REMSYN082AAXX  24184 61627 32960 33204 10413 20034 30038 40061 83080 333 10424 58006 83363;EQDQ01  00002PRCP99
0227616270999992000042500004+15380-015120FM-12+0021GOOG V0203201N003112200019N0080001N1+02781+01511100851ADDAA199000091GA1041+069009019GF199999001001999999001999MA1999999100621MD1999999+0031REMSYN082AAXX  25004 61627 32958 03206 10278 20151 30062 40085 80002 333 0//00 58003 84073;EQDQ01+000002SCOTCVQ02+000002SCOHCGQ03  00002PRCP99
0222616270999992000042506004+15380-015120FM-12+0021GOOG V0202401N001012200019N0080001N1+02411+01581100841ADDAA199000091GF101991011001999999031001IA2240+02009KA1120N+02411MA1999999100611MD1999999+0011REMSYN100AAXX  25064 61627 32958 12402 10241 20158 30061 40084 81030 333 02000 20241 50930 55/// 58001 81363;EQDQ01  00002PRCP99
0147616270999992000042509004+15380-015120FM-12+0021GOOG V0202201N002112200019N0100001N1+02571+01671100951ADDGA1001+999999999GF100991001001999999001001MA1999999100721MD1999999-0061REMSYN064AAXX  25094 61627 42960 02204 10257 20167 30072 40095 333 59006;
0207616270999992000042512004+15380-015120FM-12+0021GOOG V0201601N002110390019N0100001N1+03081+01921101031ADDAA199000091GA1061+039009079GF106991061001999999081001IA2240+00009MA1999999100801MD1999999+0081REMSYN082AAXX  25124 61627 32960 61604 10308 20192 30080 40103 86080 333 00000 58008 86363;EQDQ01  00002PRCP99
0159616270999992000042515004+15380-015120FM-12+0021GOOG V0202001N001012200019N0100001N1+03801+01191100831ADDGA1011+039009079GF101991011001999999031001MA1999999100601MD1999999+0101REMSYN076AAXX  25154 61627 42960 12002 10380 20119 30060 40083 81030 333 58010 81363;
0208616270999992000042518004+15380-015120FM-12+0021GOOG V0202001N002110390019N0100001N1+03901+01161100721ADDAA199000091GA1051+039009079GF105991051001999999081001KA1120M+04001MA1999999100491MD1999999+0111REMSYN082AAXX  25184 61627 32960 52004 10390 20116 30049 40072 85080 333 10400 58011 85363;EQDQ01  00002PRCP99
0178616270999992000042521004+15380-015120FM-12+0021GOOG V0203001N003112200019N0080001N1+03201+01621100821ADDGA1031+039009079GF199999031001999999031001MA1999999100591MD1999999+0141REMSYN076AAXX  25214 61627 42958 23006 10320 20162 30059 40082 83030 333 58014 83363;EQDQ01+000022SCOTCV
0173616270999992000042600004+15380-015120FM-12+0021GOOG V0203001N003112200019N0080001N1+02661+01691101021ADDAA199000091GF101991011001999999031001MA1999999100791MD1999999+0161REMSYN076AAXX  26004 61627 32958 13006 10266 20169 30079 40102 81030 333 0//00 58016;EQDQ01  00002PRCP99
0222616270999992000042606004+15380-015120FM-12+0021GOOG V0209999C000019999999N0080001N1+02321+01731100931ADDAA199000091GF106991061001999999071001IA2240+02109KA1120N+02321MA1999999100701MD1999999+0091REMSYN100AAXX  26064 61627 32958 60000 10232 20173 30070 40093 86070 333 02100 20232 50800 55/// 58009 86363;EQDQ01  00002PRCP99
0159616270999992000042609004+15380-015120FM-12+0021GOOG V0203001N002110390019N0100001N1+02421+01771101071ADDGA1061+039009079GF106991061001999999071001MA1999999100841MD1999999+0121REMSYN076AAXX  26094 61627 42960 63004 10242 20177 30084 40107 86070 333 58012 86363;
0196616270999992000042612004+15380-015120FM-12+0021GOOG V0203201N001012200019N0100001N1+03301+01761101051ADDAA199000091GA1021+039009079GF102991021001999999031001MD1999999+0021REMSYN082AAXX  26124 61627 32960 23202 10330 20176 30382 40105 82030 333 0//00 58002 82363;EQDQ01+103823APOSP Q02  00002PRCP99
0159616270999992000042615004+15380-015120FM-12+0021GOOG V0203001N001012200019N0100001N1+03981+01271100771ADDGA1031+039009079GF103991031001999999031001MA1999999100541MD1999999-0061REMSYN076AAXX  26154 61627 42960 33002 10398 20127 30054 40077 83030 333 59006 83363;
0208616270999992000042618004+15380-015120FM-12+0021GOOG V0203201N002112200019N0100001N1+03821+01231100701ADDAA199000091GA1031+039009079GF103991031001999999071001KA1120M+04061MA1999999100471MD1999999-0021REMSYN082AAXX  26184 61627 32960 33204 10382 20123 30047 40070 83070 333 10406 59002 83363;EQDQ01  00002PRCP99
0147616270999992000042621004+15380-015120FM-12+0021GOOG V0203201N002112200019N0080001N1+03251+01631100821ADDGA1001+999999999GF100991001001999999001001MA1999999100591MD1999999+0001REMSYN064AAXX  26214 61627 42958 03204 10325 20163 30059 40082 333 58000;
0183616270999992000042700004+15380-015120FM-12+0021GOOG V0203001N001012200019N0080001N1+02761+01721101011ADDAA199000091GA1001+999999999GF100991001001999999001001MA1999999100781MD1999999-0011REMSYN070AAXX  27004 61627 32958 03002 10276 20172 30078 40101 333 0//00 59001;EQDQ01  00002PRCP99
0159616270999992000042709004+15380-015120FM-12+0021GOOG V0203201N002112200019N0100001N1+02701+01791100931ADDGA1021+039009079GF102991021001999999031001MA1999999100701MD1999999-0141REMSYN076AAXX  27094 61627 42960 23204 10270 20179 30070 40093 82030 333 59014 82363;
0153616270999992000042712004+15380-015120FM-12+0021GOOG V0200401N001012200019N0100001N1+03801+01301100931ADDGA1001+999999999GF100991001001999999001001MA1999999100701MD1999999-0121REMSYN070AAXX  27124 61627 42960 00402 10380 20130 30070 40093 333 0//00 59012;
0159616270999992000042715004+15380-015120FM-12+0021GOOG V0200601N002112200019N0100001N1+04321+01061100711ADDGA1021+069009019GF102991001001999999001021MA1999999100481MD1999999-0061REMSYN076AAXX  27154 61627 42960 20604 10432 20106 30048 40071 80002 333 59006 82073;
0208616270999992000042718004+15380-015120FM-12+0021GOOG V0200401N002112200019N0100001N1+04361+00861100491ADDAA199000091GA1021+069009019GF102991001001999999001021KA1120M+04401MA1999999100261MD1999999-0211REMSYN082AAXX  27184 61627 32960 20404 10436 20086 30026 40049 80002 333 10440 59021 82073;EQDQ01  00002PRCP99
0147616270999992000042721004+15380-015120FM-12+0021GOOG V0203201N001012200019N0080001N1+03901+01161100631ADDGA1001+999999999GF100991001001999999001001MA1999999100401MD1999999-0191REMSYN064AAXX  27214 61627 42958 03202 10390 20116 30040 40063 333 59019;
0183616270999992000042800004+15380-015120FM-12+0021GOOG V0203401N001012200019N0080001N1+03371+01391100771ADDAA199000091GA1001+999999999GF100991001001999999001001MA1999999100541MD1999999-0241REMSYN070AAXX  28004 61627 32958 03402 10337 20139 30054 40077 333 0//00 59024;EQDQ01  00002PRCP99
0222616270999992000042806004+15380-015120FM-12+0021GOOG V0203201N001012200019N0080001N1+03051+01091100711ADDAA199000091GF102991021001999999031001IA2240+02209KA1120N+02991MA1999999100481MD1999999-0141REMSYN100AAXX  28064 61627 32958 23202 10305 20109 30048 40071 82030 333 02200 20299 51190 55/// 59014 82363;EQDQ01  00002PRCP99
0159616270999992000042821004+15380-015120FM-12+0021GOOG V0203601N001012200019N0080001N1+03791+01421100721ADDGA1031+069009019GF103991001001999999001021MA1999999100491MD1999999+0091REMSYN076AAXX  28214 61627 42958 33602 10379 20142 30049 40072 80002 333 58009 83073;
0147616270999992000042909004+15380-015120FM-12+0021GOOG V0203601N001012200019N0100001N1+03031+01601100941ADDGA1001+999999999GF100991001001999999001001MA1999999100711MD1999999+0061REMSYN064AAXX  29094 61627 42960 03602 10303 20160 30071 40094 333 58006;
0147616270999992000042915004+15380-015120FM-12+0021GOOG V0200401N002112200019N0100001N1+04231+01441100761ADDGA1001+999999999GF100991001001999999001001MA1999999100531MD1999999+0101REMSYN064AAXX  29154 61627 42960 00404 10423 20144 30053 40076 333 58010;
0196616270999992000042918004+15380-015120FM-12+0021GOOG V0203201N001012200019N0100001N1+04211+01341100641ADDAA199000091GA1001+999999999GF100991001001999999001001KA1120M+04331MA1999999100411MD1999999+0061REMSYN070AAXX  29184 61627 32960 03202 10421 20134 30041 40064 333 10433 58006;EQDQ01  00002PRCP99
0183616270999992000043000004+15380-015120FM-12+0021GOOG V0203201N002112200019N0080001N1+02991+02041100981ADDAA199000091GA1001+999999999GF100991001001999999001001MA1999999100751MD1999999+0141REMSYN070AAXX  30004 61627 32958 03204 10299 20204 30075 40098 333 0//00 58014;EQDQ01  00002PRCP99
0212616270999992000043006004+15380-015120FM-12+0021GOOG V0203201N002112200019N0080001N1+02351+01801100931ADDAA199000091GA1001+999999999GF100991001001999999001001IA2240+01909KA1120N+02351MA1999999100701REMSYN088AAXX  30064 61627 32958 03204 10235 20180 30070 40093 333 01900 20235 51050 55/// 58010;EQDQ01  00002PRCP99
0147616270999992000043009004+15380-015120FM-12+0021GOOG V0203201N003112200019N0100001N1+02601+01991101121ADDGA1001+999999999GF100991001001999999001001MA1999999100891MD1999999+0181REMSYN064AAXX  30094 61627 42960 03206 10260 20199 30089 40112 333 58018;
0147616270999992000043011004+15380-015120FM-12+0021GOOG V0203601N002112200019N0100001N1+03872+02101100981ADDGA1001+999999999GF100991001001999999001001MA1999999100751MD1999999+0221REMSYN064AAXX  30114 61627 42960 03604 10387 20210 30075 40098 333 58022;
0195616270999992000043012004+15380-015120FM-12+0021GOOG V0200401N002112200019N0100001N1+03351+02271101151ADDAA199000091GA1021+069009019GF102991001001999999001021MA1999999100921MD1999999+0181REMSYN082AAXX  30124 61627 32960 20404 10335 20227 30092 40115 80002 333 0//00 58018 82073;EQDQ01  00002PRCP99
0196616270999992000043018004+15380-015120FM-12+0021GOOG V0203601N002112200019N0100001N1+03851+01961100831ADDAA199000091GA1001+999999999GF100991001001999999001001KA1120M+03921MA1999999100601MD1999999+0191REMSYN070AAXX  30184 61627 32960 03604 10385 20196 30060 40083 333 10392 58019;EQDQ01  00002PRCP99
0212616270999992000050106004+15380-015120FM-12+0021GOOG V0203201N002112200019N0080001N1+02101+01911101001ADDAA199000091GA1001+999999999GF100991001001999999001001IA2240+01809KA1120N+02101MA1999999100771REMSYN088AAXX  01064 61627 32958 03204 10210 20191 30077 40100 333 01800 20210 51180 55/// 58007;EQDQ01  00002PRCP99
0147616270999992000050109004+15380-015120FM-12+0021GOOG V0203601N002112200019N0100001N1+02551+02021101151ADDGA1001+999999999GF100991001001999999001001MA1999999100921MD1999999+0031REMSYN064AAXX  01094 61627 42960 03604 10255 20202 30092 40115 333 58003;
0183616270999992000050112004+15380-015120FM-12+0021GOOG V0203601N002112200019N0100001N1+03371+02061101161ADDAA199000091GA1001+999999999GF100991001001999999001001MA1999999100931MD1999999+0011REMSYN070AAXX  01124 61627 32960 03604 10337 20206 30093 40116 333 0//00 58001;EQDQ01  00002PRCP99
0147616270999992000050115004+15380-015120FM-12+0021GOOG V0203201N002112200019N0100001N1+03781+01661100881ADDGA1001+999999999GF100991001001999999001001MA1999999100651MD1999999-0101REMSYN064AAXX  01154 61627 42960 03204 10378 20166 30065 40088 333 59010;
0196616270999992000050118004+15380-015120FM-12+0021GOOG V0203201N002112200019N0100001N1+03751+01591100801ADDAA199000091GA1001+999999999GF100991001001999999001001KA1120M+03831MA1999999100571MD1999999-0031REMSYN070AAXX  01184 61627 32960 03204 10375 20159 30057 40080 333 10383 59003;EQDQ01  00002PRCP99
0147616270999992000050121004+15380-015120FM-12+0021GOOG V0203201N002112200019N0080001N1+03321+01501100861ADDGA1001+999999999GF100991001001999999001001MA1999999100631MD1999999-0071REMSYN064AAXX  01214 61627 42958 03204 10332 20150 30063 40086 333 59007;
0183616270999992000050200004+15380-015120FM-12+0021GOOG V0203201N002112200019N0080001N1+02601+01991101031ADDAA199000091GA1001+999999999GF100991001001999999001001MA1999999100801MD1999999-0101REMSYN070AAXX  02004 61627 32958 03204 10260 20199 30080 40103 333 0//00 59010;EQDQ01  00002PRCP99
0212616270999992000050206004+15380-015120FM-12+0021GOOG V0203201N002112200019N0080001N1+01951+01791100931ADDAA199000091GA1001+999999999GF100991001001999999001001IA2240+01709KA1120N+01951MA1999999100701REMSYN088AAXX  02064 61627 32958 03204 10195 20179 30070 40093 333 01700 20195 51170 55/// 59007;EQDQ01  00002PRCP99
0147616270999992000050209004+15380-015120FM-12+0021GOOG V0203201N002112200019N0100001N1+02201+01921101031ADDGA1001+999999999GF100991001001999999001001MA1999999100801MD1999999-0121REMSYN064AAXX  02094 61627 42960 03204 10220 20192 30080 40103 333 59012;
0183616270999992000050212004+15380-015120FM-12+0021GOOG V0209999C000012200019N0100001N1+03201+01531101031ADDAA199000091GA1001+999999999GF100991001001999999001001MA1999999100801MD1999999-0131REMSYN070AAXX  02124 61627 32960 00000 10320 20153 30080 40103 333 0//00 59013;EQDQ01  00002PRCP99
0147616270999992000050215004+15380-015120FM-12+0021GOOG V0202801N001012200019N0100001N1+03701+02511999999ADDGA1001+999999999GF100991001001999999001001MA1999999100601MD1999999-0051REMSYN064AAXX  02154 61627 42960 02802 10370 20251 30060 80083 333 59005;
0208616270999992000050218004+15380-015120FM-12+0021GOOG V0203201N002112200019N0100001N1+03751+02541100731ADDAA199000091GA1021+069009019GF102991001001999999001011KA1120M+03801MA1999999100501MD1999999-0071REMSYN082AAXX  02184 61627 32960 23204 10375 20254 30050 40073 80001 333 10380 59007 82073;EQDQ01  00002PRCP99
0183616270999992000050300004+15380-015120FM-12+0021GOOG V0203201N002112200019N0080001N1+02501+02051100991ADDAA199000091GA1001+999999999GF100991001001999999001001MA1999999100761MD1999999-0041REMSYN070AAXX  03004 61627 32958 03204 10250 20205 30076 40099 333 0//00 59004;EQDQ01  00002PRCP99
0222616270999992000050306004+15380-015120FM-12+0021GOOG V0203201N002112200019N0080001N1+01981+01801101011ADDAA199000091GF102991001001999999001021IA2240+01509KA1120N+01991MA1999999100781MD1999999+0081REMSYN100AAXX  03064 61627 32958 23204 10198 20180 30078 40101 80002 333 01500 20199 51020 55/// 58008 82073;EQDQ01  00002PRCP99
0159616270999992000050309004+15380-015120FM-12+0021GOOG V0203201N002112200019N0100001N1+02171+01901101121ADDGA1041+069009019GF104991001001999999001021MA1999999100891MD1999999+0091REMSYN076AAXX  03094 61627 42960 43204 10217 20190 30089 40112 80002 333 58009 84073;
0207616270999992000050312004+15380-015120FM-12+0021GOOG V0203601N002110690019N0100001N1+02961+02301101201ADDAA199000091GA1051+069009019GF105991001001999999001021IA2240+00009MA1999999100971MD1999999+0171REMSYN082AAXX  03124 61627 32960 53604 10296 20230 30097 40120 80002 333 00000 58017 85073;EQDQ01  00002PRCP99
0208616270999992000050318004+15380-015120FM-12+0021GOOG V0203201N001010690019N0100001N1+03551+02551100831ADDAA199000091GA1051+069009019GF105991001001999999001021KA1120M+03601MA1999999100601MD1999999+0101REMSYN082AAXX  03184 61627 32960 53202 10355 20255 30060 40083 80002 333 10360 58010 85073;EQDQ01  00002PRCP99
0222616270999992000050406004+15380-015120FM-12+0021GOOG V0203201N002112200019N0080001N1+02321+01831101121ADDAA199000091GF104991041001999999081001IA2240+01509KA1120N+02321MA1999999100891MD1999999+0111REMSYN100AAXX  04064 61627 32958 43204 10232 20183 30089 40112 84080 333 01500 20232 50770 55/// 58011 84363;EQDQ01  00002PRCP99
0187616270999992000050409004+15380-015120FM-12+0021GOOG V0203201N002110390019N0100001N1+02401+01781101231ADDAY161031AY211031GA1071+039009079GF107991071001999999071999MA1999999101001MD1999999+0111MW1031REMSYN082AAXX  04094 61627 41960 73204 10240 20178 30100 40123 70361 8707/ 333 58011 87363;
0216616270999992000050412004+15380-015120FM-12+0021GOOG V0200601N002110390019N0100001N1+02851+02021101341ADDAA106000791AC12I9AY161061AY211061GA1061+039009079GF106991061001999999081001MA1999999101111MD1999999+0141MW1021REMSYN094AAXX  04124 61627 11960 60604 10285 20202 30111 40134 69901 70261 86080 333 0//16 58014 86363;
0165616270999992000050415004+15380-015120FM-12+0021GOOG V0203201N002112200019N0100001N1+03481+02361101101ADDGA1011+039009039GF103991011001999999031021MA1999999100871MD1999999+0121REMSYN082AAXX  04154 61627 42960 33204 10348 20236 30087 40110 81032 333 58012 81363 83073;
0208616270999992000050418004+15380-015120FM-12+0021GOOG V0203201N002112200019N0100001N1+03571+02341100881ADDAA199000091GA1021+069009019GF102991001001999999001021KA1120M+03621MA1999999100651MD1999999+0031REMSYN082AAXX  04184 61627 32960 23204 10357 20234 30065 40088 80002 333 10362 58003 82073;EQDQ01  00002PRCP99
0183616270999992000050500004+15380-015120FM-12+0021GOOG V0209999C000012200019N0080001N1+02881+02091101091ADDAA199000091GA1001+999999999GF100991001001999999001001MA1999999100861MD1999999-0141REMSYN070AAXX  05004 61627 32958 00000 10288 20209 30086 40109 333 0//00 59014;EQDQ01  00002PRCP99
0209616270999992000050506004+15380-015120FM-12+0021GOOG V0203201N001012200019N0080001N1+02461+01991100951ADDAA124000791GF103991031001999999081001IA2240+01409KA1120N+02461MA1999999100721MD1999999-0171REMSYN106AAXX  05064 61627 12958 33202 10246 20199 30072 40095 69904 83080 333 01419 20246 50810 55/// 59017 83363;
0159616270999992000050509004+15380-015120FM-12+0021GOOG V0203201N002112200019N0100001N1+02701+02181101061ADDGA1041+039009079GF104991041001999999081001MA1999999100831MD1999999-0171REMSYN076AAXX  05094 61627 42960 43204 10270 20218 30083 40106 84080 333 59017 84363;
0195616270999992000050512004+15380-015120FM-12+0021GOOG V0203601N002112200019N0120001N1+03581+02331101031ADDAA199000091GA1011+039009079GF101991011001999999031001MA1999999100801MD1999999-0311REMSYN082AAXX  05124 61627 32962 13604 10358 20233 30080 40103 81030 333 0//00 59031 81363;EQDQ01  00002PRCP99
0147616270999992000050515004+15380-015120FM-12+0021GOOG V0203201N002112200019N0120001N1+04011+02041100831ADDGA1001+999999999GF100991001001999999001001MA1999999100601MD1999999-0271REMSYN064AAXX  05154 61627 42962 03204 10401 20204 30060 40083 333 59027;
0196616270999992000050518004+15380-015120FM-12+0021GOOG V0203601N002112200019N0100001N1+04001+02611100631ADDAA199000091GA1001+999999999GF100991001001999999001001KA1120M+04101MA1999999100401MD1999999-0351REMSYN070AAXX  05184 61627 32960 03604 10400 20261 30040 40063 333 10410 59035;EQDQ01  00002PRCP99
0166616270999992000050521004+15380-015120FM-12+0021GOOG V0203201N003112200019N0080001N1+03441+01372100731ADDGA1001+999999999GF100991001001999999001001MA1999999100501MD1999999-0211REMSYN064AAXX  05214 61627 42958 03206 10344 20137 30050 40073 333 59021;EQDQ01+001373ATOD  
0212616270999992000050606004+15380-015120FM-12+0021GOOG V0209999C000012200019N0080001N1+02451+01911100821ADDAA199000091GA1001+999999999GF100991001001999999001001IA2240+01909KA1120N+02451MA1999999100591REMSYN088AAXX  06064 61627 32958 00000 10245 20191 30059 40082 333 01900 20245 51390 55/// 59013;EQDQ01  00002PRCP99
0159616270999992000050609004+15380-015120FM-12+0021GOOG V0203201N002112200019N0100001N1+02751+01991100951ADDGA1021+069009019GF102991001001999999001021MA1999999100731MD1999999-0101REMSYN076AAXX  06094 61627 42960 23204 10275 20199 30073 40095 80002 333 59010 82073;
0195616270999992000050612004+15380-015120FM-12+0021GOOG V0203601N001010690019N0100001N1+03551+01941100951ADDAA199000091GA1051+069009019GF105991001001999999001021MA1999999100721MD1999999-0081REMSYN082AAXX  06124 61627 32960 53602 10355 20194 30072 40095 80002 333 0//00 59008 85073;EQDQ01  00002PRCP99
0159616270999992000050615004+15380-015120FM-12+0021GOOG V0200401N002110690019N0100001N1+04011+02201100731ADDGA1061+069009019GF106991001001999999001021MA1999999100501MD1999999-0101REMSYN076AAXX  06154 61627 42960 60404 10401 20220 30050 40073 80002 333 59010 86073;
0208616270999992000050618004+15380-015120FM-12+0021GOOG V0203601N003110690019N0100001N1+03931+02151100551ADDAA199000091GA1061+069009019GF106991001001999999001021KA1120M+04061MA1999999100321MD1999999-0081REMSYN082AAXX  06184 61627 32960 63606 10393 20215 30032 40055 80002 333 10406 59008 86073;EQDQ01  00002PRCP99
0183616270999992000050700004+15380-015120FM-12+0021GOOG V0203201N002112200019N0080001N1+02951+01751100761ADDAA199000091GA1001+999999999GF100991001001999999001001MA1999999100531MD1999999-0121REMSYN070AAXX  07004 61627 32958 03204 10295 20175 30053 40076 333 0//00 59012;EQDQ01  00002PRCP99
0147616270999992000050703004+15380-015120FM-12+0021GOOG V0203201N002112200019N0080001N1+02581+01591100711ADDGA1001+999999999GF100991001001999999001001MA1999999100481MD1999999-0121REMSYN064AAXX  07034 61627 42958 03204 10258 20159 30048 40071 333 59012;
0159616270999992000050709004+15380-015120FM-12+0021GOOG V0203001N002112200019N0100001N1+02681+01641100881ADDGA1021+039009079GF102991021001999999031001MA1999999100651MD1999999-0081REMSYN076AAXX  07094 61627 42960 23004 10268 20164 30065 40088 82030 333 59008 82363;
0159616270999992000050715004+15380-015120FM-12+0021GOOG V0203601N002112200019N0100001N1+04201+01531100671ADDGA1031+069009019GF103991001001999999001021MA1999999100441MD1999999-0061REMSYN076AAXX  07154 61627 42960 33604 10420 20153 30044 40067 80002 333 59006 83073;
0196616270999992000050718004+15380-015120FM-12+0021GOOG V0203201N002112200019N0100001N1+04131+01461100551ADDAA199000091GA1001+999999999GF100991001001999999001001KA1120M+04251MA1999999100321MD1999999+0001REMSYN070AAXX  07184 61627 32960 03204 10413 20146 30032 40055 333 10425 58000;EQDQ01  00002PRCP99
0147616270999992000050721004+15380-015120FM-12+0021GOOG V0203201N001012200019N0080001N1+03681+01621100641ADDGA1001+999999999GF100991001001999999001001MA1999999100411MD1999999+0001REMSYN064AAXX  07214 61627 42958 03202 10368 20162 30041 40064 333 58000;
0183616270999992000050800004+15380-015120FM-12+0021GOOG V0203201N002112200019N0080001N1+02911+01741100791ADDAA199000091GA1001+999999999GF100991001001999999001001MA1999999100561MD1999999+0031REMSYN070AAXX  08004 61627 32958 03204 10291 20174 30056 40079 333 0//00 58003;EQDQ01  00002PRCP99
0147616270999992000050809004+15380-015120FM-12+0021GOOG V0203201N002112200019N0100001N1+02601+01691101121ADDGA1001+999999999GF100991001001999999001001MA1999999100891MD1999999+0241REMSYN064AAXX  08094 61627 42960 03204 10260 20169 30089 40112 333 58024;
0183616270999992000050812004+15380-015120FM-12+0021GOOG V0203201N001012200019N0100001N1+03481+01701101091ADDAA199000091GA1001+999999999GF100991001001999999001001MA1999999100861MD1999999+0181REMSYN070AAXX  08124 61627 32960 03202 10348 20170 30086 40109 333 0//00 58018;EQDQ01  00002PRCP99
0147616270999992000050815004+15380-015120FM-12+0021GOOG V0203201N001012200019N0100001N1+03991+01741100881ADDGA1001+999999999GF100991001001999999001001MA1999999100651MD1999999+0211REMSYN064AAXX  08154 61627 42960 03202 10399 20174 30065 40088 333 58021;
0183616270999992000050900004+15380-015120FM-12+0021GOOG V0203201N002112200019N0080001N1+02701+01761101061ADDAA199000091GA1001+999999999GF100991001001999999001001MA1999999100831MD1999999+0271REMSYN070AAXX  09004 61627 32958 03204 10270 20176 30083 40106 333 0//00 58027;EQDQ01  00002PRCP99
0212616270999992000050906004+15380-015120FM-12+0021GOOG V0203201N002112200019N0080001N1+02251+01591100931ADDAA199000091GA1001+999999999GF100991001001999999001001IA2240+01809KA1120N+02251MA1999999100701REMSYN088AAXX  09064 61627 32958 03204 10225 20159 30070 40093 333 01800 20225 50880 55/// 58002;EQDQ01  00002PRCP99
0147616270999992000050909004+15380-015120FM-12+0021GOOG V0203001N002112200019N0100001N1+02431+01771101071ADDGA1001+999999999GF100991001001999999001001MA1999999100841MD1999999-0031REMSYN064AAXX  09094 61627 42960 03004 10243 20177 30084 40107 333 59003;
0147616270999992000050915004+15380-015120FM-12+0021GOOG V0203601N002112200019N0100001N1+04081+01831100781ADDGA1001+999999999GF100991001001999999001001MA1999999100551MD1999999-0101REMSYN064AAXX  09154 61627 42960 03604 10408 20183 30055 40078 333 59010;
0212616270999992000051006004+15380-015120FM-12+0021GOOG V0203201N001012200019N0080001N1+03381+01541100821ADDAA199000091GA1001+999999999GF100991001001999999001001IA2240+01709KA1120N+02381MA1999999100591REMSYN088AAXX  10064 61627 32958 03202 10338 20154 30059 40082 333 01700 20238 51400 55/// 59011;EQDQ01  00002PRCP99
0147616270999992000051009004+15380-015120FM-12+0021GOOG V0203201N002112200019N0100001N1+02621+01681100921ADDGA1001+999999999GF100991001001999999001001MA1999999100691MD1999999-0151REMSYN064AAXX  10094 61627 42960 03204 10262 20168 30069 40092 333 59015;
0183616270999992000051012004+15380-015120FM-12+0021GOOG V0203201N002112200019N0100001N1+03601+01791100911ADDAA199000091GA1001+999999999GF100991001001999999001001MA1999999100681MD1999999-0141REMSYN070AAXX  10124 61627 32960 03204 10360 20179 30068 40091 333 0//00 59014;EQDQ01  00002PRCP99
0147616270999992000051015004+15380-015120FM-12+0021GOOG V0203601N001012200019N0100001N1+04201+01431100711ADDGA1001+999999999GF100991001001999999001001MA1999999100481MD1999999-0071REMSYN064AAXX  10154 61627 42960 03602 10420 20143 30048 40071 333 59007;
0147616270999992000051021004+15380-015120FM-12+0021GOOG V0203001N003112200019N0080001N1+03401+01821100791ADDGA1001+999999999GF100991001001999999001001MA1999999100561MD1999999+0061REMSYN064AAXX  10214 61627 42958 03006 10340 20182 30056 40079 333 58006;
0195616270999992000051100004+15380-015120FM-12+0021GOOG V0203201N002112200019N0080001N1+02801+01911100941ADDAA199000091GA1021+039009079GF102991021001999999031001MA1999999100711MD1999999+0041REMSYN082AAXX  11004 61627 32958 23204 10280 20191 30071 40094 82030 333 0//00 58004 82363;EQDQ01  00002PRCP99
0212616270999992000051106004+15380-015120FM-12+0021GOOG V0203001N001012200019N0080001N1+02351+01821100951ADDAA199000091GA1001+999999999GF100991001001999999001001IA2240+01709KA1120N+02351MA1999999100721REMSYN088AAXX  11064 61627 32958 03002 10235 20182 30072 40095 333 01700 20235 51050 55/// 58013;EQDQ01  00002PRCP99
0159616270999992000051109004+15380-015120FM-12+0021GOOG V0203001N001010390019N0100001N1+02581+01881101081ADDGA1051+039009079GF105991051001999999081001MA1999999100851MD1999999+0161REMSYN076AAXX  11094 61627 42960 53002 10258 20188 30085 40108 85080 333 58016 85363;
0195616270999992000051112004+15380-015120FM-12+0021GOOG V0203201N001010420019N0100001N1+03351+01831101091ADDAA199000091GA1051+042009079GF105991051001999999071001MA1999999100861MD1999999+0181REMSYN082AAXX  11124 61627 32960 53202 10335 20183 30086 40109 85070 333 0//00 58018 85364;EQDQ01  00002PRCP99
0165616270999992000051115004+15380-015120FM-12+0021GOOG V0203201N001012200019N0100001N1+03851+02021100881ADDGA1021+039009039GF104991021001999999031021MA1999999100651MD1999999+0171REMSYN082AAXX  11154 61627 42960 43202 10385 20202 30065 40088 82032 333 58017 82363 83073;
0208616270999992000051118004+15380-015120FM-12+0021GOOG V0203201N003110690019N0100001N1+03901+01991100711ADDAA199000091GA1051+069009019GF105991001001999999001021KA1120M+04001MA1999999100481MD1999999+0111REMSYN082AAXX  11184 61627 32960 53206 10390 20199 30048 40071 80002 333 10400 58011 85073;EQDQ01  00002PRCP99
0212616270999992000051206004+15380-015120FM-12+0021GOOG V0203201N001012200019N0080001N1+02121+01771100981ADDAA199000091GA1001+999999999GF100991001001999999001001IA2240+01609KA1120N+02121MA1999999100751REMSYN088AAXX  12064 61627 32958 03202 10212 20177 30075 40098 333 01600 20212 51030 55/// 58003;EQDQ01  00002PRCP99
0195616270999992000051212004+15380-015120FM-12+0021GOOG V0209999C000012200019N0100001N1+03101+01881101131ADDAA199000091GA1041+069009019GF104991001001999999001021MA1999999100901MD1999999+0041REMSYN082AAXX  12124 61627 32960 40000 10310 20188 30090 40113 80002 333 0//00 58004 84073;EQDQ01  00002PRCP99
0208616270999992000051218004+15380-015120FM-12+0021GOOG V0203201N002112200019N0100001N1+03981+01851100681ADDAA199000091GA1021+069009019GF102991001001999999001021KA1120M+04061MA1999999100451MD1999999-0031REMSYN082AAXX  12184 61627 32960 23204 10398 20185 30045 40068 80002 333 10406 59003 82073;EQDQ01  00002PRCP99
0195616270999992000051300004+15380-015120FM-12+0021GOOG V0202801N002112200019N0080001N1+02481+01891101031ADDAA199000091GA1011+039009079GF101991011001999999031001MA1999999100801MD1999999+0031REMSYN082AAXX  13004 61627 32958 12804 10248 20189 30080 40103 81030 333 0//00 58003 81363;EQDQ01  00002PRCP99
0222616270999992000051306004+15380-015120FM-12+0021GOOG V0203001N001012200019N0080001N1+02101+01781100941ADDAA199000091GF102991021051999999001001IA2240+01409KA1120N+02101MA1999999100711MD1999999-0041REMSYN100AAXX  13064 61627 32958 23002 10210 20178 30071 40094 82500 333 01400 20210 50700 55/// 59004 82615;EQDQ01  00002PRCP99
0196616270999992000051418004+15380-015120FM-12+0021GOOG V0203201N003112200019N0100001N1+04181+01931100531ADDAA199000091GA1001+999999999GF100991001001999999001001KA1120M+04221MA1999999100301MD1999999-0111REMSYN070AAXX  14184 61627 32960 03206 10418 20193 30030 40053 333 10422 59011;EQDQ01  00002PRCP99
0196616270999992000051518004+15380-015120FM-12+0021GOOG V0203601N002612200019N0120001N1+04161+01931100631ADDAA199000091GA1001+999999999GF100991001001999999001001KA1120M+04281MA1999999100401MD1999999+0101REMSYN070AAXX  15184 61627 32962 03605 10416 20193 30040 40063 333 10428 58010;EQDQ01  00002PRCP99
0159616270999992000051603004+15380-015120FM-12+0021GOOG V0202801N001012200019N0080001N1+02351+01841100921ADDGA1031+039009079GF103991031001999999081001MA1999999100691MD1999999+0181REMSYN076AAXX  16034 61627 42958 32802 10235 20184 30069 40092 83080 333 58018 83363;
0222616270999992000051606004+15380-015120FM-12+0021GOOG V0202401N002112200019N0080001N1+02201+01851101031ADDAA199000091GF102991021001999999081001IA2240+01409KA1120N+02201MA1999999100801MD1999999+0211REMSYN100AAXX  16064 61627 32958 22404 10220 20185 30080 40103 82080 333 01400 20220 51450 55/// 58021 82363;EQDQ01  00002PRCP99
0147616270999992000051609004+15380-015120FM-12+0021GOOG V0202401N002112200019N0100001N1+02431+02051101251ADDGA1001+999999999GF100991001001999999001001MA1999999101021MD1999999+0241REMSYN064AAXX  16094 61627 42960 02404 10243 20205 30102 40125 333 58024;
0147616270999992000051615004+15380-015120FM-12+0021GOOG V0203201N001012200019N0120001N1+03781+01431101061ADDGA1001+999999999GF100991001001999999001001MA1999999100831MD1999999-0251REMSYN064AAXX  16154 61627 42962 03202 10378 20143 30083 40106 333 59025;
0147616270999992000051621004+15380-015120FM-12+0021GOOG V0203201N003112200019N0080001N1+03161+01861101001ADDGA1001+999999999GF100991001001999999001001MA1999999100771MD1999999+0221REMSYN064AAXX  16214 61627 42958 03206 10316 20186 30077 40100 333 58022;
0183616270999992000051712004+15380-015120FM-12+0021GOOG V0203201N003112200019N0120001N1+03401+01371101221ADDAA199000091GA1001+999999999GF100991001001999999001001MA1999999100991MD1999999-0071REMSYN070AAXX  17124 61627 32962 03206 10340 20137 30099 40122 333 0//00 59007;EQDQ01  00002PRCP99
0147616270999992000051715004+15380-015120FM-12+0021GOOG V0203601N001012200019N0120001N1+03931+01311100931ADDGA1001+999999999GF100991001001999999001001MA1999999100701MD1999999-0131REMSYN064AAXX  17154 61627 42962 03602 10393 20131 30070 40093 333 59013;
0183616270999992000051800004+15380-015120FM-12+0021GOOG V0203201N002112200019N0080001N1+02751+01731101021ADDAA199000091GA1001+999999999GF100991001001999999001001MA1999999100791MD1999999-0171REMSYN070AAXX  18004 61627 32958 03204 10275 20173 30079 40102 333 0//00 59017;EQDQ01  00002PRCP99
0212616270999992000051806004+15380-015120FM-12+0021GOOG V0203201N003112200019N0080001N1+02191+01631100931ADDAA199000091GA1001+999999999GF100991001001999999001001IA2240+01209KA1120N+02191MA1999999100711REMSYN088AAXX  18064 61627 32958 03206 10219 20163 30071 40093 333 01200 20219 50920 55/// 59016;EQDQ01  00002PRCP99
0147616270999992000051809004+15380-015120FM-12+0021GOOG V0203201N003112200019N0100001N1+02621+01491101031ADDGA1001+999999999GF100991001001999999001001MA1999999100801MD1999999-0191REMSYN064AAXX  18094 61627 42960 03206 10262 20149 30080 40103 333 59019;
0183616270999992000051812004+15380-015120FM-12+0021GOOG V0203201N003112200019N0100001N1+03701+01011101031ADDAA199000091GA1001+999999999GF100991001001999999001001MA1999999100801MD1999999-0191REMSYN070AAXX  18124 61627 32960 03206 10370 20101 30080 40103 333 0//00 59019;EQDQ01  00002PRCP99
0147616270999992000051815004+15380-015120FM-12+0021GOOG V0203201N003112200019N0100001N1+04181+01211100771ADDGA1001+999999999GF100991001001999999001001MA1999999100541MD1999999-0161REMSYN064AAXX  18154 61627 42960 03206 10418 20121 30054 40077 333 59016;
0196616270999992000051818004+15380-015120FM-12+0021GOOG V0203201N003112200019N0100001N1+04201+00841100561ADDAA199000091GA1001+999999999GF100991001001999999001001KA1120M+04291MA1999999100331MD1999999-0191REMSYN070AAXX  18184 61627 32960 03206 10420 20084 30033 40056 333 10429 59019;EQDQ01  00002PRCP99
0147616270999992000051821004+15380-015120FM-12+0021GOOG V0203201N004112200019N0080001N1+03441+01271100641ADDGA1001+999999999GF100991001001999999001001MA1999999100411MD1999999-0211REMSYN064AAXX  18214 61627 42958 03208 10344 20127 30041 40064 333 59021;
0183616270999992000051900004+15380-015120FM-12+0021GOOG V0203201N003112200019N0080001N1+02851+01611100781ADDAA199000091GA1001+999999999GF100991001001999999001001MA1999999100551MD1999999-0241REMSYN070AAXX  19004 61627 32958 03206 10285 20161 30055 40078 333 0//00 59024;EQDQ01  00002PRCP99
0147616270999992000051903004+15380-015120FM-12+0021GOOG V0203201N002112200019N0080001N1+02601+01561100721ADDGA1001+999999999GF100991001001999999001001MA1999999100491MD1999999-0291REMSYN064AAXX  19034 61627 42958 03204 10260 20156 30049 40072 333 59029;
0222616270999992000051906004+15380-015120FM-12+0021GOOG V0203201N002112200019N0080001N1+02451+01621100731ADDAA199000091GF103991031001999999031001IA2240+01309KA1120N+02451MA1999999100501MD1999999-0211REMSYN100AAXX  19064 61627 32958 33204 10245 20162 30050 40073 83030 333 01300 20245 51360 55/// 59021 83363;EQDQ01  00002PRCP99
0147616270999992000051909004+15380-015120FM-12+0021GOOG V0203201N003112200019N0100001N1+02331+01641100781ADDGA1001+999999999GF100991001001999999001001MA1999999100551MD1999999-0251REMSYN064AAXX  19094 61627 42960 03206 10233 20164 30055 40078 333 59025;
0195616270999992000051912004+15380-015120FM-12+0021GOOG V0203201N003112200019N0100001N1+03881+01181100751ADDAA199000091GA1011+039009079GF101991011001999999031001MA1999999100521MD1999999-0281REMSYN082AAXX  19124 61627 32960 13206 10388 20118 30052 40075 81030 333 0//00 59028 81363;EQDQ01  00002PRCP99
0196616270999992000051918004+15380-015120FM-12+0021GOOG V0203201N002112200019N0070001N1+04321+00631100321ADDAA199000091GA1001+999999999GF100991001001999999001001KA1120M+04501MA1999999100091MD1999999-0241REMSYN070AAXX  19184 61627 32957 03204 10432 20063 30009 40032 333 10450 59024;EQDQ01  00002PRCP99
0183616270999992000052000004+15380-015120FM-12+0021GOOG V0203201N001012200019N0080001N1+03001+01811100731ADDAA199000091GA1001+999999999GF100991001001999999001001MA1999999100501MD1999999-0051REMSYN070AAXX  20004 61627 32958 03202 10300 20181 30050 40073 333 0//00 59005;EQDQ01  00002PRCP99
0147616270999992000052003004+15380-015120FM-12+0021GOOG V0202801N002112200019N0080001N1+02651+01931100751ADDGA1001+999999999GF100991001001999999001001MA1999999100521MD1999999+0031REMSYN064AAXX  20034 61627 42958 02804 10265 20193 30052 40075 333 58003;
0159616270999992000052009004+15380-015120FM-12+0021GOOG V0202601N002112200019N0100001N1+02601+02081100931ADDGA1021+069009019GF102991001001999999001021MA1999999100701MD1999999+0151REMSYN076AAXX  20094 61627 42960 22604 10260 20208 30070 40093 80002 333 58015 82073;
0195616270999992000052012004+15380-015120FM-12+0021GOOG V0203201N002112200019N0100001N1+03351+01961100981ADDAA199000091GA1031+069009019GF103991001001999999001021MA1999999100751MD1999999+0231REMSYN082AAXX  20124 61627 32960 33204 10335 20196 30075 40098 80002 333 0//00 58023 83073;EQDQ01  00002PRCP99
0159616270999992000052015004+15380-015120FM-12+0021GOOG V0203201N003112200019N0100001N1+03991+01421100821ADDGA1041+069009019GF104991001001999999001021MA1999999100591MD1999999+0371REMSYN076AAXX  20154 61627 42960 43206 10399 20142 30059 40082 80002 333 58037 84073;
0208616270999992000052018004+15380-015120FM-12+0021GOOG V0202801N002112200019N0100001N1+04001+01381100631ADDAA199000091GA1031+069009019GF103991001001999999001021KA1120M+04091MA1999999100401MD1999999+0311REMSYN082AAXX  20184 61627 32960 32804 10400 20138 30040 40063 80002 333 10409 58031 83073;EQDQ01  00002PRCP99
0195616270999992000052100004+15380-015120FM-12+0021GOOG V0202801N003110390019N0080001N1+02601+01731101031ADDAA199000091GA1061+039009079GF106991061001999999071999MA1999999100801MD1999999+0301REMSYN082AAXX  21004 61627 32958 62806 10260 20173 30080 40103 8607/ 333 0//00 58030 86363;EQDQ01  00002PRCP99
0159616270999992000052109004+15380-015120FM-12+0021GOOG V0202601N003112200019N0100001N1+02351+01771101161ADDGA1031+039009079GF103991031001999999031001MA1999999100931MD1999999+0231REMSYN076AAXX  21094 61627 42960 32606 10235 20177 30093 40116 83030 333 58023 83363;
0249616270999992000052112004+15380-015120FM-12+0021GOOG V0202801N002112200019N0100001N1+03011+01751101231ADDAA199000091GA1021+039009039GF199999999001999999999001MA1999999101001MD1999999+0251REMSYN088AAXX  21124 61627 32960 02804 10301 20175 30100 40123 82032 333 0//00 58025 82363 83073;EQDQ01+000002SCOTCVQ02+000002SCOTLCQ03+000002SCOMCGQ04  00002PRCP99
0165616270999992000052115004+15380-015120FM-12+0021GOOG V0203001N002112200019N0120001N1+03571+02471101071ADDGA1011+039009039GF104991011001999999031021MA1999999100841MD1999999+0251REMSYN082AAXX  21154 61627 42962 43004 10357 20247 30084 40107 81032 333 58025 81363 84073;
0208616270999992000052118004+15380-015120FM-12+0021GOOG V0203001N002110390019N0120001N1+03471+01481100961ADDAA199000091GA1051+039009079GF106991051001999999031021KA1120M+03621MA1999999100731MD1999999+0331REMSYN082AAXX  21184 61627 32962 63004 10347 20148 30073 40096 85032 333 10362 58033 85363;EQDQ01  00002PRCP99
0238616270999992000052206004+15380-015120FM-12+0021GOOG V0203201N001012200019N0080001N1+02111+01701101241ADDAA199000091GF101991999001999999031001IA2240+01309KA1120N+02111MA1999999101011MD1999999+0191REMSYN100AAXX  22064 61627 32958 13202 10211 20170 30101 40124 87030 333 01300 20211 50640 55/// 58019 81363;EQDQ01+000072SCOTLCQ02  00002PRCP99
0159616270999992000052209004+15380-015120FM-12+0021GOOG V0203201N002112200019N0100001N1+02231+01621101381ADDGA1041+069009019GF104991001001999999001021MA1999999101141MD1999999+0211REMSYN076AAXX  22094 61627 42960 43204 10223 20162 30114 40138 80002 333 58021 84073;
0195616270999992000052212004+15380-015120FM-12+0021GOOG V0203201N002110690019N0120001N1+02981+01611101421ADDAA199000091GA1061+069009019GF106991001001999999001021MA1999999101191MD1999999+0191REMSYN082AAXX  22124 61627 32962 63204 10298 20161 30119 40142 80002 333 0//00 58019 86073;EQDQ01  00002PRCP99
0159616270999992000052215004+15380-015120FM-12+0021GOOG V0202801N001010690019N0120001N1+03511+01241101261ADDGA1051+069009019GF105991001001999999001021MA1999999101031MD1999999+0191REMSYN076AAXX  22154 61627 42962 52802 10351 20124 30103 40126 80002 333 58019 85073;
0208616270999992000052218004+15380-015120FM-12+0021GOOG V0203201N002110690019N0120001N1+03481+01331101151ADDAA199000091GA1061+069009019GF106991001001999999001021KA1120M+03631MA1999999100921MD1999999+0191REMSYN082AAXX  22184 61627 32962 63204 10348 20133 30092 40115 80002 333 10363 58019 86073;EQDQ01  00002PRCP99
0159616270999992000052221004+15380-015120FM-12+0021GOOG V0202601N002110690019N0080001N1+02981+01671101381ADDGA1051+069009019GF105991001001999999001021MA1999999101141MD1999999+0241REMSYN076AAXX  22214 61627 42958 52604 10298 20167 30114 40138 80002 333 58024 85073;
0195616270999992000052300004+15380-015120FM-12+0021GOOG V0202601N002110390019N0080001N1+02501+02051101541ADDAA199000091GA1081+039009079GF108991081001999999081999MA1999999101301MD1999999+0201REMSYN082AAXX  23004 61627 32958 82604 10250 20205 30130 40154 8808/ 333 0//00 58020 88363;EQDQ01  00002PRCP99
0159616270999992000052303004+15380-015120FM-12+0021GOOG V0203201N002110390019N0080001N1+02221+02011101451ADDGA1051+039009079GF105991051001999999071001MA1999999101221MD1999999+0211REMSYN076AAXX  23034 61627 42958 53204 10222 20201 30122 40145 85070 333 58021 85363;
0222616270999992000052306004+15380-015120FM-12+0021GOOG V0203201N001019999999N0080001N1+02101+01951101411ADDAA199000091GF106991051001999999071021IA2240+01109KA1120N+02101MA1999999101181MD1999999+0181REMSYN100AAXX  23064 61627 32958 63202 10210 20195 30118 40141 85072 333 01100 20210 50770 55/// 58018 85363;EQDQ01  00002PRCP99
0159616270999992000052309004+15380-015120FM-12+0021GOOG V0203201N001010390019N0100001N1+02381+01851101521ADDGA1061+039009079GF106991061001999999071001MA1999999101291MD1999999+0151REMSYN076AAXX  23094 61627 42960 63202 10238 20185 30129 40152 86070 333 58015 86363;
0195616270999992000052312004+15380-015120FM-12+0021GOOG V0203201N002110390019N0100001N1+03101+01731101571ADDAA199000091GA1061+039009079GF106991061001999999071001MA1999999101341MD1999999+0151REMSYN082AAXX  23124 61627 32960 63204 10310 20173 30134 40157 86070 333 0//00 58015 86363;EQDQ01  00002PRCP99
0208616270999992000052318004+15380-015120FM-12+0021GOOG V0203201N001010390019N0100001N1+03721+01481101201ADDAA199000091GA1061+039009079GF106991061001999999081001KA1120M+03791MA1999999100971MD1999999+0051REMSYN082AAXX  23184 61627 32960 63202 10372 20148 30097 40120 86080 333 10379 58005 86363;EQDQ01  00002PRCP99
0159616270999992000052321004+15380-015120FM-12+0021GOOG V0209999C000012200019N0080001N1+03501+01411101301ADDGA1041+039009079GF104991041001999999081001MA1999999101071MD1999999-0071REMSYN076AAXX  23214 61627 42958 40000 10350 20141 30107 40130 84080 333 59007 84363;
0222616270999992000052406004+15380-015120FM-12+0021GOOG V0209999C000019999999N0080001N1+02551+01671101231ADDAA199000091GF106991061001999999081001IA2240+01309KA1120N+02551MA1999999101001MD1999999-0181REMSYN100AAXX  24064 61627 32958 60000 10255 20167 30100 40123 86080 333 01300 20255 50990 55/// 59018 86363;EQDQ01  00002PRCP99
0159616270999992000052409004+15380-015120FM-12+0021GOOG V0202801N002112200019N0100001N1+02801+01731101321ADDGA1041+039009079GF104991041001999999081001MA1999999101091MD1999999-0201REMSYN076AAXX  24094 61627 42960 42804 10280 20173 30109 40132 84080 333 59020 84363;
0195616270999992000052412004+15380-015120FM-12+0021GOOG V0209999C000012200019N0100001N1+03551+01801101331ADDAA199000091GA1041+069009019GF104991001001999999001021MA1999999101101MD1999999-0241REMSYN082AAXX  24124 61627 32960 40000 10355 20180 30110 40133 80002 333 0//00 59024 84073;EQDQ01  00002PRCP99
0137616270999992000052415004+15380-015120FM-12+0021GOOG V0209999C000019999999N0100001N1+04251+01831101081ADDGF105991041001999999031021MA1999999100851MD1999999-0301REMSYN070AAXX  24154 61627 24960 50000 10425 20183 30085 40108 84032 333 59030;
0214616270999992000052418004+15380-015120FM-12+0021GOOG V0203601N001019999999N0100001N1+04141+01711100861ADDAA199000091GA1021+039009039GF106991021001999999031021KA1120M+04251MA1999999100631MD1999999-0341REMSYN088AAXX  24184 61627 32960 63602 10414 20171 30063 40086 82032 333 10425 59034 82363 85073;EQDQ01  00002PRCP99
0159616270999992000052421004+15380-015120FM-12+0021GOOG V0203001N003112200019N0080001N1+03451+01961100981ADDGA1021+069009019GF102991001001999999001021MA1999999100701MD1999999-0371REMSYN076AAXX  24214 61627 42958 23006 10345 20196 30070 40098 80002 333 59037 82073;
0183616270999992000052500004+15380-015120FM-12+0021GOOG V0203201N003112200019N0080001N1+03131+01611101041ADDAA199000091GA1001+999999999GF100991001001999999001001MA1999999100811MD1999999-0341REMSYN070AAXX  25004 61627 32958 03206 10313 20161 30081 40104 333 0//00 59034;EQDQ01  00002PRCP99
0159616270999992000052503004+15380-015120FM-12+0021GOOG V0203201N002110390019N0080001N1+03041+01691100981ADDGA1051+039009079GF105991051001999999071001MA1999999100751MD1999999-0301REMSYN076AAXX  25034 61627 42958 53204 10304 20169 30075 40098 85070 333 59030 85363;
0183616270999992000052512004+15380-015120FM-12+0021GOOG V0200401N003112200019N0070001N1+04071+01601101021ADDAA199000091GA1001+999999999GF100991001001999999001001MA1999999100791MD1999999-0311REMSYN070AAXX  25124 61627 32957 00406 10407 20160 30079 40102 333 0//00 59031;EQDQ01  00002PRCP99
0159616270999992000052515004+15380-015120FM-12+0021GOOG V0200801N002110390019N0070001N1+04361+01411100821ADDGA1081+039009019GF108991081001999999021999MA1999999100591MD1999999-0261REMSYN076AAXX  25154 61627 42957 80804 10436 20141 30059 40082 8802/ 333 59026 88463;
0224616270999992000052518004+15380-015120FM-12+0021GOOG V0200401N002110390019N0070001N1+04311+01321100701ADDAA199000091GA1051+039009019GF105991051001999999011999KA1120M+04381MA1999999100471MD1999999-0161REMSYN082AAXX  25184 61627 32957 50404 10431 20132 30047 40070 85010 333 10438 59016 85463;EQDQ01+000002SCOHCGQ02  00002PRCP99
0159616270999992000052521004+15380-015120FM-12+0021GOOG V0201201N001019999999N0070001N1+03921+01671100871ADDGA1041+069009019GF106991031001999999071021MA1999999100641MD1999999-0311REMSYN076AAXX  25214 61627 42957 61202 10392 20167 30064 40087 83072 333 59031 84073;
0183616270999992000052600004+15380-015120FM-12+0021GOOG V0209999C000012200019N0070001N1+03501+01971100991ADDAA199000091GA1001+999999999GF100991001001999999001001MA1999999100771MD1999999-0041REMSYN070AAXX  26004 61627 32957 00000 10350 20197 30077 40099 333 0//00 59004;EQDQ01  00002PRCP99
0212616270999992000052606004+15380-015120FM-12+0021GOOG V0203601N001012200019N0070001N1+03161+01331100921ADDAA199000091GA1001+999999999GF100991001001999999001001IA2240+02209KA1120N+03161MA1999999100691REMSYN088AAXX  26064 61627 32957 03602 10316 20133 30069 40092 333 02200 20316 51250 55/// 59001;EQDQ01  00002PRCP99
0165616270999992000052609004+15380-015120FM-12+0021GOOG V0203601N001019999999N0080001N1+03341+01051101021ADDGA1031+039009039GF106991031001999999071021MA1999999100791MD1999999+0001REMSYN082AAXX  26094 61627 42958 63602 10334 20105 30079 40102 83072 333 58000 83363 85073;
0195616270999992000052612004+15380-015120FM-12+0021GOOG V0200801N001010690019N0100001N1+04131+00841100981ADDAA199000091GA1051+069009019GF105991001001999999001021MA1999999100761MD1999999-0031REMSYN082AAXX  26124 61627 32960 50802 10413 20084 30076 40098 80002 333 0//00 59003 85073;EQDQ01  00002PRCP99
0147616270999992000052615004+15380-015120FM-12+0021GOOG V0209999C000012200019N0100001N1+04551+01471100831ADDGA1001+999999999GF100991001001999999001001MA1999999100601MD1999999+0011REMSYN064AAXX  26154 61627 42960 00000 10455 20147 30060 40083 333 58001;
0196616270999992000052618004+15380-015120FM-12+0021GOOG V0203601N001012200019N0100001N1+04451+01151100651ADDAA199000091GA1001+999999999GF100991001001999999001001KA1120M+04501MA1999999100421MD1999999-0081REMSYN070AAXX  26184 61627 32960 03602 10445 20115 30042 40065 333 10450 59008;EQDQ01  00002PRCP99
0212616270999992000052706004+15380-015120FM-12+0021GOOG V0209999C000012200019N0080001N1+02471+01721101031ADDAA199000091GA1001+999999999GF100991001001999999001001IA2240+02009KA1120N+02471MA1999999100801REMSYN088AAXX  27064 61627 32958 00000 10247 20172 30080 40103 333 02000 20247 51160 55/// 58011;EQDQ01  00002PRCP99
0147616270999992000052709004+15380-015120FM-12+0021GOOG V0202801N002112200019N0100001N1+02551+01671101121ADDGA1001+999999999GF100991001001999999001001MA1999999100891MD1999999+0101REMSYN064AAXX  27094 61627 42960 02804 10255 20167 30089 40112 333 58010;
0183616270999992000052712004+15380-015120FM-12+0021GOOG V0209999C000012200019N0100001N1+03401+01701101131ADDAA199000091GA1001+999999999GF100991001001999999001001MA1999999100901MD1999999+0141REMSYN070AAXX  27124 61627 32960 00000 10340 20170 30090 40113 333 0//00 58014;EQDQ01  00002PRCP99
0196616270999992000052718004+15380-015120FM-12+0021GOOG V0203201N002112200019N0100001N1+04001+01261100631ADDAA199000091GA1001+999999999GF100991001001999999001001KA1120M+04101MA1999999100401MD1999999-0021REMSYN070AAXX  27184 61627 32960 03204 10400 20126 30040 40063 333 10410 59002;EQDQ01  00002PRCP99
0147616270999992000052809004+15380-015120FM-12+0021GOOG V0202801N002112200019N0100001N1+02381+01901101091ADDGA1001+999999999GF100991001001999999001001MA1999999100861MD1999999-0031REMSYN064AAXX  28094 61627 42960 02804 10238 20190 30086 40109 333 59003;
0183616270999992000052812004+15380-015120FM-12+0021GOOG V0203001N002112200019N0100001N1+03111+01971101081ADDAA199000091GA1001+999999999GF100991001001999999001001MA1999999100851MD1999999-0051REMSYN070AAXX  28124 61627 32960 03004 10311 20197 30085 40108 333 0//00 59005;EQDQ01  00002PRCP99
0147616270999992000052815004+15380-015120FM-12+0021GOOG V0202801N002112200019N0100001N1+03801+01531100861ADDGA1001+999999999GF100991001001999999001001MA1999999100651MD1999999+0061REMSYN064AAXX  28154 61627 42960 02804 10380 20153 30065 40086 333 58006;
0196616270999992000052818004+15380-015120FM-12+0021GOOG V0203201N002112200019N0100001N1+03801+01681100751ADDAA199000091GA1001+999999999GF100991001001999999001001KA1120M+03901MA1999999100521MD1999999+0121REMSYN070AAXX  28184 61627 32960 03204 10380 20168 30052 40075 333 10390 58012;EQDQ01  00002PRCP99
0147616270999992000052821004+15380-015120FM-12+0021GOOG V0202801N001012200019N0080001N1+03161+01981100891ADDGA1001+999999999GF100991001001999999001001MA1999999100661MD1999999+0131REMSYN064AAXX  28214 61627 42958 02802 10316 20198 30066 40089 333 58013;
0183616270999992000052900004+15380-015120FM-12+0021GOOG V0203001N002112200019N0080001N1+02561+02101101001ADDAA199000091GA1001+999999999GF100991001001999999001001MA1999999100771MD1999999+0061REMSYN070AAXX  29004 61627 32958 03004 10256 20210 30077 40100 333 0//00 58006;EQDQ01  00002PRCP99
0159616270999992000052909004+15380-015120FM-12+0021GOOG V0203201N002110690019N0100001N1+02401+02101101131ADDGA1051+069009019GF105991001001999999001021MA1999999100981MD1999999+0041REMSYN076AAXX  29094 61627 42960 53204 10240 20210 30098 40113 80002 333 58004 85073;
0147616270999992000052915004+15380-015120FM-12+0021GOOG V0209999C000012200019N0100001N1+03751+02111100881ADDGA1001+999999999GF100991001001999999001001MA1999999100651MD1999999+0021REMSYN064AAXX  29154 61627 42960 00000 10375 20211 30065 40088 333 58002;
0196616270999992000052918004+15380-015120FM-12+0021GOOG V0209999C000012200019N0100001N1+03901+01901100741ADDAA199000091GA1001+999999999GF100991001001999999001001KA1120M+03901MA1999999100511MD1999999-0011REMSYN070AAXX  29184 61627 32960 00000 10390 20190 30051 40074 333 10390 59001;EQDQ01  00002PRCP99
0183616270999992000053000004+15380-015120FM-12+0021GOOG V0202801N003112200019N0080001N1+02551+02021100951ADDAA199000091GA1001+999999999GF100991001001999999001001MA1999999100721MD1999999-0051REMSYN070AAXX  30004 61627 32958 02806 10255 20202 30072 40095 333 0//00 59005;EQDQ01  00002PRCP99
0212616270999992000053006004+15380-015120FM-12+0021GOOG V0203201N001012200019N0080001N1+02151+01921101021ADDAA199000091GA1001+999999999GF100991001001999999001001IA2240+01309KA1120N+02151MA1999999100791REMSYN088AAXX  30064 61627 32958 03202 10215 20192 30079 40102 333 01300 20215 50570 55/// 59001;EQDQ01  00002PRCP99
0147616270999992000053009004+15380-015120FM-12+0021GOOG V0203201N002112200019N0100001N1+02401+02021101131ADDGA1001+999999999GF100991001001999999001001MA1999999100901MD1999999+0001REMSYN064AAXX  30094 61627 42960 03204 10240 20202 30090 40113 333 58000;
0147616270999992000053015004+15380-015120FM-12+0021GOOG V0200401N002112200019N0100001N1+04081+01761100921ADDGA1001+999999999GF100991001001999999001001MA1999999100691MD1999999+0041REMSYN064AAXX  30154 61627 42960 00404 10408 20176 30069 40092 333 58004;
0147616270999992000053021004+15380-015120FM-12+0021GOOG V0203001N004112200019N0080001N1+03371+02141100781ADDGA1001+999999999GF100991001001999999001001MA1999999100551MD1999999-0051REMSYN064AAXX  30214 61627 42958 03008 10337 20214 30055 40078 333 59005;
0212616270999992000053106004+15380-015120FM-12+0021GOOG V0202801N001012200019N0080001N1+02271+02141100921ADDAA199000091GA1001+999999999GF100991001001999999001001IA2240+01309KA1120N+02271MA1999999100691REMSYN088AAXX  31064 61627 32958 02802 10227 20214 30069 40092 333 01300 20227 50730 55/// 59010;EQDQ01  00002PRCP99
0147616270999992000053109004+15380-015120FM-12+0021GOOG V0203001N002112200019N0100001N1+02531+02141100971ADDGA1001+999999999GF100991001001999999001001MA1999999100741MD1999999-0161REMSYN064AAXX  31094 61627 42960 03004 10253 20214 30074 40097 333 59016;
0183616270999992000053112004+15380-015120FM-12+0021GOOG V0203001N001012200019N0100001N1+03641+02101100951ADDAA199000091GA1001+999999999GF100991001001999999001001MA1999999100721MD1999999-0181REMSYN070AAXX  31124 61627 32960 03002 10364 20210 30072 40095 333 0//00 59018;EQDQ01  00002PRCP99
0159616270999992000053115004+15380-015120FM-12+0021GOOG V0200601N001012200019N0100001N1+04391+01491100701ADDGA1031+069009019GF103991001001999999001021MA1999999100471MD1999999-0221REMSYN076AAXX  31154 61627 42960 30602 10439 20149 30047 40070 80002 333 59022 83073;
0208616270999992000053118004+15380-015120FM-12+0021GOOG V0200401N001012200019N0100001N1+04411+01181100551ADDAA199000091GA1021+069009019GF102991001001999999001011KA1120M+04461MA1999999100321MD1999999-0161REMSYN082AAXX  31184 61627 32960 20402 10441 20118 30032 40055 80001 333 10446 59016 82073;EQDQ01  00002PRCP99
0183616270999992000060100004+15380-015120FM-12+0021GOOG V0202801N002112200019N0080001N1+02921+02111100931ADDAA199000091GA1001+999999999GF100991001001999999001001MA1999999100701MD1999999-0081REMSYN070AAXX  01004 61627 32958 02804 10292 20211 30070 40093 333 0//00 59008;EQDQ01  00002PRCP99
0212616270999992000060106004+15380-015120FM-12+0021GOOG V0209999C000012200019N0080001N1+02431+02281100891ADDAA199000091GA1001+999999999GF100991001001999999001001IA2240+01409KA1120N+02431MA1999999100661REMSYN088AAXX  01064 61627 32958 02400 10243 20228 30066 40089 333 01400 20243 51290 55/// 59003;EQDQ01  00002PRCP99
0147616270999992000060109004+15380-015120FM-12+0021GOOG V0202201N002112200019N0100001N1+02581+02351101031ADDGA1001+999999999GF100991001001999999001001MA1999999100801MD1999999+0061REMSYN064AAXX  01094 61627 42960 02204 10258 20235 30080 40103 333 58006;
0195616270999992000060112004+15380-015120FM-12+0021GOOG V0202201N002112200019N0100001N1+03351+02101101051ADDAA199000091GA1021+069009019GF102991001001999999001021MA1999999100821MD1999999+0101REMSYN082AAXX  01124 61627 32960 22204 10335 20210 30082 40105 80002 333 0//00 58010 82073;EQDQ01  00002PRCP99
0183616270999992000060200004+15380-015120FM-12+0021GOOG V0202401N002112200019N0080001N1+02951+01781101171ADDAA199000091GA1001+999999999GF100991001001999999001001MA1999999100901MD1999999+0201REMSYN070AAXX  02004 61627 32958 02404 10295 20178 30090 40117 333 0//00 58020;EQDQ01  00002PRCP99
0147616270999992000060203004+15380-015120FM-12+0021GOOG V0202401N003112200019N0080001N1+02631+01971101061ADDGA1001+999999999GF100991001001999999001001MA1999999100831MD1999999+0131REMSYN064AAXX  02034 61627 42958 02406 10263 20197 30083 40106 333 58013;
0212616270999992000060206004+15380-015120FM-12+0021GOOG V0202401N003112200019N0080001N1+02521+02041101141ADDAA199000091GA1001+999999999GF100991001001999999001001IA2240+01609KA1120N+02521MA1999999100921REMSYN088AAXX  02064 61627 32958 02406 10252 20204 30092 40114 333 01600 20252 50730 55/// 58025;EQDQ01  00002PRCP99
0159616270999992000060209004+15380-015120FM-12+0021GOOG V0202201N003112200019N0100001N1+02761+02231101311ADDGA1031+039009079GF103991031001999999081001MA1999999101081MD1999999+0281REMSYN076AAXX  02094 61627 42960 32206 10276 20223 30108 40131 83080 333 58028 83363;
0183616270999992000060212004+15380-015120FM-12+0021GOOG V0202401N003112200019N0100001N1+03421+02151101141ADDAA199000091GA1001+999999999GF100991001001999999001001MA1999999100911MD1999999+0091REMSYN070AAXX  02124 61627 32960 02406 10342 20215 30091 40114 333 0//00 58009;EQDQ01  00002PRCP99
0147616270999992000060215004+15380-015120FM-12+0021GOOG V0202801N003112200019N0100001N1+04001+02201100931ADDGA1001+999999999GF100991001001999999001001MA1999999100701MD1999999+0031REMSYN064AAXX  02154 61627 42960 02806 10400 20220 30070 40093 333 58003;
0196616270999992000060218004+15380-015120FM-12+0021GOOG V0203001N005112200019N0070001N1+03801+02081100751ADDAA199000091GA1001+999999999GF100991001001999999001001KA1120M+04091MA1999999100521MD1999999+0011REMSYN070AAXX  02184 61627 32957 03010 10380 20208 30052 40075 333 10409 58001;EQDQ01  00002PRCP99
0147616270999992000060221004+15380-015120FM-12+0021GOOG V0203001N003112200019N0080001N1+02931+02021100921ADDGA1001+999999999GF100991001001999999001001MA1999999100691MD1999999-0111REMSYN064AAXX  02214 61627 42958 03006 10293 20202 30069 40092 333 59011;
0212616270999992000060306004+15380-015120FM-12+0021GOOG V0202401N002112200019N0080001N1+02351+02121101021ADDAA199000091GA1001+999999999GF100991001001999999001001IA2240+01709KA1120N+02351MA1999999100791REMSYN088AAXX  03064 61627 32958 02404 10235 20212 30079 40102 333 01700 20235 50970 55/// 59012;EQDQ01  00002PRCP99
0147616270999992000060309004+15380-015120FM-12+0021GOOG V0202201N004112200019N0100001N1+02581+02001101191ADDGA1001+999999999GF100991001001999999001001MA1999999101111MD1999999-0101REMSYN064AAXX  03094 61627 42960 02208 10258 20200 30111 40119 333 59010;
0183616270999992000060312004+15380-015120FM-12+0021GOOG V0202401N003112200019N0100001N1+03351+02191101051ADDAA199000091GA1001+999999999GF100991001001999999001001MA1999999100821MD1999999-0091REMSYN070AAXX  03124 61627 32960 02406 10335 20219 30082 40105 333 0//00 59009;EQDQ01  00002PRCP99
0208616270999992000060318004+15380-015120FM-12+0021GOOG V0203001N003112200019N0100001N1+03821+01631100731ADDAA199000091GA1011+039009079GF101991011001999999031001KA1120M+04021MA1999999100501MD1999999-0021REMSYN082AAXX  03184 61627 32960 13006 10382 20163 30050 40073 81030 333 10402 59002 81363;EQDQ01  00002PRCP99
0159616270999992000060321004+15380-015120FM-12+0021GOOG V0202601N001012200019N0080001N1+03251+01701100861ADDGA1031+039009079GF103991031001999999081001MA1999999100631MD1999999-0061REMSYN076AAXX  03214 61627 42958 32602 10325 20170 30063 40086 83080 333 59006 83363;
0183616270999992000060400004+15380-015120FM-12+0021GOOG V0202401N001012200019N0080001N1+02751+02161100971ADDAA199000091GA1001+999999999GF100991001001999999001001MA1999999100741MD1999999-0141REMSYN070AAXX  04004 61627 32958 02402 10275 20216 30074 40097 333 0//00 59014;EQDQ01  00002PRCP99
0159616270999992000060409004+15380-015120FM-12+0021GOOG V0202401N002110390019N0100001N1+02351+02171101051ADDGA1061+039009079GF106991061001999999031001MA1999999100821MD1999999-0081REMSYN076AAXX  04094 61627 42960 62404 10235 20217 30082 40105 86030 333 59008 86363;
0195616270999992000060412004+15380-015120FM-12+0021GOOG V0202601N001012200019N0100001N1+03171+02021101061ADDAA199000091GA1031+039009079GF103991031001999999071001MA1999999100881MD1999999+0011REMSYN082AAXX  04124 61627 32960 32602 10317 20202 30088 40106 83070 333 0//00 58001 83363;EQDQ01  00002PRCP99
0147616270999992000060415004+15380-015120FM-12+0021GOOG V0202201N002112200019N0100001N1+03701+02191100931ADDGA1001+999999999GF100991001001999999001001MA1999999100701MD1999999+0091REMSYN064AAXX  04154 61627 42960 02204 10370 20219 30070 40093 333 58009;
0196616270999992000060418004+15380-015120FM-12+0021GOOG V0209999C000012200019N0100001N1+03901+02131100771ADDAA199000091GA1001+999999999GF100991001001999999001001KA1120M+03901MA1999999100541MD1999999+0041REMSYN070AAXX  04184 61627 32960 00000 10390 20213 30054 40077 333 10390 58004;EQDQ01  00002PRCP99
0195616270999992000060512004+15380-015120FM-12+0021GOOG V0202601N001012200019N0100001N1+03101+02081101331ADDAA199000091GA1031+039009079GF103991031001999999031001MA1999999101101MD1999999+0271REMSYN082AAXX  05124 61627 32960 32602 10310 20208 30110 40133 83030 333 0//00 58027 83363;EQDQ01  00002PRCP99
0159616270999992000060515004+15380-015120FM-12+0021GOOG V0203601N002112200019N0100001N1+03631+01841101171ADDGA1031+039009079GF103991031001999999031001MA1999999100941MD1999999+0241REMSYN076AAXX  05154 61627 42960 33604 10363 20184 30094 40117 83030 333 58024 83363;
0208616270999992000060518004+15380-015120FM-12+0021GOOG V0203201N002112200019N0100001N1+03721+01801101001ADDAA199000091GA1031+039009079GF103991031001999999031001KA1120M+03791MA1999999100771MD1999999+0231REMSYN082AAXX  05184 61627 32960 33204 10372 20180 30077 40100 83030 333 10379 58023 83363;EQDQ01  00002PRCP99
0183616270999992000060600004+15380-015120FM-12+0021GOOG V0203201N003112200019N0080001N1+02531+02041101251ADDAA199000091GA1001+999999999GF100991001001999999001001MA1999999101011MD1999999+0121REMSYN070AAXX  06004 61627 32958 03206 10253 20204 30101 40125 333 0//00 58012;EQDQ01  00002PRCP99
0159616270999992000060609004+15380-015120FM-12+0021GOOG V0203201N002110390019N0100001N1+02431+02081101351ADDGA1051+039009079GF105991051001999999081001MA1999999101121MD1999999+0031REMSYN076AAXX  06094 61627 42960 53204 10243 20208 30112 40135 85080 333 58003 85363;
0195616270999992000060612004+15380-015120FM-12+0021GOOG V0203201N002112200019N0100001N1+03281+02091101351ADDAA199000091GA1011+039009079GF101991011001999999081001MA1999999101121MD1999999+0021REMSYN082AAXX  06124 61627 32960 13204 10328 20209 30112 40135 81080 333 0//00 58002 81363;EQDQ01  00002PRCP99
0159616270999992000060615004+15380-015120FM-12+0021GOOG V0200401N002112200019N0100001N1+03831+01621101171ADDGA1021+069009019GF102991001001999999001011MA1999999100941MD1999999+0001REMSYN076AAXX  06154 61627 42960 20404 10383 20162 30094 40117 80001 333 58000 82073;
0208616270999992000060618004+15380-015120FM-12+0021GOOG V0203201N002112200019N0100001N1+03811+01571101041ADDAA199000091GA1031+069009019GF103991001001999999001011KA1120M+03851MA1999999100811MD1999999+0041REMSYN082AAXX  06184 61627 32960 33204 10381 20157 30081 40104 80001 333 10385 58004 83073;EQDQ01  00002PRCP99
0183616270999992000060700004+15380-015120FM-12+0021GOOG V0202801N002112200019N0080001N1+02701+01941101271ADDAA199000091GA1001+999999999GF100991001001999999001001MA1999999101041MD1999999+0021REMSYN070AAXX  07004 61627 32958 02804 10270 20194 30104 40127 333 0//00 58002;EQDQ01  00002PRCP99
0212616270999992000060706004+15380-015120FM-12+0021GOOG V0202801N002112200019N0080001N1+02241+02141101261ADDAA199000091GA1001+999999999GF100991001001999999001001IA2240+01309KA1120N+02241MA1999999101031REMSYN088AAXX  07064 61627 32958 02804 10224 20214 30103 40126 333 01300 20224 50110 55/// 58003;EQDQ01  00002PRCP99
0147616270999992000060709004+15380-015120FM-12+0021GOOG V0203201N002112200019N0100001N1+02621+01981101331ADDGA1001+999999999GF100991001001999999001001MA1999999101101MD1999999-0021REMSYN064AAXX  07094 61627 42960 03204 10262 20198 30110 40133 333 59002;
0195616270999992000060712004+15380-015120FM-12+0021GOOG V0203201N002112200019N0100001N1+03441+01671101251ADDAA199000091GA1021+069009019GF102991001001999999001011MA1999999101021MD1999999-0101REMSYN082AAXX  07124 61627 32960 23204 10344 20167 30102 40125 80001 333 0//00 59010 82073;EQDQ01  00002PRCP99
0147616270999992000060715004+15380-015120FM-12+0021GOOG V0203601N002112200019N0100001N1+03891+02001101031ADDGA1001+999999999GF100991001001999999001001MA1999999100801MD1999999-0141REMSYN064AAXX  07154 61627 42960 03604 10389 20200 30080 40103 333 59014;
0196616270999992000060718004+15380-015120FM-12+0021GOOG V0202801N002112200019N0100001N1+03891+02001100911ADDAA199000091GA1001+999999999GF100991001001999999001001KA1120M+03911MA1999999100681MD1999999-0131REMSYN070AAXX  07184 61627 32960 02804 10389 20200 30068 40091 333 10391 59013;EQDQ01  00002PRCP99
0212616270999992000060806004+15380-015120FM-12+0021GOOG V0202801N002112200019N0080001N1+02191+99999101051ADDAA199000091GA1001+999999999GF100991001001999999001001IA2240+01309KA1120N+02201MA1999999100821REMSYN088AAXX  08064 61627 32958 02804 10219 20247 30082 40105 333 01300 20220 50980 55/// 59021;EQDQ01  00002PRCP99
0147616270999992000060809004+15380-015120FM-12+0021GOOG V0203201N003112200019N0100001N1+02401+02101101121ADDGA1001+999999999GF100991001001999999001001MA1999999100891MD1999999-0211REMSYN064AAXX  08094 61627 42960 03206 10240 20210 30089 40112 333 59021;
0183616270999992000060812004+15380-015120FM-12+0021GOOG V0203001N002112200019N0100001N1+03201+02181101131ADDAA199000091GA1001+999999999GF100991001001999999001001MA1999999100901MD1999999-0121REMSYN070AAXX  08124 61627 32960 03004 10320 20218 30090 40113 333 0//00 59012;EQDQ01  00002PRCP99
0147616270999992000060815004+15380-015120FM-12+0021GOOG V0203201N001012200019N0100001N1+03701+02251100921ADDGA1001+999999999GF100991001001999999001001MA1999999100691MD1999999-0111REMSYN064AAXX  08154 61627 42960 03202 10370 20225 30069 40092 333 59011;
0208616270999992000060818004+15380-015120FM-12+0021GOOG V0203001N002112200019N0100001N1+03811+02231100771ADDAA199000091GA1021+069009019GF102991001001999999001021KA1120M+03881MA1999999100541MD1999999-0141REMSYN082AAXX  08184 61627 32960 23004 10381 20223 30054 40077 80002 333 10388 59014 82073;EQDQ01  00002PRCP99
0222616270999992000060906004+15380-015120FM-12+0021GOOG V0202201N001012200019N0080001N1+02291+02161101181ADDAA199000091GF101991011001999999081001IA2240+01209KA1120N+02291MA1999999100951MD1999999+0131REMSYN100AAXX  09064 61627 32958 12202 10229 20216 30095 40118 81080 333 01200 20229 50570 55/// 58013 81363;EQDQ01  00002PRCP99
0159616270999992000060909004+15380-015120FM-12+0021GOOG V0202201N002112200019N0100001N1+02581+02271101321ADDGA1011+039009079GF101991011001999999031001MA1999999101081MD1999999+0191REMSYN076AAXX  09094 61627 42960 12204 10258 20227 30108 40132 81030 333 58019 81363;
0195616270999992000060912004+15380-015120FM-12+0021GOOG V0202001N003112200019N0100001N1+03321+02261101311ADDAA199000091GA1021+039009079GF103991021001999999031021MA1999999101081MD1999999+0181REMSYN082AAXX  09124 61627 32960 32006 10332 20226 30108 40131 82032 333 0//00 58018 82363;EQDQ01  00002PRCP99
0159616270999992000060915004+15380-015120FM-12+0021GOOG V0202201N001010390019N0100001N1+03701+01911101091ADDGA1051+039009079GF105991051001999999031001MA1999999100861MD1999999+0171REMSYN076AAXX  09154 61627 42960 52202 10370 20191 30086 40109 85030 333 58017 85363;
0214616270999992000060918004+15380-015120FM-12+0021GOOG V0201801N001019999999N0100001N1+03721+01881100991ADDAA199000091GA1021+039009039GF106991021001999999031021KA1120M+03781MA1999999100761MD1999999+0221REMSYN088AAXX  09184 61627 32960 61802 10372 20188 30076 40099 82032 333 10378 58022 82363 83073;EQDQ01  00002PRCP99
0159616270999992000060921004+15380-015120FM-12+0021GOOG V0202601N003112200019N0080001N1+03161+02201101191ADDGA1031+069009019GF103991001001999999001021MA1999999100961MD1999999+0251REMSYN076AAXX  09214 61627 42958 32606 10316 20220 30096 40119 80002 333 58025 83073;
0177616270999992000061000004+15380-015120FM-12+0021GOOG V0202601N001012200019N0080001N1+02751+02241101311ADDAA199000091GA1001+999999999GF100991001001999999001001MA1999999101081MD1999999+0151REMSYN064AAXX  10004 61627 32958 02602 10275 20224 30108 40131 333 58015;EQDQ01  00002PRCP99
0165616270999992000061009004+15380-015120FM-12+0021GOOG V0201401N001019999999N0100001N1+02511+02281101511ADDGA1021+039009039GF105991021001999999031021MA1999999101281MD1999999+0201REMSYN082AAXX  10094 61627 42960 51402 10251 20228 30128 40151 82032 333 58020 82363 83073;
0195616270999992000061012004+15380-015120FM-12+0021GOOG V0202601N002110390019N0100001N1+03251+02161101391ADDAA199000091GA1061+039009079GF106991061001999999081001MA1999999101161MD1999999+0081REMSYN082AAXX  10124 61627 32960 62604 10325 20216 30116 40139 86080 333 0//00 58008 86363;EQDQ01  00002PRCP99
0159616270999992000061015004+15380-015120FM-12+0021GOOG V0202601N002110390019N0100001N1+03701+02271101231ADDGA1061+039009079GF106991061001999999081001MA1999999101001MD1999999+0141REMSYN076AAXX  10154 61627 42960 62604 10370 20227 30100 40123 86080 333 58014 86363;
0208616270999992000061018004+15380-015120FM-12+0021GOOG V0209999C000010390019N0080001N1+03701+02191101131ADDAA199000091GA1061+039009079GF106991061001999999071001KA1120M+03701MA1999999100901MD1999999+0141REMSYN082AAXX  10184 61627 32958 60000 10370 20219 30090 40113 86070 333 10370 58014 86363;EQDQ01  00002PRCP99
0195616270999992000061100004+15380-015120FM-12+0021GOOG V0203201N001012200019N0080001N1+02951+01971101341ADDAA199000091GA1041+039009079GF104991041001999999081001MA1999999101111MD1999999+0031REMSYN082AAXX  11004 61627 32958 43202 10295 20197 30111 40134 84080 333 0//00 58003 84363;EQDQ01  00002PRCP99
0159616270999992000061109004+15380-015120FM-12+0021GOOG V0203201N001012200019N0100001N1+02601+02191101281ADDGA1021+039009079GF103991021001999999031021MA1999999101051MD1999999-0231REMSYN076AAXX  11094 61627 42960 33202 10260 20219 30105 40128 82032 333 59023 82363;
0195616270999992000061112004+15380-015120FM-12+0021GOOG V0209999C000010390019N0100001N1+03201+02211101281ADDAA199000091GA1061+039009079GF106991061001999999071001MA1999999101051MD1999999-0111REMSYN082AAXX  11124 61627 32960 60000 10320 20221 30105 40128 86070 333 0//00 59011 86363;EQDQ01  00002PRCP99
0159616270999992000061115004+15380-015120FM-12+0021GOOG V0202601N002110390019N0100001N1+03711+02341101111ADDGA1061+039009079GF106991061001999999071001MA1999999100881MD1999999-0121REMSYN076AAXX  11154 61627 42960 62604 10371 20234 30088 40111 86070 333 59012 86363;
0208616270999992000061118004+15380-015120FM-12+0021GOOG V0202401N002112200019N0100001N1+03801+02331100861ADDAA199000091GA1031+039009079GF104991031001999999081021KA1120M+03821MA1999999100631MD1999999-0271REMSYN082AAXX  11184 61627 32960 42404 10380 20233 30063 40086 83082 333 10382 59027 83363;EQDQ01  00002PRCP99
0147616270999992000061209004+15380-015120FM-12+0021GOOG V0202001N003112200019N0100001N1+02641+02321101241ADDGA1001+999999999GF100991001001999999001001MA1999999101011MD1999999-0041REMSYN064AAXX  12094 61627 42960 02006 10264 20232 30101 40124 333 59004;
0195616270999992000061212004+15380-015120FM-12+0021GOOG V0202001N003112200019N0100001N1+03932+02301101231ADDAA199000091GA1031+039009079GF103991031001999999031001MA1999999101001MD1999999-0051REMSYN082AAXX  12124 61627 32960 32006 10393 20230 30100 40123 83030 333 0//00 59005 83363;EQDQ01  00002PRCP99
0147616270999992000061215004+15380-015120FM-12+0021GOOG V0202401N004112200019N0100001N1+03821+02281101031ADDGA1001+999999999GF100991001001999999001001MA1999999100801MD1999999-0081REMSYN064AAXX  12154 61627 42960 02408 10382 20228 30080 40103 333 59008;
0196616270999992000061218004+15380-015120FM-12+0021GOOG V0202001N002112200019N0100001N1+03801+02141101001ADDAA199000091GA1001+999999999GF100991001001999999001001KA1120M+03901MA1999999100771MD1999999+0141REMSYN070AAXX  12184 61627 32960 02004 10380 20214 30077 40100 333 10390 58014;EQDQ01  00002PRCP99
0183616270999992000061300004+15380-015120FM-12+0021GOOG V0202601N001012200019N0080001N1+02901+02161101261ADDAA199000091GA1001+999999999GF100991001001999999001001MA1999999101031MD1999999+0191REMSYN070AAXX  13004 61627 32958 02602 10290 20216 30103 40126 333 0//00 58019;EQDQ01  00002PRCP99
0159616270999992000061309004+15380-015120FM-12+0021GOOG V0202201N002110039019N0100001N1+02701+02441101481ADDGA1061+003909059GF106991061001008001051001MA1999999101251MD1999999+0241REMSYN076AAXX  13094 61627 42560 62204 10270 20244 30125 40148 86050 333 58024 86613;
0183616270999992000061312004+15380-015120FM-12+0021GOOG V0202401N002112200019N0100001N1+03361+02401101331ADDAA199000091GA1001+999999999GF100991001001999999001001MA1999999101101MD1999999+0101REMSYN070AAXX  13124 61627 32960 02404 10336 20240 30110 40133 333 0//00 58010;EQDQ01  00002PRCP99
0147616270999992000061315004+15380-015120FM-12+0021GOOG V0202401N003112200019N0100001N1+03901+02321101131ADDGA1001+999999999GF100991001001999999001001MA1999999100901MD1999999+0101REMSYN064AAXX  13154 61627 42960 02406 10390 20232 30090 40113 333 58010;
0208616270999992000061318004+15380-015120FM-12+0021GOOG V0202601N001012200019N0100001N1+03991+02281101021ADDAA199000091GA1021+069009019GF102991001001999999001021KA1120M+04001MA1999999100791MD1999999+0021REMSYN082AAXX  13184 61627 32960 22602 10399 20228 30079 40102 80002 333 10400 58002 82073;EQDQ01  00002PRCP99
0244616270999992000061406004+15370-015120FM-12+0021GOOG V0202601N002119999999N0080001N1+02551+02301101231ADDAA199000091GA1031+039009039GF106991031001999999081021IA2240+01609KA1120N+02551MA1999999101001MD1999999+0001REMSYN106AAXX  14064 61627 32958 62604 10255 20230 30100 40123 83082 333 01600 20255 50820 55/// 58000 83363 84073;EQDQ01  00002PRCP99
0159616270999992000061409004+15370-015120FM-12+0021GOOG V0202401N003110690019N0100001N1+02801+02211101251ADDGA1051+069009019GF105991001001999999001021MA1999999101021MD1999999-0231REMSYN076AAXX  14094 61627 42960 52406 10280 20221 30102 40125 80002 333 59023 85073;
0159616270999992000061415004+15370-015120FM-12+0021GOOG V0202601N003110690019N0100001N1+03801+02121101071ADDGA1051+069009019GF105991001001999999001021MA1999999100841MD1999999-0061REMSYN076AAXX  14154 61627 42960 52606 10380 20212 30084 40107 80002 333 59006 85073;
0147616270999992000061421004+15370-015120FM-12+0021GOOG V0202801N004112200019N0080001N1+03151+02001101051ADDGA1001+999999999GF100991001001999999001001MA1999999100021MD1999999-0181REMSYN064AAXX  14214 61627 42958 02808 10315 20200 30002 40105 333 59018;
0147616270999992000061509004+15370-015120FM-12+0021GOOG V0202801N002112200019N0100001N1+02651+02281101051ADDGA1001+999999999GF100991001001999999001001MA1999999100821MD1999999-0201REMSYN064AAXX  15094 61627 42960 02804 10265 20228 30082 40105 333 59020;
0159616270999992000061515004+15370-015120FM-12+0021GOOG V0200401N001010690019N0100001N1+03861+02071100881ADDGA1061+069009019GF106991001001999999001021MA1999999100651MD1999999-0191REMSYN076AAXX  15154 61627 42960 60402 10386 20207 30065 40088 80002 333 59019 86073;
0208616270999992000061518004+15370-015120FM-12+0021GOOG V0209999C000010690019N0100001N1+04011+01891100731ADDAA199000091GA1051+069009019GF105991001001999999001021KA1120M+04091MA1999999100501MD1999999-0221REMSYN082AAXX  15184 61627 32960 50000 10401 20189 30050 40073 80002 333 10409 59022 85073;EQDQ01  00002PRCP99
0159616270999992000061609004+15370-015120FM-12+0021GOOG V0202201N001012200019N0100001N1+02581+02241101061ADDGA1041+039009079GF104991041001999999081001MA1999999100831MD1999999+0011REMSYN076AAXX  16094 61627 42960 42202 10258 20224 30083 40106 84080 333 58001 84363;
0183616270999992000061612004+15370-015120FM-12+0021GOOG V0202401N002112200019N0100001N1+03181+02241101061ADDAA199000091GA1001+999999999GF100991001001999999001001MA1999999100831MD1999999+0031REMSYN070AAXX  16124 61627 32960 02404 10318 20224 30083 40106 333 0//00 58003;EQDQ01  00002PRCP99
0147616270999992000061615004+15370-015120FM-12+0021GOOG V0202601N003112200019N0100001N1+03651+02221100921ADDGA1001+999999999GF100991001001999999001001MA1999999100691MD1999999+0041REMSYN064AAXX  16154 61627 42960 02606 10365 20222 30069 40092 333 58004;
0196616270999992000061618004+15370-015120FM-12+0021GOOG V0202601N003112200019N0100001N1+03791+02231100741ADDAA199000091GA1001+999999999GF100991001001999999001001KA1120M+03801MA1999999100511MD1999999+0011REMSYN070AAXX  16184 61627 32960 02606 10379 20223 30051 40074 333 10380 58001;EQDQ01  00002PRCP99
0147616270999992000061709004+15370-015120FM-12+0021GOOG V0202601N001012200019N0100001N1+02501+02101101141ADDGA1001+999999999GF100991001001999999001001MA1999999100911MD1999999+0081REMSYN064AAXX  17094 61627 42960 02602 10250 20210 30091 40114 333 58008;
0183616270999992000061712004+15370-015120FM-12+0021GOOG V0202601N003112200019N0100001N1+03161+02031101151ADDAA199000091GA1001+999999999GF100991001001999999001001MA1999999100921MD1999999+0091REMSYN070AAXX  17124 61627 32960 02606 10316 20203 30092 40115 333 0//00 58009;EQDQ01  00002PRCP99
0147616270999992000061715004+15370-015120FM-12+0021GOOG V0202201N003112200019N0100001N1+03801+01951101011ADDGA1001+999999999GF100991001001999999001001MA1999999100781MD1999999+0091REMSYN064AAXX  17154 61627 42960 02206 10380 20195 30078 40101 333 58009;
0208616270999992000061718004+15370-015120FM-12+0021GOOG V0202201N003110690019N0100001N1+03801+01891100901ADDAA199000091GA1051+069009019GF105991001001999999001021KA1120M+03901MA1999999100671MD1999999+0161REMSYN082AAXX  17184 61627 32960 52206 10380 20189 30067 40090 80002 333 10390 58016 85073;EQDQ01  00002PRCP99
0159616270999992000061721004+15370-015120FM-12+0021GOOG V0202201N002112200019N0080001N1+03161+02211101061ADDGA1041+069009019GF104991001001999999001021MA1999999100831MD1999999+0201REMSYN076AAXX  17214 61627 42958 42204 10316 20221 30083 40106 80002 333 58020 84073;
0159616270999992000061809004+15370-015120FM-12+0021GOOG V0202401N002112200019N0100001N1+02621+02211101321ADDGA1021+069009019GF102991001001999999001021MA1999999101091MD1999999+0181REMSYN076AAXX  18094 61627 42960 22404 10262 20221 30109 40132 80002 333 58018 82073;
0183616270999992000061812004+15370-015120FM-12+0021GOOG V0202801N002112200019N0100001N1+03371+02231101331ADDAA199000091GA1001+999999999GF100991001001999999001001MA1999999101101MD1999999+0181REMSYN070AAXX  18124 61627 32960 02804 10337 20223 30110 40133 333 0//00 58018;EQDQ01  00002PRCP99
0147616270999992000061815004+15370-015120FM-12+0021GOOG V0202401N001012200019N0100001N1+03831+01961101131ADDGA1001+999999999GF100991001001999999001001MA1999999100901MD1999999+0121REMSYN064AAXX  18154 61627 42960 02402 10383 20196 30090 40113 333 58012;
0196616270999992000061818004+15370-015120FM-12+0021GOOG V0202801N002112200019N0100001N1+03871+01811100971ADDAA199000091GA1001+999999999GF100991001001999999001001KA1120M+03931MA1999999100741MD1999999+0071REMSYN070AAXX  18184 61627 32960 02804 10387 20181 30074 40097 333 10393 58007;EQDQ01  00002PRCP99
0183616270999992000061900004+15370-015120FM-12+0021GOOG V0202601N002112200019N0080001N1+02801+02261101261ADDAA199000091GA1001+999999999GF100991001001999999001001MA1999999101031MD1999999+0001REMSYN070AAXX  19004 61627 32958 02604 10280 20226 30103 40126 333 0//00 58000;EQDQ01  00002PRCP99
0165616270999992000061909004+15370-015120FM-12+0021GOOG V0202201N00211004201CN0100001N1+02601+02281101311ADDGA1021+003909069GF105991051051004501001021MA1999999101081MD1999999-0011REMSYN082AAXX  19094 61627 42460 52204 10260 20228 30108 40131 85502 333 59001 82613 85073;
0159616270999992000061915004+15370-015120FM-12+0021GOOG V0202601N003112200019N0100001N1+03751+02251101061ADDGA1031+069009019GF103991001001999999001021MA1999999100931MD1999999-0071REMSYN076AAXX  19154 61627 42960 32606 10375 20225 30093 40106 80002 333 59007 83073;
0196616270999992000061918004+15370-015120FM-12+0021GOOG V0202601N003112200019N0100001N1+03701+02191100921ADDAA199000091GA1001+999999999GF100991001001999999001001KA1120M+03801MA1999999100691MD1999999-0051REMSYN070AAXX  19184 61627 32960 02606 10370 20219 30069 40092 333 10380 59005;EQDQ01  00002PRCP99
0147616270999992000062009004+15370-015120FM-12+0021GOOG V0209999C000012200019N0100001N1+02501+02201101131ADDGA1001+999999999GF100991001001999999001001MA1999999100901MD1999999-0181REMSYN064AAXX  20094 61627 42960 00000 10250 20220 30090 40113 333 59018;
0183616270999992000062012004+15370-015120FM-12+0021GOOG V0202201N002112200019N0100001N1+03231+02091101121ADDAA199000091GA1001+999999999GF100991001001999999001001MA1999999100891MD1999999-0141REMSYN070AAXX  20124 61627 32960 02204 10323 20209 30089 40112 333 0//00 59014;EQDQ01  00002PRCP99
0159616270999992000062015004+15370-015120FM-12+0021GOOG V0202401N003112200019N0100001N1+03801+02081100931ADDGA1031+069009019GF103991001001999999001021MA1999999100701MD1999999-0131REMSYN076AAXX  20154 61627 42960 32406 10380 20208 30070 40093 80002 333 59013 83073;
0208616270999992000062018004+15370-015120FM-12+0021GOOG V0202201N003110690019N0100001N1+03901+02071100831ADDAA199000091GA1051+069009019GF105991001001999999001021KA1120M+03971MA1999999100601MD1999999-0091REMSYN082AAXX  20184 61627 32960 52206 10390 20207 30060 40083 80002 333 10397 59009 85073;EQDQ01  00002PRCP99
0222616270999992000062106004+15370-015120FM-12+0021GOOG V0202601N002119999999N0080001N1+02601+02351101181ADDAA199000091GF106991061001999999081001IA2240+01509KA1120N+02601MA1999999100951MD1999999+0161REMSYN100AAXX  21064 61627 32958 62604 10260 20235 30095 40118 86080 333 01500 20260 50900 55/// 58016 86363;EQDQ01  00002PRCP99
0159616270999992000062109004+15370-015120FM-12+0021GOOG V0202801N002112200019N0100001N1+02781+02381101241ADDGA1031+039009079GF103991031001999999081001MA1999999101011MD1999999+0111REMSYN076AAXX  21094 61627 42960 32804 10278 20238 30101 40124 83080 333 58011 83363;
0195616270999992000062112004+15370-015120FM-12+0021GOOG V0202201N001012200019N0100001N1+03381+02391101321ADDAA199000091GA1041+039009079GF104991041001999999081001MA1999999101091MD1999999+0201REMSYN082AAXX  21124 61627 32960 42202 10338 20239 30109 40132 84080 333 0//00 58020 84363;EQDQ01  00002PRCP99
0165616270999992000062115004+15370-015120FM-12+0021GOOG V0200401N00101105001CN0100001N1+03741+02191101201ADDGA1021+004509069GF105991021051004501071011MA1999999100971MD1999999+0271REMSYN082AAXX  21154 61627 42460 50402 10374 20219 30097 40120 82571 333 58027 82615 83363;
0214616270999992000062118004+15370-015120FM-12+0021GOOG V0201601N00101105001CN0100001N1+03881+02191100971ADDAA199000091GA1011+004509069GF105991011051004501071011KA1120M+03881MA1999999100741MD1999999+0141REMSYN088AAXX  21184 61627 32460 51602 10388 20219 30074 40097 81571 333 10388 58014 81615 84363;EQDQ01  00002PRCP99
0159616270999992000062121004+15370-015120FM-12+0021GOOG V0201801N002110390019N0080001N1+03201+02211101261ADDGA1071+039009079GF107991071001999999081999MA1999999101031MD1999999+0261REMSYN076AAXX  21214 61627 42958 71804 10320 20221 30103 40126 8708/ 333 58026 87363;
0212616270999992000062200004+15370-015120FM-12+0021GOOG V0202801N001012200019N0080001N1+02701+02181101211ADDAA199000091GA1001+999999999GF100991001001999999001001IA2240+02209KA1120N+02701MA1999999100981REMSYN088AAXX  23064 61627 32958 02802 10270 20218 30098 40121 333 02200 20270 50700 55/// 59008;EQDQ01  00002PRCP99
0243616270999992000062206004+15370-015120FM-12+0021GOOG V0203001N002119999999N0080001N1+02451+02351101291ADDAA124000021AC11C9AY161061AY211061GF108991081001999999071999IA2240+02509KA1120N+02451MA1999999101061MD1999999+0111MW1211REMSYN112AAXX  22064 61627 11958 83004 10245 20235 30106 40129 60004 72161 8807/ 333 02551 20245 51203 55/// 58011 88463;
0159616270999992000062209004+15370-015120FM-12+0021GOOG V0202801N001010390019N0100001N1+02761+02301101231ADDGA1071+039009019GF107991071001999999071999MA1999999101001MD1999999-0011REMSYN076AAXX  22094 61627 42960 72802 10276 20230 30100 40123 8707/ 333 59001 87463;
0164616270999992000062212004+15370-015120FM-12+0021GOOG V0209999C000012200019N0100001N1+03391+02221101371ADDAA199000021GA1001+999999999GF100991001001999999001001MA1999999101141MD1999999+0051REMSYN070AAXX  22124 61627 32960 00000 10339 20222 30114 40137 333 0//00 58005;
0147616270999992000062215004+15370-015120FM-12+0021GOOG V0203001N002112200019N0100001N1+03791+02411101231ADDGA1001+999999999GF100991001001999999001001MA1999999101001MD1999999+0031REMSYN064AAXX  22154 61627 42960 03004 10379 20241 30100 40123 333 58003;
0189616270999992000062218004+15370-015120FM-12+0021GOOG V0209999C000012200019N0100001N1+03901+02401101041ADDAA199000021GA1011+004509059GF101991011051004501001001KA1120M+03911MA1999999100811MD1999999+0071REMSYN082AAXX  22184 61627 32460 10000 10390 20240 30081 40104 81500 333 10391 58007 81615;
0147616270999992000062309004+15370-015120FM-12+0021GOOG V0209999C000012200019N0100001N1+02811+02211101321ADDGA1001+999999999GF100991001001999999001001MA1999999101091MD1999999+0091REMSYN064AAXX  23094 61627 42960 00000 10281 20221 30109 40132 333 58009;
0183616270999992000062312004+15370-015120FM-12+0021GOOG V0209999C000012200019N0100001N1+03411+02241101321ADDAA199000091GA1001+999999999GF100991001001999999001001MA1999999101091MD1999999-0051REMSYN070AAXX  23124 61627 32960 00000 10341 20224 30109 40132 333 0//00 59005;EQDQ01  00002PRCP99
0147616270999992000062315004+15370-015120FM-12+0021GOOG V0202201N002112200019N0100001N1+03901+02271101131ADDGA1001+999999999GF100991001001999999001001MA1999999100901MD1999999-0101REMSYN064AAXX  23154 61627 42960 02204 10390 20227 30090 40113 333 59010;
0196616270999992000062318004+15370-015120FM-12+0021GOOG V0202201N002112200019N0100001N1+03941+02211100901ADDAA199000091GA1001+999999999GF100991001001999999001001KA1120M+04031MA1999999100651MD1999999-0141REMSYN070AAXX  23184 61627 32960 02204 10394 20221 30065 40090 333 10403 59014;EQDQ01  00002PRCP99
0183616270999992000062400004+15370-015120FM-12+0021GOOG V0202401N002112200019N0080001N1+03101+02181101171ADDAA199000091GA1001+999999999GF100991001001999999001001MA1999999100941MD1999999-0091REMSYN070AAXX  24004 61627 32958 02404 10310 20218 30094 40117 333 0//00 59009;EQDQ01  00002PRCP99
0159616270999992000062409004+15370-015120FM-12+0021GOOG V0202201N002112200019N0100001N1+02841+02501101281ADDGA1031+004809059GF104991031051004501031001MA1999999101051MD1999999-0041REMSYN076AAXX  24094 61627 42460 42204 10284 20250 30105 40128 83530 333 59004 83616;
0195616270999992000062412004+15370-015120FM-12+0021GOOG V0202401N002112200019N0100001N1+03401+02491101261ADDAA199000091GA1011+039009079GF101991011001999999031001MA1999999101031MD1999999-0061REMSYN082AAXX  24124 61627 32960 12404 10340 20249 30103 40126 81030 333 0//00 59006 81363;EQDQ01  00002PRCP99
0208616270999992000062418004+15370-015120FM-12+0021GOOG V0202201N002112200019N0100001N1+03801+01261100931ADDAA199000091GA1021+069009019GF102991001001999999001021KA1120M+03901MA1999999100701MD1999999+0031REMSYN082AAXX  24184 61627 32960 22204 10380 20126 30070 40093 80002 333 10390 58003 82073;EQDQ01  00002PRCP99
0222616270999992000062506004+15370-015120FM-12+0021GOOG V0202601N002119999999N0080001N1+02631+02441101141ADDAA199000091GF105991051001999999081001IA2240+02509KA1120N+02631MA1999999100911MD1999999-0071REMSYN100AAXX  25064 61627 32958 52604 10263 20244 30091 40114 85080 333 02500 20263 50970 55/// 59007 87363;EQDQ01  00002PRCP99
0159616270999992000062509004+15370-015120FM-12+0021GOOG V0202601N003110390019N0100001N1+02801+02401101281ADDGA1061+039009079GF106991061001999999081001MA1999999101051MD1999999+0001REMSYN076AAXX  25094 61627 42960 62606 10280 20240 30105 40128 86080 333 58000 86363;
0195616270999992000062512004+15370-015120FM-12+0021GOOG V0202601N002112200019N0100001N1+03401+02281101261ADDAA199000091GA1021+039009079GF102991021001999999031001MA1999999101031MD1999999+0001REMSYN082AAXX  25124 61627 32960 22604 10340 20228 30103 40126 82030 333 0//00 58000 82363;EQDQ01  00002PRCP99
0159616270999992000062515004+15370-015120FM-12+0021GOOG V0202601N003110045019N0100001N1+03851+02261101031ADDGA1061+004509059GF106991061051008001001001MA1999999100801MD1999999+0001REMSYN076AAXX  25154 61627 42560 62606 10385 20226 30080 40103 86500 333 58000 86615;
0214616270999992000062518004+15370-015120FM-12+0021GOOG V0202201N002110048019N0100001N1+03831+02141100901ADDAA199000091GA1051+004809089GF105991051021004501001001KA1120M+03901MA1999999100671MD1999999-0031REMSYN088AAXX  25184 61627 32460 52204 10383 20214 30067 40090 85200 333 10390 59003 85816 94919;EQDQ01  00002PRCP99
0213616270999992000062521004+15370-015120FM-12+0021GOOG V0203201N002112200019N0080001N1+03161+02101101121ADDAY111031GA1021+009009099GA2031+039009039GF103991021031008001071001MA1999999100891MD1999999+0091MW1131REMSYN100AAXX  25214 61627 41558 33204 10316 20210 30089 40112 7131/ 82370 333 58009 82930 83363 94941 95831;
0249616270999992000062600004+15370-015120FM-12+0021GOOG V0202601N002112200019N0080001N1+02771+02531101351ADDAA199000091AY111061GA1031+009009099GA2031+039009039GF104991031031008001061001MA1999999101121MD1999999+0121MW1131REMSYN106AAXX  26004 61627 31558 42604 10277 20253 30112 40135 7131/ 83360 333 0//00 58012 83930 83363 94942 95832;EQDQ01  00002PRCP99
0159616270999992000062609004+15370-015120FM-12+0021GOOG V0209999C000010390019N0100001N1+02581+02211101381ADDGA1051+039009079GF105991051001999999031001MA1999999101151MD1999999+0101REMSYN076AAXX  26094 61627 42960 50000 10258 20221 30115 40138 85030 333 58010 85363;
0195616270999992000062612004+15370-015120FM-12+0021GOOG V0209999C000010390019N0120001N1+03051+02261101361ADDAA199000091GA1061+039009079GF106991061001999999071001MA1999999101131MD1999999+0101REMSYN082AAXX  26124 61627 32962 60000 10305 20226 30113 40136 86070 333 0//00 58010 86363;EQDQ01  00002PRCP99
0178616270999992000062615004+15370-015120FM-12+0021GOOG V0209999C000010390019N0120001N1+03351+02191101291ADDGA1061+039009019GF106991061001999999071999MA1999999101061MD1999999+0261REMSYN076AAXX  26154 61627 42962 60000 10335 20219 30106 40129 86070 333 58026 86463;EQDQ01+000002SCOHCG
0208616270999992000062618004+15370-015120FM-12+0021GOOG V0209999C000012200019N0120001N1+03321+02131101171ADDAA199000091GA1041+039009079GF104991041001999999071001KA1120M+03401MA1999999100941MD1999999+0271REMSYN082AAXX  26184 61627 32962 40000 10332 20213 30094 40117 84070 333 10340 58027 84363;EQDQ01  00002PRCP99
0159616270999992000062709004+15370-015120FM-12+0021GOOG V0203201N002112200019N0100001N1+02801+02001101031ADDGA1021+069009019GF102991001001999999001021MA1999999101101MD1999999-0051REMSYN076AAXX  27094 61627 42960 23204 10280 20200 30110 40103 80002 333 59005 82073;
0183616270999992000062712004+15370-015120FM-12+0021GOOG V0203201N002112200019N0100001N1+03421+01841101301ADDAA199000091GA1001+999999999GF100991001001999999001001MA1999999101071MD1999999-0061REMSYN070AAXX  27124 61627 32960 03204 10342 20184 30107 40130 333 0//00 59006;EQDQ01  00002PRCP99
0147616270999992000062715004+15370-015120FM-12+0021GOOG V0209999C000012200019N0100001N1+03891+01701101111ADDGA1001+999999999GF100991001001999999001001MA1999999100881MD1999999-0181REMSYN064AAXX  27154 61627 42960 00000 10389 20170 30088 40111 333 59018;
0208616270999992000062718004+15370-015120FM-12+0021GOOG V0203201N001012200019N0100001N1+03891+01651100961ADDAA199000091GA1031+039009079GF103991031001999999081001KA1120M+03901MA1999999100731MD1999999-0211REMSYN082AAXX  27184 61627 32960 33202 10389 20165 30073 40096 83080 333 10390 59021 83363;EQDQ01  00002PRCP99
0183616270999992000062800004+15370-015120FM-12+0021GOOG V0202601N002112200019N0080001N1+03071+02041101151ADDAA199000091GA1001+999999999GF100991001001999999001001MA1999999100921MD1999999-0221REMSYN070AAXX  28004 61627 32958 02604 10307 20204 30092 40115 333 0//00 59022;EQDQ01  00002PRCP99
0222616270999992000062806004+15370-015120FM-12+0021GOOG V0202201N002119999999N0080001N1+02701+02231101201ADDAA199000091GF105991001001999999001021IA2240+02309KA1120N+02701MA1999999100971MD1999999-0131REMSYN100AAXX  28064 61627 32958 52204 10270 20223 30097 40120 80002 333 02300 20270 51060 55/// 59013 85073;EQDQ01  00002PRCP99
0159616270999992000062809004+15370-015120FM-12+0021GOOG V0202201N002110690019N0100001N1+02801+02441101241ADDGA1061+069009019GF106991001001999999001021MA1999999101011MD1999999-0091REMSYN076AAXX  28094 61627 42960 62204 10280 20244 30101 40124 80002 333 59009 86073;
0195616270999992000062812004+15370-015120FM-12+0021GOOG V0202401N002110690019N0100001N1+03381+02091101261ADDAA199000091GA1051+069009019GF105991001001999999001021MA1999999101031MD1999999-0041REMSYN082AAXX  28124 61627 32960 52404 10338 20209 30103 40126 80002 333 0//00 59004 85073;EQDQ01  00002PRCP99
0159616270999992000062815004+15370-015120FM-12+0021GOOG V0201601N002112200019N0100001N1+03571+02031101061ADDGA1021+069009019GF102991001001999999001021MA1999999100831MD1999999-0051REMSYN076AAXX  28154 61627 42960 21604 10357 20203 30083 40106 80002 333 59005 82073;
0196616270999992000062818004+15370-015120FM-12+0021GOOG V0201801N001012200019N0100001N1+04001+01991100931ADDAA199000091GA1001+999999999GF100991001001999999001001KA1120M+04071MA1999999100701MD1999999-0031REMSYN070AAXX  28184 61627 32960 01802 10400 20199 30070 40093 333 10407 59003;EQDQ01  00002PRCP99
0165616270999992000062909004+15370-015120FM-12+0021GOOG V0201401N00411045001CN0100001N1+02781+02271101631ADDGA1011+004509069GF107991011051004501071999MA1999999101401MD1999999+0391REMSYN082AAXX  29094 61627 42460 71408 10278 20227 30140 40163 8157/ 333 58039 81615 87463;
0195616270999992000062912004+15370-015120FM-12+0021GOOG V0201401N002119999999N0100001N1+03121+02151101451ADDAA199000091GA1041+039009079GF105991041001999999081021MA1999999101221MD1999999+0191REMSYN082AAXX  29124 61627 32960 51404 10312 20215 30122 40145 84082 333 0//00 58019 84363;EQDQ01  00002PRCP99
0159616270999992000062915004+15370-015120FM-12+0021GOOG V0200601N002110390019N0100001N1+03651+01731101211ADDGA1061+039009079GF106991061001999999071001MA1999999100981MD1999999+0151REMSYN076AAXX  29154 61627 42960 60604 10365 20173 30098 40121 86070 333 58015 86363;
0208616270999992000062918004+15370-015120FM-12+0021GOOG V0200801N001010390019N0100001N1+03531+01781101081ADDAA199000091GA1081+039009019GF108991081001999999071999KA1120M+03681MA1999999100851MD1999999+0151REMSYN082AAXX  29184 61627 32960 80802 10353 20178 30085 40108 8807/ 333 10368 58015 88463;EQDQ01  00002PRCP99
0195616270999992000063000004+15370-015120FM-12+0021GOOG V0203201N002110390019N0080001N1+03051+02411101221ADDAA199000091GA1051+039009079GF105991051001999999071001MA1999999100991MD1999999-0111REMSYN082AAXX  30004 61627 32958 53204 10305 20241 30099 40122 85070 333 0//00 59011 85363;EQDQ01  00002PRCP99
0159616270999992000063009004+15370-015120FM-12+0021GOOG V0202601N001012200019N0100001N1+02831+02401101231ADDGA1021+039009079GF102991021001999999031001MA1999999101001MD1999999-0401REMSYN076AAXX  30094 61627 42960 22602 10283 20240 30100 40123 82030 333 59040 82363;
0183616270999992000063012004+15370-015120FM-12+0021GOOG V0202401N002112200019N0100001N1+03431+02431101171ADDAA199000091GA1001+999999999GF100991001001999999001001MA1999999100941MD1999999-0281REMSYN070AAXX  30124 61627 32960 02404 10343 20243 30094 40117 333 0//00 59028;EQDQ01  00002PRCP99
0147616270999992000063015004+15370-015120FM-12+0021GOOG V0202201N001012200019N0120001N1+03881+02331100971ADDGA1001+999999999GF100991001001999999001001MA1999999100741MD1999999-0241REMSYN064AAXX  30154 61627 42962 02202 10388 20233 30074 40097 333 59024;
0196616270999992000063018004+15370-015120FM-12+0021GOOG V0202601N001012200019N0120001N1+04001+02181100791ADDAA199000091GA1001+999999999GF100991001001999999001001KA1120M+04031MA1999999100561MD1999999-0291REMSYN070AAXX  30184 61627 32962 02602 10400 20218 30056 40079 333 10403 59029;EQDQ01  00002PRCP99
0147616270999992000063021004+15370-015120FM-12+0021GOOG V0202801N003112200019N0080001N1+03221+02171100841ADDGA1001+999999999GF100991001001999999001001MA1999999100611MD1999999-0271REMSYN064AAXX  30214 61627 42958 02806 10322 20217 30061 40084 333 59027;
0183616270999992000070100004+15370-015120FM-12+0021GOOG V0202801N002112200019N0080001N1+02731+02261101051ADDAA199000091GA1001+999999999GF100991001001999999001001MA1999999100821MD1999999-0171REMSYN070AAXX  01004 61627 32958 02804 10273 20226 30082 40105 333 0//00 59017;EQDQ01  00002PRCP99
0147616270999992000070109004+15370-015120FM-12+0021GOOG V0202801N003112200019N0100001N1+02671+02241101031ADDGA1001+999999999GF100991001001999999001001MA1999999100801MD1999999-0201REMSYN064AAXX  01094 61627 42960 02806 10267 20224 30080 40103 333 59020;
0183616270999992000070112004+15370-015120FM-12+0021GOOG V0202101N020612200019N0100001N1+03201+02261101031ADDAA199000091GA1001+999999999GF100991001001999999001001MA1999999100801MD1999999-0141REMSYN070AAXX  01124 61627 32960 02140 10320 20226 30080 40103 333 0//00 59014;EQDQ01  00002PRCP99
0147616270999992000070115004+15370-015120FM-12+0021GOOG V0202601N002112200019N0100001N1+03701+02351100831ADDGA1001+999999999GF100991001001999999001001MA1999999100601MD1999999-0141REMSYN064AAXX  01154 61627 42960 02604 10370 20235 30060 40083 333 59014;
0196616270999992000070118004+15370-015120FM-12+0021GOOG V0202601N002112200019N0100001N1+03701+02261100741ADDAA199000091GA1001+999999999GF100991001001999999001001KA1120M+03801MA1999999100511MD1999999-0051REMSYN070AAXX  01184 61627 32960 02604 10370 20226 30051 40074 333 10380 59005;EQDQ01  00002PRCP99
0159616270999992000070209004+15370-015120FM-12+0021GOOG V0202601N001012200019N0100001N1+02651+02191101131ADDGA1031+039009079GF103991031001999999081001MA1999999100901MD1999999+0101REMSYN076AAXX  02094 61627 42960 32602 10265 20219 30090 40113 83080 333 58010 83363;
0201616270999992000070212004+15370-015120FM-12+0021GOOG V0202201N002119999999N0100001N1+03281+02261101191ADDAA199000091GA1011+039009039GF106991011001999999081021MA1999999100961MD1999999+0161REMSYN088AAXX  02124 61627 32960 62204 10328 20226 30096 40119 81082 333 0//00 58016 81363 86073;EQDQ01  00002PRCP99
0165616270999992000070215004+15370-015120FM-12+0021GOOG V0202001N002119999999N0100001N1+03581+02211101131ADDGA1011+039009039GF105991011001999999081021MA1999999100901MD1999999+0301REMSYN082AAXX  02154 61627 42960 52004 10358 20221 30090 40113 81082 333 58030 81363 85073;
0165616270999992000070309004+15370-015120FM-12+0021GOOG V0209999C00001045001CN0100001N1+02651+02281101431ADDGA1041+004509069GF105991041051004501081001MA1999999101201MD1999999+0301REMSYN082AAXX  03094 61627 42460 50000 10265 20228 30120 40143 84580 333 58030 84615 83363;
0183616270999992000070312004+15370-015120FM-12+0021GOOG V0209999C000012200019N0100001N1+03201+02261101431ADDAA199000091GA1001+999999999GF100991001001999999001001MA1999999101201MD1999999+0241REMSYN070AAXX  03124 61627 32960 00000 10320 20226 30120 40143 333 0//00 58024;EQDQ01  00002PRCP99
0147616270999992000070315004+15370-015120FM-12+0021GOOG V0203201N002112200019N0100001N1+03721+02291101031ADDGA1001+999999999GF100991001001999999001001MA1999999100801MD1999999-0101REMSYN064AAXX  03154 61627 42960 03204 10372 20229 30080 40103 333 59010;
0196616270999992000070318004+15370-015120FM-12+0021GOOG V0209999C000012200019N0100001N1+03901+02181100831ADDAA199000091GA1001+999999999GF100991001001999999001001KA1120M+03901MA1999999100601MD1999999-0101REMSYN070AAXX  03184 61627 32960 00000 10390 20218 30060 40083 333 10390 59010;EQDQ01  00002PRCP99
0159616270999992000070409004+15370-015120FM-12+0021GOOG V0202601N003112200019N0100001N1+02701+02271101131ADDGA1041+039009079GF104991041001999999081001MA1999999100901MD1999999-0301REMSYN076AAXX  04094 61627 42960 42606 10270 20227 30090 40113 84080 333 59030 84363;
0195616270999992000070412004+15370-015120FM-12+0021GOOG V0203001N005112200019N0080001N1+03371+02131101051ADDAA199000091GA1021+069009019GF102991001001999999001021MA1999999100821MD1999999-0381REMSYN082AAXX  04124 61627 32958 23010 10337 20213 30082 40105 80002 333 0//00 59038 82073;EQDQ01  00002PRCP99
0147616270999992000070415004+15370-015120FM-12+0021GOOG V0202801N004112200019N0080001N1+03671+02081100881ADDGA1001+999999999GF100991001001999999001001MA1999999100651MD1999999-0151REMSYN064AAXX  04154 61627 42958 02808 10367 20208 30065 40088 333 59015;
0196616270999992000070418004+15370-015120FM-12+0021GOOG V0202801N004112200019N0080001N1+03531+02101100761ADDAA199000091GA1001+999999999GF100991001001999999001001KA1120M+03711MA1999999100531MD1999999-0071REMSYN070AAXX  04184 61627 32958 02808 10353 20210 30053 40076 333 10371 59007;EQDQ01  00002PRCP99
0222616270999992000070506004+15370-015120FM-12+0021GOOG V02099999999992200019N0080001N1+02571+02321100851ADDAA199000091GF102991021051004501001001IA2240+03309KA1120N+02571MA1999999100621MD1999999-0261REMSYN100AAXX  05064 61627 32458 28/// 10257 20232 30062 40085 82500 333 03300 20257 50810 55/// 59026 82615;EQDQ01  00002PRCP99
0159616270999992000070509004+15370-015120FM-12+0021GOOG V0202401N003110045019N0100001N1+02771+02261101031ADDGA1071+004509059GF107991071051004501999999MA1999999100801MD1999999-0101REMSYN076AAXX  05094 61627 42460 72406 10277 20226 30080 40103 875// 333 59010 87615;
0195616270999992000070512004+15370-015120FM-12+0021GOOG V0202401N003110045019N0100001N1+03161+02201101031ADDAA199000091GA1051+004509059GF105991051051004501001001MA1999999100801MD1999999-0021REMSYN082AAXX  05124 61627 32460 52406 10316 20220 30080 40103 85500 333 0//00 59002 85615;EQDQ01  00002PRCP99
0147616270999992000070609004+15370-015120FM-12+0021GOOG V0202601N001012200019N0100001N1+02701+02321101121ADDGA1001+999999999GF100991001001999999001001MA1999999100891MD1999999+0091REMSYN064AAXX  06094 61627 42960 02602 10270 20232 30089 40112 333 58009;
0171616270999992000070615004+15370-015120FM-12+0021GOOG V0201601N002110048019N0120001N1+03701+02101100941ADDGA1061+004809089GF106991061021004501001001MA1999999100711MD1999999+0111REMSYN088AAXX  06154 61627 42462 61604 10370 20210 30071 40094 86200 333 58011 86816 94919 95879;
0242616270999992000070618004+15370-015120FM-12+0021GOOG V0209999C000010690019N0120001N1+03801+02011100831ADDAA199000091GA1041+004809089GA2031+069009009GF105991041021004501001011KA1120M+03841MA1999999100601MD1999999+0101REMSYN100AAXX  06184 61627 32462 50000 10380 20201 30060 40083 84201 333 10384 58010 84816 83073 94919 95879;EQDQ01  00002PRCP99
0285616270999992000070706004+15370-015120FM-12+0021GOOG V0209999C000012200019N0080001N1+02501+02471101361ADDAA124010991AC13I9AY161061GA1011+009009099GA2031+039009039GF103991011031008001031001IA2240+02309KA1120N+02331MA1999999101131MD1999999+0341MW1131REMSYN130AAXX  07064 61627 11558 30000 10250 20247 30113 40136 60114 7136/ 81330 333 02317 20233 50860 55/// 58034 81930 83363 94942 95832;
0165616270999992000070709004+15370-015120FM-12+0021GOOG V0209999C00001105001CN0120001N1+02701+02471101461ADDGA1021+004809069GF107991021051004501001021MA1999999101231MD1999999+0341REMSYN082AAXX  07094 61627 42462 70000 10270 20247 30123 40146 82502 333 58034 82616 86073;
0201616270999992000070712004+15370-015120FM-12+0021GOOG V0209999C00001105001CN0120001N1+03101+02411101521ADDAA199000091GA1041+003909069GF106991041051004501001021MA1999999101291MD1999999+0391REMSYN088AAXX  07124 61627 32462 60000 10310 20241 30129 40152 84502 333 0//00 58039 84613 83073;EQDQ01  00002PRCP99
0171616270999992000070715004+15370-015120FM-12+0021GOOG V0200601N001010048019N0120001N1+03401+02411101341ADDGA1051+004809089GF105991051021004501001001MA1999999101111MD1999999+0401REMSYN088AAXX  07154 61627 42462 50602 10340 20241 30111 40134 85200 333 58040 85816 94919 95879;
0220616270999992000070718004+15370-015120FM-12+0021GOOG V0200401N002110048019N0100001N1+03501+02391101141ADDAA199000091GA1051+004809089GF106991051021999999001021KA1120M+03601MA1999999100911MD1999999+0311REMSYN094AAXX  07184 61627 32960 60404 10350 20239 30091 40114 85202 333 10360 58031 85816 94939 95879;EQDQ01  00002PRCP99
0178616270999992000070815004+15370-015120FM-12+0021GOOG V0201601N001012200019N0120001N1+03421+02271101231ADDGA1031+039009079GF103991999001999999031001MA1999999101001MD1999999-0111REMSYN076AAXX  08154 61627 42962 31602 10342 20227 30100 40123 85030 333 59011 83363;EQDQ01+000052SCOTLC
0195616270999992000070818004+15370-015120FM-12+0021GOOG V0201401N001012200019N0120001N1+03401+02331101251ADDAA112026991GA1041+039009079GF104991041001999999081001KA1120M+03441MA1999999101021MD1999999+0111REMSYN088AAXX  08184 61627 12962 41402 10340 20233 30102 40125 60272 84080 333 10344 58011 84363;
0159616270999992000070909004+15370-015120FM-12+0021GOOG V0203001N001012200019N0100001N1+02671+02481101331ADDGA1041+004509059GF104991041051004501081001MA1999999101101MD1999999-0381REMSYN076AAXX  09094 61627 42460 43002 10267 20248 30110 40133 84580 333 59038 84615;
0189616270999992000070912004+15370-015120FM-12+0021GOOG V0202201N002112200019N0100001N1+03091+02391101351ADDAA199000091GA1031+039009079GF103991031001999999081001MA1999999101121MD1999999-0171REMSYN076AAXX  09124 61627 32960 32204 10309 20239 30112 40135 83080 333 59017 83363;EQDQ01  00002PRCP99
0159616270999992000070915004+15370-015120FM-12+0021GOOG V0202601N002112200019N0100001N1+03401+02411101181ADDGA1011+039009079GF101991011001999999031001MA1999999100951MD1999999-0161REMSYN076AAXX  09154 61627 42960 12604 10340 20241 30095 40118 81030 333 59016 81363;
0196616270999992000070918004+15370-015120FM-12+0021GOOG V0202601N001012200019N0100001N1+03411+02411101081ADDAA199000091GA1001+999999999GF100991001001999999001001KA1120M+03491MA1999999100851MD1999999-0061REMSYN070AAXX  09184 61627 32960 02602 10341 20241 30085 40108 333 10349 59006;EQDQ01  00002PRCP99
0165616270999992000071009004+15370-015120FM-12+0021GOOG V0202601N00211045001CN0100001N1+02701+02411101151ADDGA1021+004509069GF106991021051004501071001MA1999999100921MD1999999-0181REMSYN082AAXX  10094 61627 42460 62604 10270 20241 30092 40115 82570 333 59018 82615 85363;
0195616270999992000071012004+15370-015120FM-12+0021GOOG V0202401N003112200019N0100001N1+03101+02361101231ADDAA199000091GA1031+004809059GF103991031051004501001001MA1999999101001MD1999999-0121REMSYN082AAXX  10124 61627 32460 32406 10310 20236 30100 40123 83500 333 0//00 59012 83616;EQDQ01  00002PRCP99
0159616270999992000071015004+15370-015120FM-12+0021GOOG V0202401N003112200019N0100001N1+03351+02361101081ADDGA1011+004809059GF101991011051004501001001MA1999999100861MD1999999-0101REMSYN076AAXX  10154 61627 42460 12406 10335 20236 30086 40108 81500 333 59010 81616;
0196616270999992000071018004+15370-015120FM-12+0021GOOG V0202601N003112200019N0100001N1+03371+02311100971ADDAA199000091GA1001+999999999GF100991001001999999001001KA1120M+03461MA1999999100741MD1999999-0111REMSYN070AAXX  10184 61627 32960 02606 10337 20231 30074 40097 333 10346 59011;EQDQ01  00002PRCP99
0159616270999992000071109004+15370-015120FM-12+0021GOOG V0202401N002112200019N0100001N1+02641+02241101131ADDGA1041+004509059GF104991041051004501001001MA1999999103901MD1999999-0021REMSYN076AAXX  11094 61627 42460 42404 10264 20224 30390 40113 84500 333 59002 84615;
0166616270999992000071115004+15370-015120FM-12+0021GOOG V0202601N003112200019N0100001N1+03311+02291101051ADDGA1001+999999999GF100991001001999999001001MA1999999100822MD1999999-0031REMSYN064AAXX  11154 61627 42960 02606 10331 20229 30082 40105 333 59003;EQDQ01+100823APOSP 
0147616270999992000071209004+15370-015120FM-12+0021GOOG V0202601N002112200019N0100001N1+02611+02241101311ADDGA1001+999999999GF100991001001999999001001MA1999999101081MD1999999+0111REMSYN064AAXX  12094 61627 42960 02604 10261 20224 30108 40131 333 58011;
0183616270999992000071212004+15370-015120FM-12+0021GOOG V0202601N002112200019N0100001N1+03051+02271101341ADDAA199000091GA1001+999999999GF100991001001999999001001MA1999999101111MD1999999+0121REMSYN070AAXX  12124 61627 32960 02604 10305 20227 30111 40134 333 0//00 58012;EQDQ01  00002PRCP99
0159616270999992000071215004+15370-015120FM-12+0021GOOG V0202201N003112200019N0100001N1+03401+02251101161ADDGA1021+069009019GF102991001001999999001021MA1999999100931MD1999999+0111REMSYN076AAXX  12154 61627 42960 22206 10340 20225 30093 40116 80002 333 58011 82073;
0208616270999992000071218004+15370-015120FM-12+0021GOOG V0202201N002112200019N0100001N1+03401+02201101031ADDAA199000091GA1031+069009019GF103991001001999999001021KA1120M+03481MA1999999100801MD1999999+0071REMSYN082AAXX  12184 61627 32960 32204 10340 20220 30080 40103 80002 333 10348 58007 83073;EQDQ01  00002PRCP99
0159616270999992000071309004+15370-015120FM-12+0021GOOG V0203001N002112200019N0100001N1+02601+02251101331ADDGA1021+069009019GF102991001001999999001021MA1999999101101MD1999999+0021REMSYN076AAXX  13094 61627 42960 23004 10260 20225 30110 40133 80002 333 58002 82073;
0195616270999992000071312004+15370-015120FM-12+0021GOOG V0202201N001012200019N0100001N1+03101+02271101371ADDAA199000091GA1021+069009019GF102991001001999999001021MA1999999101141MD1999999+0031REMSYN082AAXX  13124 61627 32960 22202 10310 20227 30114 40137 80002 333 0//00 58003 82073;EQDQ01  00002PRCP99
0159616270999992000071315004+15370-015120FM-12+0021GOOG V0209999C000012200019N0100001N1+03601+02411101221ADDGA1041+069009019GF104991001001999999001021MA1999999100991MD1999999+0061REMSYN076AAXX  13154 61627 42960 40000 10360 20241 30099 40122 80002 333 58006 84073;
0208616270999992000071318004+15370-015120FM-12+0021GOOG V0209999C000012200019N0100001N1+03691+02311101031ADDAA199000091GA1041+069009019GF104991001001999999001021KA1120M+03701MA1999999100801MD1999999+0001REMSYN082AAXX  13184 61627 32960 40000 10369 20231 30080 40103 80002 333 10370 58000 84073;EQDQ01  00002PRCP99
0147616270999992000071409004+15370-015120FM-12+0021GOOG V0202601N002112200019N0100001N1+02801+02401101361ADDGA1001+999999999GF100991001001999999001001MA1999999101131MD1999999+0031REMSYN064AAXX  14094 61627 42960 02604 10280 20240 30113 40136 333 58003;
0147616270999992000071415004+15370-015120FM-12+0021GOOG V0203201N002112200019N0100001N1+03641+02471101051ADDGA1001+999999999GF100991001001999999001001MA1999999100821MD1999999-0171REMSYN064AAXX  14154 61627 42960 03204 10364 20247 30082 40105 333 59017;
0196616270999992000071418004+15370-015120FM-12+0021GOOG V0203201N002112200019N0100001N1+03801+02451100901ADDAA199000091GA1001+999999999GF100991001001999999001001KA1120M+03821MA1999999100671MD1999999-0131REMSYN070AAXX  14184 61627 32960 03204 10380 20245 30067 40090 333 10382 59013;EQDQ01  00002PRCP99
0159616270999992000071509004+15370-015120FM-12+0021GOOG V0202401N003112200019N0100001N1+02801+02491100981ADDGA1021+069009019GF102991001001999999001021MA1999999100751MD1999999-0381REMSYN076AAXX  15094 61627 42960 22406 10280 20249 30075 40098 80002 333 59038 82073;
0195616270999992000071512004+15370-015120FM-12+0021GOOG V0202601N003112200019N0100001N1+03391+02121100911ADDAA199000091GA1031+069009019GF103991001001999999001021MA1999999100681MD1999999-0371REMSYN082AAXX  15124 61627 32960 32606 10339 20212 30068 40091 80002 333 0//00 59037 83073;EQDQ01  00002PRCP99
0159616270999992000071515004+15370-015120FM-12+0021GOOG V0202601N004112200019N0100001N1+03691+02281100631ADDGA1041+039009079GF104991041001999999081001MA1999999100401MD1999999-0421REMSYN076AAXX  15154 61627 42960 42608 10369 20228 30040 40063 84080 333 59042 84363;
0208616270999992000071518004+15370-015120FM-12+0021GOOG V0202601N002110690019N0100001N1+03431+02371100631ADDAA199000091GA1061+069009019GF106991001001999999001021KA1120M+03691MA1999999100401MD1999999-0271REMSYN082AAXX  15184 61627 32960 62604 10343 20237 30040 40063 80002 333 10369 59027 86073;EQDQ01  00002PRCP99
0195616270999992000071612004+15370-015120FM-12+0021GOOG V0202201N004110048019N0100001N1+03161+02361101071ADDAA199000091GA1051+004809059GF106991051051004501031001MA1999999100841MD1999999+0161REMSYN082AAXX  16124 61627 32460 62208 10316 20236 30084 40107 85530 333 0//00 58016 85616;EQDQ01  00002PRCP99
0171616270999992000071615004+15370-015120FM-12+0021GOOG V0202201N003110048019N0100001N1+03411+02381100901ADDGA1051+004809089GF106991051021004501031001MA1999999100671MD1999999+0271REMSYN088AAXX  16154 61627 42460 62206 10341 20238 30067 40090 85230 333 58027 85816 94919 95839;
0208616270999992000071618004+15370-015120FM-12+0021GOOG V0202301N003110450019N0100001N1+03401+02421100821ADDAA199000091GA1041+004809059GF105991041051004501031021KA1120M+03531MA1999999100591MD1999999+0191REMSYN082AAXX  16184 61627 32460 52306 10340 20242 30059 40082 84532 333 10353 58019 84616;EQDQ01  00002PRCP99
0159616270999992000071709004+15370-015120FM-12+0021GOOG V0202401N001012200019N0120001N1+02931+02421101251ADDGA1021+069009019GF102991001001999999001021MA1999999101021MD1999999+0221REMSYN076AAXX  17094 61627 42962 22402 10293 20242 30102 40125 80002 333 58022 82073;
0195616270999992000071712004+15370-015120FM-12+0021GOOG V0202201N002110045019N0100001N1+03251+02541101351ADDAA199000091GA1051+004509029GF105991051051004501001001MA1999999101121MD1999999+0281REMSYN082AAXX  17124 61627 32460 52204 10325 20254 30112 40135 85500 333 0//00 58028 85515;EQDQ01  00002PRCP99
0159616270999992000071715004+15370-015120FM-12+0021GOOG V0201801N003112200019N0100001N1+03501+02551101251ADDGA1041+004509059GF104991041051004501001001MA1999999101621MD1999999+0351REMSYN076AAXX  17154 61627 42460 41806 10350 20255 30162 40125 84500 333 58035 84615;
0258616270999992000071718004+15370-015120FM-12+0021GOOG V0201801N002110690019N0100001N1+03611+02561101141ADDAA199000091GA1041+004509089GA2031+069009009GF105991041051004501001021KA1120M+03611MA1999999100912MD1999999+0321REMSYN100AAXX  17184 61627 32460 51804 10361 20256 30091 40114 84502 333 10361 58032 84815 83073 94919 95879;EQDQ01+100913APOSP Q02  00002PRCP99
0222616270999992000071806004+15370-015120FM-12+0021GOOG V0202601N002119999999N0080001N1+02771+02461101431ADDAA199000091GF106991061001999999071001IA2240+02309KA1120N+02771MA1999999101201MD1999999+0321REMSYN100AAXX  18064 61627 32958 62604 10277 20246 30120 40143 86070 333 02300 20277 50680 55/// 58032 86363;EQDQ01  00002PRCP99
0159616270999992000071809004+15370-015120FM-12+0021GOOG V0203201N002110390019N0100001N1+02901+02471101531ADDGA1051+039009079GF105991051001999999081001MA1999999101301MD1999999+0281REMSYN076AAXX  18094 61627 42960 53204 10290 20247 30130 40153 85080 333 58028 85363;
0195616270999992000071812004+15370-015120FM-12+0021GOOG V0203001N002110690019N0100001N1+03321+02601101481ADDAA199000091GA1061+069009019GF106991001001999999001021MA1999999101251MD1999999+0131REMSYN082AAXX  18124 61627 32960 63004 10332 20260 30125 40148 80002 333 0//00 58013 86073;EQDQ01  00002PRCP99
0193616270999992000071815004+15370-015120FM-12+0021GOOG V0202801N002110048019N0100001N1+03601+02691101401ADDGA1051+004809089GA2061+069009009GF107991051021004501001021MA1999999101171MD1999999+0151REMSYN094AAXX  18154 61627 42460 72804 10360 20269 30117 40140 85202 333 58015 85816 86073 94919 95879;
0242616270999992000071818004+15370-015120FM-12+0021GOOG V0203201N003110690019N0100001N1+03561+02661101261ADDAA199000091GA1041+004809089GA2031+069009009GF106991041021004501031021KA1120M+03701MA1999999101031MD1999999+0121REMSYN100AAXX  18184 61627 32460 63206 10356 20266 30103 40126 84232 333 10370 58012 84816 83073 94913 95873;EQDQ01  00002PRCP99
0159616270999992000071915004+15370-015120FM-12+0021GOOG V0203201N003112200019N0100001N1+03501+02681101081ADDGA1021+004509059GF102991021051004501001001MA1999999100851MD1999999-0321REMSYN076AAXX  19154 61627 42460 23206 10350 20268 30085 40108 82500 333 59032 82615;
0196616270999992000071918004+15370-015120FM-12+0021GOOG V0203201N003112200019N0100001N1+03401+02571100811ADDAA199000091GA1001+999999999GF100991001001999999001001KA1120M+03501MA1999999100581MD1999999-0451REMSYN070AAXX  19184 61627 32960 03206 10340 20257 30058 40081 333 10350 59045;EQDQ01  00002PRCP99
0147616270999992000072003004+15370-015120FM-12+0021GOOG V0202801N003112200019N0080001N1+02821+02171100671ADDGA1001+999999999GF100991001001999999001001MA1999999100481MD1999999-0501REMSYN064AAXX  20034 61627 42958 02806 10282 20217 30048 40067 333 59050;
0222616270999992000072006004+15370-015120FM-12+0021GOOG V0202601N002110042019N0080001N1+02561+02471100781ADDAA199000091GF106991061071004501051001IA2240+02309KA1120N+02561MA1999999100551MD1999999-0511REMSYN100AAXX  20064 61627 32458 62604 10256 20247 30055 40078 86750 333 02300 20256 50650 55/// 59051 86613;EQDQ01  00002PRCP99
0159616270999992000072009004+15370-015120FM-12+0021GOOG V0203201N003112200019N0100001N1+02701+02461100831ADDGA1041+003909059GF104991041051004501001001MA1999999100601MD1999999-0451REMSYN076AAXX  20094 61627 42460 43206 10270 20246 30060 40083 84500 333 59045 84613;
0195616270999992000072012004+15370-015120FM-12+0021GOOG V0209999C000010048019N0100001N1+03051+02561100881ADDAA199000091GA1071+004809059GF107991071051004501999999MA1999999100651MD1999999-0431REMSYN082AAXX  20124 61627 32460 70000 10305 20256 30065 40088 875// 333 0//00 59043 87616;EQDQ01  00002PRCP99
0165616270999992000072015004+15370-015120FM-12+0021GOOG V0201801N002110048019N0100001N1+03281+02481100741ADDGA1051+004809069GF107991051051004501001021MA1999999100511MD1999999-0341REMSYN082AAXX  20154 61627 42460 71804 10328 20248 30051 40074 85502 333 59034 85616 86073;
0214616270999992000072018004+15370-015120FM-12+0021GOOG V0202001N00211009601CN0100001N1+03331+02511100641ADDAA199000091GA1051+009609059GF107991051051004501031021KA1120M+03411MA1999999100411MD1999999-0171REMSYN088AAXX  20184 61627 32460 72004 10333 20251 30041 40064 85532 333 10341 59017 85616 84073;EQDQ01  00002PRCP99
0211616270999992000072112004+15370-015120FM-12+0021GOOG V0201801N002110390019N0100001N1+02321+99999101081ADDAA199000091GA1061+039009079GF199999051001999999081001MA1999999100841MD1999999+0201REMSYN082AAXX  21124 61627 32960 51804 10232 20271 30084 40108 85080 333 0//00 58020 86363;EQDQ01+000052SCOTCVQ02  00002PRCP99
0184616270999992000072115004+15370-015120FM-12+0021GOOG V0201801N002110045019N0100001N1+03502+02831101031ADDGA1061+004509089GF106991051021004501001001MA1999999100801MD1999999+0291REMSYN082AAXX  21154 61627 42460 61804 10350 20283 30080 40103 85200 333 58029 86815 85879;EQDQ01+003503ATOT  
0236616270999992000072118004+15370-015120FM-12+0021GOOG V0202001N002110045019N0100001N1+03551+02811100921ADDAA199000091GA1051+004509089GA2041+005709099GF105991051021004501001001KA1120M+03601MA1999999100691MD1999999+0381REMSYN094AAXX  21184 61627 32460 52004 10355 20281 30069 40092 85200 333 10360 58038 85815 84919 95879;EQDQ01  00002PRCP99
0179616270999992000072203004+15370-015120FM-12+0021GOOG V0201801N003110390019N0080001N1+02331+02331101241ADDAY161031GA1071+039009079GF107991071001999999071999MA1999999101011MD1999999+0311MW1001REMSYN082AAXX  22034 61627 41958 71806 10233 20233 30101 40124 7006/ 8707/ 333 58031 87363;
0235616270999992000072206004+15370-015120FM-12+0021GOOG V0202401N003119999999N0080001N1+02301+02301101131ADDAA124003091AC10I9AY161061GF106991061001999999071001IA2240+02409KA1120N+02301MA1999999100901MD1999999+0181MW1021REMSYN112AAXX  22064 61627 11958 62406 10230 20230 30090 40113 60034 7026/ 86070 333 02414 20230 50670 55/// 58018 86363;
0159616270999992000072209004+15370-015120FM-12+0021GOOG V0209999C000010390019N0100001N1+02421+02361101321ADDGA1071+039009079GF107991071001999999071999MA1999999101091MD1999999+0281REMSYN076AAXX  22094 61627 42960 70000 10242 20236 30109 40132 8707/ 333 58028 87363;
0165616270999992000072215004+15370-015120FM-12+0021GOOG V0202601N00101045001CN0100001N1+03221+02371101131ADDGA1021+003909069GF107991021051004501071999MA1999999100931MD1999999+0131REMSYN082AAXX  22154 61627 42460 72602 10322 20237 30093 40113 8257/ 333 58013 82613 87463;
0264616270999992000072218004+15370-015120FM-12+0021GOOG V0209999C000010690019N0100001N1+03121+02521101121ADDAA199000091GA1021+004809089GA2011+009009099GA3061+069009009GF107991021031004501031021KA1120M+03321MA1999999100891MD1999999+0201REMSYN106AAXX  22184 61627 32460 70000 10312 20252 30089 40112 82332 333 10332 58020 82816 81930 86073 94943 95833;EQDQ01  00002PRCP99
0159616270999992000072309004+15370-015120FM-12+0021GOOG V0203201N002112200019N0100001N1+02711+02581101211ADDGA1011+004509059GF102991011051004501031001MA1999999100981MD1999999-0111REMSYN076AAXX  23094 61627 42460 23204 10271 20258 30098 40121 81530 333 59011 81615;
0195616270999992000072312004+15370-015120FM-12+0021GOOG V0203201N001012200019N0100001N1+03101+02691101241ADDAA199000091GA1041+004509029GF104991041051004501001001MA1999999101011MD1999999-0171REMSYN082AAXX  23124 61627 32460 43202 10310 20269 30101 40124 84500 333 0//00 59017 84815;EQDQ01  00002PRCP99
0159616270999992000072315004+15370-015120FM-12+0021GOOG V0209999C000012200019N0100001N1+03451+02701101031ADDGA1031+004509059GF103991031051004501001001MA1999999100801MD1999999-0131REMSYN076AAXX  23154 61627 42460 30000 10345 20270 30080 40103 83500 333 59013 83615;
0214616270999992000072318004+15370-015120FM-12+0021GOOG V0203601N00211045001CN0100001N1+03491+02611100931ADDAA199000091GA1021+004509069GF105991021051004501081001KA1120M+03551MA1999999100701MD1999999-0191REMSYN088AAXX  23184 61627 32460 53604 10349 20261 30070 40093 82580 333 10355 59019 82615 85363;EQDQ01  00002PRCP99
0159616270999992000072409004+15370-015120FM-12+0021GOOG V0203001N002112200019N0100001N1+02801+02521101181ADDGA1031+069009019GF103991001001999999001021MA1999999100951MD1999999-0031REMSYN076AAXX  24094 61627 42960 33004 10280 20252 30095 40118 80002 333 59003 83073;
0171616270999992000072415004+15370-015120FM-12+0021GOOG V0202401N002112200019N0100001N1+03801+02451100931ADDGA1031+004809089GF103991021021004501001001MA1999999100701MD1999999-0101REMSYN088AAXX  24154 61627 42460 32404 10380 20245 30070 40093 82200 333 59010 83816 94903 95833;
0208616270999992000072418004+15370-015120FM-12+0021GOOG V0202801N002112200019N0100001N1+03681+02231100771ADDAA199000091GA1021+004809029GF102991021051004501001001KA1120M+03801MA1999999100541MD1999999-0161REMSYN082AAXX  24184 61627 32460 22804 10368 20223 30054 40077 82500 333 10380 59016 82816;EQDQ01  00002PRCP99
0222616270999992000072506004+15370-015120FM-12+0021GOOG V0209999C000010042019N0080001N1+02711+02601100931ADDAA199000091GF107991071051004501999999IA2240+02309KA1120N+02711MA1999999100701MD1999999-0201REMSYN100AAXX  25064 61627 32458 70000 10271 20260 30070 40093 875// 333 02300 20271 50870 55/// 59020 87613;EQDQ01  00002PRCP99
0165616270999992000072509004+15370-015120FM-12+0021GOOG V0202201N001010039019N0100001N1+02801+02491101031ADDGA1051+003909069GF107991051051004501071999MA1999999100801MD1999999-0151REMSYN082AAXX  25094 61627 42460 72202 10280 20249 30080 40103 8557/ 333 59015 85613 87463;
0201616270999992000072512004+15370-015120FM-12+0021GOOG V0202601N00101045001CN0100001N1+03201+02531101031ADDAA199000091GA1041+004509089GF106991041051004501081001MA1999999100801MD1999999-0101REMSYN088AAXX  25124 61627 32460 62602 10320 20253 30080 40103 84580 333 0//00 59010 84815 84363;EQDQ01  00002PRCP99
0171616270999992000072515004+15370-015120FM-12+0021GOOG V0201801N002110045019N0100001N1+03601+02491100721ADDGA1051+004509089GF105991051021004501001001MA1999999100691MD1999999-0011REMSYN088AAXX  25154 61627 42460 51804 10360 20249 30069 40072 85200 333 59001 85815 94919 95879;
0257616270999992000072518004+15370-015120FM-12+0021GOOG V0201801N002110390019N0100001N1+03001+02601100801ADDAA112002091AY191061AY261061GA1031+009009029GA2061+039009049GF107991031091008001071999KA1120M+03701MA1999999100571MD1999999+0031MW1171REMSYN112AAXX  25184 61627 11560 71804 10300 20260 30057 40080 60022 71796 8397/ 333 10370 58003 83230 86463 94946 95876;
0159616270999992000072609004+15370-015120FM-12+0021GOOG V0209999C000010390019N0100001N1+02651+02511101121ADDGA1081+039009019GF108991081001999999071999MA1999999100891MD1999999+0091REMSYN076AAXX  26094 61627 42960 80000 10265 20251 30089 40112 8807/ 333 58009 88463;
0207616270999992000072612004+15370-015120FM-12+0021GOOG V0202001N002110048019N0100001N1+03201+02411101161ADDAA199000091GA1061+004809089GF106991061021004501031001MA1999999100931MD1999999+0131REMSYN094AAXX  26124 61627 32460 62004 10320 20241 30093 40116 86230 333 0//00 58013 86816 94919 95879;EQDQ01  00002PRCP99
0171616270999992000072615004+15370-015120FM-12+0021GOOG V0201801N002110048019N0100001N1+03401+02431100991ADDGA1051+004809089GF105991051021004501001001MA1999999100761MD1999999+0071REMSYN088AAXX  26154 61627 42460 51804 10340 20243 30076 40099 85200 333 58007 85816 94919 95879;
0220616270999992000072618004+15370-015120FM-12+0021GOOG V0201801N001010048019N0100001N1+03501+02371100791ADDAA199000091GA1051+004809089GF105991051021004501001001KA1120M+03501MA1999999100561MD1999999-0011REMSYN094AAXX  26184 61627 32460 51802 10350 20237 30056 40079 85200 333 10350 59001 85816 94919 95879;EQDQ01  00002PRCP99
0235616270999992000072706004+15370-015120FM-12+0021GOOG V0209999C000019999999N0080001N1+02501+02471101081ADDAA124005191AC11C9AY161061GF108991081001999999071999IA2240+02109KA1120N+02501MA1999999100851MD1999999+0121MW1601REMSYN112AAXX  27064 61627 11958 80000 10250 20247 30085 40108 60054 7606/ 8807/ 333 02111 20250 50380 55/// 58012 88462;
0193616270999992000072709004+15370-015120FM-12+0021GOOG V0202201N001010039019N0100001N1+02631+02521101161ADDAY161031AY221031GA1061+003909069GF107991061051004501071999MA1999999100931MD1999999+0041MW1021REMSYN088AAXX  27094 61627 41460 72202 10263 20252 30093 40116 70262 8657/ 333 58004 86613 87463;
0214616270999992000072712004+15370-015120FM-12+0021GOOG V0202601N00211045001CN0100001N1+02901+02481101321ADDAA106000791AC12I9AY161061GA1041+004509069GF108991041051004501071999MA1999999101091MD1999999+0161MW1001REMSYN100AAXX  27124 61627 11460 82604 10290 20248 30109 40132 69901 7006/ 8457/ 333 0//16 58016 84615 88463;
0171616270999992000072715004+15370-015120FM-12+0021GOOG V0203201N002110045019N0100001N1+03101+02541101151ADDGA1061+004509089GF106991061021004501001001MA1999999100921MD1999999+0161REMSYN088AAXX  27154 61627 42460 63204 10310 20254 30092 40115 86200 333 58016 86815 94919 95879;
0207616270999992000072718004+15370-015120FM-12+0021GOOG V0203201N002110045019N0100001N1+03151+02531101021ADDAA112000791GA1061+004509089GF106991061021004501001001KA1120M+03181MA1999999100791MD1999999+0231REMSYN100AAXX  27184 61627 12460 63204 10315 20253 30079 40102 69902 86200 333 10318 58023 86815 94919 95879;
0165616270999992000072809004+15370-015120FM-12+0021GOOG V0203001N001010030019N0100001N1+02601+02531101221ADDGA1061+003009079GF108991061071004501021999MA1999999100991MD1999999+0061REMSYN082AAXX  28094 61627 42460 83002 10260 20253 30099 40122 8672/ 333 58006 86710 88462;
0165616270999992000072815004+15370-015120FM-12+0021GOOG V0203001N00101045001CN0100001N1+03101+02431101071ADDGA1031+004509069GF107991031051004501031021MA1999999100841MD1999999-0081REMSYN082AAXX  28154 61627 42460 73002 10310 20243 30084 40107 83532 333 59008 83615 87073;
0264616270999992000072818004+15370-015120FM-12+0021GOOG V0203201N002110690019N0100001N1+03201+02441100911ADDAA199000091GA1031+004809089GA2011+009009099GA3051+069009009GF106991031031004501031021KA1120M+03201MA1999999100681MD1999999-0111REMSYN106AAXX  28184 61627 32460 63204 10320 20244 30068 40091 83332 333 10320 59011 83816 81930 85073 94943 95833;EQDQ01  00002PRCP99
0159616270999992000072909004+15370-015120FM-12+0021GOOG V0203201N002110690019N0100001N1+02631+02441100841ADDGA1051+069009019GF105991001001999999001021MA1999999100611MD1999999-0381REMSYN076AAXX  29094 61627 42960 53204 10263 20244 30061 40084 80002 333 59038 85073;
0206616270999992000073009004+15370-015120FM-12+0021GOOG V0209999C000010390019N0100001N1+02551+02481100781ADDAY191031AY261031GA1061+039009019GF106991061001999999071999MA1999999100551MD1999999-0061MW1021REMSYN082AAXX  30094 61627 41960 60000 10255 20248 30055 40078 70296 86070 333 59006 86463;EQDQ01+000002SCOHCG
0193616270999992000073015004+15370-015120FM-12+0021GOOG V0201801N002110048019N0120001N1+03131+02501100851ADDGA1051+004809089GA2031+069009009GF106991051021004501001021MA1999999100621MD1999999+0121REMSYN094AAXX  30154 61627 42462 61804 10313 20250 30062 40085 85202 333 58012 85816 83073 94919 95839;
0207616270999992000073018004+15370-015120FM-12+0021GOOG V0201401N002111050019N0120001N1+03201+02501100831ADDAA112003091GA1041+004809089GF105991041021004501001021KA1120M+03201MA1999999100601MD1999999+0201REMSYN100AAXX  30184 61627 12462 51404 10320 20250 30060 40083 60032 84202 333 10320 58020 84816 94914 95874;
0209616270999992000073106004+15370-015120FM-12+0021GOOG V0209999C000012200019N0080001N1+02531+02491101121ADDAA124003091GF101991011001999999031001IA2240+02009KA1120N+02531MA1999999100891MD1999999+0241REMSYN106AAXX  31064 61627 12958 10000 10253 20249 30089 40112 60034 81030 333 02019 20253 50700 55/// 58024 81363;
0165616270999992000073109004+15370-015120FM-12+0021GOOG V0202201N00211105001CN0100001N1+02621+02491101181ADDGA1021+003909069GF105991021051004501031021MA1999999100951MD1999999+0401REMSYN082AAXX  31094 61627 42460 52204 10262 20249 30095 40118 82532 333 58040 82613 84363;
0195616270999992000073112004+15370-015120FM-12+0021GOOG V0201801N002110045019N0100001N1+02851+02551101301ADDAA199000091GA1061+004509029GF106991061051004501001001MA1999999101071MD1999999+0351REMSYN082AAXX  31124 61627 32460 61804 10285 20255 30107 40130 86500 333 0//00 58035 86815;EQDQ01  00002PRCP99
0171616270999992000073115004+15370-015120FM-12+0021GOOG V0202201N002110045019N0100001N1+03001+02541101131ADDGA1061+004509089GF106991061021004501001001MA1999999100901MD1999999+0281REMSYN088AAXX  31154 61627 42460 62204 10300 20254 30090 40113 86200 333 58028 86815 94919 95879;
0214616270999992000073118004+15370-015120FM-12+0021GOOG V0202201N00211045001CN0100001N1+03061+02561100941ADDAA199000091GA1021+004509069GF107991021051004501071999KA1120M+03151MA1999999100711MD1999999+0111REMSYN088AAXX  31184 61627 32460 72204 10306 20256 30071 40094 8257/ 333 10315 58011 82615 87463;EQDQ01  00002PRCP99
0201616270999992000080112004+15370-015120FM-12+0021GOOG V0202001N002110039019N0100001N1+02841+02501101251ADDAA199000091GA1061+003909069GF107991061051004501071999MA1999999101011MD1999999-0061REMSYN088AAXX  01124 61627 32460 72004 10284 20250 30101 40125 8657/ 333 0//00 59006 86613 87463;EQDQ01  00002PRCP99
0193616270999992000080115004+15370-015120FM-12+0021GOOG V0202201N00211045001CN0100001N1+02751+02541101281ADDAY161031AY221031GA1041+006009069GF108991041051008001071999MA1999999101201MD1999999+0031MW1601REMSYN088AAXX  01154 61627 41560 82204 10275 20254 30120 40128 76062 8457/ 333 58003 84620 87463;
0229616270999992000080118004+15370-015120FM-12+0021GOOG V0202201N00211045001CN0100001N1+02781+02481101101ADDAA112001091AY161061AY221061GA1041+003009079GF107991041071004501071999KA1120M+02871MA1999999100851MD1999999+0161MW1601REMSYN100AAXX  01184 61627 11460 72204 10278 20248 30085 40110 60012 76062 8477/ 333 10287 58016 84710 87462;
0147616270999992000080209004+15370-015120FM-12+0021GOOG V0209999C000012200019N0100001N1+02571+02441101281ADDGA1001+999999999GF100991001001999999001001MA1999999101041MD1999999+0091REMSYN064AAXX  02094 61627 42960 00000 10257 20244 30104 40128 333 58009;
0195616270999992000080212004+15370-015120FM-12+0021GOOG V0203201N001012200019N0100001N1+02901+02521101321ADDAA199000091GA1041+004509059GF104991041051004501001001MA1999999101081MD1999999+0071REMSYN082AAXX  02124 61627 32460 43202 10290 20252 30108 40132 84500 333 0//00 58007 84615;EQDQ01  00002PRCP99
0159616270999992000080215004+15370-015120FM-12+0021GOOG V0203201N002110045019N0100001N1+03141+02531101131ADDGA1051+004509059GF105991051051004501001001MA1999999100901MD1999999+0001REMSYN076AAXX  02154 61627 42460 53204 10314 20253 30090 40113 85500 333 58000 85615;
0208616270999992000080218004+15370-015120FM-12+0021GOOG V0209999C000010045019N0100001N1+03201+02571101121ADDAA199000091GA1051+004509059GF105991051071004501001001KA1120M+03211MA1999999100891MD1999999+0021REMSYN082AAXX  02184 61627 32460 50000 10320 20257 30089 40112 85700 333 10321 58002 85615;EQDQ01  00002PRCP99
0159616270999992000080315004+15370-015120FM-12+0021GOOG V0201401N002112200019N0100001N1+03151+02521101181ADDGA1041+039009079GF104991041001999999031001MA1999999100951MD1999999+0051REMSYN076AAXX  03154 61627 42960 41404 10315 20252 30095 40118 84030 333 58005 84363;
0201616270999992000080318004+15370-015120FM-12+0021GOOG V0201401N002112200019N0100001N1+03221+02511101071ADDAA112002091GA1021+039009039GF104991021001999999031021KA1120M+03221MA1999999100841MD1999999-0051REMSYN094AAXX  03184 61627 12960 41404 10322 20251 30084 40107 60022 82032 333 10322 59005 82363 83073;
0199616270999992000080406004+15370-015120FM-12+0021GOOG V0202001N001012200019N0080001N1+02491+02481101291ADDAA124002091GA1001+999999999GF100991001001999999001001IA2240+01809KA1120N+02491MA1999999101061REMSYN094AAXX  04064 61627 12958 02002 10249 20248 30106 40129 60024 333 01819 20249 50310 55/// 58016;
0159616270999992000080409004+15370-015120FM-12+0021GOOG V0201601N001012200019N0100001N1+02801+02431101411ADDGA1041+039009079GF104991041001999999031001MA1999999101181MD1999999+0071REMSYN076AAXX  04094 61627 42960 41602 10280 20243 30118 40141 84030 333 58007 84363;
0201616270999992000080412004+15370-015120FM-12+0021GOOG V0201601N001010048019N0100001N1+03001+02431101501ADDAA199000091GA1061+004809089GF106991061021004501001001MA1999999101271MD1999999+0321REMSYN088AAXX  04124 61627 32460 61602 10300 20243 30127 40150 86200 333 0//00 58032 86816 94903;EQDQ01  00002PRCP99
0187616270999992000080415004+15370-015120FM-12+0021GOOG V0201801N001010390019N0120001N1+03201+02531101331ADDGA1041+005109089GA2031+039009039GF105991051021004501031001MA1999999101101MD1999999+0151REMSYN088AAXX  04154 61627 42462 51802 10320 20253 30110 40133 85230 333 58015 84817 83363 94919;
0214616270999992000080418004+15370-015120FM-12+0021GOOG V0202201N001012200019N0120001N1+03261+02411101221ADDAA199000091GA1031+005109089GF104991031021004501031011KA1120M+03261MA1999999100991MD1999999+0151REMSYN088AAXX  04184 61627 32462 42202 10326 20241 30099 40122 83231 333 10326 58015 83817 94919;EQDQ01  00002PRCP99
0241616270999992000080500004+15370-015120FM-12+0021GOOG V0202201N001012200019N0080001N1+02851+02601101481ADDAA199000091GA1011+009009099GA2031+039009039GF103991011031008001031001MA1999999101251MD1999999+0151MW1131REMSYN106AAXX  05004 61627 31558 32202 10285 20260 30125 40148 713// 81330 333 0//00 58015 81930 83363 94948 95818;EQDQ01  00002PRCP99
0207616270999992000080503004+15370-015120FM-12+0021GOOG V0203601N003110390019N0070001N1+02331+02151101401ADDAY191031GA1021+008409099GA2081+039009039GF108991999999008001999999MA1999999101171MD1999999+0221MW1951REMSYN094AAXX  05034 61627 41557 83606 10233 20215 30117 40140 7959/ 333 58022 82928 88363 94948 95878;
0245616270999992000080506004+15370-015120FM-12+0021GOOG V0209999C00001045001CN0080001N1+02261+02261101391ADDAA124014091AC10I9AY191061GA1041+001509079GF108991041071001501021999IA2240+02009KA1120N+02101MA1999999101161MD1999999+0101MW1911REMSYN106AAXX  05064 61627 11258 80000 10226 20226 30116 40139 60144 7919/ 8472/ 333 02064 20210 58010 84705 88462;
0193616270999992000080509004+15370-015120FM-12+0021GOOG V0200601N00211045001CN0100001N1+02381+02351101531ADDAY161031AY221031GA1031+001809079GF108991031061002501071999MA1999999101291MD1999999+0111MW1031REMSYN088AAXX  05094 61627 41360 80604 10238 20235 30129 40153 70362 8367/ 333 58011 83706 88463;
0222616270999992000080512004+15370-015120FM-12+0021GOOG V0201801N00101045001CN0120001N1+02951+02621101531ADDAA106000191AC12I9AY161061AY221061GA1021+004509069GF106991021051004501071011MA1999999101301MD1999999+0031MW1031REMSYN100AAXX  05124 61627 11462 61802 10295 20262 30130 40153 69921 70362 82571 333 0//56 58003 82615 85463;
0165616270999992000080515004+15370-015120FM-12+0021GOOG V0209999C00001105001CN0100001N1+03251+02631101391ADDGA1011+004509069GF106991021051004501001021MA1999999101161MD1999999+0061REMSYN082AAXX  05154 61627 42460 60000 10325 20263 30116 40139 82502 333 58006 81615 85073;
0201616270999992000080518004+15370-015120FM-12+0021GOOG V0209999C00001105001CN0100001N1+03301+02611101311ADDAA112000191GA1031+004509069GF105991031051004501001021KA1120M+03351MA1999999101081MD1999999+0091REMSYN094AAXX  05184 61627 12460 50000 10330 20261 30108 40131 69922 83502 333 10335 58009 83615 83073;
0139616270999992000080609004+15370-015120FM-12+0021GOOG V0203201N002112200019N0100001N1+02701+02561101261ADDGA1001+999999999GF100991001001999999001001IA1299MA1999999101031REMSYN064AAXX  06094 61627 42960 03204 10270 20256 30103 40126 333 49026;
0195616270999992000080612004+15370-015120FM-12+0021GOOG V0203201N002112200019N0100001N1+03101+02541101241ADDAA199000091GA1021+069009019GF102991001001999999001021MA1999999101011MD1999999-0291REMSYN082AAXX  06124 61627 32960 23204 10310 20254 30101 40124 80002 333 0//00 59029 82073;EQDQ01  00002PRCP99
0159616270999992000080615004+15370-015120FM-12+0021GOOG V0202401N002112200019N0100001N1+03301+02521101131ADDGA1041+004809059GF104991041051004501001001MA1999999100901MD1999999-0261REMSYN076AAXX  06154 61627 42460 42404 10330 20252 30090 40113 84500 333 59026 84616;
0208616270999992000080618004+15370-015120FM-12+0021GOOG V0202401N002112200019N0100001N1+03341+02441101031ADDAA199000091GA1041+004809059GF104991041051004501001001KA1120M+03361MA1999999100801MD1999999-0281REMSYN082AAXX  06184 61627 32460 42404 10334 20244 30080 40103 84500 333 10336 59028 84616;EQDQ01  00002PRCP99
0159616270999992000080709004+15370-015120FM-12+0021GOOG V0202201N001010039019N0100001N1+02651+02541101121ADDGA1061+003909059GF106991061051004501001001MA1999999100891MD1999999-0141REMSYN076AAXX  07094 61627 42460 62202 10265 20254 30089 40112 86500 333 59014 86613;
0195616270999992000080712004+15370-015120FM-12+0021GOOG V0202201N002110048019N0100001N1+03021+02471101141ADDAA199000091GA1071+004809059GF107991071051004501999999MA1999999100911MD1999999-0101REMSYN082AAXX  07124 61627 32460 72204 10302 20247 30091 40114 875// 333 0//00 59010 87616;EQDQ01  00002PRCP99
0183616270999992000080800004+15370-015120FM-12+0021GOOG V0209999C000012200019N0080001N1+02821+02441101221ADDAA199000091GA1001+999999999GF100991001001999999001001MA1999999100991MD1999999+0021REMSYN070AAXX  08004 61627 32958 00000 10282 20244 30099 40122 333 0//00 58002;EQDQ01  00002PRCP99
0159616270999992000080809004+15370-015120FM-12+0021GOOG V0202201N001012200019N0100001N1+02701+02541101211ADDGA1031+069009019GF103991001001999999001021MA1999999100981MD1999999+0091REMSYN076AAXX  08094 61627 42960 32202 10270 20254 30098 40121 80002 333 58009 83073;
0195616270999992000080912004+15370-015120FM-12+0021GOOG V0201401N001012200019N0100001N1+03201+02371101421ADDAA199000091GA1021+039009079GF103991021001999999031021MA1999999101191MD1999999+0111REMSYN082AAXX  09124 61627 32960 31402 10320 20237 30119 40142 82032 333 0//00 58011 82363;EQDQ01  00002PRCP99
0214616270999992000080918004+15370-015120FM-12+0021GOOG V0201401N001012200019N0120001N1+03381+02321101161ADDAA199000091GA1011+004809069GF103991011051004501001021KA1120M+03431MA1999999100931MD1999999-0071REMSYN088AAXX  09184 61627 32462 31402 10338 20232 30093 40116 81502 333 10343 59007 81616 83073;EQDQ01  00002PRCP99
0195616270999992000081012004+15370-015120FM-12+0021GOOG V0202401N002112200019N0100001N1+03201+02561101401ADDAA199000091GA1021+004809059GF102991021051004501001001MA1999999101171MD1999999-0021REMSYN082AAXX  10124 61627 32460 22404 10320 20256 30117 40140 82500 333 0//00 59002 82616;EQDQ01  00002PRCP99
0235616270999992000081106004+15370-015120FM-12+0021GOOG V0201801N001019999999N0080001N1+02361+02181101171ADDAA124009991AC12I9AY191061GF108991081001004501071999IA2240+02409KA1120N+02221MA1999999100941MD1999999-0091MW1021REMSYN112AAXX  11064 61627 11458 81802 10236 20218 30094 40117 60104 7029/ 8807/ 333 02456 20222 50450 55/// 59009 88463;
0159616270999992000081109004+15370-015120FM-12+0021GOOG V0209999C000010390019N0100001N1+02601+02311101321ADDGA1061+039009079GF106991061001999999071001MA1999999101081MD1999999-0021REMSYN076AAXX  11094 61627 42960 60000 10260 20231 30108 40132 86070 333 59002 86363;
0195616270999992000081112004+15370-015120FM-12+0021GOOG V0209999C000010390019N0120001N1+03001+02451101381ADDAA199000091GA1061+039009079GF106991061001999999071001MA1999999101151MD1999999-0021REMSYN082AAXX  11124 61627 32962 60000 10300 20245 30115 40138 86070 333 0//00 59002 86363;EQDQ01  00002PRCP99
0165616270999992000081115004+15370-015120FM-12+0021GOOG V0209999C00001045001CN0120001N1+03201+02501101241ADDGA1031+004509069GF106991031051004501081001MA1999999101011MD1999999-0061REMSYN082AAXX  11154 61627 42462 60000 10320 20250 30101 40124 83580 333 59006 83615 85363;
0208616270999992000081118004+15370-015120FM-12+0021GOOG V0209999C000012200019N0120001N1+03291+02541101101ADDAA199000091GA1021+039009079GF103991021001999999031021KA1120M+03291MA1999999100871MD1999999-0101REMSYN082AAXX  11184 61627 32962 30000 10329 20254 30087 40110 82032 333 10329 59010 82363;EQDQ01  00002PRCP99
0212616270999992000081206004+15370-015120FM-12+0021GOOG V0209999C000012200019N0080001N1+02511+02451101121ADDAA199000091GA1001+999999999GF100991001001999999001001IA2240+02109KA1120N+02511MA1999999100891REMSYN088AAXX  12064 61627 32958 00000 10251 20245 30089 40112 333 02100 20251 50430 55/// 59005;EQDQ01  00002PRCP99
0147616270999992000081209004+15370-015120FM-12+0021GOOG V0209999C000012200019N0100001N1+02791+02521101221ADDGA1001+999999999GF100991001001999999001001MA1999999100991MD1999999-0091REMSYN064AAXX  12094 61627 42960 00000 10279 20252 30099 40122 333 59009;
0195616270999992000081212004+15370-015120FM-12+0021GOOG V0201001N002112200019N0120001N1+03201+02571101241ADDAA199000091GA1031+004509059GF103991031051004501001001MA1999999101011MD1999999-0141REMSYN082AAXX  12124 61627 32462 31004 10320 20257 30101 40124 83500 333 0//00 59014 83615;EQDQ01  00002PRCP99
0159616270999992000081315004+15370-015120FM-12+0021GOOG V0201801N002112200019N0120001N1+03501+02571101131ADDGA1011+004509059GF102991011051004501001021MA1999999100901MD1999999+0151REMSYN076AAXX  13154 61627 42462 21804 10350 20257 30090 40113 81502 333 58015 81615;
0183616270999992000081318004+15370-015120FM-12+0021GOOG V0201601N002112200019N0120001N1+03401+02571101051ADDAA112002091GA1001+999999999GF100991001001999999001001KA1120M+03421MA1999999100821MD1999999+0151REMSYN076AAXX  13184 61627 12962 01604 10340 20257 30082 40105 60022 333 10342 58015;
0195616270999992000081412004+15370-015120FM-12+0021GOOG V0202201N004112200019N0100001N1+03201+02611101421ADDAA199000091GA1041+004509059GF104991041051004501001001MA1999999101191MD1999999+0191REMSYN082AAXX  14124 61627 32460 42208 10320 20261 30119 40142 84500 333 0//00 58019 84615;EQDQ01  00002PRCP99
0171616270999992000081415004+15370-015120FM-12+0021GOOG V0202401N003112200019N0120001N1+03401+02521101271ADDGA1041+004809089GF104991041021004501001001MA1999999101041MD1999999+0141REMSYN088AAXX  14154 61627 42462 42406 10340 20252 30104 40127 84200 333 58014 84816 94913 95833;
0290616270999992000081418004+15370-015120FM-12+0021GOOG V0202001N002110360019N0080001N1+02112+02111101261ADDAA112024991AY191061GA1021+001509079GA2011+009009099GA3081+036009049GF108991021091001501021999KA1120M+03441MA1999999101021MD1999999+0201MW1951REMSYN118AAXX  14184 61627 11258 82004 10211 20211 30102 40126 60252 7959/ 8292/ 333 10344 58020 82705 81930 88462 94944 95874;EQDQ01+002113ATOT  
0165616270999992000081509004+15370-015120FM-12+0021GOOG V0209999C000012200019N0100001N1+02501+02361101341ADDGA1011+004509069GF103991011051004501031001MA1999999101101MD1999999-0011REMSYN082AAXX  15094 61627 42460 30000 10250 20236 30110 40134 81530 333 59001 81615 83363;
0195616270999992000081512004+15370-015120FM-12+0021GOOG V0202401N002110450019N0120001N1+03001+02581101341ADDAA199000091GA1041+004809059GF105991041051004501031001MA1999999101101MD1999999-0091REMSYN082AAXX  15124 61627 32462 52404 10300 20258 30110 40134 84530 333 0//00 59009 84616;EQDQ01  00002PRCP99
0159616270999992000081515004+15370-015120FM-12+0021GOOG V0202201N001010048019N0120001N1+03201+02651101241ADDGA1051+004809059GF105991051051004501001001MA1999999101001MD1999999-0041REMSYN076AAXX  15154 61627 42462 52202 10320 20265 30100 40124 85500 333 59004 85616;
0220616270999992000081518004+15370-015120FM-12+0021GOOG V0209999C000010048019N0120001N1+03301+02611101051ADDAA199000091GA1051+004809089GF105991051021004501001001KA1120M+03311MA1999999100821MD1999999-0201REMSYN094AAXX  15184 61627 32462 50000 10330 20261 30082 40105 85200 333 10331 59020 85816 94919 95879;EQDQ01  00002PRCP99
0212616270999992000081606004+15370-015120FM-12+0021GOOG V0209999C000012200019N0080001N1+02601+02531101151ADDAA199000091GA1001+999999999GF100991001001999999001001IA2240+02009KA1120N+02601MA1999999100921REMSYN088AAXX  16064 61627 32958 00000 10260 20253 30092 40115 333 02000 20260 50450 55/// 59017;EQDQ01  00002PRCP99
0201616270999992000081612004+15370-015120FM-12+0021GOOG V0209999C00001045001CN0100001N1+03091+02561101231ADDAA199000091GA1031+004509069GF105991031021004501081001MA1999999101001MD1999999-0101REMSYN088AAXX  16124 61627 32460 50000 10309 20256 30100 40123 83280 333 0//00 59010 83615 83363;EQDQ01  00002PRCP99
0187616270999992000081615004+15370-015120FM-12+0021GOOG V0200401N001010390019N0120001N1+03201+02621101121ADDGA1041+005409089GA2071+039009039GF107991041021004501071999MA1999999100891MD1999999-0111REMSYN088AAXX  16154 61627 42462 70402 10320 20262 30089 40112 8427/ 333 59011 84818 87363 94912;
0208616270999992000081618004+15370-015120FM-12+0021GOOG V0209999C000010390019N0120001N1+03201+02621100951ADDAA199000091GA1061+039009079GF106991061001999999071001KA1120M+03221MA1999999100721MD1999999-0101REMSYN082AAXX  16184 61627 32962 60000 10320 20262 30072 40095 86070 333 10322 59010 86363;EQDQ01  00002PRCP99
0195616270999992000081700004+15370-015120FM-12+0021GOOG V0209999C000010390019N0080001N1+02901+02711101171ADDAA199000091GA1051+039009079GF105991051001999999071001MA1999999100941MD1999999-0081REMSYN082AAXX  17004 61627 32958 50000 10290 20271 30094 40117 85070 333 0//00 59008 85363;EQDQ01  00002PRCP99
0159616270999992000081703004+15370-015120FM-12+0021GOOG V0209999C000010390019N0080001N1+02721+02601101101ADDGA1071+039009079GF107991071001999999071999MA1999999100871MD1999999-0111REMSYN076AAXX  17034 61627 42958 70000 10272 20260 30087 40110 8707/ 333 59011 87363;
0244616270999992000081706004+15370-015120FM-12+0021GOOG V0202201N001010450019N0080001N1+02701+02631101111ADDAA199000091GA1041+003009079GF108991041061004501071999IA2240+02309KA1120N+02701MA1999999100881MD1999999-0041REMSYN106AAXX  17064 61627 32458 82202 10270 20263 30088 40111 8467/ 333 02300 20270 50350 55/// 59004 84710 87363;EQDQ01  00002PRCP99
0159616270999992000081709004+15370-015120FM-12+0021GOOG V0202001N001012200019N0100001N1+02801+02591101171ADDGA1031+039009079GF103991031001999999071001MA1999999100941MD1999999-0051REMSYN076AAXX  17094 61627 42960 32002 10280 20259 30094 40117 83070 333 59005 83363;
0201616270999992000081712004+15370-015120FM-12+0021GOOG V0202601N001012200019N0120001N1+03131+02601101231ADDAA199000091GA1041+005409089GF104991041021004501001001MA1999999101001MD1999999+0001REMSYN088AAXX  17124 61627 32462 42602 10313 20260 30100 40123 84200 333 0//00 58000 84818 94919;EQDQ01  00002PRCP99
0171616270999992000081715004+15370-015120FM-12+0021GOOG V0202201N002112200019N0120001N1+03301+02671101111ADDGA1041+004809089GF104991041021004501001001MA1999999100881MD1999999-0011REMSYN088AAXX  17154 61627 42462 42204 10330 20267 30088 40111 84200 333 59001 84816 94919 95879;
0208616270999992000081718004+15370-015120FM-12+0021GOOG V0202201N002112200019N0120001N1+03251+02611101031ADDAA199000091GA1021+004809059GF102991021051004501001001KA1120M+03301MA1999999100801MD1999999+0051REMSYN082AAXX  17184 61627 32462 22204 10325 20261 30080 40103 82500 333 10330 58005 82616;EQDQ01  00002PRCP99
0147616270999992000081721004+15370-015120FM-12+0021GOOG V0209999C000012200019N0080001N1+03001+02581101031ADDGA1001+999999999GF100991001001999999001001MA1999999100801MD1999999-0021REMSYN064AAXX  17214 61627 42958 00000 10300 20258 3008/ 40103 333 59002;
0195616270999992000081800004+15370-015120FM-12+0021GOOG V0202201N001010390019N0080001N1+02901+02621101221ADDAA199000091GA1071+039009079GF107991071001999999071999MA1999999100991MD1999999+0051REMSYN082AAXX  18004 61627 32958 72202 10290 20262 30099 40122 8707/ 333 0//00 58005 87363;EQDQ01  00002PRCP99
0222616270999992000081806004+15370-015120FM-12+0021GOOG V0209999C000019999999N0080001N1+02651+02581101131ADDAA199000091GF107991071001999999071999IA2240+01909KA1120N+02651MA1999999100901MD1999999+0021REMSYN100AAXX  18064 61627 32958 70000 10265 20258 30090 40113 8707/ 333 01900 20265 50500 55/// 58002 87363;EQDQ01  00002PRCP99
0159616270999992000081809004+15370-015120FM-12+0021GOOG V0209999C000010390019N0100001N1+02751+02601101311ADDGA1051+039009079GF105991051001001501071001MA1999999101081MD1999999+0141REMSYN076AAXX  18094 61627 42260 50000 10275 20260 30108 40131 85070 333 58014 85363;
0187616270999992000081815004+15370-015120FM-12+0021GOOG V0202601N001010690019N0120001N1+03181+02601999999ADDGA1021+004809089GA2041+069009009GF106991021021004501031021MA1999999100821MD1999999-0061REMSYN088AAXX  18154 61627 42462 62602 10318 20260 30082 82232 333 59006 82816 84073 94915 95835;
0214616270999992000081818004+15370-015120FM-12+0021GOOG V0202601N00101045001CN0120001N1+03161+02591100831ADDAA199000091GA1011+004809089GF107991011051004501071999KA1120M+03311MA1999999100601MD1999999-0201REMSYN088AAXX  18184 61627 32462 72602 10316 20259 30060 40083 8157/ 333 10331 59020 81816 87463;EQDQ01  00002PRCP99
0165616270999992000081909004+15370-015120FM-12+0021GOOG V0209999C000019999999N0100001N1+02721+02591101171ADDGA1021+004509069GF106991021051999999031001MA1999999100941MD1999999-0141REMSYN082AAXX  19094 61627 42960 60000 10272 20259 30094 40117 82530 333 59014 82615 85363;
0207616270999992000081912004+15370-015120FM-12+0021GOOG V0209999C000010048019N0100001N1+03101+02601101271ADDAA199000091GA1061+004809089GF106991061021004501001001MA1999999101041MD1999999-0011REMSYN094AAXX  19124 61627 32460 60000 10310 20260 30104 40127 86200 333 0//00 59001 86816 94919 95879;EQDQ01  00002PRCP99
0165616270999992000081915004+15370-015120FM-12+0021GOOG V0209999C000010054019N0120001N1+03301+02611101131ADDGA1051+005409089GF105991051021004501001011MA1999999100901MD1999999+0081REMSYN082AAXX  19154 61627 42462 50000 10330 20261 30090 40113 85201 333 58008 85818 94919;
0236616270999992000081918004+15370-015120FM-12+0021GOOG V0200801N002112200019N0120001N1+03381+02501101031ADDAA199000091GA1031+004809089GA2031+069009009GF104991031011004501001011KA1120M+03381MA1999999100801MD1999999+0201REMSYN094AAXX  19184 61627 32462 40804 10338 20250 30080 40103 83101 333 10338 58020 83816 83073 94904;EQDQ01  00002PRCP99
0307616270999992000082006004+15370-015120FM-12+0021GOOG V0201801N00101036001CN0070001N1+02561+02521101331ADDAA124002091AC10I9AY191061GA1021+001809079GA2021+008409099GA3081+036009049GF108991041031002501021999IA2240+02309KA1120N+02561MA1999999101101MD1999999+0251MW1911REMSYN136AAXX  20064 61627 11357 81802 10256 20252 30110 40133 60024 7919/ 8432/ 333 02354 20256 50600 55/// 58025 82706 82928 88462 94946 95876;
0187616270999992000082009004+15370-015120FM-12+0021GOOG V0209999C000010390019N0100001N1+02601+02521101401ADDAY161031AY221031GA1081+039009019GF108991081001999999071999MA1999999101171MD1999999+0231MW1011REMSYN082AAXX  20094 61627 41960 80000 10260 20252 30117 40140 70162 8807/ 333 58023 88463;
0244616270999992000082012004+15370-015120FM-12+0021GOOG V0200401N001010390019N0120001N1+03001+02581101491ADDAA106000191AC12I9AY161061AY221061GA1041+004809089GA2071+039009039GF107991041021004501071999MA1999999101261MD1999999+0221MW1031REMSYN106AAXX  20124 61627 11462 70402 10300 20258 30126 40149 69911 70362 8427/ 333 0//16 58022 84816 87363 94909;
0193616270999992000082015004+15370-015120FM-12+0021GOOG V0209999C000010390019N0120001N1+03181+02511101361ADDGA1041+004809089GA2051+039009039GF106991041021004501081001MA1999999101131MD1999999+0231REMSYN094AAXX  20154 61627 42462 60000 10318 20251 30113 40136 84280 333 58023 84816 85363 94919 95879;
0215616270999992000082018004+15370-015120FM-12+0021GOOG V0209999C00001045001CN0100001N1+02901+02621999999ADDAA112000591AY161061GA1021+004509069GF107991021051004501021999KA1120M+03211MA1999999101021MD1999999+0121MW1601REMSYN094AAXX  20184 61627 11460 70000 10290 20262 30102 69952 7606/ 8252/ 333 10321 58012 82615 87462;
0179616270999992000082021004+15370-015120FM-12+0021GOOG V0209999C000010390019N0080001N1+02801+02531101341ADDAY161031GA1071+039009019GF107991071001999999071999MA1999999101101MD1999999+0161MW1001REMSYN082AAXX  20214 61627 41958 72800 10280 20253 30110 40134 7006/ 8707/ 333 58016 87463;
0208616270999992000082100004+15370-015120FM-12+0021GOOG V0209999C000010390019N0080001N1+02601+02531101191ADDAA115195191AC12I9AY161061GA1071+039009079GF107991071001999999071999MA1999999101261MD1999999+0161MW1021REMSYN094AAXX  21004 61627 11958 70000 10260 20253 30126 40119 61959 7026/ 8707/ 333 0//16 58016 87363;
0203616270999992000082106004+15370-015120FM-12+0021GOOG V0209999C000019999999N0080001N1+02491+02481101371ADDAA124001091GF108991999999999999999999IA2240+02309KA1120N+02491MA1999999101131MD1999999+0031REMSYN100AAXX  21064 61627 12958 80000 10249 20248 30113 40137 60014 333 02300 20249 50320 55/// 58003 88363;
0159616270999992000082109004+15370-015120FM-12+0021GOOG V0209999C000010390019N0100001N1+02581+02481101521ADDGA1081+039009079GF108991081001999999071999MA1999999101281MD1999999+0111REMSYN076AAXX  21094 61627 42960 80000 10258 20248 30128 40152 8807/ 333 58011 88363;
0222616270999992000082112004+15370-015120FM-12+0021GOOG V0209999C00001045001CN0120001N1+02841+02561101541ADDAA106000791AC13C9AY161061AY221061GA1021+004509069GF107991021051004501071999MA1999999101301MD1999999+0041MW1031REMSYN100AAXX  21124 61627 11462 70000 10284 20256 30130 40154 69901 70362 8257/ 333 0//13 58004 82615 87463;
0193616270999992000082115004+15370-015120FM-12+0021GOOG V0209999C000010048019N0120001N1+03181+02611101311ADDGA1061+004809089GA2051+039009049GF107991061021004501071001MA1999999101081MD1999999-0051REMSYN094AAXX  21154 61627 42462 70000 10318 20261 30108 40131 86270 333 59005 86816 85463 94919 95879;
0193616270999992000082209004+15370-015120FM-12+0021GOOG V0209999C00001045001CN0100001N1+02431+02431101431ADDAY161031AY221031GA1011+002409079GF107991011071002501071999MA1999999101191MD1999999-0091MW1601REMSYN088AAXX  22094 61627 41360 70000 10243 20243 30119 40143 76062 8177/ 333 59009 81708 87462;
0216616270999992000082212004+15370-015120FM-12+0021GOOG V0200401N00101045001CN0100001N1+99999+99999101281ADDAA106002091AC12C9AY161061AY221061GA1011+003909069GF107991011051004501071999MA1999999101041MD1999999-0261MW1021REMSYN094AAXX  22124 61627 11460 70402 20250 30104 40128 60021 70262 8157/ 333 0//12 59026 81613 87462;
0207616270999992000082215004+15370-015120FM-12+0021GOOG V0200801N002110390019N0120001N1+02961+02311101211ADDAY161031GA1021+006009089GA2071+039009039GF107991021021008001071999MA1999999100981MD1999999-0101MW1001REMSYN094AAXX  22154 61627 41562 70804 10296 20231 30098 40121 7006/ 8227/ 333 59010 82820 87363 94902;
0221616270999992000082218004+15370-015120FM-12+0021GOOG V0200801N00211045001CN0120001N1+02881+02521101121ADDAA112002091AY161061GA1031+004509069GF105991031041004501071021KA1120M+03031MA1999999100891MD1999999-0111MW1211REMSYN100AAXX  22184 61627 11462 50804 10288 20252 30089 40112 60022 7216/ 83472 333 10303 59011 83615 83363;
0164616270999992000082300004+15370-015120FM-12+0021GOOG V0209999C000012200019N0080001N1+02551+02541101351ADDAA199000021GA1001+999999999GF100991001001999999001001MA1999999101111MD1999999-0091REMSYN070AAXX  23004 61627 32958 00000 10255 20254 30111 40135 333 0//00 59009;
0159616270999992000082309004+15370-015120FM-12+0021GOOG V0209999C000010390019N0100001N1+02651+02581101311ADDGA1081+039009079GF108991081001999999071999MA1999999101071MD1999999-0121REMSYN076AAXX  23094 61627 42960 80000 10265 20258 30107 40131 8807/ 333 59012 88363;
0195616270999992000082312004+15370-015120FM-12+0021GOOG V0202001N001012200019N0120001N1+03081+02621101311ADDAA199000091GA1031+004509059GF103991031051004501001001MA1999999101081MD1999999-0061REMSYN082AAXX  23124 61627 32462 32002 10308 20262 30108 40131 83500 333 0//00 59006 83615;EQDQ01  00002PRCP99
0159616270999992000082315004+15370-015120FM-12+0021GOOG V0202001N001012200019N0120001N1+03381+02731101131ADDGA1021+004509059GF102991021051004501001001MA1999999100901MD1999999-0021REMSYN076AAXX  23154 61627 42462 22002 10338 20273 30090 40113 82500 333 59002 82615;
0208616270999992000082318004+15370-015120FM-12+0021GOOG V0202201N001012200019N0120001N1+03381+02731101051ADDAA199000091GA1031+004509059GF103991031051004501001001KA1120M+03401MA1999999100821MD1999999-0071REMSYN082AAXX  23184 61627 32462 32202 10338 20273 30082 40105 83500 333 10340 59007 83615;EQDQ01  00002PRCP99
0212616270999992000082406004+15370-015120FM-12+0021GOOG V0209999C000012200019N0080001N1+02601+02531101131ADDAA199000091GA1001+999999999GF100991001001999999001001IA2240+02309KA1120N+02601MA1999999100901REMSYN088AAXX  24064 61627 32958 00000 10260 20253 30090 40113 333 02300 20260 50370 55/// 59008;EQDQ01  00002PRCP99
0159616270999992000082409004+15370-015120FM-12+0021GOOG V0202601N002112200019N0100001N1+02801+02551101231ADDGA1021+003909059GF102991021051004501001001MA1999999101001MD1999999-0071REMSYN076AAXX  24094 61627 42460 22604 10280 20255 30100 40123 82500 333 59007 82613;
0195616270999992000082412004+15370-015120FM-12+0021GOOG V0202201N002112200019N0120001N1+03201+02511101321ADDAA199000091GA1031+004509059GF103991031051004501001001MA1999999101091MD1999999+0011REMSYN082AAXX  24124 61627 32462 32204 10320 20251 30109 40132 83500 333 0//00 58001 83615;EQDQ01  00002PRCP99
0171616270999992000082415004+15370-015120FM-12+0021GOOG V0202201N003112200019N0120001N1+03461+02741101191ADDGA1041+004809089GF104991041021004501001001MA1999999100961MD1999999+0061REMSYN088AAXX  24154 61627 42462 42206 10346 20274 30096 40119 84200 333 58006 84816 94919 95839;
0220616270999992000082418004+15370-015120FM-12+0021GOOG V0202001N002112200019N0120001N1+03421+02761101031ADDAA199000091GA1041+004809089GF104991041021004501001001KA1120M+03511MA1999999100801MD1999999-0021REMSYN094AAXX  24184 61627 32462 42004 10342 20276 30080 40103 84200 333 10351 59002 84816 94919 95839;EQDQ01  00002PRCP99
0159616270999992000082421004+15370-015120FM-12+0021GOOG V0202401N002110045019N0550001N1+03081+02651101101ADDGA1061+004509059GF106991061051004501001001MA1999999100901MD1999999+0001REMSYN076AAXX  24214 61627 42485 62404 10308 20265 30090 40110 86500 333 58000 86615;
0195616270999992000082500004+15370-015120FM-12+0021GOOG V0203001N002112200019N0080001N1+02801+02601101261ADDAA199000091GA1031+004509059GF103991031051004501001001MA1999999101031MD1999999+0041REMSYN082AAXX  25004 61627 32458 33004 10280 20260 30103 40126 83500 333 0//00 58004 83615;EQDQ01  00002PRCP99
0165616270999992000082509004+15370-015120FM-12+0021GOOG V0203001N00211105001CN0100001N1+02781+02661101221ADDGA1021+004509069GF105991021051004501001021MA1999999100991MD1999999-0011REMSYN082AAXX  25094 61627 42460 53004 10278 20266 30099 40122 82502 333 59001 82615 84073;
0229616270999992000082512004+15370-015120FM-12+0021GOOG V0202201N002110045019N0120001N1+03231+02761101241ADDAA199000091GA1051+004509089GA2031+069009009GF106991051021004501001021MA1999999101011MD1999999-0081REMSYN100AAXX  25124 61627 32462 62204 10323 20276 30101 40124 85202 333 0//00 59008 85815 83073 94919 95879;EQDQ01  00002PRCP99
0165616270999992000082515004+15370-015120FM-12+0021GOOG V0201801N002110039019N0120001N1+03481+02541101011ADDGA1051+003909089GF105991051021004501001001MA1999999100781MD1999999-0181REMSYN082AAXX  25154 61627 42462 51804 10348 20254 30078 40101 85200 333 59018 85813 94909;
0214616270999992000082518004+15370-015120FM-12+0021GOOG V0202201N001012200019N0120001N1+03511+02331100941ADDAA199000091GA1041+004809089GF104991041021004501001001KA1120M+03531MA1999999100711MD1999999-0091REMSYN088AAXX  25184 61627 32462 42202 10351 20233 30071 40094 84200 333 10353 59009 84816 94913;EQDQ01  00002PRCP99
0213616270999992000082521004+15370-015120FM-12+0021GOOG V0209999C000010360019N0080001N1+03151+02701101051ADDAY191031GA1021+009009099GA2071+036009049GF108991021091008001071999MA1999999100821MD1999999-0081MW1951REMSYN100AAXX  25214 61627 41558 80000 10315 20270 30082 40105 7959/ 8297/ 333 59008 82930 87462 94943 95873;
0159616270999992000082609004+15370-015120FM-12+0021GOOG V0201601N001010024019N0100001N1+02681+02571101201ADDGA1051+002409069GF105991051061002501001001MA1999999100971MD1999999-0021REMSYN076AAXX  26094 61627 42360 51602 10268 20257 30097 40120 85600 333 59002 85708;
0223616270999992000082612004+15370-015120FM-12+0021GOOG V0209999C000010390019N0120001N1+03031+02641101311ADDAA199000091GA1031+004509069GA2031+039009039GF106991031071004501031021MA1999999101081MD1999999+0071REMSYN094AAXX  26124 61627 32462 60000 10303 20264 30108 40131 83732 333 0//00 58007 83615 83363 85073;EQDQ01  00002PRCP99
0159616270999992000082615004+15370-015120FM-12+0021GOOG V0200401N001010045019N0120001N1+03251+02711101041ADDGA1051+004509059GF106991051051004501001021MA1999999100811MD1999999+0021REMSYN076AAXX  26154 61627 42462 60402 10325 20271 30081 40104 85502 333 58002 85615;
0214616270999992000082618004+15370-015120FM-12+0021GOOG V0209999C00001105001CN0080001N1+03281+02621100911ADDAA199000091GA1021+004509069GF105991021051004501001021KA1120M+03311MA1999999100681MD1999999-0031REMSYN088AAXX  26184 61627 32458 50000 10328 20262 30068 40091 82502 333 10331 59003 82615 85073;EQDQ01  00002PRCP99
0147616270999992000082621004+15370-015120FM-12+0021GOOG V0209999C000012200019N0080001N1+03001+02581100931ADDGA1001+999999999GF100991001001999999001001MA1999999100701MD1999999-0121REMSYN064AAXX  26214 61627 42958 00000 10300 20258 30070 40093 333 59012;
0222616270999992000082706004+15370-015120FM-12+0021GOOG V0209999C000012200019N0080001N1+02621+02571101021ADDAA199000091GF103991001001999999001021IA2240+02309KA1120N+02621MA1999999100791MD1999999-0031REMSYN100AAXX  27064 61627 32958 30000 10262 20257 30079 40102 80002 333 02300 20262 50310 55/// 59003 83073;EQDQ01  00002PRCP99
0113616270999992000082709004+15370-015120FM-12+0021GOOG V0201401N001012200019N0100001N1+02891+02631999999ADDGF104991999999999999999999REMSYN075AAXX  27094 61627 42960 41402 10289 20263 0090 40113 80002 333 59007 84073;
0179616270999992000082715004+15370-015120FM-12+0021GOOG V0201401N001010390019N0100001N1+02981+02471101071ADDAY181031GA1071+039009019GF107991071001999999071999MA1999999100841MD1999999+0031MW1601REMSYN082AAXX  27154 61627 41960 71402 10298 20247 30084 40107 7608/ 8707/ 333 58003 87463;
0234616270999992000082718004+15370-015120FM-12+0021GOOG V0209999C000010390019N0100001N1+03151+02521100931ADDAA112000791AY101061GA1061+039009079GF106991061001999999081001KA1120M+03151MA1999999100701MD1999999+0021MW1021REMSYN094AAXX  27184 61627 11960 60000 10315 20252 30070 40093 69902 7027/ 86080 333 10315 58002 86363;EQDQ01+000072PSTWM1
0165616270999992000082809004+15370-015120FM-12+0021GOOG V0209999C00001045001CN0100001N1+02571+02351101241ADDGA1011+004509069GF106991011051004501071001MA1999999101001MD1999999+0101REMSYN082AAXX  28094 61627 42460 60000 10257 20235 30100 40124 81570 333 58010 81615 86463;
0201616270999992000082812004+15370-015120FM-12+0021GOOG V0203201N00101045001CN0120001N1+03221+02681101201ADDAA199000091GA1011+004509069GF107991011051004501031021MA1999999100971MD1999999-0021REMSYN088AAXX  28124 61627 32462 73202 10322 20268 30097 40120 81532 333 0//00 59002 81615 87073;EQDQ01  00002PRCP99
0187616270999992000082815004+15370-015120FM-12+0021GOOG V0200801N001010690019N0120001N1+03551+02271101021ADDGA1031+004809089GA2051+069009009GF105991031021004501001021MA1999999100791MD1999999-0051REMSYN088AAXX  28154 61627 42462 50802 10355 20227 30079 40102 83202 333 59005 83816 85073 94909;
0236616270999992000082818004+15370-015120FM-12+0021GOOG V0201401N001010690019N0120001N1+03401+02421100941ADDAA199000091GA1021+004809089GA2061+069009009GF106991021021004501001021KA1120M+03601MA1999999100711MD1999999+0011REMSYN094AAXX  28184 61627 32462 61402 10340 20242 30071 40094 82202 333 10360 58001 82816 86073 94904;EQDQ01  00002PRCP99
0159616270999992000082909004+15370-015120FM-12+0021GOOG V0203201N001012200019N0100001N1+02881+02741101151ADDGA1021+003009059GF102991021061002501001001MA1999999100921MD1999999-0081REMSYN076AAXX  29094 61627 42360 23202 10288 20274 30092 40115 82600 333 59008 82610;
0201616270999992000082912004+15370-015120FM-12+0021GOOG V0203601N001012200019N0120001N1+03401+02651101231ADDAA199000091GA1041+004809089GF104991041021004501001001MA1999999101001MD1999999+0031REMSYN088AAXX  29124 61627 32462 43602 10340 20265 30100 40123 84200 333 0//00 58003 84816 94909;EQDQ01  00002PRCP99
0159616270999992000082915004+15370-015120FM-12+0021GOOG V0201201N001012200019N0120001N1+03651+02631101061ADDGA1021+004809059GF102991021051004501001001MA1999999100831MD1999999+0041REMSYN076AAXX  29154 61627 42462 21202 10365 20263 30083 40106 82500 333 58004 82616;
0208616270999992000082918004+15370-015120FM-12+0021GOOG V0201801N002112200019N0120001N1+03601+02641101001ADDAA199000091GA1011+004809029GF101991011051004501001001KA1120M+03661MA1999999100771MD1999999+0061REMSYN082AAXX  29184 61627 32462 11804 10360 20264 30077 40100 81500 333 10366 58006 81816;EQDQ01  00002PRCP99
0183616270999992000083000004+15370-015120FM-12+0021GOOG V0209999C000012200019N0080001N1+03081+02631101131ADDAA199000091GA1001+999999999GF100991001001999999001001MA1999999100901MD1999999+0011REMSYN070AAXX  30004 61627 32958 00000 10308 20263 30090 40113 333 0//00 58001;EQDQ01  00002PRCP99
0222616270999992000083006004+15370-015120FM-12+0021GOOG V0201001N002119999999N0080001N1+02751+02551101021ADDAA199000091GF106991061001999999071001IA2240+02309KA1120N+02751MA1999999100791MD1999999+0021REMSYN100AAXX  30064 61627 32958 61004 10275 20255 30079 40102 86070 333 02300 20275 50430 55/// 58002 86363;EQDQ01  00002PRCP99
0187616270999992000083009004+15370-015120FM-12+0021GOOG V0201801N001010390019N0100001N1+02211+02121101331ADDAY161031AY221031GA1071+039009019GF107991071001999999071999MA1999999101091MD1999999+0171MW1021REMSYN082AAXX  30094 61627 41960 71802 10221 20212 30109 40133 70262 8707/ 333 58017 87463;
0216616270999992000083012004+15370-015120FM-12+0021GOOG V0201801N001010390019N0120001N1+02751+01991101231ADDAA106000791AC11I9AY161061AY221061GA1071+039009019GF107991071001999999071999MA1999999101001MD1999999+0001MW1021REMSYN094AAXX  30124 61627 11962 71802 10275 20199 30100 40123 69901 70262 8707/ 333 0//15 58000 87463;
0165616270999992000083015004+15370-015120FM-12+0021GOOG V0200601N00101066001CN0120001N1+03331+02151101081ADDGA1051+066009009GF107991051001004501071021MA1999999100851MD1999999+0021REMSYN082AAXX  30154 61627 42462 70602 10333 20215 30085 40108 85072 333 58002 85463 86073;
0180616270999992000083018004+15370-015120FM-12+0021GOOG V0209999C000010390019N0120001N1+03341+02141100801ADDAA112000791GA1051+039009049GF107991051001999999071021KA1120M+03361MD1999999-0201REMSYN088AAXX  30184 61627 12962 70000 10334 20214 40080 69902 85072 333 10336 59020 85463 86073;
0159616270999992000083109004+15370-015120FM-12+0021GOOG V0202801N002110390019N0100001N1+02771+02561101061ADDGA1061+039009079GF106991061001999999031001MA1999999100831MD1999999-0261REMSYN076AAXX  31094 61627 42960 62804 10277 20256 30083 40106 86030 333 59026 86363;
0195616270999992000083112004+15370-015120FM-12+0021GOOG V0209999C000012200019N0120001N1+03351+02641101091ADDAA199000091GA1021+039009079GF102991021001999999031001MA1999999100861MD1999999-0141REMSYN082AAXX  31124 61627 32962 20000 10335 20264 30086 40109 82030 333 0//00 59014 82363;EQDQ01  00002PRCP99
0147616270999992000083115004+15370-015120FM-12+0021GOOG V0202001N001012200019N0120001N1+03611+02091100911ADDGA1001+999999999GF100991001001999999001001MA1999999100681MD1999999-0171REMSYN064AAXX  31154 61627 42962 02002 10361 20209 30068 40091 333 59017;
0196616270999992000083118004+15370-015120FM-12+0021GOOG V0201801N001012200019N0120001N1+03531+02241100811ADDAA199000091GA1001+999999999GF100991001001999999001001KA1120M+03631MA1999999100581MD1999999+0011REMSYN070AAXX  31184 61627 32962 01802 10353 20224 30058 40081 333 10363 58001;EQDQ01  00002PRCP99
0183616270999992000090100004+15370-015120FM-12+0021GOOG V0209999C000012200019N0080001N1+03001+02841100991ADDAA199000091GA1001+999999999GF100991001001999999001001MA1999999100761MD1999999-0111REMSYN070AAXX  01004 61627 32958 00000 10300 20284 30076 40099 333 0//00 59011;EQDQ01  00002PRCP99
0244616270999992000090106004+15370-015120FM-12+0021GOOG V0201201N004110450019N0080001N1+02581+02521101031ADDAA199000091GA1031+002409079GF107991031071002501071999IA2240+02309KA1120N+02581MA1999999100801MD1999999-0011REMSYN106AAXX  01064 61627 32358 71208 10258 20252 30080 40103 8377/ 333 02300 20258 50740 55/// 59001 83708 87363;EQDQ01  00002PRCP99
0195616270999992000090112004+15370-015120FM-12+0021GOOG V0201801N001010390019N0120001N1+03151+02551101131ADDAA199000091GA1061+039009079GF106991061001999999071001MA1999999100901MD1999999+0041REMSYN082AAXX  01124 61627 32962 61802 10315 20255 30090 40113 86070 333 0//00 58004 86363;EQDQ01  00002PRCP99
0208616270999992000090118004+15370-015120FM-12+0021GOOG V0209999C000012200019N0120001N1+03591+02541100831ADDAA199000091GA1021+039009079GF102991021001999999031001KA1120M+03601MA1999999100601MD1999999+0021REMSYN082AAXX  01184 61627 32962 20000 10359 20254 30060 40083 82030 333 10360 58002 82363;EQDQ01  00002PRCP99
0195616270999992000090200004+15370-015120FM-12+0021GOOG V0209999C000012200019N0080001N1+02821+02751101111ADDAA199000091GA1041+069009019GF104991001001999999001021MA1999999100881MD1999999+0121REMSYN082AAXX  02004 61627 32958 40000 10282 20275 30088 40111 80002 333 0//00 58012 84073;EQDQ01  00002PRCP99
0238616270999992000090206004+15370-015120FM-12+0021GOOG V0209999C000012200019N0080001N1+02701+02621100981ADDAA199000091GA1001+999999999GF100991001001999999001001IA2240+02309KA1120N+02701MA1999999100751MD1999999-0051REMSYN100AAXX  02064 61627 32958 00000 10270 20262 30075 40098 80002 333 02300 20270 50430 55/// 59005 83073;EQDQ01  00002PRCP99
0201616270999992000090212004+15370-015120FM-12+0021GOOG V0209999C00001045001CN0120001N1+03341+02591101201ADDAA199000091GA1021+004509069GF106991021051004501071001MA1999999100971MD1999999+0071REMSYN088AAXX  02124 61627 32462 60000 10334 20259 30097 40120 82570 333 0//00 58007 82615 85363;EQDQ01  00002PRCP99
0193616270999992000090215004+15370-015120FM-12+0021GOOG V0209999C000012200019N0120001N1+03471+02581100991ADDGA1021+006009089GA2031+039009039GF104991021021008001081001MA1999999100651MD1999999+0071REMSYN094AAXX  02154 61627 42562 40000 10347 20258 30065 40099 82280 333 58007 82820 83363 94914 95834;
0220616270999992000090218004+15370-015120FM-12+0021GOOG V0201401N001012200019N0120001N1+03581+02651100931ADDAA199000091GA1011+006009089GF102991011021008001031001KA1120M+03581MA1999999100701MD1999999+0101REMSYN094AAXX  02184 61627 32562 21402 10358 20265 30070 40093 81230 333 10358 58010 81820 94914 95834;EQDQ01  00002PRCP99
0159616270999992000090309004+15370-015120FM-12+0021GOOG V0202801N001012200019N0120001N1+02881+02741101231ADDGA1021+004809059GF102991021051004501001001MA1999999101001MD1999999+0111REMSYN076AAXX  03094 61627 42462 22802 10288 20274 30100 40123 82500 333 58011 82616;
0207616270999992000090312004+15370-015120FM-12+0021GOOG V0209999C000012200019N0120001N1+03451+02781101281ADDAA199000091GA1041+004809089GF104991041021004501001001MA1999999101051MD1999999+0081REMSYN094AAXX  03124 61627 32462 40000 10345 20278 30105 40128 84200 333 0//00 58008 84816 94914 95834;EQDQ01  00002PRCP99
0165616270999992000090315004+15370-015120FM-12+0021GOOG V0201801N002110048019N0120001N1+03631+02431101131ADDGA1051+004809089GF105991051021004501001001MA1999999100901MD1999999+0141REMSYN082AAXX  03154 61627 42462 51804 10363 20243 30090 40113 85200 333 58014 85816 94909;
0208616270999992000090318004+15370-015120FM-12+0021GOOG V0201401N002112200019N0120001N1+03601+02491101031ADDAA199000091GA1021+004809059GF102991021051004501001001KA1120M+03751MA1999999100801MD1999999+0101REMSYN082AAXX  03184 61627 32462 21404 10360 20249 30080 40103 82500 333 10375 58010 82616;EQDQ01  00002PRCP99
0179616270999992000090409004+15370-015120FM-12+0021GOOG V0201401N002110390019N0100001N1+02301+02131101381ADDAY161031GA1081+039009019GF108991081001999999021999MA1999999101151MD1999999+0151MW1601REMSYN082AAXX  04094 61627 41960 81404 10230 20213 30115 40138 7606/ 8802/ 333 58015 88463;
0216616270999992000090412004+15370-015120FM-12+0021GOOG V0203201N002110390019N0120001N1+02981+02381101181ADDAA106007191AC12I9AY161061AY221061GA1061+039009079GF106991061001999999071001MA1999999100951MD1999999-0051MW1021REMSYN094AAXX  04124 61627 11962 63204 10298 20238 30095 40118 60071 70262 86070 333 0//56 59005 86363;
0159616270999992000090415004+15370-015120FM-12+0021GOOG V0203201N001012200019N0120001N1+03451+02611100931ADDGA1021+069009019GF102991001001999999001021MA1999999100701MD1999999-0201REMSYN076AAXX  04154 61627 42962 23202 10345 20261 30070 40093 80002 333 59020 82073;
0195616270999992000090418004+15370-015120FM-12+0021GOOG V0209999C000012200019N0120001N1+03581+02611100831ADDAA112007191GA1011+069009019GF101991001001999999001011KA1120M+03601MA1999999100601MD1999999-0201REMSYN088AAXX  04184 61627 12962 10000 10358 20261 30060 40083 60072 80001 333 10360 59020 81073;
0199616270999992000090506004+15370-015120FM-12+0021GOOG V0209999C000012200019N0080001N1+02611+02571100901ADDAA124007191GA1001+999999999GF100991001001999999001001IA2240+01909KA1120N+02611MA1999999100671REMSYN094AAXX  05064 61627 12958 00000 10261 20257 30067 40090 60074 333 01900 20261 51000 55/// 59000;
0195616270999992000090512004+15370-015120FM-12+0021GOOG V0202801N002112200019N0120001N1+03181+02751100981ADDAA199000091GA1041+004509059GF104991041051004501001001MA1999999100751MD1999999-0201REMSYN082AAXX  05124 61627 32462 42804 10318 20275 30075 40098 84500 333 0//00 59020 84615;EQDQ01  00002PRCP99
0196616270999992000090518004+15370-015120FM-12+0021GOOG V0202201N002112200019N0120001N1+03371+02801100761ADDAA199000091GA1001+999999999GF100991001001999999001001KA1120M+03471MA1999999100531MD1999999-0071REMSYN070AAXX  05184 61627 32962 02204 10337 20280 30053 40076 333 10347 59007;EQDQ01  00002PRCP99
0212616270999992000090606004+15370-015120FM-12+0021GOOG V0202201N001012200019N0080001N1+02611+02601100861ADDAA199000091GA1001+999999999GF100991001001999999001001IA2240+02309KA1120N+02611MA1999999100631REMSYN088AAXX  06064 61627 32958 02202 10261 20260 30063 40086 333 02300 20261 50380 55/// 59004;EQDQ01  00002PRCP99
0159616270999992000090609004+15370-015120FM-12+0021GOOG V0202201N002112200019N0100001N1+02771+02641100931ADDGA1041+003909059GF104991041051004501001021MA1999999100701MD1999999+0001REMSYN076AAXX  06094 61627 42460 42204 10277 20264 30070 40093 84502 333 58000 84613;
0207616270999992000090612004+15370-015120FM-12+0021GOOG V0202001N002110048019N0120001N1+03131+02681101121ADDAA199000091GA1051+004809089GF105991051021004501001001MA1999999100891MD1999999+0141REMSYN094AAXX  06124 61627 32462 52004 10313 20268 30089 40112 85200 333 0//00 58014 85816 94919 95839;EQDQ01  00002PRCP99
0187616270999992000090615004+15370-015120FM-12+0021GOOG V0202201N002110690019N0120001N1+03321+02601100931ADDGA1041+004809089GA2071+069009009GF107991041021004501001021MA1999999100701MD1999999+0121REMSYN088AAXX  06154 61627 42462 72204 10332 20260 30070 40093 84202 333 58012 84816 87073 94919;
0214616270999992000090618004+15370-015120FM-12+0021GOOG V0202401N00211105001CN0120001N1+03321+02601100831ADDAA199000091GA1011+004809089GF107991011011004501001021KA1120M+03411MA1999999100601MD1999999+0071REMSYN088AAXX  06184 61627 32462 72404 10332 20260 30060 40083 81102 333 10341 58007 81816 87073;EQDQ01  00002PRCP99
0159616270999992000090709004+15370-015120FM-12+0021GOOG V0202001N001012200019N0100001N1+02821+02731101131ADDGA1031+002409069GF104991031061002501031001MA1999999100901MD1999999+0201REMSYN076AAXX  07094 61627 42360 42002 10282 20273 30090 40113 83630 333 58020 83708;
0195616270999992000090712004+15370-015120FM-12+0021GOOG V0201801N001012200019N0120001N1+03271+02701101141ADDAA199000091GA1031+004509059GF103991031051004501031001MA1999999100911MD1999999+0021REMSYN082AAXX  07124 61627 32462 31802 10327 20270 30091 40114 83530 333 0//00 58002 83615;EQDQ01  00002PRCP99
0159616270999992000090715004+15370-015120FM-12+0021GOOG V0209999C000012200019N0120001N1+03501+02681100951ADDGA1031+004509059GF103991031051004501001001MA1999999100721MD1999999+0021REMSYN076AAXX  07154 61627 42462 30000 10350 20268 30072 40095 83500 333 58002 83615;
0224616270999992000090718004+15370-015120FM-12+0021GOOG V0202201N002112200019N0120001N1+03601+02681100831ADDAA199000091GA1021+004509059GF102991021051004501001001KA1120M+99999MA1999999100601MD1999999+0001REMSYN082AAXX  07184 61627 32462 22204 10360 20268 30060 40083 82500 333 10351 58000 82615;EQDQ01  00002PRCP99Q02 +03512ATMX  
0147616270999992000090809004+15370-015120FM-12+0021GOOG V0209999C000012200019N0100001N1+02801+02661101211ADDGA1001+999999999GF100991001001999999001001MA1999999100981MD1999999+0081REMSYN064AAXX  08094 61627 42960 00000 10280 20266 30098 40121 333 58008;
0211616270999992000090812004+15370-015120FM-12+0021GOOG V0203201N001012200019N0120001N1+03151+02671101131ADDAA199000091GA1041+039009079GF104991999001999999081001MA1999999100901MD1999999-0011REMSYN082AAXX  08124 61627 32962 43202 10315 20267 30090 40113 87080 333 0//00 59001 84363;EQDQ01+000072SCOTLCQ02  00002PRCP99
0165616270999992000090815004+15370-015120FM-12+0021GOOG V0201401N002112200019N0120001N1+03551+02631100921ADDGA1011+004809069GF103991011051004501031001MA1999999100691MD1999999-0031REMSYN082AAXX  08154 61627 42462 31404 10355 20263 30069 40092 81530 333 59003 81616 83363;
0208616270999992000090818004+15370-015120FM-12+0021GOOG V0201401N002110390019N0120001N1+03381+02611100831ADDAA199000091GA1071+039009019GF107991071001999999071999KA1120M+03581MA1999999100601MD1999999+0001REMSYN082AAXX  08184 61627 32962 71404 10338 20261 30060 40083 8707/ 333 10358 58000 87463;EQDQ01  00002PRCP99
0159616270999992000090909004+15370-015120FM-12+0021GOOG V0203001N002110450019N0100001N1+02811+02661101031ADDGA1041+003909059GF105991041051004501031001MA1999999100801MD1999999-0181REMSYN076AAXX  09094 61627 42460 53004 10281 20266 30080 40103 84530 333 59018 84613;
0183616270999992000090912004+15370-015120FM-12+0021GOOG V0203001N002112200019N0100001N1+03371+02701101001ADDAA199000091GA1001+999999999GF100991001001999999001001MA1999999100771MD1999999-0131REMSYN070AAXX  09124 61627 32960 03004 10337 20270 30077 40100 333 0//00 59013;EQDQ01  00002PRCP99
0147616270999992000090915004+15370-015120FM-12+0021GOOG V0202601N002112200019N0100001N1+03711+02151100771ADDGA1001+999999999GF100991001001999999001001MA1999999100541MD1999999-0151REMSYN064AAXX  09154 61627 42960 02604 10371 20215 30054 40077 333 59015;
0196616270999992000090918004+15370-015120FM-12+0021GOOG V0202601N003112200019N0100001N1+03501+02101100731ADDAA199000091GA1001+999999999GF100991001001999999001001KA1120M+03761MA1999999100501MD1999999-0101REMSYN070AAXX  09184 61627 32960 02606 10350 20210 30050 40073 333 10376 59010;EQDQ01  00002PRCP99
0165616270999992000091009004+15370-015120FM-12+0021GOOG V0202401N001012200019N0100001N1+02811+02591101121ADDGA1011+003309079GF103991011061004501031001MA1999999100891MD1999999+0091REMSYN082AAXX  10094 61627 42460 32402 10281 20259 30089 40112 81630 333 58009 81711 83363;
0201616270999992000091012004+15370-015120FM-12+0021GOOG V0201801N001010039019N0100001N1+03261+02631101261ADDAA199000091GA1051+003909089GF105991051021004501001001MA1999999101031MD1999999+0261REMSYN088AAXX  10124 61627 32460 51802 10326 20263 30103 40126 85200 333 0//00 58026 85813 94909;EQDQ01  00002PRCP99
0159616270999992000091015004+15370-015120FM-12+0021GOOG V0209999C000012200019N0120001N1+03621+02551101031ADDGA1021+004809059GF102991021051004501001001MA1999999100801MD1999999+0281REMSYN076AAXX  10154 61627 42462 20000 10362 20255 30080 40103 82500 333 58028 82616;
0208616270999992000091018004+15370-015120FM-12+0021GOOG V0209999C000012200019N0120001N1+03501+02551100881ADDAA199000091GA1011+004809059GF101991011051004501001001KA1120M+03581MA1999999100631MD1999999+0131REMSYN082AAXX  10184 61627 32462 10000 10350 20255 30063 40088 81500 333 10358 58013 81616;EQDQ01  00002PRCP99
0223616270999992000091106004+15370-015120FM-12+0021GOOG V0209999C000012200019N0080001N1+02591+02461101061ADDAA199000091GA1001+999999999GF100991001001999999001001IA2240+02209KA1120N+02591MA1999999100831OA150600511REMSYN088AAXX  11064 61627 32958 00000 10259 20246 30083 40106 333 02200 20259 50550 55108 58009;EQDQ01  00002PRCP99
0159616270999992000091109004+15370-015120FM-12+0021GOOG V0202601N001012200019N0120001N1+02801+02551101181ADDGA1021+039009079GF102991021001999999031001MA1999999100951MD1999999+0061REMSYN076AAXX  11094 61627 42962 22602 10280 20255 30095 40118 82030 333 58006 82363;
0195616270999992000091112004+15370-015120FM-12+0021GOOG V0209999C000010390019N0120001N1+03201+02651101231ADDAA199000091GA1051+039009079GF105991051001999999081001MA1999999101001MD1999999-0031REMSYN082AAXX  11124 61627 32962 50000 10320 20265 30100 40123 85080 333 00//0 59003 85363;EQDQ01  00002PRCP99
0165616270999992000091115004+15370-015120FM-12+0021GOOG V0200601N00101045001CN0120001N1+03451+02611100971ADDGA1011+004809069GF106991011051004501081001MA1999999100741MD1999999-0061REMSYN082AAXX  11154 61627 42462 60602 10345 20261 30074 40097 81580 333 59006 81616 86363;
0214616270999992000091118004+15370-015120FM-12+0021GOOG V0201801N001012200019N0120001N1+03441+02611100931ADDAA199000091GA1011+004809069GF104991011051004501081001KA1120M+03531MA1999999100701MD1999999+0071REMSYN088AAXX  11184 61627 32462 41802 10344 20261 30070 40093 81580 333 10353 58007 81616 84363;EQDQ01  00002PRCP99
0159616270999992000091121004+15370-015120FM-12+0021GOOG V0202201N002112200019N0080001N1+03021+02661100951ADDGA1031+039009079GF103991031001999999081001MA1999999100721MD1999999-0071REMSYN076AAXX  11214 61627 42958 32204 10302 20266 30072 40095 83080 333 59007 83363;
0147616270999992000091209004+15370-015120FM-12+0021GOOG V0202201N002112200019N0100001N1+02951+02741100931ADDGA1001+999999999GF100991001001999999001001MA1999999100701MD1999999-0251REMSYN064AAXX  12094 61627 42960 02204 10295 20274 30070 40093 333 59025;
0195616270999992000091212004+15370-015120FM-12+0021GOOG V0202801N002112200019N0120001N1+03481+02841100971ADDAA199000091GA1011+004809059GF101991011051004501001001MA1999999100741MD1999999-0261REMSYN082AAXX  12124 61627 32462 12804 10348 20284 30074 40097 81500 333 0//00 59026 81616;EQDQ01  00002PRCP99
0165616270999992000091215004+15370-015120FM-12+0021GOOG V0202401N002112200019N0120001N1+03821+02271100731ADDGA1031+004809089GF103991031021004501001001MA1999999100501MD1999999-0241REMSYN082AAXX  12154 61627 42462 32404 10382 20227 30050 40073 83200 333 59024 83816 94905;
0214616270999992000091218004+15370-015120FM-12+0021GOOG V0202601N002112200019N0120001N1+03701+02451100661ADDAA199000091GA1021+004809089GF102991021021004501001001KA1120M+03881MA1999999100431MD1999999-0271REMSYN088AAXX  12184 61627 32462 22604 10370 20245 30043 40066 82200 333 10388 59027 82816 94902;EQDQ01  00002PRCP99
0233616270999992000091306004+15370-015120FM-12+0021GOOG V0202401N002112200019N0080001N1+02681+02611100871ADDAA199000091GF103991031061002501001001IA2240+02309KA1120N+02681MA1999999100641MD1999999-0021OA150600511REMSYN100AAXX  13064 61627 32358 32404 10268 20261 30064 40087 83600 333 02300 20268 50770 55106 59002 83708;EQDQ01  00002PRCP99
0201616270999992000091312004+15370-015120FM-12+0021GOOG V0202401N003112200019N0120001N1+03381+02581101031ADDAA199000091GA1021+004509069GF103991021051004501031001MA1999999100801MD1999999+0061REMSYN088AAXX  13124 61627 32462 32406 10338 20258 30080 40103 82530 333 0//00 58006 82615 83363;EQDQ01  00002PRCP99
0159616270999992000091315004+15370-015120FM-12+0021GOOG V0202401N002112200019N0120001N1+03651+02771100911ADDGA1031+004509059GF103991031051004501001001MA1999999100681MD1999999+0181REMSYN076AAXX  13154 61627 42462 32404 10365 20277 30068 40091 83500 333 58018 83615;
0208616270999992000091318004+15370-015120FM-12+0021GOOG V0202601N002112200019N0120001N1+03601+02721100831ADDAA199000091GA1041+004509059GF104991041051004501001001KA1120M+03701MA1999999100601MD1999999+0171REMSYN082AAXX  13184 61627 32462 42604 10360 20272 30060 40083 84500 333 10370 58017 84615;EQDQ01  00002PRCP99
0195616270999992000091400004+15370-015120FM-12+0021GOOG V0202601N001010390019N0080001N1+02821+02511101181ADDAA199000091GA1051+039009079GF105991051001999999071001MA1999999100951MD1999999+0241REMSYN082AAXX  14004 61627 32958 52602 10282 20251 30095 40118 85070 333 0//00 58024 85363;EQDQ01  00002PRCP99
0159616270999992000091403004+15370-015120FM-12+0021GOOG V0209999C000012200019N0080001N1+02751+02541101131ADDGA1041+039009079GF104991041001999999081001MA1999999100921MD1999999+0281REMSYN076AAXX  14034 61627 42958 40000 10275 20254 30092 40113 84080 333 58028 84363;
0233616270999992000091406004+15370-015120FM-12+0021GOOG V0209999C000012200019N0080001N1+02711+02551101111ADDAA199000091GF104991041001999999081001IA2240+02409KA1120N+02711MA1999999100881MD1999999+0241OA150600461REMSYN100AAXX  14064 61627 32958 40000 10271 20255 30088 40111 84080 333 02400 20271 50580 55093 58024 84363;EQDQ01  00002PRCP99
0159616270999992000091409004+15370-015120FM-12+0021GOOG V0202601N001012200019N0100001N1+02801+02571101211ADDGA1031+039009079GF103991031001999999081001MA1999999100981MD1999999+0121REMSYN076AAXX  14094 61627 42960 32602 10280 20257 30098 40121 83080 333 58012 83363;
0216616270999992000091412004+15370-015120FM-12+0021GOOG V0201801N001010450019N0120001N1+03301+02691101311ADDAA106000791AC12C9AY161061AY211061GA1041+004509059GF105991041051004501031001MA1999999101081MD1999999+0281MW1021REMSYN094AAXX  14124 61627 11462 51802 10330 20269 30108 40131 69901 70261 84530 333 0//12 58028 84615;
0193616270999992000091415004+15370-015120FM-12+0021GOOG V0202001N002110060019N0120001N1+03581+02671101121ADDGA1051+006009089GA2031+039009039GF106991051021004501031001MA1999999100891MD1999999+0211REMSYN094AAXX  14154 61627 42462 62004 10358 20267 30089 40112 85230 333 58021 85820 83363 94919 95879;
0290616270999992000091418004+15370-015120FM-12+0021GOOG V0200801N002110360019N0080001N1+02302+02301101351ADDAA112015091AY191061GA1011+002409079GA2011+007809099GA3081+036009049GF108991021091002501021999KA1120M+03581MA1999999101111MD1999999+0511MW1951REMSYN118AAXX  14184 61627 11358 80804 10230 20230 30111 40135 60152 7959/ 8292/ 333 10358 58051 81708 81926 88462 94942 95872;EQDQ01+002303ATOT  
0195616270999992000091512004+15370-015120FM-12+0021GOOG V0201401N001010390019N0120001N1+02981+02531101311ADDAA199000091GA1051+039009079GF105991051001999999081001MA1999999101071MD1999999-0011REMSYN082AAXX  15124 61627 32962 51402 10298 20253 30107 40131 85080 333 0//00 59001 85363;EQDQ01  00002PRCP99
0165616270999992000091515004+15370-015120FM-12+0021GOOG V0201801N00101045001CN0120001N1+03301+02381101111ADDGA1011+004509069GF105991011051004501071001MA1999999100881MD1999999-0011REMSYN082AAXX  15154 61627 42462 51802 10330 20238 30088 40111 81570 333 59001 81615 85363;
0214616270999992000091518004+15370-015120FM-12+0021GOOG V0209999C00001045001CN0120001N1+03251+02431101051ADDAA199000091GA1021+004509069GF107991021051004501071999KA1120M+03351MA1999999100821MD1999999-0291REMSYN088AAXX  15184 61627 32462 70000 10325 20243 30082 40105 8257/ 333 10335 59029 82615 87363;EQDQ01  00002PRCP99
0159616270999992000091609004+15370-015120FM-12+0021GOOG V0203201N002110018019N0100001N1+02731+02681101171ADDGA1051+001809069GF105991051061002501001001MA1999999100941MD1999999-0081REMSYN076AAXX  16094 61627 42360 53204 10273 20268 30094 40117 85600 333 59008 85706;
0195616270999992000091612004+15370-015120FM-12+0021GOOG V0203201N001012200019N0120001N1+03231+02641101231ADDAA199000091GA1031+004509059GF103991031051004501001001MA1999999101001MD1999999-0071REMSYN082AAXX  16124 61627 32462 33202 10323 20264 30100 40123 83500 333 0//00 59007 83615;EQDQ01  00002PRCP99
0208616270999992000091618004+15370-015120FM-12+0021GOOG V0202801N002112200019N0120001N1+03511+02761100841ADDAA199000091GA1011+004509059GF101991011051004501001001KA1120M+03601MA1999999100611MD1999999-0211REMSYN082AAXX  16184 61627 32462 12804 10351 20276 30061 40084 81500 333 10360 59021 81615;EQDQ01  00002PRCP99
0233616270999992000091706004+15370-015120FM-12+0021GOOG V0209999C000012200019N0080001N1+02631+02591101021ADDAA199000091GF103991001001999999001021IA2240+02209KA1120N+02631MA1999999100791MD1999999-0041OA150600511REMSYN100AAXX  17064 61627 32958 30000 10263 20259 30079 40102 80002 333 02200 20263 50340 55106 59004 83073;EQDQ01  00002PRCP99
0159616270999992000091709004+15370-015120FM-12+0021GOOG V0202201N001019999999N0120001N1+02601+02501101131ADDGA1041+069009019GF106991001001999999001021MA1999999100901MD1999999-0041REMSYN076AAXX  17094 61627 42962 62202 10260 20250 30090 40113 80002 333 59004 84073;
0242616270999992000091718004+15370-015120FM-12+0021GOOG V0201401N001010690019N0120001N1+03401+02721100971ADDAA199000091GA1031+004809089GA2051+069009009GF106991031021004501001021KA1120M+03451MA1999999100741MD1999999+0131REMSYN100AAXX  17184 61627 32462 61402 10340 20272 30074 40097 83202 333 10345 58013 83816 85073 94914 95834;EQDQ01  00002PRCP99
0222616270999992000091812004+15370-015120FM-12+0021GOOG V0201601N00211045001CN0100001N1+02901+02561101381ADDAA106000791AC11C9AY161061AY221061GA1011+003909069GF107991011051004501071999MA1999999101151MD1999999+0161MW1211REMSYN100AAXX  18124 61627 11460 71604 10290 20256 30115 40138 69901 72162 8157/ 333 0//11 58016 81613 87463;
0159616270999992000091815004+15370-015120FM-12+0021GOOG V0201201N001010390019N0120001N1+03181+02321101171ADDGA1071+039009079GF107991071001999999071999MA1999999100941MD1999999+0101REMSYN076AAXX  18154 61627 42962 71202 10318 20232 30094 40117 8707/ 333 58010 87363;
0201616270999992000091818004+15370-015120FM-12+0021GOOG V0201801N001019999999N0120001N1+03121+02541101151ADDAA112000791GA1041+039009039GF106991041001999999071021KA1120M+03191MA1999999100921MD1999999+0181REMSYN094AAXX  18184 61627 12962 61802 10312 20254 30092 40115 69902 84072 333 10319 58018 84363 83073;
0242616270999992000091906004+15370-015120FM-12+0021GOOG V0209999C000010450019N0080001N1+02561+02521101191ADDAA124000791GA1011+001809079GF108991011061002501071999IA2240+02109KA1120N+02561MA1999999100961MD1999999-0051OA150600051REMSYN112AAXX  19064 61627 12358 80000 10256 20252 30096 40119 69904 8167/ 333 02100 20256 50430 55016 59005 81706 88463;
0195616270999992000091912004+15370-015120FM-12+0021GOOG V0201801N002110390019N0120001N1+02801+02371101301ADDAA199000091GA1081+039009019GF108991081001999999071999MA1999999101071MD1999999-0081REMSYN082AAXX  19124 61627 32962 81804 10280 20237 30107 40130 8807/ 333 0//00 59008 88463;EQDQ01  00002PRCP99
0165616270999992000091915004+15370-015120FM-12+0021GOOG V0202601N00211105001CN0120001N1+03291+02711101021ADDGA1031+004809069GF105991031051004501001021MA1999999100791MD1999999-0151REMSYN082AAXX  19154 61627 42462 52604 10329 20271 30079 40102 83502 333 59015 83616 83073;
0214616270999992000091918004+15370-015120FM-12+0021GOOG V0202401N00101105001CN0120001N1+03151+02691100931ADDAA199000091GA1021+004809069GF106991021051004501001021KA1120M+03311MA1999999100701MD1999999-0221REMSYN088AAXX  19184 61627 32462 62402 10315 20269 30070 40093 82502 333 10331 59022 82616 85073;EQDQ01  00002PRCP99
0147616270999992000092003004+15370-015120FM-12+0021GOOG V0209999C000012200019N0080001N1+02601+02531100931ADDGA1001+999999999GF100991001001999999001001MA1999999100701MD1999999-0261REMSYN064AAXX  20034 61627 42958 00000 10260 20253 30070 40093 333 59026;
0233616270999992000092006004+15370-015120FM-12+0021GOOG V0209999C000012200019N0080001N1+02561+02521100931ADDAA199000091GF101991011001999999031001IA2240+02009KA1120N+02561MA1999999100701MD1999999-0261OA150600311REMSYN100AAXX  20064 61627 32958 10000 10256 20252 30070 40093 81030 333 0200/ 20256 50360 55064 59026 81363;EQDQ01  00002PRCP99
0153616270999992000092009004+15370-015120FM-12+0021GOOG V0209999C000012200019N0120001N1+02651+02581101081ADDGA1001+999999999GF100991001001999999001001MA1999999100791MD1999999-0361REMSYN070AAXX  20094 61627 42962 00000 10265 20258 30079 40108 80002 333 59036;
0195616270999992000092012004+15370-015120FM-12+0021GOOG V0201801N001012200019N0120001N1+03201+02721101031ADDAA199000091GA1021+069009019GF102991001001999999001021MA1999999100801MD1999999-0131REMSYN082AAXX  20124 61627 32962 21802 10320 20272 30080 40103 80002 333 0//00 59013 82073;EQDQ01  00002PRCP99
0193616270999992000092015004+15370-015120FM-12+0021GOOG V0201401N002110690019N0120001N1+03501+02771100851ADDGA1041+004809089GA2031+069009009GF105991041021004501001021MA1999999100621MD1999999-0171REMSYN094AAXX  20154 61627 42462 51404 10350 20277 30062 40085 84202 333 59017 84816 83073 94919 95839;
0242616270999992000092018004+15370-015120FM-12+0021GOOG V0201401N002112200019N0120001N1+03401+02781100831ADDAA199000091GA1021+004809089GA2031+069009009GF104991021021004501001021KA1120M+03501MA1999999100601MD1999999-0101REMSYN100AAXX  20184 61627 32462 41404 10340 20278 30060 40083 82202 333 10350 59010 82816 83073 94914 95834;EQDQ01  00002PRCP99
0183616270999992000092021004+15370-015120FM-12+0021GOOG V0201601N001012200019N0080001N1+03071+02731101011ADDGA1021+009009099GF102991021031008001001001MA1999999100781MD1999999+0081MW1131REMSYN094AAXX  20214 61627 41558 21602 10307 20273 30078 40101 713// 82300 333 58008 82930 94942 95832;
0165616270999992000092109004+15370-015120FM-12+0021GOOG V0202001N001019999999N0100001N1+02681+02571101241ADDGA1011+039009039GF105991011001999999081021MA1999999101011MD1999999+0221REMSYN082AAXX  21094 61627 42960 52002 10268 20257 30101 40124 81082 333 58022 81363 85073;
0201616270999992000092112004+15370-015120FM-12+0021GOOG V0201401N002112200019N0120001N1+03381+02781101291ADDAA199000091GA1021+004809089GF104991021051004501001021MA1999999101061MD1999999+0261REMSYN088AAXX  21124 61627 32462 41404 10338 20278 30106 40129 82502 333 0//00 58026 82816 83073;EQDQ01  00002PRCP99
0198616270999992000092118004+15370-015120FM-12+0021GOOG V0201801N001012200019N0120001N1+03451+99999999999ADDAA199000091GA1031+004809089GF103991999999004501999999KA1120M+03541MD1999999+0211REMSYN087AAXX  21184 61627 32462 31802 10345 0247 30081 40104 83201 333 10354 58021 83816 94909;EQDQ01  00002PRCP99
0193616270999992000092209004+15370-015120FM-12+0021GOOG V0209999C000019999999N0100001N1+02601+02561101361ADDAY191031AY261031GA1031+039009039GF106991031001999999071021MA1999999101131MD1999999+0121MW1011REMSYN088AAXX  22094 61627 41960 60000 10260 20256 30113 40136 70196 83072 333 58012 83363 84073;
0222616270999992000092212004+15370-015120FM-12+0021GOOG V0209999C00001045001CN0120001N1+02931+02751101431ADDAA106001091AC12I9AY191061AY261061GA1021+004509069GF107991021051004501031021MA1999999101201MD1999999+0141MW1031REMSYN100AAXX  22124 61627 11462 70000 10293 20275 30120 40143 69991 70396 82532 333 0//56 58014 82615 86073;
0193616270999992000092215004+15370-015120FM-12+0021GOOG V0201801N001010690019N0120001N1+03431+02911101131ADDGA1041+004809089GA2031+069009009GF106991041021004501001021MA1999999100901MD1999999+0001REMSYN094AAXX  22154 61627 42462 61802 10343 20291 30090 40113 84202 333 58000 84816 83073 94919 95879;
0246616270999992000092306004+15370-015120FM-12+0021GOOG V0201801N001019999999N0080001N1+02201+02201101451ADDAA124007191AC11C9AY161061GF107991071001999999071999IA2240+01909KA1120N+02201MA1999999101211MD1999999+0171MW1211OA150600361REMSYN112AAXX  23064 61627 11958 71802 10220 20220 30121 40145 60074 7216/ 8707/ 333 01921 20220 50300 55073 58017 87463;
0159616270999992000092309004+15370-015120FM-12+0021GOOG V0209999C000010390019N0100001N1+02301+02291101301ADDGA1081+039009019GF108991081001999999071999MA1999999101061MD1999999-0071REMSYN076AAXX  23094 61627 42960 80000 10230 20229 30106 40130 8807/ 333 59007 88463;
0176616270999992000092312004+15370-015120FM-12+0021GOOG V0202601N001010390019N0120001N1+02671+02531101391ADDAA199000021GA1071+039009019GF107991071001999999071999MA1999999101151MD1999999-0051REMSYN082AAXX  23124 61627 32962 72602 10267 20253 30115 40139 8707/ 333 0//00 59005 87463;
0159616270999992000092315004+15370-015120FM-12+0021GOOG V0202801N001010390019N0120001N1+03081+02741101111ADDGA1051+039009079GF105991051001999999031001MA1999999100881MD1999999-0021REMSYN076AAXX  23154 61627 42962 52802 10308 20274 30088 40111 85030 333 59002 85363;
0195616270999992000092318004+15370-015120FM-12+0021GOOG V0209999C000012200019N0120001N1+03201+02651100971ADDAA199000021GA1011+039009039GF103991011001999999031021KA1120M+03211MA1999999100741MD1999999-0261REMSYN088AAXX  23184 61627 32962 30000 10320 20265 30074 40097 81032 333 10321 59026 81363 83073;
0159616270999992000092409004+15370-015120FM-12+0021GOOG V0203001N002112200019N0100001N1+02731+02711101151ADDGA1021+003909059GF102991021051004501001001MA1999999100921MD1999999-0141REMSYN076AAXX  24094 61627 42460 23004 10273 20271 30092 40115 82500 333 59014 82613;
0183616270999992000092412004+15370-015120FM-12+0021GOOG V0203201N002112200019N0120001N1+03201+02731101151ADDAA199000091GA1001+999999999GF100991001001999999001001MA1999999100921MD1999999-0231REMSYN070AAXX  24124 61627 32962 03204 10320 20273 30092 40115 333 0//00 59023;EQDQ01  00002PRCP99
0147616270999992000092415004+15370-015120FM-12+0021GOOG V0203201N002112200019N0120001N1+03661+02351100901ADDGA1001+999999999GF100991001001999999001001MA1999999100671MD1999999-0211REMSYN064AAXX  24154 61627 42962 03204 10366 20235 30067 40090 333 59021;
0196616270999992000092418004+15370-015120FM-12+0021GOOG V0203001N001012200019N0120001N1+03581+02471100801ADDAA199000091GA1001+999999999GF100991001001999999001001KA1120M+03681MA1999999100571MD1999999-0171REMSYN070AAXX  24184 61627 32462 03002 10358 20247 30057 40080 333 10368 59017;EQDQ01  00002PRCP99
0165616270999992000092509004+15370-015120FM-12+0021GOOG V0202201N00101045001CN0100001N1+02821+02771100941ADDGA1041+001509079GF108991041061001501031021MA1999999100711MD1999999-0211REMSYN082AAXX  25094 61627 42260 82202 10282 20277 30071 40094 84632 333 59021 84705 85073;
0183616270999992000092512004+15370-015120FM-12+0021GOOG V0202001N002112200019N0120001N1+03261+02601101011ADDAA199000091GA1001+999999999GF100991001001999999001001MA1999999100781MD1999999-0141REMSYN070AAXX  25124 61627 32962 02004 10326 20260 30078 40101 333 0//00 59014;EQDQ01  00002PRCP99
0159616270999992000092515004+15370-015120FM-12+0021GOOG V0201401N003112200019N0120001N1+03401+02651100931ADDGA1031+004509059GF103991031051004501001001MA1999999100701MD1999999+0031REMSYN076AAXX  25154 61627 42462 31406 10340 20265 30070 40093 83500 333 58003 83615;
0196616270999992000092518004+15370-015120FM-12+0021GOOG V0202001N001012200019N0120001N1+03391+02651100831ADDAA199000091GA1001+999999999GF100991001001999999001001KA1120M+03401MA1999999100601MD1999999+0031REMSYN070AAXX  25184 61627 32462 02002 10339 20265 30060 40083 333 10340 58003;EQDQ01  00002PRCP99
0147616270999992000092521004+15370-015120FM-12+0021GOOG V0209999C000012200019N0080001N1+03051+02751101021ADDGA1001+999999999GF100991001001999999001001MA1999999100791MD1999999+0141REMSYN064AAXX  25214 61627 42958 00000 10305 20275 30079 40102 333 58014;
0246616270999992000092606004+15370-015120FM-12+0021GOOG V0209999C000019999999N0080001N1+02501+02471101041ADDAA124007191AC12I9AY161061GF105991051001999999071001IA2240+02209KA1120N+02501MA1999999100811MD1999999+0141MW1021OA150600411REMSYN112AAXX  26064 61627 11958 50000 10250 20247 30081 40104 60074 7026/ 85070 333 02226 20250 50410 55089 58014 85363;
0159616270999992000092609004+15370-015120FM-12+0021GOOG V0200601N002110390019N0100001N1+02581+02551101231ADDGA1051+039009079GF105991051001999999071001MA1999999101001MD1999999+0291REMSYN076AAXX  26094 61627 42960 50604 10258 20255 30100 40123 85070 333 58029 85363;
0195616270999992000092612004+15370-015120FM-12+0021GOOG V0201001N002112200019N0120001N1+03101+02771101331ADDAA199000091GA1021+039009079GF102991021001999999031001MA1999999101101MD1999999+0321REMSYN082AAXX  26124 61627 32962 21004 10310 20277 30110 40133 82030 333 0//00 58032 82363;EQDQ01  00002PRCP99
0284616270999992000092618004+15370-015120FM-12+0021GOOG V0200401N002110090019N0046001N1+03101+02691101031ADDAA199000091AY191061GA1041+004809069GA2021+009009099GA3061+069009009GF107991051091000751031021KA1120M+03471MA1999999100801MD1999999+0201MW1171REMSYN112AAXX  26184 61627 33146 70404 10310 20269 30080 40103 7179/ 85932 333 10347 58020 84616 82930 86073 94941 95871;EQDQ01  00002PRCP99
0249616270999992000092700004+15370-015120FM-12+0021GOOG V0209999C000010390019N0080001N1+02801+02721101251ADDAA199000091AY191061GA1011+009009099GA2071+039009049GF107991011051008001071999MA1999999101021MD1999999+0021MW1131REMSYN106AAXX  27004 61627 31558 70000 10280 20272 30102 40125 7139/ 8157/ 333 0//00 58002 81930 87463 94944 95874;EQDQ01  00002PRCP99
0233616270999992000092706004+15370-015120FM-12+0021GOOG V0209999C000019999999N0080001N1+02681+02661101201ADDAA199000091GF107991071001999999071999IA2240+02009KA1120N+02681MA1999999100971MD1999999+0161OA150600411REMSYN100AAXX  27064 61627 32958 70000 10268 20266 30097 40120 8707/ 333 02000 20268 50750 55087 58016 87463;EQDQ01  00002PRCP99
0165616270999992000092709004+15370-015120FM-12+0021GOOG V0201401N002110024019N0100001N1+02671+02611101431ADDGA1051+002409079GF107991051071002501071999MA1999999101201MD1999999+0201REMSYN082AAXX  27094 61627 42360 71404 10267 20261 30120 40143 8577/ 333 58020 85708 87464;
0195616270999992000092712004+15370-015120FM-12+0021GOOG V0209999C000010390019N0100001N1+02781+02521101381ADDAA199000091GA1071+039009019GF107991071001999999071999MA1999999101151MD1999999+0051REMSYN082AAXX  27124 61627 32960 70000 10278 20252 30115 40138 8707/ 333 0//00 58005 87463;EQDQ01  00002PRCP99
0159616270999992000092715004+15370-015120FM-12+0021GOOG V0209999C000010390019N0120001N1+02901+02521101231ADDGA1081+039009019GF108991081001999999071999MA1999999101001MD1999999+0141REMSYN076AAXX  27154 61627 42962 80000 10290 20252 30100 40123 8807/ 333 58014 88463;
0208616270999992000092718004+15370-015120FM-12+0021GOOG V0203601N001010390019N0120001N1+02901+02481101191ADDAA199000091GA1071+039009019GF107991071001999999071999KA1120M+02911MA1999999100961MD1999999+0161REMSYN082AAXX  27184 61627 32962 73602 10290 20248 30096 40119 8707/ 333 10291 58016 87463;EQDQ01  00002PRCP99
0139616270999992000092721004+15370-015120FM-12+0021GOOG V02099999999992200019N0080001N1+99999+99999101211ADDGA1031+039009079GF103991031011999999071001MA1999999100981REMSYN070AAXX  27214 61627 42958 3//// 10/// 20254 30098 40121 83170 333 83363;
0165616270999992000092809004+15370-015120FM-12+0021GOOG V0209999C00001045001CN0100001N1+02621+02521101321ADDGA1011+001809079GF107991011061002501071999MA1999999101091MD1999999-0111REMSYN082AAXX  28094 61627 42360 70000 10262 20252 30109 40132 8167/ 333 59011 81706 87363;
0195616270999992000092812004+15370-015120FM-12+0021GOOG V0203601N001010390019N0120001N1+03271+02111101281ADDAA199000091GA1071+039009079GF107991071001999999071999MA1999999101051MD1999999-0101REMSYN082AAXX  28124 61627 32962 73602 10327 20211 30105 40128 8707/ 333 0//00 59010 87363;EQDQ01  00002PRCP99
0159616270999992000092815004+15370-015120FM-12+0021GOOG V0209999C000012200019N0120001N1+03601+02151101031ADDGA1021+039009079GF102991021001999999031001MA1999999100801MD1999999-0201REMSYN076AAXX  28154 61627 42962 20000 10360 20215 30080 40103 82030 333 59020 82363;
0208616270999992000092818004+15370-015120FM-12+0021GOOG V0203201N001012200019N0120001N1+03501+02161100931ADDAA199000091GA1021+039009079GF102991021001999999031001KA1120M+03651MA1999999100701MD1999999-0261REMSYN082AAXX  28184 61627 32962 23202 10350 20216 30070 40093 82030 333 10365 59026 82363;EQDQ01  00002PRCP99
0147616270999992000092909004+15370-015120FM-12+0021GOOG V0203201N001012200019N0120001N1+02701+02501100951ADDGA1001+999999999GF100991001001999999001001MA1999999100721MD1999999-0371REMSYN064AAXX  29094 61627 42962 03202 10270 20250 30072 40095 333 59037;
0147616270999992000092915004+15370-015120FM-12+0021GOOG V0209999C000012200019N0120001N1+03721+02531100831ADDGA1001+999999999GF100991001001999999001001MA1999999100601MD1999999-0201REMSYN064AAXX  29154 61627 42962 00000 10372 20253 30060 40083 333 59020;
0196616270999992000092918004+15370-015120FM-12+0021GOOG V0202201N002112200019N0100001N1+03601+02551100751ADDAA199000091GA1001+999999999GF100991001001999999001001KA1120M+03781MA1999999100521MD1999999-0181REMSYN070AAXX  29184 61627 32960 02204 10360 20255 30052 40075 333 10378 59018;EQDQ01  00002PRCP99
0159616270999992000093009004+15370-015120FM-12+0021GOOG V0209999C000010030019N0100001N1+02711+02671101011ADDGA1061+003009069GF106991061061004501001001MA1999999100781MD1999999+0061REMSYN076AAXX  30094 61627 42460 60000 10271 20267 30078 40101 86600 333 58006 86710;
0183616270999992000093012004+15370-015120FM-12+0021GOOG V0201801N001012200019N0100001N1+03501+02651101071ADDAA199000091GA1001+999999999GF100991001001999999001001MA1999999100841MD1999999+0041REMSYN070AAXX  30124 61627 32960 01802 10350 20265 30084 40107 333 0//00 58004;EQDQ01  00002PRCP99
0159616270999992000093015004+15370-015120FM-12+0021GOOG V0201401N001012200019N0100001N1+03791+02241100881ADDGA1011+039009079GF101991011001999999031001MA1999999100651MD1999999+0051REMSYN076AAXX  30154 61627 42960 11402 10379 20224 30065 40088 81030 333 58005 81363;
0284616270999992000093018004+15370-015120FM-12+0021GOOG V0201401N001010390019N0100001N1+03811+02721100861ADDAA199000091AY191061GA1021+006009089GA2011+009009099GA3051+039009039GF105991031091008001061001KA1120M+03861MA1999999100571MD1999999+0051MW1171REMSYN112AAXX  30184 61627 31560 51402 10381 20272 30057 40086 7179/ 83960 333 10386 58005 82820 81930 85363 94942 95832;EQDQ01  00002PRCP99
0159616270999992000100109004+15370-015120FM-12+0021GOOG V0201601N002110390019N0100001N1+02641+02531101191ADDGA1071+039009019GF107991071001999999071999MA1999999100961MD1999999+0181REMSYN076AAXX  01094 61627 42960 71604 10264 20253 30096 40119 8707/ 333 58018 87463;
0201616270999992000100112004+15370-015120FM-12+0021GOOG V0202201N002119999999N0120001N1+03201+02721101251ADDAA199000091GA1021+039009039GF106991021001999999031021MA1999999101021MD1999999+0181REMSYN088AAXX  01124 61627 32962 62204 10320 20272 30102 40125 82032 333 0//00 58018 82363 86073;EQDQ01  00002PRCP99
0159616270999992000100115004+15370-015120FM-12+0021GOOG V0202001N001010690019N0120001N1+03681+02691101031ADDGA1051+069009019GF105991001001999999001021MA1999999100801MD1999999+0151REMSYN076AAXX  01154 61627 42962 52002 10368 20269 30080 40103 80002 333 58015 85073;
0208616270999992000100118004+15370-015120FM-12+0021GOOG V0202201N001012200019N0120001N1+03401+02621100951ADDAA199000091GA1041+039009079GF104991041001999999081001KA1120M+03681MA1999999100721MD1999999+0151REMSYN082AAXX  01184 61627 32962 42202 10340 20262 30072 40095 84080 333 10368 58015 84363;EQDQ01  00002PRCP99
0178616270999992000100209004+15370-015120FM-12+0021GOOG V0202201N001010390019N0100001N1+02701+02641101311ADDGA1051+039009019GF105991051001999999071999MA1999999101081MD1999999+0121REMSYN076AAXX  02094 61627 42960 52202 10270 20264 30108 40131 85070 333 58012 85463;EQDQ01+000002SCOHCG
0201616270999992000100212004+15370-015120FM-12+0021GOOG V0202001N001012200019N0120001N1+03101+01262101351ADDAA199000091GA1021+004509069GF104991021051004501001021MA1999999101111MD1999999+0091REMSYN088AAXX  02124 61627 32462 42002 10310 20126 30111 40135 82502 333 0//00 58009 82615 83073;EQDQ01  00002PRCP99
0193616270999992000100215004+15370-015120FM-12+0021GOOG V0202001N002112200019N0120001N1+02341+99999101151ADDGA1021+004809089GA2031+069009009GF104991021021004501001021MA1999999100921MD1999999+0121REMSYN094AAXX  02154 61627 42462 42004 10234 20274 30092 40115 82202 333 58012 82816 83073 94917 95837;
0242616270999992000100218004+15370-015120FM-12+0021GOOG V0202401N001012200019N0120001N1+03241+02641101141ADDAA199000091GA1021+004809089GA2031+069009009GF104991021021004501001021KA1120M+03431MA1999999100911MD1999999+0191REMSYN100AAXX  02184 61627 32462 42402 10324 20264 30091 40114 82202 333 10343 58019 82816 83073 94912 95832;EQDQ01  00002PRCP99
0165616270999992000100309004+15370-015120FM-12+0021GOOG V0209999C000019999999N0100001N1+02581+02441101321ADDGA1031+039009039GF105991031001999999031021MA1999999101081MD1999999+0001REMSYN082AAXX  03094 61627 42960 50000 10258 20244 30108 40132 83032 333 58000 83363 84073;
0201616270999992000100312004+15370-015120FM-12+0021GOOG V0209999C000012200019N0120001N1+03151+02571101331ADDAA199000091GA1021+039009039GF104991021001999999031021MA1999999101101MD1999999-0011REMSYN088AAXX  03124 61627 32962 40000 10315 20257 30110 40133 82032 333 0//00 59001 82363 83073;EQDQ01  00002PRCP99
0187616270999992000100315004+15370-015120FM-12+0021GOOG V0200401N001010390019N0120001N1+03451+02391101141ADDGA1031+004809089GA2031+039009039GF105991031021004501031021MA1999999100911MD1999999-0011REMSYN088AAXX  03154 61627 42462 50402 10345 20239 30091 40114 83232 333 59001 83816 83363 94909;
0262616270999992000100318004+15370-015120FM-12+0021GOOG V0209999C000010090019N0120001N1+03431+02401101011ADDAA199000091AY191061GA1031+006009089GA2031+009009099GF106991061091008001001031KA1120M+03491MA1999999100781MD1999999-0131MW1171REMSYN106AAXX  03184 61627 31562 60000 10343 20240 30078 40101 7179/ 86903 333 10349 59013 83820 83930 94942 95832;EQDQ01  00002PRCP99
0215616270999992000100321004+15370-015120FM-12+0021GOOG V0209999C00001008401CN0080001N1+02401+02371101161ADDGA1041+003309089GA2051+008409099GA3081+027009049GF108991061011004501091999MA1999999100931MD1999999-0131REMSYN100AAXX  03214 61627 41458 80000 10240 20237 30093 40116 8619/ 8632/ 333 59013 84811 85928 88459 95879;
0222616270999992000100400004+15370-015120FM-12+0021GOOG V0201001N00211045001CN0080001N1+02301+02301101501ADDAA106041991AC12I9AY191061AY261061GA1041+000909079GF108991041071001501021999MA1999999101261MD1999999+0051MW1611REMSYN100AAXX  04004 61627 11258 81004 10230 20230 30126 40150 60421 76196 8472/ 333 0//66 58005 84703 88462;
0173616270999992000100403004+15370-015120FM-12+0021GOOG V0200401N002110390019N0080001N1+02301+02301101181ADDAY161031GA1081+039009019GF108991999999999999999999MA1999999100951MD1999999-0121MW1001REMSYN076AAXX  04034 61627 41958 80404 10230 20230 30095 40118 7006/ 333 59012 88463;
0240616270999992000100406004+15370-015120FM-12+0021GOOG V0200401N002119999999N0080001N1+02401+02221101051ADDAA124054191AY161061GF108991081001999999021999IA2240+01909KA1120N+02201MA1999999100821MD1999999-0181MW1211OA150600511REMSYN112AAXX  04064 61627 11958 80404 10240 20222 30082 40105 60544 7216/ 8802/ 333 01969 20220 50350 55107 59018 88463;
0159616270999992000100409004+15370-015120FM-12+0021GOOG V0203601N001010390019N0120001N1+02651+02391101101ADDGA1061+039009079GF106991061001999999071001MA1999999100871MD1999999-0211REMSYN076AAXX  04094 61627 42962 63602 10265 20239 30087 40110 86070 333 59021 86363;
0176616270999992000100412004+15370-015120FM-12+0021GOOG V0203601N001010390019N0120001N1+03271+02141101081ADDAA199000021GA1051+039009079GF105991051001999999031001MA1999999100851MD1999999-0251REMSYN082AAXX  04124 61627 32962 53602 10327 20214 30085 40108 85030 333 0//00 59025 85363;
0188616270999992000100418004+15370-015120FM-12+0021GOOG V0209999C000010390019N0120001N1+03401+02381100881ADDAA199000021GA1061+039009079GF106991061001999999071001KA1120M+03511MA1999999100651MD1999999-0131REMSYN081AAXX  04184 61627 32962 60000 10340 20238 30065 4008886070 333 10351 59013 86363;
0159616270999992000100421004+15370-015120FM-12+0021GOOG V0209999C000010390019N0080001N1+03001+02471100941ADDGA1071+039009079GF107991071001999999071999MA1999999100711MD1999999-0221REMSYN076AAXX  04214 61627 42958 70000 10300 20247 30071 40094 8707/ 333 59022 87363;
0195616270999992000100500004+15370-015120FM-12+0021GOOG V0209999C000010390019N0080001N1+02751+02391101051ADDAA199000091GA1071+039009019GF107991071001999999071999MA1999999100821MD1999999-0441REMSYN082AAXX  05004 61627 32958 70000 10275 20239 30082 40105 8707/ 333 0//00 59044 87463;EQDQ01  00002PRCP99
0159616270999992000100503004+15370-015120FM-12+0021GOOG V0209999C000010390019N0080001N1+02701+02411101011ADDGA1071+039009019GF107991071001999999071999MA1999999100781MD1999999-0171REMSYN076AAXX  05034 61627 42958 70000 10270 20241 30078 40101 8707/ 333 59017 87463;
0159616270999992000100509004+15370-015120FM-12+0021GOOG V0203201N001010390019N0100001N1+02721+02521101041ADDGA1071+039009019GF107991071001999999071999MA1999999100811MD1999999-0061REMSYN076AAXX  05094 61627 42960 73202 10272 20252 30081 40104 8707/ 333 59006 87463;
0201616270999992000100512004+15370-015120FM-12+0021GOOG V0202201N00101045001CN0120001N1+03151+02571101221ADDAA199000091GA1021+004509069GF106991021051004501081001MA1999999100991MD1999999+0141REMSYN088AAXX  05124 61627 32462 62202 10315 20257 30099 40122 82580 333 0//00 58014 82615 86363;EQDQ01  00002PRCP99
0165616270999992000100515004+15370-015120FM-12+0021GOOG V0202201N002112200019N0120001N1+03371+02551101021ADDGA1021+004809069GF104991021051004501081001MA1999999100791MD1999999+0091REMSYN082AAXX  05154 61627 42462 42204 10337 20255 30079 40102 82580 333 58009 82616 83363;
0208616270999992000100518004+15370-015120FM-12+0021GOOG V0202601N001012200019N0120001N1+03301+02581100961ADDAA199000091GA1011+004809059GF101991011051004501001001KA1120M+03421MA1999999100731MD1999999+0081REMSYN082AAXX  05184 61627 32462 12602 10330 20258 30073 40096 81500 333 10342 58008 81616;EQDQ01  00002PRCP99
0183616270999992000100521004+15370-015120FM-12+0021GOOG V0209999C000012200019N0080001N1+02881+02541101031ADDGA1011+009009099GF101991011031008001001001MA1999999100801MD1999999+0091MW1131REMSYN094AAXX  05214 61627 41558 10000 10288 20254 30080 40103 713// 81300 333 58009 81930 94941 95831;
0147616270999992000100609004+15370-015120FM-12+0021GOOG V0202801N001012200019N0100001N1+02711+02531101201ADDGA1001+999999999GF100991001001999999001001MA1999999100971MD1999999+0161REMSYN064AAXX  06094 61627 42960 02802 10271 20253 30097 40120 333 58016;
0165616270999992000100615004+15370-015120FM-12+0021GOOG V0202401N001012200019N0120001N1+03501+02491101081ADDGA1041+004809089GF104991041021004501001001MA1999999100851MD1999999+0061REMSYN082AAXX  06154 61627 42462 42402 10350 20249 30085 40108 84200 333 58006 84816 94909;
0214616270999992000100618004+15370-015120FM-12+0021GOOG V0209999C000012200019N0120001N1+03451+02101101011ADDAA199000091GA1021+006009089GF103991021021008001001021KA1120M+03561MA1999999100781MD1999999+0051REMSYN088AAXX  06184 61627 32562 30000 10345 20210 30078 40101 82202 333 10356 58005 82820 94907;EQDQ01  00002PRCP99
0147616270999992000100621004+15370-015120FM-12+0021GOOG V0209999C000012200019N0080001N1+02961+02711101081ADDGA1001+999999999GF100991001001999999001001MA1999999100851MD1999999+0051REMSYN064AAXX  06214 61627 42958 00000 10296 20271 30085 40108 333 58005;
0183616270999992000100700004+15370-015120FM-12+0021GOOG V0202601N001012200019N0080001N1+02751+02681101211ADDAA199000091GA1001+999999999GF100991001001999999001001MA1999999100981MD1999999-0061REMSYN070AAXX  07004 61627 32958 02602 10275 20268 30098 40121 333 0//00 59006;EQDQ01  00002PRCP99
0147616270999992000100703004+15370-015120FM-12+0021GOOG V0203201N001012200019N0080001N1+02551+02511101161ADDGA1001+999999999GF100991001001999999001001MA1999999100931MD1999999+0031REMSYN064AAXX  07034 61627 42958 03202 10255 20251 30093 40116 333 58003;
0223616270999992000100706004+15370-015120FM-12+0021GOOG V0209999C000012200019N0080001N1+02451+02421101151ADDAA199000091GA1001+999999999GF100991001001999999001001IA2240+02009KA1120N+02451MA1999999100921OA150600511REMSYN088AAXX  07064 61627 32958 00000 10245 20242 30092 40115 333 02000 20245 50490 55100 58009;EQDQ01  00002PRCP99
0147616270999992000100709004+15370-015120FM-12+0021GOOG V0203201N002112200019N0100001N1+02701+02561101231ADDGA1001+999999999GF100991001001999999001001MA1999999101001MD1999999+0031REMSYN064AAXX  07094 61627 42960 03204 10270 20256 30100 40123 333 58003;
0183616270999992000100712004+15370-015120FM-12+0021GOOG V0202801N001012200019N0120001N1+03251+02341101301ADDAA199000091GA1001+999999999GF100991001001999999001001MA1999999101071MD1999999+0031REMSYN070AAXX  07124 61627 32962 02802 10325 20234 30107 40130 333 0//00 58003;EQDQ01  00002PRCP99
0147616270999992000100715004+15370-015120FM-12+0021GOOG V0209999C000012200019N0120001N1+03601+02061101151ADDGA1001+999999999GF100991001001999999001001MA1999999100921MD1999999+0071REMSYN064AAXX  07154 61627 42962 00000 10360 20206 30092 40115 333 58007;
0196616270999992000100718004+15370-015120FM-12+0021GOOG V0209999C000012200019N0120001N1+02621+01921101051ADDAA199000091GA1001+999999999GF100991001001999999001001KA1120M+03671MA1999999100821MD1999999+0041REMSYN070AAXX  07184 61627 32962 00000 10262 20192 30082 40105 333 10367 58004;EQDQ01  00002PRCP99
0147616270999992000100721004+15370-015120FM-12+0021GOOG V0202601N001012200019N0080001N1+02921+02231101131ADDGA1001+999999999GF100991001001999999001001MA1999999100901MD1999999+0051REMSYN064AAXX  07214 61627 42958 02602 10292 20223 30090 40113 333 58005;
0183616270999992000100800004+15370-015120FM-12+0021GOOG V0203201N001012200019N0080001N1+02611+02221101231ADDAA199000091GA1001+999999999GF100991001001999999001001MA1999999101001MD1999999+0021REMSYN070AAXX  08004 61627 32958 03202 10261 20222 30100 40123 333 0//00 58002;EQDQ01  00002PRCP99
0223616270999992000100806004+15370-015120FM-12+0021GOOG V0203201N001012200019N0080001N1+02311+02271101141ADDAA199000091GA1001+999999999GF100991001001999999001001IA2240+02009KA1120N+02311MA1999999100911OA150600511REMSYN088AAXX  08064 61627 32958 03202 10231 20227 30091 40114 333 02000 20231 50530 55105 59001;EQDQ01  00002PRCP99
0147616270999992000100809004+15370-015120FM-12+0021GOOG V0203201N002112200019N0100001N1+02501+02281101261ADDGA1001+999999999GF100991001001999999001001MA1999999101021MD1999999+0021REMSYN064AAXX  08094 61627 42960 03204 10250 20228 30102 40126 333 58002;
0183616270999992000100812004+15370-015120FM-12+0021GOOG V0209999C000012200019N0120001N1+03251+02071101331ADDAA199000091GA1001+999999999GF100991001001999999001001MA1999999101101MD1999999+0031REMSYN070AAXX  08124 61627 32962 00000 10325 20207 30110 40133 333 0//00 58003;EQDQ01  00002PRCP99
0147616270999992000100815004+15370-015120FM-12+0021GOOG V0203201N001012200019N0120001N1+03631+01881101081ADDGA1001+999999999GF100991001001999999001001MA1999999100851MD1999999-0071REMSYN064AAXX  08154 61627 42962 03202 10363 20188 30085 40108 333 59007;
0196616270999992000100818004+15370-015120FM-12+0021GOOG V0209999C000012200019N0120001N1+03601+01811100981ADDAA199000091GA1001+999999999GF100991001001999999001001KA1120M+03721MA1999999100751MD1999999-0071REMSYN070AAXX  08184 61627 32962 00000 10360 20181 30075 40098 333 10372 59007;EQDQ01  00002PRCP99
0147616270999992000100821004+15370-015120FM-12+0021GOOG V0209999C000012200019N0080001N1+02781+02061101041ADDGA1001+999999999GF100991001001999999001001MA1999999100811MD1999999-0091REMSYN064AAXX  08214 61627 42958 00000 10278 20206 30081 40104 333 59009;
0183616270999992000100900004+15370-015120FM-12+0021GOOG V0203201N001012200019N0080001N1+02551+02021101131ADDAA199000091GA1001+999999999GF100991001001999999001001MA1999999100901MD1999999-0101REMSYN070AAXX  09004 61627 32958 03202 10255 20202 30090 40113 333 0//00 59010;EQDQ01  00002PRCP99
0223616270999992000100906004+15370-015120FM-12+0021GOOG V0203201N001012200019N0080001N1+02201+02171101061ADDAA199000091GA1001+999999999GF100991001001999999001001IA2240+01809KA1120N+02201MA1999999100831OA150600511REMSYN088AAXX  09064 61627 32958 03202 10220 20217 30083 40106 333 01800 20220 50540 55107 59008;EQDQ01  00002PRCP99
0147616270999992000100909004+15370-015120FM-12+0021GOOG V0203201N002112200019N0100001N1+02481+02251101171ADDGA1001+999999999GF100991001001999999001001MA1999999100941MD1999999-0081REMSYN064AAXX  09094 61627 42960 03204 10248 20225 30094 40117 333 59008;
0183616270999992000100912004+15370-015120FM-12+0021GOOG V0203601N002112200019N0120001N1+03281+01961101231ADDAA199000091GA1001+999999999GF100991001001999999001001MA1999999101001MD1999999-0101REMSYN070AAXX  09124 61627 32962 03604 10328 20196 30100 40123 333 0//00 59010;EQDQ01  00002PRCP99
0159616270999992000100915004+15370-015120FM-12+0021GOOG V0203201N001012200019N0120001N1+03691+01501101041ADDGA1031+069009019GF103991001001999999001021MA1999999100811MD1999999-0041REMSYN076AAXX  09154 61627 42962 33202 10369 20150 30081 40104 80002 333 59004 83073;
0208616270999992000100918004+15370-015120FM-12+0021GOOG V0209999C000010690019N0120001N1+03631+01761100971ADDAA199000091GA1051+069009019GF105991001001999999001021KA1120M+03761MA1999999100741MD1999999-0011REMSYN082AAXX  09184 61627 32962 50000 10363 20176 30074 40097 80002 333 10376 59001 85073;EQDQ01  00002PRCP99
0159616270999992000100921004+15370-015120FM-12+0021GOOG V0203201N001012200019N0080001N1+02981+02041100991ADDGA1031+039009079GF103991031001999999031001MA1999999100761MD1999999-0051REMSYN076AAXX  09214 61627 42958 33202 10298 20204 30076 40099 83030 333 59005 83363;
0195616270999992000101000004+15370-015120FM-12+0021GOOG V0203001N001012200019N0080001N1+02581+02201101081ADDAA199000091GA1021+039009079GF102991021001999999031001MA1999999100851MD1999999-0051REMSYN082AAXX  10004 61627 32958 23002 10258 20220 30085 40108 82030 333 0//00 59005 82363;EQDQ01  00002PRCP99
0159616270999992000101009004+15370-015120FM-12+0021GOOG V0203201N002112200019N0100001N1+02501+02201101091ADDGA1031+039009079GF103991031001999999081001MA1999999100861MD1999999-0081REMSYN076AAXX  10094 61627 42960 33204 10250 20220 30086 40109 83080 333 59008 83363;
0195616270999992000101012004+15370-015120FM-12+0021GOOG V0200401N001012200019N0120001N1+03251+01741101151ADDAA199000091GA1021+039009079GF102991021001999999031001MA1999999100921MD1999999-0081REMSYN082AAXX  10124 61627 32962 20402 10325 20174 30092 40115 82030 333 0//00 59008 82363;EQDQ01  00002PRCP99
0159616270999992000101015004+15370-015120FM-12+0021GOOG V0209999C000012200019N0120001N1+03701+02101100931ADDGA1021+069009019GF102991001001999999001021MA1999999100701MD1999999-0091REMSYN076AAXX  10154 61627 42962 20000 10370 20210 30070 40093 80002 333 59009 82073;
0196616270999992000101018004+15370-015120FM-12+0021GOOG V0209999C000012200019N0120001N1+03701+02171100751ADDAA199000091GA1001+999999999GF100991001001999999001001KA1120M+03851MA1999999100521MD1999999-0221REMSYN070AAXX  10184 61627 32962 00000 10370 20217 30052 40075 333 10385 59022;EQDQ01  00002PRCP99
0183616270999992000101100004+15370-015120FM-12+0021GOOG V0209999C000012200019N0080001N1+02551+02271100911ADDAA199000091GA1001+999999999GF100991001001999999001001MA1999999100681MD1999999-0171REMSYN070AAXX  11004 61627 32858 00000 10255 20227 30068 40091 333 0//00 59017;EQDQ01  00002PRCP99
0223616270999992000101106004+15370-015120FM-12+0021GOOG V0209999C000012200019N0080001N1+02321+02291100751ADDAA199000091GA1001+999999999GF100991001001999999001001IA2240+01709KA1120N+02321MA1999999100521OA150600461REMSYN088AAXX  11064 61627 32958 00000 10232 20229 30052 40075 333 01700 20232 50410 55099 59021;EQDQ01  00002PRCP99
0147616270999992000101109004+15370-015120FM-12+0021GOOG V0202201N001012200019N0100001N1+02521+02371100921ADDGA1001+999999999GF100991001001999999001001MA1999999100691MD1999999-0151REMSYN064AAXX  11094 61627 42960 02202 10252 20237 30069 40092 333 59015;
0183616270999992000101112004+15370-015120FM-12+0021GOOG V0200801N001012200019N0120001N1+03301+02041100931ADDAA199000091GA1001+999999999GF100991001001999999001001MA1999999100701MD1999999-0221REMSYN070AAXX  11124 61627 32962 00802 10330 20204 30070 40093 333 0//00 59022;EQDQ01  00002PRCP99
0147616270999992000101115004+15370-015120FM-12+0021GOOG V0201201N001012200019N0120001N1+03761+02161100731ADDGA1001+999999999GF100991001001999999001001MA1999999100501MD1999999-0201REMSYN064AAXX  11154 61627 42962 01202 10376 20216 30050 40073 333 59020;
0208616270999992000101118004+15370-015120FM-12+0021GOOG V0209999C000012200019N0120001N1+03721+02181100631ADDAA199000091GA1021+069009019GF102991001001999999001021KA1120M+03791MA1999999100401MD1999999-0121REMSYN082AAXX  11184 61627 32962 20000 10372 20218 30040 40063 80002 333 10379 59012 82073;EQDQ01  00002PRCP99
0159616270999992000101121004+15370-015120FM-12+0021GOOG V0209999C000012200019N0080001N1+02921+02441100851ADDGA1021+069009019GF102991001001999999001021MA1999999100621MD1999999+0021REMSYN076AAXX  11214 61627 42958 20000 10292 20244 30062 40085 80002 333 58002 82073;
0183616270999992000101200004+15370-015120FM-12+0021GOOG V0201201N001012200019N0080001N1+02881+02561100911ADDAA199000091GA1001+999999999GF100991001001999999001001MA1999999100681MD1999999+0001REMSYN070AAXX  12004 61627 32958 01202 10288 20256 30068 40091 333 0//00 58000;EQDQ01  00002PRCP99
0159616270999992000101209004+15370-015120FM-12+0021GOOG V0202201N002110045019N0100001N1+02831+02621101091ADDGA1051+004509059GF105991051051004501001001MA1999999100861MD1999999+0171REMSYN076AAXX  12094 61627 42460 52204 10283 20262 30086 40109 85500 333 58017 85615;
0207616270999992000101212004+15370-015120FM-12+0021GOOG V0201601N001012200019N0120001N1+03381+02671101151ADDAA199000091GA1011+004509069GF103991021021004501001011MA1999999100921MD1999999+0111REMSYN094AAXX  12124 61627 32462 31602 10338 20267 30092 40115 82201 333 0//00 58011 81615 94902 95832;EQDQ01  00002PRCP99
0165616270999992000101215004+15370-015120FM-12+0021GOOG V0200801N003112200019N0120001N1+03501+02291100991ADDGA1021+005409089GF103991021021004501031001MA1999999100701MD1999999+0261REMSYN082AAXX  12154 61627 42462 30806 10350 20229 30070 40099 82230 333 58026 82818 94905;
0214616270999992000101218004+15370-015120FM-12+0021GOOG V0201401N002119999999N0120001N1+03251+02121100951ADDAA199000091GA1041+039009039GF107991041001999999031021KA1120M+03581MA1999999100721MD1999999+0321REMSYN088AAXX  12184 61627 32962 71404 10325 20212 30072 40095 84032 333 10358 58032 84363 86073;EQDQ01  00002PRCP99
0165616270999992000101221004+15370-015120FM-12+0021GOOG V0201401N001019999999N0080001N1+02901+02371101111ADDGA1021+039009039GF107991021001999999031021MA1999999100881MD1999999+0261REMSYN082AAXX  12214 61627 42958 71402 10290 20237 30088 40111 82032 333 58026 82363 86073;
0195616270999992000101300004+15370-015120FM-12+0021GOOG V0203601N001010390019N0080001N1+02751+02611101271ADDAA199000091GA1081+039009079GF108991081001999999031999MA1999999101041MD1999999+0361REMSYN082AAXX  13004 61627 32958 83602 10275 20261 30104 40127 8803/ 333 0//00 58036 88363;EQDQ01  00002PRCP99
0159616270999992000101309004+15370-015120FM-12+0021GOOG V0201001N001010390019N0100001N1+02881+02461101271ADDGA1051+039009079GF106991051001999999071021MA1999999101041MD1999999+0181REMSYN076AAXX  13094 61627 42960 61002 10288 20246 30104 40127 85072 333 58018 85363;
0239616270999992000101312004+15370-015120FM-12+0021GOOG V0200401N002110048019N0120001N1+03221+02541101341ADDAA199000091GA1051+004809089GA2071+039009039GF199999051021004501071001MA1999999101111MD1999999+0191REMSYN094AAXX  13124 61627 32462 60404 10322 20254 30111 40134 85270 333 0//00 58019 85816 87363 94909;EQDQ01+000062SCOTCVQ02  00002PRCP99
0213616270999992000101315004+15370-015120FM-12+0021GOOG V0209999C000010390019N0100001N1+02661+02461101241ADDAY161031GA1031+004809089GA2071+039009049GF107991031021004501021999MA1999999101001MD1999999+0241MW1601REMSYN100AAXX  13154 61627 41460 70000 10266 20246 30100 40124 7606/ 8322/ 333 58024 83816 87463 94904 95874;
0215616270999992000101318004+15370-015120FM-12+0021GOOG V0201001N001010390019N0120001N1+02951+02551101111ADDAA112000591AY161061GA1071+039009019GF107991071001999999071999KA1120M+03221MA1999999100881MD1999999+0161MW1011REMSYN094AAXX  13184 61627 11962 71002 10295 20255 30088 40111 69942 7016/ 8707/ 333 10322 58016 87463;
0159616270999992000101321004+15370-015120FM-12+0021GOOG V0209999C000010390019N0080001N1+02801+02531101141ADDGA1071+039009019GF107991071001999999071999MA1999999100911MD1999999+0071REMSYN076AAXX  13214 61627 42958 70000 10280 20253 30091 40114 8707/ 333 58007 87463;
0176616270999992000101400004+15370-015120FM-12+0021GOOG V0209999C000010390019N0080001N1+02781+02591101291ADDAA199000021GA1081+039009019GF108991081001999999071999MA1999999101061MD1999999+0021REMSYN082AAXX  14004 61627 32958 80000 10278 20259 30106 40129 8807/ 333 0//00 58002 88463;
0253616270999992000101406004+15370-015120FM-12+0021GOOG V0201201N001019999999N0080001N1+02501+02471101111ADDAA199000091AY191061GF105991051001999999071001IA2240+01709KA1120N+02501MA1999999100881MD1999999+0221MW1021OA150600511REMSYN106AAXX  14064 61627 31958 51202 10250 20247 30088 40111 7029/ 85070 333 01700 20250 50520 55106 58022 85363;EQDQ01  00002PRCP99
0159616270999992000101409004+15370-015120FM-12+0021GOOG V0200401N002110390019N0100001N1+02461+02371101241ADDGA1071+039009019GF107991071001999999071999MA1999999101001MD1999999-0041REMSYN076AAXX  14094 61627 42960 70404 10246 20237 30100 40124 8707/ 333 59004 87463;
0208616270999992000101412004+15370-015120FM-12+0021GOOG V0200801N002110390019N0100001N1+02701+02361101341ADDAA106000791AC11C9AY161061GA1081+039009019GF108991081001999999071999MA1999999101101MD1999999-0011MW1601REMSYN094AAXX  14124 61627 11960 80804 10270 20236 30110 40134 69901 7606/ 8807/ 333 0//11 59001 88463;
0181616270999992000101415004+15370-015120FM-12+0021GOOG V0200401N002110390019N0100001N1+02811+02401101171ADDAY161031AY221031GA1081+039009019GF108991999999999999999999MA1999999100941MD1999999-0061MW1601REMSYN076AAXX  14154 61627 41960 80404 10281 20240 30094 40117 76062 333 59006 88463;
0229616270999992000101418004+15370-015120FM-12+0021GOOG V0201201N00101045001CN0100001N1+02681+02651101101ADDAA112000791AY161061AY221061GA1031+001509079GF108991031071001501071999KA1120M+02851MA1999999100871MD1999999-0011MW1601REMSYN100AAXX  14184 61627 11260 81202 10268 20265 30087 40110 69902 76062 8377/ 333 10285 59001 83705 88463;
0165616270999992000101509004+15370-015120FM-12+0021GOOG V0201401N00101045001CN0100001N1+02481+02411101301ADDGA1031+001809079GF108991031061002501071999MA1999999101061MD1999999+0061REMSYN082AAXX  15094 61627 42360 81402 10248 20241 30106 40130 8367/ 333 58006 83706 88463;
0201616270999992000101512004+15370-015120FM-12+0021GOOG V0200401N00101045001CN0120001N1+02991+02511101331ADDAA199000091GA1041+004509069GF108991041051004501071999MA1999999101091MD1999999-0011REMSYN088AAXX  15124 61627 32462 80402 10299 20251 30109 40133 8457/ 333 0//00 59001 84615 87463;EQDQ01  00002PRCP99
0171616270999992000101515004+15370-015120FM-12+0021GOOG V0201401N003110048019N0120001N1+03001+02581101131ADDGA1051+004809089GF106991051021004501081001MA1999999100901MD1999999-0041REMSYN088AAXX  15154 61627 42462 61406 10300 20258 30090 40113 85280 333 59004 85816 94919 95879;
0214616270999992000101518004+15370-015120FM-12+0021GOOG V0201801N00311045001CN0100001N1+02701+02551101031ADDAA199000091GA1021+004809069GF106991021051004501071001KA1120M+03091MA1999999100801MD1999999-0071REMSYN088AAXX  15184 61627 32460 61806 10270 20255 30080 40103 82570 333 10309 59007 82616 86463;EQDQ01  00002PRCP99
0159616270999992000101603004+15370-015120FM-12+0021GOOG V0209999C000010390019N0100001N1+02501+02331101331ADDGA1061+039009079GF106991061001999999081001MA1999999101251MD1999999-0051REMSYN076AAXX  16034 61627 43960 60000 10250 20233 30125 40133 86080 333 59005 86363;
0246616270999992000101606004+15370-015120FM-12+0021GOOG V0200401N001019999999N0080001N1+02311+02311101241ADDAA124022191AC11C9AY161061GF108991081001999999021999IA2240+02009KA1120N+02311MA1999999101001MD1999999+0061MW1611OA150600261REMSYN112AAXX  16064 61627 11958 80402 10231 20231 30100 40124 60224 7616/ 8802/ 333 02021 20231 50220 55050 58006 88463;
0187616270999992000101609004+15370-015120FM-12+0021GOOG V0209999C000010390019N0100001N1+02431+02391101391ADDAY161031AY221031GA1081+039009019GF108991081001999999071999MA1999999101151MD1999999+0091MW1211REMSYN082AAXX  16094 61627 41960 80000 10243 20239 30115 40139 72162 8807/ 333 58009 88463;
0214616270999992000101612004+15370-015120FM-12+0021GOOG V0201401N00101045001CN0100001N1+02691+02541101491ADDAA106000391AC12I9AY161061GA1041+003009079GF108991041071004501071999MA1999999101251MD1999999+0161MW1001REMSYN100AAXX  16124 61627 11460 81402 10269 20254 30125 40149 69931 7006/ 8477/ 333 0//16 58016 84710 87463;
0165616270999992000101615004+15370-015120FM-12+0021GOOG V0201801N001010039019N0100001N1+02931+02551101371ADDGA1061+003909069GF108991061051004501071999MA1999999101131MD1999999+0231REMSYN082AAXX  16154 61627 42460 81802 10293 20255 30113 40137 8657/ 333 58023 86613 88463;
0229616270999992000101618004+15370-015120FM-12+0021GOOG V0209999C00001045001CN0100001N1+02481+02481101391ADDAA124006191AY191061AY261061GA1031+001809079GF108991031071002501081999KA1120M+03001MA1999999101151MD1999999+0351MW1291REMSYN100AAXX  16184 61627 11360 80000 10248 20248 30115 40139 60064 72996 8378/ 333 10300 58035 83706 88363;
0159616270999992000101703004+15370-015120FM-12+0021GOOG V0209999C000010390019N0080001N1+02401+02401101491ADDGA1061+039009079GF106991061001999999071001MA1999999101251MD1999999+0251REMSYN076AAXX  17034 61627 42958 60000 10240 20240 30125 40149 86070 333 58025 86363;
0261616270999992000101706004+15370-015120FM-12+0021GOOG V0201401N001010450019N0080001N1+02401+02401101461ADDAA124006191GA1041+001509079GF108991041061001501071999IA2240+01909KA1120N+02401MA1999999101221MD1999999+0221OA150699999REMSYN112AAXX  17064 61627 12258 81402 10240 20240 30122 40146 60064 8467/ 333 01959 20240 50260 55000 58022 84705 85363;EQDQ01  00002WGOSPD
0165616270999992000101709004+15370-015120FM-12+0021GOOG V0200801N00211045001CN0100001N1+02381+02291101591ADDGA1021+001809079GF106991021061002501071001MA1999999101351MD1999999+0201REMSYN082AAXX  17094 61627 42360 60804 10238 20229 30135 40159 82670 333 58020 82706 86363;
0195616270999992000101712004+15370-015120FM-12+0021GOOG V0200801N001010390019N0120001N1+02901+02401101601ADDAA199000091GA1061+039009079GF106991061001999999071001MA1999999101371MD1999999+0121REMSYN082AAXX  17124 61627 32962 60802 10290 20240 30137 40160 86070 333 0//00 58012 86363;EQDQ01  00002PRCP99
0159616270999992000101715004+15370-015120FM-12+0021GOOG V0200801N001010390019N0120001N1+03051+02511101511ADDGA1071+039009079GF107991071001999999071999MA1999999101281MD1999999+0151REMSYN076AAXX  17154 61627 42962 70802 10305 20251 30128 40151 8707/ 333 58015 87363;
0208616270999992000101718004+15370-015120FM-12+0021GOOG V0209999C000010390019N0120001N1+02951+02681101441ADDAA199000091GA1071+039009079GF107991071001999999071999KA1120M+03081MA1999999101201MD1999999+0051REMSYN082AAXX  17184 61627 32962 70000 10295 20268 30120 40144 8707/ 333 10308 58005 87363;EQDQ01  00002PRCP99
0233616270999992000101806004+15370-015120FM-12+0021GOOG V0209999C000019999999N0080001N1+02501+02501101491ADDAA199000091GF108991081001999999071999IA2240+01809KA1120N+02501MA1999999101251MD1999999+0031OA150600001REMSYN100AAXX  18064 61627 32958 80000 10250 20250 30125 40149 8807/ 333 01800 20250 50120 55008 58003 88463;EQDQ01  00002PRCP99
0159616270999992000101809004+15370-015120FM-12+0021GOOG V0209999C000010390019N0100001N1+02501+02431101541ADDGA1071+039009019GF107991071001999999071999MA1999999101301MD1999999+0051REMSYN076AAXX  18094 61627 42960 70000 10250 20243 30130 40154 8707/ 333 58005 87463;
0208616270999992000101812004+15370-015120FM-12+0021GOOG V0209999C000010360019N0100001N1+02151+02151101821ADDAA106017091AC12C9AY161061GA1081+036009019GF108991081001999999021999MA1999999101581MD1999999+0211MW1611REMSYN094AAXX  18124 61627 11960 80000 10215 20215 30158 40182 60171 7616/ 8802/ 333 0//52 58021 88462;
0193616270999992000101815004+15370-015120FM-12+0021GOOG V0203601N00101045001CN0100001N1+02151+02151101541ADDAY161031AY221031GA1041+000909079GF108991041071001501021999MA1999999101301MD1999999+0021MW1601REMSYN088AAXX  18154 61627 41260 83602 10215 20215 30130 40154 76062 8472/ 333 58002 84703 88462;
0229616270999992000101818004+15370-015120FM-12+0021GOOG V0203201N00211045001CN0100001N1+02231+02081101441ADDAA112023991AY161061AY221061GA1031+000909079GF108991031071001501021999KA1120M+02581MA1999999101201MD1999999+0001MW1301REMSYN100AAXX  18184 61627 11260 83204 10223 20208 30120 40144 60242 73062 8372/ 333 10258 58000 83703 88462;
0159616270999992000101909004+15370-015120FM-12+0021GOOG V0203001N001010390019N0100001N1+02301+02271101391ADDGA1071+039009079GF107991071001999999071999MA1999999101151MD1999999-0151REMSYN076AAXX  19094 61627 42960 73002 10230 20227 30115 40139 8707/ 333 59015 87363;
0195616270999992000101912004+15370-015120FM-12+0021GOOG V0202201N001010390019N0120001N1+02811+02361101521ADDAA199000091GA1061+039009079GF106991061001999999071001MA1999999101281MD1999999-0301REMSYN082AAXX  19124 61627 32962 62202 10281 20236 30128 40152 86070 333 0//00 59030 86363;EQDQ01  00002PRCP99
0159616270999992000101915004+15370-015120FM-12+0021GOOG V0209999C000010390019N0120001N1+02311+99999101241ADDGA1061+039009079GF106991061001999999071001MA1999999101001MD1999999-0301REMSYN076AAXX  19154 61627 42962 60000 10231 20245 30100 40124 86070 333 59030 86363;
0208616270999992000101918004+15370-015120FM-12+0021GOOG V0209999C000010390019N0100001N1+03101+02731101131ADDAA199000091GA1051+039009079GF105991051001999999081001KA1120M+03161MA1999999100901MD1999999-0301REMSYN082AAXX  19184 61627 32960 50000 10310 20273 30090 40113 85080 333 10316 59030 85363;EQDQ01  00002PRCP99
0233616270999992000102006004+15370-015120FM-12+0021GOOG V0209999C000019999999N0080001N1+02351+02281101001ADDAA199000091GF106991061001999999071001IA2240+01909KA1120N+02351MA1999999100841MD1999999-0271OA150600101REMSYN100AAXX  20064 61627 32958 60000 10235 20228 30084 40100 86070 333 01900 20235 50150 55028 59027 86363;EQDQ01  00002PRCP99
0159616270999992000102009004+15370-015120FM-12+0021GOOG V0203201N001010390019N0100001N1+02501+02011101151ADDGA1061+039009079GF106991061001999999071001MA1999999100921MD1999999-0231REMSYN076AAXX  20094 61627 42960 63202 10250 20201 30092 40115 86070 333 59023 86363;
0195616270999992000102012004+15370-015120FM-12+0021GOOG V0200601N002110690019N0100001N1+03181+01981101161ADDAA199000091GA1061+069009019GF106991001001999999001021MA1999999100931MD1999999-0351REMSYN082AAXX  20124 61627 32960 60604 10318 20198 30093 40116 80002 333 0//00 59035 86073;EQDQ01  00002PRCP99
0214616270999992000102018004+15370-015120FM-12+0021GOOG V0200401N001019999999N0100001N1+03281+02071100971ADDAA199000091GA1031+039009039GF107991031001999999071021KA1120M+03591MA1999999100741MD1999999-0161REMSYN088AAXX  20184 61627 32960 70402 10328 20207 30074 40097 83072 333 10359 59016 83363 85073;EQDQ01  00002PRCP99
0145616270999992000102109004+15370-015120FM-12+0021GOOG V0200601N001019999999N0100001N1+02801+01961101231ADDGA1031+069009019GF106991021001999999031021MA1999999101001REMSYN076AAXX  21094 61627 42960 60602 10280 20196 30100 40123 82032 333 2363/ 83073;
0195616270999992000102112004+15370-015120FM-12+0021GOOG V0201201N002112200019N0120001N1+03251+01891101281ADDAA199000091GA1041+069009019GF104991001001999999001021MA1999999101051MD1999999+0121REMSYN082AAXX  21124 61627 32962 41204 10325 20189 30105 40128 80002 333 0//00 58012 84073;EQDQ01  00002PRCP99
0159616270999992000102115004+15370-015120FM-12+0021GOOG V0200801N002112200019N0120001N1+03401+01821101031ADDGA1021+069009019GF102991001001999999001021MA1999999100801MD1999999+0061REMSYN076AAXX  21154 61627 42962 20804 10340 20182 30080 40103 80002 333 58006 82073;
0208616270999992000102118004+15370-015120FM-12+0021GOOG V0209999C000012200019N0120001N1+03251+00981101011ADDAA199000091GA1021+069009019GF102991001001999999001021KA1120M+03431MA1999999100781MD1999999+0041REMSYN082AAXX  21184 61627 32962 20000 10325 20098 30078 40101 80002 333 10343 58004 82073;EQDQ01  00002PRCP99
0159616270999992000102209004+15370-015120FM-12+0021GOOG V0209999C000012200019N0100001N1+02401+01951101211ADDGA1021+069009019GF102991001001999999001021MA1999999100981MD1999999-0021REMSYN076AAXX  22094 61627 42960 20000 10240 20195 30098 40121 80002 333 59002 82073;
0195616270999992000102212004+15370-015120FM-12+0021GOOG V0209999C000012200019N0100001N1+03281+01301101261ADDAA199000091GA1011+069009019GF101991001001999999001021MA1999999101031MD1999999-0021REMSYN082AAXX  22124 61627 32960 10000 10328 20130 30103 40126 80002 333 0//00 59002 81073;EQDQ01  00002PRCP99
0159616270999992000102215004+15370-015120FM-12+0021GOOG V0200601N001012200019N0100001N1+03531+01201101011ADDGA1021+069009019GF102991001001999999001021MA1999999100781MD1999999-0021REMSYN076AAXX  22154 61627 42960 20602 10353 20120 30078 40101 80002 333 59002 82073;
0208616270999992000102218004+15370-015120FM-12+0021GOOG V0209999C000012200019N0100001N1+03351+01361100981ADDAA199000091GA1031+069009019GF103991001001999999001021KA1120M+03561MA1999999100751MD1999999-0031REMSYN082AAXX  22184 61627 32960 30000 10335 20136 30075 40098 80002 333 10356 59003 83073;EQDQ01  00002PRCP99
0233616270999992000102306004+15370-015120FM-12+0021GOOG V0203001N001012200019N0080001N1+02121+02121101141ADDAA199000091GF101991001001999999001021IA2240+01709KA1120N+02121MA1999999100911MD1999999+0031OA150600511REMSYN100AAXX  23064 61627 32958 13002 10212 20212 30091 40114 80002 333 01700 20212 50710 55105 58003 81073;EQDQ01  00002PRCP99
0195616270999992000102312004+15370-015120FM-12+0021GOOG V0209999C000010690019N0120001N1+03191+01831101261ADDAA199000091GA1051+069009019GF105991001001999999001021MA1999999101031MD1999999+0001REMSYN082AAXX  23124 61627 32962 50000 10319 20183 30103 40126 80002 333 0//00 58000 85073;EQDQ01  00002PRCP99
0159616270999992000102315004+15370-015120FM-12+0021GOOG V0209999C000010690019N0120001N1+03511+01631101101ADDGA1051+069009019GF105991001001999999001021MA1999999100871MD1999999+0091REMSYN076AAXX  23154 61627 42962 50000 10351 20163 30087 40110 80002 333 58009 85073;
0208616270999992000102318004+15370-015120FM-12+0021GOOG V0209999C000012200019N0100001N1+03401+01891101011ADDAA199000091GA1031+069009019GF103991001001999999001021KA1120M+03581MA1999999100781MD1999999+0031REMSYN082AAXX  23184 61627 32960 30000 10340 20189 30078 40101 80002 333 10358 58003 83073;EQDQ01  00002PRCP99
0233616270999992000102406004+15370-015120FM-12+0021GOOG V0209999C000012200019N0080001N1+01951+01791100951ADDAA199000091GF103991001001999999001021IA2240+01709KA1120N+01951MA1999999100721MD1999999-0191OA150600511REMSYN100AAXX  24064 61627 32958 30000 10195 20179 30072 40095 80002 333 01700 20195 50390 55100 59019 83073;EQDQ01  00002PRCP99
0159616270999992000102409004+15370-015120FM-12+0021GOOG V0203601N001012200019N0100001N1+02251+01691101111ADDGA1021+069009019GF102991001001999999001021MA1999999100881MD1999999-0151REMSYN076AAXX  24094 61627 42960 23602 10225 20169 30088 40111 80002 333 59015 82073;
0195616270999992000102412004+15370-015120FM-12+0021GOOG V0203601N002112200019N0100001N1+03171+01501101131ADDAA199000091GA1031+069009019GF103991001001999999001021MA1999999100901MD1999999-0131REMSYN082AAXX  24124 61627 32960 33604 10317 20150 30090 40113 80002 333 0//00 59013 83073;EQDQ01  00002PRCP99
0159616270999992000102415004+15370-015120FM-12+0021GOOG V0209999C000010690019N0100001N1+03451+01501100921ADDGA1051+069009019GF105991001001999999001021MA1999999100691MD1999999-0181REMSYN076AAXX  24154 61627 42960 50000 10345 20150 30069 40092 80002 333 59018 85073;
0208616270999992000102418004+15370-015120FM-12+0021GOOG V0209999C000010690019N0100001N1+03301+01761100871ADDAA199000091GA1061+069009019GF106991001001999999001021KA1120M+03531MA1999999100641MD1999999-0141REMSYN082AAXX  24184 61627 32960 60000 10330 20176 30064 40087 80002 333 10353 59014 86073;EQDQ01  00002PRCP99
0223616270999992000102506004+15370-015120FM-12+0021GOOG V0209999C000012200019N0080001N1+02051+01971101061ADDAA199000091GA1001+999999999GF100991001001999999001001IA2240+01609KA1120N+02051MA1999999100831OA150600511REMSYN088AAXX  25064 61627 32958 00000 10205 20197 30083 40106 333 01600 20205 50560 55105 58011;EQDQ01  00002PRCP99
0159616270999992000102509004+15370-015120FM-12+0021GOOG V0209999C000012200019N0100001N1+02381+02031101241ADDGA1021+039009079GF102991021001999999031001MA1999999101001MD1999999+0121REMSYN076AAXX  25094 61627 42960 20000 10238 20203 30100 40124 82030 333 58012 82363;
0141616270999992000102512004+15370-015120FM-12+0021GOOG V0209999C000019999999N0120001N1+03151+01871101221ADDAA199000091MA1999999100991MD1999999+0091REMSYN070AAXX  25124 61627 32962 /0000 10315 20187 30099 40122 333 0//00 58009;EQDQ01  00002PRCP99
0165616270999992000102515004+15370-015120FM-12+0021GOOG V0209999C000019999999N0120001N1+03501+01801101001ADDGA1021+039009039GF106991021001999999031021MA1999999100771MD1999999+0081REMSYN082AAXX  25154 61627 42962 60000 10350 20180 30077 40100 82032 333 58008 82363 85073;
0208616270999992000102518004+15370-015120FM-12+0021GOOG V0209999C000010690019N0100001N1+03381+01911100931ADDAA199000091GA1061+069009019GF106991001001999999001021KA1120M+03551MA1999999100701MD1999999+0061REMSYN082AAXX  25184 61627 32960 60000 10338 20191 30070 40093 80002 333 10355 58006 86073;EQDQ01  00002PRCP99
0159616270999992000102609004+15370-015120FM-12+0021GOOG V0209999C000010690019N0100001N1+02501+01851101151ADDGA1061+069009019GF106991001001999999001021MA1999999100931MD1999999-0071REMSYN076AAXX  26094 61627 42960 60000 10250 20185 30093 40115 80002 333 59007 86073;
0195616270999992000102612004+15370-015120FM-12+0021GOOG V0200401N001010690019N0120001N1+03311+01551101251ADDAA199000091GA1061+069009019GF106991001001999999001021MA1999999101021MD1999999+0031REMSYN082AAXX  26124 61627 32962 60402 10331 20155 30102 40125 80002 333 0//00 58003 86073;EQDQ01  00002PRCP99
0159616270999992000102615004+15370-015120FM-12+0021GOOG V0200401N001010690019N0120001N1+03451+01631101011ADDGA1071+069009019GF107991001001999999001021MA1999999100781MD1999999+0011REMSYN076AAXX  26154 61627 42962 70402 10345 20163 30078 40101 80002 333 58001 87073;
0208616270999992000102618004+15370-015120FM-12+0021GOOG V0203601N001010690019N0120001N1+03251+02321100971ADDAA199000091GA1061+069009019GF106991001001999999001021KA1120M+03511MA1999999100741MD1999999+0041REMSYN082AAXX  26184 61627 32962 63602 10325 20232 30074 40097 80002 333 10351 58004 86073;EQDQ01  00002PRCP99
0223616270999992000102706004+15370-015120FM-12+0021GOOG V0203201N001012200019N0080001N1+02381+02161101041ADDAA199000091GA1001+999999999GF100991001001999999001001IA2240+02009KA1120N+02381MA1999999100811OA150600211REMSYN088AAXX  27064 61627 32958 03202 10238 20216 30081 40104 333 02000 20238 50480 55040 58000;EQDQ01  00002PRCP99
0159616270999992000102709004+15370-015120FM-12+0021GOOG V0203201N001012200019N0100001N1+02711+02261101211ADDGA1021+039009079GF102991021001999999031001MA1999999100981MD1999999+0051REMSYN076AAXX  27094 61627 42960 23202 10271 20226 30098 40121 82030 333 58005 82363;
0195616270999992000102712004+15370-015120FM-12+0021GOOG V0200401N002112200019N0120001N1+03601+01971101221ADDAA199000091GA1021+069009019GF102991001001999999001021MA1999999100991MD1999999-0031REMSYN082AAXX  27124 61627 32962 20404 10360 20197 30099 40122 80002 333 0//00 59003 82073;EQDQ01  00002PRCP99
0147616270999992000102715004+15370-015120FM-12+0021GOOG V0209999C000012200019N0120001N1+03851+02041101031ADDGA1001+999999999GF100991001001999999001001MA1999999100801MD1999999+0021REMSYN064AAXX  27154 61627 42962 00000 10385 20204 30080 40103 333 58002;
0196616270999992000102718004+15370-015120FM-12+0021GOOG V0209999C000012200019N0120001N1+03611+02321100931ADDAA199000091GA1001+999999999GF100991001001999999001001KA1120M+03851MA1999999100701MD1999999-0041REMSYN070AAXX  27184 61627 32962 00000 10361 20232 30070 40093 333 10385 59004;EQDQ01  00002PRCP99
0147616270999992000102809004+15370-015120FM-12+0021GOOG V0209999C000012200019N0100001N1+02701+02141101121ADDGA1001+999999999GF100991001001999999001001MA1999999100891MD1999999-0091REMSYN064AAXX  28094 61627 42960 00000 10270 20214 30089 40112 333 59009;
0183616270999992000102812004+15370-015120FM-12+0021GOOG V0200601N001012200019N0100001N1+03701+02061101151ADDAA199000091GA1001+999999999GF100991001001999999001001MA1999999100921MD1999999-0071REMSYN070AAXX  28124 61627 32960 00602 10370 20206 30092 40115 333 0//00 59007;EQDQ01  00002PRCP99
0147616270999992000102815004+15370-015120FM-12+0021GOOG V0201201N001012200019N0100001N1+03901+01641100981ADDGA1001+999999999GF100991001001999999001001MA1999999100751MD1999999-0051REMSYN064AAXX  28154 61627 42960 01202 10390 20164 30075 40098 333 59005;
0223616270999992000102906004+15370-015120FM-12+0021GOOG V0203201N001012200019N0080001N1+02181+02151101111ADDAA199000091GA1001+999999999GF100991001001999999001001IA2240+02009KA1120N+02181MA1999999100881OA150600461REMSYN088AAXX  29064 61627 32958 03202 10218 20215 30088 40111 333 02000 20218 50260 55094 58009;EQDQ01  00002PRCP99
0147616270999992000102909004+15370-015120FM-12+0021GOOG V0209999C000012200019N0100001N1+02651+02021101231ADDGA1001+999999999GF100991001001999999001001MA1999999101001MD1999999+0111REMSYN064AAXX  29094 61627 42960 00000 10265 20202 30100 40123 333 58011;
0183616270999992000102912004+15370-015120FM-12+0021GOOG V0209999C000012200019N0120001N1+03501+02021101231ADDAA199000091GA1001+999999999GF100991001001999999001001MA1999999101001MD1999999+0081REMSYN070AAXX  29124 61627 32962 00000 10350 20202 30100 40123 333 0//00 58008;EQDQ01  00002PRCP99
0147616270999992000102915004+15370-015120FM-12+0021GOOG V0209999C000012200019N0120001N1+03901+01991100961ADDGA1001+999999999GF100991001001999999001001MA1999999100731MD1999999-0021REMSYN064AAXX  29154 61627 42962 00000 10390 20199 30073 40096 333 59002;
0196616270999992000102918004+15370-015120FM-12+0021GOOG V0209999C000012200019N0120001N1+03731+02161100881ADDAA199000091GA1001+999999999GF100991001001999999001001KA1120M+03981MA1999999100651MD1999999-0061REMSYN070AAXX  29184 61627 32962 00000 10373 20216 30065 40088 333 10398 59006;EQDQ01  00002PRCP99
0147616270999992000103003004+15370-015120FM-12+0021GOOG V0209999C000012200019N0080001N1+02351+02021101051ADDGA1001+999999999GF100991001001999999001001MA1999999100821MD1999999-0021REMSYN064AAXX  30034 61627 42958 00000 10235 20202 30082 40105 333 59002;
0223616270999992000103006004+15370-015120FM-12+0021GOOG V0209999C000012200019N0080001N1+02191+01971101021ADDAA199000091GA1001+999999999GF100991001001999999001001IA2240+01809KA1120N+02191MA1999999100791OA150600461REMSYN088AAXX  30064 61627 32958 00000 10219 20197 30079 40102 333 01800 20219 50460 55096 59009;EQDQ01  00002PRCP99
0147616270999992000103009004+15370-015120FM-12+0021GOOG V0209999C000012200019N0100001N1+02401+01931101111ADDGA1001+999999999GF100991001001999999001001MA1999999100881MD1999999-0121REMSYN064AAXX  30094 61627 42960 00000 10240 20193 30088 40111 333 59012;
0183616270999992000103012004+15370-015120FM-12+0021GOOG V0200401N001012200019N0100001N1+03381+01711101131ADDAA199000091GA1001+999999999GF100991001001999999001001MA1999999100901MD1999999-0101REMSYN070AAXX  30124 61627 32960 00402 10338 20171 30090 40113 333 0//00 59010;EQDQ01  00002PRCP99
0147616270999992000103015004+15370-015120FM-12+0021GOOG V0209999C000012200019N0100001N1+03751+01801100941ADDGA1001+999999999GF100991001001999999001001MA1999999100711MD1999999-0021REMSYN064AAXX  30154 61627 42960 00000 10375 20180 30071 40094 333 59002;
0196616270999992000103018004+15370-015120FM-12+0021GOOG V0209999C000012200019N0100001N1+03501+02021100911ADDAA199000091GA1001+999999999GF100991001001999999001001KA1120M+03801MA1999999100681MD1999999+0031REMSYN070AAXX  30184 61627 32960 00000 10350 20202 30068 40091 333 10380 58003;EQDQ01  00002PRCP99
0147616270999992000103106004+15370-015120FM-12+0021GOOG V0209999C000012200019N0100001N1+02501+02171101131ADDGA1001+999999999GF100991001001999999001001MA1999999100901MD1999999+0021REMSYN064AAXX  31064 61627 42960 00000 10250 20217 30090 40113 333 58002;
0183616270999992000103112004+15370-015120FM-12+0021GOOG V0201201N001012200019N0100001N1+03281+02231101151ADDAA199000091GA1001+999999999GF100991001001999999001001MA1999999100921MD1999999+0021REMSYN070AAXX  31124 61627 32960 01202 10328 20223 30092 40115 333 0//00 58002;EQDQ01  00002PRCP99
0147616270999992000103115004+15370-015120FM-12+0021GOOG V0201001N001012200019N0100001N1+03721+02101100931ADDGA1001+999999999GF100991001001999999001001MA1999999100701MD1999999+0011REMSYN064AAXX  31154 61627 42960 01002 10372 20210 30070 40093 333 58001;
0196616270999992000103118004+15370-015120FM-12+0021GOOG V0209999C000012200019N0100001N1+03501+01931100891ADDAA199000091GA1001+999999999GF100991001001999999001001KA1120M+03731MA1999999100661MD1999999-0021REMSYN070AAXX  31184 61627 32960 00000 10350 20193 30066 40089 333 10373 59002;EQDQ01  00002PRCP99
0223616270999992000110106004+15370-015120FM-12+0021GOOG V0203201N001012200019N0080001N1+02281+02241100971ADDAA199000091GA1001+999999999GF100991001001999999001001IA2240+01909KA1120N+02281MA1999999100741OA150600461REMSYN088AAXX  01064 61627 32958 03202 10228 20224 30074 40097 333 01900 20228 50470 55090 58000;EQDQ01  00002PRCP99
0178616270999992000110109004+15370-015120FM-12+0021GOOG V0209999C000012200019N0100001N1+02551+99999100931ADDGA1031+069009019GF103991001001999999001021MA1999999100861MD1999999-0041REMSYN076AAXX  01094 61627 42960 30000 10255 20086 30086 40093 80002 333 59004 83073;EQDQ01+000863ATOD  
0195616270999992000110112004+15370-015120FM-12+0021GOOG V0201001N001012200019N0100001N1+03421+02121101161ADDAA199000091GA1031+069009019GF103991001001999999001021MA1999999100931MD1999999+0011REMSYN082AAXX  01124 61627 32960 31002 10342 20212 30093 40116 80002 333 0//00 58001 83073;EQDQ01  00002PRCP99
0159616270999992000110115004+15370-015120FM-12+0021GOOG V0201001N001010690019N0100001N1+03721+02131100921ADDGA1051+069009019GF105991001001999999001021MA1999999100691MD1999999-0011REMSYN076AAXX  01154 61627 42960 51002 10372 20213 30069 40092 80002 333 59001 85073;
0159616270999992000110209004+15370-015120FM-12+0021GOOG V0200401N001010690019N0100001N1+02601+02181101001ADDGA1051+069009019GF105991001001999999001021MA1999999100831MD1999999-0031REMSYN076AAXX  02094 61627 42960 50402 10260 20218 30083 40100 80002 333 59003 85073;
0195616270999992000110212004+15370-015120FM-12+0021GOOG V0200801N001010690019N0100001N1+03451+02071101081ADDAA199000091GA1051+069009019GF105991001001999999001021MA1999999100851MD1999999-0081REMSYN082AAXX  02124 61627 32960 50802 10345 20207 30085 40108 80002 333 0//00 59008 85073;EQDQ01  00002PRCP99
0208616270999992000110218004+15370-015120FM-12+0021GOOG V0209999C000010690019N0100001N1+03561+01531100831ADDAA199000091GA1061+069009019GF106991001001999999001021KA1120M+03711MA1999999100601MD1999999-0031REMSYN082AAXX  02184 61627 32960 60000 10356 20153 30060 40083 80002 333 10371 59003 86073;EQDQ01  00002PRCP99
0233616270999992000110406004+15370-015120FM-12+0021GOOG V0203601N001019999999N0080001N1+02021+01591100971ADDAA199000091GF105991001001999999001021IA2240+01609KA1120N+02021MA1999999100741MD1999999+0101OA150600461REMSYN100AAXX  04064 61627 32958 53602 10202 20159 30074 40097 80002 333 01600 20202 50580 55093 58010 85073;EQDQ01  00002PRCP99
0195616270999992000110412004+15370-015120FM-12+0021GOOG V0203601N002110690019N0100001N1+03431+01421101131ADDAA199000091GA1061+069009019GF106991001001999999001021MA1999999100901MD1999999+0121REMSYN082AAXX  04124 61627 32960 63604 10343 20142 30090 40113 80002 333 0//00 58012 86073;EQDQ01  00002PRCP99
0208616270999992000110418004+15370-015120FM-12+0021GOOG V0209999C000010690019N0100001N1+03381+01961100921ADDAA199000091GA1071+069009019GF107991001001999999001021KA1120M+03581MA1999999100691MD1999999+0091REMSYN082AAXX  04184 61627 32960 70000 10338 20196 30069 40092 80002 333 10358 58009 87073;EQDQ01  00002PRCP99
0159616270999992000110509004+15370-015120FM-12+0021GOOG V0200401N001010690019N0100001N1+02581+01501101071ADDGA1071+069009019GF107991001001999999001021MA1999999100841MD1999999-0021REMSYN076AAXX  05094 61627 42960 70402 10258 20150 30084 40107 80002 333 59002 87073;
0195616270999992000110512004+15370-015120FM-12+0021GOOG V0200601N002110690019N0100001N1+03361+01681101101ADDAA199000091GA1071+069009019GF107991001001999999001021MA1999999100871MD1999999-0031REMSYN082AAXX  05124 61627 32960 70604 10336 20168 30087 40110 80002 333 0//00 59003 87073;EQDQ01  00002PRCP99
0208616270999992000110518004+15370-015120FM-12+0021GOOG V0209999C000010690019N0100001N1+03481+01451100871ADDAA199000091GA1061+069009019GF106991001001999999001021KA1120M+03721MA1999999100641MD1999999-0051REMSYN082AAXX  05184 61627 32960 60000 10348 20145 30064 40087 80002 333 10372 59005 86073;EQDQ01  00002PRCP99
0153616270999992000110609004+15370-015120FM-12+0021GOOG V0209999C000012200019N0100001N1+02471+01481999999ADDGA1021+039009079GF103991021001999999031011MA1999999100821MD1999999-0021REMSYN070AAXX  06094 61627 42960 30000 10247 20148 30082 82031 333 59002 82363;
0195616270999992000110612004+15370-015120FM-12+0021GOOG V0200601N002112200019N0100001N1+03631+01361101041ADDAA199000091GA1031+069009019GF103991001001999999001011MA1999999100811MD1999999-0061REMSYN082AAXX  06124 61627 32960 30604 10363 20136 30081 40104 80001 333 0//00 59006 83073;EQDQ01  00002PRCP99
0147616270999992000110615004+15370-015120FM-12+0021GOOG V0209999C000012200019N0100001N1+03951+01301100831ADDGA1001+999999999GF100991001001999999001001MA1999999100601MD1999999-0031REMSYN064AAXX  06154 61627 42960 00000 10395 20130 30060 40083 333 59003;
0208616270999992000110618004+15370-015120FM-12+0021GOOG V0209999C000012200019N0100001N1+03701+01491100781ADDAA199000091GA1011+069009019GF101991001001999999001021KA1120M+03991MA1999999100551MD1999999-0091REMSYN082AAXX  06184 61627 32960 10000 10370 20149 30055 40078 80002 333 10399 59009 81073;EQDQ01  00002PRCP99
0147616270999992000110709004+15370-015120FM-12+0021GOOG V0209999C000012200019N0100001N1+02311+01821100791ADDGA1001+999999999GF100991001001999999001001MA1999999100561MD1999999-0261REMSYN064AAXX  07094 61627 42960 00000 10231 20182 30056 40079 333 59026;
0183616270999992000110712004+15370-015120FM-12+0021GOOG V0200801N001012200019N0100001N1+03581+01461100821ADDAA199000091GA1001+999999999GF100991001001999999001001MA1999999100591MD1999999-0221REMSYN070AAXX  07124 61627 32960 00802 10358 20146 30059 40082 333 0//00 59022;EQDQ01  00002PRCP99
0147616270999992000110715004+15370-015120FM-12+0021GOOG V0200601N001012200019N0100001N1+03881+01231100581ADDGA1001+999999999GF100991001001999999001001MA1999999100251MD1999999-0251REMSYN064AAXX  07154 61627 42960 00602 10388 20123 30025 40058 333 59025;
0208616270999992000110718004+15370-015120FM-12+0021GOOG V0209999C000012200019N0100001N1+03561+01551100541ADDAA199000091GA1031+069009019GF103991001001999999001021KA1120M+03901MA1999999100311MD1999999-0241REMSYN082AAXX  07184 61627 32960 30000 10356 20155 30031 40054 80002 333 10390 59024 83073;EQDQ01  00002PRCP99
0223616270999992000110806004+15370-015120FM-12+0021GOOG V0203601N001012200019N0080001N1+02191+02161100561ADDAA199000091GA1001+999999999GF100991001001999999001001IA2240+01509KA1120N+02191MA1999999100331OA150600411REMSYN088AAXX  08064 61627 32958 03602 10219 20216 30033 40056 333 01500 20219 50540 55080 59018;EQDQ01  00002PRCP99
0147616270999992000110809004+15370-015120FM-12+0021GOOG V0209999C000012200019N0100001N1+02371+02211100661ADDGA1001+999999999GF100991001001999999001001MA1999999100431MD1999999-0131REMSYN064AAXX  08094 61627 42960 00000 10237 20221 30043 40066 333 59013;
0183616270999992000110812004+15370-015120FM-12+0021GOOG V0200401N001012200019N0100001N1+03301+01661100671ADDAA199000091GA1001+999999999GF100991001001999999001001MA1999999100441MD1999999-0151REMSYN070AAXX  08124 61627 32960 00402 10330 20166 30044 40067 333 0//00 59015;EQDQ01  00002PRCP99
0138616270999992000110815004+15370-015120FM-12+0021GOOG V0201201N001012200019N0100001N1+03761+01351100481ADDGA1031+069009019GF103991001001999999001021MD1999999-0101REMSYN070AAXX  08154 61627 42960 31202 10376 20135 40048 80002 333 59010 83073;
0196616270999992000110818004+15370-015120FM-12+0021GOOG V0209999C000012200019N0100001N1+03601+01601100451ADDAA199000091GA1001+999999999GF100991001001999999001001KA1120M+03801MA1999999100221MD1999999-0091REMSYN070AAXX  08184 61627 32960 00000 10360 20160 30022 40045 333 10380 59009;EQDQ01  00002PRCP99
0223616270999992000110906004+15370-015120FM-12+0021GOOG V0209999C000012200019N0080001N1+02291+02141100661ADDAA199000091GA1001+999999999GF100991001001999999001001IA2240+01709KA1120N+02291MA1999999100431OA150600461REMSYN088AAXX  09064 61627 32958 00000 10229 20214 30043 40066 333 01700 20229 50510 55091 58010;EQDQ01  00002PRCP99
0159616270999992000110909004+15370-015120FM-12+0021GOOG V0203601N001012200019N0100001N1+02711+01981100821ADDGA1041+069009019GF104991001001999999001021MA1999999100591MD1999999+0161REMSYN076AAXX  09094 61627 42960 43602 10271 20198 30059 40082 80002 333 58016 84073;
0195616270999992000110912004+15370-015120FM-12+0021GOOG V0200801N002110690019N0100001N1+03401+01371100851ADDAA199000091GA1051+069009019GF105991001001999999001021MA1999999100621MD1999999+0181REMSYN082AAXX  09124 61627 32960 50804 10340 20137 30062 40085 80002 333 0//00 58018 85073;EQDQ01  00002PRCP99
0159616270999992000110915004+15370-015120FM-12+0021GOOG V0200401N001010690019N0100001N1+03801+01121100661ADDGA1061+069009019GF106991001001999999001021MA1999999100431MD1999999+0181REMSYN076AAXX  09154 61627 42960 60402 10380 20112 30043 40066 80002 333 58018 86073;
0208616270999992000110918004+15370-015120FM-12+0021GOOG V0209999C000010690019N0100001N1+03501+01171100621ADDAA199000091GA1061+069009019GF106991001001999999001021KA1120M+03811MA1999999100391MD1999999+0171REMSYN082AAXX  09184 61627 32960 60000 10350 20117 30039 40062 80002 333 10381 58017 86073;EQDQ01  00002PRCP99
0233616270999992000111006004+15370-015120FM-12+0021GOOG V0203601N001012200019N0100001N1+02061+01641100761ADDAA199000091GF103991001001999999001021IA2240+01809KA1120N+02061MA1999999100531MD1999999+0101OA150600461REMSYN100AAXX  10064 61627 32960 33602 10206 20164 30053 40076 80002 333 01800 20206 50500 55093 58010 83073;EQDQ01  00002PRCP99
0183616270999992000111012004+15370-015120FM-12+0021GOOG V0203601N001012200019N0100001N1+03301+01451100871ADDAA199000091GA1001+999999999GF100991001001999999001001MA1999999100641MD1999999+0021REMSYN070AAXX  10124 61627 32960 03602 10330 20145 30064 40087 333 0//00 58002;EQDQ01  00002PRCP99
0208616270999992000111018004+15370-015120FM-12+0021GOOG V0209999C000012200019N0100001N1+03621+01271100611ADDAA199000091GA1031+039009079GF103991031001999999031001KA1120M+03861MA1999999100381MD1999999-0011REMSYN082AAXX  10184 61627 32960 30000 10362 20127 30038 40061 83030 333 10386 59001 83363;EQDQ01  00002PRCP99
0159616270999992000111109004+15370-015120FM-12+0021GOOG V0203201N001012200019N0100001N1+02181+02121100951ADDGA1031+039009079GF103991031001999999081001MA1999999100721MD1999999+0071REMSYN076AAXX  11094 61627 42960 33202 10218 20212 30072 40095 83080 333 58007 83363;
0195616270999992000111112004+15370-015120FM-12+0021GOOG V0200401N001012200019N0100001N1+03211+01821100961ADDAA199000091GA1031+039009079GF103991031001999999031001MA1999999100731MD1999999+0091REMSYN082AAXX  11124 61627 32960 30402 10321 20182 30073 40096 83030 333 0//00 58009 83363;EQDQ01  00002PRCP99
0159616270999992000111115004+15370-015120FM-12+0021GOOG V0209999C000010390019N0100001N1+03181+01491100771ADDGA1061+039009079GF106991061001999999081001MA1999999100541MD1999999+0141REMSYN076AAXX  11154 61627 42960 60000 10318 20149 30054 40077 86080 333 58014 86363;
0208616270999992000111118004+15370-015120FM-12+0021GOOG V0209999C000012200019N0100001N1+03431+01721100691ADDAA199000091GA1021+039009079GF102991021001999999081001KA1120M+03631MA1999999100461MD1999999+0081REMSYN082AAXX  11184 61627 32960 20000 10343 20172 30046 40069 82080 333 10363 58008 82363;EQDQ01  00002PRCP99
0187616270999992000111209004+15370-015120FM-12+0021GOOG V0201401N002110390019N0100001N1+02561+02401101151ADDGA1021+004509069GA2031+039009039GF105991021051004501031021MA1999999100921MD1999999+0201REMSYN088AAXX  12094 61627 42460 51404 10256 20240 30092 40115 82532 333 58020 82615 83363 85073;
0201616270999992000111212004+15370-015120FM-12+0021GOOG V0201401N003119999999N0100001N1+02981+02321101171ADDAA199000091GA1041+039009039GF107991041001999999071021MA1999999100941MD1999999+0211REMSYN088AAXX  12124 61627 32960 71406 10298 20232 30094 40117 84072 333 0//00 58021 84363 85073;EQDQ01  00002PRCP99
0214616270999992000111218004+15370-015120FM-12+0021GOOG V0201401N001019999999N0100001N1+03051+02191100911ADDAA199000091GA1031+039009049GF107991031001999999071021KA1120M+03121MA1999999100681MD1999999+0221REMSYN088AAXX  12184 61627 32960 71402 10305 20219 30068 40091 83072 333 10312 58022 83463 85073;EQDQ01  00002PRCP99
0233616270999992000111306004+15370-015120FM-12+0021GOOG V0203201N001019999999N0080001N1+02121+01821101021ADDAA199000091GF105991051001999999031001IA2240+01709KA1120N+02121MA1999999100791MD1999999+0011OA150600211REMSYN100AAXX  13064 61627 32958 53202 10212 20182 30079 40102 85030 333 01700 20212 50350 55046 58001 85363;EQDQ01  00002PRCP99
0159616270999992000111309004+15370-015120FM-12+0021GOOG V0203201N001012200019N0100001N1+02381+01851101081ADDGA1031+039009079GF103991031001999999031001MA1999999100851MD1999999-0071REMSYN076AAXX  13094 61627 42960 33202 10238 20185 30085 40108 83030 333 59007 83363;
0195616270999992000111312004+15370-015120FM-12+0021GOOG V0200401N001012200019N0120001N1+03151+01851101061ADDAA199000091GA1011+039009079GF101991011001999999031001MA1999999100831MD1999999-0111REMSYN082AAXX  13124 61627 32962 10402 10315 20185 30083 40106 81030 333 0//00 59011 81363;EQDQ01  00002PRCP99
0233616270999992000111406004+15370-015120FM-12+0021GOOG V0203201N002119999999N0080001N1+02201+02051100901ADDAA199000091GF106991061001999999031001IA2240+01709KA1120N+02201MA1999999100671MD1999999-0121OA150600511REMSYN100AAXX  14064 61627 32958 63204 10220 20205 30067 40090 86030 333 01700 20220 50490 55101 59012 86363;EQDQ01  00002PRCP99
0159616270999992000111415004+15370-015120FM-12+0021GOOG V0201401N001010045019N0100001N1+03591+01881100831ADDGA1051+004509059GF105991051051004501001001MA1999999100601MD1999999+0001REMSYN076AAXX  14154 61627 42460 51402 10359 20188 30060 40083 85500 333 58000 85615;
0236616270999992000111418004+15370-015120FM-12+0021GOOG V0201001N001010390019N0100001N1+03511+01871100781ADDAA199000091GA1031+004809089GA2031+039009039GF105991031021004501031001KA1120M+03681MA1999999100551MD1999999-0021REMSYN094AAXX  14184 61627 32460 51002 10351 20187 30055 40078 83230 333 10368 59002 83816 83363 94909;EQDQ01  00002PRCP99
0159616270999992000111509004+15370-015120FM-12+0021GOOG V0203201N001019999999N0100001N1+02381+02161101061ADDGA1031+039009079GF105991031001999999031021MA1999999100831MD1999999+0051REMSYN076AAXX  15094 61627 42960 53202 10238 20216 30083 40106 83032 333 58005 83363;
0201616270999992000111512004+15370-015120FM-12+0021GOOG V0201701N002119999999N0100001N1+03251+02261101061ADDAA199000091GA1021+039009049GF106991021001999999071021MA1999999100831MD1999999+0041REMSYN088AAXX  15124 61627 32960 61704 10325 20226 30083 40106 82072 333 0//00 58004 82463 86073;EQDQ01  00002PRCP99
0165616270999992000111515004+15370-015120FM-12+0021GOOG V0201001N002110390019N0100001N1+03621+01961100871ADDGA1051+039009039GF106991051001999999071021MA1999999100641MD1999999+0041REMSYN082AAXX  15154 61627 42960 61004 10362 20196 30064 40087 85072 333 58004 85363 83073;
0208616270999992000111518004+15370-015120FM-12+0021GOOG V0209999C000010390019N0100001N1+03401+01701100881ADDAA199000091GA1061+039009079GF106991061001999999071001KA1120M+03661MA1999999100651MD1999999+0101REMSYN082AAXX  15184 61627 32960 60000 10340 20170 30065 40088 86070 333 10366 58010 86363;EQDQ01  00002PRCP99
0233616270999992000111606004+15370-015120FM-12+0021GOOG V0201001N001019999999N0080001N1+02431+02401101011ADDAA199000091GF107991071001999999071999IA2240+01809KA1120N+02431MA1999999100781MD1999999+0051OA150600461REMSYN100AAXX  16064 61627 32958 71002 10243 20240 30078 40101 8707/ 333 01800 20243 50440 55092 58005 87363;EQDQ01  00002PRCP99
0159616270999992000111609004+15370-015120FM-12+0021GOOG V0209999C000010390019N0100001N1+02531+02341101111ADDGA1081+039009079GF108991081001999999081999MA1999999100881MD1999999+0051REMSYN076AAXX  16094 61627 42960 80000 10253 20234 30088 40111 8808/ 333 58005 88363;
0195616270999992000111612004+15370-015120FM-12+0021GOOG V0200401N002112200019N0100001N1+03381+02141101131ADDAA199000091GA1031+039009079GF103991031001999999071001MA1999999100901MD1999999+0071REMSYN082AAXX  16124 61627 32960 30404 10338 20214 30090 40113 83070 333 0//00 58007 83363;EQDQ01  00002PRCP99
0159616270999992000111615004+15370-015120FM-12+0021GOOG V0203601N002110390019N0100001N1+03751+01461100901ADDGA1061+039009079GF106991061001999999031001MA1999999100671MD1999999+0031REMSYN076AAXX  16154 61627 42960 63604 10375 20146 30067 40090 86030 333 58003 86363;
0159616270999992000111618004+15370-015120FM-12+0021GOOG V0203601N002110390019N0100001N1+03751+01461100901ADDGA1061+039009079GF106991061001999999031001MA1999999100671MD1999999+0031REMSYN076AAXX  16184 61627 42960 63604 10375 20146 30067 40090 86030 333 58003 86363;
0159616270999992000111706004+15370-015120FM-12+0021GOOG V0200401N002112200019N0100001N1+02601+01791101211ADDGA1031+039009079GF103991031001999999071001MA1999999100981MD1999999+0101REMSYN076AAXX  17064 61627 42960 30404 10260 20179 30098 40121 83070 333 58010 83363;
0201616270999992000111712004+15370-015120FM-12+0021GOOG V0200801N003119999999N0100001N1+03481+01381101211ADDAA199000091GA1011+039009039GF105991011001999999081021MA1999999100981MD1999999+0081REMSYN088AAXX  17124 61627 32960 50806 10348 20138 30098 40121 81082 333 0//00 58008 81363 85073;EQDQ01  00002PRCP99
0165616270999992000111715004+15370-015120FM-12+0021GOOG V0200601N002119999999N0100001N1+03731+01581101041ADDGA1031+039009039GF106991031001999999031021MA1999999100811MD1999999+0141REMSYN082AAXX  17154 61627 42960 60604 10373 20158 30081 40104 83032 333 58014 83363 85073;
0214616270999992000111718004+15370-015120FM-12+0021GOOG V0200401N001019999999N0100001N1+03541+01311101031ADDAA199000091GA1031+039009039GF107991031001999999081021KA1120M+03751MA1999999100801MD1999999+0131REMSYN088AAXX  17184 61627 32960 70402 10354 20131 30080 40103 83082 333 10375 58013 83363 86073;EQDQ01  00002PRCP99
0159616270999992000111809004+15370-015120FM-12+0021GOOG V0200401N002112200019N0100001N1+02671+01321101211ADDGA1011+039009079GF101991011001999999081001MA1999999100981MD1999999+0001REMSYN076AAXX  18094 61627 42960 10404 10267 20132 30098 40121 81080 333 58000 81363;
0195616270999992000111812004+15370-015120FM-12+0021GOOG V0200801N003112200019N0100001N1+03501+01361101161ADDAA199000091GA1021+069009019GF102991001001999999001021MA1999999100931MD1999999-0051REMSYN082AAXX  18124 61627 32960 20806 10350 20136 30093 40116 80002 333 0//00 59005 82073;EQDQ01  00002PRCP99
0159616270999992000111815004+15370-015120FM-12+0021GOOG V0200401N002112200019N0100001N1+03751+01211100921ADDGA1011+039009079GF103991011001999999031021MA1999999100691MD1999999-0121REMSYN076AAXX  18154 61627 42960 30404 10375 20121 30069 40092 81032 333 59012 81363;
0214616270999992000111818004+15370-015120FM-12+0021GOOG V0200601N002119999999N0100001N1+03551+01071100871ADDAA199000091GA1031+039009039GF106991031001999999031021KA1120M+03801MA1999999100641MD1999999-0161REMSYN088AAXX  18184 61627 32960 60604 10355 20107 30064 40087 83032 333 10380 59016 83363 83073;EQDQ01  00002PRCP99
0147616270999992000111909004+15370-015120FM-12+0021GOOG V0200401N001012200019N0100001N1+02601+01341101151ADDGA1001+999999999GF100991001001999999001001MA1999999100921MD1999999-0061REMSYN064AAXX  19094 61627 42960 00402 10260 20134 30092 40115 333 59006;
0195616270999992000111912004+15370-015120FM-12+0021GOOG V0200801N002112200019N0100001N1+03531+01141101181ADDAA199000091GA1011+069009019GF101991001001999999001011MA1999999100951MD1999999+0021REMSYN082AAXX  19124 61627 32960 10804 10353 20114 30095 40118 80001 333 0//00 58002 81073;EQDQ01  00002PRCP99
0159616270999992000111915004+15370-015120FM-12+0021GOOG V0200601N002112200019N0120001N1+03781+01181101011ADDGA1021+069009019GF102991001001999999001011MA1999999100781MD1999999+0091REMSYN076AAXX  19154 61627 42962 20604 10378 20118 30078 40101 80001 333 58009 82073;
0196616270999992000111918004+15370-015120FM-12+0021GOOG V0200401N001012200019N0120001N1+03571+01051100931ADDAA199000091GA1001+999999999GF100991001001999999001001KA1120M+03781MA1999999100701MD1999999+0061REMSYN070AAXX  19184 61627 32962 00402 10357 20105 30070 40093 333 10378 58006;EQDQ01  00002PRCP99
0147616270999992000112009004+15370-015120FM-12+0021GOOG V0200401N002112200019N0100001N1+02621+01381101301ADDGA1001+999999999GF100991001001999999001001MA1999999101071MD1999999+0151REMSYN064AAXX  20094 61627 42960 00404 10262 20138 30107 40130 333 58015;
0183616270999992000112012004+15370-015120FM-12+0021GOOG V0201201N002112200019N0100001N1+03481+01181101331ADDAA199000091GA1001+999999999GF100991001001999999001001MA1999999101101MD1999999+0151REMSYN070AAXX  20124 61627 32960 01204 10348 20118 30110 40133 333 0//00 58015;EQDQ01  00002PRCP99
0147616270999992000112015004+15370-015120FM-12+0021GOOG V0200601N002112200019N0100001N1+03811+01101101071ADDGA1001+999999999GF100991001001999999001001MA1999999100841MD1999999+0061REMSYN064AAXX  20154 61627 42960 00604 10381 20110 30084 40107 333 58006;
0208616270999992000112018004+15370-015120FM-12+0021GOOG V0200401N001012200019N0100001N1+03601+01081101051ADDAA199000091GA1011+069009019GF101991001001999999001021KA1120M+03811MA1999999100821MD1999999+0121REMSYN082AAXX  20184 61627 32960 10402 10360 20108 30082 40105 80002 333 10381 58012 81073;EQDQ01  00002PRCP99
0159616270999992000112109004+15370-015120FM-12+0021GOOG V0200401N001010690019N0100001N1+02421+00881101361ADDGA1061+069009019GF106991001001999999001021MA1999999101131MD1999999+0061REMSYN076AAXX  21094 61627 42960 60402 10242 20088 30113 40136 80002 333 58006 86073;
0195616270999992000112112004+15370-015120FM-12+0021GOOG V0200401N002110690019N0100001N1+03371+01281101341ADDAA199000091GA1051+069009019GF105991001001999999001021MA1999999101111MD1999999+0011REMSYN082AAXX  21124 61627 32960 50404 10337 20128 30111 40134 80002 333 0//00 58001 85073;EQDQ01  00002PRCP99
0214616270999992000112118004+15370-015120FM-12+0021GOOG V0200401N001019999999N0120001N1+03401+01421101061ADDAA199000091GA1021+039009039GF107991021001999999081021KA1120M+03711MA1999999100831MD1999999+0011REMSYN088AAXX  21184 61627 32962 70402 10340 20142 30083 40106 82082 333 10371 58001 82363 86073;EQDQ01  00002PRCP99
0159616270999992000112209004+15370-015120FM-12+0021GOOG V0200401N002110690019N0100001N1+02401+00561101341ADDGA1061+069009019GF106991001001999999001021MA1999999101111MD1999999-0021REMSYN076AAXX  22094 61627 42960 60404 10240 20056 30111 40134 80002 333 59002 86073;
0189616270999992000112212004+15370-015120FM-12+0021GOOG V0200601N002110660019N0100001N1+03201+99999101411ADDAA199000091GA1051+066009019GF105991001001999999001021MA1999999101181MD1999999+0071REMSYN076AAXX  22124 61627 32960 50604 10320 30118 40141 80002 333 02/00 58007 85072;EQDQ01  00002PRCP99
0113616270999992000112215004+15370-015120FM-12+0021GOOG V0200401N001019999999N0100001N1+03431+00031101171ADDGF106991061001999999031001MA1999999100941REMSYN060AAXX  22154 61627 42960 60402 10343 20003 30094 40117 86030;
0208616270999992000112218004+15370-015120FM-12+0021GOOG V0200401N002110390019N0100001N1+03201-00141101121ADDAA199000091GA1061+039009079GF106991061001999999081001KA1120M+03521MA1999999100891MD1999999+0061REMSYN082AAXX  22184 61627 32960 60404 10320 21014 30089 40112 86080 333 10352 58006 86363;EQDQ01  00002PRCP99
0159616270999992000112309004+15370-015120FM-12+0021GOOG V0200401N001012200019N0100001N1+02201-00011101471ADDGA1021+069009019GF102991001001999999001021MA1999999101231MD1999999+0121REMSYN076AAXX  23094 61627 42960 20402 10220 21001 30123 40147 80002 333 58012 82073;
0195616270999992000112312004+15370-015120FM-12+0021GOOG V0200401N002112200019N0120001N1+03231+00411101441ADDAA199000091GA1021+069009019GF102991001001999999001021MA1999999101211MD1999999+0031REMSYN082AAXX  23124 61627 32962 20404 10323 20041 30121 40144 80002 333 0//00 58003 82073;EQDQ01  00002PRCP99
0159616270999992000112315004+15370-015120FM-12+0021GOOG V0200601N002110690019N0120001N1+03531+00611101231ADDGA1051+069009019GF105991001001999999001021MA1999999101001MD1999999+0061REMSYN076AAXX  23154 61627 42962 50604 10353 20061 30100 40123 80002 333 58006 85073;
0208616270999992000112318004+15370-015120FM-12+0021GOOG V0200401N001010690019N0120001N1+03241+00571101211ADDAA199000091GA1071+069009019GF107991001001999999001021KA1120M+03531MA1999999100981MD1999999+0091REMSYN082AAXX  23184 61627 32962 70402 10324 20057 30098 40121 80002 333 10353 58009 87073;EQDQ01  00002PRCP99
0213616270999992000112406004+15370-015120FM-12+0021GOOG V0200401N001012200019N0080001N1+02001+00191101321ADDAA199000091GF103991001001999999001021IA2240+01209KA1120N+02001MA1999999101091OA150600461REMSYN094AAXX  24064 61627 32958 30402 10200 20019 30109 40132 80002 333 01200 20200 50590 55095 58000;EQDQ01  00002PRCP99
0159616270999992000112409004+15370-015120FM-12+0021GOOG V0200401N002110690019N0100001N1+02351+00741101411ADDGA1051+069009019GF105991001001999999001021MA1999999101181MD1999999+0151REMSYN076AAXX  24094 61627 42960 50404 10235 20074 30118 40141 80002 333 58015 85073;
0195616270999992000112412004+15370-015120FM-12+0021GOOG V0200601N003110690019N0100001N1+03111+00011101441ADDAA199000091GA1061+069009019GF106991001001999999001021MA1999999101211MD1999999+0001REMSYN082AAXX  24124 61627 32960 60606 10311 20001 30121 40144 80002 333 0//00 58000 86073;EQDQ01  00002PRCP99
0159616270999992000112415004+15370-015120FM-12+0021GOOG V0200601N001010690019N0100001N1+03421-00101101251ADDGA1061+069009019GF106991001001999999001021MA1999999101021MD1999999+0021REMSYN076AAXX  24154 61627 42960 60602 10342 21010 30102 40125 80002 333 58002 86073;
0208616270999992000112418004+15370-015120FM-12+0021GOOG V0200601N002110690019N0100001N1+03201+00081101181ADDAA199000091GA1061+069009019GF106991001001999999001021KA1120M+03421MA1999999100951MD1999999-0031REMSYN082AAXX  24184 61627 32960 60604 10320 20008 30095 40118 80002 333 10342 59003 86073;EQDQ01  00002PRCP99
0138616270999992000112509004+15370-015120FM-12+0021GOOG V0200401N003110690019N0100001N1+02261+00461101421ADDGA1071+069009019GF107991001001999999001021MD1999999+0011REMSYN070AAXX  25094 61627 42960 70406 10226 20046 40142 80002 333 58001 87073;
0195616270999992000112512004+15370-015120FM-12+0021GOOG V0201001N003110690019N0100001N1+03081+00581101411ADDAA199000091GA1071+069009019GF107991001001999999001021MA1999999101181MD1999999-0031REMSYN082AAXX  25124 61627 32960 71006 10308 20058 30118 40141 80002 333 0//00 59003 87073;EQDQ01  00002PRCP99
0233616270999992000112806004+15370-015120FM-12+0021GOOG V0200401N001012200019N0080001N1+01721+00921101351ADDAA199000091GF102991001001999999001021IA2240+00909KA1120N+01721MA1999999101111MD1999999-0031OA150600461REMSYN100AAXX  28064 61627 32958 20402 10172 20092 30111 40135 80002 333 00900 20172 50/30 55099 59003 82073;EQDQ01  00002PRCP99
0147616270999992000112815004+15370-015120FM-12+0021GOOG V0200601N002112200019N0100001N1+03821-00151101171ADDGA1001+999999999GF100991001001999999001001MA1999999100941MD1999999-0111REMSYN064AAXX  28154 61627 42960 00604 10382 21015 30094 40117 333 59011;
0208616270999992000112818004+15370-015120FM-12+0021GOOG V0200401N001010690019N0100001N1+03481+00351101141ADDAA199000091GA1051+069009019GF105991001001999999001011KA1120M+03861MA1999999100911MD1999999-0071REMSYN082AAXX  28184 61627 32960 50402 10348 20035 30091 40114 80001 333 10386 59007 85073;EQDQ01  00002PRCP99
0233616270999992000112906004+15370-015120FM-12+0021GOOG V0200401N002119999999N0080001N1+02201+00281101211ADDAA199000091GF105991001001999999001021IA2240+00909KA1120N+02201MA1999999100981MD1999999-0131OA150600511REMSYN100AAXX  29064 61627 32958 50404 10220 20028 30098 40121 80002 333 00900 20220 50880 55101 59013 85073;EQDQ01  00002PRCP99
0195616270999992000112912004+15370-015120FM-12+0021GOOG V0200601N002112200019N0100001N1+03431+00401101371ADDAA199000091GA1031+069009019GF103991001001999999001021MA1999999101141MD1999999-0061REMSYN082AAXX  29124 61627 32960 30604 10343 20040 30114 40137 80002 333 0//00 59006 83073;EQDQ01  00002PRCP99
0208616270999992000112918004+15370-015120FM-12+0021GOOG V0200401N001010690019N0100001N1+03631-00101101031ADDAA199000091GA1051+069009019GF105991001001999999001021KA1120M+03921MA1999999100801MD1999999-0111REMSYN082AAXX  29184 61627 32960 50402 10363 21010 30080 40103 80002 333 10392 59011 85073;EQDQ01  00002PRCP99
0147616270999992000113003004+15370-015120FM-12+0021GOOG V0200601N001012200019N0080001N1+02001+00981101171ADDGA1001+999999999GF100991001001999999001001MA1999999100941MD1999999-0051REMSYN064AAXX  30034 61627 42958 00602 10200 20098 30094 40117 333 59005;
0223616270999992000113006004+15370-015120FM-12+0021GOOG V0209999C000012200019N0080001N1+01821+00901101161ADDAA199000091GA1001+999999999GF100991001001999999001001IA2240+01009KA1120N+01821MA1999999100931OA150600511REMSYN088AAXX  30064 61627 32958 00000 10182 20090 30093 40116 333 01000 20182 50420 55102 59008;EQDQ01  00002PRCP99
0208616270999992000113018004+15370-015120FM-12+0021GOOG V0200401N001010690019N0100001N1+03601+00251101021ADDAA199000091GA1051+069009019GF105991001001999999001021KA1120M+03901MA1999999100791MD1999999-0011REMSYN082AAXX  30184 61627 32960 50402 10360 20025 30079 40102 80002 333 10390 59001 85073;EQDQ01  00002PRCP99
0147616270999992000120109004+15370-015120FM-12+0021GOOG V0200401N001012200019N0100001N1+02361+00981101391ADDGA1001+999999999GF100991001001999999001001MA1999999101151MD1999999+0051REMSYN064AAXX  01094 61627 42960 00402 10236 20098 30115 40139 333 58005;
0196616270999992000120118004+15370-015120FM-12+0021GOOG V0200401N001012200019N0100001N1+03551+00681101131ADDAA199000091GA1001+999999999GF100991001001999999001001KA1120M+03801MA1999999100901MD1999999+0111REMSYN070AAXX  01184 61627 32960 00402 10355 20068 30090 40113 333 10380 58011;EQDQ01  00002PRCP99
0223616270999992000120206004+15370-015120FM-12+0021GOOG V0209999C000012200019N0080001N1+02001+00421101361ADDAA199000091GA1001+999999999GF100991001001999999001001IA2240+00409KA1120N+01901MA1999999101131OA150600511REMSYN088AAXX  02064 61627 32958 00000 10200 20042 30113 40136 333 00400 20190 50640 55105 58010;EQDQ01  00002PRCP99
0183616270999992000120212004+15370-015120FM-12+0021GOOG V0200801N002112200019N0100001N1+03451+00461101531ADDAA199000091GA1001+999999999GF100991001001999999001001MA1999999101301MD1999999+0191REMSYN070AAXX  02124 61627 32960 00804 10345 20046 30130 40153 333 0//00 58019;EQDQ01  00002PRCP99
0223616270999992000120306004+15370-015120FM-12+0021GOOG V0200401N002112200019N0080001N1+01801+00231101431ADDAA199000091GA1001+999999999GF100991001001999999001001IA2240+00609KA1120N+01801MA1999999101191OA150600511REMSYN088AAXX  03064 61627 32958 00404 10180 20023 30119 40143 333 00600 20180 50710 55101 58006;EQDQ01  00002PRCP99
0159616270999992000120309004+15370-015120FM-12+0021GOOG V0200401N002112200019N0100001N1+02351+00541101541ADDGA1021+069009019GF102991001001999999001021MA1999999101301MD1999999+0031REMSYN076AAXX  03094 61627 42960 20404 10235 20054 30130 40154 80002 333 58003 82073;
0195616270999992000120312004+15370-015120FM-12+0021GOOG V0200601N003110690019N0100001N1+03331+00591101511ADDAA199000091GA1061+069009019GF106991001001999999001021MA1999999101281MD1999999-0021REMSYN082AAXX  03124 61627 32960 60606 10333 20059 30128 40151 80002 333 0//00 59002 86073;EQDQ01  00002PRCP99
0208616270999992000120318004+15370-015120FM-12+0021GOOG V0209999C000010690019N0100001N1+03161+00501101301ADDAA199000091GA1081+069009019GF108991001001999999001021KA1120M+03461MA1999999101061MD1999999+0061REMSYN082AAXX  03184 61627 32960 80000 10316 20050 30106 40130 80002 333 10346 58006 88073;EQDQ01  00002PRCP99
0233616270999992000120406004+15370-015120FM-12+0021GOOG V0209999C000019999999N0080001N1+02141+00421101341ADDAA199000091GF106991061001999999031001IA2240+00709KA1120N+02021MA1999999101111MD1999999-0081OA150600261REMSYN100AAXX  04064 61627 32958 60000 10214 20042 30111 40134 86030 333 00700 20202 50750 55059 59008 86363;EQDQ01  00002PRCP99
0195616270999992000120412004+15370-015120FM-12+0021GOOG V0200401N002112200019N0100001N1+02901+00761101461ADDAA199000091GA1031+039009079GF103991031001999999071001MA1999999101221MD1999999-0061REMSYN082AAXX  04124 61627 32960 30404 10290 20076 30122 40146 83070 333 0//00 59006 83363;EQDQ01  00002PRCP99
0159616270999992000120415004+15370-015120FM-12+0021GOOG V0200401N003112200019N0100001N1+03501+00741101221ADDGA1041+039009079GF104991041001999999031001MA1999999100991MD1999999-0061REMSYN076AAXX  04154 61627 42960 40406 10350 20074 30099 40122 84030 333 59006 84363;
0208616270999992000120418004+15370-015120FM-12+0021GOOG V0200401N002112200019N0100001N1+03301+00811101131ADDAA199000091GA1031+039009079GF103991031001999999031001KA1120M+03501MA1999999100801MD1999999-0161REMSYN082AAXX  04184 61627 32960 30404 10330 20081 30080 40113 83030 333 10350 59016 83363;EQDQ01  00002PRCP99
0194616270999992000120421004+15370-015120FM-12+0021GOOG V0209999C000012200019N0080001N1+02581+00741101271ADDGA1031+039009079GF199999999001999999001001MA1999999101031MD1999999-0181REMSYN076AAXX  04214 61627 42358 00000 10258 20074 30103 40127 83030 333 59018 83363;EQDQ01+000002SCOTCVQ02+000002SCOTLC
0233616270999992000120506004+15370-015120FM-12+0021GOOG V0209999C000012200019N0080001N1+01741+00501101251ADDAA199000091GF103991031001999999031001IA2240+01209KA1120N+01741MA1999999101011MD1999999-0101OA150600311REMSYN100AAXX  05064 61627 32958 30000 10174 20050 30101 40125 83030 333 01200 20174 50520 55069 59010 83363;EQDQ01  00002PRCP99
0153616270999992000120509004+15370-015120FM-12+0021GOOG V0200401N002112200019N0100001N1+02211+99999101181ADDGA1021+039009079GF102991021001999999031001MA1999999100491MD1999999-0101REMSYN070AAXX  05094 61627 42960 20404 10221 30049 40118 82030 333 59010 82363;
0199616270999992000120512004+15370-015120FM-12+0021GOOG V0200601N002112200019N0100001N1+03351+00761101361ADDAA199000091GA1001+999999999GF100991001001999999001001MA1999999101132MD1999999-0091REMSYN070AAXX  05124 61627 32960 00604 10335 20076 30113 40136 333 0//00 59009;EQDQ01+101133APOSP Q02  00002PRCP99
0147616270999992000120515004+15370-015120FM-12+0021GOOG V0200601N003112200019N0120001N1+03701+00981101081ADDGA1001+999999999GF100991001001999999001001MA1999999100851MD1999999-0141REMSYN064AAXX  05154 61627 42962 00606 10370 20098 30085 40108 333 59014;
0224616270999992000120518004+15370-015120FM-12+0021GOOG V0200601N001012200019N0120001N1+03501+00711101051ADDAA199000091GA1011+039009079GF101991999001999999001021KA1120M+03701MA1999999100821MD1999999-0081REMSYN082AAXX  05184 61627 32962 10602 10350 20071 30082 40105 80002 333 10370 59008 81363;EQDQ01+000002SCOTLCQ02  00002PRCP99
0223616270999992000120606004+15370-015120FM-12+0021GOOG V0200401N001012200019N0080001N1+01801+00741101171ADDAA199000091GA1001+999999999GF100991001001999999001001IA2240+00909KA1120N+01801MA1999999100941OA150600511REMSYN088AAXX  06064 61627 32958 00402 10180 20074 30094 40117 333 00900 20180 50580 55105 59007;EQDQ01  00002PRCP99
0147616270999992000120609004+15370-015120FM-12+0021GOOG V0209999C000012200019N0100001N1+02231+00791101341ADDGA1001+999999999GF100991001001999999001001MA1999999101101MD1999999-0081REMSYN064AAXX  06094 61627 42960 00000 10223 20079 30110 40134 333 59008;
0183616270999992000120612004+15370-015120FM-12+0021GOOG V0200601N002112200019N0120001N1+03481+01211101311ADDAA199000091GA1001+999999999GF100991001001999999001001MA1999999101081MD1999999-0051REMSYN070AAXX  06124 61627 32962 00604 10348 20121 30108 40131 333 0//00 59005;EQDQ01  00002PRCP99
0196616270999992000120618004+15370-015120FM-12+0021GOOG V0200601N001012200019N0100001N1+03551+00521101041ADDAA199000091GA1001+999999999GF100991001001999999001001KA1120M+03731MA1999999100811MD1999999-0011REMSYN070AAXX  06184 61627 32960 00602 10355 20052 30081 40104 333 10373 59001;EQDQ01  00002PRCP99
0117616270999992000120709004+15370-015120FM-12+0021GOOG V0200601N001012200019N0100001N1+99999+99999999999ADDGA1001+999999999GF100991001001999999001001REMSYN063AAXX  07094 61627 42960 00602 1022 20080 30192 40136 333 58002;
0183616270999992000120712004+15370-015120FM-12+0021GOOG V0200801N002112200019N0100001N1+03421+00921101381ADDAA199000091GA1001+999999999GF100991001001999999001001MA1999999101151MD1999999+0071REMSYN070AAXX  07124 61627 32960 00804 10342 20092 30115 40138 333 0//00 58007;EQDQ01  00002PRCP99
0147616270999992000120715004+15370-015120FM-12+0021GOOG V0209999C000012200019N0100001N1+03781+01051101141ADDGA1001+999999999GF100991001001999999001001MA1999999100911MD1999999+0061REMSYN064AAXX  07154 61627 42960 00000 10378 20105 30091 40114 333 58006;
0196616270999992000120718004+15370-015120FM-12+0021GOOG V0209999C000012200019N0100001N1+03601+01081101121ADDAA199000091GA1001+999999999GF100991001001999999001001KA1120M+03801MA1999999100891MD1999999+0081REMSYN070AAXX  07184 61627 32960 00000 10360 20108 30089 40112 333 10380 58008;EQDQ01  00002PRCP99
0177616270999992000120800004+15370-015120FM-12+0021GOOG V0209999C000012200019N0080001N1+02451+00601101341ADDAA199000091GA1001+999999999GF100991001001999999001001MA1999999101111MD1999999-0081REMSYN064AAXX  08004 61627 32958 00000 10245 20060 30111 40134 333 59008;EQDQ01  00002PRCP99
0147616270999992000120803004+15370-015120FM-12+0021GOOG V0209999C000012200019N0080001N1+02111+00741101191ADDGA1001+999999999GF100991001001999999001001MA1999999100961MD1999999-0091REMSYN064AAXX  08034 61627 42958 00000 10211 20074 30096 40119 333 59009;
0147616270999992000120809004+15370-015120FM-12+0021GOOG V0200801N001012200019N0100001N1+01981+00881101381ADDGA1001+999999999GF100991001001999999001001MA1999999101141MD1999999+0021REMSYN064AAXX  08094 61627 42960 00802 10198 20088 30114 40138 333 58002;
0183616270999992000120812004+15370-015120FM-12+0021GOOG V0200601N002112200019N0100001N1+03521+00591101381ADDAA199000091GA1001+999999999GF100991001001999999001001MA1999999101151MD1999999+0001REMSYN070AAXX  08124 61627 32960 00604 10352 20059 30115 40138 333 0//00 58000;EQDQ01  00002PRCP99
0147616270999992000120815004+15370-015120FM-12+0021GOOG V0200601N002112200019N0120001N1+03781+00651101091ADDGA1001+999999999GF100991001001999999001001MA1999999100861MD1999999-0051REMSYN064AAXX  08154 61627 42962 00604 10378 20065 30086 40109 333 59005;
0196616270999992000120818004+15370-015120FM-12+0021GOOG V0200601N001012200019N0120001N1+03551+00521101041ADDAA199000091GA1001+999999999GF100991001001999999001001KA1120M+03801MA1999999100811MD1999999-0081REMSYN070AAXX  08184 61627 32962 00602 10355 20052 30081 40104 333 10380 59008;EQDQ01  00002PRCP99
0147616270999992000120909004+15370-015120FM-12+0021GOOG V0209999C000012200019N0100001N1+02171+00931101341ADDGA1001+999999999GF100991001001999999001001MA1999999101101MD1999999-0041REMSYN064AAXX  09094 61627 42960 00000 10217 20093 30110 40134 333 59004;
0183616270999992000120912004+15370-015120FM-12+0021GOOG V0200601N002112200019N0120001N1+03401+00941101331ADDAA199000091GA1001+999999999GF100991001001999999001001MA1999999101101MD1999999-0051REMSYN070AAXX  09124 61627 32962 00604 10340 20094 30110 40133 333 0//00 59005;EQDQ01  00002PRCP99
0147616270999992000120915004+15370-015120FM-12+0021GOOG V0200401N002112200019N0120001N1+03731+00571101111ADDGA1001+999999999GF100991001001999999001001MA1999999100881MD1999999+0021REMSYN064AAXX  09154 61627 42962 00404 10373 20057 30088 40111 333 58002;
0196616270999992000120918004+15370-015120FM-12+0021GOOG V0200401N001012200019N0120001N1+03501+00211101031ADDAA199000091GA1001+999999999GF100991001001999999001001KA1120M+03731MA1999999100801MD1999999-0011REMSYN070AAXX  09184 61627 32962 00402 10350 20021 30080 40103 333 10373 59001;EQDQ01  00002PRCP99
0147616270999992000121009004+15370-015120FM-12+0021GOOG V0200401N002112200019N0100001N1+02201+00901101371ADDGA1001+999999999GF100991001001999999001001MA1999999101131MD1999999+0031REMSYN064AAXX  10094 61627 42960 00404 10220 20090 30113 40137 333 58003;
0183616270999992000121012004+15370-015120FM-12+0021GOOG V0200801N003112200019N0100001N1+03351+00911101291ADDAA199000091GA1001+999999999GF100991001001999999001001MA1999999101061MD1999999-0041REMSYN070AAXX  10124 61627 32960 00806 10335 20091 30106 40129 333 0//00 59004;EQDQ01  00002PRCP99
0147616270999992000121015004+15370-015120FM-12+0021GOOG V0200601N003112200019N0100001N1+03701+00981101121ADDGA1001+999999999GF100991001001999999001001MA1999999100891MD1999999+0011REMSYN064AAXX  10154 61627 42960 00606 10370 20098 30089 40112 333 58001;
0196616270999992000121018004+15370-015120FM-12+0021GOOG V0200801N001012200019N0100001N1+03491+01021101041ADDAA199000091GA1001+999999999GF100991001001999999001001KA1120M+03721MA1999999100811MD1999999+0011REMSYN070AAXX  10184 61627 32960 00802 10349 20102 30081 40104 333 10372 58001;EQDQ01  00002PRCP99
0132616270999992000121021004+15370-015120FM-12+0021GOOG V0209999C000012200019N0080001N1+02751+01831101141ADDGA1001+999999999GF100991001001999999001001MD1999999+0071REMSYN064AAXX  10214 61627 42958 00000 10275 20183 301/0 40114 333 58007;
0178616270999992000121100004+15370-015120FM-12+0021GOOG V0209999C000012200019N0080001N1+02451+00612101321ADDAA199000091GA1001+999999999GF100991001001999999001001MD1999999+0071REMSYN064AAXX  11004 61627 32958 00000 10245 20061 40132 333 0//00 58007;EQDQ01+000613ATOD  Q02  00002PRCP99
0147616270999992000121109004+15370-015120FM-12+0021GOOG V0200401N001012200019N0100001N1+02201+00641101441ADDGA1001+999999999GF100991001001999999001001MA1999999101201MD1999999+0071REMSYN064AAXX  11094 61627 42960 00402 10220 20064 30120 40144 333 58007;
0183616270999992000121112004+15370-015120FM-12+0021GOOG V0200601N003112200019N0100001N1+03301+00901101411ADDAA199000091GA1001+999999999GF100991001001999999001001MA1999999101181MD1999999+0121REMSYN070AAXX  11124 61627 32960 00606 10330 20090 30118 40141 333 0//00 58012;EQDQ01  00002PRCP99
0147616270999992000121115004+15370-015120FM-12+0021GOOG V0200601N003112200019N0100001N1+03651+01031101151ADDGA1001+999999999GF100991001001999999001001MA1999999100921MD1999999+0031REMSYN064AAXX  11154 61627 42960 00606 10365 20103 30092 40115 333 58003;
0196616270999992000121118004+15370-015120FM-12+0021GOOG V0200401N002112200019N0100001N1+03401+00701101151ADDAA199000091GA1001+999999999GF100991001001999999001001KA1120M+03651MA1999999100921MD1999999+0111REMSYN070AAXX  11184 61627 32960 00404 10340 20070 30092 40115 333 10365 58011;EQDQ01  00002PRCP99
0132616270999992000121121004+15370-015120FM-12+0021GOOG V0200401N001012200019N0090001N1+02761+99999101301ADDGA1001+999999999GF100991001001999999001001MD1999999+0061REMSYN064AAXX  11214 61627 42959 00402 10276 210/4 301/6 40130 333 58006;
0167616270999992000121200004+15370-015120FM-12+0021GOOG V0200401N002112200019N0080001N1+03381+99999101361ADDAA199000091GF102991999999999999999999MA1999999101131MD1999999+0041REMSYN070AAXX  12004 61627 32958 20404 10338 200/1 30113 40136 333 0//00 58004;EQDQ01  00002PRCP99
0147616270999992000121209004+15370-015120FM-12+0021GOOG V0200401N002112200019N0100001N1+02251+01001101441ADDGA1001+999999999GF100991001001999999001001MA1999999101201MD1999999+0001REMSYN064AAXX  12094 61627 42960 00404 10225 20100 30120 40144 333 58000;
0183616270999992000121212004+15370-015120FM-12+0021GOOG V0200601N003112200019N0100001N1+03181+00881101521ADDAA199000091GA1001+999999999GF100991001001999999001001MA1999999101291MD1999999+0111REMSYN070AAXX  12124 61627 32960 00606 10318 20088 30129 40152 333 0//00 58011;EQDQ01  00002PRCP99
0147616270999992000121215004+15370-015120FM-12+0021GOOG V0200601N003112200019N0100001N1+03501+00641101241ADDGA1001+999999999GF100991001001999999001001MA1999999101011MD1999999+0091REMSYN064AAXX  12154 61627 42960 00606 10350 20064 30101 40124 333 58009;
0233616270999992000121306004+15370-015120FM-12+0021GOOG V0200401N001012200019N0080001N1+02051+00541101261ADDAA199000091GF102991021001999999031001IA2240+00909KA1120N+02051MA1999999101021MD1999999-0111OA150600461REMSYN100AAXX  13064 61627 32958 20402 10205 20054 30102 40126 82030 333 00900 20205 50770 55099 59011 82363;EQDQ01  00002PRCP99
0147616270999992000121309004+15370-015120FM-12+0021GOOG V0200401N001012200019N0100001N1+02161+00691101391ADDGA1001+999999999GF100991001001999999001001MA1999999101151MD1999999-0151REMSYN064AAXX  13094 61627 42960 00402 10216 20069 30115 40139 333 59015;
0183616270999992000121312004+15370-015120FM-12+0021GOOG V0200601N003112200019N0100001N1+03181+00821101311ADDAA199000091GA1001+999999999GF100991001001999999001001MA1999999101081MD1999999-0211REMSYN070AAXX  13124 61627 32960 00606 10318 20082 30108 40131 333 0//00 59021;EQDQ01  00002PRCP99
0147616270999992000121315004+15370-015120FM-12+0021GOOG V0200801N002112200019N0100001N1+03501+00891101081ADDGA1001+999999999GF100991001001999999001001MA1999999100851MD1999999-0161REMSYN064AAXX  13154 61627 42960 00804 10350 20089 30085 40108 333 59016;
0196616270999992000121318004+15370-015120FM-12+0021GOOG V0200601N002112200019N0100001N1+03401+00821101021ADDAA199000091GA1001+999999999GF100991001001999999001001KA1120M+03551MA1999999100791MD1999999-0191REMSYN070AAXX  13184 61627 32960 00604 10340 20082 30079 40102 333 10355 59019;EQDQ01  00002PRCP99
0159616270999992000121409004+15370-015120FM-12+0021GOOG V0200601N001012200019N0100001N1+02061+00531101181ADDGA1021+039009079GF102991021001999999031001MA1999999100951MD1999999-0201REMSYN076AAXX  14094 61627 42960 20602 10206 20053 30095 40118 82030 333 59020 82363;
0183616270999992000121412004+15370-015120FM-12+0021GOOG V0200801N002112200019N0100001N1+03121+00491101171ADDAA199000091GA1001+999999999GF100991001001999999001001MA1999999100941MD1999999-0141REMSYN070AAXX  14124 61627 32960 00804 10312 20049 30094 40117 333 0//00 59014;EQDQ01  00002PRCP99
0147616270999992000121415004+15370-015120FM-12+0021GOOG V0200601N002112200019N0100001N1+03621+00761100961ADDGA1001+999999999GF100991001001999999001001MA1999999100731MD1999999-0121REMSYN064AAXX  14154 61627 42960 00604 10362 20076 30073 40096 333 59012;
0208616270999992000121418004+15370-015120FM-12+0021GOOG V0200601N001012200019N0100001N1+03501+00581100911ADDAA199000091GA1031+069009019GF103991001001999999001021KA1120M+03701MA1999999100681MD1999999-0111REMSYN082AAXX  14184 61627 32960 30602 10350 20058 30068 40091 80002 333 10370 59011 83073;EQDQ01  00002PRCP99
0147616270999992000121421004+15370-015120FM-12+0021GOOG V0200401N001012200019N0080001N1+02781+00601101241ADDGA1001+999999999GF100991001001999999001001MA1999999100811MD1999999-0091REMSYN064AAXX  14214 61627 42958 00402 10278 20060 30081 40124 333 59009;
0233616270999992000121506004+15370-015120FM-12+0021GOOG V0209999C000012200019N0080001N1+02021+00521101031ADDAA199000091GF102991001001999999001021IA2240+01009KA1120N+02021MA1999999100801MD1999999-0081OA150600511REMSYN100AAXX  15064 61627 32958 20000 10202 20052 30080 40103 80002 333 01000 20202 50530 55101 59008 82073;EQDQ01  00002PRCP99
0147616270999992000121509004+15370-015120FM-12+0021GOOG V0200401N002112200019N0080001N1+02181+00721101171ADDGA1001+999999999GF100991001001999999001001MA1999999100941MD1999999-0011REMSYN064AAXX  15094 61627 42958 00404 10218 20072 30094 40117 333 59001;
0147616270999992000121515004+15370-015120FM-12+0021GOOG V0200601N001012200019N0100001N1+03501+00511100881ADDGA1001+999999999GF100991001001999999001001MA1999999100651MD1999999-0081REMSYN064AAXX  15154 61627 42960 00602 10350 20051 30065 40088 333 59008;
0183616270999992000121600004+15370-015120FM-12+0021GOOG V0200401N001012200019N0080001N1+02481+00641101051ADDAA199000091GA1001+999999999GF100991001001999999001001MA1999999100821MD1999999+0011REMSYN070AAXX  16004 61627 32958 00402 10248 20064 30082 40105 333 0//00 58001;EQDQ01  00002PRCP99
0147616270999992000121603004+15370-015120FM-12+0021GOOG V0200401N001012200019N0080001N1+02231+00601101031ADDGA1001+999999999GF100991001001999999001001MA1999999100801MD1999999+0001REMSYN064AAXX  16034 61627 42958 00402 10223 20060 30080 40103 333 58000;
0159616270999992000121609004+15370-015120FM-12+0021GOOG V0200401N001010690019N0100001N1+02181+00921101241ADDGA1051+069009019GF105991001001999999001021MA1999999101001MD1999999+0061REMSYN076AAXX  16094 61627 42960 50402 10218 20092 30100 40124 80002 333 58006 85073;
0195616270999992000121612004+15370-015120FM-12+0021GOOG V0200601N003110690019N0100001N1+03151+00961101181ADDAA199000091GA1051+069009019GF105991001001999999001021MA1999999100951MD1999999+0041REMSYN082AAXX  16124 61627 32960 50606 10315 20096 30095 40118 80002 333 0//00 58004 85073;EQDQ01  00002PRCP99
0159616270999992000121615004+15370-015120FM-12+0021GOOG V0200801N002110690019N0100001N1+03501+00721100941ADDGA1051+069009019GF105991001001999999001021MA1999999100711MD1999999+0061REMSYN076AAXX  16154 61627 42960 50804 10350 20072 30071 40094 80002 333 58006 85073;
0208616270999992000121618004+15370-015120FM-12+0021GOOG V0209999C000010690019N0100001N1+03251+00741100931ADDAA199000091GA1051+069009019GF105991001001999999001021KA1120M+03511MA1999999100701MD1999999+0081REMSYN082AAXX  16184 61627 32960 50000 10325 20074 30070 40093 80002 333 10351 58008 85073;EQDQ01  00002PRCP99
0183616270999992000121700004+15370-015120FM-12+0021GOOG V0200401N001012200019N0080001N1+02451+00621101131ADDAA199000091GA1001+999999999GF100991001001999999001001MA1999999100901MD1999999+0181REMSYN070AAXX  17004 61627 32958 00402 10245 20062 30090 40113 333 0//00 58018;EQDQ01  00002PRCP99
0233616270999992000121706004+15370-015120FM-12+0021GOOG V0209999C000012200019N0080001N1+01911+00711101141ADDAA199000091GF102991001001999999001021IA2240+01409KA1120N+01911MA1999999100911MD1999999+0091OA150600311REMSYN100AAXX  17064 61627 32958 20000 10191 20071 30091 40114 80002 333 01400 20191 50440 55068 58009 82073;EQDQ01  00002PRCP99
0159616270999992000121709004+15370-015120FM-12+0021GOOG V0200401N001012200019N0080001N1+01991+00621101321ADDGA1031+069009019GF103991001001999999001021MA1999999101081MD1999999+0081REMSYN076AAXX  17094 61627 42958 30402 10199 20062 30108 40132 80002 333 58008 83073;
0195616270999992000121712004+15370-015120FM-12+0021GOOG V0200601N002112200019N0100001N1+03101+00741101321ADDAA199000091GA1041+069009019GF104991001001999999001021MA1999999101091MD1999999+0141REMSYN082AAXX  17124 61627 32960 40604 10310 20074 30109 40132 80002 333 0//00 58014 84073;EQDQ01  00002PRCP99
0159616270999992000121715004+15370-015120FM-12+0021GOOG V0200601N003112200019N0100001N1+03481+00861101031ADDGA1041+069009019GF104991001001999999001021MA1999999100801MD1999999+0091REMSYN076AAXX  17154 61627 42960 40606 10348 20086 30080 40103 80002 333 58009 84073;
0208616270999992000121718004+15370-015120FM-12+0021GOOG V0200401N001010690019N0100001N1+03261+00621101031ADDAA199000091GA1051+069009019GF105991001001999999001021KA1120M+03501MA1999999100801MD1999999+0101REMSYN082AAXX  17184 61627 32960 50402 10326 20062 30080 40103 80002 333 10350 58010 85073;EQDQ01  00002PRCP99
0159616270999992000121809004+15370-015120FM-12+0021GOOG V0200601N001010390019N0100001N1+02181+00581101291ADDGA1051+039009079GF105991051001999999031001MA1999999101051MD1999999-0031REMSYN076AAXX  18094 61627 42960 50602 10218 20058 30105 40129 85030 333 59003 85363;
0201616270999992000121812004+15370-015120FM-12+0021GOOG V0200801N002119999999N0100001N1+03181+00881101331ADDAA199000091GA1021+039009039GF105991021001999999031021MA1999999101101MD1999999+0011REMSYN088AAXX  18124 61627 32960 50804 10318 20088 30110 40133 82032 333 0//00 58001 82363 86073;EQDQ01  00002PRCP99
0159616270999992000121815004+15370-015120FM-12+0021GOOG V0200401N002110690019N0100001N1+03501+00811101041ADDGA1051+069009019GF105991001001999999001021MA1999999100811MD1999999+0011REMSYN076AAXX  18154 61627 42960 50404 10350 20081 30081 40104 80002 333 58001 85073;
0208616270999992000121818004+15370-015120FM-12+0021GOOG V0200401N001010390019N0100001N1+03301+00811101061ADDAA199000091GA1061+039009079GF106991061001999999071001KA1120M+03531MA1999999100831MD1999999+0031REMSYN082AAXX  18184 61627 32960 60402 10330 20081 30083 40106 86070 333 10353 58003 86363;EQDQ01  00002PRCP99
0183616270999992000121900004+15370-015120FM-12+0021GOOG V0209999C000012200019N0080001N1+02511+00691101331ADDAA199000091GA1001+999999999GF100991001001999999001001MA1999999101101MD1999999+0101REMSYN070AAXX  19004 61627 32958 00000 10251 20069 30110 40133 333 0//00 58010;EQDQ01  00002PRCP99
0233616270999992000121906004+15370-015120FM-12+0021GOOG V0203601N001019999999N0080001N1+02221+00531101331ADDAA199000091GF105991051001999999031001IA2240+01009KA1120N+02221MA1999999101101MD1999999+0201OA150600461REMSYN100AAXX  19064 61627 32958 53602 10222 20053 30110 40133 85030 333 01000 20222 50550 55094 58020 85363;EQDQ01  00002PRCP99
0201616270999992000121912004+15370-015120FM-12+0021GOOG V0203601N002119999999N0100001N1+03101+00881101481ADDAA199000091GA1031+039009049GF106991031001999999071021MA1999999101251MD1999999+0151REMSYN088AAXX  19124 61627 32960 63604 10310 20088 30125 40148 83072 333 0//00 58015 83463 84073;EQDQ01  00002PRCP99
0159616270999992000121915004+15370-015120FM-12+0021GOOG V0200401N001012200019N0100001N1+03501+00781101231ADDGA1041+069009019GF104991001001999999001021MA1999999101001MD1999999+0101REMSYN076AAXX  19154 61627 42960 40402 10350 20078 30100 40123 80002 333 58010 84073;
0208616270999992000121918004+15370-015120FM-12+0021GOOG V0209999C000012200019N0100001N1+03351+00751101131ADDAA199000091GA1031+069009019GF103991001001999999001021KA1120M+03501MA1999999100901MD1999999+0071REMSYN082AAXX  19184 61627 32960 30000 10335 20075 30090 40113 80002 333 10350 58007 83073;EQDQ01  00002PRCP99
0147616270999992000121921004+15370-015120FM-12+0021GOOG V0209999C000012200019N0080001N1+02651+00501101261ADDGA1001+999999999GF100991001001999999001001MA1999999101021MD1999999-0041REMSYN064AAXX  19214 61627 42958 00000 10265 20050 30102 40126 333 59004;
0223616270999992000122006004+15370-015120FM-12+0021GOOG V0209999C000012200019N0080001N1+01721+00551101261ADDAA199000091GA1001+999999999GF100991001001999999001001IA2240+01209KA1120N+01721MA1999999101021OA150600411REMSYN088AAXX  20064 61627 32958 00000 10172 20055 30102 40126 333 01200 20172 50490 55087 59008;EQDQ01  00002PRCP99
0159616270999992000122009004+15370-015120FM-12+0021GOOG V0203601N001012200019N0100001N1+01791+00331101391ADDGA1021+069009019GF102991001001999999001021MA1999999101151MD1999999-0051REMSYN076AAXX  20094 61627 42960 23602 10179 20033 30115 40139 80002 333 59005 82073;
0195616270999992000122012004+15370-015120FM-12+0021GOOG V0203601N002112200019N0100001N1+02741+00421101461ADDAA199000091GA1021+069009019GF102991001001999999001021MA1999999101221MD1999999-0031REMSYN082AAXX  20124 61627 32960 23604 10274 20042 30122 40146 80002 333 0//00 59003 82073;EQDQ01  00002PRCP99
0159616270999992000122015004+15370-015120FM-12+0021GOOG V0200401N002112200019N0100001N1+03081+00641101221ADDGA1031+069009019GF103991001001999999001021MA1999999100991MD1999999-0011REMSYN076AAXX  20154 61627 42960 30404 10308 20064 30099 40122 80002 333 59001 83073;
0208616270999992000122018004+15370-015120FM-12+0021GOOG V0203601N001012200019N0100001N1+03001+00201101151ADDAA199000091GA1041+069009019GF104991001001999999001021KA1120M+03101MA1999999100921MD1999999+0021REMSYN082AAXX  20184 61627 32960 43602 10300 20020 30092 40115 80002 333 10310 58002 84073;EQDQ01  00002PRCP99
0217616270999992000122106004+15370-015120FM-12+0021GOOG V0203601N001012200019N0080001N1+01431+99999101251ADDAA199000091GA1001+999999999GF100991001001999999001001IA2240+00609KA1120N+01431MA1999999101011OA150600461REMSYN082AAXX  21064 61627 32958 03602 10143 30101 40125 333 00600 20143 50530 55096 59001;EQDQ01  00002PRCP99
0147616270999992000122109004+15370-015120FM-12+0021GOOG V0203601N002112200019N0100001N1+01731+01081101391ADDGA1001+999999999GF100991001001999999001001MA1999999101151MD1999999+0001REMSYN064AAXX  21094 61627 42960 03604 10173 20108 30115 40139 333 58000;
0227616270999992000122112004+15370-015120FM-12+0021GOOG V0200401N002112200019N0100001N1+02851+01031101431ADDAA199000091GA1021+069009019GF199999001001999999001999MA1999999101191MD1999999-0031REMSYN082AAXX  21124 61627 32960 00404 10285 20103 30119 40143 80002 333 0//00 59003 82073;EQDQ01+000002SCOTCVQ02+000002SCOHCGQ03  00002PRCP99
0208616270999992000122118004+15370-015120FM-12+0021GOOG V0209999C000010690019N0100001N1+03151+00681101131ADDAA199000091GA1051+069009019GF105991001001999999001021KA1120M+03381MA1999999100901MD1999999-0021REMSYN082AAXX  21184 61627 32960 50000 10315 20068 30090 40113 80002 333 10338 59002 85073;EQDQ01  00002PRCP99
0223616270999992000122206004+15370-015120FM-12+0021GOOG V0209999C000012200019N0080001N1+01481+00851101391ADDAA199000091GA1001+999999999GF100991001001999999001001IA2240-01009KA1120N+01481MA1999999101151OA150600511REMSYN088AAXX  22064 61627 32958 00000 10148 20085 30115 40139 333 06000 20148 50610 55100 58014;EQDQ01  00002PRCP99
0159616270999992000122209004+15370-015120FM-12+0021GOOG V0209999C000010690019N0100001N1+01621+01221101501ADDGA1061+069009019GF106991001001999999001021MA1999999101261MD1999999+0111REMSYN076AAXX  22094 61627 42960 60000 10162 20122 30126 40150 80002 333 58011 86073;
0195616270999992000122212004+15370-015120FM-12+0021GOOG V0200401N001012200019N0100001N1+02651+01321101491ADDAA199000091GA1031+069009019GF103991001001999999001021MA1999999101251MD1999999+0061REMSYN082AAXX  22124 61627 32960 30402 10265 20132 30125 40149 80002 333 0//00 58006 83073;EQDQ01  00002PRCP99
0159616270999992000122215004+15370-015120FM-12+0021GOOG V0200401N001012200019N0100001N1+03151+01451101241ADDGA1041+069009019GF104991001001999999001021MA1999999101001MD1999999+0061REMSYN076AAXX  22154 61627 42960 40402 10315 20145 30100 40124 80002 333 58006 84073;
0208616270999992000122218004+15370-015120FM-12+0021GOOG V0209999C000012200019N0100001N1+03061+01481101151ADDAA199000091GA1031+069009019GF103991001001999999001021KA1120M+03151MA1999999100911MD1999999+0011REMSYN082AAXX  22184 61627 32960 30000 10306 20148 30091 40115 80002 333 10315 58001 83073;EQDQ01  00002PRCP99
0223616270999992000122306004+15370-015120FM-12+0021GOOG V0209999C000012200019N0080001N1+01381+00831101341ADDAA199000091GA1001+999999999GF100991001001999999001001IA2240+00609KA1120N+01381MA1999999101101OA150600461REMSYN088AAXX  23064 61627 32958 00000 10138 20083 30110 40134 333 00600 20138 50400 55094 59005;EQDQ01  00002PRCP99
0147616270999992000122309004+15370-015120FM-12+0021GOOG V0209999C000012200019N0100001N1+01601+00921101461ADDGA1001+999999999GF100991001001999999001001MA1999999101221MD1999999-0041REMSYN064AAXX  23094 61627 42960 00000 10160 20092 30122 40146 333 59004;
0211616270999992000122312004+15370-015120FM-12+0021GOOG V0200401N001012200019N0100001N1+02822+01341101531ADDAA199000091GA1021+069009019GF102991001001999999001021MA1999999101291MD1999999+0041REMSYN082AAXX  23124 61627 32960 20402 10282 20134 30129 40153 80002 333 0//00 58004 82073;EQDQ01+002823ATOT  Q02  00002PRCP99
0183616270999992000122400004+15370-015120FM-12+0021GOOG V0209999C000012200019N0080001N1+02151+00901101421ADDAA199000091GA1001+999999999GF100991001001999999001001MA1999999101181MD1999999-0011REMSYN070AAXX  24004 61627 32958 00000 10215 20090 30118 40142 333 0//00 59001;EQDQ01  00002PRCP99
0147616270999992000122403004+15370-015120FM-12+0021GOOG V0209999C000012200019N0080001N1+01811+01121101361ADDGA1001+999999999GF100991001001999999001001MA1999999101121MD1999999+0011REMSYN064AAXX  24034 61627 42958 00000 10181 20112 30112 40136 333 58001;
0223616270999992000122406004+15370-015120FM-12+0021GOOG V0209999C000012200019N0080001N1+01631+01331101361ADDAA199000091GA1001+999999999GF100991001001999999001001IA2240+00509KA1120N+01631MA1999999101121OA150600411REMSYN088AAXX  24064 61627 32958 00000 10163 20133 30112 40136 333 00500 20163 50470 55088 58002;EQDQ01  00002PRCP99
0159616270999992000122409004+15370-015120FM-12+0021GOOG V0203201N001012200019N0100001N1+01681+01541101501ADDGA1031+069009019GF103991001001999999001021MA1999999101261MD1999999+0041REMSYN076AAXX  24094 61627 42960 33202 10168 20154 30126 40150 80002 333 58004 83073;
0195616270999992000122412004+15370-015120FM-12+0021GOOG V0200401N001010690019N0100001N1+02901+01271101521ADDAA199000091GA1061+069009019GF106991001001999999001021MA1999999101281MD1999999-0011REMSYN082AAXX  24124 61627 32960 60402 10290 20127 30128 40152 80002 333 0//00 59001 86073;EQDQ01  00002PRCP99
0159616270999992000122415004+15370-015120FM-12+0021GOOG V0209999C000010690019N0100001N1+03301+01201101241ADDGA1061+069009019GF106991001001999999001021MA1999999101001MD1999999-0021REMSYN076AAXX  24154 61627 42960 60000 10330 20120 30100 40124 80002 333 59002 86073;
0208616270999992000122418004+15370-015120FM-12+0021GOOG V0209999C000010690019N0100001N1+03151+01031101181ADDAA199000091GA1061+069009019GF106991001001999999001021KA1120M+03301MA1999999100951MD1999999+0021REMSYN082AAXX  24184 61627 32960 60000 10315 20103 30095 40118 80002 333 10330 58002 86073;EQDQ01  00002PRCP99
0223616270999992000122506004+15370-015120FM-12+0021GOOG V0209999C000012200019N0080001N1+01881+01121101311ADDAA199000091GA1001+999999999GF100991001001999999001001IA2240+00709KA1120N+01841MA1999999101071OA150600411REMSYN088AAXX  25064 61627 32958 00000 10188 20112 30107 40131 333 00700 20184 50490 55082 59005;EQDQ01  00002PRCP99
0165616270999992000122509004+15370-015120FM-12+0021GOOG V0209999C000012200019N0100001N1+01781+01281101451ADDGA1011+039009039GF103991011001999999031021MA1999999101211MD1999999-0051REMSYN082AAXX  25094 61627 42960 30000 10178 20128 30121 40145 81032 333 59005 81363 83073;
0195616270999992000122512004+15370-015120FM-12+0021GOOG V0200401N001012200019N0100001N1+02981+01441101431ADDAA199000091GA1041+069009019GF104991001001999999001021MA1999999101191MD1999999-0091REMSYN082AAXX  25124 61627 32960 40402 10298 20144 30119 40143 80002 333 0//00 59009 84073;EQDQ01  00002PRCP99
0178616270999992000122515004+15370-015120FM-12+0021GOOG V0200401N001010690019N0100001N1+03301+01541101151ADDGA1071+069009089GF107991999001999999001061MA1999999100921MD1999999-0081REMSYN076AAXX  25154 61627 42960 70402 10330 20154 30092 40115 80006 333 59008 87273;EQDQ01+000002SCOTLC
0208616270999992000122518004+15370-015120FM-12+0021GOOG V0209999C000010690019N0100001N1+03181+01521101141ADDAA199000091GA1061+069009019GF106991001001999999001021KA1120M+03331MA1999999100911MD1999999-0041REMSYN082AAXX  25184 61627 32960 60000 10318 20152 30091 40114 80002 333 10333 59004 86073;EQDQ01  00002PRCP99
0159616270999992000122609004+15370-015120FM-12+0021GOOG V0209999C000010690019N0100001N1+01881+00981101441ADDGA1061+069009019GF106991001001999999001021MA1999999101201MD1999999-0011REMSYN076AAXX  26094 61627 42960 60000 10188 20098 30120 40144 80002 333 59001 86073;
0211616270999992000122612004+15370-015120FM-12+0021GOOG V0209999C000010690019N0100001N1+02721+01321101461ADDAA199000091GA1071+069009019GF199999001001999999001021MA1999999101221MD1999999+0031REMSYN082AAXX  26124 61627 32960 50000 10272 20132 30122 40146 80002 333 0//00 58003 87073;EQDQ01+000052SCOTCVQ02  00002PRCP99
0159616270999992000122615004+15370-015120FM-12+0021GOOG V0209999C000010690019N0100001N1+03271+01641101251ADDGA1071+069009019GF107991001001999999001021MA1999999101011MD1999999+0091REMSYN076AAXX  26154 61627 42960 70000 10327 20164 30101 40125 80002 333 58009 87073;
0191616270999992000122618004+15370-015120FM-12+0021GOOG V0209999C000019999999N0100001N1+03201+01621101201ADDAA199000091GF107991999999999999999999KA1120M+03351MA1999999100971MD1999999+0061REMSYN081AAXX  26184 61627 32960 70000 10320 20162 30097 40120 8002 333 10335 58006 87073;EQDQ01  00002PRCP99
0159616270999992000122621004+15370-015120FM-12+0021GOOG V0209999C000010690019N0080001N1+99999+99999101341ADDGA1051+069009019GF105991001001999999001021MA1999999101101MD1999999+0021REMSYN076AAXX  26214 61627 42958 50000 10/// 20133 30110 40134 80002 333 58002 85073;
0249616270999992000122706004+15370-015120FM-12+0021GOOG V0203601N001012200019N0080001N1+01821+01341101361ADDAA199000091GF104991001001999999001021IA2240+00809KA1120N+01821MA1999999101121MD1999999+0041OA150699999REMSYN100AAXX  27064 61627 32958 43602 10182 20134 30112 40136 80002 333 00800 20182 50420 55019 58004 84073;EQDQ01  00002PRCP99Q02  00052WGOSPD
0159616270999992000122709004+15370-015120FM-12+0021GOOG V0209999C000010690019N0100001N1+01841+01231101491ADDGA1051+069009019GF105991001001999999001021MA1999999101251MD1999999+0051REMSYN076AAXX  27094 61627 42960 50000 10184 20123 30125 40149 80002 333 58005 85073;
0195616270999992000122712004+15370-015120FM-12+0021GOOG V0203601N002110690019N0100001N1+03061+01541101541ADDAA199000091GA1061+069009019GF106991001001999999001021MA1999999101301MD1999999+0081REMSYN082AAXX  27124 61627 32960 63604 10306 20154 30130 40154 80002 333 0//00 58008 86073;EQDQ01  00002PRCP99
0159616270999992000122715004+15370-015120FM-12+0021GOOG V0203601N002110690019N0100001N1+03381+01631101281ADDGA1061+069009019GF106991001001999999001021MA1999999101041MD1999999+0031REMSYN076AAXX  27154 61627 42960 63604 10338 20163 30104 40128 80002 333 58003 86073;
0208616270999992000122718004+15370-015120FM-12+0021GOOG V0203601N001010690019N0100001N1+03301+01521101241ADDAA199000091GA1061+069009019GF106991001001999999001021KA1120M+03421MA1999999101001MD1999999+0031REMSYN082AAXX  27184 61627 32960 63602 10330 20152 30100 40124 80002 333 10342 58003 86073;EQDQ01  00002PRCP99
0159616270999992000122721004+15370-015120FM-12+0021GOOG V0209999C000012200019N0080001N1+02641+01281101341ADDGA1021+069009019GF102991001001999999001021MA1999999101101MD1999999+0001REMSYN076AAXX  27214 61627 42958 20000 10264 20128 30110 40134 80002 333 58000 82073;
0183616270999992000122800004+15370-015120FM-12+0021GOOG V0200401N001512200019N0080001N1+02401+01331101311ADDAA199000091GA1001+999999999GF100991001001999999001001MA1999999101171MD1999999-0031REMSYN070AAXX  28004 61627 32958 00403 10240 20133 30117 40131 333 0//00 59003;EQDQ01  00002PRCP99
0159616270999992000122809004+15370-015120FM-12+0021GOOG V0200401N001010690019N0100001N1+01901+01141101471ADDGA1071+069009019GF107991001001999999001021MA1999999101231MD1999999-0021REMSYN076AAXX  28094 61627 42960 70402 10190 20114 30123 40147 80002 333 59002 87073;
0195616270999992000122812004+15370-015120FM-12+0021GOOG V0200401N002110690019N0100001N1+02951+01381101541ADDAA199000091GA1061+069009019GF106991001001999999001021MA1999999101301MD1999999+0001REMSYN082AAXX  28124 61627 32960 60404 10295 20138 30130 40154 80002 333 0//00 58000 86073;EQDQ01  00002PRCP99
0159616270999992000122815004+15370-015120FM-12+0021GOOG V0200401N002110690019N0100001N1+03401+01661101331ADDGA1061+069009019GF106991001001999999001021MA1999999101101MD1999999+0061REMSYN076AAXX  28154 61627 42960 60404 10340 20166 30110 40133 80002 333 58006 86073;
0208616270999992000122818004+15370-015120FM-12+0021GOOG V0200401N002110690019N0100001N1+03101+01591101291ADDAA199000091GA1061+069009019GF106991001001999999001021KA1120M+03401MA1999999101051MD1999999+0051REMSYN082AAXX  28184 61627 32960 60404 10310 20159 30105 40129 80002 333 10340 58005 86073;EQDQ01  00002PRCP99
0223616270999992000122906004+15370-015120FM-12+0021GOOG V0203601N001012200019N0100001N1+01601+01041101391ADDAA199000091GA1001+999999999GF100991001001999999001001IA2240+00909KA1120N+01601MA1999999101151OA150600261REMSYN088AAXX  29064 61627 32960 03602 10160 20104 30115 40139 333 00900 20160 50660 55057 58007;EQDQ01  00002PRCP99
0147616270999992000122909004+15370-015120FM-12+0021GOOG V0200401N002112200019N0100001N1+02151+01271101491ADDGA1001+999999999GF100991001001999999001001MA1999999101251MD1999999+0021REMSYN064AAXX  29094 61627 42960 00404 10215 20127 30125 40149 333 58002;
0195616270999992000122912004+15370-015120FM-12+0021GOOG V0200401N002110690019N0100001N1+02981+01071101531ADDAA199000091GA1051+069009019GF105991001001999999001021MA1999999101291MD1999999-0011REMSYN082AAXX  29124 61627 32960 50404 10298 20107 30129 40153 80002 333 0//00 59001 85073;EQDQ01  00002PRCP99
0159616270999992000122915004+15370-015120FM-12+0021GOOG V0200601N002110690019N0100001N1+03441+01871101251ADDGA1051+069009019GF105991001001999999001021MA1999999101011MD1999999-0091REMSYN076AAXX  29154 61627 42960 50604 10344 20187 30101 40125 80002 333 59009 85073;
0208616270999992000122918004+15370-015120FM-12+0021GOOG V0203601N002110690019N0100001N1+03261+01581101191ADDAA199000091GA1051+069009019GF105991001001999999001021KA1120M+03441MA1999999100961MD1999999-0091REMSYN082AAXX  29184 61627 32960 53604 10326 20158 30096 40119 80002 333 10344 59009 85073;EQDQ01  00002PRCP99
0159616270999992000123006004+15370-015120FM-12+0021GOOG V0209999C000012200019N0100001N1+01851+01061101421ADDGA1031+069009019GF103991001001999999001021MA1999999101181MD1999999-0071REMSYN076AAXX  30064 61627 42960 30000 10185 20106 30118 40142 80002 333 59007 83073;
0195616270999992000123012004+15370-015120FM-12+0021GOOG V0200601N002112200019N0100001N1+03001+01501101431ADDAA199000091GA1041+069009019GF104991001001999999001021MA1999999101191MD1999999-0101REMSYN082AAXX  30124 61627 32960 40604 10300 20150 30119 40143 80002 333 0//00 59010 84073;EQDQ01  00002PRCP99
0145616270999992000123015004+15370-015120FM-12+0021GOOG V0209999C000012200019N0100001N1+03551+01701101131ADDGA1031+069009019GF103991001001999999001021MA1999999100901REMSYN076AAXX  30154 61627 42960 30000 10355 20170 30090 40113 80002 333 5901/ 83073;
0208616270999992000123018004+15370-015120FM-12+0021GOOG V0209999C000012200019N0100001N1+03341+01631101041ADDAA199000091GA1031+069009019GF103991001001999999001021KA1120M+03581MA1999999100811MD1999999-0151REMSYN082AAXX  30184 61627 32960 30000 10334 20163 30081 40104 80002 333 10358 59015 83073;EQDQ01  00002PRCP99
0147616270999992000123109004+15370-015120FM-12+0021GOOG V0209999C000012200019N0100001N1+01701+00811101241ADDGA1001+999999999GF100991001001999999001001MA1999999101001MD1999999-0181REMSYN064AAXX  31094 61627 42960 00000 10170 20081 30100 40124 333 59018;
0183616270999992000123112004+15370-015120FM-12+0021GOOG V0200401N001012200019N0100001N1+03202+01521101251ADDAA199000091GA1001+999999999GF100991001001999999001001MA1999999101021MD1999999-0171REMSYN070AAXX  31124 61627 32960 00402 10320 20152 30102 40125 333 0//00 59017;EQDQ01  00002PRCP99
0097616270999992000123114004+15370-015120FM-15+0021GOOG V0200101N00361220001CN0099001N1+02601+01701999999ADDMA1101021999999MW1001REMMET045GOOG 311400Z 01007KT CAVOK 26/17 Q1010 NOSIG;EQDQ01+000000PRSWM2
0147616270999992000123115004+15370-015120FM-12+0021GOOG V0200401N001012200019N0100001N1+03672+01751101011ADDGA1001+999999999GF100991001001999999001001MA1999999100781MD1999999-0121REMSYN064AAXX  31154 61627 42960 00402 10367 20175 30078 40101 333 59012;
0208616270999992000123118004+15370-015120FM-12+0021GOOG V0200401N001012200019N0100001N1+03531+01541100951ADDAA199000091GA1021+069009019GF102991001001999999001021KA1120M+03701MA1999999100721MD1999999-0091REMSYN082AAXX  31184 61627 32960 20402 10353 20154 30072 40095 80002 333 10370 59009 82073;EQDQ01  00002PRCP99
0147616270999992000123121004+15370-015120FM-12+0021GOOG V0209999C000012200019N0080001N1+02651+01361101101ADDGA1001+999999999GF100991001001999999001001MA1999999100871MD1999999-0131REMSYN064AAXX  31214 61627 42958 00000 10265 20136 30087 40110 333 59013;
