0236633340999992000011406004+10350+037720FM-12+247699999V0200801N004012200019N0250001N1+01521+01221101311ADDAA199000091AY101061GA1001+999999999GF100991001001999999001001KA1120N+00921MA1999999076331MD1999999+0051MW1051REMSYN096    AAXX  14061 63334 31975 00804 10152 20122 37633 40131 7050/ 333 20092 58005 555 22110 10232;EQDQ01  00002PRCP99
0182633340999992000011412004+10350+037720FM-12+247699999V0201201N002012200019N0300001N1+02241-00461100402ADDGA1011+009009029GF101991011011008001001001MA1999999076211MD1999999+0041REMSYN080    AAXX  14121 63334 42580 11202 10224 21046 37621 40040 81100 333 58004 81830;EQDQ01+100403APOSLP
0163633340999992000011415004+10350+037720FM-12+247699999V0201201N002012200019N0300001N1+02021-00141100641ADDGA1011+009009029GF101991011011008001001001MA1999999076191MD1999999-0031REMSYN080    AAXX  14151 63334 42580 11202 10202 21014 37619 40064 81100 333 59003 81830;
0201633340999992000011418004+10350+037720FM-12+247699999V0200901N003012200019N0300001N1+01321-00461101382ADDGA1011+009009029GF101991011011008001001001KA1120M+02301MA1999999076271MD1999999+0041REMSYN086    AAXX  14181 63334 42580 10903 10132 21046 37627 40138 81100 333 10230 58004 81830;EQDQ01+101383APOSLP
0175633340999992000011503004+10350+037720FM-12+247699999V0200901N002012200019N0250001N1+01001-00601101681ADDGA1011+060009019GF101991001001999999001011MA1999999076261MD1999999+0021MW1051REMSYN086    AAXX  15031 63334 41975 10902 10100 21060 37626 40168 705// 80001 333 58002 81070;
0179633340999992000011509004+10350+037720FM-12+247699999V0202201N002012200019N0250001N1+02141-00481100561ADDAY101031AY201031GA1001+999999999GF100991001001999999001001MA1999999076251MD1999999+0021MW1051REMSYN074    AAXX  15091 63334 41975 02202 10214 21048 37625 40056 70500 333 58002;
0191633340999992000011512004+10350+037720FM-12+247699999V0201801N004012200019N0250001N1+02361+00201100311ADDAY101061AY201061GA1021+009009029GF102991021011008001001001MA1999999076211MD1999999+0001MW1051REMSYN086    AAXX  15121 63334 41575 21804 10236 20020 37621 40031 70500 82100 333 58000 82830;
0217633340999992000011518004+10350+037720FM-12+247699999V0202201N002012200019N0250001N1+01301-00301101382ADDAY101061AY201061GA1001+999999999GF100991001001999999001001KA1120M+02401MA1999999076251MD1999999-0021MW1051REMSYN080    AAXX  15181 63334 41975 02202 10130 21030 37625 40138 70500 333 10240 59002;EQDQ01+101383APOSLP
0236633340999992000011606004+10350+037720FM-12+247699999V0200801N002012200019N0200001N1+01461-00061101361ADDAA199000091AY101061GA1001+999999999GF100991001001999999001001KA1120N+00761MA1999999076341MD1999999+0011MW1051REMSYN096    AAXX  16061 63334 31970 00802 10146 21006 37634 40136 7050/ 333 20076 58001 555 22107 10240;EQDQ01  00002PRCP99
0191633340999992000011609004+10350+037720FM-12+247699999V0201801N002012200019N0200001N1+02161-00141100631ADDAY101031AY201031GA1011+009009029GF101991011011008001001001MA1999999076291MD1999999+0041MW1051REMSYN086    AAXX  16091 63334 41570 11802 10216 21014 37629 40063 70500 81100 333 58004 81830;
0191633340999992000011612004+10350+037720FM-12+247699999V02099999999992200019N0200001N1+02381-00141100331ADDAY101061AY201061GA1011+009009029GF101991011011008001001001MA1999999076231MD1999999+0021MW1051REMSYN086    AAXX  16121 63334 41570 14102 10238 21014 37623 40033 70500 81100 333 58002 81830;
0191633340999992000011615004+10350+037720FM-12+247699999V0202401N004012200019N0200001N1+02181-00201100561ADDAY101031AY201031GA1021+009009029GF102991021011008001001001MA1999999076251MD1999999+0011MW1051REMSYN086    AAXX  16151 63334 41570 22404 10218 21020 37625 40056 70500 82100 333 58001 82830;
0229633340999992000011618004+10350+037720FM-12+247699999V0202101N002012200019N0200001N1+01381-00061101342ADDAY101061AY201061GA1011+030009079GF101991011001999999031001KA1120M+02421MA1999999076311MD1999999+0061MW1051REMSYN092    AAXX  16181 63334 41970 12102 10138 21006 37631 40134 70500 81030 333 10242 58006 81360;EQDQ01+101343APOSLP
0236633340999992000011706004+10350+037720FM-12+247699999V0209999C000012200019N0100001N1+01481+00301101251ADDAA199000091AY101061GA1001+999999999GF100991001001999999001001KA1120N+00701MA1999999076281MD1999999-0061MW1051REMSYN096    AAXX  17061 63334 31960 00000 10148 20030 37628 40125 7050/ 333 20070 59006 555 22105 10242;EQDQ01  00002PRCP99
0210633340999992000011712004+10350+037720FM-12+247699999V0202201N002012200019N0150001N1+02341-00121999999ADDAY101061AY201061GA1011+008409029GF101991011011008001001001MA1999999076061MD1999999-0171MW1051REMSYN086    AAXX  17121 63334 41565 12202 10234 21012 37606 40012 70500 81100 333 59017 81828;EQDQ01+100123APOSLP
0198633340999992000011718004+10350+037720FM-12+247699999V0209999C000012200019N0250001N1+01501-00021101051ADDAY101061AY201061GA1001+999999999GF100991001001999999001001KA1120M+02451MA1999999076131MD1999999-0181MW1051REMSYN080    AAXX  17181 63334 41975 00000 10150 21002 37613 40105 70500 333 10245 59018;
0236633340999992000011806004+10350+037720FM-12+247699999V0201001N002012200019N0150001N1+01501+00111101181ADDAA199000091AY101061GA1001+999999999GF100991001001999999001001KA1120N+00881MA1999999076251MD1999999-0031MW1051REMSYN096    AAXX  18061 63334 31965 01002 10150 20011 37625 40118 7050/ 333 20088 59003 555 22104 10245;EQDQ01  00002PRCP99
0210633340999992000011812004+10350+037720FM-12+247699999V0202501N004012200019N0150001N1+02301-00041100362ADDAY101061AY201061GA1021+009009029GF102991021011008001001001MA1999999076201MD1999999+0141MW1051REMSYN086    AAXX  18121 63334 41565 22504 10230 21004 37620 40036 70500 82100 333 58014 82830;EQDQ01+100363APOSLP
0197633340999992000011815004+10350+037720FM-12+247699999V0202501N002012200019N0150001N1+02141+00221100501ADDAY101031AY201031GA1021+009009019GF103991021011008001031001MA1999999076211MD1999999+0161MW1051REMSYN092    AAXX  18151 63334 41565 32502 10214 20022 37621 40050 70500 82130 333 58016 82830 81360;
0210633340999992000011818004+10350+037720FM-12+247699999V0209999C000012200019N0150001N1+01561+00241101201ADDAY101061AY201061GA1011+030009079GF101991011001999999031001KA1120M+02401MA1999999076371MD1999999+0191MW1051REMSYN092    AAXX  18181 63334 41965 10000 10156 20024 37637 40120 70500 81030 333 10240 58019 81360;
0260633340999992000011906004+10350+037720FM-12+247699999V0203301N001012200019N0150001N1+01221+00241101611ADDAA199000091AY101061GA1011+009009019GF102991011011008001031001KA1120N+00781MA1999999076371MD1999999+0121MW1051REMSYN120    AAXX  19061 63334 31565 23301 10122 20024 37637 40161 7050/ 81130 333 20078 58012 81827 81360 555 22096 32/// 10240;EQDQ01  00002PRCP99
0210633340999992000011909004+10350+037720FM-12+247699999V0200901N004012200019N0200001N1+02301-00041100562ADDAY101031AY201031GA1021+008109029GF102991021011008001001001MA1999999076351MD1999999+0041MW1051REMSYN086    AAXX  19091 63334 41570 20904 10230 21004 37635 40056 70500 82100 333 58004 82827;EQDQ01+100563APOSLP
0261633340999992000012306004+10350+037720FM-12+2476HADM V0200701N010012200019N0250001N1+01621+00601101221ADDAA199000091AY101061GA1021+000159019GF102991021011008001001001KA1120N+01161MA1999999076351MD1999999-0071MW1051OA150601001REMSYN110AAXX  23061 63334 31575 20710 10162 20060 37635 40122 7050/ 82100 333 20116 55100 59007 82828 555 22101 10250;EQDQ01  00002PRCP99
0187633340999992000012309004+10350+037720FM-12+2476HADM V0201501N004012200019N0250001N1+01981+00401100771ADDAY101031AY201031GA1031+008409029GF103991031011008001001001MA1999999076311MD1999999-0071MW1051REMSYN082AAXX  23091 63334 41575 31504 10198 20040 37631 40077 70500 83100 333 59007 83828;
0187633340999992000012315004+10350+037720FM-12+2476HADM V0201301N004012200019N0250001N1+02021-00241100641ADDAY101031AY201031GA1031+008409029GF103991031021008001001001MA1999999076201MD1999999-0051MW1051REMSYN082AAXX  23151 63334 41575 31304 10202 21024 37620 40064 70500 83200 333 59005 83828;
0225633340999992000012318004+10350+037720FM-12+2476HADM V0200801N002012200019N0250001N1+01621+00191101151ADDAY101061AY201061GA1021+008409029GF102991021011008001001001KA1120M+99999MA1999999076291MD1999999-0041MW1051REMSYN088AAXX  23181 63334 41575 20802 10162 20019 37629 40115 70500 82100 333 10142 59004 82828;EQDQ01 +01422ATMX  
0159633340999992000012503004+10350+037720FM-12+2476HADM V0200901N004012200019N0300001N1+01141-00121101791ADDGA1011+060009019GF101991001001999999001011MA1999999076441MD1999999+0111REMSYN076AAXX  25031 63334 43980 10904 10114 21012 37644 40179 80001 333 58011 81070;
0214633340999992000012506004+10350+037720FM-12+2476HADM V0200901N003012200019N0300001N1+01741-00201101341ADDAA199000091GF101991001001999999001011KA1120N+01051MA1999999076531MD1999999+0171REMSYN104AAXX  25061 63334 32980 10903 10174 21020 37653 40134 80001 333 20105 58017 81070 555 22109 32/// 10244;EQDQ01  00002PRCP99
0178633340999992000012509004+10350+037720FM-12+2476HADM V0200901N004012200019N0300001N1+02201-00241100851ADDGA1011+009009029GF102991999011008001001001MA1999999076481MD1999999+0171REMSYN076AAXX  25091 63334 42580 20904 10220 21024 37648 40085 81100 333 58017 81830;EQDQ01+000012SCOTLC
0159633340999992000012512004+10350+037720FM-12+2476HADM V0200801N002012200019N0300001N1+02381-00881100531ADDGA1021+009009029GF102991021011008001001001MA1999999076401MD1999999+0121REMSYN076AAXX  25121 63334 42580 20802 10238 21088 37640 40053 82100 333 58012 82830;
0166633340999992000012518004+10350+037720FM-12+2476HADM V0209999C000012200019N0300001N1+01441-00621101361ADDGA1001+999999999GF100991001001999999001001KA1120M+02491MA1999999076331MD1999999-0061REMSYN070AAXX  25181 63334 42980 00000 10144 21062 37633 40136 333 10249 59006;
0159633340999992000012609004+10350+037720FM-12+2476HADM V0201501N002012200019N0300001N1+02201-00901100781ADDGA1011+009009029GF101991011011008001001001MA1999999076441MD1999999-0041REMSYN076AAXX  26091 63334 42580 11502 10220 21090 37644 40078 81100 333 59004 81830;
0159633340999992000012612004+10350+037720FM-12+2476HADM V0201501N004012200019N0300001N1+02381-00581100531ADDGA1011+009009029GF101991011011008001001001MA1999999076401MD1999999+0001REMSYN076AAXX  26121 63334 42580 11504 10238 21058 37640 40053 81100 333 58000 81830;
0187633340999992000012812004+10350+037720FM-12+2476HADM V0202501N002012200019N0200001N1+02381-00021100331ADDAY101061AY201061GA1031+009009029GF103991031011008001001001MA1999999076231MD1999999-0091MW1051REMSYN082AAXX  28121 63334 41570 32502 10238 21002 37623 40033 70500 83100 333 59009 83830;
0187633340999992000012815004+10350+037720FM-12+2476HADM V0202401N003012200019N0200001N1+02221+00081100451ADDAY101031AY201031GA1021+009009029GF102991021011008001001001MA1999999076221MD1999999-0141MW1051REMSYN082AAXX  28151 63334 41570 22403 10222 20008 37622 40045 70500 82100 333 59014 82830;
0206633340999992000012818004+10350+037720FM-12+2476HADM V0202001N002012200019N0200001N1+01781+00061100891ADDAY101061AY201061GA1011+009009029GF101991011011008001001001KA1120M+02521MA1999999076261MD1999999-0111MW1051REMSYN088AAXX  28181 63334 41570 12002 10178 20006 37626 40089 70500 81100 333 10252 59011 81830;
0222633340999992000012906004+10350+037720FM-12+2476HADM V0200701N002012200019N0200001N1+01541+00191101131ADDAA199000091AY101061GF103991001001999999001011KA1120N+00901MA1999999076271MD1999999-0061MW1051REMSYN098AAXX  29061 63334 31970 30702 10154 20019 37627 40113 7050/ 80001 333 20090 59006 83070 555 22102;EQDQ01  00002PRCP99
0187633340999992000012909004+10350+037720FM-12+2476HADM V0201701N002012200019N0100001N1+02261+00291100471ADDAY101031AY201031GA1031+060009019GF103991001001999999001011MA1999999076231MD1999999-0071MW1061REMSYN082AAXX  29091 63334 41960 31702 10226 20029 37623 40047 70600 80001 333 59007 83070;
0206633340999992000012912004+10350+037720FM-12+2476HADM V0201201N002012200019N0100001N1+02381+99999100271ADDAY131061AY201061GA1021+009009029GF102991021011008001001001MA1999999076201MD1999999-0031MW1061REMSYN082AAXX  29121 63334 41560 21202 10238 20222 37620 40027 70630 82100 333 59003 82830;EQDQ01+002223ATOD  
0187633340999992000012915004+10350+037720FM-12+2476HADM V0202501N002012200019N0100001N1+02261-00061100341ADDAY131031AY231031GA1021+009009029GF102991021011008001001001MA1999999076171MD1999999-0051MW1061REMSYN082AAXX  29151 63334 41560 22502 10226 21006 37617 40034 70633 82100 333 59005 82830;
0225633340999992000012918004+10350+037720FM-12+2476HADM V0209999C000012200019N0100001N1+01541+00001101202ADDAY131061AY231061GA1021+009009029GF102991021011008001001001KA1120M+02431MA1999999076291MD1999999+0031MW1061REMSYN088AAXX  29181 63334 41560 20000 10154 20000 37629 40120 70633 82100 333 10243 58003 82830;EQDQ01+101203APOSLP
0171633340999992000013003004+10350+037720FM-12+2476HADM V0200801N001012200019N0200001N1+00881-00121101911ADDGA1011+060009019GF101991001001999999001011MA1999999076341MD1999999+0111MW1051REMSYN082AAXX  30031 63334 41970 10801 10088 21012 37634 40191 705// 80001 333 58011 81070;
0187633340999992000013009004+10350+037720FM-12+2476HADM V0201201N004012200019N0200001N1+02201-00121100781ADDAY101031AY201031GA1011+009009029GF101991011011008001001001MA1999999076441MD1999999+0211MW1051REMSYN082AAXX  30091 63334 41570 11204 10220 21012 37644 40078 70500 81100 333 58021 81830;
0187633340999992000013012004+10350+037720FM-12+2476HADM V0201801N004012200019N0200001N1+02381-00401100531ADDAY101061AY201061GA1021+009009029GF102991021011008001001001MA1999999076381MD1999999+0181MW1051REMSYN082AAXX  30121 63334 41570 21804 10238 21040 37638 40053 70500 82100 333 58018 82830;
0187633340999992000013015004+10350+037720FM-12+2476HADM V0201501N002012200019N0200001N1+02241-00461100671ADDAY101031AY201031GA1021+009009029GF102991021011008001001001MA1999999076381MD1999999+0211MW1051REMSYN082AAXX  30151 63334 41570 21502 10224 21046 37638 40067 70500 82100 333 58021 82830;
0213633340999992000013018004+10350+037720FM-12+2476HADM V0209999C000012200019N0200001N1+01461-00121101492ADDAY101061AY201061GA1001+999999999GF100991001001999999001001KA1120M+02441MA1999999076441MD1999999+0151MW1051REMSYN076AAXX  30181 63334 41970 00000 10146 21012 37644 40149 70500 333 10244 58015;EQDQ01+101493APOSLP
0171633340999992000013103004+10350+037720FM-12+2476HADM V0200901N002012200019N0200001N1+00981-00021101941ADDGA1011+060009019GF101991001001999999001011MA1999999076451MD1999999+0111MW1051REMSYN082AAXX  31031 63334 41970 10902 10098 21002 37645 40194 705// 80001 333 58011 81070;
0238633340999992000013106004+10350+037720FM-12+2476HADM V0200601N006012200019N0200001N1+01501+00141101511ADDAA199000091AY101061GA1001+999999999GF100991001001999999001001KA1120N+00941MA1999999076521MD1999999+0121MW1051REMSYN098AAXX  31061 63334 31970 00606 10150 20014 37652 40151 7050/ 333 20094 58012 555 22108 32/// 10244;EQDQ01  00002PRCP99
0187633340999992000013109004+10350+037720FM-12+2476HADM V0201001N004012200019N0200001N1+02141-00141100891ADDAY101031AY201031GA1011+009009029GF101991011011008001001001MA1999999076511MD1999999+0071MW1051REMSYN082AAXX  31091 63334 41570 11004 10214 21014 37651 40089 70500 81100 333 58007 81830;
0165633340999992000013112004+10350+037720FM-12+2476HADM V0201201N002012200019N0300001N1+02401-00391100531ADDGA1021+000309019GF103991021011008001001011MA1999999076391MD1999999+0011REMSYN082AAXX  31121 63334 42580 31202 10240 21039 37639 40053 82101 333 58001 82828 81070;
0185633340999992000013115004+10350+037720FM-12+2476HADM V0209999C000012200019N0300001N1+01561-00261101402ADDGA1001+999999999GF100991001001999999001001KA1120M+02421MA1999999076461MD1999999+0021REMSYN070AAXX  31151 63334 42980 00000 10156 21026 37646 40140 333 10242 58002;EQDQ01+101403APOSLP
0159633340999992000020115004+10350+037720FM-12+2476HADM V0202401N002012200019N0300001N1+02401-00361100401ADDGA1011+009009029GF101991011011008001001001MA1999999076311MD1999999-0091REMSYN076AAXX  01151 63334 42580 12402 10240 21036 37631 40040 81100 333 59009 81830;
0185633340999992000020118004+10350+037720FM-12+2476HADM V0201801N002012200019N0300001N1+01481-00161101382ADDGA1001+999999999GF100991001001999999001001KA1120M+02621MA1999999076381MD1999999-0081REMSYN070AAXX  01181 63334 42980 01802 10148 21016 37638 40138 333 10262 59008;EQDQ01+101383APOSLP
0171633340999992000020203004+10350+037720FM-12+2476HADM V0209999C000012200019N0200001N1+00781-00261102011ADDGA1011+060009019GF101991001001999999001011MA1999999076361MD1999999-0071MW1051REMSYN082AAXX  02031 63334 41970 10000 10078 21026 37636 40201 705// 80001 333 59007 81070;
0228633340999992000020206004+10350+037720FM-12+2476HADM V0201101N002012200019N0250001N1+01621-00501101351ADDAA199000091AY101061GF101991001001999999001011KA1120N+01101MA1999999076461MD1999999-0061MW1051REMSYN104AAXX  02061 63334 31975 11102 10162 21050 37646 40135 7050/ 80001 333 20110 59006 81070 555 22110 10242;EQDQ01  00002PRCP99
0175633340999992000020209004+10350+037720FM-12+2476HADM V0202101N005012200019N0200001N1+02241-00301100601ADDAY101031AY201031GA1001+999999999GF100991001001999999001001MA1999999076361MD1999999+0001MW1051REMSYN070AAXX  02091 63334 41970 02105 10224 21030 37636 40060 70500 333 58000;
0187633340999992000020212004+10350+037720FM-12+2476HADM V0202501N004012200019N0100001N1+02421-00381100331ADDAY101061AY201061GA1011+009009029GF101991011011008001001001MA1999999076271MD1999999-0081MW1051REMSYN082AAXX  02121 63334 41560 12504 10242 21038 37627 40033 70500 81100 333 59008 81830;
0187633340999992000020215004+10350+037720FM-12+2476HADM V0202501N002012200019N0100001N1+02301-00391100421ADDAY101031AY201031GA1021+009009029GF102991021011008001001001MA1999999076241MD1999999-0071MW1051REMSYN082AAXX  02151 63334 41560 22502 10230 21039 37624 40042 70500 82100 333 59007 82830;
0225633340999992000020218004+10350+037720FM-12+2476HADM V0209999C000012200019N0150001N1+01651-00301101102ADDAY101061AY201061GA1011+009009029GF101991011011008001001001KA1120M+02501MA1999999076341MD1999999-0071MW1051REMSYN088AAXX  02181 63334 41565 10000 10165 21030 37634 40110 70500 81100 333 10250 59007 81830;EQDQ01+101103APOSLP
0226633340999992000020306004+10350+037720FM-12+2476HADM V0200801N001012200019N0150001N1+01501+00111101381ADDAA199000091AY101061GA1001+999999999GF100991001001999999001001KA1120N+00801MA1999999076381MD1999999-0021MW1051REMSYN086AAXX  03061 63334 31965 00801 10150 20011 37638 40138 7050/ 333 20080 59002 555 22105;EQDQ01  00002PRCP99
0212633340999992000020312004+10350+037720FM-12+2476HADM V0202401N004012200019N0150001N1+02441+00321100352ADDAY101061AY201061GA1021+009009019GF103991021011008001031001MA1999999076321MD1999999+0051MW1051REMSYN088AAXX  03121 63334 41565 32404 10244 20032 37632 40035 70500 82130 333 58005 82830 81360;EQDQ01+100353APOSLP
0199633340999992000020315004+10350+037720FM-12+2476HADM V0202101N004012200019N0150001N1+02281-00041100491ADDAY101031AY201031GA1031+009009089GF104991031081008001031001MA1999999076321MD1999999+0081MW1051REMSYN094AAXX  03151 63334 41565 42104 10228 21004 37632 40049 70500 83830 333 58008 8163/ 82830 81360;
0171633340999992000020403004+10350+037720FM-12+2476HADM V0200801N002012200019N0150001N1+01121+00101101771ADDGA1031+030009079GF103991031001999999031001MA1999999076401MD1999999+0051MW1051REMSYN082AAXX  04031 63334 41965 30802 10112 20010 37640 40177 705// 83030 333 58005 83360;
0249633340999992000020406004+10350+037720FM-12+2476HADM V0200901N002012200019N0150001N1+01781-00241101161ADDAA199000091AY101061GA1011+009009009GF104991011001999999031001KA1120N+00901MA1999999076441MD1999999+0061MW1051REMSYN109AAXX  04061 63334 3196540902 10178 21024 37644 40116 7050/ 81030 333 20090 58006 81360 555 22102 32/// 10252;EQDQ01  00002PRCP99
0187633340999992000020409004+10350+037720FM-12+2476HADM V0201201N004012200019N0150001N1+02441-00661100551ADDAY101031AY201031GA1011+009009029GF101991011011008001001001MA1999999076441MD1999999+0081MW1051REMSYN082AAXX  04091 63334 41565 11204 10244 21066 37644 40055 70500 81100 333 58008 81830;
0187633340999992000020412004+10350+037720FM-12+2476HADM V0200801N002012200019N0150001N1+02461-00701100421ADDAY101061AY201061GA1011+009009029GF101991011011008001001001MA1999999076331MD1999999+0011MW1051REMSYN082AAXX  04121 63334 41565 10802 10246 21070 37633 40042 70500 81100 333 58001 81830;
0187633340999992000020415004+10350+037720FM-12+2476HADM V0201701N001012200019N0150001N1+02301-00601100561ADDAY101031AY201031GA1021+009009029GF102991021011008001001001MA1999999076341MD1999999+0021MW1051REMSYN082AAXX  04151 63334 41565 21701 10230 21060 37634 40056 70500 82100 333 58002 82830;
0225633340999992000020418004+10350+037720FM-12+2476HADM V0202501N001012200019N0150001N1+01661-00181101172ADDAY101061AY201061GA1011+009009029GF101991011011008001001001KA1120M+02551MA1999999076341MD1999999-0041MW1051REMSYN088AAXX  04181 63334 41565 12501 10166 21018 37634 40117 70500 81100 333 10255 59004 81830;EQDQ01+101173APOSLP
0232633340999992000020506004+10350+037720FM-12+2476HADM V0200901N004012200019N0150001N1+01681+00001101191ADDAA199000091AY101061GA1001+999999999GF100991001001999999001001KA1120N+00861MA1999999076421MD1999999+0021MW1051REMSYN092AAXX  05061 63334 31965 00904 10168 20000 37642 40119 7050/ 333 20086 58002 555 22106 10255;EQDQ01  00002PRCP99
0187633340999992000020509004+10350+037720FM-12+2476HADM V0201501N004012200019N0150001N1+02361-00801100641ADDAY101031AY201031GA1011+009009029GF101991011011008001001001MA1999999076431MD1999999-0011MW1051REMSYN082AAXX  05091 63334 41565 11504 10236 21080 37643 40064 70500 81100 333 59001 81830;
0187633340999992000020515004+10350+037720FM-12+2476HADM V0202101N004012200019N0150001N1+02361-01301100441ADDAY101031AY201031GA1021+009009029GF102991021011008001001001MA1999999076281MD1999999-0061MW1051REMSYN082AAXX  05151 63334 41565 22104 10236 21130 37628 40044 70500 82100 333 59006 82830;
0213633340999992000020518004+10350+037720FM-12+2476HADM V0209999C000012200019N0150001N1+01641-00861101172ADDAY101061AY201061GA1001+999999999GF100991001001999999001001KA1120M+02601MA1999999076371MD1999999+0031MW1051REMSYN076AAXX  05181 63334 41965 00000 10164 21086 37637 40117 70500 333 10260 58003;EQDQ01+101173APOSLP
0232633340999992000020606004+10350+037720FM-12+2476HADM V0201001N002012200019N0300001N1+01481-00301101381ADDAA199000091AY101061GA1001+999999999GF100991001001999999001001KA1120N+00861MA1999999076401MD1999999-0051MW1051REMSYN092AAXX  06061 63334 31980 01002 10148 21030 37640 40138 7050/ 333 20086 59005 555 22107 10260;EQDQ01  00002PRCP99
0187633340999992000020609004+10350+037720FM-12+2476HADM V0201201N002012200019N0150001N1+02341-00571100511ADDAY101031AY201031GA1011+009009029GF101991011011008001001001MA1999999076341MD1999999-0091MW1051REMSYN082AAXX  06091 63334 41565 11202 10234 21057 37634 40051 70500 81100 333 59009 81830;
0187633340999992000020615004+10350+037720FM-12+2476HADM V0202201N002012200019N0150001N1+02361-00991100381ADDAY101031AY201031GA1021+009009029GF102991021011008001001001MA1999999076251MD1999999-0031MW1051REMSYN082AAXX  06151 63334 41565 22202 10236 21099 37625 40038 70500 82100 333 59003 82830;
0225633340999992000020618004+10350+037720FM-12+2476HADM V0202301N001012200019N0150001N1+01581-00491101152ADDAY101061AY201061GA1011+009009029GF101991011011008001001001KA1120M+02601MA1999999076321MD1999999-0051MW1051REMSYN088AAXX  06181 63334 41565 12301 10158 21049 37632 40115 70500 81100 333 10260 59005 81830;EQDQ01+101153APOSLP
0187633340999992000020709004+10350+037720FM-12+2476HADM V0201501N006012200019N0150001N1+02401-00611100401ADDAY101031AY201031GA1011+009009029GF101991011011008001001001MA1999999076301MD1999999-0041MW1051REMSYN082AAXX  07091 63334 41565 11506 10240 21061 37630 40040 70500 81100 333 59004 81830;
0187633340999992000020712004+10350+037720FM-12+2476HADM V0201501N004012200019N0150001N1+02481-00981100311ADDAY101061AY201061GA1011+009009029GF101991011011008001001001MA1999999076301MD1999999+0021MW1051REMSYN082AAXX  07121 63334 41565 11504 10248 21098 37630 40031 70500 81100 333 58002 81830;
0187633340999992000020715004+10350+037720FM-12+2476HADM V0202001N004012200019N0150001N1+02341-00981100441ADDAY101031AY201031GA1011+009009029GF101991011011008001001001MA1999999076281MD1999999+0031MW1051REMSYN082AAXX  07151 63334 41565 12004 10234 21098 37628 40044 70500 81100 333 58003 81830;
0213633340999992000020718004+10350+037720FM-12+2476HADM V0209999C000012200019N0300001N1+01701-00741101092ADDAY101061AY201061GA1001+999999999GF100991001001999999001001KA1120M+02581MA1999999076301MD1999999-0021MW1051REMSYN076AAXX  07181 63334 41980 00000 10170 21074 37630 40109 70500 333 10258 59002;EQDQ01+101093APOSLP
0187633340999992000020812004+10350+037720FM-12+2476HADM V0202801N002012200019N0150001N1+02501-00201100241ADDAY101061AY201061GA1021+009009029GF102991021011008001001001MA1999999076241MD1999999-0061MW1051REMSYN082AAXX  08121 63334 41565 22802 10250 21020 37624 40024 70500 82100 333 59006 82830;
0206633340999992000020818004+10350+037720FM-12+2476HADM V0209999C000012200019N0150001N1+01721+00221100991ADDAY101061AY201061GA1021+009009029GF102991021011008001001001KA1120M+02561MA1999999076231MD1999999-0071MW1051REMSYN088AAXX  08181 63334 41565 20000 10172 20022 37623 40099 70500 82100 333 10256 59007 82830;
0171633340999992000020903004+10350+037720FM-12+2476HADM V0200801N002012200019N0150001N1+01061-00011101631ADDGA1011+060009019GF101991001001999999001011MA1999999076231MD1999999-0101MW1051REMSYN082AAXX  09031 63334 41965 10802 10106 21001 37623 40163 705// 80001 333 59010 81070;
0216633340999992000020906004+10350+037720FM-12+2476HADM V0200901N002012200019N0150001N1+01641+00101101171ADDAA199000091AY101061GA1001+999999999GF100991001001999999001001KA1120N+01041MA1999999076371MD1999999-0021MW1051REMSYN076AAXX  09061 63334 31965 00902 10164 20010 37637 40117 7050/ 333 20104 59002;EQDQ01  00002PRCP99
0187633340999992000020909004+10350+037720FM-12+2476HADM V0201601N004012200019N0150001N1+02181+00041100651ADDAY101031AY201031GA1011+009009029GF101991011011008001001001MA1999999076331MD1999999-0011MW1051REMSYN082AAXX  09091 63334 41565 11604 10218 20004 37633 40065 70500 81100 333 59001 81830;
0187633340999992000020912004+10350+037720FM-12+2476HADM V0201801N004012200019N0150001N1+02441-00081100291ADDAY101061AY201061GA1021+009009029GF102991021011008001001001MA1999999076261MD1999999+0021MW1051REMSYN082AAXX  09121 63334 41565 21804 10244 21008 37626 40029 70500 82100 333 58002 82830;
0187633340999992000020915004+10350+037720FM-12+2476HADM V0201801N002012200019N0150001N1+02321-00081100421ADDAY101031AY201031GA1021+009009029GF102991021011008001001001MA1999999076271MD1999999+0061MW1051REMSYN082AAXX  09151 63334 41565 21802 10232 21008 37627 40042 70500 82100 333 58006 82830;
0241633340999992000020918004+10350+037720FM-12+2476HADM V0209999C000010240019N0150001N1+01741+00221101072ADDAY101061AY201061GA1051+024009079GF105991051999022501031001KA1120M+02521MA1999999076331MD1999999+0101MW1051REMSYN088AAXX  09181 63334 41865 50000 10174 20022 37633 40107 70500 85030 333 10252 58010 85358;EQDQ01+101073APOSLPQ02    003SCOLCG
0177633340999992000021003004+10350+037720FM-12+2476HADM V0200801N002012200019N0200001N1+01281-00121101511ADDGA1021+000309059GF103991021051008001001011MA1999999076331MD1999999+0101MW1051REMSYN088AAXX  10031 63334 41570 30802 10128 21012 37633 40151 705// 82501 333 58010 82630 81070;
0206633340999992000021006004+10350+037720FM-12+2476HADM V02099999999992200019N0150001N1+02442-00081100292ADDAY101061AY201061GA1021+009009029GF102991021011008001001001MA1999999076261MD1999999+0021MW1051REMSYN082AAXX  10061 63334 41565 2/804 10244 21008 37626 40029 70500 82100 333 58002 82830;EQDQ01+100293APOSLP
0187633340999992000021009004+10350+037720FM-12+2476HADM V0201201N004012200019N0200001N1+02281+00111100621ADDAY101031AY201031GA1011+009009029GF101991011011008001001001MA1999999076381MD1999999+0031MW1051REMSYN082AAXX  10091 63334 41570 11204 10228 20011 37638 40062 70500 81100 333 58003 81830;
0187633340999992000021012004+10350+037720FM-12+2476HADM V0201501N002012200019N0250001N1+02501-00261100311ADDAY101061AY201061GA1021+009009029GF102991021011008001001001MA1999999076301MD1999999+0021MW1051REMSYN082AAXX  10121 63334 41575 21502 10250 21026 37630 40031 70500 82100 333 58002 82830;
0187633340999992000021112004+10350+037720FM-12+2476HADM V0201601N004012200019N0200001N1+02561-01201100261ADDAY101061AY201061GA1011+009009029GF101991011011008001001001MA1999999076311MD1999999+0011MW1051REMSYN082AAXX  11121 63334 41570 11604 10256 21120 37631 40026 70500 81100 333 58001 81830;
0228633340999992000021206004+10350+037720FM-12+2476HADM V0200801N006012200019N0250001N1+01701-00211101121ADDAA199000091AY101061GF101991001001999999001011KA1120N+01141MA1999999076331MD1999999-0061MW1051REMSYN104AAXX  12061 63334 31975 10806 10170 21021 37633 40112 7050/ 80001 333 20114 59006 81070 555 22109 10266;EQDQ01  00002PRCP99
0187633340999992000021209004+10350+037720FM-12+2476HADM V0201501N002012200019N0250001N1+02221-00361100581ADDAY101031AY201031GA1011+060009019GF101991001001999999001011MA1999999076291MD1999999-0101MW1051REMSYN082AAXX  12091 63334 41975 11502 10222 21036 37629 40058 70500 80001 333 59010 81070;
0193633340999992000021212004+10350+037720FM-12+2476HADM V0200701N006012200019N0250001N1+02601-01201100091ADDAY101061AY201061GA1011+000309019GF102991011011008001001011MA1999999076191MD1999999-0121MW1051REMSYN088AAXX  12121 63334 41575 20706 10260 21120 37619 40009 70500 81101 333 59012 81830 81070;
0193633340999992000021215004+10350+037720FM-12+2476HADM V0200901N002012200019N0250001N1+02301-01601100421ADDAY101031AY201031GA1011+012009019GF102991011011008001041001MA1999999076231MD1999999-0071MW1051REMSYN088AAXX  12151 63334 41575 20902 10230 21160 37623 40042 70500 81140 333 59007 81830 81360;
0241633340999992000021218004+10350+037720FM-12+2476HADM V0209999C000012200019N0250001N1+01481-00482101182ADDAY101061AY201061GA1011+030009079GF101991011001999999031001KA1120M+02661MA1999999076231MD1999999-0121MW1051REMSYN088AAXX  12181 63334 41975 10000 10148 21048 37623 40118 70500 81030 333 10266 59012 81360;EQDQ01-000483ATOD  Q02+101183APOSLP
0159633340999992000021303004+10350+037720FM-12+2476HADM V0200601N001012200019N0150001N1+00821-00321101981ADDGA1001+999999999GF100991001001999999001001MA1999999076281MD1999999-0021MW1051REMSYN070AAXX  13031 63334 41965 00601 10082 21032 37628 40198 705// 333 59002;
0238633340999992000021306004+10350+037720FM-12+2476HADM V0200901N001012200019N0200001N1+01581-00261101221ADDAA199000091AY101061GA1001+999999999GF100991001001999999001001KA1120N+00761MA1999999076331MD1999999+0001MW1051REMSYN098AAXX  13061 63334 31970 00901 10158 21026 37633 40122 7050/ 333 20076 58000 555 22110 32/// 10266;EQDQ01  00002PRCP99
0187633340999992000021309004+10350+037720FM-12+2476HADM V0200601N002012200019N0200001N1+02261-00521100541ADDAY101031AY201031GA1021+009009029GF102991021011008001001001MA1999999076291MD1999999+0001MW1051REMSYN082AAXX  13091 63334 41570 20602 10226 21052 37629 40054 70500 82100 333 58000 82830;
0187633340999992000021312004+10350+037720FM-12+2476HADM V0202001N004012200019N0200001N1+02541-00381100131ADDAY101061AY201061GA1021+009009029GF102991021011008001001001MA1999999076211MD1999999+0021MW1051REMSYN082AAXX  13121 63334 41570 22004 10254 21038 37621 40013 70500 82100 333 58002 82830;
0187633340999992000021315004+10350+037720FM-12+2476HADM V0201801N002012200019N0200001N1+02301-00561100421ADDAY101031AY201031GA1021+009009029GF102991021011008001001001MA1999999076241MD1999999+0011MW1051REMSYN082AAXX  13151 63334 41570 21802 10230 21056 37624 40042 70500 82100 333 58001 82830;
0225633340999992000021318004+10350+037720FM-12+2476HADM V0201801N002012200019N0200001N1+01581-00381101152ADDAY101061AY201061GA1021+030009079GF102991021001999999031001KA1120M+02561MA1999999076281MD1999999+0051MW1051REMSYN088AAXX  13181 63334 41970 21802 10158 21038 37628 40115 70500 82030 333 10256 58005 82360;EQDQ01+101153APOSLP
0171633340999992000021403004+10350+037720FM-12+2476HADM V0209999C000012200019N0150001N1+01101-00181101641ADDGA1011+060009019GF101991001001999999001011MA1999999076291MD1999999-0011MW1051REMSYN082AAXX  14031 63334 41965 10000 10110 21018 37629 40164 705// 80001 333 59001 81070;
0187633340999992000021406004+10350+037720FM-12+2476HADM V0201801N004012200019N0250001N1+02301-00541100491ADDAY101061AY201061GA1011+009009029GF101991011011008001001001MA1999999076311MD1999999+0021MW1051REMSYN082AAXX  14061 63334 41575 11804 10230 21054 37631 40049 70500 81100 333 58002 81830;
0187633340999992000021412004+10350+037720FM-12+2476HADM V0200901N002012200019N0250001N1+02501-01001100181ADDAY101061AY201061GA1021+009009029GF102991021021008001001001MA1999999076201MD1999999-0011MW1051REMSYN082AAXX  14121 63334 41575 20902 10250 21100 37620 40018 70500 82200 333 59001 82830;
0187633340999992000021415004+10350+037720FM-12+2476HADM V0201701N001012200019N0200001N1+02381-00901100271ADDAY101031AY201031GA1021+009009029GF102991021021008001001001MA1999999076201MD1999999-0041MW1051REMSYN082AAXX  14151 63334 41570 21701 10238 21090 37620 40027 70500 82200 333 59004 82830;
0213633340999992000021418004+10350+037720FM-12+2476HADM V0209999C000012200019N0250001N1+01581-00501101082ADDAY101061AY201061GA1001+999999999GF100991001001999999001001KA1120M+02601MA1999999076251MD1999999-0031MW1051REMSYN076AAXX  14181 63334 41975 00000 10158 21050 37625 40108 70500 333 10260 59003;EQDQ01+101083APOSLP
0232633340999992000021506004+10350+037720FM-12+2476HADM V0201001N004012200019N0250001N1+01881-00801100861ADDAA199000091AY101061GA1001+999999999GF100991001001999999001001KA1120N+01191MA1999999076311MD1999999-0021MW1051REMSYN092AAXX  15061 63334 31975 01004 10188 21080 37631 40086 7050/ 333 20119 59002 555 22109 10260;EQDQ01  00002PRCP99
0187633340999992000021509004+10350+037720FM-12+2476HADM V0201201N004012200019N0250001N1+02421-01001100331ADDAY101031AY201031GA1021+008409029GF102991021021008001001001MA1999999076271MD1999999-0041MW1051REMSYN082AAXX  15091 63334 41575 21204 10242 21100 37627 40033 70500 82200 333 59004 82828;
0187633340999992000021512004+10350+037720FM-12+2476HADM V0201201N004012200019N0250001N1+02481-01401100241ADDAY101061AY201061GA1021+008409029GF102991021011008001001001MA1999999076271MD1999999+0071MW1051REMSYN082AAXX  15121 63334 41575 21204 10248 21140 37627 40024 70500 82100 333 58007 82828;
0187633340999992000021515004+10350+037720FM-12+2476HADM V0201501N004012200019N0200001N1+02321-01301100421ADDAY101031AY201031GA1011+009009029GF101991011011999999001001MA1999999076251MD1999999+0051MW1051REMSYN082AAXX  15151 63334 41970 11504 10232 21130 37625 40042 70500 81100 333 58005 81830;
0170633340999992000021518004+10350+037720FM-12+2476HADM V0201501N002012200019N0250001N1+01501-01401101252ADDAY101061AY201061GA1001+999999999GF100991001001999999001001MA1999999076291MW1051REMSYN060AAXX  15181 63334 41975 01502 10150 21140 37629 40125 70500;EQDQ01+101253APOSLP
0228633340999992000021606004+10350+037720FM-12+2476HADM V0200901N004012200019N0200001N1+01581-00901101221ADDAA199000091AY101061GF101991001001999999001011KA1120N+01101MA1999999076371MD1999999+0061MW1051REMSYN104AAXX  16061 63334 31970 10904 10158 21090 37637 40122 7050/ 80001 333 20110 58006 81070 555 22109 10264;EQDQ01  00002PRCP99
0187633340999992000021609004+10350+037720FM-12+2476HADM V0200901N004012200019N0250001N1+02141-01001100761ADDAY101031AY201031GA1011+009009029GF101991011011008001001001MA1999999076421MD1999999+0151MW1051REMSYN082AAXX  16091 63334 41575 10904 10214 21100 37642 40076 70500 81100 333 58015 81830;
0159633340999992000021612004+10350+037720FM-12+2476HADM V0200901N006012200019N0300001N1+02441-01021100351ADDGA1011+009009029GF101991011011008001001001MA1999999076291MD1999999+0021REMSYN076AAXX  16121 63334 42580 10906 10244 21102 37629 40035 81100 333 58002 81830;
0159633340999992000021615004+10350+037720FM-12+2476HADM V0201201N006012200019N0300001N1+02261-01701100471ADDGA1011+009009029GF101991011011008001001001MA1999999076271MD1999999+0021REMSYN076AAXX  16151 63334 42580 11206 10226 21170 37627 40047 81100 333 58002 81830;
0185633340999992000021618004+10350+037720FM-12+2476HADM V0201201N002012200019N0300001N1+01621-01061101152ADDGA1001+999999999GF100991001001999999001001KA1120M+02501MA1999999076301MD1999999+0011REMSYN070AAXX  16181 63334 42980 01202 10162 21106 37630 40115 333 10250 58001;EQDQ01+101153APOSLP
0228633340999992000021706004+10350+037720FM-12+2476HADM V0200801N006012200019N0250001N1+01541-01081101261ADDAA199000091AY101061GF101991001001999999001011KA1120N+00721MA1999999076351MD1999999-0021MW1051REMSYN104AAXX  17061 63334 31975 10806 10154 21108 37635 40126 7050/ 80001 333 20072 59002 81070 555 22112 10250;EQDQ01  00002PRCP99
0166633340999992000021709004+10350+037720FM-12+2476HADM V0201501N006012200019N0300001N1+02141+99999100761ADDGA1001+999999999GF100991001001999999001001MA1999999076401MD1999999-0021REMSYN064AAXX  17091 63334 42980 01506 10214 20120 37640 40076 333 59002;EQDQ01+001203ATOD  
0147633340999992000021712004+10350+037720FM-12+2476HADM V0201501N006012200019N0300001N1+02361-01801100511ADDGA1001+999999999GF100991001001999999001001MA1999999076331MD1999999+0041REMSYN064AAXX  17121 63334 42980 01506 10236 21180 37633 40051 333 58004;
0147633340999992000021715004+10350+037720FM-12+2476HADM V0201201N004012200019N0300001N1+02221-01001100651ADDGA1001+999999999GF100991001001999999001001MA1999999076351MD1999999+0081REMSYN064AAXX  17151 63334 42980 01204 10222 21100 37635 40065 333 58008;
0185633340999992000021718004+10350+037720FM-12+2476HADM V0200901N002012200019N0300001N1+01541-00801101332ADDGA1001+999999999GF100991001001999999001001KA1120M+02421MA1999999076381MD1999999+0081REMSYN070AAXX  17181 63334 42980 00902 10154 21080 37638 40133 333 10242 58008;EQDQ01+101333APOSLP
0214633340999992000021806004+10350+037720FM-12+2476HADM V0200901N004012200019N0300001N1+01681-01701101251ADDAA199000091GF101991001001999999001011KA1120N+01001MA1999999076461MD1999999+0111REMSYN104AAXX  18061 63334 32980 10904 10168 21170 37646 40125 80001 333 20100 58011 81070 555 22112 32/// 10242;EQDQ01  00002PRCP99
0159633340999992000021809004+10350+037720FM-12+2476HADM V0201201N006012200019N0300001N1+02141-01301100831ADDGA1011+060009019GF101991001001999999001011MA1999999076441MD1999999+0041REMSYN076AAXX  18091 63334 42980 11206 10214 21130 37644 40083 80001 333 58004 81070;
0147633340999992000021812004+10350+037720FM-12+2476HADM V0201201N002012200019N0300001N1+02361-01461100441ADDGA1001+999999999GF100991001001999999001001MA1999999076321MD1999999-0011REMSYN064AAXX  18121 63334 42980 01202 10236 21146 37632 40044 333 59001;
0147633340999992000021815004+10350+037720FM-12+2476HADM V0201201N004012200019N0300001N1+02201-01901100581ADDGA1001+999999999GF100991001001999999001001MA1999999076321MD1999999-0031REMSYN064AAXX  18151 63334 42980 01204 10220 21190 37632 40058 333 59003;
0214633340999992000021906004+10350+037720FM-12+2476HADM V0200901N006012200019N0300001N1+01601-01601101411ADDAA199000091GF101991001001999999001011KA1120N+00981MA1999999076511MD1999999-0051REMSYN104AAXX  19061 63334 32980 10906 10160 21160 37651 40141 80001 333 20098 59005 81070 555 22112 32/// 10240;EQDQ01  00002PRCP99
0159633340999992000021912004+10350+037720FM-12+2476HADM V0200901N006012200019N0300001N1+02361-01801100641ADDGA1021+060009019GF102991001001999999001011MA1999999076431MD1999999+0111REMSYN076AAXX  19121 63334 42980 20906 10236 21180 37643 40064 80001 333 58011 82070;
0159633340999992000021915004+10350+037720FM-12+2476HADM V0201001N002012200019N0300001N1+02181-00801100711ADDGA1021+060009019GF102991001001999999001011MA1999999076411MD1999999+0091REMSYN076AAXX  19151 63334 42980 21002 10218 21080 37641 40071 80001 333 58009 82070;
0185633340999992000021918004+10350+037720FM-12+2476HADM V0209999C000012200019N0300001N1+01481-01201101512ADDGA1001+999999999GF100991001001999999001001KA1120M+02441MA1999999076481MD1999999+0071REMSYN070AAXX  19181 63334 42980 00000 10148 21120 37648 40151 333 10244 58007;EQDQ01+101513APOSLP
0159633340999992000022009004+10350+037720FM-12+2476HADM V0200901N006012200019N0300001N1+02201-00791100781ADDGA1011+060009019GF101991001001999999001011MA1999999076461MD1999999-0071REMSYN076AAXX  20091 63334 42980 10906 10220 21079 37646 40078 80001 333 59007 81070;
0159633340999992000022015004+10350+037720FM-12+2476HADM V0200901N004012200019N0300001N1+02241-00201100541ADDGA1011+009009029GF101991011011008001001001MA1999999076321MD1999999-0091REMSYN076AAXX  20151 63334 41580 10904 10224 21020 37632 40054 81100 333 59009 81830;
0212633340999992000022106004+10350+037720FM-12+2476HADM V0200701N002012200019N0300001N1+01641-00821101231ADDAA199000091GA1001+999999999GF100991001001999999001001KA1120N+01041MA1999999076411MD1999999-0091REMSYN086AAXX  21061 63334 32980 00702 10164 21082 37641 40123 333 20104 59009 555 22110 10246;EQDQ01  00002PRCP99
0147633340999992000022109004+10350+037720FM-12+2476HADM V0201901N004012200019N0300001N1+02301-00801100561ADDGA1001+999999999GF100991001001999999001001MA1999999076351MD1999999-0111REMSYN064AAXX  21091 63334 42980 01904 10230 21080 37635 40056 333 59011;
0117633340999992000022112004+10350+037720FM-12+2476HADM V0200701N004012200019N0300001N1+02481-00801999999ADDGA1001+999999999GF100991001001999999001001REMSYN063AAXX  21121 63334 42980 00704 10248 21080 3763 40031 333 59003;
0159633340999992000022115004+10350+037720FM-12+2476HADM V0201001N002012200019N0300001N1+02421-00901100331ADDGA1011+009009029GF101991011011008001001001MA1999999076261MD1999999-0061REMSYN076AAXX  21151 63334 42580 11002 10242 21090 37626 40033 81100 333 59006 81830;
0185633340999992000022118004+10350+037720FM-12+2476HADM V0209999C000012200019N0300001N1+01641-00661101102ADDGA1001+999999999GF100991001001999999001001KA1120M+02581MA1999999076321MD1999999-0021REMSYN070AAXX  21181 63334 42980 00000 10164 21066 37632 40110 333 10258 59002;EQDQ01+101103APOSLP
0238633340999992000022206004+10350+037720FM-12+2476HADM V0200701N002012200019N0200001N1+01681-00681101121ADDAA199000091AY101061GA1001+999999999GF100991001001999999001001KA1120N+00901MA1999999076361MD1999999-0051MW1051REMSYN098AAXX  22061 63334 31970 00702 10168 21068 37636 40112 7050/ 333 20090 59005 555 22109 32/// 10258;EQDQ01  00002PRCP99
0187633340999992000022209004+10350+037720FM-12+2476HADM V0201501N002012200019N0200001N1+02341-00981100631ADDAY101031AY201031GA1011+009009029GF101991011011008001001001MA1999999076311MD1999999-0041MW1051REMSYN082AAXX  22091 63334 41570 11502 10234 21098 37631 40063 70500 81100 333 59004 81830;
0187633340999992000022212004+10350+037720FM-12+2476HADM V0201801N004012200019N0150001N1+02521-01001100181ADDAY101061AY201061GA1021+030009079GF102991021001999999031001MA1999999076211MD1999999-0111MW1051REMSYN082AAXX  22121 63334 41965 21804 10252 21100 37621 40018 70500 82030 333 59011 82360;
0165633340999992000022215004+10350+037720FM-12+2476HADM V0202601N002012200019N0150001N1+02321-00961100361ADDAY101031AY201031GF103991031001999999031001MA1999999076201MD1999999-0061MW1051REMSYN076AAXX  22151 63334 41965 32602 10232 21096 37620 40036 70500 83030 333 59006;
0225633340999992000022218004+10350+037720FM-12+2476HADM V0209999C000012200019N0150001N1+01661-00501100972ADDAY101061AY201061GA1021+030009079GF102991021001999999031001KA1120M+02551MA1999999076221MD1999999-0101MW1051REMSYN088AAXX  22181 63334 41965 20000 10166 21050 37622 40097 70500 82030 333 10255 59010 82360;EQDQ01+100973APOSLP
0256633340999992000022306004+10350+037720FM-12+2476HADM V0201001N002012200019N0150001N1+01501-00381101181ADDAA199000091AY101061GA1011+000309019GF103991011011008001001011KA1120N+01121MA1999999076261MD1999999-0101MW1051REMSYN116AAXX  23061 63334 31565 31002 10150 21038 37626 40118 7050/ 81101 333 20112 59010 81830 82070 555 22106 32/// 10255;EQDQ01  00002PRCP99
0193633340999992000022309004+10350+037720FM-12+2476HADM V0201901N004012200019N0100001N1+02321-00691100361ADDAY101031AY201031GA1011+009309009GF103991011001999999031011MA1999999076221MD1999999-0091MW1061REMSYN088AAXX  23091 63334 41960 31904 10232 21069 37622 40036 70600 81031 333 59009 81360 82070;
0187633340999992000022312004+10350+037720FM-12+2476HADM V0201801N004012200019N0100001N1+02561-00401100201ADDAY131061AY201061GA1021+030009079GF102991021001999999031001MA1999999076231MD1999999+0021MW1061REMSYN082AAXX  23121 63334 41960 21804 10256 21040 37623 40020 70630 82030 333 58002 82360;
0165633340999992000022315004+10350+037720FM-12+2476HADM V0202501N002012200019N0100001N1+02281-00401100361ADDAY131031AY231031GF104991021011008001031001MA1999999076211MD1999999+0011MW1061REMSYN076AAXX  23151 63334 41560 42502 10228 21040 37621 40036 70633 82130 333 58001;
0206633340999992000022318004+10350+037720FM-12+2476HADM V0209999C000012200019N0100001N1+01921-00341100801ADDAY131061AY231061GA1021+030009079GF102991021001999999031001KA1120M+02601MA1999999076261MD1999999+0041MW1061REMSYN088AAXX  23181 63334 41960 20000 10192 21034 37626 40080 70633 82030 333 10260 58004 82360;
0171633340999992000022403004+10350+037720FM-12+2476HADM V0209999C000012200019N0150001N1+01041-00121101631ADDGA1031+060009019GF103991001001999999001011MA1999999076271MD1999999+0021MW1051REMSYN082AAXX  24031 63334 41965 30000 10104 21012 37627 40163 705// 80001 333 58002 83070;
0234633340999992000022406004+10350+037720FM-12+2476HADM V0200901N002012200019N0150001N1+01641-00381101101ADDAA199000091AY101061GF101991001001999999001011KA1120N+01021MA1999999076301MD1999999+0041MW1051REMSYN110AAXX  24061 63334 31965 10902 10164 21038 37630 40110 7050/ 80001 333 20102 58004 81070 555 22084 32/// 10260;EQDQ01  00002PRCP99
0206633340999992000022412004+10350+037720FM-12+2476HADM V0200901N004012200019N0150001N1+02581-00411999999ADDAY101061AY201061GA1021+009009029GF102991021011008001001001MA1999999076201MD1999999-0031MW1051REMSYN082AAXX  24121 63334 41565 20904 10258 21041 37620 40009 70500 82100 333 59003 82830;EQDQ01+100093APOSLP
0212633340999992000022418004+10350+037720FM-12+2476HADM V0201801N001012200019N0100001N1+01821-00121100891ADDAY131061AY201061GA1011+009009019GF103991011011008001031001KA1120M+02661MA1999999076251MD1999999-0011MW1061REMSYN094AAXX  24181 63334 41560 31801 10182 21012 37625 40089 70630 81130 333 10266 59001 81830 82360;
0244633340999992000022506004+10350+037720FM-12+2476HADM V0200701N006012200019N0150001N1+01781+00001101031ADDAA199000091AY101061GA1011+000159019GF101991011011008001001001KA1120N+01251MA1999999076331MD1999999+0031MW1051REMSYN104AAXX  25061 63334 31565 10706 10178 20000 37633 40103 7050/ 81100 333 20125 58003 81830 555 22100 10266;EQDQ01  00002PRCP99
0187633340999992000022509004+10350+037720FM-12+2476HADM V0201601N004012200019N0150001N1+02281-00041100491ADDAY101031AY201031GA1011+009009029GF101991011011008001001001MA1999999076311MD1999999+0061MW1051REMSYN082AAXX  25091 63334 41565 11604 10228 21004 37631 40049 70500 81100 333 58006 81830;
0187633340999992000022512004+10350+037720FM-12+2476HADM V0201501N004012200019N0150001N1+02541-00061100201ADDAY101061AY201061GA1021+009009029GF102991021011008001001001MA1999999076231MD1999999+0031MW1051REMSYN082AAXX  25121 63334 41565 21504 10254 21006 37623 40020 70500 82100 333 58003 82830;
0218633340999992000022515004+10350+037720FM-12+2476HADM V0202101N00201009001CN0150001N1+02281-00041101422ADDAY101031AY201031GA1051+009009089GF105991051081008001031001MA1999999076261MD1999999+0121MW1051REMSYN094AAXX  25151 63334 41565 52102 10228 21004 37626 40142 70500 85830 333 58012 82830 83630 81360;EQDQ01+101423APOSLP
0206633340999992000022518004+10350+037720FM-12+2476HADM V0202101N002012200019N0150001N1+01901+00181100861ADDAY101061AY201061GA1011+009009029GF101991011011008001001001KA1120M+02641MA1999999076311MD1999999+0061MW1051REMSYN088AAXX  25181 63334 41565 12102 10190 20018 37631 40086 70500 81100 333 10264 58006 81830;
0244633340999992000022606004+10350+037720FM-12+2476HADM V0209999C000012200019N0150001N1+01541+00291101261ADDAA199000091AY101061GA1021+000159019GF102991021011008001001001KA1120N+01141MA1999999076351MD1999999+0021MW1051REMSYN104AAXX  26061 63334 31565 20000 10154 20029 37635 40126 7050/ 82100 333 20114 58002 82828 555 22088 10264;EQDQ01  00002PRCP99
0187633340999992000022609004+10350+037720FM-12+2476HADM V0201801N002012200019N0150001N1+02261+00001100541ADDAY101031AY201031GA1031+008409029GF103991031011008001001001MA1999999076291MD1999999-0021MW1051REMSYN082AAXX  26091 63334 41565 31802 10226 20000 37629 40054 70500 83100 333 59002 83828;
0193633340999992000022612004+10350+037720FM-12+2476HADM V0202501N00201000151CN0150001N1+02481+00311100181ADDAY101061AY201061GA1061+000159089GF106991061081008001001001MA1999999076201MD1999999-0031MW1051REMSYN088AAXX  26121 63334 41565 62502 10248 20031 37620 40018 70500 86800 333 59003 84827 82628;
0225633340999992000022618004+10350+037720FM-12+2476HADM V0203601N002012200019N0150001N1+01701+00481101052ADDAY121061AY221061GA1021+008409029GF102991021011008001001001KA1120M+02601MA1999999076291MD1999999-0021MW1051REMSYN088AAXX  26181 63334 41565 23602 10170 20048 37629 40105 70522 82100 333 10260 59002 82828;EQDQ01+101053APOSLP
0177633340999992000022703004+10350+037720FM-12+2476HADM V0201201N002012200019N0200001N1+01181+00301101511ADDGA1011+009009059GF102991011051008001031001MA1999999076281MD1999999-0031MW1051REMSYN088AAXX  27031 63334 41570 21202 10118 20030 37628 40151 705// 81530 333 59003 81630 81360;
0250633340999992000022706004+10350+037720FM-12+2476HADM V0201801N002012200019N0200001N1+01861+00531100911ADDAA199000091AY101061GA1011+000159019GF101991011011008001001001KA1120N+01141MA1999999076311MD1999999-0041MW1051REMSYN110AAXX  27061 63334 31570 11802 10186 20053 37631 40091 7050/ 81100 333 20114 59004 81830 555 22109 32/// 10260;EQDQ01  00002PRCP99
0187633340999992000022709004+10350+037720FM-12+2476HADM V0201201N002012200019N0200001N1+02341+00341100381ADDAY101031AY201031GA1021+009009029GF102991021011008001001001MA1999999076241MD1999999-0041MW1051REMSYN082AAXX  27091 63334 41570 21202 10234 20034 37624 40038 70500 82100 333 59004 82830;
0193633340999992000022712004+10350+037720FM-12+2476HADM V0202101N004012200019N0200001N1+02421+00421100271ADDAY101061AY201061GA1041+000159089GF104991041081008001001001MA1999999076191MD1999999-0011MW1051REMSYN088AAXX  27121 63334 41570 42104 10242 20042 37619 40027 70500 84800 333 59001 82629 82830;
0199633340999992000022715004+10350+037720FM-12+2476HADM V0201801N00101220001CN0150001N1+02421+00121100271ADDAY111031AY201031GA1041+001209089GF105991041081008001001041MA1999999076101MD1999999-0051MW1051REMSYN094AAXX  27151 63334 41565 51801 10242 20012 37610 40027 70510 84804 333 59005 82629 82830 82070;
0194633340999992000022718004+10350+037720FM-12+2476HADM V0209999C000012200019N0200001N1+01901+00351100081ADDAY101061AY201061GA1001+999999999GF100991001001999999001001KA1120M+02661MA1999999076251MD1999999-0041MW1051REMSYN076AAXX  27181 63334 41970 00000 10190 20035 37625 40008 70500 333 10266 59004;
0234633340999992000022806004+10350+037720FM-12+2476HADM V0200901N004012200019N0200001N1+01721+00041101051ADDAA199000091AY101061GF104991001001999999001011KA1120N+01161MA1999999076291MD1999999-0021MW1051REMSYN110AAXX  28061 63334 31970 40904 10172 20004 37629 40105 7050/ 80001 333 20116 59002 84070 555 22080 32/// 10266;EQDQ01  00002PRCP99
0212633340999992000022809004+10350+037720FM-12+2476HADM V0201501N004012200019N0200001N1+02361-00321100381ADDAY101031AY201031GA1011+000159019GF103991999011008001001001MA1999999076461MD1999999+0021MW1051REMSYN088AAXX  28091 63334 41570 31504 10236 21032 37646 40038 70500 81100 333 58002 81830 82030;EQDQ01+000012SCOTLC
0193633340999992000022812004+10350+037720FM-12+2476HADM V0202601N006012200019N0200001N1+02541-00301100071ADDAY101061AY201061GA1021+000609029GF104991021021008001001021MA1999999076171MD1999999-0021MW1051REMSYN088AAXX  28121 63334 41570 42606 10254 21030 37617 40007 70500 82202 333 59002 82828 82070;
0193633340999992000022815004+10350+037720FM-12+2476HADM V0202301N002012200019N0150001N1+02361-00301100311ADDAY101031AY201031GA1021+000609029GF104991021021008001001021MA1999999076201MD1999999+0011MW1051REMSYN088AAXX  28151 63334 41565 42302 10236 21030 37620 40031 70500 82202 333 58001 82828 82070;
0231633340999992000022818004+10350+037720FM-12+2476HADM V0209999C000012200019N0150001N1+01701-00321100992ADDAY101061AY201061GA1021+000609029GF104991021021008001001021KA1120M+02661MA1999999076251MD1999999+0001MW1051REMSYN094AAXX  28181 63334 41565 40000 10170 21032 37625 40099 70500 82202 333 10266 58000 82828 82070;EQDQ01+100993APOSLP
0212633340999992000022906004+10350+037720FM-12+2476HADM V0200801N002012200019N0200001N1+01821-00201101031ADDAA199000091AY101061GA1001+999999999GF100991001001999999001001KA1120N+01121MA1999999076351MW1051REMSYN086AAXX  29061 63334 31970 00802 10182 21020 37635 40103 7050/ 333 20112 555 22097 10266;EQDQ01  00002PRCP99
0206633340999992000022912004+10350+037720FM-12+2476HADM V0202401N005012200019N0200001N1+02601+00021100152ADDAY101061AY201061GA1031+008109029GF103991031021008001001001MA1999999076261MD1999999+0091MW1051REMSYN082AAXX  29121 63334 41570 32405 10260 20002 37626 40015 70500 83200 333 58009 83827;EQDQ01+100153APOSLP
0193633340999992000022915004+10350+037720FM-12+2476HADM V0202401N002012200019N0200001N1+02481+00041100241ADDAY101031AY201031GA1021+009009019GF103991021011008001031001MA1999999076261MD1999999+0061MW1051REMSYN088AAXX  29151 63334 41570 32402 10248 20004 37626 40024 70500 82130 333 58006 82827 81360;
0225633340999992000022918004+10350+037720FM-12+2476HADM V0209999C000012200019N0200001N1+01841+00131100982ADDAY101061AY201061GA1021+008109029GF102991021011008001001001KA1120M+02641MA1999999076341MD1999999+0091MW1051REMSYN088AAXX  29181 63334 41570 20000 10184 20013 37634 40098 70500 82100 333 10264 58009 82827;EQDQ01+100983APOSLP
0171633340999992000030103004+10350+037720FM-12+2476HADM V0200901N002012200019N0200001N1+01061+00181101761ADDGA1011+060009019GF101991001001999999001011MA1999999076371MD1999999+0061MW1051REMSYN082AAXX  01031 63334 41970 10902 10106 20018 37637 40176 705// 80001 333 58006 81070;
0206633340999992000030112004+10350+037720FM-12+2476HADM V0202801N999990081019N0200001N1+02401+00081100401ADDAY101061AY201061GA1051+008109029GF105991051021008001001001MA1999999076301MD1999999+0041MW1051REMSYN082AAXX  01121 63334 41570 57802 10240 20008 37630 40040 70500 85200 333 58004 85827;EQDQ01+010201WOSPD 
0193633340999992000030212004+10350+037720FM-12+2476HADM V0202401N004012200019N0200001N1+02501+00201100241ADDAY101061AY201061GA1021+000309019GF103991021011008001001011MA1999999076261MD1999999-0041MW1051REMSYN088AAXX  02121 63334 41570 32404 10250 20020 37626 40024 70500 82101 333 59004 82828 82070;
0199633340999992000030215004+10350+037720FM-12+2476HADM V0201701N00201105001CN0200001N1+02341+00121100381ADDAY101031AY201031GA1011+999999019GF105991011011008001051011MA1999999076261MD1999999+0001MW1051REMSYN094AAXX  02151 63334 41570 51702 10234 20012 37626 40038 70500 81151 333 58000 81827 82360 82070;
0194633340999992000030218004+10350+037720FM-12+2476HADM V0209999C000012200019N0200001N1+01781-00141100961ADDAY101061AY201061GA1001+999999999GF100991001001999999001001KA1120M+02621MA1999999076301MD1999999+0011MW1051REMSYN076AAXX  02181 63334 41970 00000 10178 21014 37630 40096 70500 333 10262 58001;
0171633340999992000030303004+10350+037720FM-12+2476HADM V0200801N001012200019N0200001N1+01001+00121101741ADDGA1021+060009019GF102991001001999999001011MA1999999076301MD1999999-0011MW1051REMSYN082AAXX  03031 63334 41970 20801 10100 20012 37630 40174 705// 80001 333 59001 82070;
0206633340999992000030418004+10350+037720FM-12+2476HADM V0201701N002012200019N0200001N1+01821-00321101021ADDAY101061AY201061GA1021+009009029GF102991021011008001001001KA1120M+02721MA1999999076341MD1999999+0051MW1051REMSYN088AAXX  04181 63334 41570 21702 10182 21032 37634 40102 70500 82100 333 10272 58005 82830;
0232633340999992000030506004+10350+037720FM-12+2476HADM V0201401N002012200019N0250001N1+01961-00391100951ADDAA199000091AY101061GA1001+999999999GF100991001001999999001001KA1120N+01121MA1999999076421MD1999999+0031MW1051REMSYN092AAXX  05061 63334 31975 01402 10196 21039 37642 40095 7050/ 333 20112 58003 555 22097 10272;EQDQ01  00002PRCP99
0187633340999992000030509004+10350+037720FM-12+2476HADM V0201001N004012200019N0250001N1+02381-00201100601ADDAY101031AY201031GA1011+008409029GF101991011011008001001001MA1999999076441MD1999999+0061MW1051REMSYN082AAXX  05091 63334 41575 11004 10238 21020 37644 40060 70500 81100 333 58006 81828;
0193633340999992000030515004+10350+037720FM-12+2476HADM V0201701N002012200019N0250001N1+02461-00201100421ADDAY101031AY201031GA1021+009009019GF103991021011008001031001MA1999999076331MD1999999+0051MW1051REMSYN088AAXX  05151 63334 41575 31702 10246 21020 37633 40042 70500 82130 333 58005 82828 81360;
0206633340999992000030518004+10350+037720FM-12+2476HADM V0209999C000012200019N0250001N1+01861+00021100981ADDAY101061AY201061GA1021+008409029GF102991021011008001001001KA1120M+02731MA1999999076331MD1999999-0011MW1051REMSYN088AAXX  05181 63334 41575 20000 10186 20002 37633 40098 70500 82100 333 10273 59001 82828;
0232633340999992000030606004+10350+037720FM-12+2476HADM V0200501N001012200019N0250001N1+01841+00191100981ADDAA199000091AY101061GA1001+999999999GF100991001001999999001001KA1120N+01051MA1999999076331MD1999999-0091MW1051REMSYN092AAXX  06061 63334 31975 00501 10184 20019 37633 40098 7050/ 333 20105 59009 555 22108 10278;EQDQ01  00002PRCP99
0187633340999992000030612004+10350+037720FM-12+2476HADM V0203601N002012200019N0250001N1+02561-00201100201ADDAY101061AY201061GA1021+009009029GF102991021021008001001001MA1999999076271MD1999999-0141MW1051REMSYN082AAXX  06121 63334 41575 23602 10256 21020 37627 40020 70500 82200 333 59014 82830;
0187633340999992000030615004+10350+037720FM-12+2476HADM V0201701N002012200019N0250001N1+02421-00201100461ADDAY101031AY201031GA1021+008409029GF102991021011008001001001MA1999999076361MD1999999-0071MW1051REMSYN082AAXX  06151 63334 41575 21702 10242 21020 37636 40046 70500 82100 333 59007 82828;
0171633340999992000030703004+10350+037720FM-12+2476HADM V0201201N001012200019N0200001N1+01041-00031101691ADDGA1011+009009029GF101991011011008001001001MA1999999076301MD1999999-0011MW1051REMSYN082AAXX  07031 63334 41570 11201 10104 21003 37630 40169 705// 81100 333 59001 81830;
0244633340999992000030706004+10350+037720FM-12+2476HADM V0200901N001012200019N0300001N1+01841+00181100911ADDAA199000091AY101061GA1011+000159019GF101991011011008001001001KA1120N+01001MA1999999076311MD1999999-0021MW1051REMSYN104AAXX  07061 63334 31580 10901 10184 20018 37631 40091 7050/ 81100 333 20100 59002 81830 555 22108 10276;EQDQ01  00002PRCP99
0187633340999992000030709004+10350+037720FM-12+2476HADM V0201201N002012200019N0200001N1+02341+00041100241ADDAY101031AY201031GA1011+009009029GF101991011011008001001001MA1999999076281MD1999999+0091MW1051REMSYN082AAXX  07091 63334 41570 11202 10234 20004 37628 40024 70500 81100 333 58009 81830;
0187633340999992000030712004+10350+037720FM-12+2476HADM V0201701N004012200019N0250001N1+02301+01162100151ADDAY101061AY201061GA1041+009009029GF104991041011008001001001MA1999999076231MD1999999-0041MW1051REMSYN082AAXX  07121 63334 41575 41704 10230 20116 37623 40015 70500 84100 333 59004 84830;
0206633340999992000030718004+10350+037720FM-12+2476HADM V0209999C000012200019N0200001N1+01881+00101100731ADDAY121061AY211061GA1041+008109029GF104991041011008001001001KA1120M+02721MA1999999076211MD1999999-0071MW1051REMSYN088AAXX  07181 63334 41570 40000 10188 20010 37621 40073 70521 84100 333 10272 59007 84827;
0250633340999992000030806004+10350+037720FM-12+2476HADM V0202301N001012200019N0250001N1+99999+99999100911ADDAA199000091AY101061GA1011+015009019GF103991011011008001051001KA1120N+01251MA1999999076301MD1999999-0011MW1051REMSYN110AAXX  08061 63334 31575 32301 1084/ 20030 37630 40091 7050/ 81150 333 20125 59001 81828 82360 555 22098 10272;EQDQ01  00002PRCP99
0166633340999992000030809004+10350+037720FM-12+2476HADM V0201801N004012200019N0250001N1+02481+00001100241ADDAY101031AY201031GA1031+008409029GF103991031021008001001001MD1999999-0011MW1051REMSYN076AAXX  08091 63334 41575 31804 10248 20000 40024 70500 83200 333 59001 83828;
0193633340999992000030812004+10350+037720FM-12+2476HADM V0201201N002012200019N0200001N1+02441-00121100221ADDAY101061AY201061GA1041+000159089GF104991041081008001001001MA1999999076211MD1999999-0021MW1051REMSYN088AAXX  08121 63334 41570 41202 10244 21012 37621 40022 70500 84800 333 59002 82627 82828;
0199633340999992000030815004+10350+037720FM-12+2476HADM V0202701N00201045001CN0100001N1+02501+00021100181ADDAY111031AY201031GA1041+009009089GF105991041081008001031001MA1999999076211MD1999999+0011MW1051REMSYN094AAXX  08151 63334 41560 52702 10250 20002 37621 40018 70510 84830 333 58001 82627 83828 81360;
0212633340999992000030818004+10350+037720FM-12+2476HADM V0202701N00201045001CN0100001N1+01961+00321100751ADDAY121061AY211061GA1041+009009059GF107991041051008001031001KA1120M+02721MA1999999076231MD1999999+0021MW1051REMSYN094AAXX  08181 63334 41560 72702 10196 20032 37623 40075 70521 84530 333 10272 58002 84627 83360;
0171633340999992000030903004+10350+037720FM-12+2476HADM V0200901N002012200019N0150001N1+01021+00721101741ADDGA1021+060009019GF102991001001999999001011MA1999999076321MD1999999+0121MW1101REMSYN082AAXX  09031 63334 41965 20902 10102 20072 37632 40174 710// 80001 333 58012 82070;
0225633340999992000030906004+10350+037720FM-12+2476HADM V0201201N004012200019N0200001N1+01821+00661100961ADDAA124000391AY101061GA1001+999999999GF100991001001999999001001KA1120N+00961MA1999999076321MD1999999+0121MW1051REMSYN104AAXX  09061 63334 11970 01204 10182 20066 37632 40096 69934 7050/ 333 20096 58012 555 22084 32/// 10272;
0187633340999992000030909004+10350+037720FM-12+2476HADM V0201801N006012200019N0200001N1+02321+00381100491ADDAY101031AY201031GA1011+009009029GF101991011011008001001001MA1999999076311MD1999999+0041MW1051REMSYN082AAXX  09091 63334 41570 11806 10232 20038 37631 40049 70500 81100 333 58004 81830;
0193633340999992000030912004+10350+037720FM-12+2476HADM V0202501N004012200019N0250001N1+02821+00101100111ADDAY101061AY201061GA1041+000159099GF104991041091008001001001MA1999999076171MD1999999-0021MW1051REMSYN088AAXX  09121 63334 41575 42504 10282 20010 37617 40011 70500 84900 333 59002 81926 83827;
0203633340999992000030915004+10350+037720FM-12+2476HADM V0202701N001012200019N0150001N1+02461+99999100221ADDAA112999999AY101031AY201031GA1041+000159099GF104991041091008001001001MA1999999076191MW1051REMSYN082AAXX  09151 63334 41565 42701 10246 37619 40022 70500 84900 333 69002 81826 83827;EQDQ01  89992PRCP12
0225633340999992000030918004+10350+037720FM-12+2476HADM V0202701N001012200019N0200001N1+01801+00301100822ADDAY101061AY201061GA1031+008109029GF103991031011008001001001KA1120M+02651MA1999999076201MD1999999-0031MW1051REMSYN088AAXX  09181 63334 41570 32701 10180 20030 37620 40082 70500 83100 333 10265 59003 83827;EQDQ01+100823APOSLP
0219633340999992000031006004+10350+037720FM-12+2476HADM V0201201N003012200019N0200001N1+01721+00361101051ADDAA124000191AY101061GA1001+999999999GF100991001001999999001001KA1120N+01081MA1999999076291MD1999999-0031MW1051REMSYN098AAXX  10061 63334 11970 01203 10172 20036 37629 40105 69924 7050/ 333 20108 59003 555 22103 10265;
0187633340999992000031009004+10350+037720FM-12+2476HADM V0201201N001012200019N0250001N1+02401+00201100331ADDAY101031AY201031GA1011+008409029GF101991011011008001001001MA1999999076251MD1999999-0061MW1051REMSYN082AAXX  10091 63334 41575 11201 10240 20020 37625 40033 70500 81100 333 59006 81828;
0193633340999992000031012004+10350+037720FM-12+2476HADM V0201501N002012200019N0200001N1+02621-00021100091ADDAY101061AY201061GA1021+009009019GF103991021011008001031001MA1999999076211MD1999999+0041MW1051REMSYN088AAXX  10121 63334 41570 31502 10262 21002 37621 40009 70500 82130 333 58004 82830 81360;
0193633340999992000031015004+10350+037720FM-12+2476HADM V0209999C000012200019N0200001N1+02521-00021100181ADDAY101031AY201031GA1021+009009019GF103991021011008001031001MA1999999076201MD1999999+0011MW1051REMSYN088AAXX  10151 63334 41570 30000 10252 21002 37620 40018 70500 82130 333 58001 82830 81360;
0212633340999992000031018004+10350+037720FM-12+2476HADM V0209999C000012200019N0200001N1+01921+00321100731ADDAY101061AY201061GA1011+009009099GF103991011091008001031001KA1120M+02781MA1999999076221MD1999999+0021MW1131REMSYN094AAXX  10181 63334 41570 30000 10192 20032 37622 40073 71300 81930 333 10278 58002 81927 82360;
0159633340999992000031103004+10350+037720FM-12+2476HADM V0200801N004012200019N0250001N1+01301-00201101381ADDGA1001+999999999GF100991001001999999001001MA1999999076251MD1999999+0021MW1051REMSYN070AAXX  11031 63334 41975 00804 10130 21020 37625 40138 705// 333 58002;
0226633340999992000031106004+10350+037720FM-12+2476HADM V0200801N005012200019N0250001N1+01901-00591100861ADDAA199000091AY101061GA1001+999999999GF100991001001999999001001KA1120N+01301MA1999999076321MD1999999+0031MW1051REMSYN086AAXX  11061 63334 31975 00805 10190 21059 37632 40086 7050/ 333 20130 58003 555 22099;EQDQ01  00002PRCP99
0187633340999992000031109004+10350+037720FM-12+2476HADM V0201501N004012200019N0250001N1+02421-00811100401ADDAY101031AY201031GA1021+008409029GF102991021011008001001001MA1999999076321MD1999999+0021MW1051REMSYN082AAXX  11091 63334 41575 21504 10242 21081 37632 40040 70500 82100 333 58002 82828;
0193633340999992000031115004+10350+037720FM-12+2476HADM V0209999C000012200019N0250001N1+02461-00381100331ADDAY101031AY201031GA1021+009009029GF103991021021008001031001MA1999999076211MD1999999+0011MW1051REMSYN088AAXX  11151 63334 41575 30000 10246 21038 37621 40033 70500 82230 333 58001 82828 81360;
0212633340999992000031118004+10350+037720FM-12+2476HADM V0209999C000012200019N0250001N1+01801-00371100821ADDAY101061AY201061GA1011+009009019GF103991011011008001031001KA1120M+02801MA1999999076221MD1999999+0001MW1051REMSYN094AAXX  11181 63334 41575 30000 10180 21037 37622 40082 70500 81130 333 10280 58000 81828 82360;
0159633340999992000031203004+10350+037720FM-12+2476HADM V0200701N004012200019N0200001N1+01381+00041101441ADDGA1001+999999999GF100991001001999999001001MA1999999076301MD1999999+0051MW1051REMSYN070AAXX  12031 63334 41970 00704 10138 20004 37630 40144 705// 333 58005;
0232633340999992000031206004+10350+037720FM-12+2476HADM V0200901N006012200019N0200001N1+01741-00021101071ADDAA199000091AY101061GA1001+999999999GF100991001001999999001001KA1120N+01261MA1999999076741MD1999999+0021MW1051REMSYN092AAXX  12061 63334 31970 00906 10174 21002 37674 40107 7050/ 333 20126 58002 555 22104 10280;EQDQ01  00002PRCP99
0187633340999992000031209004+10350+037720FM-12+2476HADM V0201201N004012200019N0200001N1+02321-00181100861ADDAY101031AY201031GA1011+009009029GF101991011011008001001001MA1999999076381MD1999999+0031MW1051REMSYN082AAXX  12091 63334 41570 11204 10232 21018 37638 40086 70500 81100 333 58003 81830;
0206633340999992000031212004+10350+037720FM-12+2476HADM V0200701N004012200019N0250001N1+02621-00821100222ADDAY101061AY201061GA1011+009009029GF101991011011008001001001MA1999999076281MD1999999+0001MW1051REMSYN082AAXX  12121 63334 41575 10704 10262 21082 37628 40022 70500 81100 333 58000 81830;EQDQ01+100223APOSLP
0187633340999992000031215004+10350+037720FM-12+2476HADM V0201701N006012200019N0250001N1+02541-00961100261ADDAY101031AY201031GA1011+009009029GF101991011011008001001001MA1999999076311MD1999999+0101MW1051REMSYN082AAXX  12151 63334 41575 11706 10254 21096 37631 40026 70500 81100 333 58010 81830;
0213633340999992000031218004+10350+037720FM-12+2476HADM V0209999C000012200019N0250001N1+01801-00681100962ADDAY101061AY201061GA1001+999999999GF100991001001999999001001KA1120M+02781MA1999999076311MD1999999+0091MW1051REMSYN076AAXX  12181 63334 41975 00000 10180 21068 37631 40096 70500 333 10278 58009;EQDQ01+100963APOSLP
0159633340999992000031303004+10350+037720FM-12+2476HADM V0200901N002012200019N0200001N1+01041-00521101691ADDGA1001+999999999GF100991001001999999001001MA1999999076301MD1999999+0001MW1051REMSYN070AAXX  13031 63334 41970 00902 10104 21052 37630 40169 705// 333 58000;
0206633340999992000031309004+10350+037720FM-12+2476HADM V0201901N004012200019N0200001N1+02882-01021100492ADDAY101031AY201031GA1011+009009029GF101991011011999999001001MA1999999076281MD1999999-0071MW1051REMSYN082AAXX  13091 63334 41970 11904 10288 21102 37628 40049 70500 81100 333 59007 81830;EQDQ01+100493APOSLP
0187633340999992000031312004+10350+037720FM-12+2476HADM V0202401N002012200019N0250001N1+02601-00621100091ADDAY101061AY201061GA1011+009009029GF101991011011008001001001MA1999999076211MD1999999-0071MW1051REMSYN082AAXX  13121 63334 41575 12402 10260 21062 37621 40009 70500 81100 333 59007 81830;
0187633340999992000031315004+10350+037720FM-12+2476HADM V0202501N001012200019N0150001N1+02501-00611100181ADDAY101031AY201031GA1021+009009029GF102991021011008001001001MA1999999076181MD1999999-0131MW1051REMSYN082AAXX  13151 63334 41565 22501 10250 21061 37618 40018 70500 82100 333 59013 82830;
0166633340999992000031318004+10350+037720FM-12+2476HADM V0209999C000012200019N0150001N1+01921-00801100731ADDGA1001+999999999GF100991001001999999001001KA1120M+02661MA1999999076211MD1999999-0101REMSYN070AAXX  13181 63334 42965 00000 10192 21080 37621 40073 333 10266 59010;
0226633340999992000031406004+10350+037720FM-12+2476HADM V0201001N002012200019N0250001N1+02001-00301100701ADDAA199000091AY101061GA1001+999999999GF100991001001999999001001KA1120N+01051MA1999999076251MD1999999-0071MW1051REMSYN086AAXX  14061 63334 31975 01002 10200 21030 37625 40070 7050/ 333 20105 59007 555 22107;EQDQ01  00002PRCP99
0213633340999992000031409004+10350+037720FM-12+2476HADM V0201001N002012200019N0250001N1+02001-00301100701ADDAA199000091AY101031GA1001+999999999GF100991001001999999001001MA1999999076251MD1999999-0071MW1051REMSYN086AAXX  14091 63334 31975 01002 10200 21030 37625 40070 7050/ 333 201/5 59007 555 22107;EQDQ01  00002PRCP99
0206633340999992000031412004+10350+037720FM-12+2476HADM V0201801N002012200019N0250001N1+02641-00901099982ADDAY101061AY201061GA1011+009009029GF101991011011008001001001MA1999999076141MD1999999-0071MW1051REMSYN082AAXX  14121 63334 41575 11802 10264 21090 37614 49998 70500 81100 333 59007 81830;EQDQ01+099983APOSLP
0194633340999992000031418004+10350+037720FM-12+2476HADM V0209999C000012200019N0250001N1+99999+99999100761ADDAY101061AY201061GA1001+999999999GF100991001001999999001001KA1120M+02721MA1999999076141MD1999999-0071MW1051REMSYN076AAXX  14181 63334 41975 00000 10780 21026 37614 40076 70500 333 10272 59007;
0171633340999992000031503004+10350+037720FM-12+2476HADM V0200901N001012200019N0150001N1+01101-00341101511ADDGA1011+030009079GF101991011001999999031001MA1999999076201MD1999999-0041MW1051REMSYN082AAXX  15031 63334 41965 10901 10110 21034 37620 40151 705// 81030 333 59004 81360;
0250633340999992000031506004+10350+037720FM-12+2476HADM V0201901N001012200019N0150001N1+01841-00201100841ADDAA199000091AY101061GA1011+000159019GF101991011011008001001001KA1120N+01061MA1999999076271MD1999999+0021MW1051REMSYN110AAXX  15061 63334 31565 11901 10184 21020 37627 40084 7050/ 81100 333 20106 58002 81830 555 22105 32/// 10272;EQDQ01  00002PRCP99
0206633340999992000031512004+10350+037720FM-12+2476HADM V0202501N002012200019N0150001N1+02601-00301100022ADDAY101061AY201061GA1021+009009029GF102991021011008001001001MA1999999076171MD1999999+0031MW1051REMSYN082AAXX  15121 63334 41565 22502 10260 21030 37617 40002 70500 82100 333 58003 82830;EQDQ01+100023APOSLP
0193633340999992000031515004+10350+037720FM-12+2476HADM V0202401N00401000151CN0180001N1+02501-00301100111ADDAY101031AY201031GA1051+000159099GF105991051091008001001001MA1999999076171MD1999999+0071MW1051REMSYN088AAXX  15151 63334 41568 52404 10250 21030 37617 40011 70500 85900 333 58007 81927 84828;
0171633340999992000031603004+10350+037720FM-12+2476HADM V0209999C000012200019N0200001N1+01161-00101101461ADDGA1021+060009019GF102991001001999999001011MA1999999076221MD1999999+0021MW1051REMSYN082AAXX  16031 63334 41970 20000 10116 21010 37622 40146 705// 80001 333 58002 82070;
0232633340999992000031606004+10350+037720FM-12+2476HADM V0200801N002012200019N0200001N1+01681+00121100921ADDAA199000091AY101061GA1001+999999999GF100991001001999999001001KA1120N+01151MA1999999076241MD1999999-0031MW1051REMSYN092AAXX  16061 63334 31970 00802 10168 20012 37624 40092 7050/ 333 20115 59003 555 22102 10275;EQDQ01  00002PRCP99
0187633340999992000031609004+10350+037720FM-12+2476HADM V0201001N004012200019N0250001N1+02501-00581100181ADDAY101031AY201031GA1021+008409029GF102991021021008001001001MA1999999076181MD1999999-0051MW1051REMSYN082AAXX  16091 63334 41575 21004 10250 21058 37618 40018 70500 82200 333 59005 82828;
0187633340999992000031612004+10350+037720FM-12+2476HADM V0202401N004012200019N0200001N1+02701-00551100001ADDAY101061AY201061GA1021+009009029GF102991021011008001001001MA1999999076191MD1999999+0031MW1051REMSYN082AAXX  16121 63334 41570 22404 10270 21055 37619 40000 70500 82100 333 58003 82830;
0199633340999992000031615004+10350+037720FM-12+2476HADM V0202401N001012200019N0150001N1+02581-00781100021ADDAY101031AY201031GA1031+009009089GF103991031081008001031001MA1999999076141MD1999999-0031MW1051REMSYN094AAXX  16151 63334 41565 32401 10258 21078 37614 40002 70500 83830 333 59003 81830 82630 81360;
0231633340999992000031618004+10350+037720FM-12+2476HADM V0209999C000012200019N0150001N1+01921+00041100622ADDAY101061AY201061GA1011+009009089GF102991999999008001999999KA1120M+02841MA1999999076161MD1999999-0031MW1051REMSYN094AAXX  16181 63334 41565 20000 10192 20004 37616 40062 70500 91130 333 10284 59003 81830 81360;EQDQ01+100623APOSLP
0177633340999992000031703004+10350+037720FM-12+2476HADM V0201001N002012200019N0150001N1+01421+00161101211ADDGA1011+009009059GF102991011051008001031001MA1999999076181MD1999999-0041MW1051REMSYN088AAXX  17031 63334 41565 21002 10142 20016 37618 40121 705// 81530 333 59004 81630 81360;
0238633340999992000031706004+10350+037720FM-12+2476HADM V0201201N004012200019N0200001N1+02081-00301100611ADDAA199000091AY101061GA1001+999999999GF100991001001999999001001KA1120N+01241MA1999999076231MD1999999-0011MW1051REMSYN098AAXX  17061 63334 31970 01204 10208 21030 37623 40061 7050/ 333 20124 59001 555 22102 32/// 10284;EQDQ01  00002PRCP99
0206633340999992000031712004+10350+037720FM-12+2476HADM V0201101N004012200019N0250001N1+02721-00621099802ADDAY101061AY201061GA1021+009009029GF102991021021008001001001MA1999999076041MD1999999-0151MW1051REMSYN082AAXX  17121 63334 41575 21104 10272 21062 37604 49980 70500 82200 333 59015 82830;EQDQ01+099803APOSLP
0159633340999992000031803004+10350+037720FM-12+2476HADM V0200901N001012200019N0150001N1+01361-00301101191ADDGA1001+999999999GF100991001001999999001001MA1999999076131MD1999999-0051MW1051REMSYN070AAXX  18031 63334 41965 00901 10136 21030 37613 40119 705// 333 59005;
0199633340999992000031812004+10350+037720FM-12+2476HADM V0202601N00201009001CN0150001N1+02581+00021099891ADDAY101061AY201061GA1051+009009089GF105991051081008001031001MA1999999076041MD1999999+0001MW1051REMSYN094AAXX  18121 63334 41565 52602 10258 20002 37604 49989 70500 85830 333 58000 82827 83628 81360;
0131633340999992000031815004+10350+037720FM-12+2476HADM V0202701N002019999999N0150001N1+01422+99999999999ADDGF105991999999008001999999REMSYN093AAXX  18151 63334 41565 52702 10142 2011 37604 40101 72120 85900 333 58002 81926 82827 82627;
0231633340999992000031818004+10350+037720FM-12+2476HADM V0203601N002012200019N0150001N1+01701+00421100732ADDAY161061AY221061GA1011+009009019GF102991011011008001031001KA1120M+02801MA1999999076061MD1999999-0021MW1051REMSYN094AAXX  18181 63334 41565 23602 10170 20042 37606 40073 70562 81130 333 10280 59002 81830 81360;EQDQ01+100733APOSLP
0231633340999992000031906004+10350+037720FM-12+2476HADM V0201401N002012200019N0250001N1+02041+00501100721ADDAA124000391AY101061GA1021+000159019GF102991021011008001001001KA1120N+01221MA1999999076291MD1999999+0101MW1051REMSYN110AAXX  19061 63334 11575 21402 10204 20050 37629 40072 69934 7050/ 82100 333 20122 58010 82828 555 22076 10280;
0205633340999992000031909004+10350+037720FM-12+2476HADM V0201401N00201045001CN0250001N1+02381+00351100331ADDAY101031AY201031GA1031+011709039GF106991031031008001031091MA1999999076271MD1999999+0101MW1051REMSYN100AAXX  19091 63334 41575 61402 10238 20035 37627 40033 70500 83339 333 58010 81927 82828 82360 81170;
0193633340999992000031912004+10350+037720FM-12+2476HADM V0201501N00401045001CN0250001N1+02701-00101099961ADDAY121061AY201061GA1031+009009029GF106991031021008001031001MA1999999076171MD1999999+0161MW1051REMSYN088AAXX  19121 63334 41575 61504 10270 21010 37617 49996 70520 83230 333 58016 83827 83360;
0231633340999992000031918004+10350+037720FM-12+2476HADM V0209999C00001045001CN0150001N1+01681+00421100922ADDAY121061AY221061GA1021+015009019GF107991021011008001051001KA1120M+02761MA1999999076191MD1999999+0131MW1051REMSYN094AAXX  19181 63334 41565 70000 10168 20042 37619 40092 70522 82150 333 10276 58013 82828 85360;EQDQ01+100923APOSLP
0177633340999992000032003004+10350+037720FM-12+2476HADM V0200201N002012200019N0200001N1+01301-00221101311ADDGA1011+000309019GF102991011011008001001011MA1999999076201MD1999999+0051MW1051REMSYN088AAXX  20031 63334 41570 20202 10130 21022 37620 40131 705// 81101 333 58005 81830 81070;
0159633340999992000032012004+10350+037720FM-12+2476HADM V0200601N004012200019N0300001N1+02621-00161100091ADDGA1011+009009029GF101991011011008001001001MA1999999076191MD1999999+0021REMSYN076AAXX  20121 63334 42580 10604 10262 21016 37619 40009 81100 333 58002 81830;
0159633340999992000032015004+10350+037720FM-12+2476HADM V0200901N006012200019N0300001N1+02501-00861100111ADDGA1021+009009029GF102991021011008001001001MA1999999076171MD1999999+0001REMSYN076AAXX  20151 63334 42580 20906 10250 21086 37617 40011 82100 333 58000 82830;
0197633340999992000032018004+10350+037720FM-12+2476HADM V0200901N004012200019N0300001N1+01861-01101100782ADDGA1011+009009029GF101991011011008001001001KA1120M+02681MA1999999076201MD1999999+0011REMSYN082AAXX  20181 63334 42580 10904 10186 21110 37620 40078 81100 333 10268 58001 81830;EQDQ01+100783APOSLP
0159633340999992000032103004+10350+037720FM-12+2476HADM V0200601N005012200019N0300001N1+01321-00401101381ADDGA1011+060009019GF101991001001999999001011MA1999999076241MD1999999+0041REMSYN076AAXX  21031 63334 43980 10605 10132 21040 37624 40138 80001 333 58004 81070;
0214633340999992000032106004+10350+037720FM-12+2476HADM V0200901N006012200019N0300001N1+01901-00301100861ADDAA199000091GF101991001001999999001011KA1120N+01281MA1999999076281MD1999999+0041REMSYN104AAXX  21061 63334 32980 10906 10190 21030 37628 40086 80001 333 20128 58004 81070 555 22109 32/// 10268;EQDQ01  00002PRCP99
0212633340999992000032206004+10350+037720FM-12+2476HADM V0200801N006012200019N0300001N1+01741-01031100941ADDAA199000091GA1001+999999999GF100991001001999999001001KA1120N+01261MA1999999076241MD1999999-0041REMSYN086AAXX  22061 63334 32980 00806 10174 21103 37624 40094 333 20126 59004 555 22112 10275;EQDQ01  00002PRCP99
0147633340999992000032209004+10350+037720FM-12+2476HADM V0201501N006012200019N0300001N1+02341-01201100311ADDGA1001+999999999GF100991001001999999001001MA1999999076211MD1999999-0151REMSYN064AAXX  22091 63334 42980 01506 10234 21120 37621 40031 333 59015;
0159633340999992000032212004+10350+037720FM-12+2476HADM V0201201N005012200019N0300001N1+02661-00961100041ADDGA1011+009009029GF101991011011008001001001MA1999999076191MD1999999+0021REMSYN076AAXX  22121 63334 42580 11205 10266 21096 37619 40004 81100 333 58002 81830;
0184633340999992000032215004+10350+037720FM-12+2476HADM V0201801N004012200019N0300001N1+02581+99999100091ADDGA1011+009009019GF102991011011008001031001MA1999999076181MD1999999-0011REMSYN082AAXX  22151 63334 42580 21804 10258 21220 37618 40009 81130 333 59001 81830 81360;EQDQ01-002203ATOD  
0185633340999992000032218004+10350+037720FM-12+2476HADM V0201801N002012200019N0300001N1+01821-00561100822ADDGA1001+999999999GF100991001001999999001001KA1120M+02781MA1999999076201MD1999999-0011REMSYN070AAXX  22181 63334 42980 01802 10182 21056 37620 40082 333 10278 59001;EQDQ01+100823APOSLP
0147633340999992000032303004+10350+037720FM-12+2476HADM V0200801N006012200019N0300001N1+01441-01201101161ADDGA1001+999999999GF100991001001999999001001MA1999999076211MD1999999-0021REMSYN064AAXX  23031 63334 43980 00806 10144 21120 37621 40116 333 59002;
0218633340999992000032306004+10350+037720FM-12+2476HADM V0200901N006012200019N0300001N1+01881-01301100731ADDAA199000091GA1001+999999999GF100991001001999999001001KA1120N+01341MA1999999076211MD1999999-0031REMSYN092AAXX  23061 63334 32980 00906 10188 21130 37621 40073 333 20134 59003 555 22111 32/// 10278;EQDQ01  00002PRCP99
0147633340999992000032309004+10350+037720FM-12+2476HADM V0201501N006012200019N0300001N1+02481-01101100181ADDGA1001+999999999GF100991001001999999001001MA1999999076191MD1999999-0031REMSYN064AAXX  23091 63334 42580 01506 10248 21110 37619 40018 333 59003;
0159633340999992000032312004+10350+037720FM-12+2476HADM V0202001N004012200019N0300001N1+02741-02001099971ADDGA1011+009009029GF101991011011008001001001MA1999999076011MD1999999-0181REMSYN076AAXX  23121 63334 42580 12004 10274 21200 37601 49997 81100 333 59018 81830;
0159633340999992000032315004+10350+037720FM-12+2476HADM V0202501N002012200019N0300001N1+02641-01821099781ADDGA1021+009009029GF102991021011008001001001MA1999999076001MD1999999-0181REMSYN076AAXX  23151 63334 42580 22502 10264 21182 37600 49978 82100 333 59018 82830;
0197633340999992000032318004+10350+037720FM-12+2476HADM V0209999C000012200019N0300001N1+01781-00861100562ADDGA1011+009009029GF101991011011008001001001KA1120M+02841MA1999999076011MD1999999-0111REMSYN082AAXX  23181 63334 42580 10000 10178 21086 37601 40056 81100 333 10284 59011 81830;EQDQ01+100563APOSLP
0236633340999992000032406004+10350+037720FM-12+2476HADM V0203301N00201045001CN0300001N1+01421+00001101211ADDAA199000091GA1041+009009099GF105991041091008001031001KA1120N+01101MA1999999076201MD1999999-0011REMSYN110AAXX  24061 63334 32580 53302 10142 20000 37620 40121 84930 333 20110 59001 81927 83828 81360 555 22111 10284;EQDQ01  00002PRCP99
0193633340999992000032412004+10350+037720FM-12+2476HADM V0201801N00201000151CN0150001N1+02621+00081100021ADDAY111061AY211061GA1061+000159089GF106991061081008001001001MA1999999076141MD1999999+0131MW1051REMSYN088AAXX  24121 63334 41565 61802 10262 20008 37614 40002 70511 86800 333 58013 83626 83827;
0199633340999992000032415004+10350+037720FM-12+2476HADM V0202701N00301045001CN0150001N1+02441-00081100021ADDAY121031AY211031GA1041+009009089GF106991041081008001031001MA1999999076041MD1999999+0041MW1051REMSYN094AAXX  24151 63334 41565 62703 10244 21008 37604 40002 70521 84830 333 58004 82626 82827 83360;
0218633340999992000032418004+10350+037720FM-12+2476HADM V0203601N00201045001CN0150001N1+02021+00071100571ADDAY121061AY221061GA1031+009009099GF106991031091008001031001KA1120M+02881MA1999999076131MD1999999+0121MW1051REMSYN100AAXX  24181 63334 41565 63602 10202 20007 37613 40057 70522 83930 333 10288 58012 81925 82626 83360;
0250633340999992000032506004+10350+037720FM-12+2476HADM V0209999C00001045001CN0080001N1+01961+00291100751ADDAA199000091AY121061GA1021+009009019GF105991021011008001031001KA1120N+01341MA1999999076261MD1999999+0061MW1051REMSYN110AAXX  25061 63334 31558 50000 10196 20029 37626 40075 7052/ 82130 333 20134 58006 82826 83360 555 22042 10288;EQDQ01  00002PRCP99
0193633340999992000032515004+10350+037720FM-12+2476HADM V0203301N00201000151CN0100001N1+02341+00201100311ADDAY131031AY231031GA1051+000159099GF105991051091008001001001MA1999999076181MD1999999+0141MW1061REMSYN088AAXX  25151 63334 41560 53302 10234 20020 37618 40031 70633 85900 333 58014 81926 84827;
0212633340999992000032518004+10350+037720FM-12+2476HADM V0209999C00001000151CN0100001N1+01961+00151100621ADDAY121061AY221061GA1051+000159099GF105991051091008001001001KA1120M+02781MA1999999076151MD1999999+0021MW1131REMSYN094AAXX  25181 63334 41560 50000 10196 20015 37615 40062 71322 85900 333 10278 58002 81926 84827;
0232633340999992000032606004+10350+037720FM-12+2476HADM V0201201N002012200019N0100001N1+01781+00241100891ADDAA199000091AY101061GA1001+999999999GF100991001001999999001001KA1120N+01061MA1999999076271MD1999999+0011MW1061REMSYN092AAXX  26061 63334 31960 01202 10178 20024 37627 40089 7060/ 333 20106 58001 555 22079 10278;EQDQ01  00002PRCP99
0187633340999992000032609004+10350+037720FM-12+2476HADM V0201801N002012200019N0100001N1+02381-00141100271ADDAY131031AY201031GA1011+009009029GF101991011011008001001001MA1999999076221MD1999999-0011MW1061REMSYN082AAXX  26091 63334 41560 11802 10238 21014 37622 40027 70630 81100 333 59001 81830;
0187633340999992000032612004+10350+037720FM-12+2476HADM V0201201N004012200019N0200001N1+02621-00161100091ADDAY131061AY231061GA1031+006909029GF103991031021008001001001MA1999999076181MD1999999+0011MW1051REMSYN082AAXX  26121 63334 41570 31204 10262 21016 37618 40009 70533 83200 333 58001 83823;
0206633340999992000032618004+10350+037720FM-12+2476HADM V0209999C000012200019N0100001N1+01781+00321100821ADDAY101061AY201061GA1011+008109029GF101991011011008001001001KA1120M+02741MA1999999076201MD1999999+0051MW1051REMSYN088AAXX  26181 63334 41560 10000 10178 20032 37620 40082 70500 81100 333 10274 58005 81827;
0244633340999992000032706004+10350+037720FM-12+2476HADM V0200901N001012200019N0150001N1+01561-00041101131ADDAA199000091AY101061GA1011+000159019GF101991011011008001001001KA1120N+01141MA1999999076241MD1999999-0031MW1051REMSYN104AAXX  27061 63334 31565 10901 10156 21004 37624 40113 7050/ 81100 333 20114 59003 81830 555 22083 10274;EQDQ01  00002PRCP99
0187633340999992000032709004+10350+037720FM-12+2476HADM V0200901N004012200019N0200001N1+02301-00021100401ADDAY101031AY201031GA1031+008109029GF103991031011008001001001MA1999999076231MD1999999+0011MW1051REMSYN082AAXX  27091 63334 41570 30904 10230 21002 37623 40040 70500 83100 333 58001 83827;
0193633340999992000032715004+10350+037720FM-12+2476HADM V0201701N001012200019N0200001N1+02361-00141100251ADDAY101031AY201031GA1021+000309019GF103991021011008001001011MA1999999076151MD1999999-0021MW1051REMSYN088AAXX  27151 63334 41570 31701 10236 21014 37615 40025 70500 82101 333 59002 82828 81070;
0206633340999992000032718004+10350+037720FM-12+2476HADM V0209999C000012200019N0200001N1+01861+00121100781ADDAY101061AY201061GA1021+008109029GF102991021011008001001001KA1120M+02701MA1999999076201MD1999999+0001MW1051REMSYN088AAXX  27181 63334 41570 20000 10186 20012 37620 40078 70500 82100 333 10270 58000 82827;
0177633340999992000032803004+10350+037720FM-12+2476HADM V0200901N001012200019N0200001N1+01301+00311101381ADDGA1011+000309059GF102991011051008001001011MA1999999076241MD1999999+0021MW1051REMSYN088AAXX  28031 63334 41570 20901 10130 20031 37624 40138 705// 81501 333 58002 81630 81070;
0187633340999992000032812004+10350+037720FM-12+2476HADM V0202701N002012200019N0200001N1+02661+00001100041ADDAY101061AY201061GA1021+009009029GF102991021011008001001001MA1999999076191MD1999999+0021MW1051REMSYN082AAXX  28121 63334 41570 22702 10266 2000/ 37619 40004 70500 82100 333 58002 82830;
0206633340999992000032818004+10350+037720FM-12+2476HADM V0200601N002012200019N0200001N1+01801+00181100821ADDAY101061AY201061GA1011+009009029GF101991011011008001001001KA1120M+02821MA1999999076221MD1999999+0081MW1051REMSYN088AAXX  28181 63334 41570 10602 10180 20018 37622 40082 70500 81100 333 10282 58008 81830;
0171633340999992000032903004+10350+037720FM-12+2476HADM V0200601N003012200019N0200001N1+01321+00101101311ADDGA1021+030009079GF102991021001999999031001MA1999999076221MD1999999-0031MW1051REMSYN082AAXX  29031 63334 41970 20603 10132 20010 37622 40131 705// 82030 333 59003 82360;
0244633340999992000032906004+10350+037720FM-12+2476HADM V0200901N002012200019N0200001N1+01921+00001100801ADDAA199000091AY101061GA1011+009009009GF101991011001999999031001KA1120N+01301MA1999999076241MD1999999-0021MW1051REMSYN104AAXX  29061 63334 31970 10902 10192 20000 37624 40080 7050/ 81030 333 20130 59002 81360 555 22096 10282;EQDQ01  00002PRCP99
0187633340999992000032909004+10350+037720FM-12+2476HADM V0201701N004012200019N0200001N1+02441-00241100291ADDAY101031AY201031GA1011+009009029GF101991011011008001001001MA1999999076251MD1999999+0021MW1051REMSYN082AAXX  29091 63334 41570 11704 10244 21024 37625 40029 70500 81100 333 58002 81830;
0187633340999992000032912004+10350+037720FM-12+2476HADM V0200901N001012200019N0250001N1+02641-00221099981ADDAY101061AY201061GA1041+008409029GF104991041021008001001001MA1999999076171MD1999999-0021MW1051REMSYN082AAXX  29121 63334 41575 40901 10264 21022 37617 49998 70500 84200 333 59002 84828;
0193633340999992000032915004+10350+037720FM-12+2476HADM V0202901N00601000151CN0100001N1+02201+00121100381ADDAY111031AY201031GA1051+000159099GF105991051091008001001001MA1999999076171MD1999999+0001MW1171REMSYN088AAXX  29151 63334 41560 52906 10220 20012 37617 40038 71710 85900 333 58000 81925 84826;
0212633340999992000032918004+10350+037720FM-12+2476HADM V0203301N002012200019N0100001N1+01941+00161100681ADDAY191061AY211061GA1041+000159099GF104991041091008001001001KA1120M+02751MA1999999076221MD1999999+0001MW1131REMSYN094AAXX  29181 63334 41560 43302 10194 20016 37622 40068 71391 84900 333 10275 58000 81926 83827;
0193633340999992000033012004+10350+037720FM-12+2476HADM V0200901N00201000151CN0150001N1+02441+00261100221ADDAY121061AY221061GA1061+000159089GF106991061081008001001001MA1999999076191MD1999999+0021MW1051REMSYN088AAXX  30121 63334 41565 60902 10244 20026 37619 40022 70522 86800 333 58002 82626 83827;
0218633340999992000033018004+10350+037720FM-12+2476HADM V0203601N00201045001CN0150001N1+01761+00621100871ADDAY191061AY221061GA1031+000609069GF108991031091008001071999KA1120M+02601MA1999999076181MD1999999-0041MW1291REMSYN100AAXX  30181 63334 41565 83602 10176 20062 37618 40087 72992 8397/ 333 10260 59004 81924 82825 86459;
0171633340999992000033103004+10350+037720FM-12+2476HADM V0200801N002012200019N0200001N1+01101+00731101571ADDGA1011+030009079GF101991011001999999031001MA1999999076241MD1999999-0031MW1051REMSYN082AAXX  31031 63334 41970 10802 10110 20073 37624 40157 705// 81030 333 59003 81360;
